[{"name":"Abt-Moser-Str.","postalCode":"88339","locality":"Bad Waldsee","municipality":{"key":"08436009","name":"Bad Waldsee, Stadt","type":"Große_Kreisstadt"},"district":{"key":"08436","name":"Ravensburg","type":"Landkreis"},"federalState":{"key":"08","name":"Baden-Württemberg"}},{"name":"Achweg","postalCode":"88339","locality":"Bad Waldsee","municipality":{"key":"08436009","name":"Bad Waldsee, Stadt","type":"Große_Kreisstadt"},"district":{"key":"08436","name":"Ravensburg","type":"Landkreis"},"federalState":{"key":"08","name":"Baden-Württemberg"}},{"name":"Adalbert-Stifter-Str.","postalCode":"67165","locality":"Waldsee","municipality":{"key":"07338026","name":"Waldsee","type":"Kreisangehörige_Gemeinde"},"district":{"key":"07338","name":"Rhein-Pfalz-Kreis","type":"Landkreis"},"federalState":{"key":"07","name":"Rheinland-Pfalz"}},{"name":"Adlergasse","postalCode":"88339","locality":"Bad Waldsee","municipality":{"key":"08436009","name":"Bad Waldsee, Stadt","type":"Große_Kreisstadt"},"district":{"key":"08436","name":"Ravensburg","type":"Landkreis"},"federalState":{"key":"08","name":"Baden-Württemberg"}},{"name":"Ahornweg","postalCode":"88339","locality":"Bad Waldsee","municipality":{"key":"08436009","name":"Bad Waldsee, Stadt","type":"Große_Kreisstadt"},"district":{"key":"08436","name":"Ravensburg","type":"Landkreis"},"federalState":{"key":"08","name":"Baden-Württemberg"}},{"name":"Akazienstr.","postalCode":"67165","locality":"Waldsee","municipality":{"key":"07338026","name":"Waldsee","type":"Kreisangehörige_Gemeinde"},"district":{"key":"07338","name":"Rhein-Pfalz-Kreis","type":"Landkreis"},"federalState":{"key":"07","name":"Rheinland-Pfalz"}},{"name":"Akazienweg","postalCode":"88339","locality":"Bad Waldsee","municipality":{"key":"08436009","name":"Bad Waldsee, Stadt","type":"Große_Kreisstadt"},"district":{"key":"08436","name":"Ravensburg","type":"Landkreis"},"federalState":{"key":"08","name":"Baden-Württemberg"}},{"name":"Albert-Einstein-Allee","postalCode":"67165","locality":"Waldsee","municipality":{"key":"07338026","name":"Waldsee","type":"Kreisangehörige_Gemeinde"},"district":{"key":"07338","name":"Rhein-Pfalz-Kreis","type":"Landkreis"},"federalState":{"key":"07","name":"Rheinland-Pfalz"}},{"name":"Alois-Lang-Str.","postalCode":"88339","locality":"Bad Waldsee","municipality":{"key":"08436009","name":"Bad Waldsee, Stadt","type":"Große_Kreisstadt"},"district":{"key":"08436","name":"Ravensburg","type":"Landkreis"},"federalState":{"key":"08","name":"Baden-Württemberg"}},{"name":"Altdorfer Str.","postalCode":"88339","locality":"Bad Waldsee","municipality":{"key":"08436009","name":"Bad Waldsee, Stadt","type":"Große_Kreisstadt"},"district":{"key":"08436","name":"Ravensburg","type":"Landkreis"},"federalState":{"key":"08","name":"Baden-Württemberg"}},{"name":"Alte Bachgasse","postalCode":"88339","locality":"Bad Waldsee","municipality":{"key":"08436009","name":"Bad Waldsee, Stadt","type":"Große_Kreisstadt"},"district":{"key":"08436","name":"Ravensburg","type":"Landkreis"},"federalState":{"key":"08","name":"Baden-Württemberg"}},{"name":"Alter Bühlweg","postalCode":"88339","locality":"Bad Waldsee","municipality":{"key":"08436009","name":"Bad Waldsee, Stadt","type":"Große_Kreisstadt"},"district":{"key":"08436","name":"Ravensburg","type":"Landkreis"},"federalState":{"key":"08","name":"Baden-Württemberg"}},{"name":"Altriper Str.","postalCode":"67165","locality":"Waldsee","municipality":{"key":"07338026","name":"Waldsee","type":"Kreisangehörige_Gemeinde"},"district":{"key":"07338","name":"Rhein-Pfalz-Kreis","type":"Landkreis"},"federalState":{"key":"07","name":"Rheinland-Pfalz"}},{"name":"Am alten Sportplatz","postalCode":"88339","locality":"Bad Waldsee","municipality":{"key":"08436009","name":"Bad Waldsee, Stadt","type":"Große_Kreisstadt"},"district":{"key":"08436","name":"Ravensburg","type":"Landkreis"},"federalState":{"key":"08","name":"Baden-Württemberg"}},{"name":"Am Anger","postalCode":"88339","locality":"Bad Waldsee","municipality":{"key":"08436009","name":"Bad Waldsee, Stadt","type":"Große_Kreisstadt"},"district":{"key":"08436","name":"Ravensburg","type":"Landkreis"},"federalState":{"key":"08","name":"Baden-Württemberg"}},{"name":"Am Brünnel","postalCode":"67165","locality":"Waldsee","municipality":{"key":"07338026","name":"Waldsee","type":"Kreisangehörige_Gemeinde"},"district":{"key":"07338","name":"Rhein-Pfalz-Kreis","type":"Landkreis"},"federalState":{"key":"07","name":"Rheinland-Pfalz"}},{"name":"Am Burgstock","postalCode":"88339","locality":"Bad Waldsee","municipality":{"key":"08436009","name":"Bad Waldsee, Stadt","type":"Große_Kreisstadt"},"district":{"key":"08436","name":"Ravensburg","type":"Landkreis"},"federalState":{"key":"08","name":"Baden-Württemberg"}},{"name":"Am Haidgauer Berg","postalCode":"88339","locality":"Bad Waldsee","municipality":{"key":"08436009","name":"Bad Waldsee, Stadt","type":"Große_Kreisstadt"},"district":{"key":"08436","name":"Ravensburg","type":"Landkreis"},"federalState":{"key":"08","name":"Baden-Württemberg"}},{"name":"Am Haisterbach","postalCode":"88339","locality":"Bad Waldsee","municipality":{"key":"08436009","name":"Bad Waldsee, Stadt","type":"Große_Kreisstadt"},"district":{"key":"08436","name":"Ravensburg","type":"Landkreis"},"federalState":{"key":"08","name":"Baden-Württemberg"}},{"name":"Am Hirschkeller","postalCode":"88339","locality":"Bad Waldsee","municipality":{"key":"08436009","name":"Bad Waldsee, Stadt","type":"Große_Kreisstadt"},"district":{"key":"08436","name":"Ravensburg","type":"Landkreis"},"federalState":{"key":"08","name":"Baden-Württemberg"}},{"name":"Am Hofgarten","postalCode":"88339","locality":"Bad Waldsee","municipality":{"key":"08436009","name":"Bad Waldsee, Stadt","type":"Große_Kreisstadt"},"district":{"key":"08436","name":"Ravensburg","type":"Landkreis"},"federalState":{"key":"08","name":"Baden-Württemberg"}},{"name":"Am Kornhaus","postalCode":"88339","locality":"Bad Waldsee","municipality":{"key":"08436009","name":"Bad Waldsee, Stadt","type":"Große_Kreisstadt"},"district":{"key":"08436","name":"Ravensburg","type":"Landkreis"},"federalState":{"key":"08","name":"Baden-Württemberg"}},{"name":"Am Lettenhof","postalCode":"88339","locality":"Bad Waldsee","municipality":{"key":"08436009","name":"Bad Waldsee, Stadt","type":"Große_Kreisstadt"},"district":{"key":"08436","name":"Ravensburg","type":"Landkreis"},"federalState":{"key":"08","name":"Baden-Württemberg"}},{"name":"Am Munzenried","postalCode":"88339","locality":"Bad Waldsee","municipality":{"key":"08436009","name":"Bad Waldsee, Stadt","type":"Große_Kreisstadt"},"district":{"key":"08436","name":"Ravensburg","type":"Landkreis"},"federalState":{"key":"08","name":"Baden-Württemberg"}},{"name":"Am Ravensburger Tor","postalCode":"88339","locality":"Bad Waldsee","municipality":{"key":"08436009","name":"Bad Waldsee, Stadt","type":"Große_Kreisstadt"},"district":{"key":"08436","name":"Ravensburg","type":"Landkreis"},"federalState":{"key":"08","name":"Baden-Württemberg"}},{"name":"Am Römerbühl","postalCode":"88339","locality":"Bad Waldsee","municipality":{"key":"08436009","name":"Bad Waldsee, Stadt","type":"Große_Kreisstadt"},"district":{"key":"08436","name":"Ravensburg","type":"Landkreis"},"federalState":{"key":"08","name":"Baden-Württemberg"}},{"name":"Amselweg","postalCode":"88339","locality":"Bad Waldsee","municipality":{"key":"08436009","name":"Bad Waldsee, Stadt","type":"Große_Kreisstadt"},"district":{"key":"08436","name":"Ravensburg","type":"Landkreis"},"federalState":{"key":"08","name":"Baden-Württemberg"}},{"name":"Am Sonnenberg","postalCode":"88339","locality":"Bad Waldsee","municipality":{"key":"08436009","name":"Bad Waldsee, Stadt","type":"Große_Kreisstadt"},"district":{"key":"08436","name":"Ravensburg","type":"Landkreis"},"federalState":{"key":"08","name":"Baden-Württemberg"}},{"name":"Am Stadtgraben","postalCode":"88339","locality":"Bad Waldsee","municipality":{"key":"08436009","name":"Bad Waldsee, Stadt","type":"Große_Kreisstadt"},"district":{"key":"08436","name":"Ravensburg","type":"Landkreis"},"federalState":{"key":"08","name":"Baden-Württemberg"}},{"name":"Am Tiergarten","postalCode":"88339","locality":"Bad Waldsee","municipality":{"key":"08436009","name":"Bad Waldsee, Stadt","type":"Große_Kreisstadt"},"district":{"key":"08436","name":"Ravensburg","type":"Landkreis"},"federalState":{"key":"08","name":"Baden-Württemberg"}},{"name":"Am Wespenmoos","postalCode":"88339","locality":"Bad Waldsee","municipality":{"key":"08436009","name":"Bad Waldsee, Stadt","type":"Große_Kreisstadt"},"district":{"key":"08436","name":"Ravensburg","type":"Landkreis"},"federalState":{"key":"08","name":"Baden-Württemberg"}},{"name":"Am Zettelbach","postalCode":"88339","locality":"Bad Waldsee","municipality":{"key":"08436009","name":"Bad Waldsee, Stadt","type":"Große_Kreisstadt"},"district":{"key":"08436","name":"Ravensburg","type":"Landkreis"},"federalState":{"key":"08","name":"Baden-Württemberg"}},{"name":"Anna-Warth-Str.","postalCode":"88339","locality":"Bad Waldsee","municipality":{"key":"08436009","name":"Bad Waldsee, Stadt","type":"Große_Kreisstadt"},"district":{"key":"08436","name":"Ravensburg","type":"Landkreis"},"federalState":{"key":"08","name":"Baden-Württemberg"}},{"name":"Anne-Frank-Str.","postalCode":"67165","locality":"Waldsee","municipality":{"key":"07338026","name":"Waldsee","type":"Kreisangehörige_Gemeinde"},"district":{"key":"07338","name":"Rhein-Pfalz-Kreis","type":"Landkreis"},"federalState":{"key":"07","name":"Rheinland-Pfalz"}},{"name":"Anselm-Feuerbach-Str.","postalCode":"67165","locality":"Waldsee","municipality":{"key":"07338026","name":"Waldsee","type":"Kreisangehörige_Gemeinde"},"district":{"key":"07338","name":"Rhein-Pfalz-Kreis","type":"Landkreis"},"federalState":{"key":"07","name":"Rheinland-Pfalz"}},{"name":"Anton-Bruckner-Str.","postalCode":"88339","locality":"Bad Waldsee","municipality":{"key":"08436009","name":"Bad Waldsee, Stadt","type":"Große_Kreisstadt"},"district":{"key":"08436","name":"Ravensburg","type":"Landkreis"},"federalState":{"key":"08","name":"Baden-Württemberg"}},{"name":"Augustinerstr.","postalCode":"88339","locality":"Bad Waldsee","municipality":{"key":"08436009","name":"Bad Waldsee, Stadt","type":"Große_Kreisstadt"},"district":{"key":"08436","name":"Ravensburg","type":"Landkreis"},"federalState":{"key":"08","name":"Baden-Württemberg"}},{"name":"Aulendorfer Str.","postalCode":"88339","locality":"Bad Waldsee","municipality":{"key":"08436009","name":"Bad Waldsee, Stadt","type":"Große_Kreisstadt"},"district":{"key":"08436","name":"Ravensburg","type":"Landkreis"},"federalState":{"key":"08","name":"Baden-Württemberg"}},{"name":"Bachstadenweg","postalCode":"67165","locality":"Waldsee","municipality":{"key":"07338026","name":"Waldsee","type":"Kreisangehörige_Gemeinde"},"district":{"key":"07338","name":"Rhein-Pfalz-Kreis","type":"Landkreis"},"federalState":{"key":"07","name":"Rheinland-Pfalz"}},{"name":"Badstr.","postalCode":"88339","locality":"Bad Waldsee","municipality":{"key":"08436009","name":"Bad Waldsee, Stadt","type":"Große_Kreisstadt"},"district":{"key":"08436","name":"Ravensburg","type":"Landkreis"},"federalState":{"key":"08","name":"Baden-Württemberg"}},{"name":"Bahnhalde","postalCode":"88339","locality":"Bad Waldsee","municipality":{"key":"08436009","name":"Bad Waldsee, Stadt","type":"Große_Kreisstadt"},"district":{"key":"08436","name":"Ravensburg","type":"Landkreis"},"federalState":{"key":"08","name":"Baden-Württemberg"}},{"name":"Bahnhofstr.","postalCode":"88339","locality":"Bad Waldsee","municipality":{"key":"08436009","name":"Bad Waldsee, Stadt","type":"Große_Kreisstadt"},"district":{"key":"08436","name":"Ravensburg","type":"Landkreis"},"federalState":{"key":"08","name":"Baden-Württemberg"}},{"name":"Baindter Str.","postalCode":"88339","locality":"Bad Waldsee","municipality":{"key":"08436009","name":"Bad Waldsee, Stadt","type":"Große_Kreisstadt"},"district":{"key":"08436","name":"Ravensburg","type":"Landkreis"},"federalState":{"key":"08","name":"Baden-Württemberg"}},{"name":"Ballenmoosweg","postalCode":"88339","locality":"Bad Waldsee","municipality":{"key":"08436009","name":"Bad Waldsee, Stadt","type":"Große_Kreisstadt"},"district":{"key":"08436","name":"Ravensburg","type":"Landkreis"},"federalState":{"key":"08","name":"Baden-Württemberg"}},{"name":"Bassenreute","postalCode":"88339","locality":"Bad Waldsee","municipality":{"key":"08436009","name":"Bad Waldsee, Stadt","type":"Große_Kreisstadt"},"district":{"key":"08436","name":"Ravensburg","type":"Landkreis"},"federalState":{"key":"08","name":"Baden-Württemberg"}},{"name":"Bauernjörgstr.","postalCode":"88339","locality":"Bad Waldsee","municipality":{"key":"08436009","name":"Bad Waldsee, Stadt","type":"Große_Kreisstadt"},"district":{"key":"08436","name":"Ravensburg","type":"Landkreis"},"federalState":{"key":"08","name":"Baden-Württemberg"}},{"name":"Beethovenstr.","postalCode":"67165","locality":"Waldsee","municipality":{"key":"07338026","name":"Waldsee","type":"Kreisangehörige_Gemeinde"},"district":{"key":"07338","name":"Rhein-Pfalz-Kreis","type":"Landkreis"},"federalState":{"key":"07","name":"Rheinland-Pfalz"}},{"name":"Beethovenstr.","postalCode":"88339","locality":"Bad Waldsee","municipality":{"key":"08436009","name":"Bad Waldsee, Stadt","type":"Große_Kreisstadt"},"district":{"key":"08436","name":"Ravensburg","type":"Landkreis"},"federalState":{"key":"08","name":"Baden-Württemberg"}},{"name":"Begonienweg","postalCode":"88339","locality":"Bad Waldsee","municipality":{"key":"08436009","name":"Bad Waldsee, Stadt","type":"Große_Kreisstadt"},"district":{"key":"08436","name":"Ravensburg","type":"Landkreis"},"federalState":{"key":"08","name":"Baden-Württemberg"}},{"name":"Bei der Stadtmauer","postalCode":"88339","locality":"Bad Waldsee","municipality":{"key":"08436009","name":"Bad Waldsee, Stadt","type":"Große_Kreisstadt"},"district":{"key":"08436","name":"Ravensburg","type":"Landkreis"},"federalState":{"key":"08","name":"Baden-Württemberg"}},{"name":"Beim Lammkeller","postalCode":"88339","locality":"Bad Waldsee","municipality":{"key":"08436009","name":"Bad Waldsee, Stadt","type":"Große_Kreisstadt"},"district":{"key":"08436","name":"Ravensburg","type":"Landkreis"},"federalState":{"key":"08","name":"Baden-Württemberg"}},{"name":"Beim Ried","postalCode":"88339","locality":"Bad Waldsee","municipality":{"key":"08436009","name":"Bad Waldsee, Stadt","type":"Große_Kreisstadt"},"district":{"key":"08436","name":"Ravensburg","type":"Landkreis"},"federalState":{"key":"08","name":"Baden-Württemberg"}},{"name":"Bergäcker","postalCode":"88339","locality":"Bad Waldsee","municipality":{"key":"08436009","name":"Bad Waldsee, Stadt","type":"Große_Kreisstadt"},"district":{"key":"08436","name":"Ravensburg","type":"Landkreis"},"federalState":{"key":"08","name":"Baden-Württemberg"}},{"name":"Bergstr.","postalCode":"88339","locality":"Bad Waldsee","municipality":{"key":"08436009","name":"Bad Waldsee, Stadt","type":"Große_Kreisstadt"},"district":{"key":"08436","name":"Ravensburg","type":"Landkreis"},"federalState":{"key":"08","name":"Baden-Württemberg"}},{"name":"Berliner Str.","postalCode":"67165","locality":"Waldsee","municipality":{"key":"07338026","name":"Waldsee","type":"Kreisangehörige_Gemeinde"},"district":{"key":"07338","name":"Rhein-Pfalz-Kreis","type":"Landkreis"},"federalState":{"key":"07","name":"Rheinland-Pfalz"}},{"name":"Bernhardstr.","postalCode":"88339","locality":"Bad Waldsee","municipality":{"key":"08436009","name":"Bad Waldsee, Stadt","type":"Große_Kreisstadt"},"district":{"key":"08436","name":"Ravensburg","type":"Landkreis"},"federalState":{"key":"08","name":"Baden-Württemberg"}},{"name":"Biberacher Str.","postalCode":"88339","locality":"Bad Waldsee","municipality":{"key":"08436009","name":"Bad Waldsee, Stadt","type":"Große_Kreisstadt"},"district":{"key":"08436","name":"Ravensburg","type":"Landkreis"},"federalState":{"key":"08","name":"Baden-Württemberg"}},{"name":"Biegenwiesen","postalCode":"88339","locality":"Bad Waldsee","municipality":{"key":"08436009","name":"Bad Waldsee, Stadt","type":"Große_Kreisstadt"},"district":{"key":"08436","name":"Ravensburg","type":"Landkreis"},"federalState":{"key":"08","name":"Baden-Württemberg"}},{"name":"Birkenstr.","postalCode":"88339","locality":"Bad Waldsee","municipality":{"key":"08436009","name":"Bad Waldsee, Stadt","type":"Große_Kreisstadt"},"district":{"key":"08436","name":"Ravensburg","type":"Landkreis"},"federalState":{"key":"08","name":"Baden-Württemberg"}},{"name":"Bleichestr.","postalCode":"88339","locality":"Bad Waldsee","municipality":{"key":"08436009","name":"Bad Waldsee, Stadt","type":"Große_Kreisstadt"},"district":{"key":"08436","name":"Ravensburg","type":"Landkreis"},"federalState":{"key":"08","name":"Baden-Württemberg"}},{"name":"Blumenweg","postalCode":"88339","locality":"Bad Waldsee","municipality":{"key":"08436009","name":"Bad Waldsee, Stadt","type":"Große_Kreisstadt"},"district":{"key":"08436","name":"Ravensburg","type":"Landkreis"},"federalState":{"key":"08","name":"Baden-Württemberg"}},{"name":"Brandenburger Str.","postalCode":"67165","locality":"Waldsee","municipality":{"key":"07338026","name":"Waldsee","type":"Kreisangehörige_Gemeinde"},"district":{"key":"07338","name":"Rhein-Pfalz-Kreis","type":"Landkreis"},"federalState":{"key":"07","name":"Rheinland-Pfalz"}},{"name":"Breite Str.","postalCode":"67165","locality":"Waldsee","municipality":{"key":"07338026","name":"Waldsee","type":"Kreisangehörige_Gemeinde"},"district":{"key":"07338","name":"Rhein-Pfalz-Kreis","type":"Landkreis"},"federalState":{"key":"07","name":"Rheinland-Pfalz"}},{"name":"Breiteweg","postalCode":"88339","locality":"Bad Waldsee","municipality":{"key":"08436009","name":"Bad Waldsee, Stadt","type":"Große_Kreisstadt"},"district":{"key":"08436","name":"Ravensburg","type":"Landkreis"},"federalState":{"key":"08","name":"Baden-Württemberg"}},{"name":"Brennereiweg","postalCode":"88339","locality":"Bad Waldsee","municipality":{"key":"08436009","name":"Bad Waldsee, Stadt","type":"Große_Kreisstadt"},"district":{"key":"08436","name":"Ravensburg","type":"Landkreis"},"federalState":{"key":"08","name":"Baden-Württemberg"}},{"name":"Breslauer Str.","postalCode":"67165","locality":"Waldsee","municipality":{"key":"07338026","name":"Waldsee","type":"Kreisangehörige_Gemeinde"},"district":{"key":"07338","name":"Rhein-Pfalz-Kreis","type":"Landkreis"},"federalState":{"key":"07","name":"Rheinland-Pfalz"}},{"name":"Brühlweg","postalCode":"88339","locality":"Bad Waldsee","municipality":{"key":"08436009","name":"Bad Waldsee, Stadt","type":"Große_Kreisstadt"},"district":{"key":"08436","name":"Ravensburg","type":"Landkreis"},"federalState":{"key":"08","name":"Baden-Württemberg"}},{"name":"Brunnenweg","postalCode":"88339","locality":"Bad Waldsee","municipality":{"key":"08436009","name":"Bad Waldsee, Stadt","type":"Große_Kreisstadt"},"district":{"key":"08436","name":"Ravensburg","type":"Landkreis"},"federalState":{"key":"08","name":"Baden-Württemberg"}},{"name":"Buchenweg","postalCode":"88339","locality":"Bad Waldsee","municipality":{"key":"08436009","name":"Bad Waldsee, Stadt","type":"Große_Kreisstadt"},"district":{"key":"08436","name":"Ravensburg","type":"Landkreis"},"federalState":{"key":"08","name":"Baden-Württemberg"}},{"name":"Buchholzweg","postalCode":"88339","locality":"Bad Waldsee","municipality":{"key":"08436009","name":"Bad Waldsee, Stadt","type":"Große_Kreisstadt"},"district":{"key":"08436","name":"Ravensburg","type":"Landkreis"},"federalState":{"key":"08","name":"Baden-Württemberg"}},{"name":"Bundesstr.","postalCode":"88339","locality":"Bad Waldsee","municipality":{"key":"08436009","name":"Bad Waldsee, Stadt","type":"Große_Kreisstadt"},"district":{"key":"08436","name":"Ravensburg","type":"Landkreis"},"federalState":{"key":"08","name":"Baden-Württemberg"}},{"name":"Bürgerstr.","postalCode":"88339","locality":"Bad Waldsee","municipality":{"key":"08436009","name":"Bad Waldsee, Stadt","type":"Große_Kreisstadt"},"district":{"key":"08436","name":"Ravensburg","type":"Landkreis"},"federalState":{"key":"08","name":"Baden-Württemberg"}},{"name":"Burghaldenweg","postalCode":"88339","locality":"Bad Waldsee","municipality":{"key":"08436009","name":"Bad Waldsee, Stadt","type":"Große_Kreisstadt"},"district":{"key":"08436","name":"Ravensburg","type":"Landkreis"},"federalState":{"key":"08","name":"Baden-Württemberg"}},{"name":"Burgstockstr.","postalCode":"88339","locality":"Bad Waldsee","municipality":{"key":"08436009","name":"Bad Waldsee, Stadt","type":"Große_Kreisstadt"},"district":{"key":"08436","name":"Ravensburg","type":"Landkreis"},"federalState":{"key":"08","name":"Baden-Württemberg"}},{"name":"Burgweiherstr.","postalCode":"88339","locality":"Bad Waldsee","municipality":{"key":"08436009","name":"Bad Waldsee, Stadt","type":"Große_Kreisstadt"},"district":{"key":"08436","name":"Ravensburg","type":"Landkreis"},"federalState":{"key":"08","name":"Baden-Württemberg"}},{"name":"Carl-Bosch-Str.","postalCode":"67165","locality":"Waldsee","municipality":{"key":"07338026","name":"Waldsee","type":"Kreisangehörige_Gemeinde"},"district":{"key":"07338","name":"Rhein-Pfalz-Kreis","type":"Landkreis"},"federalState":{"key":"07","name":"Rheinland-Pfalz"}},{"name":"Carlensteichweg","postalCode":"88339","locality":"Bad Waldsee","municipality":{"key":"08436009","name":"Bad Waldsee, Stadt","type":"Große_Kreisstadt"},"district":{"key":"08436","name":"Ravensburg","type":"Landkreis"},"federalState":{"key":"08","name":"Baden-Württemberg"}},{"name":"Chorherrenweg","postalCode":"88339","locality":"Bad Waldsee","municipality":{"key":"08436009","name":"Bad Waldsee, Stadt","type":"Große_Kreisstadt"},"district":{"key":"08436","name":"Ravensburg","type":"Landkreis"},"federalState":{"key":"08","name":"Baden-Württemberg"}},{"name":"Conradin-Kreutzer-Str.","postalCode":"88339","locality":"Bad Waldsee","municipality":{"key":"08436009","name":"Bad Waldsee, Stadt","type":"Große_Kreisstadt"},"district":{"key":"08436","name":"Ravensburg","type":"Landkreis"},"federalState":{"key":"08","name":"Baden-Württemberg"}},{"name":"Dachsweg","postalCode":"88339","locality":"Bad Waldsee","municipality":{"key":"08436009","name":"Bad Waldsee, Stadt","type":"Große_Kreisstadt"},"district":{"key":"08436","name":"Ravensburg","type":"Landkreis"},"federalState":{"key":"08","name":"Baden-Württemberg"}},{"name":"Dahlienweg","postalCode":"88339","locality":"Bad Waldsee","municipality":{"key":"08436009","name":"Bad Waldsee, Stadt","type":"Große_Kreisstadt"},"district":{"key":"08436","name":"Ravensburg","type":"Landkreis"},"federalState":{"key":"08","name":"Baden-Württemberg"}},{"name":"Danziger Str.","postalCode":"67165","locality":"Waldsee","municipality":{"key":"07338026","name":"Waldsee","type":"Kreisangehörige_Gemeinde"},"district":{"key":"07338","name":"Rhein-Pfalz-Kreis","type":"Landkreis"},"federalState":{"key":"07","name":"Rheinland-Pfalz"}},{"name":"Dellenhag","postalCode":"88339","locality":"Bad Waldsee","municipality":{"key":"08436009","name":"Bad Waldsee, Stadt","type":"Große_Kreisstadt"},"district":{"key":"08436","name":"Ravensburg","type":"Landkreis"},"federalState":{"key":"08","name":"Baden-Württemberg"}},{"name":"Dietrich-Bonhoeffer-Str.","postalCode":"67165","locality":"Waldsee","municipality":{"key":"07338026","name":"Waldsee","type":"Kreisangehörige_Gemeinde"},"district":{"key":"07338","name":"Rhein-Pfalz-Kreis","type":"Landkreis"},"federalState":{"key":"07","name":"Rheinland-Pfalz"}},{"name":"Dinkelgasse","postalCode":"88339","locality":"Bad Waldsee","municipality":{"key":"08436009","name":"Bad Waldsee, Stadt","type":"Große_Kreisstadt"},"district":{"key":"08436","name":"Ravensburg","type":"Landkreis"},"federalState":{"key":"08","name":"Baden-Württemberg"}},{"name":"Distelweg","postalCode":"88339","locality":"Bad Waldsee","municipality":{"key":"08436009","name":"Bad Waldsee, Stadt","type":"Große_Kreisstadt"},"district":{"key":"08436","name":"Ravensburg","type":"Landkreis"},"federalState":{"key":"08","name":"Baden-Württemberg"}},{"name":"Döchtbühlweg","postalCode":"88339","locality":"Bad Waldsee","municipality":{"key":"08436009","name":"Bad Waldsee, Stadt","type":"Große_Kreisstadt"},"district":{"key":"08436","name":"Ravensburg","type":"Landkreis"},"federalState":{"key":"08","name":"Baden-Württemberg"}},{"name":"Dorfplatz","postalCode":"88339","locality":"Bad Waldsee","municipality":{"key":"08436009","name":"Bad Waldsee, Stadt","type":"Große_Kreisstadt"},"district":{"key":"08436","name":"Ravensburg","type":"Landkreis"},"federalState":{"key":"08","name":"Baden-Württemberg"}},{"name":"Dorfstr.","postalCode":"88339","locality":"Bad Waldsee","municipality":{"key":"08436009","name":"Bad Waldsee, Stadt","type":"Große_Kreisstadt"},"district":{"key":"08436","name":"Ravensburg","type":"Landkreis"},"federalState":{"key":"08","name":"Baden-Württemberg"}},{"name":"Drei-Eichen-Str.","postalCode":"88339","locality":"Bad Waldsee","municipality":{"key":"08436009","name":"Bad Waldsee, Stadt","type":"Große_Kreisstadt"},"district":{"key":"08436","name":"Ravensburg","type":"Landkreis"},"federalState":{"key":"08","name":"Baden-Württemberg"}},{"name":"Dreikönigsgasse","postalCode":"88339","locality":"Bad Waldsee","municipality":{"key":"08436009","name":"Bad Waldsee, Stadt","type":"Große_Kreisstadt"},"district":{"key":"08436","name":"Ravensburg","type":"Landkreis"},"federalState":{"key":"08","name":"Baden-Württemberg"}},{"name":"Dreimühlenweg","postalCode":"88339","locality":"Bad Waldsee","municipality":{"key":"08436009","name":"Bad Waldsee, Stadt","type":"Große_Kreisstadt"},"district":{"key":"08436","name":"Ravensburg","type":"Landkreis"},"federalState":{"key":"08","name":"Baden-Württemberg"}},{"name":"Dresdener Str.","postalCode":"67165","locality":"Waldsee","municipality":{"key":"07338026","name":"Waldsee","type":"Kreisangehörige_Gemeinde"},"district":{"key":"07338","name":"Rhein-Pfalz-Kreis","type":"Landkreis"},"federalState":{"key":"07","name":"Rheinland-Pfalz"}},{"name":"Drosselweg","postalCode":"88339","locality":"Bad Waldsee","municipality":{"key":"08436009","name":"Bad Waldsee, Stadt","type":"Große_Kreisstadt"},"district":{"key":"08436","name":"Ravensburg","type":"Landkreis"},"federalState":{"key":"08","name":"Baden-Württemberg"}},{"name":"Durlesbacher Str.","postalCode":"88339","locality":"Bad Waldsee","municipality":{"key":"08436009","name":"Bad Waldsee, Stadt","type":"Große_Kreisstadt"},"district":{"key":"08436","name":"Ravensburg","type":"Landkreis"},"federalState":{"key":"08","name":"Baden-Württemberg"}},{"name":"Durlesbachweg","postalCode":"88339","locality":"Bad Waldsee","municipality":{"key":"08436009","name":"Bad Waldsee, Stadt","type":"Große_Kreisstadt"},"district":{"key":"08436","name":"Ravensburg","type":"Landkreis"},"federalState":{"key":"08","name":"Baden-Württemberg"}},{"name":"Eberhardstr.","postalCode":"88339","locality":"Bad Waldsee","municipality":{"key":"08436009","name":"Bad Waldsee, Stadt","type":"Große_Kreisstadt"},"district":{"key":"08436","name":"Ravensburg","type":"Landkreis"},"federalState":{"key":"08","name":"Baden-Württemberg"}},{"name":"Edith-Stein-Str.","postalCode":"67165","locality":"Waldsee","municipality":{"key":"07338026","name":"Waldsee","type":"Kreisangehörige_Gemeinde"},"district":{"key":"07338","name":"Rhein-Pfalz-Kreis","type":"Landkreis"},"federalState":{"key":"07","name":"Rheinland-Pfalz"}},{"name":"Eduard-Mörike-Str.","postalCode":"67165","locality":"Waldsee","municipality":{"key":"07338026","name":"Waldsee","type":"Kreisangehörige_Gemeinde"},"district":{"key":"07338","name":"Rhein-Pfalz-Kreis","type":"Landkreis"},"federalState":{"key":"07","name":"Rheinland-Pfalz"}},{"name":"Egelseestr.","postalCode":"88339","locality":"Bad Waldsee","municipality":{"key":"08436009","name":"Bad Waldsee, Stadt","type":"Große_Kreisstadt"},"district":{"key":"08436","name":"Ravensburg","type":"Landkreis"},"federalState":{"key":"08","name":"Baden-Württemberg"}},{"name":"Eggmannsrieder Str.","postalCode":"88339","locality":"Bad Waldsee","municipality":{"key":"08436009","name":"Bad Waldsee, Stadt","type":"Große_Kreisstadt"},"district":{"key":"08436","name":"Ravensburg","type":"Landkreis"},"federalState":{"key":"08","name":"Baden-Württemberg"}},{"name":"Eibweg","postalCode":"88339","locality":"Bad Waldsee","municipality":{"key":"08436009","name":"Bad Waldsee, Stadt","type":"Große_Kreisstadt"},"district":{"key":"08436","name":"Ravensburg","type":"Landkreis"},"federalState":{"key":"08","name":"Baden-Württemberg"}},{"name":"Eichenweg","postalCode":"88339","locality":"Bad Waldsee","municipality":{"key":"08436009","name":"Bad Waldsee, Stadt","type":"Große_Kreisstadt"},"district":{"key":"08436","name":"Ravensburg","type":"Landkreis"},"federalState":{"key":"08","name":"Baden-Württemberg"}},{"name":"Eisenfurter Str.","postalCode":"88339","locality":"Bad Waldsee","municipality":{"key":"08436009","name":"Bad Waldsee, Stadt","type":"Große_Kreisstadt"},"district":{"key":"08436","name":"Ravensburg","type":"Landkreis"},"federalState":{"key":"08","name":"Baden-Württemberg"}},{"name":"Eiskopfweg","postalCode":"88339","locality":"Bad Waldsee","municipality":{"key":"08436009","name":"Bad Waldsee, Stadt","type":"Große_Kreisstadt"},"district":{"key":"08436","name":"Ravensburg","type":"Landkreis"},"federalState":{"key":"08","name":"Baden-Württemberg"}},{"name":"Elisabeth-Achler-Str.","postalCode":"88339","locality":"Bad Waldsee","municipality":{"key":"08436009","name":"Bad Waldsee, Stadt","type":"Große_Kreisstadt"},"district":{"key":"08436","name":"Ravensburg","type":"Landkreis"},"federalState":{"key":"08","name":"Baden-Württemberg"}},{"name":"Elsternweg","postalCode":"88339","locality":"Bad Waldsee","municipality":{"key":"08436009","name":"Bad Waldsee, Stadt","type":"Große_Kreisstadt"},"district":{"key":"08436","name":"Ravensburg","type":"Landkreis"},"federalState":{"key":"08","name":"Baden-Württemberg"}},{"name":"Elsterweg","postalCode":"88339","locality":"Bad Waldsee","municipality":{"key":"08436009","name":"Bad Waldsee, Stadt","type":"Große_Kreisstadt"},"district":{"key":"08436","name":"Ravensburg","type":"Landkreis"},"federalState":{"key":"08","name":"Baden-Württemberg"}},{"name":"Entenmoos","postalCode":"88339","locality":"Bad Waldsee","municipality":{"key":"08436009","name":"Bad Waldsee, Stadt","type":"Große_Kreisstadt"},"district":{"key":"08436","name":"Ravensburg","type":"Landkreis"},"federalState":{"key":"08","name":"Baden-Württemberg"}},{"name":"Erfurter Str.","postalCode":"67165","locality":"Waldsee","municipality":{"key":"07338026","name":"Waldsee","type":"Kreisangehörige_Gemeinde"},"district":{"key":"07338","name":"Rhein-Pfalz-Kreis","type":"Landkreis"},"federalState":{"key":"07","name":"Rheinland-Pfalz"}},{"name":"Erlenweg","postalCode":"88339","locality":"Bad Waldsee","municipality":{"key":"08436009","name":"Bad Waldsee, Stadt","type":"Große_Kreisstadt"},"district":{"key":"08436","name":"Ravensburg","type":"Landkreis"},"federalState":{"key":"08","name":"Baden-Württemberg"}},{"name":"Eschenweg","postalCode":"88339","locality":"Bad Waldsee","municipality":{"key":"08436009","name":"Bad Waldsee, Stadt","type":"Große_Kreisstadt"},"district":{"key":"08436","name":"Ravensburg","type":"Landkreis"},"federalState":{"key":"08","name":"Baden-Württemberg"}},{"name":"Eschlestr.","postalCode":"88339","locality":"Bad Waldsee","municipality":{"key":"08436009","name":"Bad Waldsee, Stadt","type":"Große_Kreisstadt"},"district":{"key":"08436","name":"Ravensburg","type":"Landkreis"},"federalState":{"key":"08","name":"Baden-Württemberg"}},{"name":"Fahrgartenweg","postalCode":"67165","locality":"Waldsee","municipality":{"key":"07338026","name":"Waldsee","type":"Kreisangehörige_Gemeinde"},"district":{"key":"07338","name":"Rhein-Pfalz-Kreis","type":"Landkreis"},"federalState":{"key":"07","name":"Rheinland-Pfalz"}},{"name":"Falkenweg","postalCode":"88339","locality":"Bad Waldsee","municipality":{"key":"08436009","name":"Bad Waldsee, Stadt","type":"Große_Kreisstadt"},"district":{"key":"08436","name":"Ravensburg","type":"Landkreis"},"federalState":{"key":"08","name":"Baden-Württemberg"}},{"name":"Fasanenweg","postalCode":"88339","locality":"Bad Waldsee","municipality":{"key":"08436009","name":"Bad Waldsee, Stadt","type":"Große_Kreisstadt"},"district":{"key":"08436","name":"Ravensburg","type":"Landkreis"},"federalState":{"key":"08","name":"Baden-Württemberg"}},{"name":"Feldlerchenweg","postalCode":"88339","locality":"Bad Waldsee","municipality":{"key":"08436009","name":"Bad Waldsee, Stadt","type":"Große_Kreisstadt"},"district":{"key":"08436","name":"Ravensburg","type":"Landkreis"},"federalState":{"key":"08","name":"Baden-Württemberg"}},{"name":"Fichtenstr.","postalCode":"88339","locality":"Bad Waldsee","municipality":{"key":"08436009","name":"Bad Waldsee, Stadt","type":"Große_Kreisstadt"},"district":{"key":"08436","name":"Ravensburg","type":"Landkreis"},"federalState":{"key":"08","name":"Baden-Württemberg"}},{"name":"Finkenweg","postalCode":"88339","locality":"Bad Waldsee","municipality":{"key":"08436009","name":"Bad Waldsee, Stadt","type":"Große_Kreisstadt"},"district":{"key":"08436","name":"Ravensburg","type":"Landkreis"},"federalState":{"key":"08","name":"Baden-Württemberg"}},{"name":"Fischergasse","postalCode":"67165","locality":"Waldsee","municipality":{"key":"07338026","name":"Waldsee","type":"Kreisangehörige_Gemeinde"},"district":{"key":"07338","name":"Rhein-Pfalz-Kreis","type":"Landkreis"},"federalState":{"key":"07","name":"Rheinland-Pfalz"}},{"name":"Fischerweg","postalCode":"88339","locality":"Bad Waldsee","municipality":{"key":"08436009","name":"Bad Waldsee, Stadt","type":"Große_Kreisstadt"},"district":{"key":"08436","name":"Ravensburg","type":"Landkreis"},"federalState":{"key":"08","name":"Baden-Württemberg"}},{"name":"Fliederstr.","postalCode":"88339","locality":"Bad Waldsee","municipality":{"key":"08436009","name":"Bad Waldsee, Stadt","type":"Große_Kreisstadt"},"district":{"key":"08436","name":"Ravensburg","type":"Landkreis"},"federalState":{"key":"08","name":"Baden-Württemberg"}},{"name":"Flockenblumenweg","postalCode":"88339","locality":"Bad Waldsee","municipality":{"key":"08436009","name":"Bad Waldsee, Stadt","type":"Große_Kreisstadt"},"district":{"key":"08436","name":"Ravensburg","type":"Landkreis"},"federalState":{"key":"08","name":"Baden-Württemberg"}},{"name":"Fockentalstr.","postalCode":"88339","locality":"Bad Waldsee","municipality":{"key":"08436009","name":"Bad Waldsee, Stadt","type":"Große_Kreisstadt"},"district":{"key":"08436","name":"Ravensburg","type":"Landkreis"},"federalState":{"key":"08","name":"Baden-Württemberg"}},{"name":"Frankenweg","postalCode":"88339","locality":"Bad Waldsee","municipality":{"key":"08436009","name":"Bad Waldsee, Stadt","type":"Große_Kreisstadt"},"district":{"key":"08436","name":"Ravensburg","type":"Landkreis"},"federalState":{"key":"08","name":"Baden-Württemberg"}},{"name":"Franz-Lehar-Str.","postalCode":"88339","locality":"Bad Waldsee","municipality":{"key":"08436009","name":"Bad Waldsee, Stadt","type":"Große_Kreisstadt"},"district":{"key":"08436","name":"Ravensburg","type":"Landkreis"},"federalState":{"key":"08","name":"Baden-Württemberg"}},{"name":"Franz-Liszt-Str.","postalCode":"88339","locality":"Bad Waldsee","municipality":{"key":"08436009","name":"Bad Waldsee, Stadt","type":"Große_Kreisstadt"},"district":{"key":"08436","name":"Ravensburg","type":"Landkreis"},"federalState":{"key":"08","name":"Baden-Württemberg"}},{"name":"Franz-Schubert-Str.","postalCode":"67165","locality":"Waldsee","municipality":{"key":"07338026","name":"Waldsee","type":"Kreisangehörige_Gemeinde"},"district":{"key":"07338","name":"Rhein-Pfalz-Kreis","type":"Landkreis"},"federalState":{"key":"07","name":"Rheinland-Pfalz"}},{"name":"Franz-Schubert-Str.","postalCode":"88339","locality":"Bad Waldsee","municipality":{"key":"08436009","name":"Bad Waldsee, Stadt","type":"Große_Kreisstadt"},"district":{"key":"08436","name":"Ravensburg","type":"Landkreis"},"federalState":{"key":"08","name":"Baden-Württemberg"}},{"name":"Frauenbergstr.","postalCode":"88339","locality":"Bad Waldsee","municipality":{"key":"08436009","name":"Bad Waldsee, Stadt","type":"Große_Kreisstadt"},"district":{"key":"08436","name":"Ravensburg","type":"Landkreis"},"federalState":{"key":"08","name":"Baden-Württemberg"}},{"name":"Freiheitstr.","postalCode":"88339","locality":"Bad Waldsee","municipality":{"key":"08436009","name":"Bad Waldsee, Stadt","type":"Große_Kreisstadt"},"district":{"key":"08436","name":"Ravensburg","type":"Landkreis"},"federalState":{"key":"08","name":"Baden-Württemberg"}},{"name":"Friedenslinde","postalCode":"88339","locality":"Bad Waldsee","municipality":{"key":"08436009","name":"Bad Waldsee, Stadt","type":"Große_Kreisstadt"},"district":{"key":"08436","name":"Ravensburg","type":"Landkreis"},"federalState":{"key":"08","name":"Baden-Württemberg"}},{"name":"Friedenstr.","postalCode":"67165","locality":"Waldsee","municipality":{"key":"07338026","name":"Waldsee","type":"Kreisangehörige_Gemeinde"},"district":{"key":"07338","name":"Rhein-Pfalz-Kreis","type":"Landkreis"},"federalState":{"key":"07","name":"Rheinland-Pfalz"}},{"name":"Friedensweg","postalCode":"88339","locality":"Bad Waldsee","municipality":{"key":"08436009","name":"Bad Waldsee, Stadt","type":"Große_Kreisstadt"},"district":{"key":"08436","name":"Ravensburg","type":"Landkreis"},"federalState":{"key":"08","name":"Baden-Württemberg"}},{"name":"Friedhofstr.","postalCode":"88339","locality":"Bad Waldsee","municipality":{"key":"08436009","name":"Bad Waldsee, Stadt","type":"Große_Kreisstadt"},"district":{"key":"08436","name":"Ravensburg","type":"Landkreis"},"federalState":{"key":"08","name":"Baden-Württemberg"}},{"name":"Furtsteggasse","postalCode":"88339","locality":"Bad Waldsee","municipality":{"key":"08436009","name":"Bad Waldsee, Stadt","type":"Große_Kreisstadt"},"district":{"key":"08436","name":"Ravensburg","type":"Landkreis"},"federalState":{"key":"08","name":"Baden-Württemberg"}},{"name":"Gaisbeurer Str.","postalCode":"88339","locality":"Bad Waldsee","municipality":{"key":"08436009","name":"Bad Waldsee, Stadt","type":"Große_Kreisstadt"},"district":{"key":"08436","name":"Ravensburg","type":"Landkreis"},"federalState":{"key":"08","name":"Baden-Württemberg"}},{"name":"Gartenstr.","postalCode":"88339","locality":"Bad Waldsee","municipality":{"key":"08436009","name":"Bad Waldsee, Stadt","type":"Große_Kreisstadt"},"district":{"key":"08436","name":"Ravensburg","type":"Landkreis"},"federalState":{"key":"08","name":"Baden-Württemberg"}},{"name":"Gassenäckerstr.","postalCode":"88339","locality":"Bad Waldsee","municipality":{"key":"08436009","name":"Bad Waldsee, Stadt","type":"Große_Kreisstadt"},"district":{"key":"08436","name":"Ravensburg","type":"Landkreis"},"federalState":{"key":"08","name":"Baden-Württemberg"}},{"name":"Geranienweg","postalCode":"88339","locality":"Bad Waldsee","municipality":{"key":"08436009","name":"Bad Waldsee, Stadt","type":"Große_Kreisstadt"},"district":{"key":"08436","name":"Ravensburg","type":"Landkreis"},"federalState":{"key":"08","name":"Baden-Württemberg"}},{"name":"Gewerbegasse","postalCode":"67165","locality":"Waldsee","municipality":{"key":"07338026","name":"Waldsee","type":"Kreisangehörige_Gemeinde"},"district":{"key":"07338","name":"Rhein-Pfalz-Kreis","type":"Landkreis"},"federalState":{"key":"07","name":"Rheinland-Pfalz"}},{"name":"Ghauweg","postalCode":"88339","locality":"Bad Waldsee","municipality":{"key":"08436009","name":"Bad Waldsee, Stadt","type":"Große_Kreisstadt"},"district":{"key":"08436","name":"Ravensburg","type":"Landkreis"},"federalState":{"key":"08","name":"Baden-Württemberg"}},{"name":"Ginsterweg","postalCode":"88339","locality":"Bad Waldsee","municipality":{"key":"08436009","name":"Bad Waldsee, Stadt","type":"Große_Kreisstadt"},"district":{"key":"08436","name":"Ravensburg","type":"Landkreis"},"federalState":{"key":"08","name":"Baden-Württemberg"}},{"name":"Goethestr.","postalCode":"67165","locality":"Waldsee","municipality":{"key":"07338026","name":"Waldsee","type":"Kreisangehörige_Gemeinde"},"district":{"key":"07338","name":"Rhein-Pfalz-Kreis","type":"Landkreis"},"federalState":{"key":"07","name":"Rheinland-Pfalz"}},{"name":"Goethestr.","postalCode":"88339","locality":"Bad Waldsee","municipality":{"key":"08436009","name":"Bad Waldsee, Stadt","type":"Große_Kreisstadt"},"district":{"key":"08436","name":"Ravensburg","type":"Landkreis"},"federalState":{"key":"08","name":"Baden-Württemberg"}},{"name":"Goldammerweg","postalCode":"88339","locality":"Bad Waldsee","municipality":{"key":"08436009","name":"Bad Waldsee, Stadt","type":"Große_Kreisstadt"},"district":{"key":"08436","name":"Ravensburg","type":"Landkreis"},"federalState":{"key":"08","name":"Baden-Württemberg"}},{"name":"Gottfried-Angerer-Str.","postalCode":"88339","locality":"Bad Waldsee","municipality":{"key":"08436009","name":"Bad Waldsee, Stadt","type":"Große_Kreisstadt"},"district":{"key":"08436","name":"Ravensburg","type":"Landkreis"},"federalState":{"key":"08","name":"Baden-Württemberg"}},{"name":"Grabengasse","postalCode":"67165","locality":"Waldsee","municipality":{"key":"07338026","name":"Waldsee","type":"Kreisangehörige_Gemeinde"},"district":{"key":"07338","name":"Rhein-Pfalz-Kreis","type":"Landkreis"},"federalState":{"key":"07","name":"Rheinland-Pfalz"}},{"name":"Graf-von-Stauffenberg-Str.","postalCode":"67165","locality":"Waldsee","municipality":{"key":"07338026","name":"Waldsee","type":"Kreisangehörige_Gemeinde"},"district":{"key":"07338","name":"Rhein-Pfalz-Kreis","type":"Landkreis"},"federalState":{"key":"07","name":"Rheinland-Pfalz"}},{"name":"Grindelweg","postalCode":"88339","locality":"Bad Waldsee","municipality":{"key":"08436009","name":"Bad Waldsee, Stadt","type":"Große_Kreisstadt"},"district":{"key":"08436","name":"Ravensburg","type":"Landkreis"},"federalState":{"key":"08","name":"Baden-Württemberg"}},{"name":"Grüner Weg","postalCode":"88339","locality":"Bad Waldsee","municipality":{"key":"08436009","name":"Bad Waldsee, Stadt","type":"Große_Kreisstadt"},"district":{"key":"08436","name":"Ravensburg","type":"Landkreis"},"federalState":{"key":"08","name":"Baden-Württemberg"}},{"name":"Gustav-Mahler-Str.","postalCode":"88339","locality":"Bad Waldsee","municipality":{"key":"08436009","name":"Bad Waldsee, Stadt","type":"Große_Kreisstadt"},"district":{"key":"08436","name":"Ravensburg","type":"Landkreis"},"federalState":{"key":"08","name":"Baden-Württemberg"}},{"name":"Gut-Betha-Platz","postalCode":"88339","locality":"Bad Waldsee","municipality":{"key":"08436009","name":"Bad Waldsee, Stadt","type":"Große_Kreisstadt"},"district":{"key":"08436","name":"Ravensburg","type":"Landkreis"},"federalState":{"key":"08","name":"Baden-Württemberg"}},{"name":"Haardtstr.","postalCode":"67165","locality":"Waldsee","municipality":{"key":"07338026","name":"Waldsee","type":"Kreisangehörige_Gemeinde"},"district":{"key":"07338","name":"Rhein-Pfalz-Kreis","type":"Landkreis"},"federalState":{"key":"07","name":"Rheinland-Pfalz"}},{"name":"Habsburger Str.","postalCode":"88339","locality":"Bad Waldsee","municipality":{"key":"08436009","name":"Bad Waldsee, Stadt","type":"Große_Kreisstadt"},"district":{"key":"08436","name":"Ravensburg","type":"Landkreis"},"federalState":{"key":"08","name":"Baden-Württemberg"}},{"name":"Haidgauer Str.","postalCode":"88339","locality":"Bad Waldsee","municipality":{"key":"08436009","name":"Bad Waldsee, Stadt","type":"Große_Kreisstadt"},"district":{"key":"08436","name":"Ravensburg","type":"Landkreis"},"federalState":{"key":"08","name":"Baden-Württemberg"}},{"name":"Haisterkircher Gasse","postalCode":"88339","locality":"Bad Waldsee","municipality":{"key":"08436009","name":"Bad Waldsee, Stadt","type":"Große_Kreisstadt"},"district":{"key":"08436","name":"Ravensburg","type":"Landkreis"},"federalState":{"key":"08","name":"Baden-Württemberg"}},{"name":"Händelstr.","postalCode":"88339","locality":"Bad Waldsee","municipality":{"key":"08436009","name":"Bad Waldsee, Stadt","type":"Große_Kreisstadt"},"district":{"key":"08436","name":"Ravensburg","type":"Landkreis"},"federalState":{"key":"08","name":"Baden-Württemberg"}},{"name":"Hans-Purrmann-Str.","postalCode":"67165","locality":"Waldsee","municipality":{"key":"07338026","name":"Waldsee","type":"Kreisangehörige_Gemeinde"},"district":{"key":"07338","name":"Rhein-Pfalz-Kreis","type":"Landkreis"},"federalState":{"key":"07","name":"Rheinland-Pfalz"}},{"name":"Haselstockweg","postalCode":"88339","locality":"Bad Waldsee","municipality":{"key":"08436009","name":"Bad Waldsee, Stadt","type":"Große_Kreisstadt"},"district":{"key":"08436","name":"Ravensburg","type":"Landkreis"},"federalState":{"key":"08","name":"Baden-Württemberg"}},{"name":"Haslachstr.","postalCode":"88339","locality":"Bad Waldsee","municipality":{"key":"08436009","name":"Bad Waldsee, Stadt","type":"Große_Kreisstadt"},"district":{"key":"08436","name":"Ravensburg","type":"Landkreis"},"federalState":{"key":"08","name":"Baden-Württemberg"}},{"name":"Haslanden","postalCode":"88339","locality":"Bad Waldsee","municipality":{"key":"08436009","name":"Bad Waldsee, Stadt","type":"Große_Kreisstadt"},"district":{"key":"08436","name":"Ravensburg","type":"Landkreis"},"federalState":{"key":"08","name":"Baden-Württemberg"}},{"name":"Hauptstr.","postalCode":"88339","locality":"Bad Waldsee","municipality":{"key":"08436009","name":"Bad Waldsee, Stadt","type":"Große_Kreisstadt"},"district":{"key":"08436","name":"Ravensburg","type":"Landkreis"},"federalState":{"key":"08","name":"Baden-Württemberg"}},{"name":"Hauptweg 1 (I)","postalCode":"67165","locality":"Waldsee","municipality":{"key":"07338026","name":"Waldsee","type":"Kreisangehörige_Gemeinde"},"district":{"key":"07338","name":"Rhein-Pfalz-Kreis","type":"Landkreis"},"federalState":{"key":"07","name":"Rheinland-Pfalz"}},{"name":"Hauptweg 2 (II)","postalCode":"67165","locality":"Waldsee","municipality":{"key":"07338026","name":"Waldsee","type":"Kreisangehörige_Gemeinde"},"district":{"key":"07338","name":"Rhein-Pfalz-Kreis","type":"Landkreis"},"federalState":{"key":"07","name":"Rheinland-Pfalz"}},{"name":"Haydnweg","postalCode":"88339","locality":"Bad Waldsee","municipality":{"key":"08436009","name":"Bad Waldsee, Stadt","type":"Große_Kreisstadt"},"district":{"key":"08436","name":"Ravensburg","type":"Landkreis"},"federalState":{"key":"08","name":"Baden-Württemberg"}},{"name":"Heckengasse","postalCode":"88339","locality":"Bad Waldsee","municipality":{"key":"08436009","name":"Bad Waldsee, Stadt","type":"Große_Kreisstadt"},"district":{"key":"08436","name":"Ravensburg","type":"Landkreis"},"federalState":{"key":"08","name":"Baden-Württemberg"}},{"name":"Heinestr.","postalCode":"67165","locality":"Waldsee","municipality":{"key":"07338026","name":"Waldsee","type":"Kreisangehörige_Gemeinde"},"district":{"key":"07338","name":"Rhein-Pfalz-Kreis","type":"Landkreis"},"federalState":{"key":"07","name":"Rheinland-Pfalz"}},{"name":"Heinrich-Schütz-Str.","postalCode":"88339","locality":"Bad Waldsee","municipality":{"key":"08436009","name":"Bad Waldsee, Stadt","type":"Große_Kreisstadt"},"district":{"key":"08436","name":"Ravensburg","type":"Landkreis"},"federalState":{"key":"08","name":"Baden-Württemberg"}},{"name":"Hermann-Hesse-Wed","postalCode":"67165","locality":"Waldsee","municipality":{"key":"07338026","name":"Waldsee","type":"Kreisangehörige_Gemeinde"},"district":{"key":"07338","name":"Rhein-Pfalz-Kreis","type":"Landkreis"},"federalState":{"key":"07","name":"Rheinland-Pfalz"}},{"name":"Herrgottsgasse","postalCode":"88339","locality":"Bad Waldsee","municipality":{"key":"08436009","name":"Bad Waldsee, Stadt","type":"Große_Kreisstadt"},"district":{"key":"08436","name":"Ravensburg","type":"Landkreis"},"federalState":{"key":"08","name":"Baden-Württemberg"}},{"name":"Heurenbacher Weg","postalCode":"88339","locality":"Bad Waldsee","municipality":{"key":"08436009","name":"Bad Waldsee, Stadt","type":"Große_Kreisstadt"},"district":{"key":"08436","name":"Ravensburg","type":"Landkreis"},"federalState":{"key":"08","name":"Baden-Württemberg"}},{"name":"Hirschhof","postalCode":"88339","locality":"Bad Waldsee","municipality":{"key":"08436009","name":"Bad Waldsee, Stadt","type":"Große_Kreisstadt"},"district":{"key":"08436","name":"Ravensburg","type":"Landkreis"},"federalState":{"key":"08","name":"Baden-Württemberg"}},{"name":"Hittelkofer Str.","postalCode":"88339","locality":"Bad Waldsee","municipality":{"key":"08436009","name":"Bad Waldsee, Stadt","type":"Große_Kreisstadt"},"district":{"key":"08436","name":"Ravensburg","type":"Landkreis"},"federalState":{"key":"08","name":"Baden-Württemberg"}},{"name":"Hittisweilerstr.","postalCode":"88339","locality":"Bad Waldsee","municipality":{"key":"08436009","name":"Bad Waldsee, Stadt","type":"Große_Kreisstadt"},"district":{"key":"08436","name":"Ravensburg","type":"Landkreis"},"federalState":{"key":"08","name":"Baden-Württemberg"}},{"name":"Hochwaldgasse","postalCode":"88339","locality":"Bad Waldsee","municipality":{"key":"08436009","name":"Bad Waldsee, Stadt","type":"Große_Kreisstadt"},"district":{"key":"08436","name":"Ravensburg","type":"Landkreis"},"federalState":{"key":"08","name":"Baden-Württemberg"}},{"name":"Hofraingasse","postalCode":"88339","locality":"Bad Waldsee","municipality":{"key":"08436009","name":"Bad Waldsee, Stadt","type":"Große_Kreisstadt"},"district":{"key":"08436","name":"Ravensburg","type":"Landkreis"},"federalState":{"key":"08","name":"Baden-Württemberg"}},{"name":"Höhenweg","postalCode":"88339","locality":"Bad Waldsee","municipality":{"key":"08436009","name":"Bad Waldsee, Stadt","type":"Große_Kreisstadt"},"district":{"key":"08436","name":"Ravensburg","type":"Landkreis"},"federalState":{"key":"08","name":"Baden-Württemberg"}},{"name":"Hohlgasse","postalCode":"88339","locality":"Bad Waldsee","municipality":{"key":"08436009","name":"Bad Waldsee, Stadt","type":"Große_Kreisstadt"},"district":{"key":"08436","name":"Ravensburg","type":"Landkreis"},"federalState":{"key":"08","name":"Baden-Württemberg"}},{"name":"Hölderlinweg","postalCode":"88339","locality":"Bad Waldsee","municipality":{"key":"08436009","name":"Bad Waldsee, Stadt","type":"Große_Kreisstadt"},"district":{"key":"08436","name":"Ravensburg","type":"Landkreis"},"federalState":{"key":"08","name":"Baden-Württemberg"}},{"name":"Holderweg","postalCode":"88339","locality":"Bad Waldsee","municipality":{"key":"08436009","name":"Bad Waldsee, Stadt","type":"Große_Kreisstadt"},"district":{"key":"08436","name":"Ravensburg","type":"Landkreis"},"federalState":{"key":"08","name":"Baden-Württemberg"}},{"name":"Holunderpfad","postalCode":"88339","locality":"Bad Waldsee","municipality":{"key":"08436009","name":"Bad Waldsee, Stadt","type":"Große_Kreisstadt"},"district":{"key":"08436","name":"Ravensburg","type":"Landkreis"},"federalState":{"key":"08","name":"Baden-Württemberg"}},{"name":"Hopfengasse","postalCode":"88339","locality":"Bad Waldsee","municipality":{"key":"08436009","name":"Bad Waldsee, Stadt","type":"Große_Kreisstadt"},"district":{"key":"08436","name":"Ravensburg","type":"Landkreis"},"federalState":{"key":"08","name":"Baden-Württemberg"}},{"name":"Hopfenweilerweg","postalCode":"88339","locality":"Bad Waldsee","municipality":{"key":"08436009","name":"Bad Waldsee, Stadt","type":"Große_Kreisstadt"},"district":{"key":"08436","name":"Ravensburg","type":"Landkreis"},"federalState":{"key":"08","name":"Baden-Württemberg"}},{"name":"Hubertusstr.","postalCode":"88339","locality":"Bad Waldsee","municipality":{"key":"08436009","name":"Bad Waldsee, Stadt","type":"Große_Kreisstadt"},"district":{"key":"08436","name":"Ravensburg","type":"Landkreis"},"federalState":{"key":"08","name":"Baden-Württemberg"}},{"name":"Hungerbergstr.","postalCode":"88339","locality":"Bad Waldsee","municipality":{"key":"08436009","name":"Bad Waldsee, Stadt","type":"Große_Kreisstadt"},"district":{"key":"08436","name":"Ravensburg","type":"Landkreis"},"federalState":{"key":"08","name":"Baden-Württemberg"}},{"name":"Hürstäckerweg","postalCode":"88339","locality":"Bad Waldsee","municipality":{"key":"08436009","name":"Bad Waldsee, Stadt","type":"Große_Kreisstadt"},"district":{"key":"08436","name":"Ravensburg","type":"Landkreis"},"federalState":{"key":"08","name":"Baden-Württemberg"}},{"name":"Im Lausbühl","postalCode":"67165","locality":"Waldsee","municipality":{"key":"07338026","name":"Waldsee","type":"Kreisangehörige_Gemeinde"},"district":{"key":"07338","name":"Rhein-Pfalz-Kreis","type":"Landkreis"},"federalState":{"key":"07","name":"Rheinland-Pfalz"}},{"name":"Immanuel-Kant-Str.","postalCode":"67165","locality":"Waldsee","municipality":{"key":"07338026","name":"Waldsee","type":"Kreisangehörige_Gemeinde"},"district":{"key":"07338","name":"Rhein-Pfalz-Kreis","type":"Landkreis"},"federalState":{"key":"07","name":"Rheinland-Pfalz"}},{"name":"Immenweg","postalCode":"88339","locality":"Bad Waldsee","municipality":{"key":"08436009","name":"Bad Waldsee, Stadt","type":"Große_Kreisstadt"},"district":{"key":"08436","name":"Ravensburg","type":"Landkreis"},"federalState":{"key":"08","name":"Baden-Württemberg"}},{"name":"In den Fahrgärten","postalCode":"67165","locality":"Waldsee","municipality":{"key":"07338026","name":"Waldsee","type":"Kreisangehörige_Gemeinde"},"district":{"key":"07338","name":"Rhein-Pfalz-Kreis","type":"Landkreis"},"federalState":{"key":"07","name":"Rheinland-Pfalz"}},{"name":"In der Wingertsgewanne","postalCode":"67165","locality":"Waldsee","municipality":{"key":"07338026","name":"Waldsee","type":"Kreisangehörige_Gemeinde"},"district":{"key":"07338","name":"Rhein-Pfalz-Kreis","type":"Landkreis"},"federalState":{"key":"07","name":"Rheinland-Pfalz"}},{"name":"Irisweg","postalCode":"88339","locality":"Bad Waldsee","municipality":{"key":"08436009","name":"Bad Waldsee, Stadt","type":"Große_Kreisstadt"},"district":{"key":"08436","name":"Ravensburg","type":"Landkreis"},"federalState":{"key":"08","name":"Baden-Württemberg"}},{"name":"Isa-Boxler-Str.","postalCode":"88339","locality":"Bad Waldsee","municipality":{"key":"08436009","name":"Bad Waldsee, Stadt","type":"Große_Kreisstadt"},"district":{"key":"08436","name":"Ravensburg","type":"Landkreis"},"federalState":{"key":"08","name":"Baden-Württemberg"}},{"name":"Jahnstr.","postalCode":"67165","locality":"Waldsee","municipality":{"key":"07338026","name":"Waldsee","type":"Kreisangehörige_Gemeinde"},"district":{"key":"07338","name":"Rhein-Pfalz-Kreis","type":"Landkreis"},"federalState":{"key":"07","name":"Rheinland-Pfalz"}},{"name":"Jahnstr.","postalCode":"88339","locality":"Bad Waldsee","municipality":{"key":"08436009","name":"Bad Waldsee, Stadt","type":"Große_Kreisstadt"},"district":{"key":"08436","name":"Ravensburg","type":"Landkreis"},"federalState":{"key":"08","name":"Baden-Württemberg"}},{"name":"Johannes-Brahms-Str.","postalCode":"88339","locality":"Bad Waldsee","municipality":{"key":"08436009","name":"Bad Waldsee, Stadt","type":"Große_Kreisstadt"},"district":{"key":"08436","name":"Ravensburg","type":"Landkreis"},"federalState":{"key":"08","name":"Baden-Württemberg"}},{"name":"Johannesstr.","postalCode":"67165","locality":"Waldsee","municipality":{"key":"07338026","name":"Waldsee","type":"Kreisangehörige_Gemeinde"},"district":{"key":"07338","name":"Rhein-Pfalz-Kreis","type":"Landkreis"},"federalState":{"key":"07","name":"Rheinland-Pfalz"}},{"name":"Johann-Sailer-Str.","postalCode":"88339","locality":"Bad Waldsee","municipality":{"key":"08436009","name":"Bad Waldsee, Stadt","type":"Große_Kreisstadt"},"district":{"key":"08436","name":"Ravensburg","type":"Landkreis"},"federalState":{"key":"08","name":"Baden-Württemberg"}},{"name":"Johann-Sebastian-Bach-Str.","postalCode":"88339","locality":"Bad Waldsee","municipality":{"key":"08436009","name":"Bad Waldsee, Stadt","type":"Große_Kreisstadt"},"district":{"key":"08436","name":"Ravensburg","type":"Landkreis"},"federalState":{"key":"08","name":"Baden-Württemberg"}},{"name":"Jörg-Zürn-Str.","postalCode":"88339","locality":"Bad Waldsee","municipality":{"key":"08436009","name":"Bad Waldsee, Stadt","type":"Große_Kreisstadt"},"district":{"key":"08436","name":"Ravensburg","type":"Landkreis"},"federalState":{"key":"08","name":"Baden-Württemberg"}},{"name":"Josef-Krug-Str.","postalCode":"88339","locality":"Bad Waldsee","municipality":{"key":"08436009","name":"Bad Waldsee, Stadt","type":"Große_Kreisstadt"},"district":{"key":"08436","name":"Ravensburg","type":"Landkreis"},"federalState":{"key":"08","name":"Baden-Württemberg"}},{"name":"Josefsbrunnen","postalCode":"88339","locality":"Bad Waldsee","municipality":{"key":"08436009","name":"Bad Waldsee, Stadt","type":"Große_Kreisstadt"},"district":{"key":"08436","name":"Ravensburg","type":"Landkreis"},"federalState":{"key":"08","name":"Baden-Württemberg"}},{"name":"Joseph-Haydn-Str.","postalCode":"67165","locality":"Waldsee","municipality":{"key":"07338026","name":"Waldsee","type":"Kreisangehörige_Gemeinde"},"district":{"key":"07338","name":"Rhein-Pfalz-Kreis","type":"Landkreis"},"federalState":{"key":"07","name":"Rheinland-Pfalz"}},{"name":"Kammermoosstr.","postalCode":"88339","locality":"Bad Waldsee","municipality":{"key":"08436009","name":"Bad Waldsee, Stadt","type":"Große_Kreisstadt"},"district":{"key":"08436","name":"Ravensburg","type":"Landkreis"},"federalState":{"key":"08","name":"Baden-Württemberg"}},{"name":"Kanalstr.","postalCode":"67165","locality":"Waldsee","municipality":{"key":"07338026","name":"Waldsee","type":"Kreisangehörige_Gemeinde"},"district":{"key":"07338","name":"Rhein-Pfalz-Kreis","type":"Landkreis"},"federalState":{"key":"07","name":"Rheinland-Pfalz"}},{"name":"Kapellenstr.","postalCode":"67165","locality":"Waldsee","municipality":{"key":"07338026","name":"Waldsee","type":"Kreisangehörige_Gemeinde"},"district":{"key":"07338","name":"Rhein-Pfalz-Kreis","type":"Landkreis"},"federalState":{"key":"07","name":"Rheinland-Pfalz"}},{"name":"Kapellenweg","postalCode":"88339","locality":"Bad Waldsee","municipality":{"key":"08436009","name":"Bad Waldsee, Stadt","type":"Große_Kreisstadt"},"district":{"key":"08436","name":"Ravensburg","type":"Landkreis"},"federalState":{"key":"08","name":"Baden-Württemberg"}},{"name":"Kardinal-von-Rodt-Str.","postalCode":"88339","locality":"Bad Waldsee","municipality":{"key":"08436009","name":"Bad Waldsee, Stadt","type":"Große_Kreisstadt"},"district":{"key":"08436","name":"Ravensburg","type":"Landkreis"},"federalState":{"key":"08","name":"Baden-Württemberg"}},{"name":"Karl-Ferdinant-Braun-Str.","postalCode":"67165","locality":"Waldsee","municipality":{"key":"07338026","name":"Waldsee","type":"Kreisangehörige_Gemeinde"},"district":{"key":"07338","name":"Rhein-Pfalz-Kreis","type":"Landkreis"},"federalState":{"key":"07","name":"Rheinland-Pfalz"}},{"name":"Karlstr.","postalCode":"67165","locality":"Waldsee","municipality":{"key":"07338026","name":"Waldsee","type":"Kreisangehörige_Gemeinde"},"district":{"key":"07338","name":"Rhein-Pfalz-Kreis","type":"Landkreis"},"federalState":{"key":"07","name":"Rheinland-Pfalz"}},{"name":"Kastanienweg","postalCode":"88339","locality":"Bad Waldsee","municipality":{"key":"08436009","name":"Bad Waldsee, Stadt","type":"Große_Kreisstadt"},"district":{"key":"08436","name":"Ravensburg","type":"Landkreis"},"federalState":{"key":"08","name":"Baden-Württemberg"}},{"name":"Keltenweg","postalCode":"88339","locality":"Bad Waldsee","municipality":{"key":"08436009","name":"Bad Waldsee, Stadt","type":"Große_Kreisstadt"},"district":{"key":"08436","name":"Ravensburg","type":"Landkreis"},"federalState":{"key":"08","name":"Baden-Württemberg"}},{"name":"Kettelerstr.","postalCode":"67165","locality":"Waldsee","municipality":{"key":"07338026","name":"Waldsee","type":"Kreisangehörige_Gemeinde"},"district":{"key":"07338","name":"Rhein-Pfalz-Kreis","type":"Landkreis"},"federalState":{"key":"07","name":"Rheinland-Pfalz"}},{"name":"Kirchstr.","postalCode":"67165","locality":"Waldsee","municipality":{"key":"07338026","name":"Waldsee","type":"Kreisangehörige_Gemeinde"},"district":{"key":"07338","name":"Rhein-Pfalz-Kreis","type":"Landkreis"},"federalState":{"key":"07","name":"Rheinland-Pfalz"}},{"name":"Kirchweg","postalCode":"88339","locality":"Bad Waldsee","municipality":{"key":"08436009","name":"Bad Waldsee, Stadt","type":"Große_Kreisstadt"},"district":{"key":"08436","name":"Ravensburg","type":"Landkreis"},"federalState":{"key":"08","name":"Baden-Württemberg"}},{"name":"Kirrlohstr.","postalCode":"88339","locality":"Bad Waldsee","municipality":{"key":"08436009","name":"Bad Waldsee, Stadt","type":"Große_Kreisstadt"},"district":{"key":"08436","name":"Ravensburg","type":"Landkreis"},"federalState":{"key":"08","name":"Baden-Württemberg"}},{"name":"Kleineschleweg","postalCode":"88339","locality":"Bad Waldsee","municipality":{"key":"08436009","name":"Bad Waldsee, Stadt","type":"Große_Kreisstadt"},"district":{"key":"08436","name":"Ravensburg","type":"Landkreis"},"federalState":{"key":"08","name":"Baden-Württemberg"}},{"name":"Klostergasse","postalCode":"88339","locality":"Bad Waldsee","municipality":{"key":"08436009","name":"Bad Waldsee, Stadt","type":"Große_Kreisstadt"},"district":{"key":"08436","name":"Ravensburg","type":"Landkreis"},"federalState":{"key":"08","name":"Baden-Württemberg"}},{"name":"Klosterhof","postalCode":"88339","locality":"Bad Waldsee","municipality":{"key":"08436009","name":"Bad Waldsee, Stadt","type":"Große_Kreisstadt"},"district":{"key":"08436","name":"Ravensburg","type":"Landkreis"},"federalState":{"key":"08","name":"Baden-Württemberg"}},{"name":"Köhlerweg","postalCode":"88339","locality":"Bad Waldsee","municipality":{"key":"08436009","name":"Bad Waldsee, Stadt","type":"Große_Kreisstadt"},"district":{"key":"08436","name":"Ravensburg","type":"Landkreis"},"federalState":{"key":"08","name":"Baden-Württemberg"}},{"name":"Kohlgasse","postalCode":"88339","locality":"Bad Waldsee","municipality":{"key":"08436009","name":"Bad Waldsee, Stadt","type":"Große_Kreisstadt"},"district":{"key":"08436","name":"Ravensburg","type":"Landkreis"},"federalState":{"key":"08","name":"Baden-Württemberg"}},{"name":"Kolpingstr.","postalCode":"88339","locality":"Bad Waldsee","municipality":{"key":"08436009","name":"Bad Waldsee, Stadt","type":"Große_Kreisstadt"},"district":{"key":"08436","name":"Ravensburg","type":"Landkreis"},"federalState":{"key":"08","name":"Baden-Württemberg"}},{"name":"Königsberger Str.","postalCode":"67165","locality":"Waldsee","municipality":{"key":"07338026","name":"Waldsee","type":"Kreisangehörige_Gemeinde"},"district":{"key":"07338","name":"Rhein-Pfalz-Kreis","type":"Landkreis"},"federalState":{"key":"07","name":"Rheinland-Pfalz"}},{"name":"Konstantin-Dausch-Str.","postalCode":"88339","locality":"Bad Waldsee","municipality":{"key":"08436009","name":"Bad Waldsee, Stadt","type":"Große_Kreisstadt"},"district":{"key":"08436","name":"Ravensburg","type":"Landkreis"},"federalState":{"key":"08","name":"Baden-Württemberg"}},{"name":"Konsul-Reiß-Str.","postalCode":"67165","locality":"Waldsee","municipality":{"key":"07338026","name":"Waldsee","type":"Kreisangehörige_Gemeinde"},"district":{"key":"07338","name":"Rhein-Pfalz-Kreis","type":"Landkreis"},"federalState":{"key":"07","name":"Rheinland-Pfalz"}},{"name":"Kornblumenweg","postalCode":"88339","locality":"Bad Waldsee","municipality":{"key":"08436009","name":"Bad Waldsee, Stadt","type":"Große_Kreisstadt"},"district":{"key":"08436","name":"Ravensburg","type":"Landkreis"},"federalState":{"key":"08","name":"Baden-Württemberg"}},{"name":"Körnerweg","postalCode":"88339","locality":"Bad Waldsee","municipality":{"key":"08436009","name":"Bad Waldsee, Stadt","type":"Große_Kreisstadt"},"district":{"key":"08436","name":"Ravensburg","type":"Landkreis"},"federalState":{"key":"08","name":"Baden-Württemberg"}},{"name":"Kornweg","postalCode":"88339","locality":"Bad Waldsee","municipality":{"key":"08436009","name":"Bad Waldsee, Stadt","type":"Große_Kreisstadt"},"district":{"key":"08436","name":"Ravensburg","type":"Landkreis"},"federalState":{"key":"08","name":"Baden-Württemberg"}},{"name":"Kremserweg","postalCode":"88339","locality":"Bad Waldsee","municipality":{"key":"08436009","name":"Bad Waldsee, Stadt","type":"Große_Kreisstadt"},"district":{"key":"08436","name":"Ravensburg","type":"Landkreis"},"federalState":{"key":"08","name":"Baden-Württemberg"}},{"name":"Kümmerazhofer Str.","postalCode":"88339","locality":"Bad Waldsee","municipality":{"key":"08436009","name":"Bad Waldsee, Stadt","type":"Große_Kreisstadt"},"district":{"key":"08436","name":"Ravensburg","type":"Landkreis"},"federalState":{"key":"08","name":"Baden-Württemberg"}},{"name":"Kurpark","postalCode":"88339","locality":"Bad Waldsee","municipality":{"key":"08436009","name":"Bad Waldsee, Stadt","type":"Große_Kreisstadt"},"district":{"key":"08436","name":"Ravensburg","type":"Landkreis"},"federalState":{"key":"08","name":"Baden-Württemberg"}},{"name":"Kurt-Weill-Str.","postalCode":"88339","locality":"Bad Waldsee","municipality":{"key":"08436009","name":"Bad Waldsee, Stadt","type":"Große_Kreisstadt"},"district":{"key":"08436","name":"Ravensburg","type":"Landkreis"},"federalState":{"key":"08","name":"Baden-Württemberg"}},{"name":"Kurze Str.","postalCode":"88339","locality":"Bad Waldsee","municipality":{"key":"08436009","name":"Bad Waldsee, Stadt","type":"Große_Kreisstadt"},"district":{"key":"08436","name":"Ravensburg","type":"Landkreis"},"federalState":{"key":"08","name":"Baden-Württemberg"}},{"name":"Landstr.","postalCode":"88339","locality":"Bad Waldsee","municipality":{"key":"08436009","name":"Bad Waldsee, Stadt","type":"Große_Kreisstadt"},"district":{"key":"08436","name":"Ravensburg","type":"Landkreis"},"federalState":{"key":"08","name":"Baden-Württemberg"}},{"name":"Lehmgrubenweg","postalCode":"88339","locality":"Bad Waldsee","municipality":{"key":"08436009","name":"Bad Waldsee, Stadt","type":"Große_Kreisstadt"},"district":{"key":"08436","name":"Ravensburg","type":"Landkreis"},"federalState":{"key":"08","name":"Baden-Württemberg"}},{"name":"Lerchenstr.","postalCode":"67165","locality":"Waldsee","municipality":{"key":"07338026","name":"Waldsee","type":"Kreisangehörige_Gemeinde"},"district":{"key":"07338","name":"Rhein-Pfalz-Kreis","type":"Landkreis"},"federalState":{"key":"07","name":"Rheinland-Pfalz"}},{"name":"Lerchenweg","postalCode":"88339","locality":"Bad Waldsee","municipality":{"key":"08436009","name":"Bad Waldsee, Stadt","type":"Große_Kreisstadt"},"district":{"key":"08436","name":"Ravensburg","type":"Landkreis"},"federalState":{"key":"08","name":"Baden-Württemberg"}},{"name":"Lettenweg","postalCode":"88339","locality":"Bad Waldsee","municipality":{"key":"08436009","name":"Bad Waldsee, Stadt","type":"Große_Kreisstadt"},"district":{"key":"08436","name":"Ravensburg","type":"Landkreis"},"federalState":{"key":"08","name":"Baden-Württemberg"}},{"name":"Liebigstr.","postalCode":"67165","locality":"Waldsee","municipality":{"key":"07338026","name":"Waldsee","type":"Kreisangehörige_Gemeinde"},"district":{"key":"07338","name":"Rhein-Pfalz-Kreis","type":"Landkreis"},"federalState":{"key":"07","name":"Rheinland-Pfalz"}},{"name":"Ligusterweg","postalCode":"88339","locality":"Bad Waldsee","municipality":{"key":"08436009","name":"Bad Waldsee, Stadt","type":"Große_Kreisstadt"},"district":{"key":"08436","name":"Ravensburg","type":"Landkreis"},"federalState":{"key":"08","name":"Baden-Württemberg"}},{"name":"Lilienweg","postalCode":"88339","locality":"Bad Waldsee","municipality":{"key":"08436009","name":"Bad Waldsee, Stadt","type":"Große_Kreisstadt"},"district":{"key":"08436","name":"Ravensburg","type":"Landkreis"},"federalState":{"key":"08","name":"Baden-Württemberg"}},{"name":"Lindenstr.","postalCode":"67165","locality":"Waldsee","municipality":{"key":"07338026","name":"Waldsee","type":"Kreisangehörige_Gemeinde"},"district":{"key":"07338","name":"Rhein-Pfalz-Kreis","type":"Landkreis"},"federalState":{"key":"07","name":"Rheinland-Pfalz"}},{"name":"Lindenweg","postalCode":"88339","locality":"Bad Waldsee","municipality":{"key":"08436009","name":"Bad Waldsee, Stadt","type":"Große_Kreisstadt"},"district":{"key":"08436","name":"Ravensburg","type":"Landkreis"},"federalState":{"key":"08","name":"Baden-Württemberg"}},{"name":"Löhleweg","postalCode":"88339","locality":"Bad Waldsee","municipality":{"key":"08436009","name":"Bad Waldsee, Stadt","type":"Große_Kreisstadt"},"district":{"key":"08436","name":"Ravensburg","type":"Landkreis"},"federalState":{"key":"08","name":"Baden-Württemberg"}},{"name":"Lortzingstr.","postalCode":"88339","locality":"Bad Waldsee","municipality":{"key":"08436009","name":"Bad Waldsee, Stadt","type":"Große_Kreisstadt"},"district":{"key":"08436","name":"Ravensburg","type":"Landkreis"},"federalState":{"key":"08","name":"Baden-Württemberg"}},{"name":"Ludwigstr.","postalCode":"67165","locality":"Waldsee","municipality":{"key":"07338026","name":"Waldsee","type":"Kreisangehörige_Gemeinde"},"district":{"key":"07338","name":"Rhein-Pfalz-Kreis","type":"Landkreis"},"federalState":{"key":"07","name":"Rheinland-Pfalz"}},{"name":"Ludwig-Thoma-Str.","postalCode":"67165","locality":"Waldsee","municipality":{"key":"07338026","name":"Waldsee","type":"Kreisangehörige_Gemeinde"},"district":{"key":"07338","name":"Rhein-Pfalz-Kreis","type":"Landkreis"},"federalState":{"key":"07","name":"Rheinland-Pfalz"}},{"name":"Lutzenstr.","postalCode":"67165","locality":"Waldsee","municipality":{"key":"07338026","name":"Waldsee","type":"Kreisangehörige_Gemeinde"},"district":{"key":"07338","name":"Rhein-Pfalz-Kreis","type":"Landkreis"},"federalState":{"key":"07","name":"Rheinland-Pfalz"}},{"name":"Mahlgasse","postalCode":"88339","locality":"Bad Waldsee","municipality":{"key":"08436009","name":"Bad Waldsee, Stadt","type":"Große_Kreisstadt"},"district":{"key":"08436","name":"Ravensburg","type":"Landkreis"},"federalState":{"key":"08","name":"Baden-Württemberg"}},{"name":"Malterstr.","postalCode":"88339","locality":"Bad Waldsee","municipality":{"key":"08436009","name":"Bad Waldsee, Stadt","type":"Große_Kreisstadt"},"district":{"key":"08436","name":"Ravensburg","type":"Landkreis"},"federalState":{"key":"08","name":"Baden-Württemberg"}},{"name":"Mälzergasse","postalCode":"88339","locality":"Bad Waldsee","municipality":{"key":"08436009","name":"Bad Waldsee, Stadt","type":"Große_Kreisstadt"},"district":{"key":"08436","name":"Ravensburg","type":"Landkreis"},"federalState":{"key":"08","name":"Baden-Württemberg"}},{"name":"Marderweg","postalCode":"88339","locality":"Bad Waldsee","municipality":{"key":"08436009","name":"Bad Waldsee, Stadt","type":"Große_Kreisstadt"},"district":{"key":"08436","name":"Ravensburg","type":"Landkreis"},"federalState":{"key":"08","name":"Baden-Württemberg"}},{"name":"Maria-Menz-Str.","postalCode":"88339","locality":"Bad Waldsee","municipality":{"key":"08436009","name":"Bad Waldsee, Stadt","type":"Große_Kreisstadt"},"district":{"key":"08436","name":"Ravensburg","type":"Landkreis"},"federalState":{"key":"08","name":"Baden-Württemberg"}},{"name":"Maria-Müller-Gögler-Str.","postalCode":"88339","locality":"Bad Waldsee","municipality":{"key":"08436009","name":"Bad Waldsee, Stadt","type":"Große_Kreisstadt"},"district":{"key":"08436","name":"Ravensburg","type":"Landkreis"},"federalState":{"key":"08","name":"Baden-Württemberg"}},{"name":"Martin-Niemöller-Str.","postalCode":"67165","locality":"Waldsee","municipality":{"key":"07338026","name":"Waldsee","type":"Kreisangehörige_Gemeinde"},"district":{"key":"07338","name":"Rhein-Pfalz-Kreis","type":"Landkreis"},"federalState":{"key":"07","name":"Rheinland-Pfalz"}},{"name":"Max-Planck-Str.","postalCode":"67165","locality":"Waldsee","municipality":{"key":"07338026","name":"Waldsee","type":"Kreisangehörige_Gemeinde"},"district":{"key":"07338","name":"Rhein-Pfalz-Kreis","type":"Landkreis"},"federalState":{"key":"07","name":"Rheinland-Pfalz"}},{"name":"Max-Reger-Str.","postalCode":"88339","locality":"Bad Waldsee","municipality":{"key":"08436009","name":"Bad Waldsee, Stadt","type":"Große_Kreisstadt"},"district":{"key":"08436","name":"Ravensburg","type":"Landkreis"},"federalState":{"key":"08","name":"Baden-Württemberg"}},{"name":"Max-Slevogt-Str.","postalCode":"67165","locality":"Waldsee","municipality":{"key":"07338026","name":"Waldsee","type":"Kreisangehörige_Gemeinde"},"district":{"key":"07338","name":"Rhein-Pfalz-Kreis","type":"Landkreis"},"federalState":{"key":"07","name":"Rheinland-Pfalz"}},{"name":"Maxstr.","postalCode":"67165","locality":"Waldsee","municipality":{"key":"07338026","name":"Waldsee","type":"Kreisangehörige_Gemeinde"},"district":{"key":"07338","name":"Rhein-Pfalz-Kreis","type":"Landkreis"},"federalState":{"key":"07","name":"Rheinland-Pfalz"}},{"name":"Meisenweg","postalCode":"88339","locality":"Bad Waldsee","municipality":{"key":"08436009","name":"Bad Waldsee, Stadt","type":"Große_Kreisstadt"},"district":{"key":"08436","name":"Ravensburg","type":"Landkreis"},"federalState":{"key":"08","name":"Baden-Württemberg"}},{"name":"Meisterberg","postalCode":"88339","locality":"Bad Waldsee","municipality":{"key":"08436009","name":"Bad Waldsee, Stadt","type":"Große_Kreisstadt"},"district":{"key":"08436","name":"Ravensburg","type":"Landkreis"},"federalState":{"key":"08","name":"Baden-Württemberg"}},{"name":"Mohnweg","postalCode":"88339","locality":"Bad Waldsee","municipality":{"key":"08436009","name":"Bad Waldsee, Stadt","type":"Große_Kreisstadt"},"district":{"key":"08436","name":"Ravensburg","type":"Landkreis"},"federalState":{"key":"08","name":"Baden-Württemberg"}},{"name":"Molitorstr.","postalCode":"88339","locality":"Bad Waldsee","municipality":{"key":"08436009","name":"Bad Waldsee, Stadt","type":"Große_Kreisstadt"},"district":{"key":"08436","name":"Ravensburg","type":"Landkreis"},"federalState":{"key":"08","name":"Baden-Württemberg"}},{"name":"Moorbirkenweg","postalCode":"88339","locality":"Bad Waldsee","municipality":{"key":"08436009","name":"Bad Waldsee, Stadt","type":"Große_Kreisstadt"},"district":{"key":"08436","name":"Ravensburg","type":"Landkreis"},"federalState":{"key":"08","name":"Baden-Württemberg"}},{"name":"Moorrainweg","postalCode":"88339","locality":"Bad Waldsee","municipality":{"key":"08436009","name":"Bad Waldsee, Stadt","type":"Große_Kreisstadt"},"district":{"key":"08436","name":"Ravensburg","type":"Landkreis"},"federalState":{"key":"08","name":"Baden-Württemberg"}},{"name":"Moortümpelweg","postalCode":"88339","locality":"Bad Waldsee","municipality":{"key":"08436009","name":"Bad Waldsee, Stadt","type":"Große_Kreisstadt"},"district":{"key":"08436","name":"Ravensburg","type":"Landkreis"},"federalState":{"key":"08","name":"Baden-Württemberg"}},{"name":"Mörikeweg","postalCode":"88339","locality":"Bad Waldsee","municipality":{"key":"08436009","name":"Bad Waldsee, Stadt","type":"Große_Kreisstadt"},"district":{"key":"08436","name":"Ravensburg","type":"Landkreis"},"federalState":{"key":"08","name":"Baden-Württemberg"}},{"name":"Mörschstr.","postalCode":"67165","locality":"Waldsee","municipality":{"key":"07338026","name":"Waldsee","type":"Kreisangehörige_Gemeinde"},"district":{"key":"07338","name":"Rhein-Pfalz-Kreis","type":"Landkreis"},"federalState":{"key":"07","name":"Rheinland-Pfalz"}},{"name":"Möserweg","postalCode":"88339","locality":"Bad Waldsee","municipality":{"key":"08436009","name":"Bad Waldsee, Stadt","type":"Große_Kreisstadt"},"district":{"key":"08436","name":"Ravensburg","type":"Landkreis"},"federalState":{"key":"08","name":"Baden-Württemberg"}},{"name":"Mostgasse","postalCode":"88339","locality":"Bad Waldsee","municipality":{"key":"08436009","name":"Bad Waldsee, Stadt","type":"Große_Kreisstadt"},"district":{"key":"08436","name":"Ravensburg","type":"Landkreis"},"federalState":{"key":"08","name":"Baden-Württemberg"}},{"name":"Mozartstr.","postalCode":"67165","locality":"Waldsee","municipality":{"key":"07338026","name":"Waldsee","type":"Kreisangehörige_Gemeinde"},"district":{"key":"07338","name":"Rhein-Pfalz-Kreis","type":"Landkreis"},"federalState":{"key":"07","name":"Rheinland-Pfalz"}},{"name":"Mozartstr.","postalCode":"88339","locality":"Bad Waldsee","municipality":{"key":"08436009","name":"Bad Waldsee, Stadt","type":"Große_Kreisstadt"},"district":{"key":"08436","name":"Ravensburg","type":"Landkreis"},"federalState":{"key":"08","name":"Baden-Württemberg"}},{"name":"Mühlbachweg","postalCode":"88339","locality":"Bad Waldsee","municipality":{"key":"08436009","name":"Bad Waldsee, Stadt","type":"Große_Kreisstadt"},"district":{"key":"08436","name":"Ravensburg","type":"Landkreis"},"federalState":{"key":"08","name":"Baden-Württemberg"}},{"name":"Mühlbergring","postalCode":"88339","locality":"Bad Waldsee","municipality":{"key":"08436009","name":"Bad Waldsee, Stadt","type":"Große_Kreisstadt"},"district":{"key":"08436","name":"Ravensburg","type":"Landkreis"},"federalState":{"key":"08","name":"Baden-Württemberg"}},{"name":"Mühlhauser Str.","postalCode":"88339","locality":"Bad Waldsee","municipality":{"key":"08436009","name":"Bad Waldsee, Stadt","type":"Große_Kreisstadt"},"district":{"key":"08436","name":"Ravensburg","type":"Landkreis"},"federalState":{"key":"08","name":"Baden-Württemberg"}},{"name":"Mühlstr.","postalCode":"67165","locality":"Waldsee","municipality":{"key":"07338026","name":"Waldsee","type":"Kreisangehörige_Gemeinde"},"district":{"key":"07338","name":"Rhein-Pfalz-Kreis","type":"Landkreis"},"federalState":{"key":"07","name":"Rheinland-Pfalz"}},{"name":"Mühlweg","postalCode":"88339","locality":"Bad Waldsee","municipality":{"key":"08436009","name":"Bad Waldsee, Stadt","type":"Große_Kreisstadt"},"district":{"key":"08436","name":"Ravensburg","type":"Landkreis"},"federalState":{"key":"08","name":"Baden-Württemberg"}},{"name":"Mühlwiesenstr.","postalCode":"88339","locality":"Bad Waldsee","municipality":{"key":"08436009","name":"Bad Waldsee, Stadt","type":"Große_Kreisstadt"},"district":{"key":"08436","name":"Ravensburg","type":"Landkreis"},"federalState":{"key":"08","name":"Baden-Württemberg"}},{"name":"Müllerbühlstr.","postalCode":"88339","locality":"Bad Waldsee","municipality":{"key":"08436009","name":"Bad Waldsee, Stadt","type":"Große_Kreisstadt"},"district":{"key":"08436","name":"Ravensburg","type":"Landkreis"},"federalState":{"key":"08","name":"Baden-Württemberg"}},{"name":"Muschgaystr.","postalCode":"88339","locality":"Bad Waldsee","municipality":{"key":"08436009","name":"Bad Waldsee, Stadt","type":"Große_Kreisstadt"},"district":{"key":"08436","name":"Ravensburg","type":"Landkreis"},"federalState":{"key":"08","name":"Baden-Württemberg"}},{"name":"Nelkenweg","postalCode":"88339","locality":"Bad Waldsee","municipality":{"key":"08436009","name":"Bad Waldsee, Stadt","type":"Große_Kreisstadt"},"district":{"key":"08436","name":"Ravensburg","type":"Landkreis"},"federalState":{"key":"08","name":"Baden-Württemberg"}},{"name":"Neuer Schulweg","postalCode":"88339","locality":"Bad Waldsee","municipality":{"key":"08436009","name":"Bad Waldsee, Stadt","type":"Große_Kreisstadt"},"district":{"key":"08436","name":"Ravensburg","type":"Landkreis"},"federalState":{"key":"08","name":"Baden-Württemberg"}},{"name":"Neuhofener Str.","postalCode":"67165","locality":"Waldsee","municipality":{"key":"07338026","name":"Waldsee","type":"Kreisangehörige_Gemeinde"},"district":{"key":"07338","name":"Rhein-Pfalz-Kreis","type":"Landkreis"},"federalState":{"key":"07","name":"Rheinland-Pfalz"}},{"name":"Niederersgasse","postalCode":"88339","locality":"Bad Waldsee","municipality":{"key":"08436009","name":"Bad Waldsee, Stadt","type":"Große_Kreisstadt"},"district":{"key":"08436","name":"Ravensburg","type":"Landkreis"},"federalState":{"key":"08","name":"Baden-Württemberg"}},{"name":"Oberamteigasse","postalCode":"88339","locality":"Bad Waldsee","municipality":{"key":"08436009","name":"Bad Waldsee, Stadt","type":"Große_Kreisstadt"},"district":{"key":"08436","name":"Ravensburg","type":"Landkreis"},"federalState":{"key":"08","name":"Baden-Württemberg"}},{"name":"Oberer Weg","postalCode":"88339","locality":"Bad Waldsee","municipality":{"key":"08436009","name":"Bad Waldsee, Stadt","type":"Große_Kreisstadt"},"district":{"key":"08436","name":"Ravensburg","type":"Landkreis"},"federalState":{"key":"08","name":"Baden-Württemberg"}},{"name":"Oberriedweg","postalCode":"88339","locality":"Bad Waldsee","municipality":{"key":"08436009","name":"Bad Waldsee, Stadt","type":"Große_Kreisstadt"},"district":{"key":"08436","name":"Ravensburg","type":"Landkreis"},"federalState":{"key":"08","name":"Baden-Württemberg"}},{"name":"Obstgarten","postalCode":"88339","locality":"Bad Waldsee","municipality":{"key":"08436009","name":"Bad Waldsee, Stadt","type":"Große_Kreisstadt"},"district":{"key":"08436","name":"Ravensburg","type":"Landkreis"},"federalState":{"key":"08","name":"Baden-Württemberg"}},{"name":"Orffstr.","postalCode":"88339","locality":"Bad Waldsee","municipality":{"key":"08436009","name":"Bad Waldsee, Stadt","type":"Große_Kreisstadt"},"district":{"key":"08436","name":"Ravensburg","type":"Landkreis"},"federalState":{"key":"08","name":"Baden-Württemberg"}},{"name":"Osterhofer Str.","postalCode":"88339","locality":"Bad Waldsee","municipality":{"key":"08436009","name":"Bad Waldsee, Stadt","type":"Große_Kreisstadt"},"district":{"key":"08436","name":"Ravensburg","type":"Landkreis"},"federalState":{"key":"08","name":"Baden-Württemberg"}},{"name":"Osterholzweg","postalCode":"88339","locality":"Bad Waldsee","municipality":{"key":"08436009","name":"Bad Waldsee, Stadt","type":"Große_Kreisstadt"},"district":{"key":"08436","name":"Ravensburg","type":"Landkreis"},"federalState":{"key":"08","name":"Baden-Württemberg"}},{"name":"Ostpreussenstr.","postalCode":"67165","locality":"Waldsee","municipality":{"key":"07338026","name":"Waldsee","type":"Kreisangehörige_Gemeinde"},"district":{"key":"07338","name":"Rhein-Pfalz-Kreis","type":"Landkreis"},"federalState":{"key":"07","name":"Rheinland-Pfalz"}},{"name":"Otto-Ditscher-Str.","postalCode":"67165","locality":"Waldsee","municipality":{"key":"07338026","name":"Waldsee","type":"Kreisangehörige_Gemeinde"},"district":{"key":"07338","name":"Rhein-Pfalz-Kreis","type":"Landkreis"},"federalState":{"key":"07","name":"Rheinland-Pfalz"}},{"name":"Otto-Hahn-Str.","postalCode":"67165","locality":"Waldsee","municipality":{"key":"07338026","name":"Waldsee","type":"Kreisangehörige_Gemeinde"},"district":{"key":"07338","name":"Rhein-Pfalz-Kreis","type":"Landkreis"},"federalState":{"key":"07","name":"Rheinland-Pfalz"}},{"name":"Panoramaweg","postalCode":"88339","locality":"Bad Waldsee","municipality":{"key":"08436009","name":"Bad Waldsee, Stadt","type":"Große_Kreisstadt"},"district":{"key":"08436","name":"Ravensburg","type":"Landkreis"},"federalState":{"key":"08","name":"Baden-Württemberg"}},{"name":"Pappelweg","postalCode":"88339","locality":"Bad Waldsee","municipality":{"key":"08436009","name":"Bad Waldsee, Stadt","type":"Große_Kreisstadt"},"district":{"key":"08436","name":"Ravensburg","type":"Landkreis"},"federalState":{"key":"08","name":"Baden-Württemberg"}},{"name":"Park am Durlesbach","postalCode":"88339","locality":"Bad Waldsee","municipality":{"key":"08436009","name":"Bad Waldsee, Stadt","type":"Große_Kreisstadt"},"district":{"key":"08436","name":"Ravensburg","type":"Landkreis"},"federalState":{"key":"08","name":"Baden-Württemberg"}},{"name":"Paul-Lincke-Str.","postalCode":"88339","locality":"Bad Waldsee","municipality":{"key":"08436009","name":"Bad Waldsee, Stadt","type":"Große_Kreisstadt"},"district":{"key":"08436","name":"Ravensburg","type":"Landkreis"},"federalState":{"key":"08","name":"Baden-Württemberg"}},{"name":"Pestalozzistr.","postalCode":"67165","locality":"Waldsee","municipality":{"key":"07338026","name":"Waldsee","type":"Kreisangehörige_Gemeinde"},"district":{"key":"07338","name":"Rhein-Pfalz-Kreis","type":"Landkreis"},"federalState":{"key":"07","name":"Rheinland-Pfalz"}},{"name":"Pestalozzistr.","postalCode":"88339","locality":"Bad Waldsee","municipality":{"key":"08436009","name":"Bad Waldsee, Stadt","type":"Große_Kreisstadt"},"district":{"key":"08436","name":"Ravensburg","type":"Landkreis"},"federalState":{"key":"08","name":"Baden-Württemberg"}},{"name":"Pfannenbühlstr.","postalCode":"88339","locality":"Bad Waldsee","municipality":{"key":"08436009","name":"Bad Waldsee, Stadt","type":"Große_Kreisstadt"},"district":{"key":"08436","name":"Ravensburg","type":"Landkreis"},"federalState":{"key":"08","name":"Baden-Württemberg"}},{"name":"Pfarrgasse","postalCode":"88339","locality":"Bad Waldsee","municipality":{"key":"08436009","name":"Bad Waldsee, Stadt","type":"Große_Kreisstadt"},"district":{"key":"08436","name":"Ravensburg","type":"Landkreis"},"federalState":{"key":"08","name":"Baden-Württemberg"}},{"name":"Philipp-Hirsch-Str.","postalCode":"67165","locality":"Waldsee","municipality":{"key":"07338026","name":"Waldsee","type":"Kreisangehörige_Gemeinde"},"district":{"key":"07338","name":"Rhein-Pfalz-Kreis","type":"Landkreis"},"federalState":{"key":"07","name":"Rheinland-Pfalz"}},{"name":"Pommernstr.","postalCode":"67165","locality":"Waldsee","municipality":{"key":"07338026","name":"Waldsee","type":"Kreisangehörige_Gemeinde"},"district":{"key":"07338","name":"Rhein-Pfalz-Kreis","type":"Landkreis"},"federalState":{"key":"07","name":"Rheinland-Pfalz"}},{"name":"Postgasse","postalCode":"88339","locality":"Bad Waldsee","municipality":{"key":"08436009","name":"Bad Waldsee, Stadt","type":"Große_Kreisstadt"},"district":{"key":"08436","name":"Ravensburg","type":"Landkreis"},"federalState":{"key":"08","name":"Baden-Württemberg"}},{"name":"Primelweg","postalCode":"88339","locality":"Bad Waldsee","municipality":{"key":"08436009","name":"Bad Waldsee, Stadt","type":"Große_Kreisstadt"},"district":{"key":"08436","name":"Ravensburg","type":"Landkreis"},"federalState":{"key":"08","name":"Baden-Württemberg"}},{"name":"Propst-Kügelin-Str.","postalCode":"88339","locality":"Bad Waldsee","municipality":{"key":"08436009","name":"Bad Waldsee, Stadt","type":"Große_Kreisstadt"},"district":{"key":"08436","name":"Ravensburg","type":"Landkreis"},"federalState":{"key":"08","name":"Baden-Württemberg"}},{"name":"Rädlesbachweg","postalCode":"88339","locality":"Bad Waldsee","municipality":{"key":"08436009","name":"Bad Waldsee, Stadt","type":"Große_Kreisstadt"},"district":{"key":"08436","name":"Ravensburg","type":"Landkreis"},"federalState":{"key":"08","name":"Baden-Württemberg"}},{"name":"Raiffeisenstr.","postalCode":"67165","locality":"Waldsee","municipality":{"key":"07338026","name":"Waldsee","type":"Kreisangehörige_Gemeinde"},"district":{"key":"07338","name":"Rhein-Pfalz-Kreis","type":"Landkreis"},"federalState":{"key":"07","name":"Rheinland-Pfalz"}},{"name":"Ranzengasse","postalCode":"88339","locality":"Bad Waldsee","municipality":{"key":"08436009","name":"Bad Waldsee, Stadt","type":"Große_Kreisstadt"},"district":{"key":"08436","name":"Ravensburg","type":"Landkreis"},"federalState":{"key":"08","name":"Baden-Württemberg"}},{"name":"Rappbaint","postalCode":"88339","locality":"Bad Waldsee","municipality":{"key":"08436009","name":"Bad Waldsee, Stadt","type":"Große_Kreisstadt"},"district":{"key":"08436","name":"Ravensburg","type":"Landkreis"},"federalState":{"key":"08","name":"Baden-Württemberg"}},{"name":"Rathausstr.","postalCode":"88339","locality":"Bad Waldsee","municipality":{"key":"08436009","name":"Bad Waldsee, Stadt","type":"Große_Kreisstadt"},"district":{"key":"08436","name":"Ravensburg","type":"Landkreis"},"federalState":{"key":"08","name":"Baden-Württemberg"}},{"name":"Rehhütterstr.","postalCode":"67165","locality":"Waldsee","municipality":{"key":"07338026","name":"Waldsee","type":"Kreisangehörige_Gemeinde"},"district":{"key":"07338","name":"Rhein-Pfalz-Kreis","type":"Landkreis"},"federalState":{"key":"07","name":"Rheinland-Pfalz"}},{"name":"Reutestr.","postalCode":"88339","locality":"Bad Waldsee","municipality":{"key":"08436009","name":"Bad Waldsee, Stadt","type":"Große_Kreisstadt"},"district":{"key":"08436","name":"Ravensburg","type":"Landkreis"},"federalState":{"key":"08","name":"Baden-Württemberg"}},{"name":"Richard-Strauß-Str.","postalCode":"88339","locality":"Bad Waldsee","municipality":{"key":"08436009","name":"Bad Waldsee, Stadt","type":"Große_Kreisstadt"},"district":{"key":"08436","name":"Ravensburg","type":"Landkreis"},"federalState":{"key":"08","name":"Baden-Württemberg"}},{"name":"Richard-Wagner-Str.","postalCode":"67165","locality":"Waldsee","municipality":{"key":"07338026","name":"Waldsee","type":"Kreisangehörige_Gemeinde"},"district":{"key":"07338","name":"Rhein-Pfalz-Kreis","type":"Landkreis"},"federalState":{"key":"07","name":"Rheinland-Pfalz"}},{"name":"Richard-Wagner-Str.","postalCode":"88339","locality":"Bad Waldsee","municipality":{"key":"08436009","name":"Bad Waldsee, Stadt","type":"Große_Kreisstadt"},"district":{"key":"08436","name":"Ravensburg","type":"Landkreis"},"federalState":{"key":"08","name":"Baden-Württemberg"}},{"name":"Richthofenstr.","postalCode":"88339","locality":"Bad Waldsee","municipality":{"key":"08436009","name":"Bad Waldsee, Stadt","type":"Große_Kreisstadt"},"district":{"key":"08436","name":"Ravensburg","type":"Landkreis"},"federalState":{"key":"08","name":"Baden-Württemberg"}},{"name":"Riedblick","postalCode":"88339","locality":"Bad Waldsee","municipality":{"key":"08436009","name":"Bad Waldsee, Stadt","type":"Große_Kreisstadt"},"district":{"key":"08436","name":"Ravensburg","type":"Landkreis"},"federalState":{"key":"08","name":"Baden-Württemberg"}},{"name":"Riedgasse","postalCode":"88339","locality":"Bad Waldsee","municipality":{"key":"08436009","name":"Bad Waldsee, Stadt","type":"Große_Kreisstadt"},"district":{"key":"08436","name":"Ravensburg","type":"Landkreis"},"federalState":{"key":"08","name":"Baden-Württemberg"}},{"name":"Riedwiesenweg","postalCode":"88339","locality":"Bad Waldsee","municipality":{"key":"08436009","name":"Bad Waldsee, Stadt","type":"Große_Kreisstadt"},"district":{"key":"08436","name":"Ravensburg","type":"Landkreis"},"federalState":{"key":"08","name":"Baden-Württemberg"}},{"name":"Rispenweg","postalCode":"88339","locality":"Bad Waldsee","municipality":{"key":"08436009","name":"Bad Waldsee, Stadt","type":"Große_Kreisstadt"},"district":{"key":"08436","name":"Ravensburg","type":"Landkreis"},"federalState":{"key":"08","name":"Baden-Württemberg"}},{"name":"Rissweg","postalCode":"88339","locality":"Bad Waldsee","municipality":{"key":"08436009","name":"Bad Waldsee, Stadt","type":"Große_Kreisstadt"},"district":{"key":"08436","name":"Ravensburg","type":"Landkreis"},"federalState":{"key":"08","name":"Baden-Württemberg"}},{"name":"Robert-Bosch-Str.","postalCode":"88339","locality":"Bad Waldsee","municipality":{"key":"08436009","name":"Bad Waldsee, Stadt","type":"Große_Kreisstadt"},"district":{"key":"08436","name":"Ravensburg","type":"Landkreis"},"federalState":{"key":"08","name":"Baden-Württemberg"}},{"name":"Robert-Koch-Str.","postalCode":"88339","locality":"Bad Waldsee","municipality":{"key":"08436009","name":"Bad Waldsee, Stadt","type":"Große_Kreisstadt"},"district":{"key":"08436","name":"Ravensburg","type":"Landkreis"},"federalState":{"key":"08","name":"Baden-Württemberg"}},{"name":"Robert-Schumann-Str.","postalCode":"88339","locality":"Bad Waldsee","municipality":{"key":"08436009","name":"Bad Waldsee, Stadt","type":"Große_Kreisstadt"},"district":{"key":"08436","name":"Ravensburg","type":"Landkreis"},"federalState":{"key":"08","name":"Baden-Württemberg"}},{"name":"Roggenweg","postalCode":"88339","locality":"Bad Waldsee","municipality":{"key":"08436009","name":"Bad Waldsee, Stadt","type":"Große_Kreisstadt"},"district":{"key":"08436","name":"Ravensburg","type":"Landkreis"},"federalState":{"key":"08","name":"Baden-Württemberg"}},{"name":"Römergasse","postalCode":"88339","locality":"Bad Waldsee","municipality":{"key":"08436009","name":"Bad Waldsee, Stadt","type":"Große_Kreisstadt"},"district":{"key":"08436","name":"Ravensburg","type":"Landkreis"},"federalState":{"key":"08","name":"Baden-Württemberg"}},{"name":"Römerstr.","postalCode":"88339","locality":"Bad Waldsee","municipality":{"key":"08436009","name":"Bad Waldsee, Stadt","type":"Große_Kreisstadt"},"district":{"key":"08436","name":"Ravensburg","type":"Landkreis"},"federalState":{"key":"08","name":"Baden-Württemberg"}},{"name":"Röschbühlweg","postalCode":"88339","locality":"Bad Waldsee","municipality":{"key":"08436009","name":"Bad Waldsee, Stadt","type":"Große_Kreisstadt"},"district":{"key":"08436","name":"Ravensburg","type":"Landkreis"},"federalState":{"key":"08","name":"Baden-Württemberg"}},{"name":"Rosengasse","postalCode":"67165","locality":"Waldsee","municipality":{"key":"07338026","name":"Waldsee","type":"Kreisangehörige_Gemeinde"},"district":{"key":"07338","name":"Rhein-Pfalz-Kreis","type":"Landkreis"},"federalState":{"key":"07","name":"Rheinland-Pfalz"}},{"name":"Rosenstr.","postalCode":"88339","locality":"Bad Waldsee","municipality":{"key":"08436009","name":"Bad Waldsee, Stadt","type":"Große_Kreisstadt"},"district":{"key":"08436","name":"Ravensburg","type":"Landkreis"},"federalState":{"key":"08","name":"Baden-Württemberg"}},{"name":"Rosmaringasse","postalCode":"88339","locality":"Bad Waldsee","municipality":{"key":"08436009","name":"Bad Waldsee, Stadt","type":"Große_Kreisstadt"},"district":{"key":"08436","name":"Ravensburg","type":"Landkreis"},"federalState":{"key":"08","name":"Baden-Württemberg"}},{"name":"Roßberger Str.","postalCode":"88339","locality":"Bad Waldsee","municipality":{"key":"08436009","name":"Bad Waldsee, Stadt","type":"Große_Kreisstadt"},"district":{"key":"08436","name":"Ravensburg","type":"Landkreis"},"federalState":{"key":"08","name":"Baden-Württemberg"}},{"name":"Roßruckstr.","postalCode":"88339","locality":"Bad Waldsee","municipality":{"key":"08436009","name":"Bad Waldsee, Stadt","type":"Große_Kreisstadt"},"district":{"key":"08436","name":"Ravensburg","type":"Landkreis"},"federalState":{"key":"08","name":"Baden-Württemberg"}},{"name":"Rotkreuzweg","postalCode":"88339","locality":"Bad Waldsee","municipality":{"key":"08436009","name":"Bad Waldsee, Stadt","type":"Große_Kreisstadt"},"district":{"key":"08436","name":"Ravensburg","type":"Landkreis"},"federalState":{"key":"08","name":"Baden-Württemberg"}},{"name":"Rotmilanweg","postalCode":"88339","locality":"Bad Waldsee","municipality":{"key":"08436009","name":"Bad Waldsee, Stadt","type":"Große_Kreisstadt"},"district":{"key":"08436","name":"Ravensburg","type":"Landkreis"},"federalState":{"key":"08","name":"Baden-Württemberg"}},{"name":"Ruffecer Str.","postalCode":"67165","locality":"Waldsee","municipality":{"key":"07338026","name":"Waldsee","type":"Kreisangehörige_Gemeinde"},"district":{"key":"07338","name":"Rhein-Pfalz-Kreis","type":"Landkreis"},"federalState":{"key":"07","name":"Rheinland-Pfalz"}},{"name":"Sachsenstr.","postalCode":"67165","locality":"Waldsee","municipality":{"key":"07338026","name":"Waldsee","type":"Kreisangehörige_Gemeinde"},"district":{"key":"07338","name":"Rhein-Pfalz-Kreis","type":"Landkreis"},"federalState":{"key":"07","name":"Rheinland-Pfalz"}},{"name":"Sandweg","postalCode":"88339","locality":"Bad Waldsee","municipality":{"key":"08436009","name":"Bad Waldsee, Stadt","type":"Große_Kreisstadt"},"district":{"key":"08436","name":"Ravensburg","type":"Landkreis"},"federalState":{"key":"08","name":"Baden-Württemberg"}},{"name":"Sankt-Blasius-Weg","postalCode":"88339","locality":"Bad Waldsee","municipality":{"key":"08436009","name":"Bad Waldsee, Stadt","type":"Große_Kreisstadt"},"district":{"key":"08436","name":"Ravensburg","type":"Landkreis"},"federalState":{"key":"08","name":"Baden-Württemberg"}},{"name":"Saßweiherstr.","postalCode":"88339","locality":"Bad Waldsee","municipality":{"key":"08436009","name":"Bad Waldsee, Stadt","type":"Große_Kreisstadt"},"district":{"key":"08436","name":"Ravensburg","type":"Landkreis"},"federalState":{"key":"08","name":"Baden-Württemberg"}},{"name":"Schanzbühlweg","postalCode":"88339","locality":"Bad Waldsee","municipality":{"key":"08436009","name":"Bad Waldsee, Stadt","type":"Große_Kreisstadt"},"district":{"key":"08436","name":"Ravensburg","type":"Landkreis"},"federalState":{"key":"08","name":"Baden-Württemberg"}},{"name":"Schifferstadter Str.","postalCode":"67165","locality":"Waldsee","municipality":{"key":"07338026","name":"Waldsee","type":"Kreisangehörige_Gemeinde"},"district":{"key":"07338","name":"Rhein-Pfalz-Kreis","type":"Landkreis"},"federalState":{"key":"07","name":"Rheinland-Pfalz"}},{"name":"Schillerstr.","postalCode":"88339","locality":"Bad Waldsee","municipality":{"key":"08436009","name":"Bad Waldsee, Stadt","type":"Große_Kreisstadt"},"district":{"key":"08436","name":"Ravensburg","type":"Landkreis"},"federalState":{"key":"08","name":"Baden-Württemberg"}},{"name":"Schlehenhalde","postalCode":"88339","locality":"Bad Waldsee","municipality":{"key":"08436009","name":"Bad Waldsee, Stadt","type":"Große_Kreisstadt"},"district":{"key":"08436","name":"Ravensburg","type":"Landkreis"},"federalState":{"key":"08","name":"Baden-Württemberg"}},{"name":"Schlesierstr.","postalCode":"67165","locality":"Waldsee","municipality":{"key":"07338026","name":"Waldsee","type":"Kreisangehörige_Gemeinde"},"district":{"key":"07338","name":"Rhein-Pfalz-Kreis","type":"Landkreis"},"federalState":{"key":"07","name":"Rheinland-Pfalz"}},{"name":"Schlichtstr.","postalCode":"67165","locality":"Waldsee","municipality":{"key":"07338026","name":"Waldsee","type":"Kreisangehörige_Gemeinde"},"district":{"key":"07338","name":"Rhein-Pfalz-Kreis","type":"Landkreis"},"federalState":{"key":"07","name":"Rheinland-Pfalz"}},{"name":"Schlittweg","postalCode":"67165","locality":"Waldsee","municipality":{"key":"07338026","name":"Waldsee","type":"Kreisangehörige_Gemeinde"},"district":{"key":"07338","name":"Rhein-Pfalz-Kreis","type":"Landkreis"},"federalState":{"key":"07","name":"Rheinland-Pfalz"}},{"name":"Schlosspark","postalCode":"88339","locality":"Bad Waldsee","municipality":{"key":"08436009","name":"Bad Waldsee, Stadt","type":"Große_Kreisstadt"},"district":{"key":"08436","name":"Ravensburg","type":"Landkreis"},"federalState":{"key":"08","name":"Baden-Württemberg"}},{"name":"Schmiedsgasse","postalCode":"88339","locality":"Bad Waldsee","municipality":{"key":"08436009","name":"Bad Waldsee, Stadt","type":"Große_Kreisstadt"},"district":{"key":"08436","name":"Ravensburg","type":"Landkreis"},"federalState":{"key":"08","name":"Baden-Württemberg"}},{"name":"Schorrenbühl","postalCode":"88339","locality":"Bad Waldsee","municipality":{"key":"08436009","name":"Bad Waldsee, Stadt","type":"Große_Kreisstadt"},"district":{"key":"08436","name":"Ravensburg","type":"Landkreis"},"federalState":{"key":"08","name":"Baden-Württemberg"}},{"name":"Schorrenweg","postalCode":"88339","locality":"Bad Waldsee","municipality":{"key":"08436009","name":"Bad Waldsee, Stadt","type":"Große_Kreisstadt"},"district":{"key":"08436","name":"Ravensburg","type":"Landkreis"},"federalState":{"key":"08","name":"Baden-Württemberg"}},{"name":"Schudele-Str.","postalCode":"88339","locality":"Bad Waldsee","municipality":{"key":"08436009","name":"Bad Waldsee, Stadt","type":"Große_Kreisstadt"},"district":{"key":"08436","name":"Ravensburg","type":"Landkreis"},"federalState":{"key":"08","name":"Baden-Württemberg"}},{"name":"Schulgasse","postalCode":"88339","locality":"Bad Waldsee","municipality":{"key":"08436009","name":"Bad Waldsee, Stadt","type":"Große_Kreisstadt"},"district":{"key":"08436","name":"Ravensburg","type":"Landkreis"},"federalState":{"key":"08","name":"Baden-Württemberg"}},{"name":"Schulstr.","postalCode":"67165","locality":"Waldsee","municipality":{"key":"07338026","name":"Waldsee","type":"Kreisangehörige_Gemeinde"},"district":{"key":"07338","name":"Rhein-Pfalz-Kreis","type":"Landkreis"},"federalState":{"key":"07","name":"Rheinland-Pfalz"}},{"name":"Schützenstr.","postalCode":"88339","locality":"Bad Waldsee","municipality":{"key":"08436009","name":"Bad Waldsee, Stadt","type":"Große_Kreisstadt"},"district":{"key":"08436","name":"Ravensburg","type":"Landkreis"},"federalState":{"key":"08","name":"Baden-Württemberg"}},{"name":"Schwalbenweg","postalCode":"88339","locality":"Bad Waldsee","municipality":{"key":"08436009","name":"Bad Waldsee, Stadt","type":"Große_Kreisstadt"},"district":{"key":"08436","name":"Ravensburg","type":"Landkreis"},"federalState":{"key":"08","name":"Baden-Württemberg"}},{"name":"Schwanenberg","postalCode":"88339","locality":"Bad Waldsee","municipality":{"key":"08436009","name":"Bad Waldsee, Stadt","type":"Große_Kreisstadt"},"district":{"key":"08436","name":"Ravensburg","type":"Landkreis"},"federalState":{"key":"08","name":"Baden-Württemberg"}},{"name":"Schweizergasse","postalCode":"88339","locality":"Bad Waldsee","municipality":{"key":"08436009","name":"Bad Waldsee, Stadt","type":"Große_Kreisstadt"},"district":{"key":"08436","name":"Ravensburg","type":"Landkreis"},"federalState":{"key":"08","name":"Baden-Württemberg"}},{"name":"Sebastian-Kneipp-Weg","postalCode":"88339","locality":"Bad Waldsee","municipality":{"key":"08436009","name":"Bad Waldsee, Stadt","type":"Große_Kreisstadt"},"district":{"key":"08436","name":"Ravensburg","type":"Landkreis"},"federalState":{"key":"08","name":"Baden-Württemberg"}},{"name":"Sebastiansweg","postalCode":"88339","locality":"Bad Waldsee","municipality":{"key":"08436009","name":"Bad Waldsee, Stadt","type":"Große_Kreisstadt"},"district":{"key":"08436","name":"Ravensburg","type":"Landkreis"},"federalState":{"key":"08","name":"Baden-Württemberg"}},{"name":"Seedener Str.","postalCode":"88339","locality":"Bad Waldsee","municipality":{"key":"08436009","name":"Bad Waldsee, Stadt","type":"Große_Kreisstadt"},"district":{"key":"08436","name":"Ravensburg","type":"Landkreis"},"federalState":{"key":"08","name":"Baden-Württemberg"}},{"name":"Seeweg","postalCode":"88339","locality":"Bad Waldsee","municipality":{"key":"08436009","name":"Bad Waldsee, Stadt","type":"Große_Kreisstadt"},"district":{"key":"08436","name":"Ravensburg","type":"Landkreis"},"federalState":{"key":"08","name":"Baden-Württemberg"}},{"name":"Seidelbastweg","postalCode":"88339","locality":"Bad Waldsee","municipality":{"key":"08436009","name":"Bad Waldsee, Stadt","type":"Große_Kreisstadt"},"district":{"key":"08436","name":"Ravensburg","type":"Landkreis"},"federalState":{"key":"08","name":"Baden-Württemberg"}},{"name":"Seidenstr.","postalCode":"88339","locality":"Bad Waldsee","municipality":{"key":"08436009","name":"Bad Waldsee, Stadt","type":"Große_Kreisstadt"},"district":{"key":"08436","name":"Ravensburg","type":"Landkreis"},"federalState":{"key":"08","name":"Baden-Württemberg"}},{"name":"Seitenweg II - 02","postalCode":"67165","locality":"Waldsee","municipality":{"key":"07338026","name":"Waldsee","type":"Kreisangehörige_Gemeinde"},"district":{"key":"07338","name":"Rhein-Pfalz-Kreis","type":"Landkreis"},"federalState":{"key":"07","name":"Rheinland-Pfalz"}},{"name":"Seitenweg II - 03","postalCode":"67165","locality":"Waldsee","municipality":{"key":"07338026","name":"Waldsee","type":"Kreisangehörige_Gemeinde"},"district":{"key":"07338","name":"Rhein-Pfalz-Kreis","type":"Landkreis"},"federalState":{"key":"07","name":"Rheinland-Pfalz"}},{"name":"Seitenweg II - 04","postalCode":"67165","locality":"Waldsee","municipality":{"key":"07338026","name":"Waldsee","type":"Kreisangehörige_Gemeinde"},"district":{"key":"07338","name":"Rhein-Pfalz-Kreis","type":"Landkreis"},"federalState":{"key":"07","name":"Rheinland-Pfalz"}},{"name":"Seitenweg II - 05","postalCode":"67165","locality":"Waldsee","municipality":{"key":"07338026","name":"Waldsee","type":"Kreisangehörige_Gemeinde"},"district":{"key":"07338","name":"Rhein-Pfalz-Kreis","type":"Landkreis"},"federalState":{"key":"07","name":"Rheinland-Pfalz"}},{"name":"Seitenweg II-06","postalCode":"67165","locality":"Waldsee","municipality":{"key":"07338026","name":"Waldsee","type":"Kreisangehörige_Gemeinde"},"district":{"key":"07338","name":"Rhein-Pfalz-Kreis","type":"Landkreis"},"federalState":{"key":"07","name":"Rheinland-Pfalz"}},{"name":"Seitenweg II-07","postalCode":"67165","locality":"Waldsee","municipality":{"key":"07338026","name":"Waldsee","type":"Kreisangehörige_Gemeinde"},"district":{"key":"07338","name":"Rhein-Pfalz-Kreis","type":"Landkreis"},"federalState":{"key":"07","name":"Rheinland-Pfalz"}},{"name":"Seitenweg II-08","postalCode":"67165","locality":"Waldsee","municipality":{"key":"07338026","name":"Waldsee","type":"Kreisangehörige_Gemeinde"},"district":{"key":"07338","name":"Rhein-Pfalz-Kreis","type":"Landkreis"},"federalState":{"key":"07","name":"Rheinland-Pfalz"}},{"name":"Seitenweg II-09","postalCode":"67165","locality":"Waldsee","municipality":{"key":"07338026","name":"Waldsee","type":"Kreisangehörige_Gemeinde"},"district":{"key":"07338","name":"Rhein-Pfalz-Kreis","type":"Landkreis"},"federalState":{"key":"07","name":"Rheinland-Pfalz"}},{"name":"Seitenweg II - 10","postalCode":"67165","locality":"Waldsee","municipality":{"key":"07338026","name":"Waldsee","type":"Kreisangehörige_Gemeinde"},"district":{"key":"07338","name":"Rhein-Pfalz-Kreis","type":"Landkreis"},"federalState":{"key":"07","name":"Rheinland-Pfalz"}},{"name":"Seitenweg II - 11","postalCode":"67165","locality":"Waldsee","municipality":{"key":"07338026","name":"Waldsee","type":"Kreisangehörige_Gemeinde"},"district":{"key":"07338","name":"Rhein-Pfalz-Kreis","type":"Landkreis"},"federalState":{"key":"07","name":"Rheinland-Pfalz"}},{"name":"Seitenweg II - 12","postalCode":"67165","locality":"Waldsee","municipality":{"key":"07338026","name":"Waldsee","type":"Kreisangehörige_Gemeinde"},"district":{"key":"07338","name":"Rhein-Pfalz-Kreis","type":"Landkreis"},"federalState":{"key":"07","name":"Rheinland-Pfalz"}},{"name":"Seitenweg II - 13","postalCode":"67165","locality":"Waldsee","municipality":{"key":"07338026","name":"Waldsee","type":"Kreisangehörige_Gemeinde"},"district":{"key":"07338","name":"Rhein-Pfalz-Kreis","type":"Landkreis"},"federalState":{"key":"07","name":"Rheinland-Pfalz"}},{"name":"Seitenweg II - 14","postalCode":"67165","locality":"Waldsee","municipality":{"key":"07338026","name":"Waldsee","type":"Kreisangehörige_Gemeinde"},"district":{"key":"07338","name":"Rhein-Pfalz-Kreis","type":"Landkreis"},"federalState":{"key":"07","name":"Rheinland-Pfalz"}},{"name":"Sibylle-Schuler-Str.","postalCode":"88339","locality":"Bad Waldsee","municipality":{"key":"08436009","name":"Bad Waldsee, Stadt","type":"Große_Kreisstadt"},"district":{"key":"08436","name":"Ravensburg","type":"Landkreis"},"federalState":{"key":"08","name":"Baden-Württemberg"}},{"name":"Silcherweg","postalCode":"88339","locality":"Bad Waldsee","municipality":{"key":"08436009","name":"Bad Waldsee, Stadt","type":"Große_Kreisstadt"},"district":{"key":"08436","name":"Ravensburg","type":"Landkreis"},"federalState":{"key":"08","name":"Baden-Württemberg"}},{"name":"Simriweg","postalCode":"88339","locality":"Bad Waldsee","municipality":{"key":"08436009","name":"Bad Waldsee, Stadt","type":"Große_Kreisstadt"},"district":{"key":"08436","name":"Ravensburg","type":"Landkreis"},"federalState":{"key":"08","name":"Baden-Württemberg"}},{"name":"Soldenbachstr.","postalCode":"88339","locality":"Bad Waldsee","municipality":{"key":"08436009","name":"Bad Waldsee, Stadt","type":"Große_Kreisstadt"},"district":{"key":"08436","name":"Ravensburg","type":"Landkreis"},"federalState":{"key":"08","name":"Baden-Württemberg"}},{"name":"Sonnenblumenweg","postalCode":"88339","locality":"Bad Waldsee","municipality":{"key":"08436009","name":"Bad Waldsee, Stadt","type":"Große_Kreisstadt"},"district":{"key":"08436","name":"Ravensburg","type":"Landkreis"},"federalState":{"key":"08","name":"Baden-Württemberg"}},{"name":"Sonnenbühl","postalCode":"88339","locality":"Bad Waldsee","municipality":{"key":"08436009","name":"Bad Waldsee, Stadt","type":"Große_Kreisstadt"},"district":{"key":"08436","name":"Ravensburg","type":"Landkreis"},"federalState":{"key":"08","name":"Baden-Württemberg"}},{"name":"Sophie-Scholl-Str.","postalCode":"67165","locality":"Waldsee","municipality":{"key":"07338026","name":"Waldsee","type":"Kreisangehörige_Gemeinde"},"district":{"key":"07338","name":"Rhein-Pfalz-Kreis","type":"Landkreis"},"federalState":{"key":"07","name":"Rheinland-Pfalz"}},{"name":"Sperrisweg","postalCode":"88339","locality":"Bad Waldsee","municipality":{"key":"08436009","name":"Bad Waldsee, Stadt","type":"Große_Kreisstadt"},"district":{"key":"08436","name":"Ravensburg","type":"Landkreis"},"federalState":{"key":"08","name":"Baden-Württemberg"}},{"name":"Spitalhof","postalCode":"88339","locality":"Bad Waldsee","municipality":{"key":"08436009","name":"Bad Waldsee, Stadt","type":"Große_Kreisstadt"},"district":{"key":"08436","name":"Ravensburg","type":"Landkreis"},"federalState":{"key":"08","name":"Baden-Württemberg"}},{"name":"Tannenbühl","postalCode":"88339","locality":"Bad Waldsee","municipality":{"key":"08436009","name":"Bad Waldsee, Stadt","type":"Große_Kreisstadt"},"district":{"key":"08436","name":"Ravensburg","type":"Landkreis"},"federalState":{"key":"08","name":"Baden-Württemberg"}},{"name":"Tannwaldweg","postalCode":"88339","locality":"Bad Waldsee","municipality":{"key":"08436009","name":"Bad Waldsee, Stadt","type":"Große_Kreisstadt"},"district":{"key":"08436","name":"Ravensburg","type":"Landkreis"},"federalState":{"key":"08","name":"Baden-Württemberg"}},{"name":"Tannweiler Str.","postalCode":"88339","locality":"Bad Waldsee","municipality":{"key":"08436009","name":"Bad Waldsee, Stadt","type":"Große_Kreisstadt"},"district":{"key":"08436","name":"Ravensburg","type":"Landkreis"},"federalState":{"key":"08","name":"Baden-Württemberg"}},{"name":"Teichäckerweg","postalCode":"88339","locality":"Bad Waldsee","municipality":{"key":"08436009","name":"Bad Waldsee, Stadt","type":"Große_Kreisstadt"},"district":{"key":"08436","name":"Ravensburg","type":"Landkreis"},"federalState":{"key":"08","name":"Baden-Württemberg"}},{"name":"Theodor-Fontane-Str.","postalCode":"67165","locality":"Waldsee","municipality":{"key":"07338026","name":"Waldsee","type":"Kreisangehörige_Gemeinde"},"district":{"key":"07338","name":"Rhein-Pfalz-Kreis","type":"Landkreis"},"federalState":{"key":"07","name":"Rheinland-Pfalz"}},{"name":"Theodor-Heuss-Str.","postalCode":"67165","locality":"Waldsee","municipality":{"key":"07338026","name":"Waldsee","type":"Kreisangehörige_Gemeinde"},"district":{"key":"07338","name":"Rhein-Pfalz-Kreis","type":"Landkreis"},"federalState":{"key":"07","name":"Rheinland-Pfalz"}},{"name":"Thüringer Str.","postalCode":"67165","locality":"Waldsee","municipality":{"key":"07338026","name":"Waldsee","type":"Kreisangehörige_Gemeinde"},"district":{"key":"07338","name":"Rhein-Pfalz-Kreis","type":"Landkreis"},"federalState":{"key":"07","name":"Rheinland-Pfalz"}},{"name":"Torfweg","postalCode":"88339","locality":"Bad Waldsee","municipality":{"key":"08436009","name":"Bad Waldsee, Stadt","type":"Große_Kreisstadt"},"district":{"key":"08436","name":"Ravensburg","type":"Landkreis"},"federalState":{"key":"08","name":"Baden-Württemberg"}},{"name":"Trimm-Dich-Pfad","postalCode":"88339","locality":"Bad Waldsee","municipality":{"key":"08436009","name":"Bad Waldsee, Stadt","type":"Große_Kreisstadt"},"district":{"key":"08436","name":"Ravensburg","type":"Landkreis"},"federalState":{"key":"08","name":"Baden-Württemberg"}},{"name":"Tulpenweg","postalCode":"88339","locality":"Bad Waldsee","municipality":{"key":"08436009","name":"Bad Waldsee, Stadt","type":"Große_Kreisstadt"},"district":{"key":"08436","name":"Ravensburg","type":"Landkreis"},"federalState":{"key":"08","name":"Baden-Württemberg"}},{"name":"Uferweg","postalCode":"88339","locality":"Bad Waldsee","municipality":{"key":"08436009","name":"Bad Waldsee, Stadt","type":"Große_Kreisstadt"},"district":{"key":"08436","name":"Ravensburg","type":"Landkreis"},"federalState":{"key":"08","name":"Baden-Württemberg"}},{"name":"Uhlandstr.","postalCode":"67165","locality":"Waldsee","municipality":{"key":"07338026","name":"Waldsee","type":"Kreisangehörige_Gemeinde"},"district":{"key":"07338","name":"Rhein-Pfalz-Kreis","type":"Landkreis"},"federalState":{"key":"07","name":"Rheinland-Pfalz"}},{"name":"Uhlandstr.","postalCode":"88339","locality":"Bad Waldsee","municipality":{"key":"08436009","name":"Bad Waldsee, Stadt","type":"Große_Kreisstadt"},"district":{"key":"08436","name":"Ravensburg","type":"Landkreis"},"federalState":{"key":"08","name":"Baden-Württemberg"}},{"name":"Ulmenweg","postalCode":"88339","locality":"Bad Waldsee","municipality":{"key":"08436009","name":"Bad Waldsee, Stadt","type":"Große_Kreisstadt"},"district":{"key":"08436","name":"Ravensburg","type":"Landkreis"},"federalState":{"key":"08","name":"Baden-Württemberg"}},{"name":"Ulrich-Kuderer-Str.","postalCode":"88339","locality":"Bad Waldsee","municipality":{"key":"08436009","name":"Bad Waldsee, Stadt","type":"Große_Kreisstadt"},"district":{"key":"08436","name":"Ravensburg","type":"Landkreis"},"federalState":{"key":"08","name":"Baden-Württemberg"}},{"name":"Untere Bachäcker","postalCode":"88339","locality":"Bad Waldsee","municipality":{"key":"08436009","name":"Bad Waldsee, Stadt","type":"Große_Kreisstadt"},"district":{"key":"08436","name":"Ravensburg","type":"Landkreis"},"federalState":{"key":"08","name":"Baden-Württemberg"}},{"name":"Untermöllenbronn","postalCode":"88339","locality":"Bad Waldsee","municipality":{"key":"08436009","name":"Bad Waldsee, Stadt","type":"Große_Kreisstadt"},"district":{"key":"08436","name":"Ravensburg","type":"Landkreis"},"federalState":{"key":"08","name":"Baden-Württemberg"}},{"name":"Unterurbacher Weg","postalCode":"88339","locality":"Bad Waldsee","municipality":{"key":"08436009","name":"Bad Waldsee, Stadt","type":"Große_Kreisstadt"},"district":{"key":"08436","name":"Ravensburg","type":"Landkreis"},"federalState":{"key":"08","name":"Baden-Württemberg"}},{"name":"Urbachstr.","postalCode":"88339","locality":"Bad Waldsee","municipality":{"key":"08436009","name":"Bad Waldsee, Stadt","type":"Große_Kreisstadt"},"district":{"key":"08436","name":"Ravensburg","type":"Landkreis"},"federalState":{"key":"08","name":"Baden-Württemberg"}},{"name":"Urbach-Viadukt","postalCode":"88339","locality":"Bad Waldsee","municipality":{"key":"08436009","name":"Bad Waldsee, Stadt","type":"Große_Kreisstadt"},"district":{"key":"08436","name":"Ravensburg","type":"Landkreis"},"federalState":{"key":"08","name":"Baden-Württemberg"}},{"name":"Veilchenweg","postalCode":"88339","locality":"Bad Waldsee","municipality":{"key":"08436009","name":"Bad Waldsee, Stadt","type":"Große_Kreisstadt"},"district":{"key":"08436","name":"Ravensburg","type":"Landkreis"},"federalState":{"key":"08","name":"Baden-Württemberg"}},{"name":"Vogelbeerweg","postalCode":"88339","locality":"Bad Waldsee","municipality":{"key":"08436009","name":"Bad Waldsee, Stadt","type":"Große_Kreisstadt"},"district":{"key":"08436","name":"Ravensburg","type":"Landkreis"},"federalState":{"key":"08","name":"Baden-Württemberg"}},{"name":"Von-Rüti-Str.","postalCode":"88339","locality":"Bad Waldsee","municipality":{"key":"08436009","name":"Bad Waldsee, Stadt","type":"Große_Kreisstadt"},"district":{"key":"08436","name":"Ravensburg","type":"Landkreis"},"federalState":{"key":"08","name":"Baden-Württemberg"}},{"name":"Wacholderweg","postalCode":"88339","locality":"Bad Waldsee","municipality":{"key":"08436009","name":"Bad Waldsee, Stadt","type":"Große_Kreisstadt"},"district":{"key":"08436","name":"Ravensburg","type":"Landkreis"},"federalState":{"key":"08","name":"Baden-Württemberg"}},{"name":"Wachtelgasse","postalCode":"67165","locality":"Waldsee","municipality":{"key":"07338026","name":"Waldsee","type":"Kreisangehörige_Gemeinde"},"district":{"key":"07338","name":"Rhein-Pfalz-Kreis","type":"Landkreis"},"federalState":{"key":"07","name":"Rheinland-Pfalz"}},{"name":"Waldacker","postalCode":"88339","locality":"Bad Waldsee","municipality":{"key":"08436009","name":"Bad Waldsee, Stadt","type":"Große_Kreisstadt"},"district":{"key":"08436","name":"Ravensburg","type":"Landkreis"},"federalState":{"key":"08","name":"Baden-Württemberg"}},{"name":"Waldseer Str.","postalCode":"88339","locality":"Bad Waldsee","municipality":{"key":"08436009","name":"Bad Waldsee, Stadt","type":"Große_Kreisstadt"},"district":{"key":"08436","name":"Ravensburg","type":"Landkreis"},"federalState":{"key":"08","name":"Baden-Württemberg"}},{"name":"Weg Nr. 11","postalCode":"67165","locality":"Waldsee","municipality":{"key":"07338026","name":"Waldsee","type":"Kreisangehörige_Gemeinde"},"district":{"key":"07338","name":"Rhein-Pfalz-Kreis","type":"Landkreis"},"federalState":{"key":"07","name":"Rheinland-Pfalz"}},{"name":"Weg Nr. 12","postalCode":"67165","locality":"Waldsee","municipality":{"key":"07338026","name":"Waldsee","type":"Kreisangehörige_Gemeinde"},"district":{"key":"07338","name":"Rhein-Pfalz-Kreis","type":"Landkreis"},"federalState":{"key":"07","name":"Rheinland-Pfalz"}},{"name":"Weg Nr. 13","postalCode":"67165","locality":"Waldsee","municipality":{"key":"07338026","name":"Waldsee","type":"Kreisangehörige_Gemeinde"},"district":{"key":"07338","name":"Rhein-Pfalz-Kreis","type":"Landkreis"},"federalState":{"key":"07","name":"Rheinland-Pfalz"}},{"name":"Weg Nr. 14","postalCode":"67165","locality":"Waldsee","municipality":{"key":"07338026","name":"Waldsee","type":"Kreisangehörige_Gemeinde"},"district":{"key":"07338","name":"Rhein-Pfalz-Kreis","type":"Landkreis"},"federalState":{"key":"07","name":"Rheinland-Pfalz"}},{"name":"Weg Nr. 15","postalCode":"67165","locality":"Waldsee","municipality":{"key":"07338026","name":"Waldsee","type":"Kreisangehörige_Gemeinde"},"district":{"key":"07338","name":"Rhein-Pfalz-Kreis","type":"Landkreis"},"federalState":{"key":"07","name":"Rheinland-Pfalz"}},{"name":"Weg Nr. 16","postalCode":"67165","locality":"Waldsee","municipality":{"key":"07338026","name":"Waldsee","type":"Kreisangehörige_Gemeinde"},"district":{"key":"07338","name":"Rhein-Pfalz-Kreis","type":"Landkreis"},"federalState":{"key":"07","name":"Rheinland-Pfalz"}},{"name":"Weg Nr. 17","postalCode":"67165","locality":"Waldsee","municipality":{"key":"07338026","name":"Waldsee","type":"Kreisangehörige_Gemeinde"},"district":{"key":"07338","name":"Rhein-Pfalz-Kreis","type":"Landkreis"},"federalState":{"key":"07","name":"Rheinland-Pfalz"}},{"name":"Weg Nr. 18","postalCode":"67165","locality":"Waldsee","municipality":{"key":"07338026","name":"Waldsee","type":"Kreisangehörige_Gemeinde"},"district":{"key":"07338","name":"Rhein-Pfalz-Kreis","type":"Landkreis"},"federalState":{"key":"07","name":"Rheinland-Pfalz"}},{"name":"Weg Nr. 19","postalCode":"67165","locality":"Waldsee","municipality":{"key":"07338026","name":"Waldsee","type":"Kreisangehörige_Gemeinde"},"district":{"key":"07338","name":"Rhein-Pfalz-Kreis","type":"Landkreis"},"federalState":{"key":"07","name":"Rheinland-Pfalz"}},{"name":"Weg Nr. 2","postalCode":"67165","locality":"Waldsee","municipality":{"key":"07338026","name":"Waldsee","type":"Kreisangehörige_Gemeinde"},"district":{"key":"07338","name":"Rhein-Pfalz-Kreis","type":"Landkreis"},"federalState":{"key":"07","name":"Rheinland-Pfalz"}},{"name":"Weg Nr. 20","postalCode":"67165","locality":"Waldsee","municipality":{"key":"07338026","name":"Waldsee","type":"Kreisangehörige_Gemeinde"},"district":{"key":"07338","name":"Rhein-Pfalz-Kreis","type":"Landkreis"},"federalState":{"key":"07","name":"Rheinland-Pfalz"}},{"name":"Weg Nr. 21","postalCode":"67165","locality":"Waldsee","municipality":{"key":"07338026","name":"Waldsee","type":"Kreisangehörige_Gemeinde"},"district":{"key":"07338","name":"Rhein-Pfalz-Kreis","type":"Landkreis"},"federalState":{"key":"07","name":"Rheinland-Pfalz"}},{"name":"Weg Nr. 22","postalCode":"67165","locality":"Waldsee","municipality":{"key":"07338026","name":"Waldsee","type":"Kreisangehörige_Gemeinde"},"district":{"key":"07338","name":"Rhein-Pfalz-Kreis","type":"Landkreis"},"federalState":{"key":"07","name":"Rheinland-Pfalz"}},{"name":"Weg Nr. 23","postalCode":"67165","locality":"Waldsee","municipality":{"key":"07338026","name":"Waldsee","type":"Kreisangehörige_Gemeinde"},"district":{"key":"07338","name":"Rhein-Pfalz-Kreis","type":"Landkreis"},"federalState":{"key":"07","name":"Rheinland-Pfalz"}},{"name":"Weg Nr. 24","postalCode":"67165","locality":"Waldsee","municipality":{"key":"07338026","name":"Waldsee","type":"Kreisangehörige_Gemeinde"},"district":{"key":"07338","name":"Rhein-Pfalz-Kreis","type":"Landkreis"},"federalState":{"key":"07","name":"Rheinland-Pfalz"}},{"name":"Weg Nr. 25","postalCode":"67165","locality":"Waldsee","municipality":{"key":"07338026","name":"Waldsee","type":"Kreisangehörige_Gemeinde"},"district":{"key":"07338","name":"Rhein-Pfalz-Kreis","type":"Landkreis"},"federalState":{"key":"07","name":"Rheinland-Pfalz"}},{"name":"Weg Nr. 26","postalCode":"67165","locality":"Waldsee","municipality":{"key":"07338026","name":"Waldsee","type":"Kreisangehörige_Gemeinde"},"district":{"key":"07338","name":"Rhein-Pfalz-Kreis","type":"Landkreis"},"federalState":{"key":"07","name":"Rheinland-Pfalz"}},{"name":"Weg Nr. 27","postalCode":"67165","locality":"Waldsee","municipality":{"key":"07338026","name":"Waldsee","type":"Kreisangehörige_Gemeinde"},"district":{"key":"07338","name":"Rhein-Pfalz-Kreis","type":"Landkreis"},"federalState":{"key":"07","name":"Rheinland-Pfalz"}},{"name":"Weg Nr. 28","postalCode":"67165","locality":"Waldsee","municipality":{"key":"07338026","name":"Waldsee","type":"Kreisangehörige_Gemeinde"},"district":{"key":"07338","name":"Rhein-Pfalz-Kreis","type":"Landkreis"},"federalState":{"key":"07","name":"Rheinland-Pfalz"}},{"name":"Weg Nr. 29","postalCode":"67165","locality":"Waldsee","municipality":{"key":"07338026","name":"Waldsee","type":"Kreisangehörige_Gemeinde"},"district":{"key":"07338","name":"Rhein-Pfalz-Kreis","type":"Landkreis"},"federalState":{"key":"07","name":"Rheinland-Pfalz"}},{"name":"Weg Nr. 30","postalCode":"67165","locality":"Waldsee","municipality":{"key":"07338026","name":"Waldsee","type":"Kreisangehörige_Gemeinde"},"district":{"key":"07338","name":"Rhein-Pfalz-Kreis","type":"Landkreis"},"federalState":{"key":"07","name":"Rheinland-Pfalz"}},{"name":"Weg Nr. 31","postalCode":"67165","locality":"Waldsee","municipality":{"key":"07338026","name":"Waldsee","type":"Kreisangehörige_Gemeinde"},"district":{"key":"07338","name":"Rhein-Pfalz-Kreis","type":"Landkreis"},"federalState":{"key":"07","name":"Rheinland-Pfalz"}},{"name":"Weg Nr. 32","postalCode":"67165","locality":"Waldsee","municipality":{"key":"07338026","name":"Waldsee","type":"Kreisangehörige_Gemeinde"},"district":{"key":"07338","name":"Rhein-Pfalz-Kreis","type":"Landkreis"},"federalState":{"key":"07","name":"Rheinland-Pfalz"}},{"name":"Weg Nr. 4","postalCode":"67165","locality":"Waldsee","municipality":{"key":"07338026","name":"Waldsee","type":"Kreisangehörige_Gemeinde"},"district":{"key":"07338","name":"Rhein-Pfalz-Kreis","type":"Landkreis"},"federalState":{"key":"07","name":"Rheinland-Pfalz"}},{"name":"Weg Nr. 5","postalCode":"67165","locality":"Waldsee","municipality":{"key":"07338026","name":"Waldsee","type":"Kreisangehörige_Gemeinde"},"district":{"key":"07338","name":"Rhein-Pfalz-Kreis","type":"Landkreis"},"federalState":{"key":"07","name":"Rheinland-Pfalz"}},{"name":"Weg Nr. 6","postalCode":"67165","locality":"Waldsee","municipality":{"key":"07338026","name":"Waldsee","type":"Kreisangehörige_Gemeinde"},"district":{"key":"07338","name":"Rhein-Pfalz-Kreis","type":"Landkreis"},"federalState":{"key":"07","name":"Rheinland-Pfalz"}},{"name":"Weg Nr. 7","postalCode":"67165","locality":"Waldsee","municipality":{"key":"07338026","name":"Waldsee","type":"Kreisangehörige_Gemeinde"},"district":{"key":"07338","name":"Rhein-Pfalz-Kreis","type":"Landkreis"},"federalState":{"key":"07","name":"Rheinland-Pfalz"}},{"name":"Weidenstr.","postalCode":"88339","locality":"Bad Waldsee","municipality":{"key":"08436009","name":"Bad Waldsee, Stadt","type":"Große_Kreisstadt"},"district":{"key":"08436","name":"Ravensburg","type":"Landkreis"},"federalState":{"key":"08","name":"Baden-Württemberg"}},{"name":"Weidenweg","postalCode":"88339","locality":"Bad Waldsee","municipality":{"key":"08436009","name":"Bad Waldsee, Stadt","type":"Große_Kreisstadt"},"district":{"key":"08436","name":"Ravensburg","type":"Landkreis"},"federalState":{"key":"08","name":"Baden-Württemberg"}},{"name":"Weiherweg","postalCode":"88339","locality":"Bad Waldsee","municipality":{"key":"08436009","name":"Bad Waldsee, Stadt","type":"Große_Kreisstadt"},"district":{"key":"08436","name":"Ravensburg","type":"Landkreis"},"federalState":{"key":"08","name":"Baden-Württemberg"}},{"name":"Weimarer Str.","postalCode":"67165","locality":"Waldsee","municipality":{"key":"07338026","name":"Waldsee","type":"Kreisangehörige_Gemeinde"},"district":{"key":"07338","name":"Rhein-Pfalz-Kreis","type":"Landkreis"},"federalState":{"key":"07","name":"Rheinland-Pfalz"}},{"name":"Weinhalde","postalCode":"88339","locality":"Bad Waldsee","municipality":{"key":"08436009","name":"Bad Waldsee, Stadt","type":"Große_Kreisstadt"},"district":{"key":"08436","name":"Ravensburg","type":"Landkreis"},"federalState":{"key":"08","name":"Baden-Württemberg"}},{"name":"Weißdornweg","postalCode":"88339","locality":"Bad Waldsee","municipality":{"key":"08436009","name":"Bad Waldsee, Stadt","type":"Große_Kreisstadt"},"district":{"key":"08436","name":"Ravensburg","type":"Landkreis"},"federalState":{"key":"08","name":"Baden-Württemberg"}},{"name":"Wendelinusstr.","postalCode":"88339","locality":"Bad Waldsee","municipality":{"key":"08436009","name":"Bad Waldsee, Stadt","type":"Große_Kreisstadt"},"district":{"key":"08436","name":"Ravensburg","type":"Landkreis"},"federalState":{"key":"08","name":"Baden-Württemberg"}},{"name":"Wettgasse","postalCode":"88339","locality":"Bad Waldsee","municipality":{"key":"08436009","name":"Bad Waldsee, Stadt","type":"Große_Kreisstadt"},"district":{"key":"08436","name":"Ravensburg","type":"Landkreis"},"federalState":{"key":"08","name":"Baden-Württemberg"}},{"name":"Wiesenstr.","postalCode":"88339","locality":"Bad Waldsee","municipality":{"key":"08436009","name":"Bad Waldsee, Stadt","type":"Große_Kreisstadt"},"district":{"key":"08436","name":"Ravensburg","type":"Landkreis"},"federalState":{"key":"08","name":"Baden-Württemberg"}},{"name":"Wilhelm-Röntgen-Str.","postalCode":"67165","locality":"Waldsee","municipality":{"key":"07338026","name":"Waldsee","type":"Kreisangehörige_Gemeinde"},"district":{"key":"07338","name":"Rhein-Pfalz-Kreis","type":"Landkreis"},"federalState":{"key":"07","name":"Rheinland-Pfalz"}},{"name":"Wilmenweg","postalCode":"88339","locality":"Bad Waldsee","municipality":{"key":"08436009","name":"Bad Waldsee, Stadt","type":"Große_Kreisstadt"},"district":{"key":"08436","name":"Ravensburg","type":"Landkreis"},"federalState":{"key":"08","name":"Baden-Württemberg"}},{"name":"Winterstetter Str.","postalCode":"88339","locality":"Bad Waldsee","municipality":{"key":"08436009","name":"Bad Waldsee, Stadt","type":"Große_Kreisstadt"},"district":{"key":"08436","name":"Ravensburg","type":"Landkreis"},"federalState":{"key":"08","name":"Baden-Württemberg"}},{"name":"Wolfegger Str.","postalCode":"88339","locality":"Bad Waldsee","municipality":{"key":"08436009","name":"Bad Waldsee, Stadt","type":"Große_Kreisstadt"},"district":{"key":"08436","name":"Ravensburg","type":"Landkreis"},"federalState":{"key":"08","name":"Baden-Württemberg"}},{"name":"Wolfsbühlweg","postalCode":"88339","locality":"Bad Waldsee","municipality":{"key":"08436009","name":"Bad Waldsee, Stadt","type":"Große_Kreisstadt"},"district":{"key":"08436","name":"Ravensburg","type":"Landkreis"},"federalState":{"key":"08","name":"Baden-Württemberg"}},{"name":"Wolpertsheimer Weg","postalCode":"88339","locality":"Bad Waldsee","municipality":{"key":"08436009","name":"Bad Waldsee, Stadt","type":"Große_Kreisstadt"},"district":{"key":"08436","name":"Ravensburg","type":"Landkreis"},"federalState":{"key":"08","name":"Baden-Württemberg"}},{"name":"Wörthstr.","postalCode":"67165","locality":"Waldsee","municipality":{"key":"07338026","name":"Waldsee","type":"Kreisangehörige_Gemeinde"},"district":{"key":"07338","name":"Rhein-Pfalz-Kreis","type":"Landkreis"},"federalState":{"key":"07","name":"Rheinland-Pfalz"}},{"name":"Wurzacher Str.","postalCode":"88339","locality":"Bad Waldsee","municipality":{"key":"08436009","name":"Bad Waldsee, Stadt","type":"Große_Kreisstadt"},"district":{"key":"08436","name":"Ravensburg","type":"Landkreis"},"federalState":{"key":"08","name":"Baden-Württemberg"}},{"name":"Zeppelinstr.","postalCode":"88339","locality":"Bad Waldsee","municipality":{"key":"08436009","name":"Bad Waldsee, Stadt","type":"Große_Kreisstadt"},"district":{"key":"08436","name":"Ravensburg","type":"Landkreis"},"federalState":{"key":"08","name":"Baden-Württemberg"}},{"name":"Zimmerplatzstr.","postalCode":"88339","locality":"Bad Waldsee","municipality":{"key":"08436009","name":"Bad Waldsee, Stadt","type":"Große_Kreisstadt"},"district":{"key":"08436","name":"Ravensburg","type":"Landkreis"},"federalState":{"key":"08","name":"Baden-Württemberg"}},{"name":"Zum Eibhaus","postalCode":"88339","locality":"Bad Waldsee","municipality":{"key":"08436009","name":"Bad Waldsee, Stadt","type":"Große_Kreisstadt"},"district":{"key":"08436","name":"Ravensburg","type":"Landkreis"},"federalState":{"key":"08","name":"Baden-Württemberg"}},{"name":"Zur Grabener Höhe","postalCode":"88339","locality":"Bad Waldsee","municipality":{"key":"08436009","name":"Bad Waldsee, Stadt","type":"Große_Kreisstadt"},"district":{"key":"08436","name":"Ravensburg","type":"Landkreis"},"federalState":{"key":"08","name":"Baden-Württemberg"}},{"name":"Zur Spitzenkapelle","postalCode":"88339","locality":"Bad Waldsee","municipality":{"key":"08436009","name":"Bad Waldsee, Stadt","type":"Große_Kreisstadt"},"district":{"key":"08436","name":"Ravensburg","type":"Landkreis"},"federalState":{"key":"08","name":"Baden-Württemberg"}},{"name":"Ährenweg","postalCode":"88339","locality":"Bad Waldsee","municipality":{"key":"08436009","name":"Bad Waldsee, Stadt","type":"Große_Kreisstadt"},"district":{"key":"08436","name":"Ravensburg","type":"Landkreis"},"federalState":{"key":"08","name":"Baden-Württemberg"}},{"name":"Ölmannsgasse","postalCode":"88339","locality":"Bad Waldsee","municipality":{"key":"08436009","name":"Bad Waldsee, Stadt","type":"Große_Kreisstadt"},"district":{"key":"08436","name":"Ravensburg","type":"Landkreis"},"federalState":{"key":"08","name":"Baden-Württemberg"}},{"name":"Öschweg","postalCode":"88339","locality":"Bad Waldsee","municipality":{"key":"08436009","name":"Bad Waldsee, Stadt","type":"Große_Kreisstadt"},"district":{"key":"08436","name":"Ravensburg","type":"Landkreis"},"federalState":{"key":"08","name":"Baden-Württemberg"}},]