[{"key":"10204524","name":"Alter Rütihofweg","postalCode":"6234","locality":"Triengen","commune":{"key":"1104","name":"Triengen","shortName":"Triengen"},"district":{"key":"314","name":"Wahlkreis Sursee"},"canton":{"key":"3","code":"LU","name":"Luzern"},"status":"Real"},{"key":"10207225","name":"Am Klangweg","postalCode":"6234","locality":"Triengen","commune":{"key":"1104","name":"Triengen","shortName":"Triengen"},"district":{"key":"314","name":"Wahlkreis Sursee"},"canton":{"key":"3","code":"LU","name":"Luzern"},"status":"Real"},{"key":"10207069","name":"ARA-Strasse","postalCode":"6234","locality":"Triengen","commune":{"key":"1104","name":"Triengen","shortName":"Triengen"},"district":{"key":"314","name":"Wahlkreis Sursee"},"canton":{"key":"3","code":"LU","name":"Luzern"},"status":"Real"},{"key":"10207070","name":"Bachtale","postalCode":"6234","locality":"Triengen","commune":{"key":"1104","name":"Triengen","shortName":"Triengen"},"district":{"key":"314","name":"Wahlkreis Sursee"},"canton":{"key":"3","code":"LU","name":"Luzern"},"status":"Real"},{"key":"10167147","name":"Bahnhöfliweg","postalCode":"6234","locality":"Triengen","commune":{"key":"1104","name":"Triengen","shortName":"Triengen"},"district":{"key":"314","name":"Wahlkreis Sursee"},"canton":{"key":"3","code":"LU","name":"Luzern"},"status":"Real"},{"key":"10115867","name":"Bahnhofstrasse","postalCode":"6234","locality":"Triengen","commune":{"key":"1104","name":"Triengen","shortName":"Triengen"},"district":{"key":"314","name":"Wahlkreis Sursee"},"canton":{"key":"3","code":"LU","name":"Luzern"},"status":"Real"},{"key":"10240965","name":"Ballyweg","postalCode":"6234","locality":"Triengen","commune":{"key":"1104","name":"Triengen","shortName":"Triengen"},"district":{"key":"314","name":"Wahlkreis Sursee"},"canton":{"key":"3","code":"LU","name":"Luzern"},"status":"Real"},{"key":"10053519","name":"Berg","postalCode":"6234","locality":"Triengen","commune":{"key":"1104","name":"Triengen","shortName":"Triengen"},"district":{"key":"314","name":"Wahlkreis Sursee"},"canton":{"key":"3","code":"LU","name":"Luzern"},"status":"Real"},{"key":"10207071","name":"Bergstrasse","postalCode":"6234","locality":"Triengen","commune":{"key":"1104","name":"Triengen","shortName":"Triengen"},"district":{"key":"314","name":"Wahlkreis Sursee"},"canton":{"key":"3","code":"LU","name":"Luzern"},"status":"Real"},{"key":"10102774","name":"Birkenweg","postalCode":"6234","locality":"Triengen","commune":{"key":"1104","name":"Triengen","shortName":"Triengen"},"district":{"key":"314","name":"Wahlkreis Sursee"},"canton":{"key":"3","code":"LU","name":"Luzern"},"status":"Real"},{"key":"10074606","name":"Blatten","postalCode":"6234","locality":"Triengen","commune":{"key":"1104","name":"Triengen","shortName":"Triengen"},"district":{"key":"314","name":"Wahlkreis Sursee"},"canton":{"key":"3","code":"LU","name":"Luzern"},"status":"Real"},{"key":"10204526","name":"Blattenstrasse","postalCode":"6234","locality":"Triengen","commune":{"key":"1104","name":"Triengen","shortName":"Triengen"},"district":{"key":"314","name":"Wahlkreis Sursee"},"canton":{"key":"3","code":"LU","name":"Luzern"},"status":"Real"},{"key":"10016767","name":"Blumenweg","postalCode":"6234","locality":"Triengen","commune":{"key":"1104","name":"Triengen","shortName":"Triengen"},"district":{"key":"314","name":"Wahlkreis Sursee"},"canton":{"key":"3","code":"LU","name":"Luzern"},"status":"Real"},{"key":"10052638","name":"Buchenweg","postalCode":"6234","locality":"Triengen","commune":{"key":"1104","name":"Triengen","shortName":"Triengen"},"district":{"key":"314","name":"Wahlkreis Sursee"},"canton":{"key":"3","code":"LU","name":"Luzern"},"status":"Real"},{"key":"10083438","name":"Burg","postalCode":"6234","locality":"Triengen","commune":{"key":"1104","name":"Triengen","shortName":"Triengen"},"district":{"key":"314","name":"Wahlkreis Sursee"},"canton":{"key":"3","code":"LU","name":"Luzern"},"status":"Real"},{"key":"10016769","name":"Burgstrasse","postalCode":"6234","locality":"Triengen","commune":{"key":"1104","name":"Triengen","shortName":"Triengen"},"district":{"key":"314","name":"Wahlkreis Sursee"},"canton":{"key":"3","code":"LU","name":"Luzern"},"status":"Real"},{"key":"10074607","name":"Burgweg","postalCode":"6234","locality":"Triengen","commune":{"key":"1104","name":"Triengen","shortName":"Triengen"},"district":{"key":"314","name":"Wahlkreis Sursee"},"canton":{"key":"3","code":"LU","name":"Luzern"},"status":"Real"},{"key":"10016770","name":"Burgweid","postalCode":"6234","locality":"Triengen","commune":{"key":"1104","name":"Triengen","shortName":"Triengen"},"district":{"key":"314","name":"Wahlkreis Sursee"},"canton":{"key":"3","code":"LU","name":"Luzern"},"status":"Real"},{"key":"10204501","name":"Burgweidstrasse","postalCode":"6234","locality":"Triengen","commune":{"key":"1104","name":"Triengen","shortName":"Triengen"},"district":{"key":"314","name":"Wahlkreis Sursee"},"canton":{"key":"3","code":"LU","name":"Luzern"},"status":"Real"},{"key":"10207229","name":"Büronerweg","postalCode":"6234","locality":"Triengen","commune":{"key":"1104","name":"Triengen","shortName":"Triengen"},"district":{"key":"314","name":"Wahlkreis Sursee"},"canton":{"key":"3","code":"LU","name":"Luzern"},"status":"Real"},{"key":"10154248","name":"Chrazele","postalCode":"6234","locality":"Triengen","commune":{"key":"1104","name":"Triengen","shortName":"Triengen"},"district":{"key":"314","name":"Wahlkreis Sursee"},"canton":{"key":"3","code":"LU","name":"Luzern"},"status":"Real"},{"key":"10204530","name":"Chrazelenstrasse","postalCode":"6234","locality":"Triengen","commune":{"key":"1104","name":"Triengen","shortName":"Triengen"},"district":{"key":"314","name":"Wahlkreis Sursee"},"canton":{"key":"3","code":"LU","name":"Luzern"},"status":"Real"},{"key":"10187313","name":"Döltschen","postalCode":"6234","locality":"Triengen","commune":{"key":"1104","name":"Triengen","shortName":"Triengen"},"district":{"key":"314","name":"Wahlkreis Sursee"},"canton":{"key":"3","code":"LU","name":"Luzern"},"status":"Real"},{"key":"10204531","name":"Döltschenstrasse","postalCode":"6234","locality":"Triengen","commune":{"key":"1104","name":"Triengen","shortName":"Triengen"},"district":{"key":"314","name":"Wahlkreis Sursee"},"canton":{"key":"3","code":"LU","name":"Luzern"},"status":"Real"},{"key":"10053514","name":"Egelmoos","postalCode":"6234","locality":"Triengen","commune":{"key":"1104","name":"Triengen","shortName":"Triengen"},"district":{"key":"314","name":"Wahlkreis Sursee"},"canton":{"key":"3","code":"LU","name":"Luzern"},"status":"Real"},{"key":"10016771","name":"Eichwald","postalCode":"6234","locality":"Triengen","commune":{"key":"1104","name":"Triengen","shortName":"Triengen"},"district":{"key":"314","name":"Wahlkreis Sursee"},"canton":{"key":"3","code":"LU","name":"Luzern"},"status":"Real"},{"key":"10204506","name":"Eichwaldstrasse","postalCode":"6234","locality":"Triengen","commune":{"key":"1104","name":"Triengen","shortName":"Triengen"},"district":{"key":"314","name":"Wahlkreis Sursee"},"canton":{"key":"3","code":"LU","name":"Luzern"},"status":"Real"},{"key":"10207234","name":"Eichwaldzopfstrasse","postalCode":"6234","locality":"Triengen","commune":{"key":"1104","name":"Triengen","shortName":"Triengen"},"district":{"key":"314","name":"Wahlkreis Sursee"},"canton":{"key":"3","code":"LU","name":"Luzern"},"status":"Real"},{"key":"10204533","name":"Eichwaldzopfweg","postalCode":"6234","locality":"Triengen","commune":{"key":"1104","name":"Triengen","shortName":"Triengen"},"district":{"key":"314","name":"Wahlkreis Sursee"},"canton":{"key":"3","code":"LU","name":"Luzern"},"status":"Real"},{"key":"10204507","name":"Eiholzstrasse","postalCode":"6234","locality":"Triengen","commune":{"key":"1104","name":"Triengen","shortName":"Triengen"},"district":{"key":"314","name":"Wahlkreis Sursee"},"canton":{"key":"3","code":"LU","name":"Luzern"},"status":"Real"},{"key":"10103671","name":"Erlenstud","postalCode":"6234","locality":"Triengen","commune":{"key":"1104","name":"Triengen","shortName":"Triengen"},"district":{"key":"314","name":"Wahlkreis Sursee"},"canton":{"key":"3","code":"LU","name":"Luzern"},"status":"Real"},{"key":"10207079","name":"Erlistudstrasse","postalCode":"6234","locality":"Triengen","commune":{"key":"1104","name":"Triengen","shortName":"Triengen"},"district":{"key":"314","name":"Wahlkreis Sursee"},"canton":{"key":"3","code":"LU","name":"Luzern"},"status":"Real"},{"key":"10052639","name":"Feldgasse","postalCode":"6234","locality":"Triengen","commune":{"key":"1104","name":"Triengen","shortName":"Triengen"},"district":{"key":"314","name":"Wahlkreis Sursee"},"canton":{"key":"3","code":"LU","name":"Luzern"},"status":"Real"},{"key":"10207235","name":"Feldlistrasse","postalCode":"6234","locality":"Triengen","commune":{"key":"1104","name":"Triengen","shortName":"Triengen"},"district":{"key":"314","name":"Wahlkreis Sursee"},"canton":{"key":"3","code":"LU","name":"Luzern"},"status":"Real"},{"key":"10204534","name":"Feldliweg","postalCode":"6234","locality":"Triengen","commune":{"key":"1104","name":"Triengen","shortName":"Triengen"},"district":{"key":"314","name":"Wahlkreis Sursee"},"canton":{"key":"3","code":"LU","name":"Luzern"},"status":"Real"},{"key":"10204508","name":"Feldweg","postalCode":"6234","locality":"Triengen","commune":{"key":"1104","name":"Triengen","shortName":"Triengen"},"district":{"key":"314","name":"Wahlkreis Sursee"},"canton":{"key":"3","code":"LU","name":"Luzern"},"status":"Real"},{"key":"10181217","name":"Fischerhof","postalCode":"6234","locality":"Triengen","commune":{"key":"1104","name":"Triengen","shortName":"Triengen"},"district":{"key":"314","name":"Wahlkreis Sursee"},"canton":{"key":"3","code":"LU","name":"Luzern"},"status":"Real"},{"key":"10207080","name":"Fischerhofstrasse","postalCode":"6234","locality":"Triengen","commune":{"key":"1104","name":"Triengen","shortName":"Triengen"},"district":{"key":"314","name":"Wahlkreis Sursee"},"canton":{"key":"3","code":"LU","name":"Luzern"},"status":"Real"},{"key":"10207236","name":"Flugplatzstrasse","postalCode":"6234","locality":"Triengen","commune":{"key":"1104","name":"Triengen","shortName":"Triengen"},"district":{"key":"314","name":"Wahlkreis Sursee"},"canton":{"key":"3","code":"LU","name":"Luzern"},"status":"Real"},{"key":"10204535","name":"Fuchshubelstrasse","postalCode":"6234","locality":"Triengen","commune":{"key":"1104","name":"Triengen","shortName":"Triengen"},"district":{"key":"314","name":"Wahlkreis Sursee"},"canton":{"key":"3","code":"LU","name":"Luzern"},"status":"Real"},{"key":"10198674","name":"Gartenfeld","postalCode":"6234","locality":"Triengen","commune":{"key":"1104","name":"Triengen","shortName":"Triengen"},"district":{"key":"314","name":"Wahlkreis Sursee"},"canton":{"key":"3","code":"LU","name":"Luzern"},"status":"Real"},{"key":"10083708","name":"Gass","postalCode":"6234","locality":"Triengen","commune":{"key":"1104","name":"Triengen","shortName":"Triengen"},"district":{"key":"314","name":"Wahlkreis Sursee"},"canton":{"key":"3","code":"LU","name":"Luzern"},"status":"Real"},{"key":"10016772","name":"Geisswand","postalCode":"6234","locality":"Triengen","commune":{"key":"1104","name":"Triengen","shortName":"Triengen"},"district":{"key":"314","name":"Wahlkreis Sursee"},"canton":{"key":"3","code":"LU","name":"Luzern"},"status":"Real"},{"key":"10207237","name":"Gelbhubelweg","postalCode":"6234","locality":"Triengen","commune":{"key":"1104","name":"Triengen","shortName":"Triengen"},"district":{"key":"314","name":"Wahlkreis Sursee"},"canton":{"key":"3","code":"LU","name":"Luzern"},"status":"Real"},{"key":"10074608","name":"Gisleracher","postalCode":"6234","locality":"Triengen","commune":{"key":"1104","name":"Triengen","shortName":"Triengen"},"district":{"key":"314","name":"Wahlkreis Sursee"},"canton":{"key":"3","code":"LU","name":"Luzern"},"status":"Real"},{"key":"10155565","name":"Gislerfeld","postalCode":"6234","locality":"Triengen","commune":{"key":"1104","name":"Triengen","shortName":"Triengen"},"district":{"key":"314","name":"Wahlkreis Sursee"},"canton":{"key":"3","code":"LU","name":"Luzern"},"status":"Real"},{"key":"10083709","name":"Gislermatte","postalCode":"6234","locality":"Triengen","commune":{"key":"1104","name":"Triengen","shortName":"Triengen"},"district":{"key":"314","name":"Wahlkreis Sursee"},"canton":{"key":"3","code":"LU","name":"Luzern"},"status":"Real"},{"key":"10204536","name":"Gislermattstrasse","postalCode":"6234","locality":"Triengen","commune":{"key":"1104","name":"Triengen","shortName":"Triengen"},"district":{"key":"314","name":"Wahlkreis Sursee"},"canton":{"key":"3","code":"LU","name":"Luzern"},"status":"Real"},{"key":"10207082","name":"Gislermattweg","postalCode":"6234","locality":"Triengen","commune":{"key":"1104","name":"Triengen","shortName":"Triengen"},"district":{"key":"314","name":"Wahlkreis Sursee"},"canton":{"key":"3","code":"LU","name":"Luzern"},"status":"Real"},{"key":"10016773","name":"Gislerstrasse","postalCode":"6234","locality":"Triengen","commune":{"key":"1104","name":"Triengen","shortName":"Triengen"},"district":{"key":"314","name":"Wahlkreis Sursee"},"canton":{"key":"3","code":"LU","name":"Luzern"},"status":"Real"},{"key":"10152487","name":"Grossberg","postalCode":"6234","locality":"Triengen","commune":{"key":"1104","name":"Triengen","shortName":"Triengen"},"district":{"key":"314","name":"Wahlkreis Sursee"},"canton":{"key":"3","code":"LU","name":"Luzern"},"status":"Real"},{"key":"10242534","name":"Grossfeldstrasse","postalCode":"6234","locality":"Triengen","commune":{"key":"1104","name":"Triengen","shortName":"Triengen"},"district":{"key":"314","name":"Wahlkreis Sursee"},"canton":{"key":"3","code":"LU","name":"Luzern"},"status":"Real"},{"key":"10204537","name":"Grossmoosstrasse","postalCode":"6234","locality":"Triengen","commune":{"key":"1104","name":"Triengen","shortName":"Triengen"},"district":{"key":"314","name":"Wahlkreis Sursee"},"canton":{"key":"3","code":"LU","name":"Luzern"},"status":"Real"},{"key":"10207083","name":"Grossmoosweg","postalCode":"6234","locality":"Triengen","commune":{"key":"1104","name":"Triengen","shortName":"Triengen"},"district":{"key":"314","name":"Wahlkreis Sursee"},"canton":{"key":"3","code":"LU","name":"Luzern"},"status":"Real"},{"key":"10204476","name":"Gruebacherstrasse","postalCode":"6234","locality":"Triengen","commune":{"key":"1104","name":"Triengen","shortName":"Triengen"},"district":{"key":"314","name":"Wahlkreis Sursee"},"canton":{"key":"3","code":"LU","name":"Luzern"},"status":"Real"},{"key":"10204538","name":"Gruebstrasse","postalCode":"6234","locality":"Triengen","commune":{"key":"1104","name":"Triengen","shortName":"Triengen"},"district":{"key":"314","name":"Wahlkreis Sursee"},"canton":{"key":"3","code":"LU","name":"Luzern"},"status":"Real"},{"key":"10207084","name":"Gruebweg","postalCode":"6234","locality":"Triengen","commune":{"key":"1104","name":"Triengen","shortName":"Triengen"},"district":{"key":"314","name":"Wahlkreis Sursee"},"canton":{"key":"3","code":"LU","name":"Luzern"},"status":"Real"},{"key":"10097508","name":"Grund","postalCode":"6234","locality":"Triengen","commune":{"key":"1104","name":"Triengen","shortName":"Triengen"},"district":{"key":"314","name":"Wahlkreis Sursee"},"canton":{"key":"3","code":"LU","name":"Luzern"},"status":"Real"},{"key":"10129750","name":"Grundhalde","postalCode":"6234","locality":"Triengen","commune":{"key":"1104","name":"Triengen","shortName":"Triengen"},"district":{"key":"314","name":"Wahlkreis Sursee"},"canton":{"key":"3","code":"LU","name":"Luzern"},"status":"Real"},{"key":"10240981","name":"Grundstrasse","postalCode":"6234","locality":"Triengen","commune":{"key":"1104","name":"Triengen","shortName":"Triengen"},"district":{"key":"314","name":"Wahlkreis Sursee"},"canton":{"key":"3","code":"LU","name":"Luzern"},"status":"Real"},{"key":"10153476","name":"Grünfeldmatte","postalCode":"6234","locality":"Triengen","commune":{"key":"1104","name":"Triengen","shortName":"Triengen"},"district":{"key":"314","name":"Wahlkreis Sursee"},"canton":{"key":"3","code":"LU","name":"Luzern"},"status":"Real"},{"key":"10074609","name":"Gschweich","postalCode":"6234","locality":"Triengen","commune":{"key":"1104","name":"Triengen","shortName":"Triengen"},"district":{"key":"314","name":"Wahlkreis Sursee"},"canton":{"key":"3","code":"LU","name":"Luzern"},"status":"Real"},{"key":"10154247","name":"Gschweichhof","postalCode":"6234","locality":"Triengen","commune":{"key":"1104","name":"Triengen","shortName":"Triengen"},"district":{"key":"314","name":"Wahlkreis Sursee"},"canton":{"key":"3","code":"LU","name":"Luzern"},"status":"Real"},{"key":"10207085","name":"Gschweichstrasse","postalCode":"6234","locality":"Triengen","commune":{"key":"1104","name":"Triengen","shortName":"Triengen"},"district":{"key":"314","name":"Wahlkreis Sursee"},"canton":{"key":"3","code":"LU","name":"Luzern"},"status":"Real"},{"key":"10058698","name":"Guggisberg","postalCode":"6234","locality":"Triengen","commune":{"key":"1104","name":"Triengen","shortName":"Triengen"},"district":{"key":"314","name":"Wahlkreis Sursee"},"canton":{"key":"3","code":"LU","name":"Luzern"},"status":"Real"},{"key":"10204540","name":"Gwaggitalstrasse","postalCode":"6234","locality":"Triengen","commune":{"key":"1104","name":"Triengen","shortName":"Triengen"},"district":{"key":"314","name":"Wahlkreis Sursee"},"canton":{"key":"3","code":"LU","name":"Luzern"},"status":"Real"},{"key":"10082112","name":"Hausmattstrasse","postalCode":"6234","locality":"Triengen","commune":{"key":"1104","name":"Triengen","shortName":"Triengen"},"district":{"key":"314","name":"Wahlkreis Sursee"},"canton":{"key":"3","code":"LU","name":"Luzern"},"status":"Real"},{"key":"10074946","name":"Heinrich-Suppiger-Strasse","postalCode":"6234","locality":"Triengen","commune":{"key":"1104","name":"Triengen","shortName":"Triengen"},"district":{"key":"314","name":"Wahlkreis Sursee"},"canton":{"key":"3","code":"LU","name":"Luzern"},"status":"Real"},{"key":"10204514","name":"Hexenbachweg","postalCode":"6234","locality":"Triengen","commune":{"key":"1104","name":"Triengen","shortName":"Triengen"},"district":{"key":"314","name":"Wahlkreis Sursee"},"canton":{"key":"3","code":"LU","name":"Luzern"},"status":"Real"},{"key":"10016775","name":"Hofacker","postalCode":"6234","locality":"Triengen","commune":{"key":"1104","name":"Triengen","shortName":"Triengen"},"district":{"key":"314","name":"Wahlkreis Sursee"},"canton":{"key":"3","code":"LU","name":"Luzern"},"status":"Real"},{"key":"10115868","name":"Hofackerhalde","postalCode":"6234","locality":"Triengen","commune":{"key":"1104","name":"Triengen","shortName":"Triengen"},"district":{"key":"314","name":"Wahlkreis Sursee"},"canton":{"key":"3","code":"LU","name":"Luzern"},"status":"Real"},{"key":"10074611","name":"Hofackerrain","postalCode":"6234","locality":"Triengen","commune":{"key":"1104","name":"Triengen","shortName":"Triengen"},"district":{"key":"314","name":"Wahlkreis Sursee"},"canton":{"key":"3","code":"LU","name":"Luzern"},"status":"Real"},{"key":"10082113","name":"Hubelstrasse","postalCode":"6234","locality":"Triengen","commune":{"key":"1104","name":"Triengen","shortName":"Triengen"},"district":{"key":"314","name":"Wahlkreis Sursee"},"canton":{"key":"3","code":"LU","name":"Luzern"},"status":"Real"},{"key":"10053515","name":"Hubelweid","postalCode":"6234","locality":"Triengen","commune":{"key":"1104","name":"Triengen","shortName":"Triengen"},"district":{"key":"314","name":"Wahlkreis Sursee"},"canton":{"key":"3","code":"LU","name":"Luzern"},"status":"Real"},{"key":"10204541","name":"Hubelweidstrasse","postalCode":"6234","locality":"Triengen","commune":{"key":"1104","name":"Triengen","shortName":"Triengen"},"district":{"key":"314","name":"Wahlkreis Sursee"},"canton":{"key":"3","code":"LU","name":"Luzern"},"status":"Real"},{"key":"10204480","name":"Ischlagstrasse","postalCode":"6234","locality":"Triengen","commune":{"key":"1104","name":"Triengen","shortName":"Triengen"},"district":{"key":"314","name":"Wahlkreis Sursee"},"canton":{"key":"3","code":"LU","name":"Luzern"},"status":"Real"},{"key":"10074612","name":"Kantonsstrasse","postalCode":"6234","locality":"Triengen","commune":{"key":"1104","name":"Triengen","shortName":"Triengen"},"district":{"key":"314","name":"Wahlkreis Sursee"},"canton":{"key":"3","code":"LU","name":"Luzern"},"status":"Real"},{"key":"10082114","name":"Kappelstrasse","postalCode":"6234","locality":"Triengen","commune":{"key":"1104","name":"Triengen","shortName":"Triengen"},"district":{"key":"314","name":"Wahlkreis Sursee"},"canton":{"key":"3","code":"LU","name":"Luzern"},"status":"Real"},{"key":"10016776","name":"Kehrhof","postalCode":"6234","locality":"Triengen","commune":{"key":"1104","name":"Triengen","shortName":"Triengen"},"district":{"key":"314","name":"Wahlkreis Sursee"},"canton":{"key":"3","code":"LU","name":"Luzern"},"status":"Real"},{"key":"10151788","name":"Kehrstrasse","postalCode":"6234","locality":"Triengen","commune":{"key":"1104","name":"Triengen","shortName":"Triengen"},"district":{"key":"314","name":"Wahlkreis Sursee"},"canton":{"key":"3","code":"LU","name":"Luzern"},"status":"Real"},{"key":"10017311","name":"Kirchgasse","postalCode":"6234","locality":"Triengen","commune":{"key":"1104","name":"Triengen","shortName":"Triengen"},"district":{"key":"314","name":"Wahlkreis Sursee"},"canton":{"key":"3","code":"LU","name":"Luzern"},"status":"Real"},{"key":"10131202","name":"Kleinfeldstrasse","postalCode":"6234","locality":"Triengen","commune":{"key":"1104","name":"Triengen","shortName":"Triengen"},"district":{"key":"314","name":"Wahlkreis Sursee"},"canton":{"key":"3","code":"LU","name":"Luzern"},"status":"Real"},{"key":"10187314","name":"Kürzeweg","postalCode":"6234","locality":"Triengen","commune":{"key":"1104","name":"Triengen","shortName":"Triengen"},"district":{"key":"314","name":"Wahlkreis Sursee"},"canton":{"key":"3","code":"LU","name":"Luzern"},"status":"Real"},{"key":"10017312","name":"Lindenrain","postalCode":"6234","locality":"Triengen","commune":{"key":"1104","name":"Triengen","shortName":"Triengen"},"district":{"key":"314","name":"Wahlkreis Sursee"},"canton":{"key":"3","code":"LU","name":"Luzern"},"status":"Real"},{"key":"10204481","name":"Lochweidstrasse","postalCode":"6234","locality":"Triengen","commune":{"key":"1104","name":"Triengen","shortName":"Triengen"},"district":{"key":"314","name":"Wahlkreis Sursee"},"canton":{"key":"3","code":"LU","name":"Luzern"},"status":"Real"},{"key":"10017313","name":"Marchstein","postalCode":"6234","locality":"Triengen","commune":{"key":"1104","name":"Triengen","shortName":"Triengen"},"district":{"key":"314","name":"Wahlkreis Sursee"},"canton":{"key":"3","code":"LU","name":"Luzern"},"status":"Real"},{"key":"10204543","name":"Mattenwaldstrasse","postalCode":"6234","locality":"Triengen","commune":{"key":"1104","name":"Triengen","shortName":"Triengen"},"district":{"key":"314","name":"Wahlkreis Sursee"},"canton":{"key":"3","code":"LU","name":"Luzern"},"status":"Real"},{"key":"10204482","name":"Mieschbodenstrasse","postalCode":"6234","locality":"Triengen","commune":{"key":"1104","name":"Triengen","shortName":"Triengen"},"district":{"key":"314","name":"Wahlkreis Sursee"},"canton":{"key":"3","code":"LU","name":"Luzern"},"status":"Real"},{"key":"10017314","name":"Mitterain","postalCode":"6234","locality":"Triengen","commune":{"key":"1104","name":"Triengen","shortName":"Triengen"},"district":{"key":"314","name":"Wahlkreis Sursee"},"canton":{"key":"3","code":"LU","name":"Luzern"},"status":"Real"},{"key":"10204517","name":"Mitterainstrasse","postalCode":"6234","locality":"Triengen","commune":{"key":"1104","name":"Triengen","shortName":"Triengen"},"district":{"key":"314","name":"Wahlkreis Sursee"},"canton":{"key":"3","code":"LU","name":"Luzern"},"status":"Real"},{"key":"10190763","name":"Moosgasse","postalCode":"6234","locality":"Triengen","commune":{"key":"1104","name":"Triengen","shortName":"Triengen"},"district":{"key":"314","name":"Wahlkreis Sursee"},"canton":{"key":"3","code":"LU","name":"Luzern"},"status":"Real"},{"key":"10107456","name":"Moosgrund","postalCode":"6234","locality":"Triengen","commune":{"key":"1104","name":"Triengen","shortName":"Triengen"},"district":{"key":"314","name":"Wahlkreis Sursee"},"canton":{"key":"3","code":"LU","name":"Luzern"},"status":"Real"},{"key":"10192490","name":"Mooshof","postalCode":"6234","locality":"Triengen","commune":{"key":"1104","name":"Triengen","shortName":"Triengen"},"district":{"key":"314","name":"Wahlkreis Sursee"},"canton":{"key":"3","code":"LU","name":"Luzern"},"status":"Real"},{"key":"10115869","name":"Mühlegasse","postalCode":"6234","locality":"Triengen","commune":{"key":"1104","name":"Triengen","shortName":"Triengen"},"district":{"key":"314","name":"Wahlkreis Sursee"},"canton":{"key":"3","code":"LU","name":"Luzern"},"status":"Real"},{"key":"10017315","name":"Mühlehof","postalCode":"6234","locality":"Triengen","commune":{"key":"1104","name":"Triengen","shortName":"Triengen"},"district":{"key":"314","name":"Wahlkreis Sursee"},"canton":{"key":"3","code":"LU","name":"Luzern"},"status":"Real"},{"key":"10082115","name":"Murhubelstrasse","postalCode":"6234","locality":"Triengen","commune":{"key":"1104","name":"Triengen","shortName":"Triengen"},"district":{"key":"314","name":"Wahlkreis Sursee"},"canton":{"key":"3","code":"LU","name":"Luzern"},"status":"Real"},{"key":"10210949","name":"Murhubelweg","postalCode":"6234","locality":"Triengen","commune":{"key":"1104","name":"Triengen","shortName":"Triengen"},"district":{"key":"314","name":"Wahlkreis Sursee"},"canton":{"key":"3","code":"LU","name":"Luzern"},"status":"Real"},{"key":"10207090","name":"Neuhusstrasse","postalCode":"6234","locality":"Triengen","commune":{"key":"1104","name":"Triengen","shortName":"Triengen"},"district":{"key":"314","name":"Wahlkreis Sursee"},"canton":{"key":"3","code":"LU","name":"Luzern"},"status":"Real"},{"key":"10204483","name":"Niederhölzlistrasse","postalCode":"6234","locality":"Triengen","commune":{"key":"1104","name":"Triengen","shortName":"Triengen"},"district":{"key":"314","name":"Wahlkreis Sursee"},"canton":{"key":"3","code":"LU","name":"Luzern"},"status":"Real"},{"key":"10240989","name":"Oberdorf","postalCode":"6234","locality":"Triengen","commune":{"key":"1104","name":"Triengen","shortName":"Triengen"},"district":{"key":"314","name":"Wahlkreis Sursee"},"canton":{"key":"3","code":"LU","name":"Luzern"},"status":"Real"},{"key":"10017316","name":"Oberwellnau","postalCode":"6234","locality":"Triengen","commune":{"key":"1104","name":"Triengen","shortName":"Triengen"},"district":{"key":"314","name":"Wahlkreis Sursee"},"canton":{"key":"3","code":"LU","name":"Luzern"},"status":"Real"},{"key":"10204690","name":"Oberwellnauerstrasse","postalCode":"6234","locality":"Triengen","commune":{"key":"1104","name":"Triengen","shortName":"Triengen"},"district":{"key":"314","name":"Wahlkreis Sursee"},"canton":{"key":"3","code":"LU","name":"Luzern"},"status":"Real"},{"key":"10204484","name":"Pfarreiheim","postalCode":"6234","locality":"Triengen","commune":{"key":"1104","name":"Triengen","shortName":"Triengen"},"district":{"key":"314","name":"Wahlkreis Sursee"},"canton":{"key":"3","code":"LU","name":"Luzern"},"status":"Real"},{"key":"10207212","name":"Pfingstmattweg","postalCode":"6234","locality":"Triengen","commune":{"key":"1104","name":"Triengen","shortName":"Triengen"},"district":{"key":"314","name":"Wahlkreis Sursee"},"canton":{"key":"3","code":"LU","name":"Luzern"},"status":"Real"},{"key":"10074613","name":"Rosenweg","postalCode":"6234","locality":"Triengen","commune":{"key":"1104","name":"Triengen","shortName":"Triengen"},"district":{"key":"314","name":"Wahlkreis Sursee"},"canton":{"key":"3","code":"LU","name":"Luzern"},"status":"Real"},{"key":"10082116","name":"Rössliweg","postalCode":"6234","locality":"Triengen","commune":{"key":"1104","name":"Triengen","shortName":"Triengen"},"district":{"key":"314","name":"Wahlkreis Sursee"},"canton":{"key":"3","code":"LU","name":"Luzern"},"status":"Real"},{"key":"10204692","name":"Rüchligstrasse","postalCode":"6234","locality":"Triengen","commune":{"key":"1104","name":"Triengen","shortName":"Triengen"},"district":{"key":"314","name":"Wahlkreis Sursee"},"canton":{"key":"3","code":"LU","name":"Luzern"},"status":"Real"},{"key":"10017318","name":"Rütihofstrasse","postalCode":"6234","locality":"Triengen","commune":{"key":"1104","name":"Triengen","shortName":"Triengen"},"district":{"key":"314","name":"Wahlkreis Sursee"},"canton":{"key":"3","code":"LU","name":"Luzern"},"status":"Real"},{"key":"10114372","name":"Rütihubel","postalCode":"6234","locality":"Triengen","commune":{"key":"1104","name":"Triengen","shortName":"Triengen"},"district":{"key":"314","name":"Wahlkreis Sursee"},"canton":{"key":"3","code":"LU","name":"Luzern"},"status":"Real"},{"key":"10074614","name":"Sagimatte","postalCode":"6234","locality":"Triengen","commune":{"key":"1104","name":"Triengen","shortName":"Triengen"},"district":{"key":"314","name":"Wahlkreis Sursee"},"canton":{"key":"3","code":"LU","name":"Luzern"},"status":"Real"},{"key":"10204486","name":"Sämirainstrasse","postalCode":"6234","locality":"Triengen","commune":{"key":"1104","name":"Triengen","shortName":"Triengen"},"district":{"key":"314","name":"Wahlkreis Sursee"},"canton":{"key":"3","code":"LU","name":"Luzern"},"status":"Real"},{"key":"10207214","name":"Schäracher","postalCode":"6234","locality":"Triengen","commune":{"key":"1104","name":"Triengen","shortName":"Triengen"},"district":{"key":"314","name":"Wahlkreis Sursee"},"canton":{"key":"3","code":"LU","name":"Luzern"},"status":"Real"},{"key":"10204693","name":"Schäracherstrasse","postalCode":"6234","locality":"Triengen","commune":{"key":"1104","name":"Triengen","shortName":"Triengen"},"district":{"key":"314","name":"Wahlkreis Sursee"},"canton":{"key":"3","code":"LU","name":"Luzern"},"status":"Real"},{"key":"10204520","name":"Schlattstrasse","postalCode":"6234","locality":"Triengen","commune":{"key":"1104","name":"Triengen","shortName":"Triengen"},"district":{"key":"314","name":"Wahlkreis Sursee"},"canton":{"key":"3","code":"LU","name":"Luzern"},"status":"Real"},{"key":"10204487","name":"Schlattweg","postalCode":"6234","locality":"Triengen","commune":{"key":"1104","name":"Triengen","shortName":"Triengen"},"district":{"key":"314","name":"Wahlkreis Sursee"},"canton":{"key":"3","code":"LU","name":"Luzern"},"status":"Real"},{"key":"10082117","name":"Schönmatt","postalCode":"6234","locality":"Triengen","commune":{"key":"1104","name":"Triengen","shortName":"Triengen"},"district":{"key":"314","name":"Wahlkreis Sursee"},"canton":{"key":"3","code":"LU","name":"Luzern"},"status":"Real"},{"key":"10207215","name":"Schürgestrasse","postalCode":"6234","locality":"Triengen","commune":{"key":"1104","name":"Triengen","shortName":"Triengen"},"district":{"key":"314","name":"Wahlkreis Sursee"},"canton":{"key":"3","code":"LU","name":"Luzern"},"status":"Real"},{"key":"10017319","name":"Schürmatt","postalCode":"6234","locality":"Triengen","commune":{"key":"1104","name":"Triengen","shortName":"Triengen"},"district":{"key":"314","name":"Wahlkreis Sursee"},"canton":{"key":"3","code":"LU","name":"Luzern"},"status":"Real"},{"key":"10017320","name":"Schützenstrasse","postalCode":"6234","locality":"Triengen","commune":{"key":"1104","name":"Triengen","shortName":"Triengen"},"district":{"key":"314","name":"Wahlkreis Sursee"},"canton":{"key":"3","code":"LU","name":"Luzern"},"status":"Real"},{"key":"10074615","name":"Sonnhalde","postalCode":"6234","locality":"Triengen","commune":{"key":"1104","name":"Triengen","shortName":"Triengen"},"district":{"key":"314","name":"Wahlkreis Sursee"},"canton":{"key":"3","code":"LU","name":"Luzern"},"status":"Real"},{"key":"10204488","name":"Stattacherstrasse","postalCode":"6234","locality":"Triengen","commune":{"key":"1104","name":"Triengen","shortName":"Triengen"},"district":{"key":"314","name":"Wahlkreis Sursee"},"canton":{"key":"3","code":"LU","name":"Luzern"},"status":"Real"},{"key":"10204521","name":"Stattacherweg","postalCode":"6234","locality":"Triengen","commune":{"key":"1104","name":"Triengen","shortName":"Triengen"},"district":{"key":"314","name":"Wahlkreis Sursee"},"canton":{"key":"3","code":"LU","name":"Luzern"},"status":"Real"},{"key":"10017321","name":"Steinbären","postalCode":"6234","locality":"Triengen","commune":{"key":"1104","name":"Triengen","shortName":"Triengen"},"district":{"key":"314","name":"Wahlkreis Sursee"},"canton":{"key":"3","code":"LU","name":"Luzern"},"status":"Real"},{"key":"10149526","name":"Steinbären Hof","postalCode":"6234","locality":"Triengen","commune":{"key":"1104","name":"Triengen","shortName":"Triengen"},"district":{"key":"314","name":"Wahlkreis Sursee"},"canton":{"key":"3","code":"LU","name":"Luzern"},"status":"Real"},{"key":"10082118","name":"Steinbärenstrasse","postalCode":"6234","locality":"Triengen","commune":{"key":"1104","name":"Triengen","shortName":"Triengen"},"district":{"key":"314","name":"Wahlkreis Sursee"},"canton":{"key":"3","code":"LU","name":"Luzern"},"status":"Real"},{"key":"10114870","name":"Surenmatte","postalCode":"6234","locality":"Triengen","commune":{"key":"1104","name":"Triengen","shortName":"Triengen"},"district":{"key":"314","name":"Wahlkreis Sursee"},"canton":{"key":"3","code":"LU","name":"Luzern"},"status":"Real"},{"key":"10207216","name":"Surenmattenweg","postalCode":"6234","locality":"Triengen","commune":{"key":"1104","name":"Triengen","shortName":"Triengen"},"district":{"key":"314","name":"Wahlkreis Sursee"},"canton":{"key":"3","code":"LU","name":"Luzern"},"status":"Real"},{"key":"10149525","name":"Surenmattstrasse","postalCode":"6234","locality":"Triengen","commune":{"key":"1104","name":"Triengen","shortName":"Triengen"},"district":{"key":"314","name":"Wahlkreis Sursee"},"canton":{"key":"3","code":"LU","name":"Luzern"},"status":"Real"},{"key":"10204489","name":"Surenweg mitte","postalCode":"6234","locality":"Triengen","commune":{"key":"1104","name":"Triengen","shortName":"Triengen"},"district":{"key":"314","name":"Wahlkreis Sursee"},"canton":{"key":"3","code":"LU","name":"Luzern"},"status":"Real"},{"key":"10204696","name":"Surenweg nord","postalCode":"6234","locality":"Triengen","commune":{"key":"1104","name":"Triengen","shortName":"Triengen"},"district":{"key":"314","name":"Wahlkreis Sursee"},"canton":{"key":"3","code":"LU","name":"Luzern"},"status":"Real"},{"key":"10207217","name":"Surenweg süd","postalCode":"6234","locality":"Triengen","commune":{"key":"1104","name":"Triengen","shortName":"Triengen"},"district":{"key":"314","name":"Wahlkreis Sursee"},"canton":{"key":"3","code":"LU","name":"Luzern"},"status":"Real"},{"key":"10207218","name":"Trachtechrüzweg","postalCode":"6234","locality":"Triengen","commune":{"key":"1104","name":"Triengen","shortName":"Triengen"},"district":{"key":"314","name":"Wahlkreis Sursee"},"canton":{"key":"3","code":"LU","name":"Luzern"},"status":"Real"},{"key":"10204491","name":"Trachtenchrüzstrasse","postalCode":"6234","locality":"Triengen","commune":{"key":"1104","name":"Triengen","shortName":"Triengen"},"district":{"key":"314","name":"Wahlkreis Sursee"},"canton":{"key":"3","code":"LU","name":"Luzern"},"status":"Real"},{"key":"10204698","name":"Tramstrasse","postalCode":"6234","locality":"Triengen","commune":{"key":"1104","name":"Triengen","shortName":"Triengen"},"district":{"key":"314","name":"Wahlkreis Sursee"},"canton":{"key":"3","code":"LU","name":"Luzern"},"status":"Real"},{"key":"10207220","name":"Wallbergstrasse","postalCode":"6234","locality":"Triengen","commune":{"key":"1104","name":"Triengen","shortName":"Triengen"},"district":{"key":"314","name":"Wahlkreis Sursee"},"canton":{"key":"3","code":"LU","name":"Luzern"},"status":"Real"},{"key":"10204493","name":"Weidlistrasse","postalCode":"6234","locality":"Triengen","commune":{"key":"1104","name":"Triengen","shortName":"Triengen"},"district":{"key":"314","name":"Wahlkreis Sursee"},"canton":{"key":"3","code":"LU","name":"Luzern"},"status":"Real"},{"key":"10074616","name":"Weiher","postalCode":"6234","locality":"Triengen","commune":{"key":"1104","name":"Triengen","shortName":"Triengen"},"district":{"key":"314","name":"Wahlkreis Sursee"},"canton":{"key":"3","code":"LU","name":"Luzern"},"status":"Real"},{"key":"10017322","name":"Weiherstrasse","postalCode":"6234","locality":"Triengen","commune":{"key":"1104","name":"Triengen","shortName":"Triengen"},"district":{"key":"314","name":"Wahlkreis Sursee"},"canton":{"key":"3","code":"LU","name":"Luzern"},"status":"Real"},{"key":"10103674","name":"Weinberg","postalCode":"6234","locality":"Triengen","commune":{"key":"1104","name":"Triengen","shortName":"Triengen"},"district":{"key":"314","name":"Wahlkreis Sursee"},"canton":{"key":"3","code":"LU","name":"Luzern"},"status":"Real"},{"key":"10017323","name":"Weinberghalde","postalCode":"6234","locality":"Triengen","commune":{"key":"1104","name":"Triengen","shortName":"Triengen"},"district":{"key":"314","name":"Wahlkreis Sursee"},"canton":{"key":"3","code":"LU","name":"Luzern"},"status":"Real"},{"key":"10106150","name":"Wellnau","postalCode":"6234","locality":"Triengen","commune":{"key":"1104","name":"Triengen","shortName":"Triengen"},"district":{"key":"314","name":"Wahlkreis Sursee"},"canton":{"key":"3","code":"LU","name":"Luzern"},"status":"Real"},{"key":"10207221","name":"Wellnauerstrasse","postalCode":"6234","locality":"Triengen","commune":{"key":"1104","name":"Triengen","shortName":"Triengen"},"district":{"key":"314","name":"Wahlkreis Sursee"},"canton":{"key":"3","code":"LU","name":"Luzern"},"status":"Real"},{"key":"10240997","name":"Wilihöferstrasse","postalCode":"6234","locality":"Triengen","commune":{"key":"1104","name":"Triengen","shortName":"Triengen"},"district":{"key":"314","name":"Wahlkreis Sursee"},"canton":{"key":"3","code":"LU","name":"Luzern"},"status":"Real"},{"key":"10207222","name":"Windfallstrasse","postalCode":"6234","locality":"Triengen","commune":{"key":"1104","name":"Triengen","shortName":"Triengen"},"district":{"key":"314","name":"Wahlkreis Sursee"},"canton":{"key":"3","code":"LU","name":"Luzern"},"status":"Real"},{"key":"10107457","name":"Winkel","postalCode":"6234","locality":"Triengen","commune":{"key":"1104","name":"Triengen","shortName":"Triengen"},"district":{"key":"314","name":"Wahlkreis Sursee"},"canton":{"key":"3","code":"LU","name":"Luzern"},"status":"Real"},{"key":"10204702","name":"Winkelstrasse","postalCode":"6234","locality":"Triengen","commune":{"key":"1104","name":"Triengen","shortName":"Triengen"},"district":{"key":"314","name":"Wahlkreis Sursee"},"canton":{"key":"3","code":"LU","name":"Luzern"},"status":"Real"},{"key":"10204495","name":"Winkelweg","postalCode":"6234","locality":"Triengen","commune":{"key":"1104","name":"Triengen","shortName":"Triengen"},"district":{"key":"314","name":"Wahlkreis Sursee"},"canton":{"key":"3","code":"LU","name":"Luzern"},"status":"Real"},{"key":"10074617","name":"Wintermatte","postalCode":"6234","locality":"Triengen","commune":{"key":"1104","name":"Triengen","shortName":"Triengen"},"district":{"key":"314","name":"Wahlkreis Sursee"},"canton":{"key":"3","code":"LU","name":"Luzern"},"status":"Real"},{"key":"10017324","name":"Zihlacker","postalCode":"6234","locality":"Triengen","commune":{"key":"1104","name":"Triengen","shortName":"Triengen"},"district":{"key":"314","name":"Wahlkreis Sursee"},"canton":{"key":"3","code":"LU","name":"Luzern"},"status":"Real"},{"key":"10207224","name":"Zihlackerstrasse","postalCode":"6234","locality":"Triengen","commune":{"key":"1104","name":"Triengen","shortName":"Triengen"},"district":{"key":"314","name":"Wahlkreis Sursee"},"canton":{"key":"3","code":"LU","name":"Luzern"},"status":"Real"},{"key":"10204497","name":"Zinggenstrasse","postalCode":"6234","locality":"Triengen","commune":{"key":"1104","name":"Triengen","shortName":"Triengen"},"district":{"key":"314","name":"Wahlkreis Sursee"},"canton":{"key":"3","code":"LU","name":"Luzern"},"status":"Real"},{"key":"10204705","name":"Zinggenweg","postalCode":"6234","locality":"Triengen","commune":{"key":"1104","name":"Triengen","shortName":"Triengen"},"district":{"key":"314","name":"Wahlkreis Sursee"},"canton":{"key":"3","code":"LU","name":"Luzern"},"status":"Real"},]