[{"name":"Altenstr.","postalCode":"76855","locality":"Annweiler am Trifels","municipality":{"key":"07337501","name":"Annweiler am Trifels, Stadt","type":"Stadt"},"district":{"key":"07337","name":"Südliche Weinstraße","type":"Landkreis"},"federalState":{"key":"07","name":"Rheinland-Pfalz"}},{"name":"Am Adelberg","postalCode":"76855","locality":"Annweiler am Trifels","municipality":{"key":"07337501","name":"Annweiler am Trifels, Stadt","type":"Stadt"},"district":{"key":"07337","name":"Südliche Weinstraße","type":"Landkreis"},"federalState":{"key":"07","name":"Rheinland-Pfalz"}},{"name":"Am Bangert","postalCode":"76855","locality":"Annweiler am Trifels","municipality":{"key":"07337501","name":"Annweiler am Trifels, Stadt","type":"Stadt"},"district":{"key":"07337","name":"Südliche Weinstraße","type":"Landkreis"},"federalState":{"key":"07","name":"Rheinland-Pfalz"}},{"name":"Am Bannenberg","postalCode":"76855","locality":"Annweiler am Trifels","municipality":{"key":"07337501","name":"Annweiler am Trifels, Stadt","type":"Stadt"},"district":{"key":"07337","name":"Südliche Weinstraße","type":"Landkreis"},"federalState":{"key":"07","name":"Rheinland-Pfalz"}},{"name":"Ambert-Park","postalCode":"76855","locality":"Annweiler am Trifels","municipality":{"key":"07337501","name":"Annweiler am Trifels, Stadt","type":"Stadt"},"district":{"key":"07337","name":"Südliche Weinstraße","type":"Landkreis"},"federalState":{"key":"07","name":"Rheinland-Pfalz"}},{"name":"Am Dieterswoog","postalCode":"76855","locality":"Annweiler am Trifels","municipality":{"key":"07337501","name":"Annweiler am Trifels, Stadt","type":"Stadt"},"district":{"key":"07337","name":"Südliche Weinstraße","type":"Landkreis"},"federalState":{"key":"07","name":"Rheinland-Pfalz"}},{"name":"Am Flotz","postalCode":"76855","locality":"Annweiler am Trifels","municipality":{"key":"07337501","name":"Annweiler am Trifels, Stadt","type":"Stadt"},"district":{"key":"07337","name":"Südliche Weinstraße","type":"Landkreis"},"federalState":{"key":"07","name":"Rheinland-Pfalz"}},{"name":"Am Hirtenhaus","postalCode":"76855","locality":"Annweiler am Trifels","municipality":{"key":"07337501","name":"Annweiler am Trifels, Stadt","type":"Stadt"},"district":{"key":"07337","name":"Südliche Weinstraße","type":"Landkreis"},"federalState":{"key":"07","name":"Rheinland-Pfalz"}},{"name":"Am Kienbusch","postalCode":"76855","locality":"Annweiler am Trifels","municipality":{"key":"07337501","name":"Annweiler am Trifels, Stadt","type":"Stadt"},"district":{"key":"07337","name":"Südliche Weinstraße","type":"Landkreis"},"federalState":{"key":"07","name":"Rheinland-Pfalz"}},{"name":"Am Klingelberg","postalCode":"76855","locality":"Annweiler am Trifels","municipality":{"key":"07337501","name":"Annweiler am Trifels, Stadt","type":"Stadt"},"district":{"key":"07337","name":"Südliche Weinstraße","type":"Landkreis"},"federalState":{"key":"07","name":"Rheinland-Pfalz"}},{"name":"Am Mettenbacherhof","postalCode":"76855","locality":"Annweiler am Trifels","municipality":{"key":"07337501","name":"Annweiler am Trifels, Stadt","type":"Stadt"},"district":{"key":"07337","name":"Südliche Weinstraße","type":"Landkreis"},"federalState":{"key":"07","name":"Rheinland-Pfalz"}},{"name":"Am Osterbächel","postalCode":"76855","locality":"Annweiler am Trifels","municipality":{"key":"07337501","name":"Annweiler am Trifels, Stadt","type":"Stadt"},"district":{"key":"07337","name":"Südliche Weinstraße","type":"Landkreis"},"federalState":{"key":"07","name":"Rheinland-Pfalz"}},{"name":"Am Sonnenberg","postalCode":"76855","locality":"Annweiler am Trifels","municipality":{"key":"07337501","name":"Annweiler am Trifels, Stadt","type":"Stadt"},"district":{"key":"07337","name":"Südliche Weinstraße","type":"Landkreis"},"federalState":{"key":"07","name":"Rheinland-Pfalz"}},{"name":"Am Storchentor","postalCode":"76855","locality":"Annweiler am Trifels","municipality":{"key":"07337501","name":"Annweiler am Trifels, Stadt","type":"Stadt"},"district":{"key":"07337","name":"Südliche Weinstraße","type":"Landkreis"},"federalState":{"key":"07","name":"Rheinland-Pfalz"}},{"name":"Am Wingertsberg","postalCode":"76855","locality":"Annweiler am Trifels","municipality":{"key":"07337501","name":"Annweiler am Trifels, Stadt","type":"Stadt"},"district":{"key":"07337","name":"Südliche Weinstraße","type":"Landkreis"},"federalState":{"key":"07","name":"Rheinland-Pfalz"}},{"name":"An den Bächen","postalCode":"76855","locality":"Annweiler am Trifels","municipality":{"key":"07337501","name":"Annweiler am Trifels, Stadt","type":"Stadt"},"district":{"key":"07337","name":"Südliche Weinstraße","type":"Landkreis"},"federalState":{"key":"07","name":"Rheinland-Pfalz"}},{"name":"An der Feuerwache","postalCode":"76855","locality":"Annweiler am Trifels","municipality":{"key":"07337501","name":"Annweiler am Trifels, Stadt","type":"Stadt"},"district":{"key":"07337","name":"Südliche Weinstraße","type":"Landkreis"},"federalState":{"key":"07","name":"Rheinland-Pfalz"}},{"name":"An der Kapelle","postalCode":"76855","locality":"Annweiler am Trifels","municipality":{"key":"07337501","name":"Annweiler am Trifels, Stadt","type":"Stadt"},"district":{"key":"07337","name":"Südliche Weinstraße","type":"Landkreis"},"federalState":{"key":"07","name":"Rheinland-Pfalz"}},{"name":"Anebosstr.","postalCode":"76855","locality":"Annweiler am Trifels","municipality":{"key":"07337501","name":"Annweiler am Trifels, Stadt","type":"Stadt"},"district":{"key":"07337","name":"Südliche Weinstraße","type":"Landkreis"},"federalState":{"key":"07","name":"Rheinland-Pfalz"}},{"name":"Annweiler Str.","postalCode":"76855","locality":"Annweiler am Trifels","municipality":{"key":"07337501","name":"Annweiler am Trifels, Stadt","type":"Stadt"},"district":{"key":"07337","name":"Südliche Weinstraße","type":"Landkreis"},"federalState":{"key":"07","name":"Rheinland-Pfalz"}},{"name":"Apothekergasse","postalCode":"76855","locality":"Annweiler am Trifels","municipality":{"key":"07337501","name":"Annweiler am Trifels, Stadt","type":"Stadt"},"district":{"key":"07337","name":"Südliche Weinstraße","type":"Landkreis"},"federalState":{"key":"07","name":"Rheinland-Pfalz"}},{"name":"Asselsteinstr.","postalCode":"76855","locality":"Annweiler am Trifels","municipality":{"key":"07337501","name":"Annweiler am Trifels, Stadt","type":"Stadt"},"district":{"key":"07337","name":"Südliche Weinstraße","type":"Landkreis"},"federalState":{"key":"07","name":"Rheinland-Pfalz"}},{"name":"August-Bebel-Str.","postalCode":"76855","locality":"Annweiler am Trifels","municipality":{"key":"07337501","name":"Annweiler am Trifels, Stadt","type":"Stadt"},"district":{"key":"07337","name":"Südliche Weinstraße","type":"Landkreis"},"federalState":{"key":"07","name":"Rheinland-Pfalz"}},{"name":"Bahnhofstr.","postalCode":"76855","locality":"Annweiler am Trifels","municipality":{"key":"07337501","name":"Annweiler am Trifels, Stadt","type":"Stadt"},"district":{"key":"07337","name":"Südliche Weinstraße","type":"Landkreis"},"federalState":{"key":"07","name":"Rheinland-Pfalz"}},{"name":"Bannenbergstr.","postalCode":"76855","locality":"Annweiler am Trifels","municipality":{"key":"07337501","name":"Annweiler am Trifels, Stadt","type":"Stadt"},"district":{"key":"07337","name":"Südliche Weinstraße","type":"Landkreis"},"federalState":{"key":"07","name":"Rheinland-Pfalz"}},{"name":"Barbarossastr.","postalCode":"76855","locality":"Annweiler am Trifels","municipality":{"key":"07337501","name":"Annweiler am Trifels, Stadt","type":"Stadt"},"district":{"key":"07337","name":"Südliche Weinstraße","type":"Landkreis"},"federalState":{"key":"07","name":"Rheinland-Pfalz"}},{"name":"Berwartsteinstr.","postalCode":"76855","locality":"Annweiler am Trifels","municipality":{"key":"07337501","name":"Annweiler am Trifels, Stadt","type":"Stadt"},"district":{"key":"07337","name":"Südliche Weinstraße","type":"Landkreis"},"federalState":{"key":"07","name":"Rheinland-Pfalz"}},{"name":"Blondelplatz","postalCode":"76855","locality":"Annweiler am Trifels","municipality":{"key":"07337501","name":"Annweiler am Trifels, Stadt","type":"Stadt"},"district":{"key":"07337","name":"Südliche Weinstraße","type":"Landkreis"},"federalState":{"key":"07","name":"Rheinland-Pfalz"}},{"name":"Brunnenring","postalCode":"76855","locality":"Annweiler am Trifels","municipality":{"key":"07337501","name":"Annweiler am Trifels, Stadt","type":"Stadt"},"district":{"key":"07337","name":"Südliche Weinstraße","type":"Landkreis"},"federalState":{"key":"07","name":"Rheinland-Pfalz"}},{"name":"Brunnenweg","postalCode":"76855","locality":"Annweiler am Trifels","municipality":{"key":"07337501","name":"Annweiler am Trifels, Stadt","type":"Stadt"},"district":{"key":"07337","name":"Südliche Weinstraße","type":"Landkreis"},"federalState":{"key":"07","name":"Rheinland-Pfalz"}},{"name":"Burgenring","postalCode":"76855","locality":"Annweiler am Trifels","municipality":{"key":"07337501","name":"Annweiler am Trifels, Stadt","type":"Stadt"},"district":{"key":"07337","name":"Südliche Weinstraße","type":"Landkreis"},"federalState":{"key":"07","name":"Rheinland-Pfalz"}},{"name":"Bürgermeister-Stöcklein-Str.","postalCode":"76855","locality":"Annweiler am Trifels","municipality":{"key":"07337501","name":"Annweiler am Trifels, Stadt","type":"Stadt"},"district":{"key":"07337","name":"Südliche Weinstraße","type":"Landkreis"},"federalState":{"key":"07","name":"Rheinland-Pfalz"}},{"name":"Burgstr.","postalCode":"76855","locality":"Annweiler am Trifels","municipality":{"key":"07337501","name":"Annweiler am Trifels, Stadt","type":"Stadt"},"district":{"key":"07337","name":"Südliche Weinstraße","type":"Landkreis"},"federalState":{"key":"07","name":"Rheinland-Pfalz"}},{"name":"Burgunderstr.","postalCode":"76855","locality":"Annweiler am Trifels","municipality":{"key":"07337501","name":"Annweiler am Trifels, Stadt","type":"Stadt"},"district":{"key":"07337","name":"Südliche Weinstraße","type":"Landkreis"},"federalState":{"key":"07","name":"Rheinland-Pfalz"}},{"name":"Carl-August-Jäger-Weg","postalCode":"76855","locality":"Annweiler am Trifels","municipality":{"key":"07337501","name":"Annweiler am Trifels, Stadt","type":"Stadt"},"district":{"key":"07337","name":"Südliche Weinstraße","type":"Landkreis"},"federalState":{"key":"07","name":"Rheinland-Pfalz"}},{"name":"Christinelberg","postalCode":"76855","locality":"Annweiler am Trifels","municipality":{"key":"07337501","name":"Annweiler am Trifels, Stadt","type":"Stadt"},"district":{"key":"07337","name":"Südliche Weinstraße","type":"Landkreis"},"federalState":{"key":"07","name":"Rheinland-Pfalz"}},{"name":"Constanzeweg","postalCode":"76855","locality":"Annweiler am Trifels","municipality":{"key":"07337501","name":"Annweiler am Trifels, Stadt","type":"Stadt"},"district":{"key":"07337","name":"Südliche Weinstraße","type":"Landkreis"},"federalState":{"key":"07","name":"Rheinland-Pfalz"}},{"name":"Diakonissengasse","postalCode":"76855","locality":"Annweiler am Trifels","municipality":{"key":"07337501","name":"Annweiler am Trifels, Stadt","type":"Stadt"},"district":{"key":"07337","name":"Südliche Weinstraße","type":"Landkreis"},"federalState":{"key":"07","name":"Rheinland-Pfalz"}},{"name":"Drachenfelsstr.","postalCode":"76855","locality":"Annweiler am Trifels","municipality":{"key":"07337501","name":"Annweiler am Trifels, Stadt","type":"Stadt"},"district":{"key":"07337","name":"Südliche Weinstraße","type":"Landkreis"},"federalState":{"key":"07","name":"Rheinland-Pfalz"}},{"name":"Elisabethenstr.","postalCode":"76855","locality":"Annweiler am Trifels","municipality":{"key":"07337501","name":"Annweiler am Trifels, Stadt","type":"Stadt"},"district":{"key":"07337","name":"Südliche Weinstraße","type":"Landkreis"},"federalState":{"key":"07","name":"Rheinland-Pfalz"}},{"name":"Eußerthaler Str.","postalCode":"76855","locality":"Annweiler am Trifels","municipality":{"key":"07337501","name":"Annweiler am Trifels, Stadt","type":"Stadt"},"district":{"key":"07337","name":"Südliche Weinstraße","type":"Landkreis"},"federalState":{"key":"07","name":"Rheinland-Pfalz"}},{"name":"Finstertal","postalCode":"76855","locality":"Annweiler am Trifels","municipality":{"key":"07337501","name":"Annweiler am Trifels, Stadt","type":"Stadt"},"district":{"key":"07337","name":"Südliche Weinstraße","type":"Landkreis"},"federalState":{"key":"07","name":"Rheinland-Pfalz"}},{"name":"Flitschberg","postalCode":"76855","locality":"Annweiler am Trifels","municipality":{"key":"07337501","name":"Annweiler am Trifels, Stadt","type":"Stadt"},"district":{"key":"07337","name":"Südliche Weinstraße","type":"Landkreis"},"federalState":{"key":"07","name":"Rheinland-Pfalz"}},{"name":"Friedensstr.","postalCode":"76855","locality":"Annweiler am Trifels","municipality":{"key":"07337501","name":"Annweiler am Trifels, Stadt","type":"Stadt"},"district":{"key":"07337","name":"Südliche Weinstraße","type":"Landkreis"},"federalState":{"key":"07","name":"Rheinland-Pfalz"}},{"name":"Friedhofweg","postalCode":"76855","locality":"Annweiler am Trifels","municipality":{"key":"07337501","name":"Annweiler am Trifels, Stadt","type":"Stadt"},"district":{"key":"07337","name":"Südliche Weinstraße","type":"Landkreis"},"federalState":{"key":"07","name":"Rheinland-Pfalz"}},{"name":"Friedrich-Ebert-Str.","postalCode":"76855","locality":"Annweiler am Trifels","municipality":{"key":"07337501","name":"Annweiler am Trifels, Stadt","type":"Stadt"},"district":{"key":"07337","name":"Südliche Weinstraße","type":"Landkreis"},"federalState":{"key":"07","name":"Rheinland-Pfalz"}},{"name":"Gartenstr.","postalCode":"76855","locality":"Annweiler am Trifels","municipality":{"key":"07337501","name":"Annweiler am Trifels, Stadt","type":"Stadt"},"district":{"key":"07337","name":"Südliche Weinstraße","type":"Landkreis"},"federalState":{"key":"07","name":"Rheinland-Pfalz"}},{"name":"Gartenweg","postalCode":"76855","locality":"Annweiler am Trifels","municipality":{"key":"07337501","name":"Annweiler am Trifels, Stadt","type":"Stadt"},"district":{"key":"07337","name":"Südliche Weinstraße","type":"Landkreis"},"federalState":{"key":"07","name":"Rheinland-Pfalz"}},{"name":"Georg-Staab-Str.","postalCode":"76855","locality":"Annweiler am Trifels","municipality":{"key":"07337501","name":"Annweiler am Trifels, Stadt","type":"Stadt"},"district":{"key":"07337","name":"Südliche Weinstraße","type":"Landkreis"},"federalState":{"key":"07","name":"Rheinland-Pfalz"}},{"name":"Gerbergasse","postalCode":"76855","locality":"Annweiler am Trifels","municipality":{"key":"07337501","name":"Annweiler am Trifels, Stadt","type":"Stadt"},"district":{"key":"07337","name":"Südliche Weinstraße","type":"Landkreis"},"federalState":{"key":"07","name":"Rheinland-Pfalz"}},{"name":"Gerhard-Weber-Weg","postalCode":"76855","locality":"Annweiler am Trifels","municipality":{"key":"07337501","name":"Annweiler am Trifels, Stadt","type":"Stadt"},"district":{"key":"07337","name":"Südliche Weinstraße","type":"Landkreis"},"federalState":{"key":"07","name":"Rheinland-Pfalz"}},{"name":"Gorgonzolaweg","postalCode":"76855","locality":"Annweiler am Trifels","municipality":{"key":"07337501","name":"Annweiler am Trifels, Stadt","type":"Stadt"},"district":{"key":"07337","name":"Südliche Weinstraße","type":"Landkreis"},"federalState":{"key":"07","name":"Rheinland-Pfalz"}},{"name":"Gräfenhausener Str.","postalCode":"76855","locality":"Annweiler am Trifels","municipality":{"key":"07337501","name":"Annweiler am Trifels, Stadt","type":"Stadt"},"district":{"key":"07337","name":"Südliche Weinstraße","type":"Landkreis"},"federalState":{"key":"07","name":"Rheinland-Pfalz"}},{"name":"Gustav-Ullrich-Str.","postalCode":"76855","locality":"Annweiler am Trifels","municipality":{"key":"07337501","name":"Annweiler am Trifels, Stadt","type":"Stadt"},"district":{"key":"07337","name":"Südliche Weinstraße","type":"Landkreis"},"federalState":{"key":"07","name":"Rheinland-Pfalz"}},{"name":"Haagweg","postalCode":"76855","locality":"Annweiler am Trifels","municipality":{"key":"07337501","name":"Annweiler am Trifels, Stadt","type":"Stadt"},"district":{"key":"07337","name":"Südliche Weinstraße","type":"Landkreis"},"federalState":{"key":"07","name":"Rheinland-Pfalz"}},{"name":"Hahnenbachstr.","postalCode":"76855","locality":"Annweiler am Trifels","municipality":{"key":"07337501","name":"Annweiler am Trifels, Stadt","type":"Stadt"},"district":{"key":"07337","name":"Südliche Weinstraße","type":"Landkreis"},"federalState":{"key":"07","name":"Rheinland-Pfalz"}},{"name":"Hauptstr.","postalCode":"76855","locality":"Annweiler am Trifels","municipality":{"key":"07337501","name":"Annweiler am Trifels, Stadt","type":"Stadt"},"district":{"key":"07337","name":"Südliche Weinstraße","type":"Landkreis"},"federalState":{"key":"07","name":"Rheinland-Pfalz"}},{"name":"Hermann-Clemens-Weg","postalCode":"76855","locality":"Annweiler am Trifels","municipality":{"key":"07337501","name":"Annweiler am Trifels, Stadt","type":"Stadt"},"district":{"key":"07337","name":"Südliche Weinstraße","type":"Landkreis"},"federalState":{"key":"07","name":"Rheinland-Pfalz"}},{"name":"Hermann-Hoffmann-Str.","postalCode":"76855","locality":"Annweiler am Trifels","municipality":{"key":"07337501","name":"Annweiler am Trifels, Stadt","type":"Stadt"},"district":{"key":"07337","name":"Südliche Weinstraße","type":"Landkreis"},"federalState":{"key":"07","name":"Rheinland-Pfalz"}},{"name":"Herrenteich","postalCode":"76855","locality":"Annweiler am Trifels","municipality":{"key":"07337501","name":"Annweiler am Trifels, Stadt","type":"Stadt"},"district":{"key":"07337","name":"Südliche Weinstraße","type":"Landkreis"},"federalState":{"key":"07","name":"Rheinland-Pfalz"}},{"name":"Hinter der Stadtmauer","postalCode":"76855","locality":"Annweiler am Trifels","municipality":{"key":"07337501","name":"Annweiler am Trifels, Stadt","type":"Stadt"},"district":{"key":"07337","name":"Südliche Weinstraße","type":"Landkreis"},"federalState":{"key":"07","name":"Rheinland-Pfalz"}},{"name":"Hinter Winkel","postalCode":"76855","locality":"Annweiler am Trifels","municipality":{"key":"07337501","name":"Annweiler am Trifels, Stadt","type":"Stadt"},"district":{"key":"07337","name":"Südliche Weinstraße","type":"Landkreis"},"federalState":{"key":"07","name":"Rheinland-Pfalz"}},{"name":"Hirtengasse","postalCode":"76855","locality":"Annweiler am Trifels","municipality":{"key":"07337501","name":"Annweiler am Trifels, Stadt","type":"Stadt"},"district":{"key":"07337","name":"Südliche Weinstraße","type":"Landkreis"},"federalState":{"key":"07","name":"Rheinland-Pfalz"}},{"name":"Hohenstaufenstr.","postalCode":"76855","locality":"Annweiler am Trifels","municipality":{"key":"07337501","name":"Annweiler am Trifels, Stadt","type":"Stadt"},"district":{"key":"07337","name":"Südliche Weinstraße","type":"Landkreis"},"federalState":{"key":"07","name":"Rheinland-Pfalz"}},{"name":"Hohlstr.","postalCode":"76855","locality":"Annweiler am Trifels","municipality":{"key":"07337501","name":"Annweiler am Trifels, Stadt","type":"Stadt"},"district":{"key":"07337","name":"Südliche Weinstraße","type":"Landkreis"},"federalState":{"key":"07","name":"Rheinland-Pfalz"}},{"name":"Hügelstr.","postalCode":"76855","locality":"Annweiler am Trifels","municipality":{"key":"07337501","name":"Annweiler am Trifels, Stadt","type":"Stadt"},"district":{"key":"07337","name":"Südliche Weinstraße","type":"Landkreis"},"federalState":{"key":"07","name":"Rheinland-Pfalz"}},{"name":"Hugenottenstr.","postalCode":"76855","locality":"Annweiler am Trifels","municipality":{"key":"07337501","name":"Annweiler am Trifels, Stadt","type":"Stadt"},"district":{"key":"07337","name":"Südliche Weinstraße","type":"Landkreis"},"federalState":{"key":"07","name":"Rheinland-Pfalz"}},{"name":"Im Semmerstal","postalCode":"76855","locality":"Annweiler am Trifels","municipality":{"key":"07337501","name":"Annweiler am Trifels, Stadt","type":"Stadt"},"district":{"key":"07337","name":"Südliche Weinstraße","type":"Landkreis"},"federalState":{"key":"07","name":"Rheinland-Pfalz"}},{"name":"Im Tal","postalCode":"76855","locality":"Annweiler am Trifels","municipality":{"key":"07337501","name":"Annweiler am Trifels, Stadt","type":"Stadt"},"district":{"key":"07337","name":"Südliche Weinstraße","type":"Landkreis"},"federalState":{"key":"07","name":"Rheinland-Pfalz"}},{"name":"Im Wegel","postalCode":"76855","locality":"Annweiler am Trifels","municipality":{"key":"07337501","name":"Annweiler am Trifels, Stadt","type":"Stadt"},"district":{"key":"07337","name":"Südliche Weinstraße","type":"Landkreis"},"federalState":{"key":"07","name":"Rheinland-Pfalz"}},{"name":"Im Zwinger","postalCode":"76855","locality":"Annweiler am Trifels","municipality":{"key":"07337501","name":"Annweiler am Trifels, Stadt","type":"Stadt"},"district":{"key":"07337","name":"Südliche Weinstraße","type":"Landkreis"},"federalState":{"key":"07","name":"Rheinland-Pfalz"}},{"name":"In den Bruchwiesen","postalCode":"76855","locality":"Annweiler am Trifels","municipality":{"key":"07337501","name":"Annweiler am Trifels, Stadt","type":"Stadt"},"district":{"key":"07337","name":"Südliche Weinstraße","type":"Landkreis"},"federalState":{"key":"07","name":"Rheinland-Pfalz"}},{"name":"In der Lehmgrube","postalCode":"76855","locality":"Annweiler am Trifels","municipality":{"key":"07337501","name":"Annweiler am Trifels, Stadt","type":"Stadt"},"district":{"key":"07337","name":"Südliche Weinstraße","type":"Landkreis"},"federalState":{"key":"07","name":"Rheinland-Pfalz"}},{"name":"Industriestr.","postalCode":"76855","locality":"Annweiler am Trifels","municipality":{"key":"07337501","name":"Annweiler am Trifels, Stadt","type":"Stadt"},"district":{"key":"07337","name":"Südliche Weinstraße","type":"Landkreis"},"federalState":{"key":"07","name":"Rheinland-Pfalz"}},{"name":"Jakob-Buchmann-Str.","postalCode":"76855","locality":"Annweiler am Trifels","municipality":{"key":"07337501","name":"Annweiler am Trifels, Stadt","type":"Stadt"},"district":{"key":"07337","name":"Südliche Weinstraße","type":"Landkreis"},"federalState":{"key":"07","name":"Rheinland-Pfalz"}},{"name":"Kerbebergweg","postalCode":"76855","locality":"Annweiler am Trifels","municipality":{"key":"07337501","name":"Annweiler am Trifels, Stadt","type":"Stadt"},"district":{"key":"07337","name":"Südliche Weinstraße","type":"Landkreis"},"federalState":{"key":"07","name":"Rheinland-Pfalz"}},{"name":"Kerbeweg","postalCode":"76855","locality":"Annweiler am Trifels","municipality":{"key":"07337501","name":"Annweiler am Trifels, Stadt","type":"Stadt"},"district":{"key":"07337","name":"Südliche Weinstraße","type":"Landkreis"},"federalState":{"key":"07","name":"Rheinland-Pfalz"}},{"name":"Kirchgasse","postalCode":"76855","locality":"Annweiler am Trifels","municipality":{"key":"07337501","name":"Annweiler am Trifels, Stadt","type":"Stadt"},"district":{"key":"07337","name":"Südliche Weinstraße","type":"Landkreis"},"federalState":{"key":"07","name":"Rheinland-Pfalz"}},{"name":"Kirschackerstr.","postalCode":"76855","locality":"Annweiler am Trifels","municipality":{"key":"07337501","name":"Annweiler am Trifels, Stadt","type":"Stadt"},"district":{"key":"07337","name":"Südliche Weinstraße","type":"Landkreis"},"federalState":{"key":"07","name":"Rheinland-Pfalz"}},{"name":"Klostergasse","postalCode":"76855","locality":"Annweiler am Trifels","municipality":{"key":"07337501","name":"Annweiler am Trifels, Stadt","type":"Stadt"},"district":{"key":"07337","name":"Südliche Weinstraße","type":"Landkreis"},"federalState":{"key":"07","name":"Rheinland-Pfalz"}},{"name":"Korngasse","postalCode":"76855","locality":"Annweiler am Trifels","municipality":{"key":"07337501","name":"Annweiler am Trifels, Stadt","type":"Stadt"},"district":{"key":"07337","name":"Südliche Weinstraße","type":"Landkreis"},"federalState":{"key":"07","name":"Rheinland-Pfalz"}},{"name":"Krämerstr.","postalCode":"76855","locality":"Annweiler am Trifels","municipality":{"key":"07337501","name":"Annweiler am Trifels, Stadt","type":"Stadt"},"district":{"key":"07337","name":"Südliche Weinstraße","type":"Landkreis"},"federalState":{"key":"07","name":"Rheinland-Pfalz"}},{"name":"Krummgasse","postalCode":"76855","locality":"Annweiler am Trifels","municipality":{"key":"07337501","name":"Annweiler am Trifels, Stadt","type":"Stadt"},"district":{"key":"07337","name":"Südliche Weinstraße","type":"Landkreis"},"federalState":{"key":"07","name":"Rheinland-Pfalz"}},{"name":"Kurhausstr.","postalCode":"76855","locality":"Annweiler am Trifels","municipality":{"key":"07337501","name":"Annweiler am Trifels, Stadt","type":"Stadt"},"district":{"key":"07337","name":"Südliche Weinstraße","type":"Landkreis"},"federalState":{"key":"07","name":"Rheinland-Pfalz"}},{"name":"Landauer Str.","postalCode":"76855","locality":"Annweiler am Trifels","municipality":{"key":"07337501","name":"Annweiler am Trifels, Stadt","type":"Stadt"},"district":{"key":"07337","name":"Südliche Weinstraße","type":"Landkreis"},"federalState":{"key":"07","name":"Rheinland-Pfalz"}},{"name":"Landeckstr.","postalCode":"76855","locality":"Annweiler am Trifels","municipality":{"key":"07337501","name":"Annweiler am Trifels, Stadt","type":"Stadt"},"district":{"key":"07337","name":"Südliche Weinstraße","type":"Landkreis"},"federalState":{"key":"07","name":"Rheinland-Pfalz"}},{"name":"Lina-Hauck-Str.","postalCode":"76855","locality":"Annweiler am Trifels","municipality":{"key":"07337501","name":"Annweiler am Trifels, Stadt","type":"Stadt"},"district":{"key":"07337","name":"Südliche Weinstraße","type":"Landkreis"},"federalState":{"key":"07","name":"Rheinland-Pfalz"}},{"name":"Lindelbrunnstr.","postalCode":"76855","locality":"Annweiler am Trifels","municipality":{"key":"07337501","name":"Annweiler am Trifels, Stadt","type":"Stadt"},"district":{"key":"07337","name":"Südliche Weinstraße","type":"Landkreis"},"federalState":{"key":"07","name":"Rheinland-Pfalz"}},{"name":"Madenburgstr.","postalCode":"76855","locality":"Annweiler am Trifels","municipality":{"key":"07337501","name":"Annweiler am Trifels, Stadt","type":"Stadt"},"district":{"key":"07337","name":"Südliche Weinstraße","type":"Landkreis"},"federalState":{"key":"07","name":"Rheinland-Pfalz"}},{"name":"Markwardanlage","postalCode":"76855","locality":"Annweiler am Trifels","municipality":{"key":"07337501","name":"Annweiler am Trifels, Stadt","type":"Stadt"},"district":{"key":"07337","name":"Südliche Weinstraße","type":"Landkreis"},"federalState":{"key":"07","name":"Rheinland-Pfalz"}},{"name":"Markwardstr.","postalCode":"76855","locality":"Annweiler am Trifels","municipality":{"key":"07337501","name":"Annweiler am Trifels, Stadt","type":"Stadt"},"district":{"key":"07337","name":"Südliche Weinstraße","type":"Landkreis"},"federalState":{"key":"07","name":"Rheinland-Pfalz"}},{"name":"Meisenbrunnerweg","postalCode":"76855","locality":"Annweiler am Trifels","municipality":{"key":"07337501","name":"Annweiler am Trifels, Stadt","type":"Stadt"},"district":{"key":"07337","name":"Südliche Weinstraße","type":"Landkreis"},"federalState":{"key":"07","name":"Rheinland-Pfalz"}},{"name":"Meisterselstr.","postalCode":"76855","locality":"Annweiler am Trifels","municipality":{"key":"07337501","name":"Annweiler am Trifels, Stadt","type":"Stadt"},"district":{"key":"07337","name":"Südliche Weinstraße","type":"Landkreis"},"federalState":{"key":"07","name":"Rheinland-Pfalz"}},{"name":"Meßplatz","postalCode":"76855","locality":"Annweiler am Trifels","municipality":{"key":"07337501","name":"Annweiler am Trifels, Stadt","type":"Stadt"},"district":{"key":"07337","name":"Südliche Weinstraße","type":"Landkreis"},"federalState":{"key":"07","name":"Rheinland-Pfalz"}},{"name":"Mettenbacher Str.","postalCode":"76855","locality":"Annweiler am Trifels","municipality":{"key":"07337501","name":"Annweiler am Trifels, Stadt","type":"Stadt"},"district":{"key":"07337","name":"Südliche Weinstraße","type":"Landkreis"},"federalState":{"key":"07","name":"Rheinland-Pfalz"}},{"name":"Mühlgasse","postalCode":"76855","locality":"Annweiler am Trifels","municipality":{"key":"07337501","name":"Annweiler am Trifels, Stadt","type":"Stadt"},"district":{"key":"07337","name":"Südliche Weinstraße","type":"Landkreis"},"federalState":{"key":"07","name":"Rheinland-Pfalz"}},{"name":"Münzstr.","postalCode":"76855","locality":"Annweiler am Trifels","municipality":{"key":"07337501","name":"Annweiler am Trifels, Stadt","type":"Stadt"},"district":{"key":"07337","name":"Südliche Weinstraße","type":"Landkreis"},"federalState":{"key":"07","name":"Rheinland-Pfalz"}},{"name":"Nachtweide","postalCode":"76855","locality":"Annweiler am Trifels","municipality":{"key":"07337501","name":"Annweiler am Trifels, Stadt","type":"Stadt"},"district":{"key":"07337","name":"Südliche Weinstraße","type":"Landkreis"},"federalState":{"key":"07","name":"Rheinland-Pfalz"}},{"name":"Neukastellstr.","postalCode":"76855","locality":"Annweiler am Trifels","municipality":{"key":"07337501","name":"Annweiler am Trifels, Stadt","type":"Stadt"},"district":{"key":"07337","name":"Südliche Weinstraße","type":"Landkreis"},"federalState":{"key":"07","name":"Rheinland-Pfalz"}},{"name":"Nordring","postalCode":"76855","locality":"Annweiler am Trifels","municipality":{"key":"07337501","name":"Annweiler am Trifels, Stadt","type":"Stadt"},"district":{"key":"07337","name":"Südliche Weinstraße","type":"Landkreis"},"federalState":{"key":"07","name":"Rheinland-Pfalz"}},{"name":"Ofental","postalCode":"76855","locality":"Annweiler am Trifels","municipality":{"key":"07337501","name":"Annweiler am Trifels, Stadt","type":"Stadt"},"district":{"key":"07337","name":"Südliche Weinstraße","type":"Landkreis"},"federalState":{"key":"07","name":"Rheinland-Pfalz"}},{"name":"Otto-Böner-Weg","postalCode":"76855","locality":"Annweiler am Trifels","municipality":{"key":"07337501","name":"Annweiler am Trifels, Stadt","type":"Stadt"},"district":{"key":"07337","name":"Südliche Weinstraße","type":"Landkreis"},"federalState":{"key":"07","name":"Rheinland-Pfalz"}},{"name":"Pirmasenser Str.","postalCode":"76855","locality":"Annweiler am Trifels","municipality":{"key":"07337501","name":"Annweiler am Trifels, Stadt","type":"Stadt"},"district":{"key":"07337","name":"Südliche Weinstraße","type":"Landkreis"},"federalState":{"key":"07","name":"Rheinland-Pfalz"}},{"name":"Prangertshof","postalCode":"76855","locality":"Annweiler am Trifels","municipality":{"key":"07337501","name":"Annweiler am Trifels, Stadt","type":"Stadt"},"district":{"key":"07337","name":"Südliche Weinstraße","type":"Landkreis"},"federalState":{"key":"07","name":"Rheinland-Pfalz"}},{"name":"Prof.-Naegle-Platz","postalCode":"76855","locality":"Annweiler am Trifels","municipality":{"key":"07337501","name":"Annweiler am Trifels, Stadt","type":"Stadt"},"district":{"key":"07337","name":"Südliche Weinstraße","type":"Landkreis"},"federalState":{"key":"07","name":"Rheinland-Pfalz"}},{"name":"Prof.-Schloßstein-Str.","postalCode":"76855","locality":"Annweiler am Trifels","municipality":{"key":"07337501","name":"Annweiler am Trifels, Stadt","type":"Stadt"},"district":{"key":"07337","name":"Südliche Weinstraße","type":"Landkreis"},"federalState":{"key":"07","name":"Rheinland-Pfalz"}},{"name":"Queichstr.","postalCode":"76855","locality":"Annweiler am Trifels","municipality":{"key":"07337501","name":"Annweiler am Trifels, Stadt","type":"Stadt"},"district":{"key":"07337","name":"Südliche Weinstraße","type":"Landkreis"},"federalState":{"key":"07","name":"Rheinland-Pfalz"}},{"name":"Queichtalstr.","postalCode":"76855","locality":"Annweiler am Trifels","municipality":{"key":"07337501","name":"Annweiler am Trifels, Stadt","type":"Stadt"},"district":{"key":"07337","name":"Südliche Weinstraße","type":"Landkreis"},"federalState":{"key":"07","name":"Rheinland-Pfalz"}},{"name":"Quodgasse","postalCode":"76855","locality":"Annweiler am Trifels","municipality":{"key":"07337501","name":"Annweiler am Trifels, Stadt","type":"Stadt"},"district":{"key":"07337","name":"Südliche Weinstraße","type":"Landkreis"},"federalState":{"key":"07","name":"Rheinland-Pfalz"}},{"name":"Ramburgstr.","postalCode":"76855","locality":"Annweiler am Trifels","municipality":{"key":"07337501","name":"Annweiler am Trifels, Stadt","type":"Stadt"},"district":{"key":"07337","name":"Südliche Weinstraße","type":"Landkreis"},"federalState":{"key":"07","name":"Rheinland-Pfalz"}},{"name":"Rehbergstr.","postalCode":"76855","locality":"Annweiler am Trifels","municipality":{"key":"07337501","name":"Annweiler am Trifels, Stadt","type":"Stadt"},"district":{"key":"07337","name":"Südliche Weinstraße","type":"Landkreis"},"federalState":{"key":"07","name":"Rheinland-Pfalz"}},{"name":"Ringstr.","postalCode":"76855","locality":"Annweiler am Trifels","municipality":{"key":"07337501","name":"Annweiler am Trifels, Stadt","type":"Stadt"},"district":{"key":"07337","name":"Südliche Weinstraße","type":"Landkreis"},"federalState":{"key":"07","name":"Rheinland-Pfalz"}},{"name":"Saarlandstr.","postalCode":"76855","locality":"Annweiler am Trifels","municipality":{"key":"07337501","name":"Annweiler am Trifels, Stadt","type":"Stadt"},"district":{"key":"07337","name":"Südliche Weinstraße","type":"Landkreis"},"federalState":{"key":"07","name":"Rheinland-Pfalz"}},{"name":"Scharfeneckstr.","postalCode":"76855","locality":"Annweiler am Trifels","municipality":{"key":"07337501","name":"Annweiler am Trifels, Stadt","type":"Stadt"},"district":{"key":"07337","name":"Südliche Weinstraße","type":"Landkreis"},"federalState":{"key":"07","name":"Rheinland-Pfalz"}},{"name":"Schneidergasse","postalCode":"76855","locality":"Annweiler am Trifels","municipality":{"key":"07337501","name":"Annweiler am Trifels, Stadt","type":"Stadt"},"district":{"key":"07337","name":"Südliche Weinstraße","type":"Landkreis"},"federalState":{"key":"07","name":"Rheinland-Pfalz"}},{"name":"Schulstr.","postalCode":"76855","locality":"Annweiler am Trifels","municipality":{"key":"07337501","name":"Annweiler am Trifels, Stadt","type":"Stadt"},"district":{"key":"07337","name":"Südliche Weinstraße","type":"Landkreis"},"federalState":{"key":"07","name":"Rheinland-Pfalz"}},{"name":"Spitalstr.","postalCode":"76855","locality":"Annweiler am Trifels","municipality":{"key":"07337501","name":"Annweiler am Trifels, Stadt","type":"Stadt"},"district":{"key":"07337","name":"Südliche Weinstraße","type":"Landkreis"},"federalState":{"key":"07","name":"Rheinland-Pfalz"}},{"name":"Steimertal","postalCode":"76855","locality":"Annweiler am Trifels","municipality":{"key":"07337501","name":"Annweiler am Trifels, Stadt","type":"Stadt"},"district":{"key":"07337","name":"Südliche Weinstraße","type":"Landkreis"},"federalState":{"key":"07","name":"Rheinland-Pfalz"}},{"name":"Steingasse","postalCode":"76855","locality":"Annweiler am Trifels","municipality":{"key":"07337501","name":"Annweiler am Trifels, Stadt","type":"Stadt"},"district":{"key":"07337","name":"Südliche Weinstraße","type":"Landkreis"},"federalState":{"key":"07","name":"Rheinland-Pfalz"}},{"name":"Südring","postalCode":"76855","locality":"Annweiler am Trifels","municipality":{"key":"07337501","name":"Annweiler am Trifels, Stadt","type":"Stadt"},"district":{"key":"07337","name":"Südliche Weinstraße","type":"Landkreis"},"federalState":{"key":"07","name":"Rheinland-Pfalz"}},{"name":"Theo-Leyendecker-Weg","postalCode":"76855","locality":"Annweiler am Trifels","municipality":{"key":"07337501","name":"Annweiler am Trifels, Stadt","type":"Stadt"},"district":{"key":"07337","name":"Südliche Weinstraße","type":"Landkreis"},"federalState":{"key":"07","name":"Rheinland-Pfalz"}},{"name":"Treppengasse","postalCode":"76855","locality":"Annweiler am Trifels","municipality":{"key":"07337501","name":"Annweiler am Trifels, Stadt","type":"Stadt"},"district":{"key":"07337","name":"Südliche Weinstraße","type":"Landkreis"},"federalState":{"key":"07","name":"Rheinland-Pfalz"}},{"name":"Trifelsstr.","postalCode":"76855","locality":"Annweiler am Trifels","municipality":{"key":"07337501","name":"Annweiler am Trifels, Stadt","type":"Stadt"},"district":{"key":"07337","name":"Südliche Weinstraße","type":"Landkreis"},"federalState":{"key":"07","name":"Rheinland-Pfalz"}},{"name":"Turnerweg","postalCode":"76855","locality":"Annweiler am Trifels","municipality":{"key":"07337501","name":"Annweiler am Trifels, Stadt","type":"Stadt"},"district":{"key":"07337","name":"Südliche Weinstraße","type":"Landkreis"},"federalState":{"key":"07","name":"Rheinland-Pfalz"}},{"name":"Valentin-Ort-Str.","postalCode":"76855","locality":"Annweiler am Trifels","municipality":{"key":"07337501","name":"Annweiler am Trifels, Stadt","type":"Stadt"},"district":{"key":"07337","name":"Südliche Weinstraße","type":"Landkreis"},"federalState":{"key":"07","name":"Rheinland-Pfalz"}},{"name":"Viktor-von-Scheffel-Str.","postalCode":"76855","locality":"Annweiler am Trifels","municipality":{"key":"07337501","name":"Annweiler am Trifels, Stadt","type":"Stadt"},"district":{"key":"07337","name":"Südliche Weinstraße","type":"Landkreis"},"federalState":{"key":"07","name":"Rheinland-Pfalz"}},{"name":"Waldbühlstr.","postalCode":"76855","locality":"Annweiler am Trifels","municipality":{"key":"07337501","name":"Annweiler am Trifels, Stadt","type":"Stadt"},"district":{"key":"07337","name":"Südliche Weinstraße","type":"Landkreis"},"federalState":{"key":"07","name":"Rheinland-Pfalz"}},{"name":"Waldfriedenstr.","postalCode":"76855","locality":"Annweiler am Trifels","municipality":{"key":"07337501","name":"Annweiler am Trifels, Stadt","type":"Stadt"},"district":{"key":"07337","name":"Südliche Weinstraße","type":"Landkreis"},"federalState":{"key":"07","name":"Rheinland-Pfalz"}},{"name":"Waldstr.","postalCode":"76855","locality":"Annweiler am Trifels","municipality":{"key":"07337501","name":"Annweiler am Trifels, Stadt","type":"Stadt"},"district":{"key":"07337","name":"Südliche Weinstraße","type":"Landkreis"},"federalState":{"key":"07","name":"Rheinland-Pfalz"}},{"name":"Wasgaustr.","postalCode":"76855","locality":"Annweiler am Trifels","municipality":{"key":"07337501","name":"Annweiler am Trifels, Stadt","type":"Stadt"},"district":{"key":"07337","name":"Südliche Weinstraße","type":"Landkreis"},"federalState":{"key":"07","name":"Rheinland-Pfalz"}},{"name":"Wassergasse","postalCode":"76855","locality":"Annweiler am Trifels","municipality":{"key":"07337501","name":"Annweiler am Trifels, Stadt","type":"Stadt"},"district":{"key":"07337","name":"Südliche Weinstraße","type":"Landkreis"},"federalState":{"key":"07","name":"Rheinland-Pfalz"}},{"name":"Wernersbergerstr.","postalCode":"76855","locality":"Annweiler am Trifels","municipality":{"key":"07337501","name":"Annweiler am Trifels, Stadt","type":"Stadt"},"district":{"key":"07337","name":"Südliche Weinstraße","type":"Landkreis"},"federalState":{"key":"07","name":"Rheinland-Pfalz"}},{"name":"Wilhelm-Loewe-Str.","postalCode":"76855","locality":"Annweiler am Trifels","municipality":{"key":"07337501","name":"Annweiler am Trifels, Stadt","type":"Stadt"},"district":{"key":"07337","name":"Südliche Weinstraße","type":"Landkreis"},"federalState":{"key":"07","name":"Rheinland-Pfalz"}},{"name":"Windhofweg","postalCode":"76855","locality":"Annweiler am Trifels","municipality":{"key":"07337501","name":"Annweiler am Trifels, Stadt","type":"Stadt"},"district":{"key":"07337","name":"Südliche Weinstraße","type":"Landkreis"},"federalState":{"key":"07","name":"Rheinland-Pfalz"}},{"name":"Zollstockweg","postalCode":"76855","locality":"Annweiler am Trifels","municipality":{"key":"07337501","name":"Annweiler am Trifels, Stadt","type":"Stadt"},"district":{"key":"07337","name":"Südliche Weinstraße","type":"Landkreis"},"federalState":{"key":"07","name":"Rheinland-Pfalz"}},{"name":"Zum Breitbusch","postalCode":"76855","locality":"Annweiler am Trifels","municipality":{"key":"07337501","name":"Annweiler am Trifels, Stadt","type":"Stadt"},"district":{"key":"07337","name":"Südliche Weinstraße","type":"Landkreis"},"federalState":{"key":"07","name":"Rheinland-Pfalz"}},{"name":"Zum Honigsack","postalCode":"76855","locality":"Annweiler am Trifels","municipality":{"key":"07337501","name":"Annweiler am Trifels, Stadt","type":"Stadt"},"district":{"key":"07337","name":"Südliche Weinstraße","type":"Landkreis"},"federalState":{"key":"07","name":"Rheinland-Pfalz"}},{"name":"Zur angenehmen Gegend","postalCode":"76855","locality":"Annweiler am Trifels","municipality":{"key":"07337501","name":"Annweiler am Trifels, Stadt","type":"Stadt"},"district":{"key":"07337","name":"Südliche Weinstraße","type":"Landkreis"},"federalState":{"key":"07","name":"Rheinland-Pfalz"}},{"name":"Zur Holderquelle","postalCode":"76855","locality":"Annweiler am Trifels","municipality":{"key":"07337501","name":"Annweiler am Trifels, Stadt","type":"Stadt"},"district":{"key":"07337","name":"Südliche Weinstraße","type":"Landkreis"},"federalState":{"key":"07","name":"Rheinland-Pfalz"}},{"name":"Zweibrücker Str.","postalCode":"76855","locality":"Annweiler am Trifels","municipality":{"key":"07337501","name":"Annweiler am Trifels, Stadt","type":"Stadt"},"district":{"key":"07337","name":"Südliche Weinstraße","type":"Landkreis"},"federalState":{"key":"07","name":"Rheinland-Pfalz"}},{"name":"Zwerchgasse","postalCode":"76855","locality":"Annweiler am Trifels","municipality":{"key":"07337501","name":"Annweiler am Trifels, Stadt","type":"Stadt"},"district":{"key":"07337","name":"Südliche Weinstraße","type":"Landkreis"},"federalState":{"key":"07","name":"Rheinland-Pfalz"}},]