[{"name":"Alter Damm","postalCode":"04932","locality":"Gröden","municipality":{"key":"12062196","name":"Gröden","type":"Kreisangehörige_Gemeinde"},"district":{"key":"12062","name":"Elbe-Elster","type":"Landkreis"},"federalState":{"key":"12","name":"Brandenburg"}},{"name":"Alter Schachtweg","postalCode":"04932","locality":"Gröden","municipality":{"key":"12062196","name":"Gröden","type":"Kreisangehörige_Gemeinde"},"district":{"key":"12062","name":"Elbe-Elster","type":"Landkreis"},"federalState":{"key":"12","name":"Brandenburg"}},{"name":"Am Bahnhof","postalCode":"24376","locality":"Grödersby","municipality":{"key":"01059034","name":"Grödersby","type":"Kreisangehörige_Gemeinde"},"district":{"key":"01059","name":"Schleswig-Flensburg","type":"Kreis"},"federalState":{"key":"01","name":"Schleswig-Holstein"}},{"name":"Am Wald","postalCode":"04932","locality":"Gröden","municipality":{"key":"12062196","name":"Gröden","type":"Kreisangehörige_Gemeinde"},"district":{"key":"12062","name":"Elbe-Elster","type":"Landkreis"},"federalState":{"key":"12","name":"Brandenburg"}},{"name":"An de Bydiek","postalCode":"24376","locality":"Grödersby","municipality":{"key":"01059034","name":"Grödersby","type":"Kreisangehörige_Gemeinde"},"district":{"key":"01059","name":"Schleswig-Flensburg","type":"Kreis"},"federalState":{"key":"01","name":"Schleswig-Holstein"}},{"name":"Bergstr.","postalCode":"04932","locality":"Gröden","municipality":{"key":"12062196","name":"Gröden","type":"Kreisangehörige_Gemeinde"},"district":{"key":"12062","name":"Elbe-Elster","type":"Landkreis"},"federalState":{"key":"12","name":"Brandenburg"}},{"name":"Brunnenweg","postalCode":"04932","locality":"Gröden","municipality":{"key":"12062196","name":"Gröden","type":"Kreisangehörige_Gemeinde"},"district":{"key":"12062","name":"Elbe-Elster","type":"Landkreis"},"federalState":{"key":"12","name":"Brandenburg"}},{"name":"Dorfplatz","postalCode":"04932","locality":"Gröden","municipality":{"key":"12062196","name":"Gröden","type":"Kreisangehörige_Gemeinde"},"district":{"key":"12062","name":"Elbe-Elster","type":"Landkreis"},"federalState":{"key":"12","name":"Brandenburg"}},{"name":"Dorfstr.","postalCode":"04932","locality":"Gröden","municipality":{"key":"12062196","name":"Gröden","type":"Kreisangehörige_Gemeinde"},"district":{"key":"12062","name":"Elbe-Elster","type":"Landkreis"},"federalState":{"key":"12","name":"Brandenburg"}},{"name":"Dorfstr.","postalCode":"24376","locality":"Grödersby","municipality":{"key":"01059034","name":"Grödersby","type":"Kreisangehörige_Gemeinde"},"district":{"key":"01059","name":"Schleswig-Flensburg","type":"Kreis"},"federalState":{"key":"01","name":"Schleswig-Holstein"}},{"name":"Eichenweg","postalCode":"04932","locality":"Gröden","municipality":{"key":"12062196","name":"Gröden","type":"Kreisangehörige_Gemeinde"},"district":{"key":"12062","name":"Elbe-Elster","type":"Landkreis"},"federalState":{"key":"12","name":"Brandenburg"}},{"name":"Elsterwerdaer Str.","postalCode":"04932","locality":"Gröden","municipality":{"key":"12062196","name":"Gröden","type":"Kreisangehörige_Gemeinde"},"district":{"key":"12062","name":"Elbe-Elster","type":"Landkreis"},"federalState":{"key":"12","name":"Brandenburg"}},{"name":"Ernst-Thälmann-Str.","postalCode":"04932","locality":"Gröden","municipality":{"key":"12062196","name":"Gröden","type":"Kreisangehörige_Gemeinde"},"district":{"key":"12062","name":"Elbe-Elster","type":"Landkreis"},"federalState":{"key":"12","name":"Brandenburg"}},{"name":"Friedenshöher Str.","postalCode":"24376","locality":"Grödersby","municipality":{"key":"01059034","name":"Grödersby","type":"Kreisangehörige_Gemeinde"},"district":{"key":"01059","name":"Schleswig-Flensburg","type":"Kreis"},"federalState":{"key":"01","name":"Schleswig-Holstein"}},{"name":"Gartenstr.","postalCode":"04932","locality":"Gröden","municipality":{"key":"12062196","name":"Gröden","type":"Kreisangehörige_Gemeinde"},"district":{"key":"12062","name":"Elbe-Elster","type":"Landkreis"},"federalState":{"key":"12","name":"Brandenburg"}},{"name":"Goosstraat","postalCode":"24376","locality":"Grödersby","municipality":{"key":"01059034","name":"Grödersby","type":"Kreisangehörige_Gemeinde"},"district":{"key":"01059","name":"Schleswig-Flensburg","type":"Kreis"},"federalState":{"key":"01","name":"Schleswig-Holstein"}},{"name":"Gröden Nord","postalCode":"04932","locality":"Gröden","municipality":{"key":"12062196","name":"Gröden","type":"Kreisangehörige_Gemeinde"},"district":{"key":"12062","name":"Elbe-Elster","type":"Landkreis"},"federalState":{"key":"12","name":"Brandenburg"}},{"name":"Großenhainer Str.","postalCode":"04932","locality":"Gröden","municipality":{"key":"12062196","name":"Gröden","type":"Kreisangehörige_Gemeinde"},"district":{"key":"12062","name":"Elbe-Elster","type":"Landkreis"},"federalState":{"key":"12","name":"Brandenburg"}},{"name":"Habertwedt","postalCode":"24376","locality":"Grödersby","municipality":{"key":"01059034","name":"Grödersby","type":"Kreisangehörige_Gemeinde"},"district":{"key":"01059","name":"Schleswig-Flensburg","type":"Kreis"},"federalState":{"key":"01","name":"Schleswig-Holstein"}},{"name":"Haideweg","postalCode":"04932","locality":"Gröden","municipality":{"key":"12062196","name":"Gröden","type":"Kreisangehörige_Gemeinde"},"district":{"key":"12062","name":"Elbe-Elster","type":"Landkreis"},"federalState":{"key":"12","name":"Brandenburg"}},{"name":"Hans-Nadler-Str.","postalCode":"04932","locality":"Gröden","municipality":{"key":"12062196","name":"Gröden","type":"Kreisangehörige_Gemeinde"},"district":{"key":"12062","name":"Elbe-Elster","type":"Landkreis"},"federalState":{"key":"12","name":"Brandenburg"}},{"name":"Hirschfelder Str.","postalCode":"04932","locality":"Gröden","municipality":{"key":"12062196","name":"Gröden","type":"Kreisangehörige_Gemeinde"},"district":{"key":"12062","name":"Elbe-Elster","type":"Landkreis"},"federalState":{"key":"12","name":"Brandenburg"}},{"name":"Hofäckerstr.","postalCode":"04932","locality":"Gröden","municipality":{"key":"12062196","name":"Gröden","type":"Kreisangehörige_Gemeinde"},"district":{"key":"12062","name":"Elbe-Elster","type":"Landkreis"},"federalState":{"key":"12","name":"Brandenburg"}},{"name":"Hohlweg","postalCode":"04932","locality":"Gröden","municipality":{"key":"12062196","name":"Gröden","type":"Kreisangehörige_Gemeinde"},"district":{"key":"12062","name":"Elbe-Elster","type":"Landkreis"},"federalState":{"key":"12","name":"Brandenburg"}},{"name":"Kiefernweg","postalCode":"04932","locality":"Gröden","municipality":{"key":"12062196","name":"Gröden","type":"Kreisangehörige_Gemeinde"},"district":{"key":"12062","name":"Elbe-Elster","type":"Landkreis"},"federalState":{"key":"12","name":"Brandenburg"}},{"name":"Königstein","postalCode":"24376","locality":"Grödersby","municipality":{"key":"01059034","name":"Grödersby","type":"Kreisangehörige_Gemeinde"},"district":{"key":"01059","name":"Schleswig-Flensburg","type":"Kreis"},"federalState":{"key":"01","name":"Schleswig-Holstein"}},{"name":"Königsteiner Str.","postalCode":"24376","locality":"Grödersby","municipality":{"key":"01059034","name":"Grödersby","type":"Kreisangehörige_Gemeinde"},"district":{"key":"01059","name":"Schleswig-Flensburg","type":"Kreis"},"federalState":{"key":"01","name":"Schleswig-Holstein"}},{"name":"Marienhof","postalCode":"24376","locality":"Grödersby","municipality":{"key":"01059034","name":"Grödersby","type":"Kreisangehörige_Gemeinde"},"district":{"key":"01059","name":"Schleswig-Flensburg","type":"Kreis"},"federalState":{"key":"01","name":"Schleswig-Holstein"}},{"name":"Marienhof","postalCode":"24399","locality":"Grödersby","municipality":{"key":"01059034","name":"Grödersby","type":"Kreisangehörige_Gemeinde"},"district":{"key":"01059","name":"Schleswig-Flensburg","type":"Kreis"},"federalState":{"key":"01","name":"Schleswig-Holstein"}},{"name":"Marienhofer Weg","postalCode":"24376","locality":"Grödersby","municipality":{"key":"01059034","name":"Grödersby","type":"Kreisangehörige_Gemeinde"},"district":{"key":"01059","name":"Schleswig-Flensburg","type":"Kreis"},"federalState":{"key":"01","name":"Schleswig-Holstein"}},{"name":"Merzdorfer Str.","postalCode":"04932","locality":"Gröden","municipality":{"key":"12062196","name":"Gröden","type":"Kreisangehörige_Gemeinde"},"district":{"key":"12062","name":"Elbe-Elster","type":"Landkreis"},"federalState":{"key":"12","name":"Brandenburg"}},{"name":"Mooser Weg","postalCode":"24376","locality":"Grödersby","municipality":{"key":"01059034","name":"Grödersby","type":"Kreisangehörige_Gemeinde"},"district":{"key":"01059","name":"Schleswig-Flensburg","type":"Kreis"},"federalState":{"key":"01","name":"Schleswig-Holstein"}},{"name":"Mühlenholz","postalCode":"24376","locality":"Grödersby","municipality":{"key":"01059034","name":"Grödersby","type":"Kreisangehörige_Gemeinde"},"district":{"key":"01059","name":"Schleswig-Flensburg","type":"Kreis"},"federalState":{"key":"01","name":"Schleswig-Holstein"}},{"name":"Mühlenstr.","postalCode":"24376","locality":"Grödersby","municipality":{"key":"01059034","name":"Grödersby","type":"Kreisangehörige_Gemeinde"},"district":{"key":"01059","name":"Schleswig-Flensburg","type":"Kreis"},"federalState":{"key":"01","name":"Schleswig-Holstein"}},{"name":"Mühlenweg","postalCode":"04932","locality":"Gröden","municipality":{"key":"12062196","name":"Gröden","type":"Kreisangehörige_Gemeinde"},"district":{"key":"12062","name":"Elbe-Elster","type":"Landkreis"},"federalState":{"key":"12","name":"Brandenburg"}},{"name":"Neue Str.","postalCode":"04932","locality":"Gröden","municipality":{"key":"12062196","name":"Gröden","type":"Kreisangehörige_Gemeinde"},"district":{"key":"12062","name":"Elbe-Elster","type":"Landkreis"},"federalState":{"key":"12","name":"Brandenburg"}},{"name":"Ortrander Str.","postalCode":"04932","locality":"Gröden","municipality":{"key":"12062196","name":"Gröden","type":"Kreisangehörige_Gemeinde"},"district":{"key":"12062","name":"Elbe-Elster","type":"Landkreis"},"federalState":{"key":"12","name":"Brandenburg"}},{"name":"Plessaer Str.","postalCode":"04932","locality":"Gröden","municipality":{"key":"12062196","name":"Gröden","type":"Kreisangehörige_Gemeinde"},"district":{"key":"12062","name":"Elbe-Elster","type":"Landkreis"},"federalState":{"key":"12","name":"Brandenburg"}},{"name":"Priestersteig","postalCode":"25869","locality":"Gröde","municipality":{"key":"01054039","name":"Gröde","type":"Kreisangehörige_Gemeinde"},"district":{"key":"01054","name":"Nordfriesland","type":"Kreis"},"federalState":{"key":"01","name":"Schleswig-Holstein"}},{"name":"Pulsnitzstr.","postalCode":"04932","locality":"Gröden","municipality":{"key":"12062196","name":"Gröden","type":"Kreisangehörige_Gemeinde"},"district":{"key":"12062","name":"Elbe-Elster","type":"Landkreis"},"federalState":{"key":"12","name":"Brandenburg"}},{"name":"Reißdammstr.","postalCode":"04932","locality":"Gröden","municipality":{"key":"12062196","name":"Gröden","type":"Kreisangehörige_Gemeinde"},"district":{"key":"12062","name":"Elbe-Elster","type":"Landkreis"},"federalState":{"key":"12","name":"Brandenburg"}},{"name":"Ringstr.","postalCode":"04932","locality":"Gröden","municipality":{"key":"12062196","name":"Gröden","type":"Kreisangehörige_Gemeinde"},"district":{"key":"12062","name":"Elbe-Elster","type":"Landkreis"},"federalState":{"key":"12","name":"Brandenburg"}},{"name":"Sandgrube","postalCode":"04932","locality":"Gröden","municipality":{"key":"12062196","name":"Gröden","type":"Kreisangehörige_Gemeinde"},"district":{"key":"12062","name":"Elbe-Elster","type":"Landkreis"},"federalState":{"key":"12","name":"Brandenburg"}},{"name":"Sansenweg","postalCode":"04932","locality":"Gröden","municipality":{"key":"12062196","name":"Gröden","type":"Kreisangehörige_Gemeinde"},"district":{"key":"12062","name":"Elbe-Elster","type":"Landkreis"},"federalState":{"key":"12","name":"Brandenburg"}},{"name":"Schachtweg","postalCode":"04932","locality":"Gröden","municipality":{"key":"12062196","name":"Gröden","type":"Kreisangehörige_Gemeinde"},"district":{"key":"12062","name":"Elbe-Elster","type":"Landkreis"},"federalState":{"key":"12","name":"Brandenburg"}},{"name":"Schankenberg","postalCode":"04932","locality":"Gröden","municipality":{"key":"12062196","name":"Gröden","type":"Kreisangehörige_Gemeinde"},"district":{"key":"12062","name":"Elbe-Elster","type":"Landkreis"},"federalState":{"key":"12","name":"Brandenburg"}},{"name":"Siedlerweg","postalCode":"04932","locality":"Gröden","municipality":{"key":"12062196","name":"Gröden","type":"Kreisangehörige_Gemeinde"},"district":{"key":"12062","name":"Elbe-Elster","type":"Landkreis"},"federalState":{"key":"12","name":"Brandenburg"}},{"name":"Steinbaracke","postalCode":"04932","locality":"Gröden","municipality":{"key":"12062196","name":"Gröden","type":"Kreisangehörige_Gemeinde"},"district":{"key":"12062","name":"Elbe-Elster","type":"Landkreis"},"federalState":{"key":"12","name":"Brandenburg"}},{"name":"Südstr.","postalCode":"04932","locality":"Gröden","municipality":{"key":"12062196","name":"Gröden","type":"Kreisangehörige_Gemeinde"},"district":{"key":"12062","name":"Elbe-Elster","type":"Landkreis"},"federalState":{"key":"12","name":"Brandenburg"}},{"name":"Teufelsbrücke","postalCode":"24376","locality":"Grödersby","municipality":{"key":"01059034","name":"Grödersby","type":"Kreisangehörige_Gemeinde"},"district":{"key":"01059","name":"Schleswig-Flensburg","type":"Kreis"},"federalState":{"key":"01","name":"Schleswig-Holstein"}},{"name":"Waldweg","postalCode":"04932","locality":"Gröden","municipality":{"key":"12062196","name":"Gröden","type":"Kreisangehörige_Gemeinde"},"district":{"key":"12062","name":"Elbe-Elster","type":"Landkreis"},"federalState":{"key":"12","name":"Brandenburg"}},{"name":"Weinberg","postalCode":"04932","locality":"Gröden","municipality":{"key":"12062196","name":"Gröden","type":"Kreisangehörige_Gemeinde"},"district":{"key":"12062","name":"Elbe-Elster","type":"Landkreis"},"federalState":{"key":"12","name":"Brandenburg"}},{"name":"Weinbergstr.","postalCode":"04932","locality":"Gröden","municipality":{"key":"12062196","name":"Gröden","type":"Kreisangehörige_Gemeinde"},"district":{"key":"12062","name":"Elbe-Elster","type":"Landkreis"},"federalState":{"key":"12","name":"Brandenburg"}},{"name":"Westerlücken","postalCode":"24376","locality":"Grödersby","municipality":{"key":"01059034","name":"Grödersby","type":"Kreisangehörige_Gemeinde"},"district":{"key":"01059","name":"Schleswig-Flensburg","type":"Kreis"},"federalState":{"key":"01","name":"Schleswig-Holstein"}},{"name":"Wiesenweg","postalCode":"04932","locality":"Gröden","municipality":{"key":"12062196","name":"Gröden","type":"Kreisangehörige_Gemeinde"},"district":{"key":"12062","name":"Elbe-Elster","type":"Landkreis"},"federalState":{"key":"12","name":"Brandenburg"}},]