[{"name":"Ahornweg","postalCode":"71739","locality":"Oberriexingen","municipality":{"key":"08118059","name":"Oberriexingen, Stadt","type":"Stadt"},"district":{"key":"08118","name":"Ludwigsburg","type":"Landkreis"},"federalState":{"key":"08","name":"Baden-Württemberg"}},{"name":"Akazienweg","postalCode":"71739","locality":"Oberriexingen","municipality":{"key":"08118059","name":"Oberriexingen, Stadt","type":"Stadt"},"district":{"key":"08118","name":"Ludwigsburg","type":"Landkreis"},"federalState":{"key":"08","name":"Baden-Württemberg"}},{"name":"Albertstr.","postalCode":"71739","locality":"Oberriexingen","municipality":{"key":"08118059","name":"Oberriexingen, Stadt","type":"Stadt"},"district":{"key":"08118","name":"Ludwigsburg","type":"Landkreis"},"federalState":{"key":"08","name":"Baden-Württemberg"}},{"name":"Amselweg","postalCode":"71739","locality":"Oberriexingen","municipality":{"key":"08118059","name":"Oberriexingen, Stadt","type":"Stadt"},"district":{"key":"08118","name":"Ludwigsburg","type":"Landkreis"},"federalState":{"key":"08","name":"Baden-Württemberg"}},{"name":"August-Lämmle-Str.","postalCode":"71739","locality":"Oberriexingen","municipality":{"key":"08118059","name":"Oberriexingen, Stadt","type":"Stadt"},"district":{"key":"08118","name":"Ludwigsburg","type":"Landkreis"},"federalState":{"key":"08","name":"Baden-Württemberg"}},{"name":"Austr.","postalCode":"71739","locality":"Oberriexingen","municipality":{"key":"08118059","name":"Oberriexingen, Stadt","type":"Stadt"},"district":{"key":"08118","name":"Ludwigsburg","type":"Landkreis"},"federalState":{"key":"08","name":"Baden-Württemberg"}},{"name":"Backhausgasse","postalCode":"71739","locality":"Oberriexingen","municipality":{"key":"08118059","name":"Oberriexingen, Stadt","type":"Stadt"},"district":{"key":"08118","name":"Ludwigsburg","type":"Landkreis"},"federalState":{"key":"08","name":"Baden-Württemberg"}},{"name":"Birkenweg","postalCode":"71739","locality":"Oberriexingen","municipality":{"key":"08118059","name":"Oberriexingen, Stadt","type":"Stadt"},"district":{"key":"08118","name":"Ludwigsburg","type":"Landkreis"},"federalState":{"key":"08","name":"Baden-Württemberg"}},{"name":"Bruch","postalCode":"71739","locality":"Oberriexingen","municipality":{"key":"08118059","name":"Oberriexingen, Stadt","type":"Stadt"},"district":{"key":"08118","name":"Ludwigsburg","type":"Landkreis"},"federalState":{"key":"08","name":"Baden-Württemberg"}},{"name":"Brunnengasse","postalCode":"71739","locality":"Oberriexingen","municipality":{"key":"08118059","name":"Oberriexingen, Stadt","type":"Stadt"},"district":{"key":"08118","name":"Ludwigsburg","type":"Landkreis"},"federalState":{"key":"08","name":"Baden-Württemberg"}},{"name":"Caerphillystr.","postalCode":"71638","locality":"Ludwigsburg","municipality":{"key":"08118048","name":"Ludwigsburg, Stadt","type":"Große_Kreisstadt"},"district":{"key":"08118","name":"Ludwigsburg","type":"Landkreis"},"federalState":{"key":"08","name":"Baden-Württemberg"}},{"name":"Calwer Str.","postalCode":"71634","locality":"Ludwigsburg","municipality":{"key":"08118048","name":"Ludwigsburg, Stadt","type":"Große_Kreisstadt"},"district":{"key":"08118","name":"Ludwigsburg","type":"Landkreis"},"federalState":{"key":"08","name":"Baden-Württemberg"}},{"name":"Cannstatter Str.","postalCode":"71642","locality":"Ludwigsburg","municipality":{"key":"08118048","name":"Ludwigsburg, Stadt","type":"Große_Kreisstadt"},"district":{"key":"08118","name":"Ludwigsburg","type":"Landkreis"},"federalState":{"key":"08","name":"Baden-Württemberg"}},{"name":"Carl-Diem-Str.","postalCode":"71642","locality":"Ludwigsburg","municipality":{"key":"08118048","name":"Ludwigsburg, Stadt","type":"Große_Kreisstadt"},"district":{"key":"08118","name":"Ludwigsburg","type":"Landkreis"},"federalState":{"key":"08","name":"Baden-Württemberg"}},{"name":"Carl-Goerdeler-Str.","postalCode":"71636","locality":"Ludwigsburg","municipality":{"key":"08118048","name":"Ludwigsburg, Stadt","type":"Große_Kreisstadt"},"district":{"key":"08118","name":"Ludwigsburg","type":"Landkreis"},"federalState":{"key":"08","name":"Baden-Württemberg"}},{"name":"Carl-Maria-von-Weber-Str.","postalCode":"71640","locality":"Ludwigsburg","municipality":{"key":"08118048","name":"Ludwigsburg, Stadt","type":"Große_Kreisstadt"},"district":{"key":"08118","name":"Ludwigsburg","type":"Landkreis"},"federalState":{"key":"08","name":"Baden-Württemberg"}},{"name":"Carl-Zeiss-Str.","postalCode":"71642","locality":"Ludwigsburg","municipality":{"key":"08118048","name":"Ludwigsburg, Stadt","type":"Große_Kreisstadt"},"district":{"key":"08118","name":"Ludwigsburg","type":"Landkreis"},"federalState":{"key":"08","name":"Baden-Württemberg"}},{"name":"Cäsar-von-Hofacker-Anlage","postalCode":"71640","locality":"Ludwigsburg","municipality":{"key":"08118048","name":"Ludwigsburg, Stadt","type":"Große_Kreisstadt"},"district":{"key":"08118","name":"Ludwigsburg","type":"Landkreis"},"federalState":{"key":"08","name":"Baden-Württemberg"}},{"name":"Charlottenstr.","postalCode":"71634","locality":"Ludwigsburg","municipality":{"key":"08118048","name":"Ludwigsburg, Stadt","type":"Große_Kreisstadt"},"district":{"key":"08118","name":"Ludwigsburg","type":"Landkreis"},"federalState":{"key":"08","name":"Baden-Württemberg"}},{"name":"Christophstr.","postalCode":"71636","locality":"Ludwigsburg","municipality":{"key":"08118048","name":"Ludwigsburg, Stadt","type":"Große_Kreisstadt"},"district":{"key":"08118","name":"Ludwigsburg","type":"Landkreis"},"federalState":{"key":"08","name":"Baden-Württemberg"}},{"name":"Comburgstr.","postalCode":"71640","locality":"Ludwigsburg","municipality":{"key":"08118048","name":"Ludwigsburg, Stadt","type":"Große_Kreisstadt"},"district":{"key":"08118","name":"Ludwigsburg","type":"Landkreis"},"federalState":{"key":"08","name":"Baden-Württemberg"}},{"name":"Corneliusstr.","postalCode":"71640","locality":"Ludwigsburg","municipality":{"key":"08118048","name":"Ludwigsburg, Stadt","type":"Große_Kreisstadt"},"district":{"key":"08118","name":"Ludwigsburg","type":"Landkreis"},"federalState":{"key":"08","name":"Baden-Württemberg"}},{"name":"Cottastr.","postalCode":"71642","locality":"Ludwigsburg","municipality":{"key":"08118048","name":"Ludwigsburg, Stadt","type":"Große_Kreisstadt"},"district":{"key":"08118","name":"Ludwigsburg","type":"Landkreis"},"federalState":{"key":"08","name":"Baden-Württemberg"}},{"name":"Crailsheimer Weg","postalCode":"71640","locality":"Ludwigsburg","municipality":{"key":"08118048","name":"Ludwigsburg, Stadt","type":"Große_Kreisstadt"},"district":{"key":"08118","name":"Ludwigsburg","type":"Landkreis"},"federalState":{"key":"08","name":"Baden-Württemberg"}},{"name":"Dahlienweg","postalCode":"71739","locality":"Oberriexingen","municipality":{"key":"08118059","name":"Oberriexingen, Stadt","type":"Stadt"},"district":{"key":"08118","name":"Ludwigsburg","type":"Landkreis"},"federalState":{"key":"08","name":"Baden-Württemberg"}},{"name":"Dinkelweg","postalCode":"71739","locality":"Oberriexingen","municipality":{"key":"08118059","name":"Oberriexingen, Stadt","type":"Stadt"},"district":{"key":"08118","name":"Ludwigsburg","type":"Landkreis"},"federalState":{"key":"08","name":"Baden-Württemberg"}},{"name":"Drosselweg","postalCode":"71739","locality":"Oberriexingen","municipality":{"key":"08118059","name":"Oberriexingen, Stadt","type":"Stadt"},"district":{"key":"08118","name":"Ludwigsburg","type":"Landkreis"},"federalState":{"key":"08","name":"Baden-Württemberg"}},{"name":"Eichendorffstr.","postalCode":"71739","locality":"Oberriexingen","municipality":{"key":"08118059","name":"Oberriexingen, Stadt","type":"Stadt"},"district":{"key":"08118","name":"Ludwigsburg","type":"Landkreis"},"federalState":{"key":"08","name":"Baden-Württemberg"}},{"name":"Eichenweg","postalCode":"71739","locality":"Oberriexingen","municipality":{"key":"08118059","name":"Oberriexingen, Stadt","type":"Stadt"},"district":{"key":"08118","name":"Ludwigsburg","type":"Landkreis"},"federalState":{"key":"08","name":"Baden-Württemberg"}},{"name":"Eisberger","postalCode":"71739","locality":"Oberriexingen","municipality":{"key":"08118059","name":"Oberriexingen, Stadt","type":"Stadt"},"district":{"key":"08118","name":"Ludwigsburg","type":"Landkreis"},"federalState":{"key":"08","name":"Baden-Württemberg"}},{"name":"Elmestr.","postalCode":"71739","locality":"Oberriexingen","municipality":{"key":"08118059","name":"Oberriexingen, Stadt","type":"Stadt"},"district":{"key":"08118","name":"Ludwigsburg","type":"Landkreis"},"federalState":{"key":"08","name":"Baden-Württemberg"}},{"name":"Emmerweg","postalCode":"71739","locality":"Oberriexingen","municipality":{"key":"08118059","name":"Oberriexingen, Stadt","type":"Stadt"},"district":{"key":"08118","name":"Ludwigsburg","type":"Landkreis"},"federalState":{"key":"08","name":"Baden-Württemberg"}},{"name":"Ennery-Platz","postalCode":"71739","locality":"Oberriexingen","municipality":{"key":"08118059","name":"Oberriexingen, Stadt","type":"Stadt"},"district":{"key":"08118","name":"Ludwigsburg","type":"Landkreis"},"federalState":{"key":"08","name":"Baden-Württemberg"}},{"name":"Enzgasse","postalCode":"71739","locality":"Oberriexingen","municipality":{"key":"08118059","name":"Oberriexingen, Stadt","type":"Stadt"},"district":{"key":"08118","name":"Ludwigsburg","type":"Landkreis"},"federalState":{"key":"08","name":"Baden-Württemberg"}},{"name":"Enzpark","postalCode":"71739","locality":"Oberriexingen","municipality":{"key":"08118059","name":"Oberriexingen, Stadt","type":"Stadt"},"district":{"key":"08118","name":"Ludwigsburg","type":"Landkreis"},"federalState":{"key":"08","name":"Baden-Württemberg"}},{"name":"Finkenweg","postalCode":"71739","locality":"Oberriexingen","municipality":{"key":"08118059","name":"Oberriexingen, Stadt","type":"Stadt"},"district":{"key":"08118","name":"Ludwigsburg","type":"Landkreis"},"federalState":{"key":"08","name":"Baden-Württemberg"}},{"name":"Friedrichstr.","postalCode":"71739","locality":"Oberriexingen","municipality":{"key":"08118059","name":"Oberriexingen, Stadt","type":"Stadt"},"district":{"key":"08118","name":"Ludwigsburg","type":"Landkreis"},"federalState":{"key":"08","name":"Baden-Württemberg"}},{"name":"Gartenstr.","postalCode":"71739","locality":"Oberriexingen","municipality":{"key":"08118059","name":"Oberriexingen, Stadt","type":"Stadt"},"district":{"key":"08118","name":"Ludwigsburg","type":"Landkreis"},"federalState":{"key":"08","name":"Baden-Württemberg"}},{"name":"Gerd-Gaiser-Str.","postalCode":"71739","locality":"Oberriexingen","municipality":{"key":"08118059","name":"Oberriexingen, Stadt","type":"Stadt"},"district":{"key":"08118","name":"Ludwigsburg","type":"Landkreis"},"federalState":{"key":"08","name":"Baden-Württemberg"}},{"name":"Goethestr.","postalCode":"71739","locality":"Oberriexingen","municipality":{"key":"08118059","name":"Oberriexingen, Stadt","type":"Stadt"},"district":{"key":"08118","name":"Ludwigsburg","type":"Landkreis"},"federalState":{"key":"08","name":"Baden-Württemberg"}},{"name":"Großmoltenstr.","postalCode":"71739","locality":"Oberriexingen","municipality":{"key":"08118059","name":"Oberriexingen, Stadt","type":"Stadt"},"district":{"key":"08118","name":"Ludwigsburg","type":"Landkreis"},"federalState":{"key":"08","name":"Baden-Württemberg"}},{"name":"Hägelesgasse","postalCode":"71739","locality":"Oberriexingen","municipality":{"key":"08118059","name":"Oberriexingen, Stadt","type":"Stadt"},"district":{"key":"08118","name":"Ludwigsburg","type":"Landkreis"},"federalState":{"key":"08","name":"Baden-Württemberg"}},{"name":"Hauffstr.","postalCode":"71739","locality":"Oberriexingen","municipality":{"key":"08118059","name":"Oberriexingen, Stadt","type":"Stadt"},"district":{"key":"08118","name":"Ludwigsburg","type":"Landkreis"},"federalState":{"key":"08","name":"Baden-Württemberg"}},{"name":"Hauptstr.","postalCode":"71739","locality":"Oberriexingen","municipality":{"key":"08118059","name":"Oberriexingen, Stadt","type":"Stadt"},"district":{"key":"08118","name":"Ludwigsburg","type":"Landkreis"},"federalState":{"key":"08","name":"Baden-Württemberg"}},{"name":"Hermann-Hesse-Str.","postalCode":"71739","locality":"Oberriexingen","municipality":{"key":"08118059","name":"Oberriexingen, Stadt","type":"Stadt"},"district":{"key":"08118","name":"Ludwigsburg","type":"Landkreis"},"federalState":{"key":"08","name":"Baden-Württemberg"}},{"name":"Hohe Str.","postalCode":"71739","locality":"Oberriexingen","municipality":{"key":"08118059","name":"Oberriexingen, Stadt","type":"Stadt"},"district":{"key":"08118","name":"Ludwigsburg","type":"Landkreis"},"federalState":{"key":"08","name":"Baden-Württemberg"}},{"name":"Hölderlinstr.","postalCode":"71739","locality":"Oberriexingen","municipality":{"key":"08118059","name":"Oberriexingen, Stadt","type":"Stadt"},"district":{"key":"08118","name":"Ludwigsburg","type":"Landkreis"},"federalState":{"key":"08","name":"Baden-Württemberg"}},{"name":"Im Erkerstal","postalCode":"71739","locality":"Oberriexingen","municipality":{"key":"08118059","name":"Oberriexingen, Stadt","type":"Stadt"},"district":{"key":"08118","name":"Ludwigsburg","type":"Landkreis"},"federalState":{"key":"08","name":"Baden-Württemberg"}},{"name":"Im Roggen","postalCode":"71739","locality":"Oberriexingen","municipality":{"key":"08118059","name":"Oberriexingen, Stadt","type":"Stadt"},"district":{"key":"08118","name":"Ludwigsburg","type":"Landkreis"},"federalState":{"key":"08","name":"Baden-Württemberg"}},{"name":"Im Weizen","postalCode":"71739","locality":"Oberriexingen","municipality":{"key":"08118059","name":"Oberriexingen, Stadt","type":"Stadt"},"district":{"key":"08118","name":"Ludwigsburg","type":"Landkreis"},"federalState":{"key":"08","name":"Baden-Württemberg"}},{"name":"Jägerhofallee","postalCode":"71638","locality":"Ludwigsburg","municipality":{"key":"08118048","name":"Ludwigsburg, Stadt","type":"Große_Kreisstadt"},"district":{"key":"08118","name":"Ludwigsburg","type":"Landkreis"},"federalState":{"key":"08","name":"Baden-Württemberg"}},{"name":"Jägerstr.","postalCode":"71638","locality":"Ludwigsburg","municipality":{"key":"08118048","name":"Ludwigsburg, Stadt","type":"Große_Kreisstadt"},"district":{"key":"08118","name":"Ludwigsburg","type":"Landkreis"},"federalState":{"key":"08","name":"Baden-Württemberg"}},{"name":"Jagststr.","postalCode":"71642","locality":"Ludwigsburg","municipality":{"key":"08118048","name":"Ludwigsburg, Stadt","type":"Große_Kreisstadt"},"district":{"key":"08118","name":"Ludwigsburg","type":"Landkreis"},"federalState":{"key":"08","name":"Baden-Württemberg"}},{"name":"Jahnstr.","postalCode":"71642","locality":"Ludwigsburg","municipality":{"key":"08118048","name":"Ludwigsburg, Stadt","type":"Große_Kreisstadt"},"district":{"key":"08118","name":"Ludwigsburg","type":"Landkreis"},"federalState":{"key":"08","name":"Baden-Württemberg"}},{"name":"Jakob-Ringler-Allee","postalCode":"71638","locality":"Ludwigsburg","municipality":{"key":"08118048","name":"Ludwigsburg, Stadt","type":"Große_Kreisstadt"},"district":{"key":"08118","name":"Ludwigsburg","type":"Landkreis"},"federalState":{"key":"08","name":"Baden-Württemberg"}},{"name":"Jakob-Seyfang-Str.","postalCode":"71634","locality":"Ludwigsburg","municipality":{"key":"08118048","name":"Ludwigsburg, Stadt","type":"Große_Kreisstadt"},"district":{"key":"08118","name":"Ludwigsburg","type":"Landkreis"},"federalState":{"key":"08","name":"Baden-Württemberg"}},{"name":"Japangarten","postalCode":"71640","locality":"Ludwigsburg","municipality":{"key":"08118048","name":"Ludwigsburg, Stadt","type":"Große_Kreisstadt"},"district":{"key":"08118","name":"Ludwigsburg","type":"Landkreis"},"federalState":{"key":"08","name":"Baden-Württemberg"}},{"name":"Jenischstr.","postalCode":"71636","locality":"Ludwigsburg","municipality":{"key":"08118048","name":"Ludwigsburg, Stadt","type":"Große_Kreisstadt"},"district":{"key":"08118","name":"Ludwigsburg","type":"Landkreis"},"federalState":{"key":"08","name":"Baden-Württemberg"}},{"name":"Johannes-Buhl-Str.","postalCode":"71634","locality":"Ludwigsburg","municipality":{"key":"08118048","name":"Ludwigsburg, Stadt","type":"Große_Kreisstadt"},"district":{"key":"08118","name":"Ludwigsburg","type":"Landkreis"},"federalState":{"key":"08","name":"Baden-Württemberg"}},{"name":"Johannesstr.","postalCode":"71636","locality":"Ludwigsburg","municipality":{"key":"08118048","name":"Ludwigsburg, Stadt","type":"Große_Kreisstadt"},"district":{"key":"08118","name":"Ludwigsburg","type":"Landkreis"},"federalState":{"key":"08","name":"Baden-Württemberg"}},{"name":"Johann-Nette-Str.","postalCode":"71634","locality":"Ludwigsburg","municipality":{"key":"08118048","name":"Ludwigsburg, Stadt","type":"Große_Kreisstadt"},"district":{"key":"08118","name":"Ludwigsburg","type":"Landkreis"},"federalState":{"key":"08","name":"Baden-Württemberg"}},{"name":"Johann-Peter-Hebel-Str.","postalCode":"71642","locality":"Ludwigsburg","municipality":{"key":"08118048","name":"Ludwigsburg, Stadt","type":"Große_Kreisstadt"},"district":{"key":"08118","name":"Ludwigsburg","type":"Landkreis"},"federalState":{"key":"08","name":"Baden-Württemberg"}},{"name":"Jommellistr.","postalCode":"71640","locality":"Ludwigsburg","municipality":{"key":"08118048","name":"Ludwigsburg, Stadt","type":"Große_Kreisstadt"},"district":{"key":"08118","name":"Ludwigsburg","type":"Landkreis"},"federalState":{"key":"08","name":"Baden-Württemberg"}},{"name":"Joseph-Haydn-Str.","postalCode":"71640","locality":"Ludwigsburg","municipality":{"key":"08118048","name":"Ludwigsburg, Stadt","type":"Große_Kreisstadt"},"district":{"key":"08118","name":"Ludwigsburg","type":"Landkreis"},"federalState":{"key":"08","name":"Baden-Württemberg"}},{"name":"Junkerleswiesen","postalCode":"71634","locality":"Ludwigsburg","municipality":{"key":"08118048","name":"Ludwigsburg, Stadt","type":"Große_Kreisstadt"},"district":{"key":"08118","name":"Ludwigsburg","type":"Landkreis"},"federalState":{"key":"08","name":"Baden-Württemberg"}},{"name":"Justinus-Kerner-Str.","postalCode":"71636","locality":"Ludwigsburg","municipality":{"key":"08118048","name":"Ludwigsburg, Stadt","type":"Große_Kreisstadt"},"district":{"key":"08118","name":"Ludwigsburg","type":"Landkreis"},"federalState":{"key":"08","name":"Baden-Württemberg"}},{"name":"Karl-Kaltschmid-Str.","postalCode":"71739","locality":"Oberriexingen","municipality":{"key":"08118059","name":"Oberriexingen, Stadt","type":"Stadt"},"district":{"key":"08118","name":"Ludwigsburg","type":"Landkreis"},"federalState":{"key":"08","name":"Baden-Württemberg"}},{"name":"Karlstr.","postalCode":"71739","locality":"Oberriexingen","municipality":{"key":"08118059","name":"Oberriexingen, Stadt","type":"Stadt"},"district":{"key":"08118","name":"Ludwigsburg","type":"Landkreis"},"federalState":{"key":"08","name":"Baden-Württemberg"}},{"name":"Kastanienweg","postalCode":"71739","locality":"Oberriexingen","municipality":{"key":"08118059","name":"Oberriexingen, Stadt","type":"Stadt"},"district":{"key":"08118","name":"Ludwigsburg","type":"Landkreis"},"federalState":{"key":"08","name":"Baden-Württemberg"}},{"name":"Kernerstr.","postalCode":"71739","locality":"Oberriexingen","municipality":{"key":"08118059","name":"Oberriexingen, Stadt","type":"Stadt"},"district":{"key":"08118","name":"Ludwigsburg","type":"Landkreis"},"federalState":{"key":"08","name":"Baden-Württemberg"}},{"name":"Kronengasse","postalCode":"71739","locality":"Oberriexingen","municipality":{"key":"08118059","name":"Oberriexingen, Stadt","type":"Stadt"},"district":{"key":"08118","name":"Ludwigsburg","type":"Landkreis"},"federalState":{"key":"08","name":"Baden-Württemberg"}},{"name":"Kronenplatz","postalCode":"71739","locality":"Oberriexingen","municipality":{"key":"08118059","name":"Oberriexingen, Stadt","type":"Stadt"},"district":{"key":"08118","name":"Ludwigsburg","type":"Landkreis"},"federalState":{"key":"08","name":"Baden-Württemberg"}},{"name":"Lerchenweg","postalCode":"71739","locality":"Oberriexingen","municipality":{"key":"08118059","name":"Oberriexingen, Stadt","type":"Stadt"},"district":{"key":"08118","name":"Ludwigsburg","type":"Landkreis"},"federalState":{"key":"08","name":"Baden-Württemberg"}},{"name":"Lilienweg","postalCode":"71739","locality":"Oberriexingen","municipality":{"key":"08118059","name":"Oberriexingen, Stadt","type":"Stadt"},"district":{"key":"08118","name":"Ludwigsburg","type":"Landkreis"},"federalState":{"key":"08","name":"Baden-Württemberg"}},{"name":"Lindenstr.","postalCode":"71739","locality":"Oberriexingen","municipality":{"key":"08118059","name":"Oberriexingen, Stadt","type":"Stadt"},"district":{"key":"08118","name":"Ludwigsburg","type":"Landkreis"},"federalState":{"key":"08","name":"Baden-Württemberg"}},{"name":"Meisenweg","postalCode":"71739","locality":"Oberriexingen","municipality":{"key":"08118059","name":"Oberriexingen, Stadt","type":"Stadt"},"district":{"key":"08118","name":"Ludwigsburg","type":"Landkreis"},"federalState":{"key":"08","name":"Baden-Württemberg"}},{"name":"Mörikestr.","postalCode":"71739","locality":"Oberriexingen","municipality":{"key":"08118059","name":"Oberriexingen, Stadt","type":"Stadt"},"district":{"key":"08118","name":"Ludwigsburg","type":"Landkreis"},"federalState":{"key":"08","name":"Baden-Württemberg"}},{"name":"Mühlrain","postalCode":"71739","locality":"Oberriexingen","municipality":{"key":"08118059","name":"Oberriexingen, Stadt","type":"Stadt"},"district":{"key":"08118","name":"Ludwigsburg","type":"Landkreis"},"federalState":{"key":"08","name":"Baden-Württemberg"}},{"name":"Mühlstr.","postalCode":"71739","locality":"Oberriexingen","municipality":{"key":"08118059","name":"Oberriexingen, Stadt","type":"Stadt"},"district":{"key":"08118","name":"Ludwigsburg","type":"Landkreis"},"federalState":{"key":"08","name":"Baden-Württemberg"}},{"name":"Nagoldstr.","postalCode":"71634","locality":"Ludwigsburg","municipality":{"key":"08118048","name":"Ludwigsburg, Stadt","type":"Große_Kreisstadt"},"district":{"key":"08118","name":"Ludwigsburg","type":"Landkreis"},"federalState":{"key":"08","name":"Baden-Württemberg"}},{"name":"Naststr.","postalCode":"71640","locality":"Ludwigsburg","municipality":{"key":"08118048","name":"Ludwigsburg, Stadt","type":"Große_Kreisstadt"},"district":{"key":"08118","name":"Ludwigsburg","type":"Landkreis"},"federalState":{"key":"08","name":"Baden-Württemberg"}},{"name":"Neckargröninger Str.","postalCode":"71638","locality":"Ludwigsburg","municipality":{"key":"08118048","name":"Ludwigsburg, Stadt","type":"Große_Kreisstadt"},"district":{"key":"08118","name":"Ludwigsburg","type":"Landkreis"},"federalState":{"key":"08","name":"Baden-Württemberg"}},{"name":"Neckargröninger Str.","postalCode":"71640","locality":"Ludwigsburg","municipality":{"key":"08118048","name":"Ludwigsburg, Stadt","type":"Große_Kreisstadt"},"district":{"key":"08118","name":"Ludwigsburg","type":"Landkreis"},"federalState":{"key":"08","name":"Baden-Württemberg"}},{"name":"Neckargröninger Weg","postalCode":"71640","locality":"Ludwigsburg","municipality":{"key":"08118048","name":"Ludwigsburg, Stadt","type":"Große_Kreisstadt"},"district":{"key":"08118","name":"Ludwigsburg","type":"Landkreis"},"federalState":{"key":"08","name":"Baden-Württemberg"}},{"name":"Neckarhalde","postalCode":"71642","locality":"Ludwigsburg","municipality":{"key":"08118048","name":"Ludwigsburg, Stadt","type":"Große_Kreisstadt"},"district":{"key":"08118","name":"Ludwigsburg","type":"Landkreis"},"federalState":{"key":"08","name":"Baden-Württemberg"}},{"name":"Neckarremser Str.","postalCode":"71640","locality":"Ludwigsburg","municipality":{"key":"08118048","name":"Ludwigsburg, Stadt","type":"Große_Kreisstadt"},"district":{"key":"08118","name":"Ludwigsburg","type":"Landkreis"},"federalState":{"key":"08","name":"Baden-Württemberg"}},{"name":"Neckarstr.","postalCode":"71640","locality":"Ludwigsburg","municipality":{"key":"08118048","name":"Ludwigsburg, Stadt","type":"Große_Kreisstadt"},"district":{"key":"08118","name":"Ludwigsburg","type":"Landkreis"},"federalState":{"key":"08","name":"Baden-Württemberg"}},{"name":"Neckartalstr.","postalCode":"71642","locality":"Ludwigsburg","municipality":{"key":"08118048","name":"Ludwigsburg, Stadt","type":"Große_Kreisstadt"},"district":{"key":"08118","name":"Ludwigsburg","type":"Landkreis"},"federalState":{"key":"08","name":"Baden-Württemberg"}},{"name":"Neckarweihinger Str.","postalCode":"71640","locality":"Ludwigsburg","municipality":{"key":"08118048","name":"Ludwigsburg, Stadt","type":"Große_Kreisstadt"},"district":{"key":"08118","name":"Ludwigsburg","type":"Landkreis"},"federalState":{"key":"08","name":"Baden-Württemberg"}},{"name":"Neißestr.","postalCode":"71638","locality":"Ludwigsburg","municipality":{"key":"08118048","name":"Ludwigsburg, Stadt","type":"Große_Kreisstadt"},"district":{"key":"08118","name":"Ludwigsburg","type":"Landkreis"},"federalState":{"key":"08","name":"Baden-Württemberg"}},{"name":"Nelkenweg","postalCode":"71642","locality":"Ludwigsburg","municipality":{"key":"08118048","name":"Ludwigsburg, Stadt","type":"Große_Kreisstadt"},"district":{"key":"08118","name":"Ludwigsburg","type":"Landkreis"},"federalState":{"key":"08","name":"Baden-Württemberg"}},{"name":"Nelly-Sachs-Str.","postalCode":"71642","locality":"Ludwigsburg","municipality":{"key":"08118048","name":"Ludwigsburg, Stadt","type":"Große_Kreisstadt"},"district":{"key":"08118","name":"Ludwigsburg","type":"Landkreis"},"federalState":{"key":"08","name":"Baden-Württemberg"}},{"name":"Nettelbeckstr.","postalCode":"71636","locality":"Ludwigsburg","municipality":{"key":"08118048","name":"Ludwigsburg, Stadt","type":"Große_Kreisstadt"},"district":{"key":"08118","name":"Ludwigsburg","type":"Landkreis"},"federalState":{"key":"08","name":"Baden-Württemberg"}},{"name":"Netzestr.","postalCode":"71638","locality":"Ludwigsburg","municipality":{"key":"08118048","name":"Ludwigsburg, Stadt","type":"Große_Kreisstadt"},"district":{"key":"08118","name":"Ludwigsburg","type":"Landkreis"},"federalState":{"key":"08","name":"Baden-Württemberg"}},{"name":"Neubertstr.","postalCode":"71636","locality":"Ludwigsburg","municipality":{"key":"08118048","name":"Ludwigsburg, Stadt","type":"Große_Kreisstadt"},"district":{"key":"08118","name":"Ludwigsburg","type":"Landkreis"},"federalState":{"key":"08","name":"Baden-Württemberg"}},{"name":"Neue Str.","postalCode":"71642","locality":"Ludwigsburg","municipality":{"key":"08118048","name":"Ludwigsburg, Stadt","type":"Große_Kreisstadt"},"district":{"key":"08118","name":"Ludwigsburg","type":"Landkreis"},"federalState":{"key":"08","name":"Baden-Württemberg"}},{"name":"Neue Weingärten","postalCode":"71634","locality":"Ludwigsburg","municipality":{"key":"08118048","name":"Ludwigsburg, Stadt","type":"Große_Kreisstadt"},"district":{"key":"08118","name":"Ludwigsburg","type":"Landkreis"},"federalState":{"key":"08","name":"Baden-Württemberg"}},{"name":"Neuffenstr.","postalCode":"71638","locality":"Ludwigsburg","municipality":{"key":"08118048","name":"Ludwigsburg, Stadt","type":"Große_Kreisstadt"},"district":{"key":"08118","name":"Ludwigsburg","type":"Landkreis"},"federalState":{"key":"08","name":"Baden-Württemberg"}},{"name":"Neuhalde","postalCode":"71640","locality":"Ludwigsburg","municipality":{"key":"08118048","name":"Ludwigsburg, Stadt","type":"Große_Kreisstadt"},"district":{"key":"08118","name":"Ludwigsburg","type":"Landkreis"},"federalState":{"key":"08","name":"Baden-Württemberg"}},{"name":"Niedersachsenstr.","postalCode":"71638","locality":"Ludwigsburg","municipality":{"key":"08118048","name":"Ludwigsburg, Stadt","type":"Große_Kreisstadt"},"district":{"key":"08118","name":"Ludwigsburg","type":"Landkreis"},"federalState":{"key":"08","name":"Baden-Württemberg"}},{"name":"Niedersachsenstr.","postalCode":"71640","locality":"Ludwigsburg","municipality":{"key":"08118048","name":"Ludwigsburg, Stadt","type":"Große_Kreisstadt"},"district":{"key":"08118","name":"Ludwigsburg","type":"Landkreis"},"federalState":{"key":"08","name":"Baden-Württemberg"}},{"name":"Nippenburgstr.","postalCode":"71636","locality":"Ludwigsburg","municipality":{"key":"08118048","name":"Ludwigsburg, Stadt","type":"Große_Kreisstadt"},"district":{"key":"08118","name":"Ludwigsburg","type":"Landkreis"},"federalState":{"key":"08","name":"Baden-Württemberg"}},{"name":"Nordstr.","postalCode":"71642","locality":"Ludwigsburg","municipality":{"key":"08118048","name":"Ludwigsburg, Stadt","type":"Große_Kreisstadt"},"district":{"key":"08118","name":"Ludwigsburg","type":"Landkreis"},"federalState":{"key":"08","name":"Baden-Württemberg"}},{"name":"Nothaftstr.","postalCode":"71640","locality":"Ludwigsburg","municipality":{"key":"08118048","name":"Ludwigsburg, Stadt","type":"Große_Kreisstadt"},"district":{"key":"08118","name":"Ludwigsburg","type":"Landkreis"},"federalState":{"key":"08","name":"Baden-Württemberg"}},{"name":"Notterstr.","postalCode":"71638","locality":"Ludwigsburg","municipality":{"key":"08118048","name":"Ludwigsburg, Stadt","type":"Große_Kreisstadt"},"district":{"key":"08118","name":"Ludwigsburg","type":"Landkreis"},"federalState":{"key":"08","name":"Baden-Württemberg"}},{"name":"Nußackerweg","postalCode":"71634","locality":"Ludwigsburg","municipality":{"key":"08118048","name":"Ludwigsburg, Stadt","type":"Große_Kreisstadt"},"district":{"key":"08118","name":"Ludwigsburg","type":"Landkreis"},"federalState":{"key":"08","name":"Baden-Württemberg"}},{"name":"Obere Gasse","postalCode":"71739","locality":"Oberriexingen","municipality":{"key":"08118059","name":"Oberriexingen, Stadt","type":"Stadt"},"district":{"key":"08118","name":"Ludwigsburg","type":"Landkreis"},"federalState":{"key":"08","name":"Baden-Württemberg"}},{"name":"Primelweg","postalCode":"71739","locality":"Oberriexingen","municipality":{"key":"08118059","name":"Oberriexingen, Stadt","type":"Stadt"},"district":{"key":"08118","name":"Ludwigsburg","type":"Landkreis"},"federalState":{"key":"08","name":"Baden-Württemberg"}},{"name":"Quergasse","postalCode":"71642","locality":"Ludwigsburg","municipality":{"key":"08118048","name":"Ludwigsburg, Stadt","type":"Große_Kreisstadt"},"district":{"key":"08118","name":"Ludwigsburg","type":"Landkreis"},"federalState":{"key":"08","name":"Baden-Württemberg"}},{"name":"Ringstr.","postalCode":"71739","locality":"Oberriexingen","municipality":{"key":"08118059","name":"Oberriexingen, Stadt","type":"Stadt"},"district":{"key":"08118","name":"Ludwigsburg","type":"Landkreis"},"federalState":{"key":"08","name":"Baden-Württemberg"}},{"name":"Römerstr.","postalCode":"71739","locality":"Oberriexingen","municipality":{"key":"08118059","name":"Oberriexingen, Stadt","type":"Stadt"},"district":{"key":"08118","name":"Ludwigsburg","type":"Landkreis"},"federalState":{"key":"08","name":"Baden-Württemberg"}},{"name":"Rosenweg","postalCode":"71739","locality":"Oberriexingen","municipality":{"key":"08118059","name":"Oberriexingen, Stadt","type":"Stadt"},"district":{"key":"08118","name":"Ludwigsburg","type":"Landkreis"},"federalState":{"key":"08","name":"Baden-Württemberg"}},{"name":"Sachsenheimer Str.","postalCode":"71739","locality":"Oberriexingen","municipality":{"key":"08118059","name":"Oberriexingen, Stadt","type":"Stadt"},"district":{"key":"08118","name":"Ludwigsburg","type":"Landkreis"},"federalState":{"key":"08","name":"Baden-Württemberg"}},{"name":"Schillerstr.","postalCode":"71739","locality":"Oberriexingen","municipality":{"key":"08118059","name":"Oberriexingen, Stadt","type":"Stadt"},"district":{"key":"08118","name":"Ludwigsburg","type":"Landkreis"},"federalState":{"key":"08","name":"Baden-Württemberg"}},{"name":"Schwabstr.","postalCode":"71739","locality":"Oberriexingen","municipality":{"key":"08118059","name":"Oberriexingen, Stadt","type":"Stadt"},"district":{"key":"08118","name":"Ludwigsburg","type":"Landkreis"},"federalState":{"key":"08","name":"Baden-Württemberg"}},{"name":"Schwalbenweg","postalCode":"71739","locality":"Oberriexingen","municipality":{"key":"08118059","name":"Oberriexingen, Stadt","type":"Stadt"},"district":{"key":"08118","name":"Ludwigsburg","type":"Landkreis"},"federalState":{"key":"08","name":"Baden-Württemberg"}},{"name":"Seitenstr.","postalCode":"71739","locality":"Oberriexingen","municipality":{"key":"08118059","name":"Oberriexingen, Stadt","type":"Stadt"},"district":{"key":"08118","name":"Ludwigsburg","type":"Landkreis"},"federalState":{"key":"08","name":"Baden-Württemberg"}},{"name":"Sersheimer Str.","postalCode":"71739","locality":"Oberriexingen","municipality":{"key":"08118059","name":"Oberriexingen, Stadt","type":"Stadt"},"district":{"key":"08118","name":"Ludwigsburg","type":"Landkreis"},"federalState":{"key":"08","name":"Baden-Württemberg"}},{"name":"Sersheimer Weg","postalCode":"71739","locality":"Oberriexingen","municipality":{"key":"08118059","name":"Oberriexingen, Stadt","type":"Stadt"},"district":{"key":"08118","name":"Ludwigsburg","type":"Landkreis"},"federalState":{"key":"08","name":"Baden-Württemberg"}},{"name":"Silcherstr.","postalCode":"71739","locality":"Oberriexingen","municipality":{"key":"08118059","name":"Oberriexingen, Stadt","type":"Stadt"},"district":{"key":"08118","name":"Ludwigsburg","type":"Landkreis"},"federalState":{"key":"08","name":"Baden-Württemberg"}},{"name":"Sperlingweg","postalCode":"71739","locality":"Oberriexingen","municipality":{"key":"08118059","name":"Oberriexingen, Stadt","type":"Stadt"},"district":{"key":"08118","name":"Ludwigsburg","type":"Landkreis"},"federalState":{"key":"08","name":"Baden-Württemberg"}},{"name":"Starenweg","postalCode":"71739","locality":"Oberriexingen","municipality":{"key":"08118059","name":"Oberriexingen, Stadt","type":"Stadt"},"district":{"key":"08118","name":"Ludwigsburg","type":"Landkreis"},"federalState":{"key":"08","name":"Baden-Württemberg"}},{"name":"Stieglitzweg","postalCode":"71739","locality":"Oberriexingen","municipality":{"key":"08118059","name":"Oberriexingen, Stadt","type":"Stadt"},"district":{"key":"08118","name":"Ludwigsburg","type":"Landkreis"},"federalState":{"key":"08","name":"Baden-Württemberg"}},{"name":"Stumpenäcker","postalCode":"71739","locality":"Oberriexingen","municipality":{"key":"08118059","name":"Oberriexingen, Stadt","type":"Stadt"},"district":{"key":"08118","name":"Ludwigsburg","type":"Landkreis"},"federalState":{"key":"08","name":"Baden-Württemberg"}},{"name":"Theodor-Heuss-Str.","postalCode":"71739","locality":"Oberriexingen","municipality":{"key":"08118059","name":"Oberriexingen, Stadt","type":"Stadt"},"district":{"key":"08118","name":"Ludwigsburg","type":"Landkreis"},"federalState":{"key":"08","name":"Baden-Württemberg"}},{"name":"Theodor-Storm-Str.","postalCode":"71739","locality":"Oberriexingen","municipality":{"key":"08118059","name":"Oberriexingen, Stadt","type":"Stadt"},"district":{"key":"08118","name":"Ludwigsburg","type":"Landkreis"},"federalState":{"key":"08","name":"Baden-Württemberg"}},{"name":"Torstr.","postalCode":"71739","locality":"Oberriexingen","municipality":{"key":"08118059","name":"Oberriexingen, Stadt","type":"Stadt"},"district":{"key":"08118","name":"Ludwigsburg","type":"Landkreis"},"federalState":{"key":"08","name":"Baden-Württemberg"}},{"name":"Ulmenweg","postalCode":"71739","locality":"Oberriexingen","municipality":{"key":"08118059","name":"Oberriexingen, Stadt","type":"Stadt"},"district":{"key":"08118","name":"Ludwigsburg","type":"Landkreis"},"federalState":{"key":"08","name":"Baden-Württemberg"}},{"name":"Untere Gasse","postalCode":"71739","locality":"Oberriexingen","municipality":{"key":"08118059","name":"Oberriexingen, Stadt","type":"Stadt"},"district":{"key":"08118","name":"Ludwigsburg","type":"Landkreis"},"federalState":{"key":"08","name":"Baden-Württemberg"}},{"name":"Vaihinger Weg","postalCode":"71739","locality":"Oberriexingen","municipality":{"key":"08118059","name":"Oberriexingen, Stadt","type":"Stadt"},"district":{"key":"08118","name":"Ludwigsburg","type":"Landkreis"},"federalState":{"key":"08","name":"Baden-Württemberg"}},{"name":"Viehweg","postalCode":"71739","locality":"Oberriexingen","municipality":{"key":"08118059","name":"Oberriexingen, Stadt","type":"Stadt"},"district":{"key":"08118","name":"Ludwigsburg","type":"Landkreis"},"federalState":{"key":"08","name":"Baden-Württemberg"}},{"name":"Weilerstr.","postalCode":"71739","locality":"Oberriexingen","municipality":{"key":"08118059","name":"Oberriexingen, Stadt","type":"Stadt"},"district":{"key":"08118","name":"Ludwigsburg","type":"Landkreis"},"federalState":{"key":"08","name":"Baden-Württemberg"}},{"name":"Wernerstr.","postalCode":"71739","locality":"Oberriexingen","municipality":{"key":"08118059","name":"Oberriexingen, Stadt","type":"Stadt"},"district":{"key":"08118","name":"Ludwigsburg","type":"Landkreis"},"federalState":{"key":"08","name":"Baden-Württemberg"}},{"name":"Wilhelmstr.","postalCode":"71739","locality":"Oberriexingen","municipality":{"key":"08118059","name":"Oberriexingen, Stadt","type":"Stadt"},"district":{"key":"08118","name":"Ludwigsburg","type":"Landkreis"},"federalState":{"key":"08","name":"Baden-Württemberg"}},{"name":"Yorckstr.","postalCode":"71636","locality":"Ludwigsburg","municipality":{"key":"08118048","name":"Ludwigsburg, Stadt","type":"Große_Kreisstadt"},"district":{"key":"08118","name":"Ludwigsburg","type":"Landkreis"},"federalState":{"key":"08","name":"Baden-Württemberg"}},{"name":"Zeisigweg","postalCode":"71739","locality":"Oberriexingen","municipality":{"key":"08118059","name":"Oberriexingen, Stadt","type":"Stadt"},"district":{"key":"08118","name":"Ludwigsburg","type":"Landkreis"},"federalState":{"key":"08","name":"Baden-Württemberg"}},{"name":"Zwingerstr.","postalCode":"71739","locality":"Oberriexingen","municipality":{"key":"08118059","name":"Oberriexingen, Stadt","type":"Stadt"},"district":{"key":"08118","name":"Ludwigsburg","type":"Landkreis"},"federalState":{"key":"08","name":"Baden-Württemberg"}},{"name":"Östlicher Parkweg","postalCode":"71634","locality":"Ludwigsburg","municipality":{"key":"08118048","name":"Ludwigsburg, Stadt","type":"Große_Kreisstadt"},"district":{"key":"08118","name":"Ludwigsburg","type":"Landkreis"},"federalState":{"key":"08","name":"Baden-Württemberg"}},{"name":"Östlicher Parkweg","postalCode":"71642","locality":"Ludwigsburg","municipality":{"key":"08118048","name":"Ludwigsburg, Stadt","type":"Große_Kreisstadt"},"district":{"key":"08118","name":"Ludwigsburg","type":"Landkreis"},"federalState":{"key":"08","name":"Baden-Württemberg"}},{"name":"Überkinger Str.","postalCode":"71642","locality":"Ludwigsburg","municipality":{"key":"08118048","name":"Ludwigsburg, Stadt","type":"Große_Kreisstadt"},"district":{"key":"08118","name":"Ludwigsburg","type":"Landkreis"},"federalState":{"key":"08","name":"Baden-Württemberg"}},]