[{"name":"Ahornstr.","postalCode":"63165","locality":"Mühlheim am Main","municipality":{"key":"06438008","name":"Mühlheim am Main, Stadt","type":"Stadt"},"district":{"key":"06438","name":"Offenbach","type":"Landkreis"},"federalState":{"key":"06","name":"Hessen"}},{"name":"Albert-Schweitzer-Str.","postalCode":"63165","locality":"Mühlheim am Main","municipality":{"key":"06438008","name":"Mühlheim am Main, Stadt","type":"Stadt"},"district":{"key":"06438","name":"Offenbach","type":"Landkreis"},"federalState":{"key":"06","name":"Hessen"}},{"name":"Albertstr.","postalCode":"63165","locality":"Mühlheim am Main","municipality":{"key":"06438008","name":"Mühlheim am Main, Stadt","type":"Stadt"},"district":{"key":"06438","name":"Offenbach","type":"Landkreis"},"federalState":{"key":"06","name":"Hessen"}},{"name":"Alfred-Delp-Str.","postalCode":"63165","locality":"Mühlheim am Main","municipality":{"key":"06438008","name":"Mühlheim am Main, Stadt","type":"Stadt"},"district":{"key":"06438","name":"Offenbach","type":"Landkreis"},"federalState":{"key":"06","name":"Hessen"}},{"name":"Alter Frankfurter Weg","postalCode":"63165","locality":"Mühlheim am Main","municipality":{"key":"06438008","name":"Mühlheim am Main, Stadt","type":"Stadt"},"district":{"key":"06438","name":"Offenbach","type":"Landkreis"},"federalState":{"key":"06","name":"Hessen"}},{"name":"Am Alten Friedhof","postalCode":"63165","locality":"Mühlheim am Main","municipality":{"key":"06438008","name":"Mühlheim am Main, Stadt","type":"Stadt"},"district":{"key":"06438","name":"Offenbach","type":"Landkreis"},"federalState":{"key":"06","name":"Hessen"}},{"name":"Am Dreispitz","postalCode":"63165","locality":"Mühlheim am Main","municipality":{"key":"06438008","name":"Mühlheim am Main, Stadt","type":"Stadt"},"district":{"key":"06438","name":"Offenbach","type":"Landkreis"},"federalState":{"key":"06","name":"Hessen"}},{"name":"Am Letzten Busch","postalCode":"63165","locality":"Mühlheim am Main","municipality":{"key":"06438008","name":"Mühlheim am Main, Stadt","type":"Stadt"},"district":{"key":"06438","name":"Offenbach","type":"Landkreis"},"federalState":{"key":"06","name":"Hessen"}},{"name":"Am Reuterrain","postalCode":"63165","locality":"Mühlheim am Main","municipality":{"key":"06438008","name":"Mühlheim am Main, Stadt","type":"Stadt"},"district":{"key":"06438","name":"Offenbach","type":"Landkreis"},"federalState":{"key":"06","name":"Hessen"}},{"name":"Am Schwimmbad","postalCode":"63165","locality":"Mühlheim am Main","municipality":{"key":"06438008","name":"Mühlheim am Main, Stadt","type":"Stadt"},"district":{"key":"06438","name":"Offenbach","type":"Landkreis"},"federalState":{"key":"06","name":"Hessen"}},{"name":"Amselweg","postalCode":"63165","locality":"Mühlheim am Main","municipality":{"key":"06438008","name":"Mühlheim am Main, Stadt","type":"Stadt"},"district":{"key":"06438","name":"Offenbach","type":"Landkreis"},"federalState":{"key":"06","name":"Hessen"}},{"name":"Am Waldgraben","postalCode":"63165","locality":"Mühlheim am Main","municipality":{"key":"06438008","name":"Mühlheim am Main, Stadt","type":"Stadt"},"district":{"key":"06438","name":"Offenbach","type":"Landkreis"},"federalState":{"key":"06","name":"Hessen"}},{"name":"Am Wingertsweg","postalCode":"63165","locality":"Mühlheim am Main","municipality":{"key":"06438008","name":"Mühlheim am Main, Stadt","type":"Stadt"},"district":{"key":"06438","name":"Offenbach","type":"Landkreis"},"federalState":{"key":"06","name":"Hessen"}},{"name":"An den Hirtenwiesen","postalCode":"63165","locality":"Mühlheim am Main","municipality":{"key":"06438008","name":"Mühlheim am Main, Stadt","type":"Stadt"},"district":{"key":"06438","name":"Offenbach","type":"Landkreis"},"federalState":{"key":"06","name":"Hessen"}},{"name":"An der Bruchgrenze","postalCode":"63165","locality":"Mühlheim am Main","municipality":{"key":"06438008","name":"Mühlheim am Main, Stadt","type":"Stadt"},"district":{"key":"06438","name":"Offenbach","type":"Landkreis"},"federalState":{"key":"06","name":"Hessen"}},{"name":"An der Hasenbeune","postalCode":"63165","locality":"Mühlheim am Main","municipality":{"key":"06438008","name":"Mühlheim am Main, Stadt","type":"Stadt"},"district":{"key":"06438","name":"Offenbach","type":"Landkreis"},"federalState":{"key":"06","name":"Hessen"}},{"name":"An der Hildebrandsmühle","postalCode":"63165","locality":"Mühlheim am Main","municipality":{"key":"06438008","name":"Mühlheim am Main, Stadt","type":"Stadt"},"district":{"key":"06438","name":"Offenbach","type":"Landkreis"},"federalState":{"key":"06","name":"Hessen"}},{"name":"An der Jünglingshecke","postalCode":"63165","locality":"Mühlheim am Main","municipality":{"key":"06438008","name":"Mühlheim am Main, Stadt","type":"Stadt"},"district":{"key":"06438","name":"Offenbach","type":"Landkreis"},"federalState":{"key":"06","name":"Hessen"}},{"name":"Angergasse","postalCode":"63165","locality":"Mühlheim am Main","municipality":{"key":"06438008","name":"Mühlheim am Main, Stadt","type":"Stadt"},"district":{"key":"06438","name":"Offenbach","type":"Landkreis"},"federalState":{"key":"06","name":"Hessen"}},{"name":"Anne-Frank-Str.","postalCode":"63165","locality":"Mühlheim am Main","municipality":{"key":"06438008","name":"Mühlheim am Main, Stadt","type":"Stadt"},"district":{"key":"06438","name":"Offenbach","type":"Landkreis"},"federalState":{"key":"06","name":"Hessen"}},{"name":"Anton-Dey-Str.","postalCode":"63165","locality":"Mühlheim am Main","municipality":{"key":"06438008","name":"Mühlheim am Main, Stadt","type":"Stadt"},"district":{"key":"06438","name":"Offenbach","type":"Landkreis"},"federalState":{"key":"06","name":"Hessen"}},{"name":"Apfelbaumgasse","postalCode":"63165","locality":"Mühlheim am Main","municipality":{"key":"06438008","name":"Mühlheim am Main, Stadt","type":"Stadt"},"district":{"key":"06438","name":"Offenbach","type":"Landkreis"},"federalState":{"key":"06","name":"Hessen"}},{"name":"Arndtstr.","postalCode":"63165","locality":"Mühlheim am Main","municipality":{"key":"06438008","name":"Mühlheim am Main, Stadt","type":"Stadt"},"district":{"key":"06438","name":"Offenbach","type":"Landkreis"},"federalState":{"key":"06","name":"Hessen"}},{"name":"August-Bebel-Str.","postalCode":"63165","locality":"Mühlheim am Main","municipality":{"key":"06438008","name":"Mühlheim am Main, Stadt","type":"Stadt"},"district":{"key":"06438","name":"Offenbach","type":"Landkreis"},"federalState":{"key":"06","name":"Hessen"}},{"name":"Aussiger Str.","postalCode":"63165","locality":"Mühlheim am Main","municipality":{"key":"06438008","name":"Mühlheim am Main, Stadt","type":"Stadt"},"district":{"key":"06438","name":"Offenbach","type":"Landkreis"},"federalState":{"key":"06","name":"Hessen"}},{"name":"Austr.","postalCode":"63165","locality":"Mühlheim am Main","municipality":{"key":"06438008","name":"Mühlheim am Main, Stadt","type":"Stadt"},"district":{"key":"06438","name":"Offenbach","type":"Landkreis"},"federalState":{"key":"06","name":"Hessen"}},{"name":"Bachgasse","postalCode":"63165","locality":"Mühlheim am Main","municipality":{"key":"06438008","name":"Mühlheim am Main, Stadt","type":"Stadt"},"district":{"key":"06438","name":"Offenbach","type":"Landkreis"},"federalState":{"key":"06","name":"Hessen"}},{"name":"Bahnhofstr.","postalCode":"63165","locality":"Mühlheim am Main","municipality":{"key":"06438008","name":"Mühlheim am Main, Stadt","type":"Stadt"},"district":{"key":"06438","name":"Offenbach","type":"Landkreis"},"federalState":{"key":"06","name":"Hessen"}},{"name":"Bahnweg","postalCode":"63165","locality":"Mühlheim am Main","municipality":{"key":"06438008","name":"Mühlheim am Main, Stadt","type":"Stadt"},"district":{"key":"06438","name":"Offenbach","type":"Landkreis"},"federalState":{"key":"06","name":"Hessen"}},{"name":"Basaltstr.","postalCode":"63165","locality":"Mühlheim am Main","municipality":{"key":"06438008","name":"Mühlheim am Main, Stadt","type":"Stadt"},"district":{"key":"06438","name":"Offenbach","type":"Landkreis"},"federalState":{"key":"06","name":"Hessen"}},{"name":"Bebraer Str.","postalCode":"63165","locality":"Mühlheim am Main","municipality":{"key":"06438008","name":"Mühlheim am Main, Stadt","type":"Stadt"},"district":{"key":"06438","name":"Offenbach","type":"Landkreis"},"federalState":{"key":"06","name":"Hessen"}},{"name":"Beethovenstr.","postalCode":"63165","locality":"Mühlheim am Main","municipality":{"key":"06438008","name":"Mühlheim am Main, Stadt","type":"Stadt"},"district":{"key":"06438","name":"Offenbach","type":"Landkreis"},"federalState":{"key":"06","name":"Hessen"}},{"name":"Benzstr.","postalCode":"63165","locality":"Mühlheim am Main","municipality":{"key":"06438008","name":"Mühlheim am Main, Stadt","type":"Stadt"},"district":{"key":"06438","name":"Offenbach","type":"Landkreis"},"federalState":{"key":"06","name":"Hessen"}},{"name":"Bernhardstr.","postalCode":"63165","locality":"Mühlheim am Main","municipality":{"key":"06438008","name":"Mühlheim am Main, Stadt","type":"Stadt"},"district":{"key":"06438","name":"Offenbach","type":"Landkreis"},"federalState":{"key":"06","name":"Hessen"}},{"name":"Bert-Brecht-Str.","postalCode":"63165","locality":"Mühlheim am Main","municipality":{"key":"06438008","name":"Mühlheim am Main, Stadt","type":"Stadt"},"district":{"key":"06438","name":"Offenbach","type":"Landkreis"},"federalState":{"key":"06","name":"Hessen"}},{"name":"Bertha-von-Suttner-Weg","postalCode":"63165","locality":"Mühlheim am Main","municipality":{"key":"06438008","name":"Mühlheim am Main, Stadt","type":"Stadt"},"district":{"key":"06438","name":"Offenbach","type":"Landkreis"},"federalState":{"key":"06","name":"Hessen"}},{"name":"Bettinastr.","postalCode":"63165","locality":"Mühlheim am Main","municipality":{"key":"06438008","name":"Mühlheim am Main, Stadt","type":"Stadt"},"district":{"key":"06438","name":"Offenbach","type":"Landkreis"},"federalState":{"key":"06","name":"Hessen"}},{"name":"Bieberer Str.","postalCode":"63165","locality":"Mühlheim am Main","municipality":{"key":"06438008","name":"Mühlheim am Main, Stadt","type":"Stadt"},"district":{"key":"06438","name":"Offenbach","type":"Landkreis"},"federalState":{"key":"06","name":"Hessen"}},{"name":"Bieberer Weg","postalCode":"63165","locality":"Mühlheim am Main","municipality":{"key":"06438008","name":"Mühlheim am Main, Stadt","type":"Stadt"},"district":{"key":"06438","name":"Offenbach","type":"Landkreis"},"federalState":{"key":"06","name":"Hessen"}},{"name":"Bieberer Wegschneise","postalCode":"63165","locality":"Mühlheim am Main","municipality":{"key":"06438008","name":"Mühlheim am Main, Stadt","type":"Stadt"},"district":{"key":"06438","name":"Offenbach","type":"Landkreis"},"federalState":{"key":"06","name":"Hessen"}},{"name":"Birkenwaldstr.","postalCode":"63165","locality":"Mühlheim am Main","municipality":{"key":"06438008","name":"Mühlheim am Main, Stadt","type":"Stadt"},"district":{"key":"06438","name":"Offenbach","type":"Landkreis"},"federalState":{"key":"06","name":"Hessen"}},{"name":"Bischof-Kaiser-Str.","postalCode":"63165","locality":"Mühlheim am Main","municipality":{"key":"06438008","name":"Mühlheim am Main, Stadt","type":"Stadt"},"district":{"key":"06438","name":"Offenbach","type":"Landkreis"},"federalState":{"key":"06","name":"Hessen"}},{"name":"Bischof-Ketteler-Str.","postalCode":"63165","locality":"Mühlheim am Main","municipality":{"key":"06438008","name":"Mühlheim am Main, Stadt","type":"Stadt"},"district":{"key":"06438","name":"Offenbach","type":"Landkreis"},"federalState":{"key":"06","name":"Hessen"}},{"name":"Bleichstr.","postalCode":"63165","locality":"Mühlheim am Main","municipality":{"key":"06438008","name":"Mühlheim am Main, Stadt","type":"Stadt"},"district":{"key":"06438","name":"Offenbach","type":"Landkreis"},"federalState":{"key":"06","name":"Hessen"}},{"name":"Blumenstr.","postalCode":"63165","locality":"Mühlheim am Main","municipality":{"key":"06438008","name":"Mühlheim am Main, Stadt","type":"Stadt"},"district":{"key":"06438","name":"Offenbach","type":"Landkreis"},"federalState":{"key":"06","name":"Hessen"}},{"name":"Bornstr.","postalCode":"63165","locality":"Mühlheim am Main","municipality":{"key":"06438008","name":"Mühlheim am Main, Stadt","type":"Stadt"},"district":{"key":"06438","name":"Offenbach","type":"Landkreis"},"federalState":{"key":"06","name":"Hessen"}},{"name":"Bornweg","postalCode":"63165","locality":"Mühlheim am Main","municipality":{"key":"06438008","name":"Mühlheim am Main, Stadt","type":"Stadt"},"district":{"key":"06438","name":"Offenbach","type":"Landkreis"},"federalState":{"key":"06","name":"Hessen"}},{"name":"Borsigstr.","postalCode":"63165","locality":"Mühlheim am Main","municipality":{"key":"06438008","name":"Mühlheim am Main, Stadt","type":"Stadt"},"district":{"key":"06438","name":"Offenbach","type":"Landkreis"},"federalState":{"key":"06","name":"Hessen"}},{"name":"Brentanostr.","postalCode":"63165","locality":"Mühlheim am Main","municipality":{"key":"06438008","name":"Mühlheim am Main, Stadt","type":"Stadt"},"district":{"key":"06438","name":"Offenbach","type":"Landkreis"},"federalState":{"key":"06","name":"Hessen"}},{"name":"Breslauer Str.","postalCode":"63165","locality":"Mühlheim am Main","municipality":{"key":"06438008","name":"Mühlheim am Main, Stadt","type":"Stadt"},"district":{"key":"06438","name":"Offenbach","type":"Landkreis"},"federalState":{"key":"06","name":"Hessen"}},{"name":"Bruchschneise","postalCode":"63165","locality":"Mühlheim am Main","municipality":{"key":"06438008","name":"Mühlheim am Main, Stadt","type":"Stadt"},"district":{"key":"06438","name":"Offenbach","type":"Landkreis"},"federalState":{"key":"06","name":"Hessen"}},{"name":"Brückenfeldschneise","postalCode":"63165","locality":"Mühlheim am Main","municipality":{"key":"06438008","name":"Mühlheim am Main, Stadt","type":"Stadt"},"district":{"key":"06438","name":"Offenbach","type":"Landkreis"},"federalState":{"key":"06","name":"Hessen"}},{"name":"Brückenstr.","postalCode":"63165","locality":"Mühlheim am Main","municipality":{"key":"06438008","name":"Mühlheim am Main, Stadt","type":"Stadt"},"district":{"key":"06438","name":"Offenbach","type":"Landkreis"},"federalState":{"key":"06","name":"Hessen"}},{"name":"Brühlweg","postalCode":"63165","locality":"Mühlheim am Main","municipality":{"key":"06438008","name":"Mühlheim am Main, Stadt","type":"Stadt"},"district":{"key":"06438","name":"Offenbach","type":"Landkreis"},"federalState":{"key":"06","name":"Hessen"}},{"name":"Brunnenstr.","postalCode":"63165","locality":"Mühlheim am Main","municipality":{"key":"06438008","name":"Mühlheim am Main, Stadt","type":"Stadt"},"district":{"key":"06438","name":"Offenbach","type":"Landkreis"},"federalState":{"key":"06","name":"Hessen"}},{"name":"Brunnenweg","postalCode":"63165","locality":"Mühlheim am Main","municipality":{"key":"06438008","name":"Mühlheim am Main, Stadt","type":"Stadt"},"district":{"key":"06438","name":"Offenbach","type":"Landkreis"},"federalState":{"key":"06","name":"Hessen"}},{"name":"Buchenweg","postalCode":"63165","locality":"Mühlheim am Main","municipality":{"key":"06438008","name":"Mühlheim am Main, Stadt","type":"Stadt"},"district":{"key":"06438","name":"Offenbach","type":"Landkreis"},"federalState":{"key":"06","name":"Hessen"}},{"name":"Bürgermeister-Beheim-Str.","postalCode":"63165","locality":"Mühlheim am Main","municipality":{"key":"06438008","name":"Mühlheim am Main, Stadt","type":"Stadt"},"district":{"key":"06438","name":"Offenbach","type":"Landkreis"},"federalState":{"key":"06","name":"Hessen"}},{"name":"Bürgermeister-Hainz-Str.","postalCode":"63165","locality":"Mühlheim am Main","municipality":{"key":"06438008","name":"Mühlheim am Main, Stadt","type":"Stadt"},"district":{"key":"06438","name":"Offenbach","type":"Landkreis"},"federalState":{"key":"06","name":"Hessen"}},{"name":"Bürgerpark","postalCode":"63165","locality":"Mühlheim am Main","municipality":{"key":"06438008","name":"Mühlheim am Main, Stadt","type":"Stadt"},"district":{"key":"06438","name":"Offenbach","type":"Landkreis"},"federalState":{"key":"06","name":"Hessen"}},{"name":"Büttnerstr.","postalCode":"63165","locality":"Mühlheim am Main","municipality":{"key":"06438008","name":"Mühlheim am Main, Stadt","type":"Stadt"},"district":{"key":"06438","name":"Offenbach","type":"Landkreis"},"federalState":{"key":"06","name":"Hessen"}},{"name":"Canyonbrücke","postalCode":"63165","locality":"Mühlheim am Main","municipality":{"key":"06438008","name":"Mühlheim am Main, Stadt","type":"Stadt"},"district":{"key":"06438","name":"Offenbach","type":"Landkreis"},"federalState":{"key":"06","name":"Hessen"}},{"name":"Carl-Zeiss-Str.","postalCode":"63165","locality":"Mühlheim am Main","municipality":{"key":"06438008","name":"Mühlheim am Main, Stadt","type":"Stadt"},"district":{"key":"06438","name":"Offenbach","type":"Landkreis"},"federalState":{"key":"06","name":"Hessen"}},{"name":"Charles-Ottina-Str.","postalCode":"63165","locality":"Mühlheim am Main","municipality":{"key":"06438008","name":"Mühlheim am Main, Stadt","type":"Stadt"},"district":{"key":"06438","name":"Offenbach","type":"Landkreis"},"federalState":{"key":"06","name":"Hessen"}},{"name":"Daimlerstr.","postalCode":"63165","locality":"Mühlheim am Main","municipality":{"key":"06438008","name":"Mühlheim am Main, Stadt","type":"Stadt"},"district":{"key":"06438","name":"Offenbach","type":"Landkreis"},"federalState":{"key":"06","name":"Hessen"}},{"name":"Dammstr.","postalCode":"63165","locality":"Mühlheim am Main","municipality":{"key":"06438008","name":"Mühlheim am Main, Stadt","type":"Stadt"},"district":{"key":"06438","name":"Offenbach","type":"Landkreis"},"federalState":{"key":"06","name":"Hessen"}},{"name":"Dieselstr.","postalCode":"63165","locality":"Mühlheim am Main","municipality":{"key":"06438008","name":"Mühlheim am Main, Stadt","type":"Stadt"},"district":{"key":"06438","name":"Offenbach","type":"Landkreis"},"federalState":{"key":"06","name":"Hessen"}},{"name":"Dietesheimer Str.","postalCode":"63165","locality":"Mühlheim am Main","municipality":{"key":"06438008","name":"Mühlheim am Main, Stadt","type":"Stadt"},"district":{"key":"06438","name":"Offenbach","type":"Landkreis"},"federalState":{"key":"06","name":"Hessen"}},{"name":"Dietrich-Bonhoeffer-Str.","postalCode":"63165","locality":"Mühlheim am Main","municipality":{"key":"06438008","name":"Mühlheim am Main, Stadt","type":"Stadt"},"district":{"key":"06438","name":"Offenbach","type":"Landkreis"},"federalState":{"key":"06","name":"Hessen"}},{"name":"Dresdener Str.","postalCode":"63165","locality":"Mühlheim am Main","municipality":{"key":"06438008","name":"Mühlheim am Main, Stadt","type":"Stadt"},"district":{"key":"06438","name":"Offenbach","type":"Landkreis"},"federalState":{"key":"06","name":"Hessen"}},{"name":"Dürerstr.","postalCode":"63165","locality":"Mühlheim am Main","municipality":{"key":"06438008","name":"Mühlheim am Main, Stadt","type":"Stadt"},"district":{"key":"06438","name":"Offenbach","type":"Landkreis"},"federalState":{"key":"06","name":"Hessen"}},{"name":"Ebertstr.","postalCode":"63165","locality":"Mühlheim am Main","municipality":{"key":"06438008","name":"Mühlheim am Main, Stadt","type":"Stadt"},"district":{"key":"06438","name":"Offenbach","type":"Landkreis"},"federalState":{"key":"06","name":"Hessen"}},{"name":"Edith-Stein-Str.","postalCode":"63165","locality":"Mühlheim am Main","municipality":{"key":"06438008","name":"Mühlheim am Main, Stadt","type":"Stadt"},"district":{"key":"06438","name":"Offenbach","type":"Landkreis"},"federalState":{"key":"06","name":"Hessen"}},{"name":"Eigenheimstr.","postalCode":"63165","locality":"Mühlheim am Main","municipality":{"key":"06438008","name":"Mühlheim am Main, Stadt","type":"Stadt"},"district":{"key":"06438","name":"Offenbach","type":"Landkreis"},"federalState":{"key":"06","name":"Hessen"}},{"name":"Elbestr.","postalCode":"63165","locality":"Mühlheim am Main","municipality":{"key":"06438008","name":"Mühlheim am Main, Stadt","type":"Stadt"},"district":{"key":"06438","name":"Offenbach","type":"Landkreis"},"federalState":{"key":"06","name":"Hessen"}},{"name":"Elisabethenstr.","postalCode":"63165","locality":"Mühlheim am Main","municipality":{"key":"06438008","name":"Mühlheim am Main, Stadt","type":"Stadt"},"district":{"key":"06438","name":"Offenbach","type":"Landkreis"},"federalState":{"key":"06","name":"Hessen"}},{"name":"Erlenweg","postalCode":"63165","locality":"Mühlheim am Main","municipality":{"key":"06438008","name":"Mühlheim am Main, Stadt","type":"Stadt"},"district":{"key":"06438","name":"Offenbach","type":"Landkreis"},"federalState":{"key":"06","name":"Hessen"}},{"name":"Ernst-Abbe-Str.","postalCode":"63165","locality":"Mühlheim am Main","municipality":{"key":"06438008","name":"Mühlheim am Main, Stadt","type":"Stadt"},"district":{"key":"06438","name":"Offenbach","type":"Landkreis"},"federalState":{"key":"06","name":"Hessen"}},{"name":"Fackelswiesenweg","postalCode":"63165","locality":"Mühlheim am Main","municipality":{"key":"06438008","name":"Mühlheim am Main, Stadt","type":"Stadt"},"district":{"key":"06438","name":"Offenbach","type":"Landkreis"},"federalState":{"key":"06","name":"Hessen"}},{"name":"Fährenstr.","postalCode":"63165","locality":"Mühlheim am Main","municipality":{"key":"06438008","name":"Mühlheim am Main, Stadt","type":"Stadt"},"district":{"key":"06438","name":"Offenbach","type":"Landkreis"},"federalState":{"key":"06","name":"Hessen"}},{"name":"Feldbergstr.","postalCode":"63165","locality":"Mühlheim am Main","municipality":{"key":"06438008","name":"Mühlheim am Main, Stadt","type":"Stadt"},"district":{"key":"06438","name":"Offenbach","type":"Landkreis"},"federalState":{"key":"06","name":"Hessen"}},{"name":"Feldstr.","postalCode":"63165","locality":"Mühlheim am Main","municipality":{"key":"06438008","name":"Mühlheim am Main, Stadt","type":"Stadt"},"district":{"key":"06438","name":"Offenbach","type":"Landkreis"},"federalState":{"key":"06","name":"Hessen"}},{"name":"Feststr.","postalCode":"63165","locality":"Mühlheim am Main","municipality":{"key":"06438008","name":"Mühlheim am Main, Stadt","type":"Stadt"},"district":{"key":"06438","name":"Offenbach","type":"Landkreis"},"federalState":{"key":"06","name":"Hessen"}},{"name":"Fichtestr.","postalCode":"63165","locality":"Mühlheim am Main","municipality":{"key":"06438008","name":"Mühlheim am Main, Stadt","type":"Stadt"},"district":{"key":"06438","name":"Offenbach","type":"Landkreis"},"federalState":{"key":"06","name":"Hessen"}},{"name":"Forsthausstr.","postalCode":"63165","locality":"Mühlheim am Main","municipality":{"key":"06438008","name":"Mühlheim am Main, Stadt","type":"Stadt"},"district":{"key":"06438","name":"Offenbach","type":"Landkreis"},"federalState":{"key":"06","name":"Hessen"}},{"name":"Forstmeisterschneise","postalCode":"63165","locality":"Mühlheim am Main","municipality":{"key":"06438008","name":"Mühlheim am Main, Stadt","type":"Stadt"},"district":{"key":"06438","name":"Offenbach","type":"Landkreis"},"federalState":{"key":"06","name":"Hessen"}},{"name":"Forstweg","postalCode":"63165","locality":"Mühlheim am Main","municipality":{"key":"06438008","name":"Mühlheim am Main, Stadt","type":"Stadt"},"district":{"key":"06438","name":"Offenbach","type":"Landkreis"},"federalState":{"key":"06","name":"Hessen"}},{"name":"Franz-Jakoby-Str.","postalCode":"63165","locality":"Mühlheim am Main","municipality":{"key":"06438008","name":"Mühlheim am Main, Stadt","type":"Stadt"},"district":{"key":"06438","name":"Offenbach","type":"Landkreis"},"federalState":{"key":"06","name":"Hessen"}},{"name":"Freiherr-vom-Stein-Str.","postalCode":"63165","locality":"Mühlheim am Main","municipality":{"key":"06438008","name":"Mühlheim am Main, Stadt","type":"Stadt"},"district":{"key":"06438","name":"Offenbach","type":"Landkreis"},"federalState":{"key":"06","name":"Hessen"}},{"name":"Friedensstr.","postalCode":"63165","locality":"Mühlheim am Main","municipality":{"key":"06438008","name":"Mühlheim am Main, Stadt","type":"Stadt"},"district":{"key":"06438","name":"Offenbach","type":"Landkreis"},"federalState":{"key":"06","name":"Hessen"}},{"name":"Friedhofsweg","postalCode":"63165","locality":"Mühlheim am Main","municipality":{"key":"06438008","name":"Mühlheim am Main, Stadt","type":"Stadt"},"district":{"key":"06438","name":"Offenbach","type":"Landkreis"},"federalState":{"key":"06","name":"Hessen"}},{"name":"Friedrich-Ebert-Str.","postalCode":"63165","locality":"Mühlheim am Main","municipality":{"key":"06438008","name":"Mühlheim am Main, Stadt","type":"Stadt"},"district":{"key":"06438","name":"Offenbach","type":"Landkreis"},"federalState":{"key":"06","name":"Hessen"}},{"name":"Friedrichstr.","postalCode":"63165","locality":"Mühlheim am Main","municipality":{"key":"06438008","name":"Mühlheim am Main, Stadt","type":"Stadt"},"district":{"key":"06438","name":"Offenbach","type":"Landkreis"},"federalState":{"key":"06","name":"Hessen"}},{"name":"Fritz-Erler-Str.","postalCode":"63165","locality":"Mühlheim am Main","municipality":{"key":"06438008","name":"Mühlheim am Main, Stadt","type":"Stadt"},"district":{"key":"06438","name":"Offenbach","type":"Landkreis"},"federalState":{"key":"06","name":"Hessen"}},{"name":"Fuchslöcherschneise","postalCode":"63165","locality":"Mühlheim am Main","municipality":{"key":"06438008","name":"Mühlheim am Main, Stadt","type":"Stadt"},"district":{"key":"06438","name":"Offenbach","type":"Landkreis"},"federalState":{"key":"06","name":"Hessen"}},{"name":"Fuggerstr.","postalCode":"63165","locality":"Mühlheim am Main","municipality":{"key":"06438008","name":"Mühlheim am Main, Stadt","type":"Stadt"},"district":{"key":"06438","name":"Offenbach","type":"Landkreis"},"federalState":{"key":"06","name":"Hessen"}},{"name":"Fünfhäusergasse","postalCode":"63165","locality":"Mühlheim am Main","municipality":{"key":"06438008","name":"Mühlheim am Main, Stadt","type":"Stadt"},"district":{"key":"06438","name":"Offenbach","type":"Landkreis"},"federalState":{"key":"06","name":"Hessen"}},{"name":"Gartenstr.","postalCode":"63165","locality":"Mühlheim am Main","municipality":{"key":"06438008","name":"Mühlheim am Main, Stadt","type":"Stadt"},"district":{"key":"06438","name":"Offenbach","type":"Landkreis"},"federalState":{"key":"06","name":"Hessen"}},{"name":"Geleitstr.","postalCode":"63165","locality":"Mühlheim am Main","municipality":{"key":"06438008","name":"Mühlheim am Main, Stadt","type":"Stadt"},"district":{"key":"06438","name":"Offenbach","type":"Landkreis"},"federalState":{"key":"06","name":"Hessen"}},{"name":"Gerhart-Hauptmann-Str.","postalCode":"63165","locality":"Mühlheim am Main","municipality":{"key":"06438008","name":"Mühlheim am Main, Stadt","type":"Stadt"},"district":{"key":"06438","name":"Offenbach","type":"Landkreis"},"federalState":{"key":"06","name":"Hessen"}},{"name":"Goerdelerstr.","postalCode":"63165","locality":"Mühlheim am Main","municipality":{"key":"06438008","name":"Mühlheim am Main, Stadt","type":"Stadt"},"district":{"key":"06438","name":"Offenbach","type":"Landkreis"},"federalState":{"key":"06","name":"Hessen"}},{"name":"Goethestr.","postalCode":"63165","locality":"Mühlheim am Main","municipality":{"key":"06438008","name":"Mühlheim am Main, Stadt","type":"Stadt"},"district":{"key":"06438","name":"Offenbach","type":"Landkreis"},"federalState":{"key":"06","name":"Hessen"}},{"name":"Gottfried-Keller-Str.","postalCode":"63165","locality":"Mühlheim am Main","municipality":{"key":"06438008","name":"Mühlheim am Main, Stadt","type":"Stadt"},"district":{"key":"06438","name":"Offenbach","type":"Landkreis"},"federalState":{"key":"06","name":"Hessen"}},{"name":"Grenzstr.","postalCode":"63165","locality":"Mühlheim am Main","municipality":{"key":"06438008","name":"Mühlheim am Main, Stadt","type":"Stadt"},"district":{"key":"06438","name":"Offenbach","type":"Landkreis"},"federalState":{"key":"06","name":"Hessen"}},{"name":"Grimmstr.","postalCode":"63165","locality":"Mühlheim am Main","municipality":{"key":"06438008","name":"Mühlheim am Main, Stadt","type":"Stadt"},"district":{"key":"06438","name":"Offenbach","type":"Landkreis"},"federalState":{"key":"06","name":"Hessen"}},{"name":"Gutenbergstr.","postalCode":"63165","locality":"Mühlheim am Main","municipality":{"key":"06438008","name":"Mühlheim am Main, Stadt","type":"Stadt"},"district":{"key":"06438","name":"Offenbach","type":"Landkreis"},"federalState":{"key":"06","name":"Hessen"}},{"name":"Haingraben","postalCode":"63165","locality":"Mühlheim am Main","municipality":{"key":"06438008","name":"Mühlheim am Main, Stadt","type":"Stadt"},"district":{"key":"06438","name":"Offenbach","type":"Landkreis"},"federalState":{"key":"06","name":"Hessen"}},{"name":"Haingrabengasse","postalCode":"63165","locality":"Mühlheim am Main","municipality":{"key":"06438008","name":"Mühlheim am Main, Stadt","type":"Stadt"},"district":{"key":"06438","name":"Offenbach","type":"Landkreis"},"federalState":{"key":"06","name":"Hessen"}},{"name":"Hallgartenstr.","postalCode":"63165","locality":"Mühlheim am Main","municipality":{"key":"06438008","name":"Mühlheim am Main, Stadt","type":"Stadt"},"district":{"key":"06438","name":"Offenbach","type":"Landkreis"},"federalState":{"key":"06","name":"Hessen"}},{"name":"Hanauer Str.","postalCode":"63165","locality":"Mühlheim am Main","municipality":{"key":"06438008","name":"Mühlheim am Main, Stadt","type":"Stadt"},"district":{"key":"06438","name":"Offenbach","type":"Landkreis"},"federalState":{"key":"06","name":"Hessen"}},{"name":"Händelstr.","postalCode":"63165","locality":"Mühlheim am Main","municipality":{"key":"06438008","name":"Mühlheim am Main, Stadt","type":"Stadt"},"district":{"key":"06438","name":"Offenbach","type":"Landkreis"},"federalState":{"key":"06","name":"Hessen"}},{"name":"Hauffstr.","postalCode":"63165","locality":"Mühlheim am Main","municipality":{"key":"06438008","name":"Mühlheim am Main, Stadt","type":"Stadt"},"district":{"key":"06438","name":"Offenbach","type":"Landkreis"},"federalState":{"key":"06","name":"Hessen"}},{"name":"Hauptstr.","postalCode":"63165","locality":"Mühlheim am Main","municipality":{"key":"06438008","name":"Mühlheim am Main, Stadt","type":"Stadt"},"district":{"key":"06438","name":"Offenbach","type":"Landkreis"},"federalState":{"key":"06","name":"Hessen"}},{"name":"Hausener Str.","postalCode":"63165","locality":"Mühlheim am Main","municipality":{"key":"06438008","name":"Mühlheim am Main, Stadt","type":"Stadt"},"district":{"key":"06438","name":"Offenbach","type":"Landkreis"},"federalState":{"key":"06","name":"Hessen"}},{"name":"Hausener Weg","postalCode":"63165","locality":"Mühlheim am Main","municipality":{"key":"06438008","name":"Mühlheim am Main, Stadt","type":"Stadt"},"district":{"key":"06438","name":"Offenbach","type":"Landkreis"},"federalState":{"key":"06","name":"Hessen"}},{"name":"Häuser Wegschneise","postalCode":"63165","locality":"Mühlheim am Main","municipality":{"key":"06438008","name":"Mühlheim am Main, Stadt","type":"Stadt"},"district":{"key":"06438","name":"Offenbach","type":"Landkreis"},"federalState":{"key":"06","name":"Hessen"}},{"name":"Hechtschneise","postalCode":"63165","locality":"Mühlheim am Main","municipality":{"key":"06438008","name":"Mühlheim am Main, Stadt","type":"Stadt"},"district":{"key":"06438","name":"Offenbach","type":"Landkreis"},"federalState":{"key":"06","name":"Hessen"}},{"name":"Hegelstr.","postalCode":"63165","locality":"Mühlheim am Main","municipality":{"key":"06438008","name":"Mühlheim am Main, Stadt","type":"Stadt"},"district":{"key":"06438","name":"Offenbach","type":"Landkreis"},"federalState":{"key":"06","name":"Hessen"}},{"name":"Heinestr.","postalCode":"63165","locality":"Mühlheim am Main","municipality":{"key":"06438008","name":"Mühlheim am Main, Stadt","type":"Stadt"},"district":{"key":"06438","name":"Offenbach","type":"Landkreis"},"federalState":{"key":"06","name":"Hessen"}},{"name":"Heinrich-Böll-Str.","postalCode":"63165","locality":"Mühlheim am Main","municipality":{"key":"06438008","name":"Mühlheim am Main, Stadt","type":"Stadt"},"district":{"key":"06438","name":"Offenbach","type":"Landkreis"},"federalState":{"key":"06","name":"Hessen"}},{"name":"Helpertseestr.","postalCode":"63165","locality":"Mühlheim am Main","municipality":{"key":"06438008","name":"Mühlheim am Main, Stadt","type":"Stadt"},"district":{"key":"06438","name":"Offenbach","type":"Landkreis"},"federalState":{"key":"06","name":"Hessen"}},{"name":"Hennigweg","postalCode":"63165","locality":"Mühlheim am Main","municipality":{"key":"06438008","name":"Mühlheim am Main, Stadt","type":"Stadt"},"district":{"key":"06438","name":"Offenbach","type":"Landkreis"},"federalState":{"key":"06","name":"Hessen"}},{"name":"Henri-Dunant-Str.","postalCode":"63165","locality":"Mühlheim am Main","municipality":{"key":"06438008","name":"Mühlheim am Main, Stadt","type":"Stadt"},"district":{"key":"06438","name":"Offenbach","type":"Landkreis"},"federalState":{"key":"06","name":"Hessen"}},{"name":"Herderstr.","postalCode":"63165","locality":"Mühlheim am Main","municipality":{"key":"06438008","name":"Mühlheim am Main, Stadt","type":"Stadt"},"district":{"key":"06438","name":"Offenbach","type":"Landkreis"},"federalState":{"key":"06","name":"Hessen"}},{"name":"Hermann-Hesse-Str.","postalCode":"63165","locality":"Mühlheim am Main","municipality":{"key":"06438008","name":"Mühlheim am Main, Stadt","type":"Stadt"},"district":{"key":"06438","name":"Offenbach","type":"Landkreis"},"federalState":{"key":"06","name":"Hessen"}},{"name":"Hermann-Löns-Str.","postalCode":"63165","locality":"Mühlheim am Main","municipality":{"key":"06438008","name":"Mühlheim am Main, Stadt","type":"Stadt"},"district":{"key":"06438","name":"Offenbach","type":"Landkreis"},"federalState":{"key":"06","name":"Hessen"}},{"name":"Herrnstr.","postalCode":"63165","locality":"Mühlheim am Main","municipality":{"key":"06438008","name":"Mühlheim am Main, Stadt","type":"Stadt"},"district":{"key":"06438","name":"Offenbach","type":"Landkreis"},"federalState":{"key":"06","name":"Hessen"}},{"name":"Hindemithstr.","postalCode":"63165","locality":"Mühlheim am Main","municipality":{"key":"06438008","name":"Mühlheim am Main, Stadt","type":"Stadt"},"district":{"key":"06438","name":"Offenbach","type":"Landkreis"},"federalState":{"key":"06","name":"Hessen"}},{"name":"Hirschgasse","postalCode":"63165","locality":"Mühlheim am Main","municipality":{"key":"06438008","name":"Mühlheim am Main, Stadt","type":"Stadt"},"district":{"key":"06438","name":"Offenbach","type":"Landkreis"},"federalState":{"key":"06","name":"Hessen"}},{"name":"Hoffmannstr.","postalCode":"63165","locality":"Mühlheim am Main","municipality":{"key":"06438008","name":"Mühlheim am Main, Stadt","type":"Stadt"},"district":{"key":"06438","name":"Offenbach","type":"Landkreis"},"federalState":{"key":"06","name":"Hessen"}},{"name":"Holbeinstr.","postalCode":"63165","locality":"Mühlheim am Main","municipality":{"key":"06438008","name":"Mühlheim am Main, Stadt","type":"Stadt"},"district":{"key":"06438","name":"Offenbach","type":"Landkreis"},"federalState":{"key":"06","name":"Hessen"}},{"name":"Im Brückfeld","postalCode":"63165","locality":"Mühlheim am Main","municipality":{"key":"06438008","name":"Mühlheim am Main, Stadt","type":"Stadt"},"district":{"key":"06438","name":"Offenbach","type":"Landkreis"},"federalState":{"key":"06","name":"Hessen"}},{"name":"Im Heimgarten","postalCode":"63165","locality":"Mühlheim am Main","municipality":{"key":"06438008","name":"Mühlheim am Main, Stadt","type":"Stadt"},"district":{"key":"06438","name":"Offenbach","type":"Landkreis"},"federalState":{"key":"06","name":"Hessen"}},{"name":"Im Steinbeunerfeld","postalCode":"63165","locality":"Mühlheim am Main","municipality":{"key":"06438008","name":"Mühlheim am Main, Stadt","type":"Stadt"},"district":{"key":"06438","name":"Offenbach","type":"Landkreis"},"federalState":{"key":"06","name":"Hessen"}},{"name":"In der Seewiese","postalCode":"63165","locality":"Mühlheim am Main","municipality":{"key":"06438008","name":"Mühlheim am Main, Stadt","type":"Stadt"},"district":{"key":"06438","name":"Offenbach","type":"Landkreis"},"federalState":{"key":"06","name":"Hessen"}},{"name":"Industriestr.","postalCode":"63165","locality":"Mühlheim am Main","municipality":{"key":"06438008","name":"Mühlheim am Main, Stadt","type":"Stadt"},"district":{"key":"06438","name":"Offenbach","type":"Landkreis"},"federalState":{"key":"06","name":"Hessen"}},{"name":"Jahnstr.","postalCode":"63165","locality":"Mühlheim am Main","municipality":{"key":"06438008","name":"Mühlheim am Main, Stadt","type":"Stadt"},"district":{"key":"06438","name":"Offenbach","type":"Landkreis"},"federalState":{"key":"06","name":"Hessen"}},{"name":"Jean-Monnet-Str.","postalCode":"63165","locality":"Mühlheim am Main","municipality":{"key":"06438008","name":"Mühlheim am Main, Stadt","type":"Stadt"},"district":{"key":"06438","name":"Offenbach","type":"Landkreis"},"federalState":{"key":"06","name":"Hessen"}},{"name":"Josefstr.","postalCode":"63165","locality":"Mühlheim am Main","municipality":{"key":"06438008","name":"Mühlheim am Main, Stadt","type":"Stadt"},"district":{"key":"06438","name":"Offenbach","type":"Landkreis"},"federalState":{"key":"06","name":"Hessen"}},{"name":"Karlstr.","postalCode":"63165","locality":"Mühlheim am Main","municipality":{"key":"06438008","name":"Mühlheim am Main, Stadt","type":"Stadt"},"district":{"key":"06438","name":"Offenbach","type":"Landkreis"},"federalState":{"key":"06","name":"Hessen"}},{"name":"Käthe-Kollwitz-Str.","postalCode":"63165","locality":"Mühlheim am Main","municipality":{"key":"06438008","name":"Mühlheim am Main, Stadt","type":"Stadt"},"district":{"key":"06438","name":"Offenbach","type":"Landkreis"},"federalState":{"key":"06","name":"Hessen"}},{"name":"Kettelerstr.","postalCode":"63165","locality":"Mühlheim am Main","municipality":{"key":"06438008","name":"Mühlheim am Main, Stadt","type":"Stadt"},"district":{"key":"06438","name":"Offenbach","type":"Landkreis"},"federalState":{"key":"06","name":"Hessen"}},{"name":"Kirchborngasse","postalCode":"63165","locality":"Mühlheim am Main","municipality":{"key":"06438008","name":"Mühlheim am Main, Stadt","type":"Stadt"},"district":{"key":"06438","name":"Offenbach","type":"Landkreis"},"federalState":{"key":"06","name":"Hessen"}},{"name":"Kirchstr.","postalCode":"63165","locality":"Mühlheim am Main","municipality":{"key":"06438008","name":"Mühlheim am Main, Stadt","type":"Stadt"},"district":{"key":"06438","name":"Offenbach","type":"Landkreis"},"federalState":{"key":"06","name":"Hessen"}},{"name":"Kolpingstr.","postalCode":"63165","locality":"Mühlheim am Main","municipality":{"key":"06438008","name":"Mühlheim am Main, Stadt","type":"Stadt"},"district":{"key":"06438","name":"Offenbach","type":"Landkreis"},"federalState":{"key":"06","name":"Hessen"}},{"name":"Konrad-Adenauer-Str.","postalCode":"63165","locality":"Mühlheim am Main","municipality":{"key":"06438008","name":"Mühlheim am Main, Stadt","type":"Stadt"},"district":{"key":"06438","name":"Offenbach","type":"Landkreis"},"federalState":{"key":"06","name":"Hessen"}},{"name":"Körnerstr.","postalCode":"63165","locality":"Mühlheim am Main","municipality":{"key":"06438008","name":"Mühlheim am Main, Stadt","type":"Stadt"},"district":{"key":"06438","name":"Offenbach","type":"Landkreis"},"federalState":{"key":"06","name":"Hessen"}},{"name":"Kreuzstr.","postalCode":"63165","locality":"Mühlheim am Main","municipality":{"key":"06438008","name":"Mühlheim am Main, Stadt","type":"Stadt"},"district":{"key":"06438","name":"Offenbach","type":"Landkreis"},"federalState":{"key":"06","name":"Hessen"}},{"name":"Krummeschneise","postalCode":"63165","locality":"Mühlheim am Main","municipality":{"key":"06438008","name":"Mühlheim am Main, Stadt","type":"Stadt"},"district":{"key":"06438","name":"Offenbach","type":"Landkreis"},"federalState":{"key":"06","name":"Hessen"}},{"name":"Krummstr.","postalCode":"63165","locality":"Mühlheim am Main","municipality":{"key":"06438008","name":"Mühlheim am Main, Stadt","type":"Stadt"},"district":{"key":"06438","name":"Offenbach","type":"Landkreis"},"federalState":{"key":"06","name":"Hessen"}},{"name":"Lämmerspieler Bachschneise","postalCode":"63165","locality":"Mühlheim am Main","municipality":{"key":"06438008","name":"Mühlheim am Main, Stadt","type":"Stadt"},"district":{"key":"06438","name":"Offenbach","type":"Landkreis"},"federalState":{"key":"06","name":"Hessen"}},{"name":"Lämmerspieler Str.","postalCode":"63165","locality":"Mühlheim am Main","municipality":{"key":"06438008","name":"Mühlheim am Main, Stadt","type":"Stadt"},"district":{"key":"06438","name":"Offenbach","type":"Landkreis"},"federalState":{"key":"06","name":"Hessen"}},{"name":"Lämmerspieler Weg","postalCode":"63165","locality":"Mühlheim am Main","municipality":{"key":"06438008","name":"Mühlheim am Main, Stadt","type":"Stadt"},"district":{"key":"06438","name":"Offenbach","type":"Landkreis"},"federalState":{"key":"06","name":"Hessen"}},{"name":"Lämmerspieler Wegschneise","postalCode":"63165","locality":"Mühlheim am Main","municipality":{"key":"06438008","name":"Mühlheim am Main, Stadt","type":"Stadt"},"district":{"key":"06438","name":"Offenbach","type":"Landkreis"},"federalState":{"key":"06","name":"Hessen"}},{"name":"Langensee Schneise","postalCode":"63165","locality":"Mühlheim am Main","municipality":{"key":"06438008","name":"Mühlheim am Main, Stadt","type":"Stadt"},"district":{"key":"06438","name":"Offenbach","type":"Landkreis"},"federalState":{"key":"06","name":"Hessen"}},{"name":"Leipziger Str.","postalCode":"63165","locality":"Mühlheim am Main","municipality":{"key":"06438008","name":"Mühlheim am Main, Stadt","type":"Stadt"},"district":{"key":"06438","name":"Offenbach","type":"Landkreis"},"federalState":{"key":"06","name":"Hessen"}},{"name":"Leonhardstr.","postalCode":"63165","locality":"Mühlheim am Main","municipality":{"key":"06438008","name":"Mühlheim am Main, Stadt","type":"Stadt"},"district":{"key":"06438","name":"Offenbach","type":"Landkreis"},"federalState":{"key":"06","name":"Hessen"}},{"name":"Leopoldstr.","postalCode":"63165","locality":"Mühlheim am Main","municipality":{"key":"06438008","name":"Mühlheim am Main, Stadt","type":"Stadt"},"district":{"key":"06438","name":"Offenbach","type":"Landkreis"},"federalState":{"key":"06","name":"Hessen"}},{"name":"Lerchenweg","postalCode":"63165","locality":"Mühlheim am Main","municipality":{"key":"06438008","name":"Mühlheim am Main, Stadt","type":"Stadt"},"district":{"key":"06438","name":"Offenbach","type":"Landkreis"},"federalState":{"key":"06","name":"Hessen"}},{"name":"Lessingstr.","postalCode":"63165","locality":"Mühlheim am Main","municipality":{"key":"06438008","name":"Mühlheim am Main, Stadt","type":"Stadt"},"district":{"key":"06438","name":"Offenbach","type":"Landkreis"},"federalState":{"key":"06","name":"Hessen"}},{"name":"Leuschnerstr.","postalCode":"63165","locality":"Mühlheim am Main","municipality":{"key":"06438008","name":"Mühlheim am Main, Stadt","type":"Stadt"},"district":{"key":"06438","name":"Offenbach","type":"Landkreis"},"federalState":{"key":"06","name":"Hessen"}},{"name":"Lilienweg","postalCode":"63165","locality":"Mühlheim am Main","municipality":{"key":"06438008","name":"Mühlheim am Main, Stadt","type":"Stadt"},"district":{"key":"06438","name":"Offenbach","type":"Landkreis"},"federalState":{"key":"06","name":"Hessen"}},{"name":"Lindenstr.","postalCode":"63165","locality":"Mühlheim am Main","municipality":{"key":"06438008","name":"Mühlheim am Main, Stadt","type":"Stadt"},"district":{"key":"06438","name":"Offenbach","type":"Landkreis"},"federalState":{"key":"06","name":"Hessen"}},{"name":"Lohweg","postalCode":"63165","locality":"Mühlheim am Main","municipality":{"key":"06438008","name":"Mühlheim am Main, Stadt","type":"Stadt"},"district":{"key":"06438","name":"Offenbach","type":"Landkreis"},"federalState":{"key":"06","name":"Hessen"}},{"name":"Lorenweg","postalCode":"63165","locality":"Mühlheim am Main","municipality":{"key":"06438008","name":"Mühlheim am Main, Stadt","type":"Stadt"},"district":{"key":"06438","name":"Offenbach","type":"Landkreis"},"federalState":{"key":"06","name":"Hessen"}},{"name":"Louis-Raverat-Str.","postalCode":"63165","locality":"Mühlheim am Main","municipality":{"key":"06438008","name":"Mühlheim am Main, Stadt","type":"Stadt"},"district":{"key":"06438","name":"Offenbach","type":"Landkreis"},"federalState":{"key":"06","name":"Hessen"}},{"name":"Ludwigsplatz","postalCode":"63165","locality":"Mühlheim am Main","municipality":{"key":"06438008","name":"Mühlheim am Main, Stadt","type":"Stadt"},"district":{"key":"06438","name":"Offenbach","type":"Landkreis"},"federalState":{"key":"06","name":"Hessen"}},{"name":"Ludwigstr.","postalCode":"63165","locality":"Mühlheim am Main","municipality":{"key":"06438008","name":"Mühlheim am Main, Stadt","type":"Stadt"},"district":{"key":"06438","name":"Offenbach","type":"Landkreis"},"federalState":{"key":"06","name":"Hessen"}},{"name":"Luisenstr.","postalCode":"63165","locality":"Mühlheim am Main","municipality":{"key":"06438008","name":"Mühlheim am Main, Stadt","type":"Stadt"},"district":{"key":"06438","name":"Offenbach","type":"Landkreis"},"federalState":{"key":"06","name":"Hessen"}},{"name":"Mainstr.","postalCode":"63165","locality":"Mühlheim am Main","municipality":{"key":"06438008","name":"Mühlheim am Main, Stadt","type":"Stadt"},"district":{"key":"06438","name":"Offenbach","type":"Landkreis"},"federalState":{"key":"06","name":"Hessen"}},{"name":"Mainstweg","postalCode":"63165","locality":"Mühlheim am Main","municipality":{"key":"06438008","name":"Mühlheim am Main, Stadt","type":"Stadt"},"district":{"key":"06438","name":"Offenbach","type":"Landkreis"},"federalState":{"key":"06","name":"Hessen"}},{"name":"Marktstr.","postalCode":"63165","locality":"Mühlheim am Main","municipality":{"key":"06438008","name":"Mühlheim am Main, Stadt","type":"Stadt"},"district":{"key":"06438","name":"Offenbach","type":"Landkreis"},"federalState":{"key":"06","name":"Hessen"}},{"name":"Markweg","postalCode":"63165","locality":"Mühlheim am Main","municipality":{"key":"06438008","name":"Mühlheim am Main, Stadt","type":"Stadt"},"district":{"key":"06438","name":"Offenbach","type":"Landkreis"},"federalState":{"key":"06","name":"Hessen"}},{"name":"Memelstr.","postalCode":"63165","locality":"Mühlheim am Main","municipality":{"key":"06438008","name":"Mühlheim am Main, Stadt","type":"Stadt"},"district":{"key":"06438","name":"Offenbach","type":"Landkreis"},"federalState":{"key":"06","name":"Hessen"}},{"name":"Mozartstr.","postalCode":"63165","locality":"Mühlheim am Main","municipality":{"key":"06438008","name":"Mühlheim am Main, Stadt","type":"Stadt"},"district":{"key":"06438","name":"Offenbach","type":"Landkreis"},"federalState":{"key":"06","name":"Hessen"}},{"name":"Mühlheimer Str.","postalCode":"63165","locality":"Mühlheim am Main","municipality":{"key":"06438008","name":"Mühlheim am Main, Stadt","type":"Stadt"},"district":{"key":"06438","name":"Offenbach","type":"Landkreis"},"federalState":{"key":"06","name":"Hessen"}},{"name":"Mühlstr.","postalCode":"63165","locality":"Mühlheim am Main","municipality":{"key":"06438008","name":"Mühlheim am Main, Stadt","type":"Stadt"},"district":{"key":"06438","name":"Offenbach","type":"Landkreis"},"federalState":{"key":"06","name":"Hessen"}},{"name":"Müllerweg","postalCode":"63165","locality":"Mühlheim am Main","municipality":{"key":"06438008","name":"Mühlheim am Main, Stadt","type":"Stadt"},"district":{"key":"06438","name":"Offenbach","type":"Landkreis"},"federalState":{"key":"06","name":"Hessen"}},{"name":"Nelkenweg","postalCode":"63165","locality":"Mühlheim am Main","municipality":{"key":"06438008","name":"Mühlheim am Main, Stadt","type":"Stadt"},"district":{"key":"06438","name":"Offenbach","type":"Landkreis"},"federalState":{"key":"06","name":"Hessen"}},{"name":"Neue Str.","postalCode":"63165","locality":"Mühlheim am Main","municipality":{"key":"06438008","name":"Mühlheim am Main, Stadt","type":"Stadt"},"district":{"key":"06438","name":"Offenbach","type":"Landkreis"},"federalState":{"key":"06","name":"Hessen"}},{"name":"Neustr.","postalCode":"63165","locality":"Mühlheim am Main","municipality":{"key":"06438008","name":"Mühlheim am Main, Stadt","type":"Stadt"},"district":{"key":"06438","name":"Offenbach","type":"Landkreis"},"federalState":{"key":"06","name":"Hessen"}},{"name":"Obermainstr.","postalCode":"63165","locality":"Mühlheim am Main","municipality":{"key":"06438008","name":"Mühlheim am Main, Stadt","type":"Stadt"},"district":{"key":"06438","name":"Offenbach","type":"Landkreis"},"federalState":{"key":"06","name":"Hessen"}},{"name":"Obertshäuser Str.","postalCode":"63165","locality":"Mühlheim am Main","municipality":{"key":"06438008","name":"Mühlheim am Main, Stadt","type":"Stadt"},"district":{"key":"06438","name":"Offenbach","type":"Landkreis"},"federalState":{"key":"06","name":"Hessen"}},{"name":"Oberwiese","postalCode":"63165","locality":"Mühlheim am Main","municipality":{"key":"06438008","name":"Mühlheim am Main, Stadt","type":"Stadt"},"district":{"key":"06438","name":"Offenbach","type":"Landkreis"},"federalState":{"key":"06","name":"Hessen"}},{"name":"Offenbacher Str.","postalCode":"63165","locality":"Mühlheim am Main","municipality":{"key":"06438008","name":"Mühlheim am Main, Stadt","type":"Stadt"},"district":{"key":"06438","name":"Offenbach","type":"Landkreis"},"federalState":{"key":"06","name":"Hessen"}},{"name":"Offenbacher Weg","postalCode":"63165","locality":"Mühlheim am Main","municipality":{"key":"06438008","name":"Mühlheim am Main, Stadt","type":"Stadt"},"district":{"key":"06438","name":"Offenbach","type":"Landkreis"},"federalState":{"key":"06","name":"Hessen"}},{"name":"Offenbacher Wegschneise","postalCode":"63165","locality":"Mühlheim am Main","municipality":{"key":"06438008","name":"Mühlheim am Main, Stadt","type":"Stadt"},"district":{"key":"06438","name":"Offenbach","type":"Landkreis"},"federalState":{"key":"06","name":"Hessen"}},{"name":"Otto-Hahn-Str.","postalCode":"63165","locality":"Mühlheim am Main","municipality":{"key":"06438008","name":"Mühlheim am Main, Stadt","type":"Stadt"},"district":{"key":"06438","name":"Offenbach","type":"Landkreis"},"federalState":{"key":"06","name":"Hessen"}},{"name":"Paulstr.","postalCode":"63165","locality":"Mühlheim am Main","municipality":{"key":"06438008","name":"Mühlheim am Main, Stadt","type":"Stadt"},"district":{"key":"06438","name":"Offenbach","type":"Landkreis"},"federalState":{"key":"06","name":"Hessen"}},{"name":"Pestalozzistr.","postalCode":"63165","locality":"Mühlheim am Main","municipality":{"key":"06438008","name":"Mühlheim am Main, Stadt","type":"Stadt"},"district":{"key":"06438","name":"Offenbach","type":"Landkreis"},"federalState":{"key":"06","name":"Hessen"}},{"name":"Peterstr.","postalCode":"63165","locality":"Mühlheim am Main","municipality":{"key":"06438008","name":"Mühlheim am Main, Stadt","type":"Stadt"},"district":{"key":"06438","name":"Offenbach","type":"Landkreis"},"federalState":{"key":"06","name":"Hessen"}},{"name":"Pfarrer-Belz-Weg","postalCode":"63165","locality":"Mühlheim am Main","municipality":{"key":"06438008","name":"Mühlheim am Main, Stadt","type":"Stadt"},"district":{"key":"06438","name":"Offenbach","type":"Landkreis"},"federalState":{"key":"06","name":"Hessen"}},{"name":"Pfarrgasse","postalCode":"63165","locality":"Mühlheim am Main","municipality":{"key":"06438008","name":"Mühlheim am Main, Stadt","type":"Stadt"},"district":{"key":"06438","name":"Offenbach","type":"Landkreis"},"federalState":{"key":"06","name":"Hessen"}},{"name":"Philipp-Reis-Str.","postalCode":"63165","locality":"Mühlheim am Main","municipality":{"key":"06438008","name":"Mühlheim am Main, Stadt","type":"Stadt"},"district":{"key":"06438","name":"Offenbach","type":"Landkreis"},"federalState":{"key":"06","name":"Hessen"}},{"name":"Quellenweg","postalCode":"63165","locality":"Mühlheim am Main","municipality":{"key":"06438008","name":"Mühlheim am Main, Stadt","type":"Stadt"},"district":{"key":"06438","name":"Offenbach","type":"Landkreis"},"federalState":{"key":"06","name":"Hessen"}},{"name":"Querstr.","postalCode":"63165","locality":"Mühlheim am Main","municipality":{"key":"06438008","name":"Mühlheim am Main, Stadt","type":"Stadt"},"district":{"key":"06438","name":"Offenbach","type":"Landkreis"},"federalState":{"key":"06","name":"Hessen"}},{"name":"Raabestr.","postalCode":"63165","locality":"Mühlheim am Main","municipality":{"key":"06438008","name":"Mühlheim am Main, Stadt","type":"Stadt"},"district":{"key":"06438","name":"Offenbach","type":"Landkreis"},"federalState":{"key":"06","name":"Hessen"}},{"name":"Rathenaustr.","postalCode":"63165","locality":"Mühlheim am Main","municipality":{"key":"06438008","name":"Mühlheim am Main, Stadt","type":"Stadt"},"district":{"key":"06438","name":"Offenbach","type":"Landkreis"},"federalState":{"key":"06","name":"Hessen"}},{"name":"Rilkestr.","postalCode":"63165","locality":"Mühlheim am Main","municipality":{"key":"06438008","name":"Mühlheim am Main, Stadt","type":"Stadt"},"district":{"key":"06438","name":"Offenbach","type":"Landkreis"},"federalState":{"key":"06","name":"Hessen"}},{"name":"Ringstr.","postalCode":"63165","locality":"Mühlheim am Main","municipality":{"key":"06438008","name":"Mühlheim am Main, Stadt","type":"Stadt"},"district":{"key":"06438","name":"Offenbach","type":"Landkreis"},"federalState":{"key":"06","name":"Hessen"}},{"name":"Rittelsweg","postalCode":"63165","locality":"Mühlheim am Main","municipality":{"key":"06438008","name":"Mühlheim am Main, Stadt","type":"Stadt"},"district":{"key":"06438","name":"Offenbach","type":"Landkreis"},"federalState":{"key":"06","name":"Hessen"}},{"name":"Robert-Bosch-Weg","postalCode":"63165","locality":"Mühlheim am Main","municipality":{"key":"06438008","name":"Mühlheim am Main, Stadt","type":"Stadt"},"district":{"key":"06438","name":"Offenbach","type":"Landkreis"},"federalState":{"key":"06","name":"Hessen"}},{"name":"Robert-Koch-Str.","postalCode":"63165","locality":"Mühlheim am Main","municipality":{"key":"06438008","name":"Mühlheim am Main, Stadt","type":"Stadt"},"district":{"key":"06438","name":"Offenbach","type":"Landkreis"},"federalState":{"key":"06","name":"Hessen"}},{"name":"Robert-Schuman-Str.","postalCode":"63165","locality":"Mühlheim am Main","municipality":{"key":"06438008","name":"Mühlheim am Main, Stadt","type":"Stadt"},"district":{"key":"06438","name":"Offenbach","type":"Landkreis"},"federalState":{"key":"06","name":"Hessen"}},{"name":"Rodaustr.","postalCode":"63165","locality":"Mühlheim am Main","municipality":{"key":"06438008","name":"Mühlheim am Main, Stadt","type":"Stadt"},"district":{"key":"06438","name":"Offenbach","type":"Landkreis"},"federalState":{"key":"06","name":"Hessen"}},{"name":"Roseggerstr.","postalCode":"63165","locality":"Mühlheim am Main","municipality":{"key":"06438008","name":"Mühlheim am Main, Stadt","type":"Stadt"},"district":{"key":"06438","name":"Offenbach","type":"Landkreis"},"federalState":{"key":"06","name":"Hessen"}},{"name":"Rosenweg","postalCode":"63165","locality":"Mühlheim am Main","municipality":{"key":"06438008","name":"Mühlheim am Main, Stadt","type":"Stadt"},"district":{"key":"06438","name":"Offenbach","type":"Landkreis"},"federalState":{"key":"06","name":"Hessen"}},{"name":"Rote-Warte-Str.","postalCode":"63165","locality":"Mühlheim am Main","municipality":{"key":"06438008","name":"Mühlheim am Main, Stadt","type":"Stadt"},"district":{"key":"06438","name":"Offenbach","type":"Landkreis"},"federalState":{"key":"06","name":"Hessen"}},{"name":"Rubensstr.","postalCode":"63165","locality":"Mühlheim am Main","municipality":{"key":"06438008","name":"Mühlheim am Main, Stadt","type":"Stadt"},"district":{"key":"06438","name":"Offenbach","type":"Landkreis"},"federalState":{"key":"06","name":"Hessen"}},{"name":"Rückertstr.","postalCode":"63165","locality":"Mühlheim am Main","municipality":{"key":"06438008","name":"Mühlheim am Main, Stadt","type":"Stadt"},"district":{"key":"06438","name":"Offenbach","type":"Landkreis"},"federalState":{"key":"06","name":"Hessen"}},{"name":"Rumpenheimer Str.","postalCode":"63165","locality":"Mühlheim am Main","municipality":{"key":"06438008","name":"Mühlheim am Main, Stadt","type":"Stadt"},"district":{"key":"06438","name":"Offenbach","type":"Landkreis"},"federalState":{"key":"06","name":"Hessen"}},{"name":"Rumpenheimer Wegschneise","postalCode":"63165","locality":"Mühlheim am Main","municipality":{"key":"06438008","name":"Mühlheim am Main, Stadt","type":"Stadt"},"district":{"key":"06438","name":"Offenbach","type":"Landkreis"},"federalState":{"key":"06","name":"Hessen"}},{"name":"Ruppschneise","postalCode":"63165","locality":"Mühlheim am Main","municipality":{"key":"06438008","name":"Mühlheim am Main, Stadt","type":"Stadt"},"district":{"key":"06438","name":"Offenbach","type":"Landkreis"},"federalState":{"key":"06","name":"Hessen"}},{"name":"Sackgasse","postalCode":"63165","locality":"Mühlheim am Main","municipality":{"key":"06438008","name":"Mühlheim am Main, Stadt","type":"Stadt"},"district":{"key":"06438","name":"Offenbach","type":"Landkreis"},"federalState":{"key":"06","name":"Hessen"}},{"name":"Saint-Priest-Str.","postalCode":"63165","locality":"Mühlheim am Main","municipality":{"key":"06438008","name":"Mühlheim am Main, Stadt","type":"Stadt"},"district":{"key":"06438","name":"Offenbach","type":"Landkreis"},"federalState":{"key":"06","name":"Hessen"}},{"name":"Schillerstr.","postalCode":"63165","locality":"Mühlheim am Main","municipality":{"key":"06438008","name":"Mühlheim am Main, Stadt","type":"Stadt"},"district":{"key":"06438","name":"Offenbach","type":"Landkreis"},"federalState":{"key":"06","name":"Hessen"}},{"name":"Schlehenstr.","postalCode":"63165","locality":"Mühlheim am Main","municipality":{"key":"06438008","name":"Mühlheim am Main, Stadt","type":"Stadt"},"district":{"key":"06438","name":"Offenbach","type":"Landkreis"},"federalState":{"key":"06","name":"Hessen"}},{"name":"Schlesierstr.","postalCode":"63165","locality":"Mühlheim am Main","municipality":{"key":"06438008","name":"Mühlheim am Main, Stadt","type":"Stadt"},"district":{"key":"06438","name":"Offenbach","type":"Landkreis"},"federalState":{"key":"06","name":"Hessen"}},{"name":"Schmiedegasse","postalCode":"63165","locality":"Mühlheim am Main","municipality":{"key":"06438008","name":"Mühlheim am Main, Stadt","type":"Stadt"},"district":{"key":"06438","name":"Offenbach","type":"Landkreis"},"federalState":{"key":"06","name":"Hessen"}},{"name":"Schubertstr.","postalCode":"63165","locality":"Mühlheim am Main","municipality":{"key":"06438008","name":"Mühlheim am Main, Stadt","type":"Stadt"},"district":{"key":"06438","name":"Offenbach","type":"Landkreis"},"federalState":{"key":"06","name":"Hessen"}},{"name":"Schulstr.","postalCode":"63165","locality":"Mühlheim am Main","municipality":{"key":"06438008","name":"Mühlheim am Main, Stadt","type":"Stadt"},"district":{"key":"06438","name":"Offenbach","type":"Landkreis"},"federalState":{"key":"06","name":"Hessen"}},{"name":"Schultheiß-Neeb-Pfad","postalCode":"63165","locality":"Mühlheim am Main","municipality":{"key":"06438008","name":"Mühlheim am Main, Stadt","type":"Stadt"},"district":{"key":"06438","name":"Offenbach","type":"Landkreis"},"federalState":{"key":"06","name":"Hessen"}},{"name":"Schumacherstr.","postalCode":"63165","locality":"Mühlheim am Main","municipality":{"key":"06438008","name":"Mühlheim am Main, Stadt","type":"Stadt"},"district":{"key":"06438","name":"Offenbach","type":"Landkreis"},"federalState":{"key":"06","name":"Hessen"}},{"name":"Seligenstädter Str.","postalCode":"63165","locality":"Mühlheim am Main","municipality":{"key":"06438008","name":"Mühlheim am Main, Stadt","type":"Stadt"},"district":{"key":"06438","name":"Offenbach","type":"Landkreis"},"federalState":{"key":"06","name":"Hessen"}},{"name":"Senefelderallee","postalCode":"63165","locality":"Mühlheim am Main","municipality":{"key":"06438008","name":"Mühlheim am Main, Stadt","type":"Stadt"},"district":{"key":"06438","name":"Offenbach","type":"Landkreis"},"federalState":{"key":"06","name":"Hessen"}},{"name":"Siedlerstr.","postalCode":"63165","locality":"Mühlheim am Main","municipality":{"key":"06438008","name":"Mühlheim am Main, Stadt","type":"Stadt"},"district":{"key":"06438","name":"Offenbach","type":"Landkreis"},"federalState":{"key":"06","name":"Hessen"}},{"name":"Siemensstr.","postalCode":"63165","locality":"Mühlheim am Main","municipality":{"key":"06438008","name":"Mühlheim am Main, Stadt","type":"Stadt"},"district":{"key":"06438","name":"Offenbach","type":"Landkreis"},"federalState":{"key":"06","name":"Hessen"}},{"name":"Spessartstr.","postalCode":"63165","locality":"Mühlheim am Main","municipality":{"key":"06438008","name":"Mühlheim am Main, Stadt","type":"Stadt"},"district":{"key":"06438","name":"Offenbach","type":"Landkreis"},"federalState":{"key":"06","name":"Hessen"}},{"name":"Stauffenbergstr.","postalCode":"63165","locality":"Mühlheim am Main","municipality":{"key":"06438008","name":"Mühlheim am Main, Stadt","type":"Stadt"},"district":{"key":"06438","name":"Offenbach","type":"Landkreis"},"federalState":{"key":"06","name":"Hessen"}},{"name":"Steinheimer Str.","postalCode":"63165","locality":"Mühlheim am Main","municipality":{"key":"06438008","name":"Mühlheim am Main, Stadt","type":"Stadt"},"district":{"key":"06438","name":"Offenbach","type":"Landkreis"},"federalState":{"key":"06","name":"Hessen"}},{"name":"Steinheimer Weg","postalCode":"63165","locality":"Mühlheim am Main","municipality":{"key":"06438008","name":"Mühlheim am Main, Stadt","type":"Stadt"},"district":{"key":"06438","name":"Offenbach","type":"Landkreis"},"federalState":{"key":"06","name":"Hessen"}},{"name":"Steinkautenweg","postalCode":"63165","locality":"Mühlheim am Main","municipality":{"key":"06438008","name":"Mühlheim am Main, Stadt","type":"Stadt"},"district":{"key":"06438","name":"Offenbach","type":"Landkreis"},"federalState":{"key":"06","name":"Hessen"}},{"name":"Sudetenstr.","postalCode":"63165","locality":"Mühlheim am Main","municipality":{"key":"06438008","name":"Mühlheim am Main, Stadt","type":"Stadt"},"district":{"key":"06438","name":"Offenbach","type":"Landkreis"},"federalState":{"key":"06","name":"Hessen"}},{"name":"Südring","postalCode":"63165","locality":"Mühlheim am Main","municipality":{"key":"06438008","name":"Mühlheim am Main, Stadt","type":"Stadt"},"district":{"key":"06438","name":"Offenbach","type":"Landkreis"},"federalState":{"key":"06","name":"Hessen"}},{"name":"Talweg","postalCode":"63165","locality":"Mühlheim am Main","municipality":{"key":"06438008","name":"Mühlheim am Main, Stadt","type":"Stadt"},"district":{"key":"06438","name":"Offenbach","type":"Landkreis"},"federalState":{"key":"06","name":"Hessen"}},{"name":"Tannenweg","postalCode":"63165","locality":"Mühlheim am Main","municipality":{"key":"06438008","name":"Mühlheim am Main, Stadt","type":"Stadt"},"district":{"key":"06438","name":"Offenbach","type":"Landkreis"},"federalState":{"key":"06","name":"Hessen"}},{"name":"Taunusstr.","postalCode":"63165","locality":"Mühlheim am Main","municipality":{"key":"06438008","name":"Mühlheim am Main, Stadt","type":"Stadt"},"district":{"key":"06438","name":"Offenbach","type":"Landkreis"},"federalState":{"key":"06","name":"Hessen"}},{"name":"Thomas-Mann-Str.","postalCode":"63165","locality":"Mühlheim am Main","municipality":{"key":"06438008","name":"Mühlheim am Main, Stadt","type":"Stadt"},"district":{"key":"06438","name":"Offenbach","type":"Landkreis"},"federalState":{"key":"06","name":"Hessen"}},{"name":"Tiefenorter Ring","postalCode":"63165","locality":"Mühlheim am Main","municipality":{"key":"06438008","name":"Mühlheim am Main, Stadt","type":"Stadt"},"district":{"key":"06438","name":"Offenbach","type":"Landkreis"},"federalState":{"key":"06","name":"Hessen"}},{"name":"Tilsiter Str.","postalCode":"63165","locality":"Mühlheim am Main","municipality":{"key":"06438008","name":"Mühlheim am Main, Stadt","type":"Stadt"},"district":{"key":"06438","name":"Offenbach","type":"Landkreis"},"federalState":{"key":"06","name":"Hessen"}},{"name":"Trachstr.","postalCode":"63165","locality":"Mühlheim am Main","municipality":{"key":"06438008","name":"Mühlheim am Main, Stadt","type":"Stadt"},"district":{"key":"06438","name":"Offenbach","type":"Landkreis"},"federalState":{"key":"06","name":"Hessen"}},{"name":"Tränkgasse","postalCode":"63165","locality":"Mühlheim am Main","municipality":{"key":"06438008","name":"Mühlheim am Main, Stadt","type":"Stadt"},"district":{"key":"06438","name":"Offenbach","type":"Landkreis"},"federalState":{"key":"06","name":"Hessen"}},{"name":"Tulpenweg","postalCode":"63165","locality":"Mühlheim am Main","municipality":{"key":"06438008","name":"Mühlheim am Main, Stadt","type":"Stadt"},"district":{"key":"06438","name":"Offenbach","type":"Landkreis"},"federalState":{"key":"06","name":"Hessen"}},{"name":"Uhlandstr.","postalCode":"63165","locality":"Mühlheim am Main","municipality":{"key":"06438008","name":"Mühlheim am Main, Stadt","type":"Stadt"},"district":{"key":"06438","name":"Offenbach","type":"Landkreis"},"federalState":{"key":"06","name":"Hessen"}},{"name":"Ulmenstr.","postalCode":"63165","locality":"Mühlheim am Main","municipality":{"key":"06438008","name":"Mühlheim am Main, Stadt","type":"Stadt"},"district":{"key":"06438","name":"Offenbach","type":"Landkreis"},"federalState":{"key":"06","name":"Hessen"}},{"name":"Ulrichschneise","postalCode":"63165","locality":"Mühlheim am Main","municipality":{"key":"06438008","name":"Mühlheim am Main, Stadt","type":"Stadt"},"district":{"key":"06438","name":"Offenbach","type":"Landkreis"},"federalState":{"key":"06","name":"Hessen"}},{"name":"Unter den Eichen","postalCode":"63165","locality":"Mühlheim am Main","municipality":{"key":"06438008","name":"Mühlheim am Main, Stadt","type":"Stadt"},"district":{"key":"06438","name":"Offenbach","type":"Landkreis"},"federalState":{"key":"06","name":"Hessen"}},{"name":"Untermainstr.","postalCode":"63165","locality":"Mühlheim am Main","municipality":{"key":"06438008","name":"Mühlheim am Main, Stadt","type":"Stadt"},"district":{"key":"06438","name":"Offenbach","type":"Landkreis"},"federalState":{"key":"06","name":"Hessen"}},{"name":"Vogelsangstr.","postalCode":"63165","locality":"Mühlheim am Main","municipality":{"key":"06438008","name":"Mühlheim am Main, Stadt","type":"Stadt"},"district":{"key":"06438","name":"Offenbach","type":"Landkreis"},"federalState":{"key":"06","name":"Hessen"}},{"name":"Waldheimer Str.","postalCode":"63165","locality":"Mühlheim am Main","municipality":{"key":"06438008","name":"Mühlheim am Main, Stadt","type":"Stadt"},"district":{"key":"06438","name":"Offenbach","type":"Landkreis"},"federalState":{"key":"06","name":"Hessen"}},{"name":"Waldhof Grenzschneise","postalCode":"63165","locality":"Mühlheim am Main","municipality":{"key":"06438008","name":"Mühlheim am Main, Stadt","type":"Stadt"},"district":{"key":"06438","name":"Offenbach","type":"Landkreis"},"federalState":{"key":"06","name":"Hessen"}},{"name":"Waldstr.","postalCode":"63165","locality":"Mühlheim am Main","municipality":{"key":"06438008","name":"Mühlheim am Main, Stadt","type":"Stadt"},"district":{"key":"06438","name":"Offenbach","type":"Landkreis"},"federalState":{"key":"06","name":"Hessen"}},{"name":"Weingartenweg","postalCode":"63165","locality":"Mühlheim am Main","municipality":{"key":"06438008","name":"Mühlheim am Main, Stadt","type":"Stadt"},"district":{"key":"06438","name":"Offenbach","type":"Landkreis"},"federalState":{"key":"06","name":"Hessen"}},{"name":"Wichernstr.","postalCode":"63165","locality":"Mühlheim am Main","municipality":{"key":"06438008","name":"Mühlheim am Main, Stadt","type":"Stadt"},"district":{"key":"06438","name":"Offenbach","type":"Landkreis"},"federalState":{"key":"06","name":"Hessen"}},{"name":"Wiesenstr.","postalCode":"63165","locality":"Mühlheim am Main","municipality":{"key":"06438008","name":"Mühlheim am Main, Stadt","type":"Stadt"},"district":{"key":"06438","name":"Offenbach","type":"Landkreis"},"federalState":{"key":"06","name":"Hessen"}},{"name":"Wilhelm-Busch-Str.","postalCode":"63165","locality":"Mühlheim am Main","municipality":{"key":"06438008","name":"Mühlheim am Main, Stadt","type":"Stadt"},"district":{"key":"06438","name":"Offenbach","type":"Landkreis"},"federalState":{"key":"06","name":"Hessen"}},{"name":"Wilhelm-Leuschner-Str.","postalCode":"63165","locality":"Mühlheim am Main","municipality":{"key":"06438008","name":"Mühlheim am Main, Stadt","type":"Stadt"},"district":{"key":"06438","name":"Offenbach","type":"Landkreis"},"federalState":{"key":"06","name":"Hessen"}},{"name":"Wilhelmstr.","postalCode":"63165","locality":"Mühlheim am Main","municipality":{"key":"06438008","name":"Mühlheim am Main, Stadt","type":"Stadt"},"district":{"key":"06438","name":"Offenbach","type":"Landkreis"},"federalState":{"key":"06","name":"Hessen"}},{"name":"Wingertstr.","postalCode":"63165","locality":"Mühlheim am Main","municipality":{"key":"06438008","name":"Mühlheim am Main, Stadt","type":"Stadt"},"district":{"key":"06438","name":"Offenbach","type":"Landkreis"},"federalState":{"key":"06","name":"Hessen"}},{"name":"Wingertweg","postalCode":"63165","locality":"Mühlheim am Main","municipality":{"key":"06438008","name":"Mühlheim am Main, Stadt","type":"Stadt"},"district":{"key":"06438","name":"Offenbach","type":"Landkreis"},"federalState":{"key":"06","name":"Hessen"}},{"name":"Wunderschneise","postalCode":"63165","locality":"Mühlheim am Main","municipality":{"key":"06438008","name":"Mühlheim am Main, Stadt","type":"Stadt"},"district":{"key":"06438","name":"Offenbach","type":"Landkreis"},"federalState":{"key":"06","name":"Hessen"}},{"name":"Yorckstr.","postalCode":"63073","locality":"Offenbach am Main","municipality":{"key":"06413000","name":"Offenbach am Main, Stadt","type":"Kreisfreie_Stadt"},"district":{"key":"06413","name":"Offenbach am Main, Stadt","type":"Kreisfreie_Stadt"},"federalState":{"key":"06","name":"Hessen"}},{"name":"Zeppelinring","postalCode":"63165","locality":"Mühlheim am Main","municipality":{"key":"06438008","name":"Mühlheim am Main, Stadt","type":"Stadt"},"district":{"key":"06438","name":"Offenbach","type":"Landkreis"},"federalState":{"key":"06","name":"Hessen"}},{"name":"Zimmerstr.","postalCode":"63165","locality":"Mühlheim am Main","municipality":{"key":"06438008","name":"Mühlheim am Main, Stadt","type":"Stadt"},"district":{"key":"06438","name":"Offenbach","type":"Landkreis"},"federalState":{"key":"06","name":"Hessen"}},{"name":"Zum Markwald","postalCode":"63165","locality":"Mühlheim am Main","municipality":{"key":"06438008","name":"Mühlheim am Main, Stadt","type":"Stadt"},"district":{"key":"06438","name":"Offenbach","type":"Landkreis"},"federalState":{"key":"06","name":"Hessen"}},{"name":"Änne-Salzmann-Platz","postalCode":"63075","locality":"Offenbach am Main","municipality":{"key":"06413000","name":"Offenbach am Main, Stadt","type":"Kreisfreie_Stadt"},"district":{"key":"06413","name":"Offenbach am Main, Stadt","type":"Kreisfreie_Stadt"},"federalState":{"key":"06","name":"Hessen"}},]