[{"name":"Alte Bahnhofstr.","postalCode":"08606","locality":"Tirpersdorf","municipality":{"key":"14523420","name":"Tirpersdorf","type":"Kreisangehörige_Gemeinde"},"district":{"key":"14523","name":"Vogtlandkreis","type":"Landkreis"},"federalState":{"key":"14","name":"Sachsen"}},{"name":"Alte Obermarxgrüner Str.","postalCode":"08606","locality":"Tirpersdorf","municipality":{"key":"14523420","name":"Tirpersdorf","type":"Kreisangehörige_Gemeinde"},"district":{"key":"14523","name":"Vogtlandkreis","type":"Landkreis"},"federalState":{"key":"14","name":"Sachsen"}},{"name":"Alter Schulweg","postalCode":"08606","locality":"Tirpersdorf","municipality":{"key":"14523420","name":"Tirpersdorf","type":"Kreisangehörige_Gemeinde"},"district":{"key":"14523","name":"Vogtlandkreis","type":"Landkreis"},"federalState":{"key":"14","name":"Sachsen"}},{"name":"Alte Theumaer Str.","postalCode":"08606","locality":"Tirpersdorf","municipality":{"key":"14523420","name":"Tirpersdorf","type":"Kreisangehörige_Gemeinde"},"district":{"key":"14523","name":"Vogtlandkreis","type":"Landkreis"},"federalState":{"key":"14","name":"Sachsen"}},{"name":"Am Alten Schacht","postalCode":"08606","locality":"Tirpersdorf","municipality":{"key":"14523420","name":"Tirpersdorf","type":"Kreisangehörige_Gemeinde"},"district":{"key":"14523","name":"Vogtlandkreis","type":"Landkreis"},"federalState":{"key":"14","name":"Sachsen"}},{"name":"Am Anger","postalCode":"08606","locality":"Tirpersdorf","municipality":{"key":"14523420","name":"Tirpersdorf","type":"Kreisangehörige_Gemeinde"},"district":{"key":"14523","name":"Vogtlandkreis","type":"Landkreis"},"federalState":{"key":"14","name":"Sachsen"}},{"name":"Am Landhaus","postalCode":"08606","locality":"Tirpersdorf","municipality":{"key":"14523420","name":"Tirpersdorf","type":"Kreisangehörige_Gemeinde"},"district":{"key":"14523","name":"Vogtlandkreis","type":"Landkreis"},"federalState":{"key":"14","name":"Sachsen"}},{"name":"Am Ring","postalCode":"08606","locality":"Tirpersdorf","municipality":{"key":"14523420","name":"Tirpersdorf","type":"Kreisangehörige_Gemeinde"},"district":{"key":"14523","name":"Vogtlandkreis","type":"Landkreis"},"federalState":{"key":"14","name":"Sachsen"}},{"name":"An den Griebenherden","postalCode":"08606","locality":"Tirpersdorf","municipality":{"key":"14523420","name":"Tirpersdorf","type":"Kreisangehörige_Gemeinde"},"district":{"key":"14523","name":"Vogtlandkreis","type":"Landkreis"},"federalState":{"key":"14","name":"Sachsen"}},{"name":"Arnoldsgrüner Str.","postalCode":"08606","locality":"Tirpersdorf","municipality":{"key":"14523420","name":"Tirpersdorf","type":"Kreisangehörige_Gemeinde"},"district":{"key":"14523","name":"Vogtlandkreis","type":"Landkreis"},"federalState":{"key":"14","name":"Sachsen"}},{"name":"Bachstr.","postalCode":"08606","locality":"Tirpersdorf","municipality":{"key":"14523420","name":"Tirpersdorf","type":"Kreisangehörige_Gemeinde"},"district":{"key":"14523","name":"Vogtlandkreis","type":"Landkreis"},"federalState":{"key":"14","name":"Sachsen"}},{"name":"Birkenstr.","postalCode":"08606","locality":"Tirpersdorf","municipality":{"key":"14523420","name":"Tirpersdorf","type":"Kreisangehörige_Gemeinde"},"district":{"key":"14523","name":"Vogtlandkreis","type":"Landkreis"},"federalState":{"key":"14","name":"Sachsen"}},{"name":"Brotenfelder Str.","postalCode":"08606","locality":"Tirpersdorf","municipality":{"key":"14523420","name":"Tirpersdorf","type":"Kreisangehörige_Gemeinde"},"district":{"key":"14523","name":"Vogtlandkreis","type":"Landkreis"},"federalState":{"key":"14","name":"Sachsen"}},{"name":"Dorfstr.","postalCode":"08606","locality":"Tirpersdorf","municipality":{"key":"14523420","name":"Tirpersdorf","type":"Kreisangehörige_Gemeinde"},"district":{"key":"14523","name":"Vogtlandkreis","type":"Landkreis"},"federalState":{"key":"14","name":"Sachsen"}},{"name":"Droßdorfer Str.","postalCode":"08606","locality":"Tirpersdorf","municipality":{"key":"14523420","name":"Tirpersdorf","type":"Kreisangehörige_Gemeinde"},"district":{"key":"14523","name":"Vogtlandkreis","type":"Landkreis"},"federalState":{"key":"14","name":"Sachsen"}},{"name":"Elendsweg","postalCode":"08606","locality":"Tirpersdorf","municipality":{"key":"14523420","name":"Tirpersdorf","type":"Kreisangehörige_Gemeinde"},"district":{"key":"14523","name":"Vogtlandkreis","type":"Landkreis"},"federalState":{"key":"14","name":"Sachsen"}},{"name":"Forstweg","postalCode":"08606","locality":"Tirpersdorf","municipality":{"key":"14523420","name":"Tirpersdorf","type":"Kreisangehörige_Gemeinde"},"district":{"key":"14523","name":"Vogtlandkreis","type":"Landkreis"},"federalState":{"key":"14","name":"Sachsen"}},{"name":"Gartenstr.","postalCode":"08606","locality":"Tirpersdorf","municipality":{"key":"14523420","name":"Tirpersdorf","type":"Kreisangehörige_Gemeinde"},"district":{"key":"14523","name":"Vogtlandkreis","type":"Landkreis"},"federalState":{"key":"14","name":"Sachsen"}},{"name":"Goldene Höhe","postalCode":"08606","locality":"Tirpersdorf","municipality":{"key":"14523420","name":"Tirpersdorf","type":"Kreisangehörige_Gemeinde"},"district":{"key":"14523","name":"Vogtlandkreis","type":"Landkreis"},"federalState":{"key":"14","name":"Sachsen"}},{"name":"Hauptstr.","postalCode":"08606","locality":"Tirpersdorf","municipality":{"key":"14523420","name":"Tirpersdorf","type":"Kreisangehörige_Gemeinde"},"district":{"key":"14523","name":"Vogtlandkreis","type":"Landkreis"},"federalState":{"key":"14","name":"Sachsen"}},{"name":"Juchhöher Str.","postalCode":"08606","locality":"Tirpersdorf","municipality":{"key":"14523420","name":"Tirpersdorf","type":"Kreisangehörige_Gemeinde"},"district":{"key":"14523","name":"Vogtlandkreis","type":"Landkreis"},"federalState":{"key":"14","name":"Sachsen"}},{"name":"Kottengrüner Str.","postalCode":"08606","locality":"Tirpersdorf","municipality":{"key":"14523420","name":"Tirpersdorf","type":"Kreisangehörige_Gemeinde"},"district":{"key":"14523","name":"Vogtlandkreis","type":"Landkreis"},"federalState":{"key":"14","name":"Sachsen"}},{"name":"Leichenweg","postalCode":"08606","locality":"Tirpersdorf","municipality":{"key":"14523420","name":"Tirpersdorf","type":"Kreisangehörige_Gemeinde"},"district":{"key":"14523","name":"Vogtlandkreis","type":"Landkreis"},"federalState":{"key":"14","name":"Sachsen"}},{"name":"Lottengrüner Str.","postalCode":"08606","locality":"Tirpersdorf","municipality":{"key":"14523420","name":"Tirpersdorf","type":"Kreisangehörige_Gemeinde"},"district":{"key":"14523","name":"Vogtlandkreis","type":"Landkreis"},"federalState":{"key":"14","name":"Sachsen"}},{"name":"Mühlstr.","postalCode":"08606","locality":"Tirpersdorf","municipality":{"key":"14523420","name":"Tirpersdorf","type":"Kreisangehörige_Gemeinde"},"district":{"key":"14523","name":"Vogtlandkreis","type":"Landkreis"},"federalState":{"key":"14","name":"Sachsen"}},{"name":"Postweg","postalCode":"08606","locality":"Tirpersdorf","municipality":{"key":"14523420","name":"Tirpersdorf","type":"Kreisangehörige_Gemeinde"},"district":{"key":"14523","name":"Vogtlandkreis","type":"Landkreis"},"federalState":{"key":"14","name":"Sachsen"}},{"name":"Quellstr.","postalCode":"08606","locality":"Tirpersdorf","municipality":{"key":"14523420","name":"Tirpersdorf","type":"Kreisangehörige_Gemeinde"},"district":{"key":"14523","name":"Vogtlandkreis","type":"Landkreis"},"federalState":{"key":"14","name":"Sachsen"}},{"name":"Querstr.","postalCode":"08606","locality":"Tirpersdorf","municipality":{"key":"14523420","name":"Tirpersdorf","type":"Kreisangehörige_Gemeinde"},"district":{"key":"14523","name":"Vogtlandkreis","type":"Landkreis"},"federalState":{"key":"14","name":"Sachsen"}},{"name":"Schloditzer Str.","postalCode":"08606","locality":"Tirpersdorf","municipality":{"key":"14523420","name":"Tirpersdorf","type":"Kreisangehörige_Gemeinde"},"district":{"key":"14523","name":"Vogtlandkreis","type":"Landkreis"},"federalState":{"key":"14","name":"Sachsen"}},{"name":"Schloditzer Weg","postalCode":"08606","locality":"Tirpersdorf","municipality":{"key":"14523420","name":"Tirpersdorf","type":"Kreisangehörige_Gemeinde"},"district":{"key":"14523","name":"Vogtlandkreis","type":"Landkreis"},"federalState":{"key":"14","name":"Sachsen"}},{"name":"Siedlerweg","postalCode":"08606","locality":"Tirpersdorf","municipality":{"key":"14523420","name":"Tirpersdorf","type":"Kreisangehörige_Gemeinde"},"district":{"key":"14523","name":"Vogtlandkreis","type":"Landkreis"},"federalState":{"key":"14","name":"Sachsen"}},{"name":"Siedlung","postalCode":"08606","locality":"Tirpersdorf","municipality":{"key":"14523420","name":"Tirpersdorf","type":"Kreisangehörige_Gemeinde"},"district":{"key":"14523","name":"Vogtlandkreis","type":"Landkreis"},"federalState":{"key":"14","name":"Sachsen"}},{"name":"Steinbruchweg","postalCode":"08606","locality":"Tirpersdorf","municipality":{"key":"14523420","name":"Tirpersdorf","type":"Kreisangehörige_Gemeinde"},"district":{"key":"14523","name":"Vogtlandkreis","type":"Landkreis"},"federalState":{"key":"14","name":"Sachsen"}},{"name":"Stöckigter Str.","postalCode":"08606","locality":"Tirpersdorf","municipality":{"key":"14523420","name":"Tirpersdorf","type":"Kreisangehörige_Gemeinde"},"district":{"key":"14523","name":"Vogtlandkreis","type":"Landkreis"},"federalState":{"key":"14","name":"Sachsen"}},{"name":"Teichgasse","postalCode":"08606","locality":"Tirpersdorf","municipality":{"key":"14523420","name":"Tirpersdorf","type":"Kreisangehörige_Gemeinde"},"district":{"key":"14523","name":"Vogtlandkreis","type":"Landkreis"},"federalState":{"key":"14","name":"Sachsen"}},{"name":"Theumaer Str.","postalCode":"08606","locality":"Tirpersdorf","municipality":{"key":"14523420","name":"Tirpersdorf","type":"Kreisangehörige_Gemeinde"},"district":{"key":"14523","name":"Vogtlandkreis","type":"Landkreis"},"federalState":{"key":"14","name":"Sachsen"}},{"name":"Theumaer Weg","postalCode":"08606","locality":"Tirpersdorf","municipality":{"key":"14523420","name":"Tirpersdorf","type":"Kreisangehörige_Gemeinde"},"district":{"key":"14523","name":"Vogtlandkreis","type":"Landkreis"},"federalState":{"key":"14","name":"Sachsen"}},{"name":"Waldstr.","postalCode":"08606","locality":"Tirpersdorf","municipality":{"key":"14523420","name":"Tirpersdorf","type":"Kreisangehörige_Gemeinde"},"district":{"key":"14523","name":"Vogtlandkreis","type":"Landkreis"},"federalState":{"key":"14","name":"Sachsen"}},{"name":"Waldweg","postalCode":"08606","locality":"Tirpersdorf","municipality":{"key":"14523420","name":"Tirpersdorf","type":"Kreisangehörige_Gemeinde"},"district":{"key":"14523","name":"Vogtlandkreis","type":"Landkreis"},"federalState":{"key":"14","name":"Sachsen"}},{"name":"Wiesengrund","postalCode":"08606","locality":"Tirpersdorf","municipality":{"key":"14523420","name":"Tirpersdorf","type":"Kreisangehörige_Gemeinde"},"district":{"key":"14523","name":"Vogtlandkreis","type":"Landkreis"},"federalState":{"key":"14","name":"Sachsen"}},{"name":"Wiesenweg","postalCode":"08606","locality":"Tirpersdorf","municipality":{"key":"14523420","name":"Tirpersdorf","type":"Kreisangehörige_Gemeinde"},"district":{"key":"14523","name":"Vogtlandkreis","type":"Landkreis"},"federalState":{"key":"14","name":"Sachsen"}},{"name":"Zaulsdorfer Str.","postalCode":"08606","locality":"Tirpersdorf","municipality":{"key":"14523420","name":"Tirpersdorf","type":"Kreisangehörige_Gemeinde"},"district":{"key":"14523","name":"Vogtlandkreis","type":"Landkreis"},"federalState":{"key":"14","name":"Sachsen"}},{"name":"Zaulsdorfer Weg","postalCode":"08606","locality":"Tirpersdorf","municipality":{"key":"14523420","name":"Tirpersdorf","type":"Kreisangehörige_Gemeinde"},"district":{"key":"14523","name":"Vogtlandkreis","type":"Landkreis"},"federalState":{"key":"14","name":"Sachsen"}},]