[{"name":"Achalmstr.","postalCode":"72827","locality":"Wannweil","municipality":{"key":"08415080","name":"Wannweil","type":"Kreisangehörige_Gemeinde"},"district":{"key":"08415","name":"Reutlingen","type":"Landkreis"},"federalState":{"key":"08","name":"Baden-Württemberg"}},{"name":"Adam-Müller-Guttenbrunn-Str.","postalCode":"72827","locality":"Wannweil","municipality":{"key":"08415080","name":"Wannweil","type":"Kreisangehörige_Gemeinde"},"district":{"key":"08415","name":"Reutlingen","type":"Landkreis"},"federalState":{"key":"08","name":"Baden-Württemberg"}},{"name":"Albstr.","postalCode":"72827","locality":"Wannweil","municipality":{"key":"08415080","name":"Wannweil","type":"Kreisangehörige_Gemeinde"},"district":{"key":"08415","name":"Reutlingen","type":"Landkreis"},"federalState":{"key":"08","name":"Baden-Württemberg"}},{"name":"Auäckerstr.","postalCode":"72827","locality":"Wannweil","municipality":{"key":"08415080","name":"Wannweil","type":"Kreisangehörige_Gemeinde"},"district":{"key":"08415","name":"Reutlingen","type":"Landkreis"},"federalState":{"key":"08","name":"Baden-Württemberg"}},{"name":"Auf der Steinge","postalCode":"72827","locality":"Wannweil","municipality":{"key":"08415080","name":"Wannweil","type":"Kreisangehörige_Gemeinde"},"district":{"key":"08415","name":"Reutlingen","type":"Landkreis"},"federalState":{"key":"08","name":"Baden-Württemberg"}},{"name":"Bahnhofstr.","postalCode":"72827","locality":"Wannweil","municipality":{"key":"08415080","name":"Wannweil","type":"Kreisangehörige_Gemeinde"},"district":{"key":"08415","name":"Reutlingen","type":"Landkreis"},"federalState":{"key":"08","name":"Baden-Württemberg"}},{"name":"Baumgartenstr.","postalCode":"72827","locality":"Wannweil","municipality":{"key":"08415080","name":"Wannweil","type":"Kreisangehörige_Gemeinde"},"district":{"key":"08415","name":"Reutlingen","type":"Landkreis"},"federalState":{"key":"08","name":"Baden-Württemberg"}},{"name":"Blumenstr.","postalCode":"72827","locality":"Wannweil","municipality":{"key":"08415080","name":"Wannweil","type":"Kreisangehörige_Gemeinde"},"district":{"key":"08415","name":"Reutlingen","type":"Landkreis"},"federalState":{"key":"08","name":"Baden-Württemberg"}},{"name":"Brühlstr.","postalCode":"72827","locality":"Wannweil","municipality":{"key":"08415080","name":"Wannweil","type":"Kreisangehörige_Gemeinde"},"district":{"key":"08415","name":"Reutlingen","type":"Landkreis"},"federalState":{"key":"08","name":"Baden-Württemberg"}},{"name":"Brunnenstr.","postalCode":"72827","locality":"Wannweil","municipality":{"key":"08415080","name":"Wannweil","type":"Kreisangehörige_Gemeinde"},"district":{"key":"08415","name":"Reutlingen","type":"Landkreis"},"federalState":{"key":"08","name":"Baden-Württemberg"}},{"name":"Burgweg","postalCode":"72827","locality":"Wannweil","municipality":{"key":"08415080","name":"Wannweil","type":"Kreisangehörige_Gemeinde"},"district":{"key":"08415","name":"Reutlingen","type":"Landkreis"},"federalState":{"key":"08","name":"Baden-Württemberg"}},{"name":"Charlottenstr.","postalCode":"72827","locality":"Wannweil","municipality":{"key":"08415080","name":"Wannweil","type":"Kreisangehörige_Gemeinde"},"district":{"key":"08415","name":"Reutlingen","type":"Landkreis"},"federalState":{"key":"08","name":"Baden-Württemberg"}},{"name":"Degerschlachter Str.","postalCode":"72827","locality":"Wannweil","municipality":{"key":"08415080","name":"Wannweil","type":"Kreisangehörige_Gemeinde"},"district":{"key":"08415","name":"Reutlingen","type":"Landkreis"},"federalState":{"key":"08","name":"Baden-Württemberg"}},{"name":"Dorfstr.","postalCode":"72827","locality":"Wannweil","municipality":{"key":"08415080","name":"Wannweil","type":"Kreisangehörige_Gemeinde"},"district":{"key":"08415","name":"Reutlingen","type":"Landkreis"},"federalState":{"key":"08","name":"Baden-Württemberg"}},{"name":"Eberhardstr.","postalCode":"72827","locality":"Wannweil","municipality":{"key":"08415080","name":"Wannweil","type":"Kreisangehörige_Gemeinde"},"district":{"key":"08415","name":"Reutlingen","type":"Landkreis"},"federalState":{"key":"08","name":"Baden-Württemberg"}},{"name":"Echazstr.","postalCode":"72827","locality":"Wannweil","municipality":{"key":"08415080","name":"Wannweil","type":"Kreisangehörige_Gemeinde"},"district":{"key":"08415","name":"Reutlingen","type":"Landkreis"},"federalState":{"key":"08","name":"Baden-Württemberg"}},{"name":"Einfahrtstr.","postalCode":"72827","locality":"Wannweil","municipality":{"key":"08415080","name":"Wannweil","type":"Kreisangehörige_Gemeinde"},"district":{"key":"08415","name":"Reutlingen","type":"Landkreis"},"federalState":{"key":"08","name":"Baden-Württemberg"}},{"name":"Eisenbahnstr.","postalCode":"72827","locality":"Wannweil","municipality":{"key":"08415080","name":"Wannweil","type":"Kreisangehörige_Gemeinde"},"district":{"key":"08415","name":"Reutlingen","type":"Landkreis"},"federalState":{"key":"08","name":"Baden-Württemberg"}},{"name":"Eiwiesenweg","postalCode":"72827","locality":"Wannweil","municipality":{"key":"08415080","name":"Wannweil","type":"Kreisangehörige_Gemeinde"},"district":{"key":"08415","name":"Reutlingen","type":"Landkreis"},"federalState":{"key":"08","name":"Baden-Württemberg"}},{"name":"Eugen-Bolz-Str.","postalCode":"72827","locality":"Wannweil","municipality":{"key":"08415080","name":"Wannweil","type":"Kreisangehörige_Gemeinde"},"district":{"key":"08415","name":"Reutlingen","type":"Landkreis"},"federalState":{"key":"08","name":"Baden-Württemberg"}},{"name":"Fallenbachstr.","postalCode":"72827","locality":"Wannweil","municipality":{"key":"08415080","name":"Wannweil","type":"Kreisangehörige_Gemeinde"},"district":{"key":"08415","name":"Reutlingen","type":"Landkreis"},"federalState":{"key":"08","name":"Baden-Württemberg"}},{"name":"Fasanenweg","postalCode":"72827","locality":"Wannweil","municipality":{"key":"08415080","name":"Wannweil","type":"Kreisangehörige_Gemeinde"},"district":{"key":"08415","name":"Reutlingen","type":"Landkreis"},"federalState":{"key":"08","name":"Baden-Württemberg"}},{"name":"Firstbachstr.","postalCode":"72827","locality":"Wannweil","municipality":{"key":"08415080","name":"Wannweil","type":"Kreisangehörige_Gemeinde"},"district":{"key":"08415","name":"Reutlingen","type":"Landkreis"},"federalState":{"key":"08","name":"Baden-Württemberg"}},{"name":"Friedrich-List-Str.","postalCode":"72827","locality":"Wannweil","municipality":{"key":"08415080","name":"Wannweil","type":"Kreisangehörige_Gemeinde"},"district":{"key":"08415","name":"Reutlingen","type":"Landkreis"},"federalState":{"key":"08","name":"Baden-Württemberg"}},{"name":"Friedrichstr.","postalCode":"72827","locality":"Wannweil","municipality":{"key":"08415080","name":"Wannweil","type":"Kreisangehörige_Gemeinde"},"district":{"key":"08415","name":"Reutlingen","type":"Landkreis"},"federalState":{"key":"08","name":"Baden-Württemberg"}},{"name":"Gartenstr.","postalCode":"72827","locality":"Wannweil","municipality":{"key":"08415080","name":"Wannweil","type":"Kreisangehörige_Gemeinde"},"district":{"key":"08415","name":"Reutlingen","type":"Landkreis"},"federalState":{"key":"08","name":"Baden-Württemberg"}},{"name":"Georgstr.","postalCode":"72827","locality":"Wannweil","municipality":{"key":"08415080","name":"Wannweil","type":"Kreisangehörige_Gemeinde"},"district":{"key":"08415","name":"Reutlingen","type":"Landkreis"},"federalState":{"key":"08","name":"Baden-Württemberg"}},{"name":"Goethestr.","postalCode":"72827","locality":"Wannweil","municipality":{"key":"08415080","name":"Wannweil","type":"Kreisangehörige_Gemeinde"},"district":{"key":"08415","name":"Reutlingen","type":"Landkreis"},"federalState":{"key":"08","name":"Baden-Württemberg"}},{"name":"Gottlieb-Daimler-Str.","postalCode":"72827","locality":"Wannweil","municipality":{"key":"08415080","name":"Wannweil","type":"Kreisangehörige_Gemeinde"},"district":{"key":"08415","name":"Reutlingen","type":"Landkreis"},"federalState":{"key":"08","name":"Baden-Württemberg"}},{"name":"Grießstr.","postalCode":"72827","locality":"Wannweil","municipality":{"key":"08415080","name":"Wannweil","type":"Kreisangehörige_Gemeinde"},"district":{"key":"08415","name":"Reutlingen","type":"Landkreis"},"federalState":{"key":"08","name":"Baden-Württemberg"}},{"name":"Gustav-Werner-Str.","postalCode":"72827","locality":"Wannweil","municipality":{"key":"08415080","name":"Wannweil","type":"Kreisangehörige_Gemeinde"},"district":{"key":"08415","name":"Reutlingen","type":"Landkreis"},"federalState":{"key":"08","name":"Baden-Württemberg"}},{"name":"Hartmannstr.","postalCode":"72827","locality":"Wannweil","municipality":{"key":"08415080","name":"Wannweil","type":"Kreisangehörige_Gemeinde"},"district":{"key":"08415","name":"Reutlingen","type":"Landkreis"},"federalState":{"key":"08","name":"Baden-Württemberg"}},{"name":"Hauptstr.","postalCode":"72827","locality":"Wannweil","municipality":{"key":"08415080","name":"Wannweil","type":"Kreisangehörige_Gemeinde"},"district":{"key":"08415","name":"Reutlingen","type":"Landkreis"},"federalState":{"key":"08","name":"Baden-Württemberg"}},{"name":"Hinterer Haldenweg","postalCode":"72827","locality":"Wannweil","municipality":{"key":"08415080","name":"Wannweil","type":"Kreisangehörige_Gemeinde"},"district":{"key":"08415","name":"Reutlingen","type":"Landkreis"},"federalState":{"key":"08","name":"Baden-Württemberg"}},{"name":"Hummelbergweg","postalCode":"72827","locality":"Wannweil","municipality":{"key":"08415080","name":"Wannweil","type":"Kreisangehörige_Gemeinde"},"district":{"key":"08415","name":"Reutlingen","type":"Landkreis"},"federalState":{"key":"08","name":"Baden-Württemberg"}},{"name":"Im Hegis","postalCode":"72827","locality":"Wannweil","municipality":{"key":"08415080","name":"Wannweil","type":"Kreisangehörige_Gemeinde"},"district":{"key":"08415","name":"Reutlingen","type":"Landkreis"},"federalState":{"key":"08","name":"Baden-Württemberg"}},{"name":"Im Vogelsang","postalCode":"72827","locality":"Wannweil","municipality":{"key":"08415080","name":"Wannweil","type":"Kreisangehörige_Gemeinde"},"district":{"key":"08415","name":"Reutlingen","type":"Landkreis"},"federalState":{"key":"08","name":"Baden-Württemberg"}},{"name":"Im Wartwasen","postalCode":"72827","locality":"Wannweil","municipality":{"key":"08415080","name":"Wannweil","type":"Kreisangehörige_Gemeinde"},"district":{"key":"08415","name":"Reutlingen","type":"Landkreis"},"federalState":{"key":"08","name":"Baden-Württemberg"}},{"name":"Im Wiesengrund","postalCode":"72827","locality":"Wannweil","municipality":{"key":"08415080","name":"Wannweil","type":"Kreisangehörige_Gemeinde"},"district":{"key":"08415","name":"Reutlingen","type":"Landkreis"},"federalState":{"key":"08","name":"Baden-Württemberg"}},{"name":"In den Klingwiesen","postalCode":"72827","locality":"Wannweil","municipality":{"key":"08415080","name":"Wannweil","type":"Kreisangehörige_Gemeinde"},"district":{"key":"08415","name":"Reutlingen","type":"Landkreis"},"federalState":{"key":"08","name":"Baden-Württemberg"}},{"name":"In der Au","postalCode":"72827","locality":"Wannweil","municipality":{"key":"08415080","name":"Wannweil","type":"Kreisangehörige_Gemeinde"},"district":{"key":"08415","name":"Reutlingen","type":"Landkreis"},"federalState":{"key":"08","name":"Baden-Württemberg"}},{"name":"In der Schnitzerin","postalCode":"72827","locality":"Wannweil","municipality":{"key":"08415080","name":"Wannweil","type":"Kreisangehörige_Gemeinde"},"district":{"key":"08415","name":"Reutlingen","type":"Landkreis"},"federalState":{"key":"08","name":"Baden-Württemberg"}},{"name":"Inselweg","postalCode":"72827","locality":"Wannweil","municipality":{"key":"08415080","name":"Wannweil","type":"Kreisangehörige_Gemeinde"},"district":{"key":"08415","name":"Reutlingen","type":"Landkreis"},"federalState":{"key":"08","name":"Baden-Württemberg"}},{"name":"Jägerstr.","postalCode":"72827","locality":"Wannweil","municipality":{"key":"08415080","name":"Wannweil","type":"Kreisangehörige_Gemeinde"},"district":{"key":"08415","name":"Reutlingen","type":"Landkreis"},"federalState":{"key":"08","name":"Baden-Württemberg"}},{"name":"Jahnstr.","postalCode":"72827","locality":"Wannweil","municipality":{"key":"08415080","name":"Wannweil","type":"Kreisangehörige_Gemeinde"},"district":{"key":"08415","name":"Reutlingen","type":"Landkreis"},"federalState":{"key":"08","name":"Baden-Württemberg"}},{"name":"Jakobstr.","postalCode":"72827","locality":"Wannweil","municipality":{"key":"08415080","name":"Wannweil","type":"Kreisangehörige_Gemeinde"},"district":{"key":"08415","name":"Reutlingen","type":"Landkreis"},"federalState":{"key":"08","name":"Baden-Württemberg"}},{"name":"Jettenburger Str.","postalCode":"72827","locality":"Wannweil","municipality":{"key":"08415080","name":"Wannweil","type":"Kreisangehörige_Gemeinde"},"district":{"key":"08415","name":"Reutlingen","type":"Landkreis"},"federalState":{"key":"08","name":"Baden-Württemberg"}},{"name":"Johannes-Fischer-Str.","postalCode":"72827","locality":"Wannweil","municipality":{"key":"08415080","name":"Wannweil","type":"Kreisangehörige_Gemeinde"},"district":{"key":"08415","name":"Reutlingen","type":"Landkreis"},"federalState":{"key":"08","name":"Baden-Württemberg"}},{"name":"Johannesstr.","postalCode":"72827","locality":"Wannweil","municipality":{"key":"08415080","name":"Wannweil","type":"Kreisangehörige_Gemeinde"},"district":{"key":"08415","name":"Reutlingen","type":"Landkreis"},"federalState":{"key":"08","name":"Baden-Württemberg"}},{"name":"Karl-Conzelmann-Str.","postalCode":"72827","locality":"Wannweil","municipality":{"key":"08415080","name":"Wannweil","type":"Kreisangehörige_Gemeinde"},"district":{"key":"08415","name":"Reutlingen","type":"Landkreis"},"federalState":{"key":"08","name":"Baden-Württemberg"}},{"name":"Karlstr.","postalCode":"72827","locality":"Wannweil","municipality":{"key":"08415080","name":"Wannweil","type":"Kreisangehörige_Gemeinde"},"district":{"key":"08415","name":"Reutlingen","type":"Landkreis"},"federalState":{"key":"08","name":"Baden-Württemberg"}},{"name":"Katharinenstr.","postalCode":"72827","locality":"Wannweil","municipality":{"key":"08415080","name":"Wannweil","type":"Kreisangehörige_Gemeinde"},"district":{"key":"08415","name":"Reutlingen","type":"Landkreis"},"federalState":{"key":"08","name":"Baden-Württemberg"}},{"name":"Kirchentellinsfurter Str.","postalCode":"72827","locality":"Wannweil","municipality":{"key":"08415080","name":"Wannweil","type":"Kreisangehörige_Gemeinde"},"district":{"key":"08415","name":"Reutlingen","type":"Landkreis"},"federalState":{"key":"08","name":"Baden-Württemberg"}},{"name":"Klinghaldeweg","postalCode":"72827","locality":"Wannweil","municipality":{"key":"08415080","name":"Wannweil","type":"Kreisangehörige_Gemeinde"},"district":{"key":"08415","name":"Reutlingen","type":"Landkreis"},"federalState":{"key":"08","name":"Baden-Württemberg"}},{"name":"Kusterdinger Str.","postalCode":"72827","locality":"Wannweil","municipality":{"key":"08415080","name":"Wannweil","type":"Kreisangehörige_Gemeinde"},"district":{"key":"08415","name":"Reutlingen","type":"Landkreis"},"federalState":{"key":"08","name":"Baden-Württemberg"}},{"name":"Lachenäcker","postalCode":"72827","locality":"Wannweil","municipality":{"key":"08415080","name":"Wannweil","type":"Kreisangehörige_Gemeinde"},"district":{"key":"08415","name":"Reutlingen","type":"Landkreis"},"federalState":{"key":"08","name":"Baden-Württemberg"}},{"name":"Lenaustr.","postalCode":"72827","locality":"Wannweil","municipality":{"key":"08415080","name":"Wannweil","type":"Kreisangehörige_Gemeinde"},"district":{"key":"08415","name":"Reutlingen","type":"Landkreis"},"federalState":{"key":"08","name":"Baden-Württemberg"}},{"name":"Lerchenweg","postalCode":"72827","locality":"Wannweil","municipality":{"key":"08415080","name":"Wannweil","type":"Kreisangehörige_Gemeinde"},"district":{"key":"08415","name":"Reutlingen","type":"Landkreis"},"federalState":{"key":"08","name":"Baden-Württemberg"}},{"name":"Lindenhof","postalCode":"72827","locality":"Wannweil","municipality":{"key":"08415080","name":"Wannweil","type":"Kreisangehörige_Gemeinde"},"district":{"key":"08415","name":"Reutlingen","type":"Landkreis"},"federalState":{"key":"08","name":"Baden-Württemberg"}},{"name":"Lindenstr.","postalCode":"72827","locality":"Wannweil","municipality":{"key":"08415080","name":"Wannweil","type":"Kreisangehörige_Gemeinde"},"district":{"key":"08415","name":"Reutlingen","type":"Landkreis"},"federalState":{"key":"08","name":"Baden-Württemberg"}},{"name":"Marienstr.","postalCode":"72827","locality":"Wannweil","municipality":{"key":"08415080","name":"Wannweil","type":"Kreisangehörige_Gemeinde"},"district":{"key":"08415","name":"Reutlingen","type":"Landkreis"},"federalState":{"key":"08","name":"Baden-Württemberg"}},{"name":"Mozartstr.","postalCode":"72827","locality":"Wannweil","municipality":{"key":"08415080","name":"Wannweil","type":"Kreisangehörige_Gemeinde"},"district":{"key":"08415","name":"Reutlingen","type":"Landkreis"},"federalState":{"key":"08","name":"Baden-Württemberg"}},{"name":"Nelkenstr.","postalCode":"72827","locality":"Wannweil","municipality":{"key":"08415080","name":"Wannweil","type":"Kreisangehörige_Gemeinde"},"district":{"key":"08415","name":"Reutlingen","type":"Landkreis"},"federalState":{"key":"08","name":"Baden-Württemberg"}},{"name":"Neuffenstr.","postalCode":"72827","locality":"Wannweil","municipality":{"key":"08415080","name":"Wannweil","type":"Kreisangehörige_Gemeinde"},"district":{"key":"08415","name":"Reutlingen","type":"Landkreis"},"federalState":{"key":"08","name":"Baden-Württemberg"}},{"name":"Oberer Haldenweg","postalCode":"72827","locality":"Wannweil","municipality":{"key":"08415080","name":"Wannweil","type":"Kreisangehörige_Gemeinde"},"district":{"key":"08415","name":"Reutlingen","type":"Landkreis"},"federalState":{"key":"08","name":"Baden-Württemberg"}},{"name":"Oberer Mühlweg","postalCode":"72827","locality":"Wannweil","municipality":{"key":"08415080","name":"Wannweil","type":"Kreisangehörige_Gemeinde"},"district":{"key":"08415","name":"Reutlingen","type":"Landkreis"},"federalState":{"key":"08","name":"Baden-Württemberg"}},{"name":"Ochsengäßle","postalCode":"72827","locality":"Wannweil","municipality":{"key":"08415080","name":"Wannweil","type":"Kreisangehörige_Gemeinde"},"district":{"key":"08415","name":"Reutlingen","type":"Landkreis"},"federalState":{"key":"08","name":"Baden-Württemberg"}},{"name":"Olgastr.","postalCode":"72827","locality":"Wannweil","municipality":{"key":"08415080","name":"Wannweil","type":"Kreisangehörige_Gemeinde"},"district":{"key":"08415","name":"Reutlingen","type":"Landkreis"},"federalState":{"key":"08","name":"Baden-Württemberg"}},{"name":"Panoramastr.","postalCode":"72827","locality":"Wannweil","municipality":{"key":"08415080","name":"Wannweil","type":"Kreisangehörige_Gemeinde"},"district":{"key":"08415","name":"Reutlingen","type":"Landkreis"},"federalState":{"key":"08","name":"Baden-Württemberg"}},{"name":"Pfaffenäckerweg","postalCode":"72827","locality":"Wannweil","municipality":{"key":"08415080","name":"Wannweil","type":"Kreisangehörige_Gemeinde"},"district":{"key":"08415","name":"Reutlingen","type":"Landkreis"},"federalState":{"key":"08","name":"Baden-Württemberg"}},{"name":"Quellenstr.","postalCode":"72770","locality":"Reutlingen","municipality":{"key":"08415061","name":"Reutlingen, Stadt","type":"Große_Kreisstadt"},"district":{"key":"08415","name":"Reutlingen","type":"Landkreis"},"federalState":{"key":"08","name":"Baden-Württemberg"}},{"name":"Richard-Burkhardt-Str.","postalCode":"72827","locality":"Wannweil","municipality":{"key":"08415080","name":"Wannweil","type":"Kreisangehörige_Gemeinde"},"district":{"key":"08415","name":"Reutlingen","type":"Landkreis"},"federalState":{"key":"08","name":"Baden-Württemberg"}},{"name":"Robert-Bosch-Str.","postalCode":"72827","locality":"Wannweil","municipality":{"key":"08415080","name":"Wannweil","type":"Kreisangehörige_Gemeinde"},"district":{"key":"08415","name":"Reutlingen","type":"Landkreis"},"federalState":{"key":"08","name":"Baden-Württemberg"}},{"name":"Römerweg","postalCode":"72827","locality":"Wannweil","municipality":{"key":"08415080","name":"Wannweil","type":"Kreisangehörige_Gemeinde"},"district":{"key":"08415","name":"Reutlingen","type":"Landkreis"},"federalState":{"key":"08","name":"Baden-Württemberg"}},{"name":"Rosenstr.","postalCode":"72827","locality":"Wannweil","municipality":{"key":"08415080","name":"Wannweil","type":"Kreisangehörige_Gemeinde"},"district":{"key":"08415","name":"Reutlingen","type":"Landkreis"},"federalState":{"key":"08","name":"Baden-Württemberg"}},{"name":"Roßbergstr.","postalCode":"72827","locality":"Wannweil","municipality":{"key":"08415080","name":"Wannweil","type":"Kreisangehörige_Gemeinde"},"district":{"key":"08415","name":"Reutlingen","type":"Landkreis"},"federalState":{"key":"08","name":"Baden-Württemberg"}},{"name":"Saarstr.","postalCode":"72827","locality":"Wannweil","municipality":{"key":"08415080","name":"Wannweil","type":"Kreisangehörige_Gemeinde"},"district":{"key":"08415","name":"Reutlingen","type":"Landkreis"},"federalState":{"key":"08","name":"Baden-Württemberg"}},{"name":"Sackelhauser Str.","postalCode":"72827","locality":"Wannweil","municipality":{"key":"08415080","name":"Wannweil","type":"Kreisangehörige_Gemeinde"},"district":{"key":"08415","name":"Reutlingen","type":"Landkreis"},"federalState":{"key":"08","name":"Baden-Württemberg"}},{"name":"Schafstallweg","postalCode":"72827","locality":"Wannweil","municipality":{"key":"08415080","name":"Wannweil","type":"Kreisangehörige_Gemeinde"},"district":{"key":"08415","name":"Reutlingen","type":"Landkreis"},"federalState":{"key":"08","name":"Baden-Württemberg"}},{"name":"Schillerstr.","postalCode":"72827","locality":"Wannweil","municipality":{"key":"08415080","name":"Wannweil","type":"Kreisangehörige_Gemeinde"},"district":{"key":"08415","name":"Reutlingen","type":"Landkreis"},"federalState":{"key":"08","name":"Baden-Württemberg"}},{"name":"Schloßstr.","postalCode":"72827","locality":"Wannweil","municipality":{"key":"08415080","name":"Wannweil","type":"Kreisangehörige_Gemeinde"},"district":{"key":"08415","name":"Reutlingen","type":"Landkreis"},"federalState":{"key":"08","name":"Baden-Württemberg"}},{"name":"Schönblickstr.","postalCode":"72827","locality":"Wannweil","municipality":{"key":"08415080","name":"Wannweil","type":"Kreisangehörige_Gemeinde"},"district":{"key":"08415","name":"Reutlingen","type":"Landkreis"},"federalState":{"key":"08","name":"Baden-Württemberg"}},{"name":"Schulstr.","postalCode":"72827","locality":"Wannweil","municipality":{"key":"08415080","name":"Wannweil","type":"Kreisangehörige_Gemeinde"},"district":{"key":"08415","name":"Reutlingen","type":"Landkreis"},"federalState":{"key":"08","name":"Baden-Württemberg"}},{"name":"Silcherweg","postalCode":"72827","locality":"Wannweil","municipality":{"key":"08415080","name":"Wannweil","type":"Kreisangehörige_Gemeinde"},"district":{"key":"08415","name":"Reutlingen","type":"Landkreis"},"federalState":{"key":"08","name":"Baden-Württemberg"}},{"name":"Steinbruckweg","postalCode":"72827","locality":"Wannweil","municipality":{"key":"08415080","name":"Wannweil","type":"Kreisangehörige_Gemeinde"},"district":{"key":"08415","name":"Reutlingen","type":"Landkreis"},"federalState":{"key":"08","name":"Baden-Württemberg"}},{"name":"Stockachweg","postalCode":"72827","locality":"Wannweil","municipality":{"key":"08415080","name":"Wannweil","type":"Kreisangehörige_Gemeinde"},"district":{"key":"08415","name":"Reutlingen","type":"Landkreis"},"federalState":{"key":"08","name":"Baden-Württemberg"}},{"name":"Tulpenstr.","postalCode":"72827","locality":"Wannweil","municipality":{"key":"08415080","name":"Wannweil","type":"Kreisangehörige_Gemeinde"},"district":{"key":"08415","name":"Reutlingen","type":"Landkreis"},"federalState":{"key":"08","name":"Baden-Württemberg"}},{"name":"Uhlandstr.","postalCode":"72827","locality":"Wannweil","municipality":{"key":"08415080","name":"Wannweil","type":"Kreisangehörige_Gemeinde"},"district":{"key":"08415","name":"Reutlingen","type":"Landkreis"},"federalState":{"key":"08","name":"Baden-Württemberg"}},{"name":"Unterer Haldenweg","postalCode":"72827","locality":"Wannweil","municipality":{"key":"08415080","name":"Wannweil","type":"Kreisangehörige_Gemeinde"},"district":{"key":"08415","name":"Reutlingen","type":"Landkreis"},"federalState":{"key":"08","name":"Baden-Württemberg"}},{"name":"Unterer Mühlweg","postalCode":"72827","locality":"Wannweil","municipality":{"key":"08415080","name":"Wannweil","type":"Kreisangehörige_Gemeinde"},"district":{"key":"08415","name":"Reutlingen","type":"Landkreis"},"federalState":{"key":"08","name":"Baden-Württemberg"}},{"name":"Veilchenweg","postalCode":"72764","locality":"Reutlingen","municipality":{"key":"08415061","name":"Reutlingen, Stadt","type":"Große_Kreisstadt"},"district":{"key":"08415","name":"Reutlingen","type":"Landkreis"},"federalState":{"key":"08","name":"Baden-Württemberg"}},{"name":"Veit-Stoß-Str.","postalCode":"72768","locality":"Reutlingen","municipality":{"key":"08415061","name":"Reutlingen, Stadt","type":"Große_Kreisstadt"},"district":{"key":"08415","name":"Reutlingen","type":"Landkreis"},"federalState":{"key":"08","name":"Baden-Württemberg"}},{"name":"Verbindungsweg","postalCode":"72770","locality":"Reutlingen","municipality":{"key":"08415061","name":"Reutlingen, Stadt","type":"Große_Kreisstadt"},"district":{"key":"08415","name":"Reutlingen","type":"Landkreis"},"federalState":{"key":"08","name":"Baden-Württemberg"}},{"name":"Verdistr.","postalCode":"72768","locality":"Reutlingen","municipality":{"key":"08415061","name":"Reutlingen, Stadt","type":"Große_Kreisstadt"},"district":{"key":"08415","name":"Reutlingen","type":"Landkreis"},"federalState":{"key":"08","name":"Baden-Württemberg"}},{"name":"Vier Länder","postalCode":"72768","locality":"Reutlingen","municipality":{"key":"08415061","name":"Reutlingen, Stadt","type":"Große_Kreisstadt"},"district":{"key":"08415","name":"Reutlingen","type":"Landkreis"},"federalState":{"key":"08","name":"Baden-Württemberg"}},{"name":"Villastr.","postalCode":"72770","locality":"Reutlingen","municipality":{"key":"08415061","name":"Reutlingen, Stadt","type":"Große_Kreisstadt"},"district":{"key":"08415","name":"Reutlingen","type":"Landkreis"},"federalState":{"key":"08","name":"Baden-Württemberg"}},{"name":"Vischerstr.","postalCode":"72764","locality":"Reutlingen","municipality":{"key":"08415061","name":"Reutlingen, Stadt","type":"Große_Kreisstadt"},"district":{"key":"08415","name":"Reutlingen","type":"Landkreis"},"federalState":{"key":"08","name":"Baden-Württemberg"}},{"name":"Vochezenholzstr.","postalCode":"72762","locality":"Reutlingen","municipality":{"key":"08415061","name":"Reutlingen, Stadt","type":"Große_Kreisstadt"},"district":{"key":"08415","name":"Reutlingen","type":"Landkreis"},"federalState":{"key":"08","name":"Baden-Württemberg"}},{"name":"Vogelsangstr.","postalCode":"72770","locality":"Reutlingen","municipality":{"key":"08415061","name":"Reutlingen, Stadt","type":"Große_Kreisstadt"},"district":{"key":"08415","name":"Reutlingen","type":"Landkreis"},"federalState":{"key":"08","name":"Baden-Württemberg"}},{"name":"Vogelsbergstr.","postalCode":"72766","locality":"Reutlingen","municipality":{"key":"08415061","name":"Reutlingen, Stadt","type":"Große_Kreisstadt"},"district":{"key":"08415","name":"Reutlingen","type":"Landkreis"},"federalState":{"key":"08","name":"Baden-Württemberg"}},{"name":"Volker-Ammann-Weg","postalCode":"72770","locality":"Reutlingen","municipality":{"key":"08415061","name":"Reutlingen, Stadt","type":"Große_Kreisstadt"},"district":{"key":"08415","name":"Reutlingen","type":"Landkreis"},"federalState":{"key":"08","name":"Baden-Württemberg"}},{"name":"Volkspark","postalCode":"72762","locality":"Reutlingen","municipality":{"key":"08415061","name":"Reutlingen, Stadt","type":"Große_Kreisstadt"},"district":{"key":"08415","name":"Reutlingen","type":"Landkreis"},"federalState":{"key":"08","name":"Baden-Württemberg"}},{"name":"Vorderer Schönrain","postalCode":"72766","locality":"Reutlingen","municipality":{"key":"08415061","name":"Reutlingen, Stadt","type":"Große_Kreisstadt"},"district":{"key":"08415","name":"Reutlingen","type":"Landkreis"},"federalState":{"key":"08","name":"Baden-Württemberg"}},{"name":"Waldrandstr.","postalCode":"72827","locality":"Wannweil","municipality":{"key":"08415080","name":"Wannweil","type":"Kreisangehörige_Gemeinde"},"district":{"key":"08415","name":"Reutlingen","type":"Landkreis"},"federalState":{"key":"08","name":"Baden-Württemberg"}},{"name":"Waldstr.","postalCode":"72827","locality":"Wannweil","municipality":{"key":"08415080","name":"Wannweil","type":"Kreisangehörige_Gemeinde"},"district":{"key":"08415","name":"Reutlingen","type":"Landkreis"},"federalState":{"key":"08","name":"Baden-Württemberg"}},{"name":"Weilhau","postalCode":"72827","locality":"Wannweil","municipality":{"key":"08415080","name":"Wannweil","type":"Kreisangehörige_Gemeinde"},"district":{"key":"08415","name":"Reutlingen","type":"Landkreis"},"federalState":{"key":"08","name":"Baden-Württemberg"}},{"name":"Weinbergweg","postalCode":"72827","locality":"Wannweil","municipality":{"key":"08415080","name":"Wannweil","type":"Kreisangehörige_Gemeinde"},"district":{"key":"08415","name":"Reutlingen","type":"Landkreis"},"federalState":{"key":"08","name":"Baden-Württemberg"}},{"name":"Wengenäckerstr.","postalCode":"72827","locality":"Wannweil","municipality":{"key":"08415080","name":"Wannweil","type":"Kreisangehörige_Gemeinde"},"district":{"key":"08415","name":"Reutlingen","type":"Landkreis"},"federalState":{"key":"08","name":"Baden-Württemberg"}},{"name":"Wilhelmstr.","postalCode":"72827","locality":"Wannweil","municipality":{"key":"08415080","name":"Wannweil","type":"Kreisangehörige_Gemeinde"},"district":{"key":"08415","name":"Reutlingen","type":"Landkreis"},"federalState":{"key":"08","name":"Baden-Württemberg"}},{"name":"Zeppelinstr.","postalCode":"72827","locality":"Wannweil","municipality":{"key":"08415080","name":"Wannweil","type":"Kreisangehörige_Gemeinde"},"district":{"key":"08415","name":"Reutlingen","type":"Landkreis"},"federalState":{"key":"08","name":"Baden-Württemberg"}},{"name":"Äußere Kelterstr.","postalCode":"72764","locality":"Reutlingen","municipality":{"key":"08415061","name":"Reutlingen, Stadt","type":"Große_Kreisstadt"},"district":{"key":"08415","name":"Reutlingen","type":"Landkreis"},"federalState":{"key":"08","name":"Baden-Württemberg"}},{"name":"Öläckerweg","postalCode":"72770","locality":"Reutlingen","municipality":{"key":"08415061","name":"Reutlingen, Stadt","type":"Große_Kreisstadt"},"district":{"key":"08415","name":"Reutlingen","type":"Landkreis"},"federalState":{"key":"08","name":"Baden-Württemberg"}},{"name":"Öschbergweg","postalCode":"72766","locality":"Reutlingen","municipality":{"key":"08415061","name":"Reutlingen, Stadt","type":"Große_Kreisstadt"},"district":{"key":"08415","name":"Reutlingen","type":"Landkreis"},"federalState":{"key":"08","name":"Baden-Württemberg"}},{"name":"Öschinger Str.","postalCode":"72770","locality":"Reutlingen","municipality":{"key":"08415061","name":"Reutlingen, Stadt","type":"Große_Kreisstadt"},"district":{"key":"08415","name":"Reutlingen","type":"Landkreis"},"federalState":{"key":"08","name":"Baden-Württemberg"}},{"name":"Über den Halden","postalCode":"72768","locality":"Reutlingen","municipality":{"key":"08415061","name":"Reutlingen, Stadt","type":"Große_Kreisstadt"},"district":{"key":"08415","name":"Reutlingen","type":"Landkreis"},"federalState":{"key":"08","name":"Baden-Württemberg"}},{"name":"Überm Neckar","postalCode":"72768","locality":"Reutlingen","municipality":{"key":"08415061","name":"Reutlingen, Stadt","type":"Große_Kreisstadt"},"district":{"key":"08415","name":"Reutlingen","type":"Landkreis"},"federalState":{"key":"08","name":"Baden-Württemberg"}},]