[{"name":"Alter Schulweg","postalCode":"24641","locality":"Stuvenborn","municipality":{"key":"01060084","name":"Stuvenborn","type":"Kreisangehörige_Gemeinde"},"district":{"key":"01060","name":"Segeberg","type":"Kreis"},"federalState":{"key":"01","name":"Schleswig-Holstein"}},{"name":"Am Dorfplatz","postalCode":"24641","locality":"Stuvenborn","municipality":{"key":"01060084","name":"Stuvenborn","type":"Kreisangehörige_Gemeinde"},"district":{"key":"01060","name":"Segeberg","type":"Kreis"},"federalState":{"key":"01","name":"Schleswig-Holstein"}},{"name":"Am Kamp","postalCode":"24641","locality":"Stuvenborn","municipality":{"key":"01060084","name":"Stuvenborn","type":"Kreisangehörige_Gemeinde"},"district":{"key":"01060","name":"Segeberg","type":"Kreis"},"federalState":{"key":"01","name":"Schleswig-Holstein"}},{"name":"Am Sportfeld","postalCode":"24641","locality":"Stuvenborn","municipality":{"key":"01060084","name":"Stuvenborn","type":"Kreisangehörige_Gemeinde"},"district":{"key":"01060","name":"Segeberg","type":"Kreis"},"federalState":{"key":"01","name":"Schleswig-Holstein"}},{"name":"Beek","postalCode":"24641","locality":"Stuvenborn","municipality":{"key":"01060084","name":"Stuvenborn","type":"Kreisangehörige_Gemeinde"},"district":{"key":"01060","name":"Segeberg","type":"Kreis"},"federalState":{"key":"01","name":"Schleswig-Holstein"}},{"name":"Bollweg","postalCode":"24641","locality":"Stuvenborn","municipality":{"key":"01060084","name":"Stuvenborn","type":"Kreisangehörige_Gemeinde"},"district":{"key":"01060","name":"Segeberg","type":"Kreis"},"federalState":{"key":"01","name":"Schleswig-Holstein"}},{"name":"Brook","postalCode":"24641","locality":"Stuvenborn","municipality":{"key":"01060084","name":"Stuvenborn","type":"Kreisangehörige_Gemeinde"},"district":{"key":"01060","name":"Segeberg","type":"Kreis"},"federalState":{"key":"01","name":"Schleswig-Holstein"}},{"name":"Bürgermeister-Pohlmann-Str.","postalCode":"24641","locality":"Stuvenborn","municipality":{"key":"01060084","name":"Stuvenborn","type":"Kreisangehörige_Gemeinde"},"district":{"key":"01060","name":"Segeberg","type":"Kreis"},"federalState":{"key":"01","name":"Schleswig-Holstein"}},{"name":"Carl-Stämmler-Weg","postalCode":"23795","locality":"Bad Segeberg","municipality":{"key":"01060005","name":"Bad Segeberg, Stadt","type":"Stadt"},"district":{"key":"01060","name":"Segeberg","type":"Kreis"},"federalState":{"key":"01","name":"Schleswig-Holstein"}},{"name":"Christian-Rohlfs-Str.","postalCode":"23795","locality":"Bad Segeberg","municipality":{"key":"01060005","name":"Bad Segeberg, Stadt","type":"Stadt"},"district":{"key":"01060","name":"Segeberg","type":"Kreis"},"federalState":{"key":"01","name":"Schleswig-Holstein"}},{"name":"Christiansfelde","postalCode":"23795","locality":"Bad Segeberg","municipality":{"key":"01060005","name":"Bad Segeberg, Stadt","type":"Stadt"},"district":{"key":"01060","name":"Segeberg","type":"Kreis"},"federalState":{"key":"01","name":"Schleswig-Holstein"}},{"name":"David-Kropff-Weg","postalCode":"23795","locality":"Bad Segeberg","municipality":{"key":"01060005","name":"Bad Segeberg, Stadt","type":"Stadt"},"district":{"key":"01060","name":"Segeberg","type":"Kreis"},"federalState":{"key":"01","name":"Schleswig-Holstein"}},{"name":"Doktor-Helmut-Lemke-Str.","postalCode":"23795","locality":"Bad Segeberg","municipality":{"key":"01060005","name":"Bad Segeberg, Stadt","type":"Stadt"},"district":{"key":"01060","name":"Segeberg","type":"Kreis"},"federalState":{"key":"01","name":"Schleswig-Holstein"}},{"name":"Dorfstr.","postalCode":"23795","locality":"Bad Segeberg","municipality":{"key":"01060005","name":"Bad Segeberg, Stadt","type":"Stadt"},"district":{"key":"01060","name":"Segeberg","type":"Kreis"},"federalState":{"key":"01","name":"Schleswig-Holstein"}},{"name":"Drosselweg","postalCode":"23795","locality":"Bad Segeberg","municipality":{"key":"01060005","name":"Bad Segeberg, Stadt","type":"Stadt"},"district":{"key":"01060","name":"Segeberg","type":"Kreis"},"federalState":{"key":"01","name":"Schleswig-Holstein"}},{"name":"Eibenweg","postalCode":"24641","locality":"Stuvenborn","municipality":{"key":"01060084","name":"Stuvenborn","type":"Kreisangehörige_Gemeinde"},"district":{"key":"01060","name":"Segeberg","type":"Kreis"},"federalState":{"key":"01","name":"Schleswig-Holstein"}},{"name":"Falkenburger Str.","postalCode":"23795","locality":"Bad Segeberg","municipality":{"key":"01060005","name":"Bad Segeberg, Stadt","type":"Stadt"},"district":{"key":"01060","name":"Segeberg","type":"Kreis"},"federalState":{"key":"01","name":"Schleswig-Holstein"}},{"name":"Fehrsweg","postalCode":"23795","locality":"Bad Segeberg","municipality":{"key":"01060005","name":"Bad Segeberg, Stadt","type":"Stadt"},"district":{"key":"01060","name":"Segeberg","type":"Kreis"},"federalState":{"key":"01","name":"Schleswig-Holstein"}},{"name":"Feldstr.","postalCode":"23795","locality":"Bad Segeberg","municipality":{"key":"01060005","name":"Bad Segeberg, Stadt","type":"Stadt"},"district":{"key":"01060","name":"Segeberg","type":"Kreis"},"federalState":{"key":"01","name":"Schleswig-Holstein"}},{"name":"Fliederweg","postalCode":"23795","locality":"Bad Segeberg","municipality":{"key":"01060005","name":"Bad Segeberg, Stadt","type":"Stadt"},"district":{"key":"01060","name":"Segeberg","type":"Kreis"},"federalState":{"key":"01","name":"Schleswig-Holstein"}},{"name":"Fritz-Reuter-Weg","postalCode":"23795","locality":"Bad Segeberg","municipality":{"key":"01060005","name":"Bad Segeberg, Stadt","type":"Stadt"},"district":{"key":"01060","name":"Segeberg","type":"Kreis"},"federalState":{"key":"01","name":"Schleswig-Holstein"}},{"name":"Gänsekamp","postalCode":"23795","locality":"Bad Segeberg","municipality":{"key":"01060005","name":"Bad Segeberg, Stadt","type":"Stadt"},"district":{"key":"01060","name":"Segeberg","type":"Kreis"},"federalState":{"key":"01","name":"Schleswig-Holstein"}},{"name":"Gartenstr.","postalCode":"23795","locality":"Bad Segeberg","municipality":{"key":"01060005","name":"Bad Segeberg, Stadt","type":"Stadt"},"district":{"key":"01060","name":"Segeberg","type":"Kreis"},"federalState":{"key":"01","name":"Schleswig-Holstein"}},{"name":"Geschwister-Scholl-Str.","postalCode":"23795","locality":"Bad Segeberg","municipality":{"key":"01060005","name":"Bad Segeberg, Stadt","type":"Stadt"},"district":{"key":"01060","name":"Segeberg","type":"Kreis"},"federalState":{"key":"01","name":"Schleswig-Holstein"}},{"name":"Gieschenhagen","postalCode":"23795","locality":"Bad Segeberg","municipality":{"key":"01060005","name":"Bad Segeberg, Stadt","type":"Stadt"},"district":{"key":"01060","name":"Segeberg","type":"Kreis"},"federalState":{"key":"01","name":"Schleswig-Holstein"}},{"name":"Gieselkamp","postalCode":"23795","locality":"Bad Segeberg","municipality":{"key":"01060005","name":"Bad Segeberg, Stadt","type":"Stadt"},"district":{"key":"01060","name":"Segeberg","type":"Kreis"},"federalState":{"key":"01","name":"Schleswig-Holstein"}},{"name":"Ginsterweg","postalCode":"23795","locality":"Bad Segeberg","municipality":{"key":"01060005","name":"Bad Segeberg, Stadt","type":"Stadt"},"district":{"key":"01060","name":"Segeberg","type":"Kreis"},"federalState":{"key":"01","name":"Schleswig-Holstein"}},{"name":"Glindenberg","postalCode":"23795","locality":"Bad Segeberg","municipality":{"key":"01060005","name":"Bad Segeberg, Stadt","type":"Stadt"},"district":{"key":"01060","name":"Segeberg","type":"Kreis"},"federalState":{"key":"01","name":"Schleswig-Holstein"}},{"name":"Graf-Gerhard-Str.","postalCode":"23795","locality":"Bad Segeberg","municipality":{"key":"01060005","name":"Bad Segeberg, Stadt","type":"Stadt"},"district":{"key":"01060","name":"Segeberg","type":"Kreis"},"federalState":{"key":"01","name":"Schleswig-Holstein"}},{"name":"Große Seestr.","postalCode":"23795","locality":"Bad Segeberg","municipality":{"key":"01060005","name":"Bad Segeberg, Stadt","type":"Stadt"},"district":{"key":"01060","name":"Segeberg","type":"Kreis"},"federalState":{"key":"01","name":"Schleswig-Holstein"}},{"name":"Hampfhof","postalCode":"24641","locality":"Stuvenborn","municipality":{"key":"01060084","name":"Stuvenborn","type":"Kreisangehörige_Gemeinde"},"district":{"key":"01060","name":"Segeberg","type":"Kreis"},"federalState":{"key":"01","name":"Schleswig-Holstein"}},{"name":"Hauptstr.","postalCode":"24641","locality":"Stuvenborn","municipality":{"key":"01060084","name":"Stuvenborn","type":"Kreisangehörige_Gemeinde"},"district":{"key":"01060","name":"Segeberg","type":"Kreis"},"federalState":{"key":"01","name":"Schleswig-Holstein"}},{"name":"Heidberg","postalCode":"24641","locality":"Stuvenborn","municipality":{"key":"01060084","name":"Stuvenborn","type":"Kreisangehörige_Gemeinde"},"district":{"key":"01060","name":"Segeberg","type":"Kreis"},"federalState":{"key":"01","name":"Schleswig-Holstein"}},{"name":"Im Kahlen","postalCode":"24641","locality":"Stuvenborn","municipality":{"key":"01060084","name":"Stuvenborn","type":"Kreisangehörige_Gemeinde"},"district":{"key":"01060","name":"Segeberg","type":"Kreis"},"federalState":{"key":"01","name":"Schleswig-Holstein"}},{"name":"Jasminstr.","postalCode":"23795","locality":"Bad Segeberg","municipality":{"key":"01060005","name":"Bad Segeberg, Stadt","type":"Stadt"},"district":{"key":"01060","name":"Segeberg","type":"Kreis"},"federalState":{"key":"01","name":"Schleswig-Holstein"}},{"name":"Julius-Leber-Str.","postalCode":"23795","locality":"Bad Segeberg","municipality":{"key":"01060005","name":"Bad Segeberg, Stadt","type":"Stadt"},"district":{"key":"01060","name":"Segeberg","type":"Kreis"},"federalState":{"key":"01","name":"Schleswig-Holstein"}},{"name":"Jürgensweg","postalCode":"23795","locality":"Bad Segeberg","municipality":{"key":"01060005","name":"Bad Segeberg, Stadt","type":"Stadt"},"district":{"key":"01060","name":"Segeberg","type":"Kreis"},"federalState":{"key":"01","name":"Schleswig-Holstein"}},{"name":"Kalte Weide","postalCode":"24641","locality":"Stuvenborn","municipality":{"key":"01060084","name":"Stuvenborn","type":"Kreisangehörige_Gemeinde"},"district":{"key":"01060","name":"Segeberg","type":"Kreis"},"federalState":{"key":"01","name":"Schleswig-Holstein"}},{"name":"Lohe","postalCode":"24641","locality":"Stuvenborn","municipality":{"key":"01060084","name":"Stuvenborn","type":"Kreisangehörige_Gemeinde"},"district":{"key":"01060","name":"Segeberg","type":"Kreis"},"federalState":{"key":"01","name":"Schleswig-Holstein"}},{"name":"Marienstr.","postalCode":"23795","locality":"Bad Segeberg","municipality":{"key":"01060005","name":"Bad Segeberg, Stadt","type":"Stadt"},"district":{"key":"01060","name":"Segeberg","type":"Kreis"},"federalState":{"key":"01","name":"Schleswig-Holstein"}},{"name":"Matthias-Claudius-Weg","postalCode":"23795","locality":"Bad Segeberg","municipality":{"key":"01060005","name":"Bad Segeberg, Stadt","type":"Stadt"},"district":{"key":"01060","name":"Segeberg","type":"Kreis"},"federalState":{"key":"01","name":"Schleswig-Holstein"}},{"name":"Mecklenburger Str.","postalCode":"23795","locality":"Bad Segeberg","municipality":{"key":"01060005","name":"Bad Segeberg, Stadt","type":"Stadt"},"district":{"key":"01060","name":"Segeberg","type":"Kreis"},"federalState":{"key":"01","name":"Schleswig-Holstein"}},{"name":"Meisenweg","postalCode":"23795","locality":"Bad Segeberg","municipality":{"key":"01060005","name":"Bad Segeberg, Stadt","type":"Stadt"},"district":{"key":"01060","name":"Segeberg","type":"Kreis"},"federalState":{"key":"01","name":"Schleswig-Holstein"}},{"name":"Moltkestr.","postalCode":"23795","locality":"Bad Segeberg","municipality":{"key":"01060005","name":"Bad Segeberg, Stadt","type":"Stadt"},"district":{"key":"01060","name":"Segeberg","type":"Kreis"},"federalState":{"key":"01","name":"Schleswig-Holstein"}},{"name":"Mozartweg","postalCode":"23795","locality":"Bad Segeberg","municipality":{"key":"01060005","name":"Bad Segeberg, Stadt","type":"Stadt"},"district":{"key":"01060","name":"Segeberg","type":"Kreis"},"federalState":{"key":"01","name":"Schleswig-Holstein"}},{"name":"Mühlenkamp","postalCode":"23795","locality":"Bad Segeberg","municipality":{"key":"01060005","name":"Bad Segeberg, Stadt","type":"Stadt"},"district":{"key":"01060","name":"Segeberg","type":"Kreis"},"federalState":{"key":"01","name":"Schleswig-Holstein"}},{"name":"Nelkenweg","postalCode":"23795","locality":"Bad Segeberg","municipality":{"key":"01060005","name":"Bad Segeberg, Stadt","type":"Stadt"},"district":{"key":"01060","name":"Segeberg","type":"Kreis"},"federalState":{"key":"01","name":"Schleswig-Holstein"}},{"name":"Neuer Platz","postalCode":"23795","locality":"Bad Segeberg","municipality":{"key":"01060005","name":"Bad Segeberg, Stadt","type":"Stadt"},"district":{"key":"01060","name":"Segeberg","type":"Kreis"},"federalState":{"key":"01","name":"Schleswig-Holstein"}},{"name":"Neue Str.","postalCode":"23795","locality":"Bad Segeberg","municipality":{"key":"01060005","name":"Bad Segeberg, Stadt","type":"Stadt"},"district":{"key":"01060","name":"Segeberg","type":"Kreis"},"federalState":{"key":"01","name":"Schleswig-Holstein"}},{"name":"Neuland","postalCode":"23795","locality":"Bad Segeberg","municipality":{"key":"01060005","name":"Bad Segeberg, Stadt","type":"Stadt"},"district":{"key":"01060","name":"Segeberg","type":"Kreis"},"federalState":{"key":"01","name":"Schleswig-Holstein"}},{"name":"Oberbergstr.","postalCode":"23795","locality":"Bad Segeberg","municipality":{"key":"01060005","name":"Bad Segeberg, Stadt","type":"Stadt"},"district":{"key":"01060","name":"Segeberg","type":"Kreis"},"federalState":{"key":"01","name":"Schleswig-Holstein"}},{"name":"Oldesloer Str.","postalCode":"23795","locality":"Bad Segeberg","municipality":{"key":"01060005","name":"Bad Segeberg, Stadt","type":"Stadt"},"district":{"key":"01060","name":"Segeberg","type":"Kreis"},"federalState":{"key":"01","name":"Schleswig-Holstein"}},{"name":"Ostlandstr.","postalCode":"23795","locality":"Bad Segeberg","municipality":{"key":"01060005","name":"Bad Segeberg, Stadt","type":"Stadt"},"district":{"key":"01060","name":"Segeberg","type":"Kreis"},"federalState":{"key":"01","name":"Schleswig-Holstein"}},{"name":"Ostpreußenstr.","postalCode":"23795","locality":"Bad Segeberg","municipality":{"key":"01060005","name":"Bad Segeberg, Stadt","type":"Stadt"},"district":{"key":"01060","name":"Segeberg","type":"Kreis"},"federalState":{"key":"01","name":"Schleswig-Holstein"}},{"name":"Otto-Flath-Str.","postalCode":"23795","locality":"Bad Segeberg","municipality":{"key":"01060005","name":"Bad Segeberg, Stadt","type":"Stadt"},"district":{"key":"01060","name":"Segeberg","type":"Kreis"},"federalState":{"key":"01","name":"Schleswig-Holstein"}},{"name":"Parkstr.","postalCode":"23795","locality":"Bad Segeberg","municipality":{"key":"01060005","name":"Bad Segeberg, Stadt","type":"Stadt"},"district":{"key":"01060","name":"Segeberg","type":"Kreis"},"federalState":{"key":"01","name":"Schleswig-Holstein"}},{"name":"Pommernstr.","postalCode":"23795","locality":"Bad Segeberg","municipality":{"key":"01060005","name":"Bad Segeberg, Stadt","type":"Stadt"},"district":{"key":"01060","name":"Segeberg","type":"Kreis"},"federalState":{"key":"01","name":"Schleswig-Holstein"}},{"name":"Rolandsweg","postalCode":"24641","locality":"Stuvenborn","municipality":{"key":"01060084","name":"Stuvenborn","type":"Kreisangehörige_Gemeinde"},"district":{"key":"01060","name":"Segeberg","type":"Kreis"},"federalState":{"key":"01","name":"Schleswig-Holstein"}},{"name":"Ruhloweg","postalCode":"24641","locality":"Stuvenborn","municipality":{"key":"01060084","name":"Stuvenborn","type":"Kreisangehörige_Gemeinde"},"district":{"key":"01060","name":"Segeberg","type":"Kreis"},"federalState":{"key":"01","name":"Schleswig-Holstein"}},{"name":"Ruhlowiese","postalCode":"24641","locality":"Stuvenborn","municipality":{"key":"01060084","name":"Stuvenborn","type":"Kreisangehörige_Gemeinde"},"district":{"key":"01060","name":"Segeberg","type":"Kreis"},"federalState":{"key":"01","name":"Schleswig-Holstein"}},{"name":"Segeberger Str.","postalCode":"24641","locality":"Stuvenborn","municipality":{"key":"01060084","name":"Stuvenborn","type":"Kreisangehörige_Gemeinde"},"district":{"key":"01060","name":"Segeberg","type":"Kreis"},"federalState":{"key":"01","name":"Schleswig-Holstein"}},{"name":"Sether Weg","postalCode":"24641","locality":"Stuvenborn","municipality":{"key":"01060084","name":"Stuvenborn","type":"Kreisangehörige_Gemeinde"},"district":{"key":"01060","name":"Segeberg","type":"Kreis"},"federalState":{"key":"01","name":"Schleswig-Holstein"}},{"name":"Tannenweg","postalCode":"23795","locality":"Bad Segeberg","municipality":{"key":"01060005","name":"Bad Segeberg, Stadt","type":"Stadt"},"district":{"key":"01060","name":"Segeberg","type":"Kreis"},"federalState":{"key":"01","name":"Schleswig-Holstein"}},{"name":"Tegelkoppel","postalCode":"23795","locality":"Bad Segeberg","municipality":{"key":"01060005","name":"Bad Segeberg, Stadt","type":"Stadt"},"district":{"key":"01060","name":"Segeberg","type":"Kreis"},"federalState":{"key":"01","name":"Schleswig-Holstein"}},{"name":"Teichstr.","postalCode":"23795","locality":"Bad Segeberg","municipality":{"key":"01060005","name":"Bad Segeberg, Stadt","type":"Stadt"},"district":{"key":"01060","name":"Segeberg","type":"Kreis"},"federalState":{"key":"01","name":"Schleswig-Holstein"}},{"name":"Teterower Str.","postalCode":"23795","locality":"Bad Segeberg","municipality":{"key":"01060005","name":"Bad Segeberg, Stadt","type":"Stadt"},"district":{"key":"01060","name":"Segeberg","type":"Kreis"},"federalState":{"key":"01","name":"Schleswig-Holstein"}},{"name":"Theodor-Heuss-Ring","postalCode":"23795","locality":"Bad Segeberg","municipality":{"key":"01060005","name":"Bad Segeberg, Stadt","type":"Stadt"},"district":{"key":"01060","name":"Segeberg","type":"Kreis"},"federalState":{"key":"01","name":"Schleswig-Holstein"}},{"name":"Theodor-Storm-Str.","postalCode":"23795","locality":"Bad Segeberg","municipality":{"key":"01060005","name":"Bad Segeberg, Stadt","type":"Stadt"},"district":{"key":"01060","name":"Segeberg","type":"Kreis"},"federalState":{"key":"01","name":"Schleswig-Holstein"}},{"name":"Thoms Koppel","postalCode":"23795","locality":"Bad Segeberg","municipality":{"key":"01060005","name":"Bad Segeberg, Stadt","type":"Stadt"},"district":{"key":"01060","name":"Segeberg","type":"Kreis"},"federalState":{"key":"01","name":"Schleswig-Holstein"}},{"name":"Thüringer Str.","postalCode":"23795","locality":"Bad Segeberg","municipality":{"key":"01060005","name":"Bad Segeberg, Stadt","type":"Stadt"},"district":{"key":"01060","name":"Segeberg","type":"Kreis"},"federalState":{"key":"01","name":"Schleswig-Holstein"}},{"name":"Timm-Kröger-Weg","postalCode":"23795","locality":"Bad Segeberg","municipality":{"key":"01060005","name":"Bad Segeberg, Stadt","type":"Stadt"},"district":{"key":"01060","name":"Segeberg","type":"Kreis"},"federalState":{"key":"01","name":"Schleswig-Holstein"}},{"name":"Vogtkamp","postalCode":"23795","locality":"Bad Segeberg","municipality":{"key":"01060005","name":"Bad Segeberg, Stadt","type":"Stadt"},"district":{"key":"01060","name":"Segeberg","type":"Kreis"},"federalState":{"key":"01","name":"Schleswig-Holstein"}},{"name":"Wacholderstr.","postalCode":"23795","locality":"Bad Segeberg","municipality":{"key":"01060005","name":"Bad Segeberg, Stadt","type":"Stadt"},"district":{"key":"01060","name":"Segeberg","type":"Kreis"},"federalState":{"key":"01","name":"Schleswig-Holstein"}},{"name":"Waldemar-von-Mohl-Str.","postalCode":"23795","locality":"Bad Segeberg","municipality":{"key":"01060005","name":"Bad Segeberg, Stadt","type":"Stadt"},"district":{"key":"01060","name":"Segeberg","type":"Kreis"},"federalState":{"key":"01","name":"Schleswig-Holstein"}},{"name":"Waldweg","postalCode":"23795","locality":"Bad Segeberg","municipality":{"key":"01060005","name":"Bad Segeberg, Stadt","type":"Stadt"},"district":{"key":"01060","name":"Segeberg","type":"Kreis"},"federalState":{"key":"01","name":"Schleswig-Holstein"}},{"name":"Wankendorfer Weg","postalCode":"23795","locality":"Bad Segeberg","municipality":{"key":"01060005","name":"Bad Segeberg, Stadt","type":"Stadt"},"district":{"key":"01060","name":"Segeberg","type":"Kreis"},"federalState":{"key":"01","name":"Schleswig-Holstein"}},{"name":"Weichseldamm","postalCode":"23795","locality":"Bad Segeberg","municipality":{"key":"01060005","name":"Bad Segeberg, Stadt","type":"Stadt"},"district":{"key":"01060","name":"Segeberg","type":"Kreis"},"federalState":{"key":"01","name":"Schleswig-Holstein"}},{"name":"Wickelstr.","postalCode":"23795","locality":"Bad Segeberg","municipality":{"key":"01060005","name":"Bad Segeberg, Stadt","type":"Stadt"},"district":{"key":"01060","name":"Segeberg","type":"Kreis"},"federalState":{"key":"01","name":"Schleswig-Holstein"}},{"name":"Winklersgang","postalCode":"23795","locality":"Bad Segeberg","municipality":{"key":"01060005","name":"Bad Segeberg, Stadt","type":"Stadt"},"district":{"key":"01060","name":"Segeberg","type":"Kreis"},"federalState":{"key":"01","name":"Schleswig-Holstein"}},{"name":"Wischhof","postalCode":"23795","locality":"Bad Segeberg","municipality":{"key":"01060005","name":"Bad Segeberg, Stadt","type":"Stadt"},"district":{"key":"01060","name":"Segeberg","type":"Kreis"},"federalState":{"key":"01","name":"Schleswig-Holstein"}},{"name":"Zu den Eichen","postalCode":"24641","locality":"Stuvenborn","municipality":{"key":"01060084","name":"Stuvenborn","type":"Kreisangehörige_Gemeinde"},"district":{"key":"01060","name":"Segeberg","type":"Kreis"},"federalState":{"key":"01","name":"Schleswig-Holstein"}},]