[{"name":"Alemannenstr.","postalCode":"89610","locality":"Oberdischingen","municipality":{"key":"08425088","name":"Oberdischingen","type":"Kreisangehörige_Gemeinde"},"district":{"key":"08425","name":"Alb-Donau-Kreis","type":"Landkreis"},"federalState":{"key":"08","name":"Baden-Württemberg"}},{"name":"Allee","postalCode":"89610","locality":"Oberdischingen","municipality":{"key":"08425088","name":"Oberdischingen","type":"Kreisangehörige_Gemeinde"},"district":{"key":"08425","name":"Alb-Donau-Kreis","type":"Landkreis"},"federalState":{"key":"08","name":"Baden-Württemberg"}},{"name":"Am Eiskeller","postalCode":"89610","locality":"Oberdischingen","municipality":{"key":"08425088","name":"Oberdischingen","type":"Kreisangehörige_Gemeinde"},"district":{"key":"08425","name":"Alb-Donau-Kreis","type":"Landkreis"},"federalState":{"key":"08","name":"Baden-Württemberg"}},{"name":"Am Erlenbach","postalCode":"89610","locality":"Oberdischingen","municipality":{"key":"08425088","name":"Oberdischingen","type":"Kreisangehörige_Gemeinde"},"district":{"key":"08425","name":"Alb-Donau-Kreis","type":"Landkreis"},"federalState":{"key":"08","name":"Baden-Württemberg"}},{"name":"Am Friedhof","postalCode":"89610","locality":"Oberdischingen","municipality":{"key":"08425088","name":"Oberdischingen","type":"Kreisangehörige_Gemeinde"},"district":{"key":"08425","name":"Alb-Donau-Kreis","type":"Landkreis"},"federalState":{"key":"08","name":"Baden-Württemberg"}},{"name":"Am Hägele","postalCode":"89610","locality":"Oberdischingen","municipality":{"key":"08425088","name":"Oberdischingen","type":"Kreisangehörige_Gemeinde"},"district":{"key":"08425","name":"Alb-Donau-Kreis","type":"Landkreis"},"federalState":{"key":"08","name":"Baden-Württemberg"}},{"name":"Am Hopfengarten","postalCode":"89610","locality":"Oberdischingen","municipality":{"key":"08425088","name":"Oberdischingen","type":"Kreisangehörige_Gemeinde"},"district":{"key":"08425","name":"Alb-Donau-Kreis","type":"Landkreis"},"federalState":{"key":"08","name":"Baden-Württemberg"}},{"name":"An der Steige","postalCode":"89610","locality":"Oberdischingen","municipality":{"key":"08425088","name":"Oberdischingen","type":"Kreisangehörige_Gemeinde"},"district":{"key":"08425","name":"Alb-Donau-Kreis","type":"Landkreis"},"federalState":{"key":"08","name":"Baden-Württemberg"}},{"name":"Auf der Schießmauer","postalCode":"89610","locality":"Oberdischingen","municipality":{"key":"08425088","name":"Oberdischingen","type":"Kreisangehörige_Gemeinde"},"district":{"key":"08425","name":"Alb-Donau-Kreis","type":"Landkreis"},"federalState":{"key":"08","name":"Baden-Württemberg"}},{"name":"Bachstr.","postalCode":"89610","locality":"Oberdischingen","municipality":{"key":"08425088","name":"Oberdischingen","type":"Kreisangehörige_Gemeinde"},"district":{"key":"08425","name":"Alb-Donau-Kreis","type":"Landkreis"},"federalState":{"key":"08","name":"Baden-Württemberg"}},{"name":"Banzengasse","postalCode":"89610","locality":"Oberdischingen","municipality":{"key":"08425088","name":"Oberdischingen","type":"Kreisangehörige_Gemeinde"},"district":{"key":"08425","name":"Alb-Donau-Kreis","type":"Landkreis"},"federalState":{"key":"08","name":"Baden-Württemberg"}},{"name":"Beethovenstr.","postalCode":"89610","locality":"Oberdischingen","municipality":{"key":"08425088","name":"Oberdischingen","type":"Kreisangehörige_Gemeinde"},"district":{"key":"08425","name":"Alb-Donau-Kreis","type":"Landkreis"},"federalState":{"key":"08","name":"Baden-Württemberg"}},{"name":"Berggasse","postalCode":"89610","locality":"Oberdischingen","municipality":{"key":"08425088","name":"Oberdischingen","type":"Kreisangehörige_Gemeinde"},"district":{"key":"08425","name":"Alb-Donau-Kreis","type":"Landkreis"},"federalState":{"key":"08","name":"Baden-Württemberg"}},{"name":"Bräuhausgasse","postalCode":"89610","locality":"Oberdischingen","municipality":{"key":"08425088","name":"Oberdischingen","type":"Kreisangehörige_Gemeinde"},"district":{"key":"08425","name":"Alb-Donau-Kreis","type":"Landkreis"},"federalState":{"key":"08","name":"Baden-Württemberg"}},{"name":"Breiteweg","postalCode":"89610","locality":"Oberdischingen","municipality":{"key":"08425088","name":"Oberdischingen","type":"Kreisangehörige_Gemeinde"},"district":{"key":"08425","name":"Alb-Donau-Kreis","type":"Landkreis"},"federalState":{"key":"08","name":"Baden-Württemberg"}},{"name":"Dicke Halden","postalCode":"89610","locality":"Oberdischingen","municipality":{"key":"08425088","name":"Oberdischingen","type":"Kreisangehörige_Gemeinde"},"district":{"key":"08425","name":"Alb-Donau-Kreis","type":"Landkreis"},"federalState":{"key":"08","name":"Baden-Württemberg"}},{"name":"Ersinger Str.","postalCode":"89610","locality":"Oberdischingen","municipality":{"key":"08425088","name":"Oberdischingen","type":"Kreisangehörige_Gemeinde"},"district":{"key":"08425","name":"Alb-Donau-Kreis","type":"Landkreis"},"federalState":{"key":"08","name":"Baden-Württemberg"}},{"name":"Faule","postalCode":"89610","locality":"Oberdischingen","municipality":{"key":"08425088","name":"Oberdischingen","type":"Kreisangehörige_Gemeinde"},"district":{"key":"08425","name":"Alb-Donau-Kreis","type":"Landkreis"},"federalState":{"key":"08","name":"Baden-Württemberg"}},{"name":"Frankenstr.","postalCode":"89610","locality":"Oberdischingen","municipality":{"key":"08425088","name":"Oberdischingen","type":"Kreisangehörige_Gemeinde"},"district":{"key":"08425","name":"Alb-Donau-Kreis","type":"Landkreis"},"federalState":{"key":"08","name":"Baden-Württemberg"}},{"name":"Galgenweg","postalCode":"89610","locality":"Oberdischingen","municipality":{"key":"08425088","name":"Oberdischingen","type":"Kreisangehörige_Gemeinde"},"district":{"key":"08425","name":"Alb-Donau-Kreis","type":"Landkreis"},"federalState":{"key":"08","name":"Baden-Württemberg"}},{"name":"Gartenstr.","postalCode":"89610","locality":"Oberdischingen","municipality":{"key":"08425088","name":"Oberdischingen","type":"Kreisangehörige_Gemeinde"},"district":{"key":"08425","name":"Alb-Donau-Kreis","type":"Landkreis"},"federalState":{"key":"08","name":"Baden-Württemberg"}},{"name":"Germanenstr.","postalCode":"89610","locality":"Oberdischingen","municipality":{"key":"08425088","name":"Oberdischingen","type":"Kreisangehörige_Gemeinde"},"district":{"key":"08425","name":"Alb-Donau-Kreis","type":"Landkreis"},"federalState":{"key":"08","name":"Baden-Württemberg"}},{"name":"Goethestr.","postalCode":"89610","locality":"Oberdischingen","municipality":{"key":"08425088","name":"Oberdischingen","type":"Kreisangehörige_Gemeinde"},"district":{"key":"08425","name":"Alb-Donau-Kreis","type":"Landkreis"},"federalState":{"key":"08","name":"Baden-Württemberg"}},{"name":"Gotenstr.","postalCode":"89610","locality":"Oberdischingen","municipality":{"key":"08425088","name":"Oberdischingen","type":"Kreisangehörige_Gemeinde"},"district":{"key":"08425","name":"Alb-Donau-Kreis","type":"Landkreis"},"federalState":{"key":"08","name":"Baden-Württemberg"}},{"name":"Häldele","postalCode":"89610","locality":"Oberdischingen","municipality":{"key":"08425088","name":"Oberdischingen","type":"Kreisangehörige_Gemeinde"},"district":{"key":"08425","name":"Alb-Donau-Kreis","type":"Landkreis"},"federalState":{"key":"08","name":"Baden-Württemberg"}},{"name":"Hauffstr.","postalCode":"89610","locality":"Oberdischingen","municipality":{"key":"08425088","name":"Oberdischingen","type":"Kreisangehörige_Gemeinde"},"district":{"key":"08425","name":"Alb-Donau-Kreis","type":"Landkreis"},"federalState":{"key":"08","name":"Baden-Württemberg"}},{"name":"Hauptstr.","postalCode":"89610","locality":"Oberdischingen","municipality":{"key":"08425088","name":"Oberdischingen","type":"Kreisangehörige_Gemeinde"},"district":{"key":"08425","name":"Alb-Donau-Kreis","type":"Landkreis"},"federalState":{"key":"08","name":"Baden-Württemberg"}},{"name":"Hensingerstr.","postalCode":"89610","locality":"Oberdischingen","municipality":{"key":"08425088","name":"Oberdischingen","type":"Kreisangehörige_Gemeinde"},"district":{"key":"08425","name":"Alb-Donau-Kreis","type":"Landkreis"},"federalState":{"key":"08","name":"Baden-Württemberg"}},{"name":"Herrengasse","postalCode":"89610","locality":"Oberdischingen","municipality":{"key":"08425088","name":"Oberdischingen","type":"Kreisangehörige_Gemeinde"},"district":{"key":"08425","name":"Alb-Donau-Kreis","type":"Landkreis"},"federalState":{"key":"08","name":"Baden-Württemberg"}},{"name":"Hindenburgstr.","postalCode":"89610","locality":"Oberdischingen","municipality":{"key":"08425088","name":"Oberdischingen","type":"Kreisangehörige_Gemeinde"},"district":{"key":"08425","name":"Alb-Donau-Kreis","type":"Landkreis"},"federalState":{"key":"08","name":"Baden-Württemberg"}},{"name":"Hinter dem Löwen","postalCode":"89610","locality":"Oberdischingen","municipality":{"key":"08425088","name":"Oberdischingen","type":"Kreisangehörige_Gemeinde"},"district":{"key":"08425","name":"Alb-Donau-Kreis","type":"Landkreis"},"federalState":{"key":"08","name":"Baden-Württemberg"}},{"name":"Hintere Gasse","postalCode":"89610","locality":"Oberdischingen","municipality":{"key":"08425088","name":"Oberdischingen","type":"Kreisangehörige_Gemeinde"},"district":{"key":"08425","name":"Alb-Donau-Kreis","type":"Landkreis"},"federalState":{"key":"08","name":"Baden-Württemberg"}},{"name":"Hölderlinweg","postalCode":"89610","locality":"Oberdischingen","municipality":{"key":"08425088","name":"Oberdischingen","type":"Kreisangehörige_Gemeinde"},"district":{"key":"08425","name":"Alb-Donau-Kreis","type":"Landkreis"},"federalState":{"key":"08","name":"Baden-Württemberg"}},{"name":"Höllgasse","postalCode":"89610","locality":"Oberdischingen","municipality":{"key":"08425088","name":"Oberdischingen","type":"Kreisangehörige_Gemeinde"},"district":{"key":"08425","name":"Alb-Donau-Kreis","type":"Landkreis"},"federalState":{"key":"08","name":"Baden-Württemberg"}},{"name":"Holzgasse","postalCode":"89610","locality":"Oberdischingen","municipality":{"key":"08425088","name":"Oberdischingen","type":"Kreisangehörige_Gemeinde"},"district":{"key":"08425","name":"Alb-Donau-Kreis","type":"Landkreis"},"federalState":{"key":"08","name":"Baden-Württemberg"}},{"name":"Hungerberg","postalCode":"89610","locality":"Oberdischingen","municipality":{"key":"08425088","name":"Oberdischingen","type":"Kreisangehörige_Gemeinde"},"district":{"key":"08425","name":"Alb-Donau-Kreis","type":"Landkreis"},"federalState":{"key":"08","name":"Baden-Württemberg"}},{"name":"Im Eschle","postalCode":"89610","locality":"Oberdischingen","municipality":{"key":"08425088","name":"Oberdischingen","type":"Kreisangehörige_Gemeinde"},"district":{"key":"08425","name":"Alb-Donau-Kreis","type":"Landkreis"},"federalState":{"key":"08","name":"Baden-Württemberg"}},{"name":"Kanalweg","postalCode":"89610","locality":"Oberdischingen","municipality":{"key":"08425088","name":"Oberdischingen","type":"Kreisangehörige_Gemeinde"},"district":{"key":"08425","name":"Alb-Donau-Kreis","type":"Landkreis"},"federalState":{"key":"08","name":"Baden-Württemberg"}},{"name":"Kapellenberg","postalCode":"89610","locality":"Oberdischingen","municipality":{"key":"08425088","name":"Oberdischingen","type":"Kreisangehörige_Gemeinde"},"district":{"key":"08425","name":"Alb-Donau-Kreis","type":"Landkreis"},"federalState":{"key":"08","name":"Baden-Württemberg"}},{"name":"Keltenstr.","postalCode":"89610","locality":"Oberdischingen","municipality":{"key":"08425088","name":"Oberdischingen","type":"Kreisangehörige_Gemeinde"},"district":{"key":"08425","name":"Alb-Donau-Kreis","type":"Landkreis"},"federalState":{"key":"08","name":"Baden-Württemberg"}},{"name":"Krautländer","postalCode":"89610","locality":"Oberdischingen","municipality":{"key":"08425088","name":"Oberdischingen","type":"Kreisangehörige_Gemeinde"},"district":{"key":"08425","name":"Alb-Donau-Kreis","type":"Landkreis"},"federalState":{"key":"08","name":"Baden-Württemberg"}},{"name":"Lampengasse","postalCode":"89610","locality":"Oberdischingen","municipality":{"key":"08425088","name":"Oberdischingen","type":"Kreisangehörige_Gemeinde"},"district":{"key":"08425","name":"Alb-Donau-Kreis","type":"Landkreis"},"federalState":{"key":"08","name":"Baden-Württemberg"}},{"name":"Lerchenweg","postalCode":"89610","locality":"Oberdischingen","municipality":{"key":"08425088","name":"Oberdischingen","type":"Kreisangehörige_Gemeinde"},"district":{"key":"08425","name":"Alb-Donau-Kreis","type":"Landkreis"},"federalState":{"key":"08","name":"Baden-Württemberg"}},{"name":"Mörikeweg","postalCode":"89610","locality":"Oberdischingen","municipality":{"key":"08425088","name":"Oberdischingen","type":"Kreisangehörige_Gemeinde"},"district":{"key":"08425","name":"Alb-Donau-Kreis","type":"Landkreis"},"federalState":{"key":"08","name":"Baden-Württemberg"}},{"name":"Mühlbachweg","postalCode":"89610","locality":"Oberdischingen","municipality":{"key":"08425088","name":"Oberdischingen","type":"Kreisangehörige_Gemeinde"},"district":{"key":"08425","name":"Alb-Donau-Kreis","type":"Landkreis"},"federalState":{"key":"08","name":"Baden-Württemberg"}},{"name":"Neuer Weg","postalCode":"89610","locality":"Oberdischingen","municipality":{"key":"08425088","name":"Oberdischingen","type":"Kreisangehörige_Gemeinde"},"district":{"key":"08425","name":"Alb-Donau-Kreis","type":"Landkreis"},"federalState":{"key":"08","name":"Baden-Württemberg"}},{"name":"Niederhofer Str.","postalCode":"89610","locality":"Oberdischingen","municipality":{"key":"08425088","name":"Oberdischingen","type":"Kreisangehörige_Gemeinde"},"district":{"key":"08425","name":"Alb-Donau-Kreis","type":"Landkreis"},"federalState":{"key":"08","name":"Baden-Württemberg"}},{"name":"Normannenstr.","postalCode":"89610","locality":"Oberdischingen","municipality":{"key":"08425088","name":"Oberdischingen","type":"Kreisangehörige_Gemeinde"},"district":{"key":"08425","name":"Alb-Donau-Kreis","type":"Landkreis"},"federalState":{"key":"08","name":"Baden-Württemberg"}},{"name":"Parkweg","postalCode":"89610","locality":"Oberdischingen","municipality":{"key":"08425088","name":"Oberdischingen","type":"Kreisangehörige_Gemeinde"},"district":{"key":"08425","name":"Alb-Donau-Kreis","type":"Landkreis"},"federalState":{"key":"08","name":"Baden-Württemberg"}},{"name":"Riedstr.","postalCode":"89610","locality":"Oberdischingen","municipality":{"key":"08425088","name":"Oberdischingen","type":"Kreisangehörige_Gemeinde"},"district":{"key":"08425","name":"Alb-Donau-Kreis","type":"Landkreis"},"federalState":{"key":"08","name":"Baden-Württemberg"}},{"name":"Ringinger Str.","postalCode":"89610","locality":"Oberdischingen","municipality":{"key":"08425088","name":"Oberdischingen","type":"Kreisangehörige_Gemeinde"},"district":{"key":"08425","name":"Alb-Donau-Kreis","type":"Landkreis"},"federalState":{"key":"08","name":"Baden-Württemberg"}},{"name":"Schenk-Castell-Str.","postalCode":"89610","locality":"Oberdischingen","municipality":{"key":"08425088","name":"Oberdischingen","type":"Kreisangehörige_Gemeinde"},"district":{"key":"08425","name":"Alb-Donau-Kreis","type":"Landkreis"},"federalState":{"key":"08","name":"Baden-Württemberg"}},{"name":"Schenkgasse","postalCode":"89610","locality":"Oberdischingen","municipality":{"key":"08425088","name":"Oberdischingen","type":"Kreisangehörige_Gemeinde"},"district":{"key":"08425","name":"Alb-Donau-Kreis","type":"Landkreis"},"federalState":{"key":"08","name":"Baden-Württemberg"}},{"name":"Schillerstr.","postalCode":"89610","locality":"Oberdischingen","municipality":{"key":"08425088","name":"Oberdischingen","type":"Kreisangehörige_Gemeinde"},"district":{"key":"08425","name":"Alb-Donau-Kreis","type":"Landkreis"},"federalState":{"key":"08","name":"Baden-Württemberg"}},{"name":"Schloßpark","postalCode":"89610","locality":"Oberdischingen","municipality":{"key":"08425088","name":"Oberdischingen","type":"Kreisangehörige_Gemeinde"},"district":{"key":"08425","name":"Alb-Donau-Kreis","type":"Landkreis"},"federalState":{"key":"08","name":"Baden-Württemberg"}},{"name":"Schloßplatz","postalCode":"89610","locality":"Oberdischingen","municipality":{"key":"08425088","name":"Oberdischingen","type":"Kreisangehörige_Gemeinde"},"district":{"key":"08425","name":"Alb-Donau-Kreis","type":"Landkreis"},"federalState":{"key":"08","name":"Baden-Württemberg"}},{"name":"Schwabenstr.","postalCode":"89610","locality":"Oberdischingen","municipality":{"key":"08425088","name":"Oberdischingen","type":"Kreisangehörige_Gemeinde"},"district":{"key":"08425","name":"Alb-Donau-Kreis","type":"Landkreis"},"federalState":{"key":"08","name":"Baden-Württemberg"}},{"name":"Silcherweg","postalCode":"89610","locality":"Oberdischingen","municipality":{"key":"08425088","name":"Oberdischingen","type":"Kreisangehörige_Gemeinde"},"district":{"key":"08425","name":"Alb-Donau-Kreis","type":"Landkreis"},"federalState":{"key":"08","name":"Baden-Württemberg"}},{"name":"Stauffenbergstr.","postalCode":"89610","locality":"Oberdischingen","municipality":{"key":"08425088","name":"Oberdischingen","type":"Kreisangehörige_Gemeinde"},"district":{"key":"08425","name":"Alb-Donau-Kreis","type":"Landkreis"},"federalState":{"key":"08","name":"Baden-Württemberg"}},{"name":"Uhlandstr.","postalCode":"89610","locality":"Oberdischingen","municipality":{"key":"08425088","name":"Oberdischingen","type":"Kreisangehörige_Gemeinde"},"district":{"key":"08425","name":"Alb-Donau-Kreis","type":"Landkreis"},"federalState":{"key":"08","name":"Baden-Württemberg"}},{"name":"Unter der Halde","postalCode":"89610","locality":"Oberdischingen","municipality":{"key":"08425088","name":"Oberdischingen","type":"Kreisangehörige_Gemeinde"},"district":{"key":"08425","name":"Alb-Donau-Kreis","type":"Landkreis"},"federalState":{"key":"08","name":"Baden-Württemberg"}},{"name":"Untere Gasse","postalCode":"89610","locality":"Oberdischingen","municipality":{"key":"08425088","name":"Oberdischingen","type":"Kreisangehörige_Gemeinde"},"district":{"key":"08425","name":"Alb-Donau-Kreis","type":"Landkreis"},"federalState":{"key":"08","name":"Baden-Württemberg"}},{"name":"Weidach","postalCode":"89610","locality":"Oberdischingen","municipality":{"key":"08425088","name":"Oberdischingen","type":"Kreisangehörige_Gemeinde"},"district":{"key":"08425","name":"Alb-Donau-Kreis","type":"Landkreis"},"federalState":{"key":"08","name":"Baden-Württemberg"}},{"name":"Wolfengasse","postalCode":"89610","locality":"Oberdischingen","municipality":{"key":"08425088","name":"Oberdischingen","type":"Kreisangehörige_Gemeinde"},"district":{"key":"08425","name":"Alb-Donau-Kreis","type":"Landkreis"},"federalState":{"key":"08","name":"Baden-Württemberg"}},{"name":"Ziegelweg","postalCode":"89610","locality":"Oberdischingen","municipality":{"key":"08425088","name":"Oberdischingen","type":"Kreisangehörige_Gemeinde"},"district":{"key":"08425","name":"Alb-Donau-Kreis","type":"Landkreis"},"federalState":{"key":"08","name":"Baden-Württemberg"}},{"name":"Zwirnen","postalCode":"89610","locality":"Oberdischingen","municipality":{"key":"08425088","name":"Oberdischingen","type":"Kreisangehörige_Gemeinde"},"district":{"key":"08425","name":"Alb-Donau-Kreis","type":"Landkreis"},"federalState":{"key":"08","name":"Baden-Württemberg"}},]