[{"name":"Am Kaiser Karl","postalCode":"91238","locality":"Engelthal","municipality":{"key":"09574120","name":"Engelthal","type":"Kreisangehörige_Gemeinde"},"district":{"key":"09574","name":"Nürnberger Land","type":"Landkreis"},"federalState":{"key":"09","name":"Bayern"}},{"name":"Am Pfarrhof","postalCode":"91238","locality":"Engelthal","municipality":{"key":"09574120","name":"Engelthal","type":"Kreisangehörige_Gemeinde"},"district":{"key":"09574","name":"Nürnberger Land","type":"Landkreis"},"federalState":{"key":"09","name":"Bayern"}},{"name":"Am Schießhaus","postalCode":"91238","locality":"Engelthal","municipality":{"key":"09574120","name":"Engelthal","type":"Kreisangehörige_Gemeinde"},"district":{"key":"09574","name":"Nürnberger Land","type":"Landkreis"},"federalState":{"key":"09","name":"Bayern"}},{"name":"Am Schloß","postalCode":"91238","locality":"Engelthal","municipality":{"key":"09574120","name":"Engelthal","type":"Kreisangehörige_Gemeinde"},"district":{"key":"09574","name":"Nürnberger Land","type":"Landkreis"},"federalState":{"key":"09","name":"Bayern"}},{"name":"Am Wöhr","postalCode":"91238","locality":"Engelthal","municipality":{"key":"09574120","name":"Engelthal","type":"Kreisangehörige_Gemeinde"},"district":{"key":"09574","name":"Nürnberger Land","type":"Landkreis"},"federalState":{"key":"09","name":"Bayern"}},{"name":"An der Klostermauer","postalCode":"91238","locality":"Engelthal","municipality":{"key":"09574120","name":"Engelthal","type":"Kreisangehörige_Gemeinde"},"district":{"key":"09574","name":"Nürnberger Land","type":"Landkreis"},"federalState":{"key":"09","name":"Bayern"}},{"name":"Auf der Marter","postalCode":"91238","locality":"Engelthal","municipality":{"key":"09574120","name":"Engelthal","type":"Kreisangehörige_Gemeinde"},"district":{"key":"09574","name":"Nürnberger Land","type":"Landkreis"},"federalState":{"key":"09","name":"Bayern"}},{"name":"Brunnäcker","postalCode":"91238","locality":"Engelthal","municipality":{"key":"09574120","name":"Engelthal","type":"Kreisangehörige_Gemeinde"},"district":{"key":"09574","name":"Nürnberger Land","type":"Landkreis"},"federalState":{"key":"09","name":"Bayern"}},{"name":"Gewerbepark","postalCode":"91238","locality":"Engelthal","municipality":{"key":"09574120","name":"Engelthal","type":"Kreisangehörige_Gemeinde"},"district":{"key":"09574","name":"Nürnberger Land","type":"Landkreis"},"federalState":{"key":"09","name":"Bayern"}},{"name":"Glasergäßchen","postalCode":"91238","locality":"Engelthal","municipality":{"key":"09574120","name":"Engelthal","type":"Kreisangehörige_Gemeinde"},"district":{"key":"09574","name":"Nürnberger Land","type":"Landkreis"},"federalState":{"key":"09","name":"Bayern"}},{"name":"Hallershof","postalCode":"91238","locality":"Engelthaler Forst","municipality":{"key":"09574453","name":"Engelthaler Forst","type":"Gemeindefreies_Gebiet_Unbewohnt"},"district":{"key":"09574","name":"Nürnberger Land","type":"Landkreis"},"federalState":{"key":"09","name":"Bayern"}},{"name":"Hammergasse","postalCode":"91238","locality":"Engelthal","municipality":{"key":"09574120","name":"Engelthal","type":"Kreisangehörige_Gemeinde"},"district":{"key":"09574","name":"Nürnberger Land","type":"Landkreis"},"federalState":{"key":"09","name":"Bayern"}},{"name":"Hauptstr.","postalCode":"91238","locality":"Engelthal","municipality":{"key":"09574120","name":"Engelthal","type":"Kreisangehörige_Gemeinde"},"district":{"key":"09574","name":"Nürnberger Land","type":"Landkreis"},"federalState":{"key":"09","name":"Bayern"}},{"name":"Henfenfelder Weg","postalCode":"91238","locality":"Engelthal","municipality":{"key":"09574120","name":"Engelthal","type":"Kreisangehörige_Gemeinde"},"district":{"key":"09574","name":"Nürnberger Land","type":"Landkreis"},"federalState":{"key":"09","name":"Bayern"}},{"name":"Hersbrucker Weg","postalCode":"91238","locality":"Engelthal","municipality":{"key":"09574120","name":"Engelthal","type":"Kreisangehörige_Gemeinde"},"district":{"key":"09574","name":"Nürnberger Land","type":"Landkreis"},"federalState":{"key":"09","name":"Bayern"}},{"name":"Im Wiesengrund","postalCode":"91238","locality":"Engelthal","municipality":{"key":"09574120","name":"Engelthal","type":"Kreisangehörige_Gemeinde"},"district":{"key":"09574","name":"Nürnberger Land","type":"Landkreis"},"federalState":{"key":"09","name":"Bayern"}},{"name":"In den Gärten","postalCode":"91238","locality":"Engelthal","municipality":{"key":"09574120","name":"Engelthal","type":"Kreisangehörige_Gemeinde"},"district":{"key":"09574","name":"Nürnberger Land","type":"Landkreis"},"federalState":{"key":"09","name":"Bayern"}},{"name":"Klosterbergstr.","postalCode":"91238","locality":"Engelthal","municipality":{"key":"09574120","name":"Engelthal","type":"Kreisangehörige_Gemeinde"},"district":{"key":"09574","name":"Nürnberger Land","type":"Landkreis"},"federalState":{"key":"09","name":"Bayern"}},{"name":"Kruppacher Str.","postalCode":"91238","locality":"Engelthal","municipality":{"key":"09574120","name":"Engelthal","type":"Kreisangehörige_Gemeinde"},"district":{"key":"09574","name":"Nürnberger Land","type":"Landkreis"},"federalState":{"key":"09","name":"Bayern"}},{"name":"Mühlstr.","postalCode":"91238","locality":"Engelthal","municipality":{"key":"09574120","name":"Engelthal","type":"Kreisangehörige_Gemeinde"},"district":{"key":"09574","name":"Nürnberger Land","type":"Landkreis"},"federalState":{"key":"09","name":"Bayern"}},{"name":"Nonnenbergstr.","postalCode":"91238","locality":"Engelthal","municipality":{"key":"09574120","name":"Engelthal","type":"Kreisangehörige_Gemeinde"},"district":{"key":"09574","name":"Nürnberger Land","type":"Landkreis"},"federalState":{"key":"09","name":"Bayern"}},{"name":"Reschenbergstr.","postalCode":"91238","locality":"Engelthal","municipality":{"key":"09574120","name":"Engelthal","type":"Kreisangehörige_Gemeinde"},"district":{"key":"09574","name":"Nürnberger Land","type":"Landkreis"},"federalState":{"key":"09","name":"Bayern"}},{"name":"Schmiedäcker","postalCode":"91238","locality":"Engelthal","municipality":{"key":"09574120","name":"Engelthal","type":"Kreisangehörige_Gemeinde"},"district":{"key":"09574","name":"Nürnberger Land","type":"Landkreis"},"federalState":{"key":"09","name":"Bayern"}},{"name":"Weinleite","postalCode":"91238","locality":"Engelthal","municipality":{"key":"09574120","name":"Engelthal","type":"Kreisangehörige_Gemeinde"},"district":{"key":"09574","name":"Nürnberger Land","type":"Landkreis"},"federalState":{"key":"09","name":"Bayern"}},]