[{"name":"Achstetter Str.","postalCode":"88483","locality":"Burgrieden","municipality":{"key":"08426028","name":"Burgrieden","type":"Kreisangehörige_Gemeinde"},"district":{"key":"08426","name":"Biberach","type":"Landkreis"},"federalState":{"key":"08","name":"Baden-Württemberg"}},{"name":"Adalbert-Stifter-Str.","postalCode":"93339","locality":"Riedenburg","municipality":{"key":"09273164","name":"Riedenburg, St","type":"Stadt"},"district":{"key":"09273","name":"Kelheim","type":"Landkreis"},"federalState":{"key":"09","name":"Bayern"}},{"name":"Adlerweg","postalCode":"88483","locality":"Burgrieden","municipality":{"key":"08426028","name":"Burgrieden","type":"Kreisangehörige_Gemeinde"},"district":{"key":"08426","name":"Biberach","type":"Landkreis"},"federalState":{"key":"08","name":"Baden-Württemberg"}},{"name":"Adlerwiese","postalCode":"79877","locality":"Friedenweiler","municipality":{"key":"08315039","name":"Friedenweiler","type":"Kreisangehörige_Gemeinde"},"district":{"key":"08315","name":"Breisgau-Hochschwarzwald","type":"Landkreis"},"federalState":{"key":"08","name":"Baden-Württemberg"}},{"name":"Adolph-Kolping-Str.","postalCode":"91567","locality":"Herrieden","municipality":{"key":"09571166","name":"Herrieden, St","type":"Stadt"},"district":{"key":"09571","name":"Ansbach","type":"Landkreis"},"federalState":{"key":"09","name":"Bayern"}},{"name":"Aggensteinstr.","postalCode":"87669","locality":"Rieden am Forggensee","municipality":{"key":"09777163","name":"Rieden am Forggensee","type":"Kreisangehörige_Gemeinde"},"district":{"key":"09777","name":"Ostallgäu","type":"Landkreis"},"federalState":{"key":"09","name":"Bayern"}},{"name":"Ahornstr.","postalCode":"93339","locality":"Riedenburg","municipality":{"key":"09273164","name":"Riedenburg, St","type":"Stadt"},"district":{"key":"09273","name":"Kelheim","type":"Landkreis"},"federalState":{"key":"09","name":"Bayern"}},{"name":"Ahornweg","postalCode":"87785","locality":"Winterrieden","municipality":{"key":"09778217","name":"Winterrieden","type":"Kreisangehörige_Gemeinde"},"district":{"key":"09778","name":"Unterallgäu","type":"Landkreis"},"federalState":{"key":"09","name":"Bayern"}},{"name":"Ahornweg","postalCode":"89186","locality":"Illerrieden","municipality":{"key":"08425066","name":"Illerrieden","type":"Kreisangehörige_Gemeinde"},"district":{"key":"08425","name":"Alb-Donau-Kreis","type":"Landkreis"},"federalState":{"key":"08","name":"Baden-Württemberg"}},{"name":"Aicholding","postalCode":"93339","locality":"Riedenburg","municipality":{"key":"09273164","name":"Riedenburg, St","type":"Stadt"},"district":{"key":"09273","name":"Kelheim","type":"Landkreis"},"federalState":{"key":"09","name":"Bayern"}},{"name":"Aicholdinger Str.","postalCode":"93339","locality":"Riedenburg","municipality":{"key":"09273164","name":"Riedenburg, St","type":"Stadt"},"district":{"key":"09273","name":"Kelheim","type":"Landkreis"},"federalState":{"key":"09","name":"Bayern"}},{"name":"Almstr.","postalCode":"87669","locality":"Rieden am Forggensee","municipality":{"key":"09777163","name":"Rieden am Forggensee","type":"Kreisangehörige_Gemeinde"},"district":{"key":"09777","name":"Ostallgäu","type":"Landkreis"},"federalState":{"key":"09","name":"Bayern"}},{"name":"Alpenblick","postalCode":"87767","locality":"Niederrieden","municipality":{"key":"09778177","name":"Niederrieden","type":"Kreisangehörige_Gemeinde"},"district":{"key":"09778","name":"Unterallgäu","type":"Landkreis"},"federalState":{"key":"09","name":"Bayern"}},{"name":"Alpenweg","postalCode":"87769","locality":"Oberrieden","municipality":{"key":"09778183","name":"Oberrieden","type":"Kreisangehörige_Gemeinde"},"district":{"key":"09778","name":"Unterallgäu","type":"Landkreis"},"federalState":{"key":"09","name":"Bayern"}},{"name":"Alte Poststr.","postalCode":"87767","locality":"Niederrieden","municipality":{"key":"09778177","name":"Niederrieden","type":"Kreisangehörige_Gemeinde"},"district":{"key":"09778","name":"Unterallgäu","type":"Landkreis"},"federalState":{"key":"09","name":"Bayern"}},{"name":"Alter Grottenweg","postalCode":"87767","locality":"Niederrieden","municipality":{"key":"09778177","name":"Niederrieden","type":"Kreisangehörige_Gemeinde"},"district":{"key":"09778","name":"Unterallgäu","type":"Landkreis"},"federalState":{"key":"09","name":"Bayern"}},{"name":"Alter Krautgarten","postalCode":"88483","locality":"Burgrieden","municipality":{"key":"08426028","name":"Burgrieden","type":"Kreisangehörige_Gemeinde"},"district":{"key":"08426","name":"Biberach","type":"Landkreis"},"federalState":{"key":"08","name":"Baden-Württemberg"}},{"name":"Alter Loch Weg","postalCode":"79877","locality":"Friedenweiler","municipality":{"key":"08315039","name":"Friedenweiler","type":"Kreisangehörige_Gemeinde"},"district":{"key":"08315","name":"Breisgau-Hochschwarzwald","type":"Landkreis"},"federalState":{"key":"08","name":"Baden-Württemberg"}},{"name":"Alte Schule","postalCode":"87668","locality":"Rieden","municipality":{"key":"09777164","name":"Rieden","type":"Kreisangehörige_Gemeinde"},"district":{"key":"09777","name":"Ostallgäu","type":"Landkreis"},"federalState":{"key":"09","name":"Bayern"}},{"name":"Alte Schwandorfer Str.","postalCode":"92286","locality":"Rieden","municipality":{"key":"09371146","name":"Rieden, M","type":"Markt"},"district":{"key":"09371","name":"Amberg-Sulzbach","type":"Landkreis"},"federalState":{"key":"09","name":"Bayern"}},{"name":"Altmühlhaag","postalCode":"91567","locality":"Herrieden","municipality":{"key":"09571166","name":"Herrieden, St","type":"Stadt"},"district":{"key":"09571","name":"Ansbach","type":"Landkreis"},"federalState":{"key":"09","name":"Bayern"}},{"name":"Altmühltalradweg","postalCode":"93339","locality":"Riedenburg","municipality":{"key":"09273164","name":"Riedenburg, St","type":"Stadt"},"district":{"key":"09273","name":"Kelheim","type":"Landkreis"},"federalState":{"key":"09","name":"Bayern"}},{"name":"Altriedener Str.","postalCode":"92286","locality":"Rieden","municipality":{"key":"09371146","name":"Rieden, M","type":"Markt"},"district":{"key":"09371","name":"Amberg-Sulzbach","type":"Landkreis"},"federalState":{"key":"09","name":"Bayern"}},{"name":"Am Amsenhügel","postalCode":"97283","locality":"Riedenheim","municipality":{"key":"09679179","name":"Riedenheim","type":"Kreisangehörige_Gemeinde"},"district":{"key":"09679","name":"Würzburg","type":"Landkreis"},"federalState":{"key":"09","name":"Bayern"}},{"name":"Am Anger","postalCode":"87769","locality":"Oberrieden","municipality":{"key":"09778183","name":"Oberrieden","type":"Kreisangehörige_Gemeinde"},"district":{"key":"09778","name":"Unterallgäu","type":"Landkreis"},"federalState":{"key":"09","name":"Bayern"}},{"name":"Am Anger","postalCode":"92286","locality":"Rieden","municipality":{"key":"09371146","name":"Rieden, M","type":"Markt"},"district":{"key":"09371","name":"Amberg-Sulzbach","type":"Landkreis"},"federalState":{"key":"09","name":"Bayern"}},{"name":"Am Anger","postalCode":"93339","locality":"Riedenburg","municipality":{"key":"09273164","name":"Riedenburg, St","type":"Stadt"},"district":{"key":"09273","name":"Kelheim","type":"Landkreis"},"federalState":{"key":"09","name":"Bayern"}},{"name":"Am Auberg","postalCode":"93339","locality":"Riedenburg","municipality":{"key":"09273164","name":"Riedenburg, St","type":"Stadt"},"district":{"key":"09273","name":"Kelheim","type":"Landkreis"},"federalState":{"key":"09","name":"Bayern"}},{"name":"Am Bach","postalCode":"87785","locality":"Winterrieden","municipality":{"key":"09778217","name":"Winterrieden","type":"Kreisangehörige_Gemeinde"},"district":{"key":"09778","name":"Unterallgäu","type":"Landkreis"},"federalState":{"key":"09","name":"Bayern"}},{"name":"Am Bach","postalCode":"88483","locality":"Burgrieden","municipality":{"key":"08426028","name":"Burgrieden","type":"Kreisangehörige_Gemeinde"},"district":{"key":"08426","name":"Biberach","type":"Landkreis"},"federalState":{"key":"08","name":"Baden-Württemberg"}},{"name":"Am Bach","postalCode":"93339","locality":"Riedenburg","municipality":{"key":"09273164","name":"Riedenburg, St","type":"Stadt"},"district":{"key":"09273","name":"Kelheim","type":"Landkreis"},"federalState":{"key":"09","name":"Bayern"}},{"name":"Amberger Str.","postalCode":"92286","locality":"Rieden","municipality":{"key":"09371146","name":"Rieden, M","type":"Markt"},"district":{"key":"09371","name":"Amberg-Sulzbach","type":"Landkreis"},"federalState":{"key":"09","name":"Bayern"}},{"name":"Am Bernhardstein","postalCode":"95688","locality":"Friedenfels","municipality":{"key":"09377118","name":"Friedenfels","type":"Kreisangehörige_Gemeinde"},"district":{"key":"09377","name":"Tirschenreuth","type":"Landkreis"},"federalState":{"key":"09","name":"Bayern"}},{"name":"Am Binsenberg","postalCode":"79877","locality":"Friedenweiler","municipality":{"key":"08315039","name":"Friedenweiler","type":"Kreisangehörige_Gemeinde"},"district":{"key":"08315","name":"Breisgau-Hochschwarzwald","type":"Landkreis"},"federalState":{"key":"08","name":"Baden-Württemberg"}},{"name":"Am Bläsistock","postalCode":"88483","locality":"Burgrieden","municipality":{"key":"08426028","name":"Burgrieden","type":"Kreisangehörige_Gemeinde"},"district":{"key":"08426","name":"Biberach","type":"Landkreis"},"federalState":{"key":"08","name":"Baden-Württemberg"}},{"name":"Am Burgerfeld","postalCode":"91567","locality":"Herrieden","municipality":{"key":"09571166","name":"Herrieden, St","type":"Stadt"},"district":{"key":"09571","name":"Ansbach","type":"Landkreis"},"federalState":{"key":"09","name":"Bayern"}},{"name":"Am Eichelberg","postalCode":"91567","locality":"Herrieden","municipality":{"key":"09571166","name":"Herrieden, St","type":"Stadt"},"district":{"key":"09571","name":"Ansbach","type":"Landkreis"},"federalState":{"key":"09","name":"Bayern"}},{"name":"Am Eulersfeld","postalCode":"91567","locality":"Herrieden","municipality":{"key":"09571166","name":"Herrieden, St","type":"Stadt"},"district":{"key":"09571","name":"Ansbach","type":"Landkreis"},"federalState":{"key":"09","name":"Bayern"}},{"name":"Am Feldrain","postalCode":"93339","locality":"Riedenburg","municipality":{"key":"09273164","name":"Riedenburg, St","type":"Stadt"},"district":{"key":"09273","name":"Kelheim","type":"Landkreis"},"federalState":{"key":"09","name":"Bayern"}},{"name":"Am Fischerfeld","postalCode":"91567","locality":"Herrieden","municipality":{"key":"09571166","name":"Herrieden, St","type":"Stadt"},"district":{"key":"09571","name":"Ansbach","type":"Landkreis"},"federalState":{"key":"09","name":"Bayern"}},{"name":"Am Forsthaus","postalCode":"93339","locality":"Riedenburg","municipality":{"key":"09273164","name":"Riedenburg, St","type":"Stadt"},"district":{"key":"09273","name":"Kelheim","type":"Landkreis"},"federalState":{"key":"09","name":"Bayern"}},{"name":"Am Galgenberg","postalCode":"92286","locality":"Rieden","municipality":{"key":"09371146","name":"Rieden, M","type":"Markt"},"district":{"key":"09371","name":"Amberg-Sulzbach","type":"Landkreis"},"federalState":{"key":"09","name":"Bayern"}},{"name":"Am Gänsberg","postalCode":"87785","locality":"Winterrieden","municipality":{"key":"09778217","name":"Winterrieden","type":"Kreisangehörige_Gemeinde"},"district":{"key":"09778","name":"Unterallgäu","type":"Landkreis"},"federalState":{"key":"09","name":"Bayern"}},{"name":"Am Grundacker","postalCode":"95688","locality":"Friedenfels","municipality":{"key":"09377118","name":"Friedenfels","type":"Kreisangehörige_Gemeinde"},"district":{"key":"09377","name":"Tirschenreuth","type":"Landkreis"},"federalState":{"key":"09","name":"Bayern"}},{"name":"Am Gütle","postalCode":"79877","locality":"Friedenweiler","municipality":{"key":"08315039","name":"Friedenweiler","type":"Kreisangehörige_Gemeinde"},"district":{"key":"08315","name":"Breisgau-Hochschwarzwald","type":"Landkreis"},"federalState":{"key":"08","name":"Baden-Württemberg"}},{"name":"Am Hang","postalCode":"93339","locality":"Riedenburg","municipality":{"key":"09273164","name":"Riedenburg, St","type":"Stadt"},"district":{"key":"09273","name":"Kelheim","type":"Landkreis"},"federalState":{"key":"09","name":"Bayern"}},{"name":"Am Hardt","postalCode":"79877","locality":"Friedenweiler","municipality":{"key":"08315039","name":"Friedenweiler","type":"Kreisangehörige_Gemeinde"},"district":{"key":"08315","name":"Breisgau-Hochschwarzwald","type":"Landkreis"},"federalState":{"key":"08","name":"Baden-Württemberg"}},{"name":"Am Heuberg","postalCode":"88483","locality":"Burgrieden","municipality":{"key":"08426028","name":"Burgrieden","type":"Kreisangehörige_Gemeinde"},"district":{"key":"08426","name":"Biberach","type":"Landkreis"},"federalState":{"key":"08","name":"Baden-Württemberg"}},{"name":"Am hohen Rain","postalCode":"56745","locality":"Rieden","municipality":{"key":"07137093","name":"Rieden","type":"Kreisangehörige_Gemeinde"},"district":{"key":"07137","name":"Mayen-Koblenz","type":"Landkreis"},"federalState":{"key":"07","name":"Rheinland-Pfalz"}},{"name":"Am Hohen Weg","postalCode":"97792","locality":"Riedenberg","municipality":{"key":"09672145","name":"Riedenberg","type":"Kreisangehörige_Gemeinde"},"district":{"key":"09672","name":"Bad Kissingen","type":"Landkreis"},"federalState":{"key":"09","name":"Bayern"}},{"name":"Babenhauser Str.","postalCode":"87767","locality":"Niederrieden","municipality":{"key":"09778177","name":"Niederrieden","type":"Kreisangehörige_Gemeinde"},"district":{"key":"09778","name":"Unterallgäu","type":"Landkreis"},"federalState":{"key":"09","name":"Bayern"}},{"name":"Babenhauser Str.","postalCode":"87785","locality":"Winterrieden","municipality":{"key":"09778217","name":"Winterrieden","type":"Kreisangehörige_Gemeinde"},"district":{"key":"09778","name":"Unterallgäu","type":"Landkreis"},"federalState":{"key":"09","name":"Bayern"}},{"name":"Bachleite","postalCode":"92286","locality":"Rieden","municipality":{"key":"09371146","name":"Rieden, M","type":"Markt"},"district":{"key":"09371","name":"Amberg-Sulzbach","type":"Landkreis"},"federalState":{"key":"09","name":"Bayern"}},{"name":"Bachstr.","postalCode":"56745","locality":"Rieden","municipality":{"key":"07137093","name":"Rieden","type":"Kreisangehörige_Gemeinde"},"district":{"key":"07137","name":"Mayen-Koblenz","type":"Landkreis"},"federalState":{"key":"07","name":"Rheinland-Pfalz"}},{"name":"Bachstr.","postalCode":"89186","locality":"Illerrieden","municipality":{"key":"08425066","name":"Illerrieden","type":"Kreisangehörige_Gemeinde"},"district":{"key":"08425","name":"Alb-Donau-Kreis","type":"Landkreis"},"federalState":{"key":"08","name":"Baden-Württemberg"}},{"name":"Bachtalstr.","postalCode":"87669","locality":"Rieden am Forggensee","municipality":{"key":"09777163","name":"Rieden am Forggensee","type":"Kreisangehörige_Gemeinde"},"district":{"key":"09777","name":"Ostallgäu","type":"Landkreis"},"federalState":{"key":"09","name":"Bayern"}},{"name":"Bachweg","postalCode":"87767","locality":"Niederrieden","municipality":{"key":"09778177","name":"Niederrieden","type":"Kreisangehörige_Gemeinde"},"district":{"key":"09778","name":"Unterallgäu","type":"Landkreis"},"federalState":{"key":"09","name":"Bayern"}},{"name":"Bachweg","postalCode":"87769","locality":"Oberrieden","municipality":{"key":"09778183","name":"Oberrieden","type":"Kreisangehörige_Gemeinde"},"district":{"key":"09778","name":"Unterallgäu","type":"Landkreis"},"federalState":{"key":"09","name":"Bayern"}},{"name":"Bachweg","postalCode":"88483","locality":"Burgrieden","municipality":{"key":"08426028","name":"Burgrieden","type":"Kreisangehörige_Gemeinde"},"district":{"key":"08426","name":"Biberach","type":"Landkreis"},"federalState":{"key":"08","name":"Baden-Württemberg"}},{"name":"Badstr.","postalCode":"92286","locality":"Rieden","municipality":{"key":"09371146","name":"Rieden, M","type":"Markt"},"district":{"key":"09371","name":"Amberg-Sulzbach","type":"Landkreis"},"federalState":{"key":"09","name":"Bayern"}},{"name":"Badstr.","postalCode":"95688","locality":"Friedenfels","municipality":{"key":"09377118","name":"Friedenfels","type":"Kreisangehörige_Gemeinde"},"district":{"key":"09377","name":"Tirschenreuth","type":"Landkreis"},"federalState":{"key":"09","name":"Bayern"}},{"name":"Bahnhofplatz","postalCode":"88483","locality":"Burgrieden","municipality":{"key":"08426028","name":"Burgrieden","type":"Kreisangehörige_Gemeinde"},"district":{"key":"08426","name":"Biberach","type":"Landkreis"},"federalState":{"key":"08","name":"Baden-Württemberg"}},{"name":"Bahnhofstr.","postalCode":"79877","locality":"Friedenweiler","municipality":{"key":"08315039","name":"Friedenweiler","type":"Kreisangehörige_Gemeinde"},"district":{"key":"08315","name":"Breisgau-Hochschwarzwald","type":"Landkreis"},"federalState":{"key":"08","name":"Baden-Württemberg"}},{"name":"Bahnhofstr.","postalCode":"87668","locality":"Rieden","municipality":{"key":"09777164","name":"Rieden","type":"Kreisangehörige_Gemeinde"},"district":{"key":"09777","name":"Ostallgäu","type":"Landkreis"},"federalState":{"key":"09","name":"Bayern"}},{"name":"Bahnhofstr.","postalCode":"87785","locality":"Winterrieden","municipality":{"key":"09778217","name":"Winterrieden","type":"Kreisangehörige_Gemeinde"},"district":{"key":"09778","name":"Unterallgäu","type":"Landkreis"},"federalState":{"key":"09","name":"Bayern"}},{"name":"Bahnhofstr.","postalCode":"88483","locality":"Burgrieden","municipality":{"key":"08426028","name":"Burgrieden","type":"Kreisangehörige_Gemeinde"},"district":{"key":"08426","name":"Biberach","type":"Landkreis"},"federalState":{"key":"08","name":"Baden-Württemberg"}},{"name":"Bahnhofstr.","postalCode":"91567","locality":"Herrieden","municipality":{"key":"09571166","name":"Herrieden, St","type":"Stadt"},"district":{"key":"09571","name":"Ansbach","type":"Landkreis"},"federalState":{"key":"09","name":"Bayern"}},{"name":"Bahnhofstr.","postalCode":"92286","locality":"Rieden","municipality":{"key":"09371146","name":"Rieden, M","type":"Markt"},"district":{"key":"09371","name":"Amberg-Sulzbach","type":"Landkreis"},"federalState":{"key":"09","name":"Bayern"}},{"name":"Bahnhofstr.","postalCode":"93339","locality":"Riedenburg","municipality":{"key":"09273164","name":"Riedenburg, St","type":"Stadt"},"district":{"key":"09273","name":"Kelheim","type":"Landkreis"},"federalState":{"key":"09","name":"Bayern"}},{"name":"BalzAllee","postalCode":"79877","locality":"Friedenweiler","municipality":{"key":"08315039","name":"Friedenweiler","type":"Kreisangehörige_Gemeinde"},"district":{"key":"08315","name":"Breisgau-Hochschwarzwald","type":"Landkreis"},"federalState":{"key":"08","name":"Baden-Württemberg"}},{"name":"Bärenbrünnleweg","postalCode":"79877","locality":"Friedenweiler","municipality":{"key":"08315039","name":"Friedenweiler","type":"Kreisangehörige_Gemeinde"},"district":{"key":"08315","name":"Breisgau-Hochschwarzwald","type":"Landkreis"},"federalState":{"key":"08","name":"Baden-Württemberg"}},{"name":"Bärnhöher Str.","postalCode":"95688","locality":"Friedenfels","municipality":{"key":"09377118","name":"Friedenfels","type":"Kreisangehörige_Gemeinde"},"district":{"key":"09377","name":"Tirschenreuth","type":"Landkreis"},"federalState":{"key":"09","name":"Bayern"}},{"name":"Baumteilweg","postalCode":"91567","locality":"Herrieden","municipality":{"key":"09571166","name":"Herrieden, St","type":"Stadt"},"district":{"key":"09571","name":"Ansbach","type":"Landkreis"},"federalState":{"key":"09","name":"Bayern"}},{"name":"Bayernring","postalCode":"91567","locality":"Herrieden","municipality":{"key":"09571166","name":"Herrieden, St","type":"Stadt"},"district":{"key":"09571","name":"Ansbach","type":"Landkreis"},"federalState":{"key":"09","name":"Bayern"}},{"name":"Bayerstr.","postalCode":"87668","locality":"Rieden","municipality":{"key":"09777164","name":"Rieden","type":"Kreisangehörige_Gemeinde"},"district":{"key":"09777","name":"Ostallgäu","type":"Landkreis"},"federalState":{"key":"09","name":"Bayern"}},{"name":"Bedernauer Str.","postalCode":"87769","locality":"Oberrieden","municipality":{"key":"09778183","name":"Oberrieden","type":"Kreisangehörige_Gemeinde"},"district":{"key":"09778","name":"Unterallgäu","type":"Landkreis"},"federalState":{"key":"09","name":"Bayern"}},{"name":"Beethovenstr.","postalCode":"92286","locality":"Rieden","municipality":{"key":"09371146","name":"Rieden, M","type":"Markt"},"district":{"key":"09371","name":"Amberg-Sulzbach","type":"Landkreis"},"federalState":{"key":"09","name":"Bayern"}},{"name":"Beim Fuchsloch","postalCode":"88483","locality":"Burgrieden","municipality":{"key":"08426028","name":"Burgrieden","type":"Kreisangehörige_Gemeinde"},"district":{"key":"08426","name":"Biberach","type":"Landkreis"},"federalState":{"key":"08","name":"Baden-Württemberg"}},{"name":"Beim Gassenberg","postalCode":"88483","locality":"Burgrieden","municipality":{"key":"08426028","name":"Burgrieden","type":"Kreisangehörige_Gemeinde"},"district":{"key":"08426","name":"Biberach","type":"Landkreis"},"federalState":{"key":"08","name":"Baden-Württemberg"}},{"name":"Beim Käppele","postalCode":"88483","locality":"Burgrieden","municipality":{"key":"08426028","name":"Burgrieden","type":"Kreisangehörige_Gemeinde"},"district":{"key":"08426","name":"Biberach","type":"Landkreis"},"federalState":{"key":"08","name":"Baden-Württemberg"}},{"name":"Beim Schiffahrtsweg","postalCode":"89186","locality":"Illerrieden","municipality":{"key":"08425066","name":"Illerrieden","type":"Kreisangehörige_Gemeinde"},"district":{"key":"08425","name":"Alb-Donau-Kreis","type":"Landkreis"},"federalState":{"key":"08","name":"Baden-Württemberg"}},{"name":"Bergblickstr.","postalCode":"87669","locality":"Rieden am Forggensee","municipality":{"key":"09777163","name":"Rieden am Forggensee","type":"Kreisangehörige_Gemeinde"},"district":{"key":"09777","name":"Ostallgäu","type":"Landkreis"},"federalState":{"key":"09","name":"Bayern"}},{"name":"Berggasse","postalCode":"89186","locality":"Illerrieden","municipality":{"key":"08425066","name":"Illerrieden","type":"Kreisangehörige_Gemeinde"},"district":{"key":"08425","name":"Alb-Donau-Kreis","type":"Landkreis"},"federalState":{"key":"08","name":"Baden-Württemberg"}},{"name":"Bergkristallstr.","postalCode":"93339","locality":"Riedenburg","municipality":{"key":"09273164","name":"Riedenburg, St","type":"Stadt"},"district":{"key":"09273","name":"Kelheim","type":"Landkreis"},"federalState":{"key":"09","name":"Bayern"}},{"name":"Bergseestr.","postalCode":"97792","locality":"Riedenberg","municipality":{"key":"09672145","name":"Riedenberg","type":"Kreisangehörige_Gemeinde"},"district":{"key":"09672","name":"Bad Kissingen","type":"Landkreis"},"federalState":{"key":"09","name":"Bayern"}},{"name":"Bergsteig","postalCode":"95688","locality":"Friedenfels","municipality":{"key":"09377118","name":"Friedenfels","type":"Kreisangehörige_Gemeinde"},"district":{"key":"09377","name":"Tirschenreuth","type":"Landkreis"},"federalState":{"key":"09","name":"Bayern"}},{"name":"Bergstr.","postalCode":"56745","locality":"Rieden","municipality":{"key":"07137093","name":"Rieden","type":"Kreisangehörige_Gemeinde"},"district":{"key":"07137","name":"Mayen-Koblenz","type":"Landkreis"},"federalState":{"key":"07","name":"Rheinland-Pfalz"}},{"name":"Bergstr.","postalCode":"87769","locality":"Oberrieden","municipality":{"key":"09778183","name":"Oberrieden","type":"Kreisangehörige_Gemeinde"},"district":{"key":"09778","name":"Unterallgäu","type":"Landkreis"},"federalState":{"key":"09","name":"Bayern"}},{"name":"Bergstr.","postalCode":"88483","locality":"Burgrieden","municipality":{"key":"08426028","name":"Burgrieden","type":"Kreisangehörige_Gemeinde"},"district":{"key":"08426","name":"Biberach","type":"Landkreis"},"federalState":{"key":"08","name":"Baden-Württemberg"}},{"name":"Bergstr.","postalCode":"92286","locality":"Rieden","municipality":{"key":"09371146","name":"Rieden, M","type":"Markt"},"district":{"key":"09371","name":"Amberg-Sulzbach","type":"Landkreis"},"federalState":{"key":"09","name":"Bayern"}},{"name":"Bergstr.","postalCode":"93339","locality":"Riedenburg","municipality":{"key":"09273164","name":"Riedenburg, St","type":"Stadt"},"district":{"key":"09273","name":"Kelheim","type":"Landkreis"},"federalState":{"key":"09","name":"Bayern"}},{"name":"Berliner Str.","postalCode":"87668","locality":"Rieden","municipality":{"key":"09777164","name":"Rieden","type":"Kreisangehörige_Gemeinde"},"district":{"key":"09777","name":"Ostallgäu","type":"Landkreis"},"federalState":{"key":"09","name":"Bayern"}},{"name":"Bernhard-Kromer-Weg","postalCode":"79877","locality":"Friedenweiler","municipality":{"key":"08315039","name":"Friedenweiler","type":"Kreisangehörige_Gemeinde"},"district":{"key":"08315","name":"Breisgau-Hochschwarzwald","type":"Landkreis"},"federalState":{"key":"08","name":"Baden-Württemberg"}},{"name":"Bettäcker","postalCode":"93339","locality":"Riedenburg","municipality":{"key":"09273164","name":"Riedenburg, St","type":"Stadt"},"district":{"key":"09273","name":"Kelheim","type":"Landkreis"},"federalState":{"key":"09","name":"Bayern"}},{"name":"Beurener Str.","postalCode":"89186","locality":"Illerrieden","municipality":{"key":"08425066","name":"Illerrieden","type":"Kreisangehörige_Gemeinde"},"district":{"key":"08425","name":"Alb-Donau-Kreis","type":"Landkreis"},"federalState":{"key":"08","name":"Baden-Württemberg"}},{"name":"Bihlafinger Str.","postalCode":"88483","locality":"Burgrieden","municipality":{"key":"08426028","name":"Burgrieden","type":"Kreisangehörige_Gemeinde"},"district":{"key":"08426","name":"Biberach","type":"Landkreis"},"federalState":{"key":"08","name":"Baden-Württemberg"}},{"name":"Binzwangener Weg","postalCode":"91567","locality":"Herrieden","municipality":{"key":"09571166","name":"Herrieden, St","type":"Stadt"},"district":{"key":"09571","name":"Ansbach","type":"Landkreis"},"federalState":{"key":"09","name":"Bayern"}},{"name":"Birkenstr.","postalCode":"87767","locality":"Niederrieden","municipality":{"key":"09778177","name":"Niederrieden","type":"Kreisangehörige_Gemeinde"},"district":{"key":"09778","name":"Unterallgäu","type":"Landkreis"},"federalState":{"key":"09","name":"Bayern"}},{"name":"Birkenstr.","postalCode":"93339","locality":"Riedenburg","municipality":{"key":"09273164","name":"Riedenburg, St","type":"Stadt"},"district":{"key":"09273","name":"Kelheim","type":"Landkreis"},"federalState":{"key":"09","name":"Bayern"}},{"name":"Birkenweg","postalCode":"79877","locality":"Friedenweiler","municipality":{"key":"08315039","name":"Friedenweiler","type":"Kreisangehörige_Gemeinde"},"district":{"key":"08315","name":"Breisgau-Hochschwarzwald","type":"Landkreis"},"federalState":{"key":"08","name":"Baden-Württemberg"}},{"name":"Christophorusweg","postalCode":"87669","locality":"Rieden am Forggensee","municipality":{"key":"09777163","name":"Rieden am Forggensee","type":"Kreisangehörige_Gemeinde"},"district":{"key":"09777","name":"Ostallgäu","type":"Landkreis"},"federalState":{"key":"09","name":"Bayern"}},{"name":"Dahlienweg","postalCode":"92286","locality":"Rieden","municipality":{"key":"09371146","name":"Rieden, M","type":"Markt"},"district":{"key":"09371","name":"Amberg-Sulzbach","type":"Landkreis"},"federalState":{"key":"09","name":"Bayern"}},{"name":"Danziger Str.","postalCode":"91567","locality":"Herrieden","municipality":{"key":"09571166","name":"Herrieden, St","type":"Stadt"},"district":{"key":"09571","name":"Ansbach","type":"Landkreis"},"federalState":{"key":"09","name":"Bayern"}},{"name":"Deocarplatz","postalCode":"91567","locality":"Herrieden","municipality":{"key":"09571166","name":"Herrieden, St","type":"Stadt"},"district":{"key":"09571","name":"Ansbach","type":"Landkreis"},"federalState":{"key":"09","name":"Bayern"}},{"name":"Deutschordenstr.","postalCode":"89186","locality":"Illerrieden","municipality":{"key":"08425066","name":"Illerrieden","type":"Kreisangehörige_Gemeinde"},"district":{"key":"08425","name":"Alb-Donau-Kreis","type":"Landkreis"},"federalState":{"key":"08","name":"Baden-Württemberg"}},{"name":"Dietringer Almstr.","postalCode":"87669","locality":"Rieden am Forggensee","municipality":{"key":"09777163","name":"Rieden am Forggensee","type":"Kreisangehörige_Gemeinde"},"district":{"key":"09777","name":"Ostallgäu","type":"Landkreis"},"federalState":{"key":"09","name":"Bayern"}},{"name":"Dietringer Str.","postalCode":"87669","locality":"Rieden am Forggensee","municipality":{"key":"09777163","name":"Rieden am Forggensee","type":"Kreisangehörige_Gemeinde"},"district":{"key":"09777","name":"Ostallgäu","type":"Landkreis"},"federalState":{"key":"09","name":"Bayern"}},{"name":"Dinkelburgweg","postalCode":"91567","locality":"Herrieden","municipality":{"key":"09571166","name":"Herrieden, St","type":"Stadt"},"district":{"key":"09571","name":"Ansbach","type":"Landkreis"},"federalState":{"key":"09","name":"Bayern"}},{"name":"Dombühler Str.","postalCode":"91567","locality":"Herrieden","municipality":{"key":"09571166","name":"Herrieden, St","type":"Stadt"},"district":{"key":"09571","name":"Ansbach","type":"Landkreis"},"federalState":{"key":"09","name":"Bayern"}},{"name":"Dorfplatz","postalCode":"91567","locality":"Herrieden","municipality":{"key":"09571166","name":"Herrieden, St","type":"Stadt"},"district":{"key":"09571","name":"Ansbach","type":"Landkreis"},"federalState":{"key":"09","name":"Bayern"}},{"name":"Dorfplatzwiese mit Kastanienbäume, Brunnen mit Wappen von Oberrieden und ein Pavillon","postalCode":"87769","locality":"Oberrieden","municipality":{"key":"09778183","name":"Oberrieden","type":"Kreisangehörige_Gemeinde"},"district":{"key":"09778","name":"Unterallgäu","type":"Landkreis"},"federalState":{"key":"09","name":"Bayern"}},{"name":"Dorfstr.","postalCode":"87668","locality":"Rieden","municipality":{"key":"09777164","name":"Rieden","type":"Kreisangehörige_Gemeinde"},"district":{"key":"09777","name":"Ostallgäu","type":"Landkreis"},"federalState":{"key":"09","name":"Bayern"}},{"name":"Dorfstr.","postalCode":"87769","locality":"Oberrieden","municipality":{"key":"09778183","name":"Oberrieden","type":"Kreisangehörige_Gemeinde"},"district":{"key":"09778","name":"Unterallgäu","type":"Landkreis"},"federalState":{"key":"09","name":"Bayern"}},{"name":"Dorfstr.","postalCode":"88483","locality":"Burgrieden","municipality":{"key":"08426028","name":"Burgrieden","type":"Kreisangehörige_Gemeinde"},"district":{"key":"08426","name":"Biberach","type":"Landkreis"},"federalState":{"key":"08","name":"Baden-Württemberg"}},{"name":"Dorfstr.","postalCode":"93339","locality":"Riedenburg","municipality":{"key":"09273164","name":"Riedenburg, St","type":"Stadt"},"district":{"key":"09273","name":"Kelheim","type":"Landkreis"},"federalState":{"key":"09","name":"Bayern"}},{"name":"Dorfwiese","postalCode":"87769","locality":"Oberrieden","municipality":{"key":"09778183","name":"Oberrieden","type":"Kreisangehörige_Gemeinde"},"district":{"key":"09778","name":"Unterallgäu","type":"Landkreis"},"federalState":{"key":"09","name":"Bayern"}},{"name":"Dorndorfer Str.","postalCode":"89186","locality":"Illerrieden","municipality":{"key":"08425066","name":"Illerrieden","type":"Kreisangehörige_Gemeinde"},"district":{"key":"08425","name":"Alb-Donau-Kreis","type":"Landkreis"},"federalState":{"key":"08","name":"Baden-Württemberg"}},{"name":"Dornheck","postalCode":"56745","locality":"Rieden","municipality":{"key":"07137093","name":"Rieden","type":"Kreisangehörige_Gemeinde"},"district":{"key":"07137","name":"Mayen-Koblenz","type":"Landkreis"},"federalState":{"key":"07","name":"Rheinland-Pfalz"}},{"name":"Dresdener Str.","postalCode":"87668","locality":"Rieden","municipality":{"key":"09777164","name":"Rieden","type":"Kreisangehörige_Gemeinde"},"district":{"key":"09777","name":"Ostallgäu","type":"Landkreis"},"federalState":{"key":"09","name":"Bayern"}},{"name":"Dr.-Georg-Klinkhammer-Weg","postalCode":"56745","locality":"Rieden","municipality":{"key":"07137093","name":"Rieden","type":"Kreisangehörige_Gemeinde"},"district":{"key":"07137","name":"Mayen-Koblenz","type":"Landkreis"},"federalState":{"key":"07","name":"Rheinland-Pfalz"}},{"name":"Dr.-Schenz-Weg","postalCode":"87767","locality":"Niederrieden","municipality":{"key":"09778177","name":"Niederrieden","type":"Kreisangehörige_Gemeinde"},"district":{"key":"09778","name":"Unterallgäu","type":"Landkreis"},"federalState":{"key":"09","name":"Bayern"}},{"name":"Echendorf","postalCode":"93339","locality":"Riedenburg","municipality":{"key":"09273164","name":"Riedenburg, St","type":"Stadt"},"district":{"key":"09273","name":"Kelheim","type":"Landkreis"},"federalState":{"key":"09","name":"Bayern"}},{"name":"Egelhofer Weg","postalCode":"87769","locality":"Oberrieden","municipality":{"key":"09778183","name":"Oberrieden","type":"Kreisangehörige_Gemeinde"},"district":{"key":"09778","name":"Unterallgäu","type":"Landkreis"},"federalState":{"key":"09","name":"Bayern"}},{"name":"Egenhausener Str.","postalCode":"91567","locality":"Herrieden","municipality":{"key":"09571166","name":"Herrieden, St","type":"Stadt"},"district":{"key":"09571","name":"Ansbach","type":"Landkreis"},"federalState":{"key":"09","name":"Bayern"}},{"name":"Egerlandstr.","postalCode":"87767","locality":"Niederrieden","municipality":{"key":"09778177","name":"Niederrieden","type":"Kreisangehörige_Gemeinde"},"district":{"key":"09778","name":"Unterallgäu","type":"Landkreis"},"federalState":{"key":"09","name":"Bayern"}},{"name":"Eggersberger Weg","postalCode":"93339","locality":"Riedenburg","municipality":{"key":"09273164","name":"Riedenburg, St","type":"Stadt"},"district":{"key":"09273","name":"Kelheim","type":"Landkreis"},"federalState":{"key":"09","name":"Bayern"}},{"name":"Ehrwangweg","postalCode":"87669","locality":"Rieden am Forggensee","municipality":{"key":"09777163","name":"Rieden am Forggensee","type":"Kreisangehörige_Gemeinde"},"district":{"key":"09777","name":"Ostallgäu","type":"Landkreis"},"federalState":{"key":"09","name":"Bayern"}},{"name":"Eichendorffstr.","postalCode":"87668","locality":"Rieden","municipality":{"key":"09777164","name":"Rieden","type":"Kreisangehörige_Gemeinde"},"district":{"key":"09777","name":"Ostallgäu","type":"Landkreis"},"federalState":{"key":"09","name":"Bayern"}},{"name":"Eichenweg","postalCode":"87668","locality":"Rieden","municipality":{"key":"09777164","name":"Rieden","type":"Kreisangehörige_Gemeinde"},"district":{"key":"09777","name":"Ostallgäu","type":"Landkreis"},"federalState":{"key":"09","name":"Bayern"}},{"name":"Eichenweg","postalCode":"87767","locality":"Niederrieden","municipality":{"key":"09778177","name":"Niederrieden","type":"Kreisangehörige_Gemeinde"},"district":{"key":"09778","name":"Unterallgäu","type":"Landkreis"},"federalState":{"key":"09","name":"Bayern"}},{"name":"Eichenweg","postalCode":"89186","locality":"Illerrieden","municipality":{"key":"08425066","name":"Illerrieden","type":"Kreisangehörige_Gemeinde"},"district":{"key":"08425","name":"Alb-Donau-Kreis","type":"Landkreis"},"federalState":{"key":"08","name":"Baden-Württemberg"}},{"name":"Eifelterrasse","postalCode":"56745","locality":"Rieden","municipality":{"key":"07137093","name":"Rieden","type":"Kreisangehörige_Gemeinde"},"district":{"key":"07137","name":"Mayen-Koblenz","type":"Landkreis"},"federalState":{"key":"07","name":"Rheinland-Pfalz"}},{"name":"Einödweg","postalCode":"87767","locality":"Niederrieden","municipality":{"key":"09778177","name":"Niederrieden","type":"Kreisangehörige_Gemeinde"},"district":{"key":"09778","name":"Unterallgäu","type":"Landkreis"},"federalState":{"key":"09","name":"Bayern"}},{"name":"Einsiedelweg","postalCode":"93339","locality":"Riedenburg","municipality":{"key":"09273164","name":"Riedenburg, St","type":"Stadt"},"district":{"key":"09273","name":"Kelheim","type":"Landkreis"},"federalState":{"key":"09","name":"Bayern"}},{"name":"Elendweg","postalCode":"87767","locality":"Niederrieden","municipality":{"key":"09778177","name":"Niederrieden","type":"Kreisangehörige_Gemeinde"},"district":{"key":"09778","name":"Unterallgäu","type":"Landkreis"},"federalState":{"key":"09","name":"Bayern"}},{"name":"Elisabethen Allee","postalCode":"79877","locality":"Friedenweiler","municipality":{"key":"08315039","name":"Friedenweiler","type":"Kreisangehörige_Gemeinde"},"district":{"key":"08315","name":"Breisgau-Hochschwarzwald","type":"Landkreis"},"federalState":{"key":"08","name":"Baden-Württemberg"}},{"name":"Elisabeth-Walter-Str.","postalCode":"79877","locality":"Friedenweiler","municipality":{"key":"08315039","name":"Friedenweiler","type":"Kreisangehörige_Gemeinde"},"district":{"key":"08315","name":"Breisgau-Hochschwarzwald","type":"Landkreis"},"federalState":{"key":"08","name":"Baden-Württemberg"}},{"name":"Ellenbergweg","postalCode":"79877","locality":"Friedenweiler","municipality":{"key":"08315039","name":"Friedenweiler","type":"Kreisangehörige_Gemeinde"},"district":{"key":"08315","name":"Breisgau-Hochschwarzwald","type":"Landkreis"},"federalState":{"key":"08","name":"Baden-Württemberg"}},{"name":"Emmerthal","postalCode":"93339","locality":"Riedenburg","municipality":{"key":"09273164","name":"Riedenburg, St","type":"Stadt"},"district":{"key":"09273","name":"Kelheim","type":"Landkreis"},"federalState":{"key":"09","name":"Bayern"}},{"name":"Emmerthaler Grund","postalCode":"93339","locality":"Riedenburg","municipality":{"key":"09273164","name":"Riedenburg, St","type":"Stadt"},"district":{"key":"09273","name":"Kelheim","type":"Landkreis"},"federalState":{"key":"09","name":"Bayern"}},{"name":"Emmerthaler Str.","postalCode":"93339","locality":"Riedenburg","municipality":{"key":"09273164","name":"Riedenburg, St","type":"Stadt"},"district":{"key":"09273","name":"Kelheim","type":"Landkreis"},"federalState":{"key":"09","name":"Bayern"}},{"name":"Erfahrungsfeld","postalCode":"91567","locality":"Herrieden","municipality":{"key":"09571166","name":"Herrieden, St","type":"Stadt"},"district":{"key":"09571","name":"Ansbach","type":"Landkreis"},"federalState":{"key":"09","name":"Bayern"}},{"name":"Erlenstr.","postalCode":"93339","locality":"Riedenburg","municipality":{"key":"09273164","name":"Riedenburg, St","type":"Stadt"},"district":{"key":"09273","name":"Kelheim","type":"Landkreis"},"federalState":{"key":"09","name":"Bayern"}},{"name":"Erlenweg","postalCode":"88483","locality":"Burgrieden","municipality":{"key":"08426028","name":"Burgrieden","type":"Kreisangehörige_Gemeinde"},"district":{"key":"08426","name":"Biberach","type":"Landkreis"},"federalState":{"key":"08","name":"Baden-Württemberg"}},{"name":"Erlenweg","postalCode":"89186","locality":"Illerrieden","municipality":{"key":"08425066","name":"Illerrieden","type":"Kreisangehörige_Gemeinde"},"district":{"key":"08425","name":"Alb-Donau-Kreis","type":"Landkreis"},"federalState":{"key":"08","name":"Baden-Württemberg"}},{"name":"Erzabt-Brechter-Str.","postalCode":"89186","locality":"Illerrieden","municipality":{"key":"08425066","name":"Illerrieden","type":"Kreisangehörige_Gemeinde"},"district":{"key":"08425","name":"Alb-Donau-Kreis","type":"Landkreis"},"federalState":{"key":"08","name":"Baden-Württemberg"}},{"name":"Eschenweg","postalCode":"87769","locality":"Oberrieden","municipality":{"key":"09778183","name":"Oberrieden","type":"Kreisangehörige_Gemeinde"},"district":{"key":"09778","name":"Unterallgäu","type":"Landkreis"},"federalState":{"key":"09","name":"Bayern"}},{"name":"Eschenweg","postalCode":"93339","locality":"Riedenburg","municipality":{"key":"09273164","name":"Riedenburg, St","type":"Stadt"},"district":{"key":"09273","name":"Kelheim","type":"Landkreis"},"federalState":{"key":"09","name":"Bayern"}},{"name":"Eselsteig","postalCode":"93339","locality":"Riedenburg","municipality":{"key":"09273164","name":"Riedenburg, St","type":"Stadt"},"district":{"key":"09273","name":"Kelheim","type":"Landkreis"},"federalState":{"key":"09","name":"Bayern"}},{"name":"Falläcker","postalCode":"92286","locality":"Rieden","municipality":{"key":"09371146","name":"Rieden, M","type":"Markt"},"district":{"key":"09371","name":"Amberg-Sulzbach","type":"Landkreis"},"federalState":{"key":"09","name":"Bayern"}},{"name":"Fallhausweg","postalCode":"91567","locality":"Herrieden","municipality":{"key":"09571166","name":"Herrieden, St","type":"Stadt"},"district":{"key":"09571","name":"Ansbach","type":"Landkreis"},"federalState":{"key":"09","name":"Bayern"}},{"name":"Faulenseestr.","postalCode":"87669","locality":"Rieden am Forggensee","municipality":{"key":"09777163","name":"Rieden am Forggensee","type":"Kreisangehörige_Gemeinde"},"district":{"key":"09777","name":"Ostallgäu","type":"Landkreis"},"federalState":{"key":"09","name":"Bayern"}},{"name":"Feldblick","postalCode":"88483","locality":"Burgrieden","municipality":{"key":"08426028","name":"Burgrieden","type":"Kreisangehörige_Gemeinde"},"district":{"key":"08426","name":"Biberach","type":"Landkreis"},"federalState":{"key":"08","name":"Baden-Württemberg"}},{"name":"Feldstr.","postalCode":"93339","locality":"Riedenburg","municipality":{"key":"09273164","name":"Riedenburg, St","type":"Stadt"},"district":{"key":"09273","name":"Kelheim","type":"Landkreis"},"federalState":{"key":"09","name":"Bayern"}},{"name":"Felsenblick","postalCode":"93339","locality":"Riedenburg","municipality":{"key":"09273164","name":"Riedenburg, St","type":"Stadt"},"district":{"key":"09273","name":"Kelheim","type":"Landkreis"},"federalState":{"key":"09","name":"Bayern"}},{"name":"Fesselweg","postalCode":"88483","locality":"Burgrieden","municipality":{"key":"08426028","name":"Burgrieden","type":"Kreisangehörige_Gemeinde"},"district":{"key":"08426","name":"Biberach","type":"Landkreis"},"federalState":{"key":"08","name":"Baden-Württemberg"}},{"name":"Feuchtwangener Str.","postalCode":"91567","locality":"Herrieden","municipality":{"key":"09571166","name":"Herrieden, St","type":"Stadt"},"district":{"key":"09571","name":"Ansbach","type":"Landkreis"},"federalState":{"key":"09","name":"Bayern"}},{"name":"Fichtenweg","postalCode":"93339","locality":"Riedenburg","municipality":{"key":"09273164","name":"Riedenburg, St","type":"Stadt"},"district":{"key":"09273","name":"Kelheim","type":"Landkreis"},"federalState":{"key":"09","name":"Bayern"}},{"name":"Fichtenweg","postalCode":"97792","locality":"Riedenberg","municipality":{"key":"09672145","name":"Riedenberg","type":"Kreisangehörige_Gemeinde"},"district":{"key":"09672","name":"Bad Kissingen","type":"Landkreis"},"federalState":{"key":"09","name":"Bayern"}},{"name":"Finkenweg","postalCode":"87767","locality":"Niederrieden","municipality":{"key":"09778177","name":"Niederrieden","type":"Kreisangehörige_Gemeinde"},"district":{"key":"09778","name":"Unterallgäu","type":"Landkreis"},"federalState":{"key":"09","name":"Bayern"}},{"name":"Finkenweg","postalCode":"88483","locality":"Burgrieden","municipality":{"key":"08426028","name":"Burgrieden","type":"Kreisangehörige_Gemeinde"},"district":{"key":"08426","name":"Biberach","type":"Landkreis"},"federalState":{"key":"08","name":"Baden-Württemberg"}},{"name":"Finkenweg","postalCode":"89186","locality":"Illerrieden","municipality":{"key":"08425066","name":"Illerrieden","type":"Kreisangehörige_Gemeinde"},"district":{"key":"08425","name":"Alb-Donau-Kreis","type":"Landkreis"},"federalState":{"key":"08","name":"Baden-Württemberg"}},{"name":"Finkenweg","postalCode":"95688","locality":"Friedenfels","municipality":{"key":"09377118","name":"Friedenfels","type":"Kreisangehörige_Gemeinde"},"district":{"key":"09377","name":"Tirschenreuth","type":"Landkreis"},"federalState":{"key":"09","name":"Bayern"}},{"name":"Finkenweg","postalCode":"97792","locality":"Riedenberg","municipality":{"key":"09672145","name":"Riedenberg","type":"Kreisangehörige_Gemeinde"},"district":{"key":"09672","name":"Bad Kissingen","type":"Landkreis"},"federalState":{"key":"09","name":"Bayern"}},{"name":"Fliedergasse","postalCode":"87767","locality":"Niederrieden","municipality":{"key":"09778177","name":"Niederrieden","type":"Kreisangehörige_Gemeinde"},"district":{"key":"09778","name":"Unterallgäu","type":"Landkreis"},"federalState":{"key":"09","name":"Bayern"}},{"name":"Fliederstr.","postalCode":"93339","locality":"Riedenburg","municipality":{"key":"09273164","name":"Riedenburg, St","type":"Stadt"},"district":{"key":"09273","name":"Kelheim","type":"Landkreis"},"federalState":{"key":"09","name":"Bayern"}},{"name":"Fliederweg","postalCode":"92286","locality":"Rieden","municipality":{"key":"09371146","name":"Rieden, M","type":"Markt"},"district":{"key":"09371","name":"Amberg-Sulzbach","type":"Landkreis"},"federalState":{"key":"09","name":"Bayern"}},{"name":"Flurweg","postalCode":"88483","locality":"Burgrieden","municipality":{"key":"08426028","name":"Burgrieden","type":"Kreisangehörige_Gemeinde"},"district":{"key":"08426","name":"Biberach","type":"Landkreis"},"federalState":{"key":"08","name":"Baden-Württemberg"}},{"name":"Föhrenweg","postalCode":"93339","locality":"Riedenburg","municipality":{"key":"09273164","name":"Riedenburg, St","type":"Stadt"},"district":{"key":"09273","name":"Kelheim","type":"Landkreis"},"federalState":{"key":"09","name":"Bayern"}},{"name":"Forellenstr.","postalCode":"97792","locality":"Riedenberg","municipality":{"key":"09672145","name":"Riedenberg","type":"Kreisangehörige_Gemeinde"},"district":{"key":"09672","name":"Bad Kissingen","type":"Landkreis"},"federalState":{"key":"09","name":"Bayern"}},{"name":"Forellenweg","postalCode":"87669","locality":"Rieden am Forggensee","municipality":{"key":"09777163","name":"Rieden am Forggensee","type":"Kreisangehörige_Gemeinde"},"district":{"key":"09777","name":"Ostallgäu","type":"Landkreis"},"federalState":{"key":"09","name":"Bayern"}},{"name":"Forggenseestr.","postalCode":"87669","locality":"Rieden am Forggensee","municipality":{"key":"09777163","name":"Rieden am Forggensee","type":"Kreisangehörige_Gemeinde"},"district":{"key":"09777","name":"Ostallgäu","type":"Landkreis"},"federalState":{"key":"09","name":"Bayern"}},{"name":"Forsthausstr.","postalCode":"97283","locality":"Riedenheim","municipality":{"key":"09679179","name":"Riedenheim","type":"Kreisangehörige_Gemeinde"},"district":{"key":"09679","name":"Würzburg","type":"Landkreis"},"federalState":{"key":"09","name":"Bayern"}},{"name":"Forststr.","postalCode":"92286","locality":"Rieden","municipality":{"key":"09371146","name":"Rieden, M","type":"Markt"},"district":{"key":"09371","name":"Amberg-Sulzbach","type":"Landkreis"},"federalState":{"key":"09","name":"Bayern"}},{"name":"Frankenstr.","postalCode":"91567","locality":"Herrieden","municipality":{"key":"09571166","name":"Herrieden, St","type":"Stadt"},"district":{"key":"09571","name":"Ansbach","type":"Landkreis"},"federalState":{"key":"09","name":"Bayern"}},{"name":"Frankenstr.","postalCode":"97283","locality":"Riedenheim","municipality":{"key":"09679179","name":"Riedenheim","type":"Kreisangehörige_Gemeinde"},"district":{"key":"09679","name":"Würzburg","type":"Landkreis"},"federalState":{"key":"09","name":"Bayern"}},{"name":"Franziskusweg","postalCode":"89186","locality":"Illerrieden","municipality":{"key":"08425066","name":"Illerrieden","type":"Kreisangehörige_Gemeinde"},"district":{"key":"08425","name":"Alb-Donau-Kreis","type":"Landkreis"},"federalState":{"key":"08","name":"Baden-Württemberg"}},{"name":"Franz-Riemhofer-Weg","postalCode":"93339","locality":"Riedenburg","municipality":{"key":"09273164","name":"Riedenburg, St","type":"Stadt"},"district":{"key":"09273","name":"Kelheim","type":"Landkreis"},"federalState":{"key":"09","name":"Bayern"}},{"name":"Freybergstr.","postalCode":"88483","locality":"Burgrieden","municipality":{"key":"08426028","name":"Burgrieden","type":"Kreisangehörige_Gemeinde"},"district":{"key":"08426","name":"Biberach","type":"Landkreis"},"federalState":{"key":"08","name":"Baden-Württemberg"}},{"name":"Friedenweilerstr.","postalCode":"79877","locality":"Friedenweiler","municipality":{"key":"08315039","name":"Friedenweiler","type":"Kreisangehörige_Gemeinde"},"district":{"key":"08315","name":"Breisgau-Hochschwarzwald","type":"Landkreis"},"federalState":{"key":"08","name":"Baden-Württemberg"}},{"name":"Friedhofweg","postalCode":"88483","locality":"Burgrieden","municipality":{"key":"08426028","name":"Burgrieden","type":"Kreisangehörige_Gemeinde"},"district":{"key":"08426","name":"Biberach","type":"Landkreis"},"federalState":{"key":"08","name":"Baden-Württemberg"}},{"name":"Fritz-Baumgärtner-Str.","postalCode":"91567","locality":"Herrieden","municipality":{"key":"09571166","name":"Herrieden, St","type":"Stadt"},"district":{"key":"09571","name":"Ansbach","type":"Landkreis"},"federalState":{"key":"09","name":"Bayern"}},{"name":"Fritz-Leitz-Weg","postalCode":"88483","locality":"Burgrieden","municipality":{"key":"08426028","name":"Burgrieden","type":"Kreisangehörige_Gemeinde"},"district":{"key":"08426","name":"Biberach","type":"Landkreis"},"federalState":{"key":"08","name":"Baden-Württemberg"}},{"name":"Fronveststr.","postalCode":"91567","locality":"Herrieden","municipality":{"key":"09571166","name":"Herrieden, St","type":"Stadt"},"district":{"key":"09571","name":"Ansbach","type":"Landkreis"},"federalState":{"key":"09","name":"Bayern"}},{"name":"Froschgäßchen","postalCode":"93339","locality":"Riedenburg","municipality":{"key":"09273164","name":"Riedenburg, St","type":"Stadt"},"district":{"key":"09273","name":"Kelheim","type":"Landkreis"},"federalState":{"key":"09","name":"Bayern"}},{"name":"Frühlingsstr.","postalCode":"97792","locality":"Riedenberg","municipality":{"key":"09672145","name":"Riedenberg","type":"Kreisangehörige_Gemeinde"},"district":{"key":"09672","name":"Bad Kissingen","type":"Landkreis"},"federalState":{"key":"09","name":"Bayern"}},{"name":"Frühlingstr.","postalCode":"89186","locality":"Illerrieden","municipality":{"key":"08425066","name":"Illerrieden","type":"Kreisangehörige_Gemeinde"},"district":{"key":"08425","name":"Alb-Donau-Kreis","type":"Landkreis"},"federalState":{"key":"08","name":"Baden-Württemberg"}},{"name":"Fuchsäcker","postalCode":"88483","locality":"Burgrieden","municipality":{"key":"08426028","name":"Burgrieden","type":"Kreisangehörige_Gemeinde"},"district":{"key":"08426","name":"Biberach","type":"Landkreis"},"federalState":{"key":"08","name":"Baden-Württemberg"}},{"name":"Fuchsbau Allee","postalCode":"79877","locality":"Friedenweiler","municipality":{"key":"08315039","name":"Friedenweiler","type":"Kreisangehörige_Gemeinde"},"district":{"key":"08315","name":"Breisgau-Hochschwarzwald","type":"Landkreis"},"federalState":{"key":"08","name":"Baden-Württemberg"}},{"name":"Fuggerstr.","postalCode":"91567","locality":"Herrieden","municipality":{"key":"09571166","name":"Herrieden, St","type":"Stadt"},"district":{"key":"09571","name":"Ansbach","type":"Landkreis"},"federalState":{"key":"09","name":"Bayern"}},{"name":"Fuggerweg","postalCode":"88483","locality":"Burgrieden","municipality":{"key":"08426028","name":"Burgrieden","type":"Kreisangehörige_Gemeinde"},"district":{"key":"08426","name":"Biberach","type":"Landkreis"},"federalState":{"key":"08","name":"Baden-Württemberg"}},{"name":"Funkenwiese","postalCode":"88483","locality":"Burgrieden","municipality":{"key":"08426028","name":"Burgrieden","type":"Kreisangehörige_Gemeinde"},"district":{"key":"08426","name":"Biberach","type":"Landkreis"},"federalState":{"key":"08","name":"Baden-Württemberg"}},{"name":"Gablonzer Str.","postalCode":"87668","locality":"Rieden","municipality":{"key":"09777164","name":"Rieden","type":"Kreisangehörige_Gemeinde"},"district":{"key":"09777","name":"Ostallgäu","type":"Landkreis"},"federalState":{"key":"09","name":"Bayern"}},{"name":"Gallismoosweg","postalCode":"79877","locality":"Friedenweiler","municipality":{"key":"08315039","name":"Friedenweiler","type":"Kreisangehörige_Gemeinde"},"district":{"key":"08315","name":"Breisgau-Hochschwarzwald","type":"Landkreis"},"federalState":{"key":"08","name":"Baden-Württemberg"}},{"name":"Ganterstr.","postalCode":"79877","locality":"Friedenweiler","municipality":{"key":"08315039","name":"Friedenweiler","type":"Kreisangehörige_Gemeinde"},"district":{"key":"08315","name":"Breisgau-Hochschwarzwald","type":"Landkreis"},"federalState":{"key":"08","name":"Baden-Württemberg"}},{"name":"Gartenstr.","postalCode":"56829","locality":"Brieden","municipality":{"key":"07135014","name":"Brieden","type":"Kreisangehörige_Gemeinde"},"district":{"key":"07135","name":"Cochem-Zell","type":"Landkreis"},"federalState":{"key":"07","name":"Rheinland-Pfalz"}},{"name":"Gartenstr.","postalCode":"79877","locality":"Friedenweiler","municipality":{"key":"08315039","name":"Friedenweiler","type":"Kreisangehörige_Gemeinde"},"district":{"key":"08315","name":"Breisgau-Hochschwarzwald","type":"Landkreis"},"federalState":{"key":"08","name":"Baden-Württemberg"}},{"name":"Gartenstr.","postalCode":"87785","locality":"Winterrieden","municipality":{"key":"09778217","name":"Winterrieden","type":"Kreisangehörige_Gemeinde"},"district":{"key":"09778","name":"Unterallgäu","type":"Landkreis"},"federalState":{"key":"09","name":"Bayern"}},{"name":"Gartenstr.","postalCode":"88483","locality":"Burgrieden","municipality":{"key":"08426028","name":"Burgrieden","type":"Kreisangehörige_Gemeinde"},"district":{"key":"08426","name":"Biberach","type":"Landkreis"},"federalState":{"key":"08","name":"Baden-Württemberg"}},{"name":"Gartenstr.","postalCode":"89186","locality":"Illerrieden","municipality":{"key":"08425066","name":"Illerrieden","type":"Kreisangehörige_Gemeinde"},"district":{"key":"08425","name":"Alb-Donau-Kreis","type":"Landkreis"},"federalState":{"key":"08","name":"Baden-Württemberg"}},{"name":"Gartenstr.","postalCode":"93339","locality":"Riedenburg","municipality":{"key":"09273164","name":"Riedenburg, St","type":"Stadt"},"district":{"key":"09273","name":"Kelheim","type":"Landkreis"},"federalState":{"key":"09","name":"Bayern"}},{"name":"Gartenstr.","postalCode":"95688","locality":"Friedenfels","municipality":{"key":"09377118","name":"Friedenfels","type":"Kreisangehörige_Gemeinde"},"district":{"key":"09377","name":"Tirschenreuth","type":"Landkreis"},"federalState":{"key":"09","name":"Bayern"}},{"name":"Gartenstr.","postalCode":"97283","locality":"Riedenheim","municipality":{"key":"09679179","name":"Riedenheim","type":"Kreisangehörige_Gemeinde"},"district":{"key":"09679","name":"Würzburg","type":"Landkreis"},"federalState":{"key":"09","name":"Bayern"}},{"name":"Gartenstr.","postalCode":"97792","locality":"Riedenberg","municipality":{"key":"09672145","name":"Riedenberg","type":"Kreisangehörige_Gemeinde"},"district":{"key":"09672","name":"Bad Kissingen","type":"Landkreis"},"federalState":{"key":"09","name":"Bayern"}},{"name":"Gasslweg","postalCode":"93339","locality":"Riedenburg","municipality":{"key":"09273164","name":"Riedenburg, St","type":"Stadt"},"district":{"key":"09273","name":"Kelheim","type":"Landkreis"},"federalState":{"key":"09","name":"Bayern"}},{"name":"Gatterwaldweg","postalCode":"79877","locality":"Friedenweiler","municipality":{"key":"08315039","name":"Friedenweiler","type":"Kreisangehörige_Gemeinde"},"district":{"key":"08315","name":"Breisgau-Hochschwarzwald","type":"Landkreis"},"federalState":{"key":"08","name":"Baden-Württemberg"}},{"name":"Geisenberg","postalCode":"56745","locality":"Rieden","municipality":{"key":"07137093","name":"Rieden","type":"Kreisangehörige_Gemeinde"},"district":{"key":"07137","name":"Mayen-Koblenz","type":"Landkreis"},"federalState":{"key":"07","name":"Rheinland-Pfalz"}},{"name":"Geisgieblweg","postalCode":"93339","locality":"Riedenburg","municipality":{"key":"09273164","name":"Riedenburg, St","type":"Stadt"},"district":{"key":"09273","name":"Kelheim","type":"Landkreis"},"federalState":{"key":"09","name":"Bayern"}},{"name":"Gelchsheimer Str.","postalCode":"97283","locality":"Riedenheim","municipality":{"key":"09679179","name":"Riedenheim","type":"Kreisangehörige_Gemeinde"},"district":{"key":"09679","name":"Würzburg","type":"Landkreis"},"federalState":{"key":"09","name":"Bayern"}},{"name":"Gemmingen-Str.","postalCode":"95688","locality":"Friedenfels","municipality":{"key":"09377118","name":"Friedenfels","type":"Kreisangehörige_Gemeinde"},"district":{"key":"09377","name":"Tirschenreuth","type":"Landkreis"},"federalState":{"key":"09","name":"Bayern"}},{"name":"Gerodaer Str.","postalCode":"97792","locality":"Riedenberg","municipality":{"key":"09672145","name":"Riedenberg","type":"Kreisangehörige_Gemeinde"},"district":{"key":"09672","name":"Bad Kissingen","type":"Landkreis"},"federalState":{"key":"09","name":"Bayern"}},{"name":"Gerstenweg","postalCode":"87767","locality":"Niederrieden","municipality":{"key":"09778177","name":"Niederrieden","type":"Kreisangehörige_Gemeinde"},"district":{"key":"09778","name":"Unterallgäu","type":"Landkreis"},"federalState":{"key":"09","name":"Bayern"}},{"name":"Gewerbestr.","postalCode":"87767","locality":"Niederrieden","municipality":{"key":"09778177","name":"Niederrieden","type":"Kreisangehörige_Gemeinde"},"district":{"key":"09778","name":"Unterallgäu","type":"Landkreis"},"federalState":{"key":"09","name":"Bayern"}},{"name":"Gießenweg","postalCode":"89186","locality":"Illerrieden","municipality":{"key":"08425066","name":"Illerrieden","type":"Kreisangehörige_Gemeinde"},"district":{"key":"08425","name":"Alb-Donau-Kreis","type":"Landkreis"},"federalState":{"key":"08","name":"Baden-Württemberg"}},{"name":"Gleislhofstr.","postalCode":"93339","locality":"Riedenburg","municipality":{"key":"09273164","name":"Riedenburg, St","type":"Stadt"},"district":{"key":"09273","name":"Kelheim","type":"Landkreis"},"federalState":{"key":"09","name":"Bayern"}},{"name":"Glockenstr.","postalCode":"97792","locality":"Riedenberg","municipality":{"key":"09672145","name":"Riedenberg","type":"Kreisangehörige_Gemeinde"},"district":{"key":"09672","name":"Bad Kissingen","type":"Landkreis"},"federalState":{"key":"09","name":"Bayern"}},{"name":"Goethestr.","postalCode":"97792","locality":"Riedenberg","municipality":{"key":"09672145","name":"Riedenberg","type":"Kreisangehörige_Gemeinde"},"district":{"key":"09672","name":"Bad Kissingen","type":"Landkreis"},"federalState":{"key":"09","name":"Bayern"}},{"name":"Göschweilerstr.","postalCode":"79877","locality":"Friedenweiler","municipality":{"key":"08315039","name":"Friedenweiler","type":"Kreisangehörige_Gemeinde"},"district":{"key":"08315","name":"Breisgau-Hochschwarzwald","type":"Landkreis"},"federalState":{"key":"08","name":"Baden-Württemberg"}},{"name":"Grabenäcker","postalCode":"87668","locality":"Rieden","municipality":{"key":"09777164","name":"Rieden","type":"Kreisangehörige_Gemeinde"},"district":{"key":"09777","name":"Ostallgäu","type":"Landkreis"},"federalState":{"key":"09","name":"Bayern"}},{"name":"Grabenstr.","postalCode":"56745","locality":"Rieden","municipality":{"key":"07137093","name":"Rieden","type":"Kreisangehörige_Gemeinde"},"district":{"key":"07137","name":"Mayen-Koblenz","type":"Landkreis"},"federalState":{"key":"07","name":"Rheinland-Pfalz"}},{"name":"Grafen Allee","postalCode":"79877","locality":"Friedenweiler","municipality":{"key":"08315039","name":"Friedenweiler","type":"Kreisangehörige_Gemeinde"},"district":{"key":"08315","name":"Breisgau-Hochschwarzwald","type":"Landkreis"},"federalState":{"key":"08","name":"Baden-Württemberg"}},{"name":"Grenzbachstr.","postalCode":"95688","locality":"Friedenfels","municipality":{"key":"09377118","name":"Friedenfels","type":"Kreisangehörige_Gemeinde"},"district":{"key":"09377","name":"Tirschenreuth","type":"Landkreis"},"federalState":{"key":"09","name":"Bayern"}},{"name":"Grenzweg","postalCode":"79877","locality":"Friedenweiler","municipality":{"key":"08315039","name":"Friedenweiler","type":"Kreisangehörige_Gemeinde"},"district":{"key":"08315","name":"Breisgau-Hochschwarzwald","type":"Landkreis"},"federalState":{"key":"08","name":"Baden-Württemberg"}},{"name":"Griebeläckerstr.","postalCode":"87769","locality":"Oberrieden","municipality":{"key":"09778183","name":"Oberrieden","type":"Kreisangehörige_Gemeinde"},"district":{"key":"09778","name":"Unterallgäu","type":"Landkreis"},"federalState":{"key":"09","name":"Bayern"}},{"name":"Griesweg","postalCode":"89186","locality":"Illerrieden","municipality":{"key":"08425066","name":"Illerrieden","type":"Kreisangehörige_Gemeinde"},"district":{"key":"08425","name":"Alb-Donau-Kreis","type":"Landkreis"},"federalState":{"key":"08","name":"Baden-Württemberg"}},{"name":"Großenrieder Str.","postalCode":"91567","locality":"Herrieden","municipality":{"key":"09571166","name":"Herrieden, St","type":"Stadt"},"district":{"key":"09571","name":"Ansbach","type":"Landkreis"},"federalState":{"key":"09","name":"Bayern"}},{"name":"Grottenweg","postalCode":"87767","locality":"Niederrieden","municipality":{"key":"09778177","name":"Niederrieden","type":"Kreisangehörige_Gemeinde"},"district":{"key":"09778","name":"Unterallgäu","type":"Landkreis"},"federalState":{"key":"09","name":"Bayern"}},{"name":"Grund","postalCode":"89186","locality":"Illerrieden","municipality":{"key":"08425066","name":"Illerrieden","type":"Kreisangehörige_Gemeinde"},"district":{"key":"08425","name":"Alb-Donau-Kreis","type":"Landkreis"},"federalState":{"key":"08","name":"Baden-Württemberg"}},{"name":"Grundweg","postalCode":"87767","locality":"Niederrieden","municipality":{"key":"09778177","name":"Niederrieden","type":"Kreisangehörige_Gemeinde"},"district":{"key":"09778","name":"Unterallgäu","type":"Landkreis"},"federalState":{"key":"09","name":"Bayern"}},{"name":"Guignicourt-Ring","postalCode":"89186","locality":"Illerrieden","municipality":{"key":"08425066","name":"Illerrieden","type":"Kreisangehörige_Gemeinde"},"district":{"key":"08425","name":"Alb-Donau-Kreis","type":"Landkreis"},"federalState":{"key":"08","name":"Baden-Württemberg"}},{"name":"Haldenweg","postalCode":"87769","locality":"Oberrieden","municipality":{"key":"09778183","name":"Oberrieden","type":"Kreisangehörige_Gemeinde"},"district":{"key":"09778","name":"Unterallgäu","type":"Landkreis"},"federalState":{"key":"09","name":"Bayern"}},{"name":"Haldenweg","postalCode":"88483","locality":"Burgrieden","municipality":{"key":"08426028","name":"Burgrieden","type":"Kreisangehörige_Gemeinde"},"district":{"key":"08426","name":"Biberach","type":"Landkreis"},"federalState":{"key":"08","name":"Baden-Württemberg"}},{"name":"Haldeweg","postalCode":"87785","locality":"Winterrieden","municipality":{"key":"09778217","name":"Winterrieden","type":"Kreisangehörige_Gemeinde"},"district":{"key":"09778","name":"Unterallgäu","type":"Landkreis"},"federalState":{"key":"09","name":"Bayern"}},{"name":"Hammerbergstr.","postalCode":"92286","locality":"Rieden","municipality":{"key":"09371146","name":"Rieden, M","type":"Markt"},"district":{"key":"09371","name":"Amberg-Sulzbach","type":"Landkreis"},"federalState":{"key":"09","name":"Bayern"}},{"name":"Hammerweg","postalCode":"93339","locality":"Riedenburg","municipality":{"key":"09273164","name":"Riedenburg, St","type":"Stadt"},"district":{"key":"09273","name":"Kelheim","type":"Landkreis"},"federalState":{"key":"09","name":"Bayern"}},{"name":"Hangweg","postalCode":"88483","locality":"Burgrieden","municipality":{"key":"08426028","name":"Burgrieden","type":"Kreisangehörige_Gemeinde"},"district":{"key":"08426","name":"Biberach","type":"Landkreis"},"federalState":{"key":"08","name":"Baden-Württemberg"}},{"name":"Hans-Nowak-Ring","postalCode":"92286","locality":"Rieden","municipality":{"key":"09371146","name":"Rieden, M","type":"Markt"},"district":{"key":"09371","name":"Amberg-Sulzbach","type":"Landkreis"},"federalState":{"key":"09","name":"Bayern"}},{"name":"Hans-Wolf-Gasse","postalCode":"93339","locality":"Riedenburg","municipality":{"key":"09273164","name":"Riedenburg, St","type":"Stadt"},"district":{"key":"09273","name":"Kelheim","type":"Landkreis"},"federalState":{"key":"09","name":"Bayern"}},{"name":"Hardtschachenweg","postalCode":"79877","locality":"Friedenweiler","municipality":{"key":"08315039","name":"Friedenweiler","type":"Kreisangehörige_Gemeinde"},"district":{"key":"08315","name":"Breisgau-Hochschwarzwald","type":"Landkreis"},"federalState":{"key":"08","name":"Baden-Württemberg"}},{"name":"Harlander Steig","postalCode":"93339","locality":"Riedenburg","municipality":{"key":"09273164","name":"Riedenburg, St","type":"Stadt"},"district":{"key":"09273","name":"Kelheim","type":"Landkreis"},"federalState":{"key":"09","name":"Bayern"}},{"name":"Hartholz","postalCode":"93339","locality":"Riedenburg","municipality":{"key":"09273164","name":"Riedenburg, St","type":"Stadt"},"district":{"key":"09273","name":"Kelheim","type":"Landkreis"},"federalState":{"key":"09","name":"Bayern"}},{"name":"HarzerAllee","postalCode":"79877","locality":"Friedenweiler","municipality":{"key":"08315039","name":"Friedenweiler","type":"Kreisangehörige_Gemeinde"},"district":{"key":"08315","name":"Breisgau-Hochschwarzwald","type":"Landkreis"},"federalState":{"key":"08","name":"Baden-Württemberg"}},{"name":"Haselbergweg","postalCode":"92286","locality":"Rieden","municipality":{"key":"09371146","name":"Rieden, M","type":"Markt"},"district":{"key":"09371","name":"Amberg-Sulzbach","type":"Landkreis"},"federalState":{"key":"09","name":"Bayern"}},{"name":"Haselweg","postalCode":"93339","locality":"Riedenburg","municipality":{"key":"09273164","name":"Riedenburg, St","type":"Stadt"},"district":{"key":"09273","name":"Kelheim","type":"Landkreis"},"federalState":{"key":"09","name":"Bayern"}},{"name":"Hattenhausen","postalCode":"93339","locality":"Riedenburg","municipality":{"key":"09273164","name":"Riedenburg, St","type":"Stadt"},"district":{"key":"09273","name":"Kelheim","type":"Landkreis"},"federalState":{"key":"09","name":"Bayern"}},{"name":"Hattenhofener Weg","postalCode":"93339","locality":"Riedenburg","municipality":{"key":"09273164","name":"Riedenburg, St","type":"Stadt"},"district":{"key":"09273","name":"Kelheim","type":"Landkreis"},"federalState":{"key":"09","name":"Bayern"}},{"name":"Hauptstr.","postalCode":"56829","locality":"Brieden","municipality":{"key":"07135014","name":"Brieden","type":"Kreisangehörige_Gemeinde"},"district":{"key":"07135","name":"Cochem-Zell","type":"Landkreis"},"federalState":{"key":"07","name":"Rheinland-Pfalz"}},{"name":"Hauptstr.","postalCode":"79877","locality":"Friedenweiler","municipality":{"key":"08315039","name":"Friedenweiler","type":"Kreisangehörige_Gemeinde"},"district":{"key":"08315","name":"Breisgau-Hochschwarzwald","type":"Landkreis"},"federalState":{"key":"08","name":"Baden-Württemberg"}},{"name":"Hauptstr.","postalCode":"87767","locality":"Niederrieden","municipality":{"key":"09778177","name":"Niederrieden","type":"Kreisangehörige_Gemeinde"},"district":{"key":"09778","name":"Unterallgäu","type":"Landkreis"},"federalState":{"key":"09","name":"Bayern"}},{"name":"Hauptstr.","postalCode":"87769","locality":"Oberrieden","municipality":{"key":"09778183","name":"Oberrieden","type":"Kreisangehörige_Gemeinde"},"district":{"key":"09778","name":"Unterallgäu","type":"Landkreis"},"federalState":{"key":"09","name":"Bayern"}},{"name":"Hauptstr.","postalCode":"87785","locality":"Winterrieden","municipality":{"key":"09778217","name":"Winterrieden","type":"Kreisangehörige_Gemeinde"},"district":{"key":"09778","name":"Unterallgäu","type":"Landkreis"},"federalState":{"key":"09","name":"Bayern"}},{"name":"Hauptstr.","postalCode":"88483","locality":"Burgrieden","municipality":{"key":"08426028","name":"Burgrieden","type":"Kreisangehörige_Gemeinde"},"district":{"key":"08426","name":"Biberach","type":"Landkreis"},"federalState":{"key":"08","name":"Baden-Württemberg"}},{"name":"Hauptstr.","postalCode":"91567","locality":"Herrieden","municipality":{"key":"09571166","name":"Herrieden, St","type":"Stadt"},"district":{"key":"09571","name":"Ansbach","type":"Landkreis"},"federalState":{"key":"09","name":"Bayern"}},{"name":"Hauptstr.","postalCode":"92286","locality":"Rieden","municipality":{"key":"09371146","name":"Rieden, M","type":"Markt"},"district":{"key":"09371","name":"Amberg-Sulzbach","type":"Landkreis"},"federalState":{"key":"09","name":"Bayern"}},{"name":"Hauptstr.","postalCode":"93339","locality":"Riedenburg","municipality":{"key":"09273164","name":"Riedenburg, St","type":"Stadt"},"district":{"key":"09273","name":"Kelheim","type":"Landkreis"},"federalState":{"key":"09","name":"Bayern"}},{"name":"Hauptstr.","postalCode":"97283","locality":"Riedenheim","municipality":{"key":"09679179","name":"Riedenheim","type":"Kreisangehörige_Gemeinde"},"district":{"key":"09679","name":"Würzburg","type":"Landkreis"},"federalState":{"key":"09","name":"Bayern"}},{"name":"Haydnstr.","postalCode":"92286","locality":"Rieden","municipality":{"key":"09371146","name":"Rieden, M","type":"Markt"},"district":{"key":"09371","name":"Amberg-Sulzbach","type":"Landkreis"},"federalState":{"key":"09","name":"Bayern"}},{"name":"Heimbucherweg","postalCode":"93339","locality":"Riedenburg","municipality":{"key":"09273164","name":"Riedenburg, St","type":"Stadt"},"district":{"key":"09273","name":"Kelheim","type":"Landkreis"},"federalState":{"key":"09","name":"Bayern"}},{"name":"Heimstr.","postalCode":"89186","locality":"Illerrieden","municipality":{"key":"08425066","name":"Illerrieden","type":"Kreisangehörige_Gemeinde"},"district":{"key":"08425","name":"Alb-Donau-Kreis","type":"Landkreis"},"federalState":{"key":"08","name":"Baden-Württemberg"}},{"name":"Heinrich-Besserer-Weg","postalCode":"88483","locality":"Burgrieden","municipality":{"key":"08426028","name":"Burgrieden","type":"Kreisangehörige_Gemeinde"},"district":{"key":"08426","name":"Biberach","type":"Landkreis"},"federalState":{"key":"08","name":"Baden-Württemberg"}},{"name":"Heinrich-Pfahler-Str.","postalCode":"91567","locality":"Herrieden","municipality":{"key":"09571166","name":"Herrieden, St","type":"Stadt"},"district":{"key":"09571","name":"Ansbach","type":"Landkreis"},"federalState":{"key":"09","name":"Bayern"}},{"name":"Hemauer Str.","postalCode":"93339","locality":"Riedenburg","municipality":{"key":"09273164","name":"Riedenburg, St","type":"Stadt"},"district":{"key":"09273","name":"Kelheim","type":"Landkreis"},"federalState":{"key":"09","name":"Bayern"}},{"name":"Herdgasse","postalCode":"88483","locality":"Burgrieden","municipality":{"key":"08426028","name":"Burgrieden","type":"Kreisangehörige_Gemeinde"},"district":{"key":"08426","name":"Biberach","type":"Landkreis"},"federalState":{"key":"08","name":"Baden-Württemberg"}},{"name":"Herrnhof","postalCode":"91567","locality":"Herrieden","municipality":{"key":"09571166","name":"Herrieden, St","type":"Stadt"},"district":{"key":"09571","name":"Ansbach","type":"Landkreis"},"federalState":{"key":"09","name":"Bayern"}},{"name":"Heusteige","postalCode":"88483","locality":"Burgrieden","municipality":{"key":"08426028","name":"Burgrieden","type":"Kreisangehörige_Gemeinde"},"district":{"key":"08426","name":"Biberach","type":"Landkreis"},"federalState":{"key":"08","name":"Baden-Württemberg"}},{"name":"Heutalweg","postalCode":"93339","locality":"Riedenburg","municipality":{"key":"09273164","name":"Riedenburg, St","type":"Stadt"},"district":{"key":"09273","name":"Kelheim","type":"Landkreis"},"federalState":{"key":"09","name":"Bayern"}},{"name":"Hinter den Gärten","postalCode":"87767","locality":"Niederrieden","municipality":{"key":"09778177","name":"Niederrieden","type":"Kreisangehörige_Gemeinde"},"district":{"key":"09778","name":"Unterallgäu","type":"Landkreis"},"federalState":{"key":"09","name":"Bayern"}},{"name":"Hinter den Gärten","postalCode":"87785","locality":"Winterrieden","municipality":{"key":"09778217","name":"Winterrieden","type":"Kreisangehörige_Gemeinde"},"district":{"key":"09778","name":"Unterallgäu","type":"Landkreis"},"federalState":{"key":"09","name":"Bayern"}},{"name":"Hintere Gasse","postalCode":"91567","locality":"Herrieden","municipality":{"key":"09571166","name":"Herrieden, St","type":"Stadt"},"district":{"key":"09571","name":"Ansbach","type":"Landkreis"},"federalState":{"key":"09","name":"Bayern"}},{"name":"Hintere Schöne","postalCode":"87669","locality":"Rieden am Forggensee","municipality":{"key":"09777163","name":"Rieden am Forggensee","type":"Kreisangehörige_Gemeinde"},"district":{"key":"09777","name":"Ostallgäu","type":"Landkreis"},"federalState":{"key":"09","name":"Bayern"}},{"name":"Hinterfeld","postalCode":"88483","locality":"Burgrieden","municipality":{"key":"08426028","name":"Burgrieden","type":"Kreisangehörige_Gemeinde"},"district":{"key":"08426","name":"Biberach","type":"Landkreis"},"federalState":{"key":"08","name":"Baden-Württemberg"}},{"name":"Hirschstr.","postalCode":"88483","locality":"Burgrieden","municipality":{"key":"08426028","name":"Burgrieden","type":"Kreisangehörige_Gemeinde"},"district":{"key":"08426","name":"Biberach","type":"Landkreis"},"federalState":{"key":"08","name":"Baden-Württemberg"}},{"name":"Hirschwalder Str.","postalCode":"92286","locality":"Rieden","municipality":{"key":"09371146","name":"Rieden, M","type":"Markt"},"district":{"key":"09371","name":"Amberg-Sulzbach","type":"Landkreis"},"federalState":{"key":"09","name":"Bayern"}},{"name":"Hirtenweg","postalCode":"91567","locality":"Herrieden","municipality":{"key":"09571166","name":"Herrieden, St","type":"Stadt"},"district":{"key":"09571","name":"Ansbach","type":"Landkreis"},"federalState":{"key":"09","name":"Bayern"}},{"name":"Historische Herrieder Altmühlbrücke","postalCode":"91567","locality":"Herrieden","municipality":{"key":"09571166","name":"Herrieden, St","type":"Stadt"},"district":{"key":"09571","name":"Ansbach","type":"Landkreis"},"federalState":{"key":"09","name":"Bayern"}},{"name":"Hochrainweg","postalCode":"95688","locality":"Friedenfels","municipality":{"key":"09377118","name":"Friedenfels","type":"Kreisangehörige_Gemeinde"},"district":{"key":"09377","name":"Tirschenreuth","type":"Landkreis"},"federalState":{"key":"09","name":"Bayern"}},{"name":"Höchst","postalCode":"79877","locality":"Friedenweiler","municipality":{"key":"08315039","name":"Friedenweiler","type":"Kreisangehörige_Gemeinde"},"district":{"key":"08315","name":"Breisgau-Hochschwarzwald","type":"Landkreis"},"federalState":{"key":"08","name":"Baden-Württemberg"}},{"name":"Hochstetter Höhe","postalCode":"88483","locality":"Burgrieden","municipality":{"key":"08426028","name":"Burgrieden","type":"Kreisangehörige_Gemeinde"},"district":{"key":"08426","name":"Biberach","type":"Landkreis"},"federalState":{"key":"08","name":"Baden-Württemberg"}},{"name":"Hochweg","postalCode":"87769","locality":"Oberrieden","municipality":{"key":"09778183","name":"Oberrieden","type":"Kreisangehörige_Gemeinde"},"district":{"key":"09778","name":"Unterallgäu","type":"Landkreis"},"federalState":{"key":"09","name":"Bayern"}},{"name":"Hofmarkstr.","postalCode":"93339","locality":"Riedenburg","municipality":{"key":"09273164","name":"Riedenburg, St","type":"Stadt"},"district":{"key":"09273","name":"Kelheim","type":"Landkreis"},"federalState":{"key":"09","name":"Bayern"}},{"name":"Illerblick","postalCode":"87767","locality":"Niederrieden","municipality":{"key":"09778177","name":"Niederrieden","type":"Kreisangehörige_Gemeinde"},"district":{"key":"09778","name":"Unterallgäu","type":"Landkreis"},"federalState":{"key":"09","name":"Bayern"}},{"name":"Im Bungert","postalCode":"56829","locality":"Brieden","municipality":{"key":"07135014","name":"Brieden","type":"Kreisangehörige_Gemeinde"},"district":{"key":"07135","name":"Cochem-Zell","type":"Landkreis"},"federalState":{"key":"07","name":"Rheinland-Pfalz"}},{"name":"Im Frauengarten","postalCode":"89186","locality":"Illerrieden","municipality":{"key":"08425066","name":"Illerrieden","type":"Kreisangehörige_Gemeinde"},"district":{"key":"08425","name":"Alb-Donau-Kreis","type":"Landkreis"},"federalState":{"key":"08","name":"Baden-Württemberg"}},{"name":"Im Lehel","postalCode":"92286","locality":"Rieden","municipality":{"key":"09371146","name":"Rieden, M","type":"Markt"},"district":{"key":"09371","name":"Amberg-Sulzbach","type":"Landkreis"},"federalState":{"key":"09","name":"Bayern"}},{"name":"Im Pfaffenholz","postalCode":"89186","locality":"Illerrieden","municipality":{"key":"08425066","name":"Illerrieden","type":"Kreisangehörige_Gemeinde"},"district":{"key":"08425","name":"Alb-Donau-Kreis","type":"Landkreis"},"federalState":{"key":"08","name":"Baden-Württemberg"}},{"name":"Im Schlößle","postalCode":"88483","locality":"Burgrieden","municipality":{"key":"08426028","name":"Burgrieden","type":"Kreisangehörige_Gemeinde"},"district":{"key":"08426","name":"Biberach","type":"Landkreis"},"federalState":{"key":"08","name":"Baden-Württemberg"}},{"name":"Im Stellwinkel","postalCode":"88483","locality":"Burgrieden","municipality":{"key":"08426028","name":"Burgrieden","type":"Kreisangehörige_Gemeinde"},"district":{"key":"08426","name":"Biberach","type":"Landkreis"},"federalState":{"key":"08","name":"Baden-Württemberg"}},{"name":"Im Tal","postalCode":"79877","locality":"Friedenweiler","municipality":{"key":"08315039","name":"Friedenweiler","type":"Kreisangehörige_Gemeinde"},"district":{"key":"08315","name":"Breisgau-Hochschwarzwald","type":"Landkreis"},"federalState":{"key":"08","name":"Baden-Württemberg"}},{"name":"Im Tal","postalCode":"87669","locality":"Rieden am Forggensee","municipality":{"key":"09777163","name":"Rieden am Forggensee","type":"Kreisangehörige_Gemeinde"},"district":{"key":"09777","name":"Ostallgäu","type":"Landkreis"},"federalState":{"key":"09","name":"Bayern"}},{"name":"Im Theissental","postalCode":"88483","locality":"Burgrieden","municipality":{"key":"08426028","name":"Burgrieden","type":"Kreisangehörige_Gemeinde"},"district":{"key":"08426","name":"Biberach","type":"Landkreis"},"federalState":{"key":"08","name":"Baden-Württemberg"}},{"name":"Im Weitblick","postalCode":"88483","locality":"Burgrieden","municipality":{"key":"08426028","name":"Burgrieden","type":"Kreisangehörige_Gemeinde"},"district":{"key":"08426","name":"Biberach","type":"Landkreis"},"federalState":{"key":"08","name":"Baden-Württemberg"}},{"name":"Im Winkel","postalCode":"79877","locality":"Friedenweiler","municipality":{"key":"08315039","name":"Friedenweiler","type":"Kreisangehörige_Gemeinde"},"district":{"key":"08315","name":"Breisgau-Hochschwarzwald","type":"Landkreis"},"federalState":{"key":"08","name":"Baden-Württemberg"}},{"name":"In der Aspel","postalCode":"56745","locality":"Rieden","municipality":{"key":"07137093","name":"Rieden","type":"Kreisangehörige_Gemeinde"},"district":{"key":"07137","name":"Mayen-Koblenz","type":"Landkreis"},"federalState":{"key":"07","name":"Rheinland-Pfalz"}},{"name":"In der Breite","postalCode":"92286","locality":"Rieden","municipality":{"key":"09371146","name":"Rieden, M","type":"Markt"},"district":{"key":"09371","name":"Amberg-Sulzbach","type":"Landkreis"},"federalState":{"key":"09","name":"Bayern"}},{"name":"In der großen Au","postalCode":"89186","locality":"Illerrieden","municipality":{"key":"08425066","name":"Illerrieden","type":"Kreisangehörige_Gemeinde"},"district":{"key":"08425","name":"Alb-Donau-Kreis","type":"Landkreis"},"federalState":{"key":"08","name":"Baden-Württemberg"}},{"name":"In der Heiligau","postalCode":"89186","locality":"Illerrieden","municipality":{"key":"08425066","name":"Illerrieden","type":"Kreisangehörige_Gemeinde"},"district":{"key":"08425","name":"Alb-Donau-Kreis","type":"Landkreis"},"federalState":{"key":"08","name":"Baden-Württemberg"}},{"name":"In der Jeich","postalCode":"56829","locality":"Brieden","municipality":{"key":"07135014","name":"Brieden","type":"Kreisangehörige_Gemeinde"},"district":{"key":"07135","name":"Cochem-Zell","type":"Landkreis"},"federalState":{"key":"07","name":"Rheinland-Pfalz"}},{"name":"In der Kehr","postalCode":"92286","locality":"Rieden","municipality":{"key":"09371146","name":"Rieden, M","type":"Markt"},"district":{"key":"09371","name":"Amberg-Sulzbach","type":"Landkreis"},"federalState":{"key":"09","name":"Bayern"}},{"name":"Industriestr.","postalCode":"91567","locality":"Herrieden","municipality":{"key":"09571166","name":"Herrieden, St","type":"Stadt"},"district":{"key":"09571","name":"Ansbach","type":"Landkreis"},"federalState":{"key":"09","name":"Bayern"}},{"name":"Irisweg","postalCode":"93339","locality":"Riedenburg","municipality":{"key":"09273164","name":"Riedenburg, St","type":"Stadt"},"district":{"key":"09273","name":"Kelheim","type":"Landkreis"},"federalState":{"key":"09","name":"Bayern"}},{"name":"Jachenhausener Weg","postalCode":"93339","locality":"Riedenburg","municipality":{"key":"09273164","name":"Riedenburg, St","type":"Stadt"},"district":{"key":"09273","name":"Kelheim","type":"Landkreis"},"federalState":{"key":"09","name":"Bayern"}},{"name":"Jägerstr.","postalCode":"89186","locality":"Illerrieden","municipality":{"key":"08425066","name":"Illerrieden","type":"Kreisangehörige_Gemeinde"},"district":{"key":"08425","name":"Alb-Donau-Kreis","type":"Landkreis"},"federalState":{"key":"08","name":"Baden-Württemberg"}},{"name":"Jahnstr.","postalCode":"91567","locality":"Herrieden","municipality":{"key":"09571166","name":"Herrieden, St","type":"Stadt"},"district":{"key":"09571","name":"Ansbach","type":"Landkreis"},"federalState":{"key":"09","name":"Bayern"}},{"name":"Jahnstr.","postalCode":"92286","locality":"Rieden","municipality":{"key":"09371146","name":"Rieden, M","type":"Markt"},"district":{"key":"09371","name":"Amberg-Sulzbach","type":"Landkreis"},"federalState":{"key":"09","name":"Bayern"}},{"name":"Johannesgasse","postalCode":"93339","locality":"Riedenburg","municipality":{"key":"09273164","name":"Riedenburg, St","type":"Stadt"},"district":{"key":"09273","name":"Kelheim","type":"Landkreis"},"federalState":{"key":"09","name":"Bayern"}},{"name":"Johannes-Marohn-Str.","postalCode":"91567","locality":"Herrieden","municipality":{"key":"09571166","name":"Herrieden, St","type":"Stadt"},"district":{"key":"09571","name":"Ansbach","type":"Landkreis"},"federalState":{"key":"09","name":"Bayern"}},{"name":"Johann-Peter-Hebel-Weg","postalCode":"88483","locality":"Burgrieden","municipality":{"key":"08426028","name":"Burgrieden","type":"Kreisangehörige_Gemeinde"},"district":{"key":"08426","name":"Biberach","type":"Landkreis"},"federalState":{"key":"08","name":"Baden-Württemberg"}},{"name":"Josef-Brumberger-Str.","postalCode":"91567","locality":"Herrieden","municipality":{"key":"09571166","name":"Herrieden, St","type":"Stadt"},"district":{"key":"09571","name":"Ansbach","type":"Landkreis"},"federalState":{"key":"09","name":"Bayern"}},{"name":"Josef-Maria-Ried-Str.","postalCode":"87767","locality":"Niederrieden","municipality":{"key":"09778177","name":"Niederrieden","type":"Kreisangehörige_Gemeinde"},"district":{"key":"09778","name":"Unterallgäu","type":"Landkreis"},"federalState":{"key":"09","name":"Bayern"}},{"name":"Josef-Nowak-Pfarrgarten","postalCode":"87767","locality":"Niederrieden","municipality":{"key":"09778177","name":"Niederrieden","type":"Kreisangehörige_Gemeinde"},"district":{"key":"09778","name":"Unterallgäu","type":"Landkreis"},"federalState":{"key":"09","name":"Bayern"}},{"name":"Josef-Schneider-Str.","postalCode":"93339","locality":"Riedenburg","municipality":{"key":"09273164","name":"Riedenburg, St","type":"Stadt"},"district":{"key":"09273","name":"Kelheim","type":"Landkreis"},"federalState":{"key":"09","name":"Bayern"}},{"name":"Julius-Echter-Str.","postalCode":"97283","locality":"Riedenheim","municipality":{"key":"09679179","name":"Riedenheim","type":"Kreisangehörige_Gemeinde"},"district":{"key":"09679","name":"Würzburg","type":"Landkreis"},"federalState":{"key":"09","name":"Bayern"}},{"name":"Julius-Kardinal-Doepfner-Weg","postalCode":"97792","locality":"Riedenberg","municipality":{"key":"09672145","name":"Riedenberg","type":"Kreisangehörige_Gemeinde"},"district":{"key":"09672","name":"Bad Kissingen","type":"Landkreis"},"federalState":{"key":"09","name":"Bayern"}},{"name":"Kaadener Str.","postalCode":"91567","locality":"Herrieden","municipality":{"key":"09571166","name":"Herrieden, St","type":"Stadt"},"district":{"key":"09571","name":"Ansbach","type":"Landkreis"},"federalState":{"key":"09","name":"Bayern"}},{"name":"Kailer Str.","postalCode":"56829","locality":"Brieden","municipality":{"key":"07135014","name":"Brieden","type":"Kreisangehörige_Gemeinde"},"district":{"key":"07135","name":"Cochem-Zell","type":"Landkreis"},"federalState":{"key":"07","name":"Rheinland-Pfalz"}},{"name":"Kalvarienbergweg","postalCode":"87769","locality":"Oberrieden","municipality":{"key":"09778183","name":"Oberrieden","type":"Kreisangehörige_Gemeinde"},"district":{"key":"09778","name":"Unterallgäu","type":"Landkreis"},"federalState":{"key":"09","name":"Bayern"}},{"name":"Kammelweg","postalCode":"87769","locality":"Oberrieden","municipality":{"key":"09778183","name":"Oberrieden","type":"Kreisangehörige_Gemeinde"},"district":{"key":"09778","name":"Unterallgäu","type":"Landkreis"},"federalState":{"key":"09","name":"Bayern"}},{"name":"Kapellenstr.","postalCode":"88483","locality":"Burgrieden","municipality":{"key":"08426028","name":"Burgrieden","type":"Kreisangehörige_Gemeinde"},"district":{"key":"08426","name":"Biberach","type":"Landkreis"},"federalState":{"key":"08","name":"Baden-Württemberg"}},{"name":"Kapellenstr.","postalCode":"93339","locality":"Riedenburg","municipality":{"key":"09273164","name":"Riedenburg, St","type":"Stadt"},"district":{"key":"09273","name":"Kelheim","type":"Landkreis"},"federalState":{"key":"09","name":"Bayern"}},{"name":"Kapellenweg","postalCode":"87769","locality":"Oberrieden","municipality":{"key":"09778183","name":"Oberrieden","type":"Kreisangehörige_Gemeinde"},"district":{"key":"09778","name":"Unterallgäu","type":"Landkreis"},"federalState":{"key":"09","name":"Bayern"}},{"name":"Kapellenweg","postalCode":"88483","locality":"Burgrieden","municipality":{"key":"08426028","name":"Burgrieden","type":"Kreisangehörige_Gemeinde"},"district":{"key":"08426","name":"Biberach","type":"Landkreis"},"federalState":{"key":"08","name":"Baden-Württemberg"}},{"name":"Kapellenweg","postalCode":"95688","locality":"Friedenfels","municipality":{"key":"09377118","name":"Friedenfels","type":"Kreisangehörige_Gemeinde"},"district":{"key":"09377","name":"Tirschenreuth","type":"Landkreis"},"federalState":{"key":"09","name":"Bayern"}},{"name":"Kapfweg","postalCode":"79877","locality":"Friedenweiler","municipality":{"key":"08315039","name":"Friedenweiler","type":"Kreisangehörige_Gemeinde"},"district":{"key":"08315","name":"Breisgau-Hochschwarzwald","type":"Landkreis"},"federalState":{"key":"08","name":"Baden-Württemberg"}},{"name":"Kappelerweg","postalCode":"79877","locality":"Friedenweiler","municipality":{"key":"08315039","name":"Friedenweiler","type":"Kreisangehörige_Gemeinde"},"district":{"key":"08315","name":"Breisgau-Hochschwarzwald","type":"Landkreis"},"federalState":{"key":"08","name":"Baden-Württemberg"}},{"name":"Karlsbader Str.","postalCode":"91567","locality":"Herrieden","municipality":{"key":"09571166","name":"Herrieden, St","type":"Stadt"},"district":{"key":"09571","name":"Ansbach","type":"Landkreis"},"federalState":{"key":"09","name":"Bayern"}},{"name":"Karl-Weber-Str.","postalCode":"91567","locality":"Herrieden","municipality":{"key":"09571166","name":"Herrieden, St","type":"Stadt"},"district":{"key":"09571","name":"Ansbach","type":"Landkreis"},"federalState":{"key":"09","name":"Bayern"}},{"name":"Kelheimer Str.","postalCode":"93339","locality":"Riedenburg","municipality":{"key":"09273164","name":"Riedenburg, St","type":"Stadt"},"district":{"key":"09273","name":"Kelheim","type":"Landkreis"},"federalState":{"key":"09","name":"Bayern"}},{"name":"Keltenstr.","postalCode":"87767","locality":"Niederrieden","municipality":{"key":"09778177","name":"Niederrieden","type":"Kreisangehörige_Gemeinde"},"district":{"key":"09778","name":"Unterallgäu","type":"Landkreis"},"federalState":{"key":"09","name":"Bayern"}},{"name":"Kerkerweg","postalCode":"87785","locality":"Winterrieden","municipality":{"key":"09778217","name":"Winterrieden","type":"Kreisangehörige_Gemeinde"},"district":{"key":"09778","name":"Unterallgäu","type":"Landkreis"},"federalState":{"key":"09","name":"Bayern"}},{"name":"Kesselbergstr.","postalCode":"92286","locality":"Rieden","municipality":{"key":"09371146","name":"Rieden, M","type":"Markt"},"district":{"key":"09371","name":"Amberg-Sulzbach","type":"Landkreis"},"federalState":{"key":"09","name":"Bayern"}},{"name":"Kettenholz","postalCode":"93339","locality":"Riedenburg","municipality":{"key":"09273164","name":"Riedenburg, St","type":"Stadt"},"district":{"key":"09273","name":"Kelheim","type":"Landkreis"},"federalState":{"key":"09","name":"Bayern"}},{"name":"Kiefernweg","postalCode":"93339","locality":"Riedenburg","municipality":{"key":"09273164","name":"Riedenburg, St","type":"Stadt"},"district":{"key":"09273","name":"Kelheim","type":"Landkreis"},"federalState":{"key":"09","name":"Bayern"}},{"name":"Kirchberg","postalCode":"88483","locality":"Burgrieden","municipality":{"key":"08426028","name":"Burgrieden","type":"Kreisangehörige_Gemeinde"},"district":{"key":"08426","name":"Biberach","type":"Landkreis"},"federalState":{"key":"08","name":"Baden-Württemberg"}},{"name":"Kirchenstr.","postalCode":"93339","locality":"Riedenburg","municipality":{"key":"09273164","name":"Riedenburg, St","type":"Stadt"},"district":{"key":"09273","name":"Kelheim","type":"Landkreis"},"federalState":{"key":"09","name":"Bayern"}},{"name":"Kirchenweg","postalCode":"87669","locality":"Rieden am Forggensee","municipality":{"key":"09777163","name":"Rieden am Forggensee","type":"Kreisangehörige_Gemeinde"},"district":{"key":"09777","name":"Ostallgäu","type":"Landkreis"},"federalState":{"key":"09","name":"Bayern"}},{"name":"Kirchenweg","postalCode":"88483","locality":"Burgrieden","municipality":{"key":"08426028","name":"Burgrieden","type":"Kreisangehörige_Gemeinde"},"district":{"key":"08426","name":"Biberach","type":"Landkreis"},"federalState":{"key":"08","name":"Baden-Württemberg"}},{"name":"Kirchpfad","postalCode":"97283","locality":"Riedenheim","municipality":{"key":"09679179","name":"Riedenheim","type":"Kreisangehörige_Gemeinde"},"district":{"key":"09679","name":"Würzburg","type":"Landkreis"},"federalState":{"key":"09","name":"Bayern"}},{"name":"Kirchplatz","postalCode":"91567","locality":"Herrieden","municipality":{"key":"09571166","name":"Herrieden, St","type":"Stadt"},"district":{"key":"09571","name":"Ansbach","type":"Landkreis"},"federalState":{"key":"09","name":"Bayern"}},{"name":"Kirchplatz","postalCode":"93339","locality":"Riedenburg","municipality":{"key":"09273164","name":"Riedenburg, St","type":"Stadt"},"district":{"key":"09273","name":"Kelheim","type":"Landkreis"},"federalState":{"key":"09","name":"Bayern"}},{"name":"Kirchsteig","postalCode":"93339","locality":"Riedenburg","municipality":{"key":"09273164","name":"Riedenburg, St","type":"Stadt"},"district":{"key":"09273","name":"Kelheim","type":"Landkreis"},"federalState":{"key":"09","name":"Bayern"}},{"name":"Kirchstr.","postalCode":"56745","locality":"Rieden","municipality":{"key":"07137093","name":"Rieden","type":"Kreisangehörige_Gemeinde"},"district":{"key":"07137","name":"Mayen-Koblenz","type":"Landkreis"},"federalState":{"key":"07","name":"Rheinland-Pfalz"}},{"name":"Kirchstr.","postalCode":"56829","locality":"Brieden","municipality":{"key":"07135014","name":"Brieden","type":"Kreisangehörige_Gemeinde"},"district":{"key":"07135","name":"Cochem-Zell","type":"Landkreis"},"federalState":{"key":"07","name":"Rheinland-Pfalz"}},{"name":"Kirchstr.","postalCode":"87769","locality":"Oberrieden","municipality":{"key":"09778183","name":"Oberrieden","type":"Kreisangehörige_Gemeinde"},"district":{"key":"09778","name":"Unterallgäu","type":"Landkreis"},"federalState":{"key":"09","name":"Bayern"}},{"name":"Kirchstr.","postalCode":"88483","locality":"Burgrieden","municipality":{"key":"08426028","name":"Burgrieden","type":"Kreisangehörige_Gemeinde"},"district":{"key":"08426","name":"Biberach","type":"Landkreis"},"federalState":{"key":"08","name":"Baden-Württemberg"}},{"name":"Kirchstr.","postalCode":"93339","locality":"Riedenburg","municipality":{"key":"09273164","name":"Riedenburg, St","type":"Stadt"},"district":{"key":"09273","name":"Kelheim","type":"Landkreis"},"federalState":{"key":"09","name":"Bayern"}},{"name":"Kirchstr.","postalCode":"97283","locality":"Riedenheim","municipality":{"key":"09679179","name":"Riedenheim","type":"Kreisangehörige_Gemeinde"},"district":{"key":"09679","name":"Würzburg","type":"Landkreis"},"federalState":{"key":"09","name":"Bayern"}},{"name":"Kirchstr.","postalCode":"97792","locality":"Riedenberg","municipality":{"key":"09672145","name":"Riedenberg","type":"Kreisangehörige_Gemeinde"},"district":{"key":"09672","name":"Bad Kissingen","type":"Landkreis"},"federalState":{"key":"09","name":"Bayern"}},{"name":"Kirchweg","postalCode":"79877","locality":"Friedenweiler","municipality":{"key":"08315039","name":"Friedenweiler","type":"Kreisangehörige_Gemeinde"},"district":{"key":"08315","name":"Breisgau-Hochschwarzwald","type":"Landkreis"},"federalState":{"key":"08","name":"Baden-Württemberg"}},{"name":"Kirchweg","postalCode":"92286","locality":"Rieden","municipality":{"key":"09371146","name":"Rieden, M","type":"Markt"},"district":{"key":"09371","name":"Amberg-Sulzbach","type":"Landkreis"},"federalState":{"key":"09","name":"Bayern"}},{"name":"Kirchweg","postalCode":"93339","locality":"Riedenburg","municipality":{"key":"09273164","name":"Riedenburg, St","type":"Stadt"},"district":{"key":"09273","name":"Kelheim","type":"Landkreis"},"federalState":{"key":"09","name":"Bayern"}},{"name":"Klausbachweg","postalCode":"79877","locality":"Friedenweiler","municipality":{"key":"08315039","name":"Friedenweiler","type":"Kreisangehörige_Gemeinde"},"district":{"key":"08315","name":"Breisgau-Hochschwarzwald","type":"Landkreis"},"federalState":{"key":"08","name":"Baden-Württemberg"}},{"name":"Klausdobelweg","postalCode":"79877","locality":"Friedenweiler","municipality":{"key":"08315039","name":"Friedenweiler","type":"Kreisangehörige_Gemeinde"},"district":{"key":"08315","name":"Breisgau-Hochschwarzwald","type":"Landkreis"},"federalState":{"key":"08","name":"Baden-Württemberg"}},{"name":"KlausenAllee","postalCode":"79877","locality":"Friedenweiler","municipality":{"key":"08315039","name":"Friedenweiler","type":"Kreisangehörige_Gemeinde"},"district":{"key":"08315","name":"Breisgau-Hochschwarzwald","type":"Landkreis"},"federalState":{"key":"08","name":"Baden-Württemberg"}},{"name":"Klausweg","postalCode":"79877","locality":"Friedenweiler","municipality":{"key":"08315039","name":"Friedenweiler","type":"Kreisangehörige_Gemeinde"},"district":{"key":"08315","name":"Breisgau-Hochschwarzwald","type":"Landkreis"},"federalState":{"key":"08","name":"Baden-Württemberg"}},{"name":"Klingenfeld","postalCode":"91567","locality":"Herrieden","municipality":{"key":"09571166","name":"Herrieden, St","type":"Stadt"},"district":{"key":"09571","name":"Ansbach","type":"Landkreis"},"federalState":{"key":"09","name":"Bayern"}},{"name":"Klosterbeurer Str.","postalCode":"87785","locality":"Winterrieden","municipality":{"key":"09778217","name":"Winterrieden","type":"Kreisangehörige_Gemeinde"},"district":{"key":"09778","name":"Unterallgäu","type":"Landkreis"},"federalState":{"key":"09","name":"Bayern"}},{"name":"Klosterstr.","postalCode":"79877","locality":"Friedenweiler","municipality":{"key":"08315039","name":"Friedenweiler","type":"Kreisangehörige_Gemeinde"},"district":{"key":"08315","name":"Breisgau-Hochschwarzwald","type":"Landkreis"},"federalState":{"key":"08","name":"Baden-Württemberg"}},{"name":"Köhlerhüttenweg","postalCode":"79877","locality":"Friedenweiler","municipality":{"key":"08315039","name":"Friedenweiler","type":"Kreisangehörige_Gemeinde"},"district":{"key":"08315","name":"Breisgau-Hochschwarzwald","type":"Landkreis"},"federalState":{"key":"08","name":"Baden-Württemberg"}},{"name":"Kohlreute-Linie","postalCode":"87767","locality":"Niederrieden","municipality":{"key":"09778177","name":"Niederrieden","type":"Kreisangehörige_Gemeinde"},"district":{"key":"09778","name":"Unterallgäu","type":"Landkreis"},"federalState":{"key":"09","name":"Bayern"}},{"name":"Kohlstattweg","postalCode":"87767","locality":"Niederrieden","municipality":{"key":"09778177","name":"Niederrieden","type":"Kreisangehörige_Gemeinde"},"district":{"key":"09778","name":"Unterallgäu","type":"Landkreis"},"federalState":{"key":"09","name":"Bayern"}},{"name":"Kohlwaldbrücke","postalCode":"79877","locality":"Friedenweiler","municipality":{"key":"08315039","name":"Friedenweiler","type":"Kreisangehörige_Gemeinde"},"district":{"key":"08315","name":"Breisgau-Hochschwarzwald","type":"Landkreis"},"federalState":{"key":"08","name":"Baden-Württemberg"}},{"name":"Kolpingplatz","postalCode":"95688","locality":"Friedenfels","municipality":{"key":"09377118","name":"Friedenfels","type":"Kreisangehörige_Gemeinde"},"district":{"key":"09377","name":"Tirschenreuth","type":"Landkreis"},"federalState":{"key":"09","name":"Bayern"}},{"name":"Königsberger Str.","postalCode":"87668","locality":"Rieden","municipality":{"key":"09777164","name":"Rieden","type":"Kreisangehörige_Gemeinde"},"district":{"key":"09777","name":"Ostallgäu","type":"Landkreis"},"federalState":{"key":"09","name":"Bayern"}},{"name":"Lachenmoos","postalCode":"79877","locality":"Friedenweiler","municipality":{"key":"08315039","name":"Friedenweiler","type":"Kreisangehörige_Gemeinde"},"district":{"key":"08315","name":"Breisgau-Hochschwarzwald","type":"Landkreis"},"federalState":{"key":"08","name":"Baden-Württemberg"}},{"name":"Landstr.","postalCode":"79877","locality":"Friedenweiler","municipality":{"key":"08315039","name":"Friedenweiler","type":"Kreisangehörige_Gemeinde"},"district":{"key":"08315","name":"Breisgau-Hochschwarzwald","type":"Landkreis"},"federalState":{"key":"08","name":"Baden-Württemberg"}},{"name":"LangeAllee","postalCode":"79877","locality":"Friedenweiler","municipality":{"key":"08315039","name":"Friedenweiler","type":"Kreisangehörige_Gemeinde"},"district":{"key":"08315","name":"Breisgau-Hochschwarzwald","type":"Landkreis"},"federalState":{"key":"08","name":"Baden-Württemberg"}},{"name":"Langen Bahn","postalCode":"56745","locality":"Rieden","municipality":{"key":"07137093","name":"Rieden","type":"Kreisangehörige_Gemeinde"},"district":{"key":"07137","name":"Mayen-Koblenz","type":"Landkreis"},"federalState":{"key":"07","name":"Rheinland-Pfalz"}},{"name":"Langer Acker","postalCode":"89186","locality":"Illerrieden","municipality":{"key":"08425066","name":"Illerrieden","type":"Kreisangehörige_Gemeinde"},"district":{"key":"08425","name":"Alb-Donau-Kreis","type":"Landkreis"},"federalState":{"key":"08","name":"Baden-Württemberg"}},{"name":"Langer Brühl","postalCode":"88483","locality":"Burgrieden","municipality":{"key":"08426028","name":"Burgrieden","type":"Kreisangehörige_Gemeinde"},"district":{"key":"08426","name":"Biberach","type":"Landkreis"},"federalState":{"key":"08","name":"Baden-Württemberg"}},{"name":"Lange Str.","postalCode":"89186","locality":"Illerrieden","municipality":{"key":"08425066","name":"Illerrieden","type":"Kreisangehörige_Gemeinde"},"district":{"key":"08425","name":"Alb-Donau-Kreis","type":"Landkreis"},"federalState":{"key":"08","name":"Baden-Württemberg"}},{"name":"Lärchenweg","postalCode":"93339","locality":"Riedenburg","municipality":{"key":"09273164","name":"Riedenburg, St","type":"Stadt"},"district":{"key":"09273","name":"Kelheim","type":"Landkreis"},"federalState":{"key":"09","name":"Bayern"}},{"name":"Laupheimer Str.","postalCode":"88483","locality":"Burgrieden","municipality":{"key":"08426028","name":"Burgrieden","type":"Kreisangehörige_Gemeinde"},"district":{"key":"08426","name":"Biberach","type":"Landkreis"},"federalState":{"key":"08","name":"Baden-Württemberg"}},{"name":"Lautenmacherstr.","postalCode":"87669","locality":"Rieden am Forggensee","municipality":{"key":"09777163","name":"Rieden am Forggensee","type":"Kreisangehörige_Gemeinde"},"district":{"key":"09777","name":"Ostallgäu","type":"Landkreis"},"federalState":{"key":"09","name":"Bayern"}},{"name":"Lavendelweg","postalCode":"87767","locality":"Niederrieden","municipality":{"key":"09778177","name":"Niederrieden","type":"Kreisangehörige_Gemeinde"},"district":{"key":"09778","name":"Unterallgäu","type":"Landkreis"},"federalState":{"key":"09","name":"Bayern"}},{"name":"Lehrberger Str.","postalCode":"91567","locality":"Herrieden","municipality":{"key":"09571166","name":"Herrieden, St","type":"Stadt"},"district":{"key":"09571","name":"Ansbach","type":"Landkreis"},"federalState":{"key":"09","name":"Bayern"}},{"name":"Leimgrube","postalCode":"88483","locality":"Burgrieden","municipality":{"key":"08426028","name":"Burgrieden","type":"Kreisangehörige_Gemeinde"},"district":{"key":"08426","name":"Biberach","type":"Landkreis"},"federalState":{"key":"08","name":"Baden-Württemberg"}},{"name":"Leodegarigasse","postalCode":"93339","locality":"Riedenburg","municipality":{"key":"09273164","name":"Riedenburg, St","type":"Stadt"},"district":{"key":"09273","name":"Kelheim","type":"Landkreis"},"federalState":{"key":"09","name":"Bayern"}},{"name":"Lerchenweg","postalCode":"87767","locality":"Niederrieden","municipality":{"key":"09778177","name":"Niederrieden","type":"Kreisangehörige_Gemeinde"},"district":{"key":"09778","name":"Unterallgäu","type":"Landkreis"},"federalState":{"key":"09","name":"Bayern"}},{"name":"Lerchenweg","postalCode":"87785","locality":"Winterrieden","municipality":{"key":"09778217","name":"Winterrieden","type":"Kreisangehörige_Gemeinde"},"district":{"key":"09778","name":"Unterallgäu","type":"Landkreis"},"federalState":{"key":"09","name":"Bayern"}},{"name":"Lerchenweg","postalCode":"89186","locality":"Illerrieden","municipality":{"key":"08425066","name":"Illerrieden","type":"Kreisangehörige_Gemeinde"},"district":{"key":"08425","name":"Alb-Donau-Kreis","type":"Landkreis"},"federalState":{"key":"08","name":"Baden-Württemberg"}},{"name":"Lerchenweg","postalCode":"92286","locality":"Rieden","municipality":{"key":"09371146","name":"Rieden, M","type":"Markt"},"district":{"key":"09371","name":"Amberg-Sulzbach","type":"Landkreis"},"federalState":{"key":"09","name":"Bayern"}},{"name":"Lerchenweg","postalCode":"93339","locality":"Riedenburg","municipality":{"key":"09273164","name":"Riedenburg, St","type":"Stadt"},"district":{"key":"09273","name":"Kelheim","type":"Landkreis"},"federalState":{"key":"09","name":"Bayern"}},{"name":"Lessingstr.","postalCode":"97792","locality":"Riedenberg","municipality":{"key":"09672145","name":"Riedenberg","type":"Kreisangehörige_Gemeinde"},"district":{"key":"09672","name":"Bad Kissingen","type":"Landkreis"},"federalState":{"key":"09","name":"Bayern"}},{"name":"Leutershausener Str.","postalCode":"91567","locality":"Herrieden","municipality":{"key":"09571166","name":"Herrieden, St","type":"Stadt"},"district":{"key":"09571","name":"Ansbach","type":"Landkreis"},"federalState":{"key":"09","name":"Bayern"}},{"name":"Lilienstr.","postalCode":"92286","locality":"Rieden","municipality":{"key":"09371146","name":"Rieden, M","type":"Markt"},"district":{"key":"09371","name":"Amberg-Sulzbach","type":"Landkreis"},"federalState":{"key":"09","name":"Bayern"}},{"name":"Lilienweg","postalCode":"93339","locality":"Riedenburg","municipality":{"key":"09273164","name":"Riedenburg, St","type":"Stadt"},"district":{"key":"09273","name":"Kelheim","type":"Landkreis"},"federalState":{"key":"09","name":"Bayern"}},{"name":"Lindenstr.","postalCode":"79877","locality":"Friedenweiler","municipality":{"key":"08315039","name":"Friedenweiler","type":"Kreisangehörige_Gemeinde"},"district":{"key":"08315","name":"Breisgau-Hochschwarzwald","type":"Landkreis"},"federalState":{"key":"08","name":"Baden-Württemberg"}},{"name":"Lindenstr.","postalCode":"92286","locality":"Rieden","municipality":{"key":"09371146","name":"Rieden, M","type":"Markt"},"district":{"key":"09371","name":"Amberg-Sulzbach","type":"Landkreis"},"federalState":{"key":"09","name":"Bayern"}},{"name":"Lindenweg","postalCode":"87669","locality":"Rieden am Forggensee","municipality":{"key":"09777163","name":"Rieden am Forggensee","type":"Kreisangehörige_Gemeinde"},"district":{"key":"09777","name":"Ostallgäu","type":"Landkreis"},"federalState":{"key":"09","name":"Bayern"}},{"name":"Lindenweg","postalCode":"87769","locality":"Oberrieden","municipality":{"key":"09778183","name":"Oberrieden","type":"Kreisangehörige_Gemeinde"},"district":{"key":"09778","name":"Unterallgäu","type":"Landkreis"},"federalState":{"key":"09","name":"Bayern"}},{"name":"Lindenweg","postalCode":"88483","locality":"Burgrieden","municipality":{"key":"08426028","name":"Burgrieden","type":"Kreisangehörige_Gemeinde"},"district":{"key":"08426","name":"Biberach","type":"Landkreis"},"federalState":{"key":"08","name":"Baden-Württemberg"}},{"name":"Lindenweg","postalCode":"93339","locality":"Riedenburg","municipality":{"key":"09273164","name":"Riedenburg, St","type":"Stadt"},"district":{"key":"09273","name":"Kelheim","type":"Landkreis"},"federalState":{"key":"09","name":"Bayern"}},{"name":"Lindlgasse","postalCode":"93339","locality":"Riedenburg","municipality":{"key":"09273164","name":"Riedenburg, St","type":"Stadt"},"district":{"key":"09273","name":"Kelheim","type":"Landkreis"},"federalState":{"key":"09","name":"Bayern"}},{"name":"Lochbrücke","postalCode":"79877","locality":"Friedenweiler","municipality":{"key":"08315039","name":"Friedenweiler","type":"Kreisangehörige_Gemeinde"},"district":{"key":"08315","name":"Breisgau-Hochschwarzwald","type":"Landkreis"},"federalState":{"key":"08","name":"Baden-Württemberg"}},{"name":"Lochweg","postalCode":"79877","locality":"Friedenweiler","municipality":{"key":"08315039","name":"Friedenweiler","type":"Kreisangehörige_Gemeinde"},"district":{"key":"08315","name":"Breisgau-Hochschwarzwald","type":"Landkreis"},"federalState":{"key":"08","name":"Baden-Württemberg"}},{"name":"Loipenweg","postalCode":"79877","locality":"Friedenweiler","municipality":{"key":"08315039","name":"Friedenweiler","type":"Kreisangehörige_Gemeinde"},"district":{"key":"08315","name":"Breisgau-Hochschwarzwald","type":"Landkreis"},"federalState":{"key":"08","name":"Baden-Württemberg"}},{"name":"Ludwigsleite","postalCode":"93339","locality":"Riedenburg","municipality":{"key":"09273164","name":"Riedenburg, St","type":"Stadt"},"district":{"key":"09273","name":"Kelheim","type":"Landkreis"},"federalState":{"key":"09","name":"Bayern"}},{"name":"Malzgasse","postalCode":"87767","locality":"Niederrieden","municipality":{"key":"09778177","name":"Niederrieden","type":"Kreisangehörige_Gemeinde"},"district":{"key":"09778","name":"Unterallgäu","type":"Landkreis"},"federalState":{"key":"09","name":"Bayern"}},{"name":"Mantelbergweg","postalCode":"93339","locality":"Riedenburg","municipality":{"key":"09273164","name":"Riedenburg, St","type":"Stadt"},"district":{"key":"09273","name":"Kelheim","type":"Landkreis"},"federalState":{"key":"09","name":"Bayern"}},{"name":"Marienstr.","postalCode":"97283","locality":"Riedenheim","municipality":{"key":"09679179","name":"Riedenheim","type":"Kreisangehörige_Gemeinde"},"district":{"key":"09679","name":"Würzburg","type":"Landkreis"},"federalState":{"key":"09","name":"Bayern"}},{"name":"Marienweg","postalCode":"93339","locality":"Riedenburg","municipality":{"key":"09273164","name":"Riedenburg, St","type":"Stadt"},"district":{"key":"09273","name":"Kelheim","type":"Landkreis"},"federalState":{"key":"09","name":"Bayern"}},{"name":"Marktplatz","postalCode":"91567","locality":"Herrieden","municipality":{"key":"09571166","name":"Herrieden, St","type":"Stadt"},"district":{"key":"09571","name":"Ansbach","type":"Landkreis"},"federalState":{"key":"09","name":"Bayern"}},{"name":"Marktplatz","postalCode":"92286","locality":"Rieden","municipality":{"key":"09371146","name":"Rieden, M","type":"Markt"},"district":{"key":"09371","name":"Amberg-Sulzbach","type":"Landkreis"},"federalState":{"key":"09","name":"Bayern"}},{"name":"Marktplatz","postalCode":"93339","locality":"Riedenburg","municipality":{"key":"09273164","name":"Riedenburg, St","type":"Stadt"},"district":{"key":"09273","name":"Kelheim","type":"Landkreis"},"federalState":{"key":"09","name":"Bayern"}},{"name":"Maximilianstr.","postalCode":"92286","locality":"Rieden","municipality":{"key":"09371146","name":"Rieden, M","type":"Markt"},"district":{"key":"09371","name":"Amberg-Sulzbach","type":"Landkreis"},"federalState":{"key":"09","name":"Bayern"}},{"name":"Max-Reger-Str.","postalCode":"92286","locality":"Rieden","municipality":{"key":"09371146","name":"Rieden, M","type":"Markt"},"district":{"key":"09371","name":"Amberg-Sulzbach","type":"Landkreis"},"federalState":{"key":"09","name":"Bayern"}},{"name":"Max-Schneider-Str.","postalCode":"91567","locality":"Herrieden","municipality":{"key":"09571166","name":"Herrieden, St","type":"Stadt"},"district":{"key":"09571","name":"Ansbach","type":"Landkreis"},"federalState":{"key":"09","name":"Bayern"}},{"name":"Maxweg","postalCode":"87669","locality":"Rieden am Forggensee","municipality":{"key":"09777163","name":"Rieden am Forggensee","type":"Kreisangehörige_Gemeinde"},"district":{"key":"09777","name":"Ostallgäu","type":"Landkreis"},"federalState":{"key":"09","name":"Bayern"}},{"name":"Melker Str.","postalCode":"91567","locality":"Herrieden","municipality":{"key":"09571166","name":"Herrieden, St","type":"Stadt"},"district":{"key":"09571","name":"Ansbach","type":"Landkreis"},"federalState":{"key":"09","name":"Bayern"}},{"name":"Memelweg","postalCode":"91567","locality":"Herrieden","municipality":{"key":"09571166","name":"Herrieden, St","type":"Stadt"},"district":{"key":"09571","name":"Ansbach","type":"Landkreis"},"federalState":{"key":"09","name":"Bayern"}},{"name":"Memminger Str.","postalCode":"87767","locality":"Niederrieden","municipality":{"key":"09778177","name":"Niederrieden","type":"Kreisangehörige_Gemeinde"},"district":{"key":"09778","name":"Unterallgäu","type":"Landkreis"},"federalState":{"key":"09","name":"Bayern"}},{"name":"Memminger Str.","postalCode":"87785","locality":"Winterrieden","municipality":{"key":"09778217","name":"Winterrieden","type":"Kreisangehörige_Gemeinde"},"district":{"key":"09778","name":"Unterallgäu","type":"Landkreis"},"federalState":{"key":"09","name":"Bayern"}},{"name":"Merzenberg","postalCode":"87785","locality":"Winterrieden","municipality":{"key":"09778217","name":"Winterrieden","type":"Kreisangehörige_Gemeinde"},"district":{"key":"09778","name":"Unterallgäu","type":"Landkreis"},"federalState":{"key":"09","name":"Bayern"}},{"name":"Michael-Reng-Str.","postalCode":"93339","locality":"Riedenburg","municipality":{"key":"09273164","name":"Riedenburg, St","type":"Stadt"},"district":{"key":"09273","name":"Kelheim","type":"Landkreis"},"federalState":{"key":"09","name":"Bayern"}},{"name":"Mittelbachstr.","postalCode":"97792","locality":"Riedenberg","municipality":{"key":"09672145","name":"Riedenberg","type":"Kreisangehörige_Gemeinde"},"district":{"key":"09672","name":"Bad Kissingen","type":"Landkreis"},"federalState":{"key":"09","name":"Bayern"}},{"name":"Mittelbergweg","postalCode":"79877","locality":"Friedenweiler","municipality":{"key":"08315039","name":"Friedenweiler","type":"Kreisangehörige_Gemeinde"},"district":{"key":"08315","name":"Breisgau-Hochschwarzwald","type":"Landkreis"},"federalState":{"key":"08","name":"Baden-Württemberg"}},{"name":"Mittelfeldweg","postalCode":"87769","locality":"Oberrieden","municipality":{"key":"09778183","name":"Oberrieden","type":"Kreisangehörige_Gemeinde"},"district":{"key":"09778","name":"Unterallgäu","type":"Landkreis"},"federalState":{"key":"09","name":"Bayern"}},{"name":"Mittelrieder Str.","postalCode":"87769","locality":"Oberrieden","municipality":{"key":"09778183","name":"Oberrieden","type":"Kreisangehörige_Gemeinde"},"district":{"key":"09778","name":"Unterallgäu","type":"Landkreis"},"federalState":{"key":"09","name":"Bayern"}},{"name":"Mittelstr.","postalCode":"56745","locality":"Rieden","municipality":{"key":"07137093","name":"Rieden","type":"Kreisangehörige_Gemeinde"},"district":{"key":"07137","name":"Mayen-Koblenz","type":"Landkreis"},"federalState":{"key":"07","name":"Rheinland-Pfalz"}},{"name":"Mittelweg","postalCode":"88483","locality":"Burgrieden","municipality":{"key":"08426028","name":"Burgrieden","type":"Kreisangehörige_Gemeinde"},"district":{"key":"08426","name":"Biberach","type":"Landkreis"},"federalState":{"key":"08","name":"Baden-Württemberg"}},{"name":"Mittelweg","postalCode":"92286","locality":"Rieden","municipality":{"key":"09371146","name":"Rieden, M","type":"Markt"},"district":{"key":"09371","name":"Amberg-Sulzbach","type":"Landkreis"},"federalState":{"key":"09","name":"Bayern"}},{"name":"Molkereiweg","postalCode":"87769","locality":"Oberrieden","municipality":{"key":"09778183","name":"Oberrieden","type":"Kreisangehörige_Gemeinde"},"district":{"key":"09778","name":"Unterallgäu","type":"Landkreis"},"federalState":{"key":"09","name":"Bayern"}},{"name":"Moosleitenweg","postalCode":"93339","locality":"Riedenburg","municipality":{"key":"09273164","name":"Riedenburg, St","type":"Stadt"},"district":{"key":"09273","name":"Kelheim","type":"Landkreis"},"federalState":{"key":"09","name":"Bayern"}},{"name":"Moosweg","postalCode":"79877","locality":"Friedenweiler","municipality":{"key":"08315039","name":"Friedenweiler","type":"Kreisangehörige_Gemeinde"},"district":{"key":"08315","name":"Breisgau-Hochschwarzwald","type":"Landkreis"},"federalState":{"key":"08","name":"Baden-Württemberg"}},{"name":"Mörikestr.","postalCode":"89186","locality":"Illerrieden","municipality":{"key":"08425066","name":"Illerrieden","type":"Kreisangehörige_Gemeinde"},"district":{"key":"08425","name":"Alb-Donau-Kreis","type":"Landkreis"},"federalState":{"key":"08","name":"Baden-Württemberg"}},{"name":"Mozartstr.","postalCode":"92286","locality":"Rieden","municipality":{"key":"09371146","name":"Rieden, M","type":"Markt"},"district":{"key":"09371","name":"Amberg-Sulzbach","type":"Landkreis"},"federalState":{"key":"09","name":"Bayern"}},{"name":"MTB14","postalCode":"93339","locality":"Riedenburg","municipality":{"key":"09273164","name":"Riedenburg, St","type":"Stadt"},"district":{"key":"09273","name":"Kelheim","type":"Landkreis"},"federalState":{"key":"09","name":"Bayern"}},{"name":"Mühlenstr.","postalCode":"79877","locality":"Friedenweiler","municipality":{"key":"08315039","name":"Friedenweiler","type":"Kreisangehörige_Gemeinde"},"district":{"key":"08315","name":"Breisgau-Hochschwarzwald","type":"Landkreis"},"federalState":{"key":"08","name":"Baden-Württemberg"}},{"name":"Mühlenweg","postalCode":"87769","locality":"Oberrieden","municipality":{"key":"09778183","name":"Oberrieden","type":"Kreisangehörige_Gemeinde"},"district":{"key":"09778","name":"Unterallgäu","type":"Landkreis"},"federalState":{"key":"09","name":"Bayern"}},{"name":"Mühlenweg","postalCode":"97792","locality":"Riedenberg","municipality":{"key":"09672145","name":"Riedenberg","type":"Kreisangehörige_Gemeinde"},"district":{"key":"09672","name":"Bad Kissingen","type":"Landkreis"},"federalState":{"key":"09","name":"Bayern"}},{"name":"Mühleweg","postalCode":"88483","locality":"Burgrieden","municipality":{"key":"08426028","name":"Burgrieden","type":"Kreisangehörige_Gemeinde"},"district":{"key":"08426","name":"Biberach","type":"Landkreis"},"federalState":{"key":"08","name":"Baden-Württemberg"}},{"name":"Mühlewiesen","postalCode":"79877","locality":"Friedenweiler","municipality":{"key":"08315039","name":"Friedenweiler","type":"Kreisangehörige_Gemeinde"},"district":{"key":"08315","name":"Breisgau-Hochschwarzwald","type":"Landkreis"},"federalState":{"key":"08","name":"Baden-Württemberg"}},{"name":"Mühlgasse","postalCode":"89186","locality":"Illerrieden","municipality":{"key":"08425066","name":"Illerrieden","type":"Kreisangehörige_Gemeinde"},"district":{"key":"08425","name":"Alb-Donau-Kreis","type":"Landkreis"},"federalState":{"key":"08","name":"Baden-Württemberg"}},{"name":"Mühlleite","postalCode":"93339","locality":"Riedenburg","municipality":{"key":"09273164","name":"Riedenburg, St","type":"Stadt"},"district":{"key":"09273","name":"Kelheim","type":"Landkreis"},"federalState":{"key":"09","name":"Bayern"}},{"name":"Mühlmahd","postalCode":"87769","locality":"Oberrieden","municipality":{"key":"09778183","name":"Oberrieden","type":"Kreisangehörige_Gemeinde"},"district":{"key":"09778","name":"Unterallgäu","type":"Landkreis"},"federalState":{"key":"09","name":"Bayern"}},{"name":"Mühlstr.","postalCode":"87767","locality":"Niederrieden","municipality":{"key":"09778177","name":"Niederrieden","type":"Kreisangehörige_Gemeinde"},"district":{"key":"09778","name":"Unterallgäu","type":"Landkreis"},"federalState":{"key":"09","name":"Bayern"}},{"name":"Mühlstr.","postalCode":"91567","locality":"Herrieden","municipality":{"key":"09571166","name":"Herrieden, St","type":"Stadt"},"district":{"key":"09571","name":"Ansbach","type":"Landkreis"},"federalState":{"key":"09","name":"Bayern"}},{"name":"Mühlstr.","postalCode":"93339","locality":"Riedenburg","municipality":{"key":"09273164","name":"Riedenburg, St","type":"Stadt"},"district":{"key":"09273","name":"Kelheim","type":"Landkreis"},"federalState":{"key":"09","name":"Bayern"}},{"name":"Mühlstr.","postalCode":"95688","locality":"Friedenfels","municipality":{"key":"09377118","name":"Friedenfels","type":"Kreisangehörige_Gemeinde"},"district":{"key":"09377","name":"Tirschenreuth","type":"Landkreis"},"federalState":{"key":"09","name":"Bayern"}},{"name":"Mühlwangenweg","postalCode":"79877","locality":"Friedenweiler","municipality":{"key":"08315039","name":"Friedenweiler","type":"Kreisangehörige_Gemeinde"},"district":{"key":"08315","name":"Breisgau-Hochschwarzwald","type":"Landkreis"},"federalState":{"key":"08","name":"Baden-Württemberg"}},{"name":"Münchener Str.","postalCode":"91567","locality":"Herrieden","municipality":{"key":"09571166","name":"Herrieden, St","type":"Stadt"},"district":{"key":"09571","name":"Ansbach","type":"Landkreis"},"federalState":{"key":"09","name":"Bayern"}},{"name":"Nelkenstr.","postalCode":"93339","locality":"Riedenburg","municipality":{"key":"09273164","name":"Riedenburg, St","type":"Stadt"},"district":{"key":"09273","name":"Kelheim","type":"Landkreis"},"federalState":{"key":"09","name":"Bayern"}},{"name":"Nelkenweg","postalCode":"87767","locality":"Niederrieden","municipality":{"key":"09778177","name":"Niederrieden","type":"Kreisangehörige_Gemeinde"},"district":{"key":"09778","name":"Unterallgäu","type":"Landkreis"},"federalState":{"key":"09","name":"Bayern"}},{"name":"Nelkenweg","postalCode":"87785","locality":"Winterrieden","municipality":{"key":"09778217","name":"Winterrieden","type":"Kreisangehörige_Gemeinde"},"district":{"key":"09778","name":"Unterallgäu","type":"Landkreis"},"federalState":{"key":"09","name":"Bayern"}},{"name":"Nelkenweg","postalCode":"89186","locality":"Illerrieden","municipality":{"key":"08425066","name":"Illerrieden","type":"Kreisangehörige_Gemeinde"},"district":{"key":"08425","name":"Alb-Donau-Kreis","type":"Landkreis"},"federalState":{"key":"08","name":"Baden-Württemberg"}},{"name":"Nelkenweg","postalCode":"92286","locality":"Rieden","municipality":{"key":"09371146","name":"Rieden, M","type":"Markt"},"district":{"key":"09371","name":"Amberg-Sulzbach","type":"Landkreis"},"federalState":{"key":"09","name":"Bayern"}},{"name":"Nettestr.","postalCode":"56745","locality":"Rieden","municipality":{"key":"07137093","name":"Rieden","type":"Kreisangehörige_Gemeinde"},"district":{"key":"07137","name":"Mayen-Koblenz","type":"Landkreis"},"federalState":{"key":"07","name":"Rheinland-Pfalz"}},{"name":"Nettetalstr.","postalCode":"56745","locality":"Rieden","municipality":{"key":"07137093","name":"Rieden","type":"Kreisangehörige_Gemeinde"},"district":{"key":"07137","name":"Mayen-Koblenz","type":"Landkreis"},"federalState":{"key":"07","name":"Rheinland-Pfalz"}},{"name":"Neunstetter Str.","postalCode":"91567","locality":"Herrieden","municipality":{"key":"09571166","name":"Herrieden, St","type":"Stadt"},"district":{"key":"09571","name":"Ansbach","type":"Landkreis"},"federalState":{"key":"09","name":"Bayern"}},{"name":"Niebelungenstr.","postalCode":"93339","locality":"Riedenburg","municipality":{"key":"09273164","name":"Riedenburg, St","type":"Stadt"},"district":{"key":"09273","name":"Kelheim","type":"Landkreis"},"federalState":{"key":"09","name":"Bayern"}},{"name":"Nordweg","postalCode":"87767","locality":"Niederrieden","municipality":{"key":"09778177","name":"Niederrieden","type":"Kreisangehörige_Gemeinde"},"district":{"key":"09778","name":"Unterallgäu","type":"Landkreis"},"federalState":{"key":"09","name":"Bayern"}},{"name":"Notthafftweg","postalCode":"95688","locality":"Friedenfels","municipality":{"key":"09377118","name":"Friedenfels","type":"Kreisangehörige_Gemeinde"},"district":{"key":"09377","name":"Tirschenreuth","type":"Landkreis"},"federalState":{"key":"09","name":"Bayern"}},{"name":"Nürnberger Str.","postalCode":"91567","locality":"Herrieden","municipality":{"key":"09571166","name":"Herrieden, St","type":"Stadt"},"district":{"key":"09571","name":"Ansbach","type":"Landkreis"},"federalState":{"key":"09","name":"Bayern"}},{"name":"Oberdorfstr.","postalCode":"79877","locality":"Friedenweiler","municipality":{"key":"08315039","name":"Friedenweiler","type":"Kreisangehörige_Gemeinde"},"district":{"key":"08315","name":"Breisgau-Hochschwarzwald","type":"Landkreis"},"federalState":{"key":"08","name":"Baden-Württemberg"}},{"name":"Obere Bergstr.","postalCode":"93339","locality":"Riedenburg","municipality":{"key":"09273164","name":"Riedenburg, St","type":"Stadt"},"district":{"key":"09273","name":"Kelheim","type":"Landkreis"},"federalState":{"key":"09","name":"Bayern"}},{"name":"Obere Dorfstr.","postalCode":"93339","locality":"Riedenburg","municipality":{"key":"09273164","name":"Riedenburg, St","type":"Stadt"},"district":{"key":"09273","name":"Kelheim","type":"Landkreis"},"federalState":{"key":"09","name":"Bayern"}},{"name":"Obereggersberg","postalCode":"93339","locality":"Riedenburg","municipality":{"key":"09273164","name":"Riedenburg, St","type":"Stadt"},"district":{"key":"09273","name":"Kelheim","type":"Landkreis"},"federalState":{"key":"09","name":"Bayern"}},{"name":"Oberer Einschlag","postalCode":"87767","locality":"Niederrieden","municipality":{"key":"09778177","name":"Niederrieden","type":"Kreisangehörige_Gemeinde"},"district":{"key":"09778","name":"Unterallgäu","type":"Landkreis"},"federalState":{"key":"09","name":"Bayern"}},{"name":"Oberer Hörnleweg","postalCode":"79877","locality":"Friedenweiler","municipality":{"key":"08315039","name":"Friedenweiler","type":"Kreisangehörige_Gemeinde"},"district":{"key":"08315","name":"Breisgau-Hochschwarzwald","type":"Landkreis"},"federalState":{"key":"08","name":"Baden-Württemberg"}},{"name":"Oberer Schlichteweg","postalCode":"79877","locality":"Friedenweiler","municipality":{"key":"08315039","name":"Friedenweiler","type":"Kreisangehörige_Gemeinde"},"district":{"key":"08315","name":"Breisgau-Hochschwarzwald","type":"Landkreis"},"federalState":{"key":"08","name":"Baden-Württemberg"}},{"name":"Oberer Weg","postalCode":"88483","locality":"Burgrieden","municipality":{"key":"08426028","name":"Burgrieden","type":"Kreisangehörige_Gemeinde"},"district":{"key":"08426","name":"Biberach","type":"Landkreis"},"federalState":{"key":"08","name":"Baden-Württemberg"}},{"name":"Oberstr.","postalCode":"56745","locality":"Rieden","municipality":{"key":"07137093","name":"Rieden","type":"Kreisangehörige_Gemeinde"},"district":{"key":"07137","name":"Mayen-Koblenz","type":"Landkreis"},"federalState":{"key":"07","name":"Rheinland-Pfalz"}},{"name":"Ohnsanger Str.","postalCode":"87769","locality":"Oberrieden","municipality":{"key":"09778183","name":"Oberrieden","type":"Kreisangehörige_Gemeinde"},"district":{"key":"09778","name":"Unterallgäu","type":"Landkreis"},"federalState":{"key":"09","name":"Bayern"}},{"name":"Orsenhauser Str.","postalCode":"88483","locality":"Burgrieden","municipality":{"key":"08426028","name":"Burgrieden","type":"Kreisangehörige_Gemeinde"},"district":{"key":"08426","name":"Biberach","type":"Landkreis"},"federalState":{"key":"08","name":"Baden-Württemberg"}},{"name":"Orsenhauser Weg","postalCode":"88483","locality":"Burgrieden","municipality":{"key":"08426028","name":"Burgrieden","type":"Kreisangehörige_Gemeinde"},"district":{"key":"08426","name":"Biberach","type":"Landkreis"},"federalState":{"key":"08","name":"Baden-Württemberg"}},{"name":"Oskar-Bier-Str.","postalCode":"79877","locality":"Friedenweiler","municipality":{"key":"08315039","name":"Friedenweiler","type":"Kreisangehörige_Gemeinde"},"district":{"key":"08315","name":"Breisgau-Hochschwarzwald","type":"Landkreis"},"federalState":{"key":"08","name":"Baden-Württemberg"}},{"name":"Otto-Freundl-Str.","postalCode":"95688","locality":"Friedenfels","municipality":{"key":"09377118","name":"Friedenfels","type":"Kreisangehörige_Gemeinde"},"district":{"key":"09377","name":"Tirschenreuth","type":"Landkreis"},"federalState":{"key":"09","name":"Bayern"}},{"name":"Otto-Stegerer-Weg","postalCode":"79877","locality":"Friedenweiler","municipality":{"key":"08315039","name":"Friedenweiler","type":"Kreisangehörige_Gemeinde"},"district":{"key":"08315","name":"Breisgau-Hochschwarzwald","type":"Landkreis"},"federalState":{"key":"08","name":"Baden-Württemberg"}},{"name":"Panoramaterrasse","postalCode":"56745","locality":"Rieden","municipality":{"key":"07137093","name":"Rieden","type":"Kreisangehörige_Gemeinde"},"district":{"key":"07137","name":"Mayen-Koblenz","type":"Landkreis"},"federalState":{"key":"07","name":"Rheinland-Pfalz"}},{"name":"Panoramaweg","postalCode":"87669","locality":"Rieden am Forggensee","municipality":{"key":"09777163","name":"Rieden am Forggensee","type":"Kreisangehörige_Gemeinde"},"district":{"key":"09777","name":"Ostallgäu","type":"Landkreis"},"federalState":{"key":"09","name":"Bayern"}},{"name":"Pappelallee","postalCode":"79877","locality":"Friedenweiler","municipality":{"key":"08315039","name":"Friedenweiler","type":"Kreisangehörige_Gemeinde"},"district":{"key":"08315","name":"Breisgau-Hochschwarzwald","type":"Landkreis"},"federalState":{"key":"08","name":"Baden-Württemberg"}},{"name":"Parkweg","postalCode":"87769","locality":"Oberrieden","municipality":{"key":"09778183","name":"Oberrieden","type":"Kreisangehörige_Gemeinde"},"district":{"key":"09778","name":"Unterallgäu","type":"Landkreis"},"federalState":{"key":"09","name":"Bayern"}},{"name":"Parkweg","postalCode":"88483","locality":"Burgrieden","municipality":{"key":"08426028","name":"Burgrieden","type":"Kreisangehörige_Gemeinde"},"district":{"key":"08426","name":"Biberach","type":"Landkreis"},"federalState":{"key":"08","name":"Baden-Württemberg"}},{"name":"Passage No. 8","postalCode":"93339","locality":"Riedenburg","municipality":{"key":"09273164","name":"Riedenburg, St","type":"Stadt"},"district":{"key":"09273","name":"Kelheim","type":"Landkreis"},"federalState":{"key":"09","name":"Bayern"}},{"name":"Paul-Ahrens-Str.","postalCode":"93339","locality":"Riedenburg","municipality":{"key":"09273164","name":"Riedenburg, St","type":"Stadt"},"district":{"key":"09273","name":"Kelheim","type":"Landkreis"},"federalState":{"key":"09","name":"Bayern"}},{"name":"Paul-Gerhardt-Str.","postalCode":"92286","locality":"Rieden","municipality":{"key":"09371146","name":"Rieden, M","type":"Markt"},"district":{"key":"09371","name":"Amberg-Sulzbach","type":"Landkreis"},"federalState":{"key":"09","name":"Bayern"}},{"name":"Perletzhofen","postalCode":"93339","locality":"Riedenburg","municipality":{"key":"09273164","name":"Riedenburg, St","type":"Stadt"},"district":{"key":"09273","name":"Kelheim","type":"Landkreis"},"federalState":{"key":"09","name":"Bayern"}},{"name":"Peter-Dörfler-Str.","postalCode":"87668","locality":"Rieden","municipality":{"key":"09777164","name":"Rieden","type":"Kreisangehörige_Gemeinde"},"district":{"key":"09777","name":"Ostallgäu","type":"Landkreis"},"federalState":{"key":"09","name":"Bayern"}},{"name":"Peter-Thumb-Str.","postalCode":"79877","locality":"Friedenweiler","municipality":{"key":"08315039","name":"Friedenweiler","type":"Kreisangehörige_Gemeinde"},"district":{"key":"08315","name":"Breisgau-Hochschwarzwald","type":"Landkreis"},"federalState":{"key":"08","name":"Baden-Württemberg"}},{"name":"Pfaffenhauser Str.","postalCode":"87769","locality":"Oberrieden","municipality":{"key":"09778183","name":"Oberrieden","type":"Kreisangehörige_Gemeinde"},"district":{"key":"09778","name":"Unterallgäu","type":"Landkreis"},"federalState":{"key":"09","name":"Bayern"}},{"name":"Pfaffenholz","postalCode":"89186","locality":"Illerrieden","municipality":{"key":"08425066","name":"Illerrieden","type":"Kreisangehörige_Gemeinde"},"district":{"key":"08425","name":"Alb-Donau-Kreis","type":"Landkreis"},"federalState":{"key":"08","name":"Baden-Württemberg"}},{"name":"Pfannenstielweg","postalCode":"87767","locality":"Niederrieden","municipality":{"key":"09778177","name":"Niederrieden","type":"Kreisangehörige_Gemeinde"},"district":{"key":"09778","name":"Unterallgäu","type":"Landkreis"},"federalState":{"key":"09","name":"Bayern"}},{"name":"Pfarrberg","postalCode":"92286","locality":"Rieden","municipality":{"key":"09371146","name":"Rieden, M","type":"Markt"},"district":{"key":"09371","name":"Amberg-Sulzbach","type":"Landkreis"},"federalState":{"key":"09","name":"Bayern"}},{"name":"Pfarrer-Braig-Str.","postalCode":"89186","locality":"Illerrieden","municipality":{"key":"08425066","name":"Illerrieden","type":"Kreisangehörige_Gemeinde"},"district":{"key":"08425","name":"Alb-Donau-Kreis","type":"Landkreis"},"federalState":{"key":"08","name":"Baden-Württemberg"}},{"name":"Pfarrer-Fütterer-Weg","postalCode":"88483","locality":"Burgrieden","municipality":{"key":"08426028","name":"Burgrieden","type":"Kreisangehörige_Gemeinde"},"district":{"key":"08426","name":"Biberach","type":"Landkreis"},"federalState":{"key":"08","name":"Baden-Württemberg"}},{"name":"Pfarrer-Georg-Kratzer-Str.","postalCode":"91567","locality":"Herrieden","municipality":{"key":"09571166","name":"Herrieden, St","type":"Stadt"},"district":{"key":"09571","name":"Ansbach","type":"Landkreis"},"federalState":{"key":"09","name":"Bayern"}},{"name":"Pfarrer-Heumann-Str.","postalCode":"91567","locality":"Herrieden","municipality":{"key":"09571166","name":"Herrieden, St","type":"Stadt"},"district":{"key":"09571","name":"Ansbach","type":"Landkreis"},"federalState":{"key":"09","name":"Bayern"}},{"name":"Pfarrer-Speinle-Str.","postalCode":"91567","locality":"Herrieden","municipality":{"key":"09571166","name":"Herrieden, St","type":"Stadt"},"district":{"key":"09571","name":"Ansbach","type":"Landkreis"},"federalState":{"key":"09","name":"Bayern"}},{"name":"Pfarrer-Weiß-Str.","postalCode":"89186","locality":"Illerrieden","municipality":{"key":"08425066","name":"Illerrieden","type":"Kreisangehörige_Gemeinde"},"district":{"key":"08425","name":"Alb-Donau-Kreis","type":"Landkreis"},"federalState":{"key":"08","name":"Baden-Württemberg"}},{"name":"Pfarrgasse","postalCode":"91567","locality":"Herrieden","municipality":{"key":"09571166","name":"Herrieden, St","type":"Stadt"},"district":{"key":"09571","name":"Ansbach","type":"Landkreis"},"federalState":{"key":"09","name":"Bayern"}},{"name":"Pfarrheimweg","postalCode":"87769","locality":"Oberrieden","municipality":{"key":"09778183","name":"Oberrieden","type":"Kreisangehörige_Gemeinde"},"district":{"key":"09778","name":"Unterallgäu","type":"Landkreis"},"federalState":{"key":"09","name":"Bayern"}},{"name":"Pfauenweg","postalCode":"89186","locality":"Illerrieden","municipality":{"key":"08425066","name":"Illerrieden","type":"Kreisangehörige_Gemeinde"},"district":{"key":"08425","name":"Alb-Donau-Kreis","type":"Landkreis"},"federalState":{"key":"08","name":"Baden-Württemberg"}},{"name":"Postkellerweg","postalCode":"93339","locality":"Riedenburg","municipality":{"key":"09273164","name":"Riedenburg, St","type":"Stadt"},"district":{"key":"09273","name":"Kelheim","type":"Landkreis"},"federalState":{"key":"09","name":"Bayern"}},{"name":"Poststr.","postalCode":"95688","locality":"Friedenfels","municipality":{"key":"09377118","name":"Friedenfels","type":"Kreisangehörige_Gemeinde"},"district":{"key":"09377","name":"Tirschenreuth","type":"Landkreis"},"federalState":{"key":"09","name":"Bayern"}},{"name":"Poststr.","postalCode":"97283","locality":"Riedenheim","municipality":{"key":"09679179","name":"Riedenheim","type":"Kreisangehörige_Gemeinde"},"district":{"key":"09679","name":"Würzburg","type":"Landkreis"},"federalState":{"key":"09","name":"Bayern"}},{"name":"Prinz-Max-Allee","postalCode":"79877","locality":"Friedenweiler","municipality":{"key":"08315039","name":"Friedenweiler","type":"Kreisangehörige_Gemeinde"},"district":{"key":"08315","name":"Breisgau-Hochschwarzwald","type":"Landkreis"},"federalState":{"key":"08","name":"Baden-Württemberg"}},{"name":"Prunner Bergstr.","postalCode":"93339","locality":"Riedenburg","municipality":{"key":"09273164","name":"Riedenburg, St","type":"Stadt"},"district":{"key":"09273","name":"Kelheim","type":"Landkreis"},"federalState":{"key":"09","name":"Bayern"}},{"name":"Prunner Hauptstr.","postalCode":"93339","locality":"Riedenburg","municipality":{"key":"09273164","name":"Riedenburg, St","type":"Stadt"},"district":{"key":"09273","name":"Kelheim","type":"Landkreis"},"federalState":{"key":"09","name":"Bayern"}},{"name":"Prunner Str.","postalCode":"93339","locality":"Riedenburg","municipality":{"key":"09273164","name":"Riedenburg, St","type":"Stadt"},"district":{"key":"09273","name":"Kelheim","type":"Landkreis"},"federalState":{"key":"09","name":"Bayern"}},{"name":"Raiffeisenstr.","postalCode":"87668","locality":"Rieden","municipality":{"key":"09777164","name":"Rieden","type":"Kreisangehörige_Gemeinde"},"district":{"key":"09777","name":"Ostallgäu","type":"Landkreis"},"federalState":{"key":"09","name":"Bayern"}},{"name":"Raiffeisenstr.","postalCode":"97283","locality":"Riedenheim","municipality":{"key":"09679179","name":"Riedenheim","type":"Kreisangehörige_Gemeinde"},"district":{"key":"09679","name":"Würzburg","type":"Landkreis"},"federalState":{"key":"09","name":"Bayern"}},{"name":"Rathausplatz","postalCode":"88483","locality":"Burgrieden","municipality":{"key":"08426028","name":"Burgrieden","type":"Kreisangehörige_Gemeinde"},"district":{"key":"08426","name":"Biberach","type":"Landkreis"},"federalState":{"key":"08","name":"Baden-Württemberg"}},{"name":"Rathausplatz","postalCode":"97283","locality":"Riedenheim","municipality":{"key":"09679179","name":"Riedenheim","type":"Kreisangehörige_Gemeinde"},"district":{"key":"09679","name":"Würzburg","type":"Landkreis"},"federalState":{"key":"09","name":"Bayern"}},{"name":"Reindlhofstr.","postalCode":"92286","locality":"Rieden","municipality":{"key":"09371146","name":"Rieden, M","type":"Markt"},"district":{"key":"09371","name":"Amberg-Sulzbach","type":"Landkreis"},"federalState":{"key":"09","name":"Bayern"}},{"name":"Reitergasse","postalCode":"92286","locality":"Rieden","municipality":{"key":"09371146","name":"Rieden, M","type":"Markt"},"district":{"key":"09371","name":"Amberg-Sulzbach","type":"Landkreis"},"federalState":{"key":"09","name":"Bayern"}},{"name":"Rettungsplatz","postalCode":"79877","locality":"Friedenweiler","municipality":{"key":"08315039","name":"Friedenweiler","type":"Kreisangehörige_Gemeinde"},"district":{"key":"08315","name":"Breisgau-Hochschwarzwald","type":"Landkreis"},"federalState":{"key":"08","name":"Baden-Württemberg"}},{"name":"Rettungssektor C","postalCode":"79877","locality":"Friedenweiler","municipality":{"key":"08315039","name":"Friedenweiler","type":"Kreisangehörige_Gemeinde"},"district":{"key":"08315","name":"Breisgau-Hochschwarzwald","type":"Landkreis"},"federalState":{"key":"08","name":"Baden-Württemberg"}},{"name":"Richard-Wagner-Str.","postalCode":"92286","locality":"Rieden","municipality":{"key":"09371146","name":"Rieden, M","type":"Markt"},"district":{"key":"09371","name":"Amberg-Sulzbach","type":"Landkreis"},"federalState":{"key":"09","name":"Bayern"}},{"name":"Riedberg","postalCode":"87668","locality":"Rieden","municipality":{"key":"09777164","name":"Rieden","type":"Kreisangehörige_Gemeinde"},"district":{"key":"09777","name":"Ostallgäu","type":"Landkreis"},"federalState":{"key":"09","name":"Bayern"}},{"name":"Riedener Str.","postalCode":"87669","locality":"Rieden am Forggensee","municipality":{"key":"09777163","name":"Rieden am Forggensee","type":"Kreisangehörige_Gemeinde"},"district":{"key":"09777","name":"Ostallgäu","type":"Landkreis"},"federalState":{"key":"09","name":"Bayern"}},{"name":"Riedener Str.","postalCode":"92286","locality":"Rieden","municipality":{"key":"09371146","name":"Rieden, M","type":"Markt"},"district":{"key":"09371","name":"Amberg-Sulzbach","type":"Landkreis"},"federalState":{"key":"09","name":"Bayern"}},{"name":"Riedenheimer Str.","postalCode":"97283","locality":"Riedenheim","municipality":{"key":"09679179","name":"Riedenheim","type":"Kreisangehörige_Gemeinde"},"district":{"key":"09679","name":"Würzburg","type":"Landkreis"},"federalState":{"key":"09","name":"Bayern"}},{"name":"Rieder Weg","postalCode":"93339","locality":"Riedenburg","municipality":{"key":"09273164","name":"Riedenburg, St","type":"Stadt"},"district":{"key":"09273","name":"Kelheim","type":"Landkreis"},"federalState":{"key":"09","name":"Bayern"}},{"name":"Riedweg","postalCode":"87769","locality":"Oberrieden","municipality":{"key":"09778183","name":"Oberrieden","type":"Kreisangehörige_Gemeinde"},"district":{"key":"09778","name":"Unterallgäu","type":"Landkreis"},"federalState":{"key":"09","name":"Bayern"}},{"name":"Riedweg","postalCode":"87785","locality":"Winterrieden","municipality":{"key":"09778217","name":"Winterrieden","type":"Kreisangehörige_Gemeinde"},"district":{"key":"09778","name":"Unterallgäu","type":"Landkreis"},"federalState":{"key":"09","name":"Bayern"}},{"name":"Ringstr.","postalCode":"87769","locality":"Oberrieden","municipality":{"key":"09778183","name":"Oberrieden","type":"Kreisangehörige_Gemeinde"},"district":{"key":"09778","name":"Unterallgäu","type":"Landkreis"},"federalState":{"key":"09","name":"Bayern"}},{"name":"Ringstr.","postalCode":"87785","locality":"Winterrieden","municipality":{"key":"09778217","name":"Winterrieden","type":"Kreisangehörige_Gemeinde"},"district":{"key":"09778","name":"Unterallgäu","type":"Landkreis"},"federalState":{"key":"09","name":"Bayern"}},{"name":"Ringstr.","postalCode":"89186","locality":"Illerrieden","municipality":{"key":"08425066","name":"Illerrieden","type":"Kreisangehörige_Gemeinde"},"district":{"key":"08425","name":"Alb-Donau-Kreis","type":"Landkreis"},"federalState":{"key":"08","name":"Baden-Württemberg"}},{"name":"Ringweg","postalCode":"87767","locality":"Niederrieden","municipality":{"key":"09778177","name":"Niederrieden","type":"Kreisangehörige_Gemeinde"},"district":{"key":"09778","name":"Unterallgäu","type":"Landkreis"},"federalState":{"key":"09","name":"Bayern"}},{"name":"Ringweg","postalCode":"97792","locality":"Riedenberg","municipality":{"key":"09672145","name":"Riedenberg","type":"Kreisangehörige_Gemeinde"},"district":{"key":"09672","name":"Bad Kissingen","type":"Landkreis"},"federalState":{"key":"09","name":"Bayern"}},{"name":"Rögelestr.","postalCode":"79877","locality":"Friedenweiler","municipality":{"key":"08315039","name":"Friedenweiler","type":"Kreisangehörige_Gemeinde"},"district":{"key":"08315","name":"Breisgau-Hochschwarzwald","type":"Landkreis"},"federalState":{"key":"08","name":"Baden-Württemberg"}},{"name":"Rohrbergweg","postalCode":"79877","locality":"Friedenweiler","municipality":{"key":"08315039","name":"Friedenweiler","type":"Kreisangehörige_Gemeinde"},"district":{"key":"08315","name":"Breisgau-Hochschwarzwald","type":"Landkreis"},"federalState":{"key":"08","name":"Baden-Württemberg"}},{"name":"Rohrstr.","postalCode":"79877","locality":"Friedenweiler","municipality":{"key":"08315039","name":"Friedenweiler","type":"Kreisangehörige_Gemeinde"},"district":{"key":"08315","name":"Breisgau-Hochschwarzwald","type":"Landkreis"},"federalState":{"key":"08","name":"Baden-Württemberg"}},{"name":"Rös","postalCode":"91567","locality":"Herrieden","municipality":{"key":"09571166","name":"Herrieden, St","type":"Stadt"},"district":{"key":"09571","name":"Ansbach","type":"Landkreis"},"federalState":{"key":"09","name":"Bayern"}},{"name":"Rosenbühl","postalCode":"95688","locality":"Friedenfels","municipality":{"key":"09377118","name":"Friedenfels","type":"Kreisangehörige_Gemeinde"},"district":{"key":"09377","name":"Tirschenreuth","type":"Landkreis"},"federalState":{"key":"09","name":"Bayern"}},{"name":"Rosenburg","postalCode":"93339","locality":"Riedenburg","municipality":{"key":"09273164","name":"Riedenburg, St","type":"Stadt"},"district":{"key":"09273","name":"Kelheim","type":"Landkreis"},"federalState":{"key":"09","name":"Bayern"}},{"name":"Rosenstr.","postalCode":"87785","locality":"Winterrieden","municipality":{"key":"09778217","name":"Winterrieden","type":"Kreisangehörige_Gemeinde"},"district":{"key":"09778","name":"Unterallgäu","type":"Landkreis"},"federalState":{"key":"09","name":"Bayern"}},{"name":"Rosenstr.","postalCode":"93339","locality":"Riedenburg","municipality":{"key":"09273164","name":"Riedenburg, St","type":"Stadt"},"district":{"key":"09273","name":"Kelheim","type":"Landkreis"},"federalState":{"key":"09","name":"Bayern"}},{"name":"Rosenweg","postalCode":"87669","locality":"Rieden am Forggensee","municipality":{"key":"09777163","name":"Rieden am Forggensee","type":"Kreisangehörige_Gemeinde"},"district":{"key":"09777","name":"Ostallgäu","type":"Landkreis"},"federalState":{"key":"09","name":"Bayern"}},{"name":"Rosenweg","postalCode":"87767","locality":"Niederrieden","municipality":{"key":"09778177","name":"Niederrieden","type":"Kreisangehörige_Gemeinde"},"district":{"key":"09778","name":"Unterallgäu","type":"Landkreis"},"federalState":{"key":"09","name":"Bayern"}},{"name":"Rosenweg","postalCode":"88483","locality":"Burgrieden","municipality":{"key":"08426028","name":"Burgrieden","type":"Kreisangehörige_Gemeinde"},"district":{"key":"08426","name":"Biberach","type":"Landkreis"},"federalState":{"key":"08","name":"Baden-Württemberg"}},{"name":"Rosenweg","postalCode":"89186","locality":"Illerrieden","municipality":{"key":"08425066","name":"Illerrieden","type":"Kreisangehörige_Gemeinde"},"district":{"key":"08425","name":"Alb-Donau-Kreis","type":"Landkreis"},"federalState":{"key":"08","name":"Baden-Württemberg"}},{"name":"Rosenweg","postalCode":"92286","locality":"Rieden","municipality":{"key":"09371146","name":"Rieden, M","type":"Markt"},"district":{"key":"09371","name":"Amberg-Sulzbach","type":"Landkreis"},"federalState":{"key":"09","name":"Bayern"}},{"name":"Röser Str.","postalCode":"91567","locality":"Herrieden","municipality":{"key":"09571166","name":"Herrieden, St","type":"Stadt"},"district":{"key":"09571","name":"Ansbach","type":"Landkreis"},"federalState":{"key":"09","name":"Bayern"}},{"name":"Rosmarinweg","postalCode":"87767","locality":"Niederrieden","municipality":{"key":"09778177","name":"Niederrieden","type":"Kreisangehörige_Gemeinde"},"district":{"key":"09778","name":"Unterallgäu","type":"Landkreis"},"federalState":{"key":"09","name":"Bayern"}},{"name":"Roßkopfsteig","postalCode":"93339","locality":"Riedenburg","municipality":{"key":"09273164","name":"Riedenburg, St","type":"Stadt"},"district":{"key":"09273","name":"Kelheim","type":"Landkreis"},"federalState":{"key":"09","name":"Bayern"}},{"name":"Rotelohstr.","postalCode":"95688","locality":"Friedenfels","municipality":{"key":"09377118","name":"Friedenfels","type":"Kreisangehörige_Gemeinde"},"district":{"key":"09377","name":"Tirschenreuth","type":"Landkreis"},"federalState":{"key":"09","name":"Bayern"}},{"name":"Roter Str.","postalCode":"88483","locality":"Burgrieden","municipality":{"key":"08426028","name":"Burgrieden","type":"Kreisangehörige_Gemeinde"},"district":{"key":"08426","name":"Biberach","type":"Landkreis"},"federalState":{"key":"08","name":"Baden-Württemberg"}},{"name":"Röthen","postalCode":"93339","locality":"Riedenburg","municipality":{"key":"09273164","name":"Riedenburg, St","type":"Stadt"},"district":{"key":"09273","name":"Kelheim","type":"Landkreis"},"federalState":{"key":"09","name":"Bayern"}},{"name":"Rother Str.","postalCode":"91567","locality":"Herrieden","municipality":{"key":"09571166","name":"Herrieden, St","type":"Stadt"},"district":{"key":"09571","name":"Ansbach","type":"Landkreis"},"federalState":{"key":"09","name":"Bayern"}},{"name":"Rothtalblick","postalCode":"87785","locality":"Winterrieden","municipality":{"key":"09778217","name":"Winterrieden","type":"Kreisangehörige_Gemeinde"},"district":{"key":"09778","name":"Unterallgäu","type":"Landkreis"},"federalState":{"key":"09","name":"Bayern"}},{"name":"Rothweg","postalCode":"87767","locality":"Niederrieden","municipality":{"key":"09778177","name":"Niederrieden","type":"Kreisangehörige_Gemeinde"},"district":{"key":"09778","name":"Unterallgäu","type":"Landkreis"},"federalState":{"key":"09","name":"Bayern"}},{"name":"Röttinger Str.","postalCode":"97283","locality":"Riedenheim","municipality":{"key":"09679179","name":"Riedenheim","type":"Kreisangehörige_Gemeinde"},"district":{"key":"09679","name":"Würzburg","type":"Landkreis"},"federalState":{"key":"09","name":"Bayern"}},{"name":"Rotuferstr.","postalCode":"88483","locality":"Burgrieden","municipality":{"key":"08426028","name":"Burgrieden","type":"Kreisangehörige_Gemeinde"},"district":{"key":"08426","name":"Biberach","type":"Landkreis"},"federalState":{"key":"08","name":"Baden-Württemberg"}},{"name":"Rudenberger Höhenweg","postalCode":"79877","locality":"Friedenweiler","municipality":{"key":"08315039","name":"Friedenweiler","type":"Kreisangehörige_Gemeinde"},"district":{"key":"08315","name":"Breisgau-Hochschwarzwald","type":"Landkreis"},"federalState":{"key":"08","name":"Baden-Württemberg"}},{"name":"Saalfeldstr.","postalCode":"87668","locality":"Rieden","municipality":{"key":"09777164","name":"Rieden","type":"Kreisangehörige_Gemeinde"},"district":{"key":"09777","name":"Ostallgäu","type":"Landkreis"},"federalState":{"key":"09","name":"Bayern"}},{"name":"Saatschulweg","postalCode":"79877","locality":"Friedenweiler","municipality":{"key":"08315039","name":"Friedenweiler","type":"Kreisangehörige_Gemeinde"},"district":{"key":"08315","name":"Breisgau-Hochschwarzwald","type":"Landkreis"},"federalState":{"key":"08","name":"Baden-Württemberg"}},{"name":"Salbeiweg","postalCode":"87767","locality":"Niederrieden","municipality":{"key":"09778177","name":"Niederrieden","type":"Kreisangehörige_Gemeinde"},"district":{"key":"09778","name":"Unterallgäu","type":"Landkreis"},"federalState":{"key":"09","name":"Bayern"}},{"name":"Salenbergweg","postalCode":"87669","locality":"Rieden am Forggensee","municipality":{"key":"09777163","name":"Rieden am Forggensee","type":"Kreisangehörige_Gemeinde"},"district":{"key":"09777","name":"Ostallgäu","type":"Landkreis"},"federalState":{"key":"09","name":"Bayern"}},{"name":"Salvatorstr.","postalCode":"93339","locality":"Riedenburg","municipality":{"key":"09273164","name":"Riedenburg, St","type":"Stadt"},"district":{"key":"09273","name":"Kelheim","type":"Landkreis"},"federalState":{"key":"09","name":"Bayern"}},{"name":"Sandgrubenweg","postalCode":"88483","locality":"Burgrieden","municipality":{"key":"08426028","name":"Burgrieden","type":"Kreisangehörige_Gemeinde"},"district":{"key":"08426","name":"Biberach","type":"Landkreis"},"federalState":{"key":"08","name":"Baden-Württemberg"}},{"name":"Sandstr.","postalCode":"93339","locality":"Riedenburg","municipality":{"key":"09273164","name":"Riedenburg, St","type":"Stadt"},"district":{"key":"09273","name":"Kelheim","type":"Landkreis"},"federalState":{"key":"09","name":"Bayern"}},{"name":"Sankt-Anna-Platz","postalCode":"93339","locality":"Riedenburg","municipality":{"key":"09273164","name":"Riedenburg, St","type":"Stadt"},"district":{"key":"09273","name":"Kelheim","type":"Landkreis"},"federalState":{"key":"09","name":"Bayern"}},{"name":"Sankt Gregor","postalCode":"93339","locality":"Riedenburg","municipality":{"key":"09273164","name":"Riedenburg, St","type":"Stadt"},"district":{"key":"09273","name":"Kelheim","type":"Landkreis"},"federalState":{"key":"09","name":"Bayern"}},{"name":"Sankt-Martin-Str.","postalCode":"93339","locality":"Riedenburg","municipality":{"key":"09273164","name":"Riedenburg, St","type":"Stadt"},"district":{"key":"09273","name":"Kelheim","type":"Landkreis"},"federalState":{"key":"09","name":"Bayern"}},{"name":"Sankt-Urban-Weg","postalCode":"87669","locality":"Rieden am Forggensee","municipality":{"key":"09777163","name":"Rieden am Forggensee","type":"Kreisangehörige_Gemeinde"},"district":{"key":"09777","name":"Ostallgäu","type":"Landkreis"},"federalState":{"key":"09","name":"Bayern"}},{"name":"Sauerbachweg","postalCode":"79877","locality":"Friedenweiler","municipality":{"key":"08315039","name":"Friedenweiler","type":"Kreisangehörige_Gemeinde"},"district":{"key":"08315","name":"Breisgau-Hochschwarzwald","type":"Landkreis"},"federalState":{"key":"08","name":"Baden-Württemberg"}},{"name":"Säulingstr.","postalCode":"87669","locality":"Rieden am Forggensee","municipality":{"key":"09777163","name":"Rieden am Forggensee","type":"Kreisangehörige_Gemeinde"},"district":{"key":"09777","name":"Ostallgäu","type":"Landkreis"},"federalState":{"key":"09","name":"Bayern"}},{"name":"Sauwiesengrund","postalCode":"93339","locality":"Riedenburg","municipality":{"key":"09273164","name":"Riedenburg, St","type":"Stadt"},"district":{"key":"09273","name":"Kelheim","type":"Landkreis"},"federalState":{"key":"09","name":"Bayern"}},{"name":"Schafhofweg","postalCode":"79877","locality":"Friedenweiler","municipality":{"key":"08315039","name":"Friedenweiler","type":"Kreisangehörige_Gemeinde"},"district":{"key":"08315","name":"Breisgau-Hochschwarzwald","type":"Landkreis"},"federalState":{"key":"08","name":"Baden-Württemberg"}},{"name":"Schaitdorfer Weg","postalCode":"93339","locality":"Riedenburg","municipality":{"key":"09273164","name":"Riedenburg, St","type":"Stadt"},"district":{"key":"09273","name":"Kelheim","type":"Landkreis"},"federalState":{"key":"09","name":"Bayern"}},{"name":"Schambacher Weg","postalCode":"93339","locality":"Riedenburg","municipality":{"key":"09273164","name":"Riedenburg, St","type":"Stadt"},"district":{"key":"09273","name":"Kelheim","type":"Landkreis"},"federalState":{"key":"09","name":"Bayern"}},{"name":"Schambachtalbrücke","postalCode":"93339","locality":"Riedenburg","municipality":{"key":"09273164","name":"Riedenburg, St","type":"Stadt"},"district":{"key":"09273","name":"Kelheim","type":"Landkreis"},"federalState":{"key":"09","name":"Bayern"}},{"name":"Schanz","postalCode":"79877","locality":"Friedenweiler","municipality":{"key":"08315039","name":"Friedenweiler","type":"Kreisangehörige_Gemeinde"},"district":{"key":"08315","name":"Breisgau-Hochschwarzwald","type":"Landkreis"},"federalState":{"key":"08","name":"Baden-Württemberg"}},{"name":"Schanz Allee","postalCode":"79877","locality":"Friedenweiler","municipality":{"key":"08315039","name":"Friedenweiler","type":"Kreisangehörige_Gemeinde"},"district":{"key":"08315","name":"Breisgau-Hochschwarzwald","type":"Landkreis"},"federalState":{"key":"08","name":"Baden-Württemberg"}},{"name":"Schanzstr.","postalCode":"79877","locality":"Friedenweiler","municipality":{"key":"08315039","name":"Friedenweiler","type":"Kreisangehörige_Gemeinde"},"district":{"key":"08315","name":"Breisgau-Hochschwarzwald","type":"Landkreis"},"federalState":{"key":"08","name":"Baden-Württemberg"}},{"name":"Scheibelweg","postalCode":"93339","locality":"Riedenburg","municipality":{"key":"09273164","name":"Riedenburg, St","type":"Stadt"},"district":{"key":"09273","name":"Kelheim","type":"Landkreis"},"federalState":{"key":"09","name":"Bayern"}},{"name":"Scheurenäcker","postalCode":"79877","locality":"Friedenweiler","municipality":{"key":"08315039","name":"Friedenweiler","type":"Kreisangehörige_Gemeinde"},"district":{"key":"08315","name":"Breisgau-Hochschwarzwald","type":"Landkreis"},"federalState":{"key":"08","name":"Baden-Württemberg"}},{"name":"Schieferterrasse","postalCode":"56745","locality":"Rieden","municipality":{"key":"07137093","name":"Rieden","type":"Kreisangehörige_Gemeinde"},"district":{"key":"07137","name":"Mayen-Koblenz","type":"Landkreis"},"federalState":{"key":"07","name":"Rheinland-Pfalz"}},{"name":"Schießmauerstr.","postalCode":"97283","locality":"Riedenheim","municipality":{"key":"09679179","name":"Riedenheim","type":"Kreisangehörige_Gemeinde"},"district":{"key":"09679","name":"Würzburg","type":"Landkreis"},"federalState":{"key":"09","name":"Bayern"}},{"name":"Schillerstr.","postalCode":"89186","locality":"Illerrieden","municipality":{"key":"08425066","name":"Illerrieden","type":"Kreisangehörige_Gemeinde"},"district":{"key":"08425","name":"Alb-Donau-Kreis","type":"Landkreis"},"federalState":{"key":"08","name":"Baden-Württemberg"}},{"name":"Schillerstr.","postalCode":"97792","locality":"Riedenberg","municipality":{"key":"09672145","name":"Riedenberg","type":"Kreisangehörige_Gemeinde"},"district":{"key":"09672","name":"Bad Kissingen","type":"Landkreis"},"federalState":{"key":"09","name":"Bayern"}},{"name":"Schillingweg","postalCode":"79877","locality":"Friedenweiler","municipality":{"key":"08315039","name":"Friedenweiler","type":"Kreisangehörige_Gemeinde"},"district":{"key":"08315","name":"Breisgau-Hochschwarzwald","type":"Landkreis"},"federalState":{"key":"08","name":"Baden-Württemberg"}},{"name":"Schlehenweg","postalCode":"93339","locality":"Riedenburg","municipality":{"key":"09273164","name":"Riedenburg, St","type":"Stadt"},"district":{"key":"09273","name":"Kelheim","type":"Landkreis"},"federalState":{"key":"09","name":"Bayern"}},{"name":"Schleifweg","postalCode":"87769","locality":"Oberrieden","municipality":{"key":"09778183","name":"Oberrieden","type":"Kreisangehörige_Gemeinde"},"district":{"key":"09778","name":"Unterallgäu","type":"Landkreis"},"federalState":{"key":"09","name":"Bayern"}},{"name":"Schlesierstr.","postalCode":"91567","locality":"Herrieden","municipality":{"key":"09571166","name":"Herrieden, St","type":"Stadt"},"district":{"key":"09571","name":"Ansbach","type":"Landkreis"},"federalState":{"key":"09","name":"Bayern"}},{"name":"Schlichtmoosweg","postalCode":"79877","locality":"Friedenweiler","municipality":{"key":"08315039","name":"Friedenweiler","type":"Kreisangehörige_Gemeinde"},"district":{"key":"08315","name":"Breisgau-Hochschwarzwald","type":"Landkreis"},"federalState":{"key":"08","name":"Baden-Württemberg"}},{"name":"Schlingener Str.","postalCode":"87668","locality":"Rieden","municipality":{"key":"09777164","name":"Rieden","type":"Kreisangehörige_Gemeinde"},"district":{"key":"09777","name":"Ostallgäu","type":"Landkreis"},"federalState":{"key":"09","name":"Bayern"}},{"name":"Schloßberg","postalCode":"92286","locality":"Rieden","municipality":{"key":"09371146","name":"Rieden, M","type":"Markt"},"district":{"key":"09371","name":"Amberg-Sulzbach","type":"Landkreis"},"federalState":{"key":"09","name":"Bayern"}},{"name":"Schlossbergweg","postalCode":"91567","locality":"Herrieden","municipality":{"key":"09571166","name":"Herrieden, St","type":"Stadt"},"district":{"key":"09571","name":"Ansbach","type":"Landkreis"},"federalState":{"key":"09","name":"Bayern"}},{"name":"Schlossplatz","postalCode":"79877","locality":"Friedenweiler","municipality":{"key":"08315039","name":"Friedenweiler","type":"Kreisangehörige_Gemeinde"},"district":{"key":"08315","name":"Breisgau-Hochschwarzwald","type":"Landkreis"},"federalState":{"key":"08","name":"Baden-Württemberg"}},{"name":"Schloßprunner Weg","postalCode":"93339","locality":"Riedenburg","municipality":{"key":"09273164","name":"Riedenburg, St","type":"Stadt"},"district":{"key":"09273","name":"Kelheim","type":"Landkreis"},"federalState":{"key":"09","name":"Bayern"}},{"name":"Schloßweg","postalCode":"88483","locality":"Burgrieden","municipality":{"key":"08426028","name":"Burgrieden","type":"Kreisangehörige_Gemeinde"},"district":{"key":"08426","name":"Biberach","type":"Landkreis"},"federalState":{"key":"08","name":"Baden-Württemberg"}},{"name":"Schlottholzweg","postalCode":"93339","locality":"Riedenburg","municipality":{"key":"09273164","name":"Riedenburg, St","type":"Stadt"},"district":{"key":"09273","name":"Kelheim","type":"Landkreis"},"federalState":{"key":"09","name":"Bayern"}},{"name":"Schmiedgasse","postalCode":"88483","locality":"Burgrieden","municipality":{"key":"08426028","name":"Burgrieden","type":"Kreisangehörige_Gemeinde"},"district":{"key":"08426","name":"Biberach","type":"Landkreis"},"federalState":{"key":"08","name":"Baden-Württemberg"}},{"name":"Schön","postalCode":"92286","locality":"Rieden","municipality":{"key":"09371146","name":"Rieden, M","type":"Markt"},"district":{"key":"09371","name":"Amberg-Sulzbach","type":"Landkreis"},"federalState":{"key":"09","name":"Bayern"}},{"name":"Schönbeetstr.","postalCode":"97283","locality":"Riedenheim","municipality":{"key":"09679179","name":"Riedenheim","type":"Kreisangehörige_Gemeinde"},"district":{"key":"09679","name":"Würzburg","type":"Landkreis"},"federalState":{"key":"09","name":"Bayern"}},{"name":"Schönblick","postalCode":"87785","locality":"Winterrieden","municipality":{"key":"09778217","name":"Winterrieden","type":"Kreisangehörige_Gemeinde"},"district":{"key":"09778","name":"Unterallgäu","type":"Landkreis"},"federalState":{"key":"09","name":"Bayern"}},{"name":"Schönblick","postalCode":"89186","locality":"Illerrieden","municipality":{"key":"08425066","name":"Illerrieden","type":"Kreisangehörige_Gemeinde"},"district":{"key":"08425","name":"Alb-Donau-Kreis","type":"Landkreis"},"federalState":{"key":"08","name":"Baden-Württemberg"}},{"name":"Schönfußstr.","postalCode":"95688","locality":"Friedenfels","municipality":{"key":"09377118","name":"Friedenfels","type":"Kreisangehörige_Gemeinde"},"district":{"key":"09377","name":"Tirschenreuth","type":"Landkreis"},"federalState":{"key":"09","name":"Bayern"}},{"name":"Schönstheimer Str.","postalCode":"97283","locality":"Riedenheim","municipality":{"key":"09679179","name":"Riedenheim","type":"Kreisangehörige_Gemeinde"},"district":{"key":"09679","name":"Würzburg","type":"Landkreis"},"federalState":{"key":"09","name":"Bayern"}},{"name":"Schorrenblick","postalCode":"88483","locality":"Burgrieden","municipality":{"key":"08426028","name":"Burgrieden","type":"Kreisangehörige_Gemeinde"},"district":{"key":"08426","name":"Biberach","type":"Landkreis"},"federalState":{"key":"08","name":"Baden-Württemberg"}},{"name":"Schubertstr.","postalCode":"92286","locality":"Rieden","municipality":{"key":"09371146","name":"Rieden, M","type":"Markt"},"district":{"key":"09371","name":"Amberg-Sulzbach","type":"Landkreis"},"federalState":{"key":"09","name":"Bayern"}},{"name":"Schulgasse","postalCode":"89186","locality":"Illerrieden","municipality":{"key":"08425066","name":"Illerrieden","type":"Kreisangehörige_Gemeinde"},"district":{"key":"08425","name":"Alb-Donau-Kreis","type":"Landkreis"},"federalState":{"key":"08","name":"Baden-Württemberg"}},{"name":"Schulstr.","postalCode":"56745","locality":"Rieden","municipality":{"key":"07137093","name":"Rieden","type":"Kreisangehörige_Gemeinde"},"district":{"key":"07137","name":"Mayen-Koblenz","type":"Landkreis"},"federalState":{"key":"07","name":"Rheinland-Pfalz"}},{"name":"Tal","postalCode":"88483","locality":"Burgrieden","municipality":{"key":"08426028","name":"Burgrieden","type":"Kreisangehörige_Gemeinde"},"district":{"key":"08426","name":"Biberach","type":"Landkreis"},"federalState":{"key":"08","name":"Baden-Württemberg"}},{"name":"Tal","postalCode":"89186","locality":"Illerrieden","municipality":{"key":"08425066","name":"Illerrieden","type":"Kreisangehörige_Gemeinde"},"district":{"key":"08425","name":"Alb-Donau-Kreis","type":"Landkreis"},"federalState":{"key":"08","name":"Baden-Württemberg"}},{"name":"Talblick","postalCode":"88483","locality":"Burgrieden","municipality":{"key":"08426028","name":"Burgrieden","type":"Kreisangehörige_Gemeinde"},"district":{"key":"08426","name":"Biberach","type":"Landkreis"},"federalState":{"key":"08","name":"Baden-Württemberg"}},{"name":"Talblick","postalCode":"92286","locality":"Rieden","municipality":{"key":"09371146","name":"Rieden, M","type":"Markt"},"district":{"key":"09371","name":"Amberg-Sulzbach","type":"Landkreis"},"federalState":{"key":"09","name":"Bayern"}},{"name":"Talstr.","postalCode":"93339","locality":"Riedenburg","municipality":{"key":"09273164","name":"Riedenburg, St","type":"Stadt"},"district":{"key":"09273","name":"Kelheim","type":"Landkreis"},"federalState":{"key":"09","name":"Bayern"}},{"name":"Tannenweg","postalCode":"93339","locality":"Riedenburg","municipality":{"key":"09273164","name":"Riedenburg, St","type":"Stadt"},"district":{"key":"09273","name":"Kelheim","type":"Landkreis"},"federalState":{"key":"09","name":"Bayern"}},{"name":"Tannenweg","postalCode":"97792","locality":"Riedenberg","municipality":{"key":"09672145","name":"Riedenberg","type":"Kreisangehörige_Gemeinde"},"district":{"key":"09672","name":"Bad Kissingen","type":"Landkreis"},"federalState":{"key":"09","name":"Bayern"}},{"name":"Taubenbacher Str.","postalCode":"92286","locality":"Rieden","municipality":{"key":"09371146","name":"Rieden, M","type":"Markt"},"district":{"key":"09371","name":"Amberg-Sulzbach","type":"Landkreis"},"federalState":{"key":"09","name":"Bayern"}},{"name":"Taubenbachtal","postalCode":"92286","locality":"Rieden","municipality":{"key":"09371146","name":"Rieden, M","type":"Markt"},"district":{"key":"09371","name":"Amberg-Sulzbach","type":"Landkreis"},"federalState":{"key":"09","name":"Bayern"}},{"name":"Tauberzeller Weg","postalCode":"91567","locality":"Herrieden","municipality":{"key":"09571166","name":"Herrieden, St","type":"Stadt"},"district":{"key":"09571","name":"Ansbach","type":"Landkreis"},"federalState":{"key":"09","name":"Bayern"}},{"name":"Tegelbergstr.","postalCode":"87669","locality":"Rieden am Forggensee","municipality":{"key":"09777163","name":"Rieden am Forggensee","type":"Kreisangehörige_Gemeinde"},"district":{"key":"09777","name":"Ostallgäu","type":"Landkreis"},"federalState":{"key":"09","name":"Bayern"}},{"name":"Thanheimer Str.","postalCode":"92286","locality":"Rieden","municipality":{"key":"09371146","name":"Rieden, M","type":"Markt"},"district":{"key":"09371","name":"Amberg-Sulzbach","type":"Landkreis"},"federalState":{"key":"09","name":"Bayern"}},{"name":"Thanner Str.","postalCode":"93339","locality":"Riedenburg","municipality":{"key":"09273164","name":"Riedenburg, St","type":"Stadt"},"district":{"key":"09273","name":"Kelheim","type":"Landkreis"},"federalState":{"key":"09","name":"Bayern"}},{"name":"Theodor-Nägelein-Str.","postalCode":"91567","locality":"Herrieden","municipality":{"key":"09571166","name":"Herrieden, St","type":"Stadt"},"district":{"key":"09571","name":"Ansbach","type":"Landkreis"},"federalState":{"key":"09","name":"Bayern"}},{"name":"Tiefmoos-Allee","postalCode":"79877","locality":"Friedenweiler","municipality":{"key":"08315039","name":"Friedenweiler","type":"Kreisangehörige_Gemeinde"},"district":{"key":"08315","name":"Breisgau-Hochschwarzwald","type":"Landkreis"},"federalState":{"key":"08","name":"Baden-Württemberg"}},{"name":"Trockenbachweg","postalCode":"97792","locality":"Riedenberg","municipality":{"key":"09672145","name":"Riedenberg","type":"Kreisangehörige_Gemeinde"},"district":{"key":"09672","name":"Bad Kissingen","type":"Landkreis"},"federalState":{"key":"09","name":"Bayern"}},{"name":"Tulpenstr.","postalCode":"92286","locality":"Rieden","municipality":{"key":"09371146","name":"Rieden, M","type":"Markt"},"district":{"key":"09371","name":"Amberg-Sulzbach","type":"Landkreis"},"federalState":{"key":"09","name":"Bayern"}},{"name":"Tulpenweg","postalCode":"87767","locality":"Niederrieden","municipality":{"key":"09778177","name":"Niederrieden","type":"Kreisangehörige_Gemeinde"},"district":{"key":"09778","name":"Unterallgäu","type":"Landkreis"},"federalState":{"key":"09","name":"Bayern"}},{"name":"Tulpenweg","postalCode":"89186","locality":"Illerrieden","municipality":{"key":"08425066","name":"Illerrieden","type":"Kreisangehörige_Gemeinde"},"district":{"key":"08425","name":"Alb-Donau-Kreis","type":"Landkreis"},"federalState":{"key":"08","name":"Baden-Württemberg"}},{"name":"Tulpenweg","postalCode":"93339","locality":"Riedenburg","municipality":{"key":"09273164","name":"Riedenburg, St","type":"Stadt"},"district":{"key":"09273","name":"Kelheim","type":"Landkreis"},"federalState":{"key":"09","name":"Bayern"}},{"name":"Turmstr.","postalCode":"91567","locality":"Herrieden","municipality":{"key":"09571166","name":"Herrieden, St","type":"Stadt"},"district":{"key":"09571","name":"Ansbach","type":"Landkreis"},"federalState":{"key":"09","name":"Bayern"}},{"name":"Uferterrasse","postalCode":"56745","locality":"Rieden","municipality":{"key":"07137093","name":"Rieden","type":"Kreisangehörige_Gemeinde"},"district":{"key":"07137","name":"Mayen-Koblenz","type":"Landkreis"},"federalState":{"key":"07","name":"Rheinland-Pfalz"}},{"name":"Uhlandstr.","postalCode":"89186","locality":"Illerrieden","municipality":{"key":"08425066","name":"Illerrieden","type":"Kreisangehörige_Gemeinde"},"district":{"key":"08425","name":"Alb-Donau-Kreis","type":"Landkreis"},"federalState":{"key":"08","name":"Baden-Württemberg"}},{"name":"Ulmer Kreuz","postalCode":"88483","locality":"Burgrieden","municipality":{"key":"08426028","name":"Burgrieden","type":"Kreisangehörige_Gemeinde"},"district":{"key":"08426","name":"Biberach","type":"Landkreis"},"federalState":{"key":"08","name":"Baden-Württemberg"}},{"name":"Ulmer Str.","postalCode":"89186","locality":"Illerrieden","municipality":{"key":"08425066","name":"Illerrieden","type":"Kreisangehörige_Gemeinde"},"district":{"key":"08425","name":"Alb-Donau-Kreis","type":"Landkreis"},"federalState":{"key":"08","name":"Baden-Württemberg"}},{"name":"Ungarndeutsche Str.","postalCode":"91567","locality":"Herrieden","municipality":{"key":"09571166","name":"Herrieden, St","type":"Stadt"},"district":{"key":"09571","name":"Ansbach","type":"Landkreis"},"federalState":{"key":"09","name":"Bayern"}},{"name":"Untere Dorfstr.","postalCode":"93339","locality":"Riedenburg","municipality":{"key":"09273164","name":"Riedenburg, St","type":"Stadt"},"district":{"key":"09273","name":"Kelheim","type":"Landkreis"},"federalState":{"key":"09","name":"Bayern"}},{"name":"Untere Kulturen","postalCode":"87767","locality":"Niederrieden","municipality":{"key":"09778177","name":"Niederrieden","type":"Kreisangehörige_Gemeinde"},"district":{"key":"09778","name":"Unterallgäu","type":"Landkreis"},"federalState":{"key":"09","name":"Bayern"}},{"name":"Unterer Nonnenberg","postalCode":"88483","locality":"Burgrieden","municipality":{"key":"08426028","name":"Burgrieden","type":"Kreisangehörige_Gemeinde"},"district":{"key":"08426","name":"Biberach","type":"Landkreis"},"federalState":{"key":"08","name":"Baden-Württemberg"}},{"name":"Unterer Postkellerweg","postalCode":"93339","locality":"Riedenburg","municipality":{"key":"09273164","name":"Riedenburg, St","type":"Stadt"},"district":{"key":"09273","name":"Kelheim","type":"Landkreis"},"federalState":{"key":"09","name":"Bayern"}},{"name":"Unterer Schlichteweg","postalCode":"79877","locality":"Friedenweiler","municipality":{"key":"08315039","name":"Friedenweiler","type":"Kreisangehörige_Gemeinde"},"district":{"key":"08315","name":"Breisgau-Hochschwarzwald","type":"Landkreis"},"federalState":{"key":"08","name":"Baden-Württemberg"}},{"name":"Untere Sonnenstr.","postalCode":"87767","locality":"Niederrieden","municipality":{"key":"09778177","name":"Niederrieden","type":"Kreisangehörige_Gemeinde"},"district":{"key":"09778","name":"Unterallgäu","type":"Landkreis"},"federalState":{"key":"09","name":"Bayern"}},{"name":"Unterneumühle","postalCode":"95688","locality":"Friedenfels","municipality":{"key":"09377118","name":"Friedenfels","type":"Kreisangehörige_Gemeinde"},"district":{"key":"09377","name":"Tirschenreuth","type":"Landkreis"},"federalState":{"key":"09","name":"Bayern"}},{"name":"Veilchenweg","postalCode":"93339","locality":"Riedenburg","municipality":{"key":"09273164","name":"Riedenburg, St","type":"Stadt"},"district":{"key":"09273","name":"Kelheim","type":"Landkreis"},"federalState":{"key":"09","name":"Bayern"}},{"name":"Veldener Str.","postalCode":"91567","locality":"Herrieden","municipality":{"key":"09571166","name":"Herrieden, St","type":"Stadt"},"district":{"key":"09571","name":"Ansbach","type":"Landkreis"},"federalState":{"key":"09","name":"Bayern"}},{"name":"Villa Rot","postalCode":"88483","locality":"Burgrieden","municipality":{"key":"08426028","name":"Burgrieden","type":"Kreisangehörige_Gemeinde"},"district":{"key":"08426","name":"Biberach","type":"Landkreis"},"federalState":{"key":"08","name":"Baden-Württemberg"}},{"name":"Vilshofener Str.","postalCode":"92286","locality":"Rieden","municipality":{"key":"09371146","name":"Rieden, M","type":"Markt"},"district":{"key":"09371","name":"Amberg-Sulzbach","type":"Landkreis"},"federalState":{"key":"09","name":"Bayern"}},{"name":"Vilstalstr.","postalCode":"92286","locality":"Rieden","municipality":{"key":"09371146","name":"Rieden, M","type":"Markt"},"district":{"key":"09371","name":"Amberg-Sulzbach","type":"Landkreis"},"federalState":{"key":"09","name":"Bayern"}},{"name":"Voglherdweg","postalCode":"95688","locality":"Friedenfels","municipality":{"key":"09377118","name":"Friedenfels","type":"Kreisangehörige_Gemeinde"},"district":{"key":"09377","name":"Tirschenreuth","type":"Landkreis"},"federalState":{"key":"09","name":"Bayern"}},{"name":"Vogteiplatz","postalCode":"91567","locality":"Herrieden","municipality":{"key":"09571166","name":"Herrieden, St","type":"Stadt"},"district":{"key":"09571","name":"Ansbach","type":"Landkreis"},"federalState":{"key":"09","name":"Bayern"}},{"name":"Vogteiweg","postalCode":"91567","locality":"Herrieden","municipality":{"key":"09571166","name":"Herrieden, St","type":"Stadt"},"district":{"key":"09571","name":"Ansbach","type":"Landkreis"},"federalState":{"key":"09","name":"Bayern"}},{"name":"Vöhringer Str.","postalCode":"89186","locality":"Illerrieden","municipality":{"key":"08425066","name":"Illerrieden","type":"Kreisangehörige_Gemeinde"},"district":{"key":"08425","name":"Alb-Donau-Kreis","type":"Landkreis"},"federalState":{"key":"08","name":"Baden-Württemberg"}},{"name":"Voitenthan","postalCode":"95688","locality":"Friedenfels","municipality":{"key":"09377118","name":"Friedenfels","type":"Kreisangehörige_Gemeinde"},"district":{"key":"09377","name":"Tirschenreuth","type":"Landkreis"},"federalState":{"key":"09","name":"Bayern"}},{"name":"Vordere Gasse","postalCode":"91567","locality":"Herrieden","municipality":{"key":"09571166","name":"Herrieden, St","type":"Stadt"},"district":{"key":"09571","name":"Ansbach","type":"Landkreis"},"federalState":{"key":"09","name":"Bayern"}},{"name":"Vorderer Berg","postalCode":"89186","locality":"Illerrieden","municipality":{"key":"08425066","name":"Illerrieden","type":"Kreisangehörige_Gemeinde"},"district":{"key":"08425","name":"Alb-Donau-Kreis","type":"Landkreis"},"federalState":{"key":"08","name":"Baden-Württemberg"}},{"name":"Vulkanstr.","postalCode":"56745","locality":"Rieden","municipality":{"key":"07137093","name":"Rieden","type":"Kreisangehörige_Gemeinde"},"district":{"key":"07137","name":"Mayen-Koblenz","type":"Landkreis"},"federalState":{"key":"07","name":"Rheinland-Pfalz"}},{"name":"Wagnersgässle","postalCode":"88483","locality":"Burgrieden","municipality":{"key":"08426028","name":"Burgrieden","type":"Kreisangehörige_Gemeinde"},"district":{"key":"08426","name":"Biberach","type":"Landkreis"},"federalState":{"key":"08","name":"Baden-Württemberg"}},{"name":"Waldblick","postalCode":"88483","locality":"Burgrieden","municipality":{"key":"08426028","name":"Burgrieden","type":"Kreisangehörige_Gemeinde"},"district":{"key":"08426","name":"Biberach","type":"Landkreis"},"federalState":{"key":"08","name":"Baden-Württemberg"}},{"name":"Waldhornstr.","postalCode":"87767","locality":"Niederrieden","municipality":{"key":"09778177","name":"Niederrieden","type":"Kreisangehörige_Gemeinde"},"district":{"key":"09778","name":"Unterallgäu","type":"Landkreis"},"federalState":{"key":"09","name":"Bayern"}},{"name":"Waldseestr.","postalCode":"56745","locality":"Rieden","municipality":{"key":"07137093","name":"Rieden","type":"Kreisangehörige_Gemeinde"},"district":{"key":"07137","name":"Mayen-Koblenz","type":"Landkreis"},"federalState":{"key":"07","name":"Rheinland-Pfalz"}},{"name":"Waldsteige","postalCode":"89186","locality":"Illerrieden","municipality":{"key":"08425066","name":"Illerrieden","type":"Kreisangehörige_Gemeinde"},"district":{"key":"08425","name":"Alb-Donau-Kreis","type":"Landkreis"},"federalState":{"key":"08","name":"Baden-Württemberg"}},{"name":"Waldstr.","postalCode":"56745","locality":"Rieden","municipality":{"key":"07137093","name":"Rieden","type":"Kreisangehörige_Gemeinde"},"district":{"key":"07137","name":"Mayen-Koblenz","type":"Landkreis"},"federalState":{"key":"07","name":"Rheinland-Pfalz"}},{"name":"Waldstr.","postalCode":"95688","locality":"Friedenfels","municipality":{"key":"09377118","name":"Friedenfels","type":"Kreisangehörige_Gemeinde"},"district":{"key":"09377","name":"Tirschenreuth","type":"Landkreis"},"federalState":{"key":"09","name":"Bayern"}},{"name":"Waldterrasse","postalCode":"56745","locality":"Rieden","municipality":{"key":"07137093","name":"Rieden","type":"Kreisangehörige_Gemeinde"},"district":{"key":"07137","name":"Mayen-Koblenz","type":"Landkreis"},"federalState":{"key":"07","name":"Rheinland-Pfalz"}},{"name":"Waldweg","postalCode":"79877","locality":"Friedenweiler","municipality":{"key":"08315039","name":"Friedenweiler","type":"Kreisangehörige_Gemeinde"},"district":{"key":"08315","name":"Breisgau-Hochschwarzwald","type":"Landkreis"},"federalState":{"key":"08","name":"Baden-Württemberg"}},{"name":"Waldweg","postalCode":"92286","locality":"Rieden","municipality":{"key":"09371146","name":"Rieden, M","type":"Markt"},"district":{"key":"09371","name":"Amberg-Sulzbach","type":"Landkreis"},"federalState":{"key":"09","name":"Bayern"}},{"name":"Wangener Str.","postalCode":"89186","locality":"Illerrieden","municipality":{"key":"08425066","name":"Illerrieden","type":"Kreisangehörige_Gemeinde"},"district":{"key":"08425","name":"Alb-Donau-Kreis","type":"Landkreis"},"federalState":{"key":"08","name":"Baden-Württemberg"}},{"name":"Wannenstr.","postalCode":"89186","locality":"Illerrieden","municipality":{"key":"08425066","name":"Illerrieden","type":"Kreisangehörige_Gemeinde"},"district":{"key":"08425","name":"Alb-Donau-Kreis","type":"Landkreis"},"federalState":{"key":"08","name":"Baden-Württemberg"}},{"name":"Webergasse","postalCode":"97283","locality":"Riedenheim","municipality":{"key":"09679179","name":"Riedenheim","type":"Kreisangehörige_Gemeinde"},"district":{"key":"09679","name":"Würzburg","type":"Landkreis"},"federalState":{"key":"09","name":"Bayern"}},{"name":"Weberweg","postalCode":"87669","locality":"Rieden am Forggensee","municipality":{"key":"09777163","name":"Rieden am Forggensee","type":"Kreisangehörige_Gemeinde"},"district":{"key":"09777","name":"Ostallgäu","type":"Landkreis"},"federalState":{"key":"09","name":"Bayern"}},{"name":"Weidenstr.","postalCode":"87767","locality":"Niederrieden","municipality":{"key":"09778177","name":"Niederrieden","type":"Kreisangehörige_Gemeinde"},"district":{"key":"09778","name":"Unterallgäu","type":"Landkreis"},"federalState":{"key":"09","name":"Bayern"}},{"name":"Weideweg","postalCode":"93339","locality":"Riedenburg","municipality":{"key":"09273164","name":"Riedenburg, St","type":"Stadt"},"district":{"key":"09273","name":"Kelheim","type":"Landkreis"},"federalState":{"key":"09","name":"Bayern"}},{"name":"Weiherblick","postalCode":"89186","locality":"Illerrieden","municipality":{"key":"08425066","name":"Illerrieden","type":"Kreisangehörige_Gemeinde"},"district":{"key":"08425","name":"Alb-Donau-Kreis","type":"Landkreis"},"federalState":{"key":"08","name":"Baden-Württemberg"}},{"name":"Weihergaßweg","postalCode":"79877","locality":"Friedenweiler","municipality":{"key":"08315039","name":"Friedenweiler","type":"Kreisangehörige_Gemeinde"},"district":{"key":"08315","name":"Breisgau-Hochschwarzwald","type":"Landkreis"},"federalState":{"key":"08","name":"Baden-Württemberg"}},{"name":"Weiherleweg","postalCode":"87785","locality":"Winterrieden","municipality":{"key":"09778217","name":"Winterrieden","type":"Kreisangehörige_Gemeinde"},"district":{"key":"09778","name":"Unterallgäu","type":"Landkreis"},"federalState":{"key":"09","name":"Bayern"}},{"name":"Weihersberg","postalCode":"97283","locality":"Riedenheim","municipality":{"key":"09679179","name":"Riedenheim","type":"Kreisangehörige_Gemeinde"},"district":{"key":"09679","name":"Würzburg","type":"Landkreis"},"federalState":{"key":"09","name":"Bayern"}},{"name":"Weiherweg","postalCode":"87767","locality":"Niederrieden","municipality":{"key":"09778177","name":"Niederrieden","type":"Kreisangehörige_Gemeinde"},"district":{"key":"09778","name":"Unterallgäu","type":"Landkreis"},"federalState":{"key":"09","name":"Bayern"}},{"name":"Weiherweg","postalCode":"87769","locality":"Oberrieden","municipality":{"key":"09778183","name":"Oberrieden","type":"Kreisangehörige_Gemeinde"},"district":{"key":"09778","name":"Unterallgäu","type":"Landkreis"},"federalState":{"key":"09","name":"Bayern"}},{"name":"Weiherweg","postalCode":"88483","locality":"Burgrieden","municipality":{"key":"08426028","name":"Burgrieden","type":"Kreisangehörige_Gemeinde"},"district":{"key":"08426","name":"Biberach","type":"Landkreis"},"federalState":{"key":"08","name":"Baden-Württemberg"}},{"name":"Weilbacher Str.","postalCode":"87769","locality":"Oberrieden","municipality":{"key":"09778183","name":"Oberrieden","type":"Kreisangehörige_Gemeinde"},"district":{"key":"09778","name":"Unterallgäu","type":"Landkreis"},"federalState":{"key":"09","name":"Bayern"}},{"name":"Weiler","postalCode":"87767","locality":"Niederrieden","municipality":{"key":"09778177","name":"Niederrieden","type":"Kreisangehörige_Gemeinde"},"district":{"key":"09778","name":"Unterallgäu","type":"Landkreis"},"federalState":{"key":"09","name":"Bayern"}},{"name":"Weilerstr.","postalCode":"87767","locality":"Niederrieden","municipality":{"key":"09778177","name":"Niederrieden","type":"Kreisangehörige_Gemeinde"},"district":{"key":"09778","name":"Unterallgäu","type":"Landkreis"},"federalState":{"key":"09","name":"Bayern"}},{"name":"Weinberger Str.","postalCode":"91567","locality":"Herrieden","municipality":{"key":"09571166","name":"Herrieden, St","type":"Stadt"},"district":{"key":"09571","name":"Ansbach","type":"Landkreis"},"federalState":{"key":"09","name":"Bayern"}},{"name":"Weißensteiner Weg","postalCode":"95688","locality":"Friedenfels","municipality":{"key":"09377118","name":"Friedenfels","type":"Kreisangehörige_Gemeinde"},"district":{"key":"09377","name":"Tirschenreuth","type":"Landkreis"},"federalState":{"key":"09","name":"Bayern"}},{"name":"Weizenweg","postalCode":"87767","locality":"Niederrieden","municipality":{"key":"09778177","name":"Niederrieden","type":"Kreisangehörige_Gemeinde"},"district":{"key":"09778","name":"Unterallgäu","type":"Landkreis"},"federalState":{"key":"09","name":"Bayern"}},{"name":"Welzlinweg","postalCode":"89186","locality":"Illerrieden","municipality":{"key":"08425066","name":"Illerrieden","type":"Kreisangehörige_Gemeinde"},"district":{"key":"08425","name":"Alb-Donau-Kreis","type":"Landkreis"},"federalState":{"key":"08","name":"Baden-Württemberg"}},{"name":"Westernacher Str.","postalCode":"87769","locality":"Oberrieden","municipality":{"key":"09778183","name":"Oberrieden","type":"Kreisangehörige_Gemeinde"},"district":{"key":"09778","name":"Unterallgäu","type":"Landkreis"},"federalState":{"key":"09","name":"Bayern"}},{"name":"Wiesengrund","postalCode":"93339","locality":"Riedenburg","municipality":{"key":"09273164","name":"Riedenburg, St","type":"Stadt"},"district":{"key":"09273","name":"Kelheim","type":"Landkreis"},"federalState":{"key":"09","name":"Bayern"}},{"name":"Wiesental","postalCode":"88483","locality":"Burgrieden","municipality":{"key":"08426028","name":"Burgrieden","type":"Kreisangehörige_Gemeinde"},"district":{"key":"08426","name":"Biberach","type":"Landkreis"},"federalState":{"key":"08","name":"Baden-Württemberg"}},{"name":"Wiesenweg","postalCode":"87669","locality":"Rieden am Forggensee","municipality":{"key":"09777163","name":"Rieden am Forggensee","type":"Kreisangehörige_Gemeinde"},"district":{"key":"09777","name":"Ostallgäu","type":"Landkreis"},"federalState":{"key":"09","name":"Bayern"}},{"name":"Wiesenweg","postalCode":"87767","locality":"Niederrieden","municipality":{"key":"09778177","name":"Niederrieden","type":"Kreisangehörige_Gemeinde"},"district":{"key":"09778","name":"Unterallgäu","type":"Landkreis"},"federalState":{"key":"09","name":"Bayern"}},{"name":"Wiesenweg","postalCode":"88483","locality":"Burgrieden","municipality":{"key":"08426028","name":"Burgrieden","type":"Kreisangehörige_Gemeinde"},"district":{"key":"08426","name":"Biberach","type":"Landkreis"},"federalState":{"key":"08","name":"Baden-Württemberg"}},{"name":"Wiesethstr.","postalCode":"91567","locality":"Herrieden","municipality":{"key":"09571166","name":"Herrieden, St","type":"Stadt"},"district":{"key":"09571","name":"Ansbach","type":"Landkreis"},"federalState":{"key":"09","name":"Bayern"}},{"name":"Wiesgasse","postalCode":"93339","locality":"Riedenburg","municipality":{"key":"09273164","name":"Riedenburg, St","type":"Stadt"},"district":{"key":"09273","name":"Kelheim","type":"Landkreis"},"federalState":{"key":"09","name":"Bayern"}},{"name":"Windmühlstr.","postalCode":"91567","locality":"Herrieden","municipality":{"key":"09571166","name":"Herrieden, St","type":"Stadt"},"district":{"key":"09571","name":"Ansbach","type":"Landkreis"},"federalState":{"key":"09","name":"Bayern"}},{"name":"Winner Weg","postalCode":"91567","locality":"Herrieden","municipality":{"key":"09571166","name":"Herrieden, St","type":"Stadt"},"district":{"key":"09571","name":"Ansbach","type":"Landkreis"},"federalState":{"key":"09","name":"Bayern"}},{"name":"Winterhalderstr.","postalCode":"79877","locality":"Friedenweiler","municipality":{"key":"08315039","name":"Friedenweiler","type":"Kreisangehörige_Gemeinde"},"district":{"key":"08315","name":"Breisgau-Hochschwarzwald","type":"Landkreis"},"federalState":{"key":"08","name":"Baden-Württemberg"}},{"name":"Wirtsgasse","postalCode":"93339","locality":"Riedenburg","municipality":{"key":"09273164","name":"Riedenburg, St","type":"Stadt"},"district":{"key":"09273","name":"Kelheim","type":"Landkreis"},"federalState":{"key":"09","name":"Bayern"}},{"name":"Wochenauer Str.","postalCode":"89186","locality":"Illerrieden","municipality":{"key":"08425066","name":"Illerrieden","type":"Kreisangehörige_Gemeinde"},"district":{"key":"08425","name":"Alb-Donau-Kreis","type":"Landkreis"},"federalState":{"key":"08","name":"Baden-Württemberg"}},{"name":"Wolfhardstr.","postalCode":"91567","locality":"Herrieden","municipality":{"key":"09571166","name":"Herrieden, St","type":"Stadt"},"district":{"key":"09571","name":"Ansbach","type":"Landkreis"},"federalState":{"key":"09","name":"Bayern"}},{"name":"Wolflochweg","postalCode":"79877","locality":"Friedenweiler","municipality":{"key":"08315039","name":"Friedenweiler","type":"Kreisangehörige_Gemeinde"},"district":{"key":"08315","name":"Breisgau-Hochschwarzwald","type":"Landkreis"},"federalState":{"key":"08","name":"Baden-Württemberg"}},{"name":"Wunibaldstr.","postalCode":"92286","locality":"Rieden","municipality":{"key":"09371146","name":"Rieden, M","type":"Markt"},"district":{"key":"09371","name":"Amberg-Sulzbach","type":"Landkreis"},"federalState":{"key":"09","name":"Bayern"}},{"name":"Würzburger Str.","postalCode":"97283","locality":"Riedenheim","municipality":{"key":"09679179","name":"Riedenheim","type":"Kreisangehörige_Gemeinde"},"district":{"key":"09679","name":"Würzburg","type":"Landkreis"},"federalState":{"key":"09","name":"Bayern"}},{"name":"Zaunäcker","postalCode":"88483","locality":"Burgrieden","municipality":{"key":"08426028","name":"Burgrieden","type":"Kreisangehörige_Gemeinde"},"district":{"key":"08426","name":"Biberach","type":"Landkreis"},"federalState":{"key":"08","name":"Baden-Württemberg"}},{"name":"Zellerstr.","postalCode":"87668","locality":"Rieden","municipality":{"key":"09777164","name":"Rieden","type":"Kreisangehörige_Gemeinde"},"district":{"key":"09777","name":"Ostallgäu","type":"Landkreis"},"federalState":{"key":"09","name":"Bayern"}},{"name":"Zeller Str.","postalCode":"93339","locality":"Riedenburg","municipality":{"key":"09273164","name":"Riedenburg, St","type":"Stadt"},"district":{"key":"09273","name":"Kelheim","type":"Landkreis"},"federalState":{"key":"09","name":"Bayern"}},{"name":"Zellerwegfeld","postalCode":"91567","locality":"Herrieden","municipality":{"key":"09571166","name":"Herrieden, St","type":"Stadt"},"district":{"key":"09571","name":"Ansbach","type":"Landkreis"},"federalState":{"key":"09","name":"Bayern"}},{"name":"Ziegeläcker","postalCode":"79877","locality":"Friedenweiler","municipality":{"key":"08315039","name":"Friedenweiler","type":"Kreisangehörige_Gemeinde"},"district":{"key":"08315","name":"Breisgau-Hochschwarzwald","type":"Landkreis"},"federalState":{"key":"08","name":"Baden-Württemberg"}},{"name":"Ziegelweg","postalCode":"92286","locality":"Rieden","municipality":{"key":"09371146","name":"Rieden, M","type":"Markt"},"district":{"key":"09371","name":"Amberg-Sulzbach","type":"Landkreis"},"federalState":{"key":"09","name":"Bayern"}},{"name":"Zitronengässchen","postalCode":"91567","locality":"Herrieden","municipality":{"key":"09571166","name":"Herrieden, St","type":"Stadt"},"district":{"key":"09571","name":"Ansbach","type":"Landkreis"},"federalState":{"key":"09","name":"Bayern"}},{"name":"Zum Eichenwald","postalCode":"93339","locality":"Riedenburg","municipality":{"key":"09273164","name":"Riedenburg, St","type":"Stadt"},"district":{"key":"09273","name":"Kelheim","type":"Landkreis"},"federalState":{"key":"09","name":"Bayern"}},{"name":"Zum Frühmeßbühl","postalCode":"87767","locality":"Niederrieden","municipality":{"key":"09778177","name":"Niederrieden","type":"Kreisangehörige_Gemeinde"},"district":{"key":"09778","name":"Unterallgäu","type":"Landkreis"},"federalState":{"key":"09","name":"Bayern"}},{"name":"Zum Steinbachwald","postalCode":"91567","locality":"Herrieden","municipality":{"key":"09571166","name":"Herrieden, St","type":"Stadt"},"district":{"key":"09571","name":"Ansbach","type":"Landkreis"},"federalState":{"key":"09","name":"Bayern"}},{"name":"Zum Waldhaus","postalCode":"93339","locality":"Riedenburg","municipality":{"key":"09273164","name":"Riedenburg, St","type":"Stadt"},"district":{"key":"09273","name":"Kelheim","type":"Landkreis"},"federalState":{"key":"09","name":"Bayern"}},{"name":"Zum Wasserwerk","postalCode":"92286","locality":"Rieden","municipality":{"key":"09371146","name":"Rieden, M","type":"Markt"},"district":{"key":"09371","name":"Amberg-Sulzbach","type":"Landkreis"},"federalState":{"key":"09","name":"Bayern"}},{"name":"Zum Weinberg","postalCode":"87785","locality":"Winterrieden","municipality":{"key":"09778217","name":"Winterrieden","type":"Kreisangehörige_Gemeinde"},"district":{"key":"09778","name":"Unterallgäu","type":"Landkreis"},"federalState":{"key":"09","name":"Bayern"}},{"name":"Zum Weißenberg","postalCode":"89186","locality":"Illerrieden","municipality":{"key":"08425066","name":"Illerrieden","type":"Kreisangehörige_Gemeinde"},"district":{"key":"08425","name":"Alb-Donau-Kreis","type":"Landkreis"},"federalState":{"key":"08","name":"Baden-Württemberg"}},{"name":"Zur Schwedenschanz","postalCode":"91567","locality":"Herrieden","municipality":{"key":"09571166","name":"Herrieden, St","type":"Stadt"},"district":{"key":"09571","name":"Ansbach","type":"Landkreis"},"federalState":{"key":"09","name":"Bayern"}},{"name":"Zur Trift","postalCode":"92286","locality":"Rieden","municipality":{"key":"09371146","name":"Rieden, M","type":"Markt"},"district":{"key":"09371","name":"Amberg-Sulzbach","type":"Landkreis"},"federalState":{"key":"09","name":"Bayern"}},{"name":"Zwieselberger Str.","postalCode":"87669","locality":"Rieden am Forggensee","municipality":{"key":"09777163","name":"Rieden am Forggensee","type":"Kreisangehörige_Gemeinde"},"district":{"key":"09777","name":"Ostallgäu","type":"Landkreis"},"federalState":{"key":"09","name":"Bayern"}},{"name":"Äckerweg","postalCode":"79877","locality":"Friedenweiler","municipality":{"key":"08315039","name":"Friedenweiler","type":"Kreisangehörige_Gemeinde"},"district":{"key":"08315","name":"Breisgau-Hochschwarzwald","type":"Landkreis"},"federalState":{"key":"08","name":"Baden-Württemberg"}},{"name":"Ödacker","postalCode":"93339","locality":"Riedenburg","municipality":{"key":"09273164","name":"Riedenburg, St","type":"Stadt"},"district":{"key":"09273","name":"Kelheim","type":"Landkreis"},"federalState":{"key":"09","name":"Bayern"}},{"name":"Ölpointweg","postalCode":"95688","locality":"Friedenfels","municipality":{"key":"09377118","name":"Friedenfels","type":"Kreisangehörige_Gemeinde"},"district":{"key":"09377","name":"Tirschenreuth","type":"Landkreis"},"federalState":{"key":"09","name":"Bayern"}},{"name":"Öschleweg","postalCode":"89186","locality":"Illerrieden","municipality":{"key":"08425066","name":"Illerrieden","type":"Kreisangehörige_Gemeinde"},"district":{"key":"08425","name":"Alb-Donau-Kreis","type":"Landkreis"},"federalState":{"key":"08","name":"Baden-Württemberg"}},{"name":"Östlicher Bockgassenweg","postalCode":"87767","locality":"Niederrieden","municipality":{"key":"09778177","name":"Niederrieden","type":"Kreisangehörige_Gemeinde"},"district":{"key":"09778","name":"Unterallgäu","type":"Landkreis"},"federalState":{"key":"09","name":"Bayern"}},]