[{"name":"Albstr.","postalCode":"72669","locality":"Unterensingen","municipality":{"key":"08116068","name":"Unterensingen","type":"Kreisangehörige_Gemeinde"},"district":{"key":"08116","name":"Esslingen","type":"Landkreis"},"federalState":{"key":"08","name":"Baden-Württemberg"}},{"name":"Albvereinsweg","postalCode":"72669","locality":"Unterensingen","municipality":{"key":"08116068","name":"Unterensingen","type":"Kreisangehörige_Gemeinde"},"district":{"key":"08116","name":"Esslingen","type":"Landkreis"},"federalState":{"key":"08","name":"Baden-Württemberg"}},{"name":"Angelweg","postalCode":"72669","locality":"Unterensingen","municipality":{"key":"08116068","name":"Unterensingen","type":"Kreisangehörige_Gemeinde"},"district":{"key":"08116","name":"Esslingen","type":"Landkreis"},"federalState":{"key":"08","name":"Baden-Württemberg"}},{"name":"Antonia-Philomena-Bauer-Weg","postalCode":"72669","locality":"Unterensingen","municipality":{"key":"08116068","name":"Unterensingen","type":"Kreisangehörige_Gemeinde"},"district":{"key":"08116","name":"Esslingen","type":"Landkreis"},"federalState":{"key":"08","name":"Baden-Württemberg"}},{"name":"Asternweg","postalCode":"72669","locality":"Unterensingen","municipality":{"key":"08116068","name":"Unterensingen","type":"Kreisangehörige_Gemeinde"},"district":{"key":"08116","name":"Esslingen","type":"Landkreis"},"federalState":{"key":"08","name":"Baden-Württemberg"}},{"name":"Austr.","postalCode":"72669","locality":"Unterensingen","municipality":{"key":"08116068","name":"Unterensingen","type":"Kreisangehörige_Gemeinde"},"district":{"key":"08116","name":"Esslingen","type":"Landkreis"},"federalState":{"key":"08","name":"Baden-Württemberg"}},{"name":"Bachstr.","postalCode":"72669","locality":"Unterensingen","municipality":{"key":"08116068","name":"Unterensingen","type":"Kreisangehörige_Gemeinde"},"district":{"key":"08116","name":"Esslingen","type":"Landkreis"},"federalState":{"key":"08","name":"Baden-Württemberg"}},{"name":"Bergstr.","postalCode":"72669","locality":"Unterensingen","municipality":{"key":"08116068","name":"Unterensingen","type":"Kreisangehörige_Gemeinde"},"district":{"key":"08116","name":"Esslingen","type":"Landkreis"},"federalState":{"key":"08","name":"Baden-Württemberg"}},{"name":"Bettweg","postalCode":"72669","locality":"Unterensingen","municipality":{"key":"08116068","name":"Unterensingen","type":"Kreisangehörige_Gemeinde"},"district":{"key":"08116","name":"Esslingen","type":"Landkreis"},"federalState":{"key":"08","name":"Baden-Württemberg"}},{"name":"Blumenstr.","postalCode":"72669","locality":"Unterensingen","municipality":{"key":"08116068","name":"Unterensingen","type":"Kreisangehörige_Gemeinde"},"district":{"key":"08116","name":"Esslingen","type":"Landkreis"},"federalState":{"key":"08","name":"Baden-Württemberg"}},{"name":"Braikestr.","postalCode":"72669","locality":"Unterensingen","municipality":{"key":"08116068","name":"Unterensingen","type":"Kreisangehörige_Gemeinde"},"district":{"key":"08116","name":"Esslingen","type":"Landkreis"},"federalState":{"key":"08","name":"Baden-Württemberg"}},{"name":"Bräunlesweg","postalCode":"72669","locality":"Unterensingen","municipality":{"key":"08116068","name":"Unterensingen","type":"Kreisangehörige_Gemeinde"},"district":{"key":"08116","name":"Esslingen","type":"Landkreis"},"federalState":{"key":"08","name":"Baden-Württemberg"}},{"name":"Brückenstr.","postalCode":"72669","locality":"Unterensingen","municipality":{"key":"08116068","name":"Unterensingen","type":"Kreisangehörige_Gemeinde"},"district":{"key":"08116","name":"Esslingen","type":"Landkreis"},"federalState":{"key":"08","name":"Baden-Württemberg"}},{"name":"Brunnenstr.","postalCode":"72669","locality":"Unterensingen","municipality":{"key":"08116068","name":"Unterensingen","type":"Kreisangehörige_Gemeinde"},"district":{"key":"08116","name":"Esslingen","type":"Landkreis"},"federalState":{"key":"08","name":"Baden-Württemberg"}},{"name":"Buchenweg","postalCode":"72669","locality":"Unterensingen","municipality":{"key":"08116068","name":"Unterensingen","type":"Kreisangehörige_Gemeinde"},"district":{"key":"08116","name":"Esslingen","type":"Landkreis"},"federalState":{"key":"08","name":"Baden-Württemberg"}},{"name":"Buchhaldensteg","postalCode":"72669","locality":"Unterensingen","municipality":{"key":"08116068","name":"Unterensingen","type":"Kreisangehörige_Gemeinde"},"district":{"key":"08116","name":"Esslingen","type":"Landkreis"},"federalState":{"key":"08","name":"Baden-Württemberg"}},{"name":"Buchhaldeweg","postalCode":"72669","locality":"Unterensingen","municipality":{"key":"08116068","name":"Unterensingen","type":"Kreisangehörige_Gemeinde"},"district":{"key":"08116","name":"Esslingen","type":"Landkreis"},"federalState":{"key":"08","name":"Baden-Württemberg"}},{"name":"Burgweg","postalCode":"72669","locality":"Unterensingen","municipality":{"key":"08116068","name":"Unterensingen","type":"Kreisangehörige_Gemeinde"},"district":{"key":"08116","name":"Esslingen","type":"Landkreis"},"federalState":{"key":"08","name":"Baden-Württemberg"}},{"name":"Camererweg","postalCode":"73732","locality":"Esslingen am Neckar","municipality":{"key":"08116019","name":"Esslingen am Neckar, Stadt","type":"Große_Kreisstadt"},"district":{"key":"08116","name":"Esslingen","type":"Landkreis"},"federalState":{"key":"08","name":"Baden-Württemberg"}},{"name":"Cannstatter Str.","postalCode":"73733","locality":"Esslingen am Neckar","municipality":{"key":"08116019","name":"Esslingen am Neckar, Stadt","type":"Große_Kreisstadt"},"district":{"key":"08116","name":"Esslingen","type":"Landkreis"},"federalState":{"key":"08","name":"Baden-Württemberg"}},{"name":"Champagnestr.","postalCode":"73734","locality":"Esslingen am Neckar","municipality":{"key":"08116019","name":"Esslingen am Neckar, Stadt","type":"Große_Kreisstadt"},"district":{"key":"08116","name":"Esslingen","type":"Landkreis"},"federalState":{"key":"08","name":"Baden-Württemberg"}},{"name":"Charlottenplatz","postalCode":"73728","locality":"Esslingen am Neckar","municipality":{"key":"08116019","name":"Esslingen am Neckar, Stadt","type":"Große_Kreisstadt"},"district":{"key":"08116","name":"Esslingen","type":"Landkreis"},"federalState":{"key":"08","name":"Baden-Württemberg"}},{"name":"Christian-Fink-Str.","postalCode":"73732","locality":"Esslingen am Neckar","municipality":{"key":"08116019","name":"Esslingen am Neckar, Stadt","type":"Große_Kreisstadt"},"district":{"key":"08116","name":"Esslingen","type":"Landkreis"},"federalState":{"key":"08","name":"Baden-Württemberg"}},{"name":"Christian-Knayer-Str.","postalCode":"73734","locality":"Esslingen am Neckar","municipality":{"key":"08116019","name":"Esslingen am Neckar, Stadt","type":"Große_Kreisstadt"},"district":{"key":"08116","name":"Esslingen","type":"Landkreis"},"federalState":{"key":"08","name":"Baden-Württemberg"}},{"name":"Christophstr.","postalCode":"73734","locality":"Esslingen am Neckar","municipality":{"key":"08116019","name":"Esslingen am Neckar, Stadt","type":"Große_Kreisstadt"},"district":{"key":"08116","name":"Esslingen","type":"Landkreis"},"federalState":{"key":"08","name":"Baden-Württemberg"}},{"name":"Dammstr.","postalCode":"72669","locality":"Unterensingen","municipality":{"key":"08116068","name":"Unterensingen","type":"Kreisangehörige_Gemeinde"},"district":{"key":"08116","name":"Esslingen","type":"Landkreis"},"federalState":{"key":"08","name":"Baden-Württemberg"}},{"name":"Denkendorfer Weg","postalCode":"72669","locality":"Unterensingen","municipality":{"key":"08116068","name":"Unterensingen","type":"Kreisangehörige_Gemeinde"},"district":{"key":"08116","name":"Esslingen","type":"Landkreis"},"federalState":{"key":"08","name":"Baden-Württemberg"}},{"name":"Eichenweg","postalCode":"72669","locality":"Unterensingen","municipality":{"key":"08116068","name":"Unterensingen","type":"Kreisangehörige_Gemeinde"},"district":{"key":"08116","name":"Esslingen","type":"Landkreis"},"federalState":{"key":"08","name":"Baden-Württemberg"}},{"name":"Eichholzweg","postalCode":"72669","locality":"Unterensingen","municipality":{"key":"08116068","name":"Unterensingen","type":"Kreisangehörige_Gemeinde"},"district":{"key":"08116","name":"Esslingen","type":"Landkreis"},"federalState":{"key":"08","name":"Baden-Württemberg"}},{"name":"Esslinger Str.","postalCode":"72669","locality":"Unterensingen","municipality":{"key":"08116068","name":"Unterensingen","type":"Kreisangehörige_Gemeinde"},"district":{"key":"08116","name":"Esslingen","type":"Landkreis"},"federalState":{"key":"08","name":"Baden-Württemberg"}},{"name":"Esslinger Weg","postalCode":"72669","locality":"Unterensingen","municipality":{"key":"08116068","name":"Unterensingen","type":"Kreisangehörige_Gemeinde"},"district":{"key":"08116","name":"Esslingen","type":"Landkreis"},"federalState":{"key":"08","name":"Baden-Württemberg"}},{"name":"Fabrikstr.","postalCode":"72669","locality":"Unterensingen","municipality":{"key":"08116068","name":"Unterensingen","type":"Kreisangehörige_Gemeinde"},"district":{"key":"08116","name":"Esslingen","type":"Landkreis"},"federalState":{"key":"08","name":"Baden-Württemberg"}},{"name":"Falkenwasenwiesen","postalCode":"72669","locality":"Unterensingen","municipality":{"key":"08116068","name":"Unterensingen","type":"Kreisangehörige_Gemeinde"},"district":{"key":"08116","name":"Esslingen","type":"Landkreis"},"federalState":{"key":"08","name":"Baden-Württemberg"}},{"name":"Finkenweg","postalCode":"72669","locality":"Unterensingen","municipality":{"key":"08116068","name":"Unterensingen","type":"Kreisangehörige_Gemeinde"},"district":{"key":"08116","name":"Esslingen","type":"Landkreis"},"federalState":{"key":"08","name":"Baden-Württemberg"}},{"name":"Fischergasse","postalCode":"72669","locality":"Unterensingen","municipality":{"key":"08116068","name":"Unterensingen","type":"Kreisangehörige_Gemeinde"},"district":{"key":"08116","name":"Esslingen","type":"Landkreis"},"federalState":{"key":"08","name":"Baden-Württemberg"}},{"name":"Fliederweg","postalCode":"72669","locality":"Unterensingen","municipality":{"key":"08116068","name":"Unterensingen","type":"Kreisangehörige_Gemeinde"},"district":{"key":"08116","name":"Esslingen","type":"Landkreis"},"federalState":{"key":"08","name":"Baden-Württemberg"}},{"name":"Flügelstr.","postalCode":"72669","locality":"Unterensingen","municipality":{"key":"08116068","name":"Unterensingen","type":"Kreisangehörige_Gemeinde"},"district":{"key":"08116","name":"Esslingen","type":"Landkreis"},"federalState":{"key":"08","name":"Baden-Württemberg"}},{"name":"Gartenstr.","postalCode":"72669","locality":"Unterensingen","municipality":{"key":"08116068","name":"Unterensingen","type":"Kreisangehörige_Gemeinde"},"district":{"key":"08116","name":"Esslingen","type":"Landkreis"},"federalState":{"key":"08","name":"Baden-Württemberg"}},{"name":"Gassenäcker","postalCode":"72669","locality":"Unterensingen","municipality":{"key":"08116068","name":"Unterensingen","type":"Kreisangehörige_Gemeinde"},"district":{"key":"08116","name":"Esslingen","type":"Landkreis"},"federalState":{"key":"08","name":"Baden-Württemberg"}},{"name":"Gatterausfahrt","postalCode":"72669","locality":"Unterensingen","municipality":{"key":"08116068","name":"Unterensingen","type":"Kreisangehörige_Gemeinde"},"district":{"key":"08116","name":"Esslingen","type":"Landkreis"},"federalState":{"key":"08","name":"Baden-Württemberg"}},{"name":"Gmeimertweg","postalCode":"72669","locality":"Unterensingen","municipality":{"key":"08116068","name":"Unterensingen","type":"Kreisangehörige_Gemeinde"},"district":{"key":"08116","name":"Esslingen","type":"Landkreis"},"federalState":{"key":"08","name":"Baden-Württemberg"}},{"name":"Goethestr.","postalCode":"72669","locality":"Unterensingen","municipality":{"key":"08116068","name":"Unterensingen","type":"Kreisangehörige_Gemeinde"},"district":{"key":"08116","name":"Esslingen","type":"Landkreis"},"federalState":{"key":"08","name":"Baden-Württemberg"}},{"name":"Grabenstr.","postalCode":"72669","locality":"Unterensingen","municipality":{"key":"08116068","name":"Unterensingen","type":"Kreisangehörige_Gemeinde"},"district":{"key":"08116","name":"Esslingen","type":"Landkreis"},"federalState":{"key":"08","name":"Baden-Württemberg"}},{"name":"Grafenholzweg","postalCode":"72669","locality":"Unterensingen","municipality":{"key":"08116068","name":"Unterensingen","type":"Kreisangehörige_Gemeinde"},"district":{"key":"08116","name":"Esslingen","type":"Landkreis"},"federalState":{"key":"08","name":"Baden-Württemberg"}},{"name":"Greutweg","postalCode":"72669","locality":"Unterensingen","municipality":{"key":"08116068","name":"Unterensingen","type":"Kreisangehörige_Gemeinde"},"district":{"key":"08116","name":"Esslingen","type":"Landkreis"},"federalState":{"key":"08","name":"Baden-Württemberg"}},{"name":"Hangweg","postalCode":"72669","locality":"Unterensingen","municipality":{"key":"08116068","name":"Unterensingen","type":"Kreisangehörige_Gemeinde"},"district":{"key":"08116","name":"Esslingen","type":"Landkreis"},"federalState":{"key":"08","name":"Baden-Württemberg"}},{"name":"Herrenbirkachweg","postalCode":"72669","locality":"Unterensingen","municipality":{"key":"08116068","name":"Unterensingen","type":"Kreisangehörige_Gemeinde"},"district":{"key":"08116","name":"Esslingen","type":"Landkreis"},"federalState":{"key":"08","name":"Baden-Württemberg"}},{"name":"Hofgasse","postalCode":"72669","locality":"Unterensingen","municipality":{"key":"08116068","name":"Unterensingen","type":"Kreisangehörige_Gemeinde"},"district":{"key":"08116","name":"Esslingen","type":"Landkreis"},"federalState":{"key":"08","name":"Baden-Württemberg"}},{"name":"Höhenweg","postalCode":"72669","locality":"Unterensingen","municipality":{"key":"08116068","name":"Unterensingen","type":"Kreisangehörige_Gemeinde"},"district":{"key":"08116","name":"Esslingen","type":"Landkreis"},"federalState":{"key":"08","name":"Baden-Württemberg"}},{"name":"Hölderlinstr.","postalCode":"72669","locality":"Unterensingen","municipality":{"key":"08116068","name":"Unterensingen","type":"Kreisangehörige_Gemeinde"},"district":{"key":"08116","name":"Esslingen","type":"Landkreis"},"federalState":{"key":"08","name":"Baden-Württemberg"}},{"name":"Hungerbergweg","postalCode":"72669","locality":"Unterensingen","municipality":{"key":"08116068","name":"Unterensingen","type":"Kreisangehörige_Gemeinde"},"district":{"key":"08116","name":"Esslingen","type":"Landkreis"},"federalState":{"key":"08","name":"Baden-Württemberg"}},{"name":"Im Auchtert","postalCode":"72669","locality":"Unterensingen","municipality":{"key":"08116068","name":"Unterensingen","type":"Kreisangehörige_Gemeinde"},"district":{"key":"08116","name":"Esslingen","type":"Landkreis"},"federalState":{"key":"08","name":"Baden-Württemberg"}},{"name":"Jägersteig","postalCode":"73734","locality":"Esslingen am Neckar","municipality":{"key":"08116019","name":"Esslingen am Neckar, Stadt","type":"Große_Kreisstadt"},"district":{"key":"08116","name":"Esslingen","type":"Landkreis"},"federalState":{"key":"08","name":"Baden-Württemberg"}},{"name":"Jakobstr.","postalCode":"73734","locality":"Esslingen am Neckar","municipality":{"key":"08116019","name":"Esslingen am Neckar, Stadt","type":"Große_Kreisstadt"},"district":{"key":"08116","name":"Esslingen","type":"Landkreis"},"federalState":{"key":"08","name":"Baden-Württemberg"}},{"name":"J.-F.-Schreiber-Weg","postalCode":"73728","locality":"Esslingen am Neckar","municipality":{"key":"08116019","name":"Esslingen am Neckar, Stadt","type":"Große_Kreisstadt"},"district":{"key":"08116","name":"Esslingen","type":"Landkreis"},"federalState":{"key":"08","name":"Baden-Württemberg"}},{"name":"Johannesstr.","postalCode":"73730","locality":"Esslingen am Neckar","municipality":{"key":"08116019","name":"Esslingen am Neckar, Stadt","type":"Große_Kreisstadt"},"district":{"key":"08116","name":"Esslingen","type":"Landkreis"},"federalState":{"key":"08","name":"Baden-Württemberg"}},{"name":"Julius-Motteler-Str.","postalCode":"73728","locality":"Esslingen am Neckar","municipality":{"key":"08116019","name":"Esslingen am Neckar, Stadt","type":"Große_Kreisstadt"},"district":{"key":"08116","name":"Esslingen","type":"Landkreis"},"federalState":{"key":"08","name":"Baden-Württemberg"}},{"name":"Jurastr.","postalCode":"73734","locality":"Esslingen am Neckar","municipality":{"key":"08116019","name":"Esslingen am Neckar, Stadt","type":"Große_Kreisstadt"},"district":{"key":"08116","name":"Esslingen","type":"Landkreis"},"federalState":{"key":"08","name":"Baden-Württemberg"}},{"name":"Jusiweg","postalCode":"73734","locality":"Esslingen am Neckar","municipality":{"key":"08116019","name":"Esslingen am Neckar, Stadt","type":"Große_Kreisstadt"},"district":{"key":"08116","name":"Esslingen","type":"Landkreis"},"federalState":{"key":"08","name":"Baden-Württemberg"}},{"name":"Kanalstr.","postalCode":"72669","locality":"Unterensingen","municipality":{"key":"08116068","name":"Unterensingen","type":"Kreisangehörige_Gemeinde"},"district":{"key":"08116","name":"Esslingen","type":"Landkreis"},"federalState":{"key":"08","name":"Baden-Württemberg"}},{"name":"Kelterstr.","postalCode":"72669","locality":"Unterensingen","municipality":{"key":"08116068","name":"Unterensingen","type":"Kreisangehörige_Gemeinde"},"district":{"key":"08116","name":"Esslingen","type":"Landkreis"},"federalState":{"key":"08","name":"Baden-Württemberg"}},{"name":"Kiesweg","postalCode":"72669","locality":"Unterensingen","municipality":{"key":"08116068","name":"Unterensingen","type":"Kreisangehörige_Gemeinde"},"district":{"key":"08116","name":"Esslingen","type":"Landkreis"},"federalState":{"key":"08","name":"Baden-Württemberg"}},{"name":"Kirchhalde","postalCode":"72669","locality":"Unterensingen","municipality":{"key":"08116068","name":"Unterensingen","type":"Kreisangehörige_Gemeinde"},"district":{"key":"08116","name":"Esslingen","type":"Landkreis"},"federalState":{"key":"08","name":"Baden-Württemberg"}},{"name":"Kirchheimer Weg","postalCode":"72669","locality":"Unterensingen","municipality":{"key":"08116068","name":"Unterensingen","type":"Kreisangehörige_Gemeinde"},"district":{"key":"08116","name":"Esslingen","type":"Landkreis"},"federalState":{"key":"08","name":"Baden-Württemberg"}},{"name":"Kirchstr.","postalCode":"72669","locality":"Unterensingen","municipality":{"key":"08116068","name":"Unterensingen","type":"Kreisangehörige_Gemeinde"},"district":{"key":"08116","name":"Esslingen","type":"Landkreis"},"federalState":{"key":"08","name":"Baden-Württemberg"}},{"name":"Kreuzsteinweg","postalCode":"72669","locality":"Unterensingen","municipality":{"key":"08116068","name":"Unterensingen","type":"Kreisangehörige_Gemeinde"},"district":{"key":"08116","name":"Esslingen","type":"Landkreis"},"federalState":{"key":"08","name":"Baden-Württemberg"}},{"name":"Lange Richtstatt","postalCode":"72669","locality":"Unterensingen","municipality":{"key":"08116068","name":"Unterensingen","type":"Kreisangehörige_Gemeinde"},"district":{"key":"08116","name":"Esslingen","type":"Landkreis"},"federalState":{"key":"08","name":"Baden-Württemberg"}},{"name":"Lauchweg","postalCode":"72669","locality":"Unterensingen","municipality":{"key":"08116068","name":"Unterensingen","type":"Kreisangehörige_Gemeinde"},"district":{"key":"08116","name":"Esslingen","type":"Landkreis"},"federalState":{"key":"08","name":"Baden-Württemberg"}},{"name":"Lerchenweg","postalCode":"72669","locality":"Unterensingen","municipality":{"key":"08116068","name":"Unterensingen","type":"Kreisangehörige_Gemeinde"},"district":{"key":"08116","name":"Esslingen","type":"Landkreis"},"federalState":{"key":"08","name":"Baden-Württemberg"}},{"name":"Lindenstr.","postalCode":"72669","locality":"Unterensingen","municipality":{"key":"08116068","name":"Unterensingen","type":"Kreisangehörige_Gemeinde"},"district":{"key":"08116","name":"Esslingen","type":"Landkreis"},"federalState":{"key":"08","name":"Baden-Württemberg"}},{"name":"Meisenweg","postalCode":"72669","locality":"Unterensingen","municipality":{"key":"08116068","name":"Unterensingen","type":"Kreisangehörige_Gemeinde"},"district":{"key":"08116","name":"Esslingen","type":"Landkreis"},"federalState":{"key":"08","name":"Baden-Württemberg"}},{"name":"Mörikestr.","postalCode":"72669","locality":"Unterensingen","municipality":{"key":"08116068","name":"Unterensingen","type":"Kreisangehörige_Gemeinde"},"district":{"key":"08116","name":"Esslingen","type":"Landkreis"},"federalState":{"key":"08","name":"Baden-Württemberg"}},{"name":"Mühlhaldenstr.","postalCode":"72669","locality":"Unterensingen","municipality":{"key":"08116068","name":"Unterensingen","type":"Kreisangehörige_Gemeinde"},"district":{"key":"08116","name":"Esslingen","type":"Landkreis"},"federalState":{"key":"08","name":"Baden-Württemberg"}},{"name":"Narzissenweg","postalCode":"72669","locality":"Unterensingen","municipality":{"key":"08116068","name":"Unterensingen","type":"Kreisangehörige_Gemeinde"},"district":{"key":"08116","name":"Esslingen","type":"Landkreis"},"federalState":{"key":"08","name":"Baden-Württemberg"}},{"name":"Neckarstr.","postalCode":"72669","locality":"Unterensingen","municipality":{"key":"08116068","name":"Unterensingen","type":"Kreisangehörige_Gemeinde"},"district":{"key":"08116","name":"Esslingen","type":"Landkreis"},"federalState":{"key":"08","name":"Baden-Württemberg"}},{"name":"Nelkenstr.","postalCode":"72669","locality":"Unterensingen","municipality":{"key":"08116068","name":"Unterensingen","type":"Kreisangehörige_Gemeinde"},"district":{"key":"08116","name":"Esslingen","type":"Landkreis"},"federalState":{"key":"08","name":"Baden-Württemberg"}},{"name":"Neuffenweg","postalCode":"72669","locality":"Unterensingen","municipality":{"key":"08116068","name":"Unterensingen","type":"Kreisangehörige_Gemeinde"},"district":{"key":"08116","name":"Esslingen","type":"Landkreis"},"federalState":{"key":"08","name":"Baden-Württemberg"}},{"name":"Nürtinger Str.","postalCode":"72669","locality":"Unterensingen","municipality":{"key":"08116068","name":"Unterensingen","type":"Kreisangehörige_Gemeinde"},"district":{"key":"08116","name":"Esslingen","type":"Landkreis"},"federalState":{"key":"08","name":"Baden-Württemberg"}},{"name":"Obere Gasse","postalCode":"72669","locality":"Unterensingen","municipality":{"key":"08116068","name":"Unterensingen","type":"Kreisangehörige_Gemeinde"},"district":{"key":"08116","name":"Esslingen","type":"Landkreis"},"federalState":{"key":"08","name":"Baden-Württemberg"}},{"name":"Palmenwaldstr.","postalCode":"73733","locality":"Esslingen am Neckar","municipality":{"key":"08116019","name":"Esslingen am Neckar, Stadt","type":"Große_Kreisstadt"},"district":{"key":"08116","name":"Esslingen","type":"Landkreis"},"federalState":{"key":"08","name":"Baden-Württemberg"}},{"name":"Palmstr.","postalCode":"73732","locality":"Esslingen am Neckar","municipality":{"key":"08116019","name":"Esslingen am Neckar, Stadt","type":"Große_Kreisstadt"},"district":{"key":"08116","name":"Esslingen","type":"Landkreis"},"federalState":{"key":"08","name":"Baden-Württemberg"}},{"name":"Paracelsusstr.","postalCode":"73730","locality":"Esslingen am Neckar","municipality":{"key":"08116019","name":"Esslingen am Neckar, Stadt","type":"Große_Kreisstadt"},"district":{"key":"08116","name":"Esslingen","type":"Landkreis"},"federalState":{"key":"08","name":"Baden-Württemberg"}},{"name":"Paracelsusweg","postalCode":"73733","locality":"Esslingen am Neckar","municipality":{"key":"08116019","name":"Esslingen am Neckar, Stadt","type":"Große_Kreisstadt"},"district":{"key":"08116","name":"Esslingen","type":"Landkreis"},"federalState":{"key":"08","name":"Baden-Württemberg"}},{"name":"Paradiesweg","postalCode":"73733","locality":"Esslingen am Neckar","municipality":{"key":"08116019","name":"Esslingen am Neckar, Stadt","type":"Große_Kreisstadt"},"district":{"key":"08116","name":"Esslingen","type":"Landkreis"},"federalState":{"key":"08","name":"Baden-Württemberg"}},{"name":"Park am Ebershaldenfriedhof","postalCode":"73728","locality":"Esslingen am Neckar","municipality":{"key":"08116019","name":"Esslingen am Neckar, Stadt","type":"Große_Kreisstadt"},"district":{"key":"08116","name":"Esslingen","type":"Landkreis"},"federalState":{"key":"08","name":"Baden-Württemberg"}},{"name":"Parkstr.","postalCode":"73734","locality":"Esslingen am Neckar","municipality":{"key":"08116019","name":"Esslingen am Neckar, Stadt","type":"Große_Kreisstadt"},"district":{"key":"08116","name":"Esslingen","type":"Landkreis"},"federalState":{"key":"08","name":"Baden-Württemberg"}},{"name":"Paul-Gerhardt-Str.","postalCode":"73730","locality":"Esslingen am Neckar","municipality":{"key":"08116019","name":"Esslingen am Neckar, Stadt","type":"Große_Kreisstadt"},"district":{"key":"08116","name":"Esslingen","type":"Landkreis"},"federalState":{"key":"08","name":"Baden-Württemberg"}},{"name":"Paulinenstr.","postalCode":"73730","locality":"Esslingen am Neckar","municipality":{"key":"08116019","name":"Esslingen am Neckar, Stadt","type":"Große_Kreisstadt"},"district":{"key":"08116","name":"Esslingen","type":"Landkreis"},"federalState":{"key":"08","name":"Baden-Württemberg"}},{"name":"Peterlinggasse","postalCode":"73728","locality":"Esslingen am Neckar","municipality":{"key":"08116019","name":"Esslingen am Neckar, Stadt","type":"Große_Kreisstadt"},"district":{"key":"08116","name":"Esslingen","type":"Landkreis"},"federalState":{"key":"08","name":"Baden-Württemberg"}},{"name":"Pfaffenackerstr.","postalCode":"73732","locality":"Esslingen am Neckar","municipality":{"key":"08116019","name":"Esslingen am Neckar, Stadt","type":"Große_Kreisstadt"},"district":{"key":"08116","name":"Esslingen","type":"Landkreis"},"federalState":{"key":"08","name":"Baden-Württemberg"}},{"name":"Pfaffenteichweg","postalCode":"73730","locality":"Esslingen am Neckar","municipality":{"key":"08116019","name":"Esslingen am Neckar, Stadt","type":"Große_Kreisstadt"},"district":{"key":"08116","name":"Esslingen","type":"Landkreis"},"federalState":{"key":"08","name":"Baden-Württemberg"}},{"name":"Pfahlweg","postalCode":"73732","locality":"Esslingen am Neckar","municipality":{"key":"08116019","name":"Esslingen am Neckar, Stadt","type":"Große_Kreisstadt"},"district":{"key":"08116","name":"Esslingen","type":"Landkreis"},"federalState":{"key":"08","name":"Baden-Württemberg"}},{"name":"Pfarrstr.","postalCode":"73733","locality":"Esslingen am Neckar","municipality":{"key":"08116019","name":"Esslingen am Neckar, Stadt","type":"Große_Kreisstadt"},"district":{"key":"08116","name":"Esslingen","type":"Landkreis"},"federalState":{"key":"08","name":"Baden-Württemberg"}},{"name":"Pfauenbergsteige","postalCode":"73732","locality":"Esslingen am Neckar","municipality":{"key":"08116019","name":"Esslingen am Neckar, Stadt","type":"Große_Kreisstadt"},"district":{"key":"08116","name":"Esslingen","type":"Landkreis"},"federalState":{"key":"08","name":"Baden-Württemberg"}},{"name":"Pfeifferklinge","postalCode":"73734","locality":"Esslingen am Neckar","municipality":{"key":"08116019","name":"Esslingen am Neckar, Stadt","type":"Große_Kreisstadt"},"district":{"key":"08116","name":"Esslingen","type":"Landkreis"},"federalState":{"key":"08","name":"Baden-Württemberg"}},{"name":"Pfostenackerweg","postalCode":"73730","locality":"Esslingen am Neckar","municipality":{"key":"08116019","name":"Esslingen am Neckar, Stadt","type":"Große_Kreisstadt"},"district":{"key":"08116","name":"Esslingen","type":"Landkreis"},"federalState":{"key":"08","name":"Baden-Württemberg"}},{"name":"Pliensausteg","postalCode":"73728","locality":"Esslingen am Neckar","municipality":{"key":"08116019","name":"Esslingen am Neckar, Stadt","type":"Große_Kreisstadt"},"district":{"key":"08116","name":"Esslingen","type":"Landkreis"},"federalState":{"key":"08","name":"Baden-Württemberg"}},{"name":"Plochinger Str.","postalCode":"73728","locality":"Esslingen am Neckar","municipality":{"key":"08116019","name":"Esslingen am Neckar, Stadt","type":"Große_Kreisstadt"},"district":{"key":"08116","name":"Esslingen","type":"Landkreis"},"federalState":{"key":"08","name":"Baden-Württemberg"}},{"name":"Plochinger Str.","postalCode":"73730","locality":"Esslingen am Neckar","municipality":{"key":"08116019","name":"Esslingen am Neckar, Stadt","type":"Große_Kreisstadt"},"district":{"key":"08116","name":"Esslingen","type":"Landkreis"},"federalState":{"key":"08","name":"Baden-Württemberg"}},{"name":"Postweg","postalCode":"73730","locality":"Esslingen am Neckar","municipality":{"key":"08116019","name":"Esslingen am Neckar, Stadt","type":"Große_Kreisstadt"},"district":{"key":"08116","name":"Esslingen","type":"Landkreis"},"federalState":{"key":"08","name":"Baden-Württemberg"}},{"name":"Potsdamer Str.","postalCode":"73730","locality":"Esslingen am Neckar","municipality":{"key":"08116019","name":"Esslingen am Neckar, Stadt","type":"Große_Kreisstadt"},"district":{"key":"08116","name":"Esslingen","type":"Landkreis"},"federalState":{"key":"08","name":"Baden-Württemberg"}},{"name":"Pulverwiesen","postalCode":"73728","locality":"Esslingen am Neckar","municipality":{"key":"08116019","name":"Esslingen am Neckar, Stadt","type":"Große_Kreisstadt"},"district":{"key":"08116","name":"Esslingen","type":"Landkreis"},"federalState":{"key":"08","name":"Baden-Württemberg"}},{"name":"Quittenweg","postalCode":"73733","locality":"Esslingen am Neckar","municipality":{"key":"08116019","name":"Esslingen am Neckar, Stadt","type":"Große_Kreisstadt"},"district":{"key":"08116","name":"Esslingen","type":"Landkreis"},"federalState":{"key":"08","name":"Baden-Württemberg"}},{"name":"Rosenstr.","postalCode":"72669","locality":"Unterensingen","municipality":{"key":"08116068","name":"Unterensingen","type":"Kreisangehörige_Gemeinde"},"district":{"key":"08116","name":"Esslingen","type":"Landkreis"},"federalState":{"key":"08","name":"Baden-Württemberg"}},{"name":"Saatschulweg","postalCode":"72669","locality":"Unterensingen","municipality":{"key":"08116068","name":"Unterensingen","type":"Kreisangehörige_Gemeinde"},"district":{"key":"08116","name":"Esslingen","type":"Landkreis"},"federalState":{"key":"08","name":"Baden-Württemberg"}},{"name":"Sackweg Laierhau","postalCode":"72669","locality":"Unterensingen","municipality":{"key":"08116068","name":"Unterensingen","type":"Kreisangehörige_Gemeinde"},"district":{"key":"08116","name":"Esslingen","type":"Landkreis"},"federalState":{"key":"08","name":"Baden-Württemberg"}},{"name":"Schillerstr.","postalCode":"72669","locality":"Unterensingen","municipality":{"key":"08116068","name":"Unterensingen","type":"Kreisangehörige_Gemeinde"},"district":{"key":"08116","name":"Esslingen","type":"Landkreis"},"federalState":{"key":"08","name":"Baden-Württemberg"}},{"name":"Schulstr.","postalCode":"72669","locality":"Unterensingen","municipality":{"key":"08116068","name":"Unterensingen","type":"Kreisangehörige_Gemeinde"},"district":{"key":"08116","name":"Esslingen","type":"Landkreis"},"federalState":{"key":"08","name":"Baden-Württemberg"}},{"name":"Schwenkgasse","postalCode":"72669","locality":"Unterensingen","municipality":{"key":"08116068","name":"Unterensingen","type":"Kreisangehörige_Gemeinde"},"district":{"key":"08116","name":"Esslingen","type":"Landkreis"},"federalState":{"key":"08","name":"Baden-Württemberg"}},{"name":"Seerosenstr.","postalCode":"72669","locality":"Unterensingen","municipality":{"key":"08116068","name":"Unterensingen","type":"Kreisangehörige_Gemeinde"},"district":{"key":"08116","name":"Esslingen","type":"Landkreis"},"federalState":{"key":"08","name":"Baden-Württemberg"}},{"name":"Seestr.","postalCode":"72669","locality":"Unterensingen","municipality":{"key":"08116068","name":"Unterensingen","type":"Kreisangehörige_Gemeinde"},"district":{"key":"08116","name":"Esslingen","type":"Landkreis"},"federalState":{"key":"08","name":"Baden-Württemberg"}},{"name":"Sommerhaldeweg","postalCode":"72669","locality":"Unterensingen","municipality":{"key":"08116068","name":"Unterensingen","type":"Kreisangehörige_Gemeinde"},"district":{"key":"08116","name":"Esslingen","type":"Landkreis"},"federalState":{"key":"08","name":"Baden-Württemberg"}},{"name":"Speßgertweg","postalCode":"72669","locality":"Unterensingen","municipality":{"key":"08116068","name":"Unterensingen","type":"Kreisangehörige_Gemeinde"},"district":{"key":"08116","name":"Esslingen","type":"Landkreis"},"federalState":{"key":"08","name":"Baden-Württemberg"}},{"name":"Starenweg","postalCode":"72669","locality":"Unterensingen","municipality":{"key":"08116068","name":"Unterensingen","type":"Kreisangehörige_Gemeinde"},"district":{"key":"08116","name":"Esslingen","type":"Landkreis"},"federalState":{"key":"08","name":"Baden-Württemberg"}},{"name":"Steigstr.","postalCode":"72669","locality":"Unterensingen","municipality":{"key":"08116068","name":"Unterensingen","type":"Kreisangehörige_Gemeinde"},"district":{"key":"08116","name":"Esslingen","type":"Landkreis"},"federalState":{"key":"08","name":"Baden-Württemberg"}},{"name":"Steinbruchstr.","postalCode":"72669","locality":"Unterensingen","municipality":{"key":"08116068","name":"Unterensingen","type":"Kreisangehörige_Gemeinde"},"district":{"key":"08116","name":"Esslingen","type":"Landkreis"},"federalState":{"key":"08","name":"Baden-Württemberg"}},{"name":"Steinstr.","postalCode":"72669","locality":"Unterensingen","municipality":{"key":"08116068","name":"Unterensingen","type":"Kreisangehörige_Gemeinde"},"district":{"key":"08116","name":"Esslingen","type":"Landkreis"},"federalState":{"key":"08","name":"Baden-Württemberg"}},{"name":"Talstr.","postalCode":"72669","locality":"Unterensingen","municipality":{"key":"08116068","name":"Unterensingen","type":"Kreisangehörige_Gemeinde"},"district":{"key":"08116","name":"Esslingen","type":"Landkreis"},"federalState":{"key":"08","name":"Baden-Württemberg"}},{"name":"Traufweg Lauch","postalCode":"72669","locality":"Unterensingen","municipality":{"key":"08116068","name":"Unterensingen","type":"Kreisangehörige_Gemeinde"},"district":{"key":"08116","name":"Esslingen","type":"Landkreis"},"federalState":{"key":"08","name":"Baden-Württemberg"}},{"name":"Traufweg Lindenhöfe","postalCode":"72669","locality":"Unterensingen","municipality":{"key":"08116068","name":"Unterensingen","type":"Kreisangehörige_Gemeinde"},"district":{"key":"08116","name":"Esslingen","type":"Landkreis"},"federalState":{"key":"08","name":"Baden-Württemberg"}},{"name":"Tulpenstr.","postalCode":"72669","locality":"Unterensingen","municipality":{"key":"08116068","name":"Unterensingen","type":"Kreisangehörige_Gemeinde"},"district":{"key":"08116","name":"Esslingen","type":"Landkreis"},"federalState":{"key":"08","name":"Baden-Württemberg"}},{"name":"Uhlandstr.","postalCode":"72669","locality":"Unterensingen","municipality":{"key":"08116068","name":"Unterensingen","type":"Kreisangehörige_Gemeinde"},"district":{"key":"08116","name":"Esslingen","type":"Landkreis"},"federalState":{"key":"08","name":"Baden-Württemberg"}},{"name":"Untere Gasse","postalCode":"72669","locality":"Unterensingen","municipality":{"key":"08116068","name":"Unterensingen","type":"Kreisangehörige_Gemeinde"},"district":{"key":"08116","name":"Esslingen","type":"Landkreis"},"federalState":{"key":"08","name":"Baden-Württemberg"}},{"name":"Veilchenweg","postalCode":"73730","locality":"Esslingen am Neckar","municipality":{"key":"08116019","name":"Esslingen am Neckar, Stadt","type":"Große_Kreisstadt"},"district":{"key":"08116","name":"Esslingen","type":"Landkreis"},"federalState":{"key":"08","name":"Baden-Württemberg"}},{"name":"Viehgasse","postalCode":"73733","locality":"Esslingen am Neckar","municipality":{"key":"08116019","name":"Esslingen am Neckar, Stadt","type":"Große_Kreisstadt"},"district":{"key":"08116","name":"Esslingen","type":"Landkreis"},"federalState":{"key":"08","name":"Baden-Württemberg"}},{"name":"Vogelsangbrücke","postalCode":"73728","locality":"Esslingen am Neckar","municipality":{"key":"08116019","name":"Esslingen am Neckar, Stadt","type":"Große_Kreisstadt"},"district":{"key":"08116","name":"Esslingen","type":"Landkreis"},"federalState":{"key":"08","name":"Baden-Württemberg"}},{"name":"Vogelsangbrücke","postalCode":"73734","locality":"Esslingen am Neckar","municipality":{"key":"08116019","name":"Esslingen am Neckar, Stadt","type":"Große_Kreisstadt"},"district":{"key":"08116","name":"Esslingen","type":"Landkreis"},"federalState":{"key":"08","name":"Baden-Württemberg"}},{"name":"Vogelsangstr.","postalCode":"73728","locality":"Esslingen am Neckar","municipality":{"key":"08116019","name":"Esslingen am Neckar, Stadt","type":"Große_Kreisstadt"},"district":{"key":"08116","name":"Esslingen","type":"Landkreis"},"federalState":{"key":"08","name":"Baden-Württemberg"}},{"name":"Volker-Boehringer-Weg","postalCode":"73732","locality":"Esslingen am Neckar","municipality":{"key":"08116019","name":"Esslingen am Neckar, Stadt","type":"Große_Kreisstadt"},"district":{"key":"08116","name":"Esslingen","type":"Landkreis"},"federalState":{"key":"08","name":"Baden-Württemberg"}},{"name":"Wehrstr.","postalCode":"72669","locality":"Unterensingen","municipality":{"key":"08116068","name":"Unterensingen","type":"Kreisangehörige_Gemeinde"},"district":{"key":"08116","name":"Esslingen","type":"Landkreis"},"federalState":{"key":"08","name":"Baden-Württemberg"}},{"name":"Weiherstr.","postalCode":"72669","locality":"Unterensingen","municipality":{"key":"08116068","name":"Unterensingen","type":"Kreisangehörige_Gemeinde"},"district":{"key":"08116","name":"Esslingen","type":"Landkreis"},"federalState":{"key":"08","name":"Baden-Württemberg"}},{"name":"Zehentgasse","postalCode":"73728","locality":"Esslingen am Neckar","municipality":{"key":"08116019","name":"Esslingen am Neckar, Stadt","type":"Große_Kreisstadt"},"district":{"key":"08116","name":"Esslingen","type":"Landkreis"},"federalState":{"key":"08","name":"Baden-Württemberg"}},{"name":"Zeisigweg","postalCode":"73730","locality":"Esslingen am Neckar","municipality":{"key":"08116019","name":"Esslingen am Neckar, Stadt","type":"Große_Kreisstadt"},"district":{"key":"08116","name":"Esslingen","type":"Landkreis"},"federalState":{"key":"08","name":"Baden-Württemberg"}},{"name":"Ziegelhüttenweg","postalCode":"73730","locality":"Esslingen am Neckar","municipality":{"key":"08116019","name":"Esslingen am Neckar, Stadt","type":"Große_Kreisstadt"},"district":{"key":"08116","name":"Esslingen","type":"Landkreis"},"federalState":{"key":"08","name":"Baden-Württemberg"}},{"name":"Zimmerbachstr.","postalCode":"73730","locality":"Esslingen am Neckar","municipality":{"key":"08116019","name":"Esslingen am Neckar, Stadt","type":"Große_Kreisstadt"},"district":{"key":"08116","name":"Esslingen","type":"Landkreis"},"federalState":{"key":"08","name":"Baden-Württemberg"}},{"name":"Zollbergsteige","postalCode":"73734","locality":"Esslingen am Neckar","municipality":{"key":"08116019","name":"Esslingen am Neckar, Stadt","type":"Große_Kreisstadt"},"district":{"key":"08116","name":"Esslingen","type":"Landkreis"},"federalState":{"key":"08","name":"Baden-Württemberg"}},{"name":"Zollbergstr.","postalCode":"73734","locality":"Esslingen am Neckar","municipality":{"key":"08116019","name":"Esslingen am Neckar, Stadt","type":"Große_Kreisstadt"},"district":{"key":"08116","name":"Esslingen","type":"Landkreis"},"federalState":{"key":"08","name":"Baden-Württemberg"}},{"name":"Zollernplatz","postalCode":"73734","locality":"Esslingen am Neckar","municipality":{"key":"08116019","name":"Esslingen am Neckar, Stadt","type":"Große_Kreisstadt"},"district":{"key":"08116","name":"Esslingen","type":"Landkreis"},"federalState":{"key":"08","name":"Baden-Württemberg"}},{"name":"Zollhausweg","postalCode":"73734","locality":"Esslingen am Neckar","municipality":{"key":"08116019","name":"Esslingen am Neckar, Stadt","type":"Große_Kreisstadt"},"district":{"key":"08116","name":"Esslingen","type":"Landkreis"},"federalState":{"key":"08","name":"Baden-Württemberg"}},{"name":"Zwerchstr.","postalCode":"73728","locality":"Esslingen am Neckar","municipality":{"key":"08116019","name":"Esslingen am Neckar, Stadt","type":"Große_Kreisstadt"},"district":{"key":"08116","name":"Esslingen","type":"Landkreis"},"federalState":{"key":"08","name":"Baden-Württemberg"}},{"name":"Zwingerstr.","postalCode":"73728","locality":"Esslingen am Neckar","municipality":{"key":"08116019","name":"Esslingen am Neckar, Stadt","type":"Große_Kreisstadt"},"district":{"key":"08116","name":"Esslingen","type":"Landkreis"},"federalState":{"key":"08","name":"Baden-Württemberg"}},]