[{"name":"Ausweichstelle","postalCode":"94151","locality":"Schönbrunner Wald","municipality":{"key":"09272461","name":"Schönbrunner Wald","type":"Gemeindefreies_Gebiet_Unbewohnt"},"district":{"key":"09272","name":"Freyung-Grafenau","type":"Landkreis"},"federalState":{"key":"09","name":"Bayern"}},{"name":"Brunndoblweg","postalCode":"94151","locality":"Schönbrunner Wald","municipality":{"key":"09272461","name":"Schönbrunner Wald","type":"Gemeindefreies_Gebiet_Unbewohnt"},"district":{"key":"09272","name":"Freyung-Grafenau","type":"Landkreis"},"federalState":{"key":"09","name":"Bayern"}},{"name":"Dreikönigsloipe 20 km","postalCode":"94151","locality":"Schönbrunner Wald","municipality":{"key":"09272461","name":"Schönbrunner Wald","type":"Gemeindefreies_Gebiet_Unbewohnt"},"district":{"key":"09272","name":"Freyung-Grafenau","type":"Landkreis"},"federalState":{"key":"09","name":"Bayern"}},{"name":"Finsterauer Lusensteig","postalCode":"94151","locality":"Schönbrunner Wald","municipality":{"key":"09272461","name":"Schönbrunner Wald","type":"Gemeindefreies_Gebiet_Unbewohnt"},"district":{"key":"09272","name":"Freyung-Grafenau","type":"Landkreis"},"federalState":{"key":"09","name":"Bayern"}},{"name":"Grafensteig","postalCode":"94151","locality":"Schönbrunner Wald","municipality":{"key":"09272461","name":"Schönbrunner Wald","type":"Gemeindefreies_Gebiet_Unbewohnt"},"district":{"key":"09272","name":"Freyung-Grafenau","type":"Landkreis"},"federalState":{"key":"09","name":"Bayern"}},{"name":"Hirschkopfbrücke","postalCode":"94151","locality":"Schönbrunner Wald","municipality":{"key":"09272461","name":"Schönbrunner Wald","type":"Gemeindefreies_Gebiet_Unbewohnt"},"district":{"key":"09272","name":"Freyung-Grafenau","type":"Landkreis"},"federalState":{"key":"09","name":"Bayern"}},{"name":"Hirschkopfstr.","postalCode":"94151","locality":"Schönbrunner Wald","municipality":{"key":"09272461","name":"Schönbrunner Wald","type":"Gemeindefreies_Gebiet_Unbewohnt"},"district":{"key":"09272","name":"Freyung-Grafenau","type":"Landkreis"},"federalState":{"key":"09","name":"Bayern"}},{"name":"Hochwaldsteig","postalCode":"94151","locality":"Schönbrunner Wald","municipality":{"key":"09272461","name":"Schönbrunner Wald","type":"Gemeindefreies_Gebiet_Unbewohnt"},"district":{"key":"09272","name":"Freyung-Grafenau","type":"Landkreis"},"federalState":{"key":"09","name":"Bayern"}},{"name":"Kiesbrückl","postalCode":"94151","locality":"Schönbrunner Wald","municipality":{"key":"09272461","name":"Schönbrunner Wald","type":"Gemeindefreies_Gebiet_Unbewohnt"},"district":{"key":"09272","name":"Freyung-Grafenau","type":"Landkreis"},"federalState":{"key":"09","name":"Bayern"}},{"name":"Reschbachstr.","postalCode":"94151","locality":"Schönbrunner Wald","municipality":{"key":"09272461","name":"Schönbrunner Wald","type":"Gemeindefreies_Gebiet_Unbewohnt"},"district":{"key":"09272","name":"Freyung-Grafenau","type":"Landkreis"},"federalState":{"key":"09","name":"Bayern"}},{"name":"Sagwasserstr.","postalCode":"94151","locality":"Schönbrunner Wald","municipality":{"key":"09272461","name":"Schönbrunner Wald","type":"Gemeindefreies_Gebiet_Unbewohnt"},"district":{"key":"09272","name":"Freyung-Grafenau","type":"Landkreis"},"federalState":{"key":"09","name":"Bayern"}},{"name":"Tummelplatzstr.","postalCode":"94151","locality":"Schönbrunner Wald","municipality":{"key":"09272461","name":"Schönbrunner Wald","type":"Gemeindefreies_Gebiet_Unbewohnt"},"district":{"key":"09272","name":"Freyung-Grafenau","type":"Landkreis"},"federalState":{"key":"09","name":"Bayern"}},{"name":"verfallen","postalCode":"94151","locality":"Schönbrunner Wald","municipality":{"key":"09272461","name":"Schönbrunner Wald","type":"Gemeindefreies_Gebiet_Unbewohnt"},"district":{"key":"09272","name":"Freyung-Grafenau","type":"Landkreis"},"federalState":{"key":"09","name":"Bayern"}},{"name":"Wintergatter Riedlhäng","postalCode":"94151","locality":"Schönbrunner Wald","municipality":{"key":"09272461","name":"Schönbrunner Wald","type":"Gemeindefreies_Gebiet_Unbewohnt"},"district":{"key":"09272","name":"Freyung-Grafenau","type":"Landkreis"},"federalState":{"key":"09","name":"Bayern"}},]