[{"name":"Am Bräuanger","postalCode":"84181","locality":"Neufraunhofen","municipality":{"key":"09274154","name":"Neufraunhofen","type":"Kreisangehörige_Gemeinde"},"district":{"key":"09274","name":"Landshut","type":"Landkreis"},"federalState":{"key":"09","name":"Bayern"}},{"name":"Am Mühlberg","postalCode":"84181","locality":"Neufraunhofen","municipality":{"key":"09274154","name":"Neufraunhofen","type":"Kreisangehörige_Gemeinde"},"district":{"key":"09274","name":"Landshut","type":"Landkreis"},"federalState":{"key":"09","name":"Bayern"}},{"name":"Am Schmiedberg","postalCode":"84181","locality":"Neufraunhofen","municipality":{"key":"09274154","name":"Neufraunhofen","type":"Kreisangehörige_Gemeinde"},"district":{"key":"09274","name":"Landshut","type":"Landkreis"},"federalState":{"key":"09","name":"Bayern"}},{"name":"Am Weiher","postalCode":"84181","locality":"Neufraunhofen","municipality":{"key":"09274154","name":"Neufraunhofen","type":"Kreisangehörige_Gemeinde"},"district":{"key":"09274","name":"Landshut","type":"Landkreis"},"federalState":{"key":"09","name":"Bayern"}},{"name":"Asbach","postalCode":"84181","locality":"Neufraunhofen","municipality":{"key":"09274154","name":"Neufraunhofen","type":"Kreisangehörige_Gemeinde"},"district":{"key":"09274","name":"Landshut","type":"Landkreis"},"federalState":{"key":"09","name":"Bayern"}},{"name":"Bürgermeister-Aigner-Weg","postalCode":"84181","locality":"Neufraunhofen","municipality":{"key":"09274154","name":"Neufraunhofen","type":"Kreisangehörige_Gemeinde"},"district":{"key":"09274","name":"Landshut","type":"Landkreis"},"federalState":{"key":"09","name":"Bayern"}},{"name":"Bürgermeister-Rampl-Str.","postalCode":"84181","locality":"Neufraunhofen","municipality":{"key":"09274154","name":"Neufraunhofen","type":"Kreisangehörige_Gemeinde"},"district":{"key":"09274","name":"Landshut","type":"Landkreis"},"federalState":{"key":"09","name":"Bayern"}},{"name":"Carl-Wittmann-Weg","postalCode":"84036","locality":"Landshut","municipality":{"key":"09261000","name":"Landshut","type":"Kreisfreie_Stadt"},"district":{"key":"09261","name":"Landshut","type":"Kreisfreie_Stadt"},"federalState":{"key":"09","name":"Bayern"}},{"name":"Carossaweg","postalCode":"84028","locality":"Landshut","municipality":{"key":"09261000","name":"Landshut","type":"Kreisfreie_Stadt"},"district":{"key":"09261","name":"Landshut","type":"Kreisfreie_Stadt"},"federalState":{"key":"09","name":"Bayern"}},{"name":"Chemnitzer Str.","postalCode":"84036","locality":"Landshut","municipality":{"key":"09261000","name":"Landshut","type":"Kreisfreie_Stadt"},"district":{"key":"09261","name":"Landshut","type":"Kreisfreie_Stadt"},"federalState":{"key":"09","name":"Bayern"}},{"name":"Christoph-Dorner-Str.","postalCode":"84028","locality":"Landshut","municipality":{"key":"09261000","name":"Landshut","type":"Kreisfreie_Stadt"},"district":{"key":"09261","name":"Landshut","type":"Kreisfreie_Stadt"},"federalState":{"key":"09","name":"Bayern"}},{"name":"Clara-Viebig-Str.","postalCode":"84032","locality":"Landshut","municipality":{"key":"09261000","name":"Landshut","type":"Kreisfreie_Stadt"},"district":{"key":"09261","name":"Landshut","type":"Kreisfreie_Stadt"},"federalState":{"key":"09","name":"Bayern"}},{"name":"Clemens-Brentano-Str.","postalCode":"84034","locality":"Landshut","municipality":{"key":"09261000","name":"Landshut","type":"Kreisfreie_Stadt"},"district":{"key":"09261","name":"Landshut","type":"Kreisfreie_Stadt"},"federalState":{"key":"09","name":"Bayern"}},{"name":"Daimlerstr.","postalCode":"84030","locality":"Landshut","municipality":{"key":"09261000","name":"Landshut","type":"Kreisfreie_Stadt"},"district":{"key":"09261","name":"Landshut","type":"Kreisfreie_Stadt"},"federalState":{"key":"09","name":"Bayern"}},{"name":"Dallmer Passage","postalCode":"84028","locality":"Landshut","municipality":{"key":"09261000","name":"Landshut","type":"Kreisfreie_Stadt"},"district":{"key":"09261","name":"Landshut","type":"Kreisfreie_Stadt"},"federalState":{"key":"09","name":"Bayern"}},{"name":"Dammkarweg","postalCode":"84034","locality":"Landshut","municipality":{"key":"09261000","name":"Landshut","type":"Kreisfreie_Stadt"},"district":{"key":"09261","name":"Landshut","type":"Kreisfreie_Stadt"},"federalState":{"key":"09","name":"Bayern"}},{"name":"Dammstr.","postalCode":"84034","locality":"Landshut","municipality":{"key":"09261000","name":"Landshut","type":"Kreisfreie_Stadt"},"district":{"key":"09261","name":"Landshut","type":"Kreisfreie_Stadt"},"federalState":{"key":"09","name":"Bayern"}},{"name":"Danziger Str.","postalCode":"84028","locality":"Landshut","municipality":{"key":"09261000","name":"Landshut","type":"Kreisfreie_Stadt"},"district":{"key":"09261","name":"Landshut","type":"Kreisfreie_Stadt"},"federalState":{"key":"09","name":"Bayern"}},{"name":"Dessauer Platz","postalCode":"84036","locality":"Landshut","municipality":{"key":"09261000","name":"Landshut","type":"Kreisfreie_Stadt"},"district":{"key":"09261","name":"Landshut","type":"Kreisfreie_Stadt"},"federalState":{"key":"09","name":"Bayern"}},{"name":"Dirnitzstr.","postalCode":"84036","locality":"Landshut","municipality":{"key":"09261000","name":"Landshut","type":"Kreisfreie_Stadt"},"district":{"key":"09261","name":"Landshut","type":"Kreisfreie_Stadt"},"federalState":{"key":"09","name":"Bayern"}},{"name":"Dohlenweg","postalCode":"84036","locality":"Landshut","municipality":{"key":"09261000","name":"Landshut","type":"Kreisfreie_Stadt"},"district":{"key":"09261","name":"Landshut","type":"Kreisfreie_Stadt"},"federalState":{"key":"09","name":"Bayern"}},{"name":"Dominikanerpassage","postalCode":"84028","locality":"Landshut","municipality":{"key":"09261000","name":"Landshut","type":"Kreisfreie_Stadt"},"district":{"key":"09261","name":"Landshut","type":"Kreisfreie_Stadt"},"federalState":{"key":"09","name":"Bayern"}},{"name":"Dominik-Brunner-Weg","postalCode":"84030","locality":"Landshut","municipality":{"key":"09261000","name":"Landshut","type":"Kreisfreie_Stadt"},"district":{"key":"09261","name":"Landshut","type":"Kreisfreie_Stadt"},"federalState":{"key":"09","name":"Bayern"}},{"name":"Donaustr.","postalCode":"84036","locality":"Landshut","municipality":{"key":"09261000","name":"Landshut","type":"Kreisfreie_Stadt"},"district":{"key":"09261","name":"Landshut","type":"Kreisfreie_Stadt"},"federalState":{"key":"09","name":"Bayern"}},{"name":"Dräxlmairweg","postalCode":"84036","locality":"Landshut","municipality":{"key":"09261000","name":"Landshut","type":"Kreisfreie_Stadt"},"district":{"key":"09261","name":"Landshut","type":"Kreisfreie_Stadt"},"federalState":{"key":"09","name":"Bayern"}},{"name":"Dreifaltigkeitsplatz","postalCode":"84028","locality":"Landshut","municipality":{"key":"09261000","name":"Landshut","type":"Kreisfreie_Stadt"},"district":{"key":"09261","name":"Landshut","type":"Kreisfreie_Stadt"},"federalState":{"key":"09","name":"Bayern"}},{"name":"Dreisesselstr.","postalCode":"84030","locality":"Landshut","municipality":{"key":"09261000","name":"Landshut","type":"Kreisfreie_Stadt"},"district":{"key":"09261","name":"Landshut","type":"Kreisfreie_Stadt"},"federalState":{"key":"09","name":"Bayern"}},{"name":"Dresdener Str.","postalCode":"84036","locality":"Landshut","municipality":{"key":"09261000","name":"Landshut","type":"Kreisfreie_Stadt"},"district":{"key":"09261","name":"Landshut","type":"Kreisfreie_Stadt"},"federalState":{"key":"09","name":"Bayern"}},{"name":"Dr.-Georg-Heim-Allee","postalCode":"84036","locality":"Landshut","municipality":{"key":"09261000","name":"Landshut","type":"Kreisfreie_Stadt"},"district":{"key":"09261","name":"Landshut","type":"Kreisfreie_Stadt"},"federalState":{"key":"09","name":"Bayern"}},{"name":"Dr.-Gerlich-Str.","postalCode":"84032","locality":"Landshut","municipality":{"key":"09261000","name":"Landshut","type":"Kreisfreie_Stadt"},"district":{"key":"09261","name":"Landshut","type":"Kreisfreie_Stadt"},"federalState":{"key":"09","name":"Bayern"}},{"name":"Dr.-Herterich-Allee","postalCode":"84034","locality":"Landshut","municipality":{"key":"09261000","name":"Landshut","type":"Kreisfreie_Stadt"},"district":{"key":"09261","name":"Landshut","type":"Kreisfreie_Stadt"},"federalState":{"key":"09","name":"Bayern"}},{"name":"Dr.-Hiereth-Str.","postalCode":"84036","locality":"Landshut","municipality":{"key":"09261000","name":"Landshut","type":"Kreisfreie_Stadt"},"district":{"key":"09261","name":"Landshut","type":"Kreisfreie_Stadt"},"federalState":{"key":"09","name":"Bayern"}},{"name":"Dr.-Schlittmeier-Str.","postalCode":"84032","locality":"Landshut","municipality":{"key":"09261000","name":"Landshut","type":"Kreisfreie_Stadt"},"district":{"key":"09261","name":"Landshut","type":"Kreisfreie_Stadt"},"federalState":{"key":"09","name":"Bayern"}},{"name":"Duniwang","postalCode":"84036","locality":"Landshut","municipality":{"key":"09261000","name":"Landshut","type":"Kreisfreie_Stadt"},"district":{"key":"09261","name":"Landshut","type":"Kreisfreie_Stadt"},"federalState":{"key":"09","name":"Bayern"}},{"name":"Eberhard-Koller-Str.","postalCode":"84036","locality":"Landshut","municipality":{"key":"09261000","name":"Landshut","type":"Kreisfreie_Stadt"},"district":{"key":"09261","name":"Landshut","type":"Kreisfreie_Stadt"},"federalState":{"key":"09","name":"Bayern"}},{"name":"Ebertstr.","postalCode":"84032","locality":"Landshut","municipality":{"key":"09261000","name":"Landshut","type":"Kreisfreie_Stadt"},"district":{"key":"09261","name":"Landshut","type":"Kreisfreie_Stadt"},"federalState":{"key":"09","name":"Bayern"}},{"name":"Edelweißstr.","postalCode":"84032","locality":"Landshut","municipality":{"key":"09261000","name":"Landshut","type":"Kreisfreie_Stadt"},"district":{"key":"09261","name":"Landshut","type":"Kreisfreie_Stadt"},"federalState":{"key":"09","name":"Bayern"}},{"name":"Edmund-Jörg-Str.","postalCode":"84036","locality":"Landshut","municipality":{"key":"09261000","name":"Landshut","type":"Kreisfreie_Stadt"},"district":{"key":"09261","name":"Landshut","type":"Kreisfreie_Stadt"},"federalState":{"key":"09","name":"Bayern"}},{"name":"Eichendorffstr.","postalCode":"84036","locality":"Landshut","municipality":{"key":"09261000","name":"Landshut","type":"Kreisfreie_Stadt"},"district":{"key":"09261","name":"Landshut","type":"Kreisfreie_Stadt"},"federalState":{"key":"09","name":"Bayern"}},{"name":"Eichengrube","postalCode":"84036","locality":"Landshut","municipality":{"key":"09261000","name":"Landshut","type":"Kreisfreie_Stadt"},"district":{"key":"09261","name":"Landshut","type":"Kreisfreie_Stadt"},"federalState":{"key":"09","name":"Bayern"}},{"name":"Eichenstr.","postalCode":"84032","locality":"Landshut","municipality":{"key":"09261000","name":"Landshut","type":"Kreisfreie_Stadt"},"district":{"key":"09261","name":"Landshut","type":"Kreisfreie_Stadt"},"federalState":{"key":"09","name":"Bayern"}},{"name":"Einselestr.","postalCode":"84034","locality":"Landshut","municipality":{"key":"09261000","name":"Landshut","type":"Kreisfreie_Stadt"},"district":{"key":"09261","name":"Landshut","type":"Kreisfreie_Stadt"},"federalState":{"key":"09","name":"Bayern"}},{"name":"Eisgrubweg","postalCode":"84036","locality":"Landshut","municipality":{"key":"09261000","name":"Landshut","type":"Kreisfreie_Stadt"},"district":{"key":"09261","name":"Landshut","type":"Kreisfreie_Stadt"},"federalState":{"key":"09","name":"Bayern"}},{"name":"Elbestr.","postalCode":"84036","locality":"Landshut","municipality":{"key":"09261000","name":"Landshut","type":"Kreisfreie_Stadt"},"district":{"key":"09261","name":"Landshut","type":"Kreisfreie_Stadt"},"federalState":{"key":"09","name":"Bayern"}},{"name":"Elisabethstr.","postalCode":"84032","locality":"Landshut","municipality":{"key":"09261000","name":"Landshut","type":"Kreisfreie_Stadt"},"district":{"key":"09261","name":"Landshut","type":"Kreisfreie_Stadt"},"federalState":{"key":"09","name":"Bayern"}},{"name":"Ellermühle","postalCode":"84034","locality":"Landshut","municipality":{"key":"09261000","name":"Landshut","type":"Kreisfreie_Stadt"},"district":{"key":"09261","name":"Landshut","type":"Kreisfreie_Stadt"},"federalState":{"key":"09","name":"Bayern"}},{"name":"Elritzenweg","postalCode":"84036","locality":"Landshut","municipality":{"key":"09261000","name":"Landshut","type":"Kreisfreie_Stadt"},"district":{"key":"09261","name":"Landshut","type":"Kreisfreie_Stadt"},"federalState":{"key":"09","name":"Bayern"}},{"name":"Englbergweg","postalCode":"84036","locality":"Landshut","municipality":{"key":"09261000","name":"Landshut","type":"Kreisfreie_Stadt"},"district":{"key":"09261","name":"Landshut","type":"Kreisfreie_Stadt"},"federalState":{"key":"09","name":"Bayern"}},{"name":"Englmeierweg","postalCode":"84036","locality":"Landshut","municipality":{"key":"09261000","name":"Landshut","type":"Kreisfreie_Stadt"},"district":{"key":"09261","name":"Landshut","type":"Kreisfreie_Stadt"},"federalState":{"key":"09","name":"Bayern"}},{"name":"Enzianstr.","postalCode":"84032","locality":"Landshut","municipality":{"key":"09261000","name":"Landshut","type":"Kreisfreie_Stadt"},"district":{"key":"09261","name":"Landshut","type":"Kreisfreie_Stadt"},"federalState":{"key":"09","name":"Bayern"}},{"name":"Erfurter Weg","postalCode":"84036","locality":"Landshut","municipality":{"key":"09261000","name":"Landshut","type":"Kreisfreie_Stadt"},"district":{"key":"09261","name":"Landshut","type":"Kreisfreie_Stadt"},"federalState":{"key":"09","name":"Bayern"}},{"name":"Ergoldinger Str.","postalCode":"84030","locality":"Landshut","municipality":{"key":"09261000","name":"Landshut","type":"Kreisfreie_Stadt"},"district":{"key":"09261","name":"Landshut","type":"Kreisfreie_Stadt"},"federalState":{"key":"09","name":"Bayern"}},{"name":"Erhardisteg","postalCode":"84036","locality":"Landshut","municipality":{"key":"09261000","name":"Landshut","type":"Kreisfreie_Stadt"},"district":{"key":"09261","name":"Landshut","type":"Kreisfreie_Stadt"},"federalState":{"key":"09","name":"Bayern"}},{"name":"Erikastr.","postalCode":"84032","locality":"Landshut","municipality":{"key":"09261000","name":"Landshut","type":"Kreisfreie_Stadt"},"district":{"key":"09261","name":"Landshut","type":"Kreisfreie_Stadt"},"federalState":{"key":"09","name":"Bayern"}},{"name":"Erlenstr.","postalCode":"84032","locality":"Landshut","municipality":{"key":"09261000","name":"Landshut","type":"Kreisfreie_Stadt"},"district":{"key":"09261","name":"Landshut","type":"Kreisfreie_Stadt"},"federalState":{"key":"09","name":"Bayern"}},{"name":"Ermlandweg","postalCode":"84028","locality":"Landshut","municipality":{"key":"09261000","name":"Landshut","type":"Kreisfreie_Stadt"},"district":{"key":"09261","name":"Landshut","type":"Kreisfreie_Stadt"},"federalState":{"key":"09","name":"Bayern"}},{"name":"Eschenweg","postalCode":"84032","locality":"Landshut","municipality":{"key":"09261000","name":"Landshut","type":"Kreisfreie_Stadt"},"district":{"key":"09261","name":"Landshut","type":"Kreisfreie_Stadt"},"federalState":{"key":"09","name":"Bayern"}},{"name":"Ettenkoferweg","postalCode":"84034","locality":"Landshut","municipality":{"key":"09261000","name":"Landshut","type":"Kreisfreie_Stadt"},"district":{"key":"09261","name":"Landshut","type":"Kreisfreie_Stadt"},"federalState":{"key":"09","name":"Bayern"}},{"name":"Eulenweg","postalCode":"84036","locality":"Landshut","municipality":{"key":"09261000","name":"Landshut","type":"Kreisfreie_Stadt"},"district":{"key":"09261","name":"Landshut","type":"Kreisfreie_Stadt"},"federalState":{"key":"09","name":"Bayern"}},{"name":"Europagarten","postalCode":"84028","locality":"Landshut","municipality":{"key":"09261000","name":"Landshut","type":"Kreisfreie_Stadt"},"district":{"key":"09261","name":"Landshut","type":"Kreisfreie_Stadt"},"federalState":{"key":"09","name":"Bayern"}},{"name":"Friedhofstr.","postalCode":"84181","locality":"Neufraunhofen","municipality":{"key":"09274154","name":"Neufraunhofen","type":"Kreisangehörige_Gemeinde"},"district":{"key":"09274","name":"Landshut","type":"Landkreis"},"federalState":{"key":"09","name":"Bayern"}},{"name":"Georgenzell","postalCode":"84181","locality":"Neufraunhofen","municipality":{"key":"09274154","name":"Neufraunhofen","type":"Kreisangehörige_Gemeinde"},"district":{"key":"09274","name":"Landshut","type":"Landkreis"},"federalState":{"key":"09","name":"Bayern"}},{"name":"Hinterskirchen","postalCode":"84181","locality":"Neufraunhofen","municipality":{"key":"09274154","name":"Neufraunhofen","type":"Kreisangehörige_Gemeinde"},"district":{"key":"09274","name":"Landshut","type":"Landkreis"},"federalState":{"key":"09","name":"Bayern"}},{"name":"Hinterskirchener Str.","postalCode":"84181","locality":"Neufraunhofen","municipality":{"key":"09274154","name":"Neufraunhofen","type":"Kreisangehörige_Gemeinde"},"district":{"key":"09274","name":"Landshut","type":"Landkreis"},"federalState":{"key":"09","name":"Bayern"}},{"name":"Hofmark","postalCode":"84181","locality":"Neufraunhofen","municipality":{"key":"09274154","name":"Neufraunhofen","type":"Kreisangehörige_Gemeinde"},"district":{"key":"09274","name":"Landshut","type":"Landkreis"},"federalState":{"key":"09","name":"Bayern"}},{"name":"Ida-Hilgärtner-Weg","postalCode":"84034","locality":"Landshut","municipality":{"key":"09261000","name":"Landshut","type":"Kreisfreie_Stadt"},"district":{"key":"09261","name":"Landshut","type":"Kreisfreie_Stadt"},"federalState":{"key":"09","name":"Bayern"}},{"name":"Iglauer Weg","postalCode":"84028","locality":"Landshut","municipality":{"key":"09261000","name":"Landshut","type":"Kreisfreie_Stadt"},"district":{"key":"09261","name":"Landshut","type":"Kreisfreie_Stadt"},"federalState":{"key":"09","name":"Bayern"}},{"name":"Illerweg","postalCode":"84036","locality":"Landshut","municipality":{"key":"09261000","name":"Landshut","type":"Kreisfreie_Stadt"},"district":{"key":"09261","name":"Landshut","type":"Kreisfreie_Stadt"},"federalState":{"key":"09","name":"Bayern"}},{"name":"Illoher Weg","postalCode":"84036","locality":"Landshut","municipality":{"key":"09261000","name":"Landshut","type":"Kreisfreie_Stadt"},"district":{"key":"09261","name":"Landshut","type":"Kreisfreie_Stadt"},"federalState":{"key":"09","name":"Bayern"}},{"name":"Ilzstr.","postalCode":"84036","locality":"Landshut","municipality":{"key":"09261000","name":"Landshut","type":"Kreisfreie_Stadt"},"district":{"key":"09261","name":"Landshut","type":"Kreisfreie_Stadt"},"federalState":{"key":"09","name":"Bayern"}},{"name":"Im Moos","postalCode":"84034","locality":"Landshut","municipality":{"key":"09261000","name":"Landshut","type":"Kreisfreie_Stadt"},"district":{"key":"09261","name":"Landshut","type":"Kreisfreie_Stadt"},"federalState":{"key":"09","name":"Bayern"}},{"name":"Ina-Seidel-Str.","postalCode":"84032","locality":"Landshut","municipality":{"key":"09261000","name":"Landshut","type":"Kreisfreie_Stadt"},"district":{"key":"09261","name":"Landshut","type":"Kreisfreie_Stadt"},"federalState":{"key":"09","name":"Bayern"}},{"name":"In den Schwaigen","postalCode":"84034","locality":"Landshut","municipality":{"key":"09261000","name":"Landshut","type":"Kreisfreie_Stadt"},"district":{"key":"09261","name":"Landshut","type":"Kreisfreie_Stadt"},"federalState":{"key":"09","name":"Bayern"}},{"name":"Industriestr.","postalCode":"84030","locality":"Landshut","municipality":{"key":"09261000","name":"Landshut","type":"Kreisfreie_Stadt"},"district":{"key":"09261","name":"Landshut","type":"Kreisfreie_Stadt"},"federalState":{"key":"09","name":"Bayern"}},{"name":"Ingbert-Naab-Str.","postalCode":"84032","locality":"Landshut","municipality":{"key":"09261000","name":"Landshut","type":"Kreisfreie_Stadt"},"district":{"key":"09261","name":"Landshut","type":"Kreisfreie_Stadt"},"federalState":{"key":"09","name":"Bayern"}},{"name":"Inge-Sedlmaier-Str.","postalCode":"84036","locality":"Landshut","municipality":{"key":"09261000","name":"Landshut","type":"Kreisfreie_Stadt"},"district":{"key":"09261","name":"Landshut","type":"Kreisfreie_Stadt"},"federalState":{"key":"09","name":"Bayern"}},{"name":"Innere Münchener Str.","postalCode":"84028","locality":"Landshut","municipality":{"key":"09261000","name":"Landshut","type":"Kreisfreie_Stadt"},"district":{"key":"09261","name":"Landshut","type":"Kreisfreie_Stadt"},"federalState":{"key":"09","name":"Bayern"}},{"name":"Innere Münchener Str.","postalCode":"84036","locality":"Landshut","municipality":{"key":"09261000","name":"Landshut","type":"Kreisfreie_Stadt"},"district":{"key":"09261","name":"Landshut","type":"Kreisfreie_Stadt"},"federalState":{"key":"09","name":"Bayern"}},{"name":"Innere Münchner Str.","postalCode":"84036","locality":"Landshut","municipality":{"key":"09261000","name":"Landshut","type":"Kreisfreie_Stadt"},"district":{"key":"09261","name":"Landshut","type":"Kreisfreie_Stadt"},"federalState":{"key":"09","name":"Bayern"}},{"name":"Innere Regensburger Str.","postalCode":"84034","locality":"Landshut","municipality":{"key":"09261000","name":"Landshut","type":"Kreisfreie_Stadt"},"district":{"key":"09261","name":"Landshut","type":"Kreisfreie_Stadt"},"federalState":{"key":"09","name":"Bayern"}},{"name":"Innstr.","postalCode":"84036","locality":"Landshut","municipality":{"key":"09261000","name":"Landshut","type":"Kreisfreie_Stadt"},"district":{"key":"09261","name":"Landshut","type":"Kreisfreie_Stadt"},"federalState":{"key":"09","name":"Bayern"}},{"name":"Isarradweg","postalCode":"84036","locality":"Landshut","municipality":{"key":"09261000","name":"Landshut","type":"Kreisfreie_Stadt"},"district":{"key":"09261","name":"Landshut","type":"Kreisfreie_Stadt"},"federalState":{"key":"09","name":"Bayern"}},{"name":"Isarweg","postalCode":"84028","locality":"Landshut","municipality":{"key":"09261000","name":"Landshut","type":"Kreisfreie_Stadt"},"district":{"key":"09261","name":"Landshut","type":"Kreisfreie_Stadt"},"federalState":{"key":"09","name":"Bayern"}},{"name":"Isenstr.","postalCode":"84036","locality":"Landshut","municipality":{"key":"09261000","name":"Landshut","type":"Kreisfreie_Stadt"},"district":{"key":"09261","name":"Landshut","type":"Kreisfreie_Stadt"},"federalState":{"key":"09","name":"Bayern"}},{"name":"Isolde-Kurz-Str.","postalCode":"84032","locality":"Landshut","municipality":{"key":"09261000","name":"Landshut","type":"Kreisfreie_Stadt"},"district":{"key":"09261","name":"Landshut","type":"Kreisfreie_Stadt"},"federalState":{"key":"09","name":"Bayern"}},{"name":"Jakob-Mieslinger-Str.","postalCode":"84034","locality":"Landshut","municipality":{"key":"09261000","name":"Landshut","type":"Kreisfreie_Stadt"},"district":{"key":"09261","name":"Landshut","type":"Kreisfreie_Stadt"},"federalState":{"key":"09","name":"Bayern"}},{"name":"Jennerstr.","postalCode":"84034","locality":"Landshut","municipality":{"key":"09261000","name":"Landshut","type":"Kreisfreie_Stadt"},"district":{"key":"09261","name":"Landshut","type":"Kreisfreie_Stadt"},"federalState":{"key":"09","name":"Bayern"}},{"name":"Jodoksgasse","postalCode":"84028","locality":"Landshut","municipality":{"key":"09261000","name":"Landshut","type":"Kreisfreie_Stadt"},"district":{"key":"09261","name":"Landshut","type":"Kreisfreie_Stadt"},"federalState":{"key":"09","name":"Bayern"}},{"name":"Johann-A.-Schmeller-Str.","postalCode":"84032","locality":"Landshut","municipality":{"key":"09261000","name":"Landshut","type":"Kreisfreie_Stadt"},"district":{"key":"09261","name":"Landshut","type":"Kreisfreie_Stadt"},"federalState":{"key":"09","name":"Bayern"}},{"name":"Johann-Hengl-Str.","postalCode":"84036","locality":"Landshut","municipality":{"key":"09261000","name":"Landshut","type":"Kreisfreie_Stadt"},"district":{"key":"09261","name":"Landshut","type":"Kreisfreie_Stadt"},"federalState":{"key":"09","name":"Bayern"}},{"name":"Johannisstr.","postalCode":"84034","locality":"Landshut","municipality":{"key":"09261000","name":"Landshut","type":"Kreisfreie_Stadt"},"district":{"key":"09261","name":"Landshut","type":"Kreisfreie_Stadt"},"federalState":{"key":"09","name":"Bayern"}},{"name":"Johann-Weiß-Weg","postalCode":"84028","locality":"Landshut","municipality":{"key":"09261000","name":"Landshut","type":"Kreisfreie_Stadt"},"district":{"key":"09261","name":"Landshut","type":"Kreisfreie_Stadt"},"federalState":{"key":"09","name":"Bayern"}},{"name":"Jörg-Breu-Str.","postalCode":"84034","locality":"Landshut","municipality":{"key":"09261000","name":"Landshut","type":"Kreisfreie_Stadt"},"district":{"key":"09261","name":"Landshut","type":"Kreisfreie_Stadt"},"federalState":{"key":"09","name":"Bayern"}},{"name":"Josef-Bergler-Str.","postalCode":"84034","locality":"Landshut","municipality":{"key":"09261000","name":"Landshut","type":"Kreisfreie_Stadt"},"district":{"key":"09261","name":"Landshut","type":"Kreisfreie_Stadt"},"federalState":{"key":"09","name":"Bayern"}},{"name":"Josef-Deimer-Tunnel","postalCode":"84028","locality":"Landshut","municipality":{"key":"09261000","name":"Landshut","type":"Kreisfreie_Stadt"},"district":{"key":"09261","name":"Landshut","type":"Kreisfreie_Stadt"},"federalState":{"key":"09","name":"Bayern"}},{"name":"Josef-Deimer-Tunnel","postalCode":"84036","locality":"Landshut","municipality":{"key":"09261000","name":"Landshut","type":"Kreisfreie_Stadt"},"district":{"key":"09261","name":"Landshut","type":"Kreisfreie_Stadt"},"federalState":{"key":"09","name":"Bayern"}},{"name":"Josef-Götz-Str.","postalCode":"84034","locality":"Landshut","municipality":{"key":"09261000","name":"Landshut","type":"Kreisfreie_Stadt"},"district":{"key":"09261","name":"Landshut","type":"Kreisfreie_Stadt"},"federalState":{"key":"09","name":"Bayern"}},{"name":"Joseph-Schlicht-Str.","postalCode":"84032","locality":"Landshut","municipality":{"key":"09261000","name":"Landshut","type":"Kreisfreie_Stadt"},"district":{"key":"09261","name":"Landshut","type":"Kreisfreie_Stadt"},"federalState":{"key":"09","name":"Bayern"}},{"name":"Judithstr.","postalCode":"84032","locality":"Landshut","municipality":{"key":"09261000","name":"Landshut","type":"Kreisfreie_Stadt"},"district":{"key":"09261","name":"Landshut","type":"Kreisfreie_Stadt"},"federalState":{"key":"09","name":"Bayern"}},{"name":"Jürgen-Schumann-Str.","postalCode":"84034","locality":"Landshut","municipality":{"key":"09261000","name":"Landshut","type":"Kreisfreie_Stadt"},"district":{"key":"09261","name":"Landshut","type":"Kreisfreie_Stadt"},"federalState":{"key":"09","name":"Bayern"}},{"name":"Kobl","postalCode":"84181","locality":"Neufraunhofen","municipality":{"key":"09274154","name":"Neufraunhofen","type":"Kreisangehörige_Gemeinde"},"district":{"key":"09274","name":"Landshut","type":"Landkreis"},"federalState":{"key":"09","name":"Bayern"}},{"name":"Landshuter Str.","postalCode":"84181","locality":"Neufraunhofen","municipality":{"key":"09274154","name":"Neufraunhofen","type":"Kreisangehörige_Gemeinde"},"district":{"key":"09274","name":"Landshut","type":"Landkreis"},"federalState":{"key":"09","name":"Bayern"}},{"name":"Lehen","postalCode":"84181","locality":"Neufraunhofen","municipality":{"key":"09274154","name":"Neufraunhofen","type":"Kreisangehörige_Gemeinde"},"district":{"key":"09274","name":"Landshut","type":"Landkreis"},"federalState":{"key":"09","name":"Bayern"}},{"name":"Mescheder Str.","postalCode":"84181","locality":"Neufraunhofen","municipality":{"key":"09274154","name":"Neufraunhofen","type":"Kreisangehörige_Gemeinde"},"district":{"key":"09274","name":"Landshut","type":"Landkreis"},"federalState":{"key":"09","name":"Bayern"}},{"name":"Nahensteig","postalCode":"84028","locality":"Landshut","municipality":{"key":"09261000","name":"Landshut","type":"Kreisfreie_Stadt"},"district":{"key":"09261","name":"Landshut","type":"Kreisfreie_Stadt"},"federalState":{"key":"09","name":"Bayern"}},{"name":"Narzissenweg","postalCode":"84032","locality":"Landshut","municipality":{"key":"09261000","name":"Landshut","type":"Kreisfreie_Stadt"},"district":{"key":"09261","name":"Landshut","type":"Kreisfreie_Stadt"},"federalState":{"key":"09","name":"Bayern"}},{"name":"Neckarplatz","postalCode":"84036","locality":"Landshut","municipality":{"key":"09261000","name":"Landshut","type":"Kreisfreie_Stadt"},"district":{"key":"09261","name":"Landshut","type":"Kreisfreie_Stadt"},"federalState":{"key":"09","name":"Bayern"}},{"name":"Neißestr.","postalCode":"84036","locality":"Landshut","municipality":{"key":"09261000","name":"Landshut","type":"Kreisfreie_Stadt"},"district":{"key":"09261","name":"Landshut","type":"Kreisfreie_Stadt"},"federalState":{"key":"09","name":"Bayern"}},{"name":"Nelkenstr.","postalCode":"84032","locality":"Landshut","municipality":{"key":"09261000","name":"Landshut","type":"Kreisfreie_Stadt"},"district":{"key":"09261","name":"Landshut","type":"Kreisfreie_Stadt"},"federalState":{"key":"09","name":"Bayern"}},{"name":"Neue Bergstr.","postalCode":"84036","locality":"Landshut","municipality":{"key":"09261000","name":"Landshut","type":"Kreisfreie_Stadt"},"district":{"key":"09261","name":"Landshut","type":"Kreisfreie_Stadt"},"federalState":{"key":"09","name":"Bayern"}},{"name":"Niedermayerstr.","postalCode":"84028","locality":"Landshut","municipality":{"key":"09261000","name":"Landshut","type":"Kreisfreie_Stadt"},"district":{"key":"09261","name":"Landshut","type":"Kreisfreie_Stadt"},"federalState":{"key":"09","name":"Bayern"}},{"name":"Niedermayerstr.","postalCode":"84036","locality":"Landshut","municipality":{"key":"09261000","name":"Landshut","type":"Kreisfreie_Stadt"},"district":{"key":"09261","name":"Landshut","type":"Kreisfreie_Stadt"},"federalState":{"key":"09","name":"Bayern"}},{"name":"Nikolastr.","postalCode":"84034","locality":"Landshut","municipality":{"key":"09261000","name":"Landshut","type":"Kreisfreie_Stadt"},"district":{"key":"09261","name":"Landshut","type":"Kreisfreie_Stadt"},"federalState":{"key":"09","name":"Bayern"}},{"name":"Nikolaus-Alexander-Mair-Str.","postalCode":"84034","locality":"Landshut","municipality":{"key":"09261000","name":"Landshut","type":"Kreisfreie_Stadt"},"district":{"key":"09261","name":"Landshut","type":"Kreisfreie_Stadt"},"federalState":{"key":"09","name":"Bayern"}},{"name":"Noimergasse","postalCode":"84034","locality":"Landshut","municipality":{"key":"09261000","name":"Landshut","type":"Kreisfreie_Stadt"},"district":{"key":"09261","name":"Landshut","type":"Kreisfreie_Stadt"},"federalState":{"key":"09","name":"Bayern"}},{"name":"Oberbreitenauer Str.","postalCode":"84030","locality":"Landshut","municipality":{"key":"09261000","name":"Landshut","type":"Kreisfreie_Stadt"},"district":{"key":"09261","name":"Landshut","type":"Kreisfreie_Stadt"},"federalState":{"key":"09","name":"Bayern"}},{"name":"Obere Freyung","postalCode":"84028","locality":"Landshut","municipality":{"key":"09261000","name":"Landshut","type":"Kreisfreie_Stadt"},"district":{"key":"09261","name":"Landshut","type":"Kreisfreie_Stadt"},"federalState":{"key":"09","name":"Bayern"}},{"name":"Obere Liebenau","postalCode":"84034","locality":"Landshut","municipality":{"key":"09261000","name":"Landshut","type":"Kreisfreie_Stadt"},"district":{"key":"09261","name":"Landshut","type":"Kreisfreie_Stadt"},"federalState":{"key":"09","name":"Bayern"}},{"name":"Obere Wöhrstr.","postalCode":"84034","locality":"Landshut","municipality":{"key":"09261000","name":"Landshut","type":"Kreisfreie_Stadt"},"district":{"key":"09261","name":"Landshut","type":"Kreisfreie_Stadt"},"federalState":{"key":"09","name":"Bayern"}},{"name":"Oberhoferweg","postalCode":"84028","locality":"Landshut","municipality":{"key":"09261000","name":"Landshut","type":"Kreisfreie_Stadt"},"district":{"key":"09261","name":"Landshut","type":"Kreisfreie_Stadt"},"federalState":{"key":"09","name":"Bayern"}},{"name":"Oberjochweg","postalCode":"84034","locality":"Landshut","municipality":{"key":"09261000","name":"Landshut","type":"Kreisfreie_Stadt"},"district":{"key":"09261","name":"Landshut","type":"Kreisfreie_Stadt"},"federalState":{"key":"09","name":"Bayern"}},{"name":"Oberndorferstr.","postalCode":"84032","locality":"Landshut","municipality":{"key":"09261000","name":"Landshut","type":"Kreisfreie_Stadt"},"district":{"key":"09261","name":"Landshut","type":"Kreisfreie_Stadt"},"federalState":{"key":"09","name":"Bayern"}},{"name":"Oberpaurpassage","postalCode":"84028","locality":"Landshut","municipality":{"key":"09261000","name":"Landshut","type":"Kreisfreie_Stadt"},"district":{"key":"09261","name":"Landshut","type":"Kreisfreie_Stadt"},"federalState":{"key":"09","name":"Bayern"}},{"name":"Oberpaurpassage","postalCode":"84036","locality":"Landshut","municipality":{"key":"09261000","name":"Landshut","type":"Kreisfreie_Stadt"},"district":{"key":"09261","name":"Landshut","type":"Kreisfreie_Stadt"},"federalState":{"key":"09","name":"Bayern"}},{"name":"Oberthweg","postalCode":"84034","locality":"Landshut","municipality":{"key":"09261000","name":"Landshut","type":"Kreisfreie_Stadt"},"district":{"key":"09261","name":"Landshut","type":"Kreisfreie_Stadt"},"federalState":{"key":"09","name":"Bayern"}},{"name":"Oderstr.","postalCode":"84036","locality":"Landshut","municipality":{"key":"09261000","name":"Landshut","type":"Kreisfreie_Stadt"},"district":{"key":"09261","name":"Landshut","type":"Kreisfreie_Stadt"},"federalState":{"key":"09","name":"Bayern"}},{"name":"Offenbachstr.","postalCode":"84032","locality":"Landshut","municipality":{"key":"09261000","name":"Landshut","type":"Kreisfreie_Stadt"},"district":{"key":"09261","name":"Landshut","type":"Kreisfreie_Stadt"},"federalState":{"key":"09","name":"Bayern"}},{"name":"Orgelmachergasse","postalCode":"84036","locality":"Landshut","municipality":{"key":"09261000","name":"Landshut","type":"Kreisfreie_Stadt"},"district":{"key":"09261","name":"Landshut","type":"Kreisfreie_Stadt"},"federalState":{"key":"09","name":"Bayern"}},{"name":"Orlando-Di-Lasso-Str.","postalCode":"84034","locality":"Landshut","municipality":{"key":"09261000","name":"Landshut","type":"Kreisfreie_Stadt"},"district":{"key":"09261","name":"Landshut","type":"Kreisfreie_Stadt"},"federalState":{"key":"09","name":"Bayern"}},{"name":"Osserstr.","postalCode":"84030","locality":"Landshut","municipality":{"key":"09261000","name":"Landshut","type":"Kreisfreie_Stadt"},"district":{"key":"09261","name":"Landshut","type":"Kreisfreie_Stadt"},"federalState":{"key":"09","name":"Bayern"}},{"name":"Ottostr.","postalCode":"84030","locality":"Landshut","municipality":{"key":"09261000","name":"Landshut","type":"Kreisfreie_Stadt"},"district":{"key":"09261","name":"Landshut","type":"Kreisfreie_Stadt"},"federalState":{"key":"09","name":"Bayern"}},{"name":"Papiererstr.","postalCode":"84034","locality":"Landshut","municipality":{"key":"09261000","name":"Landshut","type":"Kreisfreie_Stadt"},"district":{"key":"09261","name":"Landshut","type":"Kreisfreie_Stadt"},"federalState":{"key":"09","name":"Bayern"}},{"name":"Park Mitterwöhr","postalCode":"84028","locality":"Landshut","municipality":{"key":"09261000","name":"Landshut","type":"Kreisfreie_Stadt"},"district":{"key":"09261","name":"Landshut","type":"Kreisfreie_Stadt"},"federalState":{"key":"09","name":"Bayern"}},{"name":"Parkstr.","postalCode":"84032","locality":"Landshut","municipality":{"key":"09261000","name":"Landshut","type":"Kreisfreie_Stadt"},"district":{"key":"09261","name":"Landshut","type":"Kreisfreie_Stadt"},"federalState":{"key":"09","name":"Bayern"}},{"name":"Pätzingerstr.","postalCode":"84028","locality":"Landshut","municipality":{"key":"09261000","name":"Landshut","type":"Kreisfreie_Stadt"},"district":{"key":"09261","name":"Landshut","type":"Kreisfreie_Stadt"},"federalState":{"key":"09","name":"Bayern"}},{"name":"Paul-Heinrich-Weg","postalCode":"84034","locality":"Landshut","municipality":{"key":"09261000","name":"Landshut","type":"Kreisfreie_Stadt"},"district":{"key":"09261","name":"Landshut","type":"Kreisfreie_Stadt"},"federalState":{"key":"09","name":"Bayern"}},{"name":"Paul-Heyse-Str.","postalCode":"84032","locality":"Landshut","municipality":{"key":"09261000","name":"Landshut","type":"Kreisfreie_Stadt"},"district":{"key":"09261","name":"Landshut","type":"Kreisfreie_Stadt"},"federalState":{"key":"09","name":"Bayern"}},{"name":"Paul-Klee-Str.","postalCode":"84034","locality":"Landshut","municipality":{"key":"09261000","name":"Landshut","type":"Kreisfreie_Stadt"},"district":{"key":"09261","name":"Landshut","type":"Kreisfreie_Stadt"},"federalState":{"key":"09","name":"Bayern"}},{"name":"Paul-Pausinger-Weg","postalCode":"84028","locality":"Landshut","municipality":{"key":"09261000","name":"Landshut","type":"Kreisfreie_Stadt"},"district":{"key":"09261","name":"Landshut","type":"Kreisfreie_Stadt"},"federalState":{"key":"09","name":"Bayern"}},{"name":"Pausenhof","postalCode":"84034","locality":"Landshut","municipality":{"key":"09261000","name":"Landshut","type":"Kreisfreie_Stadt"},"district":{"key":"09261","name":"Landshut","type":"Kreisfreie_Stadt"},"federalState":{"key":"09","name":"Bayern"}},{"name":"Pavilionpfad","postalCode":"84028","locality":"Landshut","municipality":{"key":"09261000","name":"Landshut","type":"Kreisfreie_Stadt"},"district":{"key":"09261","name":"Landshut","type":"Kreisfreie_Stadt"},"federalState":{"key":"09","name":"Bayern"}},{"name":"Peinkoferstr.","postalCode":"84030","locality":"Landshut","municipality":{"key":"09261000","name":"Landshut","type":"Kreisfreie_Stadt"},"district":{"key":"09261","name":"Landshut","type":"Kreisfreie_Stadt"},"federalState":{"key":"09","name":"Bayern"}},{"name":"Pettenkoferstr.","postalCode":"84036","locality":"Landshut","municipality":{"key":"09261000","name":"Landshut","type":"Kreisfreie_Stadt"},"district":{"key":"09261","name":"Landshut","type":"Kreisfreie_Stadt"},"federalState":{"key":"09","name":"Bayern"}},{"name":"Pexenfelderweg","postalCode":"84036","locality":"Landshut","municipality":{"key":"09261000","name":"Landshut","type":"Kreisfreie_Stadt"},"district":{"key":"09261","name":"Landshut","type":"Kreisfreie_Stadt"},"federalState":{"key":"09","name":"Bayern"}},{"name":"Pfarrer-Kneipp-Weg","postalCode":"84034","locality":"Landshut","municipality":{"key":"09261000","name":"Landshut","type":"Kreisfreie_Stadt"},"district":{"key":"09261","name":"Landshut","type":"Kreisfreie_Stadt"},"federalState":{"key":"09","name":"Bayern"}},{"name":"Pfarrfeldstr.","postalCode":"84036","locality":"Landshut","municipality":{"key":"09261000","name":"Landshut","type":"Kreisfreie_Stadt"},"district":{"key":"09261","name":"Landshut","type":"Kreisfreie_Stadt"},"federalState":{"key":"09","name":"Bayern"}},{"name":"Pfarrgasse","postalCode":"84036","locality":"Landshut","municipality":{"key":"09261000","name":"Landshut","type":"Kreisfreie_Stadt"},"district":{"key":"09261","name":"Landshut","type":"Kreisfreie_Stadt"},"federalState":{"key":"09","name":"Bayern"}},{"name":"Pfauenweg","postalCode":"84036","locality":"Landshut","municipality":{"key":"09261000","name":"Landshut","type":"Kreisfreie_Stadt"},"district":{"key":"09261","name":"Landshut","type":"Kreisfreie_Stadt"},"federalState":{"key":"09","name":"Bayern"}},{"name":"Pfeifergorigasse","postalCode":"84036","locality":"Landshut","municipality":{"key":"09261000","name":"Landshut","type":"Kreisfreie_Stadt"},"district":{"key":"09261","name":"Landshut","type":"Kreisfreie_Stadt"},"federalState":{"key":"09","name":"Bayern"}},{"name":"Pfettrachgasse","postalCode":"84034","locality":"Landshut","municipality":{"key":"09261000","name":"Landshut","type":"Kreisfreie_Stadt"},"district":{"key":"09261","name":"Landshut","type":"Kreisfreie_Stadt"},"federalState":{"key":"09","name":"Bayern"}},{"name":"Pflaumenweg","postalCode":"84032","locality":"Landshut","municipality":{"key":"09261000","name":"Landshut","type":"Kreisfreie_Stadt"},"district":{"key":"09261","name":"Landshut","type":"Kreisfreie_Stadt"},"federalState":{"key":"09","name":"Bayern"}},{"name":"Philipp-Heim-Platz","postalCode":"84036","locality":"Landshut","municipality":{"key":"09261000","name":"Landshut","type":"Kreisfreie_Stadt"},"district":{"key":"09261","name":"Landshut","type":"Kreisfreie_Stadt"},"federalState":{"key":"09","name":"Bayern"}},{"name":"Piflaser Weg","postalCode":"84034","locality":"Landshut","municipality":{"key":"09261000","name":"Landshut","type":"Kreisfreie_Stadt"},"district":{"key":"09261","name":"Landshut","type":"Kreisfreie_Stadt"},"federalState":{"key":"09","name":"Bayern"}},{"name":"Plankweg","postalCode":"84036","locality":"Landshut","municipality":{"key":"09261000","name":"Landshut","type":"Kreisfreie_Stadt"},"district":{"key":"09261","name":"Landshut","type":"Kreisfreie_Stadt"},"federalState":{"key":"09","name":"Bayern"}},{"name":"Plantagenweg","postalCode":"84034","locality":"Landshut","municipality":{"key":"09261000","name":"Landshut","type":"Kreisfreie_Stadt"},"district":{"key":"09261","name":"Landshut","type":"Kreisfreie_Stadt"},"federalState":{"key":"09","name":"Bayern"}},{"name":"Platanenweg","postalCode":"84032","locality":"Landshut","municipality":{"key":"09261000","name":"Landshut","type":"Kreisfreie_Stadt"},"district":{"key":"09261","name":"Landshut","type":"Kreisfreie_Stadt"},"federalState":{"key":"09","name":"Bayern"}},{"name":"Plauener Str.","postalCode":"84036","locality":"Landshut","municipality":{"key":"09261000","name":"Landshut","type":"Kreisfreie_Stadt"},"district":{"key":"09261","name":"Landshut","type":"Kreisfreie_Stadt"},"federalState":{"key":"09","name":"Bayern"}},{"name":"Plieningenweg","postalCode":"84036","locality":"Landshut","municipality":{"key":"09261000","name":"Landshut","type":"Kreisfreie_Stadt"},"district":{"key":"09261","name":"Landshut","type":"Kreisfreie_Stadt"},"federalState":{"key":"09","name":"Bayern"}},{"name":"Podewilsstr.","postalCode":"84028","locality":"Landshut","municipality":{"key":"09261000","name":"Landshut","type":"Kreisfreie_Stadt"},"district":{"key":"09261","name":"Landshut","type":"Kreisfreie_Stadt"},"federalState":{"key":"09","name":"Bayern"}},{"name":"Podewilsstr.","postalCode":"84034","locality":"Landshut","municipality":{"key":"09261000","name":"Landshut","type":"Kreisfreie_Stadt"},"district":{"key":"09261","name":"Landshut","type":"Kreisfreie_Stadt"},"federalState":{"key":"09","name":"Bayern"}},{"name":"Pollingerstr.","postalCode":"84028","locality":"Landshut","municipality":{"key":"09261000","name":"Landshut","type":"Kreisfreie_Stadt"},"district":{"key":"09261","name":"Landshut","type":"Kreisfreie_Stadt"},"federalState":{"key":"09","name":"Bayern"}},{"name":"Pönaiergasse","postalCode":"84036","locality":"Landshut","municipality":{"key":"09261000","name":"Landshut","type":"Kreisfreie_Stadt"},"district":{"key":"09261","name":"Landshut","type":"Kreisfreie_Stadt"},"federalState":{"key":"09","name":"Bayern"}},{"name":"Porschestr.","postalCode":"84030","locality":"Landshut","municipality":{"key":"09261000","name":"Landshut","type":"Kreisfreie_Stadt"},"district":{"key":"09261","name":"Landshut","type":"Kreisfreie_Stadt"},"federalState":{"key":"09","name":"Bayern"}},{"name":"Potsdamer Weg","postalCode":"84036","locality":"Landshut","municipality":{"key":"09261000","name":"Landshut","type":"Kreisfreie_Stadt"},"district":{"key":"09261","name":"Landshut","type":"Kreisfreie_Stadt"},"federalState":{"key":"09","name":"Bayern"}},{"name":"Prälat-Heinrich-Fischer-Platz","postalCode":"84028","locality":"Landshut","municipality":{"key":"09261000","name":"Landshut","type":"Kreisfreie_Stadt"},"district":{"key":"09261","name":"Landshut","type":"Kreisfreie_Stadt"},"federalState":{"key":"09","name":"Bayern"}},{"name":"Prälat-Schweiger-Weg","postalCode":"84032","locality":"Landshut","municipality":{"key":"09261000","name":"Landshut","type":"Kreisfreie_Stadt"},"district":{"key":"09261","name":"Landshut","type":"Kreisfreie_Stadt"},"federalState":{"key":"09","name":"Bayern"}},{"name":"Pregelweg","postalCode":"84036","locality":"Landshut","municipality":{"key":"09261000","name":"Landshut","type":"Kreisfreie_Stadt"},"district":{"key":"09261","name":"Landshut","type":"Kreisfreie_Stadt"},"federalState":{"key":"09","name":"Bayern"}},{"name":"Preßgasse","postalCode":"84036","locality":"Landshut","municipality":{"key":"09261000","name":"Landshut","type":"Kreisfreie_Stadt"},"district":{"key":"09261","name":"Landshut","type":"Kreisfreie_Stadt"},"federalState":{"key":"09","name":"Bayern"}},{"name":"Prielhofweg","postalCode":"84036","locality":"Landshut","municipality":{"key":"09261000","name":"Landshut","type":"Kreisfreie_Stadt"},"district":{"key":"09261","name":"Landshut","type":"Kreisfreie_Stadt"},"federalState":{"key":"09","name":"Bayern"}},{"name":"Primelweg","postalCode":"84032","locality":"Landshut","municipality":{"key":"09261000","name":"Landshut","type":"Kreisfreie_Stadt"},"district":{"key":"09261","name":"Landshut","type":"Kreisfreie_Stadt"},"federalState":{"key":"09","name":"Bayern"}},{"name":"Prof.-Buchner-Str.","postalCode":"84034","locality":"Landshut","municipality":{"key":"09261000","name":"Landshut","type":"Kreisfreie_Stadt"},"district":{"key":"09261","name":"Landshut","type":"Kreisfreie_Stadt"},"federalState":{"key":"09","name":"Bayern"}},{"name":"Prof.-Dietl-Weg","postalCode":"84036","locality":"Landshut","municipality":{"key":"09261000","name":"Landshut","type":"Kreisfreie_Stadt"},"district":{"key":"09261","name":"Landshut","type":"Kreisfreie_Stadt"},"federalState":{"key":"09","name":"Bayern"}},{"name":"Prof.-Kurt-Huber-Str.","postalCode":"84036","locality":"Landshut","municipality":{"key":"09261000","name":"Landshut","type":"Kreisfreie_Stadt"},"district":{"key":"09261","name":"Landshut","type":"Kreisfreie_Stadt"},"federalState":{"key":"09","name":"Bayern"}},{"name":"Prof.-Ludwig-Renner-Weg","postalCode":"84028","locality":"Landshut","municipality":{"key":"09261000","name":"Landshut","type":"Kreisfreie_Stadt"},"district":{"key":"09261","name":"Landshut","type":"Kreisfreie_Stadt"},"federalState":{"key":"09","name":"Bayern"}},{"name":"Prof.-Schmidtmüller-Str.","postalCode":"84034","locality":"Landshut","municipality":{"key":"09261000","name":"Landshut","type":"Kreisfreie_Stadt"},"district":{"key":"09261","name":"Landshut","type":"Kreisfreie_Stadt"},"federalState":{"key":"09","name":"Bayern"}},{"name":"Prof.-Schultes-Str.","postalCode":"84034","locality":"Landshut","municipality":{"key":"09261000","name":"Landshut","type":"Kreisfreie_Stadt"},"district":{"key":"09261","name":"Landshut","type":"Kreisfreie_Stadt"},"federalState":{"key":"09","name":"Bayern"}},{"name":"Prof.-Tiedemann-Str.","postalCode":"84034","locality":"Landshut","municipality":{"key":"09261000","name":"Landshut","type":"Kreisfreie_Stadt"},"district":{"key":"09261","name":"Landshut","type":"Kreisfreie_Stadt"},"federalState":{"key":"09","name":"Bayern"}},{"name":"Pulverturmsstr.","postalCode":"84028","locality":"Landshut","municipality":{"key":"09261000","name":"Landshut","type":"Kreisfreie_Stadt"},"district":{"key":"09261","name":"Landshut","type":"Kreisfreie_Stadt"},"federalState":{"key":"09","name":"Bayern"}},{"name":"Pulverturmstr.","postalCode":"84028","locality":"Landshut","municipality":{"key":"09261000","name":"Landshut","type":"Kreisfreie_Stadt"},"district":{"key":"09261","name":"Landshut","type":"Kreisfreie_Stadt"},"federalState":{"key":"09","name":"Bayern"}},{"name":"Querstr.","postalCode":"84034","locality":"Landshut","municipality":{"key":"09261000","name":"Landshut","type":"Kreisfreie_Stadt"},"district":{"key":"09261","name":"Landshut","type":"Kreisfreie_Stadt"},"federalState":{"key":"09","name":"Bayern"}},{"name":"Querweg","postalCode":"84028","locality":"Landshut","municipality":{"key":"09261000","name":"Landshut","type":"Kreisfreie_Stadt"},"district":{"key":"09261","name":"Landshut","type":"Kreisfreie_Stadt"},"federalState":{"key":"09","name":"Bayern"}},{"name":"Rabenauer Weg","postalCode":"84034","locality":"Landshut","municipality":{"key":"09261000","name":"Landshut","type":"Kreisfreie_Stadt"},"district":{"key":"09261","name":"Landshut","type":"Kreisfreie_Stadt"},"federalState":{"key":"09","name":"Bayern"}},{"name":"Rabenkopfweg","postalCode":"84036","locality":"Landshut","municipality":{"key":"09261000","name":"Landshut","type":"Kreisfreie_Stadt"},"district":{"key":"09261","name":"Landshut","type":"Kreisfreie_Stadt"},"federalState":{"key":"09","name":"Bayern"}},{"name":"Rachelstr.","postalCode":"84030","locality":"Landshut","municipality":{"key":"09261000","name":"Landshut","type":"Kreisfreie_Stadt"},"district":{"key":"09261","name":"Landshut","type":"Kreisfreie_Stadt"},"federalState":{"key":"09","name":"Bayern"}},{"name":"Rainer-Christlein-Weg","postalCode":"84036","locality":"Landshut","municipality":{"key":"09261000","name":"Landshut","type":"Kreisfreie_Stadt"},"district":{"key":"09261","name":"Landshut","type":"Kreisfreie_Stadt"},"federalState":{"key":"09","name":"Bayern"}},{"name":"Rauschergasse","postalCode":"84036","locality":"Landshut","municipality":{"key":"09261000","name":"Landshut","type":"Kreisfreie_Stadt"},"district":{"key":"09261","name":"Landshut","type":"Kreisfreie_Stadt"},"federalState":{"key":"09","name":"Bayern"}},{"name":"Rebhuhnweg","postalCode":"84036","locality":"Landshut","municipality":{"key":"09261000","name":"Landshut","type":"Kreisfreie_Stadt"},"district":{"key":"09261","name":"Landshut","type":"Kreisfreie_Stadt"},"federalState":{"key":"09","name":"Bayern"}},{"name":"Regenstr.","postalCode":"84036","locality":"Landshut","municipality":{"key":"09261000","name":"Landshut","type":"Kreisfreie_Stadt"},"district":{"key":"09261","name":"Landshut","type":"Kreisfreie_Stadt"},"federalState":{"key":"09","name":"Bayern"}},{"name":"Regierungsstr.","postalCode":"84028","locality":"Landshut","municipality":{"key":"09261000","name":"Landshut","type":"Kreisfreie_Stadt"},"district":{"key":"09261","name":"Landshut","type":"Kreisfreie_Stadt"},"federalState":{"key":"09","name":"Bayern"}},{"name":"Reichardtstr.","postalCode":"84028","locality":"Landshut","municipality":{"key":"09261000","name":"Landshut","type":"Kreisfreie_Stadt"},"district":{"key":"09261","name":"Landshut","type":"Kreisfreie_Stadt"},"federalState":{"key":"09","name":"Bayern"}},{"name":"Reichenberger Str.","postalCode":"84028","locality":"Landshut","municipality":{"key":"09261000","name":"Landshut","type":"Kreisfreie_Stadt"},"district":{"key":"09261","name":"Landshut","type":"Kreisfreie_Stadt"},"federalState":{"key":"09","name":"Bayern"}},{"name":"Reiteralpeweg","postalCode":"84034","locality":"Landshut","municipality":{"key":"09261000","name":"Landshut","type":"Kreisfreie_Stadt"},"district":{"key":"09261","name":"Landshut","type":"Kreisfreie_Stadt"},"federalState":{"key":"09","name":"Bayern"}},{"name":"Reitfeldstr.","postalCode":"84036","locality":"Landshut","municipality":{"key":"09261000","name":"Landshut","type":"Kreisfreie_Stadt"},"district":{"key":"09261","name":"Landshut","type":"Kreisfreie_Stadt"},"federalState":{"key":"09","name":"Bayern"}},{"name":"Reithoferstr.","postalCode":"84028","locality":"Landshut","municipality":{"key":"09261000","name":"Landshut","type":"Kreisfreie_Stadt"},"district":{"key":"09261","name":"Landshut","type":"Kreisfreie_Stadt"},"federalState":{"key":"09","name":"Bayern"}},{"name":"Renatastr.","postalCode":"84034","locality":"Landshut","municipality":{"key":"09261000","name":"Landshut","type":"Kreisfreie_Stadt"},"district":{"key":"09261","name":"Landshut","type":"Kreisfreie_Stadt"},"federalState":{"key":"09","name":"Bayern"}},{"name":"Rennweg","postalCode":"84034","locality":"Landshut","municipality":{"key":"09261000","name":"Landshut","type":"Kreisfreie_Stadt"},"district":{"key":"09261","name":"Landshut","type":"Kreisfreie_Stadt"},"federalState":{"key":"09","name":"Bayern"}},{"name":"Ricarda-Huch-Str.","postalCode":"84032","locality":"Landshut","municipality":{"key":"09261000","name":"Landshut","type":"Kreisfreie_Stadt"},"district":{"key":"09261","name":"Landshut","type":"Kreisfreie_Stadt"},"federalState":{"key":"09","name":"Bayern"}},{"name":"Richard-Strauß-Str.","postalCode":"84034","locality":"Landshut","municipality":{"key":"09261000","name":"Landshut","type":"Kreisfreie_Stadt"},"district":{"key":"09261","name":"Landshut","type":"Kreisfreie_Stadt"},"federalState":{"key":"09","name":"Bayern"}},{"name":"Ringseisstr.","postalCode":"84034","locality":"Landshut","municipality":{"key":"09261000","name":"Landshut","type":"Kreisfreie_Stadt"},"district":{"key":"09261","name":"Landshut","type":"Kreisfreie_Stadt"},"federalState":{"key":"09","name":"Bayern"}},{"name":"Ritter-von-Schoch-Str.","postalCode":"84036","locality":"Landshut","municipality":{"key":"09261000","name":"Landshut","type":"Kreisfreie_Stadt"},"district":{"key":"09261","name":"Landshut","type":"Kreisfreie_Stadt"},"federalState":{"key":"09","name":"Bayern"}},{"name":"Robert-Koch-Str.","postalCode":"84034","locality":"Landshut","municipality":{"key":"09261000","name":"Landshut","type":"Kreisfreie_Stadt"},"district":{"key":"09261","name":"Landshut","type":"Kreisfreie_Stadt"},"federalState":{"key":"09","name":"Bayern"}},{"name":"Robert-Stolz-Weg","postalCode":"84032","locality":"Landshut","municipality":{"key":"09261000","name":"Landshut","type":"Kreisfreie_Stadt"},"district":{"key":"09261","name":"Landshut","type":"Kreisfreie_Stadt"},"federalState":{"key":"09","name":"Bayern"}},{"name":"Rochusgasse","postalCode":"84028","locality":"Landshut","municipality":{"key":"09261000","name":"Landshut","type":"Kreisfreie_Stadt"},"district":{"key":"09261","name":"Landshut","type":"Kreisfreie_Stadt"},"federalState":{"key":"09","name":"Bayern"}},{"name":"Rödlstr.","postalCode":"84036","locality":"Landshut","municipality":{"key":"09261000","name":"Landshut","type":"Kreisfreie_Stadt"},"district":{"key":"09261","name":"Landshut","type":"Kreisfreie_Stadt"},"federalState":{"key":"09","name":"Bayern"}},{"name":"Rorerstr.","postalCode":"84028","locality":"Landshut","municipality":{"key":"09261000","name":"Landshut","type":"Kreisfreie_Stadt"},"district":{"key":"09261","name":"Landshut","type":"Kreisfreie_Stadt"},"federalState":{"key":"09","name":"Bayern"}},{"name":"Röschlaubstr.","postalCode":"84034","locality":"Landshut","municipality":{"key":"09261000","name":"Landshut","type":"Kreisfreie_Stadt"},"district":{"key":"09261","name":"Landshut","type":"Kreisfreie_Stadt"},"federalState":{"key":"09","name":"Bayern"}},{"name":"Roseggerstr.","postalCode":"84036","locality":"Landshut","municipality":{"key":"09261000","name":"Landshut","type":"Kreisfreie_Stadt"},"district":{"key":"09261","name":"Landshut","type":"Kreisfreie_Stadt"},"federalState":{"key":"09","name":"Bayern"}},{"name":"Rosengasse","postalCode":"84028","locality":"Landshut","municipality":{"key":"09261000","name":"Landshut","type":"Kreisfreie_Stadt"},"district":{"key":"09261","name":"Landshut","type":"Kreisfreie_Stadt"},"federalState":{"key":"09","name":"Bayern"}},{"name":"Rosental","postalCode":"84036","locality":"Landshut","municipality":{"key":"09261000","name":"Landshut","type":"Kreisfreie_Stadt"},"district":{"key":"09261","name":"Landshut","type":"Kreisfreie_Stadt"},"federalState":{"key":"09","name":"Bayern"}},{"name":"Rostocker Str.","postalCode":"84036","locality":"Landshut","municipality":{"key":"09261000","name":"Landshut","type":"Kreisfreie_Stadt"},"district":{"key":"09261","name":"Landshut","type":"Kreisfreie_Stadt"},"federalState":{"key":"09","name":"Bayern"}},{"name":"Rotfederweg","postalCode":"84036","locality":"Landshut","municipality":{"key":"09261000","name":"Landshut","type":"Kreisfreie_Stadt"},"district":{"key":"09261","name":"Landshut","type":"Kreisfreie_Stadt"},"federalState":{"key":"09","name":"Bayern"}},{"name":"Rotwandweg","postalCode":"84034","locality":"Landshut","municipality":{"key":"09261000","name":"Landshut","type":"Kreisfreie_Stadt"},"district":{"key":"09261","name":"Landshut","type":"Kreisfreie_Stadt"},"federalState":{"key":"09","name":"Bayern"}},{"name":"Rübezahlweg","postalCode":"84028","locality":"Landshut","municipality":{"key":"09261000","name":"Landshut","type":"Kreisfreie_Stadt"},"district":{"key":"09261","name":"Landshut","type":"Kreisfreie_Stadt"},"federalState":{"key":"09","name":"Bayern"}},{"name":"Rudolf-Ismayr-Weg","postalCode":"84036","locality":"Landshut","municipality":{"key":"09261000","name":"Landshut","type":"Kreisfreie_Stadt"},"district":{"key":"09261","name":"Landshut","type":"Kreisfreie_Stadt"},"federalState":{"key":"09","name":"Bayern"}},{"name":"Rudolf-Scheibenzuber-Weg","postalCode":"84036","locality":"Landshut","municipality":{"key":"09261000","name":"Landshut","type":"Kreisfreie_Stadt"},"district":{"key":"09261","name":"Landshut","type":"Kreisfreie_Stadt"},"federalState":{"key":"09","name":"Bayern"}},{"name":"Ruffinstr.","postalCode":"84036","locality":"Landshut","municipality":{"key":"09261000","name":"Landshut","type":"Kreisfreie_Stadt"},"district":{"key":"09261","name":"Landshut","type":"Kreisfreie_Stadt"},"federalState":{"key":"09","name":"Bayern"}},{"name":"Rupprechtstr.","postalCode":"84034","locality":"Landshut","municipality":{"key":"09261000","name":"Landshut","type":"Kreisfreie_Stadt"},"district":{"key":"09261","name":"Landshut","type":"Kreisfreie_Stadt"},"federalState":{"key":"09","name":"Bayern"}},{"name":"Ruselstr.","postalCode":"84030","locality":"Landshut","municipality":{"key":"09261000","name":"Landshut","type":"Kreisfreie_Stadt"},"district":{"key":"09261","name":"Landshut","type":"Kreisfreie_Stadt"},"federalState":{"key":"09","name":"Bayern"}},{"name":"Siedlungsweg","postalCode":"84181","locality":"Neufraunhofen","municipality":{"key":"09274154","name":"Neufraunhofen","type":"Kreisangehörige_Gemeinde"},"district":{"key":"09274","name":"Landshut","type":"Landkreis"},"federalState":{"key":"09","name":"Bayern"}},{"name":"Thaler Feld","postalCode":"84181","locality":"Neufraunhofen","municipality":{"key":"09274154","name":"Neufraunhofen","type":"Kreisangehörige_Gemeinde"},"district":{"key":"09274","name":"Landshut","type":"Landkreis"},"federalState":{"key":"09","name":"Bayern"}},{"name":"Uhlandstr.","postalCode":"84036","locality":"Landshut","municipality":{"key":"09261000","name":"Landshut","type":"Kreisfreie_Stadt"},"district":{"key":"09261","name":"Landshut","type":"Kreisfreie_Stadt"},"federalState":{"key":"09","name":"Bayern"}},{"name":"Ulmenstr.","postalCode":"84032","locality":"Landshut","municipality":{"key":"09261000","name":"Landshut","type":"Kreisfreie_Stadt"},"district":{"key":"09261","name":"Landshut","type":"Kreisfreie_Stadt"},"federalState":{"key":"09","name":"Bayern"}},{"name":"Untere Auenstr.","postalCode":"84036","locality":"Landshut","municipality":{"key":"09261000","name":"Landshut","type":"Kreisfreie_Stadt"},"district":{"key":"09261","name":"Landshut","type":"Kreisfreie_Stadt"},"federalState":{"key":"09","name":"Bayern"}},{"name":"Untere Schwimmschulstr.","postalCode":"84034","locality":"Landshut","municipality":{"key":"09261000","name":"Landshut","type":"Kreisfreie_Stadt"},"district":{"key":"09261","name":"Landshut","type":"Kreisfreie_Stadt"},"federalState":{"key":"09","name":"Bayern"}},{"name":"Untersbergweg","postalCode":"84034","locality":"Landshut","municipality":{"key":"09261000","name":"Landshut","type":"Kreisfreie_Stadt"},"district":{"key":"09261","name":"Landshut","type":"Kreisfreie_Stadt"},"federalState":{"key":"09","name":"Bayern"}},{"name":"Unterschönbach","postalCode":"84036","locality":"Landshut","municipality":{"key":"09261000","name":"Landshut","type":"Kreisfreie_Stadt"},"district":{"key":"09261","name":"Landshut","type":"Kreisfreie_Stadt"},"federalState":{"key":"09","name":"Bayern"}},{"name":"Veldener Str.","postalCode":"84181","locality":"Neufraunhofen","municipality":{"key":"09274154","name":"Neufraunhofen","type":"Kreisangehörige_Gemeinde"},"district":{"key":"09274","name":"Landshut","type":"Landkreis"},"federalState":{"key":"09","name":"Bayern"}},{"name":"Wambacher Str.","postalCode":"84181","locality":"Neufraunhofen","municipality":{"key":"09274154","name":"Neufraunhofen","type":"Kreisangehörige_Gemeinde"},"district":{"key":"09274","name":"Landshut","type":"Landkreis"},"federalState":{"key":"09","name":"Bayern"}},{"name":"Winziger Str.","postalCode":"84181","locality":"Neufraunhofen","municipality":{"key":"09274154","name":"Neufraunhofen","type":"Kreisangehörige_Gemeinde"},"district":{"key":"09274","name":"Landshut","type":"Landkreis"},"federalState":{"key":"09","name":"Bayern"}},{"name":"Zanderweg","postalCode":"84036","locality":"Landshut","municipality":{"key":"09261000","name":"Landshut","type":"Kreisfreie_Stadt"},"district":{"key":"09261","name":"Landshut","type":"Kreisfreie_Stadt"},"federalState":{"key":"09","name":"Bayern"}},{"name":"Zehntnerhofweg","postalCode":"84036","locality":"Landshut","municipality":{"key":"09261000","name":"Landshut","type":"Kreisfreie_Stadt"},"district":{"key":"09261","name":"Landshut","type":"Kreisfreie_Stadt"},"federalState":{"key":"09","name":"Bayern"}},{"name":"Zeisigweg","postalCode":"84036","locality":"Landshut","municipality":{"key":"09261000","name":"Landshut","type":"Kreisfreie_Stadt"},"district":{"key":"09261","name":"Landshut","type":"Kreisfreie_Stadt"},"federalState":{"key":"09","name":"Bayern"}},{"name":"Zellerweg","postalCode":"84032","locality":"Landshut","municipality":{"key":"09261000","name":"Landshut","type":"Kreisfreie_Stadt"},"district":{"key":"09261","name":"Landshut","type":"Kreisfreie_Stadt"},"federalState":{"key":"09","name":"Bayern"}},{"name":"Zeppelinring","postalCode":"84034","locality":"Landshut","municipality":{"key":"09261000","name":"Landshut","type":"Kreisfreie_Stadt"},"district":{"key":"09261","name":"Landshut","type":"Kreisfreie_Stadt"},"federalState":{"key":"09","name":"Bayern"}},{"name":"Ziehrerweg","postalCode":"84032","locality":"Landshut","municipality":{"key":"09261000","name":"Landshut","type":"Kreisfreie_Stadt"},"district":{"key":"09261","name":"Landshut","type":"Kreisfreie_Stadt"},"federalState":{"key":"09","name":"Bayern"}},{"name":"Zikadenweg","postalCode":"84034","locality":"Landshut","municipality":{"key":"09261000","name":"Landshut","type":"Kreisfreie_Stadt"},"district":{"key":"09261","name":"Landshut","type":"Kreisfreie_Stadt"},"federalState":{"key":"09","name":"Bayern"}},{"name":"Zingelweg","postalCode":"84036","locality":"Landshut","municipality":{"key":"09261000","name":"Landshut","type":"Kreisfreie_Stadt"},"district":{"key":"09261","name":"Landshut","type":"Kreisfreie_Stadt"},"federalState":{"key":"09","name":"Bayern"}},{"name":"Zipserweg","postalCode":"84028","locality":"Landshut","municipality":{"key":"09261000","name":"Landshut","type":"Kreisfreie_Stadt"},"district":{"key":"09261","name":"Landshut","type":"Kreisfreie_Stadt"},"federalState":{"key":"09","name":"Bayern"}},{"name":"Zobtenweg","postalCode":"84028","locality":"Landshut","municipality":{"key":"09261000","name":"Landshut","type":"Kreisfreie_Stadt"},"district":{"key":"09261","name":"Landshut","type":"Kreisfreie_Stadt"},"federalState":{"key":"09","name":"Bayern"}},{"name":"Zuckerbacherweg","postalCode":"84036","locality":"Landshut","municipality":{"key":"09261000","name":"Landshut","type":"Kreisfreie_Stadt"},"district":{"key":"09261","name":"Landshut","type":"Kreisfreie_Stadt"},"federalState":{"key":"09","name":"Bayern"}},{"name":"Zugspitzstr.","postalCode":"84034","locality":"Landshut","municipality":{"key":"09261000","name":"Landshut","type":"Kreisfreie_Stadt"},"district":{"key":"09261","name":"Landshut","type":"Kreisfreie_Stadt"},"federalState":{"key":"09","name":"Bayern"}},{"name":"Zweibrückenstr.","postalCode":"84028","locality":"Landshut","municipality":{"key":"09261000","name":"Landshut","type":"Kreisfreie_Stadt"},"district":{"key":"09261","name":"Landshut","type":"Kreisfreie_Stadt"},"federalState":{"key":"09","name":"Bayern"}},{"name":"Zweibrückenstr.","postalCode":"84034","locality":"Landshut","municipality":{"key":"09261000","name":"Landshut","type":"Kreisfreie_Stadt"},"district":{"key":"09261","name":"Landshut","type":"Kreisfreie_Stadt"},"federalState":{"key":"09","name":"Bayern"}},{"name":"Zwerggasse","postalCode":"84028","locality":"Landshut","municipality":{"key":"09261000","name":"Landshut","type":"Kreisfreie_Stadt"},"district":{"key":"09261","name":"Landshut","type":"Kreisfreie_Stadt"},"federalState":{"key":"09","name":"Bayern"}},{"name":"Zwieseler Str.","postalCode":"84030","locality":"Landshut","municipality":{"key":"09261000","name":"Landshut","type":"Kreisfreie_Stadt"},"district":{"key":"09261","name":"Landshut","type":"Kreisfreie_Stadt"},"federalState":{"key":"09","name":"Bayern"}},{"name":"Äußere Münchener Str.","postalCode":"84036","locality":"Landshut","municipality":{"key":"09261000","name":"Landshut","type":"Kreisfreie_Stadt"},"district":{"key":"09261","name":"Landshut","type":"Kreisfreie_Stadt"},"federalState":{"key":"09","name":"Bayern"}},{"name":"Äußere Regensburger Str.","postalCode":"84030","locality":"Landshut","municipality":{"key":"09261000","name":"Landshut","type":"Kreisfreie_Stadt"},"district":{"key":"09261","name":"Landshut","type":"Kreisfreie_Stadt"},"federalState":{"key":"09","name":"Bayern"}},{"name":"Äußere Regensburger Str.","postalCode":"84034","locality":"Landshut","municipality":{"key":"09261000","name":"Landshut","type":"Kreisfreie_Stadt"},"district":{"key":"09261","name":"Landshut","type":"Kreisfreie_Stadt"},"federalState":{"key":"09","name":"Bayern"}},{"name":"Überreiterweg","postalCode":"84036","locality":"Landshut","municipality":{"key":"09261000","name":"Landshut","type":"Kreisfreie_Stadt"},"district":{"key":"09261","name":"Landshut","type":"Kreisfreie_Stadt"},"federalState":{"key":"09","name":"Bayern"}},]