[{"name":"Adelbertusstr.","postalCode":"89192","locality":"Rammingen","municipality":{"key":"08425097","name":"Rammingen","type":"Kreisangehörige_Gemeinde"},"district":{"key":"08425","name":"Alb-Donau-Kreis","type":"Landkreis"},"federalState":{"key":"08","name":"Baden-Württemberg"}},{"name":"Ahornstr.","postalCode":"86871","locality":"Rammingen","municipality":{"key":"09778209","name":"Rammingen","type":"Kreisangehörige_Gemeinde"},"district":{"key":"09778","name":"Unterallgäu","type":"Landkreis"},"federalState":{"key":"09","name":"Bayern"}},{"name":"Am alten Bach","postalCode":"86871","locality":"Rammingen","municipality":{"key":"09778209","name":"Rammingen","type":"Kreisangehörige_Gemeinde"},"district":{"key":"09778","name":"Unterallgäu","type":"Landkreis"},"federalState":{"key":"09","name":"Bayern"}},{"name":"Am alten Kindergarten","postalCode":"86871","locality":"Rammingen","municipality":{"key":"09778209","name":"Rammingen","type":"Kreisangehörige_Gemeinde"},"district":{"key":"09778","name":"Unterallgäu","type":"Landkreis"},"federalState":{"key":"09","name":"Bayern"}},{"name":"Am Anger","postalCode":"86871","locality":"Rammingen","municipality":{"key":"09778209","name":"Rammingen","type":"Kreisangehörige_Gemeinde"},"district":{"key":"09778","name":"Unterallgäu","type":"Landkreis"},"federalState":{"key":"09","name":"Bayern"}},{"name":"Am Bahnhof","postalCode":"86871","locality":"Rammingen","municipality":{"key":"09778209","name":"Rammingen","type":"Kreisangehörige_Gemeinde"},"district":{"key":"09778","name":"Unterallgäu","type":"Landkreis"},"federalState":{"key":"09","name":"Bayern"}},{"name":"Am Klausenbach","postalCode":"86871","locality":"Rammingen","municipality":{"key":"09778209","name":"Rammingen","type":"Kreisangehörige_Gemeinde"},"district":{"key":"09778","name":"Unterallgäu","type":"Landkreis"},"federalState":{"key":"09","name":"Bayern"}},{"name":"Am Klingensteig","postalCode":"86871","locality":"Rammingen","municipality":{"key":"09778209","name":"Rammingen","type":"Kreisangehörige_Gemeinde"},"district":{"key":"09778","name":"Unterallgäu","type":"Landkreis"},"federalState":{"key":"09","name":"Bayern"}},{"name":"Am Ödgarten","postalCode":"86871","locality":"Rammingen","municipality":{"key":"09778209","name":"Rammingen","type":"Kreisangehörige_Gemeinde"},"district":{"key":"09778","name":"Unterallgäu","type":"Landkreis"},"federalState":{"key":"09","name":"Bayern"}},{"name":"Am Rinnengraben","postalCode":"86871","locality":"Rammingen","municipality":{"key":"09778209","name":"Rammingen","type":"Kreisangehörige_Gemeinde"},"district":{"key":"09778","name":"Unterallgäu","type":"Landkreis"},"federalState":{"key":"09","name":"Bayern"}},{"name":"Amselweg","postalCode":"89192","locality":"Rammingen","municipality":{"key":"08425097","name":"Rammingen","type":"Kreisangehörige_Gemeinde"},"district":{"key":"08425","name":"Alb-Donau-Kreis","type":"Landkreis"},"federalState":{"key":"08","name":"Baden-Württemberg"}},{"name":"Am Stiegel","postalCode":"89192","locality":"Rammingen","municipality":{"key":"08425097","name":"Rammingen","type":"Kreisangehörige_Gemeinde"},"district":{"key":"08425","name":"Alb-Donau-Kreis","type":"Landkreis"},"federalState":{"key":"08","name":"Baden-Württemberg"}},{"name":"Am Wörthbach","postalCode":"86871","locality":"Rammingen","municipality":{"key":"09778209","name":"Rammingen","type":"Kreisangehörige_Gemeinde"},"district":{"key":"09778","name":"Unterallgäu","type":"Landkreis"},"federalState":{"key":"09","name":"Bayern"}},{"name":"Angerweg","postalCode":"86871","locality":"Rammingen","municipality":{"key":"09778209","name":"Rammingen","type":"Kreisangehörige_Gemeinde"},"district":{"key":"09778","name":"Unterallgäu","type":"Landkreis"},"federalState":{"key":"09","name":"Bayern"}},{"name":"Asselfinger Str.","postalCode":"89192","locality":"Rammingen","municipality":{"key":"08425097","name":"Rammingen","type":"Kreisangehörige_Gemeinde"},"district":{"key":"08425","name":"Alb-Donau-Kreis","type":"Landkreis"},"federalState":{"key":"08","name":"Baden-Württemberg"}},{"name":"Bachgasse","postalCode":"86871","locality":"Rammingen","municipality":{"key":"09778209","name":"Rammingen","type":"Kreisangehörige_Gemeinde"},"district":{"key":"09778","name":"Unterallgäu","type":"Landkreis"},"federalState":{"key":"09","name":"Bayern"}},{"name":"Bahnhof","postalCode":"89192","locality":"Rammingen","municipality":{"key":"08425097","name":"Rammingen","type":"Kreisangehörige_Gemeinde"},"district":{"key":"08425","name":"Alb-Donau-Kreis","type":"Landkreis"},"federalState":{"key":"08","name":"Baden-Württemberg"}},{"name":"Bahnhofstr.","postalCode":"86871","locality":"Rammingen","municipality":{"key":"09778209","name":"Rammingen","type":"Kreisangehörige_Gemeinde"},"district":{"key":"09778","name":"Unterallgäu","type":"Landkreis"},"federalState":{"key":"09","name":"Bayern"}},{"name":"Bahnhofstr.","postalCode":"89192","locality":"Rammingen","municipality":{"key":"08425097","name":"Rammingen","type":"Kreisangehörige_Gemeinde"},"district":{"key":"08425","name":"Alb-Donau-Kreis","type":"Landkreis"},"federalState":{"key":"08","name":"Baden-Württemberg"}},{"name":"Birkenweg","postalCode":"86871","locality":"Rammingen","municipality":{"key":"09778209","name":"Rammingen","type":"Kreisangehörige_Gemeinde"},"district":{"key":"09778","name":"Unterallgäu","type":"Landkreis"},"federalState":{"key":"09","name":"Bayern"}},{"name":"Blumenstr.","postalCode":"86871","locality":"Rammingen","municipality":{"key":"09778209","name":"Rammingen","type":"Kreisangehörige_Gemeinde"},"district":{"key":"09778","name":"Unterallgäu","type":"Landkreis"},"federalState":{"key":"09","name":"Bayern"}},{"name":"Brühlweg","postalCode":"89192","locality":"Rammingen","municipality":{"key":"08425097","name":"Rammingen","type":"Kreisangehörige_Gemeinde"},"district":{"key":"08425","name":"Alb-Donau-Kreis","type":"Landkreis"},"federalState":{"key":"08","name":"Baden-Württemberg"}},{"name":"Burgstr.","postalCode":"89192","locality":"Rammingen","municipality":{"key":"08425097","name":"Rammingen","type":"Kreisangehörige_Gemeinde"},"district":{"key":"08425","name":"Alb-Donau-Kreis","type":"Landkreis"},"federalState":{"key":"08","name":"Baden-Württemberg"}},{"name":"Dorfäckerstr.","postalCode":"89192","locality":"Rammingen","municipality":{"key":"08425097","name":"Rammingen","type":"Kreisangehörige_Gemeinde"},"district":{"key":"08425","name":"Alb-Donau-Kreis","type":"Landkreis"},"federalState":{"key":"08","name":"Baden-Württemberg"}},{"name":"Dorfmauerweg","postalCode":"89192","locality":"Rammingen","municipality":{"key":"08425097","name":"Rammingen","type":"Kreisangehörige_Gemeinde"},"district":{"key":"08425","name":"Alb-Donau-Kreis","type":"Landkreis"},"federalState":{"key":"08","name":"Baden-Württemberg"}},{"name":"Drosselweg","postalCode":"89192","locality":"Rammingen","municipality":{"key":"08425097","name":"Rammingen","type":"Kreisangehörige_Gemeinde"},"district":{"key":"08425","name":"Alb-Donau-Kreis","type":"Landkreis"},"federalState":{"key":"08","name":"Baden-Württemberg"}},{"name":"Eichenweg","postalCode":"86871","locality":"Rammingen","municipality":{"key":"09778209","name":"Rammingen","type":"Kreisangehörige_Gemeinde"},"district":{"key":"09778","name":"Unterallgäu","type":"Landkreis"},"federalState":{"key":"09","name":"Bayern"}},{"name":"Eschenlohfeld","postalCode":"86871","locality":"Rammingen","municipality":{"key":"09778209","name":"Rammingen","type":"Kreisangehörige_Gemeinde"},"district":{"key":"09778","name":"Unterallgäu","type":"Landkreis"},"federalState":{"key":"09","name":"Bayern"}},{"name":"Finkenweg","postalCode":"89192","locality":"Rammingen","municipality":{"key":"08425097","name":"Rammingen","type":"Kreisangehörige_Gemeinde"},"district":{"key":"08425","name":"Alb-Donau-Kreis","type":"Landkreis"},"federalState":{"key":"08","name":"Baden-Württemberg"}},{"name":"Flurweg","postalCode":"86871","locality":"Rammingen","municipality":{"key":"09778209","name":"Rammingen","type":"Kreisangehörige_Gemeinde"},"district":{"key":"09778","name":"Unterallgäu","type":"Landkreis"},"federalState":{"key":"09","name":"Bayern"}},{"name":"Frauenweg","postalCode":"86871","locality":"Rammingen","municipality":{"key":"09778209","name":"Rammingen","type":"Kreisangehörige_Gemeinde"},"district":{"key":"09778","name":"Unterallgäu","type":"Landkreis"},"federalState":{"key":"09","name":"Bayern"}},{"name":"Friedhofstr.","postalCode":"86871","locality":"Rammingen","municipality":{"key":"09778209","name":"Rammingen","type":"Kreisangehörige_Gemeinde"},"district":{"key":"09778","name":"Unterallgäu","type":"Landkreis"},"federalState":{"key":"09","name":"Bayern"}},{"name":"Friedhofstr. 18","postalCode":"86871","locality":"Rammingen","municipality":{"key":"09778209","name":"Rammingen","type":"Kreisangehörige_Gemeinde"},"district":{"key":"09778","name":"Unterallgäu","type":"Landkreis"},"federalState":{"key":"09","name":"Bayern"}},{"name":"Gartenweg","postalCode":"86871","locality":"Rammingen","municipality":{"key":"09778209","name":"Rammingen","type":"Kreisangehörige_Gemeinde"},"district":{"key":"09778","name":"Unterallgäu","type":"Landkreis"},"federalState":{"key":"09","name":"Bayern"}},{"name":"Gewerbestr.","postalCode":"86871","locality":"Rammingen","municipality":{"key":"09778209","name":"Rammingen","type":"Kreisangehörige_Gemeinde"},"district":{"key":"09778","name":"Unterallgäu","type":"Landkreis"},"federalState":{"key":"09","name":"Bayern"}},{"name":"Grottenweg","postalCode":"86871","locality":"Rammingen","municipality":{"key":"09778209","name":"Rammingen","type":"Kreisangehörige_Gemeinde"},"district":{"key":"09778","name":"Unterallgäu","type":"Landkreis"},"federalState":{"key":"09","name":"Bayern"}},{"name":"Hauptstr.","postalCode":"86871","locality":"Rammingen","municipality":{"key":"09778209","name":"Rammingen","type":"Kreisangehörige_Gemeinde"},"district":{"key":"09778","name":"Unterallgäu","type":"Landkreis"},"federalState":{"key":"09","name":"Bayern"}},{"name":"Hauptstr.","postalCode":"89192","locality":"Rammingen","municipality":{"key":"08425097","name":"Rammingen","type":"Kreisangehörige_Gemeinde"},"district":{"key":"08425","name":"Alb-Donau-Kreis","type":"Landkreis"},"federalState":{"key":"08","name":"Baden-Württemberg"}},{"name":"Heselwangweg","postalCode":"86871","locality":"Rammingen","municipality":{"key":"09778209","name":"Rammingen","type":"Kreisangehörige_Gemeinde"},"district":{"key":"09778","name":"Unterallgäu","type":"Landkreis"},"federalState":{"key":"09","name":"Bayern"}},{"name":"Heusteigweg","postalCode":"89192","locality":"Rammingen","municipality":{"key":"08425097","name":"Rammingen","type":"Kreisangehörige_Gemeinde"},"district":{"key":"08425","name":"Alb-Donau-Kreis","type":"Landkreis"},"federalState":{"key":"08","name":"Baden-Württemberg"}},{"name":"Hochstr.","postalCode":"86871","locality":"Rammingen","municipality":{"key":"09778209","name":"Rammingen","type":"Kreisangehörige_Gemeinde"},"district":{"key":"09778","name":"Unterallgäu","type":"Landkreis"},"federalState":{"key":"09","name":"Bayern"}},{"name":"Hoher Weg","postalCode":"86871","locality":"Rammingen","municipality":{"key":"09778209","name":"Rammingen","type":"Kreisangehörige_Gemeinde"},"district":{"key":"09778","name":"Unterallgäu","type":"Landkreis"},"federalState":{"key":"09","name":"Bayern"}},{"name":"Kapellenweg","postalCode":"86871","locality":"Rammingen","municipality":{"key":"09778209","name":"Rammingen","type":"Kreisangehörige_Gemeinde"},"district":{"key":"09778","name":"Unterallgäu","type":"Landkreis"},"federalState":{"key":"09","name":"Bayern"}},{"name":"Kapellenweg","postalCode":"89192","locality":"Rammingen","municipality":{"key":"08425097","name":"Rammingen","type":"Kreisangehörige_Gemeinde"},"district":{"key":"08425","name":"Alb-Donau-Kreis","type":"Landkreis"},"federalState":{"key":"08","name":"Baden-Württemberg"}},{"name":"Keltenstr.","postalCode":"86871","locality":"Rammingen","municipality":{"key":"09778209","name":"Rammingen","type":"Kreisangehörige_Gemeinde"},"district":{"key":"09778","name":"Unterallgäu","type":"Landkreis"},"federalState":{"key":"09","name":"Bayern"}},{"name":"Keltenweg","postalCode":"89192","locality":"Rammingen","municipality":{"key":"08425097","name":"Rammingen","type":"Kreisangehörige_Gemeinde"},"district":{"key":"08425","name":"Alb-Donau-Kreis","type":"Landkreis"},"federalState":{"key":"08","name":"Baden-Württemberg"}},{"name":"Kirchdorfer Feld","postalCode":"86871","locality":"Rammingen","municipality":{"key":"09778209","name":"Rammingen","type":"Kreisangehörige_Gemeinde"},"district":{"key":"09778","name":"Unterallgäu","type":"Landkreis"},"federalState":{"key":"09","name":"Bayern"}},{"name":"Kirchdorfer Weg","postalCode":"86871","locality":"Rammingen","municipality":{"key":"09778209","name":"Rammingen","type":"Kreisangehörige_Gemeinde"},"district":{"key":"09778","name":"Unterallgäu","type":"Landkreis"},"federalState":{"key":"09","name":"Bayern"}},{"name":"Kirchgasse","postalCode":"89192","locality":"Rammingen","municipality":{"key":"08425097","name":"Rammingen","type":"Kreisangehörige_Gemeinde"},"district":{"key":"08425","name":"Alb-Donau-Kreis","type":"Landkreis"},"federalState":{"key":"08","name":"Baden-Württemberg"}},{"name":"Kirchplatz","postalCode":"86871","locality":"Rammingen","municipality":{"key":"09778209","name":"Rammingen","type":"Kreisangehörige_Gemeinde"},"district":{"key":"09778","name":"Unterallgäu","type":"Landkreis"},"federalState":{"key":"09","name":"Bayern"}},{"name":"Kirchweg","postalCode":"86871","locality":"Rammingen","municipality":{"key":"09778209","name":"Rammingen","type":"Kreisangehörige_Gemeinde"},"district":{"key":"09778","name":"Unterallgäu","type":"Landkreis"},"federalState":{"key":"09","name":"Bayern"}},{"name":"Kreuzweg","postalCode":"89192","locality":"Rammingen","municipality":{"key":"08425097","name":"Rammingen","type":"Kreisangehörige_Gemeinde"},"district":{"key":"08425","name":"Alb-Donau-Kreis","type":"Landkreis"},"federalState":{"key":"08","name":"Baden-Württemberg"}},{"name":"Langenauer Str.","postalCode":"89192","locality":"Rammingen","municipality":{"key":"08425097","name":"Rammingen","type":"Kreisangehörige_Gemeinde"},"district":{"key":"08425","name":"Alb-Donau-Kreis","type":"Landkreis"},"federalState":{"key":"08","name":"Baden-Württemberg"}},{"name":"Lerchenweg","postalCode":"89192","locality":"Rammingen","municipality":{"key":"08425097","name":"Rammingen","type":"Kreisangehörige_Gemeinde"},"district":{"key":"08425","name":"Alb-Donau-Kreis","type":"Landkreis"},"federalState":{"key":"08","name":"Baden-Württemberg"}},{"name":"Lindenweg","postalCode":"86871","locality":"Rammingen","municipality":{"key":"09778209","name":"Rammingen","type":"Kreisangehörige_Gemeinde"},"district":{"key":"09778","name":"Unterallgäu","type":"Landkreis"},"federalState":{"key":"09","name":"Bayern"}},{"name":"Luitpold-Lipp-Weg","postalCode":"86871","locality":"Rammingen","municipality":{"key":"09778209","name":"Rammingen","type":"Kreisangehörige_Gemeinde"},"district":{"key":"09778","name":"Unterallgäu","type":"Landkreis"},"federalState":{"key":"09","name":"Bayern"}},{"name":"Marienweg","postalCode":"86871","locality":"Rammingen","municipality":{"key":"09778209","name":"Rammingen","type":"Kreisangehörige_Gemeinde"},"district":{"key":"09778","name":"Unterallgäu","type":"Landkreis"},"federalState":{"key":"09","name":"Bayern"}},{"name":"Marktzellweg","postalCode":"86871","locality":"Rammingen","municipality":{"key":"09778209","name":"Rammingen","type":"Kreisangehörige_Gemeinde"},"district":{"key":"09778","name":"Unterallgäu","type":"Landkreis"},"federalState":{"key":"09","name":"Bayern"}},{"name":"Martinsgasse","postalCode":"89192","locality":"Rammingen","municipality":{"key":"08425097","name":"Rammingen","type":"Kreisangehörige_Gemeinde"},"district":{"key":"08425","name":"Alb-Donau-Kreis","type":"Landkreis"},"federalState":{"key":"08","name":"Baden-Württemberg"}},{"name":"Mattsieser Str.","postalCode":"86871","locality":"Rammingen","municipality":{"key":"09778209","name":"Rammingen","type":"Kreisangehörige_Gemeinde"},"district":{"key":"09778","name":"Unterallgäu","type":"Landkreis"},"federalState":{"key":"09","name":"Bayern"}},{"name":"Mühlweg","postalCode":"86871","locality":"Rammingen","municipality":{"key":"09778209","name":"Rammingen","type":"Kreisangehörige_Gemeinde"},"district":{"key":"09778","name":"Unterallgäu","type":"Landkreis"},"federalState":{"key":"09","name":"Bayern"}},{"name":"Musikgasse","postalCode":"89192","locality":"Rammingen","municipality":{"key":"08425097","name":"Rammingen","type":"Kreisangehörige_Gemeinde"},"district":{"key":"08425","name":"Alb-Donau-Kreis","type":"Landkreis"},"federalState":{"key":"08","name":"Baden-Württemberg"}},{"name":"Pointweg","postalCode":"86871","locality":"Rammingen","municipality":{"key":"09778209","name":"Rammingen","type":"Kreisangehörige_Gemeinde"},"district":{"key":"09778","name":"Unterallgäu","type":"Landkreis"},"federalState":{"key":"09","name":"Bayern"}},{"name":"Rathausgasse","postalCode":"89192","locality":"Rammingen","municipality":{"key":"08425097","name":"Rammingen","type":"Kreisangehörige_Gemeinde"},"district":{"key":"08425","name":"Alb-Donau-Kreis","type":"Landkreis"},"federalState":{"key":"08","name":"Baden-Württemberg"}},{"name":"Riegestr.","postalCode":"89192","locality":"Rammingen","municipality":{"key":"08425097","name":"Rammingen","type":"Kreisangehörige_Gemeinde"},"district":{"key":"08425","name":"Alb-Donau-Kreis","type":"Landkreis"},"federalState":{"key":"08","name":"Baden-Württemberg"}},{"name":"Ringstr.","postalCode":"89192","locality":"Rammingen","municipality":{"key":"08425097","name":"Rammingen","type":"Kreisangehörige_Gemeinde"},"district":{"key":"08425","name":"Alb-Donau-Kreis","type":"Landkreis"},"federalState":{"key":"08","name":"Baden-Württemberg"}},{"name":"Rosengasse","postalCode":"89192","locality":"Rammingen","municipality":{"key":"08425097","name":"Rammingen","type":"Kreisangehörige_Gemeinde"},"district":{"key":"08425","name":"Alb-Donau-Kreis","type":"Landkreis"},"federalState":{"key":"08","name":"Baden-Württemberg"}},{"name":"Rötenburgstr.","postalCode":"89192","locality":"Rammingen","municipality":{"key":"08425097","name":"Rammingen","type":"Kreisangehörige_Gemeinde"},"district":{"key":"08425","name":"Alb-Donau-Kreis","type":"Landkreis"},"federalState":{"key":"08","name":"Baden-Württemberg"}},{"name":"Runsgraben","postalCode":"89192","locality":"Rammingen","municipality":{"key":"08425097","name":"Rammingen","type":"Kreisangehörige_Gemeinde"},"district":{"key":"08425","name":"Alb-Donau-Kreis","type":"Landkreis"},"federalState":{"key":"08","name":"Baden-Württemberg"}},{"name":"Runsweg","postalCode":"89192","locality":"Rammingen","municipality":{"key":"08425097","name":"Rammingen","type":"Kreisangehörige_Gemeinde"},"district":{"key":"08425","name":"Alb-Donau-Kreis","type":"Landkreis"},"federalState":{"key":"08","name":"Baden-Württemberg"}},{"name":"Schulstr.","postalCode":"86871","locality":"Rammingen","municipality":{"key":"09778209","name":"Rammingen","type":"Kreisangehörige_Gemeinde"},"district":{"key":"09778","name":"Unterallgäu","type":"Landkreis"},"federalState":{"key":"09","name":"Bayern"}},{"name":"Siedlungsstr.","postalCode":"89192","locality":"Rammingen","municipality":{"key":"08425097","name":"Rammingen","type":"Kreisangehörige_Gemeinde"},"district":{"key":"08425","name":"Alb-Donau-Kreis","type":"Landkreis"},"federalState":{"key":"08","name":"Baden-Württemberg"}},{"name":"Skyline-Park-Str.","postalCode":"86871","locality":"Rammingen","municipality":{"key":"09778209","name":"Rammingen","type":"Kreisangehörige_Gemeinde"},"district":{"key":"09778","name":"Unterallgäu","type":"Landkreis"},"federalState":{"key":"09","name":"Bayern"}},{"name":"Sonnengasse","postalCode":"89192","locality":"Rammingen","municipality":{"key":"08425097","name":"Rammingen","type":"Kreisangehörige_Gemeinde"},"district":{"key":"08425","name":"Alb-Donau-Kreis","type":"Landkreis"},"federalState":{"key":"08","name":"Baden-Württemberg"}},{"name":"Sudetenstr.","postalCode":"89192","locality":"Rammingen","municipality":{"key":"08425097","name":"Rammingen","type":"Kreisangehörige_Gemeinde"},"district":{"key":"08425","name":"Alb-Donau-Kreis","type":"Landkreis"},"federalState":{"key":"08","name":"Baden-Württemberg"}},{"name":"Türkheimer Str.","postalCode":"86871","locality":"Rammingen","municipality":{"key":"09778209","name":"Rammingen","type":"Kreisangehörige_Gemeinde"},"district":{"key":"09778","name":"Unterallgäu","type":"Landkreis"},"federalState":{"key":"09","name":"Bayern"}},{"name":"Türkheimer Weg","postalCode":"86871","locality":"Rammingen","municipality":{"key":"09778209","name":"Rammingen","type":"Kreisangehörige_Gemeinde"},"district":{"key":"09778","name":"Unterallgäu","type":"Landkreis"},"federalState":{"key":"09","name":"Bayern"}},{"name":"Tussenhausener Weg","postalCode":"86871","locality":"Rammingen","municipality":{"key":"09778209","name":"Rammingen","type":"Kreisangehörige_Gemeinde"},"district":{"key":"09778","name":"Unterallgäu","type":"Landkreis"},"federalState":{"key":"09","name":"Bayern"}},{"name":"Unterer Bahnhofsweg","postalCode":"86871","locality":"Rammingen","municipality":{"key":"09778209","name":"Rammingen","type":"Kreisangehörige_Gemeinde"},"district":{"key":"09778","name":"Unterallgäu","type":"Landkreis"},"federalState":{"key":"09","name":"Bayern"}},{"name":"Waldsiedlung","postalCode":"86871","locality":"Rammingen","municipality":{"key":"09778209","name":"Rammingen","type":"Kreisangehörige_Gemeinde"},"district":{"key":"09778","name":"Unterallgäu","type":"Landkreis"},"federalState":{"key":"09","name":"Bayern"}},{"name":"Waldweg","postalCode":"86871","locality":"Rammingen","municipality":{"key":"09778209","name":"Rammingen","type":"Kreisangehörige_Gemeinde"},"district":{"key":"09778","name":"Unterallgäu","type":"Landkreis"},"federalState":{"key":"09","name":"Bayern"}},{"name":"Weihergasse","postalCode":"89192","locality":"Rammingen","municipality":{"key":"08425097","name":"Rammingen","type":"Kreisangehörige_Gemeinde"},"district":{"key":"08425","name":"Alb-Donau-Kreis","type":"Landkreis"},"federalState":{"key":"08","name":"Baden-Württemberg"}},{"name":"Wiesenweg","postalCode":"86871","locality":"Rammingen","municipality":{"key":"09778209","name":"Rammingen","type":"Kreisangehörige_Gemeinde"},"district":{"key":"09778","name":"Unterallgäu","type":"Landkreis"},"federalState":{"key":"09","name":"Bayern"}},{"name":"Öllinger Str.","postalCode":"89192","locality":"Rammingen","municipality":{"key":"08425097","name":"Rammingen","type":"Kreisangehörige_Gemeinde"},"district":{"key":"08425","name":"Alb-Donau-Kreis","type":"Landkreis"},"federalState":{"key":"08","name":"Baden-Württemberg"}},]