[{"name":"Adenauerallee","postalCode":"49134","locality":"Wallenhorst","municipality":{"key":"03459033","name":"Wallenhorst","type":"Kreisangehörige_Gemeinde"},"district":{"key":"03459","name":"Osnabrück","type":"Landkreis"},"federalState":{"key":"03","name":"Niedersachsen"}},{"name":"Adlerweg","postalCode":"49134","locality":"Wallenhorst","municipality":{"key":"03459033","name":"Wallenhorst","type":"Kreisangehörige_Gemeinde"},"district":{"key":"03459","name":"Osnabrück","type":"Landkreis"},"federalState":{"key":"03","name":"Niedersachsen"}},{"name":"Ailastr.","postalCode":"96346","locality":"Wallenfels","municipality":{"key":"09476184","name":"Wallenfels, St","type":"Stadt"},"district":{"key":"09476","name":"Kronach","type":"Landkreis"},"federalState":{"key":"09","name":"Bayern"}},{"name":"Albert-Einstein-Str.","postalCode":"49134","locality":"Wallenhorst","municipality":{"key":"03459033","name":"Wallenhorst","type":"Kreisangehörige_Gemeinde"},"district":{"key":"03459","name":"Osnabrück","type":"Landkreis"},"federalState":{"key":"03","name":"Niedersachsen"}},{"name":"Alexander-von-Humboldt-Str.","postalCode":"49134","locality":"Wallenhorst","municipality":{"key":"03459033","name":"Wallenhorst","type":"Kreisangehörige_Gemeinde"},"district":{"key":"03459","name":"Osnabrück","type":"Landkreis"},"federalState":{"key":"03","name":"Niedersachsen"}},{"name":"Alfersstr.","postalCode":"49134","locality":"Wallenhorst","municipality":{"key":"03459033","name":"Wallenhorst","type":"Kreisangehörige_Gemeinde"},"district":{"key":"03459","name":"Osnabrück","type":"Landkreis"},"federalState":{"key":"03","name":"Niedersachsen"}},{"name":"Alfred-Delp-Str.","postalCode":"49134","locality":"Wallenhorst","municipality":{"key":"03459033","name":"Wallenhorst","type":"Kreisangehörige_Gemeinde"},"district":{"key":"03459","name":"Osnabrück","type":"Landkreis"},"federalState":{"key":"03","name":"Niedersachsen"}},{"name":"Alter Pyer Kirchweg","postalCode":"49134","locality":"Wallenhorst","municipality":{"key":"03459033","name":"Wallenhorst","type":"Kreisangehörige_Gemeinde"},"district":{"key":"03459","name":"Osnabrück","type":"Landkreis"},"federalState":{"key":"03","name":"Niedersachsen"}},{"name":"Am Allerswald","postalCode":"96346","locality":"Wallenfels","municipality":{"key":"09476184","name":"Wallenfels, St","type":"Stadt"},"district":{"key":"09476","name":"Kronach","type":"Landkreis"},"federalState":{"key":"09","name":"Bayern"}},{"name":"Am Bach","postalCode":"49134","locality":"Wallenhorst","municipality":{"key":"03459033","name":"Wallenhorst","type":"Kreisangehörige_Gemeinde"},"district":{"key":"03459","name":"Osnabrück","type":"Landkreis"},"federalState":{"key":"03","name":"Niedersachsen"}},{"name":"Am Bockholt","postalCode":"49134","locality":"Wallenhorst","municipality":{"key":"03459033","name":"Wallenhorst","type":"Kreisangehörige_Gemeinde"},"district":{"key":"03459","name":"Osnabrück","type":"Landkreis"},"federalState":{"key":"03","name":"Niedersachsen"}},{"name":"Am Bürgerpark","postalCode":"49134","locality":"Wallenhorst","municipality":{"key":"03459033","name":"Wallenhorst","type":"Kreisangehörige_Gemeinde"},"district":{"key":"03459","name":"Osnabrück","type":"Landkreis"},"federalState":{"key":"03","name":"Niedersachsen"}},{"name":"Am Dauwen Hof","postalCode":"49134","locality":"Wallenhorst","municipality":{"key":"03459033","name":"Wallenhorst","type":"Kreisangehörige_Gemeinde"},"district":{"key":"03459","name":"Osnabrück","type":"Landkreis"},"federalState":{"key":"03","name":"Niedersachsen"}},{"name":"Am Eichengrund","postalCode":"49134","locality":"Wallenhorst","municipality":{"key":"03459033","name":"Wallenhorst","type":"Kreisangehörige_Gemeinde"},"district":{"key":"03459","name":"Osnabrück","type":"Landkreis"},"federalState":{"key":"03","name":"Niedersachsen"}},{"name":"Am Eichholz","postalCode":"49134","locality":"Wallenhorst","municipality":{"key":"03459033","name":"Wallenhorst","type":"Kreisangehörige_Gemeinde"},"district":{"key":"03459","name":"Osnabrück","type":"Landkreis"},"federalState":{"key":"03","name":"Niedersachsen"}},{"name":"Am Exerzierplatz","postalCode":"49134","locality":"Wallenhorst","municipality":{"key":"03459033","name":"Wallenhorst","type":"Kreisangehörige_Gemeinde"},"district":{"key":"03459","name":"Osnabrück","type":"Landkreis"},"federalState":{"key":"03","name":"Niedersachsen"}},{"name":"Am Fallenholz","postalCode":"96346","locality":"Wallenfels","municipality":{"key":"09476184","name":"Wallenfels, St","type":"Stadt"},"district":{"key":"09476","name":"Kronach","type":"Landkreis"},"federalState":{"key":"09","name":"Bayern"}},{"name":"Am Fiesteler Bach","postalCode":"49134","locality":"Wallenhorst","municipality":{"key":"03459033","name":"Wallenhorst","type":"Kreisangehörige_Gemeinde"},"district":{"key":"03459","name":"Osnabrück","type":"Landkreis"},"federalState":{"key":"03","name":"Niedersachsen"}},{"name":"Am Forsthaus","postalCode":"49134","locality":"Wallenhorst","municipality":{"key":"03459033","name":"Wallenhorst","type":"Kreisangehörige_Gemeinde"},"district":{"key":"03459","name":"Osnabrück","type":"Landkreis"},"federalState":{"key":"03","name":"Niedersachsen"}},{"name":"Am Gemeindewehr","postalCode":"96346","locality":"Wallenfels","municipality":{"key":"09476184","name":"Wallenfels, St","type":"Stadt"},"district":{"key":"09476","name":"Kronach","type":"Landkreis"},"federalState":{"key":"09","name":"Bayern"}},{"name":"Am Haupthügel","postalCode":"49134","locality":"Wallenhorst","municipality":{"key":"03459033","name":"Wallenhorst","type":"Kreisangehörige_Gemeinde"},"district":{"key":"03459","name":"Osnabrück","type":"Landkreis"},"federalState":{"key":"03","name":"Niedersachsen"}},{"name":"Am Heerweg","postalCode":"49134","locality":"Wallenhorst","municipality":{"key":"03459033","name":"Wallenhorst","type":"Kreisangehörige_Gemeinde"},"district":{"key":"03459","name":"Osnabrück","type":"Landkreis"},"federalState":{"key":"03","name":"Niedersachsen"}},{"name":"Am Hollager Berg","postalCode":"49134","locality":"Wallenhorst","municipality":{"key":"03459033","name":"Wallenhorst","type":"Kreisangehörige_Gemeinde"},"district":{"key":"03459","name":"Osnabrück","type":"Landkreis"},"federalState":{"key":"03","name":"Niedersachsen"}},{"name":"Am Josefsplatz","postalCode":"49134","locality":"Wallenhorst","municipality":{"key":"03459033","name":"Wallenhorst","type":"Kreisangehörige_Gemeinde"},"district":{"key":"03459","name":"Osnabrück","type":"Landkreis"},"federalState":{"key":"03","name":"Niedersachsen"}},{"name":"Am Kanal","postalCode":"49134","locality":"Wallenhorst","municipality":{"key":"03459033","name":"Wallenhorst","type":"Kreisangehörige_Gemeinde"},"district":{"key":"03459","name":"Osnabrück","type":"Landkreis"},"federalState":{"key":"03","name":"Niedersachsen"}},{"name":"Am Mühlenbach","postalCode":"49134","locality":"Wallenhorst","municipality":{"key":"03459033","name":"Wallenhorst","type":"Kreisangehörige_Gemeinde"},"district":{"key":"03459","name":"Osnabrück","type":"Landkreis"},"federalState":{"key":"03","name":"Niedersachsen"}},{"name":"Am Pingelstrang","postalCode":"49134","locality":"Wallenhorst","municipality":{"key":"03459033","name":"Wallenhorst","type":"Kreisangehörige_Gemeinde"},"district":{"key":"03459","name":"Osnabrück","type":"Landkreis"},"federalState":{"key":"03","name":"Niedersachsen"}},{"name":"Am Reupoldsberg","postalCode":"96346","locality":"Wallenfels","municipality":{"key":"09476184","name":"Wallenfels, St","type":"Stadt"},"district":{"key":"09476","name":"Kronach","type":"Landkreis"},"federalState":{"key":"09","name":"Bayern"}},{"name":"am Reupolsberg","postalCode":"96346","locality":"Wallenfels","municipality":{"key":"09476184","name":"Wallenfels, St","type":"Stadt"},"district":{"key":"09476","name":"Kronach","type":"Landkreis"},"federalState":{"key":"09","name":"Bayern"}},{"name":"Am Roten Hügel","postalCode":"49134","locality":"Wallenhorst","municipality":{"key":"03459033","name":"Wallenhorst","type":"Kreisangehörige_Gemeinde"},"district":{"key":"03459","name":"Osnabrück","type":"Landkreis"},"federalState":{"key":"03","name":"Niedersachsen"}},{"name":"Am Schloßberg","postalCode":"96346","locality":"Wallenfels","municipality":{"key":"09476184","name":"Wallenfels, St","type":"Stadt"},"district":{"key":"09476","name":"Kronach","type":"Landkreis"},"federalState":{"key":"09","name":"Bayern"}},{"name":"Amselweg","postalCode":"49134","locality":"Wallenhorst","municipality":{"key":"03459033","name":"Wallenhorst","type":"Kreisangehörige_Gemeinde"},"district":{"key":"03459","name":"Osnabrück","type":"Landkreis"},"federalState":{"key":"03","name":"Niedersachsen"}},{"name":"Am Spielplatz","postalCode":"49134","locality":"Wallenhorst","municipality":{"key":"03459033","name":"Wallenhorst","type":"Kreisangehörige_Gemeinde"},"district":{"key":"03459","name":"Osnabrück","type":"Landkreis"},"federalState":{"key":"03","name":"Niedersachsen"}},{"name":"Am Tanganger","postalCode":"96346","locality":"Wallenfels","municipality":{"key":"09476184","name":"Wallenfels, St","type":"Stadt"},"district":{"key":"09476","name":"Kronach","type":"Landkreis"},"federalState":{"key":"09","name":"Bayern"}},{"name":"Am Waldschlößchen","postalCode":"49134","locality":"Wallenhorst","municipality":{"key":"03459033","name":"Wallenhorst","type":"Kreisangehörige_Gemeinde"},"district":{"key":"03459","name":"Osnabrück","type":"Landkreis"},"federalState":{"key":"03","name":"Niedersachsen"}},{"name":"An der Dörnte","postalCode":"49134","locality":"Wallenhorst","municipality":{"key":"03459033","name":"Wallenhorst","type":"Kreisangehörige_Gemeinde"},"district":{"key":"03459","name":"Osnabrück","type":"Landkreis"},"federalState":{"key":"03","name":"Niedersachsen"}},{"name":"An der Halde","postalCode":"49134","locality":"Wallenhorst","municipality":{"key":"03459033","name":"Wallenhorst","type":"Kreisangehörige_Gemeinde"},"district":{"key":"03459","name":"Osnabrück","type":"Landkreis"},"federalState":{"key":"03","name":"Niedersachsen"}},{"name":"An der Sandgrube","postalCode":"49134","locality":"Wallenhorst","municipality":{"key":"03459033","name":"Wallenhorst","type":"Kreisangehörige_Gemeinde"},"district":{"key":"03459","name":"Osnabrück","type":"Landkreis"},"federalState":{"key":"03","name":"Niedersachsen"}},{"name":"Angerstr.","postalCode":"96346","locality":"Wallenfels","municipality":{"key":"09476184","name":"Wallenfels, St","type":"Stadt"},"district":{"key":"09476","name":"Kronach","type":"Landkreis"},"federalState":{"key":"09","name":"Bayern"}},{"name":"Annastr.","postalCode":"49134","locality":"Wallenhorst","municipality":{"key":"03459033","name":"Wallenhorst","type":"Kreisangehörige_Gemeinde"},"district":{"key":"03459","name":"Osnabrück","type":"Landkreis"},"federalState":{"key":"03","name":"Niedersachsen"}},{"name":"Anne-Frank-Str.","postalCode":"49134","locality":"Wallenhorst","municipality":{"key":"03459033","name":"Wallenhorst","type":"Kreisangehörige_Gemeinde"},"district":{"key":"03459","name":"Osnabrück","type":"Landkreis"},"federalState":{"key":"03","name":"Niedersachsen"}},{"name":"Annette-Kolb-Str.","postalCode":"49134","locality":"Wallenhorst","municipality":{"key":"03459033","name":"Wallenhorst","type":"Kreisangehörige_Gemeinde"},"district":{"key":"03459","name":"Osnabrück","type":"Landkreis"},"federalState":{"key":"03","name":"Niedersachsen"}},{"name":"Ansgarstr.","postalCode":"49134","locality":"Wallenhorst","municipality":{"key":"03459033","name":"Wallenhorst","type":"Kreisangehörige_Gemeinde"},"district":{"key":"03459","name":"Osnabrück","type":"Landkreis"},"federalState":{"key":"03","name":"Niedersachsen"}},{"name":"Anton-Storch-Str.","postalCode":"49134","locality":"Wallenhorst","municipality":{"key":"03459033","name":"Wallenhorst","type":"Kreisangehörige_Gemeinde"},"district":{"key":"03459","name":"Osnabrück","type":"Landkreis"},"federalState":{"key":"03","name":"Niedersachsen"}},{"name":"Arboretum Piesberg","postalCode":"49134","locality":"Wallenhorst","municipality":{"key":"03459033","name":"Wallenhorst","type":"Kreisangehörige_Gemeinde"},"district":{"key":"03459","name":"Osnabrück","type":"Landkreis"},"federalState":{"key":"03","name":"Niedersachsen"}},{"name":"Asternstr.","postalCode":"49134","locality":"Wallenhorst","municipality":{"key":"03459033","name":"Wallenhorst","type":"Kreisangehörige_Gemeinde"},"district":{"key":"03459","name":"Osnabrück","type":"Landkreis"},"federalState":{"key":"03","name":"Niedersachsen"}},{"name":"Auenstr.","postalCode":"96346","locality":"Wallenfels","municipality":{"key":"09476184","name":"Wallenfels, St","type":"Stadt"},"district":{"key":"09476","name":"Kronach","type":"Landkreis"},"federalState":{"key":"09","name":"Bayern"}},{"name":"Auf dem Hügel","postalCode":"49134","locality":"Wallenhorst","municipality":{"key":"03459033","name":"Wallenhorst","type":"Kreisangehörige_Gemeinde"},"district":{"key":"03459","name":"Osnabrück","type":"Landkreis"},"federalState":{"key":"03","name":"Niedersachsen"}},{"name":"Auf der Limmert","postalCode":"49134","locality":"Wallenhorst","municipality":{"key":"03459033","name":"Wallenhorst","type":"Kreisangehörige_Gemeinde"},"district":{"key":"03459","name":"Osnabrück","type":"Landkreis"},"federalState":{"key":"03","name":"Niedersachsen"}},{"name":"Auf Renzelbach","postalCode":"54570","locality":"Wallenborn","municipality":{"key":"07233079","name":"Wallenborn","type":"Kreisangehörige_Gemeinde"},"district":{"key":"07233","name":"Vulkaneifel","type":"Landkreis"},"federalState":{"key":"07","name":"Rheinland-Pfalz"}},{"name":"Bahnhofstr.","postalCode":"96346","locality":"Wallenfels","municipality":{"key":"09476184","name":"Wallenfels, St","type":"Stadt"},"district":{"key":"09476","name":"Kronach","type":"Landkreis"},"federalState":{"key":"09","name":"Bayern"}},{"name":"Barlager Mühlenweg","postalCode":"49134","locality":"Wallenhorst","municipality":{"key":"03459033","name":"Wallenhorst","type":"Kreisangehörige_Gemeinde"},"district":{"key":"03459","name":"Osnabrück","type":"Landkreis"},"federalState":{"key":"03","name":"Niedersachsen"}},{"name":"Beethovenstr.","postalCode":"49134","locality":"Wallenhorst","municipality":{"key":"03459033","name":"Wallenhorst","type":"Kreisangehörige_Gemeinde"},"district":{"key":"03459","name":"Osnabrück","type":"Landkreis"},"federalState":{"key":"03","name":"Niedersachsen"}},{"name":"Bennostr.","postalCode":"49134","locality":"Wallenhorst","municipality":{"key":"03459033","name":"Wallenhorst","type":"Kreisangehörige_Gemeinde"},"district":{"key":"03459","name":"Osnabrück","type":"Landkreis"},"federalState":{"key":"03","name":"Niedersachsen"}},{"name":"Berggarten","postalCode":"49134","locality":"Wallenhorst","municipality":{"key":"03459033","name":"Wallenhorst","type":"Kreisangehörige_Gemeinde"},"district":{"key":"03459","name":"Osnabrück","type":"Landkreis"},"federalState":{"key":"03","name":"Niedersachsen"}},{"name":"Bergmannstr.","postalCode":"49134","locality":"Wallenhorst","municipality":{"key":"03459033","name":"Wallenhorst","type":"Kreisangehörige_Gemeinde"},"district":{"key":"03459","name":"Osnabrück","type":"Landkreis"},"federalState":{"key":"03","name":"Niedersachsen"}},{"name":"Bergstr.","postalCode":"49134","locality":"Wallenhorst","municipality":{"key":"03459033","name":"Wallenhorst","type":"Kreisangehörige_Gemeinde"},"district":{"key":"03459","name":"Osnabrück","type":"Landkreis"},"federalState":{"key":"03","name":"Niedersachsen"}},{"name":"Bergstr.","postalCode":"54675","locality":"Wallendorf","municipality":{"key":"07232131","name":"Wallendorf","type":"Kreisangehörige_Gemeinde"},"district":{"key":"07232","name":"Eifelkreis Bitburg-Prüm","type":"Landkreis"},"federalState":{"key":"07","name":"Rheinland-Pfalz"}},{"name":"Berliner Str.","postalCode":"49134","locality":"Wallenhorst","municipality":{"key":"03459033","name":"Wallenhorst","type":"Kreisangehörige_Gemeinde"},"district":{"key":"03459","name":"Osnabrück","type":"Landkreis"},"federalState":{"key":"03","name":"Niedersachsen"}},{"name":"Bernard-Höting-Str.","postalCode":"49134","locality":"Wallenhorst","municipality":{"key":"03459033","name":"Wallenhorst","type":"Kreisangehörige_Gemeinde"},"district":{"key":"03459","name":"Osnabrück","type":"Landkreis"},"federalState":{"key":"03","name":"Niedersachsen"}},{"name":"Bernhard-Schopmeyer-Str.","postalCode":"49134","locality":"Wallenhorst","municipality":{"key":"03459033","name":"Wallenhorst","type":"Kreisangehörige_Gemeinde"},"district":{"key":"03459","name":"Osnabrück","type":"Landkreis"},"federalState":{"key":"03","name":"Niedersachsen"}},{"name":"Berningstr.","postalCode":"49134","locality":"Wallenhorst","municipality":{"key":"03459033","name":"Wallenhorst","type":"Kreisangehörige_Gemeinde"},"district":{"key":"03459","name":"Osnabrück","type":"Landkreis"},"federalState":{"key":"03","name":"Niedersachsen"}},{"name":"Berta-Karlik-Str.","postalCode":"49134","locality":"Wallenhorst","municipality":{"key":"03459033","name":"Wallenhorst","type":"Kreisangehörige_Gemeinde"},"district":{"key":"03459","name":"Osnabrück","type":"Landkreis"},"federalState":{"key":"03","name":"Niedersachsen"}},{"name":"Bertha-von-Suttner-Str.","postalCode":"49134","locality":"Wallenhorst","municipality":{"key":"03459033","name":"Wallenhorst","type":"Kreisangehörige_Gemeinde"},"district":{"key":"03459","name":"Osnabrück","type":"Landkreis"},"federalState":{"key":"03","name":"Niedersachsen"}},{"name":"Birkenweg","postalCode":"49134","locality":"Wallenhorst","municipality":{"key":"03459033","name":"Wallenhorst","type":"Kreisangehörige_Gemeinde"},"district":{"key":"03459","name":"Osnabrück","type":"Landkreis"},"federalState":{"key":"03","name":"Niedersachsen"}},{"name":"Bismarckstr.","postalCode":"49134","locality":"Wallenhorst","municipality":{"key":"03459033","name":"Wallenhorst","type":"Kreisangehörige_Gemeinde"},"district":{"key":"03459","name":"Osnabrück","type":"Landkreis"},"federalState":{"key":"03","name":"Niedersachsen"}},{"name":"Blumenmorgen","postalCode":"49134","locality":"Wallenhorst","municipality":{"key":"03459033","name":"Wallenhorst","type":"Kreisangehörige_Gemeinde"},"district":{"key":"03459","name":"Osnabrück","type":"Landkreis"},"federalState":{"key":"03","name":"Niedersachsen"}},{"name":"Blumenstr.","postalCode":"49134","locality":"Wallenhorst","municipality":{"key":"03459033","name":"Wallenhorst","type":"Kreisangehörige_Gemeinde"},"district":{"key":"03459","name":"Osnabrück","type":"Landkreis"},"federalState":{"key":"03","name":"Niedersachsen"}},{"name":"Boeckerstr.","postalCode":"49134","locality":"Wallenhorst","municipality":{"key":"03459033","name":"Wallenhorst","type":"Kreisangehörige_Gemeinde"},"district":{"key":"03459","name":"Osnabrück","type":"Landkreis"},"federalState":{"key":"03","name":"Niedersachsen"}},{"name":"Boerskamp","postalCode":"49134","locality":"Wallenhorst","municipality":{"key":"03459033","name":"Wallenhorst","type":"Kreisangehörige_Gemeinde"},"district":{"key":"03459","name":"Osnabrück","type":"Landkreis"},"federalState":{"key":"03","name":"Niedersachsen"}},{"name":"Bramheide","postalCode":"49134","locality":"Wallenhorst","municipality":{"key":"03459033","name":"Wallenhorst","type":"Kreisangehörige_Gemeinde"},"district":{"key":"03459","name":"Osnabrück","type":"Landkreis"},"federalState":{"key":"03","name":"Niedersachsen"}},{"name":"Breite Riede","postalCode":"49134","locality":"Wallenhorst","municipality":{"key":"03459033","name":"Wallenhorst","type":"Kreisangehörige_Gemeinde"},"district":{"key":"03459","name":"Osnabrück","type":"Landkreis"},"federalState":{"key":"03","name":"Niedersachsen"}},{"name":"Breslauer Str.","postalCode":"49134","locality":"Wallenhorst","municipality":{"key":"03459033","name":"Wallenhorst","type":"Kreisangehörige_Gemeinde"},"district":{"key":"03459","name":"Osnabrück","type":"Landkreis"},"federalState":{"key":"03","name":"Niedersachsen"}},{"name":"Brinkstr.","postalCode":"49134","locality":"Wallenhorst","municipality":{"key":"03459033","name":"Wallenhorst","type":"Kreisangehörige_Gemeinde"},"district":{"key":"03459","name":"Osnabrück","type":"Landkreis"},"federalState":{"key":"03","name":"Niedersachsen"}},{"name":"Brunings Kamp","postalCode":"49134","locality":"Wallenhorst","municipality":{"key":"03459033","name":"Wallenhorst","type":"Kreisangehörige_Gemeinde"},"district":{"key":"03459","name":"Osnabrück","type":"Landkreis"},"federalState":{"key":"03","name":"Niedersachsen"}},{"name":"Brunnenstr.","postalCode":"54675","locality":"Wallendorf","municipality":{"key":"07232131","name":"Wallendorf","type":"Kreisangehörige_Gemeinde"},"district":{"key":"07232","name":"Eifelkreis Bitburg-Prüm","type":"Landkreis"},"federalState":{"key":"07","name":"Rheinland-Pfalz"}},{"name":"Brunnenweg","postalCode":"49134","locality":"Wallenhorst","municipality":{"key":"03459033","name":"Wallenhorst","type":"Kreisangehörige_Gemeinde"},"district":{"key":"03459","name":"Osnabrück","type":"Landkreis"},"federalState":{"key":"03","name":"Niedersachsen"}},{"name":"Brunnenweg","postalCode":"54570","locality":"Wallenborn","municipality":{"key":"07233079","name":"Wallenborn","type":"Kreisangehörige_Gemeinde"},"district":{"key":"07233","name":"Vulkaneifel","type":"Landkreis"},"federalState":{"key":"07","name":"Rheinland-Pfalz"}},{"name":"Buchgarten","postalCode":"49134","locality":"Wallenhorst","municipality":{"key":"03459033","name":"Wallenhorst","type":"Kreisangehörige_Gemeinde"},"district":{"key":"03459","name":"Osnabrück","type":"Landkreis"},"federalState":{"key":"03","name":"Niedersachsen"}},{"name":"Castellweg","postalCode":"54675","locality":"Wallendorf","municipality":{"key":"07232131","name":"Wallendorf","type":"Kreisangehörige_Gemeinde"},"district":{"key":"07232","name":"Eifelkreis Bitburg-Prüm","type":"Landkreis"},"federalState":{"key":"07","name":"Rheinland-Pfalz"}},{"name":"Charlottenburger Str.","postalCode":"49134","locality":"Wallenhorst","municipality":{"key":"03459033","name":"Wallenhorst","type":"Kreisangehörige_Gemeinde"},"district":{"key":"03459","name":"Osnabrück","type":"Landkreis"},"federalState":{"key":"03","name":"Niedersachsen"}},{"name":"Cranachstr.","postalCode":"49134","locality":"Wallenhorst","municipality":{"key":"03459033","name":"Wallenhorst","type":"Kreisangehörige_Gemeinde"},"district":{"key":"03459","name":"Osnabrück","type":"Landkreis"},"federalState":{"key":"03","name":"Niedersachsen"}},{"name":"Dahlienstr.","postalCode":"49134","locality":"Wallenhorst","municipality":{"key":"03459033","name":"Wallenhorst","type":"Kreisangehörige_Gemeinde"},"district":{"key":"03459","name":"Osnabrück","type":"Landkreis"},"federalState":{"key":"03","name":"Niedersachsen"}},{"name":"Daimler-Benz-Str.","postalCode":"49134","locality":"Wallenhorst","municipality":{"key":"03459033","name":"Wallenhorst","type":"Kreisangehörige_Gemeinde"},"district":{"key":"03459","name":"Osnabrück","type":"Landkreis"},"federalState":{"key":"03","name":"Niedersachsen"}},{"name":"Danziger Str.","postalCode":"49134","locality":"Wallenhorst","municipality":{"key":"03459033","name":"Wallenhorst","type":"Kreisangehörige_Gemeinde"},"district":{"key":"03459","name":"Osnabrück","type":"Landkreis"},"federalState":{"key":"03","name":"Niedersachsen"}},{"name":"Die Fechtn","postalCode":"96346","locality":"Wallenfels","municipality":{"key":"09476184","name":"Wallenfels, St","type":"Stadt"},"district":{"key":"09476","name":"Kronach","type":"Landkreis"},"federalState":{"key":"09","name":"Bayern"}},{"name":"Dietrich-Bonhoeffer-Str.","postalCode":"49134","locality":"Wallenhorst","municipality":{"key":"03459033","name":"Wallenhorst","type":"Kreisangehörige_Gemeinde"},"district":{"key":"03459","name":"Osnabrück","type":"Landkreis"},"federalState":{"key":"03","name":"Niedersachsen"}},{"name":"Dorfstr.","postalCode":"25788","locality":"Wallen","municipality":{"key":"01051120","name":"Wallen","type":"Kreisangehörige_Gemeinde"},"district":{"key":"01051","name":"Dithmarschen","type":"Kreis"},"federalState":{"key":"01","name":"Schleswig-Holstein"}},{"name":"Dörnter Weg","postalCode":"49134","locality":"Wallenhorst","municipality":{"key":"03459033","name":"Wallenhorst","type":"Kreisangehörige_Gemeinde"},"district":{"key":"03459","name":"Osnabrück","type":"Landkreis"},"federalState":{"key":"03","name":"Niedersachsen"}},{"name":"Dresdener Str.","postalCode":"49134","locality":"Wallenhorst","municipality":{"key":"03459033","name":"Wallenhorst","type":"Kreisangehörige_Gemeinde"},"district":{"key":"03459","name":"Osnabrück","type":"Landkreis"},"federalState":{"key":"03","name":"Niedersachsen"}},{"name":"Drosselweg","postalCode":"49134","locality":"Wallenhorst","municipality":{"key":"03459033","name":"Wallenhorst","type":"Kreisangehörige_Gemeinde"},"district":{"key":"03459","name":"Osnabrück","type":"Landkreis"},"federalState":{"key":"03","name":"Niedersachsen"}},{"name":"Drostestr.","postalCode":"49134","locality":"Wallenhorst","municipality":{"key":"03459033","name":"Wallenhorst","type":"Kreisangehörige_Gemeinde"},"district":{"key":"03459","name":"Osnabrück","type":"Landkreis"},"federalState":{"key":"03","name":"Niedersachsen"}},{"name":"Dürerstr.","postalCode":"49134","locality":"Wallenhorst","municipality":{"key":"03459033","name":"Wallenhorst","type":"Kreisangehörige_Gemeinde"},"district":{"key":"03459","name":"Osnabrück","type":"Landkreis"},"federalState":{"key":"03","name":"Niedersachsen"}},{"name":"Dütestr.","postalCode":"49134","locality":"Wallenhorst","municipality":{"key":"03459033","name":"Wallenhorst","type":"Kreisangehörige_Gemeinde"},"district":{"key":"03459","name":"Osnabrück","type":"Landkreis"},"federalState":{"key":"03","name":"Niedersachsen"}},{"name":"Edith-Stein-Str.","postalCode":"49134","locality":"Wallenhorst","municipality":{"key":"03459033","name":"Wallenhorst","type":"Kreisangehörige_Gemeinde"},"district":{"key":"03459","name":"Osnabrück","type":"Landkreis"},"federalState":{"key":"03","name":"Niedersachsen"}},{"name":"Egbersstr.","postalCode":"49134","locality":"Wallenhorst","municipality":{"key":"03459033","name":"Wallenhorst","type":"Kreisangehörige_Gemeinde"},"district":{"key":"03459","name":"Osnabrück","type":"Landkreis"},"federalState":{"key":"03","name":"Niedersachsen"}},{"name":"Eibenweg","postalCode":"49134","locality":"Wallenhorst","municipality":{"key":"03459033","name":"Wallenhorst","type":"Kreisangehörige_Gemeinde"},"district":{"key":"03459","name":"Osnabrück","type":"Landkreis"},"federalState":{"key":"03","name":"Niedersachsen"}},{"name":"Eichenstr.","postalCode":"49134","locality":"Wallenhorst","municipality":{"key":"03459033","name":"Wallenhorst","type":"Kreisangehörige_Gemeinde"},"district":{"key":"03459","name":"Osnabrück","type":"Landkreis"},"federalState":{"key":"03","name":"Niedersachsen"}},{"name":"Elbestr.","postalCode":"49134","locality":"Wallenhorst","municipality":{"key":"03459033","name":"Wallenhorst","type":"Kreisangehörige_Gemeinde"},"district":{"key":"03459","name":"Osnabrück","type":"Landkreis"},"federalState":{"key":"03","name":"Niedersachsen"}},{"name":"Elfriede-Scholz-Str.","postalCode":"49134","locality":"Wallenhorst","municipality":{"key":"03459033","name":"Wallenhorst","type":"Kreisangehörige_Gemeinde"},"district":{"key":"03459","name":"Osnabrück","type":"Landkreis"},"federalState":{"key":"03","name":"Niedersachsen"}},{"name":"Elisabeth-Landmann-Str.","postalCode":"49134","locality":"Wallenhorst","municipality":{"key":"03459033","name":"Wallenhorst","type":"Kreisangehörige_Gemeinde"},"district":{"key":"03459","name":"Osnabrück","type":"Landkreis"},"federalState":{"key":"03","name":"Niedersachsen"}},{"name":"Ellingweg","postalCode":"49134","locality":"Wallenhorst","municipality":{"key":"03459033","name":"Wallenhorst","type":"Kreisangehörige_Gemeinde"},"district":{"key":"03459","name":"Osnabrück","type":"Landkreis"},"federalState":{"key":"03","name":"Niedersachsen"}},{"name":"Elsterweg","postalCode":"49134","locality":"Wallenhorst","municipality":{"key":"03459033","name":"Wallenhorst","type":"Kreisangehörige_Gemeinde"},"district":{"key":"03459","name":"Osnabrück","type":"Landkreis"},"federalState":{"key":"03","name":"Niedersachsen"}},{"name":"Emsstr.","postalCode":"49134","locality":"Wallenhorst","municipality":{"key":"03459033","name":"Wallenhorst","type":"Kreisangehörige_Gemeinde"},"district":{"key":"03459","name":"Osnabrück","type":"Landkreis"},"federalState":{"key":"03","name":"Niedersachsen"}},{"name":"Engter Str.","postalCode":"49134","locality":"Wallenhorst","municipality":{"key":"03459033","name":"Wallenhorst","type":"Kreisangehörige_Gemeinde"},"district":{"key":"03459","name":"Osnabrück","type":"Landkreis"},"federalState":{"key":"03","name":"Niedersachsen"}},{"name":"Erftenbecksweg","postalCode":"49134","locality":"Wallenhorst","municipality":{"key":"03459033","name":"Wallenhorst","type":"Kreisangehörige_Gemeinde"},"district":{"key":"03459","name":"Osnabrück","type":"Landkreis"},"federalState":{"key":"03","name":"Niedersachsen"}},{"name":"Erlengrund","postalCode":"49134","locality":"Wallenhorst","municipality":{"key":"03459033","name":"Wallenhorst","type":"Kreisangehörige_Gemeinde"},"district":{"key":"03459","name":"Osnabrück","type":"Landkreis"},"federalState":{"key":"03","name":"Niedersachsen"}},{"name":"Ermländer Str.","postalCode":"49134","locality":"Wallenhorst","municipality":{"key":"03459033","name":"Wallenhorst","type":"Kreisangehörige_Gemeinde"},"district":{"key":"03459","name":"Osnabrück","type":"Landkreis"},"federalState":{"key":"03","name":"Niedersachsen"}},{"name":"Eschweg","postalCode":"49134","locality":"Wallenhorst","municipality":{"key":"03459033","name":"Wallenhorst","type":"Kreisangehörige_Gemeinde"},"district":{"key":"03459","name":"Osnabrück","type":"Landkreis"},"federalState":{"key":"03","name":"Niedersachsen"}},{"name":"Falkenring","postalCode":"49134","locality":"Wallenhorst","municipality":{"key":"03459033","name":"Wallenhorst","type":"Kreisangehörige_Gemeinde"},"district":{"key":"03459","name":"Osnabrück","type":"Landkreis"},"federalState":{"key":"03","name":"Niedersachsen"}},{"name":"Fasanenweg","postalCode":"49134","locality":"Wallenhorst","municipality":{"key":"03459033","name":"Wallenhorst","type":"Kreisangehörige_Gemeinde"},"district":{"key":"03459","name":"Osnabrück","type":"Landkreis"},"federalState":{"key":"03","name":"Niedersachsen"}},{"name":"Feuerbachstr.","postalCode":"49134","locality":"Wallenhorst","municipality":{"key":"03459033","name":"Wallenhorst","type":"Kreisangehörige_Gemeinde"},"district":{"key":"03459","name":"Osnabrück","type":"Landkreis"},"federalState":{"key":"03","name":"Niedersachsen"}},{"name":"Fiesteler Str.","postalCode":"49134","locality":"Wallenhorst","municipality":{"key":"03459033","name":"Wallenhorst","type":"Kreisangehörige_Gemeinde"},"district":{"key":"03459","name":"Osnabrück","type":"Landkreis"},"federalState":{"key":"03","name":"Niedersachsen"}},{"name":"Finkennest","postalCode":"49134","locality":"Wallenhorst","municipality":{"key":"03459033","name":"Wallenhorst","type":"Kreisangehörige_Gemeinde"},"district":{"key":"03459","name":"Osnabrück","type":"Landkreis"},"federalState":{"key":"03","name":"Niedersachsen"}},{"name":"Flachshütte","postalCode":"49134","locality":"Wallenhorst","municipality":{"key":"03459033","name":"Wallenhorst","type":"Kreisangehörige_Gemeinde"},"district":{"key":"03459","name":"Osnabrück","type":"Landkreis"},"federalState":{"key":"03","name":"Niedersachsen"}},{"name":"Fliederstr.","postalCode":"49134","locality":"Wallenhorst","municipality":{"key":"03459033","name":"Wallenhorst","type":"Kreisangehörige_Gemeinde"},"district":{"key":"03459","name":"Osnabrück","type":"Landkreis"},"federalState":{"key":"03","name":"Niedersachsen"}},{"name":"Frankensteiner Str.","postalCode":"49134","locality":"Wallenhorst","municipality":{"key":"03459033","name":"Wallenhorst","type":"Kreisangehörige_Gemeinde"},"district":{"key":"03459","name":"Osnabrück","type":"Landkreis"},"federalState":{"key":"03","name":"Niedersachsen"}},{"name":"Frankenstr.","postalCode":"54675","locality":"Wallendorf","municipality":{"key":"07232131","name":"Wallendorf","type":"Kreisangehörige_Gemeinde"},"district":{"key":"07232","name":"Eifelkreis Bitburg-Prüm","type":"Landkreis"},"federalState":{"key":"07","name":"Rheinland-Pfalz"}},{"name":"Frankenwaldstr.","postalCode":"96346","locality":"Wallenfels","municipality":{"key":"09476184","name":"Wallenfels, St","type":"Stadt"},"district":{"key":"09476","name":"Kronach","type":"Landkreis"},"federalState":{"key":"09","name":"Bayern"}},{"name":"Franksmannstr.","postalCode":"49134","locality":"Wallenhorst","municipality":{"key":"03459033","name":"Wallenhorst","type":"Kreisangehörige_Gemeinde"},"district":{"key":"03459","name":"Osnabrück","type":"Landkreis"},"federalState":{"key":"03","name":"Niedersachsen"}},{"name":"Freiherr-vom-Stein-Str.","postalCode":"49134","locality":"Wallenhorst","municipality":{"key":"03459033","name":"Wallenhorst","type":"Kreisangehörige_Gemeinde"},"district":{"key":"03459","name":"Osnabrück","type":"Landkreis"},"federalState":{"key":"03","name":"Niedersachsen"}},{"name":"Friedhofsweg","postalCode":"54570","locality":"Wallenborn","municipality":{"key":"07233079","name":"Wallenborn","type":"Kreisangehörige_Gemeinde"},"district":{"key":"07233","name":"Vulkaneifel","type":"Landkreis"},"federalState":{"key":"07","name":"Rheinland-Pfalz"}},{"name":"Fröbelstr.","postalCode":"49134","locality":"Wallenhorst","municipality":{"key":"03459033","name":"Wallenhorst","type":"Kreisangehörige_Gemeinde"},"district":{"key":"03459","name":"Osnabrück","type":"Landkreis"},"federalState":{"key":"03","name":"Niedersachsen"}},{"name":"Fürstenauer Weg","postalCode":"49134","locality":"Wallenhorst","municipality":{"key":"03459033","name":"Wallenhorst","type":"Kreisangehörige_Gemeinde"},"district":{"key":"03459","name":"Osnabrück","type":"Landkreis"},"federalState":{"key":"03","name":"Niedersachsen"}},{"name":"Garten Rudolf Pagenstecher","postalCode":"49134","locality":"Wallenhorst","municipality":{"key":"03459033","name":"Wallenhorst","type":"Kreisangehörige_Gemeinde"},"district":{"key":"03459","name":"Osnabrück","type":"Landkreis"},"federalState":{"key":"03","name":"Niedersachsen"}},{"name":"Gartenstr.","postalCode":"49134","locality":"Wallenhorst","municipality":{"key":"03459033","name":"Wallenhorst","type":"Kreisangehörige_Gemeinde"},"district":{"key":"03459","name":"Osnabrück","type":"Landkreis"},"federalState":{"key":"03","name":"Niedersachsen"}},{"name":"Genovevastr.","postalCode":"54675","locality":"Wallendorf","municipality":{"key":"07232131","name":"Wallendorf","type":"Kreisangehörige_Gemeinde"},"district":{"key":"07232","name":"Eifelkreis Bitburg-Prüm","type":"Landkreis"},"federalState":{"key":"07","name":"Rheinland-Pfalz"}},{"name":"Georg-Budke-Str.","postalCode":"49134","locality":"Wallenhorst","municipality":{"key":"03459033","name":"Wallenhorst","type":"Kreisangehörige_Gemeinde"},"district":{"key":"03459","name":"Osnabrück","type":"Landkreis"},"federalState":{"key":"03","name":"Niedersachsen"}},{"name":"Gertkenstr.","postalCode":"49134","locality":"Wallenhorst","municipality":{"key":"03459033","name":"Wallenhorst","type":"Kreisangehörige_Gemeinde"},"district":{"key":"03459","name":"Osnabrück","type":"Landkreis"},"federalState":{"key":"03","name":"Niedersachsen"}},{"name":"Gertrud-Luckner-Str.","postalCode":"49134","locality":"Wallenhorst","municipality":{"key":"03459033","name":"Wallenhorst","type":"Kreisangehörige_Gemeinde"},"district":{"key":"03459","name":"Osnabrück","type":"Landkreis"},"federalState":{"key":"03","name":"Niedersachsen"}},{"name":"Geschwister-Scholl-Str.","postalCode":"49134","locality":"Wallenhorst","municipality":{"key":"03459033","name":"Wallenhorst","type":"Kreisangehörige_Gemeinde"},"district":{"key":"03459","name":"Osnabrück","type":"Landkreis"},"federalState":{"key":"03","name":"Niedersachsen"}},{"name":"Gevastr.","postalCode":"49134","locality":"Wallenhorst","municipality":{"key":"03459033","name":"Wallenhorst","type":"Kreisangehörige_Gemeinde"},"district":{"key":"03459","name":"Osnabrück","type":"Landkreis"},"federalState":{"key":"03","name":"Niedersachsen"}},{"name":"Ginsterweg","postalCode":"49134","locality":"Wallenhorst","municipality":{"key":"03459033","name":"Wallenhorst","type":"Kreisangehörige_Gemeinde"},"district":{"key":"03459","name":"Osnabrück","type":"Landkreis"},"federalState":{"key":"03","name":"Niedersachsen"}},{"name":"Glück-auf-Str.","postalCode":"49134","locality":"Wallenhorst","municipality":{"key":"03459033","name":"Wallenhorst","type":"Kreisangehörige_Gemeinde"},"district":{"key":"03459","name":"Osnabrück","type":"Landkreis"},"federalState":{"key":"03","name":"Niedersachsen"}},{"name":"Goethestr.","postalCode":"49134","locality":"Wallenhorst","municipality":{"key":"03459033","name":"Wallenhorst","type":"Kreisangehörige_Gemeinde"},"district":{"key":"03459","name":"Osnabrück","type":"Landkreis"},"federalState":{"key":"03","name":"Niedersachsen"}},{"name":"Goldpohl","postalCode":"49134","locality":"Wallenhorst","municipality":{"key":"03459033","name":"Wallenhorst","type":"Kreisangehörige_Gemeinde"},"district":{"key":"03459","name":"Osnabrück","type":"Landkreis"},"federalState":{"key":"03","name":"Niedersachsen"}},{"name":"Graf-von-Galen-Str.","postalCode":"49134","locality":"Wallenhorst","municipality":{"key":"03459033","name":"Wallenhorst","type":"Kreisangehörige_Gemeinde"},"district":{"key":"03459","name":"Osnabrück","type":"Landkreis"},"federalState":{"key":"03","name":"Niedersachsen"}},{"name":"Große Str.","postalCode":"49134","locality":"Wallenhorst","municipality":{"key":"03459033","name":"Wallenhorst","type":"Kreisangehörige_Gemeinde"},"district":{"key":"03459","name":"Osnabrück","type":"Landkreis"},"federalState":{"key":"03","name":"Niedersachsen"}},{"name":"Grubenweg","postalCode":"49134","locality":"Wallenhorst","municipality":{"key":"03459033","name":"Wallenhorst","type":"Kreisangehörige_Gemeinde"},"district":{"key":"03459","name":"Osnabrück","type":"Landkreis"},"federalState":{"key":"03","name":"Niedersachsen"}},{"name":"Gutenbergstr.","postalCode":"49134","locality":"Wallenhorst","municipality":{"key":"03459033","name":"Wallenhorst","type":"Kreisangehörige_Gemeinde"},"district":{"key":"03459","name":"Osnabrück","type":"Landkreis"},"federalState":{"key":"03","name":"Niedersachsen"}},{"name":"Haarmannsweg","postalCode":"49134","locality":"Wallenhorst","municipality":{"key":"03459033","name":"Wallenhorst","type":"Kreisangehörige_Gemeinde"},"district":{"key":"03459","name":"Osnabrück","type":"Landkreis"},"federalState":{"key":"03","name":"Niedersachsen"}},{"name":"Habichtshof","postalCode":"49134","locality":"Wallenhorst","municipality":{"key":"03459033","name":"Wallenhorst","type":"Kreisangehörige_Gemeinde"},"district":{"key":"03459","name":"Osnabrück","type":"Landkreis"},"federalState":{"key":"03","name":"Niedersachsen"}},{"name":"Hanfelder Hügel","postalCode":"49134","locality":"Wallenhorst","municipality":{"key":"03459033","name":"Wallenhorst","type":"Kreisangehörige_Gemeinde"},"district":{"key":"03459","name":"Osnabrück","type":"Landkreis"},"federalState":{"key":"03","name":"Niedersachsen"}},{"name":"Hannah-Arendt-Str.","postalCode":"49134","locality":"Wallenhorst","municipality":{"key":"03459033","name":"Wallenhorst","type":"Kreisangehörige_Gemeinde"},"district":{"key":"03459","name":"Osnabrück","type":"Landkreis"},"federalState":{"key":"03","name":"Niedersachsen"}},{"name":"Hansastr.","postalCode":"49134","locality":"Wallenhorst","municipality":{"key":"03459033","name":"Wallenhorst","type":"Kreisangehörige_Gemeinde"},"district":{"key":"03459","name":"Osnabrück","type":"Landkreis"},"federalState":{"key":"03","name":"Niedersachsen"}},{"name":"Hans-Böckler-Str.","postalCode":"49134","locality":"Wallenhorst","municipality":{"key":"03459033","name":"Wallenhorst","type":"Kreisangehörige_Gemeinde"},"district":{"key":"03459","name":"Osnabrück","type":"Landkreis"},"federalState":{"key":"03","name":"Niedersachsen"}},{"name":"Hans-Calmeyer-Str.","postalCode":"49134","locality":"Wallenhorst","municipality":{"key":"03459033","name":"Wallenhorst","type":"Kreisangehörige_Gemeinde"},"district":{"key":"03459","name":"Osnabrück","type":"Landkreis"},"federalState":{"key":"03","name":"Niedersachsen"}},{"name":"Hardinghausweg","postalCode":"49134","locality":"Wallenhorst","municipality":{"key":"03459033","name":"Wallenhorst","type":"Kreisangehörige_Gemeinde"},"district":{"key":"03459","name":"Osnabrück","type":"Landkreis"},"federalState":{"key":"03","name":"Niedersachsen"}},{"name":"Harenkamp","postalCode":"49134","locality":"Wallenhorst","municipality":{"key":"03459033","name":"Wallenhorst","type":"Kreisangehörige_Gemeinde"},"district":{"key":"03459","name":"Osnabrück","type":"Landkreis"},"federalState":{"key":"03","name":"Niedersachsen"}},{"name":"Hasestr.","postalCode":"49134","locality":"Wallenhorst","municipality":{"key":"03459033","name":"Wallenhorst","type":"Kreisangehörige_Gemeinde"},"district":{"key":"03459","name":"Osnabrück","type":"Landkreis"},"federalState":{"key":"03","name":"Niedersachsen"}},{"name":"Haster Str.","postalCode":"49134","locality":"Wallenhorst","municipality":{"key":"03459033","name":"Wallenhorst","type":"Kreisangehörige_Gemeinde"},"district":{"key":"03459","name":"Osnabrück","type":"Landkreis"},"federalState":{"key":"03","name":"Niedersachsen"}},{"name":"Hauptstr.","postalCode":"54570","locality":"Wallenborn","municipality":{"key":"07233079","name":"Wallenborn","type":"Kreisangehörige_Gemeinde"},"district":{"key":"07233","name":"Vulkaneifel","type":"Landkreis"},"federalState":{"key":"07","name":"Rheinland-Pfalz"}},{"name":"Hauptstr.","postalCode":"96346","locality":"Wallenfels","municipality":{"key":"09476184","name":"Wallenfels, St","type":"Stadt"},"district":{"key":"09476","name":"Kronach","type":"Landkreis"},"federalState":{"key":"09","name":"Bayern"}},{"name":"Heckerstr.","postalCode":"49134","locality":"Wallenhorst","municipality":{"key":"03459033","name":"Wallenhorst","type":"Kreisangehörige_Gemeinde"},"district":{"key":"03459","name":"Osnabrück","type":"Landkreis"},"federalState":{"key":"03","name":"Niedersachsen"}},{"name":"Heideweg","postalCode":"49134","locality":"Wallenhorst","municipality":{"key":"03459033","name":"Wallenhorst","type":"Kreisangehörige_Gemeinde"},"district":{"key":"03459","name":"Osnabrück","type":"Landkreis"},"federalState":{"key":"03","name":"Niedersachsen"}},{"name":"Heinrich-Feldwisch-Str.","postalCode":"49134","locality":"Wallenhorst","municipality":{"key":"03459033","name":"Wallenhorst","type":"Kreisangehörige_Gemeinde"},"district":{"key":"03459","name":"Osnabrück","type":"Landkreis"},"federalState":{"key":"03","name":"Niedersachsen"}},{"name":"Helene-Mayer-Str.","postalCode":"49134","locality":"Wallenhorst","municipality":{"key":"03459033","name":"Wallenhorst","type":"Kreisangehörige_Gemeinde"},"district":{"key":"03459","name":"Osnabrück","type":"Landkreis"},"federalState":{"key":"03","name":"Niedersachsen"}},{"name":"Helge-Pross-Str.","postalCode":"49134","locality":"Wallenhorst","municipality":{"key":"03459033","name":"Wallenhorst","type":"Kreisangehörige_Gemeinde"},"district":{"key":"03459","name":"Osnabrück","type":"Landkreis"},"federalState":{"key":"03","name":"Niedersachsen"}},{"name":"Hemkamp","postalCode":"49134","locality":"Wallenhorst","municipality":{"key":"03459033","name":"Wallenhorst","type":"Kreisangehörige_Gemeinde"},"district":{"key":"03459","name":"Osnabrück","type":"Landkreis"},"federalState":{"key":"03","name":"Niedersachsen"}},{"name":"Herderstr.","postalCode":"49134","locality":"Wallenhorst","municipality":{"key":"03459033","name":"Wallenhorst","type":"Kreisangehörige_Gemeinde"},"district":{"key":"03459","name":"Osnabrück","type":"Landkreis"},"federalState":{"key":"03","name":"Niedersachsen"}},{"name":"Hermann-Ehlers-Str.","postalCode":"49134","locality":"Wallenhorst","municipality":{"key":"03459033","name":"Wallenhorst","type":"Kreisangehörige_Gemeinde"},"district":{"key":"03459","name":"Osnabrück","type":"Landkreis"},"federalState":{"key":"03","name":"Niedersachsen"}},{"name":"Hermann-Löns-Weg","postalCode":"49134","locality":"Wallenhorst","municipality":{"key":"03459033","name":"Wallenhorst","type":"Kreisangehörige_Gemeinde"},"district":{"key":"03459","name":"Osnabrück","type":"Landkreis"},"federalState":{"key":"03","name":"Niedersachsen"}},{"name":"Hermannstr.","postalCode":"49134","locality":"Wallenhorst","municipality":{"key":"03459033","name":"Wallenhorst","type":"Kreisangehörige_Gemeinde"},"district":{"key":"03459","name":"Osnabrück","type":"Landkreis"},"federalState":{"key":"03","name":"Niedersachsen"}},{"name":"Hertha-Sponer-Str.","postalCode":"49134","locality":"Wallenhorst","municipality":{"key":"03459033","name":"Wallenhorst","type":"Kreisangehörige_Gemeinde"},"district":{"key":"03459","name":"Osnabrück","type":"Landkreis"},"federalState":{"key":"03","name":"Niedersachsen"}},{"name":"Heuftgraben","postalCode":"49134","locality":"Wallenhorst","municipality":{"key":"03459033","name":"Wallenhorst","type":"Kreisangehörige_Gemeinde"},"district":{"key":"03459","name":"Osnabrück","type":"Landkreis"},"federalState":{"key":"03","name":"Niedersachsen"}},{"name":"Hinterm Kamp","postalCode":"49134","locality":"Wallenhorst","municipality":{"key":"03459033","name":"Wallenhorst","type":"Kreisangehörige_Gemeinde"},"district":{"key":"03459","name":"Osnabrück","type":"Landkreis"},"federalState":{"key":"03","name":"Niedersachsen"}},{"name":"Hof im Hagen","postalCode":"49134","locality":"Wallenhorst","municipality":{"key":"03459033","name":"Wallenhorst","type":"Kreisangehörige_Gemeinde"},"district":{"key":"03459","name":"Osnabrück","type":"Landkreis"},"federalState":{"key":"03","name":"Niedersachsen"}},{"name":"Höhenstr.","postalCode":"54570","locality":"Wallenborn","municipality":{"key":"07233079","name":"Wallenborn","type":"Kreisangehörige_Gemeinde"},"district":{"key":"07233","name":"Vulkaneifel","type":"Landkreis"},"federalState":{"key":"07","name":"Rheinland-Pfalz"}},{"name":"Höhenweg","postalCode":"49134","locality":"Wallenhorst","municipality":{"key":"03459033","name":"Wallenhorst","type":"Kreisangehörige_Gemeinde"},"district":{"key":"03459","name":"Osnabrück","type":"Landkreis"},"federalState":{"key":"03","name":"Niedersachsen"}},{"name":"Höhenweg","postalCode":"96346","locality":"Wallenfels","municipality":{"key":"09476184","name":"Wallenfels, St","type":"Stadt"},"district":{"key":"09476","name":"Kronach","type":"Landkreis"},"federalState":{"key":"09","name":"Bayern"}},{"name":"Holbeinstr.","postalCode":"49134","locality":"Wallenhorst","municipality":{"key":"03459033","name":"Wallenhorst","type":"Kreisangehörige_Gemeinde"},"district":{"key":"03459","name":"Osnabrück","type":"Landkreis"},"federalState":{"key":"03","name":"Niedersachsen"}},{"name":"Hollager Str.","postalCode":"49134","locality":"Wallenhorst","municipality":{"key":"03459033","name":"Wallenhorst","type":"Kreisangehörige_Gemeinde"},"district":{"key":"03459","name":"Osnabrück","type":"Landkreis"},"federalState":{"key":"03","name":"Niedersachsen"}},{"name":"Holthauser Str.","postalCode":"49134","locality":"Wallenhorst","municipality":{"key":"03459033","name":"Wallenhorst","type":"Kreisangehörige_Gemeinde"},"district":{"key":"03459","name":"Osnabrück","type":"Landkreis"},"federalState":{"key":"03","name":"Niedersachsen"}},{"name":"Holunderweg","postalCode":"49134","locality":"Wallenhorst","municipality":{"key":"03459033","name":"Wallenhorst","type":"Kreisangehörige_Gemeinde"},"district":{"key":"03459","name":"Osnabrück","type":"Landkreis"},"federalState":{"key":"03","name":"Niedersachsen"}},{"name":"Holunderweg","postalCode":"54675","locality":"Wallendorf","municipality":{"key":"07232131","name":"Wallendorf","type":"Kreisangehörige_Gemeinde"},"district":{"key":"07232","name":"Eifelkreis Bitburg-Prüm","type":"Landkreis"},"federalState":{"key":"07","name":"Rheinland-Pfalz"}},{"name":"Holzweg","postalCode":"49134","locality":"Wallenhorst","municipality":{"key":"03459033","name":"Wallenhorst","type":"Kreisangehörige_Gemeinde"},"district":{"key":"03459","name":"Osnabrück","type":"Landkreis"},"federalState":{"key":"03","name":"Niedersachsen"}},{"name":"Honeburger Str.","postalCode":"49134","locality":"Wallenhorst","municipality":{"key":"03459033","name":"Wallenhorst","type":"Kreisangehörige_Gemeinde"},"district":{"key":"03459","name":"Osnabrück","type":"Landkreis"},"federalState":{"key":"03","name":"Niedersachsen"}},{"name":"Hörnschen Knapp","postalCode":"49134","locality":"Wallenhorst","municipality":{"key":"03459033","name":"Wallenhorst","type":"Kreisangehörige_Gemeinde"},"district":{"key":"03459","name":"Osnabrück","type":"Landkreis"},"federalState":{"key":"03","name":"Niedersachsen"}},{"name":"Horstkamp","postalCode":"49134","locality":"Wallenhorst","municipality":{"key":"03459033","name":"Wallenhorst","type":"Kreisangehörige_Gemeinde"},"district":{"key":"03459","name":"Osnabrück","type":"Landkreis"},"federalState":{"key":"03","name":"Niedersachsen"}},{"name":"Hubertusring","postalCode":"49134","locality":"Wallenhorst","municipality":{"key":"03459033","name":"Wallenhorst","type":"Kreisangehörige_Gemeinde"},"district":{"key":"03459","name":"Osnabrück","type":"Landkreis"},"federalState":{"key":"03","name":"Niedersachsen"}},{"name":"Hügelstr.","postalCode":"49134","locality":"Wallenhorst","municipality":{"key":"03459033","name":"Wallenhorst","type":"Kreisangehörige_Gemeinde"},"district":{"key":"03459","name":"Osnabrück","type":"Landkreis"},"federalState":{"key":"03","name":"Niedersachsen"}},{"name":"Hullerweg","postalCode":"49134","locality":"Wallenhorst","municipality":{"key":"03459033","name":"Wallenhorst","type":"Kreisangehörige_Gemeinde"},"district":{"key":"03459","name":"Osnabrück","type":"Landkreis"},"federalState":{"key":"03","name":"Niedersachsen"}},{"name":"Im Alten Dorf","postalCode":"49134","locality":"Wallenhorst","municipality":{"key":"03459033","name":"Wallenhorst","type":"Kreisangehörige_Gemeinde"},"district":{"key":"03459","name":"Osnabrück","type":"Landkreis"},"federalState":{"key":"03","name":"Niedersachsen"}},{"name":"Im Berge","postalCode":"49134","locality":"Wallenhorst","municipality":{"key":"03459033","name":"Wallenhorst","type":"Kreisangehörige_Gemeinde"},"district":{"key":"03459","name":"Osnabrück","type":"Landkreis"},"federalState":{"key":"03","name":"Niedersachsen"}},{"name":"Im Esch","postalCode":"49134","locality":"Wallenhorst","municipality":{"key":"03459033","name":"Wallenhorst","type":"Kreisangehörige_Gemeinde"},"district":{"key":"03459","name":"Osnabrück","type":"Landkreis"},"federalState":{"key":"03","name":"Niedersachsen"}},{"name":"Im Felde","postalCode":"49134","locality":"Wallenhorst","municipality":{"key":"03459033","name":"Wallenhorst","type":"Kreisangehörige_Gemeinde"},"district":{"key":"03459","name":"Osnabrück","type":"Landkreis"},"federalState":{"key":"03","name":"Niedersachsen"}},{"name":"Im Geusergrund","postalCode":"96346","locality":"Wallenfels","municipality":{"key":"09476184","name":"Wallenfels, St","type":"Stadt"},"district":{"key":"09476","name":"Kronach","type":"Landkreis"},"federalState":{"key":"09","name":"Bayern"}},{"name":"Im Gries","postalCode":"96346","locality":"Wallenfels","municipality":{"key":"09476184","name":"Wallenfels, St","type":"Stadt"},"district":{"key":"09476","name":"Kronach","type":"Landkreis"},"federalState":{"key":"09","name":"Bayern"}},{"name":"Immengarten","postalCode":"49134","locality":"Wallenhorst","municipality":{"key":"03459033","name":"Wallenhorst","type":"Kreisangehörige_Gemeinde"},"district":{"key":"03459","name":"Osnabrück","type":"Landkreis"},"federalState":{"key":"03","name":"Niedersachsen"}},{"name":"Im Schlag","postalCode":"96346","locality":"Wallenfels","municipality":{"key":"09476184","name":"Wallenfels, St","type":"Stadt"},"district":{"key":"09476","name":"Kronach","type":"Landkreis"},"federalState":{"key":"09","name":"Bayern"}},{"name":"Im Sonnenwinkel","postalCode":"49134","locality":"Wallenhorst","municipality":{"key":"03459033","name":"Wallenhorst","type":"Kreisangehörige_Gemeinde"},"district":{"key":"03459","name":"Osnabrück","type":"Landkreis"},"federalState":{"key":"03","name":"Niedersachsen"}},{"name":"Im Timport","postalCode":"49134","locality":"Wallenhorst","municipality":{"key":"03459033","name":"Wallenhorst","type":"Kreisangehörige_Gemeinde"},"district":{"key":"03459","name":"Osnabrück","type":"Landkreis"},"federalState":{"key":"03","name":"Niedersachsen"}},{"name":"Im Winkel","postalCode":"49134","locality":"Wallenhorst","municipality":{"key":"03459033","name":"Wallenhorst","type":"Kreisangehörige_Gemeinde"},"district":{"key":"03459","name":"Osnabrück","type":"Landkreis"},"federalState":{"key":"03","name":"Niedersachsen"}},{"name":"In den Dillen","postalCode":"49134","locality":"Wallenhorst","municipality":{"key":"03459033","name":"Wallenhorst","type":"Kreisangehörige_Gemeinde"},"district":{"key":"03459","name":"Osnabrück","type":"Landkreis"},"federalState":{"key":"03","name":"Niedersachsen"}},{"name":"In den Kämpen","postalCode":"49134","locality":"Wallenhorst","municipality":{"key":"03459033","name":"Wallenhorst","type":"Kreisangehörige_Gemeinde"},"district":{"key":"03459","name":"Osnabrück","type":"Landkreis"},"federalState":{"key":"03","name":"Niedersachsen"}},{"name":"In den Reuten","postalCode":"49134","locality":"Wallenhorst","municipality":{"key":"03459033","name":"Wallenhorst","type":"Kreisangehörige_Gemeinde"},"district":{"key":"03459","name":"Osnabrück","type":"Landkreis"},"federalState":{"key":"03","name":"Niedersachsen"}},{"name":"In den Wiesen","postalCode":"49134","locality":"Wallenhorst","municipality":{"key":"03459033","name":"Wallenhorst","type":"Kreisangehörige_Gemeinde"},"district":{"key":"03459","name":"Osnabrück","type":"Landkreis"},"federalState":{"key":"03","name":"Niedersachsen"}},{"name":"In der Haseaue","postalCode":"49134","locality":"Wallenhorst","municipality":{"key":"03459033","name":"Wallenhorst","type":"Kreisangehörige_Gemeinde"},"district":{"key":"03459","name":"Osnabrück","type":"Landkreis"},"federalState":{"key":"03","name":"Niedersachsen"}},{"name":"In der Hegge","postalCode":"49134","locality":"Wallenhorst","municipality":{"key":"03459033","name":"Wallenhorst","type":"Kreisangehörige_Gemeinde"},"district":{"key":"03459","name":"Osnabrück","type":"Landkreis"},"federalState":{"key":"03","name":"Niedersachsen"}},{"name":"In der Holl","postalCode":"54570","locality":"Wallenborn","municipality":{"key":"07233079","name":"Wallenborn","type":"Kreisangehörige_Gemeinde"},"district":{"key":"07233","name":"Vulkaneifel","type":"Landkreis"},"federalState":{"key":"07","name":"Rheinland-Pfalz"}},{"name":"In der Jungen Heide","postalCode":"49134","locality":"Wallenhorst","municipality":{"key":"03459033","name":"Wallenhorst","type":"Kreisangehörige_Gemeinde"},"district":{"key":"03459","name":"Osnabrück","type":"Landkreis"},"federalState":{"key":"03","name":"Niedersachsen"}},{"name":"In der Mark","postalCode":"49134","locality":"Wallenhorst","municipality":{"key":"03459033","name":"Wallenhorst","type":"Kreisangehörige_Gemeinde"},"district":{"key":"03459","name":"Osnabrück","type":"Landkreis"},"federalState":{"key":"03","name":"Niedersachsen"}},{"name":"In der Stroth","postalCode":"49134","locality":"Wallenhorst","municipality":{"key":"03459033","name":"Wallenhorst","type":"Kreisangehörige_Gemeinde"},"district":{"key":"03459","name":"Osnabrück","type":"Landkreis"},"federalState":{"key":"03","name":"Niedersachsen"}},{"name":"Iserfeld","postalCode":"49134","locality":"Wallenhorst","municipality":{"key":"03459033","name":"Wallenhorst","type":"Kreisangehörige_Gemeinde"},"district":{"key":"03459","name":"Osnabrück","type":"Landkreis"},"federalState":{"key":"03","name":"Niedersachsen"}},{"name":"Jägerstr.","postalCode":"49134","locality":"Wallenhorst","municipality":{"key":"03459033","name":"Wallenhorst","type":"Kreisangehörige_Gemeinde"},"district":{"key":"03459","name":"Osnabrück","type":"Landkreis"},"federalState":{"key":"03","name":"Niedersachsen"}},{"name":"Jahnstr.","postalCode":"49134","locality":"Wallenhorst","municipality":{"key":"03459033","name":"Wallenhorst","type":"Kreisangehörige_Gemeinde"},"district":{"key":"03459","name":"Osnabrück","type":"Landkreis"},"federalState":{"key":"03","name":"Niedersachsen"}},{"name":"Jakob-Degen-Str.","postalCode":"96346","locality":"Wallenfels","municipality":{"key":"09476184","name":"Wallenfels, St","type":"Stadt"},"district":{"key":"09476","name":"Kronach","type":"Landkreis"},"federalState":{"key":"09","name":"Bayern"}},{"name":"Jakob-Kaiser-Str.","postalCode":"49134","locality":"Wallenhorst","municipality":{"key":"03459033","name":"Wallenhorst","type":"Kreisangehörige_Gemeinde"},"district":{"key":"03459","name":"Osnabrück","type":"Landkreis"},"federalState":{"key":"03","name":"Niedersachsen"}},{"name":"Johanna-Kirchner-Str.","postalCode":"49134","locality":"Wallenhorst","municipality":{"key":"03459033","name":"Wallenhorst","type":"Kreisangehörige_Gemeinde"},"district":{"key":"03459","name":"Osnabrück","type":"Landkreis"},"federalState":{"key":"03","name":"Niedersachsen"}},{"name":"Johannes-Prassek-Str.","postalCode":"49134","locality":"Wallenhorst","municipality":{"key":"03459033","name":"Wallenhorst","type":"Kreisangehörige_Gemeinde"},"district":{"key":"03459","name":"Osnabrück","type":"Landkreis"},"federalState":{"key":"03","name":"Niedersachsen"}},{"name":"Johannisstr.","postalCode":"49134","locality":"Wallenhorst","municipality":{"key":"03459033","name":"Wallenhorst","type":"Kreisangehörige_Gemeinde"},"district":{"key":"03459","name":"Osnabrück","type":"Landkreis"},"federalState":{"key":"03","name":"Niedersachsen"}},{"name":"Julius-Leber-Str.","postalCode":"49134","locality":"Wallenhorst","municipality":{"key":"03459033","name":"Wallenhorst","type":"Kreisangehörige_Gemeinde"},"district":{"key":"03459","name":"Osnabrück","type":"Landkreis"},"federalState":{"key":"03","name":"Niedersachsen"}},{"name":"Kampholt","postalCode":"49134","locality":"Wallenhorst","municipality":{"key":"03459033","name":"Wallenhorst","type":"Kreisangehörige_Gemeinde"},"district":{"key":"03459","name":"Osnabrück","type":"Landkreis"},"federalState":{"key":"03","name":"Niedersachsen"}},{"name":"Karl-Arnold-Str.","postalCode":"49134","locality":"Wallenhorst","municipality":{"key":"03459033","name":"Wallenhorst","type":"Kreisangehörige_Gemeinde"},"district":{"key":"03459","name":"Osnabrück","type":"Landkreis"},"federalState":{"key":"03","name":"Niedersachsen"}},{"name":"Karlstr.","postalCode":"49134","locality":"Wallenhorst","municipality":{"key":"03459033","name":"Wallenhorst","type":"Kreisangehörige_Gemeinde"},"district":{"key":"03459","name":"Osnabrück","type":"Landkreis"},"federalState":{"key":"03","name":"Niedersachsen"}},{"name":"Katharinastr.","postalCode":"49134","locality":"Wallenhorst","municipality":{"key":"03459033","name":"Wallenhorst","type":"Kreisangehörige_Gemeinde"},"district":{"key":"03459","name":"Osnabrück","type":"Landkreis"},"federalState":{"key":"03","name":"Niedersachsen"}},{"name":"Käthe-Kollwitz-Str.","postalCode":"49134","locality":"Wallenhorst","municipality":{"key":"03459033","name":"Wallenhorst","type":"Kreisangehörige_Gemeinde"},"district":{"key":"03459","name":"Osnabrück","type":"Landkreis"},"federalState":{"key":"03","name":"Niedersachsen"}},{"name":"Kattenhügel","postalCode":"49134","locality":"Wallenhorst","municipality":{"key":"03459033","name":"Wallenhorst","type":"Kreisangehörige_Gemeinde"},"district":{"key":"03459","name":"Osnabrück","type":"Landkreis"},"federalState":{"key":"03","name":"Niedersachsen"}},{"name":"Kellerstr.","postalCode":"96346","locality":"Wallenfels","municipality":{"key":"09476184","name":"Wallenfels, St","type":"Stadt"},"district":{"key":"09476","name":"Kronach","type":"Landkreis"},"federalState":{"key":"09","name":"Bayern"}},{"name":"Kettelerstr.","postalCode":"49134","locality":"Wallenhorst","municipality":{"key":"03459033","name":"Wallenhorst","type":"Kreisangehörige_Gemeinde"},"district":{"key":"03459","name":"Osnabrück","type":"Landkreis"},"federalState":{"key":"03","name":"Niedersachsen"}},{"name":"Kiebitzweg","postalCode":"49134","locality":"Wallenhorst","municipality":{"key":"03459033","name":"Wallenhorst","type":"Kreisangehörige_Gemeinde"},"district":{"key":"03459","name":"Osnabrück","type":"Landkreis"},"federalState":{"key":"03","name":"Niedersachsen"}},{"name":"Kiefernweg","postalCode":"49134","locality":"Wallenhorst","municipality":{"key":"03459033","name":"Wallenhorst","type":"Kreisangehörige_Gemeinde"},"district":{"key":"03459","name":"Osnabrück","type":"Landkreis"},"federalState":{"key":"03","name":"Niedersachsen"}},{"name":"Kirchplatz","postalCode":"49134","locality":"Wallenhorst","municipality":{"key":"03459033","name":"Wallenhorst","type":"Kreisangehörige_Gemeinde"},"district":{"key":"03459","name":"Osnabrück","type":"Landkreis"},"federalState":{"key":"03","name":"Niedersachsen"}},{"name":"Kirchstr.","postalCode":"54570","locality":"Wallenborn","municipality":{"key":"07233079","name":"Wallenborn","type":"Kreisangehörige_Gemeinde"},"district":{"key":"07233","name":"Vulkaneifel","type":"Landkreis"},"federalState":{"key":"07","name":"Rheinland-Pfalz"}},{"name":"Klausenerstr.","postalCode":"49134","locality":"Wallenhorst","municipality":{"key":"03459033","name":"Wallenhorst","type":"Kreisangehörige_Gemeinde"},"district":{"key":"03459","name":"Osnabrück","type":"Landkreis"},"federalState":{"key":"03","name":"Niedersachsen"}},{"name":"Klopstockstr.","postalCode":"49134","locality":"Wallenhorst","municipality":{"key":"03459033","name":"Wallenhorst","type":"Kreisangehörige_Gemeinde"},"district":{"key":"03459","name":"Osnabrück","type":"Landkreis"},"federalState":{"key":"03","name":"Niedersachsen"}},{"name":"Klosterhügel","postalCode":"49134","locality":"Wallenhorst","municipality":{"key":"03459033","name":"Wallenhorst","type":"Kreisangehörige_Gemeinde"},"district":{"key":"03459","name":"Osnabrück","type":"Landkreis"},"federalState":{"key":"03","name":"Niedersachsen"}},{"name":"Klosterstr.","postalCode":"49134","locality":"Wallenhorst","municipality":{"key":"03459033","name":"Wallenhorst","type":"Kreisangehörige_Gemeinde"},"district":{"key":"03459","name":"Osnabrück","type":"Landkreis"},"federalState":{"key":"03","name":"Niedersachsen"}},{"name":"Klusmoor","postalCode":"49134","locality":"Wallenhorst","municipality":{"key":"03459033","name":"Wallenhorst","type":"Kreisangehörige_Gemeinde"},"district":{"key":"03459","name":"Osnabrück","type":"Landkreis"},"federalState":{"key":"03","name":"Niedersachsen"}},{"name":"Kohkamp","postalCode":"49134","locality":"Wallenhorst","municipality":{"key":"03459033","name":"Wallenhorst","type":"Kreisangehörige_Gemeinde"},"district":{"key":"03459","name":"Osnabrück","type":"Landkreis"},"federalState":{"key":"03","name":"Niedersachsen"}},{"name":"Kolpingplatz","postalCode":"49134","locality":"Wallenhorst","municipality":{"key":"03459033","name":"Wallenhorst","type":"Kreisangehörige_Gemeinde"},"district":{"key":"03459","name":"Osnabrück","type":"Landkreis"},"federalState":{"key":"03","name":"Niedersachsen"}},{"name":"Kolpingstr.","postalCode":"49134","locality":"Wallenhorst","municipality":{"key":"03459033","name":"Wallenhorst","type":"Kreisangehörige_Gemeinde"},"district":{"key":"03459","name":"Osnabrück","type":"Landkreis"},"federalState":{"key":"03","name":"Niedersachsen"}},{"name":"Königsberger Str.","postalCode":"49134","locality":"Wallenhorst","municipality":{"key":"03459033","name":"Wallenhorst","type":"Kreisangehörige_Gemeinde"},"district":{"key":"03459","name":"Osnabrück","type":"Landkreis"},"federalState":{"key":"03","name":"Niedersachsen"}},{"name":"Konrad-Duden-Str.","postalCode":"49134","locality":"Wallenhorst","municipality":{"key":"03459033","name":"Wallenhorst","type":"Kreisangehörige_Gemeinde"},"district":{"key":"03459","name":"Osnabrück","type":"Landkreis"},"federalState":{"key":"03","name":"Niedersachsen"}},{"name":"Köpenicker Str.","postalCode":"49134","locality":"Wallenhorst","municipality":{"key":"03459033","name":"Wallenhorst","type":"Kreisangehörige_Gemeinde"},"district":{"key":"03459","name":"Osnabrück","type":"Landkreis"},"federalState":{"key":"03","name":"Niedersachsen"}},{"name":"Kötterskamp","postalCode":"49134","locality":"Wallenhorst","municipality":{"key":"03459033","name":"Wallenhorst","type":"Kreisangehörige_Gemeinde"},"district":{"key":"03459","name":"Osnabrück","type":"Landkreis"},"federalState":{"key":"03","name":"Niedersachsen"}},{"name":"Kreuzberger Str.","postalCode":"49134","locality":"Wallenhorst","municipality":{"key":"03459033","name":"Wallenhorst","type":"Kreisangehörige_Gemeinde"},"district":{"key":"03459","name":"Osnabrück","type":"Landkreis"},"federalState":{"key":"03","name":"Niedersachsen"}},{"name":"Kreuzweg","postalCode":"49134","locality":"Wallenhorst","municipality":{"key":"03459033","name":"Wallenhorst","type":"Kreisangehörige_Gemeinde"},"district":{"key":"03459","name":"Osnabrück","type":"Landkreis"},"federalState":{"key":"03","name":"Niedersachsen"}},{"name":"Kuckucksweg","postalCode":"49134","locality":"Wallenhorst","municipality":{"key":"03459033","name":"Wallenhorst","type":"Kreisangehörige_Gemeinde"},"district":{"key":"03459","name":"Osnabrück","type":"Landkreis"},"federalState":{"key":"03","name":"Niedersachsen"}},{"name":"Kurt-Schumacher-Str.","postalCode":"49134","locality":"Wallenhorst","municipality":{"key":"03459033","name":"Wallenhorst","type":"Kreisangehörige_Gemeinde"},"district":{"key":"03459","name":"Osnabrück","type":"Landkreis"},"federalState":{"key":"03","name":"Niedersachsen"}},{"name":"Kurze Str.","postalCode":"49134","locality":"Wallenhorst","municipality":{"key":"03459033","name":"Wallenhorst","type":"Kreisangehörige_Gemeinde"},"district":{"key":"03459","name":"Osnabrück","type":"Landkreis"},"federalState":{"key":"03","name":"Niedersachsen"}},{"name":"Küsterskamp","postalCode":"49134","locality":"Wallenhorst","municipality":{"key":"03459033","name":"Wallenhorst","type":"Kreisangehörige_Gemeinde"},"district":{"key":"03459","name":"Osnabrück","type":"Landkreis"},"federalState":{"key":"03","name":"Niedersachsen"}},{"name":"Langer Sand","postalCode":"49134","locality":"Wallenhorst","municipality":{"key":"03459033","name":"Wallenhorst","type":"Kreisangehörige_Gemeinde"},"district":{"key":"03459","name":"Osnabrück","type":"Landkreis"},"federalState":{"key":"03","name":"Niedersachsen"}},{"name":"Lange Wand","postalCode":"49134","locality":"Wallenhorst","municipality":{"key":"03459033","name":"Wallenhorst","type":"Kreisangehörige_Gemeinde"},"district":{"key":"03459","name":"Osnabrück","type":"Landkreis"},"federalState":{"key":"03","name":"Niedersachsen"}},{"name":"Lechtinger Kirchweg","postalCode":"49134","locality":"Wallenhorst","municipality":{"key":"03459033","name":"Wallenhorst","type":"Kreisangehörige_Gemeinde"},"district":{"key":"03459","name":"Osnabrück","type":"Landkreis"},"federalState":{"key":"03","name":"Niedersachsen"}},{"name":"Lerchenstr.","postalCode":"49134","locality":"Wallenhorst","municipality":{"key":"03459033","name":"Wallenhorst","type":"Kreisangehörige_Gemeinde"},"district":{"key":"03459","name":"Osnabrück","type":"Landkreis"},"federalState":{"key":"03","name":"Niedersachsen"}},{"name":"Lessingstr.","postalCode":"49134","locality":"Wallenhorst","municipality":{"key":"03459033","name":"Wallenhorst","type":"Kreisangehörige_Gemeinde"},"district":{"key":"03459","name":"Osnabrück","type":"Landkreis"},"federalState":{"key":"03","name":"Niedersachsen"}},{"name":"Letterhausstr.","postalCode":"49134","locality":"Wallenhorst","municipality":{"key":"03459033","name":"Wallenhorst","type":"Kreisangehörige_Gemeinde"},"district":{"key":"03459","name":"Osnabrück","type":"Landkreis"},"federalState":{"key":"03","name":"Niedersachsen"}},{"name":"Leyer Str.","postalCode":"49134","locality":"Wallenhorst","municipality":{"key":"03459033","name":"Wallenhorst","type":"Kreisangehörige_Gemeinde"},"district":{"key":"03459","name":"Osnabrück","type":"Landkreis"},"federalState":{"key":"03","name":"Niedersachsen"}},{"name":"Liebigstr.","postalCode":"49134","locality":"Wallenhorst","municipality":{"key":"03459033","name":"Wallenhorst","type":"Kreisangehörige_Gemeinde"},"district":{"key":"03459","name":"Osnabrück","type":"Landkreis"},"federalState":{"key":"03","name":"Niedersachsen"}},{"name":"Lievskamp","postalCode":"49134","locality":"Wallenhorst","municipality":{"key":"03459033","name":"Wallenhorst","type":"Kreisangehörige_Gemeinde"},"district":{"key":"03459","name":"Osnabrück","type":"Landkreis"},"federalState":{"key":"03","name":"Niedersachsen"}},{"name":"Lilienstr.","postalCode":"49134","locality":"Wallenhorst","municipality":{"key":"03459033","name":"Wallenhorst","type":"Kreisangehörige_Gemeinde"},"district":{"key":"03459","name":"Osnabrück","type":"Landkreis"},"federalState":{"key":"03","name":"Niedersachsen"}},{"name":"Lindenstr.","postalCode":"49134","locality":"Wallenhorst","municipality":{"key":"03459033","name":"Wallenhorst","type":"Kreisangehörige_Gemeinde"},"district":{"key":"03459","name":"Osnabrück","type":"Landkreis"},"federalState":{"key":"03","name":"Niedersachsen"}},{"name":"Lise-Meitner-Str.","postalCode":"49134","locality":"Wallenhorst","municipality":{"key":"03459033","name":"Wallenhorst","type":"Kreisangehörige_Gemeinde"},"district":{"key":"03459","name":"Osnabrück","type":"Landkreis"},"federalState":{"key":"03","name":"Niedersachsen"}},{"name":"Lohengrinstr.","postalCode":"54675","locality":"Wallendorf","municipality":{"key":"07232131","name":"Wallendorf","type":"Kreisangehörige_Gemeinde"},"district":{"key":"07232","name":"Eifelkreis Bitburg-Prüm","type":"Landkreis"},"federalState":{"key":"07","name":"Rheinland-Pfalz"}},{"name":"Lönsweg","postalCode":"49134","locality":"Wallenhorst","municipality":{"key":"03459033","name":"Wallenhorst","type":"Kreisangehörige_Gemeinde"},"district":{"key":"03459","name":"Osnabrück","type":"Landkreis"},"federalState":{"key":"03","name":"Niedersachsen"}},{"name":"Lortzingstr.","postalCode":"49134","locality":"Wallenhorst","municipality":{"key":"03459033","name":"Wallenhorst","type":"Kreisangehörige_Gemeinde"},"district":{"key":"03459","name":"Osnabrück","type":"Landkreis"},"federalState":{"key":"03","name":"Niedersachsen"}},{"name":"Ludgerstr.","postalCode":"49134","locality":"Wallenhorst","municipality":{"key":"03459033","name":"Wallenhorst","type":"Kreisangehörige_Gemeinde"},"district":{"key":"03459","name":"Osnabrück","type":"Landkreis"},"federalState":{"key":"03","name":"Niedersachsen"}},{"name":"Ludwig-Erhard-Str.","postalCode":"49134","locality":"Wallenhorst","municipality":{"key":"03459033","name":"Wallenhorst","type":"Kreisangehörige_Gemeinde"},"district":{"key":"03459","name":"Osnabrück","type":"Landkreis"},"federalState":{"key":"03","name":"Niedersachsen"}},{"name":"Mainstr.","postalCode":"49134","locality":"Wallenhorst","municipality":{"key":"03459033","name":"Wallenhorst","type":"Kreisangehörige_Gemeinde"},"district":{"key":"03459","name":"Osnabrück","type":"Landkreis"},"federalState":{"key":"03","name":"Niedersachsen"}},{"name":"Manstein Brücke","postalCode":"54570","locality":"Wallenborn","municipality":{"key":"07233079","name":"Wallenborn","type":"Kreisangehörige_Gemeinde"},"district":{"key":"07233","name":"Vulkaneifel","type":"Landkreis"},"federalState":{"key":"07","name":"Rheinland-Pfalz"}},{"name":"Marcel-Callo-Str.","postalCode":"49134","locality":"Wallenhorst","municipality":{"key":"03459033","name":"Wallenhorst","type":"Kreisangehörige_Gemeinde"},"district":{"key":"03459","name":"Osnabrück","type":"Landkreis"},"federalState":{"key":"03","name":"Niedersachsen"}},{"name":"Maria-Montessori-Str.","postalCode":"49134","locality":"Wallenhorst","municipality":{"key":"03459033","name":"Wallenhorst","type":"Kreisangehörige_Gemeinde"},"district":{"key":"03459","name":"Osnabrück","type":"Landkreis"},"federalState":{"key":"03","name":"Niedersachsen"}},{"name":"Marienstr.","postalCode":"49134","locality":"Wallenhorst","municipality":{"key":"03459033","name":"Wallenhorst","type":"Kreisangehörige_Gemeinde"},"district":{"key":"03459","name":"Osnabrück","type":"Landkreis"},"federalState":{"key":"03","name":"Niedersachsen"}},{"name":"Marktplatz","postalCode":"96346","locality":"Wallenfels","municipality":{"key":"09476184","name":"Wallenfels, St","type":"Stadt"},"district":{"key":"09476","name":"Kronach","type":"Landkreis"},"federalState":{"key":"09","name":"Bayern"}},{"name":"Maximilian-Kolbe-Str.","postalCode":"49134","locality":"Wallenhorst","municipality":{"key":"03459033","name":"Wallenhorst","type":"Kreisangehörige_Gemeinde"},"district":{"key":"03459","name":"Osnabrück","type":"Landkreis"},"federalState":{"key":"03","name":"Niedersachsen"}},{"name":"Meisenweg","postalCode":"49134","locality":"Wallenhorst","municipality":{"key":"03459033","name":"Wallenhorst","type":"Kreisangehörige_Gemeinde"},"district":{"key":"03459","name":"Osnabrück","type":"Landkreis"},"federalState":{"key":"03","name":"Niedersachsen"}},{"name":"Menzelstr.","postalCode":"49134","locality":"Wallenhorst","municipality":{"key":"03459033","name":"Wallenhorst","type":"Kreisangehörige_Gemeinde"},"district":{"key":"03459","name":"Osnabrück","type":"Landkreis"},"federalState":{"key":"03","name":"Niedersachsen"}},{"name":"Meyers Hagen","postalCode":"49134","locality":"Wallenhorst","municipality":{"key":"03459033","name":"Wallenhorst","type":"Kreisangehörige_Gemeinde"},"district":{"key":"03459","name":"Osnabrück","type":"Landkreis"},"federalState":{"key":"03","name":"Niedersachsen"}},{"name":"Mirower Str.","postalCode":"49134","locality":"Wallenhorst","municipality":{"key":"03459033","name":"Wallenhorst","type":"Kreisangehörige_Gemeinde"},"district":{"key":"03459","name":"Osnabrück","type":"Landkreis"},"federalState":{"key":"03","name":"Niedersachsen"}},{"name":"Mittelweg","postalCode":"49134","locality":"Wallenhorst","municipality":{"key":"03459033","name":"Wallenhorst","type":"Kreisangehörige_Gemeinde"},"district":{"key":"03459","name":"Osnabrück","type":"Landkreis"},"federalState":{"key":"03","name":"Niedersachsen"}},{"name":"Moorbachstr.","postalCode":"49134","locality":"Wallenhorst","municipality":{"key":"03459033","name":"Wallenhorst","type":"Kreisangehörige_Gemeinde"},"district":{"key":"03459","name":"Osnabrück","type":"Landkreis"},"federalState":{"key":"03","name":"Niedersachsen"}},{"name":"Moselstr.","postalCode":"49134","locality":"Wallenhorst","municipality":{"key":"03459033","name":"Wallenhorst","type":"Kreisangehörige_Gemeinde"},"district":{"key":"03459","name":"Osnabrück","type":"Landkreis"},"federalState":{"key":"03","name":"Niedersachsen"}},{"name":"Mozartstr.","postalCode":"49134","locality":"Wallenhorst","municipality":{"key":"03459033","name":"Wallenhorst","type":"Kreisangehörige_Gemeinde"},"district":{"key":"03459","name":"Osnabrück","type":"Landkreis"},"federalState":{"key":"03","name":"Niedersachsen"}},{"name":"Mühlenkamp","postalCode":"49134","locality":"Wallenhorst","municipality":{"key":"03459033","name":"Wallenhorst","type":"Kreisangehörige_Gemeinde"},"district":{"key":"03459","name":"Osnabrück","type":"Landkreis"},"federalState":{"key":"03","name":"Niedersachsen"}},{"name":"Mühlenstr.","postalCode":"49134","locality":"Wallenhorst","municipality":{"key":"03459033","name":"Wallenhorst","type":"Kreisangehörige_Gemeinde"},"district":{"key":"03459","name":"Osnabrück","type":"Landkreis"},"federalState":{"key":"03","name":"Niedersachsen"}},{"name":"Mühlgrabenstr.","postalCode":"96346","locality":"Wallenfels","municipality":{"key":"09476184","name":"Wallenfels, St","type":"Stadt"},"district":{"key":"09476","name":"Kronach","type":"Landkreis"},"federalState":{"key":"09","name":"Bayern"}},{"name":"Nachtigallenweg","postalCode":"49134","locality":"Wallenhorst","municipality":{"key":"03459033","name":"Wallenhorst","type":"Kreisangehörige_Gemeinde"},"district":{"key":"03459","name":"Osnabrück","type":"Landkreis"},"federalState":{"key":"03","name":"Niedersachsen"}},{"name":"Nasse Heide","postalCode":"49134","locality":"Wallenhorst","municipality":{"key":"03459033","name":"Wallenhorst","type":"Kreisangehörige_Gemeinde"},"district":{"key":"03459","name":"Osnabrück","type":"Landkreis"},"federalState":{"key":"03","name":"Niedersachsen"}},{"name":"Nelkenstr.","postalCode":"49134","locality":"Wallenhorst","municipality":{"key":"03459033","name":"Wallenhorst","type":"Kreisangehörige_Gemeinde"},"district":{"key":"03459","name":"Osnabrück","type":"Landkreis"},"federalState":{"key":"03","name":"Niedersachsen"}},{"name":"Neuer Weg","postalCode":"25788","locality":"Wallen","municipality":{"key":"01051120","name":"Wallen","type":"Kreisangehörige_Gemeinde"},"district":{"key":"01051","name":"Dithmarschen","type":"Kreis"},"federalState":{"key":"01","name":"Schleswig-Holstein"}},{"name":"Neue Str.","postalCode":"54570","locality":"Wallenborn","municipality":{"key":"07233079","name":"Wallenborn","type":"Kreisangehörige_Gemeinde"},"district":{"key":"07233","name":"Vulkaneifel","type":"Landkreis"},"federalState":{"key":"07","name":"Rheinland-Pfalz"}},{"name":"Neulandstr.","postalCode":"49134","locality":"Wallenhorst","municipality":{"key":"03459033","name":"Wallenhorst","type":"Kreisangehörige_Gemeinde"},"district":{"key":"03459","name":"Osnabrück","type":"Landkreis"},"federalState":{"key":"03","name":"Niedersachsen"}},{"name":"Niedersachsenstr.","postalCode":"49134","locality":"Wallenhorst","municipality":{"key":"03459033","name":"Wallenhorst","type":"Kreisangehörige_Gemeinde"},"district":{"key":"03459","name":"Osnabrück","type":"Landkreis"},"federalState":{"key":"03","name":"Niedersachsen"}},{"name":"Niehaus' Brücke","postalCode":"49134","locality":"Wallenhorst","municipality":{"key":"03459033","name":"Wallenhorst","type":"Kreisangehörige_Gemeinde"},"district":{"key":"03459","name":"Osnabrück","type":"Landkreis"},"federalState":{"key":"03","name":"Niedersachsen"}},{"name":"Niehaus' Kirchweg","postalCode":"49134","locality":"Wallenhorst","municipality":{"key":"03459033","name":"Wallenhorst","type":"Kreisangehörige_Gemeinde"},"district":{"key":"03459","name":"Osnabrück","type":"Landkreis"},"federalState":{"key":"03","name":"Niedersachsen"}},{"name":"Nikolaus-Groß-Str.","postalCode":"49134","locality":"Wallenhorst","municipality":{"key":"03459033","name":"Wallenhorst","type":"Kreisangehörige_Gemeinde"},"district":{"key":"03459","name":"Osnabrück","type":"Landkreis"},"federalState":{"key":"03","name":"Niedersachsen"}},{"name":"Noldestr.","postalCode":"49134","locality":"Wallenhorst","municipality":{"key":"03459033","name":"Wallenhorst","type":"Kreisangehörige_Gemeinde"},"district":{"key":"03459","name":"Osnabrück","type":"Landkreis"},"federalState":{"key":"03","name":"Niedersachsen"}},{"name":"Nonnenpfad","postalCode":"49134","locality":"Wallenhorst","municipality":{"key":"03459033","name":"Wallenhorst","type":"Kreisangehörige_Gemeinde"},"district":{"key":"03459","name":"Osnabrück","type":"Landkreis"},"federalState":{"key":"03","name":"Niedersachsen"}},{"name":"Orchideenstr.","postalCode":"54675","locality":"Wallendorf","municipality":{"key":"07232131","name":"Wallendorf","type":"Kreisangehörige_Gemeinde"},"district":{"key":"07232","name":"Eifelkreis Bitburg-Prüm","type":"Landkreis"},"federalState":{"key":"07","name":"Rheinland-Pfalz"}},{"name":"Osnabrücker Str.","postalCode":"49134","locality":"Wallenhorst","municipality":{"key":"03459033","name":"Wallenhorst","type":"Kreisangehörige_Gemeinde"},"district":{"key":"03459","name":"Osnabrück","type":"Landkreis"},"federalState":{"key":"03","name":"Niedersachsen"}},{"name":"Otto-Hahn-Str.","postalCode":"49134","locality":"Wallenhorst","municipality":{"key":"03459033","name":"Wallenhorst","type":"Kreisangehörige_Gemeinde"},"district":{"key":"03459","name":"Osnabrück","type":"Landkreis"},"federalState":{"key":"03","name":"Niedersachsen"}},{"name":"Otto-Lilienthal-Str.","postalCode":"49134","locality":"Wallenhorst","municipality":{"key":"03459033","name":"Wallenhorst","type":"Kreisangehörige_Gemeinde"},"district":{"key":"03459","name":"Osnabrück","type":"Landkreis"},"federalState":{"key":"03","name":"Niedersachsen"}},{"name":"Otto-von-Guericke-Str.","postalCode":"49134","locality":"Wallenhorst","municipality":{"key":"03459033","name":"Wallenhorst","type":"Kreisangehörige_Gemeinde"},"district":{"key":"03459","name":"Osnabrück","type":"Landkreis"},"federalState":{"key":"03","name":"Niedersachsen"}},{"name":"Ourtalstr.","postalCode":"54675","locality":"Wallendorf","municipality":{"key":"07232131","name":"Wallendorf","type":"Kreisangehörige_Gemeinde"},"district":{"key":"07232","name":"Eifelkreis Bitburg-Prüm","type":"Landkreis"},"federalState":{"key":"07","name":"Rheinland-Pfalz"}},{"name":"Overbergstr.","postalCode":"49134","locality":"Wallenhorst","municipality":{"key":"03459033","name":"Wallenhorst","type":"Kreisangehörige_Gemeinde"},"district":{"key":"03459","name":"Osnabrück","type":"Landkreis"},"federalState":{"key":"03","name":"Niedersachsen"}},{"name":"Pahlener Str.","postalCode":"25788","locality":"Wallen","municipality":{"key":"01051120","name":"Wallen","type":"Kreisangehörige_Gemeinde"},"district":{"key":"01051","name":"Dithmarschen","type":"Kreis"},"federalState":{"key":"01","name":"Schleswig-Holstein"}},{"name":"Pankower Str.","postalCode":"49134","locality":"Wallenhorst","municipality":{"key":"03459033","name":"Wallenhorst","type":"Kreisangehörige_Gemeinde"},"district":{"key":"03459","name":"Osnabrück","type":"Landkreis"},"federalState":{"key":"03","name":"Niedersachsen"}},{"name":"Parkallee","postalCode":"49134","locality":"Wallenhorst","municipality":{"key":"03459033","name":"Wallenhorst","type":"Kreisangehörige_Gemeinde"},"district":{"key":"03459","name":"Osnabrück","type":"Landkreis"},"federalState":{"key":"03","name":"Niedersachsen"}},{"name":"Pastor-Lichtenbäumer-Str.","postalCode":"49134","locality":"Wallenhorst","municipality":{"key":"03459033","name":"Wallenhorst","type":"Kreisangehörige_Gemeinde"},"district":{"key":"03459","name":"Osnabrück","type":"Landkreis"},"federalState":{"key":"03","name":"Niedersachsen"}},{"name":"Paul-Melchers-Str.","postalCode":"49134","locality":"Wallenhorst","municipality":{"key":"03459033","name":"Wallenhorst","type":"Kreisangehörige_Gemeinde"},"district":{"key":"03459","name":"Osnabrück","type":"Landkreis"},"federalState":{"key":"03","name":"Niedersachsen"}},{"name":"Penter Str.","postalCode":"49134","locality":"Wallenhorst","municipality":{"key":"03459033","name":"Wallenhorst","type":"Kreisangehörige_Gemeinde"},"district":{"key":"03459","name":"Osnabrück","type":"Landkreis"},"federalState":{"key":"03","name":"Niedersachsen"}},{"name":"Pfarrer-Gareis-Str.","postalCode":"96346","locality":"Wallenfels","municipality":{"key":"09476184","name":"Wallenfels, St","type":"Stadt"},"district":{"key":"09476","name":"Kronach","type":"Landkreis"},"federalState":{"key":"09","name":"Bayern"}},{"name":"Pferdebruch","postalCode":"49134","locality":"Wallenhorst","municipality":{"key":"03459033","name":"Wallenhorst","type":"Kreisangehörige_Gemeinde"},"district":{"key":"03459","name":"Osnabrück","type":"Landkreis"},"federalState":{"key":"03","name":"Niedersachsen"}},{"name":"Pielagestr.","postalCode":"49134","locality":"Wallenhorst","municipality":{"key":"03459033","name":"Wallenhorst","type":"Kreisangehörige_Gemeinde"},"district":{"key":"03459","name":"Osnabrück","type":"Landkreis"},"federalState":{"key":"03","name":"Niedersachsen"}},{"name":"Piusstr.","postalCode":"49134","locality":"Wallenhorst","municipality":{"key":"03459033","name":"Wallenhorst","type":"Kreisangehörige_Gemeinde"},"district":{"key":"03459","name":"Osnabrück","type":"Landkreis"},"federalState":{"key":"03","name":"Niedersachsen"}},{"name":"Plaggenweg","postalCode":"49134","locality":"Wallenhorst","municipality":{"key":"03459033","name":"Wallenhorst","type":"Kreisangehörige_Gemeinde"},"district":{"key":"03459","name":"Osnabrück","type":"Landkreis"},"federalState":{"key":"03","name":"Niedersachsen"}},{"name":"Porschestr.","postalCode":"49134","locality":"Wallenhorst","municipality":{"key":"03459033","name":"Wallenhorst","type":"Kreisangehörige_Gemeinde"},"district":{"key":"03459","name":"Osnabrück","type":"Landkreis"},"federalState":{"key":"03","name":"Niedersachsen"}},{"name":"Portkamp","postalCode":"49134","locality":"Wallenhorst","municipality":{"key":"03459033","name":"Wallenhorst","type":"Kreisangehörige_Gemeinde"},"district":{"key":"03459","name":"Osnabrück","type":"Landkreis"},"federalState":{"key":"03","name":"Niedersachsen"}},{"name":"Poststr.","postalCode":"49134","locality":"Wallenhorst","municipality":{"key":"03459033","name":"Wallenhorst","type":"Kreisangehörige_Gemeinde"},"district":{"key":"03459","name":"Osnabrück","type":"Landkreis"},"federalState":{"key":"03","name":"Niedersachsen"}},{"name":"Prozessionsweg","postalCode":"49134","locality":"Wallenhorst","municipality":{"key":"03459033","name":"Wallenhorst","type":"Kreisangehörige_Gemeinde"},"district":{"key":"03459","name":"Osnabrück","type":"Landkreis"},"federalState":{"key":"03","name":"Niedersachsen"}},{"name":"Pyer Kirchweg","postalCode":"49134","locality":"Wallenhorst","municipality":{"key":"03459033","name":"Wallenhorst","type":"Kreisangehörige_Gemeinde"},"district":{"key":"03459","name":"Osnabrück","type":"Landkreis"},"federalState":{"key":"03","name":"Niedersachsen"}},{"name":"Pyer Str.","postalCode":"49134","locality":"Wallenhorst","municipality":{"key":"03459033","name":"Wallenhorst","type":"Kreisangehörige_Gemeinde"},"district":{"key":"03459","name":"Osnabrück","type":"Landkreis"},"federalState":{"key":"03","name":"Niedersachsen"}},{"name":"Querstr.","postalCode":"49134","locality":"Wallenhorst","municipality":{"key":"03459033","name":"Wallenhorst","type":"Kreisangehörige_Gemeinde"},"district":{"key":"03459","name":"Osnabrück","type":"Landkreis"},"federalState":{"key":"03","name":"Niedersachsen"}},{"name":"Raffaelstr.","postalCode":"49134","locality":"Wallenhorst","municipality":{"key":"03459033","name":"Wallenhorst","type":"Kreisangehörige_Gemeinde"},"district":{"key":"03459","name":"Osnabrück","type":"Landkreis"},"federalState":{"key":"03","name":"Niedersachsen"}},{"name":"Raiffeisenstr.","postalCode":"49134","locality":"Wallenhorst","municipality":{"key":"03459033","name":"Wallenhorst","type":"Kreisangehörige_Gemeinde"},"district":{"key":"03459","name":"Osnabrück","type":"Landkreis"},"federalState":{"key":"03","name":"Niedersachsen"}},{"name":"Rathausgasse","postalCode":"96346","locality":"Wallenfels","municipality":{"key":"09476184","name":"Wallenfels, St","type":"Stadt"},"district":{"key":"09476","name":"Kronach","type":"Landkreis"},"federalState":{"key":"09","name":"Bayern"}},{"name":"Reiterweg","postalCode":"49134","locality":"Wallenhorst","municipality":{"key":"03459033","name":"Wallenhorst","type":"Kreisangehörige_Gemeinde"},"district":{"key":"03459","name":"Osnabrück","type":"Landkreis"},"federalState":{"key":"03","name":"Niedersachsen"}},{"name":"Rembrandtstr.","postalCode":"49134","locality":"Wallenhorst","municipality":{"key":"03459033","name":"Wallenhorst","type":"Kreisangehörige_Gemeinde"},"district":{"key":"03459","name":"Osnabrück","type":"Landkreis"},"federalState":{"key":"03","name":"Niedersachsen"}},{"name":"Rheinstr.","postalCode":"49134","locality":"Wallenhorst","municipality":{"key":"03459033","name":"Wallenhorst","type":"Kreisangehörige_Gemeinde"},"district":{"key":"03459","name":"Osnabrück","type":"Landkreis"},"federalState":{"key":"03","name":"Niedersachsen"}},{"name":"Richard-Wagner-Str.","postalCode":"49134","locality":"Wallenhorst","municipality":{"key":"03459033","name":"Wallenhorst","type":"Kreisangehörige_Gemeinde"},"district":{"key":"03459","name":"Osnabrück","type":"Landkreis"},"federalState":{"key":"03","name":"Niedersachsen"}},{"name":"Riedensweg","postalCode":"49134","locality":"Wallenhorst","municipality":{"key":"03459033","name":"Wallenhorst","type":"Kreisangehörige_Gemeinde"},"district":{"key":"03459","name":"Osnabrück","type":"Landkreis"},"federalState":{"key":"03","name":"Niedersachsen"}},{"name":"Riehenmoorweg","postalCode":"49134","locality":"Wallenhorst","municipality":{"key":"03459033","name":"Wallenhorst","type":"Kreisangehörige_Gemeinde"},"district":{"key":"03459","name":"Osnabrück","type":"Landkreis"},"federalState":{"key":"03","name":"Niedersachsen"}},{"name":"Rimbertstr.","postalCode":"49134","locality":"Wallenhorst","municipality":{"key":"03459033","name":"Wallenhorst","type":"Kreisangehörige_Gemeinde"},"district":{"key":"03459","name":"Osnabrück","type":"Landkreis"},"federalState":{"key":"03","name":"Niedersachsen"}},{"name":"Ringstr.","postalCode":"49134","locality":"Wallenhorst","municipality":{"key":"03459033","name":"Wallenhorst","type":"Kreisangehörige_Gemeinde"},"district":{"key":"03459","name":"Osnabrück","type":"Landkreis"},"federalState":{"key":"03","name":"Niedersachsen"}},{"name":"Robert-Bosch-Str.","postalCode":"49134","locality":"Wallenhorst","municipality":{"key":"03459033","name":"Wallenhorst","type":"Kreisangehörige_Gemeinde"},"district":{"key":"03459","name":"Osnabrück","type":"Landkreis"},"federalState":{"key":"03","name":"Niedersachsen"}},{"name":"Rosenstr.","postalCode":"49134","locality":"Wallenhorst","municipality":{"key":"03459033","name":"Wallenhorst","type":"Kreisangehörige_Gemeinde"},"district":{"key":"03459","name":"Osnabrück","type":"Landkreis"},"federalState":{"key":"03","name":"Niedersachsen"}},{"name":"Rottkamp","postalCode":"49134","locality":"Wallenhorst","municipality":{"key":"03459033","name":"Wallenhorst","type":"Kreisangehörige_Gemeinde"},"district":{"key":"03459","name":"Osnabrück","type":"Landkreis"},"federalState":{"key":"03","name":"Niedersachsen"}},{"name":"Rubensstr.","postalCode":"49134","locality":"Wallenhorst","municipality":{"key":"03459033","name":"Wallenhorst","type":"Kreisangehörige_Gemeinde"},"district":{"key":"03459","name":"Osnabrück","type":"Landkreis"},"federalState":{"key":"03","name":"Niedersachsen"}},{"name":"Rückertstr.","postalCode":"49134","locality":"Wallenhorst","municipality":{"key":"03459033","name":"Wallenhorst","type":"Kreisangehörige_Gemeinde"},"district":{"key":"03459","name":"Osnabrück","type":"Landkreis"},"federalState":{"key":"03","name":"Niedersachsen"}},{"name":"Rudolf-Harbig-Str.","postalCode":"49134","locality":"Wallenhorst","municipality":{"key":"03459033","name":"Wallenhorst","type":"Kreisangehörige_Gemeinde"},"district":{"key":"03459","name":"Osnabrück","type":"Landkreis"},"federalState":{"key":"03","name":"Niedersachsen"}},{"name":"Ruller Str.","postalCode":"49134","locality":"Wallenhorst","municipality":{"key":"03459033","name":"Wallenhorst","type":"Kreisangehörige_Gemeinde"},"district":{"key":"03459","name":"Osnabrück","type":"Landkreis"},"federalState":{"key":"03","name":"Niedersachsen"}},{"name":"Rundwanderweg Piesberg","postalCode":"49134","locality":"Wallenhorst","municipality":{"key":"03459033","name":"Wallenhorst","type":"Kreisangehörige_Gemeinde"},"district":{"key":"03459","name":"Osnabrück","type":"Landkreis"},"federalState":{"key":"03","name":"Niedersachsen"}},{"name":"Sachsegge","postalCode":"49134","locality":"Wallenhorst","municipality":{"key":"03459033","name":"Wallenhorst","type":"Kreisangehörige_Gemeinde"},"district":{"key":"03459","name":"Osnabrück","type":"Landkreis"},"federalState":{"key":"03","name":"Niedersachsen"}},{"name":"Salmer Weg","postalCode":"54570","locality":"Wallenborn","municipality":{"key":"07233079","name":"Wallenborn","type":"Kreisangehörige_Gemeinde"},"district":{"key":"07233","name":"Vulkaneifel","type":"Landkreis"},"federalState":{"key":"07","name":"Rheinland-Pfalz"}},{"name":"Sandbreite","postalCode":"49134","locality":"Wallenhorst","municipality":{"key":"03459033","name":"Wallenhorst","type":"Kreisangehörige_Gemeinde"},"district":{"key":"03459","name":"Osnabrück","type":"Landkreis"},"federalState":{"key":"03","name":"Niedersachsen"}},{"name":"Sauertalstr.","postalCode":"54675","locality":"Wallendorf","municipality":{"key":"07232131","name":"Wallendorf","type":"Kreisangehörige_Gemeinde"},"district":{"key":"07232","name":"Eifelkreis Bitburg-Prüm","type":"Landkreis"},"federalState":{"key":"07","name":"Rheinland-Pfalz"}},{"name":"Schillerstr.","postalCode":"49134","locality":"Wallenhorst","municipality":{"key":"03459033","name":"Wallenhorst","type":"Kreisangehörige_Gemeinde"},"district":{"key":"03459","name":"Osnabrück","type":"Landkreis"},"federalState":{"key":"03","name":"Niedersachsen"}},{"name":"Schlehenweg","postalCode":"49134","locality":"Wallenhorst","municipality":{"key":"03459033","name":"Wallenhorst","type":"Kreisangehörige_Gemeinde"},"district":{"key":"03459","name":"Osnabrück","type":"Landkreis"},"federalState":{"key":"03","name":"Niedersachsen"}},{"name":"Schleptruper Kirchweg","postalCode":"49134","locality":"Wallenhorst","municipality":{"key":"03459033","name":"Wallenhorst","type":"Kreisangehörige_Gemeinde"},"district":{"key":"03459","name":"Osnabrück","type":"Landkreis"},"federalState":{"key":"03","name":"Niedersachsen"}},{"name":"Schleusenweg","postalCode":"96346","locality":"Wallenfels","municipality":{"key":"09476184","name":"Wallenfels, St","type":"Stadt"},"district":{"key":"09476","name":"Kronach","type":"Landkreis"},"federalState":{"key":"09","name":"Bayern"}},{"name":"Schneidling","postalCode":"49134","locality":"Wallenhorst","municipality":{"key":"03459033","name":"Wallenhorst","type":"Kreisangehörige_Gemeinde"},"district":{"key":"03459","name":"Osnabrück","type":"Landkreis"},"federalState":{"key":"03","name":"Niedersachsen"}},{"name":"Schnepfenweg","postalCode":"49134","locality":"Wallenhorst","municipality":{"key":"03459033","name":"Wallenhorst","type":"Kreisangehörige_Gemeinde"},"district":{"key":"03459","name":"Osnabrück","type":"Landkreis"},"federalState":{"key":"03","name":"Niedersachsen"}},{"name":"Schnippelkamp","postalCode":"49134","locality":"Wallenhorst","municipality":{"key":"03459033","name":"Wallenhorst","type":"Kreisangehörige_Gemeinde"},"district":{"key":"03459","name":"Osnabrück","type":"Landkreis"},"federalState":{"key":"03","name":"Niedersachsen"}},{"name":"Schöneberger Str.","postalCode":"49134","locality":"Wallenhorst","municipality":{"key":"03459033","name":"Wallenhorst","type":"Kreisangehörige_Gemeinde"},"district":{"key":"03459","name":"Osnabrück","type":"Landkreis"},"federalState":{"key":"03","name":"Niedersachsen"}},{"name":"Schubertstr.","postalCode":"49134","locality":"Wallenhorst","municipality":{"key":"03459033","name":"Wallenhorst","type":"Kreisangehörige_Gemeinde"},"district":{"key":"03459","name":"Osnabrück","type":"Landkreis"},"federalState":{"key":"03","name":"Niedersachsen"}},{"name":"Schulstr.","postalCode":"54570","locality":"Wallenborn","municipality":{"key":"07233079","name":"Wallenborn","type":"Kreisangehörige_Gemeinde"},"district":{"key":"07233","name":"Vulkaneifel","type":"Landkreis"},"federalState":{"key":"07","name":"Rheinland-Pfalz"}},{"name":"Schützenstr.","postalCode":"96346","locality":"Wallenfels","municipality":{"key":"09476184","name":"Wallenfels, St","type":"Stadt"},"district":{"key":"09476","name":"Kronach","type":"Landkreis"},"federalState":{"key":"09","name":"Bayern"}},{"name":"Schwalbenweg","postalCode":"49134","locality":"Wallenhorst","municipality":{"key":"03459033","name":"Wallenhorst","type":"Kreisangehörige_Gemeinde"},"district":{"key":"03459","name":"Osnabrück","type":"Landkreis"},"federalState":{"key":"03","name":"Niedersachsen"}},{"name":"Schwede-Allee","postalCode":"49134","locality":"Wallenhorst","municipality":{"key":"03459033","name":"Wallenhorst","type":"Kreisangehörige_Gemeinde"},"district":{"key":"03459","name":"Osnabrück","type":"Landkreis"},"federalState":{"key":"03","name":"Niedersachsen"}},{"name":"Schweer'scher Dreiecksweg","postalCode":"49134","locality":"Wallenhorst","municipality":{"key":"03459033","name":"Wallenhorst","type":"Kreisangehörige_Gemeinde"},"district":{"key":"03459","name":"Osnabrück","type":"Landkreis"},"federalState":{"key":"03","name":"Niedersachsen"}},{"name":"Selzachtal","postalCode":"96346","locality":"Wallenfels","municipality":{"key":"09476184","name":"Wallenfels, St","type":"Stadt"},"district":{"key":"09476","name":"Kronach","type":"Landkreis"},"federalState":{"key":"09","name":"Bayern"}},{"name":"Siedlung","postalCode":"96346","locality":"Wallenfels","municipality":{"key":"09476184","name":"Wallenfels, St","type":"Stadt"},"district":{"key":"09476","name":"Kronach","type":"Landkreis"},"federalState":{"key":"09","name":"Bayern"}},{"name":"Siemensstr.","postalCode":"49134","locality":"Wallenhorst","municipality":{"key":"03459033","name":"Wallenhorst","type":"Kreisangehörige_Gemeinde"},"district":{"key":"03459","name":"Osnabrück","type":"Landkreis"},"federalState":{"key":"03","name":"Niedersachsen"}},{"name":"Singletrack","postalCode":"49134","locality":"Wallenhorst","municipality":{"key":"03459033","name":"Wallenhorst","type":"Kreisangehörige_Gemeinde"},"district":{"key":"03459","name":"Osnabrück","type":"Landkreis"},"federalState":{"key":"03","name":"Niedersachsen"}},{"name":"Spandauer Str.","postalCode":"49134","locality":"Wallenhorst","municipality":{"key":"03459033","name":"Wallenhorst","type":"Kreisangehörige_Gemeinde"},"district":{"key":"03459","name":"Osnabrück","type":"Landkreis"},"federalState":{"key":"03","name":"Niedersachsen"}},{"name":"Sperberhof","postalCode":"49134","locality":"Wallenhorst","municipality":{"key":"03459033","name":"Wallenhorst","type":"Kreisangehörige_Gemeinde"},"district":{"key":"03459","name":"Osnabrück","type":"Landkreis"},"federalState":{"key":"03","name":"Niedersachsen"}},{"name":"Sperlingsweg","postalCode":"49134","locality":"Wallenhorst","municipality":{"key":"03459033","name":"Wallenhorst","type":"Kreisangehörige_Gemeinde"},"district":{"key":"03459","name":"Osnabrück","type":"Landkreis"},"federalState":{"key":"03","name":"Niedersachsen"}},{"name":"Spitalstr.","postalCode":"96346","locality":"Wallenfels","municipality":{"key":"09476184","name":"Wallenfels, St","type":"Stadt"},"district":{"key":"09476","name":"Kronach","type":"Landkreis"},"federalState":{"key":"09","name":"Bayern"}},{"name":"Spitzwegstr.","postalCode":"49134","locality":"Wallenhorst","municipality":{"key":"03459033","name":"Wallenhorst","type":"Kreisangehörige_Gemeinde"},"district":{"key":"03459","name":"Osnabrück","type":"Landkreis"},"federalState":{"key":"03","name":"Niedersachsen"}},{"name":"Sprehenbusch","postalCode":"49134","locality":"Wallenhorst","municipality":{"key":"03459033","name":"Wallenhorst","type":"Kreisangehörige_Gemeinde"},"district":{"key":"03459","name":"Osnabrück","type":"Landkreis"},"federalState":{"key":"03","name":"Niedersachsen"}},{"name":"Stadtweg","postalCode":"49134","locality":"Wallenhorst","municipality":{"key":"03459033","name":"Wallenhorst","type":"Kreisangehörige_Gemeinde"},"district":{"key":"03459","name":"Osnabrück","type":"Landkreis"},"federalState":{"key":"03","name":"Niedersachsen"}},{"name":"Stapelkamp","postalCode":"49134","locality":"Wallenhorst","municipality":{"key":"03459033","name":"Wallenhorst","type":"Kreisangehörige_Gemeinde"},"district":{"key":"03459","name":"Osnabrück","type":"Landkreis"},"federalState":{"key":"03","name":"Niedersachsen"}},{"name":"Starenweg","postalCode":"49134","locality":"Wallenhorst","municipality":{"key":"03459033","name":"Wallenhorst","type":"Kreisangehörige_Gemeinde"},"district":{"key":"03459","name":"Osnabrück","type":"Landkreis"},"federalState":{"key":"03","name":"Niedersachsen"}},{"name":"Stauffenbergstr.","postalCode":"49134","locality":"Wallenhorst","municipality":{"key":"03459033","name":"Wallenhorst","type":"Kreisangehörige_Gemeinde"},"district":{"key":"03459","name":"Osnabrück","type":"Landkreis"},"federalState":{"key":"03","name":"Niedersachsen"}},{"name":"St. Bernhardsweg","postalCode":"49134","locality":"Wallenhorst","municipality":{"key":"03459033","name":"Wallenhorst","type":"Kreisangehörige_Gemeinde"},"district":{"key":"03459","name":"Osnabrück","type":"Landkreis"},"federalState":{"key":"03","name":"Niedersachsen"}},{"name":"Stegerwaldstr.","postalCode":"49134","locality":"Wallenhorst","municipality":{"key":"03459033","name":"Wallenhorst","type":"Kreisangehörige_Gemeinde"},"district":{"key":"03459","name":"Osnabrück","type":"Landkreis"},"federalState":{"key":"03","name":"Niedersachsen"}},{"name":"Steigerstr.","postalCode":"49134","locality":"Wallenhorst","municipality":{"key":"03459033","name":"Wallenhorst","type":"Kreisangehörige_Gemeinde"},"district":{"key":"03459","name":"Osnabrück","type":"Landkreis"},"federalState":{"key":"03","name":"Niedersachsen"}},{"name":"Stephansring","postalCode":"49134","locality":"Wallenhorst","municipality":{"key":"03459033","name":"Wallenhorst","type":"Kreisangehörige_Gemeinde"},"district":{"key":"03459","name":"Osnabrück","type":"Landkreis"},"federalState":{"key":"03","name":"Niedersachsen"}},{"name":"Sternstr.","postalCode":"49134","locality":"Wallenhorst","municipality":{"key":"03459033","name":"Wallenhorst","type":"Kreisangehörige_Gemeinde"},"district":{"key":"03459","name":"Osnabrück","type":"Landkreis"},"federalState":{"key":"03","name":"Niedersachsen"}},{"name":"Stollenweg","postalCode":"49134","locality":"Wallenhorst","municipality":{"key":"03459033","name":"Wallenhorst","type":"Kreisangehörige_Gemeinde"},"district":{"key":"03459","name":"Osnabrück","type":"Landkreis"},"federalState":{"key":"03","name":"Niedersachsen"}},{"name":"Stüvestr.","postalCode":"49134","locality":"Wallenhorst","municipality":{"key":"03459033","name":"Wallenhorst","type":"Kreisangehörige_Gemeinde"},"district":{"key":"03459","name":"Osnabrück","type":"Landkreis"},"federalState":{"key":"03","name":"Niedersachsen"}},{"name":"Talstr.","postalCode":"49134","locality":"Wallenhorst","municipality":{"key":"03459033","name":"Wallenhorst","type":"Kreisangehörige_Gemeinde"},"district":{"key":"03459","name":"Osnabrück","type":"Landkreis"},"federalState":{"key":"03","name":"Niedersachsen"}},{"name":"Tannenkamp","postalCode":"49134","locality":"Wallenhorst","municipality":{"key":"03459033","name":"Wallenhorst","type":"Kreisangehörige_Gemeinde"},"district":{"key":"03459","name":"Osnabrück","type":"Landkreis"},"federalState":{"key":"03","name":"Niedersachsen"}},{"name":"Theodor-Heuss-Str.","postalCode":"49134","locality":"Wallenhorst","municipality":{"key":"03459033","name":"Wallenhorst","type":"Kreisangehörige_Gemeinde"},"district":{"key":"03459","name":"Osnabrück","type":"Landkreis"},"federalState":{"key":"03","name":"Niedersachsen"}},{"name":"Tuchwiese","postalCode":"54570","locality":"Wallenborn","municipality":{"key":"07233079","name":"Wallenborn","type":"Kreisangehörige_Gemeinde"},"district":{"key":"07233","name":"Vulkaneifel","type":"Landkreis"},"federalState":{"key":"07","name":"Rheinland-Pfalz"}},{"name":"Tulpenstr.","postalCode":"49134","locality":"Wallenhorst","municipality":{"key":"03459033","name":"Wallenhorst","type":"Kreisangehörige_Gemeinde"},"district":{"key":"03459","name":"Osnabrück","type":"Landkreis"},"federalState":{"key":"03","name":"Niedersachsen"}},{"name":"Uhlandstr.","postalCode":"49134","locality":"Wallenhorst","municipality":{"key":"03459033","name":"Wallenhorst","type":"Kreisangehörige_Gemeinde"},"district":{"key":"03459","name":"Osnabrück","type":"Landkreis"},"federalState":{"key":"03","name":"Niedersachsen"}},{"name":"Uhlenhorst","postalCode":"49134","locality":"Wallenhorst","municipality":{"key":"03459033","name":"Wallenhorst","type":"Kreisangehörige_Gemeinde"},"district":{"key":"03459","name":"Osnabrück","type":"Landkreis"},"federalState":{"key":"03","name":"Niedersachsen"}},{"name":"Vehrter Landstr.","postalCode":"49134","locality":"Wallenhorst","municipality":{"key":"03459033","name":"Wallenhorst","type":"Kreisangehörige_Gemeinde"},"district":{"key":"03459","name":"Osnabrück","type":"Landkreis"},"federalState":{"key":"03","name":"Niedersachsen"}},{"name":"Veilchenstr.","postalCode":"49134","locality":"Wallenhorst","municipality":{"key":"03459033","name":"Wallenhorst","type":"Kreisangehörige_Gemeinde"},"district":{"key":"03459","name":"Osnabrück","type":"Landkreis"},"federalState":{"key":"03","name":"Niedersachsen"}},{"name":"Von-Hardenberg-Str.","postalCode":"49134","locality":"Wallenhorst","municipality":{"key":"03459033","name":"Wallenhorst","type":"Kreisangehörige_Gemeinde"},"district":{"key":"03459","name":"Osnabrück","type":"Landkreis"},"federalState":{"key":"03","name":"Niedersachsen"}},{"name":"Von-Hövell-Str.","postalCode":"49134","locality":"Wallenhorst","municipality":{"key":"03459033","name":"Wallenhorst","type":"Kreisangehörige_Gemeinde"},"district":{"key":"03459","name":"Osnabrück","type":"Landkreis"},"federalState":{"key":"03","name":"Niedersachsen"}},{"name":"Von-Miquel-Str.","postalCode":"49134","locality":"Wallenhorst","municipality":{"key":"03459033","name":"Wallenhorst","type":"Kreisangehörige_Gemeinde"},"district":{"key":"03459","name":"Osnabrück","type":"Landkreis"},"federalState":{"key":"03","name":"Niedersachsen"}},{"name":"Von-Wartenberg-Str.","postalCode":"49134","locality":"Wallenhorst","municipality":{"key":"03459033","name":"Wallenhorst","type":"Kreisangehörige_Gemeinde"},"district":{"key":"03459","name":"Osnabrück","type":"Landkreis"},"federalState":{"key":"03","name":"Niedersachsen"}},{"name":"Vor dem Bruch","postalCode":"49134","locality":"Wallenhorst","municipality":{"key":"03459033","name":"Wallenhorst","type":"Kreisangehörige_Gemeinde"},"district":{"key":"03459","name":"Osnabrück","type":"Landkreis"},"federalState":{"key":"03","name":"Niedersachsen"}},{"name":"Wacholderweg","postalCode":"49134","locality":"Wallenhorst","municipality":{"key":"03459033","name":"Wallenhorst","type":"Kreisangehörige_Gemeinde"},"district":{"key":"03459","name":"Osnabrück","type":"Landkreis"},"federalState":{"key":"03","name":"Niedersachsen"}},{"name":"Wallenhorster Weg","postalCode":"49134","locality":"Wallenhorst","municipality":{"key":"03459033","name":"Wallenhorst","type":"Kreisangehörige_Gemeinde"},"district":{"key":"03459","name":"Osnabrück","type":"Landkreis"},"federalState":{"key":"03","name":"Niedersachsen"}},{"name":"Weberstr.","postalCode":"49134","locality":"Wallenhorst","municipality":{"key":"03459033","name":"Wallenhorst","type":"Kreisangehörige_Gemeinde"},"district":{"key":"03459","name":"Osnabrück","type":"Landkreis"},"federalState":{"key":"03","name":"Niedersachsen"}},{"name":"Weidenbacher Str.","postalCode":"54570","locality":"Wallenborn","municipality":{"key":"07233079","name":"Wallenborn","type":"Kreisangehörige_Gemeinde"},"district":{"key":"07233","name":"Vulkaneifel","type":"Landkreis"},"federalState":{"key":"07","name":"Rheinland-Pfalz"}},{"name":"Weidengrund","postalCode":"49134","locality":"Wallenhorst","municipality":{"key":"03459033","name":"Wallenhorst","type":"Kreisangehörige_Gemeinde"},"district":{"key":"03459","name":"Osnabrück","type":"Landkreis"},"federalState":{"key":"03","name":"Niedersachsen"}},{"name":"Welfenstr.","postalCode":"49134","locality":"Wallenhorst","municipality":{"key":"03459033","name":"Wallenhorst","type":"Kreisangehörige_Gemeinde"},"district":{"key":"03459","name":"Osnabrück","type":"Landkreis"},"federalState":{"key":"03","name":"Niedersachsen"}},{"name":"Wellesmühle","postalCode":"96346","locality":"Wallenfels","municipality":{"key":"09476184","name":"Wallenfels, St","type":"Stadt"},"district":{"key":"09476","name":"Kronach","type":"Landkreis"},"federalState":{"key":"09","name":"Bayern"}},{"name":"Wellhügel","postalCode":"49134","locality":"Wallenhorst","municipality":{"key":"03459033","name":"Wallenhorst","type":"Kreisangehörige_Gemeinde"},"district":{"key":"03459","name":"Osnabrück","type":"Landkreis"},"federalState":{"key":"03","name":"Niedersachsen"}},{"name":"Werner-Heisenberg-Str.","postalCode":"49134","locality":"Wallenhorst","municipality":{"key":"03459033","name":"Wallenhorst","type":"Kreisangehörige_Gemeinde"},"district":{"key":"03459","name":"Osnabrück","type":"Landkreis"},"federalState":{"key":"03","name":"Niedersachsen"}},{"name":"Weserstr.","postalCode":"49134","locality":"Wallenhorst","municipality":{"key":"03459033","name":"Wallenhorst","type":"Kreisangehörige_Gemeinde"},"district":{"key":"03459","name":"Osnabrück","type":"Landkreis"},"federalState":{"key":"03","name":"Niedersachsen"}},{"name":"Wessels Str.","postalCode":"49134","locality":"Wallenhorst","municipality":{"key":"03459033","name":"Wallenhorst","type":"Kreisangehörige_Gemeinde"},"district":{"key":"03459","name":"Osnabrück","type":"Landkreis"},"federalState":{"key":"03","name":"Niedersachsen"}},{"name":"Wetrihstr.","postalCode":"49134","locality":"Wallenhorst","municipality":{"key":"03459033","name":"Wallenhorst","type":"Kreisangehörige_Gemeinde"},"district":{"key":"03459","name":"Osnabrück","type":"Landkreis"},"federalState":{"key":"03","name":"Niedersachsen"}},{"name":"Wielandstr.","postalCode":"49134","locality":"Wallenhorst","municipality":{"key":"03459033","name":"Wallenhorst","type":"Kreisangehörige_Gemeinde"},"district":{"key":"03459","name":"Osnabrück","type":"Landkreis"},"federalState":{"key":"03","name":"Niedersachsen"}},{"name":"Wiesenstr.","postalCode":"96346","locality":"Wallenfels","municipality":{"key":"09476184","name":"Wallenfels, St","type":"Stadt"},"district":{"key":"09476","name":"Kronach","type":"Landkreis"},"federalState":{"key":"09","name":"Bayern"}},{"name":"Wihostr.","postalCode":"49134","locality":"Wallenhorst","municipality":{"key":"03459033","name":"Wallenhorst","type":"Kreisangehörige_Gemeinde"},"district":{"key":"03459","name":"Osnabrück","type":"Landkreis"},"federalState":{"key":"03","name":"Niedersachsen"}},{"name":"Wilhelm-Leuschner-Str.","postalCode":"49134","locality":"Wallenhorst","municipality":{"key":"03459033","name":"Wallenhorst","type":"Kreisangehörige_Gemeinde"},"district":{"key":"03459","name":"Osnabrück","type":"Landkreis"},"federalState":{"key":"03","name":"Niedersachsen"}},{"name":"Wilhelm-Röntgen-Str.","postalCode":"49134","locality":"Wallenhorst","municipality":{"key":"03459033","name":"Wallenhorst","type":"Kreisangehörige_Gemeinde"},"district":{"key":"03459","name":"Osnabrück","type":"Landkreis"},"federalState":{"key":"03","name":"Niedersachsen"}},{"name":"Wilhelm-Weß-Str.","postalCode":"49134","locality":"Wallenhorst","municipality":{"key":"03459033","name":"Wallenhorst","type":"Kreisangehörige_Gemeinde"},"district":{"key":"03459","name":"Osnabrück","type":"Landkreis"},"federalState":{"key":"03","name":"Niedersachsen"}},{"name":"Windthorststr.","postalCode":"49134","locality":"Wallenhorst","municipality":{"key":"03459033","name":"Wallenhorst","type":"Kreisangehörige_Gemeinde"},"district":{"key":"03459","name":"Osnabrück","type":"Landkreis"},"federalState":{"key":"03","name":"Niedersachsen"}},{"name":"Winfriedstr.","postalCode":"49134","locality":"Wallenhorst","municipality":{"key":"03459033","name":"Wallenhorst","type":"Kreisangehörige_Gemeinde"},"district":{"key":"03459","name":"Osnabrück","type":"Landkreis"},"federalState":{"key":"03","name":"Niedersachsen"}},{"name":"Winkelstr.","postalCode":"49134","locality":"Wallenhorst","municipality":{"key":"03459033","name":"Wallenhorst","type":"Kreisangehörige_Gemeinde"},"district":{"key":"03459","name":"Osnabrück","type":"Landkreis"},"federalState":{"key":"03","name":"Niedersachsen"}},{"name":"Winzerstr.","postalCode":"49134","locality":"Wallenhorst","municipality":{"key":"03459033","name":"Wallenhorst","type":"Kreisangehörige_Gemeinde"},"district":{"key":"03459","name":"Osnabrück","type":"Landkreis"},"federalState":{"key":"03","name":"Niedersachsen"}},{"name":"Wittekindplatz","postalCode":"49134","locality":"Wallenhorst","municipality":{"key":"03459033","name":"Wallenhorst","type":"Kreisangehörige_Gemeinde"},"district":{"key":"03459","name":"Osnabrück","type":"Landkreis"},"federalState":{"key":"03","name":"Niedersachsen"}},{"name":"Wittekindstr.","postalCode":"49134","locality":"Wallenhorst","municipality":{"key":"03459033","name":"Wallenhorst","type":"Kreisangehörige_Gemeinde"},"district":{"key":"03459","name":"Osnabrück","type":"Landkreis"},"federalState":{"key":"03","name":"Niedersachsen"}},{"name":"Wittekindsweg","postalCode":"49134","locality":"Wallenhorst","municipality":{"key":"03459033","name":"Wallenhorst","type":"Kreisangehörige_Gemeinde"},"district":{"key":"03459","name":"Osnabrück","type":"Landkreis"},"federalState":{"key":"03","name":"Niedersachsen"}},{"name":"Witthügel","postalCode":"49134","locality":"Wallenhorst","municipality":{"key":"03459033","name":"Wallenhorst","type":"Kreisangehörige_Gemeinde"},"district":{"key":"03459","name":"Osnabrück","type":"Landkreis"},"federalState":{"key":"03","name":"Niedersachsen"}},{"name":"Xaver-Lütz-Str.","postalCode":"49134","locality":"Wallenhorst","municipality":{"key":"03459033","name":"Wallenhorst","type":"Kreisangehörige_Gemeinde"},"district":{"key":"03459","name":"Osnabrück","type":"Landkreis"},"federalState":{"key":"03","name":"Niedersachsen"}},{"name":"Zehlendorfer Str.","postalCode":"49134","locality":"Wallenhorst","municipality":{"key":"03459033","name":"Wallenhorst","type":"Kreisangehörige_Gemeinde"},"district":{"key":"03459","name":"Osnabrück","type":"Landkreis"},"federalState":{"key":"03","name":"Niedersachsen"}},{"name":"Zeisigweg","postalCode":"49134","locality":"Wallenhorst","municipality":{"key":"03459033","name":"Wallenhorst","type":"Kreisangehörige_Gemeinde"},"district":{"key":"03459","name":"Osnabrück","type":"Landkreis"},"federalState":{"key":"03","name":"Niedersachsen"}},{"name":"Zeppelinstr.","postalCode":"49134","locality":"Wallenhorst","municipality":{"key":"03459033","name":"Wallenhorst","type":"Kreisangehörige_Gemeinde"},"district":{"key":"03459","name":"Osnabrück","type":"Landkreis"},"federalState":{"key":"03","name":"Niedersachsen"}},{"name":"Zerhusenstr.","postalCode":"49134","locality":"Wallenhorst","municipality":{"key":"03459033","name":"Wallenhorst","type":"Kreisangehörige_Gemeinde"},"district":{"key":"03459","name":"Osnabrück","type":"Landkreis"},"federalState":{"key":"03","name":"Niedersachsen"}},{"name":"Ziegeleistr.","postalCode":"49134","locality":"Wallenhorst","municipality":{"key":"03459033","name":"Wallenhorst","type":"Kreisangehörige_Gemeinde"},"district":{"key":"03459","name":"Osnabrück","type":"Landkreis"},"federalState":{"key":"03","name":"Niedersachsen"}},{"name":"Zillestr.","postalCode":"49134","locality":"Wallenhorst","municipality":{"key":"03459033","name":"Wallenhorst","type":"Kreisangehörige_Gemeinde"},"district":{"key":"03459","name":"Osnabrück","type":"Landkreis"},"federalState":{"key":"03","name":"Niedersachsen"}},{"name":"Zu den Maschwiesen","postalCode":"49134","locality":"Wallenhorst","municipality":{"key":"03459033","name":"Wallenhorst","type":"Kreisangehörige_Gemeinde"},"district":{"key":"03459","name":"Osnabrück","type":"Landkreis"},"federalState":{"key":"03","name":"Niedersachsen"}},{"name":"Zum Gruthügel","postalCode":"49134","locality":"Wallenhorst","municipality":{"key":"03459033","name":"Wallenhorst","type":"Kreisangehörige_Gemeinde"},"district":{"key":"03459","name":"Osnabrück","type":"Landkreis"},"federalState":{"key":"03","name":"Niedersachsen"}},{"name":"Zum Losskamp","postalCode":"49134","locality":"Wallenhorst","municipality":{"key":"03459033","name":"Wallenhorst","type":"Kreisangehörige_Gemeinde"},"district":{"key":"03459","name":"Osnabrück","type":"Landkreis"},"federalState":{"key":"03","name":"Niedersachsen"}},{"name":"Zum Mühlenbrink","postalCode":"49134","locality":"Wallenhorst","municipality":{"key":"03459033","name":"Wallenhorst","type":"Kreisangehörige_Gemeinde"},"district":{"key":"03459","name":"Osnabrück","type":"Landkreis"},"federalState":{"key":"03","name":"Niedersachsen"}},{"name":"Zum Poller","postalCode":"49134","locality":"Wallenhorst","municipality":{"key":"03459033","name":"Wallenhorst","type":"Kreisangehörige_Gemeinde"},"district":{"key":"03459","name":"Osnabrück","type":"Landkreis"},"federalState":{"key":"03","name":"Niedersachsen"}},{"name":"Zum Sportplatz","postalCode":"49134","locality":"Wallenhorst","municipality":{"key":"03459033","name":"Wallenhorst","type":"Kreisangehörige_Gemeinde"},"district":{"key":"03459","name":"Osnabrück","type":"Landkreis"},"federalState":{"key":"03","name":"Niedersachsen"}},{"name":"Zum Weißen Moor","postalCode":"49134","locality":"Wallenhorst","municipality":{"key":"03459033","name":"Wallenhorst","type":"Kreisangehörige_Gemeinde"},"district":{"key":"03459","name":"Osnabrück","type":"Landkreis"},"federalState":{"key":"03","name":"Niedersachsen"}},{"name":"Zur Alten Kirche","postalCode":"49134","locality":"Wallenhorst","municipality":{"key":"03459033","name":"Wallenhorst","type":"Kreisangehörige_Gemeinde"},"district":{"key":"03459","name":"Osnabrück","type":"Landkreis"},"federalState":{"key":"03","name":"Niedersachsen"}},]