[{"name":"Adolf-Kalwac-Str.","postalCode":"01728","locality":"Bannewitz","municipality":{"key":"14628050","name":"Bannewitz","type":"Kreisangehörige_Gemeinde"},"district":{"key":"14628","name":"Sächsische Schweiz-Osterzgebirge","type":"Landkreis"},"federalState":{"key":"14","name":"Sachsen"}},{"name":"Alter Brunnenweg","postalCode":"01728","locality":"Bannewitz","municipality":{"key":"14628050","name":"Bannewitz","type":"Kreisangehörige_Gemeinde"},"district":{"key":"14628","name":"Sächsische Schweiz-Osterzgebirge","type":"Landkreis"},"federalState":{"key":"14","name":"Sachsen"}},{"name":"Alter Postweg","postalCode":"01728","locality":"Bannewitz","municipality":{"key":"14628050","name":"Bannewitz","type":"Kreisangehörige_Gemeinde"},"district":{"key":"14628","name":"Sächsische Schweiz-Osterzgebirge","type":"Landkreis"},"federalState":{"key":"14","name":"Sachsen"}},{"name":"Alter Sportplatz","postalCode":"01728","locality":"Bannewitz","municipality":{"key":"14628050","name":"Bannewitz","type":"Kreisangehörige_Gemeinde"},"district":{"key":"14628","name":"Sächsische Schweiz-Osterzgebirge","type":"Landkreis"},"federalState":{"key":"14","name":"Sachsen"}},{"name":"Am Bahndamm","postalCode":"01728","locality":"Bannewitz","municipality":{"key":"14628050","name":"Bannewitz","type":"Kreisangehörige_Gemeinde"},"district":{"key":"14628","name":"Sächsische Schweiz-Osterzgebirge","type":"Landkreis"},"federalState":{"key":"14","name":"Sachsen"}},{"name":"Am Bahnhof","postalCode":"01728","locality":"Bannewitz","municipality":{"key":"14628050","name":"Bannewitz","type":"Kreisangehörige_Gemeinde"},"district":{"key":"14628","name":"Sächsische Schweiz-Osterzgebirge","type":"Landkreis"},"federalState":{"key":"14","name":"Sachsen"}},{"name":"Am Bürgerhaus","postalCode":"01728","locality":"Bannewitz","municipality":{"key":"14628050","name":"Bannewitz","type":"Kreisangehörige_Gemeinde"},"district":{"key":"14628","name":"Sächsische Schweiz-Osterzgebirge","type":"Landkreis"},"federalState":{"key":"14","name":"Sachsen"}},{"name":"Am Dorfplatz","postalCode":"01728","locality":"Bannewitz","municipality":{"key":"14628050","name":"Bannewitz","type":"Kreisangehörige_Gemeinde"},"district":{"key":"14628","name":"Sächsische Schweiz-Osterzgebirge","type":"Landkreis"},"federalState":{"key":"14","name":"Sachsen"}},{"name":"Am Eutschützgrund","postalCode":"01728","locality":"Bannewitz","municipality":{"key":"14628050","name":"Bannewitz","type":"Kreisangehörige_Gemeinde"},"district":{"key":"14628","name":"Sächsische Schweiz-Osterzgebirge","type":"Landkreis"},"federalState":{"key":"14","name":"Sachsen"}},{"name":"Am Goldrändel","postalCode":"01728","locality":"Bannewitz","municipality":{"key":"14628050","name":"Bannewitz","type":"Kreisangehörige_Gemeinde"},"district":{"key":"14628","name":"Sächsische Schweiz-Osterzgebirge","type":"Landkreis"},"federalState":{"key":"14","name":"Sachsen"}},{"name":"Am Niedergarten","postalCode":"01728","locality":"Bannewitz","municipality":{"key":"14628050","name":"Bannewitz","type":"Kreisangehörige_Gemeinde"},"district":{"key":"14628","name":"Sächsische Schweiz-Osterzgebirge","type":"Landkreis"},"federalState":{"key":"14","name":"Sachsen"}},{"name":"Amselgrund","postalCode":"01728","locality":"Bannewitz","municipality":{"key":"14628050","name":"Bannewitz","type":"Kreisangehörige_Gemeinde"},"district":{"key":"14628","name":"Sächsische Schweiz-Osterzgebirge","type":"Landkreis"},"federalState":{"key":"14","name":"Sachsen"}},{"name":"An der Einigkeit","postalCode":"01728","locality":"Bannewitz","municipality":{"key":"14628050","name":"Bannewitz","type":"Kreisangehörige_Gemeinde"},"district":{"key":"14628","name":"Sächsische Schweiz-Osterzgebirge","type":"Landkreis"},"federalState":{"key":"14","name":"Sachsen"}},{"name":"An der Geberbachquelle","postalCode":"01728","locality":"Bannewitz","municipality":{"key":"14628050","name":"Bannewitz","type":"Kreisangehörige_Gemeinde"},"district":{"key":"14628","name":"Sächsische Schweiz-Osterzgebirge","type":"Landkreis"},"federalState":{"key":"14","name":"Sachsen"}},{"name":"An der Goldenen Höhe","postalCode":"01728","locality":"Bannewitz","municipality":{"key":"14628050","name":"Bannewitz","type":"Kreisangehörige_Gemeinde"},"district":{"key":"14628","name":"Sächsische Schweiz-Osterzgebirge","type":"Landkreis"},"federalState":{"key":"14","name":"Sachsen"}},{"name":"August-Bebel-Str.","postalCode":"01728","locality":"Bannewitz","municipality":{"key":"14628050","name":"Bannewitz","type":"Kreisangehörige_Gemeinde"},"district":{"key":"14628","name":"Sächsische Schweiz-Osterzgebirge","type":"Landkreis"},"federalState":{"key":"14","name":"Sachsen"}},{"name":"Babisnauer Weg","postalCode":"01728","locality":"Bannewitz","municipality":{"key":"14628050","name":"Bannewitz","type":"Kreisangehörige_Gemeinde"},"district":{"key":"14628","name":"Sächsische Schweiz-Osterzgebirge","type":"Landkreis"},"federalState":{"key":"14","name":"Sachsen"}},{"name":"Bahnhofstr.","postalCode":"01728","locality":"Bannewitz","municipality":{"key":"14628050","name":"Bannewitz","type":"Kreisangehörige_Gemeinde"},"district":{"key":"14628","name":"Sächsische Schweiz-Osterzgebirge","type":"Landkreis"},"federalState":{"key":"14","name":"Sachsen"}},{"name":"Bannewitzer Dorfplatz","postalCode":"01728","locality":"Bannewitz","municipality":{"key":"14628050","name":"Bannewitz","type":"Kreisangehörige_Gemeinde"},"district":{"key":"14628","name":"Sächsische Schweiz-Osterzgebirge","type":"Landkreis"},"federalState":{"key":"14","name":"Sachsen"}},{"name":"Bergstr.","postalCode":"01728","locality":"Bannewitz","municipality":{"key":"14628050","name":"Bannewitz","type":"Kreisangehörige_Gemeinde"},"district":{"key":"14628","name":"Sächsische Schweiz-Osterzgebirge","type":"Landkreis"},"federalState":{"key":"14","name":"Sachsen"}},{"name":"Birkenweg","postalCode":"01728","locality":"Bannewitz","municipality":{"key":"14628050","name":"Bannewitz","type":"Kreisangehörige_Gemeinde"},"district":{"key":"14628","name":"Sächsische Schweiz-Osterzgebirge","type":"Landkreis"},"federalState":{"key":"14","name":"Sachsen"}},{"name":"Börnchener Dorfstr.","postalCode":"01728","locality":"Bannewitz","municipality":{"key":"14628050","name":"Bannewitz","type":"Kreisangehörige_Gemeinde"},"district":{"key":"14628","name":"Sächsische Schweiz-Osterzgebirge","type":"Landkreis"},"federalState":{"key":"14","name":"Sachsen"}},{"name":"Bräunlinger Str.","postalCode":"01728","locality":"Bannewitz","municipality":{"key":"14628050","name":"Bannewitz","type":"Kreisangehörige_Gemeinde"},"district":{"key":"14628","name":"Sächsische Schweiz-Osterzgebirge","type":"Landkreis"},"federalState":{"key":"14","name":"Sachsen"}},{"name":"Brösgener Weg","postalCode":"01728","locality":"Bannewitz","municipality":{"key":"14628050","name":"Bannewitz","type":"Kreisangehörige_Gemeinde"},"district":{"key":"14628","name":"Sächsische Schweiz-Osterzgebirge","type":"Landkreis"},"federalState":{"key":"14","name":"Sachsen"}},{"name":"Bruno-Philipp-Str.","postalCode":"01728","locality":"Bannewitz","municipality":{"key":"14628050","name":"Bannewitz","type":"Kreisangehörige_Gemeinde"},"district":{"key":"14628","name":"Sächsische Schweiz-Osterzgebirge","type":"Landkreis"},"federalState":{"key":"14","name":"Sachsen"}},{"name":"Bürgerpark","postalCode":"01728","locality":"Bannewitz","municipality":{"key":"14628050","name":"Bannewitz","type":"Kreisangehörige_Gemeinde"},"district":{"key":"14628","name":"Sächsische Schweiz-Osterzgebirge","type":"Landkreis"},"federalState":{"key":"14","name":"Sachsen"}},{"name":"Carl-Bantzer-Str.","postalCode":"01728","locality":"Bannewitz","municipality":{"key":"14628050","name":"Bannewitz","type":"Kreisangehörige_Gemeinde"},"district":{"key":"14628","name":"Sächsische Schweiz-Osterzgebirge","type":"Landkreis"},"federalState":{"key":"14","name":"Sachsen"}},{"name":"Carl-Behrens-Str.","postalCode":"01728","locality":"Bannewitz","municipality":{"key":"14628050","name":"Bannewitz","type":"Kreisangehörige_Gemeinde"},"district":{"key":"14628","name":"Sächsische Schweiz-Osterzgebirge","type":"Landkreis"},"federalState":{"key":"14","name":"Sachsen"}},{"name":"Coschützer Str.","postalCode":"01728","locality":"Bannewitz","municipality":{"key":"14628050","name":"Bannewitz","type":"Kreisangehörige_Gemeinde"},"district":{"key":"14628","name":"Sächsische Schweiz-Osterzgebirge","type":"Landkreis"},"federalState":{"key":"14","name":"Sachsen"}},{"name":"Cunnersdorfer Str.","postalCode":"01728","locality":"Bannewitz","municipality":{"key":"14628050","name":"Bannewitz","type":"Kreisangehörige_Gemeinde"},"district":{"key":"14628","name":"Sächsische Schweiz-Osterzgebirge","type":"Landkreis"},"federalState":{"key":"14","name":"Sachsen"}},{"name":"Curt-Querner-Gasse","postalCode":"01728","locality":"Bannewitz","municipality":{"key":"14628050","name":"Bannewitz","type":"Kreisangehörige_Gemeinde"},"district":{"key":"14628","name":"Sächsische Schweiz-Osterzgebirge","type":"Landkreis"},"federalState":{"key":"14","name":"Sachsen"}},{"name":"Dorfplatz","postalCode":"01728","locality":"Bannewitz","municipality":{"key":"14628050","name":"Bannewitz","type":"Kreisangehörige_Gemeinde"},"district":{"key":"14628","name":"Sächsische Schweiz-Osterzgebirge","type":"Landkreis"},"federalState":{"key":"14","name":"Sachsen"}},{"name":"Dorfstr.","postalCode":"01728","locality":"Bannewitz","municipality":{"key":"14628050","name":"Bannewitz","type":"Kreisangehörige_Gemeinde"},"district":{"key":"14628","name":"Sächsische Schweiz-Osterzgebirge","type":"Landkreis"},"federalState":{"key":"14","name":"Sachsen"}},{"name":"Dr.-Erhart-Schlobach-Str.","postalCode":"01728","locality":"Bannewitz","municipality":{"key":"14628050","name":"Bannewitz","type":"Kreisangehörige_Gemeinde"},"district":{"key":"14628","name":"Sächsische Schweiz-Osterzgebirge","type":"Landkreis"},"federalState":{"key":"14","name":"Sachsen"}},{"name":"Dresdner Landstr.","postalCode":"01728","locality":"Bannewitz","municipality":{"key":"14628050","name":"Bannewitz","type":"Kreisangehörige_Gemeinde"},"district":{"key":"14628","name":"Sächsische Schweiz-Osterzgebirge","type":"Landkreis"},"federalState":{"key":"14","name":"Sachsen"}},{"name":"Dresdner Str.","postalCode":"01728","locality":"Bannewitz","municipality":{"key":"14628050","name":"Bannewitz","type":"Kreisangehörige_Gemeinde"},"district":{"key":"14628","name":"Sächsische Schweiz-Osterzgebirge","type":"Landkreis"},"federalState":{"key":"14","name":"Sachsen"}},{"name":"Dr.-O.-Walter-Weg","postalCode":"01728","locality":"Bannewitz","municipality":{"key":"14628050","name":"Bannewitz","type":"Kreisangehörige_Gemeinde"},"district":{"key":"14628","name":"Sächsische Schweiz-Osterzgebirge","type":"Landkreis"},"federalState":{"key":"14","name":"Sachsen"}},{"name":"Eichenweg","postalCode":"01728","locality":"Bannewitz","municipality":{"key":"14628050","name":"Bannewitz","type":"Kreisangehörige_Gemeinde"},"district":{"key":"14628","name":"Sächsische Schweiz-Osterzgebirge","type":"Landkreis"},"federalState":{"key":"14","name":"Sachsen"}},{"name":"Einigkeit","postalCode":"01728","locality":"Bannewitz","municipality":{"key":"14628050","name":"Bannewitz","type":"Kreisangehörige_Gemeinde"},"district":{"key":"14628","name":"Sächsische Schweiz-Osterzgebirge","type":"Landkreis"},"federalState":{"key":"14","name":"Sachsen"}},{"name":"Ernst-Ludwig-Kirchner-Str.","postalCode":"01728","locality":"Bannewitz","municipality":{"key":"14628050","name":"Bannewitz","type":"Kreisangehörige_Gemeinde"},"district":{"key":"14628","name":"Sächsische Schweiz-Osterzgebirge","type":"Landkreis"},"federalState":{"key":"14","name":"Sachsen"}},{"name":"Ferdinand-von-Schill-Str.","postalCode":"01728","locality":"Bannewitz","municipality":{"key":"14628050","name":"Bannewitz","type":"Kreisangehörige_Gemeinde"},"district":{"key":"14628","name":"Sächsische Schweiz-Osterzgebirge","type":"Landkreis"},"federalState":{"key":"14","name":"Sachsen"}},{"name":"Franckeweg","postalCode":"01728","locality":"Bannewitz","municipality":{"key":"14628050","name":"Bannewitz","type":"Kreisangehörige_Gemeinde"},"district":{"key":"14628","name":"Sächsische Schweiz-Osterzgebirge","type":"Landkreis"},"federalState":{"key":"14","name":"Sachsen"}},{"name":"Freier Blick","postalCode":"01728","locality":"Bannewitz","municipality":{"key":"14628050","name":"Bannewitz","type":"Kreisangehörige_Gemeinde"},"district":{"key":"14628","name":"Sächsische Schweiz-Osterzgebirge","type":"Landkreis"},"federalState":{"key":"14","name":"Sachsen"}},{"name":"Freitaler Str.","postalCode":"01728","locality":"Bannewitz","municipality":{"key":"14628050","name":"Bannewitz","type":"Kreisangehörige_Gemeinde"},"district":{"key":"14628","name":"Sächsische Schweiz-Osterzgebirge","type":"Landkreis"},"federalState":{"key":"14","name":"Sachsen"}},{"name":"Gartenstr.","postalCode":"01728","locality":"Bannewitz","municipality":{"key":"14628050","name":"Bannewitz","type":"Kreisangehörige_Gemeinde"},"district":{"key":"14628","name":"Sächsische Schweiz-Osterzgebirge","type":"Landkreis"},"federalState":{"key":"14","name":"Sachsen"}},{"name":"Gartenweg","postalCode":"01728","locality":"Bannewitz","municipality":{"key":"14628050","name":"Bannewitz","type":"Kreisangehörige_Gemeinde"},"district":{"key":"14628","name":"Sächsische Schweiz-Osterzgebirge","type":"Landkreis"},"federalState":{"key":"14","name":"Sachsen"}},{"name":"Gebergrund","postalCode":"01728","locality":"Bannewitz","municipality":{"key":"14628050","name":"Bannewitz","type":"Kreisangehörige_Gemeinde"},"district":{"key":"14628","name":"Sächsische Schweiz-Osterzgebirge","type":"Landkreis"},"federalState":{"key":"14","name":"Sachsen"}},{"name":"Gebergrundblick","postalCode":"01728","locality":"Bannewitz","municipality":{"key":"14628050","name":"Bannewitz","type":"Kreisangehörige_Gemeinde"},"district":{"key":"14628","name":"Sächsische Schweiz-Osterzgebirge","type":"Landkreis"},"federalState":{"key":"14","name":"Sachsen"}},{"name":"Gerlinger Str.","postalCode":"01728","locality":"Bannewitz","municipality":{"key":"14628050","name":"Bannewitz","type":"Kreisangehörige_Gemeinde"},"district":{"key":"14628","name":"Sächsische Schweiz-Osterzgebirge","type":"Landkreis"},"federalState":{"key":"14","name":"Sachsen"}},{"name":"Glück-Auf-Weg","postalCode":"01728","locality":"Bannewitz","municipality":{"key":"14628050","name":"Bannewitz","type":"Kreisangehörige_Gemeinde"},"district":{"key":"14628","name":"Sächsische Schweiz-Osterzgebirge","type":"Landkreis"},"federalState":{"key":"14","name":"Sachsen"}},{"name":"Golberoder Str.","postalCode":"01728","locality":"Bannewitz","municipality":{"key":"14628050","name":"Bannewitz","type":"Kreisangehörige_Gemeinde"},"district":{"key":"14628","name":"Sächsische Schweiz-Osterzgebirge","type":"Landkreis"},"federalState":{"key":"14","name":"Sachsen"}},{"name":"Goldener Höhenweg","postalCode":"01728","locality":"Bannewitz","municipality":{"key":"14628050","name":"Bannewitz","type":"Kreisangehörige_Gemeinde"},"district":{"key":"14628","name":"Sächsische Schweiz-Osterzgebirge","type":"Landkreis"},"federalState":{"key":"14","name":"Sachsen"}},{"name":"Goppelner Hauptstr.","postalCode":"01728","locality":"Bannewitz","municipality":{"key":"14628050","name":"Bannewitz","type":"Kreisangehörige_Gemeinde"},"district":{"key":"14628","name":"Sächsische Schweiz-Osterzgebirge","type":"Landkreis"},"federalState":{"key":"14","name":"Sachsen"}},{"name":"Goppelner Str.","postalCode":"01728","locality":"Bannewitz","municipality":{"key":"14628050","name":"Bannewitz","type":"Kreisangehörige_Gemeinde"},"district":{"key":"14628","name":"Sächsische Schweiz-Osterzgebirge","type":"Landkreis"},"federalState":{"key":"14","name":"Sachsen"}},{"name":"Graf-von-Bünau-Ring","postalCode":"01728","locality":"Bannewitz","municipality":{"key":"14628050","name":"Bannewitz","type":"Kreisangehörige_Gemeinde"},"district":{"key":"14628","name":"Sächsische Schweiz-Osterzgebirge","type":"Landkreis"},"federalState":{"key":"14","name":"Sachsen"}},{"name":"Hainbuchenweg","postalCode":"01728","locality":"Bannewitz","municipality":{"key":"14628050","name":"Bannewitz","type":"Kreisangehörige_Gemeinde"},"district":{"key":"14628","name":"Sächsische Schweiz-Osterzgebirge","type":"Landkreis"},"federalState":{"key":"14","name":"Sachsen"}},{"name":"Haldenweg","postalCode":"01728","locality":"Bannewitz","municipality":{"key":"14628050","name":"Bannewitz","type":"Kreisangehörige_Gemeinde"},"district":{"key":"14628","name":"Sächsische Schweiz-Osterzgebirge","type":"Landkreis"},"federalState":{"key":"14","name":"Sachsen"}},{"name":"Hänichen Käferbergstr.","postalCode":"01728","locality":"Bannewitz","municipality":{"key":"14628050","name":"Bannewitz","type":"Kreisangehörige_Gemeinde"},"district":{"key":"14628","name":"Sächsische Schweiz-Osterzgebirge","type":"Landkreis"},"federalState":{"key":"14","name":"Sachsen"}},{"name":"Hauptstr.","postalCode":"01728","locality":"Bannewitz","municipality":{"key":"14628050","name":"Bannewitz","type":"Kreisangehörige_Gemeinde"},"district":{"key":"14628","name":"Sächsische Schweiz-Osterzgebirge","type":"Landkreis"},"federalState":{"key":"14","name":"Sachsen"}},{"name":"Heinrich-Heine-Str.","postalCode":"01728","locality":"Bannewitz","municipality":{"key":"14628050","name":"Bannewitz","type":"Kreisangehörige_Gemeinde"},"district":{"key":"14628","name":"Sächsische Schweiz-Osterzgebirge","type":"Landkreis"},"federalState":{"key":"14","name":"Sachsen"}},{"name":"Heinrich-von-Taube-Str.","postalCode":"01728","locality":"Bannewitz","municipality":{"key":"14628050","name":"Bannewitz","type":"Kreisangehörige_Gemeinde"},"district":{"key":"14628","name":"Sächsische Schweiz-Osterzgebirge","type":"Landkreis"},"federalState":{"key":"14","name":"Sachsen"}},{"name":"Hengstberg","postalCode":"01728","locality":"Bannewitz","municipality":{"key":"14628050","name":"Bannewitz","type":"Kreisangehörige_Gemeinde"},"district":{"key":"14628","name":"Sächsische Schweiz-Osterzgebirge","type":"Landkreis"},"federalState":{"key":"14","name":"Sachsen"}},{"name":"Höhenweg","postalCode":"01728","locality":"Bannewitz","municipality":{"key":"14628050","name":"Bannewitz","type":"Kreisangehörige_Gemeinde"},"district":{"key":"14628","name":"Sächsische Schweiz-Osterzgebirge","type":"Landkreis"},"federalState":{"key":"14","name":"Sachsen"}},{"name":"Horkenstr.","postalCode":"01728","locality":"Bannewitz","municipality":{"key":"14628050","name":"Bannewitz","type":"Kreisangehörige_Gemeinde"},"district":{"key":"14628","name":"Sächsische Schweiz-Osterzgebirge","type":"Landkreis"},"federalState":{"key":"14","name":"Sachsen"}},{"name":"Hornschänke","postalCode":"01728","locality":"Bannewitz","municipality":{"key":"14628050","name":"Bannewitz","type":"Kreisangehörige_Gemeinde"},"district":{"key":"14628","name":"Sächsische Schweiz-Osterzgebirge","type":"Landkreis"},"federalState":{"key":"14","name":"Sachsen"}},{"name":"Hornschänkenweg","postalCode":"01728","locality":"Bannewitz","municipality":{"key":"14628050","name":"Bannewitz","type":"Kreisangehörige_Gemeinde"},"district":{"key":"14628","name":"Sächsische Schweiz-Osterzgebirge","type":"Landkreis"},"federalState":{"key":"14","name":"Sachsen"}},{"name":"Innsbrucker Str.","postalCode":"01728","locality":"Bannewitz","municipality":{"key":"14628050","name":"Bannewitz","type":"Kreisangehörige_Gemeinde"},"district":{"key":"14628","name":"Sächsische Schweiz-Osterzgebirge","type":"Landkreis"},"federalState":{"key":"14","name":"Sachsen"}},{"name":"Käferbergstr.","postalCode":"01728","locality":"Bannewitz","municipality":{"key":"14628050","name":"Bannewitz","type":"Kreisangehörige_Gemeinde"},"district":{"key":"14628","name":"Sächsische Schweiz-Osterzgebirge","type":"Landkreis"},"federalState":{"key":"14","name":"Sachsen"}},{"name":"Kaitzer Str.","postalCode":"01728","locality":"Bannewitz","municipality":{"key":"14628050","name":"Bannewitz","type":"Kreisangehörige_Gemeinde"},"district":{"key":"14628","name":"Sächsische Schweiz-Osterzgebirge","type":"Landkreis"},"federalState":{"key":"14","name":"Sachsen"}},{"name":"Kaitzgrund","postalCode":"01728","locality":"Bannewitz","municipality":{"key":"14628050","name":"Bannewitz","type":"Kreisangehörige_Gemeinde"},"district":{"key":"14628","name":"Sächsische Schweiz-Osterzgebirge","type":"Landkreis"},"federalState":{"key":"14","name":"Sachsen"}},{"name":"Kastanienallee","postalCode":"01728","locality":"Bannewitz","municipality":{"key":"14628050","name":"Bannewitz","type":"Kreisangehörige_Gemeinde"},"district":{"key":"14628","name":"Sächsische Schweiz-Osterzgebirge","type":"Landkreis"},"federalState":{"key":"14","name":"Sachsen"}},{"name":"Kirchgasse","postalCode":"01728","locality":"Bannewitz","municipality":{"key":"14628050","name":"Bannewitz","type":"Kreisangehörige_Gemeinde"},"district":{"key":"14628","name":"Sächsische Schweiz-Osterzgebirge","type":"Landkreis"},"federalState":{"key":"14","name":"Sachsen"}},{"name":"Kirchplatz","postalCode":"01728","locality":"Bannewitz","municipality":{"key":"14628050","name":"Bannewitz","type":"Kreisangehörige_Gemeinde"},"district":{"key":"14628","name":"Sächsische Schweiz-Osterzgebirge","type":"Landkreis"},"federalState":{"key":"14","name":"Sachsen"}},{"name":"Kirschallee","postalCode":"01728","locality":"Bannewitz","municipality":{"key":"14628050","name":"Bannewitz","type":"Kreisangehörige_Gemeinde"},"district":{"key":"14628","name":"Sächsische Schweiz-Osterzgebirge","type":"Landkreis"},"federalState":{"key":"14","name":"Sachsen"}},{"name":"Kleine Oelsaer Str.","postalCode":"01728","locality":"Bannewitz","municipality":{"key":"14628050","name":"Bannewitz","type":"Kreisangehörige_Gemeinde"},"district":{"key":"14628","name":"Sächsische Schweiz-Osterzgebirge","type":"Landkreis"},"federalState":{"key":"14","name":"Sachsen"}},{"name":"Kleiner Ring","postalCode":"01728","locality":"Bannewitz","municipality":{"key":"14628050","name":"Bannewitz","type":"Kreisangehörige_Gemeinde"},"district":{"key":"14628","name":"Sächsische Schweiz-Osterzgebirge","type":"Landkreis"},"federalState":{"key":"14","name":"Sachsen"}},{"name":"Kleine Str.","postalCode":"01728","locality":"Bannewitz","municipality":{"key":"14628050","name":"Bannewitz","type":"Kreisangehörige_Gemeinde"},"district":{"key":"14628","name":"Sächsische Schweiz-Osterzgebirge","type":"Landkreis"},"federalState":{"key":"14","name":"Sachsen"}},{"name":"Klein-Kleba","postalCode":"01728","locality":"Bannewitz","municipality":{"key":"14628050","name":"Bannewitz","type":"Kreisangehörige_Gemeinde"},"district":{"key":"14628","name":"Sächsische Schweiz-Osterzgebirge","type":"Landkreis"},"federalState":{"key":"14","name":"Sachsen"}},{"name":"Königsteinblick","postalCode":"01728","locality":"Bannewitz","municipality":{"key":"14628050","name":"Bannewitz","type":"Kreisangehörige_Gemeinde"},"district":{"key":"14628","name":"Sächsische Schweiz-Osterzgebirge","type":"Landkreis"},"federalState":{"key":"14","name":"Sachsen"}},{"name":"Kreischaer Str.","postalCode":"01728","locality":"Bannewitz","municipality":{"key":"14628050","name":"Bannewitz","type":"Kreisangehörige_Gemeinde"},"district":{"key":"14628","name":"Sächsische Schweiz-Osterzgebirge","type":"Landkreis"},"federalState":{"key":"14","name":"Sachsen"}},{"name":"Leichenweg","postalCode":"01728","locality":"Bannewitz","municipality":{"key":"14628050","name":"Bannewitz","type":"Kreisangehörige_Gemeinde"},"district":{"key":"14628","name":"Sächsische Schweiz-Osterzgebirge","type":"Landkreis"},"federalState":{"key":"14","name":"Sachsen"}},{"name":"Leubnitzer Str.","postalCode":"01728","locality":"Bannewitz","municipality":{"key":"14628050","name":"Bannewitz","type":"Kreisangehörige_Gemeinde"},"district":{"key":"14628","name":"Sächsische Schweiz-Osterzgebirge","type":"Landkreis"},"federalState":{"key":"14","name":"Sachsen"}},{"name":"Liliensteinblick","postalCode":"01728","locality":"Bannewitz","municipality":{"key":"14628050","name":"Bannewitz","type":"Kreisangehörige_Gemeinde"},"district":{"key":"14628","name":"Sächsische Schweiz-Osterzgebirge","type":"Landkreis"},"federalState":{"key":"14","name":"Sachsen"}},{"name":"Lindenstr.","postalCode":"01728","locality":"Bannewitz","municipality":{"key":"14628050","name":"Bannewitz","type":"Kreisangehörige_Gemeinde"},"district":{"key":"14628","name":"Sächsische Schweiz-Osterzgebirge","type":"Landkreis"},"federalState":{"key":"14","name":"Sachsen"}},{"name":"Lunapark","postalCode":"01728","locality":"Bannewitz","municipality":{"key":"14628050","name":"Bannewitz","type":"Kreisangehörige_Gemeinde"},"district":{"key":"14628","name":"Sächsische Schweiz-Osterzgebirge","type":"Landkreis"},"federalState":{"key":"14","name":"Sachsen"}},{"name":"Marktsteg","postalCode":"01728","locality":"Bannewitz","municipality":{"key":"14628050","name":"Bannewitz","type":"Kreisangehörige_Gemeinde"},"district":{"key":"14628","name":"Sächsische Schweiz-Osterzgebirge","type":"Landkreis"},"federalState":{"key":"14","name":"Sachsen"}},{"name":"Marktsteig","postalCode":"01728","locality":"Bannewitz","municipality":{"key":"14628050","name":"Bannewitz","type":"Kreisangehörige_Gemeinde"},"district":{"key":"14628","name":"Sächsische Schweiz-Osterzgebirge","type":"Landkreis"},"federalState":{"key":"14","name":"Sachsen"}},{"name":"Max-Dittrich-Str.","postalCode":"01728","locality":"Bannewitz","municipality":{"key":"14628050","name":"Bannewitz","type":"Kreisangehörige_Gemeinde"},"district":{"key":"14628","name":"Sächsische Schweiz-Osterzgebirge","type":"Landkreis"},"federalState":{"key":"14","name":"Sachsen"}},{"name":"Max-Pechstein-Str.","postalCode":"01728","locality":"Bannewitz","municipality":{"key":"14628050","name":"Bannewitz","type":"Kreisangehörige_Gemeinde"},"district":{"key":"14628","name":"Sächsische Schweiz-Osterzgebirge","type":"Landkreis"},"federalState":{"key":"14","name":"Sachsen"}},{"name":"Mittelweg","postalCode":"01728","locality":"Bannewitz","municipality":{"key":"14628050","name":"Bannewitz","type":"Kreisangehörige_Gemeinde"},"district":{"key":"14628","name":"Sächsische Schweiz-Osterzgebirge","type":"Landkreis"},"federalState":{"key":"14","name":"Sachsen"}},{"name":"Mühlenweg","postalCode":"01728","locality":"Bannewitz","municipality":{"key":"14628050","name":"Bannewitz","type":"Kreisangehörige_Gemeinde"},"district":{"key":"14628","name":"Sächsische Schweiz-Osterzgebirge","type":"Landkreis"},"federalState":{"key":"14","name":"Sachsen"}},{"name":"Neues Leben","postalCode":"01728","locality":"Bannewitz","municipality":{"key":"14628050","name":"Bannewitz","type":"Kreisangehörige_Gemeinde"},"district":{"key":"14628","name":"Sächsische Schweiz-Osterzgebirge","type":"Landkreis"},"federalState":{"key":"14","name":"Sachsen"}},{"name":"Neue Str.","postalCode":"01728","locality":"Bannewitz","municipality":{"key":"14628050","name":"Bannewitz","type":"Kreisangehörige_Gemeinde"},"district":{"key":"14628","name":"Sächsische Schweiz-Osterzgebirge","type":"Landkreis"},"federalState":{"key":"14","name":"Sachsen"}},{"name":"Nöthnitzer Hang","postalCode":"01728","locality":"Bannewitz","municipality":{"key":"14628050","name":"Bannewitz","type":"Kreisangehörige_Gemeinde"},"district":{"key":"14628","name":"Sächsische Schweiz-Osterzgebirge","type":"Landkreis"},"federalState":{"key":"14","name":"Sachsen"}},{"name":"Nöthnitzer Str.","postalCode":"01728","locality":"Bannewitz","municipality":{"key":"14628050","name":"Bannewitz","type":"Kreisangehörige_Gemeinde"},"district":{"key":"14628","name":"Sächsische Schweiz-Osterzgebirge","type":"Landkreis"},"federalState":{"key":"14","name":"Sachsen"}},{"name":"Obere Bergstr.","postalCode":"01728","locality":"Bannewitz","municipality":{"key":"14628050","name":"Bannewitz","type":"Kreisangehörige_Gemeinde"},"district":{"key":"14628","name":"Sächsische Schweiz-Osterzgebirge","type":"Landkreis"},"federalState":{"key":"14","name":"Sachsen"}},{"name":"Obernaundorfer Str.","postalCode":"01728","locality":"Bannewitz","municipality":{"key":"14628050","name":"Bannewitz","type":"Kreisangehörige_Gemeinde"},"district":{"key":"14628","name":"Sächsische Schweiz-Osterzgebirge","type":"Landkreis"},"federalState":{"key":"14","name":"Sachsen"}},{"name":"Pappelblick","postalCode":"01728","locality":"Bannewitz","municipality":{"key":"14628050","name":"Bannewitz","type":"Kreisangehörige_Gemeinde"},"district":{"key":"14628","name":"Sächsische Schweiz-Osterzgebirge","type":"Landkreis"},"federalState":{"key":"14","name":"Sachsen"}},{"name":"Pirnaer Str.","postalCode":"01728","locality":"Bannewitz","municipality":{"key":"14628050","name":"Bannewitz","type":"Kreisangehörige_Gemeinde"},"district":{"key":"14628","name":"Sächsische Schweiz-Osterzgebirge","type":"Landkreis"},"federalState":{"key":"14","name":"Sachsen"}},{"name":"Poisenblick","postalCode":"01728","locality":"Bannewitz","municipality":{"key":"14628050","name":"Bannewitz","type":"Kreisangehörige_Gemeinde"},"district":{"key":"14628","name":"Sächsische Schweiz-Osterzgebirge","type":"Landkreis"},"federalState":{"key":"14","name":"Sachsen"}},{"name":"Poisentalstr.","postalCode":"01728","locality":"Bannewitz","municipality":{"key":"14628050","name":"Bannewitz","type":"Kreisangehörige_Gemeinde"},"district":{"key":"14628","name":"Sächsische Schweiz-Osterzgebirge","type":"Landkreis"},"federalState":{"key":"14","name":"Sachsen"}},{"name":"Pulverweg","postalCode":"01728","locality":"Bannewitz","municipality":{"key":"14628050","name":"Bannewitz","type":"Kreisangehörige_Gemeinde"},"district":{"key":"14628","name":"Sächsische Schweiz-Osterzgebirge","type":"Landkreis"},"federalState":{"key":"14","name":"Sachsen"}},{"name":"Querweg","postalCode":"01728","locality":"Bannewitz","municipality":{"key":"14628050","name":"Bannewitz","type":"Kreisangehörige_Gemeinde"},"district":{"key":"14628","name":"Sächsische Schweiz-Osterzgebirge","type":"Landkreis"},"federalState":{"key":"14","name":"Sachsen"}},{"name":"Richard-Wagner-Str.","postalCode":"01728","locality":"Bannewitz","municipality":{"key":"14628050","name":"Bannewitz","type":"Kreisangehörige_Gemeinde"},"district":{"key":"14628","name":"Sächsische Schweiz-Osterzgebirge","type":"Landkreis"},"federalState":{"key":"14","name":"Sachsen"}},{"name":"Rippiener Str.","postalCode":"01728","locality":"Bannewitz","municipality":{"key":"14628050","name":"Bannewitz","type":"Kreisangehörige_Gemeinde"},"district":{"key":"14628","name":"Sächsische Schweiz-Osterzgebirge","type":"Landkreis"},"federalState":{"key":"14","name":"Sachsen"}},{"name":"Rosentitzer Str.","postalCode":"01728","locality":"Bannewitz","municipality":{"key":"14628050","name":"Bannewitz","type":"Kreisangehörige_Gemeinde"},"district":{"key":"14628","name":"Sächsische Schweiz-Osterzgebirge","type":"Landkreis"},"federalState":{"key":"14","name":"Sachsen"}},{"name":"Rosenweg","postalCode":"01728","locality":"Bannewitz","municipality":{"key":"14628050","name":"Bannewitz","type":"Kreisangehörige_Gemeinde"},"district":{"key":"14628","name":"Sächsische Schweiz-Osterzgebirge","type":"Landkreis"},"federalState":{"key":"14","name":"Sachsen"}},{"name":"Rundteil","postalCode":"01728","locality":"Bannewitz","municipality":{"key":"14628050","name":"Bannewitz","type":"Kreisangehörige_Gemeinde"},"district":{"key":"14628","name":"Sächsische Schweiz-Osterzgebirge","type":"Landkreis"},"federalState":{"key":"14","name":"Sachsen"}},{"name":"Schachtstr.","postalCode":"01728","locality":"Bannewitz","municipality":{"key":"14628050","name":"Bannewitz","type":"Kreisangehörige_Gemeinde"},"district":{"key":"14628","name":"Sächsische Schweiz-Osterzgebirge","type":"Landkreis"},"federalState":{"key":"14","name":"Sachsen"}},{"name":"Schulgasse","postalCode":"01728","locality":"Bannewitz","municipality":{"key":"14628050","name":"Bannewitz","type":"Kreisangehörige_Gemeinde"},"district":{"key":"14628","name":"Sächsische Schweiz-Osterzgebirge","type":"Landkreis"},"federalState":{"key":"14","name":"Sachsen"}},{"name":"Schulstr.","postalCode":"01728","locality":"Bannewitz","municipality":{"key":"14628050","name":"Bannewitz","type":"Kreisangehörige_Gemeinde"},"district":{"key":"14628","name":"Sächsische Schweiz-Osterzgebirge","type":"Landkreis"},"federalState":{"key":"14","name":"Sachsen"}},{"name":"Sechserweg","postalCode":"01728","locality":"Bannewitz","municipality":{"key":"14628050","name":"Bannewitz","type":"Kreisangehörige_Gemeinde"},"district":{"key":"14628","name":"Sächsische Schweiz-Osterzgebirge","type":"Landkreis"},"federalState":{"key":"14","name":"Sachsen"}},{"name":"Siedlung","postalCode":"01728","locality":"Bannewitz","municipality":{"key":"14628050","name":"Bannewitz","type":"Kreisangehörige_Gemeinde"},"district":{"key":"14628","name":"Sächsische Schweiz-Osterzgebirge","type":"Landkreis"},"federalState":{"key":"14","name":"Sachsen"}},{"name":"Simons Wiese","postalCode":"01728","locality":"Bannewitz","municipality":{"key":"14628050","name":"Bannewitz","type":"Kreisangehörige_Gemeinde"},"district":{"key":"14628","name":"Sächsische Schweiz-Osterzgebirge","type":"Landkreis"},"federalState":{"key":"14","name":"Sachsen"}},{"name":"Sobrigauer Weg","postalCode":"01728","locality":"Bannewitz","municipality":{"key":"14628050","name":"Bannewitz","type":"Kreisangehörige_Gemeinde"},"district":{"key":"14628","name":"Sächsische Schweiz-Osterzgebirge","type":"Landkreis"},"federalState":{"key":"14","name":"Sachsen"}},{"name":"Sommerschuhstr.","postalCode":"01728","locality":"Bannewitz","municipality":{"key":"14628050","name":"Bannewitz","type":"Kreisangehörige_Gemeinde"},"district":{"key":"14628","name":"Sächsische Schweiz-Osterzgebirge","type":"Landkreis"},"federalState":{"key":"14","name":"Sachsen"}},{"name":"Stadtweg","postalCode":"01728","locality":"Bannewitz","municipality":{"key":"14628050","name":"Bannewitz","type":"Kreisangehörige_Gemeinde"},"district":{"key":"14628","name":"Sächsische Schweiz-Osterzgebirge","type":"Landkreis"},"federalState":{"key":"14","name":"Sachsen"}},{"name":"Steinbruchweg","postalCode":"01728","locality":"Bannewitz","municipality":{"key":"14628050","name":"Bannewitz","type":"Kreisangehörige_Gemeinde"},"district":{"key":"14628","name":"Sächsische Schweiz-Osterzgebirge","type":"Landkreis"},"federalState":{"key":"14","name":"Sachsen"}},{"name":"Steinstr.","postalCode":"01728","locality":"Bannewitz","municipality":{"key":"14628050","name":"Bannewitz","type":"Kreisangehörige_Gemeinde"},"district":{"key":"14628","name":"Sächsische Schweiz-Osterzgebirge","type":"Landkreis"},"federalState":{"key":"14","name":"Sachsen"}},{"name":"Südhang","postalCode":"01728","locality":"Bannewitz","municipality":{"key":"14628050","name":"Bannewitz","type":"Kreisangehörige_Gemeinde"},"district":{"key":"14628","name":"Sächsische Schweiz-Osterzgebirge","type":"Landkreis"},"federalState":{"key":"14","name":"Sachsen"}},{"name":"Südweg","postalCode":"01728","locality":"Bannewitz","municipality":{"key":"14628050","name":"Bannewitz","type":"Kreisangehörige_Gemeinde"},"district":{"key":"14628","name":"Sächsische Schweiz-Osterzgebirge","type":"Landkreis"},"federalState":{"key":"14","name":"Sachsen"}},{"name":"Talstr.","postalCode":"01728","locality":"Bannewitz","municipality":{"key":"14628050","name":"Bannewitz","type":"Kreisangehörige_Gemeinde"},"district":{"key":"14628","name":"Sächsische Schweiz-Osterzgebirge","type":"Landkreis"},"federalState":{"key":"14","name":"Sachsen"}},{"name":"Teichplatz","postalCode":"01728","locality":"Bannewitz","municipality":{"key":"14628050","name":"Bannewitz","type":"Kreisangehörige_Gemeinde"},"district":{"key":"14628","name":"Sächsische Schweiz-Osterzgebirge","type":"Landkreis"},"federalState":{"key":"14","name":"Sachsen"}},{"name":"Teichstr.","postalCode":"01728","locality":"Bannewitz","municipality":{"key":"14628050","name":"Bannewitz","type":"Kreisangehörige_Gemeinde"},"district":{"key":"14628","name":"Sächsische Schweiz-Osterzgebirge","type":"Landkreis"},"federalState":{"key":"14","name":"Sachsen"}},{"name":"Thomas-Müntzer-Str.","postalCode":"01728","locality":"Bannewitz","municipality":{"key":"14628050","name":"Bannewitz","type":"Kreisangehörige_Gemeinde"},"district":{"key":"14628","name":"Sächsische Schweiz-Osterzgebirge","type":"Landkreis"},"federalState":{"key":"14","name":"Sachsen"}},{"name":"Tschirnhausstr.","postalCode":"01728","locality":"Bannewitz","municipality":{"key":"14628050","name":"Bannewitz","type":"Kreisangehörige_Gemeinde"},"district":{"key":"14628","name":"Sächsische Schweiz-Osterzgebirge","type":"Landkreis"},"federalState":{"key":"14","name":"Sachsen"}},{"name":"Turnerweg","postalCode":"01728","locality":"Bannewitz","municipality":{"key":"14628050","name":"Bannewitz","type":"Kreisangehörige_Gemeinde"},"district":{"key":"14628","name":"Sächsische Schweiz-Osterzgebirge","type":"Landkreis"},"federalState":{"key":"14","name":"Sachsen"}},{"name":"Ulmenweg","postalCode":"01728","locality":"Bannewitz","municipality":{"key":"14628050","name":"Bannewitz","type":"Kreisangehörige_Gemeinde"},"district":{"key":"14628","name":"Sächsische Schweiz-Osterzgebirge","type":"Landkreis"},"federalState":{"key":"14","name":"Sachsen"}},{"name":"Untere Bergstr.","postalCode":"01728","locality":"Bannewitz","municipality":{"key":"14628050","name":"Bannewitz","type":"Kreisangehörige_Gemeinde"},"district":{"key":"14628","name":"Sächsische Schweiz-Osterzgebirge","type":"Landkreis"},"federalState":{"key":"14","name":"Sachsen"}},{"name":"Untere Dorfstr.","postalCode":"01728","locality":"Bannewitz","municipality":{"key":"14628050","name":"Bannewitz","type":"Kreisangehörige_Gemeinde"},"district":{"key":"14628","name":"Sächsische Schweiz-Osterzgebirge","type":"Landkreis"},"federalState":{"key":"14","name":"Sachsen"}},{"name":"Uthmannstr.","postalCode":"01728","locality":"Bannewitz","municipality":{"key":"14628050","name":"Bannewitz","type":"Kreisangehörige_Gemeinde"},"district":{"key":"14628","name":"Sächsische Schweiz-Osterzgebirge","type":"Landkreis"},"federalState":{"key":"14","name":"Sachsen"}},{"name":"Viehweg","postalCode":"01728","locality":"Bannewitz","municipality":{"key":"14628050","name":"Bannewitz","type":"Kreisangehörige_Gemeinde"},"district":{"key":"14628","name":"Sächsische Schweiz-Osterzgebirge","type":"Landkreis"},"federalState":{"key":"14","name":"Sachsen"}},{"name":"Welschhufer Str.","postalCode":"01728","locality":"Bannewitz","municipality":{"key":"14628050","name":"Bannewitz","type":"Kreisangehörige_Gemeinde"},"district":{"key":"14628","name":"Sächsische Schweiz-Osterzgebirge","type":"Landkreis"},"federalState":{"key":"14","name":"Sachsen"}},{"name":"Welschweg","postalCode":"01728","locality":"Bannewitz","municipality":{"key":"14628050","name":"Bannewitz","type":"Kreisangehörige_Gemeinde"},"district":{"key":"14628","name":"Sächsische Schweiz-Osterzgebirge","type":"Landkreis"},"federalState":{"key":"14","name":"Sachsen"}},{"name":"Wietzendorfer Str.","postalCode":"01728","locality":"Bannewitz","municipality":{"key":"14628050","name":"Bannewitz","type":"Kreisangehörige_Gemeinde"},"district":{"key":"14628","name":"Sächsische Schweiz-Osterzgebirge","type":"Landkreis"},"federalState":{"key":"14","name":"Sachsen"}},{"name":"Wilhelm-Ritter-Str.","postalCode":"01728","locality":"Bannewitz","municipality":{"key":"14628050","name":"Bannewitz","type":"Kreisangehörige_Gemeinde"},"district":{"key":"14628","name":"Sächsische Schweiz-Osterzgebirge","type":"Landkreis"},"federalState":{"key":"14","name":"Sachsen"}},{"name":"Wilischblick","postalCode":"01728","locality":"Bannewitz","municipality":{"key":"14628050","name":"Bannewitz","type":"Kreisangehörige_Gemeinde"},"district":{"key":"14628","name":"Sächsische Schweiz-Osterzgebirge","type":"Landkreis"},"federalState":{"key":"14","name":"Sachsen"}},{"name":"Winckelmannstr.","postalCode":"01728","locality":"Bannewitz","municipality":{"key":"14628050","name":"Bannewitz","type":"Kreisangehörige_Gemeinde"},"district":{"key":"14628","name":"Sächsische Schweiz-Osterzgebirge","type":"Landkreis"},"federalState":{"key":"14","name":"Sachsen"}},{"name":"Windbergstr.","postalCode":"01728","locality":"Bannewitz","municipality":{"key":"14628050","name":"Bannewitz","type":"Kreisangehörige_Gemeinde"},"district":{"key":"14628","name":"Sächsische Schweiz-Osterzgebirge","type":"Landkreis"},"federalState":{"key":"14","name":"Sachsen"}},{"name":"Windmühlenhöhe","postalCode":"01728","locality":"Bannewitz","municipality":{"key":"14628050","name":"Bannewitz","type":"Kreisangehörige_Gemeinde"},"district":{"key":"14628","name":"Sächsische Schweiz-Osterzgebirge","type":"Landkreis"},"federalState":{"key":"14","name":"Sachsen"}},{"name":"Windmühlenweg","postalCode":"01728","locality":"Bannewitz","municipality":{"key":"14628050","name":"Bannewitz","type":"Kreisangehörige_Gemeinde"},"district":{"key":"14628","name":"Sächsische Schweiz-Osterzgebirge","type":"Landkreis"},"federalState":{"key":"14","name":"Sachsen"}},{"name":"Zauchenweg","postalCode":"01728","locality":"Bannewitz","municipality":{"key":"14628050","name":"Bannewitz","type":"Kreisangehörige_Gemeinde"},"district":{"key":"14628","name":"Sächsische Schweiz-Osterzgebirge","type":"Landkreis"},"federalState":{"key":"14","name":"Sachsen"}},{"name":"Zum Alten Steinbruch","postalCode":"01728","locality":"Bannewitz","municipality":{"key":"14628050","name":"Bannewitz","type":"Kreisangehörige_Gemeinde"},"district":{"key":"14628","name":"Sächsische Schweiz-Osterzgebirge","type":"Landkreis"},"federalState":{"key":"14","name":"Sachsen"}},{"name":"Zum Heideberg","postalCode":"01728","locality":"Bannewitz","municipality":{"key":"14628050","name":"Bannewitz","type":"Kreisangehörige_Gemeinde"},"district":{"key":"14628","name":"Sächsische Schweiz-Osterzgebirge","type":"Landkreis"},"federalState":{"key":"14","name":"Sachsen"}},{"name":"Zum Marktsteig","postalCode":"01728","locality":"Bannewitz","municipality":{"key":"14628050","name":"Bannewitz","type":"Kreisangehörige_Gemeinde"},"district":{"key":"14628","name":"Sächsische Schweiz-Osterzgebirge","type":"Landkreis"},"federalState":{"key":"14","name":"Sachsen"}},{"name":"Zur Alten Schmiede","postalCode":"01728","locality":"Bannewitz","municipality":{"key":"14628050","name":"Bannewitz","type":"Kreisangehörige_Gemeinde"},"district":{"key":"14628","name":"Sächsische Schweiz-Osterzgebirge","type":"Landkreis"},"federalState":{"key":"14","name":"Sachsen"}},{"name":"Zur Eichleite","postalCode":"01728","locality":"Bannewitz","municipality":{"key":"14628050","name":"Bannewitz","type":"Kreisangehörige_Gemeinde"},"district":{"key":"14628","name":"Sächsische Schweiz-Osterzgebirge","type":"Landkreis"},"federalState":{"key":"14","name":"Sachsen"}},{"name":"Zur Laue","postalCode":"01728","locality":"Bannewitz","municipality":{"key":"14628050","name":"Bannewitz","type":"Kreisangehörige_Gemeinde"},"district":{"key":"14628","name":"Sächsische Schweiz-Osterzgebirge","type":"Landkreis"},"federalState":{"key":"14","name":"Sachsen"}},{"name":"Zur Pappel","postalCode":"01728","locality":"Bannewitz","municipality":{"key":"14628050","name":"Bannewitz","type":"Kreisangehörige_Gemeinde"},"district":{"key":"14628","name":"Sächsische Schweiz-Osterzgebirge","type":"Landkreis"},"federalState":{"key":"14","name":"Sachsen"}},]