[{"name":"Alzeyer Str.","postalCode":"67294","locality":"Mauchenheim","municipality":{"key":"07331044","name":"Mauchenheim","type":"Kreisangehörige_Gemeinde"},"district":{"key":"07331","name":"Alzey-Worms","type":"Landkreis"},"federalState":{"key":"07","name":"Rheinland-Pfalz"}},{"name":"An der Mühlwiese","postalCode":"67294","locality":"Mauchenheim","municipality":{"key":"07331044","name":"Mauchenheim","type":"Kreisangehörige_Gemeinde"},"district":{"key":"07331","name":"Alzey-Worms","type":"Landkreis"},"federalState":{"key":"07","name":"Rheinland-Pfalz"}},{"name":"Bäckergasse","postalCode":"67294","locality":"Mauchenheim","municipality":{"key":"07331044","name":"Mauchenheim","type":"Kreisangehörige_Gemeinde"},"district":{"key":"07331","name":"Alzey-Worms","type":"Landkreis"},"federalState":{"key":"07","name":"Rheinland-Pfalz"}},{"name":"Braunhauser Str.","postalCode":"67294","locality":"Mauchenheim","municipality":{"key":"07331044","name":"Mauchenheim","type":"Kreisangehörige_Gemeinde"},"district":{"key":"07331","name":"Alzey-Worms","type":"Landkreis"},"federalState":{"key":"07","name":"Rheinland-Pfalz"}},{"name":"Erbengasse","postalCode":"67294","locality":"Mauchenheim","municipality":{"key":"07331044","name":"Mauchenheim","type":"Kreisangehörige_Gemeinde"},"district":{"key":"07331","name":"Alzey-Worms","type":"Landkreis"},"federalState":{"key":"07","name":"Rheinland-Pfalz"}},{"name":"Frankenstr.","postalCode":"67294","locality":"Mauchenheim","municipality":{"key":"07331044","name":"Mauchenheim","type":"Kreisangehörige_Gemeinde"},"district":{"key":"07331","name":"Alzey-Worms","type":"Landkreis"},"federalState":{"key":"07","name":"Rheinland-Pfalz"}},{"name":"Freimersheimer Weg","postalCode":"67294","locality":"Mauchenheim","municipality":{"key":"07331044","name":"Mauchenheim","type":"Kreisangehörige_Gemeinde"},"district":{"key":"07331","name":"Alzey-Worms","type":"Landkreis"},"federalState":{"key":"07","name":"Rheinland-Pfalz"}},{"name":"Gartenstr.","postalCode":"67294","locality":"Mauchenheim","municipality":{"key":"07331044","name":"Mauchenheim","type":"Kreisangehörige_Gemeinde"},"district":{"key":"07331","name":"Alzey-Worms","type":"Landkreis"},"federalState":{"key":"07","name":"Rheinland-Pfalz"}},{"name":"Hauptstr.","postalCode":"67294","locality":"Mauchenheim","municipality":{"key":"07331044","name":"Mauchenheim","type":"Kreisangehörige_Gemeinde"},"district":{"key":"07331","name":"Alzey-Worms","type":"Landkreis"},"federalState":{"key":"07","name":"Rheinland-Pfalz"}},{"name":"Honigstr.","postalCode":"67294","locality":"Mauchenheim","municipality":{"key":"07331044","name":"Mauchenheim","type":"Kreisangehörige_Gemeinde"},"district":{"key":"07331","name":"Alzey-Worms","type":"Landkreis"},"federalState":{"key":"07","name":"Rheinland-Pfalz"}},{"name":"Käsgasse","postalCode":"67294","locality":"Mauchenheim","municipality":{"key":"07331044","name":"Mauchenheim","type":"Kreisangehörige_Gemeinde"},"district":{"key":"07331","name":"Alzey-Worms","type":"Landkreis"},"federalState":{"key":"07","name":"Rheinland-Pfalz"}},{"name":"Kirchgasse","postalCode":"67294","locality":"Mauchenheim","municipality":{"key":"07331044","name":"Mauchenheim","type":"Kreisangehörige_Gemeinde"},"district":{"key":"07331","name":"Alzey-Worms","type":"Landkreis"},"federalState":{"key":"07","name":"Rheinland-Pfalz"}},{"name":"Römerstr.","postalCode":"67294","locality":"Mauchenheim","municipality":{"key":"07331044","name":"Mauchenheim","type":"Kreisangehörige_Gemeinde"},"district":{"key":"07331","name":"Alzey-Worms","type":"Landkreis"},"federalState":{"key":"07","name":"Rheinland-Pfalz"}},{"name":"Rosenheckenstr.","postalCode":"67294","locality":"Mauchenheim","municipality":{"key":"07331044","name":"Mauchenheim","type":"Kreisangehörige_Gemeinde"},"district":{"key":"07331","name":"Alzey-Worms","type":"Landkreis"},"federalState":{"key":"07","name":"Rheinland-Pfalz"}},{"name":"Schlossgasse","postalCode":"67294","locality":"Mauchenheim","municipality":{"key":"07331044","name":"Mauchenheim","type":"Kreisangehörige_Gemeinde"},"district":{"key":"07331","name":"Alzey-Worms","type":"Landkreis"},"federalState":{"key":"07","name":"Rheinland-Pfalz"}},{"name":"Schulstr.","postalCode":"67294","locality":"Mauchenheim","municipality":{"key":"07331044","name":"Mauchenheim","type":"Kreisangehörige_Gemeinde"},"district":{"key":"07331","name":"Alzey-Worms","type":"Landkreis"},"federalState":{"key":"07","name":"Rheinland-Pfalz"}},{"name":"Sioner Str.","postalCode":"67294","locality":"Mauchenheim","municipality":{"key":"07331044","name":"Mauchenheim","type":"Kreisangehörige_Gemeinde"},"district":{"key":"07331","name":"Alzey-Worms","type":"Landkreis"},"federalState":{"key":"07","name":"Rheinland-Pfalz"}},{"name":"Weinbergstr.","postalCode":"67294","locality":"Mauchenheim","municipality":{"key":"07331044","name":"Mauchenheim","type":"Kreisangehörige_Gemeinde"},"district":{"key":"07331","name":"Alzey-Worms","type":"Landkreis"},"federalState":{"key":"07","name":"Rheinland-Pfalz"}},{"name":"Zum Trappenberg","postalCode":"67294","locality":"Mauchenheim","municipality":{"key":"07331044","name":"Mauchenheim","type":"Kreisangehörige_Gemeinde"},"district":{"key":"07331","name":"Alzey-Worms","type":"Landkreis"},"federalState":{"key":"07","name":"Rheinland-Pfalz"}},]