[{"name":"Ahornallee","postalCode":"18516","locality":"Süderholz","municipality":{"key":"13073089","name":"Süderholz","type":"Kreisangehörige_Gemeinde"},"district":{"key":"13073","name":"Vorpommern-Rügen","type":"Landkreis"},"federalState":{"key":"13","name":"Mecklenburg-Vorpommern"}},{"name":"Ahornweg","postalCode":"18516","locality":"Süderholz","municipality":{"key":"13073089","name":"Süderholz","type":"Kreisangehörige_Gemeinde"},"district":{"key":"13073","name":"Vorpommern-Rügen","type":"Landkreis"},"federalState":{"key":"13","name":"Mecklenburg-Vorpommern"}},{"name":"Alte Dorfstr.","postalCode":"18516","locality":"Süderholz","municipality":{"key":"13073089","name":"Süderholz","type":"Kreisangehörige_Gemeinde"},"district":{"key":"13073","name":"Vorpommern-Rügen","type":"Landkreis"},"federalState":{"key":"13","name":"Mecklenburg-Vorpommern"}},{"name":"Alte Mühle","postalCode":"18516","locality":"Süderholz","municipality":{"key":"13073089","name":"Süderholz","type":"Kreisangehörige_Gemeinde"},"district":{"key":"13073","name":"Vorpommern-Rügen","type":"Landkreis"},"federalState":{"key":"13","name":"Mecklenburg-Vorpommern"}},{"name":"Alter Schulweg","postalCode":"18516","locality":"Süderholz","municipality":{"key":"13073089","name":"Süderholz","type":"Kreisangehörige_Gemeinde"},"district":{"key":"13073","name":"Vorpommern-Rügen","type":"Landkreis"},"federalState":{"key":"13","name":"Mecklenburg-Vorpommern"}},{"name":"Alte Str.","postalCode":"18516","locality":"Süderholz","municipality":{"key":"13073089","name":"Süderholz","type":"Kreisangehörige_Gemeinde"},"district":{"key":"13073","name":"Vorpommern-Rügen","type":"Landkreis"},"federalState":{"key":"13","name":"Mecklenburg-Vorpommern"}},{"name":"Am Dorfanger","postalCode":"18516","locality":"Süderholz","municipality":{"key":"13073089","name":"Süderholz","type":"Kreisangehörige_Gemeinde"},"district":{"key":"13073","name":"Vorpommern-Rügen","type":"Landkreis"},"federalState":{"key":"13","name":"Mecklenburg-Vorpommern"}},{"name":"Am Dorfplatz","postalCode":"18516","locality":"Süderholz","municipality":{"key":"13073089","name":"Süderholz","type":"Kreisangehörige_Gemeinde"},"district":{"key":"13073","name":"Vorpommern-Rügen","type":"Landkreis"},"federalState":{"key":"13","name":"Mecklenburg-Vorpommern"}},{"name":"Am Dreiangel","postalCode":"18516","locality":"Süderholz","municipality":{"key":"13073089","name":"Süderholz","type":"Kreisangehörige_Gemeinde"},"district":{"key":"13073","name":"Vorpommern-Rügen","type":"Landkreis"},"federalState":{"key":"13","name":"Mecklenburg-Vorpommern"}},{"name":"Am Eichholz","postalCode":"18516","locality":"Süderholz","municipality":{"key":"13073089","name":"Süderholz","type":"Kreisangehörige_Gemeinde"},"district":{"key":"13073","name":"Vorpommern-Rügen","type":"Landkreis"},"federalState":{"key":"13","name":"Mecklenburg-Vorpommern"}},{"name":"Am Felde","postalCode":"18516","locality":"Süderholz","municipality":{"key":"13073089","name":"Süderholz","type":"Kreisangehörige_Gemeinde"},"district":{"key":"13073","name":"Vorpommern-Rügen","type":"Landkreis"},"federalState":{"key":"13","name":"Mecklenburg-Vorpommern"}},{"name":"Am Golfpark","postalCode":"18516","locality":"Süderholz","municipality":{"key":"13073089","name":"Süderholz","type":"Kreisangehörige_Gemeinde"},"district":{"key":"13073","name":"Vorpommern-Rügen","type":"Landkreis"},"federalState":{"key":"13","name":"Mecklenburg-Vorpommern"}},{"name":"Am Grün","postalCode":"18516","locality":"Süderholz","municipality":{"key":"13073089","name":"Süderholz","type":"Kreisangehörige_Gemeinde"},"district":{"key":"13073","name":"Vorpommern-Rügen","type":"Landkreis"},"federalState":{"key":"13","name":"Mecklenburg-Vorpommern"}},{"name":"Am Grünland","postalCode":"18516","locality":"Süderholz","municipality":{"key":"13073089","name":"Süderholz","type":"Kreisangehörige_Gemeinde"},"district":{"key":"13073","name":"Vorpommern-Rügen","type":"Landkreis"},"federalState":{"key":"13","name":"Mecklenburg-Vorpommern"}},{"name":"Am Kirchsteig","postalCode":"18516","locality":"Süderholz","municipality":{"key":"13073089","name":"Süderholz","type":"Kreisangehörige_Gemeinde"},"district":{"key":"13073","name":"Vorpommern-Rügen","type":"Landkreis"},"federalState":{"key":"13","name":"Mecklenburg-Vorpommern"}},{"name":"Am Mühlberg","postalCode":"18516","locality":"Süderholz","municipality":{"key":"13073089","name":"Süderholz","type":"Kreisangehörige_Gemeinde"},"district":{"key":"13073","name":"Vorpommern-Rügen","type":"Landkreis"},"federalState":{"key":"13","name":"Mecklenburg-Vorpommern"}},{"name":"Am Oberbach","postalCode":"18516","locality":"Süderholz","municipality":{"key":"13073089","name":"Süderholz","type":"Kreisangehörige_Gemeinde"},"district":{"key":"13073","name":"Vorpommern-Rügen","type":"Landkreis"},"federalState":{"key":"13","name":"Mecklenburg-Vorpommern"}},{"name":"Am Poggenpfuhl","postalCode":"18516","locality":"Süderholz","municipality":{"key":"13073089","name":"Süderholz","type":"Kreisangehörige_Gemeinde"},"district":{"key":"13073","name":"Vorpommern-Rügen","type":"Landkreis"},"federalState":{"key":"13","name":"Mecklenburg-Vorpommern"}},{"name":"Am Schloßpark","postalCode":"18516","locality":"Süderholz","municipality":{"key":"13073089","name":"Süderholz","type":"Kreisangehörige_Gemeinde"},"district":{"key":"13073","name":"Vorpommern-Rügen","type":"Landkreis"},"federalState":{"key":"13","name":"Mecklenburg-Vorpommern"}},{"name":"Am Teich","postalCode":"18516","locality":"Süderholz","municipality":{"key":"13073089","name":"Süderholz","type":"Kreisangehörige_Gemeinde"},"district":{"key":"13073","name":"Vorpommern-Rügen","type":"Landkreis"},"federalState":{"key":"13","name":"Mecklenburg-Vorpommern"}},{"name":"Am Wiesenweg","postalCode":"18516","locality":"Süderholz","municipality":{"key":"13073089","name":"Süderholz","type":"Kreisangehörige_Gemeinde"},"district":{"key":"13073","name":"Vorpommern-Rügen","type":"Landkreis"},"federalState":{"key":"13","name":"Mecklenburg-Vorpommern"}},{"name":"Am Wührweg","postalCode":"18516","locality":"Süderholz","municipality":{"key":"13073089","name":"Süderholz","type":"Kreisangehörige_Gemeinde"},"district":{"key":"13073","name":"Vorpommern-Rügen","type":"Landkreis"},"federalState":{"key":"13","name":"Mecklenburg-Vorpommern"}},{"name":"An den Birken","postalCode":"18516","locality":"Süderholz","municipality":{"key":"13073089","name":"Süderholz","type":"Kreisangehörige_Gemeinde"},"district":{"key":"13073","name":"Vorpommern-Rügen","type":"Landkreis"},"federalState":{"key":"13","name":"Mecklenburg-Vorpommern"}},{"name":"An der Allee","postalCode":"18516","locality":"Süderholz","municipality":{"key":"13073089","name":"Süderholz","type":"Kreisangehörige_Gemeinde"},"district":{"key":"13073","name":"Vorpommern-Rügen","type":"Landkreis"},"federalState":{"key":"13","name":"Mecklenburg-Vorpommern"}},{"name":"An der alten Dorfstr.","postalCode":"18516","locality":"Süderholz","municipality":{"key":"13073089","name":"Süderholz","type":"Kreisangehörige_Gemeinde"},"district":{"key":"13073","name":"Vorpommern-Rügen","type":"Landkreis"},"federalState":{"key":"13","name":"Mecklenburg-Vorpommern"}},{"name":"An der Dorfstr.","postalCode":"18516","locality":"Süderholz","municipality":{"key":"13073089","name":"Süderholz","type":"Kreisangehörige_Gemeinde"},"district":{"key":"13073","name":"Vorpommern-Rügen","type":"Landkreis"},"federalState":{"key":"13","name":"Mecklenburg-Vorpommern"}},{"name":"An der Kirche","postalCode":"18516","locality":"Süderholz","municipality":{"key":"13073089","name":"Süderholz","type":"Kreisangehörige_Gemeinde"},"district":{"key":"13073","name":"Vorpommern-Rügen","type":"Landkreis"},"federalState":{"key":"13","name":"Mecklenburg-Vorpommern"}},{"name":"Ausbau","postalCode":"18516","locality":"Süderholz","municipality":{"key":"13073089","name":"Süderholz","type":"Kreisangehörige_Gemeinde"},"district":{"key":"13073","name":"Vorpommern-Rügen","type":"Landkreis"},"federalState":{"key":"13","name":"Mecklenburg-Vorpommern"}},{"name":"Bahnhofstr.","postalCode":"18516","locality":"Süderholz","municipality":{"key":"13073089","name":"Süderholz","type":"Kreisangehörige_Gemeinde"},"district":{"key":"13073","name":"Vorpommern-Rügen","type":"Landkreis"},"federalState":{"key":"13","name":"Mecklenburg-Vorpommern"}},{"name":"Barkower Weg","postalCode":"18516","locality":"Süderholz","municipality":{"key":"13073089","name":"Süderholz","type":"Kreisangehörige_Gemeinde"},"district":{"key":"13073","name":"Vorpommern-Rügen","type":"Landkreis"},"federalState":{"key":"13","name":"Mecklenburg-Vorpommern"}},{"name":"Barkow - Kaschow","postalCode":"18516","locality":"Süderholz","municipality":{"key":"13073089","name":"Süderholz","type":"Kreisangehörige_Gemeinde"},"district":{"key":"13073","name":"Vorpommern-Rügen","type":"Landkreis"},"federalState":{"key":"13","name":"Mecklenburg-Vorpommern"}},{"name":"Behnkenhäger Weg","postalCode":"18516","locality":"Süderholz","municipality":{"key":"13073089","name":"Süderholz","type":"Kreisangehörige_Gemeinde"},"district":{"key":"13073","name":"Vorpommern-Rügen","type":"Landkreis"},"federalState":{"key":"13","name":"Mecklenburg-Vorpommern"}},{"name":"Birkenweg","postalCode":"18516","locality":"Süderholz","municipality":{"key":"13073089","name":"Süderholz","type":"Kreisangehörige_Gemeinde"},"district":{"key":"13073","name":"Vorpommern-Rügen","type":"Landkreis"},"federalState":{"key":"13","name":"Mecklenburg-Vorpommern"}},{"name":"Bisdorfer Chaussee","postalCode":"18516","locality":"Süderholz","municipality":{"key":"13073089","name":"Süderholz","type":"Kreisangehörige_Gemeinde"},"district":{"key":"13073","name":"Vorpommern-Rügen","type":"Landkreis"},"federalState":{"key":"13","name":"Mecklenburg-Vorpommern"}},{"name":"Bisdorfer Str.","postalCode":"18516","locality":"Süderholz","municipality":{"key":"13073089","name":"Süderholz","type":"Kreisangehörige_Gemeinde"},"district":{"key":"13073","name":"Vorpommern-Rügen","type":"Landkreis"},"federalState":{"key":"13","name":"Mecklenburg-Vorpommern"}},{"name":"Bisdorfer Weg","postalCode":"18516","locality":"Süderholz","municipality":{"key":"13073089","name":"Süderholz","type":"Kreisangehörige_Gemeinde"},"district":{"key":"13073","name":"Vorpommern-Rügen","type":"Landkreis"},"federalState":{"key":"13","name":"Mecklenburg-Vorpommern"}},{"name":"Boltenhagen","postalCode":"18516","locality":"Süderholz","municipality":{"key":"13073089","name":"Süderholz","type":"Kreisangehörige_Gemeinde"},"district":{"key":"13073","name":"Vorpommern-Rügen","type":"Landkreis"},"federalState":{"key":"13","name":"Mecklenburg-Vorpommern"}},{"name":"Boltenhäger Str.","postalCode":"18516","locality":"Süderholz","municipality":{"key":"13073089","name":"Süderholz","type":"Kreisangehörige_Gemeinde"},"district":{"key":"13073","name":"Vorpommern-Rügen","type":"Landkreis"},"federalState":{"key":"13","name":"Mecklenburg-Vorpommern"}},{"name":"Bretwischer Ausbau","postalCode":"18516","locality":"Süderholz","municipality":{"key":"13073089","name":"Süderholz","type":"Kreisangehörige_Gemeinde"},"district":{"key":"13073","name":"Vorpommern-Rügen","type":"Landkreis"},"federalState":{"key":"13","name":"Mecklenburg-Vorpommern"}},{"name":"Bretwischer Hauptstr.","postalCode":"18516","locality":"Süderholz","municipality":{"key":"13073089","name":"Süderholz","type":"Kreisangehörige_Gemeinde"},"district":{"key":"13073","name":"Vorpommern-Rügen","type":"Landkreis"},"federalState":{"key":"13","name":"Mecklenburg-Vorpommern"}},{"name":"Dönnier Str.","postalCode":"18516","locality":"Süderholz","municipality":{"key":"13073089","name":"Süderholz","type":"Kreisangehörige_Gemeinde"},"district":{"key":"13073","name":"Vorpommern-Rügen","type":"Landkreis"},"federalState":{"key":"13","name":"Mecklenburg-Vorpommern"}},{"name":"Dorfstr.","postalCode":"18516","locality":"Süderholz","municipality":{"key":"13073089","name":"Süderholz","type":"Kreisangehörige_Gemeinde"},"district":{"key":"13073","name":"Vorpommern-Rügen","type":"Landkreis"},"federalState":{"key":"13","name":"Mecklenburg-Vorpommern"}},{"name":"Dörpallee","postalCode":"18516","locality":"Süderholz","municipality":{"key":"13073089","name":"Süderholz","type":"Kreisangehörige_Gemeinde"},"district":{"key":"13073","name":"Vorpommern-Rügen","type":"Landkreis"},"federalState":{"key":"13","name":"Mecklenburg-Vorpommern"}},{"name":"Dreizehnhausen","postalCode":"18516","locality":"Süderholz","municipality":{"key":"13073089","name":"Süderholz","type":"Kreisangehörige_Gemeinde"},"district":{"key":"13073","name":"Vorpommern-Rügen","type":"Landkreis"},"federalState":{"key":"13","name":"Mecklenburg-Vorpommern"}},{"name":"Dr.-Witte-Str.","postalCode":"18516","locality":"Süderholz","municipality":{"key":"13073089","name":"Süderholz","type":"Kreisangehörige_Gemeinde"},"district":{"key":"13073","name":"Vorpommern-Rügen","type":"Landkreis"},"federalState":{"key":"13","name":"Mecklenburg-Vorpommern"}},{"name":"Düvier Chaussee","postalCode":"18516","locality":"Süderholz","municipality":{"key":"13073089","name":"Süderholz","type":"Kreisangehörige_Gemeinde"},"district":{"key":"13073","name":"Vorpommern-Rügen","type":"Landkreis"},"federalState":{"key":"13","name":"Mecklenburg-Vorpommern"}},{"name":"Eichenweg","postalCode":"18516","locality":"Süderholz","municipality":{"key":"13073089","name":"Süderholz","type":"Kreisangehörige_Gemeinde"},"district":{"key":"13073","name":"Vorpommern-Rügen","type":"Landkreis"},"federalState":{"key":"13","name":"Mecklenburg-Vorpommern"}},{"name":"Eick'scher Weg","postalCode":"18516","locality":"Süderholz","municipality":{"key":"13073089","name":"Süderholz","type":"Kreisangehörige_Gemeinde"},"district":{"key":"13073","name":"Vorpommern-Rügen","type":"Landkreis"},"federalState":{"key":"13","name":"Mecklenburg-Vorpommern"}},{"name":"Feldweg","postalCode":"18516","locality":"Süderholz","municipality":{"key":"13073089","name":"Süderholz","type":"Kreisangehörige_Gemeinde"},"district":{"key":"13073","name":"Vorpommern-Rügen","type":"Landkreis"},"federalState":{"key":"13","name":"Mecklenburg-Vorpommern"}},{"name":"Forstweg","postalCode":"18516","locality":"Süderholz","municipality":{"key":"13073089","name":"Süderholz","type":"Kreisangehörige_Gemeinde"},"district":{"key":"13073","name":"Vorpommern-Rügen","type":"Landkreis"},"federalState":{"key":"13","name":"Mecklenburg-Vorpommern"}},{"name":"Freesen Krog","postalCode":"18516","locality":"Süderholz","municipality":{"key":"13073089","name":"Süderholz","type":"Kreisangehörige_Gemeinde"},"district":{"key":"13073","name":"Vorpommern-Rügen","type":"Landkreis"},"federalState":{"key":"13","name":"Mecklenburg-Vorpommern"}},{"name":"Freiholzer Weg","postalCode":"18516","locality":"Süderholz","municipality":{"key":"13073089","name":"Süderholz","type":"Kreisangehörige_Gemeinde"},"district":{"key":"13073","name":"Vorpommern-Rügen","type":"Landkreis"},"federalState":{"key":"13","name":"Mecklenburg-Vorpommern"}},{"name":"Gölkweg","postalCode":"18516","locality":"Süderholz","municipality":{"key":"13073089","name":"Süderholz","type":"Kreisangehörige_Gemeinde"},"district":{"key":"13073","name":"Vorpommern-Rügen","type":"Landkreis"},"federalState":{"key":"13","name":"Mecklenburg-Vorpommern"}},{"name":"Grabow","postalCode":"18516","locality":"Süderholz","municipality":{"key":"13073089","name":"Süderholz","type":"Kreisangehörige_Gemeinde"},"district":{"key":"13073","name":"Vorpommern-Rügen","type":"Landkreis"},"federalState":{"key":"13","name":"Mecklenburg-Vorpommern"}},{"name":"Greifswalder Chaussee","postalCode":"18516","locality":"Süderholz","municipality":{"key":"13073089","name":"Süderholz","type":"Kreisangehörige_Gemeinde"},"district":{"key":"13073","name":"Vorpommern-Rügen","type":"Landkreis"},"federalState":{"key":"13","name":"Mecklenburg-Vorpommern"}},{"name":"Greifswalder Str.","postalCode":"18516","locality":"Süderholz","municipality":{"key":"13073089","name":"Süderholz","type":"Kreisangehörige_Gemeinde"},"district":{"key":"13073","name":"Vorpommern-Rügen","type":"Landkreis"},"federalState":{"key":"13","name":"Mecklenburg-Vorpommern"}},{"name":"Grimmener Str.","postalCode":"18516","locality":"Süderholz","municipality":{"key":"13073089","name":"Süderholz","type":"Kreisangehörige_Gemeinde"},"district":{"key":"13073","name":"Vorpommern-Rügen","type":"Landkreis"},"federalState":{"key":"13","name":"Mecklenburg-Vorpommern"}},{"name":"Grimmer Chaussee","postalCode":"18516","locality":"Süderholz","municipality":{"key":"13073089","name":"Süderholz","type":"Kreisangehörige_Gemeinde"},"district":{"key":"13073","name":"Vorpommern-Rügen","type":"Landkreis"},"federalState":{"key":"13","name":"Mecklenburg-Vorpommern"}},{"name":"Groß Rakow","postalCode":"18516","locality":"Süderholz","municipality":{"key":"13073089","name":"Süderholz","type":"Kreisangehörige_Gemeinde"},"district":{"key":"13073","name":"Vorpommern-Rügen","type":"Landkreis"},"federalState":{"key":"13","name":"Mecklenburg-Vorpommern"}},{"name":"Gülzow Dorf","postalCode":"18516","locality":"Süderholz","municipality":{"key":"13073089","name":"Süderholz","type":"Kreisangehörige_Gemeinde"},"district":{"key":"13073","name":"Vorpommern-Rügen","type":"Landkreis"},"federalState":{"key":"13","name":"Mecklenburg-Vorpommern"}},{"name":"Gutsstr.","postalCode":"18516","locality":"Süderholz","municipality":{"key":"13073089","name":"Süderholz","type":"Kreisangehörige_Gemeinde"},"district":{"key":"13073","name":"Vorpommern-Rügen","type":"Landkreis"},"federalState":{"key":"13","name":"Mecklenburg-Vorpommern"}},{"name":"Hauptstr.","postalCode":"18516","locality":"Süderholz","municipality":{"key":"13073089","name":"Süderholz","type":"Kreisangehörige_Gemeinde"},"district":{"key":"13073","name":"Vorpommern-Rügen","type":"Landkreis"},"federalState":{"key":"13","name":"Mecklenburg-Vorpommern"}},{"name":"Hauptweg","postalCode":"18516","locality":"Süderholz","municipality":{"key":"13073089","name":"Süderholz","type":"Kreisangehörige_Gemeinde"},"district":{"key":"13073","name":"Vorpommern-Rügen","type":"Landkreis"},"federalState":{"key":"13","name":"Mecklenburg-Vorpommern"}},{"name":"Jarmshäger Weg","postalCode":"18516","locality":"Süderholz","municipality":{"key":"13073089","name":"Süderholz","type":"Kreisangehörige_Gemeinde"},"district":{"key":"13073","name":"Vorpommern-Rügen","type":"Landkreis"},"federalState":{"key":"13","name":"Mecklenburg-Vorpommern"}},{"name":"Kandeliner Ausbau","postalCode":"18516","locality":"Süderholz","municipality":{"key":"13073089","name":"Süderholz","type":"Kreisangehörige_Gemeinde"},"district":{"key":"13073","name":"Vorpommern-Rügen","type":"Landkreis"},"federalState":{"key":"13","name":"Mecklenburg-Vorpommern"}},{"name":"Kandeliner Hauptstr.","postalCode":"18516","locality":"Süderholz","municipality":{"key":"13073089","name":"Süderholz","type":"Kreisangehörige_Gemeinde"},"district":{"key":"13073","name":"Vorpommern-Rügen","type":"Landkreis"},"federalState":{"key":"13","name":"Mecklenburg-Vorpommern"}},{"name":"Kandeliner Str.","postalCode":"18516","locality":"Süderholz","municipality":{"key":"13073089","name":"Süderholz","type":"Kreisangehörige_Gemeinde"},"district":{"key":"13073","name":"Vorpommern-Rügen","type":"Landkreis"},"federalState":{"key":"13","name":"Mecklenburg-Vorpommern"}},{"name":"Kaschower Damm","postalCode":"18516","locality":"Süderholz","municipality":{"key":"13073089","name":"Süderholz","type":"Kreisangehörige_Gemeinde"},"district":{"key":"13073","name":"Vorpommern-Rügen","type":"Landkreis"},"federalState":{"key":"13","name":"Mecklenburg-Vorpommern"}},{"name":"Kastanienweg","postalCode":"18516","locality":"Süderholz","municipality":{"key":"13073089","name":"Süderholz","type":"Kreisangehörige_Gemeinde"},"district":{"key":"13073","name":"Vorpommern-Rügen","type":"Landkreis"},"federalState":{"key":"13","name":"Mecklenburg-Vorpommern"}},{"name":"Kirchweg","postalCode":"18516","locality":"Süderholz","municipality":{"key":"13073089","name":"Süderholz","type":"Kreisangehörige_Gemeinde"},"district":{"key":"13073","name":"Vorpommern-Rügen","type":"Landkreis"},"federalState":{"key":"13","name":"Mecklenburg-Vorpommern"}},{"name":"Klein Bisdorf","postalCode":"18516","locality":"Süderholz","municipality":{"key":"13073089","name":"Süderholz","type":"Kreisangehörige_Gemeinde"},"district":{"key":"13073","name":"Vorpommern-Rügen","type":"Landkreis"},"federalState":{"key":"13","name":"Mecklenburg-Vorpommern"}},{"name":"Klein Rakow","postalCode":"18516","locality":"Süderholz","municipality":{"key":"13073089","name":"Süderholz","type":"Kreisangehörige_Gemeinde"},"district":{"key":"13073","name":"Vorpommern-Rügen","type":"Landkreis"},"federalState":{"key":"13","name":"Mecklenburg-Vorpommern"}},{"name":"Kreutzmannshäger Damm","postalCode":"18516","locality":"Süderholz","municipality":{"key":"13073089","name":"Süderholz","type":"Kreisangehörige_Gemeinde"},"district":{"key":"13073","name":"Vorpommern-Rügen","type":"Landkreis"},"federalState":{"key":"13","name":"Mecklenburg-Vorpommern"}},{"name":"Lärchengrund","postalCode":"18516","locality":"Süderholz","municipality":{"key":"13073089","name":"Süderholz","type":"Kreisangehörige_Gemeinde"},"district":{"key":"13073","name":"Vorpommern-Rügen","type":"Landkreis"},"federalState":{"key":"13","name":"Mecklenburg-Vorpommern"}},{"name":"Lärchenweg","postalCode":"18516","locality":"Süderholz","municipality":{"key":"13073089","name":"Süderholz","type":"Kreisangehörige_Gemeinde"},"district":{"key":"13073","name":"Vorpommern-Rügen","type":"Landkreis"},"federalState":{"key":"13","name":"Mecklenburg-Vorpommern"}},{"name":"Lehmberg","postalCode":"18516","locality":"Süderholz","municipality":{"key":"13073089","name":"Süderholz","type":"Kreisangehörige_Gemeinde"},"district":{"key":"13073","name":"Vorpommern-Rügen","type":"Landkreis"},"federalState":{"key":"13","name":"Mecklenburg-Vorpommern"}},{"name":"Levenhäger Str.","postalCode":"18516","locality":"Süderholz","municipality":{"key":"13073089","name":"Süderholz","type":"Kreisangehörige_Gemeinde"},"district":{"key":"13073","name":"Vorpommern-Rügen","type":"Landkreis"},"federalState":{"key":"13","name":"Mecklenburg-Vorpommern"}},{"name":"Lindenallee","postalCode":"18516","locality":"Süderholz","municipality":{"key":"13073089","name":"Süderholz","type":"Kreisangehörige_Gemeinde"},"district":{"key":"13073","name":"Vorpommern-Rügen","type":"Landkreis"},"federalState":{"key":"13","name":"Mecklenburg-Vorpommern"}},{"name":"Lindenweg","postalCode":"18516","locality":"Süderholz","municipality":{"key":"13073089","name":"Süderholz","type":"Kreisangehörige_Gemeinde"},"district":{"key":"13073","name":"Vorpommern-Rügen","type":"Landkreis"},"federalState":{"key":"13","name":"Mecklenburg-Vorpommern"}},{"name":"Lindhorstweg","postalCode":"18516","locality":"Süderholz","municipality":{"key":"13073089","name":"Süderholz","type":"Kreisangehörige_Gemeinde"},"district":{"key":"13073","name":"Vorpommern-Rügen","type":"Landkreis"},"federalState":{"key":"13","name":"Mecklenburg-Vorpommern"}},{"name":"Loitzer Str.","postalCode":"18516","locality":"Süderholz","municipality":{"key":"13073089","name":"Süderholz","type":"Kreisangehörige_Gemeinde"},"district":{"key":"13073","name":"Vorpommern-Rügen","type":"Landkreis"},"federalState":{"key":"13","name":"Mecklenburg-Vorpommern"}},{"name":"Mühlenweg","postalCode":"18516","locality":"Süderholz","municipality":{"key":"13073089","name":"Süderholz","type":"Kreisangehörige_Gemeinde"},"district":{"key":"13073","name":"Vorpommern-Rügen","type":"Landkreis"},"federalState":{"key":"13","name":"Mecklenburg-Vorpommern"}},{"name":"Neue Str.","postalCode":"18516","locality":"Süderholz","municipality":{"key":"13073089","name":"Süderholz","type":"Kreisangehörige_Gemeinde"},"district":{"key":"13073","name":"Vorpommern-Rügen","type":"Landkreis"},"federalState":{"key":"13","name":"Mecklenburg-Vorpommern"}},{"name":"Neu Rakow","postalCode":"18516","locality":"Süderholz","municipality":{"key":"13073089","name":"Süderholz","type":"Kreisangehörige_Gemeinde"},"district":{"key":"13073","name":"Vorpommern-Rügen","type":"Landkreis"},"federalState":{"key":"13","name":"Mecklenburg-Vorpommern"}},{"name":"Parkstr.","postalCode":"18516","locality":"Süderholz","municipality":{"key":"13073089","name":"Süderholz","type":"Kreisangehörige_Gemeinde"},"district":{"key":"13073","name":"Vorpommern-Rügen","type":"Landkreis"},"federalState":{"key":"13","name":"Mecklenburg-Vorpommern"}},{"name":"Parkweg","postalCode":"18516","locality":"Süderholz","municipality":{"key":"13073089","name":"Süderholz","type":"Kreisangehörige_Gemeinde"},"district":{"key":"13073","name":"Vorpommern-Rügen","type":"Landkreis"},"federalState":{"key":"13","name":"Mecklenburg-Vorpommern"}},{"name":"Poggendorfer Weg","postalCode":"18516","locality":"Süderholz","municipality":{"key":"13073089","name":"Süderholz","type":"Kreisangehörige_Gemeinde"},"district":{"key":"13073","name":"Vorpommern-Rügen","type":"Landkreis"},"federalState":{"key":"13","name":"Mecklenburg-Vorpommern"}},{"name":"Pommernstr.","postalCode":"18516","locality":"Süderholz","municipality":{"key":"13073089","name":"Süderholz","type":"Kreisangehörige_Gemeinde"},"district":{"key":"13073","name":"Vorpommern-Rügen","type":"Landkreis"},"federalState":{"key":"13","name":"Mecklenburg-Vorpommern"}},{"name":"Rakower Ausbau","postalCode":"18516","locality":"Süderholz","municipality":{"key":"13073089","name":"Süderholz","type":"Kreisangehörige_Gemeinde"},"district":{"key":"13073","name":"Vorpommern-Rügen","type":"Landkreis"},"federalState":{"key":"13","name":"Mecklenburg-Vorpommern"}},{"name":"Rakower Schulstr.","postalCode":"18516","locality":"Süderholz","municipality":{"key":"13073089","name":"Süderholz","type":"Kreisangehörige_Gemeinde"},"district":{"key":"13073","name":"Vorpommern-Rügen","type":"Landkreis"},"federalState":{"key":"13","name":"Mecklenburg-Vorpommern"}},{"name":"Rakower Str.","postalCode":"18516","locality":"Süderholz","municipality":{"key":"13073089","name":"Süderholz","type":"Kreisangehörige_Gemeinde"},"district":{"key":"13073","name":"Vorpommern-Rügen","type":"Landkreis"},"federalState":{"key":"13","name":"Mecklenburg-Vorpommern"}},{"name":"Riesebyer Weg","postalCode":"18516","locality":"Süderholz","municipality":{"key":"13073089","name":"Süderholz","type":"Kreisangehörige_Gemeinde"},"district":{"key":"13073","name":"Vorpommern-Rügen","type":"Landkreis"},"federalState":{"key":"13","name":"Mecklenburg-Vorpommern"}},{"name":"Sandberg","postalCode":"18516","locality":"Süderholz","municipality":{"key":"13073089","name":"Süderholz","type":"Kreisangehörige_Gemeinde"},"district":{"key":"13073","name":"Vorpommern-Rügen","type":"Landkreis"},"federalState":{"key":"13","name":"Mecklenburg-Vorpommern"}},{"name":"Schloßweg","postalCode":"18516","locality":"Süderholz","municipality":{"key":"13073089","name":"Süderholz","type":"Kreisangehörige_Gemeinde"},"district":{"key":"13073","name":"Vorpommern-Rügen","type":"Landkreis"},"federalState":{"key":"13","name":"Mecklenburg-Vorpommern"}},{"name":"Schmietkower Dorfstr.","postalCode":"18516","locality":"Süderholz","municipality":{"key":"13073089","name":"Süderholz","type":"Kreisangehörige_Gemeinde"},"district":{"key":"13073","name":"Vorpommern-Rügen","type":"Landkreis"},"federalState":{"key":"13","name":"Mecklenburg-Vorpommern"}},{"name":"Schulstr.","postalCode":"18516","locality":"Süderholz","municipality":{"key":"13073089","name":"Süderholz","type":"Kreisangehörige_Gemeinde"},"district":{"key":"13073","name":"Vorpommern-Rügen","type":"Landkreis"},"federalState":{"key":"13","name":"Mecklenburg-Vorpommern"}},{"name":"Schulweg","postalCode":"18516","locality":"Süderholz","municipality":{"key":"13073089","name":"Süderholz","type":"Kreisangehörige_Gemeinde"},"district":{"key":"13073","name":"Vorpommern-Rügen","type":"Landkreis"},"federalState":{"key":"13","name":"Mecklenburg-Vorpommern"}},{"name":"Schwarzer Weg","postalCode":"18516","locality":"Süderholz","municipality":{"key":"13073089","name":"Süderholz","type":"Kreisangehörige_Gemeinde"},"district":{"key":"13073","name":"Vorpommern-Rügen","type":"Landkreis"},"federalState":{"key":"13","name":"Mecklenburg-Vorpommern"}},{"name":"Strelower Weg","postalCode":"18516","locality":"Süderholz","municipality":{"key":"13073089","name":"Süderholz","type":"Kreisangehörige_Gemeinde"},"district":{"key":"13073","name":"Vorpommern-Rügen","type":"Landkreis"},"federalState":{"key":"13","name":"Mecklenburg-Vorpommern"}},{"name":"Tannenweg","postalCode":"18516","locality":"Süderholz","municipality":{"key":"13073089","name":"Süderholz","type":"Kreisangehörige_Gemeinde"},"district":{"key":"13073","name":"Vorpommern-Rügen","type":"Landkreis"},"federalState":{"key":"13","name":"Mecklenburg-Vorpommern"}},{"name":"Turow- Bretwisch","postalCode":"18516","locality":"Süderholz","municipality":{"key":"13073089","name":"Süderholz","type":"Kreisangehörige_Gemeinde"},"district":{"key":"13073","name":"Vorpommern-Rügen","type":"Landkreis"},"federalState":{"key":"13","name":"Mecklenburg-Vorpommern"}},{"name":"Waldweg","postalCode":"18516","locality":"Süderholz","municipality":{"key":"13073089","name":"Süderholz","type":"Kreisangehörige_Gemeinde"},"district":{"key":"13073","name":"Vorpommern-Rügen","type":"Landkreis"},"federalState":{"key":"13","name":"Mecklenburg-Vorpommern"}},{"name":"Wiesengrund","postalCode":"18516","locality":"Süderholz","municipality":{"key":"13073089","name":"Süderholz","type":"Kreisangehörige_Gemeinde"},"district":{"key":"13073","name":"Vorpommern-Rügen","type":"Landkreis"},"federalState":{"key":"13","name":"Mecklenburg-Vorpommern"}},{"name":"Wiesenweg","postalCode":"18516","locality":"Süderholz","municipality":{"key":"13073089","name":"Süderholz","type":"Kreisangehörige_Gemeinde"},"district":{"key":"13073","name":"Vorpommern-Rügen","type":"Landkreis"},"federalState":{"key":"13","name":"Mecklenburg-Vorpommern"}},{"name":"Wilhelm-Tell-Str.","postalCode":"18516","locality":"Süderholz","municipality":{"key":"13073089","name":"Süderholz","type":"Kreisangehörige_Gemeinde"},"district":{"key":"13073","name":"Vorpommern-Rügen","type":"Landkreis"},"federalState":{"key":"13","name":"Mecklenburg-Vorpommern"}},{"name":"Willershusen","postalCode":"18516","locality":"Süderholz","municipality":{"key":"13073089","name":"Süderholz","type":"Kreisangehörige_Gemeinde"},"district":{"key":"13073","name":"Vorpommern-Rügen","type":"Landkreis"},"federalState":{"key":"13","name":"Mecklenburg-Vorpommern"}},{"name":"Willerswalde","postalCode":"18516","locality":"Süderholz","municipality":{"key":"13073089","name":"Süderholz","type":"Kreisangehörige_Gemeinde"},"district":{"key":"13073","name":"Vorpommern-Rügen","type":"Landkreis"},"federalState":{"key":"13","name":"Mecklenburg-Vorpommern"}},{"name":"Wüstenbilow","postalCode":"18516","locality":"Süderholz","municipality":{"key":"13073089","name":"Süderholz","type":"Kreisangehörige_Gemeinde"},"district":{"key":"13073","name":"Vorpommern-Rügen","type":"Landkreis"},"federalState":{"key":"13","name":"Mecklenburg-Vorpommern"}},{"name":"Wüsteneyer Weg","postalCode":"18516","locality":"Süderholz","municipality":{"key":"13073089","name":"Süderholz","type":"Kreisangehörige_Gemeinde"},"district":{"key":"13073","name":"Vorpommern-Rügen","type":"Landkreis"},"federalState":{"key":"13","name":"Mecklenburg-Vorpommern"}},{"name":"Zarnewanzer Ausbau","postalCode":"18516","locality":"Süderholz","municipality":{"key":"13073089","name":"Süderholz","type":"Kreisangehörige_Gemeinde"},"district":{"key":"13073","name":"Vorpommern-Rügen","type":"Landkreis"},"federalState":{"key":"13","name":"Mecklenburg-Vorpommern"}},{"name":"Zarnewanzer Str.","postalCode":"18516","locality":"Süderholz","municipality":{"key":"13073089","name":"Süderholz","type":"Kreisangehörige_Gemeinde"},"district":{"key":"13073","name":"Vorpommern-Rügen","type":"Landkreis"},"federalState":{"key":"13","name":"Mecklenburg-Vorpommern"}},{"name":"Zu den Neubauten","postalCode":"18516","locality":"Süderholz","municipality":{"key":"13073089","name":"Süderholz","type":"Kreisangehörige_Gemeinde"},"district":{"key":"13073","name":"Vorpommern-Rügen","type":"Landkreis"},"federalState":{"key":"13","name":"Mecklenburg-Vorpommern"}},{"name":"Zu den Wiesen","postalCode":"18516","locality":"Süderholz","municipality":{"key":"13073089","name":"Süderholz","type":"Kreisangehörige_Gemeinde"},"district":{"key":"13073","name":"Vorpommern-Rügen","type":"Landkreis"},"federalState":{"key":"13","name":"Mecklenburg-Vorpommern"}},{"name":"Zum Buschberg","postalCode":"18516","locality":"Süderholz","municipality":{"key":"13073089","name":"Süderholz","type":"Kreisangehörige_Gemeinde"},"district":{"key":"13073","name":"Vorpommern-Rügen","type":"Landkreis"},"federalState":{"key":"13","name":"Mecklenburg-Vorpommern"}},{"name":"Zum Torfkanal","postalCode":"18516","locality":"Süderholz","municipality":{"key":"13073089","name":"Süderholz","type":"Kreisangehörige_Gemeinde"},"district":{"key":"13073","name":"Vorpommern-Rügen","type":"Landkreis"},"federalState":{"key":"13","name":"Mecklenburg-Vorpommern"}},{"name":"Zum Trebelgrund","postalCode":"18516","locality":"Süderholz","municipality":{"key":"13073089","name":"Süderholz","type":"Kreisangehörige_Gemeinde"},"district":{"key":"13073","name":"Vorpommern-Rügen","type":"Landkreis"},"federalState":{"key":"13","name":"Mecklenburg-Vorpommern"}},{"name":"Zur Crusnitz","postalCode":"18516","locality":"Süderholz","municipality":{"key":"13073089","name":"Süderholz","type":"Kreisangehörige_Gemeinde"},"district":{"key":"13073","name":"Vorpommern-Rügen","type":"Landkreis"},"federalState":{"key":"13","name":"Mecklenburg-Vorpommern"}},{"name":"Zur Kirche","postalCode":"18516","locality":"Süderholz","municipality":{"key":"13073089","name":"Süderholz","type":"Kreisangehörige_Gemeinde"},"district":{"key":"13073","name":"Vorpommern-Rügen","type":"Landkreis"},"federalState":{"key":"13","name":"Mecklenburg-Vorpommern"}},{"name":"Zur Schule","postalCode":"18516","locality":"Süderholz","municipality":{"key":"13073089","name":"Süderholz","type":"Kreisangehörige_Gemeinde"},"district":{"key":"13073","name":"Vorpommern-Rügen","type":"Landkreis"},"federalState":{"key":"13","name":"Mecklenburg-Vorpommern"}},]