[{"name":"Aalbachtalstr.","postalCode":"97292","locality":"Holzkirchen","municipality":{"key":"09679149","name":"Holzkirchen","type":"Kreisangehörige_Gemeinde"},"district":{"key":"09679","name":"Würzburg","type":"Landkreis"},"federalState":{"key":"09","name":"Bayern"}},{"name":"Abt-Kaspar-Str.","postalCode":"83607","locality":"Holzkirchen","municipality":{"key":"09182120","name":"Holzkirchen, M","type":"Markt"},"district":{"key":"09182","name":"Miesbach","type":"Landkreis"},"federalState":{"key":"09","name":"Bayern"}},{"name":"Adolf-Kolping-Str.","postalCode":"83607","locality":"Holzkirchen","municipality":{"key":"09182120","name":"Holzkirchen, M","type":"Markt"},"district":{"key":"09182","name":"Miesbach","type":"Landkreis"},"federalState":{"key":"09","name":"Bayern"}},{"name":"Ahornstr.","postalCode":"83607","locality":"Holzkirchen","municipality":{"key":"09182120","name":"Holzkirchen, M","type":"Markt"},"district":{"key":"09182","name":"Miesbach","type":"Landkreis"},"federalState":{"key":"09","name":"Bayern"}},{"name":"Albrecht-Dürer-Ring","postalCode":"83607","locality":"Holzkirchen","municipality":{"key":"09182120","name":"Holzkirchen, M","type":"Markt"},"district":{"key":"09182","name":"Miesbach","type":"Landkreis"},"federalState":{"key":"09","name":"Bayern"}},{"name":"Almenrauschweg","postalCode":"83607","locality":"Holzkirchen","municipality":{"key":"09182120","name":"Holzkirchen, M","type":"Markt"},"district":{"key":"09182","name":"Miesbach","type":"Landkreis"},"federalState":{"key":"09","name":"Bayern"}},{"name":"Alpenblickstr.","postalCode":"83607","locality":"Holzkirchen","municipality":{"key":"09182120","name":"Holzkirchen, M","type":"Markt"},"district":{"key":"09182","name":"Miesbach","type":"Landkreis"},"federalState":{"key":"09","name":"Bayern"}},{"name":"Alte Str.","postalCode":"97292","locality":"Holzkirchen","municipality":{"key":"09679149","name":"Holzkirchen","type":"Kreisangehörige_Gemeinde"},"district":{"key":"09679","name":"Würzburg","type":"Landkreis"},"federalState":{"key":"09","name":"Bayern"}},{"name":"Am Ackerrain","postalCode":"83607","locality":"Holzkirchen","municipality":{"key":"09182120","name":"Holzkirchen, M","type":"Markt"},"district":{"key":"09182","name":"Miesbach","type":"Landkreis"},"federalState":{"key":"09","name":"Bayern"}},{"name":"Amalie-Hohenester-Weg","postalCode":"83607","locality":"Holzkirchen","municipality":{"key":"09182120","name":"Holzkirchen, M","type":"Markt"},"district":{"key":"09182","name":"Miesbach","type":"Landkreis"},"federalState":{"key":"09","name":"Bayern"}},{"name":"Am Frauenberg","postalCode":"83607","locality":"Holzkirchen","municipality":{"key":"09182120","name":"Holzkirchen, M","type":"Markt"},"district":{"key":"09182","name":"Miesbach","type":"Landkreis"},"federalState":{"key":"09","name":"Bayern"}},{"name":"Am Gangsteig","postalCode":"83607","locality":"Holzkirchen","municipality":{"key":"09182120","name":"Holzkirchen, M","type":"Markt"},"district":{"key":"09182","name":"Miesbach","type":"Landkreis"},"federalState":{"key":"09","name":"Bayern"}},{"name":"Am Gschwendfeld","postalCode":"83607","locality":"Holzkirchen","municipality":{"key":"09182120","name":"Holzkirchen, M","type":"Markt"},"district":{"key":"09182","name":"Miesbach","type":"Landkreis"},"federalState":{"key":"09","name":"Bayern"}},{"name":"Am Hang","postalCode":"97292","locality":"Holzkirchen","municipality":{"key":"09679149","name":"Holzkirchen","type":"Kreisangehörige_Gemeinde"},"district":{"key":"09679","name":"Würzburg","type":"Landkreis"},"federalState":{"key":"09","name":"Bayern"}},{"name":"Am Heigenkamer Steig","postalCode":"83607","locality":"Holzkirchen","municipality":{"key":"09182120","name":"Holzkirchen, M","type":"Markt"},"district":{"key":"09182","name":"Miesbach","type":"Landkreis"},"federalState":{"key":"09","name":"Bayern"}},{"name":"Am Hinterfeld","postalCode":"83607","locality":"Holzkirchen","municipality":{"key":"09182120","name":"Holzkirchen, M","type":"Markt"},"district":{"key":"09182","name":"Miesbach","type":"Landkreis"},"federalState":{"key":"09","name":"Bayern"}},{"name":"Am Ladehof","postalCode":"83607","locality":"Holzkirchen","municipality":{"key":"09182120","name":"Holzkirchen, M","type":"Markt"},"district":{"key":"09182","name":"Miesbach","type":"Landkreis"},"federalState":{"key":"09","name":"Bayern"}},{"name":"Am Oberfeld","postalCode":"83607","locality":"Holzkirchen","municipality":{"key":"09182120","name":"Holzkirchen, M","type":"Markt"},"district":{"key":"09182","name":"Miesbach","type":"Landkreis"},"federalState":{"key":"09","name":"Bayern"}},{"name":"Am Olivberg","postalCode":"83607","locality":"Holzkirchen","municipality":{"key":"09182120","name":"Holzkirchen, M","type":"Markt"},"district":{"key":"09182","name":"Miesbach","type":"Landkreis"},"federalState":{"key":"09","name":"Bayern"}},{"name":"Am Pfarrgarten","postalCode":"97292","locality":"Holzkirchen","municipality":{"key":"09679149","name":"Holzkirchen","type":"Kreisangehörige_Gemeinde"},"district":{"key":"09679","name":"Würzburg","type":"Landkreis"},"federalState":{"key":"09","name":"Bayern"}},{"name":"Amselweg","postalCode":"83607","locality":"Holzkirchen","municipality":{"key":"09182120","name":"Holzkirchen, M","type":"Markt"},"district":{"key":"09182","name":"Miesbach","type":"Landkreis"},"federalState":{"key":"09","name":"Bayern"}},{"name":"Am Steinernen Kreuz","postalCode":"97292","locality":"Holzkirchen","municipality":{"key":"09679149","name":"Holzkirchen","type":"Kreisangehörige_Gemeinde"},"district":{"key":"09679","name":"Würzburg","type":"Landkreis"},"federalState":{"key":"09","name":"Bayern"}},{"name":"Am Sufferloher Weiher","postalCode":"83607","locality":"Holzkirchen","municipality":{"key":"09182120","name":"Holzkirchen, M","type":"Markt"},"district":{"key":"09182","name":"Miesbach","type":"Landkreis"},"federalState":{"key":"09","name":"Bayern"}},{"name":"Am Weiherfeld","postalCode":"83607","locality":"Holzkirchen","municipality":{"key":"09182120","name":"Holzkirchen, M","type":"Markt"},"district":{"key":"09182","name":"Miesbach","type":"Landkreis"},"federalState":{"key":"09","name":"Bayern"}},{"name":"An der Hardt","postalCode":"97292","locality":"Holzkirchen","municipality":{"key":"09679149","name":"Holzkirchen","type":"Kreisangehörige_Gemeinde"},"district":{"key":"09679","name":"Würzburg","type":"Landkreis"},"federalState":{"key":"09","name":"Bayern"}},{"name":"An der Kiesgrube","postalCode":"83607","locality":"Holzkirchen","municipality":{"key":"09182120","name":"Holzkirchen, M","type":"Markt"},"district":{"key":"09182","name":"Miesbach","type":"Landkreis"},"federalState":{"key":"09","name":"Bayern"}},{"name":"An der Klinge","postalCode":"97292","locality":"Holzkirchen","municipality":{"key":"09679149","name":"Holzkirchen","type":"Kreisangehörige_Gemeinde"},"district":{"key":"09679","name":"Würzburg","type":"Landkreis"},"federalState":{"key":"09","name":"Bayern"}},{"name":"An der Maitz","postalCode":"83607","locality":"Holzkirchen","municipality":{"key":"09182120","name":"Holzkirchen, M","type":"Markt"},"district":{"key":"09182","name":"Miesbach","type":"Landkreis"},"federalState":{"key":"09","name":"Bayern"}},{"name":"Andreas-Mitterfellner-Str.","postalCode":"83607","locality":"Holzkirchen","municipality":{"key":"09182120","name":"Holzkirchen, M","type":"Markt"},"district":{"key":"09182","name":"Miesbach","type":"Landkreis"},"federalState":{"key":"09","name":"Bayern"}},{"name":"Angerstr.","postalCode":"83607","locality":"Holzkirchen","municipality":{"key":"09182120","name":"Holzkirchen, M","type":"Markt"},"district":{"key":"09182","name":"Miesbach","type":"Landkreis"},"federalState":{"key":"09","name":"Bayern"}},{"name":"Asberger Str.","postalCode":"83607","locality":"Holzkirchen","municipality":{"key":"09182120","name":"Holzkirchen, M","type":"Markt"},"district":{"key":"09182","name":"Miesbach","type":"Landkreis"},"federalState":{"key":"09","name":"Bayern"}},{"name":"Auf der Höh","postalCode":"83607","locality":"Holzkirchen","municipality":{"key":"09182120","name":"Holzkirchen, M","type":"Markt"},"district":{"key":"09182","name":"Miesbach","type":"Landkreis"},"federalState":{"key":"09","name":"Bayern"}},{"name":"Austr.","postalCode":"83607","locality":"Holzkirchen","municipality":{"key":"09182120","name":"Holzkirchen, M","type":"Markt"},"district":{"key":"09182","name":"Miesbach","type":"Landkreis"},"federalState":{"key":"09","name":"Bayern"}},{"name":"Badgasse","postalCode":"83607","locality":"Holzkirchen","municipality":{"key":"09182120","name":"Holzkirchen, M","type":"Markt"},"district":{"key":"09182","name":"Miesbach","type":"Landkreis"},"federalState":{"key":"09","name":"Bayern"}},{"name":"Bahnhofplatz","postalCode":"83607","locality":"Holzkirchen","municipality":{"key":"09182120","name":"Holzkirchen, M","type":"Markt"},"district":{"key":"09182","name":"Miesbach","type":"Landkreis"},"federalState":{"key":"09","name":"Bayern"}},{"name":"Bahnhofweg","postalCode":"83607","locality":"Holzkirchen","municipality":{"key":"09182120","name":"Holzkirchen, M","type":"Markt"},"district":{"key":"09182","name":"Miesbach","type":"Landkreis"},"federalState":{"key":"09","name":"Bayern"}},{"name":"Balthasar-Neumann-Str.","postalCode":"97292","locality":"Holzkirchen","municipality":{"key":"09679149","name":"Holzkirchen","type":"Kreisangehörige_Gemeinde"},"district":{"key":"09679","name":"Würzburg","type":"Landkreis"},"federalState":{"key":"09","name":"Bayern"}},{"name":"Baumgarten","postalCode":"83607","locality":"Holzkirchen","municipality":{"key":"09182120","name":"Holzkirchen, M","type":"Markt"},"district":{"key":"09182","name":"Miesbach","type":"Landkreis"},"federalState":{"key":"09","name":"Bayern"}},{"name":"Baumgartenstr.","postalCode":"83607","locality":"Holzkirchen","municipality":{"key":"09182120","name":"Holzkirchen, M","type":"Markt"},"district":{"key":"09182","name":"Miesbach","type":"Landkreis"},"federalState":{"key":"09","name":"Bayern"}},{"name":"Beim Unger","postalCode":"83607","locality":"Holzkirchen","municipality":{"key":"09182120","name":"Holzkirchen, M","type":"Markt"},"district":{"key":"09182","name":"Miesbach","type":"Landkreis"},"federalState":{"key":"09","name":"Bayern"}},{"name":"Beiweg","postalCode":"83607","locality":"Holzkirchen","municipality":{"key":"09182120","name":"Holzkirchen, M","type":"Markt"},"district":{"key":"09182","name":"Miesbach","type":"Landkreis"},"federalState":{"key":"09","name":"Bayern"}},{"name":"Bergfeldstr.","postalCode":"83607","locality":"Holzkirchen","municipality":{"key":"09182120","name":"Holzkirchen, M","type":"Markt"},"district":{"key":"09182","name":"Miesbach","type":"Landkreis"},"federalState":{"key":"09","name":"Bayern"}},{"name":"Bergfriedstr.","postalCode":"83607","locality":"Holzkirchen","municipality":{"key":"09182120","name":"Holzkirchen, M","type":"Markt"},"district":{"key":"09182","name":"Miesbach","type":"Landkreis"},"federalState":{"key":"09","name":"Bayern"}},{"name":"Bergstr.","postalCode":"97292","locality":"Holzkirchen","municipality":{"key":"09679149","name":"Holzkirchen","type":"Kreisangehörige_Gemeinde"},"district":{"key":"09679","name":"Würzburg","type":"Landkreis"},"federalState":{"key":"09","name":"Bayern"}},{"name":"Birkenstr.","postalCode":"83607","locality":"Holzkirchen","municipality":{"key":"09182120","name":"Holzkirchen, M","type":"Markt"},"district":{"key":"09182","name":"Miesbach","type":"Landkreis"},"federalState":{"key":"09","name":"Bayern"}},{"name":"Birkrinnstr.","postalCode":"83607","locality":"Holzkirchen","municipality":{"key":"09182120","name":"Holzkirchen, M","type":"Markt"},"district":{"key":"09182","name":"Miesbach","type":"Landkreis"},"federalState":{"key":"09","name":"Bayern"}},{"name":"Blumenstr.","postalCode":"83607","locality":"Holzkirchen","municipality":{"key":"09182120","name":"Holzkirchen, M","type":"Markt"},"district":{"key":"09182","name":"Miesbach","type":"Landkreis"},"federalState":{"key":"09","name":"Bayern"}},{"name":"Brauneckstr.","postalCode":"83607","locality":"Holzkirchen","municipality":{"key":"09182120","name":"Holzkirchen, M","type":"Markt"},"district":{"key":"09182","name":"Miesbach","type":"Landkreis"},"federalState":{"key":"09","name":"Bayern"}},{"name":"Breitensteinstr.","postalCode":"83607","locality":"Holzkirchen","municipality":{"key":"09182120","name":"Holzkirchen, M","type":"Markt"},"district":{"key":"09182","name":"Miesbach","type":"Landkreis"},"federalState":{"key":"09","name":"Bayern"}},{"name":"Brückenstr.","postalCode":"97292","locality":"Holzkirchen","municipality":{"key":"09679149","name":"Holzkirchen","type":"Kreisangehörige_Gemeinde"},"district":{"key":"09679","name":"Würzburg","type":"Landkreis"},"federalState":{"key":"09","name":"Bayern"}},{"name":"Brunauerstr.","postalCode":"83607","locality":"Holzkirchen","municipality":{"key":"09182120","name":"Holzkirchen, M","type":"Markt"},"district":{"key":"09182","name":"Miesbach","type":"Landkreis"},"federalState":{"key":"09","name":"Bayern"}},{"name":"Buchenstr.","postalCode":"83607","locality":"Holzkirchen","municipality":{"key":"09182120","name":"Holzkirchen, M","type":"Markt"},"district":{"key":"09182","name":"Miesbach","type":"Landkreis"},"federalState":{"key":"09","name":"Bayern"}},{"name":"Burgstallerstr.","postalCode":"83607","locality":"Holzkirchen","municipality":{"key":"09182120","name":"Holzkirchen, M","type":"Markt"},"district":{"key":"09182","name":"Miesbach","type":"Landkreis"},"federalState":{"key":"09","name":"Bayern"}},{"name":"Carl-Weinberger-Str.","postalCode":"83607","locality":"Holzkirchen","municipality":{"key":"09182120","name":"Holzkirchen, M","type":"Markt"},"district":{"key":"09182","name":"Miesbach","type":"Landkreis"},"federalState":{"key":"09","name":"Bayern"}},{"name":"Daisenbergerstr.","postalCode":"83607","locality":"Holzkirchen","municipality":{"key":"09182120","name":"Holzkirchen, M","type":"Markt"},"district":{"key":"09182","name":"Miesbach","type":"Landkreis"},"federalState":{"key":"09","name":"Bayern"}},{"name":"Dekan-Imminger-Str.","postalCode":"83607","locality":"Holzkirchen","municipality":{"key":"09182120","name":"Holzkirchen, M","type":"Markt"},"district":{"key":"09182","name":"Miesbach","type":"Landkreis"},"federalState":{"key":"09","name":"Bayern"}},{"name":"Dietramszeller Str.","postalCode":"83607","locality":"Holzkirchen","municipality":{"key":"09182120","name":"Holzkirchen, M","type":"Markt"},"district":{"key":"09182","name":"Miesbach","type":"Landkreis"},"federalState":{"key":"09","name":"Bayern"}},{"name":"Distelweg","postalCode":"83607","locality":"Holzkirchen","municipality":{"key":"09182120","name":"Holzkirchen, M","type":"Markt"},"district":{"key":"09182","name":"Miesbach","type":"Landkreis"},"federalState":{"key":"09","name":"Bayern"}},{"name":"Dorfstr.","postalCode":"83607","locality":"Holzkirchen","municipality":{"key":"09182120","name":"Holzkirchen, M","type":"Markt"},"district":{"key":"09182","name":"Miesbach","type":"Landkreis"},"federalState":{"key":"09","name":"Bayern"}},{"name":"Drosselweg","postalCode":"83607","locality":"Holzkirchen","municipality":{"key":"09182120","name":"Holzkirchen, M","type":"Markt"},"district":{"key":"09182","name":"Miesbach","type":"Landkreis"},"federalState":{"key":"09","name":"Bayern"}},{"name":"Edelweißstr.","postalCode":"83607","locality":"Holzkirchen","municipality":{"key":"09182120","name":"Holzkirchen, M","type":"Markt"},"district":{"key":"09182","name":"Miesbach","type":"Landkreis"},"federalState":{"key":"09","name":"Bayern"}},{"name":"Eichenfeldstr.","postalCode":"83607","locality":"Holzkirchen","municipality":{"key":"09182120","name":"Holzkirchen, M","type":"Markt"},"district":{"key":"09182","name":"Miesbach","type":"Landkreis"},"federalState":{"key":"09","name":"Bayern"}},{"name":"Eichenweg","postalCode":"83607","locality":"Holzkirchen","municipality":{"key":"09182120","name":"Holzkirchen, M","type":"Markt"},"district":{"key":"09182","name":"Miesbach","type":"Landkreis"},"federalState":{"key":"09","name":"Bayern"}},{"name":"Enzianstr.","postalCode":"83607","locality":"Holzkirchen","municipality":{"key":"09182120","name":"Holzkirchen, M","type":"Markt"},"district":{"key":"09182","name":"Miesbach","type":"Landkreis"},"federalState":{"key":"09","name":"Bayern"}},{"name":"Erich-Kästner-Str.","postalCode":"83607","locality":"Holzkirchen","municipality":{"key":"09182120","name":"Holzkirchen, M","type":"Markt"},"district":{"key":"09182","name":"Miesbach","type":"Landkreis"},"federalState":{"key":"09","name":"Bayern"}},{"name":"Erlenstr.","postalCode":"83607","locality":"Holzkirchen","municipality":{"key":"09182120","name":"Holzkirchen, M","type":"Markt"},"district":{"key":"09182","name":"Miesbach","type":"Landkreis"},"federalState":{"key":"09","name":"Bayern"}},{"name":"Erlkam","postalCode":"83607","locality":"Holzkirchen","municipality":{"key":"09182120","name":"Holzkirchen, M","type":"Markt"},"district":{"key":"09182","name":"Miesbach","type":"Landkreis"},"federalState":{"key":"09","name":"Bayern"}},{"name":"Erlkamer Str.","postalCode":"83607","locality":"Holzkirchen","municipality":{"key":"09182120","name":"Holzkirchen, M","type":"Markt"},"district":{"key":"09182","name":"Miesbach","type":"Landkreis"},"federalState":{"key":"09","name":"Bayern"}},{"name":"Ernst-Vogler-Weg","postalCode":"83607","locality":"Holzkirchen","municipality":{"key":"09182120","name":"Holzkirchen, M","type":"Markt"},"district":{"key":"09182","name":"Miesbach","type":"Landkreis"},"federalState":{"key":"09","name":"Bayern"}},{"name":"Eschenstr.","postalCode":"83607","locality":"Holzkirchen","municipality":{"key":"09182120","name":"Holzkirchen, M","type":"Markt"},"district":{"key":"09182","name":"Miesbach","type":"Landkreis"},"federalState":{"key":"09","name":"Bayern"}},{"name":"Feldstr.","postalCode":"83607","locality":"Holzkirchen","municipality":{"key":"09182120","name":"Holzkirchen, M","type":"Markt"},"district":{"key":"09182","name":"Miesbach","type":"Landkreis"},"federalState":{"key":"09","name":"Bayern"}},{"name":"Fellach","postalCode":"83607","locality":"Holzkirchen","municipality":{"key":"09182120","name":"Holzkirchen, M","type":"Markt"},"district":{"key":"09182","name":"Miesbach","type":"Landkreis"},"federalState":{"key":"09","name":"Bayern"}},{"name":"Fichtholz","postalCode":"83607","locality":"Holzkirchen","municipality":{"key":"09182120","name":"Holzkirchen, M","type":"Markt"},"district":{"key":"09182","name":"Miesbach","type":"Landkreis"},"federalState":{"key":"09","name":"Bayern"}},{"name":"Finkenweg","postalCode":"83607","locality":"Holzkirchen","municipality":{"key":"09182120","name":"Holzkirchen, M","type":"Markt"},"district":{"key":"09182","name":"Miesbach","type":"Landkreis"},"federalState":{"key":"09","name":"Bayern"}},{"name":"Flachsfeldstr.","postalCode":"83607","locality":"Holzkirchen","municipality":{"key":"09182120","name":"Holzkirchen, M","type":"Markt"},"district":{"key":"09182","name":"Miesbach","type":"Landkreis"},"federalState":{"key":"09","name":"Bayern"}},{"name":"Flinspachstr.","postalCode":"83607","locality":"Holzkirchen","municipality":{"key":"09182120","name":"Holzkirchen, M","type":"Markt"},"district":{"key":"09182","name":"Miesbach","type":"Landkreis"},"federalState":{"key":"09","name":"Bayern"}},{"name":"Flurstr.","postalCode":"83607","locality":"Holzkirchen","municipality":{"key":"09182120","name":"Holzkirchen, M","type":"Markt"},"district":{"key":"09182","name":"Miesbach","type":"Landkreis"},"federalState":{"key":"09","name":"Bayern"}},{"name":"Föchinger Str.","postalCode":"83607","locality":"Holzkirchen","municipality":{"key":"09182120","name":"Holzkirchen, M","type":"Markt"},"district":{"key":"09182","name":"Miesbach","type":"Landkreis"},"federalState":{"key":"09","name":"Bayern"}},{"name":"Frankenstr.","postalCode":"97292","locality":"Holzkirchen","municipality":{"key":"09679149","name":"Holzkirchen","type":"Kreisangehörige_Gemeinde"},"district":{"key":"09679","name":"Würzburg","type":"Landkreis"},"federalState":{"key":"09","name":"Bayern"}},{"name":"Franz-Obermayer-Str.","postalCode":"83607","locality":"Holzkirchen","municipality":{"key":"09182120","name":"Holzkirchen, M","type":"Markt"},"district":{"key":"09182","name":"Miesbach","type":"Landkreis"},"federalState":{"key":"09","name":"Bayern"}},{"name":"Franz-von-Defregger-Str.","postalCode":"83607","locality":"Holzkirchen","municipality":{"key":"09182120","name":"Holzkirchen, M","type":"Markt"},"district":{"key":"09182","name":"Miesbach","type":"Landkreis"},"federalState":{"key":"09","name":"Bayern"}},{"name":"Frühlingsstr.","postalCode":"97292","locality":"Holzkirchen","municipality":{"key":"09679149","name":"Holzkirchen","type":"Kreisangehörige_Gemeinde"},"district":{"key":"09679","name":"Würzburg","type":"Landkreis"},"federalState":{"key":"09","name":"Bayern"}},{"name":"Frühlingstr.","postalCode":"83607","locality":"Holzkirchen","municipality":{"key":"09182120","name":"Holzkirchen, M","type":"Markt"},"district":{"key":"09182","name":"Miesbach","type":"Landkreis"},"federalState":{"key":"09","name":"Bayern"}},{"name":"Ganghoferstr.","postalCode":"83607","locality":"Holzkirchen","municipality":{"key":"09182120","name":"Holzkirchen, M","type":"Markt"},"district":{"key":"09182","name":"Miesbach","type":"Landkreis"},"federalState":{"key":"09","name":"Bayern"}},{"name":"Gartenstr.","postalCode":"83607","locality":"Holzkirchen","municipality":{"key":"09182120","name":"Holzkirchen, M","type":"Markt"},"district":{"key":"09182","name":"Miesbach","type":"Landkreis"},"federalState":{"key":"09","name":"Bayern"}},{"name":"Georg-Queri-Str.","postalCode":"83607","locality":"Holzkirchen","municipality":{"key":"09182120","name":"Holzkirchen, M","type":"Markt"},"district":{"key":"09182","name":"Miesbach","type":"Landkreis"},"federalState":{"key":"09","name":"Bayern"}},{"name":"Gerstackerstr.","postalCode":"83607","locality":"Holzkirchen","municipality":{"key":"09182120","name":"Holzkirchen, M","type":"Markt"},"district":{"key":"09182","name":"Miesbach","type":"Landkreis"},"federalState":{"key":"09","name":"Bayern"}},{"name":"Gewerbering","postalCode":"83607","locality":"Holzkirchen","municipality":{"key":"09182120","name":"Holzkirchen, M","type":"Markt"},"district":{"key":"09182","name":"Miesbach","type":"Landkreis"},"federalState":{"key":"09","name":"Bayern"}},{"name":"Grubweg","postalCode":"83607","locality":"Holzkirchen","municipality":{"key":"09182120","name":"Holzkirchen, M","type":"Markt"},"district":{"key":"09182","name":"Miesbach","type":"Landkreis"},"federalState":{"key":"09","name":"Bayern"}},{"name":"Grünlandweg","postalCode":"83607","locality":"Holzkirchen","municipality":{"key":"09182120","name":"Holzkirchen, M","type":"Markt"},"district":{"key":"09182","name":"Miesbach","type":"Landkreis"},"federalState":{"key":"09","name":"Bayern"}},{"name":"Guffertstr.","postalCode":"83607","locality":"Holzkirchen","municipality":{"key":"09182120","name":"Holzkirchen, M","type":"Markt"},"district":{"key":"09182","name":"Miesbach","type":"Landkreis"},"federalState":{"key":"09","name":"Bayern"}},{"name":"Hackenseestr.","postalCode":"83607","locality":"Holzkirchen","municipality":{"key":"09182120","name":"Holzkirchen, M","type":"Markt"},"district":{"key":"09182","name":"Miesbach","type":"Landkreis"},"federalState":{"key":"09","name":"Bayern"}},{"name":"Hafnerstr.","postalCode":"83607","locality":"Holzkirchen","municipality":{"key":"09182120","name":"Holzkirchen, M","type":"Markt"},"district":{"key":"09182","name":"Miesbach","type":"Landkreis"},"federalState":{"key":"09","name":"Bayern"}},{"name":"Haidlandweg","postalCode":"83607","locality":"Holzkirchen","municipality":{"key":"09182120","name":"Holzkirchen, M","type":"Markt"},"district":{"key":"09182","name":"Miesbach","type":"Landkreis"},"federalState":{"key":"09","name":"Bayern"}},{"name":"Haidstr.","postalCode":"83607","locality":"Holzkirchen","municipality":{"key":"09182120","name":"Holzkirchen, M","type":"Markt"},"district":{"key":"09182","name":"Miesbach","type":"Landkreis"},"federalState":{"key":"09","name":"Bayern"}},{"name":"Hans-Jennerwein-Str.","postalCode":"83607","locality":"Holzkirchen","municipality":{"key":"09182120","name":"Holzkirchen, M","type":"Markt"},"district":{"key":"09182","name":"Miesbach","type":"Landkreis"},"federalState":{"key":"09","name":"Bayern"}},{"name":"Hauptstr.","postalCode":"83607","locality":"Holzkirchen","municipality":{"key":"09182120","name":"Holzkirchen, M","type":"Markt"},"district":{"key":"09182","name":"Miesbach","type":"Landkreis"},"federalState":{"key":"09","name":"Bayern"}},{"name":"Heidenweg","postalCode":"83607","locality":"Holzkirchen","municipality":{"key":"09182120","name":"Holzkirchen, M","type":"Markt"},"district":{"key":"09182","name":"Miesbach","type":"Landkreis"},"federalState":{"key":"09","name":"Bayern"}},{"name":"Heignkamer Str.","postalCode":"83607","locality":"Holzkirchen","municipality":{"key":"09182120","name":"Holzkirchen, M","type":"Markt"},"district":{"key":"09182","name":"Miesbach","type":"Landkreis"},"federalState":{"key":"09","name":"Bayern"}},{"name":"Herdergarten","postalCode":"83607","locality":"Holzkirchen","municipality":{"key":"09182120","name":"Holzkirchen, M","type":"Markt"},"district":{"key":"09182","name":"Miesbach","type":"Landkreis"},"federalState":{"key":"09","name":"Bayern"}},{"name":"Herzbergweg","postalCode":"83607","locality":"Holzkirchen","municipality":{"key":"09182120","name":"Holzkirchen, M","type":"Markt"},"district":{"key":"09182","name":"Miesbach","type":"Landkreis"},"federalState":{"key":"09","name":"Bayern"}},{"name":"Hilpoltsteinerstr.","postalCode":"83607","locality":"Holzkirchen","municipality":{"key":"09182120","name":"Holzkirchen, M","type":"Markt"},"district":{"key":"09182","name":"Miesbach","type":"Landkreis"},"federalState":{"key":"09","name":"Bayern"}},{"name":"Hirschbergstr.","postalCode":"83607","locality":"Holzkirchen","municipality":{"key":"09182120","name":"Holzkirchen, M","type":"Markt"},"district":{"key":"09182","name":"Miesbach","type":"Landkreis"},"federalState":{"key":"09","name":"Bayern"}},{"name":"Hochackerweg","postalCode":"83607","locality":"Holzkirchen","municipality":{"key":"09182120","name":"Holzkirchen, M","type":"Markt"},"district":{"key":"09182","name":"Miesbach","type":"Landkreis"},"federalState":{"key":"09","name":"Bayern"}},{"name":"Holzhäuslerweg","postalCode":"83607","locality":"Holzkirchen","municipality":{"key":"09182120","name":"Holzkirchen, M","type":"Markt"},"district":{"key":"09182","name":"Miesbach","type":"Landkreis"},"federalState":{"key":"09","name":"Bayern"}},{"name":"Holzstr.","postalCode":"83607","locality":"Holzkirchen","municipality":{"key":"09182120","name":"Holzkirchen, M","type":"Markt"},"district":{"key":"09182","name":"Miesbach","type":"Landkreis"},"federalState":{"key":"09","name":"Bayern"}},{"name":"Hygin-Kiene-Str.","postalCode":"83607","locality":"Holzkirchen","municipality":{"key":"09182120","name":"Holzkirchen, M","type":"Markt"},"district":{"key":"09182","name":"Miesbach","type":"Landkreis"},"federalState":{"key":"09","name":"Bayern"}},{"name":"Ignaz-Günther-Str.","postalCode":"83607","locality":"Holzkirchen","municipality":{"key":"09182120","name":"Holzkirchen, M","type":"Markt"},"district":{"key":"09182","name":"Miesbach","type":"Landkreis"},"federalState":{"key":"09","name":"Bayern"}},{"name":"Im Sommerfeld","postalCode":"83607","locality":"Holzkirchen","municipality":{"key":"09182120","name":"Holzkirchen, M","type":"Markt"},"district":{"key":"09182","name":"Miesbach","type":"Landkreis"},"federalState":{"key":"09","name":"Bayern"}},{"name":"Im Thalbühel","postalCode":"83607","locality":"Holzkirchen","municipality":{"key":"09182120","name":"Holzkirchen, M","type":"Markt"},"district":{"key":"09182","name":"Miesbach","type":"Landkreis"},"federalState":{"key":"09","name":"Bayern"}},{"name":"Industriestr.","postalCode":"83607","locality":"Holzkirchen","municipality":{"key":"09182120","name":"Holzkirchen, M","type":"Markt"},"district":{"key":"09182","name":"Miesbach","type":"Landkreis"},"federalState":{"key":"09","name":"Bayern"}},{"name":"Jahnstr.","postalCode":"83607","locality":"Holzkirchen","municipality":{"key":"09182120","name":"Holzkirchen, M","type":"Markt"},"district":{"key":"09182","name":"Miesbach","type":"Landkreis"},"federalState":{"key":"09","name":"Bayern"}},{"name":"Jörg-Hube-Str.","postalCode":"83607","locality":"Holzkirchen","municipality":{"key":"09182120","name":"Holzkirchen, M","type":"Markt"},"district":{"key":"09182","name":"Miesbach","type":"Landkreis"},"federalState":{"key":"09","name":"Bayern"}},{"name":"Josef-Kammerloher-Str.","postalCode":"83607","locality":"Holzkirchen","municipality":{"key":"09182120","name":"Holzkirchen, M","type":"Markt"},"district":{"key":"09182","name":"Miesbach","type":"Landkreis"},"federalState":{"key":"09","name":"Bayern"}},{"name":"Karl-Stieler-Str.","postalCode":"83607","locality":"Holzkirchen","municipality":{"key":"09182120","name":"Holzkirchen, M","type":"Markt"},"district":{"key":"09182","name":"Miesbach","type":"Landkreis"},"federalState":{"key":"09","name":"Bayern"}},{"name":"Karwendelstr.","postalCode":"83607","locality":"Holzkirchen","municipality":{"key":"09182120","name":"Holzkirchen, M","type":"Markt"},"district":{"key":"09182","name":"Miesbach","type":"Landkreis"},"federalState":{"key":"09","name":"Bayern"}},{"name":"Kiem-Pauli-Str.","postalCode":"83607","locality":"Holzkirchen","municipality":{"key":"09182120","name":"Holzkirchen, M","type":"Markt"},"district":{"key":"09182","name":"Miesbach","type":"Landkreis"},"federalState":{"key":"09","name":"Bayern"}},{"name":"Kirchbergstr.","postalCode":"97292","locality":"Holzkirchen","municipality":{"key":"09679149","name":"Holzkirchen","type":"Kreisangehörige_Gemeinde"},"district":{"key":"09679","name":"Würzburg","type":"Landkreis"},"federalState":{"key":"09","name":"Bayern"}},{"name":"Kirchenweg","postalCode":"97292","locality":"Holzkirchen","municipality":{"key":"09679149","name":"Holzkirchen","type":"Kreisangehörige_Gemeinde"},"district":{"key":"09679","name":"Würzburg","type":"Landkreis"},"federalState":{"key":"09","name":"Bayern"}},{"name":"Kirchfeldstr.","postalCode":"83607","locality":"Holzkirchen","municipality":{"key":"09182120","name":"Holzkirchen, M","type":"Markt"},"district":{"key":"09182","name":"Miesbach","type":"Landkreis"},"federalState":{"key":"09","name":"Bayern"}},{"name":"Kleinfeldstr.","postalCode":"83607","locality":"Holzkirchen","municipality":{"key":"09182120","name":"Holzkirchen, M","type":"Markt"},"district":{"key":"09182","name":"Miesbach","type":"Landkreis"},"federalState":{"key":"09","name":"Bayern"}},{"name":"Kleinhartpenninger Str.","postalCode":"83607","locality":"Holzkirchen","municipality":{"key":"09182120","name":"Holzkirchen, M","type":"Markt"},"district":{"key":"09182","name":"Miesbach","type":"Landkreis"},"federalState":{"key":"09","name":"Bayern"}},{"name":"Klosterbergstr.","postalCode":"97292","locality":"Holzkirchen","municipality":{"key":"09679149","name":"Holzkirchen","type":"Kreisangehörige_Gemeinde"},"district":{"key":"09679","name":"Würzburg","type":"Landkreis"},"federalState":{"key":"09","name":"Bayern"}},{"name":"Klosterstr.","postalCode":"97292","locality":"Holzkirchen","municipality":{"key":"09679149","name":"Holzkirchen","type":"Kreisangehörige_Gemeinde"},"district":{"key":"09679","name":"Würzburg","type":"Landkreis"},"federalState":{"key":"09","name":"Bayern"}},{"name":"Köhlerweg","postalCode":"83607","locality":"Holzkirchen","municipality":{"key":"09182120","name":"Holzkirchen, M","type":"Markt"},"district":{"key":"09182","name":"Miesbach","type":"Landkreis"},"federalState":{"key":"09","name":"Bayern"}},{"name":"Kohlstattstr.","postalCode":"83607","locality":"Holzkirchen","municipality":{"key":"09182120","name":"Holzkirchen, M","type":"Markt"},"district":{"key":"09182","name":"Miesbach","type":"Landkreis"},"federalState":{"key":"09","name":"Bayern"}},{"name":"Konrad-Zuse-Str.","postalCode":"83607","locality":"Holzkirchen","municipality":{"key":"09182120","name":"Holzkirchen, M","type":"Markt"},"district":{"key":"09182","name":"Miesbach","type":"Landkreis"},"federalState":{"key":"09","name":"Bayern"}},{"name":"Krankenhauspark","postalCode":"83607","locality":"Holzkirchen","municipality":{"key":"09182120","name":"Holzkirchen, M","type":"Markt"},"district":{"key":"09182","name":"Miesbach","type":"Landkreis"},"federalState":{"key":"09","name":"Bayern"}},{"name":"Krankenhausstr.","postalCode":"83607","locality":"Holzkirchen","municipality":{"key":"09182120","name":"Holzkirchen, M","type":"Markt"},"district":{"key":"09182","name":"Miesbach","type":"Landkreis"},"federalState":{"key":"09","name":"Bayern"}},{"name":"Kurt-Koch-Str.","postalCode":"83607","locality":"Holzkirchen","municipality":{"key":"09182120","name":"Holzkirchen, M","type":"Markt"},"district":{"key":"09182","name":"Miesbach","type":"Landkreis"},"federalState":{"key":"09","name":"Bayern"}},{"name":"Kurzenberg","postalCode":"83607","locality":"Holzkirchen","municipality":{"key":"09182120","name":"Holzkirchen, M","type":"Markt"},"district":{"key":"09182","name":"Miesbach","type":"Landkreis"},"federalState":{"key":"09","name":"Bayern"}},{"name":"Lärchenstr.","postalCode":"83607","locality":"Holzkirchen","municipality":{"key":"09182120","name":"Holzkirchen, M","type":"Markt"},"district":{"key":"09182","name":"Miesbach","type":"Landkreis"},"federalState":{"key":"09","name":"Bayern"}},{"name":"Lechlweg","postalCode":"83607","locality":"Holzkirchen","municipality":{"key":"09182120","name":"Holzkirchen, M","type":"Markt"},"district":{"key":"09182","name":"Miesbach","type":"Landkreis"},"federalState":{"key":"09","name":"Bayern"}},{"name":"Lena-Christ-Str.","postalCode":"83607","locality":"Holzkirchen","municipality":{"key":"09182120","name":"Holzkirchen, M","type":"Markt"},"district":{"key":"09182","name":"Miesbach","type":"Landkreis"},"federalState":{"key":"09","name":"Bayern"}},{"name":"Lindenstr.","postalCode":"83607","locality":"Holzkirchen","municipality":{"key":"09182120","name":"Holzkirchen, M","type":"Markt"},"district":{"key":"09182","name":"Miesbach","type":"Landkreis"},"federalState":{"key":"09","name":"Bayern"}},{"name":"Lindlfeldweg","postalCode":"83607","locality":"Holzkirchen","municipality":{"key":"09182120","name":"Holzkirchen, M","type":"Markt"},"district":{"key":"09182","name":"Miesbach","type":"Landkreis"},"federalState":{"key":"09","name":"Bayern"}},{"name":"Ludwig-Thoma-Str.","postalCode":"83607","locality":"Holzkirchen","municipality":{"key":"09182120","name":"Holzkirchen, M","type":"Markt"},"district":{"key":"09182","name":"Miesbach","type":"Landkreis"},"federalState":{"key":"09","name":"Bayern"}},{"name":"Lüftiger Hof","postalCode":"83607","locality":"Holzkirchen","municipality":{"key":"09182120","name":"Holzkirchen, M","type":"Markt"},"district":{"key":"09182","name":"Miesbach","type":"Landkreis"},"federalState":{"key":"09","name":"Bayern"}},{"name":"Marienstr.","postalCode":"83607","locality":"Holzkirchen","municipality":{"key":"09182120","name":"Holzkirchen, M","type":"Markt"},"district":{"key":"09182","name":"Miesbach","type":"Landkreis"},"federalState":{"key":"09","name":"Bayern"}},{"name":"Marktfeldweg","postalCode":"83607","locality":"Holzkirchen","municipality":{"key":"09182120","name":"Holzkirchen, M","type":"Markt"},"district":{"key":"09182","name":"Miesbach","type":"Landkreis"},"federalState":{"key":"09","name":"Bayern"}},{"name":"Marktplatz","postalCode":"83607","locality":"Holzkirchen","municipality":{"key":"09182120","name":"Holzkirchen, M","type":"Markt"},"district":{"key":"09182","name":"Miesbach","type":"Landkreis"},"federalState":{"key":"09","name":"Bayern"}},{"name":"Marktplatz","postalCode":"97292","locality":"Holzkirchen","municipality":{"key":"09679149","name":"Holzkirchen","type":"Kreisangehörige_Gemeinde"},"district":{"key":"09679","name":"Würzburg","type":"Landkreis"},"federalState":{"key":"09","name":"Bayern"}},{"name":"Marschall","postalCode":"83607","locality":"Holzkirchen","municipality":{"key":"09182120","name":"Holzkirchen, M","type":"Markt"},"district":{"key":"09182","name":"Miesbach","type":"Landkreis"},"federalState":{"key":"09","name":"Bayern"}},{"name":"Martin-Luther-Str.","postalCode":"83607","locality":"Holzkirchen","municipality":{"key":"09182120","name":"Holzkirchen, M","type":"Markt"},"district":{"key":"09182","name":"Miesbach","type":"Landkreis"},"federalState":{"key":"09","name":"Bayern"}},{"name":"Martinstr.","postalCode":"83607","locality":"Holzkirchen","municipality":{"key":"09182120","name":"Holzkirchen, M","type":"Markt"},"district":{"key":"09182","name":"Miesbach","type":"Landkreis"},"federalState":{"key":"09","name":"Bayern"}},{"name":"Marxbauerstr.","postalCode":"83607","locality":"Holzkirchen","municipality":{"key":"09182120","name":"Holzkirchen, M","type":"Markt"},"district":{"key":"09182","name":"Miesbach","type":"Landkreis"},"federalState":{"key":"09","name":"Bayern"}},{"name":"Max-Heimbucher-Str.","postalCode":"83607","locality":"Holzkirchen","municipality":{"key":"09182120","name":"Holzkirchen, M","type":"Markt"},"district":{"key":"09182","name":"Miesbach","type":"Landkreis"},"federalState":{"key":"09","name":"Bayern"}},{"name":"Meilerstr.","postalCode":"83607","locality":"Holzkirchen","municipality":{"key":"09182120","name":"Holzkirchen, M","type":"Markt"},"district":{"key":"09182","name":"Miesbach","type":"Landkreis"},"federalState":{"key":"09","name":"Bayern"}},{"name":"Meisenweg","postalCode":"83607","locality":"Holzkirchen","municipality":{"key":"09182120","name":"Holzkirchen, M","type":"Markt"},"district":{"key":"09182","name":"Miesbach","type":"Landkreis"},"federalState":{"key":"09","name":"Bayern"}},{"name":"Miesbacher Str.","postalCode":"83607","locality":"Holzkirchen","municipality":{"key":"09182120","name":"Holzkirchen, M","type":"Markt"},"district":{"key":"09182","name":"Miesbach","type":"Landkreis"},"federalState":{"key":"09","name":"Bayern"}},{"name":"Mohnweg","postalCode":"83607","locality":"Holzkirchen","municipality":{"key":"09182120","name":"Holzkirchen, M","type":"Markt"},"district":{"key":"09182","name":"Miesbach","type":"Landkreis"},"federalState":{"key":"09","name":"Bayern"}},{"name":"Moosstr.","postalCode":"83607","locality":"Holzkirchen","municipality":{"key":"09182120","name":"Holzkirchen, M","type":"Markt"},"district":{"key":"09182","name":"Miesbach","type":"Landkreis"},"federalState":{"key":"09","name":"Bayern"}},{"name":"Mühlenweg","postalCode":"97292","locality":"Holzkirchen","municipality":{"key":"09679149","name":"Holzkirchen","type":"Kreisangehörige_Gemeinde"},"district":{"key":"09679","name":"Würzburg","type":"Landkreis"},"federalState":{"key":"09","name":"Bayern"}},{"name":"Mühlweg","postalCode":"83607","locality":"Holzkirchen","municipality":{"key":"09182120","name":"Holzkirchen, M","type":"Markt"},"district":{"key":"09182","name":"Miesbach","type":"Landkreis"},"federalState":{"key":"09","name":"Bayern"}},{"name":"Münchner Str.","postalCode":"83607","locality":"Holzkirchen","municipality":{"key":"09182120","name":"Holzkirchen, M","type":"Markt"},"district":{"key":"09182","name":"Miesbach","type":"Landkreis"},"federalState":{"key":"09","name":"Bayern"}},{"name":"Nehaider","postalCode":"83607","locality":"Holzkirchen","municipality":{"key":"09182120","name":"Holzkirchen, M","type":"Markt"},"district":{"key":"09182","name":"Miesbach","type":"Landkreis"},"federalState":{"key":"09","name":"Bayern"}},{"name":"Nibelungenstr.","postalCode":"97292","locality":"Holzkirchen","municipality":{"key":"09679149","name":"Holzkirchen","type":"Kreisangehörige_Gemeinde"},"district":{"key":"09679","name":"Würzburg","type":"Landkreis"},"federalState":{"key":"09","name":"Bayern"}},{"name":"Ohmstr.","postalCode":"83607","locality":"Holzkirchen","municipality":{"key":"09182120","name":"Holzkirchen, M","type":"Markt"},"district":{"key":"09182","name":"Miesbach","type":"Landkreis"},"federalState":{"key":"09","name":"Bayern"}},{"name":"Oskar-von-Miller-Platz","postalCode":"83607","locality":"Holzkirchen","municipality":{"key":"09182120","name":"Holzkirchen, M","type":"Markt"},"district":{"key":"09182","name":"Miesbach","type":"Landkreis"},"federalState":{"key":"09","name":"Bayern"}},{"name":"Otterfinger Weg","postalCode":"83607","locality":"Holzkirchen","municipality":{"key":"09182120","name":"Holzkirchen, M","type":"Markt"},"district":{"key":"09182","name":"Miesbach","type":"Landkreis"},"federalState":{"key":"09","name":"Bayern"}},{"name":"Otto-Mair-Ring","postalCode":"83607","locality":"Holzkirchen","municipality":{"key":"09182120","name":"Holzkirchen, M","type":"Markt"},"district":{"key":"09182","name":"Miesbach","type":"Landkreis"},"federalState":{"key":"09","name":"Bayern"}},{"name":"Pfarrer-Josef-Str.","postalCode":"97292","locality":"Holzkirchen","municipality":{"key":"09679149","name":"Holzkirchen","type":"Kreisangehörige_Gemeinde"},"district":{"key":"09679","name":"Würzburg","type":"Landkreis"},"federalState":{"key":"09","name":"Bayern"}},{"name":"Pfarrweg","postalCode":"83607","locality":"Holzkirchen","municipality":{"key":"09182120","name":"Holzkirchen, M","type":"Markt"},"district":{"key":"09182","name":"Miesbach","type":"Landkreis"},"federalState":{"key":"09","name":"Bayern"}},{"name":"Piesenkamer Str.","postalCode":"83607","locality":"Holzkirchen","municipality":{"key":"09182120","name":"Holzkirchen, M","type":"Markt"},"district":{"key":"09182","name":"Miesbach","type":"Landkreis"},"federalState":{"key":"09","name":"Bayern"}},{"name":"Probst-Sigl-Str.","postalCode":"83607","locality":"Holzkirchen","municipality":{"key":"09182120","name":"Holzkirchen, M","type":"Markt"},"district":{"key":"09182","name":"Miesbach","type":"Landkreis"},"federalState":{"key":"09","name":"Bayern"}},{"name":"Raiffeisenstr.","postalCode":"83607","locality":"Holzkirchen","municipality":{"key":"09182120","name":"Holzkirchen, M","type":"Markt"},"district":{"key":"09182","name":"Miesbach","type":"Landkreis"},"federalState":{"key":"09","name":"Bayern"}},{"name":"Raiffeisenstr.","postalCode":"97292","locality":"Holzkirchen","municipality":{"key":"09679149","name":"Holzkirchen","type":"Kreisangehörige_Gemeinde"},"district":{"key":"09679","name":"Würzburg","type":"Landkreis"},"federalState":{"key":"09","name":"Bayern"}},{"name":"Rat-Müller-Str.","postalCode":"83607","locality":"Holzkirchen","municipality":{"key":"09182120","name":"Holzkirchen, M","type":"Markt"},"district":{"key":"09182","name":"Miesbach","type":"Landkreis"},"federalState":{"key":"09","name":"Bayern"}},{"name":"Reith","postalCode":"83607","locality":"Holzkirchen","municipality":{"key":"09182120","name":"Holzkirchen, M","type":"Markt"},"district":{"key":"09182","name":"Miesbach","type":"Landkreis"},"federalState":{"key":"09","name":"Bayern"}},{"name":"Remlinger Str.","postalCode":"97292","locality":"Holzkirchen","municipality":{"key":"09679149","name":"Holzkirchen","type":"Kreisangehörige_Gemeinde"},"district":{"key":"09679","name":"Würzburg","type":"Landkreis"},"federalState":{"key":"09","name":"Bayern"}},{"name":"Ringstr.","postalCode":"97292","locality":"Holzkirchen","municipality":{"key":"09679149","name":"Holzkirchen","type":"Kreisangehörige_Gemeinde"},"district":{"key":"09679","name":"Würzburg","type":"Landkreis"},"federalState":{"key":"09","name":"Bayern"}},{"name":"Roggersdorfer Str.","postalCode":"83607","locality":"Holzkirchen","municipality":{"key":"09182120","name":"Holzkirchen, M","type":"Markt"},"district":{"key":"09182","name":"Miesbach","type":"Landkreis"},"federalState":{"key":"09","name":"Bayern"}},{"name":"Roseggerstr.","postalCode":"83607","locality":"Holzkirchen","municipality":{"key":"09182120","name":"Holzkirchen, M","type":"Markt"},"district":{"key":"09182","name":"Miesbach","type":"Landkreis"},"federalState":{"key":"09","name":"Bayern"}},{"name":"Rosenheimer Str.","postalCode":"83607","locality":"Holzkirchen","municipality":{"key":"09182120","name":"Holzkirchen, M","type":"Markt"},"district":{"key":"09182","name":"Miesbach","type":"Landkreis"},"federalState":{"key":"09","name":"Bayern"}},{"name":"Rosenstr.","postalCode":"83607","locality":"Holzkirchen","municipality":{"key":"09182120","name":"Holzkirchen, M","type":"Markt"},"district":{"key":"09182","name":"Miesbach","type":"Landkreis"},"federalState":{"key":"09","name":"Bayern"}},{"name":"Roßsteinstr.","postalCode":"83607","locality":"Holzkirchen","municipality":{"key":"09182120","name":"Holzkirchen, M","type":"Markt"},"district":{"key":"09182","name":"Miesbach","type":"Landkreis"},"federalState":{"key":"09","name":"Bayern"}},{"name":"Rudolf-Diesel-Ring","postalCode":"83607","locality":"Holzkirchen","municipality":{"key":"09182120","name":"Holzkirchen, M","type":"Markt"},"district":{"key":"09182","name":"Miesbach","type":"Landkreis"},"federalState":{"key":"09","name":"Bayern"}},{"name":"Säggasse","postalCode":"83607","locality":"Holzkirchen","municipality":{"key":"09182120","name":"Holzkirchen, M","type":"Markt"},"district":{"key":"09182","name":"Miesbach","type":"Landkreis"},"federalState":{"key":"09","name":"Bayern"}},{"name":"Salzgasse","postalCode":"83607","locality":"Holzkirchen","municipality":{"key":"09182120","name":"Holzkirchen, M","type":"Markt"},"district":{"key":"09182","name":"Miesbach","type":"Landkreis"},"federalState":{"key":"09","name":"Bayern"}},{"name":"Sankt-Bartholomäus-Weg","postalCode":"83607","locality":"Holzkirchen","municipality":{"key":"09182120","name":"Holzkirchen, M","type":"Markt"},"district":{"key":"09182","name":"Miesbach","type":"Landkreis"},"federalState":{"key":"09","name":"Bayern"}},{"name":"Sankt-Josef-Str.","postalCode":"83607","locality":"Holzkirchen","municipality":{"key":"09182120","name":"Holzkirchen, M","type":"Markt"},"district":{"key":"09182","name":"Miesbach","type":"Landkreis"},"federalState":{"key":"09","name":"Bayern"}},{"name":"Schinderäckerstr.","postalCode":"83607","locality":"Holzkirchen","municipality":{"key":"09182120","name":"Holzkirchen, M","type":"Markt"},"district":{"key":"09182","name":"Miesbach","type":"Landkreis"},"federalState":{"key":"09","name":"Bayern"}},{"name":"Schmiedsgasse","postalCode":"97292","locality":"Holzkirchen","municipality":{"key":"09679149","name":"Holzkirchen","type":"Kreisangehörige_Gemeinde"},"district":{"key":"09679","name":"Würzburg","type":"Landkreis"},"federalState":{"key":"09","name":"Bayern"}},{"name":"Schmiedstr.","postalCode":"83607","locality":"Holzkirchen","municipality":{"key":"09182120","name":"Holzkirchen, M","type":"Markt"},"district":{"key":"09182","name":"Miesbach","type":"Landkreis"},"federalState":{"key":"09","name":"Bayern"}},{"name":"Schönlohstr.","postalCode":"83607","locality":"Holzkirchen","municipality":{"key":"09182120","name":"Holzkirchen, M","type":"Markt"},"district":{"key":"09182","name":"Miesbach","type":"Landkreis"},"federalState":{"key":"09","name":"Bayern"}},{"name":"Schulstr.","postalCode":"83607","locality":"Holzkirchen","municipality":{"key":"09182120","name":"Holzkirchen, M","type":"Markt"},"district":{"key":"09182","name":"Miesbach","type":"Landkreis"},"federalState":{"key":"09","name":"Bayern"}},{"name":"Schulstr.","postalCode":"97292","locality":"Holzkirchen","municipality":{"key":"09679149","name":"Holzkirchen","type":"Kreisangehörige_Gemeinde"},"district":{"key":"09679","name":"Würzburg","type":"Landkreis"},"federalState":{"key":"09","name":"Bayern"}},{"name":"Schützenstr.","postalCode":"83607","locality":"Holzkirchen","municipality":{"key":"09182120","name":"Holzkirchen, M","type":"Markt"},"district":{"key":"09182","name":"Miesbach","type":"Landkreis"},"federalState":{"key":"09","name":"Bayern"}},{"name":"Schwarzrinnstr.","postalCode":"83607","locality":"Holzkirchen","municipality":{"key":"09182120","name":"Holzkirchen, M","type":"Markt"},"district":{"key":"09182","name":"Miesbach","type":"Landkreis"},"federalState":{"key":"09","name":"Bayern"}},{"name":"Setzbergstr.","postalCode":"83607","locality":"Holzkirchen","municipality":{"key":"09182120","name":"Holzkirchen, M","type":"Markt"},"district":{"key":"09182","name":"Miesbach","type":"Landkreis"},"federalState":{"key":"09","name":"Bayern"}},{"name":"Siedlerstr.","postalCode":"83607","locality":"Holzkirchen","municipality":{"key":"09182120","name":"Holzkirchen, M","type":"Markt"},"district":{"key":"09182","name":"Miesbach","type":"Landkreis"},"federalState":{"key":"09","name":"Bayern"}},{"name":"Sollacher Str.","postalCode":"83607","locality":"Holzkirchen","municipality":{"key":"09182120","name":"Holzkirchen, M","type":"Markt"},"district":{"key":"09182","name":"Miesbach","type":"Landkreis"},"federalState":{"key":"09","name":"Bayern"}},{"name":"Sommeraustr.","postalCode":"83607","locality":"Holzkirchen","municipality":{"key":"09182120","name":"Holzkirchen, M","type":"Markt"},"district":{"key":"09182","name":"Miesbach","type":"Landkreis"},"federalState":{"key":"09","name":"Bayern"}},{"name":"Sonnbergstr.","postalCode":"83607","locality":"Holzkirchen","municipality":{"key":"09182120","name":"Holzkirchen, M","type":"Markt"},"district":{"key":"09182","name":"Miesbach","type":"Landkreis"},"federalState":{"key":"09","name":"Bayern"}},{"name":"Sonnenstr.","postalCode":"97292","locality":"Holzkirchen","municipality":{"key":"09679149","name":"Holzkirchen","type":"Kreisangehörige_Gemeinde"},"district":{"key":"09679","name":"Würzburg","type":"Landkreis"},"federalState":{"key":"09","name":"Bayern"}},{"name":"Sonnleiten","postalCode":"83607","locality":"Holzkirchen","municipality":{"key":"09182120","name":"Holzkirchen, M","type":"Markt"},"district":{"key":"09182","name":"Miesbach","type":"Landkreis"},"federalState":{"key":"09","name":"Bayern"}},{"name":"Spatzenweg","postalCode":"83607","locality":"Holzkirchen","municipality":{"key":"09182120","name":"Holzkirchen, M","type":"Markt"},"district":{"key":"09182","name":"Miesbach","type":"Landkreis"},"federalState":{"key":"09","name":"Bayern"}},{"name":"Speckgasse","postalCode":"97292","locality":"Holzkirchen","municipality":{"key":"09679149","name":"Holzkirchen","type":"Kreisangehörige_Gemeinde"},"district":{"key":"09679","name":"Würzburg","type":"Landkreis"},"federalState":{"key":"09","name":"Bayern"}},{"name":"Spielplatz Rosenheimerstr.","postalCode":"83607","locality":"Holzkirchen","municipality":{"key":"09182120","name":"Holzkirchen, M","type":"Markt"},"district":{"key":"09182","name":"Miesbach","type":"Landkreis"},"federalState":{"key":"09","name":"Bayern"}},{"name":"Spitzwegstr.","postalCode":"83607","locality":"Holzkirchen","municipality":{"key":"09182120","name":"Holzkirchen, M","type":"Markt"},"district":{"key":"09182","name":"Miesbach","type":"Landkreis"},"federalState":{"key":"09","name":"Bayern"}},{"name":"Sportplatzstr.","postalCode":"97292","locality":"Holzkirchen","municipality":{"key":"09679149","name":"Holzkirchen","type":"Kreisangehörige_Gemeinde"},"district":{"key":"09679","name":"Würzburg","type":"Landkreis"},"federalState":{"key":"09","name":"Bayern"}},{"name":"St.-Michael-Str.","postalCode":"97292","locality":"Holzkirchen","municipality":{"key":"09679149","name":"Holzkirchen","type":"Kreisangehörige_Gemeinde"},"district":{"key":"09679","name":"Würzburg","type":"Landkreis"},"federalState":{"key":"09","name":"Bayern"}},{"name":"Südstr.","postalCode":"83607","locality":"Holzkirchen","municipality":{"key":"09182120","name":"Holzkirchen, M","type":"Markt"},"district":{"key":"09182","name":"Miesbach","type":"Landkreis"},"federalState":{"key":"09","name":"Bayern"}},{"name":"Sufferloh","postalCode":"83607","locality":"Holzkirchen","municipality":{"key":"09182120","name":"Holzkirchen, M","type":"Markt"},"district":{"key":"09182","name":"Miesbach","type":"Landkreis"},"federalState":{"key":"09","name":"Bayern"}},{"name":"Sufferloher Str.","postalCode":"83607","locality":"Holzkirchen","municipality":{"key":"09182120","name":"Holzkirchen, M","type":"Markt"},"district":{"key":"09182","name":"Miesbach","type":"Landkreis"},"federalState":{"key":"09","name":"Bayern"}},{"name":"Sulz-Geräumt","postalCode":"83607","locality":"Holzkirchen","municipality":{"key":"09182120","name":"Holzkirchen, M","type":"Markt"},"district":{"key":"09182","name":"Miesbach","type":"Landkreis"},"federalState":{"key":"09","name":"Bayern"}},{"name":"Tegernseer Str.","postalCode":"83607","locality":"Holzkirchen","municipality":{"key":"09182120","name":"Holzkirchen, M","type":"Markt"},"district":{"key":"09182","name":"Miesbach","type":"Landkreis"},"federalState":{"key":"09","name":"Bayern"}},{"name":"Tölzer Str.","postalCode":"83607","locality":"Holzkirchen","municipality":{"key":"09182120","name":"Holzkirchen, M","type":"Markt"},"district":{"key":"09182","name":"Miesbach","type":"Landkreis"},"federalState":{"key":"09","name":"Bayern"}},{"name":"Ulmenstr.","postalCode":"83607","locality":"Holzkirchen","municipality":{"key":"09182120","name":"Holzkirchen, M","type":"Markt"},"district":{"key":"09182","name":"Miesbach","type":"Landkreis"},"federalState":{"key":"09","name":"Bayern"}},{"name":"Valleyer Weg","postalCode":"83607","locality":"Holzkirchen","municipality":{"key":"09182120","name":"Holzkirchen, M","type":"Markt"},"district":{"key":"09182","name":"Miesbach","type":"Landkreis"},"federalState":{"key":"09","name":"Bayern"}},{"name":"Veilchenweg","postalCode":"83607","locality":"Holzkirchen","municipality":{"key":"09182120","name":"Holzkirchen, M","type":"Markt"},"district":{"key":"09182","name":"Miesbach","type":"Landkreis"},"federalState":{"key":"09","name":"Bayern"}},{"name":"Verbindungsweg Spitzwegstr.","postalCode":"83607","locality":"Holzkirchen","municipality":{"key":"09182120","name":"Holzkirchen, M","type":"Markt"},"district":{"key":"09182","name":"Miesbach","type":"Landkreis"},"federalState":{"key":"09","name":"Bayern"}},{"name":"Victor-Kaluza-Str.","postalCode":"83607","locality":"Holzkirchen","municipality":{"key":"09182120","name":"Holzkirchen, M","type":"Markt"},"district":{"key":"09182","name":"Miesbach","type":"Landkreis"},"federalState":{"key":"09","name":"Bayern"}},{"name":"von-Reisach-Str.","postalCode":"97292","locality":"Holzkirchen","municipality":{"key":"09679149","name":"Holzkirchen","type":"Kreisangehörige_Gemeinde"},"district":{"key":"09679","name":"Würzburg","type":"Landkreis"},"federalState":{"key":"09","name":"Bayern"}},{"name":"Wagnerbreite","postalCode":"83607","locality":"Holzkirchen","municipality":{"key":"09182120","name":"Holzkirchen, M","type":"Markt"},"district":{"key":"09182","name":"Miesbach","type":"Landkreis"},"federalState":{"key":"09","name":"Bayern"}},{"name":"Wallbergstr.","postalCode":"83607","locality":"Holzkirchen","municipality":{"key":"09182120","name":"Holzkirchen, M","type":"Markt"},"district":{"key":"09182","name":"Miesbach","type":"Landkreis"},"federalState":{"key":"09","name":"Bayern"}},{"name":"Warngauer Str.","postalCode":"83607","locality":"Holzkirchen","municipality":{"key":"09182120","name":"Holzkirchen, M","type":"Markt"},"district":{"key":"09182","name":"Miesbach","type":"Landkreis"},"federalState":{"key":"09","name":"Bayern"}},{"name":"Weiherweg","postalCode":"83607","locality":"Holzkirchen","municipality":{"key":"09182120","name":"Holzkirchen, M","type":"Markt"},"district":{"key":"09182","name":"Miesbach","type":"Landkreis"},"federalState":{"key":"09","name":"Bayern"}},{"name":"Wendelsteinstr.","postalCode":"83607","locality":"Holzkirchen","municipality":{"key":"09182120","name":"Holzkirchen, M","type":"Markt"},"district":{"key":"09182","name":"Miesbach","type":"Landkreis"},"federalState":{"key":"09","name":"Bayern"}},{"name":"Westermeierstr.","postalCode":"83607","locality":"Holzkirchen","municipality":{"key":"09182120","name":"Holzkirchen, M","type":"Markt"},"district":{"key":"09182","name":"Miesbach","type":"Landkreis"},"federalState":{"key":"09","name":"Bayern"}},{"name":"Wiesenweg","postalCode":"97292","locality":"Holzkirchen","municipality":{"key":"09679149","name":"Holzkirchen","type":"Kreisangehörige_Gemeinde"},"district":{"key":"09679","name":"Würzburg","type":"Landkreis"},"federalState":{"key":"09","name":"Bayern"}},{"name":"Wilhelm-Busch-Str.","postalCode":"83607","locality":"Holzkirchen","municipality":{"key":"09182120","name":"Holzkirchen, M","type":"Markt"},"district":{"key":"09182","name":"Miesbach","type":"Landkreis"},"federalState":{"key":"09","name":"Bayern"}},{"name":"Wilhelm-Dieß-Str.","postalCode":"83607","locality":"Holzkirchen","municipality":{"key":"09182120","name":"Holzkirchen, M","type":"Markt"},"district":{"key":"09182","name":"Miesbach","type":"Landkreis"},"federalState":{"key":"09","name":"Bayern"}},{"name":"Wilhelm-Leibl-Str.","postalCode":"83607","locality":"Holzkirchen","municipality":{"key":"09182120","name":"Holzkirchen, M","type":"Markt"},"district":{"key":"09182","name":"Miesbach","type":"Landkreis"},"federalState":{"key":"09","name":"Bayern"}},{"name":"Wilhelm-Liebhaber-Str.","postalCode":"83607","locality":"Holzkirchen","municipality":{"key":"09182120","name":"Holzkirchen, M","type":"Markt"},"district":{"key":"09182","name":"Miesbach","type":"Landkreis"},"federalState":{"key":"09","name":"Bayern"}},{"name":"Zeheterstr.","postalCode":"83607","locality":"Holzkirchen","municipality":{"key":"09182120","name":"Holzkirchen, M","type":"Markt"},"district":{"key":"09182","name":"Miesbach","type":"Landkreis"},"federalState":{"key":"09","name":"Bayern"}},{"name":"Äußere Münchner Str.","postalCode":"83714","locality":"Miesbach","municipality":{"key":"09182125","name":"Miesbach, St","type":"Stadt"},"district":{"key":"09182","name":"Miesbach","type":"Landkreis"},"federalState":{"key":"09","name":"Bayern"}},]