[{"key":"10021890","name":"Bohnacher","postalCode":"3179","locality":"Kriechenwil","commune":{"key":"666","name":"Kriechenwil","shortName":"Kriechenwil"},"district":{"key":"246","name":"Verwaltungskreis Bern-Mittelland"},"canton":{"key":"2","code":"BE","name":"Bern / Berne"},"status":"Real"},{"key":"10158373","name":"Gammenstrasse","postalCode":"3179","locality":"Kriechenwil","commune":{"key":"666","name":"Kriechenwil","shortName":"Kriechenwil"},"district":{"key":"246","name":"Verwaltungskreis Bern-Mittelland"},"canton":{"key":"2","code":"BE","name":"Bern / Berne"},"status":"Real"},{"key":"10126264","name":"Gartenweg","postalCode":"3179","locality":"Kriechenwil","commune":{"key":"666","name":"Kriechenwil","shortName":"Kriechenwil"},"district":{"key":"246","name":"Verwaltungskreis Bern-Mittelland"},"canton":{"key":"2","code":"BE","name":"Bern / Berne"},"status":"Real"},{"key":"10126265","name":"Gemeindehausstrasse","postalCode":"3179","locality":"Kriechenwil","commune":{"key":"666","name":"Kriechenwil","shortName":"Kriechenwil"},"district":{"key":"246","name":"Verwaltungskreis Bern-Mittelland"},"canton":{"key":"2","code":"BE","name":"Bern / Berne"},"status":"Real"},{"key":"10143116","name":"Graben","postalCode":"3179","locality":"Kriechenwil","commune":{"key":"666","name":"Kriechenwil","shortName":"Kriechenwil"},"district":{"key":"246","name":"Verwaltungskreis Bern-Mittelland"},"canton":{"key":"2","code":"BE","name":"Bern / Berne"},"status":"Real"},{"key":"10112439","name":"Grabenweg","postalCode":"3179","locality":"Kriechenwil","commune":{"key":"666","name":"Kriechenwil","shortName":"Kriechenwil"},"district":{"key":"246","name":"Verwaltungskreis Bern-Mittelland"},"canton":{"key":"2","code":"BE","name":"Bern / Berne"},"status":"Real"},{"key":"10221165","name":"Hafematt","postalCode":"3179","locality":"Kriechenwil","commune":{"key":"666","name":"Kriechenwil","shortName":"Kriechenwil"},"district":{"key":"246","name":"Verwaltungskreis Bern-Mittelland"},"canton":{"key":"2","code":"BE","name":"Bern / Berne"},"status":"Real"},{"key":"10212317","name":"Hagacherweg","postalCode":"3179","locality":"Kriechenwil","commune":{"key":"666","name":"Kriechenwil","shortName":"Kriechenwil"},"district":{"key":"246","name":"Verwaltungskreis Bern-Mittelland"},"canton":{"key":"2","code":"BE","name":"Bern / Berne"},"status":"Planned"},{"key":"10126266","name":"Halimatte","postalCode":"3179","locality":"Kriechenwil","commune":{"key":"666","name":"Kriechenwil","shortName":"Kriechenwil"},"district":{"key":"246","name":"Verwaltungskreis Bern-Mittelland"},"canton":{"key":"2","code":"BE","name":"Bern / Berne"},"status":"Real"},{"key":"10104717","name":"Käsereistrasse","postalCode":"3179","locality":"Kriechenwil","commune":{"key":"666","name":"Kriechenwil","shortName":"Kriechenwil"},"district":{"key":"246","name":"Verwaltungskreis Bern-Mittelland"},"canton":{"key":"2","code":"BE","name":"Bern / Berne"},"status":"Real"},{"key":"10126267","name":"Laupenwald","postalCode":"3179","locality":"Kriechenwil","commune":{"key":"666","name":"Kriechenwil","shortName":"Kriechenwil"},"district":{"key":"246","name":"Verwaltungskreis Bern-Mittelland"},"canton":{"key":"2","code":"BE","name":"Bern / Berne"},"status":"Real"},{"key":"10126268","name":"Mühleweg","postalCode":"3179","locality":"Kriechenwil","commune":{"key":"666","name":"Kriechenwil","shortName":"Kriechenwil"},"district":{"key":"246","name":"Verwaltungskreis Bern-Mittelland"},"canton":{"key":"2","code":"BE","name":"Bern / Berne"},"status":"Real"},{"key":"10080671","name":"Murtenstrasse","postalCode":"3179","locality":"Kriechenwil","commune":{"key":"666","name":"Kriechenwil","shortName":"Kriechenwil"},"district":{"key":"246","name":"Verwaltungskreis Bern-Mittelland"},"canton":{"key":"2","code":"BE","name":"Bern / Berne"},"status":"Real"},{"key":"10126269","name":"Neumattweg","postalCode":"3179","locality":"Kriechenwil","commune":{"key":"666","name":"Kriechenwil","shortName":"Kriechenwil"},"district":{"key":"246","name":"Verwaltungskreis Bern-Mittelland"},"canton":{"key":"2","code":"BE","name":"Bern / Berne"},"status":"Real"},{"key":"10126270","name":"Ofenhausweg","postalCode":"3179","locality":"Kriechenwil","commune":{"key":"666","name":"Kriechenwil","shortName":"Kriechenwil"},"district":{"key":"246","name":"Verwaltungskreis Bern-Mittelland"},"canton":{"key":"2","code":"BE","name":"Bern / Berne"},"status":"Real"},{"key":"10143117","name":"Riesenauweg","postalCode":"3179","locality":"Kriechenwil","commune":{"key":"666","name":"Kriechenwil","shortName":"Kriechenwil"},"district":{"key":"246","name":"Verwaltungskreis Bern-Mittelland"},"canton":{"key":"2","code":"BE","name":"Bern / Berne"},"status":"Real"},{"key":"10143118","name":"Röseliweg","postalCode":"3179","locality":"Kriechenwil","commune":{"key":"666","name":"Kriechenwil","shortName":"Kriechenwil"},"district":{"key":"246","name":"Verwaltungskreis Bern-Mittelland"},"canton":{"key":"2","code":"BE","name":"Bern / Berne"},"status":"Real"},{"key":"10126271","name":"Scheuermattweg","postalCode":"3179","locality":"Kriechenwil","commune":{"key":"666","name":"Kriechenwil","shortName":"Kriechenwil"},"district":{"key":"246","name":"Verwaltungskreis Bern-Mittelland"},"canton":{"key":"2","code":"BE","name":"Bern / Berne"},"status":"Real"},{"key":"10143120","name":"Schönenbühlstrasse","postalCode":"3179","locality":"Kriechenwil","commune":{"key":"666","name":"Kriechenwil","shortName":"Kriechenwil"},"district":{"key":"246","name":"Verwaltungskreis Bern-Mittelland"},"canton":{"key":"2","code":"BE","name":"Bern / Berne"},"status":"Real"},{"key":"10143121","name":"Schützenhausweg","postalCode":"3179","locality":"Kriechenwil","commune":{"key":"666","name":"Kriechenwil","shortName":"Kriechenwil"},"district":{"key":"246","name":"Verwaltungskreis Bern-Mittelland"},"canton":{"key":"2","code":"BE","name":"Bern / Berne"},"status":"Real"},{"key":"10131149","name":"Süderenweg","postalCode":"3179","locality":"Kriechenwil","commune":{"key":"666","name":"Kriechenwil","shortName":"Kriechenwil"},"district":{"key":"246","name":"Verwaltungskreis Bern-Mittelland"},"canton":{"key":"2","code":"BE","name":"Bern / Berne"},"status":"Real"},{"key":"10143122","name":"Ulmizstrasse","postalCode":"3179","locality":"Kriechenwil","commune":{"key":"666","name":"Kriechenwil","shortName":"Kriechenwil"},"district":{"key":"246","name":"Verwaltungskreis Bern-Mittelland"},"canton":{"key":"2","code":"BE","name":"Bern / Berne"},"status":"Real"},{"key":"10005417","name":"Waldeggstrasse","postalCode":"3179","locality":"Kriechenwil","commune":{"key":"666","name":"Kriechenwil","shortName":"Kriechenwil"},"district":{"key":"246","name":"Verwaltungskreis Bern-Mittelland"},"canton":{"key":"2","code":"BE","name":"Bern / Berne"},"status":"Real"},{"key":"10143123","name":"Zelgliweg","postalCode":"3179","locality":"Kriechenwil","commune":{"key":"666","name":"Kriechenwil","shortName":"Kriechenwil"},"district":{"key":"246","name":"Verwaltungskreis Bern-Mittelland"},"canton":{"key":"2","code":"BE","name":"Bern / Berne"},"status":"Real"},{"key":"10112440","name":"Ziegelhüttenweg","postalCode":"3179","locality":"Kriechenwil","commune":{"key":"666","name":"Kriechenwil","shortName":"Kriechenwil"},"district":{"key":"246","name":"Verwaltungskreis Bern-Mittelland"},"canton":{"key":"2","code":"BE","name":"Bern / Berne"},"status":"Real"},]