[{"key":"10046958","name":"Abacus-Platz","postalCode":"9300","locality":"Wittenbach","commune":{"key":"3204","name":"Wittenbach","shortName":"Wittenbach"},"district":{"key":"1721","name":"Wahlkreis St. Gallen"},"canton":{"key":"17","code":"SG","name":"St. Gallen"},"status":"Real"},{"key":"10158714","name":"Adlerstrasse","postalCode":"9300","locality":"Wittenbach","commune":{"key":"3204","name":"Wittenbach","shortName":"Wittenbach"},"district":{"key":"1721","name":"Wahlkreis St. Gallen"},"canton":{"key":"17","code":"SG","name":"St. Gallen"},"status":"Real"},{"key":"10231799","name":"Adlerweg","postalCode":"9300","locality":"Wittenbach","commune":{"key":"3204","name":"Wittenbach","shortName":"Wittenbach"},"district":{"key":"1721","name":"Wahlkreis St. Gallen"},"canton":{"key":"17","code":"SG","name":"St. Gallen"},"status":"Real"},{"key":"10231803","name":"Alte Konstanzerstrasse","postalCode":"9300","locality":"Wittenbach","commune":{"key":"3204","name":"Wittenbach","shortName":"Wittenbach"},"district":{"key":"1721","name":"Wahlkreis St. Gallen"},"canton":{"key":"17","code":"SG","name":"St. Gallen"},"status":"Real"},{"key":"10231807","name":"Alte Leestrasse","postalCode":"9300","locality":"Wittenbach","commune":{"key":"3204","name":"Wittenbach","shortName":"Wittenbach"},"district":{"key":"1721","name":"Wahlkreis St. Gallen"},"canton":{"key":"17","code":"SG","name":"St. Gallen"},"status":"Real"},{"key":"10231813","name":"Alter Bischofszellerweg","postalCode":"9300","locality":"Wittenbach","commune":{"key":"3204","name":"Wittenbach","shortName":"Wittenbach"},"district":{"key":"1721","name":"Wahlkreis St. Gallen"},"canton":{"key":"17","code":"SG","name":"St. Gallen"},"status":"Real"},{"key":"10033320","name":"Altmüli","postalCode":"9300","locality":"Wittenbach","commune":{"key":"3204","name":"Wittenbach","shortName":"Wittenbach"},"district":{"key":"1721","name":"Wahlkreis St. Gallen"},"canton":{"key":"17","code":"SG","name":"St. Gallen"},"status":"Real"},{"key":"10231816","name":"Altmülistrasse","postalCode":"9300","locality":"Wittenbach","commune":{"key":"3204","name":"Wittenbach","shortName":"Wittenbach"},"district":{"key":"1721","name":"Wahlkreis St. Gallen"},"canton":{"key":"17","code":"SG","name":"St. Gallen"},"status":"Real"},{"key":"10231820","name":"ARA-Weg","postalCode":"9300","locality":"Wittenbach","commune":{"key":"3204","name":"Wittenbach","shortName":"Wittenbach"},"district":{"key":"1721","name":"Wahlkreis St. Gallen"},"canton":{"key":"17","code":"SG","name":"St. Gallen"},"status":"Real"},{"key":"10108104","name":"Arbonerstrasse","postalCode":"9300","locality":"Wittenbach","commune":{"key":"3204","name":"Wittenbach","shortName":"Wittenbach"},"district":{"key":"1721","name":"Wahlkreis St. Gallen"},"canton":{"key":"17","code":"SG","name":"St. Gallen"},"status":"Real"},{"key":"10089140","name":"Bahnhofstrasse","postalCode":"9300","locality":"Wittenbach","commune":{"key":"3204","name":"Wittenbach","shortName":"Wittenbach"},"district":{"key":"1721","name":"Wahlkreis St. Gallen"},"canton":{"key":"17","code":"SG","name":"St. Gallen"},"status":"Real"},{"key":"10231828","name":"Bauelweg","postalCode":"9300","locality":"Wittenbach","commune":{"key":"3204","name":"Wittenbach","shortName":"Wittenbach"},"district":{"key":"1721","name":"Wahlkreis St. Gallen"},"canton":{"key":"17","code":"SG","name":"St. Gallen"},"status":"Real"},{"key":"10033306","name":"Bauholzstrasse","postalCode":"9300","locality":"Wittenbach","commune":{"key":"3204","name":"Wittenbach","shortName":"Wittenbach"},"district":{"key":"1721","name":"Wahlkreis St. Gallen"},"canton":{"key":"17","code":"SG","name":"St. Gallen"},"status":"Real"},{"key":"10088868","name":"Bauholzweg","postalCode":"9300","locality":"Wittenbach","commune":{"key":"3204","name":"Wittenbach","shortName":"Wittenbach"},"district":{"key":"1721","name":"Wahlkreis St. Gallen"},"canton":{"key":"17","code":"SG","name":"St. Gallen"},"status":"Real"},{"key":"10103349","name":"Bergholz","postalCode":"9300","locality":"Wittenbach","commune":{"key":"3204","name":"Wittenbach","shortName":"Wittenbach"},"district":{"key":"1721","name":"Wahlkreis St. Gallen"},"canton":{"key":"17","code":"SG","name":"St. Gallen"},"status":"Real"},{"key":"10231832","name":"Bergholzstrasse","postalCode":"9300","locality":"Wittenbach","commune":{"key":"3204","name":"Wittenbach","shortName":"Wittenbach"},"district":{"key":"1721","name":"Wahlkreis St. Gallen"},"canton":{"key":"17","code":"SG","name":"St. Gallen"},"status":"Real"},{"key":"10033307","name":"Berglistrasse","postalCode":"9300","locality":"Wittenbach","commune":{"key":"3204","name":"Wittenbach","shortName":"Wittenbach"},"district":{"key":"1721","name":"Wahlkreis St. Gallen"},"canton":{"key":"17","code":"SG","name":"St. Gallen"},"status":"Real"},{"key":"10186413","name":"Betten","postalCode":"9300","locality":"Wittenbach","commune":{"key":"3204","name":"Wittenbach","shortName":"Wittenbach"},"district":{"key":"1721","name":"Wahlkreis St. Gallen"},"canton":{"key":"17","code":"SG","name":"St. Gallen"},"status":"Real"},{"key":"10160725","name":"Bettenwiesenstrasse","postalCode":"9300","locality":"Wittenbach","commune":{"key":"3204","name":"Wittenbach","shortName":"Wittenbach"},"district":{"key":"1721","name":"Wahlkreis St. Gallen"},"canton":{"key":"17","code":"SG","name":"St. Gallen"},"status":"Real"},{"key":"10033321","name":"Blumenstrasse","postalCode":"9300","locality":"Wittenbach","commune":{"key":"3204","name":"Wittenbach","shortName":"Wittenbach"},"district":{"key":"1721","name":"Wahlkreis St. Gallen"},"canton":{"key":"17","code":"SG","name":"St. Gallen"},"status":"Real"},{"key":"10033308","name":"Böhlstrasse","postalCode":"9300","locality":"Wittenbach","commune":{"key":"3204","name":"Wittenbach","shortName":"Wittenbach"},"district":{"key":"1721","name":"Wahlkreis St. Gallen"},"canton":{"key":"17","code":"SG","name":"St. Gallen"},"status":"Real"},{"key":"10231834","name":"Böhlweg","postalCode":"9300","locality":"Wittenbach","commune":{"key":"3204","name":"Wittenbach","shortName":"Wittenbach"},"district":{"key":"1721","name":"Wahlkreis St. Gallen"},"canton":{"key":"17","code":"SG","name":"St. Gallen"},"status":"Real"},{"key":"10231838","name":"Bruderbrunnenweg","postalCode":"9300","locality":"Wittenbach","commune":{"key":"3204","name":"Wittenbach","shortName":"Wittenbach"},"district":{"key":"1721","name":"Wahlkreis St. Gallen"},"canton":{"key":"17","code":"SG","name":"St. Gallen"},"status":"Real"},{"key":"10072573","name":"Brugghalden","postalCode":"9300","locality":"Wittenbach","commune":{"key":"3204","name":"Wittenbach","shortName":"Wittenbach"},"district":{"key":"1721","name":"Wahlkreis St. Gallen"},"canton":{"key":"17","code":"SG","name":"St. Gallen"},"status":"Real"},{"key":"10122104","name":"Brugghalden","postalCode":"9300","locality":"Wittenbach","commune":{"key":"3204","name":"Wittenbach","shortName":"Wittenbach"},"district":{"key":"1721","name":"Wahlkreis St. Gallen"},"canton":{"key":"17","code":"SG","name":"St. Gallen"},"status":"Real"},{"key":"10045605","name":"Bruggwaldstrasse","postalCode":"9300","locality":"Wittenbach","commune":{"key":"3204","name":"Wittenbach","shortName":"Wittenbach"},"district":{"key":"1721","name":"Wahlkreis St. Gallen"},"canton":{"key":"17","code":"SG","name":"St. Gallen"},"status":"Real"},{"key":"10087767","name":"Bruggwaldstrasse","postalCode":"9300","locality":"Wittenbach","commune":{"key":"3204","name":"Wittenbach","shortName":"Wittenbach"},"district":{"key":"1721","name":"Wahlkreis St. Gallen"},"canton":{"key":"17","code":"SG","name":"St. Gallen"},"status":"Real"},{"key":"10231846","name":"Bruggwaldweg","postalCode":"9300","locality":"Wittenbach","commune":{"key":"3204","name":"Wittenbach","shortName":"Wittenbach"},"district":{"key":"1721","name":"Wahlkreis St. Gallen"},"canton":{"key":"17","code":"SG","name":"St. Gallen"},"status":"Real"},{"key":"10088869","name":"Bruggwiesen","postalCode":"9300","locality":"Wittenbach","commune":{"key":"3204","name":"Wittenbach","shortName":"Wittenbach"},"district":{"key":"1721","name":"Wahlkreis St. Gallen"},"canton":{"key":"17","code":"SG","name":"St. Gallen"},"status":"Real"},{"key":"10073253","name":"Brumenau","postalCode":"9300","locality":"Wittenbach","commune":{"key":"3204","name":"Wittenbach","shortName":"Wittenbach"},"district":{"key":"1721","name":"Wahlkreis St. Gallen"},"canton":{"key":"17","code":"SG","name":"St. Gallen"},"status":"Real"},{"key":"10231850","name":"Brumenaustrasse","postalCode":"9300","locality":"Wittenbach","commune":{"key":"3204","name":"Wittenbach","shortName":"Wittenbach"},"district":{"key":"1721","name":"Wahlkreis St. Gallen"},"canton":{"key":"17","code":"SG","name":"St. Gallen"},"status":"Real"},{"key":"10231854","name":"Buechholzweg","postalCode":"9300","locality":"Wittenbach","commune":{"key":"3204","name":"Wittenbach","shortName":"Wittenbach"},"district":{"key":"1721","name":"Wahlkreis St. Gallen"},"canton":{"key":"17","code":"SG","name":"St. Gallen"},"status":"Real"},{"key":"10033322","name":"Büttigen","postalCode":"9300","locality":"Wittenbach","commune":{"key":"3204","name":"Wittenbach","shortName":"Wittenbach"},"district":{"key":"1721","name":"Wahlkreis St. Gallen"},"canton":{"key":"17","code":"SG","name":"St. Gallen"},"status":"Real"},{"key":"10059727","name":"Büttigenhöhe","postalCode":"9300","locality":"Wittenbach","commune":{"key":"3204","name":"Wittenbach","shortName":"Wittenbach"},"district":{"key":"1721","name":"Wahlkreis St. Gallen"},"canton":{"key":"17","code":"SG","name":"St. Gallen"},"status":"Real"},{"key":"10231858","name":"Büttigenhöhestrasse","postalCode":"9300","locality":"Wittenbach","commune":{"key":"3204","name":"Wittenbach","shortName":"Wittenbach"},"district":{"key":"1721","name":"Wahlkreis St. Gallen"},"canton":{"key":"17","code":"SG","name":"St. Gallen"},"status":"Real"},{"key":"10231862","name":"Büttigenstrasse","postalCode":"9300","locality":"Wittenbach","commune":{"key":"3204","name":"Wittenbach","shortName":"Wittenbach"},"district":{"key":"1721","name":"Wahlkreis St. Gallen"},"canton":{"key":"17","code":"SG","name":"St. Gallen"},"status":"Real"},{"key":"10029954","name":"Chapf","postalCode":"9300","locality":"Wittenbach","commune":{"key":"3204","name":"Wittenbach","shortName":"Wittenbach"},"district":{"key":"1721","name":"Wahlkreis St. Gallen"},"canton":{"key":"17","code":"SG","name":"St. Gallen"},"status":"Real"},{"key":"10029955","name":"Chapfmüli","postalCode":"9300","locality":"Wittenbach","commune":{"key":"3204","name":"Wittenbach","shortName":"Wittenbach"},"district":{"key":"1721","name":"Wahlkreis St. Gallen"},"canton":{"key":"17","code":"SG","name":"St. Gallen"},"status":"Real"},{"key":"10231866","name":"Chapfmüliweg","postalCode":"9300","locality":"Wittenbach","commune":{"key":"3204","name":"Wittenbach","shortName":"Wittenbach"},"district":{"key":"1721","name":"Wahlkreis St. Gallen"},"canton":{"key":"17","code":"SG","name":"St. Gallen"},"status":"Real"},{"key":"10249850","name":"Chapfstrasse","postalCode":"9300","locality":"Wittenbach","commune":{"key":"3204","name":"Wittenbach","shortName":"Wittenbach"},"district":{"key":"1721","name":"Wahlkreis St. Gallen"},"canton":{"key":"17","code":"SG","name":"St. Gallen"},"status":"Real"},{"key":"10231870","name":"Chapfstrasse","postalCode":"9300","locality":"Wittenbach","commune":{"key":"3204","name":"Wittenbach","shortName":"Wittenbach"},"district":{"key":"1721","name":"Wahlkreis St. Gallen"},"canton":{"key":"17","code":"SG","name":"St. Gallen"},"status":"Real"},{"key":"10231874","name":"Chapfweg","postalCode":"9300","locality":"Wittenbach","commune":{"key":"3204","name":"Wittenbach","shortName":"Wittenbach"},"district":{"key":"1721","name":"Wahlkreis St. Gallen"},"canton":{"key":"17","code":"SG","name":"St. Gallen"},"status":"Real"},{"key":"10231878","name":"Cholgruebweg","postalCode":"9300","locality":"Wittenbach","commune":{"key":"3204","name":"Wittenbach","shortName":"Wittenbach"},"district":{"key":"1721","name":"Wahlkreis St. Gallen"},"canton":{"key":"17","code":"SG","name":"St. Gallen"},"status":"Real"},{"key":"10089141","name":"Dorfstrasse","postalCode":"9300","locality":"Wittenbach","commune":{"key":"3204","name":"Wittenbach","shortName":"Wittenbach"},"district":{"key":"1721","name":"Wahlkreis St. Gallen"},"canton":{"key":"17","code":"SG","name":"St. Gallen"},"status":"Real"},{"key":"10029956","name":"Dottenwil","postalCode":"9300","locality":"Wittenbach","commune":{"key":"3204","name":"Wittenbach","shortName":"Wittenbach"},"district":{"key":"1721","name":"Wahlkreis St. Gallen"},"canton":{"key":"17","code":"SG","name":"St. Gallen"},"status":"Real"},{"key":"10188089","name":"Dottenwilerstrasse","postalCode":"9300","locality":"Wittenbach","commune":{"key":"3204","name":"Wittenbach","shortName":"Wittenbach"},"district":{"key":"1721","name":"Wahlkreis St. Gallen"},"canton":{"key":"17","code":"SG","name":"St. Gallen"},"status":"Real"},{"key":"10033309","name":"Dürrenmüli","postalCode":"9300","locality":"Wittenbach","commune":{"key":"3204","name":"Wittenbach","shortName":"Wittenbach"},"district":{"key":"1721","name":"Wahlkreis St. Gallen"},"canton":{"key":"17","code":"SG","name":"St. Gallen"},"status":"Real"},{"key":"10231882","name":"Dürrenmülistrasse","postalCode":"9300","locality":"Wittenbach","commune":{"key":"3204","name":"Wittenbach","shortName":"Wittenbach"},"district":{"key":"1721","name":"Wahlkreis St. Gallen"},"canton":{"key":"17","code":"SG","name":"St. Gallen"},"status":"Real"},{"key":"10073255","name":"Ebnet","postalCode":"9300","locality":"Wittenbach","commune":{"key":"3204","name":"Wittenbach","shortName":"Wittenbach"},"district":{"key":"1721","name":"Wahlkreis St. Gallen"},"canton":{"key":"17","code":"SG","name":"St. Gallen"},"status":"Real"},{"key":"10224859","name":"Ebnetstrasse","postalCode":"9300","locality":"Wittenbach","commune":{"key":"3204","name":"Wittenbach","shortName":"Wittenbach"},"district":{"key":"1721","name":"Wahlkreis St. Gallen"},"canton":{"key":"17","code":"SG","name":"St. Gallen"},"status":"Real"},{"key":"10224865","name":"Egghaldenweg","postalCode":"9300","locality":"Wittenbach","commune":{"key":"3204","name":"Wittenbach","shortName":"Wittenbach"},"district":{"key":"1721","name":"Wahlkreis St. Gallen"},"canton":{"key":"17","code":"SG","name":"St. Gallen"},"status":"Real"},{"key":"10089142","name":"Eggstrasse","postalCode":"9300","locality":"Wittenbach","commune":{"key":"3204","name":"Wittenbach","shortName":"Wittenbach"},"district":{"key":"1721","name":"Wahlkreis St. Gallen"},"canton":{"key":"17","code":"SG","name":"St. Gallen"},"status":"Real"},{"key":"10224869","name":"Eggweg","postalCode":"9300","locality":"Wittenbach","commune":{"key":"3204","name":"Wittenbach","shortName":"Wittenbach"},"district":{"key":"1721","name":"Wahlkreis St. Gallen"},"canton":{"key":"17","code":"SG","name":"St. Gallen"},"status":"Real"},{"key":"10029957","name":"Eichenstrasse","postalCode":"9300","locality":"Wittenbach","commune":{"key":"3204","name":"Wittenbach","shortName":"Wittenbach"},"district":{"key":"1721","name":"Wahlkreis St. Gallen"},"canton":{"key":"17","code":"SG","name":"St. Gallen"},"status":"Real"},{"key":"10073256","name":"Eigen","postalCode":"9300","locality":"Wittenbach","commune":{"key":"3204","name":"Wittenbach","shortName":"Wittenbach"},"district":{"key":"1721","name":"Wahlkreis St. Gallen"},"canton":{"key":"17","code":"SG","name":"St. Gallen"},"status":"Real"},{"key":"10224874","name":"Eigenstrasse","postalCode":"9300","locality":"Wittenbach","commune":{"key":"3204","name":"Wittenbach","shortName":"Wittenbach"},"district":{"key":"1721","name":"Wahlkreis St. Gallen"},"canton":{"key":"17","code":"SG","name":"St. Gallen"},"status":"Real"},{"key":"10103351","name":"Eigenweg","postalCode":"9300","locality":"Wittenbach","commune":{"key":"3204","name":"Wittenbach","shortName":"Wittenbach"},"district":{"key":"1721","name":"Wahlkreis St. Gallen"},"canton":{"key":"17","code":"SG","name":"St. Gallen"},"status":"Real"},{"key":"10101155","name":"Erlackerstrasse","postalCode":"9300","locality":"Wittenbach","commune":{"key":"3204","name":"Wittenbach","shortName":"Wittenbach"},"district":{"key":"1721","name":"Wahlkreis St. Gallen"},"canton":{"key":"17","code":"SG","name":"St. Gallen"},"status":"Real"},{"key":"10125607","name":"Erlenholz","postalCode":"9300","locality":"Wittenbach","commune":{"key":"3204","name":"Wittenbach","shortName":"Wittenbach"},"district":{"key":"1721","name":"Wahlkreis St. Gallen"},"canton":{"key":"17","code":"SG","name":"St. Gallen"},"status":"Real"},{"key":"10165950","name":"Erlenholz","postalCode":"9300","locality":"Wittenbach","commune":{"key":"3204","name":"Wittenbach","shortName":"Wittenbach"},"district":{"key":"1721","name":"Wahlkreis St. Gallen"},"canton":{"key":"17","code":"SG","name":"St. Gallen"},"status":"Real"},{"key":"10029958","name":"Erlenholz","postalCode":"9300","locality":"Wittenbach","commune":{"key":"3204","name":"Wittenbach","shortName":"Wittenbach"},"district":{"key":"1721","name":"Wahlkreis St. Gallen"},"canton":{"key":"17","code":"SG","name":"St. Gallen"},"status":"Real"},{"key":"10191780","name":"Erlenholzstrasse","postalCode":"9300","locality":"Wittenbach","commune":{"key":"3204","name":"Wittenbach","shortName":"Wittenbach"},"district":{"key":"1721","name":"Wahlkreis St. Gallen"},"canton":{"key":"17","code":"SG","name":"St. Gallen"},"status":"Real"},{"key":"10224878","name":"Erlenholzweg","postalCode":"9300","locality":"Wittenbach","commune":{"key":"3204","name":"Wittenbach","shortName":"Wittenbach"},"district":{"key":"1721","name":"Wahlkreis St. Gallen"},"canton":{"key":"17","code":"SG","name":"St. Gallen"},"status":"Real"},{"key":"10224882","name":"Espenweg","postalCode":"9300","locality":"Wittenbach","commune":{"key":"3204","name":"Wittenbach","shortName":"Wittenbach"},"district":{"key":"1721","name":"Wahlkreis St. Gallen"},"canton":{"key":"17","code":"SG","name":"St. Gallen"},"status":"Real"},{"key":"10156985","name":"Falkenweg","postalCode":"9300","locality":"Wittenbach","commune":{"key":"3204","name":"Wittenbach","shortName":"Wittenbach"},"district":{"key":"1721","name":"Wahlkreis St. Gallen"},"canton":{"key":"17","code":"SG","name":"St. Gallen"},"status":"Real"},{"key":"10033310","name":"Fichtenstrasse","postalCode":"9300","locality":"Wittenbach","commune":{"key":"3204","name":"Wittenbach","shortName":"Wittenbach"},"district":{"key":"1721","name":"Wahlkreis St. Gallen"},"canton":{"key":"17","code":"SG","name":"St. Gallen"},"status":"Real"},{"key":"10224886","name":"Fichtenweg","postalCode":"9300","locality":"Wittenbach","commune":{"key":"3204","name":"Wittenbach","shortName":"Wittenbach"},"district":{"key":"1721","name":"Wahlkreis St. Gallen"},"canton":{"key":"17","code":"SG","name":"St. Gallen"},"status":"Real"},{"key":"10029959","name":"Flora","postalCode":"9300","locality":"Wittenbach","commune":{"key":"3204","name":"Wittenbach","shortName":"Wittenbach"},"district":{"key":"1721","name":"Wahlkreis St. Gallen"},"canton":{"key":"17","code":"SG","name":"St. Gallen"},"status":"Real"},{"key":"10187593","name":"Florastrasse","postalCode":"9300","locality":"Wittenbach","commune":{"key":"3204","name":"Wittenbach","shortName":"Wittenbach"},"district":{"key":"1721","name":"Wahlkreis St. Gallen"},"canton":{"key":"17","code":"SG","name":"St. Gallen"},"status":"Real"},{"key":"10224890","name":"Florawaldweg","postalCode":"9300","locality":"Wittenbach","commune":{"key":"3204","name":"Wittenbach","shortName":"Wittenbach"},"district":{"key":"1721","name":"Wahlkreis St. Gallen"},"canton":{"key":"17","code":"SG","name":"St. Gallen"},"status":"Real"},{"key":"10107240","name":"Föhrenstrasse","postalCode":"9300","locality":"Wittenbach","commune":{"key":"3204","name":"Wittenbach","shortName":"Wittenbach"},"district":{"key":"1721","name":"Wahlkreis St. Gallen"},"canton":{"key":"17","code":"SG","name":"St. Gallen"},"status":"Real"},{"key":"10224894","name":"Föhrenweg","postalCode":"9300","locality":"Wittenbach","commune":{"key":"3204","name":"Wittenbach","shortName":"Wittenbach"},"district":{"key":"1721","name":"Wahlkreis St. Gallen"},"canton":{"key":"17","code":"SG","name":"St. Gallen"},"status":"Real"},{"key":"10186414","name":"Freiwilen","postalCode":"9300","locality":"Wittenbach","commune":{"key":"3204","name":"Wittenbach","shortName":"Wittenbach"},"district":{"key":"1721","name":"Wahlkreis St. Gallen"},"canton":{"key":"17","code":"SG","name":"St. Gallen"},"status":"Real"},{"key":"10224897","name":"Freiwilenstrasse","postalCode":"9300","locality":"Wittenbach","commune":{"key":"3204","name":"Wittenbach","shortName":"Wittenbach"},"district":{"key":"1721","name":"Wahlkreis St. Gallen"},"canton":{"key":"17","code":"SG","name":"St. Gallen"},"status":"Real"},{"key":"10224901","name":"Freiwilenweg","postalCode":"9300","locality":"Wittenbach","commune":{"key":"3204","name":"Wittenbach","shortName":"Wittenbach"},"district":{"key":"1721","name":"Wahlkreis St. Gallen"},"canton":{"key":"17","code":"SG","name":"St. Gallen"},"status":"Real"},{"key":"10029960","name":"Gatterrain","postalCode":"9300","locality":"Wittenbach","commune":{"key":"3204","name":"Wittenbach","shortName":"Wittenbach"},"district":{"key":"1721","name":"Wahlkreis St. Gallen"},"canton":{"key":"17","code":"SG","name":"St. Gallen"},"status":"Real"},{"key":"10029961","name":"Gatterstrasse","postalCode":"9300","locality":"Wittenbach","commune":{"key":"3204","name":"Wittenbach","shortName":"Wittenbach"},"district":{"key":"1721","name":"Wahlkreis St. Gallen"},"canton":{"key":"17","code":"SG","name":"St. Gallen"},"status":"Real"},{"key":"10073257","name":"Gatterwies","postalCode":"9300","locality":"Wittenbach","commune":{"key":"3204","name":"Wittenbach","shortName":"Wittenbach"},"district":{"key":"1721","name":"Wahlkreis St. Gallen"},"canton":{"key":"17","code":"SG","name":"St. Gallen"},"status":"Real"},{"key":"10224905","name":"Gersterweg","postalCode":"9300","locality":"Wittenbach","commune":{"key":"3204","name":"Wittenbach","shortName":"Wittenbach"},"district":{"key":"1721","name":"Wahlkreis St. Gallen"},"canton":{"key":"17","code":"SG","name":"St. Gallen"},"status":"Real"},{"key":"10110853","name":"Gommenschwil","postalCode":"9300","locality":"Wittenbach","commune":{"key":"3204","name":"Wittenbach","shortName":"Wittenbach"},"district":{"key":"1721","name":"Wahlkreis St. Gallen"},"canton":{"key":"17","code":"SG","name":"St. Gallen"},"status":"Real"},{"key":"10224909","name":"Gommenschwiler-Bahnstrasse","postalCode":"9300","locality":"Wittenbach","commune":{"key":"3204","name":"Wittenbach","shortName":"Wittenbach"},"district":{"key":"1721","name":"Wahlkreis St. Gallen"},"canton":{"key":"17","code":"SG","name":"St. Gallen"},"status":"Real"},{"key":"10224913","name":"Gommenschwilerstrasse","postalCode":"9300","locality":"Wittenbach","commune":{"key":"3204","name":"Wittenbach","shortName":"Wittenbach"},"district":{"key":"1721","name":"Wahlkreis St. Gallen"},"canton":{"key":"17","code":"SG","name":"St. Gallen"},"status":"Real"},{"key":"10089143","name":"Grimm","postalCode":"9300","locality":"Wittenbach","commune":{"key":"3204","name":"Wittenbach","shortName":"Wittenbach"},"district":{"key":"1721","name":"Wahlkreis St. Gallen"},"canton":{"key":"17","code":"SG","name":"St. Gallen"},"status":"Real"},{"key":"10187918","name":"Grueb","postalCode":"9300","locality":"Wittenbach","commune":{"key":"3204","name":"Wittenbach","shortName":"Wittenbach"},"district":{"key":"1721","name":"Wahlkreis St. Gallen"},"canton":{"key":"17","code":"SG","name":"St. Gallen"},"status":"Real"},{"key":"10029962","name":"Grünaustrasse","postalCode":"9300","locality":"Wittenbach","commune":{"key":"3204","name":"Wittenbach","shortName":"Wittenbach"},"district":{"key":"1721","name":"Wahlkreis St. Gallen"},"canton":{"key":"17","code":"SG","name":"St. Gallen"},"status":"Real"},{"key":"10224917","name":"Grünauweg","postalCode":"9300","locality":"Wittenbach","commune":{"key":"3204","name":"Wittenbach","shortName":"Wittenbach"},"district":{"key":"1721","name":"Wahlkreis St. Gallen"},"canton":{"key":"17","code":"SG","name":"St. Gallen"},"status":"Real"},{"key":"10125533","name":"Grüntalstrasse","postalCode":"9300","locality":"Wittenbach","commune":{"key":"3204","name":"Wittenbach","shortName":"Wittenbach"},"district":{"key":"1721","name":"Wahlkreis St. Gallen"},"canton":{"key":"17","code":"SG","name":"St. Gallen"},"status":"Real"},{"key":"10227899","name":"Habichtweg","postalCode":"9300","locality":"Wittenbach","commune":{"key":"3204","name":"Wittenbach","shortName":"Wittenbach"},"district":{"key":"1721","name":"Wahlkreis St. Gallen"},"canton":{"key":"17","code":"SG","name":"St. Gallen"},"status":"Real"},{"key":"10088870","name":"Haldenstrasse","postalCode":"9300","locality":"Wittenbach","commune":{"key":"3204","name":"Wittenbach","shortName":"Wittenbach"},"district":{"key":"1721","name":"Wahlkreis St. Gallen"},"canton":{"key":"17","code":"SG","name":"St. Gallen"},"status":"Real"},{"key":"10073258","name":"Halten","postalCode":"9300","locality":"Wittenbach","commune":{"key":"3204","name":"Wittenbach","shortName":"Wittenbach"},"district":{"key":"1721","name":"Wahlkreis St. Gallen"},"canton":{"key":"17","code":"SG","name":"St. Gallen"},"status":"Real"},{"key":"10227911","name":"Hegiweg","postalCode":"9300","locality":"Wittenbach","commune":{"key":"3204","name":"Wittenbach","shortName":"Wittenbach"},"district":{"key":"1721","name":"Wahlkreis St. Gallen"},"canton":{"key":"17","code":"SG","name":"St. Gallen"},"status":"Real"},{"key":"10227915","name":"Heiligkreuzweg","postalCode":"9300","locality":"Wittenbach","commune":{"key":"3204","name":"Wittenbach","shortName":"Wittenbach"},"district":{"key":"1721","name":"Wahlkreis St. Gallen"},"canton":{"key":"17","code":"SG","name":"St. Gallen"},"status":"Real"},{"key":"10227919","name":"Heilramweg","postalCode":"9300","locality":"Wittenbach","commune":{"key":"3204","name":"Wittenbach","shortName":"Wittenbach"},"district":{"key":"1721","name":"Wahlkreis St. Gallen"},"canton":{"key":"17","code":"SG","name":"St. Gallen"},"status":"Real"},{"key":"10227927","name":"Hintere Grünaustrasse","postalCode":"9300","locality":"Wittenbach","commune":{"key":"3204","name":"Wittenbach","shortName":"Wittenbach"},"district":{"key":"1721","name":"Wahlkreis St. Gallen"},"canton":{"key":"17","code":"SG","name":"St. Gallen"},"status":"Real"},{"key":"10229421","name":"Hinterer Zilweg","postalCode":"9300","locality":"Wittenbach","commune":{"key":"3204","name":"Wittenbach","shortName":"Wittenbach"},"district":{"key":"1721","name":"Wahlkreis St. Gallen"},"canton":{"key":"17","code":"SG","name":"St. Gallen"},"status":"Real"},{"key":"10234906","name":"Hinterespenweg","postalCode":"9300","locality":"Wittenbach","commune":{"key":"3204","name":"Wittenbach","shortName":"Wittenbach"},"district":{"key":"1721","name":"Wahlkreis St. Gallen"},"canton":{"key":"17","code":"SG","name":"St. Gallen"},"status":"Real"},{"key":"10234910","name":"Hirschenweg","postalCode":"9300","locality":"Wittenbach","commune":{"key":"3204","name":"Wittenbach","shortName":"Wittenbach"},"district":{"key":"1721","name":"Wahlkreis St. Gallen"},"canton":{"key":"17","code":"SG","name":"St. Gallen"},"status":"Real"},{"key":"10188087","name":"Hofenstrasse","postalCode":"9300","locality":"Wittenbach","commune":{"key":"3204","name":"Wittenbach","shortName":"Wittenbach"},"district":{"key":"1721","name":"Wahlkreis St. Gallen"},"canton":{"key":"17","code":"SG","name":"St. Gallen"},"status":"Real"},{"key":"10176432","name":"Höflistrasse","postalCode":"9300","locality":"Wittenbach","commune":{"key":"3204","name":"Wittenbach","shortName":"Wittenbach"},"district":{"key":"1721","name":"Wahlkreis St. Gallen"},"canton":{"key":"17","code":"SG","name":"St. Gallen"},"status":"Real"},{"key":"10033311","name":"Hofstetstrasse","postalCode":"9300","locality":"Wittenbach","commune":{"key":"3204","name":"Wittenbach","shortName":"Wittenbach"},"district":{"key":"1721","name":"Wahlkreis St. Gallen"},"canton":{"key":"17","code":"SG","name":"St. Gallen"},"status":"Real"},{"key":"10234911","name":"Hofstetweg","postalCode":"9300","locality":"Wittenbach","commune":{"key":"3204","name":"Wittenbach","shortName":"Wittenbach"},"district":{"key":"1721","name":"Wahlkreis St. Gallen"},"canton":{"key":"17","code":"SG","name":"St. Gallen"},"status":"Real"},{"key":"10101156","name":"Höhenstrasse","postalCode":"9300","locality":"Wittenbach","commune":{"key":"3204","name":"Wittenbach","shortName":"Wittenbach"},"district":{"key":"1721","name":"Wahlkreis St. Gallen"},"canton":{"key":"17","code":"SG","name":"St. Gallen"},"status":"Real"},{"key":"10045606","name":"Holengartenstrasse","postalCode":"9300","locality":"Wittenbach","commune":{"key":"3204","name":"Wittenbach","shortName":"Wittenbach"},"district":{"key":"1721","name":"Wahlkreis St. Gallen"},"canton":{"key":"17","code":"SG","name":"St. Gallen"},"status":"Real"},{"key":"10234913","name":"Holengartenweg","postalCode":"9300","locality":"Wittenbach","commune":{"key":"3204","name":"Wittenbach","shortName":"Wittenbach"},"district":{"key":"1721","name":"Wahlkreis St. Gallen"},"canton":{"key":"17","code":"SG","name":"St. Gallen"},"status":"Real"},{"key":"10188090","name":"Holweg","postalCode":"9300","locality":"Wittenbach","commune":{"key":"3204","name":"Wittenbach","shortName":"Wittenbach"},"district":{"key":"1721","name":"Wahlkreis St. Gallen"},"canton":{"key":"17","code":"SG","name":"St. Gallen"},"status":"Real"},{"key":"10088871","name":"Huebstrasse","postalCode":"9300","locality":"Wittenbach","commune":{"key":"3204","name":"Wittenbach","shortName":"Wittenbach"},"district":{"key":"1721","name":"Wahlkreis St. Gallen"},"canton":{"key":"17","code":"SG","name":"St. Gallen"},"status":"Real"},{"key":"10073259","name":"Hurliberg","postalCode":"9300","locality":"Wittenbach","commune":{"key":"3204","name":"Wittenbach","shortName":"Wittenbach"},"district":{"key":"1721","name":"Wahlkreis St. Gallen"},"canton":{"key":"17","code":"SG","name":"St. Gallen"},"status":"Real"},{"key":"10223947","name":"Hurlibergstrasse","postalCode":"9300","locality":"Wittenbach","commune":{"key":"3204","name":"Wittenbach","shortName":"Wittenbach"},"district":{"key":"1721","name":"Wahlkreis St. Gallen"},"canton":{"key":"17","code":"SG","name":"St. Gallen"},"status":"Real"},{"key":"10029963","name":"Hüsli","postalCode":"9300","locality":"Wittenbach","commune":{"key":"3204","name":"Wittenbach","shortName":"Wittenbach"},"district":{"key":"1721","name":"Wahlkreis St. Gallen"},"canton":{"key":"17","code":"SG","name":"St. Gallen"},"status":"Real"},{"key":"10223953","name":"Hüslistrasse","postalCode":"9300","locality":"Wittenbach","commune":{"key":"3204","name":"Wittenbach","shortName":"Wittenbach"},"district":{"key":"1721","name":"Wahlkreis St. Gallen"},"canton":{"key":"17","code":"SG","name":"St. Gallen"},"status":"Real"},{"key":"10223957","name":"Hüsliweg","postalCode":"9300","locality":"Wittenbach","commune":{"key":"3204","name":"Wittenbach","shortName":"Wittenbach"},"district":{"key":"1721","name":"Wahlkreis St. Gallen"},"canton":{"key":"17","code":"SG","name":"St. Gallen"},"status":"Real"},{"key":"10029964","name":"Im Grüntal","postalCode":"9300","locality":"Wittenbach","commune":{"key":"3204","name":"Wittenbach","shortName":"Wittenbach"},"district":{"key":"1721","name":"Wahlkreis St. Gallen"},"canton":{"key":"17","code":"SG","name":"St. Gallen"},"status":"Real"},{"key":"10164157","name":"Im Zentrum","postalCode":"9300","locality":"Wittenbach","commune":{"key":"3204","name":"Wittenbach","shortName":"Wittenbach"},"district":{"key":"1721","name":"Wahlkreis St. Gallen"},"canton":{"key":"17","code":"SG","name":"St. Gallen"},"status":"Real"},{"key":"10128951","name":"Industriestrasse","postalCode":"9300","locality":"Wittenbach","commune":{"key":"3204","name":"Wittenbach","shortName":"Wittenbach"},"district":{"key":"1721","name":"Wahlkreis St. Gallen"},"canton":{"key":"17","code":"SG","name":"St. Gallen"},"status":"Real"},{"key":"10223960","name":"Industrieweg","postalCode":"9300","locality":"Wittenbach","commune":{"key":"3204","name":"Wittenbach","shortName":"Wittenbach"},"district":{"key":"1721","name":"Wahlkreis St. Gallen"},"canton":{"key":"17","code":"SG","name":"St. Gallen"},"status":"Real"},{"key":"10223962","name":"Junkerholzweg","postalCode":"9300","locality":"Wittenbach","commune":{"key":"3204","name":"Wittenbach","shortName":"Wittenbach"},"district":{"key":"1721","name":"Wahlkreis St. Gallen"},"canton":{"key":"17","code":"SG","name":"St. Gallen"},"status":"Real"},{"key":"10223966","name":"Kaplaneiweg","postalCode":"9300","locality":"Wittenbach","commune":{"key":"3204","name":"Wittenbach","shortName":"Wittenbach"},"district":{"key":"1721","name":"Wahlkreis St. Gallen"},"canton":{"key":"17","code":"SG","name":"St. Gallen"},"status":"Real"},{"key":"10033312","name":"Kappelhof","postalCode":"9300","locality":"Wittenbach","commune":{"key":"3204","name":"Wittenbach","shortName":"Wittenbach"},"district":{"key":"1721","name":"Wahlkreis St. Gallen"},"canton":{"key":"17","code":"SG","name":"St. Gallen"},"status":"Real"},{"key":"10223969","name":"Kappelhofweg","postalCode":"9300","locality":"Wittenbach","commune":{"key":"3204","name":"Wittenbach","shortName":"Wittenbach"},"district":{"key":"1721","name":"Wahlkreis St. Gallen"},"canton":{"key":"17","code":"SG","name":"St. Gallen"},"status":"Real"},{"key":"10073260","name":"Karlshof","postalCode":"9300","locality":"Wittenbach","commune":{"key":"3204","name":"Wittenbach","shortName":"Wittenbach"},"district":{"key":"1721","name":"Wahlkreis St. Gallen"},"canton":{"key":"17","code":"SG","name":"St. Gallen"},"status":"Real"},{"key":"10089144","name":"Kirchhalde","postalCode":"9300","locality":"Wittenbach","commune":{"key":"3204","name":"Wittenbach","shortName":"Wittenbach"},"district":{"key":"1721","name":"Wahlkreis St. Gallen"},"canton":{"key":"17","code":"SG","name":"St. Gallen"},"status":"Real"},{"key":"10223976","name":"Kirchhaldenweg","postalCode":"9300","locality":"Wittenbach","commune":{"key":"3204","name":"Wittenbach","shortName":"Wittenbach"},"district":{"key":"1721","name":"Wahlkreis St. Gallen"},"canton":{"key":"17","code":"SG","name":"St. Gallen"},"status":"Real"},{"key":"10103352","name":"Kirchsteig","postalCode":"9300","locality":"Wittenbach","commune":{"key":"3204","name":"Wittenbach","shortName":"Wittenbach"},"district":{"key":"1721","name":"Wahlkreis St. Gallen"},"canton":{"key":"17","code":"SG","name":"St. Gallen"},"status":"Real"},{"key":"10223980","name":"Kirchsteigweg","postalCode":"9300","locality":"Wittenbach","commune":{"key":"3204","name":"Wittenbach","shortName":"Wittenbach"},"district":{"key":"1721","name":"Wahlkreis St. Gallen"},"canton":{"key":"17","code":"SG","name":"St. Gallen"},"status":"Real"},{"key":"10029965","name":"Lachen","postalCode":"9300","locality":"Wittenbach","commune":{"key":"3204","name":"Wittenbach","shortName":"Wittenbach"},"district":{"key":"1721","name":"Wahlkreis St. Gallen"},"canton":{"key":"17","code":"SG","name":"St. Gallen"},"status":"Real"},{"key":"10073261","name":"Ladhuebstrasse","postalCode":"9300","locality":"Wittenbach","commune":{"key":"3204","name":"Wittenbach","shortName":"Wittenbach"},"district":{"key":"1721","name":"Wahlkreis St. Gallen"},"canton":{"key":"17","code":"SG","name":"St. Gallen"},"status":"Real"},{"key":"10223984","name":"Ladhuebweg","postalCode":"9300","locality":"Wittenbach","commune":{"key":"3204","name":"Wittenbach","shortName":"Wittenbach"},"district":{"key":"1721","name":"Wahlkreis St. Gallen"},"canton":{"key":"17","code":"SG","name":"St. Gallen"},"status":"Real"},{"key":"10167996","name":"Landhof","postalCode":"9300","locality":"Wittenbach","commune":{"key":"3204","name":"Wittenbach","shortName":"Wittenbach"},"district":{"key":"1721","name":"Wahlkreis St. Gallen"},"canton":{"key":"17","code":"SG","name":"St. Gallen"},"status":"Real"},{"key":"10187592","name":"Langbrugg","postalCode":"9300","locality":"Wittenbach","commune":{"key":"3204","name":"Wittenbach","shortName":"Wittenbach"},"district":{"key":"1721","name":"Wahlkreis St. Gallen"},"canton":{"key":"17","code":"SG","name":"St. Gallen"},"status":"Real"},{"key":"10223988","name":"Langbruggweg","postalCode":"9300","locality":"Wittenbach","commune":{"key":"3204","name":"Wittenbach","shortName":"Wittenbach"},"district":{"key":"1721","name":"Wahlkreis St. Gallen"},"canton":{"key":"17","code":"SG","name":"St. Gallen"},"status":"Real"},{"key":"10223996","name":"Lässerhofstrasse","postalCode":"9300","locality":"Wittenbach","commune":{"key":"3204","name":"Wittenbach","shortName":"Wittenbach"},"district":{"key":"1721","name":"Wahlkreis St. Gallen"},"canton":{"key":"17","code":"SG","name":"St. Gallen"},"status":"Real"},{"key":"10135631","name":"Leestrasse","postalCode":"9300","locality":"Wittenbach","commune":{"key":"3204","name":"Wittenbach","shortName":"Wittenbach"},"district":{"key":"1721","name":"Wahlkreis St. Gallen"},"canton":{"key":"17","code":"SG","name":"St. Gallen"},"status":"Real"},{"key":"10029966","name":"Linden","postalCode":"9300","locality":"Wittenbach","commune":{"key":"3204","name":"Wittenbach","shortName":"Wittenbach"},"district":{"key":"1721","name":"Wahlkreis St. Gallen"},"canton":{"key":"17","code":"SG","name":"St. Gallen"},"status":"Real"},{"key":"10224000","name":"Lindenmoos","postalCode":"9300","locality":"Wittenbach","commune":{"key":"3204","name":"Wittenbach","shortName":"Wittenbach"},"district":{"key":"1721","name":"Wahlkreis St. Gallen"},"canton":{"key":"17","code":"SG","name":"St. Gallen"},"status":"Real"},{"key":"10224003","name":"Lindenmoosstrasse","postalCode":"9300","locality":"Wittenbach","commune":{"key":"3204","name":"Wittenbach","shortName":"Wittenbach"},"district":{"key":"1721","name":"Wahlkreis St. Gallen"},"canton":{"key":"17","code":"SG","name":"St. Gallen"},"status":"Real"},{"key":"10224008","name":"Locherhofstrasse","postalCode":"9300","locality":"Wittenbach","commune":{"key":"3204","name":"Wittenbach","shortName":"Wittenbach"},"district":{"key":"1721","name":"Wahlkreis St. Gallen"},"canton":{"key":"17","code":"SG","name":"St. Gallen"},"status":"Real"},{"key":"10224016","name":"Lörenmoosstrasse","postalCode":"9300","locality":"Wittenbach","commune":{"key":"3204","name":"Wittenbach","shortName":"Wittenbach"},"district":{"key":"1721","name":"Wahlkreis St. Gallen"},"canton":{"key":"17","code":"SG","name":"St. Gallen"},"status":"Real"},{"key":"10249942","name":"Lörnerdorfstrasse","postalCode":"9300","locality":"Wittenbach","commune":{"key":"3204","name":"Wittenbach","shortName":"Wittenbach"},"district":{"key":"1721","name":"Wahlkreis St. Gallen"},"canton":{"key":"17","code":"SG","name":"St. Gallen"},"status":"Real"},{"key":"10224023","name":"Lusthüttenweg","postalCode":"9300","locality":"Wittenbach","commune":{"key":"3204","name":"Wittenbach","shortName":"Wittenbach"},"district":{"key":"1721","name":"Wahlkreis St. Gallen"},"canton":{"key":"17","code":"SG","name":"St. Gallen"},"status":"Real"},{"key":"10176092","name":"Mittlere Bettenwiesenstrasse","postalCode":"9300","locality":"Wittenbach","commune":{"key":"3204","name":"Wittenbach","shortName":"Wittenbach"},"district":{"key":"1721","name":"Wahlkreis St. Gallen"},"canton":{"key":"17","code":"SG","name":"St. Gallen"},"status":"Real"},{"key":"10230690","name":"Moosholzstrasse","postalCode":"9300","locality":"Wittenbach","commune":{"key":"3204","name":"Wittenbach","shortName":"Wittenbach"},"district":{"key":"1721","name":"Wahlkreis St. Gallen"},"canton":{"key":"17","code":"SG","name":"St. Gallen"},"status":"Real"},{"key":"10224285","name":"Moosholzstrasse","postalCode":"9300","locality":"Wittenbach","commune":{"key":"3204","name":"Wittenbach","shortName":"Wittenbach"},"district":{"key":"1721","name":"Wahlkreis St. Gallen"},"canton":{"key":"17","code":"SG","name":"St. Gallen"},"status":"Real"},{"key":"10192090","name":"Möslen","postalCode":"9300","locality":"Wittenbach","commune":{"key":"3204","name":"Wittenbach","shortName":"Wittenbach"},"district":{"key":"1721","name":"Wahlkreis St. Gallen"},"canton":{"key":"17","code":"SG","name":"St. Gallen"},"status":"Real"},{"key":"10230694","name":"Möslenstrasse","postalCode":"9300","locality":"Wittenbach","commune":{"key":"3204","name":"Wittenbach","shortName":"Wittenbach"},"district":{"key":"1721","name":"Wahlkreis St. Gallen"},"canton":{"key":"17","code":"SG","name":"St. Gallen"},"status":"Real"},{"key":"10230698","name":"Möslenweg","postalCode":"9300","locality":"Wittenbach","commune":{"key":"3204","name":"Wittenbach","shortName":"Wittenbach"},"district":{"key":"1721","name":"Wahlkreis St. Gallen"},"canton":{"key":"17","code":"SG","name":"St. Gallen"},"status":"Real"},{"key":"10232661","name":"Mostiweg","postalCode":"9300","locality":"Wittenbach","commune":{"key":"3204","name":"Wittenbach","shortName":"Wittenbach"},"district":{"key":"1721","name":"Wahlkreis St. Gallen"},"canton":{"key":"17","code":"SG","name":"St. Gallen"},"status":"Real"},{"key":"10029967","name":"Neuhof","postalCode":"9300","locality":"Wittenbach","commune":{"key":"3204","name":"Wittenbach","shortName":"Wittenbach"},"district":{"key":"1721","name":"Wahlkreis St. Gallen"},"canton":{"key":"17","code":"SG","name":"St. Gallen"},"status":"Real"},{"key":"10155780","name":"Neuhusstrasse","postalCode":"9300","locality":"Wittenbach","commune":{"key":"3204","name":"Wittenbach","shortName":"Wittenbach"},"district":{"key":"1721","name":"Wahlkreis St. Gallen"},"canton":{"key":"17","code":"SG","name":"St. Gallen"},"status":"Real"},{"key":"10089145","name":"Neulachen","postalCode":"9300","locality":"Wittenbach","commune":{"key":"3204","name":"Wittenbach","shortName":"Wittenbach"},"district":{"key":"1721","name":"Wahlkreis St. Gallen"},"canton":{"key":"17","code":"SG","name":"St. Gallen"},"status":"Real"},{"key":"10155103","name":"Neusteig","postalCode":"9300","locality":"Wittenbach","commune":{"key":"3204","name":"Wittenbach","shortName":"Wittenbach"},"district":{"key":"1721","name":"Wahlkreis St. Gallen"},"canton":{"key":"17","code":"SG","name":"St. Gallen"},"status":"Real"},{"key":"10059730","name":"Neutröstli","postalCode":"9300","locality":"Wittenbach","commune":{"key":"3204","name":"Wittenbach","shortName":"Wittenbach"},"district":{"key":"1721","name":"Wahlkreis St. Gallen"},"canton":{"key":"17","code":"SG","name":"St. Gallen"},"status":"Real"},{"key":"10232665","name":"Neutröstliweg","postalCode":"9300","locality":"Wittenbach","commune":{"key":"3204","name":"Wittenbach","shortName":"Wittenbach"},"district":{"key":"1721","name":"Wahlkreis St. Gallen"},"canton":{"key":"17","code":"SG","name":"St. Gallen"},"status":"Real"},{"key":"10059728","name":"Noren","postalCode":"9300","locality":"Wittenbach","commune":{"key":"3204","name":"Wittenbach","shortName":"Wittenbach"},"district":{"key":"1721","name":"Wahlkreis St. Gallen"},"canton":{"key":"17","code":"SG","name":"St. Gallen"},"status":"Real"},{"key":"10188721","name":"Norenweg","postalCode":"9300","locality":"Wittenbach","commune":{"key":"3204","name":"Wittenbach","shortName":"Wittenbach"},"district":{"key":"1721","name":"Wahlkreis St. Gallen"},"canton":{"key":"17","code":"SG","name":"St. Gallen"},"status":"Real"},{"key":"10232669","name":"Oberbächiweg","postalCode":"9300","locality":"Wittenbach","commune":{"key":"3204","name":"Wittenbach","shortName":"Wittenbach"},"district":{"key":"1721","name":"Wahlkreis St. Gallen"},"canton":{"key":"17","code":"SG","name":"St. Gallen"},"status":"Real"},{"key":"10232674","name":"Oberer Hegiweg","postalCode":"9300","locality":"Wittenbach","commune":{"key":"3204","name":"Wittenbach","shortName":"Wittenbach"},"district":{"key":"1721","name":"Wahlkreis St. Gallen"},"canton":{"key":"17","code":"SG","name":"St. Gallen"},"status":"Real"},{"key":"10224051","name":"Oberer Studerswilerweg","postalCode":"9300","locality":"Wittenbach","commune":{"key":"3204","name":"Wittenbach","shortName":"Wittenbach"},"district":{"key":"1721","name":"Wahlkreis St. Gallen"},"canton":{"key":"17","code":"SG","name":"St. Gallen"},"status":"Real"},{"key":"10029968","name":"Oberlässerhof","postalCode":"9300","locality":"Wittenbach","commune":{"key":"3204","name":"Wittenbach","shortName":"Wittenbach"},"district":{"key":"1721","name":"Wahlkreis St. Gallen"},"canton":{"key":"17","code":"SG","name":"St. Gallen"},"status":"Real"},{"key":"10224055","name":"Oberlochweg","postalCode":"9300","locality":"Wittenbach","commune":{"key":"3204","name":"Wittenbach","shortName":"Wittenbach"},"district":{"key":"1721","name":"Wahlkreis St. Gallen"},"canton":{"key":"17","code":"SG","name":"St. Gallen"},"status":"Real"},{"key":"10073262","name":"Oberlören","postalCode":"9300","locality":"Wittenbach","commune":{"key":"3204","name":"Wittenbach","shortName":"Wittenbach"},"district":{"key":"1721","name":"Wahlkreis St. Gallen"},"canton":{"key":"17","code":"SG","name":"St. Gallen"},"status":"Real"},{"key":"10088872","name":"Oberrüti","postalCode":"9300","locality":"Wittenbach","commune":{"key":"3204","name":"Wittenbach","shortName":"Wittenbach"},"district":{"key":"1721","name":"Wahlkreis St. Gallen"},"canton":{"key":"17","code":"SG","name":"St. Gallen"},"status":"Real"},{"key":"10224059","name":"Oberrütistrasse","postalCode":"9300","locality":"Wittenbach","commune":{"key":"3204","name":"Wittenbach","shortName":"Wittenbach"},"district":{"key":"1721","name":"Wahlkreis St. Gallen"},"canton":{"key":"17","code":"SG","name":"St. Gallen"},"status":"Real"},{"key":"10045607","name":"Oberrütiweg","postalCode":"9300","locality":"Wittenbach","commune":{"key":"3204","name":"Wittenbach","shortName":"Wittenbach"},"district":{"key":"1721","name":"Wahlkreis St. Gallen"},"canton":{"key":"17","code":"SG","name":"St. Gallen"},"status":"Real"},{"key":"10224065","name":"Obertobelstrasse","postalCode":"9300","locality":"Wittenbach","commune":{"key":"3204","name":"Wittenbach","shortName":"Wittenbach"},"district":{"key":"1721","name":"Wahlkreis St. Gallen"},"canton":{"key":"17","code":"SG","name":"St. Gallen"},"status":"Real"},{"key":"10123037","name":"Oberwilen","postalCode":"9300","locality":"Wittenbach","commune":{"key":"3204","name":"Wittenbach","shortName":"Wittenbach"},"district":{"key":"1721","name":"Wahlkreis St. Gallen"},"canton":{"key":"17","code":"SG","name":"St. Gallen"},"status":"Real"},{"key":"10224069","name":"Oberwilerweg","postalCode":"9300","locality":"Wittenbach","commune":{"key":"3204","name":"Wittenbach","shortName":"Wittenbach"},"district":{"key":"1721","name":"Wahlkreis St. Gallen"},"canton":{"key":"17","code":"SG","name":"St. Gallen"},"status":"Real"},{"key":"10089146","name":"Obstgartenstrasse","postalCode":"9300","locality":"Wittenbach","commune":{"key":"3204","name":"Wittenbach","shortName":"Wittenbach"},"district":{"key":"1721","name":"Wahlkreis St. Gallen"},"canton":{"key":"17","code":"SG","name":"St. Gallen"},"status":"Real"},{"key":"10224073","name":"Obstgartenweg","postalCode":"9300","locality":"Wittenbach","commune":{"key":"3204","name":"Wittenbach","shortName":"Wittenbach"},"district":{"key":"1721","name":"Wahlkreis St. Gallen"},"canton":{"key":"17","code":"SG","name":"St. Gallen"},"status":"Real"},{"key":"10251740","name":"Oedenhof","postalCode":"9300","locality":"Wittenbach","commune":{"key":"3204","name":"Wittenbach","shortName":"Wittenbach"},"district":{"key":"1721","name":"Wahlkreis St. Gallen"},"canton":{"key":"17","code":"SG","name":"St. Gallen"},"status":"Real"},{"key":"10187594","name":"Paradies","postalCode":"9300","locality":"Wittenbach","commune":{"key":"3204","name":"Wittenbach","shortName":"Wittenbach"},"district":{"key":"1721","name":"Wahlkreis St. Gallen"},"canton":{"key":"17","code":"SG","name":"St. Gallen"},"status":"Real"},{"key":"10224077","name":"Paradiesstrasse","postalCode":"9300","locality":"Wittenbach","commune":{"key":"3204","name":"Wittenbach","shortName":"Wittenbach"},"district":{"key":"1721","name":"Wahlkreis St. Gallen"},"canton":{"key":"17","code":"SG","name":"St. Gallen"},"status":"Real"},{"key":"10224081","name":"Passerellenweg","postalCode":"9300","locality":"Wittenbach","commune":{"key":"3204","name":"Wittenbach","shortName":"Wittenbach"},"district":{"key":"1721","name":"Wahlkreis St. Gallen"},"canton":{"key":"17","code":"SG","name":"St. Gallen"},"status":"Real"},{"key":"10224085","name":"Peter-und Paul-Weg","postalCode":"9300","locality":"Wittenbach","commune":{"key":"3204","name":"Wittenbach","shortName":"Wittenbach"},"district":{"key":"1721","name":"Wahlkreis St. Gallen"},"canton":{"key":"17","code":"SG","name":"St. Gallen"},"status":"Real"},{"key":"10230750","name":"Pfauenmoosstrasse","postalCode":"9300","locality":"Wittenbach","commune":{"key":"3204","name":"Wittenbach","shortName":"Wittenbach"},"district":{"key":"1721","name":"Wahlkreis St. Gallen"},"canton":{"key":"17","code":"SG","name":"St. Gallen"},"status":"Real"},{"key":"10073263","name":"Ringstrasse","postalCode":"9300","locality":"Wittenbach","commune":{"key":"3204","name":"Wittenbach","shortName":"Wittenbach"},"district":{"key":"1721","name":"Wahlkreis St. Gallen"},"canton":{"key":"17","code":"SG","name":"St. Gallen"},"status":"Real"},{"key":"10033313","name":"Romanshornerstrasse","postalCode":"9300","locality":"Wittenbach","commune":{"key":"3204","name":"Wittenbach","shortName":"Wittenbach"},"district":{"key":"1721","name":"Wahlkreis St. Gallen"},"canton":{"key":"17","code":"SG","name":"St. Gallen"},"status":"Real"},{"key":"10130495","name":"Rosengartenstrasse","postalCode":"9300","locality":"Wittenbach","commune":{"key":"3204","name":"Wittenbach","shortName":"Wittenbach"},"district":{"key":"1721","name":"Wahlkreis St. Gallen"},"canton":{"key":"17","code":"SG","name":"St. Gallen"},"status":"Real"},{"key":"10230754","name":"Rosengartenweg","postalCode":"9300","locality":"Wittenbach","commune":{"key":"3204","name":"Wittenbach","shortName":"Wittenbach"},"district":{"key":"1721","name":"Wahlkreis St. Gallen"},"canton":{"key":"17","code":"SG","name":"St. Gallen"},"status":"Real"},{"key":"10029969","name":"Rütihof","postalCode":"9300","locality":"Wittenbach","commune":{"key":"3204","name":"Wittenbach","shortName":"Wittenbach"},"district":{"key":"1721","name":"Wahlkreis St. Gallen"},"canton":{"key":"17","code":"SG","name":"St. Gallen"},"status":"Real"},{"key":"10226657","name":"Rütistrasse","postalCode":"9300","locality":"Wittenbach","commune":{"key":"3204","name":"Wittenbach","shortName":"Wittenbach"},"district":{"key":"1721","name":"Wahlkreis St. Gallen"},"canton":{"key":"17","code":"SG","name":"St. Gallen"},"status":"Real"},{"key":"10029970","name":"Schlosshaldenstrasse","postalCode":"9300","locality":"Wittenbach","commune":{"key":"3204","name":"Wittenbach","shortName":"Wittenbach"},"district":{"key":"1721","name":"Wahlkreis St. Gallen"},"canton":{"key":"17","code":"SG","name":"St. Gallen"},"status":"Real"},{"key":"10226661","name":"Schlosshaldenweg","postalCode":"9300","locality":"Wittenbach","commune":{"key":"3204","name":"Wittenbach","shortName":"Wittenbach"},"district":{"key":"1721","name":"Wahlkreis St. Gallen"},"canton":{"key":"17","code":"SG","name":"St. Gallen"},"status":"Real"},{"key":"10029971","name":"Schönenhofen","postalCode":"9300","locality":"Wittenbach","commune":{"key":"3204","name":"Wittenbach","shortName":"Wittenbach"},"district":{"key":"1721","name":"Wahlkreis St. Gallen"},"canton":{"key":"17","code":"SG","name":"St. Gallen"},"status":"Real"},{"key":"10226665","name":"Schönenhofenweg","postalCode":"9300","locality":"Wittenbach","commune":{"key":"3204","name":"Wittenbach","shortName":"Wittenbach"},"district":{"key":"1721","name":"Wahlkreis St. Gallen"},"canton":{"key":"17","code":"SG","name":"St. Gallen"},"status":"Real"},{"key":"10226669","name":"Schulheimweg","postalCode":"9300","locality":"Wittenbach","commune":{"key":"3204","name":"Wittenbach","shortName":"Wittenbach"},"district":{"key":"1721","name":"Wahlkreis St. Gallen"},"canton":{"key":"17","code":"SG","name":"St. Gallen"},"status":"Real"},{"key":"10103350","name":"Schulstrasse","postalCode":"9300","locality":"Wittenbach","commune":{"key":"3204","name":"Wittenbach","shortName":"Wittenbach"},"district":{"key":"1721","name":"Wahlkreis St. Gallen"},"canton":{"key":"17","code":"SG","name":"St. Gallen"},"status":"Real"},{"key":"10232739","name":"Seeblickweg","postalCode":"9300","locality":"Wittenbach","commune":{"key":"3204","name":"Wittenbach","shortName":"Wittenbach"},"district":{"key":"1721","name":"Wahlkreis St. Gallen"},"canton":{"key":"17","code":"SG","name":"St. Gallen"},"status":"Real"},{"key":"10089147","name":"Sittenhueb","postalCode":"9300","locality":"Wittenbach","commune":{"key":"3204","name":"Wittenbach","shortName":"Wittenbach"},"district":{"key":"1721","name":"Wahlkreis St. Gallen"},"canton":{"key":"17","code":"SG","name":"St. Gallen"},"status":"Real"},{"key":"10232743","name":"Sittenhuebstrasse","postalCode":"9300","locality":"Wittenbach","commune":{"key":"3204","name":"Wittenbach","shortName":"Wittenbach"},"district":{"key":"1721","name":"Wahlkreis St. Gallen"},"canton":{"key":"17","code":"SG","name":"St. Gallen"},"status":"Real"},{"key":"10226681","name":"Sittenhuebweg","postalCode":"9300","locality":"Wittenbach","commune":{"key":"3204","name":"Wittenbach","shortName":"Wittenbach"},"district":{"key":"1721","name":"Wahlkreis St. Gallen"},"canton":{"key":"17","code":"SG","name":"St. Gallen"},"status":"Real"},{"key":"10226685","name":"Sitterhaldenstrasse","postalCode":"9300","locality":"Wittenbach","commune":{"key":"3204","name":"Wittenbach","shortName":"Wittenbach"},"district":{"key":"1721","name":"Wahlkreis St. Gallen"},"canton":{"key":"17","code":"SG","name":"St. Gallen"},"status":"Real"},{"key":"10224125","name":"Sitterhaldenweg","postalCode":"9300","locality":"Wittenbach","commune":{"key":"3204","name":"Wittenbach","shortName":"Wittenbach"},"district":{"key":"1721","name":"Wahlkreis St. Gallen"},"canton":{"key":"17","code":"SG","name":"St. Gallen"},"status":"Real"},{"key":"10224129","name":"Sitterstrandweg","postalCode":"9300","locality":"Wittenbach","commune":{"key":"3204","name":"Wittenbach","shortName":"Wittenbach"},"district":{"key":"1721","name":"Wahlkreis St. Gallen"},"canton":{"key":"17","code":"SG","name":"St. Gallen"},"status":"Real"},{"key":"10186415","name":"Sonnenberg","postalCode":"9300","locality":"Wittenbach","commune":{"key":"3204","name":"Wittenbach","shortName":"Wittenbach"},"district":{"key":"1721","name":"Wahlkreis St. Gallen"},"canton":{"key":"17","code":"SG","name":"St. Gallen"},"status":"Real"},{"key":"10224133","name":"Sonnenbergstrasse","postalCode":"9300","locality":"Wittenbach","commune":{"key":"3204","name":"Wittenbach","shortName":"Wittenbach"},"district":{"key":"1721","name":"Wahlkreis St. Gallen"},"canton":{"key":"17","code":"SG","name":"St. Gallen"},"status":"Real"},{"key":"10073264","name":"Sonnenhügel","postalCode":"9300","locality":"Wittenbach","commune":{"key":"3204","name":"Wittenbach","shortName":"Wittenbach"},"district":{"key":"1721","name":"Wahlkreis St. Gallen"},"canton":{"key":"17","code":"SG","name":"St. Gallen"},"status":"Real"},{"key":"10224137","name":"Sonnenhügelstrasse","postalCode":"9300","locality":"Wittenbach","commune":{"key":"3204","name":"Wittenbach","shortName":"Wittenbach"},"district":{"key":"1721","name":"Wahlkreis St. Gallen"},"canton":{"key":"17","code":"SG","name":"St. Gallen"},"status":"Real"},{"key":"10188722","name":"Sonnhaldenweg","postalCode":"9300","locality":"Wittenbach","commune":{"key":"3204","name":"Wittenbach","shortName":"Wittenbach"},"district":{"key":"1721","name":"Wahlkreis St. Gallen"},"canton":{"key":"17","code":"SG","name":"St. Gallen"},"status":"Real"},{"key":"10059726","name":"Stagen","postalCode":"9300","locality":"Wittenbach","commune":{"key":"3204","name":"Wittenbach","shortName":"Wittenbach"},"district":{"key":"1721","name":"Wahlkreis St. Gallen"},"canton":{"key":"17","code":"SG","name":"St. Gallen"},"status":"Real"},{"key":"10033314","name":"Stationsstrasse","postalCode":"9300","locality":"Wittenbach","commune":{"key":"3204","name":"Wittenbach","shortName":"Wittenbach"},"district":{"key":"1721","name":"Wahlkreis St. Gallen"},"canton":{"key":"17","code":"SG","name":"St. Gallen"},"status":"Real"},{"key":"10029972","name":"Steigstrasse","postalCode":"9300","locality":"Wittenbach","commune":{"key":"3204","name":"Wittenbach","shortName":"Wittenbach"},"district":{"key":"1721","name":"Wahlkreis St. Gallen"},"canton":{"key":"17","code":"SG","name":"St. Gallen"},"status":"Real"},{"key":"10224145","name":"Steigwaldweg","postalCode":"9300","locality":"Wittenbach","commune":{"key":"3204","name":"Wittenbach","shortName":"Wittenbach"},"district":{"key":"1721","name":"Wahlkreis St. Gallen"},"canton":{"key":"17","code":"SG","name":"St. Gallen"},"status":"Real"},{"key":"10088873","name":"St. Gallerstrasse","postalCode":"9300","locality":"Wittenbach","commune":{"key":"3204","name":"Wittenbach","shortName":"Wittenbach"},"district":{"key":"1721","name":"Wahlkreis St. Gallen"},"canton":{"key":"17","code":"SG","name":"St. Gallen"},"status":"Real"},{"key":"10224148","name":"Storchenweg","postalCode":"9300","locality":"Wittenbach","commune":{"key":"3204","name":"Wittenbach","shortName":"Wittenbach"},"district":{"key":"1721","name":"Wahlkreis St. Gallen"},"canton":{"key":"17","code":"SG","name":"St. Gallen"},"status":"Real"},{"key":"10224152","name":"Studenbrüggliweg","postalCode":"9300","locality":"Wittenbach","commune":{"key":"3204","name":"Wittenbach","shortName":"Wittenbach"},"district":{"key":"1721","name":"Wahlkreis St. Gallen"},"canton":{"key":"17","code":"SG","name":"St. Gallen"},"status":"Real"},{"key":"10224156","name":"Studentreppenweg","postalCode":"9300","locality":"Wittenbach","commune":{"key":"3204","name":"Wittenbach","shortName":"Wittenbach"},"district":{"key":"1721","name":"Wahlkreis St. Gallen"},"canton":{"key":"17","code":"SG","name":"St. Gallen"},"status":"Real"},{"key":"10224160","name":"Studenweg","postalCode":"9300","locality":"Wittenbach","commune":{"key":"3204","name":"Wittenbach","shortName":"Wittenbach"},"district":{"key":"1721","name":"Wahlkreis St. Gallen"},"canton":{"key":"17","code":"SG","name":"St. Gallen"},"status":"Real"},{"key":"10122105","name":"Studerswilen","postalCode":"9300","locality":"Wittenbach","commune":{"key":"3204","name":"Wittenbach","shortName":"Wittenbach"},"district":{"key":"1721","name":"Wahlkreis St. Gallen"},"canton":{"key":"17","code":"SG","name":"St. Gallen"},"status":"Real"},{"key":"10186938","name":"Studerswilerstrasse","postalCode":"9300","locality":"Wittenbach","commune":{"key":"3204","name":"Wittenbach","shortName":"Wittenbach"},"district":{"key":"1721","name":"Wahlkreis St. Gallen"},"canton":{"key":"17","code":"SG","name":"St. Gallen"},"status":"Real"},{"key":"10188088","name":"Studerswilerweg","postalCode":"9300","locality":"Wittenbach","commune":{"key":"3204","name":"Wittenbach","shortName":"Wittenbach"},"district":{"key":"1721","name":"Wahlkreis St. Gallen"},"canton":{"key":"17","code":"SG","name":"St. Gallen"},"status":"Real"},{"key":"10089148","name":"Sturzbüchelstrasse","postalCode":"9300","locality":"Wittenbach","commune":{"key":"3204","name":"Wittenbach","shortName":"Wittenbach"},"district":{"key":"1721","name":"Wahlkreis St. Gallen"},"canton":{"key":"17","code":"SG","name":"St. Gallen"},"status":"Real"},{"key":"10089138","name":"Tannenstrasse","postalCode":"9300","locality":"Wittenbach","commune":{"key":"3204","name":"Wittenbach","shortName":"Wittenbach"},"district":{"key":"1721","name":"Wahlkreis St. Gallen"},"canton":{"key":"17","code":"SG","name":"St. Gallen"},"status":"Real"},{"key":"10106069","name":"Tobel","postalCode":"9300","locality":"Wittenbach","commune":{"key":"3204","name":"Wittenbach","shortName":"Wittenbach"},"district":{"key":"1721","name":"Wahlkreis St. Gallen"},"canton":{"key":"17","code":"SG","name":"St. Gallen"},"status":"Real"},{"key":"10224164","name":"Tobelstrasse","postalCode":"9300","locality":"Wittenbach","commune":{"key":"3204","name":"Wittenbach","shortName":"Wittenbach"},"district":{"key":"1721","name":"Wahlkreis St. Gallen"},"canton":{"key":"17","code":"SG","name":"St. Gallen"},"status":"Real"},{"key":"10224168","name":"Tobelweg","postalCode":"9300","locality":"Wittenbach","commune":{"key":"3204","name":"Wittenbach","shortName":"Wittenbach"},"district":{"key":"1721","name":"Wahlkreis St. Gallen"},"canton":{"key":"17","code":"SG","name":"St. Gallen"},"status":"Real"},{"key":"10029973","name":"Tröstli","postalCode":"9300","locality":"Wittenbach","commune":{"key":"3204","name":"Wittenbach","shortName":"Wittenbach"},"district":{"key":"1721","name":"Wahlkreis St. Gallen"},"canton":{"key":"17","code":"SG","name":"St. Gallen"},"status":"Real"},{"key":"10224172","name":"Tröstlistrasse","postalCode":"9300","locality":"Wittenbach","commune":{"key":"3204","name":"Wittenbach","shortName":"Wittenbach"},"district":{"key":"1721","name":"Wahlkreis St. Gallen"},"canton":{"key":"17","code":"SG","name":"St. Gallen"},"status":"Real"},{"key":"10230850","name":"Tröstliweg","postalCode":"9300","locality":"Wittenbach","commune":{"key":"3204","name":"Wittenbach","shortName":"Wittenbach"},"district":{"key":"1721","name":"Wahlkreis St. Gallen"},"canton":{"key":"17","code":"SG","name":"St. Gallen"},"status":"Real"},{"key":"10230854","name":"Unterer Hegiweg","postalCode":"9300","locality":"Wittenbach","commune":{"key":"3204","name":"Wittenbach","shortName":"Wittenbach"},"district":{"key":"1721","name":"Wahlkreis St. Gallen"},"canton":{"key":"17","code":"SG","name":"St. Gallen"},"status":"Real"},{"key":"10073265","name":"Unterlässerhof","postalCode":"9300","locality":"Wittenbach","commune":{"key":"3204","name":"Wittenbach","shortName":"Wittenbach"},"district":{"key":"1721","name":"Wahlkreis St. Gallen"},"canton":{"key":"17","code":"SG","name":"St. Gallen"},"status":"Real"},{"key":"10103353","name":"Unterlören","postalCode":"9300","locality":"Wittenbach","commune":{"key":"3204","name":"Wittenbach","shortName":"Wittenbach"},"district":{"key":"1721","name":"Wahlkreis St. Gallen"},"canton":{"key":"17","code":"SG","name":"St. Gallen"},"status":"Real"},{"key":"10033315","name":"Unterstrasse","postalCode":"9300","locality":"Wittenbach","commune":{"key":"3204","name":"Wittenbach","shortName":"Wittenbach"},"district":{"key":"1721","name":"Wahlkreis St. Gallen"},"canton":{"key":"17","code":"SG","name":"St. Gallen"},"status":"Real"},{"key":"10190891","name":"Vogelherdstrasse","postalCode":"9300","locality":"Wittenbach","commune":{"key":"3204","name":"Wittenbach","shortName":"Wittenbach"},"district":{"key":"1721","name":"Wahlkreis St. Gallen"},"canton":{"key":"17","code":"SG","name":"St. Gallen"},"status":"Real"},{"key":"10230862","name":"Vogelherdweg","postalCode":"9300","locality":"Wittenbach","commune":{"key":"3204","name":"Wittenbach","shortName":"Wittenbach"},"district":{"key":"1721","name":"Wahlkreis St. Gallen"},"canton":{"key":"17","code":"SG","name":"St. Gallen"},"status":"Real"},{"key":"10172140","name":"Vordere Bettenwiesenstrasse","postalCode":"9300","locality":"Wittenbach","commune":{"key":"3204","name":"Wittenbach","shortName":"Wittenbach"},"district":{"key":"1721","name":"Wahlkreis St. Gallen"},"canton":{"key":"17","code":"SG","name":"St. Gallen"},"status":"Real"},{"key":"10230866","name":"Vorderer Zilweg","postalCode":"9300","locality":"Wittenbach","commune":{"key":"3204","name":"Wittenbach","shortName":"Wittenbach"},"district":{"key":"1721","name":"Wahlkreis St. Gallen"},"canton":{"key":"17","code":"SG","name":"St. Gallen"},"status":"Real"},{"key":"10230870","name":"Waldparkweg","postalCode":"9300","locality":"Wittenbach","commune":{"key":"3204","name":"Wittenbach","shortName":"Wittenbach"},"district":{"key":"1721","name":"Wahlkreis St. Gallen"},"canton":{"key":"17","code":"SG","name":"St. Gallen"},"status":"Real"},{"key":"10059729","name":"Wannen","postalCode":"9300","locality":"Wittenbach","commune":{"key":"3204","name":"Wittenbach","shortName":"Wittenbach"},"district":{"key":"1721","name":"Wahlkreis St. Gallen"},"canton":{"key":"17","code":"SG","name":"St. Gallen"},"status":"Real"},{"key":"10029974","name":"Wannenstädeli","postalCode":"9300","locality":"Wittenbach","commune":{"key":"3204","name":"Wittenbach","shortName":"Wittenbach"},"district":{"key":"1721","name":"Wahlkreis St. Gallen"},"canton":{"key":"17","code":"SG","name":"St. Gallen"},"status":"Real"},{"key":"10230874","name":"Wannenstädelistrasse","postalCode":"9300","locality":"Wittenbach","commune":{"key":"3204","name":"Wittenbach","shortName":"Wittenbach"},"district":{"key":"1721","name":"Wahlkreis St. Gallen"},"canton":{"key":"17","code":"SG","name":"St. Gallen"},"status":"Real"},{"key":"10250683","name":"Wannenstrasse","postalCode":"9300","locality":"Wittenbach","commune":{"key":"3204","name":"Wittenbach","shortName":"Wittenbach"},"district":{"key":"1721","name":"Wahlkreis St. Gallen"},"canton":{"key":"17","code":"SG","name":"St. Gallen"},"status":"Real"},{"key":"10230878","name":"Weid","postalCode":"9300","locality":"Wittenbach","commune":{"key":"3204","name":"Wittenbach","shortName":"Wittenbach"},"district":{"key":"1721","name":"Wahlkreis St. Gallen"},"canton":{"key":"17","code":"SG","name":"St. Gallen"},"status":"Real"},{"key":"10033317","name":"Weidstrasse","postalCode":"9300","locality":"Wittenbach","commune":{"key":"3204","name":"Wittenbach","shortName":"Wittenbach"},"district":{"key":"1721","name":"Wahlkreis St. Gallen"},"canton":{"key":"17","code":"SG","name":"St. Gallen"},"status":"Real"},{"key":"10230882","name":"Weidweg","postalCode":"9300","locality":"Wittenbach","commune":{"key":"3204","name":"Wittenbach","shortName":"Wittenbach"},"district":{"key":"1721","name":"Wahlkreis St. Gallen"},"canton":{"key":"17","code":"SG","name":"St. Gallen"},"status":"Real"},{"key":"10155803","name":"Weiherweg","postalCode":"9300","locality":"Wittenbach","commune":{"key":"3204","name":"Wittenbach","shortName":"Wittenbach"},"district":{"key":"1721","name":"Wahlkreis St. Gallen"},"canton":{"key":"17","code":"SG","name":"St. Gallen"},"status":"Real"},{"key":"10029975","name":"Widenbachstrasse","postalCode":"9300","locality":"Wittenbach","commune":{"key":"3204","name":"Wittenbach","shortName":"Wittenbach"},"district":{"key":"1721","name":"Wahlkreis St. Gallen"},"canton":{"key":"17","code":"SG","name":"St. Gallen"},"status":"Real"},{"key":"10089139","name":"Wiesenstrasse","postalCode":"9300","locality":"Wittenbach","commune":{"key":"3204","name":"Wittenbach","shortName":"Wittenbach"},"district":{"key":"1721","name":"Wahlkreis St. Gallen"},"canton":{"key":"17","code":"SG","name":"St. Gallen"},"status":"Real"},{"key":"10033318","name":"Wiesenweg","postalCode":"9300","locality":"Wittenbach","commune":{"key":"3204","name":"Wittenbach","shortName":"Wittenbach"},"district":{"key":"1721","name":"Wahlkreis St. Gallen"},"canton":{"key":"17","code":"SG","name":"St. Gallen"},"status":"Real"},{"key":"10073266","name":"Wilen","postalCode":"9300","locality":"Wittenbach","commune":{"key":"3204","name":"Wittenbach","shortName":"Wittenbach"},"district":{"key":"1721","name":"Wahlkreis St. Gallen"},"canton":{"key":"17","code":"SG","name":"St. Gallen"},"status":"Real"},{"key":"10230886","name":"Wilenstrasse","postalCode":"9300","locality":"Wittenbach","commune":{"key":"3204","name":"Wittenbach","shortName":"Wittenbach"},"district":{"key":"1721","name":"Wahlkreis St. Gallen"},"canton":{"key":"17","code":"SG","name":"St. Gallen"},"status":"Real"},{"key":"10230890","name":"Wilenweg","postalCode":"9300","locality":"Wittenbach","commune":{"key":"3204","name":"Wittenbach","shortName":"Wittenbach"},"district":{"key":"1721","name":"Wahlkreis St. Gallen"},"canton":{"key":"17","code":"SG","name":"St. Gallen"},"status":"Real"},{"key":"10045608","name":"Zelgstrasse","postalCode":"9300","locality":"Wittenbach","commune":{"key":"3204","name":"Wittenbach","shortName":"Wittenbach"},"district":{"key":"1721","name":"Wahlkreis St. Gallen"},"canton":{"key":"17","code":"SG","name":"St. Gallen"},"status":"Real"},{"key":"10171211","name":"Zentrumsstrasse","postalCode":"9300","locality":"Wittenbach","commune":{"key":"3204","name":"Wittenbach","shortName":"Wittenbach"},"district":{"key":"1721","name":"Wahlkreis St. Gallen"},"canton":{"key":"17","code":"SG","name":"St. Gallen"},"status":"Real"},{"key":"10230894","name":"Zentrumsweg","postalCode":"9300","locality":"Wittenbach","commune":{"key":"3204","name":"Wittenbach","shortName":"Wittenbach"},"district":{"key":"1721","name":"Wahlkreis St. Gallen"},"canton":{"key":"17","code":"SG","name":"St. Gallen"},"status":"Real"},{"key":"10073267","name":"Ziegeleistrasse","postalCode":"9300","locality":"Wittenbach","commune":{"key":"3204","name":"Wittenbach","shortName":"Wittenbach"},"district":{"key":"1721","name":"Wahlkreis St. Gallen"},"canton":{"key":"17","code":"SG","name":"St. Gallen"},"status":"Real"},{"key":"10230898","name":"Ziegeleiweg","postalCode":"9300","locality":"Wittenbach","commune":{"key":"3204","name":"Wittenbach","shortName":"Wittenbach"},"district":{"key":"1721","name":"Wahlkreis St. Gallen"},"canton":{"key":"17","code":"SG","name":"St. Gallen"},"status":"Real"},{"key":"10029976","name":"Zil","postalCode":"9300","locality":"Wittenbach","commune":{"key":"3204","name":"Wittenbach","shortName":"Wittenbach"},"district":{"key":"1721","name":"Wahlkreis St. Gallen"},"canton":{"key":"17","code":"SG","name":"St. Gallen"},"status":"Real"},{"key":"10230902","name":"Zilweg","postalCode":"9300","locality":"Wittenbach","commune":{"key":"3204","name":"Wittenbach","shortName":"Wittenbach"},"district":{"key":"1721","name":"Wahlkreis St. Gallen"},"canton":{"key":"17","code":"SG","name":"St. Gallen"},"status":"Real"},{"key":"10033319","name":"Zinslibüelstrasse","postalCode":"9300","locality":"Wittenbach","commune":{"key":"3204","name":"Wittenbach","shortName":"Wittenbach"},"district":{"key":"1721","name":"Wahlkreis St. Gallen"},"canton":{"key":"17","code":"SG","name":"St. Gallen"},"status":"Real"},{"key":"10149319","name":"Zum Erlacker","postalCode":"9300","locality":"Wittenbach","commune":{"key":"3204","name":"Wittenbach","shortName":"Wittenbach"},"district":{"key":"1721","name":"Wahlkreis St. Gallen"},"canton":{"key":"17","code":"SG","name":"St. Gallen"},"status":"Real"},{"key":"10045609","name":"Ödenhofstrasse","postalCode":"9300","locality":"Wittenbach","commune":{"key":"3204","name":"Wittenbach","shortName":"Wittenbach"},"district":{"key":"1721","name":"Wahlkreis St. Gallen"},"canton":{"key":"17","code":"SG","name":"St. Gallen"},"status":"Real"},]