[{"name":"Am Anger","postalCode":"18461","locality":"Gremersdorf-Buchholz","municipality":{"key":"13073034","name":"Gremersdorf-Buchholz","type":"Kreisangehörige_Gemeinde"},"district":{"key":"13073","name":"Vorpommern-Rügen","type":"Landkreis"},"federalState":{"key":"13","name":"Mecklenburg-Vorpommern"}},{"name":"Am Bahndamm","postalCode":"18461","locality":"Gremersdorf-Buchholz","municipality":{"key":"13073034","name":"Gremersdorf-Buchholz","type":"Kreisangehörige_Gemeinde"},"district":{"key":"13073","name":"Vorpommern-Rügen","type":"Landkreis"},"federalState":{"key":"13","name":"Mecklenburg-Vorpommern"}},{"name":"Am See","postalCode":"18461","locality":"Gremersdorf-Buchholz","municipality":{"key":"13073034","name":"Gremersdorf-Buchholz","type":"Kreisangehörige_Gemeinde"},"district":{"key":"13073","name":"Vorpommern-Rügen","type":"Landkreis"},"federalState":{"key":"13","name":"Mecklenburg-Vorpommern"}},{"name":"Am Teich","postalCode":"18461","locality":"Gremersdorf-Buchholz","municipality":{"key":"13073034","name":"Gremersdorf-Buchholz","type":"Kreisangehörige_Gemeinde"},"district":{"key":"13073","name":"Vorpommern-Rügen","type":"Landkreis"},"federalState":{"key":"13","name":"Mecklenburg-Vorpommern"}},{"name":"Dorfstr.","postalCode":"18461","locality":"Gremersdorf-Buchholz","municipality":{"key":"13073034","name":"Gremersdorf-Buchholz","type":"Kreisangehörige_Gemeinde"},"district":{"key":"13073","name":"Vorpommern-Rügen","type":"Landkreis"},"federalState":{"key":"13","name":"Mecklenburg-Vorpommern"}},{"name":"Eichenallee","postalCode":"18461","locality":"Gremersdorf-Buchholz","municipality":{"key":"13073034","name":"Gremersdorf-Buchholz","type":"Kreisangehörige_Gemeinde"},"district":{"key":"13073","name":"Vorpommern-Rügen","type":"Landkreis"},"federalState":{"key":"13","name":"Mecklenburg-Vorpommern"}},{"name":"Franzburger Str.","postalCode":"18461","locality":"Gremersdorf-Buchholz","municipality":{"key":"13073034","name":"Gremersdorf-Buchholz","type":"Kreisangehörige_Gemeinde"},"district":{"key":"13073","name":"Vorpommern-Rügen","type":"Landkreis"},"federalState":{"key":"13","name":"Mecklenburg-Vorpommern"}},{"name":"Gremersdorfer Str.","postalCode":"18461","locality":"Gremersdorf-Buchholz","municipality":{"key":"13073034","name":"Gremersdorf-Buchholz","type":"Kreisangehörige_Gemeinde"},"district":{"key":"13073","name":"Vorpommern-Rügen","type":"Landkreis"},"federalState":{"key":"13","name":"Mecklenburg-Vorpommern"}},{"name":"Hauptstr.","postalCode":"18461","locality":"Gremersdorf-Buchholz","municipality":{"key":"13073034","name":"Gremersdorf-Buchholz","type":"Kreisangehörige_Gemeinde"},"district":{"key":"13073","name":"Vorpommern-Rügen","type":"Landkreis"},"federalState":{"key":"13","name":"Mecklenburg-Vorpommern"}},{"name":"Kastanienallee","postalCode":"18461","locality":"Gremersdorf-Buchholz","municipality":{"key":"13073034","name":"Gremersdorf-Buchholz","type":"Kreisangehörige_Gemeinde"},"district":{"key":"13073","name":"Vorpommern-Rügen","type":"Landkreis"},"federalState":{"key":"13","name":"Mecklenburg-Vorpommern"}},{"name":"Neubauhof-Oberhof","postalCode":"18461","locality":"Gremersdorf-Buchholz","municipality":{"key":"13073034","name":"Gremersdorf-Buchholz","type":"Kreisangehörige_Gemeinde"},"district":{"key":"13073","name":"Vorpommern-Rügen","type":"Landkreis"},"federalState":{"key":"13","name":"Mecklenburg-Vorpommern"}},{"name":"Neubaustr.","postalCode":"18461","locality":"Gremersdorf-Buchholz","municipality":{"key":"13073034","name":"Gremersdorf-Buchholz","type":"Kreisangehörige_Gemeinde"},"district":{"key":"13073","name":"Vorpommern-Rügen","type":"Landkreis"},"federalState":{"key":"13","name":"Mecklenburg-Vorpommern"}},{"name":"Neue Str.","postalCode":"18461","locality":"Gremersdorf-Buchholz","municipality":{"key":"13073034","name":"Gremersdorf-Buchholz","type":"Kreisangehörige_Gemeinde"},"district":{"key":"13073","name":"Vorpommern-Rügen","type":"Landkreis"},"federalState":{"key":"13","name":"Mecklenburg-Vorpommern"}},{"name":"Papenhäger Str.","postalCode":"18461","locality":"Gremersdorf-Buchholz","municipality":{"key":"13073034","name":"Gremersdorf-Buchholz","type":"Kreisangehörige_Gemeinde"},"district":{"key":"13073","name":"Vorpommern-Rügen","type":"Landkreis"},"federalState":{"key":"13","name":"Mecklenburg-Vorpommern"}},{"name":"Pöglitzer Str.","postalCode":"18461","locality":"Gremersdorf-Buchholz","municipality":{"key":"13073034","name":"Gremersdorf-Buchholz","type":"Kreisangehörige_Gemeinde"},"district":{"key":"13073","name":"Vorpommern-Rügen","type":"Landkreis"},"federalState":{"key":"13","name":"Mecklenburg-Vorpommern"}},{"name":"Schiffshören-Ausbau","postalCode":"18461","locality":"Gremersdorf-Buchholz","municipality":{"key":"13073034","name":"Gremersdorf-Buchholz","type":"Kreisangehörige_Gemeinde"},"district":{"key":"13073","name":"Vorpommern-Rügen","type":"Landkreis"},"federalState":{"key":"13","name":"Mecklenburg-Vorpommern"}},{"name":"Schulweg","postalCode":"18461","locality":"Gremersdorf-Buchholz","municipality":{"key":"13073034","name":"Gremersdorf-Buchholz","type":"Kreisangehörige_Gemeinde"},"district":{"key":"13073","name":"Vorpommern-Rügen","type":"Landkreis"},"federalState":{"key":"13","name":"Mecklenburg-Vorpommern"}},{"name":"Siedlerweg","postalCode":"18461","locality":"Gremersdorf-Buchholz","municipality":{"key":"13073034","name":"Gremersdorf-Buchholz","type":"Kreisangehörige_Gemeinde"},"district":{"key":"13073","name":"Vorpommern-Rügen","type":"Landkreis"},"federalState":{"key":"13","name":"Mecklenburg-Vorpommern"}},{"name":"Waldstr.","postalCode":"18461","locality":"Gremersdorf-Buchholz","municipality":{"key":"13073034","name":"Gremersdorf-Buchholz","type":"Kreisangehörige_Gemeinde"},"district":{"key":"13073","name":"Vorpommern-Rügen","type":"Landkreis"},"federalState":{"key":"13","name":"Mecklenburg-Vorpommern"}},{"name":"Wiesenweg","postalCode":"18461","locality":"Gremersdorf-Buchholz","municipality":{"key":"13073034","name":"Gremersdorf-Buchholz","type":"Kreisangehörige_Gemeinde"},"district":{"key":"13073","name":"Vorpommern-Rügen","type":"Landkreis"},"federalState":{"key":"13","name":"Mecklenburg-Vorpommern"}},{"name":"Zum Bruch","postalCode":"18461","locality":"Gremersdorf-Buchholz","municipality":{"key":"13073034","name":"Gremersdorf-Buchholz","type":"Kreisangehörige_Gemeinde"},"district":{"key":"13073","name":"Vorpommern-Rügen","type":"Landkreis"},"federalState":{"key":"13","name":"Mecklenburg-Vorpommern"}},{"name":"Zum Werder","postalCode":"18461","locality":"Gremersdorf-Buchholz","municipality":{"key":"13073034","name":"Gremersdorf-Buchholz","type":"Kreisangehörige_Gemeinde"},"district":{"key":"13073","name":"Vorpommern-Rügen","type":"Landkreis"},"federalState":{"key":"13","name":"Mecklenburg-Vorpommern"}},]