[{"name":"Bahnhof","postalCode":"17390","locality":"Klein Bünzow","municipality":{"key":"13075061","name":"Klein Bünzow","type":"Kreisangehörige_Gemeinde"},"district":{"key":"13075","name":"Vorpommern-Greifswald","type":"Landkreis"},"federalState":{"key":"13","name":"Mecklenburg-Vorpommern"}},{"name":"Chaussee","postalCode":"17390","locality":"Klein Bünzow","municipality":{"key":"13075061","name":"Klein Bünzow","type":"Kreisangehörige_Gemeinde"},"district":{"key":"13075","name":"Vorpommern-Greifswald","type":"Landkreis"},"federalState":{"key":"13","name":"Mecklenburg-Vorpommern"}},{"name":"Dorfstr.","postalCode":"17390","locality":"Klein Bünzow","municipality":{"key":"13075061","name":"Klein Bünzow","type":"Kreisangehörige_Gemeinde"},"district":{"key":"13075","name":"Vorpommern-Greifswald","type":"Landkreis"},"federalState":{"key":"13","name":"Mecklenburg-Vorpommern"}},{"name":"Groß Bünzow","postalCode":"17390","locality":"Klein Bünzow","municipality":{"key":"13075061","name":"Klein Bünzow","type":"Kreisangehörige_Gemeinde"},"district":{"key":"13075","name":"Vorpommern-Greifswald","type":"Landkreis"},"federalState":{"key":"13","name":"Mecklenburg-Vorpommern"}},{"name":"Groß Jasedow","postalCode":"17390","locality":"Klein Bünzow","municipality":{"key":"13075061","name":"Klein Bünzow","type":"Kreisangehörige_Gemeinde"},"district":{"key":"13075","name":"Vorpommern-Greifswald","type":"Landkreis"},"federalState":{"key":"13","name":"Mecklenburg-Vorpommern"}},{"name":"Klitschendorf","postalCode":"17390","locality":"Klein Bünzow","municipality":{"key":"13075061","name":"Klein Bünzow","type":"Kreisangehörige_Gemeinde"},"district":{"key":"13075","name":"Vorpommern-Greifswald","type":"Landkreis"},"federalState":{"key":"13","name":"Mecklenburg-Vorpommern"}},{"name":"Pamitz","postalCode":"17390","locality":"Klein Bünzow","municipality":{"key":"13075061","name":"Klein Bünzow","type":"Kreisangehörige_Gemeinde"},"district":{"key":"13075","name":"Vorpommern-Greifswald","type":"Landkreis"},"federalState":{"key":"13","name":"Mecklenburg-Vorpommern"}},{"name":"Ramitzow","postalCode":"17390","locality":"Klein Bünzow","municipality":{"key":"13075061","name":"Klein Bünzow","type":"Kreisangehörige_Gemeinde"},"district":{"key":"13075","name":"Vorpommern-Greifswald","type":"Landkreis"},"federalState":{"key":"13","name":"Mecklenburg-Vorpommern"}},{"name":"Salchow","postalCode":"17390","locality":"Klein Bünzow","municipality":{"key":"13075061","name":"Klein Bünzow","type":"Kreisangehörige_Gemeinde"},"district":{"key":"13075","name":"Vorpommern-Greifswald","type":"Landkreis"},"federalState":{"key":"13","name":"Mecklenburg-Vorpommern"}},]