[{"name":"Adlermühle","postalCode":"08606","locality":"Oelsnitz/Vogtland","municipality":{"key":"14523300","name":"Oelsnitz/Vogtl., Stadt","type":"Stadt"},"district":{"key":"14523","name":"Vogtlandkreis","type":"Landkreis"},"federalState":{"key":"14","name":"Sachsen"}},{"name":"Adolf-Damaschke-Str.","postalCode":"08606","locality":"Oelsnitz/Vogtland","municipality":{"key":"14523300","name":"Oelsnitz/Vogtl., Stadt","type":"Stadt"},"district":{"key":"14523","name":"Vogtlandkreis","type":"Landkreis"},"federalState":{"key":"14","name":"Sachsen"}},{"name":"Alte Adorfer Str.","postalCode":"08606","locality":"Oelsnitz/Vogtland","municipality":{"key":"14523300","name":"Oelsnitz/Vogtl., Stadt","type":"Stadt"},"district":{"key":"14523","name":"Vogtlandkreis","type":"Landkreis"},"federalState":{"key":"14","name":"Sachsen"}},{"name":"Alte Bahnhofstr.","postalCode":"08606","locality":"Oelsnitz/Vogtland","municipality":{"key":"14523300","name":"Oelsnitz/Vogtl., Stadt","type":"Stadt"},"district":{"key":"14523","name":"Vogtlandkreis","type":"Landkreis"},"federalState":{"key":"14","name":"Sachsen"}},{"name":"Alte Plauensche Str.","postalCode":"08606","locality":"Oelsnitz/Vogtland","municipality":{"key":"14523300","name":"Oelsnitz/Vogtl., Stadt","type":"Stadt"},"district":{"key":"14523","name":"Vogtlandkreis","type":"Landkreis"},"federalState":{"key":"14","name":"Sachsen"}},{"name":"Alte Reichenbacher Str.","postalCode":"08606","locality":"Oelsnitz/Vogtland","municipality":{"key":"14523300","name":"Oelsnitz/Vogtl., Stadt","type":"Stadt"},"district":{"key":"14523","name":"Vogtlandkreis","type":"Landkreis"},"federalState":{"key":"14","name":"Sachsen"}},{"name":"Alte Schönecker Str.","postalCode":"08606","locality":"Oelsnitz/Vogtland","municipality":{"key":"14523300","name":"Oelsnitz/Vogtl., Stadt","type":"Stadt"},"district":{"key":"14523","name":"Vogtlandkreis","type":"Landkreis"},"federalState":{"key":"14","name":"Sachsen"}},{"name":"Alte Triebeler Str.","postalCode":"08606","locality":"Oelsnitz/Vogtland","municipality":{"key":"14523300","name":"Oelsnitz/Vogtl., Stadt","type":"Stadt"},"district":{"key":"14523","name":"Vogtlandkreis","type":"Landkreis"},"federalState":{"key":"14","name":"Sachsen"}},{"name":"Am Alten Bahndamm","postalCode":"08606","locality":"Oelsnitz/Vogtland","municipality":{"key":"14523300","name":"Oelsnitz/Vogtl., Stadt","type":"Stadt"},"district":{"key":"14523","name":"Vogtlandkreis","type":"Landkreis"},"federalState":{"key":"14","name":"Sachsen"}},{"name":"Am Bahnhof","postalCode":"08606","locality":"Oelsnitz/Vogtland","municipality":{"key":"14523300","name":"Oelsnitz/Vogtl., Stadt","type":"Stadt"},"district":{"key":"14523","name":"Vogtlandkreis","type":"Landkreis"},"federalState":{"key":"14","name":"Sachsen"}},{"name":"Am Geiersberg","postalCode":"08606","locality":"Oelsnitz/Vogtland","municipality":{"key":"14523300","name":"Oelsnitz/Vogtl., Stadt","type":"Stadt"},"district":{"key":"14523","name":"Vogtlandkreis","type":"Landkreis"},"federalState":{"key":"14","name":"Sachsen"}},{"name":"Am Grummacker","postalCode":"08606","locality":"Oelsnitz/Vogtland","municipality":{"key":"14523300","name":"Oelsnitz/Vogtl., Stadt","type":"Stadt"},"district":{"key":"14523","name":"Vogtlandkreis","type":"Landkreis"},"federalState":{"key":"14","name":"Sachsen"}},{"name":"Am Jahnteich","postalCode":"08606","locality":"Oelsnitz/Vogtland","municipality":{"key":"14523300","name":"Oelsnitz/Vogtl., Stadt","type":"Stadt"},"district":{"key":"14523","name":"Vogtlandkreis","type":"Landkreis"},"federalState":{"key":"14","name":"Sachsen"}},{"name":"Am Kindergarten","postalCode":"08606","locality":"Oelsnitz/Vogtland","municipality":{"key":"14523300","name":"Oelsnitz/Vogtl., Stadt","type":"Stadt"},"district":{"key":"14523","name":"Vogtlandkreis","type":"Landkreis"},"federalState":{"key":"14","name":"Sachsen"}},{"name":"Am Lehmteich","postalCode":"08606","locality":"Oelsnitz/Vogtland","municipality":{"key":"14523300","name":"Oelsnitz/Vogtl., Stadt","type":"Stadt"},"district":{"key":"14523","name":"Vogtlandkreis","type":"Landkreis"},"federalState":{"key":"14","name":"Sachsen"}},{"name":"Am Lohgrund","postalCode":"08606","locality":"Oelsnitz/Vogtland","municipality":{"key":"14523300","name":"Oelsnitz/Vogtl., Stadt","type":"Stadt"},"district":{"key":"14523","name":"Vogtlandkreis","type":"Landkreis"},"federalState":{"key":"14","name":"Sachsen"}},{"name":"Am Mühlgraben","postalCode":"08606","locality":"Oelsnitz/Vogtland","municipality":{"key":"14523300","name":"Oelsnitz/Vogtl., Stadt","type":"Stadt"},"district":{"key":"14523","name":"Vogtlandkreis","type":"Landkreis"},"federalState":{"key":"14","name":"Sachsen"}},{"name":"Am Neunmühlental","postalCode":"08606","locality":"Oelsnitz/Vogtland","municipality":{"key":"14523300","name":"Oelsnitz/Vogtl., Stadt","type":"Stadt"},"district":{"key":"14523","name":"Vogtlandkreis","type":"Landkreis"},"federalState":{"key":"14","name":"Sachsen"}},{"name":"Am Oberen Winkel","postalCode":"08606","locality":"Oelsnitz/Vogtland","municipality":{"key":"14523300","name":"Oelsnitz/Vogtl., Stadt","type":"Stadt"},"district":{"key":"14523","name":"Vogtlandkreis","type":"Landkreis"},"federalState":{"key":"14","name":"Sachsen"}},{"name":"Am Oelsnitzteich","postalCode":"08606","locality":"Oelsnitz/Vogtland","municipality":{"key":"14523300","name":"Oelsnitz/Vogtl., Stadt","type":"Stadt"},"district":{"key":"14523","name":"Vogtlandkreis","type":"Landkreis"},"federalState":{"key":"14","name":"Sachsen"}},{"name":"Am Sonnenhang","postalCode":"08606","locality":"Oelsnitz/Vogtland","municipality":{"key":"14523300","name":"Oelsnitz/Vogtl., Stadt","type":"Stadt"},"district":{"key":"14523","name":"Vogtlandkreis","type":"Landkreis"},"federalState":{"key":"14","name":"Sachsen"}},{"name":"Am Sportplatz","postalCode":"08606","locality":"Oelsnitz/Vogtland","municipality":{"key":"14523300","name":"Oelsnitz/Vogtl., Stadt","type":"Stadt"},"district":{"key":"14523","name":"Vogtlandkreis","type":"Landkreis"},"federalState":{"key":"14","name":"Sachsen"}},{"name":"Am Strand","postalCode":"08606","locality":"Oelsnitz/Vogtland","municipality":{"key":"14523300","name":"Oelsnitz/Vogtl., Stadt","type":"Stadt"},"district":{"key":"14523","name":"Vogtlandkreis","type":"Landkreis"},"federalState":{"key":"14","name":"Sachsen"}},{"name":"Am Wiesengrund","postalCode":"08606","locality":"Oelsnitz/Vogtland","municipality":{"key":"14523300","name":"Oelsnitz/Vogtl., Stadt","type":"Stadt"},"district":{"key":"14523","name":"Vogtlandkreis","type":"Landkreis"},"federalState":{"key":"14","name":"Sachsen"}},{"name":"Am Winkel","postalCode":"08606","locality":"Oelsnitz/Vogtland","municipality":{"key":"14523300","name":"Oelsnitz/Vogtl., Stadt","type":"Stadt"},"district":{"key":"14523","name":"Vogtlandkreis","type":"Landkreis"},"federalState":{"key":"14","name":"Sachsen"}},{"name":"An der Elster","postalCode":"08606","locality":"Oelsnitz/Vogtland","municipality":{"key":"14523300","name":"Oelsnitz/Vogtl., Stadt","type":"Stadt"},"district":{"key":"14523","name":"Vogtlandkreis","type":"Landkreis"},"federalState":{"key":"14","name":"Sachsen"}},{"name":"An der Neuen Welt","postalCode":"08606","locality":"Oelsnitz/Vogtland","municipality":{"key":"14523300","name":"Oelsnitz/Vogtl., Stadt","type":"Stadt"},"district":{"key":"14523","name":"Vogtlandkreis","type":"Landkreis"},"federalState":{"key":"14","name":"Sachsen"}},{"name":"An der Raschauer Flurgrenze","postalCode":"08606","locality":"Oelsnitz/Vogtland","municipality":{"key":"14523300","name":"Oelsnitz/Vogtl., Stadt","type":"Stadt"},"district":{"key":"14523","name":"Vogtlandkreis","type":"Landkreis"},"federalState":{"key":"14","name":"Sachsen"}},{"name":"An der Stadtmauer","postalCode":"08606","locality":"Oelsnitz/Vogtland","municipality":{"key":"14523300","name":"Oelsnitz/Vogtl., Stadt","type":"Stadt"},"district":{"key":"14523","name":"Vogtlandkreis","type":"Landkreis"},"federalState":{"key":"14","name":"Sachsen"}},{"name":"Anger","postalCode":"08606","locality":"Oelsnitz/Vogtland","municipality":{"key":"14523300","name":"Oelsnitz/Vogtl., Stadt","type":"Stadt"},"district":{"key":"14523","name":"Vogtlandkreis","type":"Landkreis"},"federalState":{"key":"14","name":"Sachsen"}},{"name":"August-Bebel-Str.","postalCode":"08606","locality":"Oelsnitz/Vogtland","municipality":{"key":"14523300","name":"Oelsnitz/Vogtl., Stadt","type":"Stadt"},"district":{"key":"14523","name":"Vogtlandkreis","type":"Landkreis"},"federalState":{"key":"14","name":"Sachsen"}},{"name":"Bachstr.","postalCode":"08606","locality":"Oelsnitz/Vogtland","municipality":{"key":"14523300","name":"Oelsnitz/Vogtl., Stadt","type":"Stadt"},"district":{"key":"14523","name":"Vogtlandkreis","type":"Landkreis"},"federalState":{"key":"14","name":"Sachsen"}},{"name":"Bahnhofstr.","postalCode":"08606","locality":"Oelsnitz/Vogtland","municipality":{"key":"14523300","name":"Oelsnitz/Vogtl., Stadt","type":"Stadt"},"district":{"key":"14523","name":"Vogtlandkreis","type":"Landkreis"},"federalState":{"key":"14","name":"Sachsen"}},{"name":"Bahnhofsweg","postalCode":"08606","locality":"Oelsnitz/Vogtland","municipality":{"key":"14523300","name":"Oelsnitz/Vogtl., Stadt","type":"Stadt"},"district":{"key":"14523","name":"Vogtlandkreis","type":"Landkreis"},"federalState":{"key":"14","name":"Sachsen"}},{"name":"Bergstr.","postalCode":"08606","locality":"Oelsnitz/Vogtland","municipality":{"key":"14523300","name":"Oelsnitz/Vogtl., Stadt","type":"Stadt"},"district":{"key":"14523","name":"Vogtlandkreis","type":"Landkreis"},"federalState":{"key":"14","name":"Sachsen"}},{"name":"Birkenstr.","postalCode":"08606","locality":"Oelsnitz/Vogtland","municipality":{"key":"14523300","name":"Oelsnitz/Vogtl., Stadt","type":"Stadt"},"district":{"key":"14523","name":"Vogtlandkreis","type":"Landkreis"},"federalState":{"key":"14","name":"Sachsen"}},{"name":"Birkenweg","postalCode":"08606","locality":"Oelsnitz/Vogtland","municipality":{"key":"14523300","name":"Oelsnitz/Vogtl., Stadt","type":"Stadt"},"district":{"key":"14523","name":"Vogtlandkreis","type":"Landkreis"},"federalState":{"key":"14","name":"Sachsen"}},{"name":"Boxbachweg","postalCode":"08606","locality":"Oelsnitz/Vogtland","municipality":{"key":"14523300","name":"Oelsnitz/Vogtl., Stadt","type":"Stadt"},"district":{"key":"14523","name":"Vogtlandkreis","type":"Landkreis"},"federalState":{"key":"14","name":"Sachsen"}},{"name":"Brunnenstr.","postalCode":"08606","locality":"Oelsnitz/Vogtland","municipality":{"key":"14523300","name":"Oelsnitz/Vogtl., Stadt","type":"Stadt"},"district":{"key":"14523","name":"Vogtlandkreis","type":"Landkreis"},"federalState":{"key":"14","name":"Sachsen"}},{"name":"Burgstr.","postalCode":"08606","locality":"Oelsnitz/Vogtland","municipality":{"key":"14523300","name":"Oelsnitz/Vogtl., Stadt","type":"Stadt"},"district":{"key":"14523","name":"Vogtlandkreis","type":"Landkreis"},"federalState":{"key":"14","name":"Sachsen"}},{"name":"Carl-Wilhelm-Koch-Str.","postalCode":"08606","locality":"Oelsnitz/Vogtland","municipality":{"key":"14523300","name":"Oelsnitz/Vogtl., Stadt","type":"Stadt"},"district":{"key":"14523","name":"Vogtlandkreis","type":"Landkreis"},"federalState":{"key":"14","name":"Sachsen"}},{"name":"Dobenecker Weg","postalCode":"08606","locality":"Oelsnitz/Vogtland","municipality":{"key":"14523300","name":"Oelsnitz/Vogtl., Stadt","type":"Stadt"},"district":{"key":"14523","name":"Vogtlandkreis","type":"Landkreis"},"federalState":{"key":"14","name":"Sachsen"}},{"name":"Dorfstr.","postalCode":"08606","locality":"Oelsnitz/Vogtland","municipality":{"key":"14523300","name":"Oelsnitz/Vogtl., Stadt","type":"Stadt"},"district":{"key":"14523","name":"Vogtlandkreis","type":"Landkreis"},"federalState":{"key":"14","name":"Sachsen"}},{"name":"Dreihöfer Schmiede","postalCode":"08606","locality":"Oelsnitz/Vogtland","municipality":{"key":"14523300","name":"Oelsnitz/Vogtl., Stadt","type":"Stadt"},"district":{"key":"14523","name":"Vogtlandkreis","type":"Landkreis"},"federalState":{"key":"14","name":"Sachsen"}},{"name":"Dr.-Fickert-Str.","postalCode":"08606","locality":"Oelsnitz/Vogtland","municipality":{"key":"14523300","name":"Oelsnitz/Vogtl., Stadt","type":"Stadt"},"district":{"key":"14523","name":"Vogtlandkreis","type":"Landkreis"},"federalState":{"key":"14","name":"Sachsen"}},{"name":"Dr.-Friedrichs-Str.","postalCode":"08606","locality":"Oelsnitz/Vogtland","municipality":{"key":"14523300","name":"Oelsnitz/Vogtl., Stadt","type":"Stadt"},"district":{"key":"14523","name":"Vogtlandkreis","type":"Landkreis"},"federalState":{"key":"14","name":"Sachsen"}},{"name":"Dr.-Külz-Str.","postalCode":"08606","locality":"Oelsnitz/Vogtland","municipality":{"key":"14523300","name":"Oelsnitz/Vogtl., Stadt","type":"Stadt"},"district":{"key":"14523","name":"Vogtlandkreis","type":"Landkreis"},"federalState":{"key":"14","name":"Sachsen"}},{"name":"Ebersbacher Str.","postalCode":"08606","locality":"Oelsnitz/Vogtland","municipality":{"key":"14523300","name":"Oelsnitz/Vogtl., Stadt","type":"Stadt"},"district":{"key":"14523","name":"Vogtlandkreis","type":"Landkreis"},"federalState":{"key":"14","name":"Sachsen"}},{"name":"Egerstr.","postalCode":"08606","locality":"Oelsnitz/Vogtland","municipality":{"key":"14523300","name":"Oelsnitz/Vogtl., Stadt","type":"Stadt"},"district":{"key":"14523","name":"Vogtlandkreis","type":"Landkreis"},"federalState":{"key":"14","name":"Sachsen"}},{"name":"Elsterstr.","postalCode":"08606","locality":"Oelsnitz/Vogtland","municipality":{"key":"14523300","name":"Oelsnitz/Vogtl., Stadt","type":"Stadt"},"district":{"key":"14523","name":"Vogtlandkreis","type":"Landkreis"},"federalState":{"key":"14","name":"Sachsen"}},{"name":"Fabrikstr.","postalCode":"08606","locality":"Oelsnitz/Vogtland","municipality":{"key":"14523300","name":"Oelsnitz/Vogtl., Stadt","type":"Stadt"},"district":{"key":"14523","name":"Vogtlandkreis","type":"Landkreis"},"federalState":{"key":"14","name":"Sachsen"}},{"name":"Falkensteiner Str.","postalCode":"08606","locality":"Oelsnitz/Vogtland","municipality":{"key":"14523300","name":"Oelsnitz/Vogtl., Stadt","type":"Stadt"},"district":{"key":"14523","name":"Vogtlandkreis","type":"Landkreis"},"federalState":{"key":"14","name":"Sachsen"}},{"name":"Feldstr.","postalCode":"08606","locality":"Oelsnitz/Vogtland","municipality":{"key":"14523300","name":"Oelsnitz/Vogtl., Stadt","type":"Stadt"},"district":{"key":"14523","name":"Vogtlandkreis","type":"Landkreis"},"federalState":{"key":"14","name":"Sachsen"}},{"name":"Finkenburgstr.","postalCode":"08606","locality":"Oelsnitz/Vogtland","municipality":{"key":"14523300","name":"Oelsnitz/Vogtl., Stadt","type":"Stadt"},"district":{"key":"14523","name":"Vogtlandkreis","type":"Landkreis"},"federalState":{"key":"14","name":"Sachsen"}},{"name":"Forststr.","postalCode":"08606","locality":"Oelsnitz/Vogtland","municipality":{"key":"14523300","name":"Oelsnitz/Vogtl., Stadt","type":"Stadt"},"district":{"key":"14523","name":"Vogtlandkreis","type":"Landkreis"},"federalState":{"key":"14","name":"Sachsen"}},{"name":"Friedhofspark","postalCode":"08606","locality":"Oelsnitz/Vogtland","municipality":{"key":"14523300","name":"Oelsnitz/Vogtl., Stadt","type":"Stadt"},"district":{"key":"14523","name":"Vogtlandkreis","type":"Landkreis"},"federalState":{"key":"14","name":"Sachsen"}},{"name":"Friedrich-Engels-Str.","postalCode":"08606","locality":"Oelsnitz/Vogtland","municipality":{"key":"14523300","name":"Oelsnitz/Vogtl., Stadt","type":"Stadt"},"district":{"key":"14523","name":"Vogtlandkreis","type":"Landkreis"},"federalState":{"key":"14","name":"Sachsen"}},{"name":"Fuchspöhler Weg","postalCode":"08606","locality":"Oelsnitz/Vogtland","municipality":{"key":"14523300","name":"Oelsnitz/Vogtl., Stadt","type":"Stadt"},"district":{"key":"14523","name":"Vogtlandkreis","type":"Landkreis"},"federalState":{"key":"14","name":"Sachsen"}},{"name":"Gartenhäuser","postalCode":"08606","locality":"Oelsnitz/Vogtland","municipality":{"key":"14523300","name":"Oelsnitz/Vogtl., Stadt","type":"Stadt"},"district":{"key":"14523","name":"Vogtlandkreis","type":"Landkreis"},"federalState":{"key":"14","name":"Sachsen"}},{"name":"Gartenstr.","postalCode":"08606","locality":"Oelsnitz/Vogtland","municipality":{"key":"14523300","name":"Oelsnitz/Vogtl., Stadt","type":"Stadt"},"district":{"key":"14523","name":"Vogtlandkreis","type":"Landkreis"},"federalState":{"key":"14","name":"Sachsen"}},{"name":"Gellertstr.","postalCode":"08606","locality":"Oelsnitz/Vogtland","municipality":{"key":"14523300","name":"Oelsnitz/Vogtl., Stadt","type":"Stadt"},"district":{"key":"14523","name":"Vogtlandkreis","type":"Landkreis"},"federalState":{"key":"14","name":"Sachsen"}},{"name":"Gerberstr.","postalCode":"08606","locality":"Oelsnitz/Vogtland","municipality":{"key":"14523300","name":"Oelsnitz/Vogtl., Stadt","type":"Stadt"},"district":{"key":"14523","name":"Vogtlandkreis","type":"Landkreis"},"federalState":{"key":"14","name":"Sachsen"}},{"name":"Gerichtsstr.","postalCode":"08606","locality":"Oelsnitz/Vogtland","municipality":{"key":"14523300","name":"Oelsnitz/Vogtl., Stadt","type":"Stadt"},"district":{"key":"14523","name":"Vogtlandkreis","type":"Landkreis"},"federalState":{"key":"14","name":"Sachsen"}},{"name":"Goethestr.","postalCode":"08606","locality":"Oelsnitz/Vogtland","municipality":{"key":"14523300","name":"Oelsnitz/Vogtl., Stadt","type":"Stadt"},"district":{"key":"14523","name":"Vogtlandkreis","type":"Landkreis"},"federalState":{"key":"14","name":"Sachsen"}},{"name":"Görnitzer Weg","postalCode":"08606","locality":"Oelsnitz/Vogtland","municipality":{"key":"14523300","name":"Oelsnitz/Vogtl., Stadt","type":"Stadt"},"district":{"key":"14523","name":"Vogtlandkreis","type":"Landkreis"},"federalState":{"key":"14","name":"Sachsen"}},{"name":"Grabenstr.","postalCode":"08606","locality":"Oelsnitz/Vogtland","municipality":{"key":"14523300","name":"Oelsnitz/Vogtl., Stadt","type":"Stadt"},"district":{"key":"14523","name":"Vogtlandkreis","type":"Landkreis"},"federalState":{"key":"14","name":"Sachsen"}},{"name":"Hainstr.","postalCode":"08606","locality":"Oelsnitz/Vogtland","municipality":{"key":"14523300","name":"Oelsnitz/Vogtl., Stadt","type":"Stadt"},"district":{"key":"14523","name":"Vogtlandkreis","type":"Landkreis"},"federalState":{"key":"14","name":"Sachsen"}},{"name":"Hartmannsgrüner Waldweg","postalCode":"08606","locality":"Oelsnitz/Vogtland","municipality":{"key":"14523300","name":"Oelsnitz/Vogtl., Stadt","type":"Stadt"},"district":{"key":"14523","name":"Vogtlandkreis","type":"Landkreis"},"federalState":{"key":"14","name":"Sachsen"}},{"name":"Hauptstr.","postalCode":"08606","locality":"Oelsnitz/Vogtland","municipality":{"key":"14523300","name":"Oelsnitz/Vogtl., Stadt","type":"Stadt"},"district":{"key":"14523","name":"Vogtlandkreis","type":"Landkreis"},"federalState":{"key":"14","name":"Sachsen"}},{"name":"Heimstättenstr.","postalCode":"08606","locality":"Oelsnitz/Vogtland","municipality":{"key":"14523300","name":"Oelsnitz/Vogtl., Stadt","type":"Stadt"},"district":{"key":"14523","name":"Vogtlandkreis","type":"Landkreis"},"federalState":{"key":"14","name":"Sachsen"}},{"name":"Heinrich-Heine-Str.","postalCode":"08606","locality":"Oelsnitz/Vogtland","municipality":{"key":"14523300","name":"Oelsnitz/Vogtl., Stadt","type":"Stadt"},"district":{"key":"14523","name":"Vogtlandkreis","type":"Landkreis"},"federalState":{"key":"14","name":"Sachsen"}},{"name":"Heppeplatz","postalCode":"08606","locality":"Oelsnitz/Vogtland","municipality":{"key":"14523300","name":"Oelsnitz/Vogtl., Stadt","type":"Stadt"},"district":{"key":"14523","name":"Vogtlandkreis","type":"Landkreis"},"federalState":{"key":"14","name":"Sachsen"}},{"name":"Hofer Str.","postalCode":"08606","locality":"Oelsnitz/Vogtland","municipality":{"key":"14523300","name":"Oelsnitz/Vogtl., Stadt","type":"Stadt"},"district":{"key":"14523","name":"Vogtlandkreis","type":"Landkreis"},"federalState":{"key":"14","name":"Sachsen"}},{"name":"Höhenweg","postalCode":"08606","locality":"Oelsnitz/Vogtland","municipality":{"key":"14523300","name":"Oelsnitz/Vogtl., Stadt","type":"Stadt"},"district":{"key":"14523","name":"Vogtlandkreis","type":"Landkreis"},"federalState":{"key":"14","name":"Sachsen"}},{"name":"Hoher Steg","postalCode":"08606","locality":"Oelsnitz/Vogtland","municipality":{"key":"14523300","name":"Oelsnitz/Vogtl., Stadt","type":"Stadt"},"district":{"key":"14523","name":"Vogtlandkreis","type":"Landkreis"},"federalState":{"key":"14","name":"Sachsen"}},{"name":"Hohe Str.","postalCode":"08606","locality":"Oelsnitz/Vogtland","municipality":{"key":"14523300","name":"Oelsnitz/Vogtl., Stadt","type":"Stadt"},"district":{"key":"14523","name":"Vogtlandkreis","type":"Landkreis"},"federalState":{"key":"14","name":"Sachsen"}},{"name":"Kantor-Georgi-Str.","postalCode":"08606","locality":"Oelsnitz/Vogtland","municipality":{"key":"14523300","name":"Oelsnitz/Vogtl., Stadt","type":"Stadt"},"district":{"key":"14523","name":"Vogtlandkreis","type":"Landkreis"},"federalState":{"key":"14","name":"Sachsen"}},{"name":"Karl-Liebknecht-Str.","postalCode":"08606","locality":"Oelsnitz/Vogtland","municipality":{"key":"14523300","name":"Oelsnitz/Vogtl., Stadt","type":"Stadt"},"district":{"key":"14523","name":"Vogtlandkreis","type":"Landkreis"},"federalState":{"key":"14","name":"Sachsen"}},{"name":"Karl-Marx-Platz","postalCode":"08606","locality":"Oelsnitz/Vogtland","municipality":{"key":"14523300","name":"Oelsnitz/Vogtl., Stadt","type":"Stadt"},"district":{"key":"14523","name":"Vogtlandkreis","type":"Landkreis"},"federalState":{"key":"14","name":"Sachsen"}},{"name":"Kirchplatz","postalCode":"08606","locality":"Oelsnitz/Vogtland","municipality":{"key":"14523300","name":"Oelsnitz/Vogtl., Stadt","type":"Stadt"},"district":{"key":"14523","name":"Vogtlandkreis","type":"Landkreis"},"federalState":{"key":"14","name":"Sachsen"}},{"name":"Lauterbacher Str.","postalCode":"08606","locality":"Oelsnitz/Vogtland","municipality":{"key":"14523300","name":"Oelsnitz/Vogtl., Stadt","type":"Stadt"},"district":{"key":"14523","name":"Vogtlandkreis","type":"Landkreis"},"federalState":{"key":"14","name":"Sachsen"}},{"name":"Lessingstr.","postalCode":"08606","locality":"Oelsnitz/Vogtland","municipality":{"key":"14523300","name":"Oelsnitz/Vogtl., Stadt","type":"Stadt"},"district":{"key":"14523","name":"Vogtlandkreis","type":"Landkreis"},"federalState":{"key":"14","name":"Sachsen"}},{"name":"Letzter Heller","postalCode":"08606","locality":"Oelsnitz/Vogtland","municipality":{"key":"14523300","name":"Oelsnitz/Vogtl., Stadt","type":"Stadt"},"district":{"key":"14523","name":"Vogtlandkreis","type":"Landkreis"},"federalState":{"key":"14","name":"Sachsen"}},{"name":"Lindenstr.","postalCode":"08606","locality":"Oelsnitz/Vogtland","municipality":{"key":"14523300","name":"Oelsnitz/Vogtl., Stadt","type":"Stadt"},"district":{"key":"14523","name":"Vogtlandkreis","type":"Landkreis"},"federalState":{"key":"14","name":"Sachsen"}},{"name":"Lohmsteinweg","postalCode":"08606","locality":"Oelsnitz/Vogtland","municipality":{"key":"14523300","name":"Oelsnitz/Vogtl., Stadt","type":"Stadt"},"district":{"key":"14523","name":"Vogtlandkreis","type":"Landkreis"},"federalState":{"key":"14","name":"Sachsen"}},{"name":"Louisenstr.","postalCode":"08606","locality":"Oelsnitz/Vogtland","municipality":{"key":"14523300","name":"Oelsnitz/Vogtl., Stadt","type":"Stadt"},"district":{"key":"14523","name":"Vogtlandkreis","type":"Landkreis"},"federalState":{"key":"14","name":"Sachsen"}},{"name":"Lutherstr.","postalCode":"08606","locality":"Oelsnitz/Vogtland","municipality":{"key":"14523300","name":"Oelsnitz/Vogtl., Stadt","type":"Stadt"},"district":{"key":"14523","name":"Vogtlandkreis","type":"Landkreis"},"federalState":{"key":"14","name":"Sachsen"}},{"name":"Marienstr.","postalCode":"08606","locality":"Oelsnitz/Vogtland","municipality":{"key":"14523300","name":"Oelsnitz/Vogtl., Stadt","type":"Stadt"},"district":{"key":"14523","name":"Vogtlandkreis","type":"Landkreis"},"federalState":{"key":"14","name":"Sachsen"}},{"name":"Markt","postalCode":"08606","locality":"Oelsnitz/Vogtland","municipality":{"key":"14523300","name":"Oelsnitz/Vogtl., Stadt","type":"Stadt"},"district":{"key":"14523","name":"Vogtlandkreis","type":"Landkreis"},"federalState":{"key":"14","name":"Sachsen"}},{"name":"Marktstr.","postalCode":"08606","locality":"Oelsnitz/Vogtland","municipality":{"key":"14523300","name":"Oelsnitz/Vogtl., Stadt","type":"Stadt"},"district":{"key":"14523","name":"Vogtlandkreis","type":"Landkreis"},"federalState":{"key":"14","name":"Sachsen"}},{"name":"Melanchthonstr.","postalCode":"08606","locality":"Oelsnitz/Vogtland","municipality":{"key":"14523300","name":"Oelsnitz/Vogtl., Stadt","type":"Stadt"},"district":{"key":"14523","name":"Vogtlandkreis","type":"Landkreis"},"federalState":{"key":"14","name":"Sachsen"}},{"name":"Meßbacher Str.","postalCode":"08606","locality":"Oelsnitz/Vogtland","municipality":{"key":"14523300","name":"Oelsnitz/Vogtl., Stadt","type":"Stadt"},"district":{"key":"14523","name":"Vogtlandkreis","type":"Landkreis"},"federalState":{"key":"14","name":"Sachsen"}},{"name":"Michaelisstr.","postalCode":"08606","locality":"Oelsnitz/Vogtland","municipality":{"key":"14523300","name":"Oelsnitz/Vogtl., Stadt","type":"Stadt"},"district":{"key":"14523","name":"Vogtlandkreis","type":"Landkreis"},"federalState":{"key":"14","name":"Sachsen"}},{"name":"Mittelstr.","postalCode":"08606","locality":"Oelsnitz/Vogtland","municipality":{"key":"14523300","name":"Oelsnitz/Vogtl., Stadt","type":"Stadt"},"district":{"key":"14523","name":"Vogtlandkreis","type":"Landkreis"},"federalState":{"key":"14","name":"Sachsen"}},{"name":"Mittelweg","postalCode":"08606","locality":"Oelsnitz/Vogtland","municipality":{"key":"14523300","name":"Oelsnitz/Vogtl., Stadt","type":"Stadt"},"district":{"key":"14523","name":"Vogtlandkreis","type":"Landkreis"},"federalState":{"key":"14","name":"Sachsen"}},{"name":"Mosenstr.","postalCode":"08606","locality":"Oelsnitz/Vogtland","municipality":{"key":"14523300","name":"Oelsnitz/Vogtl., Stadt","type":"Stadt"},"district":{"key":"14523","name":"Vogtlandkreis","type":"Landkreis"},"federalState":{"key":"14","name":"Sachsen"}},{"name":"Mühlberg","postalCode":"08606","locality":"Oelsnitz/Vogtland","municipality":{"key":"14523300","name":"Oelsnitz/Vogtl., Stadt","type":"Stadt"},"district":{"key":"14523","name":"Vogtlandkreis","type":"Landkreis"},"federalState":{"key":"14","name":"Sachsen"}},{"name":"Mühlstr.","postalCode":"08606","locality":"Oelsnitz/Vogtland","municipality":{"key":"14523300","name":"Oelsnitz/Vogtl., Stadt","type":"Stadt"},"district":{"key":"14523","name":"Vogtlandkreis","type":"Landkreis"},"federalState":{"key":"14","name":"Sachsen"}},{"name":"Nordstr.","postalCode":"08606","locality":"Oelsnitz/Vogtland","municipality":{"key":"14523300","name":"Oelsnitz/Vogtl., Stadt","type":"Stadt"},"district":{"key":"14523","name":"Vogtlandkreis","type":"Landkreis"},"federalState":{"key":"14","name":"Sachsen"}},{"name":"Obere Kirchstr.","postalCode":"08606","locality":"Oelsnitz/Vogtland","municipality":{"key":"14523300","name":"Oelsnitz/Vogtl., Stadt","type":"Stadt"},"district":{"key":"14523","name":"Vogtlandkreis","type":"Landkreis"},"federalState":{"key":"14","name":"Sachsen"}},{"name":"Oberhermsgrüner Weg","postalCode":"08606","locality":"Oelsnitz/Vogtland","municipality":{"key":"14523300","name":"Oelsnitz/Vogtl., Stadt","type":"Stadt"},"district":{"key":"14523","name":"Vogtlandkreis","type":"Landkreis"},"federalState":{"key":"14","name":"Sachsen"}},{"name":"Obermarxgrüner Weg","postalCode":"08606","locality":"Oelsnitz/Vogtland","municipality":{"key":"14523300","name":"Oelsnitz/Vogtl., Stadt","type":"Stadt"},"district":{"key":"14523","name":"Vogtlandkreis","type":"Landkreis"},"federalState":{"key":"14","name":"Sachsen"}},{"name":"Oelsnitzer Landstr.","postalCode":"08606","locality":"Oelsnitz/Vogtland","municipality":{"key":"14523300","name":"Oelsnitz/Vogtl., Stadt","type":"Stadt"},"district":{"key":"14523","name":"Vogtlandkreis","type":"Landkreis"},"federalState":{"key":"14","name":"Sachsen"}},{"name":"Oelsnitzer Str.","postalCode":"08606","locality":"Oelsnitz/Vogtland","municipality":{"key":"14523300","name":"Oelsnitz/Vogtl., Stadt","type":"Stadt"},"district":{"key":"14523","name":"Vogtlandkreis","type":"Landkreis"},"federalState":{"key":"14","name":"Sachsen"}},{"name":"Oststr.","postalCode":"08606","locality":"Oelsnitz/Vogtland","municipality":{"key":"14523300","name":"Oelsnitz/Vogtl., Stadt","type":"Stadt"},"district":{"key":"14523","name":"Vogtlandkreis","type":"Landkreis"},"federalState":{"key":"14","name":"Sachsen"}},{"name":"Otto-Riedel-Str.","postalCode":"08606","locality":"Oelsnitz/Vogtland","municipality":{"key":"14523300","name":"Oelsnitz/Vogtl., Stadt","type":"Stadt"},"district":{"key":"14523","name":"Vogtlandkreis","type":"Landkreis"},"federalState":{"key":"14","name":"Sachsen"}},{"name":"Paul-Apitzsch-Str.","postalCode":"08606","locality":"Oelsnitz/Vogtland","municipality":{"key":"14523300","name":"Oelsnitz/Vogtl., Stadt","type":"Stadt"},"district":{"key":"14523","name":"Vogtlandkreis","type":"Landkreis"},"federalState":{"key":"14","name":"Sachsen"}},{"name":"Paul-Rebhuhn-Str.","postalCode":"08606","locality":"Oelsnitz/Vogtland","municipality":{"key":"14523300","name":"Oelsnitz/Vogtl., Stadt","type":"Stadt"},"district":{"key":"14523","name":"Vogtlandkreis","type":"Landkreis"},"federalState":{"key":"14","name":"Sachsen"}},{"name":"Pestalozzistr.","postalCode":"08606","locality":"Oelsnitz/Vogtland","municipality":{"key":"14523300","name":"Oelsnitz/Vogtl., Stadt","type":"Stadt"},"district":{"key":"14523","name":"Vogtlandkreis","type":"Landkreis"},"federalState":{"key":"14","name":"Sachsen"}},{"name":"Pfortenstr.","postalCode":"08606","locality":"Oelsnitz/Vogtland","municipality":{"key":"14523300","name":"Oelsnitz/Vogtl., Stadt","type":"Stadt"},"district":{"key":"14523","name":"Vogtlandkreis","type":"Landkreis"},"federalState":{"key":"14","name":"Sachsen"}},{"name":"Pirker Str.","postalCode":"08606","locality":"Oelsnitz/Vogtland","municipality":{"key":"14523300","name":"Oelsnitz/Vogtl., Stadt","type":"Stadt"},"district":{"key":"14523","name":"Vogtlandkreis","type":"Landkreis"},"federalState":{"key":"14","name":"Sachsen"}},{"name":"Plauensche Str.","postalCode":"08606","locality":"Oelsnitz/Vogtland","municipality":{"key":"14523300","name":"Oelsnitz/Vogtl., Stadt","type":"Stadt"},"district":{"key":"14523","name":"Vogtlandkreis","type":"Landkreis"},"federalState":{"key":"14","name":"Sachsen"}},{"name":"Poetenweg","postalCode":"08606","locality":"Oelsnitz/Vogtland","municipality":{"key":"14523300","name":"Oelsnitz/Vogtl., Stadt","type":"Stadt"},"district":{"key":"14523","name":"Vogtlandkreis","type":"Landkreis"},"federalState":{"key":"14","name":"Sachsen"}},{"name":"Postberg","postalCode":"08606","locality":"Oelsnitz/Vogtland","municipality":{"key":"14523300","name":"Oelsnitz/Vogtl., Stadt","type":"Stadt"},"district":{"key":"14523","name":"Vogtlandkreis","type":"Landkreis"},"federalState":{"key":"14","name":"Sachsen"}},{"name":"Querstr.","postalCode":"08606","locality":"Oelsnitz/Vogtland","municipality":{"key":"14523300","name":"Oelsnitz/Vogtl., Stadt","type":"Stadt"},"district":{"key":"14523","name":"Vogtlandkreis","type":"Landkreis"},"federalState":{"key":"14","name":"Sachsen"}},{"name":"Raasdorfer Leichenweg","postalCode":"08606","locality":"Oelsnitz/Vogtland","municipality":{"key":"14523300","name":"Oelsnitz/Vogtl., Stadt","type":"Stadt"},"district":{"key":"14523","name":"Vogtlandkreis","type":"Landkreis"},"federalState":{"key":"14","name":"Sachsen"}},{"name":"Raasdorfer Str.","postalCode":"08606","locality":"Oelsnitz/Vogtland","municipality":{"key":"14523300","name":"Oelsnitz/Vogtl., Stadt","type":"Stadt"},"district":{"key":"14523","name":"Vogtlandkreis","type":"Landkreis"},"federalState":{"key":"14","name":"Sachsen"}},{"name":"Raschauer Str.","postalCode":"08606","locality":"Oelsnitz/Vogtland","municipality":{"key":"14523300","name":"Oelsnitz/Vogtl., Stadt","type":"Stadt"},"district":{"key":"14523","name":"Vogtlandkreis","type":"Landkreis"},"federalState":{"key":"14","name":"Sachsen"}},{"name":"Rosa-Luxemburg-Str.","postalCode":"08606","locality":"Oelsnitz/Vogtland","municipality":{"key":"14523300","name":"Oelsnitz/Vogtl., Stadt","type":"Stadt"},"district":{"key":"14523","name":"Vogtlandkreis","type":"Landkreis"},"federalState":{"key":"14","name":"Sachsen"}},{"name":"Rosenmüllerstr.","postalCode":"08606","locality":"Oelsnitz/Vogtland","municipality":{"key":"14523300","name":"Oelsnitz/Vogtl., Stadt","type":"Stadt"},"district":{"key":"14523","name":"Vogtlandkreis","type":"Landkreis"},"federalState":{"key":"14","name":"Sachsen"}},{"name":"Rosenthal","postalCode":"08606","locality":"Oelsnitz/Vogtland","municipality":{"key":"14523300","name":"Oelsnitz/Vogtl., Stadt","type":"Stadt"},"district":{"key":"14523","name":"Vogtlandkreis","type":"Landkreis"},"federalState":{"key":"14","name":"Sachsen"}},{"name":"Rudolf-Breitscheid-Platz","postalCode":"08606","locality":"Oelsnitz/Vogtland","municipality":{"key":"14523300","name":"Oelsnitz/Vogtl., Stadt","type":"Stadt"},"district":{"key":"14523","name":"Vogtlandkreis","type":"Landkreis"},"federalState":{"key":"14","name":"Sachsen"}},{"name":"Schafhäuser","postalCode":"08606","locality":"Oelsnitz/Vogtland","municipality":{"key":"14523300","name":"Oelsnitz/Vogtl., Stadt","type":"Stadt"},"district":{"key":"14523","name":"Vogtlandkreis","type":"Landkreis"},"federalState":{"key":"14","name":"Sachsen"}},{"name":"Schillerstr.","postalCode":"08606","locality":"Oelsnitz/Vogtland","municipality":{"key":"14523300","name":"Oelsnitz/Vogtl., Stadt","type":"Stadt"},"district":{"key":"14523","name":"Vogtlandkreis","type":"Landkreis"},"federalState":{"key":"14","name":"Sachsen"}},{"name":"Schlehenweg","postalCode":"08606","locality":"Oelsnitz/Vogtland","municipality":{"key":"14523300","name":"Oelsnitz/Vogtl., Stadt","type":"Stadt"},"district":{"key":"14523","name":"Vogtlandkreis","type":"Landkreis"},"federalState":{"key":"14","name":"Sachsen"}},{"name":"Schleizer Str.","postalCode":"08606","locality":"Oelsnitz/Vogtland","municipality":{"key":"14523300","name":"Oelsnitz/Vogtl., Stadt","type":"Stadt"},"district":{"key":"14523","name":"Vogtlandkreis","type":"Landkreis"},"federalState":{"key":"14","name":"Sachsen"}},{"name":"Schloßstr.","postalCode":"08606","locality":"Oelsnitz/Vogtland","municipality":{"key":"14523300","name":"Oelsnitz/Vogtl., Stadt","type":"Stadt"},"district":{"key":"14523","name":"Vogtlandkreis","type":"Landkreis"},"federalState":{"key":"14","name":"Sachsen"}},{"name":"Schmidtstr.","postalCode":"08606","locality":"Oelsnitz/Vogtland","municipality":{"key":"14523300","name":"Oelsnitz/Vogtl., Stadt","type":"Stadt"},"district":{"key":"14523","name":"Vogtlandkreis","type":"Landkreis"},"federalState":{"key":"14","name":"Sachsen"}},{"name":"Schönbrunner Str.","postalCode":"08606","locality":"Oelsnitz/Vogtland","municipality":{"key":"14523300","name":"Oelsnitz/Vogtl., Stadt","type":"Stadt"},"district":{"key":"14523","name":"Vogtlandkreis","type":"Landkreis"},"federalState":{"key":"14","name":"Sachsen"}},{"name":"Schulstr.","postalCode":"08606","locality":"Oelsnitz/Vogtland","municipality":{"key":"14523300","name":"Oelsnitz/Vogtl., Stadt","type":"Stadt"},"district":{"key":"14523","name":"Vogtlandkreis","type":"Landkreis"},"federalState":{"key":"14","name":"Sachsen"}},{"name":"Sonnengäßchen","postalCode":"08606","locality":"Oelsnitz/Vogtland","municipality":{"key":"14523300","name":"Oelsnitz/Vogtl., Stadt","type":"Stadt"},"district":{"key":"14523","name":"Vogtlandkreis","type":"Landkreis"},"federalState":{"key":"14","name":"Sachsen"}},{"name":"Sportpark","postalCode":"08606","locality":"Oelsnitz/Vogtland","municipality":{"key":"14523300","name":"Oelsnitz/Vogtl., Stadt","type":"Stadt"},"district":{"key":"14523","name":"Vogtlandkreis","type":"Landkreis"},"federalState":{"key":"14","name":"Sachsen"}},{"name":"Staumauer","postalCode":"08606","locality":"Oelsnitz/Vogtland","municipality":{"key":"14523300","name":"Oelsnitz/Vogtl., Stadt","type":"Stadt"},"district":{"key":"14523","name":"Vogtlandkreis","type":"Landkreis"},"federalState":{"key":"14","name":"Sachsen"}},{"name":"Steinmühlenhäuser","postalCode":"08606","locality":"Oelsnitz/Vogtland","municipality":{"key":"14523300","name":"Oelsnitz/Vogtl., Stadt","type":"Stadt"},"district":{"key":"14523","name":"Vogtlandkreis","type":"Landkreis"},"federalState":{"key":"14","name":"Sachsen"}},{"name":"Steinmühlenweg","postalCode":"08606","locality":"Oelsnitz/Vogtland","municipality":{"key":"14523300","name":"Oelsnitz/Vogtl., Stadt","type":"Stadt"},"district":{"key":"14523","name":"Vogtlandkreis","type":"Landkreis"},"federalState":{"key":"14","name":"Sachsen"}},{"name":"Stephanstr.","postalCode":"08606","locality":"Oelsnitz/Vogtland","municipality":{"key":"14523300","name":"Oelsnitz/Vogtl., Stadt","type":"Stadt"},"district":{"key":"14523","name":"Vogtlandkreis","type":"Landkreis"},"federalState":{"key":"14","name":"Sachsen"}},{"name":"Stiftsweg","postalCode":"08606","locality":"Oelsnitz/Vogtland","municipality":{"key":"14523300","name":"Oelsnitz/Vogtl., Stadt","type":"Stadt"},"district":{"key":"14523","name":"Vogtlandkreis","type":"Landkreis"},"federalState":{"key":"14","name":"Sachsen"}},{"name":"Stöhrgasse","postalCode":"08606","locality":"Oelsnitz/Vogtland","municipality":{"key":"14523300","name":"Oelsnitz/Vogtl., Stadt","type":"Stadt"},"district":{"key":"14523","name":"Vogtlandkreis","type":"Landkreis"},"federalState":{"key":"14","name":"Sachsen"}},{"name":"Str. des Friedens","postalCode":"08606","locality":"Oelsnitz/Vogtland","municipality":{"key":"14523300","name":"Oelsnitz/Vogtl., Stadt","type":"Stadt"},"district":{"key":"14523","name":"Vogtlandkreis","type":"Landkreis"},"federalState":{"key":"14","name":"Sachsen"}},{"name":"Str. zum Ferienheim","postalCode":"08606","locality":"Oelsnitz/Vogtland","municipality":{"key":"14523300","name":"Oelsnitz/Vogtl., Stadt","type":"Stadt"},"district":{"key":"14523","name":"Vogtlandkreis","type":"Landkreis"},"federalState":{"key":"14","name":"Sachsen"}},{"name":"Südstr.","postalCode":"08606","locality":"Oelsnitz/Vogtland","municipality":{"key":"14523300","name":"Oelsnitz/Vogtl., Stadt","type":"Stadt"},"district":{"key":"14523","name":"Vogtlandkreis","type":"Landkreis"},"federalState":{"key":"14","name":"Sachsen"}},{"name":"Talsperrenstr.","postalCode":"08606","locality":"Oelsnitz/Vogtland","municipality":{"key":"14523300","name":"Oelsnitz/Vogtl., Stadt","type":"Stadt"},"district":{"key":"14523","name":"Vogtlandkreis","type":"Landkreis"},"federalState":{"key":"14","name":"Sachsen"}},{"name":"Tanzermühle","postalCode":"08606","locality":"Oelsnitz/Vogtland","municipality":{"key":"14523300","name":"Oelsnitz/Vogtl., Stadt","type":"Stadt"},"district":{"key":"14523","name":"Vogtlandkreis","type":"Landkreis"},"federalState":{"key":"14","name":"Sachsen"}},{"name":"Teichgasse","postalCode":"08606","locality":"Oelsnitz/Vogtland","municipality":{"key":"14523300","name":"Oelsnitz/Vogtl., Stadt","type":"Stadt"},"district":{"key":"14523","name":"Vogtlandkreis","type":"Landkreis"},"federalState":{"key":"14","name":"Sachsen"}},{"name":"Teichstr.","postalCode":"08606","locality":"Oelsnitz/Vogtland","municipality":{"key":"14523300","name":"Oelsnitz/Vogtl., Stadt","type":"Stadt"},"district":{"key":"14523","name":"Vogtlandkreis","type":"Landkreis"},"federalState":{"key":"14","name":"Sachsen"}},{"name":"Theumaer Str.","postalCode":"08606","locality":"Oelsnitz/Vogtland","municipality":{"key":"14523300","name":"Oelsnitz/Vogtl., Stadt","type":"Stadt"},"district":{"key":"14523","name":"Vogtlandkreis","type":"Landkreis"},"federalState":{"key":"14","name":"Sachsen"}},{"name":"Thomas-Müntzer-Weg","postalCode":"08606","locality":"Oelsnitz/Vogtland","municipality":{"key":"14523300","name":"Oelsnitz/Vogtl., Stadt","type":"Stadt"},"district":{"key":"14523","name":"Vogtlandkreis","type":"Landkreis"},"federalState":{"key":"14","name":"Sachsen"}},{"name":"Tirpersdorfer Str.","postalCode":"08606","locality":"Oelsnitz/Vogtland","municipality":{"key":"14523300","name":"Oelsnitz/Vogtl., Stadt","type":"Stadt"},"district":{"key":"14523","name":"Vogtlandkreis","type":"Landkreis"},"federalState":{"key":"14","name":"Sachsen"}},{"name":"Tirschendorfer Str.","postalCode":"08606","locality":"Oelsnitz/Vogtland","municipality":{"key":"14523300","name":"Oelsnitz/Vogtl., Stadt","type":"Stadt"},"district":{"key":"14523","name":"Vogtlandkreis","type":"Landkreis"},"federalState":{"key":"14","name":"Sachsen"}},{"name":"Türbelweg","postalCode":"08606","locality":"Oelsnitz/Vogtland","municipality":{"key":"14523300","name":"Oelsnitz/Vogtl., Stadt","type":"Stadt"},"district":{"key":"14523","name":"Vogtlandkreis","type":"Landkreis"},"federalState":{"key":"14","name":"Sachsen"}},{"name":"Turnstr.","postalCode":"08606","locality":"Oelsnitz/Vogtland","municipality":{"key":"14523300","name":"Oelsnitz/Vogtl., Stadt","type":"Stadt"},"district":{"key":"14523","name":"Vogtlandkreis","type":"Landkreis"},"federalState":{"key":"14","name":"Sachsen"}},{"name":"Untere Kirchstr.","postalCode":"08606","locality":"Oelsnitz/Vogtland","municipality":{"key":"14523300","name":"Oelsnitz/Vogtl., Stadt","type":"Stadt"},"district":{"key":"14523","name":"Vogtlandkreis","type":"Landkreis"},"federalState":{"key":"14","name":"Sachsen"}},{"name":"Unterer Görnitzer Weg","postalCode":"08606","locality":"Oelsnitz/Vogtland","municipality":{"key":"14523300","name":"Oelsnitz/Vogtl., Stadt","type":"Stadt"},"district":{"key":"14523","name":"Vogtlandkreis","type":"Landkreis"},"federalState":{"key":"14","name":"Sachsen"}},{"name":"Unterer Höhenweg","postalCode":"08606","locality":"Oelsnitz/Vogtland","municipality":{"key":"14523300","name":"Oelsnitz/Vogtl., Stadt","type":"Stadt"},"district":{"key":"14523","name":"Vogtlandkreis","type":"Landkreis"},"federalState":{"key":"14","name":"Sachsen"}},{"name":"Unterführung","postalCode":"08606","locality":"Oelsnitz/Vogtland","municipality":{"key":"14523300","name":"Oelsnitz/Vogtl., Stadt","type":"Stadt"},"district":{"key":"14523","name":"Vogtlandkreis","type":"Landkreis"},"federalState":{"key":"14","name":"Sachsen"}},{"name":"Unterlosaer Str.","postalCode":"08606","locality":"Oelsnitz/Vogtland","municipality":{"key":"14523300","name":"Oelsnitz/Vogtl., Stadt","type":"Stadt"},"district":{"key":"14523","name":"Vogtlandkreis","type":"Landkreis"},"federalState":{"key":"14","name":"Sachsen"}},{"name":"Unterlosaer Weg","postalCode":"08606","locality":"Oelsnitz/Vogtland","municipality":{"key":"14523300","name":"Oelsnitz/Vogtl., Stadt","type":"Stadt"},"district":{"key":"14523","name":"Vogtlandkreis","type":"Landkreis"},"federalState":{"key":"14","name":"Sachsen"}},{"name":"Untermarxgrüner Str.","postalCode":"08606","locality":"Oelsnitz/Vogtland","municipality":{"key":"14523300","name":"Oelsnitz/Vogtl., Stadt","type":"Stadt"},"district":{"key":"14523","name":"Vogtlandkreis","type":"Landkreis"},"federalState":{"key":"14","name":"Sachsen"}},{"name":"Untermarxgrüner Weg","postalCode":"08606","locality":"Oelsnitz/Vogtland","municipality":{"key":"14523300","name":"Oelsnitz/Vogtl., Stadt","type":"Stadt"},"district":{"key":"14523","name":"Vogtlandkreis","type":"Landkreis"},"federalState":{"key":"14","name":"Sachsen"}},{"name":"Vogelherdweg","postalCode":"08606","locality":"Oelsnitz/Vogtland","municipality":{"key":"14523300","name":"Oelsnitz/Vogtl., Stadt","type":"Stadt"},"district":{"key":"14523","name":"Vogtlandkreis","type":"Landkreis"},"federalState":{"key":"14","name":"Sachsen"}},{"name":"Voigtsberger Str.","postalCode":"08606","locality":"Oelsnitz/Vogtland","municipality":{"key":"14523300","name":"Oelsnitz/Vogtl., Stadt","type":"Stadt"},"district":{"key":"14523","name":"Vogtlandkreis","type":"Landkreis"},"federalState":{"key":"14","name":"Sachsen"}},{"name":"Waldstr.","postalCode":"08606","locality":"Oelsnitz/Vogtland","municipality":{"key":"14523300","name":"Oelsnitz/Vogtl., Stadt","type":"Stadt"},"district":{"key":"14523","name":"Vogtlandkreis","type":"Landkreis"},"federalState":{"key":"14","name":"Sachsen"}},{"name":"Walkmühlenhäuser","postalCode":"08606","locality":"Oelsnitz/Vogtland","municipality":{"key":"14523300","name":"Oelsnitz/Vogtl., Stadt","type":"Stadt"},"district":{"key":"14523","name":"Vogtlandkreis","type":"Landkreis"},"federalState":{"key":"14","name":"Sachsen"}},{"name":"Wallstr.","postalCode":"08606","locality":"Oelsnitz/Vogtland","municipality":{"key":"14523300","name":"Oelsnitz/Vogtl., Stadt","type":"Stadt"},"district":{"key":"14523","name":"Vogtlandkreis","type":"Landkreis"},"federalState":{"key":"14","name":"Sachsen"}},{"name":"Walther-Rathenau-Str.","postalCode":"08606","locality":"Oelsnitz/Vogtland","municipality":{"key":"14523300","name":"Oelsnitz/Vogtl., Stadt","type":"Stadt"},"district":{"key":"14523","name":"Vogtlandkreis","type":"Landkreis"},"federalState":{"key":"14","name":"Sachsen"}},{"name":"Weberstr.","postalCode":"08606","locality":"Oelsnitz/Vogtland","municipality":{"key":"14523300","name":"Oelsnitz/Vogtl., Stadt","type":"Stadt"},"district":{"key":"14523","name":"Vogtlandkreis","type":"Landkreis"},"federalState":{"key":"14","name":"Sachsen"}},{"name":"Wehrstr.","postalCode":"08606","locality":"Oelsnitz/Vogtland","municipality":{"key":"14523300","name":"Oelsnitz/Vogtl., Stadt","type":"Stadt"},"district":{"key":"14523","name":"Vogtlandkreis","type":"Landkreis"},"federalState":{"key":"14","name":"Sachsen"}},{"name":"Weischlitzer Str.","postalCode":"08606","locality":"Oelsnitz/Vogtland","municipality":{"key":"14523300","name":"Oelsnitz/Vogtl., Stadt","type":"Stadt"},"district":{"key":"14523","name":"Vogtlandkreis","type":"Landkreis"},"federalState":{"key":"14","name":"Sachsen"}},{"name":"Weststr.","postalCode":"08606","locality":"Oelsnitz/Vogtland","municipality":{"key":"14523300","name":"Oelsnitz/Vogtl., Stadt","type":"Stadt"},"district":{"key":"14523","name":"Vogtlandkreis","type":"Landkreis"},"federalState":{"key":"14","name":"Sachsen"}},{"name":"Wiesenstr.","postalCode":"08606","locality":"Oelsnitz/Vogtland","municipality":{"key":"14523300","name":"Oelsnitz/Vogtl., Stadt","type":"Stadt"},"district":{"key":"14523","name":"Vogtlandkreis","type":"Landkreis"},"federalState":{"key":"14","name":"Sachsen"}},{"name":"Willy-Brandt-Ring","postalCode":"08606","locality":"Oelsnitz/Vogtland","municipality":{"key":"14523300","name":"Oelsnitz/Vogtl., Stadt","type":"Stadt"},"district":{"key":"14523","name":"Vogtlandkreis","type":"Landkreis"},"federalState":{"key":"14","name":"Sachsen"}},{"name":"Windmühlenweg","postalCode":"08606","locality":"Oelsnitz/Vogtland","municipality":{"key":"14523300","name":"Oelsnitz/Vogtl., Stadt","type":"Stadt"},"district":{"key":"14523","name":"Vogtlandkreis","type":"Landkreis"},"federalState":{"key":"14","name":"Sachsen"}},{"name":"Zaulsdorfer Str.","postalCode":"08606","locality":"Oelsnitz/Vogtland","municipality":{"key":"14523300","name":"Oelsnitz/Vogtl., Stadt","type":"Stadt"},"district":{"key":"14523","name":"Vogtlandkreis","type":"Landkreis"},"federalState":{"key":"14","name":"Sachsen"}},{"name":"Zum Forst","postalCode":"08606","locality":"Oelsnitz/Vogtland","municipality":{"key":"14523300","name":"Oelsnitz/Vogtl., Stadt","type":"Stadt"},"district":{"key":"14523","name":"Vogtlandkreis","type":"Landkreis"},"federalState":{"key":"14","name":"Sachsen"}},{"name":"Zum Lauterbacher Steinbruch","postalCode":"08606","locality":"Oelsnitz/Vogtland","municipality":{"key":"14523300","name":"Oelsnitz/Vogtl., Stadt","type":"Stadt"},"district":{"key":"14523","name":"Vogtlandkreis","type":"Landkreis"},"federalState":{"key":"14","name":"Sachsen"}},{"name":"Zum Raschauer Grund","postalCode":"08606","locality":"Oelsnitz/Vogtland","municipality":{"key":"14523300","name":"Oelsnitz/Vogtl., Stadt","type":"Stadt"},"district":{"key":"14523","name":"Vogtlandkreis","type":"Landkreis"},"federalState":{"key":"14","name":"Sachsen"}},{"name":"Zum Vogelherd","postalCode":"08606","locality":"Oelsnitz/Vogtland","municipality":{"key":"14523300","name":"Oelsnitz/Vogtl., Stadt","type":"Stadt"},"district":{"key":"14523","name":"Vogtlandkreis","type":"Landkreis"},"federalState":{"key":"14","name":"Sachsen"}},{"name":"Ährenfeld","postalCode":"08606","locality":"Oelsnitz/Vogtland","municipality":{"key":"14523300","name":"Oelsnitz/Vogtl., Stadt","type":"Stadt"},"district":{"key":"14523","name":"Vogtlandkreis","type":"Landkreis"},"federalState":{"key":"14","name":"Sachsen"}},]