[{"name":"Am Wald","postalCode":"54347","locality":"Neumagen-Dhron","municipality":{"key":"07231092","name":"Neumagen-Dhron","type":"Kreisangehörige_Gemeinde"},"district":{"key":"07231","name":"Bernkastel-Wittlich","type":"Landkreis"},"federalState":{"key":"07","name":"Rheinland-Pfalz"}},{"name":"Auf dem Bungert","postalCode":"54347","locality":"Neumagen-Dhron","municipality":{"key":"07231092","name":"Neumagen-Dhron","type":"Kreisangehörige_Gemeinde"},"district":{"key":"07231","name":"Bernkastel-Wittlich","type":"Landkreis"},"federalState":{"key":"07","name":"Rheinland-Pfalz"}},{"name":"Auf Säbsel","postalCode":"54347","locality":"Neumagen-Dhron","municipality":{"key":"07231092","name":"Neumagen-Dhron","type":"Kreisangehörige_Gemeinde"},"district":{"key":"07231","name":"Bernkastel-Wittlich","type":"Landkreis"},"federalState":{"key":"07","name":"Rheinland-Pfalz"}},{"name":"Ausoniusstr.","postalCode":"54347","locality":"Neumagen-Dhron","municipality":{"key":"07231092","name":"Neumagen-Dhron","type":"Kreisangehörige_Gemeinde"},"district":{"key":"07231","name":"Bernkastel-Wittlich","type":"Landkreis"},"federalState":{"key":"07","name":"Rheinland-Pfalz"}},{"name":"Balduinstr.","postalCode":"54347","locality":"Neumagen-Dhron","municipality":{"key":"07231092","name":"Neumagen-Dhron","type":"Kreisangehörige_Gemeinde"},"district":{"key":"07231","name":"Bernkastel-Wittlich","type":"Landkreis"},"federalState":{"key":"07","name":"Rheinland-Pfalz"}},{"name":"Bergstr.","postalCode":"54347","locality":"Neumagen-Dhron","municipality":{"key":"07231092","name":"Neumagen-Dhron","type":"Kreisangehörige_Gemeinde"},"district":{"key":"07231","name":"Bernkastel-Wittlich","type":"Landkreis"},"federalState":{"key":"07","name":"Rheinland-Pfalz"}},{"name":"Bogengasse","postalCode":"54347","locality":"Neumagen-Dhron","municipality":{"key":"07231092","name":"Neumagen-Dhron","type":"Kreisangehörige_Gemeinde"},"district":{"key":"07231","name":"Bernkastel-Wittlich","type":"Landkreis"},"federalState":{"key":"07","name":"Rheinland-Pfalz"}},{"name":"Brückenstr.","postalCode":"54347","locality":"Neumagen-Dhron","municipality":{"key":"07231092","name":"Neumagen-Dhron","type":"Kreisangehörige_Gemeinde"},"district":{"key":"07231","name":"Bernkastel-Wittlich","type":"Landkreis"},"federalState":{"key":"07","name":"Rheinland-Pfalz"}},{"name":"Burgstr.","postalCode":"54347","locality":"Neumagen-Dhron","municipality":{"key":"07231092","name":"Neumagen-Dhron","type":"Kreisangehörige_Gemeinde"},"district":{"key":"07231","name":"Bernkastel-Wittlich","type":"Landkreis"},"federalState":{"key":"07","name":"Rheinland-Pfalz"}},{"name":"Dhrontalstr.","postalCode":"54347","locality":"Neumagen-Dhron","municipality":{"key":"07231092","name":"Neumagen-Dhron","type":"Kreisangehörige_Gemeinde"},"district":{"key":"07231","name":"Bernkastel-Wittlich","type":"Landkreis"},"federalState":{"key":"07","name":"Rheinland-Pfalz"}},{"name":"Domfreihof","postalCode":"54347","locality":"Neumagen-Dhron","municipality":{"key":"07231092","name":"Neumagen-Dhron","type":"Kreisangehörige_Gemeinde"},"district":{"key":"07231","name":"Bernkastel-Wittlich","type":"Landkreis"},"federalState":{"key":"07","name":"Rheinland-Pfalz"}},{"name":"Eberhardstr.","postalCode":"54347","locality":"Neumagen-Dhron","municipality":{"key":"07231092","name":"Neumagen-Dhron","type":"Kreisangehörige_Gemeinde"},"district":{"key":"07231","name":"Bernkastel-Wittlich","type":"Landkreis"},"federalState":{"key":"07","name":"Rheinland-Pfalz"}},{"name":"Engelsgasse","postalCode":"54347","locality":"Neumagen-Dhron","municipality":{"key":"07231092","name":"Neumagen-Dhron","type":"Kreisangehörige_Gemeinde"},"district":{"key":"07231","name":"Bernkastel-Wittlich","type":"Landkreis"},"federalState":{"key":"07","name":"Rheinland-Pfalz"}},{"name":"Enschenmühlerweg","postalCode":"54347","locality":"Neumagen-Dhron","municipality":{"key":"07231092","name":"Neumagen-Dhron","type":"Kreisangehörige_Gemeinde"},"district":{"key":"07231","name":"Bernkastel-Wittlich","type":"Landkreis"},"federalState":{"key":"07","name":"Rheinland-Pfalz"}},{"name":"Flugplatzweg","postalCode":"54347","locality":"Neumagen-Dhron","municipality":{"key":"07231092","name":"Neumagen-Dhron","type":"Kreisangehörige_Gemeinde"},"district":{"key":"07231","name":"Bernkastel-Wittlich","type":"Landkreis"},"federalState":{"key":"07","name":"Rheinland-Pfalz"}},{"name":"Folzerweg","postalCode":"54347","locality":"Neumagen-Dhron","municipality":{"key":"07231092","name":"Neumagen-Dhron","type":"Kreisangehörige_Gemeinde"},"district":{"key":"07231","name":"Bernkastel-Wittlich","type":"Landkreis"},"federalState":{"key":"07","name":"Rheinland-Pfalz"}},{"name":"Forellenweg","postalCode":"54347","locality":"Neumagen-Dhron","municipality":{"key":"07231092","name":"Neumagen-Dhron","type":"Kreisangehörige_Gemeinde"},"district":{"key":"07231","name":"Bernkastel-Wittlich","type":"Landkreis"},"federalState":{"key":"07","name":"Rheinland-Pfalz"}},{"name":"Grafenweg","postalCode":"54347","locality":"Neumagen-Dhron","municipality":{"key":"07231092","name":"Neumagen-Dhron","type":"Kreisangehörige_Gemeinde"},"district":{"key":"07231","name":"Bernkastel-Wittlich","type":"Landkreis"},"federalState":{"key":"07","name":"Rheinland-Pfalz"}},{"name":"Harpelsteinstr.","postalCode":"54347","locality":"Neumagen-Dhron","municipality":{"key":"07231092","name":"Neumagen-Dhron","type":"Kreisangehörige_Gemeinde"},"district":{"key":"07231","name":"Bernkastel-Wittlich","type":"Landkreis"},"federalState":{"key":"07","name":"Rheinland-Pfalz"}},{"name":"Hinterburg","postalCode":"54347","locality":"Neumagen-Dhron","municipality":{"key":"07231092","name":"Neumagen-Dhron","type":"Kreisangehörige_Gemeinde"},"district":{"key":"07231","name":"Bernkastel-Wittlich","type":"Landkreis"},"federalState":{"key":"07","name":"Rheinland-Pfalz"}},{"name":"Hochwaldstr.","postalCode":"54347","locality":"Neumagen-Dhron","municipality":{"key":"07231092","name":"Neumagen-Dhron","type":"Kreisangehörige_Gemeinde"},"district":{"key":"07231","name":"Bernkastel-Wittlich","type":"Landkreis"},"federalState":{"key":"07","name":"Rheinland-Pfalz"}},{"name":"Im Hof","postalCode":"54347","locality":"Neumagen-Dhron","municipality":{"key":"07231092","name":"Neumagen-Dhron","type":"Kreisangehörige_Gemeinde"},"district":{"key":"07231","name":"Bernkastel-Wittlich","type":"Landkreis"},"federalState":{"key":"07","name":"Rheinland-Pfalz"}},{"name":"Im Lampertsgarten","postalCode":"54347","locality":"Neumagen-Dhron","municipality":{"key":"07231092","name":"Neumagen-Dhron","type":"Kreisangehörige_Gemeinde"},"district":{"key":"07231","name":"Bernkastel-Wittlich","type":"Landkreis"},"federalState":{"key":"07","name":"Rheinland-Pfalz"}},{"name":"Im Weinberg","postalCode":"54347","locality":"Neumagen-Dhron","municipality":{"key":"07231092","name":"Neumagen-Dhron","type":"Kreisangehörige_Gemeinde"},"district":{"key":"07231","name":"Bernkastel-Wittlich","type":"Landkreis"},"federalState":{"key":"07","name":"Rheinland-Pfalz"}},{"name":"Im Wiesental","postalCode":"54347","locality":"Neumagen-Dhron","municipality":{"key":"07231092","name":"Neumagen-Dhron","type":"Kreisangehörige_Gemeinde"},"district":{"key":"07231","name":"Bernkastel-Wittlich","type":"Landkreis"},"federalState":{"key":"07","name":"Rheinland-Pfalz"}},{"name":"In der Ewent","postalCode":"54347","locality":"Neumagen-Dhron","municipality":{"key":"07231092","name":"Neumagen-Dhron","type":"Kreisangehörige_Gemeinde"},"district":{"key":"07231","name":"Bernkastel-Wittlich","type":"Landkreis"},"federalState":{"key":"07","name":"Rheinland-Pfalz"}},{"name":"In der Zeil","postalCode":"54347","locality":"Neumagen-Dhron","municipality":{"key":"07231092","name":"Neumagen-Dhron","type":"Kreisangehörige_Gemeinde"},"district":{"key":"07231","name":"Bernkastel-Wittlich","type":"Landkreis"},"federalState":{"key":"07","name":"Rheinland-Pfalz"}},{"name":"In Folz","postalCode":"54347","locality":"Neumagen-Dhron","municipality":{"key":"07231092","name":"Neumagen-Dhron","type":"Kreisangehörige_Gemeinde"},"district":{"key":"07231","name":"Bernkastel-Wittlich","type":"Landkreis"},"federalState":{"key":"07","name":"Rheinland-Pfalz"}},{"name":"Kaffeegasse","postalCode":"54347","locality":"Neumagen-Dhron","municipality":{"key":"07231092","name":"Neumagen-Dhron","type":"Kreisangehörige_Gemeinde"},"district":{"key":"07231","name":"Bernkastel-Wittlich","type":"Landkreis"},"federalState":{"key":"07","name":"Rheinland-Pfalz"}},{"name":"Kapellenstr.","postalCode":"54347","locality":"Neumagen-Dhron","municipality":{"key":"07231092","name":"Neumagen-Dhron","type":"Kreisangehörige_Gemeinde"},"district":{"key":"07231","name":"Bernkastel-Wittlich","type":"Landkreis"},"federalState":{"key":"07","name":"Rheinland-Pfalz"}},{"name":"Katharinenufer","postalCode":"54347","locality":"Neumagen-Dhron","municipality":{"key":"07231092","name":"Neumagen-Dhron","type":"Kreisangehörige_Gemeinde"},"district":{"key":"07231","name":"Bernkastel-Wittlich","type":"Landkreis"},"federalState":{"key":"07","name":"Rheinland-Pfalz"}},{"name":"Kirchgasse","postalCode":"54347","locality":"Neumagen-Dhron","municipality":{"key":"07231092","name":"Neumagen-Dhron","type":"Kreisangehörige_Gemeinde"},"district":{"key":"07231","name":"Bernkastel-Wittlich","type":"Landkreis"},"federalState":{"key":"07","name":"Rheinland-Pfalz"}},{"name":"Konstantinshöhe","postalCode":"54347","locality":"Neumagen-Dhron","municipality":{"key":"07231092","name":"Neumagen-Dhron","type":"Kreisangehörige_Gemeinde"},"district":{"key":"07231","name":"Bernkastel-Wittlich","type":"Landkreis"},"federalState":{"key":"07","name":"Rheinland-Pfalz"}},{"name":"Konstantinstr.","postalCode":"54347","locality":"Neumagen-Dhron","municipality":{"key":"07231092","name":"Neumagen-Dhron","type":"Kreisangehörige_Gemeinde"},"district":{"key":"07231","name":"Bernkastel-Wittlich","type":"Landkreis"},"federalState":{"key":"07","name":"Rheinland-Pfalz"}},{"name":"Krebsgasse","postalCode":"54347","locality":"Neumagen-Dhron","municipality":{"key":"07231092","name":"Neumagen-Dhron","type":"Kreisangehörige_Gemeinde"},"district":{"key":"07231","name":"Bernkastel-Wittlich","type":"Landkreis"},"federalState":{"key":"07","name":"Rheinland-Pfalz"}},{"name":"Krischelsberg","postalCode":"54347","locality":"Neumagen-Dhron","municipality":{"key":"07231092","name":"Neumagen-Dhron","type":"Kreisangehörige_Gemeinde"},"district":{"key":"07231","name":"Bernkastel-Wittlich","type":"Landkreis"},"federalState":{"key":"07","name":"Rheinland-Pfalz"}},{"name":"Kronweg","postalCode":"54347","locality":"Neumagen-Dhron","municipality":{"key":"07231092","name":"Neumagen-Dhron","type":"Kreisangehörige_Gemeinde"},"district":{"key":"07231","name":"Bernkastel-Wittlich","type":"Landkreis"},"federalState":{"key":"07","name":"Rheinland-Pfalz"}},{"name":"Metschert","postalCode":"54347","locality":"Neumagen-Dhron","municipality":{"key":"07231092","name":"Neumagen-Dhron","type":"Kreisangehörige_Gemeinde"},"district":{"key":"07231","name":"Bernkastel-Wittlich","type":"Landkreis"},"federalState":{"key":"07","name":"Rheinland-Pfalz"}},{"name":"Moselstr.","postalCode":"54347","locality":"Neumagen-Dhron","municipality":{"key":"07231092","name":"Neumagen-Dhron","type":"Kreisangehörige_Gemeinde"},"district":{"key":"07231","name":"Bernkastel-Wittlich","type":"Landkreis"},"federalState":{"key":"07","name":"Rheinland-Pfalz"}},{"name":"Nicetiusberg","postalCode":"54347","locality":"Neumagen-Dhron","municipality":{"key":"07231092","name":"Neumagen-Dhron","type":"Kreisangehörige_Gemeinde"},"district":{"key":"07231","name":"Bernkastel-Wittlich","type":"Landkreis"},"federalState":{"key":"07","name":"Rheinland-Pfalz"}},{"name":"Pelzersgasse","postalCode":"54347","locality":"Neumagen-Dhron","municipality":{"key":"07231092","name":"Neumagen-Dhron","type":"Kreisangehörige_Gemeinde"},"district":{"key":"07231","name":"Bernkastel-Wittlich","type":"Landkreis"},"federalState":{"key":"07","name":"Rheinland-Pfalz"}},{"name":"Poststr.","postalCode":"54347","locality":"Neumagen-Dhron","municipality":{"key":"07231092","name":"Neumagen-Dhron","type":"Kreisangehörige_Gemeinde"},"district":{"key":"07231","name":"Bernkastel-Wittlich","type":"Landkreis"},"federalState":{"key":"07","name":"Rheinland-Pfalz"}},{"name":"Realschulstr.","postalCode":"54347","locality":"Neumagen-Dhron","municipality":{"key":"07231092","name":"Neumagen-Dhron","type":"Kreisangehörige_Gemeinde"},"district":{"key":"07231","name":"Bernkastel-Wittlich","type":"Landkreis"},"federalState":{"key":"07","name":"Rheinland-Pfalz"}},{"name":"Remklotzsche Abladestelle","postalCode":"54347","locality":"Neumagen-Dhron","municipality":{"key":"07231092","name":"Neumagen-Dhron","type":"Kreisangehörige_Gemeinde"},"district":{"key":"07231","name":"Bernkastel-Wittlich","type":"Landkreis"},"federalState":{"key":"07","name":"Rheinland-Pfalz"}},{"name":"Römerstr.","postalCode":"54347","locality":"Neumagen-Dhron","municipality":{"key":"07231092","name":"Neumagen-Dhron","type":"Kreisangehörige_Gemeinde"},"district":{"key":"07231","name":"Bernkastel-Wittlich","type":"Landkreis"},"federalState":{"key":"07","name":"Rheinland-Pfalz"}},{"name":"Rosengartenweg","postalCode":"54347","locality":"Neumagen-Dhron","municipality":{"key":"07231092","name":"Neumagen-Dhron","type":"Kreisangehörige_Gemeinde"},"district":{"key":"07231","name":"Bernkastel-Wittlich","type":"Landkreis"},"federalState":{"key":"07","name":"Rheinland-Pfalz"}},{"name":"Rosenkreuzstr.","postalCode":"54347","locality":"Neumagen-Dhron","municipality":{"key":"07231092","name":"Neumagen-Dhron","type":"Kreisangehörige_Gemeinde"},"district":{"key":"07231","name":"Bernkastel-Wittlich","type":"Landkreis"},"federalState":{"key":"07","name":"Rheinland-Pfalz"}},{"name":"Spielesgasse","postalCode":"54347","locality":"Neumagen-Dhron","municipality":{"key":"07231092","name":"Neumagen-Dhron","type":"Kreisangehörige_Gemeinde"},"district":{"key":"07231","name":"Bernkastel-Wittlich","type":"Landkreis"},"federalState":{"key":"07","name":"Rheinland-Pfalz"}},{"name":"Spielesstr.","postalCode":"54347","locality":"Neumagen-Dhron","municipality":{"key":"07231092","name":"Neumagen-Dhron","type":"Kreisangehörige_Gemeinde"},"district":{"key":"07231","name":"Bernkastel-Wittlich","type":"Landkreis"},"federalState":{"key":"07","name":"Rheinland-Pfalz"}},{"name":"Stefan-Andres-Tal-Str.","postalCode":"54347","locality":"Neumagen-Dhron","municipality":{"key":"07231092","name":"Neumagen-Dhron","type":"Kreisangehörige_Gemeinde"},"district":{"key":"07231","name":"Bernkastel-Wittlich","type":"Landkreis"},"federalState":{"key":"07","name":"Rheinland-Pfalz"}},{"name":"St. Helenastr.","postalCode":"54347","locality":"Neumagen-Dhron","municipality":{"key":"07231092","name":"Neumagen-Dhron","type":"Kreisangehörige_Gemeinde"},"district":{"key":"07231","name":"Bernkastel-Wittlich","type":"Landkreis"},"federalState":{"key":"07","name":"Rheinland-Pfalz"}},{"name":"Tannenweg","postalCode":"54347","locality":"Neumagen-Dhron","municipality":{"key":"07231092","name":"Neumagen-Dhron","type":"Kreisangehörige_Gemeinde"},"district":{"key":"07231","name":"Bernkastel-Wittlich","type":"Landkreis"},"federalState":{"key":"07","name":"Rheinland-Pfalz"}},{"name":"Unter der Lay","postalCode":"54347","locality":"Neumagen-Dhron","municipality":{"key":"07231092","name":"Neumagen-Dhron","type":"Kreisangehörige_Gemeinde"},"district":{"key":"07231","name":"Bernkastel-Wittlich","type":"Landkreis"},"federalState":{"key":"07","name":"Rheinland-Pfalz"}},{"name":"Via Casa Bianco","postalCode":"54347","locality":"Neumagen-Dhron","municipality":{"key":"07231092","name":"Neumagen-Dhron","type":"Kreisangehörige_Gemeinde"},"district":{"key":"07231","name":"Bernkastel-Wittlich","type":"Landkreis"},"federalState":{"key":"07","name":"Rheinland-Pfalz"}},{"name":"Weingartenstr.","postalCode":"54347","locality":"Neumagen-Dhron","municipality":{"key":"07231092","name":"Neumagen-Dhron","type":"Kreisangehörige_Gemeinde"},"district":{"key":"07231","name":"Bernkastel-Wittlich","type":"Landkreis"},"federalState":{"key":"07","name":"Rheinland-Pfalz"}},{"name":"Willemsstr.","postalCode":"54347","locality":"Neumagen-Dhron","municipality":{"key":"07231092","name":"Neumagen-Dhron","type":"Kreisangehörige_Gemeinde"},"district":{"key":"07231","name":"Bernkastel-Wittlich","type":"Landkreis"},"federalState":{"key":"07","name":"Rheinland-Pfalz"}},]