[{"name":"Alte Poststr.","postalCode":"18292","locality":"Kuchelmiß","municipality":{"key":"13072059","name":"Kuchelmiß","type":"Kreisangehörige_Gemeinde"},"district":{"key":"13072","name":"Landkreis Rostock","type":"Landkreis"},"federalState":{"key":"13","name":"Mecklenburg-Vorpommern"}},{"name":"Am Gutshof","postalCode":"18292","locality":"Kuchelmiß","municipality":{"key":"13072059","name":"Kuchelmiß","type":"Kreisangehörige_Gemeinde"},"district":{"key":"13072","name":"Landkreis Rostock","type":"Landkreis"},"federalState":{"key":"13","name":"Mecklenburg-Vorpommern"}},{"name":"Am Pfarrhof","postalCode":"18292","locality":"Kuchelmiß","municipality":{"key":"13072059","name":"Kuchelmiß","type":"Kreisangehörige_Gemeinde"},"district":{"key":"13072","name":"Landkreis Rostock","type":"Landkreis"},"federalState":{"key":"13","name":"Mecklenburg-Vorpommern"}},{"name":"Am Wolbenwerder","postalCode":"18292","locality":"Kuchelmiß","municipality":{"key":"13072059","name":"Kuchelmiß","type":"Kreisangehörige_Gemeinde"},"district":{"key":"13072","name":"Landkreis Rostock","type":"Landkreis"},"federalState":{"key":"13","name":"Mecklenburg-Vorpommern"}},{"name":"An der Kirche","postalCode":"18292","locality":"Kuchelmiß","municipality":{"key":"13072059","name":"Kuchelmiß","type":"Kreisangehörige_Gemeinde"},"district":{"key":"13072","name":"Landkreis Rostock","type":"Landkreis"},"federalState":{"key":"13","name":"Mecklenburg-Vorpommern"}},{"name":"Bansower Str.","postalCode":"18292","locality":"Kuchelmiß","municipality":{"key":"13072059","name":"Kuchelmiß","type":"Kreisangehörige_Gemeinde"},"district":{"key":"13072","name":"Landkreis Rostock","type":"Landkreis"},"federalState":{"key":"13","name":"Mecklenburg-Vorpommern"}},{"name":"Dobbiner Weg","postalCode":"18292","locality":"Kuchelmiß","municipality":{"key":"13072059","name":"Kuchelmiß","type":"Kreisangehörige_Gemeinde"},"district":{"key":"13072","name":"Landkreis Rostock","type":"Landkreis"},"federalState":{"key":"13","name":"Mecklenburg-Vorpommern"}},{"name":"Kastanienstr.","postalCode":"18292","locality":"Kuchelmiß","municipality":{"key":"13072059","name":"Kuchelmiß","type":"Kreisangehörige_Gemeinde"},"district":{"key":"13072","name":"Landkreis Rostock","type":"Landkreis"},"federalState":{"key":"13","name":"Mecklenburg-Vorpommern"}},{"name":"Krakower Str.","postalCode":"18292","locality":"Kuchelmiß","municipality":{"key":"13072059","name":"Kuchelmiß","type":"Kreisangehörige_Gemeinde"},"district":{"key":"13072","name":"Landkreis Rostock","type":"Landkreis"},"federalState":{"key":"13","name":"Mecklenburg-Vorpommern"}},{"name":"Mühlenweg","postalCode":"18292","locality":"Kuchelmiß","municipality":{"key":"13072059","name":"Kuchelmiß","type":"Kreisangehörige_Gemeinde"},"district":{"key":"13072","name":"Landkreis Rostock","type":"Landkreis"},"federalState":{"key":"13","name":"Mecklenburg-Vorpommern"}},{"name":"Paradiesweg","postalCode":"18292","locality":"Kuchelmiß","municipality":{"key":"13072059","name":"Kuchelmiß","type":"Kreisangehörige_Gemeinde"},"district":{"key":"13072","name":"Landkreis Rostock","type":"Landkreis"},"federalState":{"key":"13","name":"Mecklenburg-Vorpommern"}},{"name":"Privatbungalowsiedlung","postalCode":"18292","locality":"Kuchelmiß","municipality":{"key":"13072059","name":"Kuchelmiß","type":"Kreisangehörige_Gemeinde"},"district":{"key":"13072","name":"Landkreis Rostock","type":"Landkreis"},"federalState":{"key":"13","name":"Mecklenburg-Vorpommern"}},{"name":"Rosenthaler Weg","postalCode":"18292","locality":"Kuchelmiß","municipality":{"key":"13072059","name":"Kuchelmiß","type":"Kreisangehörige_Gemeinde"},"district":{"key":"13072","name":"Landkreis Rostock","type":"Landkreis"},"federalState":{"key":"13","name":"Mecklenburg-Vorpommern"}},{"name":"Seegrube Ausbau","postalCode":"18292","locality":"Kuchelmiß","municipality":{"key":"13072059","name":"Kuchelmiß","type":"Kreisangehörige_Gemeinde"},"district":{"key":"13072","name":"Landkreis Rostock","type":"Landkreis"},"federalState":{"key":"13","name":"Mecklenburg-Vorpommern"}},{"name":"Seestr.","postalCode":"18292","locality":"Kuchelmiß","municipality":{"key":"13072059","name":"Kuchelmiß","type":"Kreisangehörige_Gemeinde"},"district":{"key":"13072","name":"Landkreis Rostock","type":"Landkreis"},"federalState":{"key":"13","name":"Mecklenburg-Vorpommern"}},{"name":"Serrahner Str.","postalCode":"18292","locality":"Kuchelmiß","municipality":{"key":"13072059","name":"Kuchelmiß","type":"Kreisangehörige_Gemeinde"},"district":{"key":"13072","name":"Landkreis Rostock","type":"Landkreis"},"federalState":{"key":"13","name":"Mecklenburg-Vorpommern"}},{"name":"Wilsen","postalCode":"18292","locality":"Kuchelmiß","municipality":{"key":"13072059","name":"Kuchelmiß","type":"Kreisangehörige_Gemeinde"},"district":{"key":"13072","name":"Landkreis Rostock","type":"Landkreis"},"federalState":{"key":"13","name":"Mecklenburg-Vorpommern"}},{"name":"Wilsener Str.","postalCode":"18292","locality":"Kuchelmiß","municipality":{"key":"13072059","name":"Kuchelmiß","type":"Kreisangehörige_Gemeinde"},"district":{"key":"13072","name":"Landkreis Rostock","type":"Landkreis"},"federalState":{"key":"13","name":"Mecklenburg-Vorpommern"}},{"name":"Ziegeleiweg","postalCode":"18292","locality":"Kuchelmiß","municipality":{"key":"13072059","name":"Kuchelmiß","type":"Kreisangehörige_Gemeinde"},"district":{"key":"13072","name":"Landkreis Rostock","type":"Landkreis"},"federalState":{"key":"13","name":"Mecklenburg-Vorpommern"}},]