[{"name":"Ahornweg","postalCode":"74589","locality":"Satteldorf","municipality":{"key":"08127073","name":"Satteldorf","type":"Kreisangehörige_Gemeinde"},"district":{"key":"08127","name":"Schwäbisch Hall","type":"Landkreis"},"federalState":{"key":"08","name":"Baden-Württemberg"}},{"name":"Alte Höhe","postalCode":"74589","locality":"Satteldorf","municipality":{"key":"08127073","name":"Satteldorf","type":"Kreisangehörige_Gemeinde"},"district":{"key":"08127","name":"Schwäbisch Hall","type":"Landkreis"},"federalState":{"key":"08","name":"Baden-Württemberg"}},{"name":"Alte Steige","postalCode":"74589","locality":"Satteldorf","municipality":{"key":"08127073","name":"Satteldorf","type":"Kreisangehörige_Gemeinde"},"district":{"key":"08127","name":"Schwäbisch Hall","type":"Landkreis"},"federalState":{"key":"08","name":"Baden-Württemberg"}},{"name":"Am Bahnhof","postalCode":"74589","locality":"Satteldorf","municipality":{"key":"08127073","name":"Satteldorf","type":"Kreisangehörige_Gemeinde"},"district":{"key":"08127","name":"Schwäbisch Hall","type":"Landkreis"},"federalState":{"key":"08","name":"Baden-Württemberg"}},{"name":"Am Dorfplatz","postalCode":"74589","locality":"Satteldorf","municipality":{"key":"08127073","name":"Satteldorf","type":"Kreisangehörige_Gemeinde"},"district":{"key":"08127","name":"Schwäbisch Hall","type":"Landkreis"},"federalState":{"key":"08","name":"Baden-Württemberg"}},{"name":"Am Eichelberg","postalCode":"74589","locality":"Satteldorf","municipality":{"key":"08127073","name":"Satteldorf","type":"Kreisangehörige_Gemeinde"},"district":{"key":"08127","name":"Schwäbisch Hall","type":"Landkreis"},"federalState":{"key":"08","name":"Baden-Württemberg"}},{"name":"Am Fröschelbach","postalCode":"74589","locality":"Satteldorf","municipality":{"key":"08127073","name":"Satteldorf","type":"Kreisangehörige_Gemeinde"},"district":{"key":"08127","name":"Schwäbisch Hall","type":"Landkreis"},"federalState":{"key":"08","name":"Baden-Württemberg"}},{"name":"Am Gründle","postalCode":"74589","locality":"Satteldorf","municipality":{"key":"08127073","name":"Satteldorf","type":"Kreisangehörige_Gemeinde"},"district":{"key":"08127","name":"Schwäbisch Hall","type":"Landkreis"},"federalState":{"key":"08","name":"Baden-Württemberg"}},{"name":"Am Kirchplatz","postalCode":"74589","locality":"Satteldorf","municipality":{"key":"08127073","name":"Satteldorf","type":"Kreisangehörige_Gemeinde"},"district":{"key":"08127","name":"Schwäbisch Hall","type":"Landkreis"},"federalState":{"key":"08","name":"Baden-Württemberg"}},{"name":"Am Sächslesberg","postalCode":"74589","locality":"Satteldorf","municipality":{"key":"08127073","name":"Satteldorf","type":"Kreisangehörige_Gemeinde"},"district":{"key":"08127","name":"Schwäbisch Hall","type":"Landkreis"},"federalState":{"key":"08","name":"Baden-Württemberg"}},{"name":"Am Sägbuck","postalCode":"74589","locality":"Satteldorf","municipality":{"key":"08127073","name":"Satteldorf","type":"Kreisangehörige_Gemeinde"},"district":{"key":"08127","name":"Schwäbisch Hall","type":"Landkreis"},"federalState":{"key":"08","name":"Baden-Württemberg"}},{"name":"Am Schlegelberg","postalCode":"74589","locality":"Satteldorf","municipality":{"key":"08127073","name":"Satteldorf","type":"Kreisangehörige_Gemeinde"},"district":{"key":"08127","name":"Schwäbisch Hall","type":"Landkreis"},"federalState":{"key":"08","name":"Baden-Württemberg"}},{"name":"Amselweg","postalCode":"74589","locality":"Satteldorf","municipality":{"key":"08127073","name":"Satteldorf","type":"Kreisangehörige_Gemeinde"},"district":{"key":"08127","name":"Schwäbisch Hall","type":"Landkreis"},"federalState":{"key":"08","name":"Baden-Württemberg"}},{"name":"An der Villa","postalCode":"74589","locality":"Satteldorf","municipality":{"key":"08127073","name":"Satteldorf","type":"Kreisangehörige_Gemeinde"},"district":{"key":"08127","name":"Schwäbisch Hall","type":"Landkreis"},"federalState":{"key":"08","name":"Baden-Württemberg"}},{"name":"Anger","postalCode":"74589","locality":"Satteldorf","municipality":{"key":"08127073","name":"Satteldorf","type":"Kreisangehörige_Gemeinde"},"district":{"key":"08127","name":"Schwäbisch Hall","type":"Landkreis"},"federalState":{"key":"08","name":"Baden-Württemberg"}},{"name":"Anhäuser Str.","postalCode":"74589","locality":"Satteldorf","municipality":{"key":"08127073","name":"Satteldorf","type":"Kreisangehörige_Gemeinde"},"district":{"key":"08127","name":"Schwäbisch Hall","type":"Landkreis"},"federalState":{"key":"08","name":"Baden-Württemberg"}},{"name":"Bahnhofsstr.","postalCode":"74589","locality":"Satteldorf","municipality":{"key":"08127073","name":"Satteldorf","type":"Kreisangehörige_Gemeinde"},"district":{"key":"08127","name":"Schwäbisch Hall","type":"Landkreis"},"federalState":{"key":"08","name":"Baden-Württemberg"}},{"name":"Barenhalder Str.","postalCode":"74589","locality":"Satteldorf","municipality":{"key":"08127073","name":"Satteldorf","type":"Kreisangehörige_Gemeinde"},"district":{"key":"08127","name":"Schwäbisch Hall","type":"Landkreis"},"federalState":{"key":"08","name":"Baden-Württemberg"}},{"name":"Bauernhecke","postalCode":"74589","locality":"Satteldorf","municipality":{"key":"08127073","name":"Satteldorf","type":"Kreisangehörige_Gemeinde"},"district":{"key":"08127","name":"Schwäbisch Hall","type":"Landkreis"},"federalState":{"key":"08","name":"Baden-Württemberg"}},{"name":"Baumgartenweg","postalCode":"74589","locality":"Satteldorf","municipality":{"key":"08127073","name":"Satteldorf","type":"Kreisangehörige_Gemeinde"},"district":{"key":"08127","name":"Schwäbisch Hall","type":"Landkreis"},"federalState":{"key":"08","name":"Baden-Württemberg"}},{"name":"Beeghöfer Ortsstr.","postalCode":"74589","locality":"Satteldorf","municipality":{"key":"08127073","name":"Satteldorf","type":"Kreisangehörige_Gemeinde"},"district":{"key":"08127","name":"Schwäbisch Hall","type":"Landkreis"},"federalState":{"key":"08","name":"Baden-Württemberg"}},{"name":"Bei der Sandsteige","postalCode":"74589","locality":"Satteldorf","municipality":{"key":"08127073","name":"Satteldorf","type":"Kreisangehörige_Gemeinde"},"district":{"key":"08127","name":"Schwäbisch Hall","type":"Landkreis"},"federalState":{"key":"08","name":"Baden-Württemberg"}},{"name":"Bergweg","postalCode":"74589","locality":"Satteldorf","municipality":{"key":"08127073","name":"Satteldorf","type":"Kreisangehörige_Gemeinde"},"district":{"key":"08127","name":"Schwäbisch Hall","type":"Landkreis"},"federalState":{"key":"08","name":"Baden-Württemberg"}},{"name":"Birkachring","postalCode":"74589","locality":"Satteldorf","municipality":{"key":"08127073","name":"Satteldorf","type":"Kreisangehörige_Gemeinde"},"district":{"key":"08127","name":"Schwäbisch Hall","type":"Landkreis"},"federalState":{"key":"08","name":"Baden-Württemberg"}},{"name":"Birkelbacher Str.","postalCode":"74589","locality":"Satteldorf","municipality":{"key":"08127073","name":"Satteldorf","type":"Kreisangehörige_Gemeinde"},"district":{"key":"08127","name":"Schwäbisch Hall","type":"Landkreis"},"federalState":{"key":"08","name":"Baden-Württemberg"}},{"name":"Birkenweg","postalCode":"74589","locality":"Satteldorf","municipality":{"key":"08127073","name":"Satteldorf","type":"Kreisangehörige_Gemeinde"},"district":{"key":"08127","name":"Schwäbisch Hall","type":"Landkreis"},"federalState":{"key":"08","name":"Baden-Württemberg"}},{"name":"Blaufelder Str.","postalCode":"74589","locality":"Satteldorf","municipality":{"key":"08127073","name":"Satteldorf","type":"Kreisangehörige_Gemeinde"},"district":{"key":"08127","name":"Schwäbisch Hall","type":"Landkreis"},"federalState":{"key":"08","name":"Baden-Württemberg"}},{"name":"Blumenweg","postalCode":"74589","locality":"Satteldorf","municipality":{"key":"08127073","name":"Satteldorf","type":"Kreisangehörige_Gemeinde"},"district":{"key":"08127","name":"Schwäbisch Hall","type":"Landkreis"},"federalState":{"key":"08","name":"Baden-Württemberg"}},{"name":"Bodestr.","postalCode":"74589","locality":"Satteldorf","municipality":{"key":"08127073","name":"Satteldorf","type":"Kreisangehörige_Gemeinde"},"district":{"key":"08127","name":"Schwäbisch Hall","type":"Landkreis"},"federalState":{"key":"08","name":"Baden-Württemberg"}},{"name":"Bölgentaler Str.","postalCode":"74589","locality":"Satteldorf","municipality":{"key":"08127073","name":"Satteldorf","type":"Kreisangehörige_Gemeinde"},"district":{"key":"08127","name":"Schwäbisch Hall","type":"Landkreis"},"federalState":{"key":"08","name":"Baden-Württemberg"}},{"name":"Brechhausweg","postalCode":"74589","locality":"Satteldorf","municipality":{"key":"08127073","name":"Satteldorf","type":"Kreisangehörige_Gemeinde"},"district":{"key":"08127","name":"Schwäbisch Hall","type":"Landkreis"},"federalState":{"key":"08","name":"Baden-Württemberg"}},{"name":"Breitäckerweg","postalCode":"74589","locality":"Satteldorf","municipality":{"key":"08127073","name":"Satteldorf","type":"Kreisangehörige_Gemeinde"},"district":{"key":"08127","name":"Schwäbisch Hall","type":"Landkreis"},"federalState":{"key":"08","name":"Baden-Württemberg"}},{"name":"Bronnholzheimer Str.","postalCode":"74589","locality":"Satteldorf","municipality":{"key":"08127073","name":"Satteldorf","type":"Kreisangehörige_Gemeinde"},"district":{"key":"08127","name":"Schwäbisch Hall","type":"Landkreis"},"federalState":{"key":"08","name":"Baden-Württemberg"}},{"name":"Bürgermeister-Hommel-Str.","postalCode":"74589","locality":"Satteldorf","municipality":{"key":"08127073","name":"Satteldorf","type":"Kreisangehörige_Gemeinde"},"district":{"key":"08127","name":"Schwäbisch Hall","type":"Landkreis"},"federalState":{"key":"08","name":"Baden-Württemberg"}},{"name":"Burleswagener Str.","postalCode":"74589","locality":"Satteldorf","municipality":{"key":"08127073","name":"Satteldorf","type":"Kreisangehörige_Gemeinde"},"district":{"key":"08127","name":"Schwäbisch Hall","type":"Landkreis"},"federalState":{"key":"08","name":"Baden-Württemberg"}},{"name":"Büschwiesenweg","postalCode":"74589","locality":"Satteldorf","municipality":{"key":"08127073","name":"Satteldorf","type":"Kreisangehörige_Gemeinde"},"district":{"key":"08127","name":"Schwäbisch Hall","type":"Landkreis"},"federalState":{"key":"08","name":"Baden-Württemberg"}},{"name":"Crailsheimer Str.","postalCode":"74589","locality":"Satteldorf","municipality":{"key":"08127073","name":"Satteldorf","type":"Kreisangehörige_Gemeinde"},"district":{"key":"08127","name":"Schwäbisch Hall","type":"Landkreis"},"federalState":{"key":"08","name":"Baden-Württemberg"}},{"name":"Dahlienweg","postalCode":"74589","locality":"Satteldorf","municipality":{"key":"08127073","name":"Satteldorf","type":"Kreisangehörige_Gemeinde"},"district":{"key":"08127","name":"Schwäbisch Hall","type":"Landkreis"},"federalState":{"key":"08","name":"Baden-Württemberg"}},{"name":"Dicknetweg","postalCode":"74589","locality":"Satteldorf","municipality":{"key":"08127073","name":"Satteldorf","type":"Kreisangehörige_Gemeinde"},"district":{"key":"08127","name":"Schwäbisch Hall","type":"Landkreis"},"federalState":{"key":"08","name":"Baden-Württemberg"}},{"name":"Dielbrunnenweg","postalCode":"74589","locality":"Satteldorf","municipality":{"key":"08127073","name":"Satteldorf","type":"Kreisangehörige_Gemeinde"},"district":{"key":"08127","name":"Schwäbisch Hall","type":"Landkreis"},"federalState":{"key":"08","name":"Baden-Württemberg"}},{"name":"Dieselstr.","postalCode":"74589","locality":"Satteldorf","municipality":{"key":"08127073","name":"Satteldorf","type":"Kreisangehörige_Gemeinde"},"district":{"key":"08127","name":"Schwäbisch Hall","type":"Landkreis"},"federalState":{"key":"08","name":"Baden-Württemberg"}},{"name":"Distelweg","postalCode":"74589","locality":"Satteldorf","municipality":{"key":"08127073","name":"Satteldorf","type":"Kreisangehörige_Gemeinde"},"district":{"key":"08127","name":"Schwäbisch Hall","type":"Landkreis"},"federalState":{"key":"08","name":"Baden-Württemberg"}},{"name":"Dorfgasse","postalCode":"74589","locality":"Satteldorf","municipality":{"key":"08127073","name":"Satteldorf","type":"Kreisangehörige_Gemeinde"},"district":{"key":"08127","name":"Schwäbisch Hall","type":"Landkreis"},"federalState":{"key":"08","name":"Baden-Württemberg"}},{"name":"Ellrichshäuser Hauptstr.","postalCode":"74589","locality":"Satteldorf","municipality":{"key":"08127073","name":"Satteldorf","type":"Kreisangehörige_Gemeinde"},"district":{"key":"08127","name":"Schwäbisch Hall","type":"Landkreis"},"federalState":{"key":"08","name":"Baden-Württemberg"}},{"name":"Ellrichshäuser Str.","postalCode":"74589","locality":"Satteldorf","municipality":{"key":"08127073","name":"Satteldorf","type":"Kreisangehörige_Gemeinde"},"district":{"key":"08127","name":"Schwäbisch Hall","type":"Landkreis"},"federalState":{"key":"08","name":"Baden-Württemberg"}},{"name":"Finkenweg","postalCode":"74589","locality":"Satteldorf","municipality":{"key":"08127073","name":"Satteldorf","type":"Kreisangehörige_Gemeinde"},"district":{"key":"08127","name":"Schwäbisch Hall","type":"Landkreis"},"federalState":{"key":"08","name":"Baden-Württemberg"}},{"name":"Frankenhöhe","postalCode":"74589","locality":"Satteldorf","municipality":{"key":"08127073","name":"Satteldorf","type":"Kreisangehörige_Gemeinde"},"district":{"key":"08127","name":"Schwäbisch Hall","type":"Landkreis"},"federalState":{"key":"08","name":"Baden-Württemberg"}},{"name":"Frankenweg","postalCode":"74589","locality":"Satteldorf","municipality":{"key":"08127073","name":"Satteldorf","type":"Kreisangehörige_Gemeinde"},"district":{"key":"08127","name":"Schwäbisch Hall","type":"Landkreis"},"federalState":{"key":"08","name":"Baden-Württemberg"}},{"name":"Friedhofsstr.","postalCode":"74589","locality":"Satteldorf","municipality":{"key":"08127073","name":"Satteldorf","type":"Kreisangehörige_Gemeinde"},"district":{"key":"08127","name":"Schwäbisch Hall","type":"Landkreis"},"federalState":{"key":"08","name":"Baden-Württemberg"}},{"name":"Friedrich-Gutöhrlein-Str.","postalCode":"74589","locality":"Satteldorf","municipality":{"key":"08127073","name":"Satteldorf","type":"Kreisangehörige_Gemeinde"},"district":{"key":"08127","name":"Schwäbisch Hall","type":"Landkreis"},"federalState":{"key":"08","name":"Baden-Württemberg"}},{"name":"Froschäckerweg","postalCode":"74589","locality":"Satteldorf","municipality":{"key":"08127073","name":"Satteldorf","type":"Kreisangehörige_Gemeinde"},"district":{"key":"08127","name":"Schwäbisch Hall","type":"Landkreis"},"federalState":{"key":"08","name":"Baden-Württemberg"}},{"name":"Fuchsäckerweg","postalCode":"74589","locality":"Satteldorf","municipality":{"key":"08127073","name":"Satteldorf","type":"Kreisangehörige_Gemeinde"},"district":{"key":"08127","name":"Schwäbisch Hall","type":"Landkreis"},"federalState":{"key":"08","name":"Baden-Württemberg"}},{"name":"Gahmweg","postalCode":"74589","locality":"Satteldorf","municipality":{"key":"08127073","name":"Satteldorf","type":"Kreisangehörige_Gemeinde"},"district":{"key":"08127","name":"Schwäbisch Hall","type":"Landkreis"},"federalState":{"key":"08","name":"Baden-Württemberg"}},{"name":"Gartenstr.","postalCode":"74589","locality":"Satteldorf","municipality":{"key":"08127073","name":"Satteldorf","type":"Kreisangehörige_Gemeinde"},"district":{"key":"08127","name":"Schwäbisch Hall","type":"Landkreis"},"federalState":{"key":"08","name":"Baden-Württemberg"}},{"name":"Gronachblick","postalCode":"74589","locality":"Satteldorf","municipality":{"key":"08127073","name":"Satteldorf","type":"Kreisangehörige_Gemeinde"},"district":{"key":"08127","name":"Schwäbisch Hall","type":"Landkreis"},"federalState":{"key":"08","name":"Baden-Württemberg"}},{"name":"Gronachstr.","postalCode":"74589","locality":"Satteldorf","municipality":{"key":"08127073","name":"Satteldorf","type":"Kreisangehörige_Gemeinde"},"district":{"key":"08127","name":"Schwäbisch Hall","type":"Landkreis"},"federalState":{"key":"08","name":"Baden-Württemberg"}},{"name":"Gröninger Hauptstr.","postalCode":"74589","locality":"Satteldorf","municipality":{"key":"08127073","name":"Satteldorf","type":"Kreisangehörige_Gemeinde"},"district":{"key":"08127","name":"Schwäbisch Hall","type":"Landkreis"},"federalState":{"key":"08","name":"Baden-Württemberg"}},{"name":"Hackwiesenweg","postalCode":"74589","locality":"Satteldorf","municipality":{"key":"08127073","name":"Satteldorf","type":"Kreisangehörige_Gemeinde"},"district":{"key":"08127","name":"Schwäbisch Hall","type":"Landkreis"},"federalState":{"key":"08","name":"Baden-Württemberg"}},{"name":"Hagengässle","postalCode":"74589","locality":"Satteldorf","municipality":{"key":"08127073","name":"Satteldorf","type":"Kreisangehörige_Gemeinde"},"district":{"key":"08127","name":"Schwäbisch Hall","type":"Landkreis"},"federalState":{"key":"08","name":"Baden-Württemberg"}},{"name":"Haldenbergstr.","postalCode":"74589","locality":"Satteldorf","municipality":{"key":"08127073","name":"Satteldorf","type":"Kreisangehörige_Gemeinde"},"district":{"key":"08127","name":"Schwäbisch Hall","type":"Landkreis"},"federalState":{"key":"08","name":"Baden-Württemberg"}},{"name":"Hardtstr.","postalCode":"74589","locality":"Satteldorf","municipality":{"key":"08127073","name":"Satteldorf","type":"Kreisangehörige_Gemeinde"},"district":{"key":"08127","name":"Schwäbisch Hall","type":"Landkreis"},"federalState":{"key":"08","name":"Baden-Württemberg"}},{"name":"Helmshofer Str.","postalCode":"74589","locality":"Satteldorf","municipality":{"key":"08127073","name":"Satteldorf","type":"Kreisangehörige_Gemeinde"},"district":{"key":"08127","name":"Schwäbisch Hall","type":"Landkreis"},"federalState":{"key":"08","name":"Baden-Württemberg"}},{"name":"Hengstfelder Str.","postalCode":"74589","locality":"Satteldorf","municipality":{"key":"08127073","name":"Satteldorf","type":"Kreisangehörige_Gemeinde"},"district":{"key":"08127","name":"Schwäbisch Hall","type":"Landkreis"},"federalState":{"key":"08","name":"Baden-Württemberg"}},{"name":"Heynburger Str.","postalCode":"74589","locality":"Satteldorf","municipality":{"key":"08127073","name":"Satteldorf","type":"Kreisangehörige_Gemeinde"},"district":{"key":"08127","name":"Schwäbisch Hall","type":"Landkreis"},"federalState":{"key":"08","name":"Baden-Württemberg"}},{"name":"Hirtenäckerweg","postalCode":"74589","locality":"Satteldorf","municipality":{"key":"08127073","name":"Satteldorf","type":"Kreisangehörige_Gemeinde"},"district":{"key":"08127","name":"Schwäbisch Hall","type":"Landkreis"},"federalState":{"key":"08","name":"Baden-Württemberg"}},{"name":"Hirtengasse","postalCode":"74589","locality":"Satteldorf","municipality":{"key":"08127073","name":"Satteldorf","type":"Kreisangehörige_Gemeinde"},"district":{"key":"08127","name":"Schwäbisch Hall","type":"Landkreis"},"federalState":{"key":"08","name":"Baden-Württemberg"}},{"name":"Hirtenweg","postalCode":"74589","locality":"Satteldorf","municipality":{"key":"08127073","name":"Satteldorf","type":"Kreisangehörige_Gemeinde"},"district":{"key":"08127","name":"Schwäbisch Hall","type":"Landkreis"},"federalState":{"key":"08","name":"Baden-Württemberg"}},{"name":"Hofbühlweg","postalCode":"74589","locality":"Satteldorf","municipality":{"key":"08127073","name":"Satteldorf","type":"Kreisangehörige_Gemeinde"},"district":{"key":"08127","name":"Schwäbisch Hall","type":"Landkreis"},"federalState":{"key":"08","name":"Baden-Württemberg"}},{"name":"Hofgasse","postalCode":"74589","locality":"Satteldorf","municipality":{"key":"08127073","name":"Satteldorf","type":"Kreisangehörige_Gemeinde"},"district":{"key":"08127","name":"Schwäbisch Hall","type":"Landkreis"},"federalState":{"key":"08","name":"Baden-Württemberg"}},{"name":"Hofwiesenweg","postalCode":"74589","locality":"Satteldorf","municipality":{"key":"08127073","name":"Satteldorf","type":"Kreisangehörige_Gemeinde"},"district":{"key":"08127","name":"Schwäbisch Hall","type":"Landkreis"},"federalState":{"key":"08","name":"Baden-Württemberg"}},{"name":"Höhenweg","postalCode":"74589","locality":"Satteldorf","municipality":{"key":"08127073","name":"Satteldorf","type":"Kreisangehörige_Gemeinde"},"district":{"key":"08127","name":"Schwäbisch Hall","type":"Landkreis"},"federalState":{"key":"08","name":"Baden-Württemberg"}},{"name":"Im Beegfeld","postalCode":"74589","locality":"Satteldorf","municipality":{"key":"08127073","name":"Satteldorf","type":"Kreisangehörige_Gemeinde"},"district":{"key":"08127","name":"Schwäbisch Hall","type":"Landkreis"},"federalState":{"key":"08","name":"Baden-Württemberg"}},{"name":"Im Brunnenbühl","postalCode":"74589","locality":"Satteldorf","municipality":{"key":"08127073","name":"Satteldorf","type":"Kreisangehörige_Gemeinde"},"district":{"key":"08127","name":"Schwäbisch Hall","type":"Landkreis"},"federalState":{"key":"08","name":"Baden-Württemberg"}},{"name":"Im Erb","postalCode":"74589","locality":"Satteldorf","municipality":{"key":"08127073","name":"Satteldorf","type":"Kreisangehörige_Gemeinde"},"district":{"key":"08127","name":"Schwäbisch Hall","type":"Landkreis"},"federalState":{"key":"08","name":"Baden-Württemberg"}},{"name":"Im Feldle","postalCode":"74589","locality":"Satteldorf","municipality":{"key":"08127073","name":"Satteldorf","type":"Kreisangehörige_Gemeinde"},"district":{"key":"08127","name":"Schwäbisch Hall","type":"Landkreis"},"federalState":{"key":"08","name":"Baden-Württemberg"}},{"name":"Im Häusleinsbühl","postalCode":"74589","locality":"Satteldorf","municipality":{"key":"08127073","name":"Satteldorf","type":"Kreisangehörige_Gemeinde"},"district":{"key":"08127","name":"Schwäbisch Hall","type":"Landkreis"},"federalState":{"key":"08","name":"Baden-Württemberg"}},{"name":"Im Katzenzipfel","postalCode":"74589","locality":"Satteldorf","municipality":{"key":"08127073","name":"Satteldorf","type":"Kreisangehörige_Gemeinde"},"district":{"key":"08127","name":"Schwäbisch Hall","type":"Landkreis"},"federalState":{"key":"08","name":"Baden-Württemberg"}},{"name":"Im Mittelbühl","postalCode":"74589","locality":"Satteldorf","municipality":{"key":"08127073","name":"Satteldorf","type":"Kreisangehörige_Gemeinde"},"district":{"key":"08127","name":"Schwäbisch Hall","type":"Landkreis"},"federalState":{"key":"08","name":"Baden-Württemberg"}},{"name":"Im Rinnig","postalCode":"74589","locality":"Satteldorf","municipality":{"key":"08127073","name":"Satteldorf","type":"Kreisangehörige_Gemeinde"},"district":{"key":"08127","name":"Schwäbisch Hall","type":"Landkreis"},"federalState":{"key":"08","name":"Baden-Württemberg"}},{"name":"Im Rotfeld","postalCode":"74589","locality":"Satteldorf","municipality":{"key":"08127073","name":"Satteldorf","type":"Kreisangehörige_Gemeinde"},"district":{"key":"08127","name":"Schwäbisch Hall","type":"Landkreis"},"federalState":{"key":"08","name":"Baden-Württemberg"}},{"name":"Im Schönblick","postalCode":"74589","locality":"Satteldorf","municipality":{"key":"08127073","name":"Satteldorf","type":"Kreisangehörige_Gemeinde"},"district":{"key":"08127","name":"Schwäbisch Hall","type":"Landkreis"},"federalState":{"key":"08","name":"Baden-Württemberg"}},{"name":"Im Weiler","postalCode":"74589","locality":"Satteldorf","municipality":{"key":"08127073","name":"Satteldorf","type":"Kreisangehörige_Gemeinde"},"district":{"key":"08127","name":"Schwäbisch Hall","type":"Landkreis"},"federalState":{"key":"08","name":"Baden-Württemberg"}},{"name":"Im Wiesengrund","postalCode":"74589","locality":"Satteldorf","municipality":{"key":"08127073","name":"Satteldorf","type":"Kreisangehörige_Gemeinde"},"district":{"key":"08127","name":"Schwäbisch Hall","type":"Landkreis"},"federalState":{"key":"08","name":"Baden-Württemberg"}},{"name":"Im Winkel","postalCode":"74589","locality":"Satteldorf","municipality":{"key":"08127073","name":"Satteldorf","type":"Kreisangehörige_Gemeinde"},"district":{"key":"08127","name":"Schwäbisch Hall","type":"Landkreis"},"federalState":{"key":"08","name":"Baden-Württemberg"}},{"name":"Industriestr.","postalCode":"74589","locality":"Satteldorf","municipality":{"key":"08127073","name":"Satteldorf","type":"Kreisangehörige_Gemeinde"},"district":{"key":"08127","name":"Schwäbisch Hall","type":"Landkreis"},"federalState":{"key":"08","name":"Baden-Württemberg"}},{"name":"Jeremias-Bauer-Str.","postalCode":"74589","locality":"Satteldorf","municipality":{"key":"08127073","name":"Satteldorf","type":"Kreisangehörige_Gemeinde"},"district":{"key":"08127","name":"Schwäbisch Hall","type":"Landkreis"},"federalState":{"key":"08","name":"Baden-Württemberg"}},{"name":"Kalkofenstr.","postalCode":"74589","locality":"Satteldorf","municipality":{"key":"08127073","name":"Satteldorf","type":"Kreisangehörige_Gemeinde"},"district":{"key":"08127","name":"Schwäbisch Hall","type":"Landkreis"},"federalState":{"key":"08","name":"Baden-Württemberg"}},{"name":"Kirchenweg","postalCode":"74589","locality":"Satteldorf","municipality":{"key":"08127073","name":"Satteldorf","type":"Kreisangehörige_Gemeinde"},"district":{"key":"08127","name":"Schwäbisch Hall","type":"Landkreis"},"federalState":{"key":"08","name":"Baden-Württemberg"}},{"name":"Kirchhofweg","postalCode":"74589","locality":"Satteldorf","municipality":{"key":"08127073","name":"Satteldorf","type":"Kreisangehörige_Gemeinde"},"district":{"key":"08127","name":"Schwäbisch Hall","type":"Landkreis"},"federalState":{"key":"08","name":"Baden-Württemberg"}},{"name":"Klingenfeldweg","postalCode":"74589","locality":"Satteldorf","municipality":{"key":"08127073","name":"Satteldorf","type":"Kreisangehörige_Gemeinde"},"district":{"key":"08127","name":"Schwäbisch Hall","type":"Landkreis"},"federalState":{"key":"08","name":"Baden-Württemberg"}},{"name":"Klingenwiesenweg","postalCode":"74589","locality":"Satteldorf","municipality":{"key":"08127073","name":"Satteldorf","type":"Kreisangehörige_Gemeinde"},"district":{"key":"08127","name":"Schwäbisch Hall","type":"Landkreis"},"federalState":{"key":"08","name":"Baden-Württemberg"}},{"name":"Klosterstr.","postalCode":"74589","locality":"Satteldorf","municipality":{"key":"08127073","name":"Satteldorf","type":"Kreisangehörige_Gemeinde"},"district":{"key":"08127","name":"Schwäbisch Hall","type":"Landkreis"},"federalState":{"key":"08","name":"Baden-Württemberg"}},{"name":"Kornbrunnenweg","postalCode":"74589","locality":"Satteldorf","municipality":{"key":"08127073","name":"Satteldorf","type":"Kreisangehörige_Gemeinde"},"district":{"key":"08127","name":"Schwäbisch Hall","type":"Landkreis"},"federalState":{"key":"08","name":"Baden-Württemberg"}},{"name":"Kreuzstr.","postalCode":"74589","locality":"Satteldorf","municipality":{"key":"08127073","name":"Satteldorf","type":"Kreisangehörige_Gemeinde"},"district":{"key":"08127","name":"Schwäbisch Hall","type":"Landkreis"},"federalState":{"key":"08","name":"Baden-Württemberg"}},{"name":"Lietenäckerring","postalCode":"74589","locality":"Satteldorf","municipality":{"key":"08127073","name":"Satteldorf","type":"Kreisangehörige_Gemeinde"},"district":{"key":"08127","name":"Schwäbisch Hall","type":"Landkreis"},"federalState":{"key":"08","name":"Baden-Württemberg"}},{"name":"Lilienweg","postalCode":"74589","locality":"Satteldorf","municipality":{"key":"08127073","name":"Satteldorf","type":"Kreisangehörige_Gemeinde"},"district":{"key":"08127","name":"Schwäbisch Hall","type":"Landkreis"},"federalState":{"key":"08","name":"Baden-Württemberg"}},{"name":"Lindachweg","postalCode":"74589","locality":"Satteldorf","municipality":{"key":"08127073","name":"Satteldorf","type":"Kreisangehörige_Gemeinde"},"district":{"key":"08127","name":"Schwäbisch Hall","type":"Landkreis"},"federalState":{"key":"08","name":"Baden-Württemberg"}},{"name":"Lindenstr.","postalCode":"74589","locality":"Satteldorf","municipality":{"key":"08127073","name":"Satteldorf","type":"Kreisangehörige_Gemeinde"},"district":{"key":"08127","name":"Schwäbisch Hall","type":"Landkreis"},"federalState":{"key":"08","name":"Baden-Württemberg"}},{"name":"Meisenweg","postalCode":"74589","locality":"Satteldorf","municipality":{"key":"08127073","name":"Satteldorf","type":"Kreisangehörige_Gemeinde"},"district":{"key":"08127","name":"Schwäbisch Hall","type":"Landkreis"},"federalState":{"key":"08","name":"Baden-Württemberg"}},{"name":"Mühlfeldstr.","postalCode":"74589","locality":"Satteldorf","municipality":{"key":"08127073","name":"Satteldorf","type":"Kreisangehörige_Gemeinde"},"district":{"key":"08127","name":"Schwäbisch Hall","type":"Landkreis"},"federalState":{"key":"08","name":"Baden-Württemberg"}},{"name":"Müllersgäßle","postalCode":"74589","locality":"Satteldorf","municipality":{"key":"08127073","name":"Satteldorf","type":"Kreisangehörige_Gemeinde"},"district":{"key":"08127","name":"Schwäbisch Hall","type":"Landkreis"},"federalState":{"key":"08","name":"Baden-Württemberg"}},{"name":"Neidenfelser Str.","postalCode":"74589","locality":"Satteldorf","municipality":{"key":"08127073","name":"Satteldorf","type":"Kreisangehörige_Gemeinde"},"district":{"key":"08127","name":"Schwäbisch Hall","type":"Landkreis"},"federalState":{"key":"08","name":"Baden-Württemberg"}},{"name":"Neuweg","postalCode":"74589","locality":"Satteldorf","municipality":{"key":"08127073","name":"Satteldorf","type":"Kreisangehörige_Gemeinde"},"district":{"key":"08127","name":"Schwäbisch Hall","type":"Landkreis"},"federalState":{"key":"08","name":"Baden-Württemberg"}},{"name":"Neuwiesenweg","postalCode":"74589","locality":"Satteldorf","municipality":{"key":"08127073","name":"Satteldorf","type":"Kreisangehörige_Gemeinde"},"district":{"key":"08127","name":"Schwäbisch Hall","type":"Landkreis"},"federalState":{"key":"08","name":"Baden-Württemberg"}},{"name":"Nord-West-Umgehung","postalCode":"74589","locality":"Satteldorf","municipality":{"key":"08127073","name":"Satteldorf","type":"Kreisangehörige_Gemeinde"},"district":{"key":"08127","name":"Schwäbisch Hall","type":"Landkreis"},"federalState":{"key":"08","name":"Baden-Württemberg"}},{"name":"Obere Gasse","postalCode":"74589","locality":"Satteldorf","municipality":{"key":"08127073","name":"Satteldorf","type":"Kreisangehörige_Gemeinde"},"district":{"key":"08127","name":"Schwäbisch Hall","type":"Landkreis"},"federalState":{"key":"08","name":"Baden-Württemberg"}},{"name":"Obere Gronach","postalCode":"74589","locality":"Satteldorf","municipality":{"key":"08127073","name":"Satteldorf","type":"Kreisangehörige_Gemeinde"},"district":{"key":"08127","name":"Schwäbisch Hall","type":"Landkreis"},"federalState":{"key":"08","name":"Baden-Württemberg"}},{"name":"Obere Kaiserstr.","postalCode":"74589","locality":"Satteldorf","municipality":{"key":"08127073","name":"Satteldorf","type":"Kreisangehörige_Gemeinde"},"district":{"key":"08127","name":"Schwäbisch Hall","type":"Landkreis"},"federalState":{"key":"08","name":"Baden-Württemberg"}},{"name":"Oberer Kochbuck","postalCode":"74589","locality":"Satteldorf","municipality":{"key":"08127073","name":"Satteldorf","type":"Kreisangehörige_Gemeinde"},"district":{"key":"08127","name":"Schwäbisch Hall","type":"Landkreis"},"federalState":{"key":"08","name":"Baden-Württemberg"}},{"name":"Pfaffenäckerweg","postalCode":"74589","locality":"Satteldorf","municipality":{"key":"08127073","name":"Satteldorf","type":"Kreisangehörige_Gemeinde"},"district":{"key":"08127","name":"Schwäbisch Hall","type":"Landkreis"},"federalState":{"key":"08","name":"Baden-Württemberg"}},{"name":"Pfarrwiesenweg","postalCode":"74589","locality":"Satteldorf","municipality":{"key":"08127073","name":"Satteldorf","type":"Kreisangehörige_Gemeinde"},"district":{"key":"08127","name":"Schwäbisch Hall","type":"Landkreis"},"federalState":{"key":"08","name":"Baden-Württemberg"}},{"name":"Prof.-Zenneck-Weg","postalCode":"74589","locality":"Satteldorf","municipality":{"key":"08127073","name":"Satteldorf","type":"Kreisangehörige_Gemeinde"},"district":{"key":"08127","name":"Schwäbisch Hall","type":"Landkreis"},"federalState":{"key":"08","name":"Baden-Württemberg"}},{"name":"Quellweg","postalCode":"74589","locality":"Satteldorf","municipality":{"key":"08127073","name":"Satteldorf","type":"Kreisangehörige_Gemeinde"},"district":{"key":"08127","name":"Schwäbisch Hall","type":"Landkreis"},"federalState":{"key":"08","name":"Baden-Württemberg"}},{"name":"Rosenweg","postalCode":"74589","locality":"Satteldorf","municipality":{"key":"08127073","name":"Satteldorf","type":"Kreisangehörige_Gemeinde"},"district":{"key":"08127","name":"Schwäbisch Hall","type":"Landkreis"},"federalState":{"key":"08","name":"Baden-Württemberg"}},{"name":"Rötstr.","postalCode":"74589","locality":"Satteldorf","municipality":{"key":"08127073","name":"Satteldorf","type":"Kreisangehörige_Gemeinde"},"district":{"key":"08127","name":"Schwäbisch Hall","type":"Landkreis"},"federalState":{"key":"08","name":"Baden-Württemberg"}},{"name":"Satteldorfer Hauptstr.","postalCode":"74589","locality":"Satteldorf","municipality":{"key":"08127073","name":"Satteldorf","type":"Kreisangehörige_Gemeinde"},"district":{"key":"08127","name":"Schwäbisch Hall","type":"Landkreis"},"federalState":{"key":"08","name":"Baden-Württemberg"}},{"name":"Sattelweiler Weg","postalCode":"74589","locality":"Satteldorf","municipality":{"key":"08127073","name":"Satteldorf","type":"Kreisangehörige_Gemeinde"},"district":{"key":"08127","name":"Schwäbisch Hall","type":"Landkreis"},"federalState":{"key":"08","name":"Baden-Württemberg"}},{"name":"Schloßstr.","postalCode":"74589","locality":"Satteldorf","municipality":{"key":"08127073","name":"Satteldorf","type":"Kreisangehörige_Gemeinde"},"district":{"key":"08127","name":"Schwäbisch Hall","type":"Landkreis"},"federalState":{"key":"08","name":"Baden-Württemberg"}},{"name":"Schulstr.","postalCode":"74589","locality":"Satteldorf","municipality":{"key":"08127073","name":"Satteldorf","type":"Kreisangehörige_Gemeinde"},"district":{"key":"08127","name":"Schwäbisch Hall","type":"Landkreis"},"federalState":{"key":"08","name":"Baden-Württemberg"}},{"name":"Schwabenweg","postalCode":"74589","locality":"Satteldorf","municipality":{"key":"08127073","name":"Satteldorf","type":"Kreisangehörige_Gemeinde"},"district":{"key":"08127","name":"Schwäbisch Hall","type":"Landkreis"},"federalState":{"key":"08","name":"Baden-Württemberg"}},{"name":"Seeweg","postalCode":"74589","locality":"Satteldorf","municipality":{"key":"08127073","name":"Satteldorf","type":"Kreisangehörige_Gemeinde"},"district":{"key":"08127","name":"Schwäbisch Hall","type":"Landkreis"},"federalState":{"key":"08","name":"Baden-Württemberg"}},{"name":"Siedlungsstr.","postalCode":"74589","locality":"Satteldorf","municipality":{"key":"08127073","name":"Satteldorf","type":"Kreisangehörige_Gemeinde"},"district":{"key":"08127","name":"Schwäbisch Hall","type":"Landkreis"},"federalState":{"key":"08","name":"Baden-Württemberg"}},{"name":"Sonnenweg","postalCode":"74589","locality":"Satteldorf","municipality":{"key":"08127073","name":"Satteldorf","type":"Kreisangehörige_Gemeinde"},"district":{"key":"08127","name":"Schwäbisch Hall","type":"Landkreis"},"federalState":{"key":"08","name":"Baden-Württemberg"}},{"name":"Starenweg","postalCode":"74589","locality":"Satteldorf","municipality":{"key":"08127073","name":"Satteldorf","type":"Kreisangehörige_Gemeinde"},"district":{"key":"08127","name":"Schwäbisch Hall","type":"Landkreis"},"federalState":{"key":"08","name":"Baden-Württemberg"}},{"name":"Stauferring","postalCode":"74589","locality":"Satteldorf","municipality":{"key":"08127073","name":"Satteldorf","type":"Kreisangehörige_Gemeinde"},"district":{"key":"08127","name":"Schwäbisch Hall","type":"Landkreis"},"federalState":{"key":"08","name":"Baden-Württemberg"}},{"name":"Stöckichweg","postalCode":"74589","locality":"Satteldorf","municipality":{"key":"08127073","name":"Satteldorf","type":"Kreisangehörige_Gemeinde"},"district":{"key":"08127","name":"Schwäbisch Hall","type":"Landkreis"},"federalState":{"key":"08","name":"Baden-Württemberg"}},{"name":"Sumbachweg","postalCode":"74589","locality":"Satteldorf","municipality":{"key":"08127073","name":"Satteldorf","type":"Kreisangehörige_Gemeinde"},"district":{"key":"08127","name":"Schwäbisch Hall","type":"Landkreis"},"federalState":{"key":"08","name":"Baden-Württemberg"}},{"name":"Talgasse","postalCode":"74589","locality":"Satteldorf","municipality":{"key":"08127073","name":"Satteldorf","type":"Kreisangehörige_Gemeinde"},"district":{"key":"08127","name":"Schwäbisch Hall","type":"Landkreis"},"federalState":{"key":"08","name":"Baden-Württemberg"}},{"name":"Triftshausen","postalCode":"74589","locality":"Satteldorf","municipality":{"key":"08127073","name":"Satteldorf","type":"Kreisangehörige_Gemeinde"},"district":{"key":"08127","name":"Schwäbisch Hall","type":"Landkreis"},"federalState":{"key":"08","name":"Baden-Württemberg"}},{"name":"Untere Gasse","postalCode":"74589","locality":"Satteldorf","municipality":{"key":"08127073","name":"Satteldorf","type":"Kreisangehörige_Gemeinde"},"district":{"key":"08127","name":"Schwäbisch Hall","type":"Landkreis"},"federalState":{"key":"08","name":"Baden-Württemberg"}},{"name":"Untere Kaiserstr.","postalCode":"74589","locality":"Satteldorf","municipality":{"key":"08127073","name":"Satteldorf","type":"Kreisangehörige_Gemeinde"},"district":{"key":"08127","name":"Schwäbisch Hall","type":"Landkreis"},"federalState":{"key":"08","name":"Baden-Württemberg"}},{"name":"Unterer Kochbuck","postalCode":"74589","locality":"Satteldorf","municipality":{"key":"08127073","name":"Satteldorf","type":"Kreisangehörige_Gemeinde"},"district":{"key":"08127","name":"Schwäbisch Hall","type":"Landkreis"},"federalState":{"key":"08","name":"Baden-Württemberg"}},{"name":"Vogelgässle","postalCode":"74589","locality":"Satteldorf","municipality":{"key":"08127073","name":"Satteldorf","type":"Kreisangehörige_Gemeinde"},"district":{"key":"08127","name":"Schwäbisch Hall","type":"Landkreis"},"federalState":{"key":"08","name":"Baden-Württemberg"}},{"name":"Weidenhäuser Str.","postalCode":"74589","locality":"Satteldorf","municipality":{"key":"08127073","name":"Satteldorf","type":"Kreisangehörige_Gemeinde"},"district":{"key":"08127","name":"Schwäbisch Hall","type":"Landkreis"},"federalState":{"key":"08","name":"Baden-Württemberg"}},{"name":"Winterwiesenweg","postalCode":"74589","locality":"Satteldorf","municipality":{"key":"08127073","name":"Satteldorf","type":"Kreisangehörige_Gemeinde"},"district":{"key":"08127","name":"Schwäbisch Hall","type":"Landkreis"},"federalState":{"key":"08","name":"Baden-Württemberg"}},{"name":"Wolfsgasse","postalCode":"74589","locality":"Satteldorf","municipality":{"key":"08127073","name":"Satteldorf","type":"Kreisangehörige_Gemeinde"},"district":{"key":"08127","name":"Schwäbisch Hall","type":"Landkreis"},"federalState":{"key":"08","name":"Baden-Württemberg"}},{"name":"Wollmershäuser Str.","postalCode":"74589","locality":"Satteldorf","municipality":{"key":"08127073","name":"Satteldorf","type":"Kreisangehörige_Gemeinde"},"district":{"key":"08127","name":"Schwäbisch Hall","type":"Landkreis"},"federalState":{"key":"08","name":"Baden-Württemberg"}},{"name":"Zimmergässle","postalCode":"74589","locality":"Satteldorf","municipality":{"key":"08127073","name":"Satteldorf","type":"Kreisangehörige_Gemeinde"},"district":{"key":"08127","name":"Schwäbisch Hall","type":"Landkreis"},"federalState":{"key":"08","name":"Baden-Württemberg"}},{"name":"Zimmerplatzstr.","postalCode":"74589","locality":"Satteldorf","municipality":{"key":"08127073","name":"Satteldorf","type":"Kreisangehörige_Gemeinde"},"district":{"key":"08127","name":"Schwäbisch Hall","type":"Landkreis"},"federalState":{"key":"08","name":"Baden-Württemberg"}},{"name":"Zum Hornberg","postalCode":"74589","locality":"Satteldorf","municipality":{"key":"08127073","name":"Satteldorf","type":"Kreisangehörige_Gemeinde"},"district":{"key":"08127","name":"Schwäbisch Hall","type":"Landkreis"},"federalState":{"key":"08","name":"Baden-Württemberg"}},{"name":"Zum Osterfeld","postalCode":"74589","locality":"Satteldorf","municipality":{"key":"08127073","name":"Satteldorf","type":"Kreisangehörige_Gemeinde"},"district":{"key":"08127","name":"Schwäbisch Hall","type":"Landkreis"},"federalState":{"key":"08","name":"Baden-Württemberg"}},{"name":"Ödenbühlsteige","postalCode":"74523","locality":"Schwäbisch Hall","municipality":{"key":"08127076","name":"Schwäbisch Hall, Stadt","type":"Große_Kreisstadt"},"district":{"key":"08127","name":"Schwäbisch Hall","type":"Landkreis"},"federalState":{"key":"08","name":"Baden-Württemberg"}},]