[{"name":"Ackerstr.","postalCode":"78126","locality":"Königsfeld im Schwarzwald","municipality":{"key":"08326031","name":"Königsfeld im Schwarzwald","type":"Kreisangehörige_Gemeinde"},"district":{"key":"08326","name":"Schwarzwald-Baar-Kreis","type":"Landkreis"},"federalState":{"key":"08","name":"Baden-Württemberg"}},{"name":"Aigenstr.","postalCode":"78126","locality":"Königsfeld im Schwarzwald","municipality":{"key":"08326031","name":"Königsfeld im Schwarzwald","type":"Kreisangehörige_Gemeinde"},"district":{"key":"08326","name":"Schwarzwald-Baar-Kreis","type":"Landkreis"},"federalState":{"key":"08","name":"Baden-Württemberg"}},{"name":"Albblickweg","postalCode":"78126","locality":"Königsfeld im Schwarzwald","municipality":{"key":"08326031","name":"Königsfeld im Schwarzwald","type":"Kreisangehörige_Gemeinde"},"district":{"key":"08326","name":"Schwarzwald-Baar-Kreis","type":"Landkreis"},"federalState":{"key":"08","name":"Baden-Württemberg"}},{"name":"Albert-Schweitzer-Weg","postalCode":"78126","locality":"Königsfeld im Schwarzwald","municipality":{"key":"08326031","name":"Königsfeld im Schwarzwald","type":"Kreisangehörige_Gemeinde"},"district":{"key":"08326","name":"Schwarzwald-Baar-Kreis","type":"Landkreis"},"federalState":{"key":"08","name":"Baden-Württemberg"}},{"name":"Albstr.","postalCode":"78126","locality":"Königsfeld im Schwarzwald","municipality":{"key":"08326031","name":"Königsfeld im Schwarzwald","type":"Kreisangehörige_Gemeinde"},"district":{"key":"08326","name":"Schwarzwald-Baar-Kreis","type":"Landkreis"},"federalState":{"key":"08","name":"Baden-Württemberg"}},{"name":"Allemannenweg","postalCode":"78126","locality":"Königsfeld im Schwarzwald","municipality":{"key":"08326031","name":"Königsfeld im Schwarzwald","type":"Kreisangehörige_Gemeinde"},"district":{"key":"08326","name":"Schwarzwald-Baar-Kreis","type":"Landkreis"},"federalState":{"key":"08","name":"Baden-Württemberg"}},{"name":"Am Doniswald","postalCode":"78126","locality":"Königsfeld im Schwarzwald","municipality":{"key":"08326031","name":"Königsfeld im Schwarzwald","type":"Kreisangehörige_Gemeinde"},"district":{"key":"08326","name":"Schwarzwald-Baar-Kreis","type":"Landkreis"},"federalState":{"key":"08","name":"Baden-Württemberg"}},{"name":"Am Heiligenwald","postalCode":"78126","locality":"Königsfeld im Schwarzwald","municipality":{"key":"08326031","name":"Königsfeld im Schwarzwald","type":"Kreisangehörige_Gemeinde"},"district":{"key":"08326","name":"Schwarzwald-Baar-Kreis","type":"Landkreis"},"federalState":{"key":"08","name":"Baden-Württemberg"}},{"name":"Am Hutzelberg","postalCode":"78126","locality":"Königsfeld im Schwarzwald","municipality":{"key":"08326031","name":"Königsfeld im Schwarzwald","type":"Kreisangehörige_Gemeinde"},"district":{"key":"08326","name":"Schwarzwald-Baar-Kreis","type":"Landkreis"},"federalState":{"key":"08","name":"Baden-Württemberg"}},{"name":"Am Igel","postalCode":"78126","locality":"Königsfeld im Schwarzwald","municipality":{"key":"08326031","name":"Königsfeld im Schwarzwald","type":"Kreisangehörige_Gemeinde"},"district":{"key":"08326","name":"Schwarzwald-Baar-Kreis","type":"Landkreis"},"federalState":{"key":"08","name":"Baden-Württemberg"}},{"name":"Am Kurgarten","postalCode":"78126","locality":"Königsfeld im Schwarzwald","municipality":{"key":"08326031","name":"Königsfeld im Schwarzwald","type":"Kreisangehörige_Gemeinde"},"district":{"key":"08326","name":"Schwarzwald-Baar-Kreis","type":"Landkreis"},"federalState":{"key":"08","name":"Baden-Württemberg"}},{"name":"Am Lehenhof","postalCode":"78126","locality":"Königsfeld im Schwarzwald","municipality":{"key":"08326031","name":"Königsfeld im Schwarzwald","type":"Kreisangehörige_Gemeinde"},"district":{"key":"08326","name":"Schwarzwald-Baar-Kreis","type":"Landkreis"},"federalState":{"key":"08","name":"Baden-Württemberg"}},{"name":"Am Schniederberg","postalCode":"78126","locality":"Königsfeld im Schwarzwald","municipality":{"key":"08326031","name":"Königsfeld im Schwarzwald","type":"Kreisangehörige_Gemeinde"},"district":{"key":"08326","name":"Schwarzwald-Baar-Kreis","type":"Landkreis"},"federalState":{"key":"08","name":"Baden-Württemberg"}},{"name":"Amselweg","postalCode":"78126","locality":"Königsfeld im Schwarzwald","municipality":{"key":"08326031","name":"Königsfeld im Schwarzwald","type":"Kreisangehörige_Gemeinde"},"district":{"key":"08326","name":"Schwarzwald-Baar-Kreis","type":"Landkreis"},"federalState":{"key":"08","name":"Baden-Württemberg"}},{"name":"Am Waldheim","postalCode":"78126","locality":"Königsfeld im Schwarzwald","municipality":{"key":"08326031","name":"Königsfeld im Schwarzwald","type":"Kreisangehörige_Gemeinde"},"district":{"key":"08326","name":"Schwarzwald-Baar-Kreis","type":"Landkreis"},"federalState":{"key":"08","name":"Baden-Württemberg"}},{"name":"Auf dem Angel","postalCode":"78126","locality":"Königsfeld im Schwarzwald","municipality":{"key":"08326031","name":"Königsfeld im Schwarzwald","type":"Kreisangehörige_Gemeinde"},"district":{"key":"08326","name":"Schwarzwald-Baar-Kreis","type":"Landkreis"},"federalState":{"key":"08","name":"Baden-Württemberg"}},{"name":"Auf der Zinnet","postalCode":"78126","locality":"Königsfeld im Schwarzwald","municipality":{"key":"08326031","name":"Königsfeld im Schwarzwald","type":"Kreisangehörige_Gemeinde"},"district":{"key":"08326","name":"Schwarzwald-Baar-Kreis","type":"Landkreis"},"federalState":{"key":"08","name":"Baden-Württemberg"}},{"name":"August-Heisler-Weg","postalCode":"78126","locality":"Königsfeld im Schwarzwald","municipality":{"key":"08326031","name":"Königsfeld im Schwarzwald","type":"Kreisangehörige_Gemeinde"},"district":{"key":"08326","name":"Schwarzwald-Baar-Kreis","type":"Landkreis"},"federalState":{"key":"08","name":"Baden-Württemberg"}},{"name":"Bärweg","postalCode":"78126","locality":"Königsfeld im Schwarzwald","municipality":{"key":"08326031","name":"Königsfeld im Schwarzwald","type":"Kreisangehörige_Gemeinde"},"district":{"key":"08326","name":"Schwarzwald-Baar-Kreis","type":"Landkreis"},"federalState":{"key":"08","name":"Baden-Württemberg"}},{"name":"Bergackerstr.","postalCode":"78126","locality":"Königsfeld im Schwarzwald","municipality":{"key":"08326031","name":"Königsfeld im Schwarzwald","type":"Kreisangehörige_Gemeinde"},"district":{"key":"08326","name":"Schwarzwald-Baar-Kreis","type":"Landkreis"},"federalState":{"key":"08","name":"Baden-Württemberg"}},{"name":"Bergstr.","postalCode":"78126","locality":"Königsfeld im Schwarzwald","municipality":{"key":"08326031","name":"Königsfeld im Schwarzwald","type":"Kreisangehörige_Gemeinde"},"district":{"key":"08326","name":"Schwarzwald-Baar-Kreis","type":"Landkreis"},"federalState":{"key":"08","name":"Baden-Württemberg"}},{"name":"Berliner Str.","postalCode":"78126","locality":"Königsfeld im Schwarzwald","municipality":{"key":"08326031","name":"Königsfeld im Schwarzwald","type":"Kreisangehörige_Gemeinde"},"district":{"key":"08326","name":"Schwarzwald-Baar-Kreis","type":"Landkreis"},"federalState":{"key":"08","name":"Baden-Württemberg"}},{"name":"Bettelbrunnenweg","postalCode":"78126","locality":"Königsfeld im Schwarzwald","municipality":{"key":"08326031","name":"Königsfeld im Schwarzwald","type":"Kreisangehörige_Gemeinde"},"district":{"key":"08326","name":"Schwarzwald-Baar-Kreis","type":"Landkreis"},"federalState":{"key":"08","name":"Baden-Württemberg"}},{"name":"Birkenweg","postalCode":"78126","locality":"Königsfeld im Schwarzwald","municipality":{"key":"08326031","name":"Königsfeld im Schwarzwald","type":"Kreisangehörige_Gemeinde"},"district":{"key":"08326","name":"Schwarzwald-Baar-Kreis","type":"Landkreis"},"federalState":{"key":"08","name":"Baden-Württemberg"}},{"name":"Bismarckstr.","postalCode":"78126","locality":"Königsfeld im Schwarzwald","municipality":{"key":"08326031","name":"Königsfeld im Schwarzwald","type":"Kreisangehörige_Gemeinde"},"district":{"key":"08326","name":"Schwarzwald-Baar-Kreis","type":"Landkreis"},"federalState":{"key":"08","name":"Baden-Württemberg"}},{"name":"Bodelschwinghweg","postalCode":"78126","locality":"Königsfeld im Schwarzwald","municipality":{"key":"08326031","name":"Königsfeld im Schwarzwald","type":"Kreisangehörige_Gemeinde"},"district":{"key":"08326","name":"Schwarzwald-Baar-Kreis","type":"Landkreis"},"federalState":{"key":"08","name":"Baden-Württemberg"}},{"name":"Bregnitzstr.","postalCode":"78126","locality":"Königsfeld im Schwarzwald","municipality":{"key":"08326031","name":"Königsfeld im Schwarzwald","type":"Kreisangehörige_Gemeinde"},"district":{"key":"08326","name":"Schwarzwald-Baar-Kreis","type":"Landkreis"},"federalState":{"key":"08","name":"Baden-Württemberg"}},{"name":"Brücklewaldweg","postalCode":"78126","locality":"Königsfeld im Schwarzwald","municipality":{"key":"08326031","name":"Königsfeld im Schwarzwald","type":"Kreisangehörige_Gemeinde"},"district":{"key":"08326","name":"Schwarzwald-Baar-Kreis","type":"Landkreis"},"federalState":{"key":"08","name":"Baden-Württemberg"}},{"name":"Brühlstr.","postalCode":"78126","locality":"Königsfeld im Schwarzwald","municipality":{"key":"08326031","name":"Königsfeld im Schwarzwald","type":"Kreisangehörige_Gemeinde"},"district":{"key":"08326","name":"Schwarzwald-Baar-Kreis","type":"Landkreis"},"federalState":{"key":"08","name":"Baden-Württemberg"}},{"name":"Brunnenstr.","postalCode":"78126","locality":"Königsfeld im Schwarzwald","municipality":{"key":"08326031","name":"Königsfeld im Schwarzwald","type":"Kreisangehörige_Gemeinde"},"district":{"key":"08326","name":"Schwarzwald-Baar-Kreis","type":"Landkreis"},"federalState":{"key":"08","name":"Baden-Württemberg"}},{"name":"Buchenberger Str.","postalCode":"78126","locality":"Königsfeld im Schwarzwald","municipality":{"key":"08326031","name":"Königsfeld im Schwarzwald","type":"Kreisangehörige_Gemeinde"},"district":{"key":"08326","name":"Schwarzwald-Baar-Kreis","type":"Landkreis"},"federalState":{"key":"08","name":"Baden-Württemberg"}},{"name":"Burgberger Str.","postalCode":"78126","locality":"Königsfeld im Schwarzwald","municipality":{"key":"08326031","name":"Königsfeld im Schwarzwald","type":"Kreisangehörige_Gemeinde"},"district":{"key":"08326","name":"Schwarzwald-Baar-Kreis","type":"Landkreis"},"federalState":{"key":"08","name":"Baden-Württemberg"}},{"name":"Burgstr.","postalCode":"78126","locality":"Königsfeld im Schwarzwald","municipality":{"key":"08326031","name":"Königsfeld im Schwarzwald","type":"Kreisangehörige_Gemeinde"},"district":{"key":"08326","name":"Schwarzwald-Baar-Kreis","type":"Landkreis"},"federalState":{"key":"08","name":"Baden-Württemberg"}},{"name":"Carl-Wilhelm-Just Str.","postalCode":"78126","locality":"Königsfeld im Schwarzwald","municipality":{"key":"08326031","name":"Königsfeld im Schwarzwald","type":"Kreisangehörige_Gemeinde"},"district":{"key":"08326","name":"Schwarzwald-Baar-Kreis","type":"Landkreis"},"federalState":{"key":"08","name":"Baden-Württemberg"}},{"name":"Christian-Flaig-Weg","postalCode":"78126","locality":"Königsfeld im Schwarzwald","municipality":{"key":"08326031","name":"Königsfeld im Schwarzwald","type":"Kreisangehörige_Gemeinde"},"district":{"key":"08326","name":"Schwarzwald-Baar-Kreis","type":"Landkreis"},"federalState":{"key":"08","name":"Baden-Württemberg"}},{"name":"Danziger Str.","postalCode":"78126","locality":"Königsfeld im Schwarzwald","municipality":{"key":"08326031","name":"Königsfeld im Schwarzwald","type":"Kreisangehörige_Gemeinde"},"district":{"key":"08326","name":"Schwarzwald-Baar-Kreis","type":"Landkreis"},"federalState":{"key":"08","name":"Baden-Württemberg"}},{"name":"Dörfle","postalCode":"78126","locality":"Königsfeld im Schwarzwald","municipality":{"key":"08326031","name":"Königsfeld im Schwarzwald","type":"Kreisangehörige_Gemeinde"},"district":{"key":"08326","name":"Schwarzwald-Baar-Kreis","type":"Landkreis"},"federalState":{"key":"08","name":"Baden-Württemberg"}},{"name":"Erdmannsweilerstr.","postalCode":"78126","locality":"Königsfeld im Schwarzwald","municipality":{"key":"08326031","name":"Königsfeld im Schwarzwald","type":"Kreisangehörige_Gemeinde"},"district":{"key":"08326","name":"Schwarzwald-Baar-Kreis","type":"Landkreis"},"federalState":{"key":"08","name":"Baden-Württemberg"}},{"name":"Eschbachstr.","postalCode":"78126","locality":"Königsfeld im Schwarzwald","municipality":{"key":"08326031","name":"Königsfeld im Schwarzwald","type":"Kreisangehörige_Gemeinde"},"district":{"key":"08326","name":"Schwarzwald-Baar-Kreis","type":"Landkreis"},"federalState":{"key":"08","name":"Baden-Württemberg"}},{"name":"Fallenweg","postalCode":"78126","locality":"Königsfeld im Schwarzwald","municipality":{"key":"08326031","name":"Königsfeld im Schwarzwald","type":"Kreisangehörige_Gemeinde"},"district":{"key":"08326","name":"Schwarzwald-Baar-Kreis","type":"Landkreis"},"federalState":{"key":"08","name":"Baden-Württemberg"}},{"name":"Fischbacher Str.","postalCode":"78126","locality":"Königsfeld im Schwarzwald","municipality":{"key":"08326031","name":"Königsfeld im Schwarzwald","type":"Kreisangehörige_Gemeinde"},"district":{"key":"08326","name":"Schwarzwald-Baar-Kreis","type":"Landkreis"},"federalState":{"key":"08","name":"Baden-Württemberg"}},{"name":"Flözlinger Str.","postalCode":"78126","locality":"Königsfeld im Schwarzwald","municipality":{"key":"08326031","name":"Königsfeld im Schwarzwald","type":"Kreisangehörige_Gemeinde"},"district":{"key":"08326","name":"Schwarzwald-Baar-Kreis","type":"Landkreis"},"federalState":{"key":"08","name":"Baden-Württemberg"}},{"name":"Forststr.","postalCode":"78126","locality":"Königsfeld im Schwarzwald","municipality":{"key":"08326031","name":"Königsfeld im Schwarzwald","type":"Kreisangehörige_Gemeinde"},"district":{"key":"08326","name":"Schwarzwald-Baar-Kreis","type":"Landkreis"},"federalState":{"key":"08","name":"Baden-Württemberg"}},{"name":"Franziskusweg","postalCode":"78126","locality":"Königsfeld im Schwarzwald","municipality":{"key":"08326031","name":"Königsfeld im Schwarzwald","type":"Kreisangehörige_Gemeinde"},"district":{"key":"08326","name":"Schwarzwald-Baar-Kreis","type":"Landkreis"},"federalState":{"key":"08","name":"Baden-Württemberg"}},{"name":"Friedrichstr.","postalCode":"78126","locality":"Königsfeld im Schwarzwald","municipality":{"key":"08326031","name":"Königsfeld im Schwarzwald","type":"Kreisangehörige_Gemeinde"},"district":{"key":"08326","name":"Schwarzwald-Baar-Kreis","type":"Landkreis"},"federalState":{"key":"08","name":"Baden-Württemberg"}},{"name":"Gartenstr.","postalCode":"78126","locality":"Königsfeld im Schwarzwald","municipality":{"key":"08326031","name":"Königsfeld im Schwarzwald","type":"Kreisangehörige_Gemeinde"},"district":{"key":"08326","name":"Schwarzwald-Baar-Kreis","type":"Landkreis"},"federalState":{"key":"08","name":"Baden-Württemberg"}},{"name":"Gewerbestr.","postalCode":"78126","locality":"Königsfeld im Schwarzwald","municipality":{"key":"08326031","name":"Königsfeld im Schwarzwald","type":"Kreisangehörige_Gemeinde"},"district":{"key":"08326","name":"Schwarzwald-Baar-Kreis","type":"Landkreis"},"federalState":{"key":"08","name":"Baden-Württemberg"}},{"name":"Glaswaldstr.","postalCode":"78126","locality":"Königsfeld im Schwarzwald","municipality":{"key":"08326031","name":"Königsfeld im Schwarzwald","type":"Kreisangehörige_Gemeinde"},"district":{"key":"08326","name":"Schwarzwald-Baar-Kreis","type":"Landkreis"},"federalState":{"key":"08","name":"Baden-Württemberg"}},{"name":"Gnadenfreier Str.","postalCode":"78126","locality":"Königsfeld im Schwarzwald","municipality":{"key":"08326031","name":"Königsfeld im Schwarzwald","type":"Kreisangehörige_Gemeinde"},"district":{"key":"08326","name":"Schwarzwald-Baar-Kreis","type":"Landkreis"},"federalState":{"key":"08","name":"Baden-Württemberg"}},{"name":"Hahnenberg","postalCode":"78126","locality":"Königsfeld im Schwarzwald","municipality":{"key":"08326031","name":"Königsfeld im Schwarzwald","type":"Kreisangehörige_Gemeinde"},"district":{"key":"08326","name":"Schwarzwald-Baar-Kreis","type":"Landkreis"},"federalState":{"key":"08","name":"Baden-Württemberg"}},{"name":"Halden","postalCode":"78126","locality":"Königsfeld im Schwarzwald","municipality":{"key":"08326031","name":"Königsfeld im Schwarzwald","type":"Kreisangehörige_Gemeinde"},"district":{"key":"08326","name":"Schwarzwald-Baar-Kreis","type":"Landkreis"},"federalState":{"key":"08","name":"Baden-Württemberg"}},{"name":"Haldenweg","postalCode":"78126","locality":"Königsfeld im Schwarzwald","municipality":{"key":"08326031","name":"Königsfeld im Schwarzwald","type":"Kreisangehörige_Gemeinde"},"district":{"key":"08326","name":"Schwarzwald-Baar-Kreis","type":"Landkreis"},"federalState":{"key":"08","name":"Baden-Württemberg"}},{"name":"Hansenäckerweg","postalCode":"78126","locality":"Königsfeld im Schwarzwald","municipality":{"key":"08326031","name":"Königsfeld im Schwarzwald","type":"Kreisangehörige_Gemeinde"},"district":{"key":"08326","name":"Schwarzwald-Baar-Kreis","type":"Landkreis"},"federalState":{"key":"08","name":"Baden-Württemberg"}},{"name":"Harald-Gormsen-Weg","postalCode":"78126","locality":"Königsfeld im Schwarzwald","municipality":{"key":"08326031","name":"Königsfeld im Schwarzwald","type":"Kreisangehörige_Gemeinde"},"district":{"key":"08326","name":"Schwarzwald-Baar-Kreis","type":"Landkreis"},"federalState":{"key":"08","name":"Baden-Württemberg"}},{"name":"Hardtstr.","postalCode":"78126","locality":"Königsfeld im Schwarzwald","municipality":{"key":"08326031","name":"Königsfeld im Schwarzwald","type":"Kreisangehörige_Gemeinde"},"district":{"key":"08326","name":"Schwarzwald-Baar-Kreis","type":"Landkreis"},"federalState":{"key":"08","name":"Baden-Württemberg"}},{"name":"Haselnussweg","postalCode":"78126","locality":"Königsfeld im Schwarzwald","municipality":{"key":"08326031","name":"Königsfeld im Schwarzwald","type":"Kreisangehörige_Gemeinde"},"district":{"key":"08326","name":"Schwarzwald-Baar-Kreis","type":"Landkreis"},"federalState":{"key":"08","name":"Baden-Württemberg"}},{"name":"Hauertweg","postalCode":"78126","locality":"Königsfeld im Schwarzwald","municipality":{"key":"08326031","name":"Königsfeld im Schwarzwald","type":"Kreisangehörige_Gemeinde"},"district":{"key":"08326","name":"Schwarzwald-Baar-Kreis","type":"Landkreis"},"federalState":{"key":"08","name":"Baden-Württemberg"}},{"name":"Hermann-Voland-Str.","postalCode":"78126","locality":"Königsfeld im Schwarzwald","municipality":{"key":"08326031","name":"Königsfeld im Schwarzwald","type":"Kreisangehörige_Gemeinde"},"district":{"key":"08326","name":"Schwarzwald-Baar-Kreis","type":"Landkreis"},"federalState":{"key":"08","name":"Baden-Württemberg"}},{"name":"Hermelesäcker","postalCode":"78126","locality":"Königsfeld im Schwarzwald","municipality":{"key":"08326031","name":"Königsfeld im Schwarzwald","type":"Kreisangehörige_Gemeinde"},"district":{"key":"08326","name":"Schwarzwald-Baar-Kreis","type":"Landkreis"},"federalState":{"key":"08","name":"Baden-Württemberg"}},{"name":"Hinterer Weg","postalCode":"78126","locality":"Königsfeld im Schwarzwald","municipality":{"key":"08326031","name":"Königsfeld im Schwarzwald","type":"Kreisangehörige_Gemeinde"},"district":{"key":"08326","name":"Schwarzwald-Baar-Kreis","type":"Landkreis"},"federalState":{"key":"08","name":"Baden-Württemberg"}},{"name":"Höllweg","postalCode":"78126","locality":"Königsfeld im Schwarzwald","municipality":{"key":"08326031","name":"Königsfeld im Schwarzwald","type":"Kreisangehörige_Gemeinde"},"district":{"key":"08326","name":"Schwarzwald-Baar-Kreis","type":"Landkreis"},"federalState":{"key":"08","name":"Baden-Württemberg"}},{"name":"Holunderweg","postalCode":"78126","locality":"Königsfeld im Schwarzwald","municipality":{"key":"08326031","name":"Königsfeld im Schwarzwald","type":"Kreisangehörige_Gemeinde"},"district":{"key":"08326","name":"Schwarzwald-Baar-Kreis","type":"Landkreis"},"federalState":{"key":"08","name":"Baden-Württemberg"}},{"name":"Holzwiese","postalCode":"78126","locality":"Königsfeld im Schwarzwald","municipality":{"key":"08326031","name":"Königsfeld im Schwarzwald","type":"Kreisangehörige_Gemeinde"},"district":{"key":"08326","name":"Schwarzwald-Baar-Kreis","type":"Landkreis"},"federalState":{"key":"08","name":"Baden-Württemberg"}},{"name":"Hörnlishofstr.","postalCode":"78126","locality":"Königsfeld im Schwarzwald","municipality":{"key":"08326031","name":"Königsfeld im Schwarzwald","type":"Kreisangehörige_Gemeinde"},"district":{"key":"08326","name":"Schwarzwald-Baar-Kreis","type":"Landkreis"},"federalState":{"key":"08","name":"Baden-Württemberg"}},{"name":"Hutzelwaldweg","postalCode":"78126","locality":"Königsfeld im Schwarzwald","municipality":{"key":"08326031","name":"Königsfeld im Schwarzwald","type":"Kreisangehörige_Gemeinde"},"district":{"key":"08326","name":"Schwarzwald-Baar-Kreis","type":"Landkreis"},"federalState":{"key":"08","name":"Baden-Württemberg"}},{"name":"Hutzelweg","postalCode":"78126","locality":"Königsfeld im Schwarzwald","municipality":{"key":"08326031","name":"Königsfeld im Schwarzwald","type":"Kreisangehörige_Gemeinde"},"district":{"key":"08326","name":"Schwarzwald-Baar-Kreis","type":"Landkreis"},"federalState":{"key":"08","name":"Baden-Württemberg"}},{"name":"Im Baumgarten","postalCode":"78126","locality":"Königsfeld im Schwarzwald","municipality":{"key":"08326031","name":"Königsfeld im Schwarzwald","type":"Kreisangehörige_Gemeinde"},"district":{"key":"08326","name":"Schwarzwald-Baar-Kreis","type":"Landkreis"},"federalState":{"key":"08","name":"Baden-Württemberg"}},{"name":"Im Falken","postalCode":"78126","locality":"Königsfeld im Schwarzwald","municipality":{"key":"08326031","name":"Königsfeld im Schwarzwald","type":"Kreisangehörige_Gemeinde"},"district":{"key":"08326","name":"Schwarzwald-Baar-Kreis","type":"Landkreis"},"federalState":{"key":"08","name":"Baden-Württemberg"}},{"name":"Im Mesmerlehen","postalCode":"78126","locality":"Königsfeld im Schwarzwald","municipality":{"key":"08326031","name":"Königsfeld im Schwarzwald","type":"Kreisangehörige_Gemeinde"},"district":{"key":"08326","name":"Schwarzwald-Baar-Kreis","type":"Landkreis"},"federalState":{"key":"08","name":"Baden-Württemberg"}},{"name":"Im Moos","postalCode":"78126","locality":"Königsfeld im Schwarzwald","municipality":{"key":"08326031","name":"Königsfeld im Schwarzwald","type":"Kreisangehörige_Gemeinde"},"district":{"key":"08326","name":"Schwarzwald-Baar-Kreis","type":"Landkreis"},"federalState":{"key":"08","name":"Baden-Württemberg"}},{"name":"Im Schweizeracker","postalCode":"78126","locality":"Königsfeld im Schwarzwald","municipality":{"key":"08326031","name":"Königsfeld im Schwarzwald","type":"Kreisangehörige_Gemeinde"},"district":{"key":"08326","name":"Schwarzwald-Baar-Kreis","type":"Landkreis"},"federalState":{"key":"08","name":"Baden-Württemberg"}},{"name":"Im Winkel","postalCode":"78126","locality":"Königsfeld im Schwarzwald","municipality":{"key":"08326031","name":"Königsfeld im Schwarzwald","type":"Kreisangehörige_Gemeinde"},"district":{"key":"08326","name":"Schwarzwald-Baar-Kreis","type":"Landkreis"},"federalState":{"key":"08","name":"Baden-Württemberg"}},{"name":"In der Talaue","postalCode":"78126","locality":"Königsfeld im Schwarzwald","municipality":{"key":"08326031","name":"Königsfeld im Schwarzwald","type":"Kreisangehörige_Gemeinde"},"district":{"key":"08326","name":"Schwarzwald-Baar-Kreis","type":"Landkreis"},"federalState":{"key":"08","name":"Baden-Württemberg"}},{"name":"Jahnstr.","postalCode":"78126","locality":"Königsfeld im Schwarzwald","municipality":{"key":"08326031","name":"Königsfeld im Schwarzwald","type":"Kreisangehörige_Gemeinde"},"district":{"key":"08326","name":"Schwarzwald-Baar-Kreis","type":"Landkreis"},"federalState":{"key":"08","name":"Baden-Württemberg"}},{"name":"Jakob-Maier-Weg","postalCode":"78126","locality":"Königsfeld im Schwarzwald","municipality":{"key":"08326031","name":"Königsfeld im Schwarzwald","type":"Kreisangehörige_Gemeinde"},"district":{"key":"08326","name":"Schwarzwald-Baar-Kreis","type":"Landkreis"},"federalState":{"key":"08","name":"Baden-Württemberg"}},{"name":"Johanniterweg","postalCode":"78126","locality":"Königsfeld im Schwarzwald","municipality":{"key":"08326031","name":"Königsfeld im Schwarzwald","type":"Kreisangehörige_Gemeinde"},"district":{"key":"08326","name":"Schwarzwald-Baar-Kreis","type":"Landkreis"},"federalState":{"key":"08","name":"Baden-Württemberg"}},{"name":"Kinderweide","postalCode":"78126","locality":"Königsfeld im Schwarzwald","municipality":{"key":"08326031","name":"Königsfeld im Schwarzwald","type":"Kreisangehörige_Gemeinde"},"district":{"key":"08326","name":"Schwarzwald-Baar-Kreis","type":"Landkreis"},"federalState":{"key":"08","name":"Baden-Württemberg"}},{"name":"Klosterweg","postalCode":"78126","locality":"Königsfeld im Schwarzwald","municipality":{"key":"08326031","name":"Königsfeld im Schwarzwald","type":"Kreisangehörige_Gemeinde"},"district":{"key":"08326","name":"Schwarzwald-Baar-Kreis","type":"Landkreis"},"federalState":{"key":"08","name":"Baden-Württemberg"}},{"name":"Köhlerweg","postalCode":"78126","locality":"Königsfeld im Schwarzwald","municipality":{"key":"08326031","name":"Königsfeld im Schwarzwald","type":"Kreisangehörige_Gemeinde"},"district":{"key":"08326","name":"Schwarzwald-Baar-Kreis","type":"Landkreis"},"federalState":{"key":"08","name":"Baden-Württemberg"}},{"name":"Kohlwald","postalCode":"78126","locality":"Königsfeld im Schwarzwald","municipality":{"key":"08326031","name":"Königsfeld im Schwarzwald","type":"Kreisangehörige_Gemeinde"},"district":{"key":"08326","name":"Schwarzwald-Baar-Kreis","type":"Landkreis"},"federalState":{"key":"08","name":"Baden-Württemberg"}},{"name":"Königsfelder Str.","postalCode":"78126","locality":"Königsfeld im Schwarzwald","municipality":{"key":"08326031","name":"Königsfeld im Schwarzwald","type":"Kreisangehörige_Gemeinde"},"district":{"key":"08326","name":"Schwarzwald-Baar-Kreis","type":"Landkreis"},"federalState":{"key":"08","name":"Baden-Württemberg"}},{"name":"Königsfelderweg","postalCode":"78126","locality":"Königsfeld im Schwarzwald","municipality":{"key":"08326031","name":"Königsfeld im Schwarzwald","type":"Kreisangehörige_Gemeinde"},"district":{"key":"08326","name":"Schwarzwald-Baar-Kreis","type":"Landkreis"},"federalState":{"key":"08","name":"Baden-Württemberg"}},{"name":"Kronengasse","postalCode":"78126","locality":"Königsfeld im Schwarzwald","municipality":{"key":"08326031","name":"Königsfeld im Schwarzwald","type":"Kreisangehörige_Gemeinde"},"district":{"key":"08326","name":"Schwarzwald-Baar-Kreis","type":"Landkreis"},"federalState":{"key":"08","name":"Baden-Württemberg"}},{"name":"Kurpark","postalCode":"78126","locality":"Königsfeld im Schwarzwald","municipality":{"key":"08326031","name":"Königsfeld im Schwarzwald","type":"Kreisangehörige_Gemeinde"},"district":{"key":"08326","name":"Schwarzwald-Baar-Kreis","type":"Landkreis"},"federalState":{"key":"08","name":"Baden-Württemberg"}},{"name":"Lange Gasse","postalCode":"78126","locality":"Königsfeld im Schwarzwald","municipality":{"key":"08326031","name":"Königsfeld im Schwarzwald","type":"Kreisangehörige_Gemeinde"},"district":{"key":"08326","name":"Schwarzwald-Baar-Kreis","type":"Landkreis"},"federalState":{"key":"08","name":"Baden-Württemberg"}},{"name":"Latzenwiesenweg","postalCode":"78126","locality":"Königsfeld im Schwarzwald","municipality":{"key":"08326031","name":"Königsfeld im Schwarzwald","type":"Kreisangehörige_Gemeinde"},"district":{"key":"08326","name":"Schwarzwald-Baar-Kreis","type":"Landkreis"},"federalState":{"key":"08","name":"Baden-Württemberg"}},{"name":"Lehenstr.","postalCode":"78126","locality":"Königsfeld im Schwarzwald","municipality":{"key":"08326031","name":"Königsfeld im Schwarzwald","type":"Kreisangehörige_Gemeinde"},"district":{"key":"08326","name":"Schwarzwald-Baar-Kreis","type":"Landkreis"},"federalState":{"key":"08","name":"Baden-Württemberg"}},{"name":"Leiberweg","postalCode":"78126","locality":"Königsfeld im Schwarzwald","municipality":{"key":"08326031","name":"Königsfeld im Schwarzwald","type":"Kreisangehörige_Gemeinde"},"district":{"key":"08326","name":"Schwarzwald-Baar-Kreis","type":"Landkreis"},"federalState":{"key":"08","name":"Baden-Württemberg"}},{"name":"Lerchenweg","postalCode":"78126","locality":"Königsfeld im Schwarzwald","municipality":{"key":"08326031","name":"Königsfeld im Schwarzwald","type":"Kreisangehörige_Gemeinde"},"district":{"key":"08326","name":"Schwarzwald-Baar-Kreis","type":"Landkreis"},"federalState":{"key":"08","name":"Baden-Württemberg"}},{"name":"Lindenloch","postalCode":"78126","locality":"Königsfeld im Schwarzwald","municipality":{"key":"08326031","name":"Königsfeld im Schwarzwald","type":"Kreisangehörige_Gemeinde"},"district":{"key":"08326","name":"Schwarzwald-Baar-Kreis","type":"Landkreis"},"federalState":{"key":"08","name":"Baden-Württemberg"}},{"name":"Lindenplatz","postalCode":"78126","locality":"Königsfeld im Schwarzwald","municipality":{"key":"08326031","name":"Königsfeld im Schwarzwald","type":"Kreisangehörige_Gemeinde"},"district":{"key":"08326","name":"Schwarzwald-Baar-Kreis","type":"Landkreis"},"federalState":{"key":"08","name":"Baden-Württemberg"}},{"name":"Lindenstr.","postalCode":"78126","locality":"Königsfeld im Schwarzwald","municipality":{"key":"08326031","name":"Königsfeld im Schwarzwald","type":"Kreisangehörige_Gemeinde"},"district":{"key":"08326","name":"Schwarzwald-Baar-Kreis","type":"Landkreis"},"federalState":{"key":"08","name":"Baden-Württemberg"}},{"name":"Linienweg","postalCode":"78126","locality":"Königsfeld im Schwarzwald","municipality":{"key":"08326031","name":"Königsfeld im Schwarzwald","type":"Kreisangehörige_Gemeinde"},"district":{"key":"08326","name":"Schwarzwald-Baar-Kreis","type":"Landkreis"},"federalState":{"key":"08","name":"Baden-Württemberg"}},{"name":"Litzelbronner Weg","postalCode":"78126","locality":"Königsfeld im Schwarzwald","municipality":{"key":"08326031","name":"Königsfeld im Schwarzwald","type":"Kreisangehörige_Gemeinde"},"district":{"key":"08326","name":"Schwarzwald-Baar-Kreis","type":"Landkreis"},"federalState":{"key":"08","name":"Baden-Württemberg"}},{"name":"Luisenstr.","postalCode":"78126","locality":"Königsfeld im Schwarzwald","municipality":{"key":"08326031","name":"Königsfeld im Schwarzwald","type":"Kreisangehörige_Gemeinde"},"district":{"key":"08326","name":"Schwarzwald-Baar-Kreis","type":"Landkreis"},"federalState":{"key":"08","name":"Baden-Württemberg"}},{"name":"Mariazeller Str.","postalCode":"78126","locality":"Königsfeld im Schwarzwald","municipality":{"key":"08326031","name":"Königsfeld im Schwarzwald","type":"Kreisangehörige_Gemeinde"},"district":{"key":"08326","name":"Schwarzwald-Baar-Kreis","type":"Landkreis"},"federalState":{"key":"08","name":"Baden-Württemberg"}},{"name":"Martinsweiler","postalCode":"78126","locality":"Königsfeld im Schwarzwald","municipality":{"key":"08326031","name":"Königsfeld im Schwarzwald","type":"Kreisangehörige_Gemeinde"},"district":{"key":"08326","name":"Schwarzwald-Baar-Kreis","type":"Landkreis"},"federalState":{"key":"08","name":"Baden-Württemberg"}},{"name":"Mauerhäusleweg","postalCode":"78126","locality":"Königsfeld im Schwarzwald","municipality":{"key":"08326031","name":"Königsfeld im Schwarzwald","type":"Kreisangehörige_Gemeinde"},"district":{"key":"08326","name":"Schwarzwald-Baar-Kreis","type":"Landkreis"},"federalState":{"key":"08","name":"Baden-Württemberg"}},{"name":"Mittlerer Weg","postalCode":"78126","locality":"Königsfeld im Schwarzwald","municipality":{"key":"08326031","name":"Königsfeld im Schwarzwald","type":"Kreisangehörige_Gemeinde"},"district":{"key":"08326","name":"Schwarzwald-Baar-Kreis","type":"Landkreis"},"federalState":{"key":"08","name":"Baden-Württemberg"}},{"name":"Mönchhof","postalCode":"78126","locality":"Königsfeld im Schwarzwald","municipality":{"key":"08326031","name":"Königsfeld im Schwarzwald","type":"Kreisangehörige_Gemeinde"},"district":{"key":"08326","name":"Schwarzwald-Baar-Kreis","type":"Landkreis"},"federalState":{"key":"08","name":"Baden-Württemberg"}},{"name":"Mönchweilerstr.","postalCode":"78126","locality":"Königsfeld im Schwarzwald","municipality":{"key":"08326031","name":"Königsfeld im Schwarzwald","type":"Kreisangehörige_Gemeinde"},"district":{"key":"08326","name":"Schwarzwald-Baar-Kreis","type":"Landkreis"},"federalState":{"key":"08","name":"Baden-Württemberg"}},{"name":"Mozartweg","postalCode":"78126","locality":"Königsfeld im Schwarzwald","municipality":{"key":"08326031","name":"Königsfeld im Schwarzwald","type":"Kreisangehörige_Gemeinde"},"district":{"key":"08326","name":"Schwarzwald-Baar-Kreis","type":"Landkreis"},"federalState":{"key":"08","name":"Baden-Württemberg"}},{"name":"Muckenloch","postalCode":"78126","locality":"Königsfeld im Schwarzwald","municipality":{"key":"08326031","name":"Königsfeld im Schwarzwald","type":"Kreisangehörige_Gemeinde"},"district":{"key":"08326","name":"Schwarzwald-Baar-Kreis","type":"Landkreis"},"federalState":{"key":"08","name":"Baden-Württemberg"}},{"name":"Mühlenweg","postalCode":"78126","locality":"Königsfeld im Schwarzwald","municipality":{"key":"08326031","name":"Königsfeld im Schwarzwald","type":"Kreisangehörige_Gemeinde"},"district":{"key":"08326","name":"Schwarzwald-Baar-Kreis","type":"Landkreis"},"federalState":{"key":"08","name":"Baden-Württemberg"}},{"name":"Mühllehen","postalCode":"78126","locality":"Königsfeld im Schwarzwald","municipality":{"key":"08326031","name":"Königsfeld im Schwarzwald","type":"Kreisangehörige_Gemeinde"},"district":{"key":"08326","name":"Schwarzwald-Baar-Kreis","type":"Landkreis"},"federalState":{"key":"08","name":"Baden-Württemberg"}},{"name":"Müllergässle","postalCode":"78126","locality":"Königsfeld im Schwarzwald","municipality":{"key":"08326031","name":"Königsfeld im Schwarzwald","type":"Kreisangehörige_Gemeinde"},"district":{"key":"08326","name":"Schwarzwald-Baar-Kreis","type":"Landkreis"},"federalState":{"key":"08","name":"Baden-Württemberg"}},{"name":"Nägelesee","postalCode":"78126","locality":"Königsfeld im Schwarzwald","municipality":{"key":"08326031","name":"Königsfeld im Schwarzwald","type":"Kreisangehörige_Gemeinde"},"district":{"key":"08326","name":"Schwarzwald-Baar-Kreis","type":"Landkreis"},"federalState":{"key":"08","name":"Baden-Württemberg"}},{"name":"Neuhauser Str.","postalCode":"78126","locality":"Königsfeld im Schwarzwald","municipality":{"key":"08326031","name":"Königsfeld im Schwarzwald","type":"Kreisangehörige_Gemeinde"},"district":{"key":"08326","name":"Schwarzwald-Baar-Kreis","type":"Landkreis"},"federalState":{"key":"08","name":"Baden-Württemberg"}},{"name":"Nonnenbergweg","postalCode":"78126","locality":"Königsfeld im Schwarzwald","municipality":{"key":"08326031","name":"Königsfeld im Schwarzwald","type":"Kreisangehörige_Gemeinde"},"district":{"key":"08326","name":"Schwarzwald-Baar-Kreis","type":"Landkreis"},"federalState":{"key":"08","name":"Baden-Württemberg"}},{"name":"Oberer Neue Welt Weg","postalCode":"78126","locality":"Königsfeld im Schwarzwald","municipality":{"key":"08326031","name":"Königsfeld im Schwarzwald","type":"Kreisangehörige_Gemeinde"},"district":{"key":"08326","name":"Schwarzwald-Baar-Kreis","type":"Landkreis"},"federalState":{"key":"08","name":"Baden-Württemberg"}},{"name":"Obereschacher Str.","postalCode":"78126","locality":"Königsfeld im Schwarzwald","municipality":{"key":"08326031","name":"Königsfeld im Schwarzwald","type":"Kreisangehörige_Gemeinde"},"district":{"key":"08326","name":"Schwarzwald-Baar-Kreis","type":"Landkreis"},"federalState":{"key":"08","name":"Baden-Württemberg"}},{"name":"Obermartinsweiler","postalCode":"78126","locality":"Königsfeld im Schwarzwald","municipality":{"key":"08326031","name":"Königsfeld im Schwarzwald","type":"Kreisangehörige_Gemeinde"},"district":{"key":"08326","name":"Schwarzwald-Baar-Kreis","type":"Landkreis"},"federalState":{"key":"08","name":"Baden-Württemberg"}},{"name":"Ortinstr.","postalCode":"78126","locality":"Königsfeld im Schwarzwald","municipality":{"key":"08326031","name":"Königsfeld im Schwarzwald","type":"Kreisangehörige_Gemeinde"},"district":{"key":"08326","name":"Schwarzwald-Baar-Kreis","type":"Landkreis"},"federalState":{"key":"08","name":"Baden-Württemberg"}},{"name":"Ostlandstr.","postalCode":"78126","locality":"Königsfeld im Schwarzwald","municipality":{"key":"08326031","name":"Königsfeld im Schwarzwald","type":"Kreisangehörige_Gemeinde"},"district":{"key":"08326","name":"Schwarzwald-Baar-Kreis","type":"Landkreis"},"federalState":{"key":"08","name":"Baden-Württemberg"}},{"name":"Paradiesweg","postalCode":"78126","locality":"Königsfeld im Schwarzwald","municipality":{"key":"08326031","name":"Königsfeld im Schwarzwald","type":"Kreisangehörige_Gemeinde"},"district":{"key":"08326","name":"Schwarzwald-Baar-Kreis","type":"Landkreis"},"federalState":{"key":"08","name":"Baden-Württemberg"}},{"name":"Parkstr.","postalCode":"78126","locality":"Königsfeld im Schwarzwald","municipality":{"key":"08326031","name":"Königsfeld im Schwarzwald","type":"Kreisangehörige_Gemeinde"},"district":{"key":"08326","name":"Schwarzwald-Baar-Kreis","type":"Landkreis"},"federalState":{"key":"08","name":"Baden-Württemberg"}},{"name":"Professor-Domagk-Weg","postalCode":"78126","locality":"Königsfeld im Schwarzwald","municipality":{"key":"08326031","name":"Königsfeld im Schwarzwald","type":"Kreisangehörige_Gemeinde"},"district":{"key":"08326","name":"Schwarzwald-Baar-Kreis","type":"Landkreis"},"federalState":{"key":"08","name":"Baden-Württemberg"}},{"name":"Rainhäuser","postalCode":"78126","locality":"Königsfeld im Schwarzwald","municipality":{"key":"08326031","name":"Königsfeld im Schwarzwald","type":"Kreisangehörige_Gemeinde"},"district":{"key":"08326","name":"Schwarzwald-Baar-Kreis","type":"Landkreis"},"federalState":{"key":"08","name":"Baden-Württemberg"}},{"name":"Rathausstr.","postalCode":"78126","locality":"Königsfeld im Schwarzwald","municipality":{"key":"08326031","name":"Königsfeld im Schwarzwald","type":"Kreisangehörige_Gemeinde"},"district":{"key":"08326","name":"Schwarzwald-Baar-Kreis","type":"Landkreis"},"federalState":{"key":"08","name":"Baden-Württemberg"}},{"name":"Reutenbachstr.","postalCode":"78126","locality":"Königsfeld im Schwarzwald","municipality":{"key":"08326031","name":"Königsfeld im Schwarzwald","type":"Kreisangehörige_Gemeinde"},"district":{"key":"08326","name":"Schwarzwald-Baar-Kreis","type":"Landkreis"},"federalState":{"key":"08","name":"Baden-Württemberg"}},{"name":"Ritterweg","postalCode":"78126","locality":"Königsfeld im Schwarzwald","municipality":{"key":"08326031","name":"Königsfeld im Schwarzwald","type":"Kreisangehörige_Gemeinde"},"district":{"key":"08326","name":"Schwarzwald-Baar-Kreis","type":"Landkreis"},"federalState":{"key":"08","name":"Baden-Württemberg"}},{"name":"Rotwaldstr.","postalCode":"78126","locality":"Königsfeld im Schwarzwald","municipality":{"key":"08326031","name":"Königsfeld im Schwarzwald","type":"Kreisangehörige_Gemeinde"},"district":{"key":"08326","name":"Schwarzwald-Baar-Kreis","type":"Landkreis"},"federalState":{"key":"08","name":"Baden-Württemberg"}},{"name":"Rotwaldweg","postalCode":"78126","locality":"Königsfeld im Schwarzwald","municipality":{"key":"08326031","name":"Königsfeld im Schwarzwald","type":"Kreisangehörige_Gemeinde"},"district":{"key":"08326","name":"Schwarzwald-Baar-Kreis","type":"Landkreis"},"federalState":{"key":"08","name":"Baden-Württemberg"}},{"name":"Saarbrücker Weg","postalCode":"78126","locality":"Königsfeld im Schwarzwald","municipality":{"key":"08326031","name":"Königsfeld im Schwarzwald","type":"Kreisangehörige_Gemeinde"},"district":{"key":"08326","name":"Schwarzwald-Baar-Kreis","type":"Landkreis"},"federalState":{"key":"08","name":"Baden-Württemberg"}},{"name":"Schabenhauser Str.","postalCode":"78126","locality":"Königsfeld im Schwarzwald","municipality":{"key":"08326031","name":"Königsfeld im Schwarzwald","type":"Kreisangehörige_Gemeinde"},"district":{"key":"08326","name":"Schwarzwald-Baar-Kreis","type":"Landkreis"},"federalState":{"key":"08","name":"Baden-Württemberg"}},{"name":"Schlehenweg","postalCode":"78126","locality":"Königsfeld im Schwarzwald","municipality":{"key":"08326031","name":"Königsfeld im Schwarzwald","type":"Kreisangehörige_Gemeinde"},"district":{"key":"08326","name":"Schwarzwald-Baar-Kreis","type":"Landkreis"},"federalState":{"key":"08","name":"Baden-Württemberg"}},{"name":"Schlesierweg","postalCode":"78126","locality":"Königsfeld im Schwarzwald","municipality":{"key":"08326031","name":"Königsfeld im Schwarzwald","type":"Kreisangehörige_Gemeinde"},"district":{"key":"08326","name":"Schwarzwald-Baar-Kreis","type":"Landkreis"},"federalState":{"key":"08","name":"Baden-Württemberg"}},{"name":"Schlossmühle","postalCode":"78126","locality":"Königsfeld im Schwarzwald","municipality":{"key":"08326031","name":"Königsfeld im Schwarzwald","type":"Kreisangehörige_Gemeinde"},"district":{"key":"08326","name":"Schwarzwald-Baar-Kreis","type":"Landkreis"},"federalState":{"key":"08","name":"Baden-Württemberg"}},{"name":"Schmiedeweg","postalCode":"78126","locality":"Königsfeld im Schwarzwald","municipality":{"key":"08326031","name":"Königsfeld im Schwarzwald","type":"Kreisangehörige_Gemeinde"},"district":{"key":"08326","name":"Schwarzwald-Baar-Kreis","type":"Landkreis"},"federalState":{"key":"08","name":"Baden-Württemberg"}},{"name":"Schöneggert","postalCode":"78126","locality":"Königsfeld im Schwarzwald","municipality":{"key":"08326031","name":"Königsfeld im Schwarzwald","type":"Kreisangehörige_Gemeinde"},"district":{"key":"08326","name":"Schwarzwald-Baar-Kreis","type":"Landkreis"},"federalState":{"key":"08","name":"Baden-Württemberg"}},{"name":"Schramberger Str.","postalCode":"78126","locality":"Königsfeld im Schwarzwald","municipality":{"key":"08326031","name":"Königsfeld im Schwarzwald","type":"Kreisangehörige_Gemeinde"},"district":{"key":"08326","name":"Schwarzwald-Baar-Kreis","type":"Landkreis"},"federalState":{"key":"08","name":"Baden-Württemberg"}},{"name":"Schulstr.","postalCode":"78126","locality":"Königsfeld im Schwarzwald","municipality":{"key":"08326031","name":"Königsfeld im Schwarzwald","type":"Kreisangehörige_Gemeinde"},"district":{"key":"08326","name":"Schwarzwald-Baar-Kreis","type":"Landkreis"},"federalState":{"key":"08","name":"Baden-Württemberg"}},{"name":"Schützenstr.","postalCode":"78126","locality":"Königsfeld im Schwarzwald","municipality":{"key":"08326031","name":"Königsfeld im Schwarzwald","type":"Kreisangehörige_Gemeinde"},"district":{"key":"08326","name":"Schwarzwald-Baar-Kreis","type":"Landkreis"},"federalState":{"key":"08","name":"Baden-Württemberg"}},{"name":"Sebastian-Kneipp-Weg","postalCode":"78126","locality":"Königsfeld im Schwarzwald","municipality":{"key":"08326031","name":"Königsfeld im Schwarzwald","type":"Kreisangehörige_Gemeinde"},"district":{"key":"08326","name":"Schwarzwald-Baar-Kreis","type":"Landkreis"},"federalState":{"key":"08","name":"Baden-Württemberg"}},{"name":"Steinhaldeweg","postalCode":"78126","locality":"Königsfeld im Schwarzwald","municipality":{"key":"08326031","name":"Königsfeld im Schwarzwald","type":"Kreisangehörige_Gemeinde"},"district":{"key":"08326","name":"Schwarzwald-Baar-Kreis","type":"Landkreis"},"federalState":{"key":"08","name":"Baden-Württemberg"}},{"name":"Stellwaldstr.","postalCode":"78126","locality":"Königsfeld im Schwarzwald","municipality":{"key":"08326031","name":"Königsfeld im Schwarzwald","type":"Kreisangehörige_Gemeinde"},"district":{"key":"08326","name":"Schwarzwald-Baar-Kreis","type":"Landkreis"},"federalState":{"key":"08","name":"Baden-Württemberg"}},{"name":"Stettener Str.","postalCode":"78126","locality":"Königsfeld im Schwarzwald","municipality":{"key":"08326031","name":"Königsfeld im Schwarzwald","type":"Kreisangehörige_Gemeinde"},"district":{"key":"08326","name":"Schwarzwald-Baar-Kreis","type":"Landkreis"},"federalState":{"key":"08","name":"Baden-Württemberg"}},{"name":"Talstr.","postalCode":"78126","locality":"Königsfeld im Schwarzwald","municipality":{"key":"08326031","name":"Königsfeld im Schwarzwald","type":"Kreisangehörige_Gemeinde"},"district":{"key":"08326","name":"Schwarzwald-Baar-Kreis","type":"Landkreis"},"federalState":{"key":"08","name":"Baden-Württemberg"}},{"name":"Tannenweg","postalCode":"78126","locality":"Königsfeld im Schwarzwald","municipality":{"key":"08326031","name":"Königsfeld im Schwarzwald","type":"Kreisangehörige_Gemeinde"},"district":{"key":"08326","name":"Schwarzwald-Baar-Kreis","type":"Landkreis"},"federalState":{"key":"08","name":"Baden-Württemberg"}},{"name":"Tanzwäldlestr.","postalCode":"78126","locality":"Königsfeld im Schwarzwald","municipality":{"key":"08326031","name":"Königsfeld im Schwarzwald","type":"Kreisangehörige_Gemeinde"},"district":{"key":"08326","name":"Schwarzwald-Baar-Kreis","type":"Landkreis"},"federalState":{"key":"08","name":"Baden-Württemberg"}},{"name":"Teichäcker","postalCode":"78126","locality":"Königsfeld im Schwarzwald","municipality":{"key":"08326031","name":"Königsfeld im Schwarzwald","type":"Kreisangehörige_Gemeinde"},"district":{"key":"08326","name":"Schwarzwald-Baar-Kreis","type":"Landkreis"},"federalState":{"key":"08","name":"Baden-Württemberg"}},{"name":"Theodor-Heuss-Str.","postalCode":"78126","locality":"Königsfeld im Schwarzwald","municipality":{"key":"08326031","name":"Königsfeld im Schwarzwald","type":"Kreisangehörige_Gemeinde"},"district":{"key":"08326","name":"Schwarzwald-Baar-Kreis","type":"Landkreis"},"federalState":{"key":"08","name":"Baden-Württemberg"}},{"name":"Thomaweg","postalCode":"78126","locality":"Königsfeld im Schwarzwald","municipality":{"key":"08326031","name":"Königsfeld im Schwarzwald","type":"Kreisangehörige_Gemeinde"},"district":{"key":"08326","name":"Schwarzwald-Baar-Kreis","type":"Landkreis"},"federalState":{"key":"08","name":"Baden-Württemberg"}},{"name":"Tonishofweg","postalCode":"78126","locality":"Königsfeld im Schwarzwald","municipality":{"key":"08326031","name":"Königsfeld im Schwarzwald","type":"Kreisangehörige_Gemeinde"},"district":{"key":"08326","name":"Schwarzwald-Baar-Kreis","type":"Landkreis"},"federalState":{"key":"08","name":"Baden-Württemberg"}},{"name":"Triftweg","postalCode":"78126","locality":"Königsfeld im Schwarzwald","municipality":{"key":"08326031","name":"Königsfeld im Schwarzwald","type":"Kreisangehörige_Gemeinde"},"district":{"key":"08326","name":"Schwarzwald-Baar-Kreis","type":"Landkreis"},"federalState":{"key":"08","name":"Baden-Württemberg"}},{"name":"Veilstr.","postalCode":"78126","locality":"Königsfeld im Schwarzwald","municipality":{"key":"08326031","name":"Königsfeld im Schwarzwald","type":"Kreisangehörige_Gemeinde"},"district":{"key":"08326","name":"Schwarzwald-Baar-Kreis","type":"Landkreis"},"federalState":{"key":"08","name":"Baden-Württemberg"}},{"name":"Vogelbeerweg","postalCode":"78126","locality":"Königsfeld im Schwarzwald","municipality":{"key":"08326031","name":"Königsfeld im Schwarzwald","type":"Kreisangehörige_Gemeinde"},"district":{"key":"08326","name":"Schwarzwald-Baar-Kreis","type":"Landkreis"},"federalState":{"key":"08","name":"Baden-Württemberg"}},{"name":"Vogtweg","postalCode":"78126","locality":"Königsfeld im Schwarzwald","municipality":{"key":"08326031","name":"Königsfeld im Schwarzwald","type":"Kreisangehörige_Gemeinde"},"district":{"key":"08326","name":"Schwarzwald-Baar-Kreis","type":"Landkreis"},"federalState":{"key":"08","name":"Baden-Württemberg"}},{"name":"Wacholderweg","postalCode":"78126","locality":"Königsfeld im Schwarzwald","municipality":{"key":"08326031","name":"Königsfeld im Schwarzwald","type":"Kreisangehörige_Gemeinde"},"district":{"key":"08326","name":"Schwarzwald-Baar-Kreis","type":"Landkreis"},"federalState":{"key":"08","name":"Baden-Württemberg"}},{"name":"Waldauweg","postalCode":"78126","locality":"Königsfeld im Schwarzwald","municipality":{"key":"08326031","name":"Königsfeld im Schwarzwald","type":"Kreisangehörige_Gemeinde"},"district":{"key":"08326","name":"Schwarzwald-Baar-Kreis","type":"Landkreis"},"federalState":{"key":"08","name":"Baden-Württemberg"}},{"name":"Waldstr.","postalCode":"78126","locality":"Königsfeld im Schwarzwald","municipality":{"key":"08326031","name":"Königsfeld im Schwarzwald","type":"Kreisangehörige_Gemeinde"},"district":{"key":"08326","name":"Schwarzwald-Baar-Kreis","type":"Landkreis"},"federalState":{"key":"08","name":"Baden-Württemberg"}},{"name":"Weberweg","postalCode":"78126","locality":"Königsfeld im Schwarzwald","municipality":{"key":"08326031","name":"Königsfeld im Schwarzwald","type":"Kreisangehörige_Gemeinde"},"district":{"key":"08326","name":"Schwarzwald-Baar-Kreis","type":"Landkreis"},"federalState":{"key":"08","name":"Baden-Württemberg"}},{"name":"Wehlewaldberg","postalCode":"78126","locality":"Königsfeld im Schwarzwald","municipality":{"key":"08326031","name":"Königsfeld im Schwarzwald","type":"Kreisangehörige_Gemeinde"},"district":{"key":"08326","name":"Schwarzwald-Baar-Kreis","type":"Landkreis"},"federalState":{"key":"08","name":"Baden-Württemberg"}},{"name":"Weiherstr.","postalCode":"78126","locality":"Königsfeld im Schwarzwald","municipality":{"key":"08326031","name":"Königsfeld im Schwarzwald","type":"Kreisangehörige_Gemeinde"},"district":{"key":"08326","name":"Schwarzwald-Baar-Kreis","type":"Landkreis"},"federalState":{"key":"08","name":"Baden-Württemberg"}},{"name":"Weilerstr.","postalCode":"78126","locality":"Königsfeld im Schwarzwald","municipality":{"key":"08326031","name":"Königsfeld im Schwarzwald","type":"Kreisangehörige_Gemeinde"},"district":{"key":"08326","name":"Schwarzwald-Baar-Kreis","type":"Landkreis"},"federalState":{"key":"08","name":"Baden-Württemberg"}},{"name":"Weißdornweg","postalCode":"78126","locality":"Königsfeld im Schwarzwald","municipality":{"key":"08326031","name":"Königsfeld im Schwarzwald","type":"Kreisangehörige_Gemeinde"},"district":{"key":"08326","name":"Schwarzwald-Baar-Kreis","type":"Landkreis"},"federalState":{"key":"08","name":"Baden-Württemberg"}},{"name":"Weißwaldstr.","postalCode":"78126","locality":"Königsfeld im Schwarzwald","municipality":{"key":"08326031","name":"Königsfeld im Schwarzwald","type":"Kreisangehörige_Gemeinde"},"district":{"key":"08326","name":"Schwarzwald-Baar-Kreis","type":"Landkreis"},"federalState":{"key":"08","name":"Baden-Württemberg"}},{"name":"Weitbrechtweg","postalCode":"78126","locality":"Königsfeld im Schwarzwald","municipality":{"key":"08326031","name":"Königsfeld im Schwarzwald","type":"Kreisangehörige_Gemeinde"},"district":{"key":"08326","name":"Schwarzwald-Baar-Kreis","type":"Landkreis"},"federalState":{"key":"08","name":"Baden-Württemberg"}},{"name":"Wiesenstr.","postalCode":"78126","locality":"Königsfeld im Schwarzwald","municipality":{"key":"08326031","name":"Königsfeld im Schwarzwald","type":"Kreisangehörige_Gemeinde"},"district":{"key":"08326","name":"Schwarzwald-Baar-Kreis","type":"Landkreis"},"federalState":{"key":"08","name":"Baden-Württemberg"}},{"name":"Wiesenzugangsweg","postalCode":"78126","locality":"Königsfeld im Schwarzwald","municipality":{"key":"08326031","name":"Königsfeld im Schwarzwald","type":"Kreisangehörige_Gemeinde"},"district":{"key":"08326","name":"Schwarzwald-Baar-Kreis","type":"Landkreis"},"federalState":{"key":"08","name":"Baden-Württemberg"}},{"name":"Winterbergweg","postalCode":"78126","locality":"Königsfeld im Schwarzwald","municipality":{"key":"08326031","name":"Königsfeld im Schwarzwald","type":"Kreisangehörige_Gemeinde"},"district":{"key":"08326","name":"Schwarzwald-Baar-Kreis","type":"Landkreis"},"federalState":{"key":"08","name":"Baden-Württemberg"}},{"name":"Zinzendorfpark","postalCode":"78126","locality":"Königsfeld im Schwarzwald","municipality":{"key":"08326031","name":"Königsfeld im Schwarzwald","type":"Kreisangehörige_Gemeinde"},"district":{"key":"08326","name":"Schwarzwald-Baar-Kreis","type":"Landkreis"},"federalState":{"key":"08","name":"Baden-Württemberg"}},{"name":"Zinzendorfplatz","postalCode":"78126","locality":"Königsfeld im Schwarzwald","municipality":{"key":"08326031","name":"Königsfeld im Schwarzwald","type":"Kreisangehörige_Gemeinde"},"district":{"key":"08326","name":"Schwarzwald-Baar-Kreis","type":"Landkreis"},"federalState":{"key":"08","name":"Baden-Württemberg"}},{"name":"Zinzendorfweg","postalCode":"78126","locality":"Königsfeld im Schwarzwald","municipality":{"key":"08326031","name":"Königsfeld im Schwarzwald","type":"Kreisangehörige_Gemeinde"},"district":{"key":"08326","name":"Schwarzwald-Baar-Kreis","type":"Landkreis"},"federalState":{"key":"08","name":"Baden-Württemberg"}},{"name":"Zollernblick","postalCode":"78126","locality":"Königsfeld im Schwarzwald","municipality":{"key":"08326031","name":"Königsfeld im Schwarzwald","type":"Kreisangehörige_Gemeinde"},"district":{"key":"08326","name":"Schwarzwald-Baar-Kreis","type":"Landkreis"},"federalState":{"key":"08","name":"Baden-Württemberg"}},{"name":"Öschweg","postalCode":"78126","locality":"Königsfeld im Schwarzwald","municipality":{"key":"08326031","name":"Königsfeld im Schwarzwald","type":"Kreisangehörige_Gemeinde"},"district":{"key":"08326","name":"Schwarzwald-Baar-Kreis","type":"Landkreis"},"federalState":{"key":"08","name":"Baden-Württemberg"}},]