[{"name":"Abensberger Str.","postalCode":"84048","locality":"Mainburg","municipality":{"key":"09273147","name":"Mainburg, St","type":"Stadt"},"district":{"key":"09273","name":"Kelheim","type":"Landkreis"},"federalState":{"key":"09","name":"Bayern"}},{"name":"Abensstr.","postalCode":"84048","locality":"Mainburg","municipality":{"key":"09273147","name":"Mainburg, St","type":"Stadt"},"district":{"key":"09273","name":"Kelheim","type":"Landkreis"},"federalState":{"key":"09","name":"Bayern"}},{"name":"Abenstalstr.","postalCode":"84048","locality":"Mainburg","municipality":{"key":"09273147","name":"Mainburg, St","type":"Stadt"},"district":{"key":"09273","name":"Kelheim","type":"Landkreis"},"federalState":{"key":"09","name":"Bayern"}},{"name":"Adalbert-Stifter-Weg","postalCode":"84048","locality":"Mainburg","municipality":{"key":"09273147","name":"Mainburg, St","type":"Stadt"},"district":{"key":"09273","name":"Kelheim","type":"Landkreis"},"federalState":{"key":"09","name":"Bayern"}},{"name":"Adolf-Kolping-Str.","postalCode":"84048","locality":"Mainburg","municipality":{"key":"09273147","name":"Mainburg, St","type":"Stadt"},"district":{"key":"09273","name":"Kelheim","type":"Landkreis"},"federalState":{"key":"09","name":"Bayern"}},{"name":"Ahornstr.","postalCode":"84048","locality":"Mainburg","municipality":{"key":"09273147","name":"Mainburg, St","type":"Stadt"},"district":{"key":"09273","name":"Kelheim","type":"Landkreis"},"federalState":{"key":"09","name":"Bayern"}},{"name":"Aiglsbacher Str.","postalCode":"84048","locality":"Mainburg","municipality":{"key":"09273147","name":"Mainburg, St","type":"Stadt"},"district":{"key":"09273","name":"Kelheim","type":"Landkreis"},"federalState":{"key":"09","name":"Bayern"}},{"name":"Albert-Einstein-Str.","postalCode":"84048","locality":"Mainburg","municipality":{"key":"09273147","name":"Mainburg, St","type":"Stadt"},"district":{"key":"09273","name":"Kelheim","type":"Landkreis"},"federalState":{"key":"09","name":"Bayern"}},{"name":"Alfred-Delp-Str.","postalCode":"84048","locality":"Mainburg","municipality":{"key":"09273147","name":"Mainburg, St","type":"Stadt"},"district":{"key":"09273","name":"Kelheim","type":"Landkreis"},"federalState":{"key":"09","name":"Bayern"}},{"name":"Alte Fabrikstr.","postalCode":"84048","locality":"Mainburg","municipality":{"key":"09273147","name":"Mainburg, St","type":"Stadt"},"district":{"key":"09273","name":"Kelheim","type":"Landkreis"},"federalState":{"key":"09","name":"Bayern"}},{"name":"Alte Schulstr.","postalCode":"84048","locality":"Mainburg","municipality":{"key":"09273147","name":"Mainburg, St","type":"Stadt"},"district":{"key":"09273","name":"Kelheim","type":"Landkreis"},"federalState":{"key":"09","name":"Bayern"}},{"name":"Am Altwasser","postalCode":"84048","locality":"Mainburg","municipality":{"key":"09273147","name":"Mainburg, St","type":"Stadt"},"district":{"key":"09273","name":"Kelheim","type":"Landkreis"},"federalState":{"key":"09","name":"Bayern"}},{"name":"Am Berg","postalCode":"84048","locality":"Mainburg","municipality":{"key":"09273147","name":"Mainburg, St","type":"Stadt"},"district":{"key":"09273","name":"Kelheim","type":"Landkreis"},"federalState":{"key":"09","name":"Bayern"}},{"name":"Am Bräukeller","postalCode":"84048","locality":"Mainburg","municipality":{"key":"09273147","name":"Mainburg, St","type":"Stadt"},"district":{"key":"09273","name":"Kelheim","type":"Landkreis"},"federalState":{"key":"09","name":"Bayern"}},{"name":"Am Breitenrain","postalCode":"84048","locality":"Mainburg","municipality":{"key":"09273147","name":"Mainburg, St","type":"Stadt"},"district":{"key":"09273","name":"Kelheim","type":"Landkreis"},"federalState":{"key":"09","name":"Bayern"}},{"name":"Ambrosiweg","postalCode":"84048","locality":"Mainburg","municipality":{"key":"09273147","name":"Mainburg, St","type":"Stadt"},"district":{"key":"09273","name":"Kelheim","type":"Landkreis"},"federalState":{"key":"09","name":"Bayern"}},{"name":"Am Brünnlanger","postalCode":"84048","locality":"Mainburg","municipality":{"key":"09273147","name":"Mainburg, St","type":"Stadt"},"district":{"key":"09273","name":"Kelheim","type":"Landkreis"},"federalState":{"key":"09","name":"Bayern"}},{"name":"Am Eichengrund","postalCode":"84048","locality":"Mainburg","municipality":{"key":"09273147","name":"Mainburg, St","type":"Stadt"},"district":{"key":"09273","name":"Kelheim","type":"Landkreis"},"federalState":{"key":"09","name":"Bayern"}},{"name":"Am Feldrain","postalCode":"84048","locality":"Mainburg","municipality":{"key":"09273147","name":"Mainburg, St","type":"Stadt"},"district":{"key":"09273","name":"Kelheim","type":"Landkreis"},"federalState":{"key":"09","name":"Bayern"}},{"name":"Am Gabis","postalCode":"84048","locality":"Mainburg","municipality":{"key":"09273147","name":"Mainburg, St","type":"Stadt"},"district":{"key":"09273","name":"Kelheim","type":"Landkreis"},"federalState":{"key":"09","name":"Bayern"}},{"name":"Am Graben","postalCode":"84048","locality":"Mainburg","municipality":{"key":"09273147","name":"Mainburg, St","type":"Stadt"},"district":{"key":"09273","name":"Kelheim","type":"Landkreis"},"federalState":{"key":"09","name":"Bayern"}},{"name":"Am Haidholz","postalCode":"84048","locality":"Mainburg","municipality":{"key":"09273147","name":"Mainburg, St","type":"Stadt"},"district":{"key":"09273","name":"Kelheim","type":"Landkreis"},"federalState":{"key":"09","name":"Bayern"}},{"name":"Am Hang","postalCode":"84048","locality":"Mainburg","municipality":{"key":"09273147","name":"Mainburg, St","type":"Stadt"},"district":{"key":"09273","name":"Kelheim","type":"Landkreis"},"federalState":{"key":"09","name":"Bayern"}},{"name":"Am Heizwerk","postalCode":"84048","locality":"Mainburg","municipality":{"key":"09273147","name":"Mainburg, St","type":"Stadt"},"district":{"key":"09273","name":"Kelheim","type":"Landkreis"},"federalState":{"key":"09","name":"Bayern"}},{"name":"Am Hochrain","postalCode":"84048","locality":"Mainburg","municipality":{"key":"09273147","name":"Mainburg, St","type":"Stadt"},"district":{"key":"09273","name":"Kelheim","type":"Landkreis"},"federalState":{"key":"09","name":"Bayern"}},{"name":"Am Kindergarten","postalCode":"84048","locality":"Mainburg","municipality":{"key":"09273147","name":"Mainburg, St","type":"Stadt"},"district":{"key":"09273","name":"Kelheim","type":"Landkreis"},"federalState":{"key":"09","name":"Bayern"}},{"name":"Am Schulhaus","postalCode":"84048","locality":"Mainburg","municipality":{"key":"09273147","name":"Mainburg, St","type":"Stadt"},"district":{"key":"09273","name":"Kelheim","type":"Landkreis"},"federalState":{"key":"09","name":"Bayern"}},{"name":"Am Sonnenhang","postalCode":"84048","locality":"Mainburg","municipality":{"key":"09273147","name":"Mainburg, St","type":"Stadt"},"district":{"key":"09273","name":"Kelheim","type":"Landkreis"},"federalState":{"key":"09","name":"Bayern"}},{"name":"Am Sportplatz","postalCode":"84048","locality":"Mainburg","municipality":{"key":"09273147","name":"Mainburg, St","type":"Stadt"},"district":{"key":"09273","name":"Kelheim","type":"Landkreis"},"federalState":{"key":"09","name":"Bayern"}},{"name":"Am Tennisplatz","postalCode":"84048","locality":"Mainburg","municipality":{"key":"09273147","name":"Mainburg, St","type":"Stadt"},"district":{"key":"09273","name":"Kelheim","type":"Landkreis"},"federalState":{"key":"09","name":"Bayern"}},{"name":"Am Wall","postalCode":"84048","locality":"Mainburg","municipality":{"key":"09273147","name":"Mainburg, St","type":"Stadt"},"district":{"key":"09273","name":"Kelheim","type":"Landkreis"},"federalState":{"key":"09","name":"Bayern"}},{"name":"Am Wangenbach","postalCode":"84048","locality":"Mainburg","municipality":{"key":"09273147","name":"Mainburg, St","type":"Stadt"},"district":{"key":"09273","name":"Kelheim","type":"Landkreis"},"federalState":{"key":"09","name":"Bayern"}},{"name":"An der Abens","postalCode":"84048","locality":"Mainburg","municipality":{"key":"09273147","name":"Mainburg, St","type":"Stadt"},"district":{"key":"09273","name":"Kelheim","type":"Landkreis"},"federalState":{"key":"09","name":"Bayern"}},{"name":"An der Linde","postalCode":"84048","locality":"Mainburg","municipality":{"key":"09273147","name":"Mainburg, St","type":"Stadt"},"district":{"key":"09273","name":"Kelheim","type":"Landkreis"},"federalState":{"key":"09","name":"Bayern"}},{"name":"Andreas-Hofer-Str.","postalCode":"84048","locality":"Mainburg","municipality":{"key":"09273147","name":"Mainburg, St","type":"Stadt"},"district":{"key":"09273","name":"Kelheim","type":"Landkreis"},"federalState":{"key":"09","name":"Bayern"}},{"name":"Andreas-Lochner-Str.","postalCode":"84048","locality":"Mainburg","municipality":{"key":"09273147","name":"Mainburg, St","type":"Stadt"},"district":{"key":"09273","name":"Kelheim","type":"Landkreis"},"federalState":{"key":"09","name":"Bayern"}},{"name":"André-Citroen Str.","postalCode":"84048","locality":"Mainburg","municipality":{"key":"09273147","name":"Mainburg, St","type":"Stadt"},"district":{"key":"09273","name":"Kelheim","type":"Landkreis"},"federalState":{"key":"09","name":"Bayern"}},{"name":"Auenstr.","postalCode":"84048","locality":"Mainburg","municipality":{"key":"09273147","name":"Mainburg, St","type":"Stadt"},"district":{"key":"09273","name":"Kelheim","type":"Landkreis"},"federalState":{"key":"09","name":"Bayern"}},{"name":"Auer Str.","postalCode":"84048","locality":"Mainburg","municipality":{"key":"09273147","name":"Mainburg, St","type":"Stadt"},"district":{"key":"09273","name":"Kelheim","type":"Landkreis"},"federalState":{"key":"09","name":"Bayern"}},{"name":"Aufhausner Weg","postalCode":"84048","locality":"Mainburg","municipality":{"key":"09273147","name":"Mainburg, St","type":"Stadt"},"district":{"key":"09273","name":"Kelheim","type":"Landkreis"},"federalState":{"key":"09","name":"Bayern"}},{"name":"Bachäckerweg","postalCode":"84048","locality":"Mainburg","municipality":{"key":"09273147","name":"Mainburg, St","type":"Stadt"},"district":{"key":"09273","name":"Kelheim","type":"Landkreis"},"federalState":{"key":"09","name":"Bayern"}},{"name":"Bachanger","postalCode":"84048","locality":"Mainburg","municipality":{"key":"09273147","name":"Mainburg, St","type":"Stadt"},"district":{"key":"09273","name":"Kelheim","type":"Landkreis"},"federalState":{"key":"09","name":"Bayern"}},{"name":"Bachstr.","postalCode":"84048","locality":"Mainburg","municipality":{"key":"09273147","name":"Mainburg, St","type":"Stadt"},"district":{"key":"09273","name":"Kelheim","type":"Landkreis"},"federalState":{"key":"09","name":"Bayern"}},{"name":"Bahnhofstr.","postalCode":"84048","locality":"Mainburg","municipality":{"key":"09273147","name":"Mainburg, St","type":"Stadt"},"district":{"key":"09273","name":"Kelheim","type":"Landkreis"},"federalState":{"key":"09","name":"Bayern"}},{"name":"Bayerwaldweg","postalCode":"84048","locality":"Mainburg","municipality":{"key":"09273147","name":"Mainburg, St","type":"Stadt"},"district":{"key":"09273","name":"Kelheim","type":"Landkreis"},"federalState":{"key":"09","name":"Bayern"}},{"name":"Beethovenstr.","postalCode":"84048","locality":"Mainburg","municipality":{"key":"09273147","name":"Mainburg, St","type":"Stadt"},"district":{"key":"09273","name":"Kelheim","type":"Landkreis"},"federalState":{"key":"09","name":"Bayern"}},{"name":"Berganger","postalCode":"84048","locality":"Mainburg","municipality":{"key":"09273147","name":"Mainburg, St","type":"Stadt"},"district":{"key":"09273","name":"Kelheim","type":"Landkreis"},"federalState":{"key":"09","name":"Bayern"}},{"name":"Bergstr.","postalCode":"84048","locality":"Mainburg","municipality":{"key":"09273147","name":"Mainburg, St","type":"Stadt"},"district":{"key":"09273","name":"Kelheim","type":"Landkreis"},"federalState":{"key":"09","name":"Bayern"}},{"name":"Bertolt-Brecht-Str.","postalCode":"84048","locality":"Mainburg","municipality":{"key":"09273147","name":"Mainburg, St","type":"Stadt"},"district":{"key":"09273","name":"Kelheim","type":"Landkreis"},"federalState":{"key":"09","name":"Bayern"}},{"name":"Betonienweg","postalCode":"84048","locality":"Mainburg","municipality":{"key":"09273147","name":"Mainburg, St","type":"Stadt"},"district":{"key":"09273","name":"Kelheim","type":"Landkreis"},"federalState":{"key":"09","name":"Bayern"}},{"name":"Birkenstr.","postalCode":"84048","locality":"Mainburg","municipality":{"key":"09273147","name":"Mainburg, St","type":"Stadt"},"district":{"key":"09273","name":"Kelheim","type":"Landkreis"},"federalState":{"key":"09","name":"Bayern"}},{"name":"Bischof-Ketteler-Str.","postalCode":"84048","locality":"Mainburg","municipality":{"key":"09273147","name":"Mainburg, St","type":"Stadt"},"district":{"key":"09273","name":"Kelheim","type":"Landkreis"},"federalState":{"key":"09","name":"Bayern"}},{"name":"Bischof-Wolfgang-Str.","postalCode":"84048","locality":"Mainburg","municipality":{"key":"09273147","name":"Mainburg, St","type":"Stadt"},"district":{"key":"09273","name":"Kelheim","type":"Landkreis"},"federalState":{"key":"09","name":"Bayern"}},{"name":"Bodelschwinghstr.","postalCode":"84048","locality":"Mainburg","municipality":{"key":"09273147","name":"Mainburg, St","type":"Stadt"},"district":{"key":"09273","name":"Kelheim","type":"Landkreis"},"federalState":{"key":"09","name":"Bayern"}},{"name":"Bogenbergerstr.","postalCode":"84048","locality":"Mainburg","municipality":{"key":"09273147","name":"Mainburg, St","type":"Stadt"},"district":{"key":"09273","name":"Kelheim","type":"Landkreis"},"federalState":{"key":"09","name":"Bayern"}},{"name":"Brandholzstr.","postalCode":"84048","locality":"Mainburg","municipality":{"key":"09273147","name":"Mainburg, St","type":"Stadt"},"district":{"key":"09273","name":"Kelheim","type":"Landkreis"},"federalState":{"key":"09","name":"Bayern"}},{"name":"Brandstatt","postalCode":"84048","locality":"Mainburg","municipality":{"key":"09273147","name":"Mainburg, St","type":"Stadt"},"district":{"key":"09273","name":"Kelheim","type":"Landkreis"},"federalState":{"key":"09","name":"Bayern"}},{"name":"Brechhausstr.","postalCode":"84048","locality":"Mainburg","municipality":{"key":"09273147","name":"Mainburg, St","type":"Stadt"},"district":{"key":"09273","name":"Kelheim","type":"Landkreis"},"federalState":{"key":"09","name":"Bayern"}},{"name":"Bremstr.","postalCode":"84048","locality":"Mainburg","municipality":{"key":"09273147","name":"Mainburg, St","type":"Stadt"},"district":{"key":"09273","name":"Kelheim","type":"Landkreis"},"federalState":{"key":"09","name":"Bayern"}},{"name":"Brittingweg","postalCode":"84048","locality":"Mainburg","municipality":{"key":"09273147","name":"Mainburg, St","type":"Stadt"},"district":{"key":"09273","name":"Kelheim","type":"Landkreis"},"federalState":{"key":"09","name":"Bayern"}},{"name":"Brücklmeierstr.","postalCode":"84048","locality":"Mainburg","municipality":{"key":"09273147","name":"Mainburg, St","type":"Stadt"},"district":{"key":"09273","name":"Kelheim","type":"Landkreis"},"federalState":{"key":"09","name":"Bayern"}},{"name":"Bründlstr.","postalCode":"84048","locality":"Mainburg","municipality":{"key":"09273147","name":"Mainburg, St","type":"Stadt"},"district":{"key":"09273","name":"Kelheim","type":"Landkreis"},"federalState":{"key":"09","name":"Bayern"}},{"name":"Brünnelweg","postalCode":"84048","locality":"Mainburg","municipality":{"key":"09273147","name":"Mainburg, St","type":"Stadt"},"district":{"key":"09273","name":"Kelheim","type":"Landkreis"},"federalState":{"key":"09","name":"Bayern"}},{"name":"Brunnenweg","postalCode":"84048","locality":"Mainburg","municipality":{"key":"09273147","name":"Mainburg, St","type":"Stadt"},"district":{"key":"09273","name":"Kelheim","type":"Landkreis"},"federalState":{"key":"09","name":"Bayern"}},{"name":"Christoph-Scheffler-Str.","postalCode":"84048","locality":"Mainburg","municipality":{"key":"09273147","name":"Mainburg, St","type":"Stadt"},"district":{"key":"09273","name":"Kelheim","type":"Landkreis"},"federalState":{"key":"09","name":"Bayern"}},{"name":"Clematisweg","postalCode":"84048","locality":"Mainburg","municipality":{"key":"09273147","name":"Mainburg, St","type":"Stadt"},"district":{"key":"09273","name":"Kelheim","type":"Landkreis"},"federalState":{"key":"09","name":"Bayern"}},{"name":"Dahlienweg","postalCode":"84048","locality":"Mainburg","municipality":{"key":"09273147","name":"Mainburg, St","type":"Stadt"},"district":{"key":"09273","name":"Kelheim","type":"Landkreis"},"federalState":{"key":"09","name":"Bayern"}},{"name":"Dietr.-Bonhoeffer-Str.","postalCode":"84048","locality":"Mainburg","municipality":{"key":"09273147","name":"Mainburg, St","type":"Stadt"},"district":{"key":"09273","name":"Kelheim","type":"Landkreis"},"federalState":{"key":"09","name":"Bayern"}},{"name":"Dorfstr.","postalCode":"84048","locality":"Mainburg","municipality":{"key":"09273147","name":"Mainburg, St","type":"Stadt"},"district":{"key":"09273","name":"Kelheim","type":"Landkreis"},"federalState":{"key":"09","name":"Bayern"}},{"name":"Drosselbergstr.","postalCode":"84048","locality":"Mainburg","municipality":{"key":"09273147","name":"Mainburg, St","type":"Stadt"},"district":{"key":"09273","name":"Kelheim","type":"Landkreis"},"federalState":{"key":"09","name":"Bayern"}},{"name":"Drosselweg","postalCode":"84048","locality":"Mainburg","municipality":{"key":"09273147","name":"Mainburg, St","type":"Stadt"},"district":{"key":"09273","name":"Kelheim","type":"Landkreis"},"federalState":{"key":"09","name":"Bayern"}},{"name":"Ebrantshauser Str.","postalCode":"84048","locality":"Mainburg","municipality":{"key":"09273147","name":"Mainburg, St","type":"Stadt"},"district":{"key":"09273","name":"Kelheim","type":"Landkreis"},"federalState":{"key":"09","name":"Bayern"}},{"name":"Edersiedlung","postalCode":"84048","locality":"Mainburg","municipality":{"key":"09273147","name":"Mainburg, St","type":"Stadt"},"district":{"key":"09273","name":"Kelheim","type":"Landkreis"},"federalState":{"key":"09","name":"Bayern"}},{"name":"Edith-Stein-Str.","postalCode":"84048","locality":"Mainburg","municipality":{"key":"09273147","name":"Mainburg, St","type":"Stadt"},"district":{"key":"09273","name":"Kelheim","type":"Landkreis"},"federalState":{"key":"09","name":"Bayern"}},{"name":"Eichendorffweg","postalCode":"84048","locality":"Mainburg","municipality":{"key":"09273147","name":"Mainburg, St","type":"Stadt"},"district":{"key":"09273","name":"Kelheim","type":"Landkreis"},"federalState":{"key":"09","name":"Bayern"}},{"name":"Elsenheimerweg","postalCode":"84048","locality":"Mainburg","municipality":{"key":"09273147","name":"Mainburg, St","type":"Stadt"},"district":{"key":"09273","name":"Kelheim","type":"Landkreis"},"federalState":{"key":"09","name":"Bayern"}},{"name":"Elsterweg","postalCode":"84048","locality":"Mainburg","municipality":{"key":"09273147","name":"Mainburg, St","type":"Stadt"},"district":{"key":"09273","name":"Kelheim","type":"Landkreis"},"federalState":{"key":"09","name":"Bayern"}},{"name":"Englbert-Neumayr-Str.","postalCode":"84048","locality":"Mainburg","municipality":{"key":"09273147","name":"Mainburg, St","type":"Stadt"},"district":{"key":"09273","name":"Kelheim","type":"Landkreis"},"federalState":{"key":"09","name":"Bayern"}},{"name":"Englmarsdorfer Str.","postalCode":"84048","locality":"Mainburg","municipality":{"key":"09273147","name":"Mainburg, St","type":"Stadt"},"district":{"key":"09273","name":"Kelheim","type":"Landkreis"},"federalState":{"key":"09","name":"Bayern"}},{"name":"Erberstr.","postalCode":"84048","locality":"Mainburg","municipality":{"key":"09273147","name":"Mainburg, St","type":"Stadt"},"district":{"key":"09273","name":"Kelheim","type":"Landkreis"},"federalState":{"key":"09","name":"Bayern"}},{"name":"Erich-Kästner-Str.","postalCode":"84048","locality":"Mainburg","municipality":{"key":"09273147","name":"Mainburg, St","type":"Stadt"},"district":{"key":"09273","name":"Kelheim","type":"Landkreis"},"federalState":{"key":"09","name":"Bayern"}},{"name":"Erlenstr.","postalCode":"84048","locality":"Mainburg","municipality":{"key":"09273147","name":"Mainburg, St","type":"Stadt"},"district":{"key":"09273","name":"Kelheim","type":"Landkreis"},"federalState":{"key":"09","name":"Bayern"}},{"name":"Espertstr.","postalCode":"84048","locality":"Mainburg","municipality":{"key":"09273147","name":"Mainburg, St","type":"Stadt"},"district":{"key":"09273","name":"Kelheim","type":"Landkreis"},"federalState":{"key":"09","name":"Bayern"}},{"name":"Eugen-Roth-Str.","postalCode":"84048","locality":"Mainburg","municipality":{"key":"09273147","name":"Mainburg, St","type":"Stadt"},"district":{"key":"09273","name":"Kelheim","type":"Landkreis"},"federalState":{"key":"09","name":"Bayern"}},{"name":"Fabrikstr.","postalCode":"84048","locality":"Mainburg","municipality":{"key":"09273147","name":"Mainburg, St","type":"Stadt"},"district":{"key":"09273","name":"Kelheim","type":"Landkreis"},"federalState":{"key":"09","name":"Bayern"}},{"name":"Feldbergweg","postalCode":"84048","locality":"Mainburg","municipality":{"key":"09273147","name":"Mainburg, St","type":"Stadt"},"district":{"key":"09273","name":"Kelheim","type":"Landkreis"},"federalState":{"key":"09","name":"Bayern"}},{"name":"Feldstr.","postalCode":"84048","locality":"Mainburg","municipality":{"key":"09273147","name":"Mainburg, St","type":"Stadt"},"district":{"key":"09273","name":"Kelheim","type":"Landkreis"},"federalState":{"key":"09","name":"Bayern"}},{"name":"Fichtenstr.","postalCode":"84048","locality":"Mainburg","municipality":{"key":"09273147","name":"Mainburg, St","type":"Stadt"},"district":{"key":"09273","name":"Kelheim","type":"Landkreis"},"federalState":{"key":"09","name":"Bayern"}},{"name":"Finkenweg","postalCode":"84048","locality":"Mainburg","municipality":{"key":"09273147","name":"Mainburg, St","type":"Stadt"},"district":{"key":"09273","name":"Kelheim","type":"Landkreis"},"federalState":{"key":"09","name":"Bayern"}},{"name":"Fliederweg","postalCode":"84048","locality":"Mainburg","municipality":{"key":"09273147","name":"Mainburg, St","type":"Stadt"},"district":{"key":"09273","name":"Kelheim","type":"Landkreis"},"federalState":{"key":"09","name":"Bayern"}},{"name":"Flurstr.","postalCode":"84048","locality":"Mainburg","municipality":{"key":"09273147","name":"Mainburg, St","type":"Stadt"},"district":{"key":"09273","name":"Kelheim","type":"Landkreis"},"federalState":{"key":"09","name":"Bayern"}},{"name":"Flurweg","postalCode":"84048","locality":"Mainburg","municipality":{"key":"09273147","name":"Mainburg, St","type":"Stadt"},"district":{"key":"09273","name":"Kelheim","type":"Landkreis"},"federalState":{"key":"09","name":"Bayern"}},{"name":"Forststr.","postalCode":"84048","locality":"Mainburg","municipality":{"key":"09273147","name":"Mainburg, St","type":"Stadt"},"district":{"key":"09273","name":"Kelheim","type":"Landkreis"},"federalState":{"key":"09","name":"Bayern"}},{"name":"Franz-Liszt-Str.","postalCode":"84048","locality":"Mainburg","municipality":{"key":"09273147","name":"Mainburg, St","type":"Stadt"},"district":{"key":"09273","name":"Kelheim","type":"Landkreis"},"federalState":{"key":"09","name":"Bayern"}},{"name":"Franz-Schubert-Str.","postalCode":"84048","locality":"Mainburg","municipality":{"key":"09273147","name":"Mainburg, St","type":"Stadt"},"district":{"key":"09273","name":"Kelheim","type":"Landkreis"},"federalState":{"key":"09","name":"Bayern"}},{"name":"Freisinger Str.","postalCode":"84048","locality":"Mainburg","municipality":{"key":"09273147","name":"Mainburg, St","type":"Stadt"},"district":{"key":"09273","name":"Kelheim","type":"Landkreis"},"federalState":{"key":"09","name":"Bayern"}},{"name":"Friedenheimstr.","postalCode":"84048","locality":"Mainburg","municipality":{"key":"09273147","name":"Mainburg, St","type":"Stadt"},"district":{"key":"09273","name":"Kelheim","type":"Landkreis"},"federalState":{"key":"09","name":"Bayern"}},{"name":"Friedrich-König-Str.","postalCode":"84048","locality":"Mainburg","municipality":{"key":"09273147","name":"Mainburg, St","type":"Stadt"},"district":{"key":"09273","name":"Kelheim","type":"Landkreis"},"federalState":{"key":"09","name":"Bayern"}},{"name":"Frühlingstr.","postalCode":"84048","locality":"Mainburg","municipality":{"key":"09273147","name":"Mainburg, St","type":"Stadt"},"district":{"key":"09273","name":"Kelheim","type":"Landkreis"},"federalState":{"key":"09","name":"Bayern"}},{"name":"Gabelsbergerstr.","postalCode":"84048","locality":"Mainburg","municipality":{"key":"09273147","name":"Mainburg, St","type":"Stadt"},"district":{"key":"09273","name":"Kelheim","type":"Landkreis"},"federalState":{"key":"09","name":"Bayern"}},{"name":"Gabisweg","postalCode":"84048","locality":"Mainburg","municipality":{"key":"09273147","name":"Mainburg, St","type":"Stadt"},"district":{"key":"09273","name":"Kelheim","type":"Landkreis"},"federalState":{"key":"09","name":"Bayern"}},{"name":"Ganghoferweg","postalCode":"84048","locality":"Mainburg","municipality":{"key":"09273147","name":"Mainburg, St","type":"Stadt"},"district":{"key":"09273","name":"Kelheim","type":"Landkreis"},"federalState":{"key":"09","name":"Bayern"}},{"name":"Gartenstr.","postalCode":"84048","locality":"Mainburg","municipality":{"key":"09273147","name":"Mainburg, St","type":"Stadt"},"district":{"key":"09273","name":"Kelheim","type":"Landkreis"},"federalState":{"key":"09","name":"Bayern"}},{"name":"Gassenackerstr.","postalCode":"84048","locality":"Mainburg","municipality":{"key":"09273147","name":"Mainburg, St","type":"Stadt"},"district":{"key":"09273","name":"Kelheim","type":"Landkreis"},"federalState":{"key":"09","name":"Bayern"}},{"name":"Geisbergstr.","postalCode":"84048","locality":"Mainburg","municipality":{"key":"09273147","name":"Mainburg, St","type":"Stadt"},"district":{"key":"09273","name":"Kelheim","type":"Landkreis"},"federalState":{"key":"09","name":"Bayern"}},{"name":"General-Hopf-Str.","postalCode":"84048","locality":"Mainburg","municipality":{"key":"09273147","name":"Mainburg, St","type":"Stadt"},"district":{"key":"09273","name":"Kelheim","type":"Landkreis"},"federalState":{"key":"09","name":"Bayern"}},{"name":"Georg-Kreupl-Weg","postalCode":"84048","locality":"Mainburg","municipality":{"key":"09273147","name":"Mainburg, St","type":"Stadt"},"district":{"key":"09273","name":"Kelheim","type":"Landkreis"},"federalState":{"key":"09","name":"Bayern"}},{"name":"Goethestr.","postalCode":"84048","locality":"Mainburg","municipality":{"key":"09273147","name":"Mainburg, St","type":"Stadt"},"district":{"key":"09273","name":"Kelheim","type":"Landkreis"},"federalState":{"key":"09","name":"Bayern"}},{"name":"Grabmühler Str.","postalCode":"84048","locality":"Mainburg","municipality":{"key":"09273147","name":"Mainburg, St","type":"Stadt"},"district":{"key":"09273","name":"Kelheim","type":"Landkreis"},"federalState":{"key":"09","name":"Bayern"}},{"name":"Grasmaierstr.","postalCode":"84048","locality":"Mainburg","municipality":{"key":"09273147","name":"Mainburg, St","type":"Stadt"},"district":{"key":"09273","name":"Kelheim","type":"Landkreis"},"federalState":{"key":"09","name":"Bayern"}},{"name":"Grenzweg","postalCode":"84048","locality":"Mainburg","municipality":{"key":"09273147","name":"Mainburg, St","type":"Stadt"},"district":{"key":"09273","name":"Kelheim","type":"Landkreis"},"federalState":{"key":"09","name":"Bayern"}},{"name":"Guggenmoosgasse","postalCode":"84048","locality":"Mainburg","municipality":{"key":"09273147","name":"Mainburg, St","type":"Stadt"},"district":{"key":"09273","name":"Kelheim","type":"Landkreis"},"federalState":{"key":"09","name":"Bayern"}},{"name":"Gutenbergstr.","postalCode":"84048","locality":"Mainburg","municipality":{"key":"09273147","name":"Mainburg, St","type":"Stadt"},"district":{"key":"09273","name":"Kelheim","type":"Landkreis"},"federalState":{"key":"09","name":"Bayern"}},{"name":"Haidholzstr.","postalCode":"84048","locality":"Mainburg","municipality":{"key":"09273147","name":"Mainburg, St","type":"Stadt"},"district":{"key":"09273","name":"Kelheim","type":"Landkreis"},"federalState":{"key":"09","name":"Bayern"}},{"name":"Hans-Bachner-Str.","postalCode":"84048","locality":"Mainburg","municipality":{"key":"09273147","name":"Mainburg, St","type":"Stadt"},"district":{"key":"09273","name":"Kelheim","type":"Landkreis"},"federalState":{"key":"09","name":"Bayern"}},{"name":"Hans-Carossa-Str.","postalCode":"84048","locality":"Mainburg","municipality":{"key":"09273147","name":"Mainburg, St","type":"Stadt"},"district":{"key":"09273","name":"Kelheim","type":"Landkreis"},"federalState":{"key":"09","name":"Bayern"}},{"name":"Hans-Detter-Str.","postalCode":"84048","locality":"Mainburg","municipality":{"key":"09273147","name":"Mainburg, St","type":"Stadt"},"district":{"key":"09273","name":"Kelheim","type":"Landkreis"},"federalState":{"key":"09","name":"Bayern"}},{"name":"Hans-Prantl-Weg","postalCode":"84048","locality":"Mainburg","municipality":{"key":"09273147","name":"Mainburg, St","type":"Stadt"},"district":{"key":"09273","name":"Kelheim","type":"Landkreis"},"federalState":{"key":"09","name":"Bayern"}},{"name":"Hauptstr.","postalCode":"84048","locality":"Mainburg","municipality":{"key":"09273147","name":"Mainburg, St","type":"Stadt"},"district":{"key":"09273","name":"Kelheim","type":"Landkreis"},"federalState":{"key":"09","name":"Bayern"}},{"name":"Heckenweg","postalCode":"84048","locality":"Mainburg","municipality":{"key":"09273147","name":"Mainburg, St","type":"Stadt"},"district":{"key":"09273","name":"Kelheim","type":"Landkreis"},"federalState":{"key":"09","name":"Bayern"}},{"name":"Heinrich-Heine-Str.","postalCode":"84048","locality":"Mainburg","municipality":{"key":"09273147","name":"Mainburg, St","type":"Stadt"},"district":{"key":"09273","name":"Kelheim","type":"Landkreis"},"federalState":{"key":"09","name":"Bayern"}},{"name":"Heinrichstr.","postalCode":"84048","locality":"Mainburg","municipality":{"key":"09273147","name":"Mainburg, St","type":"Stadt"},"district":{"key":"09273","name":"Kelheim","type":"Landkreis"},"federalState":{"key":"09","name":"Bayern"}},{"name":"Herbststr.","postalCode":"84048","locality":"Mainburg","municipality":{"key":"09273147","name":"Mainburg, St","type":"Stadt"},"district":{"key":"09273","name":"Kelheim","type":"Landkreis"},"federalState":{"key":"09","name":"Bayern"}},{"name":"Hinzinger Str.","postalCode":"84048","locality":"Mainburg","municipality":{"key":"09273147","name":"Mainburg, St","type":"Stadt"},"district":{"key":"09273","name":"Kelheim","type":"Landkreis"},"federalState":{"key":"09","name":"Bayern"}},{"name":"Hirtbergweg","postalCode":"84048","locality":"Mainburg","municipality":{"key":"09273147","name":"Mainburg, St","type":"Stadt"},"district":{"key":"09273","name":"Kelheim","type":"Landkreis"},"federalState":{"key":"09","name":"Bayern"}},{"name":"Hochfeldstr.","postalCode":"84048","locality":"Mainburg","municipality":{"key":"09273147","name":"Mainburg, St","type":"Stadt"},"district":{"key":"09273","name":"Kelheim","type":"Landkreis"},"federalState":{"key":"09","name":"Bayern"}},{"name":"Hochstr.","postalCode":"84048","locality":"Mainburg","municipality":{"key":"09273147","name":"Mainburg, St","type":"Stadt"},"district":{"key":"09273","name":"Kelheim","type":"Landkreis"},"federalState":{"key":"09","name":"Bayern"}},{"name":"Hochweg","postalCode":"84048","locality":"Mainburg","municipality":{"key":"09273147","name":"Mainburg, St","type":"Stadt"},"district":{"key":"09273","name":"Kelheim","type":"Landkreis"},"federalState":{"key":"09","name":"Bayern"}},{"name":"Hofbergleite","postalCode":"84048","locality":"Mainburg","municipality":{"key":"09273147","name":"Mainburg, St","type":"Stadt"},"district":{"key":"09273","name":"Kelheim","type":"Landkreis"},"federalState":{"key":"09","name":"Bayern"}},{"name":"Hofbergstr.","postalCode":"84048","locality":"Mainburg","municipality":{"key":"09273147","name":"Mainburg, St","type":"Stadt"},"district":{"key":"09273","name":"Kelheim","type":"Landkreis"},"federalState":{"key":"09","name":"Bayern"}},{"name":"Höhenweg","postalCode":"84048","locality":"Mainburg","municipality":{"key":"09273147","name":"Mainburg, St","type":"Stadt"},"district":{"key":"09273","name":"Kelheim","type":"Landkreis"},"federalState":{"key":"09","name":"Bayern"}},{"name":"Hohlgasse","postalCode":"84048","locality":"Mainburg","municipality":{"key":"09273147","name":"Mainburg, St","type":"Stadt"},"district":{"key":"09273","name":"Kelheim","type":"Landkreis"},"federalState":{"key":"09","name":"Bayern"}},{"name":"Hopfenweg","postalCode":"84048","locality":"Mainburg","municipality":{"key":"09273147","name":"Mainburg, St","type":"Stadt"},"district":{"key":"09273","name":"Kelheim","type":"Landkreis"},"federalState":{"key":"09","name":"Bayern"}},{"name":"Hubertusstr.","postalCode":"84048","locality":"Mainburg","municipality":{"key":"09273147","name":"Mainburg, St","type":"Stadt"},"district":{"key":"09273","name":"Kelheim","type":"Landkreis"},"federalState":{"key":"09","name":"Bayern"}},{"name":"Hüblweg","postalCode":"84048","locality":"Mainburg","municipality":{"key":"09273147","name":"Mainburg, St","type":"Stadt"},"district":{"key":"09273","name":"Kelheim","type":"Landkreis"},"federalState":{"key":"09","name":"Bayern"}},{"name":"Hügelstr.","postalCode":"84048","locality":"Mainburg","municipality":{"key":"09273147","name":"Mainburg, St","type":"Stadt"},"district":{"key":"09273","name":"Kelheim","type":"Landkreis"},"federalState":{"key":"09","name":"Bayern"}},{"name":"In den Lüften","postalCode":"84048","locality":"Mainburg","municipality":{"key":"09273147","name":"Mainburg, St","type":"Stadt"},"district":{"key":"09273","name":"Kelheim","type":"Landkreis"},"federalState":{"key":"09","name":"Bayern"}},{"name":"Innerer Ring","postalCode":"84048","locality":"Mainburg","municipality":{"key":"09273147","name":"Mainburg, St","type":"Stadt"},"district":{"key":"09273","name":"Kelheim","type":"Landkreis"},"federalState":{"key":"09","name":"Bayern"}},{"name":"Josef-Aigner-Weg","postalCode":"84048","locality":"Mainburg","municipality":{"key":"09273147","name":"Mainburg, St","type":"Stadt"},"district":{"key":"09273","name":"Kelheim","type":"Landkreis"},"federalState":{"key":"09","name":"Bayern"}},{"name":"Josef-Maria-Lutz-Str.","postalCode":"84048","locality":"Mainburg","municipality":{"key":"09273147","name":"Mainburg, St","type":"Stadt"},"district":{"key":"09273","name":"Kelheim","type":"Landkreis"},"federalState":{"key":"09","name":"Bayern"}},{"name":"Josef-Piechl-Str.","postalCode":"84048","locality":"Mainburg","municipality":{"key":"09273147","name":"Mainburg, St","type":"Stadt"},"district":{"key":"09273","name":"Kelheim","type":"Landkreis"},"federalState":{"key":"09","name":"Bayern"}},{"name":"Joseph-Haydn-Str.","postalCode":"84048","locality":"Mainburg","municipality":{"key":"09273147","name":"Mainburg, St","type":"Stadt"},"district":{"key":"09273","name":"Kelheim","type":"Landkreis"},"federalState":{"key":"09","name":"Bayern"}},{"name":"Kapellenweg","postalCode":"84048","locality":"Mainburg","municipality":{"key":"09273147","name":"Mainburg, St","type":"Stadt"},"district":{"key":"09273","name":"Kelheim","type":"Landkreis"},"federalState":{"key":"09","name":"Bayern"}},{"name":"Kapuzinerweg","postalCode":"84048","locality":"Mainburg","municipality":{"key":"09273147","name":"Mainburg, St","type":"Stadt"},"district":{"key":"09273","name":"Kelheim","type":"Landkreis"},"federalState":{"key":"09","name":"Bayern"}},{"name":"Karl-Benz-Str.","postalCode":"84048","locality":"Mainburg","municipality":{"key":"09273147","name":"Mainburg, St","type":"Stadt"},"district":{"key":"09273","name":"Kelheim","type":"Landkreis"},"federalState":{"key":"09","name":"Bayern"}},{"name":"Karl-Valentin-Weg","postalCode":"84048","locality":"Mainburg","municipality":{"key":"09273147","name":"Mainburg, St","type":"Stadt"},"district":{"key":"09273","name":"Kelheim","type":"Landkreis"},"federalState":{"key":"09","name":"Bayern"}},{"name":"Karmeliterweg","postalCode":"84048","locality":"Mainburg","municipality":{"key":"09273147","name":"Mainburg, St","type":"Stadt"},"district":{"key":"09273","name":"Kelheim","type":"Landkreis"},"federalState":{"key":"09","name":"Bayern"}},{"name":"Kellerstr.","postalCode":"84048","locality":"Mainburg","municipality":{"key":"09273147","name":"Mainburg, St","type":"Stadt"},"district":{"key":"09273","name":"Kelheim","type":"Landkreis"},"federalState":{"key":"09","name":"Bayern"}},{"name":"Kirchenäcker","postalCode":"84048","locality":"Mainburg","municipality":{"key":"09273147","name":"Mainburg, St","type":"Stadt"},"district":{"key":"09273","name":"Kelheim","type":"Landkreis"},"federalState":{"key":"09","name":"Bayern"}},{"name":"Kirchstr.","postalCode":"84048","locality":"Mainburg","municipality":{"key":"09273147","name":"Mainburg, St","type":"Stadt"},"district":{"key":"09273","name":"Kelheim","type":"Landkreis"},"federalState":{"key":"09","name":"Bayern"}},{"name":"Klausenweg","postalCode":"84048","locality":"Mainburg","municipality":{"key":"09273147","name":"Mainburg, St","type":"Stadt"},"district":{"key":"09273","name":"Kelheim","type":"Landkreis"},"federalState":{"key":"09","name":"Bayern"}},{"name":"Köglmühle","postalCode":"84048","locality":"Mainburg","municipality":{"key":"09273147","name":"Mainburg, St","type":"Stadt"},"district":{"key":"09273","name":"Kelheim","type":"Landkreis"},"federalState":{"key":"09","name":"Bayern"}},{"name":"Köglmüllerweg","postalCode":"84048","locality":"Mainburg","municipality":{"key":"09273147","name":"Mainburg, St","type":"Stadt"},"district":{"key":"09273","name":"Kelheim","type":"Landkreis"},"federalState":{"key":"09","name":"Bayern"}},{"name":"Kolomannstr.","postalCode":"84048","locality":"Mainburg","municipality":{"key":"09273147","name":"Mainburg, St","type":"Stadt"},"district":{"key":"09273","name":"Kelheim","type":"Landkreis"},"federalState":{"key":"09","name":"Bayern"}},{"name":"Koppenfeldweg","postalCode":"84048","locality":"Mainburg","municipality":{"key":"09273147","name":"Mainburg, St","type":"Stadt"},"district":{"key":"09273","name":"Kelheim","type":"Landkreis"},"federalState":{"key":"09","name":"Bayern"}},{"name":"Kornweg","postalCode":"84048","locality":"Mainburg","municipality":{"key":"09273147","name":"Mainburg, St","type":"Stadt"},"district":{"key":"09273","name":"Kelheim","type":"Landkreis"},"federalState":{"key":"09","name":"Bayern"}},{"name":"Kramerbergstr.","postalCode":"84048","locality":"Mainburg","municipality":{"key":"09273147","name":"Mainburg, St","type":"Stadt"},"district":{"key":"09273","name":"Kelheim","type":"Landkreis"},"federalState":{"key":"09","name":"Bayern"}},{"name":"Kramergasse","postalCode":"84048","locality":"Mainburg","municipality":{"key":"09273147","name":"Mainburg, St","type":"Stadt"},"district":{"key":"09273","name":"Kelheim","type":"Landkreis"},"federalState":{"key":"09","name":"Bayern"}},{"name":"Krankenhausstr.","postalCode":"84048","locality":"Mainburg","municipality":{"key":"09273147","name":"Mainburg, St","type":"Stadt"},"district":{"key":"09273","name":"Kelheim","type":"Landkreis"},"federalState":{"key":"09","name":"Bayern"}},{"name":"Kreuzstr.","postalCode":"84048","locality":"Mainburg","municipality":{"key":"09273147","name":"Mainburg, St","type":"Stadt"},"district":{"key":"09273","name":"Kelheim","type":"Landkreis"},"federalState":{"key":"09","name":"Bayern"}},{"name":"Lampacherweg","postalCode":"84048","locality":"Mainburg","municipality":{"key":"09273147","name":"Mainburg, St","type":"Stadt"},"district":{"key":"09273","name":"Kelheim","type":"Landkreis"},"federalState":{"key":"09","name":"Bayern"}},{"name":"Landshuter Str.","postalCode":"84048","locality":"Mainburg","municipality":{"key":"09273147","name":"Mainburg, St","type":"Stadt"},"district":{"key":"09273","name":"Kelheim","type":"Landkreis"},"federalState":{"key":"09","name":"Bayern"}},{"name":"Langweider Str.","postalCode":"84048","locality":"Mainburg","municipality":{"key":"09273147","name":"Mainburg, St","type":"Stadt"},"district":{"key":"09273","name":"Kelheim","type":"Landkreis"},"federalState":{"key":"09","name":"Bayern"}},{"name":"Laurentiusweg","postalCode":"84048","locality":"Mainburg","municipality":{"key":"09273147","name":"Mainburg, St","type":"Stadt"},"district":{"key":"09273","name":"Kelheim","type":"Landkreis"},"federalState":{"key":"09","name":"Bayern"}},{"name":"Leimkrautweg","postalCode":"84048","locality":"Mainburg","municipality":{"key":"09273147","name":"Mainburg, St","type":"Stadt"},"district":{"key":"09273","name":"Kelheim","type":"Landkreis"},"federalState":{"key":"09","name":"Bayern"}},{"name":"Leitenstr.","postalCode":"84048","locality":"Mainburg","municipality":{"key":"09273147","name":"Mainburg, St","type":"Stadt"},"district":{"key":"09273","name":"Kelheim","type":"Landkreis"},"federalState":{"key":"09","name":"Bayern"}},{"name":"Lena-Christ-Weg","postalCode":"84048","locality":"Mainburg","municipality":{"key":"09273147","name":"Mainburg, St","type":"Stadt"},"district":{"key":"09273","name":"Kelheim","type":"Landkreis"},"federalState":{"key":"09","name":"Bayern"}},{"name":"Lenauweg","postalCode":"84048","locality":"Mainburg","municipality":{"key":"09273147","name":"Mainburg, St","type":"Stadt"},"district":{"key":"09273","name":"Kelheim","type":"Landkreis"},"federalState":{"key":"09","name":"Bayern"}},{"name":"Lerchenweg","postalCode":"84048","locality":"Mainburg","municipality":{"key":"09273147","name":"Mainburg, St","type":"Stadt"},"district":{"key":"09273","name":"Kelheim","type":"Landkreis"},"federalState":{"key":"09","name":"Bayern"}},{"name":"Lessingstr.","postalCode":"84048","locality":"Mainburg","municipality":{"key":"09273147","name":"Mainburg, St","type":"Stadt"},"district":{"key":"09273","name":"Kelheim","type":"Landkreis"},"federalState":{"key":"09","name":"Bayern"}},{"name":"Leutenbeckstr.","postalCode":"84048","locality":"Mainburg","municipality":{"key":"09273147","name":"Mainburg, St","type":"Stadt"},"district":{"key":"09273","name":"Kelheim","type":"Landkreis"},"federalState":{"key":"09","name":"Bayern"}},{"name":"Liebfrauenstr.","postalCode":"84048","locality":"Mainburg","municipality":{"key":"09273147","name":"Mainburg, St","type":"Stadt"},"district":{"key":"09273","name":"Kelheim","type":"Landkreis"},"federalState":{"key":"09","name":"Bayern"}},{"name":"Liegnitzer Str.","postalCode":"84048","locality":"Mainburg","municipality":{"key":"09273147","name":"Mainburg, St","type":"Stadt"},"district":{"key":"09273","name":"Kelheim","type":"Landkreis"},"federalState":{"key":"09","name":"Bayern"}},{"name":"Liesl-Karlstadt-Weg","postalCode":"84048","locality":"Mainburg","municipality":{"key":"09273147","name":"Mainburg, St","type":"Stadt"},"district":{"key":"09273","name":"Kelheim","type":"Landkreis"},"federalState":{"key":"09","name":"Bayern"}},{"name":"Lilienweg","postalCode":"84048","locality":"Mainburg","municipality":{"key":"09273147","name":"Mainburg, St","type":"Stadt"},"district":{"key":"09273","name":"Kelheim","type":"Landkreis"},"federalState":{"key":"09","name":"Bayern"}},{"name":"Lindenstr.","postalCode":"84048","locality":"Mainburg","municipality":{"key":"09273147","name":"Mainburg, St","type":"Stadt"},"district":{"key":"09273","name":"Kelheim","type":"Landkreis"},"federalState":{"key":"09","name":"Bayern"}},{"name":"Lindkirchener Str.","postalCode":"84048","locality":"Mainburg","municipality":{"key":"09273147","name":"Mainburg, St","type":"Stadt"},"district":{"key":"09273","name":"Kelheim","type":"Landkreis"},"federalState":{"key":"09","name":"Bayern"}},{"name":"Loheweg","postalCode":"84048","locality":"Mainburg","municipality":{"key":"09273147","name":"Mainburg, St","type":"Stadt"},"district":{"key":"09273","name":"Kelheim","type":"Landkreis"},"federalState":{"key":"09","name":"Bayern"}},{"name":"Lohmühle","postalCode":"84048","locality":"Mainburg","municipality":{"key":"09273147","name":"Mainburg, St","type":"Stadt"},"district":{"key":"09273","name":"Kelheim","type":"Landkreis"},"federalState":{"key":"09","name":"Bayern"}},{"name":"Lönsstr.","postalCode":"84048","locality":"Mainburg","municipality":{"key":"09273147","name":"Mainburg, St","type":"Stadt"},"district":{"key":"09273","name":"Kelheim","type":"Landkreis"},"federalState":{"key":"09","name":"Bayern"}},{"name":"Mainburger Str.","postalCode":"84048","locality":"Mainburg","municipality":{"key":"09273147","name":"Mainburg, St","type":"Stadt"},"district":{"key":"09273","name":"Kelheim","type":"Landkreis"},"federalState":{"key":"09","name":"Bayern"}},{"name":"Marktplatz","postalCode":"84048","locality":"Mainburg","municipality":{"key":"09273147","name":"Mainburg, St","type":"Stadt"},"district":{"key":"09273","name":"Kelheim","type":"Landkreis"},"federalState":{"key":"09","name":"Bayern"}},{"name":"Marzellerstr.","postalCode":"84048","locality":"Mainburg","municipality":{"key":"09273147","name":"Mainburg, St","type":"Stadt"},"district":{"key":"09273","name":"Kelheim","type":"Landkreis"},"federalState":{"key":"09","name":"Bayern"}},{"name":"Massenhauser Str.","postalCode":"84048","locality":"Mainburg","municipality":{"key":"09273147","name":"Mainburg, St","type":"Stadt"},"district":{"key":"09273","name":"Kelheim","type":"Landkreis"},"federalState":{"key":"09","name":"Bayern"}},{"name":"Maurer-Jackl-Weg","postalCode":"84048","locality":"Mainburg","municipality":{"key":"09273147","name":"Mainburg, St","type":"Stadt"},"district":{"key":"09273","name":"Kelheim","type":"Landkreis"},"federalState":{"key":"09","name":"Bayern"}},{"name":"Max-Planck-Str.","postalCode":"84048","locality":"Mainburg","municipality":{"key":"09273147","name":"Mainburg, St","type":"Stadt"},"district":{"key":"09273","name":"Kelheim","type":"Landkreis"},"federalState":{"key":"09","name":"Bayern"}},{"name":"Max-Reger-Str.","postalCode":"84048","locality":"Mainburg","municipality":{"key":"09273147","name":"Mainburg, St","type":"Stadt"},"district":{"key":"09273","name":"Kelheim","type":"Landkreis"},"federalState":{"key":"09","name":"Bayern"}},{"name":"Max-Spenger-Str.","postalCode":"84048","locality":"Mainburg","municipality":{"key":"09273147","name":"Mainburg, St","type":"Stadt"},"district":{"key":"09273","name":"Kelheim","type":"Landkreis"},"federalState":{"key":"09","name":"Bayern"}},{"name":"Meilenhofener Str.","postalCode":"84048","locality":"Mainburg","municipality":{"key":"09273147","name":"Mainburg, St","type":"Stadt"},"district":{"key":"09273","name":"Kelheim","type":"Landkreis"},"federalState":{"key":"09","name":"Bayern"}},{"name":"Meisenweg","postalCode":"84048","locality":"Mainburg","municipality":{"key":"09273147","name":"Mainburg, St","type":"Stadt"},"district":{"key":"09273","name":"Kelheim","type":"Landkreis"},"federalState":{"key":"09","name":"Bayern"}},{"name":"Mergenthalerstr.","postalCode":"84048","locality":"Mainburg","municipality":{"key":"09273147","name":"Mainburg, St","type":"Stadt"},"district":{"key":"09273","name":"Kelheim","type":"Landkreis"},"federalState":{"key":"09","name":"Bayern"}},{"name":"Mittertorstr.","postalCode":"84048","locality":"Mainburg","municipality":{"key":"09273147","name":"Mainburg, St","type":"Stadt"},"district":{"key":"09273","name":"Kelheim","type":"Landkreis"},"federalState":{"key":"09","name":"Bayern"}},{"name":"Mitterweg","postalCode":"84048","locality":"Mainburg","municipality":{"key":"09273147","name":"Mainburg, St","type":"Stadt"},"district":{"key":"09273","name":"Kelheim","type":"Landkreis"},"federalState":{"key":"09","name":"Bayern"}},{"name":"Moosburger Str.","postalCode":"84048","locality":"Mainburg","municipality":{"key":"09273147","name":"Mainburg, St","type":"Stadt"},"district":{"key":"09273","name":"Kelheim","type":"Landkreis"},"federalState":{"key":"09","name":"Bayern"}},{"name":"Moosweg","postalCode":"84048","locality":"Mainburg","municipality":{"key":"09273147","name":"Mainburg, St","type":"Stadt"},"district":{"key":"09273","name":"Kelheim","type":"Landkreis"},"federalState":{"key":"09","name":"Bayern"}},{"name":"Mörikestr.","postalCode":"84048","locality":"Mainburg","municipality":{"key":"09273147","name":"Mainburg, St","type":"Stadt"},"district":{"key":"09273","name":"Kelheim","type":"Landkreis"},"federalState":{"key":"09","name":"Bayern"}},{"name":"Mozartstr.","postalCode":"84048","locality":"Mainburg","municipality":{"key":"09273147","name":"Mainburg, St","type":"Stadt"},"district":{"key":"09273","name":"Kelheim","type":"Landkreis"},"federalState":{"key":"09","name":"Bayern"}},{"name":"Mühlenweg","postalCode":"84048","locality":"Mainburg","municipality":{"key":"09273147","name":"Mainburg, St","type":"Stadt"},"district":{"key":"09273","name":"Kelheim","type":"Landkreis"},"federalState":{"key":"09","name":"Bayern"}},{"name":"Nelkenweg","postalCode":"84048","locality":"Mainburg","municipality":{"key":"09273147","name":"Mainburg, St","type":"Stadt"},"district":{"key":"09273","name":"Kelheim","type":"Landkreis"},"federalState":{"key":"09","name":"Bayern"}},{"name":"Neumühler Weg","postalCode":"84048","locality":"Mainburg","municipality":{"key":"09273147","name":"Mainburg, St","type":"Stadt"},"district":{"key":"09273","name":"Kelheim","type":"Landkreis"},"federalState":{"key":"09","name":"Bayern"}},{"name":"noch unbekannt","postalCode":"84048","locality":"Mainburg","municipality":{"key":"09273147","name":"Mainburg, St","type":"Stadt"},"district":{"key":"09273","name":"Kelheim","type":"Landkreis"},"federalState":{"key":"09","name":"Bayern"}},{"name":"Nordstr.","postalCode":"84048","locality":"Mainburg","municipality":{"key":"09273147","name":"Mainburg, St","type":"Stadt"},"district":{"key":"09273","name":"Kelheim","type":"Landkreis"},"federalState":{"key":"09","name":"Bayern"}},{"name":"Notzenhauser Str.","postalCode":"84048","locality":"Mainburg","municipality":{"key":"09273147","name":"Mainburg, St","type":"Stadt"},"district":{"key":"09273","name":"Kelheim","type":"Landkreis"},"federalState":{"key":"09","name":"Bayern"}},{"name":"Obere Lindenstr.","postalCode":"84048","locality":"Mainburg","municipality":{"key":"09273147","name":"Mainburg, St","type":"Stadt"},"district":{"key":"09273","name":"Kelheim","type":"Landkreis"},"federalState":{"key":"09","name":"Bayern"}},{"name":"Obermeierweg","postalCode":"84048","locality":"Mainburg","municipality":{"key":"09273147","name":"Mainburg, St","type":"Stadt"},"district":{"key":"09273","name":"Kelheim","type":"Landkreis"},"federalState":{"key":"09","name":"Bayern"}},{"name":"Odenwaldweg","postalCode":"84048","locality":"Mainburg","municipality":{"key":"09273147","name":"Mainburg, St","type":"Stadt"},"district":{"key":"09273","name":"Kelheim","type":"Landkreis"},"federalState":{"key":"09","name":"Bayern"}},{"name":"Oefelestr.","postalCode":"84048","locality":"Mainburg","municipality":{"key":"09273147","name":"Mainburg, St","type":"Stadt"},"district":{"key":"09273","name":"Kelheim","type":"Landkreis"},"federalState":{"key":"09","name":"Bayern"}},{"name":"Oppelner Str.","postalCode":"84048","locality":"Mainburg","municipality":{"key":"09273147","name":"Mainburg, St","type":"Stadt"},"district":{"key":"09273","name":"Kelheim","type":"Landkreis"},"federalState":{"key":"09","name":"Bayern"}},{"name":"Orchideenweg","postalCode":"84048","locality":"Mainburg","municipality":{"key":"09273147","name":"Mainburg, St","type":"Stadt"},"district":{"key":"09273","name":"Kelheim","type":"Landkreis"},"federalState":{"key":"09","name":"Bayern"}},{"name":"Ortsstr.","postalCode":"84048","locality":"Mainburg","municipality":{"key":"09273147","name":"Mainburg, St","type":"Stadt"},"district":{"key":"09273","name":"Kelheim","type":"Landkreis"},"federalState":{"key":"09","name":"Bayern"}},{"name":"Pater-Rupert-Mayer-Weg","postalCode":"84048","locality":"Mainburg","municipality":{"key":"09273147","name":"Mainburg, St","type":"Stadt"},"district":{"key":"09273","name":"Kelheim","type":"Landkreis"},"federalState":{"key":"09","name":"Bayern"}},{"name":"Paul-Münsterer-Str.","postalCode":"84048","locality":"Mainburg","municipality":{"key":"09273147","name":"Mainburg, St","type":"Stadt"},"district":{"key":"09273","name":"Kelheim","type":"Landkreis"},"federalState":{"key":"09","name":"Bayern"}},{"name":"Paul-Nappenbach-Str.","postalCode":"84048","locality":"Mainburg","municipality":{"key":"09273147","name":"Mainburg, St","type":"Stadt"},"district":{"key":"09273","name":"Kelheim","type":"Landkreis"},"federalState":{"key":"09","name":"Bayern"}},{"name":"Petermühler Weg","postalCode":"84048","locality":"Mainburg","municipality":{"key":"09273147","name":"Mainburg, St","type":"Stadt"},"district":{"key":"09273","name":"Kelheim","type":"Landkreis"},"federalState":{"key":"09","name":"Bayern"}},{"name":"Pfarranger","postalCode":"84048","locality":"Mainburg","municipality":{"key":"09273147","name":"Mainburg, St","type":"Stadt"},"district":{"key":"09273","name":"Kelheim","type":"Landkreis"},"federalState":{"key":"09","name":"Bayern"}},{"name":"Pfarrer-Babel-Str.","postalCode":"84048","locality":"Mainburg","municipality":{"key":"09273147","name":"Mainburg, St","type":"Stadt"},"district":{"key":"09273","name":"Kelheim","type":"Landkreis"},"federalState":{"key":"09","name":"Bayern"}},{"name":"Pfarrer-Herrmann-Str.","postalCode":"84048","locality":"Mainburg","municipality":{"key":"09273147","name":"Mainburg, St","type":"Stadt"},"district":{"key":"09273","name":"Kelheim","type":"Landkreis"},"federalState":{"key":"09","name":"Bayern"}},{"name":"Pfarrer-Reindl-Str.","postalCode":"84048","locality":"Mainburg","municipality":{"key":"09273147","name":"Mainburg, St","type":"Stadt"},"district":{"key":"09273","name":"Kelheim","type":"Landkreis"},"federalState":{"key":"09","name":"Bayern"}},{"name":"Pfarrer-Schmid-Str.","postalCode":"84048","locality":"Mainburg","municipality":{"key":"09273147","name":"Mainburg, St","type":"Stadt"},"district":{"key":"09273","name":"Kelheim","type":"Landkreis"},"federalState":{"key":"09","name":"Bayern"}},{"name":"Pfarrer-Straub-Str.","postalCode":"84048","locality":"Mainburg","municipality":{"key":"09273147","name":"Mainburg, St","type":"Stadt"},"district":{"key":"09273","name":"Kelheim","type":"Landkreis"},"federalState":{"key":"09","name":"Bayern"}},{"name":"Pfarrer-Wagner-Str.","postalCode":"84048","locality":"Mainburg","municipality":{"key":"09273147","name":"Mainburg, St","type":"Stadt"},"district":{"key":"09273","name":"Kelheim","type":"Landkreis"},"federalState":{"key":"09","name":"Bayern"}},{"name":"Pfarrweg","postalCode":"84048","locality":"Mainburg","municipality":{"key":"09273147","name":"Mainburg, St","type":"Stadt"},"district":{"key":"09273","name":"Kelheim","type":"Landkreis"},"federalState":{"key":"09","name":"Bayern"}},{"name":"Pf.-Kern-Str.","postalCode":"84048","locality":"Mainburg","municipality":{"key":"09273147","name":"Mainburg, St","type":"Stadt"},"district":{"key":"09273","name":"Kelheim","type":"Landkreis"},"federalState":{"key":"09","name":"Bayern"}},{"name":"Pinskerstr.","postalCode":"84048","locality":"Mainburg","municipality":{"key":"09273147","name":"Mainburg, St","type":"Stadt"},"district":{"key":"09273","name":"Kelheim","type":"Landkreis"},"federalState":{"key":"09","name":"Bayern"}},{"name":"Pirolweg","postalCode":"84048","locality":"Mainburg","municipality":{"key":"09273147","name":"Mainburg, St","type":"Stadt"},"district":{"key":"09273","name":"Kelheim","type":"Landkreis"},"federalState":{"key":"09","name":"Bayern"}},{"name":"Pollingerstr.","postalCode":"84048","locality":"Mainburg","municipality":{"key":"09273147","name":"Mainburg, St","type":"Stadt"},"district":{"key":"09273","name":"Kelheim","type":"Landkreis"},"federalState":{"key":"09","name":"Bayern"}},{"name":"Postfeldstr.","postalCode":"84048","locality":"Mainburg","municipality":{"key":"09273147","name":"Mainburg, St","type":"Stadt"},"district":{"key":"09273","name":"Kelheim","type":"Landkreis"},"federalState":{"key":"09","name":"Bayern"}},{"name":"Poststr.","postalCode":"84048","locality":"Mainburg","municipality":{"key":"09273147","name":"Mainburg, St","type":"Stadt"},"district":{"key":"09273","name":"Kelheim","type":"Landkreis"},"federalState":{"key":"09","name":"Bayern"}},{"name":"Pötzmeser Gangsteig","postalCode":"84048","locality":"Mainburg","municipality":{"key":"09273147","name":"Mainburg, St","type":"Stadt"},"district":{"key":"09273","name":"Kelheim","type":"Landkreis"},"federalState":{"key":"09","name":"Bayern"}},{"name":"Pötzmeser Str.","postalCode":"84048","locality":"Mainburg","municipality":{"key":"09273147","name":"Mainburg, St","type":"Stadt"},"district":{"key":"09273","name":"Kelheim","type":"Landkreis"},"federalState":{"key":"09","name":"Bayern"}},{"name":"Prechtlstr.","postalCode":"84048","locality":"Mainburg","municipality":{"key":"09273147","name":"Mainburg, St","type":"Stadt"},"district":{"key":"09273","name":"Kelheim","type":"Landkreis"},"federalState":{"key":"09","name":"Bayern"}},{"name":"Preitnacherweg","postalCode":"84048","locality":"Mainburg","municipality":{"key":"09273147","name":"Mainburg, St","type":"Stadt"},"district":{"key":"09273","name":"Kelheim","type":"Landkreis"},"federalState":{"key":"09","name":"Bayern"}},{"name":"Prof.-Dehm-Str.","postalCode":"84048","locality":"Mainburg","municipality":{"key":"09273147","name":"Mainburg, St","type":"Stadt"},"district":{"key":"09273","name":"Kelheim","type":"Landkreis"},"federalState":{"key":"09","name":"Bayern"}},{"name":"Promenadenweg","postalCode":"84048","locality":"Mainburg","municipality":{"key":"09273147","name":"Mainburg, St","type":"Stadt"},"district":{"key":"09273","name":"Kelheim","type":"Landkreis"},"federalState":{"key":"09","name":"Bayern"}},{"name":"Querstr.","postalCode":"84048","locality":"Mainburg","municipality":{"key":"09273147","name":"Mainburg, St","type":"Stadt"},"district":{"key":"09273","name":"Kelheim","type":"Landkreis"},"federalState":{"key":"09","name":"Bayern"}},{"name":"Rabenweg","postalCode":"84048","locality":"Mainburg","municipality":{"key":"09273147","name":"Mainburg, St","type":"Stadt"},"district":{"key":"09273","name":"Kelheim","type":"Landkreis"},"federalState":{"key":"09","name":"Bayern"}},{"name":"Raiffeisenstr.","postalCode":"84048","locality":"Mainburg","municipality":{"key":"09273147","name":"Mainburg, St","type":"Stadt"},"district":{"key":"09273","name":"Kelheim","type":"Landkreis"},"federalState":{"key":"09","name":"Bayern"}},{"name":"Redererstr.","postalCode":"84048","locality":"Mainburg","municipality":{"key":"09273147","name":"Mainburg, St","type":"Stadt"},"district":{"key":"09273","name":"Kelheim","type":"Landkreis"},"federalState":{"key":"09","name":"Bayern"}},{"name":"Regensburger Str.","postalCode":"84048","locality":"Mainburg","municipality":{"key":"09273147","name":"Mainburg, St","type":"Stadt"},"district":{"key":"09273","name":"Kelheim","type":"Landkreis"},"federalState":{"key":"09","name":"Bayern"}},{"name":"Reitdillenäcker","postalCode":"84048","locality":"Mainburg","municipality":{"key":"09273147","name":"Mainburg, St","type":"Stadt"},"district":{"key":"09273","name":"Kelheim","type":"Landkreis"},"federalState":{"key":"09","name":"Bayern"}},{"name":"Rennweg","postalCode":"84048","locality":"Mainburg","municipality":{"key":"09273147","name":"Mainburg, St","type":"Stadt"},"district":{"key":"09273","name":"Kelheim","type":"Landkreis"},"federalState":{"key":"09","name":"Bayern"}},{"name":"Rhönweg","postalCode":"84048","locality":"Mainburg","municipality":{"key":"09273147","name":"Mainburg, St","type":"Stadt"},"district":{"key":"09273","name":"Kelheim","type":"Landkreis"},"federalState":{"key":"09","name":"Bayern"}},{"name":"Riedlstr.","postalCode":"84048","locality":"Mainburg","municipality":{"key":"09273147","name":"Mainburg, St","type":"Stadt"},"district":{"key":"09273","name":"Kelheim","type":"Landkreis"},"federalState":{"key":"09","name":"Bayern"}},{"name":"Riegelweg","postalCode":"84048","locality":"Mainburg","municipality":{"key":"09273147","name":"Mainburg, St","type":"Stadt"},"district":{"key":"09273","name":"Kelheim","type":"Landkreis"},"federalState":{"key":"09","name":"Bayern"}},{"name":"Ringstr.","postalCode":"84048","locality":"Mainburg","municipality":{"key":"09273147","name":"Mainburg, St","type":"Stadt"},"district":{"key":"09273","name":"Kelheim","type":"Landkreis"},"federalState":{"key":"09","name":"Bayern"}},{"name":"Robert-Schumann-Str.","postalCode":"84048","locality":"Mainburg","municipality":{"key":"09273147","name":"Mainburg, St","type":"Stadt"},"district":{"key":"09273","name":"Kelheim","type":"Landkreis"},"federalState":{"key":"09","name":"Bayern"}},{"name":"Rohnstorf","postalCode":"84048","locality":"Mainburg","municipality":{"key":"09273147","name":"Mainburg, St","type":"Stadt"},"district":{"key":"09273","name":"Kelheim","type":"Landkreis"},"federalState":{"key":"09","name":"Bayern"}},{"name":"Roseggerweg","postalCode":"84048","locality":"Mainburg","municipality":{"key":"09273147","name":"Mainburg, St","type":"Stadt"},"district":{"key":"09273","name":"Kelheim","type":"Landkreis"},"federalState":{"key":"09","name":"Bayern"}},{"name":"Rosenstr.","postalCode":"84048","locality":"Mainburg","municipality":{"key":"09273147","name":"Mainburg, St","type":"Stadt"},"district":{"key":"09273","name":"Kelheim","type":"Landkreis"},"federalState":{"key":"09","name":"Bayern"}},{"name":"Rosenweg","postalCode":"84048","locality":"Mainburg","municipality":{"key":"09273147","name":"Mainburg, St","type":"Stadt"},"district":{"key":"09273","name":"Kelheim","type":"Landkreis"},"federalState":{"key":"09","name":"Bayern"}},{"name":"Rothmühler Weg","postalCode":"84048","locality":"Mainburg","municipality":{"key":"09273147","name":"Mainburg, St","type":"Stadt"},"district":{"key":"09273","name":"Kelheim","type":"Landkreis"},"federalState":{"key":"09","name":"Bayern"}},{"name":"Salvatorberg","postalCode":"84048","locality":"Mainburg","municipality":{"key":"09273147","name":"Mainburg, St","type":"Stadt"},"district":{"key":"09273","name":"Kelheim","type":"Landkreis"},"federalState":{"key":"09","name":"Bayern"}},{"name":"Salvatorbergstr.","postalCode":"84048","locality":"Mainburg","municipality":{"key":"09273147","name":"Mainburg, St","type":"Stadt"},"district":{"key":"09273","name":"Kelheim","type":"Landkreis"},"federalState":{"key":"09","name":"Bayern"}},{"name":"Sandäckerstr.","postalCode":"84048","locality":"Mainburg","municipality":{"key":"09273147","name":"Mainburg, St","type":"Stadt"},"district":{"key":"09273","name":"Kelheim","type":"Landkreis"},"federalState":{"key":"09","name":"Bayern"}},{"name":"Sandbergweg","postalCode":"84048","locality":"Mainburg","municipality":{"key":"09273147","name":"Mainburg, St","type":"Stadt"},"district":{"key":"09273","name":"Kelheim","type":"Landkreis"},"federalState":{"key":"09","name":"Bayern"}},{"name":"Sandelzhauser Gangsteig","postalCode":"84048","locality":"Mainburg","municipality":{"key":"09273147","name":"Mainburg, St","type":"Stadt"},"district":{"key":"09273","name":"Kelheim","type":"Landkreis"},"federalState":{"key":"09","name":"Bayern"}},{"name":"Sandolfstr.","postalCode":"84048","locality":"Mainburg","municipality":{"key":"09273147","name":"Mainburg, St","type":"Stadt"},"district":{"key":"09273","name":"Kelheim","type":"Landkreis"},"federalState":{"key":"09","name":"Bayern"}},{"name":"Sandstr.","postalCode":"84048","locality":"Mainburg","municipality":{"key":"09273147","name":"Mainburg, St","type":"Stadt"},"district":{"key":"09273","name":"Kelheim","type":"Landkreis"},"federalState":{"key":"09","name":"Bayern"}},{"name":"Sankt-Andreas-Str.","postalCode":"84048","locality":"Mainburg","municipality":{"key":"09273147","name":"Mainburg, St","type":"Stadt"},"district":{"key":"09273","name":"Kelheim","type":"Landkreis"},"federalState":{"key":"09","name":"Bayern"}},{"name":"Schafbergweg","postalCode":"84048","locality":"Mainburg","municipality":{"key":"09273147","name":"Mainburg, St","type":"Stadt"},"district":{"key":"09273","name":"Kelheim","type":"Landkreis"},"federalState":{"key":"09","name":"Bayern"}},{"name":"Schanzenstr.","postalCode":"84048","locality":"Mainburg","municipality":{"key":"09273147","name":"Mainburg, St","type":"Stadt"},"district":{"key":"09273","name":"Kelheim","type":"Landkreis"},"federalState":{"key":"09","name":"Bayern"}},{"name":"Scharfstr.","postalCode":"84048","locality":"Mainburg","municipality":{"key":"09273147","name":"Mainburg, St","type":"Stadt"},"district":{"key":"09273","name":"Kelheim","type":"Landkreis"},"federalState":{"key":"09","name":"Bayern"}},{"name":"Schillerstr.","postalCode":"84048","locality":"Mainburg","municipality":{"key":"09273147","name":"Mainburg, St","type":"Stadt"},"district":{"key":"09273","name":"Kelheim","type":"Landkreis"},"federalState":{"key":"09","name":"Bayern"}},{"name":"Schleißbacher Str.","postalCode":"84048","locality":"Mainburg","municipality":{"key":"09273147","name":"Mainburg, St","type":"Stadt"},"district":{"key":"09273","name":"Kelheim","type":"Landkreis"},"federalState":{"key":"09","name":"Bayern"}},{"name":"Schlichtstr.","postalCode":"84048","locality":"Mainburg","municipality":{"key":"09273147","name":"Mainburg, St","type":"Stadt"},"district":{"key":"09273","name":"Kelheim","type":"Landkreis"},"federalState":{"key":"09","name":"Bayern"}},{"name":"Schloßstr.","postalCode":"84048","locality":"Mainburg","municipality":{"key":"09273147","name":"Mainburg, St","type":"Stadt"},"district":{"key":"09273","name":"Kelheim","type":"Landkreis"},"federalState":{"key":"09","name":"Bayern"}},{"name":"Schmellerstr.","postalCode":"84048","locality":"Mainburg","municipality":{"key":"09273147","name":"Mainburg, St","type":"Stadt"},"district":{"key":"09273","name":"Kelheim","type":"Landkreis"},"federalState":{"key":"09","name":"Bayern"}},{"name":"Schneiderberg","postalCode":"84048","locality":"Mainburg","municipality":{"key":"09273147","name":"Mainburg, St","type":"Stadt"},"district":{"key":"09273","name":"Kelheim","type":"Landkreis"},"federalState":{"key":"09","name":"Bayern"}},{"name":"Schraufstetterstr.","postalCode":"84048","locality":"Mainburg","municipality":{"key":"09273147","name":"Mainburg, St","type":"Stadt"},"district":{"key":"09273","name":"Kelheim","type":"Landkreis"},"federalState":{"key":"09","name":"Bayern"}},{"name":"Schreinerstr.","postalCode":"84048","locality":"Mainburg","municipality":{"key":"09273147","name":"Mainburg, St","type":"Stadt"},"district":{"key":"09273","name":"Kelheim","type":"Landkreis"},"federalState":{"key":"09","name":"Bayern"}},{"name":"Schulstr.","postalCode":"84048","locality":"Mainburg","municipality":{"key":"09273147","name":"Mainburg, St","type":"Stadt"},"district":{"key":"09273","name":"Kelheim","type":"Landkreis"},"federalState":{"key":"09","name":"Bayern"}},{"name":"Schüsselhauser Str.","postalCode":"84048","locality":"Mainburg","municipality":{"key":"09273147","name":"Mainburg, St","type":"Stadt"},"district":{"key":"09273","name":"Kelheim","type":"Landkreis"},"federalState":{"key":"09","name":"Bayern"}},{"name":"Schustergasse","postalCode":"84048","locality":"Mainburg","municipality":{"key":"09273147","name":"Mainburg, St","type":"Stadt"},"district":{"key":"09273","name":"Kelheim","type":"Landkreis"},"federalState":{"key":"09","name":"Bayern"}},{"name":"Schützenstr.","postalCode":"84048","locality":"Mainburg","municipality":{"key":"09273147","name":"Mainburg, St","type":"Stadt"},"district":{"key":"09273","name":"Kelheim","type":"Landkreis"},"federalState":{"key":"09","name":"Bayern"}},{"name":"Schwaiberstr.","postalCode":"84048","locality":"Mainburg","municipality":{"key":"09273147","name":"Mainburg, St","type":"Stadt"},"district":{"key":"09273","name":"Kelheim","type":"Landkreis"},"federalState":{"key":"09","name":"Bayern"}},{"name":"Schwalbenweg","postalCode":"84048","locality":"Mainburg","municipality":{"key":"09273147","name":"Mainburg, St","type":"Stadt"},"district":{"key":"09273","name":"Kelheim","type":"Landkreis"},"federalState":{"key":"09","name":"Bayern"}},{"name":"Schwarzwaldweg","postalCode":"84048","locality":"Mainburg","municipality":{"key":"09273147","name":"Mainburg, St","type":"Stadt"},"district":{"key":"09273","name":"Kelheim","type":"Landkreis"},"federalState":{"key":"09","name":"Bayern"}},{"name":"Schwedengasse","postalCode":"84048","locality":"Mainburg","municipality":{"key":"09273147","name":"Mainburg, St","type":"Stadt"},"district":{"key":"09273","name":"Kelheim","type":"Landkreis"},"federalState":{"key":"09","name":"Bayern"}},{"name":"Seilergasse","postalCode":"84048","locality":"Mainburg","municipality":{"key":"09273147","name":"Mainburg, St","type":"Stadt"},"district":{"key":"09273","name":"Kelheim","type":"Landkreis"},"federalState":{"key":"09","name":"Bayern"}},{"name":"Senefelderstr.","postalCode":"84048","locality":"Mainburg","municipality":{"key":"09273147","name":"Mainburg, St","type":"Stadt"},"district":{"key":"09273","name":"Kelheim","type":"Landkreis"},"federalState":{"key":"09","name":"Bayern"}},{"name":"Siedlerweg","postalCode":"84048","locality":"Mainburg","municipality":{"key":"09273147","name":"Mainburg, St","type":"Stadt"},"district":{"key":"09273","name":"Kelheim","type":"Landkreis"},"federalState":{"key":"09","name":"Bayern"}},{"name":"Siedlung","postalCode":"84048","locality":"Mainburg","municipality":{"key":"09273147","name":"Mainburg, St","type":"Stadt"},"district":{"key":"09273","name":"Kelheim","type":"Landkreis"},"federalState":{"key":"09","name":"Bayern"}},{"name":"Söcklerstr.","postalCode":"84048","locality":"Mainburg","municipality":{"key":"09273147","name":"Mainburg, St","type":"Stadt"},"district":{"key":"09273","name":"Kelheim","type":"Landkreis"},"federalState":{"key":"09","name":"Bayern"}},{"name":"Sommerstr.","postalCode":"84048","locality":"Mainburg","municipality":{"key":"09273147","name":"Mainburg, St","type":"Stadt"},"district":{"key":"09273","name":"Kelheim","type":"Landkreis"},"federalState":{"key":"09","name":"Bayern"}},{"name":"Sonnenholzweg","postalCode":"84048","locality":"Mainburg","municipality":{"key":"09273147","name":"Mainburg, St","type":"Stadt"},"district":{"key":"09273","name":"Kelheim","type":"Landkreis"},"federalState":{"key":"09","name":"Bayern"}},{"name":"Sonnenleite","postalCode":"84048","locality":"Mainburg","municipality":{"key":"09273147","name":"Mainburg, St","type":"Stadt"},"district":{"key":"09273","name":"Kelheim","type":"Landkreis"},"federalState":{"key":"09","name":"Bayern"}},{"name":"Sonnenwiese","postalCode":"84048","locality":"Mainburg","municipality":{"key":"09273147","name":"Mainburg, St","type":"Stadt"},"district":{"key":"09273","name":"Kelheim","type":"Landkreis"},"federalState":{"key":"09","name":"Bayern"}},{"name":"Spechtweg","postalCode":"84048","locality":"Mainburg","municipality":{"key":"09273147","name":"Mainburg, St","type":"Stadt"},"district":{"key":"09273","name":"Kelheim","type":"Landkreis"},"federalState":{"key":"09","name":"Bayern"}},{"name":"Sperlingweg","postalCode":"84048","locality":"Mainburg","municipality":{"key":"09273147","name":"Mainburg, St","type":"Stadt"},"district":{"key":"09273","name":"Kelheim","type":"Landkreis"},"federalState":{"key":"09","name":"Bayern"}},{"name":"Spessartweg","postalCode":"84048","locality":"Mainburg","municipality":{"key":"09273147","name":"Mainburg, St","type":"Stadt"},"district":{"key":"09273","name":"Kelheim","type":"Landkreis"},"federalState":{"key":"09","name":"Bayern"}},{"name":"Starenweg","postalCode":"84048","locality":"Mainburg","municipality":{"key":"09273147","name":"Mainburg, St","type":"Stadt"},"district":{"key":"09273","name":"Kelheim","type":"Landkreis"},"federalState":{"key":"09","name":"Bayern"}},{"name":"Steigäckerstr.","postalCode":"84048","locality":"Mainburg","municipality":{"key":"09273147","name":"Mainburg, St","type":"Stadt"},"district":{"key":"09273","name":"Kelheim","type":"Landkreis"},"federalState":{"key":"09","name":"Bayern"}},{"name":"Steigerwaldweg","postalCode":"84048","locality":"Mainburg","municipality":{"key":"09273147","name":"Mainburg, St","type":"Stadt"},"district":{"key":"09273","name":"Kelheim","type":"Landkreis"},"federalState":{"key":"09","name":"Bayern"}},{"name":"St.-Michael-Weg","postalCode":"84048","locality":"Mainburg","municipality":{"key":"09273147","name":"Mainburg, St","type":"Stadt"},"district":{"key":"09273","name":"Kelheim","type":"Landkreis"},"federalState":{"key":"09","name":"Bayern"}},{"name":"Streichmühler Str.","postalCode":"84048","locality":"Mainburg","municipality":{"key":"09273147","name":"Mainburg, St","type":"Stadt"},"district":{"key":"09273","name":"Kelheim","type":"Landkreis"},"federalState":{"key":"09","name":"Bayern"}},{"name":"Stubenäcker","postalCode":"84048","locality":"Mainburg","municipality":{"key":"09273147","name":"Mainburg, St","type":"Stadt"},"district":{"key":"09273","name":"Kelheim","type":"Landkreis"},"federalState":{"key":"09","name":"Bayern"}},{"name":"Südstr.","postalCode":"84048","locality":"Mainburg","municipality":{"key":"09273147","name":"Mainburg, St","type":"Stadt"},"district":{"key":"09273","name":"Kelheim","type":"Landkreis"},"federalState":{"key":"09","name":"Bayern"}},{"name":"Tannenstr.","postalCode":"84048","locality":"Mainburg","municipality":{"key":"09273147","name":"Mainburg, St","type":"Stadt"},"district":{"key":"09273","name":"Kelheim","type":"Landkreis"},"federalState":{"key":"09","name":"Bayern"}},{"name":"Taunusweg","postalCode":"84048","locality":"Mainburg","municipality":{"key":"09273147","name":"Mainburg, St","type":"Stadt"},"district":{"key":"09273","name":"Kelheim","type":"Landkreis"},"federalState":{"key":"09","name":"Bayern"}},{"name":"Thalhamer Str.","postalCode":"84048","locality":"Mainburg","municipality":{"key":"09273147","name":"Mainburg, St","type":"Stadt"},"district":{"key":"09273","name":"Kelheim","type":"Landkreis"},"federalState":{"key":"09","name":"Bayern"}},{"name":"Theresienstr.","postalCode":"84048","locality":"Mainburg","municipality":{"key":"09273147","name":"Mainburg, St","type":"Stadt"},"district":{"key":"09273","name":"Kelheim","type":"Landkreis"},"federalState":{"key":"09","name":"Bayern"}},{"name":"Thomaweg","postalCode":"84048","locality":"Mainburg","municipality":{"key":"09273147","name":"Mainburg, St","type":"Stadt"},"district":{"key":"09273","name":"Kelheim","type":"Landkreis"},"federalState":{"key":"09","name":"Bayern"}},{"name":"Thymianweg","postalCode":"84048","locality":"Mainburg","municipality":{"key":"09273147","name":"Mainburg, St","type":"Stadt"},"district":{"key":"09273","name":"Kelheim","type":"Landkreis"},"federalState":{"key":"09","name":"Bayern"}},{"name":"Tulpenweg","postalCode":"84048","locality":"Mainburg","municipality":{"key":"09273147","name":"Mainburg, St","type":"Stadt"},"district":{"key":"09273","name":"Kelheim","type":"Landkreis"},"federalState":{"key":"09","name":"Bayern"}},{"name":"Uferstr.","postalCode":"84048","locality":"Mainburg","municipality":{"key":"09273147","name":"Mainburg, St","type":"Stadt"},"district":{"key":"09273","name":"Kelheim","type":"Landkreis"},"federalState":{"key":"09","name":"Bayern"}},{"name":"Uhlandstr.","postalCode":"84048","locality":"Mainburg","municipality":{"key":"09273147","name":"Mainburg, St","type":"Stadt"},"district":{"key":"09273","name":"Kelheim","type":"Landkreis"},"federalState":{"key":"09","name":"Bayern"}},{"name":"Untere Lindenstr.","postalCode":"84048","locality":"Mainburg","municipality":{"key":"09273147","name":"Mainburg, St","type":"Stadt"},"district":{"key":"09273","name":"Kelheim","type":"Landkreis"},"federalState":{"key":"09","name":"Bayern"}},{"name":"Unterwangenbacher Str.","postalCode":"84048","locality":"Mainburg","municipality":{"key":"09273147","name":"Mainburg, St","type":"Stadt"},"district":{"key":"09273","name":"Kelheim","type":"Landkreis"},"federalState":{"key":"09","name":"Bayern"}},{"name":"Urzkehre","postalCode":"84048","locality":"Mainburg","municipality":{"key":"09273147","name":"Mainburg, St","type":"Stadt"},"district":{"key":"09273","name":"Kelheim","type":"Landkreis"},"federalState":{"key":"09","name":"Bayern"}},{"name":"Veteranenstr.","postalCode":"84048","locality":"Mainburg","municipality":{"key":"09273147","name":"Mainburg, St","type":"Stadt"},"district":{"key":"09273","name":"Kelheim","type":"Landkreis"},"federalState":{"key":"09","name":"Bayern"}},{"name":"V.-Hornstein-Str.","postalCode":"84048","locality":"Mainburg","municipality":{"key":"09273147","name":"Mainburg, St","type":"Stadt"},"district":{"key":"09273","name":"Kelheim","type":"Landkreis"},"federalState":{"key":"09","name":"Bayern"}},{"name":"V.-Käppler-Str.","postalCode":"84048","locality":"Mainburg","municipality":{"key":"09273147","name":"Mainburg, St","type":"Stadt"},"district":{"key":"09273","name":"Kelheim","type":"Landkreis"},"federalState":{"key":"09","name":"Bayern"}},{"name":"V.-Neuburg-Str.","postalCode":"84048","locality":"Mainburg","municipality":{"key":"09273147","name":"Mainburg, St","type":"Stadt"},"district":{"key":"09273","name":"Kelheim","type":"Landkreis"},"federalState":{"key":"09","name":"Bayern"}},{"name":"Von-Freiberg-Str.","postalCode":"84048","locality":"Mainburg","municipality":{"key":"09273147","name":"Mainburg, St","type":"Stadt"},"district":{"key":"09273","name":"Kelheim","type":"Landkreis"},"federalState":{"key":"09","name":"Bayern"}},{"name":"Von-Pocci-Str.","postalCode":"84048","locality":"Mainburg","municipality":{"key":"09273147","name":"Mainburg, St","type":"Stadt"},"district":{"key":"09273","name":"Kelheim","type":"Landkreis"},"federalState":{"key":"09","name":"Bayern"}},{"name":"Von-Reisbach-Str.","postalCode":"84048","locality":"Mainburg","municipality":{"key":"09273147","name":"Mainburg, St","type":"Stadt"},"district":{"key":"09273","name":"Kelheim","type":"Landkreis"},"federalState":{"key":"09","name":"Bayern"}},{"name":"Von-Rohrbach-Str.","postalCode":"84048","locality":"Mainburg","municipality":{"key":"09273147","name":"Mainburg, St","type":"Stadt"},"district":{"key":"09273","name":"Kelheim","type":"Landkreis"},"federalState":{"key":"09","name":"Bayern"}},{"name":"V.-Rohrbach-Str.","postalCode":"84048","locality":"Mainburg","municipality":{"key":"09273147","name":"Mainburg, St","type":"Stadt"},"district":{"key":"09273","name":"Kelheim","type":"Landkreis"},"federalState":{"key":"09","name":"Bayern"}},{"name":"V.-Wadenspann-Str.","postalCode":"84048","locality":"Mainburg","municipality":{"key":"09273147","name":"Mainburg, St","type":"Stadt"},"district":{"key":"09273","name":"Kelheim","type":"Landkreis"},"federalState":{"key":"09","name":"Bayern"}},{"name":"Wagnergasse","postalCode":"84048","locality":"Mainburg","municipality":{"key":"09273147","name":"Mainburg, St","type":"Stadt"},"district":{"key":"09273","name":"Kelheim","type":"Landkreis"},"federalState":{"key":"09","name":"Bayern"}},{"name":"Waldstr.","postalCode":"84048","locality":"Mainburg","municipality":{"key":"09273147","name":"Mainburg, St","type":"Stadt"},"district":{"key":"09273","name":"Kelheim","type":"Landkreis"},"federalState":{"key":"09","name":"Bayern"}},{"name":"Wallgasse","postalCode":"84048","locality":"Mainburg","municipality":{"key":"09273147","name":"Mainburg, St","type":"Stadt"},"district":{"key":"09273","name":"Kelheim","type":"Landkreis"},"federalState":{"key":"09","name":"Bayern"}},{"name":"Walther-Schwarz-Str.","postalCode":"84048","locality":"Mainburg","municipality":{"key":"09273147","name":"Mainburg, St","type":"Stadt"},"district":{"key":"09273","name":"Kelheim","type":"Landkreis"},"federalState":{"key":"09","name":"Bayern"}},{"name":"Wambachweg","postalCode":"84048","locality":"Mainburg","municipality":{"key":"09273147","name":"Mainburg, St","type":"Stadt"},"district":{"key":"09273","name":"Kelheim","type":"Landkreis"},"federalState":{"key":"09","name":"Bayern"}},{"name":"Watzlikweg","postalCode":"84048","locality":"Mainburg","municipality":{"key":"09273147","name":"Mainburg, St","type":"Stadt"},"district":{"key":"09273","name":"Kelheim","type":"Landkreis"},"federalState":{"key":"09","name":"Bayern"}},{"name":"Weg 11","postalCode":"84048","locality":"Mainburg","municipality":{"key":"09273147","name":"Mainburg, St","type":"Stadt"},"district":{"key":"09273","name":"Kelheim","type":"Landkreis"},"federalState":{"key":"09","name":"Bayern"}},{"name":"Weg 4","postalCode":"84048","locality":"Mainburg","municipality":{"key":"09273147","name":"Mainburg, St","type":"Stadt"},"district":{"key":"09273","name":"Kelheim","type":"Landkreis"},"federalState":{"key":"09","name":"Bayern"}},{"name":"Weg 6","postalCode":"84048","locality":"Mainburg","municipality":{"key":"09273147","name":"Mainburg, St","type":"Stadt"},"district":{"key":"09273","name":"Kelheim","type":"Landkreis"},"federalState":{"key":"09","name":"Bayern"}},{"name":"Weiherstr.","postalCode":"84048","locality":"Mainburg","municipality":{"key":"09273147","name":"Mainburg, St","type":"Stadt"},"district":{"key":"09273","name":"Kelheim","type":"Landkreis"},"federalState":{"key":"09","name":"Bayern"}},{"name":"Wellingweg","postalCode":"84048","locality":"Mainburg","municipality":{"key":"09273147","name":"Mainburg, St","type":"Stadt"},"district":{"key":"09273","name":"Kelheim","type":"Landkreis"},"federalState":{"key":"09","name":"Bayern"}},{"name":"Westendstr.","postalCode":"84048","locality":"Mainburg","municipality":{"key":"09273147","name":"Mainburg, St","type":"Stadt"},"district":{"key":"09273","name":"Kelheim","type":"Landkreis"},"federalState":{"key":"09","name":"Bayern"}},{"name":"Westring","postalCode":"84048","locality":"Mainburg","municipality":{"key":"09273147","name":"Mainburg, St","type":"Stadt"},"district":{"key":"09273","name":"Kelheim","type":"Landkreis"},"federalState":{"key":"09","name":"Bayern"}},{"name":"Wichernstr.","postalCode":"84048","locality":"Mainburg","municipality":{"key":"09273147","name":"Mainburg, St","type":"Stadt"},"district":{"key":"09273","name":"Kelheim","type":"Landkreis"},"federalState":{"key":"09","name":"Bayern"}},{"name":"Wielandstr.","postalCode":"84048","locality":"Mainburg","municipality":{"key":"09273147","name":"Mainburg, St","type":"Stadt"},"district":{"key":"09273","name":"Kelheim","type":"Landkreis"},"federalState":{"key":"09","name":"Bayern"}},{"name":"Wiesenweg","postalCode":"84048","locality":"Mainburg","municipality":{"key":"09273147","name":"Mainburg, St","type":"Stadt"},"district":{"key":"09273","name":"Kelheim","type":"Landkreis"},"federalState":{"key":"09","name":"Bayern"}},{"name":"Windmeißerstr.","postalCode":"84048","locality":"Mainburg","municipality":{"key":"09273147","name":"Mainburg, St","type":"Stadt"},"district":{"key":"09273","name":"Kelheim","type":"Landkreis"},"federalState":{"key":"09","name":"Bayern"}},{"name":"Winterstr.","postalCode":"84048","locality":"Mainburg","municipality":{"key":"09273147","name":"Mainburg, St","type":"Stadt"},"district":{"key":"09273","name":"Kelheim","type":"Landkreis"},"federalState":{"key":"09","name":"Bayern"}},{"name":"Wolnzacher Str.","postalCode":"84048","locality":"Mainburg","municipality":{"key":"09273147","name":"Mainburg, St","type":"Stadt"},"district":{"key":"09273","name":"Kelheim","type":"Landkreis"},"federalState":{"key":"09","name":"Bayern"}},{"name":"Ziegelstattstr.","postalCode":"84048","locality":"Mainburg","municipality":{"key":"09273147","name":"Mainburg, St","type":"Stadt"},"district":{"key":"09273","name":"Kelheim","type":"Landkreis"},"federalState":{"key":"09","name":"Bayern"}},{"name":"Zieglerstr.","postalCode":"84048","locality":"Mainburg","municipality":{"key":"09273147","name":"Mainburg, St","type":"Stadt"},"district":{"key":"09273","name":"Kelheim","type":"Landkreis"},"federalState":{"key":"09","name":"Bayern"}},{"name":"Zimmerlenzenanger","postalCode":"84048","locality":"Mainburg","municipality":{"key":"09273147","name":"Mainburg, St","type":"Stadt"},"district":{"key":"09273","name":"Kelheim","type":"Landkreis"},"federalState":{"key":"09","name":"Bayern"}},{"name":"Zum Eichfeld","postalCode":"84048","locality":"Mainburg","municipality":{"key":"09273147","name":"Mainburg, St","type":"Stadt"},"district":{"key":"09273","name":"Kelheim","type":"Landkreis"},"federalState":{"key":"09","name":"Bayern"}},{"name":"Zur Festwiese","postalCode":"84048","locality":"Mainburg","municipality":{"key":"09273147","name":"Mainburg, St","type":"Stadt"},"district":{"key":"09273","name":"Kelheim","type":"Landkreis"},"federalState":{"key":"09","name":"Bayern"}},{"name":"Zur Schwarzrinne","postalCode":"84048","locality":"Mainburg","municipality":{"key":"09273147","name":"Mainburg, St","type":"Stadt"},"district":{"key":"09273","name":"Kelheim","type":"Landkreis"},"federalState":{"key":"09","name":"Bayern"}},{"name":"Zur Umkehr","postalCode":"84048","locality":"Mainburg","municipality":{"key":"09273147","name":"Mainburg, St","type":"Stadt"},"district":{"key":"09273","name":"Kelheim","type":"Landkreis"},"federalState":{"key":"09","name":"Bayern"}},{"name":"Zur Wasserreserve","postalCode":"84048","locality":"Mainburg","municipality":{"key":"09273147","name":"Mainburg, St","type":"Stadt"},"district":{"key":"09273","name":"Kelheim","type":"Landkreis"},"federalState":{"key":"09","name":"Bayern"}},{"name":"Äußere Freisinger Str.","postalCode":"84048","locality":"Mainburg","municipality":{"key":"09273147","name":"Mainburg, St","type":"Stadt"},"district":{"key":"09273","name":"Kelheim","type":"Landkreis"},"federalState":{"key":"09","name":"Bayern"}},{"name":"Äußere Landshuter Str.","postalCode":"84048","locality":"Mainburg","municipality":{"key":"09273147","name":"Mainburg, St","type":"Stadt"},"district":{"key":"09273","name":"Kelheim","type":"Landkreis"},"federalState":{"key":"09","name":"Bayern"}},{"name":"öffentliche Grünfläche","postalCode":"84048","locality":"Mainburg","municipality":{"key":"09273147","name":"Mainburg, St","type":"Stadt"},"district":{"key":"09273","name":"Kelheim","type":"Landkreis"},"federalState":{"key":"09","name":"Bayern"}},]