[{"key":"10050422","name":"Champ-de-la-Cure","postalCode":"1415","locality":"Démoret","commune":{"key":"5912","name":"Démoret","shortName":"Démoret"},"district":{"key":"2224","name":"District du Jura-Nord vaudois"},"canton":{"key":"22","code":"VD","name":"Vaud"},"status":"Real"},{"key":"10068145","name":"Chemin de l'Eglise","postalCode":"1415","locality":"Démoret","commune":{"key":"5912","name":"Démoret","shortName":"Démoret"},"district":{"key":"2224","name":"District du Jura-Nord vaudois"},"canton":{"key":"22","code":"VD","name":"Vaud"},"status":"Real"},{"key":"10068141","name":"Chemin des Alpes","postalCode":"1415","locality":"Démoret","commune":{"key":"5912","name":"Démoret","shortName":"Démoret"},"district":{"key":"2224","name":"District du Jura-Nord vaudois"},"canton":{"key":"22","code":"VD","name":"Vaud"},"status":"Real"},{"key":"10169070","name":"Chemin du Coin","postalCode":"1415","locality":"Démoret","commune":{"key":"5912","name":"Démoret","shortName":"Démoret"},"district":{"key":"2224","name":"District du Jura-Nord vaudois"},"canton":{"key":"22","code":"VD","name":"Vaud"},"status":"Real"},{"key":"10164577","name":"Chemin du Montmelet","postalCode":"1415","locality":"Démoret","commune":{"key":"5912","name":"Démoret","shortName":"Démoret"},"district":{"key":"2224","name":"District du Jura-Nord vaudois"},"canton":{"key":"22","code":"VD","name":"Vaud"},"status":"Real"},{"key":"10071877","name":"Chemin du Péléret","postalCode":"1415","locality":"Démoret","commune":{"key":"5912","name":"Démoret","shortName":"Démoret"},"district":{"key":"2224","name":"District du Jura-Nord vaudois"},"canton":{"key":"22","code":"VD","name":"Vaud"},"status":"Real"},{"key":"10050423","name":"Frémérin","postalCode":"1415","locality":"Démoret","commune":{"key":"5912","name":"Démoret","shortName":"Démoret"},"district":{"key":"2224","name":"District du Jura-Nord vaudois"},"canton":{"key":"22","code":"VD","name":"Vaud"},"status":"Real"},{"key":"10166928","name":"La Râpe","postalCode":"1415","locality":"Démoret","commune":{"key":"5912","name":"Démoret","shortName":"Démoret"},"district":{"key":"2224","name":"District du Jura-Nord vaudois"},"canton":{"key":"22","code":"VD","name":"Vaud"},"status":"Real"},{"key":"10068143","name":"Le Château","postalCode":"1415","locality":"Démoret","commune":{"key":"5912","name":"Démoret","shortName":"Démoret"},"district":{"key":"2224","name":"District du Jura-Nord vaudois"},"canton":{"key":"22","code":"VD","name":"Vaud"},"status":"Real"},{"key":"10071866","name":"Place de l'Eglise","postalCode":"1415","locality":"Démoret","commune":{"key":"5912","name":"Démoret","shortName":"Démoret"},"district":{"key":"2224","name":"District du Jura-Nord vaudois"},"canton":{"key":"22","code":"VD","name":"Vaud"},"status":"Real"},{"key":"10128374","name":"Rosset","postalCode":"1415","locality":"Démoret","commune":{"key":"5912","name":"Démoret","shortName":"Démoret"},"district":{"key":"2224","name":"District du Jura-Nord vaudois"},"canton":{"key":"22","code":"VD","name":"Vaud"},"status":"Real"},{"key":"10068150","name":"Route de Molondin","postalCode":"1415","locality":"Démoret","commune":{"key":"5912","name":"Démoret","shortName":"Démoret"},"district":{"key":"2224","name":"District du Jura-Nord vaudois"},"canton":{"key":"22","code":"VD","name":"Vaud"},"status":"Real"},{"key":"10171876","name":"Route de Prahins","postalCode":"1415","locality":"Démoret","commune":{"key":"5912","name":"Démoret","shortName":"Démoret"},"district":{"key":"2224","name":"District du Jura-Nord vaudois"},"canton":{"key":"22","code":"VD","name":"Vaud"},"status":"Real"},{"key":"10050424","name":"Route de Vuissens","postalCode":"1415","locality":"Démoret","commune":{"key":"5912","name":"Démoret","shortName":"Démoret"},"district":{"key":"2224","name":"District du Jura-Nord vaudois"},"canton":{"key":"22","code":"VD","name":"Vaud"},"status":"Real"},]