[{"key":"10013909","name":"Aargauerstrasse","postalCode":"6215","locality":"Beromünster","commune":{"key":"1081","name":"Beromünster","shortName":"Beromünster"},"district":{"key":"314","name":"Wahlkreis Sursee"},"canton":{"key":"3","code":"LU","name":"Luzern"},"status":"Real"},{"key":"10186660","name":"Adiswil","postalCode":"6215","locality":"Beromünster","commune":{"key":"1081","name":"Beromünster","shortName":"Beromünster"},"district":{"key":"314","name":"Wahlkreis Sursee"},"canton":{"key":"3","code":"LU","name":"Luzern"},"status":"Real"},{"key":"10168752","name":"Alte Amtsschreiberei","postalCode":"6215","locality":"Beromünster","commune":{"key":"1081","name":"Beromünster","shortName":"Beromünster"},"district":{"key":"314","name":"Wahlkreis Sursee"},"canton":{"key":"3","code":"LU","name":"Luzern"},"status":"Real"},{"key":"10179431","name":"Am Sandhübel","postalCode":"6215","locality":"Beromünster","commune":{"key":"1081","name":"Beromünster","shortName":"Beromünster"},"district":{"key":"314","name":"Wahlkreis Sursee"},"canton":{"key":"3","code":"LU","name":"Luzern"},"status":"Real"},{"key":"10246443","name":"Bachheim","postalCode":"6215","locality":"Beromünster","commune":{"key":"1081","name":"Beromünster","shortName":"Beromünster"},"district":{"key":"314","name":"Wahlkreis Sursee"},"canton":{"key":"3","code":"LU","name":"Luzern"},"status":"Real"},{"key":"10085985","name":"Badgass","postalCode":"6215","locality":"Beromünster","commune":{"key":"1081","name":"Beromünster","shortName":"Beromünster"},"district":{"key":"314","name":"Wahlkreis Sursee"},"canton":{"key":"3","code":"LU","name":"Luzern"},"status":"Real"},{"key":"10179428","name":"Badweg","postalCode":"6215","locality":"Beromünster","commune":{"key":"1081","name":"Beromünster","shortName":"Beromünster"},"district":{"key":"314","name":"Wahlkreis Sursee"},"canton":{"key":"3","code":"LU","name":"Luzern"},"status":"Real"},{"key":"10013910","name":"Bahnhofstrasse","postalCode":"6215","locality":"Beromünster","commune":{"key":"1081","name":"Beromünster","shortName":"Beromünster"},"district":{"key":"314","name":"Wahlkreis Sursee"},"canton":{"key":"3","code":"LU","name":"Luzern"},"status":"Real"},{"key":"10118199","name":"Bärgmättli","postalCode":"6215","locality":"Beromünster","commune":{"key":"1081","name":"Beromünster","shortName":"Beromünster"},"district":{"key":"314","name":"Wahlkreis Sursee"},"canton":{"key":"3","code":"LU","name":"Luzern"},"status":"Real"},{"key":"10109937","name":"Berg","postalCode":"6215","locality":"Beromünster","commune":{"key":"1081","name":"Beromünster","shortName":"Beromünster"},"district":{"key":"314","name":"Wahlkreis Sursee"},"canton":{"key":"3","code":"LU","name":"Luzern"},"status":"Real"},{"key":"10186654","name":"Beroblick","postalCode":"6215","locality":"Beromünster","commune":{"key":"1081","name":"Beromünster","shortName":"Beromünster"},"district":{"key":"314","name":"Wahlkreis Sursee"},"canton":{"key":"3","code":"LU","name":"Luzern"},"status":"Real"},{"key":"10070034","name":"Bethlehem","postalCode":"6215","locality":"Beromünster","commune":{"key":"1081","name":"Beromünster","shortName":"Beromünster"},"district":{"key":"314","name":"Wahlkreis Sursee"},"canton":{"key":"3","code":"LU","name":"Luzern"},"status":"Real"},{"key":"10053417","name":"Bleiki","postalCode":"6215","locality":"Beromünster","commune":{"key":"1081","name":"Beromünster","shortName":"Beromünster"},"district":{"key":"314","name":"Wahlkreis Sursee"},"canton":{"key":"3","code":"LU","name":"Luzern"},"status":"Real"},{"key":"10013911","name":"Buechweid","postalCode":"6215","locality":"Beromünster","commune":{"key":"1081","name":"Beromünster","shortName":"Beromünster"},"district":{"key":"314","name":"Wahlkreis Sursee"},"canton":{"key":"3","code":"LU","name":"Luzern"},"status":"Real"},{"key":"10123983","name":"Centralstrasse","postalCode":"6215","locality":"Beromünster","commune":{"key":"1081","name":"Beromünster","shortName":"Beromünster"},"district":{"key":"314","name":"Wahlkreis Sursee"},"canton":{"key":"3","code":"LU","name":"Luzern"},"status":"Real"},{"key":"10011094","name":"Challere","postalCode":"6215","locality":"Beromünster","commune":{"key":"1081","name":"Beromünster","shortName":"Beromünster"},"district":{"key":"314","name":"Wahlkreis Sursee"},"canton":{"key":"3","code":"LU","name":"Luzern"},"status":"Real"},{"key":"10053418","name":"Chällermatt","postalCode":"6215","locality":"Beromünster","commune":{"key":"1081","name":"Beromünster","shortName":"Beromünster"},"district":{"key":"314","name":"Wahlkreis Sursee"},"canton":{"key":"3","code":"LU","name":"Luzern"},"status":"Real"},{"key":"10193919","name":"Chappelhof","postalCode":"6215","locality":"Beromünster","commune":{"key":"1081","name":"Beromünster","shortName":"Beromünster"},"district":{"key":"314","name":"Wahlkreis Sursee"},"canton":{"key":"3","code":"LU","name":"Luzern"},"status":"Real"},{"key":"10085986","name":"Chilegass","postalCode":"6215","locality":"Beromünster","commune":{"key":"1081","name":"Beromünster","shortName":"Beromünster"},"district":{"key":"314","name":"Wahlkreis Sursee"},"canton":{"key":"3","code":"LU","name":"Luzern"},"status":"Real"},{"key":"10068439","name":"Chottmeweg","postalCode":"6215","locality":"Beromünster","commune":{"key":"1081","name":"Beromünster","shortName":"Beromünster"},"district":{"key":"314","name":"Wahlkreis Sursee"},"canton":{"key":"3","code":"LU","name":"Luzern"},"status":"Real"},{"key":"10011089","name":"Chrüzmatt","postalCode":"6215","locality":"Beromünster","commune":{"key":"1081","name":"Beromünster","shortName":"Beromünster"},"district":{"key":"314","name":"Wahlkreis Sursee"},"canton":{"key":"3","code":"LU","name":"Luzern"},"status":"Real"},{"key":"10206551","name":"Chrüzstrasse","postalCode":"6215","locality":"Beromünster","commune":{"key":"1081","name":"Beromünster","shortName":"Beromünster"},"district":{"key":"314","name":"Wahlkreis Sursee"},"canton":{"key":"3","code":"LU","name":"Luzern"},"status":"Real"},{"key":"10254884","name":"Chüewald","postalCode":"6215","locality":"Beromünster","commune":{"key":"1081","name":"Beromünster","shortName":"Beromünster"},"district":{"key":"314","name":"Wahlkreis Sursee"},"canton":{"key":"3","code":"LU","name":"Luzern"},"status":"Real"},{"key":"10179429","name":"Corneliweg","postalCode":"6215","locality":"Beromünster","commune":{"key":"1081","name":"Beromünster","shortName":"Beromünster"},"district":{"key":"314","name":"Wahlkreis Sursee"},"canton":{"key":"3","code":"LU","name":"Luzern"},"status":"Real"},{"key":"10117290","name":"Dangelweg","postalCode":"6215","locality":"Beromünster","commune":{"key":"1081","name":"Beromünster","shortName":"Beromünster"},"district":{"key":"314","name":"Wahlkreis Sursee"},"canton":{"key":"3","code":"LU","name":"Luzern"},"status":"Real"},{"key":"10085987","name":"Dolderhof","postalCode":"6215","locality":"Beromünster","commune":{"key":"1081","name":"Beromünster","shortName":"Beromünster"},"district":{"key":"314","name":"Wahlkreis Sursee"},"canton":{"key":"3","code":"LU","name":"Luzern"},"status":"Real"},{"key":"10187271","name":"Don Boscostrasse","postalCode":"6215","locality":"Beromünster","commune":{"key":"1081","name":"Beromünster","shortName":"Beromünster"},"district":{"key":"314","name":"Wahlkreis Sursee"},"canton":{"key":"3","code":"LU","name":"Luzern"},"status":"Real"},{"key":"10006817","name":"Eichmatt","postalCode":"6215","locality":"Beromünster","commune":{"key":"1081","name":"Beromünster","shortName":"Beromünster"},"district":{"key":"314","name":"Wahlkreis Sursee"},"canton":{"key":"3","code":"LU","name":"Luzern"},"status":"Real"},{"key":"10209093","name":"Eigenstrasse","postalCode":"6215","locality":"Beromünster","commune":{"key":"1081","name":"Beromünster","shortName":"Beromünster"},"district":{"key":"314","name":"Wahlkreis Sursee"},"canton":{"key":"3","code":"LU","name":"Luzern"},"status":"Real"},{"key":"10254883","name":"Erlosewald","postalCode":"6215","locality":"Beromünster","commune":{"key":"1081","name":"Beromünster","shortName":"Beromünster"},"district":{"key":"314","name":"Wahlkreis Sursee"},"canton":{"key":"3","code":"LU","name":"Luzern"},"status":"Real"},{"key":"10109648","name":"Fläcke","postalCode":"6215","locality":"Beromünster","commune":{"key":"1081","name":"Beromünster","shortName":"Beromünster"},"district":{"key":"314","name":"Wahlkreis Sursee"},"canton":{"key":"3","code":"LU","name":"Luzern"},"status":"Real"},{"key":"10053419","name":"Friedheim","postalCode":"6215","locality":"Beromünster","commune":{"key":"1081","name":"Beromünster","shortName":"Beromünster"},"district":{"key":"314","name":"Wahlkreis Sursee"},"canton":{"key":"3","code":"LU","name":"Luzern"},"status":"Real"},{"key":"10167383","name":"Frohheim","postalCode":"6215","locality":"Beromünster","commune":{"key":"1081","name":"Beromünster","shortName":"Beromünster"},"district":{"key":"314","name":"Wahlkreis Sursee"},"canton":{"key":"3","code":"LU","name":"Luzern"},"status":"Real"},{"key":"10011091","name":"Gärbigass","postalCode":"6215","locality":"Beromünster","commune":{"key":"1081","name":"Beromünster","shortName":"Beromünster"},"district":{"key":"314","name":"Wahlkreis Sursee"},"canton":{"key":"3","code":"LU","name":"Luzern"},"status":"Real"},{"key":"10011090","name":"Goldgrueb","postalCode":"6215","locality":"Beromünster","commune":{"key":"1081","name":"Beromünster","shortName":"Beromünster"},"district":{"key":"314","name":"Wahlkreis Sursee"},"canton":{"key":"3","code":"LU","name":"Luzern"},"status":"Real"},{"key":"10085988","name":"Grüenegg","postalCode":"6215","locality":"Beromünster","commune":{"key":"1081","name":"Beromünster","shortName":"Beromünster"},"district":{"key":"314","name":"Wahlkreis Sursee"},"canton":{"key":"3","code":"LU","name":"Luzern"},"status":"Real"},{"key":"10208928","name":"Halariusstrasse","postalCode":"6215","locality":"Beromünster","commune":{"key":"1081","name":"Beromünster","shortName":"Beromünster"},"district":{"key":"314","name":"Wahlkreis Sursee"},"canton":{"key":"3","code":"LU","name":"Luzern"},"status":"Real"},{"key":"10053726","name":"Hasenäst","postalCode":"6215","locality":"Beromünster","commune":{"key":"1081","name":"Beromünster","shortName":"Beromünster"},"district":{"key":"314","name":"Wahlkreis Sursee"},"canton":{"key":"3","code":"LU","name":"Luzern"},"status":"Real"},{"key":"10011092","name":"Hasenneststrasse","postalCode":"6215","locality":"Beromünster","commune":{"key":"1081","name":"Beromünster","shortName":"Beromünster"},"district":{"key":"314","name":"Wahlkreis Sursee"},"canton":{"key":"3","code":"LU","name":"Luzern"},"status":"Real"},{"key":"10085989","name":"Herlisbergstrasse","postalCode":"6215","locality":"Beromünster","commune":{"key":"1081","name":"Beromünster","shortName":"Beromünster"},"district":{"key":"314","name":"Wahlkreis Sursee"},"canton":{"key":"3","code":"LU","name":"Luzern"},"status":"Real"},{"key":"10011093","name":"Hinder Müli","postalCode":"6215","locality":"Beromünster","commune":{"key":"1081","name":"Beromünster","shortName":"Beromünster"},"district":{"key":"314","name":"Wahlkreis Sursee"},"canton":{"key":"3","code":"LU","name":"Luzern"},"status":"Real"},{"key":"10179430","name":"Hirschenplatz","postalCode":"6215","locality":"Beromünster","commune":{"key":"1081","name":"Beromünster","shortName":"Beromünster"},"district":{"key":"314","name":"Wahlkreis Sursee"},"canton":{"key":"3","code":"LU","name":"Luzern"},"status":"Real"},{"key":"10208929","name":"Hockerstrasse","postalCode":"6215","locality":"Beromünster","commune":{"key":"1081","name":"Beromünster","shortName":"Beromünster"},"district":{"key":"314","name":"Wahlkreis Sursee"},"canton":{"key":"3","code":"LU","name":"Luzern"},"status":"Real"},{"key":"10101545","name":"Hombergblick","postalCode":"6215","locality":"Beromünster","commune":{"key":"1081","name":"Beromünster","shortName":"Beromünster"},"district":{"key":"314","name":"Wahlkreis Sursee"},"canton":{"key":"3","code":"LU","name":"Luzern"},"status":"Real"},{"key":"10123980","name":"Huebmatt","postalCode":"6215","locality":"Beromünster","commune":{"key":"1081","name":"Beromünster","shortName":"Beromünster"},"district":{"key":"314","name":"Wahlkreis Sursee"},"canton":{"key":"3","code":"LU","name":"Luzern"},"status":"Real"},{"key":"10131925","name":"Huebmattstrasse","postalCode":"6215","locality":"Beromünster","commune":{"key":"1081","name":"Beromünster","shortName":"Beromünster"},"district":{"key":"314","name":"Wahlkreis Sursee"},"canton":{"key":"3","code":"LU","name":"Luzern"},"status":"Real"},{"key":"10068440","name":"Industriestrasse","postalCode":"6215","locality":"Beromünster","commune":{"key":"1081","name":"Beromünster","shortName":"Beromünster"},"district":{"key":"314","name":"Wahlkreis Sursee"},"canton":{"key":"3","code":"LU","name":"Luzern"},"status":"Real"},{"key":"10208930","name":"K15","postalCode":"6215","locality":"Beromünster","commune":{"key":"1081","name":"Beromünster","shortName":"Beromünster"},"district":{"key":"314","name":"Wahlkreis Sursee"},"canton":{"key":"3","code":"LU","name":"Luzern"},"status":"Real"},{"key":"10241845","name":"K58","postalCode":"6215","locality":"Beromünster","commune":{"key":"1081","name":"Beromünster","shortName":"Beromünster"},"district":{"key":"314","name":"Wahlkreis Sursee"},"canton":{"key":"3","code":"LU","name":"Luzern"},"status":"Real"},{"key":"10176736","name":"Käserei Winon","postalCode":"6215","locality":"Beromünster","commune":{"key":"1081","name":"Beromünster","shortName":"Beromünster"},"district":{"key":"314","name":"Wahlkreis Sursee"},"canton":{"key":"3","code":"LU","name":"Luzern"},"status":"Real"},{"key":"10241861","name":"Landhof","postalCode":"6215","locality":"Beromünster","commune":{"key":"1081","name":"Beromünster","shortName":"Beromünster"},"district":{"key":"314","name":"Wahlkreis Sursee"},"canton":{"key":"3","code":"LU","name":"Luzern"},"status":"Real"},{"key":"10011095","name":"Landhusweg","postalCode":"6215","locality":"Beromünster","commune":{"key":"1081","name":"Beromünster","shortName":"Beromünster"},"district":{"key":"314","name":"Wahlkreis Sursee"},"canton":{"key":"3","code":"LU","name":"Luzern"},"status":"Real"},{"key":"10137985","name":"Lindenhofweg","postalCode":"6215","locality":"Beromünster","commune":{"key":"1081","name":"Beromünster","shortName":"Beromünster"},"district":{"key":"314","name":"Wahlkreis Sursee"},"canton":{"key":"3","code":"LU","name":"Luzern"},"status":"Real"},{"key":"10189370","name":"Luzernerstrasse","postalCode":"6215","locality":"Beromünster","commune":{"key":"1081","name":"Beromünster","shortName":"Beromünster"},"district":{"key":"314","name":"Wahlkreis Sursee"},"canton":{"key":"3","code":"LU","name":"Luzern"},"status":"Real"},{"key":"10006818","name":"Maihusen","postalCode":"6215","locality":"Beromünster","commune":{"key":"1081","name":"Beromünster","shortName":"Beromünster"},"district":{"key":"314","name":"Wahlkreis Sursee"},"canton":{"key":"3","code":"LU","name":"Luzern"},"status":"Real"},{"key":"10168691","name":"Martinshöfli","postalCode":"6215","locality":"Beromünster","commune":{"key":"1081","name":"Beromünster","shortName":"Beromünster"},"district":{"key":"314","name":"Wahlkreis Sursee"},"canton":{"key":"3","code":"LU","name":"Luzern"},"status":"Real"},{"key":"10162934","name":"Merkur","postalCode":"6215","locality":"Beromünster","commune":{"key":"1081","name":"Beromünster","shortName":"Beromünster"},"district":{"key":"314","name":"Wahlkreis Sursee"},"canton":{"key":"3","code":"LU","name":"Luzern"},"status":"Real"},{"key":"10165672","name":"Moosheim","postalCode":"6215","locality":"Beromünster","commune":{"key":"1081","name":"Beromünster","shortName":"Beromünster"},"district":{"key":"314","name":"Wahlkreis Sursee"},"canton":{"key":"3","code":"LU","name":"Luzern"},"status":"Real"},{"key":"10130908","name":"Mooshofstrasse","postalCode":"6215","locality":"Beromünster","commune":{"key":"1081","name":"Beromünster","shortName":"Beromünster"},"district":{"key":"314","name":"Wahlkreis Sursee"},"canton":{"key":"3","code":"LU","name":"Luzern"},"status":"Real"},{"key":"10257809","name":"Mooskapelle","postalCode":"6215","locality":"Beromünster","commune":{"key":"1081","name":"Beromünster","shortName":"Beromünster"},"district":{"key":"314","name":"Wahlkreis Sursee"},"canton":{"key":"3","code":"LU","name":"Luzern"},"status":"Real"},{"key":"10109649","name":"Moosmattstrasse","postalCode":"6215","locality":"Beromünster","commune":{"key":"1081","name":"Beromünster","shortName":"Beromünster"},"district":{"key":"314","name":"Wahlkreis Sursee"},"canton":{"key":"3","code":"LU","name":"Luzern"},"status":"Real"},{"key":"10209085","name":"Mügerstrasse","postalCode":"6215","locality":"Beromünster","commune":{"key":"1081","name":"Beromünster","shortName":"Beromünster"},"district":{"key":"314","name":"Wahlkreis Sursee"},"canton":{"key":"3","code":"LU","name":"Luzern"},"status":"Real"},{"key":"10209097","name":"Mulaffstrasse","postalCode":"6215","locality":"Beromünster","commune":{"key":"1081","name":"Beromünster","shortName":"Beromünster"},"district":{"key":"314","name":"Wahlkreis Sursee"},"canton":{"key":"3","code":"LU","name":"Luzern"},"status":"Real"},{"key":"10068441","name":"Neumatt","postalCode":"6215","locality":"Beromünster","commune":{"key":"1081","name":"Beromünster","shortName":"Beromünster"},"district":{"key":"314","name":"Wahlkreis Sursee"},"canton":{"key":"3","code":"LU","name":"Luzern"},"status":"Real"},{"key":"10011096","name":"Ober Brugg","postalCode":"6215","locality":"Beromünster","commune":{"key":"1081","name":"Beromünster","shortName":"Beromünster"},"district":{"key":"314","name":"Wahlkreis Sursee"},"canton":{"key":"3","code":"LU","name":"Luzern"},"status":"Real"},{"key":"10241859","name":"Oberdorf","postalCode":"6215","locality":"Beromünster","commune":{"key":"1081","name":"Beromünster","shortName":"Beromünster"},"district":{"key":"314","name":"Wahlkreis Sursee"},"canton":{"key":"3","code":"LU","name":"Luzern"},"status":"Real"},{"key":"10068442","name":"Oezlige","postalCode":"6215","locality":"Beromünster","commune":{"key":"1081","name":"Beromünster","shortName":"Beromünster"},"district":{"key":"314","name":"Wahlkreis Sursee"},"canton":{"key":"3","code":"LU","name":"Luzern"},"status":"Real"},{"key":"10156865","name":"Rotbachmatt","postalCode":"6215","locality":"Beromünster","commune":{"key":"1081","name":"Beromünster","shortName":"Beromünster"},"district":{"key":"314","name":"Wahlkreis Sursee"},"canton":{"key":"3","code":"LU","name":"Luzern"},"status":"Real"},{"key":"10209098","name":"Röthenlinstrasse","postalCode":"6215","locality":"Beromünster","commune":{"key":"1081","name":"Beromünster","shortName":"Beromünster"},"district":{"key":"314","name":"Wahlkreis Sursee"},"canton":{"key":"3","code":"LU","name":"Luzern"},"status":"Real"},{"key":"10085990","name":"Rothusstrasse","postalCode":"6215","locality":"Beromünster","commune":{"key":"1081","name":"Beromünster","shortName":"Beromünster"},"district":{"key":"314","name":"Wahlkreis Sursee"},"canton":{"key":"3","code":"LU","name":"Luzern"},"status":"Real"},{"key":"10068443","name":"Ryn","postalCode":"6215","locality":"Beromünster","commune":{"key":"1081","name":"Beromünster","shortName":"Beromünster"},"district":{"key":"314","name":"Wahlkreis Sursee"},"canton":{"key":"3","code":"LU","name":"Luzern"},"status":"Real"},{"key":"10252618","name":"Sagi","postalCode":"6215","locality":"Beromünster","commune":{"key":"1081","name":"Beromünster","shortName":"Beromünster"},"district":{"key":"314","name":"Wahlkreis Sursee"},"canton":{"key":"3","code":"LU","name":"Luzern"},"status":"Real"},{"key":"10053725","name":"Schlifi","postalCode":"6215","locality":"Beromünster","commune":{"key":"1081","name":"Beromünster","shortName":"Beromünster"},"district":{"key":"314","name":"Wahlkreis Sursee"},"canton":{"key":"3","code":"LU","name":"Luzern"},"status":"Real"},{"key":"10254875","name":"Schlifitobel","postalCode":"6215","locality":"Beromünster","commune":{"key":"1081","name":"Beromünster","shortName":"Beromünster"},"district":{"key":"314","name":"Wahlkreis Sursee"},"canton":{"key":"3","code":"LU","name":"Luzern"},"status":"Real"},{"key":"10068444","name":"Schlösslifeld","postalCode":"6215","locality":"Beromünster","commune":{"key":"1081","name":"Beromünster","shortName":"Beromünster"},"district":{"key":"314","name":"Wahlkreis Sursee"},"canton":{"key":"3","code":"LU","name":"Luzern"},"status":"Real"},{"key":"10011097","name":"Schlössliweg","postalCode":"6215","locality":"Beromünster","commune":{"key":"1081","name":"Beromünster","shortName":"Beromünster"},"district":{"key":"314","name":"Wahlkreis Sursee"},"canton":{"key":"3","code":"LU","name":"Luzern"},"status":"Real"},{"key":"10069956","name":"Schneggenrain","postalCode":"6215","locality":"Beromünster","commune":{"key":"1081","name":"Beromünster","shortName":"Beromünster"},"district":{"key":"314","name":"Wahlkreis Sursee"},"canton":{"key":"3","code":"LU","name":"Luzern"},"status":"Real"},{"key":"10051501","name":"Schönbüel","postalCode":"6215","locality":"Beromünster","commune":{"key":"1081","name":"Beromünster","shortName":"Beromünster"},"district":{"key":"314","name":"Wahlkreis Sursee"},"canton":{"key":"3","code":"LU","name":"Luzern"},"status":"Real"},{"key":"10011098","name":"Schuelgass","postalCode":"6215","locality":"Beromünster","commune":{"key":"1081","name":"Beromünster","shortName":"Beromünster"},"district":{"key":"314","name":"Wahlkreis Sursee"},"canton":{"key":"3","code":"LU","name":"Luzern"},"status":"Real"},{"key":"10084301","name":"Schürhof","postalCode":"6215","locality":"Beromünster","commune":{"key":"1081","name":"Beromünster","shortName":"Beromünster"},"district":{"key":"314","name":"Wahlkreis Sursee"},"canton":{"key":"3","code":"LU","name":"Luzern"},"status":"Real"},{"key":"10191476","name":"Schürmatt","postalCode":"6215","locality":"Beromünster","commune":{"key":"1081","name":"Beromünster","shortName":"Beromünster"},"district":{"key":"314","name":"Wahlkreis Sursee"},"canton":{"key":"3","code":"LU","name":"Luzern"},"status":"Real"},{"key":"10186655","name":"Schützefeld","postalCode":"6215","locality":"Beromünster","commune":{"key":"1081","name":"Beromünster","shortName":"Beromünster"},"district":{"key":"314","name":"Wahlkreis Sursee"},"canton":{"key":"3","code":"LU","name":"Luzern"},"status":"Real"},{"key":"10165673","name":"Sonnehüsli","postalCode":"6215","locality":"Beromünster","commune":{"key":"1081","name":"Beromünster","shortName":"Beromünster"},"district":{"key":"314","name":"Wahlkreis Sursee"},"canton":{"key":"3","code":"LU","name":"Luzern"},"status":"Real"},{"key":"10241870","name":"Sonnhalde","postalCode":"6215","locality":"Beromünster","commune":{"key":"1081","name":"Beromünster","shortName":"Beromünster"},"district":{"key":"314","name":"Wahlkreis Sursee"},"canton":{"key":"3","code":"LU","name":"Luzern"},"status":"Real"},{"key":"10011099","name":"Sonnrain","postalCode":"6215","locality":"Beromünster","commune":{"key":"1081","name":"Beromünster","shortName":"Beromünster"},"district":{"key":"314","name":"Wahlkreis Sursee"},"canton":{"key":"3","code":"LU","name":"Luzern"},"status":"Real"},{"key":"10068445","name":"Spittelgass","postalCode":"6215","locality":"Beromünster","commune":{"key":"1081","name":"Beromünster","shortName":"Beromünster"},"district":{"key":"314","name":"Wahlkreis Sursee"},"canton":{"key":"3","code":"LU","name":"Luzern"},"status":"Real"},{"key":"10011100","name":"Staufferweg","postalCode":"6215","locality":"Beromünster","commune":{"key":"1081","name":"Beromünster","shortName":"Beromünster"},"district":{"key":"314","name":"Wahlkreis Sursee"},"canton":{"key":"3","code":"LU","name":"Luzern"},"status":"Real"},{"key":"10011101","name":"Stift","postalCode":"6215","locality":"Beromünster","commune":{"key":"1081","name":"Beromünster","shortName":"Beromünster"},"district":{"key":"314","name":"Wahlkreis Sursee"},"canton":{"key":"3","code":"LU","name":"Luzern"},"status":"Real"},{"key":"10006819","name":"St. Theobald","postalCode":"6215","locality":"Beromünster","commune":{"key":"1081","name":"Beromünster","shortName":"Beromünster"},"district":{"key":"314","name":"Wahlkreis Sursee"},"canton":{"key":"3","code":"LU","name":"Luzern"},"status":"Real"},{"key":"10085991","name":"Tannhof","postalCode":"6215","locality":"Beromünster","commune":{"key":"1081","name":"Beromünster","shortName":"Beromünster"},"district":{"key":"314","name":"Wahlkreis Sursee"},"canton":{"key":"3","code":"LU","name":"Luzern"},"status":"Real"},{"key":"10068446","name":"Troxlerweg","postalCode":"6215","locality":"Beromünster","commune":{"key":"1081","name":"Beromünster","shortName":"Beromünster"},"district":{"key":"314","name":"Wahlkreis Sursee"},"canton":{"key":"3","code":"LU","name":"Luzern"},"status":"Real"},{"key":"10011102","name":"Under Brugg","postalCode":"6215","locality":"Beromünster","commune":{"key":"1081","name":"Beromünster","shortName":"Beromünster"},"district":{"key":"314","name":"Wahlkreis Sursee"},"canton":{"key":"3","code":"LU","name":"Luzern"},"status":"Real"},{"key":"10179432","name":"Under Müli","postalCode":"6215","locality":"Beromünster","commune":{"key":"1081","name":"Beromünster","shortName":"Beromünster"},"district":{"key":"314","name":"Wahlkreis Sursee"},"canton":{"key":"3","code":"LU","name":"Luzern"},"status":"Real"},{"key":"10123495","name":"Waldhus","postalCode":"6215","locality":"Beromünster","commune":{"key":"1081","name":"Beromünster","shortName":"Beromünster"},"district":{"key":"314","name":"Wahlkreis Sursee"},"canton":{"key":"3","code":"LU","name":"Luzern"},"status":"Real"},{"key":"10254876","name":"Wiholzmatte","postalCode":"6215","locality":"Beromünster","commune":{"key":"1081","name":"Beromünster","shortName":"Beromünster"},"district":{"key":"314","name":"Wahlkreis Sursee"},"canton":{"key":"3","code":"LU","name":"Luzern"},"status":"Real"},{"key":"10209089","name":"Wiholzstrasse","postalCode":"6215","locality":"Beromünster","commune":{"key":"1081","name":"Beromünster","shortName":"Beromünster"},"district":{"key":"314","name":"Wahlkreis Sursee"},"canton":{"key":"3","code":"LU","name":"Luzern"},"status":"Real"},{"key":"10241876","name":"Wilhelmshöchi","postalCode":"6215","locality":"Beromünster","commune":{"key":"1081","name":"Beromünster","shortName":"Beromünster"},"district":{"key":"314","name":"Wahlkreis Sursee"},"canton":{"key":"3","code":"LU","name":"Luzern"},"status":"Real"},{"key":"10209099","name":"Wilistrasse","postalCode":"6215","locality":"Beromünster","commune":{"key":"1081","name":"Beromünster","shortName":"Beromünster"},"district":{"key":"314","name":"Wahlkreis Sursee"},"canton":{"key":"3","code":"LU","name":"Luzern"},"status":"Real"},{"key":"10178782","name":"Winon","postalCode":"6215","locality":"Beromünster","commune":{"key":"1081","name":"Beromünster","shortName":"Beromünster"},"district":{"key":"314","name":"Wahlkreis Sursee"},"canton":{"key":"3","code":"LU","name":"Luzern"},"status":"Real"},{"key":"10097505","name":"Winonmühle","postalCode":"6215","locality":"Beromünster","commune":{"key":"1081","name":"Beromünster","shortName":"Beromünster"},"district":{"key":"314","name":"Wahlkreis Sursee"},"canton":{"key":"3","code":"LU","name":"Luzern"},"status":"Real"},{"key":"10006820","name":"Witwil","postalCode":"6215","locality":"Beromünster","commune":{"key":"1081","name":"Beromünster","shortName":"Beromünster"},"district":{"key":"314","name":"Wahlkreis Sursee"},"canton":{"key":"3","code":"LU","name":"Luzern"},"status":"Real"},{"key":"10254878","name":"Witwilerberg","postalCode":"6215","locality":"Beromünster","commune":{"key":"1081","name":"Beromünster","shortName":"Beromünster"},"district":{"key":"314","name":"Wahlkreis Sursee"},"canton":{"key":"3","code":"LU","name":"Luzern"},"status":"Real"},{"key":"10208924","name":"Witwilerstrasse","postalCode":"6215","locality":"Beromünster","commune":{"key":"1081","name":"Beromünster","shortName":"Beromünster"},"district":{"key":"314","name":"Wahlkreis Sursee"},"canton":{"key":"3","code":"LU","name":"Luzern"},"status":"Real"},{"key":"10173604","name":"Wydacher","postalCode":"6215","locality":"Beromünster","commune":{"key":"1081","name":"Beromünster","shortName":"Beromünster"},"district":{"key":"314","name":"Wahlkreis Sursee"},"canton":{"key":"3","code":"LU","name":"Luzern"},"status":"Real"},{"key":"10011103","name":"Ziegelhütte","postalCode":"6215","locality":"Beromünster","commune":{"key":"1081","name":"Beromünster","shortName":"Beromünster"},"district":{"key":"314","name":"Wahlkreis Sursee"},"canton":{"key":"3","code":"LU","name":"Luzern"},"status":"Real"},]