[{"name":"Ackerstr.","postalCode":"57250","locality":"Netphen","municipality":{"key":"05970032","name":"Netphen, Stadt","type":"Stadt"},"district":{"key":"05970","name":"Siegen-Wittgenstein","type":"Kreis"},"federalState":{"key":"05","name":"Nordrhein-Westfalen"}},{"name":"Adam-Kreuz-Str.","postalCode":"57250","locality":"Netphen","municipality":{"key":"05970032","name":"Netphen, Stadt","type":"Stadt"},"district":{"key":"05970","name":"Siegen-Wittgenstein","type":"Kreis"},"federalState":{"key":"05","name":"Nordrhein-Westfalen"}},{"name":"Adolf-Kolping-Weg","postalCode":"57250","locality":"Netphen","municipality":{"key":"05970032","name":"Netphen, Stadt","type":"Stadt"},"district":{"key":"05970","name":"Siegen-Wittgenstein","type":"Kreis"},"federalState":{"key":"05","name":"Nordrhein-Westfalen"}},{"name":"Afferbachstr.","postalCode":"57250","locality":"Netphen","municipality":{"key":"05970032","name":"Netphen, Stadt","type":"Stadt"},"district":{"key":"05970","name":"Siegen-Wittgenstein","type":"Kreis"},"federalState":{"key":"05","name":"Nordrhein-Westfalen"}},{"name":"Ahornweg","postalCode":"57250","locality":"Netphen","municipality":{"key":"05970032","name":"Netphen, Stadt","type":"Stadt"},"district":{"key":"05970","name":"Siegen-Wittgenstein","type":"Kreis"},"federalState":{"key":"05","name":"Nordrhein-Westfalen"}},{"name":"Akazienweg","postalCode":"57250","locality":"Netphen","municipality":{"key":"05970032","name":"Netphen, Stadt","type":"Stadt"},"district":{"key":"05970","name":"Siegen-Wittgenstein","type":"Kreis"},"federalState":{"key":"05","name":"Nordrhein-Westfalen"}},{"name":"Albert-Irle-Str.","postalCode":"57250","locality":"Netphen","municipality":{"key":"05970032","name":"Netphen, Stadt","type":"Stadt"},"district":{"key":"05970","name":"Siegen-Wittgenstein","type":"Kreis"},"federalState":{"key":"05","name":"Nordrhein-Westfalen"}},{"name":"Albert-Klenner-Str.","postalCode":"57250","locality":"Netphen","municipality":{"key":"05970032","name":"Netphen, Stadt","type":"Stadt"},"district":{"key":"05970","name":"Siegen-Wittgenstein","type":"Kreis"},"federalState":{"key":"05","name":"Nordrhein-Westfalen"}},{"name":"Alexander-Vollmer-Str.","postalCode":"57250","locality":"Netphen","municipality":{"key":"05970032","name":"Netphen, Stadt","type":"Stadt"},"district":{"key":"05970","name":"Siegen-Wittgenstein","type":"Kreis"},"federalState":{"key":"05","name":"Nordrhein-Westfalen"}},{"name":"Allenbacher Str.","postalCode":"57250","locality":"Netphen","municipality":{"key":"05970032","name":"Netphen, Stadt","type":"Stadt"},"district":{"key":"05970","name":"Siegen-Wittgenstein","type":"Kreis"},"federalState":{"key":"05","name":"Nordrhein-Westfalen"}},{"name":"Alte-Burg-Str.","postalCode":"57250","locality":"Netphen","municipality":{"key":"05970032","name":"Netphen, Stadt","type":"Stadt"},"district":{"key":"05970","name":"Siegen-Wittgenstein","type":"Kreis"},"federalState":{"key":"05","name":"Nordrhein-Westfalen"}},{"name":"Alterbachstr.","postalCode":"57250","locality":"Netphen","municipality":{"key":"05970032","name":"Netphen, Stadt","type":"Stadt"},"district":{"key":"05970","name":"Siegen-Wittgenstein","type":"Kreis"},"federalState":{"key":"05","name":"Nordrhein-Westfalen"}},{"name":"Altwiese","postalCode":"57250","locality":"Netphen","municipality":{"key":"05970032","name":"Netphen, Stadt","type":"Stadt"},"district":{"key":"05970","name":"Siegen-Wittgenstein","type":"Kreis"},"federalState":{"key":"05","name":"Nordrhein-Westfalen"}},{"name":"Am alten Hain","postalCode":"57250","locality":"Netphen","municipality":{"key":"05970032","name":"Netphen, Stadt","type":"Stadt"},"district":{"key":"05970","name":"Siegen-Wittgenstein","type":"Kreis"},"federalState":{"key":"05","name":"Nordrhein-Westfalen"}},{"name":"Am Berg","postalCode":"57250","locality":"Netphen","municipality":{"key":"05970032","name":"Netphen, Stadt","type":"Stadt"},"district":{"key":"05970","name":"Siegen-Wittgenstein","type":"Kreis"},"federalState":{"key":"05","name":"Nordrhein-Westfalen"}},{"name":"Am Bernstein","postalCode":"57250","locality":"Netphen","municipality":{"key":"05970032","name":"Netphen, Stadt","type":"Stadt"},"district":{"key":"05970","name":"Siegen-Wittgenstein","type":"Kreis"},"federalState":{"key":"05","name":"Nordrhein-Westfalen"}},{"name":"Am Birkenrain","postalCode":"57250","locality":"Netphen","municipality":{"key":"05970032","name":"Netphen, Stadt","type":"Stadt"},"district":{"key":"05970","name":"Siegen-Wittgenstein","type":"Kreis"},"federalState":{"key":"05","name":"Nordrhein-Westfalen"}},{"name":"Am Bornacker","postalCode":"57250","locality":"Netphen","municipality":{"key":"05970032","name":"Netphen, Stadt","type":"Stadt"},"district":{"key":"05970","name":"Siegen-Wittgenstein","type":"Kreis"},"federalState":{"key":"05","name":"Nordrhein-Westfalen"}},{"name":"Am Bösen Born","postalCode":"57250","locality":"Netphen","municipality":{"key":"05970032","name":"Netphen, Stadt","type":"Stadt"},"district":{"key":"05970","name":"Siegen-Wittgenstein","type":"Kreis"},"federalState":{"key":"05","name":"Nordrhein-Westfalen"}},{"name":"Am Botschert","postalCode":"57250","locality":"Netphen","municipality":{"key":"05970032","name":"Netphen, Stadt","type":"Stadt"},"district":{"key":"05970","name":"Siegen-Wittgenstein","type":"Kreis"},"federalState":{"key":"05","name":"Nordrhein-Westfalen"}},{"name":"Am Brünkel","postalCode":"57250","locality":"Netphen","municipality":{"key":"05970032","name":"Netphen, Stadt","type":"Stadt"},"district":{"key":"05970","name":"Siegen-Wittgenstein","type":"Kreis"},"federalState":{"key":"05","name":"Nordrhein-Westfalen"}},{"name":"Am Bühl","postalCode":"57250","locality":"Netphen","municipality":{"key":"05970032","name":"Netphen, Stadt","type":"Stadt"},"district":{"key":"05970","name":"Siegen-Wittgenstein","type":"Kreis"},"federalState":{"key":"05","name":"Nordrhein-Westfalen"}},{"name":"Am Bühlskopf","postalCode":"57250","locality":"Netphen","municipality":{"key":"05970032","name":"Netphen, Stadt","type":"Stadt"},"district":{"key":"05970","name":"Siegen-Wittgenstein","type":"Kreis"},"federalState":{"key":"05","name":"Nordrhein-Westfalen"}},{"name":"Am Bürgerhaus","postalCode":"57250","locality":"Netphen","municipality":{"key":"05970032","name":"Netphen, Stadt","type":"Stadt"},"district":{"key":"05970","name":"Siegen-Wittgenstein","type":"Kreis"},"federalState":{"key":"05","name":"Nordrhein-Westfalen"}},{"name":"Am Burgrain","postalCode":"57250","locality":"Netphen","municipality":{"key":"05970032","name":"Netphen, Stadt","type":"Stadt"},"district":{"key":"05970","name":"Siegen-Wittgenstein","type":"Kreis"},"federalState":{"key":"05","name":"Nordrhein-Westfalen"}},{"name":"Am Eiersberg","postalCode":"57250","locality":"Netphen","municipality":{"key":"05970032","name":"Netphen, Stadt","type":"Stadt"},"district":{"key":"05970","name":"Siegen-Wittgenstein","type":"Kreis"},"federalState":{"key":"05","name":"Nordrhein-Westfalen"}},{"name":"Am Freibad","postalCode":"57250","locality":"Netphen","municipality":{"key":"05970032","name":"Netphen, Stadt","type":"Stadt"},"district":{"key":"05970","name":"Siegen-Wittgenstein","type":"Kreis"},"federalState":{"key":"05","name":"Nordrhein-Westfalen"}},{"name":"Am Gottstuhl","postalCode":"57250","locality":"Netphen","municipality":{"key":"05970032","name":"Netphen, Stadt","type":"Stadt"},"district":{"key":"05970","name":"Siegen-Wittgenstein","type":"Kreis"},"federalState":{"key":"05","name":"Nordrhein-Westfalen"}},{"name":"Am Hainberg","postalCode":"57250","locality":"Netphen","municipality":{"key":"05970032","name":"Netphen, Stadt","type":"Stadt"},"district":{"key":"05970","name":"Siegen-Wittgenstein","type":"Kreis"},"federalState":{"key":"05","name":"Nordrhein-Westfalen"}},{"name":"Am Hang","postalCode":"57250","locality":"Netphen","municipality":{"key":"05970032","name":"Netphen, Stadt","type":"Stadt"},"district":{"key":"05970","name":"Siegen-Wittgenstein","type":"Kreis"},"federalState":{"key":"05","name":"Nordrhein-Westfalen"}},{"name":"Am Heller","postalCode":"57250","locality":"Netphen","municipality":{"key":"05970032","name":"Netphen, Stadt","type":"Stadt"},"district":{"key":"05970","name":"Siegen-Wittgenstein","type":"Kreis"},"federalState":{"key":"05","name":"Nordrhein-Westfalen"}},{"name":"Am Hewig","postalCode":"57250","locality":"Netphen","municipality":{"key":"05970032","name":"Netphen, Stadt","type":"Stadt"},"district":{"key":"05970","name":"Siegen-Wittgenstein","type":"Kreis"},"federalState":{"key":"05","name":"Nordrhein-Westfalen"}},{"name":"Am Hömberg","postalCode":"57250","locality":"Netphen","municipality":{"key":"05970032","name":"Netphen, Stadt","type":"Stadt"},"district":{"key":"05970","name":"Siegen-Wittgenstein","type":"Kreis"},"federalState":{"key":"05","name":"Nordrhein-Westfalen"}},{"name":"Am Hubertushain","postalCode":"57250","locality":"Netphen","municipality":{"key":"05970032","name":"Netphen, Stadt","type":"Stadt"},"district":{"key":"05970","name":"Siegen-Wittgenstein","type":"Kreis"},"federalState":{"key":"05","name":"Nordrhein-Westfalen"}},{"name":"Am Hügel","postalCode":"57250","locality":"Netphen","municipality":{"key":"05970032","name":"Netphen, Stadt","type":"Stadt"},"district":{"key":"05970","name":"Siegen-Wittgenstein","type":"Kreis"},"federalState":{"key":"05","name":"Nordrhein-Westfalen"}},{"name":"Am Hüttenwald","postalCode":"57250","locality":"Netphen","municipality":{"key":"05970032","name":"Netphen, Stadt","type":"Stadt"},"district":{"key":"05970","name":"Siegen-Wittgenstein","type":"Kreis"},"federalState":{"key":"05","name":"Nordrhein-Westfalen"}},{"name":"Am Kirchrain","postalCode":"57250","locality":"Netphen","municipality":{"key":"05970032","name":"Netphen, Stadt","type":"Stadt"},"district":{"key":"05970","name":"Siegen-Wittgenstein","type":"Kreis"},"federalState":{"key":"05","name":"Nordrhein-Westfalen"}},{"name":"Am Knebelchen","postalCode":"57250","locality":"Netphen","municipality":{"key":"05970032","name":"Netphen, Stadt","type":"Stadt"},"district":{"key":"05970","name":"Siegen-Wittgenstein","type":"Kreis"},"federalState":{"key":"05","name":"Nordrhein-Westfalen"}},{"name":"Am Leielchen","postalCode":"57250","locality":"Netphen","municipality":{"key":"05970032","name":"Netphen, Stadt","type":"Stadt"},"district":{"key":"05970","name":"Siegen-Wittgenstein","type":"Kreis"},"federalState":{"key":"05","name":"Nordrhein-Westfalen"}},{"name":"Am Liesch","postalCode":"57250","locality":"Netphen","municipality":{"key":"05970032","name":"Netphen, Stadt","type":"Stadt"},"district":{"key":"05970","name":"Siegen-Wittgenstein","type":"Kreis"},"federalState":{"key":"05","name":"Nordrhein-Westfalen"}},{"name":"Am Lindenhof","postalCode":"57250","locality":"Netphen","municipality":{"key":"05970032","name":"Netphen, Stadt","type":"Stadt"},"district":{"key":"05970","name":"Siegen-Wittgenstein","type":"Kreis"},"federalState":{"key":"05","name":"Nordrhein-Westfalen"}},{"name":"Am Löhchen","postalCode":"57250","locality":"Netphen","municipality":{"key":"05970032","name":"Netphen, Stadt","type":"Stadt"},"district":{"key":"05970","name":"Siegen-Wittgenstein","type":"Kreis"},"federalState":{"key":"05","name":"Nordrhein-Westfalen"}},{"name":"Am Mühlenrain","postalCode":"57250","locality":"Netphen","municipality":{"key":"05970032","name":"Netphen, Stadt","type":"Stadt"},"district":{"key":"05970","name":"Siegen-Wittgenstein","type":"Kreis"},"federalState":{"key":"05","name":"Nordrhein-Westfalen"}},{"name":"Am Rödchen","postalCode":"57250","locality":"Netphen","municipality":{"key":"05970032","name":"Netphen, Stadt","type":"Stadt"},"district":{"key":"05970","name":"Siegen-Wittgenstein","type":"Kreis"},"federalState":{"key":"05","name":"Nordrhein-Westfalen"}},{"name":"Am Schieferstein","postalCode":"57250","locality":"Netphen","municipality":{"key":"05970032","name":"Netphen, Stadt","type":"Stadt"},"district":{"key":"05970","name":"Siegen-Wittgenstein","type":"Kreis"},"federalState":{"key":"05","name":"Nordrhein-Westfalen"}},{"name":"Amselweg","postalCode":"57250","locality":"Netphen","municipality":{"key":"05970032","name":"Netphen, Stadt","type":"Stadt"},"district":{"key":"05970","name":"Siegen-Wittgenstein","type":"Kreis"},"federalState":{"key":"05","name":"Nordrhein-Westfalen"}},{"name":"Am Sonnenhang","postalCode":"57250","locality":"Netphen","municipality":{"key":"05970032","name":"Netphen, Stadt","type":"Stadt"},"district":{"key":"05970","name":"Siegen-Wittgenstein","type":"Kreis"},"federalState":{"key":"05","name":"Nordrhein-Westfalen"}},{"name":"Am Sportplatz","postalCode":"57250","locality":"Netphen","municipality":{"key":"05970032","name":"Netphen, Stadt","type":"Stadt"},"district":{"key":"05970","name":"Siegen-Wittgenstein","type":"Kreis"},"federalState":{"key":"05","name":"Nordrhein-Westfalen"}},{"name":"Am Steinacker","postalCode":"57250","locality":"Netphen","municipality":{"key":"05970032","name":"Netphen, Stadt","type":"Stadt"},"district":{"key":"05970","name":"Siegen-Wittgenstein","type":"Kreis"},"federalState":{"key":"05","name":"Nordrhein-Westfalen"}},{"name":"Amtsstr.","postalCode":"57250","locality":"Netphen","municipality":{"key":"05970032","name":"Netphen, Stadt","type":"Stadt"},"district":{"key":"05970","name":"Siegen-Wittgenstein","type":"Kreis"},"federalState":{"key":"05","name":"Nordrhein-Westfalen"}},{"name":"Bachweg","postalCode":"57250","locality":"Netphen","municipality":{"key":"05970032","name":"Netphen, Stadt","type":"Stadt"},"district":{"key":"05970","name":"Siegen-Wittgenstein","type":"Kreis"},"federalState":{"key":"05","name":"Nordrhein-Westfalen"}},{"name":"Bahnhofstr.","postalCode":"57250","locality":"Netphen","municipality":{"key":"05970032","name":"Netphen, Stadt","type":"Stadt"},"district":{"key":"05970","name":"Siegen-Wittgenstein","type":"Kreis"},"federalState":{"key":"05","name":"Nordrhein-Westfalen"}},{"name":"Barbaraweg","postalCode":"57250","locality":"Netphen","municipality":{"key":"05970032","name":"Netphen, Stadt","type":"Stadt"},"district":{"key":"05970","name":"Siegen-Wittgenstein","type":"Kreis"},"federalState":{"key":"05","name":"Nordrhein-Westfalen"}},{"name":"Baumhofstr.","postalCode":"57250","locality":"Netphen","municipality":{"key":"05970032","name":"Netphen, Stadt","type":"Stadt"},"district":{"key":"05970","name":"Siegen-Wittgenstein","type":"Kreis"},"federalState":{"key":"05","name":"Nordrhein-Westfalen"}},{"name":"Beethovenweg","postalCode":"57250","locality":"Netphen","municipality":{"key":"05970032","name":"Netphen, Stadt","type":"Stadt"},"district":{"key":"05970","name":"Siegen-Wittgenstein","type":"Kreis"},"federalState":{"key":"05","name":"Nordrhein-Westfalen"}},{"name":"Beienbacher Weg","postalCode":"57250","locality":"Netphen","municipality":{"key":"05970032","name":"Netphen, Stadt","type":"Stadt"},"district":{"key":"05970","name":"Siegen-Wittgenstein","type":"Kreis"},"federalState":{"key":"05","name":"Nordrhein-Westfalen"}},{"name":"Berghofstr.","postalCode":"57250","locality":"Netphen","municipality":{"key":"05970032","name":"Netphen, Stadt","type":"Stadt"},"district":{"key":"05970","name":"Siegen-Wittgenstein","type":"Kreis"},"federalState":{"key":"05","name":"Nordrhein-Westfalen"}},{"name":"Bergstr.","postalCode":"57250","locality":"Netphen","municipality":{"key":"05970032","name":"Netphen, Stadt","type":"Stadt"},"district":{"key":"05970","name":"Siegen-Wittgenstein","type":"Kreis"},"federalState":{"key":"05","name":"Nordrhein-Westfalen"}},{"name":"Berleburger Str.","postalCode":"57250","locality":"Netphen","municipality":{"key":"05970032","name":"Netphen, Stadt","type":"Stadt"},"district":{"key":"05970","name":"Siegen-Wittgenstein","type":"Kreis"},"federalState":{"key":"05","name":"Nordrhein-Westfalen"}},{"name":"Berliner Hof","postalCode":"57250","locality":"Netphen","municipality":{"key":"05970032","name":"Netphen, Stadt","type":"Stadt"},"district":{"key":"05970","name":"Siegen-Wittgenstein","type":"Kreis"},"federalState":{"key":"05","name":"Nordrhein-Westfalen"}},{"name":"Berliner Str.","postalCode":"57250","locality":"Netphen","municipality":{"key":"05970032","name":"Netphen, Stadt","type":"Stadt"},"district":{"key":"05970","name":"Siegen-Wittgenstein","type":"Kreis"},"federalState":{"key":"05","name":"Nordrhein-Westfalen"}},{"name":"Bienenweg","postalCode":"57250","locality":"Netphen","municipality":{"key":"05970032","name":"Netphen, Stadt","type":"Stadt"},"district":{"key":"05970","name":"Siegen-Wittgenstein","type":"Kreis"},"federalState":{"key":"05","name":"Nordrhein-Westfalen"}},{"name":"Billenbachstr.","postalCode":"57250","locality":"Netphen","municipality":{"key":"05970032","name":"Netphen, Stadt","type":"Stadt"},"district":{"key":"05970","name":"Siegen-Wittgenstein","type":"Kreis"},"federalState":{"key":"05","name":"Nordrhein-Westfalen"}},{"name":"Birkenweg","postalCode":"57250","locality":"Netphen","municipality":{"key":"05970032","name":"Netphen, Stadt","type":"Stadt"},"district":{"key":"05970","name":"Siegen-Wittgenstein","type":"Kreis"},"federalState":{"key":"05","name":"Nordrhein-Westfalen"}},{"name":"Bismarckstr.","postalCode":"57250","locality":"Netphen","municipality":{"key":"05970032","name":"Netphen, Stadt","type":"Stadt"},"district":{"key":"05970","name":"Siegen-Wittgenstein","type":"Kreis"},"federalState":{"key":"05","name":"Nordrhein-Westfalen"}},{"name":"Bittenbach","postalCode":"57250","locality":"Netphen","municipality":{"key":"05970032","name":"Netphen, Stadt","type":"Stadt"},"district":{"key":"05970","name":"Siegen-Wittgenstein","type":"Kreis"},"federalState":{"key":"05","name":"Nordrhein-Westfalen"}},{"name":"Blumenstr.","postalCode":"57250","locality":"Netphen","municipality":{"key":"05970032","name":"Netphen, Stadt","type":"Stadt"},"district":{"key":"05970","name":"Siegen-Wittgenstein","type":"Kreis"},"federalState":{"key":"05","name":"Nordrhein-Westfalen"}},{"name":"Bodelschwinghstr.","postalCode":"57250","locality":"Netphen","municipality":{"key":"05970032","name":"Netphen, Stadt","type":"Stadt"},"district":{"key":"05970","name":"Siegen-Wittgenstein","type":"Kreis"},"federalState":{"key":"05","name":"Nordrhein-Westfalen"}},{"name":"Bogenstr.","postalCode":"57250","locality":"Netphen","municipality":{"key":"05970032","name":"Netphen, Stadt","type":"Stadt"},"district":{"key":"05970","name":"Siegen-Wittgenstein","type":"Kreis"},"federalState":{"key":"05","name":"Nordrhein-Westfalen"}},{"name":"Bonhoefferstr.","postalCode":"57250","locality":"Netphen","municipality":{"key":"05970032","name":"Netphen, Stadt","type":"Stadt"},"district":{"key":"05970","name":"Siegen-Wittgenstein","type":"Kreis"},"federalState":{"key":"05","name":"Nordrhein-Westfalen"}},{"name":"Börnchenweg","postalCode":"57250","locality":"Netphen","municipality":{"key":"05970032","name":"Netphen, Stadt","type":"Stadt"},"district":{"key":"05970","name":"Siegen-Wittgenstein","type":"Kreis"},"federalState":{"key":"05","name":"Nordrhein-Westfalen"}},{"name":"Brahmsweg","postalCode":"57250","locality":"Netphen","municipality":{"key":"05970032","name":"Netphen, Stadt","type":"Stadt"},"district":{"key":"05970","name":"Siegen-Wittgenstein","type":"Kreis"},"federalState":{"key":"05","name":"Nordrhein-Westfalen"}},{"name":"Brandenburger Weg","postalCode":"57250","locality":"Netphen","municipality":{"key":"05970032","name":"Netphen, Stadt","type":"Stadt"},"district":{"key":"05970","name":"Siegen-Wittgenstein","type":"Kreis"},"federalState":{"key":"05","name":"Nordrhein-Westfalen"}},{"name":"Brauersdorfer Str.","postalCode":"57250","locality":"Netphen","municipality":{"key":"05970032","name":"Netphen, Stadt","type":"Stadt"},"district":{"key":"05970","name":"Siegen-Wittgenstein","type":"Kreis"},"federalState":{"key":"05","name":"Nordrhein-Westfalen"}},{"name":"Breitenbachstr.","postalCode":"57250","locality":"Netphen","municipality":{"key":"05970032","name":"Netphen, Stadt","type":"Stadt"},"district":{"key":"05970","name":"Siegen-Wittgenstein","type":"Kreis"},"federalState":{"key":"05","name":"Nordrhein-Westfalen"}},{"name":"Breitenrathstr.","postalCode":"57250","locality":"Netphen","municipality":{"key":"05970032","name":"Netphen, Stadt","type":"Stadt"},"district":{"key":"05970","name":"Siegen-Wittgenstein","type":"Kreis"},"federalState":{"key":"05","name":"Nordrhein-Westfalen"}},{"name":"Breitestr.","postalCode":"57250","locality":"Netphen","municipality":{"key":"05970032","name":"Netphen, Stadt","type":"Stadt"},"district":{"key":"05970","name":"Siegen-Wittgenstein","type":"Kreis"},"federalState":{"key":"05","name":"Nordrhein-Westfalen"}},{"name":"Breslauer Str.","postalCode":"57250","locality":"Netphen","municipality":{"key":"05970032","name":"Netphen, Stadt","type":"Stadt"},"district":{"key":"05970","name":"Siegen-Wittgenstein","type":"Kreis"},"federalState":{"key":"05","name":"Nordrhein-Westfalen"}},{"name":"Bruchstr.","postalCode":"57250","locality":"Netphen","municipality":{"key":"05970032","name":"Netphen, Stadt","type":"Stadt"},"district":{"key":"05970","name":"Siegen-Wittgenstein","type":"Kreis"},"federalState":{"key":"05","name":"Nordrhein-Westfalen"}},{"name":"Brückenstr.","postalCode":"57250","locality":"Netphen","municipality":{"key":"05970032","name":"Netphen, Stadt","type":"Stadt"},"district":{"key":"05970","name":"Siegen-Wittgenstein","type":"Kreis"},"federalState":{"key":"05","name":"Nordrhein-Westfalen"}},{"name":"Brucknerweg","postalCode":"57250","locality":"Netphen","municipality":{"key":"05970032","name":"Netphen, Stadt","type":"Stadt"},"district":{"key":"05970","name":"Siegen-Wittgenstein","type":"Kreis"},"federalState":{"key":"05","name":"Nordrhein-Westfalen"}},{"name":"Brunnenstr.","postalCode":"57250","locality":"Netphen","municipality":{"key":"05970032","name":"Netphen, Stadt","type":"Stadt"},"district":{"key":"05970","name":"Siegen-Wittgenstein","type":"Kreis"},"federalState":{"key":"05","name":"Nordrhein-Westfalen"}},{"name":"Buchenweg","postalCode":"57250","locality":"Netphen","municipality":{"key":"05970032","name":"Netphen, Stadt","type":"Stadt"},"district":{"key":"05970","name":"Siegen-Wittgenstein","type":"Kreis"},"federalState":{"key":"05","name":"Nordrhein-Westfalen"}},{"name":"Bühler Weg","postalCode":"57250","locality":"Netphen","municipality":{"key":"05970032","name":"Netphen, Stadt","type":"Stadt"},"district":{"key":"05970","name":"Siegen-Wittgenstein","type":"Kreis"},"federalState":{"key":"05","name":"Nordrhein-Westfalen"}},{"name":"Burggrabenstr.","postalCode":"57250","locality":"Netphen","municipality":{"key":"05970032","name":"Netphen, Stadt","type":"Stadt"},"district":{"key":"05970","name":"Siegen-Wittgenstein","type":"Kreis"},"federalState":{"key":"05","name":"Nordrhein-Westfalen"}},{"name":"Burgstr.","postalCode":"57250","locality":"Netphen","municipality":{"key":"05970032","name":"Netphen, Stadt","type":"Stadt"},"district":{"key":"05970","name":"Siegen-Wittgenstein","type":"Kreis"},"federalState":{"key":"05","name":"Nordrhein-Westfalen"}},{"name":"Cäcilienweg","postalCode":"57250","locality":"Netphen","municipality":{"key":"05970032","name":"Netphen, Stadt","type":"Stadt"},"district":{"key":"05970","name":"Siegen-Wittgenstein","type":"Kreis"},"federalState":{"key":"05","name":"Nordrhein-Westfalen"}},{"name":"Carl-Sonnenschein-Weg","postalCode":"57250","locality":"Netphen","municipality":{"key":"05970032","name":"Netphen, Stadt","type":"Stadt"},"district":{"key":"05970","name":"Siegen-Wittgenstein","type":"Kreis"},"federalState":{"key":"05","name":"Nordrhein-Westfalen"}},{"name":"Carl-Weyland-Str.","postalCode":"57250","locality":"Netphen","municipality":{"key":"05970032","name":"Netphen, Stadt","type":"Stadt"},"district":{"key":"05970","name":"Siegen-Wittgenstein","type":"Kreis"},"federalState":{"key":"05","name":"Nordrhein-Westfalen"}},{"name":"Dahlienweg","postalCode":"57250","locality":"Netphen","municipality":{"key":"05970032","name":"Netphen, Stadt","type":"Stadt"},"district":{"key":"05970","name":"Siegen-Wittgenstein","type":"Kreis"},"federalState":{"key":"05","name":"Nordrhein-Westfalen"}},{"name":"Dammstr.","postalCode":"57250","locality":"Netphen","municipality":{"key":"05970032","name":"Netphen, Stadt","type":"Stadt"},"district":{"key":"05970","name":"Siegen-Wittgenstein","type":"Kreis"},"federalState":{"key":"05","name":"Nordrhein-Westfalen"}},{"name":"Danziger Str.","postalCode":"57250","locality":"Netphen","municipality":{"key":"05970032","name":"Netphen, Stadt","type":"Stadt"},"district":{"key":"05970","name":"Siegen-Wittgenstein","type":"Kreis"},"federalState":{"key":"05","name":"Nordrhein-Westfalen"}},{"name":"Dermbachstr.","postalCode":"57250","locality":"Netphen","municipality":{"key":"05970032","name":"Netphen, Stadt","type":"Stadt"},"district":{"key":"05970","name":"Siegen-Wittgenstein","type":"Kreis"},"federalState":{"key":"05","name":"Nordrhein-Westfalen"}},{"name":"Deuzer Weg","postalCode":"57250","locality":"Netphen","municipality":{"key":"05970032","name":"Netphen, Stadt","type":"Stadt"},"district":{"key":"05970","name":"Siegen-Wittgenstein","type":"Kreis"},"federalState":{"key":"05","name":"Nordrhein-Westfalen"}},{"name":"Diesterwegstr.","postalCode":"57250","locality":"Netphen","municipality":{"key":"05970032","name":"Netphen, Stadt","type":"Stadt"},"district":{"key":"05970","name":"Siegen-Wittgenstein","type":"Kreis"},"federalState":{"key":"05","name":"Nordrhein-Westfalen"}},{"name":"Dillenburger Str.","postalCode":"57250","locality":"Netphen","municipality":{"key":"05970032","name":"Netphen, Stadt","type":"Stadt"},"district":{"key":"05970","name":"Siegen-Wittgenstein","type":"Kreis"},"federalState":{"key":"05","name":"Nordrhein-Westfalen"}},{"name":"Dillweg","postalCode":"57250","locality":"Netphen","municipality":{"key":"05970032","name":"Netphen, Stadt","type":"Stadt"},"district":{"key":"05970","name":"Siegen-Wittgenstein","type":"Kreis"},"federalState":{"key":"05","name":"Nordrhein-Westfalen"}},{"name":"Dirlenbacher Weg","postalCode":"57250","locality":"Netphen","municipality":{"key":"05970032","name":"Netphen, Stadt","type":"Stadt"},"district":{"key":"05970","name":"Siegen-Wittgenstein","type":"Kreis"},"federalState":{"key":"05","name":"Nordrhein-Westfalen"}},{"name":"Dorfstr.","postalCode":"57250","locality":"Netphen","municipality":{"key":"05970032","name":"Netphen, Stadt","type":"Stadt"},"district":{"key":"05970","name":"Siegen-Wittgenstein","type":"Kreis"},"federalState":{"key":"05","name":"Nordrhein-Westfalen"}},{"name":"Dreisbacher Mühle","postalCode":"57250","locality":"Netphen","municipality":{"key":"05970032","name":"Netphen, Stadt","type":"Stadt"},"district":{"key":"05970","name":"Siegen-Wittgenstein","type":"Kreis"},"federalState":{"key":"05","name":"Nordrhein-Westfalen"}},{"name":"Dreisbachstr.","postalCode":"57250","locality":"Netphen","municipality":{"key":"05970032","name":"Netphen, Stadt","type":"Stadt"},"district":{"key":"05970","name":"Siegen-Wittgenstein","type":"Kreis"},"federalState":{"key":"05","name":"Nordrhein-Westfalen"}},{"name":"Drieschweg","postalCode":"57250","locality":"Netphen","municipality":{"key":"05970032","name":"Netphen, Stadt","type":"Stadt"},"district":{"key":"05970","name":"Siegen-Wittgenstein","type":"Kreis"},"federalState":{"key":"05","name":"Nordrhein-Westfalen"}},{"name":"Drosselweg","postalCode":"57250","locality":"Netphen","municipality":{"key":"05970032","name":"Netphen, Stadt","type":"Stadt"},"district":{"key":"05970","name":"Siegen-Wittgenstein","type":"Kreis"},"federalState":{"key":"05","name":"Nordrhein-Westfalen"}},{"name":"Eckmannshausener Str.","postalCode":"57250","locality":"Netphen","municipality":{"key":"05970032","name":"Netphen, Stadt","type":"Stadt"},"district":{"key":"05970","name":"Siegen-Wittgenstein","type":"Kreis"},"federalState":{"key":"05","name":"Nordrhein-Westfalen"}},{"name":"Eduard-Mörike-Weg","postalCode":"57250","locality":"Netphen","municipality":{"key":"05970032","name":"Netphen, Stadt","type":"Stadt"},"district":{"key":"05970","name":"Siegen-Wittgenstein","type":"Kreis"},"federalState":{"key":"05","name":"Nordrhein-Westfalen"}},{"name":"Efeuweg","postalCode":"57250","locality":"Netphen","municipality":{"key":"05970032","name":"Netphen, Stadt","type":"Stadt"},"district":{"key":"05970","name":"Siegen-Wittgenstein","type":"Kreis"},"federalState":{"key":"05","name":"Nordrhein-Westfalen"}},{"name":"Ehrenmal am Gerbereiplatz","postalCode":"57250","locality":"Netphen","municipality":{"key":"05970032","name":"Netphen, Stadt","type":"Stadt"},"district":{"key":"05970","name":"Siegen-Wittgenstein","type":"Kreis"},"federalState":{"key":"05","name":"Nordrhein-Westfalen"}},{"name":"Ehrenmal Herzhausen","postalCode":"57250","locality":"Netphen","municipality":{"key":"05970032","name":"Netphen, Stadt","type":"Stadt"},"district":{"key":"05970","name":"Siegen-Wittgenstein","type":"Kreis"},"federalState":{"key":"05","name":"Nordrhein-Westfalen"}},{"name":"Eibenweg","postalCode":"57250","locality":"Netphen","municipality":{"key":"05970032","name":"Netphen, Stadt","type":"Stadt"},"district":{"key":"05970","name":"Siegen-Wittgenstein","type":"Kreis"},"federalState":{"key":"05","name":"Nordrhein-Westfalen"}},{"name":"Eichbornweg","postalCode":"57250","locality":"Netphen","municipality":{"key":"05970032","name":"Netphen, Stadt","type":"Stadt"},"district":{"key":"05970","name":"Siegen-Wittgenstein","type":"Kreis"},"federalState":{"key":"05","name":"Nordrhein-Westfalen"}},{"name":"Eichendorffstr.","postalCode":"57250","locality":"Netphen","municipality":{"key":"05970032","name":"Netphen, Stadt","type":"Stadt"},"district":{"key":"05970","name":"Siegen-Wittgenstein","type":"Kreis"},"federalState":{"key":"05","name":"Nordrhein-Westfalen"}},{"name":"Eichenweg","postalCode":"57250","locality":"Netphen","municipality":{"key":"05970032","name":"Netphen, Stadt","type":"Stadt"},"district":{"key":"05970","name":"Siegen-Wittgenstein","type":"Kreis"},"federalState":{"key":"05","name":"Nordrhein-Westfalen"}},{"name":"Eichhainstr.","postalCode":"57250","locality":"Netphen","municipality":{"key":"05970032","name":"Netphen, Stadt","type":"Stadt"},"district":{"key":"05970","name":"Siegen-Wittgenstein","type":"Kreis"},"federalState":{"key":"05","name":"Nordrhein-Westfalen"}},{"name":"Eichwaldstr.","postalCode":"57250","locality":"Netphen","municipality":{"key":"05970032","name":"Netphen, Stadt","type":"Stadt"},"district":{"key":"05970","name":"Siegen-Wittgenstein","type":"Kreis"},"federalState":{"key":"05","name":"Nordrhein-Westfalen"}},{"name":"Eisenstr.","postalCode":"57250","locality":"Netphen","municipality":{"key":"05970032","name":"Netphen, Stadt","type":"Stadt"},"district":{"key":"05970","name":"Siegen-Wittgenstein","type":"Kreis"},"federalState":{"key":"05","name":"Nordrhein-Westfalen"}},{"name":"Elisabeth-Grube-Str.","postalCode":"57250","locality":"Netphen","municipality":{"key":"05970032","name":"Netphen, Stadt","type":"Stadt"},"district":{"key":"05970","name":"Siegen-Wittgenstein","type":"Kreis"},"federalState":{"key":"05","name":"Nordrhein-Westfalen"}},{"name":"Elisabethweg","postalCode":"57250","locality":"Netphen","municipality":{"key":"05970032","name":"Netphen, Stadt","type":"Stadt"},"district":{"key":"05970","name":"Siegen-Wittgenstein","type":"Kreis"},"federalState":{"key":"05","name":"Nordrhein-Westfalen"}},{"name":"Elmertsgarten","postalCode":"57250","locality":"Netphen","municipality":{"key":"05970032","name":"Netphen, Stadt","type":"Stadt"},"district":{"key":"05970","name":"Siegen-Wittgenstein","type":"Kreis"},"federalState":{"key":"05","name":"Nordrhein-Westfalen"}},{"name":"Erlenweg","postalCode":"57250","locality":"Netphen","municipality":{"key":"05970032","name":"Netphen, Stadt","type":"Stadt"},"district":{"key":"05970","name":"Siegen-Wittgenstein","type":"Kreis"},"federalState":{"key":"05","name":"Nordrhein-Westfalen"}},{"name":"Erndtebrücker Str.","postalCode":"57250","locality":"Netphen","municipality":{"key":"05970032","name":"Netphen, Stadt","type":"Stadt"},"district":{"key":"05970","name":"Siegen-Wittgenstein","type":"Kreis"},"federalState":{"key":"05","name":"Nordrhein-Westfalen"}},{"name":"Eschenbacher Str.","postalCode":"57250","locality":"Netphen","municipality":{"key":"05970032","name":"Netphen, Stadt","type":"Stadt"},"district":{"key":"05970","name":"Siegen-Wittgenstein","type":"Kreis"},"federalState":{"key":"05","name":"Nordrhein-Westfalen"}},{"name":"Eschenweg","postalCode":"57250","locality":"Netphen","municipality":{"key":"05970032","name":"Netphen, Stadt","type":"Stadt"},"district":{"key":"05970","name":"Siegen-Wittgenstein","type":"Kreis"},"federalState":{"key":"05","name":"Nordrhein-Westfalen"}},{"name":"Espenweg","postalCode":"57250","locality":"Netphen","municipality":{"key":"05970032","name":"Netphen, Stadt","type":"Stadt"},"district":{"key":"05970","name":"Siegen-Wittgenstein","type":"Kreis"},"federalState":{"key":"05","name":"Nordrhein-Westfalen"}},{"name":"Falkenweg","postalCode":"57250","locality":"Netphen","municipality":{"key":"05970032","name":"Netphen, Stadt","type":"Stadt"},"district":{"key":"05970","name":"Siegen-Wittgenstein","type":"Kreis"},"federalState":{"key":"05","name":"Nordrhein-Westfalen"}},{"name":"Fasanenweg","postalCode":"57250","locality":"Netphen","municipality":{"key":"05970032","name":"Netphen, Stadt","type":"Stadt"},"district":{"key":"05970","name":"Siegen-Wittgenstein","type":"Kreis"},"federalState":{"key":"05","name":"Nordrhein-Westfalen"}},{"name":"Fehlingsweg","postalCode":"57250","locality":"Netphen","municipality":{"key":"05970032","name":"Netphen, Stadt","type":"Stadt"},"district":{"key":"05970","name":"Siegen-Wittgenstein","type":"Kreis"},"federalState":{"key":"05","name":"Nordrhein-Westfalen"}},{"name":"Feldstr.","postalCode":"57250","locality":"Netphen","municipality":{"key":"05970032","name":"Netphen, Stadt","type":"Stadt"},"district":{"key":"05970","name":"Siegen-Wittgenstein","type":"Kreis"},"federalState":{"key":"05","name":"Nordrhein-Westfalen"}},{"name":"Feldwasserstr.","postalCode":"57250","locality":"Netphen","municipality":{"key":"05970032","name":"Netphen, Stadt","type":"Stadt"},"district":{"key":"05970","name":"Siegen-Wittgenstein","type":"Kreis"},"federalState":{"key":"05","name":"Nordrhein-Westfalen"}},{"name":"Ferndorfstr.","postalCode":"57250","locality":"Netphen","municipality":{"key":"05970032","name":"Netphen, Stadt","type":"Stadt"},"district":{"key":"05970","name":"Siegen-Wittgenstein","type":"Kreis"},"federalState":{"key":"05","name":"Nordrhein-Westfalen"}},{"name":"Feuersbacher Str.","postalCode":"57250","locality":"Netphen","municipality":{"key":"05970032","name":"Netphen, Stadt","type":"Stadt"},"district":{"key":"05970","name":"Siegen-Wittgenstein","type":"Kreis"},"federalState":{"key":"05","name":"Nordrhein-Westfalen"}},{"name":"Fichtenweg","postalCode":"57250","locality":"Netphen","municipality":{"key":"05970032","name":"Netphen, Stadt","type":"Stadt"},"district":{"key":"05970","name":"Siegen-Wittgenstein","type":"Kreis"},"federalState":{"key":"05","name":"Nordrhein-Westfalen"}},{"name":"Finkenweg","postalCode":"57250","locality":"Netphen","municipality":{"key":"05970032","name":"Netphen, Stadt","type":"Stadt"},"district":{"key":"05970","name":"Siegen-Wittgenstein","type":"Kreis"},"federalState":{"key":"05","name":"Nordrhein-Westfalen"}},{"name":"Fliederweg","postalCode":"57250","locality":"Netphen","municipality":{"key":"05970032","name":"Netphen, Stadt","type":"Stadt"},"district":{"key":"05970","name":"Siegen-Wittgenstein","type":"Kreis"},"federalState":{"key":"05","name":"Nordrhein-Westfalen"}},{"name":"Flurstr.","postalCode":"57250","locality":"Netphen","municipality":{"key":"05970032","name":"Netphen, Stadt","type":"Stadt"},"district":{"key":"05970","name":"Siegen-Wittgenstein","type":"Kreis"},"federalState":{"key":"05","name":"Nordrhein-Westfalen"}},{"name":"Fontanestr.","postalCode":"57250","locality":"Netphen","municipality":{"key":"05970032","name":"Netphen, Stadt","type":"Stadt"},"district":{"key":"05970","name":"Siegen-Wittgenstein","type":"Kreis"},"federalState":{"key":"05","name":"Nordrhein-Westfalen"}},{"name":"Forststr.","postalCode":"57250","locality":"Netphen","municipality":{"key":"05970032","name":"Netphen, Stadt","type":"Stadt"},"district":{"key":"05970","name":"Siegen-Wittgenstein","type":"Kreis"},"federalState":{"key":"05","name":"Nordrhein-Westfalen"}},{"name":"Frankfurter Str.","postalCode":"57250","locality":"Netphen","municipality":{"key":"05970032","name":"Netphen, Stadt","type":"Stadt"},"district":{"key":"05970","name":"Siegen-Wittgenstein","type":"Kreis"},"federalState":{"key":"05","name":"Nordrhein-Westfalen"}},{"name":"Franz-Hitze-Weg","postalCode":"57250","locality":"Netphen","municipality":{"key":"05970032","name":"Netphen, Stadt","type":"Stadt"},"district":{"key":"05970","name":"Siegen-Wittgenstein","type":"Kreis"},"federalState":{"key":"05","name":"Nordrhein-Westfalen"}},{"name":"Friedhofstr.","postalCode":"57250","locality":"Netphen","municipality":{"key":"05970032","name":"Netphen, Stadt","type":"Stadt"},"district":{"key":"05970","name":"Siegen-Wittgenstein","type":"Kreis"},"federalState":{"key":"05","name":"Nordrhein-Westfalen"}},{"name":"Frohnhausener Str.","postalCode":"57250","locality":"Netphen","municipality":{"key":"05970032","name":"Netphen, Stadt","type":"Stadt"},"district":{"key":"05970","name":"Siegen-Wittgenstein","type":"Kreis"},"federalState":{"key":"05","name":"Nordrhein-Westfalen"}},{"name":"Fuhrmannsweg","postalCode":"57250","locality":"Netphen","municipality":{"key":"05970032","name":"Netphen, Stadt","type":"Stadt"},"district":{"key":"05970","name":"Siegen-Wittgenstein","type":"Kreis"},"federalState":{"key":"05","name":"Nordrhein-Westfalen"}},{"name":"Gängelweg","postalCode":"57250","locality":"Netphen","municipality":{"key":"05970032","name":"Netphen, Stadt","type":"Stadt"},"district":{"key":"05970","name":"Siegen-Wittgenstein","type":"Kreis"},"federalState":{"key":"05","name":"Nordrhein-Westfalen"}},{"name":"Gartenstr.","postalCode":"57250","locality":"Netphen","municipality":{"key":"05970032","name":"Netphen, Stadt","type":"Stadt"},"district":{"key":"05970","name":"Siegen-Wittgenstein","type":"Kreis"},"federalState":{"key":"05","name":"Nordrhein-Westfalen"}},{"name":"Gernsdorfer Str.","postalCode":"57250","locality":"Netphen","municipality":{"key":"05970032","name":"Netphen, Stadt","type":"Stadt"},"district":{"key":"05970","name":"Siegen-Wittgenstein","type":"Kreis"},"federalState":{"key":"05","name":"Nordrhein-Westfalen"}},{"name":"Geschwister-Scholl-Str.","postalCode":"57250","locality":"Netphen","municipality":{"key":"05970032","name":"Netphen, Stadt","type":"Stadt"},"district":{"key":"05970","name":"Siegen-Wittgenstein","type":"Kreis"},"federalState":{"key":"05","name":"Nordrhein-Westfalen"}},{"name":"Gießener Str.","postalCode":"57250","locality":"Netphen","municipality":{"key":"05970032","name":"Netphen, Stadt","type":"Stadt"},"district":{"key":"05970","name":"Siegen-Wittgenstein","type":"Kreis"},"federalState":{"key":"05","name":"Nordrhein-Westfalen"}},{"name":"Gießestr.","postalCode":"57250","locality":"Netphen","municipality":{"key":"05970032","name":"Netphen, Stadt","type":"Stadt"},"district":{"key":"05970","name":"Siegen-Wittgenstein","type":"Kreis"},"federalState":{"key":"05","name":"Nordrhein-Westfalen"}},{"name":"Ginsterweg","postalCode":"57250","locality":"Netphen","municipality":{"key":"05970032","name":"Netphen, Stadt","type":"Stadt"},"district":{"key":"05970","name":"Siegen-Wittgenstein","type":"Kreis"},"federalState":{"key":"05","name":"Nordrhein-Westfalen"}},{"name":"Gisela-Stephan-Weg","postalCode":"57250","locality":"Netphen","municipality":{"key":"05970032","name":"Netphen, Stadt","type":"Stadt"},"district":{"key":"05970","name":"Siegen-Wittgenstein","type":"Kreis"},"federalState":{"key":"05","name":"Nordrhein-Westfalen"}},{"name":"Glockenstr.","postalCode":"57250","locality":"Netphen","municipality":{"key":"05970032","name":"Netphen, Stadt","type":"Stadt"},"district":{"key":"05970","name":"Siegen-Wittgenstein","type":"Kreis"},"federalState":{"key":"05","name":"Nordrhein-Westfalen"}},{"name":"Glückaufstr.","postalCode":"57250","locality":"Netphen","municipality":{"key":"05970032","name":"Netphen, Stadt","type":"Stadt"},"district":{"key":"05970","name":"Siegen-Wittgenstein","type":"Kreis"},"federalState":{"key":"05","name":"Nordrhein-Westfalen"}},{"name":"Goerdelerstr.","postalCode":"57250","locality":"Netphen","municipality":{"key":"05970032","name":"Netphen, Stadt","type":"Stadt"},"district":{"key":"05970","name":"Siegen-Wittgenstein","type":"Kreis"},"federalState":{"key":"05","name":"Nordrhein-Westfalen"}},{"name":"Goethestr.","postalCode":"57250","locality":"Netphen","municipality":{"key":"05970032","name":"Netphen, Stadt","type":"Stadt"},"district":{"key":"05970","name":"Siegen-Wittgenstein","type":"Kreis"},"federalState":{"key":"05","name":"Nordrhein-Westfalen"}},{"name":"Görlitzer Weg","postalCode":"57250","locality":"Netphen","municipality":{"key":"05970032","name":"Netphen, Stadt","type":"Stadt"},"district":{"key":"05970","name":"Siegen-Wittgenstein","type":"Kreis"},"federalState":{"key":"05","name":"Nordrhein-Westfalen"}},{"name":"Gösbergstr.","postalCode":"57250","locality":"Netphen","municipality":{"key":"05970032","name":"Netphen, Stadt","type":"Stadt"},"district":{"key":"05970","name":"Siegen-Wittgenstein","type":"Kreis"},"federalState":{"key":"05","name":"Nordrhein-Westfalen"}},{"name":"Grabenbäume","postalCode":"57250","locality":"Netphen","municipality":{"key":"05970032","name":"Netphen, Stadt","type":"Stadt"},"district":{"key":"05970","name":"Siegen-Wittgenstein","type":"Kreis"},"federalState":{"key":"05","name":"Nordrhein-Westfalen"}},{"name":"Grabenstr.","postalCode":"57250","locality":"Netphen","municipality":{"key":"05970032","name":"Netphen, Stadt","type":"Stadt"},"district":{"key":"05970","name":"Siegen-Wittgenstein","type":"Kreis"},"federalState":{"key":"05","name":"Nordrhein-Westfalen"}},{"name":"Grenzweg","postalCode":"57250","locality":"Netphen","municipality":{"key":"05970032","name":"Netphen, Stadt","type":"Stadt"},"district":{"key":"05970","name":"Siegen-Wittgenstein","type":"Kreis"},"federalState":{"key":"05","name":"Nordrhein-Westfalen"}},{"name":"Grundstr.","postalCode":"57250","locality":"Netphen","municipality":{"key":"05970032","name":"Netphen, Stadt","type":"Stadt"},"district":{"key":"05970","name":"Siegen-Wittgenstein","type":"Kreis"},"federalState":{"key":"05","name":"Nordrhein-Westfalen"}},{"name":"Grünstr.","postalCode":"57250","locality":"Netphen","municipality":{"key":"05970032","name":"Netphen, Stadt","type":"Stadt"},"district":{"key":"05970","name":"Siegen-Wittgenstein","type":"Kreis"},"federalState":{"key":"05","name":"Nordrhein-Westfalen"}},{"name":"Güldenweg","postalCode":"57250","locality":"Netphen","municipality":{"key":"05970032","name":"Netphen, Stadt","type":"Stadt"},"district":{"key":"05970","name":"Siegen-Wittgenstein","type":"Kreis"},"federalState":{"key":"05","name":"Nordrhein-Westfalen"}},{"name":"Gustav-Faber-Str.","postalCode":"57250","locality":"Netphen","municipality":{"key":"05970032","name":"Netphen, Stadt","type":"Stadt"},"district":{"key":"05970","name":"Siegen-Wittgenstein","type":"Kreis"},"federalState":{"key":"05","name":"Nordrhein-Westfalen"}},{"name":"Haardtstr.","postalCode":"57250","locality":"Netphen","municipality":{"key":"05970032","name":"Netphen, Stadt","type":"Stadt"},"district":{"key":"05970","name":"Siegen-Wittgenstein","type":"Kreis"},"federalState":{"key":"05","name":"Nordrhein-Westfalen"}},{"name":"Habachstr.","postalCode":"57250","locality":"Netphen","municipality":{"key":"05970032","name":"Netphen, Stadt","type":"Stadt"},"district":{"key":"05970","name":"Siegen-Wittgenstein","type":"Kreis"},"federalState":{"key":"05","name":"Nordrhein-Westfalen"}},{"name":"Haferweg","postalCode":"57250","locality":"Netphen","municipality":{"key":"05970032","name":"Netphen, Stadt","type":"Stadt"},"district":{"key":"05970","name":"Siegen-Wittgenstein","type":"Kreis"},"federalState":{"key":"05","name":"Nordrhein-Westfalen"}},{"name":"Hagerstr.","postalCode":"57250","locality":"Netphen","municipality":{"key":"05970032","name":"Netphen, Stadt","type":"Stadt"},"district":{"key":"05970","name":"Siegen-Wittgenstein","type":"Kreis"},"federalState":{"key":"05","name":"Nordrhein-Westfalen"}},{"name":"Hainbuchenweg","postalCode":"57250","locality":"Netphen","municipality":{"key":"05970032","name":"Netphen, Stadt","type":"Stadt"},"district":{"key":"05970","name":"Siegen-Wittgenstein","type":"Kreis"},"federalState":{"key":"05","name":"Nordrhein-Westfalen"}},{"name":"Hainstr.","postalCode":"57250","locality":"Netphen","municipality":{"key":"05970032","name":"Netphen, Stadt","type":"Stadt"},"district":{"key":"05970","name":"Siegen-Wittgenstein","type":"Kreis"},"federalState":{"key":"05","name":"Nordrhein-Westfalen"}},{"name":"Hälsber Weg","postalCode":"57250","locality":"Netphen","municipality":{"key":"05970032","name":"Netphen, Stadt","type":"Stadt"},"district":{"key":"05970","name":"Siegen-Wittgenstein","type":"Kreis"},"federalState":{"key":"05","name":"Nordrhein-Westfalen"}},{"name":"Händelweg","postalCode":"57250","locality":"Netphen","municipality":{"key":"05970032","name":"Netphen, Stadt","type":"Stadt"},"district":{"key":"05970","name":"Siegen-Wittgenstein","type":"Kreis"},"federalState":{"key":"05","name":"Nordrhein-Westfalen"}},{"name":"Haselnußweg","postalCode":"57250","locality":"Netphen","municipality":{"key":"05970032","name":"Netphen, Stadt","type":"Stadt"},"district":{"key":"05970","name":"Siegen-Wittgenstein","type":"Kreis"},"federalState":{"key":"05","name":"Nordrhein-Westfalen"}},{"name":"Hasenweg","postalCode":"57250","locality":"Netphen","municipality":{"key":"05970032","name":"Netphen, Stadt","type":"Stadt"},"district":{"key":"05970","name":"Siegen-Wittgenstein","type":"Kreis"},"federalState":{"key":"05","name":"Nordrhein-Westfalen"}},{"name":"Hauptstr.","postalCode":"57250","locality":"Netphen","municipality":{"key":"05970032","name":"Netphen, Stadt","type":"Stadt"},"district":{"key":"05970","name":"Siegen-Wittgenstein","type":"Kreis"},"federalState":{"key":"05","name":"Nordrhein-Westfalen"}},{"name":"Haydnweg","postalCode":"57250","locality":"Netphen","municipality":{"key":"05970032","name":"Netphen, Stadt","type":"Stadt"},"district":{"key":"05970","name":"Siegen-Wittgenstein","type":"Kreis"},"federalState":{"key":"05","name":"Nordrhein-Westfalen"}},{"name":"Heckersbergpark / Bolzplatz / Bikeanlage","postalCode":"57250","locality":"Netphen","municipality":{"key":"05970032","name":"Netphen, Stadt","type":"Stadt"},"district":{"key":"05970","name":"Siegen-Wittgenstein","type":"Kreis"},"federalState":{"key":"05","name":"Nordrhein-Westfalen"}},{"name":"Heckersbergstr.","postalCode":"57250","locality":"Netphen","municipality":{"key":"05970032","name":"Netphen, Stadt","type":"Stadt"},"district":{"key":"05970","name":"Siegen-Wittgenstein","type":"Kreis"},"federalState":{"key":"05","name":"Nordrhein-Westfalen"}},{"name":"Heideweg","postalCode":"57250","locality":"Netphen","municipality":{"key":"05970032","name":"Netphen, Stadt","type":"Stadt"},"district":{"key":"05970","name":"Siegen-Wittgenstein","type":"Kreis"},"federalState":{"key":"05","name":"Nordrhein-Westfalen"}},{"name":"Heinrich-Brauns-Weg","postalCode":"57250","locality":"Netphen","municipality":{"key":"05970032","name":"Netphen, Stadt","type":"Stadt"},"district":{"key":"05970","name":"Siegen-Wittgenstein","type":"Kreis"},"federalState":{"key":"05","name":"Nordrhein-Westfalen"}},{"name":"Helgersdorfer Str.","postalCode":"57250","locality":"Netphen","municipality":{"key":"05970032","name":"Netphen, Stadt","type":"Stadt"},"district":{"key":"05970","name":"Siegen-Wittgenstein","type":"Kreis"},"federalState":{"key":"05","name":"Nordrhein-Westfalen"}},{"name":"Hellbergstr.","postalCode":"57250","locality":"Netphen","municipality":{"key":"05970032","name":"Netphen, Stadt","type":"Stadt"},"district":{"key":"05970","name":"Siegen-Wittgenstein","type":"Kreis"},"federalState":{"key":"05","name":"Nordrhein-Westfalen"}},{"name":"Hellerstr.","postalCode":"57250","locality":"Netphen","municipality":{"key":"05970032","name":"Netphen, Stadt","type":"Stadt"},"district":{"key":"05970","name":"Siegen-Wittgenstein","type":"Kreis"},"federalState":{"key":"05","name":"Nordrhein-Westfalen"}},{"name":"Hembach","postalCode":"57250","locality":"Netphen","municipality":{"key":"05970032","name":"Netphen, Stadt","type":"Stadt"},"district":{"key":"05970","name":"Siegen-Wittgenstein","type":"Kreis"},"federalState":{"key":"05","name":"Nordrhein-Westfalen"}},{"name":"Herborner Str.","postalCode":"57250","locality":"Netphen","municipality":{"key":"05970032","name":"Netphen, Stadt","type":"Stadt"},"district":{"key":"05970","name":"Siegen-Wittgenstein","type":"Kreis"},"federalState":{"key":"05","name":"Nordrhein-Westfalen"}},{"name":"Hermann-Löns-Str.","postalCode":"57250","locality":"Netphen","municipality":{"key":"05970032","name":"Netphen, Stadt","type":"Stadt"},"district":{"key":"05970","name":"Siegen-Wittgenstein","type":"Kreis"},"federalState":{"key":"05","name":"Nordrhein-Westfalen"}},{"name":"Herrenweg","postalCode":"57250","locality":"Netphen","municipality":{"key":"05970032","name":"Netphen, Stadt","type":"Stadt"},"district":{"key":"05970","name":"Siegen-Wittgenstein","type":"Kreis"},"federalState":{"key":"05","name":"Nordrhein-Westfalen"}},{"name":"Herzhausener Str.","postalCode":"57250","locality":"Netphen","municipality":{"key":"05970032","name":"Netphen, Stadt","type":"Stadt"},"district":{"key":"05970","name":"Siegen-Wittgenstein","type":"Kreis"},"federalState":{"key":"05","name":"Nordrhein-Westfalen"}},{"name":"Hilchenbacher Str.","postalCode":"57250","locality":"Netphen","municipality":{"key":"05970032","name":"Netphen, Stadt","type":"Stadt"},"district":{"key":"05970","name":"Siegen-Wittgenstein","type":"Kreis"},"federalState":{"key":"05","name":"Nordrhein-Westfalen"}},{"name":"Himmelsleiter","postalCode":"57250","locality":"Netphen","municipality":{"key":"05970032","name":"Netphen, Stadt","type":"Stadt"},"district":{"key":"05970","name":"Siegen-Wittgenstein","type":"Kreis"},"federalState":{"key":"05","name":"Nordrhein-Westfalen"}},{"name":"Hinter den Weiden","postalCode":"57250","locality":"Netphen","municipality":{"key":"05970032","name":"Netphen, Stadt","type":"Stadt"},"district":{"key":"05970","name":"Siegen-Wittgenstein","type":"Kreis"},"federalState":{"key":"05","name":"Nordrhein-Westfalen"}},{"name":"Hinterm Liesch","postalCode":"57250","locality":"Netphen","municipality":{"key":"05970032","name":"Netphen, Stadt","type":"Stadt"},"district":{"key":"05970","name":"Siegen-Wittgenstein","type":"Kreis"},"federalState":{"key":"05","name":"Nordrhein-Westfalen"}},{"name":"Hinterm Wasser","postalCode":"57250","locality":"Netphen","municipality":{"key":"05970032","name":"Netphen, Stadt","type":"Stadt"},"district":{"key":"05970","name":"Siegen-Wittgenstein","type":"Kreis"},"federalState":{"key":"05","name":"Nordrhein-Westfalen"}},{"name":"Hinterstr.","postalCode":"57250","locality":"Netphen","municipality":{"key":"05970032","name":"Netphen, Stadt","type":"Stadt"},"district":{"key":"05970","name":"Siegen-Wittgenstein","type":"Kreis"},"federalState":{"key":"05","name":"Nordrhein-Westfalen"}},{"name":"Hirschweg","postalCode":"57250","locality":"Netphen","municipality":{"key":"05970032","name":"Netphen, Stadt","type":"Stadt"},"district":{"key":"05970","name":"Siegen-Wittgenstein","type":"Kreis"},"federalState":{"key":"05","name":"Nordrhein-Westfalen"}},{"name":"Hochstr.","postalCode":"57250","locality":"Netphen","municipality":{"key":"05970032","name":"Netphen, Stadt","type":"Stadt"},"district":{"key":"05970","name":"Siegen-Wittgenstein","type":"Kreis"},"federalState":{"key":"05","name":"Nordrhein-Westfalen"}},{"name":"Hochwiese","postalCode":"57250","locality":"Netphen","municipality":{"key":"05970032","name":"Netphen, Stadt","type":"Stadt"},"district":{"key":"05970","name":"Siegen-Wittgenstein","type":"Kreis"},"federalState":{"key":"05","name":"Nordrhein-Westfalen"}},{"name":"Hofäckerweg","postalCode":"57250","locality":"Netphen","municipality":{"key":"05970032","name":"Netphen, Stadt","type":"Stadt"},"district":{"key":"05970","name":"Siegen-Wittgenstein","type":"Kreis"},"federalState":{"key":"05","name":"Nordrhein-Westfalen"}},{"name":"Hof Buchen","postalCode":"57250","locality":"Netphen","municipality":{"key":"05970032","name":"Netphen, Stadt","type":"Stadt"},"district":{"key":"05970","name":"Siegen-Wittgenstein","type":"Kreis"},"federalState":{"key":"05","name":"Nordrhein-Westfalen"}},{"name":"Höfenstr.","postalCode":"57250","locality":"Netphen","municipality":{"key":"05970032","name":"Netphen, Stadt","type":"Stadt"},"district":{"key":"05970","name":"Siegen-Wittgenstein","type":"Kreis"},"federalState":{"key":"05","name":"Nordrhein-Westfalen"}},{"name":"Hofgarten","postalCode":"57250","locality":"Netphen","municipality":{"key":"05970032","name":"Netphen, Stadt","type":"Stadt"},"district":{"key":"05970","name":"Siegen-Wittgenstein","type":"Kreis"},"federalState":{"key":"05","name":"Nordrhein-Westfalen"}},{"name":"Hofgartenstr.","postalCode":"57250","locality":"Netphen","municipality":{"key":"05970032","name":"Netphen, Stadt","type":"Stadt"},"district":{"key":"05970","name":"Siegen-Wittgenstein","type":"Kreis"},"federalState":{"key":"05","name":"Nordrhein-Westfalen"}},{"name":"Hofstr.","postalCode":"57250","locality":"Netphen","municipality":{"key":"05970032","name":"Netphen, Stadt","type":"Stadt"},"district":{"key":"05970","name":"Siegen-Wittgenstein","type":"Kreis"},"federalState":{"key":"05","name":"Nordrhein-Westfalen"}},{"name":"Hohen Rain","postalCode":"57250","locality":"Netphen","municipality":{"key":"05970032","name":"Netphen, Stadt","type":"Stadt"},"district":{"key":"05970","name":"Siegen-Wittgenstein","type":"Kreis"},"federalState":{"key":"05","name":"Nordrhein-Westfalen"}},{"name":"Höhenstr.","postalCode":"57250","locality":"Netphen","municipality":{"key":"05970032","name":"Netphen, Stadt","type":"Stadt"},"district":{"key":"05970","name":"Siegen-Wittgenstein","type":"Kreis"},"federalState":{"key":"05","name":"Nordrhein-Westfalen"}},{"name":"Hohlweg","postalCode":"57250","locality":"Netphen","municipality":{"key":"05970032","name":"Netphen, Stadt","type":"Stadt"},"district":{"key":"05970","name":"Siegen-Wittgenstein","type":"Kreis"},"federalState":{"key":"05","name":"Nordrhein-Westfalen"}},{"name":"Holunderweg","postalCode":"57250","locality":"Netphen","municipality":{"key":"05970032","name":"Netphen, Stadt","type":"Stadt"},"district":{"key":"05970","name":"Siegen-Wittgenstein","type":"Kreis"},"federalState":{"key":"05","name":"Nordrhein-Westfalen"}},{"name":"Hömbergstr.","postalCode":"57250","locality":"Netphen","municipality":{"key":"05970032","name":"Netphen, Stadt","type":"Stadt"},"district":{"key":"05970","name":"Siegen-Wittgenstein","type":"Kreis"},"federalState":{"key":"05","name":"Nordrhein-Westfalen"}},{"name":"Hübener Str.","postalCode":"57250","locality":"Netphen","municipality":{"key":"05970032","name":"Netphen, Stadt","type":"Stadt"},"district":{"key":"05970","name":"Siegen-Wittgenstein","type":"Kreis"},"federalState":{"key":"05","name":"Nordrhein-Westfalen"}},{"name":"Hubertusweg","postalCode":"57250","locality":"Netphen","municipality":{"key":"05970032","name":"Netphen, Stadt","type":"Stadt"},"district":{"key":"05970","name":"Siegen-Wittgenstein","type":"Kreis"},"federalState":{"key":"05","name":"Nordrhein-Westfalen"}},{"name":"Hüllweg","postalCode":"57250","locality":"Netphen","municipality":{"key":"05970032","name":"Netphen, Stadt","type":"Stadt"},"district":{"key":"05970","name":"Siegen-Wittgenstein","type":"Kreis"},"federalState":{"key":"05","name":"Nordrhein-Westfalen"}},{"name":"Hüttentaler Str.","postalCode":"57250","locality":"Netphen","municipality":{"key":"05970032","name":"Netphen, Stadt","type":"Stadt"},"district":{"key":"05970","name":"Siegen-Wittgenstein","type":"Kreis"},"federalState":{"key":"05","name":"Nordrhein-Westfalen"}},{"name":"Hüttenwiese","postalCode":"57250","locality":"Netphen","municipality":{"key":"05970032","name":"Netphen, Stadt","type":"Stadt"},"district":{"key":"05970","name":"Siegen-Wittgenstein","type":"Kreis"},"federalState":{"key":"05","name":"Nordrhein-Westfalen"}},{"name":"Im Alten Garten","postalCode":"57250","locality":"Netphen","municipality":{"key":"05970032","name":"Netphen, Stadt","type":"Stadt"},"district":{"key":"05970","name":"Siegen-Wittgenstein","type":"Kreis"},"federalState":{"key":"05","name":"Nordrhein-Westfalen"}},{"name":"Im Börnchen","postalCode":"57250","locality":"Netphen","municipality":{"key":"05970032","name":"Netphen, Stadt","type":"Stadt"},"district":{"key":"05970","name":"Siegen-Wittgenstein","type":"Kreis"},"federalState":{"key":"05","name":"Nordrhein-Westfalen"}},{"name":"Im Bruch","postalCode":"57250","locality":"Netphen","municipality":{"key":"05970032","name":"Netphen, Stadt","type":"Stadt"},"district":{"key":"05970","name":"Siegen-Wittgenstein","type":"Kreis"},"federalState":{"key":"05","name":"Nordrhein-Westfalen"}},{"name":"Im Buden","postalCode":"57250","locality":"Netphen","municipality":{"key":"05970032","name":"Netphen, Stadt","type":"Stadt"},"district":{"key":"05970","name":"Siegen-Wittgenstein","type":"Kreis"},"federalState":{"key":"05","name":"Nordrhein-Westfalen"}},{"name":"Im Distelfeld","postalCode":"57250","locality":"Netphen","municipality":{"key":"05970032","name":"Netphen, Stadt","type":"Stadt"},"district":{"key":"05970","name":"Siegen-Wittgenstein","type":"Kreis"},"federalState":{"key":"05","name":"Nordrhein-Westfalen"}},{"name":"Im Dreieck","postalCode":"57250","locality":"Netphen","municipality":{"key":"05970032","name":"Netphen, Stadt","type":"Stadt"},"district":{"key":"05970","name":"Siegen-Wittgenstein","type":"Kreis"},"federalState":{"key":"05","name":"Nordrhein-Westfalen"}},{"name":"Im Eck","postalCode":"57250","locality":"Netphen","municipality":{"key":"05970032","name":"Netphen, Stadt","type":"Stadt"},"district":{"key":"05970","name":"Siegen-Wittgenstein","type":"Kreis"},"federalState":{"key":"05","name":"Nordrhein-Westfalen"}},{"name":"Im Grummetshof","postalCode":"57250","locality":"Netphen","municipality":{"key":"05970032","name":"Netphen, Stadt","type":"Stadt"},"district":{"key":"05970","name":"Siegen-Wittgenstein","type":"Kreis"},"federalState":{"key":"05","name":"Nordrhein-Westfalen"}},{"name":"Im Grunde","postalCode":"57250","locality":"Netphen","municipality":{"key":"05970032","name":"Netphen, Stadt","type":"Stadt"},"district":{"key":"05970","name":"Siegen-Wittgenstein","type":"Kreis"},"federalState":{"key":"05","name":"Nordrhein-Westfalen"}},{"name":"Im Heiteren Tal","postalCode":"57250","locality":"Netphen","municipality":{"key":"05970032","name":"Netphen, Stadt","type":"Stadt"},"district":{"key":"05970","name":"Siegen-Wittgenstein","type":"Kreis"},"federalState":{"key":"05","name":"Nordrhein-Westfalen"}},{"name":"Im Höfchen","postalCode":"57250","locality":"Netphen","municipality":{"key":"05970032","name":"Netphen, Stadt","type":"Stadt"},"district":{"key":"05970","name":"Siegen-Wittgenstein","type":"Kreis"},"federalState":{"key":"05","name":"Nordrhein-Westfalen"}},{"name":"Im Hüttseifen","postalCode":"57250","locality":"Netphen","municipality":{"key":"05970032","name":"Netphen, Stadt","type":"Stadt"},"district":{"key":"05970","name":"Siegen-Wittgenstein","type":"Kreis"},"federalState":{"key":"05","name":"Nordrhein-Westfalen"}},{"name":"Im Kesselgarten","postalCode":"57250","locality":"Netphen","municipality":{"key":"05970032","name":"Netphen, Stadt","type":"Stadt"},"district":{"key":"05970","name":"Siegen-Wittgenstein","type":"Kreis"},"federalState":{"key":"05","name":"Nordrhein-Westfalen"}},{"name":"Im Köppengarten","postalCode":"57250","locality":"Netphen","municipality":{"key":"05970032","name":"Netphen, Stadt","type":"Stadt"},"district":{"key":"05970","name":"Siegen-Wittgenstein","type":"Kreis"},"federalState":{"key":"05","name":"Nordrhein-Westfalen"}},{"name":"Im Krummfeld","postalCode":"57250","locality":"Netphen","municipality":{"key":"05970032","name":"Netphen, Stadt","type":"Stadt"},"district":{"key":"05970","name":"Siegen-Wittgenstein","type":"Kreis"},"federalState":{"key":"05","name":"Nordrhein-Westfalen"}},{"name":"Im Mühlengrund","postalCode":"57250","locality":"Netphen","municipality":{"key":"05970032","name":"Netphen, Stadt","type":"Stadt"},"district":{"key":"05970","name":"Siegen-Wittgenstein","type":"Kreis"},"federalState":{"key":"05","name":"Nordrhein-Westfalen"}},{"name":"Im Nassen","postalCode":"57250","locality":"Netphen","municipality":{"key":"05970032","name":"Netphen, Stadt","type":"Stadt"},"district":{"key":"05970","name":"Siegen-Wittgenstein","type":"Kreis"},"federalState":{"key":"05","name":"Nordrhein-Westfalen"}},{"name":"Im Neuen Garten","postalCode":"57250","locality":"Netphen","municipality":{"key":"05970032","name":"Netphen, Stadt","type":"Stadt"},"district":{"key":"05970","name":"Siegen-Wittgenstein","type":"Kreis"},"federalState":{"key":"05","name":"Nordrhein-Westfalen"}},{"name":"Im Pfarrfeld","postalCode":"57250","locality":"Netphen","municipality":{"key":"05970032","name":"Netphen, Stadt","type":"Stadt"},"district":{"key":"05970","name":"Siegen-Wittgenstein","type":"Kreis"},"federalState":{"key":"05","name":"Nordrhein-Westfalen"}},{"name":"Im Siegeck","postalCode":"57250","locality":"Netphen","municipality":{"key":"05970032","name":"Netphen, Stadt","type":"Stadt"},"district":{"key":"05970","name":"Siegen-Wittgenstein","type":"Kreis"},"federalState":{"key":"05","name":"Nordrhein-Westfalen"}},{"name":"Im Steingarten","postalCode":"57250","locality":"Netphen","municipality":{"key":"05970032","name":"Netphen, Stadt","type":"Stadt"},"district":{"key":"05970","name":"Siegen-Wittgenstein","type":"Kreis"},"federalState":{"key":"05","name":"Nordrhein-Westfalen"}},{"name":"Im Stift","postalCode":"57250","locality":"Netphen","municipality":{"key":"05970032","name":"Netphen, Stadt","type":"Stadt"},"district":{"key":"05970","name":"Siegen-Wittgenstein","type":"Kreis"},"federalState":{"key":"05","name":"Nordrhein-Westfalen"}},{"name":"Im Storchennest","postalCode":"57250","locality":"Netphen","municipality":{"key":"05970032","name":"Netphen, Stadt","type":"Stadt"},"district":{"key":"05970","name":"Siegen-Wittgenstein","type":"Kreis"},"federalState":{"key":"05","name":"Nordrhein-Westfalen"}},{"name":"Im Unteren Buden","postalCode":"57250","locality":"Netphen","municipality":{"key":"05970032","name":"Netphen, Stadt","type":"Stadt"},"district":{"key":"05970","name":"Siegen-Wittgenstein","type":"Kreis"},"federalState":{"key":"05","name":"Nordrhein-Westfalen"}},{"name":"Im Wellerseifen","postalCode":"57250","locality":"Netphen","municipality":{"key":"05970032","name":"Netphen, Stadt","type":"Stadt"},"district":{"key":"05970","name":"Siegen-Wittgenstein","type":"Kreis"},"federalState":{"key":"05","name":"Nordrhein-Westfalen"}},{"name":"Im Wiesengrund","postalCode":"57250","locality":"Netphen","municipality":{"key":"05970032","name":"Netphen, Stadt","type":"Stadt"},"district":{"key":"05970","name":"Siegen-Wittgenstein","type":"Kreis"},"federalState":{"key":"05","name":"Nordrhein-Westfalen"}},{"name":"Im Winkel","postalCode":"57250","locality":"Netphen","municipality":{"key":"05970032","name":"Netphen, Stadt","type":"Stadt"},"district":{"key":"05970","name":"Siegen-Wittgenstein","type":"Kreis"},"federalState":{"key":"05","name":"Nordrhein-Westfalen"}},{"name":"In den Weidenbäumen","postalCode":"57250","locality":"Netphen","municipality":{"key":"05970032","name":"Netphen, Stadt","type":"Stadt"},"district":{"key":"05970","name":"Siegen-Wittgenstein","type":"Kreis"},"federalState":{"key":"05","name":"Nordrhein-Westfalen"}},{"name":"In der Brachbach","postalCode":"57250","locality":"Netphen","municipality":{"key":"05970032","name":"Netphen, Stadt","type":"Stadt"},"district":{"key":"05970","name":"Siegen-Wittgenstein","type":"Kreis"},"federalState":{"key":"05","name":"Nordrhein-Westfalen"}},{"name":"In der Delle","postalCode":"57250","locality":"Netphen","municipality":{"key":"05970032","name":"Netphen, Stadt","type":"Stadt"},"district":{"key":"05970","name":"Siegen-Wittgenstein","type":"Kreis"},"federalState":{"key":"05","name":"Nordrhein-Westfalen"}},{"name":"In der Eiche","postalCode":"57250","locality":"Netphen","municipality":{"key":"05970032","name":"Netphen, Stadt","type":"Stadt"},"district":{"key":"05970","name":"Siegen-Wittgenstein","type":"Kreis"},"federalState":{"key":"05","name":"Nordrhein-Westfalen"}},{"name":"In der Enke","postalCode":"57250","locality":"Netphen","municipality":{"key":"05970032","name":"Netphen, Stadt","type":"Stadt"},"district":{"key":"05970","name":"Siegen-Wittgenstein","type":"Kreis"},"federalState":{"key":"05","name":"Nordrhein-Westfalen"}},{"name":"In der Feldbach","postalCode":"57250","locality":"Netphen","municipality":{"key":"05970032","name":"Netphen, Stadt","type":"Stadt"},"district":{"key":"05970","name":"Siegen-Wittgenstein","type":"Kreis"},"federalState":{"key":"05","name":"Nordrhein-Westfalen"}},{"name":"In der Grissenbach","postalCode":"57250","locality":"Netphen","municipality":{"key":"05970032","name":"Netphen, Stadt","type":"Stadt"},"district":{"key":"05970","name":"Siegen-Wittgenstein","type":"Kreis"},"federalState":{"key":"05","name":"Nordrhein-Westfalen"}},{"name":"In der Habach","postalCode":"57250","locality":"Netphen","municipality":{"key":"05970032","name":"Netphen, Stadt","type":"Stadt"},"district":{"key":"05970","name":"Siegen-Wittgenstein","type":"Kreis"},"federalState":{"key":"05","name":"Nordrhein-Westfalen"}},{"name":"In der Hälsbach","postalCode":"57250","locality":"Netphen","municipality":{"key":"05970032","name":"Netphen, Stadt","type":"Stadt"},"district":{"key":"05970","name":"Siegen-Wittgenstein","type":"Kreis"},"federalState":{"key":"05","name":"Nordrhein-Westfalen"}},{"name":"In der Hanfwiese","postalCode":"57250","locality":"Netphen","municipality":{"key":"05970032","name":"Netphen, Stadt","type":"Stadt"},"district":{"key":"05970","name":"Siegen-Wittgenstein","type":"Kreis"},"federalState":{"key":"05","name":"Nordrhein-Westfalen"}},{"name":"In der Jungen Ecke","postalCode":"57250","locality":"Netphen","municipality":{"key":"05970032","name":"Netphen, Stadt","type":"Stadt"},"district":{"key":"05970","name":"Siegen-Wittgenstein","type":"Kreis"},"federalState":{"key":"05","name":"Nordrhein-Westfalen"}},{"name":"In der Langenbach","postalCode":"57250","locality":"Netphen","municipality":{"key":"05970032","name":"Netphen, Stadt","type":"Stadt"},"district":{"key":"05970","name":"Siegen-Wittgenstein","type":"Kreis"},"federalState":{"key":"05","name":"Nordrhein-Westfalen"}},{"name":"In der Sang","postalCode":"57250","locality":"Netphen","municipality":{"key":"05970032","name":"Netphen, Stadt","type":"Stadt"},"district":{"key":"05970","name":"Siegen-Wittgenstein","type":"Kreis"},"federalState":{"key":"05","name":"Nordrhein-Westfalen"}},{"name":"In der Seelbach","postalCode":"57250","locality":"Netphen","municipality":{"key":"05970032","name":"Netphen, Stadt","type":"Stadt"},"district":{"key":"05970","name":"Siegen-Wittgenstein","type":"Kreis"},"federalState":{"key":"05","name":"Nordrhein-Westfalen"}},{"name":"In der Seite","postalCode":"57250","locality":"Netphen","municipality":{"key":"05970032","name":"Netphen, Stadt","type":"Stadt"},"district":{"key":"05970","name":"Siegen-Wittgenstein","type":"Kreis"},"federalState":{"key":"05","name":"Nordrhein-Westfalen"}},{"name":"In der Sohlbach","postalCode":"57250","locality":"Netphen","municipality":{"key":"05970032","name":"Netphen, Stadt","type":"Stadt"},"district":{"key":"05970","name":"Siegen-Wittgenstein","type":"Kreis"},"federalState":{"key":"05","name":"Nordrhein-Westfalen"}},{"name":"In der Struth","postalCode":"57250","locality":"Netphen","municipality":{"key":"05970032","name":"Netphen, Stadt","type":"Stadt"},"district":{"key":"05970","name":"Siegen-Wittgenstein","type":"Kreis"},"federalState":{"key":"05","name":"Nordrhein-Westfalen"}},{"name":"In der Trubach","postalCode":"57250","locality":"Netphen","municipality":{"key":"05970032","name":"Netphen, Stadt","type":"Stadt"},"district":{"key":"05970","name":"Siegen-Wittgenstein","type":"Kreis"},"federalState":{"key":"05","name":"Nordrhein-Westfalen"}},{"name":"Irle-Siedlung","postalCode":"57250","locality":"Netphen","municipality":{"key":"05970032","name":"Netphen, Stadt","type":"Stadt"},"district":{"key":"05970","name":"Siegen-Wittgenstein","type":"Kreis"},"federalState":{"key":"05","name":"Nordrhein-Westfalen"}},{"name":"Irmgarteichener Weg","postalCode":"57250","locality":"Netphen","municipality":{"key":"05970032","name":"Netphen, Stadt","type":"Stadt"},"district":{"key":"05970","name":"Siegen-Wittgenstein","type":"Kreis"},"federalState":{"key":"05","name":"Nordrhein-Westfalen"}},{"name":"Ivenweg","postalCode":"57250","locality":"Netphen","municipality":{"key":"05970032","name":"Netphen, Stadt","type":"Stadt"},"district":{"key":"05970","name":"Siegen-Wittgenstein","type":"Kreis"},"federalState":{"key":"05","name":"Nordrhein-Westfalen"}},{"name":"Jagdhütte","postalCode":"57250","locality":"Netphen","municipality":{"key":"05970032","name":"Netphen, Stadt","type":"Stadt"},"district":{"key":"05970","name":"Siegen-Wittgenstein","type":"Kreis"},"federalState":{"key":"05","name":"Nordrhein-Westfalen"}},{"name":"Jagdweg","postalCode":"57250","locality":"Netphen","municipality":{"key":"05970032","name":"Netphen, Stadt","type":"Stadt"},"district":{"key":"05970","name":"Siegen-Wittgenstein","type":"Kreis"},"federalState":{"key":"05","name":"Nordrhein-Westfalen"}},{"name":"Jägerstr.","postalCode":"57250","locality":"Netphen","municipality":{"key":"05970032","name":"Netphen, Stadt","type":"Stadt"},"district":{"key":"05970","name":"Siegen-Wittgenstein","type":"Kreis"},"federalState":{"key":"05","name":"Nordrhein-Westfalen"}},{"name":"Jahnstr.","postalCode":"57250","locality":"Netphen","municipality":{"key":"05970032","name":"Netphen, Stadt","type":"Stadt"},"district":{"key":"05970","name":"Siegen-Wittgenstein","type":"Kreis"},"federalState":{"key":"05","name":"Nordrhein-Westfalen"}},{"name":"Jasminweg","postalCode":"57250","locality":"Netphen","municipality":{"key":"05970032","name":"Netphen, Stadt","type":"Stadt"},"district":{"key":"05970","name":"Siegen-Wittgenstein","type":"Kreis"},"federalState":{"key":"05","name":"Nordrhein-Westfalen"}},{"name":"Johannlandstr.","postalCode":"57250","locality":"Netphen","municipality":{"key":"05970032","name":"Netphen, Stadt","type":"Stadt"},"district":{"key":"05970","name":"Siegen-Wittgenstein","type":"Kreis"},"federalState":{"key":"05","name":"Nordrhein-Westfalen"}},{"name":"Johann-Sebastian-Bach-Weg","postalCode":"57250","locality":"Netphen","municipality":{"key":"05970032","name":"Netphen, Stadt","type":"Stadt"},"district":{"key":"05970","name":"Siegen-Wittgenstein","type":"Kreis"},"federalState":{"key":"05","name":"Nordrhein-Westfalen"}},{"name":"Johann-Strauß-Weg","postalCode":"57250","locality":"Netphen","municipality":{"key":"05970032","name":"Netphen, Stadt","type":"Stadt"},"district":{"key":"05970","name":"Siegen-Wittgenstein","type":"Kreis"},"federalState":{"key":"05","name":"Nordrhein-Westfalen"}},{"name":"Jung-Stilling-Platz","postalCode":"57250","locality":"Netphen","municipality":{"key":"05970032","name":"Netphen, Stadt","type":"Stadt"},"district":{"key":"05970","name":"Siegen-Wittgenstein","type":"Kreis"},"federalState":{"key":"05","name":"Nordrhein-Westfalen"}},{"name":"Kälberhof","postalCode":"57250","locality":"Netphen","municipality":{"key":"05970032","name":"Netphen, Stadt","type":"Stadt"},"district":{"key":"05970","name":"Siegen-Wittgenstein","type":"Kreis"},"federalState":{"key":"05","name":"Nordrhein-Westfalen"}},{"name":"Kampenstr.","postalCode":"57250","locality":"Netphen","municipality":{"key":"05970032","name":"Netphen, Stadt","type":"Stadt"},"district":{"key":"05970","name":"Siegen-Wittgenstein","type":"Kreis"},"federalState":{"key":"05","name":"Nordrhein-Westfalen"}},{"name":"Kapellenstr.","postalCode":"57250","locality":"Netphen","municipality":{"key":"05970032","name":"Netphen, Stadt","type":"Stadt"},"district":{"key":"05970","name":"Siegen-Wittgenstein","type":"Kreis"},"federalState":{"key":"05","name":"Nordrhein-Westfalen"}},{"name":"Kastanienweg","postalCode":"57250","locality":"Netphen","municipality":{"key":"05970032","name":"Netphen, Stadt","type":"Stadt"},"district":{"key":"05970","name":"Siegen-Wittgenstein","type":"Kreis"},"federalState":{"key":"05","name":"Nordrhein-Westfalen"}},{"name":"Katharina-Diez-Str.","postalCode":"57250","locality":"Netphen","municipality":{"key":"05970032","name":"Netphen, Stadt","type":"Stadt"},"district":{"key":"05970","name":"Siegen-Wittgenstein","type":"Kreis"},"federalState":{"key":"05","name":"Nordrhein-Westfalen"}},{"name":"Kettelerstr.","postalCode":"57250","locality":"Netphen","municipality":{"key":"05970032","name":"Netphen, Stadt","type":"Stadt"},"district":{"key":"05970","name":"Siegen-Wittgenstein","type":"Kreis"},"federalState":{"key":"05","name":"Nordrhein-Westfalen"}},{"name":"Kiefernweg","postalCode":"57250","locality":"Netphen","municipality":{"key":"05970032","name":"Netphen, Stadt","type":"Stadt"},"district":{"key":"05970","name":"Siegen-Wittgenstein","type":"Kreis"},"federalState":{"key":"05","name":"Nordrhein-Westfalen"}},{"name":"Kierbergstr.","postalCode":"57250","locality":"Netphen","municipality":{"key":"05970032","name":"Netphen, Stadt","type":"Stadt"},"district":{"key":"05970","name":"Siegen-Wittgenstein","type":"Kreis"},"federalState":{"key":"05","name":"Nordrhein-Westfalen"}},{"name":"Kirchfeldweg","postalCode":"57250","locality":"Netphen","municipality":{"key":"05970032","name":"Netphen, Stadt","type":"Stadt"},"district":{"key":"05970","name":"Siegen-Wittgenstein","type":"Kreis"},"federalState":{"key":"05","name":"Nordrhein-Westfalen"}},{"name":"Kirchweg","postalCode":"57250","locality":"Netphen","municipality":{"key":"05970032","name":"Netphen, Stadt","type":"Stadt"},"district":{"key":"05970","name":"Siegen-Wittgenstein","type":"Kreis"},"federalState":{"key":"05","name":"Nordrhein-Westfalen"}},{"name":"Kirschborn","postalCode":"57250","locality":"Netphen","municipality":{"key":"05970032","name":"Netphen, Stadt","type":"Stadt"},"district":{"key":"05970","name":"Siegen-Wittgenstein","type":"Kreis"},"federalState":{"key":"05","name":"Nordrhein-Westfalen"}},{"name":"Knospenweg","postalCode":"57250","locality":"Netphen","municipality":{"key":"05970032","name":"Netphen, Stadt","type":"Stadt"},"district":{"key":"05970","name":"Siegen-Wittgenstein","type":"Kreis"},"federalState":{"key":"05","name":"Nordrhein-Westfalen"}},{"name":"Koblenzer Str.","postalCode":"57250","locality":"Netphen","municipality":{"key":"05970032","name":"Netphen, Stadt","type":"Stadt"},"district":{"key":"05970","name":"Siegen-Wittgenstein","type":"Kreis"},"federalState":{"key":"05","name":"Nordrhein-Westfalen"}},{"name":"Kohlenstr.","postalCode":"57250","locality":"Netphen","municipality":{"key":"05970032","name":"Netphen, Stadt","type":"Stadt"},"district":{"key":"05970","name":"Siegen-Wittgenstein","type":"Kreis"},"federalState":{"key":"05","name":"Nordrhein-Westfalen"}},{"name":"Köhlerweg","postalCode":"57250","locality":"Netphen","municipality":{"key":"05970032","name":"Netphen, Stadt","type":"Stadt"},"district":{"key":"05970","name":"Siegen-Wittgenstein","type":"Kreis"},"federalState":{"key":"05","name":"Nordrhein-Westfalen"}},{"name":"Kölner Str.","postalCode":"57250","locality":"Netphen","municipality":{"key":"05970032","name":"Netphen, Stadt","type":"Stadt"},"district":{"key":"05970","name":"Siegen-Wittgenstein","type":"Kreis"},"federalState":{"key":"05","name":"Nordrhein-Westfalen"}},{"name":"Königsberger Str.","postalCode":"57250","locality":"Netphen","municipality":{"key":"05970032","name":"Netphen, Stadt","type":"Stadt"},"district":{"key":"05970","name":"Siegen-Wittgenstein","type":"Kreis"},"federalState":{"key":"05","name":"Nordrhein-Westfalen"}},{"name":"Kornweg","postalCode":"57250","locality":"Netphen","municipality":{"key":"05970032","name":"Netphen, Stadt","type":"Stadt"},"district":{"key":"05970","name":"Siegen-Wittgenstein","type":"Kreis"},"federalState":{"key":"05","name":"Nordrhein-Westfalen"}},{"name":"Krachenberg","postalCode":"57250","locality":"Netphen","municipality":{"key":"05970032","name":"Netphen, Stadt","type":"Stadt"},"district":{"key":"05970","name":"Siegen-Wittgenstein","type":"Kreis"},"federalState":{"key":"05","name":"Nordrhein-Westfalen"}},{"name":"Kreuzbergstr.","postalCode":"57250","locality":"Netphen","municipality":{"key":"05970032","name":"Netphen, Stadt","type":"Stadt"},"district":{"key":"05970","name":"Siegen-Wittgenstein","type":"Kreis"},"federalState":{"key":"05","name":"Nordrhein-Westfalen"}},{"name":"Kreuzbergweg","postalCode":"57250","locality":"Netphen","municipality":{"key":"05970032","name":"Netphen, Stadt","type":"Stadt"},"district":{"key":"05970","name":"Siegen-Wittgenstein","type":"Kreis"},"federalState":{"key":"05","name":"Nordrhein-Westfalen"}},{"name":"Kreuztaler Str.","postalCode":"57250","locality":"Netphen","municipality":{"key":"05970032","name":"Netphen, Stadt","type":"Stadt"},"district":{"key":"05970","name":"Siegen-Wittgenstein","type":"Kreis"},"federalState":{"key":"05","name":"Nordrhein-Westfalen"}},{"name":"Krokusweg","postalCode":"57250","locality":"Netphen","municipality":{"key":"05970032","name":"Netphen, Stadt","type":"Stadt"},"district":{"key":"05970","name":"Siegen-Wittgenstein","type":"Kreis"},"federalState":{"key":"05","name":"Nordrhein-Westfalen"}},{"name":"Kronprinzenstr.","postalCode":"57250","locality":"Netphen","municipality":{"key":"05970032","name":"Netphen, Stadt","type":"Stadt"},"district":{"key":"05970","name":"Siegen-Wittgenstein","type":"Kreis"},"federalState":{"key":"05","name":"Nordrhein-Westfalen"}},{"name":"Krummstück","postalCode":"57250","locality":"Netphen","municipality":{"key":"05970032","name":"Netphen, Stadt","type":"Stadt"},"district":{"key":"05970","name":"Siegen-Wittgenstein","type":"Kreis"},"federalState":{"key":"05","name":"Nordrhein-Westfalen"}},{"name":"Kurze Str.","postalCode":"57250","locality":"Netphen","municipality":{"key":"05970032","name":"Netphen, Stadt","type":"Stadt"},"district":{"key":"05970","name":"Siegen-Wittgenstein","type":"Kreis"},"federalState":{"key":"05","name":"Nordrhein-Westfalen"}},{"name":"Lahnhof","postalCode":"57250","locality":"Netphen","municipality":{"key":"05970032","name":"Netphen, Stadt","type":"Stadt"},"district":{"key":"05970","name":"Siegen-Wittgenstein","type":"Kreis"},"federalState":{"key":"05","name":"Nordrhein-Westfalen"}},{"name":"Lahnhofstr.","postalCode":"57250","locality":"Netphen","municipality":{"key":"05970032","name":"Netphen, Stadt","type":"Stadt"},"district":{"key":"05970","name":"Siegen-Wittgenstein","type":"Kreis"},"federalState":{"key":"05","name":"Nordrhein-Westfalen"}},{"name":"Lahnstr.","postalCode":"57250","locality":"Netphen","municipality":{"key":"05970032","name":"Netphen, Stadt","type":"Stadt"},"district":{"key":"05970","name":"Siegen-Wittgenstein","type":"Kreis"},"federalState":{"key":"05","name":"Nordrhein-Westfalen"}},{"name":"Ländchenstr.","postalCode":"57250","locality":"Netphen","municipality":{"key":"05970032","name":"Netphen, Stadt","type":"Stadt"},"district":{"key":"05970","name":"Siegen-Wittgenstein","type":"Kreis"},"federalState":{"key":"05","name":"Nordrhein-Westfalen"}},{"name":"Leipziger Str.","postalCode":"57250","locality":"Netphen","municipality":{"key":"05970032","name":"Netphen, Stadt","type":"Stadt"},"district":{"key":"05970","name":"Siegen-Wittgenstein","type":"Kreis"},"federalState":{"key":"05","name":"Nordrhein-Westfalen"}},{"name":"Lerchenweg","postalCode":"57250","locality":"Netphen","municipality":{"key":"05970032","name":"Netphen, Stadt","type":"Stadt"},"district":{"key":"05970","name":"Siegen-Wittgenstein","type":"Kreis"},"federalState":{"key":"05","name":"Nordrhein-Westfalen"}},{"name":"Lessingstr.","postalCode":"57250","locality":"Netphen","municipality":{"key":"05970032","name":"Netphen, Stadt","type":"Stadt"},"district":{"key":"05970","name":"Siegen-Wittgenstein","type":"Kreis"},"federalState":{"key":"05","name":"Nordrhein-Westfalen"}},{"name":"Leuschnerstr.","postalCode":"57250","locality":"Netphen","municipality":{"key":"05970032","name":"Netphen, Stadt","type":"Stadt"},"district":{"key":"05970","name":"Siegen-Wittgenstein","type":"Kreis"},"federalState":{"key":"05","name":"Nordrhein-Westfalen"}},{"name":"Leywiese","postalCode":"57250","locality":"Netphen","municipality":{"key":"05970032","name":"Netphen, Stadt","type":"Stadt"},"district":{"key":"05970","name":"Siegen-Wittgenstein","type":"Kreis"},"federalState":{"key":"05","name":"Nordrhein-Westfalen"}},{"name":"Liebigstr.","postalCode":"57250","locality":"Netphen","municipality":{"key":"05970032","name":"Netphen, Stadt","type":"Stadt"},"district":{"key":"05970","name":"Siegen-Wittgenstein","type":"Kreis"},"federalState":{"key":"05","name":"Nordrhein-Westfalen"}},{"name":"Lieschstr.","postalCode":"57250","locality":"Netphen","municipality":{"key":"05970032","name":"Netphen, Stadt","type":"Stadt"},"district":{"key":"05970","name":"Siegen-Wittgenstein","type":"Kreis"},"federalState":{"key":"05","name":"Nordrhein-Westfalen"}},{"name":"Lindenweg","postalCode":"57250","locality":"Netphen","municipality":{"key":"05970032","name":"Netphen, Stadt","type":"Stadt"},"district":{"key":"05970","name":"Siegen-Wittgenstein","type":"Kreis"},"federalState":{"key":"05","name":"Nordrhein-Westfalen"}},{"name":"Lisztweg","postalCode":"57250","locality":"Netphen","municipality":{"key":"05970032","name":"Netphen, Stadt","type":"Stadt"},"district":{"key":"05970","name":"Siegen-Wittgenstein","type":"Kreis"},"federalState":{"key":"05","name":"Nordrhein-Westfalen"}},{"name":"Luisenstr.","postalCode":"57250","locality":"Netphen","municipality":{"key":"05970032","name":"Netphen, Stadt","type":"Stadt"},"district":{"key":"05970","name":"Siegen-Wittgenstein","type":"Kreis"},"federalState":{"key":"05","name":"Nordrhein-Westfalen"}},{"name":"Lutherstalweg","postalCode":"57250","locality":"Netphen","municipality":{"key":"05970032","name":"Netphen, Stadt","type":"Stadt"},"district":{"key":"05970","name":"Siegen-Wittgenstein","type":"Kreis"},"federalState":{"key":"05","name":"Nordrhein-Westfalen"}},{"name":"Lützelau","postalCode":"57250","locality":"Netphen","municipality":{"key":"05970032","name":"Netphen, Stadt","type":"Stadt"},"district":{"key":"05970","name":"Siegen-Wittgenstein","type":"Kreis"},"federalState":{"key":"05","name":"Nordrhein-Westfalen"}},{"name":"Lützeler Weg","postalCode":"57250","locality":"Netphen","municipality":{"key":"05970032","name":"Netphen, Stadt","type":"Stadt"},"district":{"key":"05970","name":"Siegen-Wittgenstein","type":"Kreis"},"federalState":{"key":"05","name":"Nordrhein-Westfalen"}},{"name":"Marburger Str.","postalCode":"57250","locality":"Netphen","municipality":{"key":"05970032","name":"Netphen, Stadt","type":"Stadt"},"district":{"key":"05970","name":"Siegen-Wittgenstein","type":"Kreis"},"federalState":{"key":"05","name":"Nordrhein-Westfalen"}},{"name":"Marienstr.","postalCode":"57250","locality":"Netphen","municipality":{"key":"05970032","name":"Netphen, Stadt","type":"Stadt"},"district":{"key":"05970","name":"Siegen-Wittgenstein","type":"Kreis"},"federalState":{"key":"05","name":"Nordrhein-Westfalen"}},{"name":"Marktplatz","postalCode":"57250","locality":"Netphen","municipality":{"key":"05970032","name":"Netphen, Stadt","type":"Stadt"},"district":{"key":"05970","name":"Siegen-Wittgenstein","type":"Kreis"},"federalState":{"key":"05","name":"Nordrhein-Westfalen"}},{"name":"Martin-Luther-Str.","postalCode":"57250","locality":"Netphen","municipality":{"key":"05970032","name":"Netphen, Stadt","type":"Stadt"},"district":{"key":"05970","name":"Siegen-Wittgenstein","type":"Kreis"},"federalState":{"key":"05","name":"Nordrhein-Westfalen"}},{"name":"Martinstr.","postalCode":"57250","locality":"Netphen","municipality":{"key":"05970032","name":"Netphen, Stadt","type":"Stadt"},"district":{"key":"05970","name":"Siegen-Wittgenstein","type":"Kreis"},"federalState":{"key":"05","name":"Nordrhein-Westfalen"}},{"name":"Märzbecherweg","postalCode":"57250","locality":"Netphen","municipality":{"key":"05970032","name":"Netphen, Stadt","type":"Stadt"},"district":{"key":"05970","name":"Siegen-Wittgenstein","type":"Kreis"},"federalState":{"key":"05","name":"Nordrhein-Westfalen"}},{"name":"Mattenbachstr.","postalCode":"57250","locality":"Netphen","municipality":{"key":"05970032","name":"Netphen, Stadt","type":"Stadt"},"district":{"key":"05970","name":"Siegen-Wittgenstein","type":"Kreis"},"federalState":{"key":"05","name":"Nordrhein-Westfalen"}},{"name":"Meisenweg","postalCode":"57250","locality":"Netphen","municipality":{"key":"05970032","name":"Netphen, Stadt","type":"Stadt"},"district":{"key":"05970","name":"Siegen-Wittgenstein","type":"Kreis"},"federalState":{"key":"05","name":"Nordrhein-Westfalen"}},{"name":"Mittelbach","postalCode":"57250","locality":"Netphen","municipality":{"key":"05970032","name":"Netphen, Stadt","type":"Stadt"},"district":{"key":"05970","name":"Siegen-Wittgenstein","type":"Kreis"},"federalState":{"key":"05","name":"Nordrhein-Westfalen"}},{"name":"Mittelweg","postalCode":"57250","locality":"Netphen","municipality":{"key":"05970032","name":"Netphen, Stadt","type":"Stadt"},"district":{"key":"05970","name":"Siegen-Wittgenstein","type":"Kreis"},"federalState":{"key":"05","name":"Nordrhein-Westfalen"}},{"name":"Mozartweg","postalCode":"57250","locality":"Netphen","municipality":{"key":"05970032","name":"Netphen, Stadt","type":"Stadt"},"district":{"key":"05970","name":"Siegen-Wittgenstein","type":"Kreis"},"federalState":{"key":"05","name":"Nordrhein-Westfalen"}},{"name":"Müdersbergstr.","postalCode":"57250","locality":"Netphen","municipality":{"key":"05970032","name":"Netphen, Stadt","type":"Stadt"},"district":{"key":"05970","name":"Siegen-Wittgenstein","type":"Kreis"},"federalState":{"key":"05","name":"Nordrhein-Westfalen"}},{"name":"Mühlenbachstr.","postalCode":"57250","locality":"Netphen","municipality":{"key":"05970032","name":"Netphen, Stadt","type":"Stadt"},"district":{"key":"05970","name":"Siegen-Wittgenstein","type":"Kreis"},"federalState":{"key":"05","name":"Nordrhein-Westfalen"}},{"name":"Mühlenweg","postalCode":"57250","locality":"Netphen","municipality":{"key":"05970032","name":"Netphen, Stadt","type":"Stadt"},"district":{"key":"05970","name":"Siegen-Wittgenstein","type":"Kreis"},"federalState":{"key":"05","name":"Nordrhein-Westfalen"}},{"name":"Nahtweg","postalCode":"57250","locality":"Netphen","municipality":{"key":"05970032","name":"Netphen, Stadt","type":"Stadt"},"district":{"key":"05970","name":"Siegen-Wittgenstein","type":"Kreis"},"federalState":{"key":"05","name":"Nordrhein-Westfalen"}},{"name":"Narzissenweg","postalCode":"57250","locality":"Netphen","municipality":{"key":"05970032","name":"Netphen, Stadt","type":"Stadt"},"district":{"key":"05970","name":"Siegen-Wittgenstein","type":"Kreis"},"federalState":{"key":"05","name":"Nordrhein-Westfalen"}},{"name":"Nauholzer Weg","postalCode":"57250","locality":"Netphen","municipality":{"key":"05970032","name":"Netphen, Stadt","type":"Stadt"},"district":{"key":"05970","name":"Siegen-Wittgenstein","type":"Kreis"},"federalState":{"key":"05","name":"Nordrhein-Westfalen"}},{"name":"Nelkenweg","postalCode":"57250","locality":"Netphen","municipality":{"key":"05970032","name":"Netphen, Stadt","type":"Stadt"},"district":{"key":"05970","name":"Siegen-Wittgenstein","type":"Kreis"},"federalState":{"key":"05","name":"Nordrhein-Westfalen"}},{"name":"Nell-Breuning-Weg","postalCode":"57250","locality":"Netphen","municipality":{"key":"05970032","name":"Netphen, Stadt","type":"Stadt"},"district":{"key":"05970","name":"Siegen-Wittgenstein","type":"Kreis"},"federalState":{"key":"05","name":"Nordrhein-Westfalen"}},{"name":"Netphener Weg","postalCode":"57250","locality":"Netphen","municipality":{"key":"05970032","name":"Netphen, Stadt","type":"Stadt"},"district":{"key":"05970","name":"Siegen-Wittgenstein","type":"Kreis"},"federalState":{"key":"05","name":"Nordrhein-Westfalen"}},{"name":"Neuwiese","postalCode":"57250","locality":"Netphen","municipality":{"key":"05970032","name":"Netphen, Stadt","type":"Stadt"},"district":{"key":"05970","name":"Siegen-Wittgenstein","type":"Kreis"},"federalState":{"key":"05","name":"Nordrhein-Westfalen"}},{"name":"Nöckelstr.","postalCode":"57250","locality":"Netphen","municipality":{"key":"05970032","name":"Netphen, Stadt","type":"Stadt"},"district":{"key":"05970","name":"Siegen-Wittgenstein","type":"Kreis"},"federalState":{"key":"05","name":"Nordrhein-Westfalen"}},{"name":"Obere Industriestr.","postalCode":"57250","locality":"Netphen","municipality":{"key":"05970032","name":"Netphen, Stadt","type":"Stadt"},"district":{"key":"05970","name":"Siegen-Wittgenstein","type":"Kreis"},"federalState":{"key":"05","name":"Nordrhein-Westfalen"}},{"name":"Oberlinweg","postalCode":"57250","locality":"Netphen","municipality":{"key":"05970032","name":"Netphen, Stadt","type":"Stadt"},"district":{"key":"05970","name":"Siegen-Wittgenstein","type":"Kreis"},"federalState":{"key":"05","name":"Nordrhein-Westfalen"}},{"name":"Obernauer Weg","postalCode":"57250","locality":"Netphen","municipality":{"key":"05970032","name":"Netphen, Stadt","type":"Stadt"},"district":{"key":"05970","name":"Siegen-Wittgenstein","type":"Kreis"},"federalState":{"key":"05","name":"Nordrhein-Westfalen"}},{"name":"Oberstr.","postalCode":"57250","locality":"Netphen","municipality":{"key":"05970032","name":"Netphen, Stadt","type":"Stadt"},"district":{"key":"05970","name":"Siegen-Wittgenstein","type":"Kreis"},"federalState":{"key":"05","name":"Nordrhein-Westfalen"}},{"name":"Ockersdorf","postalCode":"57250","locality":"Netphen","municipality":{"key":"05970032","name":"Netphen, Stadt","type":"Stadt"},"district":{"key":"05970","name":"Siegen-Wittgenstein","type":"Kreis"},"federalState":{"key":"05","name":"Nordrhein-Westfalen"}},{"name":"Oelgershausener Str.","postalCode":"57250","locality":"Netphen","municipality":{"key":"05970032","name":"Netphen, Stadt","type":"Stadt"},"district":{"key":"05970","name":"Siegen-Wittgenstein","type":"Kreis"},"federalState":{"key":"05","name":"Nordrhein-Westfalen"}},{"name":"Oranienstr.","postalCode":"57250","locality":"Netphen","municipality":{"key":"05970032","name":"Netphen, Stadt","type":"Stadt"},"district":{"key":"05970","name":"Siegen-Wittgenstein","type":"Kreis"},"federalState":{"key":"05","name":"Nordrhein-Westfalen"}},{"name":"Orchideenweg","postalCode":"57250","locality":"Netphen","municipality":{"key":"05970032","name":"Netphen, Stadt","type":"Stadt"},"district":{"key":"05970","name":"Siegen-Wittgenstein","type":"Kreis"},"federalState":{"key":"05","name":"Nordrhein-Westfalen"}},{"name":"Oskar-Waldrich-Weg","postalCode":"57250","locality":"Netphen","municipality":{"key":"05970032","name":"Netphen, Stadt","type":"Stadt"},"district":{"key":"05970","name":"Siegen-Wittgenstein","type":"Kreis"},"federalState":{"key":"05","name":"Nordrhein-Westfalen"}},{"name":"Oststr.","postalCode":"57250","locality":"Netphen","municipality":{"key":"05970032","name":"Netphen, Stadt","type":"Stadt"},"district":{"key":"05970","name":"Siegen-Wittgenstein","type":"Kreis"},"federalState":{"key":"05","name":"Nordrhein-Westfalen"}},{"name":"Pappelweg","postalCode":"57250","locality":"Netphen","municipality":{"key":"05970032","name":"Netphen, Stadt","type":"Stadt"},"district":{"key":"05970","name":"Siegen-Wittgenstein","type":"Kreis"},"federalState":{"key":"05","name":"Nordrhein-Westfalen"}},{"name":"Pestalozzistr.","postalCode":"57250","locality":"Netphen","municipality":{"key":"05970032","name":"Netphen, Stadt","type":"Stadt"},"district":{"key":"05970","name":"Siegen-Wittgenstein","type":"Kreis"},"federalState":{"key":"05","name":"Nordrhein-Westfalen"}},{"name":"Pfarrbergweg","postalCode":"57250","locality":"Netphen","municipality":{"key":"05970032","name":"Netphen, Stadt","type":"Stadt"},"district":{"key":"05970","name":"Siegen-Wittgenstein","type":"Kreis"},"federalState":{"key":"05","name":"Nordrhein-Westfalen"}},{"name":"Poststr.","postalCode":"57250","locality":"Netphen","municipality":{"key":"05970032","name":"Netphen, Stadt","type":"Stadt"},"district":{"key":"05970","name":"Siegen-Wittgenstein","type":"Kreis"},"federalState":{"key":"05","name":"Nordrhein-Westfalen"}},{"name":"Querstr.","postalCode":"57250","locality":"Netphen","municipality":{"key":"05970032","name":"Netphen, Stadt","type":"Stadt"},"district":{"key":"05970","name":"Siegen-Wittgenstein","type":"Kreis"},"federalState":{"key":"05","name":"Nordrhein-Westfalen"}},{"name":"Raiffeisenweg","postalCode":"57250","locality":"Netphen","municipality":{"key":"05970032","name":"Netphen, Stadt","type":"Stadt"},"district":{"key":"05970","name":"Siegen-Wittgenstein","type":"Kreis"},"federalState":{"key":"05","name":"Nordrhein-Westfalen"}},{"name":"Rehweg","postalCode":"57250","locality":"Netphen","municipality":{"key":"05970032","name":"Netphen, Stadt","type":"Stadt"},"district":{"key":"05970","name":"Siegen-Wittgenstein","type":"Kreis"},"federalState":{"key":"05","name":"Nordrhein-Westfalen"}},{"name":"Richard-Wagner-Weg","postalCode":"57250","locality":"Netphen","municipality":{"key":"05970032","name":"Netphen, Stadt","type":"Stadt"},"district":{"key":"05970","name":"Siegen-Wittgenstein","type":"Kreis"},"federalState":{"key":"05","name":"Nordrhein-Westfalen"}},{"name":"Ringstr.","postalCode":"57250","locality":"Netphen","municipality":{"key":"05970032","name":"Netphen, Stadt","type":"Stadt"},"district":{"key":"05970","name":"Siegen-Wittgenstein","type":"Kreis"},"federalState":{"key":"05","name":"Nordrhein-Westfalen"}},{"name":"Ritterstr.","postalCode":"57250","locality":"Netphen","municipality":{"key":"05970032","name":"Netphen, Stadt","type":"Stadt"},"district":{"key":"05970","name":"Siegen-Wittgenstein","type":"Kreis"},"federalState":{"key":"05","name":"Nordrhein-Westfalen"}},{"name":"Rödchenweg","postalCode":"57250","locality":"Netphen","municipality":{"key":"05970032","name":"Netphen, Stadt","type":"Stadt"},"district":{"key":"05970","name":"Siegen-Wittgenstein","type":"Kreis"},"federalState":{"key":"05","name":"Nordrhein-Westfalen"}},{"name":"Rosenstr.","postalCode":"57250","locality":"Netphen","municipality":{"key":"05970032","name":"Netphen, Stadt","type":"Stadt"},"district":{"key":"05970","name":"Siegen-Wittgenstein","type":"Kreis"},"federalState":{"key":"05","name":"Nordrhein-Westfalen"}},{"name":"Rösestr.","postalCode":"57250","locality":"Netphen","municipality":{"key":"05970032","name":"Netphen, Stadt","type":"Stadt"},"district":{"key":"05970","name":"Siegen-Wittgenstein","type":"Kreis"},"federalState":{"key":"05","name":"Nordrhein-Westfalen"}},{"name":"Rotdornweg","postalCode":"57250","locality":"Netphen","municipality":{"key":"05970032","name":"Netphen, Stadt","type":"Stadt"},"district":{"key":"05970","name":"Siegen-Wittgenstein","type":"Kreis"},"federalState":{"key":"05","name":"Nordrhein-Westfalen"}},{"name":"Rothaarsteig","postalCode":"57250","locality":"Netphen","municipality":{"key":"05970032","name":"Netphen, Stadt","type":"Stadt"},"district":{"key":"05970","name":"Siegen-Wittgenstein","type":"Kreis"},"federalState":{"key":"05","name":"Nordrhein-Westfalen"}},{"name":"Ruckersfelder Str.","postalCode":"57250","locality":"Netphen","municipality":{"key":"05970032","name":"Netphen, Stadt","type":"Stadt"},"district":{"key":"05970","name":"Siegen-Wittgenstein","type":"Kreis"},"federalState":{"key":"05","name":"Nordrhein-Westfalen"}},{"name":"Rudersdorfer Str.","postalCode":"57250","locality":"Netphen","municipality":{"key":"05970032","name":"Netphen, Stadt","type":"Stadt"},"district":{"key":"05970","name":"Siegen-Wittgenstein","type":"Kreis"},"federalState":{"key":"05","name":"Nordrhein-Westfalen"}},{"name":"Sandhellerweg","postalCode":"57250","locality":"Netphen","municipality":{"key":"05970032","name":"Netphen, Stadt","type":"Stadt"},"district":{"key":"05970","name":"Siegen-Wittgenstein","type":"Kreis"},"federalState":{"key":"05","name":"Nordrhein-Westfalen"}},{"name":"Sangstr.","postalCode":"57250","locality":"Netphen","municipality":{"key":"05970032","name":"Netphen, Stadt","type":"Stadt"},"district":{"key":"05970","name":"Siegen-Wittgenstein","type":"Kreis"},"federalState":{"key":"05","name":"Nordrhein-Westfalen"}},{"name":"Sankt-Hubertus-Str.","postalCode":"57250","locality":"Netphen","municipality":{"key":"05970032","name":"Netphen, Stadt","type":"Stadt"},"district":{"key":"05970","name":"Siegen-Wittgenstein","type":"Kreis"},"federalState":{"key":"05","name":"Nordrhein-Westfalen"}},{"name":"Sankt-Peters-Platz","postalCode":"57250","locality":"Netphen","municipality":{"key":"05970032","name":"Netphen, Stadt","type":"Stadt"},"district":{"key":"05970","name":"Siegen-Wittgenstein","type":"Kreis"},"federalState":{"key":"05","name":"Nordrhein-Westfalen"}},{"name":"Sankt-Sebastian-Str.","postalCode":"57250","locality":"Netphen","municipality":{"key":"05970032","name":"Netphen, Stadt","type":"Stadt"},"district":{"key":"05970","name":"Siegen-Wittgenstein","type":"Kreis"},"federalState":{"key":"05","name":"Nordrhein-Westfalen"}},{"name":"Sattelweg","postalCode":"57250","locality":"Netphen","municipality":{"key":"05970032","name":"Netphen, Stadt","type":"Stadt"},"district":{"key":"05970","name":"Siegen-Wittgenstein","type":"Kreis"},"federalState":{"key":"05","name":"Nordrhein-Westfalen"}},{"name":"Schießbergstr.","postalCode":"57250","locality":"Netphen","municipality":{"key":"05970032","name":"Netphen, Stadt","type":"Stadt"},"district":{"key":"05970","name":"Siegen-Wittgenstein","type":"Kreis"},"federalState":{"key":"05","name":"Nordrhein-Westfalen"}},{"name":"Schillerstr.","postalCode":"57250","locality":"Netphen","municipality":{"key":"05970032","name":"Netphen, Stadt","type":"Stadt"},"district":{"key":"05970","name":"Siegen-Wittgenstein","type":"Kreis"},"federalState":{"key":"05","name":"Nordrhein-Westfalen"}},{"name":"Schimmelfederweg","postalCode":"57250","locality":"Netphen","municipality":{"key":"05970032","name":"Netphen, Stadt","type":"Stadt"},"district":{"key":"05970","name":"Siegen-Wittgenstein","type":"Kreis"},"federalState":{"key":"05","name":"Nordrhein-Westfalen"}},{"name":"Schläfergarten","postalCode":"57250","locality":"Netphen","municipality":{"key":"05970032","name":"Netphen, Stadt","type":"Stadt"},"district":{"key":"05970","name":"Siegen-Wittgenstein","type":"Kreis"},"federalState":{"key":"05","name":"Nordrhein-Westfalen"}},{"name":"Schlehdornweg","postalCode":"57250","locality":"Netphen","municipality":{"key":"05970032","name":"Netphen, Stadt","type":"Stadt"},"district":{"key":"05970","name":"Siegen-Wittgenstein","type":"Kreis"},"federalState":{"key":"05","name":"Nordrhein-Westfalen"}},{"name":"Schloßstr.","postalCode":"57250","locality":"Netphen","municipality":{"key":"05970032","name":"Netphen, Stadt","type":"Stadt"},"district":{"key":"05970","name":"Siegen-Wittgenstein","type":"Kreis"},"federalState":{"key":"05","name":"Nordrhein-Westfalen"}},{"name":"Schmittenwiese","postalCode":"57250","locality":"Netphen","municipality":{"key":"05970032","name":"Netphen, Stadt","type":"Stadt"},"district":{"key":"05970","name":"Siegen-Wittgenstein","type":"Kreis"},"federalState":{"key":"05","name":"Nordrhein-Westfalen"}},{"name":"Schömelstr.","postalCode":"57250","locality":"Netphen","municipality":{"key":"05970032","name":"Netphen, Stadt","type":"Stadt"},"district":{"key":"05970","name":"Siegen-Wittgenstein","type":"Kreis"},"federalState":{"key":"05","name":"Nordrhein-Westfalen"}},{"name":"Schulstr.","postalCode":"57250","locality":"Netphen","municipality":{"key":"05970032","name":"Netphen, Stadt","type":"Stadt"},"district":{"key":"05970","name":"Siegen-Wittgenstein","type":"Kreis"},"federalState":{"key":"05","name":"Nordrhein-Westfalen"}},{"name":"Schumannweg","postalCode":"57250","locality":"Netphen","municipality":{"key":"05970032","name":"Netphen, Stadt","type":"Stadt"},"district":{"key":"05970","name":"Siegen-Wittgenstein","type":"Kreis"},"federalState":{"key":"05","name":"Nordrhein-Westfalen"}},{"name":"Schürenstr.","postalCode":"57250","locality":"Netphen","municipality":{"key":"05970032","name":"Netphen, Stadt","type":"Stadt"},"district":{"key":"05970","name":"Siegen-Wittgenstein","type":"Kreis"},"federalState":{"key":"05","name":"Nordrhein-Westfalen"}},{"name":"Schützenweg","postalCode":"57250","locality":"Netphen","municipality":{"key":"05970032","name":"Netphen, Stadt","type":"Stadt"},"district":{"key":"05970","name":"Siegen-Wittgenstein","type":"Kreis"},"federalState":{"key":"05","name":"Nordrhein-Westfalen"}},{"name":"Schwalbenweg","postalCode":"57250","locality":"Netphen","municipality":{"key":"05970032","name":"Netphen, Stadt","type":"Stadt"},"district":{"key":"05970","name":"Siegen-Wittgenstein","type":"Kreis"},"federalState":{"key":"05","name":"Nordrhein-Westfalen"}},{"name":"Sehlbachstr.","postalCode":"57250","locality":"Netphen","municipality":{"key":"05970032","name":"Netphen, Stadt","type":"Stadt"},"district":{"key":"05970","name":"Siegen-Wittgenstein","type":"Kreis"},"federalState":{"key":"05","name":"Nordrhein-Westfalen"}},{"name":"Seifenwiese","postalCode":"57250","locality":"Netphen","municipality":{"key":"05970032","name":"Netphen, Stadt","type":"Stadt"},"district":{"key":"05970","name":"Siegen-Wittgenstein","type":"Kreis"},"federalState":{"key":"05","name":"Nordrhein-Westfalen"}},{"name":"Seitenweg","postalCode":"57250","locality":"Netphen","municipality":{"key":"05970032","name":"Netphen, Stadt","type":"Stadt"},"district":{"key":"05970","name":"Siegen-Wittgenstein","type":"Kreis"},"federalState":{"key":"05","name":"Nordrhein-Westfalen"}},{"name":"Setzer Weg","postalCode":"57250","locality":"Netphen","municipality":{"key":"05970032","name":"Netphen, Stadt","type":"Stadt"},"district":{"key":"05970","name":"Siegen-Wittgenstein","type":"Kreis"},"federalState":{"key":"05","name":"Nordrhein-Westfalen"}},{"name":"Siegener Str.","postalCode":"57250","locality":"Netphen","municipality":{"key":"05970032","name":"Netphen, Stadt","type":"Stadt"},"district":{"key":"05970","name":"Siegen-Wittgenstein","type":"Kreis"},"federalState":{"key":"05","name":"Nordrhein-Westfalen"}},{"name":"Sieg-Lahn-Str.","postalCode":"57250","locality":"Netphen","municipality":{"key":"05970032","name":"Netphen, Stadt","type":"Stadt"},"district":{"key":"05970","name":"Siegen-Wittgenstein","type":"Kreis"},"federalState":{"key":"05","name":"Nordrhein-Westfalen"}},{"name":"Siegstr.","postalCode":"57250","locality":"Netphen","municipality":{"key":"05970032","name":"Netphen, Stadt","type":"Stadt"},"district":{"key":"05970","name":"Siegen-Wittgenstein","type":"Kreis"},"federalState":{"key":"05","name":"Nordrhein-Westfalen"}},{"name":"Siegtalstr.","postalCode":"57250","locality":"Netphen","municipality":{"key":"05970032","name":"Netphen, Stadt","type":"Stadt"},"district":{"key":"05970","name":"Siegen-Wittgenstein","type":"Kreis"},"federalState":{"key":"05","name":"Nordrhein-Westfalen"}},{"name":"Simmelsbach","postalCode":"57250","locality":"Netphen","municipality":{"key":"05970032","name":"Netphen, Stadt","type":"Stadt"},"district":{"key":"05970","name":"Siegen-Wittgenstein","type":"Kreis"},"federalState":{"key":"05","name":"Nordrhein-Westfalen"}},{"name":"Sohlbacher Str.","postalCode":"57250","locality":"Netphen","municipality":{"key":"05970032","name":"Netphen, Stadt","type":"Stadt"},"district":{"key":"05970","name":"Siegen-Wittgenstein","type":"Kreis"},"federalState":{"key":"05","name":"Nordrhein-Westfalen"}},{"name":"Sohler Weg","postalCode":"57250","locality":"Netphen","municipality":{"key":"05970032","name":"Netphen, Stadt","type":"Stadt"},"district":{"key":"05970","name":"Siegen-Wittgenstein","type":"Kreis"},"federalState":{"key":"05","name":"Nordrhein-Westfalen"}},{"name":"Sonnenhof","postalCode":"57250","locality":"Netphen","municipality":{"key":"05970032","name":"Netphen, Stadt","type":"Stadt"},"district":{"key":"05970","name":"Siegen-Wittgenstein","type":"Kreis"},"federalState":{"key":"05","name":"Nordrhein-Westfalen"}},{"name":"Sonnenweg","postalCode":"57250","locality":"Netphen","municipality":{"key":"05970032","name":"Netphen, Stadt","type":"Stadt"},"district":{"key":"05970","name":"Siegen-Wittgenstein","type":"Kreis"},"federalState":{"key":"05","name":"Nordrhein-Westfalen"}},{"name":"Starenweg","postalCode":"57250","locality":"Netphen","municipality":{"key":"05970032","name":"Netphen, Stadt","type":"Stadt"},"district":{"key":"05970","name":"Siegen-Wittgenstein","type":"Kreis"},"federalState":{"key":"05","name":"Nordrhein-Westfalen"}},{"name":"Stauffenbergstr.","postalCode":"57250","locality":"Netphen","municipality":{"key":"05970032","name":"Netphen, Stadt","type":"Stadt"},"district":{"key":"05970","name":"Siegen-Wittgenstein","type":"Kreis"},"federalState":{"key":"05","name":"Nordrhein-Westfalen"}},{"name":"Steilweg","postalCode":"57250","locality":"Netphen","municipality":{"key":"05970032","name":"Netphen, Stadt","type":"Stadt"},"district":{"key":"05970","name":"Siegen-Wittgenstein","type":"Kreis"},"federalState":{"key":"05","name":"Nordrhein-Westfalen"}},{"name":"Steiniger Weg","postalCode":"57250","locality":"Netphen","municipality":{"key":"05970032","name":"Netphen, Stadt","type":"Stadt"},"district":{"key":"05970","name":"Siegen-Wittgenstein","type":"Kreis"},"federalState":{"key":"05","name":"Nordrhein-Westfalen"}},{"name":"Steinweg","postalCode":"57250","locality":"Netphen","municipality":{"key":"05970032","name":"Netphen, Stadt","type":"Stadt"},"district":{"key":"05970","name":"Siegen-Wittgenstein","type":"Kreis"},"federalState":{"key":"05","name":"Nordrhein-Westfalen"}},{"name":"Sterndellweg","postalCode":"57250","locality":"Netphen","municipality":{"key":"05970032","name":"Netphen, Stadt","type":"Stadt"},"district":{"key":"05970","name":"Siegen-Wittgenstein","type":"Kreis"},"federalState":{"key":"05","name":"Nordrhein-Westfalen"}},{"name":"Sternweg","postalCode":"57250","locality":"Netphen","municipality":{"key":"05970032","name":"Netphen, Stadt","type":"Stadt"},"district":{"key":"05970","name":"Siegen-Wittgenstein","type":"Kreis"},"federalState":{"key":"05","name":"Nordrhein-Westfalen"}},{"name":"Stettiner Str.","postalCode":"57250","locality":"Netphen","municipality":{"key":"05970032","name":"Netphen, Stadt","type":"Stadt"},"district":{"key":"05970","name":"Siegen-Wittgenstein","type":"Kreis"},"federalState":{"key":"05","name":"Nordrhein-Westfalen"}},{"name":"Struthweg","postalCode":"57250","locality":"Netphen","municipality":{"key":"05970032","name":"Netphen, Stadt","type":"Stadt"},"district":{"key":"05970","name":"Siegen-Wittgenstein","type":"Kreis"},"federalState":{"key":"05","name":"Nordrhein-Westfalen"}},{"name":"Stückeplätze","postalCode":"57250","locality":"Netphen","municipality":{"key":"05970032","name":"Netphen, Stadt","type":"Stadt"},"district":{"key":"05970","name":"Siegen-Wittgenstein","type":"Kreis"},"federalState":{"key":"05","name":"Nordrhein-Westfalen"}},{"name":"Südstr.","postalCode":"57250","locality":"Netphen","municipality":{"key":"05970032","name":"Netphen, Stadt","type":"Stadt"},"district":{"key":"05970","name":"Siegen-Wittgenstein","type":"Kreis"},"federalState":{"key":"05","name":"Nordrhein-Westfalen"}},{"name":"Talstr.","postalCode":"57250","locality":"Netphen","municipality":{"key":"05970032","name":"Netphen, Stadt","type":"Stadt"},"district":{"key":"05970","name":"Siegen-Wittgenstein","type":"Kreis"},"federalState":{"key":"05","name":"Nordrhein-Westfalen"}},{"name":"Tannenkopfstr.","postalCode":"57250","locality":"Netphen","municipality":{"key":"05970032","name":"Netphen, Stadt","type":"Stadt"},"district":{"key":"05970","name":"Siegen-Wittgenstein","type":"Kreis"},"federalState":{"key":"05","name":"Nordrhein-Westfalen"}},{"name":"Tannenstr.","postalCode":"57250","locality":"Netphen","municipality":{"key":"05970032","name":"Netphen, Stadt","type":"Stadt"},"district":{"key":"05970","name":"Siegen-Wittgenstein","type":"Kreis"},"federalState":{"key":"05","name":"Nordrhein-Westfalen"}},{"name":"Theodor-Fliedner-Weg","postalCode":"57250","locality":"Netphen","municipality":{"key":"05970032","name":"Netphen, Stadt","type":"Stadt"},"district":{"key":"05970","name":"Siegen-Wittgenstein","type":"Kreis"},"federalState":{"key":"05","name":"Nordrhein-Westfalen"}},{"name":"Theodor-Noa-Str.","postalCode":"57250","locality":"Netphen","municipality":{"key":"05970032","name":"Netphen, Stadt","type":"Stadt"},"district":{"key":"05970","name":"Siegen-Wittgenstein","type":"Kreis"},"federalState":{"key":"05","name":"Nordrhein-Westfalen"}},{"name":"Tiefenbacher Str.","postalCode":"57250","locality":"Netphen","municipality":{"key":"05970032","name":"Netphen, Stadt","type":"Stadt"},"district":{"key":"05970","name":"Siegen-Wittgenstein","type":"Kreis"},"federalState":{"key":"05","name":"Nordrhein-Westfalen"}},{"name":"Tilsiter Str.","postalCode":"57250","locality":"Netphen","municipality":{"key":"05970032","name":"Netphen, Stadt","type":"Stadt"},"district":{"key":"05970","name":"Siegen-Wittgenstein","type":"Kreis"},"federalState":{"key":"05","name":"Nordrhein-Westfalen"}},{"name":"Töpferweg","postalCode":"57250","locality":"Netphen","municipality":{"key":"05970032","name":"Netphen, Stadt","type":"Stadt"},"district":{"key":"05970","name":"Siegen-Wittgenstein","type":"Kreis"},"federalState":{"key":"05","name":"Nordrhein-Westfalen"}},{"name":"Torrbach","postalCode":"57250","locality":"Netphen","municipality":{"key":"05970032","name":"Netphen, Stadt","type":"Stadt"},"district":{"key":"05970","name":"Siegen-Wittgenstein","type":"Kreis"},"federalState":{"key":"05","name":"Nordrhein-Westfalen"}},{"name":"Torstr.","postalCode":"57250","locality":"Netphen","municipality":{"key":"05970032","name":"Netphen, Stadt","type":"Stadt"},"district":{"key":"05970","name":"Siegen-Wittgenstein","type":"Kreis"},"federalState":{"key":"05","name":"Nordrhein-Westfalen"}},{"name":"Tulpenweg","postalCode":"57250","locality":"Netphen","municipality":{"key":"05970032","name":"Netphen, Stadt","type":"Stadt"},"district":{"key":"05970","name":"Siegen-Wittgenstein","type":"Kreis"},"federalState":{"key":"05","name":"Nordrhein-Westfalen"}},{"name":"Uferstr.","postalCode":"57250","locality":"Netphen","municipality":{"key":"05970032","name":"Netphen, Stadt","type":"Stadt"},"district":{"key":"05970","name":"Siegen-Wittgenstein","type":"Kreis"},"federalState":{"key":"05","name":"Nordrhein-Westfalen"}},{"name":"Uhlandstr.","postalCode":"57250","locality":"Netphen","municipality":{"key":"05970032","name":"Netphen, Stadt","type":"Stadt"},"district":{"key":"05970","name":"Siegen-Wittgenstein","type":"Kreis"},"federalState":{"key":"05","name":"Nordrhein-Westfalen"}},{"name":"Ulmenweg","postalCode":"57250","locality":"Netphen","municipality":{"key":"05970032","name":"Netphen, Stadt","type":"Stadt"},"district":{"key":"05970","name":"Siegen-Wittgenstein","type":"Kreis"},"federalState":{"key":"05","name":"Nordrhein-Westfalen"}},{"name":"Unglinghausener Str.","postalCode":"57250","locality":"Netphen","municipality":{"key":"05970032","name":"Netphen, Stadt","type":"Stadt"},"district":{"key":"05970","name":"Siegen-Wittgenstein","type":"Kreis"},"federalState":{"key":"05","name":"Nordrhein-Westfalen"}},{"name":"Unter den Grabenbäumen","postalCode":"57250","locality":"Netphen","municipality":{"key":"05970032","name":"Netphen, Stadt","type":"Stadt"},"district":{"key":"05970","name":"Siegen-Wittgenstein","type":"Kreis"},"federalState":{"key":"05","name":"Nordrhein-Westfalen"}},{"name":"Unter den Linden","postalCode":"57250","locality":"Netphen","municipality":{"key":"05970032","name":"Netphen, Stadt","type":"Stadt"},"district":{"key":"05970","name":"Siegen-Wittgenstein","type":"Kreis"},"federalState":{"key":"05","name":"Nordrhein-Westfalen"}},{"name":"Untere Industriestr.","postalCode":"57250","locality":"Netphen","municipality":{"key":"05970032","name":"Netphen, Stadt","type":"Stadt"},"district":{"key":"05970","name":"Siegen-Wittgenstein","type":"Kreis"},"federalState":{"key":"05","name":"Nordrhein-Westfalen"}},{"name":"Unterm Dorf","postalCode":"57250","locality":"Netphen","municipality":{"key":"05970032","name":"Netphen, Stadt","type":"Stadt"},"district":{"key":"05970","name":"Siegen-Wittgenstein","type":"Kreis"},"federalState":{"key":"05","name":"Nordrhein-Westfalen"}},{"name":"Unterm Kieselstein","postalCode":"57250","locality":"Netphen","municipality":{"key":"05970032","name":"Netphen, Stadt","type":"Stadt"},"district":{"key":"05970","name":"Siegen-Wittgenstein","type":"Kreis"},"federalState":{"key":"05","name":"Nordrhein-Westfalen"}},{"name":"Unterm Rain","postalCode":"57250","locality":"Netphen","municipality":{"key":"05970032","name":"Netphen, Stadt","type":"Stadt"},"district":{"key":"05970","name":"Siegen-Wittgenstein","type":"Kreis"},"federalState":{"key":"05","name":"Nordrhein-Westfalen"}},{"name":"Unterm Wäldchen","postalCode":"57250","locality":"Netphen","municipality":{"key":"05970032","name":"Netphen, Stadt","type":"Stadt"},"district":{"key":"05970","name":"Siegen-Wittgenstein","type":"Kreis"},"federalState":{"key":"05","name":"Nordrhein-Westfalen"}},{"name":"Unterm Wasser","postalCode":"57250","locality":"Netphen","municipality":{"key":"05970032","name":"Netphen, Stadt","type":"Stadt"},"district":{"key":"05970","name":"Siegen-Wittgenstein","type":"Kreis"},"federalState":{"key":"05","name":"Nordrhein-Westfalen"}},{"name":"Veilchenweg","postalCode":"57250","locality":"Netphen","municipality":{"key":"05970032","name":"Netphen, Stadt","type":"Stadt"},"district":{"key":"05970","name":"Siegen-Wittgenstein","type":"Kreis"},"federalState":{"key":"05","name":"Nordrhein-Westfalen"}},{"name":"Viehweg","postalCode":"57250","locality":"Netphen","municipality":{"key":"05970032","name":"Netphen, Stadt","type":"Stadt"},"district":{"key":"05970","name":"Siegen-Wittgenstein","type":"Kreis"},"federalState":{"key":"05","name":"Nordrhein-Westfalen"}},{"name":"Volnsberger Str.","postalCode":"57250","locality":"Netphen","municipality":{"key":"05970032","name":"Netphen, Stadt","type":"Stadt"},"district":{"key":"05970","name":"Siegen-Wittgenstein","type":"Kreis"},"federalState":{"key":"05","name":"Nordrhein-Westfalen"}},{"name":"Von-Bicken-Weg","postalCode":"57250","locality":"Netphen","municipality":{"key":"05970032","name":"Netphen, Stadt","type":"Stadt"},"district":{"key":"05970","name":"Siegen-Wittgenstein","type":"Kreis"},"federalState":{"key":"05","name":"Nordrhein-Westfalen"}},{"name":"Von-Galen-Str.","postalCode":"57250","locality":"Netphen","municipality":{"key":"05970032","name":"Netphen, Stadt","type":"Stadt"},"district":{"key":"05970","name":"Siegen-Wittgenstein","type":"Kreis"},"federalState":{"key":"05","name":"Nordrhein-Westfalen"}},{"name":"Von-Moltke-Str.","postalCode":"57250","locality":"Netphen","municipality":{"key":"05970032","name":"Netphen, Stadt","type":"Stadt"},"district":{"key":"05970","name":"Siegen-Wittgenstein","type":"Kreis"},"federalState":{"key":"05","name":"Nordrhein-Westfalen"}},{"name":"Vor den Kreuzen","postalCode":"57250","locality":"Netphen","municipality":{"key":"05970032","name":"Netphen, Stadt","type":"Stadt"},"district":{"key":"05970","name":"Siegen-Wittgenstein","type":"Kreis"},"federalState":{"key":"05","name":"Nordrhein-Westfalen"}},{"name":"Vor der Haardt","postalCode":"57250","locality":"Netphen","municipality":{"key":"05970032","name":"Netphen, Stadt","type":"Stadt"},"district":{"key":"05970","name":"Siegen-Wittgenstein","type":"Kreis"},"federalState":{"key":"05","name":"Nordrhein-Westfalen"}},{"name":"Vor der Hembach","postalCode":"57250","locality":"Netphen","municipality":{"key":"05970032","name":"Netphen, Stadt","type":"Stadt"},"district":{"key":"05970","name":"Siegen-Wittgenstein","type":"Kreis"},"federalState":{"key":"05","name":"Nordrhein-Westfalen"}},{"name":"Vor der Hurth","postalCode":"57250","locality":"Netphen","municipality":{"key":"05970032","name":"Netphen, Stadt","type":"Stadt"},"district":{"key":"05970","name":"Siegen-Wittgenstein","type":"Kreis"},"federalState":{"key":"05","name":"Nordrhein-Westfalen"}},{"name":"Vor der Noll","postalCode":"57250","locality":"Netphen","municipality":{"key":"05970032","name":"Netphen, Stadt","type":"Stadt"},"district":{"key":"05970","name":"Siegen-Wittgenstein","type":"Kreis"},"federalState":{"key":"05","name":"Nordrhein-Westfalen"}},{"name":"Vor der Sang","postalCode":"57250","locality":"Netphen","municipality":{"key":"05970032","name":"Netphen, Stadt","type":"Stadt"},"district":{"key":"05970","name":"Siegen-Wittgenstein","type":"Kreis"},"federalState":{"key":"05","name":"Nordrhein-Westfalen"}},{"name":"Vor der Winterbach","postalCode":"57250","locality":"Netphen","municipality":{"key":"05970032","name":"Netphen, Stadt","type":"Stadt"},"district":{"key":"05970","name":"Siegen-Wittgenstein","type":"Kreis"},"federalState":{"key":"05","name":"Nordrhein-Westfalen"}},{"name":"Vorm Breitenberg","postalCode":"57250","locality":"Netphen","municipality":{"key":"05970032","name":"Netphen, Stadt","type":"Stadt"},"district":{"key":"05970","name":"Siegen-Wittgenstein","type":"Kreis"},"federalState":{"key":"05","name":"Nordrhein-Westfalen"}},{"name":"Vorm Buchwald","postalCode":"57250","locality":"Netphen","municipality":{"key":"05970032","name":"Netphen, Stadt","type":"Stadt"},"district":{"key":"05970","name":"Siegen-Wittgenstein","type":"Kreis"},"federalState":{"key":"05","name":"Nordrhein-Westfalen"}},{"name":"Vorm Eichhölzchen","postalCode":"57250","locality":"Netphen","municipality":{"key":"05970032","name":"Netphen, Stadt","type":"Stadt"},"district":{"key":"05970","name":"Siegen-Wittgenstein","type":"Kreis"},"federalState":{"key":"05","name":"Nordrhein-Westfalen"}},{"name":"Vorm Hügel","postalCode":"57250","locality":"Netphen","municipality":{"key":"05970032","name":"Netphen, Stadt","type":"Stadt"},"district":{"key":"05970","name":"Siegen-Wittgenstein","type":"Kreis"},"federalState":{"key":"05","name":"Nordrhein-Westfalen"}},{"name":"Vorm Seifchen","postalCode":"57250","locality":"Netphen","municipality":{"key":"05970032","name":"Netphen, Stadt","type":"Stadt"},"district":{"key":"05970","name":"Siegen-Wittgenstein","type":"Kreis"},"federalState":{"key":"05","name":"Nordrhein-Westfalen"}},{"name":"Vorm Wald","postalCode":"57250","locality":"Netphen","municipality":{"key":"05970032","name":"Netphen, Stadt","type":"Stadt"},"district":{"key":"05970","name":"Siegen-Wittgenstein","type":"Kreis"},"federalState":{"key":"05","name":"Nordrhein-Westfalen"}},{"name":"Wachtelweg","postalCode":"57250","locality":"Netphen","municipality":{"key":"05970032","name":"Netphen, Stadt","type":"Stadt"},"district":{"key":"05970","name":"Siegen-Wittgenstein","type":"Kreis"},"federalState":{"key":"05","name":"Nordrhein-Westfalen"}},{"name":"Waldenburger Str.","postalCode":"57250","locality":"Netphen","municipality":{"key":"05970032","name":"Netphen, Stadt","type":"Stadt"},"district":{"key":"05970","name":"Siegen-Wittgenstein","type":"Kreis"},"federalState":{"key":"05","name":"Nordrhein-Westfalen"}},{"name":"Waldstr.","postalCode":"57250","locality":"Netphen","municipality":{"key":"05970032","name":"Netphen, Stadt","type":"Stadt"},"district":{"key":"05970","name":"Siegen-Wittgenstein","type":"Kreis"},"federalState":{"key":"05","name":"Nordrhein-Westfalen"}},{"name":"Weidenauer Str.","postalCode":"57250","locality":"Netphen","municipality":{"key":"05970032","name":"Netphen, Stadt","type":"Stadt"},"district":{"key":"05970","name":"Siegen-Wittgenstein","type":"Kreis"},"federalState":{"key":"05","name":"Nordrhein-Westfalen"}},{"name":"Weideweg","postalCode":"57250","locality":"Netphen","municipality":{"key":"05970032","name":"Netphen, Stadt","type":"Stadt"},"district":{"key":"05970","name":"Siegen-Wittgenstein","type":"Kreis"},"federalState":{"key":"05","name":"Nordrhein-Westfalen"}},{"name":"Weiherdamm","postalCode":"57250","locality":"Netphen","municipality":{"key":"05970032","name":"Netphen, Stadt","type":"Stadt"},"district":{"key":"05970","name":"Siegen-Wittgenstein","type":"Kreis"},"federalState":{"key":"05","name":"Nordrhein-Westfalen"}},{"name":"Weiherstr.","postalCode":"57250","locality":"Netphen","municipality":{"key":"05970032","name":"Netphen, Stadt","type":"Stadt"},"district":{"key":"05970","name":"Siegen-Wittgenstein","type":"Kreis"},"federalState":{"key":"05","name":"Nordrhein-Westfalen"}},{"name":"Weißdornweg","postalCode":"57250","locality":"Netphen","municipality":{"key":"05970032","name":"Netphen, Stadt","type":"Stadt"},"district":{"key":"05970","name":"Siegen-Wittgenstein","type":"Kreis"},"federalState":{"key":"05","name":"Nordrhein-Westfalen"}},{"name":"Wernsbachstr.","postalCode":"57250","locality":"Netphen","municipality":{"key":"05970032","name":"Netphen, Stadt","type":"Stadt"},"district":{"key":"05970","name":"Siegen-Wittgenstein","type":"Kreis"},"federalState":{"key":"05","name":"Nordrhein-Westfalen"}},{"name":"Werthestr.","postalCode":"57250","locality":"Netphen","municipality":{"key":"05970032","name":"Netphen, Stadt","type":"Stadt"},"district":{"key":"05970","name":"Siegen-Wittgenstein","type":"Kreis"},"federalState":{"key":"05","name":"Nordrhein-Westfalen"}},{"name":"Wetzlarer Str.","postalCode":"57250","locality":"Netphen","municipality":{"key":"05970032","name":"Netphen, Stadt","type":"Stadt"},"district":{"key":"05970","name":"Siegen-Wittgenstein","type":"Kreis"},"federalState":{"key":"05","name":"Nordrhein-Westfalen"}},{"name":"Weyertshainstr.","postalCode":"57250","locality":"Netphen","municipality":{"key":"05970032","name":"Netphen, Stadt","type":"Stadt"},"district":{"key":"05970","name":"Siegen-Wittgenstein","type":"Kreis"},"federalState":{"key":"05","name":"Nordrhein-Westfalen"}},{"name":"Wichernstr.","postalCode":"57250","locality":"Netphen","municipality":{"key":"05970032","name":"Netphen, Stadt","type":"Stadt"},"district":{"key":"05970","name":"Siegen-Wittgenstein","type":"Kreis"},"federalState":{"key":"05","name":"Nordrhein-Westfalen"}},{"name":"Wiedichstr.","postalCode":"57250","locality":"Netphen","municipality":{"key":"05970032","name":"Netphen, Stadt","type":"Stadt"},"district":{"key":"05970","name":"Siegen-Wittgenstein","type":"Kreis"},"federalState":{"key":"05","name":"Nordrhein-Westfalen"}},{"name":"Wiesengarten","postalCode":"57250","locality":"Netphen","municipality":{"key":"05970032","name":"Netphen, Stadt","type":"Stadt"},"district":{"key":"05970","name":"Siegen-Wittgenstein","type":"Kreis"},"federalState":{"key":"05","name":"Nordrhein-Westfalen"}},{"name":"Wiesenstr.","postalCode":"57250","locality":"Netphen","municipality":{"key":"05970032","name":"Netphen, Stadt","type":"Stadt"},"district":{"key":"05970","name":"Siegen-Wittgenstein","type":"Kreis"},"federalState":{"key":"05","name":"Nordrhein-Westfalen"}},{"name":"Wilhelm-Bulk-Str.","postalCode":"57250","locality":"Netphen","municipality":{"key":"05970032","name":"Netphen, Stadt","type":"Stadt"},"district":{"key":"05970","name":"Siegen-Wittgenstein","type":"Kreis"},"federalState":{"key":"05","name":"Nordrhein-Westfalen"}},{"name":"Wilhelm-Schäfer-Weg","postalCode":"57250","locality":"Netphen","municipality":{"key":"05970032","name":"Netphen, Stadt","type":"Stadt"},"district":{"key":"05970","name":"Siegen-Wittgenstein","type":"Kreis"},"federalState":{"key":"05","name":"Nordrhein-Westfalen"}},{"name":"Wirkelandstr.","postalCode":"57250","locality":"Netphen","municipality":{"key":"05970032","name":"Netphen, Stadt","type":"Stadt"},"district":{"key":"05970","name":"Siegen-Wittgenstein","type":"Kreis"},"federalState":{"key":"05","name":"Nordrhein-Westfalen"}},{"name":"Wittgensteiner Str.","postalCode":"57250","locality":"Netphen","municipality":{"key":"05970032","name":"Netphen, Stadt","type":"Stadt"},"district":{"key":"05970","name":"Siegen-Wittgenstein","type":"Kreis"},"federalState":{"key":"05","name":"Nordrhein-Westfalen"}},{"name":"Wolfsbornstr.","postalCode":"57250","locality":"Netphen","municipality":{"key":"05970032","name":"Netphen, Stadt","type":"Stadt"},"district":{"key":"05970","name":"Siegen-Wittgenstein","type":"Kreis"},"federalState":{"key":"05","name":"Nordrhein-Westfalen"}},{"name":"Zaunstr.","postalCode":"57250","locality":"Netphen","municipality":{"key":"05970032","name":"Netphen, Stadt","type":"Stadt"},"district":{"key":"05970","name":"Siegen-Wittgenstein","type":"Kreis"},"federalState":{"key":"05","name":"Nordrhein-Westfalen"}},{"name":"Zeisigweg","postalCode":"57250","locality":"Netphen","municipality":{"key":"05970032","name":"Netphen, Stadt","type":"Stadt"},"district":{"key":"05970","name":"Siegen-Wittgenstein","type":"Kreis"},"federalState":{"key":"05","name":"Nordrhein-Westfalen"}},{"name":"Ziegeleistr.","postalCode":"57250","locality":"Netphen","municipality":{"key":"05970032","name":"Netphen, Stadt","type":"Stadt"},"district":{"key":"05970","name":"Siegen-Wittgenstein","type":"Kreis"},"federalState":{"key":"05","name":"Nordrhein-Westfalen"}},{"name":"Zinsenbach","postalCode":"57250","locality":"Netphen","municipality":{"key":"05970032","name":"Netphen, Stadt","type":"Stadt"},"district":{"key":"05970","name":"Siegen-Wittgenstein","type":"Kreis"},"federalState":{"key":"05","name":"Nordrhein-Westfalen"}},{"name":"Zum Heidegarten","postalCode":"57250","locality":"Netphen","municipality":{"key":"05970032","name":"Netphen, Stadt","type":"Stadt"},"district":{"key":"05970","name":"Siegen-Wittgenstein","type":"Kreis"},"federalState":{"key":"05","name":"Nordrhein-Westfalen"}},{"name":"Zum Mannsberg","postalCode":"57250","locality":"Netphen","municipality":{"key":"05970032","name":"Netphen, Stadt","type":"Stadt"},"district":{"key":"05970","name":"Siegen-Wittgenstein","type":"Kreis"},"federalState":{"key":"05","name":"Nordrhein-Westfalen"}},{"name":"Zum Rademächen","postalCode":"57250","locality":"Netphen","municipality":{"key":"05970032","name":"Netphen, Stadt","type":"Stadt"},"district":{"key":"05970","name":"Siegen-Wittgenstein","type":"Kreis"},"federalState":{"key":"05","name":"Nordrhein-Westfalen"}},{"name":"Zum Raumwäldchen","postalCode":"57250","locality":"Netphen","municipality":{"key":"05970032","name":"Netphen, Stadt","type":"Stadt"},"district":{"key":"05970","name":"Siegen-Wittgenstein","type":"Kreis"},"federalState":{"key":"05","name":"Nordrhein-Westfalen"}},{"name":"Zum Wehr","postalCode":"57250","locality":"Netphen","municipality":{"key":"05970032","name":"Netphen, Stadt","type":"Stadt"},"district":{"key":"05970","name":"Siegen-Wittgenstein","type":"Kreis"},"federalState":{"key":"05","name":"Nordrhein-Westfalen"}},{"name":"Zur alten Mühle","postalCode":"57250","locality":"Netphen","municipality":{"key":"05970032","name":"Netphen, Stadt","type":"Stadt"},"district":{"key":"05970","name":"Siegen-Wittgenstein","type":"Kreis"},"federalState":{"key":"05","name":"Nordrhein-Westfalen"}},{"name":"Zur Berschebach","postalCode":"57250","locality":"Netphen","municipality":{"key":"05970032","name":"Netphen, Stadt","type":"Stadt"},"district":{"key":"05970","name":"Siegen-Wittgenstein","type":"Kreis"},"federalState":{"key":"05","name":"Nordrhein-Westfalen"}},{"name":"Zur Brecht","postalCode":"57250","locality":"Netphen","municipality":{"key":"05970032","name":"Netphen, Stadt","type":"Stadt"},"district":{"key":"05970","name":"Siegen-Wittgenstein","type":"Kreis"},"federalState":{"key":"05","name":"Nordrhein-Westfalen"}},{"name":"Zur Ehreneiche","postalCode":"57250","locality":"Netphen","municipality":{"key":"05970032","name":"Netphen, Stadt","type":"Stadt"},"district":{"key":"05970","name":"Siegen-Wittgenstein","type":"Kreis"},"federalState":{"key":"05","name":"Nordrhein-Westfalen"}},{"name":"Zur Kempe","postalCode":"57250","locality":"Netphen","municipality":{"key":"05970032","name":"Netphen, Stadt","type":"Stadt"},"district":{"key":"05970","name":"Siegen-Wittgenstein","type":"Kreis"},"federalState":{"key":"05","name":"Nordrhein-Westfalen"}},{"name":"Zur Kunzenbach","postalCode":"57250","locality":"Netphen","municipality":{"key":"05970032","name":"Netphen, Stadt","type":"Stadt"},"district":{"key":"05970","name":"Siegen-Wittgenstein","type":"Kreis"},"federalState":{"key":"05","name":"Nordrhein-Westfalen"}},{"name":"Zur Schwarzen Heide","postalCode":"57250","locality":"Netphen","municipality":{"key":"05970032","name":"Netphen, Stadt","type":"Stadt"},"district":{"key":"05970","name":"Siegen-Wittgenstein","type":"Kreis"},"federalState":{"key":"05","name":"Nordrhein-Westfalen"}},{"name":"Zur Talsperre","postalCode":"57250","locality":"Netphen","municipality":{"key":"05970032","name":"Netphen, Stadt","type":"Stadt"},"district":{"key":"05970","name":"Siegen-Wittgenstein","type":"Kreis"},"federalState":{"key":"05","name":"Nordrhein-Westfalen"}},{"name":"Zur Waldesstille","postalCode":"57250","locality":"Netphen","municipality":{"key":"05970032","name":"Netphen, Stadt","type":"Stadt"},"district":{"key":"05970","name":"Siegen-Wittgenstein","type":"Kreis"},"federalState":{"key":"05","name":"Nordrhein-Westfalen"}},{"name":"Zur Wiese","postalCode":"57250","locality":"Netphen","municipality":{"key":"05970032","name":"Netphen, Stadt","type":"Stadt"},"district":{"key":"05970","name":"Siegen-Wittgenstein","type":"Kreis"},"federalState":{"key":"05","name":"Nordrhein-Westfalen"}},]