[{"key":"10237952","name":"Aebiweg","postalCode":"3939","locality":"Eggerberg","commune":{"key":"6004","name":"Eggerberg","shortName":"Eggerberg"},"district":{"key":"2301","name":"Bezirk Brig"},"canton":{"key":"23","code":"VS","name":"Valais / Wallis"},"status":"Real"},{"key":"10236656","name":"Aegertenstrasse","postalCode":"3939","locality":"Eggerberg","commune":{"key":"6004","name":"Eggerberg","shortName":"Eggerberg"},"district":{"key":"2301","name":"Bezirk Brig"},"canton":{"key":"23","code":"VS","name":"Valais / Wallis"},"status":"Real"},{"key":"10237956","name":"Alte Gasse","postalCode":"3939","locality":"Eggerberg","commune":{"key":"6004","name":"Eggerberg","shortName":"Eggerberg"},"district":{"key":"2301","name":"Bezirk Brig"},"canton":{"key":"23","code":"VS","name":"Valais / Wallis"},"status":"Real"},{"key":"10118038","name":"Bahnhofstrasse","postalCode":"3939","locality":"Eggerberg","commune":{"key":"6004","name":"Eggerberg","shortName":"Eggerberg"},"district":{"key":"2301","name":"Bezirk Brig"},"canton":{"key":"23","code":"VS","name":"Valais / Wallis"},"status":"Real"},{"key":"10236660","name":"Berggasse","postalCode":"3939","locality":"Eggerberg","commune":{"key":"6004","name":"Eggerberg","shortName":"Eggerberg"},"district":{"key":"2301","name":"Bezirk Brig"},"canton":{"key":"23","code":"VS","name":"Valais / Wallis"},"status":"Real"},{"key":"10236664","name":"Breitackerstrasse","postalCode":"3939","locality":"Eggerberg","commune":{"key":"6004","name":"Eggerberg","shortName":"Eggerberg"},"district":{"key":"2301","name":"Bezirk Brig"},"canton":{"key":"23","code":"VS","name":"Valais / Wallis"},"status":"Real"},{"key":"10237960","name":"Chalchofenweg","postalCode":"3939","locality":"Eggerberg","commune":{"key":"6004","name":"Eggerberg","shortName":"Eggerberg"},"district":{"key":"2301","name":"Bezirk Brig"},"canton":{"key":"23","code":"VS","name":"Valais / Wallis"},"status":"Real"},{"key":"10237964","name":"Dorfstrasse","postalCode":"3939","locality":"Eggerberg","commune":{"key":"6004","name":"Eggerberg","shortName":"Eggerberg"},"district":{"key":"2301","name":"Bezirk Brig"},"canton":{"key":"23","code":"VS","name":"Valais / Wallis"},"status":"Real"},{"key":"10237968","name":"Dorfweg","postalCode":"3939","locality":"Eggerberg","commune":{"key":"6004","name":"Eggerberg","shortName":"Eggerberg"},"district":{"key":"2301","name":"Bezirk Brig"},"canton":{"key":"23","code":"VS","name":"Valais / Wallis"},"status":"Real"},{"key":"10236668","name":"Eggerbergerstrasse","postalCode":"3939","locality":"Eggerberg","commune":{"key":"6004","name":"Eggerberg","shortName":"Eggerberg"},"district":{"key":"2301","name":"Bezirk Brig"},"canton":{"key":"23","code":"VS","name":"Valais / Wallis"},"status":"Real"},{"key":"10236672","name":"Eggerweg","postalCode":"3939","locality":"Eggerberg","commune":{"key":"6004","name":"Eggerberg","shortName":"Eggerberg"},"district":{"key":"2301","name":"Bezirk Brig"},"canton":{"key":"23","code":"VS","name":"Valais / Wallis"},"status":"Real"},{"key":"10237740","name":"Engernhausweg","postalCode":"3939","locality":"Eggerberg","commune":{"key":"6004","name":"Eggerberg","shortName":"Eggerberg"},"district":{"key":"2301","name":"Bezirk Brig"},"canton":{"key":"23","code":"VS","name":"Valais / Wallis"},"status":"Real"},{"key":"10237744","name":"Färrichweg","postalCode":"3939","locality":"Eggerberg","commune":{"key":"6004","name":"Eggerberg","shortName":"Eggerberg"},"district":{"key":"2301","name":"Bezirk Brig"},"canton":{"key":"23","code":"VS","name":"Valais / Wallis"},"status":"Real"},{"key":"10236684","name":"Findnerstrasse","postalCode":"3939","locality":"Eggerberg","commune":{"key":"6004","name":"Eggerberg","shortName":"Eggerberg"},"district":{"key":"2301","name":"Bezirk Brig"},"canton":{"key":"23","code":"VS","name":"Valais / Wallis"},"status":"Real"},{"key":"10237972","name":"Finnenblattenweg","postalCode":"3939","locality":"Eggerberg","commune":{"key":"6004","name":"Eggerberg","shortName":"Eggerberg"},"district":{"key":"2301","name":"Bezirk Brig"},"canton":{"key":"23","code":"VS","name":"Valais / Wallis"},"status":"Real"},{"key":"10237289","name":"Goorbjiweg","postalCode":"3939","locality":"Eggerberg","commune":{"key":"6004","name":"Eggerberg","shortName":"Eggerberg"},"district":{"key":"2301","name":"Bezirk Brig"},"canton":{"key":"23","code":"VS","name":"Valais / Wallis"},"status":"Real"},{"key":"10237760","name":"Gorperiweg","postalCode":"3939","locality":"Eggerberg","commune":{"key":"6004","name":"Eggerberg","shortName":"Eggerberg"},"district":{"key":"2301","name":"Bezirk Brig"},"canton":{"key":"23","code":"VS","name":"Valais / Wallis"},"status":"Real"},{"key":"10237764","name":"Grabenstrasse","postalCode":"3939","locality":"Eggerberg","commune":{"key":"6004","name":"Eggerberg","shortName":"Eggerberg"},"district":{"key":"2301","name":"Bezirk Brig"},"canton":{"key":"23","code":"VS","name":"Valais / Wallis"},"status":"Real"},{"key":"10237768","name":"Haltjiniweg","postalCode":"3939","locality":"Eggerberg","commune":{"key":"6004","name":"Eggerberg","shortName":"Eggerberg"},"district":{"key":"2301","name":"Bezirk Brig"},"canton":{"key":"23","code":"VS","name":"Valais / Wallis"},"status":"Real"},{"key":"10237976","name":"Harteweideweg","postalCode":"3939","locality":"Eggerberg","commune":{"key":"6004","name":"Eggerberg","shortName":"Eggerberg"},"district":{"key":"2301","name":"Bezirk Brig"},"canton":{"key":"23","code":"VS","name":"Valais / Wallis"},"status":"Real"},{"key":"10237772","name":"Howwetestrasse","postalCode":"3939","locality":"Eggerberg","commune":{"key":"6004","name":"Eggerberg","shortName":"Eggerberg"},"district":{"key":"2301","name":"Bezirk Brig"},"canton":{"key":"23","code":"VS","name":"Valais / Wallis"},"status":"Real"},{"key":"10237980","name":"Kännelackerstrasse","postalCode":"3939","locality":"Eggerberg","commune":{"key":"6004","name":"Eggerberg","shortName":"Eggerberg"},"district":{"key":"2301","name":"Bezirk Brig"},"canton":{"key":"23","code":"VS","name":"Valais / Wallis"},"status":"Real"},{"key":"10096767","name":"Kirchweg","postalCode":"3939","locality":"Eggerberg","commune":{"key":"6004","name":"Eggerberg","shortName":"Eggerberg"},"district":{"key":"2301","name":"Bezirk Brig"},"canton":{"key":"23","code":"VS","name":"Valais / Wallis"},"status":"Real"},{"key":"10237950","name":"Laldnerigasse","postalCode":"3939","locality":"Eggerberg","commune":{"key":"6004","name":"Eggerberg","shortName":"Eggerberg"},"district":{"key":"2301","name":"Bezirk Brig"},"canton":{"key":"23","code":"VS","name":"Valais / Wallis"},"status":"Real"},{"key":"10236716","name":"Leemaschhausweg","postalCode":"3939","locality":"Eggerberg","commune":{"key":"6004","name":"Eggerberg","shortName":"Eggerberg"},"district":{"key":"2301","name":"Bezirk Brig"},"canton":{"key":"23","code":"VS","name":"Valais / Wallis"},"status":"Real"},{"key":"10236720","name":"Martigsackerweg","postalCode":"3939","locality":"Eggerberg","commune":{"key":"6004","name":"Eggerberg","shortName":"Eggerberg"},"district":{"key":"2301","name":"Bezirk Brig"},"canton":{"key":"23","code":"VS","name":"Valais / Wallis"},"status":"Real"},{"key":"10237957","name":"Mühlackerstrasse","postalCode":"3939","locality":"Eggerberg","commune":{"key":"6004","name":"Eggerberg","shortName":"Eggerberg"},"district":{"key":"2301","name":"Bezirk Brig"},"canton":{"key":"23","code":"VS","name":"Valais / Wallis"},"status":"Real"},{"key":"10237321","name":"Rohrliweg","postalCode":"3939","locality":"Eggerberg","commune":{"key":"6004","name":"Eggerberg","shortName":"Eggerberg"},"district":{"key":"2301","name":"Bezirk Brig"},"canton":{"key":"23","code":"VS","name":"Valais / Wallis"},"status":"Real"},{"key":"10237782","name":"Schliechtgasse","postalCode":"3939","locality":"Eggerberg","commune":{"key":"6004","name":"Eggerberg","shortName":"Eggerberg"},"district":{"key":"2301","name":"Bezirk Brig"},"canton":{"key":"23","code":"VS","name":"Valais / Wallis"},"status":"Real"},{"key":"10237785","name":"Schliechtweg","postalCode":"3939","locality":"Eggerberg","commune":{"key":"6004","name":"Eggerberg","shortName":"Eggerberg"},"district":{"key":"2301","name":"Bezirk Brig"},"canton":{"key":"23","code":"VS","name":"Valais / Wallis"},"status":"Real"},{"key":"10237788","name":"Schmittenstrasse","postalCode":"3939","locality":"Eggerberg","commune":{"key":"6004","name":"Eggerberg","shortName":"Eggerberg"},"district":{"key":"2301","name":"Bezirk Brig"},"canton":{"key":"23","code":"VS","name":"Valais / Wallis"},"status":"Real"},{"key":"10164733","name":"Schulhausweg","postalCode":"3939","locality":"Eggerberg","commune":{"key":"6004","name":"Eggerberg","shortName":"Eggerberg"},"district":{"key":"2301","name":"Bezirk Brig"},"canton":{"key":"23","code":"VS","name":"Valais / Wallis"},"status":"Real"},{"key":"10237791","name":"Stadelstrasse","postalCode":"3939","locality":"Eggerberg","commune":{"key":"6004","name":"Eggerberg","shortName":"Eggerberg"},"district":{"key":"2301","name":"Bezirk Brig"},"canton":{"key":"23","code":"VS","name":"Valais / Wallis"},"status":"Real"},{"key":"10237961","name":"Stadelweg","postalCode":"3939","locality":"Eggerberg","commune":{"key":"6004","name":"Eggerberg","shortName":"Eggerberg"},"district":{"key":"2301","name":"Bezirk Brig"},"canton":{"key":"23","code":"VS","name":"Valais / Wallis"},"status":"Real"},{"key":"10237965","name":"Sulzackerstrasse","postalCode":"3939","locality":"Eggerberg","commune":{"key":"6004","name":"Eggerberg","shortName":"Eggerberg"},"district":{"key":"2301","name":"Bezirk Brig"},"canton":{"key":"23","code":"VS","name":"Valais / Wallis"},"status":"Real"},{"key":"10237969","name":"Telliweg","postalCode":"3939","locality":"Eggerberg","commune":{"key":"6004","name":"Eggerberg","shortName":"Eggerberg"},"district":{"key":"2301","name":"Bezirk Brig"},"canton":{"key":"23","code":"VS","name":"Valais / Wallis"},"status":"Real"},{"key":"10237973","name":"Tennerigasse","postalCode":"3939","locality":"Eggerberg","commune":{"key":"6004","name":"Eggerberg","shortName":"Eggerberg"},"district":{"key":"2301","name":"Bezirk Brig"},"canton":{"key":"23","code":"VS","name":"Valais / Wallis"},"status":"Real"},{"key":"10237794","name":"Tenneriweg","postalCode":"3939","locality":"Eggerberg","commune":{"key":"6004","name":"Eggerberg","shortName":"Eggerberg"},"district":{"key":"2301","name":"Bezirk Brig"},"canton":{"key":"23","code":"VS","name":"Valais / Wallis"},"status":"Real"},{"key":"10237199","name":"Trielweg","postalCode":"3939","locality":"Eggerberg","commune":{"key":"6004","name":"Eggerberg","shortName":"Eggerberg"},"district":{"key":"2301","name":"Bezirk Brig"},"canton":{"key":"23","code":"VS","name":"Valais / Wallis"},"status":"Real"},{"key":"10237203","name":"Trogmattenweg","postalCode":"3939","locality":"Eggerberg","commune":{"key":"6004","name":"Eggerberg","shortName":"Eggerberg"},"district":{"key":"2301","name":"Bezirk Brig"},"canton":{"key":"23","code":"VS","name":"Valais / Wallis"},"status":"Real"},{"key":"10237977","name":"Wangstrasse","postalCode":"3939","locality":"Eggerberg","commune":{"key":"6004","name":"Eggerberg","shortName":"Eggerberg"},"district":{"key":"2301","name":"Bezirk Brig"},"canton":{"key":"23","code":"VS","name":"Valais / Wallis"},"status":"Real"},{"key":"10237207","name":"Weingartenstrasse","postalCode":"3939","locality":"Eggerberg","commune":{"key":"6004","name":"Eggerberg","shortName":"Eggerberg"},"district":{"key":"2301","name":"Bezirk Brig"},"canton":{"key":"23","code":"VS","name":"Valais / Wallis"},"status":"Real"},{"key":"10237211","name":"Weitemattengasse","postalCode":"3939","locality":"Eggerberg","commune":{"key":"6004","name":"Eggerberg","shortName":"Eggerberg"},"district":{"key":"2301","name":"Bezirk Brig"},"canton":{"key":"23","code":"VS","name":"Valais / Wallis"},"status":"Real"},{"key":"10237215","name":"Weizbinestrasse","postalCode":"3939","locality":"Eggerberg","commune":{"key":"6004","name":"Eggerberg","shortName":"Eggerberg"},"district":{"key":"2301","name":"Bezirk Brig"},"canton":{"key":"23","code":"VS","name":"Valais / Wallis"},"status":"Real"},{"key":"10237219","name":"Wierweg","postalCode":"3939","locality":"Eggerberg","commune":{"key":"6004","name":"Eggerberg","shortName":"Eggerberg"},"district":{"key":"2301","name":"Bezirk Brig"},"canton":{"key":"23","code":"VS","name":"Valais / Wallis"},"status":"Real"},{"key":"10236212","name":"Wirmslandgasse","postalCode":"3939","locality":"Eggerberg","commune":{"key":"6004","name":"Eggerberg","shortName":"Eggerberg"},"district":{"key":"2301","name":"Bezirk Brig"},"canton":{"key":"23","code":"VS","name":"Valais / Wallis"},"status":"Real"},]