[{"name":"Ahornweg","postalCode":"88453","locality":"Erolzheim","municipality":{"key":"08426044","name":"Erolzheim","type":"Kreisangehörige_Gemeinde"},"district":{"key":"08426","name":"Biberach","type":"Landkreis"},"federalState":{"key":"08","name":"Baden-Württemberg"}},{"name":"Alfred-Remmele-Str.","postalCode":"88453","locality":"Erolzheim","municipality":{"key":"08426044","name":"Erolzheim","type":"Kreisangehörige_Gemeinde"},"district":{"key":"08426","name":"Biberach","type":"Landkreis"},"federalState":{"key":"08","name":"Baden-Württemberg"}},{"name":"Alter Rathausplatz","postalCode":"88453","locality":"Erolzheim","municipality":{"key":"08426044","name":"Erolzheim","type":"Kreisangehörige_Gemeinde"},"district":{"key":"08426","name":"Biberach","type":"Landkreis"},"federalState":{"key":"08","name":"Baden-Württemberg"}},{"name":"Am Graben","postalCode":"91801","locality":"Markt Berolzheim","municipality":{"key":"09577149","name":"Markt Berolzheim, M","type":"Markt"},"district":{"key":"09577","name":"Weißenburg-Gunzenhausen","type":"Landkreis"},"federalState":{"key":"09","name":"Bayern"}},{"name":"Amselweg","postalCode":"88453","locality":"Erolzheim","municipality":{"key":"08426044","name":"Erolzheim","type":"Kreisangehörige_Gemeinde"},"district":{"key":"08426","name":"Biberach","type":"Landkreis"},"federalState":{"key":"08","name":"Baden-Württemberg"}},{"name":"An der Schloßmauer","postalCode":"91801","locality":"Markt Berolzheim","municipality":{"key":"09577149","name":"Markt Berolzheim, M","type":"Markt"},"district":{"key":"09577","name":"Weißenburg-Gunzenhausen","type":"Landkreis"},"federalState":{"key":"09","name":"Bayern"}},{"name":"Asternstr.","postalCode":"88453","locality":"Erolzheim","municipality":{"key":"08426044","name":"Erolzheim","type":"Kreisangehörige_Gemeinde"},"district":{"key":"08426","name":"Biberach","type":"Landkreis"},"federalState":{"key":"08","name":"Baden-Württemberg"}},{"name":"Bahnhofstr.","postalCode":"91801","locality":"Markt Berolzheim","municipality":{"key":"09577149","name":"Markt Berolzheim, M","type":"Markt"},"district":{"key":"09577","name":"Weißenburg-Gunzenhausen","type":"Landkreis"},"federalState":{"key":"09","name":"Bayern"}},{"name":"Bastelweg","postalCode":"88453","locality":"Erolzheim","municipality":{"key":"08426044","name":"Erolzheim","type":"Kreisangehörige_Gemeinde"},"district":{"key":"08426","name":"Biberach","type":"Landkreis"},"federalState":{"key":"08","name":"Baden-Württemberg"}},{"name":"Bei der Kirche","postalCode":"88453","locality":"Erolzheim","municipality":{"key":"08426044","name":"Erolzheim","type":"Kreisangehörige_Gemeinde"},"district":{"key":"08426","name":"Biberach","type":"Landkreis"},"federalState":{"key":"08","name":"Baden-Württemberg"}},{"name":"Beim Geisbaum","postalCode":"91801","locality":"Markt Berolzheim","municipality":{"key":"09577149","name":"Markt Berolzheim, M","type":"Markt"},"district":{"key":"09577","name":"Weißenburg-Gunzenhausen","type":"Landkreis"},"federalState":{"key":"09","name":"Bayern"}},{"name":"Benzing","postalCode":"91801","locality":"Markt Berolzheim","municipality":{"key":"09577149","name":"Markt Berolzheim, M","type":"Markt"},"district":{"key":"09577","name":"Weißenburg-Gunzenhausen","type":"Landkreis"},"federalState":{"key":"09","name":"Bayern"}},{"name":"Berggasse","postalCode":"88453","locality":"Erolzheim","municipality":{"key":"08426044","name":"Erolzheim","type":"Kreisangehörige_Gemeinde"},"district":{"key":"08426","name":"Biberach","type":"Landkreis"},"federalState":{"key":"08","name":"Baden-Württemberg"}},{"name":"Biberacher Str.","postalCode":"88453","locality":"Erolzheim","municipality":{"key":"08426044","name":"Erolzheim","type":"Kreisangehörige_Gemeinde"},"district":{"key":"08426","name":"Biberach","type":"Landkreis"},"federalState":{"key":"08","name":"Baden-Württemberg"}},{"name":"Birkenweg","postalCode":"88453","locality":"Erolzheim","municipality":{"key":"08426044","name":"Erolzheim","type":"Kreisangehörige_Gemeinde"},"district":{"key":"08426","name":"Biberach","type":"Landkreis"},"federalState":{"key":"08","name":"Baden-Württemberg"}},{"name":"Bogenstr.","postalCode":"88453","locality":"Erolzheim","municipality":{"key":"08426044","name":"Erolzheim","type":"Kreisangehörige_Gemeinde"},"district":{"key":"08426","name":"Biberach","type":"Landkreis"},"federalState":{"key":"08","name":"Baden-Württemberg"}},{"name":"Bömmelbergstr.","postalCode":"88453","locality":"Erolzheim","municipality":{"key":"08426044","name":"Erolzheim","type":"Kreisangehörige_Gemeinde"},"district":{"key":"08426","name":"Biberach","type":"Landkreis"},"federalState":{"key":"08","name":"Baden-Württemberg"}},{"name":"Bonlander Weg","postalCode":"88453","locality":"Erolzheim","municipality":{"key":"08426044","name":"Erolzheim","type":"Kreisangehörige_Gemeinde"},"district":{"key":"08426","name":"Biberach","type":"Landkreis"},"federalState":{"key":"08","name":"Baden-Württemberg"}},{"name":"Brühlweg","postalCode":"88453","locality":"Erolzheim","municipality":{"key":"08426044","name":"Erolzheim","type":"Kreisangehörige_Gemeinde"},"district":{"key":"08426","name":"Biberach","type":"Landkreis"},"federalState":{"key":"08","name":"Baden-Württemberg"}},{"name":"Buchenweg","postalCode":"88453","locality":"Erolzheim","municipality":{"key":"08426044","name":"Erolzheim","type":"Kreisangehörige_Gemeinde"},"district":{"key":"08426","name":"Biberach","type":"Landkreis"},"federalState":{"key":"08","name":"Baden-Württemberg"}},{"name":"Carl-Carben-Str.","postalCode":"91801","locality":"Markt Berolzheim","municipality":{"key":"09577149","name":"Markt Berolzheim, M","type":"Markt"},"district":{"key":"09577","name":"Weißenburg-Gunzenhausen","type":"Landkreis"},"federalState":{"key":"09","name":"Bayern"}},{"name":"Dahlienstr.","postalCode":"88453","locality":"Erolzheim","municipality":{"key":"08426044","name":"Erolzheim","type":"Kreisangehörige_Gemeinde"},"district":{"key":"08426","name":"Biberach","type":"Landkreis"},"federalState":{"key":"08","name":"Baden-Württemberg"}},{"name":"Drosselweg","postalCode":"88453","locality":"Erolzheim","municipality":{"key":"08426044","name":"Erolzheim","type":"Kreisangehörige_Gemeinde"},"district":{"key":"08426","name":"Biberach","type":"Landkreis"},"federalState":{"key":"08","name":"Baden-Württemberg"}},{"name":"Edelbeurer Str.","postalCode":"88453","locality":"Erolzheim","municipality":{"key":"08426044","name":"Erolzheim","type":"Kreisangehörige_Gemeinde"},"district":{"key":"08426","name":"Biberach","type":"Landkreis"},"federalState":{"key":"08","name":"Baden-Württemberg"}},{"name":"Eichendorffstr.","postalCode":"88453","locality":"Erolzheim","municipality":{"key":"08426044","name":"Erolzheim","type":"Kreisangehörige_Gemeinde"},"district":{"key":"08426","name":"Biberach","type":"Landkreis"},"federalState":{"key":"08","name":"Baden-Württemberg"}},{"name":"Ennsstr.","postalCode":"91801","locality":"Markt Berolzheim","municipality":{"key":"09577149","name":"Markt Berolzheim, M","type":"Markt"},"district":{"key":"09577","name":"Weißenburg-Gunzenhausen","type":"Landkreis"},"federalState":{"key":"09","name":"Bayern"}},{"name":"Erolzheimer Str.","postalCode":"88453","locality":"Erolzheim","municipality":{"key":"08426044","name":"Erolzheim","type":"Kreisangehörige_Gemeinde"},"district":{"key":"08426","name":"Biberach","type":"Landkreis"},"federalState":{"key":"08","name":"Baden-Württemberg"}},{"name":"Espachstr.","postalCode":"88453","locality":"Erolzheim","municipality":{"key":"08426044","name":"Erolzheim","type":"Kreisangehörige_Gemeinde"},"district":{"key":"08426","name":"Biberach","type":"Landkreis"},"federalState":{"key":"08","name":"Baden-Württemberg"}},{"name":"Falbentaler Weg","postalCode":"91801","locality":"Markt Berolzheim","municipality":{"key":"09577149","name":"Markt Berolzheim, M","type":"Markt"},"district":{"key":"09577","name":"Weißenburg-Gunzenhausen","type":"Landkreis"},"federalState":{"key":"09","name":"Bayern"}},{"name":"Falbenthaler Weg","postalCode":"91801","locality":"Markt Berolzheim","municipality":{"key":"09577149","name":"Markt Berolzheim, M","type":"Markt"},"district":{"key":"09577","name":"Weißenburg-Gunzenhausen","type":"Landkreis"},"federalState":{"key":"09","name":"Bayern"}},{"name":"Felderstr.","postalCode":"91801","locality":"Markt Berolzheim","municipality":{"key":"09577149","name":"Markt Berolzheim, M","type":"Markt"},"district":{"key":"09577","name":"Weißenburg-Gunzenhausen","type":"Landkreis"},"federalState":{"key":"09","name":"Bayern"}},{"name":"Fichtenweg","postalCode":"88453","locality":"Erolzheim","municipality":{"key":"08426044","name":"Erolzheim","type":"Kreisangehörige_Gemeinde"},"district":{"key":"08426","name":"Biberach","type":"Landkreis"},"federalState":{"key":"08","name":"Baden-Württemberg"}},{"name":"Finkenweg","postalCode":"88453","locality":"Erolzheim","municipality":{"key":"08426044","name":"Erolzheim","type":"Kreisangehörige_Gemeinde"},"district":{"key":"08426","name":"Biberach","type":"Landkreis"},"federalState":{"key":"08","name":"Baden-Württemberg"}},{"name":"Flederwischgasse","postalCode":"91801","locality":"Markt Berolzheim","municipality":{"key":"09577149","name":"Markt Berolzheim, M","type":"Markt"},"district":{"key":"09577","name":"Weißenburg-Gunzenhausen","type":"Landkreis"},"federalState":{"key":"09","name":"Bayern"}},{"name":"Fliederstr.","postalCode":"88453","locality":"Erolzheim","municipality":{"key":"08426044","name":"Erolzheim","type":"Kreisangehörige_Gemeinde"},"district":{"key":"08426","name":"Biberach","type":"Landkreis"},"federalState":{"key":"08","name":"Baden-Württemberg"}},{"name":"Frohbergweg","postalCode":"88453","locality":"Erolzheim","municipality":{"key":"08426044","name":"Erolzheim","type":"Kreisangehörige_Gemeinde"},"district":{"key":"08426","name":"Biberach","type":"Landkreis"},"federalState":{"key":"08","name":"Baden-Württemberg"}},{"name":"Fuchsweg","postalCode":"88453","locality":"Erolzheim","municipality":{"key":"08426044","name":"Erolzheim","type":"Kreisangehörige_Gemeinde"},"district":{"key":"08426","name":"Biberach","type":"Landkreis"},"federalState":{"key":"08","name":"Baden-Württemberg"}},{"name":"Gartenstr.","postalCode":"88453","locality":"Erolzheim","municipality":{"key":"08426044","name":"Erolzheim","type":"Kreisangehörige_Gemeinde"},"district":{"key":"08426","name":"Biberach","type":"Landkreis"},"federalState":{"key":"08","name":"Baden-Württemberg"}},{"name":"Gärtnergasse","postalCode":"88453","locality":"Erolzheim","municipality":{"key":"08426044","name":"Erolzheim","type":"Kreisangehörige_Gemeinde"},"district":{"key":"08426","name":"Biberach","type":"Landkreis"},"federalState":{"key":"08","name":"Baden-Württemberg"}},{"name":"Georg-Pfahler-Str.","postalCode":"88453","locality":"Erolzheim","municipality":{"key":"08426044","name":"Erolzheim","type":"Kreisangehörige_Gemeinde"},"district":{"key":"08426","name":"Biberach","type":"Landkreis"},"federalState":{"key":"08","name":"Baden-Württemberg"}},{"name":"Goethestr.","postalCode":"88453","locality":"Erolzheim","municipality":{"key":"08426044","name":"Erolzheim","type":"Kreisangehörige_Gemeinde"},"district":{"key":"08426","name":"Biberach","type":"Landkreis"},"federalState":{"key":"08","name":"Baden-Württemberg"}},{"name":"Gostenhofgasse","postalCode":"91801","locality":"Markt Berolzheim","municipality":{"key":"09577149","name":"Markt Berolzheim, M","type":"Markt"},"district":{"key":"09577","name":"Weißenburg-Gunzenhausen","type":"Landkreis"},"federalState":{"key":"09","name":"Bayern"}},{"name":"Großholz","postalCode":"91801","locality":"Markt Berolzheim","municipality":{"key":"09577149","name":"Markt Berolzheim, M","type":"Markt"},"district":{"key":"09577","name":"Weißenburg-Gunzenhausen","type":"Landkreis"},"federalState":{"key":"09","name":"Bayern"}},{"name":"Großholzer Weg","postalCode":"91801","locality":"Markt Berolzheim","municipality":{"key":"09577149","name":"Markt Berolzheim, M","type":"Markt"},"district":{"key":"09577","name":"Weißenburg-Gunzenhausen","type":"Landkreis"},"federalState":{"key":"09","name":"Bayern"}},{"name":"Gutenzeller Str.","postalCode":"88453","locality":"Erolzheim","municipality":{"key":"08426044","name":"Erolzheim","type":"Kreisangehörige_Gemeinde"},"district":{"key":"08426","name":"Biberach","type":"Landkreis"},"federalState":{"key":"08","name":"Baden-Württemberg"}},{"name":"Hafnersmarkt","postalCode":"91801","locality":"Markt Berolzheim","municipality":{"key":"09577149","name":"Markt Berolzheim, M","type":"Markt"},"district":{"key":"09577","name":"Weißenburg-Gunzenhausen","type":"Landkreis"},"federalState":{"key":"09","name":"Bayern"}},{"name":"Hangender Weg","postalCode":"91801","locality":"Markt Berolzheim","municipality":{"key":"09577149","name":"Markt Berolzheim, M","type":"Markt"},"district":{"key":"09577","name":"Weißenburg-Gunzenhausen","type":"Landkreis"},"federalState":{"key":"09","name":"Bayern"}},{"name":"Hasenweg","postalCode":"88453","locality":"Erolzheim","municipality":{"key":"08426044","name":"Erolzheim","type":"Kreisangehörige_Gemeinde"},"district":{"key":"08426","name":"Biberach","type":"Landkreis"},"federalState":{"key":"08","name":"Baden-Württemberg"}},{"name":"Hauptstr.","postalCode":"88453","locality":"Erolzheim","municipality":{"key":"08426044","name":"Erolzheim","type":"Kreisangehörige_Gemeinde"},"district":{"key":"08426","name":"Biberach","type":"Landkreis"},"federalState":{"key":"08","name":"Baden-Württemberg"}},{"name":"Heidenheimer Weg","postalCode":"91801","locality":"Markt Berolzheim","municipality":{"key":"09577149","name":"Markt Berolzheim, M","type":"Markt"},"district":{"key":"09577","name":"Weißenburg-Gunzenhausen","type":"Landkreis"},"federalState":{"key":"09","name":"Bayern"}},{"name":"Hirschweg","postalCode":"88453","locality":"Erolzheim","municipality":{"key":"08426044","name":"Erolzheim","type":"Kreisangehörige_Gemeinde"},"district":{"key":"08426","name":"Biberach","type":"Landkreis"},"federalState":{"key":"08","name":"Baden-Württemberg"}},{"name":"Höhenblick","postalCode":"88453","locality":"Erolzheim","municipality":{"key":"08426044","name":"Erolzheim","type":"Kreisangehörige_Gemeinde"},"district":{"key":"08426","name":"Biberach","type":"Landkreis"},"federalState":{"key":"08","name":"Baden-Württemberg"}},{"name":"Hölderlinstr.","postalCode":"88453","locality":"Erolzheim","municipality":{"key":"08426044","name":"Erolzheim","type":"Kreisangehörige_Gemeinde"},"district":{"key":"08426","name":"Biberach","type":"Landkreis"},"federalState":{"key":"08","name":"Baden-Württemberg"}},{"name":"Hopfengartenweg","postalCode":"88453","locality":"Erolzheim","municipality":{"key":"08426044","name":"Erolzheim","type":"Kreisangehörige_Gemeinde"},"district":{"key":"08426","name":"Biberach","type":"Landkreis"},"federalState":{"key":"08","name":"Baden-Württemberg"}},{"name":"Im Brentenghau","postalCode":"88453","locality":"Erolzheim","municipality":{"key":"08426044","name":"Erolzheim","type":"Kreisangehörige_Gemeinde"},"district":{"key":"08426","name":"Biberach","type":"Landkreis"},"federalState":{"key":"08","name":"Baden-Württemberg"}},{"name":"Im Krautgarten","postalCode":"88453","locality":"Erolzheim","municipality":{"key":"08426044","name":"Erolzheim","type":"Kreisangehörige_Gemeinde"},"district":{"key":"08426","name":"Biberach","type":"Landkreis"},"federalState":{"key":"08","name":"Baden-Württemberg"}},{"name":"Im Röthlein","postalCode":"91801","locality":"Markt Berolzheim","municipality":{"key":"09577149","name":"Markt Berolzheim, M","type":"Markt"},"district":{"key":"09577","name":"Weißenburg-Gunzenhausen","type":"Landkreis"},"federalState":{"key":"09","name":"Bayern"}},{"name":"In der Hölle","postalCode":"91801","locality":"Markt Berolzheim","municipality":{"key":"09577149","name":"Markt Berolzheim, M","type":"Markt"},"district":{"key":"09577","name":"Weißenburg-Gunzenhausen","type":"Landkreis"},"federalState":{"key":"09","name":"Bayern"}},{"name":"Jagdhornstr.","postalCode":"88453","locality":"Erolzheim","municipality":{"key":"08426044","name":"Erolzheim","type":"Kreisangehörige_Gemeinde"},"district":{"key":"08426","name":"Biberach","type":"Landkreis"},"federalState":{"key":"08","name":"Baden-Württemberg"}},{"name":"Jahnstr.","postalCode":"88453","locality":"Erolzheim","municipality":{"key":"08426044","name":"Erolzheim","type":"Kreisangehörige_Gemeinde"},"district":{"key":"08426","name":"Biberach","type":"Landkreis"},"federalState":{"key":"08","name":"Baden-Württemberg"}},{"name":"Kapellengasse","postalCode":"91801","locality":"Markt Berolzheim","municipality":{"key":"09577149","name":"Markt Berolzheim, M","type":"Markt"},"district":{"key":"09577","name":"Weißenburg-Gunzenhausen","type":"Landkreis"},"federalState":{"key":"09","name":"Bayern"}},{"name":"Kellmünzer Str.","postalCode":"88453","locality":"Erolzheim","municipality":{"key":"08426044","name":"Erolzheim","type":"Kreisangehörige_Gemeinde"},"district":{"key":"08426","name":"Biberach","type":"Landkreis"},"federalState":{"key":"08","name":"Baden-Württemberg"}},{"name":"Kirchberger Str.","postalCode":"88453","locality":"Erolzheim","municipality":{"key":"08426044","name":"Erolzheim","type":"Kreisangehörige_Gemeinde"},"district":{"key":"08426","name":"Biberach","type":"Landkreis"},"federalState":{"key":"08","name":"Baden-Württemberg"}},{"name":"Kirchdorfer Weg","postalCode":"88453","locality":"Erolzheim","municipality":{"key":"08426044","name":"Erolzheim","type":"Kreisangehörige_Gemeinde"},"district":{"key":"08426","name":"Biberach","type":"Landkreis"},"federalState":{"key":"08","name":"Baden-Württemberg"}},{"name":"Kirchplatz","postalCode":"91801","locality":"Markt Berolzheim","municipality":{"key":"09577149","name":"Markt Berolzheim, M","type":"Markt"},"district":{"key":"09577","name":"Weißenburg-Gunzenhausen","type":"Landkreis"},"federalState":{"key":"09","name":"Bayern"}},{"name":"Krautgartenweg","postalCode":"91801","locality":"Markt Berolzheim","municipality":{"key":"09577149","name":"Markt Berolzheim, M","type":"Markt"},"district":{"key":"09577","name":"Weißenburg-Gunzenhausen","type":"Landkreis"},"federalState":{"key":"09","name":"Bayern"}},{"name":"Kuckucksweg","postalCode":"88453","locality":"Erolzheim","municipality":{"key":"08426044","name":"Erolzheim","type":"Kreisangehörige_Gemeinde"},"district":{"key":"08426","name":"Biberach","type":"Landkreis"},"federalState":{"key":"08","name":"Baden-Württemberg"}},{"name":"Lachenweg","postalCode":"91801","locality":"Markt Berolzheim","municipality":{"key":"09577149","name":"Markt Berolzheim, M","type":"Markt"},"district":{"key":"09577","name":"Weißenburg-Gunzenhausen","type":"Landkreis"},"federalState":{"key":"09","name":"Bayern"}},{"name":"Lange Lohe","postalCode":"91801","locality":"Markt Berolzheim","municipality":{"key":"09577149","name":"Markt Berolzheim, M","type":"Markt"},"district":{"key":"09577","name":"Weißenburg-Gunzenhausen","type":"Landkreis"},"federalState":{"key":"09","name":"Bayern"}},{"name":"Lange Str.","postalCode":"91801","locality":"Markt Berolzheim","municipality":{"key":"09577149","name":"Markt Berolzheim, M","type":"Markt"},"district":{"key":"09577","name":"Weißenburg-Gunzenhausen","type":"Landkreis"},"federalState":{"key":"09","name":"Bayern"}},{"name":"Langgasse","postalCode":"88453","locality":"Erolzheim","municipality":{"key":"08426044","name":"Erolzheim","type":"Kreisangehörige_Gemeinde"},"district":{"key":"08426","name":"Biberach","type":"Landkreis"},"federalState":{"key":"08","name":"Baden-Württemberg"}},{"name":"Laubacher Str.","postalCode":"88453","locality":"Erolzheim","municipality":{"key":"08426044","name":"Erolzheim","type":"Kreisangehörige_Gemeinde"},"district":{"key":"08426","name":"Biberach","type":"Landkreis"},"federalState":{"key":"08","name":"Baden-Württemberg"}},{"name":"Lerchenweg","postalCode":"88453","locality":"Erolzheim","municipality":{"key":"08426044","name":"Erolzheim","type":"Kreisangehörige_Gemeinde"},"district":{"key":"08426","name":"Biberach","type":"Landkreis"},"federalState":{"key":"08","name":"Baden-Württemberg"}},{"name":"Leutkircher Str.","postalCode":"88453","locality":"Erolzheim","municipality":{"key":"08426044","name":"Erolzheim","type":"Kreisangehörige_Gemeinde"},"district":{"key":"08426","name":"Biberach","type":"Landkreis"},"federalState":{"key":"08","name":"Baden-Württemberg"}},{"name":"Lilienweg","postalCode":"88453","locality":"Erolzheim","municipality":{"key":"08426044","name":"Erolzheim","type":"Kreisangehörige_Gemeinde"},"district":{"key":"08426","name":"Biberach","type":"Landkreis"},"federalState":{"key":"08","name":"Baden-Württemberg"}},{"name":"Lindenstr.","postalCode":"88453","locality":"Erolzheim","municipality":{"key":"08426044","name":"Erolzheim","type":"Kreisangehörige_Gemeinde"},"district":{"key":"08426","name":"Biberach","type":"Landkreis"},"federalState":{"key":"08","name":"Baden-Württemberg"}},{"name":"Main-Donau-Bodensee-Weg","postalCode":"88453","locality":"Erolzheim","municipality":{"key":"08426044","name":"Erolzheim","type":"Kreisangehörige_Gemeinde"},"district":{"key":"08426","name":"Biberach","type":"Landkreis"},"federalState":{"key":"08","name":"Baden-Württemberg"}},{"name":"Marktplatz","postalCode":"88453","locality":"Erolzheim","municipality":{"key":"08426044","name":"Erolzheim","type":"Kreisangehörige_Gemeinde"},"district":{"key":"08426","name":"Biberach","type":"Landkreis"},"federalState":{"key":"08","name":"Baden-Württemberg"}},{"name":"Marktplatz","postalCode":"91801","locality":"Markt Berolzheim","municipality":{"key":"09577149","name":"Markt Berolzheim, M","type":"Markt"},"district":{"key":"09577","name":"Weißenburg-Gunzenhausen","type":"Landkreis"},"federalState":{"key":"09","name":"Bayern"}},{"name":"Maximilianstr.","postalCode":"91801","locality":"Markt Berolzheim","municipality":{"key":"09577149","name":"Markt Berolzheim, M","type":"Markt"},"district":{"key":"09577","name":"Weißenburg-Gunzenhausen","type":"Landkreis"},"federalState":{"key":"09","name":"Bayern"}},{"name":"Meinheimer Str.","postalCode":"91801","locality":"Markt Berolzheim","municipality":{"key":"09577149","name":"Markt Berolzheim, M","type":"Markt"},"district":{"key":"09577","name":"Weißenburg-Gunzenhausen","type":"Landkreis"},"federalState":{"key":"09","name":"Bayern"}},{"name":"Meisenweg","postalCode":"88453","locality":"Erolzheim","municipality":{"key":"08426044","name":"Erolzheim","type":"Kreisangehörige_Gemeinde"},"district":{"key":"08426","name":"Biberach","type":"Landkreis"},"federalState":{"key":"08","name":"Baden-Württemberg"}},{"name":"Michael-von-Jung-Str.","postalCode":"88453","locality":"Erolzheim","municipality":{"key":"08426044","name":"Erolzheim","type":"Kreisangehörige_Gemeinde"},"district":{"key":"08426","name":"Biberach","type":"Landkreis"},"federalState":{"key":"08","name":"Baden-Württemberg"}},{"name":"Mittelgasse","postalCode":"88453","locality":"Erolzheim","municipality":{"key":"08426044","name":"Erolzheim","type":"Kreisangehörige_Gemeinde"},"district":{"key":"08426","name":"Biberach","type":"Landkreis"},"federalState":{"key":"08","name":"Baden-Württemberg"}},{"name":"Moosgasse","postalCode":"91801","locality":"Markt Berolzheim","municipality":{"key":"09577149","name":"Markt Berolzheim, M","type":"Markt"},"district":{"key":"09577","name":"Weißenburg-Gunzenhausen","type":"Landkreis"},"federalState":{"key":"09","name":"Bayern"}},{"name":"Mörikestr.","postalCode":"88453","locality":"Erolzheim","municipality":{"key":"08426044","name":"Erolzheim","type":"Kreisangehörige_Gemeinde"},"district":{"key":"08426","name":"Biberach","type":"Landkreis"},"federalState":{"key":"08","name":"Baden-Württemberg"}},{"name":"Mühlstr.","postalCode":"88453","locality":"Erolzheim","municipality":{"key":"08426044","name":"Erolzheim","type":"Kreisangehörige_Gemeinde"},"district":{"key":"08426","name":"Biberach","type":"Landkreis"},"federalState":{"key":"08","name":"Baden-Württemberg"}},{"name":"Nelkenstr.","postalCode":"88453","locality":"Erolzheim","municipality":{"key":"08426044","name":"Erolzheim","type":"Kreisangehörige_Gemeinde"},"district":{"key":"08426","name":"Biberach","type":"Landkreis"},"federalState":{"key":"08","name":"Baden-Württemberg"}},{"name":"Otterfleck","postalCode":"91801","locality":"Markt Berolzheim","municipality":{"key":"09577149","name":"Markt Berolzheim, M","type":"Markt"},"district":{"key":"09577","name":"Weißenburg-Gunzenhausen","type":"Landkreis"},"federalState":{"key":"09","name":"Bayern"}},{"name":"Panoramastr.","postalCode":"88453","locality":"Erolzheim","municipality":{"key":"08426044","name":"Erolzheim","type":"Kreisangehörige_Gemeinde"},"district":{"key":"08426","name":"Biberach","type":"Landkreis"},"federalState":{"key":"08","name":"Baden-Württemberg"}},{"name":"Pfarrer-Ulmer-Str.","postalCode":"91801","locality":"Markt Berolzheim","municipality":{"key":"09577149","name":"Markt Berolzheim, M","type":"Markt"},"district":{"key":"09577","name":"Weißenburg-Gunzenhausen","type":"Landkreis"},"federalState":{"key":"09","name":"Bayern"}},{"name":"Pulverstr.","postalCode":"88453","locality":"Erolzheim","municipality":{"key":"08426044","name":"Erolzheim","type":"Kreisangehörige_Gemeinde"},"district":{"key":"08426","name":"Biberach","type":"Landkreis"},"federalState":{"key":"08","name":"Baden-Württemberg"}},{"name":"Realschulweg","postalCode":"88453","locality":"Erolzheim","municipality":{"key":"08426044","name":"Erolzheim","type":"Kreisangehörige_Gemeinde"},"district":{"key":"08426","name":"Biberach","type":"Landkreis"},"federalState":{"key":"08","name":"Baden-Württemberg"}},{"name":"Rosenstr.","postalCode":"88453","locality":"Erolzheim","municipality":{"key":"08426044","name":"Erolzheim","type":"Kreisangehörige_Gemeinde"},"district":{"key":"08426","name":"Biberach","type":"Landkreis"},"federalState":{"key":"08","name":"Baden-Württemberg"}},{"name":"Roterbergweg","postalCode":"88453","locality":"Erolzheim","municipality":{"key":"08426044","name":"Erolzheim","type":"Kreisangehörige_Gemeinde"},"district":{"key":"08426","name":"Biberach","type":"Landkreis"},"federalState":{"key":"08","name":"Baden-Württemberg"}},{"name":"Rotweg","postalCode":"88453","locality":"Erolzheim","municipality":{"key":"08426044","name":"Erolzheim","type":"Kreisangehörige_Gemeinde"},"district":{"key":"08426","name":"Biberach","type":"Landkreis"},"federalState":{"key":"08","name":"Baden-Württemberg"}},{"name":"Samelesgasse","postalCode":"91801","locality":"Markt Berolzheim","municipality":{"key":"09577149","name":"Markt Berolzheim, M","type":"Markt"},"district":{"key":"09577","name":"Weißenburg-Gunzenhausen","type":"Landkreis"},"federalState":{"key":"09","name":"Bayern"}},{"name":"Sandgrubenweg","postalCode":"88453","locality":"Erolzheim","municipality":{"key":"08426044","name":"Erolzheim","type":"Kreisangehörige_Gemeinde"},"district":{"key":"08426","name":"Biberach","type":"Landkreis"},"federalState":{"key":"08","name":"Baden-Württemberg"}},{"name":"Sandweg","postalCode":"88453","locality":"Erolzheim","municipality":{"key":"08426044","name":"Erolzheim","type":"Kreisangehörige_Gemeinde"},"district":{"key":"08426","name":"Biberach","type":"Landkreis"},"federalState":{"key":"08","name":"Baden-Württemberg"}},{"name":"Schillerstr.","postalCode":"88453","locality":"Erolzheim","municipality":{"key":"08426044","name":"Erolzheim","type":"Kreisangehörige_Gemeinde"},"district":{"key":"08426","name":"Biberach","type":"Landkreis"},"federalState":{"key":"08","name":"Baden-Württemberg"}},{"name":"Schlachtberg","postalCode":"88453","locality":"Erolzheim","municipality":{"key":"08426044","name":"Erolzheim","type":"Kreisangehörige_Gemeinde"},"district":{"key":"08426","name":"Biberach","type":"Landkreis"},"federalState":{"key":"08","name":"Baden-Württemberg"}},{"name":"Schleifweg","postalCode":"88453","locality":"Erolzheim","municipality":{"key":"08426044","name":"Erolzheim","type":"Kreisangehörige_Gemeinde"},"district":{"key":"08426","name":"Biberach","type":"Landkreis"},"federalState":{"key":"08","name":"Baden-Württemberg"}},{"name":"Schlesierstr.","postalCode":"91801","locality":"Markt Berolzheim","municipality":{"key":"09577149","name":"Markt Berolzheim, M","type":"Markt"},"district":{"key":"09577","name":"Weißenburg-Gunzenhausen","type":"Landkreis"},"federalState":{"key":"09","name":"Bayern"}},{"name":"Schloßanger","postalCode":"91801","locality":"Markt Berolzheim","municipality":{"key":"09577149","name":"Markt Berolzheim, M","type":"Markt"},"district":{"key":"09577","name":"Weißenburg-Gunzenhausen","type":"Landkreis"},"federalState":{"key":"09","name":"Bayern"}},{"name":"Schloßgasse","postalCode":"91801","locality":"Markt Berolzheim","municipality":{"key":"09577149","name":"Markt Berolzheim, M","type":"Markt"},"district":{"key":"09577","name":"Weißenburg-Gunzenhausen","type":"Landkreis"},"federalState":{"key":"09","name":"Bayern"}},{"name":"Schloßhof","postalCode":"91801","locality":"Markt Berolzheim","municipality":{"key":"09577149","name":"Markt Berolzheim, M","type":"Markt"},"district":{"key":"09577","name":"Weißenburg-Gunzenhausen","type":"Landkreis"},"federalState":{"key":"09","name":"Bayern"}},{"name":"Schloßstr.","postalCode":"88453","locality":"Erolzheim","municipality":{"key":"08426044","name":"Erolzheim","type":"Kreisangehörige_Gemeinde"},"district":{"key":"08426","name":"Biberach","type":"Landkreis"},"federalState":{"key":"08","name":"Baden-Württemberg"}},{"name":"Schultheiß-Bär-Str.","postalCode":"88453","locality":"Erolzheim","municipality":{"key":"08426044","name":"Erolzheim","type":"Kreisangehörige_Gemeinde"},"district":{"key":"08426","name":"Biberach","type":"Landkreis"},"federalState":{"key":"08","name":"Baden-Württemberg"}},{"name":"Schützenstr.","postalCode":"88453","locality":"Erolzheim","municipality":{"key":"08426044","name":"Erolzheim","type":"Kreisangehörige_Gemeinde"},"district":{"key":"08426","name":"Biberach","type":"Landkreis"},"federalState":{"key":"08","name":"Baden-Württemberg"}},{"name":"Sonnenweg","postalCode":"88453","locality":"Erolzheim","municipality":{"key":"08426044","name":"Erolzheim","type":"Kreisangehörige_Gemeinde"},"district":{"key":"08426","name":"Biberach","type":"Landkreis"},"federalState":{"key":"08","name":"Baden-Württemberg"}},{"name":"Spatzenweg","postalCode":"88453","locality":"Erolzheim","municipality":{"key":"08426044","name":"Erolzheim","type":"Kreisangehörige_Gemeinde"},"district":{"key":"08426","name":"Biberach","type":"Landkreis"},"federalState":{"key":"08","name":"Baden-Württemberg"}},{"name":"Sportplatzweg","postalCode":"88453","locality":"Erolzheim","municipality":{"key":"08426044","name":"Erolzheim","type":"Kreisangehörige_Gemeinde"},"district":{"key":"08426","name":"Biberach","type":"Landkreis"},"federalState":{"key":"08","name":"Baden-Württemberg"}},{"name":"Starenweg","postalCode":"88453","locality":"Erolzheim","municipality":{"key":"08426044","name":"Erolzheim","type":"Kreisangehörige_Gemeinde"},"district":{"key":"08426","name":"Biberach","type":"Landkreis"},"federalState":{"key":"08","name":"Baden-Württemberg"}},{"name":"Steigweg","postalCode":"88453","locality":"Erolzheim","municipality":{"key":"08426044","name":"Erolzheim","type":"Kreisangehörige_Gemeinde"},"district":{"key":"08426","name":"Biberach","type":"Landkreis"},"federalState":{"key":"08","name":"Baden-Württemberg"}},{"name":"Stellackersiedlung","postalCode":"91801","locality":"Markt Berolzheim","municipality":{"key":"09577149","name":"Markt Berolzheim, M","type":"Markt"},"district":{"key":"09577","name":"Weißenburg-Gunzenhausen","type":"Landkreis"},"federalState":{"key":"09","name":"Bayern"}},{"name":"St.-Hubertus-Str.","postalCode":"88453","locality":"Erolzheim","municipality":{"key":"08426044","name":"Erolzheim","type":"Kreisangehörige_Gemeinde"},"district":{"key":"08426","name":"Biberach","type":"Landkreis"},"federalState":{"key":"08","name":"Baden-Württemberg"}},{"name":"Sudetenstr.","postalCode":"91801","locality":"Markt Berolzheim","municipality":{"key":"09577149","name":"Markt Berolzheim, M","type":"Markt"},"district":{"key":"09577","name":"Weißenburg-Gunzenhausen","type":"Landkreis"},"federalState":{"key":"09","name":"Bayern"}},{"name":"Tulpenstr.","postalCode":"88453","locality":"Erolzheim","municipality":{"key":"08426044","name":"Erolzheim","type":"Kreisangehörige_Gemeinde"},"district":{"key":"08426","name":"Biberach","type":"Landkreis"},"federalState":{"key":"08","name":"Baden-Württemberg"}},{"name":"Uhlandstr.","postalCode":"88453","locality":"Erolzheim","municipality":{"key":"08426044","name":"Erolzheim","type":"Kreisangehörige_Gemeinde"},"district":{"key":"08426","name":"Biberach","type":"Landkreis"},"federalState":{"key":"08","name":"Baden-Württemberg"}},{"name":"Valenceallee","postalCode":"88400","locality":"Biberach an der Riß","municipality":{"key":"08426021","name":"Biberach an der Riß, Stadt","type":"Große_Kreisstadt"},"district":{"key":"08426","name":"Biberach","type":"Landkreis"},"federalState":{"key":"08","name":"Baden-Württemberg"}},{"name":"Viehmarktplatz","postalCode":"88400","locality":"Biberach an der Riß","municipality":{"key":"08426021","name":"Biberach an der Riß, Stadt","type":"Große_Kreisstadt"},"district":{"key":"08426","name":"Biberach","type":"Landkreis"},"federalState":{"key":"08","name":"Baden-Württemberg"}},{"name":"Viehmarktstr.","postalCode":"88400","locality":"Biberach an der Riß","municipality":{"key":"08426021","name":"Biberach an der Riß, Stadt","type":"Große_Kreisstadt"},"district":{"key":"08426","name":"Biberach","type":"Landkreis"},"federalState":{"key":"08","name":"Baden-Württemberg"}},{"name":"Vogesenstr.","postalCode":"77781","locality":"Biberach","municipality":{"key":"08317011","name":"Biberach","type":"Kreisangehörige_Gemeinde"},"district":{"key":"08317","name":"Ortenaukreis","type":"Landkreis"},"federalState":{"key":"08","name":"Baden-Württemberg"}},{"name":"Vogteistr.","postalCode":"88441","locality":"Mittelbiberach","municipality":{"key":"08426074","name":"Mittelbiberach","type":"Kreisangehörige_Gemeinde"},"district":{"key":"08426","name":"Biberach","type":"Landkreis"},"federalState":{"key":"08","name":"Baden-Württemberg"}},{"name":"Vollmerstr.","postalCode":"88400","locality":"Biberach an der Riß","municipality":{"key":"08426021","name":"Biberach an der Riß, Stadt","type":"Große_Kreisstadt"},"district":{"key":"08426","name":"Biberach","type":"Landkreis"},"federalState":{"key":"08","name":"Baden-Württemberg"}},{"name":"Volmarweg","postalCode":"88400","locality":"Biberach an der Riß","municipality":{"key":"08426021","name":"Biberach an der Riß, Stadt","type":"Große_Kreisstadt"},"district":{"key":"08426","name":"Biberach","type":"Landkreis"},"federalState":{"key":"08","name":"Baden-Württemberg"}},{"name":"Vonierweg","postalCode":"88400","locality":"Biberach an der Riß","municipality":{"key":"08426021","name":"Biberach an der Riß, Stadt","type":"Große_Kreisstadt"},"district":{"key":"08426","name":"Biberach","type":"Landkreis"},"federalState":{"key":"08","name":"Baden-Württemberg"}},{"name":"Vorarlberger Str.","postalCode":"88400","locality":"Biberach an der Riß","municipality":{"key":"08426021","name":"Biberach an der Riß, Stadt","type":"Große_Kreisstadt"},"district":{"key":"08426","name":"Biberach","type":"Landkreis"},"federalState":{"key":"08","name":"Baden-Württemberg"}},{"name":"Vordere Au","postalCode":"88400","locality":"Biberach an der Riß","municipality":{"key":"08426021","name":"Biberach an der Riß, Stadt","type":"Große_Kreisstadt"},"district":{"key":"08426","name":"Biberach","type":"Landkreis"},"federalState":{"key":"08","name":"Baden-Württemberg"}},{"name":"Waldhorngasse","postalCode":"88453","locality":"Erolzheim","municipality":{"key":"08426044","name":"Erolzheim","type":"Kreisangehörige_Gemeinde"},"district":{"key":"08426","name":"Biberach","type":"Landkreis"},"federalState":{"key":"08","name":"Baden-Württemberg"}},{"name":"Waldrastweg","postalCode":"88453","locality":"Erolzheim","municipality":{"key":"08426044","name":"Erolzheim","type":"Kreisangehörige_Gemeinde"},"district":{"key":"08426","name":"Biberach","type":"Landkreis"},"federalState":{"key":"08","name":"Baden-Württemberg"}},{"name":"Waldstr.","postalCode":"88453","locality":"Erolzheim","municipality":{"key":"08426044","name":"Erolzheim","type":"Kreisangehörige_Gemeinde"},"district":{"key":"08426","name":"Biberach","type":"Landkreis"},"federalState":{"key":"08","name":"Baden-Württemberg"}},{"name":"Weiherstr.","postalCode":"88453","locality":"Erolzheim","municipality":{"key":"08426044","name":"Erolzheim","type":"Kreisangehörige_Gemeinde"},"district":{"key":"08426","name":"Biberach","type":"Landkreis"},"federalState":{"key":"08","name":"Baden-Württemberg"}},{"name":"Weingartenweg","postalCode":"91801","locality":"Markt Berolzheim","municipality":{"key":"09577149","name":"Markt Berolzheim, M","type":"Markt"},"district":{"key":"09577","name":"Weißenburg-Gunzenhausen","type":"Landkreis"},"federalState":{"key":"09","name":"Bayern"}},{"name":"Weißer Weg","postalCode":"88453","locality":"Erolzheim","municipality":{"key":"08426044","name":"Erolzheim","type":"Kreisangehörige_Gemeinde"},"district":{"key":"08426","name":"Biberach","type":"Landkreis"},"federalState":{"key":"08","name":"Baden-Württemberg"}},{"name":"Wendelinusweg","postalCode":"88453","locality":"Erolzheim","municipality":{"key":"08426044","name":"Erolzheim","type":"Kreisangehörige_Gemeinde"},"district":{"key":"08426","name":"Biberach","type":"Landkreis"},"federalState":{"key":"08","name":"Baden-Württemberg"}},{"name":"Wettelsheimer Str.","postalCode":"91801","locality":"Markt Berolzheim","municipality":{"key":"09577149","name":"Markt Berolzheim, M","type":"Markt"},"district":{"key":"09577","name":"Weißenburg-Gunzenhausen","type":"Landkreis"},"federalState":{"key":"09","name":"Bayern"}},{"name":"Wielandstr.","postalCode":"88453","locality":"Erolzheim","municipality":{"key":"08426044","name":"Erolzheim","type":"Kreisangehörige_Gemeinde"},"district":{"key":"08426","name":"Biberach","type":"Landkreis"},"federalState":{"key":"08","name":"Baden-Württemberg"}},{"name":"Zeisigweg","postalCode":"88453","locality":"Erolzheim","municipality":{"key":"08426044","name":"Erolzheim","type":"Kreisangehörige_Gemeinde"},"district":{"key":"08426","name":"Biberach","type":"Landkreis"},"federalState":{"key":"08","name":"Baden-Württemberg"}},{"name":"Ziegelholzstr.","postalCode":"88453","locality":"Erolzheim","municipality":{"key":"08426044","name":"Erolzheim","type":"Kreisangehörige_Gemeinde"},"district":{"key":"08426","name":"Biberach","type":"Landkreis"},"federalState":{"key":"08","name":"Baden-Württemberg"}},{"name":"Zollstr.","postalCode":"91801","locality":"Markt Berolzheim","municipality":{"key":"09577149","name":"Markt Berolzheim, M","type":"Markt"},"district":{"key":"09577","name":"Weißenburg-Gunzenhausen","type":"Landkreis"},"federalState":{"key":"09","name":"Bayern"}},{"name":"Öschweg","postalCode":"88441","locality":"Mittelbiberach","municipality":{"key":"08426074","name":"Mittelbiberach","type":"Kreisangehörige_Gemeinde"},"district":{"key":"08426","name":"Biberach","type":"Landkreis"},"federalState":{"key":"08","name":"Baden-Württemberg"}},]