[{"key":"10237168","name":"Alte Gasse","postalCode":"3908","locality":"Saas-Balen","commune":{"key":"6289","name":"Saas-Balen","shortName":"Saas-Balen"},"district":{"key":"2313","name":"Bezirk Visp"},"canton":{"key":"23","code":"VS","name":"Valais / Wallis"},"status":"Real"},{"key":"10237176","name":"Alter Talweg","postalCode":"3908","locality":"Saas-Balen","commune":{"key":"6289","name":"Saas-Balen","shortName":"Saas-Balen"},"district":{"key":"2313","name":"Bezirk Visp"},"canton":{"key":"23","code":"VS","name":"Valais / Wallis"},"status":"Real"},{"key":"10237172","name":"Alte Talstrasse","postalCode":"3908","locality":"Saas-Balen","commune":{"key":"6289","name":"Saas-Balen","shortName":"Saas-Balen"},"district":{"key":"2313","name":"Bezirk Visp"},"canton":{"key":"23","code":"VS","name":"Valais / Wallis"},"status":"Real"},{"key":"10237180","name":"Bachstrasse","postalCode":"3908","locality":"Saas-Balen","commune":{"key":"6289","name":"Saas-Balen","shortName":"Saas-Balen"},"district":{"key":"2313","name":"Bezirk Visp"},"canton":{"key":"23","code":"VS","name":"Valais / Wallis"},"status":"Real"},{"key":"10237184","name":"Bidermattenweg","postalCode":"3908","locality":"Saas-Balen","commune":{"key":"6289","name":"Saas-Balen","shortName":"Saas-Balen"},"district":{"key":"2313","name":"Bezirk Visp"},"canton":{"key":"23","code":"VS","name":"Valais / Wallis"},"status":"Real"},{"key":"10237188","name":"Biderwaldstrasse","postalCode":"3908","locality":"Saas-Balen","commune":{"key":"6289","name":"Saas-Balen","shortName":"Saas-Balen"},"district":{"key":"2313","name":"Bezirk Visp"},"canton":{"key":"23","code":"VS","name":"Valais / Wallis"},"status":"Real"},{"key":"10236223","name":"Biderweg","postalCode":"3908","locality":"Saas-Balen","commune":{"key":"6289","name":"Saas-Balen","shortName":"Saas-Balen"},"district":{"key":"2313","name":"Bezirk Visp"},"canton":{"key":"23","code":"VS","name":"Valais / Wallis"},"status":"Real"},{"key":"10236229","name":"Birchstrasse","postalCode":"3908","locality":"Saas-Balen","commune":{"key":"6289","name":"Saas-Balen","shortName":"Saas-Balen"},"district":{"key":"2313","name":"Bezirk Visp"},"canton":{"key":"23","code":"VS","name":"Valais / Wallis"},"status":"Real"},{"key":"10236234","name":"Bodenweg","postalCode":"3908","locality":"Saas-Balen","commune":{"key":"6289","name":"Saas-Balen","shortName":"Saas-Balen"},"district":{"key":"2313","name":"Bezirk Visp"},"canton":{"key":"23","code":"VS","name":"Valais / Wallis"},"status":"Real"},{"key":"10236238","name":"Bordweg","postalCode":"3908","locality":"Saas-Balen","commune":{"key":"6289","name":"Saas-Balen","shortName":"Saas-Balen"},"district":{"key":"2313","name":"Bezirk Visp"},"canton":{"key":"23","code":"VS","name":"Valais / Wallis"},"status":"Real"},{"key":"10236242","name":"Brandweg","postalCode":"3908","locality":"Saas-Balen","commune":{"key":"6289","name":"Saas-Balen","shortName":"Saas-Balen"},"district":{"key":"2313","name":"Bezirk Visp"},"canton":{"key":"23","code":"VS","name":"Valais / Wallis"},"status":"Real"},{"key":"10236246","name":"Brendstrasse","postalCode":"3908","locality":"Saas-Balen","commune":{"key":"6289","name":"Saas-Balen","shortName":"Saas-Balen"},"district":{"key":"2313","name":"Bezirk Visp"},"canton":{"key":"23","code":"VS","name":"Valais / Wallis"},"status":"Real"},{"key":"10236250","name":"Brückenweg","postalCode":"3908","locality":"Saas-Balen","commune":{"key":"6289","name":"Saas-Balen","shortName":"Saas-Balen"},"district":{"key":"2313","name":"Bezirk Visp"},"canton":{"key":"23","code":"VS","name":"Valais / Wallis"},"status":"Real"},{"key":"10236254","name":"Burgweg","postalCode":"3908","locality":"Saas-Balen","commune":{"key":"6289","name":"Saas-Balen","shortName":"Saas-Balen"},"district":{"key":"2313","name":"Bezirk Visp"},"canton":{"key":"23","code":"VS","name":"Valais / Wallis"},"status":"Real"},{"key":"10236258","name":"Dammstrasse","postalCode":"3908","locality":"Saas-Balen","commune":{"key":"6289","name":"Saas-Balen","shortName":"Saas-Balen"},"district":{"key":"2313","name":"Bezirk Visp"},"canton":{"key":"23","code":"VS","name":"Valais / Wallis"},"status":"Real"},{"key":"10236262","name":"Dorfstrasse","postalCode":"3908","locality":"Saas-Balen","commune":{"key":"6289","name":"Saas-Balen","shortName":"Saas-Balen"},"district":{"key":"2313","name":"Bezirk Visp"},"canton":{"key":"23","code":"VS","name":"Valais / Wallis"},"status":"Real"},{"key":"10236266","name":"Fellbachstrasse","postalCode":"3908","locality":"Saas-Balen","commune":{"key":"6289","name":"Saas-Balen","shortName":"Saas-Balen"},"district":{"key":"2313","name":"Bezirk Visp"},"canton":{"key":"23","code":"VS","name":"Valais / Wallis"},"status":"Real"},{"key":"10236270","name":"Fellmattenweg","postalCode":"3908","locality":"Saas-Balen","commune":{"key":"6289","name":"Saas-Balen","shortName":"Saas-Balen"},"district":{"key":"2313","name":"Bezirk Visp"},"canton":{"key":"23","code":"VS","name":"Valais / Wallis"},"status":"Real"},{"key":"10237216","name":"Flieweg","postalCode":"3908","locality":"Saas-Balen","commune":{"key":"6289","name":"Saas-Balen","shortName":"Saas-Balen"},"district":{"key":"2313","name":"Bezirk Visp"},"canton":{"key":"23","code":"VS","name":"Valais / Wallis"},"status":"Real"},{"key":"10237220","name":"Fluhweg","postalCode":"3908","locality":"Saas-Balen","commune":{"key":"6289","name":"Saas-Balen","shortName":"Saas-Balen"},"district":{"key":"2313","name":"Bezirk Visp"},"canton":{"key":"23","code":"VS","name":"Valais / Wallis"},"status":"Real"},{"key":"10237224","name":"Grubenalpstrasse","postalCode":"3908","locality":"Saas-Balen","commune":{"key":"6289","name":"Saas-Balen","shortName":"Saas-Balen"},"district":{"key":"2313","name":"Bezirk Visp"},"canton":{"key":"23","code":"VS","name":"Valais / Wallis"},"status":"Real"},{"key":"10237228","name":"Grundbielenweg","postalCode":"3908","locality":"Saas-Balen","commune":{"key":"6289","name":"Saas-Balen","shortName":"Saas-Balen"},"district":{"key":"2313","name":"Bezirk Visp"},"canton":{"key":"23","code":"VS","name":"Valais / Wallis"},"status":"Real"},{"key":"10237236","name":"Heimischgartenstrasse","postalCode":"3908","locality":"Saas-Balen","commune":{"key":"6289","name":"Saas-Balen","shortName":"Saas-Balen"},"district":{"key":"2313","name":"Bezirk Visp"},"canton":{"key":"23","code":"VS","name":"Valais / Wallis"},"status":"Real"},{"key":"10237240","name":"Hoferalpstrasse","postalCode":"3908","locality":"Saas-Balen","commune":{"key":"6289","name":"Saas-Balen","shortName":"Saas-Balen"},"district":{"key":"2313","name":"Bezirk Visp"},"canton":{"key":"23","code":"VS","name":"Valais / Wallis"},"status":"Real"},{"key":"10237244","name":"Hollerbielweg","postalCode":"3908","locality":"Saas-Balen","commune":{"key":"6289","name":"Saas-Balen","shortName":"Saas-Balen"},"district":{"key":"2313","name":"Bezirk Visp"},"canton":{"key":"23","code":"VS","name":"Valais / Wallis"},"status":"Real"},{"key":"10202313","name":"Kantonsstrasse","postalCode":"3908","locality":"Saas-Balen","commune":{"key":"6289","name":"Saas-Balen","shortName":"Saas-Balen"},"district":{"key":"2313","name":"Bezirk Visp"},"canton":{"key":"23","code":"VS","name":"Valais / Wallis"},"status":"Real"},{"key":"10237252","name":"Kirchweg","postalCode":"3908","locality":"Saas-Balen","commune":{"key":"6289","name":"Saas-Balen","shortName":"Saas-Balen"},"district":{"key":"2313","name":"Bezirk Visp"},"canton":{"key":"23","code":"VS","name":"Valais / Wallis"},"status":"Real"},{"key":"10237256","name":"Langfluhweg","postalCode":"3908","locality":"Saas-Balen","commune":{"key":"6289","name":"Saas-Balen","shortName":"Saas-Balen"},"district":{"key":"2313","name":"Bezirk Visp"},"canton":{"key":"23","code":"VS","name":"Valais / Wallis"},"status":"Real"},{"key":"10237260","name":"Lärchenstrasse","postalCode":"3908","locality":"Saas-Balen","commune":{"key":"6289","name":"Saas-Balen","shortName":"Saas-Balen"},"district":{"key":"2313","name":"Bezirk Visp"},"canton":{"key":"23","code":"VS","name":"Valais / Wallis"},"status":"Real"},{"key":"10237264","name":"Mattweg","postalCode":"3908","locality":"Saas-Balen","commune":{"key":"6289","name":"Saas-Balen","shortName":"Saas-Balen"},"district":{"key":"2313","name":"Bezirk Visp"},"canton":{"key":"23","code":"VS","name":"Valais / Wallis"},"status":"Real"},{"key":"10237268","name":"Meiggersandweg","postalCode":"3908","locality":"Saas-Balen","commune":{"key":"6289","name":"Saas-Balen","shortName":"Saas-Balen"},"district":{"key":"2313","name":"Bezirk Visp"},"canton":{"key":"23","code":"VS","name":"Valais / Wallis"},"status":"Real"},{"key":"10237272","name":"Niedergutgasse","postalCode":"3908","locality":"Saas-Balen","commune":{"key":"6289","name":"Saas-Balen","shortName":"Saas-Balen"},"district":{"key":"2313","name":"Bezirk Visp"},"canton":{"key":"23","code":"VS","name":"Valais / Wallis"},"status":"Real"},{"key":"10237276","name":"Niwiweg","postalCode":"3908","locality":"Saas-Balen","commune":{"key":"6289","name":"Saas-Balen","shortName":"Saas-Balen"},"district":{"key":"2313","name":"Bezirk Visp"},"canton":{"key":"23","code":"VS","name":"Valais / Wallis"},"status":"Real"},{"key":"10237280","name":"Obere Brendstrasse","postalCode":"3908","locality":"Saas-Balen","commune":{"key":"6289","name":"Saas-Balen","shortName":"Saas-Balen"},"district":{"key":"2313","name":"Bezirk Visp"},"canton":{"key":"23","code":"VS","name":"Valais / Wallis"},"status":"Real"},{"key":"10237284","name":"Rittmalweg","postalCode":"3908","locality":"Saas-Balen","commune":{"key":"6289","name":"Saas-Balen","shortName":"Saas-Balen"},"district":{"key":"2313","name":"Bezirk Visp"},"canton":{"key":"23","code":"VS","name":"Valais / Wallis"},"status":"Real"},{"key":"10061825","name":"Saastalstrasse","postalCode":"3908","locality":"Saas-Balen","commune":{"key":"6289","name":"Saas-Balen","shortName":"Saas-Balen"},"district":{"key":"2313","name":"Bezirk Visp"},"canton":{"key":"23","code":"VS","name":"Valais / Wallis"},"status":"Real"},{"key":"10236330","name":"Sandweg","postalCode":"3908","locality":"Saas-Balen","commune":{"key":"6289","name":"Saas-Balen","shortName":"Saas-Balen"},"district":{"key":"2313","name":"Bezirk Visp"},"canton":{"key":"23","code":"VS","name":"Valais / Wallis"},"status":"Real"},{"key":"10245810","name":"Senggweg","postalCode":"3908","locality":"Saas-Balen","commune":{"key":"6289","name":"Saas-Balen","shortName":"Saas-Balen"},"district":{"key":"2313","name":"Bezirk Visp"},"canton":{"key":"23","code":"VS","name":"Valais / Wallis"},"status":"Real"},{"key":"10237288","name":"Siwinenweg","postalCode":"3908","locality":"Saas-Balen","commune":{"key":"6289","name":"Saas-Balen","shortName":"Saas-Balen"},"district":{"key":"2313","name":"Bezirk Visp"},"canton":{"key":"23","code":"VS","name":"Valais / Wallis"},"status":"Real"},{"key":"10237292","name":"Spärwurzenstrasse","postalCode":"3908","locality":"Saas-Balen","commune":{"key":"6289","name":"Saas-Balen","shortName":"Saas-Balen"},"district":{"key":"2313","name":"Bezirk Visp"},"canton":{"key":"23","code":"VS","name":"Valais / Wallis"},"status":"Real"},{"key":"10237296","name":"Sportplatzstrasse","postalCode":"3908","locality":"Saas-Balen","commune":{"key":"6289","name":"Saas-Balen","shortName":"Saas-Balen"},"district":{"key":"2313","name":"Bezirk Visp"},"canton":{"key":"23","code":"VS","name":"Valais / Wallis"},"status":"Real"},{"key":"10237304","name":"Stafelweg","postalCode":"3908","locality":"Saas-Balen","commune":{"key":"6289","name":"Saas-Balen","shortName":"Saas-Balen"},"district":{"key":"2313","name":"Bezirk Visp"},"canton":{"key":"23","code":"VS","name":"Valais / Wallis"},"status":"Real"},{"key":"10237300","name":"St. Antoniweg","postalCode":"3908","locality":"Saas-Balen","commune":{"key":"6289","name":"Saas-Balen","shortName":"Saas-Balen"},"district":{"key":"2313","name":"Bezirk Visp"},"canton":{"key":"23","code":"VS","name":"Valais / Wallis"},"status":"Real"},{"key":"10245811","name":"Tewaldweg","postalCode":"3908","locality":"Saas-Balen","commune":{"key":"6289","name":"Saas-Balen","shortName":"Saas-Balen"},"district":{"key":"2313","name":"Bezirk Visp"},"canton":{"key":"23","code":"VS","name":"Valais / Wallis"},"status":"Real"},{"key":"10237312","name":"Uferstrasse","postalCode":"3908","locality":"Saas-Balen","commune":{"key":"6289","name":"Saas-Balen","shortName":"Saas-Balen"},"district":{"key":"2313","name":"Bezirk Visp"},"canton":{"key":"23","code":"VS","name":"Valais / Wallis"},"status":"Real"},{"key":"10237316","name":"Untere Heimischgartenstrasse","postalCode":"3908","locality":"Saas-Balen","commune":{"key":"6289","name":"Saas-Balen","shortName":"Saas-Balen"},"district":{"key":"2313","name":"Bezirk Visp"},"canton":{"key":"23","code":"VS","name":"Valais / Wallis"},"status":"Real"},{"key":"10237320","name":"Waldstrasse","postalCode":"3908","locality":"Saas-Balen","commune":{"key":"6289","name":"Saas-Balen","shortName":"Saas-Balen"},"district":{"key":"2313","name":"Bezirk Visp"},"canton":{"key":"23","code":"VS","name":"Valais / Wallis"},"status":"Real"},]