[{"key":"10107830","name":"Bächlingen","postalCode":"9502","locality":"Braunau","commune":{"key":"4723","name":"Braunau","shortName":"Braunau"},"district":{"key":"2014","name":"Bezirk Münchwilen"},"canton":{"key":"20","code":"TG","name":"Thurgau"},"status":"Real"},{"key":"10196967","name":"Bänkewis","postalCode":"9502","locality":"Braunau","commune":{"key":"4723","name":"Braunau","shortName":"Braunau"},"district":{"key":"2014","name":"Bezirk Münchwilen"},"canton":{"key":"20","code":"TG","name":"Thurgau"},"status":"Real"},{"key":"10110437","name":"Beckingen","postalCode":"9502","locality":"Braunau","commune":{"key":"4723","name":"Braunau","shortName":"Braunau"},"district":{"key":"2014","name":"Bezirk Münchwilen"},"canton":{"key":"20","code":"TG","name":"Thurgau"},"status":"Real"},{"key":"10189561","name":"Breitenacker","postalCode":"9502","locality":"Braunau","commune":{"key":"4723","name":"Braunau","shortName":"Braunau"},"district":{"key":"2014","name":"Bezirk Münchwilen"},"canton":{"key":"20","code":"TG","name":"Thurgau"},"status":"Real"},{"key":"10196943","name":"Brunauer Hööchi","postalCode":"9502","locality":"Braunau","commune":{"key":"4723","name":"Braunau","shortName":"Braunau"},"district":{"key":"2014","name":"Bezirk Münchwilen"},"canton":{"key":"20","code":"TG","name":"Thurgau"},"status":"Real"},{"key":"10197507","name":"Buech","postalCode":"9502","locality":"Braunau","commune":{"key":"4723","name":"Braunau","shortName":"Braunau"},"district":{"key":"2014","name":"Bezirk Münchwilen"},"canton":{"key":"20","code":"TG","name":"Thurgau"},"status":"Real"},{"key":"10184411","name":"Bühl","postalCode":"9502","locality":"Braunau","commune":{"key":"4723","name":"Braunau","shortName":"Braunau"},"district":{"key":"2014","name":"Bezirk Münchwilen"},"canton":{"key":"20","code":"TG","name":"Thurgau"},"status":"Real"},{"key":"10196944","name":"Büül","postalCode":"9502","locality":"Braunau","commune":{"key":"4723","name":"Braunau","shortName":"Braunau"},"district":{"key":"2014","name":"Bezirk Münchwilen"},"canton":{"key":"20","code":"TG","name":"Thurgau"},"status":"Real"},{"key":"10197529","name":"Büültobel","postalCode":"9502","locality":"Braunau","commune":{"key":"4723","name":"Braunau","shortName":"Braunau"},"district":{"key":"2014","name":"Bezirk Münchwilen"},"canton":{"key":"20","code":"TG","name":"Thurgau"},"status":"Real"},{"key":"10042293","name":"Dänental","postalCode":"9502","locality":"Braunau","commune":{"key":"4723","name":"Braunau","shortName":"Braunau"},"district":{"key":"2014","name":"Bezirk Münchwilen"},"canton":{"key":"20","code":"TG","name":"Thurgau"},"status":"Real"},{"key":"10053147","name":"Dorfstrasse","postalCode":"9502","locality":"Braunau","commune":{"key":"4723","name":"Braunau","shortName":"Braunau"},"district":{"key":"2014","name":"Bezirk Münchwilen"},"canton":{"key":"20","code":"TG","name":"Thurgau"},"status":"Real"},{"key":"10070798","name":"Ebnet","postalCode":"9502","locality":"Braunau","commune":{"key":"4723","name":"Braunau","shortName":"Braunau"},"district":{"key":"2014","name":"Bezirk Münchwilen"},"canton":{"key":"20","code":"TG","name":"Thurgau"},"status":"Real"},{"key":"10121486","name":"Ebnetwies","postalCode":"9502","locality":"Braunau","commune":{"key":"4723","name":"Braunau","shortName":"Braunau"},"district":{"key":"2014","name":"Bezirk Münchwilen"},"canton":{"key":"20","code":"TG","name":"Thurgau"},"status":"Real"},{"key":"10042294","name":"Eich","postalCode":"9502","locality":"Braunau","commune":{"key":"4723","name":"Braunau","shortName":"Braunau"},"district":{"key":"2014","name":"Bezirk Münchwilen"},"canton":{"key":"20","code":"TG","name":"Thurgau"},"status":"Real"},{"key":"10092053","name":"Friedbergstrasse","postalCode":"9502","locality":"Braunau","commune":{"key":"4723","name":"Braunau","shortName":"Braunau"},"district":{"key":"2014","name":"Bezirk Münchwilen"},"canton":{"key":"20","code":"TG","name":"Thurgau"},"status":"Real"},{"key":"10070799","name":"Fröhlich-Strasse","postalCode":"9502","locality":"Braunau","commune":{"key":"4723","name":"Braunau","shortName":"Braunau"},"district":{"key":"2014","name":"Bezirk Münchwilen"},"canton":{"key":"20","code":"TG","name":"Thurgau"},"status":"Real"},{"key":"10251465","name":"Fürhäusern","postalCode":"9502","locality":"Braunau","commune":{"key":"4723","name":"Braunau","shortName":"Braunau"},"district":{"key":"2014","name":"Bezirk Münchwilen"},"canton":{"key":"20","code":"TG","name":"Thurgau"},"status":"Real"},{"key":"10042295","name":"Gehrwies","postalCode":"9502","locality":"Braunau","commune":{"key":"4723","name":"Braunau","shortName":"Braunau"},"district":{"key":"2014","name":"Bezirk Münchwilen"},"canton":{"key":"20","code":"TG","name":"Thurgau"},"status":"Real"},{"key":"10042296","name":"Grundstrasse","postalCode":"9502","locality":"Braunau","commune":{"key":"4723","name":"Braunau","shortName":"Braunau"},"district":{"key":"2014","name":"Bezirk Münchwilen"},"canton":{"key":"20","code":"TG","name":"Thurgau"},"status":"Real"},{"key":"10149846","name":"Grundweg","postalCode":"9502","locality":"Braunau","commune":{"key":"4723","name":"Braunau","shortName":"Braunau"},"district":{"key":"2014","name":"Bezirk Münchwilen"},"canton":{"key":"20","code":"TG","name":"Thurgau"},"status":"Real"},{"key":"10092054","name":"Hauptstrasse","postalCode":"9502","locality":"Braunau","commune":{"key":"4723","name":"Braunau","shortName":"Braunau"},"district":{"key":"2014","name":"Bezirk Münchwilen"},"canton":{"key":"20","code":"TG","name":"Thurgau"},"status":"Real"},{"key":"10059450","name":"Heid","postalCode":"9502","locality":"Braunau","commune":{"key":"4723","name":"Braunau","shortName":"Braunau"},"district":{"key":"2014","name":"Bezirk Münchwilen"},"canton":{"key":"20","code":"TG","name":"Thurgau"},"status":"Real"},{"key":"10042297","name":"Hittingen","postalCode":"9502","locality":"Braunau","commune":{"key":"4723","name":"Braunau","shortName":"Braunau"},"district":{"key":"2014","name":"Bezirk Münchwilen"},"canton":{"key":"20","code":"TG","name":"Thurgau"},"status":"Real"},{"key":"10110438","name":"Hitzliwies","postalCode":"9502","locality":"Braunau","commune":{"key":"4723","name":"Braunau","shortName":"Braunau"},"district":{"key":"2014","name":"Bezirk Münchwilen"},"canton":{"key":"20","code":"TG","name":"Thurgau"},"status":"Real"},{"key":"10059451","name":"Hofacker","postalCode":"9502","locality":"Braunau","commune":{"key":"4723","name":"Braunau","shortName":"Braunau"},"district":{"key":"2014","name":"Bezirk Münchwilen"},"canton":{"key":"20","code":"TG","name":"Thurgau"},"status":"Real"},{"key":"10042298","name":"Hohfuri","postalCode":"9502","locality":"Braunau","commune":{"key":"4723","name":"Braunau","shortName":"Braunau"},"district":{"key":"2014","name":"Bezirk Münchwilen"},"canton":{"key":"20","code":"TG","name":"Thurgau"},"status":"Real"},{"key":"10183809","name":"Hohrüti","postalCode":"9502","locality":"Braunau","commune":{"key":"4723","name":"Braunau","shortName":"Braunau"},"district":{"key":"2014","name":"Bezirk Münchwilen"},"canton":{"key":"20","code":"TG","name":"Thurgau"},"status":"Real"},{"key":"10042299","name":"Hölzli","postalCode":"9502","locality":"Braunau","commune":{"key":"4723","name":"Braunau","shortName":"Braunau"},"district":{"key":"2014","name":"Bezirk Münchwilen"},"canton":{"key":"20","code":"TG","name":"Thurgau"},"status":"Real"},{"key":"10197508","name":"Hööchi","postalCode":"9502","locality":"Braunau","commune":{"key":"4723","name":"Braunau","shortName":"Braunau"},"district":{"key":"2014","name":"Bezirk Münchwilen"},"canton":{"key":"20","code":"TG","name":"Thurgau"},"status":"Real"},{"key":"10159649","name":"Hühnersedel","postalCode":"9502","locality":"Braunau","commune":{"key":"4723","name":"Braunau","shortName":"Braunau"},"district":{"key":"2014","name":"Bezirk Münchwilen"},"canton":{"key":"20","code":"TG","name":"Thurgau"},"status":"Real"},{"key":"10115643","name":"Kirchensteig","postalCode":"9502","locality":"Braunau","commune":{"key":"4723","name":"Braunau","shortName":"Braunau"},"district":{"key":"2014","name":"Bezirk Münchwilen"},"canton":{"key":"20","code":"TG","name":"Thurgau"},"status":"Real"},{"key":"10122496","name":"Kläffler","postalCode":"9502","locality":"Braunau","commune":{"key":"4723","name":"Braunau","shortName":"Braunau"},"district":{"key":"2014","name":"Bezirk Münchwilen"},"canton":{"key":"20","code":"TG","name":"Thurgau"},"status":"Real"},{"key":"10197530","name":"Laame","postalCode":"9502","locality":"Braunau","commune":{"key":"4723","name":"Braunau","shortName":"Braunau"},"district":{"key":"2014","name":"Bezirk Münchwilen"},"canton":{"key":"20","code":"TG","name":"Thurgau"},"status":"Real"},{"key":"10184412","name":"Loo","postalCode":"9502","locality":"Braunau","commune":{"key":"4723","name":"Braunau","shortName":"Braunau"},"district":{"key":"2014","name":"Bezirk Münchwilen"},"canton":{"key":"20","code":"TG","name":"Thurgau"},"status":"Real"},{"key":"10042300","name":"Loostrasse","postalCode":"9502","locality":"Braunau","commune":{"key":"4723","name":"Braunau","shortName":"Braunau"},"district":{"key":"2014","name":"Bezirk Münchwilen"},"canton":{"key":"20","code":"TG","name":"Thurgau"},"status":"Real"},{"key":"10196969","name":"Mösli","postalCode":"9502","locality":"Braunau","commune":{"key":"4723","name":"Braunau","shortName":"Braunau"},"district":{"key":"2014","name":"Bezirk Münchwilen"},"canton":{"key":"20","code":"TG","name":"Thurgau"},"status":"Real"},{"key":"10149247","name":"Mühlewies","postalCode":"9502","locality":"Braunau","commune":{"key":"4723","name":"Braunau","shortName":"Braunau"},"district":{"key":"2014","name":"Bezirk Münchwilen"},"canton":{"key":"20","code":"TG","name":"Thurgau"},"status":"Real"},{"key":"10196946","name":"Müllhalde","postalCode":"9502","locality":"Braunau","commune":{"key":"4723","name":"Braunau","shortName":"Braunau"},"district":{"key":"2014","name":"Bezirk Münchwilen"},"canton":{"key":"20","code":"TG","name":"Thurgau"},"status":"Real"},{"key":"10059452","name":"Obere Heid","postalCode":"9502","locality":"Braunau","commune":{"key":"4723","name":"Braunau","shortName":"Braunau"},"district":{"key":"2014","name":"Bezirk Münchwilen"},"canton":{"key":"20","code":"TG","name":"Thurgau"},"status":"Real"},{"key":"10070800","name":"Oberhausen","postalCode":"9502","locality":"Braunau","commune":{"key":"4723","name":"Braunau","shortName":"Braunau"},"district":{"key":"2014","name":"Bezirk Münchwilen"},"canton":{"key":"20","code":"TG","name":"Thurgau"},"status":"Real"},{"key":"10187484","name":"Oberhof","postalCode":"9502","locality":"Braunau","commune":{"key":"4723","name":"Braunau","shortName":"Braunau"},"district":{"key":"2014","name":"Bezirk Münchwilen"},"canton":{"key":"20","code":"TG","name":"Thurgau"},"status":"Real"},{"key":"10042301","name":"Oberholz","postalCode":"9502","locality":"Braunau","commune":{"key":"4723","name":"Braunau","shortName":"Braunau"},"district":{"key":"2014","name":"Bezirk Münchwilen"},"canton":{"key":"20","code":"TG","name":"Thurgau"},"status":"Real"},{"key":"10042302","name":"Riedern","postalCode":"9502","locality":"Braunau","commune":{"key":"4723","name":"Braunau","shortName":"Braunau"},"district":{"key":"2014","name":"Bezirk Münchwilen"},"canton":{"key":"20","code":"TG","name":"Thurgau"},"status":"Real"},{"key":"10196970","name":"Riet","postalCode":"9502","locality":"Braunau","commune":{"key":"4723","name":"Braunau","shortName":"Braunau"},"district":{"key":"2014","name":"Bezirk Münchwilen"},"canton":{"key":"20","code":"TG","name":"Thurgau"},"status":"Real"},{"key":"10092055","name":"Riethüsli","postalCode":"9502","locality":"Braunau","commune":{"key":"4723","name":"Braunau","shortName":"Braunau"},"district":{"key":"2014","name":"Bezirk Münchwilen"},"canton":{"key":"20","code":"TG","name":"Thurgau"},"status":"Real"},{"key":"10190380","name":"Riethüslistrasse","postalCode":"9502","locality":"Braunau","commune":{"key":"4723","name":"Braunau","shortName":"Braunau"},"district":{"key":"2014","name":"Bezirk Münchwilen"},"canton":{"key":"20","code":"TG","name":"Thurgau"},"status":"Real"},{"key":"10197509","name":"Rietli","postalCode":"9502","locality":"Braunau","commune":{"key":"4723","name":"Braunau","shortName":"Braunau"},"district":{"key":"2014","name":"Bezirk Münchwilen"},"canton":{"key":"20","code":"TG","name":"Thurgau"},"status":"Real"},{"key":"10184413","name":"Rimensberg","postalCode":"9502","locality":"Braunau","commune":{"key":"4723","name":"Braunau","shortName":"Braunau"},"district":{"key":"2014","name":"Bezirk Münchwilen"},"canton":{"key":"20","code":"TG","name":"Thurgau"},"status":"Real"},{"key":"10197532","name":"Rosswaad","postalCode":"9502","locality":"Braunau","commune":{"key":"4723","name":"Braunau","shortName":"Braunau"},"district":{"key":"2014","name":"Bezirk Münchwilen"},"canton":{"key":"20","code":"TG","name":"Thurgau"},"status":"Real"},{"key":"10196971","name":"Schache","postalCode":"9502","locality":"Braunau","commune":{"key":"4723","name":"Braunau","shortName":"Braunau"},"district":{"key":"2014","name":"Bezirk Münchwilen"},"canton":{"key":"20","code":"TG","name":"Thurgau"},"status":"Real"},{"key":"10196947","name":"Schnäggler","postalCode":"9502","locality":"Braunau","commune":{"key":"4723","name":"Braunau","shortName":"Braunau"},"district":{"key":"2014","name":"Bezirk Münchwilen"},"canton":{"key":"20","code":"TG","name":"Thurgau"},"status":"Real"},{"key":"10197533","name":"Schüürli","postalCode":"9502","locality":"Braunau","commune":{"key":"4723","name":"Braunau","shortName":"Braunau"},"district":{"key":"2014","name":"Bezirk Münchwilen"},"canton":{"key":"20","code":"TG","name":"Thurgau"},"status":"Real"},{"key":"10059453","name":"Straussbühl","postalCode":"9502","locality":"Braunau","commune":{"key":"4723","name":"Braunau","shortName":"Braunau"},"district":{"key":"2014","name":"Bezirk Münchwilen"},"canton":{"key":"20","code":"TG","name":"Thurgau"},"status":"Real"},{"key":"10042303","name":"Tobelacker","postalCode":"9502","locality":"Braunau","commune":{"key":"4723","name":"Braunau","shortName":"Braunau"},"district":{"key":"2014","name":"Bezirk Münchwilen"},"canton":{"key":"20","code":"TG","name":"Thurgau"},"status":"Real"},{"key":"10123442","name":"Ueterschen","postalCode":"9502","locality":"Braunau","commune":{"key":"4723","name":"Braunau","shortName":"Braunau"},"district":{"key":"2014","name":"Bezirk Münchwilen"},"canton":{"key":"20","code":"TG","name":"Thurgau"},"status":"Real"},{"key":"10197534","name":"Weier","postalCode":"9502","locality":"Braunau","commune":{"key":"4723","name":"Braunau","shortName":"Braunau"},"district":{"key":"2014","name":"Bezirk Münchwilen"},"canton":{"key":"20","code":"TG","name":"Thurgau"},"status":"Real"},{"key":"10197510","name":"Wingetsacker","postalCode":"9502","locality":"Braunau","commune":{"key":"4723","name":"Braunau","shortName":"Braunau"},"district":{"key":"2014","name":"Bezirk Münchwilen"},"canton":{"key":"20","code":"TG","name":"Thurgau"},"status":"Real"},{"key":"10042304","name":"Zimmerwies","postalCode":"9502","locality":"Braunau","commune":{"key":"4723","name":"Braunau","shortName":"Braunau"},"district":{"key":"2014","name":"Bezirk Münchwilen"},"canton":{"key":"20","code":"TG","name":"Thurgau"},"status":"Real"},]