[{"name":"Am Alpenblick","postalCode":"82297","locality":"Steindorf","municipality":{"key":"09771168","name":"Steindorf","type":"Kreisangehörige_Gemeinde"},"district":{"key":"09771","name":"Aichach-Friedberg","type":"Landkreis"},"federalState":{"key":"09","name":"Bayern"}},{"name":"Am Anger","postalCode":"82297","locality":"Steindorf","municipality":{"key":"09771168","name":"Steindorf","type":"Kreisangehörige_Gemeinde"},"district":{"key":"09771","name":"Aichach-Friedberg","type":"Landkreis"},"federalState":{"key":"09","name":"Bayern"}},{"name":"Am Baumgarten","postalCode":"82297","locality":"Steindorf","municipality":{"key":"09771168","name":"Steindorf","type":"Kreisangehörige_Gemeinde"},"district":{"key":"09771","name":"Aichach-Friedberg","type":"Landkreis"},"federalState":{"key":"09","name":"Bayern"}},{"name":"Am Schmitterbach","postalCode":"82297","locality":"Steindorf","municipality":{"key":"09771168","name":"Steindorf","type":"Kreisangehörige_Gemeinde"},"district":{"key":"09771","name":"Aichach-Friedberg","type":"Landkreis"},"federalState":{"key":"09","name":"Bayern"}},{"name":"An der Ziegelei","postalCode":"82297","locality":"Steindorf","municipality":{"key":"09771168","name":"Steindorf","type":"Kreisangehörige_Gemeinde"},"district":{"key":"09771","name":"Aichach-Friedberg","type":"Landkreis"},"federalState":{"key":"09","name":"Bayern"}},{"name":"Auf der Draad","postalCode":"82297","locality":"Steindorf","municipality":{"key":"09771168","name":"Steindorf","type":"Kreisangehörige_Gemeinde"},"district":{"key":"09771","name":"Aichach-Friedberg","type":"Landkreis"},"federalState":{"key":"09","name":"Bayern"}},{"name":"Benefiziatenweg","postalCode":"82297","locality":"Steindorf","municipality":{"key":"09771168","name":"Steindorf","type":"Kreisangehörige_Gemeinde"},"district":{"key":"09771","name":"Aichach-Friedberg","type":"Landkreis"},"federalState":{"key":"09","name":"Bayern"}},{"name":"Birkenweg","postalCode":"82297","locality":"Steindorf","municipality":{"key":"09771168","name":"Steindorf","type":"Kreisangehörige_Gemeinde"},"district":{"key":"09771","name":"Aichach-Friedberg","type":"Landkreis"},"federalState":{"key":"09","name":"Bayern"}},{"name":"Bürgermeister-Ankner-Str.","postalCode":"82297","locality":"Steindorf","municipality":{"key":"09771168","name":"Steindorf","type":"Kreisangehörige_Gemeinde"},"district":{"key":"09771","name":"Aichach-Friedberg","type":"Landkreis"},"federalState":{"key":"09","name":"Bayern"}},{"name":"Bürgermeister-Schauer-Str.","postalCode":"82297","locality":"Steindorf","municipality":{"key":"09771168","name":"Steindorf","type":"Kreisangehörige_Gemeinde"},"district":{"key":"09771","name":"Aichach-Friedberg","type":"Landkreis"},"federalState":{"key":"09","name":"Bayern"}},{"name":"Hauptstr.","postalCode":"82297","locality":"Steindorf","municipality":{"key":"09771168","name":"Steindorf","type":"Kreisangehörige_Gemeinde"},"district":{"key":"09771","name":"Aichach-Friedberg","type":"Landkreis"},"federalState":{"key":"09","name":"Bayern"}},{"name":"Herzog-Wilhelm-Str.","postalCode":"82297","locality":"Steindorf","municipality":{"key":"09771168","name":"Steindorf","type":"Kreisangehörige_Gemeinde"},"district":{"key":"09771","name":"Aichach-Friedberg","type":"Landkreis"},"federalState":{"key":"09","name":"Bayern"}},{"name":"Hochwasserrückhaltebecken Putzmühle","postalCode":"82297","locality":"Steindorf","municipality":{"key":"09771168","name":"Steindorf","type":"Kreisangehörige_Gemeinde"},"district":{"key":"09771","name":"Aichach-Friedberg","type":"Landkreis"},"federalState":{"key":"09","name":"Bayern"}},{"name":"In der Graswegbreite","postalCode":"82297","locality":"Steindorf","municipality":{"key":"09771168","name":"Steindorf","type":"Kreisangehörige_Gemeinde"},"district":{"key":"09771","name":"Aichach-Friedberg","type":"Landkreis"},"federalState":{"key":"09","name":"Bayern"}},{"name":"Kapellenweg","postalCode":"82297","locality":"Steindorf","municipality":{"key":"09771168","name":"Steindorf","type":"Kreisangehörige_Gemeinde"},"district":{"key":"09771","name":"Aichach-Friedberg","type":"Landkreis"},"federalState":{"key":"09","name":"Bayern"}},{"name":"Kirchenweg","postalCode":"82297","locality":"Steindorf","municipality":{"key":"09771168","name":"Steindorf","type":"Kreisangehörige_Gemeinde"},"district":{"key":"09771","name":"Aichach-Friedberg","type":"Landkreis"},"federalState":{"key":"09","name":"Bayern"}},{"name":"Kirchstr.","postalCode":"82297","locality":"Steindorf","municipality":{"key":"09771168","name":"Steindorf","type":"Kreisangehörige_Gemeinde"},"district":{"key":"09771","name":"Aichach-Friedberg","type":"Landkreis"},"federalState":{"key":"09","name":"Bayern"}},{"name":"Liftenweg","postalCode":"82297","locality":"Steindorf","municipality":{"key":"09771168","name":"Steindorf","type":"Kreisangehörige_Gemeinde"},"district":{"key":"09771","name":"Aichach-Friedberg","type":"Landkreis"},"federalState":{"key":"09","name":"Bayern"}},{"name":"Raiffeisenstr.","postalCode":"82297","locality":"Steindorf","municipality":{"key":"09771168","name":"Steindorf","type":"Kreisangehörige_Gemeinde"},"district":{"key":"09771","name":"Aichach-Friedberg","type":"Landkreis"},"federalState":{"key":"09","name":"Bayern"}},{"name":"Schulstr.","postalCode":"82297","locality":"Steindorf","municipality":{"key":"09771168","name":"Steindorf","type":"Kreisangehörige_Gemeinde"},"district":{"key":"09771","name":"Aichach-Friedberg","type":"Landkreis"},"federalState":{"key":"09","name":"Bayern"}},{"name":"Sedlhofring","postalCode":"82297","locality":"Steindorf","municipality":{"key":"09771168","name":"Steindorf","type":"Kreisangehörige_Gemeinde"},"district":{"key":"09771","name":"Aichach-Friedberg","type":"Landkreis"},"federalState":{"key":"09","name":"Bayern"}},{"name":"Steindorfer Str.","postalCode":"82297","locality":"Steindorf","municipality":{"key":"09771168","name":"Steindorf","type":"Kreisangehörige_Gemeinde"},"district":{"key":"09771","name":"Aichach-Friedberg","type":"Landkreis"},"federalState":{"key":"09","name":"Bayern"}},{"name":"Westendstr.","postalCode":"82297","locality":"Steindorf","municipality":{"key":"09771168","name":"Steindorf","type":"Kreisangehörige_Gemeinde"},"district":{"key":"09771","name":"Aichach-Friedberg","type":"Landkreis"},"federalState":{"key":"09","name":"Bayern"}},]