[{"name":"Altwiese","postalCode":"54317","locality":"Farschweiler","municipality":{"key":"07235021","name":"Farschweiler","type":"Kreisangehörige_Gemeinde"},"district":{"key":"07235","name":"Trier-Saarburg","type":"Landkreis"},"federalState":{"key":"07","name":"Rheinland-Pfalz"}},{"name":"Am Hang","postalCode":"54317","locality":"Farschweiler","municipality":{"key":"07235021","name":"Farschweiler","type":"Kreisangehörige_Gemeinde"},"district":{"key":"07235","name":"Trier-Saarburg","type":"Landkreis"},"federalState":{"key":"07","name":"Rheinland-Pfalz"}},{"name":"Bergstr.","postalCode":"54317","locality":"Farschweiler","municipality":{"key":"07235021","name":"Farschweiler","type":"Kreisangehörige_Gemeinde"},"district":{"key":"07235","name":"Trier-Saarburg","type":"Landkreis"},"federalState":{"key":"07","name":"Rheinland-Pfalz"}},{"name":"Birkenhof","postalCode":"54317","locality":"Farschweiler","municipality":{"key":"07235021","name":"Farschweiler","type":"Kreisangehörige_Gemeinde"},"district":{"key":"07235","name":"Trier-Saarburg","type":"Landkreis"},"federalState":{"key":"07","name":"Rheinland-Pfalz"}},{"name":"Bornwiese","postalCode":"54317","locality":"Farschweiler","municipality":{"key":"07235021","name":"Farschweiler","type":"Kreisangehörige_Gemeinde"},"district":{"key":"07235","name":"Trier-Saarburg","type":"Landkreis"},"federalState":{"key":"07","name":"Rheinland-Pfalz"}},{"name":"Brunnenstr.","postalCode":"54317","locality":"Farschweiler","municipality":{"key":"07235021","name":"Farschweiler","type":"Kreisangehörige_Gemeinde"},"district":{"key":"07235","name":"Trier-Saarburg","type":"Landkreis"},"federalState":{"key":"07","name":"Rheinland-Pfalz"}},{"name":"Hauptstr.","postalCode":"54317","locality":"Farschweiler","municipality":{"key":"07235021","name":"Farschweiler","type":"Kreisangehörige_Gemeinde"},"district":{"key":"07235","name":"Trier-Saarburg","type":"Landkreis"},"federalState":{"key":"07","name":"Rheinland-Pfalz"}},{"name":"Hinzerter Pfad","postalCode":"54317","locality":"Farschweiler","municipality":{"key":"07235021","name":"Farschweiler","type":"Kreisangehörige_Gemeinde"},"district":{"key":"07235","name":"Trier-Saarburg","type":"Landkreis"},"federalState":{"key":"07","name":"Rheinland-Pfalz"}},{"name":"Im Bruch","postalCode":"54317","locality":"Farschweiler","municipality":{"key":"07235021","name":"Farschweiler","type":"Kreisangehörige_Gemeinde"},"district":{"key":"07235","name":"Trier-Saarburg","type":"Landkreis"},"federalState":{"key":"07","name":"Rheinland-Pfalz"}},{"name":"Im Bungert","postalCode":"54317","locality":"Farschweiler","municipality":{"key":"07235021","name":"Farschweiler","type":"Kreisangehörige_Gemeinde"},"district":{"key":"07235","name":"Trier-Saarburg","type":"Landkreis"},"federalState":{"key":"07","name":"Rheinland-Pfalz"}},{"name":"Im Hellgraben","postalCode":"54317","locality":"Farschweiler","municipality":{"key":"07235021","name":"Farschweiler","type":"Kreisangehörige_Gemeinde"},"district":{"key":"07235","name":"Trier-Saarburg","type":"Landkreis"},"federalState":{"key":"07","name":"Rheinland-Pfalz"}},{"name":"Im Persch","postalCode":"54317","locality":"Farschweiler","municipality":{"key":"07235021","name":"Farschweiler","type":"Kreisangehörige_Gemeinde"},"district":{"key":"07235","name":"Trier-Saarburg","type":"Landkreis"},"federalState":{"key":"07","name":"Rheinland-Pfalz"}},{"name":"Kirchweg","postalCode":"54317","locality":"Farschweiler","municipality":{"key":"07235021","name":"Farschweiler","type":"Kreisangehörige_Gemeinde"},"district":{"key":"07235","name":"Trier-Saarburg","type":"Landkreis"},"federalState":{"key":"07","name":"Rheinland-Pfalz"}},{"name":"Kleegarten","postalCode":"54317","locality":"Farschweiler","municipality":{"key":"07235021","name":"Farschweiler","type":"Kreisangehörige_Gemeinde"},"district":{"key":"07235","name":"Trier-Saarburg","type":"Landkreis"},"federalState":{"key":"07","name":"Rheinland-Pfalz"}},{"name":"Klosterstr.","postalCode":"54317","locality":"Farschweiler","municipality":{"key":"07235021","name":"Farschweiler","type":"Kreisangehörige_Gemeinde"},"district":{"key":"07235","name":"Trier-Saarburg","type":"Landkreis"},"federalState":{"key":"07","name":"Rheinland-Pfalz"}},{"name":"Kuhbach","postalCode":"54317","locality":"Farschweiler","municipality":{"key":"07235021","name":"Farschweiler","type":"Kreisangehörige_Gemeinde"},"district":{"key":"07235","name":"Trier-Saarburg","type":"Landkreis"},"federalState":{"key":"07","name":"Rheinland-Pfalz"}},{"name":"Lange Reihe","postalCode":"54317","locality":"Farschweiler","municipality":{"key":"07235021","name":"Farschweiler","type":"Kreisangehörige_Gemeinde"},"district":{"key":"07235","name":"Trier-Saarburg","type":"Landkreis"},"federalState":{"key":"07","name":"Rheinland-Pfalz"}},{"name":"Rascheider Weg","postalCode":"54317","locality":"Farschweiler","municipality":{"key":"07235021","name":"Farschweiler","type":"Kreisangehörige_Gemeinde"},"district":{"key":"07235","name":"Trier-Saarburg","type":"Landkreis"},"federalState":{"key":"07","name":"Rheinland-Pfalz"}},{"name":"Reinsfelder Weg","postalCode":"54317","locality":"Farschweiler","municipality":{"key":"07235021","name":"Farschweiler","type":"Kreisangehörige_Gemeinde"},"district":{"key":"07235","name":"Trier-Saarburg","type":"Landkreis"},"federalState":{"key":"07","name":"Rheinland-Pfalz"}},{"name":"Sternfelder Str.","postalCode":"54317","locality":"Farschweiler","municipality":{"key":"07235021","name":"Farschweiler","type":"Kreisangehörige_Gemeinde"},"district":{"key":"07235","name":"Trier-Saarburg","type":"Landkreis"},"federalState":{"key":"07","name":"Rheinland-Pfalz"}},{"name":"Traef","postalCode":"54317","locality":"Farschweiler","municipality":{"key":"07235021","name":"Farschweiler","type":"Kreisangehörige_Gemeinde"},"district":{"key":"07235","name":"Trier-Saarburg","type":"Landkreis"},"federalState":{"key":"07","name":"Rheinland-Pfalz"}},{"name":"Unterm Wehlenkopf","postalCode":"54317","locality":"Farschweiler","municipality":{"key":"07235021","name":"Farschweiler","type":"Kreisangehörige_Gemeinde"},"district":{"key":"07235","name":"Trier-Saarburg","type":"Landkreis"},"federalState":{"key":"07","name":"Rheinland-Pfalz"}},{"name":"Walddistelpfad","postalCode":"54317","locality":"Farschweiler","municipality":{"key":"07235021","name":"Farschweiler","type":"Kreisangehörige_Gemeinde"},"district":{"key":"07235","name":"Trier-Saarburg","type":"Landkreis"},"federalState":{"key":"07","name":"Rheinland-Pfalz"}},{"name":"Zum Altenweg","postalCode":"54317","locality":"Farschweiler","municipality":{"key":"07235021","name":"Farschweiler","type":"Kreisangehörige_Gemeinde"},"district":{"key":"07235","name":"Trier-Saarburg","type":"Landkreis"},"federalState":{"key":"07","name":"Rheinland-Pfalz"}},{"name":"Zum Höchst","postalCode":"54317","locality":"Farschweiler","municipality":{"key":"07235021","name":"Farschweiler","type":"Kreisangehörige_Gemeinde"},"district":{"key":"07235","name":"Trier-Saarburg","type":"Landkreis"},"federalState":{"key":"07","name":"Rheinland-Pfalz"}},]