[{"name":"Am Ehrenmal","postalCode":"55276","locality":"Dienheim","municipality":{"key":"07339012","name":"Dienheim","type":"Kreisangehörige_Gemeinde"},"district":{"key":"07339","name":"Mainz-Bingen","type":"Landkreis"},"federalState":{"key":"07","name":"Rheinland-Pfalz"}},{"name":"Am Sportplatz","postalCode":"55276","locality":"Dienheim","municipality":{"key":"07339012","name":"Dienheim","type":"Kreisangehörige_Gemeinde"},"district":{"key":"07339","name":"Mainz-Bingen","type":"Landkreis"},"federalState":{"key":"07","name":"Rheinland-Pfalz"}},{"name":"Am Steinernen Stock","postalCode":"55276","locality":"Dienheim","municipality":{"key":"07339012","name":"Dienheim","type":"Kreisangehörige_Gemeinde"},"district":{"key":"07339","name":"Mainz-Bingen","type":"Landkreis"},"federalState":{"key":"07","name":"Rheinland-Pfalz"}},{"name":"Am Taubhaus","postalCode":"55276","locality":"Dienheim","municipality":{"key":"07339012","name":"Dienheim","type":"Kreisangehörige_Gemeinde"},"district":{"key":"07339","name":"Mainz-Bingen","type":"Landkreis"},"federalState":{"key":"07","name":"Rheinland-Pfalz"}},{"name":"An der Domäne","postalCode":"55276","locality":"Dienheim","municipality":{"key":"07339012","name":"Dienheim","type":"Kreisangehörige_Gemeinde"},"district":{"key":"07339","name":"Mainz-Bingen","type":"Landkreis"},"federalState":{"key":"07","name":"Rheinland-Pfalz"}},{"name":"An der Gänsgrub","postalCode":"55276","locality":"Dienheim","municipality":{"key":"07339012","name":"Dienheim","type":"Kreisangehörige_Gemeinde"},"district":{"key":"07339","name":"Mainz-Bingen","type":"Landkreis"},"federalState":{"key":"07","name":"Rheinland-Pfalz"}},{"name":"Bahnstr.","postalCode":"55276","locality":"Dienheim","municipality":{"key":"07339012","name":"Dienheim","type":"Kreisangehörige_Gemeinde"},"district":{"key":"07339","name":"Mainz-Bingen","type":"Landkreis"},"federalState":{"key":"07","name":"Rheinland-Pfalz"}},{"name":"Bergweg","postalCode":"55276","locality":"Dienheim","municipality":{"key":"07339012","name":"Dienheim","type":"Kreisangehörige_Gemeinde"},"district":{"key":"07339","name":"Mainz-Bingen","type":"Landkreis"},"federalState":{"key":"07","name":"Rheinland-Pfalz"}},{"name":"Berliner Str.","postalCode":"55276","locality":"Dienheim","municipality":{"key":"07339012","name":"Dienheim","type":"Kreisangehörige_Gemeinde"},"district":{"key":"07339","name":"Mainz-Bingen","type":"Landkreis"},"federalState":{"key":"07","name":"Rheinland-Pfalz"}},{"name":"Bleichweg","postalCode":"55276","locality":"Dienheim","municipality":{"key":"07339012","name":"Dienheim","type":"Kreisangehörige_Gemeinde"},"district":{"key":"07339","name":"Mainz-Bingen","type":"Landkreis"},"federalState":{"key":"07","name":"Rheinland-Pfalz"}},{"name":"Falkenbergweg","postalCode":"55276","locality":"Dienheim","municipality":{"key":"07339012","name":"Dienheim","type":"Kreisangehörige_Gemeinde"},"district":{"key":"07339","name":"Mainz-Bingen","type":"Landkreis"},"federalState":{"key":"07","name":"Rheinland-Pfalz"}},{"name":"Gartenstr.","postalCode":"55276","locality":"Dienheim","municipality":{"key":"07339012","name":"Dienheim","type":"Kreisangehörige_Gemeinde"},"district":{"key":"07339","name":"Mainz-Bingen","type":"Landkreis"},"federalState":{"key":"07","name":"Rheinland-Pfalz"}},{"name":"Große Steig","postalCode":"55276","locality":"Dienheim","municipality":{"key":"07339012","name":"Dienheim","type":"Kreisangehörige_Gemeinde"},"district":{"key":"07339","name":"Mainz-Bingen","type":"Landkreis"},"federalState":{"key":"07","name":"Rheinland-Pfalz"}},{"name":"In den Weingärten","postalCode":"55276","locality":"Dienheim","municipality":{"key":"07339012","name":"Dienheim","type":"Kreisangehörige_Gemeinde"},"district":{"key":"07339","name":"Mainz-Bingen","type":"Landkreis"},"federalState":{"key":"07","name":"Rheinland-Pfalz"}},{"name":"In der Beune","postalCode":"55276","locality":"Dienheim","municipality":{"key":"07339012","name":"Dienheim","type":"Kreisangehörige_Gemeinde"},"district":{"key":"07339","name":"Mainz-Bingen","type":"Landkreis"},"federalState":{"key":"07","name":"Rheinland-Pfalz"}},{"name":"Jahnstr.","postalCode":"55276","locality":"Dienheim","municipality":{"key":"07339012","name":"Dienheim","type":"Kreisangehörige_Gemeinde"},"district":{"key":"07339","name":"Mainz-Bingen","type":"Landkreis"},"federalState":{"key":"07","name":"Rheinland-Pfalz"}},{"name":"Katharinenblick","postalCode":"55276","locality":"Dienheim","municipality":{"key":"07339012","name":"Dienheim","type":"Kreisangehörige_Gemeinde"},"district":{"key":"07339","name":"Mainz-Bingen","type":"Landkreis"},"federalState":{"key":"07","name":"Rheinland-Pfalz"}},{"name":"Kinderschulstr.","postalCode":"55276","locality":"Dienheim","municipality":{"key":"07339012","name":"Dienheim","type":"Kreisangehörige_Gemeinde"},"district":{"key":"07339","name":"Mainz-Bingen","type":"Landkreis"},"federalState":{"key":"07","name":"Rheinland-Pfalz"}},{"name":"Kirchstr.","postalCode":"55276","locality":"Dienheim","municipality":{"key":"07339012","name":"Dienheim","type":"Kreisangehörige_Gemeinde"},"district":{"key":"07339","name":"Mainz-Bingen","type":"Landkreis"},"federalState":{"key":"07","name":"Rheinland-Pfalz"}},{"name":"Krämerstr.","postalCode":"55276","locality":"Dienheim","municipality":{"key":"07339012","name":"Dienheim","type":"Kreisangehörige_Gemeinde"},"district":{"key":"07339","name":"Mainz-Bingen","type":"Landkreis"},"federalState":{"key":"07","name":"Rheinland-Pfalz"}},{"name":"Kunzelweg","postalCode":"55276","locality":"Dienheim","municipality":{"key":"07339012","name":"Dienheim","type":"Kreisangehörige_Gemeinde"},"district":{"key":"07339","name":"Mainz-Bingen","type":"Landkreis"},"federalState":{"key":"07","name":"Rheinland-Pfalz"}},{"name":"Kurzer Weg","postalCode":"55276","locality":"Dienheim","municipality":{"key":"07339012","name":"Dienheim","type":"Kreisangehörige_Gemeinde"},"district":{"key":"07339","name":"Mainz-Bingen","type":"Landkreis"},"federalState":{"key":"07","name":"Rheinland-Pfalz"}},{"name":"Mittelstr.","postalCode":"55276","locality":"Dienheim","municipality":{"key":"07339012","name":"Dienheim","type":"Kreisangehörige_Gemeinde"},"district":{"key":"07339","name":"Mainz-Bingen","type":"Landkreis"},"federalState":{"key":"07","name":"Rheinland-Pfalz"}},{"name":"Paterhofstr.","postalCode":"55276","locality":"Dienheim","municipality":{"key":"07339012","name":"Dienheim","type":"Kreisangehörige_Gemeinde"},"district":{"key":"07339","name":"Mainz-Bingen","type":"Landkreis"},"federalState":{"key":"07","name":"Rheinland-Pfalz"}},{"name":"Rheinstr.","postalCode":"55276","locality":"Dienheim","municipality":{"key":"07339012","name":"Dienheim","type":"Kreisangehörige_Gemeinde"},"district":{"key":"07339","name":"Mainz-Bingen","type":"Landkreis"},"federalState":{"key":"07","name":"Rheinland-Pfalz"}},{"name":"Römerstr.","postalCode":"55276","locality":"Dienheim","municipality":{"key":"07339012","name":"Dienheim","type":"Kreisangehörige_Gemeinde"},"district":{"key":"07339","name":"Mainz-Bingen","type":"Landkreis"},"federalState":{"key":"07","name":"Rheinland-Pfalz"}},{"name":"Rosenstr.","postalCode":"55276","locality":"Dienheim","municipality":{"key":"07339012","name":"Dienheim","type":"Kreisangehörige_Gemeinde"},"district":{"key":"07339","name":"Mainz-Bingen","type":"Landkreis"},"federalState":{"key":"07","name":"Rheinland-Pfalz"}},{"name":"Saarstr.","postalCode":"55276","locality":"Dienheim","municipality":{"key":"07339012","name":"Dienheim","type":"Kreisangehörige_Gemeinde"},"district":{"key":"07339","name":"Mainz-Bingen","type":"Landkreis"},"federalState":{"key":"07","name":"Rheinland-Pfalz"}},{"name":"Schillerstr.","postalCode":"55276","locality":"Dienheim","municipality":{"key":"07339012","name":"Dienheim","type":"Kreisangehörige_Gemeinde"},"district":{"key":"07339","name":"Mainz-Bingen","type":"Landkreis"},"federalState":{"key":"07","name":"Rheinland-Pfalz"}},{"name":"Schusterstr.","postalCode":"55276","locality":"Dienheim","municipality":{"key":"07339012","name":"Dienheim","type":"Kreisangehörige_Gemeinde"},"district":{"key":"07339","name":"Mainz-Bingen","type":"Landkreis"},"federalState":{"key":"07","name":"Rheinland-Pfalz"}},{"name":"Siliusstr.","postalCode":"55276","locality":"Dienheim","municipality":{"key":"07339012","name":"Dienheim","type":"Kreisangehörige_Gemeinde"},"district":{"key":"07339","name":"Mainz-Bingen","type":"Landkreis"},"federalState":{"key":"07","name":"Rheinland-Pfalz"}},{"name":"Silvanerstr.","postalCode":"55276","locality":"Dienheim","municipality":{"key":"07339012","name":"Dienheim","type":"Kreisangehörige_Gemeinde"},"district":{"key":"07339","name":"Mainz-Bingen","type":"Landkreis"},"federalState":{"key":"07","name":"Rheinland-Pfalz"}},{"name":"Sours-Allee","postalCode":"55276","locality":"Dienheim","municipality":{"key":"07339012","name":"Dienheim","type":"Kreisangehörige_Gemeinde"},"district":{"key":"07339","name":"Mainz-Bingen","type":"Landkreis"},"federalState":{"key":"07","name":"Rheinland-Pfalz"}},{"name":"Taubhausring","postalCode":"55276","locality":"Dienheim","municipality":{"key":"07339012","name":"Dienheim","type":"Kreisangehörige_Gemeinde"},"district":{"key":"07339","name":"Mainz-Bingen","type":"Landkreis"},"federalState":{"key":"07","name":"Rheinland-Pfalz"}},{"name":"Traminerstr.","postalCode":"55276","locality":"Dienheim","municipality":{"key":"07339012","name":"Dienheim","type":"Kreisangehörige_Gemeinde"},"district":{"key":"07339","name":"Mainz-Bingen","type":"Landkreis"},"federalState":{"key":"07","name":"Rheinland-Pfalz"}},{"name":"Tulpenstr.","postalCode":"55276","locality":"Dienheim","municipality":{"key":"07339012","name":"Dienheim","type":"Kreisangehörige_Gemeinde"},"district":{"key":"07339","name":"Mainz-Bingen","type":"Landkreis"},"federalState":{"key":"07","name":"Rheinland-Pfalz"}},{"name":"Viehweg","postalCode":"55276","locality":"Dienheim","municipality":{"key":"07339012","name":"Dienheim","type":"Kreisangehörige_Gemeinde"},"district":{"key":"07339","name":"Mainz-Bingen","type":"Landkreis"},"federalState":{"key":"07","name":"Rheinland-Pfalz"}},{"name":"Weinbergstr.","postalCode":"55276","locality":"Dienheim","municipality":{"key":"07339012","name":"Dienheim","type":"Kreisangehörige_Gemeinde"},"district":{"key":"07339","name":"Mainz-Bingen","type":"Landkreis"},"federalState":{"key":"07","name":"Rheinland-Pfalz"}},{"name":"Wormser Str.","postalCode":"55276","locality":"Dienheim","municipality":{"key":"07339012","name":"Dienheim","type":"Kreisangehörige_Gemeinde"},"district":{"key":"07339","name":"Mainz-Bingen","type":"Landkreis"},"federalState":{"key":"07","name":"Rheinland-Pfalz"}},]