[{"name":"Ahornweg","postalCode":"18069","locality":"Lambrechtshagen","municipality":{"key":"13072064","name":"Lambrechtshagen","type":"Kreisangehörige_Gemeinde"},"district":{"key":"13072","name":"Landkreis Rostock","type":"Landkreis"},"federalState":{"key":"13","name":"Mecklenburg-Vorpommern"}},{"name":"Allershäger Str.","postalCode":"18069","locality":"Lambrechtshagen","municipality":{"key":"13072064","name":"Lambrechtshagen","type":"Kreisangehörige_Gemeinde"},"district":{"key":"13072","name":"Landkreis Rostock","type":"Landkreis"},"federalState":{"key":"13","name":"Mecklenburg-Vorpommern"}},{"name":"Alte Dorfstr.","postalCode":"18069","locality":"Lambrechtshagen","municipality":{"key":"13072064","name":"Lambrechtshagen","type":"Kreisangehörige_Gemeinde"},"district":{"key":"13072","name":"Landkreis Rostock","type":"Landkreis"},"federalState":{"key":"13","name":"Mecklenburg-Vorpommern"}},{"name":"Alte Gärtnerei","postalCode":"18069","locality":"Lambrechtshagen","municipality":{"key":"13072064","name":"Lambrechtshagen","type":"Kreisangehörige_Gemeinde"},"district":{"key":"13072","name":"Landkreis Rostock","type":"Landkreis"},"federalState":{"key":"13","name":"Mecklenburg-Vorpommern"}},{"name":"Alter Sportplatz","postalCode":"18069","locality":"Lambrechtshagen","municipality":{"key":"13072064","name":"Lambrechtshagen","type":"Kreisangehörige_Gemeinde"},"district":{"key":"13072","name":"Landkreis Rostock","type":"Landkreis"},"federalState":{"key":"13","name":"Mecklenburg-Vorpommern"}},{"name":"Alt Sievershagen","postalCode":"18069","locality":"Lambrechtshagen","municipality":{"key":"13072064","name":"Lambrechtshagen","type":"Kreisangehörige_Gemeinde"},"district":{"key":"13072","name":"Landkreis Rostock","type":"Landkreis"},"federalState":{"key":"13","name":"Mecklenburg-Vorpommern"}},{"name":"Am Dorfteich","postalCode":"18069","locality":"Lambrechtshagen","municipality":{"key":"13072064","name":"Lambrechtshagen","type":"Kreisangehörige_Gemeinde"},"district":{"key":"13072","name":"Landkreis Rostock","type":"Landkreis"},"federalState":{"key":"13","name":"Mecklenburg-Vorpommern"}},{"name":"Am Erlenteich","postalCode":"18069","locality":"Lambrechtshagen","municipality":{"key":"13072064","name":"Lambrechtshagen","type":"Kreisangehörige_Gemeinde"},"district":{"key":"13072","name":"Landkreis Rostock","type":"Landkreis"},"federalState":{"key":"13","name":"Mecklenburg-Vorpommern"}},{"name":"Am Feldrand","postalCode":"18069","locality":"Lambrechtshagen","municipality":{"key":"13072064","name":"Lambrechtshagen","type":"Kreisangehörige_Gemeinde"},"district":{"key":"13072","name":"Landkreis Rostock","type":"Landkreis"},"federalState":{"key":"13","name":"Mecklenburg-Vorpommern"}},{"name":"Am Soll","postalCode":"18069","locality":"Lambrechtshagen","municipality":{"key":"13072064","name":"Lambrechtshagen","type":"Kreisangehörige_Gemeinde"},"district":{"key":"13072","name":"Landkreis Rostock","type":"Landkreis"},"federalState":{"key":"13","name":"Mecklenburg-Vorpommern"}},{"name":"Ausbau","postalCode":"18069","locality":"Lambrechtshagen","municipality":{"key":"13072064","name":"Lambrechtshagen","type":"Kreisangehörige_Gemeinde"},"district":{"key":"13072","name":"Landkreis Rostock","type":"Landkreis"},"federalState":{"key":"13","name":"Mecklenburg-Vorpommern"}},{"name":"Bauernreihe","postalCode":"18069","locality":"Lambrechtshagen","municipality":{"key":"13072064","name":"Lambrechtshagen","type":"Kreisangehörige_Gemeinde"},"district":{"key":"13072","name":"Landkreis Rostock","type":"Landkreis"},"federalState":{"key":"13","name":"Mecklenburg-Vorpommern"}},{"name":"Birkenweg","postalCode":"18069","locality":"Lambrechtshagen","municipality":{"key":"13072064","name":"Lambrechtshagen","type":"Kreisangehörige_Gemeinde"},"district":{"key":"13072","name":"Landkreis Rostock","type":"Landkreis"},"federalState":{"key":"13","name":"Mecklenburg-Vorpommern"}},{"name":"Buchenweg","postalCode":"18069","locality":"Lambrechtshagen","municipality":{"key":"13072064","name":"Lambrechtshagen","type":"Kreisangehörige_Gemeinde"},"district":{"key":"13072","name":"Landkreis Rostock","type":"Landkreis"},"federalState":{"key":"13","name":"Mecklenburg-Vorpommern"}},{"name":"Dorfstr.","postalCode":"18069","locality":"Lambrechtshagen","municipality":{"key":"13072064","name":"Lambrechtshagen","type":"Kreisangehörige_Gemeinde"},"district":{"key":"13072","name":"Landkreis Rostock","type":"Landkreis"},"federalState":{"key":"13","name":"Mecklenburg-Vorpommern"}},{"name":"Erholungsgebiet Vorweden","postalCode":"18069","locality":"Lambrechtshagen","municipality":{"key":"13072064","name":"Lambrechtshagen","type":"Kreisangehörige_Gemeinde"},"district":{"key":"13072","name":"Landkreis Rostock","type":"Landkreis"},"federalState":{"key":"13","name":"Mecklenburg-Vorpommern"}},{"name":"Fulgen","postalCode":"18069","locality":"Lambrechtshagen","municipality":{"key":"13072064","name":"Lambrechtshagen","type":"Kreisangehörige_Gemeinde"},"district":{"key":"13072","name":"Landkreis Rostock","type":"Landkreis"},"federalState":{"key":"13","name":"Mecklenburg-Vorpommern"}},{"name":"Gockelgasse","postalCode":"18069","locality":"Lambrechtshagen","municipality":{"key":"13072064","name":"Lambrechtshagen","type":"Kreisangehörige_Gemeinde"},"district":{"key":"13072","name":"Landkreis Rostock","type":"Landkreis"},"federalState":{"key":"13","name":"Mecklenburg-Vorpommern"}},{"name":"Hahnenkamp","postalCode":"18069","locality":"Lambrechtshagen","municipality":{"key":"13072064","name":"Lambrechtshagen","type":"Kreisangehörige_Gemeinde"},"district":{"key":"13072","name":"Landkreis Rostock","type":"Landkreis"},"federalState":{"key":"13","name":"Mecklenburg-Vorpommern"}},{"name":"Hauptstr.","postalCode":"18069","locality":"Lambrechtshagen","municipality":{"key":"13072064","name":"Lambrechtshagen","type":"Kreisangehörige_Gemeinde"},"district":{"key":"13072","name":"Landkreis Rostock","type":"Landkreis"},"federalState":{"key":"13","name":"Mecklenburg-Vorpommern"}},{"name":"Hennenhof","postalCode":"18069","locality":"Lambrechtshagen","municipality":{"key":"13072064","name":"Lambrechtshagen","type":"Kreisangehörige_Gemeinde"},"district":{"key":"13072","name":"Landkreis Rostock","type":"Landkreis"},"federalState":{"key":"13","name":"Mecklenburg-Vorpommern"}},{"name":"Heydenholt","postalCode":"18069","locality":"Lambrechtshagen","municipality":{"key":"13072064","name":"Lambrechtshagen","type":"Kreisangehörige_Gemeinde"},"district":{"key":"13072","name":"Landkreis Rostock","type":"Landkreis"},"federalState":{"key":"13","name":"Mecklenburg-Vorpommern"}},{"name":"Hühnertwiete","postalCode":"18069","locality":"Lambrechtshagen","municipality":{"key":"13072064","name":"Lambrechtshagen","type":"Kreisangehörige_Gemeinde"},"district":{"key":"13072","name":"Landkreis Rostock","type":"Landkreis"},"federalState":{"key":"13","name":"Mecklenburg-Vorpommern"}},{"name":"In de Wischen","postalCode":"18069","locality":"Lambrechtshagen","municipality":{"key":"13072064","name":"Lambrechtshagen","type":"Kreisangehörige_Gemeinde"},"district":{"key":"13072","name":"Landkreis Rostock","type":"Landkreis"},"federalState":{"key":"13","name":"Mecklenburg-Vorpommern"}},{"name":"Kirchstieg","postalCode":"18069","locality":"Lambrechtshagen","municipality":{"key":"13072064","name":"Lambrechtshagen","type":"Kreisangehörige_Gemeinde"},"district":{"key":"13072","name":"Landkreis Rostock","type":"Landkreis"},"federalState":{"key":"13","name":"Mecklenburg-Vorpommern"}},{"name":"Kükensteg","postalCode":"18069","locality":"Lambrechtshagen","municipality":{"key":"13072064","name":"Lambrechtshagen","type":"Kreisangehörige_Gemeinde"},"district":{"key":"13072","name":"Landkreis Rostock","type":"Landkreis"},"federalState":{"key":"13","name":"Mecklenburg-Vorpommern"}},{"name":"Lambrechtshagen Ausbau","postalCode":"18069","locality":"Lambrechtshagen","municipality":{"key":"13072064","name":"Lambrechtshagen","type":"Kreisangehörige_Gemeinde"},"district":{"key":"13072","name":"Landkreis Rostock","type":"Landkreis"},"federalState":{"key":"13","name":"Mecklenburg-Vorpommern"}},{"name":"Lambrechtshäger Str.","postalCode":"18069","locality":"Lambrechtshagen","municipality":{"key":"13072064","name":"Lambrechtshagen","type":"Kreisangehörige_Gemeinde"},"district":{"key":"13072","name":"Landkreis Rostock","type":"Landkreis"},"federalState":{"key":"13","name":"Mecklenburg-Vorpommern"}},{"name":"Lambrechtshäger Weg","postalCode":"18069","locality":"Lambrechtshagen","municipality":{"key":"13072064","name":"Lambrechtshagen","type":"Kreisangehörige_Gemeinde"},"district":{"key":"13072","name":"Landkreis Rostock","type":"Landkreis"},"federalState":{"key":"13","name":"Mecklenburg-Vorpommern"}},{"name":"Lindenanger","postalCode":"18069","locality":"Lambrechtshagen","municipality":{"key":"13072064","name":"Lambrechtshagen","type":"Kreisangehörige_Gemeinde"},"district":{"key":"13072","name":"Landkreis Rostock","type":"Landkreis"},"federalState":{"key":"13","name":"Mecklenburg-Vorpommern"}},{"name":"Lindenweg","postalCode":"18069","locality":"Lambrechtshagen","municipality":{"key":"13072064","name":"Lambrechtshagen","type":"Kreisangehörige_Gemeinde"},"district":{"key":"13072","name":"Landkreis Rostock","type":"Landkreis"},"federalState":{"key":"13","name":"Mecklenburg-Vorpommern"}},{"name":"Mönkwedener Weg","postalCode":"18069","locality":"Lambrechtshagen","municipality":{"key":"13072064","name":"Lambrechtshagen","type":"Kreisangehörige_Gemeinde"},"district":{"key":"13072","name":"Landkreis Rostock","type":"Landkreis"},"federalState":{"key":"13","name":"Mecklenburg-Vorpommern"}},{"name":"Ostsee-Park-Str.","postalCode":"18069","locality":"Lambrechtshagen","municipality":{"key":"13072064","name":"Lambrechtshagen","type":"Kreisangehörige_Gemeinde"},"district":{"key":"13072","name":"Landkreis Rostock","type":"Landkreis"},"federalState":{"key":"13","name":"Mecklenburg-Vorpommern"}},{"name":"Rostocker Str.","postalCode":"18069","locality":"Lambrechtshagen","municipality":{"key":"13072064","name":"Lambrechtshagen","type":"Kreisangehörige_Gemeinde"},"district":{"key":"13072","name":"Landkreis Rostock","type":"Landkreis"},"federalState":{"key":"13","name":"Mecklenburg-Vorpommern"}},{"name":"Rotbäkaue","postalCode":"18069","locality":"Lambrechtshagen","municipality":{"key":"13072064","name":"Lambrechtshagen","type":"Kreisangehörige_Gemeinde"},"district":{"key":"13072","name":"Landkreis Rostock","type":"Landkreis"},"federalState":{"key":"13","name":"Mecklenburg-Vorpommern"}},{"name":"Schulweg","postalCode":"18069","locality":"Lambrechtshagen","municipality":{"key":"13072064","name":"Lambrechtshagen","type":"Kreisangehörige_Gemeinde"},"district":{"key":"13072","name":"Landkreis Rostock","type":"Landkreis"},"federalState":{"key":"13","name":"Mecklenburg-Vorpommern"}},{"name":"Schwarzer Weg","postalCode":"18069","locality":"Lambrechtshagen","municipality":{"key":"13072064","name":"Lambrechtshagen","type":"Kreisangehörige_Gemeinde"},"district":{"key":"13072","name":"Landkreis Rostock","type":"Landkreis"},"federalState":{"key":"13","name":"Mecklenburg-Vorpommern"}},{"name":"Siedlungsweg","postalCode":"18069","locality":"Lambrechtshagen","municipality":{"key":"13072064","name":"Lambrechtshagen","type":"Kreisangehörige_Gemeinde"},"district":{"key":"13072","name":"Landkreis Rostock","type":"Landkreis"},"federalState":{"key":"13","name":"Mecklenburg-Vorpommern"}},{"name":"Steinfulgen","postalCode":"18069","locality":"Lambrechtshagen","municipality":{"key":"13072064","name":"Lambrechtshagen","type":"Kreisangehörige_Gemeinde"},"district":{"key":"13072","name":"Landkreis Rostock","type":"Landkreis"},"federalState":{"key":"13","name":"Mecklenburg-Vorpommern"}},{"name":"Tannenweg","postalCode":"18069","locality":"Lambrechtshagen","municipality":{"key":"13072064","name":"Lambrechtshagen","type":"Kreisangehörige_Gemeinde"},"district":{"key":"13072","name":"Landkreis Rostock","type":"Landkreis"},"federalState":{"key":"13","name":"Mecklenburg-Vorpommern"}},{"name":"Zu den Weiden","postalCode":"18069","locality":"Lambrechtshagen","municipality":{"key":"13072064","name":"Lambrechtshagen","type":"Kreisangehörige_Gemeinde"},"district":{"key":"13072","name":"Landkreis Rostock","type":"Landkreis"},"federalState":{"key":"13","name":"Mecklenburg-Vorpommern"}},]