[{"name":"An der Hansenkoppel","postalCode":"24376","locality":"Hasselberg","municipality":{"key":"01059121","name":"Hasselberg","type":"Kreisangehörige_Gemeinde"},"district":{"key":"01059","name":"Schleswig-Flensburg","type":"Kreis"},"federalState":{"key":"01","name":"Schleswig-Holstein"}},{"name":"Baggelan","postalCode":"24376","locality":"Hasselberg","municipality":{"key":"01059121","name":"Hasselberg","type":"Kreisangehörige_Gemeinde"},"district":{"key":"01059","name":"Schleswig-Flensburg","type":"Kreis"},"federalState":{"key":"01","name":"Schleswig-Holstein"}},{"name":"Brombeerweg","postalCode":"24376","locality":"Hasselberg","municipality":{"key":"01059121","name":"Hasselberg","type":"Kreisangehörige_Gemeinde"},"district":{"key":"01059","name":"Schleswig-Flensburg","type":"Kreis"},"federalState":{"key":"01","name":"Schleswig-Holstein"}},{"name":"Drecht","postalCode":"24376","locality":"Hasselberg","municipality":{"key":"01059121","name":"Hasselberg","type":"Kreisangehörige_Gemeinde"},"district":{"key":"01059","name":"Schleswig-Flensburg","type":"Kreis"},"federalState":{"key":"01","name":"Schleswig-Holstein"}},{"name":"Eckeberg","postalCode":"24376","locality":"Hasselberg","municipality":{"key":"01059121","name":"Hasselberg","type":"Kreisangehörige_Gemeinde"},"district":{"key":"01059","name":"Schleswig-Flensburg","type":"Kreis"},"federalState":{"key":"01","name":"Schleswig-Holstein"}},{"name":"Engberg","postalCode":"24376","locality":"Hasselberg","municipality":{"key":"01059121","name":"Hasselberg","type":"Kreisangehörige_Gemeinde"},"district":{"key":"01059","name":"Schleswig-Flensburg","type":"Kreis"},"federalState":{"key":"01","name":"Schleswig-Holstein"}},{"name":"Fehrensholz","postalCode":"24376","locality":"Hasselberg","municipality":{"key":"01059121","name":"Hasselberg","type":"Kreisangehörige_Gemeinde"},"district":{"key":"01059","name":"Schleswig-Flensburg","type":"Kreis"},"federalState":{"key":"01","name":"Schleswig-Holstein"}},{"name":"Geilberg","postalCode":"24376","locality":"Hasselberg","municipality":{"key":"01059121","name":"Hasselberg","type":"Kreisangehörige_Gemeinde"},"district":{"key":"01059","name":"Schleswig-Flensburg","type":"Kreis"},"federalState":{"key":"01","name":"Schleswig-Holstein"}},{"name":"Gundelsby","postalCode":"24376","locality":"Hasselberg","municipality":{"key":"01059121","name":"Hasselberg","type":"Kreisangehörige_Gemeinde"},"district":{"key":"01059","name":"Schleswig-Flensburg","type":"Kreis"},"federalState":{"key":"01","name":"Schleswig-Holstein"}},{"name":"Hafferholz","postalCode":"24376","locality":"Hasselberg","municipality":{"key":"01059121","name":"Hasselberg","type":"Kreisangehörige_Gemeinde"},"district":{"key":"01059","name":"Schleswig-Flensburg","type":"Kreis"},"federalState":{"key":"01","name":"Schleswig-Holstein"}},{"name":"Hasselberg","postalCode":"24376","locality":"Hasselberg","municipality":{"key":"01059121","name":"Hasselberg","type":"Kreisangehörige_Gemeinde"},"district":{"key":"01059","name":"Schleswig-Flensburg","type":"Kreis"},"federalState":{"key":"01","name":"Schleswig-Holstein"}},{"name":"Kieholm","postalCode":"24376","locality":"Hasselberg","municipality":{"key":"01059121","name":"Hasselberg","type":"Kreisangehörige_Gemeinde"},"district":{"key":"01059","name":"Schleswig-Flensburg","type":"Kreis"},"federalState":{"key":"01","name":"Schleswig-Holstein"}},{"name":"Kisperhy","postalCode":"24376","locality":"Hasselberg","municipality":{"key":"01059121","name":"Hasselberg","type":"Kreisangehörige_Gemeinde"},"district":{"key":"01059","name":"Schleswig-Flensburg","type":"Kreis"},"federalState":{"key":"01","name":"Schleswig-Holstein"}},{"name":"Marschal","postalCode":"24376","locality":"Hasselberg","municipality":{"key":"01059121","name":"Hasselberg","type":"Kreisangehörige_Gemeinde"},"district":{"key":"01059","name":"Schleswig-Flensburg","type":"Kreis"},"federalState":{"key":"01","name":"Schleswig-Holstein"}},{"name":"Meiereiweg","postalCode":"24376","locality":"Hasselberg","municipality":{"key":"01059121","name":"Hasselberg","type":"Kreisangehörige_Gemeinde"},"district":{"key":"01059","name":"Schleswig-Flensburg","type":"Kreis"},"federalState":{"key":"01","name":"Schleswig-Holstein"}},{"name":"Moorstr.","postalCode":"24376","locality":"Hasselberg","municipality":{"key":"01059121","name":"Hasselberg","type":"Kreisangehörige_Gemeinde"},"district":{"key":"01059","name":"Schleswig-Flensburg","type":"Kreis"},"federalState":{"key":"01","name":"Schleswig-Holstein"}},{"name":"Mühlenfeld","postalCode":"24376","locality":"Hasselberg","municipality":{"key":"01059121","name":"Hasselberg","type":"Kreisangehörige_Gemeinde"},"district":{"key":"01059","name":"Schleswig-Flensburg","type":"Kreis"},"federalState":{"key":"01","name":"Schleswig-Holstein"}},{"name":"Mühlenkoppel","postalCode":"24376","locality":"Hasselberg","municipality":{"key":"01059121","name":"Hasselberg","type":"Kreisangehörige_Gemeinde"},"district":{"key":"01059","name":"Schleswig-Flensburg","type":"Kreis"},"federalState":{"key":"01","name":"Schleswig-Holstein"}},{"name":"Mühlenstr.","postalCode":"24376","locality":"Hasselberg","municipality":{"key":"01059121","name":"Hasselberg","type":"Kreisangehörige_Gemeinde"},"district":{"key":"01059","name":"Schleswig-Flensburg","type":"Kreis"},"federalState":{"key":"01","name":"Schleswig-Holstein"}},{"name":"Professor-Rösner-Weg","postalCode":"24376","locality":"Hasselberg","municipality":{"key":"01059121","name":"Hasselberg","type":"Kreisangehörige_Gemeinde"},"district":{"key":"01059","name":"Schleswig-Flensburg","type":"Kreis"},"federalState":{"key":"01","name":"Schleswig-Holstein"}},{"name":"Pugholz","postalCode":"24376","locality":"Hasselberg","municipality":{"key":"01059121","name":"Hasselberg","type":"Kreisangehörige_Gemeinde"},"district":{"key":"01059","name":"Schleswig-Flensburg","type":"Kreis"},"federalState":{"key":"01","name":"Schleswig-Holstein"}},{"name":"Raiffeisenstr.","postalCode":"24376","locality":"Hasselberg","municipality":{"key":"01059121","name":"Hasselberg","type":"Kreisangehörige_Gemeinde"},"district":{"key":"01059","name":"Schleswig-Flensburg","type":"Kreis"},"federalState":{"key":"01","name":"Schleswig-Holstein"}},{"name":"Scheideheck","postalCode":"24376","locality":"Hasselberg","municipality":{"key":"01059121","name":"Hasselberg","type":"Kreisangehörige_Gemeinde"},"district":{"key":"01059","name":"Schleswig-Flensburg","type":"Kreis"},"federalState":{"key":"01","name":"Schleswig-Holstein"}},{"name":"Schenbek","postalCode":"24376","locality":"Hasselberg","municipality":{"key":"01059121","name":"Hasselberg","type":"Kreisangehörige_Gemeinde"},"district":{"key":"01059","name":"Schleswig-Flensburg","type":"Kreis"},"federalState":{"key":"01","name":"Schleswig-Holstein"}},{"name":"Schulkoppel","postalCode":"24376","locality":"Hasselberg","municipality":{"key":"01059121","name":"Hasselberg","type":"Kreisangehörige_Gemeinde"},"district":{"key":"01059","name":"Schleswig-Flensburg","type":"Kreis"},"federalState":{"key":"01","name":"Schleswig-Holstein"}},{"name":"Schulstr.","postalCode":"24376","locality":"Hasselberg","municipality":{"key":"01059121","name":"Hasselberg","type":"Kreisangehörige_Gemeinde"},"district":{"key":"01059","name":"Schleswig-Flensburg","type":"Kreis"},"federalState":{"key":"01","name":"Schleswig-Holstein"}},{"name":"Schwackendorf","postalCode":"24376","locality":"Hasselberg","municipality":{"key":"01059121","name":"Hasselberg","type":"Kreisangehörige_Gemeinde"},"district":{"key":"01059","name":"Schleswig-Flensburg","type":"Kreis"},"federalState":{"key":"01","name":"Schleswig-Holstein"}},{"name":"Schwensholz","postalCode":"24376","locality":"Hasselberg","municipality":{"key":"01059121","name":"Hasselberg","type":"Kreisangehörige_Gemeinde"},"district":{"key":"01059","name":"Schleswig-Flensburg","type":"Kreis"},"federalState":{"key":"01","name":"Schleswig-Holstein"}},{"name":"Steenland","postalCode":"24376","locality":"Hasselberg","municipality":{"key":"01059121","name":"Hasselberg","type":"Kreisangehörige_Gemeinde"},"district":{"key":"01059","name":"Schleswig-Flensburg","type":"Kreis"},"federalState":{"key":"01","name":"Schleswig-Holstein"}},{"name":"Stenderuper Str.","postalCode":"24376","locality":"Hasselberg","municipality":{"key":"01059121","name":"Hasselberg","type":"Kreisangehörige_Gemeinde"},"district":{"key":"01059","name":"Schleswig-Flensburg","type":"Kreis"},"federalState":{"key":"01","name":"Schleswig-Holstein"}},{"name":"Süderfeld","postalCode":"24376","locality":"Hasselberg","municipality":{"key":"01059121","name":"Hasselberg","type":"Kreisangehörige_Gemeinde"},"district":{"key":"01059","name":"Schleswig-Flensburg","type":"Kreis"},"federalState":{"key":"01","name":"Schleswig-Holstein"}},{"name":"Südhang","postalCode":"24376","locality":"Hasselberg","municipality":{"key":"01059121","name":"Hasselberg","type":"Kreisangehörige_Gemeinde"},"district":{"key":"01059","name":"Schleswig-Flensburg","type":"Kreis"},"federalState":{"key":"01","name":"Schleswig-Holstein"}},{"name":"Wormshöft","postalCode":"24376","locality":"Hasselberg","municipality":{"key":"01059121","name":"Hasselberg","type":"Kreisangehörige_Gemeinde"},"district":{"key":"01059","name":"Schleswig-Flensburg","type":"Kreis"},"federalState":{"key":"01","name":"Schleswig-Holstein"}},{"name":"Wulfsholz","postalCode":"24376","locality":"Hasselberg","municipality":{"key":"01059121","name":"Hasselberg","type":"Kreisangehörige_Gemeinde"},"district":{"key":"01059","name":"Schleswig-Flensburg","type":"Kreis"},"federalState":{"key":"01","name":"Schleswig-Holstein"}},]