[{"name":"Aderlaake","postalCode":"39307","locality":"Genthin","municipality":{"key":"15086040","name":"Genthin, Stadt","type":"Stadt"},"district":{"key":"15086","name":"Jerichower Land","type":"Landkreis"},"federalState":{"key":"15","name":"Sachsen-Anhalt"}},{"name":"Ahornstr.","postalCode":"39307","locality":"Genthin","municipality":{"key":"15086040","name":"Genthin, Stadt","type":"Stadt"},"district":{"key":"15086","name":"Jerichower Land","type":"Landkreis"},"federalState":{"key":"15","name":"Sachsen-Anhalt"}},{"name":"Akazienweg","postalCode":"39307","locality":"Genthin","municipality":{"key":"15086040","name":"Genthin, Stadt","type":"Stadt"},"district":{"key":"15086","name":"Jerichower Land","type":"Landkreis"},"federalState":{"key":"15","name":"Sachsen-Anhalt"}},{"name":"Altenplathower Str.","postalCode":"39307","locality":"Genthin","municipality":{"key":"15086040","name":"Genthin, Stadt","type":"Stadt"},"district":{"key":"15086","name":"Jerichower Land","type":"Landkreis"},"federalState":{"key":"15","name":"Sachsen-Anhalt"}},{"name":"Altmärkerstr.","postalCode":"39307","locality":"Genthin","municipality":{"key":"15086040","name":"Genthin, Stadt","type":"Stadt"},"district":{"key":"15086","name":"Jerichower Land","type":"Landkreis"},"federalState":{"key":"15","name":"Sachsen-Anhalt"}},{"name":"Am Bahndamm","postalCode":"39307","locality":"Genthin","municipality":{"key":"15086040","name":"Genthin, Stadt","type":"Stadt"},"district":{"key":"15086","name":"Jerichower Land","type":"Landkreis"},"federalState":{"key":"15","name":"Sachsen-Anhalt"}},{"name":"Am Birkenwäldchen","postalCode":"39307","locality":"Genthin","municipality":{"key":"15086040","name":"Genthin, Stadt","type":"Stadt"},"district":{"key":"15086","name":"Jerichower Land","type":"Landkreis"},"federalState":{"key":"15","name":"Sachsen-Anhalt"}},{"name":"Am Kiefernwäldchen","postalCode":"39307","locality":"Genthin","municipality":{"key":"15086040","name":"Genthin, Stadt","type":"Stadt"},"district":{"key":"15086","name":"Jerichower Land","type":"Landkreis"},"federalState":{"key":"15","name":"Sachsen-Anhalt"}},{"name":"Am Kreuzdamm","postalCode":"39307","locality":"Genthin","municipality":{"key":"15086040","name":"Genthin, Stadt","type":"Stadt"},"district":{"key":"15086","name":"Jerichower Land","type":"Landkreis"},"federalState":{"key":"15","name":"Sachsen-Anhalt"}},{"name":"Am Kröpelberg","postalCode":"39307","locality":"Genthin","municipality":{"key":"15086040","name":"Genthin, Stadt","type":"Stadt"},"district":{"key":"15086","name":"Jerichower Land","type":"Landkreis"},"federalState":{"key":"15","name":"Sachsen-Anhalt"}},{"name":"Am Mühlengraben","postalCode":"39307","locality":"Genthin","municipality":{"key":"15086040","name":"Genthin, Stadt","type":"Stadt"},"district":{"key":"15086","name":"Jerichower Land","type":"Landkreis"},"federalState":{"key":"15","name":"Sachsen-Anhalt"}},{"name":"Am Schanzenberg","postalCode":"39307","locality":"Genthin","municipality":{"key":"15086040","name":"Genthin, Stadt","type":"Stadt"},"district":{"key":"15086","name":"Jerichower Land","type":"Landkreis"},"federalState":{"key":"15","name":"Sachsen-Anhalt"}},{"name":"Amselweg","postalCode":"39307","locality":"Genthin","municipality":{"key":"15086040","name":"Genthin, Stadt","type":"Stadt"},"district":{"key":"15086","name":"Jerichower Land","type":"Landkreis"},"federalState":{"key":"15","name":"Sachsen-Anhalt"}},{"name":"Am Werder","postalCode":"39307","locality":"Genthin","municipality":{"key":"15086040","name":"Genthin, Stadt","type":"Stadt"},"district":{"key":"15086","name":"Jerichower Land","type":"Landkreis"},"federalState":{"key":"15","name":"Sachsen-Anhalt"}},{"name":"Am Ziegelberg","postalCode":"39307","locality":"Genthin","municipality":{"key":"15086040","name":"Genthin, Stadt","type":"Stadt"},"district":{"key":"15086","name":"Jerichower Land","type":"Landkreis"},"federalState":{"key":"15","name":"Sachsen-Anhalt"}},{"name":"An den Dammathen","postalCode":"39307","locality":"Genthin","municipality":{"key":"15086040","name":"Genthin, Stadt","type":"Stadt"},"district":{"key":"15086","name":"Jerichower Land","type":"Landkreis"},"federalState":{"key":"15","name":"Sachsen-Anhalt"}},{"name":"An den Fließgärten","postalCode":"39307","locality":"Genthin","municipality":{"key":"15086040","name":"Genthin, Stadt","type":"Stadt"},"district":{"key":"15086","name":"Jerichower Land","type":"Landkreis"},"federalState":{"key":"15","name":"Sachsen-Anhalt"}},{"name":"An den Fuchsbergen","postalCode":"39307","locality":"Genthin","municipality":{"key":"15086040","name":"Genthin, Stadt","type":"Stadt"},"district":{"key":"15086","name":"Jerichower Land","type":"Landkreis"},"federalState":{"key":"15","name":"Sachsen-Anhalt"}},{"name":"An den Gänsewiesen","postalCode":"39307","locality":"Genthin","municipality":{"key":"15086040","name":"Genthin, Stadt","type":"Stadt"},"district":{"key":"15086","name":"Jerichower Land","type":"Landkreis"},"federalState":{"key":"15","name":"Sachsen-Anhalt"}},{"name":"An den Stiegcaveln","postalCode":"39307","locality":"Genthin","municipality":{"key":"15086040","name":"Genthin, Stadt","type":"Stadt"},"district":{"key":"15086","name":"Jerichower Land","type":"Landkreis"},"federalState":{"key":"15","name":"Sachsen-Anhalt"}},{"name":"An der Buchenhecke","postalCode":"39307","locality":"Genthin","municipality":{"key":"15086040","name":"Genthin, Stadt","type":"Stadt"},"district":{"key":"15086","name":"Jerichower Land","type":"Landkreis"},"federalState":{"key":"15","name":"Sachsen-Anhalt"}},{"name":"An der Mäsche","postalCode":"39307","locality":"Genthin","municipality":{"key":"15086040","name":"Genthin, Stadt","type":"Stadt"},"district":{"key":"15086","name":"Jerichower Land","type":"Landkreis"},"federalState":{"key":"15","name":"Sachsen-Anhalt"}},{"name":"An der Mühle","postalCode":"39307","locality":"Genthin","municipality":{"key":"15086040","name":"Genthin, Stadt","type":"Stadt"},"district":{"key":"15086","name":"Jerichower Land","type":"Landkreis"},"federalState":{"key":"15","name":"Sachsen-Anhalt"}},{"name":"Angerstr.","postalCode":"39307","locality":"Genthin","municipality":{"key":"15086040","name":"Genthin, Stadt","type":"Stadt"},"district":{"key":"15086","name":"Jerichower Land","type":"Landkreis"},"federalState":{"key":"15","name":"Sachsen-Anhalt"}},{"name":"Anne-Frank-Str.","postalCode":"39307","locality":"Genthin","municipality":{"key":"15086040","name":"Genthin, Stadt","type":"Stadt"},"district":{"key":"15086","name":"Jerichower Land","type":"Landkreis"},"federalState":{"key":"15","name":"Sachsen-Anhalt"}},{"name":"Bahnhofstr.","postalCode":"39307","locality":"Genthin","municipality":{"key":"15086040","name":"Genthin, Stadt","type":"Stadt"},"district":{"key":"15086","name":"Jerichower Land","type":"Landkreis"},"federalState":{"key":"15","name":"Sachsen-Anhalt"}},{"name":"Baumschulenweg","postalCode":"39307","locality":"Genthin","municipality":{"key":"15086040","name":"Genthin, Stadt","type":"Stadt"},"district":{"key":"15086","name":"Jerichower Land","type":"Landkreis"},"federalState":{"key":"15","name":"Sachsen-Anhalt"}},{"name":"Bebelstr.","postalCode":"39307","locality":"Genthin","municipality":{"key":"15086040","name":"Genthin, Stadt","type":"Stadt"},"district":{"key":"15086","name":"Jerichower Land","type":"Landkreis"},"federalState":{"key":"15","name":"Sachsen-Anhalt"}},{"name":"Beerenweg","postalCode":"39307","locality":"Genthin","municipality":{"key":"15086040","name":"Genthin, Stadt","type":"Stadt"},"district":{"key":"15086","name":"Jerichower Land","type":"Landkreis"},"federalState":{"key":"15","name":"Sachsen-Anhalt"}},{"name":"Beethovenstr.","postalCode":"39307","locality":"Genthin","municipality":{"key":"15086040","name":"Genthin, Stadt","type":"Stadt"},"district":{"key":"15086","name":"Jerichower Land","type":"Landkreis"},"federalState":{"key":"15","name":"Sachsen-Anhalt"}},{"name":"Bergstr.","postalCode":"39307","locality":"Genthin","municipality":{"key":"15086040","name":"Genthin, Stadt","type":"Stadt"},"district":{"key":"15086","name":"Jerichower Land","type":"Landkreis"},"federalState":{"key":"15","name":"Sachsen-Anhalt"}},{"name":"Bergzower Str.","postalCode":"39307","locality":"Genthin","municipality":{"key":"15086040","name":"Genthin, Stadt","type":"Stadt"},"district":{"key":"15086","name":"Jerichower Land","type":"Landkreis"},"federalState":{"key":"15","name":"Sachsen-Anhalt"}},{"name":"Berliner Chaussee","postalCode":"39307","locality":"Genthin","municipality":{"key":"15086040","name":"Genthin, Stadt","type":"Stadt"},"district":{"key":"15086","name":"Jerichower Land","type":"Landkreis"},"federalState":{"key":"15","name":"Sachsen-Anhalt"}},{"name":"Biberpfad","postalCode":"39307","locality":"Genthin","municipality":{"key":"15086040","name":"Genthin, Stadt","type":"Stadt"},"district":{"key":"15086","name":"Jerichower Land","type":"Landkreis"},"federalState":{"key":"15","name":"Sachsen-Anhalt"}},{"name":"Birkheide","postalCode":"39307","locality":"Genthin","municipality":{"key":"15086040","name":"Genthin, Stadt","type":"Stadt"},"district":{"key":"15086","name":"Jerichower Land","type":"Landkreis"},"federalState":{"key":"15","name":"Sachsen-Anhalt"}},{"name":"Blumenweg","postalCode":"39307","locality":"Genthin","municipality":{"key":"15086040","name":"Genthin, Stadt","type":"Stadt"},"district":{"key":"15086","name":"Jerichower Land","type":"Landkreis"},"federalState":{"key":"15","name":"Sachsen-Anhalt"}},{"name":"Brandenburger Str.","postalCode":"39307","locality":"Genthin","municipality":{"key":"15086040","name":"Genthin, Stadt","type":"Stadt"},"district":{"key":"15086","name":"Jerichower Land","type":"Landkreis"},"federalState":{"key":"15","name":"Sachsen-Anhalt"}},{"name":"Brandensteiner Str.","postalCode":"39307","locality":"Genthin","municipality":{"key":"15086040","name":"Genthin, Stadt","type":"Stadt"},"district":{"key":"15086","name":"Jerichower Land","type":"Landkreis"},"federalState":{"key":"15","name":"Sachsen-Anhalt"}},{"name":"Breitemark","postalCode":"39307","locality":"Genthin","municipality":{"key":"15086040","name":"Genthin, Stadt","type":"Stadt"},"district":{"key":"15086","name":"Jerichower Land","type":"Landkreis"},"federalState":{"key":"15","name":"Sachsen-Anhalt"}},{"name":"Breitscheidstr.","postalCode":"39307","locality":"Genthin","municipality":{"key":"15086040","name":"Genthin, Stadt","type":"Stadt"},"district":{"key":"15086","name":"Jerichower Land","type":"Landkreis"},"federalState":{"key":"15","name":"Sachsen-Anhalt"}},{"name":"Brettiner Chaussee","postalCode":"39307","locality":"Genthin","municipality":{"key":"15086040","name":"Genthin, Stadt","type":"Stadt"},"district":{"key":"15086","name":"Jerichower Land","type":"Landkreis"},"federalState":{"key":"15","name":"Sachsen-Anhalt"}},{"name":"Brombeerweg","postalCode":"39307","locality":"Genthin","municipality":{"key":"15086040","name":"Genthin, Stadt","type":"Stadt"},"district":{"key":"15086","name":"Jerichower Land","type":"Landkreis"},"federalState":{"key":"15","name":"Sachsen-Anhalt"}},{"name":"Buchenweg","postalCode":"39307","locality":"Genthin","municipality":{"key":"15086040","name":"Genthin, Stadt","type":"Stadt"},"district":{"key":"15086","name":"Jerichower Land","type":"Landkreis"},"federalState":{"key":"15","name":"Sachsen-Anhalt"}},{"name":"Burger Str.","postalCode":"39307","locality":"Genthin","municipality":{"key":"15086040","name":"Genthin, Stadt","type":"Stadt"},"district":{"key":"15086","name":"Jerichower Land","type":"Landkreis"},"federalState":{"key":"15","name":"Sachsen-Anhalt"}},{"name":"Buschstr.","postalCode":"39307","locality":"Genthin","municipality":{"key":"15086040","name":"Genthin, Stadt","type":"Stadt"},"district":{"key":"15086","name":"Jerichower Land","type":"Landkreis"},"federalState":{"key":"15","name":"Sachsen-Anhalt"}},{"name":"Chausseestr.","postalCode":"39307","locality":"Genthin","municipality":{"key":"15086040","name":"Genthin, Stadt","type":"Stadt"},"district":{"key":"15086","name":"Jerichower Land","type":"Landkreis"},"federalState":{"key":"15","name":"Sachsen-Anhalt"}},{"name":"Dattelner Str.","postalCode":"39307","locality":"Genthin","municipality":{"key":"15086040","name":"Genthin, Stadt","type":"Stadt"},"district":{"key":"15086","name":"Jerichower Land","type":"Landkreis"},"federalState":{"key":"15","name":"Sachsen-Anhalt"}},{"name":"Die Straecken","postalCode":"39307","locality":"Genthin","municipality":{"key":"15086040","name":"Genthin, Stadt","type":"Stadt"},"district":{"key":"15086","name":"Jerichower Land","type":"Landkreis"},"federalState":{"key":"15","name":"Sachsen-Anhalt"}},{"name":"Domstr.","postalCode":"39307","locality":"Genthin","municipality":{"key":"15086040","name":"Genthin, Stadt","type":"Stadt"},"district":{"key":"15086","name":"Jerichower Land","type":"Landkreis"},"federalState":{"key":"15","name":"Sachsen-Anhalt"}},{"name":"Dorfstr.","postalCode":"39291","locality":"Genthin","municipality":{"key":"15086040","name":"Genthin, Stadt","type":"Stadt"},"district":{"key":"15086","name":"Jerichower Land","type":"Landkreis"},"federalState":{"key":"15","name":"Sachsen-Anhalt"}},{"name":"Dorfstr.","postalCode":"39307","locality":"Genthin","municipality":{"key":"15086040","name":"Genthin, Stadt","type":"Stadt"},"district":{"key":"15086","name":"Jerichower Land","type":"Landkreis"},"federalState":{"key":"15","name":"Sachsen-Anhalt"}},{"name":"Dretzeler Str.","postalCode":"39307","locality":"Genthin","municipality":{"key":"15086040","name":"Genthin, Stadt","type":"Stadt"},"district":{"key":"15086","name":"Jerichower Land","type":"Landkreis"},"federalState":{"key":"15","name":"Sachsen-Anhalt"}},{"name":"Dürerstr.","postalCode":"39307","locality":"Genthin","municipality":{"key":"15086040","name":"Genthin, Stadt","type":"Stadt"},"district":{"key":"15086","name":"Jerichower Land","type":"Landkreis"},"federalState":{"key":"15","name":"Sachsen-Anhalt"}},{"name":"Eichenweg","postalCode":"39307","locality":"Genthin","municipality":{"key":"15086040","name":"Genthin, Stadt","type":"Stadt"},"district":{"key":"15086","name":"Jerichower Land","type":"Landkreis"},"federalState":{"key":"15","name":"Sachsen-Anhalt"}},{"name":"Einsteinstr.","postalCode":"39307","locality":"Genthin","municipality":{"key":"15086040","name":"Genthin, Stadt","type":"Stadt"},"district":{"key":"15086","name":"Jerichower Land","type":"Landkreis"},"federalState":{"key":"15","name":"Sachsen-Anhalt"}},{"name":"Erlenweg","postalCode":"39307","locality":"Genthin","municipality":{"key":"15086040","name":"Genthin, Stadt","type":"Stadt"},"district":{"key":"15086","name":"Jerichower Land","type":"Landkreis"},"federalState":{"key":"15","name":"Sachsen-Anhalt"}},{"name":"Fabrikstr.","postalCode":"39307","locality":"Genthin","municipality":{"key":"15086040","name":"Genthin, Stadt","type":"Stadt"},"district":{"key":"15086","name":"Jerichower Land","type":"Landkreis"},"federalState":{"key":"15","name":"Sachsen-Anhalt"}},{"name":"Feldstr.","postalCode":"39307","locality":"Genthin","municipality":{"key":"15086040","name":"Genthin, Stadt","type":"Stadt"},"district":{"key":"15086","name":"Jerichower Land","type":"Landkreis"},"federalState":{"key":"15","name":"Sachsen-Anhalt"}},{"name":"Fichtestr.","postalCode":"39307","locality":"Genthin","municipality":{"key":"15086040","name":"Genthin, Stadt","type":"Stadt"},"district":{"key":"15086","name":"Jerichower Land","type":"Landkreis"},"federalState":{"key":"15","name":"Sachsen-Anhalt"}},{"name":"Fienerstr.","postalCode":"39307","locality":"Genthin","municipality":{"key":"15086040","name":"Genthin, Stadt","type":"Stadt"},"district":{"key":"15086","name":"Jerichower Land","type":"Landkreis"},"federalState":{"key":"15","name":"Sachsen-Anhalt"}},{"name":"Florian-Geyer-Str.","postalCode":"39307","locality":"Genthin","municipality":{"key":"15086040","name":"Genthin, Stadt","type":"Stadt"},"district":{"key":"15086","name":"Jerichower Land","type":"Landkreis"},"federalState":{"key":"15","name":"Sachsen-Anhalt"}},{"name":"Forststr.","postalCode":"39307","locality":"Genthin","municipality":{"key":"15086040","name":"Genthin, Stadt","type":"Stadt"},"district":{"key":"15086","name":"Jerichower Land","type":"Landkreis"},"federalState":{"key":"15","name":"Sachsen-Anhalt"}},{"name":"Freiheitstr.","postalCode":"39307","locality":"Genthin","municipality":{"key":"15086040","name":"Genthin, Stadt","type":"Stadt"},"district":{"key":"15086","name":"Jerichower Land","type":"Landkreis"},"federalState":{"key":"15","name":"Sachsen-Anhalt"}},{"name":"Friedensplatz","postalCode":"39307","locality":"Genthin","municipality":{"key":"15086040","name":"Genthin, Stadt","type":"Stadt"},"district":{"key":"15086","name":"Jerichower Land","type":"Landkreis"},"federalState":{"key":"15","name":"Sachsen-Anhalt"}},{"name":"Friedensstr.","postalCode":"39307","locality":"Genthin","municipality":{"key":"15086040","name":"Genthin, Stadt","type":"Stadt"},"district":{"key":"15086","name":"Jerichower Land","type":"Landkreis"},"federalState":{"key":"15","name":"Sachsen-Anhalt"}},{"name":"Friedenstr.","postalCode":"39307","locality":"Genthin","municipality":{"key":"15086040","name":"Genthin, Stadt","type":"Stadt"},"district":{"key":"15086","name":"Jerichower Land","type":"Landkreis"},"federalState":{"key":"15","name":"Sachsen-Anhalt"}},{"name":"Friedhofstr.","postalCode":"39307","locality":"Genthin","municipality":{"key":"15086040","name":"Genthin, Stadt","type":"Stadt"},"district":{"key":"15086","name":"Jerichower Land","type":"Landkreis"},"federalState":{"key":"15","name":"Sachsen-Anhalt"}},{"name":"Friedrich-Ebert-Str.","postalCode":"39307","locality":"Genthin","municipality":{"key":"15086040","name":"Genthin, Stadt","type":"Stadt"},"district":{"key":"15086","name":"Jerichower Land","type":"Landkreis"},"federalState":{"key":"15","name":"Sachsen-Anhalt"}},{"name":"Fritz-Henkel-Str.","postalCode":"39307","locality":"Genthin","municipality":{"key":"15086040","name":"Genthin, Stadt","type":"Stadt"},"district":{"key":"15086","name":"Jerichower Land","type":"Landkreis"},"federalState":{"key":"15","name":"Sachsen-Anhalt"}},{"name":"Gartenstr.","postalCode":"39307","locality":"Genthin","municipality":{"key":"15086040","name":"Genthin, Stadt","type":"Stadt"},"district":{"key":"15086","name":"Jerichower Land","type":"Landkreis"},"federalState":{"key":"15","name":"Sachsen-Anhalt"}},{"name":"Gasse","postalCode":"39307","locality":"Genthin","municipality":{"key":"15086040","name":"Genthin, Stadt","type":"Stadt"},"district":{"key":"15086","name":"Jerichower Land","type":"Landkreis"},"federalState":{"key":"15","name":"Sachsen-Anhalt"}},{"name":"Gehlsdorfer Weg","postalCode":"39307","locality":"Genthin","municipality":{"key":"15086040","name":"Genthin, Stadt","type":"Stadt"},"district":{"key":"15086","name":"Jerichower Land","type":"Landkreis"},"federalState":{"key":"15","name":"Sachsen-Anhalt"}},{"name":"Genthiner Str.","postalCode":"39307","locality":"Genthin","municipality":{"key":"15086040","name":"Genthin, Stadt","type":"Stadt"},"district":{"key":"15086","name":"Jerichower Land","type":"Landkreis"},"federalState":{"key":"15","name":"Sachsen-Anhalt"}},{"name":"Geschwister-Scholl-Str.","postalCode":"39307","locality":"Genthin","municipality":{"key":"15086040","name":"Genthin, Stadt","type":"Stadt"},"district":{"key":"15086","name":"Jerichower Land","type":"Landkreis"},"federalState":{"key":"15","name":"Sachsen-Anhalt"}},{"name":"Gillhoffstr.","postalCode":"39307","locality":"Genthin","municipality":{"key":"15086040","name":"Genthin, Stadt","type":"Stadt"},"district":{"key":"15086","name":"Jerichower Land","type":"Landkreis"},"federalState":{"key":"15","name":"Sachsen-Anhalt"}},{"name":"Ginsterweg","postalCode":"39307","locality":"Genthin","municipality":{"key":"15086040","name":"Genthin, Stadt","type":"Stadt"},"district":{"key":"15086","name":"Jerichower Land","type":"Landkreis"},"federalState":{"key":"15","name":"Sachsen-Anhalt"}},{"name":"Goethestr.","postalCode":"39307","locality":"Genthin","municipality":{"key":"15086040","name":"Genthin, Stadt","type":"Stadt"},"district":{"key":"15086","name":"Jerichower Land","type":"Landkreis"},"federalState":{"key":"15","name":"Sachsen-Anhalt"}},{"name":"Gottesforth","postalCode":"39291","locality":"Genthin","municipality":{"key":"15086040","name":"Genthin, Stadt","type":"Stadt"},"district":{"key":"15086","name":"Jerichower Land","type":"Landkreis"},"federalState":{"key":"15","name":"Sachsen-Anhalt"}},{"name":"Gröblerstr.","postalCode":"39307","locality":"Genthin","municipality":{"key":"15086040","name":"Genthin, Stadt","type":"Stadt"},"district":{"key":"15086","name":"Jerichower Land","type":"Landkreis"},"federalState":{"key":"15","name":"Sachsen-Anhalt"}},{"name":"Große Schulstr.","postalCode":"39307","locality":"Genthin","municipality":{"key":"15086040","name":"Genthin, Stadt","type":"Stadt"},"district":{"key":"15086","name":"Jerichower Land","type":"Landkreis"},"federalState":{"key":"15","name":"Sachsen-Anhalt"}},{"name":"Große Waldstr.","postalCode":"39307","locality":"Genthin","municipality":{"key":"15086040","name":"Genthin, Stadt","type":"Stadt"},"district":{"key":"15086","name":"Jerichower Land","type":"Landkreis"},"federalState":{"key":"15","name":"Sachsen-Anhalt"}},{"name":"Grüner Weg","postalCode":"39307","locality":"Genthin","municipality":{"key":"15086040","name":"Genthin, Stadt","type":"Stadt"},"district":{"key":"15086","name":"Jerichower Land","type":"Landkreis"},"federalState":{"key":"15","name":"Sachsen-Anhalt"}},{"name":"Grünewaldstr.","postalCode":"39307","locality":"Genthin","municipality":{"key":"15086040","name":"Genthin, Stadt","type":"Stadt"},"district":{"key":"15086","name":"Jerichower Land","type":"Landkreis"},"federalState":{"key":"15","name":"Sachsen-Anhalt"}},{"name":"Guerickestr.","postalCode":"39307","locality":"Genthin","municipality":{"key":"15086040","name":"Genthin, Stadt","type":"Stadt"},"district":{"key":"15086","name":"Jerichower Land","type":"Landkreis"},"federalState":{"key":"15","name":"Sachsen-Anhalt"}},{"name":"Gutenbergstr.","postalCode":"39307","locality":"Genthin","municipality":{"key":"15086040","name":"Genthin, Stadt","type":"Stadt"},"district":{"key":"15086","name":"Jerichower Land","type":"Landkreis"},"federalState":{"key":"15","name":"Sachsen-Anhalt"}},{"name":"Hagen","postalCode":"39307","locality":"Genthin","municipality":{"key":"15086040","name":"Genthin, Stadt","type":"Stadt"},"district":{"key":"15086","name":"Jerichower Land","type":"Landkreis"},"federalState":{"key":"15","name":"Sachsen-Anhalt"}},{"name":"Hagenstr.","postalCode":"39307","locality":"Genthin","municipality":{"key":"15086040","name":"Genthin, Stadt","type":"Stadt"},"district":{"key":"15086","name":"Jerichower Land","type":"Landkreis"},"federalState":{"key":"15","name":"Sachsen-Anhalt"}},{"name":"Hasenholztrift","postalCode":"39307","locality":"Genthin","municipality":{"key":"15086040","name":"Genthin, Stadt","type":"Stadt"},"district":{"key":"15086","name":"Jerichower Land","type":"Landkreis"},"federalState":{"key":"15","name":"Sachsen-Anhalt"}},{"name":"Hauptstr.","postalCode":"39307","locality":"Genthin","municipality":{"key":"15086040","name":"Genthin, Stadt","type":"Stadt"},"district":{"key":"15086","name":"Jerichower Land","type":"Landkreis"},"federalState":{"key":"15","name":"Sachsen-Anhalt"}},{"name":"Heckenweg","postalCode":"39307","locality":"Genthin","municipality":{"key":"15086040","name":"Genthin, Stadt","type":"Stadt"},"district":{"key":"15086","name":"Jerichower Land","type":"Landkreis"},"federalState":{"key":"15","name":"Sachsen-Anhalt"}},{"name":"Heidewinkel","postalCode":"39307","locality":"Genthin","municipality":{"key":"15086040","name":"Genthin, Stadt","type":"Stadt"},"district":{"key":"15086","name":"Jerichower Land","type":"Landkreis"},"federalState":{"key":"15","name":"Sachsen-Anhalt"}},{"name":"Heinigtenweg","postalCode":"39307","locality":"Genthin","municipality":{"key":"15086040","name":"Genthin, Stadt","type":"Stadt"},"district":{"key":"15086","name":"Jerichower Land","type":"Landkreis"},"federalState":{"key":"15","name":"Sachsen-Anhalt"}},{"name":"Henkelbrücke","postalCode":"39307","locality":"Genthin","municipality":{"key":"15086040","name":"Genthin, Stadt","type":"Stadt"},"district":{"key":"15086","name":"Jerichower Land","type":"Landkreis"},"federalState":{"key":"15","name":"Sachsen-Anhalt"}},{"name":"Holzhauser Weg","postalCode":"39307","locality":"Genthin","municipality":{"key":"15086040","name":"Genthin, Stadt","type":"Stadt"},"district":{"key":"15086","name":"Jerichower Land","type":"Landkreis"},"federalState":{"key":"15","name":"Sachsen-Anhalt"}},{"name":"Hubertusweg","postalCode":"39307","locality":"Genthin","municipality":{"key":"15086040","name":"Genthin, Stadt","type":"Stadt"},"district":{"key":"15086","name":"Jerichower Land","type":"Landkreis"},"federalState":{"key":"15","name":"Sachsen-Anhalt"}},{"name":"Humboldtstr.","postalCode":"39307","locality":"Genthin","municipality":{"key":"15086040","name":"Genthin, Stadt","type":"Stadt"},"district":{"key":"15086","name":"Jerichower Land","type":"Landkreis"},"federalState":{"key":"15","name":"Sachsen-Anhalt"}},{"name":"Im Winkel","postalCode":"39307","locality":"Genthin","municipality":{"key":"15086040","name":"Genthin, Stadt","type":"Stadt"},"district":{"key":"15086","name":"Jerichower Land","type":"Landkreis"},"federalState":{"key":"15","name":"Sachsen-Anhalt"}},{"name":"In den Dorfkienen","postalCode":"39307","locality":"Genthin","municipality":{"key":"15086040","name":"Genthin, Stadt","type":"Stadt"},"district":{"key":"15086","name":"Jerichower Land","type":"Landkreis"},"federalState":{"key":"15","name":"Sachsen-Anhalt"}},{"name":"In den Heinungen","postalCode":"39307","locality":"Genthin","municipality":{"key":"15086040","name":"Genthin, Stadt","type":"Stadt"},"district":{"key":"15086","name":"Jerichower Land","type":"Landkreis"},"federalState":{"key":"15","name":"Sachsen-Anhalt"}},{"name":"Inselhof","postalCode":"39307","locality":"Genthin","municipality":{"key":"15086040","name":"Genthin, Stadt","type":"Stadt"},"district":{"key":"15086","name":"Jerichower Land","type":"Landkreis"},"federalState":{"key":"15","name":"Sachsen-Anhalt"}},{"name":"Inselweg","postalCode":"39307","locality":"Genthin","municipality":{"key":"15086040","name":"Genthin, Stadt","type":"Stadt"},"district":{"key":"15086","name":"Jerichower Land","type":"Landkreis"},"federalState":{"key":"15","name":"Sachsen-Anhalt"}},{"name":"Jägerstr.","postalCode":"39307","locality":"Genthin","municipality":{"key":"15086040","name":"Genthin, Stadt","type":"Stadt"},"district":{"key":"15086","name":"Jerichower Land","type":"Landkreis"},"federalState":{"key":"15","name":"Sachsen-Anhalt"}},{"name":"Jahnstr.","postalCode":"39307","locality":"Genthin","municipality":{"key":"15086040","name":"Genthin, Stadt","type":"Stadt"},"district":{"key":"15086","name":"Jerichower Land","type":"Landkreis"},"federalState":{"key":"15","name":"Sachsen-Anhalt"}},{"name":"Jerichower Str.","postalCode":"39307","locality":"Genthin","municipality":{"key":"15086040","name":"Genthin, Stadt","type":"Stadt"},"district":{"key":"15086","name":"Jerichower Land","type":"Landkreis"},"federalState":{"key":"15","name":"Sachsen-Anhalt"}},{"name":"Jungfernsteg","postalCode":"39307","locality":"Genthin","municipality":{"key":"15086040","name":"Genthin, Stadt","type":"Stadt"},"district":{"key":"15086","name":"Jerichower Land","type":"Landkreis"},"federalState":{"key":"15","name":"Sachsen-Anhalt"}},{"name":"Kanalstr.","postalCode":"39307","locality":"Genthin","municipality":{"key":"15086040","name":"Genthin, Stadt","type":"Stadt"},"district":{"key":"15086","name":"Jerichower Land","type":"Landkreis"},"federalState":{"key":"15","name":"Sachsen-Anhalt"}},{"name":"Karower Str.","postalCode":"39307","locality":"Genthin","municipality":{"key":"15086040","name":"Genthin, Stadt","type":"Stadt"},"district":{"key":"15086","name":"Jerichower Land","type":"Landkreis"},"federalState":{"key":"15","name":"Sachsen-Anhalt"}},{"name":"Käthe-Kollwitz-Platz","postalCode":"39307","locality":"Genthin","municipality":{"key":"15086040","name":"Genthin, Stadt","type":"Stadt"},"district":{"key":"15086","name":"Jerichower Land","type":"Landkreis"},"federalState":{"key":"15","name":"Sachsen-Anhalt"}},{"name":"Käthe-Kollwitz-Str.","postalCode":"39307","locality":"Genthin","municipality":{"key":"15086040","name":"Genthin, Stadt","type":"Stadt"},"district":{"key":"15086","name":"Jerichower Land","type":"Landkreis"},"federalState":{"key":"15","name":"Sachsen-Anhalt"}},{"name":"Keplerstr.","postalCode":"39307","locality":"Genthin","municipality":{"key":"15086040","name":"Genthin, Stadt","type":"Stadt"},"district":{"key":"15086","name":"Jerichower Land","type":"Landkreis"},"federalState":{"key":"15","name":"Sachsen-Anhalt"}},{"name":"Kiefernweg","postalCode":"39307","locality":"Genthin","municipality":{"key":"15086040","name":"Genthin, Stadt","type":"Stadt"},"district":{"key":"15086","name":"Jerichower Land","type":"Landkreis"},"federalState":{"key":"15","name":"Sachsen-Anhalt"}},{"name":"Kietzstr.","postalCode":"39307","locality":"Genthin","municipality":{"key":"15086040","name":"Genthin, Stadt","type":"Stadt"},"district":{"key":"15086","name":"Jerichower Land","type":"Landkreis"},"federalState":{"key":"15","name":"Sachsen-Anhalt"}},{"name":"Kirchstr.","postalCode":"39307","locality":"Genthin","municipality":{"key":"15086040","name":"Genthin, Stadt","type":"Stadt"},"district":{"key":"15086","name":"Jerichower Land","type":"Landkreis"},"federalState":{"key":"15","name":"Sachsen-Anhalt"}},{"name":"Kleine Bergstr.","postalCode":"39307","locality":"Genthin","municipality":{"key":"15086040","name":"Genthin, Stadt","type":"Stadt"},"district":{"key":"15086","name":"Jerichower Land","type":"Landkreis"},"federalState":{"key":"15","name":"Sachsen-Anhalt"}},{"name":"Kleine Marktstr.","postalCode":"39307","locality":"Genthin","municipality":{"key":"15086040","name":"Genthin, Stadt","type":"Stadt"},"district":{"key":"15086","name":"Jerichower Land","type":"Landkreis"},"federalState":{"key":"15","name":"Sachsen-Anhalt"}},{"name":"Kleine Schulstr.","postalCode":"39307","locality":"Genthin","municipality":{"key":"15086040","name":"Genthin, Stadt","type":"Stadt"},"district":{"key":"15086","name":"Jerichower Land","type":"Landkreis"},"federalState":{"key":"15","name":"Sachsen-Anhalt"}},{"name":"Kleine Waldstr.","postalCode":"39307","locality":"Genthin","municipality":{"key":"15086040","name":"Genthin, Stadt","type":"Stadt"},"district":{"key":"15086","name":"Jerichower Land","type":"Landkreis"},"federalState":{"key":"15","name":"Sachsen-Anhalt"}},{"name":"Kreuzweg","postalCode":"39307","locality":"Genthin","municipality":{"key":"15086040","name":"Genthin, Stadt","type":"Stadt"},"district":{"key":"15086","name":"Jerichower Land","type":"Landkreis"},"federalState":{"key":"15","name":"Sachsen-Anhalt"}},{"name":"Kurze Str.","postalCode":"39307","locality":"Genthin","municipality":{"key":"15086040","name":"Genthin, Stadt","type":"Stadt"},"district":{"key":"15086","name":"Jerichower Land","type":"Landkreis"},"federalState":{"key":"15","name":"Sachsen-Anhalt"}},{"name":"Landforsthaus","postalCode":"39291","locality":"Genthin","municipality":{"key":"15086040","name":"Genthin, Stadt","type":"Stadt"},"district":{"key":"15086","name":"Jerichower Land","type":"Landkreis"},"federalState":{"key":"15","name":"Sachsen-Anhalt"}},{"name":"Lehmsteig","postalCode":"39307","locality":"Genthin","municipality":{"key":"15086040","name":"Genthin, Stadt","type":"Stadt"},"district":{"key":"15086","name":"Jerichower Land","type":"Landkreis"},"federalState":{"key":"15","name":"Sachsen-Anhalt"}},{"name":"Lessingstr.","postalCode":"39307","locality":"Genthin","municipality":{"key":"15086040","name":"Genthin, Stadt","type":"Stadt"},"district":{"key":"15086","name":"Jerichower Land","type":"Landkreis"},"federalState":{"key":"15","name":"Sachsen-Anhalt"}},{"name":"Lilienthalstr.","postalCode":"39307","locality":"Genthin","municipality":{"key":"15086040","name":"Genthin, Stadt","type":"Stadt"},"district":{"key":"15086","name":"Jerichower Land","type":"Landkreis"},"federalState":{"key":"15","name":"Sachsen-Anhalt"}},{"name":"Lindenplatz","postalCode":"39307","locality":"Genthin","municipality":{"key":"15086040","name":"Genthin, Stadt","type":"Stadt"},"district":{"key":"15086","name":"Jerichower Land","type":"Landkreis"},"federalState":{"key":"15","name":"Sachsen-Anhalt"}},{"name":"Lindenstr.","postalCode":"39307","locality":"Genthin","municipality":{"key":"15086040","name":"Genthin, Stadt","type":"Stadt"},"district":{"key":"15086","name":"Jerichower Land","type":"Landkreis"},"federalState":{"key":"15","name":"Sachsen-Anhalt"}},{"name":"Lorenzstr.","postalCode":"39307","locality":"Genthin","municipality":{"key":"15086040","name":"Genthin, Stadt","type":"Stadt"},"district":{"key":"15086","name":"Jerichower Land","type":"Landkreis"},"federalState":{"key":"15","name":"Sachsen-Anhalt"}},{"name":"Lorenzweg","postalCode":"39307","locality":"Genthin","municipality":{"key":"15086040","name":"Genthin, Stadt","type":"Stadt"},"district":{"key":"15086","name":"Jerichower Land","type":"Landkreis"},"federalState":{"key":"15","name":"Sachsen-Anhalt"}},{"name":"Magdeburger Str.","postalCode":"39307","locality":"Genthin","municipality":{"key":"15086040","name":"Genthin, Stadt","type":"Stadt"},"district":{"key":"15086","name":"Jerichower Land","type":"Landkreis"},"federalState":{"key":"15","name":"Sachsen-Anhalt"}},{"name":"Marktplatz","postalCode":"39307","locality":"Genthin","municipality":{"key":"15086040","name":"Genthin, Stadt","type":"Stadt"},"district":{"key":"15086","name":"Jerichower Land","type":"Landkreis"},"federalState":{"key":"15","name":"Sachsen-Anhalt"}},{"name":"Marthe-Brautzsch-Str.","postalCode":"39307","locality":"Genthin","municipality":{"key":"15086040","name":"Genthin, Stadt","type":"Stadt"},"district":{"key":"15086","name":"Jerichower Land","type":"Landkreis"},"federalState":{"key":"15","name":"Sachsen-Anhalt"}},{"name":"Meierei","postalCode":"39307","locality":"Genthin","municipality":{"key":"15086040","name":"Genthin, Stadt","type":"Stadt"},"district":{"key":"15086","name":"Jerichower Land","type":"Landkreis"},"federalState":{"key":"15","name":"Sachsen-Anhalt"}},{"name":"Milchhof","postalCode":"39307","locality":"Genthin","municipality":{"key":"15086040","name":"Genthin, Stadt","type":"Stadt"},"district":{"key":"15086","name":"Jerichower Land","type":"Landkreis"},"federalState":{"key":"15","name":"Sachsen-Anhalt"}},{"name":"Mittelstr.","postalCode":"39307","locality":"Genthin","municipality":{"key":"15086040","name":"Genthin, Stadt","type":"Stadt"},"district":{"key":"15086","name":"Jerichower Land","type":"Landkreis"},"federalState":{"key":"15","name":"Sachsen-Anhalt"}},{"name":"Mollberg","postalCode":"39307","locality":"Genthin","municipality":{"key":"15086040","name":"Genthin, Stadt","type":"Stadt"},"district":{"key":"15086","name":"Jerichower Land","type":"Landkreis"},"federalState":{"key":"15","name":"Sachsen-Anhalt"}},{"name":"Mollberger Feld","postalCode":"39307","locality":"Genthin","municipality":{"key":"15086040","name":"Genthin, Stadt","type":"Stadt"},"district":{"key":"15086","name":"Jerichower Land","type":"Landkreis"},"federalState":{"key":"15","name":"Sachsen-Anhalt"}},{"name":"Mühlenberg","postalCode":"39307","locality":"Genthin","municipality":{"key":"15086040","name":"Genthin, Stadt","type":"Stadt"},"district":{"key":"15086","name":"Jerichower Land","type":"Landkreis"},"federalState":{"key":"15","name":"Sachsen-Anhalt"}},{"name":"Mühlenstr.","postalCode":"39307","locality":"Genthin","municipality":{"key":"15086040","name":"Genthin, Stadt","type":"Stadt"},"district":{"key":"15086","name":"Jerichower Land","type":"Landkreis"},"federalState":{"key":"15","name":"Sachsen-Anhalt"}},{"name":"Mühlenweg","postalCode":"39291","locality":"Genthin","municipality":{"key":"15086040","name":"Genthin, Stadt","type":"Stadt"},"district":{"key":"15086","name":"Jerichower Land","type":"Landkreis"},"federalState":{"key":"15","name":"Sachsen-Anhalt"}},{"name":"Mützeler Str.","postalCode":"39307","locality":"Genthin","municipality":{"key":"15086040","name":"Genthin, Stadt","type":"Stadt"},"district":{"key":"15086","name":"Jerichower Land","type":"Landkreis"},"federalState":{"key":"15","name":"Sachsen-Anhalt"}},{"name":"Mützeler Weg","postalCode":"39307","locality":"Genthin","municipality":{"key":"15086040","name":"Genthin, Stadt","type":"Stadt"},"district":{"key":"15086","name":"Jerichower Land","type":"Landkreis"},"federalState":{"key":"15","name":"Sachsen-Anhalt"}},{"name":"Mützelstr.","postalCode":"39307","locality":"Genthin","municipality":{"key":"15086040","name":"Genthin, Stadt","type":"Stadt"},"district":{"key":"15086","name":"Jerichower Land","type":"Landkreis"},"federalState":{"key":"15","name":"Sachsen-Anhalt"}},{"name":"Nanteweg","postalCode":"39307","locality":"Genthin","municipality":{"key":"15086040","name":"Genthin, Stadt","type":"Stadt"},"district":{"key":"15086","name":"Jerichower Land","type":"Landkreis"},"federalState":{"key":"15","name":"Sachsen-Anhalt"}},{"name":"Nelkenweg","postalCode":"39307","locality":"Genthin","municipality":{"key":"15086040","name":"Genthin, Stadt","type":"Stadt"},"district":{"key":"15086","name":"Jerichower Land","type":"Landkreis"},"federalState":{"key":"15","name":"Sachsen-Anhalt"}},{"name":"Neue Siedlung","postalCode":"39307","locality":"Genthin","municipality":{"key":"15086040","name":"Genthin, Stadt","type":"Stadt"},"district":{"key":"15086","name":"Jerichower Land","type":"Landkreis"},"federalState":{"key":"15","name":"Sachsen-Anhalt"}},{"name":"Nielebocker Chaussee","postalCode":"39307","locality":"Genthin","municipality":{"key":"15086040","name":"Genthin, Stadt","type":"Stadt"},"district":{"key":"15086","name":"Jerichower Land","type":"Landkreis"},"federalState":{"key":"15","name":"Sachsen-Anhalt"}},{"name":"Oststr.","postalCode":"39307","locality":"Genthin","municipality":{"key":"15086040","name":"Genthin, Stadt","type":"Stadt"},"district":{"key":"15086","name":"Jerichower Land","type":"Landkreis"},"federalState":{"key":"15","name":"Sachsen-Anhalt"}},{"name":"Pappelweg","postalCode":"39307","locality":"Genthin","municipality":{"key":"15086040","name":"Genthin, Stadt","type":"Stadt"},"district":{"key":"15086","name":"Jerichower Land","type":"Landkreis"},"federalState":{"key":"15","name":"Sachsen-Anhalt"}},{"name":"Pareyer Str.","postalCode":"39307","locality":"Genthin","municipality":{"key":"15086040","name":"Genthin, Stadt","type":"Stadt"},"district":{"key":"15086","name":"Jerichower Land","type":"Landkreis"},"federalState":{"key":"15","name":"Sachsen-Anhalt"}},{"name":"Parkstr.","postalCode":"39307","locality":"Genthin","municipality":{"key":"15086040","name":"Genthin, Stadt","type":"Stadt"},"district":{"key":"15086","name":"Jerichower Land","type":"Landkreis"},"federalState":{"key":"15","name":"Sachsen-Anhalt"}},{"name":"Pestalozzistr.","postalCode":"39307","locality":"Genthin","municipality":{"key":"15086040","name":"Genthin, Stadt","type":"Stadt"},"district":{"key":"15086","name":"Jerichower Land","type":"Landkreis"},"federalState":{"key":"15","name":"Sachsen-Anhalt"}},{"name":"Pfarrer-Schneider-Str.","postalCode":"39307","locality":"Genthin","municipality":{"key":"15086040","name":"Genthin, Stadt","type":"Stadt"},"district":{"key":"15086","name":"Jerichower Land","type":"Landkreis"},"federalState":{"key":"15","name":"Sachsen-Anhalt"}},{"name":"Poststr.","postalCode":"39307","locality":"Genthin","municipality":{"key":"15086040","name":"Genthin, Stadt","type":"Stadt"},"district":{"key":"15086","name":"Jerichower Land","type":"Landkreis"},"federalState":{"key":"15","name":"Sachsen-Anhalt"}},{"name":"Querstr.","postalCode":"39307","locality":"Genthin","municipality":{"key":"15086040","name":"Genthin, Stadt","type":"Stadt"},"district":{"key":"15086","name":"Jerichower Land","type":"Landkreis"},"federalState":{"key":"15","name":"Sachsen-Anhalt"}},{"name":"Rankeweg","postalCode":"39307","locality":"Genthin","municipality":{"key":"15086040","name":"Genthin, Stadt","type":"Stadt"},"district":{"key":"15086","name":"Jerichower Land","type":"Landkreis"},"federalState":{"key":"15","name":"Sachsen-Anhalt"}},{"name":"Rathenaustr.","postalCode":"39307","locality":"Genthin","municipality":{"key":"15086040","name":"Genthin, Stadt","type":"Stadt"},"district":{"key":"15086","name":"Jerichower Land","type":"Landkreis"},"federalState":{"key":"15","name":"Sachsen-Anhalt"}},{"name":"Rathenower Heerstr.","postalCode":"39307","locality":"Genthin","municipality":{"key":"15086040","name":"Genthin, Stadt","type":"Stadt"},"district":{"key":"15086","name":"Jerichower Land","type":"Landkreis"},"federalState":{"key":"15","name":"Sachsen-Anhalt"}},{"name":"Reuterstr.","postalCode":"39307","locality":"Genthin","municipality":{"key":"15086040","name":"Genthin, Stadt","type":"Stadt"},"district":{"key":"15086","name":"Jerichower Land","type":"Landkreis"},"federalState":{"key":"15","name":"Sachsen-Anhalt"}},{"name":"Rosenweg","postalCode":"39307","locality":"Genthin","municipality":{"key":"15086040","name":"Genthin, Stadt","type":"Stadt"},"district":{"key":"15086","name":"Jerichower Land","type":"Landkreis"},"federalState":{"key":"15","name":"Sachsen-Anhalt"}},{"name":"Roßdorfer Weg","postalCode":"39307","locality":"Genthin","municipality":{"key":"15086040","name":"Genthin, Stadt","type":"Stadt"},"district":{"key":"15086","name":"Jerichower Land","type":"Landkreis"},"federalState":{"key":"15","name":"Sachsen-Anhalt"}},{"name":"Rotdornweg","postalCode":"39307","locality":"Genthin","municipality":{"key":"15086040","name":"Genthin, Stadt","type":"Stadt"},"district":{"key":"15086","name":"Jerichower Land","type":"Landkreis"},"federalState":{"key":"15","name":"Sachsen-Anhalt"}},{"name":"Rudolfstr.","postalCode":"39307","locality":"Genthin","municipality":{"key":"15086040","name":"Genthin, Stadt","type":"Stadt"},"district":{"key":"15086","name":"Jerichower Land","type":"Landkreis"},"federalState":{"key":"15","name":"Sachsen-Anhalt"}},{"name":"Saarlandstr.","postalCode":"39307","locality":"Genthin","municipality":{"key":"15086040","name":"Genthin, Stadt","type":"Stadt"},"district":{"key":"15086","name":"Jerichower Land","type":"Landkreis"},"federalState":{"key":"15","name":"Sachsen-Anhalt"}},{"name":"Sandberg","postalCode":"39307","locality":"Genthin","municipality":{"key":"15086040","name":"Genthin, Stadt","type":"Stadt"},"district":{"key":"15086","name":"Jerichower Land","type":"Landkreis"},"federalState":{"key":"15","name":"Sachsen-Anhalt"}},{"name":"Sandforth","postalCode":"39291","locality":"Genthin","municipality":{"key":"15086040","name":"Genthin, Stadt","type":"Stadt"},"district":{"key":"15086","name":"Jerichower Land","type":"Landkreis"},"federalState":{"key":"15","name":"Sachsen-Anhalt"}},{"name":"Schattberger Str.","postalCode":"39307","locality":"Genthin","municipality":{"key":"15086040","name":"Genthin, Stadt","type":"Stadt"},"district":{"key":"15086","name":"Jerichower Land","type":"Landkreis"},"federalState":{"key":"15","name":"Sachsen-Anhalt"}},{"name":"Schillerstr.","postalCode":"39307","locality":"Genthin","municipality":{"key":"15086040","name":"Genthin, Stadt","type":"Stadt"},"district":{"key":"15086","name":"Jerichower Land","type":"Landkreis"},"federalState":{"key":"15","name":"Sachsen-Anhalt"}},{"name":"Schlehenweg","postalCode":"39307","locality":"Genthin","municipality":{"key":"15086040","name":"Genthin, Stadt","type":"Stadt"},"district":{"key":"15086","name":"Jerichower Land","type":"Landkreis"},"federalState":{"key":"15","name":"Sachsen-Anhalt"}},{"name":"Schloß Ringelsdorf","postalCode":"39291","locality":"Genthin","municipality":{"key":"15086040","name":"Genthin, Stadt","type":"Stadt"},"district":{"key":"15086","name":"Jerichower Land","type":"Landkreis"},"federalState":{"key":"15","name":"Sachsen-Anhalt"}},{"name":"Schmetterlingsweg","postalCode":"39307","locality":"Genthin","municipality":{"key":"15086040","name":"Genthin, Stadt","type":"Stadt"},"district":{"key":"15086","name":"Jerichower Land","type":"Landkreis"},"federalState":{"key":"15","name":"Sachsen-Anhalt"}},{"name":"Schmiedestr.","postalCode":"39307","locality":"Genthin","municipality":{"key":"15086040","name":"Genthin, Stadt","type":"Stadt"},"district":{"key":"15086","name":"Jerichower Land","type":"Landkreis"},"federalState":{"key":"15","name":"Sachsen-Anhalt"}},{"name":"Schopsdorfer Bahnhofstr.","postalCode":"39291","locality":"Genthin","municipality":{"key":"15086040","name":"Genthin, Stadt","type":"Stadt"},"district":{"key":"15086","name":"Jerichower Land","type":"Landkreis"},"federalState":{"key":"15","name":"Sachsen-Anhalt"}},{"name":"Schopsdorfer Dorfstr.","postalCode":"39291","locality":"Genthin","municipality":{"key":"15086040","name":"Genthin, Stadt","type":"Stadt"},"district":{"key":"15086","name":"Jerichower Land","type":"Landkreis"},"federalState":{"key":"15","name":"Sachsen-Anhalt"}},{"name":"Schopsdorfer Waldstr.","postalCode":"39291","locality":"Genthin","municipality":{"key":"15086040","name":"Genthin, Stadt","type":"Stadt"},"district":{"key":"15086","name":"Jerichower Land","type":"Landkreis"},"federalState":{"key":"15","name":"Sachsen-Anhalt"}},{"name":"Schulplatz","postalCode":"39307","locality":"Genthin","municipality":{"key":"15086040","name":"Genthin, Stadt","type":"Stadt"},"district":{"key":"15086","name":"Jerichower Land","type":"Landkreis"},"federalState":{"key":"15","name":"Sachsen-Anhalt"}},{"name":"Schulstr.","postalCode":"39307","locality":"Genthin","municipality":{"key":"15086040","name":"Genthin, Stadt","type":"Stadt"},"district":{"key":"15086","name":"Jerichower Land","type":"Landkreis"},"federalState":{"key":"15","name":"Sachsen-Anhalt"}},{"name":"Schwarzer Weg","postalCode":"39307","locality":"Genthin","municipality":{"key":"15086040","name":"Genthin, Stadt","type":"Stadt"},"district":{"key":"15086","name":"Jerichower Land","type":"Landkreis"},"federalState":{"key":"15","name":"Sachsen-Anhalt"}},{"name":"Seedorfer Weg","postalCode":"39307","locality":"Genthin","municipality":{"key":"15086040","name":"Genthin, Stadt","type":"Stadt"},"district":{"key":"15086","name":"Jerichower Land","type":"Landkreis"},"federalState":{"key":"15","name":"Sachsen-Anhalt"}},{"name":"Seminarstr.","postalCode":"39307","locality":"Genthin","municipality":{"key":"15086040","name":"Genthin, Stadt","type":"Stadt"},"district":{"key":"15086","name":"Jerichower Land","type":"Landkreis"},"federalState":{"key":"15","name":"Sachsen-Anhalt"}},{"name":"Siedlungstr.","postalCode":"39307","locality":"Genthin","municipality":{"key":"15086040","name":"Genthin, Stadt","type":"Stadt"},"district":{"key":"15086","name":"Jerichower Land","type":"Landkreis"},"federalState":{"key":"15","name":"Sachsen-Anhalt"}},{"name":"Sonnenweg","postalCode":"39307","locality":"Genthin","municipality":{"key":"15086040","name":"Genthin, Stadt","type":"Stadt"},"district":{"key":"15086","name":"Jerichower Land","type":"Landkreis"},"federalState":{"key":"15","name":"Sachsen-Anhalt"}},{"name":"Steinstr.","postalCode":"39307","locality":"Genthin","municipality":{"key":"15086040","name":"Genthin, Stadt","type":"Stadt"},"district":{"key":"15086","name":"Jerichower Land","type":"Landkreis"},"federalState":{"key":"15","name":"Sachsen-Anhalt"}},{"name":"Str. am Friedhof","postalCode":"39307","locality":"Genthin","municipality":{"key":"15086040","name":"Genthin, Stadt","type":"Stadt"},"district":{"key":"15086","name":"Jerichower Land","type":"Landkreis"},"federalState":{"key":"15","name":"Sachsen-Anhalt"}},{"name":"Str. der Freundschaft","postalCode":"39307","locality":"Genthin","municipality":{"key":"15086040","name":"Genthin, Stadt","type":"Stadt"},"district":{"key":"15086","name":"Jerichower Land","type":"Landkreis"},"federalState":{"key":"15","name":"Sachsen-Anhalt"}},{"name":"Str. der Opfer des Faschismus","postalCode":"39307","locality":"Genthin","municipality":{"key":"15086040","name":"Genthin, Stadt","type":"Stadt"},"district":{"key":"15086","name":"Jerichower Land","type":"Landkreis"},"federalState":{"key":"15","name":"Sachsen-Anhalt"}},{"name":"Süße Ecke","postalCode":"39307","locality":"Genthin","municipality":{"key":"15086040","name":"Genthin, Stadt","type":"Stadt"},"district":{"key":"15086","name":"Jerichower Land","type":"Landkreis"},"federalState":{"key":"15","name":"Sachsen-Anhalt"}},{"name":"Tulpenweg","postalCode":"39307","locality":"Genthin","municipality":{"key":"15086040","name":"Genthin, Stadt","type":"Stadt"},"district":{"key":"15086","name":"Jerichower Land","type":"Landkreis"},"federalState":{"key":"15","name":"Sachsen-Anhalt"}},{"name":"Uhlandstr.","postalCode":"39307","locality":"Genthin","municipality":{"key":"15086040","name":"Genthin, Stadt","type":"Stadt"},"district":{"key":"15086","name":"Jerichower Land","type":"Landkreis"},"federalState":{"key":"15","name":"Sachsen-Anhalt"}},{"name":"Unter den Eichen","postalCode":"39307","locality":"Genthin","municipality":{"key":"15086040","name":"Genthin, Stadt","type":"Stadt"},"district":{"key":"15086","name":"Jerichower Land","type":"Landkreis"},"federalState":{"key":"15","name":"Sachsen-Anhalt"}},{"name":"Volkspark","postalCode":"39307","locality":"Genthin","municipality":{"key":"15086040","name":"Genthin, Stadt","type":"Stadt"},"district":{"key":"15086","name":"Jerichower Land","type":"Landkreis"},"federalState":{"key":"15","name":"Sachsen-Anhalt"}},{"name":"Wagnerstr.","postalCode":"39307","locality":"Genthin","municipality":{"key":"15086040","name":"Genthin, Stadt","type":"Stadt"},"district":{"key":"15086","name":"Jerichower Land","type":"Landkreis"},"federalState":{"key":"15","name":"Sachsen-Anhalt"}},{"name":"Wald","postalCode":"39307","locality":"Genthin","municipality":{"key":"15086040","name":"Genthin, Stadt","type":"Stadt"},"district":{"key":"15086","name":"Jerichower Land","type":"Landkreis"},"federalState":{"key":"15","name":"Sachsen-Anhalt"}},{"name":"Werderstr.","postalCode":"39307","locality":"Genthin","municipality":{"key":"15086040","name":"Genthin, Stadt","type":"Stadt"},"district":{"key":"15086","name":"Jerichower Land","type":"Landkreis"},"federalState":{"key":"15","name":"Sachsen-Anhalt"}},{"name":"Weststr.","postalCode":"39307","locality":"Genthin","municipality":{"key":"15086040","name":"Genthin, Stadt","type":"Stadt"},"district":{"key":"15086","name":"Jerichower Land","type":"Landkreis"},"federalState":{"key":"15","name":"Sachsen-Anhalt"}},{"name":"Wiehlstr.","postalCode":"39307","locality":"Genthin","municipality":{"key":"15086040","name":"Genthin, Stadt","type":"Stadt"},"district":{"key":"15086","name":"Jerichower Land","type":"Landkreis"},"federalState":{"key":"15","name":"Sachsen-Anhalt"}},{"name":"Wiesenweg","postalCode":"39307","locality":"Genthin","municipality":{"key":"15086040","name":"Genthin, Stadt","type":"Stadt"},"district":{"key":"15086","name":"Jerichower Land","type":"Landkreis"},"federalState":{"key":"15","name":"Sachsen-Anhalt"}},{"name":"Windmühlenweg","postalCode":"39307","locality":"Genthin","municipality":{"key":"15086040","name":"Genthin, Stadt","type":"Stadt"},"district":{"key":"15086","name":"Jerichower Land","type":"Landkreis"},"federalState":{"key":"15","name":"Sachsen-Anhalt"}},{"name":"Winkelstr.","postalCode":"39307","locality":"Genthin","municipality":{"key":"15086040","name":"Genthin, Stadt","type":"Stadt"},"district":{"key":"15086","name":"Jerichower Land","type":"Landkreis"},"federalState":{"key":"15","name":"Sachsen-Anhalt"}},{"name":"Worthstr.","postalCode":"39307","locality":"Genthin","municipality":{"key":"15086040","name":"Genthin, Stadt","type":"Stadt"},"district":{"key":"15086","name":"Jerichower Land","type":"Landkreis"},"federalState":{"key":"15","name":"Sachsen-Anhalt"}},{"name":"Zeppelinstr.","postalCode":"39307","locality":"Genthin","municipality":{"key":"15086040","name":"Genthin, Stadt","type":"Stadt"},"district":{"key":"15086","name":"Jerichower Land","type":"Landkreis"},"federalState":{"key":"15","name":"Sachsen-Anhalt"}},{"name":"Ziesarer Weg","postalCode":"39307","locality":"Genthin","municipality":{"key":"15086040","name":"Genthin, Stadt","type":"Stadt"},"district":{"key":"15086","name":"Jerichower Land","type":"Landkreis"},"federalState":{"key":"15","name":"Sachsen-Anhalt"}},{"name":"Ziesarstr.","postalCode":"39307","locality":"Genthin","municipality":{"key":"15086040","name":"Genthin, Stadt","type":"Stadt"},"district":{"key":"15086","name":"Jerichower Land","type":"Landkreis"},"federalState":{"key":"15","name":"Sachsen-Anhalt"}},{"name":"Zillestr.","postalCode":"39307","locality":"Genthin","municipality":{"key":"15086040","name":"Genthin, Stadt","type":"Stadt"},"district":{"key":"15086","name":"Jerichower Land","type":"Landkreis"},"federalState":{"key":"15","name":"Sachsen-Anhalt"}},{"name":"Zu den Radestücken","postalCode":"39307","locality":"Genthin","municipality":{"key":"15086040","name":"Genthin, Stadt","type":"Stadt"},"district":{"key":"15086","name":"Jerichower Land","type":"Landkreis"},"federalState":{"key":"15","name":"Sachsen-Anhalt"}},{"name":"Zur Mühle","postalCode":"39307","locality":"Genthin","municipality":{"key":"15086040","name":"Genthin, Stadt","type":"Stadt"},"district":{"key":"15086","name":"Jerichower Land","type":"Landkreis"},"federalState":{"key":"15","name":"Sachsen-Anhalt"}},{"name":"Ölmacherstr.","postalCode":"39291","locality":"Genthin","municipality":{"key":"15086040","name":"Genthin, Stadt","type":"Stadt"},"district":{"key":"15086","name":"Jerichower Land","type":"Landkreis"},"federalState":{"key":"15","name":"Sachsen-Anhalt"}},]