[{"key":"10185520","name":"Aebnitstrasse","postalCode":"3652","locality":"Hilterfingen","commune":{"key":"929","name":"Hilterfingen","shortName":"Hilterfingen"},"district":{"key":"247","name":"Verwaltungskreis Thun"},"canton":{"key":"2","code":"BE","name":"Bern / Berne"},"status":"Real"},{"key":"10066953","name":"Alte Thunstrasse","postalCode":"3652","locality":"Hilterfingen","commune":{"key":"929","name":"Hilterfingen","shortName":"Hilterfingen"},"district":{"key":"247","name":"Verwaltungskreis Thun"},"canton":{"key":"2","code":"BE","name":"Bern / Berne"},"status":"Real"},{"key":"10186479","name":"Bachgasse","postalCode":"3652","locality":"Hilterfingen","commune":{"key":"929","name":"Hilterfingen","shortName":"Hilterfingen"},"district":{"key":"247","name":"Verwaltungskreis Thun"},"canton":{"key":"2","code":"BE","name":"Bern / Berne"},"status":"Real"},{"key":"10050911","name":"Bällizgasse","postalCode":"3652","locality":"Hilterfingen","commune":{"key":"929","name":"Hilterfingen","shortName":"Hilterfingen"},"district":{"key":"247","name":"Verwaltungskreis Thun"},"canton":{"key":"2","code":"BE","name":"Bern / Berne"},"status":"Real"},{"key":"10186131","name":"Breitenweg","postalCode":"3652","locality":"Hilterfingen","commune":{"key":"929","name":"Hilterfingen","shortName":"Hilterfingen"},"district":{"key":"247","name":"Verwaltungskreis Thun"},"canton":{"key":"2","code":"BE","name":"Bern / Berne"},"status":"Real"},{"key":"10015381","name":"Bühlweg","postalCode":"3652","locality":"Hilterfingen","commune":{"key":"929","name":"Hilterfingen","shortName":"Hilterfingen"},"district":{"key":"247","name":"Verwaltungskreis Thun"},"canton":{"key":"2","code":"BE","name":"Bern / Berne"},"status":"Real"},{"key":"10066954","name":"Burechgasse","postalCode":"3652","locality":"Hilterfingen","commune":{"key":"929","name":"Hilterfingen","shortName":"Hilterfingen"},"district":{"key":"247","name":"Verwaltungskreis Thun"},"canton":{"key":"2","code":"BE","name":"Bern / Berne"},"status":"Real"},{"key":"10015382","name":"Dorfstrasse","postalCode":"3652","locality":"Hilterfingen","commune":{"key":"929","name":"Hilterfingen","shortName":"Hilterfingen"},"district":{"key":"247","name":"Verwaltungskreis Thun"},"canton":{"key":"2","code":"BE","name":"Bern / Berne"},"status":"Real"},{"key":"10015383","name":"Finkenweg","postalCode":"3652","locality":"Hilterfingen","commune":{"key":"929","name":"Hilterfingen","shortName":"Hilterfingen"},"district":{"key":"247","name":"Verwaltungskreis Thun"},"canton":{"key":"2","code":"BE","name":"Bern / Berne"},"status":"Real"},{"key":"10049285","name":"Gässli","postalCode":"3652","locality":"Hilterfingen","commune":{"key":"929","name":"Hilterfingen","shortName":"Hilterfingen"},"district":{"key":"247","name":"Verwaltungskreis Thun"},"canton":{"key":"2","code":"BE","name":"Bern / Berne"},"status":"Real"},{"key":"10015384","name":"Haberzelgweg","postalCode":"3652","locality":"Hilterfingen","commune":{"key":"929","name":"Hilterfingen","shortName":"Hilterfingen"},"district":{"key":"247","name":"Verwaltungskreis Thun"},"canton":{"key":"2","code":"BE","name":"Bern / Berne"},"status":"Real"},{"key":"10049286","name":"Höhenstrasse","postalCode":"3652","locality":"Hilterfingen","commune":{"key":"929","name":"Hilterfingen","shortName":"Hilterfingen"},"district":{"key":"247","name":"Verwaltungskreis Thun"},"canton":{"key":"2","code":"BE","name":"Bern / Berne"},"status":"Real"},{"key":"10188919","name":"Hübelistrasse","postalCode":"3652","locality":"Hilterfingen","commune":{"key":"929","name":"Hilterfingen","shortName":"Hilterfingen"},"district":{"key":"247","name":"Verwaltungskreis Thun"},"canton":{"key":"2","code":"BE","name":"Bern / Berne"},"status":"Real"},{"key":"10015385","name":"Hüneggweg","postalCode":"3652","locality":"Hilterfingen","commune":{"key":"929","name":"Hilterfingen","shortName":"Hilterfingen"},"district":{"key":"247","name":"Verwaltungskreis Thun"},"canton":{"key":"2","code":"BE","name":"Bern / Berne"},"status":"Real"},{"key":"10050907","name":"Hünibachstrasse","postalCode":"3652","locality":"Hilterfingen","commune":{"key":"929","name":"Hilterfingen","shortName":"Hilterfingen"},"district":{"key":"247","name":"Verwaltungskreis Thun"},"canton":{"key":"2","code":"BE","name":"Bern / Berne"},"status":"Real"},{"key":"10121034","name":"Kirchgässli","postalCode":"3652","locality":"Hilterfingen","commune":{"key":"929","name":"Hilterfingen","shortName":"Hilterfingen"},"district":{"key":"247","name":"Verwaltungskreis Thun"},"canton":{"key":"2","code":"BE","name":"Bern / Berne"},"status":"Real"},{"key":"10185521","name":"Kummweg","postalCode":"3652","locality":"Hilterfingen","commune":{"key":"929","name":"Hilterfingen","shortName":"Hilterfingen"},"district":{"key":"247","name":"Verwaltungskreis Thun"},"canton":{"key":"2","code":"BE","name":"Bern / Berne"},"status":"Real"},{"key":"10128439","name":"Laueliweg","postalCode":"3652","locality":"Hilterfingen","commune":{"key":"929","name":"Hilterfingen","shortName":"Hilterfingen"},"district":{"key":"247","name":"Verwaltungskreis Thun"},"canton":{"key":"2","code":"BE","name":"Bern / Berne"},"status":"Real"},{"key":"10049287","name":"Lindimattweg","postalCode":"3652","locality":"Hilterfingen","commune":{"key":"929","name":"Hilterfingen","shortName":"Hilterfingen"},"district":{"key":"247","name":"Verwaltungskreis Thun"},"canton":{"key":"2","code":"BE","name":"Bern / Berne"},"status":"Real"},{"key":"10066956","name":"Meisenweg","postalCode":"3652","locality":"Hilterfingen","commune":{"key":"929","name":"Hilterfingen","shortName":"Hilterfingen"},"district":{"key":"247","name":"Verwaltungskreis Thun"},"canton":{"key":"2","code":"BE","name":"Bern / Berne"},"status":"Real"},{"key":"10114904","name":"Oberer Breitenweg","postalCode":"3652","locality":"Hilterfingen","commune":{"key":"929","name":"Hilterfingen","shortName":"Hilterfingen"},"district":{"key":"247","name":"Verwaltungskreis Thun"},"canton":{"key":"2","code":"BE","name":"Bern / Berne"},"status":"Real"},{"key":"10162675","name":"Quellenweg","postalCode":"3652","locality":"Hilterfingen","commune":{"key":"929","name":"Hilterfingen","shortName":"Hilterfingen"},"district":{"key":"247","name":"Verwaltungskreis Thun"},"canton":{"key":"2","code":"BE","name":"Bern / Berne"},"status":"Real"},{"key":"10217967","name":"Reckweg","postalCode":"3652","locality":"Hilterfingen","commune":{"key":"929","name":"Hilterfingen","shortName":"Hilterfingen"},"district":{"key":"247","name":"Verwaltungskreis Thun"},"canton":{"key":"2","code":"BE","name":"Bern / Berne"},"status":"Real"},{"key":"10049288","name":"Schlüsselackerweg","postalCode":"3652","locality":"Hilterfingen","commune":{"key":"929","name":"Hilterfingen","shortName":"Hilterfingen"},"district":{"key":"247","name":"Verwaltungskreis Thun"},"canton":{"key":"2","code":"BE","name":"Bern / Berne"},"status":"Real"},{"key":"10083176","name":"Schneckenbühlstrasse","postalCode":"3652","locality":"Hilterfingen","commune":{"key":"929","name":"Hilterfingen","shortName":"Hilterfingen"},"district":{"key":"247","name":"Verwaltungskreis Thun"},"canton":{"key":"2","code":"BE","name":"Bern / Berne"},"status":"Real"},{"key":"10081901","name":"Schoren","postalCode":"3652","locality":"Hilterfingen","commune":{"key":"929","name":"Hilterfingen","shortName":"Hilterfingen"},"district":{"key":"247","name":"Verwaltungskreis Thun"},"canton":{"key":"2","code":"BE","name":"Bern / Berne"},"status":"Real"},{"key":"10066958","name":"Schwalbenweg","postalCode":"3652","locality":"Hilterfingen","commune":{"key":"929","name":"Hilterfingen","shortName":"Hilterfingen"},"district":{"key":"247","name":"Verwaltungskreis Thun"},"canton":{"key":"2","code":"BE","name":"Bern / Berne"},"status":"Real"},{"key":"10083177","name":"Sodstrasse","postalCode":"3652","locality":"Hilterfingen","commune":{"key":"929","name":"Hilterfingen","shortName":"Hilterfingen"},"district":{"key":"247","name":"Verwaltungskreis Thun"},"canton":{"key":"2","code":"BE","name":"Bern / Berne"},"status":"Real"},{"key":"10066959","name":"Spychertenstrasse","postalCode":"3652","locality":"Hilterfingen","commune":{"key":"929","name":"Hilterfingen","shortName":"Hilterfingen"},"district":{"key":"247","name":"Verwaltungskreis Thun"},"canton":{"key":"2","code":"BE","name":"Bern / Berne"},"status":"Real"},{"key":"10050910","name":"Staatsstrasse","postalCode":"3652","locality":"Hilterfingen","commune":{"key":"929","name":"Hilterfingen","shortName":"Hilterfingen"},"district":{"key":"247","name":"Verwaltungskreis Thun"},"canton":{"key":"2","code":"BE","name":"Bern / Berne"},"status":"Real"},{"key":"10162676","name":"Tanneggweg","postalCode":"3652","locality":"Hilterfingen","commune":{"key":"929","name":"Hilterfingen","shortName":"Hilterfingen"},"district":{"key":"247","name":"Verwaltungskreis Thun"},"canton":{"key":"2","code":"BE","name":"Bern / Berne"},"status":"Real"},{"key":"10015386","name":"Tannenbühlweg","postalCode":"3652","locality":"Hilterfingen","commune":{"key":"929","name":"Hilterfingen","shortName":"Hilterfingen"},"district":{"key":"247","name":"Verwaltungskreis Thun"},"canton":{"key":"2","code":"BE","name":"Bern / Berne"},"status":"Real"},{"key":"10083178","name":"Weingartenstrasse","postalCode":"3652","locality":"Hilterfingen","commune":{"key":"929","name":"Hilterfingen","shortName":"Hilterfingen"},"district":{"key":"247","name":"Verwaltungskreis Thun"},"canton":{"key":"2","code":"BE","name":"Bern / Berne"},"status":"Real"},{"key":"10015387","name":"Wiesenweg","postalCode":"3652","locality":"Hilterfingen","commune":{"key":"929","name":"Hilterfingen","shortName":"Hilterfingen"},"district":{"key":"247","name":"Verwaltungskreis Thun"},"canton":{"key":"2","code":"BE","name":"Bern / Berne"},"status":"Real"},]