[{"name":"Achtern Bleeck","postalCode":"24327","locality":"Blekendorf","municipality":{"key":"01057007","name":"Blekendorf","type":"Kreisangehörige_Gemeinde"},"district":{"key":"01057","name":"Plön","type":"Kreis"},"federalState":{"key":"01","name":"Schleswig-Holstein"}},{"name":"Alte Dorfstr.","postalCode":"24327","locality":"Blekendorf","municipality":{"key":"01057007","name":"Blekendorf","type":"Kreisangehörige_Gemeinde"},"district":{"key":"01057","name":"Plön","type":"Kreis"},"federalState":{"key":"01","name":"Schleswig-Holstein"}},{"name":"Alte Weide","postalCode":"24327","locality":"Blekendorf","municipality":{"key":"01057007","name":"Blekendorf","type":"Kreisangehörige_Gemeinde"},"district":{"key":"01057","name":"Plön","type":"Kreis"},"federalState":{"key":"01","name":"Schleswig-Holstein"}},{"name":"Am Heiserbusch","postalCode":"24327","locality":"Blekendorf","municipality":{"key":"01057007","name":"Blekendorf","type":"Kreisangehörige_Gemeinde"},"district":{"key":"01057","name":"Plön","type":"Kreis"},"federalState":{"key":"01","name":"Schleswig-Holstein"}},{"name":"Am Schießplatz","postalCode":"24327","locality":"Blekendorf","municipality":{"key":"01057007","name":"Blekendorf","type":"Kreisangehörige_Gemeinde"},"district":{"key":"01057","name":"Plön","type":"Kreis"},"federalState":{"key":"01","name":"Schleswig-Holstein"}},{"name":"Belvedere","postalCode":"24327","locality":"Blekendorf","municipality":{"key":"01057007","name":"Blekendorf","type":"Kreisangehörige_Gemeinde"},"district":{"key":"01057","name":"Plön","type":"Kreis"},"federalState":{"key":"01","name":"Schleswig-Holstein"}},{"name":"Blekendorfer Berg","postalCode":"24327","locality":"Blekendorf","municipality":{"key":"01057007","name":"Blekendorf","type":"Kreisangehörige_Gemeinde"},"district":{"key":"01057","name":"Plön","type":"Kreis"},"federalState":{"key":"01","name":"Schleswig-Holstein"}},{"name":"Bungsbergstr.","postalCode":"24327","locality":"Blekendorf","municipality":{"key":"01057007","name":"Blekendorf","type":"Kreisangehörige_Gemeinde"},"district":{"key":"01057","name":"Plön","type":"Kreis"},"federalState":{"key":"01","name":"Schleswig-Holstein"}},{"name":"Catharinenwiese","postalCode":"24327","locality":"Blekendorf","municipality":{"key":"01057007","name":"Blekendorf","type":"Kreisangehörige_Gemeinde"},"district":{"key":"01057","name":"Plön","type":"Kreis"},"federalState":{"key":"01","name":"Schleswig-Holstein"}},{"name":"Diekkate","postalCode":"24327","locality":"Blekendorf","municipality":{"key":"01057007","name":"Blekendorf","type":"Kreisangehörige_Gemeinde"},"district":{"key":"01057","name":"Plön","type":"Kreis"},"federalState":{"key":"01","name":"Schleswig-Holstein"}},{"name":"Eichendiek","postalCode":"24327","locality":"Blekendorf","municipality":{"key":"01057007","name":"Blekendorf","type":"Kreisangehörige_Gemeinde"},"district":{"key":"01057","name":"Plön","type":"Kreis"},"federalState":{"key":"01","name":"Schleswig-Holstein"}},{"name":"Friederikenthaler Weg","postalCode":"24327","locality":"Blekendorf","municipality":{"key":"01057007","name":"Blekendorf","type":"Kreisangehörige_Gemeinde"},"district":{"key":"01057","name":"Plön","type":"Kreis"},"federalState":{"key":"01","name":"Schleswig-Holstein"}},{"name":"Fuhlensee","postalCode":"24327","locality":"Blekendorf","municipality":{"key":"01057007","name":"Blekendorf","type":"Kreisangehörige_Gemeinde"},"district":{"key":"01057","name":"Plön","type":"Kreis"},"federalState":{"key":"01","name":"Schleswig-Holstein"}},{"name":"Geschenberger Weg","postalCode":"24327","locality":"Blekendorf","municipality":{"key":"01057007","name":"Blekendorf","type":"Kreisangehörige_Gemeinde"},"district":{"key":"01057","name":"Plön","type":"Kreis"},"federalState":{"key":"01","name":"Schleswig-Holstein"}},{"name":"Gildeweg","postalCode":"24327","locality":"Blekendorf","municipality":{"key":"01057007","name":"Blekendorf","type":"Kreisangehörige_Gemeinde"},"district":{"key":"01057","name":"Plön","type":"Kreis"},"federalState":{"key":"01","name":"Schleswig-Holstein"}},{"name":"Günnenfelde","postalCode":"24327","locality":"Blekendorf","municipality":{"key":"01057007","name":"Blekendorf","type":"Kreisangehörige_Gemeinde"},"district":{"key":"01057","name":"Plön","type":"Kreis"},"federalState":{"key":"01","name":"Schleswig-Holstein"}},{"name":"Günnenfelder Weg","postalCode":"24327","locality":"Blekendorf","municipality":{"key":"01057007","name":"Blekendorf","type":"Kreisangehörige_Gemeinde"},"district":{"key":"01057","name":"Plön","type":"Kreis"},"federalState":{"key":"01","name":"Schleswig-Holstein"}},{"name":"Gutshof","postalCode":"24327","locality":"Blekendorf","municipality":{"key":"01057007","name":"Blekendorf","type":"Kreisangehörige_Gemeinde"},"district":{"key":"01057","name":"Plön","type":"Kreis"},"federalState":{"key":"01","name":"Schleswig-Holstein"}},{"name":"Haansahl","postalCode":"24327","locality":"Blekendorf","municipality":{"key":"01057007","name":"Blekendorf","type":"Kreisangehörige_Gemeinde"},"district":{"key":"01057","name":"Plön","type":"Kreis"},"federalState":{"key":"01","name":"Schleswig-Holstein"}},{"name":"Hadorn","postalCode":"24327","locality":"Blekendorf","municipality":{"key":"01057007","name":"Blekendorf","type":"Kreisangehörige_Gemeinde"},"district":{"key":"01057","name":"Plön","type":"Kreis"},"federalState":{"key":"01","name":"Schleswig-Holstein"}},{"name":"Heischweg","postalCode":"24327","locality":"Blekendorf","municipality":{"key":"01057007","name":"Blekendorf","type":"Kreisangehörige_Gemeinde"},"district":{"key":"01057","name":"Plön","type":"Kreis"},"federalState":{"key":"01","name":"Schleswig-Holstein"}},{"name":"Heller Gang","postalCode":"24327","locality":"Blekendorf","municipality":{"key":"01057007","name":"Blekendorf","type":"Kreisangehörige_Gemeinde"},"district":{"key":"01057","name":"Plön","type":"Kreis"},"federalState":{"key":"01","name":"Schleswig-Holstein"}},{"name":"Im Winkel","postalCode":"24327","locality":"Blekendorf","municipality":{"key":"01057007","name":"Blekendorf","type":"Kreisangehörige_Gemeinde"},"district":{"key":"01057","name":"Plön","type":"Kreis"},"federalState":{"key":"01","name":"Schleswig-Holstein"}},{"name":"Im Wurth","postalCode":"24327","locality":"Blekendorf","municipality":{"key":"01057007","name":"Blekendorf","type":"Kreisangehörige_Gemeinde"},"district":{"key":"01057","name":"Plön","type":"Kreis"},"federalState":{"key":"01","name":"Schleswig-Holstein"}},{"name":"Johannisstr.","postalCode":"24306","locality":"Plön","municipality":{"key":"01057057","name":"Plön, Stadt","type":"Stadt"},"district":{"key":"01057","name":"Plön","type":"Kreis"},"federalState":{"key":"01","name":"Schleswig-Holstein"}},{"name":"Jörg-Steinbach-Ring","postalCode":"24306","locality":"Plön","municipality":{"key":"01057057","name":"Plön, Stadt","type":"Stadt"},"district":{"key":"01057","name":"Plön","type":"Kreis"},"federalState":{"key":"01","name":"Schleswig-Holstein"}},{"name":"Kornhof","postalCode":"24327","locality":"Blekendorf","municipality":{"key":"01057007","name":"Blekendorf","type":"Kreisangehörige_Gemeinde"},"district":{"key":"01057","name":"Plön","type":"Kreis"},"federalState":{"key":"01","name":"Schleswig-Holstein"}},{"name":"Lange Str.","postalCode":"24327","locality":"Blekendorf","municipality":{"key":"01057007","name":"Blekendorf","type":"Kreisangehörige_Gemeinde"},"district":{"key":"01057","name":"Plön","type":"Kreis"},"federalState":{"key":"01","name":"Schleswig-Holstein"}},{"name":"Lindenstr.","postalCode":"24327","locality":"Blekendorf","municipality":{"key":"01057007","name":"Blekendorf","type":"Kreisangehörige_Gemeinde"},"district":{"key":"01057","name":"Plön","type":"Kreis"},"federalState":{"key":"01","name":"Schleswig-Holstein"}},{"name":"Lütjenburger Str.","postalCode":"24327","locality":"Blekendorf","municipality":{"key":"01057007","name":"Blekendorf","type":"Kreisangehörige_Gemeinde"},"district":{"key":"01057","name":"Plön","type":"Kreis"},"federalState":{"key":"01","name":"Schleswig-Holstein"}},{"name":"Meisenweg","postalCode":"24327","locality":"Blekendorf","municipality":{"key":"01057007","name":"Blekendorf","type":"Kreisangehörige_Gemeinde"},"district":{"key":"01057","name":"Plön","type":"Kreis"},"federalState":{"key":"01","name":"Schleswig-Holstein"}},{"name":"Moorbrook","postalCode":"24327","locality":"Blekendorf","municipality":{"key":"01057007","name":"Blekendorf","type":"Kreisangehörige_Gemeinde"},"district":{"key":"01057","name":"Plön","type":"Kreis"},"federalState":{"key":"01","name":"Schleswig-Holstein"}},{"name":"Oberer Rathsteichweg","postalCode":"24306","locality":"Plön","municipality":{"key":"01057057","name":"Plön, Stadt","type":"Stadt"},"district":{"key":"01057","name":"Plön","type":"Kreis"},"federalState":{"key":"01","name":"Schleswig-Holstein"}},{"name":"Osterterp","postalCode":"24306","locality":"Plön","municipality":{"key":"01057057","name":"Plön, Stadt","type":"Stadt"},"district":{"key":"01057","name":"Plön","type":"Kreis"},"federalState":{"key":"01","name":"Schleswig-Holstein"}},{"name":"Paradies","postalCode":"24327","locality":"Blekendorf","municipality":{"key":"01057007","name":"Blekendorf","type":"Kreisangehörige_Gemeinde"},"district":{"key":"01057","name":"Plön","type":"Kreis"},"federalState":{"key":"01","name":"Schleswig-Holstein"}},{"name":"Radeberg","postalCode":"24327","locality":"Blekendorf","municipality":{"key":"01057007","name":"Blekendorf","type":"Kreisangehörige_Gemeinde"},"district":{"key":"01057","name":"Plön","type":"Kreis"},"federalState":{"key":"01","name":"Schleswig-Holstein"}},{"name":"Sandweg","postalCode":"24327","locality":"Blekendorf","municipality":{"key":"01057007","name":"Blekendorf","type":"Kreisangehörige_Gemeinde"},"district":{"key":"01057","name":"Plön","type":"Kreis"},"federalState":{"key":"01","name":"Schleswig-Holstein"}},{"name":"Seekamp","postalCode":"24327","locality":"Blekendorf","municipality":{"key":"01057007","name":"Blekendorf","type":"Kreisangehörige_Gemeinde"},"district":{"key":"01057","name":"Plön","type":"Kreis"},"federalState":{"key":"01","name":"Schleswig-Holstein"}},{"name":"Seestr.","postalCode":"24327","locality":"Blekendorf","municipality":{"key":"01057007","name":"Blekendorf","type":"Kreisangehörige_Gemeinde"},"district":{"key":"01057","name":"Plön","type":"Kreis"},"federalState":{"key":"01","name":"Schleswig-Holstein"}},{"name":"Steinkamp","postalCode":"24327","locality":"Blekendorf","municipality":{"key":"01057007","name":"Blekendorf","type":"Kreisangehörige_Gemeinde"},"district":{"key":"01057","name":"Plön","type":"Kreis"},"federalState":{"key":"01","name":"Schleswig-Holstein"}},{"name":"Strandstr.","postalCode":"24327","locality":"Blekendorf","municipality":{"key":"01057007","name":"Blekendorf","type":"Kreisangehörige_Gemeinde"},"district":{"key":"01057","name":"Plön","type":"Kreis"},"federalState":{"key":"01","name":"Schleswig-Holstein"}},{"name":"Teichweg","postalCode":"24327","locality":"Blekendorf","municipality":{"key":"01057007","name":"Blekendorf","type":"Kreisangehörige_Gemeinde"},"district":{"key":"01057","name":"Plön","type":"Kreis"},"federalState":{"key":"01","name":"Schleswig-Holstein"}},{"name":"Twischlag","postalCode":"24327","locality":"Blekendorf","municipality":{"key":"01057007","name":"Blekendorf","type":"Kreisangehörige_Gemeinde"},"district":{"key":"01057","name":"Plön","type":"Kreis"},"federalState":{"key":"01","name":"Schleswig-Holstein"}},{"name":"Ulmenstr.","postalCode":"24306","locality":"Plön","municipality":{"key":"01057057","name":"Plön, Stadt","type":"Stadt"},"district":{"key":"01057","name":"Plön","type":"Kreis"},"federalState":{"key":"01","name":"Schleswig-Holstein"}},{"name":"Unterer Rathsteichweg","postalCode":"24306","locality":"Plön","municipality":{"key":"01057057","name":"Plön, Stadt","type":"Stadt"},"district":{"key":"01057","name":"Plön","type":"Kreis"},"federalState":{"key":"01","name":"Schleswig-Holstein"}},{"name":"Vogelsang","postalCode":"24327","locality":"Blekendorf","municipality":{"key":"01057007","name":"Blekendorf","type":"Kreisangehörige_Gemeinde"},"district":{"key":"01057","name":"Plön","type":"Kreis"},"federalState":{"key":"01","name":"Schleswig-Holstein"}},{"name":"Wewerin","postalCode":"24327","locality":"Blekendorf","municipality":{"key":"01057007","name":"Blekendorf","type":"Kreisangehörige_Gemeinde"},"district":{"key":"01057","name":"Plön","type":"Kreis"},"federalState":{"key":"01","name":"Schleswig-Holstein"}},{"name":"Ölmühlenallee","postalCode":"24306","locality":"Plön","municipality":{"key":"01057057","name":"Plön, Stadt","type":"Stadt"},"district":{"key":"01057","name":"Plön","type":"Kreis"},"federalState":{"key":"01","name":"Schleswig-Holstein"}},{"name":"Övelgönne","postalCode":"24306","locality":"Plön","municipality":{"key":"01057057","name":"Plön, Stadt","type":"Stadt"},"district":{"key":"01057","name":"Plön","type":"Kreis"},"federalState":{"key":"01","name":"Schleswig-Holstein"}},]