[{"name":"Alte Dorfstr.","postalCode":"02708","locality":"Kottmar","municipality":{"key":"14626245","name":"Kottmar","type":"Kreisangehörige_Gemeinde"},"district":{"key":"14626","name":"Görlitz","type":"Landkreis"},"federalState":{"key":"14","name":"Sachsen"}},{"name":"Alte Heerstr.","postalCode":"02708","locality":"Kottmar","municipality":{"key":"14626245","name":"Kottmar","type":"Kreisangehörige_Gemeinde"},"district":{"key":"14626","name":"Görlitz","type":"Landkreis"},"federalState":{"key":"14","name":"Sachsen"}},{"name":"Alte Landstr.","postalCode":"02708","locality":"Kottmar","municipality":{"key":"14626245","name":"Kottmar","type":"Kreisangehörige_Gemeinde"},"district":{"key":"14626","name":"Görlitz","type":"Landkreis"},"federalState":{"key":"14","name":"Sachsen"}},{"name":"Alte Löbauer Str.","postalCode":"02739","locality":"Kottmar","municipality":{"key":"14626245","name":"Kottmar","type":"Kreisangehörige_Gemeinde"},"district":{"key":"14626","name":"Görlitz","type":"Landkreis"},"federalState":{"key":"14","name":"Sachsen"}},{"name":"Alte Schulgasse","postalCode":"02708","locality":"Kottmar","municipality":{"key":"14626245","name":"Kottmar","type":"Kreisangehörige_Gemeinde"},"district":{"key":"14626","name":"Görlitz","type":"Landkreis"},"federalState":{"key":"14","name":"Sachsen"}},{"name":"Am Adlerberg","postalCode":"02739","locality":"Kottmar","municipality":{"key":"14626245","name":"Kottmar","type":"Kreisangehörige_Gemeinde"},"district":{"key":"14626","name":"Görlitz","type":"Landkreis"},"federalState":{"key":"14","name":"Sachsen"}},{"name":"Am Dorfbach","postalCode":"02708","locality":"Kottmar","municipality":{"key":"14626245","name":"Kottmar","type":"Kreisangehörige_Gemeinde"},"district":{"key":"14626","name":"Görlitz","type":"Landkreis"},"federalState":{"key":"14","name":"Sachsen"}},{"name":"Am Gaswerk","postalCode":"02739","locality":"Kottmar","municipality":{"key":"14626245","name":"Kottmar","type":"Kreisangehörige_Gemeinde"},"district":{"key":"14626","name":"Görlitz","type":"Landkreis"},"federalState":{"key":"14","name":"Sachsen"}},{"name":"Am Kottmar","postalCode":"02739","locality":"Kottmar","municipality":{"key":"14626245","name":"Kottmar","type":"Kreisangehörige_Gemeinde"},"district":{"key":"14626","name":"Görlitz","type":"Landkreis"},"federalState":{"key":"14","name":"Sachsen"}},{"name":"Am Krummbach","postalCode":"02708","locality":"Kottmar","municipality":{"key":"14626245","name":"Kottmar","type":"Kreisangehörige_Gemeinde"},"district":{"key":"14626","name":"Görlitz","type":"Landkreis"},"federalState":{"key":"14","name":"Sachsen"}},{"name":"Am Postberg","postalCode":"02708","locality":"Kottmar","municipality":{"key":"14626245","name":"Kottmar","type":"Kreisangehörige_Gemeinde"},"district":{"key":"14626","name":"Görlitz","type":"Landkreis"},"federalState":{"key":"14","name":"Sachsen"}},{"name":"Am Sonnenplan","postalCode":"02708","locality":"Kottmar","municipality":{"key":"14626245","name":"Kottmar","type":"Kreisangehörige_Gemeinde"},"district":{"key":"14626","name":"Görlitz","type":"Landkreis"},"federalState":{"key":"14","name":"Sachsen"}},{"name":"Am Viebig","postalCode":"02708","locality":"Kottmar","municipality":{"key":"14626245","name":"Kottmar","type":"Kreisangehörige_Gemeinde"},"district":{"key":"14626","name":"Görlitz","type":"Landkreis"},"federalState":{"key":"14","name":"Sachsen"}},{"name":"An der Aue","postalCode":"02708","locality":"Kottmar","municipality":{"key":"14626245","name":"Kottmar","type":"Kreisangehörige_Gemeinde"},"district":{"key":"14626","name":"Görlitz","type":"Landkreis"},"federalState":{"key":"14","name":"Sachsen"}},{"name":"An der Gasse","postalCode":"02708","locality":"Kottmar","municipality":{"key":"14626245","name":"Kottmar","type":"Kreisangehörige_Gemeinde"},"district":{"key":"14626","name":"Görlitz","type":"Landkreis"},"federalState":{"key":"14","name":"Sachsen"}},{"name":"An der Harthe","postalCode":"02708","locality":"Kottmar","municipality":{"key":"14626245","name":"Kottmar","type":"Kreisangehörige_Gemeinde"},"district":{"key":"14626","name":"Görlitz","type":"Landkreis"},"federalState":{"key":"14","name":"Sachsen"}},{"name":"An der Kaufhalle","postalCode":"02708","locality":"Kottmar","municipality":{"key":"14626245","name":"Kottmar","type":"Kreisangehörige_Gemeinde"},"district":{"key":"14626","name":"Görlitz","type":"Landkreis"},"federalState":{"key":"14","name":"Sachsen"}},{"name":"An der Lehnwiese","postalCode":"02739","locality":"Kottmar","municipality":{"key":"14626245","name":"Kottmar","type":"Kreisangehörige_Gemeinde"},"district":{"key":"14626","name":"Görlitz","type":"Landkreis"},"federalState":{"key":"14","name":"Sachsen"}},{"name":"An der Sandgrube","postalCode":"02739","locality":"Kottmar","municipality":{"key":"14626245","name":"Kottmar","type":"Kreisangehörige_Gemeinde"},"district":{"key":"14626","name":"Görlitz","type":"Landkreis"},"federalState":{"key":"14","name":"Sachsen"}},{"name":"An der Siedlung","postalCode":"02708","locality":"Kottmar","municipality":{"key":"14626245","name":"Kottmar","type":"Kreisangehörige_Gemeinde"},"district":{"key":"14626","name":"Görlitz","type":"Landkreis"},"federalState":{"key":"14","name":"Sachsen"}},{"name":"August-Bebel-Str.","postalCode":"02739","locality":"Kottmar","municipality":{"key":"14626245","name":"Kottmar","type":"Kreisangehörige_Gemeinde"},"district":{"key":"14626","name":"Görlitz","type":"Landkreis"},"federalState":{"key":"14","name":"Sachsen"}},{"name":"Bachweg","postalCode":"02739","locality":"Kottmar","municipality":{"key":"14626245","name":"Kottmar","type":"Kreisangehörige_Gemeinde"},"district":{"key":"14626","name":"Görlitz","type":"Landkreis"},"federalState":{"key":"14","name":"Sachsen"}},{"name":"Bahnhofstr.","postalCode":"02708","locality":"Kottmar","municipality":{"key":"14626245","name":"Kottmar","type":"Kreisangehörige_Gemeinde"},"district":{"key":"14626","name":"Görlitz","type":"Landkreis"},"federalState":{"key":"14","name":"Sachsen"}},{"name":"Bahnhofstr.","postalCode":"02739","locality":"Kottmar","municipality":{"key":"14626245","name":"Kottmar","type":"Kreisangehörige_Gemeinde"},"district":{"key":"14626","name":"Görlitz","type":"Landkreis"},"federalState":{"key":"14","name":"Sachsen"}},{"name":"Beckenbergstr.","postalCode":"02739","locality":"Kottmar","municipality":{"key":"14626245","name":"Kottmar","type":"Kreisangehörige_Gemeinde"},"district":{"key":"14626","name":"Görlitz","type":"Landkreis"},"federalState":{"key":"14","name":"Sachsen"}},{"name":"Bergweg","postalCode":"02739","locality":"Kottmar","municipality":{"key":"14626245","name":"Kottmar","type":"Kreisangehörige_Gemeinde"},"district":{"key":"14626","name":"Görlitz","type":"Landkreis"},"federalState":{"key":"14","name":"Sachsen"}},{"name":"Bierweg","postalCode":"02708","locality":"Kottmar","municipality":{"key":"14626245","name":"Kottmar","type":"Kreisangehörige_Gemeinde"},"district":{"key":"14626","name":"Görlitz","type":"Landkreis"},"federalState":{"key":"14","name":"Sachsen"}},{"name":"Bierweg","postalCode":"02739","locality":"Kottmar","municipality":{"key":"14626245","name":"Kottmar","type":"Kreisangehörige_Gemeinde"},"district":{"key":"14626","name":"Görlitz","type":"Landkreis"},"federalState":{"key":"14","name":"Sachsen"}},{"name":"Blumenweg","postalCode":"02708","locality":"Kottmar","municipality":{"key":"14626245","name":"Kottmar","type":"Kreisangehörige_Gemeinde"},"district":{"key":"14626","name":"Görlitz","type":"Landkreis"},"federalState":{"key":"14","name":"Sachsen"}},{"name":"Brunnenstr.","postalCode":"02739","locality":"Kottmar","municipality":{"key":"14626245","name":"Kottmar","type":"Kreisangehörige_Gemeinde"},"district":{"key":"14626","name":"Görlitz","type":"Landkreis"},"federalState":{"key":"14","name":"Sachsen"}},{"name":"Brunnenweg","postalCode":"02739","locality":"Kottmar","municipality":{"key":"14626245","name":"Kottmar","type":"Kreisangehörige_Gemeinde"},"district":{"key":"14626","name":"Görlitz","type":"Landkreis"},"federalState":{"key":"14","name":"Sachsen"}},{"name":"Buchbornweg","postalCode":"02739","locality":"Kottmar","municipality":{"key":"14626245","name":"Kottmar","type":"Kreisangehörige_Gemeinde"},"district":{"key":"14626","name":"Görlitz","type":"Landkreis"},"federalState":{"key":"14","name":"Sachsen"}},{"name":"Bundesmannschneise","postalCode":"02739","locality":"Kottmar","municipality":{"key":"14626245","name":"Kottmar","type":"Kreisangehörige_Gemeinde"},"district":{"key":"14626","name":"Görlitz","type":"Landkreis"},"federalState":{"key":"14","name":"Sachsen"}},{"name":"Bürgerweg","postalCode":"02739","locality":"Kottmar","municipality":{"key":"14626245","name":"Kottmar","type":"Kreisangehörige_Gemeinde"},"district":{"key":"14626","name":"Görlitz","type":"Landkreis"},"federalState":{"key":"14","name":"Sachsen"}},{"name":"Carl-Friedrich-Gauß-Str.","postalCode":"02826","locality":"Görlitz","municipality":{"key":"14626110","name":"Görlitz, Stadt","type":"Stadt"},"district":{"key":"14626","name":"Görlitz","type":"Landkreis"},"federalState":{"key":"14","name":"Sachsen"}},{"name":"Carl-von-Ossietzky-Str.","postalCode":"02826","locality":"Görlitz","municipality":{"key":"14626110","name":"Görlitz, Stadt","type":"Stadt"},"district":{"key":"14626","name":"Görlitz","type":"Landkreis"},"federalState":{"key":"14","name":"Sachsen"}},{"name":"Carolusstr.","postalCode":"02827","locality":"Görlitz","municipality":{"key":"14626110","name":"Görlitz, Stadt","type":"Stadt"},"district":{"key":"14626","name":"Görlitz","type":"Landkreis"},"federalState":{"key":"14","name":"Sachsen"}},{"name":"Christian-Heuck-Str.","postalCode":"02827","locality":"Görlitz","municipality":{"key":"14626110","name":"Görlitz, Stadt","type":"Stadt"},"district":{"key":"14626","name":"Görlitz","type":"Landkreis"},"federalState":{"key":"14","name":"Sachsen"}},{"name":"Christoph-Lüders-Str.","postalCode":"02826","locality":"Görlitz","municipality":{"key":"14626110","name":"Görlitz, Stadt","type":"Stadt"},"district":{"key":"14626","name":"Görlitz","type":"Landkreis"},"federalState":{"key":"14","name":"Sachsen"}},{"name":"Chrysanthemenweg","postalCode":"02827","locality":"Görlitz","municipality":{"key":"14626110","name":"Görlitz, Stadt","type":"Stadt"},"district":{"key":"14626","name":"Görlitz","type":"Landkreis"},"federalState":{"key":"14","name":"Sachsen"}},{"name":"Clara-Zetkin-Str.","postalCode":"02827","locality":"Görlitz","municipality":{"key":"14626110","name":"Görlitz, Stadt","type":"Stadt"},"district":{"key":"14626","name":"Görlitz","type":"Landkreis"},"federalState":{"key":"14","name":"Sachsen"}},{"name":"Conrad-Schiedt-Str.","postalCode":"02826","locality":"Görlitz","municipality":{"key":"14626110","name":"Görlitz, Stadt","type":"Stadt"},"district":{"key":"14626","name":"Görlitz","type":"Landkreis"},"federalState":{"key":"14","name":"Sachsen"}},{"name":"Cottbuser Str.","postalCode":"02826","locality":"Görlitz","municipality":{"key":"14626110","name":"Görlitz, Stadt","type":"Stadt"},"district":{"key":"14626","name":"Görlitz","type":"Landkreis"},"federalState":{"key":"14","name":"Sachsen"}},{"name":"Dammweg","postalCode":"02708","locality":"Kottmar","municipality":{"key":"14626245","name":"Kottmar","type":"Kreisangehörige_Gemeinde"},"district":{"key":"14626","name":"Görlitz","type":"Landkreis"},"federalState":{"key":"14","name":"Sachsen"}},{"name":"Dammweg","postalCode":"02739","locality":"Kottmar","municipality":{"key":"14626245","name":"Kottmar","type":"Kreisangehörige_Gemeinde"},"district":{"key":"14626","name":"Görlitz","type":"Landkreis"},"federalState":{"key":"14","name":"Sachsen"}},{"name":"Der Schulviebig","postalCode":"02708","locality":"Kottmar","municipality":{"key":"14626245","name":"Kottmar","type":"Kreisangehörige_Gemeinde"},"district":{"key":"14626","name":"Görlitz","type":"Landkreis"},"federalState":{"key":"14","name":"Sachsen"}},{"name":"Dorfstr.","postalCode":"02708","locality":"Kottmar","municipality":{"key":"14626245","name":"Kottmar","type":"Kreisangehörige_Gemeinde"},"district":{"key":"14626","name":"Görlitz","type":"Landkreis"},"federalState":{"key":"14","name":"Sachsen"}},{"name":"Dorfstr.","postalCode":"02739","locality":"Kottmar","municipality":{"key":"14626245","name":"Kottmar","type":"Kreisangehörige_Gemeinde"},"district":{"key":"14626","name":"Görlitz","type":"Landkreis"},"federalState":{"key":"14","name":"Sachsen"}},{"name":"Ebersbacher Str.","postalCode":"02708","locality":"Kottmar","municipality":{"key":"14626245","name":"Kottmar","type":"Kreisangehörige_Gemeinde"},"district":{"key":"14626","name":"Görlitz","type":"Landkreis"},"federalState":{"key":"14","name":"Sachsen"}},{"name":"Ebersbacher Weg","postalCode":"02739","locality":"Kottmar","municipality":{"key":"14626245","name":"Kottmar","type":"Kreisangehörige_Gemeinde"},"district":{"key":"14626","name":"Görlitz","type":"Landkreis"},"federalState":{"key":"14","name":"Sachsen"}},{"name":"Eibauer Str.","postalCode":"02708","locality":"Kottmar","municipality":{"key":"14626245","name":"Kottmar","type":"Kreisangehörige_Gemeinde"},"district":{"key":"14626","name":"Görlitz","type":"Landkreis"},"federalState":{"key":"14","name":"Sachsen"}},{"name":"Eibauer Str.","postalCode":"02739","locality":"Kottmar","municipality":{"key":"14626245","name":"Kottmar","type":"Kreisangehörige_Gemeinde"},"district":{"key":"14626","name":"Görlitz","type":"Landkreis"},"federalState":{"key":"14","name":"Sachsen"}},{"name":"Eichelweg","postalCode":"02739","locality":"Kottmar","municipality":{"key":"14626245","name":"Kottmar","type":"Kreisangehörige_Gemeinde"},"district":{"key":"14626","name":"Görlitz","type":"Landkreis"},"federalState":{"key":"14","name":"Sachsen"}},{"name":"Fabrikgasse","postalCode":"02708","locality":"Kottmar","municipality":{"key":"14626245","name":"Kottmar","type":"Kreisangehörige_Gemeinde"},"district":{"key":"14626","name":"Görlitz","type":"Landkreis"},"federalState":{"key":"14","name":"Sachsen"}},{"name":"Fasanenweg","postalCode":"02708","locality":"Kottmar","municipality":{"key":"14626245","name":"Kottmar","type":"Kreisangehörige_Gemeinde"},"district":{"key":"14626","name":"Görlitz","type":"Landkreis"},"federalState":{"key":"14","name":"Sachsen"}},{"name":"Fasanenweg","postalCode":"02739","locality":"Kottmar","municipality":{"key":"14626245","name":"Kottmar","type":"Kreisangehörige_Gemeinde"},"district":{"key":"14626","name":"Görlitz","type":"Landkreis"},"federalState":{"key":"14","name":"Sachsen"}},{"name":"Feldgasse","postalCode":"02708","locality":"Kottmar","municipality":{"key":"14626245","name":"Kottmar","type":"Kreisangehörige_Gemeinde"},"district":{"key":"14626","name":"Görlitz","type":"Landkreis"},"federalState":{"key":"14","name":"Sachsen"}},{"name":"Forstweg","postalCode":"02739","locality":"Kottmar","municipality":{"key":"14626245","name":"Kottmar","type":"Kreisangehörige_Gemeinde"},"district":{"key":"14626","name":"Görlitz","type":"Landkreis"},"federalState":{"key":"14","name":"Sachsen"}},{"name":"Friedensstr.","postalCode":"02739","locality":"Kottmar","municipality":{"key":"14626245","name":"Kottmar","type":"Kreisangehörige_Gemeinde"},"district":{"key":"14626","name":"Görlitz","type":"Landkreis"},"federalState":{"key":"14","name":"Sachsen"}},{"name":"Friedhofstr.","postalCode":"02708","locality":"Kottmar","municipality":{"key":"14626245","name":"Kottmar","type":"Kreisangehörige_Gemeinde"},"district":{"key":"14626","name":"Görlitz","type":"Landkreis"},"federalState":{"key":"14","name":"Sachsen"}},{"name":"Friedhofsweg","postalCode":"02739","locality":"Kottmar","municipality":{"key":"14626245","name":"Kottmar","type":"Kreisangehörige_Gemeinde"},"district":{"key":"14626","name":"Görlitz","type":"Landkreis"},"federalState":{"key":"14","name":"Sachsen"}},{"name":"Friedrichsweg","postalCode":"02708","locality":"Kottmar","municipality":{"key":"14626245","name":"Kottmar","type":"Kreisangehörige_Gemeinde"},"district":{"key":"14626","name":"Görlitz","type":"Landkreis"},"federalState":{"key":"14","name":"Sachsen"}},{"name":"Gartenweg","postalCode":"02708","locality":"Kottmar","municipality":{"key":"14626245","name":"Kottmar","type":"Kreisangehörige_Gemeinde"},"district":{"key":"14626","name":"Görlitz","type":"Landkreis"},"federalState":{"key":"14","name":"Sachsen"}},{"name":"Goethestr.","postalCode":"02739","locality":"Kottmar","municipality":{"key":"14626245","name":"Kottmar","type":"Kreisangehörige_Gemeinde"},"district":{"key":"14626","name":"Görlitz","type":"Landkreis"},"federalState":{"key":"14","name":"Sachsen"}},{"name":"Grenzweg","postalCode":"02739","locality":"Kottmar","municipality":{"key":"14626245","name":"Kottmar","type":"Kreisangehörige_Gemeinde"},"district":{"key":"14626","name":"Görlitz","type":"Landkreis"},"federalState":{"key":"14","name":"Sachsen"}},{"name":"Hauptstr.","postalCode":"02708","locality":"Kottmar","municipality":{"key":"14626245","name":"Kottmar","type":"Kreisangehörige_Gemeinde"},"district":{"key":"14626","name":"Görlitz","type":"Landkreis"},"federalState":{"key":"14","name":"Sachsen"}},{"name":"Hauptstr.","postalCode":"02739","locality":"Kottmar","municipality":{"key":"14626245","name":"Kottmar","type":"Kreisangehörige_Gemeinde"},"district":{"key":"14626","name":"Görlitz","type":"Landkreis"},"federalState":{"key":"14","name":"Sachsen"}},{"name":"Heideberg","postalCode":"02708","locality":"Kottmar","municipality":{"key":"14626245","name":"Kottmar","type":"Kreisangehörige_Gemeinde"},"district":{"key":"14626","name":"Görlitz","type":"Landkreis"},"federalState":{"key":"14","name":"Sachsen"}},{"name":"Heimstr.","postalCode":"02708","locality":"Kottmar","municipality":{"key":"14626245","name":"Kottmar","type":"Kreisangehörige_Gemeinde"},"district":{"key":"14626","name":"Görlitz","type":"Landkreis"},"federalState":{"key":"14","name":"Sachsen"}},{"name":"Hermann-Birnbaum-Weg","postalCode":"02708","locality":"Kottmar","municipality":{"key":"14626245","name":"Kottmar","type":"Kreisangehörige_Gemeinde"},"district":{"key":"14626","name":"Görlitz","type":"Landkreis"},"federalState":{"key":"14","name":"Sachsen"}},{"name":"Hetzwalder Weg","postalCode":"02739","locality":"Kottmar","municipality":{"key":"14626245","name":"Kottmar","type":"Kreisangehörige_Gemeinde"},"district":{"key":"14626","name":"Görlitz","type":"Landkreis"},"federalState":{"key":"14","name":"Sachsen"}},{"name":"Hintere Dorfstr.","postalCode":"02708","locality":"Kottmar","municipality":{"key":"14626245","name":"Kottmar","type":"Kreisangehörige_Gemeinde"},"district":{"key":"14626","name":"Görlitz","type":"Landkreis"},"federalState":{"key":"14","name":"Sachsen"}},{"name":"Hintere Ecke","postalCode":"02739","locality":"Kottmar","municipality":{"key":"14626245","name":"Kottmar","type":"Kreisangehörige_Gemeinde"},"district":{"key":"14626","name":"Görlitz","type":"Landkreis"},"federalState":{"key":"14","name":"Sachsen"}},{"name":"Hinterer Grenzweg","postalCode":"02739","locality":"Kottmar","municipality":{"key":"14626245","name":"Kottmar","type":"Kreisangehörige_Gemeinde"},"district":{"key":"14626","name":"Görlitz","type":"Landkreis"},"federalState":{"key":"14","name":"Sachsen"}},{"name":"Hinterer Hofeweg","postalCode":"02739","locality":"Kottmar","municipality":{"key":"14626245","name":"Kottmar","type":"Kreisangehörige_Gemeinde"},"district":{"key":"14626","name":"Görlitz","type":"Landkreis"},"federalState":{"key":"14","name":"Sachsen"}},{"name":"Hirschgäßchen","postalCode":"02739","locality":"Kottmar","municipality":{"key":"14626245","name":"Kottmar","type":"Kreisangehörige_Gemeinde"},"district":{"key":"14626","name":"Görlitz","type":"Landkreis"},"federalState":{"key":"14","name":"Sachsen"}},{"name":"Hutungstr.","postalCode":"02739","locality":"Kottmar","municipality":{"key":"14626245","name":"Kottmar","type":"Kreisangehörige_Gemeinde"},"district":{"key":"14626","name":"Görlitz","type":"Landkreis"},"federalState":{"key":"14","name":"Sachsen"}},{"name":"Im Bogen","postalCode":"02826","locality":"Görlitz","municipality":{"key":"14626110","name":"Görlitz, Stadt","type":"Stadt"},"district":{"key":"14626","name":"Görlitz","type":"Landkreis"},"federalState":{"key":"14","name":"Sachsen"}},{"name":"Immanuel-Kant-Str.","postalCode":"02827","locality":"Görlitz","municipality":{"key":"14626110","name":"Görlitz, Stadt","type":"Stadt"},"district":{"key":"14626","name":"Görlitz","type":"Landkreis"},"federalState":{"key":"14","name":"Sachsen"}},{"name":"In der Aue","postalCode":"02827","locality":"Görlitz","municipality":{"key":"14626110","name":"Görlitz, Stadt","type":"Stadt"},"district":{"key":"14626","name":"Görlitz","type":"Landkreis"},"federalState":{"key":"14","name":"Sachsen"}},{"name":"Jagdweg","postalCode":"02708","locality":"Kottmar","municipality":{"key":"14626245","name":"Kottmar","type":"Kreisangehörige_Gemeinde"},"district":{"key":"14626","name":"Görlitz","type":"Landkreis"},"federalState":{"key":"14","name":"Sachsen"}},{"name":"Jahnstr.","postalCode":"02739","locality":"Kottmar","municipality":{"key":"14626245","name":"Kottmar","type":"Kreisangehörige_Gemeinde"},"district":{"key":"14626","name":"Görlitz","type":"Landkreis"},"federalState":{"key":"14","name":"Sachsen"}},{"name":"Jahnweg","postalCode":"02739","locality":"Kottmar","municipality":{"key":"14626245","name":"Kottmar","type":"Kreisangehörige_Gemeinde"},"district":{"key":"14626","name":"Görlitz","type":"Landkreis"},"federalState":{"key":"14","name":"Sachsen"}},{"name":"Käthe-Kollwitz-Str.","postalCode":"02739","locality":"Kottmar","municipality":{"key":"14626245","name":"Kottmar","type":"Kreisangehörige_Gemeinde"},"district":{"key":"14626","name":"Görlitz","type":"Landkreis"},"federalState":{"key":"14","name":"Sachsen"}},{"name":"Kirchstr.","postalCode":"02739","locality":"Kottmar","municipality":{"key":"14626245","name":"Kottmar","type":"Kreisangehörige_Gemeinde"},"district":{"key":"14626","name":"Görlitz","type":"Landkreis"},"federalState":{"key":"14","name":"Sachsen"}},{"name":"Kirschallee","postalCode":"02739","locality":"Kottmar","municipality":{"key":"14626245","name":"Kottmar","type":"Kreisangehörige_Gemeinde"},"district":{"key":"14626","name":"Görlitz","type":"Landkreis"},"federalState":{"key":"14","name":"Sachsen"}},{"name":"Klippelgasse","postalCode":"02708","locality":"Kottmar","municipality":{"key":"14626245","name":"Kottmar","type":"Kreisangehörige_Gemeinde"},"district":{"key":"14626","name":"Görlitz","type":"Landkreis"},"federalState":{"key":"14","name":"Sachsen"}},{"name":"Kottmarhäuser","postalCode":"02739","locality":"Kottmar","municipality":{"key":"14626245","name":"Kottmar","type":"Kreisangehörige_Gemeinde"},"district":{"key":"14626","name":"Görlitz","type":"Landkreis"},"federalState":{"key":"14","name":"Sachsen"}},{"name":"Kottmarsdorfer Str.","postalCode":"02708","locality":"Kottmar","municipality":{"key":"14626245","name":"Kottmar","type":"Kreisangehörige_Gemeinde"},"district":{"key":"14626","name":"Görlitz","type":"Landkreis"},"federalState":{"key":"14","name":"Sachsen"}},{"name":"Kretschamweg","postalCode":"02708","locality":"Kottmar","municipality":{"key":"14626245","name":"Kottmar","type":"Kreisangehörige_Gemeinde"},"district":{"key":"14626","name":"Görlitz","type":"Landkreis"},"federalState":{"key":"14","name":"Sachsen"}},{"name":"Kretschamweg","postalCode":"02739","locality":"Kottmar","municipality":{"key":"14626245","name":"Kottmar","type":"Kreisangehörige_Gemeinde"},"district":{"key":"14626","name":"Görlitz","type":"Landkreis"},"federalState":{"key":"14","name":"Sachsen"}},{"name":"Lammstr.","postalCode":"02739","locality":"Kottmar","municipality":{"key":"14626245","name":"Kottmar","type":"Kreisangehörige_Gemeinde"},"district":{"key":"14626","name":"Görlitz","type":"Landkreis"},"federalState":{"key":"14","name":"Sachsen"}},{"name":"Lange Gasse","postalCode":"02739","locality":"Kottmar","municipality":{"key":"14626245","name":"Kottmar","type":"Kreisangehörige_Gemeinde"},"district":{"key":"14626","name":"Görlitz","type":"Landkreis"},"federalState":{"key":"14","name":"Sachsen"}},{"name":"Lebeltstr.","postalCode":"02708","locality":"Kottmar","municipality":{"key":"14626245","name":"Kottmar","type":"Kreisangehörige_Gemeinde"},"district":{"key":"14626","name":"Görlitz","type":"Landkreis"},"federalState":{"key":"14","name":"Sachsen"}},{"name":"Lebeltstr.","postalCode":"02739","locality":"Kottmar","municipality":{"key":"14626245","name":"Kottmar","type":"Kreisangehörige_Gemeinde"},"district":{"key":"14626","name":"Görlitz","type":"Landkreis"},"federalState":{"key":"14","name":"Sachsen"}},{"name":"Lindenallee","postalCode":"02708","locality":"Kottmar","municipality":{"key":"14626245","name":"Kottmar","type":"Kreisangehörige_Gemeinde"},"district":{"key":"14626","name":"Görlitz","type":"Landkreis"},"federalState":{"key":"14","name":"Sachsen"}},{"name":"Löbauer Str.","postalCode":"02708","locality":"Kottmar","municipality":{"key":"14626245","name":"Kottmar","type":"Kreisangehörige_Gemeinde"},"district":{"key":"14626","name":"Görlitz","type":"Landkreis"},"federalState":{"key":"14","name":"Sachsen"}},{"name":"Löbauer Weg","postalCode":"02739","locality":"Kottmar","municipality":{"key":"14626245","name":"Kottmar","type":"Kreisangehörige_Gemeinde"},"district":{"key":"14626","name":"Görlitz","type":"Landkreis"},"federalState":{"key":"14","name":"Sachsen"}},{"name":"Löfflerweg","postalCode":"02739","locality":"Kottmar","municipality":{"key":"14626245","name":"Kottmar","type":"Kreisangehörige_Gemeinde"},"district":{"key":"14626","name":"Görlitz","type":"Landkreis"},"federalState":{"key":"14","name":"Sachsen"}},{"name":"Ludwig-Jahn-Str.","postalCode":"02739","locality":"Kottmar","municipality":{"key":"14626245","name":"Kottmar","type":"Kreisangehörige_Gemeinde"},"district":{"key":"14626","name":"Görlitz","type":"Landkreis"},"federalState":{"key":"14","name":"Sachsen"}},{"name":"Lutherstr.","postalCode":"02739","locality":"Kottmar","municipality":{"key":"14626245","name":"Kottmar","type":"Kreisangehörige_Gemeinde"},"district":{"key":"14626","name":"Görlitz","type":"Landkreis"},"federalState":{"key":"14","name":"Sachsen"}},{"name":"Martin-Luther-Str.","postalCode":"02739","locality":"Kottmar","municipality":{"key":"14626245","name":"Kottmar","type":"Kreisangehörige_Gemeinde"},"district":{"key":"14626","name":"Görlitz","type":"Landkreis"},"federalState":{"key":"14","name":"Sachsen"}},{"name":"Max-Klühs-Str.","postalCode":"02708","locality":"Kottmar","municipality":{"key":"14626245","name":"Kottmar","type":"Kreisangehörige_Gemeinde"},"district":{"key":"14626","name":"Görlitz","type":"Landkreis"},"federalState":{"key":"14","name":"Sachsen"}},{"name":"Mittelstr.","postalCode":"02739","locality":"Kottmar","municipality":{"key":"14626245","name":"Kottmar","type":"Kreisangehörige_Gemeinde"},"district":{"key":"14626","name":"Görlitz","type":"Landkreis"},"federalState":{"key":"14","name":"Sachsen"}},{"name":"Mittelweg","postalCode":"02708","locality":"Kottmar","municipality":{"key":"14626245","name":"Kottmar","type":"Kreisangehörige_Gemeinde"},"district":{"key":"14626","name":"Görlitz","type":"Landkreis"},"federalState":{"key":"14","name":"Sachsen"}},{"name":"Mittelweg","postalCode":"02739","locality":"Kottmar","municipality":{"key":"14626245","name":"Kottmar","type":"Kreisangehörige_Gemeinde"},"district":{"key":"14626","name":"Görlitz","type":"Landkreis"},"federalState":{"key":"14","name":"Sachsen"}},{"name":"Mittlerer Hartheweg","postalCode":"02708","locality":"Kottmar","municipality":{"key":"14626245","name":"Kottmar","type":"Kreisangehörige_Gemeinde"},"district":{"key":"14626","name":"Görlitz","type":"Landkreis"},"federalState":{"key":"14","name":"Sachsen"}},{"name":"Mühlenstr.","postalCode":"02708","locality":"Kottmar","municipality":{"key":"14626245","name":"Kottmar","type":"Kreisangehörige_Gemeinde"},"district":{"key":"14626","name":"Görlitz","type":"Landkreis"},"federalState":{"key":"14","name":"Sachsen"}},{"name":"Mühlgrabenweg","postalCode":"02708","locality":"Kottmar","municipality":{"key":"14626245","name":"Kottmar","type":"Kreisangehörige_Gemeinde"},"district":{"key":"14626","name":"Görlitz","type":"Landkreis"},"federalState":{"key":"14","name":"Sachsen"}},{"name":"Mühlweg","postalCode":"02708","locality":"Kottmar","municipality":{"key":"14626245","name":"Kottmar","type":"Kreisangehörige_Gemeinde"},"district":{"key":"14626","name":"Görlitz","type":"Landkreis"},"federalState":{"key":"14","name":"Sachsen"}},{"name":"Mühlweg","postalCode":"02739","locality":"Kottmar","municipality":{"key":"14626245","name":"Kottmar","type":"Kreisangehörige_Gemeinde"},"district":{"key":"14626","name":"Görlitz","type":"Landkreis"},"federalState":{"key":"14","name":"Sachsen"}},{"name":"Neucunnersdorfer Str.","postalCode":"02708","locality":"Kottmar","municipality":{"key":"14626245","name":"Kottmar","type":"Kreisangehörige_Gemeinde"},"district":{"key":"14626","name":"Görlitz","type":"Landkreis"},"federalState":{"key":"14","name":"Sachsen"}},{"name":"Neueibauer Str.","postalCode":"02739","locality":"Kottmar","municipality":{"key":"14626245","name":"Kottmar","type":"Kreisangehörige_Gemeinde"},"district":{"key":"14626","name":"Görlitz","type":"Landkreis"},"federalState":{"key":"14","name":"Sachsen"}},{"name":"Neue Sorge","postalCode":"02708","locality":"Kottmar","municipality":{"key":"14626245","name":"Kottmar","type":"Kreisangehörige_Gemeinde"},"district":{"key":"14626","name":"Görlitz","type":"Landkreis"},"federalState":{"key":"14","name":"Sachsen"}},{"name":"Neue Str.","postalCode":"02708","locality":"Kottmar","municipality":{"key":"14626245","name":"Kottmar","type":"Kreisangehörige_Gemeinde"},"district":{"key":"14626","name":"Görlitz","type":"Landkreis"},"federalState":{"key":"14","name":"Sachsen"}},{"name":"Neue Str.","postalCode":"02739","locality":"Kottmar","municipality":{"key":"14626245","name":"Kottmar","type":"Kreisangehörige_Gemeinde"},"district":{"key":"14626","name":"Görlitz","type":"Landkreis"},"federalState":{"key":"14","name":"Sachsen"}},{"name":"Neugersdorfer Str.","postalCode":"02739","locality":"Kottmar","municipality":{"key":"14626245","name":"Kottmar","type":"Kreisangehörige_Gemeinde"},"district":{"key":"14626","name":"Görlitz","type":"Landkreis"},"federalState":{"key":"14","name":"Sachsen"}},{"name":"Niedere Hauptstr.","postalCode":"02708","locality":"Kottmar","municipality":{"key":"14626245","name":"Kottmar","type":"Kreisangehörige_Gemeinde"},"district":{"key":"14626","name":"Görlitz","type":"Landkreis"},"federalState":{"key":"14","name":"Sachsen"}},{"name":"Nordstr.","postalCode":"02739","locality":"Kottmar","municipality":{"key":"14626245","name":"Kottmar","type":"Kreisangehörige_Gemeinde"},"district":{"key":"14626","name":"Görlitz","type":"Landkreis"},"federalState":{"key":"14","name":"Sachsen"}},{"name":"Obercunnersdorfer Str.","postalCode":"02708","locality":"Kottmar","municipality":{"key":"14626245","name":"Kottmar","type":"Kreisangehörige_Gemeinde"},"district":{"key":"14626","name":"Görlitz","type":"Landkreis"},"federalState":{"key":"14","name":"Sachsen"}},{"name":"Obercunnersdorfer Str.","postalCode":"02739","locality":"Kottmar","municipality":{"key":"14626245","name":"Kottmar","type":"Kreisangehörige_Gemeinde"},"district":{"key":"14626","name":"Görlitz","type":"Landkreis"},"federalState":{"key":"14","name":"Sachsen"}},{"name":"Obere Hauptstr.","postalCode":"02708","locality":"Kottmar","municipality":{"key":"14626245","name":"Kottmar","type":"Kreisangehörige_Gemeinde"},"district":{"key":"14626","name":"Görlitz","type":"Landkreis"},"federalState":{"key":"14","name":"Sachsen"}},{"name":"Oberer Hartheweg","postalCode":"02708","locality":"Kottmar","municipality":{"key":"14626245","name":"Kottmar","type":"Kreisangehörige_Gemeinde"},"district":{"key":"14626","name":"Görlitz","type":"Landkreis"},"federalState":{"key":"14","name":"Sachsen"}},{"name":"Oberoderwitzer Weg","postalCode":"02739","locality":"Kottmar","municipality":{"key":"14626245","name":"Kottmar","type":"Kreisangehörige_Gemeinde"},"district":{"key":"14626","name":"Görlitz","type":"Landkreis"},"federalState":{"key":"14","name":"Sachsen"}},{"name":"Oststr.","postalCode":"02739","locality":"Kottmar","municipality":{"key":"14626245","name":"Kottmar","type":"Kreisangehörige_Gemeinde"},"district":{"key":"14626","name":"Görlitz","type":"Landkreis"},"federalState":{"key":"14","name":"Sachsen"}},{"name":"Ottenhainer Str.","postalCode":"02708","locality":"Kottmar","municipality":{"key":"14626245","name":"Kottmar","type":"Kreisangehörige_Gemeinde"},"district":{"key":"14626","name":"Görlitz","type":"Landkreis"},"federalState":{"key":"14","name":"Sachsen"}},{"name":"Park an der Gemeinde","postalCode":"02739","locality":"Kottmar","municipality":{"key":"14626245","name":"Kottmar","type":"Kreisangehörige_Gemeinde"},"district":{"key":"14626","name":"Görlitz","type":"Landkreis"},"federalState":{"key":"14","name":"Sachsen"}},{"name":"Pfarrweg","postalCode":"02708","locality":"Kottmar","municipality":{"key":"14626245","name":"Kottmar","type":"Kreisangehörige_Gemeinde"},"district":{"key":"14626","name":"Görlitz","type":"Landkreis"},"federalState":{"key":"14","name":"Sachsen"}},{"name":"Popelweg","postalCode":"02739","locality":"Kottmar","municipality":{"key":"14626245","name":"Kottmar","type":"Kreisangehörige_Gemeinde"},"district":{"key":"14626","name":"Görlitz","type":"Landkreis"},"federalState":{"key":"14","name":"Sachsen"}},{"name":"Postweg","postalCode":"02739","locality":"Kottmar","municipality":{"key":"14626245","name":"Kottmar","type":"Kreisangehörige_Gemeinde"},"district":{"key":"14626","name":"Görlitz","type":"Landkreis"},"federalState":{"key":"14","name":"Sachsen"}},{"name":"Querstr.","postalCode":"02708","locality":"Kottmar","municipality":{"key":"14626245","name":"Kottmar","type":"Kreisangehörige_Gemeinde"},"district":{"key":"14626","name":"Görlitz","type":"Landkreis"},"federalState":{"key":"14","name":"Sachsen"}},{"name":"Querstr.","postalCode":"02739","locality":"Kottmar","municipality":{"key":"14626245","name":"Kottmar","type":"Kreisangehörige_Gemeinde"},"district":{"key":"14626","name":"Görlitz","type":"Landkreis"},"federalState":{"key":"14","name":"Sachsen"}},{"name":"Ring","postalCode":"02739","locality":"Kottmar","municipality":{"key":"14626245","name":"Kottmar","type":"Kreisangehörige_Gemeinde"},"district":{"key":"14626","name":"Görlitz","type":"Landkreis"},"federalState":{"key":"14","name":"Sachsen"}},{"name":"Rohrweg","postalCode":"02708","locality":"Kottmar","municipality":{"key":"14626245","name":"Kottmar","type":"Kreisangehörige_Gemeinde"},"district":{"key":"14626","name":"Görlitz","type":"Landkreis"},"federalState":{"key":"14","name":"Sachsen"}},{"name":"Rosenstr.","postalCode":"02739","locality":"Kottmar","municipality":{"key":"14626245","name":"Kottmar","type":"Kreisangehörige_Gemeinde"},"district":{"key":"14626","name":"Görlitz","type":"Landkreis"},"federalState":{"key":"14","name":"Sachsen"}},{"name":"Ruppersdorfer Str.","postalCode":"02708","locality":"Kottmar","municipality":{"key":"14626245","name":"Kottmar","type":"Kreisangehörige_Gemeinde"},"district":{"key":"14626","name":"Görlitz","type":"Landkreis"},"federalState":{"key":"14","name":"Sachsen"}},{"name":"Ruppersdorfer Str.","postalCode":"02739","locality":"Kottmar","municipality":{"key":"14626245","name":"Kottmar","type":"Kreisangehörige_Gemeinde"},"district":{"key":"14626","name":"Görlitz","type":"Landkreis"},"federalState":{"key":"14","name":"Sachsen"}},{"name":"Schillerstr.","postalCode":"02739","locality":"Kottmar","municipality":{"key":"14626245","name":"Kottmar","type":"Kreisangehörige_Gemeinde"},"district":{"key":"14626","name":"Görlitz","type":"Landkreis"},"federalState":{"key":"14","name":"Sachsen"}},{"name":"Schillerweg","postalCode":"02739","locality":"Kottmar","municipality":{"key":"14626245","name":"Kottmar","type":"Kreisangehörige_Gemeinde"},"district":{"key":"14626","name":"Görlitz","type":"Landkreis"},"federalState":{"key":"14","name":"Sachsen"}},{"name":"Schlossstr.","postalCode":"02708","locality":"Kottmar","municipality":{"key":"14626245","name":"Kottmar","type":"Kreisangehörige_Gemeinde"},"district":{"key":"14626","name":"Görlitz","type":"Landkreis"},"federalState":{"key":"14","name":"Sachsen"}},{"name":"Schönbachsweg","postalCode":"02708","locality":"Kottmar","municipality":{"key":"14626245","name":"Kottmar","type":"Kreisangehörige_Gemeinde"},"district":{"key":"14626","name":"Görlitz","type":"Landkreis"},"federalState":{"key":"14","name":"Sachsen"}},{"name":"Schulstr.","postalCode":"02739","locality":"Kottmar","municipality":{"key":"14626245","name":"Kottmar","type":"Kreisangehörige_Gemeinde"},"district":{"key":"14626","name":"Görlitz","type":"Landkreis"},"federalState":{"key":"14","name":"Sachsen"}},{"name":"Seitenweg","postalCode":"02708","locality":"Kottmar","municipality":{"key":"14626245","name":"Kottmar","type":"Kreisangehörige_Gemeinde"},"district":{"key":"14626","name":"Görlitz","type":"Landkreis"},"federalState":{"key":"14","name":"Sachsen"}},{"name":"Spreequellweg","postalCode":"02739","locality":"Kottmar","municipality":{"key":"14626245","name":"Kottmar","type":"Kreisangehörige_Gemeinde"},"district":{"key":"14626","name":"Görlitz","type":"Landkreis"},"federalState":{"key":"14","name":"Sachsen"}},{"name":"Steinweg","postalCode":"02739","locality":"Kottmar","municipality":{"key":"14626245","name":"Kottmar","type":"Kreisangehörige_Gemeinde"},"district":{"key":"14626","name":"Görlitz","type":"Landkreis"},"federalState":{"key":"14","name":"Sachsen"}},{"name":"Sterngasse","postalCode":"02708","locality":"Kottmar","municipality":{"key":"14626245","name":"Kottmar","type":"Kreisangehörige_Gemeinde"},"district":{"key":"14626","name":"Görlitz","type":"Landkreis"},"federalState":{"key":"14","name":"Sachsen"}},{"name":"Strahwalder Str.","postalCode":"02708","locality":"Kottmar","municipality":{"key":"14626245","name":"Kottmar","type":"Kreisangehörige_Gemeinde"},"district":{"key":"14626","name":"Görlitz","type":"Landkreis"},"federalState":{"key":"14","name":"Sachsen"}},{"name":"Str. der Jugend","postalCode":"02739","locality":"Kottmar","municipality":{"key":"14626245","name":"Kottmar","type":"Kreisangehörige_Gemeinde"},"district":{"key":"14626","name":"Görlitz","type":"Landkreis"},"federalState":{"key":"14","name":"Sachsen"}},{"name":"Teichstr.","postalCode":"02739","locality":"Kottmar","municipality":{"key":"14626245","name":"Kottmar","type":"Kreisangehörige_Gemeinde"},"district":{"key":"14626","name":"Görlitz","type":"Landkreis"},"federalState":{"key":"14","name":"Sachsen"}},{"name":"Thälmannstr.","postalCode":"02739","locality":"Kottmar","municipality":{"key":"14626245","name":"Kottmar","type":"Kreisangehörige_Gemeinde"},"district":{"key":"14626","name":"Görlitz","type":"Landkreis"},"federalState":{"key":"14","name":"Sachsen"}},{"name":"Trebeweg","postalCode":"02739","locality":"Kottmar","municipality":{"key":"14626245","name":"Kottmar","type":"Kreisangehörige_Gemeinde"},"district":{"key":"14626","name":"Görlitz","type":"Landkreis"},"federalState":{"key":"14","name":"Sachsen"}},{"name":"Turmweg","postalCode":"02739","locality":"Kottmar","municipality":{"key":"14626245","name":"Kottmar","type":"Kreisangehörige_Gemeinde"},"district":{"key":"14626","name":"Görlitz","type":"Landkreis"},"federalState":{"key":"14","name":"Sachsen"}},{"name":"Turnhallenweg","postalCode":"02708","locality":"Kottmar","municipality":{"key":"14626245","name":"Kottmar","type":"Kreisangehörige_Gemeinde"},"district":{"key":"14626","name":"Görlitz","type":"Landkreis"},"federalState":{"key":"14","name":"Sachsen"}},{"name":"Turnhallenweg","postalCode":"02739","locality":"Kottmar","municipality":{"key":"14626245","name":"Kottmar","type":"Kreisangehörige_Gemeinde"},"district":{"key":"14626","name":"Görlitz","type":"Landkreis"},"federalState":{"key":"14","name":"Sachsen"}},{"name":"Uferweg","postalCode":"02739","locality":"Kottmar","municipality":{"key":"14626245","name":"Kottmar","type":"Kreisangehörige_Gemeinde"},"district":{"key":"14626","name":"Görlitz","type":"Landkreis"},"federalState":{"key":"14","name":"Sachsen"}},{"name":"Verlängerter Grenzweg","postalCode":"02739","locality":"Kottmar","municipality":{"key":"14626245","name":"Kottmar","type":"Kreisangehörige_Gemeinde"},"district":{"key":"14626","name":"Görlitz","type":"Landkreis"},"federalState":{"key":"14","name":"Sachsen"}},{"name":"Viebig","postalCode":"02708","locality":"Kottmar","municipality":{"key":"14626245","name":"Kottmar","type":"Kreisangehörige_Gemeinde"},"district":{"key":"14626","name":"Görlitz","type":"Landkreis"},"federalState":{"key":"14","name":"Sachsen"}},{"name":"Walddorfer Str.","postalCode":"02739","locality":"Kottmar","municipality":{"key":"14626245","name":"Kottmar","type":"Kreisangehörige_Gemeinde"},"district":{"key":"14626","name":"Görlitz","type":"Landkreis"},"federalState":{"key":"14","name":"Sachsen"}},{"name":"Walddorfer Weg","postalCode":"02739","locality":"Kottmar","municipality":{"key":"14626245","name":"Kottmar","type":"Kreisangehörige_Gemeinde"},"district":{"key":"14626","name":"Görlitz","type":"Landkreis"},"federalState":{"key":"14","name":"Sachsen"}},{"name":"Waldsteg","postalCode":"02739","locality":"Kottmar","municipality":{"key":"14626245","name":"Kottmar","type":"Kreisangehörige_Gemeinde"},"district":{"key":"14626","name":"Görlitz","type":"Landkreis"},"federalState":{"key":"14","name":"Sachsen"}},{"name":"Waldstr.","postalCode":"02708","locality":"Kottmar","municipality":{"key":"14626245","name":"Kottmar","type":"Kreisangehörige_Gemeinde"},"district":{"key":"14626","name":"Görlitz","type":"Landkreis"},"federalState":{"key":"14","name":"Sachsen"}},{"name":"Waldstr.","postalCode":"02739","locality":"Kottmar","municipality":{"key":"14626245","name":"Kottmar","type":"Kreisangehörige_Gemeinde"},"district":{"key":"14626","name":"Görlitz","type":"Landkreis"},"federalState":{"key":"14","name":"Sachsen"}},{"name":"Weberstr.","postalCode":"02739","locality":"Kottmar","municipality":{"key":"14626245","name":"Kottmar","type":"Kreisangehörige_Gemeinde"},"district":{"key":"14626","name":"Görlitz","type":"Landkreis"},"federalState":{"key":"14","name":"Sachsen"}},{"name":"Wilhelm-Tempel-Platz","postalCode":"02708","locality":"Kottmar","municipality":{"key":"14626245","name":"Kottmar","type":"Kreisangehörige_Gemeinde"},"district":{"key":"14626","name":"Görlitz","type":"Landkreis"},"federalState":{"key":"14","name":"Sachsen"}},{"name":"Wolfsgrubenweg","postalCode":"02739","locality":"Kottmar","municipality":{"key":"14626245","name":"Kottmar","type":"Kreisangehörige_Gemeinde"},"district":{"key":"14626","name":"Görlitz","type":"Landkreis"},"federalState":{"key":"14","name":"Sachsen"}},{"name":"Wurzelweg","postalCode":"02739","locality":"Kottmar","municipality":{"key":"14626245","name":"Kottmar","type":"Kreisangehörige_Gemeinde"},"district":{"key":"14626","name":"Görlitz","type":"Landkreis"},"federalState":{"key":"14","name":"Sachsen"}},{"name":"Zittauer Str.","postalCode":"02739","locality":"Kottmar","municipality":{"key":"14626245","name":"Kottmar","type":"Kreisangehörige_Gemeinde"},"district":{"key":"14626","name":"Görlitz","type":"Landkreis"},"federalState":{"key":"14","name":"Sachsen"}},{"name":"Zum Sonneberg","postalCode":"02708","locality":"Kottmar","municipality":{"key":"14626245","name":"Kottmar","type":"Kreisangehörige_Gemeinde"},"district":{"key":"14626","name":"Görlitz","type":"Landkreis"},"federalState":{"key":"14","name":"Sachsen"}},]