[{"name":"Allee","postalCode":"96170","locality":"Priesendorf","municipality":{"key":"09471173","name":"Priesendorf","type":"Kreisangehörige_Gemeinde"},"district":{"key":"09471","name":"Bamberg","type":"Landkreis"},"federalState":{"key":"09","name":"Bayern"}},{"name":"Am Ansbach","postalCode":"96170","locality":"Priesendorf","municipality":{"key":"09471173","name":"Priesendorf","type":"Kreisangehörige_Gemeinde"},"district":{"key":"09471","name":"Bamberg","type":"Landkreis"},"federalState":{"key":"09","name":"Bayern"}},{"name":"Am Bodenacker","postalCode":"96170","locality":"Priesendorf","municipality":{"key":"09471173","name":"Priesendorf","type":"Kreisangehörige_Gemeinde"},"district":{"key":"09471","name":"Bamberg","type":"Landkreis"},"federalState":{"key":"09","name":"Bayern"}},{"name":"Am Brunnen","postalCode":"96170","locality":"Priesendorf","municipality":{"key":"09471173","name":"Priesendorf","type":"Kreisangehörige_Gemeinde"},"district":{"key":"09471","name":"Bamberg","type":"Landkreis"},"federalState":{"key":"09","name":"Bayern"}},{"name":"Am Hölzla","postalCode":"96170","locality":"Priesendorf","municipality":{"key":"09471173","name":"Priesendorf","type":"Kreisangehörige_Gemeinde"},"district":{"key":"09471","name":"Bamberg","type":"Landkreis"},"federalState":{"key":"09","name":"Bayern"}},{"name":"Am Kindergarten","postalCode":"96170","locality":"Priesendorf","municipality":{"key":"09471173","name":"Priesendorf","type":"Kreisangehörige_Gemeinde"},"district":{"key":"09471","name":"Bamberg","type":"Landkreis"},"federalState":{"key":"09","name":"Bayern"}},{"name":"Bamberger Weg","postalCode":"96170","locality":"Priesendorf","municipality":{"key":"09471173","name":"Priesendorf","type":"Kreisangehörige_Gemeinde"},"district":{"key":"09471","name":"Bamberg","type":"Landkreis"},"federalState":{"key":"09","name":"Bayern"}},{"name":"Berglein","postalCode":"96170","locality":"Priesendorf","municipality":{"key":"09471173","name":"Priesendorf","type":"Kreisangehörige_Gemeinde"},"district":{"key":"09471","name":"Bamberg","type":"Landkreis"},"federalState":{"key":"09","name":"Bayern"}},{"name":"Bergstr.","postalCode":"96170","locality":"Priesendorf","municipality":{"key":"09471173","name":"Priesendorf","type":"Kreisangehörige_Gemeinde"},"district":{"key":"09471","name":"Bamberg","type":"Landkreis"},"federalState":{"key":"09","name":"Bayern"}},{"name":"Brunnengasse","postalCode":"96170","locality":"Priesendorf","municipality":{"key":"09471173","name":"Priesendorf","type":"Kreisangehörige_Gemeinde"},"district":{"key":"09471","name":"Bamberg","type":"Landkreis"},"federalState":{"key":"09","name":"Bayern"}},{"name":"Carl-Schmolz-Weg","postalCode":"96049","locality":"Bamberg","municipality":{"key":"09461000","name":"Bamberg","type":"Kreisfreie_Stadt"},"district":{"key":"09461","name":"Bamberg","type":"Kreisfreie_Stadt"},"federalState":{"key":"09","name":"Bayern"}},{"name":"Cherbonhofstr.","postalCode":"96049","locality":"Bamberg","municipality":{"key":"09461000","name":"Bamberg","type":"Kreisfreie_Stadt"},"district":{"key":"09461","name":"Bamberg","type":"Kreisfreie_Stadt"},"federalState":{"key":"09","name":"Bayern"}},{"name":"Claviusstr.","postalCode":"96047","locality":"Bamberg","municipality":{"key":"09461000","name":"Bamberg","type":"Kreisfreie_Stadt"},"district":{"key":"09461","name":"Bamberg","type":"Kreisfreie_Stadt"},"federalState":{"key":"09","name":"Bayern"}},{"name":"Coburger Str.","postalCode":"96052","locality":"Bamberg","municipality":{"key":"09461000","name":"Bamberg","type":"Kreisfreie_Stadt"},"district":{"key":"09461","name":"Bamberg","type":"Kreisfreie_Stadt"},"federalState":{"key":"09","name":"Bayern"}},{"name":"Concordiastr.","postalCode":"96049","locality":"Bamberg","municipality":{"key":"09461000","name":"Bamberg","type":"Kreisfreie_Stadt"},"district":{"key":"09461","name":"Bamberg","type":"Kreisfreie_Stadt"},"federalState":{"key":"09","name":"Bayern"}},{"name":"Die Melben","postalCode":"96170","locality":"Priesendorf","municipality":{"key":"09471173","name":"Priesendorf","type":"Kreisangehörige_Gemeinde"},"district":{"key":"09471","name":"Bamberg","type":"Landkreis"},"federalState":{"key":"09","name":"Bayern"}},{"name":"Doktor-Raupach-Str.","postalCode":"96170","locality":"Priesendorf","municipality":{"key":"09471173","name":"Priesendorf","type":"Kreisangehörige_Gemeinde"},"district":{"key":"09471","name":"Bamberg","type":"Landkreis"},"federalState":{"key":"09","name":"Bayern"}},{"name":"Ellernweg","postalCode":"96170","locality":"Priesendorf","municipality":{"key":"09471173","name":"Priesendorf","type":"Kreisangehörige_Gemeinde"},"district":{"key":"09471","name":"Bamberg","type":"Landkreis"},"federalState":{"key":"09","name":"Bayern"}},{"name":"Felsenkeller","postalCode":"96170","locality":"Priesendorf","municipality":{"key":"09471173","name":"Priesendorf","type":"Kreisangehörige_Gemeinde"},"district":{"key":"09471","name":"Bamberg","type":"Landkreis"},"federalState":{"key":"09","name":"Bayern"}},{"name":"Gregelstr.","postalCode":"96170","locality":"Priesendorf","municipality":{"key":"09471173","name":"Priesendorf","type":"Kreisangehörige_Gemeinde"},"district":{"key":"09471","name":"Bamberg","type":"Landkreis"},"federalState":{"key":"09","name":"Bayern"}},{"name":"Hans-Rust-Str.","postalCode":"96170","locality":"Priesendorf","municipality":{"key":"09471173","name":"Priesendorf","type":"Kreisangehörige_Gemeinde"},"district":{"key":"09471","name":"Bamberg","type":"Landkreis"},"federalState":{"key":"09","name":"Bayern"}},{"name":"Hauptstr.","postalCode":"96170","locality":"Priesendorf","municipality":{"key":"09471173","name":"Priesendorf","type":"Kreisangehörige_Gemeinde"},"district":{"key":"09471","name":"Bamberg","type":"Landkreis"},"federalState":{"key":"09","name":"Bayern"}},{"name":"Hohe Warte","postalCode":"96170","locality":"Priesendorf","municipality":{"key":"09471173","name":"Priesendorf","type":"Kreisangehörige_Gemeinde"},"district":{"key":"09471","name":"Bamberg","type":"Landkreis"},"federalState":{"key":"09","name":"Bayern"}},{"name":"Hopfengarten","postalCode":"96170","locality":"Priesendorf","municipality":{"key":"09471173","name":"Priesendorf","type":"Kreisangehörige_Gemeinde"},"district":{"key":"09471","name":"Bamberg","type":"Landkreis"},"federalState":{"key":"09","name":"Bayern"}},{"name":"Im Kulm","postalCode":"96170","locality":"Priesendorf","municipality":{"key":"09471173","name":"Priesendorf","type":"Kreisangehörige_Gemeinde"},"district":{"key":"09471","name":"Bamberg","type":"Landkreis"},"federalState":{"key":"09","name":"Bayern"}},{"name":"In der Ebene","postalCode":"96170","locality":"Priesendorf","municipality":{"key":"09471173","name":"Priesendorf","type":"Kreisangehörige_Gemeinde"},"district":{"key":"09471","name":"Bamberg","type":"Landkreis"},"federalState":{"key":"09","name":"Bayern"}},{"name":"Industriestr.","postalCode":"96170","locality":"Priesendorf","municipality":{"key":"09471173","name":"Priesendorf","type":"Kreisangehörige_Gemeinde"},"district":{"key":"09471","name":"Bamberg","type":"Landkreis"},"federalState":{"key":"09","name":"Bayern"}},{"name":"Jäckstr.","postalCode":"96052","locality":"Bamberg","municipality":{"key":"09461000","name":"Bamberg","type":"Kreisfreie_Stadt"},"district":{"key":"09461","name":"Bamberg","type":"Kreisfreie_Stadt"},"federalState":{"key":"09","name":"Bayern"}},{"name":"Jacobus-von-Hauck-Platz","postalCode":"96047","locality":"Bamberg","municipality":{"key":"09461000","name":"Bamberg","type":"Kreisfreie_Stadt"},"district":{"key":"09461","name":"Bamberg","type":"Kreisfreie_Stadt"},"federalState":{"key":"09","name":"Bayern"}},{"name":"Jägerstr.","postalCode":"96050","locality":"Bamberg","municipality":{"key":"09461000","name":"Bamberg","type":"Kreisfreie_Stadt"},"district":{"key":"09461","name":"Bamberg","type":"Kreisfreie_Stadt"},"federalState":{"key":"09","name":"Bayern"}},{"name":"Jahnstr.","postalCode":"96050","locality":"Bamberg","municipality":{"key":"09461000","name":"Bamberg","type":"Kreisfreie_Stadt"},"district":{"key":"09461","name":"Bamberg","type":"Kreisfreie_Stadt"},"federalState":{"key":"09","name":"Bayern"}},{"name":"Johannes-Hoffmann-Str.","postalCode":"96052","locality":"Bamberg","municipality":{"key":"09461000","name":"Bamberg","type":"Kreisfreie_Stadt"},"district":{"key":"09461","name":"Bamberg","type":"Kreisfreie_Stadt"},"federalState":{"key":"09","name":"Bayern"}},{"name":"John-F.-Kennedy-Boulevard","postalCode":"96052","locality":"Bamberg","municipality":{"key":"09461000","name":"Bamberg","type":"Kreisfreie_Stadt"},"district":{"key":"09461","name":"Bamberg","type":"Kreisfreie_Stadt"},"federalState":{"key":"09","name":"Bayern"}},{"name":"Josef-Kindshoven-Str.","postalCode":"96052","locality":"Bamberg","municipality":{"key":"09461000","name":"Bamberg","type":"Kreisfreie_Stadt"},"district":{"key":"09461","name":"Bamberg","type":"Kreisfreie_Stadt"},"federalState":{"key":"09","name":"Bayern"}},{"name":"Josef-Manger-Str.","postalCode":"96050","locality":"Bamberg","municipality":{"key":"09461000","name":"Bamberg","type":"Kreisfreie_Stadt"},"district":{"key":"09461","name":"Bamberg","type":"Kreisfreie_Stadt"},"federalState":{"key":"09","name":"Bayern"}},{"name":"Joseph-Otto-Kolb-Str.","postalCode":"96052","locality":"Bamberg","municipality":{"key":"09461000","name":"Bamberg","type":"Kreisfreie_Stadt"},"district":{"key":"09461","name":"Bamberg","type":"Kreisfreie_Stadt"},"federalState":{"key":"09","name":"Bayern"}},{"name":"Josephstr.","postalCode":"96052","locality":"Bamberg","municipality":{"key":"09461000","name":"Bamberg","type":"Kreisfreie_Stadt"},"district":{"key":"09461","name":"Bamberg","type":"Kreisfreie_Stadt"},"federalState":{"key":"09","name":"Bayern"}},{"name":"Judenstr.","postalCode":"96049","locality":"Bamberg","municipality":{"key":"09461000","name":"Bamberg","type":"Kreisfreie_Stadt"},"district":{"key":"09461","name":"Bamberg","type":"Kreisfreie_Stadt"},"federalState":{"key":"09","name":"Bayern"}},{"name":"Jungfernleite","postalCode":"96049","locality":"Bamberg","municipality":{"key":"09461000","name":"Bamberg","type":"Kreisfreie_Stadt"},"district":{"key":"09461","name":"Bamberg","type":"Kreisfreie_Stadt"},"federalState":{"key":"09","name":"Bayern"}},{"name":"Jungkreutstr.","postalCode":"96049","locality":"Bamberg","municipality":{"key":"09461000","name":"Bamberg","type":"Kreisfreie_Stadt"},"district":{"key":"09461","name":"Bamberg","type":"Kreisfreie_Stadt"},"federalState":{"key":"09","name":"Bayern"}},{"name":"Junkerweg","postalCode":"55546","locality":"Neu-Bamberg","municipality":{"key":"07133069","name":"Neu-Bamberg","type":"Kreisangehörige_Gemeinde"},"district":{"key":"07133","name":"Bad Kreuznach","type":"Landkreis"},"federalState":{"key":"07","name":"Rheinland-Pfalz"}},{"name":"Jurastr.","postalCode":"96049","locality":"Bamberg","municipality":{"key":"09461000","name":"Bamberg","type":"Kreisfreie_Stadt"},"district":{"key":"09461","name":"Bamberg","type":"Kreisfreie_Stadt"},"federalState":{"key":"09","name":"Bayern"}},{"name":"Krengarten","postalCode":"96170","locality":"Priesendorf","municipality":{"key":"09471173","name":"Priesendorf","type":"Kreisangehörige_Gemeinde"},"district":{"key":"09471","name":"Bamberg","type":"Landkreis"},"federalState":{"key":"09","name":"Bayern"}},{"name":"Kühtrieb","postalCode":"96170","locality":"Priesendorf","municipality":{"key":"09471173","name":"Priesendorf","type":"Kreisangehörige_Gemeinde"},"district":{"key":"09471","name":"Bamberg","type":"Landkreis"},"federalState":{"key":"09","name":"Bayern"}},{"name":"Leite","postalCode":"96170","locality":"Priesendorf","municipality":{"key":"09471173","name":"Priesendorf","type":"Kreisangehörige_Gemeinde"},"district":{"key":"09471","name":"Bamberg","type":"Landkreis"},"federalState":{"key":"09","name":"Bayern"}},{"name":"Melbenring","postalCode":"96170","locality":"Priesendorf","municipality":{"key":"09471173","name":"Priesendorf","type":"Kreisangehörige_Gemeinde"},"district":{"key":"09471","name":"Bamberg","type":"Landkreis"},"federalState":{"key":"09","name":"Bayern"}},{"name":"Mittelleite","postalCode":"96170","locality":"Priesendorf","municipality":{"key":"09471173","name":"Priesendorf","type":"Kreisangehörige_Gemeinde"},"district":{"key":"09471","name":"Bamberg","type":"Landkreis"},"federalState":{"key":"09","name":"Bayern"}},{"name":"Nathan-R.-Preston-Str.","postalCode":"96052","locality":"Bamberg","municipality":{"key":"09461000","name":"Bamberg","type":"Kreisfreie_Stadt"},"district":{"key":"09461","name":"Bamberg","type":"Kreisfreie_Stadt"},"federalState":{"key":"09","name":"Bayern"}},{"name":"Nebingerhof","postalCode":"96047","locality":"Bamberg","municipality":{"key":"09461000","name":"Bamberg","type":"Kreisfreie_Stadt"},"district":{"key":"09461","name":"Bamberg","type":"Kreisfreie_Stadt"},"federalState":{"key":"09","name":"Bayern"}},{"name":"Neue Bughofer Str.","postalCode":"96050","locality":"Bamberg","municipality":{"key":"09461000","name":"Bamberg","type":"Kreisfreie_Stadt"},"district":{"key":"09461","name":"Bamberg","type":"Kreisfreie_Stadt"},"federalState":{"key":"09","name":"Bayern"}},{"name":"Nikolaus-Lenau-Ring","postalCode":"96050","locality":"Bamberg","municipality":{"key":"09461000","name":"Bamberg","type":"Kreisfreie_Stadt"},"district":{"key":"09461","name":"Bamberg","type":"Kreisfreie_Stadt"},"federalState":{"key":"09","name":"Bayern"}},{"name":"Nonnenbrücke","postalCode":"96047","locality":"Bamberg","municipality":{"key":"09461000","name":"Bamberg","type":"Kreisfreie_Stadt"},"district":{"key":"09461","name":"Bamberg","type":"Kreisfreie_Stadt"},"federalState":{"key":"09","name":"Bayern"}},{"name":"Nonnenbrücke","postalCode":"96049","locality":"Bamberg","municipality":{"key":"09461000","name":"Bamberg","type":"Kreisfreie_Stadt"},"district":{"key":"09461","name":"Bamberg","type":"Kreisfreie_Stadt"},"federalState":{"key":"09","name":"Bayern"}},{"name":"Nürnberger Str.","postalCode":"96050","locality":"Bamberg","municipality":{"key":"09461000","name":"Bamberg","type":"Kreisfreie_Stadt"},"district":{"key":"09461","name":"Bamberg","type":"Kreisfreie_Stadt"},"federalState":{"key":"09","name":"Bayern"}},{"name":"Oberer Kulm","postalCode":"96170","locality":"Priesendorf","municipality":{"key":"09471173","name":"Priesendorf","type":"Kreisangehörige_Gemeinde"},"district":{"key":"09471","name":"Bamberg","type":"Landkreis"},"federalState":{"key":"09","name":"Bayern"}},{"name":"Pfarrer-Maas-Weg","postalCode":"96170","locality":"Priesendorf","municipality":{"key":"09471173","name":"Priesendorf","type":"Kreisangehörige_Gemeinde"},"district":{"key":"09471","name":"Bamberg","type":"Landkreis"},"federalState":{"key":"09","name":"Bayern"}},{"name":"Rödernstr.","postalCode":"96170","locality":"Priesendorf","municipality":{"key":"09471173","name":"Priesendorf","type":"Kreisangehörige_Gemeinde"},"district":{"key":"09471","name":"Bamberg","type":"Landkreis"},"federalState":{"key":"09","name":"Bayern"}},{"name":"Rote Marter","postalCode":"96170","locality":"Priesendorf","municipality":{"key":"09471173","name":"Priesendorf","type":"Kreisangehörige_Gemeinde"},"district":{"key":"09471","name":"Bamberg","type":"Landkreis"},"federalState":{"key":"09","name":"Bayern"}},{"name":"Schindsgasse","postalCode":"96170","locality":"Priesendorf","municipality":{"key":"09471173","name":"Priesendorf","type":"Kreisangehörige_Gemeinde"},"district":{"key":"09471","name":"Bamberg","type":"Landkreis"},"federalState":{"key":"09","name":"Bayern"}},{"name":"Seeweg","postalCode":"96170","locality":"Priesendorf","municipality":{"key":"09471173","name":"Priesendorf","type":"Kreisangehörige_Gemeinde"},"district":{"key":"09471","name":"Bamberg","type":"Landkreis"},"federalState":{"key":"09","name":"Bayern"}},{"name":"Spielleite","postalCode":"96170","locality":"Priesendorf","municipality":{"key":"09471173","name":"Priesendorf","type":"Kreisangehörige_Gemeinde"},"district":{"key":"09471","name":"Bamberg","type":"Landkreis"},"federalState":{"key":"09","name":"Bayern"}},{"name":"Steinbruchweg","postalCode":"96170","locality":"Priesendorf","municipality":{"key":"09471173","name":"Priesendorf","type":"Kreisangehörige_Gemeinde"},"district":{"key":"09471","name":"Bamberg","type":"Landkreis"},"federalState":{"key":"09","name":"Bayern"}},{"name":"Teufelsgraben","postalCode":"96049","locality":"Bamberg","municipality":{"key":"09461000","name":"Bamberg","type":"Kreisfreie_Stadt"},"district":{"key":"09461","name":"Bamberg","type":"Kreisfreie_Stadt"},"federalState":{"key":"09","name":"Bayern"}},{"name":"Theilerstr.","postalCode":"96052","locality":"Bamberg","municipality":{"key":"09461000","name":"Bamberg","type":"Kreisfreie_Stadt"},"district":{"key":"09461","name":"Bamberg","type":"Kreisfreie_Stadt"},"federalState":{"key":"09","name":"Bayern"}},{"name":"Theodor-Heuss-Ring","postalCode":"96050","locality":"Bamberg","municipality":{"key":"09461000","name":"Bamberg","type":"Kreisfreie_Stadt"},"district":{"key":"09461","name":"Bamberg","type":"Kreisfreie_Stadt"},"federalState":{"key":"09","name":"Bayern"}},{"name":"Theodor-Mathieu-Str.","postalCode":"96052","locality":"Bamberg","municipality":{"key":"09461000","name":"Bamberg","type":"Kreisfreie_Stadt"},"district":{"key":"09461","name":"Bamberg","type":"Kreisfreie_Stadt"},"federalState":{"key":"09","name":"Bayern"}},{"name":"Theresienhain","postalCode":"96047","locality":"Bamberg","municipality":{"key":"09461000","name":"Bamberg","type":"Kreisfreie_Stadt"},"district":{"key":"09461","name":"Bamberg","type":"Kreisfreie_Stadt"},"federalState":{"key":"09","name":"Bayern"}},{"name":"Theresienstr.","postalCode":"96050","locality":"Bamberg","municipality":{"key":"09461000","name":"Bamberg","type":"Kreisfreie_Stadt"},"district":{"key":"09461","name":"Bamberg","type":"Kreisfreie_Stadt"},"federalState":{"key":"09","name":"Bayern"}},{"name":"Theuerstadt","postalCode":"96050","locality":"Bamberg","municipality":{"key":"09461000","name":"Bamberg","type":"Kreisfreie_Stadt"},"district":{"key":"09461","name":"Bamberg","type":"Kreisfreie_Stadt"},"federalState":{"key":"09","name":"Bayern"}},{"name":"Theuerstadt","postalCode":"96052","locality":"Bamberg","municipality":{"key":"09461000","name":"Bamberg","type":"Kreisfreie_Stadt"},"district":{"key":"09461","name":"Bamberg","type":"Kreisfreie_Stadt"},"federalState":{"key":"09","name":"Bayern"}},{"name":"Thorackerstr.","postalCode":"96052","locality":"Bamberg","municipality":{"key":"09461000","name":"Bamberg","type":"Kreisfreie_Stadt"},"district":{"key":"09461","name":"Bamberg","type":"Kreisfreie_Stadt"},"federalState":{"key":"09","name":"Bayern"}},{"name":"Titusstr.","postalCode":"96049","locality":"Bamberg","municipality":{"key":"09461000","name":"Bamberg","type":"Kreisfreie_Stadt"},"district":{"key":"09461","name":"Bamberg","type":"Kreisfreie_Stadt"},"federalState":{"key":"09","name":"Bayern"}},{"name":"Tocklergasse","postalCode":"96052","locality":"Bamberg","municipality":{"key":"09461000","name":"Bamberg","type":"Kreisfreie_Stadt"},"district":{"key":"09461","name":"Bamberg","type":"Kreisfreie_Stadt"},"federalState":{"key":"09","name":"Bayern"}},{"name":"Trautmannstr.","postalCode":"96052","locality":"Bamberg","municipality":{"key":"09461000","name":"Bamberg","type":"Kreisfreie_Stadt"},"district":{"key":"09461","name":"Bamberg","type":"Kreisfreie_Stadt"},"federalState":{"key":"09","name":"Bayern"}},{"name":"Treustr.","postalCode":"96050","locality":"Bamberg","municipality":{"key":"09461000","name":"Bamberg","type":"Kreisfreie_Stadt"},"district":{"key":"09461","name":"Bamberg","type":"Kreisfreie_Stadt"},"federalState":{"key":"09","name":"Bayern"}},{"name":"Trimbergstr.","postalCode":"96050","locality":"Bamberg","municipality":{"key":"09461000","name":"Bamberg","type":"Kreisfreie_Stadt"},"district":{"key":"09461","name":"Bamberg","type":"Kreisfreie_Stadt"},"federalState":{"key":"09","name":"Bayern"}},{"name":"Ulanenplatz","postalCode":"96050","locality":"Bamberg","municipality":{"key":"09461000","name":"Bamberg","type":"Kreisfreie_Stadt"},"district":{"key":"09461","name":"Bamberg","type":"Kreisfreie_Stadt"},"federalState":{"key":"09","name":"Bayern"}},{"name":"Unterauracher Weg","postalCode":"96049","locality":"Bamberg","municipality":{"key":"09461000","name":"Bamberg","type":"Kreisfreie_Stadt"},"district":{"key":"09461","name":"Bamberg","type":"Kreisfreie_Stadt"},"federalState":{"key":"09","name":"Bayern"}},{"name":"Untere Brücke","postalCode":"96047","locality":"Bamberg","municipality":{"key":"09461000","name":"Bamberg","type":"Kreisfreie_Stadt"},"district":{"key":"09461","name":"Bamberg","type":"Kreisfreie_Stadt"},"federalState":{"key":"09","name":"Bayern"}},{"name":"Untere Brücke","postalCode":"96049","locality":"Bamberg","municipality":{"key":"09461000","name":"Bamberg","type":"Kreisfreie_Stadt"},"district":{"key":"09461","name":"Bamberg","type":"Kreisfreie_Stadt"},"federalState":{"key":"09","name":"Bayern"}},{"name":"Untere Königstr.","postalCode":"96052","locality":"Bamberg","municipality":{"key":"09461000","name":"Bamberg","type":"Kreisfreie_Stadt"},"district":{"key":"09461","name":"Bamberg","type":"Kreisfreie_Stadt"},"federalState":{"key":"09","name":"Bayern"}},{"name":"Unterer Kaulberg","postalCode":"96049","locality":"Bamberg","municipality":{"key":"09461000","name":"Bamberg","type":"Kreisfreie_Stadt"},"district":{"key":"09461","name":"Bamberg","type":"Kreisfreie_Stadt"},"federalState":{"key":"09","name":"Bayern"}},{"name":"Unterer Stephansberg","postalCode":"96049","locality":"Bamberg","municipality":{"key":"09461000","name":"Bamberg","type":"Kreisfreie_Stadt"},"district":{"key":"09461","name":"Bamberg","type":"Kreisfreie_Stadt"},"federalState":{"key":"09","name":"Bayern"}},{"name":"Untere Sandstr.","postalCode":"96049","locality":"Bamberg","municipality":{"key":"09461000","name":"Bamberg","type":"Kreisfreie_Stadt"},"district":{"key":"09461","name":"Bamberg","type":"Kreisfreie_Stadt"},"federalState":{"key":"09","name":"Bayern"}},{"name":"Untere Seelgasse","postalCode":"96049","locality":"Bamberg","municipality":{"key":"09461000","name":"Bamberg","type":"Kreisfreie_Stadt"},"district":{"key":"09461","name":"Bamberg","type":"Kreisfreie_Stadt"},"federalState":{"key":"09","name":"Bayern"}},{"name":"Urbanstr.","postalCode":"96047","locality":"Bamberg","municipality":{"key":"09461000","name":"Bamberg","type":"Kreisfreie_Stadt"},"district":{"key":"09461","name":"Bamberg","type":"Kreisfreie_Stadt"},"federalState":{"key":"09","name":"Bayern"}},{"name":"Valentin-Becker-Str.","postalCode":"96049","locality":"Bamberg","municipality":{"key":"09461000","name":"Bamberg","type":"Kreisfreie_Stadt"},"district":{"key":"09461","name":"Bamberg","type":"Kreisfreie_Stadt"},"federalState":{"key":"09","name":"Bayern"}},{"name":"Valentin-Rathgeber-Str.","postalCode":"96049","locality":"Bamberg","municipality":{"key":"09461000","name":"Bamberg","type":"Kreisfreie_Stadt"},"district":{"key":"09461","name":"Bamberg","type":"Kreisfreie_Stadt"},"federalState":{"key":"09","name":"Bayern"}},{"name":"Veit-Stoß-Str.","postalCode":"96052","locality":"Bamberg","municipality":{"key":"09461000","name":"Bamberg","type":"Kreisfreie_Stadt"},"district":{"key":"09461","name":"Bamberg","type":"Kreisfreie_Stadt"},"federalState":{"key":"09","name":"Bayern"}},{"name":"Viktor-von-Scheffel-Str.","postalCode":"96049","locality":"Bamberg","municipality":{"key":"09461000","name":"Bamberg","type":"Kreisfreie_Stadt"},"district":{"key":"09461","name":"Bamberg","type":"Kreisfreie_Stadt"},"federalState":{"key":"09","name":"Bayern"}},{"name":"Villachstr.","postalCode":"96052","locality":"Bamberg","municipality":{"key":"09461000","name":"Bamberg","type":"Kreisfreie_Stadt"},"district":{"key":"09461","name":"Bamberg","type":"Kreisfreie_Stadt"},"federalState":{"key":"09","name":"Bayern"}},{"name":"Vögleinsleite","postalCode":"96049","locality":"Bamberg","municipality":{"key":"09461000","name":"Bamberg","type":"Kreisfreie_Stadt"},"district":{"key":"09461","name":"Bamberg","type":"Kreisfreie_Stadt"},"federalState":{"key":"09","name":"Bayern"}},{"name":"Vogtstr.","postalCode":"96049","locality":"Bamberg","municipality":{"key":"09461000","name":"Bamberg","type":"Kreisfreie_Stadt"},"district":{"key":"09461","name":"Bamberg","type":"Kreisfreie_Stadt"},"federalState":{"key":"09","name":"Bayern"}},{"name":"Volkfeldstr.","postalCode":"96049","locality":"Bamberg","municipality":{"key":"09461000","name":"Bamberg","type":"Kreisfreie_Stadt"},"district":{"key":"09461","name":"Bamberg","type":"Kreisfreie_Stadt"},"federalState":{"key":"09","name":"Bayern"}},{"name":"von-Helmholtz-Str.","postalCode":"96049","locality":"Bamberg","municipality":{"key":"09461000","name":"Bamberg","type":"Kreisfreie_Stadt"},"district":{"key":"09461","name":"Bamberg","type":"Kreisfreie_Stadt"},"federalState":{"key":"09","name":"Bayern"}},{"name":"Von-Ketteler-Str.","postalCode":"96050","locality":"Bamberg","municipality":{"key":"09461000","name":"Bamberg","type":"Kreisfreie_Stadt"},"district":{"key":"09461","name":"Bamberg","type":"Kreisfreie_Stadt"},"federalState":{"key":"09","name":"Bayern"}},{"name":"Von-Reider-Str.","postalCode":"96049","locality":"Bamberg","municipality":{"key":"09461000","name":"Bamberg","type":"Kreisfreie_Stadt"},"district":{"key":"09461","name":"Bamberg","type":"Kreisfreie_Stadt"},"federalState":{"key":"09","name":"Bayern"}},{"name":"Von-Rotenhan-Str.","postalCode":"96049","locality":"Bamberg","municipality":{"key":"09461000","name":"Bamberg","type":"Kreisfreie_Stadt"},"district":{"key":"09461","name":"Bamberg","type":"Kreisfreie_Stadt"},"federalState":{"key":"09","name":"Bayern"}},{"name":"Vorderer Bach","postalCode":"96049","locality":"Bamberg","municipality":{"key":"09461000","name":"Bamberg","type":"Kreisfreie_Stadt"},"district":{"key":"09461","name":"Bamberg","type":"Kreisfreie_Stadt"},"federalState":{"key":"09","name":"Bayern"}},{"name":"Vorderer Graben","postalCode":"96047","locality":"Bamberg","municipality":{"key":"09461000","name":"Bamberg","type":"Kreisfreie_Stadt"},"district":{"key":"09461","name":"Bamberg","type":"Kreisfreie_Stadt"},"federalState":{"key":"09","name":"Bayern"}},{"name":"Weinberge","postalCode":"96170","locality":"Priesendorf","municipality":{"key":"09471173","name":"Priesendorf","type":"Kreisangehörige_Gemeinde"},"district":{"key":"09471","name":"Bamberg","type":"Landkreis"},"federalState":{"key":"09","name":"Bayern"}},{"name":"Weißbergstr.","postalCode":"96170","locality":"Priesendorf","municipality":{"key":"09471173","name":"Priesendorf","type":"Kreisangehörige_Gemeinde"},"district":{"key":"09471","name":"Bamberg","type":"Landkreis"},"federalState":{"key":"09","name":"Bayern"}},{"name":"Weißmühle","postalCode":"96170","locality":"Priesendorf","municipality":{"key":"09471173","name":"Priesendorf","type":"Kreisangehörige_Gemeinde"},"district":{"key":"09471","name":"Bamberg","type":"Landkreis"},"federalState":{"key":"09","name":"Bayern"}},{"name":"Zum Hunsrück","postalCode":"96170","locality":"Priesendorf","municipality":{"key":"09471173","name":"Priesendorf","type":"Kreisangehörige_Gemeinde"},"district":{"key":"09471","name":"Bamberg","type":"Landkreis"},"federalState":{"key":"09","name":"Bayern"}},{"name":"Äußere Löwenstr.","postalCode":"96052","locality":"Bamberg","municipality":{"key":"09461000","name":"Bamberg","type":"Kreisfreie_Stadt"},"district":{"key":"09461","name":"Bamberg","type":"Kreisfreie_Stadt"},"federalState":{"key":"09","name":"Bayern"}},]