[{"name":"Abt-Windolf-Str.","postalCode":"04523","locality":"Pegau","municipality":{"key":"14729350","name":"Pegau, Stadt","type":"Stadt"},"district":{"key":"14729","name":"Leipzig","type":"Landkreis"},"federalState":{"key":"14","name":"Sachsen"}},{"name":"Alte Handelsstr.","postalCode":"04523","locality":"Pegau","municipality":{"key":"14729350","name":"Pegau, Stadt","type":"Stadt"},"district":{"key":"14729","name":"Leipzig","type":"Landkreis"},"federalState":{"key":"14","name":"Sachsen"}},{"name":"Alte Ziegelei","postalCode":"04523","locality":"Pegau","municipality":{"key":"14729350","name":"Pegau, Stadt","type":"Stadt"},"district":{"key":"14729","name":"Leipzig","type":"Landkreis"},"federalState":{"key":"14","name":"Sachsen"}},{"name":"Altsiedlung","postalCode":"04523","locality":"Pegau","municipality":{"key":"14729350","name":"Pegau, Stadt","type":"Stadt"},"district":{"key":"14729","name":"Leipzig","type":"Landkreis"},"federalState":{"key":"14","name":"Sachsen"}},{"name":"Am Angelteich","postalCode":"04523","locality":"Pegau","municipality":{"key":"14729350","name":"Pegau, Stadt","type":"Stadt"},"district":{"key":"14729","name":"Leipzig","type":"Landkreis"},"federalState":{"key":"14","name":"Sachsen"}},{"name":"Am Berg","postalCode":"04523","locality":"Pegau","municipality":{"key":"14729350","name":"Pegau, Stadt","type":"Stadt"},"district":{"key":"14729","name":"Leipzig","type":"Landkreis"},"federalState":{"key":"14","name":"Sachsen"}},{"name":"Am Elsterdamm","postalCode":"04523","locality":"Pegau","municipality":{"key":"14729350","name":"Pegau, Stadt","type":"Stadt"},"district":{"key":"14729","name":"Leipzig","type":"Landkreis"},"federalState":{"key":"14","name":"Sachsen"}},{"name":"Am Fasanenwinkel","postalCode":"04523","locality":"Pegau","municipality":{"key":"14729350","name":"Pegau, Stadt","type":"Stadt"},"district":{"key":"14729","name":"Leipzig","type":"Landkreis"},"federalState":{"key":"14","name":"Sachsen"}},{"name":"Am Feldrain","postalCode":"04523","locality":"Pegau","municipality":{"key":"14729350","name":"Pegau, Stadt","type":"Stadt"},"district":{"key":"14729","name":"Leipzig","type":"Landkreis"},"federalState":{"key":"14","name":"Sachsen"}},{"name":"Am Fließgraben","postalCode":"04523","locality":"Pegau","municipality":{"key":"14729350","name":"Pegau, Stadt","type":"Stadt"},"district":{"key":"14729","name":"Leipzig","type":"Landkreis"},"federalState":{"key":"14","name":"Sachsen"}},{"name":"Am Floßgraben","postalCode":"04523","locality":"Pegau","municipality":{"key":"14729350","name":"Pegau, Stadt","type":"Stadt"},"district":{"key":"14729","name":"Leipzig","type":"Landkreis"},"federalState":{"key":"14","name":"Sachsen"}},{"name":"Am Gasthof","postalCode":"04523","locality":"Pegau","municipality":{"key":"14729350","name":"Pegau, Stadt","type":"Stadt"},"district":{"key":"14729","name":"Leipzig","type":"Landkreis"},"federalState":{"key":"14","name":"Sachsen"}},{"name":"Am Kuckuck","postalCode":"04523","locality":"Pegau","municipality":{"key":"14729350","name":"Pegau, Stadt","type":"Stadt"},"district":{"key":"14729","name":"Leipzig","type":"Landkreis"},"federalState":{"key":"14","name":"Sachsen"}},{"name":"Am Kulturhaus","postalCode":"04523","locality":"Pegau","municipality":{"key":"14729350","name":"Pegau, Stadt","type":"Stadt"},"district":{"key":"14729","name":"Leipzig","type":"Landkreis"},"federalState":{"key":"14","name":"Sachsen"}},{"name":"Am Ring","postalCode":"04523","locality":"Pegau","municipality":{"key":"14729350","name":"Pegau, Stadt","type":"Stadt"},"district":{"key":"14729","name":"Leipzig","type":"Landkreis"},"federalState":{"key":"14","name":"Sachsen"}},{"name":"Am Schloß","postalCode":"04523","locality":"Pegau","municipality":{"key":"14729350","name":"Pegau, Stadt","type":"Stadt"},"district":{"key":"14729","name":"Leipzig","type":"Landkreis"},"federalState":{"key":"14","name":"Sachsen"}},{"name":"Amselweg","postalCode":"04523","locality":"Pegau","municipality":{"key":"14729350","name":"Pegau, Stadt","type":"Stadt"},"district":{"key":"14729","name":"Leipzig","type":"Landkreis"},"federalState":{"key":"14","name":"Sachsen"}},{"name":"Am Sportplatz","postalCode":"04523","locality":"Pegau","municipality":{"key":"14729350","name":"Pegau, Stadt","type":"Stadt"},"district":{"key":"14729","name":"Leipzig","type":"Landkreis"},"federalState":{"key":"14","name":"Sachsen"}},{"name":"Am Steinberg","postalCode":"04523","locality":"Pegau","municipality":{"key":"14729350","name":"Pegau, Stadt","type":"Stadt"},"district":{"key":"14729","name":"Leipzig","type":"Landkreis"},"federalState":{"key":"14","name":"Sachsen"}},{"name":"Am Teich","postalCode":"04523","locality":"Pegau","municipality":{"key":"14729350","name":"Pegau, Stadt","type":"Stadt"},"district":{"key":"14729","name":"Leipzig","type":"Landkreis"},"federalState":{"key":"14","name":"Sachsen"}},{"name":"Am Wasserturm","postalCode":"04523","locality":"Pegau","municipality":{"key":"14729350","name":"Pegau, Stadt","type":"Stadt"},"district":{"key":"14729","name":"Leipzig","type":"Landkreis"},"federalState":{"key":"14","name":"Sachsen"}},{"name":"Am Wasserwerk","postalCode":"04523","locality":"Pegau","municipality":{"key":"14729350","name":"Pegau, Stadt","type":"Stadt"},"district":{"key":"14729","name":"Leipzig","type":"Landkreis"},"federalState":{"key":"14","name":"Sachsen"}},{"name":"Am Weiher","postalCode":"04523","locality":"Pegau","municipality":{"key":"14729350","name":"Pegau, Stadt","type":"Stadt"},"district":{"key":"14729","name":"Leipzig","type":"Landkreis"},"federalState":{"key":"14","name":"Sachsen"}},{"name":"Am Wunderbrunnen","postalCode":"04523","locality":"Pegau","municipality":{"key":"14729350","name":"Pegau, Stadt","type":"Stadt"},"district":{"key":"14729","name":"Leipzig","type":"Landkreis"},"federalState":{"key":"14","name":"Sachsen"}},{"name":"An der Ratsziegelei","postalCode":"04523","locality":"Pegau","municipality":{"key":"14729350","name":"Pegau, Stadt","type":"Stadt"},"district":{"key":"14729","name":"Leipzig","type":"Landkreis"},"federalState":{"key":"14","name":"Sachsen"}},{"name":"An der Schmiede","postalCode":"04523","locality":"Pegau","municipality":{"key":"14729350","name":"Pegau, Stadt","type":"Stadt"},"district":{"key":"14729","name":"Leipzig","type":"Landkreis"},"federalState":{"key":"14","name":"Sachsen"}},{"name":"An der Schule","postalCode":"04523","locality":"Pegau","municipality":{"key":"14729350","name":"Pegau, Stadt","type":"Stadt"},"district":{"key":"14729","name":"Leipzig","type":"Landkreis"},"federalState":{"key":"14","name":"Sachsen"}},{"name":"An der Untermühle","postalCode":"04523","locality":"Pegau","municipality":{"key":"14729350","name":"Pegau, Stadt","type":"Stadt"},"district":{"key":"14729","name":"Leipzig","type":"Landkreis"},"federalState":{"key":"14","name":"Sachsen"}},{"name":"An der Waage","postalCode":"04523","locality":"Pegau","municipality":{"key":"14729350","name":"Pegau, Stadt","type":"Stadt"},"district":{"key":"14729","name":"Leipzig","type":"Landkreis"},"federalState":{"key":"14","name":"Sachsen"}},{"name":"Angerstr.","postalCode":"04523","locality":"Pegau","municipality":{"key":"14729350","name":"Pegau, Stadt","type":"Stadt"},"district":{"key":"14729","name":"Leipzig","type":"Landkreis"},"federalState":{"key":"14","name":"Sachsen"}},{"name":"Anlage Pegau","postalCode":"04523","locality":"Pegau","municipality":{"key":"14729350","name":"Pegau, Stadt","type":"Stadt"},"district":{"key":"14729","name":"Leipzig","type":"Landkreis"},"federalState":{"key":"14","name":"Sachsen"}},{"name":"Asternweg","postalCode":"04523","locality":"Pegau","municipality":{"key":"14729350","name":"Pegau, Stadt","type":"Stadt"},"district":{"key":"14729","name":"Leipzig","type":"Landkreis"},"federalState":{"key":"14","name":"Sachsen"}},{"name":"Audigaster Str.","postalCode":"04523","locality":"Pegau","municipality":{"key":"14729350","name":"Pegau, Stadt","type":"Stadt"},"district":{"key":"14729","name":"Leipzig","type":"Landkreis"},"federalState":{"key":"14","name":"Sachsen"}},{"name":"Auenstr.","postalCode":"04523","locality":"Pegau","municipality":{"key":"14729350","name":"Pegau, Stadt","type":"Stadt"},"district":{"key":"14729","name":"Leipzig","type":"Landkreis"},"federalState":{"key":"14","name":"Sachsen"}},{"name":"Bahnhofstr.","postalCode":"04523","locality":"Pegau","municipality":{"key":"14729350","name":"Pegau, Stadt","type":"Stadt"},"district":{"key":"14729","name":"Leipzig","type":"Landkreis"},"federalState":{"key":"14","name":"Sachsen"}},{"name":"Bismarckstr.","postalCode":"04523","locality":"Pegau","municipality":{"key":"14729350","name":"Pegau, Stadt","type":"Stadt"},"district":{"key":"14729","name":"Leipzig","type":"Landkreis"},"federalState":{"key":"14","name":"Sachsen"}},{"name":"Bogenbrücke","postalCode":"04523","locality":"Pegau","municipality":{"key":"14729350","name":"Pegau, Stadt","type":"Stadt"},"district":{"key":"14729","name":"Leipzig","type":"Landkreis"},"federalState":{"key":"14","name":"Sachsen"}},{"name":"Bornsgasse","postalCode":"04523","locality":"Pegau","municipality":{"key":"14729350","name":"Pegau, Stadt","type":"Stadt"},"district":{"key":"14729","name":"Leipzig","type":"Landkreis"},"federalState":{"key":"14","name":"Sachsen"}},{"name":"Breite Gasse","postalCode":"04523","locality":"Pegau","municipality":{"key":"14729350","name":"Pegau, Stadt","type":"Stadt"},"district":{"key":"14729","name":"Leipzig","type":"Landkreis"},"federalState":{"key":"14","name":"Sachsen"}},{"name":"Breitstr.","postalCode":"04523","locality":"Pegau","municipality":{"key":"14729350","name":"Pegau, Stadt","type":"Stadt"},"district":{"key":"14729","name":"Leipzig","type":"Landkreis"},"federalState":{"key":"14","name":"Sachsen"}},{"name":"Brunnengasse","postalCode":"04523","locality":"Pegau","municipality":{"key":"14729350","name":"Pegau, Stadt","type":"Stadt"},"district":{"key":"14729","name":"Leipzig","type":"Landkreis"},"federalState":{"key":"14","name":"Sachsen"}},{"name":"Carsdorfer Höhe","postalCode":"04523","locality":"Pegau","municipality":{"key":"14729350","name":"Pegau, Stadt","type":"Stadt"},"district":{"key":"14729","name":"Leipzig","type":"Landkreis"},"federalState":{"key":"14","name":"Sachsen"}},{"name":"Carsdorfer Str.","postalCode":"04523","locality":"Pegau","municipality":{"key":"14729350","name":"Pegau, Stadt","type":"Stadt"},"district":{"key":"14729","name":"Leipzig","type":"Landkreis"},"federalState":{"key":"14","name":"Sachsen"}},{"name":"Coburger Str.","postalCode":"04523","locality":"Pegau","municipality":{"key":"14729350","name":"Pegau, Stadt","type":"Stadt"},"district":{"key":"14729","name":"Leipzig","type":"Landkreis"},"federalState":{"key":"14","name":"Sachsen"}},{"name":"Dahlienweg","postalCode":"04523","locality":"Pegau","municipality":{"key":"14729350","name":"Pegau, Stadt","type":"Stadt"},"district":{"key":"14729","name":"Leipzig","type":"Landkreis"},"federalState":{"key":"14","name":"Sachsen"}},{"name":"Der Ring","postalCode":"04523","locality":"Pegau","municipality":{"key":"14729350","name":"Pegau, Stadt","type":"Stadt"},"district":{"key":"14729","name":"Leipzig","type":"Landkreis"},"federalState":{"key":"14","name":"Sachsen"}},{"name":"Dorfplatz","postalCode":"04523","locality":"Pegau","municipality":{"key":"14729350","name":"Pegau, Stadt","type":"Stadt"},"district":{"key":"14729","name":"Leipzig","type":"Landkreis"},"federalState":{"key":"14","name":"Sachsen"}},{"name":"Dorfstr.","postalCode":"04523","locality":"Pegau","municipality":{"key":"14729350","name":"Pegau, Stadt","type":"Stadt"},"district":{"key":"14729","name":"Leipzig","type":"Landkreis"},"federalState":{"key":"14","name":"Sachsen"}},{"name":"Dr.-Otto-Kunzmann-Str.","postalCode":"04523","locality":"Pegau","municipality":{"key":"14729350","name":"Pegau, Stadt","type":"Stadt"},"district":{"key":"14729","name":"Leipzig","type":"Landkreis"},"federalState":{"key":"14","name":"Sachsen"}},{"name":"Eisdorfer Str.","postalCode":"04523","locality":"Pegau","municipality":{"key":"14729350","name":"Pegau, Stadt","type":"Stadt"},"district":{"key":"14729","name":"Leipzig","type":"Landkreis"},"federalState":{"key":"14","name":"Sachsen"}},{"name":"Eisdorfer Weg","postalCode":"04523","locality":"Pegau","municipality":{"key":"14729350","name":"Pegau, Stadt","type":"Stadt"},"district":{"key":"14729","name":"Leipzig","type":"Landkreis"},"federalState":{"key":"14","name":"Sachsen"}},{"name":"Elsterbogen","postalCode":"04523","locality":"Pegau","municipality":{"key":"14729350","name":"Pegau, Stadt","type":"Stadt"},"district":{"key":"14729","name":"Leipzig","type":"Landkreis"},"federalState":{"key":"14","name":"Sachsen"}},{"name":"Ernst-Reinsdorf-Str.","postalCode":"04523","locality":"Pegau","municipality":{"key":"14729350","name":"Pegau, Stadt","type":"Stadt"},"district":{"key":"14729","name":"Leipzig","type":"Landkreis"},"federalState":{"key":"14","name":"Sachsen"}},{"name":"Ernst-Thälmann-Str.","postalCode":"04523","locality":"Pegau","municipality":{"key":"14729350","name":"Pegau, Stadt","type":"Stadt"},"district":{"key":"14729","name":"Leipzig","type":"Landkreis"},"federalState":{"key":"14","name":"Sachsen"}},{"name":"Eulauer Str.","postalCode":"04523","locality":"Pegau","municipality":{"key":"14729350","name":"Pegau, Stadt","type":"Stadt"},"district":{"key":"14729","name":"Leipzig","type":"Landkreis"},"federalState":{"key":"14","name":"Sachsen"}},{"name":"Feldstr.","postalCode":"04523","locality":"Pegau","municipality":{"key":"14729350","name":"Pegau, Stadt","type":"Stadt"},"district":{"key":"14729","name":"Leipzig","type":"Landkreis"},"federalState":{"key":"14","name":"Sachsen"}},{"name":"Ferdinand-von-Rayski-Platz","postalCode":"04523","locality":"Pegau","municipality":{"key":"14729350","name":"Pegau, Stadt","type":"Stadt"},"district":{"key":"14729","name":"Leipzig","type":"Landkreis"},"federalState":{"key":"14","name":"Sachsen"}},{"name":"Fliederweg","postalCode":"04523","locality":"Pegau","municipality":{"key":"14729350","name":"Pegau, Stadt","type":"Stadt"},"district":{"key":"14729","name":"Leipzig","type":"Landkreis"},"federalState":{"key":"14","name":"Sachsen"}},{"name":"Flur am Stadtbad","postalCode":"04523","locality":"Pegau","municipality":{"key":"14729350","name":"Pegau, Stadt","type":"Stadt"},"district":{"key":"14729","name":"Leipzig","type":"Landkreis"},"federalState":{"key":"14","name":"Sachsen"}},{"name":"Frankeplatz","postalCode":"04523","locality":"Pegau","municipality":{"key":"14729350","name":"Pegau, Stadt","type":"Stadt"},"district":{"key":"14729","name":"Leipzig","type":"Landkreis"},"federalState":{"key":"14","name":"Sachsen"}},{"name":"Friedensstr.","postalCode":"04523","locality":"Pegau","municipality":{"key":"14729350","name":"Pegau, Stadt","type":"Stadt"},"district":{"key":"14729","name":"Leipzig","type":"Landkreis"},"federalState":{"key":"14","name":"Sachsen"}},{"name":"Friedrichshöhe","postalCode":"04523","locality":"Pegau","municipality":{"key":"14729350","name":"Pegau, Stadt","type":"Stadt"},"district":{"key":"14729","name":"Leipzig","type":"Landkreis"},"federalState":{"key":"14","name":"Sachsen"}},{"name":"Gerbergasse","postalCode":"04523","locality":"Pegau","municipality":{"key":"14729350","name":"Pegau, Stadt","type":"Stadt"},"district":{"key":"14729","name":"Leipzig","type":"Landkreis"},"federalState":{"key":"14","name":"Sachsen"}},{"name":"Gerberplatz","postalCode":"04523","locality":"Pegau","municipality":{"key":"14729350","name":"Pegau, Stadt","type":"Stadt"},"district":{"key":"14729","name":"Leipzig","type":"Landkreis"},"federalState":{"key":"14","name":"Sachsen"}},{"name":"Groitzscher Fußweg","postalCode":"04523","locality":"Pegau","municipality":{"key":"14729350","name":"Pegau, Stadt","type":"Stadt"},"district":{"key":"14729","name":"Leipzig","type":"Landkreis"},"federalState":{"key":"14","name":"Sachsen"}},{"name":"Großgörschner Weg","postalCode":"04523","locality":"Pegau","municipality":{"key":"14729350","name":"Pegau, Stadt","type":"Stadt"},"district":{"key":"14729","name":"Leipzig","type":"Landkreis"},"federalState":{"key":"14","name":"Sachsen"}},{"name":"Grünes Tal","postalCode":"04523","locality":"Pegau","municipality":{"key":"14729350","name":"Pegau, Stadt","type":"Stadt"},"district":{"key":"14729","name":"Leipzig","type":"Landkreis"},"federalState":{"key":"14","name":"Sachsen"}},{"name":"Gutspark","postalCode":"04523","locality":"Pegau","municipality":{"key":"14729350","name":"Pegau, Stadt","type":"Stadt"},"district":{"key":"14729","name":"Leipzig","type":"Landkreis"},"federalState":{"key":"14","name":"Sachsen"}},{"name":"Hauptstr.","postalCode":"04523","locality":"Pegau","municipality":{"key":"14729350","name":"Pegau, Stadt","type":"Stadt"},"district":{"key":"14729","name":"Leipzig","type":"Landkreis"},"federalState":{"key":"14","name":"Sachsen"}},{"name":"Helbigstr.","postalCode":"04523","locality":"Pegau","municipality":{"key":"14729350","name":"Pegau, Stadt","type":"Stadt"},"district":{"key":"14729","name":"Leipzig","type":"Landkreis"},"federalState":{"key":"14","name":"Sachsen"}},{"name":"Hellmuthsgasse","postalCode":"04523","locality":"Pegau","municipality":{"key":"14729350","name":"Pegau, Stadt","type":"Stadt"},"district":{"key":"14729","name":"Leipzig","type":"Landkreis"},"federalState":{"key":"14","name":"Sachsen"}},{"name":"Herrenweg","postalCode":"04523","locality":"Pegau","municipality":{"key":"14729350","name":"Pegau, Stadt","type":"Stadt"},"district":{"key":"14729","name":"Leipzig","type":"Landkreis"},"federalState":{"key":"14","name":"Sachsen"}},{"name":"Hinter der Post","postalCode":"04523","locality":"Pegau","municipality":{"key":"14729350","name":"Pegau, Stadt","type":"Stadt"},"district":{"key":"14729","name":"Leipzig","type":"Landkreis"},"federalState":{"key":"14","name":"Sachsen"}},{"name":"Im Winkel","postalCode":"04523","locality":"Pegau","municipality":{"key":"14729350","name":"Pegau, Stadt","type":"Stadt"},"district":{"key":"14729","name":"Leipzig","type":"Landkreis"},"federalState":{"key":"14","name":"Sachsen"}},{"name":"Jack-London-Weg","postalCode":"04289","locality":"Leipzig","municipality":{"key":"14713000","name":"Leipzig, Stadt","type":"Kreisfreie_Stadt"},"district":{"key":"14713","name":"Leipzig, Stadt","type":"Kreisfreie_Stadt"},"federalState":{"key":"14","name":"Sachsen"}},{"name":"Jacobstr.","postalCode":"04105","locality":"Leipzig","municipality":{"key":"14713000","name":"Leipzig, Stadt","type":"Kreisfreie_Stadt"},"district":{"key":"14713","name":"Leipzig, Stadt","type":"Kreisfreie_Stadt"},"federalState":{"key":"14","name":"Sachsen"}},{"name":"Jadassohnstr.","postalCode":"04179","locality":"Leipzig","municipality":{"key":"14713000","name":"Leipzig, Stadt","type":"Kreisfreie_Stadt"},"district":{"key":"14713","name":"Leipzig, Stadt","type":"Kreisfreie_Stadt"},"federalState":{"key":"14","name":"Sachsen"}},{"name":"Jadebogen","postalCode":"04319","locality":"Leipzig","municipality":{"key":"14713000","name":"Leipzig, Stadt","type":"Kreisfreie_Stadt"},"district":{"key":"14713","name":"Leipzig, Stadt","type":"Kreisfreie_Stadt"},"federalState":{"key":"14","name":"Sachsen"}},{"name":"Jägerhofpassage","postalCode":"04109","locality":"Leipzig","municipality":{"key":"14713000","name":"Leipzig, Stadt","type":"Kreisfreie_Stadt"},"district":{"key":"14713","name":"Leipzig, Stadt","type":"Kreisfreie_Stadt"},"federalState":{"key":"14","name":"Sachsen"}},{"name":"Jägerstr.","postalCode":"04157","locality":"Leipzig","municipality":{"key":"14713000","name":"Leipzig, Stadt","type":"Kreisfreie_Stadt"},"district":{"key":"14713","name":"Leipzig, Stadt","type":"Kreisfreie_Stadt"},"federalState":{"key":"14","name":"Sachsen"}},{"name":"Jahnallee","postalCode":"04109","locality":"Leipzig","municipality":{"key":"14713000","name":"Leipzig, Stadt","type":"Kreisfreie_Stadt"},"district":{"key":"14713","name":"Leipzig, Stadt","type":"Kreisfreie_Stadt"},"federalState":{"key":"14","name":"Sachsen"}},{"name":"Jahnallee","postalCode":"04177","locality":"Leipzig","municipality":{"key":"14713000","name":"Leipzig, Stadt","type":"Kreisfreie_Stadt"},"district":{"key":"14713","name":"Leipzig, Stadt","type":"Kreisfreie_Stadt"},"federalState":{"key":"14","name":"Sachsen"}},{"name":"Jahnstr.","postalCode":"04288","locality":"Leipzig","municipality":{"key":"14713000","name":"Leipzig, Stadt","type":"Kreisfreie_Stadt"},"district":{"key":"14713","name":"Leipzig, Stadt","type":"Kreisfreie_Stadt"},"federalState":{"key":"14","name":"Sachsen"}},{"name":"Jahnweg","postalCode":"04319","locality":"Leipzig","municipality":{"key":"14713000","name":"Leipzig, Stadt","type":"Kreisfreie_Stadt"},"district":{"key":"14713","name":"Leipzig, Stadt","type":"Kreisfreie_Stadt"},"federalState":{"key":"14","name":"Sachsen"}},{"name":"Jahrtausendfeld","postalCode":"04177","locality":"Leipzig","municipality":{"key":"14713000","name":"Leipzig, Stadt","type":"Kreisfreie_Stadt"},"district":{"key":"14713","name":"Leipzig, Stadt","type":"Kreisfreie_Stadt"},"federalState":{"key":"14","name":"Sachsen"}},{"name":"Jakobiwinkel","postalCode":"04178","locality":"Leipzig","municipality":{"key":"14713000","name":"Leipzig, Stadt","type":"Kreisfreie_Stadt"},"district":{"key":"14713","name":"Leipzig, Stadt","type":"Kreisfreie_Stadt"},"federalState":{"key":"14","name":"Sachsen"}},{"name":"Jasminweg","postalCode":"04318","locality":"Leipzig","municipality":{"key":"14713000","name":"Leipzig, Stadt","type":"Kreisfreie_Stadt"},"district":{"key":"14713","name":"Leipzig, Stadt","type":"Kreisfreie_Stadt"},"federalState":{"key":"14","name":"Sachsen"}},{"name":"Jaspisstr.","postalCode":"04319","locality":"Leipzig","municipality":{"key":"14713000","name":"Leipzig, Stadt","type":"Kreisfreie_Stadt"},"district":{"key":"14713","name":"Leipzig, Stadt","type":"Kreisfreie_Stadt"},"federalState":{"key":"14","name":"Sachsen"}},{"name":"J.-C.-Hinrichs-Str.","postalCode":"04315","locality":"Leipzig","municipality":{"key":"14713000","name":"Leipzig, Stadt","type":"Kreisfreie_Stadt"},"district":{"key":"14713","name":"Leipzig, Stadt","type":"Kreisfreie_Stadt"},"federalState":{"key":"14","name":"Sachsen"}},{"name":"Joachim-Gottschalk-Weg","postalCode":"04289","locality":"Leipzig","municipality":{"key":"14713000","name":"Leipzig, Stadt","type":"Kreisfreie_Stadt"},"district":{"key":"14713","name":"Leipzig, Stadt","type":"Kreisfreie_Stadt"},"federalState":{"key":"14","name":"Sachsen"}},{"name":"Jöcherstr.","postalCode":"04318","locality":"Leipzig","municipality":{"key":"14713000","name":"Leipzig, Stadt","type":"Kreisfreie_Stadt"},"district":{"key":"14713","name":"Leipzig, Stadt","type":"Kreisfreie_Stadt"},"federalState":{"key":"14","name":"Sachsen"}},{"name":"Johann-Adolf-Str.","postalCode":"04279","locality":"Leipzig","municipality":{"key":"14713000","name":"Leipzig, Stadt","type":"Kreisfreie_Stadt"},"district":{"key":"14713","name":"Leipzig, Stadt","type":"Kreisfreie_Stadt"},"federalState":{"key":"14","name":"Sachsen"}},{"name":"Johannastr.","postalCode":"04279","locality":"Leipzig","municipality":{"key":"14713000","name":"Leipzig, Stadt","type":"Kreisfreie_Stadt"},"district":{"key":"14713","name":"Leipzig, Stadt","type":"Kreisfreie_Stadt"},"federalState":{"key":"14","name":"Sachsen"}},{"name":"Johannes-Kärner-Str.","postalCode":"04328","locality":"Leipzig","municipality":{"key":"14713000","name":"Leipzig, Stadt","type":"Kreisfreie_Stadt"},"district":{"key":"14713","name":"Leipzig, Stadt","type":"Kreisfreie_Stadt"},"federalState":{"key":"14","name":"Sachsen"}},{"name":"Johannes-R.-Becher-Str.","postalCode":"04279","locality":"Leipzig","municipality":{"key":"14713000","name":"Leipzig, Stadt","type":"Kreisfreie_Stadt"},"district":{"key":"14713","name":"Leipzig, Stadt","type":"Kreisfreie_Stadt"},"federalState":{"key":"14","name":"Sachsen"}},{"name":"Johannes-Weyrauch-Platz","postalCode":"04178","locality":"Leipzig","municipality":{"key":"14713000","name":"Leipzig, Stadt","type":"Kreisfreie_Stadt"},"district":{"key":"14713","name":"Leipzig, Stadt","type":"Kreisfreie_Stadt"},"federalState":{"key":"14","name":"Sachsen"}},{"name":"Johannisallee","postalCode":"04103","locality":"Leipzig","municipality":{"key":"14713000","name":"Leipzig, Stadt","type":"Kreisfreie_Stadt"},"district":{"key":"14713","name":"Leipzig, Stadt","type":"Kreisfreie_Stadt"},"federalState":{"key":"14","name":"Sachsen"}},{"name":"Johannisallee","postalCode":"04317","locality":"Leipzig","municipality":{"key":"14713000","name":"Leipzig, Stadt","type":"Kreisfreie_Stadt"},"district":{"key":"14713","name":"Leipzig, Stadt","type":"Kreisfreie_Stadt"},"federalState":{"key":"14","name":"Sachsen"}},{"name":"Johannisgasse","postalCode":"04103","locality":"Leipzig","municipality":{"key":"14713000","name":"Leipzig, Stadt","type":"Kreisfreie_Stadt"},"district":{"key":"14713","name":"Leipzig, Stadt","type":"Kreisfreie_Stadt"},"federalState":{"key":"14","name":"Sachsen"}},{"name":"Johannishöhe","postalCode":"04279","locality":"Leipzig","municipality":{"key":"14713000","name":"Leipzig, Stadt","type":"Kreisfreie_Stadt"},"district":{"key":"14713","name":"Leipzig, Stadt","type":"Kreisfreie_Stadt"},"federalState":{"key":"14","name":"Sachsen"}},{"name":"Johannisplatz","postalCode":"04103","locality":"Leipzig","municipality":{"key":"14713000","name":"Leipzig, Stadt","type":"Kreisfreie_Stadt"},"district":{"key":"14713","name":"Leipzig, Stadt","type":"Kreisfreie_Stadt"},"federalState":{"key":"14","name":"Sachsen"}},{"name":"Johann-Jakob-Weber-Platz","postalCode":"04299","locality":"Leipzig","municipality":{"key":"14713000","name":"Leipzig, Stadt","type":"Kreisfreie_Stadt"},"district":{"key":"14713","name":"Leipzig, Stadt","type":"Kreisfreie_Stadt"},"federalState":{"key":"14","name":"Sachsen"}},{"name":"Johnsonweg","postalCode":"04289","locality":"Leipzig","municipality":{"key":"14713000","name":"Leipzig, Stadt","type":"Kreisfreie_Stadt"},"district":{"key":"14713","name":"Leipzig, Stadt","type":"Kreisfreie_Stadt"},"federalState":{"key":"14","name":"Sachsen"}},{"name":"Jöhstädter Str.","postalCode":"04349","locality":"Leipzig","municipality":{"key":"14713000","name":"Leipzig, Stadt","type":"Kreisfreie_Stadt"},"district":{"key":"14713","name":"Leipzig, Stadt","type":"Kreisfreie_Stadt"},"federalState":{"key":"14","name":"Sachsen"}},{"name":"Jonasstr.","postalCode":"04315","locality":"Leipzig","municipality":{"key":"14713000","name":"Leipzig, Stadt","type":"Kreisfreie_Stadt"},"district":{"key":"14713","name":"Leipzig, Stadt","type":"Kreisfreie_Stadt"},"federalState":{"key":"14","name":"Sachsen"}},{"name":"Jonsdorfer Str.","postalCode":"04207","locality":"Leipzig","municipality":{"key":"14713000","name":"Leipzig, Stadt","type":"Kreisfreie_Stadt"},"district":{"key":"14713","name":"Leipzig, Stadt","type":"Kreisfreie_Stadt"},"federalState":{"key":"14","name":"Sachsen"}},{"name":"Jordanstr.","postalCode":"04177","locality":"Leipzig","municipality":{"key":"14713000","name":"Leipzig, Stadt","type":"Kreisfreie_Stadt"},"district":{"key":"14713","name":"Leipzig, Stadt","type":"Kreisfreie_Stadt"},"federalState":{"key":"14","name":"Sachsen"}},{"name":"Jörgen-Schmidtchen-Weg","postalCode":"04157","locality":"Leipzig","municipality":{"key":"14713000","name":"Leipzig, Stadt","type":"Kreisfreie_Stadt"},"district":{"key":"14713","name":"Leipzig, Stadt","type":"Kreisfreie_Stadt"},"federalState":{"key":"14","name":"Sachsen"}},{"name":"Josephinenstr.","postalCode":"04317","locality":"Leipzig","municipality":{"key":"14713000","name":"Leipzig, Stadt","type":"Kreisfreie_Stadt"},"district":{"key":"14713","name":"Leipzig, Stadt","type":"Kreisfreie_Stadt"},"federalState":{"key":"14","name":"Sachsen"}},{"name":"Josephstr.","postalCode":"04177","locality":"Leipzig","municipality":{"key":"14713000","name":"Leipzig, Stadt","type":"Kreisfreie_Stadt"},"district":{"key":"14713","name":"Leipzig, Stadt","type":"Kreisfreie_Stadt"},"federalState":{"key":"14","name":"Sachsen"}},{"name":"Jouleweg","postalCode":"04299","locality":"Leipzig","municipality":{"key":"14713000","name":"Leipzig, Stadt","type":"Kreisfreie_Stadt"},"district":{"key":"14713","name":"Leipzig, Stadt","type":"Kreisfreie_Stadt"},"federalState":{"key":"14","name":"Sachsen"}},{"name":"Judith-Auer-Str.","postalCode":"04317","locality":"Leipzig","municipality":{"key":"14713000","name":"Leipzig, Stadt","type":"Kreisfreie_Stadt"},"district":{"key":"14713","name":"Leipzig, Stadt","type":"Kreisfreie_Stadt"},"federalState":{"key":"14","name":"Sachsen"}},{"name":"Juister Weg","postalCode":"04157","locality":"Leipzig","municipality":{"key":"14713000","name":"Leipzig, Stadt","type":"Kreisfreie_Stadt"},"district":{"key":"14713","name":"Leipzig, Stadt","type":"Kreisfreie_Stadt"},"federalState":{"key":"14","name":"Sachsen"}},{"name":"Julian-Marchlewski-Str.","postalCode":"04347","locality":"Leipzig","municipality":{"key":"14713000","name":"Leipzig, Stadt","type":"Kreisfreie_Stadt"},"district":{"key":"14713","name":"Leipzig, Stadt","type":"Kreisfreie_Stadt"},"federalState":{"key":"14","name":"Sachsen"}},{"name":"Julius-Krause-Str.","postalCode":"04318","locality":"Leipzig","municipality":{"key":"14713000","name":"Leipzig, Stadt","type":"Kreisfreie_Stadt"},"district":{"key":"14713","name":"Leipzig, Stadt","type":"Kreisfreie_Stadt"},"federalState":{"key":"14","name":"Sachsen"}},{"name":"Juliusstr.","postalCode":"04315","locality":"Leipzig","municipality":{"key":"14713000","name":"Leipzig, Stadt","type":"Kreisfreie_Stadt"},"district":{"key":"14713","name":"Leipzig, Stadt","type":"Kreisfreie_Stadt"},"federalState":{"key":"14","name":"Sachsen"}},{"name":"Jungfernstiege","postalCode":"04159","locality":"Leipzig","municipality":{"key":"14713000","name":"Leipzig, Stadt","type":"Kreisfreie_Stadt"},"district":{"key":"14713","name":"Leipzig, Stadt","type":"Kreisfreie_Stadt"},"federalState":{"key":"14","name":"Sachsen"}},{"name":"Junghanßstr.","postalCode":"04179","locality":"Leipzig","municipality":{"key":"14713000","name":"Leipzig, Stadt","type":"Kreisfreie_Stadt"},"district":{"key":"14713","name":"Leipzig, Stadt","type":"Kreisfreie_Stadt"},"federalState":{"key":"14","name":"Sachsen"}},{"name":"Jupiterstr.","postalCode":"04205","locality":"Leipzig","municipality":{"key":"14713000","name":"Leipzig, Stadt","type":"Kreisfreie_Stadt"},"district":{"key":"14713","name":"Leipzig, Stadt","type":"Kreisfreie_Stadt"},"federalState":{"key":"14","name":"Sachsen"}},{"name":"Jupp-Müller-Str.","postalCode":"04159","locality":"Leipzig","municipality":{"key":"14713000","name":"Leipzig, Stadt","type":"Kreisfreie_Stadt"},"district":{"key":"14713","name":"Leipzig, Stadt","type":"Kreisfreie_Stadt"},"federalState":{"key":"14","name":"Sachsen"}},{"name":"Juridicum-Passage","postalCode":"04109","locality":"Leipzig","municipality":{"key":"14713000","name":"Leipzig, Stadt","type":"Kreisfreie_Stadt"},"district":{"key":"14713","name":"Leipzig, Stadt","type":"Kreisfreie_Stadt"},"federalState":{"key":"14","name":"Sachsen"}},{"name":"Jutta-Hipp-Weg","postalCode":"04289","locality":"Leipzig","municipality":{"key":"14713000","name":"Leipzig, Stadt","type":"Kreisfreie_Stadt"},"district":{"key":"14713","name":"Leipzig, Stadt","type":"Kreisfreie_Stadt"},"federalState":{"key":"14","name":"Sachsen"}},{"name":"Kirchplatz","postalCode":"04523","locality":"Pegau","municipality":{"key":"14729350","name":"Pegau, Stadt","type":"Stadt"},"district":{"key":"14729","name":"Leipzig","type":"Landkreis"},"federalState":{"key":"14","name":"Sachsen"}},{"name":"Kirchweg","postalCode":"04523","locality":"Pegau","municipality":{"key":"14729350","name":"Pegau, Stadt","type":"Stadt"},"district":{"key":"14729","name":"Leipzig","type":"Landkreis"},"federalState":{"key":"14","name":"Sachsen"}},{"name":"Kirschweg","postalCode":"04523","locality":"Pegau","municipality":{"key":"14729350","name":"Pegau, Stadt","type":"Stadt"},"district":{"key":"14729","name":"Leipzig","type":"Landkreis"},"federalState":{"key":"14","name":"Sachsen"}},{"name":"Kitzener Str.","postalCode":"04523","locality":"Pegau","municipality":{"key":"14729350","name":"Pegau, Stadt","type":"Stadt"},"district":{"key":"14729","name":"Leipzig","type":"Landkreis"},"federalState":{"key":"14","name":"Sachsen"}},{"name":"Klostergasse","postalCode":"04523","locality":"Pegau","municipality":{"key":"14729350","name":"Pegau, Stadt","type":"Stadt"},"district":{"key":"14729","name":"Leipzig","type":"Landkreis"},"federalState":{"key":"14","name":"Sachsen"}},{"name":"Kramergasse","postalCode":"04523","locality":"Pegau","municipality":{"key":"14729350","name":"Pegau, Stadt","type":"Stadt"},"district":{"key":"14729","name":"Leipzig","type":"Landkreis"},"federalState":{"key":"14","name":"Sachsen"}},{"name":"Kreuzgasse","postalCode":"04523","locality":"Pegau","municipality":{"key":"14729350","name":"Pegau, Stadt","type":"Stadt"},"district":{"key":"14729","name":"Leipzig","type":"Landkreis"},"federalState":{"key":"14","name":"Sachsen"}},{"name":"Kurze Str.","postalCode":"04523","locality":"Pegau","municipality":{"key":"14729350","name":"Pegau, Stadt","type":"Stadt"},"district":{"key":"14729","name":"Leipzig","type":"Landkreis"},"federalState":{"key":"14","name":"Sachsen"}},{"name":"Ladestr.","postalCode":"04523","locality":"Pegau","municipality":{"key":"14729350","name":"Pegau, Stadt","type":"Stadt"},"district":{"key":"14729","name":"Leipzig","type":"Landkreis"},"federalState":{"key":"14","name":"Sachsen"}},{"name":"Leipziger Str.","postalCode":"04523","locality":"Pegau","municipality":{"key":"14729350","name":"Pegau, Stadt","type":"Stadt"},"district":{"key":"14729","name":"Leipzig","type":"Landkreis"},"federalState":{"key":"14","name":"Sachsen"}},{"name":"Leipziger Vorstadt","postalCode":"04523","locality":"Pegau","municipality":{"key":"14729350","name":"Pegau, Stadt","type":"Stadt"},"district":{"key":"14729","name":"Leipzig","type":"Landkreis"},"federalState":{"key":"14","name":"Sachsen"}},{"name":"Lindengasse","postalCode":"04523","locality":"Pegau","municipality":{"key":"14729350","name":"Pegau, Stadt","type":"Stadt"},"district":{"key":"14729","name":"Leipzig","type":"Landkreis"},"federalState":{"key":"14","name":"Sachsen"}},{"name":"Lindenstr.","postalCode":"04523","locality":"Pegau","municipality":{"key":"14729350","name":"Pegau, Stadt","type":"Stadt"},"district":{"key":"14729","name":"Leipzig","type":"Landkreis"},"federalState":{"key":"14","name":"Sachsen"}},{"name":"Löbener Weg","postalCode":"04523","locality":"Pegau","municipality":{"key":"14729350","name":"Pegau, Stadt","type":"Stadt"},"district":{"key":"14729","name":"Leipzig","type":"Landkreis"},"federalState":{"key":"14","name":"Sachsen"}},{"name":"Lützowstr.","postalCode":"04523","locality":"Pegau","municipality":{"key":"14729350","name":"Pegau, Stadt","type":"Stadt"},"district":{"key":"14729","name":"Leipzig","type":"Landkreis"},"federalState":{"key":"14","name":"Sachsen"}},{"name":"Markt","postalCode":"04523","locality":"Pegau","municipality":{"key":"14729350","name":"Pegau, Stadt","type":"Stadt"},"district":{"key":"14729","name":"Leipzig","type":"Landkreis"},"federalState":{"key":"14","name":"Sachsen"}},{"name":"Martin-Luther-Platz","postalCode":"04523","locality":"Pegau","municipality":{"key":"14729350","name":"Pegau, Stadt","type":"Stadt"},"district":{"key":"14729","name":"Leipzig","type":"Landkreis"},"federalState":{"key":"14","name":"Sachsen"}},{"name":"Maschwitzer Str.","postalCode":"04523","locality":"Pegau","municipality":{"key":"14729350","name":"Pegau, Stadt","type":"Stadt"},"district":{"key":"14729","name":"Leipzig","type":"Landkreis"},"federalState":{"key":"14","name":"Sachsen"}},{"name":"Meisenweg","postalCode":"04523","locality":"Pegau","municipality":{"key":"14729350","name":"Pegau, Stadt","type":"Stadt"},"district":{"key":"14729","name":"Leipzig","type":"Landkreis"},"federalState":{"key":"14","name":"Sachsen"}},{"name":"Mittelstr.","postalCode":"04523","locality":"Pegau","municipality":{"key":"14729350","name":"Pegau, Stadt","type":"Stadt"},"district":{"key":"14729","name":"Leipzig","type":"Landkreis"},"federalState":{"key":"14","name":"Sachsen"}},{"name":"Mühlgasse","postalCode":"04523","locality":"Pegau","municipality":{"key":"14729350","name":"Pegau, Stadt","type":"Stadt"},"district":{"key":"14729","name":"Leipzig","type":"Landkreis"},"federalState":{"key":"14","name":"Sachsen"}},{"name":"Mühlweg","postalCode":"04523","locality":"Pegau","municipality":{"key":"14729350","name":"Pegau, Stadt","type":"Stadt"},"district":{"key":"14729","name":"Leipzig","type":"Landkreis"},"federalState":{"key":"14","name":"Sachsen"}},{"name":"Naturlehrpfad Schinderkoppel Pegau","postalCode":"04523","locality":"Pegau","municipality":{"key":"14729350","name":"Pegau, Stadt","type":"Stadt"},"district":{"key":"14729","name":"Leipzig","type":"Landkreis"},"federalState":{"key":"14","name":"Sachsen"}},{"name":"Nelkenweg","postalCode":"04523","locality":"Pegau","municipality":{"key":"14729350","name":"Pegau, Stadt","type":"Stadt"},"district":{"key":"14729","name":"Leipzig","type":"Landkreis"},"federalState":{"key":"14","name":"Sachsen"}},{"name":"Neubau","postalCode":"04523","locality":"Pegau","municipality":{"key":"14729350","name":"Pegau, Stadt","type":"Stadt"},"district":{"key":"14729","name":"Leipzig","type":"Landkreis"},"federalState":{"key":"14","name":"Sachsen"}},{"name":"Neugasse","postalCode":"04523","locality":"Pegau","municipality":{"key":"14729350","name":"Pegau, Stadt","type":"Stadt"},"district":{"key":"14729","name":"Leipzig","type":"Landkreis"},"federalState":{"key":"14","name":"Sachsen"}},{"name":"Neusiedlung","postalCode":"04523","locality":"Pegau","municipality":{"key":"14729350","name":"Pegau, Stadt","type":"Stadt"},"district":{"key":"14729","name":"Leipzig","type":"Landkreis"},"federalState":{"key":"14","name":"Sachsen"}},{"name":"Nordstr.","postalCode":"04523","locality":"Pegau","municipality":{"key":"14729350","name":"Pegau, Stadt","type":"Stadt"},"district":{"key":"14729","name":"Leipzig","type":"Landkreis"},"federalState":{"key":"14","name":"Sachsen"}},{"name":"Ottomarsplatz","postalCode":"04523","locality":"Pegau","municipality":{"key":"14729350","name":"Pegau, Stadt","type":"Stadt"},"district":{"key":"14729","name":"Leipzig","type":"Landkreis"},"federalState":{"key":"14","name":"Sachsen"}},{"name":"Pegauer Str.","postalCode":"04523","locality":"Pegau","municipality":{"key":"14729350","name":"Pegau, Stadt","type":"Stadt"},"district":{"key":"14729","name":"Leipzig","type":"Landkreis"},"federalState":{"key":"14","name":"Sachsen"}},{"name":"Pfarrgasse","postalCode":"04523","locality":"Pegau","municipality":{"key":"14729350","name":"Pegau, Stadt","type":"Stadt"},"district":{"key":"14729","name":"Leipzig","type":"Landkreis"},"federalState":{"key":"14","name":"Sachsen"}},{"name":"Pfarrholz","postalCode":"04523","locality":"Pegau","municipality":{"key":"14729350","name":"Pegau, Stadt","type":"Stadt"},"district":{"key":"14729","name":"Leipzig","type":"Landkreis"},"federalState":{"key":"14","name":"Sachsen"}},{"name":"Planckengässchen","postalCode":"04523","locality":"Pegau","municipality":{"key":"14729350","name":"Pegau, Stadt","type":"Stadt"},"district":{"key":"14729","name":"Leipzig","type":"Landkreis"},"federalState":{"key":"14","name":"Sachsen"}},{"name":"Poetenweg","postalCode":"04523","locality":"Pegau","municipality":{"key":"14729350","name":"Pegau, Stadt","type":"Stadt"},"district":{"key":"14729","name":"Leipzig","type":"Landkreis"},"federalState":{"key":"14","name":"Sachsen"}},{"name":"Probsteisiedlung","postalCode":"04523","locality":"Pegau","municipality":{"key":"14729350","name":"Pegau, Stadt","type":"Stadt"},"district":{"key":"14729","name":"Leipzig","type":"Landkreis"},"federalState":{"key":"14","name":"Sachsen"}},{"name":"Probsteiweg","postalCode":"04523","locality":"Pegau","municipality":{"key":"14729350","name":"Pegau, Stadt","type":"Stadt"},"district":{"key":"14729","name":"Leipzig","type":"Landkreis"},"federalState":{"key":"14","name":"Sachsen"}},{"name":"Quasnitzer Höhe","postalCode":"04159","locality":"Leipzig","municipality":{"key":"14713000","name":"Leipzig, Stadt","type":"Kreisfreie_Stadt"},"district":{"key":"14713","name":"Leipzig, Stadt","type":"Kreisfreie_Stadt"},"federalState":{"key":"14","name":"Sachsen"}},{"name":"Quasnitzer Weg","postalCode":"04159","locality":"Leipzig","municipality":{"key":"14713000","name":"Leipzig, Stadt","type":"Kreisfreie_Stadt"},"district":{"key":"14713","name":"Leipzig, Stadt","type":"Kreisfreie_Stadt"},"federalState":{"key":"14","name":"Sachsen"}},{"name":"Queckstr.","postalCode":"04177","locality":"Leipzig","municipality":{"key":"14713000","name":"Leipzig, Stadt","type":"Kreisfreie_Stadt"},"district":{"key":"14713","name":"Leipzig, Stadt","type":"Kreisfreie_Stadt"},"federalState":{"key":"14","name":"Sachsen"}},{"name":"Quedlinburger Str.","postalCode":"04157","locality":"Leipzig","municipality":{"key":"14713000","name":"Leipzig, Stadt","type":"Kreisfreie_Stadt"},"district":{"key":"14713","name":"Leipzig, Stadt","type":"Kreisfreie_Stadt"},"federalState":{"key":"14","name":"Sachsen"}},{"name":"Quermaße","postalCode":"04288","locality":"Leipzig","municipality":{"key":"14713000","name":"Leipzig, Stadt","type":"Kreisfreie_Stadt"},"district":{"key":"14713","name":"Leipzig, Stadt","type":"Kreisfreie_Stadt"},"federalState":{"key":"14","name":"Sachsen"}},{"name":"Querstr.","postalCode":"04103","locality":"Leipzig","municipality":{"key":"14713000","name":"Leipzig, Stadt","type":"Kreisfreie_Stadt"},"district":{"key":"14713","name":"Leipzig, Stadt","type":"Kreisfreie_Stadt"},"federalState":{"key":"14","name":"Sachsen"}},{"name":"Querweg","postalCode":"04159","locality":"Leipzig","municipality":{"key":"14713000","name":"Leipzig, Stadt","type":"Kreisfreie_Stadt"},"district":{"key":"14713","name":"Leipzig, Stadt","type":"Kreisfreie_Stadt"},"federalState":{"key":"14","name":"Sachsen"}},{"name":"Querweg","postalCode":"04277","locality":"Leipzig","municipality":{"key":"14713000","name":"Leipzig, Stadt","type":"Kreisfreie_Stadt"},"district":{"key":"14713","name":"Leipzig, Stadt","type":"Kreisfreie_Stadt"},"federalState":{"key":"14","name":"Sachsen"}},{"name":"Querweg","postalCode":"04318","locality":"Leipzig","municipality":{"key":"14713000","name":"Leipzig, Stadt","type":"Kreisfreie_Stadt"},"district":{"key":"14713","name":"Leipzig, Stadt","type":"Kreisfreie_Stadt"},"federalState":{"key":"14","name":"Sachsen"}},{"name":"Quittenweg","postalCode":"04316","locality":"Leipzig","municipality":{"key":"14713000","name":"Leipzig, Stadt","type":"Kreisfreie_Stadt"},"district":{"key":"14713","name":"Leipzig, Stadt","type":"Kreisfreie_Stadt"},"federalState":{"key":"14","name":"Sachsen"}},{"name":"Ringstr.","postalCode":"04523","locality":"Pegau","municipality":{"key":"14729350","name":"Pegau, Stadt","type":"Stadt"},"district":{"key":"14729","name":"Leipzig","type":"Landkreis"},"federalState":{"key":"14","name":"Sachsen"}},{"name":"Rosenweg","postalCode":"04523","locality":"Pegau","municipality":{"key":"14729350","name":"Pegau, Stadt","type":"Stadt"},"district":{"key":"14729","name":"Leipzig","type":"Landkreis"},"federalState":{"key":"14","name":"Sachsen"}},{"name":"Roßgasse","postalCode":"04523","locality":"Pegau","municipality":{"key":"14729350","name":"Pegau, Stadt","type":"Stadt"},"district":{"key":"14729","name":"Leipzig","type":"Landkreis"},"federalState":{"key":"14","name":"Sachsen"}},{"name":"Schkeitbarer Str.","postalCode":"04523","locality":"Pegau","municipality":{"key":"14729350","name":"Pegau, Stadt","type":"Stadt"},"district":{"key":"14729","name":"Leipzig","type":"Landkreis"},"federalState":{"key":"14","name":"Sachsen"}},{"name":"Schkorlopper Str.","postalCode":"04523","locality":"Pegau","municipality":{"key":"14729350","name":"Pegau, Stadt","type":"Stadt"},"district":{"key":"14729","name":"Leipzig","type":"Landkreis"},"federalState":{"key":"14","name":"Sachsen"}},{"name":"Schlossergasse","postalCode":"04523","locality":"Pegau","municipality":{"key":"14729350","name":"Pegau, Stadt","type":"Stadt"},"district":{"key":"14729","name":"Leipzig","type":"Landkreis"},"federalState":{"key":"14","name":"Sachsen"}},{"name":"Schloßplatz","postalCode":"04523","locality":"Pegau","municipality":{"key":"14729350","name":"Pegau, Stadt","type":"Stadt"},"district":{"key":"14729","name":"Leipzig","type":"Landkreis"},"federalState":{"key":"14","name":"Sachsen"}},{"name":"Schloßstr.","postalCode":"04523","locality":"Pegau","municipality":{"key":"14729350","name":"Pegau, Stadt","type":"Stadt"},"district":{"key":"14729","name":"Leipzig","type":"Landkreis"},"federalState":{"key":"14","name":"Sachsen"}},{"name":"Schmale Gasse","postalCode":"04523","locality":"Pegau","municipality":{"key":"14729350","name":"Pegau, Stadt","type":"Stadt"},"district":{"key":"14729","name":"Leipzig","type":"Landkreis"},"federalState":{"key":"14","name":"Sachsen"}},{"name":"Schulstr.","postalCode":"04523","locality":"Pegau","municipality":{"key":"14729350","name":"Pegau, Stadt","type":"Stadt"},"district":{"key":"14729","name":"Leipzig","type":"Landkreis"},"federalState":{"key":"14","name":"Sachsen"}},{"name":"Schulweg","postalCode":"04523","locality":"Pegau","municipality":{"key":"14729350","name":"Pegau, Stadt","type":"Stadt"},"district":{"key":"14729","name":"Leipzig","type":"Landkreis"},"federalState":{"key":"14","name":"Sachsen"}},{"name":"Schützenplatz","postalCode":"04523","locality":"Pegau","municipality":{"key":"14729350","name":"Pegau, Stadt","type":"Stadt"},"district":{"key":"14729","name":"Leipzig","type":"Landkreis"},"federalState":{"key":"14","name":"Sachsen"}},{"name":"Senderstr.","postalCode":"04523","locality":"Pegau","municipality":{"key":"14729350","name":"Pegau, Stadt","type":"Stadt"},"district":{"key":"14729","name":"Leipzig","type":"Landkreis"},"federalState":{"key":"14","name":"Sachsen"}},{"name":"Sitteler Str.","postalCode":"04523","locality":"Pegau","municipality":{"key":"14729350","name":"Pegau, Stadt","type":"Stadt"},"district":{"key":"14729","name":"Leipzig","type":"Landkreis"},"federalState":{"key":"14","name":"Sachsen"}},{"name":"Sonnenwinkel","postalCode":"04523","locality":"Pegau","municipality":{"key":"14729350","name":"Pegau, Stadt","type":"Stadt"},"district":{"key":"14729","name":"Leipzig","type":"Landkreis"},"federalState":{"key":"14","name":"Sachsen"}},{"name":"Sporthaus","postalCode":"04523","locality":"Pegau","municipality":{"key":"14729350","name":"Pegau, Stadt","type":"Stadt"},"district":{"key":"14729","name":"Leipzig","type":"Landkreis"},"federalState":{"key":"14","name":"Sachsen"}},{"name":"Stöntzscher Str.","postalCode":"04523","locality":"Pegau","municipality":{"key":"14729350","name":"Pegau, Stadt","type":"Stadt"},"district":{"key":"14729","name":"Leipzig","type":"Landkreis"},"federalState":{"key":"14","name":"Sachsen"}},{"name":"Stufenpyramide","postalCode":"04523","locality":"Pegau","municipality":{"key":"14729350","name":"Pegau, Stadt","type":"Stadt"},"district":{"key":"14729","name":"Leipzig","type":"Landkreis"},"federalState":{"key":"14","name":"Sachsen"}},{"name":"Südring","postalCode":"04523","locality":"Pegau","municipality":{"key":"14729350","name":"Pegau, Stadt","type":"Stadt"},"district":{"key":"14729","name":"Leipzig","type":"Landkreis"},"federalState":{"key":"14","name":"Sachsen"}},{"name":"Teichstr.","postalCode":"04523","locality":"Pegau","municipality":{"key":"14729350","name":"Pegau, Stadt","type":"Stadt"},"district":{"key":"14729","name":"Leipzig","type":"Landkreis"},"federalState":{"key":"14","name":"Sachsen"}},{"name":"Theodor-Körner-Str.","postalCode":"04523","locality":"Pegau","municipality":{"key":"14729350","name":"Pegau, Stadt","type":"Stadt"},"district":{"key":"14729","name":"Leipzig","type":"Landkreis"},"federalState":{"key":"14","name":"Sachsen"}},{"name":"Töpfergasse","postalCode":"04523","locality":"Pegau","municipality":{"key":"14729350","name":"Pegau, Stadt","type":"Stadt"},"district":{"key":"14729","name":"Leipzig","type":"Landkreis"},"federalState":{"key":"14","name":"Sachsen"}},{"name":"Topfmarkt","postalCode":"04523","locality":"Pegau","municipality":{"key":"14729350","name":"Pegau, Stadt","type":"Stadt"},"district":{"key":"14729","name":"Leipzig","type":"Landkreis"},"federalState":{"key":"14","name":"Sachsen"}},{"name":"Tulpenweg","postalCode":"04523","locality":"Pegau","municipality":{"key":"14729350","name":"Pegau, Stadt","type":"Stadt"},"district":{"key":"14729","name":"Leipzig","type":"Landkreis"},"federalState":{"key":"14","name":"Sachsen"}},{"name":"Unteraue","postalCode":"04523","locality":"Pegau","municipality":{"key":"14729350","name":"Pegau, Stadt","type":"Stadt"},"district":{"key":"14729","name":"Leipzig","type":"Landkreis"},"federalState":{"key":"14","name":"Sachsen"}},{"name":"Volkmar-Stoy-Str.","postalCode":"04523","locality":"Pegau","municipality":{"key":"14729350","name":"Pegau, Stadt","type":"Stadt"},"district":{"key":"14729","name":"Leipzig","type":"Landkreis"},"federalState":{"key":"14","name":"Sachsen"}},{"name":"Vorwerk","postalCode":"04523","locality":"Pegau","municipality":{"key":"14729350","name":"Pegau, Stadt","type":"Stadt"},"district":{"key":"14729","name":"Leipzig","type":"Landkreis"},"federalState":{"key":"14","name":"Sachsen"}},{"name":"Wachenheimer Str.","postalCode":"04523","locality":"Pegau","municipality":{"key":"14729350","name":"Pegau, Stadt","type":"Stadt"},"district":{"key":"14729","name":"Leipzig","type":"Landkreis"},"federalState":{"key":"14","name":"Sachsen"}},{"name":"Wasserturmstr.","postalCode":"04523","locality":"Pegau","municipality":{"key":"14729350","name":"Pegau, Stadt","type":"Stadt"},"district":{"key":"14729","name":"Leipzig","type":"Landkreis"},"federalState":{"key":"14","name":"Sachsen"}},{"name":"Webergasse","postalCode":"04523","locality":"Pegau","municipality":{"key":"14729350","name":"Pegau, Stadt","type":"Stadt"},"district":{"key":"14729","name":"Leipzig","type":"Landkreis"},"federalState":{"key":"14","name":"Sachsen"}},{"name":"Weberplatz","postalCode":"04523","locality":"Pegau","municipality":{"key":"14729350","name":"Pegau, Stadt","type":"Stadt"},"district":{"key":"14729","name":"Leipzig","type":"Landkreis"},"federalState":{"key":"14","name":"Sachsen"}},{"name":"Weidenweg","postalCode":"04523","locality":"Pegau","municipality":{"key":"14729350","name":"Pegau, Stadt","type":"Stadt"},"district":{"key":"14729","name":"Leipzig","type":"Landkreis"},"federalState":{"key":"14","name":"Sachsen"}},{"name":"Weiderodaer Weg","postalCode":"04523","locality":"Pegau","municipality":{"key":"14729350","name":"Pegau, Stadt","type":"Stadt"},"district":{"key":"14729","name":"Leipzig","type":"Landkreis"},"federalState":{"key":"14","name":"Sachsen"}},{"name":"Windmühlenweg","postalCode":"04523","locality":"Pegau","municipality":{"key":"14729350","name":"Pegau, Stadt","type":"Stadt"},"district":{"key":"14729","name":"Leipzig","type":"Landkreis"},"federalState":{"key":"14","name":"Sachsen"}},{"name":"Yorck-Diebitsch-Str.","postalCode":"04178","locality":"Leipzig","municipality":{"key":"14713000","name":"Leipzig, Stadt","type":"Kreisfreie_Stadt"},"district":{"key":"14713","name":"Leipzig, Stadt","type":"Kreisfreie_Stadt"},"federalState":{"key":"14","name":"Sachsen"}},{"name":"Yorckstr.","postalCode":"04159","locality":"Leipzig","municipality":{"key":"14713000","name":"Leipzig, Stadt","type":"Kreisfreie_Stadt"},"district":{"key":"14713","name":"Leipzig, Stadt","type":"Kreisfreie_Stadt"},"federalState":{"key":"14","name":"Sachsen"}},{"name":"Yuccaweg","postalCode":"04155","locality":"Leipzig","municipality":{"key":"14713000","name":"Leipzig, Stadt","type":"Kreisfreie_Stadt"},"district":{"key":"14713","name":"Leipzig, Stadt","type":"Kreisfreie_Stadt"},"federalState":{"key":"14","name":"Sachsen"}},{"name":"Zauschwitzer Str.","postalCode":"04523","locality":"Pegau","municipality":{"key":"14729350","name":"Pegau, Stadt","type":"Stadt"},"district":{"key":"14729","name":"Leipzig","type":"Landkreis"},"federalState":{"key":"14","name":"Sachsen"}},{"name":"Zauschwitzer Weg","postalCode":"04523","locality":"Pegau","municipality":{"key":"14729350","name":"Pegau, Stadt","type":"Stadt"},"district":{"key":"14729","name":"Leipzig","type":"Landkreis"},"federalState":{"key":"14","name":"Sachsen"}},{"name":"Zeisigweg","postalCode":"04523","locality":"Pegau","municipality":{"key":"14729350","name":"Pegau, Stadt","type":"Stadt"},"district":{"key":"14729","name":"Leipzig","type":"Landkreis"},"federalState":{"key":"14","name":"Sachsen"}},{"name":"Zeitzer Str.","postalCode":"04523","locality":"Pegau","municipality":{"key":"14729350","name":"Pegau, Stadt","type":"Stadt"},"district":{"key":"14729","name":"Leipzig","type":"Landkreis"},"federalState":{"key":"14","name":"Sachsen"}},{"name":"Zum Anger","postalCode":"04523","locality":"Pegau","municipality":{"key":"14729350","name":"Pegau, Stadt","type":"Stadt"},"district":{"key":"14729","name":"Leipzig","type":"Landkreis"},"federalState":{"key":"14","name":"Sachsen"}},{"name":"Zum Köhler","postalCode":"04523","locality":"Pegau","municipality":{"key":"14729350","name":"Pegau, Stadt","type":"Stadt"},"district":{"key":"14729","name":"Leipzig","type":"Landkreis"},"federalState":{"key":"14","name":"Sachsen"}},{"name":"Zum Monarchenhügel","postalCode":"04523","locality":"Pegau","municipality":{"key":"14729350","name":"Pegau, Stadt","type":"Stadt"},"district":{"key":"14729","name":"Leipzig","type":"Landkreis"},"federalState":{"key":"14","name":"Sachsen"}},{"name":"Zum Rundling","postalCode":"04523","locality":"Pegau","municipality":{"key":"14729350","name":"Pegau, Stadt","type":"Stadt"},"district":{"key":"14729","name":"Leipzig","type":"Landkreis"},"federalState":{"key":"14","name":"Sachsen"}},{"name":"Zur Heide","postalCode":"04523","locality":"Pegau","municipality":{"key":"14729350","name":"Pegau, Stadt","type":"Stadt"},"district":{"key":"14729","name":"Leipzig","type":"Landkreis"},"federalState":{"key":"14","name":"Sachsen"}},{"name":"Zur Lehmgrube","postalCode":"04523","locality":"Pegau","municipality":{"key":"14729350","name":"Pegau, Stadt","type":"Stadt"},"district":{"key":"14729","name":"Leipzig","type":"Landkreis"},"federalState":{"key":"14","name":"Sachsen"}},{"name":"Zur Mühle","postalCode":"04523","locality":"Pegau","municipality":{"key":"14729350","name":"Pegau, Stadt","type":"Stadt"},"district":{"key":"14729","name":"Leipzig","type":"Landkreis"},"federalState":{"key":"14","name":"Sachsen"}},{"name":"Zur Schloßfabrik","postalCode":"04523","locality":"Pegau","municipality":{"key":"14729350","name":"Pegau, Stadt","type":"Stadt"},"district":{"key":"14729","name":"Leipzig","type":"Landkreis"},"federalState":{"key":"14","name":"Sachsen"}},{"name":"Äußere Auenblickstr.","postalCode":"04159","locality":"Leipzig","municipality":{"key":"14713000","name":"Leipzig, Stadt","type":"Kreisfreie_Stadt"},"district":{"key":"14713","name":"Leipzig, Stadt","type":"Kreisfreie_Stadt"},"federalState":{"key":"14","name":"Sachsen"}},{"name":"Äußere Friedrich-Naumann-Str.","postalCode":"04158","locality":"Leipzig","municipality":{"key":"14713000","name":"Leipzig, Stadt","type":"Kreisfreie_Stadt"},"district":{"key":"14713","name":"Leipzig, Stadt","type":"Kreisfreie_Stadt"},"federalState":{"key":"14","name":"Sachsen"}},{"name":"Äußere Mühlenstr.","postalCode":"04159","locality":"Leipzig","municipality":{"key":"14713000","name":"Leipzig, Stadt","type":"Kreisfreie_Stadt"},"district":{"key":"14713","name":"Leipzig, Stadt","type":"Kreisfreie_Stadt"},"federalState":{"key":"14","name":"Sachsen"}},{"name":"Äußere Raustr.","postalCode":"04158","locality":"Leipzig","municipality":{"key":"14713000","name":"Leipzig, Stadt","type":"Kreisfreie_Stadt"},"district":{"key":"14713","name":"Leipzig, Stadt","type":"Kreisfreie_Stadt"},"federalState":{"key":"14","name":"Sachsen"}},{"name":"Äußerer Zeisigweg","postalCode":"04158","locality":"Leipzig","municipality":{"key":"14713000","name":"Leipzig, Stadt","type":"Kreisfreie_Stadt"},"district":{"key":"14713","name":"Leipzig, Stadt","type":"Kreisfreie_Stadt"},"federalState":{"key":"14","name":"Sachsen"}},{"name":"Ölhafenstr.","postalCode":"04159","locality":"Leipzig","municipality":{"key":"14713000","name":"Leipzig, Stadt","type":"Kreisfreie_Stadt"},"district":{"key":"14713","name":"Leipzig, Stadt","type":"Kreisfreie_Stadt"},"federalState":{"key":"14","name":"Sachsen"}},{"name":"Österreicherweg","postalCode":"04289","locality":"Leipzig","municipality":{"key":"14713000","name":"Leipzig, Stadt","type":"Kreisfreie_Stadt"},"district":{"key":"14713","name":"Leipzig, Stadt","type":"Kreisfreie_Stadt"},"federalState":{"key":"14","name":"Sachsen"}},]