[{"name":"Achtern Strand","postalCode":"25946","locality":"Wittdün auf Amrum","municipality":{"key":"01054160","name":"Wittdün auf Amrum","type":"Kreisangehörige_Gemeinde"},"district":{"key":"01054","name":"Nordfriesland","type":"Kreis"},"federalState":{"key":"01","name":"Schleswig-Holstein"}},{"name":"Am Deich","postalCode":"25946","locality":"Wittdün auf Amrum","municipality":{"key":"01054160","name":"Wittdün auf Amrum","type":"Kreisangehörige_Gemeinde"},"district":{"key":"01054","name":"Nordfriesland","type":"Kreis"},"federalState":{"key":"01","name":"Schleswig-Holstein"}},{"name":"Am Schwimmbad","postalCode":"25946","locality":"Wittdün auf Amrum","municipality":{"key":"01054160","name":"Wittdün auf Amrum","type":"Kreisangehörige_Gemeinde"},"district":{"key":"01054","name":"Nordfriesland","type":"Kreis"},"federalState":{"key":"01","name":"Schleswig-Holstein"}},{"name":"Bohlenweg","postalCode":"25946","locality":"Wittdün auf Amrum","municipality":{"key":"01054160","name":"Wittdün auf Amrum","type":"Kreisangehörige_Gemeinde"},"district":{"key":"01054","name":"Nordfriesland","type":"Kreis"},"federalState":{"key":"01","name":"Schleswig-Holstein"}},{"name":"Dünenweg","postalCode":"25946","locality":"Wittdün auf Amrum","municipality":{"key":"01054160","name":"Wittdün auf Amrum","type":"Kreisangehörige_Gemeinde"},"district":{"key":"01054","name":"Nordfriesland","type":"Kreis"},"federalState":{"key":"01","name":"Schleswig-Holstein"}},{"name":"Inselstr.","postalCode":"25946","locality":"Wittdün auf Amrum","municipality":{"key":"01054160","name":"Wittdün auf Amrum","type":"Kreisangehörige_Gemeinde"},"district":{"key":"01054","name":"Nordfriesland","type":"Kreis"},"federalState":{"key":"01","name":"Schleswig-Holstein"}},{"name":"Kiefernweg","postalCode":"25946","locality":"Wittdün auf Amrum","municipality":{"key":"01054160","name":"Wittdün auf Amrum","type":"Kreisangehörige_Gemeinde"},"district":{"key":"01054","name":"Nordfriesland","type":"Kreis"},"federalState":{"key":"01","name":"Schleswig-Holstein"}},{"name":"Köhns Übergang","postalCode":"25946","locality":"Wittdün auf Amrum","municipality":{"key":"01054160","name":"Wittdün auf Amrum","type":"Kreisangehörige_Gemeinde"},"district":{"key":"01054","name":"Nordfriesland","type":"Kreis"},"federalState":{"key":"01","name":"Schleswig-Holstein"}},{"name":"Kurpark","postalCode":"25946","locality":"Wittdün auf Amrum","municipality":{"key":"01054160","name":"Wittdün auf Amrum","type":"Kreisangehörige_Gemeinde"},"district":{"key":"01054","name":"Nordfriesland","type":"Kreis"},"federalState":{"key":"01","name":"Schleswig-Holstein"}},{"name":"Mittelstr.","postalCode":"25946","locality":"Wittdün auf Amrum","municipality":{"key":"01054160","name":"Wittdün auf Amrum","type":"Kreisangehörige_Gemeinde"},"district":{"key":"01054","name":"Nordfriesland","type":"Kreis"},"federalState":{"key":"01","name":"Schleswig-Holstein"}},{"name":"Möwenweg","postalCode":"25946","locality":"Wittdün auf Amrum","municipality":{"key":"01054160","name":"Wittdün auf Amrum","type":"Kreisangehörige_Gemeinde"},"district":{"key":"01054","name":"Nordfriesland","type":"Kreis"},"federalState":{"key":"01","name":"Schleswig-Holstein"}},{"name":"Passatweg","postalCode":"25946","locality":"Wittdün auf Amrum","municipality":{"key":"01054160","name":"Wittdün auf Amrum","type":"Kreisangehörige_Gemeinde"},"district":{"key":"01054","name":"Nordfriesland","type":"Kreis"},"federalState":{"key":"01","name":"Schleswig-Holstein"}},{"name":"Strandstr.","postalCode":"25946","locality":"Wittdün auf Amrum","municipality":{"key":"01054160","name":"Wittdün auf Amrum","type":"Kreisangehörige_Gemeinde"},"district":{"key":"01054","name":"Nordfriesland","type":"Kreis"},"federalState":{"key":"01","name":"Schleswig-Holstein"}},{"name":"Südspitze","postalCode":"25946","locality":"Wittdün auf Amrum","municipality":{"key":"01054160","name":"Wittdün auf Amrum","type":"Kreisangehörige_Gemeinde"},"district":{"key":"01054","name":"Nordfriesland","type":"Kreis"},"federalState":{"key":"01","name":"Schleswig-Holstein"}},{"name":"Tidenweg","postalCode":"25946","locality":"Wittdün auf Amrum","municipality":{"key":"01054160","name":"Wittdün auf Amrum","type":"Kreisangehörige_Gemeinde"},"district":{"key":"01054","name":"Nordfriesland","type":"Kreis"},"federalState":{"key":"01","name":"Schleswig-Holstein"}},{"name":"Untere Wandelbahn","postalCode":"25946","locality":"Wittdün auf Amrum","municipality":{"key":"01054160","name":"Wittdün auf Amrum","type":"Kreisangehörige_Gemeinde"},"district":{"key":"01054","name":"Nordfriesland","type":"Kreis"},"federalState":{"key":"01","name":"Schleswig-Holstein"}},{"name":"Volkert-Quedens-Str.","postalCode":"25946","locality":"Wittdün auf Amrum","municipality":{"key":"01054160","name":"Wittdün auf Amrum","type":"Kreisangehörige_Gemeinde"},"district":{"key":"01054","name":"Nordfriesland","type":"Kreis"},"federalState":{"key":"01","name":"Schleswig-Holstein"}},{"name":"Westerende","postalCode":"25946","locality":"Wittdün auf Amrum","municipality":{"key":"01054160","name":"Wittdün auf Amrum","type":"Kreisangehörige_Gemeinde"},"district":{"key":"01054","name":"Nordfriesland","type":"Kreis"},"federalState":{"key":"01","name":"Schleswig-Holstein"}},]