[{"name":"Billacker","postalCode":"67681","locality":"Wartenberg-Rohrbach","municipality":{"key":"07333080","name":"Wartenberg-Rohrbach","type":"Kreisangehörige_Gemeinde"},"district":{"key":"07333","name":"Donnersbergkreis","type":"Landkreis"},"federalState":{"key":"07","name":"Rheinland-Pfalz"}},{"name":"Burgweg","postalCode":"67681","locality":"Wartenberg-Rohrbach","municipality":{"key":"07333080","name":"Wartenberg-Rohrbach","type":"Kreisangehörige_Gemeinde"},"district":{"key":"07333","name":"Donnersbergkreis","type":"Landkreis"},"federalState":{"key":"07","name":"Rheinland-Pfalz"}},{"name":"Finkenberg","postalCode":"67681","locality":"Wartenberg-Rohrbach","municipality":{"key":"07333080","name":"Wartenberg-Rohrbach","type":"Kreisangehörige_Gemeinde"},"district":{"key":"07333","name":"Donnersbergkreis","type":"Landkreis"},"federalState":{"key":"07","name":"Rheinland-Pfalz"}},{"name":"Hauptstr.","postalCode":"67681","locality":"Wartenberg-Rohrbach","municipality":{"key":"07333080","name":"Wartenberg-Rohrbach","type":"Kreisangehörige_Gemeinde"},"district":{"key":"07333","name":"Donnersbergkreis","type":"Landkreis"},"federalState":{"key":"07","name":"Rheinland-Pfalz"}},{"name":"Kaiserstr.","postalCode":"67681","locality":"Wartenberg-Rohrbach","municipality":{"key":"07333080","name":"Wartenberg-Rohrbach","type":"Kreisangehörige_Gemeinde"},"district":{"key":"07333","name":"Donnersbergkreis","type":"Landkreis"},"federalState":{"key":"07","name":"Rheinland-Pfalz"}},{"name":"Kirchstr.","postalCode":"67681","locality":"Wartenberg-Rohrbach","municipality":{"key":"07333080","name":"Wartenberg-Rohrbach","type":"Kreisangehörige_Gemeinde"},"district":{"key":"07333","name":"Donnersbergkreis","type":"Landkreis"},"federalState":{"key":"07","name":"Rheinland-Pfalz"}},{"name":"Krain","postalCode":"67681","locality":"Wartenberg-Rohrbach","municipality":{"key":"07333080","name":"Wartenberg-Rohrbach","type":"Kreisangehörige_Gemeinde"},"district":{"key":"07333","name":"Donnersbergkreis","type":"Landkreis"},"federalState":{"key":"07","name":"Rheinland-Pfalz"}},{"name":"Maiblumenberg","postalCode":"67681","locality":"Wartenberg-Rohrbach","municipality":{"key":"07333080","name":"Wartenberg-Rohrbach","type":"Kreisangehörige_Gemeinde"},"district":{"key":"07333","name":"Donnersbergkreis","type":"Landkreis"},"federalState":{"key":"07","name":"Rheinland-Pfalz"}},{"name":"Schanzenberg","postalCode":"67681","locality":"Wartenberg-Rohrbach","municipality":{"key":"07333080","name":"Wartenberg-Rohrbach","type":"Kreisangehörige_Gemeinde"},"district":{"key":"07333","name":"Donnersbergkreis","type":"Landkreis"},"federalState":{"key":"07","name":"Rheinland-Pfalz"}},{"name":"Schloßberg","postalCode":"67681","locality":"Wartenberg-Rohrbach","municipality":{"key":"07333080","name":"Wartenberg-Rohrbach","type":"Kreisangehörige_Gemeinde"},"district":{"key":"07333","name":"Donnersbergkreis","type":"Landkreis"},"federalState":{"key":"07","name":"Rheinland-Pfalz"}},{"name":"Teichberg","postalCode":"67681","locality":"Wartenberg-Rohrbach","municipality":{"key":"07333080","name":"Wartenberg-Rohrbach","type":"Kreisangehörige_Gemeinde"},"district":{"key":"07333","name":"Donnersbergkreis","type":"Landkreis"},"federalState":{"key":"07","name":"Rheinland-Pfalz"}},{"name":"Weiherstr.","postalCode":"67681","locality":"Wartenberg-Rohrbach","municipality":{"key":"07333080","name":"Wartenberg-Rohrbach","type":"Kreisangehörige_Gemeinde"},"district":{"key":"07333","name":"Donnersbergkreis","type":"Landkreis"},"federalState":{"key":"07","name":"Rheinland-Pfalz"}},]