[{"name":"Ahornweg","postalCode":"85416","locality":"Langenbach","municipality":{"key":"09178138","name":"Langenbach","type":"Kreisangehörige_Gemeinde"},"district":{"key":"09178","name":"Freising","type":"Landkreis"},"federalState":{"key":"09","name":"Bayern"}},{"name":"Am Biehl","postalCode":"55776","locality":"Berglangenbach","municipality":{"key":"07134007","name":"Berglangenbach","type":"Kreisangehörige_Gemeinde"},"district":{"key":"07134","name":"Birkenfeld","type":"Landkreis"},"federalState":{"key":"07","name":"Rheinland-Pfalz"}},{"name":"Am Breitstück","postalCode":"57520","locality":"Langenbach bei Kirburg","municipality":{"key":"07143253","name":"Langenbach bei Kirburg","type":"Kreisangehörige_Gemeinde"},"district":{"key":"07143","name":"Westerwaldkreis","type":"Landkreis"},"federalState":{"key":"07","name":"Rheinland-Pfalz"}},{"name":"Am Fuchsberg","postalCode":"85416","locality":"Langenbach","municipality":{"key":"09178138","name":"Langenbach","type":"Kreisangehörige_Gemeinde"},"district":{"key":"09178","name":"Freising","type":"Landkreis"},"federalState":{"key":"09","name":"Bayern"}},{"name":"Am Gries","postalCode":"85416","locality":"Langenbach","municipality":{"key":"09178138","name":"Langenbach","type":"Kreisangehörige_Gemeinde"},"district":{"key":"09178","name":"Freising","type":"Landkreis"},"federalState":{"key":"09","name":"Bayern"}},{"name":"Am Hetzelberg","postalCode":"66909","locality":"Langenbach","municipality":{"key":"07336056","name":"Langenbach","type":"Kreisangehörige_Gemeinde"},"district":{"key":"07336","name":"Kusel","type":"Landkreis"},"federalState":{"key":"07","name":"Rheinland-Pfalz"}},{"name":"Am Höfchen","postalCode":"55776","locality":"Berglangenbach","municipality":{"key":"07134007","name":"Berglangenbach","type":"Kreisangehörige_Gemeinde"},"district":{"key":"07134","name":"Birkenfeld","type":"Landkreis"},"federalState":{"key":"07","name":"Rheinland-Pfalz"}},{"name":"Am Rastberg","postalCode":"85416","locality":"Langenbach","municipality":{"key":"09178138","name":"Langenbach","type":"Kreisangehörige_Gemeinde"},"district":{"key":"09178","name":"Freising","type":"Landkreis"},"federalState":{"key":"09","name":"Bayern"}},{"name":"Am Scheuerchen","postalCode":"57520","locality":"Langenbach bei Kirburg","municipality":{"key":"07143253","name":"Langenbach bei Kirburg","type":"Kreisangehörige_Gemeinde"},"district":{"key":"07143","name":"Westerwaldkreis","type":"Landkreis"},"federalState":{"key":"07","name":"Rheinland-Pfalz"}},{"name":"Amselweg","postalCode":"85416","locality":"Langenbach","municipality":{"key":"09178138","name":"Langenbach","type":"Kreisangehörige_Gemeinde"},"district":{"key":"09178","name":"Freising","type":"Landkreis"},"federalState":{"key":"09","name":"Bayern"}},{"name":"Am Sonnenberg","postalCode":"66909","locality":"Langenbach","municipality":{"key":"07336056","name":"Langenbach","type":"Kreisangehörige_Gemeinde"},"district":{"key":"07336","name":"Kusel","type":"Landkreis"},"federalState":{"key":"07","name":"Rheinland-Pfalz"}},{"name":"Am Steinrücken","postalCode":"57520","locality":"Langenbach bei Kirburg","municipality":{"key":"07143253","name":"Langenbach bei Kirburg","type":"Kreisangehörige_Gemeinde"},"district":{"key":"07143","name":"Westerwaldkreis","type":"Landkreis"},"federalState":{"key":"07","name":"Rheinland-Pfalz"}},{"name":"An der Dobelbreite","postalCode":"85416","locality":"Langenbach","municipality":{"key":"09178138","name":"Langenbach","type":"Kreisangehörige_Gemeinde"},"district":{"key":"09178","name":"Freising","type":"Landkreis"},"federalState":{"key":"09","name":"Bayern"}},{"name":"An der Mühle","postalCode":"85416","locality":"Langenbach","municipality":{"key":"09178138","name":"Langenbach","type":"Kreisangehörige_Gemeinde"},"district":{"key":"09178","name":"Freising","type":"Landkreis"},"federalState":{"key":"09","name":"Bayern"}},{"name":"Angerstr.","postalCode":"85416","locality":"Langenbach","municipality":{"key":"09178138","name":"Langenbach","type":"Kreisangehörige_Gemeinde"},"district":{"key":"09178","name":"Freising","type":"Landkreis"},"federalState":{"key":"09","name":"Bayern"}},{"name":"Asenkofen","postalCode":"85416","locality":"Langenbach","municipality":{"key":"09178138","name":"Langenbach","type":"Kreisangehörige_Gemeinde"},"district":{"key":"09178","name":"Freising","type":"Landkreis"},"federalState":{"key":"09","name":"Bayern"}},{"name":"Asternweg","postalCode":"85416","locality":"Langenbach","municipality":{"key":"09178138","name":"Langenbach","type":"Kreisangehörige_Gemeinde"},"district":{"key":"09178","name":"Freising","type":"Landkreis"},"federalState":{"key":"09","name":"Bayern"}},{"name":"Auenstr.","postalCode":"85416","locality":"Langenbach","municipality":{"key":"09178138","name":"Langenbach","type":"Kreisangehörige_Gemeinde"},"district":{"key":"09178","name":"Freising","type":"Landkreis"},"federalState":{"key":"09","name":"Bayern"}},{"name":"Auf den Überwiesen","postalCode":"66909","locality":"Langenbach","municipality":{"key":"07336056","name":"Langenbach","type":"Kreisangehörige_Gemeinde"},"district":{"key":"07336","name":"Kusel","type":"Landkreis"},"federalState":{"key":"07","name":"Rheinland-Pfalz"}},{"name":"Bahnhofstr.","postalCode":"85416","locality":"Langenbach","municipality":{"key":"09178138","name":"Langenbach","type":"Kreisangehörige_Gemeinde"},"district":{"key":"09178","name":"Freising","type":"Landkreis"},"federalState":{"key":"09","name":"Bayern"}},{"name":"Bergstr.","postalCode":"55776","locality":"Berglangenbach","municipality":{"key":"07134007","name":"Berglangenbach","type":"Kreisangehörige_Gemeinde"},"district":{"key":"07134","name":"Birkenfeld","type":"Landkreis"},"federalState":{"key":"07","name":"Rheinland-Pfalz"}},{"name":"Bergstr.","postalCode":"57520","locality":"Langenbach bei Kirburg","municipality":{"key":"07143253","name":"Langenbach bei Kirburg","type":"Kreisangehörige_Gemeinde"},"district":{"key":"07143","name":"Westerwaldkreis","type":"Landkreis"},"federalState":{"key":"07","name":"Rheinland-Pfalz"}},{"name":"Bergstr.","postalCode":"66909","locality":"Langenbach","municipality":{"key":"07336056","name":"Langenbach","type":"Kreisangehörige_Gemeinde"},"district":{"key":"07336","name":"Kusel","type":"Landkreis"},"federalState":{"key":"07","name":"Rheinland-Pfalz"}},{"name":"Bergstr.","postalCode":"85416","locality":"Langenbach","municipality":{"key":"09178138","name":"Langenbach","type":"Kreisangehörige_Gemeinde"},"district":{"key":"09178","name":"Freising","type":"Landkreis"},"federalState":{"key":"09","name":"Bayern"}},{"name":"Betzdorfer Str.","postalCode":"57520","locality":"Langenbach bei Kirburg","municipality":{"key":"07143253","name":"Langenbach bei Kirburg","type":"Kreisangehörige_Gemeinde"},"district":{"key":"07143","name":"Westerwaldkreis","type":"Landkreis"},"federalState":{"key":"07","name":"Rheinland-Pfalz"}},{"name":"Birkenstr.","postalCode":"85416","locality":"Langenbach","municipality":{"key":"09178138","name":"Langenbach","type":"Kreisangehörige_Gemeinde"},"district":{"key":"09178","name":"Freising","type":"Landkreis"},"federalState":{"key":"09","name":"Bayern"}},{"name":"Blütenweg","postalCode":"85416","locality":"Langenbach","municipality":{"key":"09178138","name":"Langenbach","type":"Kreisangehörige_Gemeinde"},"district":{"key":"09178","name":"Freising","type":"Landkreis"},"federalState":{"key":"09","name":"Bayern"}},{"name":"Bogenstr.","postalCode":"57520","locality":"Langenbach bei Kirburg","municipality":{"key":"07143253","name":"Langenbach bei Kirburg","type":"Kreisangehörige_Gemeinde"},"district":{"key":"07143","name":"Westerwaldkreis","type":"Landkreis"},"federalState":{"key":"07","name":"Rheinland-Pfalz"}},{"name":"Borkelstr.","postalCode":"66909","locality":"Langenbach","municipality":{"key":"07336056","name":"Langenbach","type":"Kreisangehörige_Gemeinde"},"district":{"key":"07336","name":"Kusel","type":"Landkreis"},"federalState":{"key":"07","name":"Rheinland-Pfalz"}},{"name":"Bornstr.","postalCode":"66909","locality":"Langenbach","municipality":{"key":"07336056","name":"Langenbach","type":"Kreisangehörige_Gemeinde"},"district":{"key":"07336","name":"Kusel","type":"Landkreis"},"federalState":{"key":"07","name":"Rheinland-Pfalz"}},{"name":"Brückenstr.","postalCode":"66909","locality":"Langenbach","municipality":{"key":"07336056","name":"Langenbach","type":"Kreisangehörige_Gemeinde"},"district":{"key":"07336","name":"Kusel","type":"Landkreis"},"federalState":{"key":"07","name":"Rheinland-Pfalz"}},{"name":"Brunnenstr.","postalCode":"66909","locality":"Langenbach","municipality":{"key":"07336056","name":"Langenbach","type":"Kreisangehörige_Gemeinde"},"district":{"key":"07336","name":"Kusel","type":"Landkreis"},"federalState":{"key":"07","name":"Rheinland-Pfalz"}},{"name":"Buchenstr.","postalCode":"85416","locality":"Langenbach","municipality":{"key":"09178138","name":"Langenbach","type":"Kreisangehörige_Gemeinde"},"district":{"key":"09178","name":"Freising","type":"Landkreis"},"federalState":{"key":"09","name":"Bayern"}},{"name":"Christian-Böhmer-Weg","postalCode":"66869","locality":"Kusel","municipality":{"key":"07336055","name":"Kusel, Stadt","type":"Stadt"},"district":{"key":"07336","name":"Kusel","type":"Landkreis"},"federalState":{"key":"07","name":"Rheinland-Pfalz"}},{"name":"Dobelstr.","postalCode":"85416","locality":"Langenbach","municipality":{"key":"09178138","name":"Langenbach","type":"Kreisangehörige_Gemeinde"},"district":{"key":"09178","name":"Freising","type":"Landkreis"},"federalState":{"key":"09","name":"Bayern"}},{"name":"Dorfstr.","postalCode":"85416","locality":"Langenbach","municipality":{"key":"09178138","name":"Langenbach","type":"Kreisangehörige_Gemeinde"},"district":{"key":"09178","name":"Freising","type":"Landkreis"},"federalState":{"key":"09","name":"Bayern"}},{"name":"Drosselstr.","postalCode":"85416","locality":"Langenbach","municipality":{"key":"09178138","name":"Langenbach","type":"Kreisangehörige_Gemeinde"},"district":{"key":"09178","name":"Freising","type":"Landkreis"},"federalState":{"key":"09","name":"Bayern"}},{"name":"Eibenstr.","postalCode":"85416","locality":"Langenbach","municipality":{"key":"09178138","name":"Langenbach","type":"Kreisangehörige_Gemeinde"},"district":{"key":"09178","name":"Freising","type":"Landkreis"},"federalState":{"key":"09","name":"Bayern"}},{"name":"Eichenstr.","postalCode":"85416","locality":"Langenbach","municipality":{"key":"09178138","name":"Langenbach","type":"Kreisangehörige_Gemeinde"},"district":{"key":"09178","name":"Freising","type":"Landkreis"},"federalState":{"key":"09","name":"Bayern"}},{"name":"Eichlbrunnstr.","postalCode":"85416","locality":"Langenbach","municipality":{"key":"09178138","name":"Langenbach","type":"Kreisangehörige_Gemeinde"},"district":{"key":"09178","name":"Freising","type":"Landkreis"},"federalState":{"key":"09","name":"Bayern"}},{"name":"Erlenstr.","postalCode":"85416","locality":"Langenbach","municipality":{"key":"09178138","name":"Langenbach","type":"Kreisangehörige_Gemeinde"},"district":{"key":"09178","name":"Freising","type":"Landkreis"},"federalState":{"key":"09","name":"Bayern"}},{"name":"Eschenstr.","postalCode":"85416","locality":"Langenbach","municipality":{"key":"09178138","name":"Langenbach","type":"Kreisangehörige_Gemeinde"},"district":{"key":"09178","name":"Freising","type":"Landkreis"},"federalState":{"key":"09","name":"Bayern"}},{"name":"Fahrweg","postalCode":"55776","locality":"Berglangenbach","municipality":{"key":"07134007","name":"Berglangenbach","type":"Kreisangehörige_Gemeinde"},"district":{"key":"07134","name":"Birkenfeld","type":"Landkreis"},"federalState":{"key":"07","name":"Rheinland-Pfalz"}},{"name":"Fichtenstr.","postalCode":"85416","locality":"Langenbach","municipality":{"key":"09178138","name":"Langenbach","type":"Kreisangehörige_Gemeinde"},"district":{"key":"09178","name":"Freising","type":"Landkreis"},"federalState":{"key":"09","name":"Bayern"}},{"name":"Finkenstr.","postalCode":"85416","locality":"Langenbach","municipality":{"key":"09178138","name":"Langenbach","type":"Kreisangehörige_Gemeinde"},"district":{"key":"09178","name":"Freising","type":"Landkreis"},"federalState":{"key":"09","name":"Bayern"}},{"name":"Fliederstr.","postalCode":"85416","locality":"Langenbach","municipality":{"key":"09178138","name":"Langenbach","type":"Kreisangehörige_Gemeinde"},"district":{"key":"09178","name":"Freising","type":"Landkreis"},"federalState":{"key":"09","name":"Bayern"}},{"name":"Flurstr.","postalCode":"55776","locality":"Berglangenbach","municipality":{"key":"07134007","name":"Berglangenbach","type":"Kreisangehörige_Gemeinde"},"district":{"key":"07134","name":"Birkenfeld","type":"Landkreis"},"federalState":{"key":"07","name":"Rheinland-Pfalz"}},{"name":"Freisinger Str.","postalCode":"85416","locality":"Langenbach","municipality":{"key":"09178138","name":"Langenbach","type":"Kreisangehörige_Gemeinde"},"district":{"key":"09178","name":"Freising","type":"Landkreis"},"federalState":{"key":"09","name":"Bayern"}},{"name":"Gartenstr.","postalCode":"85416","locality":"Langenbach","municipality":{"key":"09178138","name":"Langenbach","type":"Kreisangehörige_Gemeinde"},"district":{"key":"09178","name":"Freising","type":"Landkreis"},"federalState":{"key":"09","name":"Bayern"}},{"name":"Großenviecht","postalCode":"85416","locality":"Langenbach","municipality":{"key":"09178138","name":"Langenbach","type":"Kreisangehörige_Gemeinde"},"district":{"key":"09178","name":"Freising","type":"Landkreis"},"federalState":{"key":"09","name":"Bayern"}},{"name":"Großer Anger","postalCode":"85416","locality":"Langenbach","municipality":{"key":"09178138","name":"Langenbach","type":"Kreisangehörige_Gemeinde"},"district":{"key":"09178","name":"Freising","type":"Landkreis"},"federalState":{"key":"09","name":"Bayern"}},{"name":"Grünseiboldsdorfer Weg","postalCode":"85416","locality":"Langenbach","municipality":{"key":"09178138","name":"Langenbach","type":"Kreisangehörige_Gemeinde"},"district":{"key":"09178","name":"Freising","type":"Landkreis"},"federalState":{"key":"09","name":"Bayern"}},{"name":"Hagenaustr.","postalCode":"85416","locality":"Langenbach","municipality":{"key":"09178138","name":"Langenbach","type":"Kreisangehörige_Gemeinde"},"district":{"key":"09178","name":"Freising","type":"Landkreis"},"federalState":{"key":"09","name":"Bayern"}},{"name":"Hangstr.","postalCode":"85416","locality":"Langenbach","municipality":{"key":"09178138","name":"Langenbach","type":"Kreisangehörige_Gemeinde"},"district":{"key":"09178","name":"Freising","type":"Landkreis"},"federalState":{"key":"09","name":"Bayern"}},{"name":"Hauptstr.","postalCode":"55776","locality":"Berglangenbach","municipality":{"key":"07134007","name":"Berglangenbach","type":"Kreisangehörige_Gemeinde"},"district":{"key":"07134","name":"Birkenfeld","type":"Landkreis"},"federalState":{"key":"07","name":"Rheinland-Pfalz"}},{"name":"Hauptstr.","postalCode":"57520","locality":"Langenbach bei Kirburg","municipality":{"key":"07143253","name":"Langenbach bei Kirburg","type":"Kreisangehörige_Gemeinde"},"district":{"key":"07143","name":"Westerwaldkreis","type":"Landkreis"},"federalState":{"key":"07","name":"Rheinland-Pfalz"}},{"name":"Hauptstr.","postalCode":"66909","locality":"Langenbach","municipality":{"key":"07336056","name":"Langenbach","type":"Kreisangehörige_Gemeinde"},"district":{"key":"07336","name":"Kusel","type":"Landkreis"},"federalState":{"key":"07","name":"Rheinland-Pfalz"}},{"name":"Heckweg","postalCode":"55776","locality":"Berglangenbach","municipality":{"key":"07134007","name":"Berglangenbach","type":"Kreisangehörige_Gemeinde"},"district":{"key":"07134","name":"Birkenfeld","type":"Landkreis"},"federalState":{"key":"07","name":"Rheinland-Pfalz"}},{"name":"Heinersberger Weg","postalCode":"96365","locality":"Langenbacher Forst","municipality":{"key":"09476453","name":"Langenbacher Forst","type":"Gemeindefreies_Gebiet_Unbewohnt"},"district":{"key":"09476","name":"Kronach","type":"Landkreis"},"federalState":{"key":"09","name":"Bayern"}},{"name":"Hochstr.","postalCode":"57520","locality":"Langenbach bei Kirburg","municipality":{"key":"07143253","name":"Langenbach bei Kirburg","type":"Kreisangehörige_Gemeinde"},"district":{"key":"07143","name":"Westerwaldkreis","type":"Landkreis"},"federalState":{"key":"07","name":"Rheinland-Pfalz"}},{"name":"Höllenberg","postalCode":"55776","locality":"Berglangenbach","municipality":{"key":"07134007","name":"Berglangenbach","type":"Kreisangehörige_Gemeinde"},"district":{"key":"07134","name":"Birkenfeld","type":"Landkreis"},"federalState":{"key":"07","name":"Rheinland-Pfalz"}},{"name":"Holzweg","postalCode":"55776","locality":"Berglangenbach","municipality":{"key":"07134007","name":"Berglangenbach","type":"Kreisangehörige_Gemeinde"},"district":{"key":"07134","name":"Birkenfeld","type":"Landkreis"},"federalState":{"key":"07","name":"Rheinland-Pfalz"}},{"name":"Hubstr.","postalCode":"66909","locality":"Langenbach","municipality":{"key":"07336056","name":"Langenbach","type":"Kreisangehörige_Gemeinde"},"district":{"key":"07336","name":"Kusel","type":"Landkreis"},"federalState":{"key":"07","name":"Rheinland-Pfalz"}},{"name":"Hummler Str.","postalCode":"85416","locality":"Langenbach","municipality":{"key":"09178138","name":"Langenbach","type":"Kreisangehörige_Gemeinde"},"district":{"key":"09178","name":"Freising","type":"Landkreis"},"federalState":{"key":"09","name":"Bayern"}},{"name":"Im Großen Garten","postalCode":"57520","locality":"Langenbach bei Kirburg","municipality":{"key":"07143253","name":"Langenbach bei Kirburg","type":"Kreisangehörige_Gemeinde"},"district":{"key":"07143","name":"Westerwaldkreis","type":"Landkreis"},"federalState":{"key":"07","name":"Rheinland-Pfalz"}},{"name":"Im Wiesengrund","postalCode":"57520","locality":"Langenbach bei Kirburg","municipality":{"key":"07143253","name":"Langenbach bei Kirburg","type":"Kreisangehörige_Gemeinde"},"district":{"key":"07143","name":"Westerwaldkreis","type":"Landkreis"},"federalState":{"key":"07","name":"Rheinland-Pfalz"}},{"name":"In den Stöcken","postalCode":"57520","locality":"Langenbach bei Kirburg","municipality":{"key":"07143253","name":"Langenbach bei Kirburg","type":"Kreisangehörige_Gemeinde"},"district":{"key":"07143","name":"Westerwaldkreis","type":"Landkreis"},"federalState":{"key":"07","name":"Rheinland-Pfalz"}},{"name":"In der Lohe","postalCode":"85416","locality":"Langenbach","municipality":{"key":"09178138","name":"Langenbach","type":"Kreisangehörige_Gemeinde"},"district":{"key":"09178","name":"Freising","type":"Landkreis"},"federalState":{"key":"09","name":"Bayern"}},{"name":"In der Steinhecke","postalCode":"57520","locality":"Langenbach bei Kirburg","municipality":{"key":"07143253","name":"Langenbach bei Kirburg","type":"Kreisangehörige_Gemeinde"},"district":{"key":"07143","name":"Westerwaldkreis","type":"Landkreis"},"federalState":{"key":"07","name":"Rheinland-Pfalz"}},{"name":"Inkofener Str.","postalCode":"85416","locality":"Langenbach","municipality":{"key":"09178138","name":"Langenbach","type":"Kreisangehörige_Gemeinde"},"district":{"key":"09178","name":"Freising","type":"Landkreis"},"federalState":{"key":"09","name":"Bayern"}},{"name":"Isarstr.","postalCode":"85416","locality":"Langenbach","municipality":{"key":"09178138","name":"Langenbach","type":"Kreisangehörige_Gemeinde"},"district":{"key":"09178","name":"Freising","type":"Landkreis"},"federalState":{"key":"09","name":"Bayern"}},{"name":"Kaltenbachweg","postalCode":"85416","locality":"Langenbach","municipality":{"key":"09178138","name":"Langenbach","type":"Kreisangehörige_Gemeinde"},"district":{"key":"09178","name":"Freising","type":"Landkreis"},"federalState":{"key":"09","name":"Bayern"}},{"name":"Kastanienstr.","postalCode":"85416","locality":"Langenbach","municipality":{"key":"09178138","name":"Langenbach","type":"Kreisangehörige_Gemeinde"},"district":{"key":"09178","name":"Freising","type":"Landkreis"},"federalState":{"key":"09","name":"Bayern"}},{"name":"Kiefernstr.","postalCode":"85416","locality":"Langenbach","municipality":{"key":"09178138","name":"Langenbach","type":"Kreisangehörige_Gemeinde"},"district":{"key":"09178","name":"Freising","type":"Landkreis"},"federalState":{"key":"09","name":"Bayern"}},{"name":"Kirchenweg","postalCode":"55776","locality":"Berglangenbach","municipality":{"key":"07134007","name":"Berglangenbach","type":"Kreisangehörige_Gemeinde"},"district":{"key":"07134","name":"Birkenfeld","type":"Landkreis"},"federalState":{"key":"07","name":"Rheinland-Pfalz"}},{"name":"Kirchstr.","postalCode":"85416","locality":"Langenbach","municipality":{"key":"09178138","name":"Langenbach","type":"Kreisangehörige_Gemeinde"},"district":{"key":"09178","name":"Freising","type":"Landkreis"},"federalState":{"key":"09","name":"Bayern"}},{"name":"Kreuthstr.","postalCode":"85416","locality":"Langenbach","municipality":{"key":"09178138","name":"Langenbach","type":"Kreisangehörige_Gemeinde"},"district":{"key":"09178","name":"Freising","type":"Landkreis"},"federalState":{"key":"09","name":"Bayern"}},{"name":"Kulmbrücke","postalCode":"96365","locality":"Langenbacher Forst","municipality":{"key":"09476453","name":"Langenbacher Forst","type":"Gemeindefreies_Gebiet_Unbewohnt"},"district":{"key":"09476","name":"Kronach","type":"Landkreis"},"federalState":{"key":"09","name":"Bayern"}},{"name":"Lerchenstr.","postalCode":"85416","locality":"Langenbach","municipality":{"key":"09178138","name":"Langenbach","type":"Kreisangehörige_Gemeinde"},"district":{"key":"09178","name":"Freising","type":"Landkreis"},"federalState":{"key":"09","name":"Bayern"}},{"name":"Lindenstr.","postalCode":"85416","locality":"Langenbach","municipality":{"key":"09178138","name":"Langenbach","type":"Kreisangehörige_Gemeinde"},"district":{"key":"09178","name":"Freising","type":"Landkreis"},"federalState":{"key":"09","name":"Bayern"}},{"name":"Lindenweg","postalCode":"57520","locality":"Langenbach bei Kirburg","municipality":{"key":"07143253","name":"Langenbach bei Kirburg","type":"Kreisangehörige_Gemeinde"},"district":{"key":"07143","name":"Westerwaldkreis","type":"Landkreis"},"federalState":{"key":"07","name":"Rheinland-Pfalz"}},{"name":"Meisenstr.","postalCode":"85416","locality":"Langenbach","municipality":{"key":"09178138","name":"Langenbach","type":"Kreisangehörige_Gemeinde"},"district":{"key":"09178","name":"Freising","type":"Landkreis"},"federalState":{"key":"09","name":"Bayern"}},{"name":"Mittelweg","postalCode":"57520","locality":"Langenbach bei Kirburg","municipality":{"key":"07143253","name":"Langenbach bei Kirburg","type":"Kreisangehörige_Gemeinde"},"district":{"key":"07143","name":"Westerwaldkreis","type":"Landkreis"},"federalState":{"key":"07","name":"Rheinland-Pfalz"}},{"name":"Mitterweg","postalCode":"85416","locality":"Langenbach","municipality":{"key":"09178138","name":"Langenbach","type":"Kreisangehörige_Gemeinde"},"district":{"key":"09178","name":"Freising","type":"Landkreis"},"federalState":{"key":"09","name":"Bayern"}},{"name":"Moosburger Str.","postalCode":"85416","locality":"Langenbach","municipality":{"key":"09178138","name":"Langenbach","type":"Kreisangehörige_Gemeinde"},"district":{"key":"09178","name":"Freising","type":"Landkreis"},"federalState":{"key":"09","name":"Bayern"}},{"name":"Moosstr.","postalCode":"85416","locality":"Langenbach","municipality":{"key":"09178138","name":"Langenbach","type":"Kreisangehörige_Gemeinde"},"district":{"key":"09178","name":"Freising","type":"Landkreis"},"federalState":{"key":"09","name":"Bayern"}},{"name":"Mühlbachstr.","postalCode":"85416","locality":"Langenbach","municipality":{"key":"09178138","name":"Langenbach","type":"Kreisangehörige_Gemeinde"},"district":{"key":"09178","name":"Freising","type":"Landkreis"},"federalState":{"key":"09","name":"Bayern"}},{"name":"Nelkenweg","postalCode":"85416","locality":"Langenbach","municipality":{"key":"09178138","name":"Langenbach","type":"Kreisangehörige_Gemeinde"},"district":{"key":"09178","name":"Freising","type":"Landkreis"},"federalState":{"key":"09","name":"Bayern"}},{"name":"Nußbaumstr.","postalCode":"85416","locality":"Langenbach","municipality":{"key":"09178138","name":"Langenbach","type":"Kreisangehörige_Gemeinde"},"district":{"key":"09178","name":"Freising","type":"Landkreis"},"federalState":{"key":"09","name":"Bayern"}},{"name":"Oberbacher Str.","postalCode":"85416","locality":"Langenbach","municipality":{"key":"09178138","name":"Langenbach","type":"Kreisangehörige_Gemeinde"},"district":{"key":"09178","name":"Freising","type":"Landkreis"},"federalState":{"key":"09","name":"Bayern"}},{"name":"Oftlfinger Str.","postalCode":"85416","locality":"Langenbach","municipality":{"key":"09178138","name":"Langenbach","type":"Kreisangehörige_Gemeinde"},"district":{"key":"09178","name":"Freising","type":"Landkreis"},"federalState":{"key":"09","name":"Bayern"}},{"name":"Ortsstr.","postalCode":"85416","locality":"Langenbach","municipality":{"key":"09178138","name":"Langenbach","type":"Kreisangehörige_Gemeinde"},"district":{"key":"09178","name":"Freising","type":"Landkreis"},"federalState":{"key":"09","name":"Bayern"}},{"name":"Pfannenstielstr.","postalCode":"85416","locality":"Langenbach","municipality":{"key":"09178138","name":"Langenbach","type":"Kreisangehörige_Gemeinde"},"district":{"key":"09178","name":"Freising","type":"Landkreis"},"federalState":{"key":"09","name":"Bayern"}},{"name":"Pfarrstr.","postalCode":"85416","locality":"Langenbach","municipality":{"key":"09178138","name":"Langenbach","type":"Kreisangehörige_Gemeinde"},"district":{"key":"09178","name":"Freising","type":"Landkreis"},"federalState":{"key":"09","name":"Bayern"}},{"name":"Pfarrweg","postalCode":"85416","locality":"Langenbach","municipality":{"key":"09178138","name":"Langenbach","type":"Kreisangehörige_Gemeinde"},"district":{"key":"09178","name":"Freising","type":"Landkreis"},"federalState":{"key":"09","name":"Bayern"}},{"name":"Poststr.","postalCode":"57520","locality":"Langenbach bei Kirburg","municipality":{"key":"07143253","name":"Langenbach bei Kirburg","type":"Kreisangehörige_Gemeinde"},"district":{"key":"07143","name":"Westerwaldkreis","type":"Landkreis"},"federalState":{"key":"07","name":"Rheinland-Pfalz"}},{"name":"Raster Str.","postalCode":"85416","locality":"Langenbach","municipality":{"key":"09178138","name":"Langenbach","type":"Kreisangehörige_Gemeinde"},"district":{"key":"09178","name":"Freising","type":"Landkreis"},"federalState":{"key":"09","name":"Bayern"}},{"name":"Ringstr.","postalCode":"57520","locality":"Langenbach bei Kirburg","municipality":{"key":"07143253","name":"Langenbach bei Kirburg","type":"Kreisangehörige_Gemeinde"},"district":{"key":"07143","name":"Westerwaldkreis","type":"Landkreis"},"federalState":{"key":"07","name":"Rheinland-Pfalz"}},{"name":"Rosenstr.","postalCode":"85416","locality":"Langenbach","municipality":{"key":"09178138","name":"Langenbach","type":"Kreisangehörige_Gemeinde"},"district":{"key":"09178","name":"Freising","type":"Landkreis"},"federalState":{"key":"09","name":"Bayern"}},{"name":"Rothmaiseltal","postalCode":"96365","locality":"Langenbacher Forst","municipality":{"key":"09476453","name":"Langenbacher Forst","type":"Gemeindefreies_Gebiet_Unbewohnt"},"district":{"key":"09476","name":"Kronach","type":"Landkreis"},"federalState":{"key":"09","name":"Bayern"}},{"name":"Ruh","postalCode":"96365","locality":"Langenbacher Forst","municipality":{"key":"09476453","name":"Langenbacher Forst","type":"Gemeindefreies_Gebiet_Unbewohnt"},"district":{"key":"09476","name":"Kronach","type":"Landkreis"},"federalState":{"key":"09","name":"Bayern"}},{"name":"Schulstr.","postalCode":"66909","locality":"Langenbach","municipality":{"key":"07336056","name":"Langenbach","type":"Kreisangehörige_Gemeinde"},"district":{"key":"07336","name":"Kusel","type":"Landkreis"},"federalState":{"key":"07","name":"Rheinland-Pfalz"}},{"name":"Schulstr.","postalCode":"85416","locality":"Langenbach","municipality":{"key":"09178138","name":"Langenbach","type":"Kreisangehörige_Gemeinde"},"district":{"key":"09178","name":"Freising","type":"Landkreis"},"federalState":{"key":"09","name":"Bayern"}},{"name":"Schulweg","postalCode":"57520","locality":"Langenbach bei Kirburg","municipality":{"key":"07143253","name":"Langenbach bei Kirburg","type":"Kreisangehörige_Gemeinde"},"district":{"key":"07143","name":"Westerwaldkreis","type":"Landkreis"},"federalState":{"key":"07","name":"Rheinland-Pfalz"}},{"name":"Spechtstr.","postalCode":"85416","locality":"Langenbach","municipality":{"key":"09178138","name":"Langenbach","type":"Kreisangehörige_Gemeinde"},"district":{"key":"09178","name":"Freising","type":"Landkreis"},"federalState":{"key":"09","name":"Bayern"}},{"name":"Steimelsweg","postalCode":"57520","locality":"Langenbach bei Kirburg","municipality":{"key":"07143253","name":"Langenbach bei Kirburg","type":"Kreisangehörige_Gemeinde"},"district":{"key":"07143","name":"Westerwaldkreis","type":"Landkreis"},"federalState":{"key":"07","name":"Rheinland-Pfalz"}},{"name":"Tannenstr.","postalCode":"85416","locality":"Langenbach","municipality":{"key":"09178138","name":"Langenbach","type":"Kreisangehörige_Gemeinde"},"district":{"key":"09178","name":"Freising","type":"Landkreis"},"federalState":{"key":"09","name":"Bayern"}},{"name":"Tetertsträßchen","postalCode":"96365","locality":"Langenbacher Forst","municipality":{"key":"09476453","name":"Langenbacher Forst","type":"Gemeindefreies_Gebiet_Unbewohnt"},"district":{"key":"09476","name":"Kronach","type":"Landkreis"},"federalState":{"key":"09","name":"Bayern"}},{"name":"Tulpenstr.","postalCode":"85416","locality":"Langenbach","municipality":{"key":"09178138","name":"Langenbach","type":"Kreisangehörige_Gemeinde"},"district":{"key":"09178","name":"Freising","type":"Landkreis"},"federalState":{"key":"09","name":"Bayern"}},{"name":"Ulmenstr.","postalCode":"85416","locality":"Langenbach","municipality":{"key":"09178138","name":"Langenbach","type":"Kreisangehörige_Gemeinde"},"district":{"key":"09178","name":"Freising","type":"Landkreis"},"federalState":{"key":"09","name":"Bayern"}},{"name":"Unter den Stöcken","postalCode":"57520","locality":"Langenbach bei Kirburg","municipality":{"key":"07143253","name":"Langenbach bei Kirburg","type":"Kreisangehörige_Gemeinde"},"district":{"key":"07143","name":"Westerwaldkreis","type":"Landkreis"},"federalState":{"key":"07","name":"Rheinland-Pfalz"}},{"name":"Vor der Kirchwies","postalCode":"57520","locality":"Langenbach bei Kirburg","municipality":{"key":"07143253","name":"Langenbach bei Kirburg","type":"Kreisangehörige_Gemeinde"},"district":{"key":"07143","name":"Westerwaldkreis","type":"Landkreis"},"federalState":{"key":"07","name":"Rheinland-Pfalz"}},{"name":"Waldstr.","postalCode":"57520","locality":"Langenbach bei Kirburg","municipality":{"key":"07143253","name":"Langenbach bei Kirburg","type":"Kreisangehörige_Gemeinde"},"district":{"key":"07143","name":"Westerwaldkreis","type":"Landkreis"},"federalState":{"key":"07","name":"Rheinland-Pfalz"}},{"name":"Waldstr.","postalCode":"85416","locality":"Langenbach","municipality":{"key":"09178138","name":"Langenbach","type":"Kreisangehörige_Gemeinde"},"district":{"key":"09178","name":"Freising","type":"Landkreis"},"federalState":{"key":"09","name":"Bayern"}},{"name":"Waldweg","postalCode":"66909","locality":"Langenbach","municipality":{"key":"07336056","name":"Langenbach","type":"Kreisangehörige_Gemeinde"},"district":{"key":"07336","name":"Kusel","type":"Landkreis"},"federalState":{"key":"07","name":"Rheinland-Pfalz"}},{"name":"Weidenstr.","postalCode":"85416","locality":"Langenbach","municipality":{"key":"09178138","name":"Langenbach","type":"Kreisangehörige_Gemeinde"},"district":{"key":"09178","name":"Freising","type":"Landkreis"},"federalState":{"key":"09","name":"Bayern"}},{"name":"Wiesenstr.","postalCode":"57520","locality":"Langenbach bei Kirburg","municipality":{"key":"07143253","name":"Langenbach bei Kirburg","type":"Kreisangehörige_Gemeinde"},"district":{"key":"07143","name":"Westerwaldkreis","type":"Landkreis"},"federalState":{"key":"07","name":"Rheinland-Pfalz"}},{"name":"Wiesenstr.","postalCode":"66909","locality":"Langenbach","municipality":{"key":"07336056","name":"Langenbach","type":"Kreisangehörige_Gemeinde"},"district":{"key":"07336","name":"Kusel","type":"Landkreis"},"federalState":{"key":"07","name":"Rheinland-Pfalz"}},{"name":"Wiesenstr.","postalCode":"85416","locality":"Langenbach","municipality":{"key":"09178138","name":"Langenbach","type":"Kreisangehörige_Gemeinde"},"district":{"key":"09178","name":"Freising","type":"Landkreis"},"federalState":{"key":"09","name":"Bayern"}},{"name":"Windham","postalCode":"85416","locality":"Langenbach","municipality":{"key":"09178138","name":"Langenbach","type":"Kreisangehörige_Gemeinde"},"district":{"key":"09178","name":"Freising","type":"Landkreis"},"federalState":{"key":"09","name":"Bayern"}},{"name":"Wirtsanger","postalCode":"85416","locality":"Langenbach","municipality":{"key":"09178138","name":"Langenbach","type":"Kreisangehörige_Gemeinde"},"district":{"key":"09178","name":"Freising","type":"Landkreis"},"federalState":{"key":"09","name":"Bayern"}},{"name":"Zur Holzwiese","postalCode":"57520","locality":"Langenbach bei Kirburg","municipality":{"key":"07143253","name":"Langenbach bei Kirburg","type":"Kreisangehörige_Gemeinde"},"district":{"key":"07143","name":"Westerwaldkreis","type":"Landkreis"},"federalState":{"key":"07","name":"Rheinland-Pfalz"}},{"name":"Zur Krautmauer","postalCode":"57520","locality":"Langenbach bei Kirburg","municipality":{"key":"07143253","name":"Langenbach bei Kirburg","type":"Kreisangehörige_Gemeinde"},"district":{"key":"07143","name":"Westerwaldkreis","type":"Landkreis"},"federalState":{"key":"07","name":"Rheinland-Pfalz"}},]