[{"name":"Am Bahndamm","postalCode":"54310","locality":"Ralingen","municipality":{"key":"07235111","name":"Ralingen","type":"Kreisangehörige_Gemeinde"},"district":{"key":"07235","name":"Trier-Saarburg","type":"Landkreis"},"federalState":{"key":"07","name":"Rheinland-Pfalz"}},{"name":"Am Seitbach","postalCode":"54310","locality":"Ralingen","municipality":{"key":"07235111","name":"Ralingen","type":"Kreisangehörige_Gemeinde"},"district":{"key":"07235","name":"Trier-Saarburg","type":"Landkreis"},"federalState":{"key":"07","name":"Rheinland-Pfalz"}},{"name":"Am Sonnenhang","postalCode":"54310","locality":"Ralingen","municipality":{"key":"07235111","name":"Ralingen","type":"Kreisangehörige_Gemeinde"},"district":{"key":"07235","name":"Trier-Saarburg","type":"Landkreis"},"federalState":{"key":"07","name":"Rheinland-Pfalz"}},{"name":"Am Tennisplatz","postalCode":"54310","locality":"Ralingen","municipality":{"key":"07235111","name":"Ralingen","type":"Kreisangehörige_Gemeinde"},"district":{"key":"07235","name":"Trier-Saarburg","type":"Landkreis"},"federalState":{"key":"07","name":"Rheinland-Pfalz"}},{"name":"An der Kapelle","postalCode":"54310","locality":"Ralingen","municipality":{"key":"07235111","name":"Ralingen","type":"Kreisangehörige_Gemeinde"},"district":{"key":"07235","name":"Trier-Saarburg","type":"Landkreis"},"federalState":{"key":"07","name":"Rheinland-Pfalz"}},{"name":"Auf der Fromgasse","postalCode":"54310","locality":"Ralingen","municipality":{"key":"07235111","name":"Ralingen","type":"Kreisangehörige_Gemeinde"},"district":{"key":"07235","name":"Trier-Saarburg","type":"Landkreis"},"federalState":{"key":"07","name":"Rheinland-Pfalz"}},{"name":"Auf Ringel","postalCode":"54310","locality":"Ralingen","municipality":{"key":"07235111","name":"Ralingen","type":"Kreisangehörige_Gemeinde"},"district":{"key":"07235","name":"Trier-Saarburg","type":"Landkreis"},"federalState":{"key":"07","name":"Rheinland-Pfalz"}},{"name":"Auf Steinigt","postalCode":"54310","locality":"Ralingen","municipality":{"key":"07235111","name":"Ralingen","type":"Kreisangehörige_Gemeinde"},"district":{"key":"07235","name":"Trier-Saarburg","type":"Landkreis"},"federalState":{"key":"07","name":"Rheinland-Pfalz"}},{"name":"Auf Ulca","postalCode":"54310","locality":"Ralingen","municipality":{"key":"07235111","name":"Ralingen","type":"Kreisangehörige_Gemeinde"},"district":{"key":"07235","name":"Trier-Saarburg","type":"Landkreis"},"federalState":{"key":"07","name":"Rheinland-Pfalz"}},{"name":"Bachstr.","postalCode":"54310","locality":"Ralingen","municipality":{"key":"07235111","name":"Ralingen","type":"Kreisangehörige_Gemeinde"},"district":{"key":"07235","name":"Trier-Saarburg","type":"Landkreis"},"federalState":{"key":"07","name":"Rheinland-Pfalz"}},{"name":"Bahnhofstr.","postalCode":"54310","locality":"Ralingen","municipality":{"key":"07235111","name":"Ralingen","type":"Kreisangehörige_Gemeinde"},"district":{"key":"07235","name":"Trier-Saarburg","type":"Landkreis"},"federalState":{"key":"07","name":"Rheinland-Pfalz"}},{"name":"Breitenweg","postalCode":"54310","locality":"Ralingen","municipality":{"key":"07235111","name":"Ralingen","type":"Kreisangehörige_Gemeinde"},"district":{"key":"07235","name":"Trier-Saarburg","type":"Landkreis"},"federalState":{"key":"07","name":"Rheinland-Pfalz"}},{"name":"Brückenstr.","postalCode":"54310","locality":"Ralingen","municipality":{"key":"07235111","name":"Ralingen","type":"Kreisangehörige_Gemeinde"},"district":{"key":"07235","name":"Trier-Saarburg","type":"Landkreis"},"federalState":{"key":"07","name":"Rheinland-Pfalz"}},{"name":"Brunnenstr.","postalCode":"54310","locality":"Ralingen","municipality":{"key":"07235111","name":"Ralingen","type":"Kreisangehörige_Gemeinde"},"district":{"key":"07235","name":"Trier-Saarburg","type":"Landkreis"},"federalState":{"key":"07","name":"Rheinland-Pfalz"}},{"name":"Clemensstr.","postalCode":"54310","locality":"Ralingen","municipality":{"key":"07235111","name":"Ralingen","type":"Kreisangehörige_Gemeinde"},"district":{"key":"07235","name":"Trier-Saarburg","type":"Landkreis"},"federalState":{"key":"07","name":"Rheinland-Pfalz"}},{"name":"Echternacher Str.","postalCode":"54310","locality":"Ralingen","municipality":{"key":"07235111","name":"Ralingen","type":"Kreisangehörige_Gemeinde"},"district":{"key":"07235","name":"Trier-Saarburg","type":"Landkreis"},"federalState":{"key":"07","name":"Rheinland-Pfalz"}},{"name":"Engelsgasse","postalCode":"54310","locality":"Ralingen","municipality":{"key":"07235111","name":"Ralingen","type":"Kreisangehörige_Gemeinde"},"district":{"key":"07235","name":"Trier-Saarburg","type":"Landkreis"},"federalState":{"key":"07","name":"Rheinland-Pfalz"}},{"name":"Feldstr.","postalCode":"54310","locality":"Ralingen","municipality":{"key":"07235111","name":"Ralingen","type":"Kreisangehörige_Gemeinde"},"district":{"key":"07235","name":"Trier-Saarburg","type":"Landkreis"},"federalState":{"key":"07","name":"Rheinland-Pfalz"}},{"name":"Frankenhöhe","postalCode":"54310","locality":"Ralingen","municipality":{"key":"07235111","name":"Ralingen","type":"Kreisangehörige_Gemeinde"},"district":{"key":"07235","name":"Trier-Saarburg","type":"Landkreis"},"federalState":{"key":"07","name":"Rheinland-Pfalz"}},{"name":"Gangolfstr.","postalCode":"54310","locality":"Ralingen","municipality":{"key":"07235111","name":"Ralingen","type":"Kreisangehörige_Gemeinde"},"district":{"key":"07235","name":"Trier-Saarburg","type":"Landkreis"},"federalState":{"key":"07","name":"Rheinland-Pfalz"}},{"name":"Großbachstr.","postalCode":"54310","locality":"Ralingen","municipality":{"key":"07235111","name":"Ralingen","type":"Kreisangehörige_Gemeinde"},"district":{"key":"07235","name":"Trier-Saarburg","type":"Landkreis"},"federalState":{"key":"07","name":"Rheinland-Pfalz"}},{"name":"Großwiese","postalCode":"54310","locality":"Ralingen","municipality":{"key":"07235111","name":"Ralingen","type":"Kreisangehörige_Gemeinde"},"district":{"key":"07235","name":"Trier-Saarburg","type":"Landkreis"},"federalState":{"key":"07","name":"Rheinland-Pfalz"}},{"name":"Hospitalstr.","postalCode":"54310","locality":"Ralingen","municipality":{"key":"07235111","name":"Ralingen","type":"Kreisangehörige_Gemeinde"},"district":{"key":"07235","name":"Trier-Saarburg","type":"Landkreis"},"federalState":{"key":"07","name":"Rheinland-Pfalz"}},{"name":"Hubertusstr.","postalCode":"54310","locality":"Ralingen","municipality":{"key":"07235111","name":"Ralingen","type":"Kreisangehörige_Gemeinde"},"district":{"key":"07235","name":"Trier-Saarburg","type":"Landkreis"},"federalState":{"key":"07","name":"Rheinland-Pfalz"}},{"name":"Im Bungert","postalCode":"54310","locality":"Ralingen","municipality":{"key":"07235111","name":"Ralingen","type":"Kreisangehörige_Gemeinde"},"district":{"key":"07235","name":"Trier-Saarburg","type":"Landkreis"},"federalState":{"key":"07","name":"Rheinland-Pfalz"}},{"name":"Im Flur","postalCode":"54310","locality":"Ralingen","municipality":{"key":"07235111","name":"Ralingen","type":"Kreisangehörige_Gemeinde"},"district":{"key":"07235","name":"Trier-Saarburg","type":"Landkreis"},"federalState":{"key":"07","name":"Rheinland-Pfalz"}},{"name":"Im Flürchen","postalCode":"54310","locality":"Ralingen","municipality":{"key":"07235111","name":"Ralingen","type":"Kreisangehörige_Gemeinde"},"district":{"key":"07235","name":"Trier-Saarburg","type":"Landkreis"},"federalState":{"key":"07","name":"Rheinland-Pfalz"}},{"name":"Im Gartenfeld","postalCode":"54310","locality":"Ralingen","municipality":{"key":"07235111","name":"Ralingen","type":"Kreisangehörige_Gemeinde"},"district":{"key":"07235","name":"Trier-Saarburg","type":"Landkreis"},"federalState":{"key":"07","name":"Rheinland-Pfalz"}},{"name":"Im Hofgarten","postalCode":"54310","locality":"Ralingen","municipality":{"key":"07235111","name":"Ralingen","type":"Kreisangehörige_Gemeinde"},"district":{"key":"07235","name":"Trier-Saarburg","type":"Landkreis"},"federalState":{"key":"07","name":"Rheinland-Pfalz"}},{"name":"Im Kessel","postalCode":"54310","locality":"Ralingen","municipality":{"key":"07235111","name":"Ralingen","type":"Kreisangehörige_Gemeinde"},"district":{"key":"07235","name":"Trier-Saarburg","type":"Landkreis"},"federalState":{"key":"07","name":"Rheinland-Pfalz"}},{"name":"Im Pfarrgarten","postalCode":"54310","locality":"Ralingen","municipality":{"key":"07235111","name":"Ralingen","type":"Kreisangehörige_Gemeinde"},"district":{"key":"07235","name":"Trier-Saarburg","type":"Landkreis"},"federalState":{"key":"07","name":"Rheinland-Pfalz"}},{"name":"Im Redeschenfeld","postalCode":"54310","locality":"Ralingen","municipality":{"key":"07235111","name":"Ralingen","type":"Kreisangehörige_Gemeinde"},"district":{"key":"07235","name":"Trier-Saarburg","type":"Landkreis"},"federalState":{"key":"07","name":"Rheinland-Pfalz"}},{"name":"Im Sauertal","postalCode":"54310","locality":"Ralingen","municipality":{"key":"07235111","name":"Ralingen","type":"Kreisangehörige_Gemeinde"},"district":{"key":"07235","name":"Trier-Saarburg","type":"Landkreis"},"federalState":{"key":"07","name":"Rheinland-Pfalz"}},{"name":"Im Schmalzfeld","postalCode":"54310","locality":"Ralingen","municipality":{"key":"07235111","name":"Ralingen","type":"Kreisangehörige_Gemeinde"},"district":{"key":"07235","name":"Trier-Saarburg","type":"Landkreis"},"federalState":{"key":"07","name":"Rheinland-Pfalz"}},{"name":"Im Unterland","postalCode":"54310","locality":"Ralingen","municipality":{"key":"07235111","name":"Ralingen","type":"Kreisangehörige_Gemeinde"},"district":{"key":"07235","name":"Trier-Saarburg","type":"Landkreis"},"federalState":{"key":"07","name":"Rheinland-Pfalz"}},{"name":"In den Höckern","postalCode":"54310","locality":"Ralingen","municipality":{"key":"07235111","name":"Ralingen","type":"Kreisangehörige_Gemeinde"},"district":{"key":"07235","name":"Trier-Saarburg","type":"Landkreis"},"federalState":{"key":"07","name":"Rheinland-Pfalz"}},{"name":"In der Acht","postalCode":"54310","locality":"Ralingen","municipality":{"key":"07235111","name":"Ralingen","type":"Kreisangehörige_Gemeinde"},"district":{"key":"07235","name":"Trier-Saarburg","type":"Landkreis"},"federalState":{"key":"07","name":"Rheinland-Pfalz"}},{"name":"In der Hostert","postalCode":"54310","locality":"Ralingen","municipality":{"key":"07235111","name":"Ralingen","type":"Kreisangehörige_Gemeinde"},"district":{"key":"07235","name":"Trier-Saarburg","type":"Landkreis"},"federalState":{"key":"07","name":"Rheinland-Pfalz"}},{"name":"In der Reih","postalCode":"54310","locality":"Ralingen","municipality":{"key":"07235111","name":"Ralingen","type":"Kreisangehörige_Gemeinde"},"district":{"key":"07235","name":"Trier-Saarburg","type":"Landkreis"},"federalState":{"key":"07","name":"Rheinland-Pfalz"}},{"name":"In der Roterd","postalCode":"54310","locality":"Ralingen","municipality":{"key":"07235111","name":"Ralingen","type":"Kreisangehörige_Gemeinde"},"district":{"key":"07235","name":"Trier-Saarburg","type":"Landkreis"},"federalState":{"key":"07","name":"Rheinland-Pfalz"}},{"name":"In der Seelacht","postalCode":"54310","locality":"Ralingen","municipality":{"key":"07235111","name":"Ralingen","type":"Kreisangehörige_Gemeinde"},"district":{"key":"07235","name":"Trier-Saarburg","type":"Landkreis"},"federalState":{"key":"07","name":"Rheinland-Pfalz"}},{"name":"Jakobstr.","postalCode":"54310","locality":"Ralingen","municipality":{"key":"07235111","name":"Ralingen","type":"Kreisangehörige_Gemeinde"},"district":{"key":"07235","name":"Trier-Saarburg","type":"Landkreis"},"federalState":{"key":"07","name":"Rheinland-Pfalz"}},{"name":"Karlweg","postalCode":"54310","locality":"Ralingen","municipality":{"key":"07235111","name":"Ralingen","type":"Kreisangehörige_Gemeinde"},"district":{"key":"07235","name":"Trier-Saarburg","type":"Landkreis"},"federalState":{"key":"07","name":"Rheinland-Pfalz"}},{"name":"Kerscher Bach","postalCode":"54310","locality":"Ralingen","municipality":{"key":"07235111","name":"Ralingen","type":"Kreisangehörige_Gemeinde"},"district":{"key":"07235","name":"Trier-Saarburg","type":"Landkreis"},"federalState":{"key":"07","name":"Rheinland-Pfalz"}},{"name":"Kerscher Str.","postalCode":"54310","locality":"Ralingen","municipality":{"key":"07235111","name":"Ralingen","type":"Kreisangehörige_Gemeinde"},"district":{"key":"07235","name":"Trier-Saarburg","type":"Landkreis"},"federalState":{"key":"07","name":"Rheinland-Pfalz"}},{"name":"Kirchweg","postalCode":"54310","locality":"Ralingen","municipality":{"key":"07235111","name":"Ralingen","type":"Kreisangehörige_Gemeinde"},"district":{"key":"07235","name":"Trier-Saarburg","type":"Landkreis"},"federalState":{"key":"07","name":"Rheinland-Pfalz"}},{"name":"Lambertusstr.","postalCode":"54310","locality":"Ralingen","municipality":{"key":"07235111","name":"Ralingen","type":"Kreisangehörige_Gemeinde"},"district":{"key":"07235","name":"Trier-Saarburg","type":"Landkreis"},"federalState":{"key":"07","name":"Rheinland-Pfalz"}},{"name":"Lindenstr.","postalCode":"54310","locality":"Ralingen","municipality":{"key":"07235111","name":"Ralingen","type":"Kreisangehörige_Gemeinde"},"district":{"key":"07235","name":"Trier-Saarburg","type":"Landkreis"},"federalState":{"key":"07","name":"Rheinland-Pfalz"}},{"name":"Mahlendorf","postalCode":"54310","locality":"Ralingen","municipality":{"key":"07235111","name":"Ralingen","type":"Kreisangehörige_Gemeinde"},"district":{"key":"07235","name":"Trier-Saarburg","type":"Landkreis"},"federalState":{"key":"07","name":"Rheinland-Pfalz"}},{"name":"Martinstr.","postalCode":"54310","locality":"Ralingen","municipality":{"key":"07235111","name":"Ralingen","type":"Kreisangehörige_Gemeinde"},"district":{"key":"07235","name":"Trier-Saarburg","type":"Landkreis"},"federalState":{"key":"07","name":"Rheinland-Pfalz"}},{"name":"Merowinger Höhe","postalCode":"54310","locality":"Ralingen","municipality":{"key":"07235111","name":"Ralingen","type":"Kreisangehörige_Gemeinde"},"district":{"key":"07235","name":"Trier-Saarburg","type":"Landkreis"},"federalState":{"key":"07","name":"Rheinland-Pfalz"}},{"name":"Mindener Str.","postalCode":"54310","locality":"Ralingen","municipality":{"key":"07235111","name":"Ralingen","type":"Kreisangehörige_Gemeinde"},"district":{"key":"07235","name":"Trier-Saarburg","type":"Landkreis"},"federalState":{"key":"07","name":"Rheinland-Pfalz"}},{"name":"Mühlenweg","postalCode":"54310","locality":"Ralingen","municipality":{"key":"07235111","name":"Ralingen","type":"Kreisangehörige_Gemeinde"},"district":{"key":"07235","name":"Trier-Saarburg","type":"Landkreis"},"federalState":{"key":"07","name":"Rheinland-Pfalz"}},{"name":"Petrusstr.","postalCode":"54310","locality":"Ralingen","municipality":{"key":"07235111","name":"Ralingen","type":"Kreisangehörige_Gemeinde"},"district":{"key":"07235","name":"Trier-Saarburg","type":"Landkreis"},"federalState":{"key":"07","name":"Rheinland-Pfalz"}},{"name":"Ralinger Mühle","postalCode":"54310","locality":"Ralingen","municipality":{"key":"07235111","name":"Ralingen","type":"Kreisangehörige_Gemeinde"},"district":{"key":"07235","name":"Trier-Saarburg","type":"Landkreis"},"federalState":{"key":"07","name":"Rheinland-Pfalz"}},{"name":"Ringstr.","postalCode":"54310","locality":"Ralingen","municipality":{"key":"07235111","name":"Ralingen","type":"Kreisangehörige_Gemeinde"},"district":{"key":"07235","name":"Trier-Saarburg","type":"Landkreis"},"federalState":{"key":"07","name":"Rheinland-Pfalz"}},{"name":"Römerstr.","postalCode":"54310","locality":"Ralingen","municipality":{"key":"07235111","name":"Ralingen","type":"Kreisangehörige_Gemeinde"},"district":{"key":"07235","name":"Trier-Saarburg","type":"Landkreis"},"federalState":{"key":"07","name":"Rheinland-Pfalz"}},{"name":"Route d'Echternach","postalCode":"54310","locality":"Ralingen","municipality":{"key":"07235111","name":"Ralingen","type":"Kreisangehörige_Gemeinde"},"district":{"key":"07235","name":"Trier-Saarburg","type":"Landkreis"},"federalState":{"key":"07","name":"Rheinland-Pfalz"}},{"name":"Sauerstr.","postalCode":"54310","locality":"Ralingen","municipality":{"key":"07235111","name":"Ralingen","type":"Kreisangehörige_Gemeinde"},"district":{"key":"07235","name":"Trier-Saarburg","type":"Landkreis"},"federalState":{"key":"07","name":"Rheinland-Pfalz"}},{"name":"Sauertalstr.","postalCode":"54310","locality":"Ralingen","municipality":{"key":"07235111","name":"Ralingen","type":"Kreisangehörige_Gemeinde"},"district":{"key":"07235","name":"Trier-Saarburg","type":"Landkreis"},"federalState":{"key":"07","name":"Rheinland-Pfalz"}},{"name":"Schulstr.","postalCode":"54310","locality":"Ralingen","municipality":{"key":"07235111","name":"Ralingen","type":"Kreisangehörige_Gemeinde"},"district":{"key":"07235","name":"Trier-Saarburg","type":"Landkreis"},"federalState":{"key":"07","name":"Rheinland-Pfalz"}},{"name":"Steilstr.","postalCode":"54310","locality":"Ralingen","municipality":{"key":"07235111","name":"Ralingen","type":"Kreisangehörige_Gemeinde"},"district":{"key":"07235","name":"Trier-Saarburg","type":"Landkreis"},"federalState":{"key":"07","name":"Rheinland-Pfalz"}},{"name":"St.-Irminen-Str.","postalCode":"54310","locality":"Ralingen","municipality":{"key":"07235111","name":"Ralingen","type":"Kreisangehörige_Gemeinde"},"district":{"key":"07235","name":"Trier-Saarburg","type":"Landkreis"},"federalState":{"key":"07","name":"Rheinland-Pfalz"}},{"name":"Trierer Str.","postalCode":"54310","locality":"Ralingen","municipality":{"key":"07235111","name":"Ralingen","type":"Kreisangehörige_Gemeinde"},"district":{"key":"07235","name":"Trier-Saarburg","type":"Landkreis"},"federalState":{"key":"07","name":"Rheinland-Pfalz"}},{"name":"Unter der Schlievenheck","postalCode":"54310","locality":"Ralingen","municipality":{"key":"07235111","name":"Ralingen","type":"Kreisangehörige_Gemeinde"},"district":{"key":"07235","name":"Trier-Saarburg","type":"Landkreis"},"federalState":{"key":"07","name":"Rheinland-Pfalz"}},{"name":"Waldstr.","postalCode":"54310","locality":"Ralingen","municipality":{"key":"07235111","name":"Ralingen","type":"Kreisangehörige_Gemeinde"},"district":{"key":"07235","name":"Trier-Saarburg","type":"Landkreis"},"federalState":{"key":"07","name":"Rheinland-Pfalz"}},{"name":"Weinbergstr.","postalCode":"54310","locality":"Ralingen","municipality":{"key":"07235111","name":"Ralingen","type":"Kreisangehörige_Gemeinde"},"district":{"key":"07235","name":"Trier-Saarburg","type":"Landkreis"},"federalState":{"key":"07","name":"Rheinland-Pfalz"}},{"name":"Windmühlenstr.","postalCode":"54310","locality":"Ralingen","municipality":{"key":"07235111","name":"Ralingen","type":"Kreisangehörige_Gemeinde"},"district":{"key":"07235","name":"Trier-Saarburg","type":"Landkreis"},"federalState":{"key":"07","name":"Rheinland-Pfalz"}},{"name":"Zum Hamborn","postalCode":"54310","locality":"Ralingen","municipality":{"key":"07235111","name":"Ralingen","type":"Kreisangehörige_Gemeinde"},"district":{"key":"07235","name":"Trier-Saarburg","type":"Landkreis"},"federalState":{"key":"07","name":"Rheinland-Pfalz"}},{"name":"Zum Spielplatz","postalCode":"54310","locality":"Ralingen","municipality":{"key":"07235111","name":"Ralingen","type":"Kreisangehörige_Gemeinde"},"district":{"key":"07235","name":"Trier-Saarburg","type":"Landkreis"},"federalState":{"key":"07","name":"Rheinland-Pfalz"}},{"name":"Zum Wolfsfeld","postalCode":"54310","locality":"Ralingen","municipality":{"key":"07235111","name":"Ralingen","type":"Kreisangehörige_Gemeinde"},"district":{"key":"07235","name":"Trier-Saarburg","type":"Landkreis"},"federalState":{"key":"07","name":"Rheinland-Pfalz"}},{"name":"Zur Heide","postalCode":"54310","locality":"Ralingen","municipality":{"key":"07235111","name":"Ralingen","type":"Kreisangehörige_Gemeinde"},"district":{"key":"07235","name":"Trier-Saarburg","type":"Landkreis"},"federalState":{"key":"07","name":"Rheinland-Pfalz"}},{"name":"Zur Minnich","postalCode":"54310","locality":"Ralingen","municipality":{"key":"07235111","name":"Ralingen","type":"Kreisangehörige_Gemeinde"},"district":{"key":"07235","name":"Trier-Saarburg","type":"Landkreis"},"federalState":{"key":"07","name":"Rheinland-Pfalz"}},]