[{"name":"Alte Landstr.","postalCode":"23758","locality":"Wangels","municipality":{"key":"01055043","name":"Wangels","type":"Kreisangehörige_Gemeinde"},"district":{"key":"01055","name":"Ostholstein","type":"Kreis"},"federalState":{"key":"01","name":"Schleswig-Holstein"}},{"name":"Alter Burgweg","postalCode":"23758","locality":"Wangels","municipality":{"key":"01055043","name":"Wangels","type":"Kreisangehörige_Gemeinde"},"district":{"key":"01055","name":"Ostholstein","type":"Kreis"},"federalState":{"key":"01","name":"Schleswig-Holstein"}},{"name":"Am Eichberg","postalCode":"23758","locality":"Wangels","municipality":{"key":"01055043","name":"Wangels","type":"Kreisangehörige_Gemeinde"},"district":{"key":"01055","name":"Ostholstein","type":"Kreis"},"federalState":{"key":"01","name":"Schleswig-Holstein"}},{"name":"Am Erlenbruch","postalCode":"23758","locality":"Wangels","municipality":{"key":"01055043","name":"Wangels","type":"Kreisangehörige_Gemeinde"},"district":{"key":"01055","name":"Ostholstein","type":"Kreis"},"federalState":{"key":"01","name":"Schleswig-Holstein"}},{"name":"Am Finnenbach","postalCode":"23758","locality":"Wangels","municipality":{"key":"01055043","name":"Wangels","type":"Kreisangehörige_Gemeinde"},"district":{"key":"01055","name":"Ostholstein","type":"Kreis"},"federalState":{"key":"01","name":"Schleswig-Holstein"}},{"name":"Am Goldberg","postalCode":"23758","locality":"Wangels","municipality":{"key":"01055043","name":"Wangels","type":"Kreisangehörige_Gemeinde"},"district":{"key":"01055","name":"Ostholstein","type":"Kreis"},"federalState":{"key":"01","name":"Schleswig-Holstein"}},{"name":"Am Kamp","postalCode":"23758","locality":"Wangels","municipality":{"key":"01055043","name":"Wangels","type":"Kreisangehörige_Gemeinde"},"district":{"key":"01055","name":"Ostholstein","type":"Kreis"},"federalState":{"key":"01","name":"Schleswig-Holstein"}},{"name":"Am Kirchberg","postalCode":"23758","locality":"Wangels","municipality":{"key":"01055043","name":"Wangels","type":"Kreisangehörige_Gemeinde"},"district":{"key":"01055","name":"Ostholstein","type":"Kreis"},"federalState":{"key":"01","name":"Schleswig-Holstein"}},{"name":"Am Messin","postalCode":"23758","locality":"Wangels","municipality":{"key":"01055043","name":"Wangels","type":"Kreisangehörige_Gemeinde"},"district":{"key":"01055","name":"Ostholstein","type":"Kreis"},"federalState":{"key":"01","name":"Schleswig-Holstein"}},{"name":"Am Mühlenbach","postalCode":"23758","locality":"Wangels","municipality":{"key":"01055043","name":"Wangels","type":"Kreisangehörige_Gemeinde"},"district":{"key":"01055","name":"Ostholstein","type":"Kreis"},"federalState":{"key":"01","name":"Schleswig-Holstein"}},{"name":"Am Rapsschlag","postalCode":"23758","locality":"Wangels","municipality":{"key":"01055043","name":"Wangels","type":"Kreisangehörige_Gemeinde"},"district":{"key":"01055","name":"Ostholstein","type":"Kreis"},"federalState":{"key":"01","name":"Schleswig-Holstein"}},{"name":"Am Sandberg","postalCode":"23758","locality":"Wangels","municipality":{"key":"01055043","name":"Wangels","type":"Kreisangehörige_Gemeinde"},"district":{"key":"01055","name":"Ostholstein","type":"Kreis"},"federalState":{"key":"01","name":"Schleswig-Holstein"}},{"name":"Am Sonneneck","postalCode":"23758","locality":"Wangels","municipality":{"key":"01055043","name":"Wangels","type":"Kreisangehörige_Gemeinde"},"district":{"key":"01055","name":"Ostholstein","type":"Kreis"},"federalState":{"key":"01","name":"Schleswig-Holstein"}},{"name":"An der Landstr.","postalCode":"23758","locality":"Wangels","municipality":{"key":"01055043","name":"Wangels","type":"Kreisangehörige_Gemeinde"},"district":{"key":"01055","name":"Ostholstein","type":"Kreis"},"federalState":{"key":"01","name":"Schleswig-Holstein"}},{"name":"Birkenweg","postalCode":"23758","locality":"Wangels","municipality":{"key":"01055043","name":"Wangels","type":"Kreisangehörige_Gemeinde"},"district":{"key":"01055","name":"Ostholstein","type":"Kreis"},"federalState":{"key":"01","name":"Schleswig-Holstein"}},{"name":"Breslauer Str.","postalCode":"23758","locality":"Wangels","municipality":{"key":"01055043","name":"Wangels","type":"Kreisangehörige_Gemeinde"},"district":{"key":"01055","name":"Ostholstein","type":"Kreis"},"federalState":{"key":"01","name":"Schleswig-Holstein"}},{"name":"Brök","postalCode":"23758","locality":"Wangels","municipality":{"key":"01055043","name":"Wangels","type":"Kreisangehörige_Gemeinde"},"district":{"key":"01055","name":"Ostholstein","type":"Kreis"},"federalState":{"key":"01","name":"Schleswig-Holstein"}},{"name":"Bungsbergstr.","postalCode":"23758","locality":"Wangels","municipality":{"key":"01055043","name":"Wangels","type":"Kreisangehörige_Gemeinde"},"district":{"key":"01055","name":"Ostholstein","type":"Kreis"},"federalState":{"key":"01","name":"Schleswig-Holstein"}},{"name":"Butenkamp","postalCode":"23758","locality":"Wangels","municipality":{"key":"01055043","name":"Wangels","type":"Kreisangehörige_Gemeinde"},"district":{"key":"01055","name":"Ostholstein","type":"Kreis"},"federalState":{"key":"01","name":"Schleswig-Holstein"}},{"name":"Danziger Str.","postalCode":"23758","locality":"Wangels","municipality":{"key":"01055043","name":"Wangels","type":"Kreisangehörige_Gemeinde"},"district":{"key":"01055","name":"Ostholstein","type":"Kreis"},"federalState":{"key":"01","name":"Schleswig-Holstein"}},{"name":"Dorfstr.","postalCode":"23758","locality":"Wangels","municipality":{"key":"01055043","name":"Wangels","type":"Kreisangehörige_Gemeinde"},"district":{"key":"01055","name":"Ostholstein","type":"Kreis"},"federalState":{"key":"01","name":"Schleswig-Holstein"}},{"name":"Drosselweg","postalCode":"23758","locality":"Wangels","municipality":{"key":"01055043","name":"Wangels","type":"Kreisangehörige_Gemeinde"},"district":{"key":"01055","name":"Ostholstein","type":"Kreis"},"federalState":{"key":"01","name":"Schleswig-Holstein"}},{"name":"Ehlerstorfer Weg","postalCode":"23758","locality":"Wangels","municipality":{"key":"01055043","name":"Wangels","type":"Kreisangehörige_Gemeinde"},"district":{"key":"01055","name":"Ostholstein","type":"Kreis"},"federalState":{"key":"01","name":"Schleswig-Holstein"}},{"name":"Farve","postalCode":"23758","locality":"Wangels","municipality":{"key":"01055043","name":"Wangels","type":"Kreisangehörige_Gemeinde"},"district":{"key":"01055","name":"Ostholstein","type":"Kreis"},"federalState":{"key":"01","name":"Schleswig-Holstein"}},{"name":"Farverburg","postalCode":"23758","locality":"Wangels","municipality":{"key":"01055043","name":"Wangels","type":"Kreisangehörige_Gemeinde"},"district":{"key":"01055","name":"Ostholstein","type":"Kreis"},"federalState":{"key":"01","name":"Schleswig-Holstein"}},{"name":"Försterei","postalCode":"23758","locality":"Wangels","municipality":{"key":"01055043","name":"Wangels","type":"Kreisangehörige_Gemeinde"},"district":{"key":"01055","name":"Ostholstein","type":"Kreis"},"federalState":{"key":"01","name":"Schleswig-Holstein"}},{"name":"Gärtnergasse","postalCode":"23758","locality":"Wangels","municipality":{"key":"01055043","name":"Wangels","type":"Kreisangehörige_Gemeinde"},"district":{"key":"01055","name":"Ostholstein","type":"Kreis"},"federalState":{"key":"01","name":"Schleswig-Holstein"}},{"name":"Grotkoppel","postalCode":"23758","locality":"Wangels","municipality":{"key":"01055043","name":"Wangels","type":"Kreisangehörige_Gemeinde"},"district":{"key":"01055","name":"Ostholstein","type":"Kreis"},"federalState":{"key":"01","name":"Schleswig-Holstein"}},{"name":"Gustav-Burghard-Str.","postalCode":"23758","locality":"Wangels","municipality":{"key":"01055043","name":"Wangels","type":"Kreisangehörige_Gemeinde"},"district":{"key":"01055","name":"Ostholstein","type":"Kreis"},"federalState":{"key":"01","name":"Schleswig-Holstein"}},{"name":"Gut Farve","postalCode":"23758","locality":"Wangels","municipality":{"key":"01055043","name":"Wangels","type":"Kreisangehörige_Gemeinde"},"district":{"key":"01055","name":"Ostholstein","type":"Kreis"},"federalState":{"key":"01","name":"Schleswig-Holstein"}},{"name":"Hohenkamp","postalCode":"23758","locality":"Wangels","municipality":{"key":"01055043","name":"Wangels","type":"Kreisangehörige_Gemeinde"},"district":{"key":"01055","name":"Ostholstein","type":"Kreis"},"federalState":{"key":"01","name":"Schleswig-Holstein"}},{"name":"Hotelzufahrt","postalCode":"23758","locality":"Wangels","municipality":{"key":"01055043","name":"Wangels","type":"Kreisangehörige_Gemeinde"},"district":{"key":"01055","name":"Ostholstein","type":"Kreis"},"federalState":{"key":"01","name":"Schleswig-Holstein"}},{"name":"Im Hohen Redder","postalCode":"23758","locality":"Wangels","municipality":{"key":"01055043","name":"Wangels","type":"Kreisangehörige_Gemeinde"},"district":{"key":"01055","name":"Ostholstein","type":"Kreis"},"federalState":{"key":"01","name":"Schleswig-Holstein"}},{"name":"Im Vogelsang","postalCode":"23758","locality":"Wangels","municipality":{"key":"01055043","name":"Wangels","type":"Kreisangehörige_Gemeinde"},"district":{"key":"01055","name":"Ostholstein","type":"Kreis"},"federalState":{"key":"01","name":"Schleswig-Holstein"}},{"name":"Im Winkel","postalCode":"23758","locality":"Wangels","municipality":{"key":"01055043","name":"Wangels","type":"Kreisangehörige_Gemeinde"},"district":{"key":"01055","name":"Ostholstein","type":"Kreis"},"federalState":{"key":"01","name":"Schleswig-Holstein"}},{"name":"Karlshöfer Weg","postalCode":"23758","locality":"Wangels","municipality":{"key":"01055043","name":"Wangels","type":"Kreisangehörige_Gemeinde"},"district":{"key":"01055","name":"Ostholstein","type":"Kreis"},"federalState":{"key":"01","name":"Schleswig-Holstein"}},{"name":"Kaßwiese + Bötz","postalCode":"23758","locality":"Wangels","municipality":{"key":"01055043","name":"Wangels","type":"Kreisangehörige_Gemeinde"},"district":{"key":"01055","name":"Ostholstein","type":"Kreis"},"federalState":{"key":"01","name":"Schleswig-Holstein"}},{"name":"Kiebitzweg","postalCode":"23758","locality":"Wangels","municipality":{"key":"01055043","name":"Wangels","type":"Kreisangehörige_Gemeinde"},"district":{"key":"01055","name":"Ostholstein","type":"Kreis"},"federalState":{"key":"01","name":"Schleswig-Holstein"}},{"name":"Kleiberstieg","postalCode":"23758","locality":"Wangels","municipality":{"key":"01055043","name":"Wangels","type":"Kreisangehörige_Gemeinde"},"district":{"key":"01055","name":"Ostholstein","type":"Kreis"},"federalState":{"key":"01","name":"Schleswig-Holstein"}},{"name":"Königsberger Str.","postalCode":"23758","locality":"Wangels","municipality":{"key":"01055043","name":"Wangels","type":"Kreisangehörige_Gemeinde"},"district":{"key":"01055","name":"Ostholstein","type":"Kreis"},"federalState":{"key":"01","name":"Schleswig-Holstein"}},{"name":"Kröhn","postalCode":"23758","locality":"Wangels","municipality":{"key":"01055043","name":"Wangels","type":"Kreisangehörige_Gemeinde"},"district":{"key":"01055","name":"Ostholstein","type":"Kreis"},"federalState":{"key":"01","name":"Schleswig-Holstein"}},{"name":"L216","postalCode":"23758","locality":"Wangels","municipality":{"key":"01055043","name":"Wangels","type":"Kreisangehörige_Gemeinde"},"district":{"key":"01055","name":"Ostholstein","type":"Kreis"},"federalState":{"key":"01","name":"Schleswig-Holstein"}},{"name":"Landweg","postalCode":"23758","locality":"Wangels","municipality":{"key":"01055043","name":"Wangels","type":"Kreisangehörige_Gemeinde"},"district":{"key":"01055","name":"Ostholstein","type":"Kreis"},"federalState":{"key":"01","name":"Schleswig-Holstein"}},{"name":"Lensahner Str.","postalCode":"23758","locality":"Wangels","municipality":{"key":"01055043","name":"Wangels","type":"Kreisangehörige_Gemeinde"},"district":{"key":"01055","name":"Ostholstein","type":"Kreis"},"federalState":{"key":"01","name":"Schleswig-Holstein"}},{"name":"Lerchenweg","postalCode":"23758","locality":"Wangels","municipality":{"key":"01055043","name":"Wangels","type":"Kreisangehörige_Gemeinde"},"district":{"key":"01055","name":"Ostholstein","type":"Kreis"},"federalState":{"key":"01","name":"Schleswig-Holstein"}},{"name":"Lindenstr.","postalCode":"23758","locality":"Wangels","municipality":{"key":"01055043","name":"Wangels","type":"Kreisangehörige_Gemeinde"},"district":{"key":"01055","name":"Ostholstein","type":"Kreis"},"federalState":{"key":"01","name":"Schleswig-Holstein"}},{"name":"Lindenweg","postalCode":"23758","locality":"Wangels","municipality":{"key":"01055043","name":"Wangels","type":"Kreisangehörige_Gemeinde"},"district":{"key":"01055","name":"Ostholstein","type":"Kreis"},"federalState":{"key":"01","name":"Schleswig-Holstein"}},{"name":"Lütjenburger Str.","postalCode":"23758","locality":"Wangels","municipality":{"key":"01055043","name":"Wangels","type":"Kreisangehörige_Gemeinde"},"district":{"key":"01055","name":"Ostholstein","type":"Kreis"},"federalState":{"key":"01","name":"Schleswig-Holstein"}},{"name":"Meisenweg","postalCode":"23758","locality":"Wangels","municipality":{"key":"01055043","name":"Wangels","type":"Kreisangehörige_Gemeinde"},"district":{"key":"01055","name":"Ostholstein","type":"Kreis"},"federalState":{"key":"01","name":"Schleswig-Holstein"}},{"name":"Ostlandring","postalCode":"23758","locality":"Wangels","municipality":{"key":"01055043","name":"Wangels","type":"Kreisangehörige_Gemeinde"},"district":{"key":"01055","name":"Ostholstein","type":"Kreis"},"federalState":{"key":"01","name":"Schleswig-Holstein"}},{"name":"Ostseeblick","postalCode":"23758","locality":"Wangels","municipality":{"key":"01055043","name":"Wangels","type":"Kreisangehörige_Gemeinde"},"district":{"key":"01055","name":"Ostholstein","type":"Kreis"},"federalState":{"key":"01","name":"Schleswig-Holstein"}},{"name":"Ostseestr.","postalCode":"23758","locality":"Wangels","municipality":{"key":"01055043","name":"Wangels","type":"Kreisangehörige_Gemeinde"},"district":{"key":"01055","name":"Ostholstein","type":"Kreis"},"federalState":{"key":"01","name":"Schleswig-Holstein"}},{"name":"Parkstr.","postalCode":"23758","locality":"Wangels","municipality":{"key":"01055043","name":"Wangels","type":"Kreisangehörige_Gemeinde"},"district":{"key":"01055","name":"Ostholstein","type":"Kreis"},"federalState":{"key":"01","name":"Schleswig-Holstein"}},{"name":"Reuterweide","postalCode":"23758","locality":"Wangels","municipality":{"key":"01055043","name":"Wangels","type":"Kreisangehörige_Gemeinde"},"district":{"key":"01055","name":"Ostholstein","type":"Kreis"},"federalState":{"key":"01","name":"Schleswig-Holstein"}},{"name":"Rosenstr.","postalCode":"23758","locality":"Wangels","municipality":{"key":"01055043","name":"Wangels","type":"Kreisangehörige_Gemeinde"},"district":{"key":"01055","name":"Ostholstein","type":"Kreis"},"federalState":{"key":"01","name":"Schleswig-Holstein"}},{"name":"Rotkehlchenweg","postalCode":"23758","locality":"Wangels","municipality":{"key":"01055043","name":"Wangels","type":"Kreisangehörige_Gemeinde"},"district":{"key":"01055","name":"Ostholstein","type":"Kreis"},"federalState":{"key":"01","name":"Schleswig-Holstein"}},{"name":"Salkamp","postalCode":"23758","locality":"Wangels","municipality":{"key":"01055043","name":"Wangels","type":"Kreisangehörige_Gemeinde"},"district":{"key":"01055","name":"Ostholstein","type":"Kreis"},"federalState":{"key":"01","name":"Schleswig-Holstein"}},{"name":"Sandkuhlenweg","postalCode":"23758","locality":"Wangels","municipality":{"key":"01055043","name":"Wangels","type":"Kreisangehörige_Gemeinde"},"district":{"key":"01055","name":"Ostholstein","type":"Kreis"},"federalState":{"key":"01","name":"Schleswig-Holstein"}},{"name":"Seestr.","postalCode":"23758","locality":"Wangels","municipality":{"key":"01055043","name":"Wangels","type":"Kreisangehörige_Gemeinde"},"district":{"key":"01055","name":"Ostholstein","type":"Kreis"},"federalState":{"key":"01","name":"Schleswig-Holstein"}},{"name":"Sonnendeck","postalCode":"23758","locality":"Wangels","municipality":{"key":"01055043","name":"Wangels","type":"Kreisangehörige_Gemeinde"},"district":{"key":"01055","name":"Ostholstein","type":"Kreis"},"federalState":{"key":"01","name":"Schleswig-Holstein"}},{"name":"Sperlingsgasse","postalCode":"23758","locality":"Wangels","municipality":{"key":"01055043","name":"Wangels","type":"Kreisangehörige_Gemeinde"},"district":{"key":"01055","name":"Ostholstein","type":"Kreis"},"federalState":{"key":"01","name":"Schleswig-Holstein"}},{"name":"Stammgastpromenade","postalCode":"23758","locality":"Wangels","municipality":{"key":"01055043","name":"Wangels","type":"Kreisangehörige_Gemeinde"},"district":{"key":"01055","name":"Ostholstein","type":"Kreis"},"federalState":{"key":"01","name":"Schleswig-Holstein"}},{"name":"Stettiner Str.","postalCode":"23758","locality":"Wangels","municipality":{"key":"01055043","name":"Wangels","type":"Kreisangehörige_Gemeinde"},"district":{"key":"01055","name":"Ostholstein","type":"Kreis"},"federalState":{"key":"01","name":"Schleswig-Holstein"}},{"name":"Taubenstieg","postalCode":"23758","locality":"Wangels","municipality":{"key":"01055043","name":"Wangels","type":"Kreisangehörige_Gemeinde"},"district":{"key":"01055","name":"Ostholstein","type":"Kreis"},"federalState":{"key":"01","name":"Schleswig-Holstein"}},{"name":"Testorferfelde","postalCode":"23758","locality":"Wangels","municipality":{"key":"01055043","name":"Wangels","type":"Kreisangehörige_Gemeinde"},"district":{"key":"01055","name":"Ostholstein","type":"Kreis"},"federalState":{"key":"01","name":"Schleswig-Holstein"}},{"name":"Totenweg","postalCode":"23758","locality":"Wangels","municipality":{"key":"01055043","name":"Wangels","type":"Kreisangehörige_Gemeinde"},"district":{"key":"01055","name":"Ostholstein","type":"Kreis"},"federalState":{"key":"01","name":"Schleswig-Holstein"}},{"name":"Wasbucker Weg","postalCode":"23758","locality":"Wangels","municipality":{"key":"01055043","name":"Wangels","type":"Kreisangehörige_Gemeinde"},"district":{"key":"01055","name":"Ostholstein","type":"Kreis"},"federalState":{"key":"01","name":"Schleswig-Holstein"}},{"name":"Weg","postalCode":"23758","locality":"Wangels","municipality":{"key":"01055043","name":"Wangels","type":"Kreisangehörige_Gemeinde"},"district":{"key":"01055","name":"Ostholstein","type":"Kreis"},"federalState":{"key":"01","name":"Schleswig-Holstein"}},{"name":"Zeisigweg","postalCode":"23758","locality":"Wangels","municipality":{"key":"01055043","name":"Wangels","type":"Kreisangehörige_Gemeinde"},"district":{"key":"01055","name":"Ostholstein","type":"Kreis"},"federalState":{"key":"01","name":"Schleswig-Holstein"}},{"name":"Ziegeleiweg","postalCode":"23758","locality":"Wangels","municipality":{"key":"01055043","name":"Wangels","type":"Kreisangehörige_Gemeinde"},"district":{"key":"01055","name":"Ostholstein","type":"Kreis"},"federalState":{"key":"01","name":"Schleswig-Holstein"}},{"name":"Zum Berghof","postalCode":"23758","locality":"Wangels","municipality":{"key":"01055043","name":"Wangels","type":"Kreisangehörige_Gemeinde"},"district":{"key":"01055","name":"Ostholstein","type":"Kreis"},"federalState":{"key":"01","name":"Schleswig-Holstein"}},{"name":"Zum Wiesengrund","postalCode":"23758","locality":"Wangels","municipality":{"key":"01055043","name":"Wangels","type":"Kreisangehörige_Gemeinde"},"district":{"key":"01055","name":"Ostholstein","type":"Kreis"},"federalState":{"key":"01","name":"Schleswig-Holstein"}},{"name":"Zur Buschkate","postalCode":"23758","locality":"Wangels","municipality":{"key":"01055043","name":"Wangels","type":"Kreisangehörige_Gemeinde"},"district":{"key":"01055","name":"Ostholstein","type":"Kreis"},"federalState":{"key":"01","name":"Schleswig-Holstein"}},{"name":"Zur Linde","postalCode":"23758","locality":"Wangels","municipality":{"key":"01055043","name":"Wangels","type":"Kreisangehörige_Gemeinde"},"district":{"key":"01055","name":"Ostholstein","type":"Kreis"},"federalState":{"key":"01","name":"Schleswig-Holstein"}},]