[{"name":"Ahornweg","postalCode":"02733","locality":"Cunewalde","municipality":{"key":"14625090","name":"Cunewalde","type":"Kreisangehörige_Gemeinde"},"district":{"key":"14625","name":"Bautzen","type":"Landkreis"},"federalState":{"key":"14","name":"Sachsen"}},{"name":"Albert-Schweitzer-Siedlung","postalCode":"02733","locality":"Cunewalde","municipality":{"key":"14625090","name":"Cunewalde","type":"Kreisangehörige_Gemeinde"},"district":{"key":"14625","name":"Bautzen","type":"Landkreis"},"federalState":{"key":"14","name":"Sachsen"}},{"name":"Am Bahndamm","postalCode":"02733","locality":"Cunewalde","municipality":{"key":"14625090","name":"Cunewalde","type":"Kreisangehörige_Gemeinde"},"district":{"key":"14625","name":"Bautzen","type":"Landkreis"},"federalState":{"key":"14","name":"Sachsen"}},{"name":"Am Bahnhof","postalCode":"02733","locality":"Cunewalde","municipality":{"key":"14625090","name":"Cunewalde","type":"Kreisangehörige_Gemeinde"},"district":{"key":"14625","name":"Bautzen","type":"Landkreis"},"federalState":{"key":"14","name":"Sachsen"}},{"name":"Am Frühlingsberg","postalCode":"02733","locality":"Cunewalde","municipality":{"key":"14625090","name":"Cunewalde","type":"Kreisangehörige_Gemeinde"},"district":{"key":"14625","name":"Bautzen","type":"Landkreis"},"federalState":{"key":"14","name":"Sachsen"}},{"name":"Am Gänseberg","postalCode":"02733","locality":"Cunewalde","municipality":{"key":"14625090","name":"Cunewalde","type":"Kreisangehörige_Gemeinde"},"district":{"key":"14625","name":"Bautzen","type":"Landkreis"},"federalState":{"key":"14","name":"Sachsen"}},{"name":"Am Hochstein","postalCode":"02733","locality":"Cunewalde","municipality":{"key":"14625090","name":"Cunewalde","type":"Kreisangehörige_Gemeinde"},"district":{"key":"14625","name":"Bautzen","type":"Landkreis"},"federalState":{"key":"14","name":"Sachsen"}},{"name":"Am Nordhang","postalCode":"02733","locality":"Cunewalde","municipality":{"key":"14625090","name":"Cunewalde","type":"Kreisangehörige_Gemeinde"},"district":{"key":"14625","name":"Bautzen","type":"Landkreis"},"federalState":{"key":"14","name":"Sachsen"}},{"name":"Am Sägewerk","postalCode":"02733","locality":"Cunewalde","municipality":{"key":"14625090","name":"Cunewalde","type":"Kreisangehörige_Gemeinde"},"district":{"key":"14625","name":"Bautzen","type":"Landkreis"},"federalState":{"key":"14","name":"Sachsen"}},{"name":"Am Schmiedeberg","postalCode":"02733","locality":"Cunewalde","municipality":{"key":"14625090","name":"Cunewalde","type":"Kreisangehörige_Gemeinde"},"district":{"key":"14625","name":"Bautzen","type":"Landkreis"},"federalState":{"key":"14","name":"Sachsen"}},{"name":"Am Sportzentrum","postalCode":"02733","locality":"Cunewalde","municipality":{"key":"14625090","name":"Cunewalde","type":"Kreisangehörige_Gemeinde"},"district":{"key":"14625","name":"Bautzen","type":"Landkreis"},"federalState":{"key":"14","name":"Sachsen"}},{"name":"An der Wolfsschlucht","postalCode":"02733","locality":"Cunewalde","municipality":{"key":"14625090","name":"Cunewalde","type":"Kreisangehörige_Gemeinde"},"district":{"key":"14625","name":"Bautzen","type":"Landkreis"},"federalState":{"key":"14","name":"Sachsen"}},{"name":"Bachweg","postalCode":"02733","locality":"Cunewalde","municipality":{"key":"14625090","name":"Cunewalde","type":"Kreisangehörige_Gemeinde"},"district":{"key":"14625","name":"Bautzen","type":"Landkreis"},"federalState":{"key":"14","name":"Sachsen"}},{"name":"Bahnhofstr.","postalCode":"02733","locality":"Cunewalde","municipality":{"key":"14625090","name":"Cunewalde","type":"Kreisangehörige_Gemeinde"},"district":{"key":"14625","name":"Bautzen","type":"Landkreis"},"federalState":{"key":"14","name":"Sachsen"}},{"name":"Bautzener Str.","postalCode":"02733","locality":"Cunewalde","municipality":{"key":"14625090","name":"Cunewalde","type":"Kreisangehörige_Gemeinde"},"district":{"key":"14625","name":"Bautzen","type":"Landkreis"},"federalState":{"key":"14","name":"Sachsen"}},{"name":"Bergsiedlung","postalCode":"02733","locality":"Cunewalde","municipality":{"key":"14625090","name":"Cunewalde","type":"Kreisangehörige_Gemeinde"},"district":{"key":"14625","name":"Bautzen","type":"Landkreis"},"federalState":{"key":"14","name":"Sachsen"}},{"name":"Bergstr.","postalCode":"02733","locality":"Cunewalde","municipality":{"key":"14625090","name":"Cunewalde","type":"Kreisangehörige_Gemeinde"},"district":{"key":"14625","name":"Bautzen","type":"Landkreis"},"federalState":{"key":"14","name":"Sachsen"}},{"name":"Biehlebohstr.","postalCode":"02733","locality":"Cunewalde","municipality":{"key":"14625090","name":"Cunewalde","type":"Kreisangehörige_Gemeinde"},"district":{"key":"14625","name":"Bautzen","type":"Landkreis"},"federalState":{"key":"14","name":"Sachsen"}},{"name":"Bielebohstr.","postalCode":"02733","locality":"Cunewalde","municipality":{"key":"14625090","name":"Cunewalde","type":"Kreisangehörige_Gemeinde"},"district":{"key":"14625","name":"Bautzen","type":"Landkreis"},"federalState":{"key":"14","name":"Sachsen"}},{"name":"Bierweg","postalCode":"02733","locality":"Cunewalde","municipality":{"key":"14625090","name":"Cunewalde","type":"Kreisangehörige_Gemeinde"},"district":{"key":"14625","name":"Bautzen","type":"Landkreis"},"federalState":{"key":"14","name":"Sachsen"}},{"name":"Birkenweg","postalCode":"02733","locality":"Cunewalde","municipality":{"key":"14625090","name":"Cunewalde","type":"Kreisangehörige_Gemeinde"},"district":{"key":"14625","name":"Bautzen","type":"Landkreis"},"federalState":{"key":"14","name":"Sachsen"}},{"name":"Bornweg","postalCode":"02733","locality":"Cunewalde","municipality":{"key":"14625090","name":"Cunewalde","type":"Kreisangehörige_Gemeinde"},"district":{"key":"14625","name":"Bautzen","type":"Landkreis"},"federalState":{"key":"14","name":"Sachsen"}},{"name":"Buchenweg","postalCode":"02733","locality":"Cunewalde","municipality":{"key":"14625090","name":"Cunewalde","type":"Kreisangehörige_Gemeinde"},"district":{"key":"14625","name":"Bautzen","type":"Landkreis"},"federalState":{"key":"14","name":"Sachsen"}},{"name":"Czornebohstr.","postalCode":"02733","locality":"Cunewalde","municipality":{"key":"14625090","name":"Cunewalde","type":"Kreisangehörige_Gemeinde"},"district":{"key":"14625","name":"Bautzen","type":"Landkreis"},"federalState":{"key":"14","name":"Sachsen"}},{"name":"Daimlerstr.","postalCode":"02625","locality":"Bautzen","municipality":{"key":"14625020","name":"Bautzen / Budyšin, Stadt","type":"Stadt"},"district":{"key":"14625","name":"Bautzen","type":"Landkreis"},"federalState":{"key":"14","name":"Sachsen"}},{"name":"Damaschkestr.","postalCode":"02625","locality":"Bautzen","municipality":{"key":"14625020","name":"Bautzen / Budyšin, Stadt","type":"Stadt"},"district":{"key":"14625","name":"Bautzen","type":"Landkreis"},"federalState":{"key":"14","name":"Sachsen"}},{"name":"Dieselstr.","postalCode":"02625","locality":"Bautzen","municipality":{"key":"14625020","name":"Bautzen / Budyšin, Stadt","type":"Stadt"},"district":{"key":"14625","name":"Bautzen","type":"Landkreis"},"federalState":{"key":"14","name":"Sachsen"}},{"name":"Döberkitz","postalCode":"02625","locality":"Bautzen","municipality":{"key":"14625020","name":"Bautzen / Budyšin, Stadt","type":"Stadt"},"district":{"key":"14625","name":"Bautzen","type":"Landkreis"},"federalState":{"key":"14","name":"Sachsen"}},{"name":"Domgasse","postalCode":"02625","locality":"Bautzen","municipality":{"key":"14625020","name":"Bautzen / Budyšin, Stadt","type":"Stadt"},"district":{"key":"14625","name":"Bautzen","type":"Landkreis"},"federalState":{"key":"14","name":"Sachsen"}},{"name":"Dorfplatz Teichnitz","postalCode":"02625","locality":"Bautzen","municipality":{"key":"14625020","name":"Bautzen / Budyšin, Stadt","type":"Stadt"},"district":{"key":"14625","name":"Bautzen","type":"Landkreis"},"federalState":{"key":"14","name":"Sachsen"}},{"name":"Dornschnabel","postalCode":"02625","locality":"Bautzen","municipality":{"key":"14625020","name":"Bautzen / Budyšin, Stadt","type":"Stadt"},"district":{"key":"14625","name":"Bautzen","type":"Landkreis"},"federalState":{"key":"14","name":"Sachsen"}},{"name":"Drachestr.","postalCode":"02625","locality":"Bautzen","municipality":{"key":"14625020","name":"Bautzen / Budyšin, Stadt","type":"Stadt"},"district":{"key":"14625","name":"Bautzen","type":"Landkreis"},"federalState":{"key":"14","name":"Sachsen"}},{"name":"Dr.-Ernst-Mucke-Str.","postalCode":"02625","locality":"Bautzen","municipality":{"key":"14625020","name":"Bautzen / Budyšin, Stadt","type":"Stadt"},"district":{"key":"14625","name":"Bautzen","type":"Landkreis"},"federalState":{"key":"14","name":"Sachsen"}},{"name":"Dresdener Str.","postalCode":"02625","locality":"Bautzen","municipality":{"key":"14625020","name":"Bautzen / Budyšin, Stadt","type":"Stadt"},"district":{"key":"14625","name":"Bautzen","type":"Landkreis"},"federalState":{"key":"14","name":"Sachsen"}},{"name":"Dr.-Irmgard-Ackermann-Str.","postalCode":"02625","locality":"Bautzen","municipality":{"key":"14625020","name":"Bautzen / Budyšin, Stadt","type":"Stadt"},"district":{"key":"14625","name":"Bautzen","type":"Landkreis"},"federalState":{"key":"14","name":"Sachsen"}},{"name":"Dr.-Maria-Grollmuß-Str.","postalCode":"02625","locality":"Bautzen","municipality":{"key":"14625020","name":"Bautzen / Budyšin, Stadt","type":"Stadt"},"district":{"key":"14625","name":"Bautzen","type":"Landkreis"},"federalState":{"key":"14","name":"Sachsen"}},{"name":"Dr.-Peter-Jordan-Str.","postalCode":"02625","locality":"Bautzen","municipality":{"key":"14625020","name":"Bautzen / Budyšin, Stadt","type":"Stadt"},"district":{"key":"14625","name":"Bautzen","type":"Landkreis"},"federalState":{"key":"14","name":"Sachsen"}},{"name":"Dr.-Rohr-Str.","postalCode":"02625","locality":"Bautzen","municipality":{"key":"14625020","name":"Bautzen / Budyšin, Stadt","type":"Stadt"},"district":{"key":"14625","name":"Bautzen","type":"Landkreis"},"federalState":{"key":"14","name":"Sachsen"}},{"name":"Dr.-Salvador-Allende-Str.","postalCode":"02625","locality":"Bautzen","municipality":{"key":"14625020","name":"Bautzen / Budyšin, Stadt","type":"Stadt"},"district":{"key":"14625","name":"Bautzen","type":"Landkreis"},"federalState":{"key":"14","name":"Sachsen"}},{"name":"Eichbuschweg","postalCode":"02733","locality":"Cunewalde","municipality":{"key":"14625090","name":"Cunewalde","type":"Kreisangehörige_Gemeinde"},"district":{"key":"14625","name":"Bautzen","type":"Landkreis"},"federalState":{"key":"14","name":"Sachsen"}},{"name":"Eichenweg","postalCode":"02733","locality":"Cunewalde","municipality":{"key":"14625090","name":"Cunewalde","type":"Kreisangehörige_Gemeinde"},"district":{"key":"14625","name":"Bautzen","type":"Landkreis"},"federalState":{"key":"14","name":"Sachsen"}},{"name":"Erlenweg","postalCode":"02733","locality":"Cunewalde","municipality":{"key":"14625090","name":"Cunewalde","type":"Kreisangehörige_Gemeinde"},"district":{"key":"14625","name":"Bautzen","type":"Landkreis"},"federalState":{"key":"14","name":"Sachsen"}},{"name":"Finkengasse","postalCode":"02733","locality":"Cunewalde","municipality":{"key":"14625090","name":"Cunewalde","type":"Kreisangehörige_Gemeinde"},"district":{"key":"14625","name":"Bautzen","type":"Landkreis"},"federalState":{"key":"14","name":"Sachsen"}},{"name":"Friedensaue","postalCode":"02733","locality":"Cunewalde","municipality":{"key":"14625090","name":"Cunewalde","type":"Kreisangehörige_Gemeinde"},"district":{"key":"14625","name":"Bautzen","type":"Landkreis"},"federalState":{"key":"14","name":"Sachsen"}},{"name":"Gartenstr.","postalCode":"02733","locality":"Cunewalde","municipality":{"key":"14625090","name":"Cunewalde","type":"Kreisangehörige_Gemeinde"},"district":{"key":"14625","name":"Bautzen","type":"Landkreis"},"federalState":{"key":"14","name":"Sachsen"}},{"name":"Gewerbegebiet","postalCode":"02733","locality":"Cunewalde","municipality":{"key":"14625090","name":"Cunewalde","type":"Kreisangehörige_Gemeinde"},"district":{"key":"14625","name":"Bautzen","type":"Landkreis"},"federalState":{"key":"14","name":"Sachsen"}},{"name":"Gunter-Domschke-Weg","postalCode":"02733","locality":"Cunewalde","municipality":{"key":"14625090","name":"Cunewalde","type":"Kreisangehörige_Gemeinde"},"district":{"key":"14625","name":"Bautzen","type":"Landkreis"},"federalState":{"key":"14","name":"Sachsen"}},{"name":"Handwerkergasse","postalCode":"02733","locality":"Cunewalde","municipality":{"key":"14625090","name":"Cunewalde","type":"Kreisangehörige_Gemeinde"},"district":{"key":"14625","name":"Bautzen","type":"Landkreis"},"federalState":{"key":"14","name":"Sachsen"}},{"name":"Hauptstr.","postalCode":"02733","locality":"Cunewalde","municipality":{"key":"14625090","name":"Cunewalde","type":"Kreisangehörige_Gemeinde"},"district":{"key":"14625","name":"Bautzen","type":"Landkreis"},"federalState":{"key":"14","name":"Sachsen"}},{"name":"Heiterer Blick","postalCode":"02733","locality":"Cunewalde","municipality":{"key":"14625090","name":"Cunewalde","type":"Kreisangehörige_Gemeinde"},"district":{"key":"14625","name":"Bautzen","type":"Landkreis"},"federalState":{"key":"14","name":"Sachsen"}},{"name":"Hohlweg","postalCode":"02733","locality":"Cunewalde","municipality":{"key":"14625090","name":"Cunewalde","type":"Kreisangehörige_Gemeinde"},"district":{"key":"14625","name":"Bautzen","type":"Landkreis"},"federalState":{"key":"14","name":"Sachsen"}},{"name":"Hoppebergweg","postalCode":"02733","locality":"Cunewalde","municipality":{"key":"14625090","name":"Cunewalde","type":"Kreisangehörige_Gemeinde"},"district":{"key":"14625","name":"Bautzen","type":"Landkreis"},"federalState":{"key":"14","name":"Sachsen"}},{"name":"Innere Lauenstr.","postalCode":"02625","locality":"Bautzen","municipality":{"key":"14625020","name":"Bautzen / Budyšin, Stadt","type":"Stadt"},"district":{"key":"14625","name":"Bautzen","type":"Landkreis"},"federalState":{"key":"14","name":"Sachsen"}},{"name":"Jagdweg","postalCode":"02625","locality":"Bautzen","municipality":{"key":"14625020","name":"Bautzen / Budyšin, Stadt","type":"Stadt"},"district":{"key":"14625","name":"Bautzen","type":"Landkreis"},"federalState":{"key":"14","name":"Sachsen"}},{"name":"Jägerstr.","postalCode":"02625","locality":"Bautzen","municipality":{"key":"14625020","name":"Bautzen / Budyšin, Stadt","type":"Stadt"},"district":{"key":"14625","name":"Bautzen","type":"Landkreis"},"federalState":{"key":"14","name":"Sachsen"}},{"name":"Jahnstr.","postalCode":"02625","locality":"Bautzen","municipality":{"key":"14625020","name":"Bautzen / Budyšin, Stadt","type":"Stadt"},"district":{"key":"14625","name":"Bautzen","type":"Landkreis"},"federalState":{"key":"14","name":"Sachsen"}},{"name":"Jan-Skala-Str.","postalCode":"02625","locality":"Bautzen","municipality":{"key":"14625020","name":"Bautzen / Budyšin, Stadt","type":"Stadt"},"district":{"key":"14625","name":"Bautzen","type":"Landkreis"},"federalState":{"key":"14","name":"Sachsen"}},{"name":"Johannes-Kepler-Str.","postalCode":"02625","locality":"Bautzen","municipality":{"key":"14625020","name":"Bautzen / Budyšin, Stadt","type":"Stadt"},"district":{"key":"14625","name":"Bautzen","type":"Landkreis"},"federalState":{"key":"14","name":"Sachsen"}},{"name":"Johannes-R.-Becher-Str.","postalCode":"02625","locality":"Bautzen","municipality":{"key":"14625020","name":"Bautzen / Budyšin, Stadt","type":"Stadt"},"district":{"key":"14625","name":"Bautzen","type":"Landkreis"},"federalState":{"key":"14","name":"Sachsen"}},{"name":"Johann-Sebastian-Bach-Str.","postalCode":"02625","locality":"Bautzen","municipality":{"key":"14625020","name":"Bautzen / Budyšin, Stadt","type":"Stadt"},"district":{"key":"14625","name":"Bautzen","type":"Landkreis"},"federalState":{"key":"14","name":"Sachsen"}},{"name":"Jordantalbrücke","postalCode":"02625","locality":"Bautzen","municipality":{"key":"14625020","name":"Bautzen / Budyšin, Stadt","type":"Stadt"},"district":{"key":"14625","name":"Bautzen","type":"Landkreis"},"federalState":{"key":"14","name":"Sachsen"}},{"name":"Juri-Gagarin-Str.","postalCode":"02625","locality":"Bautzen","municipality":{"key":"14625020","name":"Bautzen / Budyšin, Stadt","type":"Stadt"},"district":{"key":"14625","name":"Bautzen","type":"Landkreis"},"federalState":{"key":"14","name":"Sachsen"}},{"name":"Kaiserweg","postalCode":"02733","locality":"Cunewalde","municipality":{"key":"14625090","name":"Cunewalde","type":"Kreisangehörige_Gemeinde"},"district":{"key":"14625","name":"Bautzen","type":"Landkreis"},"federalState":{"key":"14","name":"Sachsen"}},{"name":"Kalkofenstr.","postalCode":"02733","locality":"Cunewalde","municipality":{"key":"14625090","name":"Cunewalde","type":"Kreisangehörige_Gemeinde"},"district":{"key":"14625","name":"Bautzen","type":"Landkreis"},"federalState":{"key":"14","name":"Sachsen"}},{"name":"Kastanienweg","postalCode":"02733","locality":"Cunewalde","municipality":{"key":"14625090","name":"Cunewalde","type":"Kreisangehörige_Gemeinde"},"district":{"key":"14625","name":"Bautzen","type":"Landkreis"},"federalState":{"key":"14","name":"Sachsen"}},{"name":"Kaufhallenweg","postalCode":"02733","locality":"Cunewalde","municipality":{"key":"14625090","name":"Cunewalde","type":"Kreisangehörige_Gemeinde"},"district":{"key":"14625","name":"Bautzen","type":"Landkreis"},"federalState":{"key":"14","name":"Sachsen"}},{"name":"Kirchweg","postalCode":"02733","locality":"Cunewalde","municipality":{"key":"14625090","name":"Cunewalde","type":"Kreisangehörige_Gemeinde"},"district":{"key":"14625","name":"Bautzen","type":"Landkreis"},"federalState":{"key":"14","name":"Sachsen"}},{"name":"Klipphausen","postalCode":"02733","locality":"Cunewalde","municipality":{"key":"14625090","name":"Cunewalde","type":"Kreisangehörige_Gemeinde"},"district":{"key":"14625","name":"Bautzen","type":"Landkreis"},"federalState":{"key":"14","name":"Sachsen"}},{"name":"Köblitzer Str.","postalCode":"02733","locality":"Cunewalde","municipality":{"key":"14625090","name":"Cunewalde","type":"Kreisangehörige_Gemeinde"},"district":{"key":"14625","name":"Bautzen","type":"Landkreis"},"federalState":{"key":"14","name":"Sachsen"}},{"name":"Königsweg","postalCode":"02733","locality":"Cunewalde","municipality":{"key":"14625090","name":"Cunewalde","type":"Kreisangehörige_Gemeinde"},"district":{"key":"14625","name":"Bautzen","type":"Landkreis"},"federalState":{"key":"14","name":"Sachsen"}},{"name":"Kriegsweg","postalCode":"02733","locality":"Cunewalde","municipality":{"key":"14625090","name":"Cunewalde","type":"Kreisangehörige_Gemeinde"},"district":{"key":"14625","name":"Bautzen","type":"Landkreis"},"federalState":{"key":"14","name":"Sachsen"}},{"name":"Liebesinsel","postalCode":"02733","locality":"Cunewalde","municipality":{"key":"14625090","name":"Cunewalde","type":"Kreisangehörige_Gemeinde"},"district":{"key":"14625","name":"Bautzen","type":"Landkreis"},"federalState":{"key":"14","name":"Sachsen"}},{"name":"Löbauer Str.","postalCode":"02733","locality":"Cunewalde","municipality":{"key":"14625090","name":"Cunewalde","type":"Kreisangehörige_Gemeinde"},"district":{"key":"14625","name":"Bautzen","type":"Landkreis"},"federalState":{"key":"14","name":"Sachsen"}},{"name":"Matschenstr.","postalCode":"02733","locality":"Cunewalde","municipality":{"key":"14625090","name":"Cunewalde","type":"Kreisangehörige_Gemeinde"},"district":{"key":"14625","name":"Bautzen","type":"Landkreis"},"federalState":{"key":"14","name":"Sachsen"}},{"name":"Mittelweg","postalCode":"02733","locality":"Cunewalde","municipality":{"key":"14625090","name":"Cunewalde","type":"Kreisangehörige_Gemeinde"},"district":{"key":"14625","name":"Bautzen","type":"Landkreis"},"federalState":{"key":"14","name":"Sachsen"}},{"name":"Neudorfstr.","postalCode":"02733","locality":"Cunewalde","municipality":{"key":"14625090","name":"Cunewalde","type":"Kreisangehörige_Gemeinde"},"district":{"key":"14625","name":"Bautzen","type":"Landkreis"},"federalState":{"key":"14","name":"Sachsen"}},{"name":"Neue Sorge","postalCode":"02733","locality":"Cunewalde","municipality":{"key":"14625090","name":"Cunewalde","type":"Kreisangehörige_Gemeinde"},"district":{"key":"14625","name":"Bautzen","type":"Landkreis"},"federalState":{"key":"14","name":"Sachsen"}},{"name":"Oberlausitzer Str.","postalCode":"02733","locality":"Cunewalde","municipality":{"key":"14625090","name":"Cunewalde","type":"Kreisangehörige_Gemeinde"},"district":{"key":"14625","name":"Bautzen","type":"Landkreis"},"federalState":{"key":"14","name":"Sachsen"}},{"name":"Peterdörfelstr.","postalCode":"02733","locality":"Cunewalde","municipality":{"key":"14625090","name":"Cunewalde","type":"Kreisangehörige_Gemeinde"},"district":{"key":"14625","name":"Bautzen","type":"Landkreis"},"federalState":{"key":"14","name":"Sachsen"}},{"name":"Rachlauer Weg","postalCode":"02733","locality":"Cunewalde","municipality":{"key":"14625090","name":"Cunewalde","type":"Kreisangehörige_Gemeinde"},"district":{"key":"14625","name":"Bautzen","type":"Landkreis"},"federalState":{"key":"14","name":"Sachsen"}},{"name":"Reichenstr.","postalCode":"02733","locality":"Cunewalde","municipality":{"key":"14625090","name":"Cunewalde","type":"Kreisangehörige_Gemeinde"},"district":{"key":"14625","name":"Bautzen","type":"Landkreis"},"federalState":{"key":"14","name":"Sachsen"}},{"name":"Schloßkellergasse","postalCode":"02733","locality":"Cunewalde","municipality":{"key":"14625090","name":"Cunewalde","type":"Kreisangehörige_Gemeinde"},"district":{"key":"14625","name":"Bautzen","type":"Landkreis"},"federalState":{"key":"14","name":"Sachsen"}},{"name":"Schmiedegasse","postalCode":"02733","locality":"Cunewalde","municipality":{"key":"14625090","name":"Cunewalde","type":"Kreisangehörige_Gemeinde"},"district":{"key":"14625","name":"Bautzen","type":"Landkreis"},"federalState":{"key":"14","name":"Sachsen"}},{"name":"Schönberg","postalCode":"02733","locality":"Cunewalde","municipality":{"key":"14625090","name":"Cunewalde","type":"Kreisangehörige_Gemeinde"},"district":{"key":"14625","name":"Bautzen","type":"Landkreis"},"federalState":{"key":"14","name":"Sachsen"}},{"name":"Schönberger Str.","postalCode":"02733","locality":"Cunewalde","municipality":{"key":"14625090","name":"Cunewalde","type":"Kreisangehörige_Gemeinde"},"district":{"key":"14625","name":"Bautzen","type":"Landkreis"},"federalState":{"key":"14","name":"Sachsen"}},{"name":"Schulweg","postalCode":"02733","locality":"Cunewalde","municipality":{"key":"14625090","name":"Cunewalde","type":"Kreisangehörige_Gemeinde"},"district":{"key":"14625","name":"Bautzen","type":"Landkreis"},"federalState":{"key":"14","name":"Sachsen"}},{"name":"Siedlung","postalCode":"02733","locality":"Cunewalde","municipality":{"key":"14625090","name":"Cunewalde","type":"Kreisangehörige_Gemeinde"},"district":{"key":"14625","name":"Bautzen","type":"Landkreis"},"federalState":{"key":"14","name":"Sachsen"}},{"name":"Siedlungsweg","postalCode":"02733","locality":"Cunewalde","municipality":{"key":"14625090","name":"Cunewalde","type":"Kreisangehörige_Gemeinde"},"district":{"key":"14625","name":"Bautzen","type":"Landkreis"},"federalState":{"key":"14","name":"Sachsen"}},{"name":"Sonnenweg","postalCode":"02733","locality":"Cunewalde","municipality":{"key":"14625090","name":"Cunewalde","type":"Kreisangehörige_Gemeinde"},"district":{"key":"14625","name":"Bautzen","type":"Landkreis"},"federalState":{"key":"14","name":"Sachsen"}},{"name":"Sornßiger Weg","postalCode":"02733","locality":"Cunewalde","municipality":{"key":"14625090","name":"Cunewalde","type":"Kreisangehörige_Gemeinde"},"district":{"key":"14625","name":"Bautzen","type":"Landkreis"},"federalState":{"key":"14","name":"Sachsen"}},{"name":"Stempelweg","postalCode":"02733","locality":"Cunewalde","municipality":{"key":"14625090","name":"Cunewalde","type":"Kreisangehörige_Gemeinde"},"district":{"key":"14625","name":"Bautzen","type":"Landkreis"},"federalState":{"key":"14","name":"Sachsen"}},{"name":"Streitbuschweg","postalCode":"02733","locality":"Cunewalde","municipality":{"key":"14625090","name":"Cunewalde","type":"Kreisangehörige_Gemeinde"},"district":{"key":"14625","name":"Bautzen","type":"Landkreis"},"federalState":{"key":"14","name":"Sachsen"}},{"name":"Südweg","postalCode":"02733","locality":"Cunewalde","municipality":{"key":"14625090","name":"Cunewalde","type":"Kreisangehörige_Gemeinde"},"district":{"key":"14625","name":"Bautzen","type":"Landkreis"},"federalState":{"key":"14","name":"Sachsen"}},{"name":"Talblick","postalCode":"02625","locality":"Bautzen","municipality":{"key":"14625020","name":"Bautzen / Budyšin, Stadt","type":"Stadt"},"district":{"key":"14625","name":"Bautzen","type":"Landkreis"},"federalState":{"key":"14","name":"Sachsen"}},{"name":"Talbrücke","postalCode":"02625","locality":"Bautzen","municipality":{"key":"14625020","name":"Bautzen / Budyšin, Stadt","type":"Stadt"},"district":{"key":"14625","name":"Bautzen","type":"Landkreis"},"federalState":{"key":"14","name":"Sachsen"}},{"name":"Talstr.","postalCode":"02625","locality":"Bautzen","municipality":{"key":"14625020","name":"Bautzen / Budyšin, Stadt","type":"Stadt"},"district":{"key":"14625","name":"Bautzen","type":"Landkreis"},"federalState":{"key":"14","name":"Sachsen"}},{"name":"Taschenberg","postalCode":"02625","locality":"Bautzen","municipality":{"key":"14625020","name":"Bautzen / Budyšin, Stadt","type":"Stadt"},"district":{"key":"14625","name":"Bautzen","type":"Landkreis"},"federalState":{"key":"14","name":"Sachsen"}},{"name":"Taucherstr.","postalCode":"02625","locality":"Bautzen","municipality":{"key":"14625020","name":"Bautzen / Budyšin, Stadt","type":"Stadt"},"district":{"key":"14625","name":"Bautzen","type":"Landkreis"},"federalState":{"key":"14","name":"Sachsen"}},{"name":"Teichnitzer Str.","postalCode":"02625","locality":"Bautzen","municipality":{"key":"14625020","name":"Bautzen / Budyšin, Stadt","type":"Stadt"},"district":{"key":"14625","name":"Bautzen","type":"Landkreis"},"federalState":{"key":"14","name":"Sachsen"}},{"name":"Temritz","postalCode":"02625","locality":"Bautzen","municipality":{"key":"14625020","name":"Bautzen / Budyšin, Stadt","type":"Stadt"},"district":{"key":"14625","name":"Bautzen","type":"Landkreis"},"federalState":{"key":"14","name":"Sachsen"}},{"name":"Temritzer Weg","postalCode":"02625","locality":"Bautzen","municipality":{"key":"14625020","name":"Bautzen / Budyšin, Stadt","type":"Stadt"},"district":{"key":"14625","name":"Bautzen","type":"Landkreis"},"federalState":{"key":"14","name":"Sachsen"}},{"name":"Theodor-Körner-Str.","postalCode":"02625","locality":"Bautzen","municipality":{"key":"14625020","name":"Bautzen / Budyšin, Stadt","type":"Stadt"},"district":{"key":"14625","name":"Bautzen","type":"Landkreis"},"federalState":{"key":"14","name":"Sachsen"}},{"name":"Theodor-Schütze-Weg","postalCode":"02625","locality":"Bautzen","municipality":{"key":"14625020","name":"Bautzen / Budyšin, Stadt","type":"Stadt"},"district":{"key":"14625","name":"Bautzen","type":"Landkreis"},"federalState":{"key":"14","name":"Sachsen"}},{"name":"Thomas-Mann-Str.","postalCode":"02625","locality":"Bautzen","municipality":{"key":"14625020","name":"Bautzen / Budyšin, Stadt","type":"Stadt"},"district":{"key":"14625","name":"Bautzen","type":"Landkreis"},"federalState":{"key":"14","name":"Sachsen"}},{"name":"Thomas-Müntzer-Str.","postalCode":"02625","locality":"Bautzen","municipality":{"key":"14625020","name":"Bautzen / Budyšin, Stadt","type":"Stadt"},"district":{"key":"14625","name":"Bautzen","type":"Landkreis"},"federalState":{"key":"14","name":"Sachsen"}},{"name":"Thrombergstr.","postalCode":"02625","locality":"Bautzen","municipality":{"key":"14625020","name":"Bautzen / Budyšin, Stadt","type":"Stadt"},"district":{"key":"14625","name":"Bautzen","type":"Landkreis"},"federalState":{"key":"14","name":"Sachsen"}},{"name":"Töpferstr.","postalCode":"02625","locality":"Bautzen","municipality":{"key":"14625020","name":"Bautzen / Budyšin, Stadt","type":"Stadt"},"district":{"key":"14625","name":"Bautzen","type":"Landkreis"},"federalState":{"key":"14","name":"Sachsen"}},{"name":"Tuchmacherstr.","postalCode":"02625","locality":"Bautzen","municipality":{"key":"14625020","name":"Bautzen / Budyšin, Stadt","type":"Stadt"},"district":{"key":"14625","name":"Bautzen","type":"Landkreis"},"federalState":{"key":"14","name":"Sachsen"}},{"name":"Tzschirnerstr.","postalCode":"02625","locality":"Bautzen","municipality":{"key":"14625020","name":"Bautzen / Budyšin, Stadt","type":"Stadt"},"district":{"key":"14625","name":"Bautzen","type":"Landkreis"},"federalState":{"key":"14","name":"Sachsen"}},{"name":"Uferweg","postalCode":"02733","locality":"Cunewalde","municipality":{"key":"14625090","name":"Cunewalde","type":"Kreisangehörige_Gemeinde"},"district":{"key":"14625","name":"Bautzen","type":"Landkreis"},"federalState":{"key":"14","name":"Sachsen"}},{"name":"Umgebindehauspark","postalCode":"02733","locality":"Cunewalde","municipality":{"key":"14625090","name":"Cunewalde","type":"Kreisangehörige_Gemeinde"},"district":{"key":"14625","name":"Bautzen","type":"Landkreis"},"federalState":{"key":"14","name":"Sachsen"}},{"name":"Veilchenberg","postalCode":"02625","locality":"Bautzen","municipality":{"key":"14625020","name":"Bautzen / Budyšin, Stadt","type":"Stadt"},"district":{"key":"14625","name":"Bautzen","type":"Landkreis"},"federalState":{"key":"14","name":"Sachsen"}},{"name":"Vor dem Gerbertor","postalCode":"02625","locality":"Bautzen","municipality":{"key":"14625020","name":"Bautzen / Budyšin, Stadt","type":"Stadt"},"district":{"key":"14625","name":"Bautzen","type":"Landkreis"},"federalState":{"key":"14","name":"Sachsen"}},{"name":"Vor dem Schülertor","postalCode":"02625","locality":"Bautzen","municipality":{"key":"14625020","name":"Bautzen / Budyšin, Stadt","type":"Stadt"},"district":{"key":"14625","name":"Bautzen","type":"Landkreis"},"federalState":{"key":"14","name":"Sachsen"}},{"name":"Vor der Fischerpforte","postalCode":"02625","locality":"Bautzen","municipality":{"key":"14625020","name":"Bautzen / Budyšin, Stadt","type":"Stadt"},"district":{"key":"14625","name":"Bautzen","type":"Landkreis"},"federalState":{"key":"14","name":"Sachsen"}},{"name":"Waldstr.","postalCode":"02733","locality":"Cunewalde","municipality":{"key":"14625090","name":"Cunewalde","type":"Kreisangehörige_Gemeinde"},"district":{"key":"14625","name":"Bautzen","type":"Landkreis"},"federalState":{"key":"14","name":"Sachsen"}},{"name":"Weigsdorfer Berg","postalCode":"02733","locality":"Cunewalde","municipality":{"key":"14625090","name":"Cunewalde","type":"Kreisangehörige_Gemeinde"},"district":{"key":"14625","name":"Bautzen","type":"Landkreis"},"federalState":{"key":"14","name":"Sachsen"}},{"name":"Wilhelm-von-Polenz Park","postalCode":"02733","locality":"Cunewalde","municipality":{"key":"14625090","name":"Cunewalde","type":"Kreisangehörige_Gemeinde"},"district":{"key":"14625","name":"Bautzen","type":"Landkreis"},"federalState":{"key":"14","name":"Sachsen"}},{"name":"Wilhelm-von-Polenz-Str.","postalCode":"02733","locality":"Cunewalde","municipality":{"key":"14625090","name":"Cunewalde","type":"Kreisangehörige_Gemeinde"},"district":{"key":"14625","name":"Bautzen","type":"Landkreis"},"federalState":{"key":"14","name":"Sachsen"}},{"name":"Wuischgasse","postalCode":"02733","locality":"Cunewalde","municipality":{"key":"14625090","name":"Cunewalde","type":"Kreisangehörige_Gemeinde"},"district":{"key":"14625","name":"Bautzen","type":"Landkreis"},"federalState":{"key":"14","name":"Sachsen"}},{"name":"Yorckstr.","postalCode":"02625","locality":"Bautzen","municipality":{"key":"14625020","name":"Bautzen / Budyšin, Stadt","type":"Stadt"},"district":{"key":"14625","name":"Bautzen","type":"Landkreis"},"federalState":{"key":"14","name":"Sachsen"}},{"name":"Zieglertal","postalCode":"02733","locality":"Cunewalde","municipality":{"key":"14625090","name":"Cunewalde","type":"Kreisangehörige_Gemeinde"},"district":{"key":"14625","name":"Bautzen","type":"Landkreis"},"federalState":{"key":"14","name":"Sachsen"}},{"name":"Zum Kiefernberg","postalCode":"02733","locality":"Cunewalde","municipality":{"key":"14625090","name":"Cunewalde","type":"Kreisangehörige_Gemeinde"},"district":{"key":"14625","name":"Bautzen","type":"Landkreis"},"federalState":{"key":"14","name":"Sachsen"}},{"name":"Zur Rabinke","postalCode":"02733","locality":"Cunewalde","municipality":{"key":"14625090","name":"Cunewalde","type":"Kreisangehörige_Gemeinde"},"district":{"key":"14625","name":"Bautzen","type":"Landkreis"},"federalState":{"key":"14","name":"Sachsen"}},{"name":"Äußere Lauenstr.","postalCode":"02625","locality":"Bautzen","municipality":{"key":"14625020","name":"Bautzen / Budyšin, Stadt","type":"Stadt"},"district":{"key":"14625","name":"Bautzen","type":"Landkreis"},"federalState":{"key":"14","name":"Sachsen"}},]