[{"name":"Am Daßberg","postalCode":"97656","locality":"Oberelsbach","municipality":{"key":"09673149","name":"Oberelsbach, M","type":"Markt"},"district":{"key":"09673","name":"Rhön-Grabfeld","type":"Landkreis"},"federalState":{"key":"09","name":"Bayern"}},{"name":"Am Dornberg","postalCode":"97656","locality":"Oberelsbach","municipality":{"key":"09673149","name":"Oberelsbach, M","type":"Markt"},"district":{"key":"09673","name":"Rhön-Grabfeld","type":"Landkreis"},"federalState":{"key":"09","name":"Bayern"}},{"name":"Am Engelstein","postalCode":"97656","locality":"Oberelsbach","municipality":{"key":"09673149","name":"Oberelsbach, M","type":"Markt"},"district":{"key":"09673","name":"Rhön-Grabfeld","type":"Landkreis"},"federalState":{"key":"09","name":"Bayern"}},{"name":"Am heiligen Floß","postalCode":"97656","locality":"Oberelsbach","municipality":{"key":"09673149","name":"Oberelsbach, M","type":"Markt"},"district":{"key":"09673","name":"Rhön-Grabfeld","type":"Landkreis"},"federalState":{"key":"09","name":"Bayern"}},{"name":"Am Heppberg","postalCode":"97656","locality":"Oberelsbach","municipality":{"key":"09673149","name":"Oberelsbach, M","type":"Markt"},"district":{"key":"09673","name":"Rhön-Grabfeld","type":"Landkreis"},"federalState":{"key":"09","name":"Bayern"}},{"name":"Am Hofstatt","postalCode":"97656","locality":"Oberelsbach","municipality":{"key":"09673149","name":"Oberelsbach, M","type":"Markt"},"district":{"key":"09673","name":"Rhön-Grabfeld","type":"Landkreis"},"federalState":{"key":"09","name":"Bayern"}},{"name":"Am Mühlbrunnen","postalCode":"97656","locality":"Oberelsbach","municipality":{"key":"09673149","name":"Oberelsbach, M","type":"Markt"},"district":{"key":"09673","name":"Rhön-Grabfeld","type":"Landkreis"},"federalState":{"key":"09","name":"Bayern"}},{"name":"Am Oberen Tor","postalCode":"97656","locality":"Oberelsbach","municipality":{"key":"09673149","name":"Oberelsbach, M","type":"Markt"},"district":{"key":"09673","name":"Rhön-Grabfeld","type":"Landkreis"},"federalState":{"key":"09","name":"Bayern"}},{"name":"Am Rain","postalCode":"97656","locality":"Oberelsbach","municipality":{"key":"09673149","name":"Oberelsbach, M","type":"Markt"},"district":{"key":"09673","name":"Rhön-Grabfeld","type":"Landkreis"},"federalState":{"key":"09","name":"Bayern"}},{"name":"Am Tillgarten","postalCode":"97656","locality":"Oberelsbach","municipality":{"key":"09673149","name":"Oberelsbach, M","type":"Markt"},"district":{"key":"09673","name":"Rhön-Grabfeld","type":"Landkreis"},"federalState":{"key":"09","name":"Bayern"}},{"name":"Am Weinberg","postalCode":"97656","locality":"Oberelsbach","municipality":{"key":"09673149","name":"Oberelsbach, M","type":"Markt"},"district":{"key":"09673","name":"Rhön-Grabfeld","type":"Landkreis"},"federalState":{"key":"09","name":"Bayern"}},{"name":"Am Wendelsfleck","postalCode":"97656","locality":"Oberelsbach","municipality":{"key":"09673149","name":"Oberelsbach, M","type":"Markt"},"district":{"key":"09673","name":"Rhön-Grabfeld","type":"Landkreis"},"federalState":{"key":"09","name":"Bayern"}},{"name":"An der Hardt","postalCode":"97656","locality":"Oberelsbach","municipality":{"key":"09673149","name":"Oberelsbach, M","type":"Markt"},"district":{"key":"09673","name":"Rhön-Grabfeld","type":"Landkreis"},"federalState":{"key":"09","name":"Bayern"}},{"name":"Aspenweg","postalCode":"97656","locality":"Oberelsbach","municipality":{"key":"09673149","name":"Oberelsbach, M","type":"Markt"},"district":{"key":"09673","name":"Rhön-Grabfeld","type":"Landkreis"},"federalState":{"key":"09","name":"Bayern"}},{"name":"Auweg","postalCode":"97656","locality":"Oberelsbach","municipality":{"key":"09673149","name":"Oberelsbach, M","type":"Markt"},"district":{"key":"09673","name":"Rhön-Grabfeld","type":"Landkreis"},"federalState":{"key":"09","name":"Bayern"}},{"name":"Bergweg","postalCode":"97656","locality":"Oberelsbach","municipality":{"key":"09673149","name":"Oberelsbach, M","type":"Markt"},"district":{"key":"09673","name":"Rhön-Grabfeld","type":"Landkreis"},"federalState":{"key":"09","name":"Bayern"}},{"name":"Birkenhardt","postalCode":"97656","locality":"Oberelsbach","municipality":{"key":"09673149","name":"Oberelsbach, M","type":"Markt"},"district":{"key":"09673","name":"Rhön-Grabfeld","type":"Landkreis"},"federalState":{"key":"09","name":"Bayern"}},{"name":"Bischofsheimer Str.","postalCode":"97656","locality":"Oberelsbach","municipality":{"key":"09673149","name":"Oberelsbach, M","type":"Markt"},"district":{"key":"09673","name":"Rhön-Grabfeld","type":"Landkreis"},"federalState":{"key":"09","name":"Bayern"}},{"name":"Blumenstr.","postalCode":"97656","locality":"Oberelsbach","municipality":{"key":"09673149","name":"Oberelsbach, M","type":"Markt"},"district":{"key":"09673","name":"Rhön-Grabfeld","type":"Landkreis"},"federalState":{"key":"09","name":"Bayern"}},{"name":"Bornhof","postalCode":"97656","locality":"Oberelsbach","municipality":{"key":"09673149","name":"Oberelsbach, M","type":"Markt"},"district":{"key":"09673","name":"Rhön-Grabfeld","type":"Landkreis"},"federalState":{"key":"09","name":"Bayern"}},{"name":"Brauhausgasse","postalCode":"97656","locality":"Oberelsbach","municipality":{"key":"09673149","name":"Oberelsbach, M","type":"Markt"},"district":{"key":"09673","name":"Rhön-Grabfeld","type":"Landkreis"},"federalState":{"key":"09","name":"Bayern"}},{"name":"Brückenweg","postalCode":"97656","locality":"Oberelsbach","municipality":{"key":"09673149","name":"Oberelsbach, M","type":"Markt"},"district":{"key":"09673","name":"Rhön-Grabfeld","type":"Landkreis"},"federalState":{"key":"09","name":"Bayern"}},{"name":"Brunnengasse","postalCode":"97656","locality":"Oberelsbach","municipality":{"key":"09673149","name":"Oberelsbach, M","type":"Markt"},"district":{"key":"09673","name":"Rhön-Grabfeld","type":"Landkreis"},"federalState":{"key":"09","name":"Bayern"}},{"name":"Buchenweg","postalCode":"97656","locality":"Oberelsbach","municipality":{"key":"09673149","name":"Oberelsbach, M","type":"Markt"},"district":{"key":"09673","name":"Rhön-Grabfeld","type":"Landkreis"},"federalState":{"key":"09","name":"Bayern"}},{"name":"Bürgerhausstr.","postalCode":"97656","locality":"Oberelsbach","municipality":{"key":"09673149","name":"Oberelsbach, M","type":"Markt"},"district":{"key":"09673","name":"Rhön-Grabfeld","type":"Landkreis"},"federalState":{"key":"09","name":"Bayern"}},{"name":"Dorfstr.","postalCode":"97656","locality":"Oberelsbach","municipality":{"key":"09673149","name":"Oberelsbach, M","type":"Markt"},"district":{"key":"09673","name":"Rhön-Grabfeld","type":"Landkreis"},"federalState":{"key":"09","name":"Bayern"}},{"name":"Dünsbergweg","postalCode":"97656","locality":"Oberelsbach","municipality":{"key":"09673149","name":"Oberelsbach, M","type":"Markt"},"district":{"key":"09673","name":"Rhön-Grabfeld","type":"Landkreis"},"federalState":{"key":"09","name":"Bayern"}},{"name":"Ellerweg","postalCode":"97656","locality":"Oberelsbach","municipality":{"key":"09673149","name":"Oberelsbach, M","type":"Markt"},"district":{"key":"09673","name":"Rhön-Grabfeld","type":"Landkreis"},"federalState":{"key":"09","name":"Bayern"}},{"name":"Elsstr.","postalCode":"97656","locality":"Oberelsbach","municipality":{"key":"09673149","name":"Oberelsbach, M","type":"Markt"},"district":{"key":"09673","name":"Rhön-Grabfeld","type":"Landkreis"},"federalState":{"key":"09","name":"Bayern"}},{"name":"Elstr.","postalCode":"97656","locality":"Oberelsbach","municipality":{"key":"09673149","name":"Oberelsbach, M","type":"Markt"},"district":{"key":"09673","name":"Rhön-Grabfeld","type":"Landkreis"},"federalState":{"key":"09","name":"Bayern"}},{"name":"Elsweg","postalCode":"97656","locality":"Oberelsbach","municipality":{"key":"09673149","name":"Oberelsbach, M","type":"Markt"},"district":{"key":"09673","name":"Rhön-Grabfeld","type":"Landkreis"},"federalState":{"key":"09","name":"Bayern"}},{"name":"Enge Gasse","postalCode":"97656","locality":"Oberelsbach","municipality":{"key":"09673149","name":"Oberelsbach, M","type":"Markt"},"district":{"key":"09673","name":"Rhön-Grabfeld","type":"Landkreis"},"federalState":{"key":"09","name":"Bayern"}},{"name":"Fichtelstr.","postalCode":"97656","locality":"Oberelsbach","municipality":{"key":"09673149","name":"Oberelsbach, M","type":"Markt"},"district":{"key":"09673","name":"Rhön-Grabfeld","type":"Landkreis"},"federalState":{"key":"09","name":"Bayern"}},{"name":"Fichtenweg","postalCode":"97656","locality":"Oberelsbach","municipality":{"key":"09673149","name":"Oberelsbach, M","type":"Markt"},"district":{"key":"09673","name":"Rhön-Grabfeld","type":"Landkreis"},"federalState":{"key":"09","name":"Bayern"}},{"name":"Franzosenweg","postalCode":"97656","locality":"Oberelsbach","municipality":{"key":"09673149","name":"Oberelsbach, M","type":"Markt"},"district":{"key":"09673","name":"Rhön-Grabfeld","type":"Landkreis"},"federalState":{"key":"09","name":"Bayern"}},{"name":"Friedhofsweg","postalCode":"97656","locality":"Oberelsbach","municipality":{"key":"09673149","name":"Oberelsbach, M","type":"Markt"},"district":{"key":"09673","name":"Rhön-Grabfeld","type":"Landkreis"},"federalState":{"key":"09","name":"Bayern"}},{"name":"Gangolfstr.","postalCode":"97656","locality":"Oberelsbach","municipality":{"key":"09673149","name":"Oberelsbach, M","type":"Markt"},"district":{"key":"09673","name":"Rhön-Grabfeld","type":"Landkreis"},"federalState":{"key":"09","name":"Bayern"}},{"name":"Gartenweg","postalCode":"97656","locality":"Oberelsbach","municipality":{"key":"09673149","name":"Oberelsbach, M","type":"Markt"},"district":{"key":"09673","name":"Rhön-Grabfeld","type":"Landkreis"},"federalState":{"key":"09","name":"Bayern"}},{"name":"Hauckweg","postalCode":"97656","locality":"Oberelsbach","municipality":{"key":"09673149","name":"Oberelsbach, M","type":"Markt"},"district":{"key":"09673","name":"Rhön-Grabfeld","type":"Landkreis"},"federalState":{"key":"09","name":"Bayern"}},{"name":"Hauptstr.","postalCode":"97656","locality":"Oberelsbach","municipality":{"key":"09673149","name":"Oberelsbach, M","type":"Markt"},"district":{"key":"09673","name":"Rhön-Grabfeld","type":"Landkreis"},"federalState":{"key":"09","name":"Bayern"}},{"name":"Herbertsacker","postalCode":"97656","locality":"Oberelsbach","municipality":{"key":"09673149","name":"Oberelsbach, M","type":"Markt"},"district":{"key":"09673","name":"Rhön-Grabfeld","type":"Landkreis"},"federalState":{"key":"09","name":"Bayern"}},{"name":"Herrengarten","postalCode":"97656","locality":"Oberelsbach","municipality":{"key":"09673149","name":"Oberelsbach, M","type":"Markt"},"district":{"key":"09673","name":"Rhön-Grabfeld","type":"Landkreis"},"federalState":{"key":"09","name":"Bayern"}},{"name":"Herrenwiese","postalCode":"97656","locality":"Oberelsbach","municipality":{"key":"09673149","name":"Oberelsbach, M","type":"Markt"},"district":{"key":"09673","name":"Rhön-Grabfeld","type":"Landkreis"},"federalState":{"key":"09","name":"Bayern"}},{"name":"Hochrhönstr.","postalCode":"97656","locality":"Oberelsbach","municipality":{"key":"09673149","name":"Oberelsbach, M","type":"Markt"},"district":{"key":"09673","name":"Rhön-Grabfeld","type":"Landkreis"},"federalState":{"key":"09","name":"Bayern"}},{"name":"Höhligkopfweg","postalCode":"97656","locality":"Oberelsbach","municipality":{"key":"09673149","name":"Oberelsbach, M","type":"Markt"},"district":{"key":"09673","name":"Rhön-Grabfeld","type":"Landkreis"},"federalState":{"key":"09","name":"Bayern"}},{"name":"Josefsweg","postalCode":"97656","locality":"Oberelsbach","municipality":{"key":"09673149","name":"Oberelsbach, M","type":"Markt"},"district":{"key":"09673","name":"Rhön-Grabfeld","type":"Landkreis"},"federalState":{"key":"09","name":"Bayern"}},{"name":"Kapellenstr.","postalCode":"97656","locality":"Oberelsbach","municipality":{"key":"09673149","name":"Oberelsbach, M","type":"Markt"},"district":{"key":"09673","name":"Rhön-Grabfeld","type":"Landkreis"},"federalState":{"key":"09","name":"Bayern"}},{"name":"Kirchblick","postalCode":"97656","locality":"Oberelsbach","municipality":{"key":"09673149","name":"Oberelsbach, M","type":"Markt"},"district":{"key":"09673","name":"Rhön-Grabfeld","type":"Landkreis"},"federalState":{"key":"09","name":"Bayern"}},{"name":"Kreuzbergblick","postalCode":"97656","locality":"Oberelsbach","municipality":{"key":"09673149","name":"Oberelsbach, M","type":"Markt"},"district":{"key":"09673","name":"Rhön-Grabfeld","type":"Landkreis"},"federalState":{"key":"09","name":"Bayern"}},{"name":"Leiten","postalCode":"97656","locality":"Oberelsbach","municipality":{"key":"09673149","name":"Oberelsbach, M","type":"Markt"},"district":{"key":"09673","name":"Rhön-Grabfeld","type":"Landkreis"},"federalState":{"key":"09","name":"Bayern"}},{"name":"Lindenstr.","postalCode":"97656","locality":"Oberelsbach","municipality":{"key":"09673149","name":"Oberelsbach, M","type":"Markt"},"district":{"key":"09673","name":"Rhön-Grabfeld","type":"Landkreis"},"federalState":{"key":"09","name":"Bayern"}},{"name":"Lindenweg","postalCode":"97656","locality":"Oberelsbach","municipality":{"key":"09673149","name":"Oberelsbach, M","type":"Markt"},"district":{"key":"09673","name":"Rhön-Grabfeld","type":"Landkreis"},"federalState":{"key":"09","name":"Bayern"}},{"name":"Löffelstr.","postalCode":"97656","locality":"Oberelsbach","municipality":{"key":"09673149","name":"Oberelsbach, M","type":"Markt"},"district":{"key":"09673","name":"Rhön-Grabfeld","type":"Landkreis"},"federalState":{"key":"09","name":"Bayern"}},{"name":"Mariengasse","postalCode":"97656","locality":"Oberelsbach","municipality":{"key":"09673149","name":"Oberelsbach, M","type":"Markt"},"district":{"key":"09673","name":"Rhön-Grabfeld","type":"Landkreis"},"federalState":{"key":"09","name":"Bayern"}},{"name":"Marktplatz","postalCode":"97656","locality":"Oberelsbach","municipality":{"key":"09673149","name":"Oberelsbach, M","type":"Markt"},"district":{"key":"09673","name":"Rhön-Grabfeld","type":"Landkreis"},"federalState":{"key":"09","name":"Bayern"}},{"name":"Marktstr.","postalCode":"97656","locality":"Oberelsbach","municipality":{"key":"09673149","name":"Oberelsbach, M","type":"Markt"},"district":{"key":"09673","name":"Rhön-Grabfeld","type":"Landkreis"},"federalState":{"key":"09","name":"Bayern"}},{"name":"Mühlgasse","postalCode":"97656","locality":"Oberelsbach","municipality":{"key":"09673149","name":"Oberelsbach, M","type":"Markt"},"district":{"key":"09673","name":"Rhön-Grabfeld","type":"Landkreis"},"federalState":{"key":"09","name":"Bayern"}},{"name":"Mühlweg","postalCode":"97656","locality":"Oberelsbach","municipality":{"key":"09673149","name":"Oberelsbach, M","type":"Markt"},"district":{"key":"09673","name":"Rhön-Grabfeld","type":"Landkreis"},"federalState":{"key":"09","name":"Bayern"}},{"name":"Neuer Weg","postalCode":"97656","locality":"Oberelsbach","municipality":{"key":"09673149","name":"Oberelsbach, M","type":"Markt"},"district":{"key":"09673","name":"Rhön-Grabfeld","type":"Landkreis"},"federalState":{"key":"09","name":"Bayern"}},{"name":"Oberwaldbehrunger Str.","postalCode":"97656","locality":"Oberelsbach","municipality":{"key":"09673149","name":"Oberelsbach, M","type":"Markt"},"district":{"key":"09673","name":"Rhön-Grabfeld","type":"Landkreis"},"federalState":{"key":"09","name":"Bayern"}},{"name":"Ostergarten","postalCode":"97656","locality":"Oberelsbach","municipality":{"key":"09673149","name":"Oberelsbach, M","type":"Markt"},"district":{"key":"09673","name":"Rhön-Grabfeld","type":"Landkreis"},"federalState":{"key":"09","name":"Bayern"}},{"name":"Petersberger Ringweg","postalCode":"97656","locality":"Oberelsbach","municipality":{"key":"09673149","name":"Oberelsbach, M","type":"Markt"},"district":{"key":"09673","name":"Rhön-Grabfeld","type":"Landkreis"},"federalState":{"key":"09","name":"Bayern"}},{"name":"Raiffeisengasse","postalCode":"97656","locality":"Oberelsbach","municipality":{"key":"09673149","name":"Oberelsbach, M","type":"Markt"},"district":{"key":"09673","name":"Rhön-Grabfeld","type":"Landkreis"},"federalState":{"key":"09","name":"Bayern"}},{"name":"Rathgeberstr.","postalCode":"97656","locality":"Oberelsbach","municipality":{"key":"09673149","name":"Oberelsbach, M","type":"Markt"},"district":{"key":"09673","name":"Rhön-Grabfeld","type":"Landkreis"},"federalState":{"key":"09","name":"Bayern"}},{"name":"Rhönbergstr.","postalCode":"97656","locality":"Oberelsbach","municipality":{"key":"09673149","name":"Oberelsbach, M","type":"Markt"},"district":{"key":"09673","name":"Rhön-Grabfeld","type":"Landkreis"},"federalState":{"key":"09","name":"Bayern"}},{"name":"Rhönblick","postalCode":"97656","locality":"Oberelsbach","municipality":{"key":"09673149","name":"Oberelsbach, M","type":"Markt"},"district":{"key":"09673","name":"Rhön-Grabfeld","type":"Landkreis"},"federalState":{"key":"09","name":"Bayern"}},{"name":"Rhönstr.","postalCode":"97656","locality":"Oberelsbach","municipality":{"key":"09673149","name":"Oberelsbach, M","type":"Markt"},"district":{"key":"09673","name":"Rhön-Grabfeld","type":"Landkreis"},"federalState":{"key":"09","name":"Bayern"}},{"name":"Röderweg","postalCode":"97656","locality":"Oberelsbach","municipality":{"key":"09673149","name":"Oberelsbach, M","type":"Markt"},"district":{"key":"09673","name":"Rhön-Grabfeld","type":"Landkreis"},"federalState":{"key":"09","name":"Bayern"}},{"name":"Rosenweg","postalCode":"97656","locality":"Oberelsbach","municipality":{"key":"09673149","name":"Oberelsbach, M","type":"Markt"},"district":{"key":"09673","name":"Rhön-Grabfeld","type":"Landkreis"},"federalState":{"key":"09","name":"Bayern"}},{"name":"Sankt-kilian-Str.","postalCode":"97656","locality":"Oberelsbach","municipality":{"key":"09673149","name":"Oberelsbach, M","type":"Markt"},"district":{"key":"09673","name":"Rhön-Grabfeld","type":"Landkreis"},"federalState":{"key":"09","name":"Bayern"}},{"name":"Schulstr.","postalCode":"97656","locality":"Oberelsbach","municipality":{"key":"09673149","name":"Oberelsbach, M","type":"Markt"},"district":{"key":"09673","name":"Rhön-Grabfeld","type":"Landkreis"},"federalState":{"key":"09","name":"Bayern"}},{"name":"Schustergasse","postalCode":"97656","locality":"Oberelsbach","municipality":{"key":"09673149","name":"Oberelsbach, M","type":"Markt"},"district":{"key":"09673","name":"Rhön-Grabfeld","type":"Landkreis"},"federalState":{"key":"09","name":"Bayern"}},{"name":"Sebstr.","postalCode":"97656","locality":"Oberelsbach","municipality":{"key":"09673149","name":"Oberelsbach, M","type":"Markt"},"district":{"key":"09673","name":"Rhön-Grabfeld","type":"Landkreis"},"federalState":{"key":"09","name":"Bayern"}},{"name":"Sonderstr.","postalCode":"97656","locality":"Oberelsbach","municipality":{"key":"09673149","name":"Oberelsbach, M","type":"Markt"},"district":{"key":"09673","name":"Rhön-Grabfeld","type":"Landkreis"},"federalState":{"key":"09","name":"Bayern"}},{"name":"Steingasse","postalCode":"97656","locality":"Oberelsbach","municipality":{"key":"09673149","name":"Oberelsbach, M","type":"Markt"},"district":{"key":"09673","name":"Rhön-Grabfeld","type":"Landkreis"},"federalState":{"key":"09","name":"Bayern"}},{"name":"Stockgasse","postalCode":"97656","locality":"Oberelsbach","municipality":{"key":"09673149","name":"Oberelsbach, M","type":"Markt"},"district":{"key":"09673","name":"Rhön-Grabfeld","type":"Landkreis"},"federalState":{"key":"09","name":"Bayern"}},{"name":"Torgartenstr.","postalCode":"97656","locality":"Oberelsbach","municipality":{"key":"09673149","name":"Oberelsbach, M","type":"Markt"},"district":{"key":"09673","name":"Rhön-Grabfeld","type":"Landkreis"},"federalState":{"key":"09","name":"Bayern"}},{"name":"Triftstr.","postalCode":"97656","locality":"Oberelsbach","municipality":{"key":"09673149","name":"Oberelsbach, M","type":"Markt"},"district":{"key":"09673","name":"Rhön-Grabfeld","type":"Landkreis"},"federalState":{"key":"09","name":"Bayern"}},{"name":"Unterelsbacher Str.","postalCode":"97656","locality":"Oberelsbach","municipality":{"key":"09673149","name":"Oberelsbach, M","type":"Markt"},"district":{"key":"09673","name":"Rhön-Grabfeld","type":"Landkreis"},"federalState":{"key":"09","name":"Bayern"}},{"name":"Untere Torstr.","postalCode":"97656","locality":"Oberelsbach","municipality":{"key":"09673149","name":"Oberelsbach, M","type":"Markt"},"district":{"key":"09673","name":"Rhön-Grabfeld","type":"Landkreis"},"federalState":{"key":"09","name":"Bayern"}},{"name":"Urspringer Str.","postalCode":"97656","locality":"Oberelsbach","municipality":{"key":"09673149","name":"Oberelsbach, M","type":"Markt"},"district":{"key":"09673","name":"Rhön-Grabfeld","type":"Landkreis"},"federalState":{"key":"09","name":"Bayern"}},{"name":"Vorstadt","postalCode":"97656","locality":"Oberelsbach","municipality":{"key":"09673149","name":"Oberelsbach, M","type":"Markt"},"district":{"key":"09673","name":"Rhön-Grabfeld","type":"Landkreis"},"federalState":{"key":"09","name":"Bayern"}},{"name":"Wagnerstr.","postalCode":"97656","locality":"Oberelsbach","municipality":{"key":"09673149","name":"Oberelsbach, M","type":"Markt"},"district":{"key":"09673","name":"Rhön-Grabfeld","type":"Landkreis"},"federalState":{"key":"09","name":"Bayern"}},{"name":"Weidlesweg","postalCode":"97656","locality":"Oberelsbach","municipality":{"key":"09673149","name":"Oberelsbach, M","type":"Markt"},"district":{"key":"09673","name":"Rhön-Grabfeld","type":"Landkreis"},"federalState":{"key":"09","name":"Bayern"}},{"name":"Weisbacher Str.","postalCode":"97656","locality":"Oberelsbach","municipality":{"key":"09673149","name":"Oberelsbach, M","type":"Markt"},"district":{"key":"09673","name":"Rhön-Grabfeld","type":"Landkreis"},"federalState":{"key":"09","name":"Bayern"}},{"name":"Wendelinusstr.","postalCode":"97656","locality":"Oberelsbach","municipality":{"key":"09673149","name":"Oberelsbach, M","type":"Markt"},"district":{"key":"09673","name":"Rhön-Grabfeld","type":"Landkreis"},"federalState":{"key":"09","name":"Bayern"}},{"name":"Wethstr.","postalCode":"97656","locality":"Oberelsbach","municipality":{"key":"09673149","name":"Oberelsbach, M","type":"Markt"},"district":{"key":"09673","name":"Rhön-Grabfeld","type":"Landkreis"},"federalState":{"key":"09","name":"Bayern"}},{"name":"Wolfsweg","postalCode":"97656","locality":"Oberelsbach","municipality":{"key":"09673149","name":"Oberelsbach, M","type":"Markt"},"district":{"key":"09673","name":"Rhön-Grabfeld","type":"Landkreis"},"federalState":{"key":"09","name":"Bayern"}},]