[{"name":"Ackerstr.","postalCode":"07407","locality":"Rudolstadt","municipality":{"key":"16073076","name":"Rudolstadt, Stadt","type":"Stadt"},"district":{"key":"16073","name":"Saalfeld-Rudolstadt","type":"Landkreis"},"federalState":{"key":"16","name":"Thüringen"}},{"name":"Adolf-Diesterweg-Str.","postalCode":"07407","locality":"Rudolstadt","municipality":{"key":"16073076","name":"Rudolstadt, Stadt","type":"Stadt"},"district":{"key":"16073","name":"Saalfeld-Rudolstadt","type":"Landkreis"},"federalState":{"key":"16","name":"Thüringen"}},{"name":"Ahornweg","postalCode":"07407","locality":"Rudolstadt","municipality":{"key":"16073076","name":"Rudolstadt, Stadt","type":"Stadt"},"district":{"key":"16073","name":"Saalfeld-Rudolstadt","type":"Landkreis"},"federalState":{"key":"16","name":"Thüringen"}},{"name":"Albert-Gerst-Str.","postalCode":"07407","locality":"Rudolstadt","municipality":{"key":"16073076","name":"Rudolstadt, Stadt","type":"Stadt"},"district":{"key":"16073","name":"Saalfeld-Rudolstadt","type":"Landkreis"},"federalState":{"key":"16","name":"Thüringen"}},{"name":"Albert-Lindner-Str.","postalCode":"07407","locality":"Rudolstadt","municipality":{"key":"16073076","name":"Rudolstadt, Stadt","type":"Stadt"},"district":{"key":"16073","name":"Saalfeld-Rudolstadt","type":"Landkreis"},"federalState":{"key":"16","name":"Thüringen"}},{"name":"Alte Gasse","postalCode":"07407","locality":"Rudolstadt","municipality":{"key":"16073076","name":"Rudolstadt, Stadt","type":"Stadt"},"district":{"key":"16073","name":"Saalfeld-Rudolstadt","type":"Landkreis"},"federalState":{"key":"16","name":"Thüringen"}},{"name":"Alte Kupferstr.","postalCode":"07407","locality":"Rudolstadt","municipality":{"key":"16073076","name":"Rudolstadt, Stadt","type":"Stadt"},"district":{"key":"16073","name":"Saalfeld-Rudolstadt","type":"Landkreis"},"federalState":{"key":"16","name":"Thüringen"}},{"name":"Alter Steinweg","postalCode":"07407","locality":"Rudolstadt","municipality":{"key":"16073076","name":"Rudolstadt, Stadt","type":"Stadt"},"district":{"key":"16073","name":"Saalfeld-Rudolstadt","type":"Landkreis"},"federalState":{"key":"16","name":"Thüringen"}},{"name":"Alte Str.","postalCode":"07407","locality":"Rudolstadt","municipality":{"key":"16073076","name":"Rudolstadt, Stadt","type":"Stadt"},"district":{"key":"16073","name":"Saalfeld-Rudolstadt","type":"Landkreis"},"federalState":{"key":"16","name":"Thüringen"}},{"name":"Altremdaer Berg","postalCode":"07407","locality":"Rudolstadt","municipality":{"key":"16073076","name":"Rudolstadt, Stadt","type":"Stadt"},"district":{"key":"16073","name":"Saalfeld-Rudolstadt","type":"Landkreis"},"federalState":{"key":"16","name":"Thüringen"}},{"name":"Altremdaer Str.","postalCode":"07407","locality":"Rudolstadt","municipality":{"key":"16073076","name":"Rudolstadt, Stadt","type":"Stadt"},"district":{"key":"16073","name":"Saalfeld-Rudolstadt","type":"Landkreis"},"federalState":{"key":"16","name":"Thüringen"}},{"name":"Am Anger","postalCode":"07407","locality":"Rudolstadt","municipality":{"key":"16073076","name":"Rudolstadt, Stadt","type":"Stadt"},"district":{"key":"16073","name":"Saalfeld-Rudolstadt","type":"Landkreis"},"federalState":{"key":"16","name":"Thüringen"}},{"name":"Am Bach","postalCode":"07407","locality":"Rudolstadt","municipality":{"key":"16073076","name":"Rudolstadt, Stadt","type":"Stadt"},"district":{"key":"16073","name":"Saalfeld-Rudolstadt","type":"Landkreis"},"federalState":{"key":"16","name":"Thüringen"}},{"name":"Am Bache","postalCode":"07407","locality":"Rudolstadt","municipality":{"key":"16073076","name":"Rudolstadt, Stadt","type":"Stadt"},"district":{"key":"16073","name":"Saalfeld-Rudolstadt","type":"Landkreis"},"federalState":{"key":"16","name":"Thüringen"}},{"name":"Am Bahndamm","postalCode":"07407","locality":"Rudolstadt","municipality":{"key":"16073076","name":"Rudolstadt, Stadt","type":"Stadt"},"district":{"key":"16073","name":"Saalfeld-Rudolstadt","type":"Landkreis"},"federalState":{"key":"16","name":"Thüringen"}},{"name":"Am Brauhaus","postalCode":"07407","locality":"Rudolstadt","municipality":{"key":"16073076","name":"Rudolstadt, Stadt","type":"Stadt"},"district":{"key":"16073","name":"Saalfeld-Rudolstadt","type":"Landkreis"},"federalState":{"key":"16","name":"Thüringen"}},{"name":"Am Dorfgarten","postalCode":"07407","locality":"Rudolstadt","municipality":{"key":"16073076","name":"Rudolstadt, Stadt","type":"Stadt"},"district":{"key":"16073","name":"Saalfeld-Rudolstadt","type":"Landkreis"},"federalState":{"key":"16","name":"Thüringen"}},{"name":"Am Eichberg","postalCode":"07407","locality":"Rudolstadt","municipality":{"key":"16073076","name":"Rudolstadt, Stadt","type":"Stadt"},"district":{"key":"16073","name":"Saalfeld-Rudolstadt","type":"Landkreis"},"federalState":{"key":"16","name":"Thüringen"}},{"name":"Am Eschdorfer Berge","postalCode":"07407","locality":"Rudolstadt","municipality":{"key":"16073076","name":"Rudolstadt, Stadt","type":"Stadt"},"district":{"key":"16073","name":"Saalfeld-Rudolstadt","type":"Landkreis"},"federalState":{"key":"16","name":"Thüringen"}},{"name":"Am Eulige","postalCode":"07407","locality":"Rudolstadt","municipality":{"key":"16073076","name":"Rudolstadt, Stadt","type":"Stadt"},"district":{"key":"16073","name":"Saalfeld-Rudolstadt","type":"Landkreis"},"federalState":{"key":"16","name":"Thüringen"}},{"name":"Am Flutgraben","postalCode":"07407","locality":"Rudolstadt","municipality":{"key":"16073076","name":"Rudolstadt, Stadt","type":"Stadt"},"district":{"key":"16073","name":"Saalfeld-Rudolstadt","type":"Landkreis"},"federalState":{"key":"16","name":"Thüringen"}},{"name":"Am Friedhof","postalCode":"07407","locality":"Rudolstadt","municipality":{"key":"16073076","name":"Rudolstadt, Stadt","type":"Stadt"},"district":{"key":"16073","name":"Saalfeld-Rudolstadt","type":"Landkreis"},"federalState":{"key":"16","name":"Thüringen"}},{"name":"Am Gänsebach","postalCode":"07407","locality":"Rudolstadt","municipality":{"key":"16073076","name":"Rudolstadt, Stadt","type":"Stadt"},"district":{"key":"16073","name":"Saalfeld-Rudolstadt","type":"Landkreis"},"federalState":{"key":"16","name":"Thüringen"}},{"name":"Am Gatter","postalCode":"07407","locality":"Rudolstadt","municipality":{"key":"16073076","name":"Rudolstadt, Stadt","type":"Stadt"},"district":{"key":"16073","name":"Saalfeld-Rudolstadt","type":"Landkreis"},"federalState":{"key":"16","name":"Thüringen"}},{"name":"Am Gemeindeberg","postalCode":"07407","locality":"Rudolstadt","municipality":{"key":"16073076","name":"Rudolstadt, Stadt","type":"Stadt"},"district":{"key":"16073","name":"Saalfeld-Rudolstadt","type":"Landkreis"},"federalState":{"key":"16","name":"Thüringen"}},{"name":"Am Gewächshaus","postalCode":"07407","locality":"Rudolstadt","municipality":{"key":"16073076","name":"Rudolstadt, Stadt","type":"Stadt"},"district":{"key":"16073","name":"Saalfeld-Rudolstadt","type":"Landkreis"},"federalState":{"key":"16","name":"Thüringen"}},{"name":"Am Groschenteich","postalCode":"07407","locality":"Rudolstadt","municipality":{"key":"16073076","name":"Rudolstadt, Stadt","type":"Stadt"},"district":{"key":"16073","name":"Saalfeld-Rudolstadt","type":"Landkreis"},"federalState":{"key":"16","name":"Thüringen"}},{"name":"Am Hainberg","postalCode":"07407","locality":"Rudolstadt","municipality":{"key":"16073076","name":"Rudolstadt, Stadt","type":"Stadt"},"district":{"key":"16073","name":"Saalfeld-Rudolstadt","type":"Landkreis"},"federalState":{"key":"16","name":"Thüringen"}},{"name":"Am Kalmberg","postalCode":"07407","locality":"Rudolstadt","municipality":{"key":"16073076","name":"Rudolstadt, Stadt","type":"Stadt"},"district":{"key":"16073","name":"Saalfeld-Rudolstadt","type":"Landkreis"},"federalState":{"key":"16","name":"Thüringen"}},{"name":"Am kalten Frosch","postalCode":"07407","locality":"Rudolstadt","municipality":{"key":"16073076","name":"Rudolstadt, Stadt","type":"Stadt"},"district":{"key":"16073","name":"Saalfeld-Rudolstadt","type":"Landkreis"},"federalState":{"key":"16","name":"Thüringen"}},{"name":"Am Lindengarten","postalCode":"07407","locality":"Rudolstadt","municipality":{"key":"16073076","name":"Rudolstadt, Stadt","type":"Stadt"},"district":{"key":"16073","name":"Saalfeld-Rudolstadt","type":"Landkreis"},"federalState":{"key":"16","name":"Thüringen"}},{"name":"Am Mehnert","postalCode":"07407","locality":"Rudolstadt","municipality":{"key":"16073076","name":"Rudolstadt, Stadt","type":"Stadt"},"district":{"key":"16073","name":"Saalfeld-Rudolstadt","type":"Landkreis"},"federalState":{"key":"16","name":"Thüringen"}},{"name":"Ammelstädt","postalCode":"07407","locality":"Rudolstadt","municipality":{"key":"16073076","name":"Rudolstadt, Stadt","type":"Stadt"},"district":{"key":"16073","name":"Saalfeld-Rudolstadt","type":"Landkreis"},"federalState":{"key":"16","name":"Thüringen"}},{"name":"Am Mühlberg","postalCode":"07407","locality":"Rudolstadt","municipality":{"key":"16073076","name":"Rudolstadt, Stadt","type":"Stadt"},"district":{"key":"16073","name":"Saalfeld-Rudolstadt","type":"Landkreis"},"federalState":{"key":"16","name":"Thüringen"}},{"name":"Am Mühlgraben","postalCode":"07407","locality":"Rudolstadt","municipality":{"key":"16073076","name":"Rudolstadt, Stadt","type":"Stadt"},"district":{"key":"16073","name":"Saalfeld-Rudolstadt","type":"Landkreis"},"federalState":{"key":"16","name":"Thüringen"}},{"name":"Am Nußbaum","postalCode":"07407","locality":"Rudolstadt","municipality":{"key":"16073076","name":"Rudolstadt, Stadt","type":"Stadt"},"district":{"key":"16073","name":"Saalfeld-Rudolstadt","type":"Landkreis"},"federalState":{"key":"16","name":"Thüringen"}},{"name":"Am Oberanger","postalCode":"07407","locality":"Rudolstadt","municipality":{"key":"16073076","name":"Rudolstadt, Stadt","type":"Stadt"},"district":{"key":"16073","name":"Saalfeld-Rudolstadt","type":"Landkreis"},"federalState":{"key":"16","name":"Thüringen"}},{"name":"Am Plan","postalCode":"07407","locality":"Rudolstadt","municipality":{"key":"16073076","name":"Rudolstadt, Stadt","type":"Stadt"},"district":{"key":"16073","name":"Saalfeld-Rudolstadt","type":"Landkreis"},"federalState":{"key":"16","name":"Thüringen"}},{"name":"Am Rieth","postalCode":"07407","locality":"Rudolstadt","municipality":{"key":"16073076","name":"Rudolstadt, Stadt","type":"Stadt"},"district":{"key":"16073","name":"Saalfeld-Rudolstadt","type":"Landkreis"},"federalState":{"key":"16","name":"Thüringen"}},{"name":"Am Rosengraben","postalCode":"07407","locality":"Rudolstadt","municipality":{"key":"16073076","name":"Rudolstadt, Stadt","type":"Stadt"},"district":{"key":"16073","name":"Saalfeld-Rudolstadt","type":"Landkreis"},"federalState":{"key":"16","name":"Thüringen"}},{"name":"Am Roten Berg","postalCode":"07407","locality":"Rudolstadt","municipality":{"key":"16073076","name":"Rudolstadt, Stadt","type":"Stadt"},"district":{"key":"16073","name":"Saalfeld-Rudolstadt","type":"Landkreis"},"federalState":{"key":"16","name":"Thüringen"}},{"name":"Am Saaldamm","postalCode":"07407","locality":"Rudolstadt","municipality":{"key":"16073076","name":"Rudolstadt, Stadt","type":"Stadt"},"district":{"key":"16073","name":"Saalfeld-Rudolstadt","type":"Landkreis"},"federalState":{"key":"16","name":"Thüringen"}},{"name":"Am Schaalbach","postalCode":"07407","locality":"Rudolstadt","municipality":{"key":"16073076","name":"Rudolstadt, Stadt","type":"Stadt"},"district":{"key":"16073","name":"Saalfeld-Rudolstadt","type":"Landkreis"},"federalState":{"key":"16","name":"Thüringen"}},{"name":"Am Schenkenberg","postalCode":"07407","locality":"Rudolstadt","municipality":{"key":"16073076","name":"Rudolstadt, Stadt","type":"Stadt"},"district":{"key":"16073","name":"Saalfeld-Rudolstadt","type":"Landkreis"},"federalState":{"key":"16","name":"Thüringen"}},{"name":"Amselweg","postalCode":"07407","locality":"Rudolstadt","municipality":{"key":"16073076","name":"Rudolstadt, Stadt","type":"Stadt"},"district":{"key":"16073","name":"Saalfeld-Rudolstadt","type":"Landkreis"},"federalState":{"key":"16","name":"Thüringen"}},{"name":"Am Silberbach","postalCode":"07407","locality":"Rudolstadt","municipality":{"key":"16073076","name":"Rudolstadt, Stadt","type":"Stadt"},"district":{"key":"16073","name":"Saalfeld-Rudolstadt","type":"Landkreis"},"federalState":{"key":"16","name":"Thüringen"}},{"name":"Am Spielborn","postalCode":"07407","locality":"Rudolstadt","municipality":{"key":"16073076","name":"Rudolstadt, Stadt","type":"Stadt"},"district":{"key":"16073","name":"Saalfeld-Rudolstadt","type":"Landkreis"},"federalState":{"key":"16","name":"Thüringen"}},{"name":"Am Stein","postalCode":"07407","locality":"Rudolstadt","municipality":{"key":"16073076","name":"Rudolstadt, Stadt","type":"Stadt"},"district":{"key":"16073","name":"Saalfeld-Rudolstadt","type":"Landkreis"},"federalState":{"key":"16","name":"Thüringen"}},{"name":"Am Stutenrand","postalCode":"07407","locality":"Rudolstadt","municipality":{"key":"16073076","name":"Rudolstadt, Stadt","type":"Stadt"},"district":{"key":"16073","name":"Saalfeld-Rudolstadt","type":"Landkreis"},"federalState":{"key":"16","name":"Thüringen"}},{"name":"Am Tannberg","postalCode":"07407","locality":"Rudolstadt","municipality":{"key":"16073076","name":"Rudolstadt, Stadt","type":"Stadt"},"district":{"key":"16073","name":"Saalfeld-Rudolstadt","type":"Landkreis"},"federalState":{"key":"16","name":"Thüringen"}},{"name":"Bachweg","postalCode":"07407","locality":"Rudolstadt","municipality":{"key":"16073076","name":"Rudolstadt, Stadt","type":"Stadt"},"district":{"key":"16073","name":"Saalfeld-Rudolstadt","type":"Landkreis"},"federalState":{"key":"16","name":"Thüringen"}},{"name":"Bahnhofstr.","postalCode":"07407","locality":"Rudolstadt","municipality":{"key":"16073076","name":"Rudolstadt, Stadt","type":"Stadt"},"district":{"key":"16073","name":"Saalfeld-Rudolstadt","type":"Landkreis"},"federalState":{"key":"16","name":"Thüringen"}},{"name":"Bayreuther Platz","postalCode":"07407","locality":"Rudolstadt","municipality":{"key":"16073076","name":"Rudolstadt, Stadt","type":"Stadt"},"district":{"key":"16073","name":"Saalfeld-Rudolstadt","type":"Landkreis"},"federalState":{"key":"16","name":"Thüringen"}},{"name":"Berggasse","postalCode":"07407","locality":"Rudolstadt","municipality":{"key":"16073076","name":"Rudolstadt, Stadt","type":"Stadt"},"district":{"key":"16073","name":"Saalfeld-Rudolstadt","type":"Landkreis"},"federalState":{"key":"16","name":"Thüringen"}},{"name":"Berthold-Rein-Str.","postalCode":"07407","locality":"Rudolstadt","municipality":{"key":"16073076","name":"Rudolstadt, Stadt","type":"Stadt"},"district":{"key":"16073","name":"Saalfeld-Rudolstadt","type":"Landkreis"},"federalState":{"key":"16","name":"Thüringen"}},{"name":"Blankenburger Str.","postalCode":"07407","locality":"Rudolstadt","municipality":{"key":"16073076","name":"Rudolstadt, Stadt","type":"Stadt"},"district":{"key":"16073","name":"Saalfeld-Rudolstadt","type":"Landkreis"},"federalState":{"key":"16","name":"Thüringen"}},{"name":"Borngasse","postalCode":"07407","locality":"Rudolstadt","municipality":{"key":"16073076","name":"Rudolstadt, Stadt","type":"Stadt"},"district":{"key":"16073","name":"Saalfeld-Rudolstadt","type":"Landkreis"},"federalState":{"key":"16","name":"Thüringen"}},{"name":"Brandstatt","postalCode":"07407","locality":"Rudolstadt","municipality":{"key":"16073076","name":"Rudolstadt, Stadt","type":"Stadt"},"district":{"key":"16073","name":"Saalfeld-Rudolstadt","type":"Landkreis"},"federalState":{"key":"16","name":"Thüringen"}},{"name":"Breitscheidstr.","postalCode":"07407","locality":"Rudolstadt","municipality":{"key":"16073076","name":"Rudolstadt, Stadt","type":"Stadt"},"district":{"key":"16073","name":"Saalfeld-Rudolstadt","type":"Landkreis"},"federalState":{"key":"16","name":"Thüringen"}},{"name":"Brückengasse","postalCode":"07407","locality":"Rudolstadt","municipality":{"key":"16073076","name":"Rudolstadt, Stadt","type":"Stadt"},"district":{"key":"16073","name":"Saalfeld-Rudolstadt","type":"Landkreis"},"federalState":{"key":"16","name":"Thüringen"}},{"name":"Burgstr.","postalCode":"07407","locality":"Rudolstadt","municipality":{"key":"16073076","name":"Rudolstadt, Stadt","type":"Stadt"},"district":{"key":"16073","name":"Saalfeld-Rudolstadt","type":"Landkreis"},"federalState":{"key":"16","name":"Thüringen"}},{"name":"Carl-Becker-Str.","postalCode":"07407","locality":"Rudolstadt","municipality":{"key":"16073076","name":"Rudolstadt, Stadt","type":"Stadt"},"district":{"key":"16073","name":"Saalfeld-Rudolstadt","type":"Landkreis"},"federalState":{"key":"16","name":"Thüringen"}},{"name":"Caspar-Schulte-Str.","postalCode":"07407","locality":"Rudolstadt","municipality":{"key":"16073076","name":"Rudolstadt, Stadt","type":"Stadt"},"district":{"key":"16073","name":"Saalfeld-Rudolstadt","type":"Landkreis"},"federalState":{"key":"16","name":"Thüringen"}},{"name":"Catharinauer Str.","postalCode":"07407","locality":"Rudolstadt","municipality":{"key":"16073076","name":"Rudolstadt, Stadt","type":"Stadt"},"district":{"key":"16073","name":"Saalfeld-Rudolstadt","type":"Landkreis"},"federalState":{"key":"16","name":"Thüringen"}},{"name":"Cottastr.","postalCode":"07407","locality":"Rudolstadt","municipality":{"key":"16073076","name":"Rudolstadt, Stadt","type":"Stadt"},"district":{"key":"16073","name":"Saalfeld-Rudolstadt","type":"Landkreis"},"federalState":{"key":"16","name":"Thüringen"}},{"name":"Cumbacher Str.","postalCode":"07407","locality":"Rudolstadt","municipality":{"key":"16073076","name":"Rudolstadt, Stadt","type":"Stadt"},"district":{"key":"16073","name":"Saalfeld-Rudolstadt","type":"Landkreis"},"federalState":{"key":"16","name":"Thüringen"}},{"name":"Damaschkestr.","postalCode":"07407","locality":"Rudolstadt","municipality":{"key":"16073076","name":"Rudolstadt, Stadt","type":"Stadt"},"district":{"key":"16073","name":"Saalfeld-Rudolstadt","type":"Landkreis"},"federalState":{"key":"16","name":"Thüringen"}},{"name":"Debrahof","postalCode":"07407","locality":"Rudolstadt","municipality":{"key":"16073076","name":"Rudolstadt, Stadt","type":"Stadt"},"district":{"key":"16073","name":"Saalfeld-Rudolstadt","type":"Landkreis"},"federalState":{"key":"16","name":"Thüringen"}},{"name":"Debrastr.","postalCode":"07407","locality":"Rudolstadt","municipality":{"key":"16073076","name":"Rudolstadt, Stadt","type":"Stadt"},"district":{"key":"16073","name":"Saalfeld-Rudolstadt","type":"Landkreis"},"federalState":{"key":"16","name":"Thüringen"}},{"name":"Debrastr. (Zone 30)","postalCode":"07407","locality":"Rudolstadt","municipality":{"key":"16073076","name":"Rudolstadt, Stadt","type":"Stadt"},"district":{"key":"16073","name":"Saalfeld-Rudolstadt","type":"Landkreis"},"federalState":{"key":"16","name":"Thüringen"}},{"name":"Die Muckel","postalCode":"07407","locality":"Rudolstadt","municipality":{"key":"16073076","name":"Rudolstadt, Stadt","type":"Stadt"},"district":{"key":"16073","name":"Saalfeld-Rudolstadt","type":"Landkreis"},"federalState":{"key":"16","name":"Thüringen"}},{"name":"Dorfplatz","postalCode":"07407","locality":"Rudolstadt","municipality":{"key":"16073076","name":"Rudolstadt, Stadt","type":"Stadt"},"district":{"key":"16073","name":"Saalfeld-Rudolstadt","type":"Landkreis"},"federalState":{"key":"16","name":"Thüringen"}},{"name":"Dr.-Hermann-Ludewig-Ring","postalCode":"07407","locality":"Rudolstadt","municipality":{"key":"16073076","name":"Rudolstadt, Stadt","type":"Stadt"},"district":{"key":"16073","name":"Saalfeld-Rudolstadt","type":"Landkreis"},"federalState":{"key":"16","name":"Thüringen"}},{"name":"Drosselweg","postalCode":"07407","locality":"Rudolstadt","municipality":{"key":"16073076","name":"Rudolstadt, Stadt","type":"Stadt"},"district":{"key":"16073","name":"Saalfeld-Rudolstadt","type":"Landkreis"},"federalState":{"key":"16","name":"Thüringen"}},{"name":"Dr.-Wilhelm-Külz-Str.","postalCode":"07407","locality":"Rudolstadt","municipality":{"key":"16073076","name":"Rudolstadt, Stadt","type":"Stadt"},"district":{"key":"16073","name":"Saalfeld-Rudolstadt","type":"Landkreis"},"federalState":{"key":"16","name":"Thüringen"}},{"name":"Dürerstr.","postalCode":"07407","locality":"Rudolstadt","municipality":{"key":"16073076","name":"Rudolstadt, Stadt","type":"Stadt"},"district":{"key":"16073","name":"Saalfeld-Rudolstadt","type":"Landkreis"},"federalState":{"key":"16","name":"Thüringen"}},{"name":"Eberweinstr.","postalCode":"07407","locality":"Rudolstadt","municipality":{"key":"16073076","name":"Rudolstadt, Stadt","type":"Stadt"},"district":{"key":"16073","name":"Saalfeld-Rudolstadt","type":"Landkreis"},"federalState":{"key":"16","name":"Thüringen"}},{"name":"Egerland","postalCode":"07407","locality":"Rudolstadt","municipality":{"key":"16073076","name":"Rudolstadt, Stadt","type":"Stadt"},"district":{"key":"16073","name":"Saalfeld-Rudolstadt","type":"Landkreis"},"federalState":{"key":"16","name":"Thüringen"}},{"name":"Ehrensteiner Str.","postalCode":"07407","locality":"Rudolstadt","municipality":{"key":"16073076","name":"Rudolstadt, Stadt","type":"Stadt"},"district":{"key":"16073","name":"Saalfeld-Rudolstadt","type":"Landkreis"},"federalState":{"key":"16","name":"Thüringen"}},{"name":"Ehrensteiner Weg","postalCode":"07407","locality":"Rudolstadt","municipality":{"key":"16073076","name":"Rudolstadt, Stadt","type":"Stadt"},"district":{"key":"16073","name":"Saalfeld-Rudolstadt","type":"Landkreis"},"federalState":{"key":"16","name":"Thüringen"}},{"name":"Elisabethbrücke","postalCode":"07407","locality":"Rudolstadt","municipality":{"key":"16073076","name":"Rudolstadt, Stadt","type":"Stadt"},"district":{"key":"16073","name":"Saalfeld-Rudolstadt","type":"Landkreis"},"federalState":{"key":"16","name":"Thüringen"}},{"name":"Elxleber Weg","postalCode":"07407","locality":"Rudolstadt","municipality":{"key":"16073076","name":"Rudolstadt, Stadt","type":"Stadt"},"district":{"key":"16073","name":"Saalfeld-Rudolstadt","type":"Landkreis"},"federalState":{"key":"16","name":"Thüringen"}},{"name":"Emil-Hartmann-Str.","postalCode":"07407","locality":"Rudolstadt","municipality":{"key":"16073076","name":"Rudolstadt, Stadt","type":"Stadt"},"district":{"key":"16073","name":"Saalfeld-Rudolstadt","type":"Landkreis"},"federalState":{"key":"16","name":"Thüringen"}},{"name":"Entleich","postalCode":"07407","locality":"Rudolstadt","municipality":{"key":"16073076","name":"Rudolstadt, Stadt","type":"Stadt"},"district":{"key":"16073","name":"Saalfeld-Rudolstadt","type":"Landkreis"},"federalState":{"key":"16","name":"Thüringen"}},{"name":"Erfurter Str.","postalCode":"07407","locality":"Rudolstadt","municipality":{"key":"16073076","name":"Rudolstadt, Stadt","type":"Stadt"},"district":{"key":"16073","name":"Saalfeld-Rudolstadt","type":"Landkreis"},"federalState":{"key":"16","name":"Thüringen"}},{"name":"Erich-Correns-Ring","postalCode":"07407","locality":"Rudolstadt","municipality":{"key":"16073076","name":"Rudolstadt, Stadt","type":"Stadt"},"district":{"key":"16073","name":"Saalfeld-Rudolstadt","type":"Landkreis"},"federalState":{"key":"16","name":"Thüringen"}},{"name":"Erlebachstr.","postalCode":"07407","locality":"Rudolstadt","municipality":{"key":"16073076","name":"Rudolstadt, Stadt","type":"Stadt"},"district":{"key":"16073","name":"Saalfeld-Rudolstadt","type":"Landkreis"},"federalState":{"key":"16","name":"Thüringen"}},{"name":"Eschdorf","postalCode":"07407","locality":"Rudolstadt","municipality":{"key":"16073076","name":"Rudolstadt, Stadt","type":"Stadt"},"district":{"key":"16073","name":"Saalfeld-Rudolstadt","type":"Landkreis"},"federalState":{"key":"16","name":"Thüringen"}},{"name":"Eschenweg","postalCode":"07407","locality":"Rudolstadt","municipality":{"key":"16073076","name":"Rudolstadt, Stadt","type":"Stadt"},"district":{"key":"16073","name":"Saalfeld-Rudolstadt","type":"Landkreis"},"federalState":{"key":"16","name":"Thüringen"}},{"name":"Essigtal","postalCode":"07407","locality":"Rudolstadt","municipality":{"key":"16073076","name":"Rudolstadt, Stadt","type":"Stadt"},"district":{"key":"16073","name":"Saalfeld-Rudolstadt","type":"Landkreis"},"federalState":{"key":"16","name":"Thüringen"}},{"name":"Finkenweg","postalCode":"07407","locality":"Rudolstadt","municipality":{"key":"16073076","name":"Rudolstadt, Stadt","type":"Stadt"},"district":{"key":"16073","name":"Saalfeld-Rudolstadt","type":"Landkreis"},"federalState":{"key":"16","name":"Thüringen"}},{"name":"Florian-Geyer-Str.","postalCode":"07407","locality":"Rudolstadt","municipality":{"key":"16073076","name":"Rudolstadt, Stadt","type":"Stadt"},"district":{"key":"16073","name":"Saalfeld-Rudolstadt","type":"Landkreis"},"federalState":{"key":"16","name":"Thüringen"}},{"name":"Flugplatzbrücke","postalCode":"07407","locality":"Rudolstadt","municipality":{"key":"16073076","name":"Rudolstadt, Stadt","type":"Stadt"},"district":{"key":"16073","name":"Saalfeld-Rudolstadt","type":"Landkreis"},"federalState":{"key":"16","name":"Thüringen"}},{"name":"Flursteinweg","postalCode":"07407","locality":"Rudolstadt","municipality":{"key":"16073076","name":"Rudolstadt, Stadt","type":"Stadt"},"district":{"key":"16073","name":"Saalfeld-Rudolstadt","type":"Landkreis"},"federalState":{"key":"16","name":"Thüringen"}},{"name":"Francois-Mitterrand-Allee","postalCode":"07407","locality":"Rudolstadt","municipality":{"key":"16073076","name":"Rudolstadt, Stadt","type":"Stadt"},"district":{"key":"16073","name":"Saalfeld-Rudolstadt","type":"Landkreis"},"federalState":{"key":"16","name":"Thüringen"}},{"name":"Franz-Liszt-Str.","postalCode":"07407","locality":"Rudolstadt","municipality":{"key":"16073076","name":"Rudolstadt, Stadt","type":"Stadt"},"district":{"key":"16073","name":"Saalfeld-Rudolstadt","type":"Landkreis"},"federalState":{"key":"16","name":"Thüringen"}},{"name":"Freiligrathstr.","postalCode":"07407","locality":"Rudolstadt","municipality":{"key":"16073076","name":"Rudolstadt, Stadt","type":"Stadt"},"district":{"key":"16073","name":"Saalfeld-Rudolstadt","type":"Landkreis"},"federalState":{"key":"16","name":"Thüringen"}},{"name":"Frenzelstr.","postalCode":"07407","locality":"Rudolstadt","municipality":{"key":"16073076","name":"Rudolstadt, Stadt","type":"Stadt"},"district":{"key":"16073","name":"Saalfeld-Rudolstadt","type":"Landkreis"},"federalState":{"key":"16","name":"Thüringen"}},{"name":"Friedensstr.","postalCode":"07407","locality":"Rudolstadt","municipality":{"key":"16073076","name":"Rudolstadt, Stadt","type":"Stadt"},"district":{"key":"16073","name":"Saalfeld-Rudolstadt","type":"Landkreis"},"federalState":{"key":"16","name":"Thüringen"}},{"name":"Friedhofstr.","postalCode":"07407","locality":"Rudolstadt","municipality":{"key":"16073076","name":"Rudolstadt, Stadt","type":"Stadt"},"district":{"key":"16073","name":"Saalfeld-Rudolstadt","type":"Landkreis"},"federalState":{"key":"16","name":"Thüringen"}},{"name":"Friedrich-Adolf-Richter-Str.","postalCode":"07407","locality":"Rudolstadt","municipality":{"key":"16073076","name":"Rudolstadt, Stadt","type":"Stadt"},"district":{"key":"16073","name":"Saalfeld-Rudolstadt","type":"Landkreis"},"federalState":{"key":"16","name":"Thüringen"}},{"name":"Friedrich-Ebert-Str.","postalCode":"07407","locality":"Rudolstadt","municipality":{"key":"16073076","name":"Rudolstadt, Stadt","type":"Stadt"},"district":{"key":"16073","name":"Saalfeld-Rudolstadt","type":"Landkreis"},"federalState":{"key":"16","name":"Thüringen"}},{"name":"Friedrich-Engels-Str.","postalCode":"07407","locality":"Rudolstadt","municipality":{"key":"16073076","name":"Rudolstadt, Stadt","type":"Stadt"},"district":{"key":"16073","name":"Saalfeld-Rudolstadt","type":"Landkreis"},"federalState":{"key":"16","name":"Thüringen"}},{"name":"Friedrich-Fröbel-Str.","postalCode":"07407","locality":"Rudolstadt","municipality":{"key":"16073076","name":"Rudolstadt, Stadt","type":"Stadt"},"district":{"key":"16073","name":"Saalfeld-Rudolstadt","type":"Landkreis"},"federalState":{"key":"16","name":"Thüringen"}},{"name":"Friedrich-Lundgreen-Str.","postalCode":"07407","locality":"Rudolstadt","municipality":{"key":"16073076","name":"Rudolstadt, Stadt","type":"Stadt"},"district":{"key":"16073","name":"Saalfeld-Rudolstadt","type":"Landkreis"},"federalState":{"key":"16","name":"Thüringen"}},{"name":"Friedrich-Naumann-Str.","postalCode":"07407","locality":"Rudolstadt","municipality":{"key":"16073076","name":"Rudolstadt, Stadt","type":"Stadt"},"district":{"key":"16073","name":"Saalfeld-Rudolstadt","type":"Landkreis"},"federalState":{"key":"16","name":"Thüringen"}},{"name":"Fritz-Bolland-Str.","postalCode":"07407","locality":"Rudolstadt","municipality":{"key":"16073076","name":"Rudolstadt, Stadt","type":"Stadt"},"district":{"key":"16073","name":"Saalfeld-Rudolstadt","type":"Landkreis"},"federalState":{"key":"16","name":"Thüringen"}},{"name":"Fritz-Reuter-Str.","postalCode":"07407","locality":"Rudolstadt","municipality":{"key":"16073076","name":"Rudolstadt, Stadt","type":"Stadt"},"district":{"key":"16073","name":"Saalfeld-Rudolstadt","type":"Landkreis"},"federalState":{"key":"16","name":"Thüringen"}},{"name":"Fröbelring","postalCode":"07407","locality":"Rudolstadt","municipality":{"key":"16073076","name":"Rudolstadt, Stadt","type":"Stadt"},"district":{"key":"16073","name":"Saalfeld-Rudolstadt","type":"Landkreis"},"federalState":{"key":"16","name":"Thüringen"}},{"name":"Gabelsbergerstr.","postalCode":"07407","locality":"Rudolstadt","municipality":{"key":"16073076","name":"Rudolstadt, Stadt","type":"Stadt"},"district":{"key":"16073","name":"Saalfeld-Rudolstadt","type":"Landkreis"},"federalState":{"key":"16","name":"Thüringen"}},{"name":"Gartenstr.","postalCode":"07407","locality":"Rudolstadt","municipality":{"key":"16073076","name":"Rudolstadt, Stadt","type":"Stadt"},"district":{"key":"16073","name":"Saalfeld-Rudolstadt","type":"Landkreis"},"federalState":{"key":"16","name":"Thüringen"}},{"name":"Gebindstr.","postalCode":"07407","locality":"Rudolstadt","municipality":{"key":"16073076","name":"Rudolstadt, Stadt","type":"Stadt"},"district":{"key":"16073","name":"Saalfeld-Rudolstadt","type":"Landkreis"},"federalState":{"key":"16","name":"Thüringen"}},{"name":"Geitersdorf","postalCode":"07407","locality":"Rudolstadt","municipality":{"key":"16073076","name":"Rudolstadt, Stadt","type":"Stadt"},"district":{"key":"16073","name":"Saalfeld-Rudolstadt","type":"Landkreis"},"federalState":{"key":"16","name":"Thüringen"}},{"name":"Gerberstr.","postalCode":"07407","locality":"Rudolstadt","municipality":{"key":"16073076","name":"Rudolstadt, Stadt","type":"Stadt"},"district":{"key":"16073","name":"Saalfeld-Rudolstadt","type":"Landkreis"},"federalState":{"key":"16","name":"Thüringen"}},{"name":"Geschwister-Scholl-Str.","postalCode":"07407","locality":"Rudolstadt","municipality":{"key":"16073076","name":"Rudolstadt, Stadt","type":"Stadt"},"district":{"key":"16073","name":"Saalfeld-Rudolstadt","type":"Landkreis"},"federalState":{"key":"16","name":"Thüringen"}},{"name":"Glockenstr.","postalCode":"07407","locality":"Rudolstadt","municipality":{"key":"16073076","name":"Rudolstadt, Stadt","type":"Stadt"},"district":{"key":"16073","name":"Saalfeld-Rudolstadt","type":"Landkreis"},"federalState":{"key":"16","name":"Thüringen"}},{"name":"Goethestr.","postalCode":"07407","locality":"Rudolstadt","municipality":{"key":"16073076","name":"Rudolstadt, Stadt","type":"Stadt"},"district":{"key":"16073","name":"Saalfeld-Rudolstadt","type":"Landkreis"},"federalState":{"key":"16","name":"Thüringen"}},{"name":"Groschwitz","postalCode":"07407","locality":"Rudolstadt","municipality":{"key":"16073076","name":"Rudolstadt, Stadt","type":"Stadt"},"district":{"key":"16073","name":"Saalfeld-Rudolstadt","type":"Landkreis"},"federalState":{"key":"16","name":"Thüringen"}},{"name":"Große Allee","postalCode":"07407","locality":"Rudolstadt","municipality":{"key":"16073076","name":"Rudolstadt, Stadt","type":"Stadt"},"district":{"key":"16073","name":"Saalfeld-Rudolstadt","type":"Landkreis"},"federalState":{"key":"16","name":"Thüringen"}},{"name":"Große Badergasse","postalCode":"07407","locality":"Rudolstadt","municipality":{"key":"16073076","name":"Rudolstadt, Stadt","type":"Stadt"},"district":{"key":"16073","name":"Saalfeld-Rudolstadt","type":"Landkreis"},"federalState":{"key":"16","name":"Thüringen"}},{"name":"Große Gasse","postalCode":"07407","locality":"Rudolstadt","municipality":{"key":"16073076","name":"Rudolstadt, Stadt","type":"Stadt"},"district":{"key":"16073","name":"Saalfeld-Rudolstadt","type":"Landkreis"},"federalState":{"key":"16","name":"Thüringen"}},{"name":"Große Wiese","postalCode":"07407","locality":"Rudolstadt","municipality":{"key":"16073076","name":"Rudolstadt, Stadt","type":"Stadt"},"district":{"key":"16073","name":"Saalfeld-Rudolstadt","type":"Landkreis"},"federalState":{"key":"16","name":"Thüringen"}},{"name":"Gustav-Barth-Weg","postalCode":"07407","locality":"Rudolstadt","municipality":{"key":"16073076","name":"Rudolstadt, Stadt","type":"Stadt"},"district":{"key":"16073","name":"Saalfeld-Rudolstadt","type":"Landkreis"},"federalState":{"key":"16","name":"Thüringen"}},{"name":"Gustav-Freytag-Str.","postalCode":"07407","locality":"Rudolstadt","municipality":{"key":"16073076","name":"Rudolstadt, Stadt","type":"Stadt"},"district":{"key":"16073","name":"Saalfeld-Rudolstadt","type":"Landkreis"},"federalState":{"key":"16","name":"Thüringen"}},{"name":"Gustav-Lilienthal-Str.","postalCode":"07407","locality":"Rudolstadt","municipality":{"key":"16073076","name":"Rudolstadt, Stadt","type":"Stadt"},"district":{"key":"16073","name":"Saalfeld-Rudolstadt","type":"Landkreis"},"federalState":{"key":"16","name":"Thüringen"}},{"name":"Gutenbergstr.","postalCode":"07407","locality":"Rudolstadt","municipality":{"key":"16073076","name":"Rudolstadt, Stadt","type":"Stadt"},"district":{"key":"16073","name":"Saalfeld-Rudolstadt","type":"Landkreis"},"federalState":{"key":"16","name":"Thüringen"}},{"name":"Heinrich-Geißler-Str.","postalCode":"07407","locality":"Rudolstadt","municipality":{"key":"16073076","name":"Rudolstadt, Stadt","type":"Stadt"},"district":{"key":"16073","name":"Saalfeld-Rudolstadt","type":"Landkreis"},"federalState":{"key":"16","name":"Thüringen"}},{"name":"Heinrich-Heine Park","postalCode":"07407","locality":"Rudolstadt","municipality":{"key":"16073076","name":"Rudolstadt, Stadt","type":"Stadt"},"district":{"key":"16073","name":"Saalfeld-Rudolstadt","type":"Landkreis"},"federalState":{"key":"16","name":"Thüringen"}},{"name":"Heinrichsweg","postalCode":"07407","locality":"Rudolstadt","municipality":{"key":"16073076","name":"Rudolstadt, Stadt","type":"Stadt"},"district":{"key":"16073","name":"Saalfeld-Rudolstadt","type":"Landkreis"},"federalState":{"key":"16","name":"Thüringen"}},{"name":"Herbert-Stauch-Str.","postalCode":"07407","locality":"Rudolstadt","municipality":{"key":"16073076","name":"Rudolstadt, Stadt","type":"Stadt"},"district":{"key":"16073","name":"Saalfeld-Rudolstadt","type":"Landkreis"},"federalState":{"key":"16","name":"Thüringen"}},{"name":"Hermannstal","postalCode":"07407","locality":"Rudolstadt","municipality":{"key":"16073076","name":"Rudolstadt, Stadt","type":"Stadt"},"district":{"key":"16073","name":"Saalfeld-Rudolstadt","type":"Landkreis"},"federalState":{"key":"16","name":"Thüringen"}},{"name":"Herrenstr.","postalCode":"07407","locality":"Rudolstadt","municipality":{"key":"16073076","name":"Rudolstadt, Stadt","type":"Stadt"},"district":{"key":"16073","name":"Saalfeld-Rudolstadt","type":"Landkreis"},"federalState":{"key":"16","name":"Thüringen"}},{"name":"Hinter der Kirche","postalCode":"07407","locality":"Rudolstadt","municipality":{"key":"16073076","name":"Rudolstadt, Stadt","type":"Stadt"},"district":{"key":"16073","name":"Saalfeld-Rudolstadt","type":"Landkreis"},"federalState":{"key":"16","name":"Thüringen"}},{"name":"Hinter der Mauer","postalCode":"07407","locality":"Rudolstadt","municipality":{"key":"16073076","name":"Rudolstadt, Stadt","type":"Stadt"},"district":{"key":"16073","name":"Saalfeld-Rudolstadt","type":"Landkreis"},"federalState":{"key":"16","name":"Thüringen"}},{"name":"Hinter der Ziegelhütte","postalCode":"07407","locality":"Rudolstadt","municipality":{"key":"16073076","name":"Rudolstadt, Stadt","type":"Stadt"},"district":{"key":"16073","name":"Saalfeld-Rudolstadt","type":"Landkreis"},"federalState":{"key":"16","name":"Thüringen"}},{"name":"Hinterer Hainweg","postalCode":"07407","locality":"Rudolstadt","municipality":{"key":"16073076","name":"Rudolstadt, Stadt","type":"Stadt"},"district":{"key":"16073","name":"Saalfeld-Rudolstadt","type":"Landkreis"},"federalState":{"key":"16","name":"Thüringen"}},{"name":"Höhenweg","postalCode":"07407","locality":"Rudolstadt","municipality":{"key":"16073076","name":"Rudolstadt, Stadt","type":"Stadt"},"district":{"key":"16073","name":"Saalfeld-Rudolstadt","type":"Landkreis"},"federalState":{"key":"16","name":"Thüringen"}},{"name":"Hohe Str.","postalCode":"07407","locality":"Rudolstadt","municipality":{"key":"16073076","name":"Rudolstadt, Stadt","type":"Stadt"},"district":{"key":"16073","name":"Saalfeld-Rudolstadt","type":"Landkreis"},"federalState":{"key":"16","name":"Thüringen"}},{"name":"Hopfgartenstr.","postalCode":"07407","locality":"Rudolstadt","municipality":{"key":"16073076","name":"Rudolstadt, Stadt","type":"Stadt"},"district":{"key":"16073","name":"Saalfeld-Rudolstadt","type":"Landkreis"},"federalState":{"key":"16","name":"Thüringen"}},{"name":"Hugo-Trinckler-Str.","postalCode":"07407","locality":"Rudolstadt","municipality":{"key":"16073076","name":"Rudolstadt, Stadt","type":"Stadt"},"district":{"key":"16073","name":"Saalfeld-Rudolstadt","type":"Landkreis"},"federalState":{"key":"16","name":"Thüringen"}},{"name":"Humboldtstr.","postalCode":"07407","locality":"Rudolstadt","municipality":{"key":"16073076","name":"Rudolstadt, Stadt","type":"Stadt"},"district":{"key":"16073","name":"Saalfeld-Rudolstadt","type":"Landkreis"},"federalState":{"key":"16","name":"Thüringen"}},{"name":"Im Baumgarten","postalCode":"07407","locality":"Rudolstadt","municipality":{"key":"16073076","name":"Rudolstadt, Stadt","type":"Stadt"},"district":{"key":"16073","name":"Saalfeld-Rudolstadt","type":"Landkreis"},"federalState":{"key":"16","name":"Thüringen"}},{"name":"Im Ehrlich","postalCode":"07407","locality":"Rudolstadt","municipality":{"key":"16073076","name":"Rudolstadt, Stadt","type":"Stadt"},"district":{"key":"16073","name":"Saalfeld-Rudolstadt","type":"Landkreis"},"federalState":{"key":"16","name":"Thüringen"}},{"name":"Im Eiserstal","postalCode":"07407","locality":"Rudolstadt","municipality":{"key":"16073076","name":"Rudolstadt, Stadt","type":"Stadt"},"district":{"key":"16073","name":"Saalfeld-Rudolstadt","type":"Landkreis"},"federalState":{"key":"16","name":"Thüringen"}},{"name":"Im Kirschgarten","postalCode":"07407","locality":"Rudolstadt","municipality":{"key":"16073076","name":"Rudolstadt, Stadt","type":"Stadt"},"district":{"key":"16073","name":"Saalfeld-Rudolstadt","type":"Landkreis"},"federalState":{"key":"16","name":"Thüringen"}},{"name":"Im Malmtal","postalCode":"07407","locality":"Rudolstadt","municipality":{"key":"16073076","name":"Rudolstadt, Stadt","type":"Stadt"},"district":{"key":"16073","name":"Saalfeld-Rudolstadt","type":"Landkreis"},"federalState":{"key":"16","name":"Thüringen"}},{"name":"Im Rudolspark","postalCode":"07407","locality":"Rudolstadt","municipality":{"key":"16073076","name":"Rudolstadt, Stadt","type":"Stadt"},"district":{"key":"16073","name":"Saalfeld-Rudolstadt","type":"Landkreis"},"federalState":{"key":"16","name":"Thüringen"}},{"name":"Im Schwanensee","postalCode":"07407","locality":"Rudolstadt","municipality":{"key":"16073076","name":"Rudolstadt, Stadt","type":"Stadt"},"district":{"key":"16073","name":"Saalfeld-Rudolstadt","type":"Landkreis"},"federalState":{"key":"16","name":"Thüringen"}},{"name":"Im Tälchen","postalCode":"07407","locality":"Rudolstadt","municipality":{"key":"16073076","name":"Rudolstadt, Stadt","type":"Stadt"},"district":{"key":"16073","name":"Saalfeld-Rudolstadt","type":"Landkreis"},"federalState":{"key":"16","name":"Thüringen"}},{"name":"Im Winkel","postalCode":"07407","locality":"Rudolstadt","municipality":{"key":"16073076","name":"Rudolstadt, Stadt","type":"Stadt"},"district":{"key":"16073","name":"Saalfeld-Rudolstadt","type":"Landkreis"},"federalState":{"key":"16","name":"Thüringen"}},{"name":"Im Wörth","postalCode":"07407","locality":"Rudolstadt","municipality":{"key":"16073076","name":"Rudolstadt, Stadt","type":"Stadt"},"district":{"key":"16073","name":"Saalfeld-Rudolstadt","type":"Landkreis"},"federalState":{"key":"16","name":"Thüringen"}},{"name":"In den Wiesen","postalCode":"07407","locality":"Rudolstadt","municipality":{"key":"16073076","name":"Rudolstadt, Stadt","type":"Stadt"},"district":{"key":"16073","name":"Saalfeld-Rudolstadt","type":"Landkreis"},"federalState":{"key":"16","name":"Thüringen"}},{"name":"In der Laase","postalCode":"07407","locality":"Rudolstadt","municipality":{"key":"16073076","name":"Rudolstadt, Stadt","type":"Stadt"},"district":{"key":"16073","name":"Saalfeld-Rudolstadt","type":"Landkreis"},"federalState":{"key":"16","name":"Thüringen"}},{"name":"In der Schremsche","postalCode":"07407","locality":"Rudolstadt","municipality":{"key":"16073076","name":"Rudolstadt, Stadt","type":"Stadt"},"district":{"key":"16073","name":"Saalfeld-Rudolstadt","type":"Landkreis"},"federalState":{"key":"16","name":"Thüringen"}},{"name":"Jenaische Str.","postalCode":"07407","locality":"Rudolstadt","municipality":{"key":"16073076","name":"Rudolstadt, Stadt","type":"Stadt"},"district":{"key":"16073","name":"Saalfeld-Rudolstadt","type":"Landkreis"},"federalState":{"key":"16","name":"Thüringen"}},{"name":"Jettinastr.","postalCode":"07407","locality":"Rudolstadt","municipality":{"key":"16073076","name":"Rudolstadt, Stadt","type":"Stadt"},"district":{"key":"16073","name":"Saalfeld-Rudolstadt","type":"Landkreis"},"federalState":{"key":"16","name":"Thüringen"}},{"name":"Johannes-Brahms-Weg","postalCode":"07407","locality":"Rudolstadt","municipality":{"key":"16073076","name":"Rudolstadt, Stadt","type":"Stadt"},"district":{"key":"16073","name":"Saalfeld-Rudolstadt","type":"Landkreis"},"federalState":{"key":"16","name":"Thüringen"}},{"name":"Johannes-Kepler-Str.","postalCode":"07407","locality":"Rudolstadt","municipality":{"key":"16073076","name":"Rudolstadt, Stadt","type":"Stadt"},"district":{"key":"16073","name":"Saalfeld-Rudolstadt","type":"Landkreis"},"federalState":{"key":"16","name":"Thüringen"}},{"name":"Karl-Liebknecht-Str.","postalCode":"07407","locality":"Rudolstadt","municipality":{"key":"16073076","name":"Rudolstadt, Stadt","type":"Stadt"},"district":{"key":"16073","name":"Saalfeld-Rudolstadt","type":"Landkreis"},"federalState":{"key":"16","name":"Thüringen"}},{"name":"Karlstr.","postalCode":"07407","locality":"Rudolstadt","municipality":{"key":"16073076","name":"Rudolstadt, Stadt","type":"Stadt"},"district":{"key":"16073","name":"Saalfeld-Rudolstadt","type":"Landkreis"},"federalState":{"key":"16","name":"Thüringen"}},{"name":"Kastanienring","postalCode":"07407","locality":"Rudolstadt","municipality":{"key":"16073076","name":"Rudolstadt, Stadt","type":"Stadt"},"district":{"key":"16073","name":"Saalfeld-Rudolstadt","type":"Landkreis"},"federalState":{"key":"16","name":"Thüringen"}},{"name":"Käthe-Kollwitz-Str.","postalCode":"07407","locality":"Rudolstadt","municipality":{"key":"16073076","name":"Rudolstadt, Stadt","type":"Stadt"},"district":{"key":"16073","name":"Saalfeld-Rudolstadt","type":"Landkreis"},"federalState":{"key":"16","name":"Thüringen"}},{"name":"Keilhauer Str.","postalCode":"07407","locality":"Rudolstadt","municipality":{"key":"16073076","name":"Rudolstadt, Stadt","type":"Stadt"},"district":{"key":"16073","name":"Saalfeld-Rudolstadt","type":"Landkreis"},"federalState":{"key":"16","name":"Thüringen"}},{"name":"Kirchgasse","postalCode":"07407","locality":"Rudolstadt","municipality":{"key":"16073076","name":"Rudolstadt, Stadt","type":"Stadt"},"district":{"key":"16073","name":"Saalfeld-Rudolstadt","type":"Landkreis"},"federalState":{"key":"16","name":"Thüringen"}},{"name":"Kirchhof","postalCode":"07407","locality":"Rudolstadt","municipality":{"key":"16073076","name":"Rudolstadt, Stadt","type":"Stadt"},"district":{"key":"16073","name":"Saalfeld-Rudolstadt","type":"Landkreis"},"federalState":{"key":"16","name":"Thüringen"}},{"name":"Kirchplatz","postalCode":"07407","locality":"Rudolstadt","municipality":{"key":"16073076","name":"Rudolstadt, Stadt","type":"Stadt"},"district":{"key":"16073","name":"Saalfeld-Rudolstadt","type":"Landkreis"},"federalState":{"key":"16","name":"Thüringen"}},{"name":"Kirchweg","postalCode":"07407","locality":"Rudolstadt","municipality":{"key":"16073076","name":"Rudolstadt, Stadt","type":"Stadt"},"district":{"key":"16073","name":"Saalfeld-Rudolstadt","type":"Landkreis"},"federalState":{"key":"16","name":"Thüringen"}},{"name":"Kleine Allee","postalCode":"07407","locality":"Rudolstadt","municipality":{"key":"16073076","name":"Rudolstadt, Stadt","type":"Stadt"},"district":{"key":"16073","name":"Saalfeld-Rudolstadt","type":"Landkreis"},"federalState":{"key":"16","name":"Thüringen"}},{"name":"Kleine Gasse","postalCode":"07407","locality":"Rudolstadt","municipality":{"key":"16073076","name":"Rudolstadt, Stadt","type":"Stadt"},"district":{"key":"16073","name":"Saalfeld-Rudolstadt","type":"Landkreis"},"federalState":{"key":"16","name":"Thüringen"}},{"name":"Kleiner Damm","postalCode":"07407","locality":"Rudolstadt","municipality":{"key":"16073076","name":"Rudolstadt, Stadt","type":"Stadt"},"district":{"key":"16073","name":"Saalfeld-Rudolstadt","type":"Landkreis"},"federalState":{"key":"16","name":"Thüringen"}},{"name":"Klinghammerstr.","postalCode":"07407","locality":"Rudolstadt","municipality":{"key":"16073076","name":"Rudolstadt, Stadt","type":"Stadt"},"district":{"key":"16073","name":"Saalfeld-Rudolstadt","type":"Landkreis"},"federalState":{"key":"16","name":"Thüringen"}},{"name":"Kopernikusweg","postalCode":"07407","locality":"Rudolstadt","municipality":{"key":"16073076","name":"Rudolstadt, Stadt","type":"Stadt"},"district":{"key":"16073","name":"Saalfeld-Rudolstadt","type":"Landkreis"},"federalState":{"key":"16","name":"Thüringen"}},{"name":"Kranichfelder Str.","postalCode":"07407","locality":"Rudolstadt","municipality":{"key":"16073076","name":"Rudolstadt, Stadt","type":"Stadt"},"district":{"key":"16073","name":"Saalfeld-Rudolstadt","type":"Landkreis"},"federalState":{"key":"16","name":"Thüringen"}},{"name":"Kreuzstr.","postalCode":"07407","locality":"Rudolstadt","municipality":{"key":"16073076","name":"Rudolstadt, Stadt","type":"Stadt"},"district":{"key":"16073","name":"Saalfeld-Rudolstadt","type":"Landkreis"},"federalState":{"key":"16","name":"Thüringen"}},{"name":"Kuckucksweg","postalCode":"07407","locality":"Rudolstadt","municipality":{"key":"16073076","name":"Rudolstadt, Stadt","type":"Stadt"},"district":{"key":"16073","name":"Saalfeld-Rudolstadt","type":"Landkreis"},"federalState":{"key":"16","name":"Thüringen"}},{"name":"Kupferstr.","postalCode":"07407","locality":"Rudolstadt","municipality":{"key":"16073076","name":"Rudolstadt, Stadt","type":"Stadt"},"district":{"key":"16073","name":"Saalfeld-Rudolstadt","type":"Landkreis"},"federalState":{"key":"16","name":"Thüringen"}},{"name":"Kürschnertal","postalCode":"07407","locality":"Rudolstadt","municipality":{"key":"16073076","name":"Rudolstadt, Stadt","type":"Stadt"},"district":{"key":"16073","name":"Saalfeld-Rudolstadt","type":"Landkreis"},"federalState":{"key":"16","name":"Thüringen"}},{"name":"Kurzer Weg","postalCode":"07407","locality":"Rudolstadt","municipality":{"key":"16073076","name":"Rudolstadt, Stadt","type":"Stadt"},"district":{"key":"16073","name":"Saalfeld-Rudolstadt","type":"Landkreis"},"federalState":{"key":"16","name":"Thüringen"}},{"name":"Langes Tal","postalCode":"07407","locality":"Rudolstadt","municipality":{"key":"16073076","name":"Rudolstadt, Stadt","type":"Stadt"},"district":{"key":"16073","name":"Saalfeld-Rudolstadt","type":"Landkreis"},"federalState":{"key":"16","name":"Thüringen"}},{"name":"Lengefeldstr.","postalCode":"07407","locality":"Rudolstadt","municipality":{"key":"16073076","name":"Rudolstadt, Stadt","type":"Stadt"},"district":{"key":"16073","name":"Saalfeld-Rudolstadt","type":"Landkreis"},"federalState":{"key":"16","name":"Thüringen"}},{"name":"Lerchenweg","postalCode":"07407","locality":"Rudolstadt","municipality":{"key":"16073076","name":"Rudolstadt, Stadt","type":"Stadt"},"district":{"key":"16073","name":"Saalfeld-Rudolstadt","type":"Landkreis"},"federalState":{"key":"16","name":"Thüringen"}},{"name":"Lichstedt","postalCode":"07407","locality":"Rudolstadt","municipality":{"key":"16073076","name":"Rudolstadt, Stadt","type":"Stadt"},"district":{"key":"16073","name":"Saalfeld-Rudolstadt","type":"Landkreis"},"federalState":{"key":"16","name":"Thüringen"}},{"name":"Liebigweg","postalCode":"07407","locality":"Rudolstadt","municipality":{"key":"16073076","name":"Rudolstadt, Stadt","type":"Stadt"},"district":{"key":"16073","name":"Saalfeld-Rudolstadt","type":"Landkreis"},"federalState":{"key":"16","name":"Thüringen"}},{"name":"Lindenweg","postalCode":"07407","locality":"Rudolstadt","municipality":{"key":"16073076","name":"Rudolstadt, Stadt","type":"Stadt"},"district":{"key":"16073","name":"Saalfeld-Rudolstadt","type":"Landkreis"},"federalState":{"key":"16","name":"Thüringen"}},{"name":"Linzigweg","postalCode":"07407","locality":"Rudolstadt","municipality":{"key":"16073076","name":"Rudolstadt, Stadt","type":"Stadt"},"district":{"key":"16073","name":"Saalfeld-Rudolstadt","type":"Landkreis"},"federalState":{"key":"16","name":"Thüringen"}},{"name":"Lomonossowweg","postalCode":"07407","locality":"Rudolstadt","municipality":{"key":"16073076","name":"Rudolstadt, Stadt","type":"Stadt"},"district":{"key":"16073","name":"Saalfeld-Rudolstadt","type":"Landkreis"},"federalState":{"key":"16","name":"Thüringen"}},{"name":"Ludwig-Jahn-Str.","postalCode":"07407","locality":"Rudolstadt","municipality":{"key":"16073076","name":"Rudolstadt, Stadt","type":"Stadt"},"district":{"key":"16073","name":"Saalfeld-Rudolstadt","type":"Landkreis"},"federalState":{"key":"16","name":"Thüringen"}},{"name":"Ludwigstr.","postalCode":"07407","locality":"Rudolstadt","municipality":{"key":"16073076","name":"Rudolstadt, Stadt","type":"Stadt"},"district":{"key":"16073","name":"Saalfeld-Rudolstadt","type":"Landkreis"},"federalState":{"key":"16","name":"Thüringen"}},{"name":"Lutherstr.","postalCode":"07407","locality":"Rudolstadt","municipality":{"key":"16073076","name":"Rudolstadt, Stadt","type":"Stadt"},"district":{"key":"16073","name":"Saalfeld-Rudolstadt","type":"Landkreis"},"federalState":{"key":"16","name":"Thüringen"}},{"name":"Macheleidtstr.","postalCode":"07407","locality":"Rudolstadt","municipality":{"key":"16073076","name":"Rudolstadt, Stadt","type":"Stadt"},"district":{"key":"16073","name":"Saalfeld-Rudolstadt","type":"Landkreis"},"federalState":{"key":"16","name":"Thüringen"}},{"name":"Mangelgasse","postalCode":"07407","locality":"Rudolstadt","municipality":{"key":"16073076","name":"Rudolstadt, Stadt","type":"Stadt"},"district":{"key":"16073","name":"Saalfeld-Rudolstadt","type":"Landkreis"},"federalState":{"key":"16","name":"Thüringen"}},{"name":"Mariental","postalCode":"07407","locality":"Rudolstadt","municipality":{"key":"16073076","name":"Rudolstadt, Stadt","type":"Stadt"},"district":{"key":"16073","name":"Saalfeld-Rudolstadt","type":"Landkreis"},"federalState":{"key":"16","name":"Thüringen"}},{"name":"Marienturm","postalCode":"07407","locality":"Rudolstadt","municipality":{"key":"16073076","name":"Rudolstadt, Stadt","type":"Stadt"},"district":{"key":"16073","name":"Saalfeld-Rudolstadt","type":"Landkreis"},"federalState":{"key":"16","name":"Thüringen"}},{"name":"Markt","postalCode":"07407","locality":"Rudolstadt","municipality":{"key":"16073076","name":"Rudolstadt, Stadt","type":"Stadt"},"district":{"key":"16073","name":"Saalfeld-Rudolstadt","type":"Landkreis"},"federalState":{"key":"16","name":"Thüringen"}},{"name":"Marktstr.","postalCode":"07407","locality":"Rudolstadt","municipality":{"key":"16073076","name":"Rudolstadt, Stadt","type":"Stadt"},"district":{"key":"16073","name":"Saalfeld-Rudolstadt","type":"Landkreis"},"federalState":{"key":"16","name":"Thüringen"}},{"name":"Mauerstr.","postalCode":"07407","locality":"Rudolstadt","municipality":{"key":"16073076","name":"Rudolstadt, Stadt","type":"Stadt"},"district":{"key":"16073","name":"Saalfeld-Rudolstadt","type":"Landkreis"},"federalState":{"key":"16","name":"Thüringen"}},{"name":"Methfesselstr.","postalCode":"07407","locality":"Rudolstadt","municipality":{"key":"16073076","name":"Rudolstadt, Stadt","type":"Stadt"},"district":{"key":"16073","name":"Saalfeld-Rudolstadt","type":"Landkreis"},"federalState":{"key":"16","name":"Thüringen"}},{"name":"Milbitz bei Teichel","postalCode":"07407","locality":"Rudolstadt","municipality":{"key":"16073076","name":"Rudolstadt, Stadt","type":"Stadt"},"district":{"key":"16073","name":"Saalfeld-Rudolstadt","type":"Landkreis"},"federalState":{"key":"16","name":"Thüringen"}},{"name":"Milbitzer Weg","postalCode":"07407","locality":"Rudolstadt","municipality":{"key":"16073076","name":"Rudolstadt, Stadt","type":"Stadt"},"district":{"key":"16073","name":"Saalfeld-Rudolstadt","type":"Landkreis"},"federalState":{"key":"16","name":"Thüringen"}},{"name":"Misttal","postalCode":"07407","locality":"Rudolstadt","municipality":{"key":"16073076","name":"Rudolstadt, Stadt","type":"Stadt"},"district":{"key":"16073","name":"Saalfeld-Rudolstadt","type":"Landkreis"},"federalState":{"key":"16","name":"Thüringen"}},{"name":"Mittelweg","postalCode":"07407","locality":"Rudolstadt","municipality":{"key":"16073076","name":"Rudolstadt, Stadt","type":"Stadt"},"district":{"key":"16073","name":"Saalfeld-Rudolstadt","type":"Landkreis"},"federalState":{"key":"16","name":"Thüringen"}},{"name":"Mittlere Terrasse","postalCode":"07407","locality":"Rudolstadt","municipality":{"key":"16073076","name":"Rudolstadt, Stadt","type":"Stadt"},"district":{"key":"16073","name":"Saalfeld-Rudolstadt","type":"Landkreis"},"federalState":{"key":"16","name":"Thüringen"}},{"name":"Molkereistr.","postalCode":"07407","locality":"Rudolstadt","municipality":{"key":"16073076","name":"Rudolstadt, Stadt","type":"Stadt"},"district":{"key":"16073","name":"Saalfeld-Rudolstadt","type":"Landkreis"},"federalState":{"key":"16","name":"Thüringen"}},{"name":"Mörla","postalCode":"07407","locality":"Rudolstadt","municipality":{"key":"16073076","name":"Rudolstadt, Stadt","type":"Stadt"},"district":{"key":"16073","name":"Saalfeld-Rudolstadt","type":"Landkreis"},"federalState":{"key":"16","name":"Thüringen"}},{"name":"Mörlaer Str.","postalCode":"07407","locality":"Rudolstadt","municipality":{"key":"16073076","name":"Rudolstadt, Stadt","type":"Stadt"},"district":{"key":"16073","name":"Saalfeld-Rudolstadt","type":"Landkreis"},"federalState":{"key":"16","name":"Thüringen"}},{"name":"Mühlbachgasse","postalCode":"07407","locality":"Rudolstadt","municipality":{"key":"16073076","name":"Rudolstadt, Stadt","type":"Stadt"},"district":{"key":"16073","name":"Saalfeld-Rudolstadt","type":"Landkreis"},"federalState":{"key":"16","name":"Thüringen"}},{"name":"Mühlenstr.","postalCode":"07407","locality":"Rudolstadt","municipality":{"key":"16073076","name":"Rudolstadt, Stadt","type":"Stadt"},"district":{"key":"16073","name":"Saalfeld-Rudolstadt","type":"Landkreis"},"federalState":{"key":"16","name":"Thüringen"}},{"name":"Mühlgasse","postalCode":"07407","locality":"Rudolstadt","municipality":{"key":"16073076","name":"Rudolstadt, Stadt","type":"Stadt"},"district":{"key":"16073","name":"Saalfeld-Rudolstadt","type":"Landkreis"},"federalState":{"key":"16","name":"Thüringen"}},{"name":"Nachtigallenweg","postalCode":"07407","locality":"Rudolstadt","municipality":{"key":"16073076","name":"Rudolstadt, Stadt","type":"Stadt"},"district":{"key":"16073","name":"Saalfeld-Rudolstadt","type":"Landkreis"},"federalState":{"key":"16","name":"Thüringen"}},{"name":"Neue Gasse","postalCode":"07407","locality":"Rudolstadt","municipality":{"key":"16073076","name":"Rudolstadt, Stadt","type":"Stadt"},"district":{"key":"16073","name":"Saalfeld-Rudolstadt","type":"Landkreis"},"federalState":{"key":"16","name":"Thüringen"}},{"name":"Neue Schulstr.","postalCode":"07407","locality":"Rudolstadt","municipality":{"key":"16073076","name":"Rudolstadt, Stadt","type":"Stadt"},"district":{"key":"16073","name":"Saalfeld-Rudolstadt","type":"Landkreis"},"federalState":{"key":"16","name":"Thüringen"}},{"name":"Neue Siedlung","postalCode":"07407","locality":"Rudolstadt","municipality":{"key":"16073076","name":"Rudolstadt, Stadt","type":"Stadt"},"district":{"key":"16073","name":"Saalfeld-Rudolstadt","type":"Landkreis"},"federalState":{"key":"16","name":"Thüringen"}},{"name":"Neue Stadtbrücke","postalCode":"07407","locality":"Rudolstadt","municipality":{"key":"16073076","name":"Rudolstadt, Stadt","type":"Stadt"},"district":{"key":"16073","name":"Saalfeld-Rudolstadt","type":"Landkreis"},"federalState":{"key":"16","name":"Thüringen"}},{"name":"Neumarkt","postalCode":"07407","locality":"Rudolstadt","municipality":{"key":"16073076","name":"Rudolstadt, Stadt","type":"Stadt"},"district":{"key":"16073","name":"Saalfeld-Rudolstadt","type":"Landkreis"},"federalState":{"key":"16","name":"Thüringen"}},{"name":"Obergasse","postalCode":"07407","locality":"Rudolstadt","municipality":{"key":"16073076","name":"Rudolstadt, Stadt","type":"Stadt"},"district":{"key":"16073","name":"Saalfeld-Rudolstadt","type":"Landkreis"},"federalState":{"key":"16","name":"Thüringen"}},{"name":"Oberpreilipp","postalCode":"07407","locality":"Rudolstadt","municipality":{"key":"16073076","name":"Rudolstadt, Stadt","type":"Stadt"},"district":{"key":"16073","name":"Saalfeld-Rudolstadt","type":"Landkreis"},"federalState":{"key":"16","name":"Thüringen"}},{"name":"Oststr.","postalCode":"07407","locality":"Rudolstadt","municipality":{"key":"16073076","name":"Rudolstadt, Stadt","type":"Stadt"},"district":{"key":"16073","name":"Saalfeld-Rudolstadt","type":"Landkreis"},"federalState":{"key":"16","name":"Thüringen"}},{"name":"Otto-Grotewohl-Str.","postalCode":"07407","locality":"Rudolstadt","municipality":{"key":"16073076","name":"Rudolstadt, Stadt","type":"Stadt"},"district":{"key":"16073","name":"Saalfeld-Rudolstadt","type":"Landkreis"},"federalState":{"key":"16","name":"Thüringen"}},{"name":"Otto-Nuschke-Str.","postalCode":"07407","locality":"Rudolstadt","municipality":{"key":"16073076","name":"Rudolstadt, Stadt","type":"Stadt"},"district":{"key":"16073","name":"Saalfeld-Rudolstadt","type":"Landkreis"},"federalState":{"key":"16","name":"Thüringen"}},{"name":"Paganinistr.","postalCode":"07407","locality":"Rudolstadt","municipality":{"key":"16073076","name":"Rudolstadt, Stadt","type":"Stadt"},"district":{"key":"16073","name":"Saalfeld-Rudolstadt","type":"Landkreis"},"federalState":{"key":"16","name":"Thüringen"}},{"name":"Paul-Herger-Str.","postalCode":"07407","locality":"Rudolstadt","municipality":{"key":"16073076","name":"Rudolstadt, Stadt","type":"Stadt"},"district":{"key":"16073","name":"Saalfeld-Rudolstadt","type":"Landkreis"},"federalState":{"key":"16","name":"Thüringen"}},{"name":"Pestalozzistr.","postalCode":"07407","locality":"Rudolstadt","municipality":{"key":"16073076","name":"Rudolstadt, Stadt","type":"Stadt"},"district":{"key":"16073","name":"Saalfeld-Rudolstadt","type":"Landkreis"},"federalState":{"key":"16","name":"Thüringen"}},{"name":"Pflanzwirbach","postalCode":"07407","locality":"Rudolstadt","municipality":{"key":"16073076","name":"Rudolstadt, Stadt","type":"Stadt"},"district":{"key":"16073","name":"Saalfeld-Rudolstadt","type":"Landkreis"},"federalState":{"key":"16","name":"Thüringen"}},{"name":"Platanenstr.","postalCode":"07407","locality":"Rudolstadt","municipality":{"key":"16073076","name":"Rudolstadt, Stadt","type":"Stadt"},"district":{"key":"16073","name":"Saalfeld-Rudolstadt","type":"Landkreis"},"federalState":{"key":"16","name":"Thüringen"}},{"name":"Platz der Opfer des Faschismus","postalCode":"07407","locality":"Rudolstadt","municipality":{"key":"16073076","name":"Rudolstadt, Stadt","type":"Stadt"},"district":{"key":"16073","name":"Saalfeld-Rudolstadt","type":"Landkreis"},"federalState":{"key":"16","name":"Thüringen"}},{"name":"Pörzbergtunnel","postalCode":"07407","locality":"Rudolstadt","municipality":{"key":"16073076","name":"Rudolstadt, Stadt","type":"Stadt"},"district":{"key":"16073","name":"Saalfeld-Rudolstadt","type":"Landkreis"},"federalState":{"key":"16","name":"Thüringen"}},{"name":"Preilipper Str.","postalCode":"07407","locality":"Rudolstadt","municipality":{"key":"16073076","name":"Rudolstadt, Stadt","type":"Stadt"},"district":{"key":"16073","name":"Saalfeld-Rudolstadt","type":"Landkreis"},"federalState":{"key":"16","name":"Thüringen"}},{"name":"Prinz-Louis-Ferdinand-Str.","postalCode":"07407","locality":"Rudolstadt","municipality":{"key":"16073076","name":"Rudolstadt, Stadt","type":"Stadt"},"district":{"key":"16073","name":"Saalfeld-Rudolstadt","type":"Landkreis"},"federalState":{"key":"16","name":"Thüringen"}},{"name":"Prof.-Hans-Böhringer-Str.","postalCode":"07407","locality":"Rudolstadt","municipality":{"key":"16073076","name":"Rudolstadt, Stadt","type":"Stadt"},"district":{"key":"16073","name":"Saalfeld-Rudolstadt","type":"Landkreis"},"federalState":{"key":"16","name":"Thüringen"}},{"name":"Prof.-Hermann-Klare-Str.","postalCode":"07407","locality":"Rudolstadt","municipality":{"key":"16073076","name":"Rudolstadt, Stadt","type":"Stadt"},"district":{"key":"16073","name":"Saalfeld-Rudolstadt","type":"Landkreis"},"federalState":{"key":"16","name":"Thüringen"}},{"name":"Pulverholzweg","postalCode":"07407","locality":"Rudolstadt","municipality":{"key":"16073076","name":"Rudolstadt, Stadt","type":"Stadt"},"district":{"key":"16073","name":"Saalfeld-Rudolstadt","type":"Landkreis"},"federalState":{"key":"16","name":"Thüringen"}},{"name":"Puschkinstr.","postalCode":"07407","locality":"Rudolstadt","municipality":{"key":"16073076","name":"Rudolstadt, Stadt","type":"Stadt"},"district":{"key":"16073","name":"Saalfeld-Rudolstadt","type":"Landkreis"},"federalState":{"key":"16","name":"Thüringen"}},{"name":"Querweg","postalCode":"07407","locality":"Rudolstadt","municipality":{"key":"16073076","name":"Rudolstadt, Stadt","type":"Stadt"},"district":{"key":"16073","name":"Saalfeld-Rudolstadt","type":"Landkreis"},"federalState":{"key":"16","name":"Thüringen"}},{"name":"Raiffeisenstr.","postalCode":"07407","locality":"Rudolstadt","municipality":{"key":"16073076","name":"Rudolstadt, Stadt","type":"Stadt"},"district":{"key":"16073","name":"Saalfeld-Rudolstadt","type":"Landkreis"},"federalState":{"key":"16","name":"Thüringen"}},{"name":"Rathenaustr.","postalCode":"07407","locality":"Rudolstadt","municipality":{"key":"16073076","name":"Rudolstadt, Stadt","type":"Stadt"},"district":{"key":"16073","name":"Saalfeld-Rudolstadt","type":"Landkreis"},"federalState":{"key":"16","name":"Thüringen"}},{"name":"Ratsgasse","postalCode":"07407","locality":"Rudolstadt","municipality":{"key":"16073076","name":"Rudolstadt, Stadt","type":"Stadt"},"district":{"key":"16073","name":"Saalfeld-Rudolstadt","type":"Landkreis"},"federalState":{"key":"16","name":"Thüringen"}},{"name":"Remdaer Hauptstr.","postalCode":"07407","locality":"Rudolstadt","municipality":{"key":"16073076","name":"Rudolstadt, Stadt","type":"Stadt"},"district":{"key":"16073","name":"Saalfeld-Rudolstadt","type":"Landkreis"},"federalState":{"key":"16","name":"Thüringen"}},{"name":"Remdaer Markt","postalCode":"07407","locality":"Rudolstadt","municipality":{"key":"16073076","name":"Rudolstadt, Stadt","type":"Stadt"},"district":{"key":"16073","name":"Saalfeld-Rudolstadt","type":"Landkreis"},"federalState":{"key":"16","name":"Thüringen"}},{"name":"Remdaer Str.","postalCode":"07407","locality":"Rudolstadt","municipality":{"key":"16073076","name":"Rudolstadt, Stadt","type":"Stadt"},"district":{"key":"16073","name":"Saalfeld-Rudolstadt","type":"Landkreis"},"federalState":{"key":"16","name":"Thüringen"}},{"name":"Richard-Wagner-Str.","postalCode":"07407","locality":"Rudolstadt","municipality":{"key":"16073076","name":"Rudolstadt, Stadt","type":"Stadt"},"district":{"key":"16073","name":"Saalfeld-Rudolstadt","type":"Landkreis"},"federalState":{"key":"16","name":"Thüringen"}},{"name":"Robert-Birkner-Str.","postalCode":"07407","locality":"Rudolstadt","municipality":{"key":"16073076","name":"Rudolstadt, Stadt","type":"Stadt"},"district":{"key":"16073","name":"Saalfeld-Rudolstadt","type":"Landkreis"},"federalState":{"key":"16","name":"Thüringen"}},{"name":"Robert-Blum-Str.","postalCode":"07407","locality":"Rudolstadt","municipality":{"key":"16073076","name":"Rudolstadt, Stadt","type":"Stadt"},"district":{"key":"16073","name":"Saalfeld-Rudolstadt","type":"Landkreis"},"federalState":{"key":"16","name":"Thüringen"}},{"name":"Robert-Koch-Str.","postalCode":"07407","locality":"Rudolstadt","municipality":{"key":"16073076","name":"Rudolstadt, Stadt","type":"Stadt"},"district":{"key":"16073","name":"Saalfeld-Rudolstadt","type":"Landkreis"},"federalState":{"key":"16","name":"Thüringen"}},{"name":"Röhrenweg","postalCode":"07407","locality":"Rudolstadt","municipality":{"key":"16073076","name":"Rudolstadt, Stadt","type":"Stadt"},"district":{"key":"16073","name":"Saalfeld-Rudolstadt","type":"Landkreis"},"federalState":{"key":"16","name":"Thüringen"}},{"name":"Röntgenstr.","postalCode":"07407","locality":"Rudolstadt","municipality":{"key":"16073076","name":"Rudolstadt, Stadt","type":"Stadt"},"district":{"key":"16073","name":"Saalfeld-Rudolstadt","type":"Landkreis"},"federalState":{"key":"16","name":"Thüringen"}},{"name":"Rosa-Luxemburg-Str.","postalCode":"07407","locality":"Rudolstadt","municipality":{"key":"16073076","name":"Rudolstadt, Stadt","type":"Stadt"},"district":{"key":"16073","name":"Saalfeld-Rudolstadt","type":"Landkreis"},"federalState":{"key":"16","name":"Thüringen"}},{"name":"Rosenweg","postalCode":"07407","locality":"Rudolstadt","municipality":{"key":"16073076","name":"Rudolstadt, Stadt","type":"Stadt"},"district":{"key":"16073","name":"Saalfeld-Rudolstadt","type":"Landkreis"},"federalState":{"key":"16","name":"Thüringen"}},{"name":"Rudolf-Zinkel-Str.","postalCode":"07407","locality":"Rudolstadt","municipality":{"key":"16073076","name":"Rudolstadt, Stadt","type":"Stadt"},"district":{"key":"16073","name":"Saalfeld-Rudolstadt","type":"Landkreis"},"federalState":{"key":"16","name":"Thüringen"}},{"name":"Rudolstädter Str.","postalCode":"07407","locality":"Rudolstadt","municipality":{"key":"16073076","name":"Rudolstadt, Stadt","type":"Stadt"},"district":{"key":"16073","name":"Saalfeld-Rudolstadt","type":"Landkreis"},"federalState":{"key":"16","name":"Thüringen"}},{"name":"Saalfelder Str.","postalCode":"07407","locality":"Rudolstadt","municipality":{"key":"16073076","name":"Rudolstadt, Stadt","type":"Stadt"},"district":{"key":"16073","name":"Saalfeld-Rudolstadt","type":"Landkreis"},"federalState":{"key":"16","name":"Thüringen"}},{"name":"Saalgärten","postalCode":"07407","locality":"Rudolstadt","municipality":{"key":"16073076","name":"Rudolstadt, Stadt","type":"Stadt"},"district":{"key":"16073","name":"Saalfeld-Rudolstadt","type":"Landkreis"},"federalState":{"key":"16","name":"Thüringen"}},{"name":"Saalgasse","postalCode":"07407","locality":"Rudolstadt","municipality":{"key":"16073076","name":"Rudolstadt, Stadt","type":"Stadt"},"district":{"key":"16073","name":"Saalfeld-Rudolstadt","type":"Landkreis"},"federalState":{"key":"16","name":"Thüringen"}},{"name":"Schaalaer Chaussee","postalCode":"07407","locality":"Rudolstadt","municipality":{"key":"16073076","name":"Rudolstadt, Stadt","type":"Stadt"},"district":{"key":"16073","name":"Saalfeld-Rudolstadt","type":"Landkreis"},"federalState":{"key":"16","name":"Thüringen"}},{"name":"Scheinpflugstr.","postalCode":"07407","locality":"Rudolstadt","municipality":{"key":"16073076","name":"Rudolstadt, Stadt","type":"Stadt"},"district":{"key":"16073","name":"Saalfeld-Rudolstadt","type":"Landkreis"},"federalState":{"key":"16","name":"Thüringen"}},{"name":"Schillerbrücke","postalCode":"07407","locality":"Rudolstadt","municipality":{"key":"16073076","name":"Rudolstadt, Stadt","type":"Stadt"},"district":{"key":"16073","name":"Saalfeld-Rudolstadt","type":"Landkreis"},"federalState":{"key":"16","name":"Thüringen"}},{"name":"Schillershöhe","postalCode":"07407","locality":"Rudolstadt","municipality":{"key":"16073076","name":"Rudolstadt, Stadt","type":"Stadt"},"district":{"key":"16073","name":"Saalfeld-Rudolstadt","type":"Landkreis"},"federalState":{"key":"16","name":"Thüringen"}},{"name":"Schillerstr.","postalCode":"07407","locality":"Rudolstadt","municipality":{"key":"16073076","name":"Rudolstadt, Stadt","type":"Stadt"},"district":{"key":"16073","name":"Saalfeld-Rudolstadt","type":"Landkreis"},"federalState":{"key":"16","name":"Thüringen"}},{"name":"Schillingstr.","postalCode":"07407","locality":"Rudolstadt","municipality":{"key":"16073076","name":"Rudolstadt, Stadt","type":"Stadt"},"district":{"key":"16073","name":"Saalfeld-Rudolstadt","type":"Landkreis"},"federalState":{"key":"16","name":"Thüringen"}},{"name":"Schloßaufgang II","postalCode":"07407","locality":"Rudolstadt","municipality":{"key":"16073076","name":"Rudolstadt, Stadt","type":"Stadt"},"district":{"key":"16073","name":"Saalfeld-Rudolstadt","type":"Landkreis"},"federalState":{"key":"16","name":"Thüringen"}},{"name":"Schloßaufgang IV","postalCode":"07407","locality":"Rudolstadt","municipality":{"key":"16073076","name":"Rudolstadt, Stadt","type":"Stadt"},"district":{"key":"16073","name":"Saalfeld-Rudolstadt","type":"Landkreis"},"federalState":{"key":"16","name":"Thüringen"}},{"name":"Schloßaufgang VI","postalCode":"07407","locality":"Rudolstadt","municipality":{"key":"16073076","name":"Rudolstadt, Stadt","type":"Stadt"},"district":{"key":"16073","name":"Saalfeld-Rudolstadt","type":"Landkreis"},"federalState":{"key":"16","name":"Thüringen"}},{"name":"Schloßbezirk","postalCode":"07407","locality":"Rudolstadt","municipality":{"key":"16073076","name":"Rudolstadt, Stadt","type":"Stadt"},"district":{"key":"16073","name":"Saalfeld-Rudolstadt","type":"Landkreis"},"federalState":{"key":"16","name":"Thüringen"}},{"name":"Schlosspark","postalCode":"07407","locality":"Rudolstadt","municipality":{"key":"16073076","name":"Rudolstadt, Stadt","type":"Stadt"},"district":{"key":"16073","name":"Saalfeld-Rudolstadt","type":"Landkreis"},"federalState":{"key":"16","name":"Thüringen"}},{"name":"Schloßstr.","postalCode":"07407","locality":"Rudolstadt","municipality":{"key":"16073076","name":"Rudolstadt, Stadt","type":"Stadt"},"district":{"key":"16073","name":"Saalfeld-Rudolstadt","type":"Landkreis"},"federalState":{"key":"16","name":"Thüringen"}},{"name":"Schmelitz","postalCode":"07407","locality":"Rudolstadt","municipality":{"key":"16073076","name":"Rudolstadt, Stadt","type":"Stadt"},"district":{"key":"16073","name":"Saalfeld-Rudolstadt","type":"Landkreis"},"federalState":{"key":"16","name":"Thüringen"}},{"name":"Schopenhauerstr.","postalCode":"07407","locality":"Rudolstadt","municipality":{"key":"16073076","name":"Rudolstadt, Stadt","type":"Stadt"},"district":{"key":"16073","name":"Saalfeld-Rudolstadt","type":"Landkreis"},"federalState":{"key":"16","name":"Thüringen"}},{"name":"Schremscheweg","postalCode":"07407","locality":"Rudolstadt","municipality":{"key":"16073076","name":"Rudolstadt, Stadt","type":"Stadt"},"district":{"key":"16073","name":"Saalfeld-Rudolstadt","type":"Landkreis"},"federalState":{"key":"16","name":"Thüringen"}},{"name":"Schulgasse","postalCode":"07407","locality":"Rudolstadt","municipality":{"key":"16073076","name":"Rudolstadt, Stadt","type":"Stadt"},"district":{"key":"16073","name":"Saalfeld-Rudolstadt","type":"Landkreis"},"federalState":{"key":"16","name":"Thüringen"}},{"name":"Schulplatz","postalCode":"07407","locality":"Rudolstadt","municipality":{"key":"16073076","name":"Rudolstadt, Stadt","type":"Stadt"},"district":{"key":"16073","name":"Saalfeld-Rudolstadt","type":"Landkreis"},"federalState":{"key":"16","name":"Thüringen"}},{"name":"Schulstr.","postalCode":"07407","locality":"Rudolstadt","municipality":{"key":"16073076","name":"Rudolstadt, Stadt","type":"Stadt"},"district":{"key":"16073","name":"Saalfeld-Rudolstadt","type":"Landkreis"},"federalState":{"key":"16","name":"Thüringen"}},{"name":"Schwalbenweg","postalCode":"07407","locality":"Rudolstadt","municipality":{"key":"16073076","name":"Rudolstadt, Stadt","type":"Stadt"},"district":{"key":"16073","name":"Saalfeld-Rudolstadt","type":"Landkreis"},"federalState":{"key":"16","name":"Thüringen"}},{"name":"Schwarzburger Chaussee","postalCode":"07407","locality":"Rudolstadt","municipality":{"key":"16073076","name":"Rudolstadt, Stadt","type":"Stadt"},"district":{"key":"16073","name":"Saalfeld-Rudolstadt","type":"Landkreis"},"federalState":{"key":"16","name":"Thüringen"}},{"name":"Schwarzburger Str.","postalCode":"07407","locality":"Rudolstadt","municipality":{"key":"16073076","name":"Rudolstadt, Stadt","type":"Stadt"},"district":{"key":"16073","name":"Saalfeld-Rudolstadt","type":"Landkreis"},"federalState":{"key":"16","name":"Thüringen"}},{"name":"Schwarzenshofer Weg","postalCode":"07407","locality":"Rudolstadt","municipality":{"key":"16073076","name":"Rudolstadt, Stadt","type":"Stadt"},"district":{"key":"16073","name":"Saalfeld-Rudolstadt","type":"Landkreis"},"federalState":{"key":"16","name":"Thüringen"}},{"name":"Schwarzwinkel","postalCode":"07407","locality":"Rudolstadt","municipality":{"key":"16073076","name":"Rudolstadt, Stadt","type":"Stadt"},"district":{"key":"16073","name":"Saalfeld-Rudolstadt","type":"Landkreis"},"federalState":{"key":"16","name":"Thüringen"}},{"name":"Sigismundstr.","postalCode":"07407","locality":"Rudolstadt","municipality":{"key":"16073076","name":"Rudolstadt, Stadt","type":"Stadt"},"district":{"key":"16073","name":"Saalfeld-Rudolstadt","type":"Landkreis"},"federalState":{"key":"16","name":"Thüringen"}},{"name":"Spansberg","postalCode":"07407","locality":"Rudolstadt","municipality":{"key":"16073076","name":"Rudolstadt, Stadt","type":"Stadt"},"district":{"key":"16073","name":"Saalfeld-Rudolstadt","type":"Landkreis"},"federalState":{"key":"16","name":"Thüringen"}},{"name":"Spielbornbrücke","postalCode":"07407","locality":"Rudolstadt","municipality":{"key":"16073076","name":"Rudolstadt, Stadt","type":"Stadt"},"district":{"key":"16073","name":"Saalfeld-Rudolstadt","type":"Landkreis"},"federalState":{"key":"16","name":"Thüringen"}},{"name":"Spielbornstr.","postalCode":"07407","locality":"Rudolstadt","municipality":{"key":"16073076","name":"Rudolstadt, Stadt","type":"Stadt"},"district":{"key":"16073","name":"Saalfeld-Rudolstadt","type":"Landkreis"},"federalState":{"key":"16","name":"Thüringen"}},{"name":"Stadtilmer Str.","postalCode":"07407","locality":"Rudolstadt","municipality":{"key":"16073076","name":"Rudolstadt, Stadt","type":"Stadt"},"district":{"key":"16073","name":"Saalfeld-Rudolstadt","type":"Landkreis"},"federalState":{"key":"16","name":"Thüringen"}},{"name":"Stadtweg","postalCode":"07407","locality":"Rudolstadt","municipality":{"key":"16073076","name":"Rudolstadt, Stadt","type":"Stadt"},"district":{"key":"16073","name":"Saalfeld-Rudolstadt","type":"Landkreis"},"federalState":{"key":"16","name":"Thüringen"}},{"name":"Steinweg","postalCode":"07407","locality":"Rudolstadt","municipality":{"key":"16073076","name":"Rudolstadt, Stadt","type":"Stadt"},"district":{"key":"16073","name":"Saalfeld-Rudolstadt","type":"Landkreis"},"federalState":{"key":"16","name":"Thüringen"}},{"name":"Stiftsgasse","postalCode":"07407","locality":"Rudolstadt","municipality":{"key":"16073076","name":"Rudolstadt, Stadt","type":"Stadt"},"district":{"key":"16073","name":"Saalfeld-Rudolstadt","type":"Landkreis"},"federalState":{"key":"16","name":"Thüringen"}},{"name":"Sundremdaer Str.","postalCode":"07407","locality":"Rudolstadt","municipality":{"key":"16073076","name":"Rudolstadt, Stadt","type":"Stadt"},"district":{"key":"16073","name":"Saalfeld-Rudolstadt","type":"Landkreis"},"federalState":{"key":"16","name":"Thüringen"}},{"name":"Talstr.","postalCode":"07407","locality":"Rudolstadt","municipality":{"key":"16073076","name":"Rudolstadt, Stadt","type":"Stadt"},"district":{"key":"16073","name":"Saalfeld-Rudolstadt","type":"Landkreis"},"federalState":{"key":"16","name":"Thüringen"}},{"name":"Talweg","postalCode":"07407","locality":"Rudolstadt","municipality":{"key":"16073076","name":"Rudolstadt, Stadt","type":"Stadt"},"district":{"key":"16073","name":"Saalfeld-Rudolstadt","type":"Landkreis"},"federalState":{"key":"16","name":"Thüringen"}},{"name":"Tännich","postalCode":"07407","locality":"Rudolstadt","municipality":{"key":"16073076","name":"Rudolstadt, Stadt","type":"Stadt"},"district":{"key":"16073","name":"Saalfeld-Rudolstadt","type":"Landkreis"},"federalState":{"key":"16","name":"Thüringen"}},{"name":"Tännichsweg","postalCode":"07407","locality":"Rudolstadt","municipality":{"key":"16073076","name":"Rudolstadt, Stadt","type":"Stadt"},"district":{"key":"16073","name":"Saalfeld-Rudolstadt","type":"Landkreis"},"federalState":{"key":"16","name":"Thüringen"}},{"name":"Teichstr.","postalCode":"07407","locality":"Rudolstadt","municipality":{"key":"16073076","name":"Rudolstadt, Stadt","type":"Stadt"},"district":{"key":"16073","name":"Saalfeld-Rudolstadt","type":"Landkreis"},"federalState":{"key":"16","name":"Thüringen"}},{"name":"Teichweidener Str.","postalCode":"07407","locality":"Rudolstadt","municipality":{"key":"16073076","name":"Rudolstadt, Stadt","type":"Stadt"},"district":{"key":"16073","name":"Saalfeld-Rudolstadt","type":"Landkreis"},"federalState":{"key":"16","name":"Thüringen"}},{"name":"Theodor-Körner-Str.","postalCode":"07407","locality":"Rudolstadt","municipality":{"key":"16073076","name":"Rudolstadt, Stadt","type":"Stadt"},"district":{"key":"16073","name":"Saalfeld-Rudolstadt","type":"Landkreis"},"federalState":{"key":"16","name":"Thüringen"}},{"name":"Theodor-Neubauer-Str.","postalCode":"07407","locality":"Rudolstadt","municipality":{"key":"16073076","name":"Rudolstadt, Stadt","type":"Stadt"},"district":{"key":"16073","name":"Saalfeld-Rudolstadt","type":"Landkreis"},"federalState":{"key":"16","name":"Thüringen"}},{"name":"Thomas-Müntzer-Str.","postalCode":"07407","locality":"Rudolstadt","municipality":{"key":"16073076","name":"Rudolstadt, Stadt","type":"Stadt"},"district":{"key":"16073","name":"Saalfeld-Rudolstadt","type":"Landkreis"},"federalState":{"key":"16","name":"Thüringen"}},{"name":"Tiergartenstr.","postalCode":"07407","locality":"Rudolstadt","municipality":{"key":"16073076","name":"Rudolstadt, Stadt","type":"Stadt"},"district":{"key":"16073","name":"Saalfeld-Rudolstadt","type":"Landkreis"},"federalState":{"key":"16","name":"Thüringen"}},{"name":"Titaniastr.","postalCode":"07407","locality":"Rudolstadt","municipality":{"key":"16073076","name":"Rudolstadt, Stadt","type":"Stadt"},"district":{"key":"16073","name":"Saalfeld-Rudolstadt","type":"Landkreis"},"federalState":{"key":"16","name":"Thüringen"}},{"name":"Töpfergasse","postalCode":"07407","locality":"Rudolstadt","municipality":{"key":"16073076","name":"Rudolstadt, Stadt","type":"Stadt"},"district":{"key":"16073","name":"Saalfeld-Rudolstadt","type":"Landkreis"},"federalState":{"key":"16","name":"Thüringen"}},{"name":"Treppendorf","postalCode":"07407","locality":"Rudolstadt","municipality":{"key":"16073076","name":"Rudolstadt, Stadt","type":"Stadt"},"district":{"key":"16073","name":"Saalfeld-Rudolstadt","type":"Landkreis"},"federalState":{"key":"16","name":"Thüringen"}},{"name":"Trommsdorffstr.","postalCode":"07407","locality":"Rudolstadt","municipality":{"key":"16073076","name":"Rudolstadt, Stadt","type":"Stadt"},"district":{"key":"16073","name":"Saalfeld-Rudolstadt","type":"Landkreis"},"federalState":{"key":"16","name":"Thüringen"}},{"name":"Turmgasse","postalCode":"07407","locality":"Rudolstadt","municipality":{"key":"16073076","name":"Rudolstadt, Stadt","type":"Stadt"},"district":{"key":"16073","name":"Saalfeld-Rudolstadt","type":"Landkreis"},"federalState":{"key":"16","name":"Thüringen"}},{"name":"Uckelstal","postalCode":"07407","locality":"Rudolstadt","municipality":{"key":"16073076","name":"Rudolstadt, Stadt","type":"Stadt"},"district":{"key":"16073","name":"Saalfeld-Rudolstadt","type":"Landkreis"},"federalState":{"key":"16","name":"Thüringen"}},{"name":"Unterm Hain","postalCode":"07407","locality":"Rudolstadt","municipality":{"key":"16073076","name":"Rudolstadt, Stadt","type":"Stadt"},"district":{"key":"16073","name":"Saalfeld-Rudolstadt","type":"Landkreis"},"federalState":{"key":"16","name":"Thüringen"}},{"name":"Unterm Steinberg","postalCode":"07407","locality":"Rudolstadt","municipality":{"key":"16073076","name":"Rudolstadt, Stadt","type":"Stadt"},"district":{"key":"16073","name":"Saalfeld-Rudolstadt","type":"Landkreis"},"federalState":{"key":"16","name":"Thüringen"}},{"name":"Unterpreilipp","postalCode":"07407","locality":"Rudolstadt","municipality":{"key":"16073076","name":"Rudolstadt, Stadt","type":"Stadt"},"district":{"key":"16073","name":"Saalfeld-Rudolstadt","type":"Landkreis"},"federalState":{"key":"16","name":"Thüringen"}},{"name":"Viehberg","postalCode":"07407","locality":"Rudolstadt","municipality":{"key":"16073076","name":"Rudolstadt, Stadt","type":"Stadt"},"district":{"key":"16073","name":"Saalfeld-Rudolstadt","type":"Landkreis"},"federalState":{"key":"16","name":"Thüringen"}},{"name":"Vorderer Hainweg","postalCode":"07407","locality":"Rudolstadt","municipality":{"key":"16073076","name":"Rudolstadt, Stadt","type":"Stadt"},"district":{"key":"16073","name":"Saalfeld-Rudolstadt","type":"Landkreis"},"federalState":{"key":"16","name":"Thüringen"}},{"name":"Vorwerksgasse","postalCode":"07407","locality":"Rudolstadt","municipality":{"key":"16073076","name":"Rudolstadt, Stadt","type":"Stadt"},"district":{"key":"16073","name":"Saalfeld-Rudolstadt","type":"Landkreis"},"federalState":{"key":"16","name":"Thüringen"}},{"name":"Walter-Knäblein-Str.","postalCode":"07407","locality":"Rudolstadt","municipality":{"key":"16073076","name":"Rudolstadt, Stadt","type":"Stadt"},"district":{"key":"16073","name":"Saalfeld-Rudolstadt","type":"Landkreis"},"federalState":{"key":"16","name":"Thüringen"}},{"name":"Weimarische Str.","postalCode":"07407","locality":"Rudolstadt","municipality":{"key":"16073076","name":"Rudolstadt, Stadt","type":"Stadt"},"district":{"key":"16073","name":"Saalfeld-Rudolstadt","type":"Landkreis"},"federalState":{"key":"16","name":"Thüringen"}},{"name":"Weinbergstr.","postalCode":"07407","locality":"Rudolstadt","municipality":{"key":"16073076","name":"Rudolstadt, Stadt","type":"Stadt"},"district":{"key":"16073","name":"Saalfeld-Rudolstadt","type":"Landkreis"},"federalState":{"key":"16","name":"Thüringen"}},{"name":"Werner-John-Str.","postalCode":"07407","locality":"Rudolstadt","municipality":{"key":"16073076","name":"Rudolstadt, Stadt","type":"Stadt"},"district":{"key":"16073","name":"Saalfeld-Rudolstadt","type":"Landkreis"},"federalState":{"key":"16","name":"Thüringen"}},{"name":"Werner-Seelenbinder-Str.","postalCode":"07407","locality":"Rudolstadt","municipality":{"key":"16073076","name":"Rudolstadt, Stadt","type":"Stadt"},"district":{"key":"16073","name":"Saalfeld-Rudolstadt","type":"Landkreis"},"federalState":{"key":"16","name":"Thüringen"}},{"name":"Westbrücke","postalCode":"07407","locality":"Rudolstadt","municipality":{"key":"16073076","name":"Rudolstadt, Stadt","type":"Stadt"},"district":{"key":"16073","name":"Saalfeld-Rudolstadt","type":"Landkreis"},"federalState":{"key":"16","name":"Thüringen"}},{"name":"Westrampe","postalCode":"07407","locality":"Rudolstadt","municipality":{"key":"16073076","name":"Rudolstadt, Stadt","type":"Stadt"},"district":{"key":"16073","name":"Saalfeld-Rudolstadt","type":"Landkreis"},"federalState":{"key":"16","name":"Thüringen"}},{"name":"Weststr.","postalCode":"07407","locality":"Rudolstadt","municipality":{"key":"16073076","name":"Rudolstadt, Stadt","type":"Stadt"},"district":{"key":"16073","name":"Saalfeld-Rudolstadt","type":"Landkreis"},"federalState":{"key":"16","name":"Thüringen"}},{"name":"Wiednergasse","postalCode":"07407","locality":"Rudolstadt","municipality":{"key":"16073076","name":"Rudolstadt, Stadt","type":"Stadt"},"district":{"key":"16073","name":"Saalfeld-Rudolstadt","type":"Landkreis"},"federalState":{"key":"16","name":"Thüringen"}},{"name":"Wilhelm-Pieck-Str.","postalCode":"07407","locality":"Rudolstadt","municipality":{"key":"16073076","name":"Rudolstadt, Stadt","type":"Stadt"},"district":{"key":"16073","name":"Saalfeld-Rudolstadt","type":"Landkreis"},"federalState":{"key":"16","name":"Thüringen"}},{"name":"Wilhelm-Wander-Str.","postalCode":"07407","locality":"Rudolstadt","municipality":{"key":"16073076","name":"Rudolstadt, Stadt","type":"Stadt"},"district":{"key":"16073","name":"Saalfeld-Rudolstadt","type":"Landkreis"},"federalState":{"key":"16","name":"Thüringen"}},{"name":"Zeigerheimer Str.","postalCode":"07407","locality":"Rudolstadt","municipality":{"key":"16073076","name":"Rudolstadt, Stadt","type":"Stadt"},"district":{"key":"16073","name":"Saalfeld-Rudolstadt","type":"Landkreis"},"federalState":{"key":"16","name":"Thüringen"}},{"name":"Zellwollbrücke","postalCode":"07407","locality":"Rudolstadt","municipality":{"key":"16073076","name":"Rudolstadt, Stadt","type":"Stadt"},"district":{"key":"16073","name":"Saalfeld-Rudolstadt","type":"Landkreis"},"federalState":{"key":"16","name":"Thüringen"}},{"name":"Zum Heidenberg","postalCode":"07407","locality":"Rudolstadt","municipality":{"key":"16073076","name":"Rudolstadt, Stadt","type":"Stadt"},"district":{"key":"16073","name":"Saalfeld-Rudolstadt","type":"Landkreis"},"federalState":{"key":"16","name":"Thüringen"}},{"name":"Zum Kretz","postalCode":"07407","locality":"Rudolstadt","municipality":{"key":"16073076","name":"Rudolstadt, Stadt","type":"Stadt"},"district":{"key":"16073","name":"Saalfeld-Rudolstadt","type":"Landkreis"},"federalState":{"key":"16","name":"Thüringen"}},{"name":"Zum Schmelitz","postalCode":"07407","locality":"Rudolstadt","municipality":{"key":"16073076","name":"Rudolstadt, Stadt","type":"Stadt"},"district":{"key":"16073","name":"Saalfeld-Rudolstadt","type":"Landkreis"},"federalState":{"key":"16","name":"Thüringen"}},{"name":"Zum Schulhof","postalCode":"07407","locality":"Rudolstadt","municipality":{"key":"16073076","name":"Rudolstadt, Stadt","type":"Stadt"},"district":{"key":"16073","name":"Saalfeld-Rudolstadt","type":"Landkreis"},"federalState":{"key":"16","name":"Thüringen"}},{"name":"Zum Tal","postalCode":"07407","locality":"Rudolstadt","municipality":{"key":"16073076","name":"Rudolstadt, Stadt","type":"Stadt"},"district":{"key":"16073","name":"Saalfeld-Rudolstadt","type":"Landkreis"},"federalState":{"key":"16","name":"Thüringen"}},{"name":"Zum Vogelherd","postalCode":"07407","locality":"Rudolstadt","municipality":{"key":"16073076","name":"Rudolstadt, Stadt","type":"Stadt"},"district":{"key":"16073","name":"Saalfeld-Rudolstadt","type":"Landkreis"},"federalState":{"key":"16","name":"Thüringen"}},{"name":"Zur Salze","postalCode":"07407","locality":"Rudolstadt","municipality":{"key":"16073076","name":"Rudolstadt, Stadt","type":"Stadt"},"district":{"key":"16073","name":"Saalfeld-Rudolstadt","type":"Landkreis"},"federalState":{"key":"16","name":"Thüringen"}},{"name":"Zur Schlagmühle","postalCode":"07407","locality":"Rudolstadt","municipality":{"key":"16073076","name":"Rudolstadt, Stadt","type":"Stadt"},"district":{"key":"16073","name":"Saalfeld-Rudolstadt","type":"Landkreis"},"federalState":{"key":"16","name":"Thüringen"}},]