[{"name":"Am alten Sportplatz","postalCode":"99735","locality":"Kleinfurra","municipality":{"key":"16062026","name":"Kleinfurra","type":"Kreisangehörige_Gemeinde"},"district":{"key":"16062","name":"Nordhausen","type":"Landkreis"},"federalState":{"key":"16","name":"Thüringen"}},{"name":"Bachstr.","postalCode":"99735","locality":"Kleinfurra","municipality":{"key":"16062026","name":"Kleinfurra","type":"Kreisangehörige_Gemeinde"},"district":{"key":"16062","name":"Nordhausen","type":"Landkreis"},"federalState":{"key":"16","name":"Thüringen"}},{"name":"Bornufer","postalCode":"99735","locality":"Kleinfurra","municipality":{"key":"16062026","name":"Kleinfurra","type":"Kreisangehörige_Gemeinde"},"district":{"key":"16062","name":"Nordhausen","type":"Landkreis"},"federalState":{"key":"16","name":"Thüringen"}},{"name":"Carlsburger Str.","postalCode":"99734","locality":"Nordhausen","municipality":{"key":"16062041","name":"Nordhausen, Stadt","type":"Stadt"},"district":{"key":"16062","name":"Nordhausen","type":"Landkreis"},"federalState":{"key":"16","name":"Thüringen"}},{"name":"Carl-von-Ossietzky-Str.","postalCode":"99734","locality":"Nordhausen","municipality":{"key":"16062041","name":"Nordhausen, Stadt","type":"Stadt"},"district":{"key":"16062","name":"Nordhausen","type":"Landkreis"},"federalState":{"key":"16","name":"Thüringen"}},{"name":"Charleville-Mézières-Str.","postalCode":"99734","locality":"Nordhausen","municipality":{"key":"16062041","name":"Nordhausen, Stadt","type":"Stadt"},"district":{"key":"16062","name":"Nordhausen","type":"Landkreis"},"federalState":{"key":"16","name":"Thüringen"}},{"name":"Chopinstr.","postalCode":"99734","locality":"Nordhausen","municipality":{"key":"16062041","name":"Nordhausen, Stadt","type":"Stadt"},"district":{"key":"16062","name":"Nordhausen","type":"Landkreis"},"federalState":{"key":"16","name":"Thüringen"}},{"name":"Clara-Zetkin-Str.","postalCode":"99734","locality":"Nordhausen","municipality":{"key":"16062041","name":"Nordhausen, Stadt","type":"Stadt"},"district":{"key":"16062","name":"Nordhausen","type":"Landkreis"},"federalState":{"key":"16","name":"Thüringen"}},{"name":"Conrad-Fromann-Str.","postalCode":"99734","locality":"Nordhausen","municipality":{"key":"16062041","name":"Nordhausen, Stadt","type":"Stadt"},"district":{"key":"16062","name":"Nordhausen","type":"Landkreis"},"federalState":{"key":"16","name":"Thüringen"}},{"name":"Darre","postalCode":"99735","locality":"Kleinfurra","municipality":{"key":"16062026","name":"Kleinfurra","type":"Kreisangehörige_Gemeinde"},"district":{"key":"16062","name":"Nordhausen","type":"Landkreis"},"federalState":{"key":"16","name":"Thüringen"}},{"name":"Dorfgasse","postalCode":"99735","locality":"Kleinfurra","municipality":{"key":"16062026","name":"Kleinfurra","type":"Kreisangehörige_Gemeinde"},"district":{"key":"16062","name":"Nordhausen","type":"Landkreis"},"federalState":{"key":"16","name":"Thüringen"}},{"name":"Egloffsteiner Str.","postalCode":"99735","locality":"Kleinfurra","municipality":{"key":"16062026","name":"Kleinfurra","type":"Kreisangehörige_Gemeinde"},"district":{"key":"16062","name":"Nordhausen","type":"Landkreis"},"federalState":{"key":"16","name":"Thüringen"}},{"name":"Friedens Eiche","postalCode":"99735","locality":"Kleinfurra","municipality":{"key":"16062026","name":"Kleinfurra","type":"Kreisangehörige_Gemeinde"},"district":{"key":"16062","name":"Nordhausen","type":"Landkreis"},"federalState":{"key":"16","name":"Thüringen"}},{"name":"Gartenstr.","postalCode":"99734","locality":"Nordhausen","municipality":{"key":"16062041","name":"Nordhausen, Stadt","type":"Stadt"},"district":{"key":"16062","name":"Nordhausen","type":"Landkreis"},"federalState":{"key":"16","name":"Thüringen"}},{"name":"Gebrüder-Grimm-Str.","postalCode":"99734","locality":"Nordhausen","municipality":{"key":"16062041","name":"Nordhausen, Stadt","type":"Stadt"},"district":{"key":"16062","name":"Nordhausen","type":"Landkreis"},"federalState":{"key":"16","name":"Thüringen"}},{"name":"Gehege","postalCode":"99734","locality":"Nordhausen","municipality":{"key":"16062041","name":"Nordhausen, Stadt","type":"Stadt"},"district":{"key":"16062","name":"Nordhausen","type":"Landkreis"},"federalState":{"key":"16","name":"Thüringen"}},{"name":"Geiersberg","postalCode":"99734","locality":"Nordhausen","municipality":{"key":"16062041","name":"Nordhausen, Stadt","type":"Stadt"},"district":{"key":"16062","name":"Nordhausen","type":"Landkreis"},"federalState":{"key":"16","name":"Thüringen"}},{"name":"Georg-Andreas-Hanewacker-Str.","postalCode":"99734","locality":"Nordhausen","municipality":{"key":"16062041","name":"Nordhausen, Stadt","type":"Stadt"},"district":{"key":"16062","name":"Nordhausen","type":"Landkreis"},"federalState":{"key":"16","name":"Thüringen"}},{"name":"Georgengasse","postalCode":"99734","locality":"Nordhausen","municipality":{"key":"16062041","name":"Nordhausen, Stadt","type":"Stadt"},"district":{"key":"16062","name":"Nordhausen","type":"Landkreis"},"federalState":{"key":"16","name":"Thüringen"}},{"name":"Georg-Weerth-Str.","postalCode":"99734","locality":"Nordhausen","municipality":{"key":"16062041","name":"Nordhausen, Stadt","type":"Stadt"},"district":{"key":"16062","name":"Nordhausen","type":"Landkreis"},"federalState":{"key":"16","name":"Thüringen"}},{"name":"Gerhart-Hauptmann-Str.","postalCode":"99734","locality":"Nordhausen","municipality":{"key":"16062041","name":"Nordhausen, Stadt","type":"Stadt"},"district":{"key":"16062","name":"Nordhausen","type":"Landkreis"},"federalState":{"key":"16","name":"Thüringen"}},{"name":"Geschwister-Scholl-Str.","postalCode":"99734","locality":"Nordhausen","municipality":{"key":"16062041","name":"Nordhausen, Stadt","type":"Stadt"},"district":{"key":"16062","name":"Nordhausen","type":"Landkreis"},"federalState":{"key":"16","name":"Thüringen"}},{"name":"Geseniusstr.","postalCode":"99734","locality":"Nordhausen","municipality":{"key":"16062041","name":"Nordhausen, Stadt","type":"Stadt"},"district":{"key":"16062","name":"Nordhausen","type":"Landkreis"},"federalState":{"key":"16","name":"Thüringen"}},{"name":"Giekersgasse","postalCode":"99734","locality":"Nordhausen","municipality":{"key":"16062041","name":"Nordhausen, Stadt","type":"Stadt"},"district":{"key":"16062","name":"Nordhausen","type":"Landkreis"},"federalState":{"key":"16","name":"Thüringen"}},{"name":"Goetheweg","postalCode":"99734","locality":"Nordhausen","municipality":{"key":"16062041","name":"Nordhausen, Stadt","type":"Stadt"},"district":{"key":"16062","name":"Nordhausen","type":"Landkreis"},"federalState":{"key":"16","name":"Thüringen"}},{"name":"Goldäcker","postalCode":"99734","locality":"Nordhausen","municipality":{"key":"16062041","name":"Nordhausen, Stadt","type":"Stadt"},"district":{"key":"16062","name":"Nordhausen","type":"Landkreis"},"federalState":{"key":"16","name":"Thüringen"}},{"name":"Gottfried-Erich-Rosenthal-Str.","postalCode":"99734","locality":"Nordhausen","municipality":{"key":"16062041","name":"Nordhausen, Stadt","type":"Stadt"},"district":{"key":"16062","name":"Nordhausen","type":"Landkreis"},"federalState":{"key":"16","name":"Thüringen"}},{"name":"Grabenstr.","postalCode":"99734","locality":"Nordhausen","municipality":{"key":"16062041","name":"Nordhausen, Stadt","type":"Stadt"},"district":{"key":"16062","name":"Nordhausen","type":"Landkreis"},"federalState":{"key":"16","name":"Thüringen"}},{"name":"Graf-von-Stauffenberg-Str.","postalCode":"99734","locality":"Nordhausen","municipality":{"key":"16062041","name":"Nordhausen, Stadt","type":"Stadt"},"district":{"key":"16062","name":"Nordhausen","type":"Landkreis"},"federalState":{"key":"16","name":"Thüringen"}},{"name":"Grenzstr.","postalCode":"99734","locality":"Nordhausen","municipality":{"key":"16062041","name":"Nordhausen, Stadt","type":"Stadt"},"district":{"key":"16062","name":"Nordhausen","type":"Landkreis"},"federalState":{"key":"16","name":"Thüringen"}},{"name":"Grenztriftweg","postalCode":"99734","locality":"Nordhausen","municipality":{"key":"16062041","name":"Nordhausen, Stadt","type":"Stadt"},"district":{"key":"16062","name":"Nordhausen","type":"Landkreis"},"federalState":{"key":"16","name":"Thüringen"}},{"name":"Grimmel","postalCode":"99734","locality":"Nordhausen","municipality":{"key":"16062041","name":"Nordhausen, Stadt","type":"Stadt"},"district":{"key":"16062","name":"Nordhausen","type":"Landkreis"},"federalState":{"key":"16","name":"Thüringen"}},{"name":"Grimmelallee","postalCode":"99734","locality":"Nordhausen","municipality":{"key":"16062041","name":"Nordhausen, Stadt","type":"Stadt"},"district":{"key":"16062","name":"Nordhausen","type":"Landkreis"},"federalState":{"key":"16","name":"Thüringen"}},{"name":"Großwechsunger Str.","postalCode":"99734","locality":"Nordhausen","municipality":{"key":"16062041","name":"Nordhausen, Stadt","type":"Stadt"},"district":{"key":"16062","name":"Nordhausen","type":"Landkreis"},"federalState":{"key":"16","name":"Thüringen"}},{"name":"Gummel","postalCode":"99734","locality":"Nordhausen","municipality":{"key":"16062041","name":"Nordhausen, Stadt","type":"Stadt"},"district":{"key":"16062","name":"Nordhausen","type":"Landkreis"},"federalState":{"key":"16","name":"Thüringen"}},{"name":"Gumpestr.","postalCode":"99734","locality":"Nordhausen","municipality":{"key":"16062041","name":"Nordhausen, Stadt","type":"Stadt"},"district":{"key":"16062","name":"Nordhausen","type":"Landkreis"},"federalState":{"key":"16","name":"Thüringen"}},{"name":"Günzeröder Str.","postalCode":"99734","locality":"Nordhausen","municipality":{"key":"16062041","name":"Nordhausen, Stadt","type":"Stadt"},"district":{"key":"16062","name":"Nordhausen","type":"Landkreis"},"federalState":{"key":"16","name":"Thüringen"}},{"name":"Gutsweg","postalCode":"99734","locality":"Nordhausen","municipality":{"key":"16062041","name":"Nordhausen, Stadt","type":"Stadt"},"district":{"key":"16062","name":"Nordhausen","type":"Landkreis"},"federalState":{"key":"16","name":"Thüringen"}},{"name":"Hauptstr.","postalCode":"99735","locality":"Kleinfurra","municipality":{"key":"16062026","name":"Kleinfurra","type":"Kreisangehörige_Gemeinde"},"district":{"key":"16062","name":"Nordhausen","type":"Landkreis"},"federalState":{"key":"16","name":"Thüringen"}},{"name":"Hermann-Hendrich-Str.","postalCode":"99735","locality":"Kleinfurra","municipality":{"key":"16062026","name":"Kleinfurra","type":"Kreisangehörige_Gemeinde"},"district":{"key":"16062","name":"Nordhausen","type":"Landkreis"},"federalState":{"key":"16","name":"Thüringen"}},{"name":"Hummelberg","postalCode":"99735","locality":"Kleinfurra","municipality":{"key":"16062026","name":"Kleinfurra","type":"Kreisangehörige_Gemeinde"},"district":{"key":"16062","name":"Nordhausen","type":"Landkreis"},"federalState":{"key":"16","name":"Thüringen"}},{"name":"Im Klappenfeld","postalCode":"99735","locality":"Kleinfurra","municipality":{"key":"16062026","name":"Kleinfurra","type":"Kreisangehörige_Gemeinde"},"district":{"key":"16062","name":"Nordhausen","type":"Landkreis"},"federalState":{"key":"16","name":"Thüringen"}},{"name":"Jacob-Plaut-Str.","postalCode":"99734","locality":"Nordhausen","municipality":{"key":"16062041","name":"Nordhausen, Stadt","type":"Stadt"},"district":{"key":"16062","name":"Nordhausen","type":"Landkreis"},"federalState":{"key":"16","name":"Thüringen"}},{"name":"Jahnstr.","postalCode":"99734","locality":"Nordhausen","municipality":{"key":"16062041","name":"Nordhausen, Stadt","type":"Stadt"},"district":{"key":"16062","name":"Nordhausen","type":"Landkreis"},"federalState":{"key":"16","name":"Thüringen"}},{"name":"Johannes-Kleinspehn-Str.","postalCode":"99734","locality":"Nordhausen","municipality":{"key":"16062041","name":"Nordhausen, Stadt","type":"Stadt"},"district":{"key":"16062","name":"Nordhausen","type":"Landkreis"},"federalState":{"key":"16","name":"Thüringen"}},{"name":"Johannes-Thal-Str.","postalCode":"99734","locality":"Nordhausen","municipality":{"key":"16062041","name":"Nordhausen, Stadt","type":"Stadt"},"district":{"key":"16062","name":"Nordhausen","type":"Landkreis"},"federalState":{"key":"16","name":"Thüringen"}},{"name":"Johannistreppe","postalCode":"99734","locality":"Nordhausen","municipality":{"key":"16062041","name":"Nordhausen, Stadt","type":"Stadt"},"district":{"key":"16062","name":"Nordhausen","type":"Landkreis"},"federalState":{"key":"16","name":"Thüringen"}},{"name":"Johanniswall","postalCode":"99734","locality":"Nordhausen","municipality":{"key":"16062041","name":"Nordhausen, Stadt","type":"Stadt"},"district":{"key":"16062","name":"Nordhausen","type":"Landkreis"},"federalState":{"key":"16","name":"Thüringen"}},{"name":"Johann-Sebastian-Bach-Str.","postalCode":"99734","locality":"Nordhausen","municipality":{"key":"16062041","name":"Nordhausen, Stadt","type":"Stadt"},"district":{"key":"16062","name":"Nordhausen","type":"Landkreis"},"federalState":{"key":"16","name":"Thüringen"}},{"name":"Jüdenstr.","postalCode":"99734","locality":"Nordhausen","municipality":{"key":"16062041","name":"Nordhausen, Stadt","type":"Stadt"},"district":{"key":"16062","name":"Nordhausen","type":"Landkreis"},"federalState":{"key":"16","name":"Thüringen"}},{"name":"Justus-Jonas-Str.","postalCode":"99734","locality":"Nordhausen","municipality":{"key":"16062041","name":"Nordhausen, Stadt","type":"Stadt"},"district":{"key":"16062","name":"Nordhausen","type":"Landkreis"},"federalState":{"key":"16","name":"Thüringen"}},{"name":"Karl-Marx-Str.","postalCode":"99735","locality":"Kleinfurra","municipality":{"key":"16062026","name":"Kleinfurra","type":"Kreisangehörige_Gemeinde"},"district":{"key":"16062","name":"Nordhausen","type":"Landkreis"},"federalState":{"key":"16","name":"Thüringen"}},{"name":"Kirchgasse","postalCode":"99735","locality":"Kleinfurra","municipality":{"key":"16062026","name":"Kleinfurra","type":"Kreisangehörige_Gemeinde"},"district":{"key":"16062","name":"Nordhausen","type":"Landkreis"},"federalState":{"key":"16","name":"Thüringen"}},{"name":"Kirchstr.","postalCode":"99735","locality":"Kleinfurra","municipality":{"key":"16062026","name":"Kleinfurra","type":"Kreisangehörige_Gemeinde"},"district":{"key":"16062","name":"Nordhausen","type":"Landkreis"},"federalState":{"key":"16","name":"Thüringen"}},{"name":"Kittel","postalCode":"99735","locality":"Kleinfurra","municipality":{"key":"16062026","name":"Kleinfurra","type":"Kreisangehörige_Gemeinde"},"district":{"key":"16062","name":"Nordhausen","type":"Landkreis"},"federalState":{"key":"16","name":"Thüringen"}},{"name":"Kolonie","postalCode":"99735","locality":"Kleinfurra","municipality":{"key":"16062026","name":"Kleinfurra","type":"Kreisangehörige_Gemeinde"},"district":{"key":"16062","name":"Nordhausen","type":"Landkreis"},"federalState":{"key":"16","name":"Thüringen"}},{"name":"Kreisstr.","postalCode":"99735","locality":"Kleinfurra","municipality":{"key":"16062026","name":"Kleinfurra","type":"Kreisangehörige_Gemeinde"},"district":{"key":"16062","name":"Nordhausen","type":"Landkreis"},"federalState":{"key":"16","name":"Thüringen"}},{"name":"Lange Gasse","postalCode":"99735","locality":"Kleinfurra","municipality":{"key":"16062026","name":"Kleinfurra","type":"Kreisangehörige_Gemeinde"},"district":{"key":"16062","name":"Nordhausen","type":"Landkreis"},"federalState":{"key":"16","name":"Thüringen"}},{"name":"Lindenplatz","postalCode":"99735","locality":"Kleinfurra","municipality":{"key":"16062026","name":"Kleinfurra","type":"Kreisangehörige_Gemeinde"},"district":{"key":"16062","name":"Nordhausen","type":"Landkreis"},"federalState":{"key":"16","name":"Thüringen"}},{"name":"Mühlberg","postalCode":"99735","locality":"Kleinfurra","municipality":{"key":"16062026","name":"Kleinfurra","type":"Kreisangehörige_Gemeinde"},"district":{"key":"16062","name":"Nordhausen","type":"Landkreis"},"federalState":{"key":"16","name":"Thüringen"}},{"name":"Mühle","postalCode":"99735","locality":"Kleinfurra","municipality":{"key":"16062026","name":"Kleinfurra","type":"Kreisangehörige_Gemeinde"},"district":{"key":"16062","name":"Nordhausen","type":"Landkreis"},"federalState":{"key":"16","name":"Thüringen"}},{"name":"Mühlenstr.","postalCode":"99735","locality":"Kleinfurra","municipality":{"key":"16062026","name":"Kleinfurra","type":"Kreisangehörige_Gemeinde"},"district":{"key":"16062","name":"Nordhausen","type":"Landkreis"},"federalState":{"key":"16","name":"Thüringen"}},{"name":"Neusiedlerstr.","postalCode":"99735","locality":"Kleinfurra","municipality":{"key":"16062026","name":"Kleinfurra","type":"Kreisangehörige_Gemeinde"},"district":{"key":"16062","name":"Nordhausen","type":"Landkreis"},"federalState":{"key":"16","name":"Thüringen"}},{"name":"Nordhäuser Str.","postalCode":"99735","locality":"Kleinfurra","municipality":{"key":"16062026","name":"Kleinfurra","type":"Kreisangehörige_Gemeinde"},"district":{"key":"16062","name":"Nordhausen","type":"Landkreis"},"federalState":{"key":"16","name":"Thüringen"}},{"name":"Oberstr.","postalCode":"99735","locality":"Kleinfurra","municipality":{"key":"16062026","name":"Kleinfurra","type":"Kreisangehörige_Gemeinde"},"district":{"key":"16062","name":"Nordhausen","type":"Landkreis"},"federalState":{"key":"16","name":"Thüringen"}},{"name":"Pflugeisen","postalCode":"99735","locality":"Kleinfurra","municipality":{"key":"16062026","name":"Kleinfurra","type":"Kreisangehörige_Gemeinde"},"district":{"key":"16062","name":"Nordhausen","type":"Landkreis"},"federalState":{"key":"16","name":"Thüringen"}},{"name":"Plan","postalCode":"99735","locality":"Kleinfurra","municipality":{"key":"16062026","name":"Kleinfurra","type":"Kreisangehörige_Gemeinde"},"district":{"key":"16062","name":"Nordhausen","type":"Landkreis"},"federalState":{"key":"16","name":"Thüringen"}},{"name":"Querstr.","postalCode":"99734","locality":"Nordhausen","municipality":{"key":"16062041","name":"Nordhausen, Stadt","type":"Stadt"},"district":{"key":"16062","name":"Nordhausen","type":"Landkreis"},"federalState":{"key":"16","name":"Thüringen"}},{"name":"Rabenstieg","postalCode":"99734","locality":"Nordhausen","municipality":{"key":"16062041","name":"Nordhausen, Stadt","type":"Stadt"},"district":{"key":"16062","name":"Nordhausen","type":"Landkreis"},"federalState":{"key":"16","name":"Thüringen"}},{"name":"Rathsfelder Str.","postalCode":"99734","locality":"Nordhausen","municipality":{"key":"16062041","name":"Nordhausen, Stadt","type":"Stadt"},"district":{"key":"16062","name":"Nordhausen","type":"Landkreis"},"federalState":{"key":"16","name":"Thüringen"}},{"name":"Rautenstr.","postalCode":"99734","locality":"Nordhausen","municipality":{"key":"16062041","name":"Nordhausen, Stadt","type":"Stadt"},"district":{"key":"16062","name":"Nordhausen","type":"Landkreis"},"federalState":{"key":"16","name":"Thüringen"}},{"name":"Rechtes Hosenbein","postalCode":"99734","locality":"Nordhausen","municipality":{"key":"16062041","name":"Nordhausen, Stadt","type":"Stadt"},"district":{"key":"16062","name":"Nordhausen","type":"Landkreis"},"federalState":{"key":"16","name":"Thüringen"}},{"name":"Reichsstr.","postalCode":"99734","locality":"Nordhausen","municipality":{"key":"16062041","name":"Nordhausen, Stadt","type":"Stadt"},"district":{"key":"16062","name":"Nordhausen","type":"Landkreis"},"federalState":{"key":"16","name":"Thüringen"}},{"name":"Ricarda-Huch-Str.","postalCode":"99734","locality":"Nordhausen","municipality":{"key":"16062041","name":"Nordhausen, Stadt","type":"Stadt"},"district":{"key":"16062","name":"Nordhausen","type":"Landkreis"},"federalState":{"key":"16","name":"Thüringen"}},{"name":"Richard-Dehmel-Str.","postalCode":"99734","locality":"Nordhausen","municipality":{"key":"16062041","name":"Nordhausen, Stadt","type":"Stadt"},"district":{"key":"16062","name":"Nordhausen","type":"Landkreis"},"federalState":{"key":"16","name":"Thüringen"}},{"name":"Richard-Wagner-Str.","postalCode":"99734","locality":"Nordhausen","municipality":{"key":"16062041","name":"Nordhausen, Stadt","type":"Stadt"},"district":{"key":"16062","name":"Nordhausen","type":"Landkreis"},"federalState":{"key":"16","name":"Thüringen"}},{"name":"Riedgasse","postalCode":"99734","locality":"Nordhausen","municipality":{"key":"16062041","name":"Nordhausen, Stadt","type":"Stadt"},"district":{"key":"16062","name":"Nordhausen","type":"Landkreis"},"federalState":{"key":"16","name":"Thüringen"}},{"name":"Riedgraben","postalCode":"99734","locality":"Nordhausen","municipality":{"key":"16062041","name":"Nordhausen, Stadt","type":"Stadt"},"district":{"key":"16062","name":"Nordhausen","type":"Landkreis"},"federalState":{"key":"16","name":"Thüringen"}},{"name":"Riesleber Str.","postalCode":"99734","locality":"Nordhausen","municipality":{"key":"16062041","name":"Nordhausen, Stadt","type":"Stadt"},"district":{"key":"16062","name":"Nordhausen","type":"Landkreis"},"federalState":{"key":"16","name":"Thüringen"}},{"name":"Ringstr.","postalCode":"99734","locality":"Nordhausen","municipality":{"key":"16062041","name":"Nordhausen, Stadt","type":"Stadt"},"district":{"key":"16062","name":"Nordhausen","type":"Landkreis"},"federalState":{"key":"16","name":"Thüringen"}},{"name":"Rinnestr.","postalCode":"99734","locality":"Nordhausen","municipality":{"key":"16062041","name":"Nordhausen, Stadt","type":"Stadt"},"district":{"key":"16062","name":"Nordhausen","type":"Landkreis"},"federalState":{"key":"16","name":"Thüringen"}},{"name":"Rodegasse","postalCode":"99734","locality":"Nordhausen","municipality":{"key":"16062041","name":"Nordhausen, Stadt","type":"Stadt"},"district":{"key":"16062","name":"Nordhausen","type":"Landkreis"},"federalState":{"key":"16","name":"Thüringen"}},{"name":"Rodishainer Weg","postalCode":"99734","locality":"Nordhausen","municipality":{"key":"16062041","name":"Nordhausen, Stadt","type":"Stadt"},"district":{"key":"16062","name":"Nordhausen","type":"Landkreis"},"federalState":{"key":"16","name":"Thüringen"}},{"name":"Rolandstr.","postalCode":"99734","locality":"Nordhausen","municipality":{"key":"16062041","name":"Nordhausen, Stadt","type":"Stadt"},"district":{"key":"16062","name":"Nordhausen","type":"Landkreis"},"federalState":{"key":"16","name":"Thüringen"}},{"name":"Rolandsweg","postalCode":"99734","locality":"Nordhausen","municipality":{"key":"16062041","name":"Nordhausen, Stadt","type":"Stadt"},"district":{"key":"16062","name":"Nordhausen","type":"Landkreis"},"federalState":{"key":"16","name":"Thüringen"}},{"name":"Ronneberg","postalCode":"99734","locality":"Nordhausen","municipality":{"key":"16062041","name":"Nordhausen, Stadt","type":"Stadt"},"district":{"key":"16062","name":"Nordhausen","type":"Landkreis"},"federalState":{"key":"16","name":"Thüringen"}},{"name":"Rosa-Luxemburg-Str.","postalCode":"99734","locality":"Nordhausen","municipality":{"key":"16062041","name":"Nordhausen, Stadt","type":"Stadt"},"district":{"key":"16062","name":"Nordhausen","type":"Landkreis"},"federalState":{"key":"16","name":"Thüringen"}},{"name":"Rosenberg","postalCode":"99734","locality":"Nordhausen","municipality":{"key":"16062041","name":"Nordhausen, Stadt","type":"Stadt"},"district":{"key":"16062","name":"Nordhausen","type":"Landkreis"},"federalState":{"key":"16","name":"Thüringen"}},{"name":"Rosengarten","postalCode":"99734","locality":"Nordhausen","municipality":{"key":"16062041","name":"Nordhausen, Stadt","type":"Stadt"},"district":{"key":"16062","name":"Nordhausen","type":"Landkreis"},"federalState":{"key":"16","name":"Thüringen"}},{"name":"Rosengasse","postalCode":"99734","locality":"Nordhausen","municipality":{"key":"16062041","name":"Nordhausen, Stadt","type":"Stadt"},"district":{"key":"16062","name":"Nordhausen","type":"Landkreis"},"federalState":{"key":"16","name":"Thüringen"}},{"name":"Rosenstr.","postalCode":"99734","locality":"Nordhausen","municipality":{"key":"16062041","name":"Nordhausen, Stadt","type":"Stadt"},"district":{"key":"16062","name":"Nordhausen","type":"Landkreis"},"federalState":{"key":"16","name":"Thüringen"}},{"name":"Rosenweg","postalCode":"99734","locality":"Nordhausen","municipality":{"key":"16062041","name":"Nordhausen, Stadt","type":"Stadt"},"district":{"key":"16062","name":"Nordhausen","type":"Landkreis"},"federalState":{"key":"16","name":"Thüringen"}},{"name":"Rothenburgstr.","postalCode":"99734","locality":"Nordhausen","municipality":{"key":"16062041","name":"Nordhausen, Stadt","type":"Stadt"},"district":{"key":"16062","name":"Nordhausen","type":"Landkreis"},"federalState":{"key":"16","name":"Thüringen"}},{"name":"Rückertstr.","postalCode":"99734","locality":"Nordhausen","municipality":{"key":"16062041","name":"Nordhausen, Stadt","type":"Stadt"},"district":{"key":"16062","name":"Nordhausen","type":"Landkreis"},"federalState":{"key":"16","name":"Thüringen"}},{"name":"Rüdigsdorfer Str.","postalCode":"99734","locality":"Nordhausen","municipality":{"key":"16062041","name":"Nordhausen, Stadt","type":"Stadt"},"district":{"key":"16062","name":"Nordhausen","type":"Landkreis"},"federalState":{"key":"16","name":"Thüringen"}},{"name":"Rüdigsdorfer Weg","postalCode":"99734","locality":"Nordhausen","municipality":{"key":"16062041","name":"Nordhausen, Stadt","type":"Stadt"},"district":{"key":"16062","name":"Nordhausen","type":"Landkreis"},"federalState":{"key":"16","name":"Thüringen"}},{"name":"Rudolf-Breitscheid-Str.","postalCode":"99734","locality":"Nordhausen","municipality":{"key":"16062041","name":"Nordhausen, Stadt","type":"Stadt"},"district":{"key":"16062","name":"Nordhausen","type":"Landkreis"},"federalState":{"key":"16","name":"Thüringen"}},{"name":"Rudolf-Diesel-Str.","postalCode":"99734","locality":"Nordhausen","municipality":{"key":"16062041","name":"Nordhausen, Stadt","type":"Stadt"},"district":{"key":"16062","name":"Nordhausen","type":"Landkreis"},"federalState":{"key":"16","name":"Thüringen"}},{"name":"Rudolf-Leonhard-Str.","postalCode":"99734","locality":"Nordhausen","municipality":{"key":"16062041","name":"Nordhausen, Stadt","type":"Stadt"},"district":{"key":"16062","name":"Nordhausen","type":"Landkreis"},"federalState":{"key":"16","name":"Thüringen"}},{"name":"Sandweg","postalCode":"99735","locality":"Kleinfurra","municipality":{"key":"16062026","name":"Kleinfurra","type":"Kreisangehörige_Gemeinde"},"district":{"key":"16062","name":"Nordhausen","type":"Landkreis"},"federalState":{"key":"16","name":"Thüringen"}},{"name":"Schachtweg","postalCode":"99735","locality":"Kleinfurra","municipality":{"key":"16062026","name":"Kleinfurra","type":"Kreisangehörige_Gemeinde"},"district":{"key":"16062","name":"Nordhausen","type":"Landkreis"},"federalState":{"key":"16","name":"Thüringen"}},{"name":"Schellenberg","postalCode":"99735","locality":"Kleinfurra","municipality":{"key":"16062026","name":"Kleinfurra","type":"Kreisangehörige_Gemeinde"},"district":{"key":"16062","name":"Nordhausen","type":"Landkreis"},"federalState":{"key":"16","name":"Thüringen"}},{"name":"Schleifweg","postalCode":"99735","locality":"Kleinfurra","municipality":{"key":"16062026","name":"Kleinfurra","type":"Kreisangehörige_Gemeinde"},"district":{"key":"16062","name":"Nordhausen","type":"Landkreis"},"federalState":{"key":"16","name":"Thüringen"}},{"name":"Schulstr.","postalCode":"99735","locality":"Kleinfurra","municipality":{"key":"16062026","name":"Kleinfurra","type":"Kreisangehörige_Gemeinde"},"district":{"key":"16062","name":"Nordhausen","type":"Landkreis"},"federalState":{"key":"16","name":"Thüringen"}},{"name":"Siedlung","postalCode":"99735","locality":"Kleinfurra","municipality":{"key":"16062026","name":"Kleinfurra","type":"Kreisangehörige_Gemeinde"},"district":{"key":"16062","name":"Nordhausen","type":"Landkreis"},"federalState":{"key":"16","name":"Thüringen"}},{"name":"Steinweg","postalCode":"99735","locality":"Kleinfurra","municipality":{"key":"16062026","name":"Kleinfurra","type":"Kreisangehörige_Gemeinde"},"district":{"key":"16062","name":"Nordhausen","type":"Landkreis"},"federalState":{"key":"16","name":"Thüringen"}},{"name":"Str. der Jugend","postalCode":"99735","locality":"Kleinfurra","municipality":{"key":"16062026","name":"Kleinfurra","type":"Kreisangehörige_Gemeinde"},"district":{"key":"16062","name":"Nordhausen","type":"Landkreis"},"federalState":{"key":"16","name":"Thüringen"}},{"name":"Teich","postalCode":"99735","locality":"Kleinfurra","municipality":{"key":"16062026","name":"Kleinfurra","type":"Kreisangehörige_Gemeinde"},"district":{"key":"16062","name":"Nordhausen","type":"Landkreis"},"federalState":{"key":"16","name":"Thüringen"}},{"name":"Turmfeldstr.","postalCode":"99735","locality":"Kleinfurra","municipality":{"key":"16062026","name":"Kleinfurra","type":"Kreisangehörige_Gemeinde"},"district":{"key":"16062","name":"Nordhausen","type":"Landkreis"},"federalState":{"key":"16","name":"Thüringen"}},{"name":"Unterstr.","postalCode":"99735","locality":"Kleinfurra","municipality":{"key":"16062026","name":"Kleinfurra","type":"Kreisangehörige_Gemeinde"},"district":{"key":"16062","name":"Nordhausen","type":"Landkreis"},"federalState":{"key":"16","name":"Thüringen"}},{"name":"Van-der-Foehr-Damm","postalCode":"99734","locality":"Nordhausen","municipality":{"key":"16062041","name":"Nordhausen, Stadt","type":"Stadt"},"district":{"key":"16062","name":"Nordhausen","type":"Landkreis"},"federalState":{"key":"16","name":"Thüringen"}},{"name":"Veilchengasse","postalCode":"99734","locality":"Nordhausen","municipality":{"key":"16062041","name":"Nordhausen, Stadt","type":"Stadt"},"district":{"key":"16062","name":"Nordhausen","type":"Landkreis"},"federalState":{"key":"16","name":"Thüringen"}},{"name":"Verlobungsweg","postalCode":"99734","locality":"Nordhausen","municipality":{"key":"16062041","name":"Nordhausen, Stadt","type":"Stadt"},"district":{"key":"16062","name":"Nordhausen","type":"Landkreis"},"federalState":{"key":"16","name":"Thüringen"}},{"name":"Vogelherd","postalCode":"99734","locality":"Nordhausen","municipality":{"key":"16062041","name":"Nordhausen, Stadt","type":"Stadt"},"district":{"key":"16062","name":"Nordhausen","type":"Landkreis"},"federalState":{"key":"16","name":"Thüringen"}},{"name":"Vor dem Brommelsberg","postalCode":"99734","locality":"Nordhausen","municipality":{"key":"16062041","name":"Nordhausen, Stadt","type":"Stadt"},"district":{"key":"16062","name":"Nordhausen","type":"Landkreis"},"federalState":{"key":"16","name":"Thüringen"}},{"name":"Vor dem Dorf","postalCode":"99734","locality":"Nordhausen","municipality":{"key":"16062041","name":"Nordhausen, Stadt","type":"Stadt"},"district":{"key":"16062","name":"Nordhausen","type":"Landkreis"},"federalState":{"key":"16","name":"Thüringen"}},{"name":"Vor dem Hagentor","postalCode":"99734","locality":"Nordhausen","municipality":{"key":"16062041","name":"Nordhausen, Stadt","type":"Stadt"},"district":{"key":"16062","name":"Nordhausen","type":"Landkreis"},"federalState":{"key":"16","name":"Thüringen"}},{"name":"Vor dem Hammer","postalCode":"99734","locality":"Nordhausen","municipality":{"key":"16062041","name":"Nordhausen, Stadt","type":"Stadt"},"district":{"key":"16062","name":"Nordhausen","type":"Landkreis"},"federalState":{"key":"16","name":"Thüringen"}},{"name":"Vor dem Mühlentor","postalCode":"99734","locality":"Nordhausen","municipality":{"key":"16062041","name":"Nordhausen, Stadt","type":"Stadt"},"district":{"key":"16062","name":"Nordhausen","type":"Landkreis"},"federalState":{"key":"16","name":"Thüringen"}},{"name":"Vor dem Vogel","postalCode":"99734","locality":"Nordhausen","municipality":{"key":"16062041","name":"Nordhausen, Stadt","type":"Stadt"},"district":{"key":"16062","name":"Nordhausen","type":"Landkreis"},"federalState":{"key":"16","name":"Thüringen"}},{"name":"Vorwerk","postalCode":"99734","locality":"Nordhausen","municipality":{"key":"16062041","name":"Nordhausen, Stadt","type":"Stadt"},"district":{"key":"16062","name":"Nordhausen","type":"Landkreis"},"federalState":{"key":"16","name":"Thüringen"}},{"name":"Wiesenweg","postalCode":"99735","locality":"Kleinfurra","municipality":{"key":"16062026","name":"Kleinfurra","type":"Kreisangehörige_Gemeinde"},"district":{"key":"16062","name":"Nordhausen","type":"Landkreis"},"federalState":{"key":"16","name":"Thüringen"}},{"name":"Yorckstr.","postalCode":"99734","locality":"Nordhausen","municipality":{"key":"16062041","name":"Nordhausen, Stadt","type":"Stadt"},"district":{"key":"16062","name":"Nordhausen","type":"Landkreis"},"federalState":{"key":"16","name":"Thüringen"}},{"name":"Zeppelinweg","postalCode":"99734","locality":"Nordhausen","municipality":{"key":"16062041","name":"Nordhausen, Stadt","type":"Stadt"},"district":{"key":"16062","name":"Nordhausen","type":"Landkreis"},"federalState":{"key":"16","name":"Thüringen"}},{"name":"Zorgelandstr.","postalCode":"99734","locality":"Nordhausen","municipality":{"key":"16062041","name":"Nordhausen, Stadt","type":"Stadt"},"district":{"key":"16062","name":"Nordhausen","type":"Landkreis"},"federalState":{"key":"16","name":"Thüringen"}},{"name":"Zorgestr.","postalCode":"99734","locality":"Nordhausen","municipality":{"key":"16062041","name":"Nordhausen, Stadt","type":"Stadt"},"district":{"key":"16062","name":"Nordhausen","type":"Landkreis"},"federalState":{"key":"16","name":"Thüringen"}},{"name":"Zuckerweg","postalCode":"99734","locality":"Nordhausen","municipality":{"key":"16062041","name":"Nordhausen, Stadt","type":"Stadt"},"district":{"key":"16062","name":"Nordhausen","type":"Landkreis"},"federalState":{"key":"16","name":"Thüringen"}},{"name":"Zu den Glockensteinen","postalCode":"99734","locality":"Nordhausen","municipality":{"key":"16062041","name":"Nordhausen, Stadt","type":"Stadt"},"district":{"key":"16062","name":"Nordhausen","type":"Landkreis"},"federalState":{"key":"16","name":"Thüringen"}},{"name":"Zu den Steinkreuzen","postalCode":"99734","locality":"Nordhausen","municipality":{"key":"16062041","name":"Nordhausen, Stadt","type":"Stadt"},"district":{"key":"16062","name":"Nordhausen","type":"Landkreis"},"federalState":{"key":"16","name":"Thüringen"}},{"name":"Zum alten Sportplatz","postalCode":"99195","locality":"Riethnordhausen","municipality":{"key":"16068044","name":"Riethnordhausen","type":"Kreisangehörige_Gemeinde"},"district":{"key":"16068","name":"Sömmerda","type":"Landkreis"},"federalState":{"key":"16","name":"Thüringen"}},{"name":"Zum Alten Stolberg","postalCode":"99734","locality":"Nordhausen","municipality":{"key":"16062041","name":"Nordhausen, Stadt","type":"Stadt"},"district":{"key":"16062","name":"Nordhausen","type":"Landkreis"},"federalState":{"key":"16","name":"Thüringen"}},{"name":"Zum Eichenforst","postalCode":"99734","locality":"Nordhausen","municipality":{"key":"16062041","name":"Nordhausen, Stadt","type":"Stadt"},"district":{"key":"16062","name":"Nordhausen","type":"Landkreis"},"federalState":{"key":"16","name":"Thüringen"}},{"name":"Zum Felde","postalCode":"99734","locality":"Nordhausen","municipality":{"key":"16062041","name":"Nordhausen, Stadt","type":"Stadt"},"district":{"key":"16062","name":"Nordhausen","type":"Landkreis"},"federalState":{"key":"16","name":"Thüringen"}},{"name":"Zum Gumpetal","postalCode":"99734","locality":"Nordhausen","municipality":{"key":"16062041","name":"Nordhausen, Stadt","type":"Stadt"},"district":{"key":"16062","name":"Nordhausen","type":"Landkreis"},"federalState":{"key":"16","name":"Thüringen"}},{"name":"Zum Käsperschen Grund","postalCode":"99734","locality":"Nordhausen","municipality":{"key":"16062041","name":"Nordhausen, Stadt","type":"Stadt"},"district":{"key":"16062","name":"Nordhausen","type":"Landkreis"},"federalState":{"key":"16","name":"Thüringen"}},{"name":"Zum Kromberg","postalCode":"99734","locality":"Nordhausen","municipality":{"key":"16062041","name":"Nordhausen, Stadt","type":"Stadt"},"district":{"key":"16062","name":"Nordhausen","type":"Landkreis"},"federalState":{"key":"16","name":"Thüringen"}},{"name":"Zum Mäusetal","postalCode":"99734","locality":"Nordhausen","municipality":{"key":"16062041","name":"Nordhausen, Stadt","type":"Stadt"},"district":{"key":"16062","name":"Nordhausen","type":"Landkreis"},"federalState":{"key":"16","name":"Thüringen"}},{"name":"Zum Rittertal","postalCode":"99734","locality":"Nordhausen","municipality":{"key":"16062041","name":"Nordhausen, Stadt","type":"Stadt"},"district":{"key":"16062","name":"Nordhausen","type":"Landkreis"},"federalState":{"key":"16","name":"Thüringen"}},{"name":"Zum Sattelkopf","postalCode":"99734","locality":"Nordhausen","municipality":{"key":"16062041","name":"Nordhausen, Stadt","type":"Stadt"},"district":{"key":"16062","name":"Nordhausen","type":"Landkreis"},"federalState":{"key":"16","name":"Thüringen"}},{"name":"Zum Schmiedetor","postalCode":"99734","locality":"Nordhausen","municipality":{"key":"16062041","name":"Nordhausen, Stadt","type":"Stadt"},"district":{"key":"16062","name":"Nordhausen","type":"Landkreis"},"federalState":{"key":"16","name":"Thüringen"}},{"name":"Zum Schützenhaus","postalCode":"99734","locality":"Nordhausen","municipality":{"key":"16062041","name":"Nordhausen, Stadt","type":"Stadt"},"district":{"key":"16062","name":"Nordhausen","type":"Landkreis"},"federalState":{"key":"16","name":"Thüringen"}},{"name":"Zum Siegen","postalCode":"99734","locality":"Nordhausen","municipality":{"key":"16062041","name":"Nordhausen, Stadt","type":"Stadt"},"district":{"key":"16062","name":"Nordhausen","type":"Landkreis"},"federalState":{"key":"16","name":"Thüringen"}},{"name":"Zum Stadtberg","postalCode":"99734","locality":"Nordhausen","municipality":{"key":"16062041","name":"Nordhausen, Stadt","type":"Stadt"},"district":{"key":"16062","name":"Nordhausen","type":"Landkreis"},"federalState":{"key":"16","name":"Thüringen"}},{"name":"Zum Stöckerberg","postalCode":"99734","locality":"Nordhausen","municipality":{"key":"16062041","name":"Nordhausen, Stadt","type":"Stadt"},"district":{"key":"16062","name":"Nordhausen","type":"Landkreis"},"federalState":{"key":"16","name":"Thüringen"}},{"name":"Zum Wolfental","postalCode":"99734","locality":"Nordhausen","municipality":{"key":"16062041","name":"Nordhausen, Stadt","type":"Stadt"},"district":{"key":"16062","name":"Nordhausen","type":"Landkreis"},"federalState":{"key":"16","name":"Thüringen"}},{"name":"Zum Ziegental","postalCode":"99734","locality":"Nordhausen","municipality":{"key":"16062041","name":"Nordhausen, Stadt","type":"Stadt"},"district":{"key":"16062","name":"Nordhausen","type":"Landkreis"},"federalState":{"key":"16","name":"Thüringen"}},{"name":"Zur Eiche","postalCode":"99734","locality":"Nordhausen","municipality":{"key":"16062041","name":"Nordhausen, Stadt","type":"Stadt"},"district":{"key":"16062","name":"Nordhausen","type":"Landkreis"},"federalState":{"key":"16","name":"Thüringen"}},{"name":"Zur Obermühle","postalCode":"99195","locality":"Riethnordhausen","municipality":{"key":"16068044","name":"Riethnordhausen","type":"Kreisangehörige_Gemeinde"},"district":{"key":"16068","name":"Sömmerda","type":"Landkreis"},"federalState":{"key":"16","name":"Thüringen"}},{"name":"Zur Schönen Aussicht","postalCode":"99734","locality":"Nordhausen","municipality":{"key":"16062041","name":"Nordhausen, Stadt","type":"Stadt"},"district":{"key":"16062","name":"Nordhausen","type":"Landkreis"},"federalState":{"key":"16","name":"Thüringen"}},{"name":"Zur Wolfsmühle","postalCode":"99734","locality":"Nordhausen","municipality":{"key":"16062041","name":"Nordhausen, Stadt","type":"Stadt"},"district":{"key":"16062","name":"Nordhausen","type":"Landkreis"},"federalState":{"key":"16","name":"Thüringen"}},]