[{"name":"Am Anger","postalCode":"94149","locality":"Kößlarn","municipality":{"key":"09275131","name":"Kößlarn, M","type":"Markt"},"district":{"key":"09275","name":"Passau","type":"Landkreis"},"federalState":{"key":"09","name":"Bayern"}},{"name":"Am Burgerfeld","postalCode":"94149","locality":"Kößlarn","municipality":{"key":"09275131","name":"Kößlarn, M","type":"Markt"},"district":{"key":"09275","name":"Passau","type":"Landkreis"},"federalState":{"key":"09","name":"Bayern"}},{"name":"Am Vogelberg","postalCode":"94149","locality":"Kößlarn","municipality":{"key":"09275131","name":"Kößlarn, M","type":"Markt"},"district":{"key":"09275","name":"Passau","type":"Landkreis"},"federalState":{"key":"09","name":"Bayern"}},{"name":"Anzengruberstr.","postalCode":"94149","locality":"Kößlarn","municipality":{"key":"09275131","name":"Kößlarn, M","type":"Markt"},"district":{"key":"09275","name":"Passau","type":"Landkreis"},"federalState":{"key":"09","name":"Bayern"}},{"name":"Asenhamer Str.","postalCode":"94149","locality":"Kößlarn","municipality":{"key":"09275131","name":"Kößlarn, M","type":"Markt"},"district":{"key":"09275","name":"Passau","type":"Landkreis"},"federalState":{"key":"09","name":"Bayern"}},{"name":"Bachweg","postalCode":"94149","locality":"Kößlarn","municipality":{"key":"09275131","name":"Kößlarn, M","type":"Markt"},"district":{"key":"09275","name":"Passau","type":"Landkreis"},"federalState":{"key":"09","name":"Bayern"}},{"name":"Burgstall","postalCode":"94149","locality":"Kößlarn","municipality":{"key":"09275131","name":"Kößlarn, M","type":"Markt"},"district":{"key":"09275","name":"Passau","type":"Landkreis"},"federalState":{"key":"09","name":"Bayern"}},{"name":"Carlonegasse","postalCode":"94032","locality":"Passau","municipality":{"key":"09262000","name":"Passau","type":"Kreisfreie_Stadt"},"district":{"key":"09262","name":"Passau","type":"Kreisfreie_Stadt"},"federalState":{"key":"09","name":"Bayern"}},{"name":"Carossastr.","postalCode":"94036","locality":"Passau","municipality":{"key":"09262000","name":"Passau","type":"Kreisfreie_Stadt"},"district":{"key":"09262","name":"Passau","type":"Kreisfreie_Stadt"},"federalState":{"key":"09","name":"Bayern"}},{"name":"Christdobl","postalCode":"94034","locality":"Passau","municipality":{"key":"09262000","name":"Passau","type":"Kreisfreie_Stadt"},"district":{"key":"09262","name":"Passau","type":"Kreisfreie_Stadt"},"federalState":{"key":"09","name":"Bayern"}},{"name":"Danglöd","postalCode":"94149","locality":"Kößlarn","municipality":{"key":"09275131","name":"Kößlarn, M","type":"Markt"},"district":{"key":"09275","name":"Passau","type":"Landkreis"},"federalState":{"key":"09","name":"Bayern"}},{"name":"Danglöder Weg","postalCode":"94149","locality":"Kößlarn","municipality":{"key":"09275131","name":"Kößlarn, M","type":"Markt"},"district":{"key":"09275","name":"Passau","type":"Landkreis"},"federalState":{"key":"09","name":"Bayern"}},{"name":"Eduard-Hamm-Str.","postalCode":"94036","locality":"Passau","municipality":{"key":"09262000","name":"Passau","type":"Kreisfreie_Stadt"},"district":{"key":"09262","name":"Passau","type":"Kreisfreie_Stadt"},"federalState":{"key":"09","name":"Bayern"}},{"name":"Eduard-Poschinger-Weg","postalCode":"94036","locality":"Passau","municipality":{"key":"09262000","name":"Passau","type":"Kreisfreie_Stadt"},"district":{"key":"09262","name":"Passau","type":"Kreisfreie_Stadt"},"federalState":{"key":"09","name":"Bayern"}},{"name":"ehemaliges Schneider-Bad","postalCode":"94034","locality":"Passau","municipality":{"key":"09262000","name":"Passau","type":"Kreisfreie_Stadt"},"district":{"key":"09262","name":"Passau","type":"Kreisfreie_Stadt"},"federalState":{"key":"09","name":"Bayern"}},{"name":"Eichendorffstr.","postalCode":"94036","locality":"Passau","municipality":{"key":"09262000","name":"Passau","type":"Kreisfreie_Stadt"},"district":{"key":"09262","name":"Passau","type":"Kreisfreie_Stadt"},"federalState":{"key":"09","name":"Bayern"}},{"name":"Eichenhain","postalCode":"94036","locality":"Passau","municipality":{"key":"09262000","name":"Passau","type":"Kreisfreie_Stadt"},"district":{"key":"09262","name":"Passau","type":"Kreisfreie_Stadt"},"federalState":{"key":"09","name":"Bayern"}},{"name":"Eichetstr.","postalCode":"94036","locality":"Passau","municipality":{"key":"09262000","name":"Passau","type":"Kreisfreie_Stadt"},"district":{"key":"09262","name":"Passau","type":"Kreisfreie_Stadt"},"federalState":{"key":"09","name":"Bayern"}},{"name":"Einbüglweg","postalCode":"94036","locality":"Passau","municipality":{"key":"09262000","name":"Passau","type":"Kreisfreie_Stadt"},"district":{"key":"09262","name":"Passau","type":"Kreisfreie_Stadt"},"federalState":{"key":"09","name":"Bayern"}},{"name":"Einöder Str.","postalCode":"94036","locality":"Passau","municipality":{"key":"09262000","name":"Passau","type":"Kreisfreie_Stadt"},"district":{"key":"09262","name":"Passau","type":"Kreisfreie_Stadt"},"federalState":{"key":"09","name":"Bayern"}},{"name":"Eisenbirner Str.","postalCode":"94032","locality":"Passau","municipality":{"key":"09262000","name":"Passau","type":"Kreisfreie_Stadt"},"district":{"key":"09262","name":"Passau","type":"Kreisfreie_Stadt"},"federalState":{"key":"09","name":"Bayern"}},{"name":"Elise-Langesee-Weg","postalCode":"94036","locality":"Passau","municipality":{"key":"09262000","name":"Passau","type":"Kreisfreie_Stadt"},"district":{"key":"09262","name":"Passau","type":"Kreisfreie_Stadt"},"federalState":{"key":"09","name":"Bayern"}},{"name":"Emerenz-Meier-Str.","postalCode":"94036","locality":"Passau","municipality":{"key":"09262000","name":"Passau","type":"Kreisfreie_Stadt"},"district":{"key":"09262","name":"Passau","type":"Kreisfreie_Stadt"},"federalState":{"key":"09","name":"Bayern"}},{"name":"Englmeierstr.","postalCode":"94034","locality":"Passau","municipality":{"key":"09262000","name":"Passau","type":"Kreisfreie_Stadt"},"district":{"key":"09262","name":"Passau","type":"Kreisfreie_Stadt"},"federalState":{"key":"09","name":"Bayern"}},{"name":"Entenpark","postalCode":"94032","locality":"Passau","municipality":{"key":"09262000","name":"Passau","type":"Kreisfreie_Stadt"},"district":{"key":"09262","name":"Passau","type":"Kreisfreie_Stadt"},"federalState":{"key":"09","name":"Bayern"}},{"name":"Eppaner Str.","postalCode":"94036","locality":"Passau","municipality":{"key":"09262000","name":"Passau","type":"Kreisfreie_Stadt"},"district":{"key":"09262","name":"Passau","type":"Kreisfreie_Stadt"},"federalState":{"key":"09","name":"Bayern"}},{"name":"Erdbrüst","postalCode":"94034","locality":"Passau","municipality":{"key":"09262000","name":"Passau","type":"Kreisfreie_Stadt"},"district":{"key":"09262","name":"Passau","type":"Kreisfreie_Stadt"},"federalState":{"key":"09","name":"Bayern"}},{"name":"Erhardstr.","postalCode":"94032","locality":"Passau","municipality":{"key":"09262000","name":"Passau","type":"Kreisfreie_Stadt"},"district":{"key":"09262","name":"Passau","type":"Kreisfreie_Stadt"},"federalState":{"key":"09","name":"Bayern"}},{"name":"Erna-Schützenberger-Str.","postalCode":"94036","locality":"Passau","municipality":{"key":"09262000","name":"Passau","type":"Kreisfreie_Stadt"},"district":{"key":"09262","name":"Passau","type":"Kreisfreie_Stadt"},"federalState":{"key":"09","name":"Bayern"}},{"name":"Esplanade","postalCode":"94034","locality":"Passau","municipality":{"key":"09262000","name":"Passau","type":"Kreisfreie_Stadt"},"district":{"key":"09262","name":"Passau","type":"Kreisfreie_Stadt"},"federalState":{"key":"09","name":"Bayern"}},{"name":"Fabrikstr.","postalCode":"94036","locality":"Passau","municipality":{"key":"09262000","name":"Passau","type":"Kreisfreie_Stadt"},"district":{"key":"09262","name":"Passau","type":"Kreisfreie_Stadt"},"federalState":{"key":"09","name":"Bayern"}},{"name":"Fährweg","postalCode":"94034","locality":"Passau","municipality":{"key":"09262000","name":"Passau","type":"Kreisfreie_Stadt"},"district":{"key":"09262","name":"Passau","type":"Kreisfreie_Stadt"},"federalState":{"key":"09","name":"Bayern"}},{"name":"Falkensteinstr.","postalCode":"94034","locality":"Passau","municipality":{"key":"09262000","name":"Passau","type":"Kreisfreie_Stadt"},"district":{"key":"09262","name":"Passau","type":"Kreisfreie_Stadt"},"federalState":{"key":"09","name":"Bayern"}},{"name":"Fattinger Str.","postalCode":"94034","locality":"Passau","municipality":{"key":"09262000","name":"Passau","type":"Kreisfreie_Stadt"},"district":{"key":"09262","name":"Passau","type":"Kreisfreie_Stadt"},"federalState":{"key":"09","name":"Bayern"}},{"name":"Feldweg","postalCode":"94036","locality":"Passau","municipality":{"key":"09262000","name":"Passau","type":"Kreisfreie_Stadt"},"district":{"key":"09262","name":"Passau","type":"Kreisfreie_Stadt"},"federalState":{"key":"09","name":"Bayern"}},{"name":"Ferdinand-Wagner-Str.","postalCode":"94034","locality":"Passau","municipality":{"key":"09262000","name":"Passau","type":"Kreisfreie_Stadt"},"district":{"key":"09262","name":"Passau","type":"Kreisfreie_Stadt"},"federalState":{"key":"09","name":"Bayern"}},{"name":"FIM-Wiese","postalCode":"94032","locality":"Passau","municipality":{"key":"09262000","name":"Passau","type":"Kreisfreie_Stadt"},"district":{"key":"09262","name":"Passau","type":"Kreisfreie_Stadt"},"federalState":{"key":"09","name":"Bayern"}},{"name":"Finkenstr.","postalCode":"94036","locality":"Passau","municipality":{"key":"09262000","name":"Passau","type":"Kreisfreie_Stadt"},"district":{"key":"09262","name":"Passau","type":"Kreisfreie_Stadt"},"federalState":{"key":"09","name":"Bayern"}},{"name":"Firmiangut","postalCode":"94034","locality":"Passau","municipality":{"key":"09262000","name":"Passau","type":"Kreisfreie_Stadt"},"district":{"key":"09262","name":"Passau","type":"Kreisfreie_Stadt"},"federalState":{"key":"09","name":"Bayern"}},{"name":"Firmianstr.","postalCode":"94032","locality":"Passau","municipality":{"key":"09262000","name":"Passau","type":"Kreisfreie_Stadt"},"district":{"key":"09262","name":"Passau","type":"Kreisfreie_Stadt"},"federalState":{"key":"09","name":"Bayern"}},{"name":"Fischergäßchen","postalCode":"94032","locality":"Passau","municipality":{"key":"09262000","name":"Passau","type":"Kreisfreie_Stadt"},"district":{"key":"09262","name":"Passau","type":"Kreisfreie_Stadt"},"federalState":{"key":"09","name":"Bayern"}},{"name":"Fischerstr.","postalCode":"94036","locality":"Passau","municipality":{"key":"09262000","name":"Passau","type":"Kreisfreie_Stadt"},"district":{"key":"09262","name":"Passau","type":"Kreisfreie_Stadt"},"federalState":{"key":"09","name":"Bayern"}},{"name":"Fliederweg","postalCode":"94036","locality":"Passau","municipality":{"key":"09262000","name":"Passau","type":"Kreisfreie_Stadt"},"district":{"key":"09262","name":"Passau","type":"Kreisfreie_Stadt"},"federalState":{"key":"09","name":"Bayern"}},{"name":"Flieherweg","postalCode":"94036","locality":"Passau","municipality":{"key":"09262000","name":"Passau","type":"Kreisfreie_Stadt"},"district":{"key":"09262","name":"Passau","type":"Kreisfreie_Stadt"},"federalState":{"key":"09","name":"Bayern"}},{"name":"Florianstr.","postalCode":"94034","locality":"Passau","municipality":{"key":"09262000","name":"Passau","type":"Kreisfreie_Stadt"},"district":{"key":"09262","name":"Passau","type":"Kreisfreie_Stadt"},"federalState":{"key":"09","name":"Bayern"}},{"name":"Forchheimerstr.","postalCode":"94034","locality":"Passau","municipality":{"key":"09262000","name":"Passau","type":"Kreisfreie_Stadt"},"district":{"key":"09262","name":"Passau","type":"Kreisfreie_Stadt"},"federalState":{"key":"09","name":"Bayern"}},{"name":"Franz-Josef-Strauß-Brücke","postalCode":"94034","locality":"Passau","municipality":{"key":"09262000","name":"Passau","type":"Kreisfreie_Stadt"},"district":{"key":"09262","name":"Passau","type":"Kreisfreie_Stadt"},"federalState":{"key":"09","name":"Bayern"}},{"name":"Franz-Josef-Strauß-Brücke","postalCode":"94036","locality":"Passau","municipality":{"key":"09262000","name":"Passau","type":"Kreisfreie_Stadt"},"district":{"key":"09262","name":"Passau","type":"Kreisfreie_Stadt"},"federalState":{"key":"09","name":"Bayern"}},{"name":"Franz-Josef-Streibl-Str.","postalCode":"94034","locality":"Passau","municipality":{"key":"09262000","name":"Passau","type":"Kreisfreie_Stadt"},"district":{"key":"09262","name":"Passau","type":"Kreisfreie_Stadt"},"federalState":{"key":"09","name":"Bayern"}},{"name":"Franz-Mader-Str.","postalCode":"94036","locality":"Passau","municipality":{"key":"09262000","name":"Passau","type":"Kreisfreie_Stadt"},"district":{"key":"09262","name":"Passau","type":"Kreisfreie_Stadt"},"federalState":{"key":"09","name":"Bayern"}},{"name":"Franz-Stockbauer-Weg","postalCode":"94032","locality":"Passau","municipality":{"key":"09262000","name":"Passau","type":"Kreisfreie_Stadt"},"district":{"key":"09262","name":"Passau","type":"Kreisfreie_Stadt"},"federalState":{"key":"09","name":"Bayern"}},{"name":"Franz-Str.r-Str.","postalCode":"94036","locality":"Passau","municipality":{"key":"09262000","name":"Passau","type":"Kreisfreie_Stadt"},"district":{"key":"09262","name":"Passau","type":"Kreisfreie_Stadt"},"federalState":{"key":"09","name":"Bayern"}},{"name":"Franz-Wandl-Str.","postalCode":"94034","locality":"Passau","municipality":{"key":"09262000","name":"Passau","type":"Kreisfreie_Stadt"},"district":{"key":"09262","name":"Passau","type":"Kreisfreie_Stadt"},"federalState":{"key":"09","name":"Bayern"}},{"name":"Franz-Wimmer-Str.","postalCode":"94036","locality":"Passau","municipality":{"key":"09262000","name":"Passau","type":"Kreisfreie_Stadt"},"district":{"key":"09262","name":"Passau","type":"Kreisfreie_Stadt"},"federalState":{"key":"09","name":"Bayern"}},{"name":"Franz-Xaver-Kurländer-Str.","postalCode":"94036","locality":"Passau","municipality":{"key":"09262000","name":"Passau","type":"Kreisfreie_Stadt"},"district":{"key":"09262","name":"Passau","type":"Kreisfreie_Stadt"},"federalState":{"key":"09","name":"Bayern"}},{"name":"Frauengasse","postalCode":"94032","locality":"Passau","municipality":{"key":"09262000","name":"Passau","type":"Kreisfreie_Stadt"},"district":{"key":"09262","name":"Passau","type":"Kreisfreie_Stadt"},"federalState":{"key":"09","name":"Bayern"}},{"name":"Fraunhoferstr.","postalCode":"94036","locality":"Passau","municipality":{"key":"09262000","name":"Passau","type":"Kreisfreie_Stadt"},"district":{"key":"09262","name":"Passau","type":"Kreisfreie_Stadt"},"federalState":{"key":"09","name":"Bayern"}},{"name":"Freinberger Str.","postalCode":"94032","locality":"Passau","municipality":{"key":"09262000","name":"Passau","type":"Kreisfreie_Stadt"},"district":{"key":"09262","name":"Passau","type":"Kreisfreie_Stadt"},"federalState":{"key":"09","name":"Bayern"}},{"name":"Freudenhain","postalCode":"94034","locality":"Passau","municipality":{"key":"09262000","name":"Passau","type":"Kreisfreie_Stadt"},"district":{"key":"09262","name":"Passau","type":"Kreisfreie_Stadt"},"federalState":{"key":"09","name":"Bayern"}},{"name":"Freyunger Str.","postalCode":"94034","locality":"Passau","municipality":{"key":"09262000","name":"Passau","type":"Kreisfreie_Stadt"},"district":{"key":"09262","name":"Passau","type":"Kreisfreie_Stadt"},"federalState":{"key":"09","name":"Bayern"}},{"name":"Fritz-Schäffer-Promenade","postalCode":"94032","locality":"Passau","municipality":{"key":"09262000","name":"Passau","type":"Kreisfreie_Stadt"},"district":{"key":"09262","name":"Passau","type":"Kreisfreie_Stadt"},"federalState":{"key":"09","name":"Bayern"}},{"name":"Frühlingstr.","postalCode":"94032","locality":"Passau","municipality":{"key":"09262000","name":"Passau","type":"Kreisfreie_Stadt"},"district":{"key":"09262","name":"Passau","type":"Kreisfreie_Stadt"},"federalState":{"key":"09","name":"Bayern"}},{"name":"Fuchsbauerweg","postalCode":"94036","locality":"Passau","municipality":{"key":"09262000","name":"Passau","type":"Kreisfreie_Stadt"},"district":{"key":"09262","name":"Passau","type":"Kreisfreie_Stadt"},"federalState":{"key":"09","name":"Bayern"}},{"name":"Fuchsengassl","postalCode":"94032","locality":"Passau","municipality":{"key":"09262000","name":"Passau","type":"Kreisfreie_Stadt"},"district":{"key":"09262","name":"Passau","type":"Kreisfreie_Stadt"},"federalState":{"key":"09","name":"Bayern"}},{"name":"Fürstenweg","postalCode":"94034","locality":"Passau","municipality":{"key":"09262000","name":"Passau","type":"Kreisfreie_Stadt"},"district":{"key":"09262","name":"Passau","type":"Kreisfreie_Stadt"},"federalState":{"key":"09","name":"Bayern"}},{"name":"Fürstenzeller Str.","postalCode":"94036","locality":"Passau","municipality":{"key":"09262000","name":"Passau","type":"Kreisfreie_Stadt"},"district":{"key":"09262","name":"Passau","type":"Kreisfreie_Stadt"},"federalState":{"key":"09","name":"Bayern"}},{"name":"Fußgängerunterführung","postalCode":"94034","locality":"Passau","municipality":{"key":"09262000","name":"Passau","type":"Kreisfreie_Stadt"},"district":{"key":"09262","name":"Passau","type":"Kreisfreie_Stadt"},"federalState":{"key":"09","name":"Bayern"}},{"name":"Ganghofer Str.","postalCode":"94149","locality":"Kößlarn","municipality":{"key":"09275131","name":"Kößlarn, M","type":"Markt"},"district":{"key":"09275","name":"Passau","type":"Landkreis"},"federalState":{"key":"09","name":"Bayern"}},{"name":"Hans-Carossa-Str.","postalCode":"94149","locality":"Kößlarn","municipality":{"key":"09275131","name":"Kößlarn, M","type":"Markt"},"district":{"key":"09275","name":"Passau","type":"Landkreis"},"federalState":{"key":"09","name":"Bayern"}},{"name":"Hans-Nagl-Str.","postalCode":"94149","locality":"Kößlarn","municipality":{"key":"09275131","name":"Kößlarn, M","type":"Markt"},"district":{"key":"09275","name":"Passau","type":"Landkreis"},"federalState":{"key":"09","name":"Bayern"}},{"name":"Herzog-Georg-Str.","postalCode":"94149","locality":"Kößlarn","municipality":{"key":"09275131","name":"Kößlarn, M","type":"Markt"},"district":{"key":"09275","name":"Passau","type":"Landkreis"},"federalState":{"key":"09","name":"Bayern"}},{"name":"Hofreither Str.","postalCode":"94149","locality":"Kößlarn","municipality":{"key":"09275131","name":"Kößlarn, M","type":"Markt"},"district":{"key":"09275","name":"Passau","type":"Landkreis"},"federalState":{"key":"09","name":"Bayern"}},{"name":"Ilzbrücke","postalCode":"94034","locality":"Passau","municipality":{"key":"09262000","name":"Passau","type":"Kreisfreie_Stadt"},"district":{"key":"09262","name":"Passau","type":"Kreisfreie_Stadt"},"federalState":{"key":"09","name":"Bayern"}},{"name":"Ilzleite","postalCode":"94034","locality":"Passau","municipality":{"key":"09262000","name":"Passau","type":"Kreisfreie_Stadt"},"district":{"key":"09262","name":"Passau","type":"Kreisfreie_Stadt"},"federalState":{"key":"09","name":"Bayern"}},{"name":"Ilztalwanderweg","postalCode":"94034","locality":"Passau","municipality":{"key":"09262000","name":"Passau","type":"Kreisfreie_Stadt"},"district":{"key":"09262","name":"Passau","type":"Kreisfreie_Stadt"},"federalState":{"key":"09","name":"Bayern"}},{"name":"Innbrückgasse","postalCode":"94032","locality":"Passau","municipality":{"key":"09262000","name":"Passau","type":"Kreisfreie_Stadt"},"district":{"key":"09262","name":"Passau","type":"Kreisfreie_Stadt"},"federalState":{"key":"09","name":"Bayern"}},{"name":"Innkai","postalCode":"94032","locality":"Passau","municipality":{"key":"09262000","name":"Passau","type":"Kreisfreie_Stadt"},"district":{"key":"09262","name":"Passau","type":"Kreisfreie_Stadt"},"federalState":{"key":"09","name":"Bayern"}},{"name":"Innpromenade","postalCode":"94032","locality":"Passau","municipality":{"key":"09262000","name":"Passau","type":"Kreisfreie_Stadt"},"district":{"key":"09262","name":"Passau","type":"Kreisfreie_Stadt"},"federalState":{"key":"09","name":"Bayern"}},{"name":"Innsteg","postalCode":"94032","locality":"Passau","municipality":{"key":"09262000","name":"Passau","type":"Kreisfreie_Stadt"},"district":{"key":"09262","name":"Passau","type":"Kreisfreie_Stadt"},"federalState":{"key":"09","name":"Bayern"}},{"name":"Innstr.","postalCode":"94032","locality":"Passau","municipality":{"key":"09262000","name":"Passau","type":"Kreisfreie_Stadt"},"district":{"key":"09262","name":"Passau","type":"Kreisfreie_Stadt"},"federalState":{"key":"09","name":"Bayern"}},{"name":"Innstr.","postalCode":"94036","locality":"Passau","municipality":{"key":"09262000","name":"Passau","type":"Kreisfreie_Stadt"},"district":{"key":"09262","name":"Passau","type":"Kreisfreie_Stadt"},"federalState":{"key":"09","name":"Bayern"}},{"name":"Innwiese","postalCode":"94032","locality":"Passau","municipality":{"key":"09262000","name":"Passau","type":"Kreisfreie_Stadt"},"district":{"key":"09262","name":"Passau","type":"Kreisfreie_Stadt"},"federalState":{"key":"09","name":"Bayern"}},{"name":"Joseph-Deutschmann-Str.","postalCode":"94149","locality":"Kößlarn","municipality":{"key":"09275131","name":"Kößlarn, M","type":"Markt"},"district":{"key":"09275","name":"Passau","type":"Landkreis"},"federalState":{"key":"09","name":"Bayern"}},{"name":"Kellerweg","postalCode":"94149","locality":"Kößlarn","municipality":{"key":"09275131","name":"Kößlarn, M","type":"Markt"},"district":{"key":"09275","name":"Passau","type":"Landkreis"},"federalState":{"key":"09","name":"Bayern"}},{"name":"Kesselbauer Str.","postalCode":"94149","locality":"Kößlarn","municipality":{"key":"09275131","name":"Kößlarn, M","type":"Markt"},"district":{"key":"09275","name":"Passau","type":"Landkreis"},"federalState":{"key":"09","name":"Bayern"}},{"name":"Kreuzweg","postalCode":"94149","locality":"Kößlarn","municipality":{"key":"09275131","name":"Kößlarn, M","type":"Markt"},"district":{"key":"09275","name":"Passau","type":"Landkreis"},"federalState":{"key":"09","name":"Bayern"}},{"name":"Ludwig-Thoma-Str.","postalCode":"94149","locality":"Kößlarn","municipality":{"key":"09275131","name":"Kößlarn, M","type":"Markt"},"district":{"key":"09275","name":"Passau","type":"Landkreis"},"federalState":{"key":"09","name":"Bayern"}},{"name":"Malgertsham","postalCode":"94149","locality":"Kößlarn","municipality":{"key":"09275131","name":"Kößlarn, M","type":"Markt"},"district":{"key":"09275","name":"Passau","type":"Landkreis"},"federalState":{"key":"09","name":"Bayern"}},{"name":"Marktplatz","postalCode":"94149","locality":"Kößlarn","municipality":{"key":"09275131","name":"Kößlarn, M","type":"Markt"},"district":{"key":"09275","name":"Passau","type":"Landkreis"},"federalState":{"key":"09","name":"Bayern"}},{"name":"Michal-Jörg-Str.","postalCode":"94149","locality":"Kößlarn","municipality":{"key":"09275131","name":"Kößlarn, M","type":"Markt"},"district":{"key":"09275","name":"Passau","type":"Landkreis"},"federalState":{"key":"09","name":"Bayern"}},{"name":"Modlerstr.","postalCode":"94149","locality":"Kößlarn","municipality":{"key":"09275131","name":"Kößlarn, M","type":"Markt"},"district":{"key":"09275","name":"Passau","type":"Landkreis"},"federalState":{"key":"09","name":"Bayern"}},{"name":"Münchhamer Str.","postalCode":"94149","locality":"Kößlarn","municipality":{"key":"09275131","name":"Kößlarn, M","type":"Markt"},"district":{"key":"09275","name":"Passau","type":"Landkreis"},"federalState":{"key":"09","name":"Bayern"}},{"name":"Nagelschmiedgasse","postalCode":"94032","locality":"Passau","municipality":{"key":"09262000","name":"Passau","type":"Kreisfreie_Stadt"},"district":{"key":"09262","name":"Passau","type":"Kreisfreie_Stadt"},"federalState":{"key":"09","name":"Bayern"}},{"name":"Nelkenstr.","postalCode":"94034","locality":"Passau","municipality":{"key":"09262000","name":"Passau","type":"Kreisfreie_Stadt"},"district":{"key":"09262","name":"Passau","type":"Kreisfreie_Stadt"},"federalState":{"key":"09","name":"Bayern"}},{"name":"Netzerstr.","postalCode":"94036","locality":"Passau","municipality":{"key":"09262000","name":"Passau","type":"Kreisfreie_Stadt"},"district":{"key":"09262","name":"Passau","type":"Kreisfreie_Stadt"},"federalState":{"key":"09","name":"Bayern"}},{"name":"Neuburger Str.","postalCode":"94032","locality":"Passau","municipality":{"key":"09262000","name":"Passau","type":"Kreisfreie_Stadt"},"district":{"key":"09262","name":"Passau","type":"Kreisfreie_Stadt"},"federalState":{"key":"09","name":"Bayern"}},{"name":"Neuburger Str.","postalCode":"94036","locality":"Passau","municipality":{"key":"09262000","name":"Passau","type":"Kreisfreie_Stadt"},"district":{"key":"09262","name":"Passau","type":"Kreisfreie_Stadt"},"federalState":{"key":"09","name":"Bayern"}},{"name":"Neue Rieser Str.","postalCode":"94034","locality":"Passau","municipality":{"key":"09262000","name":"Passau","type":"Kreisfreie_Stadt"},"district":{"key":"09262","name":"Passau","type":"Kreisfreie_Stadt"},"federalState":{"key":"09","name":"Bayern"}},{"name":"Neue Schulbergstr.","postalCode":"94034","locality":"Passau","municipality":{"key":"09262000","name":"Passau","type":"Kreisfreie_Stadt"},"district":{"key":"09262","name":"Passau","type":"Kreisfreie_Stadt"},"federalState":{"key":"09","name":"Bayern"}},{"name":"Neureut","postalCode":"94034","locality":"Passau","municipality":{"key":"09262000","name":"Passau","type":"Kreisfreie_Stadt"},"district":{"key":"09262","name":"Passau","type":"Kreisfreie_Stadt"},"federalState":{"key":"09","name":"Bayern"}},{"name":"Neustift","postalCode":"94036","locality":"Passau","municipality":{"key":"09262000","name":"Passau","type":"Kreisfreie_Stadt"},"district":{"key":"09262","name":"Passau","type":"Kreisfreie_Stadt"},"federalState":{"key":"09","name":"Bayern"}},{"name":"Neustifter Str.","postalCode":"94036","locality":"Passau","municipality":{"key":"09262000","name":"Passau","type":"Kreisfreie_Stadt"},"district":{"key":"09262","name":"Passau","type":"Kreisfreie_Stadt"},"federalState":{"key":"09","name":"Bayern"}},{"name":"Neutorgraben","postalCode":"94032","locality":"Passau","municipality":{"key":"09262000","name":"Passau","type":"Kreisfreie_Stadt"},"district":{"key":"09262","name":"Passau","type":"Kreisfreie_Stadt"},"federalState":{"key":"09","name":"Bayern"}},{"name":"Nibelungenstr.","postalCode":"94032","locality":"Passau","municipality":{"key":"09262000","name":"Passau","type":"Kreisfreie_Stadt"},"district":{"key":"09262","name":"Passau","type":"Kreisfreie_Stadt"},"federalState":{"key":"09","name":"Bayern"}},{"name":"Niederharter Str.","postalCode":"94034","locality":"Passau","municipality":{"key":"09262000","name":"Passau","type":"Kreisfreie_Stadt"},"district":{"key":"09262","name":"Passau","type":"Kreisfreie_Stadt"},"federalState":{"key":"09","name":"Bayern"}},{"name":"Niedersatzbach","postalCode":"94034","locality":"Passau","municipality":{"key":"09262000","name":"Passau","type":"Kreisfreie_Stadt"},"district":{"key":"09262","name":"Passau","type":"Kreisfreie_Stadt"},"federalState":{"key":"09","name":"Bayern"}},{"name":"Nikolastr.","postalCode":"94032","locality":"Passau","municipality":{"key":"09262000","name":"Passau","type":"Kreisfreie_Stadt"},"district":{"key":"09262","name":"Passau","type":"Kreisfreie_Stadt"},"federalState":{"key":"09","name":"Bayern"}},{"name":"Oberer Markt","postalCode":"94149","locality":"Kößlarn","municipality":{"key":"09275131","name":"Kößlarn, M","type":"Markt"},"district":{"key":"09275","name":"Passau","type":"Landkreis"},"federalState":{"key":"09","name":"Bayern"}},{"name":"Oberwesterbach","postalCode":"94149","locality":"Kößlarn","municipality":{"key":"09275131","name":"Kößlarn, M","type":"Markt"},"district":{"key":"09275","name":"Passau","type":"Landkreis"},"federalState":{"key":"09","name":"Bayern"}},{"name":"Pater-Kolb-Weg","postalCode":"94149","locality":"Kößlarn","municipality":{"key":"09275131","name":"Kößlarn, M","type":"Markt"},"district":{"key":"09275","name":"Passau","type":"Landkreis"},"federalState":{"key":"09","name":"Bayern"}},{"name":"Paul-Vogl-Str.","postalCode":"94149","locality":"Kößlarn","municipality":{"key":"09275131","name":"Kößlarn, M","type":"Markt"},"district":{"key":"09275","name":"Passau","type":"Landkreis"},"federalState":{"key":"09","name":"Bayern"}},{"name":"Peter-Rosegger-Str.","postalCode":"94149","locality":"Kößlarn","municipality":{"key":"09275131","name":"Kößlarn, M","type":"Markt"},"district":{"key":"09275","name":"Passau","type":"Landkreis"},"federalState":{"key":"09","name":"Bayern"}},{"name":"Pfarrer-Nömeier-Weg","postalCode":"94149","locality":"Kößlarn","municipality":{"key":"09275131","name":"Kößlarn, M","type":"Markt"},"district":{"key":"09275","name":"Passau","type":"Landkreis"},"federalState":{"key":"09","name":"Bayern"}},{"name":"Pimmerling","postalCode":"94149","locality":"Kößlarn","municipality":{"key":"09275131","name":"Kößlarn, M","type":"Markt"},"district":{"key":"09275","name":"Passau","type":"Landkreis"},"federalState":{"key":"09","name":"Bayern"}},{"name":"Quellenweg","postalCode":"94036","locality":"Passau","municipality":{"key":"09262000","name":"Passau","type":"Kreisfreie_Stadt"},"district":{"key":"09262","name":"Passau","type":"Kreisfreie_Stadt"},"federalState":{"key":"09","name":"Bayern"}},{"name":"Ragern","postalCode":"94149","locality":"Kößlarn","municipality":{"key":"09275131","name":"Kößlarn, M","type":"Markt"},"district":{"key":"09275","name":"Passau","type":"Landkreis"},"federalState":{"key":"09","name":"Bayern"}},{"name":"Sallingergasse","postalCode":"94149","locality":"Kößlarn","municipality":{"key":"09275131","name":"Kößlarn, M","type":"Markt"},"district":{"key":"09275","name":"Passau","type":"Landkreis"},"federalState":{"key":"09","name":"Bayern"}},{"name":"Schulstr.","postalCode":"94149","locality":"Kößlarn","municipality":{"key":"09275131","name":"Kößlarn, M","type":"Markt"},"district":{"key":"09275","name":"Passau","type":"Landkreis"},"federalState":{"key":"09","name":"Bayern"}},{"name":"Thanham","postalCode":"94149","locality":"Kößlarn","municipality":{"key":"09275131","name":"Kößlarn, M","type":"Markt"},"district":{"key":"09275","name":"Passau","type":"Landkreis"},"federalState":{"key":"09","name":"Bayern"}},{"name":"Thanhamer Str.","postalCode":"94149","locality":"Kößlarn","municipality":{"key":"09275131","name":"Kößlarn, M","type":"Markt"},"district":{"key":"09275","name":"Passau","type":"Landkreis"},"federalState":{"key":"09","name":"Bayern"}},{"name":"Thomas-Stöber-Str.","postalCode":"94149","locality":"Kößlarn","municipality":{"key":"09275131","name":"Kößlarn, M","type":"Markt"},"district":{"key":"09275","name":"Passau","type":"Landkreis"},"federalState":{"key":"09","name":"Bayern"}},{"name":"Trifterner Str.","postalCode":"94149","locality":"Kößlarn","municipality":{"key":"09275131","name":"Kößlarn, M","type":"Markt"},"district":{"key":"09275","name":"Passau","type":"Landkreis"},"federalState":{"key":"09","name":"Bayern"}},{"name":"Unterer Markt","postalCode":"94149","locality":"Kößlarn","municipality":{"key":"09275131","name":"Kößlarn, M","type":"Markt"},"district":{"key":"09275","name":"Passau","type":"Landkreis"},"federalState":{"key":"09","name":"Bayern"}},{"name":"Vikar-Golling-Str.","postalCode":"94149","locality":"Kößlarn","municipality":{"key":"09275131","name":"Kößlarn, M","type":"Markt"},"district":{"key":"09275","name":"Passau","type":"Landkreis"},"federalState":{"key":"09","name":"Bayern"}},{"name":"Waldstr.","postalCode":"94149","locality":"Kößlarn","municipality":{"key":"09275131","name":"Kößlarn, M","type":"Markt"},"district":{"key":"09275","name":"Passau","type":"Landkreis"},"federalState":{"key":"09","name":"Bayern"}},{"name":"Waltenbergerstr.","postalCode":"94149","locality":"Kößlarn","municipality":{"key":"09275131","name":"Kößlarn, M","type":"Markt"},"district":{"key":"09275","name":"Passau","type":"Landkreis"},"federalState":{"key":"09","name":"Bayern"}},{"name":"Wenzel-Jorhan-Str.","postalCode":"94149","locality":"Kößlarn","municipality":{"key":"09275131","name":"Kößlarn, M","type":"Markt"},"district":{"key":"09275","name":"Passau","type":"Landkreis"},"federalState":{"key":"09","name":"Bayern"}},{"name":"Wilhelm-Diess-Str.","postalCode":"94149","locality":"Kößlarn","municipality":{"key":"09275131","name":"Kößlarn, M","type":"Markt"},"district":{"key":"09275","name":"Passau","type":"Landkreis"},"federalState":{"key":"09","name":"Bayern"}},{"name":"Wolfgang-Marius-Str.","postalCode":"94149","locality":"Kößlarn","municipality":{"key":"09275131","name":"Kößlarn, M","type":"Markt"},"district":{"key":"09275","name":"Passau","type":"Landkreis"},"federalState":{"key":"09","name":"Bayern"}},{"name":"Zeilbergweg","postalCode":"94036","locality":"Passau","municipality":{"key":"09262000","name":"Passau","type":"Kreisfreie_Stadt"},"district":{"key":"09262","name":"Passau","type":"Kreisfreie_Stadt"},"federalState":{"key":"09","name":"Bayern"}},{"name":"Zengergasse","postalCode":"94032","locality":"Passau","municipality":{"key":"09262000","name":"Passau","type":"Kreisfreie_Stadt"},"district":{"key":"09262","name":"Passau","type":"Kreisfreie_Stadt"},"federalState":{"key":"09","name":"Bayern"}},{"name":"Zieglreuth","postalCode":"94034","locality":"Passau","municipality":{"key":"09262000","name":"Passau","type":"Kreisfreie_Stadt"},"district":{"key":"09262","name":"Passau","type":"Kreisfreie_Stadt"},"federalState":{"key":"09","name":"Bayern"}},{"name":"Zieglstadl","postalCode":"94034","locality":"Passau","municipality":{"key":"09262000","name":"Passau","type":"Kreisfreie_Stadt"},"district":{"key":"09262","name":"Passau","type":"Kreisfreie_Stadt"},"federalState":{"key":"09","name":"Bayern"}},{"name":"Zinngießergasse","postalCode":"94032","locality":"Passau","municipality":{"key":"09262000","name":"Passau","type":"Kreisfreie_Stadt"},"district":{"key":"09262","name":"Passau","type":"Kreisfreie_Stadt"},"federalState":{"key":"09","name":"Bayern"}},{"name":"Zufahrt St.-Severin-Schule","postalCode":"94034","locality":"Passau","municipality":{"key":"09262000","name":"Passau","type":"Kreisfreie_Stadt"},"district":{"key":"09262","name":"Passau","type":"Kreisfreie_Stadt"},"federalState":{"key":"09","name":"Bayern"}},{"name":"Zugang zur Kirche","postalCode":"94034","locality":"Passau","municipality":{"key":"09262000","name":"Passau","type":"Kreisfreie_Stadt"},"district":{"key":"09262","name":"Passau","type":"Kreisfreie_Stadt"},"federalState":{"key":"09","name":"Bayern"}},{"name":"Zwinger","postalCode":"94032","locality":"Passau","municipality":{"key":"09262000","name":"Passau","type":"Kreisfreie_Stadt"},"district":{"key":"09262","name":"Passau","type":"Kreisfreie_Stadt"},"federalState":{"key":"09","name":"Bayern"}},{"name":"Äußere Spitalhofstr.","postalCode":"94036","locality":"Passau","municipality":{"key":"09262000","name":"Passau","type":"Kreisfreie_Stadt"},"district":{"key":"09262","name":"Passau","type":"Kreisfreie_Stadt"},"federalState":{"key":"09","name":"Bayern"}},]