[{"name":"Alte Schulstr.","postalCode":"54472","locality":"Gornhausen","municipality":{"key":"07231040","name":"Gornhausen","type":"Kreisangehörige_Gemeinde"},"district":{"key":"07231","name":"Bernkastel-Wittlich","type":"Landkreis"},"federalState":{"key":"07","name":"Rheinland-Pfalz"}},{"name":"Am Berg","postalCode":"54472","locality":"Gornhausen","municipality":{"key":"07231040","name":"Gornhausen","type":"Kreisangehörige_Gemeinde"},"district":{"key":"07231","name":"Bernkastel-Wittlich","type":"Landkreis"},"federalState":{"key":"07","name":"Rheinland-Pfalz"}},{"name":"Am Mühlenrech","postalCode":"54472","locality":"Gornhausen","municipality":{"key":"07231040","name":"Gornhausen","type":"Kreisangehörige_Gemeinde"},"district":{"key":"07231","name":"Bernkastel-Wittlich","type":"Landkreis"},"federalState":{"key":"07","name":"Rheinland-Pfalz"}},{"name":"Am Rück","postalCode":"54472","locality":"Gornhausen","municipality":{"key":"07231040","name":"Gornhausen","type":"Kreisangehörige_Gemeinde"},"district":{"key":"07231","name":"Bernkastel-Wittlich","type":"Landkreis"},"federalState":{"key":"07","name":"Rheinland-Pfalz"}},{"name":"Borgasse","postalCode":"54472","locality":"Gornhausen","municipality":{"key":"07231040","name":"Gornhausen","type":"Kreisangehörige_Gemeinde"},"district":{"key":"07231","name":"Bernkastel-Wittlich","type":"Landkreis"},"federalState":{"key":"07","name":"Rheinland-Pfalz"}},{"name":"Hauptstr.","postalCode":"54472","locality":"Gornhausen","municipality":{"key":"07231040","name":"Gornhausen","type":"Kreisangehörige_Gemeinde"},"district":{"key":"07231","name":"Bernkastel-Wittlich","type":"Landkreis"},"federalState":{"key":"07","name":"Rheinland-Pfalz"}},{"name":"Im Leienpfad","postalCode":"54472","locality":"Gornhausen","municipality":{"key":"07231040","name":"Gornhausen","type":"Kreisangehörige_Gemeinde"},"district":{"key":"07231","name":"Bernkastel-Wittlich","type":"Landkreis"},"federalState":{"key":"07","name":"Rheinland-Pfalz"}},{"name":"In den Alten Gärten","postalCode":"54472","locality":"Gornhausen","municipality":{"key":"07231040","name":"Gornhausen","type":"Kreisangehörige_Gemeinde"},"district":{"key":"07231","name":"Bernkastel-Wittlich","type":"Landkreis"},"federalState":{"key":"07","name":"Rheinland-Pfalz"}},{"name":"In der Lückheck","postalCode":"54472","locality":"Gornhausen","municipality":{"key":"07231040","name":"Gornhausen","type":"Kreisangehörige_Gemeinde"},"district":{"key":"07231","name":"Bernkastel-Wittlich","type":"Landkreis"},"federalState":{"key":"07","name":"Rheinland-Pfalz"}},{"name":"Marktweg","postalCode":"54472","locality":"Gornhausen","municipality":{"key":"07231040","name":"Gornhausen","type":"Kreisangehörige_Gemeinde"},"district":{"key":"07231","name":"Bernkastel-Wittlich","type":"Landkreis"},"federalState":{"key":"07","name":"Rheinland-Pfalz"}},{"name":"Merscheider Weg","postalCode":"54472","locality":"Gornhausen","municipality":{"key":"07231040","name":"Gornhausen","type":"Kreisangehörige_Gemeinde"},"district":{"key":"07231","name":"Bernkastel-Wittlich","type":"Landkreis"},"federalState":{"key":"07","name":"Rheinland-Pfalz"}},{"name":"Morbacher Str.","postalCode":"54472","locality":"Gornhausen","municipality":{"key":"07231040","name":"Gornhausen","type":"Kreisangehörige_Gemeinde"},"district":{"key":"07231","name":"Bernkastel-Wittlich","type":"Landkreis"},"federalState":{"key":"07","name":"Rheinland-Pfalz"}},{"name":"Rosenstr.","postalCode":"54472","locality":"Gornhausen","municipality":{"key":"07231040","name":"Gornhausen","type":"Kreisangehörige_Gemeinde"},"district":{"key":"07231","name":"Bernkastel-Wittlich","type":"Landkreis"},"federalState":{"key":"07","name":"Rheinland-Pfalz"}},{"name":"Veldenzer Str.","postalCode":"54472","locality":"Gornhausen","municipality":{"key":"07231040","name":"Gornhausen","type":"Kreisangehörige_Gemeinde"},"district":{"key":"07231","name":"Bernkastel-Wittlich","type":"Landkreis"},"federalState":{"key":"07","name":"Rheinland-Pfalz"}},]