[{"key":"10044770","name":"Chemin de Bochat","postalCode":"1094","locality":"Paudex","commune":{"key":"5588","name":"Paudex","shortName":"Paudex"},"district":{"key":"2226","name":"District de Lavaux-Oron"},"canton":{"key":"22","code":"VD","name":"Vaud"},"status":"Real"},{"key":"10048056","name":"Chemin de la Charrettaz","postalCode":"1094","locality":"Paudex","commune":{"key":"5588","name":"Paudex","shortName":"Paudex"},"district":{"key":"2226","name":"District de Lavaux-Oron"},"canton":{"key":"22","code":"VD","name":"Vaud"},"status":"Real"},{"key":"10180845","name":"Chemin de la Grangette","postalCode":"1094","locality":"Paudex","commune":{"key":"5588","name":"Paudex","shortName":"Paudex"},"district":{"key":"2226","name":"District de Lavaux-Oron"},"canton":{"key":"22","code":"VD","name":"Vaud"},"status":"Real"},{"key":"10080186","name":"Chemin de la Paudèze","postalCode":"1094","locality":"Paudex","commune":{"key":"5588","name":"Paudex","shortName":"Paudex"},"district":{"key":"2226","name":"District de Lavaux-Oron"},"canton":{"key":"22","code":"VD","name":"Vaud"},"status":"Real"},{"key":"10094012","name":"Chemin de la Verrière","postalCode":"1094","locality":"Paudex","commune":{"key":"5588","name":"Paudex","shortName":"Paudex"},"district":{"key":"2226","name":"District de Lavaux-Oron"},"canton":{"key":"22","code":"VD","name":"Vaud"},"status":"Real"},{"key":"10094011","name":"Chemin de l'Etang","postalCode":"1094","locality":"Paudex","commune":{"key":"5588","name":"Paudex","shortName":"Paudex"},"district":{"key":"2226","name":"District de Lavaux-Oron"},"canton":{"key":"22","code":"VD","name":"Vaud"},"status":"Real"},{"key":"10044771","name":"Chemin des Peupliers","postalCode":"1094","locality":"Paudex","commune":{"key":"5588","name":"Paudex","shortName":"Paudex"},"district":{"key":"2226","name":"District de Lavaux-Oron"},"canton":{"key":"22","code":"VD","name":"Vaud"},"status":"Real"},{"key":"10048057","name":"Chemin du Coutzet","postalCode":"1094","locality":"Paudex","commune":{"key":"5588","name":"Paudex","shortName":"Paudex"},"district":{"key":"2226","name":"District de Lavaux-Oron"},"canton":{"key":"22","code":"VD","name":"Vaud"},"status":"Real"},{"key":"10044772","name":"Chemin du Grand Pin","postalCode":"1094","locality":"Paudex","commune":{"key":"5588","name":"Paudex","shortName":"Paudex"},"district":{"key":"2226","name":"District de Lavaux-Oron"},"canton":{"key":"22","code":"VD","name":"Vaud"},"status":"Real"},{"key":"10044773","name":"Chemin du Port","postalCode":"1094","locality":"Paudex","commune":{"key":"5588","name":"Paudex","shortName":"Paudex"},"district":{"key":"2226","name":"District de Lavaux-Oron"},"canton":{"key":"22","code":"VD","name":"Vaud"},"status":"Real"},{"key":"10149665","name":"Chemin Vallon de la Paudèze","postalCode":"1094","locality":"Paudex","commune":{"key":"5588","name":"Paudex","shortName":"Paudex"},"district":{"key":"2226","name":"District de Lavaux-Oron"},"canton":{"key":"22","code":"VD","name":"Vaud"},"status":"Real"},{"key":"10116870","name":"Route de la Bernadaz","postalCode":"1094","locality":"Paudex","commune":{"key":"5588","name":"Paudex","shortName":"Paudex"},"district":{"key":"2226","name":"District de Lavaux-Oron"},"canton":{"key":"22","code":"VD","name":"Vaud"},"status":"Real"},{"key":"10102182","name":"Route de la Bordinette","postalCode":"1094","locality":"Paudex","commune":{"key":"5588","name":"Paudex","shortName":"Paudex"},"district":{"key":"2226","name":"District de Lavaux-Oron"},"canton":{"key":"22","code":"VD","name":"Vaud"},"status":"Real"},{"key":"10080187","name":"Route du Lac","postalCode":"1094","locality":"Paudex","commune":{"key":"5588","name":"Paudex","shortName":"Paudex"},"district":{"key":"2226","name":"District de Lavaux-Oron"},"canton":{"key":"22","code":"VD","name":"Vaud"},"status":"Real"},{"key":"10094014","name":"Route du Simplon","postalCode":"1094","locality":"Paudex","commune":{"key":"5588","name":"Paudex","shortName":"Paudex"},"district":{"key":"2226","name":"District de Lavaux-Oron"},"canton":{"key":"22","code":"VD","name":"Vaud"},"status":"Real"},{"key":"10122131","name":"Rue de la Fontaine","postalCode":"1094","locality":"Paudex","commune":{"key":"5588","name":"Paudex","shortName":"Paudex"},"district":{"key":"2226","name":"District de Lavaux-Oron"},"canton":{"key":"22","code":"VD","name":"Vaud"},"status":"Real"},]