[{"key":"10137404","name":"Alla Chiesa","postalCode":"6647","locality":"Mergoscia","commune":{"key":"5117","name":"Mergoscia","shortName":"Mergoscia"},"district":{"key":"2104","name":"Distretto di Locarno"},"canton":{"key":"21","code":"TI","name":"Ticino"},"status":"Real"},{"key":"10241671","name":"Bedeglia","postalCode":"6647","locality":"Mergoscia","commune":{"key":"5117","name":"Mergoscia","shortName":"Mergoscia"},"district":{"key":"2104","name":"Distretto di Locarno"},"canton":{"key":"21","code":"TI","name":"Ticino"},"status":"Real"},{"key":"10137406","name":"Benitt","postalCode":"6647","locality":"Mergoscia","commune":{"key":"5117","name":"Mergoscia","shortName":"Mergoscia"},"district":{"key":"2104","name":"Distretto di Locarno"},"canton":{"key":"21","code":"TI","name":"Ticino"},"status":"Real"},{"key":"10212151","name":"Bolètt","postalCode":"6647","locality":"Mergoscia","commune":{"key":"5117","name":"Mergoscia","shortName":"Mergoscia"},"district":{"key":"2104","name":"Distretto di Locarno"},"canton":{"key":"21","code":"TI","name":"Ticino"},"status":"Real"},{"key":"10137407","name":"Bresciàdiga","postalCode":"6647","locality":"Mergoscia","commune":{"key":"5117","name":"Mergoscia","shortName":"Mergoscia"},"district":{"key":"2104","name":"Distretto di Locarno"},"canton":{"key":"21","code":"TI","name":"Ticino"},"status":"Real"},{"key":"10137408","name":"Busada","postalCode":"6647","locality":"Mergoscia","commune":{"key":"5117","name":"Mergoscia","shortName":"Mergoscia"},"district":{"key":"2104","name":"Distretto di Locarno"},"canton":{"key":"21","code":"TI","name":"Ticino"},"status":"Real"},{"key":"10143736","name":"Campegliài","postalCode":"6647","locality":"Mergoscia","commune":{"key":"5117","name":"Mergoscia","shortName":"Mergoscia"},"district":{"key":"2104","name":"Distretto di Locarno"},"canton":{"key":"21","code":"TI","name":"Ticino"},"status":"Real"},{"key":"10212143","name":"Cantonitt","postalCode":"6647","locality":"Mergoscia","commune":{"key":"5117","name":"Mergoscia","shortName":"Mergoscia"},"district":{"key":"2104","name":"Distretto di Locarno"},"canton":{"key":"21","code":"TI","name":"Ticino"},"status":"Real"},{"key":"10138035","name":"Ciòss","postalCode":"6647","locality":"Mergoscia","commune":{"key":"5117","name":"Mergoscia","shortName":"Mergoscia"},"district":{"key":"2104","name":"Distretto di Locarno"},"canton":{"key":"21","code":"TI","name":"Ticino"},"status":"Real"},{"key":"10237847","name":"Cornarèd","postalCode":"6647","locality":"Mergoscia","commune":{"key":"5117","name":"Mergoscia","shortName":"Mergoscia"},"district":{"key":"2104","name":"Distretto di Locarno"},"canton":{"key":"21","code":"TI","name":"Ticino"},"status":"Real"},{"key":"10138037","name":"Corte del Bafa","postalCode":"6647","locality":"Mergoscia","commune":{"key":"5117","name":"Mergoscia","shortName":"Mergoscia"},"district":{"key":"2104","name":"Distretto di Locarno"},"canton":{"key":"21","code":"TI","name":"Ticino"},"status":"Real"},{"key":"10138039","name":"Costa","postalCode":"6647","locality":"Mergoscia","commune":{"key":"5117","name":"Mergoscia","shortName":"Mergoscia"},"district":{"key":"2104","name":"Distretto di Locarno"},"canton":{"key":"21","code":"TI","name":"Ticino"},"status":"Real"},{"key":"10212147","name":"Costelli","postalCode":"6647","locality":"Mergoscia","commune":{"key":"5117","name":"Mergoscia","shortName":"Mergoscia"},"district":{"key":"2104","name":"Distretto di Locarno"},"canton":{"key":"21","code":"TI","name":"Ticino"},"status":"Real"},{"key":"10143764","name":"Cresta","postalCode":"6647","locality":"Mergoscia","commune":{"key":"5117","name":"Mergoscia","shortName":"Mergoscia"},"district":{"key":"2104","name":"Distretto di Locarno"},"canton":{"key":"21","code":"TI","name":"Ticino"},"status":"Real"},{"key":"10143771","name":"Fàed","postalCode":"6647","locality":"Mergoscia","commune":{"key":"5117","name":"Mergoscia","shortName":"Mergoscia"},"district":{"key":"2104","name":"Distretto di Locarno"},"canton":{"key":"21","code":"TI","name":"Ticino"},"status":"Real"},{"key":"10143774","name":"Fontanèd","postalCode":"6647","locality":"Mergoscia","commune":{"key":"5117","name":"Mergoscia","shortName":"Mergoscia"},"district":{"key":"2104","name":"Distretto di Locarno"},"canton":{"key":"21","code":"TI","name":"Ticino"},"status":"Real"},{"key":"10138043","name":"Fordigia","postalCode":"6647","locality":"Mergoscia","commune":{"key":"5117","name":"Mergoscia","shortName":"Mergoscia"},"district":{"key":"2104","name":"Distretto di Locarno"},"canton":{"key":"21","code":"TI","name":"Ticino"},"status":"Real"},{"key":"10137176","name":"Fossèi","postalCode":"6647","locality":"Mergoscia","commune":{"key":"5117","name":"Mergoscia","shortName":"Mergoscia"},"district":{"key":"2104","name":"Distretto di Locarno"},"canton":{"key":"21","code":"TI","name":"Ticino"},"status":"Real"},{"key":"10138044","name":"Frèscen","postalCode":"6647","locality":"Mergoscia","commune":{"key":"5117","name":"Mergoscia","shortName":"Mergoscia"},"district":{"key":"2104","name":"Distretto di Locarno"},"canton":{"key":"21","code":"TI","name":"Ticino"},"status":"Real"},{"key":"10212144","name":"Gana","postalCode":"6647","locality":"Mergoscia","commune":{"key":"5117","name":"Mergoscia","shortName":"Mergoscia"},"district":{"key":"2104","name":"Distretto di Locarno"},"canton":{"key":"21","code":"TI","name":"Ticino"},"status":"Real"},{"key":"10212145","name":"Ganèla","postalCode":"6647","locality":"Mergoscia","commune":{"key":"5117","name":"Mergoscia","shortName":"Mergoscia"},"district":{"key":"2104","name":"Distretto di Locarno"},"canton":{"key":"21","code":"TI","name":"Ticino"},"status":"Real"},{"key":"10138049","name":"Lissói","postalCode":"6647","locality":"Mergoscia","commune":{"key":"5117","name":"Mergoscia","shortName":"Mergoscia"},"district":{"key":"2104","name":"Distretto di Locarno"},"canton":{"key":"21","code":"TI","name":"Ticino"},"status":"Real"},{"key":"10137204","name":"Monda","postalCode":"6647","locality":"Mergoscia","commune":{"key":"5117","name":"Mergoscia","shortName":"Mergoscia"},"district":{"key":"2104","name":"Distretto di Locarno"},"canton":{"key":"21","code":"TI","name":"Ticino"},"status":"Real"},{"key":"10138052","name":"Monti di Cortói","postalCode":"6647","locality":"Mergoscia","commune":{"key":"5117","name":"Mergoscia","shortName":"Mergoscia"},"district":{"key":"2104","name":"Distretto di Locarno"},"canton":{"key":"21","code":"TI","name":"Ticino"},"status":"Real"},{"key":"10139787","name":"Monti di Lego","postalCode":"6647","locality":"Mergoscia","commune":{"key":"5117","name":"Mergoscia","shortName":"Mergoscia"},"district":{"key":"2104","name":"Distretto di Locarno"},"canton":{"key":"21","code":"TI","name":"Ticino"},"status":"Real"},{"key":"10140054","name":"Mota di Sopra","postalCode":"6647","locality":"Mergoscia","commune":{"key":"5117","name":"Mergoscia","shortName":"Mergoscia"},"district":{"key":"2104","name":"Distretto di Locarno"},"canton":{"key":"21","code":"TI","name":"Ticino"},"status":"Real"},{"key":"10140066","name":"Perbiói","postalCode":"6647","locality":"Mergoscia","commune":{"key":"5117","name":"Mergoscia","shortName":"Mergoscia"},"district":{"key":"2104","name":"Distretto di Locarno"},"canton":{"key":"21","code":"TI","name":"Ticino"},"status":"Real"},{"key":"10138053","name":"Pianaccio","postalCode":"6647","locality":"Mergoscia","commune":{"key":"5117","name":"Mergoscia","shortName":"Mergoscia"},"district":{"key":"2104","name":"Distretto di Locarno"},"canton":{"key":"21","code":"TI","name":"Ticino"},"status":"Real"},{"key":"10138054","name":"Porchèsc","postalCode":"6647","locality":"Mergoscia","commune":{"key":"5117","name":"Mergoscia","shortName":"Mergoscia"},"district":{"key":"2104","name":"Distretto di Locarno"},"canton":{"key":"21","code":"TI","name":"Ticino"},"status":"Real"},{"key":"10246132","name":"Redund","postalCode":"6647","locality":"Mergoscia","commune":{"key":"5117","name":"Mergoscia","shortName":"Mergoscia"},"district":{"key":"2104","name":"Distretto di Locarno"},"canton":{"key":"21","code":"TI","name":"Ticino"},"status":"Real"},{"key":"10135594","name":"Revera","postalCode":"6647","locality":"Mergoscia","commune":{"key":"5117","name":"Mergoscia","shortName":"Mergoscia"},"district":{"key":"2104","name":"Distretto di Locarno"},"canton":{"key":"21","code":"TI","name":"Ticino"},"status":"Real"},{"key":"10138056","name":"Ronchi","postalCode":"6647","locality":"Mergoscia","commune":{"key":"5117","name":"Mergoscia","shortName":"Mergoscia"},"district":{"key":"2104","name":"Distretto di Locarno"},"canton":{"key":"21","code":"TI","name":"Ticino"},"status":"Real"},{"key":"10138057","name":"Ropiana","postalCode":"6647","locality":"Mergoscia","commune":{"key":"5117","name":"Mergoscia","shortName":"Mergoscia"},"district":{"key":"2104","name":"Distretto di Locarno"},"canton":{"key":"21","code":"TI","name":"Ticino"},"status":"Real"},{"key":"10135611","name":"Sgerbia","postalCode":"6647","locality":"Mergoscia","commune":{"key":"5117","name":"Mergoscia","shortName":"Mergoscia"},"district":{"key":"2104","name":"Distretto di Locarno"},"canton":{"key":"21","code":"TI","name":"Ticino"},"status":"Real"},{"key":"10135618","name":"Sotto Prato","postalCode":"6647","locality":"Mergoscia","commune":{"key":"5117","name":"Mergoscia","shortName":"Mergoscia"},"district":{"key":"2104","name":"Distretto di Locarno"},"canton":{"key":"21","code":"TI","name":"Ticino"},"status":"Real"},{"key":"10146666","name":"Tascèr","postalCode":"6647","locality":"Mergoscia","commune":{"key":"5117","name":"Mergoscia","shortName":"Mergoscia"},"district":{"key":"2104","name":"Distretto di Locarno"},"canton":{"key":"21","code":"TI","name":"Ticino"},"status":"Real"},{"key":"10138062","name":"Tecc Arz","postalCode":"6647","locality":"Mergoscia","commune":{"key":"5117","name":"Mergoscia","shortName":"Mergoscia"},"district":{"key":"2104","name":"Distretto di Locarno"},"canton":{"key":"21","code":"TI","name":"Ticino"},"status":"Real"},{"key":"10146674","name":"Tropign","postalCode":"6647","locality":"Mergoscia","commune":{"key":"5117","name":"Mergoscia","shortName":"Mergoscia"},"district":{"key":"2104","name":"Distretto di Locarno"},"canton":{"key":"21","code":"TI","name":"Ticino"},"status":"Real"},{"key":"10138063","name":"Tropitt","postalCode":"6647","locality":"Mergoscia","commune":{"key":"5117","name":"Mergoscia","shortName":"Mergoscia"},"district":{"key":"2104","name":"Distretto di Locarno"},"canton":{"key":"21","code":"TI","name":"Ticino"},"status":"Real"},{"key":"10212140","name":"Via ai Mòtt","postalCode":"6647","locality":"Mergoscia","commune":{"key":"5117","name":"Mergoscia","shortName":"Mergoscia"},"district":{"key":"2104","name":"Distretto di Locarno"},"canton":{"key":"21","code":"TI","name":"Ticino"},"status":"Real"},{"key":"10137410","name":"Via Cadegn","postalCode":"6647","locality":"Mergoscia","commune":{"key":"5117","name":"Mergoscia","shortName":"Mergoscia"},"district":{"key":"2104","name":"Distretto di Locarno"},"canton":{"key":"21","code":"TI","name":"Ticino"},"status":"Real"},{"key":"10112218","name":"Via Cantonale","postalCode":"6647","locality":"Mergoscia","commune":{"key":"5117","name":"Mergoscia","shortName":"Mergoscia"},"district":{"key":"2104","name":"Distretto di Locarno"},"canton":{"key":"21","code":"TI","name":"Ticino"},"status":"Real"},{"key":"10212138","name":"Via Cantonitt","postalCode":"6647","locality":"Mergoscia","commune":{"key":"5117","name":"Mergoscia","shortName":"Mergoscia"},"district":{"key":"2104","name":"Distretto di Locarno"},"canton":{"key":"21","code":"TI","name":"Ticino"},"status":"Real"},{"key":"10170966","name":"Via Casaa","postalCode":"6647","locality":"Mergoscia","commune":{"key":"5117","name":"Mergoscia","shortName":"Mergoscia"},"district":{"key":"2104","name":"Distretto di Locarno"},"canton":{"key":"21","code":"TI","name":"Ticino"},"status":"Real"},{"key":"10212141","name":"Via Cortauro","postalCode":"6647","locality":"Mergoscia","commune":{"key":"5117","name":"Mergoscia","shortName":"Mergoscia"},"district":{"key":"2104","name":"Distretto di Locarno"},"canton":{"key":"21","code":"TI","name":"Ticino"},"status":"Real"},{"key":"10212139","name":"Via Fesnèd","postalCode":"6647","locality":"Mergoscia","commune":{"key":"5117","name":"Mergoscia","shortName":"Mergoscia"},"district":{"key":"2104","name":"Distretto di Locarno"},"canton":{"key":"21","code":"TI","name":"Ticino"},"status":"Real"},{"key":"10212146","name":"Via Redonda","postalCode":"6647","locality":"Mergoscia","commune":{"key":"5117","name":"Mergoscia","shortName":"Mergoscia"},"district":{"key":"2104","name":"Distretto di Locarno"},"canton":{"key":"21","code":"TI","name":"Ticino"},"status":"Real"},{"key":"10212142","name":"Via San Vincenzo","postalCode":"6647","locality":"Mergoscia","commune":{"key":"5117","name":"Mergoscia","shortName":"Mergoscia"},"district":{"key":"2104","name":"Distretto di Locarno"},"canton":{"key":"21","code":"TI","name":"Ticino"},"status":"Real"},]