[{"name":"Achtern Knick","postalCode":"24787","locality":"Fockbek","municipality":{"key":"01058054","name":"Fockbek","type":"Kreisangehörige_Gemeinde"},"district":{"key":"01058","name":"Rendsburg-Eckernförde","type":"Kreis"},"federalState":{"key":"01","name":"Schleswig-Holstein"}},{"name":"Ahornweg","postalCode":"24787","locality":"Fockbek","municipality":{"key":"01058054","name":"Fockbek","type":"Kreisangehörige_Gemeinde"},"district":{"key":"01058","name":"Rendsburg-Eckernförde","type":"Kreis"},"federalState":{"key":"01","name":"Schleswig-Holstein"}},{"name":"Akazienweg","postalCode":"24787","locality":"Fockbek","municipality":{"key":"01058054","name":"Fockbek","type":"Kreisangehörige_Gemeinde"},"district":{"key":"01058","name":"Rendsburg-Eckernförde","type":"Kreis"},"federalState":{"key":"01","name":"Schleswig-Holstein"}},{"name":"Alter Sportplatz","postalCode":"24787","locality":"Fockbek","municipality":{"key":"01058054","name":"Fockbek","type":"Kreisangehörige_Gemeinde"},"district":{"key":"01058","name":"Rendsburg-Eckernförde","type":"Kreis"},"federalState":{"key":"01","name":"Schleswig-Holstein"}},{"name":"Am Ehrenmal","postalCode":"24787","locality":"Fockbek","municipality":{"key":"01058054","name":"Fockbek","type":"Kreisangehörige_Gemeinde"},"district":{"key":"01058","name":"Rendsburg-Eckernförde","type":"Kreis"},"federalState":{"key":"01","name":"Schleswig-Holstein"}},{"name":"Am Feldkamp","postalCode":"24787","locality":"Fockbek","municipality":{"key":"01058054","name":"Fockbek","type":"Kreisangehörige_Gemeinde"},"district":{"key":"01058","name":"Rendsburg-Eckernförde","type":"Kreis"},"federalState":{"key":"01","name":"Schleswig-Holstein"}},{"name":"Am Hünengrab","postalCode":"24787","locality":"Fockbek","municipality":{"key":"01058054","name":"Fockbek","type":"Kreisangehörige_Gemeinde"},"district":{"key":"01058","name":"Rendsburg-Eckernförde","type":"Kreis"},"federalState":{"key":"01","name":"Schleswig-Holstein"}},{"name":"Am Karpfenteich","postalCode":"24787","locality":"Fockbek","municipality":{"key":"01058054","name":"Fockbek","type":"Kreisangehörige_Gemeinde"},"district":{"key":"01058","name":"Rendsburg-Eckernförde","type":"Kreis"},"federalState":{"key":"01","name":"Schleswig-Holstein"}},{"name":"Am Mühlenkamp","postalCode":"24787","locality":"Fockbek","municipality":{"key":"01058054","name":"Fockbek","type":"Kreisangehörige_Gemeinde"},"district":{"key":"01058","name":"Rendsburg-Eckernförde","type":"Kreis"},"federalState":{"key":"01","name":"Schleswig-Holstein"}},{"name":"Am Ochsenweg","postalCode":"24787","locality":"Fockbek","municipality":{"key":"01058054","name":"Fockbek","type":"Kreisangehörige_Gemeinde"},"district":{"key":"01058","name":"Rendsburg-Eckernförde","type":"Kreis"},"federalState":{"key":"01","name":"Schleswig-Holstein"}},{"name":"Am See","postalCode":"24787","locality":"Fockbek","municipality":{"key":"01058054","name":"Fockbek","type":"Kreisangehörige_Gemeinde"},"district":{"key":"01058","name":"Rendsburg-Eckernförde","type":"Kreis"},"federalState":{"key":"01","name":"Schleswig-Holstein"}},{"name":"Amselweg","postalCode":"24787","locality":"Fockbek","municipality":{"key":"01058054","name":"Fockbek","type":"Kreisangehörige_Gemeinde"},"district":{"key":"01058","name":"Rendsburg-Eckernförde","type":"Kreis"},"federalState":{"key":"01","name":"Schleswig-Holstein"}},{"name":"An der Vogelsiedlung","postalCode":"24787","locality":"Fockbek","municipality":{"key":"01058054","name":"Fockbek","type":"Kreisangehörige_Gemeinde"},"district":{"key":"01058","name":"Rendsburg-Eckernförde","type":"Kreis"},"federalState":{"key":"01","name":"Schleswig-Holstein"}},{"name":"Assenkoppeln","postalCode":"24787","locality":"Fockbek","municipality":{"key":"01058054","name":"Fockbek","type":"Kreisangehörige_Gemeinde"},"district":{"key":"01058","name":"Rendsburg-Eckernförde","type":"Kreis"},"federalState":{"key":"01","name":"Schleswig-Holstein"}},{"name":"Außenweg","postalCode":"24787","locality":"Fockbek","municipality":{"key":"01058054","name":"Fockbek","type":"Kreisangehörige_Gemeinde"},"district":{"key":"01058","name":"Rendsburg-Eckernförde","type":"Kreis"},"federalState":{"key":"01","name":"Schleswig-Holstein"}},{"name":"Baaken","postalCode":"24787","locality":"Fockbek","municipality":{"key":"01058054","name":"Fockbek","type":"Kreisangehörige_Gemeinde"},"district":{"key":"01058","name":"Rendsburg-Eckernförde","type":"Kreis"},"federalState":{"key":"01","name":"Schleswig-Holstein"}},{"name":"Babendiek","postalCode":"24787","locality":"Fockbek","municipality":{"key":"01058054","name":"Fockbek","type":"Kreisangehörige_Gemeinde"},"district":{"key":"01058","name":"Rendsburg-Eckernförde","type":"Kreis"},"federalState":{"key":"01","name":"Schleswig-Holstein"}},{"name":"Bahnhofstr.","postalCode":"24787","locality":"Fockbek","municipality":{"key":"01058054","name":"Fockbek","type":"Kreisangehörige_Gemeinde"},"district":{"key":"01058","name":"Rendsburg-Eckernförde","type":"Kreis"},"federalState":{"key":"01","name":"Schleswig-Holstein"}},{"name":"Barkhorn","postalCode":"24787","locality":"Fockbek","municipality":{"key":"01058054","name":"Fockbek","type":"Kreisangehörige_Gemeinde"},"district":{"key":"01058","name":"Rendsburg-Eckernförde","type":"Kreis"},"federalState":{"key":"01","name":"Schleswig-Holstein"}},{"name":"Barriser Weg","postalCode":"24787","locality":"Fockbek","municipality":{"key":"01058054","name":"Fockbek","type":"Kreisangehörige_Gemeinde"},"district":{"key":"01058","name":"Rendsburg-Eckernförde","type":"Kreis"},"federalState":{"key":"01","name":"Schleswig-Holstein"}},{"name":"Birkenweg","postalCode":"24787","locality":"Fockbek","municipality":{"key":"01058054","name":"Fockbek","type":"Kreisangehörige_Gemeinde"},"district":{"key":"01058","name":"Rendsburg-Eckernförde","type":"Kreis"},"federalState":{"key":"01","name":"Schleswig-Holstein"}},{"name":"Bischofshof","postalCode":"24787","locality":"Fockbek","municipality":{"key":"01058054","name":"Fockbek","type":"Kreisangehörige_Gemeinde"},"district":{"key":"01058","name":"Rendsburg-Eckernförde","type":"Kreis"},"federalState":{"key":"01","name":"Schleswig-Holstein"}},{"name":"Brahmkamp","postalCode":"24787","locality":"Fockbek","municipality":{"key":"01058054","name":"Fockbek","type":"Kreisangehörige_Gemeinde"},"district":{"key":"01058","name":"Rendsburg-Eckernförde","type":"Kreis"},"federalState":{"key":"01","name":"Schleswig-Holstein"}},{"name":"Brehwisch","postalCode":"24787","locality":"Fockbek","municipality":{"key":"01058054","name":"Fockbek","type":"Kreisangehörige_Gemeinde"},"district":{"key":"01058","name":"Rendsburg-Eckernförde","type":"Kreis"},"federalState":{"key":"01","name":"Schleswig-Holstein"}},{"name":"Buchenweg","postalCode":"24787","locality":"Fockbek","municipality":{"key":"01058054","name":"Fockbek","type":"Kreisangehörige_Gemeinde"},"district":{"key":"01058","name":"Rendsburg-Eckernförde","type":"Kreis"},"federalState":{"key":"01","name":"Schleswig-Holstein"}},{"name":"Buchfinkenweg","postalCode":"24787","locality":"Fockbek","municipality":{"key":"01058054","name":"Fockbek","type":"Kreisangehörige_Gemeinde"},"district":{"key":"01058","name":"Rendsburg-Eckernförde","type":"Kreis"},"federalState":{"key":"01","name":"Schleswig-Holstein"}},{"name":"Bülten","postalCode":"24787","locality":"Fockbek","municipality":{"key":"01058054","name":"Fockbek","type":"Kreisangehörige_Gemeinde"},"district":{"key":"01058","name":"Rendsburg-Eckernförde","type":"Kreis"},"federalState":{"key":"01","name":"Schleswig-Holstein"}},{"name":"Claus-Stolley-Weg","postalCode":"24787","locality":"Fockbek","municipality":{"key":"01058054","name":"Fockbek","type":"Kreisangehörige_Gemeinde"},"district":{"key":"01058","name":"Rendsburg-Eckernförde","type":"Kreis"},"federalState":{"key":"01","name":"Schleswig-Holstein"}},{"name":"Deepenhof","postalCode":"24787","locality":"Fockbek","municipality":{"key":"01058054","name":"Fockbek","type":"Kreisangehörige_Gemeinde"},"district":{"key":"01058","name":"Rendsburg-Eckernförde","type":"Kreis"},"federalState":{"key":"01","name":"Schleswig-Holstein"}},{"name":"Dorbekskamp","postalCode":"24787","locality":"Fockbek","municipality":{"key":"01058054","name":"Fockbek","type":"Kreisangehörige_Gemeinde"},"district":{"key":"01058","name":"Rendsburg-Eckernförde","type":"Kreis"},"federalState":{"key":"01","name":"Schleswig-Holstein"}},{"name":"Drosselweg","postalCode":"24787","locality":"Fockbek","municipality":{"key":"01058054","name":"Fockbek","type":"Kreisangehörige_Gemeinde"},"district":{"key":"01058","name":"Rendsburg-Eckernförde","type":"Kreis"},"federalState":{"key":"01","name":"Schleswig-Holstein"}},{"name":"Eiderheide","postalCode":"24787","locality":"Fockbek","municipality":{"key":"01058054","name":"Fockbek","type":"Kreisangehörige_Gemeinde"},"district":{"key":"01058","name":"Rendsburg-Eckernförde","type":"Kreis"},"federalState":{"key":"01","name":"Schleswig-Holstein"}},{"name":"Elsdorfer Str.","postalCode":"24787","locality":"Fockbek","municipality":{"key":"01058054","name":"Fockbek","type":"Kreisangehörige_Gemeinde"},"district":{"key":"01058","name":"Rendsburg-Eckernförde","type":"Kreis"},"federalState":{"key":"01","name":"Schleswig-Holstein"}},{"name":"Erlenweg","postalCode":"24787","locality":"Fockbek","municipality":{"key":"01058054","name":"Fockbek","type":"Kreisangehörige_Gemeinde"},"district":{"key":"01058","name":"Rendsburg-Eckernförde","type":"Kreis"},"federalState":{"key":"01","name":"Schleswig-Holstein"}},{"name":"Ernst-Voß-Platz","postalCode":"24787","locality":"Fockbek","municipality":{"key":"01058054","name":"Fockbek","type":"Kreisangehörige_Gemeinde"},"district":{"key":"01058","name":"Rendsburg-Eckernförde","type":"Kreis"},"federalState":{"key":"01","name":"Schleswig-Holstein"}},{"name":"Eschenweg","postalCode":"24787","locality":"Fockbek","municipality":{"key":"01058054","name":"Fockbek","type":"Kreisangehörige_Gemeinde"},"district":{"key":"01058","name":"Rendsburg-Eckernförde","type":"Kreis"},"federalState":{"key":"01","name":"Schleswig-Holstein"}},{"name":"Fockbekfeld","postalCode":"24787","locality":"Fockbek","municipality":{"key":"01058054","name":"Fockbek","type":"Kreisangehörige_Gemeinde"},"district":{"key":"01058","name":"Rendsburg-Eckernförde","type":"Kreis"},"federalState":{"key":"01","name":"Schleswig-Holstein"}},{"name":"Friedhofsweg","postalCode":"24787","locality":"Fockbek","municipality":{"key":"01058054","name":"Fockbek","type":"Kreisangehörige_Gemeinde"},"district":{"key":"01058","name":"Rendsburg-Eckernförde","type":"Kreis"},"federalState":{"key":"01","name":"Schleswig-Holstein"}},{"name":"Gartenstr.","postalCode":"24787","locality":"Fockbek","municipality":{"key":"01058054","name":"Fockbek","type":"Kreisangehörige_Gemeinde"},"district":{"key":"01058","name":"Rendsburg-Eckernförde","type":"Kreis"},"federalState":{"key":"01","name":"Schleswig-Holstein"}},{"name":"Gildegrund","postalCode":"24787","locality":"Fockbek","municipality":{"key":"01058054","name":"Fockbek","type":"Kreisangehörige_Gemeinde"},"district":{"key":"01058","name":"Rendsburg-Eckernförde","type":"Kreis"},"federalState":{"key":"01","name":"Schleswig-Holstein"}},{"name":"Göhren","postalCode":"24787","locality":"Fockbek","municipality":{"key":"01058054","name":"Fockbek","type":"Kreisangehörige_Gemeinde"},"district":{"key":"01058","name":"Rendsburg-Eckernförde","type":"Kreis"},"federalState":{"key":"01","name":"Schleswig-Holstein"}},{"name":"Grashof","postalCode":"24787","locality":"Fockbek","municipality":{"key":"01058054","name":"Fockbek","type":"Kreisangehörige_Gemeinde"},"district":{"key":"01058","name":"Rendsburg-Eckernförde","type":"Kreis"},"federalState":{"key":"01","name":"Schleswig-Holstein"}},{"name":"Grönhude","postalCode":"24787","locality":"Fockbek","municipality":{"key":"01058054","name":"Fockbek","type":"Kreisangehörige_Gemeinde"},"district":{"key":"01058","name":"Rendsburg-Eckernförde","type":"Kreis"},"federalState":{"key":"01","name":"Schleswig-Holstein"}},{"name":"Grönsfurther Weg","postalCode":"24787","locality":"Fockbek","municipality":{"key":"01058054","name":"Fockbek","type":"Kreisangehörige_Gemeinde"},"district":{"key":"01058","name":"Rendsburg-Eckernförde","type":"Kreis"},"federalState":{"key":"01","name":"Schleswig-Holstein"}},{"name":"Groof","postalCode":"24787","locality":"Fockbek","municipality":{"key":"01058054","name":"Fockbek","type":"Kreisangehörige_Gemeinde"},"district":{"key":"01058","name":"Rendsburg-Eckernförde","type":"Kreis"},"federalState":{"key":"01","name":"Schleswig-Holstein"}},{"name":"Große Reihe","postalCode":"24787","locality":"Fockbek","municipality":{"key":"01058054","name":"Fockbek","type":"Kreisangehörige_Gemeinde"},"district":{"key":"01058","name":"Rendsburg-Eckernförde","type":"Kreis"},"federalState":{"key":"01","name":"Schleswig-Holstein"}},{"name":"Groten Grund","postalCode":"24787","locality":"Fockbek","municipality":{"key":"01058054","name":"Fockbek","type":"Kreisangehörige_Gemeinde"},"district":{"key":"01058","name":"Rendsburg-Eckernförde","type":"Kreis"},"federalState":{"key":"01","name":"Schleswig-Holstein"}},{"name":"Haferkamp","postalCode":"24787","locality":"Fockbek","municipality":{"key":"01058054","name":"Fockbek","type":"Kreisangehörige_Gemeinde"},"district":{"key":"01058","name":"Rendsburg-Eckernförde","type":"Kreis"},"federalState":{"key":"01","name":"Schleswig-Holstein"}},{"name":"Hans-Schlothfeld-Platz","postalCode":"24787","locality":"Fockbek","municipality":{"key":"01058054","name":"Fockbek","type":"Kreisangehörige_Gemeinde"},"district":{"key":"01058","name":"Rendsburg-Eckernförde","type":"Kreis"},"federalState":{"key":"01","name":"Schleswig-Holstein"}},{"name":"Harald-Striewski-Str.","postalCode":"24787","locality":"Fockbek","municipality":{"key":"01058054","name":"Fockbek","type":"Kreisangehörige_Gemeinde"},"district":{"key":"01058","name":"Rendsburg-Eckernförde","type":"Kreis"},"federalState":{"key":"01","name":"Schleswig-Holstein"}},{"name":"Hasenkamp","postalCode":"24787","locality":"Fockbek","municipality":{"key":"01058054","name":"Fockbek","type":"Kreisangehörige_Gemeinde"},"district":{"key":"01058","name":"Rendsburg-Eckernförde","type":"Kreis"},"federalState":{"key":"01","name":"Schleswig-Holstein"}},{"name":"Heidekoppel","postalCode":"24787","locality":"Fockbek","municipality":{"key":"01058054","name":"Fockbek","type":"Kreisangehörige_Gemeinde"},"district":{"key":"01058","name":"Rendsburg-Eckernförde","type":"Kreis"},"federalState":{"key":"01","name":"Schleswig-Holstein"}},{"name":"Hogenborn","postalCode":"24787","locality":"Fockbek","municipality":{"key":"01058054","name":"Fockbek","type":"Kreisangehörige_Gemeinde"},"district":{"key":"01058","name":"Rendsburg-Eckernförde","type":"Kreis"},"federalState":{"key":"01","name":"Schleswig-Holstein"}},{"name":"Hohenhof","postalCode":"24787","locality":"Fockbek","municipality":{"key":"01058054","name":"Fockbek","type":"Kreisangehörige_Gemeinde"},"district":{"key":"01058","name":"Rendsburg-Eckernförde","type":"Kreis"},"federalState":{"key":"01","name":"Schleswig-Holstein"}},{"name":"Hohndoor","postalCode":"24787","locality":"Fockbek","municipality":{"key":"01058054","name":"Fockbek","type":"Kreisangehörige_Gemeinde"},"district":{"key":"01058","name":"Rendsburg-Eckernförde","type":"Kreis"},"federalState":{"key":"01","name":"Schleswig-Holstein"}},{"name":"Hohner Berg","postalCode":"24787","locality":"Fockbek","municipality":{"key":"01058054","name":"Fockbek","type":"Kreisangehörige_Gemeinde"},"district":{"key":"01058","name":"Rendsburg-Eckernförde","type":"Kreis"},"federalState":{"key":"01","name":"Schleswig-Holstein"}},{"name":"Hohner Str.","postalCode":"24787","locality":"Fockbek","municipality":{"key":"01058054","name":"Fockbek","type":"Kreisangehörige_Gemeinde"},"district":{"key":"01058","name":"Rendsburg-Eckernförde","type":"Kreis"},"federalState":{"key":"01","name":"Schleswig-Holstein"}},{"name":"Immenhof","postalCode":"24787","locality":"Fockbek","municipality":{"key":"01058054","name":"Fockbek","type":"Kreisangehörige_Gemeinde"},"district":{"key":"01058","name":"Rendsburg-Eckernförde","type":"Kreis"},"federalState":{"key":"01","name":"Schleswig-Holstein"}},{"name":"Im Sande","postalCode":"24787","locality":"Fockbek","municipality":{"key":"01058054","name":"Fockbek","type":"Kreisangehörige_Gemeinde"},"district":{"key":"01058","name":"Rendsburg-Eckernförde","type":"Kreis"},"federalState":{"key":"01","name":"Schleswig-Holstein"}},{"name":"Im Tannenwinkel","postalCode":"24787","locality":"Fockbek","municipality":{"key":"01058054","name":"Fockbek","type":"Kreisangehörige_Gemeinde"},"district":{"key":"01058","name":"Rendsburg-Eckernförde","type":"Kreis"},"federalState":{"key":"01","name":"Schleswig-Holstein"}},{"name":"Im Winkel","postalCode":"24787","locality":"Fockbek","municipality":{"key":"01058054","name":"Fockbek","type":"Kreisangehörige_Gemeinde"},"district":{"key":"01058","name":"Rendsburg-Eckernförde","type":"Kreis"},"federalState":{"key":"01","name":"Schleswig-Holstein"}},{"name":"Kamp","postalCode":"24787","locality":"Fockbek","municipality":{"key":"01058054","name":"Fockbek","type":"Kreisangehörige_Gemeinde"},"district":{"key":"01058","name":"Rendsburg-Eckernförde","type":"Kreis"},"federalState":{"key":"01","name":"Schleswig-Holstein"}},{"name":"Karl-Böge-Platz","postalCode":"24787","locality":"Fockbek","municipality":{"key":"01058054","name":"Fockbek","type":"Kreisangehörige_Gemeinde"},"district":{"key":"01058","name":"Rendsburg-Eckernförde","type":"Kreis"},"federalState":{"key":"01","name":"Schleswig-Holstein"}},{"name":"Kiebitzweg","postalCode":"24787","locality":"Fockbek","municipality":{"key":"01058054","name":"Fockbek","type":"Kreisangehörige_Gemeinde"},"district":{"key":"01058","name":"Rendsburg-Eckernförde","type":"Kreis"},"federalState":{"key":"01","name":"Schleswig-Holstein"}},{"name":"Klinter Weg","postalCode":"24787","locality":"Fockbek","municipality":{"key":"01058054","name":"Fockbek","type":"Kreisangehörige_Gemeinde"},"district":{"key":"01058","name":"Rendsburg-Eckernförde","type":"Kreis"},"federalState":{"key":"01","name":"Schleswig-Holstein"}},{"name":"Knüll","postalCode":"24787","locality":"Fockbek","municipality":{"key":"01058054","name":"Fockbek","type":"Kreisangehörige_Gemeinde"},"district":{"key":"01058","name":"Rendsburg-Eckernförde","type":"Kreis"},"federalState":{"key":"01","name":"Schleswig-Holstein"}},{"name":"Krattredder","postalCode":"24787","locality":"Fockbek","municipality":{"key":"01058054","name":"Fockbek","type":"Kreisangehörige_Gemeinde"},"district":{"key":"01058","name":"Rendsburg-Eckernförde","type":"Kreis"},"federalState":{"key":"01","name":"Schleswig-Holstein"}},{"name":"Kronsmoor","postalCode":"24787","locality":"Fockbek","municipality":{"key":"01058054","name":"Fockbek","type":"Kreisangehörige_Gemeinde"},"district":{"key":"01058","name":"Rendsburg-Eckernförde","type":"Kreis"},"federalState":{"key":"01","name":"Schleswig-Holstein"}},{"name":"Küsterweg","postalCode":"24787","locality":"Fockbek","municipality":{"key":"01058054","name":"Fockbek","type":"Kreisangehörige_Gemeinde"},"district":{"key":"01058","name":"Rendsburg-Eckernförde","type":"Kreis"},"federalState":{"key":"01","name":"Schleswig-Holstein"}},{"name":"Lerchenweg","postalCode":"24787","locality":"Fockbek","municipality":{"key":"01058054","name":"Fockbek","type":"Kreisangehörige_Gemeinde"},"district":{"key":"01058","name":"Rendsburg-Eckernförde","type":"Kreis"},"federalState":{"key":"01","name":"Schleswig-Holstein"}},{"name":"Lindenstr.","postalCode":"24787","locality":"Fockbek","municipality":{"key":"01058054","name":"Fockbek","type":"Kreisangehörige_Gemeinde"},"district":{"key":"01058","name":"Rendsburg-Eckernförde","type":"Kreis"},"federalState":{"key":"01","name":"Schleswig-Holstein"}},{"name":"Loher Weg","postalCode":"24787","locality":"Fockbek","municipality":{"key":"01058054","name":"Fockbek","type":"Kreisangehörige_Gemeinde"},"district":{"key":"01058","name":"Rendsburg-Eckernförde","type":"Kreis"},"federalState":{"key":"01","name":"Schleswig-Holstein"}},{"name":"Lütt Ecken","postalCode":"24787","locality":"Fockbek","municipality":{"key":"01058054","name":"Fockbek","type":"Kreisangehörige_Gemeinde"},"district":{"key":"01058","name":"Rendsburg-Eckernförde","type":"Kreis"},"federalState":{"key":"01","name":"Schleswig-Holstein"}},{"name":"Lütten Weg","postalCode":"24787","locality":"Fockbek","municipality":{"key":"01058054","name":"Fockbek","type":"Kreisangehörige_Gemeinde"},"district":{"key":"01058","name":"Rendsburg-Eckernförde","type":"Kreis"},"federalState":{"key":"01","name":"Schleswig-Holstein"}},{"name":"Meisenweg","postalCode":"24787","locality":"Fockbek","municipality":{"key":"01058054","name":"Fockbek","type":"Kreisangehörige_Gemeinde"},"district":{"key":"01058","name":"Rendsburg-Eckernförde","type":"Kreis"},"federalState":{"key":"01","name":"Schleswig-Holstein"}},{"name":"Mirower Ring","postalCode":"24787","locality":"Fockbek","municipality":{"key":"01058054","name":"Fockbek","type":"Kreisangehörige_Gemeinde"},"district":{"key":"01058","name":"Rendsburg-Eckernförde","type":"Kreis"},"federalState":{"key":"01","name":"Schleswig-Holstein"}},{"name":"Mohrsche Koppel","postalCode":"24787","locality":"Fockbek","municipality":{"key":"01058054","name":"Fockbek","type":"Kreisangehörige_Gemeinde"},"district":{"key":"01058","name":"Rendsburg-Eckernförde","type":"Kreis"},"federalState":{"key":"01","name":"Schleswig-Holstein"}},{"name":"Nachtigallenweg","postalCode":"24787","locality":"Fockbek","municipality":{"key":"01058054","name":"Fockbek","type":"Kreisangehörige_Gemeinde"},"district":{"key":"01058","name":"Rendsburg-Eckernförde","type":"Kreis"},"federalState":{"key":"01","name":"Schleswig-Holstein"}},{"name":"Neddern End","postalCode":"24787","locality":"Fockbek","municipality":{"key":"01058054","name":"Fockbek","type":"Kreisangehörige_Gemeinde"},"district":{"key":"01058","name":"Rendsburg-Eckernförde","type":"Kreis"},"federalState":{"key":"01","name":"Schleswig-Holstein"}},{"name":"Neue Str.","postalCode":"24787","locality":"Fockbek","municipality":{"key":"01058054","name":"Fockbek","type":"Kreisangehörige_Gemeinde"},"district":{"key":"01058","name":"Rendsburg-Eckernförde","type":"Kreis"},"federalState":{"key":"01","name":"Schleswig-Holstein"}},{"name":"Nübbeler Weg","postalCode":"24787","locality":"Fockbek","municipality":{"key":"01058054","name":"Fockbek","type":"Kreisangehörige_Gemeinde"},"district":{"key":"01058","name":"Rendsburg-Eckernförde","type":"Kreis"},"federalState":{"key":"01","name":"Schleswig-Holstein"}},{"name":"Ostlandstr.","postalCode":"24787","locality":"Fockbek","municipality":{"key":"01058054","name":"Fockbek","type":"Kreisangehörige_Gemeinde"},"district":{"key":"01058","name":"Rendsburg-Eckernförde","type":"Kreis"},"federalState":{"key":"01","name":"Schleswig-Holstein"}},{"name":"Pappelweg","postalCode":"24787","locality":"Fockbek","municipality":{"key":"01058054","name":"Fockbek","type":"Kreisangehörige_Gemeinde"},"district":{"key":"01058","name":"Rendsburg-Eckernförde","type":"Kreis"},"federalState":{"key":"01","name":"Schleswig-Holstein"}},{"name":"Poststr.","postalCode":"24787","locality":"Fockbek","municipality":{"key":"01058054","name":"Fockbek","type":"Kreisangehörige_Gemeinde"},"district":{"key":"01058","name":"Rendsburg-Eckernförde","type":"Kreis"},"federalState":{"key":"01","name":"Schleswig-Holstein"}},{"name":"Reepen","postalCode":"24787","locality":"Fockbek","municipality":{"key":"01058054","name":"Fockbek","type":"Kreisangehörige_Gemeinde"},"district":{"key":"01058","name":"Rendsburg-Eckernförde","type":"Kreis"},"federalState":{"key":"01","name":"Schleswig-Holstein"}},{"name":"Rendsburger Str.","postalCode":"24787","locality":"Fockbek","municipality":{"key":"01058054","name":"Fockbek","type":"Kreisangehörige_Gemeinde"},"district":{"key":"01058","name":"Rendsburg-Eckernförde","type":"Kreis"},"federalState":{"key":"01","name":"Schleswig-Holstein"}},{"name":"Ringstr.","postalCode":"24787","locality":"Fockbek","municipality":{"key":"01058054","name":"Fockbek","type":"Kreisangehörige_Gemeinde"},"district":{"key":"01058","name":"Rendsburg-Eckernförde","type":"Kreis"},"federalState":{"key":"01","name":"Schleswig-Holstein"}},{"name":"Roggenhof","postalCode":"24787","locality":"Fockbek","municipality":{"key":"01058054","name":"Fockbek","type":"Kreisangehörige_Gemeinde"},"district":{"key":"01058","name":"Rendsburg-Eckernförde","type":"Kreis"},"federalState":{"key":"01","name":"Schleswig-Holstein"}},{"name":"Rondell","postalCode":"24787","locality":"Fockbek","municipality":{"key":"01058054","name":"Fockbek","type":"Kreisangehörige_Gemeinde"},"district":{"key":"01058","name":"Rendsburg-Eckernförde","type":"Kreis"},"federalState":{"key":"01","name":"Schleswig-Holstein"}},{"name":"Rosenstr.","postalCode":"24787","locality":"Fockbek","municipality":{"key":"01058054","name":"Fockbek","type":"Kreisangehörige_Gemeinde"},"district":{"key":"01058","name":"Rendsburg-Eckernförde","type":"Kreis"},"federalState":{"key":"01","name":"Schleswig-Holstein"}},{"name":"Rotdornweg","postalCode":"24787","locality":"Fockbek","municipality":{"key":"01058054","name":"Fockbek","type":"Kreisangehörige_Gemeinde"},"district":{"key":"01058","name":"Rendsburg-Eckernförde","type":"Kreis"},"federalState":{"key":"01","name":"Schleswig-Holstein"}},{"name":"Schafredder","postalCode":"24787","locality":"Fockbek","municipality":{"key":"01058054","name":"Fockbek","type":"Kreisangehörige_Gemeinde"},"district":{"key":"01058","name":"Rendsburg-Eckernförde","type":"Kreis"},"federalState":{"key":"01","name":"Schleswig-Holstein"}},{"name":"Schnieders Bleek","postalCode":"24787","locality":"Fockbek","municipality":{"key":"01058054","name":"Fockbek","type":"Kreisangehörige_Gemeinde"},"district":{"key":"01058","name":"Rendsburg-Eckernförde","type":"Kreis"},"federalState":{"key":"01","name":"Schleswig-Holstein"}},{"name":"Schütterbarg","postalCode":"24787","locality":"Fockbek","municipality":{"key":"01058054","name":"Fockbek","type":"Kreisangehörige_Gemeinde"},"district":{"key":"01058","name":"Rendsburg-Eckernförde","type":"Kreis"},"federalState":{"key":"01","name":"Schleswig-Holstein"}},{"name":"Schwalbenweg","postalCode":"24787","locality":"Fockbek","municipality":{"key":"01058054","name":"Fockbek","type":"Kreisangehörige_Gemeinde"},"district":{"key":"01058","name":"Rendsburg-Eckernförde","type":"Kreis"},"federalState":{"key":"01","name":"Schleswig-Holstein"}},{"name":"Seeblick","postalCode":"24787","locality":"Fockbek","municipality":{"key":"01058054","name":"Fockbek","type":"Kreisangehörige_Gemeinde"},"district":{"key":"01058","name":"Rendsburg-Eckernförde","type":"Kreis"},"federalState":{"key":"01","name":"Schleswig-Holstein"}},{"name":"Seekoppeln","postalCode":"24787","locality":"Fockbek","municipality":{"key":"01058054","name":"Fockbek","type":"Kreisangehörige_Gemeinde"},"district":{"key":"01058","name":"Rendsburg-Eckernförde","type":"Kreis"},"federalState":{"key":"01","name":"Schleswig-Holstein"}},{"name":"Seeredder","postalCode":"24787","locality":"Fockbek","municipality":{"key":"01058054","name":"Fockbek","type":"Kreisangehörige_Gemeinde"},"district":{"key":"01058","name":"Rendsburg-Eckernförde","type":"Kreis"},"federalState":{"key":"01","name":"Schleswig-Holstein"}},{"name":"Soll","postalCode":"24787","locality":"Fockbek","municipality":{"key":"01058054","name":"Fockbek","type":"Kreisangehörige_Gemeinde"},"district":{"key":"01058","name":"Rendsburg-Eckernförde","type":"Kreis"},"federalState":{"key":"01","name":"Schleswig-Holstein"}},{"name":"Stadttor","postalCode":"24787","locality":"Fockbek","municipality":{"key":"01058054","name":"Fockbek","type":"Kreisangehörige_Gemeinde"},"district":{"key":"01058","name":"Rendsburg-Eckernförde","type":"Kreis"},"federalState":{"key":"01","name":"Schleswig-Holstein"}},{"name":"Timmerloh","postalCode":"24787","locality":"Fockbek","municipality":{"key":"01058054","name":"Fockbek","type":"Kreisangehörige_Gemeinde"},"district":{"key":"01058","name":"Rendsburg-Eckernförde","type":"Kreis"},"federalState":{"key":"01","name":"Schleswig-Holstein"}},{"name":"Uhlenhorst","postalCode":"24787","locality":"Fockbek","municipality":{"key":"01058054","name":"Fockbek","type":"Kreisangehörige_Gemeinde"},"district":{"key":"01058","name":"Rendsburg-Eckernförde","type":"Kreis"},"federalState":{"key":"01","name":"Schleswig-Holstein"}},{"name":"Wahrkamp","postalCode":"24787","locality":"Fockbek","municipality":{"key":"01058054","name":"Fockbek","type":"Kreisangehörige_Gemeinde"},"district":{"key":"01058","name":"Rendsburg-Eckernförde","type":"Kreis"},"federalState":{"key":"01","name":"Schleswig-Holstein"}},{"name":"Waldweg","postalCode":"24787","locality":"Fockbek","municipality":{"key":"01058054","name":"Fockbek","type":"Kreisangehörige_Gemeinde"},"district":{"key":"01058","name":"Rendsburg-Eckernförde","type":"Kreis"},"federalState":{"key":"01","name":"Schleswig-Holstein"}},{"name":"Westerfeld","postalCode":"24787","locality":"Fockbek","municipality":{"key":"01058054","name":"Fockbek","type":"Kreisangehörige_Gemeinde"},"district":{"key":"01058","name":"Rendsburg-Eckernförde","type":"Kreis"},"federalState":{"key":"01","name":"Schleswig-Holstein"}},{"name":"Wiesengrund","postalCode":"24787","locality":"Fockbek","municipality":{"key":"01058054","name":"Fockbek","type":"Kreisangehörige_Gemeinde"},"district":{"key":"01058","name":"Rendsburg-Eckernförde","type":"Kreis"},"federalState":{"key":"01","name":"Schleswig-Holstein"}},{"name":"Zeisigweg","postalCode":"24787","locality":"Fockbek","municipality":{"key":"01058054","name":"Fockbek","type":"Kreisangehörige_Gemeinde"},"district":{"key":"01058","name":"Rendsburg-Eckernförde","type":"Kreis"},"federalState":{"key":"01","name":"Schleswig-Holstein"}},{"name":"Zum Brummersiel","postalCode":"24787","locality":"Fockbek","municipality":{"key":"01058054","name":"Fockbek","type":"Kreisangehörige_Gemeinde"},"district":{"key":"01058","name":"Rendsburg-Eckernförde","type":"Kreis"},"federalState":{"key":"01","name":"Schleswig-Holstein"}},{"name":"Zum Kratt","postalCode":"24787","locality":"Fockbek","municipality":{"key":"01058054","name":"Fockbek","type":"Kreisangehörige_Gemeinde"},"district":{"key":"01058","name":"Rendsburg-Eckernförde","type":"Kreis"},"federalState":{"key":"01","name":"Schleswig-Holstein"}},{"name":"Zum Waldfrieden","postalCode":"24787","locality":"Fockbek","municipality":{"key":"01058054","name":"Fockbek","type":"Kreisangehörige_Gemeinde"},"district":{"key":"01058","name":"Rendsburg-Eckernförde","type":"Kreis"},"federalState":{"key":"01","name":"Schleswig-Holstein"}},]