[{"name":"Adlergasse","postalCode":"77709","locality":"Wolfach","municipality":{"key":"08317145","name":"Wolfach, Stadt","type":"Stadt"},"district":{"key":"08317","name":"Ortenaukreis","type":"Landkreis"},"federalState":{"key":"08","name":"Baden-Württemberg"}},{"name":"Ahornweg","postalCode":"77709","locality":"Oberwolfach","municipality":{"key":"08317093","name":"Oberwolfach","type":"Kreisangehörige_Gemeinde"},"district":{"key":"08317","name":"Ortenaukreis","type":"Landkreis"},"federalState":{"key":"08","name":"Baden-Württemberg"}},{"name":"Albert-Sprenger-Str.","postalCode":"77709","locality":"Wolfach","municipality":{"key":"08317145","name":"Wolfach, Stadt","type":"Stadt"},"district":{"key":"08317","name":"Ortenaukreis","type":"Landkreis"},"federalState":{"key":"08","name":"Baden-Württemberg"}},{"name":"Allgeierhofweg","postalCode":"77709","locality":"Wolfach","municipality":{"key":"08317145","name":"Wolfach, Stadt","type":"Stadt"},"district":{"key":"08317","name":"Ortenaukreis","type":"Landkreis"},"federalState":{"key":"08","name":"Baden-Württemberg"}},{"name":"Allmendstr.","postalCode":"77709","locality":"Oberwolfach","municipality":{"key":"08317093","name":"Oberwolfach","type":"Kreisangehörige_Gemeinde"},"district":{"key":"08317","name":"Ortenaukreis","type":"Landkreis"},"federalState":{"key":"08","name":"Baden-Württemberg"}},{"name":"Alter Siechenwaldweg","postalCode":"77709","locality":"Wolfach","municipality":{"key":"08317145","name":"Wolfach, Stadt","type":"Stadt"},"district":{"key":"08317","name":"Ortenaukreis","type":"Landkreis"},"federalState":{"key":"08","name":"Baden-Württemberg"}},{"name":"Alte Str.","postalCode":"77709","locality":"Oberwolfach","municipality":{"key":"08317093","name":"Oberwolfach","type":"Kreisangehörige_Gemeinde"},"district":{"key":"08317","name":"Ortenaukreis","type":"Landkreis"},"federalState":{"key":"08","name":"Baden-Württemberg"}},{"name":"Am Äckerle","postalCode":"77709","locality":"Oberwolfach","municipality":{"key":"08317093","name":"Oberwolfach","type":"Kreisangehörige_Gemeinde"},"district":{"key":"08317","name":"Ortenaukreis","type":"Landkreis"},"federalState":{"key":"08","name":"Baden-Württemberg"}},{"name":"Am Bühl","postalCode":"77709","locality":"Wolfach","municipality":{"key":"08317145","name":"Wolfach, Stadt","type":"Stadt"},"district":{"key":"08317","name":"Ortenaukreis","type":"Landkreis"},"federalState":{"key":"08","name":"Baden-Württemberg"}},{"name":"Am Burghügel","postalCode":"77709","locality":"Oberwolfach","municipality":{"key":"08317093","name":"Oberwolfach","type":"Kreisangehörige_Gemeinde"},"district":{"key":"08317","name":"Ortenaukreis","type":"Landkreis"},"federalState":{"key":"08","name":"Baden-Württemberg"}},{"name":"Am Ehrenmal","postalCode":"77709","locality":"Wolfach","municipality":{"key":"08317145","name":"Wolfach, Stadt","type":"Stadt"},"district":{"key":"08317","name":"Ortenaukreis","type":"Landkreis"},"federalState":{"key":"08","name":"Baden-Württemberg"}},{"name":"Am Fohrenwald","postalCode":"77709","locality":"Wolfach","municipality":{"key":"08317145","name":"Wolfach, Stadt","type":"Stadt"},"district":{"key":"08317","name":"Ortenaukreis","type":"Landkreis"},"federalState":{"key":"08","name":"Baden-Württemberg"}},{"name":"Am Kastaniendobel","postalCode":"77709","locality":"Wolfach","municipality":{"key":"08317145","name":"Wolfach, Stadt","type":"Stadt"},"district":{"key":"08317","name":"Ortenaukreis","type":"Landkreis"},"federalState":{"key":"08","name":"Baden-Württemberg"}},{"name":"Am Kirchberg","postalCode":"77709","locality":"Oberwolfach","municipality":{"key":"08317093","name":"Oberwolfach","type":"Kreisangehörige_Gemeinde"},"district":{"key":"08317","name":"Ortenaukreis","type":"Landkreis"},"federalState":{"key":"08","name":"Baden-Württemberg"}},{"name":"Am Kirchplatz","postalCode":"77709","locality":"Wolfach","municipality":{"key":"08317145","name":"Wolfach, Stadt","type":"Stadt"},"district":{"key":"08317","name":"Ortenaukreis","type":"Landkreis"},"federalState":{"key":"08","name":"Baden-Württemberg"}},{"name":"Am Lindenplatz","postalCode":"77709","locality":"Oberwolfach","municipality":{"key":"08317093","name":"Oberwolfach","type":"Kreisangehörige_Gemeinde"},"district":{"key":"08317","name":"Ortenaukreis","type":"Landkreis"},"federalState":{"key":"08","name":"Baden-Württemberg"}},{"name":"Am Mühlegrün","postalCode":"77709","locality":"Wolfach","municipality":{"key":"08317145","name":"Wolfach, Stadt","type":"Stadt"},"district":{"key":"08317","name":"Ortenaukreis","type":"Landkreis"},"federalState":{"key":"08","name":"Baden-Württemberg"}},{"name":"Am Rothekreuzberg","postalCode":"77709","locality":"Wolfach","municipality":{"key":"08317145","name":"Wolfach, Stadt","type":"Stadt"},"district":{"key":"08317","name":"Ortenaukreis","type":"Landkreis"},"federalState":{"key":"08","name":"Baden-Württemberg"}},{"name":"Am Schirleberg","postalCode":"77709","locality":"Wolfach","municipality":{"key":"08317145","name":"Wolfach, Stadt","type":"Stadt"},"district":{"key":"08317","name":"Ortenaukreis","type":"Landkreis"},"federalState":{"key":"08","name":"Baden-Württemberg"}},{"name":"Am Spinnerberg","postalCode":"77709","locality":"Oberwolfach","municipality":{"key":"08317093","name":"Oberwolfach","type":"Kreisangehörige_Gemeinde"},"district":{"key":"08317","name":"Ortenaukreis","type":"Landkreis"},"federalState":{"key":"08","name":"Baden-Württemberg"}},{"name":"Amtsgasse","postalCode":"77709","locality":"Wolfach","municipality":{"key":"08317145","name":"Wolfach, Stadt","type":"Stadt"},"district":{"key":"08317","name":"Ortenaukreis","type":"Landkreis"},"federalState":{"key":"08","name":"Baden-Württemberg"}},{"name":"Am Vorstadtberg","postalCode":"77709","locality":"Wolfach","municipality":{"key":"08317145","name":"Wolfach, Stadt","type":"Stadt"},"district":{"key":"08317","name":"Ortenaukreis","type":"Landkreis"},"federalState":{"key":"08","name":"Baden-Württemberg"}},{"name":"An der Steig","postalCode":"77709","locality":"Oberwolfach","municipality":{"key":"08317093","name":"Oberwolfach","type":"Kreisangehörige_Gemeinde"},"district":{"key":"08317","name":"Ortenaukreis","type":"Landkreis"},"federalState":{"key":"08","name":"Baden-Württemberg"}},{"name":"Auf der Grub","postalCode":"77709","locality":"Wolfach","municipality":{"key":"08317145","name":"Wolfach, Stadt","type":"Stadt"},"district":{"key":"08317","name":"Ortenaukreis","type":"Landkreis"},"federalState":{"key":"08","name":"Baden-Württemberg"}},{"name":"Auf der Kanzel","postalCode":"77709","locality":"Wolfach","municipality":{"key":"08317145","name":"Wolfach, Stadt","type":"Stadt"},"district":{"key":"08317","name":"Ortenaukreis","type":"Landkreis"},"federalState":{"key":"08","name":"Baden-Württemberg"}},{"name":"Bahnhofstr.","postalCode":"77709","locality":"Wolfach","municipality":{"key":"08317145","name":"Wolfach, Stadt","type":"Stadt"},"district":{"key":"08317","name":"Ortenaukreis","type":"Landkreis"},"federalState":{"key":"08","name":"Baden-Württemberg"}},{"name":"Baumensteinweg","postalCode":"77709","locality":"Wolfach","municipality":{"key":"08317145","name":"Wolfach, Stadt","type":"Stadt"},"district":{"key":"08317","name":"Ortenaukreis","type":"Landkreis"},"federalState":{"key":"08","name":"Baden-Württemberg"}},{"name":"Baumgartenstr.","postalCode":"77709","locality":"Wolfach","municipality":{"key":"08317145","name":"Wolfach, Stadt","type":"Stadt"},"district":{"key":"08317","name":"Ortenaukreis","type":"Landkreis"},"federalState":{"key":"08","name":"Baden-Württemberg"}},{"name":"Belgetweg","postalCode":"77709","locality":"Oberwolfach","municipality":{"key":"08317093","name":"Oberwolfach","type":"Kreisangehörige_Gemeinde"},"district":{"key":"08317","name":"Ortenaukreis","type":"Landkreis"},"federalState":{"key":"08","name":"Baden-Württemberg"}},{"name":"Bergstr.","postalCode":"77709","locality":"Wolfach","municipality":{"key":"08317145","name":"Wolfach, Stadt","type":"Stadt"},"district":{"key":"08317","name":"Ortenaukreis","type":"Landkreis"},"federalState":{"key":"08","name":"Baden-Württemberg"}},{"name":"Birkenweg","postalCode":"77709","locality":"Oberwolfach","municipality":{"key":"08317093","name":"Oberwolfach","type":"Kreisangehörige_Gemeinde"},"district":{"key":"08317","name":"Ortenaukreis","type":"Landkreis"},"federalState":{"key":"08","name":"Baden-Württemberg"}},{"name":"Bollenhut-Sommerberg-Weg","postalCode":"77709","locality":"Wolfach","municipality":{"key":"08317145","name":"Wolfach, Stadt","type":"Stadt"},"district":{"key":"08317","name":"Ortenaukreis","type":"Landkreis"},"federalState":{"key":"08","name":"Baden-Württemberg"}},{"name":"Bollenhut-Sommerberg-Weg / Mittlerer Katzenlochweg","postalCode":"77709","locality":"Wolfach","municipality":{"key":"08317145","name":"Wolfach, Stadt","type":"Stadt"},"district":{"key":"08317","name":"Ortenaukreis","type":"Landkreis"},"federalState":{"key":"08","name":"Baden-Württemberg"}},{"name":"Bollenhut-Sommerberg-Weg / Oberer Kostbachweg","postalCode":"77709","locality":"Wolfach","municipality":{"key":"08317145","name":"Wolfach, Stadt","type":"Stadt"},"district":{"key":"08317","name":"Ortenaukreis","type":"Landkreis"},"federalState":{"key":"08","name":"Baden-Württemberg"}},{"name":"Bollenhut-Sommerberg-Weg / Rotsalstr.","postalCode":"77709","locality":"Wolfach","municipality":{"key":"08317145","name":"Wolfach, Stadt","type":"Stadt"},"district":{"key":"08317","name":"Ortenaukreis","type":"Landkreis"},"federalState":{"key":"08","name":"Baden-Württemberg"}},{"name":"Brechhöheweg","postalCode":"77709","locality":"Wolfach","municipality":{"key":"08317145","name":"Wolfach, Stadt","type":"Stadt"},"district":{"key":"08317","name":"Ortenaukreis","type":"Landkreis"},"federalState":{"key":"08","name":"Baden-Württemberg"}},{"name":"Brücklefeld","postalCode":"77709","locality":"Wolfach","municipality":{"key":"08317145","name":"Wolfach, Stadt","type":"Stadt"},"district":{"key":"08317","name":"Ortenaukreis","type":"Landkreis"},"federalState":{"key":"08","name":"Baden-Württemberg"}},{"name":"Burgeckweg","postalCode":"77709","locality":"Wolfach","municipality":{"key":"08317145","name":"Wolfach, Stadt","type":"Stadt"},"district":{"key":"08317","name":"Ortenaukreis","type":"Landkreis"},"federalState":{"key":"08","name":"Baden-Württemberg"}},{"name":"Burgfelsen","postalCode":"77709","locality":"Oberwolfach","municipality":{"key":"08317093","name":"Oberwolfach","type":"Kreisangehörige_Gemeinde"},"district":{"key":"08317","name":"Ortenaukreis","type":"Landkreis"},"federalState":{"key":"08","name":"Baden-Württemberg"}},{"name":"Dammstr.","postalCode":"77709","locality":"Wolfach","municipality":{"key":"08317145","name":"Wolfach, Stadt","type":"Stadt"},"district":{"key":"08317","name":"Ortenaukreis","type":"Landkreis"},"federalState":{"key":"08","name":"Baden-Württemberg"}},{"name":"Dörflestr.","postalCode":"77709","locality":"Wolfach","municipality":{"key":"08317145","name":"Wolfach, Stadt","type":"Stadt"},"district":{"key":"08317","name":"Ortenaukreis","type":"Landkreis"},"federalState":{"key":"08","name":"Baden-Württemberg"}},{"name":"Durchgehender Weg","postalCode":"77709","locality":"Oberwolfach","municipality":{"key":"08317093","name":"Oberwolfach","type":"Kreisangehörige_Gemeinde"},"district":{"key":"08317","name":"Ortenaukreis","type":"Landkreis"},"federalState":{"key":"08","name":"Baden-Württemberg"}},{"name":"Eckenhöhenweg","postalCode":"77709","locality":"Wolfach","municipality":{"key":"08317145","name":"Wolfach, Stadt","type":"Stadt"},"district":{"key":"08317","name":"Ortenaukreis","type":"Landkreis"},"federalState":{"key":"08","name":"Baden-Württemberg"}},{"name":"Eckleschleifweg","postalCode":"77709","locality":"Wolfach","municipality":{"key":"08317145","name":"Wolfach, Stadt","type":"Stadt"},"district":{"key":"08317","name":"Ortenaukreis","type":"Landkreis"},"federalState":{"key":"08","name":"Baden-Württemberg"}},{"name":"Eduard-Trautwein-Str.","postalCode":"77709","locality":"Wolfach","municipality":{"key":"08317145","name":"Wolfach, Stadt","type":"Stadt"},"district":{"key":"08317","name":"Ortenaukreis","type":"Landkreis"},"federalState":{"key":"08","name":"Baden-Württemberg"}},{"name":"Einödstr.","postalCode":"77709","locality":"Wolfach","municipality":{"key":"08317145","name":"Wolfach, Stadt","type":"Stadt"},"district":{"key":"08317","name":"Ortenaukreis","type":"Landkreis"},"federalState":{"key":"08","name":"Baden-Württemberg"}},{"name":"Elmlisberg","postalCode":"77709","locality":"Wolfach","municipality":{"key":"08317145","name":"Wolfach, Stadt","type":"Stadt"},"district":{"key":"08317","name":"Ortenaukreis","type":"Landkreis"},"federalState":{"key":"08","name":"Baden-Württemberg"}},{"name":"Erdlinsbachoberhangweg","postalCode":"77709","locality":"Wolfach","municipality":{"key":"08317145","name":"Wolfach, Stadt","type":"Stadt"},"district":{"key":"08317","name":"Ortenaukreis","type":"Landkreis"},"federalState":{"key":"08","name":"Baden-Württemberg"}},{"name":"Eselsweg","postalCode":"77709","locality":"Wolfach","municipality":{"key":"08317145","name":"Wolfach, Stadt","type":"Stadt"},"district":{"key":"08317","name":"Ortenaukreis","type":"Landkreis"},"federalState":{"key":"08","name":"Baden-Württemberg"}},{"name":"Feuerwehrgässle","postalCode":"77709","locality":"Oberwolfach","municipality":{"key":"08317093","name":"Oberwolfach","type":"Kreisangehörige_Gemeinde"},"district":{"key":"08317","name":"Ortenaukreis","type":"Landkreis"},"federalState":{"key":"08","name":"Baden-Württemberg"}},{"name":"Fichtengrundweg","postalCode":"77709","locality":"Oberwolfach","municipality":{"key":"08317093","name":"Oberwolfach","type":"Kreisangehörige_Gemeinde"},"district":{"key":"08317","name":"Ortenaukreis","type":"Landkreis"},"federalState":{"key":"08","name":"Baden-Württemberg"}},{"name":"Fichtenstr.","postalCode":"77709","locality":"Oberwolfach","municipality":{"key":"08317093","name":"Oberwolfach","type":"Kreisangehörige_Gemeinde"},"district":{"key":"08317","name":"Ortenaukreis","type":"Landkreis"},"federalState":{"key":"08","name":"Baden-Württemberg"}},{"name":"Flößerpark","postalCode":"77709","locality":"Wolfach","municipality":{"key":"08317145","name":"Wolfach, Stadt","type":"Stadt"},"district":{"key":"08317","name":"Ortenaukreis","type":"Landkreis"},"federalState":{"key":"08","name":"Baden-Württemberg"}},{"name":"Franz-Disch-Str.","postalCode":"77709","locality":"Wolfach","municipality":{"key":"08317145","name":"Wolfach, Stadt","type":"Stadt"},"district":{"key":"08317","name":"Ortenaukreis","type":"Landkreis"},"federalState":{"key":"08","name":"Baden-Württemberg"}},{"name":"Friedensstr.","postalCode":"77709","locality":"Oberwolfach","municipality":{"key":"08317093","name":"Oberwolfach","type":"Kreisangehörige_Gemeinde"},"district":{"key":"08317","name":"Ortenaukreis","type":"Landkreis"},"federalState":{"key":"08","name":"Baden-Württemberg"}},{"name":"Friedhofweg","postalCode":"77709","locality":"Wolfach","municipality":{"key":"08317145","name":"Wolfach, Stadt","type":"Stadt"},"district":{"key":"08317","name":"Ortenaukreis","type":"Landkreis"},"federalState":{"key":"08","name":"Baden-Württemberg"}},{"name":"Friedrichstr.","postalCode":"77709","locality":"Wolfach","municipality":{"key":"08317145","name":"Wolfach, Stadt","type":"Stadt"},"district":{"key":"08317","name":"Ortenaukreis","type":"Landkreis"},"federalState":{"key":"08","name":"Baden-Württemberg"}},{"name":"Frohnbach","postalCode":"77709","locality":"Oberwolfach","municipality":{"key":"08317093","name":"Oberwolfach","type":"Kreisangehörige_Gemeinde"},"district":{"key":"08317","name":"Ortenaukreis","type":"Landkreis"},"federalState":{"key":"08","name":"Baden-Württemberg"}},{"name":"Funkenbadstr.","postalCode":"77709","locality":"Wolfach","municipality":{"key":"08317145","name":"Wolfach, Stadt","type":"Stadt"},"district":{"key":"08317","name":"Ortenaukreis","type":"Landkreis"},"federalState":{"key":"08","name":"Baden-Württemberg"}},{"name":"Fürstenbergstr.","postalCode":"77709","locality":"Wolfach","municipality":{"key":"08317145","name":"Wolfach, Stadt","type":"Stadt"},"district":{"key":"08317","name":"Ortenaukreis","type":"Landkreis"},"federalState":{"key":"08","name":"Baden-Württemberg"}},{"name":"Fussenwaldweg","postalCode":"77709","locality":"Wolfach","municipality":{"key":"08317145","name":"Wolfach, Stadt","type":"Stadt"},"district":{"key":"08317","name":"Ortenaukreis","type":"Landkreis"},"federalState":{"key":"08","name":"Baden-Württemberg"}},{"name":"Galgenbühl-Schleifweg","postalCode":"77709","locality":"Wolfach","municipality":{"key":"08317145","name":"Wolfach, Stadt","type":"Stadt"},"district":{"key":"08317","name":"Ortenaukreis","type":"Landkreis"},"federalState":{"key":"08","name":"Baden-Württemberg"}},{"name":"Gartenweg","postalCode":"77709","locality":"Wolfach","municipality":{"key":"08317145","name":"Wolfach, Stadt","type":"Stadt"},"district":{"key":"08317","name":"Ortenaukreis","type":"Landkreis"},"federalState":{"key":"08","name":"Baden-Württemberg"}},{"name":"Gelbach","postalCode":"77709","locality":"Oberwolfach","municipality":{"key":"08317093","name":"Oberwolfach","type":"Kreisangehörige_Gemeinde"},"district":{"key":"08317","name":"Ortenaukreis","type":"Landkreis"},"federalState":{"key":"08","name":"Baden-Württemberg"}},{"name":"Gitschweg","postalCode":"77709","locality":"Wolfach","municipality":{"key":"08317145","name":"Wolfach, Stadt","type":"Stadt"},"district":{"key":"08317","name":"Ortenaukreis","type":"Landkreis"},"federalState":{"key":"08","name":"Baden-Württemberg"}},{"name":"Glashüttenweg","postalCode":"77709","locality":"Wolfach","municipality":{"key":"08317145","name":"Wolfach, Stadt","type":"Stadt"},"district":{"key":"08317","name":"Ortenaukreis","type":"Landkreis"},"federalState":{"key":"08","name":"Baden-Württemberg"}},{"name":"Grabenstr.","postalCode":"77709","locality":"Wolfach","municipality":{"key":"08317145","name":"Wolfach, Stadt","type":"Stadt"},"district":{"key":"08317","name":"Ortenaukreis","type":"Landkreis"},"federalState":{"key":"08","name":"Baden-Württemberg"}},{"name":"Grubhofweg","postalCode":"77709","locality":"Wolfach","municipality":{"key":"08317145","name":"Wolfach, Stadt","type":"Stadt"},"district":{"key":"08317","name":"Ortenaukreis","type":"Landkreis"},"federalState":{"key":"08","name":"Baden-Württemberg"}},{"name":"Grünach","postalCode":"77709","locality":"Oberwolfach","municipality":{"key":"08317093","name":"Oberwolfach","type":"Kreisangehörige_Gemeinde"},"district":{"key":"08317","name":"Ortenaukreis","type":"Landkreis"},"federalState":{"key":"08","name":"Baden-Württemberg"}},{"name":"Gummweg","postalCode":"77709","locality":"Wolfach","municipality":{"key":"08317145","name":"Wolfach, Stadt","type":"Stadt"},"district":{"key":"08317","name":"Ortenaukreis","type":"Landkreis"},"federalState":{"key":"08","name":"Baden-Württemberg"}},{"name":"Hagenbuchstr.","postalCode":"77709","locality":"Wolfach","municipality":{"key":"08317145","name":"Wolfach, Stadt","type":"Stadt"},"district":{"key":"08317","name":"Ortenaukreis","type":"Landkreis"},"federalState":{"key":"08","name":"Baden-Württemberg"}},{"name":"Halbmeil","postalCode":"77709","locality":"Wolfach","municipality":{"key":"08317145","name":"Wolfach, Stadt","type":"Stadt"},"district":{"key":"08317","name":"Ortenaukreis","type":"Landkreis"},"federalState":{"key":"08","name":"Baden-Württemberg"}},{"name":"Haldenweg","postalCode":"77709","locality":"Wolfach","municipality":{"key":"08317145","name":"Wolfach, Stadt","type":"Stadt"},"district":{"key":"08317","name":"Ortenaukreis","type":"Landkreis"},"federalState":{"key":"08","name":"Baden-Württemberg"}},{"name":"Hansjakobweg","postalCode":"77709","locality":"Wolfach","municipality":{"key":"08317145","name":"Wolfach, Stadt","type":"Stadt"},"district":{"key":"08317","name":"Ortenaukreis","type":"Landkreis"},"federalState":{"key":"08","name":"Baden-Württemberg"}},{"name":"Hapbach","postalCode":"77709","locality":"Oberwolfach","municipality":{"key":"08317093","name":"Oberwolfach","type":"Kreisangehörige_Gemeinde"},"district":{"key":"08317","name":"Ortenaukreis","type":"Landkreis"},"federalState":{"key":"08","name":"Baden-Württemberg"}},{"name":"Hapbachweg","postalCode":"77709","locality":"Wolfach","municipality":{"key":"08317145","name":"Wolfach, Stadt","type":"Stadt"},"district":{"key":"08317","name":"Ortenaukreis","type":"Landkreis"},"federalState":{"key":"08","name":"Baden-Württemberg"}},{"name":"Harzengrundweg","postalCode":"77709","locality":"Oberwolfach","municipality":{"key":"08317093","name":"Oberwolfach","type":"Kreisangehörige_Gemeinde"},"district":{"key":"08317","name":"Ortenaukreis","type":"Landkreis"},"federalState":{"key":"08","name":"Baden-Württemberg"}},{"name":"Hauptstr.","postalCode":"77709","locality":"Wolfach","municipality":{"key":"08317145","name":"Wolfach, Stadt","type":"Stadt"},"district":{"key":"08317","name":"Ortenaukreis","type":"Landkreis"},"federalState":{"key":"08","name":"Baden-Württemberg"}},{"name":"Hausacher Str.","postalCode":"77709","locality":"Wolfach","municipality":{"key":"08317145","name":"Wolfach, Stadt","type":"Stadt"},"district":{"key":"08317","name":"Ortenaukreis","type":"Landkreis"},"federalState":{"key":"08","name":"Baden-Württemberg"}},{"name":"Herbensattelweg","postalCode":"77709","locality":"Oberwolfach","municipality":{"key":"08317093","name":"Oberwolfach","type":"Kreisangehörige_Gemeinde"},"district":{"key":"08317","name":"Ortenaukreis","type":"Landkreis"},"federalState":{"key":"08","name":"Baden-Württemberg"}},{"name":"Herlinsbachweg","postalCode":"77709","locality":"Wolfach","municipality":{"key":"08317145","name":"Wolfach, Stadt","type":"Stadt"},"district":{"key":"08317","name":"Ortenaukreis","type":"Landkreis"},"federalState":{"key":"08","name":"Baden-Württemberg"}},{"name":"Heubach","postalCode":"77709","locality":"Wolfach","municipality":{"key":"08317145","name":"Wolfach, Stadt","type":"Stadt"},"district":{"key":"08317","name":"Ortenaukreis","type":"Landkreis"},"federalState":{"key":"08","name":"Baden-Württemberg"}},{"name":"Hildastr.","postalCode":"77709","locality":"Wolfach","municipality":{"key":"08317145","name":"Wolfach, Stadt","type":"Stadt"},"district":{"key":"08317","name":"Ortenaukreis","type":"Landkreis"},"federalState":{"key":"08","name":"Baden-Württemberg"}},{"name":"Hofbauernweg","postalCode":"77709","locality":"Wolfach","municipality":{"key":"08317145","name":"Wolfach, Stadt","type":"Stadt"},"district":{"key":"08317","name":"Ortenaukreis","type":"Landkreis"},"federalState":{"key":"08","name":"Baden-Württemberg"}},{"name":"Hofbergstr.","postalCode":"77709","locality":"Wolfach","municipality":{"key":"08317145","name":"Wolfach, Stadt","type":"Stadt"},"district":{"key":"08317","name":"Ortenaukreis","type":"Landkreis"},"federalState":{"key":"08","name":"Baden-Württemberg"}},{"name":"Hofbergweg","postalCode":"77709","locality":"Wolfach","municipality":{"key":"08317145","name":"Wolfach, Stadt","type":"Stadt"},"district":{"key":"08317","name":"Ortenaukreis","type":"Landkreis"},"federalState":{"key":"08","name":"Baden-Württemberg"}},{"name":"Hofeckleweg","postalCode":"77709","locality":"Wolfach","municipality":{"key":"08317145","name":"Wolfach, Stadt","type":"Stadt"},"district":{"key":"08317","name":"Ortenaukreis","type":"Landkreis"},"federalState":{"key":"08","name":"Baden-Württemberg"}},{"name":"Hoffelderstr.","postalCode":"77709","locality":"Oberwolfach","municipality":{"key":"08317093","name":"Oberwolfach","type":"Kreisangehörige_Gemeinde"},"district":{"key":"08317","name":"Ortenaukreis","type":"Landkreis"},"federalState":{"key":"08","name":"Baden-Württemberg"}},{"name":"Hohlgassweg","postalCode":"77709","locality":"Wolfach","municipality":{"key":"08317145","name":"Wolfach, Stadt","type":"Stadt"},"district":{"key":"08317","name":"Ortenaukreis","type":"Landkreis"},"federalState":{"key":"08","name":"Baden-Württemberg"}},{"name":"Hohrütte","postalCode":"77709","locality":"Oberwolfach","municipality":{"key":"08317093","name":"Oberwolfach","type":"Kreisangehörige_Gemeinde"},"district":{"key":"08317","name":"Ortenaukreis","type":"Landkreis"},"federalState":{"key":"08","name":"Baden-Württemberg"}},{"name":"Im Gutleutfeld","postalCode":"77709","locality":"Wolfach","municipality":{"key":"08317145","name":"Wolfach, Stadt","type":"Stadt"},"district":{"key":"08317","name":"Ortenaukreis","type":"Landkreis"},"federalState":{"key":"08","name":"Baden-Württemberg"}},{"name":"Im Kirchenfeld","postalCode":"77709","locality":"Wolfach","municipality":{"key":"08317145","name":"Wolfach, Stadt","type":"Stadt"},"district":{"key":"08317","name":"Ortenaukreis","type":"Landkreis"},"federalState":{"key":"08","name":"Baden-Württemberg"}},{"name":"Insel","postalCode":"77709","locality":"Oberwolfach","municipality":{"key":"08317093","name":"Oberwolfach","type":"Kreisangehörige_Gemeinde"},"district":{"key":"08317","name":"Ortenaukreis","type":"Landkreis"},"federalState":{"key":"08","name":"Baden-Württemberg"}},{"name":"Inselweg","postalCode":"77709","locality":"Wolfach","municipality":{"key":"08317145","name":"Wolfach, Stadt","type":"Stadt"},"district":{"key":"08317","name":"Ortenaukreis","type":"Landkreis"},"federalState":{"key":"08","name":"Baden-Württemberg"}},{"name":"Ippichen","postalCode":"77709","locality":"Wolfach","municipality":{"key":"08317145","name":"Wolfach, Stadt","type":"Stadt"},"district":{"key":"08317","name":"Ortenaukreis","type":"Landkreis"},"federalState":{"key":"08","name":"Baden-Württemberg"}},{"name":"Jakob-Faißt-Weg","postalCode":"77709","locality":"Wolfach","municipality":{"key":"08317145","name":"Wolfach, Stadt","type":"Stadt"},"district":{"key":"08317","name":"Ortenaukreis","type":"Landkreis"},"federalState":{"key":"08","name":"Baden-Württemberg"}},{"name":"Johann-Georg-Hildbrand-Str.","postalCode":"77709","locality":"Wolfach","municipality":{"key":"08317145","name":"Wolfach, Stadt","type":"Stadt"},"district":{"key":"08317","name":"Ortenaukreis","type":"Landkreis"},"federalState":{"key":"08","name":"Baden-Württemberg"}},{"name":"Josefsgasse","postalCode":"77709","locality":"Wolfach","municipality":{"key":"08317145","name":"Wolfach, Stadt","type":"Stadt"},"district":{"key":"08317","name":"Ortenaukreis","type":"Landkreis"},"federalState":{"key":"08","name":"Baden-Württemberg"}},{"name":"Kapellenweg","postalCode":"77709","locality":"Oberwolfach","municipality":{"key":"08317093","name":"Oberwolfach","type":"Kreisangehörige_Gemeinde"},"district":{"key":"08317","name":"Ortenaukreis","type":"Landkreis"},"federalState":{"key":"08","name":"Baden-Württemberg"}},{"name":"Kinzigstr.","postalCode":"77709","locality":"Wolfach","municipality":{"key":"08317145","name":"Wolfach, Stadt","type":"Stadt"},"district":{"key":"08317","name":"Ortenaukreis","type":"Landkreis"},"federalState":{"key":"08","name":"Baden-Württemberg"}},{"name":"Kirchplatz","postalCode":"77709","locality":"Wolfach","municipality":{"key":"08317145","name":"Wolfach, Stadt","type":"Stadt"},"district":{"key":"08317","name":"Ortenaukreis","type":"Landkreis"},"federalState":{"key":"08","name":"Baden-Württemberg"}},{"name":"Kirchstr.","postalCode":"77709","locality":"Wolfach","municipality":{"key":"08317145","name":"Wolfach, Stadt","type":"Stadt"},"district":{"key":"08317","name":"Ortenaukreis","type":"Landkreis"},"federalState":{"key":"08","name":"Baden-Württemberg"}},{"name":"Kirnbacher Str.","postalCode":"77709","locality":"Wolfach","municipality":{"key":"08317145","name":"Wolfach, Stadt","type":"Stadt"},"district":{"key":"08317","name":"Ortenaukreis","type":"Landkreis"},"federalState":{"key":"08","name":"Baden-Württemberg"}},{"name":"Kirnbacher Str.;Talstr.","postalCode":"77709","locality":"Wolfach","municipality":{"key":"08317145","name":"Wolfach, Stadt","type":"Stadt"},"district":{"key":"08317","name":"Ortenaukreis","type":"Landkreis"},"federalState":{"key":"08","name":"Baden-Württemberg"}},{"name":"Klausenwaldweg","postalCode":"77709","locality":"Wolfach","municipality":{"key":"08317145","name":"Wolfach, Stadt","type":"Stadt"},"district":{"key":"08317","name":"Ortenaukreis","type":"Landkreis"},"federalState":{"key":"08","name":"Baden-Württemberg"}},{"name":"Kleine Dammstr.","postalCode":"77709","locality":"Wolfach","municipality":{"key":"08317145","name":"Wolfach, Stadt","type":"Stadt"},"district":{"key":"08317","name":"Ortenaukreis","type":"Landkreis"},"federalState":{"key":"08","name":"Baden-Württemberg"}},{"name":"Knappenwaldweg","postalCode":"77709","locality":"Wolfach","municipality":{"key":"08317145","name":"Wolfach, Stadt","type":"Stadt"},"district":{"key":"08317","name":"Ortenaukreis","type":"Landkreis"},"federalState":{"key":"08","name":"Baden-Württemberg"}},{"name":"Königswaldweg","postalCode":"77709","locality":"Oberwolfach","municipality":{"key":"08317093","name":"Oberwolfach","type":"Kreisangehörige_Gemeinde"},"district":{"key":"08317","name":"Ortenaukreis","type":"Landkreis"},"federalState":{"key":"08","name":"Baden-Württemberg"}},{"name":"Konradshofweg","postalCode":"77709","locality":"Wolfach","municipality":{"key":"08317145","name":"Wolfach, Stadt","type":"Stadt"},"district":{"key":"08317","name":"Ortenaukreis","type":"Landkreis"},"federalState":{"key":"08","name":"Baden-Württemberg"}},{"name":"Kostbachweg","postalCode":"77709","locality":"Wolfach","municipality":{"key":"08317145","name":"Wolfach, Stadt","type":"Stadt"},"district":{"key":"08317","name":"Ortenaukreis","type":"Landkreis"},"federalState":{"key":"08","name":"Baden-Württemberg"}},{"name":"Kreuzbergstr.","postalCode":"77709","locality":"Wolfach","municipality":{"key":"08317145","name":"Wolfach, Stadt","type":"Stadt"},"district":{"key":"08317","name":"Ortenaukreis","type":"Landkreis"},"federalState":{"key":"08","name":"Baden-Württemberg"}},{"name":"Kreuzgasse","postalCode":"77709","locality":"Wolfach","municipality":{"key":"08317145","name":"Wolfach, Stadt","type":"Stadt"},"district":{"key":"08317","name":"Ortenaukreis","type":"Landkreis"},"federalState":{"key":"08","name":"Baden-Württemberg"}},{"name":"Kreuzgässle","postalCode":"77709","locality":"Wolfach","municipality":{"key":"08317145","name":"Wolfach, Stadt","type":"Stadt"},"district":{"key":"08317","name":"Ortenaukreis","type":"Landkreis"},"federalState":{"key":"08","name":"Baden-Württemberg"}},{"name":"Landeckweg","postalCode":"77709","locality":"Oberwolfach","municipality":{"key":"08317093","name":"Oberwolfach","type":"Kreisangehörige_Gemeinde"},"district":{"key":"08317","name":"Ortenaukreis","type":"Landkreis"},"federalState":{"key":"08","name":"Baden-Württemberg"}},{"name":"Langenbach","postalCode":"77709","locality":"Wolfach","municipality":{"key":"08317145","name":"Wolfach, Stadt","type":"Stadt"},"district":{"key":"08317","name":"Ortenaukreis","type":"Landkreis"},"federalState":{"key":"08","name":"Baden-Württemberg"}},{"name":"Langenbach-Hangweg","postalCode":"77709","locality":"Wolfach","municipality":{"key":"08317145","name":"Wolfach, Stadt","type":"Stadt"},"district":{"key":"08317","name":"Ortenaukreis","type":"Landkreis"},"federalState":{"key":"08","name":"Baden-Württemberg"}},{"name":"Langweg","postalCode":"77709","locality":"Wolfach","municipality":{"key":"08317145","name":"Wolfach, Stadt","type":"Stadt"},"district":{"key":"08317","name":"Ortenaukreis","type":"Landkreis"},"federalState":{"key":"08","name":"Baden-Württemberg"}},{"name":"Lärchenweg","postalCode":"77709","locality":"Oberwolfach","municipality":{"key":"08317093","name":"Oberwolfach","type":"Kreisangehörige_Gemeinde"},"district":{"key":"08317","name":"Ortenaukreis","type":"Landkreis"},"federalState":{"key":"08","name":"Baden-Württemberg"}},{"name":"Lehmgrube","postalCode":"77709","locality":"Oberwolfach","municipality":{"key":"08317093","name":"Oberwolfach","type":"Kreisangehörige_Gemeinde"},"district":{"key":"08317","name":"Ortenaukreis","type":"Landkreis"},"federalState":{"key":"08","name":"Baden-Württemberg"}},{"name":"Leubach","postalCode":"77709","locality":"Wolfach","municipality":{"key":"08317145","name":"Wolfach, Stadt","type":"Stadt"},"district":{"key":"08317","name":"Ortenaukreis","type":"Landkreis"},"federalState":{"key":"08","name":"Baden-Württemberg"}},{"name":"Luisenstr.","postalCode":"77709","locality":"Wolfach","municipality":{"key":"08317145","name":"Wolfach, Stadt","type":"Stadt"},"district":{"key":"08317","name":"Ortenaukreis","type":"Landkreis"},"federalState":{"key":"08","name":"Baden-Württemberg"}},{"name":"Martin-Luther-Str.","postalCode":"77709","locality":"Wolfach","municipality":{"key":"08317145","name":"Wolfach, Stadt","type":"Stadt"},"district":{"key":"08317","name":"Ortenaukreis","type":"Landkreis"},"federalState":{"key":"08","name":"Baden-Württemberg"}},{"name":"Mattenhof","postalCode":"77709","locality":"Oberwolfach","municipality":{"key":"08317093","name":"Oberwolfach","type":"Kreisangehörige_Gemeinde"},"district":{"key":"08317","name":"Ortenaukreis","type":"Landkreis"},"federalState":{"key":"08","name":"Baden-Württemberg"}},{"name":"Mattenweg","postalCode":"77709","locality":"Oberwolfach","municipality":{"key":"08317093","name":"Oberwolfach","type":"Kreisangehörige_Gemeinde"},"district":{"key":"08317","name":"Ortenaukreis","type":"Landkreis"},"federalState":{"key":"08","name":"Baden-Württemberg"}},{"name":"Mesnergäßle","postalCode":"77709","locality":"Wolfach","municipality":{"key":"08317145","name":"Wolfach, Stadt","type":"Stadt"},"district":{"key":"08317","name":"Ortenaukreis","type":"Landkreis"},"federalState":{"key":"08","name":"Baden-Württemberg"}},{"name":"Mitteltal","postalCode":"77709","locality":"Oberwolfach","municipality":{"key":"08317093","name":"Oberwolfach","type":"Kreisangehörige_Gemeinde"},"district":{"key":"08317","name":"Ortenaukreis","type":"Landkreis"},"federalState":{"key":"08","name":"Baden-Württemberg"}},{"name":"Mitteltal-Krokus-Weg","postalCode":"77709","locality":"Oberwolfach","municipality":{"key":"08317093","name":"Oberwolfach","type":"Kreisangehörige_Gemeinde"},"district":{"key":"08317","name":"Ortenaukreis","type":"Landkreis"},"federalState":{"key":"08","name":"Baden-Württemberg"}},{"name":"Mittlerer Katzenlochweg","postalCode":"77709","locality":"Wolfach","municipality":{"key":"08317145","name":"Wolfach, Stadt","type":"Stadt"},"district":{"key":"08317","name":"Ortenaukreis","type":"Landkreis"},"federalState":{"key":"08","name":"Baden-Württemberg"}},{"name":"Mittlerer Kostbachweg","postalCode":"77709","locality":"Wolfach","municipality":{"key":"08317145","name":"Wolfach, Stadt","type":"Stadt"},"district":{"key":"08317","name":"Ortenaukreis","type":"Landkreis"},"federalState":{"key":"08","name":"Baden-Württemberg"}},{"name":"Morgethofweg","postalCode":"77709","locality":"Wolfach","municipality":{"key":"08317145","name":"Wolfach, Stadt","type":"Stadt"},"district":{"key":"08317","name":"Ortenaukreis","type":"Landkreis"},"federalState":{"key":"08","name":"Baden-Württemberg"}},{"name":"Mühlengrün","postalCode":"77709","locality":"Oberwolfach","municipality":{"key":"08317093","name":"Oberwolfach","type":"Kreisangehörige_Gemeinde"},"district":{"key":"08317","name":"Ortenaukreis","type":"Landkreis"},"federalState":{"key":"08","name":"Baden-Württemberg"}},{"name":"Mühlenstr.","postalCode":"77709","locality":"Wolfach","municipality":{"key":"08317145","name":"Wolfach, Stadt","type":"Stadt"},"district":{"key":"08317","name":"Ortenaukreis","type":"Landkreis"},"federalState":{"key":"08","name":"Baden-Württemberg"}},{"name":"Neuer Jakobswaldweg","postalCode":"77709","locality":"Wolfach","municipality":{"key":"08317145","name":"Wolfach, Stadt","type":"Stadt"},"district":{"key":"08317","name":"Ortenaukreis","type":"Landkreis"},"federalState":{"key":"08","name":"Baden-Württemberg"}},{"name":"Neuer Vorstadtbergweg","postalCode":"77709","locality":"Wolfach","municipality":{"key":"08317145","name":"Wolfach, Stadt","type":"Stadt"},"district":{"key":"08317","name":"Ortenaukreis","type":"Landkreis"},"federalState":{"key":"08","name":"Baden-Württemberg"}},{"name":"Neuer Wolfbergbergweg","postalCode":"77709","locality":"Wolfach","municipality":{"key":"08317145","name":"Wolfach, Stadt","type":"Stadt"},"district":{"key":"08317","name":"Ortenaukreis","type":"Landkreis"},"federalState":{"key":"08","name":"Baden-Württemberg"}},{"name":"Obere Baumgartenstr.","postalCode":"77709","locality":"Wolfach","municipality":{"key":"08317145","name":"Wolfach, Stadt","type":"Stadt"},"district":{"key":"08317","name":"Ortenaukreis","type":"Landkreis"},"federalState":{"key":"08","name":"Baden-Württemberg"}},{"name":"Obere Rebbergstr.","postalCode":"77709","locality":"Wolfach","municipality":{"key":"08317145","name":"Wolfach, Stadt","type":"Stadt"},"district":{"key":"08317","name":"Ortenaukreis","type":"Landkreis"},"federalState":{"key":"08","name":"Baden-Württemberg"}},{"name":"Oberer Grubhofweg","postalCode":"77709","locality":"Wolfach","municipality":{"key":"08317145","name":"Wolfach, Stadt","type":"Stadt"},"district":{"key":"08317","name":"Ortenaukreis","type":"Landkreis"},"federalState":{"key":"08","name":"Baden-Württemberg"}},{"name":"Oberer Höllweg","postalCode":"77709","locality":"Oberwolfach","municipality":{"key":"08317093","name":"Oberwolfach","type":"Kreisangehörige_Gemeinde"},"district":{"key":"08317","name":"Ortenaukreis","type":"Landkreis"},"federalState":{"key":"08","name":"Baden-Württemberg"}},{"name":"Oberer Kastaniendobel","postalCode":"77709","locality":"Wolfach","municipality":{"key":"08317145","name":"Wolfach, Stadt","type":"Stadt"},"district":{"key":"08317","name":"Ortenaukreis","type":"Landkreis"},"federalState":{"key":"08","name":"Baden-Württemberg"}},{"name":"Oberer Katzenlochweg","postalCode":"77709","locality":"Wolfach","municipality":{"key":"08317145","name":"Wolfach, Stadt","type":"Stadt"},"district":{"key":"08317","name":"Ortenaukreis","type":"Landkreis"},"federalState":{"key":"08","name":"Baden-Württemberg"}},{"name":"Oberer Teufelsküchenweg","postalCode":"77709","locality":"Wolfach","municipality":{"key":"08317145","name":"Wolfach, Stadt","type":"Stadt"},"district":{"key":"08317","name":"Ortenaukreis","type":"Landkreis"},"federalState":{"key":"08","name":"Baden-Württemberg"}},{"name":"Oberwolfacher Str.","postalCode":"77709","locality":"Oberwolfach","municipality":{"key":"08317093","name":"Oberwolfach","type":"Kreisangehörige_Gemeinde"},"district":{"key":"08317","name":"Ortenaukreis","type":"Landkreis"},"federalState":{"key":"08","name":"Baden-Württemberg"}},{"name":"Oberwolfacher Str.","postalCode":"77709","locality":"Wolfach","municipality":{"key":"08317145","name":"Wolfach, Stadt","type":"Stadt"},"district":{"key":"08317","name":"Ortenaukreis","type":"Landkreis"},"federalState":{"key":"08","name":"Baden-Württemberg"}},{"name":"Ostlandstr.","postalCode":"77709","locality":"Wolfach","municipality":{"key":"08317145","name":"Wolfach, Stadt","type":"Stadt"},"district":{"key":"08317","name":"Ortenaukreis","type":"Landkreis"},"federalState":{"key":"08","name":"Baden-Württemberg"}},{"name":"Panoramaweg","postalCode":"77709","locality":"Wolfach","municipality":{"key":"08317145","name":"Wolfach, Stadt","type":"Stadt"},"district":{"key":"08317","name":"Ortenaukreis","type":"Landkreis"},"federalState":{"key":"08","name":"Baden-Württemberg"}},{"name":"Place de Still","postalCode":"77709","locality":"Oberwolfach","municipality":{"key":"08317093","name":"Oberwolfach","type":"Kreisangehörige_Gemeinde"},"district":{"key":"08317","name":"Ortenaukreis","type":"Landkreis"},"federalState":{"key":"08","name":"Baden-Württemberg"}},{"name":"Rankach","postalCode":"77709","locality":"Oberwolfach","municipality":{"key":"08317093","name":"Oberwolfach","type":"Kreisangehörige_Gemeinde"},"district":{"key":"08317","name":"Ortenaukreis","type":"Landkreis"},"federalState":{"key":"08","name":"Baden-Württemberg"}},{"name":"Rathausstr.","postalCode":"77709","locality":"Oberwolfach","municipality":{"key":"08317093","name":"Oberwolfach","type":"Kreisangehörige_Gemeinde"},"district":{"key":"08317","name":"Ortenaukreis","type":"Landkreis"},"federalState":{"key":"08","name":"Baden-Württemberg"}},{"name":"Reutherbergtunnel","postalCode":"77709","locality":"Wolfach","municipality":{"key":"08317145","name":"Wolfach, Stadt","type":"Stadt"},"district":{"key":"08317","name":"Ortenaukreis","type":"Landkreis"},"federalState":{"key":"08","name":"Baden-Württemberg"}},{"name":"Riegelsberg - Horbenweg","postalCode":"77709","locality":"Wolfach","municipality":{"key":"08317145","name":"Wolfach, Stadt","type":"Stadt"},"district":{"key":"08317","name":"Ortenaukreis","type":"Landkreis"},"federalState":{"key":"08","name":"Baden-Württemberg"}},{"name":"Riegelsbergweg","postalCode":"77709","locality":"Wolfach","municipality":{"key":"08317145","name":"Wolfach, Stadt","type":"Stadt"},"district":{"key":"08317","name":"Ortenaukreis","type":"Landkreis"},"federalState":{"key":"08","name":"Baden-Württemberg"}},{"name":"Ringstr.","postalCode":"77709","locality":"Oberwolfach","municipality":{"key":"08317093","name":"Oberwolfach","type":"Kreisangehörige_Gemeinde"},"district":{"key":"08317","name":"Ortenaukreis","type":"Landkreis"},"federalState":{"key":"08","name":"Baden-Württemberg"}},{"name":"Rosenstr.","postalCode":"77709","locality":"Oberwolfach","municipality":{"key":"08317093","name":"Oberwolfach","type":"Kreisangehörige_Gemeinde"},"district":{"key":"08317","name":"Ortenaukreis","type":"Landkreis"},"federalState":{"key":"08","name":"Baden-Württemberg"}},{"name":"Rotsal","postalCode":"77709","locality":"Wolfach","municipality":{"key":"08317145","name":"Wolfach, Stadt","type":"Stadt"},"district":{"key":"08317","name":"Ortenaukreis","type":"Landkreis"},"federalState":{"key":"08","name":"Baden-Württemberg"}},{"name":"Rotsalhangweg","postalCode":"77709","locality":"Wolfach","municipality":{"key":"08317145","name":"Wolfach, Stadt","type":"Stadt"},"district":{"key":"08317","name":"Ortenaukreis","type":"Landkreis"},"federalState":{"key":"08","name":"Baden-Württemberg"}},{"name":"Saarlandstr.","postalCode":"77709","locality":"Wolfach","municipality":{"key":"08317145","name":"Wolfach, Stadt","type":"Stadt"},"district":{"key":"08317","name":"Ortenaukreis","type":"Landkreis"},"federalState":{"key":"08","name":"Baden-Württemberg"}},{"name":"Sackweg","postalCode":"77709","locality":"Wolfach","municipality":{"key":"08317145","name":"Wolfach, Stadt","type":"Stadt"},"district":{"key":"08317","name":"Ortenaukreis","type":"Landkreis"},"federalState":{"key":"08","name":"Baden-Württemberg"}},{"name":"Schiltacher Str.","postalCode":"77709","locality":"Wolfach","municipality":{"key":"08317145","name":"Wolfach, Stadt","type":"Stadt"},"district":{"key":"08317","name":"Ortenaukreis","type":"Landkreis"},"federalState":{"key":"08","name":"Baden-Württemberg"}},{"name":"Schlössleblick","postalCode":"77709","locality":"Oberwolfach","municipality":{"key":"08317093","name":"Oberwolfach","type":"Kreisangehörige_Gemeinde"},"district":{"key":"08317","name":"Ortenaukreis","type":"Landkreis"},"federalState":{"key":"08","name":"Baden-Württemberg"}},{"name":"Schlößleweg","postalCode":"77709","locality":"Wolfach","municipality":{"key":"08317145","name":"Wolfach, Stadt","type":"Stadt"},"district":{"key":"08317","name":"Ortenaukreis","type":"Landkreis"},"federalState":{"key":"08","name":"Baden-Württemberg"}},{"name":"Schloßstr.","postalCode":"77709","locality":"Wolfach","municipality":{"key":"08317145","name":"Wolfach, Stadt","type":"Stadt"},"district":{"key":"08317","name":"Ortenaukreis","type":"Landkreis"},"federalState":{"key":"08","name":"Baden-Württemberg"}},{"name":"Schmittegrundweg","postalCode":"77709","locality":"Wolfach","municipality":{"key":"08317145","name":"Wolfach, Stadt","type":"Stadt"},"district":{"key":"08317","name":"Ortenaukreis","type":"Landkreis"},"federalState":{"key":"08","name":"Baden-Württemberg"}},{"name":"Schmittehofstr.","postalCode":"77709","locality":"Wolfach","municipality":{"key":"08317145","name":"Wolfach, Stadt","type":"Stadt"},"district":{"key":"08317","name":"Ortenaukreis","type":"Landkreis"},"federalState":{"key":"08","name":"Baden-Württemberg"}},{"name":"Schondelweg","postalCode":"77709","locality":"Wolfach","municipality":{"key":"08317145","name":"Wolfach, Stadt","type":"Stadt"},"district":{"key":"08317","name":"Ortenaukreis","type":"Landkreis"},"federalState":{"key":"08","name":"Baden-Württemberg"}},{"name":"Schulstr.","postalCode":"77709","locality":"Oberwolfach","municipality":{"key":"08317093","name":"Oberwolfach","type":"Kreisangehörige_Gemeinde"},"district":{"key":"08317","name":"Ortenaukreis","type":"Landkreis"},"federalState":{"key":"08","name":"Baden-Württemberg"}},{"name":"Schulstr.","postalCode":"77709","locality":"Wolfach","municipality":{"key":"08317145","name":"Wolfach, Stadt","type":"Stadt"},"district":{"key":"08317","name":"Ortenaukreis","type":"Landkreis"},"federalState":{"key":"08","name":"Baden-Württemberg"}},{"name":"Schwarzenbruch","postalCode":"77709","locality":"Oberwolfach","municipality":{"key":"08317093","name":"Oberwolfach","type":"Kreisangehörige_Gemeinde"},"district":{"key":"08317","name":"Ortenaukreis","type":"Landkreis"},"federalState":{"key":"08","name":"Baden-Württemberg"}},{"name":"Schwarzwaldstr.","postalCode":"77709","locality":"Oberwolfach","municipality":{"key":"08317093","name":"Oberwolfach","type":"Kreisangehörige_Gemeinde"},"district":{"key":"08317","name":"Ortenaukreis","type":"Landkreis"},"federalState":{"key":"08","name":"Baden-Württemberg"}},{"name":"Serrerkapfweg","postalCode":"77709","locality":"Wolfach","municipality":{"key":"08317145","name":"Wolfach, Stadt","type":"Stadt"},"district":{"key":"08317","name":"Ortenaukreis","type":"Landkreis"},"federalState":{"key":"08","name":"Baden-Württemberg"}},{"name":"Siechenwaldweg","postalCode":"77709","locality":"Wolfach","municipality":{"key":"08317145","name":"Wolfach, Stadt","type":"Stadt"},"district":{"key":"08317","name":"Ortenaukreis","type":"Landkreis"},"federalState":{"key":"08","name":"Baden-Württemberg"}},{"name":"Siedlerweg","postalCode":"77709","locality":"Wolfach","municipality":{"key":"08317145","name":"Wolfach, Stadt","type":"Stadt"},"district":{"key":"08317","name":"Ortenaukreis","type":"Landkreis"},"federalState":{"key":"08","name":"Baden-Württemberg"}},{"name":"Silberlöchle","postalCode":"77709","locality":"Oberwolfach","municipality":{"key":"08317093","name":"Oberwolfach","type":"Kreisangehörige_Gemeinde"},"district":{"key":"08317","name":"Ortenaukreis","type":"Landkreis"},"federalState":{"key":"08","name":"Baden-Württemberg"}},{"name":"Sommerbergweg","postalCode":"77709","locality":"Wolfach","municipality":{"key":"08317145","name":"Wolfach, Stadt","type":"Stadt"},"district":{"key":"08317","name":"Ortenaukreis","type":"Landkreis"},"federalState":{"key":"08","name":"Baden-Württemberg"}},{"name":"Sonnenmatte","postalCode":"77709","locality":"Oberwolfach","municipality":{"key":"08317093","name":"Oberwolfach","type":"Kreisangehörige_Gemeinde"},"district":{"key":"08317","name":"Ortenaukreis","type":"Landkreis"},"federalState":{"key":"08","name":"Baden-Württemberg"}},{"name":"Sonnenmatte","postalCode":"77709","locality":"Wolfach","municipality":{"key":"08317145","name":"Wolfach, Stadt","type":"Stadt"},"district":{"key":"08317","name":"Ortenaukreis","type":"Landkreis"},"federalState":{"key":"08","name":"Baden-Württemberg"}},{"name":"Sonnhalde","postalCode":"77709","locality":"Wolfach","municipality":{"key":"08317145","name":"Wolfach, Stadt","type":"Stadt"},"district":{"key":"08317","name":"Ortenaukreis","type":"Landkreis"},"federalState":{"key":"08","name":"Baden-Württemberg"}},{"name":"Spitzbergweg","postalCode":"77709","locality":"Wolfach","municipality":{"key":"08317145","name":"Wolfach, Stadt","type":"Stadt"},"district":{"key":"08317","name":"Ortenaukreis","type":"Landkreis"},"federalState":{"key":"08","name":"Baden-Württemberg"}},{"name":"Spitzfelsenweg","postalCode":"77709","locality":"Wolfach","municipality":{"key":"08317145","name":"Wolfach, Stadt","type":"Stadt"},"district":{"key":"08317","name":"Ortenaukreis","type":"Landkreis"},"federalState":{"key":"08","name":"Baden-Württemberg"}},{"name":"Sportplatzstr.","postalCode":"77709","locality":"Oberwolfach","municipality":{"key":"08317093","name":"Oberwolfach","type":"Kreisangehörige_Gemeinde"},"district":{"key":"08317","name":"Ortenaukreis","type":"Landkreis"},"federalState":{"key":"08","name":"Baden-Württemberg"}},{"name":"Staufenkopfweg","postalCode":"77709","locality":"Wolfach","municipality":{"key":"08317145","name":"Wolfach, Stadt","type":"Stadt"},"district":{"key":"08317","name":"Ortenaukreis","type":"Landkreis"},"federalState":{"key":"08","name":"Baden-Württemberg"}},{"name":"Staufenweg","postalCode":"77709","locality":"Oberwolfach","municipality":{"key":"08317093","name":"Oberwolfach","type":"Kreisangehörige_Gemeinde"},"district":{"key":"08317","name":"Ortenaukreis","type":"Landkreis"},"federalState":{"key":"08","name":"Baden-Württemberg"}},{"name":"Steffelsbachhöhenweg","postalCode":"77709","locality":"Wolfach","municipality":{"key":"08317145","name":"Wolfach, Stadt","type":"Stadt"},"district":{"key":"08317","name":"Ortenaukreis","type":"Landkreis"},"federalState":{"key":"08","name":"Baden-Württemberg"}},{"name":"St. Jakobsweg","postalCode":"77709","locality":"Wolfach","municipality":{"key":"08317145","name":"Wolfach, Stadt","type":"Stadt"},"district":{"key":"08317","name":"Ortenaukreis","type":"Landkreis"},"federalState":{"key":"08","name":"Baden-Württemberg"}},{"name":"St. Jakobsweg / Salomonweg","postalCode":"77709","locality":"Wolfach","municipality":{"key":"08317145","name":"Wolfach, Stadt","type":"Stadt"},"district":{"key":"08317","name":"Ortenaukreis","type":"Landkreis"},"federalState":{"key":"08","name":"Baden-Württemberg"}},{"name":"Straßburgerhofstr.","postalCode":"77709","locality":"Wolfach","municipality":{"key":"08317145","name":"Wolfach, Stadt","type":"Stadt"},"district":{"key":"08317","name":"Ortenaukreis","type":"Landkreis"},"federalState":{"key":"08","name":"Baden-Württemberg"}},{"name":"St. Roman","postalCode":"77709","locality":"Wolfach","municipality":{"key":"08317145","name":"Wolfach, Stadt","type":"Stadt"},"district":{"key":"08317","name":"Ortenaukreis","type":"Landkreis"},"federalState":{"key":"08","name":"Baden-Württemberg"}},{"name":"Sulzbächle","postalCode":"77709","locality":"Wolfach","municipality":{"key":"08317145","name":"Wolfach, Stadt","type":"Stadt"},"district":{"key":"08317","name":"Ortenaukreis","type":"Landkreis"},"federalState":{"key":"08","name":"Baden-Württemberg"}},{"name":"Talstr.","postalCode":"77709","locality":"Wolfach","municipality":{"key":"08317145","name":"Wolfach, Stadt","type":"Stadt"},"district":{"key":"08317","name":"Ortenaukreis","type":"Landkreis"},"federalState":{"key":"08","name":"Baden-Württemberg"}},{"name":"Teufeslküchenweg","postalCode":"77709","locality":"Wolfach","municipality":{"key":"08317145","name":"Wolfach, Stadt","type":"Stadt"},"district":{"key":"08317","name":"Ortenaukreis","type":"Landkreis"},"federalState":{"key":"08","name":"Baden-Württemberg"}},{"name":"Tiefenbachhangweg","postalCode":"77709","locality":"Oberwolfach","municipality":{"key":"08317093","name":"Oberwolfach","type":"Kreisangehörige_Gemeinde"},"district":{"key":"08317","name":"Ortenaukreis","type":"Landkreis"},"federalState":{"key":"08","name":"Baden-Württemberg"}},{"name":"Trillengrundweg","postalCode":"77709","locality":"Wolfach","municipality":{"key":"08317145","name":"Wolfach, Stadt","type":"Stadt"},"district":{"key":"08317","name":"Ortenaukreis","type":"Landkreis"},"federalState":{"key":"08","name":"Baden-Württemberg"}},{"name":"Untere Bahnhofstr.","postalCode":"77709","locality":"Wolfach","municipality":{"key":"08317145","name":"Wolfach, Stadt","type":"Stadt"},"district":{"key":"08317","name":"Ortenaukreis","type":"Landkreis"},"federalState":{"key":"08","name":"Baden-Württemberg"}},{"name":"Untere Rebbergstr.","postalCode":"77709","locality":"Wolfach","municipality":{"key":"08317145","name":"Wolfach, Stadt","type":"Stadt"},"district":{"key":"08317","name":"Ortenaukreis","type":"Landkreis"},"federalState":{"key":"08","name":"Baden-Württemberg"}},{"name":"Unterer Gittwaldweg","postalCode":"77709","locality":"Wolfach","municipality":{"key":"08317145","name":"Wolfach, Stadt","type":"Stadt"},"district":{"key":"08317","name":"Ortenaukreis","type":"Landkreis"},"federalState":{"key":"08","name":"Baden-Württemberg"}},{"name":"Unterer Schirlebergweg","postalCode":"77709","locality":"Wolfach","municipality":{"key":"08317145","name":"Wolfach, Stadt","type":"Stadt"},"district":{"key":"08317","name":"Ortenaukreis","type":"Landkreis"},"federalState":{"key":"08","name":"Baden-Württemberg"}},{"name":"Untere Zinne","postalCode":"77709","locality":"Wolfach","municipality":{"key":"08317145","name":"Wolfach, Stadt","type":"Stadt"},"district":{"key":"08317","name":"Ortenaukreis","type":"Landkreis"},"federalState":{"key":"08","name":"Baden-Württemberg"}},{"name":"Unterm Schlössle","postalCode":"77709","locality":"Oberwolfach","municipality":{"key":"08317093","name":"Oberwolfach","type":"Kreisangehörige_Gemeinde"},"district":{"key":"08317","name":"Ortenaukreis","type":"Landkreis"},"federalState":{"key":"08","name":"Baden-Württemberg"}},{"name":"Unterm Spitzfelsen","postalCode":"77709","locality":"Wolfach","municipality":{"key":"08317145","name":"Wolfach, Stadt","type":"Stadt"},"district":{"key":"08317","name":"Ortenaukreis","type":"Landkreis"},"federalState":{"key":"08","name":"Baden-Württemberg"}},{"name":"Unterwöhrlehofweg","postalCode":"77709","locality":"Wolfach","municipality":{"key":"08317145","name":"Wolfach, Stadt","type":"Stadt"},"district":{"key":"08317","name":"Ortenaukreis","type":"Landkreis"},"federalState":{"key":"08","name":"Baden-Württemberg"}},{"name":"Viktoriastr.","postalCode":"77709","locality":"Wolfach","municipality":{"key":"08317145","name":"Wolfach, Stadt","type":"Stadt"},"district":{"key":"08317","name":"Ortenaukreis","type":"Landkreis"},"federalState":{"key":"08","name":"Baden-Württemberg"}},{"name":"Vogtsbachweg","postalCode":"77709","locality":"Wolfach","municipality":{"key":"08317145","name":"Wolfach, Stadt","type":"Stadt"},"district":{"key":"08317","name":"Ortenaukreis","type":"Landkreis"},"federalState":{"key":"08","name":"Baden-Württemberg"}},{"name":"Vogtsjörgehofweg","postalCode":"77709","locality":"Wolfach","municipality":{"key":"08317145","name":"Wolfach, Stadt","type":"Stadt"},"district":{"key":"08317","name":"Ortenaukreis","type":"Landkreis"},"federalState":{"key":"08","name":"Baden-Württemberg"}},{"name":"Vollmersweg","postalCode":"77709","locality":"Wolfach","municipality":{"key":"08317145","name":"Wolfach, Stadt","type":"Stadt"},"district":{"key":"08317","name":"Ortenaukreis","type":"Landkreis"},"federalState":{"key":"08","name":"Baden-Württemberg"}},{"name":"Vor Burggraben","postalCode":"77709","locality":"Oberwolfach","municipality":{"key":"08317093","name":"Oberwolfach","type":"Kreisangehörige_Gemeinde"},"district":{"key":"08317","name":"Ortenaukreis","type":"Landkreis"},"federalState":{"key":"08","name":"Baden-Württemberg"}},{"name":"Vor Burggraben","postalCode":"77709","locality":"Wolfach","municipality":{"key":"08317145","name":"Wolfach, Stadt","type":"Stadt"},"district":{"key":"08317","name":"Ortenaukreis","type":"Landkreis"},"federalState":{"key":"08","name":"Baden-Württemberg"}},{"name":"Vor Heubach","postalCode":"77709","locality":"Wolfach","municipality":{"key":"08317145","name":"Wolfach, Stadt","type":"Stadt"},"district":{"key":"08317","name":"Ortenaukreis","type":"Landkreis"},"federalState":{"key":"08","name":"Baden-Württemberg"}},{"name":"Vorstadtstr.","postalCode":"77709","locality":"Wolfach","municipality":{"key":"08317145","name":"Wolfach, Stadt","type":"Stadt"},"district":{"key":"08317","name":"Ortenaukreis","type":"Landkreis"},"federalState":{"key":"08","name":"Baden-Württemberg"}},{"name":"Waldbühlweg","postalCode":"77709","locality":"Wolfach","municipality":{"key":"08317145","name":"Wolfach, Stadt","type":"Stadt"},"district":{"key":"08317","name":"Ortenaukreis","type":"Landkreis"},"federalState":{"key":"08","name":"Baden-Württemberg"}},{"name":"Waldhans","postalCode":"77709","locality":"Oberwolfach","municipality":{"key":"08317093","name":"Oberwolfach","type":"Kreisangehörige_Gemeinde"},"district":{"key":"08317","name":"Ortenaukreis","type":"Landkreis"},"federalState":{"key":"08","name":"Baden-Württemberg"}},{"name":"Waldhäuser","postalCode":"77709","locality":"Wolfach","municipality":{"key":"08317145","name":"Wolfach, Stadt","type":"Stadt"},"district":{"key":"08317","name":"Ortenaukreis","type":"Landkreis"},"federalState":{"key":"08","name":"Baden-Württemberg"}},{"name":"Waldstr.","postalCode":"77709","locality":"Oberwolfach","municipality":{"key":"08317093","name":"Oberwolfach","type":"Kreisangehörige_Gemeinde"},"district":{"key":"08317","name":"Ortenaukreis","type":"Landkreis"},"federalState":{"key":"08","name":"Baden-Württemberg"}},{"name":"Wäschergäßle","postalCode":"77709","locality":"Wolfach","municipality":{"key":"08317145","name":"Wolfach, Stadt","type":"Stadt"},"district":{"key":"08317","name":"Ortenaukreis","type":"Landkreis"},"federalState":{"key":"08","name":"Baden-Württemberg"}},{"name":"Weihermatte","postalCode":"77709","locality":"Wolfach","municipality":{"key":"08317145","name":"Wolfach, Stadt","type":"Stadt"},"district":{"key":"08317","name":"Ortenaukreis","type":"Landkreis"},"federalState":{"key":"08","name":"Baden-Württemberg"}},{"name":"Wiesenweg","postalCode":"77709","locality":"Oberwolfach","municipality":{"key":"08317093","name":"Oberwolfach","type":"Kreisangehörige_Gemeinde"},"district":{"key":"08317","name":"Ortenaukreis","type":"Landkreis"},"federalState":{"key":"08","name":"Baden-Württemberg"}},{"name":"Wolfbergstr.","postalCode":"77709","locality":"Oberwolfach","municipality":{"key":"08317093","name":"Oberwolfach","type":"Kreisangehörige_Gemeinde"},"district":{"key":"08317","name":"Ortenaukreis","type":"Landkreis"},"federalState":{"key":"08","name":"Baden-Württemberg"}},{"name":"Wölfleloch","postalCode":"77709","locality":"Oberwolfach","municipality":{"key":"08317093","name":"Oberwolfach","type":"Kreisangehörige_Gemeinde"},"district":{"key":"08317","name":"Ortenaukreis","type":"Landkreis"},"federalState":{"key":"08","name":"Baden-Württemberg"}},{"name":"Wolfsbachweg","postalCode":"77709","locality":"Wolfach","municipality":{"key":"08317145","name":"Wolfach, Stadt","type":"Stadt"},"district":{"key":"08317","name":"Ortenaukreis","type":"Landkreis"},"federalState":{"key":"08","name":"Baden-Württemberg"}},{"name":"Wolfsbergstr.","postalCode":"77709","locality":"Oberwolfach","municipality":{"key":"08317093","name":"Oberwolfach","type":"Kreisangehörige_Gemeinde"},"district":{"key":"08317","name":"Ortenaukreis","type":"Landkreis"},"federalState":{"key":"08","name":"Baden-Württemberg"}},{"name":"Wolfswinkel","postalCode":"77709","locality":"Oberwolfach","municipality":{"key":"08317093","name":"Oberwolfach","type":"Kreisangehörige_Gemeinde"},"district":{"key":"08317","name":"Ortenaukreis","type":"Landkreis"},"federalState":{"key":"08","name":"Baden-Württemberg"}},{"name":"Wolftalstr.","postalCode":"77709","locality":"Oberwolfach","municipality":{"key":"08317093","name":"Oberwolfach","type":"Kreisangehörige_Gemeinde"},"district":{"key":"08317","name":"Ortenaukreis","type":"Landkreis"},"federalState":{"key":"08","name":"Baden-Württemberg"}},{"name":"Ziegelhüttenweg","postalCode":"77709","locality":"Oberwolfach","municipality":{"key":"08317093","name":"Oberwolfach","type":"Kreisangehörige_Gemeinde"},"district":{"key":"08317","name":"Ortenaukreis","type":"Landkreis"},"federalState":{"key":"08","name":"Baden-Württemberg"}},{"name":"Ziegelmättle","postalCode":"77709","locality":"Wolfach","municipality":{"key":"08317145","name":"Wolfach, Stadt","type":"Stadt"},"district":{"key":"08317","name":"Ortenaukreis","type":"Landkreis"},"federalState":{"key":"08","name":"Baden-Württemberg"}},{"name":"Zienestr.","postalCode":"77709","locality":"Wolfach","municipality":{"key":"08317145","name":"Wolfach, Stadt","type":"Stadt"},"district":{"key":"08317","name":"Ortenaukreis","type":"Landkreis"},"federalState":{"key":"08","name":"Baden-Württemberg"}},{"name":"Übelbachhangweg","postalCode":"77709","locality":"Wolfach","municipality":{"key":"08317145","name":"Wolfach, Stadt","type":"Stadt"},"district":{"key":"08317","name":"Ortenaukreis","type":"Landkreis"},"federalState":{"key":"08","name":"Baden-Württemberg"}},{"name":"Übelwasenweg","postalCode":"77709","locality":"Wolfach","municipality":{"key":"08317145","name":"Wolfach, Stadt","type":"Stadt"},"district":{"key":"08317","name":"Ortenaukreis","type":"Landkreis"},"federalState":{"key":"08","name":"Baden-Württemberg"}},]