[{"name":"Adamweg","postalCode":"16348","locality":"Wandlitz","municipality":{"key":"12060269","name":"Wandlitz","type":"Kreisangehörige_Gemeinde"},"district":{"key":"12060","name":"Barnim","type":"Landkreis"},"federalState":{"key":"12","name":"Brandenburg"}},{"name":"Ahornallee","postalCode":"16348","locality":"Wandlitz","municipality":{"key":"12060269","name":"Wandlitz","type":"Kreisangehörige_Gemeinde"},"district":{"key":"12060","name":"Barnim","type":"Landkreis"},"federalState":{"key":"12","name":"Brandenburg"}},{"name":"Ahornstr.","postalCode":"16348","locality":"Wandlitz","municipality":{"key":"12060269","name":"Wandlitz","type":"Kreisangehörige_Gemeinde"},"district":{"key":"12060","name":"Barnim","type":"Landkreis"},"federalState":{"key":"12","name":"Brandenburg"}},{"name":"Ahornweg","postalCode":"16348","locality":"Wandlitz","municipality":{"key":"12060269","name":"Wandlitz","type":"Kreisangehörige_Gemeinde"},"district":{"key":"12060","name":"Barnim","type":"Landkreis"},"federalState":{"key":"12","name":"Brandenburg"}},{"name":"Ahrendseer Weg","postalCode":"16348","locality":"Wandlitz","municipality":{"key":"12060269","name":"Wandlitz","type":"Kreisangehörige_Gemeinde"},"district":{"key":"12060","name":"Barnim","type":"Landkreis"},"federalState":{"key":"12","name":"Brandenburg"}},{"name":"Akazienallee","postalCode":"16348","locality":"Wandlitz","municipality":{"key":"12060269","name":"Wandlitz","type":"Kreisangehörige_Gemeinde"},"district":{"key":"12060","name":"Barnim","type":"Landkreis"},"federalState":{"key":"12","name":"Brandenburg"}},{"name":"Akazienhain","postalCode":"16348","locality":"Wandlitz","municipality":{"key":"12060269","name":"Wandlitz","type":"Kreisangehörige_Gemeinde"},"district":{"key":"12060","name":"Barnim","type":"Landkreis"},"federalState":{"key":"12","name":"Brandenburg"}},{"name":"Akazienstr.","postalCode":"16348","locality":"Wandlitz","municipality":{"key":"12060269","name":"Wandlitz","type":"Kreisangehörige_Gemeinde"},"district":{"key":"12060","name":"Barnim","type":"Landkreis"},"federalState":{"key":"12","name":"Brandenburg"}},{"name":"Akazienweg","postalCode":"16348","locality":"Wandlitz","municipality":{"key":"12060269","name":"Wandlitz","type":"Kreisangehörige_Gemeinde"},"district":{"key":"12060","name":"Barnim","type":"Landkreis"},"federalState":{"key":"12","name":"Brandenburg"}},{"name":"Alte Bahn","postalCode":"16348","locality":"Wandlitz","municipality":{"key":"12060269","name":"Wandlitz","type":"Kreisangehörige_Gemeinde"},"district":{"key":"12060","name":"Barnim","type":"Landkreis"},"federalState":{"key":"12","name":"Brandenburg"}},{"name":"Alte Lindenstr.","postalCode":"16348","locality":"Wandlitz","municipality":{"key":"12060269","name":"Wandlitz","type":"Kreisangehörige_Gemeinde"},"district":{"key":"12060","name":"Barnim","type":"Landkreis"},"federalState":{"key":"12","name":"Brandenburg"}},{"name":"Alter Bernauer Heerweg","postalCode":"16348","locality":"Wandlitz","municipality":{"key":"12060269","name":"Wandlitz","type":"Kreisangehörige_Gemeinde"},"district":{"key":"12060","name":"Barnim","type":"Landkreis"},"federalState":{"key":"12","name":"Brandenburg"}},{"name":"Alte Sackgasse","postalCode":"16348","locality":"Wandlitz","municipality":{"key":"12060269","name":"Wandlitz","type":"Kreisangehörige_Gemeinde"},"district":{"key":"12060","name":"Barnim","type":"Landkreis"},"federalState":{"key":"12","name":"Brandenburg"}},{"name":"Alte Schule","postalCode":"16348","locality":"Wandlitz","municipality":{"key":"12060269","name":"Wandlitz","type":"Kreisangehörige_Gemeinde"},"district":{"key":"12060","name":"Barnim","type":"Landkreis"},"federalState":{"key":"12","name":"Brandenburg"}},{"name":"Am Amselsang","postalCode":"16348","locality":"Wandlitz","municipality":{"key":"12060269","name":"Wandlitz","type":"Kreisangehörige_Gemeinde"},"district":{"key":"12060","name":"Barnim","type":"Landkreis"},"federalState":{"key":"12","name":"Brandenburg"}},{"name":"Am Anger","postalCode":"16348","locality":"Wandlitz","municipality":{"key":"12060269","name":"Wandlitz","type":"Kreisangehörige_Gemeinde"},"district":{"key":"12060","name":"Barnim","type":"Landkreis"},"federalState":{"key":"12","name":"Brandenburg"}},{"name":"Am Bahnhof","postalCode":"16348","locality":"Wandlitz","municipality":{"key":"12060269","name":"Wandlitz","type":"Kreisangehörige_Gemeinde"},"district":{"key":"12060","name":"Barnim","type":"Landkreis"},"federalState":{"key":"12","name":"Brandenburg"}},{"name":"Am Bärwinkel","postalCode":"16348","locality":"Wandlitz","municipality":{"key":"12060269","name":"Wandlitz","type":"Kreisangehörige_Gemeinde"},"district":{"key":"12060","name":"Barnim","type":"Landkreis"},"federalState":{"key":"12","name":"Brandenburg"}},{"name":"Am Brink","postalCode":"16348","locality":"Wandlitz","municipality":{"key":"12060269","name":"Wandlitz","type":"Kreisangehörige_Gemeinde"},"district":{"key":"12060","name":"Barnim","type":"Landkreis"},"federalState":{"key":"12","name":"Brandenburg"}},{"name":"Am Dorfanger","postalCode":"16348","locality":"Wandlitz","municipality":{"key":"12060269","name":"Wandlitz","type":"Kreisangehörige_Gemeinde"},"district":{"key":"12060","name":"Barnim","type":"Landkreis"},"federalState":{"key":"12","name":"Brandenburg"}},{"name":"Am Dorfgraben","postalCode":"16348","locality":"Wandlitz","municipality":{"key":"12060269","name":"Wandlitz","type":"Kreisangehörige_Gemeinde"},"district":{"key":"12060","name":"Barnim","type":"Landkreis"},"federalState":{"key":"12","name":"Brandenburg"}},{"name":"Am Drosselschlag","postalCode":"16348","locality":"Wandlitz","municipality":{"key":"12060269","name":"Wandlitz","type":"Kreisangehörige_Gemeinde"},"district":{"key":"12060","name":"Barnim","type":"Landkreis"},"federalState":{"key":"12","name":"Brandenburg"}},{"name":"Am Eichelkamp","postalCode":"16348","locality":"Wandlitz","municipality":{"key":"12060269","name":"Wandlitz","type":"Kreisangehörige_Gemeinde"},"district":{"key":"12060","name":"Barnim","type":"Landkreis"},"federalState":{"key":"12","name":"Brandenburg"}},{"name":"Am Elsluch","postalCode":"16348","locality":"Wandlitz","municipality":{"key":"12060269","name":"Wandlitz","type":"Kreisangehörige_Gemeinde"},"district":{"key":"12060","name":"Barnim","type":"Landkreis"},"federalState":{"key":"12","name":"Brandenburg"}},{"name":"Am Finowkanal","postalCode":"16348","locality":"Wandlitz","municipality":{"key":"12060269","name":"Wandlitz","type":"Kreisangehörige_Gemeinde"},"district":{"key":"12060","name":"Barnim","type":"Landkreis"},"federalState":{"key":"12","name":"Brandenburg"}},{"name":"Am Fuchsbau","postalCode":"16348","locality":"Wandlitz","municipality":{"key":"12060269","name":"Wandlitz","type":"Kreisangehörige_Gemeinde"},"district":{"key":"12060","name":"Barnim","type":"Landkreis"},"federalState":{"key":"12","name":"Brandenburg"}},{"name":"Am Gänseplan","postalCode":"16348","locality":"Wandlitz","municipality":{"key":"12060269","name":"Wandlitz","type":"Kreisangehörige_Gemeinde"},"district":{"key":"12060","name":"Barnim","type":"Landkreis"},"federalState":{"key":"12","name":"Brandenburg"}},{"name":"Am Gierbusch","postalCode":"16348","locality":"Wandlitz","municipality":{"key":"12060269","name":"Wandlitz","type":"Kreisangehörige_Gemeinde"},"district":{"key":"12060","name":"Barnim","type":"Landkreis"},"federalState":{"key":"12","name":"Brandenburg"}},{"name":"Am Golfplatz","postalCode":"16348","locality":"Wandlitz","municipality":{"key":"12060269","name":"Wandlitz","type":"Kreisangehörige_Gemeinde"},"district":{"key":"12060","name":"Barnim","type":"Landkreis"},"federalState":{"key":"12","name":"Brandenburg"}},{"name":"Am Graben","postalCode":"16348","locality":"Wandlitz","municipality":{"key":"12060269","name":"Wandlitz","type":"Kreisangehörige_Gemeinde"},"district":{"key":"12060","name":"Barnim","type":"Landkreis"},"federalState":{"key":"12","name":"Brandenburg"}},{"name":"Am Güterbahnhof","postalCode":"16348","locality":"Wandlitz","municipality":{"key":"12060269","name":"Wandlitz","type":"Kreisangehörige_Gemeinde"},"district":{"key":"12060","name":"Barnim","type":"Landkreis"},"federalState":{"key":"12","name":"Brandenburg"}},{"name":"Am Hagen","postalCode":"16348","locality":"Wandlitz","municipality":{"key":"12060269","name":"Wandlitz","type":"Kreisangehörige_Gemeinde"},"district":{"key":"12060","name":"Barnim","type":"Landkreis"},"federalState":{"key":"12","name":"Brandenburg"}},{"name":"Am Hasenberg","postalCode":"16348","locality":"Wandlitz","municipality":{"key":"12060269","name":"Wandlitz","type":"Kreisangehörige_Gemeinde"},"district":{"key":"12060","name":"Barnim","type":"Landkreis"},"federalState":{"key":"12","name":"Brandenburg"}},{"name":"Am Hirschsprung","postalCode":"16348","locality":"Wandlitz","municipality":{"key":"12060269","name":"Wandlitz","type":"Kreisangehörige_Gemeinde"},"district":{"key":"12060","name":"Barnim","type":"Landkreis"},"federalState":{"key":"12","name":"Brandenburg"}},{"name":"Am hohen Graben","postalCode":"16348","locality":"Wandlitz","municipality":{"key":"12060269","name":"Wandlitz","type":"Kreisangehörige_Gemeinde"},"district":{"key":"12060","name":"Barnim","type":"Landkreis"},"federalState":{"key":"12","name":"Brandenburg"}},{"name":"Am Kiewitt","postalCode":"16348","locality":"Wandlitz","municipality":{"key":"12060269","name":"Wandlitz","type":"Kreisangehörige_Gemeinde"},"district":{"key":"12060","name":"Barnim","type":"Landkreis"},"federalState":{"key":"12","name":"Brandenburg"}},{"name":"Am Krummen Pfuhl","postalCode":"16348","locality":"Wandlitz","municipality":{"key":"12060269","name":"Wandlitz","type":"Kreisangehörige_Gemeinde"},"district":{"key":"12060","name":"Barnim","type":"Landkreis"},"federalState":{"key":"12","name":"Brandenburg"}},{"name":"Am Liepnitzsee","postalCode":"16348","locality":"Wandlitz","municipality":{"key":"12060269","name":"Wandlitz","type":"Kreisangehörige_Gemeinde"},"district":{"key":"12060","name":"Barnim","type":"Landkreis"},"federalState":{"key":"12","name":"Brandenburg"}},{"name":"Am Markt","postalCode":"16348","locality":"Wandlitz","municipality":{"key":"12060269","name":"Wandlitz","type":"Kreisangehörige_Gemeinde"},"district":{"key":"12060","name":"Barnim","type":"Landkreis"},"federalState":{"key":"12","name":"Brandenburg"}},{"name":"Am Moorbad","postalCode":"16348","locality":"Wandlitz","municipality":{"key":"12060269","name":"Wandlitz","type":"Kreisangehörige_Gemeinde"},"district":{"key":"12060","name":"Barnim","type":"Landkreis"},"federalState":{"key":"12","name":"Brandenburg"}},{"name":"Am Obersee","postalCode":"16348","locality":"Wandlitz","municipality":{"key":"12060269","name":"Wandlitz","type":"Kreisangehörige_Gemeinde"},"district":{"key":"12060","name":"Barnim","type":"Landkreis"},"federalState":{"key":"12","name":"Brandenburg"}},{"name":"Am Parkplatz","postalCode":"16348","locality":"Wandlitz","municipality":{"key":"12060269","name":"Wandlitz","type":"Kreisangehörige_Gemeinde"},"district":{"key":"12060","name":"Barnim","type":"Landkreis"},"federalState":{"key":"12","name":"Brandenburg"}},{"name":"Am Rollberg","postalCode":"16348","locality":"Wandlitz","municipality":{"key":"12060269","name":"Wandlitz","type":"Kreisangehörige_Gemeinde"},"district":{"key":"12060","name":"Barnim","type":"Landkreis"},"federalState":{"key":"12","name":"Brandenburg"}},{"name":"Am Sand-Sommerwurz","postalCode":"16348","locality":"Wandlitz","municipality":{"key":"12060269","name":"Wandlitz","type":"Kreisangehörige_Gemeinde"},"district":{"key":"12060","name":"Barnim","type":"Landkreis"},"federalState":{"key":"12","name":"Brandenburg"}},{"name":"Am Schwalbenberg","postalCode":"16348","locality":"Wandlitz","municipality":{"key":"12060269","name":"Wandlitz","type":"Kreisangehörige_Gemeinde"},"district":{"key":"12060","name":"Barnim","type":"Landkreis"},"federalState":{"key":"12","name":"Brandenburg"}},{"name":"Am See","postalCode":"16348","locality":"Wandlitz","municipality":{"key":"12060269","name":"Wandlitz","type":"Kreisangehörige_Gemeinde"},"district":{"key":"12060","name":"Barnim","type":"Landkreis"},"federalState":{"key":"12","name":"Brandenburg"}},{"name":"Amselallee","postalCode":"16348","locality":"Wandlitz","municipality":{"key":"12060269","name":"Wandlitz","type":"Kreisangehörige_Gemeinde"},"district":{"key":"12060","name":"Barnim","type":"Landkreis"},"federalState":{"key":"12","name":"Brandenburg"}},{"name":"Amselgrund","postalCode":"16348","locality":"Wandlitz","municipality":{"key":"12060269","name":"Wandlitz","type":"Kreisangehörige_Gemeinde"},"district":{"key":"12060","name":"Barnim","type":"Landkreis"},"federalState":{"key":"12","name":"Brandenburg"}},{"name":"Amselweg","postalCode":"16348","locality":"Wandlitz","municipality":{"key":"12060269","name":"Wandlitz","type":"Kreisangehörige_Gemeinde"},"district":{"key":"12060","name":"Barnim","type":"Landkreis"},"federalState":{"key":"12","name":"Brandenburg"}},{"name":"Am Steinberg","postalCode":"16348","locality":"Wandlitz","municipality":{"key":"12060269","name":"Wandlitz","type":"Kreisangehörige_Gemeinde"},"district":{"key":"12060","name":"Barnim","type":"Landkreis"},"federalState":{"key":"12","name":"Brandenburg"}},{"name":"Bacharachstr.","postalCode":"16348","locality":"Wandlitz","municipality":{"key":"12060269","name":"Wandlitz","type":"Kreisangehörige_Gemeinde"},"district":{"key":"12060","name":"Barnim","type":"Landkreis"},"federalState":{"key":"12","name":"Brandenburg"}},{"name":"Baggerberg","postalCode":"16348","locality":"Wandlitz","municipality":{"key":"12060269","name":"Wandlitz","type":"Kreisangehörige_Gemeinde"},"district":{"key":"12060","name":"Barnim","type":"Landkreis"},"federalState":{"key":"12","name":"Brandenburg"}},{"name":"Bahnhofspassage","postalCode":"16348","locality":"Wandlitz","municipality":{"key":"12060269","name":"Wandlitz","type":"Kreisangehörige_Gemeinde"},"district":{"key":"12060","name":"Barnim","type":"Landkreis"},"federalState":{"key":"12","name":"Brandenburg"}},{"name":"Bahnhofsplatz","postalCode":"16348","locality":"Wandlitz","municipality":{"key":"12060269","name":"Wandlitz","type":"Kreisangehörige_Gemeinde"},"district":{"key":"12060","name":"Barnim","type":"Landkreis"},"federalState":{"key":"12","name":"Brandenburg"}},{"name":"Bahnhofstr.","postalCode":"16348","locality":"Wandlitz","municipality":{"key":"12060269","name":"Wandlitz","type":"Kreisangehörige_Gemeinde"},"district":{"key":"12060","name":"Barnim","type":"Landkreis"},"federalState":{"key":"12","name":"Brandenburg"}},{"name":"Bahnpromenade","postalCode":"16348","locality":"Wandlitz","municipality":{"key":"12060269","name":"Wandlitz","type":"Kreisangehörige_Gemeinde"},"district":{"key":"12060","name":"Barnim","type":"Landkreis"},"federalState":{"key":"12","name":"Brandenburg"}},{"name":"Bahnstr.","postalCode":"16348","locality":"Wandlitz","municipality":{"key":"12060269","name":"Wandlitz","type":"Kreisangehörige_Gemeinde"},"district":{"key":"12060","name":"Barnim","type":"Landkreis"},"federalState":{"key":"12","name":"Brandenburg"}},{"name":"Basdorfer Hauptstr.","postalCode":"16348","locality":"Wandlitz","municipality":{"key":"12060269","name":"Wandlitz","type":"Kreisangehörige_Gemeinde"},"district":{"key":"12060","name":"Barnim","type":"Landkreis"},"federalState":{"key":"12","name":"Brandenburg"}},{"name":"Basdorfer Str.","postalCode":"16348","locality":"Wandlitz","municipality":{"key":"12060269","name":"Wandlitz","type":"Kreisangehörige_Gemeinde"},"district":{"key":"12060","name":"Barnim","type":"Landkreis"},"federalState":{"key":"12","name":"Brandenburg"}},{"name":"Basdorfer Wiesenpark","postalCode":"16348","locality":"Wandlitz","municipality":{"key":"12060269","name":"Wandlitz","type":"Kreisangehörige_Gemeinde"},"district":{"key":"12060","name":"Barnim","type":"Landkreis"},"federalState":{"key":"12","name":"Brandenburg"}},{"name":"Beim Findelstein","postalCode":"16348","locality":"Wandlitz","municipality":{"key":"12060269","name":"Wandlitz","type":"Kreisangehörige_Gemeinde"},"district":{"key":"12060","name":"Barnim","type":"Landkreis"},"federalState":{"key":"12","name":"Brandenburg"}},{"name":"Bergauf","postalCode":"16348","locality":"Wandlitz","municipality":{"key":"12060269","name":"Wandlitz","type":"Kreisangehörige_Gemeinde"},"district":{"key":"12060","name":"Barnim","type":"Landkreis"},"federalState":{"key":"12","name":"Brandenburg"}},{"name":"Bergstr.","postalCode":"16348","locality":"Wandlitz","municipality":{"key":"12060269","name":"Wandlitz","type":"Kreisangehörige_Gemeinde"},"district":{"key":"12060","name":"Barnim","type":"Landkreis"},"federalState":{"key":"12","name":"Brandenburg"}},{"name":"Berliner Allee","postalCode":"16348","locality":"Wandlitz","municipality":{"key":"12060269","name":"Wandlitz","type":"Kreisangehörige_Gemeinde"},"district":{"key":"12060","name":"Barnim","type":"Landkreis"},"federalState":{"key":"12","name":"Brandenburg"}},{"name":"Berliner Chaussee","postalCode":"16348","locality":"Wandlitz","municipality":{"key":"12060269","name":"Wandlitz","type":"Kreisangehörige_Gemeinde"},"district":{"key":"12060","name":"Barnim","type":"Landkreis"},"federalState":{"key":"12","name":"Brandenburg"}},{"name":"Berliner Str.","postalCode":"16348","locality":"Wandlitz","municipality":{"key":"12060269","name":"Wandlitz","type":"Kreisangehörige_Gemeinde"},"district":{"key":"12060","name":"Barnim","type":"Landkreis"},"federalState":{"key":"12","name":"Brandenburg"}},{"name":"Berliner Weg","postalCode":"16348","locality":"Wandlitz","municipality":{"key":"12060269","name":"Wandlitz","type":"Kreisangehörige_Gemeinde"},"district":{"key":"12060","name":"Barnim","type":"Landkreis"},"federalState":{"key":"12","name":"Brandenburg"}},{"name":"Bernauer Chaussee","postalCode":"16348","locality":"Wandlitz","municipality":{"key":"12060269","name":"Wandlitz","type":"Kreisangehörige_Gemeinde"},"district":{"key":"12060","name":"Barnim","type":"Landkreis"},"federalState":{"key":"12","name":"Brandenburg"}},{"name":"Bernauer Damm","postalCode":"16348","locality":"Wandlitz","municipality":{"key":"12060269","name":"Wandlitz","type":"Kreisangehörige_Gemeinde"},"district":{"key":"12060","name":"Barnim","type":"Landkreis"},"federalState":{"key":"12","name":"Brandenburg"}},{"name":"Bernauer Str.","postalCode":"16348","locality":"Wandlitz","municipality":{"key":"12060269","name":"Wandlitz","type":"Kreisangehörige_Gemeinde"},"district":{"key":"12060","name":"Barnim","type":"Landkreis"},"federalState":{"key":"12","name":"Brandenburg"}},{"name":"Bernauer Waldweg","postalCode":"16348","locality":"Wandlitz","municipality":{"key":"12060269","name":"Wandlitz","type":"Kreisangehörige_Gemeinde"},"district":{"key":"12060","name":"Barnim","type":"Landkreis"},"federalState":{"key":"12","name":"Brandenburg"}},{"name":"Bernauer Weg","postalCode":"16348","locality":"Wandlitz","municipality":{"key":"12060269","name":"Wandlitz","type":"Kreisangehörige_Gemeinde"},"district":{"key":"12060","name":"Barnim","type":"Landkreis"},"federalState":{"key":"12","name":"Brandenburg"}},{"name":"Bernhardweg","postalCode":"16348","locality":"Wandlitz","municipality":{"key":"12060269","name":"Wandlitz","type":"Kreisangehörige_Gemeinde"},"district":{"key":"12060","name":"Barnim","type":"Landkreis"},"federalState":{"key":"12","name":"Brandenburg"}},{"name":"Beusterstr.","postalCode":"16348","locality":"Wandlitz","municipality":{"key":"12060269","name":"Wandlitz","type":"Kreisangehörige_Gemeinde"},"district":{"key":"12060","name":"Barnim","type":"Landkreis"},"federalState":{"key":"12","name":"Brandenburg"}},{"name":"Biesenthaler Str.","postalCode":"16348","locality":"Wandlitz","municipality":{"key":"12060269","name":"Wandlitz","type":"Kreisangehörige_Gemeinde"},"district":{"key":"12060","name":"Barnim","type":"Landkreis"},"federalState":{"key":"12","name":"Brandenburg"}},{"name":"Biesenthaler Weg","postalCode":"16348","locality":"Wandlitz","municipality":{"key":"12060269","name":"Wandlitz","type":"Kreisangehörige_Gemeinde"},"district":{"key":"12060","name":"Barnim","type":"Landkreis"},"federalState":{"key":"12","name":"Brandenburg"}},{"name":"Binger Str.","postalCode":"16348","locality":"Wandlitz","municipality":{"key":"12060269","name":"Wandlitz","type":"Kreisangehörige_Gemeinde"},"district":{"key":"12060","name":"Barnim","type":"Landkreis"},"federalState":{"key":"12","name":"Brandenburg"}},{"name":"Birkenallee","postalCode":"16348","locality":"Wandlitz","municipality":{"key":"12060269","name":"Wandlitz","type":"Kreisangehörige_Gemeinde"},"district":{"key":"12060","name":"Barnim","type":"Landkreis"},"federalState":{"key":"12","name":"Brandenburg"}},{"name":"Birkengrund","postalCode":"16348","locality":"Wandlitz","municipality":{"key":"12060269","name":"Wandlitz","type":"Kreisangehörige_Gemeinde"},"district":{"key":"12060","name":"Barnim","type":"Landkreis"},"federalState":{"key":"12","name":"Brandenburg"}},{"name":"Birkenhain","postalCode":"16348","locality":"Wandlitz","municipality":{"key":"12060269","name":"Wandlitz","type":"Kreisangehörige_Gemeinde"},"district":{"key":"12060","name":"Barnim","type":"Landkreis"},"federalState":{"key":"12","name":"Brandenburg"}},{"name":"Birkenhof","postalCode":"16348","locality":"Wandlitz","municipality":{"key":"12060269","name":"Wandlitz","type":"Kreisangehörige_Gemeinde"},"district":{"key":"12060","name":"Barnim","type":"Landkreis"},"federalState":{"key":"12","name":"Brandenburg"}},{"name":"Birkensteg","postalCode":"16348","locality":"Wandlitz","municipality":{"key":"12060269","name":"Wandlitz","type":"Kreisangehörige_Gemeinde"},"district":{"key":"12060","name":"Barnim","type":"Landkreis"},"federalState":{"key":"12","name":"Brandenburg"}},{"name":"Birkenstr.","postalCode":"16348","locality":"Wandlitz","municipality":{"key":"12060269","name":"Wandlitz","type":"Kreisangehörige_Gemeinde"},"district":{"key":"12060","name":"Barnim","type":"Landkreis"},"federalState":{"key":"12","name":"Brandenburg"}},{"name":"Birkenweg","postalCode":"16348","locality":"Wandlitz","municipality":{"key":"12060269","name":"Wandlitz","type":"Kreisangehörige_Gemeinde"},"district":{"key":"12060","name":"Barnim","type":"Landkreis"},"federalState":{"key":"12","name":"Brandenburg"}},{"name":"Blemisweg","postalCode":"16348","locality":"Wandlitz","municipality":{"key":"12060269","name":"Wandlitz","type":"Kreisangehörige_Gemeinde"},"district":{"key":"12060","name":"Barnim","type":"Landkreis"},"federalState":{"key":"12","name":"Brandenburg"}},{"name":"Blumenstr.","postalCode":"16348","locality":"Wandlitz","municipality":{"key":"12060269","name":"Wandlitz","type":"Kreisangehörige_Gemeinde"},"district":{"key":"12060","name":"Barnim","type":"Landkreis"},"federalState":{"key":"12","name":"Brandenburg"}},{"name":"Bodestr.","postalCode":"16348","locality":"Wandlitz","municipality":{"key":"12060269","name":"Wandlitz","type":"Kreisangehörige_Gemeinde"},"district":{"key":"12060","name":"Barnim","type":"Landkreis"},"federalState":{"key":"12","name":"Brandenburg"}},{"name":"Bodeweg","postalCode":"16348","locality":"Wandlitz","municipality":{"key":"12060269","name":"Wandlitz","type":"Kreisangehörige_Gemeinde"},"district":{"key":"12060","name":"Barnim","type":"Landkreis"},"federalState":{"key":"12","name":"Brandenburg"}},{"name":"Bonner Str.","postalCode":"16348","locality":"Wandlitz","municipality":{"key":"12060269","name":"Wandlitz","type":"Kreisangehörige_Gemeinde"},"district":{"key":"12060","name":"Barnim","type":"Landkreis"},"federalState":{"key":"12","name":"Brandenburg"}},{"name":"Breitscheidstr.","postalCode":"16348","locality":"Wandlitz","municipality":{"key":"12060269","name":"Wandlitz","type":"Kreisangehörige_Gemeinde"},"district":{"key":"12060","name":"Barnim","type":"Landkreis"},"federalState":{"key":"12","name":"Brandenburg"}},{"name":"Brunhildestr.","postalCode":"16348","locality":"Wandlitz","municipality":{"key":"12060269","name":"Wandlitz","type":"Kreisangehörige_Gemeinde"},"district":{"key":"12060","name":"Barnim","type":"Landkreis"},"federalState":{"key":"12","name":"Brandenburg"}},{"name":"Brunhildeweg","postalCode":"16348","locality":"Wandlitz","municipality":{"key":"12060269","name":"Wandlitz","type":"Kreisangehörige_Gemeinde"},"district":{"key":"12060","name":"Barnim","type":"Landkreis"},"federalState":{"key":"12","name":"Brandenburg"}},{"name":"Buchenstr.","postalCode":"16348","locality":"Wandlitz","municipality":{"key":"12060269","name":"Wandlitz","type":"Kreisangehörige_Gemeinde"},"district":{"key":"12060","name":"Barnim","type":"Landkreis"},"federalState":{"key":"12","name":"Brandenburg"}},{"name":"Buchenweg","postalCode":"16348","locality":"Wandlitz","municipality":{"key":"12060269","name":"Wandlitz","type":"Kreisangehörige_Gemeinde"},"district":{"key":"12060","name":"Barnim","type":"Landkreis"},"federalState":{"key":"12","name":"Brandenburg"}},{"name":"Buchhorster Str.","postalCode":"16348","locality":"Wandlitz","municipality":{"key":"12060269","name":"Wandlitz","type":"Kreisangehörige_Gemeinde"},"district":{"key":"12060","name":"Barnim","type":"Landkreis"},"federalState":{"key":"12","name":"Brandenburg"}},{"name":"Buchwiesenweg","postalCode":"16348","locality":"Wandlitz","municipality":{"key":"12060269","name":"Wandlitz","type":"Kreisangehörige_Gemeinde"},"district":{"key":"12060","name":"Barnim","type":"Landkreis"},"federalState":{"key":"12","name":"Brandenburg"}},{"name":"Büttnerstr.","postalCode":"16348","locality":"Wandlitz","municipality":{"key":"12060269","name":"Wandlitz","type":"Kreisangehörige_Gemeinde"},"district":{"key":"12060","name":"Barnim","type":"Landkreis"},"federalState":{"key":"12","name":"Brandenburg"}},{"name":"Dahlienstr.","postalCode":"16348","locality":"Wandlitz","municipality":{"key":"12060269","name":"Wandlitz","type":"Kreisangehörige_Gemeinde"},"district":{"key":"12060","name":"Barnim","type":"Landkreis"},"federalState":{"key":"12","name":"Brandenburg"}},{"name":"Dahlienweg","postalCode":"16348","locality":"Wandlitz","municipality":{"key":"12060269","name":"Wandlitz","type":"Kreisangehörige_Gemeinde"},"district":{"key":"12060","name":"Barnim","type":"Landkreis"},"federalState":{"key":"12","name":"Brandenburg"}},{"name":"Dianaweg","postalCode":"16348","locality":"Wandlitz","municipality":{"key":"12060269","name":"Wandlitz","type":"Kreisangehörige_Gemeinde"},"district":{"key":"12060","name":"Barnim","type":"Landkreis"},"federalState":{"key":"12","name":"Brandenburg"}},{"name":"Dimitroffstr.","postalCode":"16348","locality":"Wandlitz","municipality":{"key":"12060269","name":"Wandlitz","type":"Kreisangehörige_Gemeinde"},"district":{"key":"12060","name":"Barnim","type":"Landkreis"},"federalState":{"key":"12","name":"Brandenburg"}},{"name":"Dohnenstieg","postalCode":"16348","locality":"Wandlitz","municipality":{"key":"12060269","name":"Wandlitz","type":"Kreisangehörige_Gemeinde"},"district":{"key":"12060","name":"Barnim","type":"Landkreis"},"federalState":{"key":"12","name":"Brandenburg"}},{"name":"Dorfstr.","postalCode":"16348","locality":"Wandlitz","municipality":{"key":"12060269","name":"Wandlitz","type":"Kreisangehörige_Gemeinde"},"district":{"key":"12060","name":"Barnim","type":"Landkreis"},"federalState":{"key":"12","name":"Brandenburg"}},{"name":"Dornröschenweg","postalCode":"16348","locality":"Wandlitz","municipality":{"key":"12060269","name":"Wandlitz","type":"Kreisangehörige_Gemeinde"},"district":{"key":"12060","name":"Barnim","type":"Landkreis"},"federalState":{"key":"12","name":"Brandenburg"}},{"name":"Dossestr.","postalCode":"16348","locality":"Wandlitz","municipality":{"key":"12060269","name":"Wandlitz","type":"Kreisangehörige_Gemeinde"},"district":{"key":"12060","name":"Barnim","type":"Landkreis"},"federalState":{"key":"12","name":"Brandenburg"}},{"name":"Drosselgasse","postalCode":"16348","locality":"Wandlitz","municipality":{"key":"12060269","name":"Wandlitz","type":"Kreisangehörige_Gemeinde"},"district":{"key":"12060","name":"Barnim","type":"Landkreis"},"federalState":{"key":"12","name":"Brandenburg"}},{"name":"Drosselsteig","postalCode":"16348","locality":"Wandlitz","municipality":{"key":"12060269","name":"Wandlitz","type":"Kreisangehörige_Gemeinde"},"district":{"key":"12060","name":"Barnim","type":"Landkreis"},"federalState":{"key":"12","name":"Brandenburg"}},{"name":"Drosselweg","postalCode":"16348","locality":"Wandlitz","municipality":{"key":"12060269","name":"Wandlitz","type":"Kreisangehörige_Gemeinde"},"district":{"key":"12060","name":"Barnim","type":"Landkreis"},"federalState":{"key":"12","name":"Brandenburg"}},{"name":"Eberswalder Weg","postalCode":"16348","locality":"Wandlitz","municipality":{"key":"12060269","name":"Wandlitz","type":"Kreisangehörige_Gemeinde"},"district":{"key":"12060","name":"Barnim","type":"Landkreis"},"federalState":{"key":"12","name":"Brandenburg"}},{"name":"Edgar-André-Str.","postalCode":"16348","locality":"Wandlitz","municipality":{"key":"12060269","name":"Wandlitz","type":"Kreisangehörige_Gemeinde"},"district":{"key":"12060","name":"Barnim","type":"Landkreis"},"federalState":{"key":"12","name":"Brandenburg"}},{"name":"Eichengrund","postalCode":"16348","locality":"Wandlitz","municipality":{"key":"12060269","name":"Wandlitz","type":"Kreisangehörige_Gemeinde"},"district":{"key":"12060","name":"Barnim","type":"Landkreis"},"federalState":{"key":"12","name":"Brandenburg"}},{"name":"Eichenhain","postalCode":"16348","locality":"Wandlitz","municipality":{"key":"12060269","name":"Wandlitz","type":"Kreisangehörige_Gemeinde"},"district":{"key":"12060","name":"Barnim","type":"Landkreis"},"federalState":{"key":"12","name":"Brandenburg"}},{"name":"Eichenkamp","postalCode":"16348","locality":"Wandlitz","municipality":{"key":"12060269","name":"Wandlitz","type":"Kreisangehörige_Gemeinde"},"district":{"key":"12060","name":"Barnim","type":"Landkreis"},"federalState":{"key":"12","name":"Brandenburg"}},{"name":"Eichenstr.","postalCode":"16348","locality":"Wandlitz","municipality":{"key":"12060269","name":"Wandlitz","type":"Kreisangehörige_Gemeinde"},"district":{"key":"12060","name":"Barnim","type":"Landkreis"},"federalState":{"key":"12","name":"Brandenburg"}},{"name":"Eichenweg","postalCode":"16348","locality":"Wandlitz","municipality":{"key":"12060269","name":"Wandlitz","type":"Kreisangehörige_Gemeinde"},"district":{"key":"12060","name":"Barnim","type":"Landkreis"},"federalState":{"key":"12","name":"Brandenburg"}},{"name":"Elbestr.","postalCode":"16348","locality":"Wandlitz","municipality":{"key":"12060269","name":"Wandlitz","type":"Kreisangehörige_Gemeinde"},"district":{"key":"12060","name":"Barnim","type":"Landkreis"},"federalState":{"key":"12","name":"Brandenburg"}},{"name":"Elbetal","postalCode":"16348","locality":"Wandlitz","municipality":{"key":"12060269","name":"Wandlitz","type":"Kreisangehörige_Gemeinde"},"district":{"key":"12060","name":"Barnim","type":"Landkreis"},"federalState":{"key":"12","name":"Brandenburg"}},{"name":"Elstergasse","postalCode":"16348","locality":"Wandlitz","municipality":{"key":"12060269","name":"Wandlitz","type":"Kreisangehörige_Gemeinde"},"district":{"key":"12060","name":"Barnim","type":"Landkreis"},"federalState":{"key":"12","name":"Brandenburg"}},{"name":"Elsternweg","postalCode":"16348","locality":"Wandlitz","municipality":{"key":"12060269","name":"Wandlitz","type":"Kreisangehörige_Gemeinde"},"district":{"key":"12060","name":"Barnim","type":"Landkreis"},"federalState":{"key":"12","name":"Brandenburg"}},{"name":"Elsterweg","postalCode":"16348","locality":"Wandlitz","municipality":{"key":"12060269","name":"Wandlitz","type":"Kreisangehörige_Gemeinde"},"district":{"key":"12060","name":"Barnim","type":"Landkreis"},"federalState":{"key":"12","name":"Brandenburg"}},{"name":"Erich-Weinert-Str.","postalCode":"16348","locality":"Wandlitz","municipality":{"key":"12060269","name":"Wandlitz","type":"Kreisangehörige_Gemeinde"},"district":{"key":"12060","name":"Barnim","type":"Landkreis"},"federalState":{"key":"12","name":"Brandenburg"}},{"name":"Erikastr.","postalCode":"16348","locality":"Wandlitz","municipality":{"key":"12060269","name":"Wandlitz","type":"Kreisangehörige_Gemeinde"},"district":{"key":"12060","name":"Barnim","type":"Landkreis"},"federalState":{"key":"12","name":"Brandenburg"}},{"name":"Erikaweg","postalCode":"16348","locality":"Wandlitz","municipality":{"key":"12060269","name":"Wandlitz","type":"Kreisangehörige_Gemeinde"},"district":{"key":"12060","name":"Barnim","type":"Landkreis"},"federalState":{"key":"12","name":"Brandenburg"}},{"name":"Erlenstr.","postalCode":"16348","locality":"Wandlitz","municipality":{"key":"12060269","name":"Wandlitz","type":"Kreisangehörige_Gemeinde"},"district":{"key":"12060","name":"Barnim","type":"Landkreis"},"federalState":{"key":"12","name":"Brandenburg"}},{"name":"Ernst-Thälmann-Str.","postalCode":"16348","locality":"Wandlitz","municipality":{"key":"12060269","name":"Wandlitz","type":"Kreisangehörige_Gemeinde"},"district":{"key":"12060","name":"Barnim","type":"Landkreis"},"federalState":{"key":"12","name":"Brandenburg"}},{"name":"Eschenweg","postalCode":"16348","locality":"Wandlitz","municipality":{"key":"12060269","name":"Wandlitz","type":"Kreisangehörige_Gemeinde"},"district":{"key":"12060","name":"Barnim","type":"Landkreis"},"federalState":{"key":"12","name":"Brandenburg"}},{"name":"Eugenstr.","postalCode":"16348","locality":"Wandlitz","municipality":{"key":"12060269","name":"Wandlitz","type":"Kreisangehörige_Gemeinde"},"district":{"key":"12060","name":"Barnim","type":"Landkreis"},"federalState":{"key":"12","name":"Brandenburg"}},{"name":"Evaweg","postalCode":"16348","locality":"Wandlitz","municipality":{"key":"12060269","name":"Wandlitz","type":"Kreisangehörige_Gemeinde"},"district":{"key":"12060","name":"Barnim","type":"Landkreis"},"federalState":{"key":"12","name":"Brandenburg"}},{"name":"Falkenkorso","postalCode":"16348","locality":"Wandlitz","municipality":{"key":"12060269","name":"Wandlitz","type":"Kreisangehörige_Gemeinde"},"district":{"key":"12060","name":"Barnim","type":"Landkreis"},"federalState":{"key":"12","name":"Brandenburg"}},{"name":"Fasanenweg","postalCode":"16348","locality":"Wandlitz","municipality":{"key":"12060269","name":"Wandlitz","type":"Kreisangehörige_Gemeinde"},"district":{"key":"12060","name":"Barnim","type":"Landkreis"},"federalState":{"key":"12","name":"Brandenburg"}},{"name":"Feldstr.","postalCode":"16348","locality":"Wandlitz","municipality":{"key":"12060269","name":"Wandlitz","type":"Kreisangehörige_Gemeinde"},"district":{"key":"12060","name":"Barnim","type":"Landkreis"},"federalState":{"key":"12","name":"Brandenburg"}},{"name":"Feldweg","postalCode":"16348","locality":"Wandlitz","municipality":{"key":"12060269","name":"Wandlitz","type":"Kreisangehörige_Gemeinde"},"district":{"key":"12060","name":"Barnim","type":"Landkreis"},"federalState":{"key":"12","name":"Brandenburg"}},{"name":"Fennstr.","postalCode":"16348","locality":"Wandlitz","municipality":{"key":"12060269","name":"Wandlitz","type":"Kreisangehörige_Gemeinde"},"district":{"key":"12060","name":"Barnim","type":"Landkreis"},"federalState":{"key":"12","name":"Brandenburg"}},{"name":"Fichtenstr.","postalCode":"16348","locality":"Wandlitz","municipality":{"key":"12060269","name":"Wandlitz","type":"Kreisangehörige_Gemeinde"},"district":{"key":"12060","name":"Barnim","type":"Landkreis"},"federalState":{"key":"12","name":"Brandenburg"}},{"name":"Fichtenweg","postalCode":"16348","locality":"Wandlitz","municipality":{"key":"12060269","name":"Wandlitz","type":"Kreisangehörige_Gemeinde"},"district":{"key":"12060","name":"Barnim","type":"Landkreis"},"federalState":{"key":"12","name":"Brandenburg"}},{"name":"Fichtestr.","postalCode":"16348","locality":"Wandlitz","municipality":{"key":"12060269","name":"Wandlitz","type":"Kreisangehörige_Gemeinde"},"district":{"key":"12060","name":"Barnim","type":"Landkreis"},"federalState":{"key":"12","name":"Brandenburg"}},{"name":"Fingerhutsteig","postalCode":"16348","locality":"Wandlitz","municipality":{"key":"12060269","name":"Wandlitz","type":"Kreisangehörige_Gemeinde"},"district":{"key":"12060","name":"Barnim","type":"Landkreis"},"federalState":{"key":"12","name":"Brandenburg"}},{"name":"Finkengasse","postalCode":"16348","locality":"Wandlitz","municipality":{"key":"12060269","name":"Wandlitz","type":"Kreisangehörige_Gemeinde"},"district":{"key":"12060","name":"Barnim","type":"Landkreis"},"federalState":{"key":"12","name":"Brandenburg"}},{"name":"Finkensteig","postalCode":"16348","locality":"Wandlitz","municipality":{"key":"12060269","name":"Wandlitz","type":"Kreisangehörige_Gemeinde"},"district":{"key":"12060","name":"Barnim","type":"Landkreis"},"federalState":{"key":"12","name":"Brandenburg"}},{"name":"Finkenweg","postalCode":"16348","locality":"Wandlitz","municipality":{"key":"12060269","name":"Wandlitz","type":"Kreisangehörige_Gemeinde"},"district":{"key":"12060","name":"Barnim","type":"Landkreis"},"federalState":{"key":"12","name":"Brandenburg"}},{"name":"Fliederstr.","postalCode":"16348","locality":"Wandlitz","municipality":{"key":"12060269","name":"Wandlitz","type":"Kreisangehörige_Gemeinde"},"district":{"key":"12060","name":"Barnim","type":"Landkreis"},"federalState":{"key":"12","name":"Brandenburg"}},{"name":"Fliederweg","postalCode":"16348","locality":"Wandlitz","municipality":{"key":"12060269","name":"Wandlitz","type":"Kreisangehörige_Gemeinde"},"district":{"key":"12060","name":"Barnim","type":"Landkreis"},"federalState":{"key":"12","name":"Brandenburg"}},{"name":"Fontaneallee","postalCode":"16348","locality":"Wandlitz","municipality":{"key":"12060269","name":"Wandlitz","type":"Kreisangehörige_Gemeinde"},"district":{"key":"12060","name":"Barnim","type":"Landkreis"},"federalState":{"key":"12","name":"Brandenburg"}},{"name":"Fontanestr.","postalCode":"16348","locality":"Wandlitz","municipality":{"key":"12060269","name":"Wandlitz","type":"Kreisangehörige_Gemeinde"},"district":{"key":"12060","name":"Barnim","type":"Landkreis"},"federalState":{"key":"12","name":"Brandenburg"}},{"name":"Förstersteig","postalCode":"16348","locality":"Wandlitz","municipality":{"key":"12060269","name":"Wandlitz","type":"Kreisangehörige_Gemeinde"},"district":{"key":"12060","name":"Barnim","type":"Landkreis"},"federalState":{"key":"12","name":"Brandenburg"}},{"name":"Forststr.","postalCode":"16348","locality":"Wandlitz","municipality":{"key":"12060269","name":"Wandlitz","type":"Kreisangehörige_Gemeinde"},"district":{"key":"12060","name":"Barnim","type":"Landkreis"},"federalState":{"key":"12","name":"Brandenburg"}},{"name":"Forstweg","postalCode":"16348","locality":"Wandlitz","municipality":{"key":"12060269","name":"Wandlitz","type":"Kreisangehörige_Gemeinde"},"district":{"key":"12060","name":"Barnim","type":"Landkreis"},"federalState":{"key":"12","name":"Brandenburg"}},{"name":"Friedensplatz","postalCode":"16348","locality":"Wandlitz","municipality":{"key":"12060269","name":"Wandlitz","type":"Kreisangehörige_Gemeinde"},"district":{"key":"12060","name":"Barnim","type":"Landkreis"},"federalState":{"key":"12","name":"Brandenburg"}},{"name":"Friedensstr.","postalCode":"16348","locality":"Wandlitz","municipality":{"key":"12060269","name":"Wandlitz","type":"Kreisangehörige_Gemeinde"},"district":{"key":"12060","name":"Barnim","type":"Landkreis"},"federalState":{"key":"12","name":"Brandenburg"}},{"name":"Friedensweg","postalCode":"16348","locality":"Wandlitz","municipality":{"key":"12060269","name":"Wandlitz","type":"Kreisangehörige_Gemeinde"},"district":{"key":"12060","name":"Barnim","type":"Landkreis"},"federalState":{"key":"12","name":"Brandenburg"}},{"name":"Friedhofsweg","postalCode":"16348","locality":"Wandlitz","municipality":{"key":"12060269","name":"Wandlitz","type":"Kreisangehörige_Gemeinde"},"district":{"key":"12060","name":"Barnim","type":"Landkreis"},"federalState":{"key":"12","name":"Brandenburg"}},{"name":"Friedrich-Engels-Str.","postalCode":"16348","locality":"Wandlitz","municipality":{"key":"12060269","name":"Wandlitz","type":"Kreisangehörige_Gemeinde"},"district":{"key":"12060","name":"Barnim","type":"Landkreis"},"federalState":{"key":"12","name":"Brandenburg"}},{"name":"Fuchsbau","postalCode":"16348","locality":"Wandlitz","municipality":{"key":"12060269","name":"Wandlitz","type":"Kreisangehörige_Gemeinde"},"district":{"key":"12060","name":"Barnim","type":"Landkreis"},"federalState":{"key":"12","name":"Brandenburg"}},{"name":"Fuchsbergweg","postalCode":"16348","locality":"Wandlitz","municipality":{"key":"12060269","name":"Wandlitz","type":"Kreisangehörige_Gemeinde"},"district":{"key":"12060","name":"Barnim","type":"Landkreis"},"federalState":{"key":"12","name":"Brandenburg"}},{"name":"Fuchsienstr.","postalCode":"16348","locality":"Wandlitz","municipality":{"key":"12060269","name":"Wandlitz","type":"Kreisangehörige_Gemeinde"},"district":{"key":"12060","name":"Barnim","type":"Landkreis"},"federalState":{"key":"12","name":"Brandenburg"}},{"name":"Fuchskavelweg","postalCode":"16348","locality":"Wandlitz","municipality":{"key":"12060269","name":"Wandlitz","type":"Kreisangehörige_Gemeinde"},"district":{"key":"12060","name":"Barnim","type":"Landkreis"},"federalState":{"key":"12","name":"Brandenburg"}},{"name":"Gartengasse","postalCode":"16348","locality":"Wandlitz","municipality":{"key":"12060269","name":"Wandlitz","type":"Kreisangehörige_Gemeinde"},"district":{"key":"12060","name":"Barnim","type":"Landkreis"},"federalState":{"key":"12","name":"Brandenburg"}},{"name":"Gartenstr.","postalCode":"16348","locality":"Wandlitz","municipality":{"key":"12060269","name":"Wandlitz","type":"Kreisangehörige_Gemeinde"},"district":{"key":"12060","name":"Barnim","type":"Landkreis"},"federalState":{"key":"12","name":"Brandenburg"}},{"name":"Gartenweg","postalCode":"16348","locality":"Wandlitz","municipality":{"key":"12060269","name":"Wandlitz","type":"Kreisangehörige_Gemeinde"},"district":{"key":"12060","name":"Barnim","type":"Landkreis"},"federalState":{"key":"12","name":"Brandenburg"}},{"name":"Gehweg an der Bahn","postalCode":"16348","locality":"Wandlitz","municipality":{"key":"12060269","name":"Wandlitz","type":"Kreisangehörige_Gemeinde"},"district":{"key":"12060","name":"Barnim","type":"Landkreis"},"federalState":{"key":"12","name":"Brandenburg"}},{"name":"Georges-Brassens-Platz","postalCode":"16348","locality":"Wandlitz","municipality":{"key":"12060269","name":"Wandlitz","type":"Kreisangehörige_Gemeinde"},"district":{"key":"12060","name":"Barnim","type":"Landkreis"},"federalState":{"key":"12","name":"Brandenburg"}},{"name":"Geschwister-Scholl-Str.","postalCode":"16348","locality":"Wandlitz","municipality":{"key":"12060269","name":"Wandlitz","type":"Kreisangehörige_Gemeinde"},"district":{"key":"12060","name":"Barnim","type":"Landkreis"},"federalState":{"key":"12","name":"Brandenburg"}},{"name":"Ginstergrund","postalCode":"16348","locality":"Wandlitz","municipality":{"key":"12060269","name":"Wandlitz","type":"Kreisangehörige_Gemeinde"},"district":{"key":"12060","name":"Barnim","type":"Landkreis"},"federalState":{"key":"12","name":"Brandenburg"}},{"name":"Ginsterweg","postalCode":"16348","locality":"Wandlitz","municipality":{"key":"12060269","name":"Wandlitz","type":"Kreisangehörige_Gemeinde"},"district":{"key":"12060","name":"Barnim","type":"Landkreis"},"federalState":{"key":"12","name":"Brandenburg"}},{"name":"Gladiolenstr.","postalCode":"16348","locality":"Wandlitz","municipality":{"key":"12060269","name":"Wandlitz","type":"Kreisangehörige_Gemeinde"},"district":{"key":"12060","name":"Barnim","type":"Landkreis"},"federalState":{"key":"12","name":"Brandenburg"}},{"name":"Glockenblumenweg","postalCode":"16348","locality":"Wandlitz","municipality":{"key":"12060269","name":"Wandlitz","type":"Kreisangehörige_Gemeinde"},"district":{"key":"12060","name":"Barnim","type":"Landkreis"},"federalState":{"key":"12","name":"Brandenburg"}},{"name":"Goethestr.","postalCode":"16348","locality":"Wandlitz","municipality":{"key":"12060269","name":"Wandlitz","type":"Kreisangehörige_Gemeinde"},"district":{"key":"12060","name":"Barnim","type":"Landkreis"},"federalState":{"key":"12","name":"Brandenburg"}},{"name":"Grüne Aue","postalCode":"16348","locality":"Wandlitz","municipality":{"key":"12060269","name":"Wandlitz","type":"Kreisangehörige_Gemeinde"},"district":{"key":"12060","name":"Barnim","type":"Landkreis"},"federalState":{"key":"12","name":"Brandenburg"}},{"name":"Güterbahnhofstr.","postalCode":"16348","locality":"Wandlitz","municipality":{"key":"12060269","name":"Wandlitz","type":"Kreisangehörige_Gemeinde"},"district":{"key":"12060","name":"Barnim","type":"Landkreis"},"federalState":{"key":"12","name":"Brandenburg"}},{"name":"Hagenstr.","postalCode":"16348","locality":"Wandlitz","municipality":{"key":"12060269","name":"Wandlitz","type":"Kreisangehörige_Gemeinde"},"district":{"key":"12060","name":"Barnim","type":"Landkreis"},"federalState":{"key":"12","name":"Brandenburg"}},{"name":"Hans-Beimler-Str.","postalCode":"16348","locality":"Wandlitz","municipality":{"key":"12060269","name":"Wandlitz","type":"Kreisangehörige_Gemeinde"},"district":{"key":"12060","name":"Barnim","type":"Landkreis"},"federalState":{"key":"12","name":"Brandenburg"}},{"name":"Haselweg","postalCode":"16348","locality":"Wandlitz","municipality":{"key":"12060269","name":"Wandlitz","type":"Kreisangehörige_Gemeinde"},"district":{"key":"12060","name":"Barnim","type":"Landkreis"},"federalState":{"key":"12","name":"Brandenburg"}},{"name":"Hasenheide","postalCode":"16348","locality":"Wandlitz","municipality":{"key":"12060269","name":"Wandlitz","type":"Kreisangehörige_Gemeinde"},"district":{"key":"12060","name":"Barnim","type":"Landkreis"},"federalState":{"key":"12","name":"Brandenburg"}},{"name":"Hasensprung","postalCode":"16348","locality":"Wandlitz","municipality":{"key":"12060269","name":"Wandlitz","type":"Kreisangehörige_Gemeinde"},"district":{"key":"12060","name":"Barnim","type":"Landkreis"},"federalState":{"key":"12","name":"Brandenburg"}},{"name":"Hauptstr.","postalCode":"16348","locality":"Wandlitz","municipality":{"key":"12060269","name":"Wandlitz","type":"Kreisangehörige_Gemeinde"},"district":{"key":"12060","name":"Barnim","type":"Landkreis"},"federalState":{"key":"12","name":"Brandenburg"}},{"name":"Havelstr.","postalCode":"16348","locality":"Wandlitz","municipality":{"key":"12060269","name":"Wandlitz","type":"Kreisangehörige_Gemeinde"},"district":{"key":"12060","name":"Barnim","type":"Landkreis"},"federalState":{"key":"12","name":"Brandenburg"}},{"name":"Haveltal","postalCode":"16348","locality":"Wandlitz","municipality":{"key":"12060269","name":"Wandlitz","type":"Kreisangehörige_Gemeinde"},"district":{"key":"12060","name":"Barnim","type":"Landkreis"},"federalState":{"key":"12","name":"Brandenburg"}},{"name":"Heerstr.","postalCode":"16348","locality":"Wandlitz","municipality":{"key":"12060269","name":"Wandlitz","type":"Kreisangehörige_Gemeinde"},"district":{"key":"12060","name":"Barnim","type":"Landkreis"},"federalState":{"key":"12","name":"Brandenburg"}},{"name":"Heidblöße","postalCode":"16348","locality":"Wandlitz","municipality":{"key":"12060269","name":"Wandlitz","type":"Kreisangehörige_Gemeinde"},"district":{"key":"12060","name":"Barnim","type":"Landkreis"},"federalState":{"key":"12","name":"Brandenburg"}},{"name":"Heidekrautweg","postalCode":"16348","locality":"Wandlitz","municipality":{"key":"12060269","name":"Wandlitz","type":"Kreisangehörige_Gemeinde"},"district":{"key":"12060","name":"Barnim","type":"Landkreis"},"federalState":{"key":"12","name":"Brandenburg"}},{"name":"Heidesteg","postalCode":"16348","locality":"Wandlitz","municipality":{"key":"12060269","name":"Wandlitz","type":"Kreisangehörige_Gemeinde"},"district":{"key":"12060","name":"Barnim","type":"Landkreis"},"federalState":{"key":"12","name":"Brandenburg"}},{"name":"Heidestr.","postalCode":"16348","locality":"Wandlitz","municipality":{"key":"12060269","name":"Wandlitz","type":"Kreisangehörige_Gemeinde"},"district":{"key":"12060","name":"Barnim","type":"Landkreis"},"federalState":{"key":"12","name":"Brandenburg"}},{"name":"Heideweg","postalCode":"16348","locality":"Wandlitz","municipality":{"key":"12060269","name":"Wandlitz","type":"Kreisangehörige_Gemeinde"},"district":{"key":"12060","name":"Barnim","type":"Landkreis"},"federalState":{"key":"12","name":"Brandenburg"}},{"name":"Heinrich-Heine-Ring","postalCode":"16348","locality":"Wandlitz","municipality":{"key":"12060269","name":"Wandlitz","type":"Kreisangehörige_Gemeinde"},"district":{"key":"12060","name":"Barnim","type":"Landkreis"},"federalState":{"key":"12","name":"Brandenburg"}},{"name":"Hellerstr.","postalCode":"16348","locality":"Wandlitz","municipality":{"key":"12060269","name":"Wandlitz","type":"Kreisangehörige_Gemeinde"},"district":{"key":"12060","name":"Barnim","type":"Landkreis"},"federalState":{"key":"12","name":"Brandenburg"}},{"name":"Heyert-Siedlung","postalCode":"16348","locality":"Wandlitz","municipality":{"key":"12060269","name":"Wandlitz","type":"Kreisangehörige_Gemeinde"},"district":{"key":"12060","name":"Barnim","type":"Landkreis"},"federalState":{"key":"12","name":"Brandenburg"}},{"name":"Hobrechtsfelder Str.","postalCode":"16348","locality":"Wandlitz","municipality":{"key":"12060269","name":"Wandlitz","type":"Kreisangehörige_Gemeinde"},"district":{"key":"12060","name":"Barnim","type":"Landkreis"},"federalState":{"key":"12","name":"Brandenburg"}},{"name":"Hobrechtsfelder Weg","postalCode":"16348","locality":"Wandlitz","municipality":{"key":"12060269","name":"Wandlitz","type":"Kreisangehörige_Gemeinde"},"district":{"key":"12060","name":"Barnim","type":"Landkreis"},"federalState":{"key":"12","name":"Brandenburg"}},{"name":"Holunderweg","postalCode":"16348","locality":"Wandlitz","municipality":{"key":"12060269","name":"Wandlitz","type":"Kreisangehörige_Gemeinde"},"district":{"key":"12060","name":"Barnim","type":"Landkreis"},"federalState":{"key":"12","name":"Brandenburg"}},{"name":"Hortensienstr.","postalCode":"16348","locality":"Wandlitz","municipality":{"key":"12060269","name":"Wandlitz","type":"Kreisangehörige_Gemeinde"},"district":{"key":"12060","name":"Barnim","type":"Landkreis"},"federalState":{"key":"12","name":"Brandenburg"}},{"name":"Hubbrücke Forststr.nbrücke","postalCode":"16348","locality":"Wandlitz","municipality":{"key":"12060269","name":"Wandlitz","type":"Kreisangehörige_Gemeinde"},"district":{"key":"12060","name":"Barnim","type":"Landkreis"},"federalState":{"key":"12","name":"Brandenburg"}},{"name":"Hubertusweg","postalCode":"16348","locality":"Wandlitz","municipality":{"key":"12060269","name":"Wandlitz","type":"Kreisangehörige_Gemeinde"},"district":{"key":"12060","name":"Barnim","type":"Landkreis"},"federalState":{"key":"12","name":"Brandenburg"}},{"name":"Igelallee","postalCode":"16348","locality":"Wandlitz","municipality":{"key":"12060269","name":"Wandlitz","type":"Kreisangehörige_Gemeinde"},"district":{"key":"12060","name":"Barnim","type":"Landkreis"},"federalState":{"key":"12","name":"Brandenburg"}},{"name":"Igelstr.","postalCode":"16348","locality":"Wandlitz","municipality":{"key":"12060269","name":"Wandlitz","type":"Kreisangehörige_Gemeinde"},"district":{"key":"12060","name":"Barnim","type":"Landkreis"},"federalState":{"key":"12","name":"Brandenburg"}},{"name":"Im Grund","postalCode":"16348","locality":"Wandlitz","municipality":{"key":"12060269","name":"Wandlitz","type":"Kreisangehörige_Gemeinde"},"district":{"key":"12060","name":"Barnim","type":"Landkreis"},"federalState":{"key":"12","name":"Brandenburg"}},{"name":"Im Kessel","postalCode":"16348","locality":"Wandlitz","municipality":{"key":"12060269","name":"Wandlitz","type":"Kreisangehörige_Gemeinde"},"district":{"key":"12060","name":"Barnim","type":"Landkreis"},"federalState":{"key":"12","name":"Brandenburg"}},{"name":"Immenstr.","postalCode":"16348","locality":"Wandlitz","municipality":{"key":"12060269","name":"Wandlitz","type":"Kreisangehörige_Gemeinde"},"district":{"key":"12060","name":"Barnim","type":"Landkreis"},"federalState":{"key":"12","name":"Brandenburg"}},{"name":"Im Porst","postalCode":"16348","locality":"Wandlitz","municipality":{"key":"12060269","name":"Wandlitz","type":"Kreisangehörige_Gemeinde"},"district":{"key":"12060","name":"Barnim","type":"Landkreis"},"federalState":{"key":"12","name":"Brandenburg"}},{"name":"In der Wiesenaue","postalCode":"16348","locality":"Wandlitz","municipality":{"key":"12060269","name":"Wandlitz","type":"Kreisangehörige_Gemeinde"},"district":{"key":"12060","name":"Barnim","type":"Landkreis"},"federalState":{"key":"12","name":"Brandenburg"}},{"name":"In der Wörde","postalCode":"16348","locality":"Wandlitz","municipality":{"key":"12060269","name":"Wandlitz","type":"Kreisangehörige_Gemeinde"},"district":{"key":"12060","name":"Barnim","type":"Landkreis"},"federalState":{"key":"12","name":"Brandenburg"}},{"name":"Irisweg","postalCode":"16348","locality":"Wandlitz","municipality":{"key":"12060269","name":"Wandlitz","type":"Kreisangehörige_Gemeinde"},"district":{"key":"12060","name":"Barnim","type":"Landkreis"},"federalState":{"key":"12","name":"Brandenburg"}},{"name":"Isoldestr.","postalCode":"16348","locality":"Wandlitz","municipality":{"key":"12060269","name":"Wandlitz","type":"Kreisangehörige_Gemeinde"},"district":{"key":"12060","name":"Barnim","type":"Landkreis"},"federalState":{"key":"12","name":"Brandenburg"}},{"name":"Isoldeweg","postalCode":"16348","locality":"Wandlitz","municipality":{"key":"12060269","name":"Wandlitz","type":"Kreisangehörige_Gemeinde"},"district":{"key":"12060","name":"Barnim","type":"Landkreis"},"federalState":{"key":"12","name":"Brandenburg"}},{"name":"Jägerweg","postalCode":"16348","locality":"Wandlitz","municipality":{"key":"12060269","name":"Wandlitz","type":"Kreisangehörige_Gemeinde"},"district":{"key":"12060","name":"Barnim","type":"Landkreis"},"federalState":{"key":"12","name":"Brandenburg"}},{"name":"Jasminstr.","postalCode":"16348","locality":"Wandlitz","municipality":{"key":"12060269","name":"Wandlitz","type":"Kreisangehörige_Gemeinde"},"district":{"key":"12060","name":"Barnim","type":"Landkreis"},"federalState":{"key":"12","name":"Brandenburg"}},{"name":"Jasminweg","postalCode":"16348","locality":"Wandlitz","municipality":{"key":"12060269","name":"Wandlitz","type":"Kreisangehörige_Gemeinde"},"district":{"key":"12060","name":"Barnim","type":"Landkreis"},"federalState":{"key":"12","name":"Brandenburg"}},{"name":"Jünemannplatz","postalCode":"16348","locality":"Wandlitz","municipality":{"key":"12060269","name":"Wandlitz","type":"Kreisangehörige_Gemeinde"},"district":{"key":"12060","name":"Barnim","type":"Landkreis"},"federalState":{"key":"12","name":"Brandenburg"}},{"name":"Kanalstr.","postalCode":"16348","locality":"Wandlitz","municipality":{"key":"12060269","name":"Wandlitz","type":"Kreisangehörige_Gemeinde"},"district":{"key":"12060","name":"Barnim","type":"Landkreis"},"federalState":{"key":"12","name":"Brandenburg"}},{"name":"Karl-Göbel-Str.","postalCode":"16348","locality":"Wandlitz","municipality":{"key":"12060269","name":"Wandlitz","type":"Kreisangehörige_Gemeinde"},"district":{"key":"12060","name":"Barnim","type":"Landkreis"},"federalState":{"key":"12","name":"Brandenburg"}},{"name":"Karl-Liebknecht-Str.","postalCode":"16348","locality":"Wandlitz","municipality":{"key":"12060269","name":"Wandlitz","type":"Kreisangehörige_Gemeinde"},"district":{"key":"12060","name":"Barnim","type":"Landkreis"},"federalState":{"key":"12","name":"Brandenburg"}},{"name":"Karl-Marx-Allee","postalCode":"16348","locality":"Wandlitz","municipality":{"key":"12060269","name":"Wandlitz","type":"Kreisangehörige_Gemeinde"},"district":{"key":"12060","name":"Barnim","type":"Landkreis"},"federalState":{"key":"12","name":"Brandenburg"}},{"name":"Karl-Marx-Platz","postalCode":"16348","locality":"Wandlitz","municipality":{"key":"12060269","name":"Wandlitz","type":"Kreisangehörige_Gemeinde"},"district":{"key":"12060","name":"Barnim","type":"Landkreis"},"federalState":{"key":"12","name":"Brandenburg"}},{"name":"Karl-Marx-Str.","postalCode":"16348","locality":"Wandlitz","municipality":{"key":"12060269","name":"Wandlitz","type":"Kreisangehörige_Gemeinde"},"district":{"key":"12060","name":"Barnim","type":"Landkreis"},"federalState":{"key":"12","name":"Brandenburg"}},{"name":"Karl-Schweitzer-Str.","postalCode":"16348","locality":"Wandlitz","municipality":{"key":"12060269","name":"Wandlitz","type":"Kreisangehörige_Gemeinde"},"district":{"key":"12060","name":"Barnim","type":"Landkreis"},"federalState":{"key":"12","name":"Brandenburg"}},{"name":"Kastanienallee","postalCode":"16348","locality":"Wandlitz","municipality":{"key":"12060269","name":"Wandlitz","type":"Kreisangehörige_Gemeinde"},"district":{"key":"12060","name":"Barnim","type":"Landkreis"},"federalState":{"key":"12","name":"Brandenburg"}},{"name":"Kastanienhain","postalCode":"16348","locality":"Wandlitz","municipality":{"key":"12060269","name":"Wandlitz","type":"Kreisangehörige_Gemeinde"},"district":{"key":"12060","name":"Barnim","type":"Landkreis"},"federalState":{"key":"12","name":"Brandenburg"}},{"name":"Kastanienstr.","postalCode":"16348","locality":"Wandlitz","municipality":{"key":"12060269","name":"Wandlitz","type":"Kreisangehörige_Gemeinde"},"district":{"key":"12060","name":"Barnim","type":"Landkreis"},"federalState":{"key":"12","name":"Brandenburg"}},{"name":"Kastanienweg","postalCode":"16348","locality":"Wandlitz","municipality":{"key":"12060269","name":"Wandlitz","type":"Kreisangehörige_Gemeinde"},"district":{"key":"12060","name":"Barnim","type":"Landkreis"},"federalState":{"key":"12","name":"Brandenburg"}},{"name":"Kieferngasse","postalCode":"16348","locality":"Wandlitz","municipality":{"key":"12060269","name":"Wandlitz","type":"Kreisangehörige_Gemeinde"},"district":{"key":"12060","name":"Barnim","type":"Landkreis"},"federalState":{"key":"12","name":"Brandenburg"}},{"name":"Kieferngrund","postalCode":"16348","locality":"Wandlitz","municipality":{"key":"12060269","name":"Wandlitz","type":"Kreisangehörige_Gemeinde"},"district":{"key":"12060","name":"Barnim","type":"Landkreis"},"federalState":{"key":"12","name":"Brandenburg"}},{"name":"Kiefernhain","postalCode":"16348","locality":"Wandlitz","municipality":{"key":"12060269","name":"Wandlitz","type":"Kreisangehörige_Gemeinde"},"district":{"key":"12060","name":"Barnim","type":"Landkreis"},"federalState":{"key":"12","name":"Brandenburg"}},{"name":"Kiefernheide","postalCode":"16348","locality":"Wandlitz","municipality":{"key":"12060269","name":"Wandlitz","type":"Kreisangehörige_Gemeinde"},"district":{"key":"12060","name":"Barnim","type":"Landkreis"},"federalState":{"key":"12","name":"Brandenburg"}},{"name":"Kiefernstr.","postalCode":"16348","locality":"Wandlitz","municipality":{"key":"12060269","name":"Wandlitz","type":"Kreisangehörige_Gemeinde"},"district":{"key":"12060","name":"Barnim","type":"Landkreis"},"federalState":{"key":"12","name":"Brandenburg"}},{"name":"Kiefernweg","postalCode":"16348","locality":"Wandlitz","municipality":{"key":"12060269","name":"Wandlitz","type":"Kreisangehörige_Gemeinde"},"district":{"key":"12060","name":"Barnim","type":"Landkreis"},"federalState":{"key":"12","name":"Brandenburg"}},{"name":"Kiesweg","postalCode":"16348","locality":"Wandlitz","municipality":{"key":"12060269","name":"Wandlitz","type":"Kreisangehörige_Gemeinde"},"district":{"key":"12060","name":"Barnim","type":"Landkreis"},"federalState":{"key":"12","name":"Brandenburg"}},{"name":"Kirchstr.","postalCode":"16348","locality":"Wandlitz","municipality":{"key":"12060269","name":"Wandlitz","type":"Kreisangehörige_Gemeinde"},"district":{"key":"12060","name":"Barnim","type":"Landkreis"},"federalState":{"key":"12","name":"Brandenburg"}},{"name":"Kirschallee","postalCode":"16348","locality":"Wandlitz","municipality":{"key":"12060269","name":"Wandlitz","type":"Kreisangehörige_Gemeinde"},"district":{"key":"12060","name":"Barnim","type":"Landkreis"},"federalState":{"key":"12","name":"Brandenburg"}},{"name":"Kirschenallee","postalCode":"16348","locality":"Wandlitz","municipality":{"key":"12060269","name":"Wandlitz","type":"Kreisangehörige_Gemeinde"},"district":{"key":"12060","name":"Barnim","type":"Landkreis"},"federalState":{"key":"12","name":"Brandenburg"}},{"name":"Klappbrücke Zerpenschleuse","postalCode":"16348","locality":"Wandlitz","municipality":{"key":"12060269","name":"Wandlitz","type":"Kreisangehörige_Gemeinde"},"district":{"key":"12060","name":"Barnim","type":"Landkreis"},"federalState":{"key":"12","name":"Brandenburg"}},{"name":"Kleiststr.","postalCode":"16348","locality":"Wandlitz","municipality":{"key":"12060269","name":"Wandlitz","type":"Kreisangehörige_Gemeinde"},"district":{"key":"12060","name":"Barnim","type":"Landkreis"},"federalState":{"key":"12","name":"Brandenburg"}},{"name":"Klosterfelder Chaussee","postalCode":"16348","locality":"Wandlitz","municipality":{"key":"12060269","name":"Wandlitz","type":"Kreisangehörige_Gemeinde"},"district":{"key":"12060","name":"Barnim","type":"Landkreis"},"federalState":{"key":"12","name":"Brandenburg"}},{"name":"Klosterfelder Damm","postalCode":"16348","locality":"Wandlitz","municipality":{"key":"12060269","name":"Wandlitz","type":"Kreisangehörige_Gemeinde"},"district":{"key":"12060","name":"Barnim","type":"Landkreis"},"federalState":{"key":"12","name":"Brandenburg"}},{"name":"Klosterfelder Hauptstr.","postalCode":"16348","locality":"Wandlitz","municipality":{"key":"12060269","name":"Wandlitz","type":"Kreisangehörige_Gemeinde"},"district":{"key":"12060","name":"Barnim","type":"Landkreis"},"federalState":{"key":"12","name":"Brandenburg"}},{"name":"Klosterfelder Str.","postalCode":"16348","locality":"Wandlitz","municipality":{"key":"12060269","name":"Wandlitz","type":"Kreisangehörige_Gemeinde"},"district":{"key":"12060","name":"Barnim","type":"Landkreis"},"federalState":{"key":"12","name":"Brandenburg"}},{"name":"Koblenzer Str.","postalCode":"16348","locality":"Wandlitz","municipality":{"key":"12060269","name":"Wandlitz","type":"Kreisangehörige_Gemeinde"},"district":{"key":"12060","name":"Barnim","type":"Landkreis"},"federalState":{"key":"12","name":"Brandenburg"}},{"name":"Koloniestr.","postalCode":"16348","locality":"Wandlitz","municipality":{"key":"12060269","name":"Wandlitz","type":"Kreisangehörige_Gemeinde"},"district":{"key":"12060","name":"Barnim","type":"Landkreis"},"federalState":{"key":"12","name":"Brandenburg"}},{"name":"Kornblumenweg","postalCode":"16348","locality":"Wandlitz","municipality":{"key":"12060269","name":"Wandlitz","type":"Kreisangehörige_Gemeinde"},"district":{"key":"12060","name":"Barnim","type":"Landkreis"},"federalState":{"key":"12","name":"Brandenburg"}},{"name":"Krokusweg","postalCode":"16348","locality":"Wandlitz","municipality":{"key":"12060269","name":"Wandlitz","type":"Kreisangehörige_Gemeinde"},"district":{"key":"12060","name":"Barnim","type":"Landkreis"},"federalState":{"key":"12","name":"Brandenburg"}},{"name":"Krumme Lanke","postalCode":"16348","locality":"Wandlitz","municipality":{"key":"12060269","name":"Wandlitz","type":"Kreisangehörige_Gemeinde"},"district":{"key":"12060","name":"Barnim","type":"Landkreis"},"federalState":{"key":"12","name":"Brandenburg"}},{"name":"Kuckucksweg","postalCode":"16348","locality":"Wandlitz","municipality":{"key":"12060269","name":"Wandlitz","type":"Kreisangehörige_Gemeinde"},"district":{"key":"12060","name":"Barnim","type":"Landkreis"},"federalState":{"key":"12","name":"Brandenburg"}},{"name":"Kürbisstr.","postalCode":"16348","locality":"Wandlitz","municipality":{"key":"12060269","name":"Wandlitz","type":"Kreisangehörige_Gemeinde"},"district":{"key":"12060","name":"Barnim","type":"Landkreis"},"federalState":{"key":"12","name":"Brandenburg"}},{"name":"Kurze Gasse","postalCode":"16348","locality":"Wandlitz","municipality":{"key":"12060269","name":"Wandlitz","type":"Kreisangehörige_Gemeinde"},"district":{"key":"12060","name":"Barnim","type":"Landkreis"},"federalState":{"key":"12","name":"Brandenburg"}},{"name":"Kurzer Weg","postalCode":"16348","locality":"Wandlitz","municipality":{"key":"12060269","name":"Wandlitz","type":"Kreisangehörige_Gemeinde"},"district":{"key":"12060","name":"Barnim","type":"Landkreis"},"federalState":{"key":"12","name":"Brandenburg"}},{"name":"Kurze Str.","postalCode":"16348","locality":"Wandlitz","municipality":{"key":"12060269","name":"Wandlitz","type":"Kreisangehörige_Gemeinde"},"district":{"key":"12060","name":"Barnim","type":"Landkreis"},"federalState":{"key":"12","name":"Brandenburg"}},{"name":"Küsterfleck","postalCode":"16348","locality":"Wandlitz","municipality":{"key":"12060269","name":"Wandlitz","type":"Kreisangehörige_Gemeinde"},"district":{"key":"12060","name":"Barnim","type":"Landkreis"},"federalState":{"key":"12","name":"Brandenburg"}},{"name":"Landweg","postalCode":"16348","locality":"Wandlitz","municipality":{"key":"12060269","name":"Wandlitz","type":"Kreisangehörige_Gemeinde"},"district":{"key":"12060","name":"Barnim","type":"Landkreis"},"federalState":{"key":"12","name":"Brandenburg"}},{"name":"Lange Gasse","postalCode":"16348","locality":"Wandlitz","municipality":{"key":"12060269","name":"Wandlitz","type":"Kreisangehörige_Gemeinde"},"district":{"key":"12060","name":"Barnim","type":"Landkreis"},"federalState":{"key":"12","name":"Brandenburg"}},{"name":"Langer Grund","postalCode":"16348","locality":"Wandlitz","municipality":{"key":"12060269","name":"Wandlitz","type":"Kreisangehörige_Gemeinde"},"district":{"key":"12060","name":"Barnim","type":"Landkreis"},"federalState":{"key":"12","name":"Brandenburg"}},{"name":"Lange Str.","postalCode":"16348","locality":"Wandlitz","municipality":{"key":"12060269","name":"Wandlitz","type":"Kreisangehörige_Gemeinde"},"district":{"key":"12060","name":"Barnim","type":"Landkreis"},"federalState":{"key":"12","name":"Brandenburg"}},{"name":"Lanker Allee","postalCode":"16348","locality":"Wandlitz","municipality":{"key":"12060269","name":"Wandlitz","type":"Kreisangehörige_Gemeinde"},"district":{"key":"12060","name":"Barnim","type":"Landkreis"},"federalState":{"key":"12","name":"Brandenburg"}},{"name":"Lanker Chaussee","postalCode":"16348","locality":"Wandlitz","municipality":{"key":"12060269","name":"Wandlitz","type":"Kreisangehörige_Gemeinde"},"district":{"key":"12060","name":"Barnim","type":"Landkreis"},"federalState":{"key":"12","name":"Brandenburg"}},{"name":"Lanker Dorfstr.","postalCode":"16348","locality":"Wandlitz","municipality":{"key":"12060269","name":"Wandlitz","type":"Kreisangehörige_Gemeinde"},"district":{"key":"12060","name":"Barnim","type":"Landkreis"},"federalState":{"key":"12","name":"Brandenburg"}},{"name":"Lanker Str.","postalCode":"16348","locality":"Wandlitz","municipality":{"key":"12060269","name":"Wandlitz","type":"Kreisangehörige_Gemeinde"},"district":{"key":"12060","name":"Barnim","type":"Landkreis"},"federalState":{"key":"12","name":"Brandenburg"}},{"name":"Lanker Weg","postalCode":"16348","locality":"Wandlitz","municipality":{"key":"12060269","name":"Wandlitz","type":"Kreisangehörige_Gemeinde"},"district":{"key":"12060","name":"Barnim","type":"Landkreis"},"federalState":{"key":"12","name":"Brandenburg"}},{"name":"Lärchenstr.","postalCode":"16348","locality":"Wandlitz","municipality":{"key":"12060269","name":"Wandlitz","type":"Kreisangehörige_Gemeinde"},"district":{"key":"12060","name":"Barnim","type":"Landkreis"},"federalState":{"key":"12","name":"Brandenburg"}},{"name":"Lavendelstr.","postalCode":"16348","locality":"Wandlitz","municipality":{"key":"12060269","name":"Wandlitz","type":"Kreisangehörige_Gemeinde"},"district":{"key":"12060","name":"Barnim","type":"Landkreis"},"federalState":{"key":"12","name":"Brandenburg"}},{"name":"Lehmannstr.","postalCode":"16348","locality":"Wandlitz","municipality":{"key":"12060269","name":"Wandlitz","type":"Kreisangehörige_Gemeinde"},"district":{"key":"12060","name":"Barnim","type":"Landkreis"},"federalState":{"key":"12","name":"Brandenburg"}},{"name":"Lehmweg","postalCode":"16348","locality":"Wandlitz","municipality":{"key":"12060269","name":"Wandlitz","type":"Kreisangehörige_Gemeinde"},"district":{"key":"12060","name":"Barnim","type":"Landkreis"},"federalState":{"key":"12","name":"Brandenburg"}},{"name":"Leineweberstr.","postalCode":"16348","locality":"Wandlitz","municipality":{"key":"12060269","name":"Wandlitz","type":"Kreisangehörige_Gemeinde"},"district":{"key":"12060","name":"Barnim","type":"Landkreis"},"federalState":{"key":"12","name":"Brandenburg"}},{"name":"Lennförder Weg","postalCode":"16348","locality":"Wandlitz","municipality":{"key":"12060269","name":"Wandlitz","type":"Kreisangehörige_Gemeinde"},"district":{"key":"12060","name":"Barnim","type":"Landkreis"},"federalState":{"key":"12","name":"Brandenburg"}},{"name":"Liebenwalder Damm","postalCode":"16348","locality":"Wandlitz","municipality":{"key":"12060269","name":"Wandlitz","type":"Kreisangehörige_Gemeinde"},"district":{"key":"12060","name":"Barnim","type":"Landkreis"},"federalState":{"key":"12","name":"Brandenburg"}},{"name":"Liebenwalder Ende","postalCode":"16348","locality":"Wandlitz","municipality":{"key":"12060269","name":"Wandlitz","type":"Kreisangehörige_Gemeinde"},"district":{"key":"12060","name":"Barnim","type":"Landkreis"},"federalState":{"key":"12","name":"Brandenburg"}},{"name":"Liebenwalder Str.","postalCode":"16348","locality":"Wandlitz","municipality":{"key":"12060269","name":"Wandlitz","type":"Kreisangehörige_Gemeinde"},"district":{"key":"12060","name":"Barnim","type":"Landkreis"},"federalState":{"key":"12","name":"Brandenburg"}},{"name":"Liebenwalder Weg","postalCode":"16348","locality":"Wandlitz","municipality":{"key":"12060269","name":"Wandlitz","type":"Kreisangehörige_Gemeinde"},"district":{"key":"12060","name":"Barnim","type":"Landkreis"},"federalState":{"key":"12","name":"Brandenburg"}},{"name":"Liepnitzweg","postalCode":"16348","locality":"Wandlitz","municipality":{"key":"12060269","name":"Wandlitz","type":"Kreisangehörige_Gemeinde"},"district":{"key":"12060","name":"Barnim","type":"Landkreis"},"federalState":{"key":"12","name":"Brandenburg"}},{"name":"Ligusterweg","postalCode":"16348","locality":"Wandlitz","municipality":{"key":"12060269","name":"Wandlitz","type":"Kreisangehörige_Gemeinde"},"district":{"key":"12060","name":"Barnim","type":"Landkreis"},"federalState":{"key":"12","name":"Brandenburg"}},{"name":"Lilienstr.","postalCode":"16348","locality":"Wandlitz","municipality":{"key":"12060269","name":"Wandlitz","type":"Kreisangehörige_Gemeinde"},"district":{"key":"12060","name":"Barnim","type":"Landkreis"},"federalState":{"key":"12","name":"Brandenburg"}},{"name":"Lindenallee","postalCode":"16348","locality":"Wandlitz","municipality":{"key":"12060269","name":"Wandlitz","type":"Kreisangehörige_Gemeinde"},"district":{"key":"12060","name":"Barnim","type":"Landkreis"},"federalState":{"key":"12","name":"Brandenburg"}},{"name":"Lindengrund","postalCode":"16348","locality":"Wandlitz","municipality":{"key":"12060269","name":"Wandlitz","type":"Kreisangehörige_Gemeinde"},"district":{"key":"12060","name":"Barnim","type":"Landkreis"},"federalState":{"key":"12","name":"Brandenburg"}},{"name":"Lindenstr.","postalCode":"16348","locality":"Wandlitz","municipality":{"key":"12060269","name":"Wandlitz","type":"Kreisangehörige_Gemeinde"},"district":{"key":"12060","name":"Barnim","type":"Landkreis"},"federalState":{"key":"12","name":"Brandenburg"}},{"name":"Lindenweg","postalCode":"16348","locality":"Wandlitz","municipality":{"key":"12060269","name":"Wandlitz","type":"Kreisangehörige_Gemeinde"},"district":{"key":"12060","name":"Barnim","type":"Landkreis"},"federalState":{"key":"12","name":"Brandenburg"}},{"name":"Lottscheweg","postalCode":"16348","locality":"Wandlitz","municipality":{"key":"12060269","name":"Wandlitz","type":"Kreisangehörige_Gemeinde"},"district":{"key":"12060","name":"Barnim","type":"Landkreis"},"federalState":{"key":"12","name":"Brandenburg"}},{"name":"Louisenhain","postalCode":"16348","locality":"Wandlitz","municipality":{"key":"12060269","name":"Wandlitz","type":"Kreisangehörige_Gemeinde"},"district":{"key":"12060","name":"Barnim","type":"Landkreis"},"federalState":{"key":"12","name":"Brandenburg"}},{"name":"Löwenzahnpfad","postalCode":"16348","locality":"Wandlitz","municipality":{"key":"12060269","name":"Wandlitz","type":"Kreisangehörige_Gemeinde"},"district":{"key":"12060","name":"Barnim","type":"Landkreis"},"federalState":{"key":"12","name":"Brandenburg"}},{"name":"Lupinenweg","postalCode":"16348","locality":"Wandlitz","municipality":{"key":"12060269","name":"Wandlitz","type":"Kreisangehörige_Gemeinde"},"district":{"key":"12060","name":"Barnim","type":"Landkreis"},"federalState":{"key":"12","name":"Brandenburg"}},{"name":"Maiglöckchenstr.","postalCode":"16348","locality":"Wandlitz","municipality":{"key":"12060269","name":"Wandlitz","type":"Kreisangehörige_Gemeinde"},"district":{"key":"12060","name":"Barnim","type":"Landkreis"},"federalState":{"key":"12","name":"Brandenburg"}},{"name":"Malinenhof","postalCode":"16348","locality":"Wandlitz","municipality":{"key":"12060269","name":"Wandlitz","type":"Kreisangehörige_Gemeinde"},"district":{"key":"12060","name":"Barnim","type":"Landkreis"},"federalState":{"key":"12","name":"Brandenburg"}},{"name":"Maränenweg","postalCode":"16348","locality":"Wandlitz","municipality":{"key":"12060269","name":"Wandlitz","type":"Kreisangehörige_Gemeinde"},"district":{"key":"12060","name":"Barnim","type":"Landkreis"},"federalState":{"key":"12","name":"Brandenburg"}},{"name":"Memelstr.","postalCode":"16348","locality":"Wandlitz","municipality":{"key":"12060269","name":"Wandlitz","type":"Kreisangehörige_Gemeinde"},"district":{"key":"12060","name":"Barnim","type":"Landkreis"},"federalState":{"key":"12","name":"Brandenburg"}},{"name":"Mittelweg","postalCode":"16348","locality":"Wandlitz","municipality":{"key":"12060269","name":"Wandlitz","type":"Kreisangehörige_Gemeinde"},"district":{"key":"12060","name":"Barnim","type":"Landkreis"},"federalState":{"key":"12","name":"Brandenburg"}},{"name":"Mohnblumenring","postalCode":"16348","locality":"Wandlitz","municipality":{"key":"12060269","name":"Wandlitz","type":"Kreisangehörige_Gemeinde"},"district":{"key":"12060","name":"Barnim","type":"Landkreis"},"federalState":{"key":"12","name":"Brandenburg"}},{"name":"Moselstr.","postalCode":"16348","locality":"Wandlitz","municipality":{"key":"12060269","name":"Wandlitz","type":"Kreisangehörige_Gemeinde"},"district":{"key":"12060","name":"Barnim","type":"Landkreis"},"federalState":{"key":"12","name":"Brandenburg"}},{"name":"Mühlenbecker Chaussee","postalCode":"16348","locality":"Wandlitz","municipality":{"key":"12060269","name":"Wandlitz","type":"Kreisangehörige_Gemeinde"},"district":{"key":"12060","name":"Barnim","type":"Landkreis"},"federalState":{"key":"12","name":"Brandenburg"}},{"name":"Mühlenbecker Damm","postalCode":"16348","locality":"Wandlitz","municipality":{"key":"12060269","name":"Wandlitz","type":"Kreisangehörige_Gemeinde"},"district":{"key":"12060","name":"Barnim","type":"Landkreis"},"federalState":{"key":"12","name":"Brandenburg"}},{"name":"Mühlenbecker Str.","postalCode":"16348","locality":"Wandlitz","municipality":{"key":"12060269","name":"Wandlitz","type":"Kreisangehörige_Gemeinde"},"district":{"key":"12060","name":"Barnim","type":"Landkreis"},"federalState":{"key":"12","name":"Brandenburg"}},{"name":"Mühlengasse","postalCode":"16348","locality":"Wandlitz","municipality":{"key":"12060269","name":"Wandlitz","type":"Kreisangehörige_Gemeinde"},"district":{"key":"12060","name":"Barnim","type":"Landkreis"},"federalState":{"key":"12","name":"Brandenburg"}},{"name":"Mühlenstr.","postalCode":"16348","locality":"Wandlitz","municipality":{"key":"12060269","name":"Wandlitz","type":"Kreisangehörige_Gemeinde"},"district":{"key":"12060","name":"Barnim","type":"Landkreis"},"federalState":{"key":"12","name":"Brandenburg"}},{"name":"Narzissenstr.","postalCode":"16348","locality":"Wandlitz","municipality":{"key":"12060269","name":"Wandlitz","type":"Kreisangehörige_Gemeinde"},"district":{"key":"12060","name":"Barnim","type":"Landkreis"},"federalState":{"key":"12","name":"Brandenburg"}},{"name":"Nelkengasse","postalCode":"16348","locality":"Wandlitz","municipality":{"key":"12060269","name":"Wandlitz","type":"Kreisangehörige_Gemeinde"},"district":{"key":"12060","name":"Barnim","type":"Landkreis"},"federalState":{"key":"12","name":"Brandenburg"}},{"name":"Nelkenstr.","postalCode":"16348","locality":"Wandlitz","municipality":{"key":"12060269","name":"Wandlitz","type":"Kreisangehörige_Gemeinde"},"district":{"key":"12060","name":"Barnim","type":"Landkreis"},"federalState":{"key":"12","name":"Brandenburg"}},{"name":"Nelkenweg","postalCode":"16348","locality":"Wandlitz","municipality":{"key":"12060269","name":"Wandlitz","type":"Kreisangehörige_Gemeinde"},"district":{"key":"12060","name":"Barnim","type":"Landkreis"},"federalState":{"key":"12","name":"Brandenburg"}},{"name":"Netzestr.","postalCode":"16348","locality":"Wandlitz","municipality":{"key":"12060269","name":"Wandlitz","type":"Kreisangehörige_Gemeinde"},"district":{"key":"12060","name":"Barnim","type":"Landkreis"},"federalState":{"key":"12","name":"Brandenburg"}},{"name":"Netzetal","postalCode":"16348","locality":"Wandlitz","municipality":{"key":"12060269","name":"Wandlitz","type":"Kreisangehörige_Gemeinde"},"district":{"key":"12060","name":"Barnim","type":"Landkreis"},"federalState":{"key":"12","name":"Brandenburg"}},{"name":"Neuer Weg","postalCode":"16348","locality":"Wandlitz","municipality":{"key":"12060269","name":"Wandlitz","type":"Kreisangehörige_Gemeinde"},"district":{"key":"12060","name":"Barnim","type":"Landkreis"},"federalState":{"key":"12","name":"Brandenburg"}},{"name":"Neue Str.","postalCode":"16348","locality":"Wandlitz","municipality":{"key":"12060269","name":"Wandlitz","type":"Kreisangehörige_Gemeinde"},"district":{"key":"12060","name":"Barnim","type":"Landkreis"},"federalState":{"key":"12","name":"Brandenburg"}},{"name":"Neumühler Str.","postalCode":"16348","locality":"Wandlitz","municipality":{"key":"12060269","name":"Wandlitz","type":"Kreisangehörige_Gemeinde"},"district":{"key":"12060","name":"Barnim","type":"Landkreis"},"federalState":{"key":"12","name":"Brandenburg"}},{"name":"Nibelungenstr.","postalCode":"16348","locality":"Wandlitz","municipality":{"key":"12060269","name":"Wandlitz","type":"Kreisangehörige_Gemeinde"},"district":{"key":"12060","name":"Barnim","type":"Landkreis"},"federalState":{"key":"12","name":"Brandenburg"}},{"name":"Niederwaldstr.","postalCode":"16348","locality":"Wandlitz","municipality":{"key":"12060269","name":"Wandlitz","type":"Kreisangehörige_Gemeinde"},"district":{"key":"12060","name":"Barnim","type":"Landkreis"},"federalState":{"key":"12","name":"Brandenburg"}},{"name":"Nikolai-Ostrowski-Str.","postalCode":"16348","locality":"Wandlitz","municipality":{"key":"12060269","name":"Wandlitz","type":"Kreisangehörige_Gemeinde"},"district":{"key":"12060","name":"Barnim","type":"Landkreis"},"federalState":{"key":"12","name":"Brandenburg"}},{"name":"Oderstr.","postalCode":"16348","locality":"Wandlitz","municipality":{"key":"12060269","name":"Wandlitz","type":"Kreisangehörige_Gemeinde"},"district":{"key":"12060","name":"Barnim","type":"Landkreis"},"federalState":{"key":"12","name":"Brandenburg"}},{"name":"Odertal","postalCode":"16348","locality":"Wandlitz","municipality":{"key":"12060269","name":"Wandlitz","type":"Kreisangehörige_Gemeinde"},"district":{"key":"12060","name":"Barnim","type":"Landkreis"},"federalState":{"key":"12","name":"Brandenburg"}},{"name":"Oranienburger Chaussee","postalCode":"16348","locality":"Wandlitz","municipality":{"key":"12060269","name":"Wandlitz","type":"Kreisangehörige_Gemeinde"},"district":{"key":"12060","name":"Barnim","type":"Landkreis"},"federalState":{"key":"12","name":"Brandenburg"}},{"name":"Oranienburger Str.","postalCode":"16348","locality":"Wandlitz","municipality":{"key":"12060269","name":"Wandlitz","type":"Kreisangehörige_Gemeinde"},"district":{"key":"12060","name":"Barnim","type":"Landkreis"},"federalState":{"key":"12","name":"Brandenburg"}},{"name":"Pappelweg","postalCode":"16348","locality":"Wandlitz","municipality":{"key":"12060269","name":"Wandlitz","type":"Kreisangehörige_Gemeinde"},"district":{"key":"12060","name":"Barnim","type":"Landkreis"},"federalState":{"key":"12","name":"Brandenburg"}},{"name":"Paradiessiedlung","postalCode":"16348","locality":"Wandlitz","municipality":{"key":"12060269","name":"Wandlitz","type":"Kreisangehörige_Gemeinde"},"district":{"key":"12060","name":"Barnim","type":"Landkreis"},"federalState":{"key":"12","name":"Brandenburg"}},{"name":"Paradiesweg","postalCode":"16348","locality":"Wandlitz","municipality":{"key":"12060269","name":"Wandlitz","type":"Kreisangehörige_Gemeinde"},"district":{"key":"12060","name":"Barnim","type":"Landkreis"},"federalState":{"key":"12","name":"Brandenburg"}},{"name":"Parkallee","postalCode":"16348","locality":"Wandlitz","municipality":{"key":"12060269","name":"Wandlitz","type":"Kreisangehörige_Gemeinde"},"district":{"key":"12060","name":"Barnim","type":"Landkreis"},"federalState":{"key":"12","name":"Brandenburg"}},{"name":"Parkaue","postalCode":"16348","locality":"Wandlitz","municipality":{"key":"12060269","name":"Wandlitz","type":"Kreisangehörige_Gemeinde"},"district":{"key":"12060","name":"Barnim","type":"Landkreis"},"federalState":{"key":"12","name":"Brandenburg"}},{"name":"Parkstr.","postalCode":"16348","locality":"Wandlitz","municipality":{"key":"12060269","name":"Wandlitz","type":"Kreisangehörige_Gemeinde"},"district":{"key":"12060","name":"Barnim","type":"Landkreis"},"federalState":{"key":"12","name":"Brandenburg"}},{"name":"Paul-Engel-Str.","postalCode":"16348","locality":"Wandlitz","municipality":{"key":"12060269","name":"Wandlitz","type":"Kreisangehörige_Gemeinde"},"district":{"key":"12060","name":"Barnim","type":"Landkreis"},"federalState":{"key":"12","name":"Brandenburg"}},{"name":"Petunienweg","postalCode":"16348","locality":"Wandlitz","municipality":{"key":"12060269","name":"Wandlitz","type":"Kreisangehörige_Gemeinde"},"district":{"key":"12060","name":"Barnim","type":"Landkreis"},"federalState":{"key":"12","name":"Brandenburg"}},{"name":"Philipp-Müller-Str.","postalCode":"16348","locality":"Wandlitz","municipality":{"key":"12060269","name":"Wandlitz","type":"Kreisangehörige_Gemeinde"},"district":{"key":"12060","name":"Barnim","type":"Landkreis"},"federalState":{"key":"12","name":"Brandenburg"}},{"name":"Pittweg","postalCode":"16348","locality":"Wandlitz","municipality":{"key":"12060269","name":"Wandlitz","type":"Kreisangehörige_Gemeinde"},"district":{"key":"12060","name":"Barnim","type":"Landkreis"},"federalState":{"key":"12","name":"Brandenburg"}},{"name":"Platanenstr.","postalCode":"16348","locality":"Wandlitz","municipality":{"key":"12060269","name":"Wandlitz","type":"Kreisangehörige_Gemeinde"},"district":{"key":"12060","name":"Barnim","type":"Landkreis"},"federalState":{"key":"12","name":"Brandenburg"}},{"name":"Prendener Allee","postalCode":"16348","locality":"Wandlitz","municipality":{"key":"12060269","name":"Wandlitz","type":"Kreisangehörige_Gemeinde"},"district":{"key":"12060","name":"Barnim","type":"Landkreis"},"federalState":{"key":"12","name":"Brandenburg"}},{"name":"Prendener Dorfstr.","postalCode":"16348","locality":"Wandlitz","municipality":{"key":"12060269","name":"Wandlitz","type":"Kreisangehörige_Gemeinde"},"district":{"key":"12060","name":"Barnim","type":"Landkreis"},"federalState":{"key":"12","name":"Brandenburg"}},{"name":"Prendener Str.","postalCode":"16348","locality":"Wandlitz","municipality":{"key":"12060269","name":"Wandlitz","type":"Kreisangehörige_Gemeinde"},"district":{"key":"12060","name":"Barnim","type":"Landkreis"},"federalState":{"key":"12","name":"Brandenburg"}},{"name":"Prendener Weg","postalCode":"16348","locality":"Wandlitz","municipality":{"key":"12060269","name":"Wandlitz","type":"Kreisangehörige_Gemeinde"},"district":{"key":"12060","name":"Barnim","type":"Landkreis"},"federalState":{"key":"12","name":"Brandenburg"}},{"name":"Prenzlauer Chaussee","postalCode":"16348","locality":"Wandlitz","municipality":{"key":"12060269","name":"Wandlitz","type":"Kreisangehörige_Gemeinde"},"district":{"key":"12060","name":"Barnim","type":"Landkreis"},"federalState":{"key":"12","name":"Brandenburg"}},{"name":"Prenzlauer Str.","postalCode":"16348","locality":"Wandlitz","municipality":{"key":"12060269","name":"Wandlitz","type":"Kreisangehörige_Gemeinde"},"district":{"key":"12060","name":"Barnim","type":"Landkreis"},"federalState":{"key":"12","name":"Brandenburg"}},{"name":"Primelstr.","postalCode":"16348","locality":"Wandlitz","municipality":{"key":"12060269","name":"Wandlitz","type":"Kreisangehörige_Gemeinde"},"district":{"key":"12060","name":"Barnim","type":"Landkreis"},"federalState":{"key":"12","name":"Brandenburg"}},{"name":"Primelweg","postalCode":"16348","locality":"Wandlitz","municipality":{"key":"12060269","name":"Wandlitz","type":"Kreisangehörige_Gemeinde"},"district":{"key":"12060","name":"Barnim","type":"Landkreis"},"federalState":{"key":"12","name":"Brandenburg"}},{"name":"Puschkinstr.","postalCode":"16348","locality":"Wandlitz","municipality":{"key":"12060269","name":"Wandlitz","type":"Kreisangehörige_Gemeinde"},"district":{"key":"12060","name":"Barnim","type":"Landkreis"},"federalState":{"key":"12","name":"Brandenburg"}},{"name":"Puschkinweg","postalCode":"16348","locality":"Wandlitz","municipality":{"key":"12060269","name":"Wandlitz","type":"Kreisangehörige_Gemeinde"},"district":{"key":"12060","name":"Barnim","type":"Landkreis"},"federalState":{"key":"12","name":"Brandenburg"}},{"name":"Rautensteig","postalCode":"16348","locality":"Wandlitz","municipality":{"key":"12060269","name":"Wandlitz","type":"Kreisangehörige_Gemeinde"},"district":{"key":"12060","name":"Barnim","type":"Landkreis"},"federalState":{"key":"12","name":"Brandenburg"}},{"name":"Rehmater Weg","postalCode":"16348","locality":"Wandlitz","municipality":{"key":"12060269","name":"Wandlitz","type":"Kreisangehörige_Gemeinde"},"district":{"key":"12060","name":"Barnim","type":"Landkreis"},"federalState":{"key":"12","name":"Brandenburg"}},{"name":"Rehwiese","postalCode":"16348","locality":"Wandlitz","municipality":{"key":"12060269","name":"Wandlitz","type":"Kreisangehörige_Gemeinde"},"district":{"key":"12060","name":"Barnim","type":"Landkreis"},"federalState":{"key":"12","name":"Brandenburg"}},{"name":"Rehwinkel","postalCode":"16348","locality":"Wandlitz","municipality":{"key":"12060269","name":"Wandlitz","type":"Kreisangehörige_Gemeinde"},"district":{"key":"12060","name":"Barnim","type":"Landkreis"},"federalState":{"key":"12","name":"Brandenburg"}},{"name":"Rene-Iskin-Ring","postalCode":"16348","locality":"Wandlitz","municipality":{"key":"12060269","name":"Wandlitz","type":"Kreisangehörige_Gemeinde"},"district":{"key":"12060","name":"Barnim","type":"Landkreis"},"federalState":{"key":"12","name":"Brandenburg"}},{"name":"Rennegestell","postalCode":"16348","locality":"Wandlitz","municipality":{"key":"12060269","name":"Wandlitz","type":"Kreisangehörige_Gemeinde"},"district":{"key":"12060","name":"Barnim","type":"Landkreis"},"federalState":{"key":"12","name":"Brandenburg"}},{"name":"Rheinallee","postalCode":"16348","locality":"Wandlitz","municipality":{"key":"12060269","name":"Wandlitz","type":"Kreisangehörige_Gemeinde"},"district":{"key":"12060","name":"Barnim","type":"Landkreis"},"federalState":{"key":"12","name":"Brandenburg"}},{"name":"Richard-Wagner-Str.","postalCode":"16348","locality":"Wandlitz","municipality":{"key":"12060269","name":"Wandlitz","type":"Kreisangehörige_Gemeinde"},"district":{"key":"12060","name":"Barnim","type":"Landkreis"},"federalState":{"key":"12","name":"Brandenburg"}},{"name":"Robinienweg","postalCode":"16348","locality":"Wandlitz","municipality":{"key":"12060269","name":"Wandlitz","type":"Kreisangehörige_Gemeinde"},"district":{"key":"12060","name":"Barnim","type":"Landkreis"},"federalState":{"key":"12","name":"Brandenburg"}},{"name":"Rosengarten","postalCode":"16348","locality":"Wandlitz","municipality":{"key":"12060269","name":"Wandlitz","type":"Kreisangehörige_Gemeinde"},"district":{"key":"12060","name":"Barnim","type":"Landkreis"},"federalState":{"key":"12","name":"Brandenburg"}},{"name":"Rosenstr.","postalCode":"16348","locality":"Wandlitz","municipality":{"key":"12060269","name":"Wandlitz","type":"Kreisangehörige_Gemeinde"},"district":{"key":"12060","name":"Barnim","type":"Landkreis"},"federalState":{"key":"12","name":"Brandenburg"}},{"name":"Rotkäppchenweg","postalCode":"16348","locality":"Wandlitz","municipality":{"key":"12060269","name":"Wandlitz","type":"Kreisangehörige_Gemeinde"},"district":{"key":"12060","name":"Barnim","type":"Landkreis"},"federalState":{"key":"12","name":"Brandenburg"}},{"name":"Rotteplatz","postalCode":"16348","locality":"Wandlitz","municipality":{"key":"12060269","name":"Wandlitz","type":"Kreisangehörige_Gemeinde"},"district":{"key":"12060","name":"Barnim","type":"Landkreis"},"federalState":{"key":"12","name":"Brandenburg"}},{"name":"Rückerstr.","postalCode":"16348","locality":"Wandlitz","municipality":{"key":"12060269","name":"Wandlitz","type":"Kreisangehörige_Gemeinde"},"district":{"key":"12060","name":"Barnim","type":"Landkreis"},"federalState":{"key":"12","name":"Brandenburg"}},{"name":"Rüdesheimer Str.","postalCode":"16348","locality":"Wandlitz","municipality":{"key":"12060269","name":"Wandlitz","type":"Kreisangehörige_Gemeinde"},"district":{"key":"12060","name":"Barnim","type":"Landkreis"},"federalState":{"key":"12","name":"Brandenburg"}},{"name":"Rudolfstr.","postalCode":"16348","locality":"Wandlitz","municipality":{"key":"12060269","name":"Wandlitz","type":"Kreisangehörige_Gemeinde"},"district":{"key":"12060","name":"Barnim","type":"Landkreis"},"federalState":{"key":"12","name":"Brandenburg"}},{"name":"Ruhlsdorfer Allee","postalCode":"16348","locality":"Wandlitz","municipality":{"key":"12060269","name":"Wandlitz","type":"Kreisangehörige_Gemeinde"},"district":{"key":"12060","name":"Barnim","type":"Landkreis"},"federalState":{"key":"12","name":"Brandenburg"}},{"name":"Ruhlsdorfer Str.","postalCode":"16348","locality":"Wandlitz","municipality":{"key":"12060269","name":"Wandlitz","type":"Kreisangehörige_Gemeinde"},"district":{"key":"12060","name":"Barnim","type":"Landkreis"},"federalState":{"key":"12","name":"Brandenburg"}},{"name":"Ruhlsdorfer Weg","postalCode":"16348","locality":"Wandlitz","municipality":{"key":"12060269","name":"Wandlitz","type":"Kreisangehörige_Gemeinde"},"district":{"key":"12060","name":"Barnim","type":"Landkreis"},"federalState":{"key":"12","name":"Brandenburg"}},{"name":"Rüsternstr.","postalCode":"16348","locality":"Wandlitz","municipality":{"key":"12060269","name":"Wandlitz","type":"Kreisangehörige_Gemeinde"},"district":{"key":"12060","name":"Barnim","type":"Landkreis"},"federalState":{"key":"12","name":"Brandenburg"}},{"name":"Saalestr.","postalCode":"16348","locality":"Wandlitz","municipality":{"key":"12060269","name":"Wandlitz","type":"Kreisangehörige_Gemeinde"},"district":{"key":"12060","name":"Barnim","type":"Landkreis"},"federalState":{"key":"12","name":"Brandenburg"}},{"name":"Sandweg","postalCode":"16348","locality":"Wandlitz","municipality":{"key":"12060269","name":"Wandlitz","type":"Kreisangehörige_Gemeinde"},"district":{"key":"12060","name":"Barnim","type":"Landkreis"},"federalState":{"key":"12","name":"Brandenburg"}},{"name":"Saupfuhlweg","postalCode":"16348","locality":"Wandlitz","municipality":{"key":"12060269","name":"Wandlitz","type":"Kreisangehörige_Gemeinde"},"district":{"key":"12060","name":"Barnim","type":"Landkreis"},"federalState":{"key":"12","name":"Brandenburg"}},{"name":"Schillerstr.","postalCode":"16348","locality":"Wandlitz","municipality":{"key":"12060269","name":"Wandlitz","type":"Kreisangehörige_Gemeinde"},"district":{"key":"12060","name":"Barnim","type":"Landkreis"},"federalState":{"key":"12","name":"Brandenburg"}},{"name":"Schleusenstr.","postalCode":"16348","locality":"Wandlitz","municipality":{"key":"12060269","name":"Wandlitz","type":"Kreisangehörige_Gemeinde"},"district":{"key":"12060","name":"Barnim","type":"Landkreis"},"federalState":{"key":"12","name":"Brandenburg"}},{"name":"Schloßstr.","postalCode":"16348","locality":"Wandlitz","municipality":{"key":"12060269","name":"Wandlitz","type":"Kreisangehörige_Gemeinde"},"district":{"key":"12060","name":"Barnim","type":"Landkreis"},"federalState":{"key":"12","name":"Brandenburg"}},{"name":"Schmidtstr.","postalCode":"16348","locality":"Wandlitz","municipality":{"key":"12060269","name":"Wandlitz","type":"Kreisangehörige_Gemeinde"},"district":{"key":"12060","name":"Barnim","type":"Landkreis"},"federalState":{"key":"12","name":"Brandenburg"}},{"name":"Schneewittchenweg","postalCode":"16348","locality":"Wandlitz","municipality":{"key":"12060269","name":"Wandlitz","type":"Kreisangehörige_Gemeinde"},"district":{"key":"12060","name":"Barnim","type":"Landkreis"},"federalState":{"key":"12","name":"Brandenburg"}},{"name":"Schnepfenstrich","postalCode":"16348","locality":"Wandlitz","municipality":{"key":"12060269","name":"Wandlitz","type":"Kreisangehörige_Gemeinde"},"district":{"key":"12060","name":"Barnim","type":"Landkreis"},"federalState":{"key":"12","name":"Brandenburg"}},{"name":"Schönerlinder Bahnhofstr.","postalCode":"16348","locality":"Wandlitz","municipality":{"key":"12060269","name":"Wandlitz","type":"Kreisangehörige_Gemeinde"},"district":{"key":"12060","name":"Barnim","type":"Landkreis"},"federalState":{"key":"12","name":"Brandenburg"}},{"name":"Schönerlinder Chaussee","postalCode":"16348","locality":"Wandlitz","municipality":{"key":"12060269","name":"Wandlitz","type":"Kreisangehörige_Gemeinde"},"district":{"key":"12060","name":"Barnim","type":"Landkreis"},"federalState":{"key":"12","name":"Brandenburg"}},{"name":"Schönerlinder Dorfstr.","postalCode":"16348","locality":"Wandlitz","municipality":{"key":"12060269","name":"Wandlitz","type":"Kreisangehörige_Gemeinde"},"district":{"key":"12060","name":"Barnim","type":"Landkreis"},"federalState":{"key":"12","name":"Brandenburg"}},{"name":"Schorfheidestr.","postalCode":"16348","locality":"Wandlitz","municipality":{"key":"12060269","name":"Wandlitz","type":"Kreisangehörige_Gemeinde"},"district":{"key":"12060","name":"Barnim","type":"Landkreis"},"federalState":{"key":"12","name":"Brandenburg"}},{"name":"Schulstr.","postalCode":"16348","locality":"Wandlitz","municipality":{"key":"12060269","name":"Wandlitz","type":"Kreisangehörige_Gemeinde"},"district":{"key":"12060","name":"Barnim","type":"Landkreis"},"federalState":{"key":"12","name":"Brandenburg"}},{"name":"Schützenstr.","postalCode":"16348","locality":"Wandlitz","municipality":{"key":"12060269","name":"Wandlitz","type":"Kreisangehörige_Gemeinde"},"district":{"key":"12060","name":"Barnim","type":"Landkreis"},"federalState":{"key":"12","name":"Brandenburg"}},{"name":"Schwalbenberg","postalCode":"16348","locality":"Wandlitz","municipality":{"key":"12060269","name":"Wandlitz","type":"Kreisangehörige_Gemeinde"},"district":{"key":"12060","name":"Barnim","type":"Landkreis"},"federalState":{"key":"12","name":"Brandenburg"}},{"name":"Schwarzer Weg","postalCode":"16348","locality":"Wandlitz","municipality":{"key":"12060269","name":"Wandlitz","type":"Kreisangehörige_Gemeinde"},"district":{"key":"12060","name":"Barnim","type":"Landkreis"},"federalState":{"key":"12","name":"Brandenburg"}},{"name":"Seebadkorso","postalCode":"16348","locality":"Wandlitz","municipality":{"key":"12060269","name":"Wandlitz","type":"Kreisangehörige_Gemeinde"},"district":{"key":"12060","name":"Barnim","type":"Landkreis"},"federalState":{"key":"12","name":"Brandenburg"}},{"name":"Seegerstr.","postalCode":"16348","locality":"Wandlitz","municipality":{"key":"12060269","name":"Wandlitz","type":"Kreisangehörige_Gemeinde"},"district":{"key":"12060","name":"Barnim","type":"Landkreis"},"federalState":{"key":"12","name":"Brandenburg"}},{"name":"Seetrift","postalCode":"16348","locality":"Wandlitz","municipality":{"key":"12060269","name":"Wandlitz","type":"Kreisangehörige_Gemeinde"},"district":{"key":"12060","name":"Barnim","type":"Landkreis"},"federalState":{"key":"12","name":"Brandenburg"}},{"name":"Seeweg","postalCode":"16348","locality":"Wandlitz","municipality":{"key":"12060269","name":"Wandlitz","type":"Kreisangehörige_Gemeinde"},"district":{"key":"12060","name":"Barnim","type":"Landkreis"},"federalState":{"key":"12","name":"Brandenburg"}},{"name":"Siedlung am Waldweg","postalCode":"16348","locality":"Wandlitz","municipality":{"key":"12060269","name":"Wandlitz","type":"Kreisangehörige_Gemeinde"},"district":{"key":"12060","name":"Barnim","type":"Landkreis"},"federalState":{"key":"12","name":"Brandenburg"}},{"name":"Siegfriedstr.","postalCode":"16348","locality":"Wandlitz","municipality":{"key":"12060269","name":"Wandlitz","type":"Kreisangehörige_Gemeinde"},"district":{"key":"12060","name":"Barnim","type":"Landkreis"},"federalState":{"key":"12","name":"Brandenburg"}},{"name":"Siegfriedweg","postalCode":"16348","locality":"Wandlitz","municipality":{"key":"12060269","name":"Wandlitz","type":"Kreisangehörige_Gemeinde"},"district":{"key":"12060","name":"Barnim","type":"Landkreis"},"federalState":{"key":"12","name":"Brandenburg"}},{"name":"Sieglindestr.","postalCode":"16348","locality":"Wandlitz","municipality":{"key":"12060269","name":"Wandlitz","type":"Kreisangehörige_Gemeinde"},"district":{"key":"12060","name":"Barnim","type":"Landkreis"},"federalState":{"key":"12","name":"Brandenburg"}},{"name":"Sieglindeweg","postalCode":"16348","locality":"Wandlitz","municipality":{"key":"12060269","name":"Wandlitz","type":"Kreisangehörige_Gemeinde"},"district":{"key":"12060","name":"Barnim","type":"Landkreis"},"federalState":{"key":"12","name":"Brandenburg"}},{"name":"Sonnenblumenstr.","postalCode":"16348","locality":"Wandlitz","municipality":{"key":"12060269","name":"Wandlitz","type":"Kreisangehörige_Gemeinde"},"district":{"key":"12060","name":"Barnim","type":"Landkreis"},"federalState":{"key":"12","name":"Brandenburg"}},{"name":"Sophienstädter Weg","postalCode":"16348","locality":"Wandlitz","municipality":{"key":"12060269","name":"Wandlitz","type":"Kreisangehörige_Gemeinde"},"district":{"key":"12060","name":"Barnim","type":"Landkreis"},"federalState":{"key":"12","name":"Brandenburg"}},{"name":"Spechtweg","postalCode":"16348","locality":"Wandlitz","municipality":{"key":"12060269","name":"Wandlitz","type":"Kreisangehörige_Gemeinde"},"district":{"key":"12060","name":"Barnim","type":"Landkreis"},"federalState":{"key":"12","name":"Brandenburg"}},{"name":"Spreestr.","postalCode":"16348","locality":"Wandlitz","municipality":{"key":"12060269","name":"Wandlitz","type":"Kreisangehörige_Gemeinde"},"district":{"key":"12060","name":"Barnim","type":"Landkreis"},"federalState":{"key":"12","name":"Brandenburg"}},{"name":"Spreetal","postalCode":"16348","locality":"Wandlitz","municipality":{"key":"12060269","name":"Wandlitz","type":"Kreisangehörige_Gemeinde"},"district":{"key":"12060","name":"Barnim","type":"Landkreis"},"federalState":{"key":"12","name":"Brandenburg"}},{"name":"Steinweg","postalCode":"16348","locality":"Wandlitz","municipality":{"key":"12060269","name":"Wandlitz","type":"Kreisangehörige_Gemeinde"},"district":{"key":"12060","name":"Barnim","type":"Landkreis"},"federalState":{"key":"12","name":"Brandenburg"}},{"name":"Stellmacherweg","postalCode":"16348","locality":"Wandlitz","municipality":{"key":"12060269","name":"Wandlitz","type":"Kreisangehörige_Gemeinde"},"district":{"key":"12060","name":"Barnim","type":"Landkreis"},"federalState":{"key":"12","name":"Brandenburg"}},{"name":"Stiegenweg","postalCode":"16348","locality":"Wandlitz","municipality":{"key":"12060269","name":"Wandlitz","type":"Kreisangehörige_Gemeinde"},"district":{"key":"12060","name":"Barnim","type":"Landkreis"},"federalState":{"key":"12","name":"Brandenburg"}},{"name":"Stolzenhagener Chaussee","postalCode":"16348","locality":"Wandlitz","municipality":{"key":"12060269","name":"Wandlitz","type":"Kreisangehörige_Gemeinde"},"district":{"key":"12060","name":"Barnim","type":"Landkreis"},"federalState":{"key":"12","name":"Brandenburg"}},{"name":"Stolzenhagener Str.","postalCode":"16348","locality":"Wandlitz","municipality":{"key":"12060269","name":"Wandlitz","type":"Kreisangehörige_Gemeinde"},"district":{"key":"12060","name":"Barnim","type":"Landkreis"},"federalState":{"key":"12","name":"Brandenburg"}},{"name":"Str. am See","postalCode":"16348","locality":"Wandlitz","municipality":{"key":"12060269","name":"Wandlitz","type":"Kreisangehörige_Gemeinde"},"district":{"key":"12060","name":"Barnim","type":"Landkreis"},"federalState":{"key":"12","name":"Brandenburg"}},{"name":"Str. der Freundschaft","postalCode":"16348","locality":"Wandlitz","municipality":{"key":"12060269","name":"Wandlitz","type":"Kreisangehörige_Gemeinde"},"district":{"key":"12060","name":"Barnim","type":"Landkreis"},"federalState":{"key":"12","name":"Brandenburg"}},{"name":"Strehlepromenade","postalCode":"16348","locality":"Wandlitz","municipality":{"key":"12060269","name":"Wandlitz","type":"Kreisangehörige_Gemeinde"},"district":{"key":"12060","name":"Barnim","type":"Landkreis"},"federalState":{"key":"12","name":"Brandenburg"}},{"name":"Str. zum See","postalCode":"16348","locality":"Wandlitz","municipality":{"key":"12060269","name":"Wandlitz","type":"Kreisangehörige_Gemeinde"},"district":{"key":"12060","name":"Barnim","type":"Landkreis"},"federalState":{"key":"12","name":"Brandenburg"}},{"name":"Summter Str.","postalCode":"16348","locality":"Wandlitz","municipality":{"key":"12060269","name":"Wandlitz","type":"Kreisangehörige_Gemeinde"},"district":{"key":"12060","name":"Barnim","type":"Landkreis"},"federalState":{"key":"12","name":"Brandenburg"}},{"name":"Talstr.","postalCode":"16348","locality":"Wandlitz","municipality":{"key":"12060269","name":"Wandlitz","type":"Kreisangehörige_Gemeinde"},"district":{"key":"12060","name":"Barnim","type":"Landkreis"},"federalState":{"key":"12","name":"Brandenburg"}},{"name":"Tannenstr.","postalCode":"16348","locality":"Wandlitz","municipality":{"key":"12060269","name":"Wandlitz","type":"Kreisangehörige_Gemeinde"},"district":{"key":"12060","name":"Barnim","type":"Landkreis"},"federalState":{"key":"12","name":"Brandenburg"}},{"name":"Tannenweg","postalCode":"16348","locality":"Wandlitz","municipality":{"key":"12060269","name":"Wandlitz","type":"Kreisangehörige_Gemeinde"},"district":{"key":"12060","name":"Barnim","type":"Landkreis"},"federalState":{"key":"12","name":"Brandenburg"}},{"name":"Tannhäuserstr.","postalCode":"16348","locality":"Wandlitz","municipality":{"key":"12060269","name":"Wandlitz","type":"Kreisangehörige_Gemeinde"},"district":{"key":"12060","name":"Barnim","type":"Landkreis"},"federalState":{"key":"12","name":"Brandenburg"}},{"name":"Teerofenweg","postalCode":"16348","locality":"Wandlitz","municipality":{"key":"12060269","name":"Wandlitz","type":"Kreisangehörige_Gemeinde"},"district":{"key":"12060","name":"Barnim","type":"Landkreis"},"federalState":{"key":"12","name":"Brandenburg"}},{"name":"Thälmannstr.","postalCode":"16348","locality":"Wandlitz","municipality":{"key":"12060269","name":"Wandlitz","type":"Kreisangehörige_Gemeinde"},"district":{"key":"12060","name":"Barnim","type":"Landkreis"},"federalState":{"key":"12","name":"Brandenburg"}},{"name":"Thujaweg","postalCode":"16348","locality":"Wandlitz","municipality":{"key":"12060269","name":"Wandlitz","type":"Kreisangehörige_Gemeinde"},"district":{"key":"12060","name":"Barnim","type":"Landkreis"},"federalState":{"key":"12","name":"Brandenburg"}},{"name":"Triftaue","postalCode":"16348","locality":"Wandlitz","municipality":{"key":"12060269","name":"Wandlitz","type":"Kreisangehörige_Gemeinde"},"district":{"key":"12060","name":"Barnim","type":"Landkreis"},"federalState":{"key":"12","name":"Brandenburg"}},{"name":"Triftstr.","postalCode":"16348","locality":"Wandlitz","municipality":{"key":"12060269","name":"Wandlitz","type":"Kreisangehörige_Gemeinde"},"district":{"key":"12060","name":"Barnim","type":"Landkreis"},"federalState":{"key":"12","name":"Brandenburg"}},{"name":"Triftweg","postalCode":"16348","locality":"Wandlitz","municipality":{"key":"12060269","name":"Wandlitz","type":"Kreisangehörige_Gemeinde"},"district":{"key":"12060","name":"Barnim","type":"Landkreis"},"federalState":{"key":"12","name":"Brandenburg"}},{"name":"Tristanstr.","postalCode":"16348","locality":"Wandlitz","municipality":{"key":"12060269","name":"Wandlitz","type":"Kreisangehörige_Gemeinde"},"district":{"key":"12060","name":"Barnim","type":"Landkreis"},"federalState":{"key":"12","name":"Brandenburg"}},{"name":"Tristanweg","postalCode":"16348","locality":"Wandlitz","municipality":{"key":"12060269","name":"Wandlitz","type":"Kreisangehörige_Gemeinde"},"district":{"key":"12060","name":"Barnim","type":"Landkreis"},"federalState":{"key":"12","name":"Brandenburg"}},{"name":"Tuchmacherweg","postalCode":"16348","locality":"Wandlitz","municipality":{"key":"12060269","name":"Wandlitz","type":"Kreisangehörige_Gemeinde"},"district":{"key":"12060","name":"Barnim","type":"Landkreis"},"federalState":{"key":"12","name":"Brandenburg"}},{"name":"Tulpenstr.","postalCode":"16348","locality":"Wandlitz","municipality":{"key":"12060269","name":"Wandlitz","type":"Kreisangehörige_Gemeinde"},"district":{"key":"12060","name":"Barnim","type":"Landkreis"},"federalState":{"key":"12","name":"Brandenburg"}},{"name":"Tulpenweg","postalCode":"16348","locality":"Wandlitz","municipality":{"key":"12060269","name":"Wandlitz","type":"Kreisangehörige_Gemeinde"},"district":{"key":"12060","name":"Barnim","type":"Landkreis"},"federalState":{"key":"12","name":"Brandenburg"}},{"name":"Uferstr.","postalCode":"16348","locality":"Wandlitz","municipality":{"key":"12060269","name":"Wandlitz","type":"Kreisangehörige_Gemeinde"},"district":{"key":"12060","name":"Barnim","type":"Landkreis"},"federalState":{"key":"12","name":"Brandenburg"}},{"name":"Uhlenflucht","postalCode":"16348","locality":"Wandlitz","municipality":{"key":"12060269","name":"Wandlitz","type":"Kreisangehörige_Gemeinde"},"district":{"key":"12060","name":"Barnim","type":"Landkreis"},"federalState":{"key":"12","name":"Brandenburg"}},{"name":"Uhlenhorst","postalCode":"16348","locality":"Wandlitz","municipality":{"key":"12060269","name":"Wandlitz","type":"Kreisangehörige_Gemeinde"},"district":{"key":"12060","name":"Barnim","type":"Landkreis"},"federalState":{"key":"12","name":"Brandenburg"}},{"name":"Ulmenstr.","postalCode":"16348","locality":"Wandlitz","municipality":{"key":"12060269","name":"Wandlitz","type":"Kreisangehörige_Gemeinde"},"district":{"key":"12060","name":"Barnim","type":"Landkreis"},"federalState":{"key":"12","name":"Brandenburg"}},{"name":"Unter den Eichen","postalCode":"16348","locality":"Wandlitz","municipality":{"key":"12060269","name":"Wandlitz","type":"Kreisangehörige_Gemeinde"},"district":{"key":"12060","name":"Barnim","type":"Landkreis"},"federalState":{"key":"12","name":"Brandenburg"}},{"name":"Uteweg","postalCode":"16348","locality":"Wandlitz","municipality":{"key":"12060269","name":"Wandlitz","type":"Kreisangehörige_Gemeinde"},"district":{"key":"12060","name":"Barnim","type":"Landkreis"},"federalState":{"key":"12","name":"Brandenburg"}},{"name":"Veilchenstr.","postalCode":"16348","locality":"Wandlitz","municipality":{"key":"12060269","name":"Wandlitz","type":"Kreisangehörige_Gemeinde"},"district":{"key":"12060","name":"Barnim","type":"Landkreis"},"federalState":{"key":"12","name":"Brandenburg"}},{"name":"Veilchenweg","postalCode":"16348","locality":"Wandlitz","municipality":{"key":"12060269","name":"Wandlitz","type":"Kreisangehörige_Gemeinde"},"district":{"key":"12060","name":"Barnim","type":"Landkreis"},"federalState":{"key":"12","name":"Brandenburg"}},{"name":"Wacholderstr.","postalCode":"16348","locality":"Wandlitz","municipality":{"key":"12060269","name":"Wandlitz","type":"Kreisangehörige_Gemeinde"},"district":{"key":"12060","name":"Barnim","type":"Landkreis"},"federalState":{"key":"12","name":"Brandenburg"}},{"name":"Wacholderweg","postalCode":"16348","locality":"Wandlitz","municipality":{"key":"12060269","name":"Wandlitz","type":"Kreisangehörige_Gemeinde"},"district":{"key":"12060","name":"Barnim","type":"Landkreis"},"federalState":{"key":"12","name":"Brandenburg"}},{"name":"Waldblick","postalCode":"16348","locality":"Wandlitz","municipality":{"key":"12060269","name":"Wandlitz","type":"Kreisangehörige_Gemeinde"},"district":{"key":"12060","name":"Barnim","type":"Landkreis"},"federalState":{"key":"12","name":"Brandenburg"}},{"name":"Waldesgrund","postalCode":"16348","locality":"Wandlitz","municipality":{"key":"12060269","name":"Wandlitz","type":"Kreisangehörige_Gemeinde"},"district":{"key":"12060","name":"Barnim","type":"Landkreis"},"federalState":{"key":"12","name":"Brandenburg"}},{"name":"Waldesruh","postalCode":"16348","locality":"Wandlitz","municipality":{"key":"12060269","name":"Wandlitz","type":"Kreisangehörige_Gemeinde"},"district":{"key":"12060","name":"Barnim","type":"Landkreis"},"federalState":{"key":"12","name":"Brandenburg"}},{"name":"Waldheimstr.","postalCode":"16348","locality":"Wandlitz","municipality":{"key":"12060269","name":"Wandlitz","type":"Kreisangehörige_Gemeinde"},"district":{"key":"12060","name":"Barnim","type":"Landkreis"},"federalState":{"key":"12","name":"Brandenburg"}},{"name":"Waldheimtrift","postalCode":"16348","locality":"Wandlitz","municipality":{"key":"12060269","name":"Wandlitz","type":"Kreisangehörige_Gemeinde"},"district":{"key":"12060","name":"Barnim","type":"Landkreis"},"federalState":{"key":"12","name":"Brandenburg"}},{"name":"Waldkorso","postalCode":"16348","locality":"Wandlitz","municipality":{"key":"12060269","name":"Wandlitz","type":"Kreisangehörige_Gemeinde"},"district":{"key":"12060","name":"Barnim","type":"Landkreis"},"federalState":{"key":"12","name":"Brandenburg"}},{"name":"Waldmeistersteig","postalCode":"16348","locality":"Wandlitz","municipality":{"key":"12060269","name":"Wandlitz","type":"Kreisangehörige_Gemeinde"},"district":{"key":"12060","name":"Barnim","type":"Landkreis"},"federalState":{"key":"12","name":"Brandenburg"}},{"name":"Waldmeisterweg","postalCode":"16348","locality":"Wandlitz","municipality":{"key":"12060269","name":"Wandlitz","type":"Kreisangehörige_Gemeinde"},"district":{"key":"12060","name":"Barnim","type":"Landkreis"},"federalState":{"key":"12","name":"Brandenburg"}},{"name":"Waldpromenade","postalCode":"16348","locality":"Wandlitz","municipality":{"key":"12060269","name":"Wandlitz","type":"Kreisangehörige_Gemeinde"},"district":{"key":"12060","name":"Barnim","type":"Landkreis"},"federalState":{"key":"12","name":"Brandenburg"}},{"name":"Waldsiedlung","postalCode":"16348","locality":"Wandlitz","municipality":{"key":"12060269","name":"Wandlitz","type":"Kreisangehörige_Gemeinde"},"district":{"key":"12060","name":"Barnim","type":"Landkreis"},"federalState":{"key":"12","name":"Brandenburg"}},{"name":"Waldstr.","postalCode":"16348","locality":"Wandlitz","municipality":{"key":"12060269","name":"Wandlitz","type":"Kreisangehörige_Gemeinde"},"district":{"key":"12060","name":"Barnim","type":"Landkreis"},"federalState":{"key":"12","name":"Brandenburg"}},{"name":"Waldweg","postalCode":"16348","locality":"Wandlitz","municipality":{"key":"12060269","name":"Wandlitz","type":"Kreisangehörige_Gemeinde"},"district":{"key":"12060","name":"Barnim","type":"Landkreis"},"federalState":{"key":"12","name":"Brandenburg"}},{"name":"Waldwinkel","postalCode":"16348","locality":"Wandlitz","municipality":{"key":"12060269","name":"Wandlitz","type":"Kreisangehörige_Gemeinde"},"district":{"key":"12060","name":"Barnim","type":"Landkreis"},"federalState":{"key":"12","name":"Brandenburg"}},{"name":"Walkürenstr.","postalCode":"16348","locality":"Wandlitz","municipality":{"key":"12060269","name":"Wandlitz","type":"Kreisangehörige_Gemeinde"},"district":{"key":"12060","name":"Barnim","type":"Landkreis"},"federalState":{"key":"12","name":"Brandenburg"}},{"name":"Wandlitzer Str.","postalCode":"16348","locality":"Wandlitz","municipality":{"key":"12060269","name":"Wandlitz","type":"Kreisangehörige_Gemeinde"},"district":{"key":"12060","name":"Barnim","type":"Landkreis"},"federalState":{"key":"12","name":"Brandenburg"}},{"name":"Warthestr.","postalCode":"16348","locality":"Wandlitz","municipality":{"key":"12060269","name":"Wandlitz","type":"Kreisangehörige_Gemeinde"},"district":{"key":"12060","name":"Barnim","type":"Landkreis"},"federalState":{"key":"12","name":"Brandenburg"}},{"name":"Weg am Sportplatz","postalCode":"16348","locality":"Wandlitz","municipality":{"key":"12060269","name":"Wandlitz","type":"Kreisangehörige_Gemeinde"},"district":{"key":"12060","name":"Barnim","type":"Landkreis"},"federalState":{"key":"12","name":"Brandenburg"}},{"name":"Weg am Wald","postalCode":"16348","locality":"Wandlitz","municipality":{"key":"12060269","name":"Wandlitz","type":"Kreisangehörige_Gemeinde"},"district":{"key":"12060","name":"Barnim","type":"Landkreis"},"federalState":{"key":"12","name":"Brandenburg"}},{"name":"Wegenerstr.","postalCode":"16348","locality":"Wandlitz","municipality":{"key":"12060269","name":"Wandlitz","type":"Kreisangehörige_Gemeinde"},"district":{"key":"12060","name":"Barnim","type":"Landkreis"},"federalState":{"key":"12","name":"Brandenburg"}},{"name":"Weg Nr. 4","postalCode":"16348","locality":"Wandlitz","municipality":{"key":"12060269","name":"Wandlitz","type":"Kreisangehörige_Gemeinde"},"district":{"key":"12060","name":"Barnim","type":"Landkreis"},"federalState":{"key":"12","name":"Brandenburg"}},{"name":"Weg Nr. 5","postalCode":"16348","locality":"Wandlitz","municipality":{"key":"12060269","name":"Wandlitz","type":"Kreisangehörige_Gemeinde"},"district":{"key":"12060","name":"Barnim","type":"Landkreis"},"federalState":{"key":"12","name":"Brandenburg"}},{"name":"Weg Nr. 7","postalCode":"16348","locality":"Wandlitz","municipality":{"key":"12060269","name":"Wandlitz","type":"Kreisangehörige_Gemeinde"},"district":{"key":"12060","name":"Barnim","type":"Landkreis"},"federalState":{"key":"12","name":"Brandenburg"}},{"name":"Weichselstr.","postalCode":"16348","locality":"Wandlitz","municipality":{"key":"12060269","name":"Wandlitz","type":"Kreisangehörige_Gemeinde"},"district":{"key":"12060","name":"Barnim","type":"Landkreis"},"federalState":{"key":"12","name":"Brandenburg"}},{"name":"Weichseltal","postalCode":"16348","locality":"Wandlitz","municipality":{"key":"12060269","name":"Wandlitz","type":"Kreisangehörige_Gemeinde"},"district":{"key":"12060","name":"Barnim","type":"Landkreis"},"federalState":{"key":"12","name":"Brandenburg"}},{"name":"Weidengasse","postalCode":"16348","locality":"Wandlitz","municipality":{"key":"12060269","name":"Wandlitz","type":"Kreisangehörige_Gemeinde"},"district":{"key":"12060","name":"Barnim","type":"Landkreis"},"federalState":{"key":"12","name":"Brandenburg"}},{"name":"Weidenweg","postalCode":"16348","locality":"Wandlitz","municipality":{"key":"12060269","name":"Wandlitz","type":"Kreisangehörige_Gemeinde"},"district":{"key":"12060","name":"Barnim","type":"Landkreis"},"federalState":{"key":"12","name":"Brandenburg"}},{"name":"Wensickendorfer Chaussee","postalCode":"16348","locality":"Wandlitz","municipality":{"key":"12060269","name":"Wandlitz","type":"Kreisangehörige_Gemeinde"},"district":{"key":"12060","name":"Barnim","type":"Landkreis"},"federalState":{"key":"12","name":"Brandenburg"}},{"name":"Wensickendorfer Str.","postalCode":"16348","locality":"Wandlitz","municipality":{"key":"12060269","name":"Wandlitz","type":"Kreisangehörige_Gemeinde"},"district":{"key":"12060","name":"Barnim","type":"Landkreis"},"federalState":{"key":"12","name":"Brandenburg"}},{"name":"Wichmannstr.","postalCode":"16348","locality":"Wandlitz","municipality":{"key":"12060269","name":"Wandlitz","type":"Kreisangehörige_Gemeinde"},"district":{"key":"12060","name":"Barnim","type":"Landkreis"},"federalState":{"key":"12","name":"Brandenburg"}},{"name":"Wickenweg","postalCode":"16348","locality":"Wandlitz","municipality":{"key":"12060269","name":"Wandlitz","type":"Kreisangehörige_Gemeinde"},"district":{"key":"12060","name":"Barnim","type":"Landkreis"},"federalState":{"key":"12","name":"Brandenburg"}},{"name":"Wiesengrund","postalCode":"16348","locality":"Wandlitz","municipality":{"key":"12060269","name":"Wandlitz","type":"Kreisangehörige_Gemeinde"},"district":{"key":"12060","name":"Barnim","type":"Landkreis"},"federalState":{"key":"12","name":"Brandenburg"}},{"name":"Wiesenrain","postalCode":"16348","locality":"Wandlitz","municipality":{"key":"12060269","name":"Wandlitz","type":"Kreisangehörige_Gemeinde"},"district":{"key":"12060","name":"Barnim","type":"Landkreis"},"federalState":{"key":"12","name":"Brandenburg"}},{"name":"Wiesenstr.","postalCode":"16348","locality":"Wandlitz","municipality":{"key":"12060269","name":"Wandlitz","type":"Kreisangehörige_Gemeinde"},"district":{"key":"12060","name":"Barnim","type":"Landkreis"},"federalState":{"key":"12","name":"Brandenburg"}},{"name":"Wiesenweg","postalCode":"16348","locality":"Wandlitz","municipality":{"key":"12060269","name":"Wandlitz","type":"Kreisangehörige_Gemeinde"},"district":{"key":"12060","name":"Barnim","type":"Landkreis"},"federalState":{"key":"12","name":"Brandenburg"}},{"name":"Wildbahnstr.","postalCode":"16348","locality":"Wandlitz","municipality":{"key":"12060269","name":"Wandlitz","type":"Kreisangehörige_Gemeinde"},"district":{"key":"12060","name":"Barnim","type":"Landkreis"},"federalState":{"key":"12","name":"Brandenburg"}},{"name":"Wildgatter","postalCode":"16348","locality":"Wandlitz","municipality":{"key":"12060269","name":"Wandlitz","type":"Kreisangehörige_Gemeinde"},"district":{"key":"12060","name":"Barnim","type":"Landkreis"},"federalState":{"key":"12","name":"Brandenburg"}},{"name":"Wollspinnerstr.","postalCode":"16348","locality":"Wandlitz","municipality":{"key":"12060269","name":"Wandlitz","type":"Kreisangehörige_Gemeinde"},"district":{"key":"12060","name":"Barnim","type":"Landkreis"},"federalState":{"key":"12","name":"Brandenburg"}},{"name":"Wördenweg","postalCode":"16348","locality":"Wandlitz","municipality":{"key":"12060269","name":"Wandlitz","type":"Kreisangehörige_Gemeinde"},"district":{"key":"12060","name":"Barnim","type":"Landkreis"},"federalState":{"key":"12","name":"Brandenburg"}},{"name":"Wurzelweg","postalCode":"16348","locality":"Wandlitz","municipality":{"key":"12060269","name":"Wandlitz","type":"Kreisangehörige_Gemeinde"},"district":{"key":"12060","name":"Barnim","type":"Landkreis"},"federalState":{"key":"12","name":"Brandenburg"}},{"name":"Zedernweg","postalCode":"16348","locality":"Wandlitz","municipality":{"key":"12060269","name":"Wandlitz","type":"Kreisangehörige_Gemeinde"},"district":{"key":"12060","name":"Barnim","type":"Landkreis"},"federalState":{"key":"12","name":"Brandenburg"}},{"name":"Zehlendorfer Chaussee","postalCode":"16348","locality":"Wandlitz","municipality":{"key":"12060269","name":"Wandlitz","type":"Kreisangehörige_Gemeinde"},"district":{"key":"12060","name":"Barnim","type":"Landkreis"},"federalState":{"key":"12","name":"Brandenburg"}},{"name":"Zehnpfuhlweg","postalCode":"16348","locality":"Wandlitz","municipality":{"key":"12060269","name":"Wandlitz","type":"Kreisangehörige_Gemeinde"},"district":{"key":"12060","name":"Barnim","type":"Landkreis"},"federalState":{"key":"12","name":"Brandenburg"}},{"name":"Zeisigstr.","postalCode":"16348","locality":"Wandlitz","municipality":{"key":"12060269","name":"Wandlitz","type":"Kreisangehörige_Gemeinde"},"district":{"key":"12060","name":"Barnim","type":"Landkreis"},"federalState":{"key":"12","name":"Brandenburg"}},{"name":"Zeisigweg","postalCode":"16348","locality":"Wandlitz","municipality":{"key":"12060269","name":"Wandlitz","type":"Kreisangehörige_Gemeinde"},"district":{"key":"12060","name":"Barnim","type":"Landkreis"},"federalState":{"key":"12","name":"Brandenburg"}},{"name":"Zerpenschleusener Chaussee","postalCode":"16348","locality":"Wandlitz","municipality":{"key":"12060269","name":"Wandlitz","type":"Kreisangehörige_Gemeinde"},"district":{"key":"12060","name":"Barnim","type":"Landkreis"},"federalState":{"key":"12","name":"Brandenburg"}},{"name":"Zerpenschleuser Chaussee","postalCode":"16348","locality":"Wandlitz","municipality":{"key":"12060269","name":"Wandlitz","type":"Kreisangehörige_Gemeinde"},"district":{"key":"12060","name":"Barnim","type":"Landkreis"},"federalState":{"key":"12","name":"Brandenburg"}},{"name":"Zerpenschleuser Str.","postalCode":"16348","locality":"Wandlitz","municipality":{"key":"12060269","name":"Wandlitz","type":"Kreisangehörige_Gemeinde"},"district":{"key":"12060","name":"Barnim","type":"Landkreis"},"federalState":{"key":"12","name":"Brandenburg"}},{"name":"Ziegelweg","postalCode":"16348","locality":"Wandlitz","municipality":{"key":"12060269","name":"Wandlitz","type":"Kreisangehörige_Gemeinde"},"district":{"key":"12060","name":"Barnim","type":"Landkreis"},"federalState":{"key":"12","name":"Brandenburg"}},{"name":"Zinnienweg","postalCode":"16348","locality":"Wandlitz","municipality":{"key":"12060269","name":"Wandlitz","type":"Kreisangehörige_Gemeinde"},"district":{"key":"12060","name":"Barnim","type":"Landkreis"},"federalState":{"key":"12","name":"Brandenburg"}},{"name":"Zu den Heubergen","postalCode":"16348","locality":"Wandlitz","municipality":{"key":"12060269","name":"Wandlitz","type":"Kreisangehörige_Gemeinde"},"district":{"key":"12060","name":"Barnim","type":"Landkreis"},"federalState":{"key":"12","name":"Brandenburg"}},{"name":"Zühlsdorfer Chaussee","postalCode":"16348","locality":"Wandlitz","municipality":{"key":"12060269","name":"Wandlitz","type":"Kreisangehörige_Gemeinde"},"district":{"key":"12060","name":"Barnim","type":"Landkreis"},"federalState":{"key":"12","name":"Brandenburg"}},{"name":"Zühlsdorfer Str.","postalCode":"16348","locality":"Wandlitz","municipality":{"key":"12060269","name":"Wandlitz","type":"Kreisangehörige_Gemeinde"},"district":{"key":"12060","name":"Barnim","type":"Landkreis"},"federalState":{"key":"12","name":"Brandenburg"}},{"name":"Zum Felde","postalCode":"16348","locality":"Wandlitz","municipality":{"key":"12060269","name":"Wandlitz","type":"Kreisangehörige_Gemeinde"},"district":{"key":"12060","name":"Barnim","type":"Landkreis"},"federalState":{"key":"12","name":"Brandenburg"}},{"name":"Zum Friedhof","postalCode":"16348","locality":"Wandlitz","municipality":{"key":"12060269","name":"Wandlitz","type":"Kreisangehörige_Gemeinde"},"district":{"key":"12060","name":"Barnim","type":"Landkreis"},"federalState":{"key":"12","name":"Brandenburg"}},{"name":"Zum Großen Lottschesee","postalCode":"16348","locality":"Wandlitz","municipality":{"key":"12060269","name":"Wandlitz","type":"Kreisangehörige_Gemeinde"},"district":{"key":"12060","name":"Barnim","type":"Landkreis"},"federalState":{"key":"12","name":"Brandenburg"}},{"name":"Zum hohen Graben","postalCode":"16348","locality":"Wandlitz","municipality":{"key":"12060269","name":"Wandlitz","type":"Kreisangehörige_Gemeinde"},"district":{"key":"12060","name":"Barnim","type":"Landkreis"},"federalState":{"key":"12","name":"Brandenburg"}},{"name":"Zum Kiefernloch","postalCode":"16348","locality":"Wandlitz","municipality":{"key":"12060269","name":"Wandlitz","type":"Kreisangehörige_Gemeinde"},"district":{"key":"12060","name":"Barnim","type":"Landkreis"},"federalState":{"key":"12","name":"Brandenburg"}},{"name":"Zum Kleinen Lottschesee","postalCode":"16348","locality":"Wandlitz","municipality":{"key":"12060269","name":"Wandlitz","type":"Kreisangehörige_Gemeinde"},"district":{"key":"12060","name":"Barnim","type":"Landkreis"},"federalState":{"key":"12","name":"Brandenburg"}},{"name":"Zum Seechen","postalCode":"16348","locality":"Wandlitz","municipality":{"key":"12060269","name":"Wandlitz","type":"Kreisangehörige_Gemeinde"},"district":{"key":"12060","name":"Barnim","type":"Landkreis"},"federalState":{"key":"12","name":"Brandenburg"}},{"name":"Zum Wasserkreuz","postalCode":"16348","locality":"Wandlitz","municipality":{"key":"12060269","name":"Wandlitz","type":"Kreisangehörige_Gemeinde"},"district":{"key":"12060","name":"Barnim","type":"Landkreis"},"federalState":{"key":"12","name":"Brandenburg"}},{"name":"Zum Wiesengrund","postalCode":"16348","locality":"Wandlitz","municipality":{"key":"12060269","name":"Wandlitz","type":"Kreisangehörige_Gemeinde"},"district":{"key":"12060","name":"Barnim","type":"Landkreis"},"federalState":{"key":"12","name":"Brandenburg"}},{"name":"Zum Zickenpuhl","postalCode":"16348","locality":"Wandlitz","municipality":{"key":"12060269","name":"Wandlitz","type":"Kreisangehörige_Gemeinde"},"district":{"key":"12060","name":"Barnim","type":"Landkreis"},"federalState":{"key":"12","name":"Brandenburg"}},{"name":"Zur Eiserlake","postalCode":"16348","locality":"Wandlitz","municipality":{"key":"12060269","name":"Wandlitz","type":"Kreisangehörige_Gemeinde"},"district":{"key":"12060","name":"Barnim","type":"Landkreis"},"federalState":{"key":"12","name":"Brandenburg"}},{"name":"Zur Heide","postalCode":"16348","locality":"Wandlitz","municipality":{"key":"12060269","name":"Wandlitz","type":"Kreisangehörige_Gemeinde"},"district":{"key":"12060","name":"Barnim","type":"Landkreis"},"federalState":{"key":"12","name":"Brandenburg"}},{"name":"Zur Kiefernhöhe","postalCode":"16348","locality":"Wandlitz","municipality":{"key":"12060269","name":"Wandlitz","type":"Kreisangehörige_Gemeinde"},"district":{"key":"12060","name":"Barnim","type":"Landkreis"},"federalState":{"key":"12","name":"Brandenburg"}},{"name":"Zur Reitbahn","postalCode":"16348","locality":"Wandlitz","municipality":{"key":"12060269","name":"Wandlitz","type":"Kreisangehörige_Gemeinde"},"district":{"key":"12060","name":"Barnim","type":"Landkreis"},"federalState":{"key":"12","name":"Brandenburg"}},{"name":"Zur Waldpromenade","postalCode":"16348","locality":"Wandlitz","municipality":{"key":"12060269","name":"Wandlitz","type":"Kreisangehörige_Gemeinde"},"district":{"key":"12060","name":"Barnim","type":"Landkreis"},"federalState":{"key":"12","name":"Brandenburg"}},{"name":"Ützdorfer Str.","postalCode":"16348","locality":"Wandlitz","municipality":{"key":"12060269","name":"Wandlitz","type":"Kreisangehörige_Gemeinde"},"district":{"key":"12060","name":"Barnim","type":"Landkreis"},"federalState":{"key":"12","name":"Brandenburg"}},{"name":"Ützdorfer Weg","postalCode":"16348","locality":"Wandlitz","municipality":{"key":"12060269","name":"Wandlitz","type":"Kreisangehörige_Gemeinde"},"district":{"key":"12060","name":"Barnim","type":"Landkreis"},"federalState":{"key":"12","name":"Brandenburg"}},]