[{"name":"Ahornweg","postalCode":"83487","locality":"Marktschellenberg","municipality":{"key":"09172124","name":"Marktschellenberg, M","type":"Markt"},"district":{"key":"09172","name":"Berchtesgadener Land","type":"Landkreis"},"federalState":{"key":"09","name":"Bayern"}},{"name":"Alpenstr.","postalCode":"83487","locality":"Marktschellenberg","municipality":{"key":"09172124","name":"Marktschellenberg, M","type":"Markt"},"district":{"key":"09172","name":"Berchtesgadener Land","type":"Landkreis"},"federalState":{"key":"09","name":"Bayern"}},{"name":"Alte Berchtesgadener Str.","postalCode":"83487","locality":"Marktschellenberg","municipality":{"key":"09172124","name":"Marktschellenberg, M","type":"Markt"},"district":{"key":"09172","name":"Berchtesgadener Land","type":"Landkreis"},"federalState":{"key":"09","name":"Bayern"}},{"name":"Am Kreuzbichl","postalCode":"83487","locality":"Marktschellenberg","municipality":{"key":"09172124","name":"Marktschellenberg, M","type":"Markt"},"district":{"key":"09172","name":"Berchtesgadener Land","type":"Landkreis"},"federalState":{"key":"09","name":"Bayern"}},{"name":"Anfangmühlweg","postalCode":"83487","locality":"Marktschellenberg","municipality":{"key":"09172124","name":"Marktschellenberg, M","type":"Markt"},"district":{"key":"09172","name":"Berchtesgadener Land","type":"Landkreis"},"federalState":{"key":"09","name":"Bayern"}},{"name":"Barmsteinweg","postalCode":"83487","locality":"Marktschellenberg","municipality":{"key":"09172124","name":"Marktschellenberg, M","type":"Markt"},"district":{"key":"09172","name":"Berchtesgadener Land","type":"Landkreis"},"federalState":{"key":"09","name":"Bayern"}},{"name":"Doffenleitenweg","postalCode":"83487","locality":"Marktschellenberg","municipality":{"key":"09172124","name":"Marktschellenberg, M","type":"Markt"},"district":{"key":"09172","name":"Berchtesgadener Land","type":"Landkreis"},"federalState":{"key":"09","name":"Bayern"}},{"name":"Dr.-Berkmann-Str.","postalCode":"83487","locality":"Marktschellenberg","municipality":{"key":"09172124","name":"Marktschellenberg, M","type":"Markt"},"district":{"key":"09172","name":"Berchtesgadener Land","type":"Landkreis"},"federalState":{"key":"09","name":"Bayern"}},{"name":"Eisgrabenweg","postalCode":"83487","locality":"Marktschellenberg","municipality":{"key":"09172124","name":"Marktschellenberg, M","type":"Markt"},"district":{"key":"09172","name":"Berchtesgadener Land","type":"Landkreis"},"federalState":{"key":"09","name":"Bayern"}},{"name":"Ettenberger Str.","postalCode":"83487","locality":"Marktschellenberg","municipality":{"key":"09172124","name":"Marktschellenberg, M","type":"Markt"},"district":{"key":"09172","name":"Berchtesgadener Land","type":"Landkreis"},"federalState":{"key":"09","name":"Bayern"}},{"name":"Friedensbergweg","postalCode":"83487","locality":"Marktschellenberg","municipality":{"key":"09172124","name":"Marktschellenberg, M","type":"Markt"},"district":{"key":"09172","name":"Berchtesgadener Land","type":"Landkreis"},"federalState":{"key":"09","name":"Bayern"}},{"name":"Gastagweg","postalCode":"83487","locality":"Marktschellenberg","municipality":{"key":"09172124","name":"Marktschellenberg, M","type":"Markt"},"district":{"key":"09172","name":"Berchtesgadener Land","type":"Landkreis"},"federalState":{"key":"09","name":"Bayern"}},{"name":"Glockenweg","postalCode":"83487","locality":"Marktschellenberg","municipality":{"key":"09172124","name":"Marktschellenberg, M","type":"Markt"},"district":{"key":"09172","name":"Berchtesgadener Land","type":"Landkreis"},"federalState":{"key":"09","name":"Bayern"}},{"name":"Götschenweg","postalCode":"83487","locality":"Marktschellenberg","municipality":{"key":"09172124","name":"Marktschellenberg, M","type":"Markt"},"district":{"key":"09172","name":"Berchtesgadener Land","type":"Landkreis"},"federalState":{"key":"09","name":"Bayern"}},{"name":"Grasleitenweg","postalCode":"83487","locality":"Marktschellenberg","municipality":{"key":"09172124","name":"Marktschellenberg, M","type":"Markt"},"district":{"key":"09172","name":"Berchtesgadener Land","type":"Landkreis"},"federalState":{"key":"09","name":"Bayern"}},{"name":"Greobenweg","postalCode":"83487","locality":"Marktschellenberg","municipality":{"key":"09172124","name":"Marktschellenberg, M","type":"Markt"},"district":{"key":"09172","name":"Berchtesgadener Land","type":"Landkreis"},"federalState":{"key":"09","name":"Bayern"}},{"name":"Gschliefweg","postalCode":"83487","locality":"Marktschellenberg","municipality":{"key":"09172124","name":"Marktschellenberg, M","type":"Markt"},"district":{"key":"09172","name":"Berchtesgadener Land","type":"Landkreis"},"federalState":{"key":"09","name":"Bayern"}},{"name":"Gschneitmannweg","postalCode":"83487","locality":"Marktschellenberg","municipality":{"key":"09172124","name":"Marktschellenberg, M","type":"Markt"},"district":{"key":"09172","name":"Berchtesgadener Land","type":"Landkreis"},"federalState":{"key":"09","name":"Bayern"}},{"name":"Hammerstielwandweg","postalCode":"83487","locality":"Marktschellenberg","municipality":{"key":"09172124","name":"Marktschellenberg, M","type":"Markt"},"district":{"key":"09172","name":"Berchtesgadener Land","type":"Landkreis"},"federalState":{"key":"09","name":"Bayern"}},{"name":"Hauptstr.","postalCode":"83487","locality":"Marktschellenberg","municipality":{"key":"09172124","name":"Marktschellenberg, M","type":"Markt"},"district":{"key":"09172","name":"Berchtesgadener Land","type":"Landkreis"},"federalState":{"key":"09","name":"Bayern"}},{"name":"Hinterettenberg","postalCode":"83487","locality":"Marktschellenberg","municipality":{"key":"09172124","name":"Marktschellenberg, M","type":"Markt"},"district":{"key":"09172","name":"Berchtesgadener Land","type":"Landkreis"},"federalState":{"key":"09","name":"Bayern"}},{"name":"Kaimhofweg","postalCode":"83487","locality":"Marktschellenberg","municipality":{"key":"09172124","name":"Marktschellenberg, M","type":"Markt"},"district":{"key":"09172","name":"Berchtesgadener Land","type":"Landkreis"},"federalState":{"key":"09","name":"Bayern"}},{"name":"Kedererweg","postalCode":"83487","locality":"Marktschellenberg","municipality":{"key":"09172124","name":"Marktschellenberg, M","type":"Markt"},"district":{"key":"09172","name":"Berchtesgadener Land","type":"Landkreis"},"federalState":{"key":"09","name":"Bayern"}},{"name":"Kirchgasse","postalCode":"83487","locality":"Marktschellenberg","municipality":{"key":"09172124","name":"Marktschellenberg, M","type":"Markt"},"district":{"key":"09172","name":"Berchtesgadener Land","type":"Landkreis"},"federalState":{"key":"09","name":"Bayern"}},{"name":"Köppelschneidweg","postalCode":"83487","locality":"Marktschellenberg","municipality":{"key":"09172124","name":"Marktschellenberg, M","type":"Markt"},"district":{"key":"09172","name":"Berchtesgadener Land","type":"Landkreis"},"federalState":{"key":"09","name":"Bayern"}},{"name":"Kraxenbergweg","postalCode":"83487","locality":"Marktschellenberg","municipality":{"key":"09172124","name":"Marktschellenberg, M","type":"Markt"},"district":{"key":"09172","name":"Berchtesgadener Land","type":"Landkreis"},"federalState":{"key":"09","name":"Bayern"}},{"name":"Kugelmühlweg","postalCode":"83487","locality":"Marktschellenberg","municipality":{"key":"09172124","name":"Marktschellenberg, M","type":"Markt"},"district":{"key":"09172","name":"Berchtesgadener Land","type":"Landkreis"},"federalState":{"key":"09","name":"Bayern"}},{"name":"Marktplatz","postalCode":"83487","locality":"Marktschellenberg","municipality":{"key":"09172124","name":"Marktschellenberg, M","type":"Markt"},"district":{"key":"09172","name":"Berchtesgadener Land","type":"Landkreis"},"federalState":{"key":"09","name":"Bayern"}},{"name":"Mehlweg","postalCode":"83487","locality":"Marktschellenberg","municipality":{"key":"09172124","name":"Marktschellenberg, M","type":"Markt"},"district":{"key":"09172","name":"Berchtesgadener Land","type":"Landkreis"},"federalState":{"key":"09","name":"Bayern"}},{"name":"Messerergasse","postalCode":"83487","locality":"Marktschellenberg","municipality":{"key":"09172124","name":"Marktschellenberg, M","type":"Markt"},"district":{"key":"09172","name":"Berchtesgadener Land","type":"Landkreis"},"federalState":{"key":"09","name":"Bayern"}},{"name":"Mühlgasse","postalCode":"83487","locality":"Marktschellenberg","municipality":{"key":"09172124","name":"Marktschellenberg, M","type":"Markt"},"district":{"key":"09172","name":"Berchtesgadener Land","type":"Landkreis"},"federalState":{"key":"09","name":"Bayern"}},{"name":"Nesseltalweg","postalCode":"83487","locality":"Marktschellenberg","municipality":{"key":"09172124","name":"Marktschellenberg, M","type":"Markt"},"district":{"key":"09172","name":"Berchtesgadener Land","type":"Landkreis"},"federalState":{"key":"09","name":"Bayern"}},{"name":"Neuhäuslweg","postalCode":"83487","locality":"Marktschellenberg","municipality":{"key":"09172124","name":"Marktschellenberg, M","type":"Markt"},"district":{"key":"09172","name":"Berchtesgadener Land","type":"Landkreis"},"federalState":{"key":"09","name":"Bayern"}},{"name":"Neusiedenweg","postalCode":"83487","locality":"Marktschellenberg","municipality":{"key":"09172124","name":"Marktschellenberg, M","type":"Markt"},"district":{"key":"09172","name":"Berchtesgadener Land","type":"Landkreis"},"federalState":{"key":"09","name":"Bayern"}},{"name":"Obersteinerweg","postalCode":"83487","locality":"Marktschellenberg","municipality":{"key":"09172124","name":"Marktschellenberg, M","type":"Markt"},"district":{"key":"09172","name":"Berchtesgadener Land","type":"Landkreis"},"federalState":{"key":"09","name":"Bayern"}},{"name":"Roßboden","postalCode":"83487","locality":"Marktschellenberg","municipality":{"key":"09172124","name":"Marktschellenberg, M","type":"Markt"},"district":{"key":"09172","name":"Berchtesgadener Land","type":"Landkreis"},"federalState":{"key":"09","name":"Bayern"}},{"name":"Salzburger Str.","postalCode":"83487","locality":"Marktschellenberg","municipality":{"key":"09172124","name":"Marktschellenberg, M","type":"Markt"},"district":{"key":"09172","name":"Berchtesgadener Land","type":"Landkreis"},"federalState":{"key":"09","name":"Bayern"}},{"name":"Scheffauer Str.","postalCode":"83487","locality":"Marktschellenberg","municipality":{"key":"09172124","name":"Marktschellenberg, M","type":"Markt"},"district":{"key":"09172","name":"Berchtesgadener Land","type":"Landkreis"},"federalState":{"key":"09","name":"Bayern"}},{"name":"Schmuckenweg","postalCode":"83487","locality":"Marktschellenberg","municipality":{"key":"09172124","name":"Marktschellenberg, M","type":"Markt"},"district":{"key":"09172","name":"Berchtesgadener Land","type":"Landkreis"},"federalState":{"key":"09","name":"Bayern"}},{"name":"Steinerweg","postalCode":"83487","locality":"Marktschellenberg","municipality":{"key":"09172124","name":"Marktschellenberg, M","type":"Markt"},"district":{"key":"09172","name":"Berchtesgadener Land","type":"Landkreis"},"federalState":{"key":"09","name":"Bayern"}},{"name":"Tiefenbachstr.","postalCode":"83487","locality":"Marktschellenberg","municipality":{"key":"09172124","name":"Marktschellenberg, M","type":"Markt"},"district":{"key":"09172","name":"Berchtesgadener Land","type":"Landkreis"},"federalState":{"key":"09","name":"Bayern"}},{"name":"Unterettenberg","postalCode":"83487","locality":"Marktschellenberg","municipality":{"key":"09172124","name":"Marktschellenberg, M","type":"Markt"},"district":{"key":"09172","name":"Berchtesgadener Land","type":"Landkreis"},"federalState":{"key":"09","name":"Bayern"}},{"name":"Vorderettenberg","postalCode":"83487","locality":"Marktschellenberg","municipality":{"key":"09172124","name":"Marktschellenberg, M","type":"Markt"},"district":{"key":"09172","name":"Berchtesgadener Land","type":"Landkreis"},"federalState":{"key":"09","name":"Bayern"}},]