[{"name":"Allackerstr.","postalCode":"39365","locality":"Harbke","municipality":{"key":"15083275","name":"Harbke","type":"Kreisangehörige_Gemeinde"},"district":{"key":"15083","name":"Börde","type":"Landkreis"},"federalState":{"key":"15","name":"Sachsen-Anhalt"}},{"name":"Am Bärengrund","postalCode":"39365","locality":"Harbke","municipality":{"key":"15083275","name":"Harbke","type":"Kreisangehörige_Gemeinde"},"district":{"key":"15083","name":"Börde","type":"Landkreis"},"federalState":{"key":"15","name":"Sachsen-Anhalt"}},{"name":"Am blauen Berg","postalCode":"39365","locality":"Harbke","municipality":{"key":"15083275","name":"Harbke","type":"Kreisangehörige_Gemeinde"},"district":{"key":"15083","name":"Börde","type":"Landkreis"},"federalState":{"key":"15","name":"Sachsen-Anhalt"}},{"name":"Am Fuchsweg","postalCode":"39365","locality":"Harbke","municipality":{"key":"15083275","name":"Harbke","type":"Kreisangehörige_Gemeinde"},"district":{"key":"15083","name":"Börde","type":"Landkreis"},"federalState":{"key":"15","name":"Sachsen-Anhalt"}},{"name":"Am Glüsig","postalCode":"39365","locality":"Harbke","municipality":{"key":"15083275","name":"Harbke","type":"Kreisangehörige_Gemeinde"},"district":{"key":"15083","name":"Börde","type":"Landkreis"},"federalState":{"key":"15","name":"Sachsen-Anhalt"}},{"name":"Am Kraftwerk","postalCode":"39365","locality":"Harbke","municipality":{"key":"15083275","name":"Harbke","type":"Kreisangehörige_Gemeinde"},"district":{"key":"15083","name":"Börde","type":"Landkreis"},"federalState":{"key":"15","name":"Sachsen-Anhalt"}},{"name":"Am Park","postalCode":"39365","locality":"Harbke","municipality":{"key":"15083275","name":"Harbke","type":"Kreisangehörige_Gemeinde"},"district":{"key":"15083","name":"Börde","type":"Landkreis"},"federalState":{"key":"15","name":"Sachsen-Anhalt"}},{"name":"Am Sportplatz","postalCode":"39365","locality":"Harbke","municipality":{"key":"15083275","name":"Harbke","type":"Kreisangehörige_Gemeinde"},"district":{"key":"15083","name":"Börde","type":"Landkreis"},"federalState":{"key":"15","name":"Sachsen-Anhalt"}},{"name":"August-Bebel-Str.","postalCode":"39365","locality":"Harbke","municipality":{"key":"15083275","name":"Harbke","type":"Kreisangehörige_Gemeinde"},"district":{"key":"15083","name":"Börde","type":"Landkreis"},"federalState":{"key":"15","name":"Sachsen-Anhalt"}},{"name":"Autobahn","postalCode":"39365","locality":"Harbke","municipality":{"key":"15083275","name":"Harbke","type":"Kreisangehörige_Gemeinde"},"district":{"key":"15083","name":"Börde","type":"Landkreis"},"federalState":{"key":"15","name":"Sachsen-Anhalt"}},{"name":"Berliner Str.","postalCode":"39365","locality":"Harbke","municipality":{"key":"15083275","name":"Harbke","type":"Kreisangehörige_Gemeinde"},"district":{"key":"15083","name":"Börde","type":"Landkreis"},"federalState":{"key":"15","name":"Sachsen-Anhalt"}},{"name":"Chausseehausweg","postalCode":"39221","locality":"Bördeland","municipality":{"key":"15089042","name":"Bördeland","type":"Kreisangehörige_Gemeinde"},"district":{"key":"15089","name":"Salzlandkreis","type":"Landkreis"},"federalState":{"key":"15","name":"Sachsen-Anhalt"}},{"name":"Chausseestr.","postalCode":"39221","locality":"Bördeland","municipality":{"key":"15089042","name":"Bördeland","type":"Kreisangehörige_Gemeinde"},"district":{"key":"15089","name":"Salzlandkreis","type":"Landkreis"},"federalState":{"key":"15","name":"Sachsen-Anhalt"}},{"name":"Clara-Zetkin-Str.","postalCode":"39435","locality":"Bördeaue","municipality":{"key":"15089041","name":"Bördeaue","type":"Kreisangehörige_Gemeinde"},"district":{"key":"15089","name":"Salzlandkreis","type":"Landkreis"},"federalState":{"key":"15","name":"Sachsen-Anhalt"}},{"name":"Damm","postalCode":"39365","locality":"Harbke","municipality":{"key":"15083275","name":"Harbke","type":"Kreisangehörige_Gemeinde"},"district":{"key":"15083","name":"Börde","type":"Landkreis"},"federalState":{"key":"15","name":"Sachsen-Anhalt"}},{"name":"Ebendorfer Str.","postalCode":"39326","locality":"Niedere Börde","municipality":{"key":"15083390","name":"Niedere Börde","type":"Kreisangehörige_Gemeinde"},"district":{"key":"15083","name":"Börde","type":"Landkreis"},"federalState":{"key":"15","name":"Sachsen-Anhalt"}},{"name":"Eckstr.","postalCode":"39448","locality":"Börde-Hakel","municipality":{"key":"15089043","name":"Börde-Hakel","type":"Kreisangehörige_Gemeinde"},"district":{"key":"15089","name":"Salzlandkreis","type":"Landkreis"},"federalState":{"key":"15","name":"Sachsen-Anhalt"}},{"name":"Egelner Str.","postalCode":"39448","locality":"Börde-Hakel","municipality":{"key":"15089043","name":"Börde-Hakel","type":"Kreisangehörige_Gemeinde"},"district":{"key":"15089","name":"Salzlandkreis","type":"Landkreis"},"federalState":{"key":"15","name":"Sachsen-Anhalt"}},{"name":"Egelnscher Weg","postalCode":"39448","locality":"Börde-Hakel","municipality":{"key":"15089043","name":"Börde-Hakel","type":"Kreisangehörige_Gemeinde"},"district":{"key":"15089","name":"Salzlandkreis","type":"Landkreis"},"federalState":{"key":"15","name":"Sachsen-Anhalt"}},{"name":"Egelnsche Str.","postalCode":"39435","locality":"Bördeaue","municipality":{"key":"15089041","name":"Bördeaue","type":"Kreisangehörige_Gemeinde"},"district":{"key":"15089","name":"Salzlandkreis","type":"Landkreis"},"federalState":{"key":"15","name":"Sachsen-Anhalt"}},{"name":"Eggersdorfer Chaussee","postalCode":"39221","locality":"Bördeland","municipality":{"key":"15089042","name":"Bördeland","type":"Kreisangehörige_Gemeinde"},"district":{"key":"15089","name":"Salzlandkreis","type":"Landkreis"},"federalState":{"key":"15","name":"Sachsen-Anhalt"}},{"name":"ehem. Plankener Chaussee","postalCode":"39326","locality":"Niedere Börde","municipality":{"key":"15083390","name":"Niedere Börde","type":"Kreisangehörige_Gemeinde"},"district":{"key":"15083","name":"Börde","type":"Landkreis"},"federalState":{"key":"15","name":"Sachsen-Anhalt"}},{"name":"Eiche","postalCode":"39343","locality":"Hohe Börde","municipality":{"key":"15083298","name":"Hohe Börde","type":"Kreisangehörige_Gemeinde"},"district":{"key":"15083","name":"Börde","type":"Landkreis"},"federalState":{"key":"15","name":"Sachsen-Anhalt"}},{"name":"Eichenbarleber Str.","postalCode":"39343","locality":"Hohe Börde","municipality":{"key":"15083298","name":"Hohe Börde","type":"Kreisangehörige_Gemeinde"},"district":{"key":"15083","name":"Börde","type":"Landkreis"},"federalState":{"key":"15","name":"Sachsen-Anhalt"}},{"name":"Eichenbarleber Weg","postalCode":"39343","locality":"Hohe Börde","municipality":{"key":"15083298","name":"Hohe Börde","type":"Kreisangehörige_Gemeinde"},"district":{"key":"15083","name":"Börde","type":"Landkreis"},"federalState":{"key":"15","name":"Sachsen-Anhalt"}},{"name":"Eichenbreite","postalCode":"39167","locality":"Hohe Börde","municipality":{"key":"15083298","name":"Hohe Börde","type":"Kreisangehörige_Gemeinde"},"district":{"key":"15083","name":"Börde","type":"Landkreis"},"federalState":{"key":"15","name":"Sachsen-Anhalt"}},{"name":"Eichplatz","postalCode":"39164","locality":"Wanzleben-Börde","municipality":{"key":"15083531","name":"Wanzleben-Börde, Stadt","type":"Stadt"},"district":{"key":"15083","name":"Börde","type":"Landkreis"},"federalState":{"key":"15","name":"Sachsen-Anhalt"}},{"name":"Eichplatz","postalCode":"39326","locality":"Niedere Börde","municipality":{"key":"15083390","name":"Niedere Börde","type":"Kreisangehörige_Gemeinde"},"district":{"key":"15083","name":"Börde","type":"Landkreis"},"federalState":{"key":"15","name":"Sachsen-Anhalt"}},{"name":"Eickendorfer Str.","postalCode":"39221","locality":"Bördeland","municipality":{"key":"15089042","name":"Bördeland","type":"Kreisangehörige_Gemeinde"},"district":{"key":"15089","name":"Salzlandkreis","type":"Landkreis"},"federalState":{"key":"15","name":"Sachsen-Anhalt"}},{"name":"Eickendorfer Weg","postalCode":"39221","locality":"Bördeland","municipality":{"key":"15089042","name":"Bördeland","type":"Kreisangehörige_Gemeinde"},"district":{"key":"15089","name":"Salzlandkreis","type":"Landkreis"},"federalState":{"key":"15","name":"Sachsen-Anhalt"}},{"name":"Eierstr.","postalCode":"39343","locality":"Hohe Börde","municipality":{"key":"15083298","name":"Hohe Börde","type":"Kreisangehörige_Gemeinde"},"district":{"key":"15083","name":"Börde","type":"Landkreis"},"federalState":{"key":"15","name":"Sachsen-Anhalt"}},{"name":"Einzelgehöfte","postalCode":"39164","locality":"Wanzleben-Börde","municipality":{"key":"15083531","name":"Wanzleben-Börde, Stadt","type":"Stadt"},"district":{"key":"15083","name":"Börde","type":"Landkreis"},"federalState":{"key":"15","name":"Sachsen-Anhalt"}},{"name":"Elsterweg","postalCode":"39167","locality":"Hohe Börde","municipality":{"key":"15083298","name":"Hohe Börde","type":"Kreisangehörige_Gemeinde"},"district":{"key":"15083","name":"Börde","type":"Landkreis"},"federalState":{"key":"15","name":"Sachsen-Anhalt"}},{"name":"Elsterweg","postalCode":"39221","locality":"Bördeland","municipality":{"key":"15089042","name":"Bördeland","type":"Kreisangehörige_Gemeinde"},"district":{"key":"15089","name":"Salzlandkreis","type":"Landkreis"},"federalState":{"key":"15","name":"Sachsen-Anhalt"}},{"name":"Emdener Feldweg","postalCode":"39343","locality":"Hohe Börde","municipality":{"key":"15083298","name":"Hohe Börde","type":"Kreisangehörige_Gemeinde"},"district":{"key":"15083","name":"Börde","type":"Landkreis"},"federalState":{"key":"15","name":"Sachsen-Anhalt"}},{"name":"Emdener Weg","postalCode":"39343","locality":"Hohe Börde","municipality":{"key":"15083298","name":"Hohe Börde","type":"Kreisangehörige_Gemeinde"},"district":{"key":"15083","name":"Börde","type":"Landkreis"},"federalState":{"key":"15","name":"Sachsen-Anhalt"}},{"name":"Enge Str.","postalCode":"39164","locality":"Wanzleben-Börde","municipality":{"key":"15083531","name":"Wanzleben-Börde, Stadt","type":"Stadt"},"district":{"key":"15083","name":"Börde","type":"Landkreis"},"federalState":{"key":"15","name":"Sachsen-Anhalt"}},{"name":"Erlenweg","postalCode":"39167","locality":"Hohe Börde","municipality":{"key":"15083298","name":"Hohe Börde","type":"Kreisangehörige_Gemeinde"},"district":{"key":"15083","name":"Börde","type":"Landkreis"},"federalState":{"key":"15","name":"Sachsen-Anhalt"}},{"name":"Erlenweg","postalCode":"39326","locality":"Niedere Börde","municipality":{"key":"15083390","name":"Niedere Börde","type":"Kreisangehörige_Gemeinde"},"district":{"key":"15083","name":"Börde","type":"Landkreis"},"federalState":{"key":"15","name":"Sachsen-Anhalt"}},{"name":"Ernst-Thälmann-Platz","postalCode":"39164","locality":"Wanzleben-Börde","municipality":{"key":"15083531","name":"Wanzleben-Börde, Stadt","type":"Stadt"},"district":{"key":"15083","name":"Börde","type":"Landkreis"},"federalState":{"key":"15","name":"Sachsen-Anhalt"}},{"name":"Ernst-Thälmann-Str.","postalCode":"39164","locality":"Wanzleben-Börde","municipality":{"key":"15083531","name":"Wanzleben-Börde, Stadt","type":"Stadt"},"district":{"key":"15083","name":"Börde","type":"Landkreis"},"federalState":{"key":"15","name":"Sachsen-Anhalt"}},{"name":"Ernst-Thälmann-Str.","postalCode":"39167","locality":"Hohe Börde","municipality":{"key":"15083298","name":"Hohe Börde","type":"Kreisangehörige_Gemeinde"},"district":{"key":"15083","name":"Börde","type":"Landkreis"},"federalState":{"key":"15","name":"Sachsen-Anhalt"}},{"name":"Ernst-Thälmann-Str.","postalCode":"39221","locality":"Bördeland","municipality":{"key":"15089042","name":"Bördeland","type":"Kreisangehörige_Gemeinde"},"district":{"key":"15089","name":"Salzlandkreis","type":"Landkreis"},"federalState":{"key":"15","name":"Sachsen-Anhalt"}},{"name":"Ernst-Thälmann-Str.","postalCode":"39435","locality":"Bördeaue","municipality":{"key":"15089041","name":"Bördeaue","type":"Kreisangehörige_Gemeinde"},"district":{"key":"15089","name":"Salzlandkreis","type":"Landkreis"},"federalState":{"key":"15","name":"Sachsen-Anhalt"}},{"name":"Eschenweg","postalCode":"39167","locality":"Hohe Börde","municipality":{"key":"15083298","name":"Hohe Börde","type":"Kreisangehörige_Gemeinde"},"district":{"key":"15083","name":"Börde","type":"Landkreis"},"federalState":{"key":"15","name":"Sachsen-Anhalt"}},{"name":"Feldweg","postalCode":"39365","locality":"Harbke","municipality":{"key":"15083275","name":"Harbke","type":"Kreisangehörige_Gemeinde"},"district":{"key":"15083","name":"Börde","type":"Landkreis"},"federalState":{"key":"15","name":"Sachsen-Anhalt"}},{"name":"Friedhofsweg","postalCode":"39365","locality":"Harbke","municipality":{"key":"15083275","name":"Harbke","type":"Kreisangehörige_Gemeinde"},"district":{"key":"15083","name":"Börde","type":"Landkreis"},"federalState":{"key":"15","name":"Sachsen-Anhalt"}},{"name":"Friedrichstr.","postalCode":"39365","locality":"Harbke","municipality":{"key":"15083275","name":"Harbke","type":"Kreisangehörige_Gemeinde"},"district":{"key":"15083","name":"Börde","type":"Landkreis"},"federalState":{"key":"15","name":"Sachsen-Anhalt"}},{"name":"Gartenstr.","postalCode":"39365","locality":"Harbke","municipality":{"key":"15083275","name":"Harbke","type":"Kreisangehörige_Gemeinde"},"district":{"key":"15083","name":"Börde","type":"Landkreis"},"federalState":{"key":"15","name":"Sachsen-Anhalt"}},{"name":"Goethestr.","postalCode":"39365","locality":"Harbke","municipality":{"key":"15083275","name":"Harbke","type":"Kreisangehörige_Gemeinde"},"district":{"key":"15083","name":"Börde","type":"Landkreis"},"federalState":{"key":"15","name":"Sachsen-Anhalt"}},{"name":"Halberstädter Str.","postalCode":"39365","locality":"Harbke","municipality":{"key":"15083275","name":"Harbke","type":"Kreisangehörige_Gemeinde"},"district":{"key":"15083","name":"Börde","type":"Landkreis"},"federalState":{"key":"15","name":"Sachsen-Anhalt"}},{"name":"Im Cönterstieg","postalCode":"39167","locality":"Hohe Börde","municipality":{"key":"15083298","name":"Hohe Börde","type":"Kreisangehörige_Gemeinde"},"district":{"key":"15083","name":"Börde","type":"Landkreis"},"federalState":{"key":"15","name":"Sachsen-Anhalt"}},{"name":"Im Fuchstal","postalCode":"39167","locality":"Hohe Börde","municipality":{"key":"15083298","name":"Hohe Börde","type":"Kreisangehörige_Gemeinde"},"district":{"key":"15083","name":"Börde","type":"Landkreis"},"federalState":{"key":"15","name":"Sachsen-Anhalt"}},{"name":"Im Lämmertal","postalCode":"39167","locality":"Hohe Börde","municipality":{"key":"15083298","name":"Hohe Börde","type":"Kreisangehörige_Gemeinde"},"district":{"key":"15083","name":"Börde","type":"Landkreis"},"federalState":{"key":"15","name":"Sachsen-Anhalt"}},{"name":"Im Lerchenfeld","postalCode":"39221","locality":"Bördeland","municipality":{"key":"15089042","name":"Bördeland","type":"Kreisangehörige_Gemeinde"},"district":{"key":"15089","name":"Salzlandkreis","type":"Landkreis"},"federalState":{"key":"15","name":"Sachsen-Anhalt"}},{"name":"Im Oberdorf","postalCode":"39164","locality":"Wanzleben-Börde","municipality":{"key":"15083531","name":"Wanzleben-Börde, Stadt","type":"Stadt"},"district":{"key":"15083","name":"Börde","type":"Landkreis"},"federalState":{"key":"15","name":"Sachsen-Anhalt"}},{"name":"Im Ring","postalCode":"39167","locality":"Hohe Börde","municipality":{"key":"15083298","name":"Hohe Börde","type":"Kreisangehörige_Gemeinde"},"district":{"key":"15083","name":"Börde","type":"Landkreis"},"federalState":{"key":"15","name":"Sachsen-Anhalt"}},{"name":"Im Sack","postalCode":"39343","locality":"Hohe Börde","municipality":{"key":"15083298","name":"Hohe Börde","type":"Kreisangehörige_Gemeinde"},"district":{"key":"15083","name":"Börde","type":"Landkreis"},"federalState":{"key":"15","name":"Sachsen-Anhalt"}},{"name":"Im Schrotetal","postalCode":"39167","locality":"Hohe Börde","municipality":{"key":"15083298","name":"Hohe Börde","type":"Kreisangehörige_Gemeinde"},"district":{"key":"15083","name":"Börde","type":"Landkreis"},"federalState":{"key":"15","name":"Sachsen-Anhalt"}},{"name":"Im Winkel","postalCode":"39164","locality":"Wanzleben-Börde","municipality":{"key":"15083531","name":"Wanzleben-Börde, Stadt","type":"Stadt"},"district":{"key":"15083","name":"Börde","type":"Landkreis"},"federalState":{"key":"15","name":"Sachsen-Anhalt"}},{"name":"Im Winkel","postalCode":"39167","locality":"Hohe Börde","municipality":{"key":"15083298","name":"Hohe Börde","type":"Kreisangehörige_Gemeinde"},"district":{"key":"15083","name":"Börde","type":"Landkreis"},"federalState":{"key":"15","name":"Sachsen-Anhalt"}},{"name":"Im Winkel","postalCode":"39221","locality":"Bördeland","municipality":{"key":"15089042","name":"Bördeland","type":"Kreisangehörige_Gemeinde"},"district":{"key":"15089","name":"Salzlandkreis","type":"Landkreis"},"federalState":{"key":"15","name":"Sachsen-Anhalt"}},{"name":"Im Winkel","postalCode":"39326","locality":"Hohe Börde","municipality":{"key":"15083298","name":"Hohe Börde","type":"Kreisangehörige_Gemeinde"},"district":{"key":"15083","name":"Börde","type":"Landkreis"},"federalState":{"key":"15","name":"Sachsen-Anhalt"}},{"name":"Im Winkel","postalCode":"39326","locality":"Niedere Börde","municipality":{"key":"15083390","name":"Niedere Börde","type":"Kreisangehörige_Gemeinde"},"district":{"key":"15083","name":"Börde","type":"Landkreis"},"federalState":{"key":"15","name":"Sachsen-Anhalt"}},{"name":"Im Winkel","postalCode":"39343","locality":"Hohe Börde","municipality":{"key":"15083298","name":"Hohe Börde","type":"Kreisangehörige_Gemeinde"},"district":{"key":"15083","name":"Börde","type":"Landkreis"},"federalState":{"key":"15","name":"Sachsen-Anhalt"}},{"name":"Im Winkel","postalCode":"39345","locality":"Niedere Börde","municipality":{"key":"15083390","name":"Niedere Börde","type":"Kreisangehörige_Gemeinde"},"district":{"key":"15083","name":"Börde","type":"Landkreis"},"federalState":{"key":"15","name":"Sachsen-Anhalt"}},{"name":"Industriestr.","postalCode":"39435","locality":"Bördeaue","municipality":{"key":"15089041","name":"Bördeaue","type":"Kreisangehörige_Gemeinde"},"district":{"key":"15089","name":"Salzlandkreis","type":"Landkreis"},"federalState":{"key":"15","name":"Sachsen-Anhalt"}},{"name":"Irxlebener Siedlung","postalCode":"39167","locality":"Hohe Börde","municipality":{"key":"15083298","name":"Hohe Börde","type":"Kreisangehörige_Gemeinde"},"district":{"key":"15083","name":"Börde","type":"Landkreis"},"federalState":{"key":"15","name":"Sachsen-Anhalt"}},{"name":"Irxlebener Str.","postalCode":"39167","locality":"Hohe Börde","municipality":{"key":"15083298","name":"Hohe Börde","type":"Kreisangehörige_Gemeinde"},"district":{"key":"15083","name":"Börde","type":"Landkreis"},"federalState":{"key":"15","name":"Sachsen-Anhalt"}},{"name":"Irxleber Str.","postalCode":"39326","locality":"Hohe Börde","municipality":{"key":"15083298","name":"Hohe Börde","type":"Kreisangehörige_Gemeinde"},"district":{"key":"15083","name":"Börde","type":"Landkreis"},"federalState":{"key":"15","name":"Sachsen-Anhalt"}},{"name":"Irxleber Weg","postalCode":"39167","locality":"Hohe Börde","municipality":{"key":"15083298","name":"Hohe Börde","type":"Kreisangehörige_Gemeinde"},"district":{"key":"15083","name":"Börde","type":"Landkreis"},"federalState":{"key":"15","name":"Sachsen-Anhalt"}},{"name":"Jersleber Str.","postalCode":"39326","locality":"Niedere Börde","municipality":{"key":"15083390","name":"Niedere Börde","type":"Kreisangehörige_Gemeinde"},"district":{"key":"15083","name":"Börde","type":"Landkreis"},"federalState":{"key":"15","name":"Sachsen-Anhalt"}},{"name":"Jersleber Weg","postalCode":"39326","locality":"Niedere Börde","municipality":{"key":"15083390","name":"Niedere Börde","type":"Kreisangehörige_Gemeinde"},"district":{"key":"15083","name":"Börde","type":"Landkreis"},"federalState":{"key":"15","name":"Sachsen-Anhalt"}},{"name":"Johann-Gottfried-Herder-Weg","postalCode":"39164","locality":"Wanzleben-Börde","municipality":{"key":"15083531","name":"Wanzleben-Börde, Stadt","type":"Stadt"},"district":{"key":"15083","name":"Börde","type":"Landkreis"},"federalState":{"key":"15","name":"Sachsen-Anhalt"}},{"name":"Johann-Wolfgang-von-Goethe-Str.","postalCode":"39164","locality":"Wanzleben-Börde","municipality":{"key":"15083531","name":"Wanzleben-Börde, Stadt","type":"Stadt"},"district":{"key":"15083","name":"Börde","type":"Landkreis"},"federalState":{"key":"15","name":"Sachsen-Anhalt"}},{"name":"Karl-Marx-Platz","postalCode":"39365","locality":"Harbke","municipality":{"key":"15083275","name":"Harbke","type":"Kreisangehörige_Gemeinde"},"district":{"key":"15083","name":"Börde","type":"Landkreis"},"federalState":{"key":"15","name":"Sachsen-Anhalt"}},{"name":"Kolonnenweg","postalCode":"39365","locality":"Harbke","municipality":{"key":"15083275","name":"Harbke","type":"Kreisangehörige_Gemeinde"},"district":{"key":"15083","name":"Börde","type":"Landkreis"},"federalState":{"key":"15","name":"Sachsen-Anhalt"}},{"name":"Ladenstr.","postalCode":"39164","locality":"Wanzleben-Börde","municipality":{"key":"15083531","name":"Wanzleben-Börde, Stadt","type":"Stadt"},"district":{"key":"15083","name":"Börde","type":"Landkreis"},"federalState":{"key":"15","name":"Sachsen-Anhalt"}},{"name":"Lange Hauptstr.","postalCode":"39164","locality":"Wanzleben-Börde","municipality":{"key":"15083531","name":"Wanzleben-Börde, Stadt","type":"Stadt"},"district":{"key":"15083","name":"Börde","type":"Landkreis"},"federalState":{"key":"15","name":"Sachsen-Anhalt"}},{"name":"Langenweddinger Str.","postalCode":"39164","locality":"Wanzleben-Börde","municipality":{"key":"15083531","name":"Wanzleben-Börde, Stadt","type":"Stadt"},"district":{"key":"15083","name":"Börde","type":"Landkreis"},"federalState":{"key":"15","name":"Sachsen-Anhalt"}},{"name":"Langer Schlag","postalCode":"39326","locality":"Niedere Börde","municipality":{"key":"15083390","name":"Niedere Börde","type":"Kreisangehörige_Gemeinde"},"district":{"key":"15083","name":"Börde","type":"Landkreis"},"federalState":{"key":"15","name":"Sachsen-Anhalt"}},{"name":"Langestr.","postalCode":"39221","locality":"Bördeland","municipality":{"key":"15089042","name":"Bördeland","type":"Kreisangehörige_Gemeinde"},"district":{"key":"15089","name":"Salzlandkreis","type":"Landkreis"},"federalState":{"key":"15","name":"Sachsen-Anhalt"}},{"name":"Lange Str.","postalCode":"39164","locality":"Wanzleben-Börde","municipality":{"key":"15083531","name":"Wanzleben-Börde, Stadt","type":"Stadt"},"district":{"key":"15083","name":"Börde","type":"Landkreis"},"federalState":{"key":"15","name":"Sachsen-Anhalt"}},{"name":"Lange Str.","postalCode":"39221","locality":"Bördeland","municipality":{"key":"15089042","name":"Bördeland","type":"Kreisangehörige_Gemeinde"},"district":{"key":"15089","name":"Salzlandkreis","type":"Landkreis"},"federalState":{"key":"15","name":"Sachsen-Anhalt"}},{"name":"Lange Str.","postalCode":"39326","locality":"Niedere Börde","municipality":{"key":"15083390","name":"Niedere Börde","type":"Kreisangehörige_Gemeinde"},"district":{"key":"15083","name":"Börde","type":"Landkreis"},"federalState":{"key":"15","name":"Sachsen-Anhalt"}},{"name":"Lange Str.","postalCode":"39448","locality":"Börde-Hakel","municipality":{"key":"15089043","name":"Börde-Hakel","type":"Kreisangehörige_Gemeinde"},"district":{"key":"15089","name":"Salzlandkreis","type":"Landkreis"},"federalState":{"key":"15","name":"Sachsen-Anhalt"}},{"name":"Lehrergärten","postalCode":"39435","locality":"Bördeaue","municipality":{"key":"15089041","name":"Bördeaue","type":"Kreisangehörige_Gemeinde"},"district":{"key":"15089","name":"Salzlandkreis","type":"Landkreis"},"federalState":{"key":"15","name":"Sachsen-Anhalt"}},{"name":"Leninstr.","postalCode":"39448","locality":"Börde-Hakel","municipality":{"key":"15089043","name":"Börde-Hakel","type":"Kreisangehörige_Gemeinde"},"district":{"key":"15089","name":"Salzlandkreis","type":"Landkreis"},"federalState":{"key":"15","name":"Sachsen-Anhalt"}},{"name":"Lerchenweg","postalCode":"39167","locality":"Hohe Börde","municipality":{"key":"15083298","name":"Hohe Börde","type":"Kreisangehörige_Gemeinde"},"district":{"key":"15083","name":"Börde","type":"Landkreis"},"federalState":{"key":"15","name":"Sachsen-Anhalt"}},{"name":"Lerchenweg","postalCode":"39326","locality":"Niedere Börde","municipality":{"key":"15083390","name":"Niedere Börde","type":"Kreisangehörige_Gemeinde"},"district":{"key":"15083","name":"Börde","type":"Landkreis"},"federalState":{"key":"15","name":"Sachsen-Anhalt"}},{"name":"Lessingweg","postalCode":"39167","locality":"Hohe Börde","municipality":{"key":"15083298","name":"Hohe Börde","type":"Kreisangehörige_Gemeinde"},"district":{"key":"15083","name":"Börde","type":"Landkreis"},"federalState":{"key":"15","name":"Sachsen-Anhalt"}},{"name":"Lilienstr.","postalCode":"39221","locality":"Bördeland","municipality":{"key":"15089042","name":"Bördeland","type":"Kreisangehörige_Gemeinde"},"district":{"key":"15089","name":"Salzlandkreis","type":"Landkreis"},"federalState":{"key":"15","name":"Sachsen-Anhalt"}},{"name":"Lilienstr.","postalCode":"39326","locality":"Hohe Börde","municipality":{"key":"15083298","name":"Hohe Börde","type":"Kreisangehörige_Gemeinde"},"district":{"key":"15083","name":"Börde","type":"Landkreis"},"federalState":{"key":"15","name":"Sachsen-Anhalt"}},{"name":"Lilienweg","postalCode":"39164","locality":"Wanzleben-Börde","municipality":{"key":"15083531","name":"Wanzleben-Börde, Stadt","type":"Stadt"},"district":{"key":"15083","name":"Börde","type":"Landkreis"},"federalState":{"key":"15","name":"Sachsen-Anhalt"}},{"name":"Lindenallee","postalCode":"39164","locality":"Wanzleben-Börde","municipality":{"key":"15083531","name":"Wanzleben-Börde, Stadt","type":"Stadt"},"district":{"key":"15083","name":"Börde","type":"Landkreis"},"federalState":{"key":"15","name":"Sachsen-Anhalt"}},{"name":"Lindenplatz","postalCode":"39326","locality":"Hohe Börde","municipality":{"key":"15083298","name":"Hohe Börde","type":"Kreisangehörige_Gemeinde"},"district":{"key":"15083","name":"Börde","type":"Landkreis"},"federalState":{"key":"15","name":"Sachsen-Anhalt"}},{"name":"Lindenplatz","postalCode":"39435","locality":"Bördeaue","municipality":{"key":"15089041","name":"Bördeaue","type":"Kreisangehörige_Gemeinde"},"district":{"key":"15089","name":"Salzlandkreis","type":"Landkreis"},"federalState":{"key":"15","name":"Sachsen-Anhalt"}},{"name":"Lindenpromenade","postalCode":"39164","locality":"Wanzleben-Börde","municipality":{"key":"15083531","name":"Wanzleben-Börde, Stadt","type":"Stadt"},"district":{"key":"15083","name":"Börde","type":"Landkreis"},"federalState":{"key":"15","name":"Sachsen-Anhalt"}},{"name":"Lindenstr.","postalCode":"39164","locality":"Wanzleben-Börde","municipality":{"key":"15083531","name":"Wanzleben-Börde, Stadt","type":"Stadt"},"district":{"key":"15083","name":"Börde","type":"Landkreis"},"federalState":{"key":"15","name":"Sachsen-Anhalt"}},{"name":"Lindenstr.","postalCode":"39167","locality":"Hohe Börde","municipality":{"key":"15083298","name":"Hohe Börde","type":"Kreisangehörige_Gemeinde"},"district":{"key":"15083","name":"Börde","type":"Landkreis"},"federalState":{"key":"15","name":"Sachsen-Anhalt"}},{"name":"Lindenstr.","postalCode":"39221","locality":"Bördeland","municipality":{"key":"15089042","name":"Bördeland","type":"Kreisangehörige_Gemeinde"},"district":{"key":"15089","name":"Salzlandkreis","type":"Landkreis"},"federalState":{"key":"15","name":"Sachsen-Anhalt"}},{"name":"Lindenstr.","postalCode":"39326","locality":"Niedere Börde","municipality":{"key":"15083390","name":"Niedere Börde","type":"Kreisangehörige_Gemeinde"},"district":{"key":"15083","name":"Börde","type":"Landkreis"},"federalState":{"key":"15","name":"Sachsen-Anhalt"}},{"name":"Lindenstr.","postalCode":"39448","locality":"Börde-Hakel","municipality":{"key":"15089043","name":"Börde-Hakel","type":"Kreisangehörige_Gemeinde"},"district":{"key":"15089","name":"Salzlandkreis","type":"Landkreis"},"federalState":{"key":"15","name":"Sachsen-Anhalt"}},{"name":"Lindenweg","postalCode":"39164","locality":"Wanzleben-Börde","municipality":{"key":"15083531","name":"Wanzleben-Börde, Stadt","type":"Stadt"},"district":{"key":"15083","name":"Börde","type":"Landkreis"},"federalState":{"key":"15","name":"Sachsen-Anhalt"}},{"name":"Lindenweg","postalCode":"39167","locality":"Hohe Börde","municipality":{"key":"15083298","name":"Hohe Börde","type":"Kreisangehörige_Gemeinde"},"district":{"key":"15083","name":"Börde","type":"Landkreis"},"federalState":{"key":"15","name":"Sachsen-Anhalt"}},{"name":"Lindenweg","postalCode":"39326","locality":"Niedere Börde","municipality":{"key":"15083390","name":"Niedere Börde","type":"Kreisangehörige_Gemeinde"},"district":{"key":"15083","name":"Börde","type":"Landkreis"},"federalState":{"key":"15","name":"Sachsen-Anhalt"}},{"name":"Lindenweg","postalCode":"39343","locality":"Hohe Börde","municipality":{"key":"15083298","name":"Hohe Börde","type":"Kreisangehörige_Gemeinde"},"district":{"key":"15083","name":"Börde","type":"Landkreis"},"federalState":{"key":"15","name":"Sachsen-Anhalt"}},{"name":"Lindhorster Str.","postalCode":"39326","locality":"Niedere Börde","municipality":{"key":"15083390","name":"Niedere Börde","type":"Kreisangehörige_Gemeinde"},"district":{"key":"15083","name":"Börde","type":"Landkreis"},"federalState":{"key":"15","name":"Sachsen-Anhalt"}},{"name":"Lithenbergstr.","postalCode":"39326","locality":"Niedere Börde","municipality":{"key":"15083390","name":"Niedere Börde","type":"Kreisangehörige_Gemeinde"},"district":{"key":"15083","name":"Börde","type":"Landkreis"},"federalState":{"key":"15","name":"Sachsen-Anhalt"}},{"name":"Loricaweg","postalCode":"39221","locality":"Bördeland","municipality":{"key":"15089042","name":"Bördeland","type":"Kreisangehörige_Gemeinde"},"district":{"key":"15089","name":"Salzlandkreis","type":"Landkreis"},"federalState":{"key":"15","name":"Sachsen-Anhalt"}},{"name":"Lüneburger Heerstr.","postalCode":"39343","locality":"Hohe Börde","municipality":{"key":"15083298","name":"Hohe Börde","type":"Kreisangehörige_Gemeinde"},"district":{"key":"15083","name":"Börde","type":"Landkreis"},"federalState":{"key":"15","name":"Sachsen-Anhalt"}},{"name":"Lüneburger Str.","postalCode":"39167","locality":"Hohe Börde","municipality":{"key":"15083298","name":"Hohe Börde","type":"Kreisangehörige_Gemeinde"},"district":{"key":"15083","name":"Börde","type":"Landkreis"},"federalState":{"key":"15","name":"Sachsen-Anhalt"}},{"name":"Lust","postalCode":"39448","locality":"Börde-Hakel","municipality":{"key":"15089043","name":"Börde-Hakel","type":"Kreisangehörige_Gemeinde"},"district":{"key":"15089","name":"Salzlandkreis","type":"Landkreis"},"federalState":{"key":"15","name":"Sachsen-Anhalt"}},{"name":"Morslebener Str.","postalCode":"39365","locality":"Harbke","municipality":{"key":"15083275","name":"Harbke","type":"Kreisangehörige_Gemeinde"},"district":{"key":"15083","name":"Börde","type":"Landkreis"},"federalState":{"key":"15","name":"Sachsen-Anhalt"}},{"name":"Neue Reihe","postalCode":"39365","locality":"Harbke","municipality":{"key":"15083275","name":"Harbke","type":"Kreisangehörige_Gemeinde"},"district":{"key":"15083","name":"Börde","type":"Landkreis"},"federalState":{"key":"15","name":"Sachsen-Anhalt"}},{"name":"Neuer Weg","postalCode":"39365","locality":"Harbke","municipality":{"key":"15083275","name":"Harbke","type":"Kreisangehörige_Gemeinde"},"district":{"key":"15083","name":"Börde","type":"Landkreis"},"federalState":{"key":"15","name":"Sachsen-Anhalt"}},{"name":"Obere Gehrecken","postalCode":"39167","locality":"Hohe Börde","municipality":{"key":"15083298","name":"Hohe Börde","type":"Kreisangehörige_Gemeinde"},"district":{"key":"15083","name":"Börde","type":"Landkreis"},"federalState":{"key":"15","name":"Sachsen-Anhalt"}},{"name":"Oberer Hohenwarsleber Weg","postalCode":"39167","locality":"Hohe Börde","municipality":{"key":"15083298","name":"Hohe Börde","type":"Kreisangehörige_Gemeinde"},"district":{"key":"15083","name":"Börde","type":"Landkreis"},"federalState":{"key":"15","name":"Sachsen-Anhalt"}},{"name":"Oberes Sülzetal","postalCode":"39167","locality":"Hohe Börde","municipality":{"key":"15083298","name":"Hohe Börde","type":"Kreisangehörige_Gemeinde"},"district":{"key":"15083","name":"Börde","type":"Landkreis"},"federalState":{"key":"15","name":"Sachsen-Anhalt"}},{"name":"Ochtmerlseber Weg","postalCode":"39167","locality":"Hohe Börde","municipality":{"key":"15083298","name":"Hohe Börde","type":"Kreisangehörige_Gemeinde"},"district":{"key":"15083","name":"Börde","type":"Landkreis"},"federalState":{"key":"15","name":"Sachsen-Anhalt"}},{"name":"Ohregarten","postalCode":"39326","locality":"Niedere Börde","municipality":{"key":"15083390","name":"Niedere Börde","type":"Kreisangehörige_Gemeinde"},"district":{"key":"15083","name":"Börde","type":"Landkreis"},"federalState":{"key":"15","name":"Sachsen-Anhalt"}},{"name":"Okendorfer Weg","postalCode":"39164","locality":"Wanzleben-Börde","municipality":{"key":"15083531","name":"Wanzleben-Börde, Stadt","type":"Stadt"},"district":{"key":"15083","name":"Börde","type":"Landkreis"},"federalState":{"key":"15","name":"Sachsen-Anhalt"}},{"name":"Olbe-Hopfenteich-Weg","postalCode":"39167","locality":"Hohe Börde","municipality":{"key":"15083298","name":"Hohe Börde","type":"Kreisangehörige_Gemeinde"},"district":{"key":"15083","name":"Börde","type":"Landkreis"},"federalState":{"key":"15","name":"Sachsen-Anhalt"}},{"name":"Olvenstedter Weg","postalCode":"39167","locality":"Hohe Börde","municipality":{"key":"15083298","name":"Hohe Börde","type":"Kreisangehörige_Gemeinde"},"district":{"key":"15083","name":"Börde","type":"Landkreis"},"federalState":{"key":"15","name":"Sachsen-Anhalt"}},{"name":"Ordensbreite","postalCode":"39164","locality":"Wanzleben-Börde","municipality":{"key":"15083531","name":"Wanzleben-Börde, Stadt","type":"Stadt"},"district":{"key":"15083","name":"Börde","type":"Landkreis"},"federalState":{"key":"15","name":"Sachsen-Anhalt"}},{"name":"Osterwiesenstr.","postalCode":"39167","locality":"Hohe Börde","municipality":{"key":"15083298","name":"Hohe Börde","type":"Kreisangehörige_Gemeinde"},"district":{"key":"15083","name":"Börde","type":"Landkreis"},"federalState":{"key":"15","name":"Sachsen-Anhalt"}},{"name":"Ottersleber Tor","postalCode":"39164","locality":"Wanzleben-Börde","municipality":{"key":"15083531","name":"Wanzleben-Börde, Stadt","type":"Stadt"},"district":{"key":"15083","name":"Börde","type":"Landkreis"},"federalState":{"key":"15","name":"Sachsen-Anhalt"}},{"name":"Ottersleber Weg","postalCode":"39167","locality":"Hohe Börde","municipality":{"key":"15083298","name":"Hohe Börde","type":"Kreisangehörige_Gemeinde"},"district":{"key":"15083","name":"Börde","type":"Landkreis"},"federalState":{"key":"15","name":"Sachsen-Anhalt"}},{"name":"Otto-Grotewohl-Str.","postalCode":"39167","locality":"Hohe Börde","municipality":{"key":"15083298","name":"Hohe Börde","type":"Kreisangehörige_Gemeinde"},"district":{"key":"15083","name":"Börde","type":"Landkreis"},"federalState":{"key":"15","name":"Sachsen-Anhalt"}},{"name":"Parkstr.","postalCode":"39365","locality":"Harbke","municipality":{"key":"15083275","name":"Harbke","type":"Kreisangehörige_Gemeinde"},"district":{"key":"15083","name":"Börde","type":"Landkreis"},"federalState":{"key":"15","name":"Sachsen-Anhalt"}},{"name":"Quergasse","postalCode":"39221","locality":"Bördeland","municipality":{"key":"15089042","name":"Bördeland","type":"Kreisangehörige_Gemeinde"},"district":{"key":"15089","name":"Salzlandkreis","type":"Landkreis"},"federalState":{"key":"15","name":"Sachsen-Anhalt"}},{"name":"Querstr.","postalCode":"39164","locality":"Wanzleben-Börde","municipality":{"key":"15083531","name":"Wanzleben-Börde, Stadt","type":"Stadt"},"district":{"key":"15083","name":"Börde","type":"Landkreis"},"federalState":{"key":"15","name":"Sachsen-Anhalt"}},{"name":"Querstr.","postalCode":"39221","locality":"Bördeland","municipality":{"key":"15089042","name":"Bördeland","type":"Kreisangehörige_Gemeinde"},"district":{"key":"15089","name":"Salzlandkreis","type":"Landkreis"},"federalState":{"key":"15","name":"Sachsen-Anhalt"}},{"name":"Querstr.","postalCode":"39343","locality":"Hohe Börde","municipality":{"key":"15083298","name":"Hohe Börde","type":"Kreisangehörige_Gemeinde"},"district":{"key":"15083","name":"Börde","type":"Landkreis"},"federalState":{"key":"15","name":"Sachsen-Anhalt"}},{"name":"Runstedter Str.","postalCode":"39365","locality":"Harbke","municipality":{"key":"15083275","name":"Harbke","type":"Kreisangehörige_Gemeinde"},"district":{"key":"15083","name":"Börde","type":"Landkreis"},"federalState":{"key":"15","name":"Sachsen-Anhalt"}},{"name":"Schloßpark","postalCode":"39365","locality":"Harbke","municipality":{"key":"15083275","name":"Harbke","type":"Kreisangehörige_Gemeinde"},"district":{"key":"15083","name":"Börde","type":"Landkreis"},"federalState":{"key":"15","name":"Sachsen-Anhalt"}},{"name":"Schulackerstr.","postalCode":"39365","locality":"Harbke","municipality":{"key":"15083275","name":"Harbke","type":"Kreisangehörige_Gemeinde"},"district":{"key":"15083","name":"Börde","type":"Landkreis"},"federalState":{"key":"15","name":"Sachsen-Anhalt"}},{"name":"Silberbreite","postalCode":"39365","locality":"Harbke","municipality":{"key":"15083275","name":"Harbke","type":"Kreisangehörige_Gemeinde"},"district":{"key":"15083","name":"Börde","type":"Landkreis"},"federalState":{"key":"15","name":"Sachsen-Anhalt"}},{"name":"Sommersdorfer Str.","postalCode":"39365","locality":"Harbke","municipality":{"key":"15083275","name":"Harbke","type":"Kreisangehörige_Gemeinde"},"district":{"key":"15083","name":"Börde","type":"Landkreis"},"federalState":{"key":"15","name":"Sachsen-Anhalt"}},{"name":"Steige","postalCode":"39365","locality":"Harbke","municipality":{"key":"15083275","name":"Harbke","type":"Kreisangehörige_Gemeinde"},"district":{"key":"15083","name":"Börde","type":"Landkreis"},"federalState":{"key":"15","name":"Sachsen-Anhalt"}},{"name":"Str. der Einheit","postalCode":"39365","locality":"Harbke","municipality":{"key":"15083275","name":"Harbke","type":"Kreisangehörige_Gemeinde"},"district":{"key":"15083","name":"Börde","type":"Landkreis"},"federalState":{"key":"15","name":"Sachsen-Anhalt"}},{"name":"Str. des Aufbaus","postalCode":"39365","locality":"Harbke","municipality":{"key":"15083275","name":"Harbke","type":"Kreisangehörige_Gemeinde"},"district":{"key":"15083","name":"Börde","type":"Landkreis"},"federalState":{"key":"15","name":"Sachsen-Anhalt"}},{"name":"Südstr.","postalCode":"39365","locality":"Harbke","municipality":{"key":"15083275","name":"Harbke","type":"Kreisangehörige_Gemeinde"},"district":{"key":"15083","name":"Börde","type":"Landkreis"},"federalState":{"key":"15","name":"Sachsen-Anhalt"}},{"name":"Thälmannstr.","postalCode":"39365","locality":"Harbke","municipality":{"key":"15083275","name":"Harbke","type":"Kreisangehörige_Gemeinde"},"district":{"key":"15083","name":"Börde","type":"Landkreis"},"federalState":{"key":"15","name":"Sachsen-Anhalt"}},{"name":"Thymiansberg","postalCode":"39365","locality":"Harbke","municipality":{"key":"15083275","name":"Harbke","type":"Kreisangehörige_Gemeinde"},"district":{"key":"15083","name":"Börde","type":"Landkreis"},"federalState":{"key":"15","name":"Sachsen-Anhalt"}},{"name":"Uhlenhoch","postalCode":"39167","locality":"Hohe Börde","municipality":{"key":"15083298","name":"Hohe Börde","type":"Kreisangehörige_Gemeinde"},"district":{"key":"15083","name":"Börde","type":"Landkreis"},"federalState":{"key":"15","name":"Sachsen-Anhalt"}},{"name":"Ulmenweg","postalCode":"39167","locality":"Hohe Börde","municipality":{"key":"15083298","name":"Hohe Börde","type":"Kreisangehörige_Gemeinde"},"district":{"key":"15083","name":"Börde","type":"Landkreis"},"federalState":{"key":"15","name":"Sachsen-Anhalt"}},{"name":"Ulrichstr.","postalCode":"39221","locality":"Bördeland","municipality":{"key":"15089042","name":"Bördeland","type":"Kreisangehörige_Gemeinde"},"district":{"key":"15089","name":"Salzlandkreis","type":"Landkreis"},"federalState":{"key":"15","name":"Sachsen-Anhalt"}},{"name":"Umgehungsstr.","postalCode":"39164","locality":"Wanzleben-Börde","municipality":{"key":"15083531","name":"Wanzleben-Börde, Stadt","type":"Stadt"},"district":{"key":"15083","name":"Börde","type":"Landkreis"},"federalState":{"key":"15","name":"Sachsen-Anhalt"}},{"name":"Umgehungsstr.","postalCode":"39326","locality":"Hohe Börde","municipality":{"key":"15083298","name":"Hohe Börde","type":"Kreisangehörige_Gemeinde"},"district":{"key":"15083","name":"Börde","type":"Landkreis"},"federalState":{"key":"15","name":"Sachsen-Anhalt"}},{"name":"Unseburger Str.","postalCode":"39435","locality":"Bördeaue","municipality":{"key":"15089041","name":"Bördeaue","type":"Kreisangehörige_Gemeinde"},"district":{"key":"15089","name":"Salzlandkreis","type":"Landkreis"},"federalState":{"key":"15","name":"Sachsen-Anhalt"}},{"name":"Unter den Linden","postalCode":"39164","locality":"Wanzleben-Börde","municipality":{"key":"15083531","name":"Wanzleben-Börde, Stadt","type":"Stadt"},"district":{"key":"15083","name":"Börde","type":"Landkreis"},"federalState":{"key":"15","name":"Sachsen-Anhalt"}},{"name":"Unter den Linden","postalCode":"39221","locality":"Bördeland","municipality":{"key":"15089042","name":"Bördeland","type":"Kreisangehörige_Gemeinde"},"district":{"key":"15089","name":"Salzlandkreis","type":"Landkreis"},"federalState":{"key":"15","name":"Sachsen-Anhalt"}},{"name":"Untere Gehrecken","postalCode":"39167","locality":"Hohe Börde","municipality":{"key":"15083298","name":"Hohe Börde","type":"Kreisangehörige_Gemeinde"},"district":{"key":"15083","name":"Börde","type":"Landkreis"},"federalState":{"key":"15","name":"Sachsen-Anhalt"}},{"name":"Unterer Hohenwarsleber Weg","postalCode":"39167","locality":"Hohe Börde","municipality":{"key":"15083298","name":"Hohe Börde","type":"Kreisangehörige_Gemeinde"},"district":{"key":"15083","name":"Börde","type":"Landkreis"},"federalState":{"key":"15","name":"Sachsen-Anhalt"}},{"name":"Vahldorfer Weg","postalCode":"39326","locality":"Niedere Börde","municipality":{"key":"15083390","name":"Niedere Börde","type":"Kreisangehörige_Gemeinde"},"district":{"key":"15083","name":"Börde","type":"Landkreis"},"federalState":{"key":"15","name":"Sachsen-Anhalt"}},{"name":"Viehmarkt","postalCode":"39221","locality":"Bördeland","municipality":{"key":"15089042","name":"Bördeland","type":"Kreisangehörige_Gemeinde"},"district":{"key":"15089","name":"Salzlandkreis","type":"Landkreis"},"federalState":{"key":"15","name":"Sachsen-Anhalt"}},{"name":"Vogelbreite","postalCode":"39167","locality":"Hohe Börde","municipality":{"key":"15083298","name":"Hohe Börde","type":"Kreisangehörige_Gemeinde"},"district":{"key":"15083","name":"Börde","type":"Landkreis"},"federalState":{"key":"15","name":"Sachsen-Anhalt"}},{"name":"Vogelgesang","postalCode":"39221","locality":"Bördeland","municipality":{"key":"15089042","name":"Bördeland","type":"Kreisangehörige_Gemeinde"},"district":{"key":"15089","name":"Salzlandkreis","type":"Landkreis"},"federalState":{"key":"15","name":"Sachsen-Anhalt"}},{"name":"Vogelsang","postalCode":"39221","locality":"Bördeland","municipality":{"key":"15089042","name":"Bördeland","type":"Kreisangehörige_Gemeinde"},"district":{"key":"15089","name":"Salzlandkreis","type":"Landkreis"},"federalState":{"key":"15","name":"Sachsen-Anhalt"}},{"name":"Vor dem Hohen Tor","postalCode":"39164","locality":"Wanzleben-Börde","municipality":{"key":"15083531","name":"Wanzleben-Börde, Stadt","type":"Stadt"},"district":{"key":"15083","name":"Börde","type":"Landkreis"},"federalState":{"key":"15","name":"Sachsen-Anhalt"}},{"name":"Vor dem Kirchtore","postalCode":"39164","locality":"Wanzleben-Börde","municipality":{"key":"15083531","name":"Wanzleben-Börde, Stadt","type":"Stadt"},"district":{"key":"15083","name":"Börde","type":"Landkreis"},"federalState":{"key":"15","name":"Sachsen-Anhalt"}},{"name":"Vor dem Mühlentor","postalCode":"39221","locality":"Bördeland","municipality":{"key":"15089042","name":"Bördeland","type":"Kreisangehörige_Gemeinde"},"district":{"key":"15089","name":"Salzlandkreis","type":"Landkreis"},"federalState":{"key":"15","name":"Sachsen-Anhalt"}},{"name":"Vor dem Rittertor","postalCode":"39164","locality":"Wanzleben-Börde","municipality":{"key":"15083531","name":"Wanzleben-Börde, Stadt","type":"Stadt"},"district":{"key":"15083","name":"Börde","type":"Landkreis"},"federalState":{"key":"15","name":"Sachsen-Anhalt"}},{"name":"Vor dem Schloßtor","postalCode":"39164","locality":"Wanzleben-Börde","municipality":{"key":"15083531","name":"Wanzleben-Börde, Stadt","type":"Stadt"},"district":{"key":"15083","name":"Börde","type":"Landkreis"},"federalState":{"key":"15","name":"Sachsen-Anhalt"}},{"name":"Vor dem Sportplatz","postalCode":"39164","locality":"Wanzleben-Börde","municipality":{"key":"15083531","name":"Wanzleben-Börde, Stadt","type":"Stadt"},"district":{"key":"15083","name":"Börde","type":"Landkreis"},"federalState":{"key":"15","name":"Sachsen-Anhalt"}},{"name":"Vor dem Tore","postalCode":"39326","locality":"Niedere Börde","municipality":{"key":"15083390","name":"Niedere Börde","type":"Kreisangehörige_Gemeinde"},"district":{"key":"15083","name":"Börde","type":"Landkreis"},"federalState":{"key":"15","name":"Sachsen-Anhalt"}},{"name":"Vor dem Tore","postalCode":"39343","locality":"Hohe Börde","municipality":{"key":"15083298","name":"Hohe Börde","type":"Kreisangehörige_Gemeinde"},"district":{"key":"15083","name":"Börde","type":"Landkreis"},"federalState":{"key":"15","name":"Sachsen-Anhalt"}},{"name":"Vor dem Tore","postalCode":"39448","locality":"Börde-Hakel","municipality":{"key":"15089043","name":"Börde-Hakel","type":"Kreisangehörige_Gemeinde"},"district":{"key":"15089","name":"Salzlandkreis","type":"Landkreis"},"federalState":{"key":"15","name":"Sachsen-Anhalt"}},{"name":"Vor dem Welschen Tor","postalCode":"39164","locality":"Wanzleben-Börde","municipality":{"key":"15083531","name":"Wanzleben-Börde, Stadt","type":"Stadt"},"district":{"key":"15083","name":"Börde","type":"Landkreis"},"federalState":{"key":"15","name":"Sachsen-Anhalt"}},{"name":"Vor der Reihe","postalCode":"39343","locality":"Hohe Börde","municipality":{"key":"15083298","name":"Hohe Börde","type":"Kreisangehörige_Gemeinde"},"district":{"key":"15083","name":"Börde","type":"Landkreis"},"federalState":{"key":"15","name":"Sachsen-Anhalt"}},{"name":"Vor der Scheue","postalCode":"39343","locality":"Hohe Börde","municipality":{"key":"15083298","name":"Hohe Börde","type":"Kreisangehörige_Gemeinde"},"district":{"key":"15083","name":"Börde","type":"Landkreis"},"federalState":{"key":"15","name":"Sachsen-Anhalt"}},{"name":"Wulfersdorfer Weg","postalCode":"39365","locality":"Harbke","municipality":{"key":"15083275","name":"Harbke","type":"Kreisangehörige_Gemeinde"},"district":{"key":"15083","name":"Börde","type":"Landkreis"},"federalState":{"key":"15","name":"Sachsen-Anhalt"}},{"name":"Ziegelei","postalCode":"39365","locality":"Harbke","municipality":{"key":"15083275","name":"Harbke","type":"Kreisangehörige_Gemeinde"},"district":{"key":"15083","name":"Börde","type":"Landkreis"},"federalState":{"key":"15","name":"Sachsen-Anhalt"}},{"name":"Zur Lustgartenbreite","postalCode":"39365","locality":"Harbke","municipality":{"key":"15083275","name":"Harbke","type":"Kreisangehörige_Gemeinde"},"district":{"key":"15083","name":"Börde","type":"Landkreis"},"federalState":{"key":"15","name":"Sachsen-Anhalt"}},{"name":"Österling","postalCode":"39164","locality":"Wanzleben-Börde","municipality":{"key":"15083531","name":"Wanzleben-Börde, Stadt","type":"Stadt"},"district":{"key":"15083","name":"Börde","type":"Landkreis"},"federalState":{"key":"15","name":"Sachsen-Anhalt"}},]