[{"name":"Achtmorgenweg","postalCode":"53343","locality":"Wachtberg","municipality":{"key":"05382072","name":"Wachtberg","type":"Kreisangehörige_Gemeinde"},"district":{"key":"05382","name":"Rhein-Sieg-Kreis","type":"Kreis"},"federalState":{"key":"05","name":"Nordrhein-Westfalen"}},{"name":"Adendorfer Str.","postalCode":"53343","locality":"Wachtberg","municipality":{"key":"05382072","name":"Wachtberg","type":"Kreisangehörige_Gemeinde"},"district":{"key":"05382","name":"Rhein-Sieg-Kreis","type":"Kreis"},"federalState":{"key":"05","name":"Nordrhein-Westfalen"}},{"name":"Ahornweg","postalCode":"53343","locality":"Wachtberg","municipality":{"key":"05382072","name":"Wachtberg","type":"Kreisangehörige_Gemeinde"},"district":{"key":"05382","name":"Rhein-Sieg-Kreis","type":"Kreis"},"federalState":{"key":"05","name":"Nordrhein-Westfalen"}},{"name":"Ahrtalstr.","postalCode":"53343","locality":"Wachtberg","municipality":{"key":"05382072","name":"Wachtberg","type":"Kreisangehörige_Gemeinde"},"district":{"key":"05382","name":"Rhein-Sieg-Kreis","type":"Kreis"},"federalState":{"key":"05","name":"Nordrhein-Westfalen"}},{"name":"Ahrweiler Str.","postalCode":"53343","locality":"Wachtberg","municipality":{"key":"05382072","name":"Wachtberg","type":"Kreisangehörige_Gemeinde"},"district":{"key":"05382","name":"Rhein-Sieg-Kreis","type":"Kreis"},"federalState":{"key":"05","name":"Nordrhein-Westfalen"}},{"name":"Akazienweg","postalCode":"53343","locality":"Wachtberg","municipality":{"key":"05382072","name":"Wachtberg","type":"Kreisangehörige_Gemeinde"},"district":{"key":"05382","name":"Rhein-Sieg-Kreis","type":"Kreis"},"federalState":{"key":"05","name":"Nordrhein-Westfalen"}},{"name":"Alkersheimer Weg","postalCode":"53343","locality":"Wachtberg","municipality":{"key":"05382072","name":"Wachtberg","type":"Kreisangehörige_Gemeinde"},"district":{"key":"05382","name":"Rhein-Sieg-Kreis","type":"Kreis"},"federalState":{"key":"05","name":"Nordrhein-Westfalen"}},{"name":"Alte Gasse","postalCode":"53343","locality":"Wachtberg","municipality":{"key":"05382072","name":"Wachtberg","type":"Kreisangehörige_Gemeinde"},"district":{"key":"05382","name":"Rhein-Sieg-Kreis","type":"Kreis"},"federalState":{"key":"05","name":"Nordrhein-Westfalen"}},{"name":"Alte Hecke","postalCode":"53343","locality":"Wachtberg","municipality":{"key":"05382072","name":"Wachtberg","type":"Kreisangehörige_Gemeinde"},"district":{"key":"05382","name":"Rhein-Sieg-Kreis","type":"Kreis"},"federalState":{"key":"05","name":"Nordrhein-Westfalen"}},{"name":"Alte Höhle","postalCode":"53343","locality":"Wachtberg","municipality":{"key":"05382072","name":"Wachtberg","type":"Kreisangehörige_Gemeinde"},"district":{"key":"05382","name":"Rhein-Sieg-Kreis","type":"Kreis"},"federalState":{"key":"05","name":"Nordrhein-Westfalen"}},{"name":"Alte Landstr.","postalCode":"53343","locality":"Wachtberg","municipality":{"key":"05382072","name":"Wachtberg","type":"Kreisangehörige_Gemeinde"},"district":{"key":"05382","name":"Rhein-Sieg-Kreis","type":"Kreis"},"federalState":{"key":"05","name":"Nordrhein-Westfalen"}},{"name":"Alte Molkerei","postalCode":"53343","locality":"Wachtberg","municipality":{"key":"05382072","name":"Wachtberg","type":"Kreisangehörige_Gemeinde"},"district":{"key":"05382","name":"Rhein-Sieg-Kreis","type":"Kreis"},"federalState":{"key":"05","name":"Nordrhein-Westfalen"}},{"name":"Alter Hof","postalCode":"53343","locality":"Wachtberg","municipality":{"key":"05382072","name":"Wachtberg","type":"Kreisangehörige_Gemeinde"},"district":{"key":"05382","name":"Rhein-Sieg-Kreis","type":"Kreis"},"federalState":{"key":"05","name":"Nordrhein-Westfalen"}},{"name":"Alter Schützenstand","postalCode":"53343","locality":"Wachtberg","municipality":{"key":"05382072","name":"Wachtberg","type":"Kreisangehörige_Gemeinde"},"district":{"key":"05382","name":"Rhein-Sieg-Kreis","type":"Kreis"},"federalState":{"key":"05","name":"Nordrhein-Westfalen"}},{"name":"Alter Weg","postalCode":"53343","locality":"Wachtberg","municipality":{"key":"05382072","name":"Wachtberg","type":"Kreisangehörige_Gemeinde"},"district":{"key":"05382","name":"Rhein-Sieg-Kreis","type":"Kreis"},"federalState":{"key":"05","name":"Nordrhein-Westfalen"}},{"name":"Alte Str.","postalCode":"53343","locality":"Wachtberg","municipality":{"key":"05382072","name":"Wachtberg","type":"Kreisangehörige_Gemeinde"},"district":{"key":"05382","name":"Rhein-Sieg-Kreis","type":"Kreis"},"federalState":{"key":"05","name":"Nordrhein-Westfalen"}},{"name":"Am Apfelhügel","postalCode":"53343","locality":"Wachtberg","municipality":{"key":"05382072","name":"Wachtberg","type":"Kreisangehörige_Gemeinde"},"district":{"key":"05382","name":"Rhein-Sieg-Kreis","type":"Kreis"},"federalState":{"key":"05","name":"Nordrhein-Westfalen"}},{"name":"Am Bach","postalCode":"53343","locality":"Wachtberg","municipality":{"key":"05382072","name":"Wachtberg","type":"Kreisangehörige_Gemeinde"},"district":{"key":"05382","name":"Rhein-Sieg-Kreis","type":"Kreis"},"federalState":{"key":"05","name":"Nordrhein-Westfalen"}},{"name":"Am Berghof","postalCode":"53343","locality":"Wachtberg","municipality":{"key":"05382072","name":"Wachtberg","type":"Kreisangehörige_Gemeinde"},"district":{"key":"05382","name":"Rhein-Sieg-Kreis","type":"Kreis"},"federalState":{"key":"05","name":"Nordrhein-Westfalen"}},{"name":"Am Bollwerk","postalCode":"53343","locality":"Wachtberg","municipality":{"key":"05382072","name":"Wachtberg","type":"Kreisangehörige_Gemeinde"},"district":{"key":"05382","name":"Rhein-Sieg-Kreis","type":"Kreis"},"federalState":{"key":"05","name":"Nordrhein-Westfalen"}},{"name":"Am Bonner Graben","postalCode":"53343","locality":"Wachtberg","municipality":{"key":"05382072","name":"Wachtberg","type":"Kreisangehörige_Gemeinde"},"district":{"key":"05382","name":"Rhein-Sieg-Kreis","type":"Kreis"},"federalState":{"key":"05","name":"Nordrhein-Westfalen"}},{"name":"Am Brückenberg","postalCode":"53343","locality":"Wachtberg","municipality":{"key":"05382072","name":"Wachtberg","type":"Kreisangehörige_Gemeinde"},"district":{"key":"05382","name":"Rhein-Sieg-Kreis","type":"Kreis"},"federalState":{"key":"05","name":"Nordrhein-Westfalen"}},{"name":"Am Brunnen","postalCode":"53343","locality":"Wachtberg","municipality":{"key":"05382072","name":"Wachtberg","type":"Kreisangehörige_Gemeinde"},"district":{"key":"05382","name":"Rhein-Sieg-Kreis","type":"Kreis"},"federalState":{"key":"05","name":"Nordrhein-Westfalen"}},{"name":"Am Campus","postalCode":"53343","locality":"Wachtberg","municipality":{"key":"05382072","name":"Wachtberg","type":"Kreisangehörige_Gemeinde"},"district":{"key":"05382","name":"Rhein-Sieg-Kreis","type":"Kreis"},"federalState":{"key":"05","name":"Nordrhein-Westfalen"}},{"name":"Am Feldpütz","postalCode":"53343","locality":"Wachtberg","municipality":{"key":"05382072","name":"Wachtberg","type":"Kreisangehörige_Gemeinde"},"district":{"key":"05382","name":"Rhein-Sieg-Kreis","type":"Kreis"},"federalState":{"key":"05","name":"Nordrhein-Westfalen"}},{"name":"Am Hammelsgraben","postalCode":"53343","locality":"Wachtberg","municipality":{"key":"05382072","name":"Wachtberg","type":"Kreisangehörige_Gemeinde"},"district":{"key":"05382","name":"Rhein-Sieg-Kreis","type":"Kreis"},"federalState":{"key":"05","name":"Nordrhein-Westfalen"}},{"name":"Am Hang","postalCode":"53343","locality":"Wachtberg","municipality":{"key":"05382072","name":"Wachtberg","type":"Kreisangehörige_Gemeinde"},"district":{"key":"05382","name":"Rhein-Sieg-Kreis","type":"Kreis"},"federalState":{"key":"05","name":"Nordrhein-Westfalen"}},{"name":"Am Hümerich","postalCode":"53343","locality":"Wachtberg","municipality":{"key":"05382072","name":"Wachtberg","type":"Kreisangehörige_Gemeinde"},"district":{"key":"05382","name":"Rhein-Sieg-Kreis","type":"Kreis"},"federalState":{"key":"05","name":"Nordrhein-Westfalen"}},{"name":"Am Kleinen Kreuz","postalCode":"53343","locality":"Wachtberg","municipality":{"key":"05382072","name":"Wachtberg","type":"Kreisangehörige_Gemeinde"},"district":{"key":"05382","name":"Rhein-Sieg-Kreis","type":"Kreis"},"federalState":{"key":"05","name":"Nordrhein-Westfalen"}},{"name":"Am Kottenforst","postalCode":"53343","locality":"Wachtberg","municipality":{"key":"05382072","name":"Wachtberg","type":"Kreisangehörige_Gemeinde"},"district":{"key":"05382","name":"Rhein-Sieg-Kreis","type":"Kreis"},"federalState":{"key":"05","name":"Nordrhein-Westfalen"}},{"name":"Am Langenacker","postalCode":"53343","locality":"Wachtberg","municipality":{"key":"05382072","name":"Wachtberg","type":"Kreisangehörige_Gemeinde"},"district":{"key":"05382","name":"Rhein-Sieg-Kreis","type":"Kreis"},"federalState":{"key":"05","name":"Nordrhein-Westfalen"}},{"name":"Am Lerchenanger","postalCode":"53343","locality":"Wachtberg","municipality":{"key":"05382072","name":"Wachtberg","type":"Kreisangehörige_Gemeinde"},"district":{"key":"05382","name":"Rhein-Sieg-Kreis","type":"Kreis"},"federalState":{"key":"05","name":"Nordrhein-Westfalen"}},{"name":"Am Mirgelberg","postalCode":"53343","locality":"Wachtberg","municipality":{"key":"05382072","name":"Wachtberg","type":"Kreisangehörige_Gemeinde"},"district":{"key":"05382","name":"Rhein-Sieg-Kreis","type":"Kreis"},"federalState":{"key":"05","name":"Nordrhein-Westfalen"}},{"name":"Am Nussbäumchen","postalCode":"53343","locality":"Wachtberg","municipality":{"key":"05382072","name":"Wachtberg","type":"Kreisangehörige_Gemeinde"},"district":{"key":"05382","name":"Rhein-Sieg-Kreis","type":"Kreis"},"federalState":{"key":"05","name":"Nordrhein-Westfalen"}},{"name":"Am Pfirsichhang","postalCode":"53343","locality":"Wachtberg","municipality":{"key":"05382072","name":"Wachtberg","type":"Kreisangehörige_Gemeinde"},"district":{"key":"05382","name":"Rhein-Sieg-Kreis","type":"Kreis"},"federalState":{"key":"05","name":"Nordrhein-Westfalen"}},{"name":"Am Ring","postalCode":"53343","locality":"Wachtberg","municipality":{"key":"05382072","name":"Wachtberg","type":"Kreisangehörige_Gemeinde"},"district":{"key":"05382","name":"Rhein-Sieg-Kreis","type":"Kreis"},"federalState":{"key":"05","name":"Nordrhein-Westfalen"}},{"name":"Am Rodderberg","postalCode":"53343","locality":"Wachtberg","municipality":{"key":"05382072","name":"Wachtberg","type":"Kreisangehörige_Gemeinde"},"district":{"key":"05382","name":"Rhein-Sieg-Kreis","type":"Kreis"},"federalState":{"key":"05","name":"Nordrhein-Westfalen"}},{"name":"Am Rosenhain","postalCode":"53343","locality":"Wachtberg","municipality":{"key":"05382072","name":"Wachtberg","type":"Kreisangehörige_Gemeinde"},"district":{"key":"05382","name":"Rhein-Sieg-Kreis","type":"Kreis"},"federalState":{"key":"05","name":"Nordrhein-Westfalen"}},{"name":"Am Scheeßberg","postalCode":"53343","locality":"Wachtberg","municipality":{"key":"05382072","name":"Wachtberg","type":"Kreisangehörige_Gemeinde"},"district":{"key":"05382","name":"Rhein-Sieg-Kreis","type":"Kreis"},"federalState":{"key":"05","name":"Nordrhein-Westfalen"}},{"name":"Am Schlehdorn","postalCode":"53343","locality":"Wachtberg","municipality":{"key":"05382072","name":"Wachtberg","type":"Kreisangehörige_Gemeinde"},"district":{"key":"05382","name":"Rhein-Sieg-Kreis","type":"Kreis"},"federalState":{"key":"05","name":"Nordrhein-Westfalen"}},{"name":"Am Schmitzhof","postalCode":"53343","locality":"Wachtberg","municipality":{"key":"05382072","name":"Wachtberg","type":"Kreisangehörige_Gemeinde"},"district":{"key":"05382","name":"Rhein-Sieg-Kreis","type":"Kreis"},"federalState":{"key":"05","name":"Nordrhein-Westfalen"}},{"name":"Amselweg","postalCode":"53343","locality":"Wachtberg","municipality":{"key":"05382072","name":"Wachtberg","type":"Kreisangehörige_Gemeinde"},"district":{"key":"05382","name":"Rhein-Sieg-Kreis","type":"Kreis"},"federalState":{"key":"05","name":"Nordrhein-Westfalen"}},{"name":"Am Sonnenhang","postalCode":"53343","locality":"Wachtberg","municipality":{"key":"05382072","name":"Wachtberg","type":"Kreisangehörige_Gemeinde"},"district":{"key":"05382","name":"Rhein-Sieg-Kreis","type":"Kreis"},"federalState":{"key":"05","name":"Nordrhein-Westfalen"}},{"name":"Am Spritzenhäuschen","postalCode":"53343","locality":"Wachtberg","municipality":{"key":"05382072","name":"Wachtberg","type":"Kreisangehörige_Gemeinde"},"district":{"key":"05382","name":"Rhein-Sieg-Kreis","type":"Kreis"},"federalState":{"key":"05","name":"Nordrhein-Westfalen"}},{"name":"Am Steinacker","postalCode":"53343","locality":"Wachtberg","municipality":{"key":"05382072","name":"Wachtberg","type":"Kreisangehörige_Gemeinde"},"district":{"key":"05382","name":"Rhein-Sieg-Kreis","type":"Kreis"},"federalState":{"key":"05","name":"Nordrhein-Westfalen"}},{"name":"Am Steinbruch","postalCode":"53343","locality":"Wachtberg","municipality":{"key":"05382072","name":"Wachtberg","type":"Kreisangehörige_Gemeinde"},"district":{"key":"05382","name":"Rhein-Sieg-Kreis","type":"Kreis"},"federalState":{"key":"05","name":"Nordrhein-Westfalen"}},{"name":"Am Steinernen Kreuz","postalCode":"53343","locality":"Wachtberg","municipality":{"key":"05382072","name":"Wachtberg","type":"Kreisangehörige_Gemeinde"},"district":{"key":"05382","name":"Rhein-Sieg-Kreis","type":"Kreis"},"federalState":{"key":"05","name":"Nordrhein-Westfalen"}},{"name":"Am Stockenpütz","postalCode":"53343","locality":"Wachtberg","municipality":{"key":"05382072","name":"Wachtberg","type":"Kreisangehörige_Gemeinde"},"district":{"key":"05382","name":"Rhein-Sieg-Kreis","type":"Kreis"},"federalState":{"key":"05","name":"Nordrhein-Westfalen"}},{"name":"Am Südhang","postalCode":"53343","locality":"Wachtberg","municipality":{"key":"05382072","name":"Wachtberg","type":"Kreisangehörige_Gemeinde"},"district":{"key":"05382","name":"Rhein-Sieg-Kreis","type":"Kreis"},"federalState":{"key":"05","name":"Nordrhein-Westfalen"}},{"name":"Am Tossenberg","postalCode":"53343","locality":"Wachtberg","municipality":{"key":"05382072","name":"Wachtberg","type":"Kreisangehörige_Gemeinde"},"district":{"key":"05382","name":"Rhein-Sieg-Kreis","type":"Kreis"},"federalState":{"key":"05","name":"Nordrhein-Westfalen"}},{"name":"Bachemer Weg","postalCode":"53343","locality":"Wachtberg","municipality":{"key":"05382072","name":"Wachtberg","type":"Kreisangehörige_Gemeinde"},"district":{"key":"05382","name":"Rhein-Sieg-Kreis","type":"Kreis"},"federalState":{"key":"05","name":"Nordrhein-Westfalen"}},{"name":"Bachstr.","postalCode":"53343","locality":"Wachtberg","municipality":{"key":"05382072","name":"Wachtberg","type":"Kreisangehörige_Gemeinde"},"district":{"key":"05382","name":"Rhein-Sieg-Kreis","type":"Kreis"},"federalState":{"key":"05","name":"Nordrhein-Westfalen"}},{"name":"Bauernweg","postalCode":"53343","locality":"Wachtberg","municipality":{"key":"05382072","name":"Wachtberg","type":"Kreisangehörige_Gemeinde"},"district":{"key":"05382","name":"Rhein-Sieg-Kreis","type":"Kreis"},"federalState":{"key":"05","name":"Nordrhein-Westfalen"}},{"name":"Beckers Kreuz","postalCode":"53343","locality":"Wachtberg","municipality":{"key":"05382072","name":"Wachtberg","type":"Kreisangehörige_Gemeinde"},"district":{"key":"05382","name":"Rhein-Sieg-Kreis","type":"Kreis"},"federalState":{"key":"05","name":"Nordrhein-Westfalen"}},{"name":"Bergstr.","postalCode":"53343","locality":"Wachtberg","municipality":{"key":"05382072","name":"Wachtberg","type":"Kreisangehörige_Gemeinde"},"district":{"key":"05382","name":"Rhein-Sieg-Kreis","type":"Kreis"},"federalState":{"key":"05","name":"Nordrhein-Westfalen"}},{"name":"Bergwiese","postalCode":"53343","locality":"Wachtberg","municipality":{"key":"05382072","name":"Wachtberg","type":"Kreisangehörige_Gemeinde"},"district":{"key":"05382","name":"Rhein-Sieg-Kreis","type":"Kreis"},"federalState":{"key":"05","name":"Nordrhein-Westfalen"}},{"name":"Berkumer Weg","postalCode":"53343","locality":"Wachtberg","municipality":{"key":"05382072","name":"Wachtberg","type":"Kreisangehörige_Gemeinde"},"district":{"key":"05382","name":"Rhein-Sieg-Kreis","type":"Kreis"},"federalState":{"key":"05","name":"Nordrhein-Westfalen"}},{"name":"Berliner Str.","postalCode":"53343","locality":"Wachtberg","municipality":{"key":"05382072","name":"Wachtberg","type":"Kreisangehörige_Gemeinde"},"district":{"key":"05382","name":"Rhein-Sieg-Kreis","type":"Kreis"},"federalState":{"key":"05","name":"Nordrhein-Westfalen"}},{"name":"Bernareggio-Platz","postalCode":"53343","locality":"Wachtberg","municipality":{"key":"05382072","name":"Wachtberg","type":"Kreisangehörige_Gemeinde"},"district":{"key":"05382","name":"Rhein-Sieg-Kreis","type":"Kreis"},"federalState":{"key":"05","name":"Nordrhein-Westfalen"}},{"name":"Biemsmaar","postalCode":"53343","locality":"Wachtberg","municipality":{"key":"05382072","name":"Wachtberg","type":"Kreisangehörige_Gemeinde"},"district":{"key":"05382","name":"Rhein-Sieg-Kreis","type":"Kreis"},"federalState":{"key":"05","name":"Nordrhein-Westfalen"}},{"name":"Birkenweg","postalCode":"53343","locality":"Wachtberg","municipality":{"key":"05382072","name":"Wachtberg","type":"Kreisangehörige_Gemeinde"},"district":{"key":"05382","name":"Rhein-Sieg-Kreis","type":"Kreis"},"federalState":{"key":"05","name":"Nordrhein-Westfalen"}},{"name":"Birresdorfer Str.","postalCode":"53343","locality":"Wachtberg","municipality":{"key":"05382072","name":"Wachtberg","type":"Kreisangehörige_Gemeinde"},"district":{"key":"05382","name":"Rhein-Sieg-Kreis","type":"Kreis"},"federalState":{"key":"05","name":"Nordrhein-Westfalen"}},{"name":"Blankenheimer Weg","postalCode":"53343","locality":"Wachtberg","municipality":{"key":"05382072","name":"Wachtberg","type":"Kreisangehörige_Gemeinde"},"district":{"key":"05382","name":"Rhein-Sieg-Kreis","type":"Kreis"},"federalState":{"key":"05","name":"Nordrhein-Westfalen"}},{"name":"Blumenweg","postalCode":"53343","locality":"Wachtberg","municipality":{"key":"05382072","name":"Wachtberg","type":"Kreisangehörige_Gemeinde"},"district":{"key":"05382","name":"Rhein-Sieg-Kreis","type":"Kreis"},"federalState":{"key":"05","name":"Nordrhein-Westfalen"}},{"name":"Bondorfer Str.","postalCode":"53343","locality":"Wachtberg","municipality":{"key":"05382072","name":"Wachtberg","type":"Kreisangehörige_Gemeinde"},"district":{"key":"05382","name":"Rhein-Sieg-Kreis","type":"Kreis"},"federalState":{"key":"05","name":"Nordrhein-Westfalen"}},{"name":"Bruchbachstr.","postalCode":"53343","locality":"Wachtberg","municipality":{"key":"05382072","name":"Wachtberg","type":"Kreisangehörige_Gemeinde"},"district":{"key":"05382","name":"Rhein-Sieg-Kreis","type":"Kreis"},"federalState":{"key":"05","name":"Nordrhein-Westfalen"}},{"name":"Brunnengarten","postalCode":"53343","locality":"Wachtberg","municipality":{"key":"05382072","name":"Wachtberg","type":"Kreisangehörige_Gemeinde"},"district":{"key":"05382","name":"Rhein-Sieg-Kreis","type":"Kreis"},"federalState":{"key":"05","name":"Nordrhein-Westfalen"}},{"name":"Buchenweg","postalCode":"53343","locality":"Wachtberg","municipality":{"key":"05382072","name":"Wachtberg","type":"Kreisangehörige_Gemeinde"},"district":{"key":"05382","name":"Rhein-Sieg-Kreis","type":"Kreis"},"federalState":{"key":"05","name":"Nordrhein-Westfalen"}},{"name":"Burgstr.","postalCode":"53343","locality":"Wachtberg","municipality":{"key":"05382072","name":"Wachtberg","type":"Kreisangehörige_Gemeinde"},"district":{"key":"05382","name":"Rhein-Sieg-Kreis","type":"Kreis"},"federalState":{"key":"05","name":"Nordrhein-Westfalen"}},{"name":"Burgweg","postalCode":"53343","locality":"Wachtberg","municipality":{"key":"05382072","name":"Wachtberg","type":"Kreisangehörige_Gemeinde"},"district":{"key":"05382","name":"Rhein-Sieg-Kreis","type":"Kreis"},"federalState":{"key":"05","name":"Nordrhein-Westfalen"}},{"name":"Buschweg","postalCode":"53343","locality":"Wachtberg","municipality":{"key":"05382072","name":"Wachtberg","type":"Kreisangehörige_Gemeinde"},"district":{"key":"05382","name":"Rhein-Sieg-Kreis","type":"Kreis"},"federalState":{"key":"05","name":"Nordrhein-Westfalen"}},{"name":"Cäciliengasse","postalCode":"53343","locality":"Wachtberg","municipality":{"key":"05382072","name":"Wachtberg","type":"Kreisangehörige_Gemeinde"},"district":{"key":"05382","name":"Rhein-Sieg-Kreis","type":"Kreis"},"federalState":{"key":"05","name":"Nordrhein-Westfalen"}},{"name":"Compbachweg","postalCode":"53343","locality":"Wachtberg","municipality":{"key":"05382072","name":"Wachtberg","type":"Kreisangehörige_Gemeinde"},"district":{"key":"05382","name":"Rhein-Sieg-Kreis","type":"Kreis"},"federalState":{"key":"05","name":"Nordrhein-Westfalen"}},{"name":"Dahlienweg","postalCode":"53343","locality":"Wachtberg","municipality":{"key":"05382072","name":"Wachtberg","type":"Kreisangehörige_Gemeinde"},"district":{"key":"05382","name":"Rhein-Sieg-Kreis","type":"Kreis"},"federalState":{"key":"05","name":"Nordrhein-Westfalen"}},{"name":"Dorfstr.","postalCode":"53343","locality":"Wachtberg","municipality":{"key":"05382072","name":"Wachtberg","type":"Kreisangehörige_Gemeinde"},"district":{"key":"05382","name":"Rhein-Sieg-Kreis","type":"Kreis"},"federalState":{"key":"05","name":"Nordrhein-Westfalen"}},{"name":"Drachenburgweg","postalCode":"53343","locality":"Wachtberg","municipality":{"key":"05382072","name":"Wachtberg","type":"Kreisangehörige_Gemeinde"},"district":{"key":"05382","name":"Rhein-Sieg-Kreis","type":"Kreis"},"federalState":{"key":"05","name":"Nordrhein-Westfalen"}},{"name":"Drachenfelsblick","postalCode":"53343","locality":"Wachtberg","municipality":{"key":"05382072","name":"Wachtberg","type":"Kreisangehörige_Gemeinde"},"district":{"key":"05382","name":"Rhein-Sieg-Kreis","type":"Kreis"},"federalState":{"key":"05","name":"Nordrhein-Westfalen"}},{"name":"Drachenfelsstr.","postalCode":"53343","locality":"Wachtberg","municipality":{"key":"05382072","name":"Wachtberg","type":"Kreisangehörige_Gemeinde"},"district":{"key":"05382","name":"Rhein-Sieg-Kreis","type":"Kreis"},"federalState":{"key":"05","name":"Nordrhein-Westfalen"}},{"name":"Dreikönigenstr.","postalCode":"53343","locality":"Wachtberg","municipality":{"key":"05382072","name":"Wachtberg","type":"Kreisangehörige_Gemeinde"},"district":{"key":"05382","name":"Rhein-Sieg-Kreis","type":"Kreis"},"federalState":{"key":"05","name":"Nordrhein-Westfalen"}},{"name":"Drosselweg","postalCode":"53343","locality":"Wachtberg","municipality":{"key":"05382072","name":"Wachtberg","type":"Kreisangehörige_Gemeinde"},"district":{"key":"05382","name":"Rhein-Sieg-Kreis","type":"Kreis"},"federalState":{"key":"05","name":"Nordrhein-Westfalen"}},{"name":"Eckendorfer Str.","postalCode":"53343","locality":"Wachtberg","municipality":{"key":"05382072","name":"Wachtberg","type":"Kreisangehörige_Gemeinde"},"district":{"key":"05382","name":"Rhein-Sieg-Kreis","type":"Kreis"},"federalState":{"key":"05","name":"Nordrhein-Westfalen"}},{"name":"Eibenweg","postalCode":"53343","locality":"Wachtberg","municipality":{"key":"05382072","name":"Wachtberg","type":"Kreisangehörige_Gemeinde"},"district":{"key":"05382","name":"Rhein-Sieg-Kreis","type":"Kreis"},"federalState":{"key":"05","name":"Nordrhein-Westfalen"}},{"name":"Eichenweg","postalCode":"53343","locality":"Wachtberg","municipality":{"key":"05382072","name":"Wachtberg","type":"Kreisangehörige_Gemeinde"},"district":{"key":"05382","name":"Rhein-Sieg-Kreis","type":"Kreis"},"federalState":{"key":"05","name":"Nordrhein-Westfalen"}},{"name":"Eifelstr.","postalCode":"53343","locality":"Wachtberg","municipality":{"key":"05382072","name":"Wachtberg","type":"Kreisangehörige_Gemeinde"},"district":{"key":"05382","name":"Rhein-Sieg-Kreis","type":"Kreis"},"federalState":{"key":"05","name":"Nordrhein-Westfalen"}},{"name":"Elsternweg","postalCode":"53343","locality":"Wachtberg","municipality":{"key":"05382072","name":"Wachtberg","type":"Kreisangehörige_Gemeinde"},"district":{"key":"05382","name":"Rhein-Sieg-Kreis","type":"Kreis"},"federalState":{"key":"05","name":"Nordrhein-Westfalen"}},{"name":"Erhard-Fischer-Str.","postalCode":"53343","locality":"Wachtberg","municipality":{"key":"05382072","name":"Wachtberg","type":"Kreisangehörige_Gemeinde"},"district":{"key":"05382","name":"Rhein-Sieg-Kreis","type":"Kreis"},"federalState":{"key":"05","name":"Nordrhein-Westfalen"}},{"name":"Erlenweg","postalCode":"53343","locality":"Wachtberg","municipality":{"key":"05382072","name":"Wachtberg","type":"Kreisangehörige_Gemeinde"},"district":{"key":"05382","name":"Rhein-Sieg-Kreis","type":"Kreis"},"federalState":{"key":"05","name":"Nordrhein-Westfalen"}},{"name":"Eschenweg","postalCode":"53343","locality":"Wachtberg","municipality":{"key":"05382072","name":"Wachtberg","type":"Kreisangehörige_Gemeinde"},"district":{"key":"05382","name":"Rhein-Sieg-Kreis","type":"Kreis"},"federalState":{"key":"05","name":"Nordrhein-Westfalen"}},{"name":"Eselsweg","postalCode":"53343","locality":"Wachtberg","municipality":{"key":"05382072","name":"Wachtberg","type":"Kreisangehörige_Gemeinde"},"district":{"key":"05382","name":"Rhein-Sieg-Kreis","type":"Kreis"},"federalState":{"key":"05","name":"Nordrhein-Westfalen"}},{"name":"Falkenweg","postalCode":"53343","locality":"Wachtberg","municipality":{"key":"05382072","name":"Wachtberg","type":"Kreisangehörige_Gemeinde"},"district":{"key":"05382","name":"Rhein-Sieg-Kreis","type":"Kreis"},"federalState":{"key":"05","name":"Nordrhein-Westfalen"}},{"name":"Finkenweg","postalCode":"53343","locality":"Wachtberg","municipality":{"key":"05382072","name":"Wachtberg","type":"Kreisangehörige_Gemeinde"},"district":{"key":"05382","name":"Rhein-Sieg-Kreis","type":"Kreis"},"federalState":{"key":"05","name":"Nordrhein-Westfalen"}},{"name":"Flachsgraben","postalCode":"53343","locality":"Wachtberg","municipality":{"key":"05382072","name":"Wachtberg","type":"Kreisangehörige_Gemeinde"},"district":{"key":"05382","name":"Rhein-Sieg-Kreis","type":"Kreis"},"federalState":{"key":"05","name":"Nordrhein-Westfalen"}},{"name":"Forstweg","postalCode":"53343","locality":"Wachtberg","municipality":{"key":"05382072","name":"Wachtberg","type":"Kreisangehörige_Gemeinde"},"district":{"key":"05382","name":"Rhein-Sieg-Kreis","type":"Kreis"},"federalState":{"key":"05","name":"Nordrhein-Westfalen"}},{"name":"Frankenweg","postalCode":"53343","locality":"Wachtberg","municipality":{"key":"05382072","name":"Wachtberg","type":"Kreisangehörige_Gemeinde"},"district":{"key":"05382","name":"Rhein-Sieg-Kreis","type":"Kreis"},"federalState":{"key":"05","name":"Nordrhein-Westfalen"}},{"name":"Fraunhoferstr.","postalCode":"53343","locality":"Wachtberg","municipality":{"key":"05382072","name":"Wachtberg","type":"Kreisangehörige_Gemeinde"},"district":{"key":"05382","name":"Rhein-Sieg-Kreis","type":"Kreis"},"federalState":{"key":"05","name":"Nordrhein-Westfalen"}},{"name":"Fritzdorfer Str.","postalCode":"53343","locality":"Wachtberg","municipality":{"key":"05382072","name":"Wachtberg","type":"Kreisangehörige_Gemeinde"},"district":{"key":"05382","name":"Rhein-Sieg-Kreis","type":"Kreis"},"federalState":{"key":"05","name":"Nordrhein-Westfalen"}},{"name":"Fuchskaule","postalCode":"53343","locality":"Wachtberg","municipality":{"key":"05382072","name":"Wachtberg","type":"Kreisangehörige_Gemeinde"},"district":{"key":"05382","name":"Rhein-Sieg-Kreis","type":"Kreis"},"federalState":{"key":"05","name":"Nordrhein-Westfalen"}},{"name":"Galgenpfad","postalCode":"53343","locality":"Wachtberg","municipality":{"key":"05382072","name":"Wachtberg","type":"Kreisangehörige_Gemeinde"},"district":{"key":"05382","name":"Rhein-Sieg-Kreis","type":"Kreis"},"federalState":{"key":"05","name":"Nordrhein-Westfalen"}},{"name":"Gartenstr.","postalCode":"53343","locality":"Wachtberg","municipality":{"key":"05382072","name":"Wachtberg","type":"Kreisangehörige_Gemeinde"},"district":{"key":"05382","name":"Rhein-Sieg-Kreis","type":"Kreis"},"federalState":{"key":"05","name":"Nordrhein-Westfalen"}},{"name":"Gässchen","postalCode":"53343","locality":"Wachtberg","municipality":{"key":"05382072","name":"Wachtberg","type":"Kreisangehörige_Gemeinde"},"district":{"key":"05382","name":"Rhein-Sieg-Kreis","type":"Kreis"},"federalState":{"key":"05","name":"Nordrhein-Westfalen"}},{"name":"Georg-von-Loe-Str.","postalCode":"53343","locality":"Wachtberg","municipality":{"key":"05382072","name":"Wachtberg","type":"Kreisangehörige_Gemeinde"},"district":{"key":"05382","name":"Rhein-Sieg-Kreis","type":"Kreis"},"federalState":{"key":"05","name":"Nordrhein-Westfalen"}},{"name":"Gereonstr.","postalCode":"53343","locality":"Wachtberg","municipality":{"key":"05382072","name":"Wachtberg","type":"Kreisangehörige_Gemeinde"},"district":{"key":"05382","name":"Rhein-Sieg-Kreis","type":"Kreis"},"federalState":{"key":"05","name":"Nordrhein-Westfalen"}},{"name":"Gimmersdorfer Str.","postalCode":"53343","locality":"Wachtberg","municipality":{"key":"05382072","name":"Wachtberg","type":"Kreisangehörige_Gemeinde"},"district":{"key":"05382","name":"Rhein-Sieg-Kreis","type":"Kreis"},"federalState":{"key":"05","name":"Nordrhein-Westfalen"}},{"name":"Göllesheimer Weg","postalCode":"53343","locality":"Wachtberg","municipality":{"key":"05382072","name":"Wachtberg","type":"Kreisangehörige_Gemeinde"},"district":{"key":"05382","name":"Rhein-Sieg-Kreis","type":"Kreis"},"federalState":{"key":"05","name":"Nordrhein-Westfalen"}},{"name":"Grevelsberger Weg","postalCode":"53343","locality":"Wachtberg","municipality":{"key":"05382072","name":"Wachtberg","type":"Kreisangehörige_Gemeinde"},"district":{"key":"05382","name":"Rhein-Sieg-Kreis","type":"Kreis"},"federalState":{"key":"05","name":"Nordrhein-Westfalen"}},{"name":"Grimmersdorfer Weg","postalCode":"53343","locality":"Wachtberg","municipality":{"key":"05382072","name":"Wachtberg","type":"Kreisangehörige_Gemeinde"},"district":{"key":"05382","name":"Rhein-Sieg-Kreis","type":"Kreis"},"federalState":{"key":"05","name":"Nordrhein-Westfalen"}},{"name":"Grüner Weg","postalCode":"53343","locality":"Wachtberg","municipality":{"key":"05382072","name":"Wachtberg","type":"Kreisangehörige_Gemeinde"},"district":{"key":"05382","name":"Rhein-Sieg-Kreis","type":"Kreis"},"federalState":{"key":"05","name":"Nordrhein-Westfalen"}},{"name":"Gudenauer Busch","postalCode":"53343","locality":"Wachtberg","municipality":{"key":"05382072","name":"Wachtberg","type":"Kreisangehörige_Gemeinde"},"district":{"key":"05382","name":"Rhein-Sieg-Kreis","type":"Kreis"},"federalState":{"key":"05","name":"Nordrhein-Westfalen"}},{"name":"Gudenauer Weg","postalCode":"53343","locality":"Wachtberg","municipality":{"key":"05382072","name":"Wachtberg","type":"Kreisangehörige_Gemeinde"},"district":{"key":"05382","name":"Rhein-Sieg-Kreis","type":"Kreis"},"federalState":{"key":"05","name":"Nordrhein-Westfalen"}},{"name":"Habichtweg","postalCode":"53343","locality":"Wachtberg","municipality":{"key":"05382072","name":"Wachtberg","type":"Kreisangehörige_Gemeinde"},"district":{"key":"05382","name":"Rhein-Sieg-Kreis","type":"Kreis"},"federalState":{"key":"05","name":"Nordrhein-Westfalen"}},{"name":"Heidegartenweg","postalCode":"53343","locality":"Wachtberg","municipality":{"key":"05382072","name":"Wachtberg","type":"Kreisangehörige_Gemeinde"},"district":{"key":"05382","name":"Rhein-Sieg-Kreis","type":"Kreis"},"federalState":{"key":"05","name":"Nordrhein-Westfalen"}},{"name":"Heideweg","postalCode":"53343","locality":"Wachtberg","municipality":{"key":"05382072","name":"Wachtberg","type":"Kreisangehörige_Gemeinde"},"district":{"key":"05382","name":"Rhein-Sieg-Kreis","type":"Kreis"},"federalState":{"key":"05","name":"Nordrhein-Westfalen"}},{"name":"Heiligenstumpfweg","postalCode":"53343","locality":"Wachtberg","municipality":{"key":"05382072","name":"Wachtberg","type":"Kreisangehörige_Gemeinde"},"district":{"key":"05382","name":"Rhein-Sieg-Kreis","type":"Kreis"},"federalState":{"key":"05","name":"Nordrhein-Westfalen"}},{"name":"Heltenbachweg","postalCode":"53343","locality":"Wachtberg","municipality":{"key":"05382072","name":"Wachtberg","type":"Kreisangehörige_Gemeinde"},"district":{"key":"05382","name":"Rhein-Sieg-Kreis","type":"Kreis"},"federalState":{"key":"05","name":"Nordrhein-Westfalen"}},{"name":"Herrengarten","postalCode":"53343","locality":"Wachtberg","municipality":{"key":"05382072","name":"Wachtberg","type":"Kreisangehörige_Gemeinde"},"district":{"key":"05382","name":"Rhein-Sieg-Kreis","type":"Kreis"},"federalState":{"key":"05","name":"Nordrhein-Westfalen"}},{"name":"Herrenkauler Allee","postalCode":"53343","locality":"Wachtberg","municipality":{"key":"05382072","name":"Wachtberg","type":"Kreisangehörige_Gemeinde"},"district":{"key":"05382","name":"Rhein-Sieg-Kreis","type":"Kreis"},"federalState":{"key":"05","name":"Nordrhein-Westfalen"}},{"name":"Höchelenacker","postalCode":"53343","locality":"Wachtberg","municipality":{"key":"05382072","name":"Wachtberg","type":"Kreisangehörige_Gemeinde"},"district":{"key":"05382","name":"Rhein-Sieg-Kreis","type":"Kreis"},"federalState":{"key":"05","name":"Nordrhein-Westfalen"}},{"name":"Hochheimer Weg","postalCode":"53343","locality":"Wachtberg","municipality":{"key":"05382072","name":"Wachtberg","type":"Kreisangehörige_Gemeinde"},"district":{"key":"05382","name":"Rhein-Sieg-Kreis","type":"Kreis"},"federalState":{"key":"05","name":"Nordrhein-Westfalen"}},{"name":"Höhenbergweg","postalCode":"53343","locality":"Wachtberg","municipality":{"key":"05382072","name":"Wachtberg","type":"Kreisangehörige_Gemeinde"},"district":{"key":"05382","name":"Rhein-Sieg-Kreis","type":"Kreis"},"federalState":{"key":"05","name":"Nordrhein-Westfalen"}},{"name":"Hohler Weg","postalCode":"53343","locality":"Wachtberg","municipality":{"key":"05382072","name":"Wachtberg","type":"Kreisangehörige_Gemeinde"},"district":{"key":"05382","name":"Rhein-Sieg-Kreis","type":"Kreis"},"federalState":{"key":"05","name":"Nordrhein-Westfalen"}},{"name":"Holzemer Allee","postalCode":"53343","locality":"Wachtberg","municipality":{"key":"05382072","name":"Wachtberg","type":"Kreisangehörige_Gemeinde"},"district":{"key":"05382","name":"Rhein-Sieg-Kreis","type":"Kreis"},"federalState":{"key":"05","name":"Nordrhein-Westfalen"}},{"name":"Holzemer Str.","postalCode":"53343","locality":"Wachtberg","municipality":{"key":"05382072","name":"Wachtberg","type":"Kreisangehörige_Gemeinde"},"district":{"key":"05382","name":"Rhein-Sieg-Kreis","type":"Kreis"},"federalState":{"key":"05","name":"Nordrhein-Westfalen"}},{"name":"Holzfolder Weg","postalCode":"53343","locality":"Wachtberg","municipality":{"key":"05382072","name":"Wachtberg","type":"Kreisangehörige_Gemeinde"},"district":{"key":"05382","name":"Rhein-Sieg-Kreis","type":"Kreis"},"federalState":{"key":"05","name":"Nordrhein-Westfalen"}},{"name":"Holzpfad","postalCode":"53343","locality":"Wachtberg","municipality":{"key":"05382072","name":"Wachtberg","type":"Kreisangehörige_Gemeinde"},"district":{"key":"05382","name":"Rhein-Sieg-Kreis","type":"Kreis"},"federalState":{"key":"05","name":"Nordrhein-Westfalen"}},{"name":"Holzweg","postalCode":"53343","locality":"Wachtberg","municipality":{"key":"05382072","name":"Wachtberg","type":"Kreisangehörige_Gemeinde"},"district":{"key":"05382","name":"Rhein-Sieg-Kreis","type":"Kreis"},"federalState":{"key":"05","name":"Nordrhein-Westfalen"}},{"name":"Hoppengasse","postalCode":"53343","locality":"Wachtberg","municipality":{"key":"05382072","name":"Wachtberg","type":"Kreisangehörige_Gemeinde"},"district":{"key":"05382","name":"Rhein-Sieg-Kreis","type":"Kreis"},"federalState":{"key":"05","name":"Nordrhein-Westfalen"}},{"name":"Hüllenviertel","postalCode":"53343","locality":"Wachtberg","municipality":{"key":"05382072","name":"Wachtberg","type":"Kreisangehörige_Gemeinde"},"district":{"key":"05382","name":"Rhein-Sieg-Kreis","type":"Kreis"},"federalState":{"key":"05","name":"Nordrhein-Westfalen"}},{"name":"Hüllenweg","postalCode":"53343","locality":"Wachtberg","municipality":{"key":"05382072","name":"Wachtberg","type":"Kreisangehörige_Gemeinde"},"district":{"key":"05382","name":"Rhein-Sieg-Kreis","type":"Kreis"},"federalState":{"key":"05","name":"Nordrhein-Westfalen"}},{"name":"Huppenbergstr.","postalCode":"53343","locality":"Wachtberg","municipality":{"key":"05382072","name":"Wachtberg","type":"Kreisangehörige_Gemeinde"},"district":{"key":"05382","name":"Rhein-Sieg-Kreis","type":"Kreis"},"federalState":{"key":"05","name":"Nordrhein-Westfalen"}},{"name":"Im Bruch","postalCode":"53343","locality":"Wachtberg","municipality":{"key":"05382072","name":"Wachtberg","type":"Kreisangehörige_Gemeinde"},"district":{"key":"05382","name":"Rhein-Sieg-Kreis","type":"Kreis"},"federalState":{"key":"05","name":"Nordrhein-Westfalen"}},{"name":"Im Bungert","postalCode":"53343","locality":"Wachtberg","municipality":{"key":"05382072","name":"Wachtberg","type":"Kreisangehörige_Gemeinde"},"district":{"key":"05382","name":"Rhein-Sieg-Kreis","type":"Kreis"},"federalState":{"key":"05","name":"Nordrhein-Westfalen"}},{"name":"Im Eichacker","postalCode":"53343","locality":"Wachtberg","municipality":{"key":"05382072","name":"Wachtberg","type":"Kreisangehörige_Gemeinde"},"district":{"key":"05382","name":"Rhein-Sieg-Kreis","type":"Kreis"},"federalState":{"key":"05","name":"Nordrhein-Westfalen"}},{"name":"Im Ellig","postalCode":"53343","locality":"Wachtberg","municipality":{"key":"05382072","name":"Wachtberg","type":"Kreisangehörige_Gemeinde"},"district":{"key":"05382","name":"Rhein-Sieg-Kreis","type":"Kreis"},"federalState":{"key":"05","name":"Nordrhein-Westfalen"}},{"name":"Im Erzacker","postalCode":"53343","locality":"Wachtberg","municipality":{"key":"05382072","name":"Wachtberg","type":"Kreisangehörige_Gemeinde"},"district":{"key":"05382","name":"Rhein-Sieg-Kreis","type":"Kreis"},"federalState":{"key":"05","name":"Nordrhein-Westfalen"}},{"name":"Im Gerstengarten","postalCode":"53343","locality":"Wachtberg","municipality":{"key":"05382072","name":"Wachtberg","type":"Kreisangehörige_Gemeinde"},"district":{"key":"05382","name":"Rhein-Sieg-Kreis","type":"Kreis"},"federalState":{"key":"05","name":"Nordrhein-Westfalen"}},{"name":"Im Haselnbusch","postalCode":"53343","locality":"Wachtberg","municipality":{"key":"05382072","name":"Wachtberg","type":"Kreisangehörige_Gemeinde"},"district":{"key":"05382","name":"Rhein-Sieg-Kreis","type":"Kreis"},"federalState":{"key":"05","name":"Nordrhein-Westfalen"}},{"name":"Im Henschel","postalCode":"53343","locality":"Wachtberg","municipality":{"key":"05382072","name":"Wachtberg","type":"Kreisangehörige_Gemeinde"},"district":{"key":"05382","name":"Rhein-Sieg-Kreis","type":"Kreis"},"federalState":{"key":"05","name":"Nordrhein-Westfalen"}},{"name":"Im Hermesgarten","postalCode":"53343","locality":"Wachtberg","municipality":{"key":"05382072","name":"Wachtberg","type":"Kreisangehörige_Gemeinde"},"district":{"key":"05382","name":"Rhein-Sieg-Kreis","type":"Kreis"},"federalState":{"key":"05","name":"Nordrhein-Westfalen"}},{"name":"Im Kohlgarten","postalCode":"53343","locality":"Wachtberg","municipality":{"key":"05382072","name":"Wachtberg","type":"Kreisangehörige_Gemeinde"},"district":{"key":"05382","name":"Rhein-Sieg-Kreis","type":"Kreis"},"federalState":{"key":"05","name":"Nordrhein-Westfalen"}},{"name":"Im Maargarten","postalCode":"53343","locality":"Wachtberg","municipality":{"key":"05382072","name":"Wachtberg","type":"Kreisangehörige_Gemeinde"},"district":{"key":"05382","name":"Rhein-Sieg-Kreis","type":"Kreis"},"federalState":{"key":"05","name":"Nordrhein-Westfalen"}},{"name":"Im Olligsiefen","postalCode":"53343","locality":"Wachtberg","municipality":{"key":"05382072","name":"Wachtberg","type":"Kreisangehörige_Gemeinde"},"district":{"key":"05382","name":"Rhein-Sieg-Kreis","type":"Kreis"},"federalState":{"key":"05","name":"Nordrhein-Westfalen"}},{"name":"Im Ort","postalCode":"53343","locality":"Wachtberg","municipality":{"key":"05382072","name":"Wachtberg","type":"Kreisangehörige_Gemeinde"},"district":{"key":"05382","name":"Rhein-Sieg-Kreis","type":"Kreis"},"federalState":{"key":"05","name":"Nordrhein-Westfalen"}},{"name":"Im Rosengarten","postalCode":"53343","locality":"Wachtberg","municipality":{"key":"05382072","name":"Wachtberg","type":"Kreisangehörige_Gemeinde"},"district":{"key":"05382","name":"Rhein-Sieg-Kreis","type":"Kreis"},"federalState":{"key":"05","name":"Nordrhein-Westfalen"}},{"name":"Im Saufang","postalCode":"53343","locality":"Wachtberg","municipality":{"key":"05382072","name":"Wachtberg","type":"Kreisangehörige_Gemeinde"},"district":{"key":"05382","name":"Rhein-Sieg-Kreis","type":"Kreis"},"federalState":{"key":"05","name":"Nordrhein-Westfalen"}},{"name":"Im Scheidacker","postalCode":"53343","locality":"Wachtberg","municipality":{"key":"05382072","name":"Wachtberg","type":"Kreisangehörige_Gemeinde"},"district":{"key":"05382","name":"Rhein-Sieg-Kreis","type":"Kreis"},"federalState":{"key":"05","name":"Nordrhein-Westfalen"}},{"name":"Im Siefen","postalCode":"53343","locality":"Wachtberg","municipality":{"key":"05382072","name":"Wachtberg","type":"Kreisangehörige_Gemeinde"},"district":{"key":"05382","name":"Rhein-Sieg-Kreis","type":"Kreis"},"federalState":{"key":"05","name":"Nordrhein-Westfalen"}},{"name":"Im Tal","postalCode":"53343","locality":"Wachtberg","municipality":{"key":"05382072","name":"Wachtberg","type":"Kreisangehörige_Gemeinde"},"district":{"key":"05382","name":"Rhein-Sieg-Kreis","type":"Kreis"},"federalState":{"key":"05","name":"Nordrhein-Westfalen"}},{"name":"Im Tiergarten","postalCode":"53343","locality":"Wachtberg","municipality":{"key":"05382072","name":"Wachtberg","type":"Kreisangehörige_Gemeinde"},"district":{"key":"05382","name":"Rhein-Sieg-Kreis","type":"Kreis"},"federalState":{"key":"05","name":"Nordrhein-Westfalen"}},{"name":"Im Vogelsang","postalCode":"53343","locality":"Wachtberg","municipality":{"key":"05382072","name":"Wachtberg","type":"Kreisangehörige_Gemeinde"},"district":{"key":"05382","name":"Rhein-Sieg-Kreis","type":"Kreis"},"federalState":{"key":"05","name":"Nordrhein-Westfalen"}},{"name":"Im Weingarten","postalCode":"53343","locality":"Wachtberg","municipality":{"key":"05382072","name":"Wachtberg","type":"Kreisangehörige_Gemeinde"},"district":{"key":"05382","name":"Rhein-Sieg-Kreis","type":"Kreis"},"federalState":{"key":"05","name":"Nordrhein-Westfalen"}},{"name":"Im Wiesental","postalCode":"53343","locality":"Wachtberg","municipality":{"key":"05382072","name":"Wachtberg","type":"Kreisangehörige_Gemeinde"},"district":{"key":"05382","name":"Rhein-Sieg-Kreis","type":"Kreis"},"federalState":{"key":"05","name":"Nordrhein-Westfalen"}},{"name":"Im Zippenberg","postalCode":"53343","locality":"Wachtberg","municipality":{"key":"05382072","name":"Wachtberg","type":"Kreisangehörige_Gemeinde"},"district":{"key":"05382","name":"Rhein-Sieg-Kreis","type":"Kreis"},"federalState":{"key":"05","name":"Nordrhein-Westfalen"}},{"name":"In den Schleiden","postalCode":"53343","locality":"Wachtberg","municipality":{"key":"05382072","name":"Wachtberg","type":"Kreisangehörige_Gemeinde"},"district":{"key":"05382","name":"Rhein-Sieg-Kreis","type":"Kreis"},"federalState":{"key":"05","name":"Nordrhein-Westfalen"}},{"name":"In der Held","postalCode":"53343","locality":"Wachtberg","municipality":{"key":"05382072","name":"Wachtberg","type":"Kreisangehörige_Gemeinde"},"district":{"key":"05382","name":"Rhein-Sieg-Kreis","type":"Kreis"},"federalState":{"key":"05","name":"Nordrhein-Westfalen"}},{"name":"In der Schleifmühle","postalCode":"53343","locality":"Wachtberg","municipality":{"key":"05382072","name":"Wachtberg","type":"Kreisangehörige_Gemeinde"},"district":{"key":"05382","name":"Rhein-Sieg-Kreis","type":"Kreis"},"federalState":{"key":"05","name":"Nordrhein-Westfalen"}},{"name":"Johann-Henk-Str.","postalCode":"53343","locality":"Wachtberg","municipality":{"key":"05382072","name":"Wachtberg","type":"Kreisangehörige_Gemeinde"},"district":{"key":"05382","name":"Rhein-Sieg-Kreis","type":"Kreis"},"federalState":{"key":"05","name":"Nordrhein-Westfalen"}},{"name":"Johann-Zimmermann-Weg","postalCode":"53343","locality":"Wachtberg","municipality":{"key":"05382072","name":"Wachtberg","type":"Kreisangehörige_Gemeinde"},"district":{"key":"05382","name":"Rhein-Sieg-Kreis","type":"Kreis"},"federalState":{"key":"05","name":"Nordrhein-Westfalen"}},{"name":"Kapellenstr.","postalCode":"53343","locality":"Wachtberg","municipality":{"key":"05382072","name":"Wachtberg","type":"Kreisangehörige_Gemeinde"},"district":{"key":"05382","name":"Rhein-Sieg-Kreis","type":"Kreis"},"federalState":{"key":"05","name":"Nordrhein-Westfalen"}},{"name":"Kastanienweg","postalCode":"53343","locality":"Wachtberg","municipality":{"key":"05382072","name":"Wachtberg","type":"Kreisangehörige_Gemeinde"},"district":{"key":"05382","name":"Rhein-Sieg-Kreis","type":"Kreis"},"federalState":{"key":"05","name":"Nordrhein-Westfalen"}},{"name":"Kesselgasse","postalCode":"53343","locality":"Wachtberg","municipality":{"key":"05382072","name":"Wachtberg","type":"Kreisangehörige_Gemeinde"},"district":{"key":"05382","name":"Rhein-Sieg-Kreis","type":"Kreis"},"federalState":{"key":"05","name":"Nordrhein-Westfalen"}},{"name":"Kesselsfeldweg","postalCode":"53343","locality":"Wachtberg","municipality":{"key":"05382072","name":"Wachtberg","type":"Kreisangehörige_Gemeinde"},"district":{"key":"05382","name":"Rhein-Sieg-Kreis","type":"Kreis"},"federalState":{"key":"05","name":"Nordrhein-Westfalen"}},{"name":"Kesselsheide","postalCode":"53343","locality":"Wachtberg","municipality":{"key":"05382072","name":"Wachtberg","type":"Kreisangehörige_Gemeinde"},"district":{"key":"05382","name":"Rhein-Sieg-Kreis","type":"Kreis"},"federalState":{"key":"05","name":"Nordrhein-Westfalen"}},{"name":"Kirchstr.","postalCode":"53343","locality":"Wachtberg","municipality":{"key":"05382072","name":"Wachtberg","type":"Kreisangehörige_Gemeinde"},"district":{"key":"05382","name":"Rhein-Sieg-Kreis","type":"Kreis"},"federalState":{"key":"05","name":"Nordrhein-Westfalen"}},{"name":"Kirschgarten","postalCode":"53343","locality":"Wachtberg","municipality":{"key":"05382072","name":"Wachtberg","type":"Kreisangehörige_Gemeinde"},"district":{"key":"05382","name":"Rhein-Sieg-Kreis","type":"Kreis"},"federalState":{"key":"05","name":"Nordrhein-Westfalen"}},{"name":"Klein Villip","postalCode":"53343","locality":"Wachtberg","municipality":{"key":"05382072","name":"Wachtberg","type":"Kreisangehörige_Gemeinde"},"district":{"key":"05382","name":"Rhein-Sieg-Kreis","type":"Kreis"},"federalState":{"key":"05","name":"Nordrhein-Westfalen"}},{"name":"Klosterstr.","postalCode":"53343","locality":"Wachtberg","municipality":{"key":"05382072","name":"Wachtberg","type":"Kreisangehörige_Gemeinde"},"district":{"key":"05382","name":"Rhein-Sieg-Kreis","type":"Kreis"},"federalState":{"key":"05","name":"Nordrhein-Westfalen"}},{"name":"Kommandeurstr.","postalCode":"53343","locality":"Wachtberg","municipality":{"key":"05382072","name":"Wachtberg","type":"Kreisangehörige_Gemeinde"},"district":{"key":"05382","name":"Rhein-Sieg-Kreis","type":"Kreis"},"federalState":{"key":"05","name":"Nordrhein-Westfalen"}},{"name":"Kommunalweg","postalCode":"53343","locality":"Wachtberg","municipality":{"key":"05382072","name":"Wachtberg","type":"Kreisangehörige_Gemeinde"},"district":{"key":"05382","name":"Rhein-Sieg-Kreis","type":"Kreis"},"federalState":{"key":"05","name":"Nordrhein-Westfalen"}},{"name":"Königstr.","postalCode":"53343","locality":"Wachtberg","municipality":{"key":"05382072","name":"Wachtberg","type":"Kreisangehörige_Gemeinde"},"district":{"key":"05382","name":"Rhein-Sieg-Kreis","type":"Kreis"},"federalState":{"key":"05","name":"Nordrhein-Westfalen"}},{"name":"Konrad-Adenauer-Str.","postalCode":"53343","locality":"Wachtberg","municipality":{"key":"05382072","name":"Wachtberg","type":"Kreisangehörige_Gemeinde"},"district":{"key":"05382","name":"Rhein-Sieg-Kreis","type":"Kreis"},"federalState":{"key":"05","name":"Nordrhein-Westfalen"}},{"name":"Krahnhofstr.","postalCode":"53343","locality":"Wachtberg","municipality":{"key":"05382072","name":"Wachtberg","type":"Kreisangehörige_Gemeinde"},"district":{"key":"05382","name":"Rhein-Sieg-Kreis","type":"Kreis"},"federalState":{"key":"05","name":"Nordrhein-Westfalen"}},{"name":"Kreuzstr.","postalCode":"53343","locality":"Wachtberg","municipality":{"key":"05382072","name":"Wachtberg","type":"Kreisangehörige_Gemeinde"},"district":{"key":"05382","name":"Rhein-Sieg-Kreis","type":"Kreis"},"federalState":{"key":"05","name":"Nordrhein-Westfalen"}},{"name":"Kuhstr.","postalCode":"53343","locality":"Wachtberg","municipality":{"key":"05382072","name":"Wachtberg","type":"Kreisangehörige_Gemeinde"},"district":{"key":"05382","name":"Rhein-Sieg-Kreis","type":"Kreis"},"federalState":{"key":"05","name":"Nordrhein-Westfalen"}},{"name":"Kürrighovener Str.","postalCode":"53343","locality":"Wachtberg","municipality":{"key":"05382072","name":"Wachtberg","type":"Kreisangehörige_Gemeinde"},"district":{"key":"05382","name":"Rhein-Sieg-Kreis","type":"Kreis"},"federalState":{"key":"05","name":"Nordrhein-Westfalen"}},{"name":"Landgrabenweg","postalCode":"53343","locality":"Wachtberg","municipality":{"key":"05382072","name":"Wachtberg","type":"Kreisangehörige_Gemeinde"},"district":{"key":"05382","name":"Rhein-Sieg-Kreis","type":"Kreis"},"federalState":{"key":"05","name":"Nordrhein-Westfalen"}},{"name":"Langenbergsweg","postalCode":"53343","locality":"Wachtberg","municipality":{"key":"05382072","name":"Wachtberg","type":"Kreisangehörige_Gemeinde"},"district":{"key":"05382","name":"Rhein-Sieg-Kreis","type":"Kreis"},"federalState":{"key":"05","name":"Nordrhein-Westfalen"}},{"name":"Lannesdorfer Str.","postalCode":"53343","locality":"Wachtberg","municipality":{"key":"05382072","name":"Wachtberg","type":"Kreisangehörige_Gemeinde"},"district":{"key":"05382","name":"Rhein-Sieg-Kreis","type":"Kreis"},"federalState":{"key":"05","name":"Nordrhein-Westfalen"}},{"name":"Lavendelgarten","postalCode":"53343","locality":"Wachtberg","municipality":{"key":"05382072","name":"Wachtberg","type":"Kreisangehörige_Gemeinde"},"district":{"key":"05382","name":"Rhein-Sieg-Kreis","type":"Kreis"},"federalState":{"key":"05","name":"Nordrhein-Westfalen"}},{"name":"La-Villedieu-Ring","postalCode":"53343","locality":"Wachtberg","municipality":{"key":"05382072","name":"Wachtberg","type":"Kreisangehörige_Gemeinde"},"district":{"key":"05382","name":"Rhein-Sieg-Kreis","type":"Kreis"},"federalState":{"key":"05","name":"Nordrhein-Westfalen"}},{"name":"Lerchenweg","postalCode":"53343","locality":"Wachtberg","municipality":{"key":"05382072","name":"Wachtberg","type":"Kreisangehörige_Gemeinde"},"district":{"key":"05382","name":"Rhein-Sieg-Kreis","type":"Kreis"},"federalState":{"key":"05","name":"Nordrhein-Westfalen"}},{"name":"Leyenkaulstr.","postalCode":"53343","locality":"Wachtberg","municipality":{"key":"05382072","name":"Wachtberg","type":"Kreisangehörige_Gemeinde"},"district":{"key":"05382","name":"Rhein-Sieg-Kreis","type":"Kreis"},"federalState":{"key":"05","name":"Nordrhein-Westfalen"}},{"name":"Ließemer Kirchweg","postalCode":"53343","locality":"Wachtberg","municipality":{"key":"05382072","name":"Wachtberg","type":"Kreisangehörige_Gemeinde"},"district":{"key":"05382","name":"Rhein-Sieg-Kreis","type":"Kreis"},"federalState":{"key":"05","name":"Nordrhein-Westfalen"}},{"name":"Ließemer Str.","postalCode":"53343","locality":"Wachtberg","municipality":{"key":"05382072","name":"Wachtberg","type":"Kreisangehörige_Gemeinde"},"district":{"key":"05382","name":"Rhein-Sieg-Kreis","type":"Kreis"},"federalState":{"key":"05","name":"Nordrhein-Westfalen"}},{"name":"Limbachstr.","postalCode":"53343","locality":"Wachtberg","municipality":{"key":"05382072","name":"Wachtberg","type":"Kreisangehörige_Gemeinde"},"district":{"key":"05382","name":"Rhein-Sieg-Kreis","type":"Kreis"},"federalState":{"key":"05","name":"Nordrhein-Westfalen"}},{"name":"Lindenhof","postalCode":"53343","locality":"Wachtberg","municipality":{"key":"05382072","name":"Wachtberg","type":"Kreisangehörige_Gemeinde"},"district":{"key":"05382","name":"Rhein-Sieg-Kreis","type":"Kreis"},"federalState":{"key":"05","name":"Nordrhein-Westfalen"}},{"name":"Lindenstr.","postalCode":"53343","locality":"Wachtberg","municipality":{"key":"05382072","name":"Wachtberg","type":"Kreisangehörige_Gemeinde"},"district":{"key":"05382","name":"Rhein-Sieg-Kreis","type":"Kreis"},"federalState":{"key":"05","name":"Nordrhein-Westfalen"}},{"name":"Löwenburgweg","postalCode":"53343","locality":"Wachtberg","municipality":{"key":"05382072","name":"Wachtberg","type":"Kreisangehörige_Gemeinde"},"district":{"key":"05382","name":"Rhein-Sieg-Kreis","type":"Kreis"},"federalState":{"key":"05","name":"Nordrhein-Westfalen"}},{"name":"Ludwig-Hubert-Weg","postalCode":"53343","locality":"Wachtberg","municipality":{"key":"05382072","name":"Wachtberg","type":"Kreisangehörige_Gemeinde"},"district":{"key":"05382","name":"Rhein-Sieg-Kreis","type":"Kreis"},"federalState":{"key":"05","name":"Nordrhein-Westfalen"}},{"name":"Marienforster Weg","postalCode":"53343","locality":"Wachtberg","municipality":{"key":"05382072","name":"Wachtberg","type":"Kreisangehörige_Gemeinde"},"district":{"key":"05382","name":"Rhein-Sieg-Kreis","type":"Kreis"},"federalState":{"key":"05","name":"Nordrhein-Westfalen"}},{"name":"Marienstr.","postalCode":"53343","locality":"Wachtberg","municipality":{"key":"05382072","name":"Wachtberg","type":"Kreisangehörige_Gemeinde"},"district":{"key":"05382","name":"Rhein-Sieg-Kreis","type":"Kreis"},"federalState":{"key":"05","name":"Nordrhein-Westfalen"}},{"name":"Maximilian-Kolbe-Str.","postalCode":"53343","locality":"Wachtberg","municipality":{"key":"05382072","name":"Wachtberg","type":"Kreisangehörige_Gemeinde"},"district":{"key":"05382","name":"Rhein-Sieg-Kreis","type":"Kreis"},"federalState":{"key":"05","name":"Nordrhein-Westfalen"}},{"name":"Mehlemer Str.","postalCode":"53343","locality":"Wachtberg","municipality":{"key":"05382072","name":"Wachtberg","type":"Kreisangehörige_Gemeinde"},"district":{"key":"05382","name":"Rhein-Sieg-Kreis","type":"Kreis"},"federalState":{"key":"05","name":"Nordrhein-Westfalen"}},{"name":"Meisenweg","postalCode":"53343","locality":"Wachtberg","municipality":{"key":"05382072","name":"Wachtberg","type":"Kreisangehörige_Gemeinde"},"district":{"key":"05382","name":"Rhein-Sieg-Kreis","type":"Kreis"},"federalState":{"key":"05","name":"Nordrhein-Westfalen"}},{"name":"Michaelsweg","postalCode":"53343","locality":"Wachtberg","municipality":{"key":"05382072","name":"Wachtberg","type":"Kreisangehörige_Gemeinde"},"district":{"key":"05382","name":"Rhein-Sieg-Kreis","type":"Kreis"},"federalState":{"key":"05","name":"Nordrhein-Westfalen"}},{"name":"Milchgasse","postalCode":"53343","locality":"Wachtberg","municipality":{"key":"05382072","name":"Wachtberg","type":"Kreisangehörige_Gemeinde"},"district":{"key":"05382","name":"Rhein-Sieg-Kreis","type":"Kreis"},"federalState":{"key":"05","name":"Nordrhein-Westfalen"}},{"name":"Milchpützweg","postalCode":"53343","locality":"Wachtberg","municipality":{"key":"05382072","name":"Wachtberg","type":"Kreisangehörige_Gemeinde"},"district":{"key":"05382","name":"Rhein-Sieg-Kreis","type":"Kreis"},"federalState":{"key":"05","name":"Nordrhein-Westfalen"}},{"name":"Mittelstr.","postalCode":"53343","locality":"Wachtberg","municipality":{"key":"05382072","name":"Wachtberg","type":"Kreisangehörige_Gemeinde"},"district":{"key":"05382","name":"Rhein-Sieg-Kreis","type":"Kreis"},"federalState":{"key":"05","name":"Nordrhein-Westfalen"}},{"name":"Mühlenstr.","postalCode":"53343","locality":"Wachtberg","municipality":{"key":"05382072","name":"Wachtberg","type":"Kreisangehörige_Gemeinde"},"district":{"key":"05382","name":"Rhein-Sieg-Kreis","type":"Kreis"},"federalState":{"key":"05","name":"Nordrhein-Westfalen"}},{"name":"Nachtigallenweg","postalCode":"53343","locality":"Wachtberg","municipality":{"key":"05382072","name":"Wachtberg","type":"Kreisangehörige_Gemeinde"},"district":{"key":"05382","name":"Rhein-Sieg-Kreis","type":"Kreis"},"federalState":{"key":"05","name":"Nordrhein-Westfalen"}},{"name":"Neuenahrer Str.","postalCode":"53343","locality":"Wachtberg","municipality":{"key":"05382072","name":"Wachtberg","type":"Kreisangehörige_Gemeinde"},"district":{"key":"05382","name":"Rhein-Sieg-Kreis","type":"Kreis"},"federalState":{"key":"05","name":"Nordrhein-Westfalen"}},{"name":"Neuenhofer Weg","postalCode":"53343","locality":"Wachtberg","municipality":{"key":"05382072","name":"Wachtberg","type":"Kreisangehörige_Gemeinde"},"district":{"key":"05382","name":"Rhein-Sieg-Kreis","type":"Kreis"},"federalState":{"key":"05","name":"Nordrhein-Westfalen"}},{"name":"Neue Schule","postalCode":"53343","locality":"Wachtberg","municipality":{"key":"05382072","name":"Wachtberg","type":"Kreisangehörige_Gemeinde"},"district":{"key":"05382","name":"Rhein-Sieg-Kreis","type":"Kreis"},"federalState":{"key":"05","name":"Nordrhein-Westfalen"}},{"name":"Neustr.","postalCode":"53343","locality":"Wachtberg","municipality":{"key":"05382072","name":"Wachtberg","type":"Kreisangehörige_Gemeinde"},"district":{"key":"05382","name":"Rhein-Sieg-Kreis","type":"Kreis"},"federalState":{"key":"05","name":"Nordrhein-Westfalen"}},{"name":"Oberbachemer Str.","postalCode":"53343","locality":"Wachtberg","municipality":{"key":"05382072","name":"Wachtberg","type":"Kreisangehörige_Gemeinde"},"district":{"key":"05382","name":"Rhein-Sieg-Kreis","type":"Kreis"},"federalState":{"key":"05","name":"Nordrhein-Westfalen"}},{"name":"Oberdorfstr.","postalCode":"53343","locality":"Wachtberg","municipality":{"key":"05382072","name":"Wachtberg","type":"Kreisangehörige_Gemeinde"},"district":{"key":"05382","name":"Rhein-Sieg-Kreis","type":"Kreis"},"federalState":{"key":"05","name":"Nordrhein-Westfalen"}},{"name":"Obere Petersbergstr.","postalCode":"53343","locality":"Wachtberg","municipality":{"key":"05382072","name":"Wachtberg","type":"Kreisangehörige_Gemeinde"},"district":{"key":"05382","name":"Rhein-Sieg-Kreis","type":"Kreis"},"federalState":{"key":"05","name":"Nordrhein-Westfalen"}},{"name":"Oberer Girzenweg","postalCode":"53343","locality":"Wachtberg","municipality":{"key":"05382072","name":"Wachtberg","type":"Kreisangehörige_Gemeinde"},"district":{"key":"05382","name":"Rhein-Sieg-Kreis","type":"Kreis"},"federalState":{"key":"05","name":"Nordrhein-Westfalen"}},{"name":"Odenhauser Weg","postalCode":"53343","locality":"Wachtberg","municipality":{"key":"05382072","name":"Wachtberg","type":"Kreisangehörige_Gemeinde"},"district":{"key":"05382","name":"Rhein-Sieg-Kreis","type":"Kreis"},"federalState":{"key":"05","name":"Nordrhein-Westfalen"}},{"name":"Oedinger Str.","postalCode":"53343","locality":"Wachtberg","municipality":{"key":"05382072","name":"Wachtberg","type":"Kreisangehörige_Gemeinde"},"district":{"key":"05382","name":"Rhein-Sieg-Kreis","type":"Kreis"},"federalState":{"key":"05","name":"Nordrhein-Westfalen"}},{"name":"Oevericher Str.","postalCode":"53343","locality":"Wachtberg","municipality":{"key":"05382072","name":"Wachtberg","type":"Kreisangehörige_Gemeinde"},"district":{"key":"05382","name":"Rhein-Sieg-Kreis","type":"Kreis"},"federalState":{"key":"05","name":"Nordrhein-Westfalen"}},{"name":"Om Dönz","postalCode":"53343","locality":"Wachtberg","municipality":{"key":"05382072","name":"Wachtberg","type":"Kreisangehörige_Gemeinde"},"district":{"key":"05382","name":"Rhein-Sieg-Kreis","type":"Kreis"},"federalState":{"key":"05","name":"Nordrhein-Westfalen"}},{"name":"Overbachstr.","postalCode":"53343","locality":"Wachtberg","municipality":{"key":"05382072","name":"Wachtberg","type":"Kreisangehörige_Gemeinde"},"district":{"key":"05382","name":"Rhein-Sieg-Kreis","type":"Kreis"},"federalState":{"key":"05","name":"Nordrhein-Westfalen"}},{"name":"Pappelweg","postalCode":"53343","locality":"Wachtberg","municipality":{"key":"05382072","name":"Wachtberg","type":"Kreisangehörige_Gemeinde"},"district":{"key":"05382","name":"Rhein-Sieg-Kreis","type":"Kreis"},"federalState":{"key":"05","name":"Nordrhein-Westfalen"}},{"name":"Park Berkum","postalCode":"53343","locality":"Wachtberg","municipality":{"key":"05382072","name":"Wachtberg","type":"Kreisangehörige_Gemeinde"},"district":{"key":"05382","name":"Rhein-Sieg-Kreis","type":"Kreis"},"federalState":{"key":"05","name":"Nordrhein-Westfalen"}},{"name":"Pastoratsweg","postalCode":"53343","locality":"Wachtberg","municipality":{"key":"05382072","name":"Wachtberg","type":"Kreisangehörige_Gemeinde"},"district":{"key":"05382","name":"Rhein-Sieg-Kreis","type":"Kreis"},"federalState":{"key":"05","name":"Nordrhein-Westfalen"}},{"name":"Pastor-Büscher-Str.","postalCode":"53343","locality":"Wachtberg","municipality":{"key":"05382072","name":"Wachtberg","type":"Kreisangehörige_Gemeinde"},"district":{"key":"05382","name":"Rhein-Sieg-Kreis","type":"Kreis"},"federalState":{"key":"05","name":"Nordrhein-Westfalen"}},{"name":"Pecher Hauptstr.","postalCode":"53343","locality":"Wachtberg","municipality":{"key":"05382072","name":"Wachtberg","type":"Kreisangehörige_Gemeinde"},"district":{"key":"05382","name":"Rhein-Sieg-Kreis","type":"Kreis"},"federalState":{"key":"05","name":"Nordrhein-Westfalen"}},{"name":"Pecher Waldstr.","postalCode":"53343","locality":"Wachtberg","municipality":{"key":"05382072","name":"Wachtberg","type":"Kreisangehörige_Gemeinde"},"district":{"key":"05382","name":"Rhein-Sieg-Kreis","type":"Kreis"},"federalState":{"key":"05","name":"Nordrhein-Westfalen"}},{"name":"Petersbergstr.","postalCode":"53343","locality":"Wachtberg","municipality":{"key":"05382072","name":"Wachtberg","type":"Kreisangehörige_Gemeinde"},"district":{"key":"05382","name":"Rhein-Sieg-Kreis","type":"Kreis"},"federalState":{"key":"05","name":"Nordrhein-Westfalen"}},{"name":"Pfarrer-Dr.-Hoffmann-Str.","postalCode":"53343","locality":"Wachtberg","municipality":{"key":"05382072","name":"Wachtberg","type":"Kreisangehörige_Gemeinde"},"district":{"key":"05382","name":"Rhein-Sieg-Kreis","type":"Kreis"},"federalState":{"key":"05","name":"Nordrhein-Westfalen"}},{"name":"Pfarrer-Weuster-Weg","postalCode":"53343","locality":"Wachtberg","municipality":{"key":"05382072","name":"Wachtberg","type":"Kreisangehörige_Gemeinde"},"district":{"key":"05382","name":"Rhein-Sieg-Kreis","type":"Kreis"},"federalState":{"key":"05","name":"Nordrhein-Westfalen"}},{"name":"Plantagenweg","postalCode":"53343","locality":"Wachtberg","municipality":{"key":"05382072","name":"Wachtberg","type":"Kreisangehörige_Gemeinde"},"district":{"key":"05382","name":"Rhein-Sieg-Kreis","type":"Kreis"},"federalState":{"key":"05","name":"Nordrhein-Westfalen"}},{"name":"Preußenweg","postalCode":"53343","locality":"Wachtberg","municipality":{"key":"05382072","name":"Wachtberg","type":"Kreisangehörige_Gemeinde"},"district":{"key":"05382","name":"Rhein-Sieg-Kreis","type":"Kreis"},"federalState":{"key":"05","name":"Nordrhein-Westfalen"}},{"name":"Pützstr.","postalCode":"53343","locality":"Wachtberg","municipality":{"key":"05382072","name":"Wachtberg","type":"Kreisangehörige_Gemeinde"},"district":{"key":"05382","name":"Rhein-Sieg-Kreis","type":"Kreis"},"federalState":{"key":"05","name":"Nordrhein-Westfalen"}},{"name":"Quellenstr.","postalCode":"53343","locality":"Wachtberg","municipality":{"key":"05382072","name":"Wachtberg","type":"Kreisangehörige_Gemeinde"},"district":{"key":"05382","name":"Rhein-Sieg-Kreis","type":"Kreis"},"federalState":{"key":"05","name":"Nordrhein-Westfalen"}},{"name":"Raiffeisenstr.","postalCode":"53343","locality":"Wachtberg","municipality":{"key":"05382072","name":"Wachtberg","type":"Kreisangehörige_Gemeinde"},"district":{"key":"05382","name":"Rhein-Sieg-Kreis","type":"Kreis"},"federalState":{"key":"05","name":"Nordrhein-Westfalen"}},{"name":"Rathausstr.","postalCode":"53343","locality":"Wachtberg","municipality":{"key":"05382072","name":"Wachtberg","type":"Kreisangehörige_Gemeinde"},"district":{"key":"05382","name":"Rhein-Sieg-Kreis","type":"Kreis"},"federalState":{"key":"05","name":"Nordrhein-Westfalen"}},{"name":"Rehschneise","postalCode":"53343","locality":"Wachtberg","municipality":{"key":"05382072","name":"Wachtberg","type":"Kreisangehörige_Gemeinde"},"district":{"key":"05382","name":"Rhein-Sieg-Kreis","type":"Kreis"},"federalState":{"key":"05","name":"Nordrhein-Westfalen"}},{"name":"Remagener Weg","postalCode":"53343","locality":"Wachtberg","municipality":{"key":"05382072","name":"Wachtberg","type":"Kreisangehörige_Gemeinde"},"district":{"key":"05382","name":"Rhein-Sieg-Kreis","type":"Kreis"},"federalState":{"key":"05","name":"Nordrhein-Westfalen"}},{"name":"Rheinblick","postalCode":"53343","locality":"Wachtberg","municipality":{"key":"05382072","name":"Wachtberg","type":"Kreisangehörige_Gemeinde"},"district":{"key":"05382","name":"Rhein-Sieg-Kreis","type":"Kreis"},"federalState":{"key":"05","name":"Nordrhein-Westfalen"}},{"name":"Rheinhöhenweg","postalCode":"53343","locality":"Wachtberg","municipality":{"key":"05382072","name":"Wachtberg","type":"Kreisangehörige_Gemeinde"},"district":{"key":"05382","name":"Rhein-Sieg-Kreis","type":"Kreis"},"federalState":{"key":"05","name":"Nordrhein-Westfalen"}},{"name":"Rodderbergstr.","postalCode":"53343","locality":"Wachtberg","municipality":{"key":"05382072","name":"Wachtberg","type":"Kreisangehörige_Gemeinde"},"district":{"key":"05382","name":"Rhein-Sieg-Kreis","type":"Kreis"},"federalState":{"key":"05","name":"Nordrhein-Westfalen"}},{"name":"Rodder Kirchweg","postalCode":"53343","locality":"Wachtberg","municipality":{"key":"05382072","name":"Wachtberg","type":"Kreisangehörige_Gemeinde"},"district":{"key":"05382","name":"Rhein-Sieg-Kreis","type":"Kreis"},"federalState":{"key":"05","name":"Nordrhein-Westfalen"}},{"name":"Rolandstr.","postalCode":"53343","locality":"Wachtberg","municipality":{"key":"05382072","name":"Wachtberg","type":"Kreisangehörige_Gemeinde"},"district":{"key":"05382","name":"Rhein-Sieg-Kreis","type":"Kreis"},"federalState":{"key":"05","name":"Nordrhein-Westfalen"}},{"name":"Römerstr.","postalCode":"53343","locality":"Wachtberg","municipality":{"key":"05382072","name":"Wachtberg","type":"Kreisangehörige_Gemeinde"},"district":{"key":"05382","name":"Rhein-Sieg-Kreis","type":"Kreis"},"federalState":{"key":"05","name":"Nordrhein-Westfalen"}},{"name":"Rosenweg","postalCode":"53343","locality":"Wachtberg","municipality":{"key":"05382072","name":"Wachtberg","type":"Kreisangehörige_Gemeinde"},"district":{"key":"05382","name":"Rhein-Sieg-Kreis","type":"Kreis"},"federalState":{"key":"05","name":"Nordrhein-Westfalen"}},{"name":"Rotdornweg","postalCode":"53343","locality":"Wachtberg","municipality":{"key":"05382072","name":"Wachtberg","type":"Kreisangehörige_Gemeinde"},"district":{"key":"05382","name":"Rhein-Sieg-Kreis","type":"Kreis"},"federalState":{"key":"05","name":"Nordrhein-Westfalen"}},{"name":"Saaler Hof","postalCode":"53343","locality":"Wachtberg","municipality":{"key":"05382072","name":"Wachtberg","type":"Kreisangehörige_Gemeinde"},"district":{"key":"05382","name":"Rhein-Sieg-Kreis","type":"Kreis"},"federalState":{"key":"05","name":"Nordrhein-Westfalen"}},{"name":"Sandstr.","postalCode":"53343","locality":"Wachtberg","municipality":{"key":"05382072","name":"Wachtberg","type":"Kreisangehörige_Gemeinde"},"district":{"key":"05382","name":"Rhein-Sieg-Kreis","type":"Kreis"},"federalState":{"key":"05","name":"Nordrhein-Westfalen"}},{"name":"Sankt-Florian-Str.","postalCode":"53343","locality":"Wachtberg","municipality":{"key":"05382072","name":"Wachtberg","type":"Kreisangehörige_Gemeinde"},"district":{"key":"05382","name":"Rhein-Sieg-Kreis","type":"Kreis"},"federalState":{"key":"05","name":"Nordrhein-Westfalen"}},{"name":"Schäferstr.","postalCode":"53343","locality":"Wachtberg","municipality":{"key":"05382072","name":"Wachtberg","type":"Kreisangehörige_Gemeinde"},"district":{"key":"05382","name":"Rhein-Sieg-Kreis","type":"Kreis"},"federalState":{"key":"05","name":"Nordrhein-Westfalen"}},{"name":"Scharfensteinpfad","postalCode":"53343","locality":"Wachtberg","municipality":{"key":"05382072","name":"Wachtberg","type":"Kreisangehörige_Gemeinde"},"district":{"key":"05382","name":"Rhein-Sieg-Kreis","type":"Kreis"},"federalState":{"key":"05","name":"Nordrhein-Westfalen"}},{"name":"Schießgraben","postalCode":"53343","locality":"Wachtberg","municipality":{"key":"05382072","name":"Wachtberg","type":"Kreisangehörige_Gemeinde"},"district":{"key":"05382","name":"Rhein-Sieg-Kreis","type":"Kreis"},"federalState":{"key":"05","name":"Nordrhein-Westfalen"}},{"name":"Schlehenweg","postalCode":"53343","locality":"Wachtberg","municipality":{"key":"05382072","name":"Wachtberg","type":"Kreisangehörige_Gemeinde"},"district":{"key":"05382","name":"Rhein-Sieg-Kreis","type":"Kreis"},"federalState":{"key":"05","name":"Nordrhein-Westfalen"}},{"name":"Schmaler Weg","postalCode":"53343","locality":"Wachtberg","municipality":{"key":"05382072","name":"Wachtberg","type":"Kreisangehörige_Gemeinde"},"district":{"key":"05382","name":"Rhein-Sieg-Kreis","type":"Kreis"},"federalState":{"key":"05","name":"Nordrhein-Westfalen"}},{"name":"Schmiedegasse","postalCode":"53343","locality":"Wachtberg","municipality":{"key":"05382072","name":"Wachtberg","type":"Kreisangehörige_Gemeinde"},"district":{"key":"05382","name":"Rhein-Sieg-Kreis","type":"Kreis"},"federalState":{"key":"05","name":"Nordrhein-Westfalen"}},{"name":"Schmittepädchen","postalCode":"53343","locality":"Wachtberg","municipality":{"key":"05382072","name":"Wachtberg","type":"Kreisangehörige_Gemeinde"},"district":{"key":"05382","name":"Rhein-Sieg-Kreis","type":"Kreis"},"federalState":{"key":"05","name":"Nordrhein-Westfalen"}},{"name":"Schollengasse","postalCode":"53343","locality":"Wachtberg","municipality":{"key":"05382072","name":"Wachtberg","type":"Kreisangehörige_Gemeinde"},"district":{"key":"05382","name":"Rhein-Sieg-Kreis","type":"Kreis"},"federalState":{"key":"05","name":"Nordrhein-Westfalen"}},{"name":"Schulstr.","postalCode":"53343","locality":"Wachtberg","municipality":{"key":"05382072","name":"Wachtberg","type":"Kreisangehörige_Gemeinde"},"district":{"key":"05382","name":"Rhein-Sieg-Kreis","type":"Kreis"},"federalState":{"key":"05","name":"Nordrhein-Westfalen"}},{"name":"Schützenstr.","postalCode":"53343","locality":"Wachtberg","municipality":{"key":"05382072","name":"Wachtberg","type":"Kreisangehörige_Gemeinde"},"district":{"key":"05382","name":"Rhein-Sieg-Kreis","type":"Kreis"},"federalState":{"key":"05","name":"Nordrhein-Westfalen"}},{"name":"Schwalbenweg","postalCode":"53343","locality":"Wachtberg","municipality":{"key":"05382072","name":"Wachtberg","type":"Kreisangehörige_Gemeinde"},"district":{"key":"05382","name":"Rhein-Sieg-Kreis","type":"Kreis"},"federalState":{"key":"05","name":"Nordrhein-Westfalen"}},{"name":"Schwarznussweg","postalCode":"53343","locality":"Wachtberg","municipality":{"key":"05382072","name":"Wachtberg","type":"Kreisangehörige_Gemeinde"},"district":{"key":"05382","name":"Rhein-Sieg-Kreis","type":"Kreis"},"federalState":{"key":"05","name":"Nordrhein-Westfalen"}},{"name":"Sebastianushöhe","postalCode":"53343","locality":"Wachtberg","municipality":{"key":"05382072","name":"Wachtberg","type":"Kreisangehörige_Gemeinde"},"district":{"key":"05382","name":"Rhein-Sieg-Kreis","type":"Kreis"},"federalState":{"key":"05","name":"Nordrhein-Westfalen"}},{"name":"Seibachstr.","postalCode":"53343","locality":"Wachtberg","municipality":{"key":"05382072","name":"Wachtberg","type":"Kreisangehörige_Gemeinde"},"district":{"key":"05382","name":"Rhein-Sieg-Kreis","type":"Kreis"},"federalState":{"key":"05","name":"Nordrhein-Westfalen"}},{"name":"Servatiusweg","postalCode":"53343","locality":"Wachtberg","municipality":{"key":"05382072","name":"Wachtberg","type":"Kreisangehörige_Gemeinde"},"district":{"key":"05382","name":"Rhein-Sieg-Kreis","type":"Kreis"},"federalState":{"key":"05","name":"Nordrhein-Westfalen"}},{"name":"Siebengebirgsblick","postalCode":"53343","locality":"Wachtberg","municipality":{"key":"05382072","name":"Wachtberg","type":"Kreisangehörige_Gemeinde"},"district":{"key":"05382","name":"Rhein-Sieg-Kreis","type":"Kreis"},"federalState":{"key":"05","name":"Nordrhein-Westfalen"}},{"name":"Siebengebirgsstr.","postalCode":"53343","locality":"Wachtberg","municipality":{"key":"05382072","name":"Wachtberg","type":"Kreisangehörige_Gemeinde"},"district":{"key":"05382","name":"Rhein-Sieg-Kreis","type":"Kreis"},"federalState":{"key":"05","name":"Nordrhein-Westfalen"}},{"name":"Spielplatz Alte Gasse","postalCode":"53343","locality":"Wachtberg","municipality":{"key":"05382072","name":"Wachtberg","type":"Kreisangehörige_Gemeinde"},"district":{"key":"05382","name":"Rhein-Sieg-Kreis","type":"Kreis"},"federalState":{"key":"05","name":"Nordrhein-Westfalen"}},{"name":"Sprüsselbach","postalCode":"53343","locality":"Wachtberg","municipality":{"key":"05382072","name":"Wachtberg","type":"Kreisangehörige_Gemeinde"},"district":{"key":"05382","name":"Rhein-Sieg-Kreis","type":"Kreis"},"federalState":{"key":"05","name":"Nordrhein-Westfalen"}},{"name":"Stangenweg","postalCode":"53343","locality":"Wachtberg","municipality":{"key":"05382072","name":"Wachtberg","type":"Kreisangehörige_Gemeinde"},"district":{"key":"05382","name":"Rhein-Sieg-Kreis","type":"Kreis"},"federalState":{"key":"05","name":"Nordrhein-Westfalen"}},{"name":"St.-Barbara-Str.","postalCode":"53343","locality":"Wachtberg","municipality":{"key":"05382072","name":"Wachtberg","type":"Kreisangehörige_Gemeinde"},"district":{"key":"05382","name":"Rhein-Sieg-Kreis","type":"Kreis"},"federalState":{"key":"05","name":"Nordrhein-Westfalen"}},{"name":"Steinweg","postalCode":"53343","locality":"Wachtberg","municipality":{"key":"05382072","name":"Wachtberg","type":"Kreisangehörige_Gemeinde"},"district":{"key":"05382","name":"Rhein-Sieg-Kreis","type":"Kreis"},"federalState":{"key":"05","name":"Nordrhein-Westfalen"}},{"name":"Stumpebergweg","postalCode":"53343","locality":"Wachtberg","municipality":{"key":"05382072","name":"Wachtberg","type":"Kreisangehörige_Gemeinde"},"district":{"key":"05382","name":"Rhein-Sieg-Kreis","type":"Kreis"},"federalState":{"key":"05","name":"Nordrhein-Westfalen"}},{"name":"Südstr.","postalCode":"53343","locality":"Wachtberg","municipality":{"key":"05382072","name":"Wachtberg","type":"Kreisangehörige_Gemeinde"},"district":{"key":"05382","name":"Rhein-Sieg-Kreis","type":"Kreis"},"federalState":{"key":"05","name":"Nordrhein-Westfalen"}},{"name":"Sürst","postalCode":"53343","locality":"Wachtberg","municipality":{"key":"05382072","name":"Wachtberg","type":"Kreisangehörige_Gemeinde"},"district":{"key":"05382","name":"Rhein-Sieg-Kreis","type":"Kreis"},"federalState":{"key":"05","name":"Nordrhein-Westfalen"}},{"name":"Tannenweg","postalCode":"53343","locality":"Wachtberg","municipality":{"key":"05382072","name":"Wachtberg","type":"Kreisangehörige_Gemeinde"},"district":{"key":"05382","name":"Rhein-Sieg-Kreis","type":"Kreis"},"federalState":{"key":"05","name":"Nordrhein-Westfalen"}},{"name":"Taubenweg","postalCode":"53343","locality":"Wachtberg","municipality":{"key":"05382072","name":"Wachtberg","type":"Kreisangehörige_Gemeinde"},"district":{"key":"05382","name":"Rhein-Sieg-Kreis","type":"Kreis"},"federalState":{"key":"05","name":"Nordrhein-Westfalen"}},{"name":"Töpferstr.","postalCode":"53343","locality":"Wachtberg","municipality":{"key":"05382072","name":"Wachtberg","type":"Kreisangehörige_Gemeinde"},"district":{"key":"05382","name":"Rhein-Sieg-Kreis","type":"Kreis"},"federalState":{"key":"05","name":"Nordrhein-Westfalen"}},{"name":"Unterdorf","postalCode":"53343","locality":"Wachtberg","municipality":{"key":"05382072","name":"Wachtberg","type":"Kreisangehörige_Gemeinde"},"district":{"key":"05382","name":"Rhein-Sieg-Kreis","type":"Kreis"},"federalState":{"key":"05","name":"Nordrhein-Westfalen"}},{"name":"Vettelhovener Str.","postalCode":"53343","locality":"Wachtberg","municipality":{"key":"05382072","name":"Wachtberg","type":"Kreisangehörige_Gemeinde"},"district":{"key":"05382","name":"Rhein-Sieg-Kreis","type":"Kreis"},"federalState":{"key":"05","name":"Nordrhein-Westfalen"}},{"name":"Viereck","postalCode":"53343","locality":"Wachtberg","municipality":{"key":"05382072","name":"Wachtberg","type":"Kreisangehörige_Gemeinde"},"district":{"key":"05382","name":"Rhein-Sieg-Kreis","type":"Kreis"},"federalState":{"key":"05","name":"Nordrhein-Westfalen"}},{"name":"Villiper Bachstr.","postalCode":"53343","locality":"Wachtberg","municipality":{"key":"05382072","name":"Wachtberg","type":"Kreisangehörige_Gemeinde"},"district":{"key":"05382","name":"Rhein-Sieg-Kreis","type":"Kreis"},"federalState":{"key":"05","name":"Nordrhein-Westfalen"}},{"name":"Villiper Hauptstr.","postalCode":"53343","locality":"Wachtberg","municipality":{"key":"05382072","name":"Wachtberg","type":"Kreisangehörige_Gemeinde"},"district":{"key":"05382","name":"Rhein-Sieg-Kreis","type":"Kreis"},"federalState":{"key":"05","name":"Nordrhein-Westfalen"}},{"name":"Villiper Kreuzgasse","postalCode":"53343","locality":"Wachtberg","municipality":{"key":"05382072","name":"Wachtberg","type":"Kreisangehörige_Gemeinde"},"district":{"key":"05382","name":"Rhein-Sieg-Kreis","type":"Kreis"},"federalState":{"key":"05","name":"Nordrhein-Westfalen"}},{"name":"Villiper Weg","postalCode":"53343","locality":"Wachtberg","municipality":{"key":"05382072","name":"Wachtberg","type":"Kreisangehörige_Gemeinde"},"district":{"key":"05382","name":"Rhein-Sieg-Kreis","type":"Kreis"},"federalState":{"key":"05","name":"Nordrhein-Westfalen"}},{"name":"Vulkanstr.","postalCode":"53343","locality":"Wachtberg","municipality":{"key":"05382072","name":"Wachtberg","type":"Kreisangehörige_Gemeinde"},"district":{"key":"05382","name":"Rhein-Sieg-Kreis","type":"Kreis"},"federalState":{"key":"05","name":"Nordrhein-Westfalen"}},{"name":"Wachtbergring","postalCode":"53343","locality":"Wachtberg","municipality":{"key":"05382072","name":"Wachtberg","type":"Kreisangehörige_Gemeinde"},"district":{"key":"05382","name":"Rhein-Sieg-Kreis","type":"Kreis"},"federalState":{"key":"05","name":"Nordrhein-Westfalen"}},{"name":"Wachtbergweg","postalCode":"53343","locality":"Wachtberg","municipality":{"key":"05382072","name":"Wachtberg","type":"Kreisangehörige_Gemeinde"},"district":{"key":"05382","name":"Rhein-Sieg-Kreis","type":"Kreis"},"federalState":{"key":"05","name":"Nordrhein-Westfalen"}},{"name":"Waldstr.","postalCode":"53343","locality":"Wachtberg","municipality":{"key":"05382072","name":"Wachtberg","type":"Kreisangehörige_Gemeinde"},"district":{"key":"05382","name":"Rhein-Sieg-Kreis","type":"Kreis"},"federalState":{"key":"05","name":"Nordrhein-Westfalen"}},{"name":"Wattendorfer Weg","postalCode":"53343","locality":"Wachtberg","municipality":{"key":"05382072","name":"Wachtberg","type":"Kreisangehörige_Gemeinde"},"district":{"key":"05382","name":"Rhein-Sieg-Kreis","type":"Kreis"},"federalState":{"key":"05","name":"Nordrhein-Westfalen"}},{"name":"Weberwiese","postalCode":"53343","locality":"Wachtberg","municipality":{"key":"05382072","name":"Wachtberg","type":"Kreisangehörige_Gemeinde"},"district":{"key":"05382","name":"Rhein-Sieg-Kreis","type":"Kreis"},"federalState":{"key":"05","name":"Nordrhein-Westfalen"}},{"name":"Weidegarten","postalCode":"53343","locality":"Wachtberg","municipality":{"key":"05382072","name":"Wachtberg","type":"Kreisangehörige_Gemeinde"},"district":{"key":"05382","name":"Rhein-Sieg-Kreis","type":"Kreis"},"federalState":{"key":"05","name":"Nordrhein-Westfalen"}},{"name":"Weiße Hülle","postalCode":"53343","locality":"Wachtberg","municipality":{"key":"05382072","name":"Wachtberg","type":"Kreisangehörige_Gemeinde"},"district":{"key":"05382","name":"Rhein-Sieg-Kreis","type":"Kreis"},"federalState":{"key":"05","name":"Nordrhein-Westfalen"}},{"name":"Weißer Weg","postalCode":"53343","locality":"Wachtberg","municipality":{"key":"05382072","name":"Wachtberg","type":"Kreisangehörige_Gemeinde"},"district":{"key":"05382","name":"Rhein-Sieg-Kreis","type":"Kreis"},"federalState":{"key":"05","name":"Nordrhein-Westfalen"}},{"name":"Werthhovener Str.","postalCode":"53343","locality":"Wachtberg","municipality":{"key":"05382072","name":"Wachtberg","type":"Kreisangehörige_Gemeinde"},"district":{"key":"05382","name":"Rhein-Sieg-Kreis","type":"Kreis"},"federalState":{"key":"05","name":"Nordrhein-Westfalen"}},{"name":"Werthhovener Weg","postalCode":"53343","locality":"Wachtberg","municipality":{"key":"05382072","name":"Wachtberg","type":"Kreisangehörige_Gemeinde"},"district":{"key":"05382","name":"Rhein-Sieg-Kreis","type":"Kreis"},"federalState":{"key":"05","name":"Nordrhein-Westfalen"}},{"name":"Weststr.","postalCode":"53343","locality":"Wachtberg","municipality":{"key":"05382072","name":"Wachtberg","type":"Kreisangehörige_Gemeinde"},"district":{"key":"05382","name":"Rhein-Sieg-Kreis","type":"Kreis"},"federalState":{"key":"05","name":"Nordrhein-Westfalen"}},{"name":"Wiesenau","postalCode":"53343","locality":"Wachtberg","municipality":{"key":"05382072","name":"Wachtberg","type":"Kreisangehörige_Gemeinde"},"district":{"key":"05382","name":"Rhein-Sieg-Kreis","type":"Kreis"},"federalState":{"key":"05","name":"Nordrhein-Westfalen"}},{"name":"Wiesengrund","postalCode":"53343","locality":"Wachtberg","municipality":{"key":"05382072","name":"Wachtberg","type":"Kreisangehörige_Gemeinde"},"district":{"key":"05382","name":"Rhein-Sieg-Kreis","type":"Kreis"},"federalState":{"key":"05","name":"Nordrhein-Westfalen"}},{"name":"Wiesenweg","postalCode":"53343","locality":"Wachtberg","municipality":{"key":"05382072","name":"Wachtberg","type":"Kreisangehörige_Gemeinde"},"district":{"key":"05382","name":"Rhein-Sieg-Kreis","type":"Kreis"},"federalState":{"key":"05","name":"Nordrhein-Westfalen"}},{"name":"Windmühlenstr.","postalCode":"53343","locality":"Wachtberg","municipality":{"key":"05382072","name":"Wachtberg","type":"Kreisangehörige_Gemeinde"},"district":{"key":"05382","name":"Rhein-Sieg-Kreis","type":"Kreis"},"federalState":{"key":"05","name":"Nordrhein-Westfalen"}},{"name":"Wittefelsallee","postalCode":"53343","locality":"Wachtberg","municipality":{"key":"05382072","name":"Wachtberg","type":"Kreisangehörige_Gemeinde"},"district":{"key":"05382","name":"Rhein-Sieg-Kreis","type":"Kreis"},"federalState":{"key":"05","name":"Nordrhein-Westfalen"}},{"name":"Wittfelder Hof","postalCode":"53343","locality":"Wachtberg","municipality":{"key":"05382072","name":"Wachtberg","type":"Kreisangehörige_Gemeinde"},"district":{"key":"05382","name":"Rhein-Sieg-Kreis","type":"Kreis"},"federalState":{"key":"05","name":"Nordrhein-Westfalen"}},{"name":"Wittfelder Stich","postalCode":"53343","locality":"Wachtberg","municipality":{"key":"05382072","name":"Wachtberg","type":"Kreisangehörige_Gemeinde"},"district":{"key":"05382","name":"Rhein-Sieg-Kreis","type":"Kreis"},"federalState":{"key":"05","name":"Nordrhein-Westfalen"}},{"name":"Wolfskaule","postalCode":"53343","locality":"Wachtberg","municipality":{"key":"05382072","name":"Wachtberg","type":"Kreisangehörige_Gemeinde"},"district":{"key":"05382","name":"Rhein-Sieg-Kreis","type":"Kreis"},"federalState":{"key":"05","name":"Nordrhein-Westfalen"}},{"name":"Wolkenburgstr.","postalCode":"53343","locality":"Wachtberg","municipality":{"key":"05382072","name":"Wachtberg","type":"Kreisangehörige_Gemeinde"},"district":{"key":"05382","name":"Rhein-Sieg-Kreis","type":"Kreis"},"federalState":{"key":"05","name":"Nordrhein-Westfalen"}},{"name":"Ziegelfeld","postalCode":"53343","locality":"Wachtberg","municipality":{"key":"05382072","name":"Wachtberg","type":"Kreisangehörige_Gemeinde"},"district":{"key":"05382","name":"Rhein-Sieg-Kreis","type":"Kreis"},"federalState":{"key":"05","name":"Nordrhein-Westfalen"}},{"name":"Zukunftsweg","postalCode":"53343","locality":"Wachtberg","municipality":{"key":"05382072","name":"Wachtberg","type":"Kreisangehörige_Gemeinde"},"district":{"key":"05382","name":"Rhein-Sieg-Kreis","type":"Kreis"},"federalState":{"key":"05","name":"Nordrhein-Westfalen"}},{"name":"Züllighovener Weg","postalCode":"53343","locality":"Wachtberg","municipality":{"key":"05382072","name":"Wachtberg","type":"Kreisangehörige_Gemeinde"},"district":{"key":"05382","name":"Rhein-Sieg-Kreis","type":"Kreis"},"federalState":{"key":"05","name":"Nordrhein-Westfalen"}},{"name":"Zum Dienacker","postalCode":"53343","locality":"Wachtberg","municipality":{"key":"05382072","name":"Wachtberg","type":"Kreisangehörige_Gemeinde"},"district":{"key":"05382","name":"Rhein-Sieg-Kreis","type":"Kreis"},"federalState":{"key":"05","name":"Nordrhein-Westfalen"}},{"name":"Zum Rheintal","postalCode":"53343","locality":"Wachtberg","municipality":{"key":"05382072","name":"Wachtberg","type":"Kreisangehörige_Gemeinde"},"district":{"key":"05382","name":"Rhein-Sieg-Kreis","type":"Kreis"},"federalState":{"key":"05","name":"Nordrhein-Westfalen"}},{"name":"Zum Römerbrunnen","postalCode":"53343","locality":"Wachtberg","municipality":{"key":"05382072","name":"Wachtberg","type":"Kreisangehörige_Gemeinde"},"district":{"key":"05382","name":"Rhein-Sieg-Kreis","type":"Kreis"},"federalState":{"key":"05","name":"Nordrhein-Westfalen"}},{"name":"Zwischen den Hüllen","postalCode":"53343","locality":"Wachtberg","municipality":{"key":"05382072","name":"Wachtberg","type":"Kreisangehörige_Gemeinde"},"district":{"key":"05382","name":"Rhein-Sieg-Kreis","type":"Kreis"},"federalState":{"key":"05","name":"Nordrhein-Westfalen"}},{"name":"Ölbachsweg","postalCode":"53343","locality":"Wachtberg","municipality":{"key":"05382072","name":"Wachtberg","type":"Kreisangehörige_Gemeinde"},"district":{"key":"05382","name":"Rhein-Sieg-Kreis","type":"Kreis"},"federalState":{"key":"05","name":"Nordrhein-Westfalen"}},{"name":"Ölbergstr.","postalCode":"53343","locality":"Wachtberg","municipality":{"key":"05382072","name":"Wachtberg","type":"Kreisangehörige_Gemeinde"},"district":{"key":"05382","name":"Rhein-Sieg-Kreis","type":"Kreis"},"federalState":{"key":"05","name":"Nordrhein-Westfalen"}},{"name":"Ölweg","postalCode":"53343","locality":"Wachtberg","municipality":{"key":"05382072","name":"Wachtberg","type":"Kreisangehörige_Gemeinde"},"district":{"key":"05382","name":"Rhein-Sieg-Kreis","type":"Kreis"},"federalState":{"key":"05","name":"Nordrhein-Westfalen"}},{"name":"Überdorf","postalCode":"53343","locality":"Wachtberg","municipality":{"key":"05382072","name":"Wachtberg","type":"Kreisangehörige_Gemeinde"},"district":{"key":"05382","name":"Rhein-Sieg-Kreis","type":"Kreis"},"federalState":{"key":"05","name":"Nordrhein-Westfalen"}},]