[{"key":"10035335","name":"Ahornweg","postalCode":"5706","locality":"Boniswil","commune":{"key":"4192","name":"Boniswil","shortName":"Boniswil"},"district":{"key":"1907","name":"Bezirk Lenzburg"},"canton":{"key":"19","code":"AG","name":"Aargau"},"status":"Real"},{"key":"10035336","name":"Alte Leutwilerstrasse","postalCode":"5706","locality":"Boniswil","commune":{"key":"4192","name":"Boniswil","shortName":"Boniswil"},"district":{"key":"1907","name":"Bezirk Lenzburg"},"canton":{"key":"19","code":"AG","name":"Aargau"},"status":"Real"},{"key":"10116991","name":"Alte Seetalstrasse","postalCode":"5706","locality":"Boniswil","commune":{"key":"4192","name":"Boniswil","shortName":"Boniswil"},"district":{"key":"1907","name":"Bezirk Lenzburg"},"canton":{"key":"19","code":"AG","name":"Aargau"},"status":"Real"},{"key":"10075512","name":"Altweg","postalCode":"5706","locality":"Boniswil","commune":{"key":"4192","name":"Boniswil","shortName":"Boniswil"},"district":{"key":"1907","name":"Bezirk Lenzburg"},"canton":{"key":"19","code":"AG","name":"Aargau"},"status":"Real"},{"key":"10185602","name":"Bachmatt","postalCode":"5706","locality":"Boniswil","commune":{"key":"4192","name":"Boniswil","shortName":"Boniswil"},"district":{"key":"1907","name":"Bezirk Lenzburg"},"canton":{"key":"19","code":"AG","name":"Aargau"},"status":"Real"},{"key":"10109590","name":"Bachstrasse","postalCode":"5706","locality":"Boniswil","commune":{"key":"4192","name":"Boniswil","shortName":"Boniswil"},"district":{"key":"1907","name":"Bezirk Lenzburg"},"canton":{"key":"19","code":"AG","name":"Aargau"},"status":"Real"},{"key":"10035337","name":"Bäckerweg","postalCode":"5706","locality":"Boniswil","commune":{"key":"4192","name":"Boniswil","shortName":"Boniswil"},"district":{"key":"1907","name":"Bezirk Lenzburg"},"canton":{"key":"19","code":"AG","name":"Aargau"},"status":"Real"},{"key":"10051531","name":"Boniswilerstrasse","postalCode":"5706","locality":"Boniswil","commune":{"key":"4192","name":"Boniswil","shortName":"Boniswil"},"district":{"key":"1907","name":"Bezirk Lenzburg"},"canton":{"key":"19","code":"AG","name":"Aargau"},"status":"Real"},{"key":"10075513","name":"Dinkelhof","postalCode":"5706","locality":"Boniswil","commune":{"key":"4192","name":"Boniswil","shortName":"Boniswil"},"district":{"key":"1907","name":"Bezirk Lenzburg"},"canton":{"key":"19","code":"AG","name":"Aargau"},"status":"Real"},{"key":"10035338","name":"Dörflistrasse","postalCode":"5706","locality":"Boniswil","commune":{"key":"4192","name":"Boniswil","shortName":"Boniswil"},"district":{"key":"1907","name":"Bezirk Lenzburg"},"canton":{"key":"19","code":"AG","name":"Aargau"},"status":"Real"},{"key":"10096694","name":"Eichholzstrasse","postalCode":"5706","locality":"Boniswil","commune":{"key":"4192","name":"Boniswil","shortName":"Boniswil"},"district":{"key":"1907","name":"Bezirk Lenzburg"},"canton":{"key":"19","code":"AG","name":"Aargau"},"status":"Real"},{"key":"10035339","name":"Falkenweg","postalCode":"5706","locality":"Boniswil","commune":{"key":"4192","name":"Boniswil","shortName":"Boniswil"},"district":{"key":"1907","name":"Bezirk Lenzburg"},"canton":{"key":"19","code":"AG","name":"Aargau"},"status":"Real"},{"key":"10075514","name":"Fliederweg","postalCode":"5706","locality":"Boniswil","commune":{"key":"4192","name":"Boniswil","shortName":"Boniswil"},"district":{"key":"1907","name":"Bezirk Lenzburg"},"canton":{"key":"19","code":"AG","name":"Aargau"},"status":"Real"},{"key":"10035340","name":"Föhrenweg","postalCode":"5706","locality":"Boniswil","commune":{"key":"4192","name":"Boniswil","shortName":"Boniswil"},"district":{"key":"1907","name":"Bezirk Lenzburg"},"canton":{"key":"19","code":"AG","name":"Aargau"},"status":"Real"},{"key":"10035341","name":"Gartenweg","postalCode":"5706","locality":"Boniswil","commune":{"key":"4192","name":"Boniswil","shortName":"Boniswil"},"district":{"key":"1907","name":"Bezirk Lenzburg"},"canton":{"key":"19","code":"AG","name":"Aargau"},"status":"Real"},{"key":"10256065","name":"Gérald-Strub-Weg","postalCode":"5706","locality":"Boniswil","commune":{"key":"4192","name":"Boniswil","shortName":"Boniswil"},"district":{"key":"1907","name":"Bezirk Lenzburg"},"canton":{"key":"19","code":"AG","name":"Aargau"},"status":"Real"},{"key":"10185603","name":"Halden","postalCode":"5706","locality":"Boniswil","commune":{"key":"4192","name":"Boniswil","shortName":"Boniswil"},"district":{"key":"1907","name":"Bezirk Lenzburg"},"canton":{"key":"19","code":"AG","name":"Aargau"},"status":"Real"},{"key":"10035342","name":"Heckenweg","postalCode":"5706","locality":"Boniswil","commune":{"key":"4192","name":"Boniswil","shortName":"Boniswil"},"district":{"key":"1907","name":"Bezirk Lenzburg"},"canton":{"key":"19","code":"AG","name":"Aargau"},"status":"Real"},{"key":"10115919","name":"Heuweg","postalCode":"5706","locality":"Boniswil","commune":{"key":"4192","name":"Boniswil","shortName":"Boniswil"},"district":{"key":"1907","name":"Bezirk Lenzburg"},"canton":{"key":"19","code":"AG","name":"Aargau"},"status":"Real"},{"key":"10060130","name":"Kappelen","postalCode":"5706","locality":"Boniswil","commune":{"key":"4192","name":"Boniswil","shortName":"Boniswil"},"district":{"key":"1907","name":"Bezirk Lenzburg"},"canton":{"key":"19","code":"AG","name":"Aargau"},"status":"Real"},{"key":"10035343","name":"Kirchweg","postalCode":"5706","locality":"Boniswil","commune":{"key":"4192","name":"Boniswil","shortName":"Boniswil"},"district":{"key":"1907","name":"Bezirk Lenzburg"},"canton":{"key":"19","code":"AG","name":"Aargau"},"status":"Real"},{"key":"10035344","name":"Leutwilerstrasse","postalCode":"5706","locality":"Boniswil","commune":{"key":"4192","name":"Boniswil","shortName":"Boniswil"},"district":{"key":"1907","name":"Bezirk Lenzburg"},"canton":{"key":"19","code":"AG","name":"Aargau"},"status":"Real"},{"key":"10210568","name":"Lindenhof","postalCode":"5706","locality":"Boniswil","commune":{"key":"4192","name":"Boniswil","shortName":"Boniswil"},"district":{"key":"1907","name":"Bezirk Lenzburg"},"canton":{"key":"19","code":"AG","name":"Aargau"},"status":"Real"},{"key":"10035345","name":"Mättlistrasse","postalCode":"5706","locality":"Boniswil","commune":{"key":"4192","name":"Boniswil","shortName":"Boniswil"},"district":{"key":"1907","name":"Bezirk Lenzburg"},"canton":{"key":"19","code":"AG","name":"Aargau"},"status":"Real"},{"key":"10075515","name":"Moosbreitestrasse","postalCode":"5706","locality":"Boniswil","commune":{"key":"4192","name":"Boniswil","shortName":"Boniswil"},"district":{"key":"1907","name":"Bezirk Lenzburg"},"canton":{"key":"19","code":"AG","name":"Aargau"},"status":"Real"},{"key":"10096695","name":"Moosbreiteweg","postalCode":"5706","locality":"Boniswil","commune":{"key":"4192","name":"Boniswil","shortName":"Boniswil"},"district":{"key":"1907","name":"Bezirk Lenzburg"},"canton":{"key":"19","code":"AG","name":"Aargau"},"status":"Real"},{"key":"10075516","name":"Mühlematthof","postalCode":"5706","locality":"Boniswil","commune":{"key":"4192","name":"Boniswil","shortName":"Boniswil"},"district":{"key":"1907","name":"Bezirk Lenzburg"},"canton":{"key":"19","code":"AG","name":"Aargau"},"status":"Real"},{"key":"10035346","name":"Mühlemattstrasse","postalCode":"5706","locality":"Boniswil","commune":{"key":"4192","name":"Boniswil","shortName":"Boniswil"},"district":{"key":"1907","name":"Bezirk Lenzburg"},"canton":{"key":"19","code":"AG","name":"Aargau"},"status":"Real"},{"key":"10096696","name":"Oberdorfstrasse","postalCode":"5706","locality":"Boniswil","commune":{"key":"4192","name":"Boniswil","shortName":"Boniswil"},"district":{"key":"1907","name":"Bezirk Lenzburg"},"canton":{"key":"19","code":"AG","name":"Aargau"},"status":"Real"},{"key":"10185604","name":"Pfaffenhalde","postalCode":"5706","locality":"Boniswil","commune":{"key":"4192","name":"Boniswil","shortName":"Boniswil"},"district":{"key":"1907","name":"Bezirk Lenzburg"},"canton":{"key":"19","code":"AG","name":"Aargau"},"status":"Real"},{"key":"10109190","name":"Postweg","postalCode":"5706","locality":"Boniswil","commune":{"key":"4192","name":"Boniswil","shortName":"Boniswil"},"district":{"key":"1907","name":"Bezirk Lenzburg"},"canton":{"key":"19","code":"AG","name":"Aargau"},"status":"Real"},{"key":"10035347","name":"Rebacher","postalCode":"5706","locality":"Boniswil","commune":{"key":"4192","name":"Boniswil","shortName":"Boniswil"},"district":{"key":"1907","name":"Bezirk Lenzburg"},"canton":{"key":"19","code":"AG","name":"Aargau"},"status":"Real"},{"key":"10137884","name":"Riedstrasse","postalCode":"5706","locality":"Boniswil","commune":{"key":"4192","name":"Boniswil","shortName":"Boniswil"},"district":{"key":"1907","name":"Bezirk Lenzburg"},"canton":{"key":"19","code":"AG","name":"Aargau"},"status":"Real"},{"key":"10109591","name":"Riedweg","postalCode":"5706","locality":"Boniswil","commune":{"key":"4192","name":"Boniswil","shortName":"Boniswil"},"district":{"key":"1907","name":"Bezirk Lenzburg"},"canton":{"key":"19","code":"AG","name":"Aargau"},"status":"Real"},{"key":"10117702","name":"Rosenweg","postalCode":"5706","locality":"Boniswil","commune":{"key":"4192","name":"Boniswil","shortName":"Boniswil"},"district":{"key":"1907","name":"Bezirk Lenzburg"},"canton":{"key":"19","code":"AG","name":"Aargau"},"status":"Real"},{"key":"10035348","name":"Rütiweg","postalCode":"5706","locality":"Boniswil","commune":{"key":"4192","name":"Boniswil","shortName":"Boniswil"},"district":{"key":"1907","name":"Bezirk Lenzburg"},"canton":{"key":"19","code":"AG","name":"Aargau"},"status":"Real"},{"key":"10075517","name":"Sandmeierweg","postalCode":"5706","locality":"Boniswil","commune":{"key":"4192","name":"Boniswil","shortName":"Boniswil"},"district":{"key":"1907","name":"Bezirk Lenzburg"},"canton":{"key":"19","code":"AG","name":"Aargau"},"status":"Real"},{"key":"10096697","name":"Schmittenackerweg","postalCode":"5706","locality":"Boniswil","commune":{"key":"4192","name":"Boniswil","shortName":"Boniswil"},"district":{"key":"1907","name":"Bezirk Lenzburg"},"canton":{"key":"19","code":"AG","name":"Aargau"},"status":"Real"},{"key":"10035349","name":"Schulstrasse","postalCode":"5706","locality":"Boniswil","commune":{"key":"4192","name":"Boniswil","shortName":"Boniswil"},"district":{"key":"1907","name":"Bezirk Lenzburg"},"canton":{"key":"19","code":"AG","name":"Aargau"},"status":"Real"},{"key":"10035350","name":"Seengerstrasse","postalCode":"5706","locality":"Boniswil","commune":{"key":"4192","name":"Boniswil","shortName":"Boniswil"},"district":{"key":"1907","name":"Bezirk Lenzburg"},"canton":{"key":"19","code":"AG","name":"Aargau"},"status":"Real"},{"key":"10075518","name":"Seetalstrasse","postalCode":"5706","locality":"Boniswil","commune":{"key":"4192","name":"Boniswil","shortName":"Boniswil"},"district":{"key":"1907","name":"Bezirk Lenzburg"},"canton":{"key":"19","code":"AG","name":"Aargau"},"status":"Real"},{"key":"10052993","name":"Seeweg","postalCode":"5706","locality":"Boniswil","commune":{"key":"4192","name":"Boniswil","shortName":"Boniswil"},"district":{"key":"1907","name":"Bezirk Lenzburg"},"canton":{"key":"19","code":"AG","name":"Aargau"},"status":"Real"},{"key":"10096698","name":"Tannmatt","postalCode":"5706","locality":"Boniswil","commune":{"key":"4192","name":"Boniswil","shortName":"Boniswil"},"district":{"key":"1907","name":"Bezirk Lenzburg"},"canton":{"key":"19","code":"AG","name":"Aargau"},"status":"Real"},{"key":"10185605","name":"Tanzmatt","postalCode":"5706","locality":"Boniswil","commune":{"key":"4192","name":"Boniswil","shortName":"Boniswil"},"district":{"key":"1907","name":"Bezirk Lenzburg"},"canton":{"key":"19","code":"AG","name":"Aargau"},"status":"Real"},{"key":"10096699","name":"Untere Halden","postalCode":"5706","locality":"Boniswil","commune":{"key":"4192","name":"Boniswil","shortName":"Boniswil"},"district":{"key":"1907","name":"Bezirk Lenzburg"},"canton":{"key":"19","code":"AG","name":"Aargau"},"status":"Real"},{"key":"10035351","name":"Weidweg","postalCode":"5706","locality":"Boniswil","commune":{"key":"4192","name":"Boniswil","shortName":"Boniswil"},"district":{"key":"1907","name":"Bezirk Lenzburg"},"canton":{"key":"19","code":"AG","name":"Aargau"},"status":"Real"},{"key":"10052994","name":"Widenmattweg","postalCode":"5706","locality":"Boniswil","commune":{"key":"4192","name":"Boniswil","shortName":"Boniswil"},"district":{"key":"1907","name":"Bezirk Lenzburg"},"canton":{"key":"19","code":"AG","name":"Aargau"},"status":"Real"},{"key":"10139775","name":"Wiesenweg","postalCode":"5706","locality":"Boniswil","commune":{"key":"4192","name":"Boniswil","shortName":"Boniswil"},"district":{"key":"1907","name":"Bezirk Lenzburg"},"canton":{"key":"19","code":"AG","name":"Aargau"},"status":"Real"},{"key":"10193206","name":"Worben","postalCode":"5706","locality":"Boniswil","commune":{"key":"4192","name":"Boniswil","shortName":"Boniswil"},"district":{"key":"1907","name":"Bezirk Lenzburg"},"canton":{"key":"19","code":"AG","name":"Aargau"},"status":"Real"},]