[{"name":"Am Mühlengraben","postalCode":"57632","locality":"Burglahr","municipality":{"key":"07132016","name":"Burglahr","type":"Kreisangehörige_Gemeinde"},"district":{"key":"07132","name":"Altenkirchen (Westerwald)","type":"Landkreis"},"federalState":{"key":"07","name":"Rheinland-Pfalz"}},{"name":"Am Sonnenhang","postalCode":"57632","locality":"Burglahr","municipality":{"key":"07132016","name":"Burglahr","type":"Kreisangehörige_Gemeinde"},"district":{"key":"07132","name":"Altenkirchen (Westerwald)","type":"Landkreis"},"federalState":{"key":"07","name":"Rheinland-Pfalz"}},{"name":"Am Wiesenweg","postalCode":"57632","locality":"Burglahr","municipality":{"key":"07132016","name":"Burglahr","type":"Kreisangehörige_Gemeinde"},"district":{"key":"07132","name":"Altenkirchen (Westerwald)","type":"Landkreis"},"federalState":{"key":"07","name":"Rheinland-Pfalz"}},{"name":"Auf der Donau","postalCode":"57632","locality":"Burglahr","municipality":{"key":"07132016","name":"Burglahr","type":"Kreisangehörige_Gemeinde"},"district":{"key":"07132","name":"Altenkirchen (Westerwald)","type":"Landkreis"},"federalState":{"key":"07","name":"Rheinland-Pfalz"}},{"name":"Baumgarten","postalCode":"57632","locality":"Burglahr","municipality":{"key":"07132016","name":"Burglahr","type":"Kreisangehörige_Gemeinde"},"district":{"key":"07132","name":"Altenkirchen (Westerwald)","type":"Landkreis"},"federalState":{"key":"07","name":"Rheinland-Pfalz"}},{"name":"Buchenborn","postalCode":"57632","locality":"Burglahr","municipality":{"key":"07132016","name":"Burglahr","type":"Kreisangehörige_Gemeinde"},"district":{"key":"07132","name":"Altenkirchen (Westerwald)","type":"Landkreis"},"federalState":{"key":"07","name":"Rheinland-Pfalz"}},{"name":"Burgstr.","postalCode":"57632","locality":"Burglahr","municipality":{"key":"07132016","name":"Burglahr","type":"Kreisangehörige_Gemeinde"},"district":{"key":"07132","name":"Altenkirchen (Westerwald)","type":"Landkreis"},"federalState":{"key":"07","name":"Rheinland-Pfalz"}},{"name":"Forstweg","postalCode":"57632","locality":"Burglahr","municipality":{"key":"07132016","name":"Burglahr","type":"Kreisangehörige_Gemeinde"},"district":{"key":"07132","name":"Altenkirchen (Westerwald)","type":"Landkreis"},"federalState":{"key":"07","name":"Rheinland-Pfalz"}},{"name":"Herzweg","postalCode":"57632","locality":"Burglahr","municipality":{"key":"07132016","name":"Burglahr","type":"Kreisangehörige_Gemeinde"},"district":{"key":"07132","name":"Altenkirchen (Westerwald)","type":"Landkreis"},"federalState":{"key":"07","name":"Rheinland-Pfalz"}},{"name":"Jägerpfad","postalCode":"57632","locality":"Burglahr","municipality":{"key":"07132016","name":"Burglahr","type":"Kreisangehörige_Gemeinde"},"district":{"key":"07132","name":"Altenkirchen (Westerwald)","type":"Landkreis"},"federalState":{"key":"07","name":"Rheinland-Pfalz"}},{"name":"Kapellenweg","postalCode":"57632","locality":"Burglahr","municipality":{"key":"07132016","name":"Burglahr","type":"Kreisangehörige_Gemeinde"},"district":{"key":"07132","name":"Altenkirchen (Westerwald)","type":"Landkreis"},"federalState":{"key":"07","name":"Rheinland-Pfalz"}},{"name":"Kur-Kölner-Str.","postalCode":"57632","locality":"Burglahr","municipality":{"key":"07132016","name":"Burglahr","type":"Kreisangehörige_Gemeinde"},"district":{"key":"07132","name":"Altenkirchen (Westerwald)","type":"Landkreis"},"federalState":{"key":"07","name":"Rheinland-Pfalz"}},{"name":"Mittelweg","postalCode":"57632","locality":"Burglahr","municipality":{"key":"07132016","name":"Burglahr","type":"Kreisangehörige_Gemeinde"},"district":{"key":"07132","name":"Altenkirchen (Westerwald)","type":"Landkreis"},"federalState":{"key":"07","name":"Rheinland-Pfalz"}},{"name":"Mühlweg","postalCode":"57632","locality":"Burglahr","municipality":{"key":"07132016","name":"Burglahr","type":"Kreisangehörige_Gemeinde"},"district":{"key":"07132","name":"Altenkirchen (Westerwald)","type":"Landkreis"},"federalState":{"key":"07","name":"Rheinland-Pfalz"}},{"name":"Ritterstr.","postalCode":"57632","locality":"Burglahr","municipality":{"key":"07132016","name":"Burglahr","type":"Kreisangehörige_Gemeinde"},"district":{"key":"07132","name":"Altenkirchen (Westerwald)","type":"Landkreis"},"federalState":{"key":"07","name":"Rheinland-Pfalz"}},{"name":"Webershahn","postalCode":"57632","locality":"Burglahr","municipality":{"key":"07132016","name":"Burglahr","type":"Kreisangehörige_Gemeinde"},"district":{"key":"07132","name":"Altenkirchen (Westerwald)","type":"Landkreis"},"federalState":{"key":"07","name":"Rheinland-Pfalz"}},{"name":"Wiedtalstr.","postalCode":"57632","locality":"Burglahr","municipality":{"key":"07132016","name":"Burglahr","type":"Kreisangehörige_Gemeinde"},"district":{"key":"07132","name":"Altenkirchen (Westerwald)","type":"Landkreis"},"federalState":{"key":"07","name":"Rheinland-Pfalz"}},]