[{"name":"Am Bahnhof","postalCode":"39397","locality":"Kroppenstedt","municipality":{"key":"15083355","name":"Kroppenstedt, Stadt","type":"Stadt"},"district":{"key":"15083","name":"Börde","type":"Landkreis"},"federalState":{"key":"15","name":"Sachsen-Anhalt"}},{"name":"Am Kirchhof","postalCode":"39397","locality":"Kroppenstedt","municipality":{"key":"15083355","name":"Kroppenstedt, Stadt","type":"Stadt"},"district":{"key":"15083","name":"Börde","type":"Landkreis"},"federalState":{"key":"15","name":"Sachsen-Anhalt"}},{"name":"Am Markt","postalCode":"39397","locality":"Kroppenstedt","municipality":{"key":"15083355","name":"Kroppenstedt, Stadt","type":"Stadt"},"district":{"key":"15083","name":"Börde","type":"Landkreis"},"federalState":{"key":"15","name":"Sachsen-Anhalt"}},{"name":"An der Festwiese","postalCode":"39397","locality":"Kroppenstedt","municipality":{"key":"15083355","name":"Kroppenstedt, Stadt","type":"Stadt"},"district":{"key":"15083","name":"Börde","type":"Landkreis"},"federalState":{"key":"15","name":"Sachsen-Anhalt"}},{"name":"An der Tränke","postalCode":"39397","locality":"Kroppenstedt","municipality":{"key":"15083355","name":"Kroppenstedt, Stadt","type":"Stadt"},"district":{"key":"15083","name":"Börde","type":"Landkreis"},"federalState":{"key":"15","name":"Sachsen-Anhalt"}},{"name":"Auf der Stelle","postalCode":"39397","locality":"Kroppenstedt","municipality":{"key":"15083355","name":"Kroppenstedt, Stadt","type":"Stadt"},"district":{"key":"15083","name":"Börde","type":"Landkreis"},"federalState":{"key":"15","name":"Sachsen-Anhalt"}},{"name":"Bachstr.","postalCode":"39397","locality":"Kroppenstedt","municipality":{"key":"15083355","name":"Kroppenstedt, Stadt","type":"Stadt"},"district":{"key":"15083","name":"Börde","type":"Landkreis"},"federalState":{"key":"15","name":"Sachsen-Anhalt"}},{"name":"Bergstr.","postalCode":"39397","locality":"Kroppenstedt","municipality":{"key":"15083355","name":"Kroppenstedt, Stadt","type":"Stadt"},"district":{"key":"15083","name":"Börde","type":"Landkreis"},"federalState":{"key":"15","name":"Sachsen-Anhalt"}},{"name":"Birkenweg","postalCode":"39397","locality":"Kroppenstedt","municipality":{"key":"15083355","name":"Kroppenstedt, Stadt","type":"Stadt"},"district":{"key":"15083","name":"Börde","type":"Landkreis"},"federalState":{"key":"15","name":"Sachsen-Anhalt"}},{"name":"Chausseehausweg","postalCode":"39221","locality":"Bördeland","municipality":{"key":"15089042","name":"Bördeland","type":"Kreisangehörige_Gemeinde"},"district":{"key":"15089","name":"Salzlandkreis","type":"Landkreis"},"federalState":{"key":"15","name":"Sachsen-Anhalt"}},{"name":"Chausseestr.","postalCode":"39221","locality":"Bördeland","municipality":{"key":"15089042","name":"Bördeland","type":"Kreisangehörige_Gemeinde"},"district":{"key":"15089","name":"Salzlandkreis","type":"Landkreis"},"federalState":{"key":"15","name":"Sachsen-Anhalt"}},{"name":"Clara-Zetkin-Str.","postalCode":"39435","locality":"Bördeaue","municipality":{"key":"15089041","name":"Bördeaue","type":"Kreisangehörige_Gemeinde"},"district":{"key":"15089","name":"Salzlandkreis","type":"Landkreis"},"federalState":{"key":"15","name":"Sachsen-Anhalt"}},{"name":"Dr.-Wilhelm-Külz-Str.","postalCode":"39397","locality":"Kroppenstedt","municipality":{"key":"15083355","name":"Kroppenstedt, Stadt","type":"Stadt"},"district":{"key":"15083","name":"Börde","type":"Landkreis"},"federalState":{"key":"15","name":"Sachsen-Anhalt"}},{"name":"Eichenstr.","postalCode":"39397","locality":"Kroppenstedt","municipality":{"key":"15083355","name":"Kroppenstedt, Stadt","type":"Stadt"},"district":{"key":"15083","name":"Börde","type":"Landkreis"},"federalState":{"key":"15","name":"Sachsen-Anhalt"}},{"name":"Erntestr.","postalCode":"39397","locality":"Kroppenstedt","municipality":{"key":"15083355","name":"Kroppenstedt, Stadt","type":"Stadt"},"district":{"key":"15083","name":"Börde","type":"Landkreis"},"federalState":{"key":"15","name":"Sachsen-Anhalt"}},{"name":"Erntetor","postalCode":"39397","locality":"Kroppenstedt","municipality":{"key":"15083355","name":"Kroppenstedt, Stadt","type":"Stadt"},"district":{"key":"15083","name":"Börde","type":"Landkreis"},"federalState":{"key":"15","name":"Sachsen-Anhalt"}},{"name":"Feldstr.","postalCode":"39397","locality":"Kroppenstedt","municipality":{"key":"15083355","name":"Kroppenstedt, Stadt","type":"Stadt"},"district":{"key":"15083","name":"Börde","type":"Landkreis"},"federalState":{"key":"15","name":"Sachsen-Anhalt"}},{"name":"Friedhofstr.","postalCode":"39397","locality":"Kroppenstedt","municipality":{"key":"15083355","name":"Kroppenstedt, Stadt","type":"Stadt"},"district":{"key":"15083","name":"Börde","type":"Landkreis"},"federalState":{"key":"15","name":"Sachsen-Anhalt"}},{"name":"Goldwinkel","postalCode":"39397","locality":"Kroppenstedt","municipality":{"key":"15083355","name":"Kroppenstedt, Stadt","type":"Stadt"},"district":{"key":"15083","name":"Börde","type":"Landkreis"},"federalState":{"key":"15","name":"Sachsen-Anhalt"}},{"name":"Hadmerslebener Str.","postalCode":"39397","locality":"Kroppenstedt","municipality":{"key":"15083355","name":"Kroppenstedt, Stadt","type":"Stadt"},"district":{"key":"15083","name":"Börde","type":"Landkreis"},"federalState":{"key":"15","name":"Sachsen-Anhalt"}},{"name":"Hakeborner Weg","postalCode":"39397","locality":"Kroppenstedt","municipality":{"key":"15083355","name":"Kroppenstedt, Stadt","type":"Stadt"},"district":{"key":"15083","name":"Börde","type":"Landkreis"},"federalState":{"key":"15","name":"Sachsen-Anhalt"}},{"name":"Im Cönterstieg","postalCode":"39167","locality":"Hohe Börde","municipality":{"key":"15083298","name":"Hohe Börde","type":"Kreisangehörige_Gemeinde"},"district":{"key":"15083","name":"Börde","type":"Landkreis"},"federalState":{"key":"15","name":"Sachsen-Anhalt"}},{"name":"Im Fuchstal","postalCode":"39167","locality":"Hohe Börde","municipality":{"key":"15083298","name":"Hohe Börde","type":"Kreisangehörige_Gemeinde"},"district":{"key":"15083","name":"Börde","type":"Landkreis"},"federalState":{"key":"15","name":"Sachsen-Anhalt"}},{"name":"Im Lämmertal","postalCode":"39167","locality":"Hohe Börde","municipality":{"key":"15083298","name":"Hohe Börde","type":"Kreisangehörige_Gemeinde"},"district":{"key":"15083","name":"Börde","type":"Landkreis"},"federalState":{"key":"15","name":"Sachsen-Anhalt"}},{"name":"Im Lerchenfeld","postalCode":"39221","locality":"Bördeland","municipality":{"key":"15089042","name":"Bördeland","type":"Kreisangehörige_Gemeinde"},"district":{"key":"15089","name":"Salzlandkreis","type":"Landkreis"},"federalState":{"key":"15","name":"Sachsen-Anhalt"}},{"name":"Im Oberdorf","postalCode":"39164","locality":"Wanzleben-Börde","municipality":{"key":"15083531","name":"Wanzleben-Börde, Stadt","type":"Stadt"},"district":{"key":"15083","name":"Börde","type":"Landkreis"},"federalState":{"key":"15","name":"Sachsen-Anhalt"}},{"name":"Im Ring","postalCode":"39167","locality":"Hohe Börde","municipality":{"key":"15083298","name":"Hohe Börde","type":"Kreisangehörige_Gemeinde"},"district":{"key":"15083","name":"Börde","type":"Landkreis"},"federalState":{"key":"15","name":"Sachsen-Anhalt"}},{"name":"Im Sack","postalCode":"39343","locality":"Hohe Börde","municipality":{"key":"15083298","name":"Hohe Börde","type":"Kreisangehörige_Gemeinde"},"district":{"key":"15083","name":"Börde","type":"Landkreis"},"federalState":{"key":"15","name":"Sachsen-Anhalt"}},{"name":"Im Schrotetal","postalCode":"39167","locality":"Hohe Börde","municipality":{"key":"15083298","name":"Hohe Börde","type":"Kreisangehörige_Gemeinde"},"district":{"key":"15083","name":"Börde","type":"Landkreis"},"federalState":{"key":"15","name":"Sachsen-Anhalt"}},{"name":"Im Winkel","postalCode":"39164","locality":"Wanzleben-Börde","municipality":{"key":"15083531","name":"Wanzleben-Börde, Stadt","type":"Stadt"},"district":{"key":"15083","name":"Börde","type":"Landkreis"},"federalState":{"key":"15","name":"Sachsen-Anhalt"}},{"name":"Im Winkel","postalCode":"39167","locality":"Hohe Börde","municipality":{"key":"15083298","name":"Hohe Börde","type":"Kreisangehörige_Gemeinde"},"district":{"key":"15083","name":"Börde","type":"Landkreis"},"federalState":{"key":"15","name":"Sachsen-Anhalt"}},{"name":"Im Winkel","postalCode":"39221","locality":"Bördeland","municipality":{"key":"15089042","name":"Bördeland","type":"Kreisangehörige_Gemeinde"},"district":{"key":"15089","name":"Salzlandkreis","type":"Landkreis"},"federalState":{"key":"15","name":"Sachsen-Anhalt"}},{"name":"Im Winkel","postalCode":"39326","locality":"Hohe Börde","municipality":{"key":"15083298","name":"Hohe Börde","type":"Kreisangehörige_Gemeinde"},"district":{"key":"15083","name":"Börde","type":"Landkreis"},"federalState":{"key":"15","name":"Sachsen-Anhalt"}},{"name":"Im Winkel","postalCode":"39326","locality":"Niedere Börde","municipality":{"key":"15083390","name":"Niedere Börde","type":"Kreisangehörige_Gemeinde"},"district":{"key":"15083","name":"Börde","type":"Landkreis"},"federalState":{"key":"15","name":"Sachsen-Anhalt"}},{"name":"Im Winkel","postalCode":"39343","locality":"Hohe Börde","municipality":{"key":"15083298","name":"Hohe Börde","type":"Kreisangehörige_Gemeinde"},"district":{"key":"15083","name":"Börde","type":"Landkreis"},"federalState":{"key":"15","name":"Sachsen-Anhalt"}},{"name":"Im Winkel","postalCode":"39345","locality":"Niedere Börde","municipality":{"key":"15083390","name":"Niedere Börde","type":"Kreisangehörige_Gemeinde"},"district":{"key":"15083","name":"Börde","type":"Landkreis"},"federalState":{"key":"15","name":"Sachsen-Anhalt"}},{"name":"Industriestr.","postalCode":"39435","locality":"Bördeaue","municipality":{"key":"15089041","name":"Bördeaue","type":"Kreisangehörige_Gemeinde"},"district":{"key":"15089","name":"Salzlandkreis","type":"Landkreis"},"federalState":{"key":"15","name":"Sachsen-Anhalt"}},{"name":"Irxlebener Siedlung","postalCode":"39167","locality":"Hohe Börde","municipality":{"key":"15083298","name":"Hohe Börde","type":"Kreisangehörige_Gemeinde"},"district":{"key":"15083","name":"Börde","type":"Landkreis"},"federalState":{"key":"15","name":"Sachsen-Anhalt"}},{"name":"Irxlebener Str.","postalCode":"39167","locality":"Hohe Börde","municipality":{"key":"15083298","name":"Hohe Börde","type":"Kreisangehörige_Gemeinde"},"district":{"key":"15083","name":"Börde","type":"Landkreis"},"federalState":{"key":"15","name":"Sachsen-Anhalt"}},{"name":"Irxleber Str.","postalCode":"39326","locality":"Hohe Börde","municipality":{"key":"15083298","name":"Hohe Börde","type":"Kreisangehörige_Gemeinde"},"district":{"key":"15083","name":"Börde","type":"Landkreis"},"federalState":{"key":"15","name":"Sachsen-Anhalt"}},{"name":"Irxleber Weg","postalCode":"39167","locality":"Hohe Börde","municipality":{"key":"15083298","name":"Hohe Börde","type":"Kreisangehörige_Gemeinde"},"district":{"key":"15083","name":"Börde","type":"Landkreis"},"federalState":{"key":"15","name":"Sachsen-Anhalt"}},{"name":"Jersleber Str.","postalCode":"39326","locality":"Niedere Börde","municipality":{"key":"15083390","name":"Niedere Börde","type":"Kreisangehörige_Gemeinde"},"district":{"key":"15083","name":"Börde","type":"Landkreis"},"federalState":{"key":"15","name":"Sachsen-Anhalt"}},{"name":"Jersleber Weg","postalCode":"39326","locality":"Niedere Börde","municipality":{"key":"15083390","name":"Niedere Börde","type":"Kreisangehörige_Gemeinde"},"district":{"key":"15083","name":"Börde","type":"Landkreis"},"federalState":{"key":"15","name":"Sachsen-Anhalt"}},{"name":"Johann-Gottfried-Herder-Weg","postalCode":"39164","locality":"Wanzleben-Börde","municipality":{"key":"15083531","name":"Wanzleben-Börde, Stadt","type":"Stadt"},"district":{"key":"15083","name":"Börde","type":"Landkreis"},"federalState":{"key":"15","name":"Sachsen-Anhalt"}},{"name":"Johann-Wolfgang-von-Goethe-Str.","postalCode":"39164","locality":"Wanzleben-Börde","municipality":{"key":"15083531","name":"Wanzleben-Börde, Stadt","type":"Stadt"},"district":{"key":"15083","name":"Börde","type":"Landkreis"},"federalState":{"key":"15","name":"Sachsen-Anhalt"}},{"name":"Kalkweg","postalCode":"39397","locality":"Kroppenstedt","municipality":{"key":"15083355","name":"Kroppenstedt, Stadt","type":"Stadt"},"district":{"key":"15083","name":"Börde","type":"Landkreis"},"federalState":{"key":"15","name":"Sachsen-Anhalt"}},{"name":"Karlstr.","postalCode":"39397","locality":"Kroppenstedt","municipality":{"key":"15083355","name":"Kroppenstedt, Stadt","type":"Stadt"},"district":{"key":"15083","name":"Börde","type":"Landkreis"},"federalState":{"key":"15","name":"Sachsen-Anhalt"}},{"name":"Kirchstr.","postalCode":"39397","locality":"Kroppenstedt","municipality":{"key":"15083355","name":"Kroppenstedt, Stadt","type":"Stadt"},"district":{"key":"15083","name":"Börde","type":"Landkreis"},"federalState":{"key":"15","name":"Sachsen-Anhalt"}},{"name":"Kurze Str.","postalCode":"39397","locality":"Kroppenstedt","municipality":{"key":"15083355","name":"Kroppenstedt, Stadt","type":"Stadt"},"district":{"key":"15083","name":"Börde","type":"Landkreis"},"federalState":{"key":"15","name":"Sachsen-Anhalt"}},{"name":"Lindengarten","postalCode":"39397","locality":"Kroppenstedt","municipality":{"key":"15083355","name":"Kroppenstedt, Stadt","type":"Stadt"},"district":{"key":"15083","name":"Börde","type":"Landkreis"},"federalState":{"key":"15","name":"Sachsen-Anhalt"}},{"name":"Marktplatz","postalCode":"39397","locality":"Kroppenstedt","municipality":{"key":"15083355","name":"Kroppenstedt, Stadt","type":"Stadt"},"district":{"key":"15083","name":"Börde","type":"Landkreis"},"federalState":{"key":"15","name":"Sachsen-Anhalt"}},{"name":"Max-Kasperschinski-Str.","postalCode":"39397","locality":"Kroppenstedt","municipality":{"key":"15083355","name":"Kroppenstedt, Stadt","type":"Stadt"},"district":{"key":"15083","name":"Börde","type":"Landkreis"},"federalState":{"key":"15","name":"Sachsen-Anhalt"}},{"name":"Neustadt","postalCode":"39397","locality":"Kroppenstedt","municipality":{"key":"15083355","name":"Kroppenstedt, Stadt","type":"Stadt"},"district":{"key":"15083","name":"Börde","type":"Landkreis"},"federalState":{"key":"15","name":"Sachsen-Anhalt"}},{"name":"Obere Gehrecken","postalCode":"39167","locality":"Hohe Börde","municipality":{"key":"15083298","name":"Hohe Börde","type":"Kreisangehörige_Gemeinde"},"district":{"key":"15083","name":"Börde","type":"Landkreis"},"federalState":{"key":"15","name":"Sachsen-Anhalt"}},{"name":"Oberer Hohenwarsleber Weg","postalCode":"39167","locality":"Hohe Börde","municipality":{"key":"15083298","name":"Hohe Börde","type":"Kreisangehörige_Gemeinde"},"district":{"key":"15083","name":"Börde","type":"Landkreis"},"federalState":{"key":"15","name":"Sachsen-Anhalt"}},{"name":"Oberes Sülzetal","postalCode":"39167","locality":"Hohe Börde","municipality":{"key":"15083298","name":"Hohe Börde","type":"Kreisangehörige_Gemeinde"},"district":{"key":"15083","name":"Börde","type":"Landkreis"},"federalState":{"key":"15","name":"Sachsen-Anhalt"}},{"name":"Ochtmerlseber Weg","postalCode":"39167","locality":"Hohe Börde","municipality":{"key":"15083298","name":"Hohe Börde","type":"Kreisangehörige_Gemeinde"},"district":{"key":"15083","name":"Börde","type":"Landkreis"},"federalState":{"key":"15","name":"Sachsen-Anhalt"}},{"name":"Ohregarten","postalCode":"39326","locality":"Niedere Börde","municipality":{"key":"15083390","name":"Niedere Börde","type":"Kreisangehörige_Gemeinde"},"district":{"key":"15083","name":"Börde","type":"Landkreis"},"federalState":{"key":"15","name":"Sachsen-Anhalt"}},{"name":"Okendorfer Weg","postalCode":"39164","locality":"Wanzleben-Börde","municipality":{"key":"15083531","name":"Wanzleben-Börde, Stadt","type":"Stadt"},"district":{"key":"15083","name":"Börde","type":"Landkreis"},"federalState":{"key":"15","name":"Sachsen-Anhalt"}},{"name":"Olbe-Hopfenteich-Weg","postalCode":"39167","locality":"Hohe Börde","municipality":{"key":"15083298","name":"Hohe Börde","type":"Kreisangehörige_Gemeinde"},"district":{"key":"15083","name":"Börde","type":"Landkreis"},"federalState":{"key":"15","name":"Sachsen-Anhalt"}},{"name":"Olvenstedter Weg","postalCode":"39167","locality":"Hohe Börde","municipality":{"key":"15083298","name":"Hohe Börde","type":"Kreisangehörige_Gemeinde"},"district":{"key":"15083","name":"Börde","type":"Landkreis"},"federalState":{"key":"15","name":"Sachsen-Anhalt"}},{"name":"Ordensbreite","postalCode":"39164","locality":"Wanzleben-Börde","municipality":{"key":"15083531","name":"Wanzleben-Börde, Stadt","type":"Stadt"},"district":{"key":"15083","name":"Börde","type":"Landkreis"},"federalState":{"key":"15","name":"Sachsen-Anhalt"}},{"name":"Osterwiesenstr.","postalCode":"39167","locality":"Hohe Börde","municipality":{"key":"15083298","name":"Hohe Börde","type":"Kreisangehörige_Gemeinde"},"district":{"key":"15083","name":"Börde","type":"Landkreis"},"federalState":{"key":"15","name":"Sachsen-Anhalt"}},{"name":"Ottersleber Tor","postalCode":"39164","locality":"Wanzleben-Börde","municipality":{"key":"15083531","name":"Wanzleben-Börde, Stadt","type":"Stadt"},"district":{"key":"15083","name":"Börde","type":"Landkreis"},"federalState":{"key":"15","name":"Sachsen-Anhalt"}},{"name":"Ottersleber Weg","postalCode":"39167","locality":"Hohe Börde","municipality":{"key":"15083298","name":"Hohe Börde","type":"Kreisangehörige_Gemeinde"},"district":{"key":"15083","name":"Börde","type":"Landkreis"},"federalState":{"key":"15","name":"Sachsen-Anhalt"}},{"name":"Otto-Grotewohl-Str.","postalCode":"39167","locality":"Hohe Börde","municipality":{"key":"15083298","name":"Hohe Börde","type":"Kreisangehörige_Gemeinde"},"district":{"key":"15083","name":"Börde","type":"Landkreis"},"federalState":{"key":"15","name":"Sachsen-Anhalt"}},{"name":"Pappelweg","postalCode":"39221","locality":"Bördeland","municipality":{"key":"15089042","name":"Bördeland","type":"Kreisangehörige_Gemeinde"},"district":{"key":"15089","name":"Salzlandkreis","type":"Landkreis"},"federalState":{"key":"15","name":"Sachsen-Anhalt"}},{"name":"Pappelweg","postalCode":"39326","locality":"Niedere Börde","municipality":{"key":"15083390","name":"Niedere Börde","type":"Kreisangehörige_Gemeinde"},"district":{"key":"15083","name":"Börde","type":"Landkreis"},"federalState":{"key":"15","name":"Sachsen-Anhalt"}},{"name":"Parkgasse","postalCode":"39164","locality":"Wanzleben-Börde","municipality":{"key":"15083531","name":"Wanzleben-Börde, Stadt","type":"Stadt"},"district":{"key":"15083","name":"Börde","type":"Landkreis"},"federalState":{"key":"15","name":"Sachsen-Anhalt"}},{"name":"Parkring","postalCode":"39167","locality":"Hohe Börde","municipality":{"key":"15083298","name":"Hohe Börde","type":"Kreisangehörige_Gemeinde"},"district":{"key":"15083","name":"Börde","type":"Landkreis"},"federalState":{"key":"15","name":"Sachsen-Anhalt"}},{"name":"Parkstr.","postalCode":"39164","locality":"Wanzleben-Börde","municipality":{"key":"15083531","name":"Wanzleben-Börde, Stadt","type":"Stadt"},"district":{"key":"15083","name":"Börde","type":"Landkreis"},"federalState":{"key":"15","name":"Sachsen-Anhalt"}},{"name":"Parkstr.","postalCode":"39167","locality":"Hohe Börde","municipality":{"key":"15083298","name":"Hohe Börde","type":"Kreisangehörige_Gemeinde"},"district":{"key":"15083","name":"Börde","type":"Landkreis"},"federalState":{"key":"15","name":"Sachsen-Anhalt"}},{"name":"Parkweg","postalCode":"39164","locality":"Wanzleben-Börde","municipality":{"key":"15083531","name":"Wanzleben-Börde, Stadt","type":"Stadt"},"district":{"key":"15083","name":"Börde","type":"Landkreis"},"federalState":{"key":"15","name":"Sachsen-Anhalt"}},{"name":"Pascheberg","postalCode":"39167","locality":"Hohe Börde","municipality":{"key":"15083298","name":"Hohe Börde","type":"Kreisangehörige_Gemeinde"},"district":{"key":"15083","name":"Börde","type":"Landkreis"},"federalState":{"key":"15","name":"Sachsen-Anhalt"}},{"name":"Paulsweg","postalCode":"39164","locality":"Wanzleben-Börde","municipality":{"key":"15083531","name":"Wanzleben-Börde, Stadt","type":"Stadt"},"district":{"key":"15083","name":"Börde","type":"Landkreis"},"federalState":{"key":"15","name":"Sachsen-Anhalt"}},{"name":"Peseckendorfer Str.","postalCode":"39164","locality":"Wanzleben-Börde","municipality":{"key":"15083531","name":"Wanzleben-Börde, Stadt","type":"Stadt"},"district":{"key":"15083","name":"Börde","type":"Landkreis"},"federalState":{"key":"15","name":"Sachsen-Anhalt"}},{"name":"Pestalozziweg","postalCode":"39164","locality":"Wanzleben-Börde","municipality":{"key":"15083531","name":"Wanzleben-Börde, Stadt","type":"Stadt"},"district":{"key":"15083","name":"Börde","type":"Landkreis"},"federalState":{"key":"15","name":"Sachsen-Anhalt"}},{"name":"Peterstr.","postalCode":"39326","locality":"Niedere Börde","municipality":{"key":"15083390","name":"Niedere Börde","type":"Kreisangehörige_Gemeinde"},"district":{"key":"15083","name":"Börde","type":"Landkreis"},"federalState":{"key":"15","name":"Sachsen-Anhalt"}},{"name":"Pfarrstr.","postalCode":"39448","locality":"Börde-Hakel","municipality":{"key":"15089043","name":"Börde-Hakel","type":"Kreisangehörige_Gemeinde"},"district":{"key":"15089","name":"Salzlandkreis","type":"Landkreis"},"federalState":{"key":"15","name":"Sachsen-Anhalt"}},{"name":"Pfingstberg","postalCode":"39326","locality":"Niedere Börde","municipality":{"key":"15083390","name":"Niedere Börde","type":"Kreisangehörige_Gemeinde"},"district":{"key":"15083","name":"Börde","type":"Landkreis"},"federalState":{"key":"15","name":"Sachsen-Anhalt"}},{"name":"Pfingstgraseweg","postalCode":"39221","locality":"Bördeland","municipality":{"key":"15089042","name":"Bördeland","type":"Kreisangehörige_Gemeinde"},"district":{"key":"15089","name":"Salzlandkreis","type":"Landkreis"},"federalState":{"key":"15","name":"Sachsen-Anhalt"}},{"name":"Pfingstwiesenweg","postalCode":"39345","locality":"Niedere Börde","municipality":{"key":"15083390","name":"Niedere Börde","type":"Kreisangehörige_Gemeinde"},"district":{"key":"15083","name":"Börde","type":"Landkreis"},"federalState":{"key":"15","name":"Sachsen-Anhalt"}},{"name":"Pflaumenallee","postalCode":"39221","locality":"Bördeland","municipality":{"key":"15089042","name":"Bördeland","type":"Kreisangehörige_Gemeinde"},"district":{"key":"15089","name":"Salzlandkreis","type":"Landkreis"},"federalState":{"key":"15","name":"Sachsen-Anhalt"}},{"name":"Pförtchen","postalCode":"39164","locality":"Wanzleben-Börde","municipality":{"key":"15083531","name":"Wanzleben-Börde, Stadt","type":"Stadt"},"district":{"key":"15083","name":"Börde","type":"Landkreis"},"federalState":{"key":"15","name":"Sachsen-Anhalt"}},{"name":"Plan","postalCode":"39448","locality":"Börde-Hakel","municipality":{"key":"15089043","name":"Börde-Hakel","type":"Kreisangehörige_Gemeinde"},"district":{"key":"15089","name":"Salzlandkreis","type":"Landkreis"},"federalState":{"key":"15","name":"Sachsen-Anhalt"}},{"name":"Plankener Str.","postalCode":"39326","locality":"Niedere Börde","municipality":{"key":"15083390","name":"Niedere Börde","type":"Kreisangehörige_Gemeinde"},"district":{"key":"15083","name":"Börde","type":"Landkreis"},"federalState":{"key":"15","name":"Sachsen-Anhalt"}},{"name":"Plantagenweg","postalCode":"39221","locality":"Bördeland","municipality":{"key":"15089042","name":"Bördeland","type":"Kreisangehörige_Gemeinde"},"district":{"key":"15089","name":"Salzlandkreis","type":"Landkreis"},"federalState":{"key":"15","name":"Sachsen-Anhalt"}},{"name":"Platanenweg","postalCode":"39167","locality":"Hohe Börde","municipality":{"key":"15083298","name":"Hohe Börde","type":"Kreisangehörige_Gemeinde"},"district":{"key":"15083","name":"Börde","type":"Landkreis"},"federalState":{"key":"15","name":"Sachsen-Anhalt"}},{"name":"Platz des Friedens","postalCode":"39343","locality":"Hohe Börde","municipality":{"key":"15083298","name":"Hohe Börde","type":"Kreisangehörige_Gemeinde"},"district":{"key":"15083","name":"Börde","type":"Landkreis"},"federalState":{"key":"15","name":"Sachsen-Anhalt"}},{"name":"Postgasse","postalCode":"39164","locality":"Wanzleben-Börde","municipality":{"key":"15083531","name":"Wanzleben-Börde, Stadt","type":"Stadt"},"district":{"key":"15083","name":"Börde","type":"Landkreis"},"federalState":{"key":"15","name":"Sachsen-Anhalt"}},{"name":"Poststr.","postalCode":"39164","locality":"Wanzleben-Börde","municipality":{"key":"15083531","name":"Wanzleben-Börde, Stadt","type":"Stadt"},"district":{"key":"15083","name":"Börde","type":"Landkreis"},"federalState":{"key":"15","name":"Sachsen-Anhalt"}},{"name":"Poststr.","postalCode":"39326","locality":"Hohe Börde","municipality":{"key":"15083298","name":"Hohe Börde","type":"Kreisangehörige_Gemeinde"},"district":{"key":"15083","name":"Börde","type":"Landkreis"},"federalState":{"key":"15","name":"Sachsen-Anhalt"}},{"name":"Privatweg","postalCode":"39326","locality":"Niedere Börde","municipality":{"key":"15083390","name":"Niedere Börde","type":"Kreisangehörige_Gemeinde"},"district":{"key":"15083","name":"Börde","type":"Landkreis"},"federalState":{"key":"15","name":"Sachsen-Anhalt"}},{"name":"Prozessweg","postalCode":"39221","locality":"Bördeland","municipality":{"key":"15089042","name":"Bördeland","type":"Kreisangehörige_Gemeinde"},"district":{"key":"15089","name":"Salzlandkreis","type":"Landkreis"},"federalState":{"key":"15","name":"Sachsen-Anhalt"}},{"name":"Puschkinstr.","postalCode":"39164","locality":"Wanzleben-Börde","municipality":{"key":"15083531","name":"Wanzleben-Börde, Stadt","type":"Stadt"},"district":{"key":"15083","name":"Börde","type":"Landkreis"},"federalState":{"key":"15","name":"Sachsen-Anhalt"}},{"name":"Quergasse","postalCode":"39221","locality":"Bördeland","municipality":{"key":"15089042","name":"Bördeland","type":"Kreisangehörige_Gemeinde"},"district":{"key":"15089","name":"Salzlandkreis","type":"Landkreis"},"federalState":{"key":"15","name":"Sachsen-Anhalt"}},{"name":"Querstr.","postalCode":"39164","locality":"Wanzleben-Börde","municipality":{"key":"15083531","name":"Wanzleben-Börde, Stadt","type":"Stadt"},"district":{"key":"15083","name":"Börde","type":"Landkreis"},"federalState":{"key":"15","name":"Sachsen-Anhalt"}},{"name":"Querstr.","postalCode":"39221","locality":"Bördeland","municipality":{"key":"15089042","name":"Bördeland","type":"Kreisangehörige_Gemeinde"},"district":{"key":"15089","name":"Salzlandkreis","type":"Landkreis"},"federalState":{"key":"15","name":"Sachsen-Anhalt"}},{"name":"Querstr.","postalCode":"39343","locality":"Hohe Börde","municipality":{"key":"15083298","name":"Hohe Börde","type":"Kreisangehörige_Gemeinde"},"district":{"key":"15083","name":"Börde","type":"Landkreis"},"federalState":{"key":"15","name":"Sachsen-Anhalt"}},{"name":"Rudolf-Breitscheid-Str.","postalCode":"39397","locality":"Kroppenstedt","municipality":{"key":"15083355","name":"Kroppenstedt, Stadt","type":"Stadt"},"district":{"key":"15083","name":"Börde","type":"Landkreis"},"federalState":{"key":"15","name":"Sachsen-Anhalt"}},{"name":"Sackstr.","postalCode":"39397","locality":"Kroppenstedt","municipality":{"key":"15083355","name":"Kroppenstedt, Stadt","type":"Stadt"},"district":{"key":"15083","name":"Börde","type":"Landkreis"},"federalState":{"key":"15","name":"Sachsen-Anhalt"}},{"name":"Schulstr.","postalCode":"39397","locality":"Kroppenstedt","municipality":{"key":"15083355","name":"Kroppenstedt, Stadt","type":"Stadt"},"district":{"key":"15083","name":"Börde","type":"Landkreis"},"federalState":{"key":"15","name":"Sachsen-Anhalt"}},{"name":"Schützenplatz","postalCode":"39397","locality":"Kroppenstedt","municipality":{"key":"15083355","name":"Kroppenstedt, Stadt","type":"Stadt"},"district":{"key":"15083","name":"Börde","type":"Landkreis"},"federalState":{"key":"15","name":"Sachsen-Anhalt"}},{"name":"Str. der Freundschaft","postalCode":"39397","locality":"Kroppenstedt","municipality":{"key":"15083355","name":"Kroppenstedt, Stadt","type":"Stadt"},"district":{"key":"15083","name":"Börde","type":"Landkreis"},"federalState":{"key":"15","name":"Sachsen-Anhalt"}},{"name":"Str. des Friedens","postalCode":"39397","locality":"Kroppenstedt","municipality":{"key":"15083355","name":"Kroppenstedt, Stadt","type":"Stadt"},"district":{"key":"15083","name":"Börde","type":"Landkreis"},"federalState":{"key":"15","name":"Sachsen-Anhalt"}},{"name":"Talgrabenweg","postalCode":"39167","locality":"Hohe Börde","municipality":{"key":"15083298","name":"Hohe Börde","type":"Kreisangehörige_Gemeinde"},"district":{"key":"15083","name":"Börde","type":"Landkreis"},"federalState":{"key":"15","name":"Sachsen-Anhalt"}},{"name":"Talsbergweg","postalCode":"39221","locality":"Bördeland","municipality":{"key":"15089042","name":"Bördeland","type":"Kreisangehörige_Gemeinde"},"district":{"key":"15089","name":"Salzlandkreis","type":"Landkreis"},"federalState":{"key":"15","name":"Sachsen-Anhalt"}},{"name":"Tartarenberg","postalCode":"39164","locality":"Wanzleben-Börde","municipality":{"key":"15083531","name":"Wanzleben-Börde, Stadt","type":"Stadt"},"district":{"key":"15083","name":"Börde","type":"Landkreis"},"federalState":{"key":"15","name":"Sachsen-Anhalt"}},{"name":"Tarthuner Str.","postalCode":"39435","locality":"Bördeaue","municipality":{"key":"15089041","name":"Bördeaue","type":"Kreisangehörige_Gemeinde"},"district":{"key":"15089","name":"Salzlandkreis","type":"Landkreis"},"federalState":{"key":"15","name":"Sachsen-Anhalt"}},{"name":"Teerstr.","postalCode":"39326","locality":"Niedere Börde","municipality":{"key":"15083390","name":"Niedere Börde","type":"Kreisangehörige_Gemeinde"},"district":{"key":"15083","name":"Börde","type":"Landkreis"},"federalState":{"key":"15","name":"Sachsen-Anhalt"}},{"name":"Teichstr.","postalCode":"39164","locality":"Wanzleben-Börde","municipality":{"key":"15083531","name":"Wanzleben-Börde, Stadt","type":"Stadt"},"district":{"key":"15083","name":"Börde","type":"Landkreis"},"federalState":{"key":"15","name":"Sachsen-Anhalt"}},{"name":"Teichstr.","postalCode":"39221","locality":"Bördeland","municipality":{"key":"15089042","name":"Bördeland","type":"Kreisangehörige_Gemeinde"},"district":{"key":"15089","name":"Salzlandkreis","type":"Landkreis"},"federalState":{"key":"15","name":"Sachsen-Anhalt"}},{"name":"Teichstr.","postalCode":"39326","locality":"Niedere Börde","municipality":{"key":"15083390","name":"Niedere Börde","type":"Kreisangehörige_Gemeinde"},"district":{"key":"15083","name":"Börde","type":"Landkreis"},"federalState":{"key":"15","name":"Sachsen-Anhalt"}},{"name":"Teichstr.","postalCode":"39345","locality":"Niedere Börde","municipality":{"key":"15083390","name":"Niedere Börde","type":"Kreisangehörige_Gemeinde"},"district":{"key":"15083","name":"Börde","type":"Landkreis"},"federalState":{"key":"15","name":"Sachsen-Anhalt"}},{"name":"Teichstr.","postalCode":"39448","locality":"Börde-Hakel","municipality":{"key":"15089043","name":"Börde-Hakel","type":"Kreisangehörige_Gemeinde"},"district":{"key":"15089","name":"Salzlandkreis","type":"Landkreis"},"federalState":{"key":"15","name":"Sachsen-Anhalt"}},{"name":"Teichweg","postalCode":"39164","locality":"Wanzleben-Börde","municipality":{"key":"15083531","name":"Wanzleben-Börde, Stadt","type":"Stadt"},"district":{"key":"15083","name":"Börde","type":"Landkreis"},"federalState":{"key":"15","name":"Sachsen-Anhalt"}},{"name":"Teichweg","postalCode":"39326","locality":"Hohe Börde","municipality":{"key":"15083298","name":"Hohe Börde","type":"Kreisangehörige_Gemeinde"},"district":{"key":"15083","name":"Börde","type":"Landkreis"},"federalState":{"key":"15","name":"Sachsen-Anhalt"}},{"name":"Telzweg","postalCode":"39326","locality":"Niedere Börde","municipality":{"key":"15083390","name":"Niedere Börde","type":"Kreisangehörige_Gemeinde"},"district":{"key":"15083","name":"Börde","type":"Landkreis"},"federalState":{"key":"15","name":"Sachsen-Anhalt"}},{"name":"Thälmannstr.","postalCode":"39448","locality":"Börde-Hakel","municipality":{"key":"15089043","name":"Börde-Hakel","type":"Kreisangehörige_Gemeinde"},"district":{"key":"15089","name":"Salzlandkreis","type":"Landkreis"},"federalState":{"key":"15","name":"Sachsen-Anhalt"}},{"name":"Thielestr.","postalCode":"39343","locality":"Hohe Börde","municipality":{"key":"15083298","name":"Hohe Börde","type":"Kreisangehörige_Gemeinde"},"district":{"key":"15083","name":"Börde","type":"Landkreis"},"federalState":{"key":"15","name":"Sachsen-Anhalt"}},{"name":"Thingplatz","postalCode":"39164","locality":"Wanzleben-Börde","municipality":{"key":"15083531","name":"Wanzleben-Börde, Stadt","type":"Stadt"},"district":{"key":"15083","name":"Börde","type":"Landkreis"},"federalState":{"key":"15","name":"Sachsen-Anhalt"}},{"name":"Thomas-Müntzer-Platz","postalCode":"39343","locality":"Hohe Börde","municipality":{"key":"15083298","name":"Hohe Börde","type":"Kreisangehörige_Gemeinde"},"district":{"key":"15083","name":"Börde","type":"Landkreis"},"federalState":{"key":"15","name":"Sachsen-Anhalt"}},{"name":"Thomas-Müntzer-Siedlung","postalCode":"39435","locality":"Bördeaue","municipality":{"key":"15089041","name":"Bördeaue","type":"Kreisangehörige_Gemeinde"},"district":{"key":"15089","name":"Salzlandkreis","type":"Landkreis"},"federalState":{"key":"15","name":"Sachsen-Anhalt"}},{"name":"Thomas-Müntzer-Siedlung","postalCode":"39448","locality":"Börde-Hakel","municipality":{"key":"15089043","name":"Börde-Hakel","type":"Kreisangehörige_Gemeinde"},"district":{"key":"15089","name":"Salzlandkreis","type":"Landkreis"},"federalState":{"key":"15","name":"Sachsen-Anhalt"}},{"name":"Thomas-Müntzer-Str.","postalCode":"39164","locality":"Wanzleben-Börde","municipality":{"key":"15083531","name":"Wanzleben-Börde, Stadt","type":"Stadt"},"district":{"key":"15083","name":"Börde","type":"Landkreis"},"federalState":{"key":"15","name":"Sachsen-Anhalt"}},{"name":"Thomas-Müntzer-Str.","postalCode":"39167","locality":"Hohe Börde","municipality":{"key":"15083298","name":"Hohe Börde","type":"Kreisangehörige_Gemeinde"},"district":{"key":"15083","name":"Börde","type":"Landkreis"},"federalState":{"key":"15","name":"Sachsen-Anhalt"}},{"name":"Thomas-Müntzer-Str.","postalCode":"39343","locality":"Hohe Börde","municipality":{"key":"15083298","name":"Hohe Börde","type":"Kreisangehörige_Gemeinde"},"district":{"key":"15083","name":"Börde","type":"Landkreis"},"federalState":{"key":"15","name":"Sachsen-Anhalt"}},{"name":"Thomas-Müntzer-Weg","postalCode":"39164","locality":"Wanzleben-Börde","municipality":{"key":"15083531","name":"Wanzleben-Börde, Stadt","type":"Stadt"},"district":{"key":"15083","name":"Börde","type":"Landkreis"},"federalState":{"key":"15","name":"Sachsen-Anhalt"}},{"name":"Thorstr.","postalCode":"39435","locality":"Bördeaue","municipality":{"key":"15089041","name":"Bördeaue","type":"Kreisangehörige_Gemeinde"},"district":{"key":"15089","name":"Salzlandkreis","type":"Landkreis"},"federalState":{"key":"15","name":"Sachsen-Anhalt"}},{"name":"Torgartenstr.","postalCode":"39164","locality":"Wanzleben-Börde","municipality":{"key":"15083531","name":"Wanzleben-Börde, Stadt","type":"Stadt"},"district":{"key":"15083","name":"Börde","type":"Landkreis"},"federalState":{"key":"15","name":"Sachsen-Anhalt"}},{"name":"Torstr.","postalCode":"39435","locality":"Bördeaue","municipality":{"key":"15089041","name":"Bördeaue","type":"Kreisangehörige_Gemeinde"},"district":{"key":"15089","name":"Salzlandkreis","type":"Landkreis"},"federalState":{"key":"15","name":"Sachsen-Anhalt"}},{"name":"Tränkestr.","postalCode":"39221","locality":"Bördeland","municipality":{"key":"15089042","name":"Bördeland","type":"Kreisangehörige_Gemeinde"},"district":{"key":"15089","name":"Salzlandkreis","type":"Landkreis"},"federalState":{"key":"15","name":"Sachsen-Anhalt"}},{"name":"Tränketor","postalCode":"39221","locality":"Bördeland","municipality":{"key":"15089042","name":"Bördeland","type":"Kreisangehörige_Gemeinde"},"district":{"key":"15089","name":"Salzlandkreis","type":"Landkreis"},"federalState":{"key":"15","name":"Sachsen-Anhalt"}},{"name":"Trappenweg","postalCode":"39167","locality":"Hohe Börde","municipality":{"key":"15083298","name":"Hohe Börde","type":"Kreisangehörige_Gemeinde"},"district":{"key":"15083","name":"Börde","type":"Landkreis"},"federalState":{"key":"15","name":"Sachsen-Anhalt"}},{"name":"Trappenweg","postalCode":"39221","locality":"Bördeland","municipality":{"key":"15089042","name":"Bördeland","type":"Kreisangehörige_Gemeinde"},"district":{"key":"15089","name":"Salzlandkreis","type":"Landkreis"},"federalState":{"key":"15","name":"Sachsen-Anhalt"}},{"name":"Trift","postalCode":"39164","locality":"Wanzleben-Börde","municipality":{"key":"15083531","name":"Wanzleben-Börde, Stadt","type":"Stadt"},"district":{"key":"15083","name":"Börde","type":"Landkreis"},"federalState":{"key":"15","name":"Sachsen-Anhalt"}},{"name":"Tulpenhof","postalCode":"39221","locality":"Bördeland","municipality":{"key":"15089042","name":"Bördeland","type":"Kreisangehörige_Gemeinde"},"district":{"key":"15089","name":"Salzlandkreis","type":"Landkreis"},"federalState":{"key":"15","name":"Sachsen-Anhalt"}},{"name":"Tulpenweg","postalCode":"39164","locality":"Wanzleben-Börde","municipality":{"key":"15083531","name":"Wanzleben-Börde, Stadt","type":"Stadt"},"district":{"key":"15083","name":"Börde","type":"Landkreis"},"federalState":{"key":"15","name":"Sachsen-Anhalt"}},{"name":"Tulpenweg","postalCode":"39167","locality":"Hohe Börde","municipality":{"key":"15083298","name":"Hohe Börde","type":"Kreisangehörige_Gemeinde"},"district":{"key":"15083","name":"Börde","type":"Landkreis"},"federalState":{"key":"15","name":"Sachsen-Anhalt"}},{"name":"Tulpenweg","postalCode":"39221","locality":"Bördeland","municipality":{"key":"15089042","name":"Bördeland","type":"Kreisangehörige_Gemeinde"},"district":{"key":"15089","name":"Salzlandkreis","type":"Landkreis"},"federalState":{"key":"15","name":"Sachsen-Anhalt"}},{"name":"Tulpenweg","postalCode":"39326","locality":"Hohe Börde","municipality":{"key":"15083298","name":"Hohe Börde","type":"Kreisangehörige_Gemeinde"},"district":{"key":"15083","name":"Börde","type":"Landkreis"},"federalState":{"key":"15","name":"Sachsen-Anhalt"}},{"name":"Tundersleber Str.","postalCode":"39343","locality":"Hohe Börde","municipality":{"key":"15083298","name":"Hohe Börde","type":"Kreisangehörige_Gemeinde"},"district":{"key":"15083","name":"Börde","type":"Landkreis"},"federalState":{"key":"15","name":"Sachsen-Anhalt"}},{"name":"Tundersleber Weg","postalCode":"39343","locality":"Hohe Börde","municipality":{"key":"15083298","name":"Hohe Börde","type":"Kreisangehörige_Gemeinde"},"district":{"key":"15083","name":"Börde","type":"Landkreis"},"federalState":{"key":"15","name":"Sachsen-Anhalt"}},{"name":"Turmstr.","postalCode":"39164","locality":"Wanzleben-Börde","municipality":{"key":"15083531","name":"Wanzleben-Börde, Stadt","type":"Stadt"},"district":{"key":"15083","name":"Börde","type":"Landkreis"},"federalState":{"key":"15","name":"Sachsen-Anhalt"}},{"name":"Turnplatz","postalCode":"39221","locality":"Bördeland","municipality":{"key":"15089042","name":"Bördeland","type":"Kreisangehörige_Gemeinde"},"district":{"key":"15089","name":"Salzlandkreis","type":"Landkreis"},"federalState":{"key":"15","name":"Sachsen-Anhalt"}},{"name":"Twedge","postalCode":"39343","locality":"Hohe Börde","municipality":{"key":"15083298","name":"Hohe Börde","type":"Kreisangehörige_Gemeinde"},"district":{"key":"15083","name":"Börde","type":"Landkreis"},"federalState":{"key":"15","name":"Sachsen-Anhalt"}},{"name":"Uhlenhoch","postalCode":"39167","locality":"Hohe Börde","municipality":{"key":"15083298","name":"Hohe Börde","type":"Kreisangehörige_Gemeinde"},"district":{"key":"15083","name":"Börde","type":"Landkreis"},"federalState":{"key":"15","name":"Sachsen-Anhalt"}},{"name":"Ulmenweg","postalCode":"39167","locality":"Hohe Börde","municipality":{"key":"15083298","name":"Hohe Börde","type":"Kreisangehörige_Gemeinde"},"district":{"key":"15083","name":"Börde","type":"Landkreis"},"federalState":{"key":"15","name":"Sachsen-Anhalt"}},{"name":"Ulrichstr.","postalCode":"39221","locality":"Bördeland","municipality":{"key":"15089042","name":"Bördeland","type":"Kreisangehörige_Gemeinde"},"district":{"key":"15089","name":"Salzlandkreis","type":"Landkreis"},"federalState":{"key":"15","name":"Sachsen-Anhalt"}},{"name":"Umgehungsstr.","postalCode":"39164","locality":"Wanzleben-Börde","municipality":{"key":"15083531","name":"Wanzleben-Börde, Stadt","type":"Stadt"},"district":{"key":"15083","name":"Börde","type":"Landkreis"},"federalState":{"key":"15","name":"Sachsen-Anhalt"}},{"name":"Umgehungsstr.","postalCode":"39326","locality":"Hohe Börde","municipality":{"key":"15083298","name":"Hohe Börde","type":"Kreisangehörige_Gemeinde"},"district":{"key":"15083","name":"Börde","type":"Landkreis"},"federalState":{"key":"15","name":"Sachsen-Anhalt"}},{"name":"Unseburger Str.","postalCode":"39435","locality":"Bördeaue","municipality":{"key":"15089041","name":"Bördeaue","type":"Kreisangehörige_Gemeinde"},"district":{"key":"15089","name":"Salzlandkreis","type":"Landkreis"},"federalState":{"key":"15","name":"Sachsen-Anhalt"}},{"name":"Unter den Linden","postalCode":"39164","locality":"Wanzleben-Börde","municipality":{"key":"15083531","name":"Wanzleben-Börde, Stadt","type":"Stadt"},"district":{"key":"15083","name":"Börde","type":"Landkreis"},"federalState":{"key":"15","name":"Sachsen-Anhalt"}},{"name":"Unter den Linden","postalCode":"39221","locality":"Bördeland","municipality":{"key":"15089042","name":"Bördeland","type":"Kreisangehörige_Gemeinde"},"district":{"key":"15089","name":"Salzlandkreis","type":"Landkreis"},"federalState":{"key":"15","name":"Sachsen-Anhalt"}},{"name":"Untere Gehrecken","postalCode":"39167","locality":"Hohe Börde","municipality":{"key":"15083298","name":"Hohe Börde","type":"Kreisangehörige_Gemeinde"},"district":{"key":"15083","name":"Börde","type":"Landkreis"},"federalState":{"key":"15","name":"Sachsen-Anhalt"}},{"name":"Unterer Hohenwarsleber Weg","postalCode":"39167","locality":"Hohe Börde","municipality":{"key":"15083298","name":"Hohe Börde","type":"Kreisangehörige_Gemeinde"},"district":{"key":"15083","name":"Börde","type":"Landkreis"},"federalState":{"key":"15","name":"Sachsen-Anhalt"}},{"name":"Vahldorfer Weg","postalCode":"39326","locality":"Niedere Börde","municipality":{"key":"15083390","name":"Niedere Börde","type":"Kreisangehörige_Gemeinde"},"district":{"key":"15083","name":"Börde","type":"Landkreis"},"federalState":{"key":"15","name":"Sachsen-Anhalt"}},{"name":"Viehmarkt","postalCode":"39221","locality":"Bördeland","municipality":{"key":"15089042","name":"Bördeland","type":"Kreisangehörige_Gemeinde"},"district":{"key":"15089","name":"Salzlandkreis","type":"Landkreis"},"federalState":{"key":"15","name":"Sachsen-Anhalt"}},{"name":"Vogelbreite","postalCode":"39167","locality":"Hohe Börde","municipality":{"key":"15083298","name":"Hohe Börde","type":"Kreisangehörige_Gemeinde"},"district":{"key":"15083","name":"Börde","type":"Landkreis"},"federalState":{"key":"15","name":"Sachsen-Anhalt"}},{"name":"Vogelgesang","postalCode":"39221","locality":"Bördeland","municipality":{"key":"15089042","name":"Bördeland","type":"Kreisangehörige_Gemeinde"},"district":{"key":"15089","name":"Salzlandkreis","type":"Landkreis"},"federalState":{"key":"15","name":"Sachsen-Anhalt"}},{"name":"Vogelsang","postalCode":"39221","locality":"Bördeland","municipality":{"key":"15089042","name":"Bördeland","type":"Kreisangehörige_Gemeinde"},"district":{"key":"15089","name":"Salzlandkreis","type":"Landkreis"},"federalState":{"key":"15","name":"Sachsen-Anhalt"}},{"name":"Vor dem Hohen Tor","postalCode":"39164","locality":"Wanzleben-Börde","municipality":{"key":"15083531","name":"Wanzleben-Börde, Stadt","type":"Stadt"},"district":{"key":"15083","name":"Börde","type":"Landkreis"},"federalState":{"key":"15","name":"Sachsen-Anhalt"}},{"name":"Vor dem Kirchtore","postalCode":"39164","locality":"Wanzleben-Börde","municipality":{"key":"15083531","name":"Wanzleben-Börde, Stadt","type":"Stadt"},"district":{"key":"15083","name":"Börde","type":"Landkreis"},"federalState":{"key":"15","name":"Sachsen-Anhalt"}},{"name":"Vor dem Mühlentor","postalCode":"39221","locality":"Bördeland","municipality":{"key":"15089042","name":"Bördeland","type":"Kreisangehörige_Gemeinde"},"district":{"key":"15089","name":"Salzlandkreis","type":"Landkreis"},"federalState":{"key":"15","name":"Sachsen-Anhalt"}},{"name":"Vor dem Rittertor","postalCode":"39164","locality":"Wanzleben-Börde","municipality":{"key":"15083531","name":"Wanzleben-Börde, Stadt","type":"Stadt"},"district":{"key":"15083","name":"Börde","type":"Landkreis"},"federalState":{"key":"15","name":"Sachsen-Anhalt"}},{"name":"Vor dem Schloßtor","postalCode":"39164","locality":"Wanzleben-Börde","municipality":{"key":"15083531","name":"Wanzleben-Börde, Stadt","type":"Stadt"},"district":{"key":"15083","name":"Börde","type":"Landkreis"},"federalState":{"key":"15","name":"Sachsen-Anhalt"}},{"name":"Vor dem Sportplatz","postalCode":"39164","locality":"Wanzleben-Börde","municipality":{"key":"15083531","name":"Wanzleben-Börde, Stadt","type":"Stadt"},"district":{"key":"15083","name":"Börde","type":"Landkreis"},"federalState":{"key":"15","name":"Sachsen-Anhalt"}},{"name":"Vor dem Tore","postalCode":"39326","locality":"Niedere Börde","municipality":{"key":"15083390","name":"Niedere Börde","type":"Kreisangehörige_Gemeinde"},"district":{"key":"15083","name":"Börde","type":"Landkreis"},"federalState":{"key":"15","name":"Sachsen-Anhalt"}},{"name":"Vor dem Tore","postalCode":"39343","locality":"Hohe Börde","municipality":{"key":"15083298","name":"Hohe Börde","type":"Kreisangehörige_Gemeinde"},"district":{"key":"15083","name":"Börde","type":"Landkreis"},"federalState":{"key":"15","name":"Sachsen-Anhalt"}},{"name":"Vor dem Tore","postalCode":"39448","locality":"Börde-Hakel","municipality":{"key":"15089043","name":"Börde-Hakel","type":"Kreisangehörige_Gemeinde"},"district":{"key":"15089","name":"Salzlandkreis","type":"Landkreis"},"federalState":{"key":"15","name":"Sachsen-Anhalt"}},{"name":"Vor dem Welschen Tor","postalCode":"39164","locality":"Wanzleben-Börde","municipality":{"key":"15083531","name":"Wanzleben-Börde, Stadt","type":"Stadt"},"district":{"key":"15083","name":"Börde","type":"Landkreis"},"federalState":{"key":"15","name":"Sachsen-Anhalt"}},{"name":"Vor der Reihe","postalCode":"39343","locality":"Hohe Börde","municipality":{"key":"15083298","name":"Hohe Börde","type":"Kreisangehörige_Gemeinde"},"district":{"key":"15083","name":"Börde","type":"Landkreis"},"federalState":{"key":"15","name":"Sachsen-Anhalt"}},{"name":"Vor der Scheue","postalCode":"39343","locality":"Hohe Börde","municipality":{"key":"15083298","name":"Hohe Börde","type":"Kreisangehörige_Gemeinde"},"district":{"key":"15083","name":"Börde","type":"Landkreis"},"federalState":{"key":"15","name":"Sachsen-Anhalt"}},{"name":"Wilhelm-Firse-Str.","postalCode":"39397","locality":"Kroppenstedt","municipality":{"key":"15083355","name":"Kroppenstedt, Stadt","type":"Stadt"},"district":{"key":"15083","name":"Börde","type":"Landkreis"},"federalState":{"key":"15","name":"Sachsen-Anhalt"}},{"name":"Zenser Str.","postalCode":"39221","locality":"Bördeland","municipality":{"key":"15089042","name":"Bördeland","type":"Kreisangehörige_Gemeinde"},"district":{"key":"15089","name":"Salzlandkreis","type":"Landkreis"},"federalState":{"key":"15","name":"Sachsen-Anhalt"}},{"name":"Zollstange","postalCode":"39343","locality":"Hohe Börde","municipality":{"key":"15083298","name":"Hohe Börde","type":"Kreisangehörige_Gemeinde"},"district":{"key":"15083","name":"Börde","type":"Landkreis"},"federalState":{"key":"15","name":"Sachsen-Anhalt"}},{"name":"Zum Anger","postalCode":"39343","locality":"Hohe Börde","municipality":{"key":"15083298","name":"Hohe Börde","type":"Kreisangehörige_Gemeinde"},"district":{"key":"15083","name":"Börde","type":"Landkreis"},"federalState":{"key":"15","name":"Sachsen-Anhalt"}},{"name":"Zum Fahlen Klei","postalCode":"39326","locality":"Niedere Börde","municipality":{"key":"15083390","name":"Niedere Börde","type":"Kreisangehörige_Gemeinde"},"district":{"key":"15083","name":"Börde","type":"Landkreis"},"federalState":{"key":"15","name":"Sachsen-Anhalt"}},{"name":"Zum Feld","postalCode":"39167","locality":"Hohe Börde","municipality":{"key":"15083298","name":"Hohe Börde","type":"Kreisangehörige_Gemeinde"},"district":{"key":"15083","name":"Börde","type":"Landkreis"},"federalState":{"key":"15","name":"Sachsen-Anhalt"}},{"name":"Zum Gut","postalCode":"39343","locality":"Hohe Börde","municipality":{"key":"15083298","name":"Hohe Börde","type":"Kreisangehörige_Gemeinde"},"district":{"key":"15083","name":"Börde","type":"Landkreis"},"federalState":{"key":"15","name":"Sachsen-Anhalt"}},{"name":"Zum Hoppelberg","postalCode":"39164","locality":"Wanzleben-Börde","municipality":{"key":"15083531","name":"Wanzleben-Börde, Stadt","type":"Stadt"},"district":{"key":"15083","name":"Börde","type":"Landkreis"},"federalState":{"key":"15","name":"Sachsen-Anhalt"}},{"name":"Zum Kaliberg","postalCode":"39326","locality":"Niedere Börde","municipality":{"key":"15083390","name":"Niedere Börde","type":"Kreisangehörige_Gemeinde"},"district":{"key":"15083","name":"Börde","type":"Landkreis"},"federalState":{"key":"15","name":"Sachsen-Anhalt"}},{"name":"Zum Krug","postalCode":"39343","locality":"Hohe Börde","municipality":{"key":"15083298","name":"Hohe Börde","type":"Kreisangehörige_Gemeinde"},"district":{"key":"15083","name":"Börde","type":"Landkreis"},"federalState":{"key":"15","name":"Sachsen-Anhalt"}},{"name":"Zum Olbetal","postalCode":"39343","locality":"Hohe Börde","municipality":{"key":"15083298","name":"Hohe Börde","type":"Kreisangehörige_Gemeinde"},"district":{"key":"15083","name":"Börde","type":"Landkreis"},"federalState":{"key":"15","name":"Sachsen-Anhalt"}},{"name":"Zum Raukler","postalCode":"39326","locality":"Hohe Börde","municipality":{"key":"15083298","name":"Hohe Börde","type":"Kreisangehörige_Gemeinde"},"district":{"key":"15083","name":"Börde","type":"Landkreis"},"federalState":{"key":"15","name":"Sachsen-Anhalt"}},{"name":"Zum Schloss","postalCode":"39167","locality":"Hohe Börde","municipality":{"key":"15083298","name":"Hohe Börde","type":"Kreisangehörige_Gemeinde"},"district":{"key":"15083","name":"Börde","type":"Landkreis"},"federalState":{"key":"15","name":"Sachsen-Anhalt"}},{"name":"Zum See","postalCode":"39326","locality":"Niedere Börde","municipality":{"key":"15083390","name":"Niedere Börde","type":"Kreisangehörige_Gemeinde"},"district":{"key":"15083","name":"Börde","type":"Landkreis"},"federalState":{"key":"15","name":"Sachsen-Anhalt"}},{"name":"Zum Seeblick","postalCode":"39326","locality":"Hohe Börde","municipality":{"key":"15083298","name":"Hohe Börde","type":"Kreisangehörige_Gemeinde"},"district":{"key":"15083","name":"Börde","type":"Landkreis"},"federalState":{"key":"15","name":"Sachsen-Anhalt"}},{"name":"Zum Siekweg","postalCode":"39343","locality":"Hohe Börde","municipality":{"key":"15083298","name":"Hohe Börde","type":"Kreisangehörige_Gemeinde"},"district":{"key":"15083","name":"Börde","type":"Landkreis"},"federalState":{"key":"15","name":"Sachsen-Anhalt"}},{"name":"Zum Sportplatz","postalCode":"39164","locality":"Wanzleben-Börde","municipality":{"key":"15083531","name":"Wanzleben-Börde, Stadt","type":"Stadt"},"district":{"key":"15083","name":"Börde","type":"Landkreis"},"federalState":{"key":"15","name":"Sachsen-Anhalt"}},{"name":"Zum Sportplatz","postalCode":"39343","locality":"Hohe Börde","municipality":{"key":"15083298","name":"Hohe Börde","type":"Kreisangehörige_Gemeinde"},"district":{"key":"15083","name":"Börde","type":"Landkreis"},"federalState":{"key":"15","name":"Sachsen-Anhalt"}},{"name":"Zum Stobenbrunnen","postalCode":"39343","locality":"Hohe Börde","municipality":{"key":"15083298","name":"Hohe Börde","type":"Kreisangehörige_Gemeinde"},"district":{"key":"15083","name":"Börde","type":"Landkreis"},"federalState":{"key":"15","name":"Sachsen-Anhalt"}},{"name":"Zum Tal","postalCode":"39167","locality":"Hohe Börde","municipality":{"key":"15083298","name":"Hohe Börde","type":"Kreisangehörige_Gemeinde"},"district":{"key":"15083","name":"Börde","type":"Landkreis"},"federalState":{"key":"15","name":"Sachsen-Anhalt"}},{"name":"Zum Wasserturm","postalCode":"39448","locality":"Börde-Hakel","municipality":{"key":"15089043","name":"Börde-Hakel","type":"Kreisangehörige_Gemeinde"},"district":{"key":"15089","name":"Salzlandkreis","type":"Landkreis"},"federalState":{"key":"15","name":"Sachsen-Anhalt"}},{"name":"Zum Wehr","postalCode":"39343","locality":"Hohe Börde","municipality":{"key":"15083298","name":"Hohe Börde","type":"Kreisangehörige_Gemeinde"},"district":{"key":"15083","name":"Börde","type":"Landkreis"},"federalState":{"key":"15","name":"Sachsen-Anhalt"}},{"name":"Zum Weißen Schacht","postalCode":"39343","locality":"Hohe Börde","municipality":{"key":"15083298","name":"Hohe Börde","type":"Kreisangehörige_Gemeinde"},"district":{"key":"15083","name":"Börde","type":"Landkreis"},"federalState":{"key":"15","name":"Sachsen-Anhalt"}},{"name":"Zum Winkel","postalCode":"39343","locality":"Hohe Börde","municipality":{"key":"15083298","name":"Hohe Börde","type":"Kreisangehörige_Gemeinde"},"district":{"key":"15083","name":"Börde","type":"Landkreis"},"federalState":{"key":"15","name":"Sachsen-Anhalt"}},{"name":"Zur alten Mühle","postalCode":"39326","locality":"Hohe Börde","municipality":{"key":"15083298","name":"Hohe Börde","type":"Kreisangehörige_Gemeinde"},"district":{"key":"15083","name":"Börde","type":"Landkreis"},"federalState":{"key":"15","name":"Sachsen-Anhalt"}},{"name":"Zur Daukuhle","postalCode":"39326","locality":"Niedere Börde","municipality":{"key":"15083390","name":"Niedere Börde","type":"Kreisangehörige_Gemeinde"},"district":{"key":"15083","name":"Börde","type":"Landkreis"},"federalState":{"key":"15","name":"Sachsen-Anhalt"}},{"name":"Zur hohlen Grube","postalCode":"39221","locality":"Bördeland","municipality":{"key":"15089042","name":"Bördeland","type":"Kreisangehörige_Gemeinde"},"district":{"key":"15089","name":"Salzlandkreis","type":"Landkreis"},"federalState":{"key":"15","name":"Sachsen-Anhalt"}},{"name":"Zur Jagdhütte","postalCode":"39164","locality":"Wanzleben-Börde","municipality":{"key":"15083531","name":"Wanzleben-Börde, Stadt","type":"Stadt"},"district":{"key":"15083","name":"Börde","type":"Landkreis"},"federalState":{"key":"15","name":"Sachsen-Anhalt"}},{"name":"Zur K1155","postalCode":"39167","locality":"Hohe Börde","municipality":{"key":"15083298","name":"Hohe Börde","type":"Kreisangehörige_Gemeinde"},"district":{"key":"15083","name":"Börde","type":"Landkreis"},"federalState":{"key":"15","name":"Sachsen-Anhalt"}},{"name":"Zur Magdeburger Str.","postalCode":"39164","locality":"Wanzleben-Börde","municipality":{"key":"15083531","name":"Wanzleben-Börde, Stadt","type":"Stadt"},"district":{"key":"15083","name":"Börde","type":"Landkreis"},"federalState":{"key":"15","name":"Sachsen-Anhalt"}},{"name":"Zur Molkerei","postalCode":"39448","locality":"Börde-Hakel","municipality":{"key":"15089043","name":"Börde-Hakel","type":"Kreisangehörige_Gemeinde"},"district":{"key":"15089","name":"Salzlandkreis","type":"Landkreis"},"federalState":{"key":"15","name":"Sachsen-Anhalt"}},{"name":"Zur Röthe","postalCode":"39164","locality":"Wanzleben-Börde","municipality":{"key":"15083531","name":"Wanzleben-Börde, Stadt","type":"Stadt"},"district":{"key":"15083","name":"Börde","type":"Landkreis"},"federalState":{"key":"15","name":"Sachsen-Anhalt"}},{"name":"Zur Technik","postalCode":"39221","locality":"Bördeland","municipality":{"key":"15089042","name":"Bördeland","type":"Kreisangehörige_Gemeinde"},"district":{"key":"15089","name":"Salzlandkreis","type":"Landkreis"},"federalState":{"key":"15","name":"Sachsen-Anhalt"}},{"name":"Zur Wilke","postalCode":"39326","locality":"Niedere Börde","municipality":{"key":"15083390","name":"Niedere Börde","type":"Kreisangehörige_Gemeinde"},"district":{"key":"15083","name":"Börde","type":"Landkreis"},"federalState":{"key":"15","name":"Sachsen-Anhalt"}},{"name":"Zur Zollstange","postalCode":"39343","locality":"Hohe Börde","municipality":{"key":"15083298","name":"Hohe Börde","type":"Kreisangehörige_Gemeinde"},"district":{"key":"15083","name":"Börde","type":"Landkreis"},"federalState":{"key":"15","name":"Sachsen-Anhalt"}},{"name":"Österling","postalCode":"39164","locality":"Wanzleben-Börde","municipality":{"key":"15083531","name":"Wanzleben-Börde, Stadt","type":"Stadt"},"district":{"key":"15083","name":"Börde","type":"Landkreis"},"federalState":{"key":"15","name":"Sachsen-Anhalt"}},]