[{"name":"Allmendweg","postalCode":"77887","locality":"Sasbachwalden","municipality":{"key":"08317118","name":"Sasbachwalden","type":"Kreisangehörige_Gemeinde"},"district":{"key":"08317","name":"Ortenaukreis","type":"Landkreis"},"federalState":{"key":"08","name":"Baden-Württemberg"}},{"name":"Am Altenrain","postalCode":"77887","locality":"Sasbachwalden","municipality":{"key":"08317118","name":"Sasbachwalden","type":"Kreisangehörige_Gemeinde"},"district":{"key":"08317","name":"Ortenaukreis","type":"Landkreis"},"federalState":{"key":"08","name":"Baden-Württemberg"}},{"name":"Am Glöckelshof","postalCode":"77887","locality":"Sasbachwalden","municipality":{"key":"08317118","name":"Sasbachwalden","type":"Kreisangehörige_Gemeinde"},"district":{"key":"08317","name":"Ortenaukreis","type":"Landkreis"},"federalState":{"key":"08","name":"Baden-Württemberg"}},{"name":"Am Hohacker","postalCode":"77887","locality":"Sasbachwalden","municipality":{"key":"08317118","name":"Sasbachwalden","type":"Kreisangehörige_Gemeinde"},"district":{"key":"08317","name":"Ortenaukreis","type":"Landkreis"},"federalState":{"key":"08","name":"Baden-Württemberg"}},{"name":"Am Kirchberg","postalCode":"77887","locality":"Sasbachwalden","municipality":{"key":"08317118","name":"Sasbachwalden","type":"Kreisangehörige_Gemeinde"},"district":{"key":"08317","name":"Ortenaukreis","type":"Landkreis"},"federalState":{"key":"08","name":"Baden-Württemberg"}},{"name":"Am Ruttersrain","postalCode":"77887","locality":"Sasbachwalden","municipality":{"key":"08317118","name":"Sasbachwalden","type":"Kreisangehörige_Gemeinde"},"district":{"key":"08317","name":"Ortenaukreis","type":"Landkreis"},"federalState":{"key":"08","name":"Baden-Württemberg"}},{"name":"Am Schelzberg","postalCode":"77887","locality":"Sasbachwalden","municipality":{"key":"08317118","name":"Sasbachwalden","type":"Kreisangehörige_Gemeinde"},"district":{"key":"08317","name":"Ortenaukreis","type":"Landkreis"},"federalState":{"key":"08","name":"Baden-Württemberg"}},{"name":"Am Schloßberg","postalCode":"77887","locality":"Sasbachwalden","municipality":{"key":"08317118","name":"Sasbachwalden","type":"Kreisangehörige_Gemeinde"},"district":{"key":"08317","name":"Ortenaukreis","type":"Landkreis"},"federalState":{"key":"08","name":"Baden-Württemberg"}},{"name":"Am Werth","postalCode":"77887","locality":"Sasbachwalden","municipality":{"key":"08317118","name":"Sasbachwalden","type":"Kreisangehörige_Gemeinde"},"district":{"key":"08317","name":"Ortenaukreis","type":"Landkreis"},"federalState":{"key":"08","name":"Baden-Württemberg"}},{"name":"An der Grinde","postalCode":"77887","locality":"Sasbachwalden","municipality":{"key":"08317118","name":"Sasbachwalden","type":"Kreisangehörige_Gemeinde"},"district":{"key":"08317","name":"Ortenaukreis","type":"Landkreis"},"federalState":{"key":"08","name":"Baden-Württemberg"}},{"name":"Auf der Eck","postalCode":"77887","locality":"Sasbachwalden","municipality":{"key":"08317118","name":"Sasbachwalden","type":"Kreisangehörige_Gemeinde"},"district":{"key":"08317","name":"Ortenaukreis","type":"Landkreis"},"federalState":{"key":"08","name":"Baden-Württemberg"}},{"name":"Auf der Golz","postalCode":"77887","locality":"Sasbachwalden","municipality":{"key":"08317118","name":"Sasbachwalden","type":"Kreisangehörige_Gemeinde"},"district":{"key":"08317","name":"Ortenaukreis","type":"Landkreis"},"federalState":{"key":"08","name":"Baden-Württemberg"}},{"name":"Bachmatt","postalCode":"77887","locality":"Sasbachwalden","municipality":{"key":"08317118","name":"Sasbachwalden","type":"Kreisangehörige_Gemeinde"},"district":{"key":"08317","name":"Ortenaukreis","type":"Landkreis"},"federalState":{"key":"08","name":"Baden-Württemberg"}},{"name":"Bärenäckerle","postalCode":"77887","locality":"Sasbachwalden","municipality":{"key":"08317118","name":"Sasbachwalden","type":"Kreisangehörige_Gemeinde"},"district":{"key":"08317","name":"Ortenaukreis","type":"Landkreis"},"federalState":{"key":"08","name":"Baden-Württemberg"}},{"name":"Bergstr.","postalCode":"77887","locality":"Sasbachwalden","municipality":{"key":"08317118","name":"Sasbachwalden","type":"Kreisangehörige_Gemeinde"},"district":{"key":"08317","name":"Ortenaukreis","type":"Landkreis"},"federalState":{"key":"08","name":"Baden-Württemberg"}},{"name":"Bergweide","postalCode":"77887","locality":"Sasbachwalden","municipality":{"key":"08317118","name":"Sasbachwalden","type":"Kreisangehörige_Gemeinde"},"district":{"key":"08317","name":"Ortenaukreis","type":"Landkreis"},"federalState":{"key":"08","name":"Baden-Württemberg"}},{"name":"Brandmatt","postalCode":"77887","locality":"Sasbachwalden","municipality":{"key":"08317118","name":"Sasbachwalden","type":"Kreisangehörige_Gemeinde"},"district":{"key":"08317","name":"Ortenaukreis","type":"Landkreis"},"federalState":{"key":"08","name":"Baden-Württemberg"}},{"name":"Brandrüttel","postalCode":"77887","locality":"Sasbachwalden","municipality":{"key":"08317118","name":"Sasbachwalden","type":"Kreisangehörige_Gemeinde"},"district":{"key":"08317","name":"Ortenaukreis","type":"Landkreis"},"federalState":{"key":"08","name":"Baden-Württemberg"}},{"name":"Büchelbach","postalCode":"77887","locality":"Sasbachwalden","municipality":{"key":"08317118","name":"Sasbachwalden","type":"Kreisangehörige_Gemeinde"},"district":{"key":"08317","name":"Ortenaukreis","type":"Landkreis"},"federalState":{"key":"08","name":"Baden-Württemberg"}},{"name":"Engelweg","postalCode":"77887","locality":"Sasbachwalden","municipality":{"key":"08317118","name":"Sasbachwalden","type":"Kreisangehörige_Gemeinde"},"district":{"key":"08317","name":"Ortenaukreis","type":"Landkreis"},"federalState":{"key":"08","name":"Baden-Württemberg"}},{"name":"Felsenweg","postalCode":"77887","locality":"Sasbachwalden","municipality":{"key":"08317118","name":"Sasbachwalden","type":"Kreisangehörige_Gemeinde"},"district":{"key":"08317","name":"Ortenaukreis","type":"Landkreis"},"federalState":{"key":"08","name":"Baden-Württemberg"}},{"name":"Frauenweg","postalCode":"77887","locality":"Sasbachwalden","municipality":{"key":"08317118","name":"Sasbachwalden","type":"Kreisangehörige_Gemeinde"},"district":{"key":"08317","name":"Ortenaukreis","type":"Landkreis"},"federalState":{"key":"08","name":"Baden-Württemberg"}},{"name":"Gaishölle","postalCode":"77887","locality":"Sasbachwalden","municipality":{"key":"08317118","name":"Sasbachwalden","type":"Kreisangehörige_Gemeinde"},"district":{"key":"08317","name":"Ortenaukreis","type":"Landkreis"},"federalState":{"key":"08","name":"Baden-Württemberg"}},{"name":"Gaishöllpark","postalCode":"77887","locality":"Sasbachwalden","municipality":{"key":"08317118","name":"Sasbachwalden","type":"Kreisangehörige_Gemeinde"},"district":{"key":"08317","name":"Ortenaukreis","type":"Landkreis"},"federalState":{"key":"08","name":"Baden-Württemberg"}},{"name":"Ginsterweg","postalCode":"77887","locality":"Sasbachwalden","municipality":{"key":"08317118","name":"Sasbachwalden","type":"Kreisangehörige_Gemeinde"},"district":{"key":"08317","name":"Ortenaukreis","type":"Landkreis"},"federalState":{"key":"08","name":"Baden-Württemberg"}},{"name":"Guthaltweg","postalCode":"77887","locality":"Sasbachwalden","municipality":{"key":"08317118","name":"Sasbachwalden","type":"Kreisangehörige_Gemeinde"},"district":{"key":"08317","name":"Ortenaukreis","type":"Landkreis"},"federalState":{"key":"08","name":"Baden-Württemberg"}},{"name":"Höfmatten","postalCode":"77887","locality":"Sasbachwalden","municipality":{"key":"08317118","name":"Sasbachwalden","type":"Kreisangehörige_Gemeinde"},"district":{"key":"08317","name":"Ortenaukreis","type":"Landkreis"},"federalState":{"key":"08","name":"Baden-Württemberg"}},{"name":"Hohritt","postalCode":"77887","locality":"Sasbachwalden","municipality":{"key":"08317118","name":"Sasbachwalden","type":"Kreisangehörige_Gemeinde"},"district":{"key":"08317","name":"Ortenaukreis","type":"Landkreis"},"federalState":{"key":"08","name":"Baden-Württemberg"}},{"name":"Horngasse","postalCode":"77887","locality":"Sasbachwalden","municipality":{"key":"08317118","name":"Sasbachwalden","type":"Kreisangehörige_Gemeinde"},"district":{"key":"08317","name":"Ortenaukreis","type":"Landkreis"},"federalState":{"key":"08","name":"Baden-Württemberg"}},{"name":"Hundeberg","postalCode":"77887","locality":"Sasbachwalden","municipality":{"key":"08317118","name":"Sasbachwalden","type":"Kreisangehörige_Gemeinde"},"district":{"key":"08317","name":"Ortenaukreis","type":"Landkreis"},"federalState":{"key":"08","name":"Baden-Württemberg"}},{"name":"Illengrund","postalCode":"77887","locality":"Sasbachwalden","municipality":{"key":"08317118","name":"Sasbachwalden","type":"Kreisangehörige_Gemeinde"},"district":{"key":"08317","name":"Ortenaukreis","type":"Landkreis"},"federalState":{"key":"08","name":"Baden-Württemberg"}},{"name":"Im Eichwald","postalCode":"77887","locality":"Sasbachwalden","municipality":{"key":"08317118","name":"Sasbachwalden","type":"Kreisangehörige_Gemeinde"},"district":{"key":"08317","name":"Ortenaukreis","type":"Landkreis"},"federalState":{"key":"08","name":"Baden-Württemberg"}},{"name":"Im Winkel","postalCode":"77887","locality":"Sasbachwalden","municipality":{"key":"08317118","name":"Sasbachwalden","type":"Kreisangehörige_Gemeinde"},"district":{"key":"08317","name":"Ortenaukreis","type":"Landkreis"},"federalState":{"key":"08","name":"Baden-Württemberg"}},{"name":"In den Erlen","postalCode":"77887","locality":"Sasbachwalden","municipality":{"key":"08317118","name":"Sasbachwalden","type":"Kreisangehörige_Gemeinde"},"district":{"key":"08317","name":"Ortenaukreis","type":"Landkreis"},"federalState":{"key":"08","name":"Baden-Württemberg"}},{"name":"In den Höfen","postalCode":"77887","locality":"Sasbachwalden","municipality":{"key":"08317118","name":"Sasbachwalden","type":"Kreisangehörige_Gemeinde"},"district":{"key":"08317","name":"Ortenaukreis","type":"Landkreis"},"federalState":{"key":"08","name":"Baden-Württemberg"}},{"name":"Kirchweg","postalCode":"77887","locality":"Sasbachwalden","municipality":{"key":"08317118","name":"Sasbachwalden","type":"Kreisangehörige_Gemeinde"},"district":{"key":"08317","name":"Ortenaukreis","type":"Landkreis"},"federalState":{"key":"08","name":"Baden-Württemberg"}},{"name":"Königsrainstr.","postalCode":"77887","locality":"Sasbachwalden","municipality":{"key":"08317118","name":"Sasbachwalden","type":"Kreisangehörige_Gemeinde"},"district":{"key":"08317","name":"Ortenaukreis","type":"Landkreis"},"federalState":{"key":"08","name":"Baden-Württemberg"}},{"name":"Langert","postalCode":"77887","locality":"Sasbachwalden","municipality":{"key":"08317118","name":"Sasbachwalden","type":"Kreisangehörige_Gemeinde"},"district":{"key":"08317","name":"Ortenaukreis","type":"Landkreis"},"federalState":{"key":"08","name":"Baden-Württemberg"}},{"name":"Markteichstr.","postalCode":"77887","locality":"Sasbachwalden","municipality":{"key":"08317118","name":"Sasbachwalden","type":"Kreisangehörige_Gemeinde"},"district":{"key":"08317","name":"Ortenaukreis","type":"Landkreis"},"federalState":{"key":"08","name":"Baden-Württemberg"}},{"name":"Michelbach","postalCode":"77887","locality":"Sasbachwalden","municipality":{"key":"08317118","name":"Sasbachwalden","type":"Kreisangehörige_Gemeinde"},"district":{"key":"08317","name":"Ortenaukreis","type":"Landkreis"},"federalState":{"key":"08","name":"Baden-Württemberg"}},{"name":"Rebbächel","postalCode":"77887","locality":"Sasbachwalden","municipality":{"key":"08317118","name":"Sasbachwalden","type":"Kreisangehörige_Gemeinde"},"district":{"key":"08317","name":"Ortenaukreis","type":"Landkreis"},"federalState":{"key":"08","name":"Baden-Württemberg"}},{"name":"Rebblick","postalCode":"77887","locality":"Sasbachwalden","municipality":{"key":"08317118","name":"Sasbachwalden","type":"Kreisangehörige_Gemeinde"},"district":{"key":"08317","name":"Ortenaukreis","type":"Landkreis"},"federalState":{"key":"08","name":"Baden-Württemberg"}},{"name":"Sandweg","postalCode":"77887","locality":"Sasbachwalden","municipality":{"key":"08317118","name":"Sasbachwalden","type":"Kreisangehörige_Gemeinde"},"district":{"key":"08317","name":"Ortenaukreis","type":"Landkreis"},"federalState":{"key":"08","name":"Baden-Württemberg"}},{"name":"Sasbachwaldener Str.","postalCode":"77887","locality":"Sasbachwalden","municipality":{"key":"08317118","name":"Sasbachwalden","type":"Kreisangehörige_Gemeinde"},"district":{"key":"08317","name":"Ortenaukreis","type":"Landkreis"},"federalState":{"key":"08","name":"Baden-Württemberg"}},{"name":"Schönbüchstr.","postalCode":"77887","locality":"Sasbachwalden","municipality":{"key":"08317118","name":"Sasbachwalden","type":"Kreisangehörige_Gemeinde"},"district":{"key":"08317","name":"Ortenaukreis","type":"Landkreis"},"federalState":{"key":"08","name":"Baden-Württemberg"}},{"name":"Talstr.","postalCode":"77887","locality":"Sasbachwalden","municipality":{"key":"08317118","name":"Sasbachwalden","type":"Kreisangehörige_Gemeinde"},"district":{"key":"08317","name":"Ortenaukreis","type":"Landkreis"},"federalState":{"key":"08","name":"Baden-Württemberg"}},{"name":"Terrassenpark","postalCode":"77887","locality":"Sasbachwalden","municipality":{"key":"08317118","name":"Sasbachwalden","type":"Kreisangehörige_Gemeinde"},"district":{"key":"08317","name":"Ortenaukreis","type":"Landkreis"},"federalState":{"key":"08","name":"Baden-Württemberg"}},{"name":"Unterstmatt","postalCode":"77887","locality":"Sasbachwalden","municipality":{"key":"08317118","name":"Sasbachwalden","type":"Kreisangehörige_Gemeinde"},"district":{"key":"08317","name":"Ortenaukreis","type":"Landkreis"},"federalState":{"key":"08","name":"Baden-Württemberg"}},{"name":"Vorstadt","postalCode":"77887","locality":"Sasbachwalden","municipality":{"key":"08317118","name":"Sasbachwalden","type":"Kreisangehörige_Gemeinde"},"district":{"key":"08317","name":"Ortenaukreis","type":"Landkreis"},"federalState":{"key":"08","name":"Baden-Württemberg"}},{"name":"Winterbach Weg","postalCode":"77887","locality":"Sasbachwalden","municipality":{"key":"08317118","name":"Sasbachwalden","type":"Kreisangehörige_Gemeinde"},"district":{"key":"08317","name":"Ortenaukreis","type":"Landkreis"},"federalState":{"key":"08","name":"Baden-Württemberg"}},]