[{"key":"10057962","name":"Aalmattenweg","postalCode":"2560","locality":"Nidau","commune":{"key":"743","name":"Nidau","shortName":"Nidau"},"district":{"key":"242","name":"Verwaltungskreis Biel/Bienne"},"canton":{"key":"2","code":"BE","name":"Bern / Berne"},"status":"Real"},{"key":"10112495","name":"Aarbergstrasse","postalCode":"2560","locality":"Nidau","commune":{"key":"743","name":"Nidau","shortName":"Nidau"},"district":{"key":"242","name":"Verwaltungskreis Biel/Bienne"},"canton":{"key":"2","code":"BE","name":"Bern / Berne"},"status":"Real"},{"key":"10137303","name":"Ahornweg","postalCode":"2560","locality":"Nidau","commune":{"key":"743","name":"Nidau","shortName":"Nidau"},"district":{"key":"242","name":"Verwaltungskreis Biel/Bienne"},"canton":{"key":"2","code":"BE","name":"Bern / Berne"},"status":"Real"},{"key":"10015639","name":"Alexander-Funk-Weg","postalCode":"2560","locality":"Nidau","commune":{"key":"743","name":"Nidau","shortName":"Nidau"},"district":{"key":"242","name":"Verwaltungskreis Biel/Bienne"},"canton":{"key":"2","code":"BE","name":"Bern / Berne"},"status":"Real"},{"key":"10090316","name":"Allmendstrasse","postalCode":"2560","locality":"Nidau","commune":{"key":"743","name":"Nidau","shortName":"Nidau"},"district":{"key":"242","name":"Verwaltungskreis Biel/Bienne"},"canton":{"key":"2","code":"BE","name":"Bern / Berne"},"status":"Real"},{"key":"10218491","name":"Bahnweg","postalCode":"2560","locality":"Nidau","commune":{"key":"743","name":"Nidau","shortName":"Nidau"},"district":{"key":"242","name":"Verwaltungskreis Biel/Bienne"},"canton":{"key":"2","code":"BE","name":"Bern / Berne"},"status":"Real"},{"key":"10015631","name":"Balainenweg","postalCode":"2560","locality":"Nidau","commune":{"key":"743","name":"Nidau","shortName":"Nidau"},"district":{"key":"242","name":"Verwaltungskreis Biel/Bienne"},"canton":{"key":"2","code":"BE","name":"Bern / Berne"},"status":"Real"},{"key":"10057963","name":"Barbenweg","postalCode":"2560","locality":"Nidau","commune":{"key":"743","name":"Nidau","shortName":"Nidau"},"district":{"key":"242","name":"Verwaltungskreis Biel/Bienne"},"canton":{"key":"2","code":"BE","name":"Bern / Berne"},"status":"Real"},{"key":"10015632","name":"Bernstrasse","postalCode":"2560","locality":"Nidau","commune":{"key":"743","name":"Nidau","shortName":"Nidau"},"district":{"key":"242","name":"Verwaltungskreis Biel/Bienne"},"canton":{"key":"2","code":"BE","name":"Bern / Berne"},"status":"Real"},{"key":"10131262","name":"Beundenring","postalCode":"2560","locality":"Nidau","commune":{"key":"743","name":"Nidau","shortName":"Nidau"},"district":{"key":"242","name":"Verwaltungskreis Biel/Bienne"},"canton":{"key":"2","code":"BE","name":"Bern / Berne"},"status":"Real"},{"key":"10090317","name":"Bielstrasse","postalCode":"2560","locality":"Nidau","commune":{"key":"743","name":"Nidau","shortName":"Nidau"},"district":{"key":"242","name":"Verwaltungskreis Biel/Bienne"},"canton":{"key":"2","code":"BE","name":"Bern / Berne"},"status":"Real"},{"key":"10015633","name":"Birkenweg","postalCode":"2560","locality":"Nidau","commune":{"key":"743","name":"Nidau","shortName":"Nidau"},"district":{"key":"242","name":"Verwaltungskreis Biel/Bienne"},"canton":{"key":"2","code":"BE","name":"Bern / Berne"},"status":"Real"},{"key":"10015635","name":"Böschenweg","postalCode":"2560","locality":"Nidau","commune":{"key":"743","name":"Nidau","shortName":"Nidau"},"district":{"key":"242","name":"Verwaltungskreis Biel/Bienne"},"canton":{"key":"2","code":"BE","name":"Bern / Berne"},"status":"Real"},{"key":"10057964","name":"Buchenweg","postalCode":"2560","locality":"Nidau","commune":{"key":"743","name":"Nidau","shortName":"Nidau"},"district":{"key":"242","name":"Verwaltungskreis Biel/Bienne"},"canton":{"key":"2","code":"BE","name":"Bern / Berne"},"status":"Real"},{"key":"10015634","name":"Burgerallee","postalCode":"2560","locality":"Nidau","commune":{"key":"743","name":"Nidau","shortName":"Nidau"},"district":{"key":"242","name":"Verwaltungskreis Biel/Bienne"},"canton":{"key":"2","code":"BE","name":"Bern / Berne"},"status":"Real"},{"key":"10090318","name":"Dr.-Schneider-Strasse","postalCode":"2560","locality":"Nidau","commune":{"key":"743","name":"Nidau","shortName":"Nidau"},"district":{"key":"242","name":"Verwaltungskreis Biel/Bienne"},"canton":{"key":"2","code":"BE","name":"Bern / Berne"},"status":"Real"},{"key":"10057965","name":"Eduard-Will-Strasse","postalCode":"2560","locality":"Nidau","commune":{"key":"743","name":"Nidau","shortName":"Nidau"},"district":{"key":"242","name":"Verwaltungskreis Biel/Bienne"},"canton":{"key":"2","code":"BE","name":"Bern / Berne"},"status":"Real"},{"key":"10015636","name":"Egliweg","postalCode":"2560","locality":"Nidau","commune":{"key":"743","name":"Nidau","shortName":"Nidau"},"district":{"key":"242","name":"Verwaltungskreis Biel/Bienne"},"canton":{"key":"2","code":"BE","name":"Bern / Berne"},"status":"Real"},{"key":"10112496","name":"Eichenweg","postalCode":"2560","locality":"Nidau","commune":{"key":"743","name":"Nidau","shortName":"Nidau"},"district":{"key":"242","name":"Verwaltungskreis Biel/Bienne"},"canton":{"key":"2","code":"BE","name":"Bern / Berne"},"status":"Real"},{"key":"10137302","name":"Erlenweg","postalCode":"2560","locality":"Nidau","commune":{"key":"743","name":"Nidau","shortName":"Nidau"},"district":{"key":"242","name":"Verwaltungskreis Biel/Bienne"},"canton":{"key":"2","code":"BE","name":"Bern / Berne"},"status":"Real"},{"key":"10137304","name":"Eschenweg","postalCode":"2560","locality":"Nidau","commune":{"key":"743","name":"Nidau","shortName":"Nidau"},"district":{"key":"242","name":"Verwaltungskreis Biel/Bienne"},"canton":{"key":"2","code":"BE","name":"Bern / Berne"},"status":"Real"},{"key":"10218494","name":"Feuerwehrweg","postalCode":"2560","locality":"Nidau","commune":{"key":"743","name":"Nidau","shortName":"Nidau"},"district":{"key":"242","name":"Verwaltungskreis Biel/Bienne"},"canton":{"key":"2","code":"BE","name":"Bern / Berne"},"status":"Real"},{"key":"10015638","name":"Flachserenweg","postalCode":"2560","locality":"Nidau","commune":{"key":"743","name":"Nidau","shortName":"Nidau"},"district":{"key":"242","name":"Verwaltungskreis Biel/Bienne"},"canton":{"key":"2","code":"BE","name":"Bern / Berne"},"status":"Real"},{"key":"10137305","name":"Flösserweg","postalCode":"2560","locality":"Nidau","commune":{"key":"743","name":"Nidau","shortName":"Nidau"},"district":{"key":"242","name":"Verwaltungskreis Biel/Bienne"},"canton":{"key":"2","code":"BE","name":"Bern / Berne"},"status":"Real"},{"key":"10090319","name":"Flurweg","postalCode":"2560","locality":"Nidau","commune":{"key":"743","name":"Nidau","shortName":"Nidau"},"district":{"key":"242","name":"Verwaltungskreis Biel/Bienne"},"canton":{"key":"2","code":"BE","name":"Bern / Berne"},"status":"Real"},{"key":"10057966","name":"Föhrenweg","postalCode":"2560","locality":"Nidau","commune":{"key":"743","name":"Nidau","shortName":"Nidau"},"district":{"key":"242","name":"Verwaltungskreis Biel/Bienne"},"canton":{"key":"2","code":"BE","name":"Bern / Berne"},"status":"Real"},{"key":"10218498","name":"Fritz-Rufer-Weg","postalCode":"2560","locality":"Nidau","commune":{"key":"743","name":"Nidau","shortName":"Nidau"},"district":{"key":"242","name":"Verwaltungskreis Biel/Bienne"},"canton":{"key":"2","code":"BE","name":"Bern / Berne"},"status":"Real"},{"key":"10137306","name":"Fröschenweg","postalCode":"2560","locality":"Nidau","commune":{"key":"743","name":"Nidau","shortName":"Nidau"},"district":{"key":"242","name":"Verwaltungskreis Biel/Bienne"},"canton":{"key":"2","code":"BE","name":"Bern / Berne"},"status":"Real"},{"key":"10192254","name":"Genossenschaftsstrasse","postalCode":"2560","locality":"Nidau","commune":{"key":"743","name":"Nidau","shortName":"Nidau"},"district":{"key":"242","name":"Verwaltungskreis Biel/Bienne"},"canton":{"key":"2","code":"BE","name":"Bern / Berne"},"status":"Real"},{"key":"10089459","name":"Gerberweg","postalCode":"2560","locality":"Nidau","commune":{"key":"743","name":"Nidau","shortName":"Nidau"},"district":{"key":"242","name":"Verwaltungskreis Biel/Bienne"},"canton":{"key":"2","code":"BE","name":"Bern / Berne"},"status":"Real"},{"key":"10015640","name":"Gotthelfstrasse","postalCode":"2560","locality":"Nidau","commune":{"key":"743","name":"Nidau","shortName":"Nidau"},"district":{"key":"242","name":"Verwaltungskreis Biel/Bienne"},"canton":{"key":"2","code":"BE","name":"Bern / Berne"},"status":"Real"},{"key":"10015641","name":"Grasgartenweg","postalCode":"2560","locality":"Nidau","commune":{"key":"743","name":"Nidau","shortName":"Nidau"},"district":{"key":"242","name":"Verwaltungskreis Biel/Bienne"},"canton":{"key":"2","code":"BE","name":"Bern / Berne"},"status":"Real"},{"key":"10115906","name":"Grenzstrasse","postalCode":"2560","locality":"Nidau","commune":{"key":"743","name":"Nidau","shortName":"Nidau"},"district":{"key":"242","name":"Verwaltungskreis Biel/Bienne"},"canton":{"key":"2","code":"BE","name":"Bern / Berne"},"status":"Real"},{"key":"10180644","name":"Guglerstrasse","postalCode":"2560","locality":"Nidau","commune":{"key":"743","name":"Nidau","shortName":"Nidau"},"district":{"key":"242","name":"Verwaltungskreis Biel/Bienne"},"canton":{"key":"2","code":"BE","name":"Bern / Berne"},"status":"Real"},{"key":"10112497","name":"Gurnigelstrasse","postalCode":"2560","locality":"Nidau","commune":{"key":"743","name":"Nidau","shortName":"Nidau"},"district":{"key":"242","name":"Verwaltungskreis Biel/Bienne"},"canton":{"key":"2","code":"BE","name":"Bern / Berne"},"status":"Real"},{"key":"10015642","name":"Gwerdtstrasse","postalCode":"2560","locality":"Nidau","commune":{"key":"743","name":"Nidau","shortName":"Nidau"},"district":{"key":"242","name":"Verwaltungskreis Biel/Bienne"},"canton":{"key":"2","code":"BE","name":"Bern / Berne"},"status":"Real"},{"key":"10137307","name":"Haselweg","postalCode":"2560","locality":"Nidau","commune":{"key":"743","name":"Nidau","shortName":"Nidau"},"district":{"key":"242","name":"Verwaltungskreis Biel/Bienne"},"canton":{"key":"2","code":"BE","name":"Bern / Berne"},"status":"Real"},{"key":"10089460","name":"Hauptstrasse","postalCode":"2560","locality":"Nidau","commune":{"key":"743","name":"Nidau","shortName":"Nidau"},"district":{"key":"242","name":"Verwaltungskreis Biel/Bienne"},"canton":{"key":"2","code":"BE","name":"Bern / Berne"},"status":"Real"},{"key":"10058248","name":"Hechtenweg","postalCode":"2560","locality":"Nidau","commune":{"key":"743","name":"Nidau","shortName":"Nidau"},"district":{"key":"242","name":"Verwaltungskreis Biel/Bienne"},"canton":{"key":"2","code":"BE","name":"Bern / Berne"},"status":"Real"},{"key":"10011989","name":"Helmstrasse","postalCode":"2560","locality":"Nidau","commune":{"key":"743","name":"Nidau","shortName":"Nidau"},"district":{"key":"242","name":"Verwaltungskreis Biel/Bienne"},"canton":{"key":"2","code":"BE","name":"Bern / Berne"},"status":"Real"},{"key":"10109864","name":"Herrenmoosweg","postalCode":"2560","locality":"Nidau","commune":{"key":"743","name":"Nidau","shortName":"Nidau"},"district":{"key":"242","name":"Verwaltungskreis Biel/Bienne"},"canton":{"key":"2","code":"BE","name":"Bern / Berne"},"status":"Real"},{"key":"10049573","name":"Hofmattenstrasse","postalCode":"2560","locality":"Nidau","commune":{"key":"743","name":"Nidau","shortName":"Nidau"},"district":{"key":"242","name":"Verwaltungskreis Biel/Bienne"},"canton":{"key":"2","code":"BE","name":"Bern / Berne"},"status":"Real"},{"key":"10015643","name":"Ipsachstrasse","postalCode":"2560","locality":"Nidau","commune":{"key":"743","name":"Nidau","shortName":"Nidau"},"district":{"key":"242","name":"Verwaltungskreis Biel/Bienne"},"canton":{"key":"2","code":"BE","name":"Bern / Berne"},"status":"Real"},{"key":"10137308","name":"Kastanienweg","postalCode":"2560","locality":"Nidau","commune":{"key":"743","name":"Nidau","shortName":"Nidau"},"district":{"key":"242","name":"Verwaltungskreis Biel/Bienne"},"canton":{"key":"2","code":"BE","name":"Bern / Berne"},"status":"Real"},{"key":"10137309","name":"Keltenstrasse","postalCode":"2560","locality":"Nidau","commune":{"key":"743","name":"Nidau","shortName":"Nidau"},"district":{"key":"242","name":"Verwaltungskreis Biel/Bienne"},"canton":{"key":"2","code":"BE","name":"Bern / Berne"},"status":"Real"},{"key":"10128022","name":"Knettnauweg","postalCode":"2560","locality":"Nidau","commune":{"key":"743","name":"Nidau","shortName":"Nidau"},"district":{"key":"242","name":"Verwaltungskreis Biel/Bienne"},"canton":{"key":"2","code":"BE","name":"Bern / Berne"},"status":"Real"},{"key":"10089461","name":"Krebsweg","postalCode":"2560","locality":"Nidau","commune":{"key":"743","name":"Nidau","shortName":"Nidau"},"district":{"key":"242","name":"Verwaltungskreis Biel/Bienne"},"canton":{"key":"2","code":"BE","name":"Bern / Berne"},"status":"Real"},{"key":"10059395","name":"Längackerstrasse","postalCode":"2560","locality":"Nidau","commune":{"key":"743","name":"Nidau","shortName":"Nidau"},"district":{"key":"242","name":"Verwaltungskreis Biel/Bienne"},"canton":{"key":"2","code":"BE","name":"Bern / Berne"},"status":"Real"},{"key":"10058249","name":"Längmatt","postalCode":"2560","locality":"Nidau","commune":{"key":"743","name":"Nidau","shortName":"Nidau"},"district":{"key":"242","name":"Verwaltungskreis Biel/Bienne"},"canton":{"key":"2","code":"BE","name":"Bern / Berne"},"status":"Real"},{"key":"10137310","name":"Lindenweg","postalCode":"2560","locality":"Nidau","commune":{"key":"743","name":"Nidau","shortName":"Nidau"},"district":{"key":"242","name":"Verwaltungskreis Biel/Bienne"},"canton":{"key":"2","code":"BE","name":"Bern / Berne"},"status":"Real"},{"key":"10049574","name":"Lyss-Strasse","postalCode":"2560","locality":"Nidau","commune":{"key":"743","name":"Nidau","shortName":"Nidau"},"district":{"key":"242","name":"Verwaltungskreis Biel/Bienne"},"canton":{"key":"2","code":"BE","name":"Bern / Berne"},"status":"Real"},{"key":"10015644","name":"Martiweg","postalCode":"2560","locality":"Nidau","commune":{"key":"743","name":"Nidau","shortName":"Nidau"},"district":{"key":"242","name":"Verwaltungskreis Biel/Bienne"},"canton":{"key":"2","code":"BE","name":"Bern / Berne"},"status":"Real"},{"key":"10137311","name":"Mattenstrasse","postalCode":"2560","locality":"Nidau","commune":{"key":"743","name":"Nidau","shortName":"Nidau"},"district":{"key":"242","name":"Verwaltungskreis Biel/Bienne"},"canton":{"key":"2","code":"BE","name":"Bern / Berne"},"status":"Real"},{"key":"10137312","name":"Mikronweg","postalCode":"2560","locality":"Nidau","commune":{"key":"743","name":"Nidau","shortName":"Nidau"},"district":{"key":"242","name":"Verwaltungskreis Biel/Bienne"},"canton":{"key":"2","code":"BE","name":"Bern / Berne"},"status":"Real"},{"key":"10140696","name":"Milanweg","postalCode":"2560","locality":"Nidau","commune":{"key":"743","name":"Nidau","shortName":"Nidau"},"district":{"key":"242","name":"Verwaltungskreis Biel/Bienne"},"canton":{"key":"2","code":"BE","name":"Bern / Berne"},"status":"Real"},{"key":"10015645","name":"Mittelstrasse","postalCode":"2560","locality":"Nidau","commune":{"key":"743","name":"Nidau","shortName":"Nidau"},"district":{"key":"242","name":"Verwaltungskreis Biel/Bienne"},"canton":{"key":"2","code":"BE","name":"Bern / Berne"},"status":"Real"},{"key":"10049575","name":"Mövenweg","postalCode":"2560","locality":"Nidau","commune":{"key":"743","name":"Nidau","shortName":"Nidau"},"district":{"key":"242","name":"Verwaltungskreis Biel/Bienne"},"canton":{"key":"2","code":"BE","name":"Bern / Berne"},"status":"Real"},{"key":"10089462","name":"Mühlerunsweg","postalCode":"2560","locality":"Nidau","commune":{"key":"743","name":"Nidau","shortName":"Nidau"},"district":{"key":"242","name":"Verwaltungskreis Biel/Bienne"},"canton":{"key":"2","code":"BE","name":"Bern / Berne"},"status":"Real"},{"key":"10015646","name":"Oberer Kanalweg","postalCode":"2560","locality":"Nidau","commune":{"key":"743","name":"Nidau","shortName":"Nidau"},"district":{"key":"242","name":"Verwaltungskreis Biel/Bienne"},"canton":{"key":"2","code":"BE","name":"Bern / Berne"},"status":"Real"},{"key":"10187136","name":"Ohmweg","postalCode":"2560","locality":"Nidau","commune":{"key":"743","name":"Nidau","shortName":"Nidau"},"district":{"key":"242","name":"Verwaltungskreis Biel/Bienne"},"canton":{"key":"2","code":"BE","name":"Bern / Berne"},"status":"Real"},{"key":"10058250","name":"Paganweg","postalCode":"2560","locality":"Nidau","commune":{"key":"743","name":"Nidau","shortName":"Nidau"},"district":{"key":"242","name":"Verwaltungskreis Biel/Bienne"},"canton":{"key":"2","code":"BE","name":"Bern / Berne"},"status":"Real"},{"key":"10015647","name":"Pappelweg","postalCode":"2560","locality":"Nidau","commune":{"key":"743","name":"Nidau","shortName":"Nidau"},"district":{"key":"242","name":"Verwaltungskreis Biel/Bienne"},"canton":{"key":"2","code":"BE","name":"Bern / Berne"},"status":"Real"},{"key":"10131164","name":"Portmoosstrasse","postalCode":"2560","locality":"Nidau","commune":{"key":"743","name":"Nidau","shortName":"Nidau"},"district":{"key":"242","name":"Verwaltungskreis Biel/Bienne"},"canton":{"key":"2","code":"BE","name":"Bern / Berne"},"status":"Real"},{"key":"10123119","name":"Querstrasse","postalCode":"2560","locality":"Nidau","commune":{"key":"743","name":"Nidau","shortName":"Nidau"},"district":{"key":"242","name":"Verwaltungskreis Biel/Bienne"},"canton":{"key":"2","code":"BE","name":"Bern / Berne"},"status":"Real"},{"key":"10049576","name":"Reckweg","postalCode":"2560","locality":"Nidau","commune":{"key":"743","name":"Nidau","shortName":"Nidau"},"district":{"key":"242","name":"Verwaltungskreis Biel/Bienne"},"canton":{"key":"2","code":"BE","name":"Bern / Berne"},"status":"Real"},{"key":"10011999","name":"Ringstrasse","postalCode":"2560","locality":"Nidau","commune":{"key":"743","name":"Nidau","shortName":"Nidau"},"district":{"key":"242","name":"Verwaltungskreis Biel/Bienne"},"canton":{"key":"2","code":"BE","name":"Bern / Berne"},"status":"Real"},{"key":"10012000","name":"Römerstrasse","postalCode":"2560","locality":"Nidau","commune":{"key":"743","name":"Nidau","shortName":"Nidau"},"district":{"key":"242","name":"Verwaltungskreis Biel/Bienne"},"canton":{"key":"2","code":"BE","name":"Bern / Berne"},"status":"Real"},{"key":"10015648","name":"Rönnerweg","postalCode":"2560","locality":"Nidau","commune":{"key":"743","name":"Nidau","shortName":"Nidau"},"district":{"key":"242","name":"Verwaltungskreis Biel/Bienne"},"canton":{"key":"2","code":"BE","name":"Bern / Berne"},"status":"Real"},{"key":"10112498","name":"Rosenweg","postalCode":"2560","locality":"Nidau","commune":{"key":"743","name":"Nidau","shortName":"Nidau"},"district":{"key":"242","name":"Verwaltungskreis Biel/Bienne"},"canton":{"key":"2","code":"BE","name":"Bern / Berne"},"status":"Real"},{"key":"10218503","name":"Schaalgässli","postalCode":"2560","locality":"Nidau","commune":{"key":"743","name":"Nidau","shortName":"Nidau"},"district":{"key":"242","name":"Verwaltungskreis Biel/Bienne"},"canton":{"key":"2","code":"BE","name":"Bern / Berne"},"status":"Real"},{"key":"10058251","name":"Schleusenweg","postalCode":"2560","locality":"Nidau","commune":{"key":"743","name":"Nidau","shortName":"Nidau"},"district":{"key":"242","name":"Verwaltungskreis Biel/Bienne"},"canton":{"key":"2","code":"BE","name":"Bern / Berne"},"status":"Real"},{"key":"10049578","name":"Schloss-Strasse","postalCode":"2560","locality":"Nidau","commune":{"key":"743","name":"Nidau","shortName":"Nidau"},"district":{"key":"242","name":"Verwaltungskreis Biel/Bienne"},"canton":{"key":"2","code":"BE","name":"Bern / Berne"},"status":"Real"},{"key":"10089463","name":"Schulgasse","postalCode":"2560","locality":"Nidau","commune":{"key":"743","name":"Nidau","shortName":"Nidau"},"district":{"key":"242","name":"Verwaltungskreis Biel/Bienne"},"canton":{"key":"2","code":"BE","name":"Bern / Berne"},"status":"Real"},{"key":"10015649","name":"Schützenmattweg","postalCode":"2560","locality":"Nidau","commune":{"key":"743","name":"Nidau","shortName":"Nidau"},"district":{"key":"242","name":"Verwaltungskreis Biel/Bienne"},"canton":{"key":"2","code":"BE","name":"Bern / Berne"},"status":"Real"},{"key":"10011964","name":"Stadtgraben","postalCode":"2560","locality":"Nidau","commune":{"key":"743","name":"Nidau","shortName":"Nidau"},"district":{"key":"242","name":"Verwaltungskreis Biel/Bienne"},"canton":{"key":"2","code":"BE","name":"Bern / Berne"},"status":"Real"},{"key":"10089464","name":"Strandweg","postalCode":"2560","locality":"Nidau","commune":{"key":"743","name":"Nidau","shortName":"Nidau"},"district":{"key":"242","name":"Verwaltungskreis Biel/Bienne"},"canton":{"key":"2","code":"BE","name":"Bern / Berne"},"status":"Real"},{"key":"10049579","name":"Turmweg","postalCode":"2560","locality":"Nidau","commune":{"key":"743","name":"Nidau","shortName":"Nidau"},"district":{"key":"242","name":"Verwaltungskreis Biel/Bienne"},"canton":{"key":"2","code":"BE","name":"Bern / Berne"},"status":"Real"},{"key":"10058252","name":"Uferweg","postalCode":"2560","locality":"Nidau","commune":{"key":"743","name":"Nidau","shortName":"Nidau"},"district":{"key":"242","name":"Verwaltungskreis Biel/Bienne"},"canton":{"key":"2","code":"BE","name":"Bern / Berne"},"status":"Real"},{"key":"10011965","name":"Ulmenweg","postalCode":"2560","locality":"Nidau","commune":{"key":"743","name":"Nidau","shortName":"Nidau"},"district":{"key":"242","name":"Verwaltungskreis Biel/Bienne"},"canton":{"key":"2","code":"BE","name":"Bern / Berne"},"status":"Real"},{"key":"10102731","name":"Unterer Kanalweg","postalCode":"2560","locality":"Nidau","commune":{"key":"743","name":"Nidau","shortName":"Nidau"},"district":{"key":"242","name":"Verwaltungskreis Biel/Bienne"},"canton":{"key":"2","code":"BE","name":"Bern / Berne"},"status":"Real"},{"key":"10050577","name":"Unterer Kanalweg","postalCode":"2560","locality":"Nidau","commune":{"key":"743","name":"Nidau","shortName":"Nidau"},"district":{"key":"242","name":"Verwaltungskreis Biel/Bienne"},"canton":{"key":"2","code":"BE","name":"Bern / Berne"},"status":"Real"},{"key":"10011966","name":"Weyermattstrasse","postalCode":"2560","locality":"Nidau","commune":{"key":"743","name":"Nidau","shortName":"Nidau"},"district":{"key":"242","name":"Verwaltungskreis Biel/Bienne"},"canton":{"key":"2","code":"BE","name":"Bern / Berne"},"status":"Real"},{"key":"10089465","name":"Weyernweg","postalCode":"2560","locality":"Nidau","commune":{"key":"743","name":"Nidau","shortName":"Nidau"},"district":{"key":"242","name":"Verwaltungskreis Biel/Bienne"},"canton":{"key":"2","code":"BE","name":"Bern / Berne"},"status":"Real"},{"key":"10049580","name":"Wolfweg","postalCode":"2560","locality":"Nidau","commune":{"key":"743","name":"Nidau","shortName":"Nidau"},"district":{"key":"242","name":"Verwaltungskreis Biel/Bienne"},"canton":{"key":"2","code":"BE","name":"Bern / Berne"},"status":"Real"},{"key":"10140697","name":"Wydenweg","postalCode":"2560","locality":"Nidau","commune":{"key":"743","name":"Nidau","shortName":"Nidau"},"district":{"key":"242","name":"Verwaltungskreis Biel/Bienne"},"canton":{"key":"2","code":"BE","name":"Bern / Berne"},"status":"Real"},{"key":"10192255","name":"Zihlstrasse","postalCode":"2560","locality":"Nidau","commune":{"key":"743","name":"Nidau","shortName":"Nidau"},"district":{"key":"242","name":"Verwaltungskreis Biel/Bienne"},"canton":{"key":"2","code":"BE","name":"Bern / Berne"},"status":"Real"},{"key":"10219331","name":"Zihluferweg","postalCode":"2560","locality":"Nidau","commune":{"key":"743","name":"Nidau","shortName":"Nidau"},"district":{"key":"242","name":"Verwaltungskreis Biel/Bienne"},"canton":{"key":"2","code":"BE","name":"Bern / Berne"},"status":"Real"},]