[{"name":"16-Büchles-Weg","postalCode":"71735","locality":"Eberdingen","municipality":{"key":"08118012","name":"Eberdingen","type":"Kreisangehörige_Gemeinde"},"district":{"key":"08118","name":"Ludwigsburg","type":"Landkreis"},"federalState":{"key":"08","name":"Baden-Württemberg"}},{"name":"1. Waldweg","postalCode":"75038","locality":"Oberderdingen","municipality":{"key":"08215059","name":"Oberderdingen","type":"Kreisangehörige_Gemeinde"},"district":{"key":"08215","name":"Karlsruhe","type":"Landkreis"},"federalState":{"key":"08","name":"Baden-Württemberg"}},{"name":"2. Waldweg","postalCode":"75038","locality":"Oberderdingen","municipality":{"key":"08215059","name":"Oberderdingen","type":"Kreisangehörige_Gemeinde"},"district":{"key":"08215","name":"Karlsruhe","type":"Landkreis"},"federalState":{"key":"08","name":"Baden-Württemberg"}},{"name":"3. Waldweg","postalCode":"75038","locality":"Oberderdingen","municipality":{"key":"08215059","name":"Oberderdingen","type":"Kreisangehörige_Gemeinde"},"district":{"key":"08215","name":"Karlsruhe","type":"Landkreis"},"federalState":{"key":"08","name":"Baden-Württemberg"}},{"name":"Ahornweg","postalCode":"85459","locality":"Berglern","municipality":{"key":"09177112","name":"Berglern","type":"Kreisangehörige_Gemeinde"},"district":{"key":"09177","name":"Erding","type":"Landkreis"},"federalState":{"key":"09","name":"Bayern"}},{"name":"Am Altwasser","postalCode":"85459","locality":"Berglern","municipality":{"key":"09177112","name":"Berglern","type":"Kreisangehörige_Gemeinde"},"district":{"key":"09177","name":"Erding","type":"Landkreis"},"federalState":{"key":"09","name":"Bayern"}},{"name":"Am Anger","postalCode":"85459","locality":"Berglern","municipality":{"key":"09177112","name":"Berglern","type":"Kreisangehörige_Gemeinde"},"district":{"key":"09177","name":"Erding","type":"Landkreis"},"federalState":{"key":"09","name":"Bayern"}},{"name":"Am Dorfanger","postalCode":"85459","locality":"Berglern","municipality":{"key":"09177112","name":"Berglern","type":"Kreisangehörige_Gemeinde"},"district":{"key":"09177","name":"Erding","type":"Landkreis"},"federalState":{"key":"09","name":"Bayern"}},{"name":"Am Friedfeld","postalCode":"85459","locality":"Berglern","municipality":{"key":"09177112","name":"Berglern","type":"Kreisangehörige_Gemeinde"},"district":{"key":"09177","name":"Erding","type":"Landkreis"},"federalState":{"key":"09","name":"Bayern"}},{"name":"Am Kleinfeld","postalCode":"85459","locality":"Berglern","municipality":{"key":"09177112","name":"Berglern","type":"Kreisangehörige_Gemeinde"},"district":{"key":"09177","name":"Erding","type":"Landkreis"},"federalState":{"key":"09","name":"Bayern"}},{"name":"Am Lohfeld","postalCode":"85459","locality":"Berglern","municipality":{"key":"09177112","name":"Berglern","type":"Kreisangehörige_Gemeinde"},"district":{"key":"09177","name":"Erding","type":"Landkreis"},"federalState":{"key":"09","name":"Bayern"}},{"name":"Am Mitterfeld","postalCode":"85459","locality":"Berglern","municipality":{"key":"09177112","name":"Berglern","type":"Kreisangehörige_Gemeinde"},"district":{"key":"09177","name":"Erding","type":"Landkreis"},"federalState":{"key":"09","name":"Bayern"}},{"name":"Am Sportplatz","postalCode":"85459","locality":"Berglern","municipality":{"key":"09177112","name":"Berglern","type":"Kreisangehörige_Gemeinde"},"district":{"key":"09177","name":"Erding","type":"Landkreis"},"federalState":{"key":"09","name":"Bayern"}},{"name":"Am Wasserwerk","postalCode":"85459","locality":"Berglern","municipality":{"key":"09177112","name":"Berglern","type":"Kreisangehörige_Gemeinde"},"district":{"key":"09177","name":"Erding","type":"Landkreis"},"federalState":{"key":"09","name":"Bayern"}},{"name":"Am Wehr","postalCode":"85459","locality":"Berglern","municipality":{"key":"09177112","name":"Berglern","type":"Kreisangehörige_Gemeinde"},"district":{"key":"09177","name":"Erding","type":"Landkreis"},"federalState":{"key":"09","name":"Bayern"}},{"name":"Am Weiher","postalCode":"85459","locality":"Berglern","municipality":{"key":"09177112","name":"Berglern","type":"Kreisangehörige_Gemeinde"},"district":{"key":"09177","name":"Erding","type":"Landkreis"},"federalState":{"key":"09","name":"Bayern"}},{"name":"An der Mühle","postalCode":"85459","locality":"Berglern","municipality":{"key":"09177112","name":"Berglern","type":"Kreisangehörige_Gemeinde"},"district":{"key":"09177","name":"Erding","type":"Landkreis"},"federalState":{"key":"09","name":"Bayern"}},{"name":"Bajuwarenhof","postalCode":"85459","locality":"Berglern","municipality":{"key":"09177112","name":"Berglern","type":"Kreisangehörige_Gemeinde"},"district":{"key":"09177","name":"Erding","type":"Landkreis"},"federalState":{"key":"09","name":"Bayern"}},{"name":"Bgm.-Strobl-Str.","postalCode":"85459","locality":"Berglern","municipality":{"key":"09177112","name":"Berglern","type":"Kreisangehörige_Gemeinde"},"district":{"key":"09177","name":"Erding","type":"Landkreis"},"federalState":{"key":"09","name":"Bayern"}},{"name":"Birkenweg","postalCode":"85459","locality":"Berglern","municipality":{"key":"09177112","name":"Berglern","type":"Kreisangehörige_Gemeinde"},"district":{"key":"09177","name":"Erding","type":"Landkreis"},"federalState":{"key":"09","name":"Bayern"}},{"name":"Blümelwiese","postalCode":"85459","locality":"Berglern","municipality":{"key":"09177112","name":"Berglern","type":"Kreisangehörige_Gemeinde"},"district":{"key":"09177","name":"Erding","type":"Landkreis"},"federalState":{"key":"09","name":"Bayern"}},{"name":"Bürgermeister-Riedl-Weg","postalCode":"85459","locality":"Berglern","municipality":{"key":"09177112","name":"Berglern","type":"Kreisangehörige_Gemeinde"},"district":{"key":"09177","name":"Erding","type":"Landkreis"},"federalState":{"key":"09","name":"Bayern"}},{"name":"Camp Reinsehlen","postalCode":"29640","locality":"Schneverdingen","municipality":{"key":"03358019","name":"Schneverdingen, Stadt","type":"Stadt"},"district":{"key":"03358","name":"Heidekreis","type":"Landkreis"},"federalState":{"key":"03","name":"Niedersachsen"}},{"name":"Cantlerstr.","postalCode":"85435","locality":"Erding","municipality":{"key":"09177117","name":"Erding, GKSt","type":"Große_Kreisstadt"},"district":{"key":"09177","name":"Erding","type":"Landkreis"},"federalState":{"key":"09","name":"Bayern"}},{"name":"Carl-Neff-Str.","postalCode":"75038","locality":"Oberderdingen","municipality":{"key":"08215059","name":"Oberderdingen","type":"Kreisangehörige_Gemeinde"},"district":{"key":"08215","name":"Karlsruhe","type":"Landkreis"},"federalState":{"key":"08","name":"Baden-Württemberg"}},{"name":"Carl-Orff-Weg","postalCode":"70771","locality":"Leinfelden-Echterdingen","municipality":{"key":"08116078","name":"Leinfelden-Echterdingen, Stadt","type":"Große_Kreisstadt"},"district":{"key":"08116","name":"Esslingen","type":"Landkreis"},"federalState":{"key":"08","name":"Baden-Württemberg"}},{"name":"Carl-Spitzweg-Str.","postalCode":"70771","locality":"Leinfelden-Echterdingen","municipality":{"key":"08116078","name":"Leinfelden-Echterdingen, Stadt","type":"Große_Kreisstadt"},"district":{"key":"08116","name":"Esslingen","type":"Landkreis"},"federalState":{"key":"08","name":"Baden-Württemberg"}},{"name":"Charlottenweg","postalCode":"70771","locality":"Leinfelden-Echterdingen","municipality":{"key":"08116078","name":"Leinfelden-Echterdingen, Stadt","type":"Große_Kreisstadt"},"district":{"key":"08116","name":"Esslingen","type":"Landkreis"},"federalState":{"key":"08","name":"Baden-Württemberg"}},{"name":"Chisonestr.","postalCode":"75038","locality":"Oberderdingen","municipality":{"key":"08215059","name":"Oberderdingen","type":"Kreisangehörige_Gemeinde"},"district":{"key":"08215","name":"Karlsruhe","type":"Landkreis"},"federalState":{"key":"08","name":"Baden-Württemberg"}},{"name":"Christian-Jorhan-Str.","postalCode":"85445","locality":"Oberding","municipality":{"key":"09177133","name":"Oberding","type":"Kreisangehörige_Gemeinde"},"district":{"key":"09177","name":"Erding","type":"Landkreis"},"federalState":{"key":"09","name":"Bayern"}},{"name":"Christofstr.","postalCode":"71701","locality":"Schwieberdingen","municipality":{"key":"08118067","name":"Schwieberdingen","type":"Kreisangehörige_Gemeinde"},"district":{"key":"08118","name":"Ludwigsburg","type":"Landkreis"},"federalState":{"key":"08","name":"Baden-Württemberg"}},{"name":"Christofstr.","postalCode":"72127","locality":"Kusterdingen","municipality":{"key":"08416023","name":"Kusterdingen","type":"Kreisangehörige_Gemeinde"},"district":{"key":"08416","name":"Tübingen","type":"Landkreis"},"federalState":{"key":"08","name":"Baden-Württemberg"}},{"name":"Christophstr.","postalCode":"70771","locality":"Leinfelden-Echterdingen","municipality":{"key":"08116078","name":"Leinfelden-Echterdingen, Stadt","type":"Große_Kreisstadt"},"district":{"key":"08116","name":"Esslingen","type":"Landkreis"},"federalState":{"key":"08","name":"Baden-Württemberg"}},{"name":"Clara-Schumann-Str.","postalCode":"71701","locality":"Schwieberdingen","municipality":{"key":"08118067","name":"Schwieberdingen","type":"Kreisangehörige_Gemeinde"},"district":{"key":"08118","name":"Ludwigsburg","type":"Landkreis"},"federalState":{"key":"08","name":"Baden-Württemberg"}},{"name":"Claudiusstr.","postalCode":"70771","locality":"Leinfelden-Echterdingen","municipality":{"key":"08116078","name":"Leinfelden-Echterdingen, Stadt","type":"Große_Kreisstadt"},"district":{"key":"08116","name":"Esslingen","type":"Landkreis"},"federalState":{"key":"08","name":"Baden-Württemberg"}},{"name":"Claudiusstr.","postalCode":"71735","locality":"Eberdingen","municipality":{"key":"08118012","name":"Eberdingen","type":"Kreisangehörige_Gemeinde"},"district":{"key":"08118","name":"Ludwigsburg","type":"Landkreis"},"federalState":{"key":"08","name":"Baden-Württemberg"}},{"name":"Combastr.","postalCode":"75038","locality":"Oberderdingen","municipality":{"key":"08215059","name":"Oberderdingen","type":"Kreisangehörige_Gemeinde"},"district":{"key":"08215","name":"Karlsruhe","type":"Landkreis"},"federalState":{"key":"08","name":"Baden-Württemberg"}},{"name":"Cookstr.","postalCode":"70771","locality":"Leinfelden-Echterdingen","municipality":{"key":"08116078","name":"Leinfelden-Echterdingen, Stadt","type":"Große_Kreisstadt"},"district":{"key":"08116","name":"Esslingen","type":"Landkreis"},"federalState":{"key":"08","name":"Baden-Württemberg"}},{"name":"Dachauer Str.","postalCode":"85435","locality":"Erding","municipality":{"key":"09177117","name":"Erding, GKSt","type":"Große_Kreisstadt"},"district":{"key":"09177","name":"Erding","type":"Landkreis"},"federalState":{"key":"09","name":"Bayern"}},{"name":"Dachsweg","postalCode":"70771","locality":"Leinfelden-Echterdingen","municipality":{"key":"08116078","name":"Leinfelden-Echterdingen, Stadt","type":"Große_Kreisstadt"},"district":{"key":"08116","name":"Esslingen","type":"Landkreis"},"federalState":{"key":"08","name":"Baden-Württemberg"}},{"name":"Dachsweg","postalCode":"85435","locality":"Erding","municipality":{"key":"09177117","name":"Erding, GKSt","type":"Große_Kreisstadt"},"district":{"key":"09177","name":"Erding","type":"Landkreis"},"federalState":{"key":"09","name":"Bayern"}},{"name":"Dahlienstr.","postalCode":"70771","locality":"Leinfelden-Echterdingen","municipality":{"key":"08116078","name":"Leinfelden-Echterdingen, Stadt","type":"Große_Kreisstadt"},"district":{"key":"08116","name":"Esslingen","type":"Landkreis"},"federalState":{"key":"08","name":"Baden-Württemberg"}},{"name":"Dahlienweg","postalCode":"79364","locality":"Malterdingen","municipality":{"key":"08316024","name":"Malterdingen","type":"Kreisangehörige_Gemeinde"},"district":{"key":"08316","name":"Emmendingen","type":"Landkreis"},"federalState":{"key":"08","name":"Baden-Württemberg"}},{"name":"Daimlerstr.","postalCode":"70771","locality":"Leinfelden-Echterdingen","municipality":{"key":"08116078","name":"Leinfelden-Echterdingen, Stadt","type":"Große_Kreisstadt"},"district":{"key":"08116","name":"Esslingen","type":"Landkreis"},"federalState":{"key":"08","name":"Baden-Württemberg"}},{"name":"Daimlerstr.","postalCode":"71701","locality":"Schwieberdingen","municipality":{"key":"08118067","name":"Schwieberdingen","type":"Kreisangehörige_Gemeinde"},"district":{"key":"08118","name":"Ludwigsburg","type":"Landkreis"},"federalState":{"key":"08","name":"Baden-Württemberg"}},{"name":"Daimlerstr.","postalCode":"71735","locality":"Eberdingen","municipality":{"key":"08118012","name":"Eberdingen","type":"Kreisangehörige_Gemeinde"},"district":{"key":"08118","name":"Ludwigsburg","type":"Landkreis"},"federalState":{"key":"08","name":"Baden-Württemberg"}},{"name":"Daimlerstr.","postalCode":"72127","locality":"Kusterdingen","municipality":{"key":"08416023","name":"Kusterdingen","type":"Kreisangehörige_Gemeinde"},"district":{"key":"08416","name":"Tübingen","type":"Landkreis"},"federalState":{"key":"08","name":"Baden-Württemberg"}},{"name":"Daimlerstr.","postalCode":"85435","locality":"Erding","municipality":{"key":"09177117","name":"Erding, GKSt","type":"Große_Kreisstadt"},"district":{"key":"09177","name":"Erding","type":"Landkreis"},"federalState":{"key":"09","name":"Bayern"}},{"name":"Dall'Armi Str.","postalCode":"85435","locality":"Erding","municipality":{"key":"09177117","name":"Erding, GKSt","type":"Große_Kreisstadt"},"district":{"key":"09177","name":"Erding","type":"Landkreis"},"federalState":{"key":"09","name":"Bayern"}},{"name":"Dammweg","postalCode":"75038","locality":"Oberderdingen","municipality":{"key":"08215059","name":"Oberderdingen","type":"Kreisangehörige_Gemeinde"},"district":{"key":"08215","name":"Karlsruhe","type":"Landkreis"},"federalState":{"key":"08","name":"Baden-Württemberg"}},{"name":"Daniel-Mondon-Str.","postalCode":"75038","locality":"Oberderdingen","municipality":{"key":"08215059","name":"Oberderdingen","type":"Kreisangehörige_Gemeinde"},"district":{"key":"08215","name":"Karlsruhe","type":"Landkreis"},"federalState":{"key":"08","name":"Baden-Württemberg"}},{"name":"Dannenbusch","postalCode":"29640","locality":"Schneverdingen","municipality":{"key":"03358019","name":"Schneverdingen, Stadt","type":"Stadt"},"district":{"key":"03358","name":"Heidekreis","type":"Landkreis"},"federalState":{"key":"03","name":"Niedersachsen"}},{"name":"Dannhorst","postalCode":"29640","locality":"Schneverdingen","municipality":{"key":"03358019","name":"Schneverdingen, Stadt","type":"Stadt"},"district":{"key":"03358","name":"Heidekreis","type":"Landkreis"},"federalState":{"key":"03","name":"Niedersachsen"}},{"name":"Danziger Str.","postalCode":"29640","locality":"Schneverdingen","municipality":{"key":"03358019","name":"Schneverdingen, Stadt","type":"Stadt"},"district":{"key":"03358","name":"Heidekreis","type":"Landkreis"},"federalState":{"key":"03","name":"Niedersachsen"}},{"name":"Danziger Str.","postalCode":"71701","locality":"Schwieberdingen","municipality":{"key":"08118067","name":"Schwieberdingen","type":"Kreisangehörige_Gemeinde"},"district":{"key":"08118","name":"Ludwigsburg","type":"Landkreis"},"federalState":{"key":"08","name":"Baden-Württemberg"}},{"name":"Danziger Str.","postalCode":"85435","locality":"Erding","municipality":{"key":"09177117","name":"Erding, GKSt","type":"Große_Kreisstadt"},"district":{"key":"09177","name":"Erding","type":"Landkreis"},"federalState":{"key":"09","name":"Bayern"}},{"name":"Denkendorfer Str.","postalCode":"70771","locality":"Leinfelden-Echterdingen","municipality":{"key":"08116078","name":"Leinfelden-Echterdingen, Stadt","type":"Große_Kreisstadt"},"district":{"key":"08116","name":"Esslingen","type":"Landkreis"},"federalState":{"key":"08","name":"Baden-Württemberg"}},{"name":"Derdinger Str.","postalCode":"75038","locality":"Oberderdingen","municipality":{"key":"08215059","name":"Oberderdingen","type":"Kreisangehörige_Gemeinde"},"district":{"key":"08215","name":"Karlsruhe","type":"Landkreis"},"federalState":{"key":"08","name":"Baden-Württemberg"}},{"name":"Derendinger Weg","postalCode":"72127","locality":"Kusterdingen","municipality":{"key":"08416023","name":"Kusterdingen","type":"Kreisangehörige_Gemeinde"},"district":{"key":"08416","name":"Tübingen","type":"Landkreis"},"federalState":{"key":"08","name":"Baden-Württemberg"}},{"name":"Der Steile","postalCode":"70771","locality":"Leinfelden-Echterdingen","municipality":{"key":"08116078","name":"Leinfelden-Echterdingen, Stadt","type":"Große_Kreisstadt"},"district":{"key":"08116","name":"Esslingen","type":"Landkreis"},"federalState":{"key":"08","name":"Baden-Württemberg"}},{"name":"Dettinger Str.","postalCode":"72131","locality":"Ofterdingen","municipality":{"key":"08416031","name":"Ofterdingen","type":"Kreisangehörige_Gemeinde"},"district":{"key":"08416","name":"Tübingen","type":"Landkreis"},"federalState":{"key":"08","name":"Baden-Württemberg"}},{"name":"Dierbachstr.","postalCode":"70771","locality":"Leinfelden-Echterdingen","municipality":{"key":"08116078","name":"Leinfelden-Echterdingen, Stadt","type":"Große_Kreisstadt"},"district":{"key":"08116","name":"Esslingen","type":"Landkreis"},"federalState":{"key":"08","name":"Baden-Württemberg"}},{"name":"Dieselstr.","postalCode":"70771","locality":"Leinfelden-Echterdingen","municipality":{"key":"08116078","name":"Leinfelden-Echterdingen, Stadt","type":"Große_Kreisstadt"},"district":{"key":"08116","name":"Esslingen","type":"Landkreis"},"federalState":{"key":"08","name":"Baden-Württemberg"}},{"name":"Dieselstr.","postalCode":"71701","locality":"Schwieberdingen","municipality":{"key":"08118067","name":"Schwieberdingen","type":"Kreisangehörige_Gemeinde"},"district":{"key":"08118","name":"Ludwigsburg","type":"Landkreis"},"federalState":{"key":"08","name":"Baden-Württemberg"}},{"name":"Dietrich-Bonhoeffer-Str.","postalCode":"70771","locality":"Leinfelden-Echterdingen","municipality":{"key":"08116078","name":"Leinfelden-Echterdingen, Stadt","type":"Große_Kreisstadt"},"district":{"key":"08116","name":"Esslingen","type":"Landkreis"},"federalState":{"key":"08","name":"Baden-Württemberg"}},{"name":"Dohlenstieg","postalCode":"29640","locality":"Schneverdingen","municipality":{"key":"03358019","name":"Schneverdingen, Stadt","type":"Stadt"},"district":{"key":"03358","name":"Heidekreis","type":"Landkreis"},"federalState":{"key":"03","name":"Niedersachsen"}},{"name":"Dorfbreite","postalCode":"85445","locality":"Oberding","municipality":{"key":"09177133","name":"Oberding","type":"Kreisangehörige_Gemeinde"},"district":{"key":"09177","name":"Erding","type":"Landkreis"},"federalState":{"key":"09","name":"Bayern"}},{"name":"Dorfener Str.","postalCode":"85435","locality":"Erding","municipality":{"key":"09177117","name":"Erding, GKSt","type":"Große_Kreisstadt"},"district":{"key":"09177","name":"Erding","type":"Landkreis"},"federalState":{"key":"09","name":"Bayern"}},{"name":"Dorfenstr.","postalCode":"85445","locality":"Oberding","municipality":{"key":"09177133","name":"Oberding","type":"Kreisangehörige_Gemeinde"},"district":{"key":"09177","name":"Erding","type":"Landkreis"},"federalState":{"key":"09","name":"Bayern"}},{"name":"Dorfstr.","postalCode":"29640","locality":"Schneverdingen","municipality":{"key":"03358019","name":"Schneverdingen, Stadt","type":"Stadt"},"district":{"key":"03358","name":"Heidekreis","type":"Landkreis"},"federalState":{"key":"03","name":"Niedersachsen"}},{"name":"Dorfstr.","postalCode":"72127","locality":"Kusterdingen","municipality":{"key":"08416023","name":"Kusterdingen","type":"Kreisangehörige_Gemeinde"},"district":{"key":"08416","name":"Tübingen","type":"Landkreis"},"federalState":{"key":"08","name":"Baden-Württemberg"}},{"name":"Dorfstr.","postalCode":"85435","locality":"Erding","municipality":{"key":"09177117","name":"Erding, GKSt","type":"Große_Kreisstadt"},"district":{"key":"09177","name":"Erding","type":"Landkreis"},"federalState":{"key":"09","name":"Bayern"}},{"name":"Dorfstr.","postalCode":"85445","locality":"Oberding","municipality":{"key":"09177133","name":"Oberding","type":"Kreisangehörige_Gemeinde"},"district":{"key":"09177","name":"Erding","type":"Landkreis"},"federalState":{"key":"09","name":"Bayern"}},{"name":"Dorfstr.","postalCode":"86735","locality":"Amerdingen","municipality":{"key":"09779112","name":"Amerdingen","type":"Kreisangehörige_Gemeinde"},"district":{"key":"09779","name":"Donau-Ries","type":"Landkreis"},"federalState":{"key":"09","name":"Bayern"}},{"name":"Dorfstr.","postalCode":"86862","locality":"Lamerdingen","municipality":{"key":"09777145","name":"Lamerdingen","type":"Kreisangehörige_Gemeinde"},"district":{"key":"09777","name":"Ostallgäu","type":"Landkreis"},"federalState":{"key":"09","name":"Bayern"}},{"name":"Dornbuschweg","postalCode":"70771","locality":"Leinfelden-Echterdingen","municipality":{"key":"08116078","name":"Leinfelden-Echterdingen, Stadt","type":"Große_Kreisstadt"},"district":{"key":"08116","name":"Esslingen","type":"Landkreis"},"federalState":{"key":"08","name":"Baden-Württemberg"}},{"name":"Dorotheenweg","postalCode":"70771","locality":"Leinfelden-Echterdingen","municipality":{"key":"08116078","name":"Leinfelden-Echterdingen, Stadt","type":"Große_Kreisstadt"},"district":{"key":"08116","name":"Esslingen","type":"Landkreis"},"federalState":{"key":"08","name":"Baden-Württemberg"}},{"name":"Douglasweg","postalCode":"75038","locality":"Oberderdingen","municipality":{"key":"08215059","name":"Oberderdingen","type":"Kreisangehörige_Gemeinde"},"district":{"key":"08215","name":"Karlsruhe","type":"Landkreis"},"federalState":{"key":"08","name":"Baden-Württemberg"}},{"name":"Dr.-Deißböck-Weg","postalCode":"85435","locality":"Erding","municipality":{"key":"09177117","name":"Erding, GKSt","type":"Große_Kreisstadt"},"district":{"key":"09177","name":"Erding","type":"Landkreis"},"federalState":{"key":"09","name":"Bayern"}},{"name":"Drechslerstr.","postalCode":"85435","locality":"Erding","municipality":{"key":"09177117","name":"Erding, GKSt","type":"Große_Kreisstadt"},"district":{"key":"09177","name":"Erding","type":"Landkreis"},"federalState":{"key":"09","name":"Bayern"}},{"name":"Dreifürstensteinstr.","postalCode":"72131","locality":"Ofterdingen","municipality":{"key":"08416031","name":"Ofterdingen","type":"Kreisangehörige_Gemeinde"},"district":{"key":"08416","name":"Tübingen","type":"Landkreis"},"federalState":{"key":"08","name":"Baden-Württemberg"}},{"name":"Dreimärkerweg","postalCode":"75038","locality":"Oberderdingen","municipality":{"key":"08215059","name":"Oberderdingen","type":"Kreisangehörige_Gemeinde"},"district":{"key":"08215","name":"Karlsruhe","type":"Landkreis"},"federalState":{"key":"08","name":"Baden-Württemberg"}},{"name":"Dreimorgenstr.","postalCode":"70771","locality":"Leinfelden-Echterdingen","municipality":{"key":"08116078","name":"Leinfelden-Echterdingen, Stadt","type":"Große_Kreisstadt"},"district":{"key":"08116","name":"Esslingen","type":"Landkreis"},"federalState":{"key":"08","name":"Baden-Württemberg"}},{"name":"Dresdener Str.","postalCode":"71701","locality":"Schwieberdingen","municipality":{"key":"08118067","name":"Schwieberdingen","type":"Kreisangehörige_Gemeinde"},"district":{"key":"08118","name":"Ludwigsburg","type":"Landkreis"},"federalState":{"key":"08","name":"Baden-Württemberg"}},{"name":"Dreyershofer Weg","postalCode":"29640","locality":"Schneverdingen","municipality":{"key":"03358019","name":"Schneverdingen, Stadt","type":"Stadt"},"district":{"key":"03358","name":"Heidekreis","type":"Landkreis"},"federalState":{"key":"03","name":"Niedersachsen"}},{"name":"Dr.-Friedrich-Schmitt-Str.","postalCode":"75038","locality":"Oberderdingen","municipality":{"key":"08215059","name":"Oberderdingen","type":"Kreisangehörige_Gemeinde"},"district":{"key":"08215","name":"Karlsruhe","type":"Landkreis"},"federalState":{"key":"08","name":"Baden-Württemberg"}},{"name":"Dr.-Henkel-Str.","postalCode":"85435","locality":"Erding","municipality":{"key":"09177117","name":"Erding, GKSt","type":"Große_Kreisstadt"},"district":{"key":"09177","name":"Erding","type":"Landkreis"},"federalState":{"key":"09","name":"Bayern"}},{"name":"Dr.-Lehmer-Str.","postalCode":"85435","locality":"Erding","municipality":{"key":"09177117","name":"Erding, GKSt","type":"Große_Kreisstadt"},"district":{"key":"09177","name":"Erding","type":"Landkreis"},"federalState":{"key":"09","name":"Bayern"}},{"name":"Eittinger Str.","postalCode":"85459","locality":"Berglern","municipality":{"key":"09177112","name":"Berglern","type":"Kreisangehörige_Gemeinde"},"district":{"key":"09177","name":"Erding","type":"Landkreis"},"federalState":{"key":"09","name":"Bayern"}},{"name":"Enzianstr.","postalCode":"85459","locality":"Berglern","municipality":{"key":"09177112","name":"Berglern","type":"Kreisangehörige_Gemeinde"},"district":{"key":"09177","name":"Erding","type":"Landkreis"},"federalState":{"key":"09","name":"Bayern"}},{"name":"Erdinger Str.","postalCode":"85459","locality":"Berglern","municipality":{"key":"09177112","name":"Berglern","type":"Kreisangehörige_Gemeinde"},"district":{"key":"09177","name":"Erding","type":"Landkreis"},"federalState":{"key":"09","name":"Bayern"}},{"name":"Eschenweg","postalCode":"85459","locality":"Berglern","municipality":{"key":"09177112","name":"Berglern","type":"Kreisangehörige_Gemeinde"},"district":{"key":"09177","name":"Erding","type":"Landkreis"},"federalState":{"key":"09","name":"Bayern"}},{"name":"Feldmaurerweg","postalCode":"85459","locality":"Berglern","municipality":{"key":"09177112","name":"Berglern","type":"Kreisangehörige_Gemeinde"},"district":{"key":"09177","name":"Erding","type":"Landkreis"},"federalState":{"key":"09","name":"Bayern"}},{"name":"Feldstr.","postalCode":"85459","locality":"Berglern","municipality":{"key":"09177112","name":"Berglern","type":"Kreisangehörige_Gemeinde"},"district":{"key":"09177","name":"Erding","type":"Landkreis"},"federalState":{"key":"09","name":"Bayern"}},{"name":"Freisinger Str.","postalCode":"85459","locality":"Berglern","municipality":{"key":"09177112","name":"Berglern","type":"Kreisangehörige_Gemeinde"},"district":{"key":"09177","name":"Erding","type":"Landkreis"},"federalState":{"key":"09","name":"Bayern"}},{"name":"Gadener Str.","postalCode":"85459","locality":"Berglern","municipality":{"key":"09177112","name":"Berglern","type":"Kreisangehörige_Gemeinde"},"district":{"key":"09177","name":"Erding","type":"Landkreis"},"federalState":{"key":"09","name":"Bayern"}},{"name":"Hardter Str.","postalCode":"85459","locality":"Berglern","municipality":{"key":"09177112","name":"Berglern","type":"Kreisangehörige_Gemeinde"},"district":{"key":"09177","name":"Erding","type":"Landkreis"},"federalState":{"key":"09","name":"Bayern"}},{"name":"Igelweg","postalCode":"29640","locality":"Schneverdingen","municipality":{"key":"03358019","name":"Schneverdingen, Stadt","type":"Stadt"},"district":{"key":"03358","name":"Heidekreis","type":"Landkreis"},"federalState":{"key":"03","name":"Niedersachsen"}},{"name":"Iglinger Str.","postalCode":"86862","locality":"Lamerdingen","municipality":{"key":"09777145","name":"Lamerdingen","type":"Kreisangehörige_Gemeinde"},"district":{"key":"09777","name":"Ostallgäu","type":"Landkreis"},"federalState":{"key":"09","name":"Bayern"}},{"name":"Ihringer Str.","postalCode":"79291","locality":"Merdingen","municipality":{"key":"08315072","name":"Merdingen","type":"Kreisangehörige_Gemeinde"},"district":{"key":"08315","name":"Breisgau-Hochschwarzwald","type":"Landkreis"},"federalState":{"key":"08","name":"Baden-Württemberg"}},{"name":"Iltisweg","postalCode":"70771","locality":"Leinfelden-Echterdingen","municipality":{"key":"08116078","name":"Leinfelden-Echterdingen, Stadt","type":"Große_Kreisstadt"},"district":{"key":"08116","name":"Esslingen","type":"Landkreis"},"federalState":{"key":"08","name":"Baden-Württemberg"}},{"name":"Im Achterfeld","postalCode":"29640","locality":"Schneverdingen","municipality":{"key":"03358019","name":"Schneverdingen, Stadt","type":"Stadt"},"district":{"key":"03358","name":"Heidekreis","type":"Landkreis"},"federalState":{"key":"03","name":"Niedersachsen"}},{"name":"Im Allmend","postalCode":"79364","locality":"Malterdingen","municipality":{"key":"08316024","name":"Malterdingen","type":"Kreisangehörige_Gemeinde"},"district":{"key":"08316","name":"Emmendingen","type":"Landkreis"},"federalState":{"key":"08","name":"Baden-Württemberg"}},{"name":"Im Bainken","postalCode":"72127","locality":"Kusterdingen","municipality":{"key":"08416023","name":"Kusterdingen","type":"Kreisangehörige_Gemeinde"},"district":{"key":"08416","name":"Tübingen","type":"Landkreis"},"federalState":{"key":"08","name":"Baden-Württemberg"}},{"name":"Im Böhmetal","postalCode":"29640","locality":"Schneverdingen","municipality":{"key":"03358019","name":"Schneverdingen, Stadt","type":"Stadt"},"district":{"key":"03358","name":"Heidekreis","type":"Landkreis"},"federalState":{"key":"03","name":"Niedersachsen"}},{"name":"Im Bongert","postalCode":"72127","locality":"Kusterdingen","municipality":{"key":"08416023","name":"Kusterdingen","type":"Kreisangehörige_Gemeinde"},"district":{"key":"08416","name":"Tübingen","type":"Landkreis"},"federalState":{"key":"08","name":"Baden-Württemberg"}},{"name":"Im Brühl","postalCode":"72127","locality":"Kusterdingen","municipality":{"key":"08416023","name":"Kusterdingen","type":"Kreisangehörige_Gemeinde"},"district":{"key":"08416","name":"Tübingen","type":"Landkreis"},"federalState":{"key":"08","name":"Baden-Württemberg"}},{"name":"Im Dorfe","postalCode":"29640","locality":"Schneverdingen","municipality":{"key":"03358019","name":"Schneverdingen, Stadt","type":"Stadt"},"district":{"key":"03358","name":"Heidekreis","type":"Landkreis"},"federalState":{"key":"03","name":"Niedersachsen"}},{"name":"Im Eickhof","postalCode":"29640","locality":"Schneverdingen","municipality":{"key":"03358019","name":"Schneverdingen, Stadt","type":"Stadt"},"district":{"key":"03358","name":"Heidekreis","type":"Landkreis"},"federalState":{"key":"03","name":"Niedersachsen"}},{"name":"Im Gaiern","postalCode":"70771","locality":"Leinfelden-Echterdingen","municipality":{"key":"08116078","name":"Leinfelden-Echterdingen, Stadt","type":"Große_Kreisstadt"},"district":{"key":"08116","name":"Esslingen","type":"Landkreis"},"federalState":{"key":"08","name":"Baden-Württemberg"}},{"name":"Im Gartencarré","postalCode":"72131","locality":"Ofterdingen","municipality":{"key":"08416031","name":"Ofterdingen","type":"Kreisangehörige_Gemeinde"},"district":{"key":"08416","name":"Tübingen","type":"Landkreis"},"federalState":{"key":"08","name":"Baden-Württemberg"}},{"name":"Im Gässle","postalCode":"70771","locality":"Leinfelden-Echterdingen","municipality":{"key":"08116078","name":"Leinfelden-Echterdingen, Stadt","type":"Große_Kreisstadt"},"district":{"key":"08116","name":"Esslingen","type":"Landkreis"},"federalState":{"key":"08","name":"Baden-Württemberg"}},{"name":"Im großen Garten","postalCode":"70771","locality":"Leinfelden-Echterdingen","municipality":{"key":"08116078","name":"Leinfelden-Echterdingen, Stadt","type":"Große_Kreisstadt"},"district":{"key":"08116","name":"Esslingen","type":"Landkreis"},"federalState":{"key":"08","name":"Baden-Württemberg"}},{"name":"Im Grund","postalCode":"72131","locality":"Ofterdingen","municipality":{"key":"08416031","name":"Ofterdingen","type":"Kreisangehörige_Gemeinde"},"district":{"key":"08416","name":"Tübingen","type":"Landkreis"},"federalState":{"key":"08","name":"Baden-Württemberg"}},{"name":"Im Haselbusch","postalCode":"29640","locality":"Schneverdingen","municipality":{"key":"03358019","name":"Schneverdingen, Stadt","type":"Stadt"},"district":{"key":"03358","name":"Heidekreis","type":"Landkreis"},"federalState":{"key":"03","name":"Niedersachsen"}},{"name":"Im Heckenwert","postalCode":"72127","locality":"Kusterdingen","municipality":{"key":"08416023","name":"Kusterdingen","type":"Kreisangehörige_Gemeinde"},"district":{"key":"08416","name":"Tübingen","type":"Landkreis"},"federalState":{"key":"08","name":"Baden-Württemberg"}},{"name":"Im Heges","postalCode":"72127","locality":"Kusterdingen","municipality":{"key":"08416023","name":"Kusterdingen","type":"Kreisangehörige_Gemeinde"},"district":{"key":"08416","name":"Tübingen","type":"Landkreis"},"federalState":{"key":"08","name":"Baden-Württemberg"}},{"name":"Im Hundsrücken","postalCode":"71735","locality":"Eberdingen","municipality":{"key":"08118012","name":"Eberdingen","type":"Kreisangehörige_Gemeinde"},"district":{"key":"08118","name":"Ludwigsburg","type":"Landkreis"},"federalState":{"key":"08","name":"Baden-Württemberg"}},{"name":"Im Kaiserfeld","postalCode":"71735","locality":"Eberdingen","municipality":{"key":"08118012","name":"Eberdingen","type":"Kreisangehörige_Gemeinde"},"district":{"key":"08118","name":"Ludwigsburg","type":"Landkreis"},"federalState":{"key":"08","name":"Baden-Württemberg"}},{"name":"Imkerweg","postalCode":"29640","locality":"Schneverdingen","municipality":{"key":"03358019","name":"Schneverdingen, Stadt","type":"Stadt"},"district":{"key":"03358","name":"Heidekreis","type":"Landkreis"},"federalState":{"key":"03","name":"Niedersachsen"}},{"name":"Im Kleb","postalCode":"79364","locality":"Malterdingen","municipality":{"key":"08316024","name":"Malterdingen","type":"Kreisangehörige_Gemeinde"},"district":{"key":"08316","name":"Emmendingen","type":"Landkreis"},"federalState":{"key":"08","name":"Baden-Württemberg"}},{"name":"Im Klott","postalCode":"75038","locality":"Oberderdingen","municipality":{"key":"08215059","name":"Oberderdingen","type":"Kreisangehörige_Gemeinde"},"district":{"key":"08215","name":"Karlsruhe","type":"Landkreis"},"federalState":{"key":"08","name":"Baden-Württemberg"}},{"name":"Im Kohl","postalCode":"72127","locality":"Kusterdingen","municipality":{"key":"08416023","name":"Kusterdingen","type":"Kreisangehörige_Gemeinde"},"district":{"key":"08416","name":"Tübingen","type":"Landkreis"},"federalState":{"key":"08","name":"Baden-Württemberg"}},{"name":"Im Krautbühl","postalCode":"75038","locality":"Oberderdingen","municipality":{"key":"08215059","name":"Oberderdingen","type":"Kreisangehörige_Gemeinde"},"district":{"key":"08215","name":"Karlsruhe","type":"Landkreis"},"federalState":{"key":"08","name":"Baden-Württemberg"}},{"name":"Im Kreusslen","postalCode":"75038","locality":"Oberderdingen","municipality":{"key":"08215059","name":"Oberderdingen","type":"Kreisangehörige_Gemeinde"},"district":{"key":"08215","name":"Karlsruhe","type":"Landkreis"},"federalState":{"key":"08","name":"Baden-Württemberg"}},{"name":"Im Kreuzfeld","postalCode":"79364","locality":"Malterdingen","municipality":{"key":"08316024","name":"Malterdingen","type":"Kreisangehörige_Gemeinde"},"district":{"key":"08316","name":"Emmendingen","type":"Landkreis"},"federalState":{"key":"08","name":"Baden-Württemberg"}},{"name":"Im Lachenweg","postalCode":"72127","locality":"Kusterdingen","municipality":{"key":"08416023","name":"Kusterdingen","type":"Kreisangehörige_Gemeinde"},"district":{"key":"08416","name":"Tübingen","type":"Landkreis"},"federalState":{"key":"08","name":"Baden-Württemberg"}},{"name":"Immenhäuser Str.","postalCode":"72127","locality":"Kusterdingen","municipality":{"key":"08416023","name":"Kusterdingen","type":"Kreisangehörige_Gemeinde"},"district":{"key":"08416","name":"Tübingen","type":"Landkreis"},"federalState":{"key":"08","name":"Baden-Württemberg"}},{"name":"Immenknick","postalCode":"29640","locality":"Schneverdingen","municipality":{"key":"03358019","name":"Schneverdingen, Stadt","type":"Stadt"},"district":{"key":"03358","name":"Heidekreis","type":"Landkreis"},"federalState":{"key":"03","name":"Niedersachsen"}},{"name":"Immergrünweg","postalCode":"70771","locality":"Leinfelden-Echterdingen","municipality":{"key":"08116078","name":"Leinfelden-Echterdingen, Stadt","type":"Große_Kreisstadt"},"district":{"key":"08116","name":"Esslingen","type":"Landkreis"},"federalState":{"key":"08","name":"Baden-Württemberg"}},{"name":"Im Müller","postalCode":"70771","locality":"Leinfelden-Echterdingen","municipality":{"key":"08116078","name":"Leinfelden-Echterdingen, Stadt","type":"Große_Kreisstadt"},"district":{"key":"08116","name":"Esslingen","type":"Landkreis"},"federalState":{"key":"08","name":"Baden-Württemberg"}},{"name":"Im Osterwald","postalCode":"29640","locality":"Schneverdingen","municipality":{"key":"03358019","name":"Schneverdingen, Stadt","type":"Stadt"},"district":{"key":"03358","name":"Heidekreis","type":"Landkreis"},"federalState":{"key":"03","name":"Niedersachsen"}},{"name":"Im Ried","postalCode":"79364","locality":"Malterdingen","municipality":{"key":"08316024","name":"Malterdingen","type":"Kreisangehörige_Gemeinde"},"district":{"key":"08316","name":"Emmendingen","type":"Landkreis"},"federalState":{"key":"08","name":"Baden-Württemberg"}},{"name":"Im Riedenberg","postalCode":"70771","locality":"Leinfelden-Echterdingen","municipality":{"key":"08116078","name":"Leinfelden-Echterdingen, Stadt","type":"Große_Kreisstadt"},"district":{"key":"08116","name":"Esslingen","type":"Landkreis"},"federalState":{"key":"08","name":"Baden-Württemberg"}},{"name":"Im Sande","postalCode":"29640","locality":"Schneverdingen","municipality":{"key":"03358019","name":"Schneverdingen, Stadt","type":"Stadt"},"district":{"key":"03358","name":"Heidekreis","type":"Landkreis"},"federalState":{"key":"03","name":"Niedersachsen"}},{"name":"Im Sandstich","postalCode":"29640","locality":"Schneverdingen","municipality":{"key":"03358019","name":"Schneverdingen, Stadt","type":"Stadt"},"district":{"key":"03358","name":"Heidekreis","type":"Landkreis"},"federalState":{"key":"03","name":"Niedersachsen"}},{"name":"Im Schwabental","postalCode":"79364","locality":"Malterdingen","municipality":{"key":"08316024","name":"Malterdingen","type":"Kreisangehörige_Gemeinde"},"district":{"key":"08316","name":"Emmendingen","type":"Landkreis"},"federalState":{"key":"08","name":"Baden-Württemberg"}},{"name":"Im Seelach","postalCode":"71701","locality":"Schwieberdingen","municipality":{"key":"08118067","name":"Schwieberdingen","type":"Kreisangehörige_Gemeinde"},"district":{"key":"08118","name":"Ludwigsburg","type":"Landkreis"},"federalState":{"key":"08","name":"Baden-Württemberg"}},{"name":"Im Specken","postalCode":"79364","locality":"Malterdingen","municipality":{"key":"08316024","name":"Malterdingen","type":"Kreisangehörige_Gemeinde"},"district":{"key":"08316","name":"Emmendingen","type":"Landkreis"},"federalState":{"key":"08","name":"Baden-Württemberg"}},{"name":"Im Spitzhau","postalCode":"70771","locality":"Leinfelden-Echterdingen","municipality":{"key":"08116078","name":"Leinfelden-Echterdingen, Stadt","type":"Große_Kreisstadt"},"district":{"key":"08116","name":"Esslingen","type":"Landkreis"},"federalState":{"key":"08","name":"Baden-Württemberg"}},{"name":"Im Spötzinger","postalCode":"79364","locality":"Malterdingen","municipality":{"key":"08316024","name":"Malterdingen","type":"Kreisangehörige_Gemeinde"},"district":{"key":"08316","name":"Emmendingen","type":"Landkreis"},"federalState":{"key":"08","name":"Baden-Württemberg"}},{"name":"Im Steinmäuerle","postalCode":"72131","locality":"Ofterdingen","municipality":{"key":"08416031","name":"Ofterdingen","type":"Kreisangehörige_Gemeinde"},"district":{"key":"08416","name":"Tübingen","type":"Landkreis"},"federalState":{"key":"08","name":"Baden-Württemberg"}},{"name":"Im Teich","postalCode":"75038","locality":"Oberderdingen","municipality":{"key":"08215059","name":"Oberderdingen","type":"Kreisangehörige_Gemeinde"},"district":{"key":"08215","name":"Karlsruhe","type":"Landkreis"},"federalState":{"key":"08","name":"Baden-Württemberg"}},{"name":"Im Vogelbusch","postalCode":"29640","locality":"Schneverdingen","municipality":{"key":"03358019","name":"Schneverdingen, Stadt","type":"Stadt"},"district":{"key":"03358","name":"Heidekreis","type":"Landkreis"},"federalState":{"key":"03","name":"Niedersachsen"}},{"name":"Im Wäldle","postalCode":"70771","locality":"Leinfelden-Echterdingen","municipality":{"key":"08116078","name":"Leinfelden-Echterdingen, Stadt","type":"Große_Kreisstadt"},"district":{"key":"08116","name":"Esslingen","type":"Landkreis"},"federalState":{"key":"08","name":"Baden-Württemberg"}},{"name":"Im Wasen","postalCode":"72127","locality":"Kusterdingen","municipality":{"key":"08416023","name":"Kusterdingen","type":"Kreisangehörige_Gemeinde"},"district":{"key":"08416","name":"Tübingen","type":"Landkreis"},"federalState":{"key":"08","name":"Baden-Württemberg"}},{"name":"Im Weiher","postalCode":"72127","locality":"Kusterdingen","municipality":{"key":"08416023","name":"Kusterdingen","type":"Kreisangehörige_Gemeinde"},"district":{"key":"08416","name":"Tübingen","type":"Landkreis"},"federalState":{"key":"08","name":"Baden-Württemberg"}},{"name":"Jägerhausrichtweg","postalCode":"75038","locality":"Oberderdingen","municipality":{"key":"08215059","name":"Oberderdingen","type":"Kreisangehörige_Gemeinde"},"district":{"key":"08215","name":"Karlsruhe","type":"Landkreis"},"federalState":{"key":"08","name":"Baden-Württemberg"}},{"name":"Jägerstr.","postalCode":"70771","locality":"Leinfelden-Echterdingen","municipality":{"key":"08116078","name":"Leinfelden-Echterdingen, Stadt","type":"Große_Kreisstadt"},"district":{"key":"08116","name":"Esslingen","type":"Landkreis"},"federalState":{"key":"08","name":"Baden-Württemberg"}},{"name":"Jahnstr.","postalCode":"70771","locality":"Leinfelden-Echterdingen","municipality":{"key":"08116078","name":"Leinfelden-Echterdingen, Stadt","type":"Große_Kreisstadt"},"district":{"key":"08116","name":"Esslingen","type":"Landkreis"},"federalState":{"key":"08","name":"Baden-Württemberg"}},{"name":"Jahnstr.","postalCode":"72127","locality":"Kusterdingen","municipality":{"key":"08416023","name":"Kusterdingen","type":"Kreisangehörige_Gemeinde"},"district":{"key":"08416","name":"Tübingen","type":"Landkreis"},"federalState":{"key":"08","name":"Baden-Württemberg"}},{"name":"Jahnstr.","postalCode":"72131","locality":"Ofterdingen","municipality":{"key":"08416031","name":"Ofterdingen","type":"Kreisangehörige_Gemeinde"},"district":{"key":"08416","name":"Tübingen","type":"Landkreis"},"federalState":{"key":"08","name":"Baden-Württemberg"}},{"name":"Jakob-Kaindl-Str.","postalCode":"85435","locality":"Erding","municipality":{"key":"09177117","name":"Erding, GKSt","type":"Große_Kreisstadt"},"district":{"key":"09177","name":"Erding","type":"Landkreis"},"federalState":{"key":"09","name":"Bayern"}},{"name":"Jakobstr.","postalCode":"70771","locality":"Leinfelden-Echterdingen","municipality":{"key":"08116078","name":"Leinfelden-Echterdingen, Stadt","type":"Große_Kreisstadt"},"district":{"key":"08116","name":"Esslingen","type":"Landkreis"},"federalState":{"key":"08","name":"Baden-Württemberg"}},{"name":"Jakob-Wandel-Weg","postalCode":"72127","locality":"Kusterdingen","municipality":{"key":"08416023","name":"Kusterdingen","type":"Kreisangehörige_Gemeinde"},"district":{"key":"08416","name":"Tübingen","type":"Landkreis"},"federalState":{"key":"08","name":"Baden-Württemberg"}},{"name":"Jan-Ullrich-Str.","postalCode":"79291","locality":"Merdingen","municipality":{"key":"08315072","name":"Merdingen","type":"Kreisangehörige_Gemeinde"},"district":{"key":"08315","name":"Breisgau-Hochschwarzwald","type":"Landkreis"},"federalState":{"key":"08","name":"Baden-Württemberg"}},{"name":"Jean-Dumas-Str.","postalCode":"75038","locality":"Oberderdingen","municipality":{"key":"08215059","name":"Oberderdingen","type":"Kreisangehörige_Gemeinde"},"district":{"key":"08215","name":"Karlsruhe","type":"Landkreis"},"federalState":{"key":"08","name":"Baden-Württemberg"}},{"name":"Jettenburger Str.","postalCode":"72127","locality":"Kusterdingen","municipality":{"key":"08416023","name":"Kusterdingen","type":"Kreisangehörige_Gemeinde"},"district":{"key":"08416","name":"Tübingen","type":"Landkreis"},"federalState":{"key":"08","name":"Baden-Württemberg"}},{"name":"Joachim-von-Schröder-Str.","postalCode":"70771","locality":"Leinfelden-Echterdingen","municipality":{"key":"08116078","name":"Leinfelden-Echterdingen, Stadt","type":"Große_Kreisstadt"},"district":{"key":"08116","name":"Esslingen","type":"Landkreis"},"federalState":{"key":"08","name":"Baden-Württemberg"}},{"name":"Jochbergweg","postalCode":"85435","locality":"Erding","municipality":{"key":"09177117","name":"Erding, GKSt","type":"Große_Kreisstadt"},"district":{"key":"09177","name":"Erding","type":"Landkreis"},"federalState":{"key":"09","name":"Bayern"}},{"name":"Johann-Auer-Str.","postalCode":"85435","locality":"Erding","municipality":{"key":"09177117","name":"Erding, GKSt","type":"Große_Kreisstadt"},"district":{"key":"09177","name":"Erding","type":"Landkreis"},"federalState":{"key":"09","name":"Bayern"}},{"name":"Johannisweg","postalCode":"86862","locality":"Lamerdingen","municipality":{"key":"09777145","name":"Lamerdingen","type":"Kreisangehörige_Gemeinde"},"district":{"key":"09777","name":"Ostallgäu","type":"Landkreis"},"federalState":{"key":"09","name":"Bayern"}},{"name":"Johann-Joseph-Abert-Weg","postalCode":"70771","locality":"Leinfelden-Echterdingen","municipality":{"key":"08116078","name":"Leinfelden-Echterdingen, Stadt","type":"Große_Kreisstadt"},"district":{"key":"08116","name":"Esslingen","type":"Landkreis"},"federalState":{"key":"08","name":"Baden-Württemberg"}},{"name":"Johann-Sebastian-Bach-Str.","postalCode":"70771","locality":"Leinfelden-Echterdingen","municipality":{"key":"08116078","name":"Leinfelden-Echterdingen, Stadt","type":"Große_Kreisstadt"},"district":{"key":"08116","name":"Esslingen","type":"Landkreis"},"federalState":{"key":"08","name":"Baden-Württemberg"}},{"name":"Johann-Sebastian-Bach-Str.","postalCode":"85435","locality":"Erding","municipality":{"key":"09177117","name":"Erding, GKSt","type":"Große_Kreisstadt"},"district":{"key":"09177","name":"Erding","type":"Landkreis"},"federalState":{"key":"09","name":"Bayern"}},{"name":"Johann-Strauß-Weg","postalCode":"70771","locality":"Leinfelden-Echterdingen","municipality":{"key":"08116078","name":"Leinfelden-Echterdingen, Stadt","type":"Große_Kreisstadt"},"district":{"key":"08116","name":"Esslingen","type":"Landkreis"},"federalState":{"key":"08","name":"Baden-Württemberg"}},{"name":"Jörg-Töber-Weg","postalCode":"71701","locality":"Schwieberdingen","municipality":{"key":"08118067","name":"Schwieberdingen","type":"Kreisangehörige_Gemeinde"},"district":{"key":"08118","name":"Ludwigsburg","type":"Landkreis"},"federalState":{"key":"08","name":"Baden-Württemberg"}},{"name":"Josef-Herz-Str.","postalCode":"85435","locality":"Erding","municipality":{"key":"09177117","name":"Erding, GKSt","type":"Große_Kreisstadt"},"district":{"key":"09177","name":"Erding","type":"Landkreis"},"federalState":{"key":"09","name":"Bayern"}},{"name":"Josef-Schwankl-Str.","postalCode":"85435","locality":"Erding","municipality":{"key":"09177117","name":"Erding, GKSt","type":"Große_Kreisstadt"},"district":{"key":"09177","name":"Erding","type":"Landkreis"},"federalState":{"key":"09","name":"Bayern"}},{"name":"Junkerstr.","postalCode":"29640","locality":"Schneverdingen","municipality":{"key":"03358019","name":"Schneverdingen, Stadt","type":"Stadt"},"district":{"key":"03358","name":"Heidekreis","type":"Landkreis"},"federalState":{"key":"03","name":"Niedersachsen"}},{"name":"Juraweg","postalCode":"70771","locality":"Leinfelden-Echterdingen","municipality":{"key":"08116078","name":"Leinfelden-Echterdingen, Stadt","type":"Große_Kreisstadt"},"district":{"key":"08116","name":"Esslingen","type":"Landkreis"},"federalState":{"key":"08","name":"Baden-Württemberg"}},{"name":"Justus-von-Liebig-Str.","postalCode":"85435","locality":"Erding","municipality":{"key":"09177117","name":"Erding, GKSt","type":"Große_Kreisstadt"},"district":{"key":"09177","name":"Erding","type":"Landkreis"},"federalState":{"key":"09","name":"Bayern"}},{"name":"Kapellenweg","postalCode":"85459","locality":"Berglern","municipality":{"key":"09177112","name":"Berglern","type":"Kreisangehörige_Gemeinde"},"district":{"key":"09177","name":"Erding","type":"Landkreis"},"federalState":{"key":"09","name":"Bayern"}},{"name":"Kirchenweg","postalCode":"85459","locality":"Berglern","municipality":{"key":"09177112","name":"Berglern","type":"Kreisangehörige_Gemeinde"},"district":{"key":"09177","name":"Erding","type":"Landkreis"},"federalState":{"key":"09","name":"Bayern"}},{"name":"Kratzeranger","postalCode":"85459","locality":"Berglern","municipality":{"key":"09177112","name":"Berglern","type":"Kreisangehörige_Gemeinde"},"district":{"key":"09177","name":"Erding","type":"Landkreis"},"federalState":{"key":"09","name":"Bayern"}},{"name":"Kreuzstr.","postalCode":"85459","locality":"Berglern","municipality":{"key":"09177112","name":"Berglern","type":"Kreisangehörige_Gemeinde"},"district":{"key":"09177","name":"Erding","type":"Landkreis"},"federalState":{"key":"09","name":"Bayern"}},{"name":"Lagerhausstr.","postalCode":"85459","locality":"Berglern","municipality":{"key":"09177112","name":"Berglern","type":"Kreisangehörige_Gemeinde"},"district":{"key":"09177","name":"Erding","type":"Landkreis"},"federalState":{"key":"09","name":"Bayern"}},{"name":"Moosburger Str.","postalCode":"85459","locality":"Berglern","municipality":{"key":"09177112","name":"Berglern","type":"Kreisangehörige_Gemeinde"},"district":{"key":"09177","name":"Erding","type":"Landkreis"},"federalState":{"key":"09","name":"Bayern"}},{"name":"Müllerweg","postalCode":"85459","locality":"Berglern","municipality":{"key":"09177112","name":"Berglern","type":"Kreisangehörige_Gemeinde"},"district":{"key":"09177","name":"Erding","type":"Landkreis"},"federalState":{"key":"09","name":"Bayern"}},{"name":"Nikolausweg","postalCode":"85459","locality":"Berglern","municipality":{"key":"09177112","name":"Berglern","type":"Kreisangehörige_Gemeinde"},"district":{"key":"09177","name":"Erding","type":"Landkreis"},"federalState":{"key":"09","name":"Bayern"}},{"name":"Ob den Bergen","postalCode":"71701","locality":"Schwieberdingen","municipality":{"key":"08118067","name":"Schwieberdingen","type":"Kreisangehörige_Gemeinde"},"district":{"key":"08118","name":"Ludwigsburg","type":"Landkreis"},"federalState":{"key":"08","name":"Baden-Württemberg"}},{"name":"Ob den Weingärten","postalCode":"71735","locality":"Eberdingen","municipality":{"key":"08118012","name":"Eberdingen","type":"Kreisangehörige_Gemeinde"},"district":{"key":"08118","name":"Ludwigsburg","type":"Landkreis"},"federalState":{"key":"08","name":"Baden-Württemberg"}},{"name":"Oberaichener Höhe","postalCode":"70771","locality":"Leinfelden-Echterdingen","municipality":{"key":"08116078","name":"Leinfelden-Echterdingen, Stadt","type":"Große_Kreisstadt"},"district":{"key":"08116","name":"Esslingen","type":"Landkreis"},"federalState":{"key":"08","name":"Baden-Württemberg"}},{"name":"Oberaicher Weg","postalCode":"70771","locality":"Leinfelden-Echterdingen","municipality":{"key":"08116078","name":"Leinfelden-Echterdingen, Stadt","type":"Große_Kreisstadt"},"district":{"key":"08116","name":"Esslingen","type":"Landkreis"},"federalState":{"key":"08","name":"Baden-Württemberg"}},{"name":"Oberbrunnweg","postalCode":"86862","locality":"Lamerdingen","municipality":{"key":"09777145","name":"Lamerdingen","type":"Kreisangehörige_Gemeinde"},"district":{"key":"09777","name":"Ostallgäu","type":"Landkreis"},"federalState":{"key":"09","name":"Bayern"}},{"name":"Oberdinger Str.","postalCode":"85445","locality":"Oberding","municipality":{"key":"09177133","name":"Oberding","type":"Kreisangehörige_Gemeinde"},"district":{"key":"09177","name":"Erding","type":"Landkreis"},"federalState":{"key":"09","name":"Bayern"}},{"name":"Oberdorfstr.","postalCode":"70771","locality":"Leinfelden-Echterdingen","municipality":{"key":"08116078","name":"Leinfelden-Echterdingen, Stadt","type":"Große_Kreisstadt"},"district":{"key":"08116","name":"Esslingen","type":"Landkreis"},"federalState":{"key":"08","name":"Baden-Württemberg"}},{"name":"Obere Gärten","postalCode":"70771","locality":"Leinfelden-Echterdingen","municipality":{"key":"08116078","name":"Leinfelden-Echterdingen, Stadt","type":"Große_Kreisstadt"},"district":{"key":"08116","name":"Esslingen","type":"Landkreis"},"federalState":{"key":"08","name":"Baden-Württemberg"}},{"name":"Obere Gasse","postalCode":"71735","locality":"Eberdingen","municipality":{"key":"08118012","name":"Eberdingen","type":"Kreisangehörige_Gemeinde"},"district":{"key":"08118","name":"Ludwigsburg","type":"Landkreis"},"federalState":{"key":"08","name":"Baden-Württemberg"}},{"name":"Obere Gasse","postalCode":"75038","locality":"Oberderdingen","municipality":{"key":"08215059","name":"Oberderdingen","type":"Kreisangehörige_Gemeinde"},"district":{"key":"08215","name":"Karlsruhe","type":"Landkreis"},"federalState":{"key":"08","name":"Baden-Württemberg"}},{"name":"Obere Halde","postalCode":"70771","locality":"Leinfelden-Echterdingen","municipality":{"key":"08116078","name":"Leinfelden-Echterdingen, Stadt","type":"Große_Kreisstadt"},"district":{"key":"08116","name":"Esslingen","type":"Landkreis"},"federalState":{"key":"08","name":"Baden-Württemberg"}},{"name":"Oberer Bongart","postalCode":"70771","locality":"Leinfelden-Echterdingen","municipality":{"key":"08116078","name":"Leinfelden-Echterdingen, Stadt","type":"Große_Kreisstadt"},"district":{"key":"08116","name":"Esslingen","type":"Landkreis"},"federalState":{"key":"08","name":"Baden-Württemberg"}},{"name":"Oberer Brandweg","postalCode":"70771","locality":"Leinfelden-Echterdingen","municipality":{"key":"08116078","name":"Leinfelden-Echterdingen, Stadt","type":"Große_Kreisstadt"},"district":{"key":"08116","name":"Esslingen","type":"Landkreis"},"federalState":{"key":"08","name":"Baden-Württemberg"}},{"name":"Oberer Bruchweg","postalCode":"75038","locality":"Oberderdingen","municipality":{"key":"08215059","name":"Oberderdingen","type":"Kreisangehörige_Gemeinde"},"district":{"key":"08215","name":"Karlsruhe","type":"Landkreis"},"federalState":{"key":"08","name":"Baden-Württemberg"}},{"name":"Oberer Dettenackerweg","postalCode":"71735","locality":"Eberdingen","municipality":{"key":"08118012","name":"Eberdingen","type":"Kreisangehörige_Gemeinde"},"district":{"key":"08118","name":"Ludwigsburg","type":"Landkreis"},"federalState":{"key":"08","name":"Baden-Württemberg"}},{"name":"Oberer Künzlisbergweg","postalCode":"79364","locality":"Malterdingen","municipality":{"key":"08316024","name":"Malterdingen","type":"Kreisangehörige_Gemeinde"},"district":{"key":"08316","name":"Emmendingen","type":"Landkreis"},"federalState":{"key":"08","name":"Baden-Württemberg"}},{"name":"Oberer Spitzwaldweg","postalCode":"79364","locality":"Malterdingen","municipality":{"key":"08316024","name":"Malterdingen","type":"Kreisangehörige_Gemeinde"},"district":{"key":"08316","name":"Emmendingen","type":"Landkreis"},"federalState":{"key":"08","name":"Baden-Württemberg"}},{"name":"Oberer Wannengrabenweg","postalCode":"79364","locality":"Malterdingen","municipality":{"key":"08316024","name":"Malterdingen","type":"Kreisangehörige_Gemeinde"},"district":{"key":"08316","name":"Emmendingen","type":"Landkreis"},"federalState":{"key":"08","name":"Baden-Württemberg"}},{"name":"Oberes Gäßle","postalCode":"72127","locality":"Kusterdingen","municipality":{"key":"08416023","name":"Kusterdingen","type":"Kreisangehörige_Gemeinde"},"district":{"key":"08416","name":"Tübingen","type":"Landkreis"},"federalState":{"key":"08","name":"Baden-Württemberg"}},{"name":"Obere Str.","postalCode":"72127","locality":"Kusterdingen","municipality":{"key":"08416023","name":"Kusterdingen","type":"Kreisangehörige_Gemeinde"},"district":{"key":"08416","name":"Tübingen","type":"Landkreis"},"federalState":{"key":"08","name":"Baden-Württemberg"}},{"name":"Oberfeldstr.","postalCode":"85435","locality":"Erding","municipality":{"key":"09177117","name":"Erding, GKSt","type":"Große_Kreisstadt"},"district":{"key":"09177","name":"Erding","type":"Landkreis"},"federalState":{"key":"09","name":"Bayern"}},{"name":"Obergasse","postalCode":"70771","locality":"Leinfelden-Echterdingen","municipality":{"key":"08116078","name":"Leinfelden-Echterdingen, Stadt","type":"Große_Kreisstadt"},"district":{"key":"08116","name":"Esslingen","type":"Landkreis"},"federalState":{"key":"08","name":"Baden-Württemberg"}},{"name":"Oberlinstr.","postalCode":"70771","locality":"Leinfelden-Echterdingen","municipality":{"key":"08116078","name":"Leinfelden-Echterdingen, Stadt","type":"Große_Kreisstadt"},"district":{"key":"08116","name":"Esslingen","type":"Landkreis"},"federalState":{"key":"08","name":"Baden-Württemberg"}},{"name":"Oberwiesachstr.","postalCode":"72131","locality":"Ofterdingen","municipality":{"key":"08416031","name":"Ofterdingen","type":"Kreisangehörige_Gemeinde"},"district":{"key":"08416","name":"Tübingen","type":"Landkreis"},"federalState":{"key":"08","name":"Baden-Württemberg"}},{"name":"Obstweg","postalCode":"70771","locality":"Leinfelden-Echterdingen","municipality":{"key":"08116078","name":"Leinfelden-Echterdingen, Stadt","type":"Große_Kreisstadt"},"district":{"key":"08116","name":"Esslingen","type":"Landkreis"},"federalState":{"key":"08","name":"Baden-Württemberg"}},{"name":"Ochsengäßle","postalCode":"72127","locality":"Kusterdingen","municipality":{"key":"08416023","name":"Kusterdingen","type":"Kreisangehörige_Gemeinde"},"district":{"key":"08416","name":"Tübingen","type":"Landkreis"},"federalState":{"key":"08","name":"Baden-Württemberg"}},{"name":"Ohmenhäuser Str.","postalCode":"72127","locality":"Kusterdingen","municipality":{"key":"08416023","name":"Kusterdingen","type":"Kreisangehörige_Gemeinde"},"district":{"key":"08416","name":"Tübingen","type":"Landkreis"},"federalState":{"key":"08","name":"Baden-Württemberg"}},{"name":"Ostdeutsche Str.","postalCode":"29640","locality":"Schneverdingen","municipality":{"key":"03358019","name":"Schneverdingen, Stadt","type":"Stadt"},"district":{"key":"03358","name":"Heidekreis","type":"Landkreis"},"federalState":{"key":"03","name":"Niedersachsen"}},{"name":"Osterheide","postalCode":"29640","locality":"Schneverdingen","municipality":{"key":"03358019","name":"Schneverdingen, Stadt","type":"Stadt"},"district":{"key":"03358","name":"Heidekreis","type":"Landkreis"},"federalState":{"key":"03","name":"Niedersachsen"}},{"name":"Osterwaldweg","postalCode":"29640","locality":"Schneverdingen","municipality":{"key":"03358019","name":"Schneverdingen, Stadt","type":"Stadt"},"district":{"key":"03358","name":"Heidekreis","type":"Landkreis"},"federalState":{"key":"03","name":"Niedersachsen"}},{"name":"Osterweder Schulweg","postalCode":"29640","locality":"Schneverdingen","municipality":{"key":"03358019","name":"Schneverdingen, Stadt","type":"Stadt"},"district":{"key":"03358","name":"Heidekreis","type":"Landkreis"},"federalState":{"key":"03","name":"Niedersachsen"}},{"name":"Ostlandweg","postalCode":"71701","locality":"Schwieberdingen","municipality":{"key":"08118067","name":"Schwieberdingen","type":"Kreisangehörige_Gemeinde"},"district":{"key":"08118","name":"Ludwigsburg","type":"Landkreis"},"federalState":{"key":"08","name":"Baden-Württemberg"}},{"name":"Oststr.","postalCode":"29640","locality":"Schneverdingen","municipality":{"key":"03358019","name":"Schneverdingen, Stadt","type":"Stadt"},"district":{"key":"03358","name":"Heidekreis","type":"Landkreis"},"federalState":{"key":"03","name":"Niedersachsen"}},{"name":"Ottenbrunnenweg","postalCode":"71701","locality":"Schwieberdingen","municipality":{"key":"08118067","name":"Schwieberdingen","type":"Kreisangehörige_Gemeinde"},"district":{"key":"08118","name":"Ludwigsburg","type":"Landkreis"},"federalState":{"key":"08","name":"Baden-Württemberg"}},{"name":"Otterer Mühlenweg","postalCode":"29640","locality":"Schneverdingen","municipality":{"key":"03358019","name":"Schneverdingen, Stadt","type":"Stadt"},"district":{"key":"03358","name":"Heidekreis","type":"Landkreis"},"federalState":{"key":"03","name":"Niedersachsen"}},{"name":"Otto-Hahn-Str.","postalCode":"85435","locality":"Erding","municipality":{"key":"09177117","name":"Erding, GKSt","type":"Große_Kreisstadt"},"district":{"key":"09177","name":"Erding","type":"Landkreis"},"federalState":{"key":"09","name":"Bayern"}},{"name":"Otto-Hahn-Weg","postalCode":"70771","locality":"Leinfelden-Echterdingen","municipality":{"key":"08116078","name":"Leinfelden-Echterdingen, Stadt","type":"Große_Kreisstadt"},"district":{"key":"08116","name":"Esslingen","type":"Landkreis"},"federalState":{"key":"08","name":"Baden-Württemberg"}},{"name":"Otto-Hahn-Weg","postalCode":"71735","locality":"Eberdingen","municipality":{"key":"08118012","name":"Eberdingen","type":"Kreisangehörige_Gemeinde"},"district":{"key":"08118","name":"Ludwigsburg","type":"Landkreis"},"federalState":{"key":"08","name":"Baden-Württemberg"}},{"name":"Ottostr.","postalCode":"29640","locality":"Schneverdingen","municipality":{"key":"03358019","name":"Schneverdingen, Stadt","type":"Stadt"},"district":{"key":"03358","name":"Heidekreis","type":"Landkreis"},"federalState":{"key":"03","name":"Niedersachsen"}},{"name":"Ottostr.","postalCode":"85435","locality":"Erding","municipality":{"key":"09177117","name":"Erding, GKSt","type":"Große_Kreisstadt"},"district":{"key":"09177","name":"Erding","type":"Landkreis"},"federalState":{"key":"09","name":"Bayern"}},{"name":"Overbeckstr.","postalCode":"29640","locality":"Schneverdingen","municipality":{"key":"03358019","name":"Schneverdingen, Stadt","type":"Stadt"},"district":{"key":"03358","name":"Heidekreis","type":"Landkreis"},"federalState":{"key":"03","name":"Niedersachsen"}},{"name":"Paganiniweg","postalCode":"70771","locality":"Leinfelden-Echterdingen","municipality":{"key":"08116078","name":"Leinfelden-Echterdingen, Stadt","type":"Große_Kreisstadt"},"district":{"key":"08116","name":"Esslingen","type":"Landkreis"},"federalState":{"key":"08","name":"Baden-Württemberg"}},{"name":"Panoramaring","postalCode":"71735","locality":"Eberdingen","municipality":{"key":"08118012","name":"Eberdingen","type":"Kreisangehörige_Gemeinde"},"district":{"key":"08118","name":"Ludwigsburg","type":"Landkreis"},"federalState":{"key":"08","name":"Baden-Württemberg"}},{"name":"Panoramasteg","postalCode":"85435","locality":"Erding","municipality":{"key":"09177117","name":"Erding, GKSt","type":"Große_Kreisstadt"},"district":{"key":"09177","name":"Erding","type":"Landkreis"},"federalState":{"key":"09","name":"Bayern"}},{"name":"Panoramastr.","postalCode":"70771","locality":"Leinfelden-Echterdingen","municipality":{"key":"08116078","name":"Leinfelden-Echterdingen, Stadt","type":"Große_Kreisstadt"},"district":{"key":"08116","name":"Esslingen","type":"Landkreis"},"federalState":{"key":"08","name":"Baden-Württemberg"}},{"name":"Panoramastr.","postalCode":"72127","locality":"Kusterdingen","municipality":{"key":"08416023","name":"Kusterdingen","type":"Kreisangehörige_Gemeinde"},"district":{"key":"08416","name":"Tübingen","type":"Landkreis"},"federalState":{"key":"08","name":"Baden-Württemberg"}},{"name":"Pappelallee","postalCode":"29640","locality":"Schneverdingen","municipality":{"key":"03358019","name":"Schneverdingen, Stadt","type":"Stadt"},"district":{"key":"03358","name":"Heidekreis","type":"Landkreis"},"federalState":{"key":"03","name":"Niedersachsen"}},{"name":"Pappelstr.","postalCode":"71735","locality":"Eberdingen","municipality":{"key":"08118012","name":"Eberdingen","type":"Kreisangehörige_Gemeinde"},"district":{"key":"08118","name":"Ludwigsburg","type":"Landkreis"},"federalState":{"key":"08","name":"Baden-Württemberg"}},{"name":"Pappelstr.","postalCode":"72131","locality":"Ofterdingen","municipality":{"key":"08416031","name":"Ofterdingen","type":"Kreisangehörige_Gemeinde"},"district":{"key":"08416","name":"Tübingen","type":"Landkreis"},"federalState":{"key":"08","name":"Baden-Württemberg"}},{"name":"Pappelstr.","postalCode":"85435","locality":"Erding","municipality":{"key":"09177117","name":"Erding, GKSt","type":"Große_Kreisstadt"},"district":{"key":"09177","name":"Erding","type":"Landkreis"},"federalState":{"key":"09","name":"Bayern"}},{"name":"Pappelweg","postalCode":"70771","locality":"Leinfelden-Echterdingen","municipality":{"key":"08116078","name":"Leinfelden-Echterdingen, Stadt","type":"Große_Kreisstadt"},"district":{"key":"08116","name":"Esslingen","type":"Landkreis"},"federalState":{"key":"08","name":"Baden-Württemberg"}},{"name":"Paracelsusstr.","postalCode":"70771","locality":"Leinfelden-Echterdingen","municipality":{"key":"08116078","name":"Leinfelden-Echterdingen, Stadt","type":"Große_Kreisstadt"},"district":{"key":"08116","name":"Esslingen","type":"Landkreis"},"federalState":{"key":"08","name":"Baden-Württemberg"}},{"name":"Paradiesweg","postalCode":"71701","locality":"Schwieberdingen","municipality":{"key":"08118067","name":"Schwieberdingen","type":"Kreisangehörige_Gemeinde"},"district":{"key":"08118","name":"Ludwigsburg","type":"Landkreis"},"federalState":{"key":"08","name":"Baden-Württemberg"}},{"name":"Parkstr.","postalCode":"71735","locality":"Eberdingen","municipality":{"key":"08118012","name":"Eberdingen","type":"Kreisangehörige_Gemeinde"},"district":{"key":"08118","name":"Ludwigsburg","type":"Landkreis"},"federalState":{"key":"08","name":"Baden-Württemberg"}},{"name":"Parkstr.","postalCode":"85435","locality":"Erding","municipality":{"key":"09177117","name":"Erding, GKSt","type":"Große_Kreisstadt"},"district":{"key":"09177","name":"Erding","type":"Landkreis"},"federalState":{"key":"09","name":"Bayern"}},{"name":"Parkstr.","postalCode":"85445","locality":"Oberding","municipality":{"key":"09177133","name":"Oberding","type":"Kreisangehörige_Gemeinde"},"district":{"key":"09177","name":"Erding","type":"Landkreis"},"federalState":{"key":"09","name":"Bayern"}},{"name":"Pater-Alois-Weg","postalCode":"85435","locality":"Erding","municipality":{"key":"09177117","name":"Erding, GKSt","type":"Große_Kreisstadt"},"district":{"key":"09177","name":"Erding","type":"Landkreis"},"federalState":{"key":"09","name":"Bayern"}},{"name":"Pater-Haböck-Ring","postalCode":"85445","locality":"Oberding","municipality":{"key":"09177133","name":"Oberding","type":"Kreisangehörige_Gemeinde"},"district":{"key":"09177","name":"Erding","type":"Landkreis"},"federalState":{"key":"09","name":"Bayern"}},{"name":"Paul-Burger-Str.","postalCode":"75038","locality":"Oberderdingen","municipality":{"key":"08215059","name":"Oberderdingen","type":"Kreisangehörige_Gemeinde"},"district":{"key":"08215","name":"Karlsruhe","type":"Landkreis"},"federalState":{"key":"08","name":"Baden-Württemberg"}},{"name":"Paul-Gerhardt-Str.","postalCode":"70771","locality":"Leinfelden-Echterdingen","municipality":{"key":"08116078","name":"Leinfelden-Echterdingen, Stadt","type":"Große_Kreisstadt"},"district":{"key":"08116","name":"Esslingen","type":"Landkreis"},"federalState":{"key":"08","name":"Baden-Württemberg"}},{"name":"Paul-Hartmann-Str.","postalCode":"75038","locality":"Oberderdingen","municipality":{"key":"08215059","name":"Oberderdingen","type":"Kreisangehörige_Gemeinde"},"district":{"key":"08215","name":"Karlsruhe","type":"Landkreis"},"federalState":{"key":"08","name":"Baden-Württemberg"}},{"name":"Pauline-Nöthig-Str.","postalCode":"85435","locality":"Erding","municipality":{"key":"09177117","name":"Erding, GKSt","type":"Große_Kreisstadt"},"district":{"key":"09177","name":"Erding","type":"Landkreis"},"federalState":{"key":"09","name":"Bayern"}},{"name":"Paulinenstr.","postalCode":"72131","locality":"Ofterdingen","municipality":{"key":"08416031","name":"Ofterdingen","type":"Kreisangehörige_Gemeinde"},"district":{"key":"08416","name":"Tübingen","type":"Landkreis"},"federalState":{"key":"08","name":"Baden-Württemberg"}},{"name":"Paul-Mathis-Str.","postalCode":"79291","locality":"Merdingen","municipality":{"key":"08315072","name":"Merdingen","type":"Kreisangehörige_Gemeinde"},"district":{"key":"08315","name":"Breisgau-Hochschwarzwald","type":"Landkreis"},"federalState":{"key":"08","name":"Baden-Württemberg"}},{"name":"Pestalozzistr.","postalCode":"70771","locality":"Leinfelden-Echterdingen","municipality":{"key":"08116078","name":"Leinfelden-Echterdingen, Stadt","type":"Große_Kreisstadt"},"district":{"key":"08116","name":"Esslingen","type":"Landkreis"},"federalState":{"key":"08","name":"Baden-Württemberg"}},{"name":"Peterhof","postalCode":"79364","locality":"Malterdingen","municipality":{"key":"08316024","name":"Malterdingen","type":"Kreisangehörige_Gemeinde"},"district":{"key":"08316","name":"Emmendingen","type":"Landkreis"},"federalState":{"key":"08","name":"Baden-Württemberg"}},{"name":"Peter-Rosegger-Weg","postalCode":"85435","locality":"Erding","municipality":{"key":"09177117","name":"Erding, GKSt","type":"Große_Kreisstadt"},"district":{"key":"09177","name":"Erding","type":"Landkreis"},"federalState":{"key":"09","name":"Bayern"}},{"name":"Petersbergstr.","postalCode":"85435","locality":"Erding","municipality":{"key":"09177117","name":"Erding, GKSt","type":"Große_Kreisstadt"},"district":{"key":"09177","name":"Erding","type":"Landkreis"},"federalState":{"key":"09","name":"Bayern"}},{"name":"Peter-von-Koblenz-Str.","postalCode":"71701","locality":"Schwieberdingen","municipality":{"key":"08118067","name":"Schwieberdingen","type":"Kreisangehörige_Gemeinde"},"district":{"key":"08118","name":"Ludwigsburg","type":"Landkreis"},"federalState":{"key":"08","name":"Baden-Württemberg"}},{"name":"Pfaffenstieg","postalCode":"99869","locality":"Pferdingsleben","municipality":{"key":"16067055","name":"Pferdingsleben","type":"Kreisangehörige_Gemeinde"},"district":{"key":"16067","name":"Gotha","type":"Landkreis"},"federalState":{"key":"16","name":"Thüringen"}},{"name":"Pfaffenwaldweg","postalCode":"79364","locality":"Malterdingen","municipality":{"key":"08316024","name":"Malterdingen","type":"Kreisangehörige_Gemeinde"},"district":{"key":"08316","name":"Emmendingen","type":"Landkreis"},"federalState":{"key":"08","name":"Baden-Württemberg"}},{"name":"Pfaffenweg","postalCode":"71706","locality":"Schwieberdingen","municipality":{"key":"08118067","name":"Schwieberdingen","type":"Kreisangehörige_Gemeinde"},"district":{"key":"08118","name":"Ludwigsburg","type":"Landkreis"},"federalState":{"key":"08","name":"Baden-Württemberg"}},{"name":"Pfalzstr.","postalCode":"71735","locality":"Eberdingen","municipality":{"key":"08118012","name":"Eberdingen","type":"Kreisangehörige_Gemeinde"},"district":{"key":"08118","name":"Ludwigsburg","type":"Landkreis"},"federalState":{"key":"08","name":"Baden-Württemberg"}},{"name":"Pfannenstielweg","postalCode":"79364","locality":"Malterdingen","municipality":{"key":"08316024","name":"Malterdingen","type":"Kreisangehörige_Gemeinde"},"district":{"key":"08316","name":"Emmendingen","type":"Landkreis"},"federalState":{"key":"08","name":"Baden-Württemberg"}},{"name":"Pfarrer-Fischer-Str.","postalCode":"85435","locality":"Erding","municipality":{"key":"09177117","name":"Erding, GKSt","type":"Große_Kreisstadt"},"district":{"key":"09177","name":"Erding","type":"Landkreis"},"federalState":{"key":"09","name":"Bayern"}},{"name":"Pfarrer-Kerer-Str.","postalCode":"85435","locality":"Erding","municipality":{"key":"09177117","name":"Erding, GKSt","type":"Große_Kreisstadt"},"district":{"key":"09177","name":"Erding","type":"Landkreis"},"federalState":{"key":"09","name":"Bayern"}},{"name":"Pfarrer-Kleiner-Weg","postalCode":"85445","locality":"Oberding","municipality":{"key":"09177133","name":"Oberding","type":"Kreisangehörige_Gemeinde"},"district":{"key":"09177","name":"Erding","type":"Landkreis"},"federalState":{"key":"09","name":"Bayern"}},{"name":"Pfarrer-Mittermair-Str.","postalCode":"85445","locality":"Oberding","municipality":{"key":"09177133","name":"Oberding","type":"Kreisangehörige_Gemeinde"},"district":{"key":"09177","name":"Erding","type":"Landkreis"},"federalState":{"key":"09","name":"Bayern"}},{"name":"Pfarrer-Moser-Str.","postalCode":"85445","locality":"Oberding","municipality":{"key":"09177133","name":"Oberding","type":"Kreisangehörige_Gemeinde"},"district":{"key":"09177","name":"Erding","type":"Landkreis"},"federalState":{"key":"09","name":"Bayern"}},{"name":"Pfarrer-Mößl-Weg","postalCode":"86862","locality":"Lamerdingen","municipality":{"key":"09777145","name":"Lamerdingen","type":"Kreisangehörige_Gemeinde"},"district":{"key":"09777","name":"Ostallgäu","type":"Landkreis"},"federalState":{"key":"09","name":"Bayern"}},{"name":"Pfarrer-Veicht-Str.","postalCode":"85435","locality":"Erding","municipality":{"key":"09177117","name":"Erding, GKSt","type":"Große_Kreisstadt"},"district":{"key":"09177","name":"Erding","type":"Landkreis"},"federalState":{"key":"09","name":"Bayern"}},{"name":"Pfarrgasse","postalCode":"71735","locality":"Eberdingen","municipality":{"key":"08118012","name":"Eberdingen","type":"Kreisangehörige_Gemeinde"},"district":{"key":"08118","name":"Ludwigsburg","type":"Landkreis"},"federalState":{"key":"08","name":"Baden-Württemberg"}},{"name":"Pfarrgäßle","postalCode":"70771","locality":"Leinfelden-Echterdingen","municipality":{"key":"08116078","name":"Leinfelden-Echterdingen, Stadt","type":"Große_Kreisstadt"},"district":{"key":"08116","name":"Esslingen","type":"Landkreis"},"federalState":{"key":"08","name":"Baden-Württemberg"}},{"name":"Pfendtnergasse","postalCode":"85435","locality":"Erding","municipality":{"key":"09177117","name":"Erding, GKSt","type":"Große_Kreisstadt"},"district":{"key":"09177","name":"Erding","type":"Landkreis"},"federalState":{"key":"09","name":"Bayern"}},{"name":"Pferdeschwemmgasse","postalCode":"85435","locality":"Erding","municipality":{"key":"09177117","name":"Erding, GKSt","type":"Große_Kreisstadt"},"district":{"key":"09177","name":"Erding","type":"Landkreis"},"federalState":{"key":"09","name":"Bayern"}},{"name":"Pflanzschulallee","postalCode":"70771","locality":"Leinfelden-Echterdingen","municipality":{"key":"08116078","name":"Leinfelden-Echterdingen, Stadt","type":"Große_Kreisstadt"},"district":{"key":"08116","name":"Esslingen","type":"Landkreis"},"federalState":{"key":"08","name":"Baden-Württemberg"}},{"name":"Pforzheimer Str.","postalCode":"71735","locality":"Eberdingen","municipality":{"key":"08118012","name":"Eberdingen","type":"Kreisangehörige_Gemeinde"},"district":{"key":"08118","name":"Ludwigsburg","type":"Landkreis"},"federalState":{"key":"08","name":"Baden-Württemberg"}},{"name":"Piemontstr.","postalCode":"75038","locality":"Oberderdingen","municipality":{"key":"08215059","name":"Oberderdingen","type":"Kreisangehörige_Gemeinde"},"district":{"key":"08215","name":"Karlsruhe","type":"Landkreis"},"federalState":{"key":"08","name":"Baden-Württemberg"}},{"name":"Pietz","postalCode":"29640","locality":"Schneverdingen","municipality":{"key":"03358019","name":"Schneverdingen, Stadt","type":"Stadt"},"district":{"key":"03358","name":"Heidekreis","type":"Landkreis"},"federalState":{"key":"03","name":"Niedersachsen"}},{"name":"Pilzweg","postalCode":"86862","locality":"Lamerdingen","municipality":{"key":"09777145","name":"Lamerdingen","type":"Kreisangehörige_Gemeinde"},"district":{"key":"09777","name":"Ostallgäu","type":"Landkreis"},"federalState":{"key":"09","name":"Bayern"}},{"name":"Pineroloweg","postalCode":"75038","locality":"Oberderdingen","municipality":{"key":"08215059","name":"Oberderdingen","type":"Kreisangehörige_Gemeinde"},"district":{"key":"08215","name":"Karlsruhe","type":"Landkreis"},"federalState":{"key":"08","name":"Baden-Württemberg"}},{"name":"Quellenstr.","postalCode":"71735","locality":"Eberdingen","municipality":{"key":"08118012","name":"Eberdingen","type":"Kreisangehörige_Gemeinde"},"district":{"key":"08118","name":"Ludwigsburg","type":"Landkreis"},"federalState":{"key":"08","name":"Baden-Württemberg"}},{"name":"Querweg","postalCode":"29640","locality":"Schneverdingen","municipality":{"key":"03358019","name":"Schneverdingen, Stadt","type":"Stadt"},"district":{"key":"03358","name":"Heidekreis","type":"Landkreis"},"federalState":{"key":"03","name":"Niedersachsen"}},{"name":"Raiffeisenstr.","postalCode":"85459","locality":"Berglern","municipality":{"key":"09177112","name":"Berglern","type":"Kreisangehörige_Gemeinde"},"district":{"key":"09177","name":"Erding","type":"Landkreis"},"federalState":{"key":"09","name":"Bayern"}},{"name":"Ridinger Str.","postalCode":"85459","locality":"Berglern","municipality":{"key":"09177112","name":"Berglern","type":"Kreisangehörige_Gemeinde"},"district":{"key":"09177","name":"Erding","type":"Landkreis"},"federalState":{"key":"09","name":"Bayern"}},{"name":"Ringstr.","postalCode":"85459","locality":"Berglern","municipality":{"key":"09177112","name":"Berglern","type":"Kreisangehörige_Gemeinde"},"district":{"key":"09177","name":"Erding","type":"Landkreis"},"federalState":{"key":"09","name":"Bayern"}},{"name":"Rosenweg","postalCode":"85459","locality":"Berglern","municipality":{"key":"09177112","name":"Berglern","type":"Kreisangehörige_Gemeinde"},"district":{"key":"09177","name":"Erding","type":"Landkreis"},"federalState":{"key":"09","name":"Bayern"}},{"name":"Sattlerweg","postalCode":"85459","locality":"Berglern","municipality":{"key":"09177112","name":"Berglern","type":"Kreisangehörige_Gemeinde"},"district":{"key":"09177","name":"Erding","type":"Landkreis"},"federalState":{"key":"09","name":"Bayern"}},{"name":"Schäferweg","postalCode":"85459","locality":"Berglern","municipality":{"key":"09177112","name":"Berglern","type":"Kreisangehörige_Gemeinde"},"district":{"key":"09177","name":"Erding","type":"Landkreis"},"federalState":{"key":"09","name":"Bayern"}},{"name":"Semptstr.","postalCode":"85459","locality":"Berglern","municipality":{"key":"09177112","name":"Berglern","type":"Kreisangehörige_Gemeinde"},"district":{"key":"09177","name":"Erding","type":"Landkreis"},"federalState":{"key":"09","name":"Bayern"}},{"name":"Siedlerstr.","postalCode":"85459","locality":"Berglern","municipality":{"key":"09177112","name":"Berglern","type":"Kreisangehörige_Gemeinde"},"district":{"key":"09177","name":"Erding","type":"Landkreis"},"federalState":{"key":"09","name":"Bayern"}},{"name":"Tälesweg","postalCode":"71735","locality":"Eberdingen","municipality":{"key":"08118012","name":"Eberdingen","type":"Kreisangehörige_Gemeinde"},"district":{"key":"08118","name":"Ludwigsburg","type":"Landkreis"},"federalState":{"key":"08","name":"Baden-Württemberg"}},{"name":"Täleswiesenstr.","postalCode":"72770","locality":"Kusterdingen","municipality":{"key":"08416023","name":"Kusterdingen","type":"Kreisangehörige_Gemeinde"},"district":{"key":"08416","name":"Tübingen","type":"Landkreis"},"federalState":{"key":"08","name":"Baden-Württemberg"}},{"name":"Talmweg","postalCode":"79364","locality":"Malterdingen","municipality":{"key":"08316024","name":"Malterdingen","type":"Kreisangehörige_Gemeinde"},"district":{"key":"08316","name":"Emmendingen","type":"Landkreis"},"federalState":{"key":"08","name":"Baden-Württemberg"}},{"name":"Talstr.","postalCode":"70771","locality":"Leinfelden-Echterdingen","municipality":{"key":"08116078","name":"Leinfelden-Echterdingen, Stadt","type":"Große_Kreisstadt"},"district":{"key":"08116","name":"Esslingen","type":"Landkreis"},"federalState":{"key":"08","name":"Baden-Württemberg"}},{"name":"Talweg","postalCode":"71701","locality":"Schwieberdingen","municipality":{"key":"08118067","name":"Schwieberdingen","type":"Kreisangehörige_Gemeinde"},"district":{"key":"08118","name":"Ludwigsburg","type":"Landkreis"},"federalState":{"key":"08","name":"Baden-Württemberg"}},{"name":"Talweg","postalCode":"72127","locality":"Kusterdingen","municipality":{"key":"08416023","name":"Kusterdingen","type":"Kreisangehörige_Gemeinde"},"district":{"key":"08416","name":"Tübingen","type":"Landkreis"},"federalState":{"key":"08","name":"Baden-Württemberg"}},{"name":"Tammer Weg","postalCode":"71701","locality":"Schwieberdingen","municipality":{"key":"08118067","name":"Schwieberdingen","type":"Kreisangehörige_Gemeinde"},"district":{"key":"08118","name":"Ludwigsburg","type":"Landkreis"},"federalState":{"key":"08","name":"Baden-Württemberg"}},{"name":"Tannenstr.","postalCode":"72131","locality":"Ofterdingen","municipality":{"key":"08416031","name":"Ofterdingen","type":"Kreisangehörige_Gemeinde"},"district":{"key":"08416","name":"Tübingen","type":"Landkreis"},"federalState":{"key":"08","name":"Baden-Württemberg"}},{"name":"Tannenstr.","postalCode":"85435","locality":"Erding","municipality":{"key":"09177117","name":"Erding, GKSt","type":"Große_Kreisstadt"},"district":{"key":"09177","name":"Erding","type":"Landkreis"},"federalState":{"key":"09","name":"Bayern"}},{"name":"Tannenstr.","postalCode":"85445","locality":"Oberding","municipality":{"key":"09177133","name":"Oberding","type":"Kreisangehörige_Gemeinde"},"district":{"key":"09177","name":"Erding","type":"Landkreis"},"federalState":{"key":"09","name":"Bayern"}},{"name":"Tannenweg","postalCode":"29640","locality":"Schneverdingen","municipality":{"key":"03358019","name":"Schneverdingen, Stadt","type":"Stadt"},"district":{"key":"03358","name":"Heidekreis","type":"Landkreis"},"federalState":{"key":"03","name":"Niedersachsen"}},{"name":"Tannenweg","postalCode":"70771","locality":"Leinfelden-Echterdingen","municipality":{"key":"08116078","name":"Leinfelden-Echterdingen, Stadt","type":"Große_Kreisstadt"},"district":{"key":"08116","name":"Esslingen","type":"Landkreis"},"federalState":{"key":"08","name":"Baden-Württemberg"}},{"name":"Tannenweg","postalCode":"72770","locality":"Kusterdingen","municipality":{"key":"08416023","name":"Kusterdingen","type":"Kreisangehörige_Gemeinde"},"district":{"key":"08416","name":"Tübingen","type":"Landkreis"},"federalState":{"key":"08","name":"Baden-Württemberg"}},{"name":"Tannhäuserweg","postalCode":"72131","locality":"Ofterdingen","municipality":{"key":"08416031","name":"Ofterdingen","type":"Kreisangehörige_Gemeinde"},"district":{"key":"08416","name":"Tübingen","type":"Landkreis"},"federalState":{"key":"08","name":"Baden-Württemberg"}},{"name":"Tassilostr.","postalCode":"85445","locality":"Oberding","municipality":{"key":"09177133","name":"Oberding","type":"Kreisangehörige_Gemeinde"},"district":{"key":"09177","name":"Erding","type":"Landkreis"},"federalState":{"key":"09","name":"Bayern"}},{"name":"Tassiloweg","postalCode":"85435","locality":"Erding","municipality":{"key":"09177117","name":"Erding, GKSt","type":"Große_Kreisstadt"},"district":{"key":"09177","name":"Erding","type":"Landkreis"},"federalState":{"key":"09","name":"Bayern"}},{"name":"Taubensteinweg","postalCode":"85435","locality":"Erding","municipality":{"key":"09177117","name":"Erding, GKSt","type":"Große_Kreisstadt"},"district":{"key":"09177","name":"Erding","type":"Landkreis"},"federalState":{"key":"09","name":"Bayern"}},{"name":"Taufkirchener Str.","postalCode":"85435","locality":"Erding","municipality":{"key":"09177117","name":"Erding, GKSt","type":"Große_Kreisstadt"},"district":{"key":"09177","name":"Erding","type":"Landkreis"},"federalState":{"key":"09","name":"Bayern"}},{"name":"Taxiswald","postalCode":"70771","locality":"Leinfelden-Echterdingen","municipality":{"key":"08116078","name":"Leinfelden-Echterdingen, Stadt","type":"Große_Kreisstadt"},"district":{"key":"08116","name":"Esslingen","type":"Landkreis"},"federalState":{"key":"08","name":"Baden-Württemberg"}},{"name":"Teckstr.","postalCode":"70771","locality":"Leinfelden-Echterdingen","municipality":{"key":"08116078","name":"Leinfelden-Echterdingen, Stadt","type":"Große_Kreisstadt"},"district":{"key":"08116","name":"Esslingen","type":"Landkreis"},"federalState":{"key":"08","name":"Baden-Württemberg"}},{"name":"Teckstr.","postalCode":"72131","locality":"Ofterdingen","municipality":{"key":"08416031","name":"Ofterdingen","type":"Kreisangehörige_Gemeinde"},"district":{"key":"08416","name":"Tübingen","type":"Landkreis"},"federalState":{"key":"08","name":"Baden-Württemberg"}},{"name":"Teckweg","postalCode":"72127","locality":"Kusterdingen","municipality":{"key":"08416023","name":"Kusterdingen","type":"Kreisangehörige_Gemeinde"},"district":{"key":"08416","name":"Tübingen","type":"Landkreis"},"federalState":{"key":"08","name":"Baden-Württemberg"}},{"name":"Teisenbergweg","postalCode":"85435","locality":"Erding","municipality":{"key":"09177117","name":"Erding, GKSt","type":"Große_Kreisstadt"},"district":{"key":"09177","name":"Erding","type":"Landkreis"},"federalState":{"key":"09","name":"Bayern"}},{"name":"Terminal 2 - Abflug / Departure","postalCode":"85356","locality":"Oberding","municipality":{"key":"09177133","name":"Oberding","type":"Kreisangehörige_Gemeinde"},"district":{"key":"09177","name":"Erding","type":"Landkreis"},"federalState":{"key":"09","name":"Bayern"}},{"name":"Terminalstr. Mitte","postalCode":"85356","locality":"Oberding","municipality":{"key":"09177133","name":"Oberding","type":"Kreisangehörige_Gemeinde"},"district":{"key":"09177","name":"Erding","type":"Landkreis"},"federalState":{"key":"09","name":"Bayern"}},{"name":"Terminalstr. Ost","postalCode":"85356","locality":"Oberding","municipality":{"key":"09177133","name":"Oberding","type":"Kreisangehörige_Gemeinde"},"district":{"key":"09177","name":"Erding","type":"Landkreis"},"federalState":{"key":"09","name":"Bayern"}},{"name":"Terminalstr. West","postalCode":"85356","locality":"Oberding","municipality":{"key":"09177133","name":"Oberding","type":"Kreisangehörige_Gemeinde"},"district":{"key":"09177","name":"Erding","type":"Landkreis"},"federalState":{"key":"09","name":"Bayern"}},{"name":"Teuchelloch","postalCode":"75038","locality":"Oberderdingen","municipality":{"key":"08215059","name":"Oberderdingen","type":"Kreisangehörige_Gemeinde"},"district":{"key":"08215","name":"Karlsruhe","type":"Landkreis"},"federalState":{"key":"08","name":"Baden-Württemberg"}},{"name":"Teutonenstr.","postalCode":"70771","locality":"Leinfelden-Echterdingen","municipality":{"key":"08116078","name":"Leinfelden-Echterdingen, Stadt","type":"Große_Kreisstadt"},"district":{"key":"08116","name":"Esslingen","type":"Landkreis"},"federalState":{"key":"08","name":"Baden-Württemberg"}},{"name":"Theodor-Heuss-Str.","postalCode":"71735","locality":"Eberdingen","municipality":{"key":"08118012","name":"Eberdingen","type":"Kreisangehörige_Gemeinde"},"district":{"key":"08118","name":"Ludwigsburg","type":"Landkreis"},"federalState":{"key":"08","name":"Baden-Württemberg"}},{"name":"Theodor-Meyer-Str.","postalCode":"29640","locality":"Schneverdingen","municipality":{"key":"03358019","name":"Schneverdingen, Stadt","type":"Stadt"},"district":{"key":"03358","name":"Heidekreis","type":"Landkreis"},"federalState":{"key":"03","name":"Niedersachsen"}},{"name":"Theodor-Ortner-Str.","postalCode":"85435","locality":"Erding","municipality":{"key":"09177117","name":"Erding, GKSt","type":"Große_Kreisstadt"},"district":{"key":"09177","name":"Erding","type":"Landkreis"},"federalState":{"key":"09","name":"Bayern"}},{"name":"Theodor-Storm-Str.","postalCode":"29640","locality":"Schneverdingen","municipality":{"key":"03358019","name":"Schneverdingen, Stadt","type":"Stadt"},"district":{"key":"03358","name":"Heidekreis","type":"Landkreis"},"federalState":{"key":"03","name":"Niedersachsen"}},{"name":"Theresia-Gerhardinger-Str.","postalCode":"85435","locality":"Erding","municipality":{"key":"09177117","name":"Erding, GKSt","type":"Große_Kreisstadt"},"district":{"key":"09177","name":"Erding","type":"Landkreis"},"federalState":{"key":"09","name":"Bayern"}},{"name":"Thermenallee","postalCode":"85435","locality":"Erding","municipality":{"key":"09177117","name":"Erding, GKSt","type":"Große_Kreisstadt"},"district":{"key":"09177","name":"Erding","type":"Landkreis"},"federalState":{"key":"09","name":"Bayern"}},{"name":"Thingstr.","postalCode":"29640","locality":"Schneverdingen","municipality":{"key":"03358019","name":"Schneverdingen, Stadt","type":"Stadt"},"district":{"key":"03358","name":"Heidekreis","type":"Landkreis"},"federalState":{"key":"03","name":"Niedersachsen"}},{"name":"Thomas-Mann-Str.","postalCode":"29640","locality":"Schneverdingen","municipality":{"key":"03358019","name":"Schneverdingen, Stadt","type":"Stadt"},"district":{"key":"03358","name":"Heidekreis","type":"Landkreis"},"federalState":{"key":"03","name":"Niedersachsen"}},{"name":"Thomastr.","postalCode":"85435","locality":"Erding","municipality":{"key":"09177117","name":"Erding, GKSt","type":"Große_Kreisstadt"},"district":{"key":"09177","name":"Erding","type":"Landkreis"},"federalState":{"key":"09","name":"Bayern"}},{"name":"Thomas-Wimmer-Str.","postalCode":"85435","locality":"Erding","municipality":{"key":"09177117","name":"Erding, GKSt","type":"Große_Kreisstadt"},"district":{"key":"09177","name":"Erding","type":"Landkreis"},"federalState":{"key":"09","name":"Bayern"}},{"name":"Thüringer Str.","postalCode":"71701","locality":"Schwieberdingen","municipality":{"key":"08118067","name":"Schwieberdingen","type":"Kreisangehörige_Gemeinde"},"district":{"key":"08118","name":"Ludwigsburg","type":"Landkreis"},"federalState":{"key":"08","name":"Baden-Württemberg"}},{"name":"Tiefengäßle","postalCode":"70771","locality":"Leinfelden-Echterdingen","municipality":{"key":"08116078","name":"Leinfelden-Echterdingen, Stadt","type":"Große_Kreisstadt"},"district":{"key":"08116","name":"Esslingen","type":"Landkreis"},"federalState":{"key":"08","name":"Baden-Württemberg"}},{"name":"Tiefenteichweg","postalCode":"75038","locality":"Oberderdingen","municipality":{"key":"08215059","name":"Oberderdingen","type":"Kreisangehörige_Gemeinde"},"district":{"key":"08215","name":"Karlsruhe","type":"Landkreis"},"federalState":{"key":"08","name":"Baden-Württemberg"}},{"name":"Tilsiter Str.","postalCode":"71701","locality":"Schwieberdingen","municipality":{"key":"08118067","name":"Schwieberdingen","type":"Kreisangehörige_Gemeinde"},"district":{"key":"08118","name":"Ludwigsburg","type":"Landkreis"},"federalState":{"key":"08","name":"Baden-Württemberg"}},{"name":"Timmerloher Weg","postalCode":"29640","locality":"Schneverdingen","municipality":{"key":"03358019","name":"Schneverdingen, Stadt","type":"Stadt"},"district":{"key":"03358","name":"Heidekreis","type":"Landkreis"},"federalState":{"key":"03","name":"Niedersachsen"}},{"name":"Tinesch","postalCode":"29640","locality":"Schneverdingen","municipality":{"key":"03358019","name":"Schneverdingen, Stadt","type":"Stadt"},"district":{"key":"03358","name":"Heidekreis","type":"Landkreis"},"federalState":{"key":"03","name":"Niedersachsen"}},{"name":"Tittenkofener Str.","postalCode":"85435","locality":"Erding","municipality":{"key":"09177117","name":"Erding, GKSt","type":"Große_Kreisstadt"},"district":{"key":"09177","name":"Erding","type":"Landkreis"},"federalState":{"key":"09","name":"Bayern"}},{"name":"Todfeilerstr.","postalCode":"85435","locality":"Erding","municipality":{"key":"09177117","name":"Erding, GKSt","type":"Große_Kreisstadt"},"district":{"key":"09177","name":"Erding","type":"Landkreis"},"federalState":{"key":"09","name":"Bayern"}},{"name":"Torackerweg","postalCode":"72127","locality":"Kusterdingen","municipality":{"key":"08416023","name":"Kusterdingen","type":"Kreisangehörige_Gemeinde"},"district":{"key":"08416","name":"Tübingen","type":"Landkreis"},"federalState":{"key":"08","name":"Baden-Württemberg"}},{"name":"Torfstich","postalCode":"29640","locality":"Schneverdingen","municipality":{"key":"03358019","name":"Schneverdingen, Stadt","type":"Stadt"},"district":{"key":"03358","name":"Heidekreis","type":"Landkreis"},"federalState":{"key":"03","name":"Niedersachsen"}},{"name":"Torre-Pellice-Weg","postalCode":"75038","locality":"Oberderdingen","municipality":{"key":"08215059","name":"Oberderdingen","type":"Kreisangehörige_Gemeinde"},"district":{"key":"08215","name":"Karlsruhe","type":"Landkreis"},"federalState":{"key":"08","name":"Baden-Württemberg"}},{"name":"Uhlandstr.","postalCode":"70771","locality":"Leinfelden-Echterdingen","municipality":{"key":"08116078","name":"Leinfelden-Echterdingen, Stadt","type":"Große_Kreisstadt"},"district":{"key":"08116","name":"Esslingen","type":"Landkreis"},"federalState":{"key":"08","name":"Baden-Württemberg"}},{"name":"Uhlandstr.","postalCode":"71735","locality":"Eberdingen","municipality":{"key":"08118012","name":"Eberdingen","type":"Kreisangehörige_Gemeinde"},"district":{"key":"08118","name":"Ludwigsburg","type":"Landkreis"},"federalState":{"key":"08","name":"Baden-Württemberg"}},{"name":"Uhlandstr.","postalCode":"72127","locality":"Kusterdingen","municipality":{"key":"08416023","name":"Kusterdingen","type":"Kreisangehörige_Gemeinde"},"district":{"key":"08416","name":"Tübingen","type":"Landkreis"},"federalState":{"key":"08","name":"Baden-Württemberg"}},{"name":"Uhlandstr.","postalCode":"72131","locality":"Ofterdingen","municipality":{"key":"08416031","name":"Ofterdingen","type":"Kreisangehörige_Gemeinde"},"district":{"key":"08416","name":"Tübingen","type":"Landkreis"},"federalState":{"key":"08","name":"Baden-Württemberg"}},{"name":"Uhlandstr.","postalCode":"75038","locality":"Oberderdingen","municipality":{"key":"08215059","name":"Oberderdingen","type":"Kreisangehörige_Gemeinde"},"district":{"key":"08215","name":"Karlsruhe","type":"Landkreis"},"federalState":{"key":"08","name":"Baden-Württemberg"}},{"name":"Uhlandstr.","postalCode":"85435","locality":"Erding","municipality":{"key":"09177117","name":"Erding, GKSt","type":"Große_Kreisstadt"},"district":{"key":"09177","name":"Erding","type":"Landkreis"},"federalState":{"key":"09","name":"Bayern"}},{"name":"Uhlandweg","postalCode":"71701","locality":"Schwieberdingen","municipality":{"key":"08118067","name":"Schwieberdingen","type":"Kreisangehörige_Gemeinde"},"district":{"key":"08118","name":"Ludwigsburg","type":"Landkreis"},"federalState":{"key":"08","name":"Baden-Württemberg"}},{"name":"Uhlbergstr.","postalCode":"70771","locality":"Leinfelden-Echterdingen","municipality":{"key":"08116078","name":"Leinfelden-Echterdingen, Stadt","type":"Große_Kreisstadt"},"district":{"key":"08116","name":"Esslingen","type":"Landkreis"},"federalState":{"key":"08","name":"Baden-Württemberg"}},{"name":"Ulmenstr.","postalCode":"85435","locality":"Erding","municipality":{"key":"09177117","name":"Erding, GKSt","type":"Große_Kreisstadt"},"district":{"key":"09177","name":"Erding","type":"Landkreis"},"federalState":{"key":"09","name":"Bayern"}},{"name":"Ulmenweg","postalCode":"29640","locality":"Schneverdingen","municipality":{"key":"03358019","name":"Schneverdingen, Stadt","type":"Stadt"},"district":{"key":"03358","name":"Heidekreis","type":"Landkreis"},"federalState":{"key":"03","name":"Niedersachsen"}},{"name":"Ulmenweg","postalCode":"70771","locality":"Leinfelden-Echterdingen","municipality":{"key":"08116078","name":"Leinfelden-Echterdingen, Stadt","type":"Große_Kreisstadt"},"district":{"key":"08116","name":"Esslingen","type":"Landkreis"},"federalState":{"key":"08","name":"Baden-Württemberg"}},{"name":"Ulmer Str.","postalCode":"70771","locality":"Leinfelden-Echterdingen","municipality":{"key":"08116078","name":"Leinfelden-Echterdingen, Stadt","type":"Große_Kreisstadt"},"district":{"key":"08116","name":"Esslingen","type":"Landkreis"},"federalState":{"key":"08","name":"Baden-Württemberg"}},{"name":"Ulrichstr.","postalCode":"70771","locality":"Leinfelden-Echterdingen","municipality":{"key":"08116078","name":"Leinfelden-Echterdingen, Stadt","type":"Große_Kreisstadt"},"district":{"key":"08116","name":"Esslingen","type":"Landkreis"},"federalState":{"key":"08","name":"Baden-Württemberg"}},{"name":"Ulrichstr.","postalCode":"72127","locality":"Kusterdingen","municipality":{"key":"08416023","name":"Kusterdingen","type":"Kreisangehörige_Gemeinde"},"district":{"key":"08416","name":"Tübingen","type":"Landkreis"},"federalState":{"key":"08","name":"Baden-Württemberg"}},{"name":"Ulrichstr.","postalCode":"86735","locality":"Amerdingen","municipality":{"key":"09779112","name":"Amerdingen","type":"Kreisangehörige_Gemeinde"},"district":{"key":"09779","name":"Donau-Ries","type":"Landkreis"},"federalState":{"key":"09","name":"Bayern"}},{"name":"Ungerhaldenweg","postalCode":"70771","locality":"Leinfelden-Echterdingen","municipality":{"key":"08116078","name":"Leinfelden-Echterdingen, Stadt","type":"Große_Kreisstadt"},"district":{"key":"08116","name":"Esslingen","type":"Landkreis"},"federalState":{"key":"08","name":"Baden-Württemberg"}},{"name":"Unteraicher Weg","postalCode":"70771","locality":"Leinfelden-Echterdingen","municipality":{"key":"08116078","name":"Leinfelden-Echterdingen, Stadt","type":"Große_Kreisstadt"},"district":{"key":"08116","name":"Esslingen","type":"Landkreis"},"federalState":{"key":"08","name":"Baden-Württemberg"}},{"name":"Unter dem Mähringer Weg","postalCode":"72127","locality":"Kusterdingen","municipality":{"key":"08416023","name":"Kusterdingen","type":"Kreisangehörige_Gemeinde"},"district":{"key":"08416","name":"Tübingen","type":"Landkreis"},"federalState":{"key":"08","name":"Baden-Württemberg"}},{"name":"Untere Gärten","postalCode":"70771","locality":"Leinfelden-Echterdingen","municipality":{"key":"08116078","name":"Leinfelden-Echterdingen, Stadt","type":"Große_Kreisstadt"},"district":{"key":"08116","name":"Esslingen","type":"Landkreis"},"federalState":{"key":"08","name":"Baden-Württemberg"}},{"name":"Untere Halde","postalCode":"70771","locality":"Leinfelden-Echterdingen","municipality":{"key":"08116078","name":"Leinfelden-Echterdingen, Stadt","type":"Große_Kreisstadt"},"district":{"key":"08116","name":"Esslingen","type":"Landkreis"},"federalState":{"key":"08","name":"Baden-Württemberg"}},{"name":"Unterer Banholzweg","postalCode":"70771","locality":"Leinfelden-Echterdingen","municipality":{"key":"08116078","name":"Leinfelden-Echterdingen, Stadt","type":"Große_Kreisstadt"},"district":{"key":"08116","name":"Esslingen","type":"Landkreis"},"federalState":{"key":"08","name":"Baden-Württemberg"}},{"name":"Unterer Brandweg","postalCode":"70771","locality":"Leinfelden-Echterdingen","municipality":{"key":"08116078","name":"Leinfelden-Echterdingen, Stadt","type":"Große_Kreisstadt"},"district":{"key":"08116","name":"Esslingen","type":"Landkreis"},"federalState":{"key":"08","name":"Baden-Württemberg"}},{"name":"Unterer Dettenackerweg","postalCode":"71735","locality":"Eberdingen","municipality":{"key":"08118012","name":"Eberdingen","type":"Kreisangehörige_Gemeinde"},"district":{"key":"08118","name":"Ludwigsburg","type":"Landkreis"},"federalState":{"key":"08","name":"Baden-Württemberg"}},{"name":"Unterer Kasparswald","postalCode":"70771","locality":"Leinfelden-Echterdingen","municipality":{"key":"08116078","name":"Leinfelden-Echterdingen, Stadt","type":"Große_Kreisstadt"},"district":{"key":"08116","name":"Esslingen","type":"Landkreis"},"federalState":{"key":"08","name":"Baden-Württemberg"}},{"name":"Unterer Wolfentalweg","postalCode":"79364","locality":"Malterdingen","municipality":{"key":"08316024","name":"Malterdingen","type":"Kreisangehörige_Gemeinde"},"district":{"key":"08316","name":"Emmendingen","type":"Landkreis"},"federalState":{"key":"08","name":"Baden-Württemberg"}},{"name":"Untertorstr.","postalCode":"70771","locality":"Leinfelden-Echterdingen","municipality":{"key":"08116078","name":"Leinfelden-Echterdingen, Stadt","type":"Große_Kreisstadt"},"district":{"key":"08116","name":"Esslingen","type":"Landkreis"},"federalState":{"key":"08","name":"Baden-Württemberg"}},{"name":"Unterwald","postalCode":"79364","locality":"Malterdingen","municipality":{"key":"08316024","name":"Malterdingen","type":"Kreisangehörige_Gemeinde"},"district":{"key":"08316","name":"Emmendingen","type":"Landkreis"},"federalState":{"key":"08","name":"Baden-Württemberg"}},{"name":"Untuchtstr.","postalCode":"70771","locality":"Leinfelden-Echterdingen","municipality":{"key":"08116078","name":"Leinfelden-Echterdingen, Stadt","type":"Große_Kreisstadt"},"district":{"key":"08116","name":"Esslingen","type":"Landkreis"},"federalState":{"key":"08","name":"Baden-Württemberg"}},{"name":"Urbanweg","postalCode":"75038","locality":"Oberderdingen","municipality":{"key":"08215059","name":"Oberderdingen","type":"Kreisangehörige_Gemeinde"},"district":{"key":"08215","name":"Karlsruhe","type":"Landkreis"},"federalState":{"key":"08","name":"Baden-Württemberg"}},{"name":"Ursulastr.","postalCode":"72131","locality":"Ofterdingen","municipality":{"key":"08416031","name":"Ofterdingen","type":"Kreisangehörige_Gemeinde"},"district":{"key":"08416","name":"Tübingen","type":"Landkreis"},"federalState":{"key":"08","name":"Baden-Württemberg"}},{"name":"Ursulaweg","postalCode":"70771","locality":"Leinfelden-Echterdingen","municipality":{"key":"08116078","name":"Leinfelden-Echterdingen, Stadt","type":"Große_Kreisstadt"},"district":{"key":"08116","name":"Esslingen","type":"Landkreis"},"federalState":{"key":"08","name":"Baden-Württemberg"}},{"name":"Vahlzener Str.","postalCode":"29640","locality":"Schneverdingen","municipality":{"key":"03358019","name":"Schneverdingen, Stadt","type":"Stadt"},"district":{"key":"03358","name":"Heidekreis","type":"Landkreis"},"federalState":{"key":"03","name":"Niedersachsen"}},{"name":"Vaihinger Str.","postalCode":"70771","locality":"Leinfelden-Echterdingen","municipality":{"key":"08116078","name":"Leinfelden-Echterdingen, Stadt","type":"Große_Kreisstadt"},"district":{"key":"08116","name":"Esslingen","type":"Landkreis"},"federalState":{"key":"08","name":"Baden-Württemberg"}},{"name":"Vaihinger Str.","postalCode":"71701","locality":"Schwieberdingen","municipality":{"key":"08118067","name":"Schwieberdingen","type":"Kreisangehörige_Gemeinde"},"district":{"key":"08118","name":"Ludwigsburg","type":"Landkreis"},"federalState":{"key":"08","name":"Baden-Württemberg"}},{"name":"Vaihinger Str.","postalCode":"71735","locality":"Eberdingen","municipality":{"key":"08118012","name":"Eberdingen","type":"Kreisangehörige_Gemeinde"},"district":{"key":"08118","name":"Ludwigsburg","type":"Landkreis"},"federalState":{"key":"08","name":"Baden-Württemberg"}},{"name":"Valentin-Kirmeyer-Str.","postalCode":"85435","locality":"Erding","municipality":{"key":"09177117","name":"Erding, GKSt","type":"Große_Kreisstadt"},"district":{"key":"09177","name":"Erding","type":"Landkreis"},"federalState":{"key":"09","name":"Bayern"}},{"name":"Veigelweg","postalCode":"72127","locality":"Kusterdingen","municipality":{"key":"08416023","name":"Kusterdingen","type":"Kreisangehörige_Gemeinde"},"district":{"key":"08416","name":"Tübingen","type":"Landkreis"},"federalState":{"key":"08","name":"Baden-Württemberg"}},{"name":"Veilchenweg","postalCode":"70771","locality":"Leinfelden-Echterdingen","municipality":{"key":"08116078","name":"Leinfelden-Echterdingen, Stadt","type":"Große_Kreisstadt"},"district":{"key":"08116","name":"Esslingen","type":"Landkreis"},"federalState":{"key":"08","name":"Baden-Württemberg"}},{"name":"Verdener Str.","postalCode":"29640","locality":"Schneverdingen","municipality":{"key":"03358019","name":"Schneverdingen, Stadt","type":"Stadt"},"district":{"key":"03358","name":"Heidekreis","type":"Landkreis"},"federalState":{"key":"03","name":"Niedersachsen"}},{"name":"Verdiweg","postalCode":"70771","locality":"Leinfelden-Echterdingen","municipality":{"key":"08116078","name":"Leinfelden-Echterdingen, Stadt","type":"Große_Kreisstadt"},"district":{"key":"08116","name":"Esslingen","type":"Landkreis"},"federalState":{"key":"08","name":"Baden-Württemberg"}},{"name":"Vespucciweg","postalCode":"70771","locality":"Leinfelden-Echterdingen","municipality":{"key":"08116078","name":"Leinfelden-Echterdingen, Stadt","type":"Große_Kreisstadt"},"district":{"key":"08116","name":"Esslingen","type":"Landkreis"},"federalState":{"key":"08","name":"Baden-Württemberg"}},{"name":"Viehweg","postalCode":"70771","locality":"Leinfelden-Echterdingen","municipality":{"key":"08116078","name":"Leinfelden-Echterdingen, Stadt","type":"Große_Kreisstadt"},"district":{"key":"08116","name":"Esslingen","type":"Landkreis"},"federalState":{"key":"08","name":"Baden-Württemberg"}},{"name":"Vierburgenweg","postalCode":"79364","locality":"Malterdingen","municipality":{"key":"08316024","name":"Malterdingen","type":"Kreisangehörige_Gemeinde"},"district":{"key":"08316","name":"Emmendingen","type":"Landkreis"},"federalState":{"key":"08","name":"Baden-Württemberg"}},{"name":"Villar-Perosa-Str.","postalCode":"75038","locality":"Oberderdingen","municipality":{"key":"08215059","name":"Oberderdingen","type":"Kreisangehörige_Gemeinde"},"district":{"key":"08215","name":"Karlsruhe","type":"Landkreis"},"federalState":{"key":"08","name":"Baden-Württemberg"}},{"name":"Vinzenzstr.","postalCode":"85435","locality":"Erding","municipality":{"key":"09177117","name":"Erding, GKSt","type":"Große_Kreisstadt"},"district":{"key":"09177","name":"Erding","type":"Landkreis"},"federalState":{"key":"09","name":"Bayern"}},{"name":"Vogelbeerweg","postalCode":"29640","locality":"Schneverdingen","municipality":{"key":"03358019","name":"Schneverdingen, Stadt","type":"Stadt"},"district":{"key":"03358","name":"Heidekreis","type":"Landkreis"},"federalState":{"key":"03","name":"Niedersachsen"}},{"name":"Vogelherdweg","postalCode":"70771","locality":"Leinfelden-Echterdingen","municipality":{"key":"08116078","name":"Leinfelden-Echterdingen, Stadt","type":"Große_Kreisstadt"},"district":{"key":"08116","name":"Esslingen","type":"Landkreis"},"federalState":{"key":"08","name":"Baden-Württemberg"}},{"name":"Vogelsangstr.","postalCode":"72131","locality":"Ofterdingen","municipality":{"key":"08416031","name":"Ofterdingen","type":"Kreisangehörige_Gemeinde"},"district":{"key":"08416","name":"Tübingen","type":"Landkreis"},"federalState":{"key":"08","name":"Baden-Württemberg"}},{"name":"Vogesenstr.","postalCode":"79291","locality":"Merdingen","municipality":{"key":"08315072","name":"Merdingen","type":"Kreisangehörige_Gemeinde"},"district":{"key":"08315","name":"Breisgau-Hochschwarzwald","type":"Landkreis"},"federalState":{"key":"08","name":"Baden-Württemberg"}},{"name":"Vögtleinweg","postalCode":"70771","locality":"Leinfelden-Echterdingen","municipality":{"key":"08116078","name":"Leinfelden-Echterdingen, Stadt","type":"Große_Kreisstadt"},"district":{"key":"08116","name":"Esslingen","type":"Landkreis"},"federalState":{"key":"08","name":"Baden-Württemberg"}},{"name":"Vogtweg","postalCode":"79364","locality":"Malterdingen","municipality":{"key":"08316024","name":"Malterdingen","type":"Kreisangehörige_Gemeinde"},"district":{"key":"08316","name":"Emmendingen","type":"Landkreis"},"federalState":{"key":"08","name":"Baden-Württemberg"}},{"name":"Vöhinger Weg","postalCode":"71701","locality":"Schwieberdingen","municipality":{"key":"08118067","name":"Schwieberdingen","type":"Kreisangehörige_Gemeinde"},"district":{"key":"08118","name":"Ludwigsburg","type":"Landkreis"},"federalState":{"key":"08","name":"Baden-Württemberg"}},{"name":"Voigten","postalCode":"29640","locality":"Schneverdingen","municipality":{"key":"03358019","name":"Schneverdingen, Stadt","type":"Stadt"},"district":{"key":"03358","name":"Heidekreis","type":"Landkreis"},"federalState":{"key":"03","name":"Niedersachsen"}},{"name":"Von-Droste-Hülshoff-Weg","postalCode":"29640","locality":"Schneverdingen","municipality":{"key":"03358019","name":"Schneverdingen, Stadt","type":"Stadt"},"district":{"key":"03358","name":"Heidekreis","type":"Landkreis"},"federalState":{"key":"03","name":"Niedersachsen"}},{"name":"Von-Grainger-Weg","postalCode":"85435","locality":"Erding","municipality":{"key":"09177117","name":"Erding, GKSt","type":"Große_Kreisstadt"},"district":{"key":"09177","name":"Erding","type":"Landkreis"},"federalState":{"key":"09","name":"Bayern"}},{"name":"Von-Haag-Str.","postalCode":"85435","locality":"Erding","municipality":{"key":"09177117","name":"Erding, GKSt","type":"Große_Kreisstadt"},"district":{"key":"09177","name":"Erding","type":"Landkreis"},"federalState":{"key":"09","name":"Bayern"}},{"name":"Von-Kleist-Str.","postalCode":"85435","locality":"Erding","municipality":{"key":"09177117","name":"Erding, GKSt","type":"Große_Kreisstadt"},"district":{"key":"09177","name":"Erding","type":"Landkreis"},"federalState":{"key":"09","name":"Bayern"}},{"name":"Von-Linde-Str.","postalCode":"85435","locality":"Erding","municipality":{"key":"09177117","name":"Erding, GKSt","type":"Große_Kreisstadt"},"district":{"key":"09177","name":"Erding","type":"Landkreis"},"federalState":{"key":"09","name":"Bayern"}},{"name":"Von-Puech-Str.","postalCode":"85435","locality":"Erding","municipality":{"key":"09177117","name":"Erding, GKSt","type":"Große_Kreisstadt"},"district":{"key":"09177","name":"Erding","type":"Landkreis"},"federalState":{"key":"09","name":"Bayern"}},{"name":"Vor dem Holz","postalCode":"70771","locality":"Leinfelden-Echterdingen","municipality":{"key":"08116078","name":"Leinfelden-Echterdingen, Stadt","type":"Große_Kreisstadt"},"district":{"key":"08116","name":"Esslingen","type":"Landkreis"},"federalState":{"key":"08","name":"Baden-Württemberg"}},{"name":"Vor den Höfen","postalCode":"29640","locality":"Schneverdingen","municipality":{"key":"03358019","name":"Schneverdingen, Stadt","type":"Stadt"},"district":{"key":"03358","name":"Heidekreis","type":"Landkreis"},"federalState":{"key":"03","name":"Niedersachsen"}},{"name":"Vordere Weingartenstr.","postalCode":"71735","locality":"Eberdingen","municipality":{"key":"08118012","name":"Eberdingen","type":"Kreisangehörige_Gemeinde"},"district":{"key":"08118","name":"Ludwigsburg","type":"Landkreis"},"federalState":{"key":"08","name":"Baden-Württemberg"}},{"name":"Voßbarg","postalCode":"29640","locality":"Schneverdingen","municipality":{"key":"03358019","name":"Schneverdingen, Stadt","type":"Stadt"},"district":{"key":"03358","name":"Heidekreis","type":"Landkreis"},"federalState":{"key":"03","name":"Niedersachsen"}},{"name":"Wagnerweg","postalCode":"85459","locality":"Berglern","municipality":{"key":"09177112","name":"Berglern","type":"Kreisangehörige_Gemeinde"},"district":{"key":"09177","name":"Erding","type":"Landkreis"},"federalState":{"key":"09","name":"Bayern"}},{"name":"Weidenweg","postalCode":"85459","locality":"Berglern","municipality":{"key":"09177112","name":"Berglern","type":"Kreisangehörige_Gemeinde"},"district":{"key":"09177","name":"Erding","type":"Landkreis"},"federalState":{"key":"09","name":"Bayern"}},{"name":"Wiesenweg","postalCode":"85459","locality":"Berglern","municipality":{"key":"09177112","name":"Berglern","type":"Kreisangehörige_Gemeinde"},"district":{"key":"09177","name":"Erding","type":"Landkreis"},"federalState":{"key":"09","name":"Bayern"}},{"name":"Zum Burgstall","postalCode":"85459","locality":"Berglern","municipality":{"key":"09177112","name":"Berglern","type":"Kreisangehörige_Gemeinde"},"district":{"key":"09177","name":"Erding","type":"Landkreis"},"federalState":{"key":"09","name":"Bayern"}},{"name":"Ölbergweg","postalCode":"75038","locality":"Oberderdingen","municipality":{"key":"08215059","name":"Oberderdingen","type":"Kreisangehörige_Gemeinde"},"district":{"key":"08215","name":"Karlsruhe","type":"Landkreis"},"federalState":{"key":"08","name":"Baden-Württemberg"}},{"name":"Ölmühle","postalCode":"75038","locality":"Oberderdingen","municipality":{"key":"08215059","name":"Oberderdingen","type":"Kreisangehörige_Gemeinde"},"district":{"key":"08215","name":"Karlsruhe","type":"Landkreis"},"federalState":{"key":"08","name":"Baden-Württemberg"}},{"name":"Ölmühlenkopfweg","postalCode":"75038","locality":"Oberderdingen","municipality":{"key":"08215059","name":"Oberderdingen","type":"Kreisangehörige_Gemeinde"},"district":{"key":"08215","name":"Karlsruhe","type":"Landkreis"},"federalState":{"key":"08","name":"Baden-Württemberg"}},{"name":"Örlesweg","postalCode":"70771","locality":"Leinfelden-Echterdingen","municipality":{"key":"08116078","name":"Leinfelden-Echterdingen, Stadt","type":"Große_Kreisstadt"},"district":{"key":"08116","name":"Esslingen","type":"Landkreis"},"federalState":{"key":"08","name":"Baden-Württemberg"}},{"name":"Österbergweg","postalCode":"72127","locality":"Kusterdingen","municipality":{"key":"08416023","name":"Kusterdingen","type":"Kreisangehörige_Gemeinde"},"district":{"key":"08416","name":"Tübingen","type":"Landkreis"},"federalState":{"key":"08","name":"Baden-Württemberg"}},{"name":"Östliche Bahnhofstr.","postalCode":"75038","locality":"Oberderdingen","municipality":{"key":"08215059","name":"Oberderdingen","type":"Kreisangehörige_Gemeinde"},"district":{"key":"08215","name":"Karlsruhe","type":"Landkreis"},"federalState":{"key":"08","name":"Baden-Württemberg"}},]