[{"name":"Adalbert-Stifter-Str.","postalCode":"34471","locality":"Volkmarsen","municipality":{"key":"06635020","name":"Volkmarsen, Stadt","type":"Stadt"},"district":{"key":"06635","name":"Waldeck-Frankenberg","type":"Landkreis"},"federalState":{"key":"06","name":"Hessen"}},{"name":"Agnes-Miegel-Weg","postalCode":"34471","locality":"Volkmarsen","municipality":{"key":"06635020","name":"Volkmarsen, Stadt","type":"Stadt"},"district":{"key":"06635","name":"Waldeck-Frankenberg","type":"Landkreis"},"federalState":{"key":"06","name":"Hessen"}},{"name":"Ahornstr.","postalCode":"34471","locality":"Volkmarsen","municipality":{"key":"06635020","name":"Volkmarsen, Stadt","type":"Stadt"},"district":{"key":"06635","name":"Waldeck-Frankenberg","type":"Landkreis"},"federalState":{"key":"06","name":"Hessen"}},{"name":"Akazienstr.","postalCode":"34471","locality":"Volkmarsen","municipality":{"key":"06635020","name":"Volkmarsen, Stadt","type":"Stadt"},"district":{"key":"06635","name":"Waldeck-Frankenberg","type":"Landkreis"},"federalState":{"key":"06","name":"Hessen"}},{"name":"Albert-Schweitzer-Weg","postalCode":"34471","locality":"Volkmarsen","municipality":{"key":"06635020","name":"Volkmarsen, Stadt","type":"Stadt"},"district":{"key":"06635","name":"Waldeck-Frankenberg","type":"Landkreis"},"federalState":{"key":"06","name":"Hessen"}},{"name":"Alte Mühle","postalCode":"34471","locality":"Volkmarsen","municipality":{"key":"06635020","name":"Volkmarsen, Stadt","type":"Stadt"},"district":{"key":"06635","name":"Waldeck-Frankenberg","type":"Landkreis"},"federalState":{"key":"06","name":"Hessen"}},{"name":"Alter Born","postalCode":"34471","locality":"Volkmarsen","municipality":{"key":"06635020","name":"Volkmarsen, Stadt","type":"Stadt"},"district":{"key":"06635","name":"Waldeck-Frankenberg","type":"Landkreis"},"federalState":{"key":"06","name":"Hessen"}},{"name":"Am Bahnhof","postalCode":"34471","locality":"Volkmarsen","municipality":{"key":"06635020","name":"Volkmarsen, Stadt","type":"Stadt"},"district":{"key":"06635","name":"Waldeck-Frankenberg","type":"Landkreis"},"federalState":{"key":"06","name":"Hessen"}},{"name":"Am Brausewehr","postalCode":"34471","locality":"Volkmarsen","municipality":{"key":"06635020","name":"Volkmarsen, Stadt","type":"Stadt"},"district":{"key":"06635","name":"Waldeck-Frankenberg","type":"Landkreis"},"federalState":{"key":"06","name":"Hessen"}},{"name":"Am Brünnchen","postalCode":"34471","locality":"Volkmarsen","municipality":{"key":"06635020","name":"Volkmarsen, Stadt","type":"Stadt"},"district":{"key":"06635","name":"Waldeck-Frankenberg","type":"Landkreis"},"federalState":{"key":"06","name":"Hessen"}},{"name":"Am Euber","postalCode":"34471","locality":"Volkmarsen","municipality":{"key":"06635020","name":"Volkmarsen, Stadt","type":"Stadt"},"district":{"key":"06635","name":"Waldeck-Frankenberg","type":"Landkreis"},"federalState":{"key":"06","name":"Hessen"}},{"name":"Am Freistuhl","postalCode":"34471","locality":"Volkmarsen","municipality":{"key":"06635020","name":"Volkmarsen, Stadt","type":"Stadt"},"district":{"key":"06635","name":"Waldeck-Frankenberg","type":"Landkreis"},"federalState":{"key":"06","name":"Hessen"}},{"name":"Am Gertenberg","postalCode":"34471","locality":"Volkmarsen","municipality":{"key":"06635020","name":"Volkmarsen, Stadt","type":"Stadt"},"district":{"key":"06635","name":"Waldeck-Frankenberg","type":"Landkreis"},"federalState":{"key":"06","name":"Hessen"}},{"name":"Am Gleisdreieck","postalCode":"34471","locality":"Volkmarsen","municipality":{"key":"06635020","name":"Volkmarsen, Stadt","type":"Stadt"},"district":{"key":"06635","name":"Waldeck-Frankenberg","type":"Landkreis"},"federalState":{"key":"06","name":"Hessen"}},{"name":"Am Hübbel","postalCode":"34471","locality":"Volkmarsen","municipality":{"key":"06635020","name":"Volkmarsen, Stadt","type":"Stadt"},"district":{"key":"06635","name":"Waldeck-Frankenberg","type":"Landkreis"},"federalState":{"key":"06","name":"Hessen"}},{"name":"Am Hüttenberg","postalCode":"34471","locality":"Volkmarsen","municipality":{"key":"06635020","name":"Volkmarsen, Stadt","type":"Stadt"},"district":{"key":"06635","name":"Waldeck-Frankenberg","type":"Landkreis"},"federalState":{"key":"06","name":"Hessen"}},{"name":"Am Krambühl","postalCode":"34471","locality":"Volkmarsen","municipality":{"key":"06635020","name":"Volkmarsen, Stadt","type":"Stadt"},"district":{"key":"06635","name":"Waldeck-Frankenberg","type":"Landkreis"},"federalState":{"key":"06","name":"Hessen"}},{"name":"Ammenhäuser Str.","postalCode":"34471","locality":"Volkmarsen","municipality":{"key":"06635020","name":"Volkmarsen, Stadt","type":"Stadt"},"district":{"key":"06635","name":"Waldeck-Frankenberg","type":"Landkreis"},"federalState":{"key":"06","name":"Hessen"}},{"name":"Am Pfingstbruch","postalCode":"34471","locality":"Volkmarsen","municipality":{"key":"06635020","name":"Volkmarsen, Stadt","type":"Stadt"},"district":{"key":"06635","name":"Waldeck-Frankenberg","type":"Landkreis"},"federalState":{"key":"06","name":"Hessen"}},{"name":"Am Scheidköppel","postalCode":"34471","locality":"Volkmarsen","municipality":{"key":"06635020","name":"Volkmarsen, Stadt","type":"Stadt"},"district":{"key":"06635","name":"Waldeck-Frankenberg","type":"Landkreis"},"federalState":{"key":"06","name":"Hessen"}},{"name":"Am Stadtbruch","postalCode":"34471","locality":"Volkmarsen","municipality":{"key":"06635020","name":"Volkmarsen, Stadt","type":"Stadt"},"district":{"key":"06635","name":"Waldeck-Frankenberg","type":"Landkreis"},"federalState":{"key":"06","name":"Hessen"}},{"name":"Am Steinbruch","postalCode":"34471","locality":"Volkmarsen","municipality":{"key":"06635020","name":"Volkmarsen, Stadt","type":"Stadt"},"district":{"key":"06635","name":"Waldeck-Frankenberg","type":"Landkreis"},"federalState":{"key":"06","name":"Hessen"}},{"name":"An der Bicke","postalCode":"34471","locality":"Volkmarsen","municipality":{"key":"06635020","name":"Volkmarsen, Stadt","type":"Stadt"},"district":{"key":"06635","name":"Waldeck-Frankenberg","type":"Landkreis"},"federalState":{"key":"06","name":"Hessen"}},{"name":"An der Schule","postalCode":"34471","locality":"Volkmarsen","municipality":{"key":"06635020","name":"Volkmarsen, Stadt","type":"Stadt"},"district":{"key":"06635","name":"Waldeck-Frankenberg","type":"Landkreis"},"federalState":{"key":"06","name":"Hessen"}},{"name":"Arolser Str.","postalCode":"34471","locality":"Volkmarsen","municipality":{"key":"06635020","name":"Volkmarsen, Stadt","type":"Stadt"},"district":{"key":"06635","name":"Waldeck-Frankenberg","type":"Landkreis"},"federalState":{"key":"06","name":"Hessen"}},{"name":"Auf dem Bühl","postalCode":"34471","locality":"Volkmarsen","municipality":{"key":"06635020","name":"Volkmarsen, Stadt","type":"Stadt"},"district":{"key":"06635","name":"Waldeck-Frankenberg","type":"Landkreis"},"federalState":{"key":"06","name":"Hessen"}},{"name":"Auf der Menge","postalCode":"34471","locality":"Volkmarsen","municipality":{"key":"06635020","name":"Volkmarsen, Stadt","type":"Stadt"},"district":{"key":"06635","name":"Waldeck-Frankenberg","type":"Landkreis"},"federalState":{"key":"06","name":"Hessen"}},{"name":"Baustr.","postalCode":"34471","locality":"Volkmarsen","municipality":{"key":"06635020","name":"Volkmarsen, Stadt","type":"Stadt"},"district":{"key":"06635","name":"Waldeck-Frankenberg","type":"Landkreis"},"federalState":{"key":"06","name":"Hessen"}},{"name":"Benfelder Str.","postalCode":"34471","locality":"Volkmarsen","municipality":{"key":"06635020","name":"Volkmarsen, Stadt","type":"Stadt"},"district":{"key":"06635","name":"Waldeck-Frankenberg","type":"Landkreis"},"federalState":{"key":"06","name":"Hessen"}},{"name":"Bergweg","postalCode":"34471","locality":"Volkmarsen","municipality":{"key":"06635020","name":"Volkmarsen, Stadt","type":"Stadt"},"district":{"key":"06635","name":"Waldeck-Frankenberg","type":"Landkreis"},"federalState":{"key":"06","name":"Hessen"}},{"name":"Berliner Str.","postalCode":"34471","locality":"Volkmarsen","municipality":{"key":"06635020","name":"Volkmarsen, Stadt","type":"Stadt"},"district":{"key":"06635","name":"Waldeck-Frankenberg","type":"Landkreis"},"federalState":{"key":"06","name":"Hessen"}},{"name":"Bernauer Weg","postalCode":"34471","locality":"Volkmarsen","municipality":{"key":"06635020","name":"Volkmarsen, Stadt","type":"Stadt"},"district":{"key":"06635","name":"Waldeck-Frankenberg","type":"Landkreis"},"federalState":{"key":"06","name":"Hessen"}},{"name":"Bevelter-Berg-Str.","postalCode":"34471","locality":"Volkmarsen","municipality":{"key":"06635020","name":"Volkmarsen, Stadt","type":"Stadt"},"district":{"key":"06635","name":"Waldeck-Frankenberg","type":"Landkreis"},"federalState":{"key":"06","name":"Hessen"}},{"name":"Bonifatiusstr.","postalCode":"34471","locality":"Volkmarsen","municipality":{"key":"06635020","name":"Volkmarsen, Stadt","type":"Stadt"},"district":{"key":"06635","name":"Waldeck-Frankenberg","type":"Landkreis"},"federalState":{"key":"06","name":"Hessen"}},{"name":"Breslauer Str.","postalCode":"34471","locality":"Volkmarsen","municipality":{"key":"06635020","name":"Volkmarsen, Stadt","type":"Stadt"},"district":{"key":"06635","name":"Waldeck-Frankenberg","type":"Landkreis"},"federalState":{"key":"06","name":"Hessen"}},{"name":"Brunnenweg","postalCode":"34471","locality":"Volkmarsen","municipality":{"key":"06635020","name":"Volkmarsen, Stadt","type":"Stadt"},"district":{"key":"06635","name":"Waldeck-Frankenberg","type":"Landkreis"},"federalState":{"key":"06","name":"Hessen"}},{"name":"Bühlersteich","postalCode":"34471","locality":"Volkmarsen","municipality":{"key":"06635020","name":"Volkmarsen, Stadt","type":"Stadt"},"district":{"key":"06635","name":"Waldeck-Frankenberg","type":"Landkreis"},"federalState":{"key":"06","name":"Hessen"}},{"name":"Bürgermeister-Engel-Siedlung","postalCode":"34471","locality":"Volkmarsen","municipality":{"key":"06635020","name":"Volkmarsen, Stadt","type":"Stadt"},"district":{"key":"06635","name":"Waldeck-Frankenberg","type":"Landkreis"},"federalState":{"key":"06","name":"Hessen"}},{"name":"Burgstr.","postalCode":"34471","locality":"Volkmarsen","municipality":{"key":"06635020","name":"Volkmarsen, Stadt","type":"Stadt"},"district":{"key":"06635","name":"Waldeck-Frankenberg","type":"Landkreis"},"federalState":{"key":"06","name":"Hessen"}},{"name":"Carl-Goerdeler-Weg","postalCode":"34471","locality":"Volkmarsen","municipality":{"key":"06635020","name":"Volkmarsen, Stadt","type":"Stadt"},"district":{"key":"06635","name":"Waldeck-Frankenberg","type":"Landkreis"},"federalState":{"key":"06","name":"Hessen"}},{"name":"Carl-Zeiss-Str.","postalCode":"34471","locality":"Volkmarsen","municipality":{"key":"06635020","name":"Volkmarsen, Stadt","type":"Stadt"},"district":{"key":"06635","name":"Waldeck-Frankenberg","type":"Landkreis"},"federalState":{"key":"06","name":"Hessen"}},{"name":"Corveyer Str.","postalCode":"34471","locality":"Volkmarsen","municipality":{"key":"06635020","name":"Volkmarsen, Stadt","type":"Stadt"},"district":{"key":"06635","name":"Waldeck-Frankenberg","type":"Landkreis"},"federalState":{"key":"06","name":"Hessen"}},{"name":"Dietrich-Bonhoeffer-Weg","postalCode":"34471","locality":"Volkmarsen","municipality":{"key":"06635020","name":"Volkmarsen, Stadt","type":"Stadt"},"district":{"key":"06635","name":"Waldeck-Frankenberg","type":"Landkreis"},"federalState":{"key":"06","name":"Hessen"}},{"name":"Dorfstr.","postalCode":"34471","locality":"Volkmarsen","municipality":{"key":"06635020","name":"Volkmarsen, Stadt","type":"Stadt"},"district":{"key":"06635","name":"Waldeck-Frankenberg","type":"Landkreis"},"federalState":{"key":"06","name":"Hessen"}},{"name":"Ehringer Weg","postalCode":"34471","locality":"Volkmarsen","municipality":{"key":"06635020","name":"Volkmarsen, Stadt","type":"Stadt"},"district":{"key":"06635","name":"Waldeck-Frankenberg","type":"Landkreis"},"federalState":{"key":"06","name":"Hessen"}},{"name":"Eichenstr.","postalCode":"34471","locality":"Volkmarsen","municipality":{"key":"06635020","name":"Volkmarsen, Stadt","type":"Stadt"},"district":{"key":"06635","name":"Waldeck-Frankenberg","type":"Landkreis"},"federalState":{"key":"06","name":"Hessen"}},{"name":"Eichweg","postalCode":"34471","locality":"Volkmarsen","municipality":{"key":"06635020","name":"Volkmarsen, Stadt","type":"Stadt"},"district":{"key":"06635","name":"Waldeck-Frankenberg","type":"Landkreis"},"federalState":{"key":"06","name":"Hessen"}},{"name":"Elgerweg","postalCode":"34471","locality":"Volkmarsen","municipality":{"key":"06635020","name":"Volkmarsen, Stadt","type":"Stadt"},"district":{"key":"06635","name":"Waldeck-Frankenberg","type":"Landkreis"},"federalState":{"key":"06","name":"Hessen"}},{"name":"Ellingser Str.","postalCode":"34471","locality":"Volkmarsen","municipality":{"key":"06635020","name":"Volkmarsen, Stadt","type":"Stadt"},"district":{"key":"06635","name":"Waldeck-Frankenberg","type":"Landkreis"},"federalState":{"key":"06","name":"Hessen"}},{"name":"Erpeweg","postalCode":"34471","locality":"Volkmarsen","municipality":{"key":"06635020","name":"Volkmarsen, Stadt","type":"Stadt"},"district":{"key":"06635","name":"Waldeck-Frankenberg","type":"Landkreis"},"federalState":{"key":"06","name":"Hessen"}},{"name":"Fauler Pfad","postalCode":"34471","locality":"Volkmarsen","municipality":{"key":"06635020","name":"Volkmarsen, Stadt","type":"Stadt"},"district":{"key":"06635","name":"Waldeck-Frankenberg","type":"Landkreis"},"federalState":{"key":"06","name":"Hessen"}},{"name":"Fiddelstr.","postalCode":"34471","locality":"Volkmarsen","municipality":{"key":"06635020","name":"Volkmarsen, Stadt","type":"Stadt"},"district":{"key":"06635","name":"Waldeck-Frankenberg","type":"Landkreis"},"federalState":{"key":"06","name":"Hessen"}},{"name":"Fischerstr.","postalCode":"34471","locality":"Volkmarsen","municipality":{"key":"06635020","name":"Volkmarsen, Stadt","type":"Stadt"},"district":{"key":"06635","name":"Waldeck-Frankenberg","type":"Landkreis"},"federalState":{"key":"06","name":"Hessen"}},{"name":"Gartenstr.","postalCode":"34471","locality":"Volkmarsen","municipality":{"key":"06635020","name":"Volkmarsen, Stadt","type":"Stadt"},"district":{"key":"06635","name":"Waldeck-Frankenberg","type":"Landkreis"},"federalState":{"key":"06","name":"Hessen"}},{"name":"Geilingstr.","postalCode":"34471","locality":"Volkmarsen","municipality":{"key":"06635020","name":"Volkmarsen, Stadt","type":"Stadt"},"district":{"key":"06635","name":"Waldeck-Frankenberg","type":"Landkreis"},"federalState":{"key":"06","name":"Hessen"}},{"name":"Gerhart-Hauptmann-Platz","postalCode":"34471","locality":"Volkmarsen","municipality":{"key":"06635020","name":"Volkmarsen, Stadt","type":"Stadt"},"district":{"key":"06635","name":"Waldeck-Frankenberg","type":"Landkreis"},"federalState":{"key":"06","name":"Hessen"}},{"name":"Gerichtsstr.","postalCode":"34471","locality":"Volkmarsen","municipality":{"key":"06635020","name":"Volkmarsen, Stadt","type":"Stadt"},"district":{"key":"06635","name":"Waldeck-Frankenberg","type":"Landkreis"},"federalState":{"key":"06","name":"Hessen"}},{"name":"Geschwister-Scholl-Str.","postalCode":"34471","locality":"Volkmarsen","municipality":{"key":"06635020","name":"Volkmarsen, Stadt","type":"Stadt"},"district":{"key":"06635","name":"Waldeck-Frankenberg","type":"Landkreis"},"federalState":{"key":"06","name":"Hessen"}},{"name":"Graf-Stauffenberg-Weg","postalCode":"34471","locality":"Volkmarsen","municipality":{"key":"06635020","name":"Volkmarsen, Stadt","type":"Stadt"},"district":{"key":"06635","name":"Waldeck-Frankenberg","type":"Landkreis"},"federalState":{"key":"06","name":"Hessen"}},{"name":"Grüner Weg","postalCode":"34471","locality":"Volkmarsen","municipality":{"key":"06635020","name":"Volkmarsen, Stadt","type":"Stadt"},"district":{"key":"06635","name":"Waldeck-Frankenberg","type":"Landkreis"},"federalState":{"key":"06","name":"Hessen"}},{"name":"Haidlandweg","postalCode":"34471","locality":"Volkmarsen","municipality":{"key":"06635020","name":"Volkmarsen, Stadt","type":"Stadt"},"district":{"key":"06635","name":"Waldeck-Frankenberg","type":"Landkreis"},"federalState":{"key":"06","name":"Hessen"}},{"name":"Hakenberg","postalCode":"34471","locality":"Volkmarsen","municipality":{"key":"06635020","name":"Volkmarsen, Stadt","type":"Stadt"},"district":{"key":"06635","name":"Waldeck-Frankenberg","type":"Landkreis"},"federalState":{"key":"06","name":"Hessen"}},{"name":"Hauptstr.","postalCode":"34471","locality":"Volkmarsen","municipality":{"key":"06635020","name":"Volkmarsen, Stadt","type":"Stadt"},"district":{"key":"06635","name":"Waldeck-Frankenberg","type":"Landkreis"},"federalState":{"key":"06","name":"Hessen"}},{"name":"Heerstr.","postalCode":"34471","locality":"Volkmarsen","municipality":{"key":"06635020","name":"Volkmarsen, Stadt","type":"Stadt"},"district":{"key":"06635","name":"Waldeck-Frankenberg","type":"Landkreis"},"federalState":{"key":"06","name":"Hessen"}},{"name":"Heideweg","postalCode":"34471","locality":"Volkmarsen","municipality":{"key":"06635020","name":"Volkmarsen, Stadt","type":"Stadt"},"district":{"key":"06635","name":"Waldeck-Frankenberg","type":"Landkreis"},"federalState":{"key":"06","name":"Hessen"}},{"name":"Henzen Kamp","postalCode":"34471","locality":"Volkmarsen","municipality":{"key":"06635020","name":"Volkmarsen, Stadt","type":"Stadt"},"district":{"key":"06635","name":"Waldeck-Frankenberg","type":"Landkreis"},"federalState":{"key":"06","name":"Hessen"}},{"name":"Herbser Str.","postalCode":"34471","locality":"Volkmarsen","municipality":{"key":"06635020","name":"Volkmarsen, Stadt","type":"Stadt"},"district":{"key":"06635","name":"Waldeck-Frankenberg","type":"Landkreis"},"federalState":{"key":"06","name":"Hessen"}},{"name":"Heumarkt","postalCode":"34471","locality":"Volkmarsen","municipality":{"key":"06635020","name":"Volkmarsen, Stadt","type":"Stadt"},"district":{"key":"06635","name":"Waldeck-Frankenberg","type":"Landkreis"},"federalState":{"key":"06","name":"Hessen"}},{"name":"Hinter dem Schoppen","postalCode":"34471","locality":"Volkmarsen","municipality":{"key":"06635020","name":"Volkmarsen, Stadt","type":"Stadt"},"district":{"key":"06635","name":"Waldeck-Frankenberg","type":"Landkreis"},"federalState":{"key":"06","name":"Hessen"}},{"name":"Hinter den Stiegelgärten","postalCode":"34471","locality":"Volkmarsen","municipality":{"key":"06635020","name":"Volkmarsen, Stadt","type":"Stadt"},"district":{"key":"06635","name":"Waldeck-Frankenberg","type":"Landkreis"},"federalState":{"key":"06","name":"Hessen"}},{"name":"Hoher Stein","postalCode":"34471","locality":"Volkmarsen","municipality":{"key":"06635020","name":"Volkmarsen, Stadt","type":"Stadt"},"district":{"key":"06635","name":"Waldeck-Frankenberg","type":"Landkreis"},"federalState":{"key":"06","name":"Hessen"}},{"name":"Hortweg","postalCode":"34471","locality":"Volkmarsen","municipality":{"key":"06635020","name":"Volkmarsen, Stadt","type":"Stadt"},"district":{"key":"06635","name":"Waldeck-Frankenberg","type":"Landkreis"},"federalState":{"key":"06","name":"Hessen"}},{"name":"Hospitalstr.","postalCode":"34471","locality":"Volkmarsen","municipality":{"key":"06635020","name":"Volkmarsen, Stadt","type":"Stadt"},"district":{"key":"06635","name":"Waldeck-Frankenberg","type":"Landkreis"},"federalState":{"key":"06","name":"Hessen"}},{"name":"Hummelwiese","postalCode":"34471","locality":"Volkmarsen","municipality":{"key":"06635020","name":"Volkmarsen, Stadt","type":"Stadt"},"district":{"key":"06635","name":"Waldeck-Frankenberg","type":"Landkreis"},"federalState":{"key":"06","name":"Hessen"}},{"name":"Im Pollengrün","postalCode":"34471","locality":"Volkmarsen","municipality":{"key":"06635020","name":"Volkmarsen, Stadt","type":"Stadt"},"district":{"key":"06635","name":"Waldeck-Frankenberg","type":"Landkreis"},"federalState":{"key":"06","name":"Hessen"}},{"name":"In der Trift","postalCode":"34471","locality":"Volkmarsen","municipality":{"key":"06635020","name":"Volkmarsen, Stadt","type":"Stadt"},"district":{"key":"06635","name":"Waldeck-Frankenberg","type":"Landkreis"},"federalState":{"key":"06","name":"Hessen"}},{"name":"Inge-Lichtenstein-Weg","postalCode":"34471","locality":"Volkmarsen","municipality":{"key":"06635020","name":"Volkmarsen, Stadt","type":"Stadt"},"district":{"key":"06635","name":"Waldeck-Frankenberg","type":"Landkreis"},"federalState":{"key":"06","name":"Hessen"}},{"name":"Julius-Leber-Weg","postalCode":"34471","locality":"Volkmarsen","municipality":{"key":"06635020","name":"Volkmarsen, Stadt","type":"Stadt"},"district":{"key":"06635","name":"Waldeck-Frankenberg","type":"Landkreis"},"federalState":{"key":"06","name":"Hessen"}},{"name":"Kasseler Str.","postalCode":"34471","locality":"Volkmarsen","municipality":{"key":"06635020","name":"Volkmarsen, Stadt","type":"Stadt"},"district":{"key":"06635","name":"Waldeck-Frankenberg","type":"Landkreis"},"federalState":{"key":"06","name":"Hessen"}},{"name":"Kattenbicke","postalCode":"34471","locality":"Volkmarsen","municipality":{"key":"06635020","name":"Volkmarsen, Stadt","type":"Stadt"},"district":{"key":"06635","name":"Waldeck-Frankenberg","type":"Landkreis"},"federalState":{"key":"06","name":"Hessen"}},{"name":"Kirchenweg","postalCode":"34471","locality":"Volkmarsen","municipality":{"key":"06635020","name":"Volkmarsen, Stadt","type":"Stadt"},"district":{"key":"06635","name":"Waldeck-Frankenberg","type":"Landkreis"},"federalState":{"key":"06","name":"Hessen"}},{"name":"Kleine Str.","postalCode":"34471","locality":"Volkmarsen","municipality":{"key":"06635020","name":"Volkmarsen, Stadt","type":"Stadt"},"district":{"key":"06635","name":"Waldeck-Frankenberg","type":"Landkreis"},"federalState":{"key":"06","name":"Hessen"}},{"name":"Kleinhorststr.","postalCode":"34471","locality":"Volkmarsen","municipality":{"key":"06635020","name":"Volkmarsen, Stadt","type":"Stadt"},"district":{"key":"06635","name":"Waldeck-Frankenberg","type":"Landkreis"},"federalState":{"key":"06","name":"Hessen"}},{"name":"Kölner Str.","postalCode":"34471","locality":"Volkmarsen","municipality":{"key":"06635020","name":"Volkmarsen, Stadt","type":"Stadt"},"district":{"key":"06635","name":"Waldeck-Frankenberg","type":"Landkreis"},"federalState":{"key":"06","name":"Hessen"}},{"name":"Kresspfuhl","postalCode":"34471","locality":"Volkmarsen","municipality":{"key":"06635020","name":"Volkmarsen, Stadt","type":"Stadt"},"district":{"key":"06635","name":"Waldeck-Frankenberg","type":"Landkreis"},"federalState":{"key":"06","name":"Hessen"}},{"name":"Krethof","postalCode":"34471","locality":"Volkmarsen","municipality":{"key":"06635020","name":"Volkmarsen, Stadt","type":"Stadt"},"district":{"key":"06635","name":"Waldeck-Frankenberg","type":"Landkreis"},"federalState":{"key":"06","name":"Hessen"}},{"name":"Kuhlenberg","postalCode":"34471","locality":"Volkmarsen","municipality":{"key":"06635020","name":"Volkmarsen, Stadt","type":"Stadt"},"district":{"key":"06635","name":"Waldeck-Frankenberg","type":"Landkreis"},"federalState":{"key":"06","name":"Hessen"}},{"name":"Külter Weg","postalCode":"34471","locality":"Volkmarsen","municipality":{"key":"06635020","name":"Volkmarsen, Stadt","type":"Stadt"},"district":{"key":"06635","name":"Waldeck-Frankenberg","type":"Landkreis"},"federalState":{"key":"06","name":"Hessen"}},{"name":"Lärchenweg","postalCode":"34471","locality":"Volkmarsen","municipality":{"key":"06635020","name":"Volkmarsen, Stadt","type":"Stadt"},"district":{"key":"06635","name":"Waldeck-Frankenberg","type":"Landkreis"},"federalState":{"key":"06","name":"Hessen"}},{"name":"Lehmkaute","postalCode":"34471","locality":"Volkmarsen","municipality":{"key":"06635020","name":"Volkmarsen, Stadt","type":"Stadt"},"district":{"key":"06635","name":"Waldeck-Frankenberg","type":"Landkreis"},"federalState":{"key":"06","name":"Hessen"}},{"name":"Lieselotte-Michel-Ring","postalCode":"34471","locality":"Volkmarsen","municipality":{"key":"06635020","name":"Volkmarsen, Stadt","type":"Stadt"},"district":{"key":"06635","name":"Waldeck-Frankenberg","type":"Landkreis"},"federalState":{"key":"06","name":"Hessen"}},{"name":"Lindenstr.","postalCode":"34471","locality":"Volkmarsen","municipality":{"key":"06635020","name":"Volkmarsen, Stadt","type":"Stadt"},"district":{"key":"06635","name":"Waldeck-Frankenberg","type":"Landkreis"},"federalState":{"key":"06","name":"Hessen"}},{"name":"Lütersheimer Str.","postalCode":"34471","locality":"Volkmarsen","municipality":{"key":"06635020","name":"Volkmarsen, Stadt","type":"Stadt"},"district":{"key":"06635","name":"Waldeck-Frankenberg","type":"Landkreis"},"federalState":{"key":"06","name":"Hessen"}},{"name":"Lützer Weg","postalCode":"34471","locality":"Volkmarsen","municipality":{"key":"06635020","name":"Volkmarsen, Stadt","type":"Stadt"},"district":{"key":"06635","name":"Waldeck-Frankenberg","type":"Landkreis"},"federalState":{"key":"06","name":"Hessen"}},{"name":"Medericher Str.","postalCode":"34471","locality":"Volkmarsen","municipality":{"key":"06635020","name":"Volkmarsen, Stadt","type":"Stadt"},"district":{"key":"06635","name":"Waldeck-Frankenberg","type":"Landkreis"},"federalState":{"key":"06","name":"Hessen"}},{"name":"Michaeliweg","postalCode":"34471","locality":"Volkmarsen","municipality":{"key":"06635020","name":"Volkmarsen, Stadt","type":"Stadt"},"district":{"key":"06635","name":"Waldeck-Frankenberg","type":"Landkreis"},"federalState":{"key":"06","name":"Hessen"}},{"name":"Mittelstr.","postalCode":"34471","locality":"Volkmarsen","municipality":{"key":"06635020","name":"Volkmarsen, Stadt","type":"Stadt"},"district":{"key":"06635","name":"Waldeck-Frankenberg","type":"Landkreis"},"federalState":{"key":"06","name":"Hessen"}},{"name":"Molkereiweg","postalCode":"34471","locality":"Volkmarsen","municipality":{"key":"06635020","name":"Volkmarsen, Stadt","type":"Stadt"},"district":{"key":"06635","name":"Waldeck-Frankenberg","type":"Landkreis"},"federalState":{"key":"06","name":"Hessen"}},{"name":"Mönchepfuhl","postalCode":"34471","locality":"Volkmarsen","municipality":{"key":"06635020","name":"Volkmarsen, Stadt","type":"Stadt"},"district":{"key":"06635","name":"Waldeck-Frankenberg","type":"Landkreis"},"federalState":{"key":"06","name":"Hessen"}},{"name":"Müggenbicke","postalCode":"34471","locality":"Volkmarsen","municipality":{"key":"06635020","name":"Volkmarsen, Stadt","type":"Stadt"},"district":{"key":"06635","name":"Waldeck-Frankenberg","type":"Landkreis"},"federalState":{"key":"06","name":"Hessen"}},{"name":"Mühlengraben","postalCode":"34471","locality":"Volkmarsen","municipality":{"key":"06635020","name":"Volkmarsen, Stadt","type":"Stadt"},"district":{"key":"06635","name":"Waldeck-Frankenberg","type":"Landkreis"},"federalState":{"key":"06","name":"Hessen"}},{"name":"Mühlenweg","postalCode":"34471","locality":"Volkmarsen","municipality":{"key":"06635020","name":"Volkmarsen, Stadt","type":"Stadt"},"district":{"key":"06635","name":"Waldeck-Frankenberg","type":"Landkreis"},"federalState":{"key":"06","name":"Hessen"}},{"name":"Neue Landwehr I","postalCode":"34471","locality":"Volkmarsen","municipality":{"key":"06635020","name":"Volkmarsen, Stadt","type":"Stadt"},"district":{"key":"06635","name":"Waldeck-Frankenberg","type":"Landkreis"},"federalState":{"key":"06","name":"Hessen"}},{"name":"Neue Landwehr II","postalCode":"34471","locality":"Volkmarsen","municipality":{"key":"06635020","name":"Volkmarsen, Stadt","type":"Stadt"},"district":{"key":"06635","name":"Waldeck-Frankenberg","type":"Landkreis"},"federalState":{"key":"06","name":"Hessen"}},{"name":"Niederelsunger Str.","postalCode":"34471","locality":"Volkmarsen","municipality":{"key":"06635020","name":"Volkmarsen, Stadt","type":"Stadt"},"district":{"key":"06635","name":"Waldeck-Frankenberg","type":"Landkreis"},"federalState":{"key":"06","name":"Hessen"}},{"name":"Niedere Stadtmauer","postalCode":"34471","locality":"Volkmarsen","municipality":{"key":"06635020","name":"Volkmarsen, Stadt","type":"Stadt"},"district":{"key":"06635","name":"Waldeck-Frankenberg","type":"Landkreis"},"federalState":{"key":"06","name":"Hessen"}},{"name":"Oberdorf","postalCode":"34471","locality":"Volkmarsen","municipality":{"key":"06635020","name":"Volkmarsen, Stadt","type":"Stadt"},"district":{"key":"06635","name":"Waldeck-Frankenberg","type":"Landkreis"},"federalState":{"key":"06","name":"Hessen"}},{"name":"Oberer Zollstock","postalCode":"34471","locality":"Volkmarsen","municipality":{"key":"06635020","name":"Volkmarsen, Stadt","type":"Stadt"},"district":{"key":"06635","name":"Waldeck-Frankenberg","type":"Landkreis"},"federalState":{"key":"06","name":"Hessen"}},{"name":"Oberes Eichhölzchen","postalCode":"34471","locality":"Volkmarsen","municipality":{"key":"06635020","name":"Volkmarsen, Stadt","type":"Stadt"},"district":{"key":"06635","name":"Waldeck-Frankenberg","type":"Landkreis"},"federalState":{"key":"06","name":"Hessen"}},{"name":"Obere Stadtmauer","postalCode":"34471","locality":"Volkmarsen","municipality":{"key":"06635020","name":"Volkmarsen, Stadt","type":"Stadt"},"district":{"key":"06635","name":"Waldeck-Frankenberg","type":"Landkreis"},"federalState":{"key":"06","name":"Hessen"}},{"name":"Obermühle","postalCode":"34471","locality":"Volkmarsen","municipality":{"key":"06635020","name":"Volkmarsen, Stadt","type":"Stadt"},"district":{"key":"06635","name":"Waldeck-Frankenberg","type":"Landkreis"},"federalState":{"key":"06","name":"Hessen"}},{"name":"Oberstr.","postalCode":"34471","locality":"Volkmarsen","municipality":{"key":"06635020","name":"Volkmarsen, Stadt","type":"Stadt"},"district":{"key":"06635","name":"Waldeck-Frankenberg","type":"Landkreis"},"federalState":{"key":"06","name":"Hessen"}},{"name":"Oelbecker Str.","postalCode":"34471","locality":"Volkmarsen","municipality":{"key":"06635020","name":"Volkmarsen, Stadt","type":"Stadt"},"district":{"key":"06635","name":"Waldeck-Frankenberg","type":"Landkreis"},"federalState":{"key":"06","name":"Hessen"}},{"name":"Ottens Garten","postalCode":"34471","locality":"Volkmarsen","municipality":{"key":"06635020","name":"Volkmarsen, Stadt","type":"Stadt"},"district":{"key":"06635","name":"Waldeck-Frankenberg","type":"Landkreis"},"federalState":{"key":"06","name":"Hessen"}},{"name":"Pastor-Koch-Str.","postalCode":"34471","locality":"Volkmarsen","municipality":{"key":"06635020","name":"Volkmarsen, Stadt","type":"Stadt"},"district":{"key":"06635","name":"Waldeck-Frankenberg","type":"Landkreis"},"federalState":{"key":"06","name":"Hessen"}},{"name":"Pfortenstr.","postalCode":"34471","locality":"Volkmarsen","municipality":{"key":"06635020","name":"Volkmarsen, Stadt","type":"Stadt"},"district":{"key":"06635","name":"Waldeck-Frankenberg","type":"Landkreis"},"federalState":{"key":"06","name":"Hessen"}},{"name":"Popenteich","postalCode":"34471","locality":"Volkmarsen","municipality":{"key":"06635020","name":"Volkmarsen, Stadt","type":"Stadt"},"district":{"key":"06635","name":"Waldeck-Frankenberg","type":"Landkreis"},"federalState":{"key":"06","name":"Hessen"}},{"name":"Potsdamer Weg","postalCode":"34471","locality":"Volkmarsen","municipality":{"key":"06635020","name":"Volkmarsen, Stadt","type":"Stadt"},"district":{"key":"06635","name":"Waldeck-Frankenberg","type":"Landkreis"},"federalState":{"key":"06","name":"Hessen"}},{"name":"Querstr.","postalCode":"34471","locality":"Volkmarsen","municipality":{"key":"06635020","name":"Volkmarsen, Stadt","type":"Stadt"},"district":{"key":"06635","name":"Waldeck-Frankenberg","type":"Landkreis"},"federalState":{"key":"06","name":"Hessen"}},{"name":"Rabenspiegel","postalCode":"34471","locality":"Volkmarsen","municipality":{"key":"06635020","name":"Volkmarsen, Stadt","type":"Stadt"},"district":{"key":"06635","name":"Waldeck-Frankenberg","type":"Landkreis"},"federalState":{"key":"06","name":"Hessen"}},{"name":"Randsbreiter Weg","postalCode":"34471","locality":"Volkmarsen","municipality":{"key":"06635020","name":"Volkmarsen, Stadt","type":"Stadt"},"district":{"key":"06635","name":"Waldeck-Frankenberg","type":"Landkreis"},"federalState":{"key":"06","name":"Hessen"}},{"name":"Rasenweg","postalCode":"34471","locality":"Volkmarsen","municipality":{"key":"06635020","name":"Volkmarsen, Stadt","type":"Stadt"},"district":{"key":"06635","name":"Waldeck-Frankenberg","type":"Landkreis"},"federalState":{"key":"06","name":"Hessen"}},{"name":"Reethweg","postalCode":"34471","locality":"Volkmarsen","municipality":{"key":"06635020","name":"Volkmarsen, Stadt","type":"Stadt"},"district":{"key":"06635","name":"Waldeck-Frankenberg","type":"Landkreis"},"federalState":{"key":"06","name":"Hessen"}},{"name":"Rudolfstr.","postalCode":"34471","locality":"Volkmarsen","municipality":{"key":"06635020","name":"Volkmarsen, Stadt","type":"Stadt"},"district":{"key":"06635","name":"Waldeck-Frankenberg","type":"Landkreis"},"federalState":{"key":"06","name":"Hessen"}},{"name":"Sandlandstr.","postalCode":"34471","locality":"Volkmarsen","municipality":{"key":"06635020","name":"Volkmarsen, Stadt","type":"Stadt"},"district":{"key":"06635","name":"Waldeck-Frankenberg","type":"Landkreis"},"federalState":{"key":"06","name":"Hessen"}},{"name":"Schäfergasse","postalCode":"34471","locality":"Volkmarsen","municipality":{"key":"06635020","name":"Volkmarsen, Stadt","type":"Stadt"},"district":{"key":"06635","name":"Waldeck-Frankenberg","type":"Landkreis"},"federalState":{"key":"06","name":"Hessen"}},{"name":"Schalkstal","postalCode":"34471","locality":"Volkmarsen","municipality":{"key":"06635020","name":"Volkmarsen, Stadt","type":"Stadt"},"district":{"key":"06635","name":"Waldeck-Frankenberg","type":"Landkreis"},"federalState":{"key":"06","name":"Hessen"}},{"name":"Scheidfeldstr.","postalCode":"34471","locality":"Volkmarsen","municipality":{"key":"06635020","name":"Volkmarsen, Stadt","type":"Stadt"},"district":{"key":"06635","name":"Waldeck-Frankenberg","type":"Landkreis"},"federalState":{"key":"06","name":"Hessen"}},{"name":"Scheidwartstr.","postalCode":"34471","locality":"Volkmarsen","municipality":{"key":"06635020","name":"Volkmarsen, Stadt","type":"Stadt"},"district":{"key":"06635","name":"Waldeck-Frankenberg","type":"Landkreis"},"federalState":{"key":"06","name":"Hessen"}},{"name":"Schmiedegasse","postalCode":"34471","locality":"Volkmarsen","municipality":{"key":"06635020","name":"Volkmarsen, Stadt","type":"Stadt"},"district":{"key":"06635","name":"Waldeck-Frankenberg","type":"Landkreis"},"federalState":{"key":"06","name":"Hessen"}},{"name":"Schmillinghäuser Str.","postalCode":"34471","locality":"Volkmarsen","municipality":{"key":"06635020","name":"Volkmarsen, Stadt","type":"Stadt"},"district":{"key":"06635","name":"Waldeck-Frankenberg","type":"Landkreis"},"federalState":{"key":"06","name":"Hessen"}},{"name":"Schöne Aussicht","postalCode":"34471","locality":"Volkmarsen","municipality":{"key":"06635020","name":"Volkmarsen, Stadt","type":"Stadt"},"district":{"key":"06635","name":"Waldeck-Frankenberg","type":"Landkreis"},"federalState":{"key":"06","name":"Hessen"}},{"name":"Schulstr.","postalCode":"34471","locality":"Volkmarsen","municipality":{"key":"06635020","name":"Volkmarsen, Stadt","type":"Stadt"},"district":{"key":"06635","name":"Waldeck-Frankenberg","type":"Landkreis"},"federalState":{"key":"06","name":"Hessen"}},{"name":"Seeblick","postalCode":"34471","locality":"Volkmarsen","municipality":{"key":"06635020","name":"Volkmarsen, Stadt","type":"Stadt"},"district":{"key":"06635","name":"Waldeck-Frankenberg","type":"Landkreis"},"federalState":{"key":"06","name":"Hessen"}},{"name":"Siebenbürgen","postalCode":"34471","locality":"Volkmarsen","municipality":{"key":"06635020","name":"Volkmarsen, Stadt","type":"Stadt"},"district":{"key":"06635","name":"Waldeck-Frankenberg","type":"Landkreis"},"federalState":{"key":"06","name":"Hessen"}},{"name":"Sommermorgen","postalCode":"34471","locality":"Volkmarsen","municipality":{"key":"06635020","name":"Volkmarsen, Stadt","type":"Stadt"},"district":{"key":"06635","name":"Waldeck-Frankenberg","type":"Landkreis"},"federalState":{"key":"06","name":"Hessen"}},{"name":"Spulkater","postalCode":"34471","locality":"Volkmarsen","municipality":{"key":"06635020","name":"Volkmarsen, Stadt","type":"Stadt"},"district":{"key":"06635","name":"Waldeck-Frankenberg","type":"Landkreis"},"federalState":{"key":"06","name":"Hessen"}},{"name":"Stadtweg","postalCode":"34471","locality":"Volkmarsen","municipality":{"key":"06635020","name":"Volkmarsen, Stadt","type":"Stadt"},"district":{"key":"06635","name":"Waldeck-Frankenberg","type":"Landkreis"},"federalState":{"key":"06","name":"Hessen"}},{"name":"Steenweg","postalCode":"34471","locality":"Volkmarsen","municipality":{"key":"06635020","name":"Volkmarsen, Stadt","type":"Stadt"},"district":{"key":"06635","name":"Waldeck-Frankenberg","type":"Landkreis"},"federalState":{"key":"06","name":"Hessen"}},{"name":"Steinweg","postalCode":"34471","locality":"Volkmarsen","municipality":{"key":"06635020","name":"Volkmarsen, Stadt","type":"Stadt"},"district":{"key":"06635","name":"Waldeck-Frankenberg","type":"Landkreis"},"federalState":{"key":"06","name":"Hessen"}},{"name":"Stückerweg","postalCode":"34471","locality":"Volkmarsen","municipality":{"key":"06635020","name":"Volkmarsen, Stadt","type":"Stadt"},"district":{"key":"06635","name":"Waldeck-Frankenberg","type":"Landkreis"},"federalState":{"key":"06","name":"Hessen"}},{"name":"Tegeler Weg","postalCode":"34471","locality":"Volkmarsen","municipality":{"key":"06635020","name":"Volkmarsen, Stadt","type":"Stadt"},"district":{"key":"06635","name":"Waldeck-Frankenberg","type":"Landkreis"},"federalState":{"key":"06","name":"Hessen"}},{"name":"Teichweg","postalCode":"34471","locality":"Volkmarsen","municipality":{"key":"06635020","name":"Volkmarsen, Stadt","type":"Stadt"},"district":{"key":"06635","name":"Waldeck-Frankenberg","type":"Landkreis"},"federalState":{"key":"06","name":"Hessen"}},{"name":"Triftweg","postalCode":"34471","locality":"Volkmarsen","municipality":{"key":"06635020","name":"Volkmarsen, Stadt","type":"Stadt"},"district":{"key":"06635","name":"Waldeck-Frankenberg","type":"Landkreis"},"federalState":{"key":"06","name":"Hessen"}},{"name":"Uferstr.","postalCode":"34471","locality":"Volkmarsen","municipality":{"key":"06635020","name":"Volkmarsen, Stadt","type":"Stadt"},"district":{"key":"06635","name":"Waldeck-Frankenberg","type":"Landkreis"},"federalState":{"key":"06","name":"Hessen"}},{"name":"Ulmenstr.","postalCode":"34471","locality":"Volkmarsen","municipality":{"key":"06635020","name":"Volkmarsen, Stadt","type":"Stadt"},"district":{"key":"06635","name":"Waldeck-Frankenberg","type":"Landkreis"},"federalState":{"key":"06","name":"Hessen"}},{"name":"Unterdorf","postalCode":"34471","locality":"Volkmarsen","municipality":{"key":"06635020","name":"Volkmarsen, Stadt","type":"Stadt"},"district":{"key":"06635","name":"Waldeck-Frankenberg","type":"Landkreis"},"federalState":{"key":"06","name":"Hessen"}},{"name":"Unteres Eichhölzchen","postalCode":"34471","locality":"Volkmarsen","municipality":{"key":"06635020","name":"Volkmarsen, Stadt","type":"Stadt"},"district":{"key":"06635","name":"Waldeck-Frankenberg","type":"Landkreis"},"federalState":{"key":"06","name":"Hessen"}},{"name":"Unterm Wiesenberg","postalCode":"34471","locality":"Volkmarsen","municipality":{"key":"06635020","name":"Volkmarsen, Stadt","type":"Stadt"},"district":{"key":"06635","name":"Waldeck-Frankenberg","type":"Landkreis"},"federalState":{"key":"06","name":"Hessen"}},{"name":"Unterstr.","postalCode":"34471","locality":"Volkmarsen","municipality":{"key":"06635020","name":"Volkmarsen, Stadt","type":"Stadt"},"district":{"key":"06635","name":"Waldeck-Frankenberg","type":"Landkreis"},"federalState":{"key":"06","name":"Hessen"}},{"name":"Viesebecker Str.","postalCode":"34471","locality":"Volkmarsen","municipality":{"key":"06635020","name":"Volkmarsen, Stadt","type":"Stadt"},"district":{"key":"06635","name":"Waldeck-Frankenberg","type":"Landkreis"},"federalState":{"key":"06","name":"Hessen"}},{"name":"Vikariestr.","postalCode":"34471","locality":"Volkmarsen","municipality":{"key":"06635020","name":"Volkmarsen, Stadt","type":"Stadt"},"district":{"key":"06635","name":"Waldeck-Frankenberg","type":"Landkreis"},"federalState":{"key":"06","name":"Hessen"}},{"name":"Vor dem Niedertor","postalCode":"34471","locality":"Volkmarsen","municipality":{"key":"06635020","name":"Volkmarsen, Stadt","type":"Stadt"},"district":{"key":"06635","name":"Waldeck-Frankenberg","type":"Landkreis"},"federalState":{"key":"06","name":"Hessen"}},{"name":"Vor dem Walderberge","postalCode":"34471","locality":"Volkmarsen","municipality":{"key":"06635020","name":"Volkmarsen, Stadt","type":"Stadt"},"district":{"key":"06635","name":"Waldeck-Frankenberg","type":"Landkreis"},"federalState":{"key":"06","name":"Hessen"}},{"name":"Wächterstr.","postalCode":"34471","locality":"Volkmarsen","municipality":{"key":"06635020","name":"Volkmarsen, Stadt","type":"Stadt"},"district":{"key":"06635","name":"Waldeck-Frankenberg","type":"Landkreis"},"federalState":{"key":"06","name":"Hessen"}},{"name":"Waldlehrpfad Hoher Steiger","postalCode":"34471","locality":"Volkmarsen","municipality":{"key":"06635020","name":"Volkmarsen, Stadt","type":"Stadt"},"district":{"key":"06635","name":"Waldeck-Frankenberg","type":"Landkreis"},"federalState":{"key":"06","name":"Hessen"}},{"name":"Waldweg","postalCode":"34471","locality":"Volkmarsen","municipality":{"key":"06635020","name":"Volkmarsen, Stadt","type":"Stadt"},"district":{"key":"06635","name":"Waldeck-Frankenberg","type":"Landkreis"},"federalState":{"key":"06","name":"Hessen"}},{"name":"Warburger Str.","postalCode":"34471","locality":"Volkmarsen","municipality":{"key":"06635020","name":"Volkmarsen, Stadt","type":"Stadt"},"district":{"key":"06635","name":"Waldeck-Frankenberg","type":"Landkreis"},"federalState":{"key":"06","name":"Hessen"}},{"name":"Weldaer Str.","postalCode":"34471","locality":"Volkmarsen","municipality":{"key":"06635020","name":"Volkmarsen, Stadt","type":"Stadt"},"district":{"key":"06635","name":"Waldeck-Frankenberg","type":"Landkreis"},"federalState":{"key":"06","name":"Hessen"}},{"name":"Wetterweg","postalCode":"34471","locality":"Volkmarsen","municipality":{"key":"06635020","name":"Volkmarsen, Stadt","type":"Stadt"},"district":{"key":"06635","name":"Waldeck-Frankenberg","type":"Landkreis"},"federalState":{"key":"06","name":"Hessen"}},{"name":"Wiedelohweg","postalCode":"34471","locality":"Volkmarsen","municipality":{"key":"06635020","name":"Volkmarsen, Stadt","type":"Stadt"},"district":{"key":"06635","name":"Waldeck-Frankenberg","type":"Landkreis"},"federalState":{"key":"06","name":"Hessen"}},{"name":"Wiesenhöfe","postalCode":"34471","locality":"Volkmarsen","municipality":{"key":"06635020","name":"Volkmarsen, Stadt","type":"Stadt"},"district":{"key":"06635","name":"Waldeck-Frankenberg","type":"Landkreis"},"federalState":{"key":"06","name":"Hessen"}},{"name":"Wiesenweg","postalCode":"34471","locality":"Volkmarsen","municipality":{"key":"06635020","name":"Volkmarsen, Stadt","type":"Stadt"},"district":{"key":"06635","name":"Waldeck-Frankenberg","type":"Landkreis"},"federalState":{"key":"06","name":"Hessen"}},{"name":"Wittmarstr.","postalCode":"34471","locality":"Volkmarsen","municipality":{"key":"06635020","name":"Volkmarsen, Stadt","type":"Stadt"},"district":{"key":"06635","name":"Waldeck-Frankenberg","type":"Landkreis"},"federalState":{"key":"06","name":"Hessen"}},{"name":"Worthweg","postalCode":"34471","locality":"Volkmarsen","municipality":{"key":"06635020","name":"Volkmarsen, Stadt","type":"Stadt"},"district":{"key":"06635","name":"Waldeck-Frankenberg","type":"Landkreis"},"federalState":{"key":"06","name":"Hessen"}},{"name":"Zehntbrücke","postalCode":"34471","locality":"Volkmarsen","municipality":{"key":"06635020","name":"Volkmarsen, Stadt","type":"Stadt"},"district":{"key":"06635","name":"Waldeck-Frankenberg","type":"Landkreis"},"federalState":{"key":"06","name":"Hessen"}},{"name":"Zollstädter Str.","postalCode":"34471","locality":"Volkmarsen","municipality":{"key":"06635020","name":"Volkmarsen, Stadt","type":"Stadt"},"district":{"key":"06635","name":"Waldeck-Frankenberg","type":"Landkreis"},"federalState":{"key":"06","name":"Hessen"}},{"name":"Zum Durchgang","postalCode":"34471","locality":"Volkmarsen","municipality":{"key":"06635020","name":"Volkmarsen, Stadt","type":"Stadt"},"district":{"key":"06635","name":"Waldeck-Frankenberg","type":"Landkreis"},"federalState":{"key":"06","name":"Hessen"}},{"name":"Zum Hellenberg","postalCode":"34471","locality":"Volkmarsen","municipality":{"key":"06635020","name":"Volkmarsen, Stadt","type":"Stadt"},"district":{"key":"06635","name":"Waldeck-Frankenberg","type":"Landkreis"},"federalState":{"key":"06","name":"Hessen"}},{"name":"Zum Kleinen Feld","postalCode":"34471","locality":"Volkmarsen","municipality":{"key":"06635020","name":"Volkmarsen, Stadt","type":"Stadt"},"district":{"key":"06635","name":"Waldeck-Frankenberg","type":"Landkreis"},"federalState":{"key":"06","name":"Hessen"}},{"name":"Zum Kohlgrund","postalCode":"34471","locality":"Volkmarsen","municipality":{"key":"06635020","name":"Volkmarsen, Stadt","type":"Stadt"},"district":{"key":"06635","name":"Waldeck-Frankenberg","type":"Landkreis"},"federalState":{"key":"06","name":"Hessen"}},{"name":"Zum Lindenberg","postalCode":"34471","locality":"Volkmarsen","municipality":{"key":"06635020","name":"Volkmarsen, Stadt","type":"Stadt"},"district":{"key":"06635","name":"Waldeck-Frankenberg","type":"Landkreis"},"federalState":{"key":"06","name":"Hessen"}},{"name":"Zum Weidenbusch","postalCode":"34471","locality":"Volkmarsen","municipality":{"key":"06635020","name":"Volkmarsen, Stadt","type":"Stadt"},"district":{"key":"06635","name":"Waldeck-Frankenberg","type":"Landkreis"},"federalState":{"key":"06","name":"Hessen"}},{"name":"Zur Grund","postalCode":"34471","locality":"Volkmarsen","municipality":{"key":"06635020","name":"Volkmarsen, Stadt","type":"Stadt"},"district":{"key":"06635","name":"Waldeck-Frankenberg","type":"Landkreis"},"federalState":{"key":"06","name":"Hessen"}},{"name":"Zur Platte","postalCode":"34471","locality":"Volkmarsen","municipality":{"key":"06635020","name":"Volkmarsen, Stadt","type":"Stadt"},"district":{"key":"06635","name":"Waldeck-Frankenberg","type":"Landkreis"},"federalState":{"key":"06","name":"Hessen"}},{"name":"Zur Quelle","postalCode":"34471","locality":"Volkmarsen","municipality":{"key":"06635020","name":"Volkmarsen, Stadt","type":"Stadt"},"district":{"key":"06635","name":"Waldeck-Frankenberg","type":"Landkreis"},"federalState":{"key":"06","name":"Hessen"}},{"name":"Zwete","postalCode":"34471","locality":"Volkmarsen","municipality":{"key":"06635020","name":"Volkmarsen, Stadt","type":"Stadt"},"district":{"key":"06635","name":"Waldeck-Frankenberg","type":"Landkreis"},"federalState":{"key":"06","name":"Hessen"}},{"name":"Über den Gärten","postalCode":"34471","locality":"Volkmarsen","municipality":{"key":"06635020","name":"Volkmarsen, Stadt","type":"Stadt"},"district":{"key":"06635","name":"Waldeck-Frankenberg","type":"Landkreis"},"federalState":{"key":"06","name":"Hessen"}},]