[{"name":"Am Anger","postalCode":"18258","locality":"Rukieten","municipality":{"key":"13072090","name":"Rukieten","type":"Kreisangehörige_Gemeinde"},"district":{"key":"13072","name":"Landkreis Rostock","type":"Landkreis"},"federalState":{"key":"13","name":"Mecklenburg-Vorpommern"}},{"name":"Am Berg","postalCode":"18258","locality":"Rukieten","municipality":{"key":"13072090","name":"Rukieten","type":"Kreisangehörige_Gemeinde"},"district":{"key":"13072","name":"Landkreis Rostock","type":"Landkreis"},"federalState":{"key":"13","name":"Mecklenburg-Vorpommern"}},{"name":"An der Schafwäsche","postalCode":"18258","locality":"Rukieten","municipality":{"key":"13072090","name":"Rukieten","type":"Kreisangehörige_Gemeinde"},"district":{"key":"13072","name":"Landkreis Rostock","type":"Landkreis"},"federalState":{"key":"13","name":"Mecklenburg-Vorpommern"}},{"name":"Ausbau","postalCode":"18258","locality":"Rukieten","municipality":{"key":"13072090","name":"Rukieten","type":"Kreisangehörige_Gemeinde"},"district":{"key":"13072","name":"Landkreis Rostock","type":"Landkreis"},"federalState":{"key":"13","name":"Mecklenburg-Vorpommern"}},{"name":"Blumenstr.","postalCode":"18258","locality":"Rukieten","municipality":{"key":"13072090","name":"Rukieten","type":"Kreisangehörige_Gemeinde"},"district":{"key":"13072","name":"Landkreis Rostock","type":"Landkreis"},"federalState":{"key":"13","name":"Mecklenburg-Vorpommern"}},{"name":"Dorfstr.","postalCode":"18258","locality":"Rukieten","municipality":{"key":"13072090","name":"Rukieten","type":"Kreisangehörige_Gemeinde"},"district":{"key":"13072","name":"Landkreis Rostock","type":"Landkreis"},"federalState":{"key":"13","name":"Mecklenburg-Vorpommern"}},{"name":"Hof Lindkamp","postalCode":"18258","locality":"Rukieten","municipality":{"key":"13072090","name":"Rukieten","type":"Kreisangehörige_Gemeinde"},"district":{"key":"13072","name":"Landkreis Rostock","type":"Landkreis"},"federalState":{"key":"13","name":"Mecklenburg-Vorpommern"}},{"name":"Hoppenhof","postalCode":"18258","locality":"Rukieten","municipality":{"key":"13072090","name":"Rukieten","type":"Kreisangehörige_Gemeinde"},"district":{"key":"13072","name":"Landkreis Rostock","type":"Landkreis"},"federalState":{"key":"13","name":"Mecklenburg-Vorpommern"}},{"name":"Mistorfer Landweg","postalCode":"18258","locality":"Rukieten","municipality":{"key":"13072090","name":"Rukieten","type":"Kreisangehörige_Gemeinde"},"district":{"key":"13072","name":"Landkreis Rostock","type":"Landkreis"},"federalState":{"key":"13","name":"Mecklenburg-Vorpommern"}},{"name":"Schwaaner Str.","postalCode":"18258","locality":"Rukieten","municipality":{"key":"13072090","name":"Rukieten","type":"Kreisangehörige_Gemeinde"},"district":{"key":"13072","name":"Landkreis Rostock","type":"Landkreis"},"federalState":{"key":"13","name":"Mecklenburg-Vorpommern"}},{"name":"Verbindungsstr.","postalCode":"18258","locality":"Rukieten","municipality":{"key":"13072090","name":"Rukieten","type":"Kreisangehörige_Gemeinde"},"district":{"key":"13072","name":"Landkreis Rostock","type":"Landkreis"},"federalState":{"key":"13","name":"Mecklenburg-Vorpommern"}},{"name":"Zum Lindenhof","postalCode":"18258","locality":"Rukieten","municipality":{"key":"13072090","name":"Rukieten","type":"Kreisangehörige_Gemeinde"},"district":{"key":"13072","name":"Landkreis Rostock","type":"Landkreis"},"federalState":{"key":"13","name":"Mecklenburg-Vorpommern"}},]