[{"name":"Allenfeld","postalCode":"54528","locality":"Salmtal","municipality":{"key":"07231113","name":"Salmtal","type":"Kreisangehörige_Gemeinde"},"district":{"key":"07231","name":"Bernkastel-Wittlich","type":"Landkreis"},"federalState":{"key":"07","name":"Rheinland-Pfalz"}},{"name":"Am Bendersbach","postalCode":"54528","locality":"Salmtal","municipality":{"key":"07231113","name":"Salmtal","type":"Kreisangehörige_Gemeinde"},"district":{"key":"07231","name":"Bernkastel-Wittlich","type":"Landkreis"},"federalState":{"key":"07","name":"Rheinland-Pfalz"}},{"name":"Am Kellerberg","postalCode":"54528","locality":"Salmtal","municipality":{"key":"07231113","name":"Salmtal","type":"Kreisangehörige_Gemeinde"},"district":{"key":"07231","name":"Bernkastel-Wittlich","type":"Landkreis"},"federalState":{"key":"07","name":"Rheinland-Pfalz"}},{"name":"Am Rauen","postalCode":"54528","locality":"Salmtal","municipality":{"key":"07231113","name":"Salmtal","type":"Kreisangehörige_Gemeinde"},"district":{"key":"07231","name":"Bernkastel-Wittlich","type":"Landkreis"},"federalState":{"key":"07","name":"Rheinland-Pfalz"}},{"name":"Am Waldrand","postalCode":"54528","locality":"Salmtal","municipality":{"key":"07231113","name":"Salmtal","type":"Kreisangehörige_Gemeinde"},"district":{"key":"07231","name":"Bernkastel-Wittlich","type":"Landkreis"},"federalState":{"key":"07","name":"Rheinland-Pfalz"}},{"name":"Auf der Huf","postalCode":"54528","locality":"Salmtal","municipality":{"key":"07231113","name":"Salmtal","type":"Kreisangehörige_Gemeinde"},"district":{"key":"07231","name":"Bernkastel-Wittlich","type":"Landkreis"},"federalState":{"key":"07","name":"Rheinland-Pfalz"}},{"name":"Bahnhofstr.","postalCode":"54528","locality":"Salmtal","municipality":{"key":"07231113","name":"Salmtal","type":"Kreisangehörige_Gemeinde"},"district":{"key":"07231","name":"Bernkastel-Wittlich","type":"Landkreis"},"federalState":{"key":"07","name":"Rheinland-Pfalz"}},{"name":"Birkenbüsch","postalCode":"54528","locality":"Salmtal","municipality":{"key":"07231113","name":"Salmtal","type":"Kreisangehörige_Gemeinde"},"district":{"key":"07231","name":"Bernkastel-Wittlich","type":"Landkreis"},"federalState":{"key":"07","name":"Rheinland-Pfalz"}},{"name":"Dorheck","postalCode":"54528","locality":"Salmtal","municipality":{"key":"07231113","name":"Salmtal","type":"Kreisangehörige_Gemeinde"},"district":{"key":"07231","name":"Bernkastel-Wittlich","type":"Landkreis"},"federalState":{"key":"07","name":"Rheinland-Pfalz"}},{"name":"Feldstr.","postalCode":"54528","locality":"Salmtal","municipality":{"key":"07231113","name":"Salmtal","type":"Kreisangehörige_Gemeinde"},"district":{"key":"07231","name":"Bernkastel-Wittlich","type":"Landkreis"},"federalState":{"key":"07","name":"Rheinland-Pfalz"}},{"name":"Grabenstr.","postalCode":"54528","locality":"Salmtal","municipality":{"key":"07231113","name":"Salmtal","type":"Kreisangehörige_Gemeinde"},"district":{"key":"07231","name":"Bernkastel-Wittlich","type":"Landkreis"},"federalState":{"key":"07","name":"Rheinland-Pfalz"}},{"name":"Im Altengarten","postalCode":"54528","locality":"Salmtal","municipality":{"key":"07231113","name":"Salmtal","type":"Kreisangehörige_Gemeinde"},"district":{"key":"07231","name":"Bernkastel-Wittlich","type":"Landkreis"},"federalState":{"key":"07","name":"Rheinland-Pfalz"}},{"name":"Im Burgpech","postalCode":"54528","locality":"Salmtal","municipality":{"key":"07231113","name":"Salmtal","type":"Kreisangehörige_Gemeinde"},"district":{"key":"07231","name":"Bernkastel-Wittlich","type":"Landkreis"},"federalState":{"key":"07","name":"Rheinland-Pfalz"}},{"name":"Im Erbesfeld","postalCode":"54528","locality":"Salmtal","municipality":{"key":"07231113","name":"Salmtal","type":"Kreisangehörige_Gemeinde"},"district":{"key":"07231","name":"Bernkastel-Wittlich","type":"Landkreis"},"federalState":{"key":"07","name":"Rheinland-Pfalz"}},{"name":"Im Kordel","postalCode":"54528","locality":"Salmtal","municipality":{"key":"07231113","name":"Salmtal","type":"Kreisangehörige_Gemeinde"},"district":{"key":"07231","name":"Bernkastel-Wittlich","type":"Landkreis"},"federalState":{"key":"07","name":"Rheinland-Pfalz"}},{"name":"Im Neugarten","postalCode":"54528","locality":"Salmtal","municipality":{"key":"07231113","name":"Salmtal","type":"Kreisangehörige_Gemeinde"},"district":{"key":"07231","name":"Bernkastel-Wittlich","type":"Landkreis"},"federalState":{"key":"07","name":"Rheinland-Pfalz"}},{"name":"Im Steingraben","postalCode":"54528","locality":"Salmtal","municipality":{"key":"07231113","name":"Salmtal","type":"Kreisangehörige_Gemeinde"},"district":{"key":"07231","name":"Bernkastel-Wittlich","type":"Landkreis"},"federalState":{"key":"07","name":"Rheinland-Pfalz"}},{"name":"Im Wingertsberg","postalCode":"54528","locality":"Salmtal","municipality":{"key":"07231113","name":"Salmtal","type":"Kreisangehörige_Gemeinde"},"district":{"key":"07231","name":"Bernkastel-Wittlich","type":"Landkreis"},"federalState":{"key":"07","name":"Rheinland-Pfalz"}},{"name":"Im Wolfsgraben","postalCode":"54528","locality":"Salmtal","municipality":{"key":"07231113","name":"Salmtal","type":"Kreisangehörige_Gemeinde"},"district":{"key":"07231","name":"Bernkastel-Wittlich","type":"Landkreis"},"federalState":{"key":"07","name":"Rheinland-Pfalz"}},{"name":"In der Hiehl","postalCode":"54528","locality":"Salmtal","municipality":{"key":"07231113","name":"Salmtal","type":"Kreisangehörige_Gemeinde"},"district":{"key":"07231","name":"Bernkastel-Wittlich","type":"Landkreis"},"federalState":{"key":"07","name":"Rheinland-Pfalz"}},{"name":"Kirchstr.","postalCode":"54528","locality":"Salmtal","municipality":{"key":"07231113","name":"Salmtal","type":"Kreisangehörige_Gemeinde"},"district":{"key":"07231","name":"Bernkastel-Wittlich","type":"Landkreis"},"federalState":{"key":"07","name":"Rheinland-Pfalz"}},{"name":"Matthias-Emmerich-Str.","postalCode":"54528","locality":"Salmtal","municipality":{"key":"07231113","name":"Salmtal","type":"Kreisangehörige_Gemeinde"},"district":{"key":"07231","name":"Bernkastel-Wittlich","type":"Landkreis"},"federalState":{"key":"07","name":"Rheinland-Pfalz"}},{"name":"Michael-Felke-Str.","postalCode":"54528","locality":"Salmtal","municipality":{"key":"07231113","name":"Salmtal","type":"Kreisangehörige_Gemeinde"},"district":{"key":"07231","name":"Bernkastel-Wittlich","type":"Landkreis"},"federalState":{"key":"07","name":"Rheinland-Pfalz"}},{"name":"Moselstr.","postalCode":"54528","locality":"Salmtal","municipality":{"key":"07231113","name":"Salmtal","type":"Kreisangehörige_Gemeinde"},"district":{"key":"07231","name":"Bernkastel-Wittlich","type":"Landkreis"},"federalState":{"key":"07","name":"Rheinland-Pfalz"}},{"name":"Mühlenstr.","postalCode":"54528","locality":"Salmtal","municipality":{"key":"07231113","name":"Salmtal","type":"Kreisangehörige_Gemeinde"},"district":{"key":"07231","name":"Bernkastel-Wittlich","type":"Landkreis"},"federalState":{"key":"07","name":"Rheinland-Pfalz"}},{"name":"Neuer Bahnhof","postalCode":"54528","locality":"Salmtal","municipality":{"key":"07231113","name":"Salmtal","type":"Kreisangehörige_Gemeinde"},"district":{"key":"07231","name":"Bernkastel-Wittlich","type":"Landkreis"},"federalState":{"key":"07","name":"Rheinland-Pfalz"}},{"name":"Neustr.","postalCode":"54528","locality":"Salmtal","municipality":{"key":"07231113","name":"Salmtal","type":"Kreisangehörige_Gemeinde"},"district":{"key":"07231","name":"Bernkastel-Wittlich","type":"Landkreis"},"federalState":{"key":"07","name":"Rheinland-Pfalz"}},{"name":"Nikolaus-Meeth-Str.","postalCode":"54528","locality":"Salmtal","municipality":{"key":"07231113","name":"Salmtal","type":"Kreisangehörige_Gemeinde"},"district":{"key":"07231","name":"Bernkastel-Wittlich","type":"Landkreis"},"federalState":{"key":"07","name":"Rheinland-Pfalz"}},{"name":"Ringstr.","postalCode":"54528","locality":"Salmtal","municipality":{"key":"07231113","name":"Salmtal","type":"Kreisangehörige_Gemeinde"},"district":{"key":"07231","name":"Bernkastel-Wittlich","type":"Landkreis"},"federalState":{"key":"07","name":"Rheinland-Pfalz"}},{"name":"Rosengarten","postalCode":"54528","locality":"Salmtal","municipality":{"key":"07231113","name":"Salmtal","type":"Kreisangehörige_Gemeinde"},"district":{"key":"07231","name":"Bernkastel-Wittlich","type":"Landkreis"},"federalState":{"key":"07","name":"Rheinland-Pfalz"}},{"name":"Salmaue","postalCode":"54528","locality":"Salmtal","municipality":{"key":"07231113","name":"Salmtal","type":"Kreisangehörige_Gemeinde"},"district":{"key":"07231","name":"Bernkastel-Wittlich","type":"Landkreis"},"federalState":{"key":"07","name":"Rheinland-Pfalz"}},{"name":"Salmstr.","postalCode":"54528","locality":"Salmtal","municipality":{"key":"07231113","name":"Salmtal","type":"Kreisangehörige_Gemeinde"},"district":{"key":"07231","name":"Bernkastel-Wittlich","type":"Landkreis"},"federalState":{"key":"07","name":"Rheinland-Pfalz"}},{"name":"Stierpesch","postalCode":"54528","locality":"Salmtal","municipality":{"key":"07231113","name":"Salmtal","type":"Kreisangehörige_Gemeinde"},"district":{"key":"07231","name":"Bernkastel-Wittlich","type":"Landkreis"},"federalState":{"key":"07","name":"Rheinland-Pfalz"}},{"name":"Tannenhof","postalCode":"54528","locality":"Salmtal","municipality":{"key":"07231113","name":"Salmtal","type":"Kreisangehörige_Gemeinde"},"district":{"key":"07231","name":"Bernkastel-Wittlich","type":"Landkreis"},"federalState":{"key":"07","name":"Rheinland-Pfalz"}},{"name":"Unterster Garten","postalCode":"54528","locality":"Salmtal","municipality":{"key":"07231113","name":"Salmtal","type":"Kreisangehörige_Gemeinde"},"district":{"key":"07231","name":"Bernkastel-Wittlich","type":"Landkreis"},"federalState":{"key":"07","name":"Rheinland-Pfalz"}},{"name":"Vor den Gruben","postalCode":"54528","locality":"Salmtal","municipality":{"key":"07231113","name":"Salmtal","type":"Kreisangehörige_Gemeinde"},"district":{"key":"07231","name":"Bernkastel-Wittlich","type":"Landkreis"},"federalState":{"key":"07","name":"Rheinland-Pfalz"}},{"name":"Wildbrücke","postalCode":"54528","locality":"Salmtal","municipality":{"key":"07231113","name":"Salmtal","type":"Kreisangehörige_Gemeinde"},"district":{"key":"07231","name":"Bernkastel-Wittlich","type":"Landkreis"},"federalState":{"key":"07","name":"Rheinland-Pfalz"}},{"name":"Wittlicher Str.","postalCode":"54528","locality":"Salmtal","municipality":{"key":"07231113","name":"Salmtal","type":"Kreisangehörige_Gemeinde"},"district":{"key":"07231","name":"Bernkastel-Wittlich","type":"Landkreis"},"federalState":{"key":"07","name":"Rheinland-Pfalz"}},{"name":"Zum Angelsteg","postalCode":"54528","locality":"Salmtal","municipality":{"key":"07231113","name":"Salmtal","type":"Kreisangehörige_Gemeinde"},"district":{"key":"07231","name":"Bernkastel-Wittlich","type":"Landkreis"},"federalState":{"key":"07","name":"Rheinland-Pfalz"}},{"name":"Zum Burgberg","postalCode":"54528","locality":"Salmtal","municipality":{"key":"07231113","name":"Salmtal","type":"Kreisangehörige_Gemeinde"},"district":{"key":"07231","name":"Bernkastel-Wittlich","type":"Landkreis"},"federalState":{"key":"07","name":"Rheinland-Pfalz"}},]