[{"key":"10097470","name":"Afuris","postalCode":"7015","locality":"Tamins","commune":{"key":"3733","name":"Tamins","shortName":"Tamins"},"district":{"key":"1844","name":"Region Imboden"},"canton":{"key":"18","code":"GR","name":"Graubünden / Grigioni / Grischun"},"status":"Real"},{"key":"10176490","name":"Aligstrasse","postalCode":"7015","locality":"Tamins","commune":{"key":"3733","name":"Tamins","shortName":"Tamins"},"district":{"key":"1844","name":"Region Imboden"},"canton":{"key":"18","code":"GR","name":"Graubünden / Grigioni / Grischun"},"status":"Real"},{"key":"10068093","name":"Am Bach","postalCode":"7015","locality":"Tamins","commune":{"key":"3733","name":"Tamins","shortName":"Tamins"},"district":{"key":"1844","name":"Region Imboden"},"canton":{"key":"18","code":"GR","name":"Graubünden / Grigioni / Grischun"},"status":"Real"},{"key":"10025203","name":"Asella","postalCode":"7015","locality":"Tamins","commune":{"key":"3733","name":"Tamins","shortName":"Tamins"},"district":{"key":"1844","name":"Region Imboden"},"canton":{"key":"18","code":"GR","name":"Graubünden / Grigioni / Grischun"},"status":"Real"},{"key":"10025204","name":"Aussergasse","postalCode":"7015","locality":"Tamins","commune":{"key":"3733","name":"Tamins","shortName":"Tamins"},"district":{"key":"1844","name":"Region Imboden"},"canton":{"key":"18","code":"GR","name":"Graubünden / Grigioni / Grischun"},"status":"Real"},{"key":"10257865","name":"Balsuraweg","postalCode":"7015","locality":"Tamins","commune":{"key":"3733","name":"Tamins","shortName":"Tamins"},"district":{"key":"1844","name":"Region Imboden"},"canton":{"key":"18","code":"GR","name":"Graubünden / Grigioni / Grischun"},"status":"Real"},{"key":"10257869","name":"Bärgweg","postalCode":"7015","locality":"Tamins","commune":{"key":"3733","name":"Tamins","shortName":"Tamins"},"district":{"key":"1844","name":"Region Imboden"},"canton":{"key":"18","code":"GR","name":"Graubünden / Grigioni / Grischun"},"status":"Real"},{"key":"10257874","name":"Benisbodaweg","postalCode":"7015","locality":"Tamins","commune":{"key":"3733","name":"Tamins","shortName":"Tamins"},"district":{"key":"1844","name":"Region Imboden"},"canton":{"key":"18","code":"GR","name":"Graubünden / Grigioni / Grischun"},"status":"Real"},{"key":"10257876","name":"Bergstrasse","postalCode":"7015","locality":"Tamins","commune":{"key":"3733","name":"Tamins","shortName":"Tamins"},"district":{"key":"1844","name":"Region Imboden"},"canton":{"key":"18","code":"GR","name":"Graubünden / Grigioni / Grischun"},"status":"Real"},{"key":"10254292","name":"Bullisweg","postalCode":"7015","locality":"Tamins","commune":{"key":"3733","name":"Tamins","shortName":"Tamins"},"district":{"key":"1844","name":"Region Imboden"},"canton":{"key":"18","code":"GR","name":"Graubünden / Grigioni / Grischun"},"status":"Real"},{"key":"10068094","name":"Bündte","postalCode":"7015","locality":"Tamins","commune":{"key":"3733","name":"Tamins","shortName":"Tamins"},"district":{"key":"1844","name":"Region Imboden"},"canton":{"key":"18","code":"GR","name":"Graubünden / Grigioni / Grischun"},"status":"Real"},{"key":"10025205","name":"Calandaweg","postalCode":"7015","locality":"Tamins","commune":{"key":"3733","name":"Tamins","shortName":"Tamins"},"district":{"key":"1844","name":"Region Imboden"},"canton":{"key":"18","code":"GR","name":"Graubünden / Grigioni / Grischun"},"status":"Real"},{"key":"10025206","name":"Caldairastrasse","postalCode":"7015","locality":"Tamins","commune":{"key":"3733","name":"Tamins","shortName":"Tamins"},"district":{"key":"1844","name":"Region Imboden"},"canton":{"key":"18","code":"GR","name":"Graubünden / Grigioni / Grischun"},"status":"Real"},{"key":"10068095","name":"Cartschitscha","postalCode":"7015","locality":"Tamins","commune":{"key":"3733","name":"Tamins","shortName":"Tamins"},"district":{"key":"1844","name":"Region Imboden"},"canton":{"key":"18","code":"GR","name":"Graubünden / Grigioni / Grischun"},"status":"Real"},{"key":"10097471","name":"Dahlienstrasse","postalCode":"7015","locality":"Tamins","commune":{"key":"3733","name":"Tamins","shortName":"Tamins"},"district":{"key":"1844","name":"Region Imboden"},"canton":{"key":"18","code":"GR","name":"Graubünden / Grigioni / Grischun"},"status":"Real"},{"key":"10191153","name":"Dorfplatz","postalCode":"7015","locality":"Tamins","commune":{"key":"3733","name":"Tamins","shortName":"Tamins"},"district":{"key":"1844","name":"Region Imboden"},"canton":{"key":"18","code":"GR","name":"Graubünden / Grigioni / Grischun"},"status":"Real"},{"key":"10257860","name":"Energieweg","postalCode":"7015","locality":"Tamins","commune":{"key":"3733","name":"Tamins","shortName":"Tamins"},"district":{"key":"1844","name":"Region Imboden"},"canton":{"key":"18","code":"GR","name":"Graubünden / Grigioni / Grischun"},"status":"Real"},{"key":"10025207","name":"Falarauscha","postalCode":"7015","locality":"Tamins","commune":{"key":"3733","name":"Tamins","shortName":"Tamins"},"district":{"key":"1844","name":"Region Imboden"},"canton":{"key":"18","code":"GR","name":"Graubünden / Grigioni / Grischun"},"status":"Real"},{"key":"10185248","name":"Foppa","postalCode":"7015","locality":"Tamins","commune":{"key":"3733","name":"Tamins","shortName":"Tamins"},"district":{"key":"1844","name":"Region Imboden"},"canton":{"key":"18","code":"GR","name":"Graubünden / Grigioni / Grischun"},"status":"Real"},{"key":"10257861","name":"Foppalochweg","postalCode":"7015","locality":"Tamins","commune":{"key":"3733","name":"Tamins","shortName":"Tamins"},"district":{"key":"1844","name":"Region Imboden"},"canton":{"key":"18","code":"GR","name":"Graubünden / Grigioni / Grischun"},"status":"Real"},{"key":"10025208","name":"Forellenweg","postalCode":"7015","locality":"Tamins","commune":{"key":"3733","name":"Tamins","shortName":"Tamins"},"district":{"key":"1844","name":"Region Imboden"},"canton":{"key":"18","code":"GR","name":"Graubünden / Grigioni / Grischun"},"status":"Real"},{"key":"10257862","name":"Girschweg","postalCode":"7015","locality":"Tamins","commune":{"key":"3733","name":"Tamins","shortName":"Tamins"},"district":{"key":"1844","name":"Region Imboden"},"canton":{"key":"18","code":"GR","name":"Graubünden / Grigioni / Grischun"},"status":"Real"},{"key":"10257866","name":"Grossalpweg","postalCode":"7015","locality":"Tamins","commune":{"key":"3733","name":"Tamins","shortName":"Tamins"},"district":{"key":"1844","name":"Region Imboden"},"canton":{"key":"18","code":"GR","name":"Graubünden / Grigioni / Grischun"},"status":"Real"},{"key":"10130439","name":"Gutschaloch","postalCode":"7015","locality":"Tamins","commune":{"key":"3733","name":"Tamins","shortName":"Tamins"},"district":{"key":"1844","name":"Region Imboden"},"canton":{"key":"18","code":"GR","name":"Graubünden / Grigioni / Grischun"},"status":"Real"},{"key":"10097472","name":"Hintergasse","postalCode":"7015","locality":"Tamins","commune":{"key":"3733","name":"Tamins","shortName":"Tamins"},"district":{"key":"1844","name":"Region Imboden"},"canton":{"key":"18","code":"GR","name":"Graubünden / Grigioni / Grischun"},"status":"Real"},{"key":"10068096","name":"Im Winkel","postalCode":"7015","locality":"Tamins","commune":{"key":"3733","name":"Tamins","shortName":"Tamins"},"district":{"key":"1844","name":"Region Imboden"},"canton":{"key":"18","code":"GR","name":"Graubünden / Grigioni / Grischun"},"status":"Real"},{"key":"10257864","name":"Italienische Strasse","postalCode":"7015","locality":"Tamins","commune":{"key":"3733","name":"Tamins","shortName":"Tamins"},"district":{"key":"1844","name":"Region Imboden"},"canton":{"key":"18","code":"GR","name":"Graubünden / Grigioni / Grischun"},"status":"Real"},{"key":"10176491","name":"Kirchweg","postalCode":"7015","locality":"Tamins","commune":{"key":"3733","name":"Tamins","shortName":"Tamins"},"district":{"key":"1844","name":"Region Imboden"},"canton":{"key":"18","code":"GR","name":"Graubünden / Grigioni / Grischun"},"status":"Real"},{"key":"10257868","name":"Kunkelsstrasse","postalCode":"7015","locality":"Tamins","commune":{"key":"3733","name":"Tamins","shortName":"Tamins"},"district":{"key":"1844","name":"Region Imboden"},"canton":{"key":"18","code":"GR","name":"Graubünden / Grigioni / Grischun"},"status":"Real"},{"key":"10257872","name":"Lavoitobel","postalCode":"7015","locality":"Tamins","commune":{"key":"3733","name":"Tamins","shortName":"Tamins"},"district":{"key":"1844","name":"Region Imboden"},"canton":{"key":"18","code":"GR","name":"Graubünden / Grigioni / Grischun"},"status":"Real"},{"key":"10215839","name":"Monadiris","postalCode":"7015","locality":"Tamins","commune":{"key":"3733","name":"Tamins","shortName":"Tamins"},"district":{"key":"1844","name":"Region Imboden"},"canton":{"key":"18","code":"GR","name":"Graubünden / Grigioni / Grischun"},"status":"Real"},{"key":"10025210","name":"Mühletobel","postalCode":"7015","locality":"Tamins","commune":{"key":"3733","name":"Tamins","shortName":"Tamins"},"district":{"key":"1844","name":"Region Imboden"},"canton":{"key":"18","code":"GR","name":"Graubünden / Grigioni / Grischun"},"status":"Real"},{"key":"10215843","name":"Munt Sura","postalCode":"7015","locality":"Tamins","commune":{"key":"3733","name":"Tamins","shortName":"Tamins"},"district":{"key":"1844","name":"Region Imboden"},"canton":{"key":"18","code":"GR","name":"Graubünden / Grigioni / Grischun"},"status":"Real"},{"key":"10215847","name":"Munt Sut","postalCode":"7015","locality":"Tamins","commune":{"key":"3733","name":"Tamins","shortName":"Tamins"},"district":{"key":"1844","name":"Region Imboden"},"canton":{"key":"18","code":"GR","name":"Graubünden / Grigioni / Grischun"},"status":"Real"},{"key":"10257877","name":"Oberalpstrasse","postalCode":"7015","locality":"Tamins","commune":{"key":"3733","name":"Tamins","shortName":"Tamins"},"district":{"key":"1844","name":"Region Imboden"},"canton":{"key":"18","code":"GR","name":"Graubünden / Grigioni / Grischun"},"status":"Real"},{"key":"10097473","name":"Obere Quaderstrasse","postalCode":"7015","locality":"Tamins","commune":{"key":"3733","name":"Tamins","shortName":"Tamins"},"district":{"key":"1844","name":"Region Imboden"},"canton":{"key":"18","code":"GR","name":"Graubünden / Grigioni / Grischun"},"status":"Real"},{"key":"10025211","name":"Obergasse","postalCode":"7015","locality":"Tamins","commune":{"key":"3733","name":"Tamins","shortName":"Tamins"},"district":{"key":"1844","name":"Region Imboden"},"canton":{"key":"18","code":"GR","name":"Graubünden / Grigioni / Grischun"},"status":"Real"},{"key":"10025212","name":"Pradamalerstrasse","postalCode":"7015","locality":"Tamins","commune":{"key":"3733","name":"Tamins","shortName":"Tamins"},"district":{"key":"1844","name":"Region Imboden"},"canton":{"key":"18","code":"GR","name":"Graubünden / Grigioni / Grischun"},"status":"Real"},{"key":"10108820","name":"Reichenauerstrasse","postalCode":"7015","locality":"Tamins","commune":{"key":"3733","name":"Tamins","shortName":"Tamins"},"district":{"key":"1844","name":"Region Imboden"},"canton":{"key":"18","code":"GR","name":"Graubünden / Grigioni / Grischun"},"status":"Real"},{"key":"10147760","name":"Rheinstrasse","postalCode":"7015","locality":"Tamins","commune":{"key":"3733","name":"Tamins","shortName":"Tamins"},"district":{"key":"1844","name":"Region Imboden"},"canton":{"key":"18","code":"GR","name":"Graubünden / Grigioni / Grischun"},"status":"Real"},{"key":"10097474","name":"Riedstrasse","postalCode":"7015","locality":"Tamins","commune":{"key":"3733","name":"Tamins","shortName":"Tamins"},"district":{"key":"1844","name":"Region Imboden"},"canton":{"key":"18","code":"GR","name":"Graubünden / Grigioni / Grischun"},"status":"Real"},{"key":"10068099","name":"Ringelweg","postalCode":"7015","locality":"Tamins","commune":{"key":"3733","name":"Tamins","shortName":"Tamins"},"district":{"key":"1844","name":"Region Imboden"},"canton":{"key":"18","code":"GR","name":"Graubünden / Grigioni / Grischun"},"status":"Real"},{"key":"10025213","name":"Rossbodenstrasse","postalCode":"7015","locality":"Tamins","commune":{"key":"3733","name":"Tamins","shortName":"Tamins"},"district":{"key":"1844","name":"Region Imboden"},"canton":{"key":"18","code":"GR","name":"Graubünden / Grigioni / Grischun"},"status":"Real"},{"key":"10176492","name":"Rüefa","postalCode":"7015","locality":"Tamins","commune":{"key":"3733","name":"Tamins","shortName":"Tamins"},"district":{"key":"1844","name":"Region Imboden"},"canton":{"key":"18","code":"GR","name":"Graubünden / Grigioni / Grischun"},"status":"Real"},{"key":"10215855","name":"Schulweg","postalCode":"7015","locality":"Tamins","commune":{"key":"3733","name":"Tamins","shortName":"Tamins"},"district":{"key":"1844","name":"Region Imboden"},"canton":{"key":"18","code":"GR","name":"Graubünden / Grigioni / Grischun"},"status":"Real"},{"key":"10257867","name":"Sgaiweg","postalCode":"7015","locality":"Tamins","commune":{"key":"3733","name":"Tamins","shortName":"Tamins"},"district":{"key":"1844","name":"Region Imboden"},"canton":{"key":"18","code":"GR","name":"Graubünden / Grigioni / Grischun"},"status":"Real"},{"key":"10257871","name":"Taminser Älpliweg","postalCode":"7015","locality":"Tamins","commune":{"key":"3733","name":"Tamins","shortName":"Tamins"},"district":{"key":"1844","name":"Region Imboden"},"canton":{"key":"18","code":"GR","name":"Graubünden / Grigioni / Grischun"},"status":"Real"},{"key":"10257858","name":"Taminserstrasse","postalCode":"7015","locality":"Tamins","commune":{"key":"3733","name":"Tamins","shortName":"Tamins"},"district":{"key":"1844","name":"Region Imboden"},"canton":{"key":"18","code":"GR","name":"Graubünden / Grigioni / Grischun"},"status":"Real"},{"key":"10097475","name":"Trinserstrasse","postalCode":"7015","locality":"Tamins","commune":{"key":"3733","name":"Tamins","shortName":"Tamins"},"district":{"key":"1844","name":"Region Imboden"},"canton":{"key":"18","code":"GR","name":"Graubünden / Grigioni / Grischun"},"status":"Real"},{"key":"10109509","name":"Tschiplatta","postalCode":"7015","locality":"Tamins","commune":{"key":"3733","name":"Tamins","shortName":"Tamins"},"district":{"key":"1844","name":"Region Imboden"},"canton":{"key":"18","code":"GR","name":"Graubünden / Grigioni / Grischun"},"status":"Real"},{"key":"10256474","name":"Underm Dorf","postalCode":"7015","locality":"Tamins","commune":{"key":"3733","name":"Tamins","shortName":"Tamins"},"district":{"key":"1844","name":"Region Imboden"},"canton":{"key":"18","code":"GR","name":"Graubünden / Grigioni / Grischun"},"status":"Real"},{"key":"10176493","name":"Vasorta","postalCode":"7015","locality":"Tamins","commune":{"key":"3733","name":"Tamins","shortName":"Tamins"},"district":{"key":"1844","name":"Region Imboden"},"canton":{"key":"18","code":"GR","name":"Graubünden / Grigioni / Grischun"},"status":"Real"},{"key":"10259462","name":"Via Alpsu","postalCode":"7015","locality":"Tamins","commune":{"key":"3733","name":"Tamins","shortName":"Tamins"},"district":{"key":"1844","name":"Region Imboden"},"canton":{"key":"18","code":"GR","name":"Graubünden / Grigioni / Grischun"},"status":"Real"},{"key":"10259149","name":"Via Mundadiras","postalCode":"7015","locality":"Tamins","commune":{"key":"3733","name":"Tamins","shortName":"Tamins"},"district":{"key":"1844","name":"Region Imboden"},"canton":{"key":"18","code":"GR","name":"Graubünden / Grigioni / Grischun"},"status":"Real"},{"key":"10259150","name":"Via Ora si Munt Sura","postalCode":"7015","locality":"Tamins","commune":{"key":"3733","name":"Tamins","shortName":"Tamins"},"district":{"key":"1844","name":"Region Imboden"},"canton":{"key":"18","code":"GR","name":"Graubünden / Grigioni / Grischun"},"status":"Real"},{"key":"10257875","name":"Via Platta","postalCode":"7015","locality":"Tamins","commune":{"key":"3733","name":"Tamins","shortName":"Tamins"},"district":{"key":"1844","name":"Region Imboden"},"canton":{"key":"18","code":"GR","name":"Graubünden / Grigioni / Grischun"},"status":"Real"},{"key":"10025228","name":"Via Platta","postalCode":"7015","locality":"Tamins","commune":{"key":"3733","name":"Tamins","shortName":"Tamins"},"district":{"key":"1844","name":"Region Imboden"},"canton":{"key":"18","code":"GR","name":"Graubünden / Grigioni / Grischun"},"status":"Real"},{"key":"10191868","name":"Waidagurt","postalCode":"7015","locality":"Tamins","commune":{"key":"3733","name":"Tamins","shortName":"Tamins"},"district":{"key":"1844","name":"Region Imboden"},"canton":{"key":"18","code":"GR","name":"Graubünden / Grigioni / Grischun"},"status":"Real"},{"key":"10115281","name":"Wasserschmittenweg","postalCode":"7015","locality":"Tamins","commune":{"key":"3733","name":"Tamins","shortName":"Tamins"},"district":{"key":"1844","name":"Region Imboden"},"canton":{"key":"18","code":"GR","name":"Graubünden / Grigioni / Grischun"},"status":"Real"},{"key":"10025214","name":"Wingertweg","postalCode":"7015","locality":"Tamins","commune":{"key":"3733","name":"Tamins","shortName":"Tamins"},"district":{"key":"1844","name":"Region Imboden"},"canton":{"key":"18","code":"GR","name":"Graubünden / Grigioni / Grischun"},"status":"Real"},{"key":"10025215","name":"Winkelstrasse","postalCode":"7015","locality":"Tamins","commune":{"key":"3733","name":"Tamins","shortName":"Tamins"},"district":{"key":"1844","name":"Region Imboden"},"canton":{"key":"18","code":"GR","name":"Graubünden / Grigioni / Grischun"},"status":"Real"},]