[{"name":"Achardstr.","postalCode":"31319","locality":"Sehnde","municipality":{"key":"03241016","name":"Sehnde, Stadt","type":"Stadt"},"district":{"key":"03241","name":"Region Hannover","type":"Landkreis"},"federalState":{"key":"03","name":"Niedersachsen"}},{"name":"Adolf-Kolping-Str.","postalCode":"31319","locality":"Sehnde","municipality":{"key":"03241016","name":"Sehnde, Stadt","type":"Stadt"},"district":{"key":"03241","name":"Region Hannover","type":"Landkreis"},"federalState":{"key":"03","name":"Niedersachsen"}},{"name":"Agnes-Miegel-Str.","postalCode":"31319","locality":"Sehnde","municipality":{"key":"03241016","name":"Sehnde, Stadt","type":"Stadt"},"district":{"key":"03241","name":"Region Hannover","type":"Landkreis"},"federalState":{"key":"03","name":"Niedersachsen"}},{"name":"Ahlter Feld","postalCode":"31319","locality":"Sehnde","municipality":{"key":"03241016","name":"Sehnde, Stadt","type":"Stadt"},"district":{"key":"03241","name":"Region Hannover","type":"Landkreis"},"federalState":{"key":"03","name":"Niedersachsen"}},{"name":"Ahornweg","postalCode":"31319","locality":"Sehnde","municipality":{"key":"03241016","name":"Sehnde, Stadt","type":"Stadt"},"district":{"key":"03241","name":"Region Hannover","type":"Landkreis"},"federalState":{"key":"03","name":"Niedersachsen"}},{"name":"Albert-Schweitzer-Str.","postalCode":"31319","locality":"Sehnde","municipality":{"key":"03241016","name":"Sehnde, Stadt","type":"Stadt"},"district":{"key":"03241","name":"Region Hannover","type":"Landkreis"},"federalState":{"key":"03","name":"Niedersachsen"}},{"name":"Alemanniaweg","postalCode":"31319","locality":"Sehnde","municipality":{"key":"03241016","name":"Sehnde, Stadt","type":"Stadt"},"district":{"key":"03241","name":"Region Hannover","type":"Landkreis"},"federalState":{"key":"03","name":"Niedersachsen"}},{"name":"Alte Gärtnerei","postalCode":"31319","locality":"Sehnde","municipality":{"key":"03241016","name":"Sehnde, Stadt","type":"Stadt"},"district":{"key":"03241","name":"Region Hannover","type":"Landkreis"},"federalState":{"key":"03","name":"Niedersachsen"}},{"name":"Alte Heerstr.","postalCode":"31319","locality":"Sehnde","municipality":{"key":"03241016","name":"Sehnde, Stadt","type":"Stadt"},"district":{"key":"03241","name":"Region Hannover","type":"Landkreis"},"federalState":{"key":"03","name":"Niedersachsen"}},{"name":"Alte Schmiede","postalCode":"31319","locality":"Sehnde","municipality":{"key":"03241016","name":"Sehnde, Stadt","type":"Stadt"},"district":{"key":"03241","name":"Region Hannover","type":"Landkreis"},"federalState":{"key":"03","name":"Niedersachsen"}},{"name":"Am Ahrenberge","postalCode":"31319","locality":"Sehnde","municipality":{"key":"03241016","name":"Sehnde, Stadt","type":"Stadt"},"district":{"key":"03241","name":"Region Hannover","type":"Landkreis"},"federalState":{"key":"03","name":"Niedersachsen"}},{"name":"Amalienhof","postalCode":"31319","locality":"Sehnde","municipality":{"key":"03241016","name":"Sehnde, Stadt","type":"Stadt"},"district":{"key":"03241","name":"Region Hannover","type":"Landkreis"},"federalState":{"key":"03","name":"Niedersachsen"}},{"name":"Am Anger","postalCode":"31319","locality":"Sehnde","municipality":{"key":"03241016","name":"Sehnde, Stadt","type":"Stadt"},"district":{"key":"03241","name":"Region Hannover","type":"Landkreis"},"federalState":{"key":"03","name":"Niedersachsen"}},{"name":"Am Denkmal","postalCode":"31319","locality":"Sehnde","municipality":{"key":"03241016","name":"Sehnde, Stadt","type":"Stadt"},"district":{"key":"03241","name":"Region Hannover","type":"Landkreis"},"federalState":{"key":"03","name":"Niedersachsen"}},{"name":"Am Friedhof","postalCode":"31319","locality":"Sehnde","municipality":{"key":"03241016","name":"Sehnde, Stadt","type":"Stadt"},"district":{"key":"03241","name":"Region Hannover","type":"Landkreis"},"federalState":{"key":"03","name":"Niedersachsen"}},{"name":"Am Gehrkamp","postalCode":"31319","locality":"Sehnde","municipality":{"key":"03241016","name":"Sehnde, Stadt","type":"Stadt"},"district":{"key":"03241","name":"Region Hannover","type":"Landkreis"},"federalState":{"key":"03","name":"Niedersachsen"}},{"name":"Am Golfplatz","postalCode":"31319","locality":"Sehnde","municipality":{"key":"03241016","name":"Sehnde, Stadt","type":"Stadt"},"district":{"key":"03241","name":"Region Hannover","type":"Landkreis"},"federalState":{"key":"03","name":"Niedersachsen"}},{"name":"Am Haspelweg","postalCode":"31319","locality":"Sehnde","municipality":{"key":"03241016","name":"Sehnde, Stadt","type":"Stadt"},"district":{"key":"03241","name":"Region Hannover","type":"Landkreis"},"federalState":{"key":"03","name":"Niedersachsen"}},{"name":"Am Holunderbusch","postalCode":"31319","locality":"Sehnde","municipality":{"key":"03241016","name":"Sehnde, Stadt","type":"Stadt"},"district":{"key":"03241","name":"Region Hannover","type":"Landkreis"},"federalState":{"key":"03","name":"Niedersachsen"}},{"name":"Am Kälberanger","postalCode":"31319","locality":"Sehnde","municipality":{"key":"03241016","name":"Sehnde, Stadt","type":"Stadt"},"district":{"key":"03241","name":"Region Hannover","type":"Landkreis"},"federalState":{"key":"03","name":"Niedersachsen"}},{"name":"Am Kleikamp","postalCode":"31319","locality":"Sehnde","municipality":{"key":"03241016","name":"Sehnde, Stadt","type":"Stadt"},"district":{"key":"03241","name":"Region Hannover","type":"Landkreis"},"federalState":{"key":"03","name":"Niedersachsen"}},{"name":"Am Ladeholz","postalCode":"31319","locality":"Sehnde","municipality":{"key":"03241016","name":"Sehnde, Stadt","type":"Stadt"},"district":{"key":"03241","name":"Region Hannover","type":"Landkreis"},"federalState":{"key":"03","name":"Niedersachsen"}},{"name":"Am Mühlenberg","postalCode":"31319","locality":"Sehnde","municipality":{"key":"03241016","name":"Sehnde, Stadt","type":"Stadt"},"district":{"key":"03241","name":"Region Hannover","type":"Landkreis"},"federalState":{"key":"03","name":"Niedersachsen"}},{"name":"Am Neuen Garten","postalCode":"31319","locality":"Sehnde","municipality":{"key":"03241016","name":"Sehnde, Stadt","type":"Stadt"},"district":{"key":"03241","name":"Region Hannover","type":"Landkreis"},"federalState":{"key":"03","name":"Niedersachsen"}},{"name":"Am Nordende","postalCode":"31319","locality":"Sehnde","municipality":{"key":"03241016","name":"Sehnde, Stadt","type":"Stadt"},"district":{"key":"03241","name":"Region Hannover","type":"Landkreis"},"federalState":{"key":"03","name":"Niedersachsen"}},{"name":"Am Papenholz","postalCode":"31319","locality":"Sehnde","municipality":{"key":"03241016","name":"Sehnde, Stadt","type":"Stadt"},"district":{"key":"03241","name":"Region Hannover","type":"Landkreis"},"federalState":{"key":"03","name":"Niedersachsen"}},{"name":"Am Park","postalCode":"31319","locality":"Sehnde","municipality":{"key":"03241016","name":"Sehnde, Stadt","type":"Stadt"},"district":{"key":"03241","name":"Region Hannover","type":"Landkreis"},"federalState":{"key":"03","name":"Niedersachsen"}},{"name":"Am Pferdeanger","postalCode":"31319","locality":"Sehnde","municipality":{"key":"03241016","name":"Sehnde, Stadt","type":"Stadt"},"district":{"key":"03241","name":"Region Hannover","type":"Landkreis"},"federalState":{"key":"03","name":"Niedersachsen"}},{"name":"Am Pfingstanger","postalCode":"31319","locality":"Sehnde","municipality":{"key":"03241016","name":"Sehnde, Stadt","type":"Stadt"},"district":{"key":"03241","name":"Region Hannover","type":"Landkreis"},"federalState":{"key":"03","name":"Niedersachsen"}},{"name":"Am Pumpe","postalCode":"31319","locality":"Sehnde","municipality":{"key":"03241016","name":"Sehnde, Stadt","type":"Stadt"},"district":{"key":"03241","name":"Region Hannover","type":"Landkreis"},"federalState":{"key":"03","name":"Niedersachsen"}},{"name":"Am Ritterbusch","postalCode":"31319","locality":"Sehnde","municipality":{"key":"03241016","name":"Sehnde, Stadt","type":"Stadt"},"district":{"key":"03241","name":"Region Hannover","type":"Landkreis"},"federalState":{"key":"03","name":"Niedersachsen"}},{"name":"Am Rothbusch","postalCode":"31319","locality":"Sehnde","municipality":{"key":"03241016","name":"Sehnde, Stadt","type":"Stadt"},"district":{"key":"03241","name":"Region Hannover","type":"Landkreis"},"federalState":{"key":"03","name":"Niedersachsen"}},{"name":"Am Schießstand","postalCode":"31319","locality":"Sehnde","municipality":{"key":"03241016","name":"Sehnde, Stadt","type":"Stadt"},"district":{"key":"03241","name":"Region Hannover","type":"Landkreis"},"federalState":{"key":"03","name":"Niedersachsen"}},{"name":"Am Schlehenbusch","postalCode":"31319","locality":"Sehnde","municipality":{"key":"03241016","name":"Sehnde, Stadt","type":"Stadt"},"district":{"key":"03241","name":"Region Hannover","type":"Landkreis"},"federalState":{"key":"03","name":"Niedersachsen"}},{"name":"Am Schulhof","postalCode":"31319","locality":"Sehnde","municipality":{"key":"03241016","name":"Sehnde, Stadt","type":"Stadt"},"district":{"key":"03241","name":"Region Hannover","type":"Landkreis"},"federalState":{"key":"03","name":"Niedersachsen"}},{"name":"Amselweg","postalCode":"31319","locality":"Sehnde","municipality":{"key":"03241016","name":"Sehnde, Stadt","type":"Stadt"},"district":{"key":"03241","name":"Region Hannover","type":"Landkreis"},"federalState":{"key":"03","name":"Niedersachsen"}},{"name":"Am Sportplatz","postalCode":"31319","locality":"Sehnde","municipality":{"key":"03241016","name":"Sehnde, Stadt","type":"Stadt"},"district":{"key":"03241","name":"Region Hannover","type":"Landkreis"},"federalState":{"key":"03","name":"Niedersachsen"}},{"name":"Am Stadion","postalCode":"31319","locality":"Sehnde","municipality":{"key":"03241016","name":"Sehnde, Stadt","type":"Stadt"},"district":{"key":"03241","name":"Region Hannover","type":"Landkreis"},"federalState":{"key":"03","name":"Niedersachsen"}},{"name":"Am Steinwedeler Wald","postalCode":"31319","locality":"Sehnde","municipality":{"key":"03241016","name":"Sehnde, Stadt","type":"Stadt"},"district":{"key":"03241","name":"Region Hannover","type":"Landkreis"},"federalState":{"key":"03","name":"Niedersachsen"}},{"name":"Am Str.nbahnmuseum","postalCode":"31319","locality":"Sehnde","municipality":{"key":"03241016","name":"Sehnde, Stadt","type":"Stadt"},"district":{"key":"03241","name":"Region Hannover","type":"Landkreis"},"federalState":{"key":"03","name":"Niedersachsen"}},{"name":"Am Trendelkamp","postalCode":"31319","locality":"Sehnde","municipality":{"key":"03241016","name":"Sehnde, Stadt","type":"Stadt"},"district":{"key":"03241","name":"Region Hannover","type":"Landkreis"},"federalState":{"key":"03","name":"Niedersachsen"}},{"name":"Am Wallgraben","postalCode":"31319","locality":"Sehnde","municipality":{"key":"03241016","name":"Sehnde, Stadt","type":"Stadt"},"district":{"key":"03241","name":"Region Hannover","type":"Landkreis"},"federalState":{"key":"03","name":"Niedersachsen"}},{"name":"Am Wasserwerk","postalCode":"31319","locality":"Sehnde","municipality":{"key":"03241016","name":"Sehnde, Stadt","type":"Stadt"},"district":{"key":"03241","name":"Region Hannover","type":"Landkreis"},"federalState":{"key":"03","name":"Niedersachsen"}},{"name":"Am Weißdornbusch","postalCode":"31319","locality":"Sehnde","municipality":{"key":"03241016","name":"Sehnde, Stadt","type":"Stadt"},"district":{"key":"03241","name":"Region Hannover","type":"Landkreis"},"federalState":{"key":"03","name":"Niedersachsen"}},{"name":"Am Wischhof","postalCode":"31319","locality":"Sehnde","municipality":{"key":"03241016","name":"Sehnde, Stadt","type":"Stadt"},"district":{"key":"03241","name":"Region Hannover","type":"Landkreis"},"federalState":{"key":"03","name":"Niedersachsen"}},{"name":"Am Zimmerplatz","postalCode":"31319","locality":"Sehnde","municipality":{"key":"03241016","name":"Sehnde, Stadt","type":"Stadt"},"district":{"key":"03241","name":"Region Hannover","type":"Landkreis"},"federalState":{"key":"03","name":"Niedersachsen"}},{"name":"An der Beeke","postalCode":"31319","locality":"Sehnde","municipality":{"key":"03241016","name":"Sehnde, Stadt","type":"Stadt"},"district":{"key":"03241","name":"Region Hannover","type":"Landkreis"},"federalState":{"key":"03","name":"Niedersachsen"}},{"name":"An der Kapelle","postalCode":"31319","locality":"Sehnde","municipality":{"key":"03241016","name":"Sehnde, Stadt","type":"Stadt"},"district":{"key":"03241","name":"Region Hannover","type":"Landkreis"},"federalState":{"key":"03","name":"Niedersachsen"}},{"name":"An der Kirche","postalCode":"31319","locality":"Sehnde","municipality":{"key":"03241016","name":"Sehnde, Stadt","type":"Stadt"},"district":{"key":"03241","name":"Region Hannover","type":"Landkreis"},"federalState":{"key":"03","name":"Niedersachsen"}},{"name":"An der Kleewiese","postalCode":"31319","locality":"Sehnde","municipality":{"key":"03241016","name":"Sehnde, Stadt","type":"Stadt"},"district":{"key":"03241","name":"Region Hannover","type":"Landkreis"},"federalState":{"key":"03","name":"Niedersachsen"}},{"name":"Bachstr.","postalCode":"31319","locality":"Sehnde","municipality":{"key":"03241016","name":"Sehnde, Stadt","type":"Stadt"},"district":{"key":"03241","name":"Region Hannover","type":"Landkreis"},"federalState":{"key":"03","name":"Niedersachsen"}},{"name":"Backhausfeld","postalCode":"31319","locality":"Sehnde","municipality":{"key":"03241016","name":"Sehnde, Stadt","type":"Stadt"},"district":{"key":"03241","name":"Region Hannover","type":"Landkreis"},"federalState":{"key":"03","name":"Niedersachsen"}},{"name":"Backhausplatz","postalCode":"31319","locality":"Sehnde","municipality":{"key":"03241016","name":"Sehnde, Stadt","type":"Stadt"},"district":{"key":"03241","name":"Region Hannover","type":"Landkreis"},"federalState":{"key":"03","name":"Niedersachsen"}},{"name":"Bahnhofstr.","postalCode":"31319","locality":"Sehnde","municipality":{"key":"03241016","name":"Sehnde, Stadt","type":"Stadt"},"district":{"key":"03241","name":"Region Hannover","type":"Landkreis"},"federalState":{"key":"03","name":"Niedersachsen"}},{"name":"Bärenkamp","postalCode":"31319","locality":"Sehnde","municipality":{"key":"03241016","name":"Sehnde, Stadt","type":"Stadt"},"district":{"key":"03241","name":"Region Hannover","type":"Landkreis"},"federalState":{"key":"03","name":"Niedersachsen"}},{"name":"Beekstr.","postalCode":"31319","locality":"Sehnde","municipality":{"key":"03241016","name":"Sehnde, Stadt","type":"Stadt"},"district":{"key":"03241","name":"Region Hannover","type":"Landkreis"},"federalState":{"key":"03","name":"Niedersachsen"}},{"name":"Beekwiesen","postalCode":"31319","locality":"Sehnde","municipality":{"key":"03241016","name":"Sehnde, Stadt","type":"Stadt"},"district":{"key":"03241","name":"Region Hannover","type":"Landkreis"},"federalState":{"key":"03","name":"Niedersachsen"}},{"name":"Beethovenstr.","postalCode":"31319","locality":"Sehnde","municipality":{"key":"03241016","name":"Sehnde, Stadt","type":"Stadt"},"district":{"key":"03241","name":"Region Hannover","type":"Landkreis"},"federalState":{"key":"03","name":"Niedersachsen"}},{"name":"Behmerothsfeld","postalCode":"31319","locality":"Sehnde","municipality":{"key":"03241016","name":"Sehnde, Stadt","type":"Stadt"},"district":{"key":"03241","name":"Region Hannover","type":"Landkreis"},"federalState":{"key":"03","name":"Niedersachsen"}},{"name":"Behrbohmskamp","postalCode":"31319","locality":"Sehnde","municipality":{"key":"03241016","name":"Sehnde, Stadt","type":"Stadt"},"district":{"key":"03241","name":"Region Hannover","type":"Landkreis"},"federalState":{"key":"03","name":"Niedersachsen"}},{"name":"Benzweg","postalCode":"31319","locality":"Sehnde","municipality":{"key":"03241016","name":"Sehnde, Stadt","type":"Stadt"},"district":{"key":"03241","name":"Region Hannover","type":"Landkreis"},"federalState":{"key":"03","name":"Niedersachsen"}},{"name":"Bergfeld Nord","postalCode":"31319","locality":"Sehnde","municipality":{"key":"03241016","name":"Sehnde, Stadt","type":"Stadt"},"district":{"key":"03241","name":"Region Hannover","type":"Landkreis"},"federalState":{"key":"03","name":"Niedersachsen"}},{"name":"Bergfeld Süd","postalCode":"31319","locality":"Sehnde","municipality":{"key":"03241016","name":"Sehnde, Stadt","type":"Stadt"},"district":{"key":"03241","name":"Region Hannover","type":"Landkreis"},"federalState":{"key":"03","name":"Niedersachsen"}},{"name":"Berggasse","postalCode":"31319","locality":"Sehnde","municipality":{"key":"03241016","name":"Sehnde, Stadt","type":"Stadt"},"district":{"key":"03241","name":"Region Hannover","type":"Landkreis"},"federalState":{"key":"03","name":"Niedersachsen"}},{"name":"Bergstr.","postalCode":"31319","locality":"Sehnde","municipality":{"key":"03241016","name":"Sehnde, Stadt","type":"Stadt"},"district":{"key":"03241","name":"Region Hannover","type":"Landkreis"},"federalState":{"key":"03","name":"Niedersachsen"}},{"name":"Berliner Str.","postalCode":"31319","locality":"Sehnde","municipality":{"key":"03241016","name":"Sehnde, Stadt","type":"Stadt"},"district":{"key":"03241","name":"Region Hannover","type":"Landkreis"},"federalState":{"key":"03","name":"Niedersachsen"}},{"name":"Bernhard-Lohmüller-Str.","postalCode":"31319","locality":"Sehnde","municipality":{"key":"03241016","name":"Sehnde, Stadt","type":"Stadt"},"district":{"key":"03241","name":"Region Hannover","type":"Landkreis"},"federalState":{"key":"03","name":"Niedersachsen"}},{"name":"Bernhard-von-Wassel-Str.","postalCode":"31319","locality":"Sehnde","municipality":{"key":"03241016","name":"Sehnde, Stadt","type":"Stadt"},"district":{"key":"03241","name":"Region Hannover","type":"Landkreis"},"federalState":{"key":"03","name":"Niedersachsen"}},{"name":"Bertha-von-Suttner-Str.","postalCode":"31319","locality":"Sehnde","municipality":{"key":"03241016","name":"Sehnde, Stadt","type":"Stadt"},"district":{"key":"03241","name":"Region Hannover","type":"Landkreis"},"federalState":{"key":"03","name":"Niedersachsen"}},{"name":"Billerbachstr.","postalCode":"31319","locality":"Sehnde","municipality":{"key":"03241016","name":"Sehnde, Stadt","type":"Stadt"},"district":{"key":"03241","name":"Region Hannover","type":"Landkreis"},"federalState":{"key":"03","name":"Niedersachsen"}},{"name":"Bilmer Str.","postalCode":"31319","locality":"Sehnde","municipality":{"key":"03241016","name":"Sehnde, Stadt","type":"Stadt"},"district":{"key":"03241","name":"Region Hannover","type":"Landkreis"},"federalState":{"key":"03","name":"Niedersachsen"}},{"name":"Bim Hille","postalCode":"31319","locality":"Sehnde","municipality":{"key":"03241016","name":"Sehnde, Stadt","type":"Stadt"},"district":{"key":"03241","name":"Region Hannover","type":"Landkreis"},"federalState":{"key":"03","name":"Niedersachsen"}},{"name":"Birkenring","postalCode":"31319","locality":"Sehnde","municipality":{"key":"03241016","name":"Sehnde, Stadt","type":"Stadt"},"district":{"key":"03241","name":"Region Hannover","type":"Landkreis"},"federalState":{"key":"03","name":"Niedersachsen"}},{"name":"Birkenweg","postalCode":"31319","locality":"Sehnde","municipality":{"key":"03241016","name":"Sehnde, Stadt","type":"Stadt"},"district":{"key":"03241","name":"Region Hannover","type":"Landkreis"},"federalState":{"key":"03","name":"Niedersachsen"}},{"name":"Bismarckstr.","postalCode":"31319","locality":"Sehnde","municipality":{"key":"03241016","name":"Sehnde, Stadt","type":"Stadt"},"district":{"key":"03241","name":"Region Hannover","type":"Landkreis"},"federalState":{"key":"03","name":"Niedersachsen"}},{"name":"Blanckeweg","postalCode":"31319","locality":"Sehnde","municipality":{"key":"03241016","name":"Sehnde, Stadt","type":"Stadt"},"district":{"key":"03241","name":"Region Hannover","type":"Landkreis"},"federalState":{"key":"03","name":"Niedersachsen"}},{"name":"Blumenweg","postalCode":"31319","locality":"Sehnde","municipality":{"key":"03241016","name":"Sehnde, Stadt","type":"Stadt"},"district":{"key":"03241","name":"Region Hannover","type":"Landkreis"},"federalState":{"key":"03","name":"Niedersachsen"}},{"name":"Bode-Ring","postalCode":"31319","locality":"Sehnde","municipality":{"key":"03241016","name":"Sehnde, Stadt","type":"Stadt"},"district":{"key":"03241","name":"Region Hannover","type":"Landkreis"},"federalState":{"key":"03","name":"Niedersachsen"}},{"name":"Bokumer Str.","postalCode":"31319","locality":"Sehnde","municipality":{"key":"03241016","name":"Sehnde, Stadt","type":"Stadt"},"district":{"key":"03241","name":"Region Hannover","type":"Landkreis"},"federalState":{"key":"03","name":"Niedersachsen"}},{"name":"Boltessemstr.","postalCode":"31319","locality":"Sehnde","municipality":{"key":"03241016","name":"Sehnde, Stadt","type":"Stadt"},"district":{"key":"03241","name":"Region Hannover","type":"Landkreis"},"federalState":{"key":"03","name":"Niedersachsen"}},{"name":"Bolzumer Str.","postalCode":"31319","locality":"Sehnde","municipality":{"key":"03241016","name":"Sehnde, Stadt","type":"Stadt"},"district":{"key":"03241","name":"Region Hannover","type":"Landkreis"},"federalState":{"key":"03","name":"Niedersachsen"}},{"name":"Borsigring","postalCode":"31319","locality":"Sehnde","municipality":{"key":"03241016","name":"Sehnde, Stadt","type":"Stadt"},"district":{"key":"03241","name":"Region Hannover","type":"Landkreis"},"federalState":{"key":"03","name":"Niedersachsen"}},{"name":"Brahmsweg","postalCode":"31319","locality":"Sehnde","municipality":{"key":"03241016","name":"Sehnde, Stadt","type":"Stadt"},"district":{"key":"03241","name":"Region Hannover","type":"Landkreis"},"federalState":{"key":"03","name":"Niedersachsen"}},{"name":"Breite Str.","postalCode":"31319","locality":"Sehnde","municipality":{"key":"03241016","name":"Sehnde, Stadt","type":"Stadt"},"district":{"key":"03241","name":"Region Hannover","type":"Landkreis"},"federalState":{"key":"03","name":"Niedersachsen"}},{"name":"Breslauer Str.","postalCode":"31319","locality":"Sehnde","municipality":{"key":"03241016","name":"Sehnde, Stadt","type":"Stadt"},"district":{"key":"03241","name":"Region Hannover","type":"Landkreis"},"federalState":{"key":"03","name":"Niedersachsen"}},{"name":"Bruchstr.","postalCode":"31319","locality":"Sehnde","municipality":{"key":"03241016","name":"Sehnde, Stadt","type":"Stadt"},"district":{"key":"03241","name":"Region Hannover","type":"Landkreis"},"federalState":{"key":"03","name":"Niedersachsen"}},{"name":"Brunnenstr.","postalCode":"31319","locality":"Sehnde","municipality":{"key":"03241016","name":"Sehnde, Stadt","type":"Stadt"},"district":{"key":"03241","name":"Region Hannover","type":"Landkreis"},"federalState":{"key":"03","name":"Niedersachsen"}},{"name":"Bürgermeister-Köhler-Str.","postalCode":"31319","locality":"Sehnde","municipality":{"key":"03241016","name":"Sehnde, Stadt","type":"Stadt"},"district":{"key":"03241","name":"Region Hannover","type":"Landkreis"},"federalState":{"key":"03","name":"Niedersachsen"}},{"name":"Bürgermeister-Schaper-Str.","postalCode":"31319","locality":"Sehnde","municipality":{"key":"03241016","name":"Sehnde, Stadt","type":"Stadt"},"district":{"key":"03241","name":"Region Hannover","type":"Landkreis"},"federalState":{"key":"03","name":"Niedersachsen"}},{"name":"Burgstr.","postalCode":"31319","locality":"Sehnde","municipality":{"key":"03241016","name":"Sehnde, Stadt","type":"Stadt"},"district":{"key":"03241","name":"Region Hannover","type":"Landkreis"},"federalState":{"key":"03","name":"Niedersachsen"}},{"name":"Buschen Berg","postalCode":"31319","locality":"Sehnde","municipality":{"key":"03241016","name":"Sehnde, Stadt","type":"Stadt"},"district":{"key":"03241","name":"Region Hannover","type":"Landkreis"},"federalState":{"key":"03","name":"Niedersachsen"}},{"name":"Carl-Zeiss-Weg","postalCode":"31319","locality":"Sehnde","municipality":{"key":"03241016","name":"Sehnde, Stadt","type":"Stadt"},"district":{"key":"03241","name":"Region Hannover","type":"Landkreis"},"federalState":{"key":"03","name":"Niedersachsen"}},{"name":"Chausseestr.","postalCode":"31319","locality":"Sehnde","municipality":{"key":"03241016","name":"Sehnde, Stadt","type":"Stadt"},"district":{"key":"03241","name":"Region Hannover","type":"Landkreis"},"federalState":{"key":"03","name":"Niedersachsen"}},{"name":"Dammstr.","postalCode":"31319","locality":"Sehnde","municipality":{"key":"03241016","name":"Sehnde, Stadt","type":"Stadt"},"district":{"key":"03241","name":"Region Hannover","type":"Landkreis"},"federalState":{"key":"03","name":"Niedersachsen"}},{"name":"Danziger Str.","postalCode":"31319","locality":"Sehnde","municipality":{"key":"03241016","name":"Sehnde, Stadt","type":"Stadt"},"district":{"key":"03241","name":"Region Hannover","type":"Landkreis"},"federalState":{"key":"03","name":"Niedersachsen"}},{"name":"Dehnenweg","postalCode":"31319","locality":"Sehnde","municipality":{"key":"03241016","name":"Sehnde, Stadt","type":"Stadt"},"district":{"key":"03241","name":"Region Hannover","type":"Landkreis"},"federalState":{"key":"03","name":"Niedersachsen"}},{"name":"Die Gasse","postalCode":"31319","locality":"Sehnde","municipality":{"key":"03241016","name":"Sehnde, Stadt","type":"Stadt"},"district":{"key":"03241","name":"Region Hannover","type":"Landkreis"},"federalState":{"key":"03","name":"Niedersachsen"}},{"name":"Dieselstr.","postalCode":"31319","locality":"Sehnde","municipality":{"key":"03241016","name":"Sehnde, Stadt","type":"Stadt"},"district":{"key":"03241","name":"Region Hannover","type":"Landkreis"},"federalState":{"key":"03","name":"Niedersachsen"}},{"name":"Dolgener Str.","postalCode":"31319","locality":"Sehnde","municipality":{"key":"03241016","name":"Sehnde, Stadt","type":"Stadt"},"district":{"key":"03241","name":"Region Hannover","type":"Landkreis"},"federalState":{"key":"03","name":"Niedersachsen"}},{"name":"Dorfstr.","postalCode":"31319","locality":"Sehnde","municipality":{"key":"03241016","name":"Sehnde, Stadt","type":"Stadt"},"district":{"key":"03241","name":"Region Hannover","type":"Landkreis"},"federalState":{"key":"03","name":"Niedersachsen"}},{"name":"Drösewiese","postalCode":"31319","locality":"Sehnde","municipality":{"key":"03241016","name":"Sehnde, Stadt","type":"Stadt"},"district":{"key":"03241","name":"Region Hannover","type":"Landkreis"},"federalState":{"key":"03","name":"Niedersachsen"}},{"name":"Drosselweg","postalCode":"31319","locality":"Sehnde","municipality":{"key":"03241016","name":"Sehnde, Stadt","type":"Stadt"},"district":{"key":"03241","name":"Region Hannover","type":"Landkreis"},"federalState":{"key":"03","name":"Niedersachsen"}},{"name":"Dr.-Sauer-Str.","postalCode":"31319","locality":"Sehnde","municipality":{"key":"03241016","name":"Sehnde, Stadt","type":"Stadt"},"district":{"key":"03241","name":"Region Hannover","type":"Landkreis"},"federalState":{"key":"03","name":"Niedersachsen"}},{"name":"Dungelfeld","postalCode":"31319","locality":"Sehnde","municipality":{"key":"03241016","name":"Sehnde, Stadt","type":"Stadt"},"district":{"key":"03241","name":"Region Hannover","type":"Landkreis"},"federalState":{"key":"03","name":"Niedersachsen"}},{"name":"Eddenwiese","postalCode":"31319","locality":"Sehnde","municipality":{"key":"03241016","name":"Sehnde, Stadt","type":"Stadt"},"district":{"key":"03241","name":"Region Hannover","type":"Landkreis"},"federalState":{"key":"03","name":"Niedersachsen"}},{"name":"Egestorffstr.","postalCode":"31319","locality":"Sehnde","municipality":{"key":"03241016","name":"Sehnde, Stadt","type":"Stadt"},"district":{"key":"03241","name":"Region Hannover","type":"Landkreis"},"federalState":{"key":"03","name":"Niedersachsen"}},{"name":"Eichenkamp","postalCode":"31319","locality":"Sehnde","municipality":{"key":"03241016","name":"Sehnde, Stadt","type":"Stadt"},"district":{"key":"03241","name":"Region Hannover","type":"Landkreis"},"federalState":{"key":"03","name":"Niedersachsen"}},{"name":"Eichenweg","postalCode":"31319","locality":"Sehnde","municipality":{"key":"03241016","name":"Sehnde, Stadt","type":"Stadt"},"district":{"key":"03241","name":"Region Hannover","type":"Landkreis"},"federalState":{"key":"03","name":"Niedersachsen"}},{"name":"Eichstr.","postalCode":"31319","locality":"Sehnde","municipality":{"key":"03241016","name":"Sehnde, Stadt","type":"Stadt"},"district":{"key":"03241","name":"Region Hannover","type":"Landkreis"},"federalState":{"key":"03","name":"Niedersachsen"}},{"name":"Elbinger Str.","postalCode":"31319","locality":"Sehnde","municipality":{"key":"03241016","name":"Sehnde, Stadt","type":"Stadt"},"district":{"key":"03241","name":"Region Hannover","type":"Landkreis"},"federalState":{"key":"03","name":"Niedersachsen"}},{"name":"Elisabet-Boehm-Str.","postalCode":"31319","locality":"Sehnde","municipality":{"key":"03241016","name":"Sehnde, Stadt","type":"Stadt"},"district":{"key":"03241","name":"Region Hannover","type":"Landkreis"},"federalState":{"key":"03","name":"Niedersachsen"}},{"name":"Elise-Borsum-Str.","postalCode":"31319","locality":"Sehnde","municipality":{"key":"03241016","name":"Sehnde, Stadt","type":"Stadt"},"district":{"key":"03241","name":"Region Hannover","type":"Landkreis"},"federalState":{"key":"03","name":"Niedersachsen"}},{"name":"Eltz-Weg","postalCode":"31319","locality":"Sehnde","municipality":{"key":"03241016","name":"Sehnde, Stadt","type":"Stadt"},"district":{"key":"03241","name":"Region Hannover","type":"Landkreis"},"federalState":{"key":"03","name":"Niedersachsen"}},{"name":"Emil-Schwabe-Weg","postalCode":"31319","locality":"Sehnde","municipality":{"key":"03241016","name":"Sehnde, Stadt","type":"Stadt"},"district":{"key":"03241","name":"Region Hannover","type":"Landkreis"},"federalState":{"key":"03","name":"Niedersachsen"}},{"name":"Erbenholzweg","postalCode":"31319","locality":"Sehnde","municipality":{"key":"03241016","name":"Sehnde, Stadt","type":"Stadt"},"district":{"key":"03241","name":"Region Hannover","type":"Landkreis"},"federalState":{"key":"03","name":"Niedersachsen"}},{"name":"Erlengrund","postalCode":"31319","locality":"Sehnde","municipality":{"key":"03241016","name":"Sehnde, Stadt","type":"Stadt"},"district":{"key":"03241","name":"Region Hannover","type":"Landkreis"},"federalState":{"key":"03","name":"Niedersachsen"}},{"name":"Ernst-Abbe-Weg","postalCode":"31319","locality":"Sehnde","municipality":{"key":"03241016","name":"Sehnde, Stadt","type":"Stadt"},"district":{"key":"03241","name":"Region Hannover","type":"Landkreis"},"federalState":{"key":"03","name":"Niedersachsen"}},{"name":"Ernst-Reuter-Str.","postalCode":"31319","locality":"Sehnde","municipality":{"key":"03241016","name":"Sehnde, Stadt","type":"Stadt"},"district":{"key":"03241","name":"Region Hannover","type":"Landkreis"},"federalState":{"key":"03","name":"Niedersachsen"}},{"name":"Eschenhof","postalCode":"31319","locality":"Sehnde","municipality":{"key":"03241016","name":"Sehnde, Stadt","type":"Stadt"},"district":{"key":"03241","name":"Region Hannover","type":"Landkreis"},"federalState":{"key":"03","name":"Niedersachsen"}},{"name":"Eschenweg","postalCode":"31319","locality":"Sehnde","municipality":{"key":"03241016","name":"Sehnde, Stadt","type":"Stadt"},"district":{"key":"03241","name":"Region Hannover","type":"Landkreis"},"federalState":{"key":"03","name":"Niedersachsen"}},{"name":"Eversche Str.","postalCode":"31319","locality":"Sehnde","municipality":{"key":"03241016","name":"Sehnde, Stadt","type":"Stadt"},"district":{"key":"03241","name":"Region Hannover","type":"Landkreis"},"federalState":{"key":"03","name":"Niedersachsen"}},{"name":"Farmsches Feld","postalCode":"31319","locality":"Sehnde","municipality":{"key":"03241016","name":"Sehnde, Stadt","type":"Stadt"},"district":{"key":"03241","name":"Region Hannover","type":"Landkreis"},"federalState":{"key":"03","name":"Niedersachsen"}},{"name":"Fasanengarten","postalCode":"31319","locality":"Sehnde","municipality":{"key":"03241016","name":"Sehnde, Stadt","type":"Stadt"},"district":{"key":"03241","name":"Region Hannover","type":"Landkreis"},"federalState":{"key":"03","name":"Niedersachsen"}},{"name":"Feldstr.","postalCode":"31319","locality":"Sehnde","municipality":{"key":"03241016","name":"Sehnde, Stadt","type":"Stadt"},"district":{"key":"03241","name":"Region Hannover","type":"Landkreis"},"federalState":{"key":"03","name":"Niedersachsen"}},{"name":"Ferdinand-Wahrendorff-Str.","postalCode":"31319","locality":"Sehnde","municipality":{"key":"03241016","name":"Sehnde, Stadt","type":"Stadt"},"district":{"key":"03241","name":"Region Hannover","type":"Landkreis"},"federalState":{"key":"03","name":"Niedersachsen"}},{"name":"Fimbergstr.","postalCode":"31319","locality":"Sehnde","municipality":{"key":"03241016","name":"Sehnde, Stadt","type":"Stadt"},"district":{"key":"03241","name":"Region Hannover","type":"Landkreis"},"federalState":{"key":"03","name":"Niedersachsen"}},{"name":"Finkenschlag","postalCode":"31319","locality":"Sehnde","municipality":{"key":"03241016","name":"Sehnde, Stadt","type":"Stadt"},"district":{"key":"03241","name":"Region Hannover","type":"Landkreis"},"federalState":{"key":"03","name":"Niedersachsen"}},{"name":"Fliederstr.","postalCode":"31319","locality":"Sehnde","municipality":{"key":"03241016","name":"Sehnde, Stadt","type":"Stadt"},"district":{"key":"03241","name":"Region Hannover","type":"Landkreis"},"federalState":{"key":"03","name":"Niedersachsen"}},{"name":"Frankensteiner Weg","postalCode":"31319","locality":"Sehnde","municipality":{"key":"03241016","name":"Sehnde, Stadt","type":"Stadt"},"district":{"key":"03241","name":"Region Hannover","type":"Landkreis"},"federalState":{"key":"03","name":"Niedersachsen"}},{"name":"Freidrich-Schlegel-Weg","postalCode":"31319","locality":"Sehnde","municipality":{"key":"03241016","name":"Sehnde, Stadt","type":"Stadt"},"district":{"key":"03241","name":"Region Hannover","type":"Landkreis"},"federalState":{"key":"03","name":"Niedersachsen"}},{"name":"Freienstr.","postalCode":"31319","locality":"Sehnde","municipality":{"key":"03241016","name":"Sehnde, Stadt","type":"Stadt"},"district":{"key":"03241","name":"Region Hannover","type":"Landkreis"},"federalState":{"key":"03","name":"Niedersachsen"}},{"name":"Friedenstr.","postalCode":"31319","locality":"Sehnde","municipality":{"key":"03241016","name":"Sehnde, Stadt","type":"Stadt"},"district":{"key":"03241","name":"Region Hannover","type":"Landkreis"},"federalState":{"key":"03","name":"Niedersachsen"}},{"name":"Friedhofstr.","postalCode":"31319","locality":"Sehnde","municipality":{"key":"03241016","name":"Sehnde, Stadt","type":"Stadt"},"district":{"key":"03241","name":"Region Hannover","type":"Landkreis"},"federalState":{"key":"03","name":"Niedersachsen"}},{"name":"Friedhofsweg","postalCode":"31319","locality":"Sehnde","municipality":{"key":"03241016","name":"Sehnde, Stadt","type":"Stadt"},"district":{"key":"03241","name":"Region Hannover","type":"Landkreis"},"federalState":{"key":"03","name":"Niedersachsen"}},{"name":"Friedrich-Ebert-Str.","postalCode":"31319","locality":"Sehnde","municipality":{"key":"03241016","name":"Sehnde, Stadt","type":"Stadt"},"district":{"key":"03241","name":"Region Hannover","type":"Landkreis"},"federalState":{"key":"03","name":"Niedersachsen"}},{"name":"Friedrich-Otto-Schott-Weg","postalCode":"31319","locality":"Sehnde","municipality":{"key":"03241016","name":"Sehnde, Stadt","type":"Stadt"},"district":{"key":"03241","name":"Region Hannover","type":"Landkreis"},"federalState":{"key":"03","name":"Niedersachsen"}},{"name":"Friedrich-von-Bodelschwingh-Str.","postalCode":"31319","locality":"Sehnde","municipality":{"key":"03241016","name":"Sehnde, Stadt","type":"Stadt"},"district":{"key":"03241","name":"Region Hannover","type":"Landkreis"},"federalState":{"key":"03","name":"Niedersachsen"}},{"name":"Fritz-Reuter-Str.","postalCode":"31319","locality":"Sehnde","municipality":{"key":"03241016","name":"Sehnde, Stadt","type":"Stadt"},"district":{"key":"03241","name":"Region Hannover","type":"Landkreis"},"federalState":{"key":"03","name":"Niedersachsen"}},{"name":"Gänsekamp","postalCode":"31319","locality":"Sehnde","municipality":{"key":"03241016","name":"Sehnde, Stadt","type":"Stadt"},"district":{"key":"03241","name":"Region Hannover","type":"Landkreis"},"federalState":{"key":"03","name":"Niedersachsen"}},{"name":"Gartenstr.","postalCode":"31319","locality":"Sehnde","municipality":{"key":"03241016","name":"Sehnde, Stadt","type":"Stadt"},"district":{"key":"03241","name":"Region Hannover","type":"Landkreis"},"federalState":{"key":"03","name":"Niedersachsen"}},{"name":"Gartenweg","postalCode":"31319","locality":"Sehnde","municipality":{"key":"03241016","name":"Sehnde, Stadt","type":"Stadt"},"district":{"key":"03241","name":"Region Hannover","type":"Landkreis"},"federalState":{"key":"03","name":"Niedersachsen"}},{"name":"Gartenwinkel","postalCode":"31319","locality":"Sehnde","municipality":{"key":"03241016","name":"Sehnde, Stadt","type":"Stadt"},"district":{"key":"03241","name":"Region Hannover","type":"Landkreis"},"federalState":{"key":"03","name":"Niedersachsen"}},{"name":"Gärtnerweg","postalCode":"31319","locality":"Sehnde","municipality":{"key":"03241016","name":"Sehnde, Stadt","type":"Stadt"},"district":{"key":"03241","name":"Region Hannover","type":"Landkreis"},"federalState":{"key":"03","name":"Niedersachsen"}},{"name":"Georg-Weber-Str.","postalCode":"31319","locality":"Sehnde","municipality":{"key":"03241016","name":"Sehnde, Stadt","type":"Stadt"},"district":{"key":"03241","name":"Region Hannover","type":"Landkreis"},"federalState":{"key":"03","name":"Niedersachsen"}},{"name":"Gerhart-Hauptmann-Platz","postalCode":"31319","locality":"Sehnde","municipality":{"key":"03241016","name":"Sehnde, Stadt","type":"Stadt"},"district":{"key":"03241","name":"Region Hannover","type":"Landkreis"},"federalState":{"key":"03","name":"Niedersachsen"}},{"name":"Gerhart-Hauptmann-Str.","postalCode":"31319","locality":"Sehnde","municipality":{"key":"03241016","name":"Sehnde, Stadt","type":"Stadt"},"district":{"key":"03241","name":"Region Hannover","type":"Landkreis"},"federalState":{"key":"03","name":"Niedersachsen"}},{"name":"Gilgener Str.","postalCode":"31319","locality":"Sehnde","municipality":{"key":"03241016","name":"Sehnde, Stadt","type":"Stadt"},"district":{"key":"03241","name":"Region Hannover","type":"Landkreis"},"federalState":{"key":"03","name":"Niedersachsen"}},{"name":"Ginsterweg","postalCode":"31319","locality":"Sehnde","municipality":{"key":"03241016","name":"Sehnde, Stadt","type":"Stadt"},"district":{"key":"03241","name":"Region Hannover","type":"Landkreis"},"federalState":{"key":"03","name":"Niedersachsen"}},{"name":"Glenzburg","postalCode":"31319","locality":"Sehnde","municipality":{"key":"03241016","name":"Sehnde, Stadt","type":"Stadt"},"district":{"key":"03241","name":"Region Hannover","type":"Landkreis"},"federalState":{"key":"03","name":"Niedersachsen"}},{"name":"Glückauf-Str.","postalCode":"31319","locality":"Sehnde","municipality":{"key":"03241016","name":"Sehnde, Stadt","type":"Stadt"},"district":{"key":"03241","name":"Region Hannover","type":"Landkreis"},"federalState":{"key":"03","name":"Niedersachsen"}},{"name":"Gluckweg","postalCode":"31319","locality":"Sehnde","municipality":{"key":"03241016","name":"Sehnde, Stadt","type":"Stadt"},"district":{"key":"03241","name":"Region Hannover","type":"Landkreis"},"federalState":{"key":"03","name":"Niedersachsen"}},{"name":"Goldener Winkel","postalCode":"31319","locality":"Sehnde","municipality":{"key":"03241016","name":"Sehnde, Stadt","type":"Stadt"},"district":{"key":"03241","name":"Region Hannover","type":"Landkreis"},"federalState":{"key":"03","name":"Niedersachsen"}},{"name":"Gretenberger Str.","postalCode":"31319","locality":"Sehnde","municipality":{"key":"03241016","name":"Sehnde, Stadt","type":"Stadt"},"district":{"key":"03241","name":"Region Hannover","type":"Landkreis"},"federalState":{"key":"03","name":"Niedersachsen"}},{"name":"Gretlade","postalCode":"31319","locality":"Sehnde","municipality":{"key":"03241016","name":"Sehnde, Stadt","type":"Stadt"},"district":{"key":"03241","name":"Region Hannover","type":"Landkreis"},"federalState":{"key":"03","name":"Niedersachsen"}},{"name":"Große Kampstr.","postalCode":"31319","locality":"Sehnde","municipality":{"key":"03241016","name":"Sehnde, Stadt","type":"Stadt"},"district":{"key":"03241","name":"Region Hannover","type":"Landkreis"},"federalState":{"key":"03","name":"Niedersachsen"}},{"name":"Großer Knickweg","postalCode":"31319","locality":"Sehnde","municipality":{"key":"03241016","name":"Sehnde, Stadt","type":"Stadt"},"district":{"key":"03241","name":"Region Hannover","type":"Landkreis"},"federalState":{"key":"03","name":"Niedersachsen"}},{"name":"Güldenbuschweg","postalCode":"31319","locality":"Sehnde","municipality":{"key":"03241016","name":"Sehnde, Stadt","type":"Stadt"},"district":{"key":"03241","name":"Region Hannover","type":"Landkreis"},"federalState":{"key":"03","name":"Niedersachsen"}},{"name":"Gustav-Dehnhard-Str.","postalCode":"31319","locality":"Sehnde","municipality":{"key":"03241016","name":"Sehnde, Stadt","type":"Stadt"},"district":{"key":"03241","name":"Region Hannover","type":"Landkreis"},"federalState":{"key":"03","name":"Niedersachsen"}},{"name":"Gustav-Hänjes-Str.","postalCode":"31319","locality":"Sehnde","municipality":{"key":"03241016","name":"Sehnde, Stadt","type":"Stadt"},"district":{"key":"03241","name":"Region Hannover","type":"Landkreis"},"federalState":{"key":"03","name":"Niedersachsen"}},{"name":"Gutenbergstr.","postalCode":"31319","locality":"Sehnde","municipality":{"key":"03241016","name":"Sehnde, Stadt","type":"Stadt"},"district":{"key":"03241","name":"Region Hannover","type":"Landkreis"},"federalState":{"key":"03","name":"Niedersachsen"}},{"name":"Gutsstr.","postalCode":"31319","locality":"Sehnde","municipality":{"key":"03241016","name":"Sehnde, Stadt","type":"Stadt"},"district":{"key":"03241","name":"Region Hannover","type":"Landkreis"},"federalState":{"key":"03","name":"Niedersachsen"}},{"name":"Habenharst","postalCode":"31319","locality":"Sehnde","municipality":{"key":"03241016","name":"Sehnde, Stadt","type":"Stadt"},"district":{"key":"03241","name":"Region Hannover","type":"Landkreis"},"federalState":{"key":"03","name":"Niedersachsen"}},{"name":"Habichtshorst","postalCode":"31319","locality":"Sehnde","municipality":{"key":"03241016","name":"Sehnde, Stadt","type":"Stadt"},"district":{"key":"03241","name":"Region Hannover","type":"Landkreis"},"federalState":{"key":"03","name":"Niedersachsen"}},{"name":"Hagebuttenweg","postalCode":"31319","locality":"Sehnde","municipality":{"key":"03241016","name":"Sehnde, Stadt","type":"Stadt"},"district":{"key":"03241","name":"Region Hannover","type":"Landkreis"},"federalState":{"key":"03","name":"Niedersachsen"}},{"name":"Hagenburgring","postalCode":"31319","locality":"Sehnde","municipality":{"key":"03241016","name":"Sehnde, Stadt","type":"Stadt"},"district":{"key":"03241","name":"Region Hannover","type":"Landkreis"},"federalState":{"key":"03","name":"Niedersachsen"}},{"name":"Haimarer Str.","postalCode":"31319","locality":"Sehnde","municipality":{"key":"03241016","name":"Sehnde, Stadt","type":"Stadt"},"district":{"key":"03241","name":"Region Hannover","type":"Landkreis"},"federalState":{"key":"03","name":"Niedersachsen"}},{"name":"Händelweg","postalCode":"31319","locality":"Sehnde","municipality":{"key":"03241016","name":"Sehnde, Stadt","type":"Stadt"},"district":{"key":"03241","name":"Region Hannover","type":"Landkreis"},"federalState":{"key":"03","name":"Niedersachsen"}},{"name":"Hannah-Arendt-Str.","postalCode":"31319","locality":"Sehnde","municipality":{"key":"03241016","name":"Sehnde, Stadt","type":"Stadt"},"district":{"key":"03241","name":"Region Hannover","type":"Landkreis"},"federalState":{"key":"03","name":"Niedersachsen"}},{"name":"Hannoversche Str.","postalCode":"31319","locality":"Sehnde","municipality":{"key":"03241016","name":"Sehnde, Stadt","type":"Stadt"},"district":{"key":"03241","name":"Region Hannover","type":"Landkreis"},"federalState":{"key":"03","name":"Niedersachsen"}},{"name":"Harberstr.","postalCode":"31319","locality":"Sehnde","municipality":{"key":"03241016","name":"Sehnde, Stadt","type":"Stadt"},"district":{"key":"03241","name":"Region Hannover","type":"Landkreis"},"federalState":{"key":"03","name":"Niedersachsen"}},{"name":"Hasenkamp","postalCode":"31319","locality":"Sehnde","municipality":{"key":"03241016","name":"Sehnde, Stadt","type":"Stadt"},"district":{"key":"03241","name":"Region Hannover","type":"Landkreis"},"federalState":{"key":"03","name":"Niedersachsen"}},{"name":"Hasselweg","postalCode":"31319","locality":"Sehnde","municipality":{"key":"03241016","name":"Sehnde, Stadt","type":"Stadt"},"district":{"key":"03241","name":"Region Hannover","type":"Landkreis"},"federalState":{"key":"03","name":"Niedersachsen"}},{"name":"Hauptstr.","postalCode":"31319","locality":"Sehnde","municipality":{"key":"03241016","name":"Sehnde, Stadt","type":"Stadt"},"district":{"key":"03241","name":"Region Hannover","type":"Landkreis"},"federalState":{"key":"03","name":"Niedersachsen"}},{"name":"Haydnstr.","postalCode":"31319","locality":"Sehnde","municipality":{"key":"03241016","name":"Sehnde, Stadt","type":"Stadt"},"district":{"key":"03241","name":"Region Hannover","type":"Landkreis"},"federalState":{"key":"03","name":"Niedersachsen"}},{"name":"Heckenweg","postalCode":"31319","locality":"Sehnde","municipality":{"key":"03241016","name":"Sehnde, Stadt","type":"Stadt"},"district":{"key":"03241","name":"Region Hannover","type":"Landkreis"},"federalState":{"key":"03","name":"Niedersachsen"}},{"name":"Hedwig-Kettler-Weg","postalCode":"31319","locality":"Sehnde","municipality":{"key":"03241016","name":"Sehnde, Stadt","type":"Stadt"},"district":{"key":"03241","name":"Region Hannover","type":"Landkreis"},"federalState":{"key":"03","name":"Niedersachsen"}},{"name":"Hegelstr.","postalCode":"31319","locality":"Sehnde","municipality":{"key":"03241016","name":"Sehnde, Stadt","type":"Stadt"},"district":{"key":"03241","name":"Region Hannover","type":"Landkreis"},"federalState":{"key":"03","name":"Niedersachsen"}},{"name":"Heidering","postalCode":"31319","locality":"Sehnde","municipality":{"key":"03241016","name":"Sehnde, Stadt","type":"Stadt"},"district":{"key":"03241","name":"Region Hannover","type":"Landkreis"},"federalState":{"key":"03","name":"Niedersachsen"}},{"name":"Heinrichstr.","postalCode":"31319","locality":"Sehnde","municipality":{"key":"03241016","name":"Sehnde, Stadt","type":"Stadt"},"district":{"key":"03241","name":"Region Hannover","type":"Landkreis"},"federalState":{"key":"03","name":"Niedersachsen"}},{"name":"Helene-Stöcker-Str.","postalCode":"31319","locality":"Sehnde","municipality":{"key":"03241016","name":"Sehnde, Stadt","type":"Stadt"},"district":{"key":"03241","name":"Region Hannover","type":"Landkreis"},"federalState":{"key":"03","name":"Niedersachsen"}},{"name":"Hermann-Löns-Weg","postalCode":"31319","locality":"Sehnde","municipality":{"key":"03241016","name":"Sehnde, Stadt","type":"Stadt"},"district":{"key":"03241","name":"Region Hannover","type":"Landkreis"},"federalState":{"key":"03","name":"Niedersachsen"}},{"name":"Hilda-Rempel-Str.","postalCode":"31319","locality":"Sehnde","municipality":{"key":"03241016","name":"Sehnde, Stadt","type":"Stadt"},"district":{"key":"03241","name":"Region Hannover","type":"Landkreis"},"federalState":{"key":"03","name":"Niedersachsen"}},{"name":"Hildesheimer Weg","postalCode":"31319","locality":"Sehnde","municipality":{"key":"03241016","name":"Sehnde, Stadt","type":"Stadt"},"district":{"key":"03241","name":"Region Hannover","type":"Landkreis"},"federalState":{"key":"03","name":"Niedersachsen"}},{"name":"Hindenburgstr.","postalCode":"31319","locality":"Sehnde","municipality":{"key":"03241016","name":"Sehnde, Stadt","type":"Stadt"},"district":{"key":"03241","name":"Region Hannover","type":"Landkreis"},"federalState":{"key":"03","name":"Niedersachsen"}},{"name":"Hinter den Gärten","postalCode":"31319","locality":"Sehnde","municipality":{"key":"03241016","name":"Sehnde, Stadt","type":"Stadt"},"district":{"key":"03241","name":"Region Hannover","type":"Landkreis"},"federalState":{"key":"03","name":"Niedersachsen"}},{"name":"Hinter den Höfen","postalCode":"31319","locality":"Sehnde","municipality":{"key":"03241016","name":"Sehnde, Stadt","type":"Stadt"},"district":{"key":"03241","name":"Region Hannover","type":"Landkreis"},"federalState":{"key":"03","name":"Niedersachsen"}},{"name":"Hinter der Post","postalCode":"31319","locality":"Sehnde","municipality":{"key":"03241016","name":"Sehnde, Stadt","type":"Stadt"},"district":{"key":"03241","name":"Region Hannover","type":"Landkreis"},"federalState":{"key":"03","name":"Niedersachsen"}},{"name":"Hinter der Schule","postalCode":"31319","locality":"Sehnde","municipality":{"key":"03241016","name":"Sehnde, Stadt","type":"Stadt"},"district":{"key":"03241","name":"Region Hannover","type":"Landkreis"},"federalState":{"key":"03","name":"Niedersachsen"}},{"name":"Hinterstr.","postalCode":"31319","locality":"Sehnde","municipality":{"key":"03241016","name":"Sehnde, Stadt","type":"Stadt"},"district":{"key":"03241","name":"Region Hannover","type":"Landkreis"},"federalState":{"key":"03","name":"Niedersachsen"}},{"name":"Hohe Feldstr.","postalCode":"31319","locality":"Sehnde","municipality":{"key":"03241016","name":"Sehnde, Stadt","type":"Stadt"},"district":{"key":"03241","name":"Region Hannover","type":"Landkreis"},"federalState":{"key":"03","name":"Niedersachsen"}},{"name":"Hohenfelser Str.","postalCode":"31319","locality":"Sehnde","municipality":{"key":"03241016","name":"Sehnde, Stadt","type":"Stadt"},"district":{"key":"03241","name":"Region Hannover","type":"Landkreis"},"federalState":{"key":"03","name":"Niedersachsen"}},{"name":"Holzgarten","postalCode":"31319","locality":"Sehnde","municipality":{"key":"03241016","name":"Sehnde, Stadt","type":"Stadt"},"district":{"key":"03241","name":"Region Hannover","type":"Landkreis"},"federalState":{"key":"03","name":"Niedersachsen"}},{"name":"Hoverdengasse","postalCode":"31319","locality":"Sehnde","municipality":{"key":"03241016","name":"Sehnde, Stadt","type":"Stadt"},"district":{"key":"03241","name":"Region Hannover","type":"Landkreis"},"federalState":{"key":"03","name":"Niedersachsen"}},{"name":"Hugo-Remmert-Str.","postalCode":"31319","locality":"Sehnde","municipality":{"key":"03241016","name":"Sehnde, Stadt","type":"Stadt"},"district":{"key":"03241","name":"Region Hannover","type":"Landkreis"},"federalState":{"key":"03","name":"Niedersachsen"}},{"name":"Iltener Str.","postalCode":"31319","locality":"Sehnde","municipality":{"key":"03241016","name":"Sehnde, Stadt","type":"Stadt"},"district":{"key":"03241","name":"Region Hannover","type":"Landkreis"},"federalState":{"key":"03","name":"Niedersachsen"}},{"name":"Im Alten Kamp","postalCode":"31319","locality":"Sehnde","municipality":{"key":"03241016","name":"Sehnde, Stadt","type":"Stadt"},"district":{"key":"03241","name":"Region Hannover","type":"Landkreis"},"federalState":{"key":"03","name":"Niedersachsen"}},{"name":"Im Beekfelde","postalCode":"31319","locality":"Sehnde","municipality":{"key":"03241016","name":"Sehnde, Stadt","type":"Stadt"},"district":{"key":"03241","name":"Region Hannover","type":"Landkreis"},"federalState":{"key":"03","name":"Niedersachsen"}},{"name":"Im Bosenkamp","postalCode":"31319","locality":"Sehnde","municipality":{"key":"03241016","name":"Sehnde, Stadt","type":"Stadt"},"district":{"key":"03241","name":"Region Hannover","type":"Landkreis"},"federalState":{"key":"03","name":"Niedersachsen"}},{"name":"Im Buchenkamp","postalCode":"31319","locality":"Sehnde","municipality":{"key":"03241016","name":"Sehnde, Stadt","type":"Stadt"},"district":{"key":"03241","name":"Region Hannover","type":"Landkreis"},"federalState":{"key":"03","name":"Niedersachsen"}},{"name":"Im Buschfeld","postalCode":"31319","locality":"Sehnde","municipality":{"key":"03241016","name":"Sehnde, Stadt","type":"Stadt"},"district":{"key":"03241","name":"Region Hannover","type":"Landkreis"},"federalState":{"key":"03","name":"Niedersachsen"}},{"name":"Im Dorfe","postalCode":"31319","locality":"Sehnde","municipality":{"key":"03241016","name":"Sehnde, Stadt","type":"Stadt"},"district":{"key":"03241","name":"Region Hannover","type":"Landkreis"},"federalState":{"key":"03","name":"Niedersachsen"}},{"name":"Im Knick","postalCode":"31319","locality":"Sehnde","municipality":{"key":"03241016","name":"Sehnde, Stadt","type":"Stadt"},"district":{"key":"03241","name":"Region Hannover","type":"Landkreis"},"federalState":{"key":"03","name":"Niedersachsen"}},{"name":"Immanuel-Kant-Str.","postalCode":"31319","locality":"Sehnde","municipality":{"key":"03241016","name":"Sehnde, Stadt","type":"Stadt"},"district":{"key":"03241","name":"Region Hannover","type":"Landkreis"},"federalState":{"key":"03","name":"Niedersachsen"}},{"name":"Im Nordfelde","postalCode":"31319","locality":"Sehnde","municipality":{"key":"03241016","name":"Sehnde, Stadt","type":"Stadt"},"district":{"key":"03241","name":"Region Hannover","type":"Landkreis"},"federalState":{"key":"03","name":"Niedersachsen"}},{"name":"Im Osterfeld","postalCode":"31319","locality":"Sehnde","municipality":{"key":"03241016","name":"Sehnde, Stadt","type":"Stadt"},"district":{"key":"03241","name":"Region Hannover","type":"Landkreis"},"federalState":{"key":"03","name":"Niedersachsen"}},{"name":"Im Schleichgarten","postalCode":"31319","locality":"Sehnde","municipality":{"key":"03241016","name":"Sehnde, Stadt","type":"Stadt"},"district":{"key":"03241","name":"Region Hannover","type":"Landkreis"},"federalState":{"key":"03","name":"Niedersachsen"}},{"name":"Im Steinkamp","postalCode":"31319","locality":"Sehnde","municipality":{"key":"03241016","name":"Sehnde, Stadt","type":"Stadt"},"district":{"key":"03241","name":"Region Hannover","type":"Landkreis"},"federalState":{"key":"03","name":"Niedersachsen"}},{"name":"Im Stiegfeld","postalCode":"31319","locality":"Sehnde","municipality":{"key":"03241016","name":"Sehnde, Stadt","type":"Stadt"},"district":{"key":"03241","name":"Region Hannover","type":"Landkreis"},"federalState":{"key":"03","name":"Niedersachsen"}},{"name":"Im Strauchgarten","postalCode":"31319","locality":"Sehnde","municipality":{"key":"03241016","name":"Sehnde, Stadt","type":"Stadt"},"district":{"key":"03241","name":"Region Hannover","type":"Landkreis"},"federalState":{"key":"03","name":"Niedersachsen"}},{"name":"Im Wehmfeld","postalCode":"31319","locality":"Sehnde","municipality":{"key":"03241016","name":"Sehnde, Stadt","type":"Stadt"},"district":{"key":"03241","name":"Region Hannover","type":"Landkreis"},"federalState":{"key":"03","name":"Niedersachsen"}},{"name":"Im Wiesengrund","postalCode":"31319","locality":"Sehnde","municipality":{"key":"03241016","name":"Sehnde, Stadt","type":"Stadt"},"district":{"key":"03241","name":"Region Hannover","type":"Landkreis"},"federalState":{"key":"03","name":"Niedersachsen"}},{"name":"Im Wiesenhof","postalCode":"31319","locality":"Sehnde","municipality":{"key":"03241016","name":"Sehnde, Stadt","type":"Stadt"},"district":{"key":"03241","name":"Region Hannover","type":"Landkreis"},"federalState":{"key":"03","name":"Niedersachsen"}},{"name":"Im Winkel","postalCode":"31319","locality":"Sehnde","municipality":{"key":"03241016","name":"Sehnde, Stadt","type":"Stadt"},"district":{"key":"03241","name":"Region Hannover","type":"Landkreis"},"federalState":{"key":"03","name":"Niedersachsen"}},{"name":"In den Marktgärten","postalCode":"31319","locality":"Sehnde","municipality":{"key":"03241016","name":"Sehnde, Stadt","type":"Stadt"},"district":{"key":"03241","name":"Region Hannover","type":"Landkreis"},"federalState":{"key":"03","name":"Niedersachsen"}},{"name":"In der Wörth","postalCode":"31319","locality":"Sehnde","municipality":{"key":"03241016","name":"Sehnde, Stadt","type":"Stadt"},"district":{"key":"03241","name":"Region Hannover","type":"Landkreis"},"federalState":{"key":"03","name":"Niedersachsen"}},{"name":"Jägerstr.","postalCode":"31319","locality":"Sehnde","municipality":{"key":"03241016","name":"Sehnde, Stadt","type":"Stadt"},"district":{"key":"03241","name":"Region Hannover","type":"Landkreis"},"federalState":{"key":"03","name":"Niedersachsen"}},{"name":"Jahnstr.","postalCode":"31319","locality":"Sehnde","municipality":{"key":"03241016","name":"Sehnde, Stadt","type":"Stadt"},"district":{"key":"03241","name":"Region Hannover","type":"Landkreis"},"federalState":{"key":"03","name":"Niedersachsen"}},{"name":"Johann-Wichern-Str.","postalCode":"31319","locality":"Sehnde","municipality":{"key":"03241016","name":"Sehnde, Stadt","type":"Stadt"},"district":{"key":"03241","name":"Region Hannover","type":"Landkreis"},"federalState":{"key":"03","name":"Niedersachsen"}},{"name":"Julchens Lust","postalCode":"31319","locality":"Sehnde","municipality":{"key":"03241016","name":"Sehnde, Stadt","type":"Stadt"},"district":{"key":"03241","name":"Region Hannover","type":"Landkreis"},"federalState":{"key":"03","name":"Niedersachsen"}},{"name":"Kalkenstr.","postalCode":"31319","locality":"Sehnde","municipality":{"key":"03241016","name":"Sehnde, Stadt","type":"Stadt"},"district":{"key":"03241","name":"Region Hannover","type":"Landkreis"},"federalState":{"key":"03","name":"Niedersachsen"}},{"name":"Kanalstr.","postalCode":"31319","locality":"Sehnde","municipality":{"key":"03241016","name":"Sehnde, Stadt","type":"Stadt"},"district":{"key":"03241","name":"Region Hannover","type":"Landkreis"},"federalState":{"key":"03","name":"Niedersachsen"}},{"name":"Kanalweg","postalCode":"31319","locality":"Sehnde","municipality":{"key":"03241016","name":"Sehnde, Stadt","type":"Stadt"},"district":{"key":"03241","name":"Region Hannover","type":"Landkreis"},"federalState":{"key":"03","name":"Niedersachsen"}},{"name":"Kapellenberg","postalCode":"31319","locality":"Sehnde","municipality":{"key":"03241016","name":"Sehnde, Stadt","type":"Stadt"},"district":{"key":"03241","name":"Region Hannover","type":"Landkreis"},"federalState":{"key":"03","name":"Niedersachsen"}},{"name":"Kapellenweg","postalCode":"31319","locality":"Sehnde","municipality":{"key":"03241016","name":"Sehnde, Stadt","type":"Stadt"},"district":{"key":"03241","name":"Region Hannover","type":"Landkreis"},"federalState":{"key":"03","name":"Niedersachsen"}},{"name":"Karl-Backhaus-Ring","postalCode":"31319","locality":"Sehnde","municipality":{"key":"03241016","name":"Sehnde, Stadt","type":"Stadt"},"district":{"key":"03241","name":"Region Hannover","type":"Landkreis"},"federalState":{"key":"03","name":"Niedersachsen"}},{"name":"Karl-Wehler-Str.","postalCode":"31319","locality":"Sehnde","municipality":{"key":"03241016","name":"Sehnde, Stadt","type":"Stadt"},"district":{"key":"03241","name":"Region Hannover","type":"Landkreis"},"federalState":{"key":"03","name":"Niedersachsen"}},{"name":"Käthe-Kollwitz-Weg","postalCode":"31319","locality":"Sehnde","municipality":{"key":"03241016","name":"Sehnde, Stadt","type":"Stadt"},"district":{"key":"03241","name":"Region Hannover","type":"Landkreis"},"federalState":{"key":"03","name":"Niedersachsen"}},{"name":"Katzhagen","postalCode":"31319","locality":"Sehnde","municipality":{"key":"03241016","name":"Sehnde, Stadt","type":"Stadt"},"district":{"key":"03241","name":"Region Hannover","type":"Landkreis"},"federalState":{"key":"03","name":"Niedersachsen"}},{"name":"Kiebitzgrund","postalCode":"31319","locality":"Sehnde","municipality":{"key":"03241016","name":"Sehnde, Stadt","type":"Stadt"},"district":{"key":"03241","name":"Region Hannover","type":"Landkreis"},"federalState":{"key":"03","name":"Niedersachsen"}},{"name":"Kirchstr.","postalCode":"31319","locality":"Sehnde","municipality":{"key":"03241016","name":"Sehnde, Stadt","type":"Stadt"},"district":{"key":"03241","name":"Region Hannover","type":"Landkreis"},"federalState":{"key":"03","name":"Niedersachsen"}},{"name":"Kirchweg","postalCode":"31319","locality":"Sehnde","municipality":{"key":"03241016","name":"Sehnde, Stadt","type":"Stadt"},"district":{"key":"03241","name":"Region Hannover","type":"Landkreis"},"federalState":{"key":"03","name":"Niedersachsen"}},{"name":"Klappenweg","postalCode":"31319","locality":"Sehnde","municipality":{"key":"03241016","name":"Sehnde, Stadt","type":"Stadt"},"district":{"key":"03241","name":"Region Hannover","type":"Landkreis"},"federalState":{"key":"03","name":"Niedersachsen"}},{"name":"Kleifeld","postalCode":"31319","locality":"Sehnde","municipality":{"key":"03241016","name":"Sehnde, Stadt","type":"Stadt"},"district":{"key":"03241","name":"Region Hannover","type":"Landkreis"},"federalState":{"key":"03","name":"Niedersachsen"}},{"name":"Klein Bolzumer Weg","postalCode":"31319","locality":"Sehnde","municipality":{"key":"03241016","name":"Sehnde, Stadt","type":"Stadt"},"district":{"key":"03241","name":"Region Hannover","type":"Landkreis"},"federalState":{"key":"03","name":"Niedersachsen"}},{"name":"Kleine Kampstr.","postalCode":"31319","locality":"Sehnde","municipality":{"key":"03241016","name":"Sehnde, Stadt","type":"Stadt"},"district":{"key":"03241","name":"Region Hannover","type":"Landkreis"},"federalState":{"key":"03","name":"Niedersachsen"}},{"name":"Kleiner Mühlenberg","postalCode":"31319","locality":"Sehnde","municipality":{"key":"03241016","name":"Sehnde, Stadt","type":"Stadt"},"district":{"key":"03241","name":"Region Hannover","type":"Landkreis"},"federalState":{"key":"03","name":"Niedersachsen"}},{"name":"Kleines Öhr","postalCode":"31319","locality":"Sehnde","municipality":{"key":"03241016","name":"Sehnde, Stadt","type":"Stadt"},"district":{"key":"03241","name":"Region Hannover","type":"Landkreis"},"federalState":{"key":"03","name":"Niedersachsen"}},{"name":"Kleine Str.","postalCode":"31319","locality":"Sehnde","municipality":{"key":"03241016","name":"Sehnde, Stadt","type":"Stadt"},"district":{"key":"03241","name":"Region Hannover","type":"Landkreis"},"federalState":{"key":"03","name":"Niedersachsen"}},{"name":"Klingenberg","postalCode":"31319","locality":"Sehnde","municipality":{"key":"03241016","name":"Sehnde, Stadt","type":"Stadt"},"district":{"key":"03241","name":"Region Hannover","type":"Landkreis"},"federalState":{"key":"03","name":"Niedersachsen"}},{"name":"Kolberger Str.","postalCode":"31319","locality":"Sehnde","municipality":{"key":"03241016","name":"Sehnde, Stadt","type":"Stadt"},"district":{"key":"03241","name":"Region Hannover","type":"Landkreis"},"federalState":{"key":"03","name":"Niedersachsen"}},{"name":"Königsberger Str.","postalCode":"31319","locality":"Sehnde","municipality":{"key":"03241016","name":"Sehnde, Stadt","type":"Stadt"},"district":{"key":"03241","name":"Region Hannover","type":"Landkreis"},"federalState":{"key":"03","name":"Niedersachsen"}},{"name":"Köthenwald","postalCode":"31319","locality":"Sehnde","municipality":{"key":"03241016","name":"Sehnde, Stadt","type":"Stadt"},"district":{"key":"03241","name":"Region Hannover","type":"Landkreis"},"federalState":{"key":"03","name":"Niedersachsen"}},{"name":"Kreisel Sehnde Ost","postalCode":"31319","locality":"Sehnde","municipality":{"key":"03241016","name":"Sehnde, Stadt","type":"Stadt"},"district":{"key":"03241","name":"Region Hannover","type":"Landkreis"},"federalState":{"key":"03","name":"Niedersachsen"}},{"name":"Kreisel Sehnde West","postalCode":"31319","locality":"Sehnde","municipality":{"key":"03241016","name":"Sehnde, Stadt","type":"Stadt"},"district":{"key":"03241","name":"Region Hannover","type":"Landkreis"},"federalState":{"key":"03","name":"Niedersachsen"}},{"name":"Kreuzstr.","postalCode":"31319","locality":"Sehnde","municipality":{"key":"03241016","name":"Sehnde, Stadt","type":"Stadt"},"district":{"key":"03241","name":"Region Hannover","type":"Landkreis"},"federalState":{"key":"03","name":"Niedersachsen"}},{"name":"Küchenweg","postalCode":"31319","locality":"Sehnde","municipality":{"key":"03241016","name":"Sehnde, Stadt","type":"Stadt"},"district":{"key":"03241","name":"Region Hannover","type":"Landkreis"},"federalState":{"key":"03","name":"Niedersachsen"}},{"name":"Kuhlgartenstr.","postalCode":"31319","locality":"Sehnde","municipality":{"key":"03241016","name":"Sehnde, Stadt","type":"Stadt"},"district":{"key":"03241","name":"Region Hannover","type":"Landkreis"},"federalState":{"key":"03","name":"Niedersachsen"}},{"name":"Kurt-Lau-Weg","postalCode":"31319","locality":"Sehnde","municipality":{"key":"03241016","name":"Sehnde, Stadt","type":"Stadt"},"district":{"key":"03241","name":"Region Hannover","type":"Landkreis"},"federalState":{"key":"03","name":"Niedersachsen"}},{"name":"Kurze Str.","postalCode":"31319","locality":"Sehnde","municipality":{"key":"03241016","name":"Sehnde, Stadt","type":"Stadt"},"district":{"key":"03241","name":"Region Hannover","type":"Landkreis"},"federalState":{"key":"03","name":"Niedersachsen"}},{"name":"Küsterstr.","postalCode":"31319","locality":"Sehnde","municipality":{"key":"03241016","name":"Sehnde, Stadt","type":"Stadt"},"district":{"key":"03241","name":"Region Hannover","type":"Landkreis"},"federalState":{"key":"03","name":"Niedersachsen"}},{"name":"Kutscherstr.","postalCode":"31319","locality":"Sehnde","municipality":{"key":"03241016","name":"Sehnde, Stadt","type":"Stadt"},"district":{"key":"03241","name":"Region Hannover","type":"Landkreis"},"federalState":{"key":"03","name":"Niedersachsen"}},{"name":"Ladeholzstr.","postalCode":"31319","locality":"Sehnde","municipality":{"key":"03241016","name":"Sehnde, Stadt","type":"Stadt"},"district":{"key":"03241","name":"Region Hannover","type":"Landkreis"},"federalState":{"key":"03","name":"Niedersachsen"}},{"name":"Laheweg","postalCode":"31319","locality":"Sehnde","municipality":{"key":"03241016","name":"Sehnde, Stadt","type":"Stadt"},"district":{"key":"03241","name":"Region Hannover","type":"Landkreis"},"federalState":{"key":"03","name":"Niedersachsen"}},{"name":"Lehrter Str.","postalCode":"31319","locality":"Sehnde","municipality":{"key":"03241016","name":"Sehnde, Stadt","type":"Stadt"},"district":{"key":"03241","name":"Region Hannover","type":"Landkreis"},"federalState":{"key":"03","name":"Niedersachsen"}},{"name":"Leonhardring","postalCode":"31319","locality":"Sehnde","municipality":{"key":"03241016","name":"Sehnde, Stadt","type":"Stadt"},"district":{"key":"03241","name":"Region Hannover","type":"Landkreis"},"federalState":{"key":"03","name":"Niedersachsen"}},{"name":"Lerchengrund","postalCode":"31319","locality":"Sehnde","municipality":{"key":"03241016","name":"Sehnde, Stadt","type":"Stadt"},"district":{"key":"03241","name":"Region Hannover","type":"Landkreis"},"federalState":{"key":"03","name":"Niedersachsen"}},{"name":"Lindenallee","postalCode":"31319","locality":"Sehnde","municipality":{"key":"03241016","name":"Sehnde, Stadt","type":"Stadt"},"district":{"key":"03241","name":"Region Hannover","type":"Landkreis"},"federalState":{"key":"03","name":"Niedersachsen"}},{"name":"Lindenweg","postalCode":"31319","locality":"Sehnde","municipality":{"key":"03241016","name":"Sehnde, Stadt","type":"Stadt"},"district":{"key":"03241","name":"Region Hannover","type":"Landkreis"},"federalState":{"key":"03","name":"Niedersachsen"}},{"name":"Lindertstr.","postalCode":"31319","locality":"Sehnde","municipality":{"key":"03241016","name":"Sehnde, Stadt","type":"Stadt"},"district":{"key":"03241","name":"Region Hannover","type":"Landkreis"},"federalState":{"key":"03","name":"Niedersachsen"}},{"name":"Lindhorstweg","postalCode":"31319","locality":"Sehnde","municipality":{"key":"03241016","name":"Sehnde, Stadt","type":"Stadt"},"district":{"key":"03241","name":"Region Hannover","type":"Landkreis"},"federalState":{"key":"03","name":"Niedersachsen"}},{"name":"Lisztweg","postalCode":"31319","locality":"Sehnde","municipality":{"key":"03241016","name":"Sehnde, Stadt","type":"Stadt"},"district":{"key":"03241","name":"Region Hannover","type":"Landkreis"},"federalState":{"key":"03","name":"Niedersachsen"}},{"name":"Lobker Str.","postalCode":"31319","locality":"Sehnde","municipality":{"key":"03241016","name":"Sehnde, Stadt","type":"Stadt"},"district":{"key":"03241","name":"Region Hannover","type":"Landkreis"},"federalState":{"key":"03","name":"Niedersachsen"}},{"name":"Lortzingweg","postalCode":"31319","locality":"Sehnde","municipality":{"key":"03241016","name":"Sehnde, Stadt","type":"Stadt"},"district":{"key":"03241","name":"Region Hannover","type":"Landkreis"},"federalState":{"key":"03","name":"Niedersachsen"}},{"name":"Lüttjer Hagen","postalCode":"31319","locality":"Sehnde","municipality":{"key":"03241016","name":"Sehnde, Stadt","type":"Stadt"},"district":{"key":"03241","name":"Region Hannover","type":"Landkreis"},"federalState":{"key":"03","name":"Niedersachsen"}},{"name":"Marggrafstr.","postalCode":"31319","locality":"Sehnde","municipality":{"key":"03241016","name":"Sehnde, Stadt","type":"Stadt"},"district":{"key":"03241","name":"Region Hannover","type":"Landkreis"},"federalState":{"key":"03","name":"Niedersachsen"}},{"name":"Marienburger Str.","postalCode":"31319","locality":"Sehnde","municipality":{"key":"03241016","name":"Sehnde, Stadt","type":"Stadt"},"district":{"key":"03241","name":"Region Hannover","type":"Landkreis"},"federalState":{"key":"03","name":"Niedersachsen"}},{"name":"Marktplatz","postalCode":"31319","locality":"Sehnde","municipality":{"key":"03241016","name":"Sehnde, Stadt","type":"Stadt"},"district":{"key":"03241","name":"Region Hannover","type":"Landkreis"},"federalState":{"key":"03","name":"Niedersachsen"}},{"name":"Marktstr.","postalCode":"31319","locality":"Sehnde","municipality":{"key":"03241016","name":"Sehnde, Stadt","type":"Stadt"},"district":{"key":"03241","name":"Region Hannover","type":"Landkreis"},"federalState":{"key":"03","name":"Niedersachsen"}},{"name":"Martin-Fischbach-Weg","postalCode":"31319","locality":"Sehnde","municipality":{"key":"03241016","name":"Sehnde, Stadt","type":"Stadt"},"district":{"key":"03241","name":"Region Hannover","type":"Landkreis"},"federalState":{"key":"03","name":"Niedersachsen"}},{"name":"Martin-Luther-Weg","postalCode":"31319","locality":"Sehnde","municipality":{"key":"03241016","name":"Sehnde, Stadt","type":"Stadt"},"district":{"key":"03241","name":"Region Hannover","type":"Landkreis"},"federalState":{"key":"03","name":"Niedersachsen"}},{"name":"Maschdamm","postalCode":"31319","locality":"Sehnde","municipality":{"key":"03241016","name":"Sehnde, Stadt","type":"Stadt"},"district":{"key":"03241","name":"Region Hannover","type":"Landkreis"},"federalState":{"key":"03","name":"Niedersachsen"}},{"name":"Maschfeld","postalCode":"31319","locality":"Sehnde","municipality":{"key":"03241016","name":"Sehnde, Stadt","type":"Stadt"},"district":{"key":"03241","name":"Region Hannover","type":"Landkreis"},"federalState":{"key":"03","name":"Niedersachsen"}},{"name":"Maschstr.","postalCode":"31319","locality":"Sehnde","municipality":{"key":"03241016","name":"Sehnde, Stadt","type":"Stadt"},"district":{"key":"03241","name":"Region Hannover","type":"Landkreis"},"federalState":{"key":"03","name":"Niedersachsen"}},{"name":"Maschwiese","postalCode":"31319","locality":"Sehnde","municipality":{"key":"03241016","name":"Sehnde, Stadt","type":"Stadt"},"district":{"key":"03241","name":"Region Hannover","type":"Landkreis"},"federalState":{"key":"03","name":"Niedersachsen"}},{"name":"Meffertweg","postalCode":"31319","locality":"Sehnde","municipality":{"key":"03241016","name":"Sehnde, Stadt","type":"Stadt"},"district":{"key":"03241","name":"Region Hannover","type":"Landkreis"},"federalState":{"key":"03","name":"Niedersachsen"}},{"name":"Mehrumer Str.","postalCode":"31319","locality":"Sehnde","municipality":{"key":"03241016","name":"Sehnde, Stadt","type":"Stadt"},"district":{"key":"03241","name":"Region Hannover","type":"Landkreis"},"federalState":{"key":"03","name":"Niedersachsen"}},{"name":"Mendelsohnweg","postalCode":"31319","locality":"Sehnde","municipality":{"key":"03241016","name":"Sehnde, Stadt","type":"Stadt"},"district":{"key":"03241","name":"Region Hannover","type":"Landkreis"},"federalState":{"key":"03","name":"Niedersachsen"}},{"name":"Mittelstr.","postalCode":"31319","locality":"Sehnde","municipality":{"key":"03241016","name":"Sehnde, Stadt","type":"Stadt"},"district":{"key":"03241","name":"Region Hannover","type":"Landkreis"},"federalState":{"key":"03","name":"Niedersachsen"}},{"name":"Molkereiweg","postalCode":"31319","locality":"Sehnde","municipality":{"key":"03241016","name":"Sehnde, Stadt","type":"Stadt"},"district":{"key":"03241","name":"Region Hannover","type":"Landkreis"},"federalState":{"key":"03","name":"Niedersachsen"}},{"name":"Moltkestr.","postalCode":"31319","locality":"Sehnde","municipality":{"key":"03241016","name":"Sehnde, Stadt","type":"Stadt"},"district":{"key":"03241","name":"Region Hannover","type":"Landkreis"},"federalState":{"key":"03","name":"Niedersachsen"}},{"name":"Mozartstr.","postalCode":"31319","locality":"Sehnde","municipality":{"key":"03241016","name":"Sehnde, Stadt","type":"Stadt"},"district":{"key":"03241","name":"Region Hannover","type":"Landkreis"},"federalState":{"key":"03","name":"Niedersachsen"}},{"name":"Mühlenfeld","postalCode":"31319","locality":"Sehnde","municipality":{"key":"03241016","name":"Sehnde, Stadt","type":"Stadt"},"district":{"key":"03241","name":"Region Hannover","type":"Landkreis"},"federalState":{"key":"03","name":"Niedersachsen"}},{"name":"Mühlengrund","postalCode":"31319","locality":"Sehnde","municipality":{"key":"03241016","name":"Sehnde, Stadt","type":"Stadt"},"district":{"key":"03241","name":"Region Hannover","type":"Landkreis"},"federalState":{"key":"03","name":"Niedersachsen"}},{"name":"Mühlenstr.","postalCode":"31319","locality":"Sehnde","municipality":{"key":"03241016","name":"Sehnde, Stadt","type":"Stadt"},"district":{"key":"03241","name":"Region Hannover","type":"Landkreis"},"federalState":{"key":"03","name":"Niedersachsen"}},{"name":"Mühlenweg","postalCode":"31319","locality":"Sehnde","municipality":{"key":"03241016","name":"Sehnde, Stadt","type":"Stadt"},"district":{"key":"03241","name":"Region Hannover","type":"Landkreis"},"federalState":{"key":"03","name":"Niedersachsen"}},{"name":"Mühlenwinkel","postalCode":"31319","locality":"Sehnde","municipality":{"key":"03241016","name":"Sehnde, Stadt","type":"Stadt"},"district":{"key":"03241","name":"Region Hannover","type":"Landkreis"},"federalState":{"key":"03","name":"Niedersachsen"}},{"name":"Müllinger Str.","postalCode":"31319","locality":"Sehnde","municipality":{"key":"03241016","name":"Sehnde, Stadt","type":"Stadt"},"district":{"key":"03241","name":"Region Hannover","type":"Landkreis"},"federalState":{"key":"03","name":"Niedersachsen"}},{"name":"Nach dem Vorwerke","postalCode":"31319","locality":"Sehnde","municipality":{"key":"03241016","name":"Sehnde, Stadt","type":"Stadt"},"district":{"key":"03241","name":"Region Hannover","type":"Landkreis"},"federalState":{"key":"03","name":"Niedersachsen"}},{"name":"Nachtigallenweg","postalCode":"31319","locality":"Sehnde","municipality":{"key":"03241016","name":"Sehnde, Stadt","type":"Stadt"},"district":{"key":"03241","name":"Region Hannover","type":"Landkreis"},"federalState":{"key":"03","name":"Niedersachsen"}},{"name":"Nelkenstr.","postalCode":"31319","locality":"Sehnde","municipality":{"key":"03241016","name":"Sehnde, Stadt","type":"Stadt"},"district":{"key":"03241","name":"Region Hannover","type":"Landkreis"},"federalState":{"key":"03","name":"Niedersachsen"}},{"name":"Neue Str.","postalCode":"31319","locality":"Sehnde","municipality":{"key":"03241016","name":"Sehnde, Stadt","type":"Stadt"},"district":{"key":"03241","name":"Region Hannover","type":"Landkreis"},"federalState":{"key":"03","name":"Niedersachsen"}},{"name":"Nordstr.","postalCode":"31319","locality":"Sehnde","municipality":{"key":"03241016","name":"Sehnde, Stadt","type":"Stadt"},"district":{"key":"03241","name":"Region Hannover","type":"Landkreis"},"federalState":{"key":"03","name":"Niedersachsen"}},{"name":"Nordweg","postalCode":"31319","locality":"Sehnde","municipality":{"key":"03241016","name":"Sehnde, Stadt","type":"Stadt"},"district":{"key":"03241","name":"Region Hannover","type":"Landkreis"},"federalState":{"key":"03","name":"Niedersachsen"}},{"name":"Ostdeutsche Str.","postalCode":"31319","locality":"Sehnde","municipality":{"key":"03241016","name":"Sehnde, Stadt","type":"Stadt"},"district":{"key":"03241","name":"Region Hannover","type":"Landkreis"},"federalState":{"key":"03","name":"Niedersachsen"}},{"name":"Osterende","postalCode":"31319","locality":"Sehnde","municipality":{"key":"03241016","name":"Sehnde, Stadt","type":"Stadt"},"district":{"key":"03241","name":"Region Hannover","type":"Landkreis"},"federalState":{"key":"03","name":"Niedersachsen"}},{"name":"Osterkamp","postalCode":"31319","locality":"Sehnde","municipality":{"key":"03241016","name":"Sehnde, Stadt","type":"Stadt"},"district":{"key":"03241","name":"Region Hannover","type":"Landkreis"},"federalState":{"key":"03","name":"Niedersachsen"}},{"name":"Osterkampsweg","postalCode":"31319","locality":"Sehnde","municipality":{"key":"03241016","name":"Sehnde, Stadt","type":"Stadt"},"district":{"key":"03241","name":"Region Hannover","type":"Landkreis"},"federalState":{"key":"03","name":"Niedersachsen"}},{"name":"Osterstr.","postalCode":"31319","locality":"Sehnde","municipality":{"key":"03241016","name":"Sehnde, Stadt","type":"Stadt"},"district":{"key":"03241","name":"Region Hannover","type":"Landkreis"},"federalState":{"key":"03","name":"Niedersachsen"}},{"name":"Ostgasse","postalCode":"31319","locality":"Sehnde","municipality":{"key":"03241016","name":"Sehnde, Stadt","type":"Stadt"},"district":{"key":"03241","name":"Region Hannover","type":"Landkreis"},"federalState":{"key":"03","name":"Niedersachsen"}},{"name":"Ostlandstr.","postalCode":"31319","locality":"Sehnde","municipality":{"key":"03241016","name":"Sehnde, Stadt","type":"Stadt"},"district":{"key":"03241","name":"Region Hannover","type":"Landkreis"},"federalState":{"key":"03","name":"Niedersachsen"}},{"name":"Ost-West-Str.","postalCode":"31319","locality":"Sehnde","municipality":{"key":"03241016","name":"Sehnde, Stadt","type":"Stadt"},"district":{"key":"03241","name":"Region Hannover","type":"Landkreis"},"federalState":{"key":"03","name":"Niedersachsen"}},{"name":"Otto-Heise-Str.","postalCode":"31319","locality":"Sehnde","municipality":{"key":"03241016","name":"Sehnde, Stadt","type":"Stadt"},"district":{"key":"03241","name":"Region Hannover","type":"Landkreis"},"federalState":{"key":"03","name":"Niedersachsen"}},{"name":"Papenteich","postalCode":"31319","locality":"Sehnde","municipality":{"key":"03241016","name":"Sehnde, Stadt","type":"Stadt"},"district":{"key":"03241","name":"Region Hannover","type":"Landkreis"},"federalState":{"key":"03","name":"Niedersachsen"}},{"name":"Parkstr.","postalCode":"31319","locality":"Sehnde","municipality":{"key":"03241016","name":"Sehnde, Stadt","type":"Stadt"},"district":{"key":"03241","name":"Region Hannover","type":"Landkreis"},"federalState":{"key":"03","name":"Niedersachsen"}},{"name":"Pastor-Grabe-Weg","postalCode":"31319","locality":"Sehnde","municipality":{"key":"03241016","name":"Sehnde, Stadt","type":"Stadt"},"district":{"key":"03241","name":"Region Hannover","type":"Landkreis"},"federalState":{"key":"03","name":"Niedersachsen"}},{"name":"Paula-Königheim-Str.","postalCode":"31319","locality":"Sehnde","municipality":{"key":"03241016","name":"Sehnde, Stadt","type":"Stadt"},"district":{"key":"03241","name":"Region Hannover","type":"Landkreis"},"federalState":{"key":"03","name":"Niedersachsen"}},{"name":"Peiner Str.","postalCode":"31319","locality":"Sehnde","municipality":{"key":"03241016","name":"Sehnde, Stadt","type":"Stadt"},"district":{"key":"03241","name":"Region Hannover","type":"Landkreis"},"federalState":{"key":"03","name":"Niedersachsen"}},{"name":"Petersweg","postalCode":"31319","locality":"Sehnde","municipality":{"key":"03241016","name":"Sehnde, Stadt","type":"Stadt"},"district":{"key":"03241","name":"Region Hannover","type":"Landkreis"},"federalState":{"key":"03","name":"Niedersachsen"}},{"name":"Pfannenstiel","postalCode":"31319","locality":"Sehnde","municipality":{"key":"03241016","name":"Sehnde, Stadt","type":"Stadt"},"district":{"key":"03241","name":"Region Hannover","type":"Landkreis"},"federalState":{"key":"03","name":"Niedersachsen"}},{"name":"Pfarrgasse","postalCode":"31319","locality":"Sehnde","municipality":{"key":"03241016","name":"Sehnde, Stadt","type":"Stadt"},"district":{"key":"03241","name":"Region Hannover","type":"Landkreis"},"federalState":{"key":"03","name":"Niedersachsen"}},{"name":"Planstr. C","postalCode":"31319","locality":"Sehnde","municipality":{"key":"03241016","name":"Sehnde, Stadt","type":"Stadt"},"district":{"key":"03241","name":"Region Hannover","type":"Landkreis"},"federalState":{"key":"03","name":"Niedersachsen"}},{"name":"Poststr.","postalCode":"31319","locality":"Sehnde","municipality":{"key":"03241016","name":"Sehnde, Stadt","type":"Stadt"},"district":{"key":"03241","name":"Region Hannover","type":"Landkreis"},"federalState":{"key":"03","name":"Niedersachsen"}},{"name":"Professor-Plühr-Str.","postalCode":"31319","locality":"Sehnde","municipality":{"key":"03241016","name":"Sehnde, Stadt","type":"Stadt"},"district":{"key":"03241","name":"Region Hannover","type":"Landkreis"},"federalState":{"key":"03","name":"Niedersachsen"}},{"name":"Raiffeisenstr.","postalCode":"31319","locality":"Sehnde","municipality":{"key":"03241016","name":"Sehnde, Stadt","type":"Stadt"},"district":{"key":"03241","name":"Region Hannover","type":"Landkreis"},"federalState":{"key":"03","name":"Niedersachsen"}},{"name":"Rathausstr.","postalCode":"31319","locality":"Sehnde","municipality":{"key":"03241016","name":"Sehnde, Stadt","type":"Stadt"},"district":{"key":"03241","name":"Region Hannover","type":"Landkreis"},"federalState":{"key":"03","name":"Niedersachsen"}},{"name":"Ratswinkel","postalCode":"31319","locality":"Sehnde","municipality":{"key":"03241016","name":"Sehnde, Stadt","type":"Stadt"},"district":{"key":"03241","name":"Region Hannover","type":"Landkreis"},"federalState":{"key":"03","name":"Niedersachsen"}},{"name":"Reiter Rittergut Rethmar e.V.","postalCode":"31319","locality":"Sehnde","municipality":{"key":"03241016","name":"Sehnde, Stadt","type":"Stadt"},"district":{"key":"03241","name":"Region Hannover","type":"Landkreis"},"federalState":{"key":"03","name":"Niedersachsen"}},{"name":"Rethener Str.","postalCode":"31319","locality":"Sehnde","municipality":{"key":"03241016","name":"Sehnde, Stadt","type":"Stadt"},"district":{"key":"03241","name":"Region Hannover","type":"Landkreis"},"federalState":{"key":"03","name":"Niedersachsen"}},{"name":"Rethmarsche Str.","postalCode":"31319","locality":"Sehnde","municipality":{"key":"03241016","name":"Sehnde, Stadt","type":"Stadt"},"district":{"key":"03241","name":"Region Hannover","type":"Landkreis"},"federalState":{"key":"03","name":"Niedersachsen"}},{"name":"Reuteranger","postalCode":"31319","locality":"Sehnde","municipality":{"key":"03241016","name":"Sehnde, Stadt","type":"Stadt"},"district":{"key":"03241","name":"Region Hannover","type":"Landkreis"},"federalState":{"key":"03","name":"Niedersachsen"}},{"name":"Reutergartenweg","postalCode":"31319","locality":"Sehnde","municipality":{"key":"03241016","name":"Sehnde, Stadt","type":"Stadt"},"district":{"key":"03241","name":"Region Hannover","type":"Landkreis"},"federalState":{"key":"03","name":"Niedersachsen"}},{"name":"Ricarda-Huch-Str.","postalCode":"31319","locality":"Sehnde","municipality":{"key":"03241016","name":"Sehnde, Stadt","type":"Stadt"},"district":{"key":"03241","name":"Region Hannover","type":"Landkreis"},"federalState":{"key":"03","name":"Niedersachsen"}},{"name":"Ringstr.","postalCode":"31319","locality":"Sehnde","municipality":{"key":"03241016","name":"Sehnde, Stadt","type":"Stadt"},"district":{"key":"03241","name":"Region Hannover","type":"Landkreis"},"federalState":{"key":"03","name":"Niedersachsen"}},{"name":"Rohrbeckweg","postalCode":"31319","locality":"Sehnde","municipality":{"key":"03241016","name":"Sehnde, Stadt","type":"Stadt"},"district":{"key":"03241","name":"Region Hannover","type":"Landkreis"},"federalState":{"key":"03","name":"Niedersachsen"}},{"name":"Röntgenweg","postalCode":"31319","locality":"Sehnde","municipality":{"key":"03241016","name":"Sehnde, Stadt","type":"Stadt"},"district":{"key":"03241","name":"Region Hannover","type":"Landkreis"},"federalState":{"key":"03","name":"Niedersachsen"}},{"name":"Rosenstr.","postalCode":"31319","locality":"Sehnde","municipality":{"key":"03241016","name":"Sehnde, Stadt","type":"Stadt"},"district":{"key":"03241","name":"Region Hannover","type":"Landkreis"},"federalState":{"key":"03","name":"Niedersachsen"}},{"name":"Roter-Berg-Ring","postalCode":"31319","locality":"Sehnde","municipality":{"key":"03241016","name":"Sehnde, Stadt","type":"Stadt"},"district":{"key":"03241","name":"Region Hannover","type":"Landkreis"},"federalState":{"key":"03","name":"Niedersachsen"}},{"name":"Rote Reihe","postalCode":"31319","locality":"Sehnde","municipality":{"key":"03241016","name":"Sehnde, Stadt","type":"Stadt"},"district":{"key":"03241","name":"Region Hannover","type":"Landkreis"},"federalState":{"key":"03","name":"Niedersachsen"}},{"name":"Rudolf-Wahrendorff-Str.","postalCode":"31319","locality":"Sehnde","municipality":{"key":"03241016","name":"Sehnde, Stadt","type":"Stadt"},"district":{"key":"03241","name":"Region Hannover","type":"Landkreis"},"federalState":{"key":"03","name":"Niedersachsen"}},{"name":"Salzburg","postalCode":"31319","locality":"Sehnde","municipality":{"key":"03241016","name":"Sehnde, Stadt","type":"Stadt"},"district":{"key":"03241","name":"Region Hannover","type":"Landkreis"},"federalState":{"key":"03","name":"Niedersachsen"}},{"name":"Sandweg","postalCode":"31319","locality":"Sehnde","municipality":{"key":"03241016","name":"Sehnde, Stadt","type":"Stadt"},"district":{"key":"03241","name":"Region Hannover","type":"Landkreis"},"federalState":{"key":"03","name":"Niedersachsen"}},{"name":"Sängergasse","postalCode":"31319","locality":"Sehnde","municipality":{"key":"03241016","name":"Sehnde, Stadt","type":"Stadt"},"district":{"key":"03241","name":"Region Hannover","type":"Landkreis"},"federalState":{"key":"03","name":"Niedersachsen"}},{"name":"Sankt-Florian-Weg","postalCode":"31319","locality":"Sehnde","municipality":{"key":"03241016","name":"Sehnde, Stadt","type":"Stadt"},"district":{"key":"03241","name":"Region Hannover","type":"Landkreis"},"federalState":{"key":"03","name":"Niedersachsen"}},{"name":"Sarstedter Str.","postalCode":"31319","locality":"Sehnde","municipality":{"key":"03241016","name":"Sehnde, Stadt","type":"Stadt"},"district":{"key":"03241","name":"Region Hannover","type":"Landkreis"},"federalState":{"key":"03","name":"Niedersachsen"}},{"name":"Schäferei","postalCode":"31319","locality":"Sehnde","municipality":{"key":"03241016","name":"Sehnde, Stadt","type":"Stadt"},"district":{"key":"03241","name":"Region Hannover","type":"Landkreis"},"federalState":{"key":"03","name":"Niedersachsen"}},{"name":"Schafweide","postalCode":"31319","locality":"Sehnde","municipality":{"key":"03241016","name":"Sehnde, Stadt","type":"Stadt"},"district":{"key":"03241","name":"Region Hannover","type":"Landkreis"},"federalState":{"key":"03","name":"Niedersachsen"}},{"name":"Schiratswinkel","postalCode":"31319","locality":"Sehnde","municipality":{"key":"03241016","name":"Sehnde, Stadt","type":"Stadt"},"district":{"key":"03241","name":"Region Hannover","type":"Landkreis"},"federalState":{"key":"03","name":"Niedersachsen"}},{"name":"Schladweg","postalCode":"31319","locality":"Sehnde","municipality":{"key":"03241016","name":"Sehnde, Stadt","type":"Stadt"},"district":{"key":"03241","name":"Region Hannover","type":"Landkreis"},"federalState":{"key":"03","name":"Niedersachsen"}},{"name":"Schlesische Str.","postalCode":"31319","locality":"Sehnde","municipality":{"key":"03241016","name":"Sehnde, Stadt","type":"Stadt"},"district":{"key":"03241","name":"Region Hannover","type":"Landkreis"},"federalState":{"key":"03","name":"Niedersachsen"}},{"name":"Schlosserberg","postalCode":"31319","locality":"Sehnde","municipality":{"key":"03241016","name":"Sehnde, Stadt","type":"Stadt"},"district":{"key":"03241","name":"Region Hannover","type":"Landkreis"},"federalState":{"key":"03","name":"Niedersachsen"}},{"name":"Schmiedestr.","postalCode":"31319","locality":"Sehnde","municipality":{"key":"03241016","name":"Sehnde, Stadt","type":"Stadt"},"district":{"key":"03241","name":"Region Hannover","type":"Landkreis"},"federalState":{"key":"03","name":"Niedersachsen"}},{"name":"Schmiedeweg","postalCode":"31319","locality":"Sehnde","municipality":{"key":"03241016","name":"Sehnde, Stadt","type":"Stadt"},"district":{"key":"03241","name":"Region Hannover","type":"Landkreis"},"federalState":{"key":"03","name":"Niedersachsen"}},{"name":"Schmiedewiese","postalCode":"31319","locality":"Sehnde","municipality":{"key":"03241016","name":"Sehnde, Stadt","type":"Stadt"},"district":{"key":"03241","name":"Region Hannover","type":"Landkreis"},"federalState":{"key":"03","name":"Niedersachsen"}},{"name":"Schnedebruch","postalCode":"31319","locality":"Sehnde","municipality":{"key":"03241016","name":"Sehnde, Stadt","type":"Stadt"},"district":{"key":"03241","name":"Region Hannover","type":"Landkreis"},"federalState":{"key":"03","name":"Niedersachsen"}},{"name":"Schopenhauerweg","postalCode":"31319","locality":"Sehnde","municipality":{"key":"03241016","name":"Sehnde, Stadt","type":"Stadt"},"district":{"key":"03241","name":"Region Hannover","type":"Landkreis"},"federalState":{"key":"03","name":"Niedersachsen"}},{"name":"Schubertweg","postalCode":"31319","locality":"Sehnde","municipality":{"key":"03241016","name":"Sehnde, Stadt","type":"Stadt"},"district":{"key":"03241","name":"Region Hannover","type":"Landkreis"},"federalState":{"key":"03","name":"Niedersachsen"}},{"name":"Schulgasse","postalCode":"31319","locality":"Sehnde","municipality":{"key":"03241016","name":"Sehnde, Stadt","type":"Stadt"},"district":{"key":"03241","name":"Region Hannover","type":"Landkreis"},"federalState":{"key":"03","name":"Niedersachsen"}},{"name":"Schulkoppel","postalCode":"31319","locality":"Sehnde","municipality":{"key":"03241016","name":"Sehnde, Stadt","type":"Stadt"},"district":{"key":"03241","name":"Region Hannover","type":"Landkreis"},"federalState":{"key":"03","name":"Niedersachsen"}},{"name":"Schulweg","postalCode":"31319","locality":"Sehnde","municipality":{"key":"03241016","name":"Sehnde, Stadt","type":"Stadt"},"district":{"key":"03241","name":"Region Hannover","type":"Landkreis"},"federalState":{"key":"03","name":"Niedersachsen"}},{"name":"Schumannweg","postalCode":"31319","locality":"Sehnde","municipality":{"key":"03241016","name":"Sehnde, Stadt","type":"Stadt"},"district":{"key":"03241","name":"Region Hannover","type":"Landkreis"},"federalState":{"key":"03","name":"Niedersachsen"}},{"name":"Schützenstr.","postalCode":"31319","locality":"Sehnde","municipality":{"key":"03241016","name":"Sehnde, Stadt","type":"Stadt"},"district":{"key":"03241","name":"Region Hannover","type":"Landkreis"},"federalState":{"key":"03","name":"Niedersachsen"}},{"name":"Schwalbennest","postalCode":"31319","locality":"Sehnde","municipality":{"key":"03241016","name":"Sehnde, Stadt","type":"Stadt"},"district":{"key":"03241","name":"Region Hannover","type":"Landkreis"},"federalState":{"key":"03","name":"Niedersachsen"}},{"name":"Schwarzer Weg","postalCode":"31319","locality":"Sehnde","municipality":{"key":"03241016","name":"Sehnde, Stadt","type":"Stadt"},"district":{"key":"03241","name":"Region Hannover","type":"Landkreis"},"federalState":{"key":"03","name":"Niedersachsen"}},{"name":"Sehnder Str.","postalCode":"31319","locality":"Sehnde","municipality":{"key":"03241016","name":"Sehnde, Stadt","type":"Stadt"},"district":{"key":"03241","name":"Region Hannover","type":"Landkreis"},"federalState":{"key":"03","name":"Niedersachsen"}},{"name":"Seufzerallee","postalCode":"31319","locality":"Sehnde","municipality":{"key":"03241016","name":"Sehnde, Stadt","type":"Stadt"},"district":{"key":"03241","name":"Region Hannover","type":"Landkreis"},"federalState":{"key":"03","name":"Niedersachsen"}},{"name":"Sonnenbergweg","postalCode":"31319","locality":"Sehnde","municipality":{"key":"03241016","name":"Sehnde, Stadt","type":"Stadt"},"district":{"key":"03241","name":"Region Hannover","type":"Landkreis"},"federalState":{"key":"03","name":"Niedersachsen"}},{"name":"Speekhoop","postalCode":"31319","locality":"Sehnde","municipality":{"key":"03241016","name":"Sehnde, Stadt","type":"Stadt"},"district":{"key":"03241","name":"Region Hannover","type":"Landkreis"},"federalState":{"key":"03","name":"Niedersachsen"}},{"name":"Sperlingsgasse","postalCode":"31319","locality":"Sehnde","municipality":{"key":"03241016","name":"Sehnde, Stadt","type":"Stadt"},"district":{"key":"03241","name":"Region Hannover","type":"Landkreis"},"federalState":{"key":"03","name":"Niedersachsen"}},{"name":"Stadtweg","postalCode":"31319","locality":"Sehnde","municipality":{"key":"03241016","name":"Sehnde, Stadt","type":"Stadt"},"district":{"key":"03241","name":"Region Hannover","type":"Landkreis"},"federalState":{"key":"03","name":"Niedersachsen"}},{"name":"Stauffenbergring","postalCode":"31319","locality":"Sehnde","municipality":{"key":"03241016","name":"Sehnde, Stadt","type":"Stadt"},"district":{"key":"03241","name":"Region Hannover","type":"Landkreis"},"federalState":{"key":"03","name":"Niedersachsen"}},{"name":"Steinfeld","postalCode":"31319","locality":"Sehnde","municipality":{"key":"03241016","name":"Sehnde, Stadt","type":"Stadt"},"district":{"key":"03241","name":"Region Hannover","type":"Landkreis"},"federalState":{"key":"03","name":"Niedersachsen"}},{"name":"Steinkampsgraben","postalCode":"31319","locality":"Sehnde","municipality":{"key":"03241016","name":"Sehnde, Stadt","type":"Stadt"},"district":{"key":"03241","name":"Region Hannover","type":"Landkreis"},"federalState":{"key":"03","name":"Niedersachsen"}},{"name":"Steinweg","postalCode":"31319","locality":"Sehnde","municipality":{"key":"03241016","name":"Sehnde, Stadt","type":"Stadt"},"district":{"key":"03241","name":"Region Hannover","type":"Landkreis"},"federalState":{"key":"03","name":"Niedersachsen"}},{"name":"Stettiner Str.","postalCode":"31319","locality":"Sehnde","municipality":{"key":"03241016","name":"Sehnde, Stadt","type":"Stadt"},"district":{"key":"03241","name":"Region Hannover","type":"Landkreis"},"federalState":{"key":"03","name":"Niedersachsen"}},{"name":"Stettiner Weg","postalCode":"31319","locality":"Sehnde","municipality":{"key":"03241016","name":"Sehnde, Stadt","type":"Stadt"},"district":{"key":"03241","name":"Region Hannover","type":"Landkreis"},"federalState":{"key":"03","name":"Niedersachsen"}},{"name":"Stiegfeldweg","postalCode":"31319","locality":"Sehnde","municipality":{"key":"03241016","name":"Sehnde, Stadt","type":"Stadt"},"district":{"key":"03241","name":"Region Hannover","type":"Landkreis"},"federalState":{"key":"03","name":"Niedersachsen"}},{"name":"Storchenstr.","postalCode":"31319","locality":"Sehnde","municipality":{"key":"03241016","name":"Sehnde, Stadt","type":"Stadt"},"district":{"key":"03241","name":"Region Hannover","type":"Landkreis"},"federalState":{"key":"03","name":"Niedersachsen"}},{"name":"Str. des Großen Freien","postalCode":"31319","locality":"Sehnde","municipality":{"key":"03241016","name":"Sehnde, Stadt","type":"Stadt"},"district":{"key":"03241","name":"Region Hannover","type":"Landkreis"},"federalState":{"key":"03","name":"Niedersachsen"}},{"name":"Südstr.","postalCode":"31319","locality":"Sehnde","municipality":{"key":"03241016","name":"Sehnde, Stadt","type":"Stadt"},"district":{"key":"03241","name":"Region Hannover","type":"Landkreis"},"federalState":{"key":"03","name":"Niedersachsen"}},{"name":"Südtorfeld","postalCode":"31319","locality":"Sehnde","municipality":{"key":"03241016","name":"Sehnde, Stadt","type":"Stadt"},"district":{"key":"03241","name":"Region Hannover","type":"Landkreis"},"federalState":{"key":"03","name":"Niedersachsen"}},{"name":"Südwiesenstr.","postalCode":"31319","locality":"Sehnde","municipality":{"key":"03241016","name":"Sehnde, Stadt","type":"Stadt"},"district":{"key":"03241","name":"Region Hannover","type":"Landkreis"},"federalState":{"key":"03","name":"Niedersachsen"}},{"name":"Sülterkamp","postalCode":"31319","locality":"Sehnde","municipality":{"key":"03241016","name":"Sehnde, Stadt","type":"Stadt"},"district":{"key":"03241","name":"Region Hannover","type":"Landkreis"},"federalState":{"key":"03","name":"Niedersachsen"}},{"name":"Tannenweg","postalCode":"31319","locality":"Sehnde","municipality":{"key":"03241016","name":"Sehnde, Stadt","type":"Stadt"},"district":{"key":"03241","name":"Region Hannover","type":"Landkreis"},"federalState":{"key":"03","name":"Niedersachsen"}},{"name":"Tegtkamp","postalCode":"31319","locality":"Sehnde","municipality":{"key":"03241016","name":"Sehnde, Stadt","type":"Stadt"},"district":{"key":"03241","name":"Region Hannover","type":"Landkreis"},"federalState":{"key":"03","name":"Niedersachsen"}},{"name":"Teichfeld","postalCode":"31319","locality":"Sehnde","municipality":{"key":"03241016","name":"Sehnde, Stadt","type":"Stadt"},"district":{"key":"03241","name":"Region Hannover","type":"Landkreis"},"federalState":{"key":"03","name":"Niedersachsen"}},{"name":"Teichstr.","postalCode":"31319","locality":"Sehnde","municipality":{"key":"03241016","name":"Sehnde, Stadt","type":"Stadt"},"district":{"key":"03241","name":"Region Hannover","type":"Landkreis"},"federalState":{"key":"03","name":"Niedersachsen"}},{"name":"Teichwiese","postalCode":"31319","locality":"Sehnde","municipality":{"key":"03241016","name":"Sehnde, Stadt","type":"Stadt"},"district":{"key":"03241","name":"Region Hannover","type":"Landkreis"},"federalState":{"key":"03","name":"Niedersachsen"}},{"name":"Thieplatz","postalCode":"31319","locality":"Sehnde","municipality":{"key":"03241016","name":"Sehnde, Stadt","type":"Stadt"},"district":{"key":"03241","name":"Region Hannover","type":"Landkreis"},"federalState":{"key":"03","name":"Niedersachsen"}},{"name":"Thiestr.","postalCode":"31319","locality":"Sehnde","municipality":{"key":"03241016","name":"Sehnde, Stadt","type":"Stadt"},"district":{"key":"03241","name":"Region Hannover","type":"Landkreis"},"federalState":{"key":"03","name":"Niedersachsen"}},{"name":"Triftstr.","postalCode":"31319","locality":"Sehnde","municipality":{"key":"03241016","name":"Sehnde, Stadt","type":"Stadt"},"district":{"key":"03241","name":"Region Hannover","type":"Landkreis"},"federalState":{"key":"03","name":"Niedersachsen"}},{"name":"Uhlenflucht","postalCode":"31319","locality":"Sehnde","municipality":{"key":"03241016","name":"Sehnde, Stadt","type":"Stadt"},"district":{"key":"03241","name":"Region Hannover","type":"Landkreis"},"federalState":{"key":"03","name":"Niedersachsen"}},{"name":"Vogtei-Ruthe-Str.","postalCode":"31319","locality":"Sehnde","municipality":{"key":"03241016","name":"Sehnde, Stadt","type":"Stadt"},"district":{"key":"03241","name":"Region Hannover","type":"Landkreis"},"federalState":{"key":"03","name":"Niedersachsen"}},{"name":"Vogtkamp","postalCode":"31319","locality":"Sehnde","municipality":{"key":"03241016","name":"Sehnde, Stadt","type":"Stadt"},"district":{"key":"03241","name":"Region Hannover","type":"Landkreis"},"federalState":{"key":"03","name":"Niedersachsen"}},{"name":"Voigtländer-Weg","postalCode":"31319","locality":"Sehnde","municipality":{"key":"03241016","name":"Sehnde, Stadt","type":"Stadt"},"district":{"key":"03241","name":"Region Hannover","type":"Landkreis"},"federalState":{"key":"03","name":"Niedersachsen"}},{"name":"Von-Dannenberg-Str.","postalCode":"31319","locality":"Sehnde","municipality":{"key":"03241016","name":"Sehnde, Stadt","type":"Stadt"},"district":{"key":"03241","name":"Region Hannover","type":"Landkreis"},"federalState":{"key":"03","name":"Niedersachsen"}},{"name":"Von-Rutenberg-Anger","postalCode":"31319","locality":"Sehnde","municipality":{"key":"03241016","name":"Sehnde, Stadt","type":"Stadt"},"district":{"key":"03241","name":"Region Hannover","type":"Landkreis"},"federalState":{"key":"03","name":"Niedersachsen"}},{"name":"Von-Uslar-Weg","postalCode":"31319","locality":"Sehnde","municipality":{"key":"03241016","name":"Sehnde, Stadt","type":"Stadt"},"district":{"key":"03241","name":"Region Hannover","type":"Landkreis"},"federalState":{"key":"03","name":"Niedersachsen"}},{"name":"Von-Wemighe-Str.","postalCode":"31319","locality":"Sehnde","municipality":{"key":"03241016","name":"Sehnde, Stadt","type":"Stadt"},"district":{"key":"03241","name":"Region Hannover","type":"Landkreis"},"federalState":{"key":"03","name":"Niedersachsen"}},{"name":"Vor dem Berge","postalCode":"31319","locality":"Sehnde","municipality":{"key":"03241016","name":"Sehnde, Stadt","type":"Stadt"},"district":{"key":"03241","name":"Region Hannover","type":"Landkreis"},"federalState":{"key":"03","name":"Niedersachsen"}},{"name":"Vor dem Dorf","postalCode":"31319","locality":"Sehnde","municipality":{"key":"03241016","name":"Sehnde, Stadt","type":"Stadt"},"district":{"key":"03241","name":"Region Hannover","type":"Landkreis"},"federalState":{"key":"03","name":"Niedersachsen"}},{"name":"Vor dem Holze","postalCode":"31319","locality":"Sehnde","municipality":{"key":"03241016","name":"Sehnde, Stadt","type":"Stadt"},"district":{"key":"03241","name":"Region Hannover","type":"Landkreis"},"federalState":{"key":"03","name":"Niedersachsen"}},{"name":"Vor der Ohe","postalCode":"31319","locality":"Sehnde","municipality":{"key":"03241016","name":"Sehnde, Stadt","type":"Stadt"},"district":{"key":"03241","name":"Region Hannover","type":"Landkreis"},"federalState":{"key":"03","name":"Niedersachsen"}},{"name":"Vorsteher-Rust-Str.","postalCode":"31319","locality":"Sehnde","municipality":{"key":"03241016","name":"Sehnde, Stadt","type":"Stadt"},"district":{"key":"03241","name":"Region Hannover","type":"Landkreis"},"federalState":{"key":"03","name":"Niedersachsen"}},{"name":"Wagnerweg","postalCode":"31319","locality":"Sehnde","municipality":{"key":"03241016","name":"Sehnde, Stadt","type":"Stadt"},"district":{"key":"03241","name":"Region Hannover","type":"Landkreis"},"federalState":{"key":"03","name":"Niedersachsen"}},{"name":"Wahre-Dorffstr.","postalCode":"31319","locality":"Sehnde","municipality":{"key":"03241016","name":"Sehnde, Stadt","type":"Stadt"},"district":{"key":"03241","name":"Region Hannover","type":"Landkreis"},"federalState":{"key":"03","name":"Niedersachsen"}},{"name":"Waldstr.","postalCode":"31319","locality":"Sehnde","municipality":{"key":"03241016","name":"Sehnde, Stadt","type":"Stadt"},"district":{"key":"03241","name":"Region Hannover","type":"Landkreis"},"federalState":{"key":"03","name":"Niedersachsen"}},{"name":"Wara Gasse","postalCode":"31319","locality":"Sehnde","municipality":{"key":"03241016","name":"Sehnde, Stadt","type":"Stadt"},"district":{"key":"03241","name":"Region Hannover","type":"Landkreis"},"federalState":{"key":"03","name":"Niedersachsen"}},{"name":"Wasseler Str.","postalCode":"31319","locality":"Sehnde","municipality":{"key":"03241016","name":"Sehnde, Stadt","type":"Stadt"},"district":{"key":"03241","name":"Region Hannover","type":"Landkreis"},"federalState":{"key":"03","name":"Niedersachsen"}},{"name":"Wasseler Weg","postalCode":"31319","locality":"Sehnde","municipality":{"key":"03241016","name":"Sehnde, Stadt","type":"Stadt"},"district":{"key":"03241","name":"Region Hannover","type":"Landkreis"},"federalState":{"key":"03","name":"Niedersachsen"}},{"name":"Wegstr.","postalCode":"31319","locality":"Sehnde","municipality":{"key":"03241016","name":"Sehnde, Stadt","type":"Stadt"},"district":{"key":"03241","name":"Region Hannover","type":"Landkreis"},"federalState":{"key":"03","name":"Niedersachsen"}},{"name":"Wehminger Str.","postalCode":"31319","locality":"Sehnde","municipality":{"key":"03241016","name":"Sehnde, Stadt","type":"Stadt"},"district":{"key":"03241","name":"Region Hannover","type":"Landkreis"},"federalState":{"key":"03","name":"Niedersachsen"}},{"name":"Wehmkamp","postalCode":"31319","locality":"Sehnde","municipality":{"key":"03241016","name":"Sehnde, Stadt","type":"Stadt"},"district":{"key":"03241","name":"Region Hannover","type":"Landkreis"},"federalState":{"key":"03","name":"Niedersachsen"}},{"name":"Weidengrund","postalCode":"31319","locality":"Sehnde","municipality":{"key":"03241016","name":"Sehnde, Stadt","type":"Stadt"},"district":{"key":"03241","name":"Region Hannover","type":"Landkreis"},"federalState":{"key":"03","name":"Niedersachsen"}},{"name":"Werner-Höchstädt-Str.","postalCode":"31319","locality":"Sehnde","municipality":{"key":"03241016","name":"Sehnde, Stadt","type":"Stadt"},"district":{"key":"03241","name":"Region Hannover","type":"Landkreis"},"federalState":{"key":"03","name":"Niedersachsen"}},{"name":"Wiekäckernstr.","postalCode":"31319","locality":"Sehnde","municipality":{"key":"03241016","name":"Sehnde, Stadt","type":"Stadt"},"district":{"key":"03241","name":"Region Hannover","type":"Landkreis"},"federalState":{"key":"03","name":"Niedersachsen"}},{"name":"Wiesenhofstr.","postalCode":"31319","locality":"Sehnde","municipality":{"key":"03241016","name":"Sehnde, Stadt","type":"Stadt"},"district":{"key":"03241","name":"Region Hannover","type":"Landkreis"},"federalState":{"key":"03","name":"Niedersachsen"}},{"name":"Wiesenstr.","postalCode":"31319","locality":"Sehnde","municipality":{"key":"03241016","name":"Sehnde, Stadt","type":"Stadt"},"district":{"key":"03241","name":"Region Hannover","type":"Landkreis"},"federalState":{"key":"03","name":"Niedersachsen"}},{"name":"Wiesenstrauch","postalCode":"31319","locality":"Sehnde","municipality":{"key":"03241016","name":"Sehnde, Stadt","type":"Stadt"},"district":{"key":"03241","name":"Region Hannover","type":"Landkreis"},"federalState":{"key":"03","name":"Niedersachsen"}},{"name":"Wietzegraben","postalCode":"31319","locality":"Sehnde","municipality":{"key":"03241016","name":"Sehnde, Stadt","type":"Stadt"},"district":{"key":"03241","name":"Region Hannover","type":"Landkreis"},"federalState":{"key":"03","name":"Niedersachsen"}},{"name":"Wilhelm-Busch-Str.","postalCode":"31319","locality":"Sehnde","municipality":{"key":"03241016","name":"Sehnde, Stadt","type":"Stadt"},"district":{"key":"03241","name":"Region Hannover","type":"Landkreis"},"federalState":{"key":"03","name":"Niedersachsen"}},{"name":"Wilhelm-Dörries-Str.","postalCode":"31319","locality":"Sehnde","municipality":{"key":"03241016","name":"Sehnde, Stadt","type":"Stadt"},"district":{"key":"03241","name":"Region Hannover","type":"Landkreis"},"federalState":{"key":"03","name":"Niedersachsen"}},{"name":"Wilhelm-Gisbertz-Str.","postalCode":"31319","locality":"Sehnde","municipality":{"key":"03241016","name":"Sehnde, Stadt","type":"Stadt"},"district":{"key":"03241","name":"Region Hannover","type":"Landkreis"},"federalState":{"key":"03","name":"Niedersachsen"}},{"name":"Wilhelm-Henze-Weg","postalCode":"31319","locality":"Sehnde","municipality":{"key":"03241016","name":"Sehnde, Stadt","type":"Stadt"},"district":{"key":"03241","name":"Region Hannover","type":"Landkreis"},"federalState":{"key":"03","name":"Niedersachsen"}},{"name":"Wilhelm-Kaune-Weg","postalCode":"31319","locality":"Sehnde","municipality":{"key":"03241016","name":"Sehnde, Stadt","type":"Stadt"},"district":{"key":"03241","name":"Region Hannover","type":"Landkreis"},"federalState":{"key":"03","name":"Niedersachsen"}},{"name":"Wilhelm-Raabe-Weg","postalCode":"31319","locality":"Sehnde","municipality":{"key":"03241016","name":"Sehnde, Stadt","type":"Stadt"},"district":{"key":"03241","name":"Region Hannover","type":"Landkreis"},"federalState":{"key":"03","name":"Niedersachsen"}},{"name":"Wilhelm-von-Ketteler-Str.","postalCode":"31319","locality":"Sehnde","municipality":{"key":"03241016","name":"Sehnde, Stadt","type":"Stadt"},"district":{"key":"03241","name":"Region Hannover","type":"Landkreis"},"federalState":{"key":"03","name":"Niedersachsen"}},{"name":"Wirringer Str.","postalCode":"31319","locality":"Sehnde","municipality":{"key":"03241016","name":"Sehnde, Stadt","type":"Stadt"},"district":{"key":"03241","name":"Region Hannover","type":"Landkreis"},"federalState":{"key":"03","name":"Niedersachsen"}},{"name":"Wirringer Weg","postalCode":"31319","locality":"Sehnde","municipality":{"key":"03241016","name":"Sehnde, Stadt","type":"Stadt"},"district":{"key":"03241","name":"Region Hannover","type":"Landkreis"},"federalState":{"key":"03","name":"Niedersachsen"}},{"name":"Wolfeshorn","postalCode":"31319","locality":"Sehnde","municipality":{"key":"03241016","name":"Sehnde, Stadt","type":"Stadt"},"district":{"key":"03241","name":"Region Hannover","type":"Landkreis"},"federalState":{"key":"03","name":"Niedersachsen"}},{"name":"Wollschlägers Weg","postalCode":"31319","locality":"Sehnde","municipality":{"key":"03241016","name":"Sehnde, Stadt","type":"Stadt"},"district":{"key":"03241","name":"Region Hannover","type":"Landkreis"},"federalState":{"key":"03","name":"Niedersachsen"}},{"name":"Ziegeleihof","postalCode":"31319","locality":"Sehnde","municipality":{"key":"03241016","name":"Sehnde, Stadt","type":"Stadt"},"district":{"key":"03241","name":"Region Hannover","type":"Landkreis"},"federalState":{"key":"03","name":"Niedersachsen"}},{"name":"Zuckerfabriksweg","postalCode":"31319","locality":"Sehnde","municipality":{"key":"03241016","name":"Sehnde, Stadt","type":"Stadt"},"district":{"key":"03241","name":"Region Hannover","type":"Landkreis"},"federalState":{"key":"03","name":"Niedersachsen"}},{"name":"Zum Flakenbruch","postalCode":"31319","locality":"Sehnde","municipality":{"key":"03241016","name":"Sehnde, Stadt","type":"Stadt"},"district":{"key":"03241","name":"Region Hannover","type":"Landkreis"},"federalState":{"key":"03","name":"Niedersachsen"}},{"name":"Zum Kanal","postalCode":"31319","locality":"Sehnde","municipality":{"key":"03241016","name":"Sehnde, Stadt","type":"Stadt"},"district":{"key":"03241","name":"Region Hannover","type":"Landkreis"},"federalState":{"key":"03","name":"Niedersachsen"}},{"name":"Zum Ritterbusch","postalCode":"31319","locality":"Sehnde","municipality":{"key":"03241016","name":"Sehnde, Stadt","type":"Stadt"},"district":{"key":"03241","name":"Region Hannover","type":"Landkreis"},"federalState":{"key":"03","name":"Niedersachsen"}},{"name":"Zur Alten Schmiede","postalCode":"31319","locality":"Sehnde","municipality":{"key":"03241016","name":"Sehnde, Stadt","type":"Stadt"},"district":{"key":"03241","name":"Region Hannover","type":"Landkreis"},"federalState":{"key":"03","name":"Niedersachsen"}},]