[{"name":"Am Höpflberg","postalCode":"94139","locality":"Breitenberg","municipality":{"key":"09275118","name":"Breitenberg","type":"Kreisangehörige_Gemeinde"},"district":{"key":"09275","name":"Passau","type":"Landkreis"},"federalState":{"key":"09","name":"Bayern"}},{"name":"Amselweg","postalCode":"25597","locality":"Breitenberg","municipality":{"key":"01061016","name":"Breitenberg","type":"Kreisangehörige_Gemeinde"},"district":{"key":"01061","name":"Steinburg","type":"Kreis"},"federalState":{"key":"01","name":"Schleswig-Holstein"}},{"name":"Bergsiedlung","postalCode":"94139","locality":"Breitenberg","municipality":{"key":"09275118","name":"Breitenberg","type":"Kreisangehörige_Gemeinde"},"district":{"key":"09275","name":"Passau","type":"Landkreis"},"federalState":{"key":"09","name":"Bayern"}},{"name":"Böhmerwaldstr.","postalCode":"94139","locality":"Breitenberg","municipality":{"key":"09275118","name":"Breitenberg","type":"Kreisangehörige_Gemeinde"},"district":{"key":"09275","name":"Passau","type":"Landkreis"},"federalState":{"key":"09","name":"Bayern"}},{"name":"Buchbinderstr.","postalCode":"94139","locality":"Breitenberg","municipality":{"key":"09275118","name":"Breitenberg","type":"Kreisangehörige_Gemeinde"},"district":{"key":"09275","name":"Passau","type":"Landkreis"},"federalState":{"key":"09","name":"Bayern"}},{"name":"Doblingerstr.","postalCode":"94139","locality":"Breitenberg","municipality":{"key":"09275118","name":"Breitenberg","type":"Kreisangehörige_Gemeinde"},"district":{"key":"09275","name":"Passau","type":"Landkreis"},"federalState":{"key":"09","name":"Bayern"}},{"name":"Dreihiaslstr.","postalCode":"94139","locality":"Breitenberg","municipality":{"key":"09275118","name":"Breitenberg","type":"Kreisangehörige_Gemeinde"},"district":{"key":"09275","name":"Passau","type":"Landkreis"},"federalState":{"key":"09","name":"Bayern"}},{"name":"Dreisesselstr.","postalCode":"94139","locality":"Breitenberg","municipality":{"key":"09275118","name":"Breitenberg","type":"Kreisangehörige_Gemeinde"},"district":{"key":"09275","name":"Passau","type":"Landkreis"},"federalState":{"key":"09","name":"Bayern"}},{"name":"Drosselweg","postalCode":"25597","locality":"Breitenberg","municipality":{"key":"01061016","name":"Breitenberg","type":"Kreisangehörige_Gemeinde"},"district":{"key":"01061","name":"Steinburg","type":"Kreis"},"federalState":{"key":"01","name":"Schleswig-Holstein"}},{"name":"Eichedeer Str.","postalCode":"22964","locality":"Steinburg","municipality":{"key":"01062091","name":"Steinburg","type":"Kreisangehörige_Gemeinde"},"district":{"key":"01062","name":"Stormarn","type":"Kreis"},"federalState":{"key":"01","name":"Schleswig-Holstein"}},{"name":"Eichenkamp","postalCode":"22964","locality":"Steinburg","municipality":{"key":"01062091","name":"Steinburg","type":"Kreisangehörige_Gemeinde"},"district":{"key":"01062","name":"Stormarn","type":"Kreis"},"federalState":{"key":"01","name":"Schleswig-Holstein"}},{"name":"Fasanenweg","postalCode":"25597","locality":"Breitenberg","municipality":{"key":"01061016","name":"Breitenberg","type":"Kreisangehörige_Gemeinde"},"district":{"key":"01061","name":"Steinburg","type":"Kreis"},"federalState":{"key":"01","name":"Schleswig-Holstein"}},{"name":"Flurstr.","postalCode":"94139","locality":"Breitenberg","municipality":{"key":"09275118","name":"Breitenberg","type":"Kreisangehörige_Gemeinde"},"district":{"key":"09275","name":"Passau","type":"Landkreis"},"federalState":{"key":"09","name":"Bayern"}},{"name":"Gegenbachstr.","postalCode":"94139","locality":"Breitenberg","municipality":{"key":"09275118","name":"Breitenberg","type":"Kreisangehörige_Gemeinde"},"district":{"key":"09275","name":"Passau","type":"Landkreis"},"federalState":{"key":"09","name":"Bayern"}},{"name":"Grenzstr.","postalCode":"94139","locality":"Breitenberg","municipality":{"key":"09275118","name":"Breitenberg","type":"Kreisangehörige_Gemeinde"},"district":{"key":"09275","name":"Passau","type":"Landkreis"},"federalState":{"key":"09","name":"Bayern"}},{"name":"Harslemstr.","postalCode":"94139","locality":"Breitenberg","municipality":{"key":"09275118","name":"Breitenberg","type":"Kreisangehörige_Gemeinde"},"district":{"key":"09275","name":"Passau","type":"Landkreis"},"federalState":{"key":"09","name":"Bayern"}},{"name":"Hauptstr.","postalCode":"25597","locality":"Breitenberg","municipality":{"key":"01061016","name":"Breitenberg","type":"Kreisangehörige_Gemeinde"},"district":{"key":"01061","name":"Steinburg","type":"Kreis"},"federalState":{"key":"01","name":"Schleswig-Holstein"}},{"name":"Hauzenberger Str.","postalCode":"94139","locality":"Breitenberg","municipality":{"key":"09275118","name":"Breitenberg","type":"Kreisangehörige_Gemeinde"},"district":{"key":"09275","name":"Passau","type":"Landkreis"},"federalState":{"key":"09","name":"Bayern"}},{"name":"Hofberg","postalCode":"25597","locality":"Breitenberg","municipality":{"key":"01061016","name":"Breitenberg","type":"Kreisangehörige_Gemeinde"},"district":{"key":"01061","name":"Steinburg","type":"Kreis"},"federalState":{"key":"01","name":"Schleswig-Holstein"}},{"name":"Höpflbergstr.","postalCode":"94139","locality":"Breitenberg","municipality":{"key":"09275118","name":"Breitenberg","type":"Kreisangehörige_Gemeinde"},"district":{"key":"09275","name":"Passau","type":"Landkreis"},"federalState":{"key":"09","name":"Bayern"}},{"name":"Im Wiesengrund","postalCode":"22964","locality":"Steinburg","municipality":{"key":"01062091","name":"Steinburg","type":"Kreisangehörige_Gemeinde"},"district":{"key":"01062","name":"Stormarn","type":"Kreis"},"federalState":{"key":"01","name":"Schleswig-Holstein"}},{"name":"Johanna Weg","postalCode":"22964","locality":"Steinburg","municipality":{"key":"01062091","name":"Steinburg","type":"Kreisangehörige_Gemeinde"},"district":{"key":"01062","name":"Stormarn","type":"Kreis"},"federalState":{"key":"01","name":"Schleswig-Holstein"}},{"name":"Kapellenweg","postalCode":"94139","locality":"Breitenberg","municipality":{"key":"09275118","name":"Breitenberg","type":"Kreisangehörige_Gemeinde"},"district":{"key":"09275","name":"Passau","type":"Landkreis"},"federalState":{"key":"09","name":"Bayern"}},{"name":"Kirchenstr.","postalCode":"25597","locality":"Breitenberg","municipality":{"key":"01061016","name":"Breitenberg","type":"Kreisangehörige_Gemeinde"},"district":{"key":"01061","name":"Steinburg","type":"Kreis"},"federalState":{"key":"01","name":"Schleswig-Holstein"}},{"name":"Kohlstatt","postalCode":"94139","locality":"Breitenberg","municipality":{"key":"09275118","name":"Breitenberg","type":"Kreisangehörige_Gemeinde"},"district":{"key":"09275","name":"Passau","type":"Landkreis"},"federalState":{"key":"09","name":"Bayern"}},{"name":"Lasbeker Weg","postalCode":"22964","locality":"Steinburg","municipality":{"key":"01062091","name":"Steinburg","type":"Kreisangehörige_Gemeinde"},"district":{"key":"01062","name":"Stormarn","type":"Kreis"},"federalState":{"key":"01","name":"Schleswig-Holstein"}},{"name":"Lindenallee","postalCode":"22964","locality":"Steinburg","municipality":{"key":"01062091","name":"Steinburg","type":"Kreisangehörige_Gemeinde"},"district":{"key":"01062","name":"Stormarn","type":"Kreis"},"federalState":{"key":"01","name":"Schleswig-Holstein"}},{"name":"Lipshorst","postalCode":"22964","locality":"Steinburg","municipality":{"key":"01062091","name":"Steinburg","type":"Kreisangehörige_Gemeinde"},"district":{"key":"01062","name":"Stormarn","type":"Kreis"},"federalState":{"key":"01","name":"Schleswig-Holstein"}},{"name":"Lübecker Str.","postalCode":"22964","locality":"Steinburg","municipality":{"key":"01062091","name":"Steinburg","type":"Kreisangehörige_Gemeinde"},"district":{"key":"01062","name":"Stormarn","type":"Kreis"},"federalState":{"key":"01","name":"Schleswig-Holstein"}},{"name":"Michael-Uhrmann-Str.","postalCode":"94139","locality":"Breitenberg","municipality":{"key":"09275118","name":"Breitenberg","type":"Kreisangehörige_Gemeinde"},"district":{"key":"09275","name":"Passau","type":"Landkreis"},"federalState":{"key":"09","name":"Bayern"}},{"name":"Mühlweg","postalCode":"94139","locality":"Breitenberg","municipality":{"key":"09275118","name":"Breitenberg","type":"Kreisangehörige_Gemeinde"},"district":{"key":"09275","name":"Passau","type":"Landkreis"},"federalState":{"key":"09","name":"Bayern"}},{"name":"Oldesloer Str.","postalCode":"22964","locality":"Steinburg","municipality":{"key":"01062091","name":"Steinburg","type":"Kreisangehörige_Gemeinde"},"district":{"key":"01062","name":"Stormarn","type":"Kreis"},"federalState":{"key":"01","name":"Schleswig-Holstein"}},{"name":"Olivia & Eva Weg","postalCode":"22964","locality":"Steinburg","municipality":{"key":"01062091","name":"Steinburg","type":"Kreisangehörige_Gemeinde"},"district":{"key":"01062","name":"Stormarn","type":"Kreis"},"federalState":{"key":"01","name":"Schleswig-Holstein"}},{"name":"Passauer Str.","postalCode":"94139","locality":"Breitenberg","municipality":{"key":"09275118","name":"Breitenberg","type":"Kreisangehörige_Gemeinde"},"district":{"key":"09275","name":"Passau","type":"Landkreis"},"federalState":{"key":"09","name":"Bayern"}},{"name":"Pausenweg","postalCode":"94139","locality":"Breitenberg","municipality":{"key":"09275118","name":"Breitenberg","type":"Kreisangehörige_Gemeinde"},"district":{"key":"09275","name":"Passau","type":"Landkreis"},"federalState":{"key":"09","name":"Bayern"}},{"name":"Rastbüchlstr.","postalCode":"94139","locality":"Breitenberg","municipality":{"key":"09275118","name":"Breitenberg","type":"Kreisangehörige_Gemeinde"},"district":{"key":"09275","name":"Passau","type":"Landkreis"},"federalState":{"key":"09","name":"Bayern"}},{"name":"Rathausplatz","postalCode":"94139","locality":"Breitenberg","municipality":{"key":"09275118","name":"Breitenberg","type":"Kreisangehörige_Gemeinde"},"district":{"key":"09275","name":"Passau","type":"Landkreis"},"federalState":{"key":"09","name":"Bayern"}},{"name":"Schmiedberg","postalCode":"94139","locality":"Breitenberg","municipality":{"key":"09275118","name":"Breitenberg","type":"Kreisangehörige_Gemeinde"},"district":{"key":"09275","name":"Passau","type":"Landkreis"},"federalState":{"key":"09","name":"Bayern"}},{"name":"Schöllingerweg","postalCode":"94139","locality":"Breitenberg","municipality":{"key":"09275118","name":"Breitenberg","type":"Kreisangehörige_Gemeinde"},"district":{"key":"09275","name":"Passau","type":"Landkreis"},"federalState":{"key":"09","name":"Bayern"}},{"name":"Schönberghäuser","postalCode":"94139","locality":"Breitenberg","municipality":{"key":"09275118","name":"Breitenberg","type":"Kreisangehörige_Gemeinde"},"district":{"key":"09275","name":"Passau","type":"Landkreis"},"federalState":{"key":"09","name":"Bayern"}},{"name":"Schulstr.","postalCode":"94139","locality":"Breitenberg","municipality":{"key":"09275118","name":"Breitenberg","type":"Kreisangehörige_Gemeinde"},"district":{"key":"09275","name":"Passau","type":"Landkreis"},"federalState":{"key":"09","name":"Bayern"}},{"name":"Störweg","postalCode":"25597","locality":"Breitenberg","municipality":{"key":"01061016","name":"Breitenberg","type":"Kreisangehörige_Gemeinde"},"district":{"key":"01061","name":"Steinburg","type":"Kreis"},"federalState":{"key":"01","name":"Schleswig-Holstein"}},{"name":"Teichweg","postalCode":"94139","locality":"Breitenberg","municipality":{"key":"09275118","name":"Breitenberg","type":"Kreisangehörige_Gemeinde"},"district":{"key":"09275","name":"Passau","type":"Landkreis"},"federalState":{"key":"09","name":"Bayern"}},{"name":"Wegscheider Str.","postalCode":"94139","locality":"Breitenberg","municipality":{"key":"09275118","name":"Breitenberg","type":"Kreisangehörige_Gemeinde"},"district":{"key":"09275","name":"Passau","type":"Landkreis"},"federalState":{"key":"09","name":"Bayern"}},]