[{"name":"Am Feldrain","postalCode":"92696","locality":"Flossenbürg","municipality":{"key":"09374122","name":"Flossenbürg","type":"Kreisangehörige_Gemeinde"},"district":{"key":"09374","name":"Neustadt a.d.Waldnaab","type":"Landkreis"},"federalState":{"key":"09","name":"Bayern"}},{"name":"Am Kochbühl","postalCode":"92696","locality":"Flossenbürg","municipality":{"key":"09374122","name":"Flossenbürg","type":"Kreisangehörige_Gemeinde"},"district":{"key":"09374","name":"Neustadt a.d.Waldnaab","type":"Landkreis"},"federalState":{"key":"09","name":"Bayern"}},{"name":"Am Vogelherd","postalCode":"92696","locality":"Flossenbürg","municipality":{"key":"09374122","name":"Flossenbürg","type":"Kreisangehörige_Gemeinde"},"district":{"key":"09374","name":"Neustadt a.d.Waldnaab","type":"Landkreis"},"federalState":{"key":"09","name":"Bayern"}},{"name":"Birkenstr.","postalCode":"92696","locality":"Flossenbürg","municipality":{"key":"09374122","name":"Flossenbürg","type":"Kreisangehörige_Gemeinde"},"district":{"key":"09374","name":"Neustadt a.d.Waldnaab","type":"Landkreis"},"federalState":{"key":"09","name":"Bayern"}},{"name":"Bocksbühlweg","postalCode":"92696","locality":"Flossenbürg","municipality":{"key":"09374122","name":"Flossenbürg","type":"Kreisangehörige_Gemeinde"},"district":{"key":"09374","name":"Neustadt a.d.Waldnaab","type":"Landkreis"},"federalState":{"key":"09","name":"Bayern"}},{"name":"Buchenstr.","postalCode":"92696","locality":"Flossenbürg","municipality":{"key":"09374122","name":"Flossenbürg","type":"Kreisangehörige_Gemeinde"},"district":{"key":"09374","name":"Neustadt a.d.Waldnaab","type":"Landkreis"},"federalState":{"key":"09","name":"Bayern"}},{"name":"Burgweg","postalCode":"92696","locality":"Flossenbürg","municipality":{"key":"09374122","name":"Flossenbürg","type":"Kreisangehörige_Gemeinde"},"district":{"key":"09374","name":"Neustadt a.d.Waldnaab","type":"Landkreis"},"federalState":{"key":"09","name":"Bayern"}},{"name":"Egerlandstr.","postalCode":"92696","locality":"Flossenbürg","municipality":{"key":"09374122","name":"Flossenbürg","type":"Kreisangehörige_Gemeinde"},"district":{"key":"09374","name":"Neustadt a.d.Waldnaab","type":"Landkreis"},"federalState":{"key":"09","name":"Bayern"}},{"name":"Fichtenstr.","postalCode":"92696","locality":"Flossenbürg","municipality":{"key":"09374122","name":"Flossenbürg","type":"Kreisangehörige_Gemeinde"},"district":{"key":"09374","name":"Neustadt a.d.Waldnaab","type":"Landkreis"},"federalState":{"key":"09","name":"Bayern"}},{"name":"Flossenbürger Str.","postalCode":"92696","locality":"Flossenbürg","municipality":{"key":"09374122","name":"Flossenbürg","type":"Kreisangehörige_Gemeinde"},"district":{"key":"09374","name":"Neustadt a.d.Waldnaab","type":"Landkreis"},"federalState":{"key":"09","name":"Bayern"}},{"name":"Floßer Str.","postalCode":"92696","locality":"Flossenbürg","municipality":{"key":"09374122","name":"Flossenbürg","type":"Kreisangehörige_Gemeinde"},"district":{"key":"09374","name":"Neustadt a.d.Waldnaab","type":"Landkreis"},"federalState":{"key":"09","name":"Bayern"}},{"name":"Föhrerl","postalCode":"92696","locality":"Flossenbürg","municipality":{"key":"09374122","name":"Flossenbürg","type":"Kreisangehörige_Gemeinde"},"district":{"key":"09374","name":"Neustadt a.d.Waldnaab","type":"Landkreis"},"federalState":{"key":"09","name":"Bayern"}},{"name":"Froschau","postalCode":"92696","locality":"Flossenbürg","municipality":{"key":"09374122","name":"Flossenbürg","type":"Kreisangehörige_Gemeinde"},"district":{"key":"09374","name":"Neustadt a.d.Waldnaab","type":"Landkreis"},"federalState":{"key":"09","name":"Bayern"}},{"name":"Gaismühlweg","postalCode":"92696","locality":"Flossenbürg","municipality":{"key":"09374122","name":"Flossenbürg","type":"Kreisangehörige_Gemeinde"},"district":{"key":"09374","name":"Neustadt a.d.Waldnaab","type":"Landkreis"},"federalState":{"key":"09","name":"Bayern"}},{"name":"Gedächtnisallee","postalCode":"92696","locality":"Flossenbürg","municipality":{"key":"09374122","name":"Flossenbürg","type":"Kreisangehörige_Gemeinde"},"district":{"key":"09374","name":"Neustadt a.d.Waldnaab","type":"Landkreis"},"federalState":{"key":"09","name":"Bayern"}},{"name":"Gollwitzerweg","postalCode":"92696","locality":"Flossenbürg","municipality":{"key":"09374122","name":"Flossenbürg","type":"Kreisangehörige_Gemeinde"},"district":{"key":"09374","name":"Neustadt a.d.Waldnaab","type":"Landkreis"},"federalState":{"key":"09","name":"Bayern"}},{"name":"Hammerbach","postalCode":"92696","locality":"Flossenbürg","municipality":{"key":"09374122","name":"Flossenbürg","type":"Kreisangehörige_Gemeinde"},"district":{"key":"09374","name":"Neustadt a.d.Waldnaab","type":"Landkreis"},"federalState":{"key":"09","name":"Bayern"}},{"name":"Hans-Birk-Str.","postalCode":"92696","locality":"Flossenbürg","municipality":{"key":"09374122","name":"Flossenbürg","type":"Kreisangehörige_Gemeinde"},"district":{"key":"09374","name":"Neustadt a.d.Waldnaab","type":"Landkreis"},"federalState":{"key":"09","name":"Bayern"}},{"name":"Hohenstaufenstr.","postalCode":"92696","locality":"Flossenbürg","municipality":{"key":"09374122","name":"Flossenbürg","type":"Kreisangehörige_Gemeinde"},"district":{"key":"09374","name":"Neustadt a.d.Waldnaab","type":"Landkreis"},"federalState":{"key":"09","name":"Bayern"}},{"name":"Hutanger","postalCode":"92696","locality":"Flossenbürg","municipality":{"key":"09374122","name":"Flossenbürg","type":"Kreisangehörige_Gemeinde"},"district":{"key":"09374","name":"Neustadt a.d.Waldnaab","type":"Landkreis"},"federalState":{"key":"09","name":"Bayern"}},{"name":"In der Paint","postalCode":"92696","locality":"Flossenbürg","municipality":{"key":"09374122","name":"Flossenbürg","type":"Kreisangehörige_Gemeinde"},"district":{"key":"09374","name":"Neustadt a.d.Waldnaab","type":"Landkreis"},"federalState":{"key":"09","name":"Bayern"}},{"name":"Jahnstr.","postalCode":"92696","locality":"Flossenbürg","municipality":{"key":"09374122","name":"Flossenbürg","type":"Kreisangehörige_Gemeinde"},"district":{"key":"09374","name":"Neustadt a.d.Waldnaab","type":"Landkreis"},"federalState":{"key":"09","name":"Bayern"}},{"name":"Kapellenberg","postalCode":"92696","locality":"Flossenbürg","municipality":{"key":"09374122","name":"Flossenbürg","type":"Kreisangehörige_Gemeinde"},"district":{"key":"09374","name":"Neustadt a.d.Waldnaab","type":"Landkreis"},"federalState":{"key":"09","name":"Bayern"}},{"name":"Kirchsteig","postalCode":"92696","locality":"Flossenbürg","municipality":{"key":"09374122","name":"Flossenbürg","type":"Kreisangehörige_Gemeinde"},"district":{"key":"09374","name":"Neustadt a.d.Waldnaab","type":"Landkreis"},"federalState":{"key":"09","name":"Bayern"}},{"name":"Kirchweg","postalCode":"92696","locality":"Flossenbürg","municipality":{"key":"09374122","name":"Flossenbürg","type":"Kreisangehörige_Gemeinde"},"district":{"key":"09374","name":"Neustadt a.d.Waldnaab","type":"Landkreis"},"federalState":{"key":"09","name":"Bayern"}},{"name":"Kleeberg","postalCode":"92696","locality":"Flossenbürg","municipality":{"key":"09374122","name":"Flossenbürg","type":"Kreisangehörige_Gemeinde"},"district":{"key":"09374","name":"Neustadt a.d.Waldnaab","type":"Landkreis"},"federalState":{"key":"09","name":"Bayern"}},{"name":"Lindenstr.","postalCode":"92696","locality":"Flossenbürg","municipality":{"key":"09374122","name":"Flossenbürg","type":"Kreisangehörige_Gemeinde"},"district":{"key":"09374","name":"Neustadt a.d.Waldnaab","type":"Landkreis"},"federalState":{"key":"09","name":"Bayern"}},{"name":"Oberer Plattenberg","postalCode":"92696","locality":"Flossenbürg","municipality":{"key":"09374122","name":"Flossenbürg","type":"Kreisangehörige_Gemeinde"},"district":{"key":"09374","name":"Neustadt a.d.Waldnaab","type":"Landkreis"},"federalState":{"key":"09","name":"Bayern"}},{"name":"Preßling","postalCode":"92696","locality":"Flossenbürg","municipality":{"key":"09374122","name":"Flossenbürg","type":"Kreisangehörige_Gemeinde"},"district":{"key":"09374","name":"Neustadt a.d.Waldnaab","type":"Landkreis"},"federalState":{"key":"09","name":"Bayern"}},{"name":"Ringweg","postalCode":"92696","locality":"Flossenbürg","municipality":{"key":"09374122","name":"Flossenbürg","type":"Kreisangehörige_Gemeinde"},"district":{"key":"09374","name":"Neustadt a.d.Waldnaab","type":"Landkreis"},"federalState":{"key":"09","name":"Bayern"}},{"name":"Rosenstr.","postalCode":"92696","locality":"Flossenbürg","municipality":{"key":"09374122","name":"Flossenbürg","type":"Kreisangehörige_Gemeinde"},"district":{"key":"09374","name":"Neustadt a.d.Waldnaab","type":"Landkreis"},"federalState":{"key":"09","name":"Bayern"}},{"name":"Rückersmühle","postalCode":"92696","locality":"Flossenbürg","municipality":{"key":"09374122","name":"Flossenbürg","type":"Kreisangehörige_Gemeinde"},"district":{"key":"09374","name":"Neustadt a.d.Waldnaab","type":"Landkreis"},"federalState":{"key":"09","name":"Bayern"}},{"name":"Rumpelbachstr.","postalCode":"92696","locality":"Flossenbürg","municipality":{"key":"09374122","name":"Flossenbürg","type":"Kreisangehörige_Gemeinde"},"district":{"key":"09374","name":"Neustadt a.d.Waldnaab","type":"Landkreis"},"federalState":{"key":"09","name":"Bayern"}},{"name":"Säubergweg","postalCode":"92696","locality":"Flossenbürg","municipality":{"key":"09374122","name":"Flossenbürg","type":"Kreisangehörige_Gemeinde"},"district":{"key":"09374","name":"Neustadt a.d.Waldnaab","type":"Landkreis"},"federalState":{"key":"09","name":"Bayern"}},{"name":"Schloßbergstr.","postalCode":"92696","locality":"Flossenbürg","municipality":{"key":"09374122","name":"Flossenbürg","type":"Kreisangehörige_Gemeinde"},"district":{"key":"09374","name":"Neustadt a.d.Waldnaab","type":"Landkreis"},"federalState":{"key":"09","name":"Bayern"}},{"name":"Schulweg","postalCode":"92696","locality":"Flossenbürg","municipality":{"key":"09374122","name":"Flossenbürg","type":"Kreisangehörige_Gemeinde"},"district":{"key":"09374","name":"Neustadt a.d.Waldnaab","type":"Landkreis"},"federalState":{"key":"09","name":"Bayern"}},{"name":"Silberhüttenstr.","postalCode":"92696","locality":"Flossenbürg","municipality":{"key":"09374122","name":"Flossenbürg","type":"Kreisangehörige_Gemeinde"},"district":{"key":"09374","name":"Neustadt a.d.Waldnaab","type":"Landkreis"},"federalState":{"key":"09","name":"Bayern"}},{"name":"Simmergasse","postalCode":"92696","locality":"Flossenbürg","municipality":{"key":"09374122","name":"Flossenbürg","type":"Kreisangehörige_Gemeinde"},"district":{"key":"09374","name":"Neustadt a.d.Waldnaab","type":"Landkreis"},"federalState":{"key":"09","name":"Bayern"}},{"name":"Stieberweg","postalCode":"92696","locality":"Flossenbürg","municipality":{"key":"09374122","name":"Flossenbürg","type":"Kreisangehörige_Gemeinde"},"district":{"key":"09374","name":"Neustadt a.d.Waldnaab","type":"Landkreis"},"federalState":{"key":"09","name":"Bayern"}},{"name":"Sudetenstr.","postalCode":"92696","locality":"Flossenbürg","municipality":{"key":"09374122","name":"Flossenbürg","type":"Kreisangehörige_Gemeinde"},"district":{"key":"09374","name":"Neustadt a.d.Waldnaab","type":"Landkreis"},"federalState":{"key":"09","name":"Bayern"}},{"name":"Tulpenstr.","postalCode":"92696","locality":"Flossenbürg","municipality":{"key":"09374122","name":"Flossenbürg","type":"Kreisangehörige_Gemeinde"},"district":{"key":"09374","name":"Neustadt a.d.Waldnaab","type":"Landkreis"},"federalState":{"key":"09","name":"Bayern"}},{"name":"Unterer Plattenberg","postalCode":"92696","locality":"Flossenbürg","municipality":{"key":"09374122","name":"Flossenbürg","type":"Kreisangehörige_Gemeinde"},"district":{"key":"09374","name":"Neustadt a.d.Waldnaab","type":"Landkreis"},"federalState":{"key":"09","name":"Bayern"}},{"name":"Waldkirchner Str.","postalCode":"92696","locality":"Flossenbürg","municipality":{"key":"09374122","name":"Flossenbürg","type":"Kreisangehörige_Gemeinde"},"district":{"key":"09374","name":"Neustadt a.d.Waldnaab","type":"Landkreis"},"federalState":{"key":"09","name":"Bayern"}},{"name":"Wanderweg 1","postalCode":"92696","locality":"Flossenbürg","municipality":{"key":"09374122","name":"Flossenbürg","type":"Kreisangehörige_Gemeinde"},"district":{"key":"09374","name":"Neustadt a.d.Waldnaab","type":"Landkreis"},"federalState":{"key":"09","name":"Bayern"}},{"name":"Weg zur Burg","postalCode":"92696","locality":"Flossenbürg","municipality":{"key":"09374122","name":"Flossenbürg","type":"Kreisangehörige_Gemeinde"},"district":{"key":"09374","name":"Neustadt a.d.Waldnaab","type":"Landkreis"},"federalState":{"key":"09","name":"Bayern"}},{"name":"Weiherweg","postalCode":"92696","locality":"Flossenbürg","municipality":{"key":"09374122","name":"Flossenbürg","type":"Kreisangehörige_Gemeinde"},"district":{"key":"09374","name":"Neustadt a.d.Waldnaab","type":"Landkreis"},"federalState":{"key":"09","name":"Bayern"}},{"name":"Wiesenstr.","postalCode":"92696","locality":"Flossenbürg","municipality":{"key":"09374122","name":"Flossenbürg","type":"Kreisangehörige_Gemeinde"},"district":{"key":"09374","name":"Neustadt a.d.Waldnaab","type":"Landkreis"},"federalState":{"key":"09","name":"Bayern"}},{"name":"Wurmsteinweg","postalCode":"92696","locality":"Flossenbürg","municipality":{"key":"09374122","name":"Flossenbürg","type":"Kreisangehörige_Gemeinde"},"district":{"key":"09374","name":"Neustadt a.d.Waldnaab","type":"Landkreis"},"federalState":{"key":"09","name":"Bayern"}},{"name":"Zeilweg","postalCode":"92696","locality":"Flossenbürg","municipality":{"key":"09374122","name":"Flossenbürg","type":"Kreisangehörige_Gemeinde"},"district":{"key":"09374","name":"Neustadt a.d.Waldnaab","type":"Landkreis"},"federalState":{"key":"09","name":"Bayern"}},]