[{"name":"98-Stufen-Weg","postalCode":"96465","locality":"Neustadt bei Coburg","municipality":{"key":"09473151","name":"Neustadt b.Coburg, GKSt","type":"Große_Kreisstadt"},"district":{"key":"09473","name":"Coburg","type":"Landkreis"},"federalState":{"key":"09","name":"Bayern"}},{"name":"Ahorner Str.","postalCode":"96253","locality":"Untersiemau","municipality":{"key":"09473170","name":"Untersiemau","type":"Kreisangehörige_Gemeinde"},"district":{"key":"09473","name":"Coburg","type":"Landkreis"},"federalState":{"key":"09","name":"Bayern"}},{"name":"Alter Coburger Weg","postalCode":"96253","locality":"Untersiemau","municipality":{"key":"09473170","name":"Untersiemau","type":"Kreisangehörige_Gemeinde"},"district":{"key":"09473","name":"Coburg","type":"Landkreis"},"federalState":{"key":"09","name":"Bayern"}},{"name":"Alte Schloßstr.","postalCode":"96253","locality":"Untersiemau","municipality":{"key":"09473170","name":"Untersiemau","type":"Kreisangehörige_Gemeinde"},"district":{"key":"09473","name":"Coburg","type":"Landkreis"},"federalState":{"key":"09","name":"Bayern"}},{"name":"Am Bauhof","postalCode":"96253","locality":"Untersiemau","municipality":{"key":"09473170","name":"Untersiemau","type":"Kreisangehörige_Gemeinde"},"district":{"key":"09473","name":"Coburg","type":"Landkreis"},"federalState":{"key":"09","name":"Bayern"}},{"name":"Am Berg","postalCode":"96253","locality":"Untersiemau","municipality":{"key":"09473170","name":"Untersiemau","type":"Kreisangehörige_Gemeinde"},"district":{"key":"09473","name":"Coburg","type":"Landkreis"},"federalState":{"key":"09","name":"Bayern"}},{"name":"Am Hahnberg","postalCode":"96253","locality":"Untersiemau","municipality":{"key":"09473170","name":"Untersiemau","type":"Kreisangehörige_Gemeinde"},"district":{"key":"09473","name":"Coburg","type":"Landkreis"},"federalState":{"key":"09","name":"Bayern"}},{"name":"Am Schrot","postalCode":"96253","locality":"Untersiemau","municipality":{"key":"09473170","name":"Untersiemau","type":"Kreisangehörige_Gemeinde"},"district":{"key":"09473","name":"Coburg","type":"Landkreis"},"federalState":{"key":"09","name":"Bayern"}},{"name":"Amselweg","postalCode":"96253","locality":"Untersiemau","municipality":{"key":"09473170","name":"Untersiemau","type":"Kreisangehörige_Gemeinde"},"district":{"key":"09473","name":"Coburg","type":"Landkreis"},"federalState":{"key":"09","name":"Bayern"}},{"name":"Am Steinbruch","postalCode":"96253","locality":"Untersiemau","municipality":{"key":"09473170","name":"Untersiemau","type":"Kreisangehörige_Gemeinde"},"district":{"key":"09473","name":"Coburg","type":"Landkreis"},"federalState":{"key":"09","name":"Bayern"}},{"name":"Am Weingarten","postalCode":"96253","locality":"Untersiemau","municipality":{"key":"09473170","name":"Untersiemau","type":"Kreisangehörige_Gemeinde"},"district":{"key":"09473","name":"Coburg","type":"Landkreis"},"federalState":{"key":"09","name":"Bayern"}},{"name":"An der Klinge","postalCode":"96253","locality":"Untersiemau","municipality":{"key":"09473170","name":"Untersiemau","type":"Kreisangehörige_Gemeinde"},"district":{"key":"09473","name":"Coburg","type":"Landkreis"},"federalState":{"key":"09","name":"Bayern"}},{"name":"An der Sonne","postalCode":"96253","locality":"Untersiemau","municipality":{"key":"09473170","name":"Untersiemau","type":"Kreisangehörige_Gemeinde"},"district":{"key":"09473","name":"Coburg","type":"Landkreis"},"federalState":{"key":"09","name":"Bayern"}},{"name":"Backofengasse","postalCode":"96253","locality":"Untersiemau","municipality":{"key":"09473170","name":"Untersiemau","type":"Kreisangehörige_Gemeinde"},"district":{"key":"09473","name":"Coburg","type":"Landkreis"},"federalState":{"key":"09","name":"Bayern"}},{"name":"Bahnhofstr.","postalCode":"96253","locality":"Untersiemau","municipality":{"key":"09473170","name":"Untersiemau","type":"Kreisangehörige_Gemeinde"},"district":{"key":"09473","name":"Coburg","type":"Landkreis"},"federalState":{"key":"09","name":"Bayern"}},{"name":"Bamberger Str.","postalCode":"96253","locality":"Untersiemau","municipality":{"key":"09473170","name":"Untersiemau","type":"Kreisangehörige_Gemeinde"},"district":{"key":"09473","name":"Coburg","type":"Landkreis"},"federalState":{"key":"09","name":"Bayern"}},{"name":"Banzer Str.","postalCode":"96253","locality":"Untersiemau","municipality":{"key":"09473170","name":"Untersiemau","type":"Kreisangehörige_Gemeinde"},"district":{"key":"09473","name":"Coburg","type":"Landkreis"},"federalState":{"key":"09","name":"Bayern"}},{"name":"Bergstr.","postalCode":"96253","locality":"Untersiemau","municipality":{"key":"09473170","name":"Untersiemau","type":"Kreisangehörige_Gemeinde"},"district":{"key":"09473","name":"Coburg","type":"Landkreis"},"federalState":{"key":"09","name":"Bayern"}},{"name":"Brähmigs Weg","postalCode":"96253","locality":"Untersiemau","municipality":{"key":"09473170","name":"Untersiemau","type":"Kreisangehörige_Gemeinde"},"district":{"key":"09473","name":"Coburg","type":"Landkreis"},"federalState":{"key":"09","name":"Bayern"}},{"name":"Breiter Weg","postalCode":"96253","locality":"Untersiemau","municipality":{"key":"09473170","name":"Untersiemau","type":"Kreisangehörige_Gemeinde"},"district":{"key":"09473","name":"Coburg","type":"Landkreis"},"federalState":{"key":"09","name":"Bayern"}},{"name":"Brunnenstr.","postalCode":"96253","locality":"Untersiemau","municipality":{"key":"09473170","name":"Untersiemau","type":"Kreisangehörige_Gemeinde"},"district":{"key":"09473","name":"Coburg","type":"Landkreis"},"federalState":{"key":"09","name":"Bayern"}},{"name":"Coburger Str.","postalCode":"96253","locality":"Untersiemau","municipality":{"key":"09473170","name":"Untersiemau","type":"Kreisangehörige_Gemeinde"},"district":{"key":"09473","name":"Coburg","type":"Landkreis"},"federalState":{"key":"09","name":"Bayern"}},{"name":"Denkmalsweg","postalCode":"96253","locality":"Untersiemau","municipality":{"key":"09473170","name":"Untersiemau","type":"Kreisangehörige_Gemeinde"},"district":{"key":"09473","name":"Coburg","type":"Landkreis"},"federalState":{"key":"09","name":"Bayern"}},{"name":"Drosselweg","postalCode":"96253","locality":"Untersiemau","municipality":{"key":"09473170","name":"Untersiemau","type":"Kreisangehörige_Gemeinde"},"district":{"key":"09473","name":"Coburg","type":"Landkreis"},"federalState":{"key":"09","name":"Bayern"}},{"name":"Eichleiten","postalCode":"96253","locality":"Untersiemau","municipality":{"key":"09473170","name":"Untersiemau","type":"Kreisangehörige_Gemeinde"},"district":{"key":"09473","name":"Coburg","type":"Landkreis"},"federalState":{"key":"09","name":"Bayern"}},{"name":"Eisfelder Str.","postalCode":"96253","locality":"Untersiemau","municipality":{"key":"09473170","name":"Untersiemau","type":"Kreisangehörige_Gemeinde"},"district":{"key":"09473","name":"Coburg","type":"Landkreis"},"federalState":{"key":"09","name":"Bayern"}},{"name":"Finkenweg","postalCode":"96253","locality":"Untersiemau","municipality":{"key":"09473170","name":"Untersiemau","type":"Kreisangehörige_Gemeinde"},"district":{"key":"09473","name":"Coburg","type":"Landkreis"},"federalState":{"key":"09","name":"Bayern"}},{"name":"Fuhrmannsgasse","postalCode":"96253","locality":"Untersiemau","municipality":{"key":"09473170","name":"Untersiemau","type":"Kreisangehörige_Gemeinde"},"district":{"key":"09473","name":"Coburg","type":"Landkreis"},"federalState":{"key":"09","name":"Bayern"}},{"name":"Gartenweg","postalCode":"96253","locality":"Untersiemau","municipality":{"key":"09473170","name":"Untersiemau","type":"Kreisangehörige_Gemeinde"},"district":{"key":"09473","name":"Coburg","type":"Landkreis"},"federalState":{"key":"09","name":"Bayern"}},{"name":"Gossenberger Str.","postalCode":"96253","locality":"Untersiemau","municipality":{"key":"09473170","name":"Untersiemau","type":"Kreisangehörige_Gemeinde"},"district":{"key":"09473","name":"Coburg","type":"Landkreis"},"federalState":{"key":"09","name":"Bayern"}},{"name":"Großheirather Str.","postalCode":"96253","locality":"Untersiemau","municipality":{"key":"09473170","name":"Untersiemau","type":"Kreisangehörige_Gemeinde"},"district":{"key":"09473","name":"Coburg","type":"Landkreis"},"federalState":{"key":"09","name":"Bayern"}},{"name":"Grubenweg","postalCode":"96253","locality":"Untersiemau","municipality":{"key":"09473170","name":"Untersiemau","type":"Kreisangehörige_Gemeinde"},"district":{"key":"09473","name":"Coburg","type":"Landkreis"},"federalState":{"key":"09","name":"Bayern"}},{"name":"Grundwiesenstr.","postalCode":"96253","locality":"Untersiemau","municipality":{"key":"09473170","name":"Untersiemau","type":"Kreisangehörige_Gemeinde"},"district":{"key":"09473","name":"Coburg","type":"Landkreis"},"federalState":{"key":"09","name":"Bayern"}},{"name":"Gugelitze","postalCode":"96253","locality":"Untersiemau","municipality":{"key":"09473170","name":"Untersiemau","type":"Kreisangehörige_Gemeinde"},"district":{"key":"09473","name":"Coburg","type":"Landkreis"},"federalState":{"key":"09","name":"Bayern"}},{"name":"Haarther Str.","postalCode":"96253","locality":"Untersiemau","municipality":{"key":"09473170","name":"Untersiemau","type":"Kreisangehörige_Gemeinde"},"district":{"key":"09473","name":"Coburg","type":"Landkreis"},"federalState":{"key":"09","name":"Bayern"}},{"name":"Hauptstr.","postalCode":"96253","locality":"Untersiemau","municipality":{"key":"09473170","name":"Untersiemau","type":"Kreisangehörige_Gemeinde"},"district":{"key":"09473","name":"Coburg","type":"Landkreis"},"federalState":{"key":"09","name":"Bayern"}},{"name":"Heckenweg","postalCode":"96253","locality":"Untersiemau","municipality":{"key":"09473170","name":"Untersiemau","type":"Kreisangehörige_Gemeinde"},"district":{"key":"09473","name":"Coburg","type":"Landkreis"},"federalState":{"key":"09","name":"Bayern"}},{"name":"Herrengasse","postalCode":"96253","locality":"Untersiemau","municipality":{"key":"09473170","name":"Untersiemau","type":"Kreisangehörige_Gemeinde"},"district":{"key":"09473","name":"Coburg","type":"Landkreis"},"federalState":{"key":"09","name":"Bayern"}},{"name":"Hintere Steineller","postalCode":"96253","locality":"Untersiemau","municipality":{"key":"09473170","name":"Untersiemau","type":"Kreisangehörige_Gemeinde"},"district":{"key":"09473","name":"Coburg","type":"Landkreis"},"federalState":{"key":"09","name":"Bayern"}},{"name":"Hirtenberg","postalCode":"96253","locality":"Untersiemau","municipality":{"key":"09473170","name":"Untersiemau","type":"Kreisangehörige_Gemeinde"},"district":{"key":"09473","name":"Coburg","type":"Landkreis"},"federalState":{"key":"09","name":"Bayern"}},{"name":"Hirtengasse","postalCode":"96253","locality":"Untersiemau","municipality":{"key":"09473170","name":"Untersiemau","type":"Kreisangehörige_Gemeinde"},"district":{"key":"09473","name":"Coburg","type":"Landkreis"},"federalState":{"key":"09","name":"Bayern"}},{"name":"Hohensteiner Str.","postalCode":"96253","locality":"Untersiemau","municipality":{"key":"09473170","name":"Untersiemau","type":"Kreisangehörige_Gemeinde"},"district":{"key":"09473","name":"Coburg","type":"Landkreis"},"federalState":{"key":"09","name":"Bayern"}},{"name":"Hohe Str.","postalCode":"96253","locality":"Untersiemau","municipality":{"key":"09473170","name":"Untersiemau","type":"Kreisangehörige_Gemeinde"},"district":{"key":"09473","name":"Coburg","type":"Landkreis"},"federalState":{"key":"09","name":"Bayern"}},{"name":"Holzacker","postalCode":"96253","locality":"Untersiemau","municipality":{"key":"09473170","name":"Untersiemau","type":"Kreisangehörige_Gemeinde"},"district":{"key":"09473","name":"Coburg","type":"Landkreis"},"federalState":{"key":"09","name":"Bayern"}},{"name":"Holzgasse","postalCode":"96253","locality":"Untersiemau","municipality":{"key":"09473170","name":"Untersiemau","type":"Kreisangehörige_Gemeinde"},"district":{"key":"09473","name":"Coburg","type":"Landkreis"},"federalState":{"key":"09","name":"Bayern"}},{"name":"Ilmenauer Str.","postalCode":"96450","locality":"Coburg","municipality":{"key":"09463000","name":"Coburg","type":"Kreisfreie_Stadt"},"district":{"key":"09463","name":"Coburg","type":"Kreisfreie_Stadt"},"federalState":{"key":"09","name":"Bayern"}},{"name":"Im Grund","postalCode":"96450","locality":"Coburg","municipality":{"key":"09463000","name":"Coburg","type":"Kreisfreie_Stadt"},"district":{"key":"09463","name":"Coburg","type":"Kreisfreie_Stadt"},"federalState":{"key":"09","name":"Bayern"}},{"name":"Im Winkel","postalCode":"96279","locality":"Weidhausen b. Coburg","municipality":{"key":"09473174","name":"Weidhausen b.Coburg","type":"Kreisangehörige_Gemeinde"},"district":{"key":"09473","name":"Coburg","type":"Landkreis"},"federalState":{"key":"09","name":"Bayern"}},{"name":"Industriestr.","postalCode":"96465","locality":"Neustadt bei Coburg","municipality":{"key":"09473151","name":"Neustadt b.Coburg, GKSt","type":"Große_Kreisstadt"},"district":{"key":"09473","name":"Coburg","type":"Landkreis"},"federalState":{"key":"09","name":"Bayern"}},{"name":"Isselburgweg","postalCode":"96450","locality":"Coburg","municipality":{"key":"09463000","name":"Coburg","type":"Kreisfreie_Stadt"},"district":{"key":"09463","name":"Coburg","type":"Kreisfreie_Stadt"},"federalState":{"key":"09","name":"Bayern"}},{"name":"Johannisgasse","postalCode":"96253","locality":"Untersiemau","municipality":{"key":"09473170","name":"Untersiemau","type":"Kreisangehörige_Gemeinde"},"district":{"key":"09473","name":"Coburg","type":"Landkreis"},"federalState":{"key":"09","name":"Bayern"}},{"name":"Kellerweg","postalCode":"96253","locality":"Untersiemau","municipality":{"key":"09473170","name":"Untersiemau","type":"Kreisangehörige_Gemeinde"},"district":{"key":"09473","name":"Coburg","type":"Landkreis"},"federalState":{"key":"09","name":"Bayern"}},{"name":"Kiefernweg","postalCode":"96253","locality":"Untersiemau","municipality":{"key":"09473170","name":"Untersiemau","type":"Kreisangehörige_Gemeinde"},"district":{"key":"09473","name":"Coburg","type":"Landkreis"},"federalState":{"key":"09","name":"Bayern"}},{"name":"Kirchgasse","postalCode":"96253","locality":"Untersiemau","municipality":{"key":"09473170","name":"Untersiemau","type":"Kreisangehörige_Gemeinde"},"district":{"key":"09473","name":"Coburg","type":"Landkreis"},"federalState":{"key":"09","name":"Bayern"}},{"name":"Kirchplatz","postalCode":"96253","locality":"Untersiemau","municipality":{"key":"09473170","name":"Untersiemau","type":"Kreisangehörige_Gemeinde"},"district":{"key":"09473","name":"Coburg","type":"Landkreis"},"federalState":{"key":"09","name":"Bayern"}},{"name":"Kirchsteig","postalCode":"96253","locality":"Untersiemau","municipality":{"key":"09473170","name":"Untersiemau","type":"Kreisangehörige_Gemeinde"},"district":{"key":"09473","name":"Coburg","type":"Landkreis"},"federalState":{"key":"09","name":"Bayern"}},{"name":"Langer Graben","postalCode":"96253","locality":"Untersiemau","municipality":{"key":"09473170","name":"Untersiemau","type":"Kreisangehörige_Gemeinde"},"district":{"key":"09473","name":"Coburg","type":"Landkreis"},"federalState":{"key":"09","name":"Bayern"}},{"name":"Langer Weg","postalCode":"96253","locality":"Untersiemau","municipality":{"key":"09473170","name":"Untersiemau","type":"Kreisangehörige_Gemeinde"},"district":{"key":"09473","name":"Coburg","type":"Landkreis"},"federalState":{"key":"09","name":"Bayern"}},{"name":"Leopoldstr.","postalCode":"96253","locality":"Untersiemau","municipality":{"key":"09473170","name":"Untersiemau","type":"Kreisangehörige_Gemeinde"},"district":{"key":"09473","name":"Coburg","type":"Landkreis"},"federalState":{"key":"09","name":"Bayern"}},{"name":"Lerchenweg","postalCode":"96253","locality":"Untersiemau","municipality":{"key":"09473170","name":"Untersiemau","type":"Kreisangehörige_Gemeinde"},"district":{"key":"09473","name":"Coburg","type":"Landkreis"},"federalState":{"key":"09","name":"Bayern"}},{"name":"Lichtenfelser Str.","postalCode":"96253","locality":"Untersiemau","municipality":{"key":"09473170","name":"Untersiemau","type":"Kreisangehörige_Gemeinde"},"district":{"key":"09473","name":"Coburg","type":"Landkreis"},"federalState":{"key":"09","name":"Bayern"}},{"name":"Meisenweg","postalCode":"96253","locality":"Untersiemau","municipality":{"key":"09473170","name":"Untersiemau","type":"Kreisangehörige_Gemeinde"},"district":{"key":"09473","name":"Coburg","type":"Landkreis"},"federalState":{"key":"09","name":"Bayern"}},{"name":"Möhrleinsweg","postalCode":"96253","locality":"Untersiemau","municipality":{"key":"09473170","name":"Untersiemau","type":"Kreisangehörige_Gemeinde"},"district":{"key":"09473","name":"Coburg","type":"Landkreis"},"federalState":{"key":"09","name":"Bayern"}},{"name":"Mühlgasse","postalCode":"96253","locality":"Untersiemau","municipality":{"key":"09473170","name":"Untersiemau","type":"Kreisangehörige_Gemeinde"},"district":{"key":"09473","name":"Coburg","type":"Landkreis"},"federalState":{"key":"09","name":"Bayern"}},{"name":"Mühlgraben","postalCode":"96253","locality":"Untersiemau","municipality":{"key":"09473170","name":"Untersiemau","type":"Kreisangehörige_Gemeinde"},"district":{"key":"09473","name":"Coburg","type":"Landkreis"},"federalState":{"key":"09","name":"Bayern"}},{"name":"Neue Heimat","postalCode":"96253","locality":"Untersiemau","municipality":{"key":"09473170","name":"Untersiemau","type":"Kreisangehörige_Gemeinde"},"district":{"key":"09473","name":"Coburg","type":"Landkreis"},"federalState":{"key":"09","name":"Bayern"}},{"name":"Neugasse","postalCode":"96253","locality":"Untersiemau","municipality":{"key":"09473170","name":"Untersiemau","type":"Kreisangehörige_Gemeinde"},"district":{"key":"09473","name":"Coburg","type":"Landkreis"},"federalState":{"key":"09","name":"Bayern"}},{"name":"Oberes Gewend","postalCode":"96253","locality":"Untersiemau","municipality":{"key":"09473170","name":"Untersiemau","type":"Kreisangehörige_Gemeinde"},"district":{"key":"09473","name":"Coburg","type":"Landkreis"},"federalState":{"key":"09","name":"Bayern"}},{"name":"Obersiemauer Weg","postalCode":"96253","locality":"Untersiemau","municipality":{"key":"09473170","name":"Untersiemau","type":"Kreisangehörige_Gemeinde"},"district":{"key":"09473","name":"Coburg","type":"Landkreis"},"federalState":{"key":"09","name":"Bayern"}},{"name":"Oßmannsgrund","postalCode":"96253","locality":"Untersiemau","municipality":{"key":"09473170","name":"Untersiemau","type":"Kreisangehörige_Gemeinde"},"district":{"key":"09473","name":"Coburg","type":"Landkreis"},"federalState":{"key":"09","name":"Bayern"}},{"name":"Pestalozzistr.","postalCode":"96253","locality":"Untersiemau","municipality":{"key":"09473170","name":"Untersiemau","type":"Kreisangehörige_Gemeinde"},"district":{"key":"09473","name":"Coburg","type":"Landkreis"},"federalState":{"key":"09","name":"Bayern"}},{"name":"Pfarrgasse","postalCode":"96253","locality":"Untersiemau","municipality":{"key":"09473170","name":"Untersiemau","type":"Kreisangehörige_Gemeinde"},"district":{"key":"09473","name":"Coburg","type":"Landkreis"},"federalState":{"key":"09","name":"Bayern"}},{"name":"Prinzengasse","postalCode":"96253","locality":"Untersiemau","municipality":{"key":"09473170","name":"Untersiemau","type":"Kreisangehörige_Gemeinde"},"district":{"key":"09473","name":"Coburg","type":"Landkreis"},"federalState":{"key":"09","name":"Bayern"}},{"name":"Pyramidenweg","postalCode":"96253","locality":"Untersiemau","municipality":{"key":"09473170","name":"Untersiemau","type":"Kreisangehörige_Gemeinde"},"district":{"key":"09473","name":"Coburg","type":"Landkreis"},"federalState":{"key":"09","name":"Bayern"}},{"name":"Querstr.","postalCode":"96253","locality":"Untersiemau","municipality":{"key":"09473170","name":"Untersiemau","type":"Kreisangehörige_Gemeinde"},"district":{"key":"09473","name":"Coburg","type":"Landkreis"},"federalState":{"key":"09","name":"Bayern"}},{"name":"Ringstr.","postalCode":"96253","locality":"Untersiemau","municipality":{"key":"09473170","name":"Untersiemau","type":"Kreisangehörige_Gemeinde"},"district":{"key":"09473","name":"Coburg","type":"Landkreis"},"federalState":{"key":"09","name":"Bayern"}},{"name":"Schalkauer Str.","postalCode":"96253","locality":"Untersiemau","municipality":{"key":"09473170","name":"Untersiemau","type":"Kreisangehörige_Gemeinde"},"district":{"key":"09473","name":"Coburg","type":"Landkreis"},"federalState":{"key":"09","name":"Bayern"}},{"name":"Schernecker Str.","postalCode":"96253","locality":"Untersiemau","municipality":{"key":"09473170","name":"Untersiemau","type":"Kreisangehörige_Gemeinde"},"district":{"key":"09473","name":"Coburg","type":"Landkreis"},"federalState":{"key":"09","name":"Bayern"}},{"name":"Schloßpark","postalCode":"96253","locality":"Untersiemau","municipality":{"key":"09473170","name":"Untersiemau","type":"Kreisangehörige_Gemeinde"},"district":{"key":"09473","name":"Coburg","type":"Landkreis"},"federalState":{"key":"09","name":"Bayern"}},{"name":"Schloßstr.","postalCode":"96253","locality":"Untersiemau","municipality":{"key":"09473170","name":"Untersiemau","type":"Kreisangehörige_Gemeinde"},"district":{"key":"09473","name":"Coburg","type":"Landkreis"},"federalState":{"key":"09","name":"Bayern"}},{"name":"Schönmannstr.","postalCode":"96253","locality":"Untersiemau","municipality":{"key":"09473170","name":"Untersiemau","type":"Kreisangehörige_Gemeinde"},"district":{"key":"09473","name":"Coburg","type":"Landkreis"},"federalState":{"key":"09","name":"Bayern"}},{"name":"Schopfenleite","postalCode":"96253","locality":"Untersiemau","municipality":{"key":"09473170","name":"Untersiemau","type":"Kreisangehörige_Gemeinde"},"district":{"key":"09473","name":"Coburg","type":"Landkreis"},"federalState":{"key":"09","name":"Bayern"}},{"name":"Schwarzacker","postalCode":"96253","locality":"Untersiemau","municipality":{"key":"09473170","name":"Untersiemau","type":"Kreisangehörige_Gemeinde"},"district":{"key":"09473","name":"Coburg","type":"Landkreis"},"federalState":{"key":"09","name":"Bayern"}},{"name":"Seegasse","postalCode":"96253","locality":"Untersiemau","municipality":{"key":"09473170","name":"Untersiemau","type":"Kreisangehörige_Gemeinde"},"district":{"key":"09473","name":"Coburg","type":"Landkreis"},"federalState":{"key":"09","name":"Bayern"}},{"name":"Seewiesenstr.","postalCode":"96253","locality":"Untersiemau","municipality":{"key":"09473170","name":"Untersiemau","type":"Kreisangehörige_Gemeinde"},"district":{"key":"09473","name":"Coburg","type":"Landkreis"},"federalState":{"key":"09","name":"Bayern"}},{"name":"Seifengasse","postalCode":"96253","locality":"Untersiemau","municipality":{"key":"09473170","name":"Untersiemau","type":"Kreisangehörige_Gemeinde"},"district":{"key":"09473","name":"Coburg","type":"Landkreis"},"federalState":{"key":"09","name":"Bayern"}},{"name":"Sonneberger Str.","postalCode":"96253","locality":"Untersiemau","municipality":{"key":"09473170","name":"Untersiemau","type":"Kreisangehörige_Gemeinde"},"district":{"key":"09473","name":"Coburg","type":"Landkreis"},"federalState":{"key":"09","name":"Bayern"}},{"name":"Sonnenleite","postalCode":"96253","locality":"Untersiemau","municipality":{"key":"09473170","name":"Untersiemau","type":"Kreisangehörige_Gemeinde"},"district":{"key":"09473","name":"Coburg","type":"Landkreis"},"federalState":{"key":"09","name":"Bayern"}},{"name":"Sophienstr.","postalCode":"96253","locality":"Untersiemau","municipality":{"key":"09473170","name":"Untersiemau","type":"Kreisangehörige_Gemeinde"},"district":{"key":"09473","name":"Coburg","type":"Landkreis"},"federalState":{"key":"09","name":"Bayern"}},{"name":"Steinweg","postalCode":"96253","locality":"Untersiemau","municipality":{"key":"09473170","name":"Untersiemau","type":"Kreisangehörige_Gemeinde"},"district":{"key":"09473","name":"Coburg","type":"Landkreis"},"federalState":{"key":"09","name":"Bayern"}},{"name":"Strambergsweg","postalCode":"96253","locality":"Untersiemau","municipality":{"key":"09473170","name":"Untersiemau","type":"Kreisangehörige_Gemeinde"},"district":{"key":"09473","name":"Coburg","type":"Landkreis"},"federalState":{"key":"09","name":"Bayern"}},{"name":"Sudetenstr.","postalCode":"96253","locality":"Untersiemau","municipality":{"key":"09473170","name":"Untersiemau","type":"Kreisangehörige_Gemeinde"},"district":{"key":"09473","name":"Coburg","type":"Landkreis"},"federalState":{"key":"09","name":"Bayern"}},{"name":"Thüringer Str.","postalCode":"96253","locality":"Untersiemau","municipality":{"key":"09473170","name":"Untersiemau","type":"Kreisangehörige_Gemeinde"},"district":{"key":"09473","name":"Coburg","type":"Landkreis"},"federalState":{"key":"09","name":"Bayern"}},{"name":"Triebsdorfer Str.","postalCode":"96253","locality":"Untersiemau","municipality":{"key":"09473170","name":"Untersiemau","type":"Kreisangehörige_Gemeinde"},"district":{"key":"09473","name":"Coburg","type":"Landkreis"},"federalState":{"key":"09","name":"Bayern"}},{"name":"Uferstr.","postalCode":"96253","locality":"Untersiemau","municipality":{"key":"09473170","name":"Untersiemau","type":"Kreisangehörige_Gemeinde"},"district":{"key":"09473","name":"Coburg","type":"Landkreis"},"federalState":{"key":"09","name":"Bayern"}},{"name":"Untersiemauer Str.","postalCode":"96253","locality":"Untersiemau","municipality":{"key":"09473170","name":"Untersiemau","type":"Kreisangehörige_Gemeinde"},"district":{"key":"09473","name":"Coburg","type":"Landkreis"},"federalState":{"key":"09","name":"Bayern"}},{"name":"Vordere Steineller","postalCode":"96253","locality":"Untersiemau","municipality":{"key":"09473170","name":"Untersiemau","type":"Kreisangehörige_Gemeinde"},"district":{"key":"09473","name":"Coburg","type":"Landkreis"},"federalState":{"key":"09","name":"Bayern"}},{"name":"Wagnersiedlung","postalCode":"96253","locality":"Untersiemau","municipality":{"key":"09473170","name":"Untersiemau","type":"Kreisangehörige_Gemeinde"},"district":{"key":"09473","name":"Coburg","type":"Landkreis"},"federalState":{"key":"09","name":"Bayern"}},{"name":"Waldstr.","postalCode":"96253","locality":"Untersiemau","municipality":{"key":"09473170","name":"Untersiemau","type":"Kreisangehörige_Gemeinde"},"district":{"key":"09473","name":"Coburg","type":"Landkreis"},"federalState":{"key":"09","name":"Bayern"}},{"name":"Weideweg","postalCode":"96253","locality":"Untersiemau","municipality":{"key":"09473170","name":"Untersiemau","type":"Kreisangehörige_Gemeinde"},"district":{"key":"09473","name":"Coburg","type":"Landkreis"},"federalState":{"key":"09","name":"Bayern"}},{"name":"Weinbergstr.","postalCode":"96253","locality":"Untersiemau","municipality":{"key":"09473170","name":"Untersiemau","type":"Kreisangehörige_Gemeinde"},"district":{"key":"09473","name":"Coburg","type":"Landkreis"},"federalState":{"key":"09","name":"Bayern"}},{"name":"Weißenbrunner Str.","postalCode":"96253","locality":"Untersiemau","municipality":{"key":"09473170","name":"Untersiemau","type":"Kreisangehörige_Gemeinde"},"district":{"key":"09473","name":"Coburg","type":"Landkreis"},"federalState":{"key":"09","name":"Bayern"}},{"name":"Wiesenstr.","postalCode":"96253","locality":"Untersiemau","municipality":{"key":"09473170","name":"Untersiemau","type":"Kreisangehörige_Gemeinde"},"district":{"key":"09473","name":"Coburg","type":"Landkreis"},"federalState":{"key":"09","name":"Bayern"}},{"name":"Wilhelm-Kirchner-Ring","postalCode":"96253","locality":"Untersiemau","municipality":{"key":"09473170","name":"Untersiemau","type":"Kreisangehörige_Gemeinde"},"district":{"key":"09473","name":"Coburg","type":"Landkreis"},"federalState":{"key":"09","name":"Bayern"}},{"name":"Wirtsberg","postalCode":"96253","locality":"Untersiemau","municipality":{"key":"09473170","name":"Untersiemau","type":"Kreisangehörige_Gemeinde"},"district":{"key":"09473","name":"Coburg","type":"Landkreis"},"federalState":{"key":"09","name":"Bayern"}},{"name":"Zeisigweg","postalCode":"96253","locality":"Untersiemau","municipality":{"key":"09473170","name":"Untersiemau","type":"Kreisangehörige_Gemeinde"},"district":{"key":"09473","name":"Coburg","type":"Landkreis"},"federalState":{"key":"09","name":"Bayern"}},{"name":"Ziegelsdorfer Mühle","postalCode":"96253","locality":"Untersiemau","municipality":{"key":"09473170","name":"Untersiemau","type":"Kreisangehörige_Gemeinde"},"district":{"key":"09473","name":"Coburg","type":"Landkreis"},"federalState":{"key":"09","name":"Bayern"}},{"name":"Äußere Wallstr.","postalCode":"96465","locality":"Neustadt bei Coburg","municipality":{"key":"09473151","name":"Neustadt b.Coburg, GKSt","type":"Große_Kreisstadt"},"district":{"key":"09473","name":"Coburg","type":"Landkreis"},"federalState":{"key":"09","name":"Bayern"}},{"name":"Ölsch","postalCode":"96450","locality":"Coburg","municipality":{"key":"09463000","name":"Coburg","type":"Kreisfreie_Stadt"},"district":{"key":"09463","name":"Coburg","type":"Kreisfreie_Stadt"},"federalState":{"key":"09","name":"Bayern"}},{"name":"Örtleinsgrund","postalCode":"96237","locality":"Ebersdorf b. Coburg","municipality":{"key":"09473121","name":"Ebersdorf b.Coburg","type":"Kreisangehörige_Gemeinde"},"district":{"key":"09473","name":"Coburg","type":"Landkreis"},"federalState":{"key":"09","name":"Bayern"}},]