[{"name":"Ahornweg","postalCode":"93176","locality":"Beratzhausen","municipality":{"key":"09375118","name":"Beratzhausen, M","type":"Markt"},"district":{"key":"09375","name":"Regensburg","type":"Landkreis"},"federalState":{"key":"09","name":"Bayern"}},{"name":"Albweg","postalCode":"93176","locality":"Beratzhausen","municipality":{"key":"09375118","name":"Beratzhausen, M","type":"Markt"},"district":{"key":"09375","name":"Regensburg","type":"Landkreis"},"federalState":{"key":"09","name":"Bayern"}},{"name":"Alleeweg","postalCode":"93176","locality":"Beratzhausen","municipality":{"key":"09375118","name":"Beratzhausen, M","type":"Markt"},"district":{"key":"09375","name":"Regensburg","type":"Landkreis"},"federalState":{"key":"09","name":"Bayern"}},{"name":"Ametshof","postalCode":"93176","locality":"Beratzhausen","municipality":{"key":"09375118","name":"Beratzhausen, M","type":"Markt"},"district":{"key":"09375","name":"Regensburg","type":"Landkreis"},"federalState":{"key":"09","name":"Bayern"}},{"name":"Am Hauswinkel","postalCode":"93176","locality":"Beratzhausen","municipality":{"key":"09375118","name":"Beratzhausen, M","type":"Markt"},"district":{"key":"09375","name":"Regensburg","type":"Landkreis"},"federalState":{"key":"09","name":"Bayern"}},{"name":"Am Hohen Felsen","postalCode":"93176","locality":"Beratzhausen","municipality":{"key":"09375118","name":"Beratzhausen, M","type":"Markt"},"district":{"key":"09375","name":"Regensburg","type":"Landkreis"},"federalState":{"key":"09","name":"Bayern"}},{"name":"Am Kiefer","postalCode":"93176","locality":"Beratzhausen","municipality":{"key":"09375118","name":"Beratzhausen, M","type":"Markt"},"district":{"key":"09375","name":"Regensburg","type":"Landkreis"},"federalState":{"key":"09","name":"Bayern"}},{"name":"Am Peterfelsen","postalCode":"93176","locality":"Beratzhausen","municipality":{"key":"09375118","name":"Beratzhausen, M","type":"Markt"},"district":{"key":"09375","name":"Regensburg","type":"Landkreis"},"federalState":{"key":"09","name":"Bayern"}},{"name":"Am Sägewerk","postalCode":"93176","locality":"Beratzhausen","municipality":{"key":"09375118","name":"Beratzhausen, M","type":"Markt"},"district":{"key":"09375","name":"Regensburg","type":"Landkreis"},"federalState":{"key":"09","name":"Bayern"}},{"name":"Am Sixenfelsen","postalCode":"93176","locality":"Beratzhausen","municipality":{"key":"09375118","name":"Beratzhausen, M","type":"Markt"},"district":{"key":"09375","name":"Regensburg","type":"Landkreis"},"federalState":{"key":"09","name":"Bayern"}},{"name":"Am Tried","postalCode":"93176","locality":"Beratzhausen","municipality":{"key":"09375118","name":"Beratzhausen, M","type":"Markt"},"district":{"key":"09375","name":"Regensburg","type":"Landkreis"},"federalState":{"key":"09","name":"Bayern"}},{"name":"An der Fuchsleite","postalCode":"93176","locality":"Beratzhausen","municipality":{"key":"09375118","name":"Beratzhausen, M","type":"Markt"},"district":{"key":"09375","name":"Regensburg","type":"Landkreis"},"federalState":{"key":"09","name":"Bayern"}},{"name":"An der Sonnenleite","postalCode":"93176","locality":"Beratzhausen","municipality":{"key":"09375118","name":"Beratzhausen, M","type":"Markt"},"district":{"key":"09375","name":"Regensburg","type":"Landkreis"},"federalState":{"key":"09","name":"Bayern"}},{"name":"Arberstr.","postalCode":"93176","locality":"Beratzhausen","municipality":{"key":"09375118","name":"Beratzhausen, M","type":"Markt"},"district":{"key":"09375","name":"Regensburg","type":"Landkreis"},"federalState":{"key":"09","name":"Bayern"}},{"name":"Argula-von-Stauff-Str.","postalCode":"93176","locality":"Beratzhausen","municipality":{"key":"09375118","name":"Beratzhausen, M","type":"Markt"},"district":{"key":"09375","name":"Regensburg","type":"Landkreis"},"federalState":{"key":"09","name":"Bayern"}},{"name":"Bäckergasse","postalCode":"93176","locality":"Beratzhausen","municipality":{"key":"09375118","name":"Beratzhausen, M","type":"Markt"},"district":{"key":"09375","name":"Regensburg","type":"Landkreis"},"federalState":{"key":"09","name":"Bayern"}},{"name":"Bahnhofstr.","postalCode":"93176","locality":"Beratzhausen","municipality":{"key":"09375118","name":"Beratzhausen, M","type":"Markt"},"district":{"key":"09375","name":"Regensburg","type":"Landkreis"},"federalState":{"key":"09","name":"Bayern"}},{"name":"Bayerwaldstr.","postalCode":"93176","locality":"Beratzhausen","municipality":{"key":"09375118","name":"Beratzhausen, M","type":"Markt"},"district":{"key":"09375","name":"Regensburg","type":"Landkreis"},"federalState":{"key":"09","name":"Bayern"}},{"name":"Beilnstein","postalCode":"93176","locality":"Beratzhausen","municipality":{"key":"09375118","name":"Beratzhausen, M","type":"Markt"},"district":{"key":"09375","name":"Regensburg","type":"Landkreis"},"federalState":{"key":"09","name":"Bayern"}},{"name":"Bergweg","postalCode":"93176","locality":"Beratzhausen","municipality":{"key":"09375118","name":"Beratzhausen, M","type":"Markt"},"district":{"key":"09375","name":"Regensburg","type":"Landkreis"},"federalState":{"key":"09","name":"Bayern"}},{"name":"Birkenstr.","postalCode":"93176","locality":"Beratzhausen","municipality":{"key":"09375118","name":"Beratzhausen, M","type":"Markt"},"district":{"key":"09375","name":"Regensburg","type":"Landkreis"},"federalState":{"key":"09","name":"Bayern"}},{"name":"Bischof-Weig-Str.","postalCode":"93176","locality":"Beratzhausen","municipality":{"key":"09375118","name":"Beratzhausen, M","type":"Markt"},"district":{"key":"09375","name":"Regensburg","type":"Landkreis"},"federalState":{"key":"09","name":"Bayern"}},{"name":"Böhmerwaldstr.","postalCode":"93176","locality":"Beratzhausen","municipality":{"key":"09375118","name":"Beratzhausen, M","type":"Markt"},"district":{"key":"09375","name":"Regensburg","type":"Landkreis"},"federalState":{"key":"09","name":"Bayern"}},{"name":"Brennofenweg","postalCode":"93176","locality":"Beratzhausen","municipality":{"key":"09375118","name":"Beratzhausen, M","type":"Markt"},"district":{"key":"09375","name":"Regensburg","type":"Landkreis"},"federalState":{"key":"09","name":"Bayern"}},{"name":"Buchenstr.","postalCode":"93176","locality":"Beratzhausen","municipality":{"key":"09375118","name":"Beratzhausen, M","type":"Markt"},"district":{"key":"09375","name":"Regensburg","type":"Landkreis"},"federalState":{"key":"09","name":"Bayern"}},{"name":"Ceyrater Str.","postalCode":"93176","locality":"Beratzhausen","municipality":{"key":"09375118","name":"Beratzhausen, M","type":"Markt"},"district":{"key":"09375","name":"Regensburg","type":"Landkreis"},"federalState":{"key":"09","name":"Bayern"}},{"name":"Deutschneudorfer Str.","postalCode":"93176","locality":"Beratzhausen","municipality":{"key":"09375118","name":"Beratzhausen, M","type":"Markt"},"district":{"key":"09375","name":"Regensburg","type":"Landkreis"},"federalState":{"key":"09","name":"Bayern"}},{"name":"Dorfstr.","postalCode":"93176","locality":"Beratzhausen","municipality":{"key":"09375118","name":"Beratzhausen, M","type":"Markt"},"district":{"key":"09375","name":"Regensburg","type":"Landkreis"},"federalState":{"key":"09","name":"Bayern"}},{"name":"Dr.-Georg-Feuerer-Str.","postalCode":"93176","locality":"Beratzhausen","municipality":{"key":"09375118","name":"Beratzhausen, M","type":"Markt"},"district":{"key":"09375","name":"Regensburg","type":"Landkreis"},"federalState":{"key":"09","name":"Bayern"}},{"name":"Ehrenfelstr.","postalCode":"93176","locality":"Beratzhausen","municipality":{"key":"09375118","name":"Beratzhausen, M","type":"Markt"},"district":{"key":"09375","name":"Regensburg","type":"Landkreis"},"federalState":{"key":"09","name":"Bayern"}},{"name":"Eichenstr.","postalCode":"93176","locality":"Beratzhausen","municipality":{"key":"09375118","name":"Beratzhausen, M","type":"Markt"},"district":{"key":"09375","name":"Regensburg","type":"Landkreis"},"federalState":{"key":"09","name":"Bayern"}},{"name":"Erzgebirgsstr.","postalCode":"93176","locality":"Beratzhausen","municipality":{"key":"09375118","name":"Beratzhausen, M","type":"Markt"},"district":{"key":"09375","name":"Regensburg","type":"Landkreis"},"federalState":{"key":"09","name":"Bayern"}},{"name":"Eschenweg","postalCode":"93176","locality":"Beratzhausen","municipality":{"key":"09375118","name":"Beratzhausen, M","type":"Markt"},"district":{"key":"09375","name":"Regensburg","type":"Landkreis"},"federalState":{"key":"09","name":"Bayern"}},{"name":"Essenbügl","postalCode":"93176","locality":"Beratzhausen","municipality":{"key":"09375118","name":"Beratzhausen, M","type":"Markt"},"district":{"key":"09375","name":"Regensburg","type":"Landkreis"},"federalState":{"key":"09","name":"Bayern"}},{"name":"Europa-Skulpturenpark","postalCode":"93176","locality":"Beratzhausen","municipality":{"key":"09375118","name":"Beratzhausen, M","type":"Markt"},"district":{"key":"09375","name":"Regensburg","type":"Landkreis"},"federalState":{"key":"09","name":"Bayern"}},{"name":"Falkenstr.","postalCode":"93176","locality":"Beratzhausen","municipality":{"key":"09375118","name":"Beratzhausen, M","type":"Markt"},"district":{"key":"09375","name":"Regensburg","type":"Landkreis"},"federalState":{"key":"09","name":"Bayern"}},{"name":"Färbergasse","postalCode":"93176","locality":"Beratzhausen","municipality":{"key":"09375118","name":"Beratzhausen, M","type":"Markt"},"district":{"key":"09375","name":"Regensburg","type":"Landkreis"},"federalState":{"key":"09","name":"Bayern"}},{"name":"Fichtelgebirgsweg","postalCode":"93176","locality":"Beratzhausen","municipality":{"key":"09375118","name":"Beratzhausen, M","type":"Markt"},"district":{"key":"09375","name":"Regensburg","type":"Landkreis"},"federalState":{"key":"09","name":"Bayern"}},{"name":"Fichtenweg","postalCode":"93176","locality":"Beratzhausen","municipality":{"key":"09375118","name":"Beratzhausen, M","type":"Markt"},"district":{"key":"09375","name":"Regensburg","type":"Landkreis"},"federalState":{"key":"09","name":"Bayern"}},{"name":"Föhrenstr.","postalCode":"93176","locality":"Beratzhausen","municipality":{"key":"09375118","name":"Beratzhausen, M","type":"Markt"},"district":{"key":"09375","name":"Regensburg","type":"Landkreis"},"federalState":{"key":"09","name":"Bayern"}},{"name":"Frankenweg","postalCode":"93176","locality":"Beratzhausen","municipality":{"key":"09375118","name":"Beratzhausen, M","type":"Markt"},"district":{"key":"09375","name":"Regensburg","type":"Landkreis"},"federalState":{"key":"09","name":"Bayern"}},{"name":"Fußgängerunterführung","postalCode":"93176","locality":"Beratzhausen","municipality":{"key":"09375118","name":"Beratzhausen, M","type":"Markt"},"district":{"key":"09375","name":"Regensburg","type":"Landkreis"},"federalState":{"key":"09","name":"Bayern"}},{"name":"Gleislmühle","postalCode":"93176","locality":"Beratzhausen","municipality":{"key":"09375118","name":"Beratzhausen, M","type":"Markt"},"district":{"key":"09375","name":"Regensburg","type":"Landkreis"},"federalState":{"key":"09","name":"Bayern"}},{"name":"Gleiter","postalCode":"93176","locality":"Beratzhausen","municipality":{"key":"09375118","name":"Beratzhausen, M","type":"Markt"},"district":{"key":"09375","name":"Regensburg","type":"Landkreis"},"federalState":{"key":"09","name":"Bayern"}},{"name":"Gottfried-Kölwel-Platz","postalCode":"93176","locality":"Beratzhausen","municipality":{"key":"09375118","name":"Beratzhausen, M","type":"Markt"},"district":{"key":"09375","name":"Regensburg","type":"Landkreis"},"federalState":{"key":"09","name":"Bayern"}},{"name":"Grillenweg","postalCode":"93176","locality":"Beratzhausen","municipality":{"key":"09375118","name":"Beratzhausen, M","type":"Markt"},"district":{"key":"09375","name":"Regensburg","type":"Landkreis"},"federalState":{"key":"09","name":"Bayern"}},{"name":"Grottengasse","postalCode":"93176","locality":"Beratzhausen","municipality":{"key":"09375118","name":"Beratzhausen, M","type":"Markt"},"district":{"key":"09375","name":"Regensburg","type":"Landkreis"},"federalState":{"key":"09","name":"Bayern"}},{"name":"Haderlsdorf","postalCode":"93176","locality":"Beratzhausen","municipality":{"key":"09375118","name":"Beratzhausen, M","type":"Markt"},"district":{"key":"09375","name":"Regensburg","type":"Landkreis"},"federalState":{"key":"09","name":"Bayern"}},{"name":"Hagenshöferweg","postalCode":"93176","locality":"Beratzhausen","municipality":{"key":"09375118","name":"Beratzhausen, M","type":"Markt"},"district":{"key":"09375","name":"Regensburg","type":"Landkreis"},"federalState":{"key":"09","name":"Bayern"}},{"name":"Hammerbruckweg","postalCode":"93176","locality":"Beratzhausen","municipality":{"key":"09375118","name":"Beratzhausen, M","type":"Markt"},"district":{"key":"09375","name":"Regensburg","type":"Landkreis"},"federalState":{"key":"09","name":"Bayern"}},{"name":"Hardt","postalCode":"93176","locality":"Beratzhausen","municipality":{"key":"09375118","name":"Beratzhausen, M","type":"Markt"},"district":{"key":"09375","name":"Regensburg","type":"Landkreis"},"federalState":{"key":"09","name":"Bayern"}},{"name":"Hemauer Str.","postalCode":"93176","locality":"Beratzhausen","municipality":{"key":"09375118","name":"Beratzhausen, M","type":"Markt"},"district":{"key":"09375","name":"Regensburg","type":"Landkreis"},"federalState":{"key":"09","name":"Bayern"}},{"name":"Hennenbergweg","postalCode":"93176","locality":"Beratzhausen","municipality":{"key":"09375118","name":"Beratzhausen, M","type":"Markt"},"district":{"key":"09375","name":"Regensburg","type":"Landkreis"},"federalState":{"key":"09","name":"Bayern"}},{"name":"Herzog-Albrecht-Str.","postalCode":"93176","locality":"Beratzhausen","municipality":{"key":"09375118","name":"Beratzhausen, M","type":"Markt"},"district":{"key":"09375","name":"Regensburg","type":"Landkreis"},"federalState":{"key":"09","name":"Bayern"}},{"name":"Hinterer Markt","postalCode":"93176","locality":"Beratzhausen","municipality":{"key":"09375118","name":"Beratzhausen, M","type":"Markt"},"district":{"key":"09375","name":"Regensburg","type":"Landkreis"},"federalState":{"key":"09","name":"Bayern"}},{"name":"Hinterkreith","postalCode":"93176","locality":"Beratzhausen","municipality":{"key":"09375118","name":"Beratzhausen, M","type":"Markt"},"district":{"key":"09375","name":"Regensburg","type":"Landkreis"},"federalState":{"key":"09","name":"Bayern"}},{"name":"Hirschstein","postalCode":"93176","locality":"Beratzhausen","municipality":{"key":"09375118","name":"Beratzhausen, M","type":"Markt"},"district":{"key":"09375","name":"Regensburg","type":"Landkreis"},"federalState":{"key":"09","name":"Bayern"}},{"name":"Hüllbergweg","postalCode":"93176","locality":"Beratzhausen","municipality":{"key":"09375118","name":"Beratzhausen, M","type":"Markt"},"district":{"key":"09375","name":"Regensburg","type":"Landkreis"},"federalState":{"key":"09","name":"Bayern"}},{"name":"Illkofen","postalCode":"93176","locality":"Beratzhausen","municipality":{"key":"09375118","name":"Beratzhausen, M","type":"Markt"},"district":{"key":"09375","name":"Regensburg","type":"Landkreis"},"federalState":{"key":"09","name":"Bayern"}},{"name":"Industriestr.","postalCode":"93176","locality":"Beratzhausen","municipality":{"key":"09375118","name":"Beratzhausen, M","type":"Markt"},"district":{"key":"09375","name":"Regensburg","type":"Landkreis"},"federalState":{"key":"09","name":"Bayern"}},{"name":"Jakobsweg","postalCode":"93176","locality":"Beratzhausen","municipality":{"key":"09375118","name":"Beratzhausen, M","type":"Markt"},"district":{"key":"09375","name":"Regensburg","type":"Landkreis"},"federalState":{"key":"09","name":"Bayern"}},{"name":"Johann-Ehrl-Platz","postalCode":"93176","locality":"Beratzhausen","municipality":{"key":"09375118","name":"Beratzhausen, M","type":"Markt"},"district":{"key":"09375","name":"Regensburg","type":"Landkreis"},"federalState":{"key":"09","name":"Bayern"}},{"name":"Jurastr.","postalCode":"93176","locality":"Beratzhausen","municipality":{"key":"09375118","name":"Beratzhausen, M","type":"Markt"},"district":{"key":"09375","name":"Regensburg","type":"Landkreis"},"federalState":{"key":"09","name":"Bayern"}},{"name":"Kallmünzer Str.","postalCode":"93176","locality":"Beratzhausen","municipality":{"key":"09375118","name":"Beratzhausen, M","type":"Markt"},"district":{"key":"09375","name":"Regensburg","type":"Landkreis"},"federalState":{"key":"09","name":"Bayern"}},{"name":"Kapellenbergstr.","postalCode":"93176","locality":"Beratzhausen","municipality":{"key":"09375118","name":"Beratzhausen, M","type":"Markt"},"district":{"key":"09375","name":"Regensburg","type":"Landkreis"},"federalState":{"key":"09","name":"Bayern"}},{"name":"Kastanienweg","postalCode":"93176","locality":"Beratzhausen","municipality":{"key":"09375118","name":"Beratzhausen, M","type":"Markt"},"district":{"key":"09375","name":"Regensburg","type":"Landkreis"},"federalState":{"key":"09","name":"Bayern"}},{"name":"Katharied","postalCode":"93176","locality":"Beratzhausen","municipality":{"key":"09375118","name":"Beratzhausen, M","type":"Markt"},"district":{"key":"09375","name":"Regensburg","type":"Landkreis"},"federalState":{"key":"09","name":"Bayern"}},{"name":"Kirchplatz","postalCode":"93176","locality":"Beratzhausen","municipality":{"key":"09375118","name":"Beratzhausen, M","type":"Markt"},"district":{"key":"09375","name":"Regensburg","type":"Landkreis"},"federalState":{"key":"09","name":"Bayern"}},{"name":"Kugelbergweg","postalCode":"93176","locality":"Beratzhausen","municipality":{"key":"09375118","name":"Beratzhausen, M","type":"Markt"},"district":{"key":"09375","name":"Regensburg","type":"Landkreis"},"federalState":{"key":"09","name":"Bayern"}},{"name":"Laaberer Str.","postalCode":"93176","locality":"Beratzhausen","municipality":{"key":"09375118","name":"Beratzhausen, M","type":"Markt"},"district":{"key":"09375","name":"Regensburg","type":"Landkreis"},"federalState":{"key":"09","name":"Bayern"}},{"name":"Lärchenweg","postalCode":"93176","locality":"Beratzhausen","municipality":{"key":"09375118","name":"Beratzhausen, M","type":"Markt"},"district":{"key":"09375","name":"Regensburg","type":"Landkreis"},"federalState":{"key":"09","name":"Bayern"}},{"name":"Leonhard-Nübler-Str.","postalCode":"93176","locality":"Beratzhausen","municipality":{"key":"09375118","name":"Beratzhausen, M","type":"Markt"},"district":{"key":"09375","name":"Regensburg","type":"Landkreis"},"federalState":{"key":"09","name":"Bayern"}},{"name":"Lichtenbergweg","postalCode":"93176","locality":"Beratzhausen","municipality":{"key":"09375118","name":"Beratzhausen, M","type":"Markt"},"district":{"key":"09375","name":"Regensburg","type":"Landkreis"},"federalState":{"key":"09","name":"Bayern"}},{"name":"Lindenstr.","postalCode":"93176","locality":"Beratzhausen","municipality":{"key":"09375118","name":"Beratzhausen, M","type":"Markt"},"district":{"key":"09375","name":"Regensburg","type":"Landkreis"},"federalState":{"key":"09","name":"Bayern"}},{"name":"Maria-Hilf-Berg","postalCode":"93176","locality":"Beratzhausen","municipality":{"key":"09375118","name":"Beratzhausen, M","type":"Markt"},"district":{"key":"09375","name":"Regensburg","type":"Landkreis"},"federalState":{"key":"09","name":"Bayern"}},{"name":"Marktstr.","postalCode":"93176","locality":"Beratzhausen","municipality":{"key":"09375118","name":"Beratzhausen, M","type":"Markt"},"district":{"key":"09375","name":"Regensburg","type":"Landkreis"},"federalState":{"key":"09","name":"Bayern"}},{"name":"Mäusermühle","postalCode":"93176","locality":"Beratzhausen","municipality":{"key":"09375118","name":"Beratzhausen, M","type":"Markt"},"district":{"key":"09375","name":"Regensburg","type":"Landkreis"},"federalState":{"key":"09","name":"Bayern"}},{"name":"Mausheim","postalCode":"93176","locality":"Beratzhausen","municipality":{"key":"09375118","name":"Beratzhausen, M","type":"Markt"},"district":{"key":"09375","name":"Regensburg","type":"Landkreis"},"federalState":{"key":"09","name":"Bayern"}},{"name":"Mausheim 100","postalCode":"93176","locality":"Beratzhausen","municipality":{"key":"09375118","name":"Beratzhausen, M","type":"Markt"},"district":{"key":"09375","name":"Regensburg","type":"Landkreis"},"federalState":{"key":"09","name":"Bayern"}},{"name":"Mausheimer Str.","postalCode":"93176","locality":"Beratzhausen","municipality":{"key":"09375118","name":"Beratzhausen, M","type":"Markt"},"district":{"key":"09375","name":"Regensburg","type":"Landkreis"},"federalState":{"key":"09","name":"Bayern"}},{"name":"Michael-Wiendl-Str.","postalCode":"93176","locality":"Beratzhausen","municipality":{"key":"09375118","name":"Beratzhausen, M","type":"Markt"},"district":{"key":"09375","name":"Regensburg","type":"Landkreis"},"federalState":{"key":"09","name":"Bayern"}},{"name":"Michael-Wiendl-Wegl","postalCode":"93176","locality":"Beratzhausen","municipality":{"key":"09375118","name":"Beratzhausen, M","type":"Markt"},"district":{"key":"09375","name":"Regensburg","type":"Landkreis"},"federalState":{"key":"09","name":"Bayern"}},{"name":"Mühlenstr.","postalCode":"93176","locality":"Beratzhausen","municipality":{"key":"09375118","name":"Beratzhausen, M","type":"Markt"},"district":{"key":"09375","name":"Regensburg","type":"Landkreis"},"federalState":{"key":"09","name":"Bayern"}},{"name":"Neuhof","postalCode":"93176","locality":"Beratzhausen","municipality":{"key":"09375118","name":"Beratzhausen, M","type":"Markt"},"district":{"key":"09375","name":"Regensburg","type":"Landkreis"},"federalState":{"key":"09","name":"Bayern"}},{"name":"Neurufenried","postalCode":"93176","locality":"Beratzhausen","municipality":{"key":"09375118","name":"Beratzhausen, M","type":"Markt"},"district":{"key":"09375","name":"Regensburg","type":"Landkreis"},"federalState":{"key":"09","name":"Bayern"}},{"name":"Niesaß","postalCode":"93176","locality":"Beratzhausen","municipality":{"key":"09375118","name":"Beratzhausen, M","type":"Markt"},"district":{"key":"09375","name":"Regensburg","type":"Landkreis"},"federalState":{"key":"09","name":"Bayern"}},{"name":"Nordgaustr.","postalCode":"93176","locality":"Beratzhausen","municipality":{"key":"09375118","name":"Beratzhausen, M","type":"Markt"},"district":{"key":"09375","name":"Regensburg","type":"Landkreis"},"federalState":{"key":"09","name":"Bayern"}},{"name":"Oberer Zehentbergweg","postalCode":"93176","locality":"Beratzhausen","municipality":{"key":"09375118","name":"Beratzhausen, M","type":"Markt"},"district":{"key":"09375","name":"Regensburg","type":"Landkreis"},"federalState":{"key":"09","name":"Bayern"}},{"name":"Oberndorfer Str.","postalCode":"93176","locality":"Beratzhausen","municipality":{"key":"09375118","name":"Beratzhausen, M","type":"Markt"},"district":{"key":"09375","name":"Regensburg","type":"Landkreis"},"federalState":{"key":"09","name":"Bayern"}},{"name":"Oberpfalzstr.","postalCode":"93176","locality":"Beratzhausen","municipality":{"key":"09375118","name":"Beratzhausen, M","type":"Markt"},"district":{"key":"09375","name":"Regensburg","type":"Landkreis"},"federalState":{"key":"09","name":"Bayern"}},{"name":"Ostmarkstr.","postalCode":"93176","locality":"Beratzhausen","municipality":{"key":"09375118","name":"Beratzhausen, M","type":"Markt"},"district":{"key":"09375","name":"Regensburg","type":"Landkreis"},"federalState":{"key":"09","name":"Bayern"}},{"name":"Paarstadl","postalCode":"93176","locality":"Beratzhausen","municipality":{"key":"09375118","name":"Beratzhausen, M","type":"Markt"},"district":{"key":"09375","name":"Regensburg","type":"Landkreis"},"federalState":{"key":"09","name":"Bayern"}},{"name":"Pappelweg","postalCode":"93176","locality":"Beratzhausen","municipality":{"key":"09375118","name":"Beratzhausen, M","type":"Markt"},"district":{"key":"09375","name":"Regensburg","type":"Landkreis"},"federalState":{"key":"09","name":"Bayern"}},{"name":"Paracelsusstr.","postalCode":"93176","locality":"Beratzhausen","municipality":{"key":"09375118","name":"Beratzhausen, M","type":"Markt"},"district":{"key":"09375","name":"Regensburg","type":"Landkreis"},"federalState":{"key":"09","name":"Bayern"}},{"name":"Parsberger Str.","postalCode":"93176","locality":"Beratzhausen","municipality":{"key":"09375118","name":"Beratzhausen, M","type":"Markt"},"district":{"key":"09375","name":"Regensburg","type":"Landkreis"},"federalState":{"key":"09","name":"Bayern"}},{"name":"Pfarrer-Fichtl-Str.","postalCode":"93176","locality":"Beratzhausen","municipality":{"key":"09375118","name":"Beratzhausen, M","type":"Markt"},"district":{"key":"09375","name":"Regensburg","type":"Landkreis"},"federalState":{"key":"09","name":"Bayern"}},{"name":"Pfarrer-Schart-Str.","postalCode":"93176","locality":"Beratzhausen","municipality":{"key":"09375118","name":"Beratzhausen, M","type":"Markt"},"district":{"key":"09375","name":"Regensburg","type":"Landkreis"},"federalState":{"key":"09","name":"Bayern"}},{"name":"Pfraundorfer Str.","postalCode":"93176","locality":"Beratzhausen","municipality":{"key":"09375118","name":"Beratzhausen, M","type":"Markt"},"district":{"key":"09375","name":"Regensburg","type":"Landkreis"},"federalState":{"key":"09","name":"Bayern"}},{"name":"Pröllerweg","postalCode":"93176","locality":"Beratzhausen","municipality":{"key":"09375118","name":"Beratzhausen, M","type":"Markt"},"district":{"key":"09375","name":"Regensburg","type":"Landkreis"},"federalState":{"key":"09","name":"Bayern"}},{"name":"Quartiersplatz","postalCode":"93053","locality":"Regensburg","municipality":{"key":"09362000","name":"Regensburg","type":"Kreisfreie_Stadt"},"district":{"key":"09362","name":"Regensburg","type":"Kreisfreie_Stadt"},"federalState":{"key":"09","name":"Bayern"}},{"name":"Rachelweg","postalCode":"93176","locality":"Beratzhausen","municipality":{"key":"09375118","name":"Beratzhausen, M","type":"Markt"},"district":{"key":"09375","name":"Regensburg","type":"Landkreis"},"federalState":{"key":"09","name":"Bayern"}},{"name":"Rechberger Weg","postalCode":"93176","locality":"Beratzhausen","municipality":{"key":"09375118","name":"Beratzhausen, M","type":"Markt"},"district":{"key":"09375","name":"Regensburg","type":"Landkreis"},"federalState":{"key":"09","name":"Bayern"}},{"name":"Rhönstr.","postalCode":"93176","locality":"Beratzhausen","municipality":{"key":"09375118","name":"Beratzhausen, M","type":"Markt"},"district":{"key":"09375","name":"Regensburg","type":"Landkreis"},"federalState":{"key":"09","name":"Bayern"}},{"name":"Riesengebirgsstr.","postalCode":"93176","locality":"Beratzhausen","municipality":{"key":"09375118","name":"Beratzhausen, M","type":"Markt"},"district":{"key":"09375","name":"Regensburg","type":"Landkreis"},"federalState":{"key":"09","name":"Bayern"}},{"name":"Rubenbergweg","postalCode":"93176","locality":"Beratzhausen","municipality":{"key":"09375118","name":"Beratzhausen, M","type":"Markt"},"district":{"key":"09375","name":"Regensburg","type":"Landkreis"},"federalState":{"key":"09","name":"Bayern"}},{"name":"Sachsenweg","postalCode":"93176","locality":"Beratzhausen","municipality":{"key":"09375118","name":"Beratzhausen, M","type":"Markt"},"district":{"key":"09375","name":"Regensburg","type":"Landkreis"},"federalState":{"key":"09","name":"Bayern"}},{"name":"Schaafhof","postalCode":"93176","locality":"Beratzhausen","municipality":{"key":"09375118","name":"Beratzhausen, M","type":"Markt"},"district":{"key":"09375","name":"Regensburg","type":"Landkreis"},"federalState":{"key":"09","name":"Bayern"}},{"name":"Schießstättenweg","postalCode":"93176","locality":"Beratzhausen","municipality":{"key":"09375118","name":"Beratzhausen, M","type":"Markt"},"district":{"key":"09375","name":"Regensburg","type":"Landkreis"},"federalState":{"key":"09","name":"Bayern"}},{"name":"Schlesierstr.","postalCode":"93176","locality":"Beratzhausen","municipality":{"key":"09375118","name":"Beratzhausen, M","type":"Markt"},"district":{"key":"09375","name":"Regensburg","type":"Landkreis"},"federalState":{"key":"09","name":"Bayern"}},{"name":"Schlossbreitengasse","postalCode":"93176","locality":"Beratzhausen","municipality":{"key":"09375118","name":"Beratzhausen, M","type":"Markt"},"district":{"key":"09375","name":"Regensburg","type":"Landkreis"},"federalState":{"key":"09","name":"Bayern"}},{"name":"Schlosserweg","postalCode":"93176","locality":"Beratzhausen","municipality":{"key":"09375118","name":"Beratzhausen, M","type":"Markt"},"district":{"key":"09375","name":"Regensburg","type":"Landkreis"},"federalState":{"key":"09","name":"Bayern"}},{"name":"Schlosshof","postalCode":"93176","locality":"Beratzhausen","municipality":{"key":"09375118","name":"Beratzhausen, M","type":"Markt"},"district":{"key":"09375","name":"Regensburg","type":"Landkreis"},"federalState":{"key":"09","name":"Bayern"}},{"name":"Schrotzhofen","postalCode":"93176","locality":"Beratzhausen","municipality":{"key":"09375118","name":"Beratzhausen, M","type":"Markt"},"district":{"key":"09375","name":"Regensburg","type":"Landkreis"},"federalState":{"key":"09","name":"Bayern"}},{"name":"Schulweg","postalCode":"93176","locality":"Beratzhausen","municipality":{"key":"09375118","name":"Beratzhausen, M","type":"Markt"},"district":{"key":"09375","name":"Regensburg","type":"Landkreis"},"federalState":{"key":"09","name":"Bayern"}},{"name":"Schwabenweg","postalCode":"93176","locality":"Beratzhausen","municipality":{"key":"09375118","name":"Beratzhausen, M","type":"Markt"},"district":{"key":"09375","name":"Regensburg","type":"Landkreis"},"federalState":{"key":"09","name":"Bayern"}},{"name":"Schwarzenthonhausen","postalCode":"93176","locality":"Beratzhausen","municipality":{"key":"09375118","name":"Beratzhausen, M","type":"Markt"},"district":{"key":"09375","name":"Regensburg","type":"Landkreis"},"federalState":{"key":"09","name":"Bayern"}},{"name":"Seelach","postalCode":"93176","locality":"Beratzhausen","municipality":{"key":"09375118","name":"Beratzhausen, M","type":"Markt"},"district":{"key":"09375","name":"Regensburg","type":"Landkreis"},"federalState":{"key":"09","name":"Bayern"}},{"name":"Sinngrün","postalCode":"93176","locality":"Beratzhausen","municipality":{"key":"09375118","name":"Beratzhausen, M","type":"Markt"},"district":{"key":"09375","name":"Regensburg","type":"Landkreis"},"federalState":{"key":"09","name":"Bayern"}},{"name":"Spitalgraben","postalCode":"93176","locality":"Beratzhausen","municipality":{"key":"09375118","name":"Beratzhausen, M","type":"Markt"},"district":{"key":"09375","name":"Regensburg","type":"Landkreis"},"federalState":{"key":"09","name":"Bayern"}},{"name":"Staufferstr.","postalCode":"93176","locality":"Beratzhausen","municipality":{"key":"09375118","name":"Beratzhausen, M","type":"Markt"},"district":{"key":"09375","name":"Regensburg","type":"Landkreis"},"federalState":{"key":"09","name":"Bayern"}},{"name":"Steigerwaldstr.","postalCode":"93176","locality":"Beratzhausen","municipality":{"key":"09375118","name":"Beratzhausen, M","type":"Markt"},"district":{"key":"09375","name":"Regensburg","type":"Landkreis"},"federalState":{"key":"09","name":"Bayern"}},{"name":"Stiftlandstr.","postalCode":"93176","locality":"Beratzhausen","municipality":{"key":"09375118","name":"Beratzhausen, M","type":"Markt"},"district":{"key":"09375","name":"Regensburg","type":"Landkreis"},"federalState":{"key":"09","name":"Bayern"}},{"name":"St.-Martin-Str.","postalCode":"93176","locality":"Beratzhausen","municipality":{"key":"09375118","name":"Beratzhausen, M","type":"Markt"},"district":{"key":"09375","name":"Regensburg","type":"Landkreis"},"federalState":{"key":"09","name":"Bayern"}},{"name":"Sudetenstr.","postalCode":"93176","locality":"Beratzhausen","municipality":{"key":"09375118","name":"Beratzhausen, M","type":"Markt"},"district":{"key":"09375","name":"Regensburg","type":"Landkreis"},"federalState":{"key":"09","name":"Bayern"}},{"name":"Talweg","postalCode":"93176","locality":"Beratzhausen","municipality":{"key":"09375118","name":"Beratzhausen, M","type":"Markt"},"district":{"key":"09375","name":"Regensburg","type":"Landkreis"},"federalState":{"key":"09","name":"Bayern"}},{"name":"Tannenstr.","postalCode":"93176","locality":"Beratzhausen","municipality":{"key":"09375118","name":"Beratzhausen, M","type":"Markt"},"district":{"key":"09375","name":"Regensburg","type":"Landkreis"},"federalState":{"key":"09","name":"Bayern"}},{"name":"Thüringer Str.","postalCode":"93176","locality":"Beratzhausen","municipality":{"key":"09375118","name":"Beratzhausen, M","type":"Markt"},"district":{"key":"09375","name":"Regensburg","type":"Landkreis"},"federalState":{"key":"09","name":"Bayern"}},{"name":"Triftweg","postalCode":"93176","locality":"Beratzhausen","municipality":{"key":"09375118","name":"Beratzhausen, M","type":"Markt"},"district":{"key":"09375","name":"Regensburg","type":"Landkreis"},"federalState":{"key":"09","name":"Bayern"}},{"name":"Unterer Zehentbergweg","postalCode":"93176","locality":"Beratzhausen","municipality":{"key":"09375118","name":"Beratzhausen, M","type":"Markt"},"district":{"key":"09375","name":"Regensburg","type":"Landkreis"},"federalState":{"key":"09","name":"Bayern"}},{"name":"Uttenhof","postalCode":"93176","locality":"Beratzhausen","municipality":{"key":"09375118","name":"Beratzhausen, M","type":"Markt"},"district":{"key":"09375","name":"Regensburg","type":"Landkreis"},"federalState":{"key":"09","name":"Bayern"}},{"name":"Vogelherdweg","postalCode":"93176","locality":"Beratzhausen","municipality":{"key":"09375118","name":"Beratzhausen, M","type":"Markt"},"district":{"key":"09375","name":"Regensburg","type":"Landkreis"},"federalState":{"key":"09","name":"Bayern"}},{"name":"Vogtlandstr.","postalCode":"93176","locality":"Beratzhausen","municipality":{"key":"09375118","name":"Beratzhausen, M","type":"Markt"},"district":{"key":"09375","name":"Regensburg","type":"Landkreis"},"federalState":{"key":"09","name":"Bayern"}},{"name":"Wassergasse","postalCode":"93176","locality":"Beratzhausen","municipality":{"key":"09375118","name":"Beratzhausen, M","type":"Markt"},"district":{"key":"09375","name":"Regensburg","type":"Landkreis"},"federalState":{"key":"09","name":"Bayern"}},{"name":"Weidenstr.","postalCode":"93176","locality":"Beratzhausen","municipality":{"key":"09375118","name":"Beratzhausen, M","type":"Markt"},"district":{"key":"09375","name":"Regensburg","type":"Landkreis"},"federalState":{"key":"09","name":"Bayern"}},{"name":"Weissgerberweg","postalCode":"93176","locality":"Beratzhausen","municipality":{"key":"09375118","name":"Beratzhausen, M","type":"Markt"},"district":{"key":"09375","name":"Regensburg","type":"Landkreis"},"federalState":{"key":"09","name":"Bayern"}},{"name":"Xaver-Fuhr-Str.","postalCode":"93055","locality":"Regensburg","municipality":{"key":"09362000","name":"Regensburg","type":"Kreisfreie_Stadt"},"district":{"key":"09362","name":"Regensburg","type":"Kreisfreie_Stadt"},"federalState":{"key":"09","name":"Bayern"}},{"name":"Yorckstr.","postalCode":"93049","locality":"Regensburg","municipality":{"key":"09362000","name":"Regensburg","type":"Kreisfreie_Stadt"},"district":{"key":"09362","name":"Regensburg","type":"Kreisfreie_Stadt"},"federalState":{"key":"09","name":"Bayern"}},{"name":"Ziegelweg","postalCode":"93176","locality":"Beratzhausen","municipality":{"key":"09375118","name":"Beratzhausen, M","type":"Markt"},"district":{"key":"09375","name":"Regensburg","type":"Landkreis"},"federalState":{"key":"09","name":"Bayern"}},{"name":"Ägidienplatz","postalCode":"93047","locality":"Regensburg","municipality":{"key":"09362000","name":"Regensburg","type":"Kreisfreie_Stadt"},"district":{"key":"09362","name":"Regensburg","type":"Kreisfreie_Stadt"},"federalState":{"key":"09","name":"Bayern"}},{"name":"Äußere Wiener Str.","postalCode":"93055","locality":"Regensburg","municipality":{"key":"09362000","name":"Regensburg","type":"Kreisfreie_Stadt"},"district":{"key":"09362","name":"Regensburg","type":"Kreisfreie_Stadt"},"federalState":{"key":"09","name":"Bayern"}},{"name":"Ödenthal","postalCode":"93057","locality":"Regensburg","municipality":{"key":"09362000","name":"Regensburg","type":"Kreisfreie_Stadt"},"district":{"key":"09362","name":"Regensburg","type":"Kreisfreie_Stadt"},"federalState":{"key":"09","name":"Bayern"}},{"name":"Ödenthaler Weg","postalCode":"93057","locality":"Regensburg","municipality":{"key":"09362000","name":"Regensburg","type":"Kreisfreie_Stadt"},"district":{"key":"09362","name":"Regensburg","type":"Kreisfreie_Stadt"},"federalState":{"key":"09","name":"Bayern"}},{"name":"Ödenthalweg","postalCode":"93057","locality":"Regensburg","municipality":{"key":"09362000","name":"Regensburg","type":"Kreisfreie_Stadt"},"district":{"key":"09362","name":"Regensburg","type":"Kreisfreie_Stadt"},"federalState":{"key":"09","name":"Bayern"}},]