[{"key":"10220581","name":"Champs de la Sagne","postalCode":"2612","locality":"Cormoret","commune":{"key":"432","name":"Cormoret","shortName":"Cormoret"},"district":{"key":"241","name":"Arrondissement administratif Jura bernois"},"canton":{"key":"2","code":"BE","name":"Bern / Berne"},"status":"Real"},{"key":"10156574","name":"Chemin de Bretin","postalCode":"2612","locality":"Cormoret","commune":{"key":"432","name":"Cormoret","shortName":"Cormoret"},"district":{"key":"241","name":"Arrondissement administratif Jura bernois"},"canton":{"key":"2","code":"BE","name":"Bern / Berne"},"status":"Real"},{"key":"10157665","name":"Chemin de la Borcairde","postalCode":"2612","locality":"Cormoret","commune":{"key":"432","name":"Cormoret","shortName":"Cormoret"},"district":{"key":"241","name":"Arrondissement administratif Jura bernois"},"canton":{"key":"2","code":"BE","name":"Bern / Berne"},"status":"Real"},{"key":"10112596","name":"Chemin de la Doux","postalCode":"2612","locality":"Cormoret","commune":{"key":"432","name":"Cormoret","shortName":"Cormoret"},"district":{"key":"241","name":"Arrondissement administratif Jura bernois"},"canton":{"key":"2","code":"BE","name":"Bern / Berne"},"status":"Real"},{"key":"10156558","name":"Chemin de la Douzette","postalCode":"2612","locality":"Cormoret","commune":{"key":"432","name":"Cormoret","shortName":"Cormoret"},"district":{"key":"241","name":"Arrondissement administratif Jura bernois"},"canton":{"key":"2","code":"BE","name":"Bern / Berne"},"status":"Real"},{"key":"10156557","name":"Chemin de la Fenette","postalCode":"2612","locality":"Cormoret","commune":{"key":"432","name":"Cormoret","shortName":"Cormoret"},"district":{"key":"241","name":"Arrondissement administratif Jura bernois"},"canton":{"key":"2","code":"BE","name":"Bern / Berne"},"status":"Real"},{"key":"10005054","name":"Chemin de la Peluse","postalCode":"2612","locality":"Cormoret","commune":{"key":"432","name":"Cormoret","shortName":"Cormoret"},"district":{"key":"241","name":"Arrondissement administratif Jura bernois"},"canton":{"key":"2","code":"BE","name":"Bern / Berne"},"status":"Real"},{"key":"10005055","name":"Chemin des Bains","postalCode":"2612","locality":"Cormoret","commune":{"key":"432","name":"Cormoret","shortName":"Cormoret"},"district":{"key":"241","name":"Arrondissement administratif Jura bernois"},"canton":{"key":"2","code":"BE","name":"Bern / Berne"},"status":"Real"},{"key":"10005056","name":"Chemin des Fontenettes","postalCode":"2612","locality":"Cormoret","commune":{"key":"432","name":"Cormoret","shortName":"Cormoret"},"district":{"key":"241","name":"Arrondissement administratif Jura bernois"},"canton":{"key":"2","code":"BE","name":"Bern / Berne"},"status":"Real"},{"key":"10112594","name":"Chemin des Pâturages","postalCode":"2612","locality":"Cormoret","commune":{"key":"432","name":"Cormoret","shortName":"Cormoret"},"district":{"key":"241","name":"Arrondissement administratif Jura bernois"},"canton":{"key":"2","code":"BE","name":"Bern / Berne"},"status":"Real"},{"key":"10112593","name":"Chemin des Planches","postalCode":"2612","locality":"Cormoret","commune":{"key":"432","name":"Cormoret","shortName":"Cormoret"},"district":{"key":"241","name":"Arrondissement administratif Jura bernois"},"canton":{"key":"2","code":"BE","name":"Bern / Berne"},"status":"Real"},{"key":"10005053","name":"Chemin du Stand","postalCode":"2612","locality":"Cormoret","commune":{"key":"432","name":"Cormoret","shortName":"Cormoret"},"district":{"key":"241","name":"Arrondissement administratif Jura bernois"},"canton":{"key":"2","code":"BE","name":"Bern / Berne"},"status":"Real"},{"key":"10112595","name":"Chemin du Torrent","postalCode":"2612","locality":"Cormoret","commune":{"key":"432","name":"Cormoret","shortName":"Cormoret"},"district":{"key":"241","name":"Arrondissement administratif Jura bernois"},"canton":{"key":"2","code":"BE","name":"Bern / Berne"},"status":"Real"},{"key":"10155406","name":"Envers de la Gare","postalCode":"2612","locality":"Cormoret","commune":{"key":"432","name":"Cormoret","shortName":"Cormoret"},"district":{"key":"241","name":"Arrondissement administratif Jura bernois"},"canton":{"key":"2","code":"BE","name":"Bern / Berne"},"status":"Real"},{"key":"10156575","name":"Impasse de la Vieille-Poste","postalCode":"2612","locality":"Cormoret","commune":{"key":"432","name":"Cormoret","shortName":"Cormoret"},"district":{"key":"241","name":"Arrondissement administratif Jura bernois"},"canton":{"key":"2","code":"BE","name":"Bern / Berne"},"status":"Real"},{"key":"10088356","name":"La Closure","postalCode":"2612","locality":"Cormoret","commune":{"key":"432","name":"Cormoret","shortName":"Cormoret"},"district":{"key":"241","name":"Arrondissement administratif Jura bernois"},"canton":{"key":"2","code":"BE","name":"Bern / Berne"},"status":"Real"},{"key":"10156560","name":"La Combe","postalCode":"2612","locality":"Cormoret","commune":{"key":"432","name":"Cormoret","shortName":"Cormoret"},"district":{"key":"241","name":"Arrondissement administratif Jura bernois"},"canton":{"key":"2","code":"BE","name":"Bern / Berne"},"status":"Real"},{"key":"10065397","name":"Le Petit-Bâle","postalCode":"2612","locality":"Cormoret","commune":{"key":"432","name":"Cormoret","shortName":"Cormoret"},"district":{"key":"241","name":"Arrondissement administratif Jura bernois"},"canton":{"key":"2","code":"BE","name":"Bern / Berne"},"status":"Real"},{"key":"10156566","name":"Les Frasses","postalCode":"2612","locality":"Cormoret","commune":{"key":"432","name":"Cormoret","shortName":"Cormoret"},"district":{"key":"241","name":"Arrondissement administratif Jura bernois"},"canton":{"key":"2","code":"BE","name":"Bern / Berne"},"status":"Real"},{"key":"10177666","name":"Les Nioles","postalCode":"2612","locality":"Cormoret","commune":{"key":"432","name":"Cormoret","shortName":"Cormoret"},"district":{"key":"241","name":"Arrondissement administratif Jura bernois"},"canton":{"key":"2","code":"BE","name":"Bern / Berne"},"status":"Real"},{"key":"10156564","name":"Passage des Jardins","postalCode":"2612","locality":"Cormoret","commune":{"key":"432","name":"Cormoret","shortName":"Cormoret"},"district":{"key":"241","name":"Arrondissement administratif Jura bernois"},"canton":{"key":"2","code":"BE","name":"Bern / Berne"},"status":"Real"},{"key":"10220623","name":"Pâturage du Droit","postalCode":"2612","locality":"Cormoret","commune":{"key":"432","name":"Cormoret","shortName":"Cormoret"},"district":{"key":"241","name":"Arrondissement administratif Jura bernois"},"canton":{"key":"2","code":"BE","name":"Bern / Berne"},"status":"Real"},{"key":"10156559","name":"Route de Villeret","postalCode":"2612","locality":"Cormoret","commune":{"key":"432","name":"Cormoret","shortName":"Cormoret"},"district":{"key":"241","name":"Arrondissement administratif Jura bernois"},"canton":{"key":"2","code":"BE","name":"Bern / Berne"},"status":"Real"},{"key":"10156556","name":"Route Principale","postalCode":"2612","locality":"Cormoret","commune":{"key":"432","name":"Cormoret","shortName":"Cormoret"},"district":{"key":"241","name":"Arrondissement administratif Jura bernois"},"canton":{"key":"2","code":"BE","name":"Bern / Berne"},"status":"Real"},{"key":"10005057","name":"Vieille-Route","postalCode":"2612","locality":"Cormoret","commune":{"key":"432","name":"Cormoret","shortName":"Cormoret"},"district":{"key":"241","name":"Arrondissement administratif Jura bernois"},"canton":{"key":"2","code":"BE","name":"Bern / Berne"},"status":"Real"},]