[{"key":"10078937","name":"Chemin de Champ de Villars","postalCode":"1372","locality":"Bavois","commune":{"key":"5746","name":"Bavois","shortName":"Bavois"},"district":{"key":"2224","name":"District du Jura-Nord vaudois"},"canton":{"key":"22","code":"VD","name":"Vaud"},"status":"Real"},{"key":"10153622","name":"Chemin de Jérusalem","postalCode":"1372","locality":"Bavois","commune":{"key":"5746","name":"Bavois","shortName":"Bavois"},"district":{"key":"2224","name":"District du Jura-Nord vaudois"},"canton":{"key":"22","code":"VD","name":"Vaud"},"status":"Real"},{"key":"10107396","name":"Chemin de Laliforcha","postalCode":"1372","locality":"Bavois","commune":{"key":"5746","name":"Bavois","shortName":"Bavois"},"district":{"key":"2224","name":"District du Jura-Nord vaudois"},"canton":{"key":"22","code":"VD","name":"Vaud"},"status":"Real"},{"key":"10040644","name":"Chemin des Boutons d'Or","postalCode":"1372","locality":"Bavois","commune":{"key":"5746","name":"Bavois","shortName":"Bavois"},"district":{"key":"2224","name":"District du Jura-Nord vaudois"},"canton":{"key":"22","code":"VD","name":"Vaud"},"status":"Real"},{"key":"10153623","name":"Chemin des Prés Mellets","postalCode":"1372","locality":"Bavois","commune":{"key":"5746","name":"Bavois","shortName":"Bavois"},"district":{"key":"2224","name":"District du Jura-Nord vaudois"},"canton":{"key":"22","code":"VD","name":"Vaud"},"status":"Real"},{"key":"10153626","name":"Chemin du Bugnon","postalCode":"1372","locality":"Bavois","commune":{"key":"5746","name":"Bavois","shortName":"Bavois"},"district":{"key":"2224","name":"District du Jura-Nord vaudois"},"canton":{"key":"22","code":"VD","name":"Vaud"},"status":"Real"},{"key":"10115505","name":"Chemin du Champ aux Oyes","postalCode":"1372","locality":"Bavois","commune":{"key":"5746","name":"Bavois","shortName":"Bavois"},"district":{"key":"2224","name":"District du Jura-Nord vaudois"},"canton":{"key":"22","code":"VD","name":"Vaud"},"status":"Real"},{"key":"10127352","name":"Chemin du Champ de Foire","postalCode":"1372","locality":"Bavois","commune":{"key":"5746","name":"Bavois","shortName":"Bavois"},"district":{"key":"2224","name":"District du Jura-Nord vaudois"},"canton":{"key":"22","code":"VD","name":"Vaud"},"status":"Real"},{"key":"10153625","name":"Chemin du Château","postalCode":"1372","locality":"Bavois","commune":{"key":"5746","name":"Bavois","shortName":"Bavois"},"district":{"key":"2224","name":"District du Jura-Nord vaudois"},"canton":{"key":"22","code":"VD","name":"Vaud"},"status":"Real"},{"key":"10195767","name":"Chemin du Stade","postalCode":"1372","locality":"Bavois","commune":{"key":"5746","name":"Bavois","shortName":"Bavois"},"district":{"key":"2224","name":"District du Jura-Nord vaudois"},"canton":{"key":"22","code":"VD","name":"Vaud"},"status":"Real"},{"key":"10153627","name":"Chemin Prés-Collon","postalCode":"1372","locality":"Bavois","commune":{"key":"5746","name":"Bavois","shortName":"Bavois"},"district":{"key":"2224","name":"District du Jura-Nord vaudois"},"canton":{"key":"22","code":"VD","name":"Vaud"},"status":"Real"},{"key":"10122840","name":"La Mothe","postalCode":"1372","locality":"Bavois","commune":{"key":"5746","name":"Bavois","shortName":"Bavois"},"district":{"key":"2224","name":"District du Jura-Nord vaudois"},"canton":{"key":"22","code":"VD","name":"Vaud"},"status":"Real"},{"key":"10040643","name":"La St-Prex","postalCode":"1372","locality":"Bavois","commune":{"key":"5746","name":"Bavois","shortName":"Bavois"},"district":{"key":"2224","name":"District du Jura-Nord vaudois"},"canton":{"key":"22","code":"VD","name":"Vaud"},"status":"Real"},{"key":"10098724","name":"Le Coudray","postalCode":"1372","locality":"Bavois","commune":{"key":"5746","name":"Bavois","shortName":"Bavois"},"district":{"key":"2224","name":"District du Jura-Nord vaudois"},"canton":{"key":"22","code":"VD","name":"Vaud"},"status":"Real"},{"key":"10116076","name":"Le Coudray Dessous","postalCode":"1372","locality":"Bavois","commune":{"key":"5746","name":"Bavois","shortName":"Bavois"},"district":{"key":"2224","name":"District du Jura-Nord vaudois"},"canton":{"key":"22","code":"VD","name":"Vaud"},"status":"Real"},{"key":"10078938","name":"Le Moulin","postalCode":"1372","locality":"Bavois","commune":{"key":"5746","name":"Bavois","shortName":"Bavois"},"district":{"key":"2224","name":"District du Jura-Nord vaudois"},"canton":{"key":"22","code":"VD","name":"Vaud"},"status":"Real"},{"key":"10068259","name":"L'Islan","postalCode":"1372","locality":"Bavois","commune":{"key":"5746","name":"Bavois","shortName":"Bavois"},"district":{"key":"2224","name":"District du Jura-Nord vaudois"},"canton":{"key":"22","code":"VD","name":"Vaud"},"status":"Real"},{"key":"10040645","name":"Place de Marterey","postalCode":"1372","locality":"Bavois","commune":{"key":"5746","name":"Bavois","shortName":"Bavois"},"district":{"key":"2224","name":"District du Jura-Nord vaudois"},"canton":{"key":"22","code":"VD","name":"Vaud"},"status":"Real"},{"key":"10068260","name":"Place de Pré Mousquetaire","postalCode":"1372","locality":"Bavois","commune":{"key":"5746","name":"Bavois","shortName":"Bavois"},"district":{"key":"2224","name":"District du Jura-Nord vaudois"},"canton":{"key":"22","code":"VD","name":"Vaud"},"status":"Real"},{"key":"10098726","name":"Route de Chavornay","postalCode":"1372","locality":"Bavois","commune":{"key":"5746","name":"Bavois","shortName":"Bavois"},"district":{"key":"2224","name":"District du Jura-Nord vaudois"},"canton":{"key":"22","code":"VD","name":"Vaud"},"status":"Real"},{"key":"10035565","name":"Route d'Entreroches","postalCode":"1372","locality":"Bavois","commune":{"key":"5746","name":"Bavois","shortName":"Bavois"},"district":{"key":"2224","name":"District du Jura-Nord vaudois"},"canton":{"key":"22","code":"VD","name":"Vaud"},"status":"Real"},{"key":"10078939","name":"Route d'Orny","postalCode":"1372","locality":"Bavois","commune":{"key":"5746","name":"Bavois","shortName":"Bavois"},"district":{"key":"2224","name":"District du Jura-Nord vaudois"},"canton":{"key":"22","code":"VD","name":"Vaud"},"status":"Real"},{"key":"10153624","name":"Route d'Oulens","postalCode":"1372","locality":"Bavois","commune":{"key":"5746","name":"Bavois","shortName":"Bavois"},"district":{"key":"2224","name":"District du Jura-Nord vaudois"},"canton":{"key":"22","code":"VD","name":"Vaud"},"status":"Real"},{"key":"10040639","name":"Rue de Cache Bolin","postalCode":"1372","locality":"Bavois","commune":{"key":"5746","name":"Bavois","shortName":"Bavois"},"district":{"key":"2224","name":"District du Jura-Nord vaudois"},"canton":{"key":"22","code":"VD","name":"Vaud"},"status":"Real"},{"key":"10183541","name":"Rue de la Côte","postalCode":"1372","locality":"Bavois","commune":{"key":"5746","name":"Bavois","shortName":"Bavois"},"district":{"key":"2224","name":"District du Jura-Nord vaudois"},"canton":{"key":"22","code":"VD","name":"Vaud"},"status":"Real"},{"key":"10040887","name":"Rue de la Gare","postalCode":"1372","locality":"Bavois","commune":{"key":"5746","name":"Bavois","shortName":"Bavois"},"district":{"key":"2224","name":"District du Jura-Nord vaudois"},"canton":{"key":"22","code":"VD","name":"Vaud"},"status":"Real"},{"key":"10098725","name":"Rue des Bordes","postalCode":"1372","locality":"Bavois","commune":{"key":"5746","name":"Bavois","shortName":"Bavois"},"district":{"key":"2224","name":"District du Jura-Nord vaudois"},"canton":{"key":"22","code":"VD","name":"Vaud"},"status":"Real"},{"key":"10040642","name":"Rue des Gubières","postalCode":"1372","locality":"Bavois","commune":{"key":"5746","name":"Bavois","shortName":"Bavois"},"district":{"key":"2224","name":"District du Jura-Nord vaudois"},"canton":{"key":"22","code":"VD","name":"Vaud"},"status":"Real"},{"key":"10078940","name":"Rue du Collège","postalCode":"1372","locality":"Bavois","commune":{"key":"5746","name":"Bavois","shortName":"Bavois"},"district":{"key":"2224","name":"District du Jura-Nord vaudois"},"canton":{"key":"22","code":"VD","name":"Vaud"},"status":"Real"},{"key":"10098723","name":"Rue du Haut du Village","postalCode":"1372","locality":"Bavois","commune":{"key":"5746","name":"Bavois","shortName":"Bavois"},"district":{"key":"2224","name":"District du Jura-Nord vaudois"},"canton":{"key":"22","code":"VD","name":"Vaud"},"status":"Real"},{"key":"10040888","name":"Rue du Village","postalCode":"1372","locality":"Bavois","commune":{"key":"5746","name":"Bavois","shortName":"Bavois"},"district":{"key":"2224","name":"District du Jura-Nord vaudois"},"canton":{"key":"22","code":"VD","name":"Vaud"},"status":"Real"},{"key":"10157392","name":"Rue En Parchet","postalCode":"1372","locality":"Bavois","commune":{"key":"5746","name":"Bavois","shortName":"Bavois"},"district":{"key":"2224","name":"District du Jura-Nord vaudois"},"canton":{"key":"22","code":"VD","name":"Vaud"},"status":"Real"},{"key":"10155896","name":"Verdet","postalCode":"1372","locality":"Bavois","commune":{"key":"5746","name":"Bavois","shortName":"Bavois"},"district":{"key":"2224","name":"District du Jura-Nord vaudois"},"canton":{"key":"22","code":"VD","name":"Vaud"},"status":"Real"},]