[{"name":"Ahornweg","postalCode":"04442","locality":"Zwenkau","municipality":{"key":"14729430","name":"Zwenkau, Stadt","type":"Stadt"},"district":{"key":"14729","name":"Leipzig","type":"Landkreis"},"federalState":{"key":"14","name":"Sachsen"}},{"name":"Akazienweg","postalCode":"04442","locality":"Zwenkau","municipality":{"key":"14729430","name":"Zwenkau, Stadt","type":"Stadt"},"district":{"key":"14729","name":"Leipzig","type":"Landkreis"},"federalState":{"key":"14","name":"Sachsen"}},{"name":"Alfred-Taube-Str.","postalCode":"04442","locality":"Zwenkau","municipality":{"key":"14729430","name":"Zwenkau, Stadt","type":"Stadt"},"district":{"key":"14729","name":"Leipzig","type":"Landkreis"},"federalState":{"key":"14","name":"Sachsen"}},{"name":"Alte Eythraer Str.","postalCode":"04442","locality":"Zwenkau","municipality":{"key":"14729430","name":"Zwenkau, Stadt","type":"Stadt"},"district":{"key":"14729","name":"Leipzig","type":"Landkreis"},"federalState":{"key":"14","name":"Sachsen"}},{"name":"Am Amselweg","postalCode":"04442","locality":"Zwenkau","municipality":{"key":"14729430","name":"Zwenkau, Stadt","type":"Stadt"},"district":{"key":"14729","name":"Leipzig","type":"Landkreis"},"federalState":{"key":"14","name":"Sachsen"}},{"name":"Am Anger","postalCode":"04442","locality":"Zwenkau","municipality":{"key":"14729430","name":"Zwenkau, Stadt","type":"Stadt"},"district":{"key":"14729","name":"Leipzig","type":"Landkreis"},"federalState":{"key":"14","name":"Sachsen"}},{"name":"Am Auenblick","postalCode":"04442","locality":"Zwenkau","municipality":{"key":"14729430","name":"Zwenkau, Stadt","type":"Stadt"},"district":{"key":"14729","name":"Leipzig","type":"Landkreis"},"federalState":{"key":"14","name":"Sachsen"}},{"name":"Am Auenhain","postalCode":"04442","locality":"Zwenkau","municipality":{"key":"14729430","name":"Zwenkau, Stadt","type":"Stadt"},"district":{"key":"14729","name":"Leipzig","type":"Landkreis"},"federalState":{"key":"14","name":"Sachsen"}},{"name":"Am Bahndamm","postalCode":"04442","locality":"Zwenkau","municipality":{"key":"14729430","name":"Zwenkau, Stadt","type":"Stadt"},"district":{"key":"14729","name":"Leipzig","type":"Landkreis"},"federalState":{"key":"14","name":"Sachsen"}},{"name":"Am Bahnhof","postalCode":"04442","locality":"Zwenkau","municipality":{"key":"14729430","name":"Zwenkau, Stadt","type":"Stadt"},"district":{"key":"14729","name":"Leipzig","type":"Landkreis"},"federalState":{"key":"14","name":"Sachsen"}},{"name":"Am Berg","postalCode":"04442","locality":"Zwenkau","municipality":{"key":"14729430","name":"Zwenkau, Stadt","type":"Stadt"},"district":{"key":"14729","name":"Leipzig","type":"Landkreis"},"federalState":{"key":"14","name":"Sachsen"}},{"name":"Am Mühlgraben","postalCode":"04442","locality":"Zwenkau","municipality":{"key":"14729430","name":"Zwenkau, Stadt","type":"Stadt"},"district":{"key":"14729","name":"Leipzig","type":"Landkreis"},"federalState":{"key":"14","name":"Sachsen"}},{"name":"Am Ring","postalCode":"04442","locality":"Zwenkau","municipality":{"key":"14729430","name":"Zwenkau, Stadt","type":"Stadt"},"district":{"key":"14729","name":"Leipzig","type":"Landkreis"},"federalState":{"key":"14","name":"Sachsen"}},{"name":"Am Scheidtplatz","postalCode":"04442","locality":"Zwenkau","municipality":{"key":"14729430","name":"Zwenkau, Stadt","type":"Stadt"},"district":{"key":"14729","name":"Leipzig","type":"Landkreis"},"federalState":{"key":"14","name":"Sachsen"}},{"name":"Am Teich","postalCode":"04442","locality":"Zwenkau","municipality":{"key":"14729430","name":"Zwenkau, Stadt","type":"Stadt"},"district":{"key":"14729","name":"Leipzig","type":"Landkreis"},"federalState":{"key":"14","name":"Sachsen"}},{"name":"Am Wall","postalCode":"04442","locality":"Zwenkau","municipality":{"key":"14729430","name":"Zwenkau, Stadt","type":"Stadt"},"district":{"key":"14729","name":"Leipzig","type":"Landkreis"},"federalState":{"key":"14","name":"Sachsen"}},{"name":"Am Wasserwerk","postalCode":"04442","locality":"Zwenkau","municipality":{"key":"14729430","name":"Zwenkau, Stadt","type":"Stadt"},"district":{"key":"14729","name":"Leipzig","type":"Landkreis"},"federalState":{"key":"14","name":"Sachsen"}},{"name":"Am Wiesengrund","postalCode":"04442","locality":"Zwenkau","municipality":{"key":"14729430","name":"Zwenkau, Stadt","type":"Stadt"},"district":{"key":"14729","name":"Leipzig","type":"Landkreis"},"federalState":{"key":"14","name":"Sachsen"}},{"name":"Am Wiesenhang","postalCode":"04442","locality":"Zwenkau","municipality":{"key":"14729430","name":"Zwenkau, Stadt","type":"Stadt"},"district":{"key":"14729","name":"Leipzig","type":"Landkreis"},"federalState":{"key":"14","name":"Sachsen"}},{"name":"Am Yachthafen","postalCode":"04442","locality":"Zwenkau","municipality":{"key":"14729430","name":"Zwenkau, Stadt","type":"Stadt"},"district":{"key":"14729","name":"Leipzig","type":"Landkreis"},"federalState":{"key":"14","name":"Sachsen"}},{"name":"An der Schilfwiese","postalCode":"04442","locality":"Zwenkau","municipality":{"key":"14729430","name":"Zwenkau, Stadt","type":"Stadt"},"district":{"key":"14729","name":"Leipzig","type":"Landkreis"},"federalState":{"key":"14","name":"Sachsen"}},{"name":"An der Trift","postalCode":"04442","locality":"Zwenkau","municipality":{"key":"14729430","name":"Zwenkau, Stadt","type":"Stadt"},"district":{"key":"14729","name":"Leipzig","type":"Landkreis"},"federalState":{"key":"14","name":"Sachsen"}},{"name":"Anna-Seghers-Str.","postalCode":"04442","locality":"Zwenkau","municipality":{"key":"14729430","name":"Zwenkau, Stadt","type":"Stadt"},"district":{"key":"14729","name":"Leipzig","type":"Landkreis"},"federalState":{"key":"14","name":"Sachsen"}},{"name":"Arthur-Hoffmann-Str.","postalCode":"04442","locality":"Zwenkau","municipality":{"key":"14729430","name":"Zwenkau, Stadt","type":"Stadt"},"district":{"key":"14729","name":"Leipzig","type":"Landkreis"},"federalState":{"key":"14","name":"Sachsen"}},{"name":"Arthur-Mahler-Str.","postalCode":"04442","locality":"Zwenkau","municipality":{"key":"14729430","name":"Zwenkau, Stadt","type":"Stadt"},"district":{"key":"14729","name":"Leipzig","type":"Landkreis"},"federalState":{"key":"14","name":"Sachsen"}},{"name":"Asternweg","postalCode":"04442","locality":"Zwenkau","municipality":{"key":"14729430","name":"Zwenkau, Stadt","type":"Stadt"},"district":{"key":"14729","name":"Leipzig","type":"Landkreis"},"federalState":{"key":"14","name":"Sachsen"}},{"name":"Auenstr.","postalCode":"04442","locality":"Zwenkau","municipality":{"key":"14729430","name":"Zwenkau, Stadt","type":"Stadt"},"district":{"key":"14729","name":"Leipzig","type":"Landkreis"},"federalState":{"key":"14","name":"Sachsen"}},{"name":"Auenweg","postalCode":"04442","locality":"Zwenkau","municipality":{"key":"14729430","name":"Zwenkau, Stadt","type":"Stadt"},"district":{"key":"14729","name":"Leipzig","type":"Landkreis"},"federalState":{"key":"14","name":"Sachsen"}},{"name":"Bäckergasse","postalCode":"04442","locality":"Zwenkau","municipality":{"key":"14729430","name":"Zwenkau, Stadt","type":"Stadt"},"district":{"key":"14729","name":"Leipzig","type":"Landkreis"},"federalState":{"key":"14","name":"Sachsen"}},{"name":"Bahnhofstr.","postalCode":"04442","locality":"Zwenkau","municipality":{"key":"14729430","name":"Zwenkau, Stadt","type":"Stadt"},"district":{"key":"14729","name":"Leipzig","type":"Landkreis"},"federalState":{"key":"14","name":"Sachsen"}},{"name":"Bebelplatz","postalCode":"04442","locality":"Zwenkau","municipality":{"key":"14729430","name":"Zwenkau, Stadt","type":"Stadt"},"district":{"key":"14729","name":"Leipzig","type":"Landkreis"},"federalState":{"key":"14","name":"Sachsen"}},{"name":"Berg","postalCode":"04442","locality":"Zwenkau","municipality":{"key":"14729430","name":"Zwenkau, Stadt","type":"Stadt"},"district":{"key":"14729","name":"Leipzig","type":"Landkreis"},"federalState":{"key":"14","name":"Sachsen"}},{"name":"Bergbautechnikausstellung","postalCode":"04442","locality":"Zwenkau","municipality":{"key":"14729430","name":"Zwenkau, Stadt","type":"Stadt"},"district":{"key":"14729","name":"Leipzig","type":"Landkreis"},"federalState":{"key":"14","name":"Sachsen"}},{"name":"Birkenweg","postalCode":"04442","locality":"Zwenkau","municipality":{"key":"14729430","name":"Zwenkau, Stadt","type":"Stadt"},"district":{"key":"14729","name":"Leipzig","type":"Landkreis"},"federalState":{"key":"14","name":"Sachsen"}},{"name":"Blumenstr.","postalCode":"04442","locality":"Zwenkau","municipality":{"key":"14729430","name":"Zwenkau, Stadt","type":"Stadt"},"district":{"key":"14729","name":"Leipzig","type":"Landkreis"},"federalState":{"key":"14","name":"Sachsen"}},{"name":"Bogenstr.","postalCode":"04442","locality":"Zwenkau","municipality":{"key":"14729430","name":"Zwenkau, Stadt","type":"Stadt"},"district":{"key":"14729","name":"Leipzig","type":"Landkreis"},"federalState":{"key":"14","name":"Sachsen"}},{"name":"Bornaer Str.","postalCode":"04442","locality":"Zwenkau","municipality":{"key":"14729430","name":"Zwenkau, Stadt","type":"Stadt"},"district":{"key":"14729","name":"Leipzig","type":"Landkreis"},"federalState":{"key":"14","name":"Sachsen"}},{"name":"Braugasse","postalCode":"04442","locality":"Zwenkau","municipality":{"key":"14729430","name":"Zwenkau, Stadt","type":"Stadt"},"district":{"key":"14729","name":"Leipzig","type":"Landkreis"},"federalState":{"key":"14","name":"Sachsen"}},{"name":"Breiter Rain","postalCode":"04442","locality":"Zwenkau","municipality":{"key":"14729430","name":"Zwenkau, Stadt","type":"Stadt"},"district":{"key":"14729","name":"Leipzig","type":"Landkreis"},"federalState":{"key":"14","name":"Sachsen"}},{"name":"Breitscheidstr.","postalCode":"04442","locality":"Zwenkau","municipality":{"key":"14729430","name":"Zwenkau, Stadt","type":"Stadt"},"district":{"key":"14729","name":"Leipzig","type":"Landkreis"},"federalState":{"key":"14","name":"Sachsen"}},{"name":"Brühl","postalCode":"04442","locality":"Zwenkau","municipality":{"key":"14729430","name":"Zwenkau, Stadt","type":"Stadt"},"district":{"key":"14729","name":"Leipzig","type":"Landkreis"},"federalState":{"key":"14","name":"Sachsen"}},{"name":"Buchenweg","postalCode":"04442","locality":"Zwenkau","municipality":{"key":"14729430","name":"Zwenkau, Stadt","type":"Stadt"},"district":{"key":"14729","name":"Leipzig","type":"Landkreis"},"federalState":{"key":"14","name":"Sachsen"}},{"name":"Bürgermeister-Ahnert-Platz","postalCode":"04442","locality":"Zwenkau","municipality":{"key":"14729430","name":"Zwenkau, Stadt","type":"Stadt"},"district":{"key":"14729","name":"Leipzig","type":"Landkreis"},"federalState":{"key":"14","name":"Sachsen"}},{"name":"Carsdorfer Str.","postalCode":"04442","locality":"Zwenkau","municipality":{"key":"14729430","name":"Zwenkau, Stadt","type":"Stadt"},"district":{"key":"14729","name":"Leipzig","type":"Landkreis"},"federalState":{"key":"14","name":"Sachsen"}},{"name":"Coburger Str.","postalCode":"04442","locality":"Zwenkau","municipality":{"key":"14729430","name":"Zwenkau, Stadt","type":"Stadt"},"district":{"key":"14729","name":"Leipzig","type":"Landkreis"},"federalState":{"key":"14","name":"Sachsen"}},{"name":"Dahlienweg","postalCode":"04442","locality":"Zwenkau","municipality":{"key":"14729430","name":"Zwenkau, Stadt","type":"Stadt"},"district":{"key":"14729","name":"Leipzig","type":"Landkreis"},"federalState":{"key":"14","name":"Sachsen"}},{"name":"Dalziger Weg","postalCode":"04442","locality":"Zwenkau","municipality":{"key":"14729430","name":"Zwenkau, Stadt","type":"Stadt"},"district":{"key":"14729","name":"Leipzig","type":"Landkreis"},"federalState":{"key":"14","name":"Sachsen"}},{"name":"Döhlener Str.","postalCode":"04442","locality":"Zwenkau","municipality":{"key":"14729430","name":"Zwenkau, Stadt","type":"Stadt"},"district":{"key":"14729","name":"Leipzig","type":"Landkreis"},"federalState":{"key":"14","name":"Sachsen"}},{"name":"Dorfplatz","postalCode":"04442","locality":"Zwenkau","municipality":{"key":"14729430","name":"Zwenkau, Stadt","type":"Stadt"},"district":{"key":"14729","name":"Leipzig","type":"Landkreis"},"federalState":{"key":"14","name":"Sachsen"}},{"name":"Dorfstr.","postalCode":"04442","locality":"Zwenkau","municipality":{"key":"14729430","name":"Zwenkau, Stadt","type":"Stadt"},"district":{"key":"14729","name":"Leipzig","type":"Landkreis"},"federalState":{"key":"14","name":"Sachsen"}},{"name":"Ebertstr.","postalCode":"04442","locality":"Zwenkau","municipality":{"key":"14729430","name":"Zwenkau, Stadt","type":"Stadt"},"district":{"key":"14729","name":"Leipzig","type":"Landkreis"},"federalState":{"key":"14","name":"Sachsen"}},{"name":"Eichenweg","postalCode":"04442","locality":"Zwenkau","municipality":{"key":"14729430","name":"Zwenkau, Stadt","type":"Stadt"},"district":{"key":"14729","name":"Leipzig","type":"Landkreis"},"federalState":{"key":"14","name":"Sachsen"}},{"name":"Eisnerstr.","postalCode":"04442","locality":"Zwenkau","municipality":{"key":"14729430","name":"Zwenkau, Stadt","type":"Stadt"},"district":{"key":"14729","name":"Leipzig","type":"Landkreis"},"federalState":{"key":"14","name":"Sachsen"}},{"name":"Elsterbogen","postalCode":"04442","locality":"Zwenkau","municipality":{"key":"14729430","name":"Zwenkau, Stadt","type":"Stadt"},"district":{"key":"14729","name":"Leipzig","type":"Landkreis"},"federalState":{"key":"14","name":"Sachsen"}},{"name":"Engelsstr.","postalCode":"04442","locality":"Zwenkau","municipality":{"key":"14729430","name":"Zwenkau, Stadt","type":"Stadt"},"district":{"key":"14729","name":"Leipzig","type":"Landkreis"},"federalState":{"key":"14","name":"Sachsen"}},{"name":"Erlenweg","postalCode":"04442","locality":"Zwenkau","municipality":{"key":"14729430","name":"Zwenkau, Stadt","type":"Stadt"},"district":{"key":"14729","name":"Leipzig","type":"Landkreis"},"federalState":{"key":"14","name":"Sachsen"}},{"name":"Eschenweg","postalCode":"04442","locality":"Zwenkau","municipality":{"key":"14729430","name":"Zwenkau, Stadt","type":"Stadt"},"district":{"key":"14729","name":"Leipzig","type":"Landkreis"},"federalState":{"key":"14","name":"Sachsen"}},{"name":"Eythraer Kante","postalCode":"04442","locality":"Zwenkau","municipality":{"key":"14729430","name":"Zwenkau, Stadt","type":"Stadt"},"district":{"key":"14729","name":"Leipzig","type":"Landkreis"},"federalState":{"key":"14","name":"Sachsen"}},{"name":"Eythraer Str.","postalCode":"04442","locality":"Zwenkau","municipality":{"key":"14729430","name":"Zwenkau, Stadt","type":"Stadt"},"district":{"key":"14729","name":"Leipzig","type":"Landkreis"},"federalState":{"key":"14","name":"Sachsen"}},{"name":"Eythraer Weg","postalCode":"04442","locality":"Zwenkau","municipality":{"key":"14729430","name":"Zwenkau, Stadt","type":"Stadt"},"district":{"key":"14729","name":"Leipzig","type":"Landkreis"},"federalState":{"key":"14","name":"Sachsen"}},{"name":"Feldstr.","postalCode":"04442","locality":"Zwenkau","municipality":{"key":"14729430","name":"Zwenkau, Stadt","type":"Stadt"},"district":{"key":"14729","name":"Leipzig","type":"Landkreis"},"federalState":{"key":"14","name":"Sachsen"}},{"name":"Fliederweg","postalCode":"04442","locality":"Zwenkau","municipality":{"key":"14729430","name":"Zwenkau, Stadt","type":"Stadt"},"district":{"key":"14729","name":"Leipzig","type":"Landkreis"},"federalState":{"key":"14","name":"Sachsen"}},{"name":"Friedensstr.","postalCode":"04442","locality":"Zwenkau","municipality":{"key":"14729430","name":"Zwenkau, Stadt","type":"Stadt"},"district":{"key":"14729","name":"Leipzig","type":"Landkreis"},"federalState":{"key":"14","name":"Sachsen"}},{"name":"Fritz-Deuß-Str.","postalCode":"04442","locality":"Zwenkau","municipality":{"key":"14729430","name":"Zwenkau, Stadt","type":"Stadt"},"district":{"key":"14729","name":"Leipzig","type":"Landkreis"},"federalState":{"key":"14","name":"Sachsen"}},{"name":"Gartenstr.","postalCode":"04442","locality":"Zwenkau","municipality":{"key":"14729430","name":"Zwenkau, Stadt","type":"Stadt"},"district":{"key":"14729","name":"Leipzig","type":"Landkreis"},"federalState":{"key":"14","name":"Sachsen"}},{"name":"Gattergasse","postalCode":"04442","locality":"Zwenkau","municipality":{"key":"14729430","name":"Zwenkau, Stadt","type":"Stadt"},"district":{"key":"14729","name":"Leipzig","type":"Landkreis"},"federalState":{"key":"14","name":"Sachsen"}},{"name":"Georg-Schumann-Str.","postalCode":"04442","locality":"Zwenkau","municipality":{"key":"14729430","name":"Zwenkau, Stadt","type":"Stadt"},"district":{"key":"14729","name":"Leipzig","type":"Landkreis"},"federalState":{"key":"14","name":"Sachsen"}},{"name":"Georg-Schwarz-Str.","postalCode":"04442","locality":"Zwenkau","municipality":{"key":"14729430","name":"Zwenkau, Stadt","type":"Stadt"},"district":{"key":"14729","name":"Leipzig","type":"Landkreis"},"federalState":{"key":"14","name":"Sachsen"}},{"name":"Geschwister-Scholl-Platz","postalCode":"04442","locality":"Zwenkau","municipality":{"key":"14729430","name":"Zwenkau, Stadt","type":"Stadt"},"district":{"key":"14729","name":"Leipzig","type":"Landkreis"},"federalState":{"key":"14","name":"Sachsen"}},{"name":"Geschwister-Scholl-Weg","postalCode":"04442","locality":"Zwenkau","municipality":{"key":"14729430","name":"Zwenkau, Stadt","type":"Stadt"},"district":{"key":"14729","name":"Leipzig","type":"Landkreis"},"federalState":{"key":"14","name":"Sachsen"}},{"name":"Gladiolenweg","postalCode":"04442","locality":"Zwenkau","municipality":{"key":"14729430","name":"Zwenkau, Stadt","type":"Stadt"},"district":{"key":"14729","name":"Leipzig","type":"Landkreis"},"federalState":{"key":"14","name":"Sachsen"}},{"name":"Glockenblumenweg","postalCode":"04442","locality":"Zwenkau","municipality":{"key":"14729430","name":"Zwenkau, Stadt","type":"Stadt"},"district":{"key":"14729","name":"Leipzig","type":"Landkreis"},"federalState":{"key":"14","name":"Sachsen"}},{"name":"Goethestr.","postalCode":"04442","locality":"Zwenkau","municipality":{"key":"14729430","name":"Zwenkau, Stadt","type":"Stadt"},"district":{"key":"14729","name":"Leipzig","type":"Landkreis"},"federalState":{"key":"14","name":"Sachsen"}},{"name":"Grafstr.","postalCode":"04442","locality":"Zwenkau","municipality":{"key":"14729430","name":"Zwenkau, Stadt","type":"Stadt"},"district":{"key":"14729","name":"Leipzig","type":"Landkreis"},"federalState":{"key":"14","name":"Sachsen"}},{"name":"Großdalziger Str.","postalCode":"04442","locality":"Zwenkau","municipality":{"key":"14729430","name":"Zwenkau, Stadt","type":"Stadt"},"district":{"key":"14729","name":"Leipzig","type":"Landkreis"},"federalState":{"key":"14","name":"Sachsen"}},{"name":"Großdeubener Weg","postalCode":"04442","locality":"Zwenkau","municipality":{"key":"14729430","name":"Zwenkau, Stadt","type":"Stadt"},"district":{"key":"14729","name":"Leipzig","type":"Landkreis"},"federalState":{"key":"14","name":"Sachsen"}},{"name":"Grüne Gasse","postalCode":"04442","locality":"Zwenkau","municipality":{"key":"14729430","name":"Zwenkau, Stadt","type":"Stadt"},"district":{"key":"14729","name":"Leipzig","type":"Landkreis"},"federalState":{"key":"14","name":"Sachsen"}},{"name":"Gutsweg","postalCode":"04442","locality":"Zwenkau","municipality":{"key":"14729430","name":"Zwenkau, Stadt","type":"Stadt"},"district":{"key":"14729","name":"Leipzig","type":"Landkreis"},"federalState":{"key":"14","name":"Sachsen"}},{"name":"Hafenstr.","postalCode":"04442","locality":"Zwenkau","municipality":{"key":"14729430","name":"Zwenkau, Stadt","type":"Stadt"},"district":{"key":"14729","name":"Leipzig","type":"Landkreis"},"federalState":{"key":"14","name":"Sachsen"}},{"name":"Harthblick","postalCode":"04442","locality":"Zwenkau","municipality":{"key":"14729430","name":"Zwenkau, Stadt","type":"Stadt"},"district":{"key":"14729","name":"Leipzig","type":"Landkreis"},"federalState":{"key":"14","name":"Sachsen"}},{"name":"Hauptstr.","postalCode":"04442","locality":"Zwenkau","municipality":{"key":"14729430","name":"Zwenkau, Stadt","type":"Stadt"},"district":{"key":"14729","name":"Leipzig","type":"Landkreis"},"federalState":{"key":"14","name":"Sachsen"}},{"name":"Heinrich-Mann-Weg","postalCode":"04442","locality":"Zwenkau","municipality":{"key":"14729430","name":"Zwenkau, Stadt","type":"Stadt"},"district":{"key":"14729","name":"Leipzig","type":"Landkreis"},"federalState":{"key":"14","name":"Sachsen"}},{"name":"Heiterblickallee","postalCode":"04442","locality":"Zwenkau","municipality":{"key":"14729430","name":"Zwenkau, Stadt","type":"Stadt"},"district":{"key":"14729","name":"Leipzig","type":"Landkreis"},"federalState":{"key":"14","name":"Sachsen"}},{"name":"Hermann-Löns-Weg","postalCode":"04442","locality":"Zwenkau","municipality":{"key":"14729430","name":"Zwenkau, Stadt","type":"Stadt"},"district":{"key":"14729","name":"Leipzig","type":"Landkreis"},"federalState":{"key":"14","name":"Sachsen"}},{"name":"Herrengartenweg","postalCode":"04442","locality":"Zwenkau","municipality":{"key":"14729430","name":"Zwenkau, Stadt","type":"Stadt"},"district":{"key":"14729","name":"Leipzig","type":"Landkreis"},"federalState":{"key":"14","name":"Sachsen"}},{"name":"Hugo-Haase-Str.","postalCode":"04442","locality":"Zwenkau","municipality":{"key":"14729430","name":"Zwenkau, Stadt","type":"Stadt"},"district":{"key":"14729","name":"Leipzig","type":"Landkreis"},"federalState":{"key":"14","name":"Sachsen"}},{"name":"Illgnerstr.","postalCode":"04442","locality":"Zwenkau","municipality":{"key":"14729430","name":"Zwenkau, Stadt","type":"Stadt"},"district":{"key":"14729","name":"Leipzig","type":"Landkreis"},"federalState":{"key":"14","name":"Sachsen"}},{"name":"Irisweg","postalCode":"04442","locality":"Zwenkau","municipality":{"key":"14729430","name":"Zwenkau, Stadt","type":"Stadt"},"district":{"key":"14729","name":"Leipzig","type":"Landkreis"},"federalState":{"key":"14","name":"Sachsen"}},{"name":"Jack-London-Weg","postalCode":"04289","locality":"Leipzig","municipality":{"key":"14713000","name":"Leipzig, Stadt","type":"Kreisfreie_Stadt"},"district":{"key":"14713","name":"Leipzig, Stadt","type":"Kreisfreie_Stadt"},"federalState":{"key":"14","name":"Sachsen"}},{"name":"Jacobstr.","postalCode":"04105","locality":"Leipzig","municipality":{"key":"14713000","name":"Leipzig, Stadt","type":"Kreisfreie_Stadt"},"district":{"key":"14713","name":"Leipzig, Stadt","type":"Kreisfreie_Stadt"},"federalState":{"key":"14","name":"Sachsen"}},{"name":"Jadassohnstr.","postalCode":"04179","locality":"Leipzig","municipality":{"key":"14713000","name":"Leipzig, Stadt","type":"Kreisfreie_Stadt"},"district":{"key":"14713","name":"Leipzig, Stadt","type":"Kreisfreie_Stadt"},"federalState":{"key":"14","name":"Sachsen"}},{"name":"Jadebogen","postalCode":"04319","locality":"Leipzig","municipality":{"key":"14713000","name":"Leipzig, Stadt","type":"Kreisfreie_Stadt"},"district":{"key":"14713","name":"Leipzig, Stadt","type":"Kreisfreie_Stadt"},"federalState":{"key":"14","name":"Sachsen"}},{"name":"Jägerhofpassage","postalCode":"04109","locality":"Leipzig","municipality":{"key":"14713000","name":"Leipzig, Stadt","type":"Kreisfreie_Stadt"},"district":{"key":"14713","name":"Leipzig, Stadt","type":"Kreisfreie_Stadt"},"federalState":{"key":"14","name":"Sachsen"}},{"name":"Jägerstr.","postalCode":"04157","locality":"Leipzig","municipality":{"key":"14713000","name":"Leipzig, Stadt","type":"Kreisfreie_Stadt"},"district":{"key":"14713","name":"Leipzig, Stadt","type":"Kreisfreie_Stadt"},"federalState":{"key":"14","name":"Sachsen"}},{"name":"Jahnallee","postalCode":"04109","locality":"Leipzig","municipality":{"key":"14713000","name":"Leipzig, Stadt","type":"Kreisfreie_Stadt"},"district":{"key":"14713","name":"Leipzig, Stadt","type":"Kreisfreie_Stadt"},"federalState":{"key":"14","name":"Sachsen"}},{"name":"Jahnallee","postalCode":"04177","locality":"Leipzig","municipality":{"key":"14713000","name":"Leipzig, Stadt","type":"Kreisfreie_Stadt"},"district":{"key":"14713","name":"Leipzig, Stadt","type":"Kreisfreie_Stadt"},"federalState":{"key":"14","name":"Sachsen"}},{"name":"Jahnstr.","postalCode":"04288","locality":"Leipzig","municipality":{"key":"14713000","name":"Leipzig, Stadt","type":"Kreisfreie_Stadt"},"district":{"key":"14713","name":"Leipzig, Stadt","type":"Kreisfreie_Stadt"},"federalState":{"key":"14","name":"Sachsen"}},{"name":"Jahnweg","postalCode":"04319","locality":"Leipzig","municipality":{"key":"14713000","name":"Leipzig, Stadt","type":"Kreisfreie_Stadt"},"district":{"key":"14713","name":"Leipzig, Stadt","type":"Kreisfreie_Stadt"},"federalState":{"key":"14","name":"Sachsen"}},{"name":"Jahrtausendfeld","postalCode":"04177","locality":"Leipzig","municipality":{"key":"14713000","name":"Leipzig, Stadt","type":"Kreisfreie_Stadt"},"district":{"key":"14713","name":"Leipzig, Stadt","type":"Kreisfreie_Stadt"},"federalState":{"key":"14","name":"Sachsen"}},{"name":"Jakobiwinkel","postalCode":"04178","locality":"Leipzig","municipality":{"key":"14713000","name":"Leipzig, Stadt","type":"Kreisfreie_Stadt"},"district":{"key":"14713","name":"Leipzig, Stadt","type":"Kreisfreie_Stadt"},"federalState":{"key":"14","name":"Sachsen"}},{"name":"Jasminweg","postalCode":"04318","locality":"Leipzig","municipality":{"key":"14713000","name":"Leipzig, Stadt","type":"Kreisfreie_Stadt"},"district":{"key":"14713","name":"Leipzig, Stadt","type":"Kreisfreie_Stadt"},"federalState":{"key":"14","name":"Sachsen"}},{"name":"Jaspisstr.","postalCode":"04319","locality":"Leipzig","municipality":{"key":"14713000","name":"Leipzig, Stadt","type":"Kreisfreie_Stadt"},"district":{"key":"14713","name":"Leipzig, Stadt","type":"Kreisfreie_Stadt"},"federalState":{"key":"14","name":"Sachsen"}},{"name":"J.-C.-Hinrichs-Str.","postalCode":"04315","locality":"Leipzig","municipality":{"key":"14713000","name":"Leipzig, Stadt","type":"Kreisfreie_Stadt"},"district":{"key":"14713","name":"Leipzig, Stadt","type":"Kreisfreie_Stadt"},"federalState":{"key":"14","name":"Sachsen"}},{"name":"Joachim-Gottschalk-Weg","postalCode":"04289","locality":"Leipzig","municipality":{"key":"14713000","name":"Leipzig, Stadt","type":"Kreisfreie_Stadt"},"district":{"key":"14713","name":"Leipzig, Stadt","type":"Kreisfreie_Stadt"},"federalState":{"key":"14","name":"Sachsen"}},{"name":"Jöcherstr.","postalCode":"04318","locality":"Leipzig","municipality":{"key":"14713000","name":"Leipzig, Stadt","type":"Kreisfreie_Stadt"},"district":{"key":"14713","name":"Leipzig, Stadt","type":"Kreisfreie_Stadt"},"federalState":{"key":"14","name":"Sachsen"}},{"name":"Johann-Adolf-Str.","postalCode":"04279","locality":"Leipzig","municipality":{"key":"14713000","name":"Leipzig, Stadt","type":"Kreisfreie_Stadt"},"district":{"key":"14713","name":"Leipzig, Stadt","type":"Kreisfreie_Stadt"},"federalState":{"key":"14","name":"Sachsen"}},{"name":"Johannastr.","postalCode":"04279","locality":"Leipzig","municipality":{"key":"14713000","name":"Leipzig, Stadt","type":"Kreisfreie_Stadt"},"district":{"key":"14713","name":"Leipzig, Stadt","type":"Kreisfreie_Stadt"},"federalState":{"key":"14","name":"Sachsen"}},{"name":"Johannes-Kärner-Str.","postalCode":"04328","locality":"Leipzig","municipality":{"key":"14713000","name":"Leipzig, Stadt","type":"Kreisfreie_Stadt"},"district":{"key":"14713","name":"Leipzig, Stadt","type":"Kreisfreie_Stadt"},"federalState":{"key":"14","name":"Sachsen"}},{"name":"Johannes-R.-Becher-Str.","postalCode":"04279","locality":"Leipzig","municipality":{"key":"14713000","name":"Leipzig, Stadt","type":"Kreisfreie_Stadt"},"district":{"key":"14713","name":"Leipzig, Stadt","type":"Kreisfreie_Stadt"},"federalState":{"key":"14","name":"Sachsen"}},{"name":"Johannes-Weyrauch-Platz","postalCode":"04178","locality":"Leipzig","municipality":{"key":"14713000","name":"Leipzig, Stadt","type":"Kreisfreie_Stadt"},"district":{"key":"14713","name":"Leipzig, Stadt","type":"Kreisfreie_Stadt"},"federalState":{"key":"14","name":"Sachsen"}},{"name":"Johannisallee","postalCode":"04103","locality":"Leipzig","municipality":{"key":"14713000","name":"Leipzig, Stadt","type":"Kreisfreie_Stadt"},"district":{"key":"14713","name":"Leipzig, Stadt","type":"Kreisfreie_Stadt"},"federalState":{"key":"14","name":"Sachsen"}},{"name":"Johannisallee","postalCode":"04317","locality":"Leipzig","municipality":{"key":"14713000","name":"Leipzig, Stadt","type":"Kreisfreie_Stadt"},"district":{"key":"14713","name":"Leipzig, Stadt","type":"Kreisfreie_Stadt"},"federalState":{"key":"14","name":"Sachsen"}},{"name":"Johannisgasse","postalCode":"04103","locality":"Leipzig","municipality":{"key":"14713000","name":"Leipzig, Stadt","type":"Kreisfreie_Stadt"},"district":{"key":"14713","name":"Leipzig, Stadt","type":"Kreisfreie_Stadt"},"federalState":{"key":"14","name":"Sachsen"}},{"name":"Johannishöhe","postalCode":"04279","locality":"Leipzig","municipality":{"key":"14713000","name":"Leipzig, Stadt","type":"Kreisfreie_Stadt"},"district":{"key":"14713","name":"Leipzig, Stadt","type":"Kreisfreie_Stadt"},"federalState":{"key":"14","name":"Sachsen"}},{"name":"Johannisplatz","postalCode":"04103","locality":"Leipzig","municipality":{"key":"14713000","name":"Leipzig, Stadt","type":"Kreisfreie_Stadt"},"district":{"key":"14713","name":"Leipzig, Stadt","type":"Kreisfreie_Stadt"},"federalState":{"key":"14","name":"Sachsen"}},{"name":"Johann-Jakob-Weber-Platz","postalCode":"04299","locality":"Leipzig","municipality":{"key":"14713000","name":"Leipzig, Stadt","type":"Kreisfreie_Stadt"},"district":{"key":"14713","name":"Leipzig, Stadt","type":"Kreisfreie_Stadt"},"federalState":{"key":"14","name":"Sachsen"}},{"name":"Johnsonweg","postalCode":"04289","locality":"Leipzig","municipality":{"key":"14713000","name":"Leipzig, Stadt","type":"Kreisfreie_Stadt"},"district":{"key":"14713","name":"Leipzig, Stadt","type":"Kreisfreie_Stadt"},"federalState":{"key":"14","name":"Sachsen"}},{"name":"Jöhstädter Str.","postalCode":"04349","locality":"Leipzig","municipality":{"key":"14713000","name":"Leipzig, Stadt","type":"Kreisfreie_Stadt"},"district":{"key":"14713","name":"Leipzig, Stadt","type":"Kreisfreie_Stadt"},"federalState":{"key":"14","name":"Sachsen"}},{"name":"Jonasstr.","postalCode":"04315","locality":"Leipzig","municipality":{"key":"14713000","name":"Leipzig, Stadt","type":"Kreisfreie_Stadt"},"district":{"key":"14713","name":"Leipzig, Stadt","type":"Kreisfreie_Stadt"},"federalState":{"key":"14","name":"Sachsen"}},{"name":"Jonsdorfer Str.","postalCode":"04207","locality":"Leipzig","municipality":{"key":"14713000","name":"Leipzig, Stadt","type":"Kreisfreie_Stadt"},"district":{"key":"14713","name":"Leipzig, Stadt","type":"Kreisfreie_Stadt"},"federalState":{"key":"14","name":"Sachsen"}},{"name":"Jordanstr.","postalCode":"04177","locality":"Leipzig","municipality":{"key":"14713000","name":"Leipzig, Stadt","type":"Kreisfreie_Stadt"},"district":{"key":"14713","name":"Leipzig, Stadt","type":"Kreisfreie_Stadt"},"federalState":{"key":"14","name":"Sachsen"}},{"name":"Jörgen-Schmidtchen-Weg","postalCode":"04157","locality":"Leipzig","municipality":{"key":"14713000","name":"Leipzig, Stadt","type":"Kreisfreie_Stadt"},"district":{"key":"14713","name":"Leipzig, Stadt","type":"Kreisfreie_Stadt"},"federalState":{"key":"14","name":"Sachsen"}},{"name":"Josephinenstr.","postalCode":"04317","locality":"Leipzig","municipality":{"key":"14713000","name":"Leipzig, Stadt","type":"Kreisfreie_Stadt"},"district":{"key":"14713","name":"Leipzig, Stadt","type":"Kreisfreie_Stadt"},"federalState":{"key":"14","name":"Sachsen"}},{"name":"Josephstr.","postalCode":"04177","locality":"Leipzig","municipality":{"key":"14713000","name":"Leipzig, Stadt","type":"Kreisfreie_Stadt"},"district":{"key":"14713","name":"Leipzig, Stadt","type":"Kreisfreie_Stadt"},"federalState":{"key":"14","name":"Sachsen"}},{"name":"Jouleweg","postalCode":"04299","locality":"Leipzig","municipality":{"key":"14713000","name":"Leipzig, Stadt","type":"Kreisfreie_Stadt"},"district":{"key":"14713","name":"Leipzig, Stadt","type":"Kreisfreie_Stadt"},"federalState":{"key":"14","name":"Sachsen"}},{"name":"Judith-Auer-Str.","postalCode":"04317","locality":"Leipzig","municipality":{"key":"14713000","name":"Leipzig, Stadt","type":"Kreisfreie_Stadt"},"district":{"key":"14713","name":"Leipzig, Stadt","type":"Kreisfreie_Stadt"},"federalState":{"key":"14","name":"Sachsen"}},{"name":"Juister Weg","postalCode":"04157","locality":"Leipzig","municipality":{"key":"14713000","name":"Leipzig, Stadt","type":"Kreisfreie_Stadt"},"district":{"key":"14713","name":"Leipzig, Stadt","type":"Kreisfreie_Stadt"},"federalState":{"key":"14","name":"Sachsen"}},{"name":"Julian-Marchlewski-Str.","postalCode":"04347","locality":"Leipzig","municipality":{"key":"14713000","name":"Leipzig, Stadt","type":"Kreisfreie_Stadt"},"district":{"key":"14713","name":"Leipzig, Stadt","type":"Kreisfreie_Stadt"},"federalState":{"key":"14","name":"Sachsen"}},{"name":"Julius-Krause-Str.","postalCode":"04318","locality":"Leipzig","municipality":{"key":"14713000","name":"Leipzig, Stadt","type":"Kreisfreie_Stadt"},"district":{"key":"14713","name":"Leipzig, Stadt","type":"Kreisfreie_Stadt"},"federalState":{"key":"14","name":"Sachsen"}},{"name":"Juliusstr.","postalCode":"04315","locality":"Leipzig","municipality":{"key":"14713000","name":"Leipzig, Stadt","type":"Kreisfreie_Stadt"},"district":{"key":"14713","name":"Leipzig, Stadt","type":"Kreisfreie_Stadt"},"federalState":{"key":"14","name":"Sachsen"}},{"name":"Jungfernstiege","postalCode":"04159","locality":"Leipzig","municipality":{"key":"14713000","name":"Leipzig, Stadt","type":"Kreisfreie_Stadt"},"district":{"key":"14713","name":"Leipzig, Stadt","type":"Kreisfreie_Stadt"},"federalState":{"key":"14","name":"Sachsen"}},{"name":"Junghanßstr.","postalCode":"04179","locality":"Leipzig","municipality":{"key":"14713000","name":"Leipzig, Stadt","type":"Kreisfreie_Stadt"},"district":{"key":"14713","name":"Leipzig, Stadt","type":"Kreisfreie_Stadt"},"federalState":{"key":"14","name":"Sachsen"}},{"name":"Jupiterstr.","postalCode":"04205","locality":"Leipzig","municipality":{"key":"14713000","name":"Leipzig, Stadt","type":"Kreisfreie_Stadt"},"district":{"key":"14713","name":"Leipzig, Stadt","type":"Kreisfreie_Stadt"},"federalState":{"key":"14","name":"Sachsen"}},{"name":"Jupp-Müller-Str.","postalCode":"04159","locality":"Leipzig","municipality":{"key":"14713000","name":"Leipzig, Stadt","type":"Kreisfreie_Stadt"},"district":{"key":"14713","name":"Leipzig, Stadt","type":"Kreisfreie_Stadt"},"federalState":{"key":"14","name":"Sachsen"}},{"name":"Juridicum-Passage","postalCode":"04109","locality":"Leipzig","municipality":{"key":"14713000","name":"Leipzig, Stadt","type":"Kreisfreie_Stadt"},"district":{"key":"14713","name":"Leipzig, Stadt","type":"Kreisfreie_Stadt"},"federalState":{"key":"14","name":"Sachsen"}},{"name":"Jutta-Hipp-Weg","postalCode":"04289","locality":"Leipzig","municipality":{"key":"14713000","name":"Leipzig, Stadt","type":"Kreisfreie_Stadt"},"district":{"key":"14713","name":"Leipzig, Stadt","type":"Kreisfreie_Stadt"},"federalState":{"key":"14","name":"Sachsen"}},{"name":"Karl-Marx-Platz","postalCode":"04442","locality":"Zwenkau","municipality":{"key":"14729430","name":"Zwenkau, Stadt","type":"Stadt"},"district":{"key":"14729","name":"Leipzig","type":"Landkreis"},"federalState":{"key":"14","name":"Sachsen"}},{"name":"Karl-Thieß-Str.","postalCode":"04442","locality":"Zwenkau","municipality":{"key":"14729430","name":"Zwenkau, Stadt","type":"Stadt"},"district":{"key":"14729","name":"Leipzig","type":"Landkreis"},"federalState":{"key":"14","name":"Sachsen"}},{"name":"Kastanienweg","postalCode":"04442","locality":"Zwenkau","municipality":{"key":"14729430","name":"Zwenkau, Stadt","type":"Stadt"},"district":{"key":"14729","name":"Leipzig","type":"Landkreis"},"federalState":{"key":"14","name":"Sachsen"}},{"name":"Kaufmannring","postalCode":"04442","locality":"Zwenkau","municipality":{"key":"14729430","name":"Zwenkau, Stadt","type":"Stadt"},"district":{"key":"14729","name":"Leipzig","type":"Landkreis"},"federalState":{"key":"14","name":"Sachsen"}},{"name":"Kirchstr.","postalCode":"04442","locality":"Zwenkau","municipality":{"key":"14729430","name":"Zwenkau, Stadt","type":"Stadt"},"district":{"key":"14729","name":"Leipzig","type":"Landkreis"},"federalState":{"key":"14","name":"Sachsen"}},{"name":"Kirchstrasse","postalCode":"04442","locality":"Zwenkau","municipality":{"key":"14729430","name":"Zwenkau, Stadt","type":"Stadt"},"district":{"key":"14729","name":"Leipzig","type":"Landkreis"},"federalState":{"key":"14","name":"Sachsen"}},{"name":"Kirschallee","postalCode":"04442","locality":"Zwenkau","municipality":{"key":"14729430","name":"Zwenkau, Stadt","type":"Stadt"},"district":{"key":"14729","name":"Leipzig","type":"Landkreis"},"federalState":{"key":"14","name":"Sachsen"}},{"name":"Kitzner Str.","postalCode":"04442","locality":"Zwenkau","municipality":{"key":"14729430","name":"Zwenkau, Stadt","type":"Stadt"},"district":{"key":"14729","name":"Leipzig","type":"Landkreis"},"federalState":{"key":"14","name":"Sachsen"}},{"name":"Kleindalziger Str.","postalCode":"04442","locality":"Zwenkau","municipality":{"key":"14729430","name":"Zwenkau, Stadt","type":"Stadt"},"district":{"key":"14729","name":"Leipzig","type":"Landkreis"},"federalState":{"key":"14","name":"Sachsen"}},{"name":"Körnerstr.","postalCode":"04442","locality":"Zwenkau","municipality":{"key":"14729430","name":"Zwenkau, Stadt","type":"Stadt"},"district":{"key":"14729","name":"Leipzig","type":"Landkreis"},"federalState":{"key":"14","name":"Sachsen"}},{"name":"Kreuzweg","postalCode":"04442","locality":"Zwenkau","municipality":{"key":"14729430","name":"Zwenkau, Stadt","type":"Stadt"},"district":{"key":"14729","name":"Leipzig","type":"Landkreis"},"federalState":{"key":"14","name":"Sachsen"}},{"name":"Krokusweg","postalCode":"04442","locality":"Zwenkau","municipality":{"key":"14729430","name":"Zwenkau, Stadt","type":"Stadt"},"district":{"key":"14729","name":"Leipzig","type":"Landkreis"},"federalState":{"key":"14","name":"Sachsen"}},{"name":"Kurze Str.","postalCode":"04442","locality":"Zwenkau","municipality":{"key":"14729430","name":"Zwenkau, Stadt","type":"Stadt"},"district":{"key":"14729","name":"Leipzig","type":"Landkreis"},"federalState":{"key":"14","name":"Sachsen"}},{"name":"Leichenweg","postalCode":"04442","locality":"Zwenkau","municipality":{"key":"14729430","name":"Zwenkau, Stadt","type":"Stadt"},"district":{"key":"14729","name":"Leipzig","type":"Landkreis"},"federalState":{"key":"14","name":"Sachsen"}},{"name":"Leipziger Str.","postalCode":"04442","locality":"Zwenkau","municipality":{"key":"14729430","name":"Zwenkau, Stadt","type":"Stadt"},"district":{"key":"14729","name":"Leipzig","type":"Landkreis"},"federalState":{"key":"14","name":"Sachsen"}},{"name":"Levkojenweg","postalCode":"04442","locality":"Zwenkau","municipality":{"key":"14729430","name":"Zwenkau, Stadt","type":"Stadt"},"district":{"key":"14729","name":"Leipzig","type":"Landkreis"},"federalState":{"key":"14","name":"Sachsen"}},{"name":"Liebknechtstr.","postalCode":"04442","locality":"Zwenkau","municipality":{"key":"14729430","name":"Zwenkau, Stadt","type":"Stadt"},"district":{"key":"14729","name":"Leipzig","type":"Landkreis"},"federalState":{"key":"14","name":"Sachsen"}},{"name":"Liebmannstr.","postalCode":"04442","locality":"Zwenkau","municipality":{"key":"14729430","name":"Zwenkau, Stadt","type":"Stadt"},"district":{"key":"14729","name":"Leipzig","type":"Landkreis"},"federalState":{"key":"14","name":"Sachsen"}},{"name":"Lilienweg","postalCode":"04442","locality":"Zwenkau","municipality":{"key":"14729430","name":"Zwenkau, Stadt","type":"Stadt"},"district":{"key":"14729","name":"Leipzig","type":"Landkreis"},"federalState":{"key":"14","name":"Sachsen"}},{"name":"Lindenallee","postalCode":"04442","locality":"Zwenkau","municipality":{"key":"14729430","name":"Zwenkau, Stadt","type":"Stadt"},"district":{"key":"14729","name":"Leipzig","type":"Landkreis"},"federalState":{"key":"14","name":"Sachsen"}},{"name":"Lindenstr.","postalCode":"04442","locality":"Zwenkau","municipality":{"key":"14729430","name":"Zwenkau, Stadt","type":"Stadt"},"district":{"key":"14729","name":"Leipzig","type":"Landkreis"},"federalState":{"key":"14","name":"Sachsen"}},{"name":"Lindnerstr.","postalCode":"04442","locality":"Zwenkau","municipality":{"key":"14729430","name":"Zwenkau, Stadt","type":"Stadt"},"district":{"key":"14729","name":"Leipzig","type":"Landkreis"},"federalState":{"key":"14","name":"Sachsen"}},{"name":"Löbschützer Weg","postalCode":"04442","locality":"Zwenkau","municipality":{"key":"14729430","name":"Zwenkau, Stadt","type":"Stadt"},"district":{"key":"14729","name":"Leipzig","type":"Landkreis"},"federalState":{"key":"14","name":"Sachsen"}},{"name":"Lomlerstr.","postalCode":"04442","locality":"Zwenkau","municipality":{"key":"14729430","name":"Zwenkau, Stadt","type":"Stadt"},"district":{"key":"14729","name":"Leipzig","type":"Landkreis"},"federalState":{"key":"14","name":"Sachsen"}},{"name":"Männertreuweg","postalCode":"04442","locality":"Zwenkau","municipality":{"key":"14729430","name":"Zwenkau, Stadt","type":"Stadt"},"district":{"key":"14729","name":"Leipzig","type":"Landkreis"},"federalState":{"key":"14","name":"Sachsen"}},{"name":"Margaretenweg","postalCode":"04442","locality":"Zwenkau","municipality":{"key":"14729430","name":"Zwenkau, Stadt","type":"Stadt"},"district":{"key":"14729","name":"Leipzig","type":"Landkreis"},"federalState":{"key":"14","name":"Sachsen"}},{"name":"Markt","postalCode":"04442","locality":"Zwenkau","municipality":{"key":"14729430","name":"Zwenkau, Stadt","type":"Stadt"},"district":{"key":"14729","name":"Leipzig","type":"Landkreis"},"federalState":{"key":"14","name":"Sachsen"}},{"name":"Marktstr.","postalCode":"04442","locality":"Zwenkau","municipality":{"key":"14729430","name":"Zwenkau, Stadt","type":"Stadt"},"district":{"key":"14729","name":"Leipzig","type":"Landkreis"},"federalState":{"key":"14","name":"Sachsen"}},{"name":"Mausitz","postalCode":"04442","locality":"Zwenkau","municipality":{"key":"14729430","name":"Zwenkau, Stadt","type":"Stadt"},"district":{"key":"14729","name":"Leipzig","type":"Landkreis"},"federalState":{"key":"14","name":"Sachsen"}},{"name":"Max-Sauerstein-Str.","postalCode":"04442","locality":"Zwenkau","municipality":{"key":"14729430","name":"Zwenkau, Stadt","type":"Stadt"},"district":{"key":"14729","name":"Leipzig","type":"Landkreis"},"federalState":{"key":"14","name":"Sachsen"}},{"name":"Mendelssohnstr.","postalCode":"04442","locality":"Zwenkau","municipality":{"key":"14729430","name":"Zwenkau, Stadt","type":"Stadt"},"district":{"key":"14729","name":"Leipzig","type":"Landkreis"},"federalState":{"key":"14","name":"Sachsen"}},{"name":"Mittelstr.","postalCode":"04442","locality":"Zwenkau","municipality":{"key":"14729430","name":"Zwenkau, Stadt","type":"Stadt"},"district":{"key":"14729","name":"Leipzig","type":"Landkreis"},"federalState":{"key":"14","name":"Sachsen"}},{"name":"Molenweg","postalCode":"04442","locality":"Zwenkau","municipality":{"key":"14729430","name":"Zwenkau, Stadt","type":"Stadt"},"district":{"key":"14729","name":"Leipzig","type":"Landkreis"},"federalState":{"key":"14","name":"Sachsen"}},{"name":"Mozartstr.","postalCode":"04442","locality":"Zwenkau","municipality":{"key":"14729430","name":"Zwenkau, Stadt","type":"Stadt"},"district":{"key":"14729","name":"Leipzig","type":"Landkreis"},"federalState":{"key":"14","name":"Sachsen"}},{"name":"Mückenhainer Weg","postalCode":"04442","locality":"Zwenkau","municipality":{"key":"14729430","name":"Zwenkau, Stadt","type":"Stadt"},"district":{"key":"14729","name":"Leipzig","type":"Landkreis"},"federalState":{"key":"14","name":"Sachsen"}},{"name":"Mühlberg","postalCode":"04442","locality":"Zwenkau","municipality":{"key":"14729430","name":"Zwenkau, Stadt","type":"Stadt"},"district":{"key":"14729","name":"Leipzig","type":"Landkreis"},"federalState":{"key":"14","name":"Sachsen"}},{"name":"Mühlgasse","postalCode":"04442","locality":"Zwenkau","municipality":{"key":"14729430","name":"Zwenkau, Stadt","type":"Stadt"},"district":{"key":"14729","name":"Leipzig","type":"Landkreis"},"federalState":{"key":"14","name":"Sachsen"}},{"name":"Narzissenweg","postalCode":"04442","locality":"Zwenkau","municipality":{"key":"14729430","name":"Zwenkau, Stadt","type":"Stadt"},"district":{"key":"14729","name":"Leipzig","type":"Landkreis"},"federalState":{"key":"14","name":"Sachsen"}},{"name":"Nelkenweg","postalCode":"04442","locality":"Zwenkau","municipality":{"key":"14729430","name":"Zwenkau, Stadt","type":"Stadt"},"district":{"key":"14729","name":"Leipzig","type":"Landkreis"},"federalState":{"key":"14","name":"Sachsen"}},{"name":"Neptunweg","postalCode":"04442","locality":"Zwenkau","municipality":{"key":"14729430","name":"Zwenkau, Stadt","type":"Stadt"},"district":{"key":"14729","name":"Leipzig","type":"Landkreis"},"federalState":{"key":"14","name":"Sachsen"}},{"name":"Nordstr.","postalCode":"04442","locality":"Zwenkau","municipality":{"key":"14729430","name":"Zwenkau, Stadt","type":"Stadt"},"district":{"key":"14729","name":"Leipzig","type":"Landkreis"},"federalState":{"key":"14","name":"Sachsen"}},{"name":"Oberer Harthweg","postalCode":"04442","locality":"Zwenkau","municipality":{"key":"14729430","name":"Zwenkau, Stadt","type":"Stadt"},"district":{"key":"14729","name":"Leipzig","type":"Landkreis"},"federalState":{"key":"14","name":"Sachsen"}},{"name":"Ostmole","postalCode":"04442","locality":"Zwenkau","municipality":{"key":"14729430","name":"Zwenkau, Stadt","type":"Stadt"},"district":{"key":"14729","name":"Leipzig","type":"Landkreis"},"federalState":{"key":"14","name":"Sachsen"}},{"name":"Ostsiedlung","postalCode":"04442","locality":"Zwenkau","municipality":{"key":"14729430","name":"Zwenkau, Stadt","type":"Stadt"},"district":{"key":"14729","name":"Leipzig","type":"Landkreis"},"federalState":{"key":"14","name":"Sachsen"}},{"name":"Otto-Engert-Str.","postalCode":"04442","locality":"Zwenkau","municipality":{"key":"14729430","name":"Zwenkau, Stadt","type":"Stadt"},"district":{"key":"14729","name":"Leipzig","type":"Landkreis"},"federalState":{"key":"14","name":"Sachsen"}},{"name":"Otto-Rudolph-Str.","postalCode":"04442","locality":"Zwenkau","municipality":{"key":"14729430","name":"Zwenkau, Stadt","type":"Stadt"},"district":{"key":"14729","name":"Leipzig","type":"Landkreis"},"federalState":{"key":"14","name":"Sachsen"}},{"name":"Pegauer Str.","postalCode":"04442","locality":"Zwenkau","municipality":{"key":"14729430","name":"Zwenkau, Stadt","type":"Stadt"},"district":{"key":"14729","name":"Leipzig","type":"Landkreis"},"federalState":{"key":"14","name":"Sachsen"}},{"name":"Peischweg","postalCode":"04442","locality":"Zwenkau","municipality":{"key":"14729430","name":"Zwenkau, Stadt","type":"Stadt"},"district":{"key":"14729","name":"Leipzig","type":"Landkreis"},"federalState":{"key":"14","name":"Sachsen"}},{"name":"Pestalozzistr.","postalCode":"04442","locality":"Zwenkau","municipality":{"key":"14729430","name":"Zwenkau, Stadt","type":"Stadt"},"district":{"key":"14729","name":"Leipzig","type":"Landkreis"},"federalState":{"key":"14","name":"Sachsen"}},{"name":"Pfarrgasse","postalCode":"04442","locality":"Zwenkau","municipality":{"key":"14729430","name":"Zwenkau, Stadt","type":"Stadt"},"district":{"key":"14729","name":"Leipzig","type":"Landkreis"},"federalState":{"key":"14","name":"Sachsen"}},{"name":"Pfarrwinkel","postalCode":"04442","locality":"Zwenkau","municipality":{"key":"14729430","name":"Zwenkau, Stadt","type":"Stadt"},"district":{"key":"14729","name":"Leipzig","type":"Landkreis"},"federalState":{"key":"14","name":"Sachsen"}},{"name":"Pfeffinger Str.","postalCode":"04442","locality":"Zwenkau","municipality":{"key":"14729430","name":"Zwenkau, Stadt","type":"Stadt"},"district":{"key":"14729","name":"Leipzig","type":"Landkreis"},"federalState":{"key":"14","name":"Sachsen"}},{"name":"Primelweg","postalCode":"04442","locality":"Zwenkau","municipality":{"key":"14729430","name":"Zwenkau, Stadt","type":"Stadt"},"district":{"key":"14729","name":"Leipzig","type":"Landkreis"},"federalState":{"key":"14","name":"Sachsen"}},{"name":"Prödeler Weg","postalCode":"04442","locality":"Zwenkau","municipality":{"key":"14729430","name":"Zwenkau, Stadt","type":"Stadt"},"district":{"key":"14729","name":"Leipzig","type":"Landkreis"},"federalState":{"key":"14","name":"Sachsen"}},{"name":"Pulvermühlenweg","postalCode":"04442","locality":"Zwenkau","municipality":{"key":"14729430","name":"Zwenkau, Stadt","type":"Stadt"},"district":{"key":"14729","name":"Leipzig","type":"Landkreis"},"federalState":{"key":"14","name":"Sachsen"}},{"name":"Querstr.","postalCode":"04442","locality":"Zwenkau","municipality":{"key":"14729430","name":"Zwenkau, Stadt","type":"Stadt"},"district":{"key":"14729","name":"Leipzig","type":"Landkreis"},"federalState":{"key":"14","name":"Sachsen"}},{"name":"Rathenauplatz","postalCode":"04442","locality":"Zwenkau","municipality":{"key":"14729430","name":"Zwenkau, Stadt","type":"Stadt"},"district":{"key":"14729","name":"Leipzig","type":"Landkreis"},"federalState":{"key":"14","name":"Sachsen"}},{"name":"Resedaweg","postalCode":"04442","locality":"Zwenkau","municipality":{"key":"14729430","name":"Zwenkau, Stadt","type":"Stadt"},"district":{"key":"14729","name":"Leipzig","type":"Landkreis"},"federalState":{"key":"14","name":"Sachsen"}},{"name":"Ringstr.","postalCode":"04442","locality":"Zwenkau","municipality":{"key":"14729430","name":"Zwenkau, Stadt","type":"Stadt"},"district":{"key":"14729","name":"Leipzig","type":"Landkreis"},"federalState":{"key":"14","name":"Sachsen"}},{"name":"Ritterstr.","postalCode":"04442","locality":"Zwenkau","municipality":{"key":"14729430","name":"Zwenkau, Stadt","type":"Stadt"},"district":{"key":"14729","name":"Leipzig","type":"Landkreis"},"federalState":{"key":"14","name":"Sachsen"}},{"name":"Rosa-Luxemburg-Str.","postalCode":"04442","locality":"Zwenkau","municipality":{"key":"14729430","name":"Zwenkau, Stadt","type":"Stadt"},"district":{"key":"14729","name":"Leipzig","type":"Landkreis"},"federalState":{"key":"14","name":"Sachsen"}},{"name":"Rosenweg","postalCode":"04442","locality":"Zwenkau","municipality":{"key":"14729430","name":"Zwenkau, Stadt","type":"Stadt"},"district":{"key":"14729","name":"Leipzig","type":"Landkreis"},"federalState":{"key":"14","name":"Sachsen"}},{"name":"Schäfereigut","postalCode":"04442","locality":"Zwenkau","municipality":{"key":"14729430","name":"Zwenkau, Stadt","type":"Stadt"},"district":{"key":"14729","name":"Leipzig","type":"Landkreis"},"federalState":{"key":"14","name":"Sachsen"}},{"name":"Schäfergasse","postalCode":"04442","locality":"Zwenkau","municipality":{"key":"14729430","name":"Zwenkau, Stadt","type":"Stadt"},"district":{"key":"14729","name":"Leipzig","type":"Landkreis"},"federalState":{"key":"14","name":"Sachsen"}},{"name":"Schillerstr.","postalCode":"04442","locality":"Zwenkau","municipality":{"key":"14729430","name":"Zwenkau, Stadt","type":"Stadt"},"district":{"key":"14729","name":"Leipzig","type":"Landkreis"},"federalState":{"key":"14","name":"Sachsen"}},{"name":"Schkorlopper Weg","postalCode":"04442","locality":"Zwenkau","municipality":{"key":"14729430","name":"Zwenkau, Stadt","type":"Stadt"},"district":{"key":"14729","name":"Leipzig","type":"Landkreis"},"federalState":{"key":"14","name":"Sachsen"}},{"name":"Schlippe","postalCode":"04442","locality":"Zwenkau","municipality":{"key":"14729430","name":"Zwenkau, Stadt","type":"Stadt"},"district":{"key":"14729","name":"Leipzig","type":"Landkreis"},"federalState":{"key":"14","name":"Sachsen"}},{"name":"Schmiedeweg","postalCode":"04442","locality":"Zwenkau","municipality":{"key":"14729430","name":"Zwenkau, Stadt","type":"Stadt"},"district":{"key":"14729","name":"Leipzig","type":"Landkreis"},"federalState":{"key":"14","name":"Sachsen"}},{"name":"Schulstr.","postalCode":"04442","locality":"Zwenkau","municipality":{"key":"14729430","name":"Zwenkau, Stadt","type":"Stadt"},"district":{"key":"14729","name":"Leipzig","type":"Landkreis"},"federalState":{"key":"14","name":"Sachsen"}},{"name":"Seeblick","postalCode":"04442","locality":"Zwenkau","municipality":{"key":"14729430","name":"Zwenkau, Stadt","type":"Stadt"},"district":{"key":"14729","name":"Leipzig","type":"Landkreis"},"federalState":{"key":"14","name":"Sachsen"}},{"name":"Seepromenade","postalCode":"04442","locality":"Zwenkau","municipality":{"key":"14729430","name":"Zwenkau, Stadt","type":"Stadt"},"district":{"key":"14729","name":"Leipzig","type":"Landkreis"},"federalState":{"key":"14","name":"Sachsen"}},{"name":"Seglerbogen","postalCode":"04442","locality":"Zwenkau","municipality":{"key":"14729430","name":"Zwenkau, Stadt","type":"Stadt"},"district":{"key":"14729","name":"Leipzig","type":"Landkreis"},"federalState":{"key":"14","name":"Sachsen"}},{"name":"Siedlungsweg","postalCode":"04442","locality":"Zwenkau","municipality":{"key":"14729430","name":"Zwenkau, Stadt","type":"Stadt"},"district":{"key":"14729","name":"Leipzig","type":"Landkreis"},"federalState":{"key":"14","name":"Sachsen"}},{"name":"Steife Brise","postalCode":"04442","locality":"Zwenkau","municipality":{"key":"14729430","name":"Zwenkau, Stadt","type":"Stadt"},"district":{"key":"14729","name":"Leipzig","type":"Landkreis"},"federalState":{"key":"14","name":"Sachsen"}},{"name":"Steinsetzerweg","postalCode":"04442","locality":"Zwenkau","municipality":{"key":"14729430","name":"Zwenkau, Stadt","type":"Stadt"},"district":{"key":"14729","name":"Leipzig","type":"Landkreis"},"federalState":{"key":"14","name":"Sachsen"}},{"name":"Stiefmütterchenweg","postalCode":"04442","locality":"Zwenkau","municipality":{"key":"14729430","name":"Zwenkau, Stadt","type":"Stadt"},"district":{"key":"14729","name":"Leipzig","type":"Landkreis"},"federalState":{"key":"14","name":"Sachsen"}},{"name":"Stötteritzer Str.","postalCode":"04442","locality":"Zwenkau","municipality":{"key":"14729430","name":"Zwenkau, Stadt","type":"Stadt"},"district":{"key":"14729","name":"Leipzig","type":"Landkreis"},"federalState":{"key":"14","name":"Sachsen"}},{"name":"Str. der Einheit","postalCode":"04442","locality":"Zwenkau","municipality":{"key":"14729430","name":"Zwenkau, Stadt","type":"Stadt"},"district":{"key":"14729","name":"Leipzig","type":"Landkreis"},"federalState":{"key":"14","name":"Sachsen"}},{"name":"Südstr.","postalCode":"04442","locality":"Zwenkau","municipality":{"key":"14729430","name":"Zwenkau, Stadt","type":"Stadt"},"district":{"key":"14729","name":"Leipzig","type":"Landkreis"},"federalState":{"key":"14","name":"Sachsen"}},{"name":"Talgasse","postalCode":"04442","locality":"Zwenkau","municipality":{"key":"14729430","name":"Zwenkau, Stadt","type":"Stadt"},"district":{"key":"14729","name":"Leipzig","type":"Landkreis"},"federalState":{"key":"14","name":"Sachsen"}},{"name":"Teichstr.","postalCode":"04442","locality":"Zwenkau","municipality":{"key":"14729430","name":"Zwenkau, Stadt","type":"Stadt"},"district":{"key":"14729","name":"Leipzig","type":"Landkreis"},"federalState":{"key":"14","name":"Sachsen"}},{"name":"Thälmannstr.","postalCode":"04442","locality":"Zwenkau","municipality":{"key":"14729430","name":"Zwenkau, Stadt","type":"Stadt"},"district":{"key":"14729","name":"Leipzig","type":"Landkreis"},"federalState":{"key":"14","name":"Sachsen"}},{"name":"Thomas-Müntzer-Str.","postalCode":"04442","locality":"Zwenkau","municipality":{"key":"14729430","name":"Zwenkau, Stadt","type":"Stadt"},"district":{"key":"14729","name":"Leipzig","type":"Landkreis"},"federalState":{"key":"14","name":"Sachsen"}},{"name":"Tulpenweg","postalCode":"04442","locality":"Zwenkau","municipality":{"key":"14729430","name":"Zwenkau, Stadt","type":"Stadt"},"district":{"key":"14729","name":"Leipzig","type":"Landkreis"},"federalState":{"key":"14","name":"Sachsen"}},{"name":"Uferstr.","postalCode":"04442","locality":"Zwenkau","municipality":{"key":"14729430","name":"Zwenkau, Stadt","type":"Stadt"},"district":{"key":"14729","name":"Leipzig","type":"Landkreis"},"federalState":{"key":"14","name":"Sachsen"}},{"name":"Uferweg","postalCode":"04442","locality":"Zwenkau","municipality":{"key":"14729430","name":"Zwenkau, Stadt","type":"Stadt"},"district":{"key":"14729","name":"Leipzig","type":"Landkreis"},"federalState":{"key":"14","name":"Sachsen"}},{"name":"Uhlandstr.","postalCode":"04442","locality":"Zwenkau","municipality":{"key":"14729430","name":"Zwenkau, Stadt","type":"Stadt"},"district":{"key":"14729","name":"Leipzig","type":"Landkreis"},"federalState":{"key":"14","name":"Sachsen"}},{"name":"Unterer Harthweg","postalCode":"04442","locality":"Zwenkau","municipality":{"key":"14729430","name":"Zwenkau, Stadt","type":"Stadt"},"district":{"key":"14729","name":"Leipzig","type":"Landkreis"},"federalState":{"key":"14","name":"Sachsen"}},{"name":"Veilchenweg","postalCode":"04442","locality":"Zwenkau","municipality":{"key":"14729430","name":"Zwenkau, Stadt","type":"Stadt"},"district":{"key":"14729","name":"Leipzig","type":"Landkreis"},"federalState":{"key":"14","name":"Sachsen"}},{"name":"Vergissmeinnichtweg","postalCode":"04442","locality":"Zwenkau","municipality":{"key":"14729430","name":"Zwenkau, Stadt","type":"Stadt"},"district":{"key":"14729","name":"Leipzig","type":"Landkreis"},"federalState":{"key":"14","name":"Sachsen"}},{"name":"Viehweg","postalCode":"04442","locality":"Zwenkau","municipality":{"key":"14729430","name":"Zwenkau, Stadt","type":"Stadt"},"district":{"key":"14729","name":"Leipzig","type":"Landkreis"},"federalState":{"key":"14","name":"Sachsen"}},{"name":"Wasserturmstr.","postalCode":"04442","locality":"Zwenkau","municipality":{"key":"14729430","name":"Zwenkau, Stadt","type":"Stadt"},"district":{"key":"14729","name":"Leipzig","type":"Landkreis"},"federalState":{"key":"14","name":"Sachsen"}},{"name":"Weberstr.","postalCode":"04442","locality":"Zwenkau","municipality":{"key":"14729430","name":"Zwenkau, Stadt","type":"Stadt"},"district":{"key":"14729","name":"Leipzig","type":"Landkreis"},"federalState":{"key":"14","name":"Sachsen"}},{"name":"Weidenweg","postalCode":"04442","locality":"Zwenkau","municipality":{"key":"14729430","name":"Zwenkau, Stadt","type":"Stadt"},"district":{"key":"14729","name":"Leipzig","type":"Landkreis"},"federalState":{"key":"14","name":"Sachsen"}},{"name":"Weinhold-Arkade","postalCode":"04442","locality":"Zwenkau","municipality":{"key":"14729430","name":"Zwenkau, Stadt","type":"Stadt"},"district":{"key":"14729","name":"Leipzig","type":"Landkreis"},"federalState":{"key":"14","name":"Sachsen"}},{"name":"Westmole","postalCode":"04442","locality":"Zwenkau","municipality":{"key":"14729430","name":"Zwenkau, Stadt","type":"Stadt"},"district":{"key":"14729","name":"Leipzig","type":"Landkreis"},"federalState":{"key":"14","name":"Sachsen"}},{"name":"Westsiedlung","postalCode":"04442","locality":"Zwenkau","municipality":{"key":"14729430","name":"Zwenkau, Stadt","type":"Stadt"},"district":{"key":"14729","name":"Leipzig","type":"Landkreis"},"federalState":{"key":"14","name":"Sachsen"}},{"name":"Wiederauer Str.","postalCode":"04442","locality":"Zwenkau","municipality":{"key":"14729430","name":"Zwenkau, Stadt","type":"Stadt"},"district":{"key":"14729","name":"Leipzig","type":"Landkreis"},"federalState":{"key":"14","name":"Sachsen"}},{"name":"Wiesenstr.","postalCode":"04442","locality":"Zwenkau","municipality":{"key":"14729430","name":"Zwenkau, Stadt","type":"Stadt"},"district":{"key":"14729","name":"Leipzig","type":"Landkreis"},"federalState":{"key":"14","name":"Sachsen"}},{"name":"Wiesenweg","postalCode":"04442","locality":"Zwenkau","municipality":{"key":"14729430","name":"Zwenkau, Stadt","type":"Stadt"},"district":{"key":"14729","name":"Leipzig","type":"Landkreis"},"federalState":{"key":"14","name":"Sachsen"}},{"name":"Yorck-Diebitsch-Str.","postalCode":"04178","locality":"Leipzig","municipality":{"key":"14713000","name":"Leipzig, Stadt","type":"Kreisfreie_Stadt"},"district":{"key":"14713","name":"Leipzig, Stadt","type":"Kreisfreie_Stadt"},"federalState":{"key":"14","name":"Sachsen"}},{"name":"Yorckstr.","postalCode":"04159","locality":"Leipzig","municipality":{"key":"14713000","name":"Leipzig, Stadt","type":"Kreisfreie_Stadt"},"district":{"key":"14713","name":"Leipzig, Stadt","type":"Kreisfreie_Stadt"},"federalState":{"key":"14","name":"Sachsen"}},{"name":"Yuccaweg","postalCode":"04155","locality":"Leipzig","municipality":{"key":"14713000","name":"Leipzig, Stadt","type":"Kreisfreie_Stadt"},"district":{"key":"14713","name":"Leipzig, Stadt","type":"Kreisfreie_Stadt"},"federalState":{"key":"14","name":"Sachsen"}},{"name":"Zeitzer Str.","postalCode":"04442","locality":"Zwenkau","municipality":{"key":"14729430","name":"Zwenkau, Stadt","type":"Stadt"},"district":{"key":"14729","name":"Leipzig","type":"Landkreis"},"federalState":{"key":"14","name":"Sachsen"}},{"name":"Zöbigker Weg","postalCode":"04442","locality":"Zwenkau","municipality":{"key":"14729430","name":"Zwenkau, Stadt","type":"Stadt"},"district":{"key":"14729","name":"Leipzig","type":"Landkreis"},"federalState":{"key":"14","name":"Sachsen"}},{"name":"Zufahrt Gartenanlage","postalCode":"04442","locality":"Zwenkau","municipality":{"key":"14729430","name":"Zwenkau, Stadt","type":"Stadt"},"district":{"key":"14729","name":"Leipzig","type":"Landkreis"},"federalState":{"key":"14","name":"Sachsen"}},{"name":"Zum Kap","postalCode":"04442","locality":"Zwenkau","municipality":{"key":"14729430","name":"Zwenkau, Stadt","type":"Stadt"},"district":{"key":"14729","name":"Leipzig","type":"Landkreis"},"federalState":{"key":"14","name":"Sachsen"}},{"name":"Zum KAP","postalCode":"04442","locality":"Zwenkau","municipality":{"key":"14729430","name":"Zwenkau, Stadt","type":"Stadt"},"district":{"key":"14729","name":"Leipzig","type":"Landkreis"},"federalState":{"key":"14","name":"Sachsen"}},{"name":"Zum Milchwinkel","postalCode":"04442","locality":"Zwenkau","municipality":{"key":"14729430","name":"Zwenkau, Stadt","type":"Stadt"},"district":{"key":"14729","name":"Leipzig","type":"Landkreis"},"federalState":{"key":"14","name":"Sachsen"}},{"name":"Zum Rittergut","postalCode":"04442","locality":"Zwenkau","municipality":{"key":"14729430","name":"Zwenkau, Stadt","type":"Stadt"},"district":{"key":"14729","name":"Leipzig","type":"Landkreis"},"federalState":{"key":"14","name":"Sachsen"}},{"name":"Zum Schachthaus","postalCode":"04442","locality":"Zwenkau","municipality":{"key":"14729430","name":"Zwenkau, Stadt","type":"Stadt"},"district":{"key":"14729","name":"Leipzig","type":"Landkreis"},"federalState":{"key":"14","name":"Sachsen"}},{"name":"Zum Wasserwerk","postalCode":"04442","locality":"Zwenkau","municipality":{"key":"14729430","name":"Zwenkau, Stadt","type":"Stadt"},"district":{"key":"14729","name":"Leipzig","type":"Landkreis"},"federalState":{"key":"14","name":"Sachsen"}},{"name":"Zur Alten Brauerei","postalCode":"04442","locality":"Zwenkau","municipality":{"key":"14729430","name":"Zwenkau, Stadt","type":"Stadt"},"district":{"key":"14729","name":"Leipzig","type":"Landkreis"},"federalState":{"key":"14","name":"Sachsen"}},{"name":"Zur Harth","postalCode":"04442","locality":"Zwenkau","municipality":{"key":"14729430","name":"Zwenkau, Stadt","type":"Stadt"},"district":{"key":"14729","name":"Leipzig","type":"Landkreis"},"federalState":{"key":"14","name":"Sachsen"}},{"name":"Zur Kotzschbarhöhe","postalCode":"04442","locality":"Zwenkau","municipality":{"key":"14729430","name":"Zwenkau, Stadt","type":"Stadt"},"district":{"key":"14729","name":"Leipzig","type":"Landkreis"},"federalState":{"key":"14","name":"Sachsen"}},{"name":"Zur Schäferei","postalCode":"04442","locality":"Zwenkau","municipality":{"key":"14729430","name":"Zwenkau, Stadt","type":"Stadt"},"district":{"key":"14729","name":"Leipzig","type":"Landkreis"},"federalState":{"key":"14","name":"Sachsen"}},{"name":"Zur Sommerlust","postalCode":"04442","locality":"Zwenkau","municipality":{"key":"14729430","name":"Zwenkau, Stadt","type":"Stadt"},"district":{"key":"14729","name":"Leipzig","type":"Landkreis"},"federalState":{"key":"14","name":"Sachsen"}},{"name":"Äußere Auenblickstr.","postalCode":"04159","locality":"Leipzig","municipality":{"key":"14713000","name":"Leipzig, Stadt","type":"Kreisfreie_Stadt"},"district":{"key":"14713","name":"Leipzig, Stadt","type":"Kreisfreie_Stadt"},"federalState":{"key":"14","name":"Sachsen"}},{"name":"Äußere Friedrich-Naumann-Str.","postalCode":"04158","locality":"Leipzig","municipality":{"key":"14713000","name":"Leipzig, Stadt","type":"Kreisfreie_Stadt"},"district":{"key":"14713","name":"Leipzig, Stadt","type":"Kreisfreie_Stadt"},"federalState":{"key":"14","name":"Sachsen"}},{"name":"Äußere Mühlenstr.","postalCode":"04159","locality":"Leipzig","municipality":{"key":"14713000","name":"Leipzig, Stadt","type":"Kreisfreie_Stadt"},"district":{"key":"14713","name":"Leipzig, Stadt","type":"Kreisfreie_Stadt"},"federalState":{"key":"14","name":"Sachsen"}},{"name":"Äußere Raustr.","postalCode":"04158","locality":"Leipzig","municipality":{"key":"14713000","name":"Leipzig, Stadt","type":"Kreisfreie_Stadt"},"district":{"key":"14713","name":"Leipzig, Stadt","type":"Kreisfreie_Stadt"},"federalState":{"key":"14","name":"Sachsen"}},{"name":"Äußerer Zeisigweg","postalCode":"04158","locality":"Leipzig","municipality":{"key":"14713000","name":"Leipzig, Stadt","type":"Kreisfreie_Stadt"},"district":{"key":"14713","name":"Leipzig, Stadt","type":"Kreisfreie_Stadt"},"federalState":{"key":"14","name":"Sachsen"}},{"name":"Ölhafenstr.","postalCode":"04159","locality":"Leipzig","municipality":{"key":"14713000","name":"Leipzig, Stadt","type":"Kreisfreie_Stadt"},"district":{"key":"14713","name":"Leipzig, Stadt","type":"Kreisfreie_Stadt"},"federalState":{"key":"14","name":"Sachsen"}},{"name":"Österreicherweg","postalCode":"04289","locality":"Leipzig","municipality":{"key":"14713000","name":"Leipzig, Stadt","type":"Kreisfreie_Stadt"},"district":{"key":"14713","name":"Leipzig, Stadt","type":"Kreisfreie_Stadt"},"federalState":{"key":"14","name":"Sachsen"}},]