[{"name":"Am Erlengrund","postalCode":"19417","locality":"Ventschow","municipality":{"key":"13074082","name":"Ventschow","type":"Kreisangehörige_Gemeinde"},"district":{"key":"13074","name":"Nordwestmecklenburg","type":"Landkreis"},"federalState":{"key":"13","name":"Mecklenburg-Vorpommern"}},{"name":"Am See","postalCode":"19417","locality":"Ventschow","municipality":{"key":"13074082","name":"Ventschow","type":"Kreisangehörige_Gemeinde"},"district":{"key":"13074","name":"Nordwestmecklenburg","type":"Landkreis"},"federalState":{"key":"13","name":"Mecklenburg-Vorpommern"}},{"name":"Dorfstr.","postalCode":"19417","locality":"Ventschow","municipality":{"key":"13074082","name":"Ventschow","type":"Kreisangehörige_Gemeinde"},"district":{"key":"13074","name":"Nordwestmecklenburg","type":"Landkreis"},"federalState":{"key":"13","name":"Mecklenburg-Vorpommern"}},{"name":"Hauptstr.","postalCode":"19417","locality":"Ventschow","municipality":{"key":"13074082","name":"Ventschow","type":"Kreisangehörige_Gemeinde"},"district":{"key":"13074","name":"Nordwestmecklenburg","type":"Landkreis"},"federalState":{"key":"13","name":"Mecklenburg-Vorpommern"}},{"name":"Hof","postalCode":"19417","locality":"Ventschow","municipality":{"key":"13074082","name":"Ventschow","type":"Kreisangehörige_Gemeinde"},"district":{"key":"13074","name":"Nordwestmecklenburg","type":"Landkreis"},"federalState":{"key":"13","name":"Mecklenburg-Vorpommern"}},{"name":"Lindenallee","postalCode":"19417","locality":"Ventschow","municipality":{"key":"13074082","name":"Ventschow","type":"Kreisangehörige_Gemeinde"},"district":{"key":"13074","name":"Nordwestmecklenburg","type":"Landkreis"},"federalState":{"key":"13","name":"Mecklenburg-Vorpommern"}},{"name":"Pappelweg","postalCode":"19417","locality":"Ventschow","municipality":{"key":"13074082","name":"Ventschow","type":"Kreisangehörige_Gemeinde"},"district":{"key":"13074","name":"Nordwestmecklenburg","type":"Landkreis"},"federalState":{"key":"13","name":"Mecklenburg-Vorpommern"}},{"name":"Rathausstr.","postalCode":"19417","locality":"Ventschow","municipality":{"key":"13074082","name":"Ventschow","type":"Kreisangehörige_Gemeinde"},"district":{"key":"13074","name":"Nordwestmecklenburg","type":"Landkreis"},"federalState":{"key":"13","name":"Mecklenburg-Vorpommern"}},{"name":"Seeblick","postalCode":"19417","locality":"Ventschow","municipality":{"key":"13074082","name":"Ventschow","type":"Kreisangehörige_Gemeinde"},"district":{"key":"13074","name":"Nordwestmecklenburg","type":"Landkreis"},"federalState":{"key":"13","name":"Mecklenburg-Vorpommern"}},{"name":"Str. der Jugend","postalCode":"19417","locality":"Ventschow","municipality":{"key":"13074082","name":"Ventschow","type":"Kreisangehörige_Gemeinde"},"district":{"key":"13074","name":"Nordwestmecklenburg","type":"Landkreis"},"federalState":{"key":"13","name":"Mecklenburg-Vorpommern"}},{"name":"Str. des Friedens","postalCode":"19417","locality":"Ventschow","municipality":{"key":"13074082","name":"Ventschow","type":"Kreisangehörige_Gemeinde"},"district":{"key":"13074","name":"Nordwestmecklenburg","type":"Landkreis"},"federalState":{"key":"13","name":"Mecklenburg-Vorpommern"}},{"name":"Waldsiedlung","postalCode":"19417","locality":"Ventschow","municipality":{"key":"13074082","name":"Ventschow","type":"Kreisangehörige_Gemeinde"},"district":{"key":"13074","name":"Nordwestmecklenburg","type":"Landkreis"},"federalState":{"key":"13","name":"Mecklenburg-Vorpommern"}},]