[{"name":"Achtern Kamp","postalCode":"21227","locality":"Bendestorf","municipality":{"key":"03353003","name":"Bendestorf","type":"Kreisangehörige_Gemeinde"},"district":{"key":"03353","name":"Harburg","type":"Landkreis"},"federalState":{"key":"03","name":"Niedersachsen"}},{"name":"Adele-Sandrock-Stieg","postalCode":"21227","locality":"Bendestorf","municipality":{"key":"03353003","name":"Bendestorf","type":"Kreisangehörige_Gemeinde"},"district":{"key":"03353","name":"Harburg","type":"Landkreis"},"federalState":{"key":"03","name":"Niedersachsen"}},{"name":"Ahornweg","postalCode":"21272","locality":"Egestorf","municipality":{"key":"03353009","name":"Egestorf","type":"Kreisangehörige_Gemeinde"},"district":{"key":"03353","name":"Harburg","type":"Landkreis"},"federalState":{"key":"03","name":"Niedersachsen"}},{"name":"Albert-Florath-Stieg","postalCode":"21227","locality":"Bendestorf","municipality":{"key":"03353003","name":"Bendestorf","type":"Kreisangehörige_Gemeinde"},"district":{"key":"03353","name":"Harburg","type":"Landkreis"},"federalState":{"key":"03","name":"Niedersachsen"}},{"name":"Allee","postalCode":"23847","locality":"Bliestorf","municipality":{"key":"01053011","name":"Bliestorf","type":"Kreisangehörige_Gemeinde"},"district":{"key":"01053","name":"Herzogtum Lauenburg","type":"Kreis"},"federalState":{"key":"01","name":"Schleswig-Holstein"}},{"name":"Alte Burgstr.","postalCode":"31629","locality":"Estorf","municipality":{"key":"03256006","name":"Estorf","type":"Kreisangehörige_Gemeinde"},"district":{"key":"03256","name":"Nienburg (Weser)","type":"Landkreis"},"federalState":{"key":"03","name":"Niedersachsen"}},{"name":"Alte Dorfstr.","postalCode":"21272","locality":"Egestorf","municipality":{"key":"03353009","name":"Egestorf","type":"Kreisangehörige_Gemeinde"},"district":{"key":"03353","name":"Harburg","type":"Landkreis"},"federalState":{"key":"03","name":"Niedersachsen"}},{"name":"Alte Dorfstr.","postalCode":"23936","locality":"Testorf-Steinfort","municipality":{"key":"13074077","name":"Testorf-Steinfort","type":"Kreisangehörige_Gemeinde"},"district":{"key":"13074","name":"Nordwestmecklenburg","type":"Landkreis"},"federalState":{"key":"13","name":"Mecklenburg-Vorpommern"}},{"name":"Alte Dorfstr.","postalCode":"31629","locality":"Estorf","municipality":{"key":"03256006","name":"Estorf","type":"Kreisangehörige_Gemeinde"},"district":{"key":"03256","name":"Nienburg (Weser)","type":"Landkreis"},"federalState":{"key":"03","name":"Niedersachsen"}},{"name":"Alte Reihe","postalCode":"31629","locality":"Estorf","municipality":{"key":"03256006","name":"Estorf","type":"Kreisangehörige_Gemeinde"},"district":{"key":"03256","name":"Nienburg (Weser)","type":"Landkreis"},"federalState":{"key":"03","name":"Niedersachsen"}},{"name":"Alter Friedhof","postalCode":"21272","locality":"Egestorf","municipality":{"key":"03353009","name":"Egestorf","type":"Kreisangehörige_Gemeinde"},"district":{"key":"03353","name":"Harburg","type":"Landkreis"},"federalState":{"key":"03","name":"Niedersachsen"}},{"name":"Alter Postweg","postalCode":"21272","locality":"Egestorf","municipality":{"key":"03353009","name":"Egestorf","type":"Kreisangehörige_Gemeinde"},"district":{"key":"03353","name":"Harburg","type":"Landkreis"},"federalState":{"key":"03","name":"Niedersachsen"}},{"name":"Alter Postweg","postalCode":"31629","locality":"Estorf","municipality":{"key":"03256006","name":"Estorf","type":"Kreisangehörige_Gemeinde"},"district":{"key":"03256","name":"Nienburg (Weser)","type":"Landkreis"},"federalState":{"key":"03","name":"Niedersachsen"}},{"name":"Alte Schulstr.","postalCode":"31629","locality":"Estorf","municipality":{"key":"03256006","name":"Estorf","type":"Kreisangehörige_Gemeinde"},"district":{"key":"03256","name":"Nienburg (Weser)","type":"Landkreis"},"federalState":{"key":"03","name":"Niedersachsen"}},{"name":"Am Auefeld","postalCode":"21272","locality":"Egestorf","municipality":{"key":"03353009","name":"Egestorf","type":"Kreisangehörige_Gemeinde"},"district":{"key":"03353","name":"Harburg","type":"Landkreis"},"federalState":{"key":"03","name":"Niedersachsen"}},{"name":"Am Bergfelde","postalCode":"21272","locality":"Egestorf","municipality":{"key":"03353009","name":"Egestorf","type":"Kreisangehörige_Gemeinde"},"district":{"key":"03353","name":"Harburg","type":"Landkreis"},"federalState":{"key":"03","name":"Niedersachsen"}},{"name":"Am Brink","postalCode":"21727","locality":"Estorf","municipality":{"key":"03359016","name":"Estorf","type":"Kreisangehörige_Gemeinde"},"district":{"key":"03359","name":"Stade","type":"Landkreis"},"federalState":{"key":"03","name":"Niedersachsen"}},{"name":"Am Brink","postalCode":"31629","locality":"Estorf","municipality":{"key":"03256006","name":"Estorf","type":"Kreisangehörige_Gemeinde"},"district":{"key":"03256","name":"Nienburg (Weser)","type":"Landkreis"},"federalState":{"key":"03","name":"Niedersachsen"}},{"name":"Am Dorfteich","postalCode":"23936","locality":"Testorf-Steinfort","municipality":{"key":"13074077","name":"Testorf-Steinfort","type":"Kreisangehörige_Gemeinde"},"district":{"key":"13074","name":"Nordwestmecklenburg","type":"Landkreis"},"federalState":{"key":"13","name":"Mecklenburg-Vorpommern"}},{"name":"Am Dreschplatz","postalCode":"37619","locality":"Pegestorf","municipality":{"key":"03255032","name":"Pegestorf","type":"Kreisangehörige_Gemeinde"},"district":{"key":"03255","name":"Holzminden","type":"Landkreis"},"federalState":{"key":"03","name":"Niedersachsen"}},{"name":"Am Eichhof","postalCode":"31629","locality":"Estorf","municipality":{"key":"03256006","name":"Estorf","type":"Kreisangehörige_Gemeinde"},"district":{"key":"03256","name":"Nienburg (Weser)","type":"Landkreis"},"federalState":{"key":"03","name":"Niedersachsen"}},{"name":"Am Friedhof","postalCode":"21727","locality":"Estorf","municipality":{"key":"03359016","name":"Estorf","type":"Kreisangehörige_Gemeinde"},"district":{"key":"03359","name":"Stade","type":"Landkreis"},"federalState":{"key":"03","name":"Niedersachsen"}},{"name":"Am Hampfberg","postalCode":"21227","locality":"Bendestorf","municipality":{"key":"03353003","name":"Bendestorf","type":"Kreisangehörige_Gemeinde"},"district":{"key":"03353","name":"Harburg","type":"Landkreis"},"federalState":{"key":"03","name":"Niedersachsen"}},{"name":"Am Irmenhof","postalCode":"21227","locality":"Bendestorf","municipality":{"key":"03353003","name":"Bendestorf","type":"Kreisangehörige_Gemeinde"},"district":{"key":"03353","name":"Harburg","type":"Landkreis"},"federalState":{"key":"03","name":"Niedersachsen"}},{"name":"Am Jägerberg","postalCode":"21227","locality":"Bendestorf","municipality":{"key":"03353003","name":"Bendestorf","type":"Kreisangehörige_Gemeinde"},"district":{"key":"03353","name":"Harburg","type":"Landkreis"},"federalState":{"key":"03","name":"Niedersachsen"}},{"name":"Am Jägerberg","postalCode":"31629","locality":"Estorf","municipality":{"key":"03256006","name":"Estorf","type":"Kreisangehörige_Gemeinde"},"district":{"key":"03256","name":"Nienburg (Weser)","type":"Landkreis"},"federalState":{"key":"03","name":"Niedersachsen"}},{"name":"Am Mühlenbach","postalCode":"21227","locality":"Bendestorf","municipality":{"key":"03353003","name":"Bendestorf","type":"Kreisangehörige_Gemeinde"},"district":{"key":"03353","name":"Harburg","type":"Landkreis"},"federalState":{"key":"03","name":"Niedersachsen"}},{"name":"Am Mühlenbach","postalCode":"23847","locality":"Bliestorf","municipality":{"key":"01053011","name":"Bliestorf","type":"Kreisangehörige_Gemeinde"},"district":{"key":"01053","name":"Herzogtum Lauenburg","type":"Kreis"},"federalState":{"key":"01","name":"Schleswig-Holstein"}},{"name":"Am Norderfelde","postalCode":"21272","locality":"Egestorf","municipality":{"key":"03353009","name":"Egestorf","type":"Kreisangehörige_Gemeinde"},"district":{"key":"03353","name":"Harburg","type":"Landkreis"},"federalState":{"key":"03","name":"Niedersachsen"}},{"name":"Am Osterberg","postalCode":"31629","locality":"Estorf","municipality":{"key":"03256006","name":"Estorf","type":"Kreisangehörige_Gemeinde"},"district":{"key":"03256","name":"Nienburg (Weser)","type":"Landkreis"},"federalState":{"key":"03","name":"Niedersachsen"}},{"name":"Am Park","postalCode":"31629","locality":"Estorf","municipality":{"key":"03256006","name":"Estorf","type":"Kreisangehörige_Gemeinde"},"district":{"key":"03256","name":"Nienburg (Weser)","type":"Landkreis"},"federalState":{"key":"03","name":"Niedersachsen"}},{"name":"Am Saal","postalCode":"23847","locality":"Bliestorf","municipality":{"key":"01053011","name":"Bliestorf","type":"Kreisangehörige_Gemeinde"},"district":{"key":"01053","name":"Herzogtum Lauenburg","type":"Kreis"},"federalState":{"key":"01","name":"Schleswig-Holstein"}},{"name":"Am Schierenberg","postalCode":"21227","locality":"Bendestorf","municipality":{"key":"03353003","name":"Bendestorf","type":"Kreisangehörige_Gemeinde"},"district":{"key":"03353","name":"Harburg","type":"Landkreis"},"federalState":{"key":"03","name":"Niedersachsen"}},{"name":"Am Schloßteich","postalCode":"23936","locality":"Testorf-Steinfort","municipality":{"key":"13074077","name":"Testorf-Steinfort","type":"Kreisangehörige_Gemeinde"},"district":{"key":"13074","name":"Nordwestmecklenburg","type":"Landkreis"},"federalState":{"key":"13","name":"Mecklenburg-Vorpommern"}},{"name":"Am Sportplatz","postalCode":"31629","locality":"Estorf","municipality":{"key":"03256006","name":"Estorf","type":"Kreisangehörige_Gemeinde"},"district":{"key":"03256","name":"Nienburg (Weser)","type":"Landkreis"},"federalState":{"key":"03","name":"Niedersachsen"}},{"name":"Am Storchennest","postalCode":"23847","locality":"Bliestorf","municipality":{"key":"01053011","name":"Bliestorf","type":"Kreisangehörige_Gemeinde"},"district":{"key":"01053","name":"Herzogtum Lauenburg","type":"Kreis"},"federalState":{"key":"01","name":"Schleswig-Holstein"}},{"name":"Am Thiesenberg","postalCode":"21272","locality":"Egestorf","municipality":{"key":"03353009","name":"Egestorf","type":"Kreisangehörige_Gemeinde"},"district":{"key":"03353","name":"Harburg","type":"Landkreis"},"federalState":{"key":"03","name":"Niedersachsen"}},{"name":"An den Fischteichen","postalCode":"21227","locality":"Bendestorf","municipality":{"key":"03353003","name":"Bendestorf","type":"Kreisangehörige_Gemeinde"},"district":{"key":"03353","name":"Harburg","type":"Landkreis"},"federalState":{"key":"03","name":"Niedersachsen"}},{"name":"An der Bahn","postalCode":"21272","locality":"Egestorf","municipality":{"key":"03353009","name":"Egestorf","type":"Kreisangehörige_Gemeinde"},"district":{"key":"03353","name":"Harburg","type":"Landkreis"},"federalState":{"key":"03","name":"Niedersachsen"}},{"name":"An der Fabrik","postalCode":"31629","locality":"Estorf","municipality":{"key":"03256006","name":"Estorf","type":"Kreisangehörige_Gemeinde"},"district":{"key":"03256","name":"Nienburg (Weser)","type":"Landkreis"},"federalState":{"key":"03","name":"Niedersachsen"}},{"name":"An der Kirche","postalCode":"31629","locality":"Estorf","municipality":{"key":"03256006","name":"Estorf","type":"Kreisangehörige_Gemeinde"},"district":{"key":"03256","name":"Nienburg (Weser)","type":"Landkreis"},"federalState":{"key":"03","name":"Niedersachsen"}},{"name":"An der Oste","postalCode":"21727","locality":"Estorf","municipality":{"key":"03359016","name":"Estorf","type":"Kreisangehörige_Gemeinde"},"district":{"key":"03359","name":"Stade","type":"Landkreis"},"federalState":{"key":"03","name":"Niedersachsen"}},{"name":"Antoniusweg","postalCode":"21227","locality":"Bendestorf","municipality":{"key":"03353003","name":"Bendestorf","type":"Kreisangehörige_Gemeinde"},"district":{"key":"03353","name":"Harburg","type":"Landkreis"},"federalState":{"key":"03","name":"Niedersachsen"}},{"name":"Arbecksstieg","postalCode":"21227","locality":"Bendestorf","municipality":{"key":"03353003","name":"Bendestorf","type":"Kreisangehörige_Gemeinde"},"district":{"key":"03353","name":"Harburg","type":"Landkreis"},"federalState":{"key":"03","name":"Niedersachsen"}},{"name":"Arbeckstwiete","postalCode":"21227","locality":"Bendestorf","municipality":{"key":"03353003","name":"Bendestorf","type":"Kreisangehörige_Gemeinde"},"district":{"key":"03353","name":"Harburg","type":"Landkreis"},"federalState":{"key":"03","name":"Niedersachsen"}},{"name":"Arbecksweg","postalCode":"21227","locality":"Bendestorf","municipality":{"key":"03353003","name":"Bendestorf","type":"Kreisangehörige_Gemeinde"},"district":{"key":"03353","name":"Harburg","type":"Landkreis"},"federalState":{"key":"03","name":"Niedersachsen"}},{"name":"Auetalweg","postalCode":"21272","locality":"Egestorf","municipality":{"key":"03353009","name":"Egestorf","type":"Kreisangehörige_Gemeinde"},"district":{"key":"03353","name":"Harburg","type":"Landkreis"},"federalState":{"key":"03","name":"Niedersachsen"}},{"name":"Auf dem Reller","postalCode":"21727","locality":"Estorf","municipality":{"key":"03359016","name":"Estorf","type":"Kreisangehörige_Gemeinde"},"district":{"key":"03359","name":"Stade","type":"Landkreis"},"federalState":{"key":"03","name":"Niedersachsen"}},{"name":"Auf den Blöcken","postalCode":"21727","locality":"Estorf","municipality":{"key":"03359016","name":"Estorf","type":"Kreisangehörige_Gemeinde"},"district":{"key":"03359","name":"Stade","type":"Landkreis"},"federalState":{"key":"03","name":"Niedersachsen"}},{"name":"Auf der Bult","postalCode":"31629","locality":"Estorf","municipality":{"key":"03256006","name":"Estorf","type":"Kreisangehörige_Gemeinde"},"district":{"key":"03256","name":"Nienburg (Weser)","type":"Landkreis"},"federalState":{"key":"03","name":"Niedersachsen"}},{"name":"Bahnhofstr.","postalCode":"31629","locality":"Estorf","municipality":{"key":"03256006","name":"Estorf","type":"Kreisangehörige_Gemeinde"},"district":{"key":"03256","name":"Nienburg (Weser)","type":"Landkreis"},"federalState":{"key":"03","name":"Niedersachsen"}},{"name":"Balancebaumstamm","postalCode":"21272","locality":"Egestorf","municipality":{"key":"03353009","name":"Egestorf","type":"Kreisangehörige_Gemeinde"},"district":{"key":"03353","name":"Harburg","type":"Landkreis"},"federalState":{"key":"03","name":"Niedersachsen"}},{"name":"Balancestange","postalCode":"21272","locality":"Egestorf","municipality":{"key":"03353009","name":"Egestorf","type":"Kreisangehörige_Gemeinde"},"district":{"key":"03353","name":"Harburg","type":"Landkreis"},"federalState":{"key":"03","name":"Niedersachsen"}},{"name":"Bardal","postalCode":"21227","locality":"Bendestorf","municipality":{"key":"03353003","name":"Bendestorf","type":"Kreisangehörige_Gemeinde"},"district":{"key":"03353","name":"Harburg","type":"Landkreis"},"federalState":{"key":"03","name":"Niedersachsen"}},{"name":"Barkhof","postalCode":"21272","locality":"Egestorf","municipality":{"key":"03353009","name":"Egestorf","type":"Kreisangehörige_Gemeinde"},"district":{"key":"03353","name":"Harburg","type":"Landkreis"},"federalState":{"key":"03","name":"Niedersachsen"}},{"name":"Bauernworth","postalCode":"21272","locality":"Egestorf","municipality":{"key":"03353009","name":"Egestorf","type":"Kreisangehörige_Gemeinde"},"district":{"key":"03353","name":"Harburg","type":"Landkreis"},"federalState":{"key":"03","name":"Niedersachsen"}},{"name":"Beckwiesen","postalCode":"21227","locality":"Bendestorf","municipality":{"key":"03353003","name":"Bendestorf","type":"Kreisangehörige_Gemeinde"},"district":{"key":"03353","name":"Harburg","type":"Landkreis"},"federalState":{"key":"03","name":"Niedersachsen"}},{"name":"Bendestorfer Kuhtrift","postalCode":"21227","locality":"Bendestorf","municipality":{"key":"03353003","name":"Bendestorf","type":"Kreisangehörige_Gemeinde"},"district":{"key":"03353","name":"Harburg","type":"Landkreis"},"federalState":{"key":"03","name":"Niedersachsen"}},{"name":"Bickbeerweg","postalCode":"21272","locality":"Egestorf","municipality":{"key":"03353009","name":"Egestorf","type":"Kreisangehörige_Gemeinde"},"district":{"key":"03353","name":"Harburg","type":"Landkreis"},"federalState":{"key":"03","name":"Niedersachsen"}},{"name":"Binnenbeek","postalCode":"21272","locality":"Egestorf","municipality":{"key":"03353009","name":"Egestorf","type":"Kreisangehörige_Gemeinde"},"district":{"key":"03353","name":"Harburg","type":"Landkreis"},"federalState":{"key":"03","name":"Niedersachsen"}},{"name":"Birkenweg","postalCode":"21272","locality":"Egestorf","municipality":{"key":"03353009","name":"Egestorf","type":"Kreisangehörige_Gemeinde"},"district":{"key":"03353","name":"Harburg","type":"Landkreis"},"federalState":{"key":"03","name":"Niedersachsen"}},{"name":"Blindenreise mit Baumtafeln","postalCode":"21272","locality":"Egestorf","municipality":{"key":"03353009","name":"Egestorf","type":"Kreisangehörige_Gemeinde"},"district":{"key":"03353","name":"Harburg","type":"Landkreis"},"federalState":{"key":"03","name":"Niedersachsen"}},{"name":"Blumenstr.","postalCode":"31629","locality":"Estorf","municipality":{"key":"03256006","name":"Estorf","type":"Kreisangehörige_Gemeinde"},"district":{"key":"03256","name":"Nienburg (Weser)","type":"Landkreis"},"federalState":{"key":"03","name":"Niedersachsen"}},{"name":"Bogenstr.","postalCode":"31629","locality":"Estorf","municipality":{"key":"03256006","name":"Estorf","type":"Kreisangehörige_Gemeinde"},"district":{"key":"03256","name":"Nienburg (Weser)","type":"Landkreis"},"federalState":{"key":"03","name":"Niedersachsen"}},{"name":"Bollberg","postalCode":"21272","locality":"Egestorf","municipality":{"key":"03353009","name":"Egestorf","type":"Kreisangehörige_Gemeinde"},"district":{"key":"03353","name":"Harburg","type":"Landkreis"},"federalState":{"key":"03","name":"Niedersachsen"}},{"name":"Borenkamp","postalCode":"23847","locality":"Bliestorf","municipality":{"key":"01053011","name":"Bliestorf","type":"Kreisangehörige_Gemeinde"},"district":{"key":"01053","name":"Herzogtum Lauenburg","type":"Kreis"},"federalState":{"key":"01","name":"Schleswig-Holstein"}},{"name":"Botenberg","postalCode":"21272","locality":"Egestorf","municipality":{"key":"03353009","name":"Egestorf","type":"Kreisangehörige_Gemeinde"},"district":{"key":"03353","name":"Harburg","type":"Landkreis"},"federalState":{"key":"03","name":"Niedersachsen"}},{"name":"Brakenhof","postalCode":"31629","locality":"Estorf","municipality":{"key":"03256006","name":"Estorf","type":"Kreisangehörige_Gemeinde"},"district":{"key":"03256","name":"Nienburg (Weser)","type":"Landkreis"},"federalState":{"key":"03","name":"Niedersachsen"}},{"name":"Breedenweg","postalCode":"23847","locality":"Bliestorf","municipality":{"key":"01053011","name":"Bliestorf","type":"Kreisangehörige_Gemeinde"},"district":{"key":"01053","name":"Herzogtum Lauenburg","type":"Kreis"},"federalState":{"key":"01","name":"Schleswig-Holstein"}},{"name":"Brombeerweg","postalCode":"23847","locality":"Bliestorf","municipality":{"key":"01053011","name":"Bliestorf","type":"Kreisangehörige_Gemeinde"},"district":{"key":"01053","name":"Herzogtum Lauenburg","type":"Kreis"},"federalState":{"key":"01","name":"Schleswig-Holstein"}},{"name":"Bucheckern","postalCode":"21272","locality":"Egestorf","municipality":{"key":"03353009","name":"Egestorf","type":"Kreisangehörige_Gemeinde"},"district":{"key":"03353","name":"Harburg","type":"Landkreis"},"federalState":{"key":"03","name":"Niedersachsen"}},{"name":"Buchenring","postalCode":"21272","locality":"Egestorf","municipality":{"key":"03353009","name":"Egestorf","type":"Kreisangehörige_Gemeinde"},"district":{"key":"03353","name":"Harburg","type":"Landkreis"},"federalState":{"key":"03","name":"Niedersachsen"}},{"name":"Bürgermeisterweg","postalCode":"21272","locality":"Egestorf","municipality":{"key":"03353009","name":"Egestorf","type":"Kreisangehörige_Gemeinde"},"district":{"key":"03353","name":"Harburg","type":"Landkreis"},"federalState":{"key":"03","name":"Niedersachsen"}},{"name":"Butengorn","postalCode":"21272","locality":"Egestorf","municipality":{"key":"03353009","name":"Egestorf","type":"Kreisangehörige_Gemeinde"},"district":{"key":"03353","name":"Harburg","type":"Landkreis"},"federalState":{"key":"03","name":"Niedersachsen"}},{"name":"Camper Str.","postalCode":"21680","locality":"Stade","municipality":{"key":"03359038","name":"Stade, Hansestadt","type":"Stadt"},"district":{"key":"03359","name":"Stade","type":"Landkreis"},"federalState":{"key":"03","name":"Niedersachsen"}},{"name":"Carl-Benz-Str.","postalCode":"21684","locality":"Stade","municipality":{"key":"03359038","name":"Stade, Hansestadt","type":"Stadt"},"district":{"key":"03359","name":"Stade","type":"Landkreis"},"federalState":{"key":"03","name":"Niedersachsen"}},{"name":"Carl-Diercke-Park","postalCode":"21682","locality":"Stade","municipality":{"key":"03359038","name":"Stade, Hansestadt","type":"Stadt"},"district":{"key":"03359","name":"Stade","type":"Landkreis"},"federalState":{"key":"03","name":"Niedersachsen"}},{"name":"Carl-Goerdeler-Weg","postalCode":"21684","locality":"Stade","municipality":{"key":"03359038","name":"Stade, Hansestadt","type":"Stadt"},"district":{"key":"03359","name":"Stade","type":"Landkreis"},"federalState":{"key":"03","name":"Niedersachsen"}},{"name":"Carl-von-Ossietzky-Weg","postalCode":"21684","locality":"Stade","municipality":{"key":"03359038","name":"Stade, Hansestadt","type":"Stadt"},"district":{"key":"03359","name":"Stade","type":"Landkreis"},"federalState":{"key":"03","name":"Niedersachsen"}},{"name":"Casmannstr.","postalCode":"21680","locality":"Stade","municipality":{"key":"03359038","name":"Stade, Hansestadt","type":"Stadt"},"district":{"key":"03359","name":"Stade","type":"Landkreis"},"federalState":{"key":"03","name":"Niedersachsen"}},{"name":"Celler Str.","postalCode":"21680","locality":"Stade","municipality":{"key":"03359038","name":"Stade, Hansestadt","type":"Stadt"},"district":{"key":"03359","name":"Stade","type":"Landkreis"},"federalState":{"key":"03","name":"Niedersachsen"}},{"name":"Chaukenstr.","postalCode":"21680","locality":"Stade","municipality":{"key":"03359038","name":"Stade, Hansestadt","type":"Stadt"},"district":{"key":"03359","name":"Stade","type":"Landkreis"},"federalState":{"key":"03","name":"Niedersachsen"}},{"name":"Cheruskerweg","postalCode":"21680","locality":"Stade","municipality":{"key":"03359038","name":"Stade, Hansestadt","type":"Stadt"},"district":{"key":"03359","name":"Stade","type":"Landkreis"},"federalState":{"key":"03","name":"Niedersachsen"}},{"name":"Christian-Reichert-Str.","postalCode":"55271","locality":"Stadecken-Elsheim","municipality":{"key":"07339057","name":"Stadecken-Elsheim","type":"Kreisangehörige_Gemeinde"},"district":{"key":"07339","name":"Mainz-Bingen","type":"Landkreis"},"federalState":{"key":"07","name":"Rheinland-Pfalz"}},{"name":"Christophorusweg","postalCode":"21683","locality":"Stade","municipality":{"key":"03359038","name":"Stade, Hansestadt","type":"Stadt"},"district":{"key":"03359","name":"Stade","type":"Landkreis"},"federalState":{"key":"03","name":"Niedersachsen"}},{"name":"Clara-Schumannstr.","postalCode":"55271","locality":"Stadecken-Elsheim","municipality":{"key":"07339057","name":"Stadecken-Elsheim","type":"Kreisangehörige_Gemeinde"},"district":{"key":"07339","name":"Mainz-Bingen","type":"Landkreis"},"federalState":{"key":"07","name":"Rheinland-Pfalz"}},{"name":"Claus-von-Stauffenberg-Weg","postalCode":"21684","locality":"Stade","municipality":{"key":"03359038","name":"Stade, Hansestadt","type":"Stadt"},"district":{"key":"03359","name":"Stade","type":"Landkreis"},"federalState":{"key":"03","name":"Niedersachsen"}},{"name":"Cosmae-Kirchhof","postalCode":"21682","locality":"Stade","municipality":{"key":"03359038","name":"Stade, Hansestadt","type":"Stadt"},"district":{"key":"03359","name":"Stade","type":"Landkreis"},"federalState":{"key":"03","name":"Niedersachsen"}},{"name":"Cranzer Str.","postalCode":"21680","locality":"Stade","municipality":{"key":"03359038","name":"Stade, Hansestadt","type":"Stadt"},"district":{"key":"03359","name":"Stade","type":"Landkreis"},"federalState":{"key":"03","name":"Niedersachsen"}},{"name":"Döhler Kirchweg","postalCode":"21272","locality":"Egestorf","municipality":{"key":"03353009","name":"Egestorf","type":"Kreisangehörige_Gemeinde"},"district":{"key":"03353","name":"Harburg","type":"Landkreis"},"federalState":{"key":"03","name":"Niedersachsen"}},{"name":"Dorfstr.","postalCode":"21272","locality":"Egestorf","municipality":{"key":"03353009","name":"Egestorf","type":"Kreisangehörige_Gemeinde"},"district":{"key":"03353","name":"Harburg","type":"Landkreis"},"federalState":{"key":"03","name":"Niedersachsen"}},{"name":"Dorfstr.","postalCode":"21727","locality":"Estorf","municipality":{"key":"03359016","name":"Estorf","type":"Kreisangehörige_Gemeinde"},"district":{"key":"03359","name":"Stade","type":"Landkreis"},"federalState":{"key":"03","name":"Niedersachsen"}},{"name":"Dorfstr.","postalCode":"23936","locality":"Testorf-Steinfort","municipality":{"key":"13074077","name":"Testorf-Steinfort","type":"Kreisangehörige_Gemeinde"},"district":{"key":"13074","name":"Nordwestmecklenburg","type":"Landkreis"},"federalState":{"key":"13","name":"Mecklenburg-Vorpommern"}},{"name":"Drosselkehre","postalCode":"21272","locality":"Egestorf","municipality":{"key":"03353009","name":"Egestorf","type":"Kreisangehörige_Gemeinde"},"district":{"key":"03353","name":"Harburg","type":"Landkreis"},"federalState":{"key":"03","name":"Niedersachsen"}},{"name":"Drosselweg","postalCode":"23847","locality":"Bliestorf","municipality":{"key":"01053011","name":"Bliestorf","type":"Kreisangehörige_Gemeinde"},"district":{"key":"01053","name":"Herzogtum Lauenburg","type":"Kreis"},"federalState":{"key":"01","name":"Schleswig-Holstein"}},{"name":"Druhwaldsweg","postalCode":"21272","locality":"Egestorf","municipality":{"key":"03353009","name":"Egestorf","type":"Kreisangehörige_Gemeinde"},"district":{"key":"03353","name":"Harburg","type":"Landkreis"},"federalState":{"key":"03","name":"Niedersachsen"}},{"name":"Egestorfer Kirchweg","postalCode":"21272","locality":"Egestorf","municipality":{"key":"03353009","name":"Egestorf","type":"Kreisangehörige_Gemeinde"},"district":{"key":"03353","name":"Harburg","type":"Landkreis"},"federalState":{"key":"03","name":"Niedersachsen"}},{"name":"Eichenort","postalCode":"21227","locality":"Bendestorf","municipality":{"key":"03353003","name":"Bendestorf","type":"Kreisangehörige_Gemeinde"},"district":{"key":"03353","name":"Harburg","type":"Landkreis"},"federalState":{"key":"03","name":"Niedersachsen"}},{"name":"Eichentwiete","postalCode":"21227","locality":"Bendestorf","municipality":{"key":"03353003","name":"Bendestorf","type":"Kreisangehörige_Gemeinde"},"district":{"key":"03353","name":"Harburg","type":"Landkreis"},"federalState":{"key":"03","name":"Niedersachsen"}},{"name":"Eichenweg","postalCode":"23936","locality":"Testorf-Steinfort","municipality":{"key":"13074077","name":"Testorf-Steinfort","type":"Kreisangehörige_Gemeinde"},"district":{"key":"13074","name":"Nordwestmecklenburg","type":"Landkreis"},"federalState":{"key":"13","name":"Mecklenburg-Vorpommern"}},{"name":"Erikastieg","postalCode":"21227","locality":"Bendestorf","municipality":{"key":"03353003","name":"Bendestorf","type":"Kreisangehörige_Gemeinde"},"district":{"key":"03353","name":"Harburg","type":"Landkreis"},"federalState":{"key":"03","name":"Niedersachsen"}},{"name":"Estorfer Weg","postalCode":"31629","locality":"Estorf","municipality":{"key":"03256006","name":"Estorf","type":"Kreisangehörige_Gemeinde"},"district":{"key":"03256","name":"Nienburg (Weser)","type":"Landkreis"},"federalState":{"key":"03","name":"Niedersachsen"}},{"name":"Evendorf Brocken","postalCode":"21272","locality":"Egestorf","municipality":{"key":"03353009","name":"Egestorf","type":"Kreisangehörige_Gemeinde"},"district":{"key":"03353","name":"Harburg","type":"Landkreis"},"federalState":{"key":"03","name":"Niedersachsen"}},{"name":"Evendorf Dorfstr.","postalCode":"21272","locality":"Egestorf","municipality":{"key":"03353009","name":"Egestorf","type":"Kreisangehörige_Gemeinde"},"district":{"key":"03353","name":"Harburg","type":"Landkreis"},"federalState":{"key":"03","name":"Niedersachsen"}},{"name":"Evendorfer Str.","postalCode":"21272","locality":"Egestorf","municipality":{"key":"03353009","name":"Egestorf","type":"Kreisangehörige_Gemeinde"},"district":{"key":"03353","name":"Harburg","type":"Landkreis"},"federalState":{"key":"03","name":"Niedersachsen"}},{"name":"Evendorf Heidberg","postalCode":"21272","locality":"Egestorf","municipality":{"key":"03353009","name":"Egestorf","type":"Kreisangehörige_Gemeinde"},"district":{"key":"03353","name":"Harburg","type":"Landkreis"},"federalState":{"key":"03","name":"Niedersachsen"}},{"name":"Evendorf Immenweg","postalCode":"21272","locality":"Egestorf","municipality":{"key":"03353009","name":"Egestorf","type":"Kreisangehörige_Gemeinde"},"district":{"key":"03353","name":"Harburg","type":"Landkreis"},"federalState":{"key":"03","name":"Niedersachsen"}},{"name":"Evendorf Osterfeld","postalCode":"21272","locality":"Egestorf","municipality":{"key":"03353009","name":"Egestorf","type":"Kreisangehörige_Gemeinde"},"district":{"key":"03353","name":"Harburg","type":"Landkreis"},"federalState":{"key":"03","name":"Niedersachsen"}},{"name":"Evendorf Schulweg","postalCode":"21272","locality":"Egestorf","municipality":{"key":"03353009","name":"Egestorf","type":"Kreisangehörige_Gemeinde"},"district":{"key":"03353","name":"Harburg","type":"Landkreis"},"federalState":{"key":"03","name":"Niedersachsen"}},{"name":"Evendorf Soldbarg","postalCode":"21272","locality":"Egestorf","municipality":{"key":"03353009","name":"Egestorf","type":"Kreisangehörige_Gemeinde"},"district":{"key":"03353","name":"Harburg","type":"Landkreis"},"federalState":{"key":"03","name":"Niedersachsen"}},{"name":"Evendorf Wiedsal","postalCode":"21272","locality":"Egestorf","municipality":{"key":"03353009","name":"Egestorf","type":"Kreisangehörige_Gemeinde"},"district":{"key":"03353","name":"Harburg","type":"Landkreis"},"federalState":{"key":"03","name":"Niedersachsen"}},{"name":"Fasanenweg","postalCode":"21227","locality":"Bendestorf","municipality":{"key":"03353003","name":"Bendestorf","type":"Kreisangehörige_Gemeinde"},"district":{"key":"03353","name":"Harburg","type":"Landkreis"},"federalState":{"key":"03","name":"Niedersachsen"}},{"name":"Feldsteinpflaster","postalCode":"21272","locality":"Egestorf","municipality":{"key":"03353009","name":"Egestorf","type":"Kreisangehörige_Gemeinde"},"district":{"key":"03353","name":"Harburg","type":"Landkreis"},"federalState":{"key":"03","name":"Niedersachsen"}},{"name":"Feldsteinpflaster groß","postalCode":"21272","locality":"Egestorf","municipality":{"key":"03353009","name":"Egestorf","type":"Kreisangehörige_Gemeinde"},"district":{"key":"03353","name":"Harburg","type":"Landkreis"},"federalState":{"key":"03","name":"Niedersachsen"}},{"name":"Feldstr.","postalCode":"31629","locality":"Estorf","municipality":{"key":"03256006","name":"Estorf","type":"Kreisangehörige_Gemeinde"},"district":{"key":"03256","name":"Nienburg (Weser)","type":"Landkreis"},"federalState":{"key":"03","name":"Niedersachsen"}},{"name":"Felssteinpflaster klein","postalCode":"21272","locality":"Egestorf","municipality":{"key":"03353009","name":"Egestorf","type":"Kreisangehörige_Gemeinde"},"district":{"key":"03353","name":"Harburg","type":"Landkreis"},"federalState":{"key":"03","name":"Niedersachsen"}},{"name":"Findlinge groß","postalCode":"21272","locality":"Egestorf","municipality":{"key":"03353009","name":"Egestorf","type":"Kreisangehörige_Gemeinde"},"district":{"key":"03353","name":"Harburg","type":"Landkreis"},"federalState":{"key":"03","name":"Niedersachsen"}},{"name":"Fischerkoppel","postalCode":"23847","locality":"Bliestorf","municipality":{"key":"01053011","name":"Bliestorf","type":"Kreisangehörige_Gemeinde"},"district":{"key":"01053","name":"Herzogtum Lauenburg","type":"Kreis"},"federalState":{"key":"01","name":"Schleswig-Holstein"}},{"name":"Forst","postalCode":"21727","locality":"Estorf","municipality":{"key":"03359016","name":"Estorf","type":"Kreisangehörige_Gemeinde"},"district":{"key":"03359","name":"Stade","type":"Landkreis"},"federalState":{"key":"03","name":"Niedersachsen"}},{"name":"Freudenthalweg","postalCode":"21227","locality":"Bendestorf","municipality":{"key":"03353003","name":"Bendestorf","type":"Kreisangehörige_Gemeinde"},"district":{"key":"03353","name":"Harburg","type":"Landkreis"},"federalState":{"key":"03","name":"Niedersachsen"}},{"name":"Fritz-Reuter-Weg","postalCode":"21227","locality":"Bendestorf","municipality":{"key":"03353003","name":"Bendestorf","type":"Kreisangehörige_Gemeinde"},"district":{"key":"03353","name":"Harburg","type":"Landkreis"},"federalState":{"key":"03","name":"Niedersachsen"}},{"name":"Garlstorfer Str.","postalCode":"21272","locality":"Egestorf","municipality":{"key":"03353009","name":"Egestorf","type":"Kreisangehörige_Gemeinde"},"district":{"key":"03353","name":"Harburg","type":"Landkreis"},"federalState":{"key":"03","name":"Niedersachsen"}},{"name":"Gartenhöh","postalCode":"21227","locality":"Bendestorf","municipality":{"key":"03353003","name":"Bendestorf","type":"Kreisangehörige_Gemeinde"},"district":{"key":"03353","name":"Harburg","type":"Landkreis"},"federalState":{"key":"03","name":"Niedersachsen"}},{"name":"Gartenstr.","postalCode":"21227","locality":"Bendestorf","municipality":{"key":"03353003","name":"Bendestorf","type":"Kreisangehörige_Gemeinde"},"district":{"key":"03353","name":"Harburg","type":"Landkreis"},"federalState":{"key":"03","name":"Niedersachsen"}},{"name":"Gartenstr.","postalCode":"31629","locality":"Estorf","municipality":{"key":"03256006","name":"Estorf","type":"Kreisangehörige_Gemeinde"},"district":{"key":"03256","name":"Nienburg (Weser)","type":"Landkreis"},"federalState":{"key":"03","name":"Niedersachsen"}},{"name":"Gartenstr.","postalCode":"37619","locality":"Pegestorf","municipality":{"key":"03255032","name":"Pegestorf","type":"Kreisangehörige_Gemeinde"},"district":{"key":"03255","name":"Holzminden","type":"Landkreis"},"federalState":{"key":"03","name":"Niedersachsen"}},{"name":"Ginsterweg","postalCode":"21272","locality":"Egestorf","municipality":{"key":"03353009","name":"Egestorf","type":"Kreisangehörige_Gemeinde"},"district":{"key":"03353","name":"Harburg","type":"Landkreis"},"federalState":{"key":"03","name":"Niedersachsen"}},{"name":"Glasscherben","postalCode":"21272","locality":"Egestorf","municipality":{"key":"03353009","name":"Egestorf","type":"Kreisangehörige_Gemeinde"},"district":{"key":"03353","name":"Harburg","type":"Landkreis"},"federalState":{"key":"03","name":"Niedersachsen"}},{"name":"Glisser Bruch","postalCode":"31604","locality":"Raddestorf","municipality":{"key":"03256024","name":"Raddestorf","type":"Kreisangehörige_Gemeinde"},"district":{"key":"03256","name":"Nienburg (Weser)","type":"Landkreis"},"federalState":{"key":"03","name":"Niedersachsen"}},{"name":"Glisser Dorfstr.","postalCode":"31604","locality":"Raddestorf","municipality":{"key":"03256024","name":"Raddestorf","type":"Kreisangehörige_Gemeinde"},"district":{"key":"03256","name":"Nienburg (Weser)","type":"Landkreis"},"federalState":{"key":"03","name":"Niedersachsen"}},{"name":"Glisser Heide","postalCode":"31604","locality":"Raddestorf","municipality":{"key":"03256024","name":"Raddestorf","type":"Kreisangehörige_Gemeinde"},"district":{"key":"03256","name":"Nienburg (Weser)","type":"Landkreis"},"federalState":{"key":"03","name":"Niedersachsen"}},{"name":"Glisser Landstr.","postalCode":"31604","locality":"Raddestorf","municipality":{"key":"03256024","name":"Raddestorf","type":"Kreisangehörige_Gemeinde"},"district":{"key":"03256","name":"Nienburg (Weser)","type":"Landkreis"},"federalState":{"key":"03","name":"Niedersachsen"}},{"name":"Glisser Mitte","postalCode":"31604","locality":"Raddestorf","municipality":{"key":"03256024","name":"Raddestorf","type":"Kreisangehörige_Gemeinde"},"district":{"key":"03256","name":"Nienburg (Weser)","type":"Landkreis"},"federalState":{"key":"03","name":"Niedersachsen"}},{"name":"Glisser Riede","postalCode":"31604","locality":"Raddestorf","municipality":{"key":"03256024","name":"Raddestorf","type":"Kreisangehörige_Gemeinde"},"district":{"key":"03256","name":"Nienburg (Weser)","type":"Landkreis"},"federalState":{"key":"03","name":"Niedersachsen"}},{"name":"Granitsteine/Kieselsteine","postalCode":"21272","locality":"Egestorf","municipality":{"key":"03353009","name":"Egestorf","type":"Kreisangehörige_Gemeinde"},"district":{"key":"03353","name":"Harburg","type":"Landkreis"},"federalState":{"key":"03","name":"Niedersachsen"}},{"name":"Gräsebilde","postalCode":"31604","locality":"Raddestorf","municipality":{"key":"03256024","name":"Raddestorf","type":"Kreisangehörige_Gemeinde"},"district":{"key":"03256","name":"Nienburg (Weser)","type":"Landkreis"},"federalState":{"key":"03","name":"Niedersachsen"}},{"name":"Grevesmühlener Str.","postalCode":"23936","locality":"Testorf-Steinfort","municipality":{"key":"13074077","name":"Testorf-Steinfort","type":"Kreisangehörige_Gemeinde"},"district":{"key":"13074","name":"Nordwestmecklenburg","type":"Landkreis"},"federalState":{"key":"13","name":"Mecklenburg-Vorpommern"}},{"name":"Groten Beeck","postalCode":"21727","locality":"Estorf","municipality":{"key":"03359016","name":"Estorf","type":"Kreisangehörige_Gemeinde"},"district":{"key":"03359","name":"Stade","type":"Landkreis"},"federalState":{"key":"03","name":"Niedersachsen"}},{"name":"Gutsweg","postalCode":"31629","locality":"Estorf","municipality":{"key":"03256006","name":"Estorf","type":"Kreisangehörige_Gemeinde"},"district":{"key":"03256","name":"Nienburg (Weser)","type":"Landkreis"},"federalState":{"key":"03","name":"Niedersachsen"}},{"name":"Haferkamp","postalCode":"21227","locality":"Bendestorf","municipality":{"key":"03353003","name":"Bendestorf","type":"Kreisangehörige_Gemeinde"},"district":{"key":"03353","name":"Harburg","type":"Landkreis"},"federalState":{"key":"03","name":"Niedersachsen"}},{"name":"Halle","postalCode":"31604","locality":"Raddestorf","municipality":{"key":"03256024","name":"Raddestorf","type":"Kreisangehörige_Gemeinde"},"district":{"key":"03256","name":"Nienburg (Weser)","type":"Landkreis"},"federalState":{"key":"03","name":"Niedersachsen"}},{"name":"Hämpstraat","postalCode":"21272","locality":"Egestorf","municipality":{"key":"03353009","name":"Egestorf","type":"Kreisangehörige_Gemeinde"},"district":{"key":"03353","name":"Harburg","type":"Landkreis"},"federalState":{"key":"03","name":"Niedersachsen"}},{"name":"Hans-Domitzlaff-Weg","postalCode":"21272","locality":"Egestorf","municipality":{"key":"03353009","name":"Egestorf","type":"Kreisangehörige_Gemeinde"},"district":{"key":"03353","name":"Harburg","type":"Landkreis"},"federalState":{"key":"03","name":"Niedersachsen"}},{"name":"Hans-Eidig-Weg","postalCode":"21227","locality":"Bendestorf","municipality":{"key":"03353003","name":"Bendestorf","type":"Kreisangehörige_Gemeinde"},"district":{"key":"03353","name":"Harburg","type":"Landkreis"},"federalState":{"key":"03","name":"Niedersachsen"}},{"name":"Harmstorfer Weg","postalCode":"21227","locality":"Bendestorf","municipality":{"key":"03353003","name":"Bendestorf","type":"Kreisangehörige_Gemeinde"},"district":{"key":"03353","name":"Harburg","type":"Landkreis"},"federalState":{"key":"03","name":"Niedersachsen"}},{"name":"Harms-Weg","postalCode":"21272","locality":"Egestorf","municipality":{"key":"03353009","name":"Egestorf","type":"Kreisangehörige_Gemeinde"},"district":{"key":"03353","name":"Harburg","type":"Landkreis"},"federalState":{"key":"03","name":"Niedersachsen"}},{"name":"Harrienstedt","postalCode":"31604","locality":"Raddestorf","municipality":{"key":"03256024","name":"Raddestorf","type":"Kreisangehörige_Gemeinde"},"district":{"key":"03256","name":"Nienburg (Weser)","type":"Landkreis"},"federalState":{"key":"03","name":"Niedersachsen"}},{"name":"Hauptstr.","postalCode":"23847","locality":"Bliestorf","municipality":{"key":"01053011","name":"Bliestorf","type":"Kreisangehörige_Gemeinde"},"district":{"key":"01053","name":"Herzogtum Lauenburg","type":"Kreis"},"federalState":{"key":"01","name":"Schleswig-Holstein"}},{"name":"Hauptstr.","postalCode":"23936","locality":"Testorf-Steinfort","municipality":{"key":"13074077","name":"Testorf-Steinfort","type":"Kreisangehörige_Gemeinde"},"district":{"key":"13074","name":"Nordwestmecklenburg","type":"Landkreis"},"federalState":{"key":"13","name":"Mecklenburg-Vorpommern"}},{"name":"Hauptstr.","postalCode":"37619","locality":"Pegestorf","municipality":{"key":"03255032","name":"Pegestorf","type":"Kreisangehörige_Gemeinde"},"district":{"key":"03255","name":"Holzminden","type":"Landkreis"},"federalState":{"key":"03","name":"Niedersachsen"}},{"name":"Hauskoppelweg","postalCode":"21272","locality":"Egestorf","municipality":{"key":"03353009","name":"Egestorf","type":"Kreisangehörige_Gemeinde"},"district":{"key":"03353","name":"Harburg","type":"Landkreis"},"federalState":{"key":"03","name":"Niedersachsen"}},{"name":"Heckenweg","postalCode":"21727","locality":"Estorf","municipality":{"key":"03359016","name":"Estorf","type":"Kreisangehörige_Gemeinde"},"district":{"key":"03359","name":"Stade","type":"Landkreis"},"federalState":{"key":"03","name":"Niedersachsen"}},{"name":"Heidekraut","postalCode":"21272","locality":"Egestorf","municipality":{"key":"03353009","name":"Egestorf","type":"Kreisangehörige_Gemeinde"},"district":{"key":"03353","name":"Harburg","type":"Landkreis"},"federalState":{"key":"03","name":"Niedersachsen"}},{"name":"Heideweg","postalCode":"21272","locality":"Egestorf","municipality":{"key":"03353009","name":"Egestorf","type":"Kreisangehörige_Gemeinde"},"district":{"key":"03353","name":"Harburg","type":"Landkreis"},"federalState":{"key":"03","name":"Niedersachsen"}},{"name":"Heideweg","postalCode":"21727","locality":"Estorf","municipality":{"key":"03359016","name":"Estorf","type":"Kreisangehörige_Gemeinde"},"district":{"key":"03359","name":"Stade","type":"Landkreis"},"federalState":{"key":"03","name":"Niedersachsen"}},{"name":"Heidjerwinkel","postalCode":"21227","locality":"Bendestorf","municipality":{"key":"03353003","name":"Bendestorf","type":"Kreisangehörige_Gemeinde"},"district":{"key":"03353","name":"Harburg","type":"Landkreis"},"federalState":{"key":"03","name":"Niedersachsen"}},{"name":"Heinrich-George-Weg","postalCode":"21227","locality":"Bendestorf","municipality":{"key":"03353003","name":"Bendestorf","type":"Kreisangehörige_Gemeinde"},"district":{"key":"03353","name":"Harburg","type":"Landkreis"},"federalState":{"key":"03","name":"Niedersachsen"}},{"name":"Hermann-Löns-Weg","postalCode":"21227","locality":"Bendestorf","municipality":{"key":"03353003","name":"Bendestorf","type":"Kreisangehörige_Gemeinde"},"district":{"key":"03353","name":"Harburg","type":"Landkreis"},"federalState":{"key":"03","name":"Niedersachsen"}},{"name":"Hinter dem Holze","postalCode":"21227","locality":"Bendestorf","municipality":{"key":"03353003","name":"Bendestorf","type":"Kreisangehörige_Gemeinde"},"district":{"key":"03353","name":"Harburg","type":"Landkreis"},"federalState":{"key":"03","name":"Niedersachsen"}},{"name":"Hinter den Eichen","postalCode":"21272","locality":"Egestorf","municipality":{"key":"03353009","name":"Egestorf","type":"Kreisangehörige_Gemeinde"},"district":{"key":"03353","name":"Harburg","type":"Landkreis"},"federalState":{"key":"03","name":"Niedersachsen"}},{"name":"Hinter den Höfen","postalCode":"21272","locality":"Egestorf","municipality":{"key":"03353009","name":"Egestorf","type":"Kreisangehörige_Gemeinde"},"district":{"key":"03353","name":"Harburg","type":"Landkreis"},"federalState":{"key":"03","name":"Niedersachsen"}},{"name":"Hinter der Kirche","postalCode":"21272","locality":"Egestorf","municipality":{"key":"03353009","name":"Egestorf","type":"Kreisangehörige_Gemeinde"},"district":{"key":"03353","name":"Harburg","type":"Landkreis"},"federalState":{"key":"03","name":"Niedersachsen"}},{"name":"Hinter der Schmiede","postalCode":"21272","locality":"Egestorf","municipality":{"key":"03353009","name":"Egestorf","type":"Kreisangehörige_Gemeinde"},"district":{"key":"03353","name":"Harburg","type":"Landkreis"},"federalState":{"key":"03","name":"Niedersachsen"}},{"name":"Hohe Luft","postalCode":"21727","locality":"Estorf","municipality":{"key":"03359016","name":"Estorf","type":"Kreisangehörige_Gemeinde"},"district":{"key":"03359","name":"Stade","type":"Landkreis"},"federalState":{"key":"03","name":"Niedersachsen"}},{"name":"Hörpeler Weg","postalCode":"21272","locality":"Egestorf","municipality":{"key":"03353009","name":"Egestorf","type":"Kreisangehörige_Gemeinde"},"district":{"key":"03353","name":"Harburg","type":"Landkreis"},"federalState":{"key":"03","name":"Niedersachsen"}},{"name":"Hude","postalCode":"21727","locality":"Estorf","municipality":{"key":"03359016","name":"Estorf","type":"Kreisangehörige_Gemeinde"},"district":{"key":"03359","name":"Stade","type":"Landkreis"},"federalState":{"key":"03","name":"Niedersachsen"}},{"name":"Im Alten Dorfe","postalCode":"21227","locality":"Bendestorf","municipality":{"key":"03353003","name":"Bendestorf","type":"Kreisangehörige_Gemeinde"},"district":{"key":"03353","name":"Harburg","type":"Landkreis"},"federalState":{"key":"03","name":"Niedersachsen"}},{"name":"Im Bötz","postalCode":"21727","locality":"Estorf","municipality":{"key":"03359016","name":"Estorf","type":"Kreisangehörige_Gemeinde"},"district":{"key":"03359","name":"Stade","type":"Landkreis"},"federalState":{"key":"03","name":"Niedersachsen"}},{"name":"Im Bronckhorst","postalCode":"21272","locality":"Egestorf","municipality":{"key":"03353009","name":"Egestorf","type":"Kreisangehörige_Gemeinde"},"district":{"key":"03353","name":"Harburg","type":"Landkreis"},"federalState":{"key":"03","name":"Niedersachsen"}},{"name":"Im Brook","postalCode":"21227","locality":"Bendestorf","municipality":{"key":"03353003","name":"Bendestorf","type":"Kreisangehörige_Gemeinde"},"district":{"key":"03353","name":"Harburg","type":"Landkreis"},"federalState":{"key":"03","name":"Niedersachsen"}},{"name":"Im Bruch","postalCode":"21272","locality":"Egestorf","municipality":{"key":"03353009","name":"Egestorf","type":"Kreisangehörige_Gemeinde"},"district":{"key":"03353","name":"Harburg","type":"Landkreis"},"federalState":{"key":"03","name":"Niedersachsen"}},{"name":"Im Eiskeller","postalCode":"31629","locality":"Estorf","municipality":{"key":"03256006","name":"Estorf","type":"Kreisangehörige_Gemeinde"},"district":{"key":"03256","name":"Nienburg (Weser)","type":"Landkreis"},"federalState":{"key":"03","name":"Niedersachsen"}},{"name":"Im Ortfeld","postalCode":"31629","locality":"Estorf","municipality":{"key":"03256006","name":"Estorf","type":"Kreisangehörige_Gemeinde"},"district":{"key":"03256","name":"Nienburg (Weser)","type":"Landkreis"},"federalState":{"key":"03","name":"Niedersachsen"}},{"name":"Im Orthhof","postalCode":"21272","locality":"Egestorf","municipality":{"key":"03353009","name":"Egestorf","type":"Kreisangehörige_Gemeinde"},"district":{"key":"03353","name":"Harburg","type":"Landkreis"},"federalState":{"key":"03","name":"Niedersachsen"}},{"name":"Im Sahrendorf","postalCode":"21272","locality":"Egestorf","municipality":{"key":"03353009","name":"Egestorf","type":"Kreisangehörige_Gemeinde"},"district":{"key":"03353","name":"Harburg","type":"Landkreis"},"federalState":{"key":"03","name":"Niedersachsen"}},{"name":"Im Sande","postalCode":"21272","locality":"Egestorf","municipality":{"key":"03353009","name":"Egestorf","type":"Kreisangehörige_Gemeinde"},"district":{"key":"03353","name":"Harburg","type":"Landkreis"},"federalState":{"key":"03","name":"Niedersachsen"}},{"name":"Im Schätzendorfe","postalCode":"21272","locality":"Egestorf","municipality":{"key":"03353009","name":"Egestorf","type":"Kreisangehörige_Gemeinde"},"district":{"key":"03353","name":"Harburg","type":"Landkreis"},"federalState":{"key":"03","name":"Niedersachsen"}},{"name":"Im Schünebusch","postalCode":"31629","locality":"Estorf","municipality":{"key":"03256006","name":"Estorf","type":"Kreisangehörige_Gemeinde"},"district":{"key":"03256","name":"Nienburg (Weser)","type":"Landkreis"},"federalState":{"key":"03","name":"Niedersachsen"}},{"name":"Im Siekendahl","postalCode":"31629","locality":"Estorf","municipality":{"key":"03256006","name":"Estorf","type":"Kreisangehörige_Gemeinde"},"district":{"key":"03256","name":"Nienburg (Weser)","type":"Landkreis"},"federalState":{"key":"03","name":"Niedersachsen"}},{"name":"Im Wiemelken","postalCode":"21727","locality":"Estorf","municipality":{"key":"03359016","name":"Estorf","type":"Kreisangehörige_Gemeinde"},"district":{"key":"03359","name":"Stade","type":"Landkreis"},"federalState":{"key":"03","name":"Niedersachsen"}},{"name":"Im Winkel","postalCode":"37619","locality":"Pegestorf","municipality":{"key":"03255032","name":"Pegestorf","type":"Kreisangehörige_Gemeinde"},"district":{"key":"03255","name":"Holzminden","type":"Landkreis"},"federalState":{"key":"03","name":"Niedersachsen"}},{"name":"In de Hörn","postalCode":"21727","locality":"Estorf","municipality":{"key":"03359016","name":"Estorf","type":"Kreisangehörige_Gemeinde"},"district":{"key":"03359","name":"Stade","type":"Landkreis"},"federalState":{"key":"03","name":"Niedersachsen"}},{"name":"In de Lögen","postalCode":"21727","locality":"Estorf","municipality":{"key":"03359016","name":"Estorf","type":"Kreisangehörige_Gemeinde"},"district":{"key":"03359","name":"Stade","type":"Landkreis"},"federalState":{"key":"03","name":"Niedersachsen"}},{"name":"In den Fuhren","postalCode":"21272","locality":"Egestorf","municipality":{"key":"03353009","name":"Egestorf","type":"Kreisangehörige_Gemeinde"},"district":{"key":"03353","name":"Harburg","type":"Landkreis"},"federalState":{"key":"03","name":"Niedersachsen"}},{"name":"In der Heide","postalCode":"21727","locality":"Estorf","municipality":{"key":"03359016","name":"Estorf","type":"Kreisangehörige_Gemeinde"},"district":{"key":"03359","name":"Stade","type":"Landkreis"},"federalState":{"key":"03","name":"Niedersachsen"}},{"name":"In der Neustadt","postalCode":"31629","locality":"Estorf","municipality":{"key":"03256006","name":"Estorf","type":"Kreisangehörige_Gemeinde"},"district":{"key":"03256","name":"Nienburg (Weser)","type":"Landkreis"},"federalState":{"key":"03","name":"Niedersachsen"}},{"name":"Itzenbütteler Mühlenweg","postalCode":"21227","locality":"Bendestorf","municipality":{"key":"03353003","name":"Bendestorf","type":"Kreisangehörige_Gemeinde"},"district":{"key":"03353","name":"Harburg","type":"Landkreis"},"federalState":{"key":"03","name":"Niedersachsen"}},{"name":"Jahnstr.","postalCode":"31629","locality":"Estorf","municipality":{"key":"03256006","name":"Estorf","type":"Kreisangehörige_Gemeinde"},"district":{"key":"03256","name":"Nienburg (Weser)","type":"Landkreis"},"federalState":{"key":"03","name":"Niedersachsen"}},{"name":"Jesteburger Chaussee","postalCode":"21227","locality":"Bendestorf","municipality":{"key":"03353003","name":"Bendestorf","type":"Kreisangehörige_Gemeinde"},"district":{"key":"03353","name":"Harburg","type":"Landkreis"},"federalState":{"key":"03","name":"Niedersachsen"}},{"name":"Kastanienallee","postalCode":"23847","locality":"Bliestorf","municipality":{"key":"01053011","name":"Bliestorf","type":"Kreisangehörige_Gemeinde"},"district":{"key":"01053","name":"Herzogtum Lauenburg","type":"Kreis"},"federalState":{"key":"01","name":"Schleswig-Holstein"}},{"name":"Kastanienallee","postalCode":"23936","locality":"Testorf-Steinfort","municipality":{"key":"13074077","name":"Testorf-Steinfort","type":"Kreisangehörige_Gemeinde"},"district":{"key":"13074","name":"Nordwestmecklenburg","type":"Landkreis"},"federalState":{"key":"13","name":"Mecklenburg-Vorpommern"}},{"name":"Kastorfer Str.","postalCode":"23847","locality":"Bliestorf","municipality":{"key":"01053011","name":"Bliestorf","type":"Kreisangehörige_Gemeinde"},"district":{"key":"01053","name":"Herzogtum Lauenburg","type":"Kreis"},"federalState":{"key":"01","name":"Schleswig-Holstein"}},{"name":"Kiebitzhöhe","postalCode":"31604","locality":"Raddestorf","municipality":{"key":"03256024","name":"Raddestorf","type":"Kreisangehörige_Gemeinde"},"district":{"key":"03256","name":"Nienburg (Weser)","type":"Landkreis"},"federalState":{"key":"03","name":"Niedersachsen"}},{"name":"Kiebitzweg","postalCode":"31604","locality":"Raddestorf","municipality":{"key":"03256024","name":"Raddestorf","type":"Kreisangehörige_Gemeinde"},"district":{"key":"03256","name":"Nienburg (Weser)","type":"Landkreis"},"federalState":{"key":"03","name":"Niedersachsen"}},{"name":"Kieferneck","postalCode":"21227","locality":"Bendestorf","municipality":{"key":"03353003","name":"Bendestorf","type":"Kreisangehörige_Gemeinde"},"district":{"key":"03353","name":"Harburg","type":"Landkreis"},"federalState":{"key":"03","name":"Niedersachsen"}},{"name":"Kiefernzapfen","postalCode":"21272","locality":"Egestorf","municipality":{"key":"03353009","name":"Egestorf","type":"Kreisangehörige_Gemeinde"},"district":{"key":"03353","name":"Harburg","type":"Landkreis"},"federalState":{"key":"03","name":"Niedersachsen"}},{"name":"Kiek Ut","postalCode":"21227","locality":"Bendestorf","municipality":{"key":"03353003","name":"Bendestorf","type":"Kreisangehörige_Gemeinde"},"district":{"key":"03353","name":"Harburg","type":"Landkreis"},"federalState":{"key":"03","name":"Niedersachsen"}},{"name":"Kirchsteig","postalCode":"23936","locality":"Testorf-Steinfort","municipality":{"key":"13074077","name":"Testorf-Steinfort","type":"Kreisangehörige_Gemeinde"},"district":{"key":"13074","name":"Nordwestmecklenburg","type":"Landkreis"},"federalState":{"key":"13","name":"Mecklenburg-Vorpommern"}},{"name":"Kirchstr.","postalCode":"21227","locality":"Bendestorf","municipality":{"key":"03353003","name":"Bendestorf","type":"Kreisangehörige_Gemeinde"},"district":{"key":"03353","name":"Harburg","type":"Landkreis"},"federalState":{"key":"03","name":"Niedersachsen"}},{"name":"Kirchweg","postalCode":"37619","locality":"Pegestorf","municipality":{"key":"03255032","name":"Pegestorf","type":"Kreisangehörige_Gemeinde"},"district":{"key":"03255","name":"Holzminden","type":"Landkreis"},"federalState":{"key":"03","name":"Niedersachsen"}},{"name":"Kleckerwaldstr.","postalCode":"21227","locality":"Bendestorf","municipality":{"key":"03353003","name":"Bendestorf","type":"Kreisangehörige_Gemeinde"},"district":{"key":"03353","name":"Harburg","type":"Landkreis"},"federalState":{"key":"03","name":"Niedersachsen"}},{"name":"Kleine Kuhtrift","postalCode":"21227","locality":"Bendestorf","municipality":{"key":"03353003","name":"Bendestorf","type":"Kreisangehörige_Gemeinde"},"district":{"key":"03353","name":"Harburg","type":"Landkreis"},"federalState":{"key":"03","name":"Niedersachsen"}},{"name":"Kleinenheerse","postalCode":"31604","locality":"Raddestorf","municipality":{"key":"03256024","name":"Raddestorf","type":"Kreisangehörige_Gemeinde"},"district":{"key":"03256","name":"Nienburg (Weser)","type":"Landkreis"},"federalState":{"key":"03","name":"Niedersachsen"}},{"name":"Kleiner Hucken","postalCode":"21727","locality":"Estorf","municipality":{"key":"03359016","name":"Estorf","type":"Kreisangehörige_Gemeinde"},"district":{"key":"03359","name":"Stade","type":"Landkreis"},"federalState":{"key":"03","name":"Niedersachsen"}},{"name":"Kleines Feld","postalCode":"21272","locality":"Egestorf","municipality":{"key":"03353009","name":"Egestorf","type":"Kreisangehörige_Gemeinde"},"district":{"key":"03353","name":"Harburg","type":"Landkreis"},"federalState":{"key":"03","name":"Niedersachsen"}},{"name":"Kleine Tredde","postalCode":"31629","locality":"Estorf","municipality":{"key":"03256006","name":"Estorf","type":"Kreisangehörige_Gemeinde"},"district":{"key":"03256","name":"Nienburg (Weser)","type":"Landkreis"},"federalState":{"key":"03","name":"Niedersachsen"}},{"name":"Kohlstr.","postalCode":"31629","locality":"Estorf","municipality":{"key":"03256006","name":"Estorf","type":"Kreisangehörige_Gemeinde"},"district":{"key":"03256","name":"Nienburg (Weser)","type":"Landkreis"},"federalState":{"key":"03","name":"Niedersachsen"}},{"name":"Koppelweg","postalCode":"21727","locality":"Estorf","municipality":{"key":"03359016","name":"Estorf","type":"Kreisangehörige_Gemeinde"},"district":{"key":"03359","name":"Stade","type":"Landkreis"},"federalState":{"key":"03","name":"Niedersachsen"}},{"name":"Krähenberg","postalCode":"21272","locality":"Egestorf","municipality":{"key":"03353009","name":"Egestorf","type":"Kreisangehörige_Gemeinde"},"district":{"key":"03353","name":"Harburg","type":"Landkreis"},"federalState":{"key":"03","name":"Niedersachsen"}},{"name":"Kreuzkrug","postalCode":"31604","locality":"Raddestorf","municipality":{"key":"03256024","name":"Raddestorf","type":"Kreisangehörige_Gemeinde"},"district":{"key":"03256","name":"Nienburg (Weser)","type":"Landkreis"},"federalState":{"key":"03","name":"Niedersachsen"}},{"name":"Kroonsberg","postalCode":"21227","locality":"Bendestorf","municipality":{"key":"03353003","name":"Bendestorf","type":"Kreisangehörige_Gemeinde"},"district":{"key":"03353","name":"Harburg","type":"Landkreis"},"federalState":{"key":"03","name":"Niedersachsen"}},{"name":"Kuhlhof","postalCode":"21272","locality":"Egestorf","municipality":{"key":"03353009","name":"Egestorf","type":"Kreisangehörige_Gemeinde"},"district":{"key":"03353","name":"Harburg","type":"Landkreis"},"federalState":{"key":"03","name":"Niedersachsen"}},{"name":"Landstr.","postalCode":"21727","locality":"Estorf","municipality":{"key":"03359016","name":"Estorf","type":"Kreisangehörige_Gemeinde"},"district":{"key":"03359","name":"Stade","type":"Landkreis"},"federalState":{"key":"03","name":"Niedersachsen"}},{"name":"Landstr.","postalCode":"23936","locality":"Testorf-Steinfort","municipality":{"key":"13074077","name":"Testorf-Steinfort","type":"Kreisangehörige_Gemeinde"},"district":{"key":"13074","name":"Nordwestmecklenburg","type":"Landkreis"},"federalState":{"key":"13","name":"Mecklenburg-Vorpommern"}},{"name":"Lerchenweg","postalCode":"23847","locality":"Bliestorf","municipality":{"key":"01053011","name":"Bliestorf","type":"Kreisangehörige_Gemeinde"},"district":{"key":"01053","name":"Herzogtum Lauenburg","type":"Kreis"},"federalState":{"key":"01","name":"Schleswig-Holstein"}},{"name":"Lindenallee","postalCode":"23936","locality":"Testorf-Steinfort","municipality":{"key":"13074077","name":"Testorf-Steinfort","type":"Kreisangehörige_Gemeinde"},"district":{"key":"13074","name":"Nordwestmecklenburg","type":"Landkreis"},"federalState":{"key":"13","name":"Mecklenburg-Vorpommern"}},{"name":"Lindenhöhe","postalCode":"21272","locality":"Egestorf","municipality":{"key":"03353009","name":"Egestorf","type":"Kreisangehörige_Gemeinde"},"district":{"key":"03353","name":"Harburg","type":"Landkreis"},"federalState":{"key":"03","name":"Niedersachsen"}},{"name":"Lübberstedter Str.","postalCode":"21272","locality":"Egestorf","municipality":{"key":"03353009","name":"Egestorf","type":"Kreisangehörige_Gemeinde"},"district":{"key":"03353","name":"Harburg","type":"Landkreis"},"federalState":{"key":"03","name":"Niedersachsen"}},{"name":"Lübecker Str.","postalCode":"23847","locality":"Bliestorf","municipality":{"key":"01053011","name":"Bliestorf","type":"Kreisangehörige_Gemeinde"},"district":{"key":"01053","name":"Herzogtum Lauenburg","type":"Kreis"},"federalState":{"key":"01","name":"Schleswig-Holstein"}},{"name":"Mahnenhude Weg","postalCode":"31629","locality":"Estorf","municipality":{"key":"03256006","name":"Estorf","type":"Kreisangehörige_Gemeinde"},"district":{"key":"03256","name":"Nienburg (Weser)","type":"Landkreis"},"federalState":{"key":"03","name":"Niedersachsen"}},{"name":"Marschstr.","postalCode":"31629","locality":"Estorf","municipality":{"key":"03256006","name":"Estorf","type":"Kreisangehörige_Gemeinde"},"district":{"key":"03256","name":"Nienburg (Weser)","type":"Landkreis"},"federalState":{"key":"03","name":"Niedersachsen"}},{"name":"Matsch","postalCode":"21272","locality":"Egestorf","municipality":{"key":"03353009","name":"Egestorf","type":"Kreisangehörige_Gemeinde"},"district":{"key":"03353","name":"Harburg","type":"Landkreis"},"federalState":{"key":"03","name":"Niedersachsen"}},{"name":"Mecklenburger Str.","postalCode":"23936","locality":"Testorf-Steinfort","municipality":{"key":"13074077","name":"Testorf-Steinfort","type":"Kreisangehörige_Gemeinde"},"district":{"key":"13074","name":"Nordwestmecklenburg","type":"Landkreis"},"federalState":{"key":"13","name":"Mecklenburg-Vorpommern"}},{"name":"Mindener Landstr.","postalCode":"31629","locality":"Estorf","municipality":{"key":"03256006","name":"Estorf","type":"Kreisangehörige_Gemeinde"},"district":{"key":"03256","name":"Nienburg (Weser)","type":"Landkreis"},"federalState":{"key":"03","name":"Niedersachsen"}},{"name":"Mittlere Str.","postalCode":"37619","locality":"Pegestorf","municipality":{"key":"03255032","name":"Pegestorf","type":"Kreisangehörige_Gemeinde"},"district":{"key":"03255","name":"Holzminden","type":"Landkreis"},"federalState":{"key":"03","name":"Niedersachsen"}},{"name":"Moor","postalCode":"21272","locality":"Egestorf","municipality":{"key":"03353009","name":"Egestorf","type":"Kreisangehörige_Gemeinde"},"district":{"key":"03353","name":"Harburg","type":"Landkreis"},"federalState":{"key":"03","name":"Niedersachsen"}},{"name":"Mühlenbachweg","postalCode":"21227","locality":"Bendestorf","municipality":{"key":"03353003","name":"Bendestorf","type":"Kreisangehörige_Gemeinde"},"district":{"key":"03353","name":"Harburg","type":"Landkreis"},"federalState":{"key":"03","name":"Niedersachsen"}},{"name":"Mühlenweg","postalCode":"21727","locality":"Estorf","municipality":{"key":"03359016","name":"Estorf","type":"Kreisangehörige_Gemeinde"},"district":{"key":"03359","name":"Stade","type":"Landkreis"},"federalState":{"key":"03","name":"Niedersachsen"}},{"name":"Mühlenweg","postalCode":"23847","locality":"Bliestorf","municipality":{"key":"01053011","name":"Bliestorf","type":"Kreisangehörige_Gemeinde"},"district":{"key":"01053","name":"Herzogtum Lauenburg","type":"Kreis"},"federalState":{"key":"01","name":"Schleswig-Holstein"}},{"name":"Nachtigallenweg","postalCode":"21272","locality":"Egestorf","municipality":{"key":"03353009","name":"Egestorf","type":"Kreisangehörige_Gemeinde"},"district":{"key":"03353","name":"Harburg","type":"Landkreis"},"federalState":{"key":"03","name":"Niedersachsen"}},{"name":"Nachtigallenweg","postalCode":"31604","locality":"Raddestorf","municipality":{"key":"03256024","name":"Raddestorf","type":"Kreisangehörige_Gemeinde"},"district":{"key":"03256","name":"Nienburg (Weser)","type":"Landkreis"},"federalState":{"key":"03","name":"Niedersachsen"}},{"name":"nasser Lehm","postalCode":"21272","locality":"Egestorf","municipality":{"key":"03353009","name":"Egestorf","type":"Kreisangehörige_Gemeinde"},"district":{"key":"03353","name":"Harburg","type":"Landkreis"},"federalState":{"key":"03","name":"Niedersachsen"}},{"name":"Nathweg","postalCode":"21272","locality":"Egestorf","municipality":{"key":"03353009","name":"Egestorf","type":"Kreisangehörige_Gemeinde"},"district":{"key":"03353","name":"Harburg","type":"Landkreis"},"federalState":{"key":"03","name":"Niedersachsen"}},{"name":"Nelkenweg","postalCode":"23847","locality":"Bliestorf","municipality":{"key":"01053011","name":"Bliestorf","type":"Kreisangehörige_Gemeinde"},"district":{"key":"01053","name":"Herzogtum Lauenburg","type":"Kreis"},"federalState":{"key":"01","name":"Schleswig-Holstein"}},{"name":"Neue Schulstr.","postalCode":"31629","locality":"Estorf","municipality":{"key":"03256006","name":"Estorf","type":"Kreisangehörige_Gemeinde"},"district":{"key":"03256","name":"Nienburg (Weser)","type":"Landkreis"},"federalState":{"key":"03","name":"Niedersachsen"}},{"name":"Neues Tor","postalCode":"37619","locality":"Pegestorf","municipality":{"key":"03255032","name":"Pegestorf","type":"Kreisangehörige_Gemeinde"},"district":{"key":"03255","name":"Holzminden","type":"Landkreis"},"federalState":{"key":"03","name":"Niedersachsen"}},{"name":"Nienburger Bruch","postalCode":"31629","locality":"Estorf","municipality":{"key":"03256006","name":"Estorf","type":"Kreisangehörige_Gemeinde"},"district":{"key":"03256","name":"Nienburg (Weser)","type":"Landkreis"},"federalState":{"key":"03","name":"Niedersachsen"}},{"name":"Nienburger Str.","postalCode":"31629","locality":"Estorf","municipality":{"key":"03256006","name":"Estorf","type":"Kreisangehörige_Gemeinde"},"district":{"key":"03256","name":"Nienburg (Weser)","type":"Landkreis"},"federalState":{"key":"03","name":"Niedersachsen"}},{"name":"Ole Dörpstroot","postalCode":"21727","locality":"Estorf","municipality":{"key":"03359016","name":"Estorf","type":"Kreisangehörige_Gemeinde"},"district":{"key":"03359","name":"Stade","type":"Landkreis"},"federalState":{"key":"03","name":"Niedersachsen"}},{"name":"Orningstr.","postalCode":"31629","locality":"Estorf","municipality":{"key":"03256006","name":"Estorf","type":"Kreisangehörige_Gemeinde"},"district":{"key":"03256","name":"Nienburg (Weser)","type":"Landkreis"},"federalState":{"key":"03","name":"Niedersachsen"}},{"name":"Ostende","postalCode":"21272","locality":"Egestorf","municipality":{"key":"03353009","name":"Egestorf","type":"Kreisangehörige_Gemeinde"},"district":{"key":"03353","name":"Harburg","type":"Landkreis"},"federalState":{"key":"03","name":"Niedersachsen"}},{"name":"Ostenfelde","postalCode":"21727","locality":"Estorf","municipality":{"key":"03359016","name":"Estorf","type":"Kreisangehörige_Gemeinde"},"district":{"key":"03359","name":"Stade","type":"Landkreis"},"federalState":{"key":"03","name":"Niedersachsen"}},{"name":"Osterberg","postalCode":"21727","locality":"Estorf","municipality":{"key":"03359016","name":"Estorf","type":"Kreisangehörige_Gemeinde"},"district":{"key":"03359","name":"Stade","type":"Landkreis"},"federalState":{"key":"03","name":"Niedersachsen"}},{"name":"Ostestr.","postalCode":"21727","locality":"Estorf","municipality":{"key":"03359016","name":"Estorf","type":"Kreisangehörige_Gemeinde"},"district":{"key":"03359","name":"Stade","type":"Landkreis"},"federalState":{"key":"03","name":"Niedersachsen"}},{"name":"Ostfeld","postalCode":"31629","locality":"Estorf","municipality":{"key":"03256006","name":"Estorf","type":"Kreisangehörige_Gemeinde"},"district":{"key":"03256","name":"Nienburg (Weser)","type":"Landkreis"},"federalState":{"key":"03","name":"Niedersachsen"}},{"name":"Otto-Gebühr-Weg","postalCode":"21227","locality":"Bendestorf","municipality":{"key":"03353003","name":"Bendestorf","type":"Kreisangehörige_Gemeinde"},"district":{"key":"03353","name":"Harburg","type":"Landkreis"},"federalState":{"key":"03","name":"Niedersachsen"}},{"name":"Parkweg","postalCode":"23936","locality":"Testorf-Steinfort","municipality":{"key":"13074077","name":"Testorf-Steinfort","type":"Kreisangehörige_Gemeinde"},"district":{"key":"13074","name":"Nordwestmecklenburg","type":"Landkreis"},"federalState":{"key":"13","name":"Mecklenburg-Vorpommern"}},{"name":"Pastor-Bode-Weg","postalCode":"21272","locality":"Egestorf","municipality":{"key":"03353009","name":"Egestorf","type":"Kreisangehörige_Gemeinde"},"district":{"key":"03353","name":"Harburg","type":"Landkreis"},"federalState":{"key":"03","name":"Niedersachsen"}},{"name":"Poststr.","postalCode":"21227","locality":"Bendestorf","municipality":{"key":"03353003","name":"Bendestorf","type":"Kreisangehörige_Gemeinde"},"district":{"key":"03353","name":"Harburg","type":"Landkreis"},"federalState":{"key":"03","name":"Niedersachsen"}},{"name":"Posttwiete","postalCode":"21227","locality":"Bendestorf","municipality":{"key":"03353003","name":"Bendestorf","type":"Kreisangehörige_Gemeinde"},"district":{"key":"03353","name":"Harburg","type":"Landkreis"},"federalState":{"key":"03","name":"Niedersachsen"}},{"name":"Prahmweg","postalCode":"21727","locality":"Estorf","municipality":{"key":"03359016","name":"Estorf","type":"Kreisangehörige_Gemeinde"},"district":{"key":"03359","name":"Stade","type":"Landkreis"},"federalState":{"key":"03","name":"Niedersachsen"}},{"name":"Professor-Hermann-Maetzig Wanderweg","postalCode":"21272","locality":"Egestorf","municipality":{"key":"03353009","name":"Egestorf","type":"Kreisangehörige_Gemeinde"},"district":{"key":"03353","name":"Harburg","type":"Landkreis"},"federalState":{"key":"03","name":"Niedersachsen"}},{"name":"Professor-Hermann-Moelzig-Wanderweg","postalCode":"21272","locality":"Egestorf","municipality":{"key":"03353009","name":"Egestorf","type":"Kreisangehörige_Gemeinde"},"district":{"key":"03353","name":"Harburg","type":"Landkreis"},"federalState":{"key":"03","name":"Niedersachsen"}},{"name":"Quellenweg","postalCode":"21227","locality":"Bendestorf","municipality":{"key":"03353003","name":"Bendestorf","type":"Kreisangehörige_Gemeinde"},"district":{"key":"03353","name":"Harburg","type":"Landkreis"},"federalState":{"key":"03","name":"Niedersachsen"}},{"name":"Rahnstraat","postalCode":"21272","locality":"Egestorf","municipality":{"key":"03353009","name":"Egestorf","type":"Kreisangehörige_Gemeinde"},"district":{"key":"03353","name":"Harburg","type":"Landkreis"},"federalState":{"key":"03","name":"Niedersachsen"}},{"name":"Rasengittersteine","postalCode":"21272","locality":"Egestorf","municipality":{"key":"03353009","name":"Egestorf","type":"Kreisangehörige_Gemeinde"},"district":{"key":"03353","name":"Harburg","type":"Landkreis"},"federalState":{"key":"03","name":"Niedersachsen"}},{"name":"Rievenstr.","postalCode":"31629","locality":"Estorf","municipality":{"key":"03256006","name":"Estorf","type":"Kreisangehörige_Gemeinde"},"district":{"key":"03256","name":"Nienburg (Weser)","type":"Landkreis"},"federalState":{"key":"03","name":"Niedersachsen"}},{"name":"Roggenkamp","postalCode":"31629","locality":"Estorf","municipality":{"key":"03256006","name":"Estorf","type":"Kreisangehörige_Gemeinde"},"district":{"key":"03256","name":"Nienburg (Weser)","type":"Landkreis"},"federalState":{"key":"03","name":"Niedersachsen"}},{"name":"Rolf-Meyer-Weg","postalCode":"21227","locality":"Bendestorf","municipality":{"key":"03353003","name":"Bendestorf","type":"Kreisangehörige_Gemeinde"},"district":{"key":"03353","name":"Harburg","type":"Landkreis"},"federalState":{"key":"03","name":"Niedersachsen"}},{"name":"Rosental","postalCode":"21727","locality":"Estorf","municipality":{"key":"03359016","name":"Estorf","type":"Kreisangehörige_Gemeinde"},"district":{"key":"03359","name":"Stade","type":"Landkreis"},"federalState":{"key":"03","name":"Niedersachsen"}},{"name":"Rüschdamm","postalCode":"21227","locality":"Bendestorf","municipality":{"key":"03353003","name":"Bendestorf","type":"Kreisangehörige_Gemeinde"},"district":{"key":"03353","name":"Harburg","type":"Landkreis"},"federalState":{"key":"03","name":"Niedersachsen"}},{"name":"Sahrendorfer Aueweg","postalCode":"21272","locality":"Egestorf","municipality":{"key":"03353009","name":"Egestorf","type":"Kreisangehörige_Gemeinde"},"district":{"key":"03353","name":"Harburg","type":"Landkreis"},"federalState":{"key":"03","name":"Niedersachsen"}},{"name":"Sandgarten","postalCode":"21272","locality":"Egestorf","municipality":{"key":"03353009","name":"Egestorf","type":"Kreisangehörige_Gemeinde"},"district":{"key":"03353","name":"Harburg","type":"Landkreis"},"federalState":{"key":"03","name":"Niedersachsen"}},{"name":"Schätzendorfer Aueweg","postalCode":"21272","locality":"Egestorf","municipality":{"key":"03353009","name":"Egestorf","type":"Kreisangehörige_Gemeinde"},"district":{"key":"03353","name":"Harburg","type":"Landkreis"},"federalState":{"key":"03","name":"Niedersachsen"}},{"name":"Schätzendorfer Str.","postalCode":"21272","locality":"Egestorf","municipality":{"key":"03353009","name":"Egestorf","type":"Kreisangehörige_Gemeinde"},"district":{"key":"03353","name":"Harburg","type":"Landkreis"},"federalState":{"key":"03","name":"Niedersachsen"}},{"name":"Schenkenberger Weg","postalCode":"23847","locality":"Bliestorf","municipality":{"key":"01053011","name":"Bliestorf","type":"Kreisangehörige_Gemeinde"},"district":{"key":"01053","name":"Herzogtum Lauenburg","type":"Kreis"},"federalState":{"key":"01","name":"Schleswig-Holstein"}},{"name":"Scheunenviertel Estorf","postalCode":"31629","locality":"Estorf","municipality":{"key":"03256006","name":"Estorf","type":"Kreisangehörige_Gemeinde"},"district":{"key":"03256","name":"Nienburg (Weser)","type":"Landkreis"},"federalState":{"key":"03","name":"Niedersachsen"}},{"name":"Schiffsstelle","postalCode":"21727","locality":"Estorf","municipality":{"key":"03359016","name":"Estorf","type":"Kreisangehörige_Gemeinde"},"district":{"key":"03359","name":"Stade","type":"Landkreis"},"federalState":{"key":"03","name":"Niedersachsen"}},{"name":"Schloßstr.","postalCode":"23936","locality":"Testorf-Steinfort","municipality":{"key":"13074077","name":"Testorf-Steinfort","type":"Kreisangehörige_Gemeinde"},"district":{"key":"13074","name":"Nordwestmecklenburg","type":"Landkreis"},"federalState":{"key":"13","name":"Mecklenburg-Vorpommern"}},{"name":"Schmiedebrink","postalCode":"31629","locality":"Estorf","municipality":{"key":"03256006","name":"Estorf","type":"Kreisangehörige_Gemeinde"},"district":{"key":"03256","name":"Nienburg (Weser)","type":"Landkreis"},"federalState":{"key":"03","name":"Niedersachsen"}},{"name":"Schönau","postalCode":"21727","locality":"Estorf","municipality":{"key":"03359016","name":"Estorf","type":"Kreisangehörige_Gemeinde"},"district":{"key":"03359","name":"Stade","type":"Landkreis"},"federalState":{"key":"03","name":"Niedersachsen"}},{"name":"Schöne Aussicht","postalCode":"21227","locality":"Bendestorf","municipality":{"key":"03353003","name":"Bendestorf","type":"Kreisangehörige_Gemeinde"},"district":{"key":"03353","name":"Harburg","type":"Landkreis"},"federalState":{"key":"03","name":"Niedersachsen"}},{"name":"Schröden","postalCode":"21727","locality":"Estorf","municipality":{"key":"03359016","name":"Estorf","type":"Kreisangehörige_Gemeinde"},"district":{"key":"03359","name":"Stade","type":"Landkreis"},"federalState":{"key":"03","name":"Niedersachsen"}},{"name":"Schulheide","postalCode":"21227","locality":"Bendestorf","municipality":{"key":"03353003","name":"Bendestorf","type":"Kreisangehörige_Gemeinde"},"district":{"key":"03353","name":"Harburg","type":"Landkreis"},"federalState":{"key":"03","name":"Niedersachsen"}},{"name":"Schwalbenweg","postalCode":"23847","locality":"Bliestorf","municipality":{"key":"01053011","name":"Bliestorf","type":"Kreisangehörige_Gemeinde"},"district":{"key":"01053","name":"Herzogtum Lauenburg","type":"Kreis"},"federalState":{"key":"01","name":"Schleswig-Holstein"}},{"name":"Seemoor","postalCode":"21727","locality":"Estorf","municipality":{"key":"03359016","name":"Estorf","type":"Kreisangehörige_Gemeinde"},"district":{"key":"03359","name":"Stade","type":"Landkreis"},"federalState":{"key":"03","name":"Niedersachsen"}},{"name":"Soderstorfer Str.","postalCode":"21272","locality":"Egestorf","municipality":{"key":"03353009","name":"Egestorf","type":"Kreisangehörige_Gemeinde"},"district":{"key":"03353","name":"Harburg","type":"Landkreis"},"federalState":{"key":"03","name":"Niedersachsen"}},{"name":"Sonnenberg","postalCode":"21227","locality":"Bendestorf","municipality":{"key":"03353003","name":"Bendestorf","type":"Kreisangehörige_Gemeinde"},"district":{"key":"03353","name":"Harburg","type":"Landkreis"},"federalState":{"key":"03","name":"Niedersachsen"}},{"name":"Spechtweg","postalCode":"21272","locality":"Egestorf","municipality":{"key":"03353009","name":"Egestorf","type":"Kreisangehörige_Gemeinde"},"district":{"key":"03353","name":"Harburg","type":"Landkreis"},"federalState":{"key":"03","name":"Niedersachsen"}},{"name":"Sperlingslust","postalCode":"23936","locality":"Testorf-Steinfort","municipality":{"key":"13074077","name":"Testorf-Steinfort","type":"Kreisangehörige_Gemeinde"},"district":{"key":"13074","name":"Nordwestmecklenburg","type":"Landkreis"},"federalState":{"key":"13","name":"Mecklenburg-Vorpommern"}},{"name":"Splitt","postalCode":"21272","locality":"Egestorf","municipality":{"key":"03353009","name":"Egestorf","type":"Kreisangehörige_Gemeinde"},"district":{"key":"03353","name":"Harburg","type":"Landkreis"},"federalState":{"key":"03","name":"Niedersachsen"}},{"name":"Steinbergsgrund","postalCode":"21727","locality":"Estorf","municipality":{"key":"03359016","name":"Estorf","type":"Kreisangehörige_Gemeinde"},"district":{"key":"03359","name":"Stade","type":"Landkreis"},"federalState":{"key":"03","name":"Niedersachsen"}},{"name":"Steinforter Str.","postalCode":"23936","locality":"Testorf-Steinfort","municipality":{"key":"13074077","name":"Testorf-Steinfort","type":"Kreisangehörige_Gemeinde"},"district":{"key":"13074","name":"Nordwestmecklenburg","type":"Landkreis"},"federalState":{"key":"13","name":"Mecklenburg-Vorpommern"}},{"name":"Stemmbargsweg","postalCode":"21272","locality":"Egestorf","municipality":{"key":"03353009","name":"Egestorf","type":"Kreisangehörige_Gemeinde"},"district":{"key":"03353","name":"Harburg","type":"Landkreis"},"federalState":{"key":"03","name":"Niedersachsen"}},{"name":"Stolzenauer Str.","postalCode":"31604","locality":"Raddestorf","municipality":{"key":"03256024","name":"Raddestorf","type":"Kreisangehörige_Gemeinde"},"district":{"key":"03256","name":"Nienburg (Weser)","type":"Landkreis"},"federalState":{"key":"03","name":"Niedersachsen"}},{"name":"Sudermühlen","postalCode":"21272","locality":"Egestorf","municipality":{"key":"03353009","name":"Egestorf","type":"Kreisangehörige_Gemeinde"},"district":{"key":"03353","name":"Harburg","type":"Landkreis"},"federalState":{"key":"03","name":"Niedersachsen"}},{"name":"Sudermühler Weg","postalCode":"21272","locality":"Egestorf","municipality":{"key":"03353009","name":"Egestorf","type":"Kreisangehörige_Gemeinde"},"district":{"key":"03353","name":"Harburg","type":"Landkreis"},"federalState":{"key":"03","name":"Niedersachsen"}},{"name":"Suestr.","postalCode":"37619","locality":"Pegestorf","municipality":{"key":"03255032","name":"Pegestorf","type":"Kreisangehörige_Gemeinde"},"district":{"key":"03255","name":"Holzminden","type":"Landkreis"},"federalState":{"key":"03","name":"Niedersachsen"}},{"name":"Tannenweg","postalCode":"21227","locality":"Bendestorf","municipality":{"key":"03353003","name":"Bendestorf","type":"Kreisangehörige_Gemeinde"},"district":{"key":"03353","name":"Harburg","type":"Landkreis"},"federalState":{"key":"03","name":"Niedersachsen"}},{"name":"Thieheuers Weg","postalCode":"31629","locality":"Estorf","municipality":{"key":"03256006","name":"Estorf","type":"Kreisangehörige_Gemeinde"},"district":{"key":"03256","name":"Nienburg (Weser)","type":"Landkreis"},"federalState":{"key":"03","name":"Niedersachsen"}},{"name":"Torf","postalCode":"21272","locality":"Egestorf","municipality":{"key":"03353009","name":"Egestorf","type":"Kreisangehörige_Gemeinde"},"district":{"key":"03353","name":"Harburg","type":"Landkreis"},"federalState":{"key":"03","name":"Niedersachsen"}},{"name":"Totenweg","postalCode":"21272","locality":"Egestorf","municipality":{"key":"03353009","name":"Egestorf","type":"Kreisangehörige_Gemeinde"},"district":{"key":"03353","name":"Harburg","type":"Landkreis"},"federalState":{"key":"03","name":"Niedersachsen"}},{"name":"Uhlenbuschweg","postalCode":"21727","locality":"Estorf","municipality":{"key":"03359016","name":"Estorf","type":"Kreisangehörige_Gemeinde"},"district":{"key":"03359","name":"Stade","type":"Landkreis"},"federalState":{"key":"03","name":"Niedersachsen"}},{"name":"Up'n Eckernworth","postalCode":"21227","locality":"Bendestorf","municipality":{"key":"03353003","name":"Bendestorf","type":"Kreisangehörige_Gemeinde"},"district":{"key":"03353","name":"Harburg","type":"Landkreis"},"federalState":{"key":"03","name":"Niedersachsen"}},{"name":"Vor den Eichen","postalCode":"31629","locality":"Estorf","municipality":{"key":"03256006","name":"Estorf","type":"Kreisangehörige_Gemeinde"},"district":{"key":"03256","name":"Nienburg (Weser)","type":"Landkreis"},"federalState":{"key":"03","name":"Niedersachsen"}},{"name":"Vor der Bahn","postalCode":"31629","locality":"Estorf","municipality":{"key":"03256006","name":"Estorf","type":"Kreisangehörige_Gemeinde"},"district":{"key":"03256","name":"Nienburg (Weser)","type":"Landkreis"},"federalState":{"key":"03","name":"Niedersachsen"}},{"name":"Vorm Dorf","postalCode":"21727","locality":"Estorf","municipality":{"key":"03359016","name":"Estorf","type":"Kreisangehörige_Gemeinde"},"district":{"key":"03359","name":"Stade","type":"Landkreis"},"federalState":{"key":"03","name":"Niedersachsen"}},{"name":"Wacholderstieg","postalCode":"21227","locality":"Bendestorf","municipality":{"key":"03353003","name":"Bendestorf","type":"Kreisangehörige_Gemeinde"},"district":{"key":"03353","name":"Harburg","type":"Landkreis"},"federalState":{"key":"03","name":"Niedersachsen"}},{"name":"Waldfriedenweg","postalCode":"21227","locality":"Bendestorf","municipality":{"key":"03353003","name":"Bendestorf","type":"Kreisangehörige_Gemeinde"},"district":{"key":"03353","name":"Harburg","type":"Landkreis"},"federalState":{"key":"03","name":"Niedersachsen"}},{"name":"Waldring","postalCode":"21272","locality":"Egestorf","municipality":{"key":"03353009","name":"Egestorf","type":"Kreisangehörige_Gemeinde"},"district":{"key":"03353","name":"Harburg","type":"Landkreis"},"federalState":{"key":"03","name":"Niedersachsen"}},{"name":"Waldstr.","postalCode":"31629","locality":"Estorf","municipality":{"key":"03256006","name":"Estorf","type":"Kreisangehörige_Gemeinde"},"district":{"key":"03256","name":"Nienburg (Weser)","type":"Landkreis"},"federalState":{"key":"03","name":"Niedersachsen"}},{"name":"Waldweg","postalCode":"21227","locality":"Bendestorf","municipality":{"key":"03353003","name":"Bendestorf","type":"Kreisangehörige_Gemeinde"},"district":{"key":"03353","name":"Harburg","type":"Landkreis"},"federalState":{"key":"03","name":"Niedersachsen"}},{"name":"Waldweg","postalCode":"23936","locality":"Testorf-Steinfort","municipality":{"key":"13074077","name":"Testorf-Steinfort","type":"Kreisangehörige_Gemeinde"},"district":{"key":"13074","name":"Nordwestmecklenburg","type":"Landkreis"},"federalState":{"key":"13","name":"Mecklenburg-Vorpommern"}},{"name":"Waldwinkel","postalCode":"21272","locality":"Egestorf","municipality":{"key":"03353009","name":"Egestorf","type":"Kreisangehörige_Gemeinde"},"district":{"key":"03353","name":"Harburg","type":"Landkreis"},"federalState":{"key":"03","name":"Niedersachsen"}},{"name":"Wasserschräge","postalCode":"21272","locality":"Egestorf","municipality":{"key":"03353009","name":"Egestorf","type":"Kreisangehörige_Gemeinde"},"district":{"key":"03353","name":"Harburg","type":"Landkreis"},"federalState":{"key":"03","name":"Niedersachsen"}},{"name":"Weg","postalCode":"21727","locality":"Estorf","municipality":{"key":"03359016","name":"Estorf","type":"Kreisangehörige_Gemeinde"},"district":{"key":"03359","name":"Stade","type":"Landkreis"},"federalState":{"key":"03","name":"Niedersachsen"}},{"name":"Weidenweg","postalCode":"23936","locality":"Testorf-Steinfort","municipality":{"key":"13074077","name":"Testorf-Steinfort","type":"Kreisangehörige_Gemeinde"},"district":{"key":"13074","name":"Nordwestmecklenburg","type":"Landkreis"},"federalState":{"key":"13","name":"Mecklenburg-Vorpommern"}},{"name":"Weserstr.","postalCode":"31629","locality":"Estorf","municipality":{"key":"03256006","name":"Estorf","type":"Kreisangehörige_Gemeinde"},"district":{"key":"03256","name":"Nienburg (Weser)","type":"Landkreis"},"federalState":{"key":"03","name":"Niedersachsen"}},{"name":"Weserstr.","postalCode":"37619","locality":"Pegestorf","municipality":{"key":"03255032","name":"Pegestorf","type":"Kreisangehörige_Gemeinde"},"district":{"key":"03255","name":"Holzminden","type":"Landkreis"},"federalState":{"key":"03","name":"Niedersachsen"}},{"name":"Westenfeld","postalCode":"31604","locality":"Raddestorf","municipality":{"key":"03256024","name":"Raddestorf","type":"Kreisangehörige_Gemeinde"},"district":{"key":"03256","name":"Nienburg (Weser)","type":"Landkreis"},"federalState":{"key":"03","name":"Niedersachsen"}},{"name":"Wiesengrund","postalCode":"21727","locality":"Estorf","municipality":{"key":"03359016","name":"Estorf","type":"Kreisangehörige_Gemeinde"},"district":{"key":"03359","name":"Stade","type":"Landkreis"},"federalState":{"key":"03","name":"Niedersachsen"}},{"name":"Wietstruk","postalCode":"21727","locality":"Estorf","municipality":{"key":"03359016","name":"Estorf","type":"Kreisangehörige_Gemeinde"},"district":{"key":"03359","name":"Stade","type":"Landkreis"},"federalState":{"key":"03","name":"Niedersachsen"}},{"name":"Wismarsche Str.","postalCode":"23936","locality":"Testorf-Steinfort","municipality":{"key":"13074077","name":"Testorf-Steinfort","type":"Kreisangehörige_Gemeinde"},"district":{"key":"13074","name":"Nordwestmecklenburg","type":"Landkreis"},"federalState":{"key":"13","name":"Mecklenburg-Vorpommern"}},{"name":"Wittenberg","postalCode":"21727","locality":"Estorf","municipality":{"key":"03359016","name":"Estorf","type":"Kreisangehörige_Gemeinde"},"district":{"key":"03359","name":"Stade","type":"Landkreis"},"federalState":{"key":"03","name":"Niedersachsen"}},{"name":"Worthstr.","postalCode":"37619","locality":"Pegestorf","municipality":{"key":"03255032","name":"Pegestorf","type":"Kreisangehörige_Gemeinde"},"district":{"key":"03255","name":"Holzminden","type":"Landkreis"},"federalState":{"key":"03","name":"Niedersachsen"}},{"name":"Ystadweg","postalCode":"21682","locality":"Stade","municipality":{"key":"03359038","name":"Stade, Hansestadt","type":"Stadt"},"district":{"key":"03359","name":"Stade","type":"Landkreis"},"federalState":{"key":"03","name":"Niedersachsen"}},{"name":"Zu den Kohlgärten","postalCode":"31629","locality":"Estorf","municipality":{"key":"03256006","name":"Estorf","type":"Kreisangehörige_Gemeinde"},"district":{"key":"03256","name":"Nienburg (Weser)","type":"Landkreis"},"federalState":{"key":"03","name":"Niedersachsen"}},{"name":"Zum Dorfpark","postalCode":"21272","locality":"Egestorf","municipality":{"key":"03353009","name":"Egestorf","type":"Kreisangehörige_Gemeinde"},"district":{"key":"03353","name":"Harburg","type":"Landkreis"},"federalState":{"key":"03","name":"Niedersachsen"}},{"name":"Zum Finkenberg","postalCode":"31629","locality":"Estorf","municipality":{"key":"03256006","name":"Estorf","type":"Kreisangehörige_Gemeinde"},"district":{"key":"03256","name":"Nienburg (Weser)","type":"Landkreis"},"federalState":{"key":"03","name":"Niedersachsen"}},{"name":"Zum Hafen","postalCode":"21727","locality":"Estorf","municipality":{"key":"03359016","name":"Estorf","type":"Kreisangehörige_Gemeinde"},"district":{"key":"03359","name":"Stade","type":"Landkreis"},"federalState":{"key":"03","name":"Niedersachsen"}},{"name":"Zum Winterberg","postalCode":"21272","locality":"Egestorf","municipality":{"key":"03353009","name":"Egestorf","type":"Kreisangehörige_Gemeinde"},"district":{"key":"03353","name":"Harburg","type":"Landkreis"},"federalState":{"key":"03","name":"Niedersachsen"}},{"name":"Zur Werft","postalCode":"21727","locality":"Estorf","municipality":{"key":"03359016","name":"Estorf","type":"Kreisangehörige_Gemeinde"},"district":{"key":"03359","name":"Stade","type":"Landkreis"},"federalState":{"key":"03","name":"Niedersachsen"}},{"name":"Zwischen Zäunen","postalCode":"37619","locality":"Pegestorf","municipality":{"key":"03255032","name":"Pegestorf","type":"Kreisangehörige_Gemeinde"},"district":{"key":"03255","name":"Holzminden","type":"Landkreis"},"federalState":{"key":"03","name":"Niedersachsen"}},{"name":"Über den Burgwiesen","postalCode":"21682","locality":"Stade","municipality":{"key":"03359038","name":"Stade, Hansestadt","type":"Stadt"},"district":{"key":"03359","name":"Stade","type":"Landkreis"},"federalState":{"key":"03","name":"Niedersachsen"}},]