[{"name":"An der Weide","postalCode":"56479","locality":"Hüblingen","municipality":{"key":"07143245","name":"Hüblingen","type":"Kreisangehörige_Gemeinde"},"district":{"key":"07143","name":"Westerwaldkreis","type":"Landkreis"},"federalState":{"key":"07","name":"Rheinland-Pfalz"}},{"name":"Brunnenstr.","postalCode":"56479","locality":"Hüblingen","municipality":{"key":"07143245","name":"Hüblingen","type":"Kreisangehörige_Gemeinde"},"district":{"key":"07143","name":"Westerwaldkreis","type":"Landkreis"},"federalState":{"key":"07","name":"Rheinland-Pfalz"}},{"name":"Gartenstr.","postalCode":"56479","locality":"Hüblingen","municipality":{"key":"07143245","name":"Hüblingen","type":"Kreisangehörige_Gemeinde"},"district":{"key":"07143","name":"Westerwaldkreis","type":"Landkreis"},"federalState":{"key":"07","name":"Rheinland-Pfalz"}},{"name":"Hauptstr.","postalCode":"56479","locality":"Hüblingen","municipality":{"key":"07143245","name":"Hüblingen","type":"Kreisangehörige_Gemeinde"},"district":{"key":"07143","name":"Westerwaldkreis","type":"Landkreis"},"federalState":{"key":"07","name":"Rheinland-Pfalz"}},{"name":"Im Eck","postalCode":"56479","locality":"Hüblingen","municipality":{"key":"07143245","name":"Hüblingen","type":"Kreisangehörige_Gemeinde"},"district":{"key":"07143","name":"Westerwaldkreis","type":"Landkreis"},"federalState":{"key":"07","name":"Rheinland-Pfalz"}},{"name":"In der Hohl","postalCode":"56479","locality":"Hüblingen","municipality":{"key":"07143245","name":"Hüblingen","type":"Kreisangehörige_Gemeinde"},"district":{"key":"07143","name":"Westerwaldkreis","type":"Landkreis"},"federalState":{"key":"07","name":"Rheinland-Pfalz"}},{"name":"Kirchweg","postalCode":"56479","locality":"Hüblingen","municipality":{"key":"07143245","name":"Hüblingen","type":"Kreisangehörige_Gemeinde"},"district":{"key":"07143","name":"Westerwaldkreis","type":"Landkreis"},"federalState":{"key":"07","name":"Rheinland-Pfalz"}},{"name":"Merteswiese","postalCode":"56479","locality":"Hüblingen","municipality":{"key":"07143245","name":"Hüblingen","type":"Kreisangehörige_Gemeinde"},"district":{"key":"07143","name":"Westerwaldkreis","type":"Landkreis"},"federalState":{"key":"07","name":"Rheinland-Pfalz"}},{"name":"Mittelstr.","postalCode":"56479","locality":"Hüblingen","municipality":{"key":"07143245","name":"Hüblingen","type":"Kreisangehörige_Gemeinde"},"district":{"key":"07143","name":"Westerwaldkreis","type":"Landkreis"},"federalState":{"key":"07","name":"Rheinland-Pfalz"}},{"name":"Mühlenstr.","postalCode":"56479","locality":"Hüblingen","municipality":{"key":"07143245","name":"Hüblingen","type":"Kreisangehörige_Gemeinde"},"district":{"key":"07143","name":"Westerwaldkreis","type":"Landkreis"},"federalState":{"key":"07","name":"Rheinland-Pfalz"}},{"name":"Neue Str.","postalCode":"56479","locality":"Hüblingen","municipality":{"key":"07143245","name":"Hüblingen","type":"Kreisangehörige_Gemeinde"},"district":{"key":"07143","name":"Westerwaldkreis","type":"Landkreis"},"federalState":{"key":"07","name":"Rheinland-Pfalz"}},{"name":"Ringstr.","postalCode":"56479","locality":"Hüblingen","municipality":{"key":"07143245","name":"Hüblingen","type":"Kreisangehörige_Gemeinde"},"district":{"key":"07143","name":"Westerwaldkreis","type":"Landkreis"},"federalState":{"key":"07","name":"Rheinland-Pfalz"}},{"name":"Waldstr.","postalCode":"56479","locality":"Hüblingen","municipality":{"key":"07143245","name":"Hüblingen","type":"Kreisangehörige_Gemeinde"},"district":{"key":"07143","name":"Westerwaldkreis","type":"Landkreis"},"federalState":{"key":"07","name":"Rheinland-Pfalz"}},{"name":"Weststr.","postalCode":"56479","locality":"Hüblingen","municipality":{"key":"07143245","name":"Hüblingen","type":"Kreisangehörige_Gemeinde"},"district":{"key":"07143","name":"Westerwaldkreis","type":"Landkreis"},"federalState":{"key":"07","name":"Rheinland-Pfalz"}},{"name":"Wiesenstr.","postalCode":"56479","locality":"Hüblingen","municipality":{"key":"07143245","name":"Hüblingen","type":"Kreisangehörige_Gemeinde"},"district":{"key":"07143","name":"Westerwaldkreis","type":"Landkreis"},"federalState":{"key":"07","name":"Rheinland-Pfalz"}},{"name":"Zum Buchstein","postalCode":"56479","locality":"Hüblingen","municipality":{"key":"07143245","name":"Hüblingen","type":"Kreisangehörige_Gemeinde"},"district":{"key":"07143","name":"Westerwaldkreis","type":"Landkreis"},"federalState":{"key":"07","name":"Rheinland-Pfalz"}},]