[{"key":"10246389","name":"Acherhof","postalCode":"8855","locality":"Wangen SZ","commune":{"key":"1349","name":"Wangen (SZ)","shortName":"Wangen (SZ)"},"district":{"key":"505","name":"Bezirk March"},"canton":{"key":"5","code":"SZ","name":"Schwyz"},"status":"Real"},{"key":"10081566","name":"Allmeindstrasse","postalCode":"8855","locality":"Wangen SZ","commune":{"key":"1349","name":"Wangen (SZ)","shortName":"Wangen (SZ)"},"district":{"key":"505","name":"Bezirk March"},"canton":{"key":"5","code":"SZ","name":"Schwyz"},"status":"Real"},{"key":"10017736","name":"Alpenstrasse","postalCode":"8855","locality":"Wangen SZ","commune":{"key":"1349","name":"Wangen (SZ)","shortName":"Wangen (SZ)"},"district":{"key":"505","name":"Bezirk March"},"canton":{"key":"5","code":"SZ","name":"Schwyz"},"status":"Real"},{"key":"10190817","name":"Alte Mühle","postalCode":"8855","locality":"Wangen SZ","commune":{"key":"1349","name":"Wangen (SZ)","shortName":"Wangen (SZ)"},"district":{"key":"505","name":"Bezirk March"},"canton":{"key":"5","code":"SZ","name":"Schwyz"},"status":"Real"},{"key":"10102794","name":"Aubrigweg","postalCode":"8855","locality":"Wangen SZ","commune":{"key":"1349","name":"Wangen (SZ)","shortName":"Wangen (SZ)"},"district":{"key":"505","name":"Bezirk March"},"canton":{"key":"5","code":"SZ","name":"Schwyz"},"status":"Real"},{"key":"10235952","name":"Aulenstrasse","postalCode":"8855","locality":"Wangen SZ","commune":{"key":"1349","name":"Wangen (SZ)","shortName":"Wangen (SZ)"},"district":{"key":"505","name":"Bezirk March"},"canton":{"key":"5","code":"SZ","name":"Schwyz"},"status":"Real"},{"key":"10235953","name":"Bachtellenstrasse","postalCode":"8855","locality":"Wangen SZ","commune":{"key":"1349","name":"Wangen (SZ)","shortName":"Wangen (SZ)"},"district":{"key":"505","name":"Bezirk March"},"canton":{"key":"5","code":"SZ","name":"Schwyz"},"status":"Real"},{"key":"10065523","name":"Bachtelstrasse","postalCode":"8855","locality":"Wangen SZ","commune":{"key":"1349","name":"Wangen (SZ)","shortName":"Wangen (SZ)"},"district":{"key":"505","name":"Bezirk March"},"canton":{"key":"5","code":"SZ","name":"Schwyz"},"status":"Real"},{"key":"10081560","name":"Bahnhofstrasse","postalCode":"8855","locality":"Wangen SZ","commune":{"key":"1349","name":"Wangen (SZ)","shortName":"Wangen (SZ)"},"district":{"key":"505","name":"Bezirk March"},"canton":{"key":"5","code":"SZ","name":"Schwyz"},"status":"Real"},{"key":"10052413","name":"Bauernhofweg","postalCode":"8855","locality":"Wangen SZ","commune":{"key":"1349","name":"Wangen (SZ)","shortName":"Wangen (SZ)"},"district":{"key":"505","name":"Bezirk March"},"canton":{"key":"5","code":"SZ","name":"Schwyz"},"status":"Real"},{"key":"10065504","name":"Bolenberg","postalCode":"8855","locality":"Wangen SZ","commune":{"key":"1349","name":"Wangen (SZ)","shortName":"Wangen (SZ)"},"district":{"key":"505","name":"Bezirk March"},"canton":{"key":"5","code":"SZ","name":"Schwyz"},"status":"Real"},{"key":"10115776","name":"Bolenbergstrasse","postalCode":"8855","locality":"Wangen SZ","commune":{"key":"1349","name":"Wangen (SZ)","shortName":"Wangen (SZ)"},"district":{"key":"505","name":"Bezirk March"},"canton":{"key":"5","code":"SZ","name":"Schwyz"},"status":"Real"},{"key":"10081567","name":"Bruggholzstrasse","postalCode":"8855","locality":"Wangen SZ","commune":{"key":"1349","name":"Wangen (SZ)","shortName":"Wangen (SZ)"},"district":{"key":"505","name":"Bezirk March"},"canton":{"key":"5","code":"SZ","name":"Schwyz"},"status":"Real"},{"key":"10178272","name":"Brüggli","postalCode":"8855","locality":"Wangen SZ","commune":{"key":"1349","name":"Wangen (SZ)","shortName":"Wangen (SZ)"},"district":{"key":"505","name":"Bezirk March"},"canton":{"key":"5","code":"SZ","name":"Schwyz"},"status":"Real"},{"key":"10223184","name":"Bruhinweg","postalCode":"8855","locality":"Wangen SZ","commune":{"key":"1349","name":"Wangen (SZ)","shortName":"Wangen (SZ)"},"district":{"key":"505","name":"Bezirk March"},"canton":{"key":"5","code":"SZ","name":"Schwyz"},"status":"Real"},{"key":"10017738","name":"Brunnenhöfli","postalCode":"8855","locality":"Wangen SZ","commune":{"key":"1349","name":"Wangen (SZ)","shortName":"Wangen (SZ)"},"district":{"key":"505","name":"Bezirk March"},"canton":{"key":"5","code":"SZ","name":"Schwyz"},"status":"Real"},{"key":"10018002","name":"Buchbergstrasse","postalCode":"8855","locality":"Wangen SZ","commune":{"key":"1349","name":"Wangen (SZ)","shortName":"Wangen (SZ)"},"district":{"key":"505","name":"Bezirk March"},"canton":{"key":"5","code":"SZ","name":"Schwyz"},"status":"Real"},{"key":"10178555","name":"Buebentalstrasse","postalCode":"8855","locality":"Wangen SZ","commune":{"key":"1349","name":"Wangen (SZ)","shortName":"Wangen (SZ)"},"district":{"key":"505","name":"Bezirk March"},"canton":{"key":"5","code":"SZ","name":"Schwyz"},"status":"Real"},{"key":"10223188","name":"Buechbergstrasse","postalCode":"8855","locality":"Wangen SZ","commune":{"key":"1349","name":"Wangen (SZ)","shortName":"Wangen (SZ)"},"district":{"key":"505","name":"Bezirk March"},"canton":{"key":"5","code":"SZ","name":"Schwyz"},"status":"Real"},{"key":"10104838","name":"Büelgasse","postalCode":"8855","locality":"Wangen SZ","commune":{"key":"1349","name":"Wangen (SZ)","shortName":"Wangen (SZ)"},"district":{"key":"505","name":"Bezirk March"},"canton":{"key":"5","code":"SZ","name":"Schwyz"},"status":"Real"},{"key":"10017999","name":"Chromenstrasse","postalCode":"8855","locality":"Wangen SZ","commune":{"key":"1349","name":"Wangen (SZ)","shortName":"Wangen (SZ)"},"district":{"key":"505","name":"Bezirk March"},"canton":{"key":"5","code":"SZ","name":"Schwyz"},"status":"Real"},{"key":"10117975","name":"Deckerhof","postalCode":"8855","locality":"Wangen SZ","commune":{"key":"1349","name":"Wangen (SZ)","shortName":"Wangen (SZ)"},"district":{"key":"505","name":"Bezirk March"},"canton":{"key":"5","code":"SZ","name":"Schwyz"},"status":"Real"},{"key":"10052414","name":"Donnerweidstrasse","postalCode":"8855","locality":"Wangen SZ","commune":{"key":"1349","name":"Wangen (SZ)","shortName":"Wangen (SZ)"},"district":{"key":"505","name":"Bezirk March"},"canton":{"key":"5","code":"SZ","name":"Schwyz"},"status":"Real"},{"key":"10110528","name":"Dorfplatz","postalCode":"8855","locality":"Wangen SZ","commune":{"key":"1349","name":"Wangen (SZ)","shortName":"Wangen (SZ)"},"district":{"key":"505","name":"Bezirk March"},"canton":{"key":"5","code":"SZ","name":"Schwyz"},"status":"Real"},{"key":"10178273","name":"Etzelstrasse","postalCode":"8855","locality":"Wangen SZ","commune":{"key":"1349","name":"Wangen (SZ)","shortName":"Wangen (SZ)"},"district":{"key":"505","name":"Bezirk March"},"canton":{"key":"5","code":"SZ","name":"Schwyz"},"status":"Real"},{"key":"10016631","name":"Franzrüti","postalCode":"8855","locality":"Wangen SZ","commune":{"key":"1349","name":"Wangen (SZ)","shortName":"Wangen (SZ)"},"district":{"key":"505","name":"Bezirk March"},"canton":{"key":"5","code":"SZ","name":"Schwyz"},"status":"Real"},{"key":"10017739","name":"Galtbrunnen","postalCode":"8855","locality":"Wangen SZ","commune":{"key":"1349","name":"Wangen (SZ)","shortName":"Wangen (SZ)"},"district":{"key":"505","name":"Bezirk March"},"canton":{"key":"5","code":"SZ","name":"Schwyz"},"status":"Real"},{"key":"10017740","name":"Gartenstrasse","postalCode":"8855","locality":"Wangen SZ","commune":{"key":"1349","name":"Wangen (SZ)","shortName":"Wangen (SZ)"},"district":{"key":"505","name":"Bezirk March"},"canton":{"key":"5","code":"SZ","name":"Schwyz"},"status":"Real"},{"key":"10143406","name":"Genossenwiese","postalCode":"8855","locality":"Wangen SZ","commune":{"key":"1349","name":"Wangen (SZ)","shortName":"Wangen (SZ)"},"district":{"key":"505","name":"Bezirk March"},"canton":{"key":"5","code":"SZ","name":"Schwyz"},"status":"Real"},{"key":"10065524","name":"Grossfeldweg","postalCode":"8855","locality":"Wangen SZ","commune":{"key":"1349","name":"Wangen (SZ)","shortName":"Wangen (SZ)"},"district":{"key":"505","name":"Bezirk March"},"canton":{"key":"5","code":"SZ","name":"Schwyz"},"status":"Real"},{"key":"10223192","name":"Guntliweidstrasse","postalCode":"8855","locality":"Wangen SZ","commune":{"key":"1349","name":"Wangen (SZ)","shortName":"Wangen (SZ)"},"district":{"key":"505","name":"Bezirk March"},"canton":{"key":"5","code":"SZ","name":"Schwyz"},"status":"Real"},{"key":"10017741","name":"Haglen","postalCode":"8855","locality":"Wangen SZ","commune":{"key":"1349","name":"Wangen (SZ)","shortName":"Wangen (SZ)"},"district":{"key":"505","name":"Bezirk March"},"canton":{"key":"5","code":"SZ","name":"Schwyz"},"status":"Real"},{"key":"10148905","name":"Hämmerli","postalCode":"8855","locality":"Wangen SZ","commune":{"key":"1349","name":"Wangen (SZ)","shortName":"Wangen (SZ)"},"district":{"key":"505","name":"Bezirk March"},"canton":{"key":"5","code":"SZ","name":"Schwyz"},"status":"Real"},{"key":"10017742","name":"Hauhusengasse","postalCode":"8855","locality":"Wangen SZ","commune":{"key":"1349","name":"Wangen (SZ)","shortName":"Wangen (SZ)"},"district":{"key":"505","name":"Bezirk March"},"canton":{"key":"5","code":"SZ","name":"Schwyz"},"status":"Real"},{"key":"10016635","name":"Hengstackerstrasse","postalCode":"8855","locality":"Wangen SZ","commune":{"key":"1349","name":"Wangen (SZ)","shortName":"Wangen (SZ)"},"district":{"key":"505","name":"Bezirk March"},"canton":{"key":"5","code":"SZ","name":"Schwyz"},"status":"Real"},{"key":"10017743","name":"Höfliweg","postalCode":"8855","locality":"Wangen SZ","commune":{"key":"1349","name":"Wangen (SZ)","shortName":"Wangen (SZ)"},"district":{"key":"505","name":"Bezirk March"},"canton":{"key":"5","code":"SZ","name":"Schwyz"},"status":"Real"},{"key":"10131248","name":"Holeneich","postalCode":"8855","locality":"Wangen SZ","commune":{"key":"1349","name":"Wangen (SZ)","shortName":"Wangen (SZ)"},"district":{"key":"505","name":"Bezirk March"},"canton":{"key":"5","code":"SZ","name":"Schwyz"},"status":"Real"},{"key":"10223198","name":"Hüppinweg","postalCode":"8855","locality":"Wangen SZ","commune":{"key":"1349","name":"Wangen (SZ)","shortName":"Wangen (SZ)"},"district":{"key":"505","name":"Bezirk March"},"canton":{"key":"5","code":"SZ","name":"Schwyz"},"status":"Real"},{"key":"10017745","name":"Industriestrasse","postalCode":"8855","locality":"Wangen SZ","commune":{"key":"1349","name":"Wangen (SZ)","shortName":"Wangen (SZ)"},"district":{"key":"505","name":"Bezirk March"},"canton":{"key":"5","code":"SZ","name":"Schwyz"},"status":"Real"},{"key":"10117441","name":"Kählholz","postalCode":"8855","locality":"Wangen SZ","commune":{"key":"1349","name":"Wangen (SZ)","shortName":"Wangen (SZ)"},"district":{"key":"505","name":"Bezirk March"},"canton":{"key":"5","code":"SZ","name":"Schwyz"},"status":"Real"},{"key":"10198677","name":"Kellenhof","postalCode":"8855","locality":"Wangen SZ","commune":{"key":"1349","name":"Wangen (SZ)","shortName":"Wangen (SZ)"},"district":{"key":"505","name":"Bezirk March"},"canton":{"key":"5","code":"SZ","name":"Schwyz"},"status":"Real"},{"key":"10145981","name":"Kirchrainstrasse","postalCode":"8855","locality":"Wangen SZ","commune":{"key":"1349","name":"Wangen (SZ)","shortName":"Wangen (SZ)"},"district":{"key":"505","name":"Bezirk March"},"canton":{"key":"5","code":"SZ","name":"Schwyz"},"status":"Real"},{"key":"10105867","name":"Kirchrainweg","postalCode":"8855","locality":"Wangen SZ","commune":{"key":"1349","name":"Wangen (SZ)","shortName":"Wangen (SZ)"},"district":{"key":"505","name":"Bezirk March"},"canton":{"key":"5","code":"SZ","name":"Schwyz"},"status":"Real"},{"key":"10017746","name":"Kirchweg","postalCode":"8855","locality":"Wangen SZ","commune":{"key":"1349","name":"Wangen (SZ)","shortName":"Wangen (SZ)"},"district":{"key":"505","name":"Bezirk March"},"canton":{"key":"5","code":"SZ","name":"Schwyz"},"status":"Real"},{"key":"10131250","name":"Kleinwiesweg","postalCode":"8855","locality":"Wangen SZ","commune":{"key":"1349","name":"Wangen (SZ)","shortName":"Wangen (SZ)"},"district":{"key":"505","name":"Bezirk March"},"canton":{"key":"5","code":"SZ","name":"Schwyz"},"status":"Real"},{"key":"10017747","name":"Knobelstrasse","postalCode":"8855","locality":"Wangen SZ","commune":{"key":"1349","name":"Wangen (SZ)","shortName":"Wangen (SZ)"},"district":{"key":"505","name":"Bezirk March"},"canton":{"key":"5","code":"SZ","name":"Schwyz"},"status":"Real"},{"key":"10223202","name":"Kreuzsträsschen","postalCode":"8855","locality":"Wangen SZ","commune":{"key":"1349","name":"Wangen (SZ)","shortName":"Wangen (SZ)"},"district":{"key":"505","name":"Bezirk March"},"canton":{"key":"5","code":"SZ","name":"Schwyz"},"status":"Real"},{"key":"10106763","name":"Kromenstrasse","postalCode":"8855","locality":"Wangen SZ","commune":{"key":"1349","name":"Wangen (SZ)","shortName":"Wangen (SZ)"},"district":{"key":"505","name":"Bezirk March"},"canton":{"key":"5","code":"SZ","name":"Schwyz"},"status":"Real"},{"key":"10110529","name":"Leuholz","postalCode":"8855","locality":"Wangen SZ","commune":{"key":"1349","name":"Wangen (SZ)","shortName":"Wangen (SZ)"},"district":{"key":"505","name":"Bezirk March"},"canton":{"key":"5","code":"SZ","name":"Schwyz"},"status":"Real"},{"key":"10065528","name":"Lindenweg","postalCode":"8855","locality":"Wangen SZ","commune":{"key":"1349","name":"Wangen (SZ)","shortName":"Wangen (SZ)"},"district":{"key":"505","name":"Bezirk March"},"canton":{"key":"5","code":"SZ","name":"Schwyz"},"status":"Real"},{"key":"10017748","name":"Linthgasse","postalCode":"8855","locality":"Wangen SZ","commune":{"key":"1349","name":"Wangen (SZ)","shortName":"Wangen (SZ)"},"district":{"key":"505","name":"Bezirk March"},"canton":{"key":"5","code":"SZ","name":"Schwyz"},"status":"Real"},{"key":"10081568","name":"Lochgasse","postalCode":"8855","locality":"Wangen SZ","commune":{"key":"1349","name":"Wangen (SZ)","shortName":"Wangen (SZ)"},"district":{"key":"505","name":"Bezirk March"},"canton":{"key":"5","code":"SZ","name":"Schwyz"},"status":"Real"},{"key":"10017749","name":"Löwenfeld","postalCode":"8855","locality":"Wangen SZ","commune":{"key":"1349","name":"Wangen (SZ)","shortName":"Wangen (SZ)"},"district":{"key":"505","name":"Bezirk March"},"canton":{"key":"5","code":"SZ","name":"Schwyz"},"status":"Real"},{"key":"10141298","name":"Migelweg","postalCode":"8855","locality":"Wangen SZ","commune":{"key":"1349","name":"Wangen (SZ)","shortName":"Wangen (SZ)"},"district":{"key":"505","name":"Bezirk March"},"canton":{"key":"5","code":"SZ","name":"Schwyz"},"status":"Real"},{"key":"10065529","name":"Mövenstrasse","postalCode":"8855","locality":"Wangen SZ","commune":{"key":"1349","name":"Wangen (SZ)","shortName":"Wangen (SZ)"},"district":{"key":"505","name":"Bezirk March"},"canton":{"key":"5","code":"SZ","name":"Schwyz"},"status":"Real"},{"key":"10065530","name":"Mühlestrasse","postalCode":"8855","locality":"Wangen SZ","commune":{"key":"1349","name":"Wangen (SZ)","shortName":"Wangen (SZ)"},"district":{"key":"505","name":"Bezirk March"},"canton":{"key":"5","code":"SZ","name":"Schwyz"},"status":"Real"},{"key":"10017750","name":"Muttriweg","postalCode":"8855","locality":"Wangen SZ","commune":{"key":"1349","name":"Wangen (SZ)","shortName":"Wangen (SZ)"},"district":{"key":"505","name":"Bezirk March"},"canton":{"key":"5","code":"SZ","name":"Schwyz"},"status":"Real"},{"key":"10185569","name":"Nuolerstrasse","postalCode":"8855","locality":"Wangen SZ","commune":{"key":"1349","name":"Wangen (SZ)","shortName":"Wangen (SZ)"},"district":{"key":"505","name":"Bezirk March"},"canton":{"key":"5","code":"SZ","name":"Schwyz"},"status":"Real"},{"key":"10178275","name":"Oberhofweg","postalCode":"8855","locality":"Wangen SZ","commune":{"key":"1349","name":"Wangen (SZ)","shortName":"Wangen (SZ)"},"district":{"key":"505","name":"Bezirk March"},"canton":{"key":"5","code":"SZ","name":"Schwyz"},"status":"Real"},{"key":"10017751","name":"Ochsenbodenweg","postalCode":"8855","locality":"Wangen SZ","commune":{"key":"1349","name":"Wangen (SZ)","shortName":"Wangen (SZ)"},"district":{"key":"505","name":"Bezirk March"},"canton":{"key":"5","code":"SZ","name":"Schwyz"},"status":"Real"},{"key":"10065531","name":"Perronweg","postalCode":"8855","locality":"Wangen SZ","commune":{"key":"1349","name":"Wangen (SZ)","shortName":"Wangen (SZ)"},"district":{"key":"505","name":"Bezirk March"},"canton":{"key":"5","code":"SZ","name":"Schwyz"},"status":"Real"},{"key":"10081569","name":"Peterliwiese","postalCode":"8855","locality":"Wangen SZ","commune":{"key":"1349","name":"Wangen (SZ)","shortName":"Wangen (SZ)"},"district":{"key":"505","name":"Bezirk March"},"canton":{"key":"5","code":"SZ","name":"Schwyz"},"status":"Real"},{"key":"10017752","name":"Rigiweg","postalCode":"8855","locality":"Wangen SZ","commune":{"key":"1349","name":"Wangen (SZ)","shortName":"Wangen (SZ)"},"district":{"key":"505","name":"Bezirk March"},"canton":{"key":"5","code":"SZ","name":"Schwyz"},"status":"Real"},{"key":"10223207","name":"Ringstrasse","postalCode":"8855","locality":"Wangen SZ","commune":{"key":"1349","name":"Wangen (SZ)","shortName":"Wangen (SZ)"},"district":{"key":"505","name":"Bezirk March"},"canton":{"key":"5","code":"SZ","name":"Schwyz"},"status":"Real"},{"key":"10115782","name":"Rosenwiese","postalCode":"8855","locality":"Wangen SZ","commune":{"key":"1349","name":"Wangen (SZ)","shortName":"Wangen (SZ)"},"district":{"key":"505","name":"Bezirk March"},"canton":{"key":"5","code":"SZ","name":"Schwyz"},"status":"Real"},{"key":"10016638","name":"Rotbaumerweg","postalCode":"8855","locality":"Wangen SZ","commune":{"key":"1349","name":"Wangen (SZ)","shortName":"Wangen (SZ)"},"district":{"key":"505","name":"Bezirk March"},"canton":{"key":"5","code":"SZ","name":"Schwyz"},"status":"Real"},{"key":"10045956","name":"Rüteli","postalCode":"8855","locality":"Wangen SZ","commune":{"key":"1349","name":"Wangen (SZ)","shortName":"Wangen (SZ)"},"district":{"key":"505","name":"Bezirk March"},"canton":{"key":"5","code":"SZ","name":"Schwyz"},"status":"Real"},{"key":"10110530","name":"Rüteliweg","postalCode":"8855","locality":"Wangen SZ","commune":{"key":"1349","name":"Wangen (SZ)","shortName":"Wangen (SZ)"},"district":{"key":"505","name":"Bezirk March"},"canton":{"key":"5","code":"SZ","name":"Schwyz"},"status":"Real"},{"key":"10187491","name":"Rütihof","postalCode":"8855","locality":"Wangen SZ","commune":{"key":"1349","name":"Wangen (SZ)","shortName":"Wangen (SZ)"},"district":{"key":"505","name":"Bezirk March"},"canton":{"key":"5","code":"SZ","name":"Schwyz"},"status":"Real"},{"key":"10135007","name":"Schafmatt","postalCode":"8855","locality":"Wangen SZ","commune":{"key":"1349","name":"Wangen (SZ)","shortName":"Wangen (SZ)"},"district":{"key":"505","name":"Bezirk March"},"canton":{"key":"5","code":"SZ","name":"Schwyz"},"status":"Real"},{"key":"10223211","name":"Schnellmannweg","postalCode":"8855","locality":"Wangen SZ","commune":{"key":"1349","name":"Wangen (SZ)","shortName":"Wangen (SZ)"},"district":{"key":"505","name":"Bezirk March"},"canton":{"key":"5","code":"SZ","name":"Schwyz"},"status":"Real"},{"key":"10081570","name":"Schürwiesstrasse","postalCode":"8855","locality":"Wangen SZ","commune":{"key":"1349","name":"Wangen (SZ)","shortName":"Wangen (SZ)"},"district":{"key":"505","name":"Bezirk March"},"canton":{"key":"5","code":"SZ","name":"Schwyz"},"status":"Real"},{"key":"10192567","name":"Seeblickstrasse","postalCode":"8855","locality":"Wangen SZ","commune":{"key":"1349","name":"Wangen (SZ)","shortName":"Wangen (SZ)"},"district":{"key":"505","name":"Bezirk March"},"canton":{"key":"5","code":"SZ","name":"Schwyz"},"status":"Real"},{"key":"10017754","name":"Seestrasse","postalCode":"8855","locality":"Wangen SZ","commune":{"key":"1349","name":"Wangen (SZ)","shortName":"Wangen (SZ)"},"district":{"key":"505","name":"Bezirk March"},"canton":{"key":"5","code":"SZ","name":"Schwyz"},"status":"Real"},{"key":"10017755","name":"Sonnenriedstrasse","postalCode":"8855","locality":"Wangen SZ","commune":{"key":"1349","name":"Wangen (SZ)","shortName":"Wangen (SZ)"},"district":{"key":"505","name":"Bezirk March"},"canton":{"key":"5","code":"SZ","name":"Schwyz"},"status":"Real"},{"key":"10149071","name":"Sonnenweg","postalCode":"8855","locality":"Wangen SZ","commune":{"key":"1349","name":"Wangen (SZ)","shortName":"Wangen (SZ)"},"district":{"key":"505","name":"Bezirk March"},"canton":{"key":"5","code":"SZ","name":"Schwyz"},"status":"Real"},{"key":"10081571","name":"Sonnenwiese","postalCode":"8855","locality":"Wangen SZ","commune":{"key":"1349","name":"Wangen (SZ)","shortName":"Wangen (SZ)"},"district":{"key":"505","name":"Bezirk March"},"canton":{"key":"5","code":"SZ","name":"Schwyz"},"status":"Real"},{"key":"10142600","name":"Speerblick","postalCode":"8855","locality":"Wangen SZ","commune":{"key":"1349","name":"Wangen (SZ)","shortName":"Wangen (SZ)"},"district":{"key":"505","name":"Bezirk March"},"canton":{"key":"5","code":"SZ","name":"Schwyz"},"status":"Real"},{"key":"10017756","name":"Steineggerhof","postalCode":"8855","locality":"Wangen SZ","commune":{"key":"1349","name":"Wangen (SZ)","shortName":"Wangen (SZ)"},"district":{"key":"505","name":"Bezirk March"},"canton":{"key":"5","code":"SZ","name":"Schwyz"},"status":"Real"},{"key":"10115696","name":"St. Gallerstrasse","postalCode":"8855","locality":"Wangen SZ","commune":{"key":"1349","name":"Wangen (SZ)","shortName":"Wangen (SZ)"},"district":{"key":"505","name":"Bezirk March"},"canton":{"key":"5","code":"SZ","name":"Schwyz"},"status":"Real"},{"key":"10081572","name":"Stockbergweg","postalCode":"8855","locality":"Wangen SZ","commune":{"key":"1349","name":"Wangen (SZ)","shortName":"Wangen (SZ)"},"district":{"key":"505","name":"Bezirk March"},"canton":{"key":"5","code":"SZ","name":"Schwyz"},"status":"Real"},{"key":"10178276","name":"St. Wendelstrasse","postalCode":"8855","locality":"Wangen SZ","commune":{"key":"1349","name":"Wangen (SZ)","shortName":"Wangen (SZ)"},"district":{"key":"505","name":"Bezirk March"},"canton":{"key":"5","code":"SZ","name":"Schwyz"},"status":"Real"},{"key":"10145982","name":"Tschachenhofweg","postalCode":"8855","locality":"Wangen SZ","commune":{"key":"1349","name":"Wangen (SZ)","shortName":"Wangen (SZ)"},"district":{"key":"505","name":"Bezirk March"},"canton":{"key":"5","code":"SZ","name":"Schwyz"},"status":"Real"},{"key":"10105868","name":"Unterer Brunnen","postalCode":"8855","locality":"Wangen SZ","commune":{"key":"1349","name":"Wangen (SZ)","shortName":"Wangen (SZ)"},"district":{"key":"505","name":"Bezirk March"},"canton":{"key":"5","code":"SZ","name":"Schwyz"},"status":"Real"},{"key":"10017757","name":"Werkstrasse","postalCode":"8855","locality":"Wangen SZ","commune":{"key":"1349","name":"Wangen (SZ)","shortName":"Wangen (SZ)"},"district":{"key":"505","name":"Bezirk March"},"canton":{"key":"5","code":"SZ","name":"Schwyz"},"status":"Real"},{"key":"10017985","name":"Zopfstrasse","postalCode":"8855","locality":"Wangen SZ","commune":{"key":"1349","name":"Wangen (SZ)","shortName":"Wangen (SZ)"},"district":{"key":"505","name":"Bezirk March"},"canton":{"key":"5","code":"SZ","name":"Schwyz"},"status":"Real"},{"key":"10017758","name":"Zopfstrasse","postalCode":"8855","locality":"Wangen SZ","commune":{"key":"1349","name":"Wangen (SZ)","shortName":"Wangen (SZ)"},"district":{"key":"505","name":"Bezirk March"},"canton":{"key":"5","code":"SZ","name":"Schwyz"},"status":"Real"},{"key":"10055614","name":"Zürcherstrasse","postalCode":"8855","locality":"Wangen SZ","commune":{"key":"1349","name":"Wangen (SZ)","shortName":"Wangen (SZ)"},"district":{"key":"505","name":"Bezirk March"},"canton":{"key":"5","code":"SZ","name":"Schwyz"},"status":"Real"},]