[{"name":"300-Meter-Weg","postalCode":"61476","locality":"Kronberg im Taunus","municipality":{"key":"06434006","name":"Kronberg im Taunus, Stadt","type":"Stadt"},"district":{"key":"06434","name":"Hochtaunuskreis","type":"Landkreis"},"federalState":{"key":"06","name":"Hessen"}},{"name":"Adlerstr.","postalCode":"61476","locality":"Kronberg im Taunus","municipality":{"key":"06434006","name":"Kronberg im Taunus, Stadt","type":"Stadt"},"district":{"key":"06434","name":"Hochtaunuskreis","type":"Landkreis"},"federalState":{"key":"06","name":"Hessen"}},{"name":"Adolph-Kolping-Weg","postalCode":"61476","locality":"Kronberg im Taunus","municipality":{"key":"06434006","name":"Kronberg im Taunus, Stadt","type":"Stadt"},"district":{"key":"06434","name":"Hochtaunuskreis","type":"Landkreis"},"federalState":{"key":"06","name":"Hessen"}},{"name":"Ahornweg","postalCode":"61476","locality":"Kronberg im Taunus","municipality":{"key":"06434006","name":"Kronberg im Taunus, Stadt","type":"Stadt"},"district":{"key":"06434","name":"Hochtaunuskreis","type":"Landkreis"},"federalState":{"key":"06","name":"Hessen"}},{"name":"Akazienstr.","postalCode":"61476","locality":"Kronberg im Taunus","municipality":{"key":"06434006","name":"Kronberg im Taunus, Stadt","type":"Stadt"},"district":{"key":"06434","name":"Hochtaunuskreis","type":"Landkreis"},"federalState":{"key":"06","name":"Hessen"}},{"name":"Albanusstr.","postalCode":"61476","locality":"Kronberg im Taunus","municipality":{"key":"06434006","name":"Kronberg im Taunus, Stadt","type":"Stadt"},"district":{"key":"06434","name":"Hochtaunuskreis","type":"Landkreis"},"federalState":{"key":"06","name":"Hessen"}},{"name":"Albert-Schweitzer-Str.","postalCode":"61476","locality":"Kronberg im Taunus","municipality":{"key":"06434006","name":"Kronberg im Taunus, Stadt","type":"Stadt"},"district":{"key":"06434","name":"Hochtaunuskreis","type":"Landkreis"},"federalState":{"key":"06","name":"Hessen"}},{"name":"Alter Friedhof","postalCode":"61476","locality":"Kronberg im Taunus","municipality":{"key":"06434006","name":"Kronberg im Taunus, Stadt","type":"Stadt"},"district":{"key":"06434","name":"Hochtaunuskreis","type":"Landkreis"},"federalState":{"key":"06","name":"Hessen"}},{"name":"Altkönigstr.","postalCode":"61476","locality":"Kronberg im Taunus","municipality":{"key":"06434006","name":"Kronberg im Taunus, Stadt","type":"Stadt"},"district":{"key":"06434","name":"Hochtaunuskreis","type":"Landkreis"},"federalState":{"key":"06","name":"Hessen"}},{"name":"Am Auernberg","postalCode":"61476","locality":"Kronberg im Taunus","municipality":{"key":"06434006","name":"Kronberg im Taunus, Stadt","type":"Stadt"},"district":{"key":"06434","name":"Hochtaunuskreis","type":"Landkreis"},"federalState":{"key":"06","name":"Hessen"}},{"name":"Am Aufstieg","postalCode":"61476","locality":"Kronberg im Taunus","municipality":{"key":"06434006","name":"Kronberg im Taunus, Stadt","type":"Stadt"},"district":{"key":"06434","name":"Hochtaunuskreis","type":"Landkreis"},"federalState":{"key":"06","name":"Hessen"}},{"name":"Am Buchrain","postalCode":"61476","locality":"Kronberg im Taunus","municipality":{"key":"06434006","name":"Kronberg im Taunus, Stadt","type":"Stadt"},"district":{"key":"06434","name":"Hochtaunuskreis","type":"Landkreis"},"federalState":{"key":"06","name":"Hessen"}},{"name":"Am Eichbühel","postalCode":"61476","locality":"Kronberg im Taunus","municipality":{"key":"06434006","name":"Kronberg im Taunus, Stadt","type":"Stadt"},"district":{"key":"06434","name":"Hochtaunuskreis","type":"Landkreis"},"federalState":{"key":"06","name":"Hessen"}},{"name":"Am Forsthaus","postalCode":"61476","locality":"Kronberg im Taunus","municipality":{"key":"06434006","name":"Kronberg im Taunus, Stadt","type":"Stadt"},"district":{"key":"06434","name":"Hochtaunuskreis","type":"Landkreis"},"federalState":{"key":"06","name":"Hessen"}},{"name":"Am Gänsborn","postalCode":"61476","locality":"Kronberg im Taunus","municipality":{"key":"06434006","name":"Kronberg im Taunus, Stadt","type":"Stadt"},"district":{"key":"06434","name":"Hochtaunuskreis","type":"Landkreis"},"federalState":{"key":"06","name":"Hessen"}},{"name":"Am Guaitapark","postalCode":"61476","locality":"Kronberg im Taunus","municipality":{"key":"06434006","name":"Kronberg im Taunus, Stadt","type":"Stadt"},"district":{"key":"06434","name":"Hochtaunuskreis","type":"Landkreis"},"federalState":{"key":"06","name":"Hessen"}},{"name":"Am Hang","postalCode":"61476","locality":"Kronberg im Taunus","municipality":{"key":"06434006","name":"Kronberg im Taunus, Stadt","type":"Stadt"},"district":{"key":"06434","name":"Hochtaunuskreis","type":"Landkreis"},"federalState":{"key":"06","name":"Hessen"}},{"name":"Am Kirchberg","postalCode":"61476","locality":"Kronberg im Taunus","municipality":{"key":"06434006","name":"Kronberg im Taunus, Stadt","type":"Stadt"},"district":{"key":"06434","name":"Hochtaunuskreis","type":"Landkreis"},"federalState":{"key":"06","name":"Hessen"}},{"name":"Am Oberberg","postalCode":"61476","locality":"Kronberg im Taunus","municipality":{"key":"06434006","name":"Kronberg im Taunus, Stadt","type":"Stadt"},"district":{"key":"06434","name":"Hochtaunuskreis","type":"Landkreis"},"federalState":{"key":"06","name":"Hessen"}},{"name":"Am Opel-Zoo","postalCode":"61476","locality":"Kronberg im Taunus","municipality":{"key":"06434006","name":"Kronberg im Taunus, Stadt","type":"Stadt"},"district":{"key":"06434","name":"Hochtaunuskreis","type":"Landkreis"},"federalState":{"key":"06","name":"Hessen"}},{"name":"Am Roten Hang","postalCode":"61476","locality":"Kronberg im Taunus","municipality":{"key":"06434006","name":"Kronberg im Taunus, Stadt","type":"Stadt"},"district":{"key":"06434","name":"Hochtaunuskreis","type":"Landkreis"},"federalState":{"key":"06","name":"Hessen"}},{"name":"Am Rothlauf","postalCode":"61476","locality":"Kronberg im Taunus","municipality":{"key":"06434006","name":"Kronberg im Taunus, Stadt","type":"Stadt"},"district":{"key":"06434","name":"Hochtaunuskreis","type":"Landkreis"},"federalState":{"key":"06","name":"Hessen"}},{"name":"Am Schafhof","postalCode":"61476","locality":"Kronberg im Taunus","municipality":{"key":"06434006","name":"Kronberg im Taunus, Stadt","type":"Stadt"},"district":{"key":"06434","name":"Hochtaunuskreis","type":"Landkreis"},"federalState":{"key":"06","name":"Hessen"}},{"name":"Am Schanzenfeld","postalCode":"61476","locality":"Kronberg im Taunus","municipality":{"key":"06434006","name":"Kronberg im Taunus, Stadt","type":"Stadt"},"district":{"key":"06434","name":"Hochtaunuskreis","type":"Landkreis"},"federalState":{"key":"06","name":"Hessen"}},{"name":"Amselweg","postalCode":"61476","locality":"Kronberg im Taunus","municipality":{"key":"06434006","name":"Kronberg im Taunus, Stadt","type":"Stadt"},"district":{"key":"06434","name":"Hochtaunuskreis","type":"Landkreis"},"federalState":{"key":"06","name":"Hessen"}},{"name":"Am Sportfeld","postalCode":"61476","locality":"Kronberg im Taunus","municipality":{"key":"06434006","name":"Kronberg im Taunus, Stadt","type":"Stadt"},"district":{"key":"06434","name":"Hochtaunuskreis","type":"Landkreis"},"federalState":{"key":"06","name":"Hessen"}},{"name":"Am Unterberg","postalCode":"61476","locality":"Kronberg im Taunus","municipality":{"key":"06434006","name":"Kronberg im Taunus, Stadt","type":"Stadt"},"district":{"key":"06434","name":"Hochtaunuskreis","type":"Landkreis"},"federalState":{"key":"06","name":"Hessen"}},{"name":"Am Wallgraben","postalCode":"61476","locality":"Kronberg im Taunus","municipality":{"key":"06434006","name":"Kronberg im Taunus, Stadt","type":"Stadt"},"district":{"key":"06434","name":"Hochtaunuskreis","type":"Landkreis"},"federalState":{"key":"06","name":"Hessen"}},{"name":"Am Weidengarten","postalCode":"61476","locality":"Kronberg im Taunus","municipality":{"key":"06434006","name":"Kronberg im Taunus, Stadt","type":"Stadt"},"district":{"key":"06434","name":"Hochtaunuskreis","type":"Landkreis"},"federalState":{"key":"06","name":"Hessen"}},{"name":"Am Weißen Berg","postalCode":"61476","locality":"Kronberg im Taunus","municipality":{"key":"06434006","name":"Kronberg im Taunus, Stadt","type":"Stadt"},"district":{"key":"06434","name":"Hochtaunuskreis","type":"Landkreis"},"federalState":{"key":"06","name":"Hessen"}},{"name":"Am Winkelbach","postalCode":"61476","locality":"Kronberg im Taunus","municipality":{"key":"06434006","name":"Kronberg im Taunus, Stadt","type":"Stadt"},"district":{"key":"06434","name":"Hochtaunuskreis","type":"Landkreis"},"federalState":{"key":"06","name":"Hessen"}},{"name":"An den Hohwiesen","postalCode":"61476","locality":"Kronberg im Taunus","municipality":{"key":"06434006","name":"Kronberg im Taunus, Stadt","type":"Stadt"},"district":{"key":"06434","name":"Hochtaunuskreis","type":"Landkreis"},"federalState":{"key":"06","name":"Hessen"}},{"name":"An den Schillergärten","postalCode":"61476","locality":"Kronberg im Taunus","municipality":{"key":"06434006","name":"Kronberg im Taunus, Stadt","type":"Stadt"},"district":{"key":"06434","name":"Hochtaunuskreis","type":"Landkreis"},"federalState":{"key":"06","name":"Hessen"}},{"name":"An der Stadtmauer","postalCode":"61476","locality":"Kronberg im Taunus","municipality":{"key":"06434006","name":"Kronberg im Taunus, Stadt","type":"Stadt"},"district":{"key":"06434","name":"Hochtaunuskreis","type":"Landkreis"},"federalState":{"key":"06","name":"Hessen"}},{"name":"Arbeiterweg","postalCode":"61476","locality":"Kronberg im Taunus","municipality":{"key":"06434006","name":"Kronberg im Taunus, Stadt","type":"Stadt"},"district":{"key":"06434","name":"Hochtaunuskreis","type":"Landkreis"},"federalState":{"key":"06","name":"Hessen"}},{"name":"Auf dem Hügel","postalCode":"61476","locality":"Kronberg im Taunus","municipality":{"key":"06434006","name":"Kronberg im Taunus, Stadt","type":"Stadt"},"district":{"key":"06434","name":"Hochtaunuskreis","type":"Landkreis"},"federalState":{"key":"06","name":"Hessen"}},{"name":"Auf der Heide","postalCode":"61476","locality":"Kronberg im Taunus","municipality":{"key":"06434006","name":"Kronberg im Taunus, Stadt","type":"Stadt"},"district":{"key":"06434","name":"Hochtaunuskreis","type":"Landkreis"},"federalState":{"key":"06","name":"Hessen"}},{"name":"Bachstelzenweg","postalCode":"61476","locality":"Kronberg im Taunus","municipality":{"key":"06434006","name":"Kronberg im Taunus, Stadt","type":"Stadt"},"district":{"key":"06434","name":"Hochtaunuskreis","type":"Landkreis"},"federalState":{"key":"06","name":"Hessen"}},{"name":"Bachweg","postalCode":"61476","locality":"Kronberg im Taunus","municipality":{"key":"06434006","name":"Kronberg im Taunus, Stadt","type":"Stadt"},"district":{"key":"06434","name":"Hochtaunuskreis","type":"Landkreis"},"federalState":{"key":"06","name":"Hessen"}},{"name":"Bahnhofstr.","postalCode":"61476","locality":"Kronberg im Taunus","municipality":{"key":"06434006","name":"Kronberg im Taunus, Stadt","type":"Stadt"},"district":{"key":"06434","name":"Hochtaunuskreis","type":"Landkreis"},"federalState":{"key":"06","name":"Hessen"}},{"name":"Ballenstedter Str.","postalCode":"61476","locality":"Kronberg im Taunus","municipality":{"key":"06434006","name":"Kronberg im Taunus, Stadt","type":"Stadt"},"district":{"key":"06434","name":"Hochtaunuskreis","type":"Landkreis"},"federalState":{"key":"06","name":"Hessen"}},{"name":"Bartmannsweg","postalCode":"61476","locality":"Kronberg im Taunus","municipality":{"key":"06434006","name":"Kronberg im Taunus, Stadt","type":"Stadt"},"district":{"key":"06434","name":"Hochtaunuskreis","type":"Landkreis"},"federalState":{"key":"06","name":"Hessen"}},{"name":"Bergweg","postalCode":"61476","locality":"Kronberg im Taunus","municipality":{"key":"06434006","name":"Kronberg im Taunus, Stadt","type":"Stadt"},"district":{"key":"06434","name":"Hochtaunuskreis","type":"Landkreis"},"federalState":{"key":"06","name":"Hessen"}},{"name":"Bettina-von-Arnim-Str.","postalCode":"61476","locality":"Kronberg im Taunus","municipality":{"key":"06434006","name":"Kronberg im Taunus, Stadt","type":"Stadt"},"district":{"key":"06434","name":"Hochtaunuskreis","type":"Landkreis"},"federalState":{"key":"06","name":"Hessen"}},{"name":"Birkenweg","postalCode":"61476","locality":"Kronberg im Taunus","municipality":{"key":"06434006","name":"Kronberg im Taunus, Stadt","type":"Stadt"},"district":{"key":"06434","name":"Hochtaunuskreis","type":"Landkreis"},"federalState":{"key":"06","name":"Hessen"}},{"name":"Bleichstr.","postalCode":"61476","locality":"Kronberg im Taunus","municipality":{"key":"06434006","name":"Kronberg im Taunus, Stadt","type":"Stadt"},"district":{"key":"06434","name":"Hochtaunuskreis","type":"Landkreis"},"federalState":{"key":"06","name":"Hessen"}},{"name":"Blumenweg","postalCode":"61476","locality":"Kronberg im Taunus","municipality":{"key":"06434006","name":"Kronberg im Taunus, Stadt","type":"Stadt"},"district":{"key":"06434","name":"Hochtaunuskreis","type":"Landkreis"},"federalState":{"key":"06","name":"Hessen"}},{"name":"Borngasse","postalCode":"61476","locality":"Kronberg im Taunus","municipality":{"key":"06434006","name":"Kronberg im Taunus, Stadt","type":"Stadt"},"district":{"key":"06434","name":"Hochtaunuskreis","type":"Landkreis"},"federalState":{"key":"06","name":"Hessen"}},{"name":"Brunnenweg","postalCode":"61476","locality":"Kronberg im Taunus","municipality":{"key":"06434006","name":"Kronberg im Taunus, Stadt","type":"Stadt"},"district":{"key":"06434","name":"Hochtaunuskreis","type":"Landkreis"},"federalState":{"key":"06","name":"Hessen"}},{"name":"Buchenweg","postalCode":"61476","locality":"Kronberg im Taunus","municipality":{"key":"06434006","name":"Kronberg im Taunus, Stadt","type":"Stadt"},"district":{"key":"06434","name":"Hochtaunuskreis","type":"Landkreis"},"federalState":{"key":"06","name":"Hessen"}},{"name":"Buchholzweg","postalCode":"61476","locality":"Kronberg im Taunus","municipality":{"key":"06434006","name":"Kronberg im Taunus, Stadt","type":"Stadt"},"district":{"key":"06434","name":"Hochtaunuskreis","type":"Landkreis"},"federalState":{"key":"06","name":"Hessen"}},{"name":"Bürgelplatten-Weg","postalCode":"61476","locality":"Kronberg im Taunus","municipality":{"key":"06434006","name":"Kronberg im Taunus, Stadt","type":"Stadt"},"district":{"key":"06434","name":"Hochtaunuskreis","type":"Landkreis"},"federalState":{"key":"06","name":"Hessen"}},{"name":"Burgerstr.","postalCode":"61476","locality":"Kronberg im Taunus","municipality":{"key":"06434006","name":"Kronberg im Taunus, Stadt","type":"Stadt"},"district":{"key":"06434","name":"Hochtaunuskreis","type":"Landkreis"},"federalState":{"key":"06","name":"Hessen"}},{"name":"Burgweg","postalCode":"61476","locality":"Kronberg im Taunus","municipality":{"key":"06434006","name":"Kronberg im Taunus, Stadt","type":"Stadt"},"district":{"key":"06434","name":"Hochtaunuskreis","type":"Landkreis"},"federalState":{"key":"06","name":"Hessen"}},{"name":"Burnitzstr.","postalCode":"61476","locality":"Kronberg im Taunus","municipality":{"key":"06434006","name":"Kronberg im Taunus, Stadt","type":"Stadt"},"district":{"key":"06434","name":"Hochtaunuskreis","type":"Landkreis"},"federalState":{"key":"06","name":"Hessen"}},{"name":"Dalles","postalCode":"61476","locality":"Kronberg im Taunus","municipality":{"key":"06434006","name":"Kronberg im Taunus, Stadt","type":"Stadt"},"district":{"key":"06434","name":"Hochtaunuskreis","type":"Landkreis"},"federalState":{"key":"06","name":"Hessen"}},{"name":"Danziger Weg","postalCode":"61476","locality":"Kronberg im Taunus","municipality":{"key":"06434006","name":"Kronberg im Taunus, Stadt","type":"Stadt"},"district":{"key":"06434","name":"Hochtaunuskreis","type":"Landkreis"},"federalState":{"key":"06","name":"Hessen"}},{"name":"De-Ridder-Str.","postalCode":"61476","locality":"Kronberg im Taunus","municipality":{"key":"06434006","name":"Kronberg im Taunus, Stadt","type":"Stadt"},"district":{"key":"06434","name":"Hochtaunuskreis","type":"Landkreis"},"federalState":{"key":"06","name":"Hessen"}},{"name":"Dettweiler Str.","postalCode":"61476","locality":"Kronberg im Taunus","municipality":{"key":"06434006","name":"Kronberg im Taunus, Stadt","type":"Stadt"},"district":{"key":"06434","name":"Hochtaunuskreis","type":"Landkreis"},"federalState":{"key":"06","name":"Hessen"}},{"name":"Diebsgrund","postalCode":"61476","locality":"Kronberg im Taunus","municipality":{"key":"06434006","name":"Kronberg im Taunus, Stadt","type":"Stadt"},"district":{"key":"06434","name":"Hochtaunuskreis","type":"Landkreis"},"federalState":{"key":"06","name":"Hessen"}},{"name":"Diebsweg","postalCode":"61476","locality":"Kronberg im Taunus","municipality":{"key":"06434006","name":"Kronberg im Taunus, Stadt","type":"Stadt"},"district":{"key":"06434","name":"Hochtaunuskreis","type":"Landkreis"},"federalState":{"key":"06","name":"Hessen"}},{"name":"Dielmannstr.","postalCode":"61476","locality":"Kronberg im Taunus","municipality":{"key":"06434006","name":"Kronberg im Taunus, Stadt","type":"Stadt"},"district":{"key":"06434","name":"Hochtaunuskreis","type":"Landkreis"},"federalState":{"key":"06","name":"Hessen"}},{"name":"Dieselstr.","postalCode":"61476","locality":"Kronberg im Taunus","municipality":{"key":"06434006","name":"Kronberg im Taunus, Stadt","type":"Stadt"},"district":{"key":"06434","name":"Hochtaunuskreis","type":"Landkreis"},"federalState":{"key":"06","name":"Hessen"}},{"name":"Döngesweg","postalCode":"61476","locality":"Kronberg im Taunus","municipality":{"key":"06434006","name":"Kronberg im Taunus, Stadt","type":"Stadt"},"district":{"key":"06434","name":"Hochtaunuskreis","type":"Landkreis"},"federalState":{"key":"06","name":"Hessen"}},{"name":"Doppesstr.","postalCode":"61476","locality":"Kronberg im Taunus","municipality":{"key":"06434006","name":"Kronberg im Taunus, Stadt","type":"Stadt"},"district":{"key":"06434","name":"Hochtaunuskreis","type":"Landkreis"},"federalState":{"key":"06","name":"Hessen"}},{"name":"Dreihausweg","postalCode":"61476","locality":"Kronberg im Taunus","municipality":{"key":"06434006","name":"Kronberg im Taunus, Stadt","type":"Stadt"},"district":{"key":"06434","name":"Hochtaunuskreis","type":"Landkreis"},"federalState":{"key":"06","name":"Hessen"}},{"name":"Egerländer Weg","postalCode":"61476","locality":"Kronberg im Taunus","municipality":{"key":"06434006","name":"Kronberg im Taunus, Stadt","type":"Stadt"},"district":{"key":"06434","name":"Hochtaunuskreis","type":"Landkreis"},"federalState":{"key":"06","name":"Hessen"}},{"name":"Eibenhain","postalCode":"61476","locality":"Kronberg im Taunus","municipality":{"key":"06434006","name":"Kronberg im Taunus, Stadt","type":"Stadt"},"district":{"key":"06434","name":"Hochtaunuskreis","type":"Landkreis"},"federalState":{"key":"06","name":"Hessen"}},{"name":"Eichenheide","postalCode":"61476","locality":"Kronberg im Taunus","municipality":{"key":"06434006","name":"Kronberg im Taunus, Stadt","type":"Stadt"},"district":{"key":"06434","name":"Hochtaunuskreis","type":"Landkreis"},"federalState":{"key":"06","name":"Hessen"}},{"name":"Eichenstr.","postalCode":"61476","locality":"Kronberg im Taunus","municipality":{"key":"06434006","name":"Kronberg im Taunus, Stadt","type":"Stadt"},"district":{"key":"06434","name":"Hochtaunuskreis","type":"Landkreis"},"federalState":{"key":"06","name":"Hessen"}},{"name":"Erlenweg","postalCode":"61476","locality":"Kronberg im Taunus","municipality":{"key":"06434006","name":"Kronberg im Taunus, Stadt","type":"Stadt"},"district":{"key":"06434","name":"Hochtaunuskreis","type":"Landkreis"},"federalState":{"key":"06","name":"Hessen"}},{"name":"Ernst-Moritz-Arndt-Str.","postalCode":"61476","locality":"Kronberg im Taunus","municipality":{"key":"06434006","name":"Kronberg im Taunus, Stadt","type":"Stadt"},"district":{"key":"06434","name":"Hochtaunuskreis","type":"Landkreis"},"federalState":{"key":"06","name":"Hessen"}},{"name":"Eselspfad","postalCode":"61476","locality":"Kronberg im Taunus","municipality":{"key":"06434006","name":"Kronberg im Taunus, Stadt","type":"Stadt"},"district":{"key":"06434","name":"Hochtaunuskreis","type":"Landkreis"},"federalState":{"key":"06","name":"Hessen"}},{"name":"Falkensteiner Str.","postalCode":"61476","locality":"Kronberg im Taunus","municipality":{"key":"06434006","name":"Kronberg im Taunus, Stadt","type":"Stadt"},"district":{"key":"06434","name":"Hochtaunuskreis","type":"Landkreis"},"federalState":{"key":"06","name":"Hessen"}},{"name":"Feldbergstr.","postalCode":"61476","locality":"Kronberg im Taunus","municipality":{"key":"06434006","name":"Kronberg im Taunus, Stadt","type":"Stadt"},"district":{"key":"06434","name":"Hochtaunuskreis","type":"Landkreis"},"federalState":{"key":"06","name":"Hessen"}},{"name":"Ferdinand-Brütt-Weg","postalCode":"61476","locality":"Kronberg im Taunus","municipality":{"key":"06434006","name":"Kronberg im Taunus, Stadt","type":"Stadt"},"district":{"key":"06434","name":"Hochtaunuskreis","type":"Landkreis"},"federalState":{"key":"06","name":"Hessen"}},{"name":"Fichtenstr.","postalCode":"61476","locality":"Kronberg im Taunus","municipality":{"key":"06434006","name":"Kronberg im Taunus, Stadt","type":"Stadt"},"district":{"key":"06434","name":"Hochtaunuskreis","type":"Landkreis"},"federalState":{"key":"06","name":"Hessen"}},{"name":"Finkenweg","postalCode":"61476","locality":"Kronberg im Taunus","municipality":{"key":"06434006","name":"Kronberg im Taunus, Stadt","type":"Stadt"},"district":{"key":"06434","name":"Hochtaunuskreis","type":"Landkreis"},"federalState":{"key":"06","name":"Hessen"}},{"name":"Förster-Hans-Streun-Weg","postalCode":"61476","locality":"Kronberg im Taunus","municipality":{"key":"06434006","name":"Kronberg im Taunus, Stadt","type":"Stadt"},"district":{"key":"06434","name":"Hochtaunuskreis","type":"Landkreis"},"federalState":{"key":"06","name":"Hessen"}},{"name":"Forstlehrpfad","postalCode":"61476","locality":"Kronberg im Taunus","municipality":{"key":"06434006","name":"Kronberg im Taunus, Stadt","type":"Stadt"},"district":{"key":"06434","name":"Hochtaunuskreis","type":"Landkreis"},"federalState":{"key":"06","name":"Hessen"}},{"name":"Frankfurter Str.","postalCode":"61476","locality":"Kronberg im Taunus","municipality":{"key":"06434006","name":"Kronberg im Taunus, Stadt","type":"Stadt"},"district":{"key":"06434","name":"Hochtaunuskreis","type":"Landkreis"},"federalState":{"key":"06","name":"Hessen"}},{"name":"Freiherr-vom-Stein-Str.","postalCode":"61476","locality":"Kronberg im Taunus","municipality":{"key":"06434006","name":"Kronberg im Taunus, Stadt","type":"Stadt"},"district":{"key":"06434","name":"Hochtaunuskreis","type":"Landkreis"},"federalState":{"key":"06","name":"Hessen"}},{"name":"Freseniusweg","postalCode":"61476","locality":"Kronberg im Taunus","municipality":{"key":"06434006","name":"Kronberg im Taunus, Stadt","type":"Stadt"},"district":{"key":"06434","name":"Hochtaunuskreis","type":"Landkreis"},"federalState":{"key":"06","name":"Hessen"}},{"name":"Friedensstr.","postalCode":"61476","locality":"Kronberg im Taunus","municipality":{"key":"06434006","name":"Kronberg im Taunus, Stadt","type":"Stadt"},"district":{"key":"06434","name":"Hochtaunuskreis","type":"Landkreis"},"federalState":{"key":"06","name":"Hessen"}},{"name":"Friedrich-Ebert-Str.","postalCode":"61476","locality":"Kronberg im Taunus","municipality":{"key":"06434006","name":"Kronberg im Taunus, Stadt","type":"Stadt"},"district":{"key":"06434","name":"Hochtaunuskreis","type":"Landkreis"},"federalState":{"key":"06","name":"Hessen"}},{"name":"Friedrichstr.","postalCode":"61476","locality":"Kronberg im Taunus","municipality":{"key":"06434006","name":"Kronberg im Taunus, Stadt","type":"Stadt"},"district":{"key":"06434","name":"Hochtaunuskreis","type":"Landkreis"},"federalState":{"key":"06","name":"Hessen"}},{"name":"Fritz-Wucherer-Str.","postalCode":"61476","locality":"Kronberg im Taunus","municipality":{"key":"06434006","name":"Kronberg im Taunus, Stadt","type":"Stadt"},"district":{"key":"06434","name":"Hochtaunuskreis","type":"Landkreis"},"federalState":{"key":"06","name":"Hessen"}},{"name":"Fuchstanzweg","postalCode":"61476","locality":"Kronberg im Taunus","municipality":{"key":"06434006","name":"Kronberg im Taunus, Stadt","type":"Stadt"},"district":{"key":"06434","name":"Hochtaunuskreis","type":"Landkreis"},"federalState":{"key":"06","name":"Hessen"}},{"name":"Gablonzer Weg","postalCode":"61476","locality":"Kronberg im Taunus","municipality":{"key":"06434006","name":"Kronberg im Taunus, Stadt","type":"Stadt"},"district":{"key":"06434","name":"Hochtaunuskreis","type":"Landkreis"},"federalState":{"key":"06","name":"Hessen"}},{"name":"Gartenstr.","postalCode":"61476","locality":"Kronberg im Taunus","municipality":{"key":"06434006","name":"Kronberg im Taunus, Stadt","type":"Stadt"},"district":{"key":"06434","name":"Hochtaunuskreis","type":"Landkreis"},"federalState":{"key":"06","name":"Hessen"}},{"name":"Gebrannter Bergschlag-Weg","postalCode":"61476","locality":"Kronberg im Taunus","municipality":{"key":"06434006","name":"Kronberg im Taunus, Stadt","type":"Stadt"},"district":{"key":"06434","name":"Hochtaunuskreis","type":"Landkreis"},"federalState":{"key":"06","name":"Hessen"}},{"name":"Geiersbergweg","postalCode":"61476","locality":"Kronberg im Taunus","municipality":{"key":"06434006","name":"Kronberg im Taunus, Stadt","type":"Stadt"},"district":{"key":"06434","name":"Hochtaunuskreis","type":"Landkreis"},"federalState":{"key":"06","name":"Hessen"}},{"name":"Gelber Weg","postalCode":"61476","locality":"Kronberg im Taunus","municipality":{"key":"06434006","name":"Kronberg im Taunus, Stadt","type":"Stadt"},"district":{"key":"06434","name":"Hochtaunuskreis","type":"Landkreis"},"federalState":{"key":"06","name":"Hessen"}},{"name":"Georg-Büchner-Str.","postalCode":"61476","locality":"Kronberg im Taunus","municipality":{"key":"06434006","name":"Kronberg im Taunus, Stadt","type":"Stadt"},"district":{"key":"06434","name":"Hochtaunuskreis","type":"Landkreis"},"federalState":{"key":"06","name":"Hessen"}},{"name":"Geschwister-Scholl-Str.","postalCode":"61476","locality":"Kronberg im Taunus","municipality":{"key":"06434006","name":"Kronberg im Taunus, Stadt","type":"Stadt"},"district":{"key":"06434","name":"Hochtaunuskreis","type":"Landkreis"},"federalState":{"key":"06","name":"Hessen"}},{"name":"Goethestr.","postalCode":"61476","locality":"Kronberg im Taunus","municipality":{"key":"06434006","name":"Kronberg im Taunus, Stadt","type":"Stadt"},"district":{"key":"06434","name":"Hochtaunuskreis","type":"Landkreis"},"federalState":{"key":"06","name":"Hessen"}},{"name":"Goldammerplatz","postalCode":"61476","locality":"Kronberg im Taunus","municipality":{"key":"06434006","name":"Kronberg im Taunus, Stadt","type":"Stadt"},"district":{"key":"06434","name":"Hochtaunuskreis","type":"Landkreis"},"federalState":{"key":"06","name":"Hessen"}},{"name":"Grabenstr.","postalCode":"61476","locality":"Kronberg im Taunus","municipality":{"key":"06434006","name":"Kronberg im Taunus, Stadt","type":"Stadt"},"district":{"key":"06434","name":"Hochtaunuskreis","type":"Landkreis"},"federalState":{"key":"06","name":"Hessen"}},{"name":"Grundweg","postalCode":"61476","locality":"Kronberg im Taunus","municipality":{"key":"06434006","name":"Kronberg im Taunus, Stadt","type":"Stadt"},"district":{"key":"06434","name":"Hochtaunuskreis","type":"Landkreis"},"federalState":{"key":"06","name":"Hessen"}},{"name":"Grüner Weg","postalCode":"61476","locality":"Kronberg im Taunus","municipality":{"key":"06434006","name":"Kronberg im Taunus, Stadt","type":"Stadt"},"district":{"key":"06434","name":"Hochtaunuskreis","type":"Landkreis"},"federalState":{"key":"06","name":"Hessen"}},{"name":"Guaitastr.","postalCode":"61476","locality":"Kronberg im Taunus","municipality":{"key":"06434006","name":"Kronberg im Taunus, Stadt","type":"Stadt"},"district":{"key":"06434","name":"Hochtaunuskreis","type":"Landkreis"},"federalState":{"key":"06","name":"Hessen"}},{"name":"Hainstr.","postalCode":"61476","locality":"Kronberg im Taunus","municipality":{"key":"06434006","name":"Kronberg im Taunus, Stadt","type":"Stadt"},"district":{"key":"06434","name":"Hochtaunuskreis","type":"Landkreis"},"federalState":{"key":"06","name":"Hessen"}},{"name":"Hammerweg","postalCode":"61476","locality":"Kronberg im Taunus","municipality":{"key":"06434006","name":"Kronberg im Taunus, Stadt","type":"Stadt"},"district":{"key":"06434","name":"Hochtaunuskreis","type":"Landkreis"},"federalState":{"key":"06","name":"Hessen"}},{"name":"Hans-Thoma-Str.","postalCode":"61476","locality":"Kronberg im Taunus","municipality":{"key":"06434006","name":"Kronberg im Taunus, Stadt","type":"Stadt"},"district":{"key":"06434","name":"Hochtaunuskreis","type":"Landkreis"},"federalState":{"key":"06","name":"Hessen"}},{"name":"Hardtbergweg","postalCode":"61476","locality":"Kronberg im Taunus","municipality":{"key":"06434006","name":"Kronberg im Taunus, Stadt","type":"Stadt"},"district":{"key":"06434","name":"Hochtaunuskreis","type":"Landkreis"},"federalState":{"key":"06","name":"Hessen"}},{"name":"Hartmuthstr.","postalCode":"61476","locality":"Kronberg im Taunus","municipality":{"key":"06434006","name":"Kronberg im Taunus, Stadt","type":"Stadt"},"district":{"key":"06434","name":"Hochtaunuskreis","type":"Landkreis"},"federalState":{"key":"06","name":"Hessen"}},{"name":"Hauburgsteinweg","postalCode":"61476","locality":"Kronberg im Taunus","municipality":{"key":"06434006","name":"Kronberg im Taunus, Stadt","type":"Stadt"},"district":{"key":"06434","name":"Hochtaunuskreis","type":"Landkreis"},"federalState":{"key":"06","name":"Hessen"}},{"name":"Heidelerchenweg","postalCode":"61476","locality":"Kronberg im Taunus","municipality":{"key":"06434006","name":"Kronberg im Taunus, Stadt","type":"Stadt"},"district":{"key":"06434","name":"Hochtaunuskreis","type":"Landkreis"},"federalState":{"key":"06","name":"Hessen"}},{"name":"Heinrich-Winter-Str.","postalCode":"61476","locality":"Kronberg im Taunus","municipality":{"key":"06434006","name":"Kronberg im Taunus, Stadt","type":"Stadt"},"district":{"key":"06434","name":"Hochtaunuskreis","type":"Landkreis"},"federalState":{"key":"06","name":"Hessen"}},{"name":"Hermann-Löns-Weg","postalCode":"61476","locality":"Kronberg im Taunus","municipality":{"key":"06434006","name":"Kronberg im Taunus, Stadt","type":"Stadt"},"district":{"key":"06434","name":"Hochtaunuskreis","type":"Landkreis"},"federalState":{"key":"06","name":"Hessen"}},{"name":"Hohemarkstr.","postalCode":"61476","locality":"Kronberg im Taunus","municipality":{"key":"06434006","name":"Kronberg im Taunus, Stadt","type":"Stadt"},"district":{"key":"06434","name":"Hochtaunuskreis","type":"Landkreis"},"federalState":{"key":"06","name":"Hessen"}},{"name":"Höhenstr.","postalCode":"61476","locality":"Kronberg im Taunus","municipality":{"key":"06434006","name":"Kronberg im Taunus, Stadt","type":"Stadt"},"district":{"key":"06434","name":"Hochtaunuskreis","type":"Landkreis"},"federalState":{"key":"06","name":"Hessen"}},{"name":"Hünerbergstr.","postalCode":"61476","locality":"Kronberg im Taunus","municipality":{"key":"06434006","name":"Kronberg im Taunus, Stadt","type":"Stadt"},"district":{"key":"06434","name":"Hochtaunuskreis","type":"Landkreis"},"federalState":{"key":"06","name":"Hessen"}},{"name":"Hünerbergweg","postalCode":"61476","locality":"Kronberg im Taunus","municipality":{"key":"06434006","name":"Kronberg im Taunus, Stadt","type":"Stadt"},"district":{"key":"06434","name":"Hochtaunuskreis","type":"Landkreis"},"federalState":{"key":"06","name":"Hessen"}},{"name":"Im Brühl","postalCode":"61476","locality":"Kronberg im Taunus","municipality":{"key":"06434006","name":"Kronberg im Taunus, Stadt","type":"Stadt"},"district":{"key":"06434","name":"Hochtaunuskreis","type":"Landkreis"},"federalState":{"key":"06","name":"Hessen"}},{"name":"Im Falkenstück","postalCode":"61476","locality":"Kronberg im Taunus","municipality":{"key":"06434006","name":"Kronberg im Taunus, Stadt","type":"Stadt"},"district":{"key":"06434","name":"Hochtaunuskreis","type":"Landkreis"},"federalState":{"key":"06","name":"Hessen"}},{"name":"Im Haak","postalCode":"61476","locality":"Kronberg im Taunus","municipality":{"key":"06434006","name":"Kronberg im Taunus, Stadt","type":"Stadt"},"district":{"key":"06434","name":"Hochtaunuskreis","type":"Landkreis"},"federalState":{"key":"06","name":"Hessen"}},{"name":"Im Katzenforst","postalCode":"61476","locality":"Kronberg im Taunus","municipality":{"key":"06434006","name":"Kronberg im Taunus, Stadt","type":"Stadt"},"district":{"key":"06434","name":"Hochtaunuskreis","type":"Landkreis"},"federalState":{"key":"06","name":"Hessen"}},{"name":"Im Kronthal","postalCode":"61476","locality":"Kronberg im Taunus","municipality":{"key":"06434006","name":"Kronberg im Taunus, Stadt","type":"Stadt"},"district":{"key":"06434","name":"Hochtaunuskreis","type":"Landkreis"},"federalState":{"key":"06","name":"Hessen"}},{"name":"Immanuel-Kant-Str.","postalCode":"61476","locality":"Kronberg im Taunus","municipality":{"key":"06434006","name":"Kronberg im Taunus, Stadt","type":"Stadt"},"district":{"key":"06434","name":"Hochtaunuskreis","type":"Landkreis"},"federalState":{"key":"06","name":"Hessen"}},{"name":"Im Sand","postalCode":"61476","locality":"Kronberg im Taunus","municipality":{"key":"06434006","name":"Kronberg im Taunus, Stadt","type":"Stadt"},"district":{"key":"06434","name":"Hochtaunuskreis","type":"Landkreis"},"federalState":{"key":"06","name":"Hessen"}},{"name":"Im See","postalCode":"61476","locality":"Kronberg im Taunus","municipality":{"key":"06434006","name":"Kronberg im Taunus, Stadt","type":"Stadt"},"district":{"key":"06434","name":"Hochtaunuskreis","type":"Landkreis"},"federalState":{"key":"06","name":"Hessen"}},{"name":"Im Waldhof","postalCode":"61476","locality":"Kronberg im Taunus","municipality":{"key":"06434006","name":"Kronberg im Taunus, Stadt","type":"Stadt"},"district":{"key":"06434","name":"Hochtaunuskreis","type":"Landkreis"},"federalState":{"key":"06","name":"Hessen"}},{"name":"Im Wiesental","postalCode":"61476","locality":"Kronberg im Taunus","municipality":{"key":"06434006","name":"Kronberg im Taunus, Stadt","type":"Stadt"},"district":{"key":"06434","name":"Hochtaunuskreis","type":"Landkreis"},"federalState":{"key":"06","name":"Hessen"}},{"name":"In den Dellwiesen","postalCode":"61476","locality":"Kronberg im Taunus","municipality":{"key":"06434006","name":"Kronberg im Taunus, Stadt","type":"Stadt"},"district":{"key":"06434","name":"Hochtaunuskreis","type":"Landkreis"},"federalState":{"key":"06","name":"Hessen"}},{"name":"In den Kirschgärten","postalCode":"61476","locality":"Kronberg im Taunus","municipality":{"key":"06434006","name":"Kronberg im Taunus, Stadt","type":"Stadt"},"district":{"key":"06434","name":"Hochtaunuskreis","type":"Landkreis"},"federalState":{"key":"06","name":"Hessen"}},{"name":"In den Rübgärten","postalCode":"61476","locality":"Kronberg im Taunus","municipality":{"key":"06434006","name":"Kronberg im Taunus, Stadt","type":"Stadt"},"district":{"key":"06434","name":"Hochtaunuskreis","type":"Landkreis"},"federalState":{"key":"06","name":"Hessen"}},{"name":"In der Schneithohl","postalCode":"61476","locality":"Kronberg im Taunus","municipality":{"key":"06434006","name":"Kronberg im Taunus, Stadt","type":"Stadt"},"district":{"key":"06434","name":"Hochtaunuskreis","type":"Landkreis"},"federalState":{"key":"06","name":"Hessen"}},{"name":"Industriestr.","postalCode":"61476","locality":"Kronberg im Taunus","municipality":{"key":"06434006","name":"Kronberg im Taunus, Stadt","type":"Stadt"},"district":{"key":"06434","name":"Hochtaunuskreis","type":"Landkreis"},"federalState":{"key":"06","name":"Hessen"}},{"name":"Jacques-Reiss-Str.","postalCode":"61476","locality":"Kronberg im Taunus","municipality":{"key":"06434006","name":"Kronberg im Taunus, Stadt","type":"Stadt"},"district":{"key":"06434","name":"Hochtaunuskreis","type":"Landkreis"},"federalState":{"key":"06","name":"Hessen"}},{"name":"Jagdhausweg","postalCode":"61476","locality":"Kronberg im Taunus","municipality":{"key":"06434006","name":"Kronberg im Taunus, Stadt","type":"Stadt"},"district":{"key":"06434","name":"Hochtaunuskreis","type":"Landkreis"},"federalState":{"key":"06","name":"Hessen"}},{"name":"Jagdhüttenweg","postalCode":"61476","locality":"Kronberg im Taunus","municipality":{"key":"06434006","name":"Kronberg im Taunus, Stadt","type":"Stadt"},"district":{"key":"06434","name":"Hochtaunuskreis","type":"Landkreis"},"federalState":{"key":"06","name":"Hessen"}},{"name":"Jägerwiese","postalCode":"61476","locality":"Kronberg im Taunus","municipality":{"key":"06434006","name":"Kronberg im Taunus, Stadt","type":"Stadt"},"district":{"key":"06434","name":"Hochtaunuskreis","type":"Landkreis"},"federalState":{"key":"06","name":"Hessen"}},{"name":"Jaminstr.","postalCode":"61476","locality":"Kronberg im Taunus","municipality":{"key":"06434006","name":"Kronberg im Taunus, Stadt","type":"Stadt"},"district":{"key":"06434","name":"Hochtaunuskreis","type":"Landkreis"},"federalState":{"key":"06","name":"Hessen"}},{"name":"Kaiserin-Friedrich-Weg","postalCode":"61476","locality":"Kronberg im Taunus","municipality":{"key":"06434006","name":"Kronberg im Taunus, Stadt","type":"Stadt"},"district":{"key":"06434","name":"Hochtaunuskreis","type":"Landkreis"},"federalState":{"key":"06","name":"Hessen"}},{"name":"Karl-Eugen-Pitsch-Weg","postalCode":"61476","locality":"Kronberg im Taunus","municipality":{"key":"06434006","name":"Kronberg im Taunus, Stadt","type":"Stadt"},"district":{"key":"06434","name":"Hochtaunuskreis","type":"Landkreis"},"federalState":{"key":"06","name":"Hessen"}},{"name":"Kastanienstr.","postalCode":"61476","locality":"Kronberg im Taunus","municipality":{"key":"06434006","name":"Kronberg im Taunus, Stadt","type":"Stadt"},"district":{"key":"06434","name":"Hochtaunuskreis","type":"Landkreis"},"federalState":{"key":"06","name":"Hessen"}},{"name":"Katharinenstr.","postalCode":"61476","locality":"Kronberg im Taunus","municipality":{"key":"06434006","name":"Kronberg im Taunus, Stadt","type":"Stadt"},"district":{"key":"06434","name":"Hochtaunuskreis","type":"Landkreis"},"federalState":{"key":"06","name":"Hessen"}},{"name":"Kellergrundweg","postalCode":"61476","locality":"Kronberg im Taunus","municipality":{"key":"06434006","name":"Kronberg im Taunus, Stadt","type":"Stadt"},"district":{"key":"06434","name":"Hochtaunuskreis","type":"Landkreis"},"federalState":{"key":"06","name":"Hessen"}},{"name":"Kerbebaamweg","postalCode":"61476","locality":"Kronberg im Taunus","municipality":{"key":"06434006","name":"Kronberg im Taunus, Stadt","type":"Stadt"},"district":{"key":"06434","name":"Hochtaunuskreis","type":"Landkreis"},"federalState":{"key":"06","name":"Hessen"}},{"name":"Kiefernweg","postalCode":"61476","locality":"Kronberg im Taunus","municipality":{"key":"06434006","name":"Kronberg im Taunus, Stadt","type":"Stadt"},"district":{"key":"06434","name":"Hochtaunuskreis","type":"Landkreis"},"federalState":{"key":"06","name":"Hessen"}},{"name":"Kinsleystr.","postalCode":"61476","locality":"Kronberg im Taunus","municipality":{"key":"06434006","name":"Kronberg im Taunus, Stadt","type":"Stadt"},"district":{"key":"06434","name":"Hochtaunuskreis","type":"Landkreis"},"federalState":{"key":"06","name":"Hessen"}},{"name":"Kirchgasse","postalCode":"61476","locality":"Kronberg im Taunus","municipality":{"key":"06434006","name":"Kronberg im Taunus, Stadt","type":"Stadt"},"district":{"key":"06434","name":"Hochtaunuskreis","type":"Landkreis"},"federalState":{"key":"06","name":"Hessen"}},{"name":"Kleine Mauerstr.","postalCode":"61476","locality":"Kronberg im Taunus","municipality":{"key":"06434006","name":"Kronberg im Taunus, Stadt","type":"Stadt"},"district":{"key":"06434","name":"Hochtaunuskreis","type":"Landkreis"},"federalState":{"key":"06","name":"Hessen"}},{"name":"Kleiner Römerberg","postalCode":"61476","locality":"Kronberg im Taunus","municipality":{"key":"06434006","name":"Kronberg im Taunus, Stadt","type":"Stadt"},"district":{"key":"06434","name":"Hochtaunuskreis","type":"Landkreis"},"federalState":{"key":"06","name":"Hessen"}},{"name":"Klosterstr.","postalCode":"61476","locality":"Kronberg im Taunus","municipality":{"key":"06434006","name":"Kronberg im Taunus, Stadt","type":"Stadt"},"district":{"key":"06434","name":"Hochtaunuskreis","type":"Landkreis"},"federalState":{"key":"06","name":"Hessen"}},{"name":"Königsteiner Str.","postalCode":"61476","locality":"Kronberg im Taunus","municipality":{"key":"06434006","name":"Kronberg im Taunus, Stadt","type":"Stadt"},"district":{"key":"06434","name":"Hochtaunuskreis","type":"Landkreis"},"federalState":{"key":"06","name":"Hessen"}},{"name":"Kreuzenäckerweg","postalCode":"61476","locality":"Kronberg im Taunus","municipality":{"key":"06434006","name":"Kronberg im Taunus, Stadt","type":"Stadt"},"district":{"key":"06434","name":"Hochtaunuskreis","type":"Landkreis"},"federalState":{"key":"06","name":"Hessen"}},{"name":"Kronberger Str.","postalCode":"61476","locality":"Kronberg im Taunus","municipality":{"key":"06434006","name":"Kronberg im Taunus, Stadt","type":"Stadt"},"district":{"key":"06434","name":"Hochtaunuskreis","type":"Landkreis"},"federalState":{"key":"06","name":"Hessen"}},{"name":"Kronthaler Weg","postalCode":"61476","locality":"Kronberg im Taunus","municipality":{"key":"06434006","name":"Kronberg im Taunus, Stadt","type":"Stadt"},"district":{"key":"06434","name":"Hochtaunuskreis","type":"Landkreis"},"federalState":{"key":"06","name":"Hessen"}},{"name":"Lärchenweg","postalCode":"61476","locality":"Kronberg im Taunus","municipality":{"key":"06434006","name":"Kronberg im Taunus, Stadt","type":"Stadt"},"district":{"key":"06434","name":"Hochtaunuskreis","type":"Landkreis"},"federalState":{"key":"06","name":"Hessen"}},{"name":"Le-Lavandou-Str.","postalCode":"61476","locality":"Kronberg im Taunus","municipality":{"key":"06434006","name":"Kronberg im Taunus, Stadt","type":"Stadt"},"district":{"key":"06434","name":"Hochtaunuskreis","type":"Landkreis"},"federalState":{"key":"06","name":"Hessen"}},{"name":"Limburger Str.","postalCode":"61476","locality":"Kronberg im Taunus","municipality":{"key":"06434006","name":"Kronberg im Taunus, Stadt","type":"Stadt"},"district":{"key":"06434","name":"Hochtaunuskreis","type":"Landkreis"},"federalState":{"key":"06","name":"Hessen"}},{"name":"Lindenweg","postalCode":"61476","locality":"Kronberg im Taunus","municipality":{"key":"06434006","name":"Kronberg im Taunus, Stadt","type":"Stadt"},"district":{"key":"06434","name":"Hochtaunuskreis","type":"Landkreis"},"federalState":{"key":"06","name":"Hessen"}},{"name":"Ludwig-Christ-Str.","postalCode":"61476","locality":"Kronberg im Taunus","municipality":{"key":"06434006","name":"Kronberg im Taunus, Stadt","type":"Stadt"},"district":{"key":"06434","name":"Hochtaunuskreis","type":"Landkreis"},"federalState":{"key":"06","name":"Hessen"}},{"name":"Ludwig-Sauer-Str.","postalCode":"61476","locality":"Kronberg im Taunus","municipality":{"key":"06434006","name":"Kronberg im Taunus, Stadt","type":"Stadt"},"district":{"key":"06434","name":"Hochtaunuskreis","type":"Landkreis"},"federalState":{"key":"06","name":"Hessen"}},{"name":"Mainblick","postalCode":"61476","locality":"Kronberg im Taunus","municipality":{"key":"06434006","name":"Kronberg im Taunus, Stadt","type":"Stadt"},"district":{"key":"06434","name":"Hochtaunuskreis","type":"Landkreis"},"federalState":{"key":"06","name":"Hessen"}},{"name":"Mammolshainer Weg","postalCode":"61476","locality":"Kronberg im Taunus","municipality":{"key":"06434006","name":"Kronberg im Taunus, Stadt","type":"Stadt"},"district":{"key":"06434","name":"Hochtaunuskreis","type":"Landkreis"},"federalState":{"key":"06","name":"Hessen"}},{"name":"Margarethenstr.","postalCode":"61476","locality":"Kronberg im Taunus","municipality":{"key":"06434006","name":"Kronberg im Taunus, Stadt","type":"Stadt"},"district":{"key":"06434","name":"Hochtaunuskreis","type":"Landkreis"},"federalState":{"key":"06","name":"Hessen"}},{"name":"Mauerstr.","postalCode":"61476","locality":"Kronberg im Taunus","municipality":{"key":"06434006","name":"Kronberg im Taunus, Stadt","type":"Stadt"},"district":{"key":"06434","name":"Hochtaunuskreis","type":"Landkreis"},"federalState":{"key":"06","name":"Hessen"}},{"name":"Merianstr.","postalCode":"61476","locality":"Kronberg im Taunus","municipality":{"key":"06434006","name":"Kronberg im Taunus, Stadt","type":"Stadt"},"district":{"key":"06434","name":"Hochtaunuskreis","type":"Landkreis"},"federalState":{"key":"06","name":"Hessen"}},{"name":"Mertonweg","postalCode":"61476","locality":"Kronberg im Taunus","municipality":{"key":"06434006","name":"Kronberg im Taunus, Stadt","type":"Stadt"},"district":{"key":"06434","name":"Hochtaunuskreis","type":"Landkreis"},"federalState":{"key":"06","name":"Hessen"}},{"name":"Minnholzweg","postalCode":"61476","locality":"Kronberg im Taunus","municipality":{"key":"06434006","name":"Kronberg im Taunus, Stadt","type":"Stadt"},"district":{"key":"06434","name":"Hochtaunuskreis","type":"Landkreis"},"federalState":{"key":"06","name":"Hessen"}},{"name":"Mittlere Eichen","postalCode":"61476","locality":"Kronberg im Taunus","municipality":{"key":"06434006","name":"Kronberg im Taunus, Stadt","type":"Stadt"},"district":{"key":"06434","name":"Hochtaunuskreis","type":"Landkreis"},"federalState":{"key":"06","name":"Hessen"}},{"name":"Mühlbachweg","postalCode":"61476","locality":"Kronberg im Taunus","municipality":{"key":"06434006","name":"Kronberg im Taunus, Stadt","type":"Stadt"},"district":{"key":"06434","name":"Hochtaunuskreis","type":"Landkreis"},"federalState":{"key":"06","name":"Hessen"}},{"name":"Neubronner Str.","postalCode":"61476","locality":"Kronberg im Taunus","municipality":{"key":"06434006","name":"Kronberg im Taunus, Stadt","type":"Stadt"},"district":{"key":"06434","name":"Hochtaunuskreis","type":"Landkreis"},"federalState":{"key":"06","name":"Hessen"}},{"name":"Niddastr.","postalCode":"61476","locality":"Kronberg im Taunus","municipality":{"key":"06434006","name":"Kronberg im Taunus, Stadt","type":"Stadt"},"district":{"key":"06434","name":"Hochtaunuskreis","type":"Landkreis"},"federalState":{"key":"06","name":"Hessen"}},{"name":"Niederhöchstädter Str.","postalCode":"61476","locality":"Kronberg im Taunus","municipality":{"key":"06434006","name":"Kronberg im Taunus, Stadt","type":"Stadt"},"district":{"key":"06434","name":"Hochtaunuskreis","type":"Landkreis"},"federalState":{"key":"06","name":"Hessen"}},{"name":"Nonnenpfad","postalCode":"61476","locality":"Kronberg im Taunus","municipality":{"key":"06434006","name":"Kronberg im Taunus, Stadt","type":"Stadt"},"district":{"key":"06434","name":"Hochtaunuskreis","type":"Landkreis"},"federalState":{"key":"06","name":"Hessen"}},{"name":"Obere Eichen","postalCode":"61476","locality":"Kronberg im Taunus","municipality":{"key":"06434006","name":"Kronberg im Taunus, Stadt","type":"Stadt"},"district":{"key":"06434","name":"Hochtaunuskreis","type":"Landkreis"},"federalState":{"key":"06","name":"Hessen"}},{"name":"Obere Höllgasse","postalCode":"61476","locality":"Kronberg im Taunus","municipality":{"key":"06434006","name":"Kronberg im Taunus, Stadt","type":"Stadt"},"district":{"key":"06434","name":"Hochtaunuskreis","type":"Landkreis"},"federalState":{"key":"06","name":"Hessen"}},{"name":"Oberer Aufstieg","postalCode":"61476","locality":"Kronberg im Taunus","municipality":{"key":"06434006","name":"Kronberg im Taunus, Stadt","type":"Stadt"},"district":{"key":"06434","name":"Hochtaunuskreis","type":"Landkreis"},"federalState":{"key":"06","name":"Hessen"}},{"name":"Oberer Kellergrund Weg","postalCode":"61476","locality":"Kronberg im Taunus","municipality":{"key":"06434006","name":"Kronberg im Taunus, Stadt","type":"Stadt"},"district":{"key":"06434","name":"Hochtaunuskreis","type":"Landkreis"},"federalState":{"key":"06","name":"Hessen"}},{"name":"Oberer Lindenstruthweg","postalCode":"61476","locality":"Kronberg im Taunus","municipality":{"key":"06434006","name":"Kronberg im Taunus, Stadt","type":"Stadt"},"district":{"key":"06434","name":"Hochtaunuskreis","type":"Landkreis"},"federalState":{"key":"06","name":"Hessen"}},{"name":"Oberer Thalerfeldweg","postalCode":"61476","locality":"Kronberg im Taunus","municipality":{"key":"06434006","name":"Kronberg im Taunus, Stadt","type":"Stadt"},"district":{"key":"06434","name":"Hochtaunuskreis","type":"Landkreis"},"federalState":{"key":"06","name":"Hessen"}},{"name":"Oberhöchstädter Str.","postalCode":"61476","locality":"Kronberg im Taunus","municipality":{"key":"06434006","name":"Kronberg im Taunus, Stadt","type":"Stadt"},"district":{"key":"06434","name":"Hochtaunuskreis","type":"Landkreis"},"federalState":{"key":"06","name":"Hessen"}},{"name":"Oberurseler Str.","postalCode":"61476","locality":"Kronberg im Taunus","municipality":{"key":"06434006","name":"Kronberg im Taunus, Stadt","type":"Stadt"},"district":{"key":"06434","name":"Hochtaunuskreis","type":"Landkreis"},"federalState":{"key":"06","name":"Hessen"}},{"name":"Park Altkönigstift","postalCode":"61476","locality":"Kronberg im Taunus","municipality":{"key":"06434006","name":"Kronberg im Taunus, Stadt","type":"Stadt"},"district":{"key":"06434","name":"Hochtaunuskreis","type":"Landkreis"},"federalState":{"key":"06","name":"Hessen"}},{"name":"Park Seniorenstift Hohenwald","postalCode":"61476","locality":"Kronberg im Taunus","municipality":{"key":"06434006","name":"Kronberg im Taunus, Stadt","type":"Stadt"},"district":{"key":"06434","name":"Hochtaunuskreis","type":"Landkreis"},"federalState":{"key":"06","name":"Hessen"}},{"name":"Parkstr.","postalCode":"61476","locality":"Kronberg im Taunus","municipality":{"key":"06434006","name":"Kronberg im Taunus, Stadt","type":"Stadt"},"district":{"key":"06434","name":"Hochtaunuskreis","type":"Landkreis"},"federalState":{"key":"06","name":"Hessen"}},{"name":"Pfarrer-Müller-Weg","postalCode":"61476","locality":"Kronberg im Taunus","municipality":{"key":"06434006","name":"Kronberg im Taunus, Stadt","type":"Stadt"},"district":{"key":"06434","name":"Hochtaunuskreis","type":"Landkreis"},"federalState":{"key":"06","name":"Hessen"}},{"name":"Pferdstr.","postalCode":"61476","locality":"Kronberg im Taunus","municipality":{"key":"06434006","name":"Kronberg im Taunus, Stadt","type":"Stadt"},"district":{"key":"06434","name":"Hochtaunuskreis","type":"Landkreis"},"federalState":{"key":"06","name":"Hessen"}},{"name":"Philipp-Franck-Weg","postalCode":"61476","locality":"Kronberg im Taunus","municipality":{"key":"06434006","name":"Kronberg im Taunus, Stadt","type":"Stadt"},"district":{"key":"06434","name":"Hochtaunuskreis","type":"Landkreis"},"federalState":{"key":"06","name":"Hessen"}},{"name":"Philosophenweg","postalCode":"61476","locality":"Kronberg im Taunus","municipality":{"key":"06434006","name":"Kronberg im Taunus, Stadt","type":"Stadt"},"district":{"key":"06434","name":"Hochtaunuskreis","type":"Landkreis"},"federalState":{"key":"06","name":"Hessen"}},{"name":"Quellenpark Kronthal","postalCode":"61476","locality":"Kronberg im Taunus","municipality":{"key":"06434006","name":"Kronberg im Taunus, Stadt","type":"Stadt"},"district":{"key":"06434","name":"Hochtaunuskreis","type":"Landkreis"},"federalState":{"key":"06","name":"Hessen"}},{"name":"Rentbachweg","postalCode":"61476","locality":"Kronberg im Taunus","municipality":{"key":"06434006","name":"Kronberg im Taunus, Stadt","type":"Stadt"},"district":{"key":"06434","name":"Hochtaunuskreis","type":"Landkreis"},"federalState":{"key":"06","name":"Hessen"}},{"name":"Ricarda-Huch-Str.","postalCode":"61476","locality":"Kronberg im Taunus","municipality":{"key":"06434006","name":"Kronberg im Taunus, Stadt","type":"Stadt"},"district":{"key":"06434","name":"Hochtaunuskreis","type":"Landkreis"},"federalState":{"key":"06","name":"Hessen"}},{"name":"Ringstr.","postalCode":"61476","locality":"Kronberg im Taunus","municipality":{"key":"06434006","name":"Kronberg im Taunus, Stadt","type":"Stadt"},"district":{"key":"06434","name":"Hochtaunuskreis","type":"Landkreis"},"federalState":{"key":"06","name":"Hessen"}},{"name":"Römerberg","postalCode":"61476","locality":"Kronberg im Taunus","municipality":{"key":"06434006","name":"Kronberg im Taunus, Stadt","type":"Stadt"},"district":{"key":"06434","name":"Hochtaunuskreis","type":"Landkreis"},"federalState":{"key":"06","name":"Hessen"}},{"name":"Rübezahlweg","postalCode":"61476","locality":"Kronberg im Taunus","municipality":{"key":"06434006","name":"Kronberg im Taunus, Stadt","type":"Stadt"},"district":{"key":"06434","name":"Hochtaunuskreis","type":"Landkreis"},"federalState":{"key":"06","name":"Hessen"}},{"name":"Rumpfstr.","postalCode":"61476","locality":"Kronberg im Taunus","municipality":{"key":"06434006","name":"Kronberg im Taunus, Stadt","type":"Stadt"},"district":{"key":"06434","name":"Hochtaunuskreis","type":"Landkreis"},"federalState":{"key":"06","name":"Hessen"}},{"name":"Saalburgstr.","postalCode":"61476","locality":"Kronberg im Taunus","municipality":{"key":"06434006","name":"Kronberg im Taunus, Stadt","type":"Stadt"},"district":{"key":"06434","name":"Hochtaunuskreis","type":"Landkreis"},"federalState":{"key":"06","name":"Hessen"}},{"name":"Scheibenbuschweg","postalCode":"61476","locality":"Kronberg im Taunus","municipality":{"key":"06434006","name":"Kronberg im Taunus, Stadt","type":"Stadt"},"district":{"key":"06434","name":"Hochtaunuskreis","type":"Landkreis"},"federalState":{"key":"06","name":"Hessen"}},{"name":"Schillerstr.","postalCode":"61476","locality":"Kronberg im Taunus","municipality":{"key":"06434006","name":"Kronberg im Taunus, Stadt","type":"Stadt"},"district":{"key":"06434","name":"Hochtaunuskreis","type":"Landkreis"},"federalState":{"key":"06","name":"Hessen"}},{"name":"Schirnbornweg","postalCode":"61476","locality":"Kronberg im Taunus","municipality":{"key":"06434006","name":"Kronberg im Taunus, Stadt","type":"Stadt"},"district":{"key":"06434","name":"Hochtaunuskreis","type":"Landkreis"},"federalState":{"key":"06","name":"Hessen"}},{"name":"Schirnstr.","postalCode":"61476","locality":"Kronberg im Taunus","municipality":{"key":"06434006","name":"Kronberg im Taunus, Stadt","type":"Stadt"},"district":{"key":"06434","name":"Hochtaunuskreis","type":"Landkreis"},"federalState":{"key":"06","name":"Hessen"}},{"name":"Schloßstr.","postalCode":"61476","locality":"Kronberg im Taunus","municipality":{"key":"06434006","name":"Kronberg im Taunus, Stadt","type":"Stadt"},"district":{"key":"06434","name":"Hochtaunuskreis","type":"Landkreis"},"federalState":{"key":"06","name":"Hessen"}},{"name":"Schmiedeberger Str.","postalCode":"61476","locality":"Kronberg im Taunus","municipality":{"key":"06434006","name":"Kronberg im Taunus, Stadt","type":"Stadt"},"district":{"key":"06434","name":"Hochtaunuskreis","type":"Landkreis"},"federalState":{"key":"06","name":"Hessen"}},{"name":"Schnigelbergweg","postalCode":"61476","locality":"Kronberg im Taunus","municipality":{"key":"06434006","name":"Kronberg im Taunus, Stadt","type":"Stadt"},"district":{"key":"06434","name":"Hochtaunuskreis","type":"Landkreis"},"federalState":{"key":"06","name":"Hessen"}},{"name":"Schönberger Str.","postalCode":"61476","locality":"Kronberg im Taunus","municipality":{"key":"06434006","name":"Kronberg im Taunus, Stadt","type":"Stadt"},"district":{"key":"06434","name":"Hochtaunuskreis","type":"Landkreis"},"federalState":{"key":"06","name":"Hessen"}},{"name":"Schöne Aussicht","postalCode":"61476","locality":"Kronberg im Taunus","municipality":{"key":"06434006","name":"Kronberg im Taunus, Stadt","type":"Stadt"},"district":{"key":"06434","name":"Hochtaunuskreis","type":"Landkreis"},"federalState":{"key":"06","name":"Hessen"}},{"name":"Schreyerstr.","postalCode":"61476","locality":"Kronberg im Taunus","municipality":{"key":"06434006","name":"Kronberg im Taunus, Stadt","type":"Stadt"},"district":{"key":"06434","name":"Hochtaunuskreis","type":"Landkreis"},"federalState":{"key":"06","name":"Hessen"}},{"name":"Schülerwiesen","postalCode":"61476","locality":"Kronberg im Taunus","municipality":{"key":"06434006","name":"Kronberg im Taunus, Stadt","type":"Stadt"},"district":{"key":"06434","name":"Hochtaunuskreis","type":"Landkreis"},"federalState":{"key":"06","name":"Hessen"}},{"name":"Schulgarten","postalCode":"61476","locality":"Kronberg im Taunus","municipality":{"key":"06434006","name":"Kronberg im Taunus, Stadt","type":"Stadt"},"district":{"key":"06434","name":"Hochtaunuskreis","type":"Landkreis"},"federalState":{"key":"06","name":"Hessen"}},{"name":"Schwalbacher Str.","postalCode":"61476","locality":"Kronberg im Taunus","municipality":{"key":"06434006","name":"Kronberg im Taunus, Stadt","type":"Stadt"},"district":{"key":"06434","name":"Hochtaunuskreis","type":"Landkreis"},"federalState":{"key":"06","name":"Hessen"}},{"name":"Schwalbenweg","postalCode":"61476","locality":"Kronberg im Taunus","municipality":{"key":"06434006","name":"Kronberg im Taunus, Stadt","type":"Stadt"},"district":{"key":"06434","name":"Hochtaunuskreis","type":"Landkreis"},"federalState":{"key":"06","name":"Hessen"}},{"name":"Schwarzer Weg","postalCode":"61476","locality":"Kronberg im Taunus","municipality":{"key":"06434006","name":"Kronberg im Taunus, Stadt","type":"Stadt"},"district":{"key":"06434","name":"Hochtaunuskreis","type":"Landkreis"},"federalState":{"key":"06","name":"Hessen"}},{"name":"Sodener Str.","postalCode":"61476","locality":"Kronberg im Taunus","municipality":{"key":"06434006","name":"Kronberg im Taunus, Stadt","type":"Stadt"},"district":{"key":"06434","name":"Hochtaunuskreis","type":"Landkreis"},"federalState":{"key":"06","name":"Hessen"}},{"name":"Steinbacher Str.","postalCode":"61476","locality":"Kronberg im Taunus","municipality":{"key":"06434006","name":"Kronberg im Taunus, Stadt","type":"Stadt"},"district":{"key":"06434","name":"Hochtaunuskreis","type":"Landkreis"},"federalState":{"key":"06","name":"Hessen"}},{"name":"Steinstr.","postalCode":"61476","locality":"Kronberg im Taunus","municipality":{"key":"06434006","name":"Kronberg im Taunus, Stadt","type":"Stadt"},"district":{"key":"06434","name":"Hochtaunuskreis","type":"Landkreis"},"federalState":{"key":"06","name":"Hessen"}},{"name":"Stiftstr.","postalCode":"61476","locality":"Kronberg im Taunus","municipality":{"key":"06434006","name":"Kronberg im Taunus, Stadt","type":"Stadt"},"district":{"key":"06434","name":"Hochtaunuskreis","type":"Landkreis"},"federalState":{"key":"06","name":"Hessen"}},{"name":"Stoltzestr.","postalCode":"61476","locality":"Kronberg im Taunus","municipality":{"key":"06434006","name":"Kronberg im Taunus, Stadt","type":"Stadt"},"district":{"key":"06434","name":"Hochtaunuskreis","type":"Landkreis"},"federalState":{"key":"06","name":"Hessen"}},{"name":"Stuhlbergstr.","postalCode":"61476","locality":"Kronberg im Taunus","municipality":{"key":"06434006","name":"Kronberg im Taunus, Stadt","type":"Stadt"},"district":{"key":"06434","name":"Hochtaunuskreis","type":"Landkreis"},"federalState":{"key":"06","name":"Hessen"}},{"name":"Sudetenring","postalCode":"61476","locality":"Kronberg im Taunus","municipality":{"key":"06434006","name":"Kronberg im Taunus, Stadt","type":"Stadt"},"district":{"key":"06434","name":"Hochtaunuskreis","type":"Landkreis"},"federalState":{"key":"06","name":"Hessen"}},{"name":"Talstr.","postalCode":"61476","locality":"Kronberg im Taunus","municipality":{"key":"06434006","name":"Kronberg im Taunus, Stadt","type":"Stadt"},"district":{"key":"06434","name":"Hochtaunuskreis","type":"Landkreis"},"federalState":{"key":"06","name":"Hessen"}},{"name":"Talweg","postalCode":"61476","locality":"Kronberg im Taunus","municipality":{"key":"06434006","name":"Kronberg im Taunus, Stadt","type":"Stadt"},"district":{"key":"06434","name":"Hochtaunuskreis","type":"Landkreis"},"federalState":{"key":"06","name":"Hessen"}},{"name":"Tannenweg","postalCode":"61476","locality":"Kronberg im Taunus","municipality":{"key":"06434006","name":"Kronberg im Taunus, Stadt","type":"Stadt"},"district":{"key":"06434","name":"Hochtaunuskreis","type":"Landkreis"},"federalState":{"key":"06","name":"Hessen"}},{"name":"Tanzhausstr.","postalCode":"61476","locality":"Kronberg im Taunus","municipality":{"key":"06434006","name":"Kronberg im Taunus, Stadt","type":"Stadt"},"district":{"key":"06434","name":"Hochtaunuskreis","type":"Landkreis"},"federalState":{"key":"06","name":"Hessen"}},{"name":"Taunusstr.","postalCode":"61476","locality":"Kronberg im Taunus","municipality":{"key":"06434006","name":"Kronberg im Taunus, Stadt","type":"Stadt"},"district":{"key":"06434","name":"Hochtaunuskreis","type":"Landkreis"},"federalState":{"key":"06","name":"Hessen"}},{"name":"Tulpenweg","postalCode":"61476","locality":"Kronberg im Taunus","municipality":{"key":"06434006","name":"Kronberg im Taunus, Stadt","type":"Stadt"},"district":{"key":"06434","name":"Hochtaunuskreis","type":"Landkreis"},"federalState":{"key":"06","name":"Hessen"}},{"name":"Ulmenweg","postalCode":"61476","locality":"Kronberg im Taunus","municipality":{"key":"06434006","name":"Kronberg im Taunus, Stadt","type":"Stadt"},"district":{"key":"06434","name":"Hochtaunuskreis","type":"Landkreis"},"federalState":{"key":"06","name":"Hessen"}},{"name":"Untere Höllgasse","postalCode":"61476","locality":"Kronberg im Taunus","municipality":{"key":"06434006","name":"Kronberg im Taunus, Stadt","type":"Stadt"},"district":{"key":"06434","name":"Hochtaunuskreis","type":"Landkreis"},"federalState":{"key":"06","name":"Hessen"}},{"name":"Unterer Kellergrund Weg","postalCode":"61476","locality":"Kronberg im Taunus","municipality":{"key":"06434006","name":"Kronberg im Taunus, Stadt","type":"Stadt"},"district":{"key":"06434","name":"Hochtaunuskreis","type":"Landkreis"},"federalState":{"key":"06","name":"Hessen"}},{"name":"Unterer Thalerfeldweg","postalCode":"61476","locality":"Kronberg im Taunus","municipality":{"key":"06434006","name":"Kronberg im Taunus, Stadt","type":"Stadt"},"district":{"key":"06434","name":"Hochtaunuskreis","type":"Landkreis"},"federalState":{"key":"06","name":"Hessen"}},{"name":"Unterhangweg","postalCode":"61476","locality":"Kronberg im Taunus","municipality":{"key":"06434006","name":"Kronberg im Taunus, Stadt","type":"Stadt"},"district":{"key":"06434","name":"Hochtaunuskreis","type":"Landkreis"},"federalState":{"key":"06","name":"Hessen"}},{"name":"Verbindung Scheibelbuschweg - Philosophenweg","postalCode":"61476","locality":"Kronberg im Taunus","municipality":{"key":"06434006","name":"Kronberg im Taunus, Stadt","type":"Stadt"},"district":{"key":"06434","name":"Hochtaunuskreis","type":"Landkreis"},"federalState":{"key":"06","name":"Hessen"}},{"name":"Victoriapark","postalCode":"61476","locality":"Kronberg im Taunus","municipality":{"key":"06434006","name":"Kronberg im Taunus, Stadt","type":"Stadt"},"district":{"key":"06434","name":"Hochtaunuskreis","type":"Landkreis"},"federalState":{"key":"06","name":"Hessen"}},{"name":"Viktoriastr.","postalCode":"61476","locality":"Kronberg im Taunus","municipality":{"key":"06434006","name":"Kronberg im Taunus, Stadt","type":"Stadt"},"district":{"key":"06434","name":"Hochtaunuskreis","type":"Landkreis"},"federalState":{"key":"06","name":"Hessen"}},{"name":"Vogelgesanggasse","postalCode":"61476","locality":"Kronberg im Taunus","municipality":{"key":"06434006","name":"Kronberg im Taunus, Stadt","type":"Stadt"},"district":{"key":"06434","name":"Hochtaunuskreis","type":"Landkreis"},"federalState":{"key":"06","name":"Hessen"}},{"name":"Volleulenweg","postalCode":"61476","locality":"Kronberg im Taunus","municipality":{"key":"06434006","name":"Kronberg im Taunus, Stadt","type":"Stadt"},"district":{"key":"06434","name":"Hochtaunuskreis","type":"Landkreis"},"federalState":{"key":"06","name":"Hessen"}},{"name":"Waldstr.","postalCode":"61476","locality":"Kronberg im Taunus","municipality":{"key":"06434006","name":"Kronberg im Taunus, Stadt","type":"Stadt"},"district":{"key":"06434","name":"Hochtaunuskreis","type":"Landkreis"},"federalState":{"key":"06","name":"Hessen"}},{"name":"Walter-Schwagenscheidt-Str.","postalCode":"61476","locality":"Kronberg im Taunus","municipality":{"key":"06434006","name":"Kronberg im Taunus, Stadt","type":"Stadt"},"district":{"key":"06434","name":"Hochtaunuskreis","type":"Landkreis"},"federalState":{"key":"06","name":"Hessen"}},{"name":"Wendelinsweg","postalCode":"61476","locality":"Kronberg im Taunus","municipality":{"key":"06434006","name":"Kronberg im Taunus, Stadt","type":"Stadt"},"district":{"key":"06434","name":"Hochtaunuskreis","type":"Landkreis"},"federalState":{"key":"06","name":"Hessen"}},{"name":"Westerbachstr.","postalCode":"61476","locality":"Kronberg im Taunus","municipality":{"key":"06434006","name":"Kronberg im Taunus, Stadt","type":"Stadt"},"district":{"key":"06434","name":"Hochtaunuskreis","type":"Landkreis"},"federalState":{"key":"06","name":"Hessen"}},{"name":"Wetterhahnweg","postalCode":"61476","locality":"Kronberg im Taunus","municipality":{"key":"06434006","name":"Kronberg im Taunus, Stadt","type":"Stadt"},"district":{"key":"06434","name":"Hochtaunuskreis","type":"Landkreis"},"federalState":{"key":"06","name":"Hessen"}},{"name":"Wiesenau","postalCode":"61476","locality":"Kronberg im Taunus","municipality":{"key":"06434006","name":"Kronberg im Taunus, Stadt","type":"Stadt"},"district":{"key":"06434","name":"Hochtaunuskreis","type":"Landkreis"},"federalState":{"key":"06","name":"Hessen"}},{"name":"Wiesenweg","postalCode":"61476","locality":"Kronberg im Taunus","municipality":{"key":"06434006","name":"Kronberg im Taunus, Stadt","type":"Stadt"},"district":{"key":"06434","name":"Hochtaunuskreis","type":"Landkreis"},"federalState":{"key":"06","name":"Hessen"}},{"name":"Wilhelm-Bonn-Str.","postalCode":"61476","locality":"Kronberg im Taunus","municipality":{"key":"06434006","name":"Kronberg im Taunus, Stadt","type":"Stadt"},"district":{"key":"06434","name":"Hochtaunuskreis","type":"Landkreis"},"federalState":{"key":"06","name":"Hessen"}},{"name":"Zeilstr.","postalCode":"61476","locality":"Kronberg im Taunus","municipality":{"key":"06434006","name":"Kronberg im Taunus, Stadt","type":"Stadt"},"district":{"key":"06434","name":"Hochtaunuskreis","type":"Landkreis"},"federalState":{"key":"06","name":"Hessen"}},{"name":"Ziegelhütte","postalCode":"61476","locality":"Kronberg im Taunus","municipality":{"key":"06434006","name":"Kronberg im Taunus, Stadt","type":"Stadt"},"district":{"key":"06434","name":"Hochtaunuskreis","type":"Landkreis"},"federalState":{"key":"06","name":"Hessen"}},{"name":"Zwingerweg","postalCode":"61476","locality":"Kronberg im Taunus","municipality":{"key":"06434006","name":"Kronberg im Taunus, Stadt","type":"Stadt"},"district":{"key":"06434","name":"Hochtaunuskreis","type":"Landkreis"},"federalState":{"key":"06","name":"Hessen"}},]