[{"key":"10126499","name":"Alpenweg","postalCode":"8418","locality":"Schlatt ZH","commune":{"key":"226","name":"Schlatt (ZH)","shortName":"Schlatt (ZH)"},"district":{"key":"110","name":"Bezirk Winterthur"},"canton":{"key":"1","code":"ZH","name":"Zürich"},"status":"Real"},{"key":"10019260","name":"Alte Bergstrasse","postalCode":"8418","locality":"Schlatt ZH","commune":{"key":"226","name":"Schlatt (ZH)","shortName":"Schlatt (ZH)"},"district":{"key":"110","name":"Bezirk Winterthur"},"canton":{"key":"1","code":"ZH","name":"Zürich"},"status":"Real"},{"key":"10126500","name":"Alter Herstelweg","postalCode":"8418","locality":"Schlatt ZH","commune":{"key":"226","name":"Schlatt (ZH)","shortName":"Schlatt (ZH)"},"district":{"key":"110","name":"Bezirk Winterthur"},"canton":{"key":"1","code":"ZH","name":"Zürich"},"status":"Real"},{"key":"10126502","name":"Alter Höchholzweg","postalCode":"8418","locality":"Schlatt ZH","commune":{"key":"226","name":"Schlatt (ZH)","shortName":"Schlatt (ZH)"},"district":{"key":"110","name":"Bezirk Winterthur"},"canton":{"key":"1","code":"ZH","name":"Zürich"},"status":"Real"},{"key":"10126504","name":"Alter Tüebbergweg","postalCode":"8418","locality":"Schlatt ZH","commune":{"key":"226","name":"Schlatt (ZH)","shortName":"Schlatt (ZH)"},"district":{"key":"110","name":"Bezirk Winterthur"},"canton":{"key":"1","code":"ZH","name":"Zürich"},"status":"Real"},{"key":"10160663","name":"Alte Schwändistrasse","postalCode":"8418","locality":"Schlatt ZH","commune":{"key":"226","name":"Schlatt (ZH)","shortName":"Schlatt (ZH)"},"district":{"key":"110","name":"Bezirk Winterthur"},"canton":{"key":"1","code":"ZH","name":"Zürich"},"status":"Real"},{"key":"10108951","name":"Bergstrasse","postalCode":"8418","locality":"Schlatt ZH","commune":{"key":"226","name":"Schlatt (ZH)","shortName":"Schlatt (ZH)"},"district":{"key":"110","name":"Bezirk Winterthur"},"canton":{"key":"1","code":"ZH","name":"Zürich"},"status":"Real"},{"key":"10142784","name":"Bettliweg","postalCode":"8418","locality":"Schlatt ZH","commune":{"key":"226","name":"Schlatt (ZH)","shortName":"Schlatt (ZH)"},"district":{"key":"110","name":"Bezirk Winterthur"},"canton":{"key":"1","code":"ZH","name":"Zürich"},"status":"Real"},{"key":"10245422","name":"Bolsternbachweg","postalCode":"8418","locality":"Schlatt ZH","commune":{"key":"226","name":"Schlatt (ZH)","shortName":"Schlatt (ZH)"},"district":{"key":"110","name":"Bezirk Winterthur"},"canton":{"key":"1","code":"ZH","name":"Zürich"},"status":"Real"},{"key":"10126506","name":"Bömertstrasse","postalCode":"8418","locality":"Schlatt ZH","commune":{"key":"226","name":"Schlatt (ZH)","shortName":"Schlatt (ZH)"},"district":{"key":"110","name":"Bezirk Winterthur"},"canton":{"key":"1","code":"ZH","name":"Zürich"},"status":"Real"},{"key":"10126507","name":"Breitiweg","postalCode":"8418","locality":"Schlatt ZH","commune":{"key":"226","name":"Schlatt (ZH)","shortName":"Schlatt (ZH)"},"district":{"key":"110","name":"Bezirk Winterthur"},"canton":{"key":"1","code":"ZH","name":"Zürich"},"status":"Real"},{"key":"10126509","name":"Breitwisstrasse","postalCode":"8418","locality":"Schlatt ZH","commune":{"key":"226","name":"Schlatt (ZH)","shortName":"Schlatt (ZH)"},"district":{"key":"110","name":"Bezirk Winterthur"},"canton":{"key":"1","code":"ZH","name":"Zürich"},"status":"Real"},{"key":"10145191","name":"Bruggenstrasse","postalCode":"8418","locality":"Schlatt ZH","commune":{"key":"226","name":"Schlatt (ZH)","shortName":"Schlatt (ZH)"},"district":{"key":"110","name":"Bezirk Winterthur"},"canton":{"key":"1","code":"ZH","name":"Zürich"},"status":"Real"},{"key":"10142788","name":"Brügglerweg","postalCode":"8418","locality":"Schlatt ZH","commune":{"key":"226","name":"Schlatt (ZH)","shortName":"Schlatt (ZH)"},"district":{"key":"110","name":"Bezirk Winterthur"},"canton":{"key":"1","code":"ZH","name":"Zürich"},"status":"Real"},{"key":"10142790","name":"Buechacherweg","postalCode":"8418","locality":"Schlatt ZH","commune":{"key":"226","name":"Schlatt (ZH)","shortName":"Schlatt (ZH)"},"district":{"key":"110","name":"Bezirk Winterthur"},"canton":{"key":"1","code":"ZH","name":"Zürich"},"status":"Real"},{"key":"10126511","name":"Buechholzweg","postalCode":"8418","locality":"Schlatt ZH","commune":{"key":"226","name":"Schlatt (ZH)","shortName":"Schlatt (ZH)"},"district":{"key":"110","name":"Bezirk Winterthur"},"canton":{"key":"1","code":"ZH","name":"Zürich"},"status":"Real"},{"key":"10142792","name":"Büelstrasse","postalCode":"8418","locality":"Schlatt ZH","commune":{"key":"226","name":"Schlatt (ZH)","shortName":"Schlatt (ZH)"},"district":{"key":"110","name":"Bezirk Winterthur"},"canton":{"key":"1","code":"ZH","name":"Zürich"},"status":"Real"},{"key":"10142794","name":"Burgebniweg","postalCode":"8418","locality":"Schlatt ZH","commune":{"key":"226","name":"Schlatt (ZH)","shortName":"Schlatt (ZH)"},"district":{"key":"110","name":"Bezirk Winterthur"},"canton":{"key":"1","code":"ZH","name":"Zürich"},"status":"Real"},{"key":"10142796","name":"Burghaldenstrasse","postalCode":"8418","locality":"Schlatt ZH","commune":{"key":"226","name":"Schlatt (ZH)","shortName":"Schlatt (ZH)"},"district":{"key":"110","name":"Bezirk Winterthur"},"canton":{"key":"1","code":"ZH","name":"Zürich"},"status":"Real"},{"key":"10126513","name":"Chalchenrainweg","postalCode":"8418","locality":"Schlatt ZH","commune":{"key":"226","name":"Schlatt (ZH)","shortName":"Schlatt (ZH)"},"district":{"key":"110","name":"Bezirk Winterthur"},"canton":{"key":"1","code":"ZH","name":"Zürich"},"status":"Real"},{"key":"10142797","name":"Chalchweg","postalCode":"8418","locality":"Schlatt ZH","commune":{"key":"226","name":"Schlatt (ZH)","shortName":"Schlatt (ZH)"},"district":{"key":"110","name":"Bezirk Winterthur"},"canton":{"key":"1","code":"ZH","name":"Zürich"},"status":"Real"},{"key":"10160664","name":"Chälenrainstrasse","postalCode":"8418","locality":"Schlatt ZH","commune":{"key":"226","name":"Schlatt (ZH)","shortName":"Schlatt (ZH)"},"district":{"key":"110","name":"Bezirk Winterthur"},"canton":{"key":"1","code":"ZH","name":"Zürich"},"status":"Real"},{"key":"10168553","name":"Chilenrainweg","postalCode":"8418","locality":"Schlatt ZH","commune":{"key":"226","name":"Schlatt (ZH)","shortName":"Schlatt (ZH)"},"district":{"key":"110","name":"Bezirk Winterthur"},"canton":{"key":"1","code":"ZH","name":"Zürich"},"status":"Real"},{"key":"10126689","name":"Cholrütistrasse","postalCode":"8418","locality":"Schlatt ZH","commune":{"key":"226","name":"Schlatt (ZH)","shortName":"Schlatt (ZH)"},"district":{"key":"110","name":"Bezirk Winterthur"},"canton":{"key":"1","code":"ZH","name":"Zürich"},"status":"Real"},{"key":"10126692","name":"Chrummenacherstrasse","postalCode":"8418","locality":"Schlatt ZH","commune":{"key":"226","name":"Schlatt (ZH)","shortName":"Schlatt (ZH)"},"district":{"key":"110","name":"Bezirk Winterthur"},"canton":{"key":"1","code":"ZH","name":"Zürich"},"status":"Real"},{"key":"10126694","name":"Dumenspitzweg","postalCode":"8418","locality":"Schlatt ZH","commune":{"key":"226","name":"Schlatt (ZH)","shortName":"Schlatt (ZH)"},"district":{"key":"110","name":"Bezirk Winterthur"},"canton":{"key":"1","code":"ZH","name":"Zürich"},"status":"Real"},{"key":"10126696","name":"Eichbüelstrasse","postalCode":"8418","locality":"Schlatt ZH","commune":{"key":"226","name":"Schlatt (ZH)","shortName":"Schlatt (ZH)"},"district":{"key":"110","name":"Bezirk Winterthur"},"canton":{"key":"1","code":"ZH","name":"Zürich"},"status":"Real"},{"key":"10142799","name":"Eichbüelweg","postalCode":"8418","locality":"Schlatt ZH","commune":{"key":"226","name":"Schlatt (ZH)","shortName":"Schlatt (ZH)"},"district":{"key":"110","name":"Bezirk Winterthur"},"canton":{"key":"1","code":"ZH","name":"Zürich"},"status":"Real"},{"key":"10142800","name":"Eichholzstrasse","postalCode":"8418","locality":"Schlatt ZH","commune":{"key":"226","name":"Schlatt (ZH)","shortName":"Schlatt (ZH)"},"district":{"key":"110","name":"Bezirk Winterthur"},"canton":{"key":"1","code":"ZH","name":"Zürich"},"status":"Real"},{"key":"10159888","name":"Elggerstrasse","postalCode":"8418","locality":"Schlatt ZH","commune":{"key":"226","name":"Schlatt (ZH)","shortName":"Schlatt (ZH)"},"district":{"key":"110","name":"Bezirk Winterthur"},"canton":{"key":"1","code":"ZH","name":"Zürich"},"status":"Real"},{"key":"10145195","name":"Eulachstrasse","postalCode":"8418","locality":"Schlatt ZH","commune":{"key":"226","name":"Schlatt (ZH)","shortName":"Schlatt (ZH)"},"district":{"key":"110","name":"Bezirk Winterthur"},"canton":{"key":"1","code":"ZH","name":"Zürich"},"status":"Real"},{"key":"10211341","name":"Fridtalstrasse","postalCode":"8418","locality":"Schlatt ZH","commune":{"key":"226","name":"Schlatt (ZH)","shortName":"Schlatt (ZH)"},"district":{"key":"110","name":"Bezirk Winterthur"},"canton":{"key":"1","code":"ZH","name":"Zürich"},"status":"Real"},{"key":"10159890","name":"Fridtalweg","postalCode":"8418","locality":"Schlatt ZH","commune":{"key":"226","name":"Schlatt (ZH)","shortName":"Schlatt (ZH)"},"district":{"key":"110","name":"Bezirk Winterthur"},"canton":{"key":"1","code":"ZH","name":"Zürich"},"status":"Real"},{"key":"10145196","name":"Fuchshaldenweg","postalCode":"8418","locality":"Schlatt ZH","commune":{"key":"226","name":"Schlatt (ZH)","shortName":"Schlatt (ZH)"},"district":{"key":"110","name":"Bezirk Winterthur"},"canton":{"key":"1","code":"ZH","name":"Zürich"},"status":"Real"},{"key":"10148445","name":"Funkenbüelweg","postalCode":"8418","locality":"Schlatt ZH","commune":{"key":"226","name":"Schlatt (ZH)","shortName":"Schlatt (ZH)"},"district":{"key":"110","name":"Bezirk Winterthur"},"canton":{"key":"1","code":"ZH","name":"Zürich"},"status":"Real"},{"key":"10133607","name":"Geerenweg","postalCode":"8418","locality":"Schlatt ZH","commune":{"key":"226","name":"Schlatt (ZH)","shortName":"Schlatt (ZH)"},"district":{"key":"110","name":"Bezirk Winterthur"},"canton":{"key":"1","code":"ZH","name":"Zürich"},"status":"Real"},{"key":"10160665","name":"Girenbadstrasse","postalCode":"8418","locality":"Schlatt ZH","commune":{"key":"226","name":"Schlatt (ZH)","shortName":"Schlatt (ZH)"},"district":{"key":"110","name":"Bezirk Winterthur"},"canton":{"key":"1","code":"ZH","name":"Zürich"},"status":"Real"},{"key":"10148447","name":"Grundstrasse","postalCode":"8418","locality":"Schlatt ZH","commune":{"key":"226","name":"Schlatt (ZH)","shortName":"Schlatt (ZH)"},"district":{"key":"110","name":"Bezirk Winterthur"},"canton":{"key":"1","code":"ZH","name":"Zürich"},"status":"Real"},{"key":"10145198","name":"Hagenacherstrasse","postalCode":"8418","locality":"Schlatt ZH","commune":{"key":"226","name":"Schlatt (ZH)","shortName":"Schlatt (ZH)"},"district":{"key":"110","name":"Bezirk Winterthur"},"canton":{"key":"1","code":"ZH","name":"Zürich"},"status":"Real"},{"key":"10160668","name":"Haldenstrasse","postalCode":"8418","locality":"Schlatt ZH","commune":{"key":"226","name":"Schlatt (ZH)","shortName":"Schlatt (ZH)"},"district":{"key":"110","name":"Bezirk Winterthur"},"canton":{"key":"1","code":"ZH","name":"Zürich"},"status":"Real"},{"key":"10142802","name":"Handweg","postalCode":"8418","locality":"Schlatt ZH","commune":{"key":"226","name":"Schlatt (ZH)","shortName":"Schlatt (ZH)"},"district":{"key":"110","name":"Bezirk Winterthur"},"canton":{"key":"1","code":"ZH","name":"Zürich"},"status":"Real"},{"key":"10142224","name":"Hardbuckweg","postalCode":"8418","locality":"Schlatt ZH","commune":{"key":"226","name":"Schlatt (ZH)","shortName":"Schlatt (ZH)"},"district":{"key":"110","name":"Bezirk Winterthur"},"canton":{"key":"1","code":"ZH","name":"Zürich"},"status":"Real"},{"key":"10133608","name":"Hardholzstrasse","postalCode":"8418","locality":"Schlatt ZH","commune":{"key":"226","name":"Schlatt (ZH)","shortName":"Schlatt (ZH)"},"district":{"key":"110","name":"Bezirk Winterthur"},"canton":{"key":"1","code":"ZH","name":"Zürich"},"status":"Real"},{"key":"10160669","name":"Hardstrasse","postalCode":"8418","locality":"Schlatt ZH","commune":{"key":"226","name":"Schlatt (ZH)","shortName":"Schlatt (ZH)"},"district":{"key":"110","name":"Bezirk Winterthur"},"canton":{"key":"1","code":"ZH","name":"Zürich"},"status":"Real"},{"key":"10018988","name":"Heitertalstrasse","postalCode":"8418","locality":"Schlatt ZH","commune":{"key":"226","name":"Schlatt (ZH)","shortName":"Schlatt (ZH)"},"district":{"key":"110","name":"Bezirk Winterthur"},"canton":{"key":"1","code":"ZH","name":"Zürich"},"status":"Real"},{"key":"10148448","name":"Hinterer Weierholzweg","postalCode":"8418","locality":"Schlatt ZH","commune":{"key":"226","name":"Schlatt (ZH)","shortName":"Schlatt (ZH)"},"district":{"key":"110","name":"Bezirk Winterthur"},"canton":{"key":"1","code":"ZH","name":"Zürich"},"status":"Real"},{"key":"10142803","name":"Höchholzsackgasse","postalCode":"8418","locality":"Schlatt ZH","commune":{"key":"226","name":"Schlatt (ZH)","shortName":"Schlatt (ZH)"},"district":{"key":"110","name":"Bezirk Winterthur"},"canton":{"key":"1","code":"ZH","name":"Zürich"},"status":"Real"},{"key":"10142805","name":"Höchholzstrasse","postalCode":"8418","locality":"Schlatt ZH","commune":{"key":"226","name":"Schlatt (ZH)","shortName":"Schlatt (ZH)"},"district":{"key":"110","name":"Bezirk Winterthur"},"canton":{"key":"1","code":"ZH","name":"Zürich"},"status":"Real"},{"key":"10145200","name":"Hodlerweg","postalCode":"8418","locality":"Schlatt ZH","commune":{"key":"226","name":"Schlatt (ZH)","shortName":"Schlatt (ZH)"},"district":{"key":"110","name":"Bezirk Winterthur"},"canton":{"key":"1","code":"ZH","name":"Zürich"},"status":"Real"},{"key":"10163461","name":"Hofstetterstrasse","postalCode":"8418","locality":"Schlatt ZH","commune":{"key":"226","name":"Schlatt (ZH)","shortName":"Schlatt (ZH)"},"district":{"key":"110","name":"Bezirk Winterthur"},"canton":{"key":"1","code":"ZH","name":"Zürich"},"status":"Real"},{"key":"10148450","name":"Hofwisstrasse","postalCode":"8418","locality":"Schlatt ZH","commune":{"key":"226","name":"Schlatt (ZH)","shortName":"Schlatt (ZH)"},"district":{"key":"110","name":"Bezirk Winterthur"},"canton":{"key":"1","code":"ZH","name":"Zürich"},"status":"Real"},{"key":"10145202","name":"Holzmöttiweg","postalCode":"8418","locality":"Schlatt ZH","commune":{"key":"226","name":"Schlatt (ZH)","shortName":"Schlatt (ZH)"},"district":{"key":"110","name":"Bezirk Winterthur"},"canton":{"key":"1","code":"ZH","name":"Zürich"},"status":"Real"},{"key":"10145203","name":"Horainweg","postalCode":"8418","locality":"Schlatt ZH","commune":{"key":"226","name":"Schlatt (ZH)","shortName":"Schlatt (ZH)"},"district":{"key":"110","name":"Bezirk Winterthur"},"canton":{"key":"1","code":"ZH","name":"Zürich"},"status":"Real"},{"key":"10163464","name":"Hörenstrasse","postalCode":"8418","locality":"Schlatt ZH","commune":{"key":"226","name":"Schlatt (ZH)","shortName":"Schlatt (ZH)"},"district":{"key":"110","name":"Bezirk Winterthur"},"canton":{"key":"1","code":"ZH","name":"Zürich"},"status":"Real"},{"key":"10133609","name":"Hulmenweg","postalCode":"8418","locality":"Schlatt ZH","commune":{"key":"226","name":"Schlatt (ZH)","shortName":"Schlatt (ZH)"},"district":{"key":"110","name":"Bezirk Winterthur"},"canton":{"key":"1","code":"ZH","name":"Zürich"},"status":"Real"},{"key":"10168556","name":"Hüttenstrasse","postalCode":"8418","locality":"Schlatt ZH","commune":{"key":"226","name":"Schlatt (ZH)","shortName":"Schlatt (ZH)"},"district":{"key":"110","name":"Bezirk Winterthur"},"canton":{"key":"1","code":"ZH","name":"Zürich"},"status":"Real"},{"key":"10133610","name":"Hüttenwisenweg","postalCode":"8418","locality":"Schlatt ZH","commune":{"key":"226","name":"Schlatt (ZH)","shortName":"Schlatt (ZH)"},"district":{"key":"110","name":"Bezirk Winterthur"},"canton":{"key":"1","code":"ZH","name":"Zürich"},"status":"Real"},{"key":"10159889","name":"I de Grueb","postalCode":"8418","locality":"Schlatt ZH","commune":{"key":"226","name":"Schlatt (ZH)","shortName":"Schlatt (ZH)"},"district":{"key":"110","name":"Bezirk Winterthur"},"canton":{"key":"1","code":"ZH","name":"Zürich"},"status":"Real"},{"key":"10163462","name":"Im Cholgarten","postalCode":"8418","locality":"Schlatt ZH","commune":{"key":"226","name":"Schlatt (ZH)","shortName":"Schlatt (ZH)"},"district":{"key":"110","name":"Bezirk Winterthur"},"canton":{"key":"1","code":"ZH","name":"Zürich"},"status":"Real"},{"key":"10248509","name":"Im Lätten","postalCode":"8418","locality":"Schlatt ZH","commune":{"key":"226","name":"Schlatt (ZH)","shortName":"Schlatt (ZH)"},"district":{"key":"110","name":"Bezirk Winterthur"},"canton":{"key":"1","code":"ZH","name":"Zürich"},"status":"Real"},{"key":"10142227","name":"Im Riet","postalCode":"8418","locality":"Schlatt ZH","commune":{"key":"226","name":"Schlatt (ZH)","shortName":"Schlatt (ZH)"},"district":{"key":"110","name":"Bezirk Winterthur"},"canton":{"key":"1","code":"ZH","name":"Zürich"},"status":"Real"},{"key":"10160708","name":"Im Schüracher","postalCode":"8418","locality":"Schlatt ZH","commune":{"key":"226","name":"Schlatt (ZH)","shortName":"Schlatt (ZH)"},"district":{"key":"110","name":"Bezirk Winterthur"},"canton":{"key":"1","code":"ZH","name":"Zürich"},"status":"Real"},{"key":"10159891","name":"In der Säge","postalCode":"8418","locality":"Schlatt ZH","commune":{"key":"226","name":"Schlatt (ZH)","shortName":"Schlatt (ZH)"},"district":{"key":"110","name":"Bezirk Winterthur"},"canton":{"key":"1","code":"ZH","name":"Zürich"},"status":"Real"},{"key":"10211342","name":"Jakobstalstrasse","postalCode":"8418","locality":"Schlatt ZH","commune":{"key":"226","name":"Schlatt (ZH)","shortName":"Schlatt (ZH)"},"district":{"key":"110","name":"Bezirk Winterthur"},"canton":{"key":"1","code":"ZH","name":"Zürich"},"status":"Real"},{"key":"10160709","name":"Johannestal","postalCode":"8418","locality":"Schlatt ZH","commune":{"key":"226","name":"Schlatt (ZH)","shortName":"Schlatt (ZH)"},"district":{"key":"110","name":"Bezirk Winterthur"},"canton":{"key":"1","code":"ZH","name":"Zürich"},"status":"Real"},{"key":"10184061","name":"Kanzleistrasse","postalCode":"8418","locality":"Schlatt ZH","commune":{"key":"226","name":"Schlatt (ZH)","shortName":"Schlatt (ZH)"},"district":{"key":"110","name":"Bezirk Winterthur"},"canton":{"key":"1","code":"ZH","name":"Zürich"},"status":"Real"},{"key":"10018989","name":"Kirchgasse","postalCode":"8418","locality":"Schlatt ZH","commune":{"key":"226","name":"Schlatt (ZH)","shortName":"Schlatt (ZH)"},"district":{"key":"110","name":"Bezirk Winterthur"},"canton":{"key":"1","code":"ZH","name":"Zürich"},"status":"Real"},{"key":"10161315","name":"Kollbrunnerstrasse","postalCode":"8418","locality":"Schlatt ZH","commune":{"key":"226","name":"Schlatt (ZH)","shortName":"Schlatt (ZH)"},"district":{"key":"110","name":"Bezirk Winterthur"},"canton":{"key":"1","code":"ZH","name":"Zürich"},"status":"Real"},{"key":"10133612","name":"Lättenweg","postalCode":"8418","locality":"Schlatt ZH","commune":{"key":"226","name":"Schlatt (ZH)","shortName":"Schlatt (ZH)"},"district":{"key":"110","name":"Bezirk Winterthur"},"canton":{"key":"1","code":"ZH","name":"Zürich"},"status":"Real"},{"key":"10160702","name":"Lisihaldenweg","postalCode":"8418","locality":"Schlatt ZH","commune":{"key":"226","name":"Schlatt (ZH)","shortName":"Schlatt (ZH)"},"district":{"key":"110","name":"Bezirk Winterthur"},"canton":{"key":"1","code":"ZH","name":"Zürich"},"status":"Real"},{"key":"10133613","name":"Lochholzweg","postalCode":"8418","locality":"Schlatt ZH","commune":{"key":"226","name":"Schlatt (ZH)","shortName":"Schlatt (ZH)"},"district":{"key":"110","name":"Bezirk Winterthur"},"canton":{"key":"1","code":"ZH","name":"Zürich"},"status":"Real"},{"key":"10160671","name":"Lucketenstrasse","postalCode":"8418","locality":"Schlatt ZH","commune":{"key":"226","name":"Schlatt (ZH)","shortName":"Schlatt (ZH)"},"district":{"key":"110","name":"Bezirk Winterthur"},"canton":{"key":"1","code":"ZH","name":"Zürich"},"status":"Real"},{"key":"10133614","name":"Mittelholzstrasse","postalCode":"8418","locality":"Schlatt ZH","commune":{"key":"226","name":"Schlatt (ZH)","shortName":"Schlatt (ZH)"},"district":{"key":"110","name":"Bezirk Winterthur"},"canton":{"key":"1","code":"ZH","name":"Zürich"},"status":"Real"},{"key":"10148508","name":"Möserenweg","postalCode":"8418","locality":"Schlatt ZH","commune":{"key":"226","name":"Schlatt (ZH)","shortName":"Schlatt (ZH)"},"district":{"key":"110","name":"Bezirk Winterthur"},"canton":{"key":"1","code":"ZH","name":"Zürich"},"status":"Real"},{"key":"10160703","name":"Mösliweg","postalCode":"8418","locality":"Schlatt ZH","commune":{"key":"226","name":"Schlatt (ZH)","shortName":"Schlatt (ZH)"},"district":{"key":"110","name":"Bezirk Winterthur"},"canton":{"key":"1","code":"ZH","name":"Zürich"},"status":"Real"},{"key":"10163463","name":"Mühlestrasse","postalCode":"8418","locality":"Schlatt ZH","commune":{"key":"226","name":"Schlatt (ZH)","shortName":"Schlatt (ZH)"},"district":{"key":"110","name":"Bezirk Winterthur"},"canton":{"key":"1","code":"ZH","name":"Zürich"},"status":"Real"},{"key":"10127236","name":"Nässwisstrasse","postalCode":"8418","locality":"Schlatt ZH","commune":{"key":"226","name":"Schlatt (ZH)","shortName":"Schlatt (ZH)"},"district":{"key":"110","name":"Bezirk Winterthur"},"canton":{"key":"1","code":"ZH","name":"Zürich"},"status":"Real"},{"key":"10142226","name":"Obere Herstelstrasse","postalCode":"8418","locality":"Schlatt ZH","commune":{"key":"226","name":"Schlatt (ZH)","shortName":"Schlatt (ZH)"},"district":{"key":"110","name":"Bezirk Winterthur"},"canton":{"key":"1","code":"ZH","name":"Zürich"},"status":"Real"},{"key":"10160704","name":"Oberschlatterstrasse","postalCode":"8418","locality":"Schlatt ZH","commune":{"key":"226","name":"Schlatt (ZH)","shortName":"Schlatt (ZH)"},"district":{"key":"110","name":"Bezirk Winterthur"},"canton":{"key":"1","code":"ZH","name":"Zürich"},"status":"Real"},{"key":"10168555","name":"Rappisfelsenweg","postalCode":"8418","locality":"Schlatt ZH","commune":{"key":"226","name":"Schlatt (ZH)","shortName":"Schlatt (ZH)"},"district":{"key":"110","name":"Bezirk Winterthur"},"canton":{"key":"1","code":"ZH","name":"Zürich"},"status":"Real"},{"key":"10019256","name":"Räterschenstrasse","postalCode":"8418","locality":"Schlatt ZH","commune":{"key":"226","name":"Schlatt (ZH)","shortName":"Schlatt (ZH)"},"district":{"key":"110","name":"Bezirk Winterthur"},"canton":{"key":"1","code":"ZH","name":"Zürich"},"status":"Real"},{"key":"10145211","name":"Rebbergstrasse","postalCode":"8418","locality":"Schlatt ZH","commune":{"key":"226","name":"Schlatt (ZH)","shortName":"Schlatt (ZH)"},"district":{"key":"110","name":"Bezirk Winterthur"},"canton":{"key":"1","code":"ZH","name":"Zürich"},"status":"Real"},{"key":"10211340","name":"Ricketwilerstrasse","postalCode":"8418","locality":"Schlatt ZH","commune":{"key":"226","name":"Schlatt (ZH)","shortName":"Schlatt (ZH)"},"district":{"key":"110","name":"Bezirk Winterthur"},"canton":{"key":"1","code":"ZH","name":"Zürich"},"status":"Real"},{"key":"10145212","name":"Röhrlirainweg","postalCode":"8418","locality":"Schlatt ZH","commune":{"key":"226","name":"Schlatt (ZH)","shortName":"Schlatt (ZH)"},"district":{"key":"110","name":"Bezirk Winterthur"},"canton":{"key":"1","code":"ZH","name":"Zürich"},"status":"Real"},{"key":"10126713","name":"Röhrlistrasse","postalCode":"8418","locality":"Schlatt ZH","commune":{"key":"226","name":"Schlatt (ZH)","shortName":"Schlatt (ZH)"},"district":{"key":"110","name":"Bezirk Winterthur"},"canton":{"key":"1","code":"ZH","name":"Zürich"},"status":"Real"},{"key":"10127241","name":"Röhrlitobelweg","postalCode":"8418","locality":"Schlatt ZH","commune":{"key":"226","name":"Schlatt (ZH)","shortName":"Schlatt (ZH)"},"district":{"key":"110","name":"Bezirk Winterthur"},"canton":{"key":"1","code":"ZH","name":"Zürich"},"status":"Real"},{"key":"10160705","name":"Rosengartenstrasse","postalCode":"8418","locality":"Schlatt ZH","commune":{"key":"226","name":"Schlatt (ZH)","shortName":"Schlatt (ZH)"},"district":{"key":"110","name":"Bezirk Winterthur"},"canton":{"key":"1","code":"ZH","name":"Zürich"},"status":"Real"},{"key":"10182159","name":"Rüteren","postalCode":"8418","locality":"Schlatt ZH","commune":{"key":"226","name":"Schlatt (ZH)","shortName":"Schlatt (ZH)"},"district":{"key":"110","name":"Bezirk Winterthur"},"canton":{"key":"1","code":"ZH","name":"Zürich"},"status":"Real"},{"key":"10168559","name":"Schäferstrasse","postalCode":"8418","locality":"Schlatt ZH","commune":{"key":"226","name":"Schlatt (ZH)","shortName":"Schlatt (ZH)"},"district":{"key":"110","name":"Bezirk Winterthur"},"canton":{"key":"1","code":"ZH","name":"Zürich"},"status":"Real"},{"key":"10127243","name":"Schauenbergstrasse","postalCode":"8418","locality":"Schlatt ZH","commune":{"key":"226","name":"Schlatt (ZH)","shortName":"Schlatt (ZH)"},"district":{"key":"110","name":"Bezirk Winterthur"},"canton":{"key":"1","code":"ZH","name":"Zürich"},"status":"Real"},{"key":"10133620","name":"Schauenbergweg","postalCode":"8418","locality":"Schlatt ZH","commune":{"key":"226","name":"Schlatt (ZH)","shortName":"Schlatt (ZH)"},"district":{"key":"110","name":"Bezirk Winterthur"},"canton":{"key":"1","code":"ZH","name":"Zürich"},"status":"Real"},{"key":"10126715","name":"Scheunbergstrasse","postalCode":"8418","locality":"Schlatt ZH","commune":{"key":"226","name":"Schlatt (ZH)","shortName":"Schlatt (ZH)"},"district":{"key":"110","name":"Bezirk Winterthur"},"canton":{"key":"1","code":"ZH","name":"Zürich"},"status":"Real"},{"key":"10163465","name":"Schiristrasse","postalCode":"8418","locality":"Schlatt ZH","commune":{"key":"226","name":"Schlatt (ZH)","shortName":"Schlatt (ZH)"},"district":{"key":"110","name":"Bezirk Winterthur"},"canton":{"key":"1","code":"ZH","name":"Zürich"},"status":"Real"},{"key":"10153344","name":"Schmiedgasse","postalCode":"8418","locality":"Schlatt ZH","commune":{"key":"226","name":"Schlatt (ZH)","shortName":"Schlatt (ZH)"},"district":{"key":"110","name":"Bezirk Winterthur"},"canton":{"key":"1","code":"ZH","name":"Zürich"},"status":"Real"},{"key":"10127246","name":"Schuelwisweg","postalCode":"8418","locality":"Schlatt ZH","commune":{"key":"226","name":"Schlatt (ZH)","shortName":"Schlatt (ZH)"},"district":{"key":"110","name":"Bezirk Winterthur"},"canton":{"key":"1","code":"ZH","name":"Zürich"},"status":"Real"},{"key":"10160672","name":"Schützenhausstrasse","postalCode":"8418","locality":"Schlatt ZH","commune":{"key":"226","name":"Schlatt (ZH)","shortName":"Schlatt (ZH)"},"district":{"key":"110","name":"Bezirk Winterthur"},"canton":{"key":"1","code":"ZH","name":"Zürich"},"status":"Real"},{"key":"10120788","name":"Schwändi","postalCode":"8418","locality":"Schlatt ZH","commune":{"key":"226","name":"Schlatt (ZH)","shortName":"Schlatt (ZH)"},"district":{"key":"110","name":"Bezirk Winterthur"},"canton":{"key":"1","code":"ZH","name":"Zürich"},"status":"Real"},{"key":"10127248","name":"Schwändihofstrasse","postalCode":"8418","locality":"Schlatt ZH","commune":{"key":"226","name":"Schlatt (ZH)","shortName":"Schlatt (ZH)"},"district":{"key":"110","name":"Bezirk Winterthur"},"canton":{"key":"1","code":"ZH","name":"Zürich"},"status":"Real"},{"key":"10148511","name":"Schwändiholzweg","postalCode":"8418","locality":"Schlatt ZH","commune":{"key":"226","name":"Schlatt (ZH)","shortName":"Schlatt (ZH)"},"district":{"key":"110","name":"Bezirk Winterthur"},"canton":{"key":"1","code":"ZH","name":"Zürich"},"status":"Real"},{"key":"10160706","name":"Schwimmbadstrasse","postalCode":"8418","locality":"Schlatt ZH","commune":{"key":"226","name":"Schlatt (ZH)","shortName":"Schlatt (ZH)"},"district":{"key":"110","name":"Bezirk Winterthur"},"canton":{"key":"1","code":"ZH","name":"Zürich"},"status":"Real"},{"key":"10126718","name":"Speckstrasse","postalCode":"8418","locality":"Schlatt ZH","commune":{"key":"226","name":"Schlatt (ZH)","shortName":"Schlatt (ZH)"},"district":{"key":"110","name":"Bezirk Winterthur"},"canton":{"key":"1","code":"ZH","name":"Zürich"},"status":"Real"},{"key":"10127250","name":"Spötelacherstrasse","postalCode":"8418","locality":"Schlatt ZH","commune":{"key":"226","name":"Schlatt (ZH)","shortName":"Schlatt (ZH)"},"district":{"key":"110","name":"Bezirk Winterthur"},"canton":{"key":"1","code":"ZH","name":"Zürich"},"status":"Real"},{"key":"10127253","name":"Spreitenbüelweg","postalCode":"8418","locality":"Schlatt ZH","commune":{"key":"226","name":"Schlatt (ZH)","shortName":"Schlatt (ZH)"},"district":{"key":"110","name":"Bezirk Winterthur"},"canton":{"key":"1","code":"ZH","name":"Zürich"},"status":"Real"},{"key":"10127255","name":"Steigenweg","postalCode":"8418","locality":"Schlatt ZH","commune":{"key":"226","name":"Schlatt (ZH)","shortName":"Schlatt (ZH)"},"district":{"key":"110","name":"Bezirk Winterthur"},"canton":{"key":"1","code":"ZH","name":"Zürich"},"status":"Real"},{"key":"10008558","name":"Steiggasse","postalCode":"8418","locality":"Schlatt ZH","commune":{"key":"226","name":"Schlatt (ZH)","shortName":"Schlatt (ZH)"},"district":{"key":"110","name":"Bezirk Winterthur"},"canton":{"key":"1","code":"ZH","name":"Zürich"},"status":"Real"},{"key":"10127258","name":"Stigelacherweg","postalCode":"8418","locality":"Schlatt ZH","commune":{"key":"226","name":"Schlatt (ZH)","shortName":"Schlatt (ZH)"},"district":{"key":"110","name":"Bezirk Winterthur"},"canton":{"key":"1","code":"ZH","name":"Zürich"},"status":"Real"},{"key":"10127260","name":"Stockrütiweg","postalCode":"8418","locality":"Schlatt ZH","commune":{"key":"226","name":"Schlatt (ZH)","shortName":"Schlatt (ZH)"},"district":{"key":"110","name":"Bezirk Winterthur"},"canton":{"key":"1","code":"ZH","name":"Zürich"},"status":"Real"},{"key":"10008559","name":"Strick","postalCode":"8418","locality":"Schlatt ZH","commune":{"key":"226","name":"Schlatt (ZH)","shortName":"Schlatt (ZH)"},"district":{"key":"110","name":"Bezirk Winterthur"},"canton":{"key":"1","code":"ZH","name":"Zürich"},"status":"Real"},{"key":"10127263","name":"Stücklerstrasse","postalCode":"8418","locality":"Schlatt ZH","commune":{"key":"226","name":"Schlatt (ZH)","shortName":"Schlatt (ZH)"},"district":{"key":"110","name":"Bezirk Winterthur"},"canton":{"key":"1","code":"ZH","name":"Zürich"},"status":"Real"},{"key":"10127266","name":"Stuckstrasse","postalCode":"8418","locality":"Schlatt ZH","commune":{"key":"226","name":"Schlatt (ZH)","shortName":"Schlatt (ZH)"},"district":{"key":"110","name":"Bezirk Winterthur"},"canton":{"key":"1","code":"ZH","name":"Zürich"},"status":"Real"},{"key":"10168558","name":"Talbachstrasse","postalCode":"8418","locality":"Schlatt ZH","commune":{"key":"226","name":"Schlatt (ZH)","shortName":"Schlatt (ZH)"},"district":{"key":"110","name":"Bezirk Winterthur"},"canton":{"key":"1","code":"ZH","name":"Zürich"},"status":"Real"},{"key":"10127268","name":"Tälenholzweg","postalCode":"8418","locality":"Schlatt ZH","commune":{"key":"226","name":"Schlatt (ZH)","shortName":"Schlatt (ZH)"},"district":{"key":"110","name":"Bezirk Winterthur"},"canton":{"key":"1","code":"ZH","name":"Zürich"},"status":"Real"},{"key":"10148517","name":"Tannenmoosweg","postalCode":"8418","locality":"Schlatt ZH","commune":{"key":"226","name":"Schlatt (ZH)","shortName":"Schlatt (ZH)"},"district":{"key":"110","name":"Bezirk Winterthur"},"canton":{"key":"1","code":"ZH","name":"Zürich"},"status":"Real"},{"key":"10148520","name":"Trottenbüelweg","postalCode":"8418","locality":"Schlatt ZH","commune":{"key":"226","name":"Schlatt (ZH)","shortName":"Schlatt (ZH)"},"district":{"key":"110","name":"Bezirk Winterthur"},"canton":{"key":"1","code":"ZH","name":"Zürich"},"status":"Real"},{"key":"10160707","name":"Tüebberg","postalCode":"8418","locality":"Schlatt ZH","commune":{"key":"226","name":"Schlatt (ZH)","shortName":"Schlatt (ZH)"},"district":{"key":"110","name":"Bezirk Winterthur"},"canton":{"key":"1","code":"ZH","name":"Zürich"},"status":"Real"},{"key":"10148523","name":"Tüebbergebniweg","postalCode":"8418","locality":"Schlatt ZH","commune":{"key":"226","name":"Schlatt (ZH)","shortName":"Schlatt (ZH)"},"district":{"key":"110","name":"Bezirk Winterthur"},"canton":{"key":"1","code":"ZH","name":"Zürich"},"status":"Real"},{"key":"10127269","name":"Tüebbergstrasse","postalCode":"8418","locality":"Schlatt ZH","commune":{"key":"226","name":"Schlatt (ZH)","shortName":"Schlatt (ZH)"},"district":{"key":"110","name":"Bezirk Winterthur"},"canton":{"key":"1","code":"ZH","name":"Zürich"},"status":"Real"},{"key":"10148525","name":"Tüelenacherweg","postalCode":"8418","locality":"Schlatt ZH","commune":{"key":"226","name":"Schlatt (ZH)","shortName":"Schlatt (ZH)"},"district":{"key":"110","name":"Bezirk Winterthur"},"canton":{"key":"1","code":"ZH","name":"Zürich"},"status":"Real"},{"key":"10148527","name":"Tüfelschilenweg","postalCode":"8418","locality":"Schlatt ZH","commune":{"key":"226","name":"Schlatt (ZH)","shortName":"Schlatt (ZH)"},"district":{"key":"110","name":"Bezirk Winterthur"},"canton":{"key":"1","code":"ZH","name":"Zürich"},"status":"Real"},{"key":"10148528","name":"Tutliweg","postalCode":"8418","locality":"Schlatt ZH","commune":{"key":"226","name":"Schlatt (ZH)","shortName":"Schlatt (ZH)"},"district":{"key":"110","name":"Bezirk Winterthur"},"canton":{"key":"1","code":"ZH","name":"Zürich"},"status":"Real"},{"key":"10019257","name":"Unterdorfstrasse","postalCode":"8418","locality":"Schlatt ZH","commune":{"key":"226","name":"Schlatt (ZH)","shortName":"Schlatt (ZH)"},"district":{"key":"110","name":"Bezirk Winterthur"},"canton":{"key":"1","code":"ZH","name":"Zürich"},"status":"Real"},{"key":"10168557","name":"Untere Herstelstrasse","postalCode":"8418","locality":"Schlatt ZH","commune":{"key":"226","name":"Schlatt (ZH)","shortName":"Schlatt (ZH)"},"district":{"key":"110","name":"Bezirk Winterthur"},"canton":{"key":"1","code":"ZH","name":"Zürich"},"status":"Real"},{"key":"10019258","name":"Unterschlatterstrasse","postalCode":"8418","locality":"Schlatt ZH","commune":{"key":"226","name":"Schlatt (ZH)","shortName":"Schlatt (ZH)"},"district":{"key":"110","name":"Bezirk Winterthur"},"canton":{"key":"1","code":"ZH","name":"Zürich"},"status":"Real"},{"key":"10112235","name":"Waltensteinerstrasse","postalCode":"8418","locality":"Schlatt ZH","commune":{"key":"226","name":"Schlatt (ZH)","shortName":"Schlatt (ZH)"},"district":{"key":"110","name":"Bezirk Winterthur"},"canton":{"key":"1","code":"ZH","name":"Zürich"},"status":"Real"},{"key":"10127271","name":"Weierholzweg","postalCode":"8418","locality":"Schlatt ZH","commune":{"key":"226","name":"Schlatt (ZH)","shortName":"Schlatt (ZH)"},"district":{"key":"110","name":"Bezirk Winterthur"},"canton":{"key":"1","code":"ZH","name":"Zürich"},"status":"Real"},{"key":"10127272","name":"Weierweg","postalCode":"8418","locality":"Schlatt ZH","commune":{"key":"226","name":"Schlatt (ZH)","shortName":"Schlatt (ZH)"},"district":{"key":"110","name":"Bezirk Winterthur"},"canton":{"key":"1","code":"ZH","name":"Zürich"},"status":"Real"},{"key":"10127273","name":"Widenmoosweg","postalCode":"8418","locality":"Schlatt ZH","commune":{"key":"226","name":"Schlatt (ZH)","shortName":"Schlatt (ZH)"},"district":{"key":"110","name":"Bezirk Winterthur"},"canton":{"key":"1","code":"ZH","name":"Zürich"},"status":"Real"},{"key":"10158150","name":"Winklen","postalCode":"8418","locality":"Schlatt ZH","commune":{"key":"226","name":"Schlatt (ZH)","shortName":"Schlatt (ZH)"},"district":{"key":"110","name":"Bezirk Winterthur"},"canton":{"key":"1","code":"ZH","name":"Zürich"},"status":"Real"},{"key":"10153723","name":"Zelglistrasse","postalCode":"8418","locality":"Schlatt ZH","commune":{"key":"226","name":"Schlatt (ZH)","shortName":"Schlatt (ZH)"},"district":{"key":"110","name":"Bezirk Winterthur"},"canton":{"key":"1","code":"ZH","name":"Zürich"},"status":"Real"},{"key":"10245423","name":"Züribergweg","postalCode":"8418","locality":"Schlatt ZH","commune":{"key":"226","name":"Schlatt (ZH)","shortName":"Schlatt (ZH)"},"district":{"key":"110","name":"Bezirk Winterthur"},"canton":{"key":"1","code":"ZH","name":"Zürich"},"status":"Real"},]