[{"name":"3-K-Weg","postalCode":"28816","locality":"Stuhr","municipality":{"key":"03251037","name":"Stuhr","type":"Kreisangehörige_Gemeinde"},"district":{"key":"03251","name":"Diepholz","type":"Landkreis"},"federalState":{"key":"03","name":"Niedersachsen"}},{"name":"Achterkampsweg","postalCode":"28816","locality":"Stuhr","municipality":{"key":"03251037","name":"Stuhr","type":"Kreisangehörige_Gemeinde"},"district":{"key":"03251","name":"Diepholz","type":"Landkreis"},"federalState":{"key":"03","name":"Niedersachsen"}},{"name":"Adolf-Kolping-Str.","postalCode":"28816","locality":"Stuhr","municipality":{"key":"03251037","name":"Stuhr","type":"Kreisangehörige_Gemeinde"},"district":{"key":"03251","name":"Diepholz","type":"Landkreis"},"federalState":{"key":"03","name":"Niedersachsen"}},{"name":"Agnes-Miegel-Str.","postalCode":"28816","locality":"Stuhr","municipality":{"key":"03251037","name":"Stuhr","type":"Kreisangehörige_Gemeinde"},"district":{"key":"03251","name":"Diepholz","type":"Landkreis"},"federalState":{"key":"03","name":"Niedersachsen"}},{"name":"Ahlhorner Weg","postalCode":"28816","locality":"Stuhr","municipality":{"key":"03251037","name":"Stuhr","type":"Kreisangehörige_Gemeinde"},"district":{"key":"03251","name":"Diepholz","type":"Landkreis"},"federalState":{"key":"03","name":"Niedersachsen"}},{"name":"Ahornweg","postalCode":"28816","locality":"Stuhr","municipality":{"key":"03251037","name":"Stuhr","type":"Kreisangehörige_Gemeinde"},"district":{"key":"03251","name":"Diepholz","type":"Landkreis"},"federalState":{"key":"03","name":"Niedersachsen"}},{"name":"Ahrstr.","postalCode":"28816","locality":"Stuhr","municipality":{"key":"03251037","name":"Stuhr","type":"Kreisangehörige_Gemeinde"},"district":{"key":"03251","name":"Diepholz","type":"Landkreis"},"federalState":{"key":"03","name":"Niedersachsen"}},{"name":"Akazienstr.","postalCode":"28816","locality":"Stuhr","municipality":{"key":"03251037","name":"Stuhr","type":"Kreisangehörige_Gemeinde"},"district":{"key":"03251","name":"Diepholz","type":"Landkreis"},"federalState":{"key":"03","name":"Niedersachsen"}},{"name":"Albert-Schweitzer-Str.","postalCode":"28816","locality":"Stuhr","municipality":{"key":"03251037","name":"Stuhr","type":"Kreisangehörige_Gemeinde"},"district":{"key":"03251","name":"Diepholz","type":"Landkreis"},"federalState":{"key":"03","name":"Niedersachsen"}},{"name":"Alexanderstr.","postalCode":"28816","locality":"Stuhr","municipality":{"key":"03251037","name":"Stuhr","type":"Kreisangehörige_Gemeinde"},"district":{"key":"03251","name":"Diepholz","type":"Landkreis"},"federalState":{"key":"03","name":"Niedersachsen"}},{"name":"Allensteiner Str.","postalCode":"28816","locality":"Stuhr","municipality":{"key":"03251037","name":"Stuhr","type":"Kreisangehörige_Gemeinde"},"district":{"key":"03251","name":"Diepholz","type":"Landkreis"},"federalState":{"key":"03","name":"Niedersachsen"}},{"name":"Allerstr.","postalCode":"28816","locality":"Stuhr","municipality":{"key":"03251037","name":"Stuhr","type":"Kreisangehörige_Gemeinde"},"district":{"key":"03251","name":"Diepholz","type":"Landkreis"},"federalState":{"key":"03","name":"Niedersachsen"}},{"name":"Alma-Rogge-Str.","postalCode":"28816","locality":"Stuhr","municipality":{"key":"03251037","name":"Stuhr","type":"Kreisangehörige_Gemeinde"},"district":{"key":"03251","name":"Diepholz","type":"Landkreis"},"federalState":{"key":"03","name":"Niedersachsen"}},{"name":"Alte Heerstr.","postalCode":"28816","locality":"Stuhr","municipality":{"key":"03251037","name":"Stuhr","type":"Kreisangehörige_Gemeinde"},"district":{"key":"03251","name":"Diepholz","type":"Landkreis"},"federalState":{"key":"03","name":"Niedersachsen"}},{"name":"Alter Heuweg","postalCode":"28816","locality":"Stuhr","municipality":{"key":"03251037","name":"Stuhr","type":"Kreisangehörige_Gemeinde"},"district":{"key":"03251","name":"Diepholz","type":"Landkreis"},"federalState":{"key":"03","name":"Niedersachsen"}},{"name":"Alter Postweg","postalCode":"28816","locality":"Stuhr","municipality":{"key":"03251037","name":"Stuhr","type":"Kreisangehörige_Gemeinde"},"district":{"key":"03251","name":"Diepholz","type":"Landkreis"},"federalState":{"key":"03","name":"Niedersachsen"}},{"name":"Alte Windhorst","postalCode":"28816","locality":"Stuhr","municipality":{"key":"03251037","name":"Stuhr","type":"Kreisangehörige_Gemeinde"},"district":{"key":"03251","name":"Diepholz","type":"Landkreis"},"federalState":{"key":"03","name":"Niedersachsen"}},{"name":"Alte Wurth","postalCode":"28816","locality":"Stuhr","municipality":{"key":"03251037","name":"Stuhr","type":"Kreisangehörige_Gemeinde"},"district":{"key":"03251","name":"Diepholz","type":"Landkreis"},"federalState":{"key":"03","name":"Niedersachsen"}},{"name":"Am Alten Rathaus","postalCode":"28816","locality":"Stuhr","municipality":{"key":"03251037","name":"Stuhr","type":"Kreisangehörige_Gemeinde"},"district":{"key":"03251","name":"Diepholz","type":"Landkreis"},"federalState":{"key":"03","name":"Niedersachsen"}},{"name":"Am Bahnhof","postalCode":"28816","locality":"Stuhr","municipality":{"key":"03251037","name":"Stuhr","type":"Kreisangehörige_Gemeinde"},"district":{"key":"03251","name":"Diepholz","type":"Landkreis"},"federalState":{"key":"03","name":"Niedersachsen"}},{"name":"Am Bartelshorn","postalCode":"28816","locality":"Stuhr","municipality":{"key":"03251037","name":"Stuhr","type":"Kreisangehörige_Gemeinde"},"district":{"key":"03251","name":"Diepholz","type":"Landkreis"},"federalState":{"key":"03","name":"Niedersachsen"}},{"name":"Am Brandenmoor","postalCode":"28816","locality":"Stuhr","municipality":{"key":"03251037","name":"Stuhr","type":"Kreisangehörige_Gemeinde"},"district":{"key":"03251","name":"Diepholz","type":"Landkreis"},"federalState":{"key":"03","name":"Niedersachsen"}},{"name":"Am Braunwasser","postalCode":"28816","locality":"Stuhr","municipality":{"key":"03251037","name":"Stuhr","type":"Kreisangehörige_Gemeinde"},"district":{"key":"03251","name":"Diepholz","type":"Landkreis"},"federalState":{"key":"03","name":"Niedersachsen"}},{"name":"Am Bruchdamm","postalCode":"28816","locality":"Stuhr","municipality":{"key":"03251037","name":"Stuhr","type":"Kreisangehörige_Gemeinde"},"district":{"key":"03251","name":"Diepholz","type":"Landkreis"},"federalState":{"key":"03","name":"Niedersachsen"}},{"name":"Am Bürsteler Brachland","postalCode":"28816","locality":"Stuhr","municipality":{"key":"03251037","name":"Stuhr","type":"Kreisangehörige_Gemeinde"},"district":{"key":"03251","name":"Diepholz","type":"Landkreis"},"federalState":{"key":"03","name":"Niedersachsen"}},{"name":"Am Bürsteler Feldschlatt","postalCode":"28816","locality":"Stuhr","municipality":{"key":"03251037","name":"Stuhr","type":"Kreisangehörige_Gemeinde"},"district":{"key":"03251","name":"Diepholz","type":"Landkreis"},"federalState":{"key":"03","name":"Niedersachsen"}},{"name":"Am Denkmal","postalCode":"28816","locality":"Stuhr","municipality":{"key":"03251037","name":"Stuhr","type":"Kreisangehörige_Gemeinde"},"district":{"key":"03251","name":"Diepholz","type":"Landkreis"},"federalState":{"key":"03","name":"Niedersachsen"}},{"name":"Am Dreieck","postalCode":"28816","locality":"Stuhr","municipality":{"key":"03251037","name":"Stuhr","type":"Kreisangehörige_Gemeinde"},"district":{"key":"03251","name":"Diepholz","type":"Landkreis"},"federalState":{"key":"03","name":"Niedersachsen"}},{"name":"Am Fesenfeld","postalCode":"28816","locality":"Stuhr","municipality":{"key":"03251037","name":"Stuhr","type":"Kreisangehörige_Gemeinde"},"district":{"key":"03251","name":"Diepholz","type":"Landkreis"},"federalState":{"key":"03","name":"Niedersachsen"}},{"name":"Am Forst","postalCode":"28816","locality":"Stuhr","municipality":{"key":"03251037","name":"Stuhr","type":"Kreisangehörige_Gemeinde"},"district":{"key":"03251","name":"Diepholz","type":"Landkreis"},"federalState":{"key":"03","name":"Niedersachsen"}},{"name":"Am Fuchsberg","postalCode":"28816","locality":"Stuhr","municipality":{"key":"03251037","name":"Stuhr","type":"Kreisangehörige_Gemeinde"},"district":{"key":"03251","name":"Diepholz","type":"Landkreis"},"federalState":{"key":"03","name":"Niedersachsen"}},{"name":"Am Fuhrenkamp","postalCode":"28816","locality":"Stuhr","municipality":{"key":"03251037","name":"Stuhr","type":"Kreisangehörige_Gemeinde"},"district":{"key":"03251","name":"Diepholz","type":"Landkreis"},"federalState":{"key":"03","name":"Niedersachsen"}},{"name":"Am Großen Feld","postalCode":"28816","locality":"Stuhr","municipality":{"key":"03251037","name":"Stuhr","type":"Kreisangehörige_Gemeinde"},"district":{"key":"03251","name":"Diepholz","type":"Landkreis"},"federalState":{"key":"03","name":"Niedersachsen"}},{"name":"Am Großen Heerweg","postalCode":"28816","locality":"Stuhr","municipality":{"key":"03251037","name":"Stuhr","type":"Kreisangehörige_Gemeinde"},"district":{"key":"03251","name":"Diepholz","type":"Landkreis"},"federalState":{"key":"03","name":"Niedersachsen"}},{"name":"Am Großen Kamp","postalCode":"28816","locality":"Stuhr","municipality":{"key":"03251037","name":"Stuhr","type":"Kreisangehörige_Gemeinde"},"district":{"key":"03251","name":"Diepholz","type":"Landkreis"},"federalState":{"key":"03","name":"Niedersachsen"}},{"name":"Am Großen Moor","postalCode":"28816","locality":"Stuhr","municipality":{"key":"03251037","name":"Stuhr","type":"Kreisangehörige_Gemeinde"},"district":{"key":"03251","name":"Diepholz","type":"Landkreis"},"federalState":{"key":"03","name":"Niedersachsen"}},{"name":"Am Habenhauser Moor","postalCode":"28816","locality":"Stuhr","municipality":{"key":"03251037","name":"Stuhr","type":"Kreisangehörige_Gemeinde"},"district":{"key":"03251","name":"Diepholz","type":"Landkreis"},"federalState":{"key":"03","name":"Niedersachsen"}},{"name":"Am Haferfeld","postalCode":"28816","locality":"Stuhr","municipality":{"key":"03251037","name":"Stuhr","type":"Kreisangehörige_Gemeinde"},"district":{"key":"03251","name":"Diepholz","type":"Landkreis"},"federalState":{"key":"03","name":"Niedersachsen"}},{"name":"Am Hexendeich","postalCode":"28816","locality":"Stuhr","municipality":{"key":"03251037","name":"Stuhr","type":"Kreisangehörige_Gemeinde"},"district":{"key":"03251","name":"Diepholz","type":"Landkreis"},"federalState":{"key":"03","name":"Niedersachsen"}},{"name":"Am Hirschweg","postalCode":"28816","locality":"Stuhr","municipality":{"key":"03251037","name":"Stuhr","type":"Kreisangehörige_Gemeinde"},"district":{"key":"03251","name":"Diepholz","type":"Landkreis"},"federalState":{"key":"03","name":"Niedersachsen"}},{"name":"Am Holz","postalCode":"28816","locality":"Stuhr","municipality":{"key":"03251037","name":"Stuhr","type":"Kreisangehörige_Gemeinde"},"district":{"key":"03251","name":"Diepholz","type":"Landkreis"},"federalState":{"key":"03","name":"Niedersachsen"}},{"name":"Am Hufschlag","postalCode":"28816","locality":"Stuhr","municipality":{"key":"03251037","name":"Stuhr","type":"Kreisangehörige_Gemeinde"},"district":{"key":"03251","name":"Diepholz","type":"Landkreis"},"federalState":{"key":"03","name":"Niedersachsen"}},{"name":"Am Kiebitzmoor","postalCode":"28816","locality":"Stuhr","municipality":{"key":"03251037","name":"Stuhr","type":"Kreisangehörige_Gemeinde"},"district":{"key":"03251","name":"Diepholz","type":"Landkreis"},"federalState":{"key":"03","name":"Niedersachsen"}},{"name":"Am Kindergarten","postalCode":"28816","locality":"Stuhr","municipality":{"key":"03251037","name":"Stuhr","type":"Kreisangehörige_Gemeinde"},"district":{"key":"03251","name":"Diepholz","type":"Landkreis"},"federalState":{"key":"03","name":"Niedersachsen"}},{"name":"Am Klosterholz","postalCode":"28816","locality":"Stuhr","municipality":{"key":"03251037","name":"Stuhr","type":"Kreisangehörige_Gemeinde"},"district":{"key":"03251","name":"Diepholz","type":"Landkreis"},"federalState":{"key":"03","name":"Niedersachsen"}},{"name":"Am Kurzen Kamp","postalCode":"28816","locality":"Stuhr","municipality":{"key":"03251037","name":"Stuhr","type":"Kreisangehörige_Gemeinde"},"district":{"key":"03251","name":"Diepholz","type":"Landkreis"},"federalState":{"key":"03","name":"Niedersachsen"}},{"name":"Am Maisfeld","postalCode":"28816","locality":"Stuhr","municipality":{"key":"03251037","name":"Stuhr","type":"Kreisangehörige_Gemeinde"},"district":{"key":"03251","name":"Diepholz","type":"Landkreis"},"federalState":{"key":"03","name":"Niedersachsen"}},{"name":"Am Moordamm","postalCode":"28816","locality":"Stuhr","municipality":{"key":"03251037","name":"Stuhr","type":"Kreisangehörige_Gemeinde"},"district":{"key":"03251","name":"Diepholz","type":"Landkreis"},"federalState":{"key":"03","name":"Niedersachsen"}},{"name":"Am Poggenpohl","postalCode":"28816","locality":"Stuhr","municipality":{"key":"03251037","name":"Stuhr","type":"Kreisangehörige_Gemeinde"},"district":{"key":"03251","name":"Diepholz","type":"Landkreis"},"federalState":{"key":"03","name":"Niedersachsen"}},{"name":"Am Pumpwerk","postalCode":"28816","locality":"Stuhr","municipality":{"key":"03251037","name":"Stuhr","type":"Kreisangehörige_Gemeinde"},"district":{"key":"03251","name":"Diepholz","type":"Landkreis"},"federalState":{"key":"03","name":"Niedersachsen"}},{"name":"Am Rathaus","postalCode":"28816","locality":"Stuhr","municipality":{"key":"03251037","name":"Stuhr","type":"Kreisangehörige_Gemeinde"},"district":{"key":"03251","name":"Diepholz","type":"Landkreis"},"federalState":{"key":"03","name":"Niedersachsen"}},{"name":"Bachstr.","postalCode":"28816","locality":"Stuhr","municipality":{"key":"03251037","name":"Stuhr","type":"Kreisangehörige_Gemeinde"},"district":{"key":"03251","name":"Diepholz","type":"Landkreis"},"federalState":{"key":"03","name":"Niedersachsen"}},{"name":"Bäckergasse","postalCode":"28816","locality":"Stuhr","municipality":{"key":"03251037","name":"Stuhr","type":"Kreisangehörige_Gemeinde"},"district":{"key":"03251","name":"Diepholz","type":"Landkreis"},"federalState":{"key":"03","name":"Niedersachsen"}},{"name":"Bahnhofstr.","postalCode":"28816","locality":"Stuhr","municipality":{"key":"03251037","name":"Stuhr","type":"Kreisangehörige_Gemeinde"},"district":{"key":"03251","name":"Diepholz","type":"Landkreis"},"federalState":{"key":"03","name":"Niedersachsen"}},{"name":"Bahnweg","postalCode":"28816","locality":"Stuhr","municipality":{"key":"03251037","name":"Stuhr","type":"Kreisangehörige_Gemeinde"},"district":{"key":"03251","name":"Diepholz","type":"Landkreis"},"federalState":{"key":"03","name":"Niedersachsen"}},{"name":"Barkener Weg","postalCode":"28816","locality":"Stuhr","municipality":{"key":"03251037","name":"Stuhr","type":"Kreisangehörige_Gemeinde"},"district":{"key":"03251","name":"Diepholz","type":"Landkreis"},"federalState":{"key":"03","name":"Niedersachsen"}},{"name":"Barkweg","postalCode":"28816","locality":"Stuhr","municipality":{"key":"03251037","name":"Stuhr","type":"Kreisangehörige_Gemeinde"},"district":{"key":"03251","name":"Diepholz","type":"Landkreis"},"federalState":{"key":"03","name":"Niedersachsen"}},{"name":"Bartelshorn","postalCode":"28816","locality":"Stuhr","municipality":{"key":"03251037","name":"Stuhr","type":"Kreisangehörige_Gemeinde"},"district":{"key":"03251","name":"Diepholz","type":"Landkreis"},"federalState":{"key":"03","name":"Niedersachsen"}},{"name":"Bassumer Str.","postalCode":"28816","locality":"Stuhr","municipality":{"key":"03251037","name":"Stuhr","type":"Kreisangehörige_Gemeinde"},"district":{"key":"03251","name":"Diepholz","type":"Landkreis"},"federalState":{"key":"03","name":"Niedersachsen"}},{"name":"Beethovenstr.","postalCode":"28816","locality":"Stuhr","municipality":{"key":"03251037","name":"Stuhr","type":"Kreisangehörige_Gemeinde"},"district":{"key":"03251","name":"Diepholz","type":"Landkreis"},"federalState":{"key":"03","name":"Niedersachsen"}},{"name":"Begonienstr.","postalCode":"28816","locality":"Stuhr","municipality":{"key":"03251037","name":"Stuhr","type":"Kreisangehörige_Gemeinde"},"district":{"key":"03251","name":"Diepholz","type":"Landkreis"},"federalState":{"key":"03","name":"Niedersachsen"}},{"name":"Bei den Eichen","postalCode":"28816","locality":"Stuhr","municipality":{"key":"03251037","name":"Stuhr","type":"Kreisangehörige_Gemeinde"},"district":{"key":"03251","name":"Diepholz","type":"Landkreis"},"federalState":{"key":"03","name":"Niedersachsen"}},{"name":"Bei den Graftwiesen","postalCode":"28816","locality":"Stuhr","municipality":{"key":"03251037","name":"Stuhr","type":"Kreisangehörige_Gemeinde"},"district":{"key":"03251","name":"Diepholz","type":"Landkreis"},"federalState":{"key":"03","name":"Niedersachsen"}},{"name":"Bergiusstr.","postalCode":"28816","locality":"Stuhr","municipality":{"key":"03251037","name":"Stuhr","type":"Kreisangehörige_Gemeinde"},"district":{"key":"03251","name":"Diepholz","type":"Landkreis"},"federalState":{"key":"03","name":"Niedersachsen"}},{"name":"Berliner Str.","postalCode":"28816","locality":"Stuhr","municipality":{"key":"03251037","name":"Stuhr","type":"Kreisangehörige_Gemeinde"},"district":{"key":"03251","name":"Diepholz","type":"Landkreis"},"federalState":{"key":"03","name":"Niedersachsen"}},{"name":"Bernsteinstr.","postalCode":"28816","locality":"Stuhr","municipality":{"key":"03251037","name":"Stuhr","type":"Kreisangehörige_Gemeinde"},"district":{"key":"03251","name":"Diepholz","type":"Landkreis"},"federalState":{"key":"03","name":"Niedersachsen"}},{"name":"Bertolt-Brecht-Str.","postalCode":"28816","locality":"Stuhr","municipality":{"key":"03251037","name":"Stuhr","type":"Kreisangehörige_Gemeinde"},"district":{"key":"03251","name":"Diepholz","type":"Landkreis"},"federalState":{"key":"03","name":"Niedersachsen"}},{"name":"Bi de Karken","postalCode":"28816","locality":"Stuhr","municipality":{"key":"03251037","name":"Stuhr","type":"Kreisangehörige_Gemeinde"},"district":{"key":"03251","name":"Diepholz","type":"Landkreis"},"federalState":{"key":"03","name":"Niedersachsen"}},{"name":"Birkenkamp","postalCode":"28816","locality":"Stuhr","municipality":{"key":"03251037","name":"Stuhr","type":"Kreisangehörige_Gemeinde"},"district":{"key":"03251","name":"Diepholz","type":"Landkreis"},"federalState":{"key":"03","name":"Niedersachsen"}},{"name":"Birkenstr.","postalCode":"28816","locality":"Stuhr","municipality":{"key":"03251037","name":"Stuhr","type":"Kreisangehörige_Gemeinde"},"district":{"key":"03251","name":"Diepholz","type":"Landkreis"},"federalState":{"key":"03","name":"Niedersachsen"}},{"name":"Blockener Str.","postalCode":"28816","locality":"Stuhr","municipality":{"key":"03251037","name":"Stuhr","type":"Kreisangehörige_Gemeinde"},"district":{"key":"03251","name":"Diepholz","type":"Landkreis"},"federalState":{"key":"03","name":"Niedersachsen"}},{"name":"Blumenstr.","postalCode":"28816","locality":"Stuhr","municipality":{"key":"03251037","name":"Stuhr","type":"Kreisangehörige_Gemeinde"},"district":{"key":"03251","name":"Diepholz","type":"Landkreis"},"federalState":{"key":"03","name":"Niedersachsen"}},{"name":"Böttcherstr.","postalCode":"28816","locality":"Stuhr","municipality":{"key":"03251037","name":"Stuhr","type":"Kreisangehörige_Gemeinde"},"district":{"key":"03251","name":"Diepholz","type":"Landkreis"},"federalState":{"key":"03","name":"Niedersachsen"}},{"name":"Brachvogelweg","postalCode":"28816","locality":"Stuhr","municipality":{"key":"03251037","name":"Stuhr","type":"Kreisangehörige_Gemeinde"},"district":{"key":"03251","name":"Diepholz","type":"Landkreis"},"federalState":{"key":"03","name":"Niedersachsen"}},{"name":"Braklandsweg","postalCode":"28816","locality":"Stuhr","municipality":{"key":"03251037","name":"Stuhr","type":"Kreisangehörige_Gemeinde"},"district":{"key":"03251","name":"Diepholz","type":"Landkreis"},"federalState":{"key":"03","name":"Niedersachsen"}},{"name":"Brambuschweg","postalCode":"28816","locality":"Stuhr","municipality":{"key":"03251037","name":"Stuhr","type":"Kreisangehörige_Gemeinde"},"district":{"key":"03251","name":"Diepholz","type":"Landkreis"},"federalState":{"key":"03","name":"Niedersachsen"}},{"name":"Brandenburger Str.","postalCode":"28816","locality":"Stuhr","municipality":{"key":"03251037","name":"Stuhr","type":"Kreisangehörige_Gemeinde"},"district":{"key":"03251","name":"Diepholz","type":"Landkreis"},"federalState":{"key":"03","name":"Niedersachsen"}},{"name":"Bremer Str.","postalCode":"28816","locality":"Stuhr","municipality":{"key":"03251037","name":"Stuhr","type":"Kreisangehörige_Gemeinde"},"district":{"key":"03251","name":"Diepholz","type":"Landkreis"},"federalState":{"key":"03","name":"Niedersachsen"}},{"name":"Bremer Weg","postalCode":"28816","locality":"Stuhr","municipality":{"key":"03251037","name":"Stuhr","type":"Kreisangehörige_Gemeinde"},"district":{"key":"03251","name":"Diepholz","type":"Landkreis"},"federalState":{"key":"03","name":"Niedersachsen"}},{"name":"Breslauer Str.","postalCode":"28816","locality":"Stuhr","municipality":{"key":"03251037","name":"Stuhr","type":"Kreisangehörige_Gemeinde"},"district":{"key":"03251","name":"Diepholz","type":"Landkreis"},"federalState":{"key":"03","name":"Niedersachsen"}},{"name":"Brinkumer Moor","postalCode":"28816","locality":"Stuhr","municipality":{"key":"03251037","name":"Stuhr","type":"Kreisangehörige_Gemeinde"},"district":{"key":"03251","name":"Diepholz","type":"Landkreis"},"federalState":{"key":"03","name":"Niedersachsen"}},{"name":"Brinkumer Str.","postalCode":"28816","locality":"Stuhr","municipality":{"key":"03251037","name":"Stuhr","type":"Kreisangehörige_Gemeinde"},"district":{"key":"03251","name":"Diepholz","type":"Landkreis"},"federalState":{"key":"03","name":"Niedersachsen"}},{"name":"Bromberger Str.","postalCode":"28816","locality":"Stuhr","municipality":{"key":"03251037","name":"Stuhr","type":"Kreisangehörige_Gemeinde"},"district":{"key":"03251","name":"Diepholz","type":"Landkreis"},"federalState":{"key":"03","name":"Niedersachsen"}},{"name":"Brookdamm","postalCode":"28816","locality":"Stuhr","municipality":{"key":"03251037","name":"Stuhr","type":"Kreisangehörige_Gemeinde"},"district":{"key":"03251","name":"Diepholz","type":"Landkreis"},"federalState":{"key":"03","name":"Niedersachsen"}},{"name":"Bruchstr.","postalCode":"28816","locality":"Stuhr","municipality":{"key":"03251037","name":"Stuhr","type":"Kreisangehörige_Gemeinde"},"district":{"key":"03251","name":"Diepholz","type":"Landkreis"},"federalState":{"key":"03","name":"Niedersachsen"}},{"name":"Bruchweg","postalCode":"28816","locality":"Stuhr","municipality":{"key":"03251037","name":"Stuhr","type":"Kreisangehörige_Gemeinde"},"district":{"key":"03251","name":"Diepholz","type":"Landkreis"},"federalState":{"key":"03","name":"Niedersachsen"}},{"name":"Buchenstr.","postalCode":"28816","locality":"Stuhr","municipality":{"key":"03251037","name":"Stuhr","type":"Kreisangehörige_Gemeinde"},"district":{"key":"03251","name":"Diepholz","type":"Landkreis"},"federalState":{"key":"03","name":"Niedersachsen"}},{"name":"Buchsbaumstr.","postalCode":"28816","locality":"Stuhr","municipality":{"key":"03251037","name":"Stuhr","type":"Kreisangehörige_Gemeinde"},"district":{"key":"03251","name":"Diepholz","type":"Landkreis"},"federalState":{"key":"03","name":"Niedersachsen"}},{"name":"Bührener Weg","postalCode":"28816","locality":"Stuhr","municipality":{"key":"03251037","name":"Stuhr","type":"Kreisangehörige_Gemeinde"},"district":{"key":"03251","name":"Diepholz","type":"Landkreis"},"federalState":{"key":"03","name":"Niedersachsen"}},{"name":"Burgenweg","postalCode":"28816","locality":"Stuhr","municipality":{"key":"03251037","name":"Stuhr","type":"Kreisangehörige_Gemeinde"},"district":{"key":"03251","name":"Diepholz","type":"Landkreis"},"federalState":{"key":"03","name":"Niedersachsen"}},{"name":"Burgunder Weg","postalCode":"28816","locality":"Stuhr","municipality":{"key":"03251037","name":"Stuhr","type":"Kreisangehörige_Gemeinde"},"district":{"key":"03251","name":"Diepholz","type":"Landkreis"},"federalState":{"key":"03","name":"Niedersachsen"}},{"name":"Bürsteler Feld","postalCode":"28816","locality":"Stuhr","municipality":{"key":"03251037","name":"Stuhr","type":"Kreisangehörige_Gemeinde"},"district":{"key":"03251","name":"Diepholz","type":"Landkreis"},"federalState":{"key":"03","name":"Niedersachsen"}},{"name":"Bürsteler Richtweg","postalCode":"28816","locality":"Stuhr","municipality":{"key":"03251037","name":"Stuhr","type":"Kreisangehörige_Gemeinde"},"district":{"key":"03251","name":"Diepholz","type":"Landkreis"},"federalState":{"key":"03","name":"Niedersachsen"}},{"name":"Bürsteler Str.","postalCode":"28816","locality":"Stuhr","municipality":{"key":"03251037","name":"Stuhr","type":"Kreisangehörige_Gemeinde"},"district":{"key":"03251","name":"Diepholz","type":"Landkreis"},"federalState":{"key":"03","name":"Niedersachsen"}},{"name":"Buschweg","postalCode":"28816","locality":"Stuhr","municipality":{"key":"03251037","name":"Stuhr","type":"Kreisangehörige_Gemeinde"},"district":{"key":"03251","name":"Diepholz","type":"Landkreis"},"federalState":{"key":"03","name":"Niedersachsen"}},{"name":"Carl-Zeiss-Str.","postalCode":"28816","locality":"Stuhr","municipality":{"key":"03251037","name":"Stuhr","type":"Kreisangehörige_Gemeinde"},"district":{"key":"03251","name":"Diepholz","type":"Landkreis"},"federalState":{"key":"03","name":"Niedersachsen"}},{"name":"Charlotte-Auerbach-Str.","postalCode":"28816","locality":"Stuhr","municipality":{"key":"03251037","name":"Stuhr","type":"Kreisangehörige_Gemeinde"},"district":{"key":"03251","name":"Diepholz","type":"Landkreis"},"federalState":{"key":"03","name":"Niedersachsen"}},{"name":"Chopinstr.","postalCode":"28816","locality":"Stuhr","municipality":{"key":"03251037","name":"Stuhr","type":"Kreisangehörige_Gemeinde"},"district":{"key":"03251","name":"Diepholz","type":"Landkreis"},"federalState":{"key":"03","name":"Niedersachsen"}},{"name":"Christian-Andersen-Weg","postalCode":"28816","locality":"Stuhr","municipality":{"key":"03251037","name":"Stuhr","type":"Kreisangehörige_Gemeinde"},"district":{"key":"03251","name":"Diepholz","type":"Landkreis"},"federalState":{"key":"03","name":"Niedersachsen"}},{"name":"Christian-Morgenstern-Weg","postalCode":"28816","locality":"Stuhr","municipality":{"key":"03251037","name":"Stuhr","type":"Kreisangehörige_Gemeinde"},"district":{"key":"03251","name":"Diepholz","type":"Landkreis"},"federalState":{"key":"03","name":"Niedersachsen"}},{"name":"Christine-Brückner-Str.","postalCode":"28816","locality":"Stuhr","municipality":{"key":"03251037","name":"Stuhr","type":"Kreisangehörige_Gemeinde"},"district":{"key":"03251","name":"Diepholz","type":"Landkreis"},"federalState":{"key":"03","name":"Niedersachsen"}},{"name":"Claudiusstr.","postalCode":"28816","locality":"Stuhr","municipality":{"key":"03251037","name":"Stuhr","type":"Kreisangehörige_Gemeinde"},"district":{"key":"03251","name":"Diepholz","type":"Landkreis"},"federalState":{"key":"03","name":"Niedersachsen"}},{"name":"Cloppenburger Str.","postalCode":"28816","locality":"Stuhr","municipality":{"key":"03251037","name":"Stuhr","type":"Kreisangehörige_Gemeinde"},"district":{"key":"03251","name":"Diepholz","type":"Landkreis"},"federalState":{"key":"03","name":"Niedersachsen"}},{"name":"Dahlienweg","postalCode":"28816","locality":"Stuhr","municipality":{"key":"03251037","name":"Stuhr","type":"Kreisangehörige_Gemeinde"},"district":{"key":"03251","name":"Diepholz","type":"Landkreis"},"federalState":{"key":"03","name":"Niedersachsen"}},{"name":"Dammer Weg","postalCode":"28816","locality":"Stuhr","municipality":{"key":"03251037","name":"Stuhr","type":"Kreisangehörige_Gemeinde"},"district":{"key":"03251","name":"Diepholz","type":"Landkreis"},"federalState":{"key":"03","name":"Niedersachsen"}},{"name":"Danziger Str.","postalCode":"28816","locality":"Stuhr","municipality":{"key":"03251037","name":"Stuhr","type":"Kreisangehörige_Gemeinde"},"district":{"key":"03251","name":"Diepholz","type":"Landkreis"},"federalState":{"key":"03","name":"Niedersachsen"}},{"name":"Delmenhorster Str.","postalCode":"28816","locality":"Stuhr","municipality":{"key":"03251037","name":"Stuhr","type":"Kreisangehörige_Gemeinde"},"district":{"key":"03251","name":"Diepholz","type":"Landkreis"},"federalState":{"key":"03","name":"Niedersachsen"}},{"name":"Delmeweg","postalCode":"28816","locality":"Stuhr","municipality":{"key":"03251037","name":"Stuhr","type":"Kreisangehörige_Gemeinde"},"district":{"key":"03251","name":"Diepholz","type":"Landkreis"},"federalState":{"key":"03","name":"Niedersachsen"}},{"name":"Diepholzer Str.","postalCode":"28816","locality":"Stuhr","municipality":{"key":"03251037","name":"Stuhr","type":"Kreisangehörige_Gemeinde"},"district":{"key":"03251","name":"Diepholz","type":"Landkreis"},"federalState":{"key":"03","name":"Niedersachsen"}},{"name":"Dinklager Weg","postalCode":"28816","locality":"Stuhr","municipality":{"key":"03251037","name":"Stuhr","type":"Kreisangehörige_Gemeinde"},"district":{"key":"03251","name":"Diepholz","type":"Landkreis"},"federalState":{"key":"03","name":"Niedersachsen"}},{"name":"Distelweg","postalCode":"28816","locality":"Stuhr","municipality":{"key":"03251037","name":"Stuhr","type":"Kreisangehörige_Gemeinde"},"district":{"key":"03251","name":"Diepholz","type":"Landkreis"},"federalState":{"key":"03","name":"Niedersachsen"}},{"name":"Donaustr.","postalCode":"28816","locality":"Stuhr","municipality":{"key":"03251037","name":"Stuhr","type":"Kreisangehörige_Gemeinde"},"district":{"key":"03251","name":"Diepholz","type":"Landkreis"},"federalState":{"key":"03","name":"Niedersachsen"}},{"name":"Dorfstr.","postalCode":"28816","locality":"Stuhr","municipality":{"key":"03251037","name":"Stuhr","type":"Kreisangehörige_Gemeinde"},"district":{"key":"03251","name":"Diepholz","type":"Landkreis"},"federalState":{"key":"03","name":"Niedersachsen"}},{"name":"Drechslerstr.","postalCode":"28816","locality":"Stuhr","municipality":{"key":"03251037","name":"Stuhr","type":"Kreisangehörige_Gemeinde"},"district":{"key":"03251","name":"Diepholz","type":"Landkreis"},"federalState":{"key":"03","name":"Niedersachsen"}},{"name":"Dresdener Str.","postalCode":"28816","locality":"Stuhr","municipality":{"key":"03251037","name":"Stuhr","type":"Kreisangehörige_Gemeinde"},"district":{"key":"03251","name":"Diepholz","type":"Landkreis"},"federalState":{"key":"03","name":"Niedersachsen"}},{"name":"Drosselstr.","postalCode":"28816","locality":"Stuhr","municipality":{"key":"03251037","name":"Stuhr","type":"Kreisangehörige_Gemeinde"},"district":{"key":"03251","name":"Diepholz","type":"Landkreis"},"federalState":{"key":"03","name":"Niedersachsen"}},{"name":"Ebereschenweg","postalCode":"28816","locality":"Stuhr","municipality":{"key":"03251037","name":"Stuhr","type":"Kreisangehörige_Gemeinde"},"district":{"key":"03251","name":"Diepholz","type":"Landkreis"},"federalState":{"key":"03","name":"Niedersachsen"}},{"name":"Ederweg","postalCode":"28816","locality":"Stuhr","municipality":{"key":"03251037","name":"Stuhr","type":"Kreisangehörige_Gemeinde"},"district":{"key":"03251","name":"Diepholz","type":"Landkreis"},"federalState":{"key":"03","name":"Niedersachsen"}},{"name":"Edisonstr.","postalCode":"28816","locality":"Stuhr","municipality":{"key":"03251037","name":"Stuhr","type":"Kreisangehörige_Gemeinde"},"district":{"key":"03251","name":"Diepholz","type":"Landkreis"},"federalState":{"key":"03","name":"Niedersachsen"}},{"name":"Edith-Stein-Str.","postalCode":"28816","locality":"Stuhr","municipality":{"key":"03251037","name":"Stuhr","type":"Kreisangehörige_Gemeinde"},"district":{"key":"03251","name":"Diepholz","type":"Landkreis"},"federalState":{"key":"03","name":"Niedersachsen"}},{"name":"Eduard-Mörike-Str.","postalCode":"28816","locality":"Stuhr","municipality":{"key":"03251037","name":"Stuhr","type":"Kreisangehörige_Gemeinde"},"district":{"key":"03251","name":"Diepholz","type":"Landkreis"},"federalState":{"key":"03","name":"Niedersachsen"}},{"name":"Eggeseer Str.","postalCode":"28816","locality":"Stuhr","municipality":{"key":"03251037","name":"Stuhr","type":"Kreisangehörige_Gemeinde"},"district":{"key":"03251","name":"Diepholz","type":"Landkreis"},"federalState":{"key":"03","name":"Niedersachsen"}},{"name":"Eibenweg","postalCode":"28816","locality":"Stuhr","municipality":{"key":"03251037","name":"Stuhr","type":"Kreisangehörige_Gemeinde"},"district":{"key":"03251","name":"Diepholz","type":"Landkreis"},"federalState":{"key":"03","name":"Niedersachsen"}},{"name":"Eichendorffweg","postalCode":"28816","locality":"Stuhr","municipality":{"key":"03251037","name":"Stuhr","type":"Kreisangehörige_Gemeinde"},"district":{"key":"03251","name":"Diepholz","type":"Landkreis"},"federalState":{"key":"03","name":"Niedersachsen"}},{"name":"Eichendorffwinkel","postalCode":"28816","locality":"Stuhr","municipality":{"key":"03251037","name":"Stuhr","type":"Kreisangehörige_Gemeinde"},"district":{"key":"03251","name":"Diepholz","type":"Landkreis"},"federalState":{"key":"03","name":"Niedersachsen"}},{"name":"Eichenstr.","postalCode":"28816","locality":"Stuhr","municipality":{"key":"03251037","name":"Stuhr","type":"Kreisangehörige_Gemeinde"},"district":{"key":"03251","name":"Diepholz","type":"Landkreis"},"federalState":{"key":"03","name":"Niedersachsen"}},{"name":"Elbestr.","postalCode":"28816","locality":"Stuhr","municipality":{"key":"03251037","name":"Stuhr","type":"Kreisangehörige_Gemeinde"},"district":{"key":"03251","name":"Diepholz","type":"Landkreis"},"federalState":{"key":"03","name":"Niedersachsen"}},{"name":"Elbinger Str.","postalCode":"28816","locality":"Stuhr","municipality":{"key":"03251037","name":"Stuhr","type":"Kreisangehörige_Gemeinde"},"district":{"key":"03251","name":"Diepholz","type":"Landkreis"},"federalState":{"key":"03","name":"Niedersachsen"}},{"name":"Elhornstr.","postalCode":"28816","locality":"Stuhr","municipality":{"key":"03251037","name":"Stuhr","type":"Kreisangehörige_Gemeinde"},"district":{"key":"03251","name":"Diepholz","type":"Landkreis"},"federalState":{"key":"03","name":"Niedersachsen"}},{"name":"Elly-Heuss-Knapp-Str.","postalCode":"28816","locality":"Stuhr","municipality":{"key":"03251037","name":"Stuhr","type":"Kreisangehörige_Gemeinde"},"district":{"key":"03251","name":"Diepholz","type":"Landkreis"},"federalState":{"key":"03","name":"Niedersachsen"}},{"name":"Elsa-Brändström-Str.","postalCode":"28816","locality":"Stuhr","municipality":{"key":"03251037","name":"Stuhr","type":"Kreisangehörige_Gemeinde"},"district":{"key":"03251","name":"Diepholz","type":"Landkreis"},"federalState":{"key":"03","name":"Niedersachsen"}},{"name":"Elzstr.","postalCode":"28816","locality":"Stuhr","municipality":{"key":"03251037","name":"Stuhr","type":"Kreisangehörige_Gemeinde"},"district":{"key":"03251","name":"Diepholz","type":"Landkreis"},"federalState":{"key":"03","name":"Niedersachsen"}},{"name":"Emil-Nolde-Str.","postalCode":"28816","locality":"Stuhr","municipality":{"key":"03251037","name":"Stuhr","type":"Kreisangehörige_Gemeinde"},"district":{"key":"03251","name":"Diepholz","type":"Landkreis"},"federalState":{"key":"03","name":"Niedersachsen"}},{"name":"Emsteker Weg","postalCode":"28816","locality":"Stuhr","municipality":{"key":"03251037","name":"Stuhr","type":"Kreisangehörige_Gemeinde"},"district":{"key":"03251","name":"Diepholz","type":"Landkreis"},"federalState":{"key":"03","name":"Niedersachsen"}},{"name":"Erftstr.","postalCode":"28816","locality":"Stuhr","municipality":{"key":"03251037","name":"Stuhr","type":"Kreisangehörige_Gemeinde"},"district":{"key":"03251","name":"Diepholz","type":"Landkreis"},"federalState":{"key":"03","name":"Niedersachsen"}},{"name":"Erfurter Str.","postalCode":"28816","locality":"Stuhr","municipality":{"key":"03251037","name":"Stuhr","type":"Kreisangehörige_Gemeinde"},"district":{"key":"03251","name":"Diepholz","type":"Landkreis"},"federalState":{"key":"03","name":"Niedersachsen"}},{"name":"Erich-Kästner-Weg","postalCode":"28816","locality":"Stuhr","municipality":{"key":"03251037","name":"Stuhr","type":"Kreisangehörige_Gemeinde"},"district":{"key":"03251","name":"Diepholz","type":"Landkreis"},"federalState":{"key":"03","name":"Niedersachsen"}},{"name":"Erichstr.","postalCode":"28816","locality":"Stuhr","municipality":{"key":"03251037","name":"Stuhr","type":"Kreisangehörige_Gemeinde"},"district":{"key":"03251","name":"Diepholz","type":"Landkreis"},"federalState":{"key":"03","name":"Niedersachsen"}},{"name":"Erikastr.","postalCode":"28816","locality":"Stuhr","municipality":{"key":"03251037","name":"Stuhr","type":"Kreisangehörige_Gemeinde"},"district":{"key":"03251","name":"Diepholz","type":"Landkreis"},"federalState":{"key":"03","name":"Niedersachsen"}},{"name":"Erlenstr.","postalCode":"28816","locality":"Stuhr","municipality":{"key":"03251037","name":"Stuhr","type":"Kreisangehörige_Gemeinde"},"district":{"key":"03251","name":"Diepholz","type":"Landkreis"},"federalState":{"key":"03","name":"Niedersachsen"}},{"name":"Erlenweg","postalCode":"28816","locality":"Stuhr","municipality":{"key":"03251037","name":"Stuhr","type":"Kreisangehörige_Gemeinde"},"district":{"key":"03251","name":"Diepholz","type":"Landkreis"},"federalState":{"key":"03","name":"Niedersachsen"}},{"name":"Ernst-Abbe-Str.","postalCode":"28816","locality":"Stuhr","municipality":{"key":"03251037","name":"Stuhr","type":"Kreisangehörige_Gemeinde"},"district":{"key":"03251","name":"Diepholz","type":"Landkreis"},"federalState":{"key":"03","name":"Niedersachsen"}},{"name":"Eschenweg","postalCode":"28816","locality":"Stuhr","municipality":{"key":"03251037","name":"Stuhr","type":"Kreisangehörige_Gemeinde"},"district":{"key":"03251","name":"Diepholz","type":"Landkreis"},"federalState":{"key":"03","name":"Niedersachsen"}},{"name":"Esslinger Weg","postalCode":"28816","locality":"Stuhr","municipality":{"key":"03251037","name":"Stuhr","type":"Kreisangehörige_Gemeinde"},"district":{"key":"03251","name":"Diepholz","type":"Landkreis"},"federalState":{"key":"03","name":"Niedersachsen"}},{"name":"Eulenweg","postalCode":"28816","locality":"Stuhr","municipality":{"key":"03251037","name":"Stuhr","type":"Kreisangehörige_Gemeinde"},"district":{"key":"03251","name":"Diepholz","type":"Landkreis"},"federalState":{"key":"03","name":"Niedersachsen"}},{"name":"Factory-Passage","postalCode":"28816","locality":"Stuhr","municipality":{"key":"03251037","name":"Stuhr","type":"Kreisangehörige_Gemeinde"},"district":{"key":"03251","name":"Diepholz","type":"Landkreis"},"federalState":{"key":"03","name":"Niedersachsen"}},{"name":"Fahrenhorster Weg","postalCode":"28816","locality":"Stuhr","municipality":{"key":"03251037","name":"Stuhr","type":"Kreisangehörige_Gemeinde"},"district":{"key":"03251","name":"Diepholz","type":"Landkreis"},"federalState":{"key":"03","name":"Niedersachsen"}},{"name":"Falkenstr.","postalCode":"28816","locality":"Stuhr","municipality":{"key":"03251037","name":"Stuhr","type":"Kreisangehörige_Gemeinde"},"district":{"key":"03251","name":"Diepholz","type":"Landkreis"},"federalState":{"key":"03","name":"Niedersachsen"}},{"name":"Fasanenweg","postalCode":"28816","locality":"Stuhr","municipality":{"key":"03251037","name":"Stuhr","type":"Kreisangehörige_Gemeinde"},"district":{"key":"03251","name":"Diepholz","type":"Landkreis"},"federalState":{"key":"03","name":"Niedersachsen"}},{"name":"Feiner Str.","postalCode":"28816","locality":"Stuhr","municipality":{"key":"03251037","name":"Stuhr","type":"Kreisangehörige_Gemeinde"},"district":{"key":"03251","name":"Diepholz","type":"Landkreis"},"federalState":{"key":"03","name":"Niedersachsen"}},{"name":"Feldstr.","postalCode":"28816","locality":"Stuhr","municipality":{"key":"03251037","name":"Stuhr","type":"Kreisangehörige_Gemeinde"},"district":{"key":"03251","name":"Diepholz","type":"Landkreis"},"federalState":{"key":"03","name":"Niedersachsen"}},{"name":"Feldweg","postalCode":"28816","locality":"Stuhr","municipality":{"key":"03251037","name":"Stuhr","type":"Kreisangehörige_Gemeinde"},"district":{"key":"03251","name":"Diepholz","type":"Landkreis"},"federalState":{"key":"03","name":"Niedersachsen"}},{"name":"Fichtenstr.","postalCode":"28816","locality":"Stuhr","municipality":{"key":"03251037","name":"Stuhr","type":"Kreisangehörige_Gemeinde"},"district":{"key":"03251","name":"Diepholz","type":"Landkreis"},"federalState":{"key":"03","name":"Niedersachsen"}},{"name":"Finkenweg","postalCode":"28816","locality":"Stuhr","municipality":{"key":"03251037","name":"Stuhr","type":"Kreisangehörige_Gemeinde"},"district":{"key":"03251","name":"Diepholz","type":"Landkreis"},"federalState":{"key":"03","name":"Niedersachsen"}},{"name":"Fliederweg","postalCode":"28816","locality":"Stuhr","municipality":{"key":"03251037","name":"Stuhr","type":"Kreisangehörige_Gemeinde"},"district":{"key":"03251","name":"Diepholz","type":"Landkreis"},"federalState":{"key":"03","name":"Niedersachsen"}},{"name":"Föhrenweg","postalCode":"28816","locality":"Stuhr","municipality":{"key":"03251037","name":"Stuhr","type":"Kreisangehörige_Gemeinde"},"district":{"key":"03251","name":"Diepholz","type":"Landkreis"},"federalState":{"key":"03","name":"Niedersachsen"}},{"name":"Forbacher Weg","postalCode":"28816","locality":"Stuhr","municipality":{"key":"03251037","name":"Stuhr","type":"Kreisangehörige_Gemeinde"},"district":{"key":"03251","name":"Diepholz","type":"Landkreis"},"federalState":{"key":"03","name":"Niedersachsen"}},{"name":"Forstweg","postalCode":"28816","locality":"Stuhr","municipality":{"key":"03251037","name":"Stuhr","type":"Kreisangehörige_Gemeinde"},"district":{"key":"03251","name":"Diepholz","type":"Landkreis"},"federalState":{"key":"03","name":"Niedersachsen"}},{"name":"Fritz-Reuter-Str.","postalCode":"28816","locality":"Stuhr","municipality":{"key":"03251037","name":"Stuhr","type":"Kreisangehörige_Gemeinde"},"district":{"key":"03251","name":"Diepholz","type":"Landkreis"},"federalState":{"key":"03","name":"Niedersachsen"}},{"name":"Fröbelweg","postalCode":"28816","locality":"Stuhr","municipality":{"key":"03251037","name":"Stuhr","type":"Kreisangehörige_Gemeinde"},"district":{"key":"03251","name":"Diepholz","type":"Landkreis"},"federalState":{"key":"03","name":"Niedersachsen"}},{"name":"Fuldastr.","postalCode":"28816","locality":"Stuhr","municipality":{"key":"03251037","name":"Stuhr","type":"Kreisangehörige_Gemeinde"},"district":{"key":"03251","name":"Diepholz","type":"Landkreis"},"federalState":{"key":"03","name":"Niedersachsen"}},{"name":"Gabriele-Münter-Str.","postalCode":"28816","locality":"Stuhr","municipality":{"key":"03251037","name":"Stuhr","type":"Kreisangehörige_Gemeinde"},"district":{"key":"03251","name":"Diepholz","type":"Landkreis"},"federalState":{"key":"03","name":"Niedersachsen"}},{"name":"Gartenstr.","postalCode":"28816","locality":"Stuhr","municipality":{"key":"03251037","name":"Stuhr","type":"Kreisangehörige_Gemeinde"},"district":{"key":"03251","name":"Diepholz","type":"Landkreis"},"federalState":{"key":"03","name":"Niedersachsen"}},{"name":"Gartenweg","postalCode":"28816","locality":"Stuhr","municipality":{"key":"03251037","name":"Stuhr","type":"Kreisangehörige_Gemeinde"},"district":{"key":"03251","name":"Diepholz","type":"Landkreis"},"federalState":{"key":"03","name":"Niedersachsen"}},{"name":"Gärtnerstr.","postalCode":"28816","locality":"Stuhr","municipality":{"key":"03251037","name":"Stuhr","type":"Kreisangehörige_Gemeinde"},"district":{"key":"03251","name":"Diepholz","type":"Landkreis"},"federalState":{"key":"03","name":"Niedersachsen"}},{"name":"Gebrüder-Grimm-Str.","postalCode":"28816","locality":"Stuhr","municipality":{"key":"03251037","name":"Stuhr","type":"Kreisangehörige_Gemeinde"},"district":{"key":"03251","name":"Diepholz","type":"Landkreis"},"federalState":{"key":"03","name":"Niedersachsen"}},{"name":"Geminiweg","postalCode":"28816","locality":"Stuhr","municipality":{"key":"03251037","name":"Stuhr","type":"Kreisangehörige_Gemeinde"},"district":{"key":"03251","name":"Diepholz","type":"Landkreis"},"federalState":{"key":"03","name":"Niedersachsen"}},{"name":"Georg-Droste-Weg","postalCode":"28816","locality":"Stuhr","municipality":{"key":"03251037","name":"Stuhr","type":"Kreisangehörige_Gemeinde"},"district":{"key":"03251","name":"Diepholz","type":"Landkreis"},"federalState":{"key":"03","name":"Niedersachsen"}},{"name":"Georg-Lohmann-Str.","postalCode":"28816","locality":"Stuhr","municipality":{"key":"03251037","name":"Stuhr","type":"Kreisangehörige_Gemeinde"},"district":{"key":"03251","name":"Diepholz","type":"Landkreis"},"federalState":{"key":"03","name":"Niedersachsen"}},{"name":"Georgstr.","postalCode":"28816","locality":"Stuhr","municipality":{"key":"03251037","name":"Stuhr","type":"Kreisangehörige_Gemeinde"},"district":{"key":"03251","name":"Diepholz","type":"Landkreis"},"federalState":{"key":"03","name":"Niedersachsen"}},{"name":"Gerdshütteweg","postalCode":"28816","locality":"Stuhr","municipality":{"key":"03251037","name":"Stuhr","type":"Kreisangehörige_Gemeinde"},"district":{"key":"03251","name":"Diepholz","type":"Landkreis"},"federalState":{"key":"03","name":"Niedersachsen"}},{"name":"Gerhart-Hauptmann-Weg","postalCode":"28816","locality":"Stuhr","municipality":{"key":"03251037","name":"Stuhr","type":"Kreisangehörige_Gemeinde"},"district":{"key":"03251","name":"Diepholz","type":"Landkreis"},"federalState":{"key":"03","name":"Niedersachsen"}},{"name":"Gersteweg","postalCode":"28816","locality":"Stuhr","municipality":{"key":"03251037","name":"Stuhr","type":"Kreisangehörige_Gemeinde"},"district":{"key":"03251","name":"Diepholz","type":"Landkreis"},"federalState":{"key":"03","name":"Niedersachsen"}},{"name":"Ginsterweg","postalCode":"28816","locality":"Stuhr","municipality":{"key":"03251037","name":"Stuhr","type":"Kreisangehörige_Gemeinde"},"district":{"key":"03251","name":"Diepholz","type":"Landkreis"},"federalState":{"key":"03","name":"Niedersachsen"}},{"name":"Gladiolenweg","postalCode":"28816","locality":"Stuhr","municipality":{"key":"03251037","name":"Stuhr","type":"Kreisangehörige_Gemeinde"},"district":{"key":"03251","name":"Diepholz","type":"Landkreis"},"federalState":{"key":"03","name":"Niedersachsen"}},{"name":"Glockengießerstr.","postalCode":"28816","locality":"Stuhr","municipality":{"key":"03251037","name":"Stuhr","type":"Kreisangehörige_Gemeinde"},"district":{"key":"03251","name":"Diepholz","type":"Landkreis"},"federalState":{"key":"03","name":"Niedersachsen"}},{"name":"Goethestr.","postalCode":"28816","locality":"Stuhr","municipality":{"key":"03251037","name":"Stuhr","type":"Kreisangehörige_Gemeinde"},"district":{"key":"03251","name":"Diepholz","type":"Landkreis"},"federalState":{"key":"03","name":"Niedersachsen"}},{"name":"Goldene Aue","postalCode":"28816","locality":"Stuhr","municipality":{"key":"03251037","name":"Stuhr","type":"Kreisangehörige_Gemeinde"},"district":{"key":"03251","name":"Diepholz","type":"Landkreis"},"federalState":{"key":"03","name":"Niedersachsen"}},{"name":"Goldenstedter Weg","postalCode":"28816","locality":"Stuhr","municipality":{"key":"03251037","name":"Stuhr","type":"Kreisangehörige_Gemeinde"},"district":{"key":"03251","name":"Diepholz","type":"Landkreis"},"federalState":{"key":"03","name":"Niedersachsen"}},{"name":"Göppinger Weg","postalCode":"28816","locality":"Stuhr","municipality":{"key":"03251037","name":"Stuhr","type":"Kreisangehörige_Gemeinde"},"district":{"key":"03251","name":"Diepholz","type":"Landkreis"},"federalState":{"key":"03","name":"Niedersachsen"}},{"name":"Gorch-Fock-Str.","postalCode":"28816","locality":"Stuhr","municipality":{"key":"03251037","name":"Stuhr","type":"Kreisangehörige_Gemeinde"},"district":{"key":"03251","name":"Diepholz","type":"Landkreis"},"federalState":{"key":"03","name":"Niedersachsen"}},{"name":"Gothaer Str.","postalCode":"28816","locality":"Stuhr","municipality":{"key":"03251037","name":"Stuhr","type":"Kreisangehörige_Gemeinde"},"district":{"key":"03251","name":"Diepholz","type":"Landkreis"},"federalState":{"key":"03","name":"Niedersachsen"}},{"name":"Gottlieb-Daimler-Str.","postalCode":"28816","locality":"Stuhr","municipality":{"key":"03251037","name":"Stuhr","type":"Kreisangehörige_Gemeinde"},"district":{"key":"03251","name":"Diepholz","type":"Landkreis"},"federalState":{"key":"03","name":"Niedersachsen"}},{"name":"Graudenzer Str.","postalCode":"28816","locality":"Stuhr","municipality":{"key":"03251037","name":"Stuhr","type":"Kreisangehörige_Gemeinde"},"district":{"key":"03251","name":"Diepholz","type":"Landkreis"},"federalState":{"key":"03","name":"Niedersachsen"}},{"name":"Griegstr.","postalCode":"28816","locality":"Stuhr","municipality":{"key":"03251037","name":"Stuhr","type":"Kreisangehörige_Gemeinde"},"district":{"key":"03251","name":"Diepholz","type":"Landkreis"},"federalState":{"key":"03","name":"Niedersachsen"}},{"name":"Grüner Weg","postalCode":"28816","locality":"Stuhr","municipality":{"key":"03251037","name":"Stuhr","type":"Kreisangehörige_Gemeinde"},"district":{"key":"03251","name":"Diepholz","type":"Landkreis"},"federalState":{"key":"03","name":"Niedersachsen"}},{"name":"Grüne Str.","postalCode":"28816","locality":"Stuhr","municipality":{"key":"03251037","name":"Stuhr","type":"Kreisangehörige_Gemeinde"},"district":{"key":"03251","name":"Diepholz","type":"Landkreis"},"federalState":{"key":"03","name":"Niedersachsen"}},{"name":"Gustav-Freytag-Weg","postalCode":"28816","locality":"Stuhr","municipality":{"key":"03251037","name":"Stuhr","type":"Kreisangehörige_Gemeinde"},"district":{"key":"03251","name":"Diepholz","type":"Landkreis"},"federalState":{"key":"03","name":"Niedersachsen"}},{"name":"Hacheweg","postalCode":"28816","locality":"Stuhr","municipality":{"key":"03251037","name":"Stuhr","type":"Kreisangehörige_Gemeinde"},"district":{"key":"03251","name":"Diepholz","type":"Landkreis"},"federalState":{"key":"03","name":"Niedersachsen"}},{"name":"Haferkamp","postalCode":"28816","locality":"Stuhr","municipality":{"key":"03251037","name":"Stuhr","type":"Kreisangehörige_Gemeinde"},"district":{"key":"03251","name":"Diepholz","type":"Landkreis"},"federalState":{"key":"03","name":"Niedersachsen"}},{"name":"Haller Str.","postalCode":"28816","locality":"Stuhr","municipality":{"key":"03251037","name":"Stuhr","type":"Kreisangehörige_Gemeinde"},"district":{"key":"03251","name":"Diepholz","type":"Landkreis"},"federalState":{"key":"03","name":"Niedersachsen"}},{"name":"Hammeweg","postalCode":"28816","locality":"Stuhr","municipality":{"key":"03251037","name":"Stuhr","type":"Kreisangehörige_Gemeinde"},"district":{"key":"03251","name":"Diepholz","type":"Landkreis"},"federalState":{"key":"03","name":"Niedersachsen"}},{"name":"Handelshof","postalCode":"28816","locality":"Stuhr","municipality":{"key":"03251037","name":"Stuhr","type":"Kreisangehörige_Gemeinde"},"district":{"key":"03251","name":"Diepholz","type":"Landkreis"},"federalState":{"key":"03","name":"Niedersachsen"}},{"name":"Händelstr.","postalCode":"28816","locality":"Stuhr","municipality":{"key":"03251037","name":"Stuhr","type":"Kreisangehörige_Gemeinde"},"district":{"key":"03251","name":"Diepholz","type":"Landkreis"},"federalState":{"key":"03","name":"Niedersachsen"}},{"name":"Harpstedter Str.","postalCode":"28816","locality":"Stuhr","municipality":{"key":"03251037","name":"Stuhr","type":"Kreisangehörige_Gemeinde"},"district":{"key":"03251","name":"Diepholz","type":"Landkreis"},"federalState":{"key":"03","name":"Niedersachsen"}},{"name":"Haselweg","postalCode":"28816","locality":"Stuhr","municipality":{"key":"03251037","name":"Stuhr","type":"Kreisangehörige_Gemeinde"},"district":{"key":"03251","name":"Diepholz","type":"Landkreis"},"federalState":{"key":"03","name":"Niedersachsen"}},{"name":"Hauptstr.","postalCode":"28816","locality":"Stuhr","municipality":{"key":"03251037","name":"Stuhr","type":"Kreisangehörige_Gemeinde"},"district":{"key":"03251","name":"Diepholz","type":"Landkreis"},"federalState":{"key":"03","name":"Niedersachsen"}},{"name":"Heckenweg","postalCode":"28816","locality":"Stuhr","municipality":{"key":"03251037","name":"Stuhr","type":"Kreisangehörige_Gemeinde"},"district":{"key":"03251","name":"Diepholz","type":"Landkreis"},"federalState":{"key":"03","name":"Niedersachsen"}},{"name":"Heideblick","postalCode":"28816","locality":"Stuhr","municipality":{"key":"03251037","name":"Stuhr","type":"Kreisangehörige_Gemeinde"},"district":{"key":"03251","name":"Diepholz","type":"Landkreis"},"federalState":{"key":"03","name":"Niedersachsen"}},{"name":"Heiderand","postalCode":"28816","locality":"Stuhr","municipality":{"key":"03251037","name":"Stuhr","type":"Kreisangehörige_Gemeinde"},"district":{"key":"03251","name":"Diepholz","type":"Landkreis"},"federalState":{"key":"03","name":"Niedersachsen"}},{"name":"Heidestr.","postalCode":"28816","locality":"Stuhr","municipality":{"key":"03251037","name":"Stuhr","type":"Kreisangehörige_Gemeinde"},"district":{"key":"03251","name":"Diepholz","type":"Landkreis"},"federalState":{"key":"03","name":"Niedersachsen"}},{"name":"Heideweg","postalCode":"28816","locality":"Stuhr","municipality":{"key":"03251037","name":"Stuhr","type":"Kreisangehörige_Gemeinde"},"district":{"key":"03251","name":"Diepholz","type":"Landkreis"},"federalState":{"key":"03","name":"Niedersachsen"}},{"name":"Heidewinkel","postalCode":"28816","locality":"Stuhr","municipality":{"key":"03251037","name":"Stuhr","type":"Kreisangehörige_Gemeinde"},"district":{"key":"03251","name":"Diepholz","type":"Landkreis"},"federalState":{"key":"03","name":"Niedersachsen"}},{"name":"Heidkämpe","postalCode":"28816","locality":"Stuhr","municipality":{"key":"03251037","name":"Stuhr","type":"Kreisangehörige_Gemeinde"},"district":{"key":"03251","name":"Diepholz","type":"Landkreis"},"federalState":{"key":"03","name":"Niedersachsen"}},{"name":"Heilbronner Str.","postalCode":"28816","locality":"Stuhr","municipality":{"key":"03251037","name":"Stuhr","type":"Kreisangehörige_Gemeinde"},"district":{"key":"03251","name":"Diepholz","type":"Landkreis"},"federalState":{"key":"03","name":"Niedersachsen"}},{"name":"Heiligenbeilweg","postalCode":"28816","locality":"Stuhr","municipality":{"key":"03251037","name":"Stuhr","type":"Kreisangehörige_Gemeinde"},"district":{"key":"03251","name":"Diepholz","type":"Landkreis"},"federalState":{"key":"03","name":"Niedersachsen"}},{"name":"Heiligenroder Heide","postalCode":"28816","locality":"Stuhr","municipality":{"key":"03251037","name":"Stuhr","type":"Kreisangehörige_Gemeinde"},"district":{"key":"03251","name":"Diepholz","type":"Landkreis"},"federalState":{"key":"03","name":"Niedersachsen"}},{"name":"Heiligenroder Str.","postalCode":"28816","locality":"Stuhr","municipality":{"key":"03251037","name":"Stuhr","type":"Kreisangehörige_Gemeinde"},"district":{"key":"03251","name":"Diepholz","type":"Landkreis"},"federalState":{"key":"03","name":"Niedersachsen"}},{"name":"Heilig-Geist-Str.","postalCode":"28816","locality":"Stuhr","municipality":{"key":"03251037","name":"Stuhr","type":"Kreisangehörige_Gemeinde"},"district":{"key":"03251","name":"Diepholz","type":"Landkreis"},"federalState":{"key":"03","name":"Niedersachsen"}},{"name":"Heineweg","postalCode":"28816","locality":"Stuhr","municipality":{"key":"03251037","name":"Stuhr","type":"Kreisangehörige_Gemeinde"},"district":{"key":"03251","name":"Diepholz","type":"Landkreis"},"federalState":{"key":"03","name":"Niedersachsen"}},{"name":"Henri-Dunant-Str.","postalCode":"28816","locality":"Stuhr","municipality":{"key":"03251037","name":"Stuhr","type":"Kreisangehörige_Gemeinde"},"district":{"key":"03251","name":"Diepholz","type":"Landkreis"},"federalState":{"key":"03","name":"Niedersachsen"}},{"name":"Henstedter Weg","postalCode":"28816","locality":"Stuhr","municipality":{"key":"03251037","name":"Stuhr","type":"Kreisangehörige_Gemeinde"},"district":{"key":"03251","name":"Diepholz","type":"Landkreis"},"federalState":{"key":"03","name":"Niedersachsen"}},{"name":"Hermann-Allmers-Weg","postalCode":"28816","locality":"Stuhr","municipality":{"key":"03251037","name":"Stuhr","type":"Kreisangehörige_Gemeinde"},"district":{"key":"03251","name":"Diepholz","type":"Landkreis"},"federalState":{"key":"03","name":"Niedersachsen"}},{"name":"Hermann-Löns-Weg","postalCode":"28816","locality":"Stuhr","municipality":{"key":"03251037","name":"Stuhr","type":"Kreisangehörige_Gemeinde"},"district":{"key":"03251","name":"Diepholz","type":"Landkreis"},"federalState":{"key":"03","name":"Niedersachsen"}},{"name":"Hermannstr.","postalCode":"28816","locality":"Stuhr","municipality":{"key":"03251037","name":"Stuhr","type":"Kreisangehörige_Gemeinde"},"district":{"key":"03251","name":"Diepholz","type":"Landkreis"},"federalState":{"key":"03","name":"Niedersachsen"}},{"name":"Hertha-Sponer-Str.","postalCode":"28816","locality":"Stuhr","municipality":{"key":"03251037","name":"Stuhr","type":"Kreisangehörige_Gemeinde"},"district":{"key":"03251","name":"Diepholz","type":"Landkreis"},"federalState":{"key":"03","name":"Niedersachsen"}},{"name":"Hespenstr.","postalCode":"28816","locality":"Stuhr","municipality":{"key":"03251037","name":"Stuhr","type":"Kreisangehörige_Gemeinde"},"district":{"key":"03251","name":"Diepholz","type":"Landkreis"},"federalState":{"key":"03","name":"Niedersachsen"}},{"name":"Heulandsweg","postalCode":"28816","locality":"Stuhr","municipality":{"key":"03251037","name":"Stuhr","type":"Kreisangehörige_Gemeinde"},"district":{"key":"03251","name":"Diepholz","type":"Landkreis"},"federalState":{"key":"03","name":"Niedersachsen"}},{"name":"Hillmannring","postalCode":"28816","locality":"Stuhr","municipality":{"key":"03251037","name":"Stuhr","type":"Kreisangehörige_Gemeinde"},"district":{"key":"03251","name":"Diepholz","type":"Landkreis"},"federalState":{"key":"03","name":"Niedersachsen"}},{"name":"Himbeerweg","postalCode":"28816","locality":"Stuhr","municipality":{"key":"03251037","name":"Stuhr","type":"Kreisangehörige_Gemeinde"},"district":{"key":"03251","name":"Diepholz","type":"Landkreis"},"federalState":{"key":"03","name":"Niedersachsen"}},{"name":"Hinter dem See","postalCode":"28816","locality":"Stuhr","municipality":{"key":"03251037","name":"Stuhr","type":"Kreisangehörige_Gemeinde"},"district":{"key":"03251","name":"Diepholz","type":"Landkreis"},"federalState":{"key":"03","name":"Niedersachsen"}},{"name":"Hinterm Felde","postalCode":"28816","locality":"Stuhr","municipality":{"key":"03251037","name":"Stuhr","type":"Kreisangehörige_Gemeinde"},"district":{"key":"03251","name":"Diepholz","type":"Landkreis"},"federalState":{"key":"03","name":"Niedersachsen"}},{"name":"Hinterm Tor","postalCode":"28816","locality":"Stuhr","municipality":{"key":"03251037","name":"Stuhr","type":"Kreisangehörige_Gemeinde"},"district":{"key":"03251","name":"Diepholz","type":"Landkreis"},"federalState":{"key":"03","name":"Niedersachsen"}},{"name":"Hohenkämpen","postalCode":"28816","locality":"Stuhr","municipality":{"key":"03251037","name":"Stuhr","type":"Kreisangehörige_Gemeinde"},"district":{"key":"03251","name":"Diepholz","type":"Landkreis"},"federalState":{"key":"03","name":"Niedersachsen"}},{"name":"Hölderlinstr.","postalCode":"28816","locality":"Stuhr","municipality":{"key":"03251037","name":"Stuhr","type":"Kreisangehörige_Gemeinde"},"district":{"key":"03251","name":"Diepholz","type":"Landkreis"},"federalState":{"key":"03","name":"Niedersachsen"}},{"name":"Holländer Str.","postalCode":"28816","locality":"Stuhr","municipality":{"key":"03251037","name":"Stuhr","type":"Kreisangehörige_Gemeinde"},"district":{"key":"03251","name":"Diepholz","type":"Landkreis"},"federalState":{"key":"03","name":"Niedersachsen"}},{"name":"Holunderstr.","postalCode":"28816","locality":"Stuhr","municipality":{"key":"03251037","name":"Stuhr","type":"Kreisangehörige_Gemeinde"},"district":{"key":"03251","name":"Diepholz","type":"Landkreis"},"federalState":{"key":"03","name":"Niedersachsen"}},{"name":"Hördener Heideweg","postalCode":"28816","locality":"Stuhr","municipality":{"key":"03251037","name":"Stuhr","type":"Kreisangehörige_Gemeinde"},"district":{"key":"03251","name":"Diepholz","type":"Landkreis"},"federalState":{"key":"03","name":"Niedersachsen"}},{"name":"Hüchtingstr.","postalCode":"28816","locality":"Stuhr","municipality":{"key":"03251037","name":"Stuhr","type":"Kreisangehörige_Gemeinde"},"district":{"key":"03251","name":"Diepholz","type":"Landkreis"},"federalState":{"key":"03","name":"Niedersachsen"}},{"name":"Hüdepohlstr.","postalCode":"28816","locality":"Stuhr","municipality":{"key":"03251037","name":"Stuhr","type":"Kreisangehörige_Gemeinde"},"district":{"key":"03251","name":"Diepholz","type":"Landkreis"},"federalState":{"key":"03","name":"Niedersachsen"}},{"name":"Hundeschule","postalCode":"28816","locality":"Stuhr","municipality":{"key":"03251037","name":"Stuhr","type":"Kreisangehörige_Gemeinde"},"district":{"key":"03251","name":"Diepholz","type":"Landkreis"},"federalState":{"key":"03","name":"Niedersachsen"}},{"name":"Im Barkenbrook","postalCode":"28816","locality":"Stuhr","municipality":{"key":"03251037","name":"Stuhr","type":"Kreisangehörige_Gemeinde"},"district":{"key":"03251","name":"Diepholz","type":"Landkreis"},"federalState":{"key":"03","name":"Niedersachsen"}},{"name":"Im Dachsbau","postalCode":"28816","locality":"Stuhr","municipality":{"key":"03251037","name":"Stuhr","type":"Kreisangehörige_Gemeinde"},"district":{"key":"03251","name":"Diepholz","type":"Landkreis"},"federalState":{"key":"03","name":"Niedersachsen"}},{"name":"Im Fuchswinkel","postalCode":"28816","locality":"Stuhr","municipality":{"key":"03251037","name":"Stuhr","type":"Kreisangehörige_Gemeinde"},"district":{"key":"03251","name":"Diepholz","type":"Landkreis"},"federalState":{"key":"03","name":"Niedersachsen"}},{"name":"Im Graftwinkel","postalCode":"28816","locality":"Stuhr","municipality":{"key":"03251037","name":"Stuhr","type":"Kreisangehörige_Gemeinde"},"district":{"key":"03251","name":"Diepholz","type":"Landkreis"},"federalState":{"key":"03","name":"Niedersachsen"}},{"name":"Im Grünen Winkel","postalCode":"28816","locality":"Stuhr","municipality":{"key":"03251037","name":"Stuhr","type":"Kreisangehörige_Gemeinde"},"district":{"key":"03251","name":"Diepholz","type":"Landkreis"},"federalState":{"key":"03","name":"Niedersachsen"}},{"name":"Im Kiefernwinkel","postalCode":"28816","locality":"Stuhr","municipality":{"key":"03251037","name":"Stuhr","type":"Kreisangehörige_Gemeinde"},"district":{"key":"03251","name":"Diepholz","type":"Landkreis"},"federalState":{"key":"03","name":"Niedersachsen"}},{"name":"Im Meer","postalCode":"28816","locality":"Stuhr","municipality":{"key":"03251037","name":"Stuhr","type":"Kreisangehörige_Gemeinde"},"district":{"key":"03251","name":"Diepholz","type":"Landkreis"},"federalState":{"key":"03","name":"Niedersachsen"}},{"name":"Im Moor","postalCode":"28816","locality":"Stuhr","municipality":{"key":"03251037","name":"Stuhr","type":"Kreisangehörige_Gemeinde"},"district":{"key":"03251","name":"Diepholz","type":"Landkreis"},"federalState":{"key":"03","name":"Niedersachsen"}},{"name":"Im Morgenland","postalCode":"28816","locality":"Stuhr","municipality":{"key":"03251037","name":"Stuhr","type":"Kreisangehörige_Gemeinde"},"district":{"key":"03251","name":"Diepholz","type":"Landkreis"},"federalState":{"key":"03","name":"Niedersachsen"}},{"name":"Im Mühlengrund","postalCode":"28816","locality":"Stuhr","municipality":{"key":"03251037","name":"Stuhr","type":"Kreisangehörige_Gemeinde"},"district":{"key":"03251","name":"Diepholz","type":"Landkreis"},"federalState":{"key":"03","name":"Niedersachsen"}},{"name":"Im Rehwinkel","postalCode":"28816","locality":"Stuhr","municipality":{"key":"03251037","name":"Stuhr","type":"Kreisangehörige_Gemeinde"},"district":{"key":"03251","name":"Diepholz","type":"Landkreis"},"federalState":{"key":"03","name":"Niedersachsen"}},{"name":"Im Ring","postalCode":"28816","locality":"Stuhr","municipality":{"key":"03251037","name":"Stuhr","type":"Kreisangehörige_Gemeinde"},"district":{"key":"03251","name":"Diepholz","type":"Landkreis"},"federalState":{"key":"03","name":"Niedersachsen"}},{"name":"Im Steller Sande","postalCode":"28816","locality":"Stuhr","municipality":{"key":"03251037","name":"Stuhr","type":"Kreisangehörige_Gemeinde"},"district":{"key":"03251","name":"Diepholz","type":"Landkreis"},"federalState":{"key":"03","name":"Niedersachsen"}},{"name":"Im Stillen Winkel","postalCode":"28816","locality":"Stuhr","municipality":{"key":"03251037","name":"Stuhr","type":"Kreisangehörige_Gemeinde"},"district":{"key":"03251","name":"Diepholz","type":"Landkreis"},"federalState":{"key":"03","name":"Niedersachsen"}},{"name":"Im Tannenwinkel","postalCode":"28816","locality":"Stuhr","municipality":{"key":"03251037","name":"Stuhr","type":"Kreisangehörige_Gemeinde"},"district":{"key":"03251","name":"Diepholz","type":"Landkreis"},"federalState":{"key":"03","name":"Niedersachsen"}},{"name":"Im Waldesgrund","postalCode":"28816","locality":"Stuhr","municipality":{"key":"03251037","name":"Stuhr","type":"Kreisangehörige_Gemeinde"},"district":{"key":"03251","name":"Diepholz","type":"Landkreis"},"federalState":{"key":"03","name":"Niedersachsen"}},{"name":"Im Wiesengrunde","postalCode":"28816","locality":"Stuhr","municipality":{"key":"03251037","name":"Stuhr","type":"Kreisangehörige_Gemeinde"},"district":{"key":"03251","name":"Diepholz","type":"Landkreis"},"federalState":{"key":"03","name":"Niedersachsen"}},{"name":"Ina-Seidel-Str.","postalCode":"28816","locality":"Stuhr","municipality":{"key":"03251037","name":"Stuhr","type":"Kreisangehörige_Gemeinde"},"district":{"key":"03251","name":"Diepholz","type":"Landkreis"},"federalState":{"key":"03","name":"Niedersachsen"}},{"name":"In den Dalmen","postalCode":"28816","locality":"Stuhr","municipality":{"key":"03251037","name":"Stuhr","type":"Kreisangehörige_Gemeinde"},"district":{"key":"03251","name":"Diepholz","type":"Landkreis"},"federalState":{"key":"03","name":"Niedersachsen"}},{"name":"In den Kämpen","postalCode":"28816","locality":"Stuhr","municipality":{"key":"03251037","name":"Stuhr","type":"Kreisangehörige_Gemeinde"},"district":{"key":"03251","name":"Diepholz","type":"Landkreis"},"federalState":{"key":"03","name":"Niedersachsen"}},{"name":"In der Waldsiedlung","postalCode":"28816","locality":"Stuhr","municipality":{"key":"03251037","name":"Stuhr","type":"Kreisangehörige_Gemeinde"},"district":{"key":"03251","name":"Diepholz","type":"Landkreis"},"federalState":{"key":"03","name":"Niedersachsen"}},{"name":"Ingeborg-Bachmann-Str.","postalCode":"28816","locality":"Stuhr","municipality":{"key":"03251037","name":"Stuhr","type":"Kreisangehörige_Gemeinde"},"district":{"key":"03251","name":"Diepholz","type":"Landkreis"},"federalState":{"key":"03","name":"Niedersachsen"}},{"name":"Insterburger Weg","postalCode":"28816","locality":"Stuhr","municipality":{"key":"03251037","name":"Stuhr","type":"Kreisangehörige_Gemeinde"},"district":{"key":"03251","name":"Diepholz","type":"Landkreis"},"federalState":{"key":"03","name":"Niedersachsen"}},{"name":"Jahnstr.","postalCode":"28816","locality":"Stuhr","municipality":{"key":"03251037","name":"Stuhr","type":"Kreisangehörige_Gemeinde"},"district":{"key":"03251","name":"Diepholz","type":"Landkreis"},"federalState":{"key":"03","name":"Niedersachsen"}},{"name":"Jenaer Str.","postalCode":"28816","locality":"Stuhr","municipality":{"key":"03251037","name":"Stuhr","type":"Kreisangehörige_Gemeinde"},"district":{"key":"03251","name":"Diepholz","type":"Landkreis"},"federalState":{"key":"03","name":"Niedersachsen"}},{"name":"Johanna-Spyri-Str.","postalCode":"28816","locality":"Stuhr","municipality":{"key":"03251037","name":"Stuhr","type":"Kreisangehörige_Gemeinde"},"district":{"key":"03251","name":"Diepholz","type":"Landkreis"},"federalState":{"key":"03","name":"Niedersachsen"}},{"name":"Johann-Eilers-Weg","postalCode":"28816","locality":"Stuhr","municipality":{"key":"03251037","name":"Stuhr","type":"Kreisangehörige_Gemeinde"},"district":{"key":"03251","name":"Diepholz","type":"Landkreis"},"federalState":{"key":"03","name":"Niedersachsen"}},{"name":"Jupiterstr.","postalCode":"28816","locality":"Stuhr","municipality":{"key":"03251037","name":"Stuhr","type":"Kreisangehörige_Gemeinde"},"district":{"key":"03251","name":"Diepholz","type":"Landkreis"},"federalState":{"key":"03","name":"Niedersachsen"}},{"name":"Kälberstr.","postalCode":"28816","locality":"Stuhr","municipality":{"key":"03251037","name":"Stuhr","type":"Kreisangehörige_Gemeinde"},"district":{"key":"03251","name":"Diepholz","type":"Landkreis"},"federalState":{"key":"03","name":"Niedersachsen"}},{"name":"Karlstr.","postalCode":"28816","locality":"Stuhr","municipality":{"key":"03251037","name":"Stuhr","type":"Kreisangehörige_Gemeinde"},"district":{"key":"03251","name":"Diepholz","type":"Landkreis"},"federalState":{"key":"03","name":"Niedersachsen"}},{"name":"Kastanienstr.","postalCode":"28816","locality":"Stuhr","municipality":{"key":"03251037","name":"Stuhr","type":"Kreisangehörige_Gemeinde"},"district":{"key":"03251","name":"Diepholz","type":"Landkreis"},"federalState":{"key":"03","name":"Niedersachsen"}},{"name":"Käthe-Kollwitz-Str.","postalCode":"28816","locality":"Stuhr","municipality":{"key":"03251037","name":"Stuhr","type":"Kreisangehörige_Gemeinde"},"district":{"key":"03251","name":"Diepholz","type":"Landkreis"},"federalState":{"key":"03","name":"Niedersachsen"}},{"name":"Kätinger Fuhren","postalCode":"28816","locality":"Stuhr","municipality":{"key":"03251037","name":"Stuhr","type":"Kreisangehörige_Gemeinde"},"district":{"key":"03251","name":"Diepholz","type":"Landkreis"},"federalState":{"key":"03","name":"Niedersachsen"}},{"name":"Kätinger Mühlenweg","postalCode":"28816","locality":"Stuhr","municipality":{"key":"03251037","name":"Stuhr","type":"Kreisangehörige_Gemeinde"},"district":{"key":"03251","name":"Diepholz","type":"Landkreis"},"federalState":{"key":"03","name":"Niedersachsen"}},{"name":"Kiebitzbrink","postalCode":"28816","locality":"Stuhr","municipality":{"key":"03251037","name":"Stuhr","type":"Kreisangehörige_Gemeinde"},"district":{"key":"03251","name":"Diepholz","type":"Landkreis"},"federalState":{"key":"03","name":"Niedersachsen"}},{"name":"Kiebitzstr.","postalCode":"28816","locality":"Stuhr","municipality":{"key":"03251037","name":"Stuhr","type":"Kreisangehörige_Gemeinde"},"district":{"key":"03251","name":"Diepholz","type":"Landkreis"},"federalState":{"key":"03","name":"Niedersachsen"}},{"name":"Kiefernweg","postalCode":"28816","locality":"Stuhr","municipality":{"key":"03251037","name":"Stuhr","type":"Kreisangehörige_Gemeinde"},"district":{"key":"03251","name":"Diepholz","type":"Landkreis"},"federalState":{"key":"03","name":"Niedersachsen"}},{"name":"Kirchplatz","postalCode":"28816","locality":"Stuhr","municipality":{"key":"03251037","name":"Stuhr","type":"Kreisangehörige_Gemeinde"},"district":{"key":"03251","name":"Diepholz","type":"Landkreis"},"federalState":{"key":"03","name":"Niedersachsen"}},{"name":"Kirchseelter Heuweg","postalCode":"28816","locality":"Stuhr","municipality":{"key":"03251037","name":"Stuhr","type":"Kreisangehörige_Gemeinde"},"district":{"key":"03251","name":"Diepholz","type":"Landkreis"},"federalState":{"key":"03","name":"Niedersachsen"}},{"name":"Kirchseelter Str.","postalCode":"28816","locality":"Stuhr","municipality":{"key":"03251037","name":"Stuhr","type":"Kreisangehörige_Gemeinde"},"district":{"key":"03251","name":"Diepholz","type":"Landkreis"},"federalState":{"key":"03","name":"Niedersachsen"}},{"name":"Kirchstr.","postalCode":"28816","locality":"Stuhr","municipality":{"key":"03251037","name":"Stuhr","type":"Kreisangehörige_Gemeinde"},"district":{"key":"03251","name":"Diepholz","type":"Landkreis"},"federalState":{"key":"03","name":"Niedersachsen"}},{"name":"Kladdinger Str.","postalCode":"28816","locality":"Stuhr","municipality":{"key":"03251037","name":"Stuhr","type":"Kreisangehörige_Gemeinde"},"district":{"key":"03251","name":"Diepholz","type":"Landkreis"},"federalState":{"key":"03","name":"Niedersachsen"}},{"name":"Klaus-Groth-Str.","postalCode":"28816","locality":"Stuhr","municipality":{"key":"03251037","name":"Stuhr","type":"Kreisangehörige_Gemeinde"},"district":{"key":"03251","name":"Diepholz","type":"Landkreis"},"federalState":{"key":"03","name":"Niedersachsen"}},{"name":"Kleeweg","postalCode":"28816","locality":"Stuhr","municipality":{"key":"03251037","name":"Stuhr","type":"Kreisangehörige_Gemeinde"},"district":{"key":"03251","name":"Diepholz","type":"Landkreis"},"federalState":{"key":"03","name":"Niedersachsen"}},{"name":"Kleiberstr.","postalCode":"28816","locality":"Stuhr","municipality":{"key":"03251037","name":"Stuhr","type":"Kreisangehörige_Gemeinde"},"district":{"key":"03251","name":"Diepholz","type":"Landkreis"},"federalState":{"key":"03","name":"Niedersachsen"}},{"name":"Klinkerweg","postalCode":"28816","locality":"Stuhr","municipality":{"key":"03251037","name":"Stuhr","type":"Kreisangehörige_Gemeinde"},"district":{"key":"03251","name":"Diepholz","type":"Landkreis"},"federalState":{"key":"03","name":"Niedersachsen"}},{"name":"Klosterbachweg","postalCode":"28816","locality":"Stuhr","municipality":{"key":"03251037","name":"Stuhr","type":"Kreisangehörige_Gemeinde"},"district":{"key":"03251","name":"Diepholz","type":"Landkreis"},"federalState":{"key":"03","name":"Niedersachsen"}},{"name":"Klosterplatz","postalCode":"28816","locality":"Stuhr","municipality":{"key":"03251037","name":"Stuhr","type":"Kreisangehörige_Gemeinde"},"district":{"key":"03251","name":"Diepholz","type":"Landkreis"},"federalState":{"key":"03","name":"Niedersachsen"}},{"name":"Knochenhauersgang","postalCode":"28816","locality":"Stuhr","municipality":{"key":"03251037","name":"Stuhr","type":"Kreisangehörige_Gemeinde"},"district":{"key":"03251","name":"Diepholz","type":"Landkreis"},"federalState":{"key":"03","name":"Niedersachsen"}},{"name":"Königsberger Str.","postalCode":"28816","locality":"Stuhr","municipality":{"key":"03251037","name":"Stuhr","type":"Kreisangehörige_Gemeinde"},"district":{"key":"03251","name":"Diepholz","type":"Landkreis"},"federalState":{"key":"03","name":"Niedersachsen"}},{"name":"Korallenstr.","postalCode":"28816","locality":"Stuhr","municipality":{"key":"03251037","name":"Stuhr","type":"Kreisangehörige_Gemeinde"},"district":{"key":"03251","name":"Diepholz","type":"Landkreis"},"federalState":{"key":"03","name":"Niedersachsen"}},{"name":"Korbmacherstr.","postalCode":"28816","locality":"Stuhr","municipality":{"key":"03251037","name":"Stuhr","type":"Kreisangehörige_Gemeinde"},"district":{"key":"03251","name":"Diepholz","type":"Landkreis"},"federalState":{"key":"03","name":"Niedersachsen"}},{"name":"Kornmühlenweg","postalCode":"28816","locality":"Stuhr","municipality":{"key":"03251037","name":"Stuhr","type":"Kreisangehörige_Gemeinde"},"district":{"key":"03251","name":"Diepholz","type":"Landkreis"},"federalState":{"key":"03","name":"Niedersachsen"}},{"name":"Kornweg","postalCode":"28816","locality":"Stuhr","municipality":{"key":"03251037","name":"Stuhr","type":"Kreisangehörige_Gemeinde"},"district":{"key":"03251","name":"Diepholz","type":"Landkreis"},"federalState":{"key":"03","name":"Niedersachsen"}},{"name":"Kosterkamp","postalCode":"28816","locality":"Stuhr","municipality":{"key":"03251037","name":"Stuhr","type":"Kreisangehörige_Gemeinde"},"district":{"key":"03251","name":"Diepholz","type":"Landkreis"},"federalState":{"key":"03","name":"Niedersachsen"}},{"name":"Kronsbrook","postalCode":"28816","locality":"Stuhr","municipality":{"key":"03251037","name":"Stuhr","type":"Kreisangehörige_Gemeinde"},"district":{"key":"03251","name":"Diepholz","type":"Landkreis"},"federalState":{"key":"03","name":"Niedersachsen"}},{"name":"Kuhteichweg","postalCode":"28816","locality":"Stuhr","municipality":{"key":"03251037","name":"Stuhr","type":"Kreisangehörige_Gemeinde"},"district":{"key":"03251","name":"Diepholz","type":"Landkreis"},"federalState":{"key":"03","name":"Niedersachsen"}},{"name":"Kurze Str.","postalCode":"28816","locality":"Stuhr","municipality":{"key":"03251037","name":"Stuhr","type":"Kreisangehörige_Gemeinde"},"district":{"key":"03251","name":"Diepholz","type":"Landkreis"},"federalState":{"key":"03","name":"Niedersachsen"}},{"name":"Lahnstr.","postalCode":"28816","locality":"Stuhr","municipality":{"key":"03251037","name":"Stuhr","type":"Kreisangehörige_Gemeinde"},"district":{"key":"03251","name":"Diepholz","type":"Landkreis"},"federalState":{"key":"03","name":"Niedersachsen"}},{"name":"Landsberger Str.","postalCode":"28816","locality":"Stuhr","municipality":{"key":"03251037","name":"Stuhr","type":"Kreisangehörige_Gemeinde"},"district":{"key":"03251","name":"Diepholz","type":"Landkreis"},"federalState":{"key":"03","name":"Niedersachsen"}},{"name":"Langenstr.","postalCode":"28816","locality":"Stuhr","municipality":{"key":"03251037","name":"Stuhr","type":"Kreisangehörige_Gemeinde"},"district":{"key":"03251","name":"Diepholz","type":"Landkreis"},"federalState":{"key":"03","name":"Niedersachsen"}},{"name":"Langer Weg","postalCode":"28816","locality":"Stuhr","municipality":{"key":"03251037","name":"Stuhr","type":"Kreisangehörige_Gemeinde"},"district":{"key":"03251","name":"Diepholz","type":"Landkreis"},"federalState":{"key":"03","name":"Niedersachsen"}},{"name":"Lärchenstr.","postalCode":"28816","locality":"Stuhr","municipality":{"key":"03251037","name":"Stuhr","type":"Kreisangehörige_Gemeinde"},"district":{"key":"03251","name":"Diepholz","type":"Landkreis"},"federalState":{"key":"03","name":"Niedersachsen"}},{"name":"Lärchenweg","postalCode":"28816","locality":"Stuhr","municipality":{"key":"03251037","name":"Stuhr","type":"Kreisangehörige_Gemeinde"},"district":{"key":"03251","name":"Diepholz","type":"Landkreis"},"federalState":{"key":"03","name":"Niedersachsen"}},{"name":"Leester Str.","postalCode":"28816","locality":"Stuhr","municipality":{"key":"03251037","name":"Stuhr","type":"Kreisangehörige_Gemeinde"},"district":{"key":"03251","name":"Diepholz","type":"Landkreis"},"federalState":{"key":"03","name":"Niedersachsen"}},{"name":"Lehmkuhlenbusch","postalCode":"28816","locality":"Stuhr","municipality":{"key":"03251037","name":"Stuhr","type":"Kreisangehörige_Gemeinde"},"district":{"key":"03251","name":"Diepholz","type":"Landkreis"},"federalState":{"key":"03","name":"Niedersachsen"}},{"name":"Lehmkuhler Weg","postalCode":"28816","locality":"Stuhr","municipality":{"key":"03251037","name":"Stuhr","type":"Kreisangehörige_Gemeinde"},"district":{"key":"03251","name":"Diepholz","type":"Landkreis"},"federalState":{"key":"03","name":"Niedersachsen"}},{"name":"Leipziger Str.","postalCode":"28816","locality":"Stuhr","municipality":{"key":"03251037","name":"Stuhr","type":"Kreisangehörige_Gemeinde"},"district":{"key":"03251","name":"Diepholz","type":"Landkreis"},"federalState":{"key":"03","name":"Niedersachsen"}},{"name":"Lessingstr.","postalCode":"28816","locality":"Stuhr","municipality":{"key":"03251037","name":"Stuhr","type":"Kreisangehörige_Gemeinde"},"district":{"key":"03251","name":"Diepholz","type":"Landkreis"},"federalState":{"key":"03","name":"Niedersachsen"}},{"name":"Ligusterweg","postalCode":"28816","locality":"Stuhr","municipality":{"key":"03251037","name":"Stuhr","type":"Kreisangehörige_Gemeinde"},"district":{"key":"03251","name":"Diepholz","type":"Landkreis"},"federalState":{"key":"03","name":"Niedersachsen"}},{"name":"Lilienstr.","postalCode":"28816","locality":"Stuhr","municipality":{"key":"03251037","name":"Stuhr","type":"Kreisangehörige_Gemeinde"},"district":{"key":"03251","name":"Diepholz","type":"Landkreis"},"federalState":{"key":"03","name":"Niedersachsen"}},{"name":"Linaweg","postalCode":"28816","locality":"Stuhr","municipality":{"key":"03251037","name":"Stuhr","type":"Kreisangehörige_Gemeinde"},"district":{"key":"03251","name":"Diepholz","type":"Landkreis"},"federalState":{"key":"03","name":"Niedersachsen"}},{"name":"Lindenstr.","postalCode":"28816","locality":"Stuhr","municipality":{"key":"03251037","name":"Stuhr","type":"Kreisangehörige_Gemeinde"},"district":{"key":"03251","name":"Diepholz","type":"Landkreis"},"federalState":{"key":"03","name":"Niedersachsen"}},{"name":"Lindenweg","postalCode":"28816","locality":"Stuhr","municipality":{"key":"03251037","name":"Stuhr","type":"Kreisangehörige_Gemeinde"},"district":{"key":"03251","name":"Diepholz","type":"Landkreis"},"federalState":{"key":"03","name":"Niedersachsen"}},{"name":"Lippestr.","postalCode":"28816","locality":"Stuhr","municipality":{"key":"03251037","name":"Stuhr","type":"Kreisangehörige_Gemeinde"},"district":{"key":"03251","name":"Diepholz","type":"Landkreis"},"federalState":{"key":"03","name":"Niedersachsen"}},{"name":"Lise-Meitner-Str.","postalCode":"28816","locality":"Stuhr","municipality":{"key":"03251037","name":"Stuhr","type":"Kreisangehörige_Gemeinde"},"district":{"key":"03251","name":"Diepholz","type":"Landkreis"},"federalState":{"key":"03","name":"Niedersachsen"}},{"name":"Löwenzahnweg","postalCode":"28816","locality":"Stuhr","municipality":{"key":"03251037","name":"Stuhr","type":"Kreisangehörige_Gemeinde"},"district":{"key":"03251","name":"Diepholz","type":"Landkreis"},"federalState":{"key":"03","name":"Niedersachsen"}},{"name":"Ludwig-Bechstein-Weg","postalCode":"28816","locality":"Stuhr","municipality":{"key":"03251037","name":"Stuhr","type":"Kreisangehörige_Gemeinde"},"district":{"key":"03251","name":"Diepholz","type":"Landkreis"},"federalState":{"key":"03","name":"Niedersachsen"}},{"name":"Ludwigsburger Weg","postalCode":"28816","locality":"Stuhr","municipality":{"key":"03251037","name":"Stuhr","type":"Kreisangehörige_Gemeinde"},"district":{"key":"03251","name":"Diepholz","type":"Landkreis"},"federalState":{"key":"03","name":"Niedersachsen"}},{"name":"Luise-Rinser-Str.","postalCode":"28816","locality":"Stuhr","municipality":{"key":"03251037","name":"Stuhr","type":"Kreisangehörige_Gemeinde"},"district":{"key":"03251","name":"Diepholz","type":"Landkreis"},"federalState":{"key":"03","name":"Niedersachsen"}},{"name":"Luxemburger Weg","postalCode":"28816","locality":"Stuhr","municipality":{"key":"03251037","name":"Stuhr","type":"Kreisangehörige_Gemeinde"},"district":{"key":"03251","name":"Diepholz","type":"Landkreis"},"federalState":{"key":"03","name":"Niedersachsen"}},{"name":"Mackenstedter Feld","postalCode":"28816","locality":"Stuhr","municipality":{"key":"03251037","name":"Stuhr","type":"Kreisangehörige_Gemeinde"},"district":{"key":"03251","name":"Diepholz","type":"Landkreis"},"federalState":{"key":"03","name":"Niedersachsen"}},{"name":"Magdeburger Str.","postalCode":"28816","locality":"Stuhr","municipality":{"key":"03251037","name":"Stuhr","type":"Kreisangehörige_Gemeinde"},"district":{"key":"03251","name":"Diepholz","type":"Landkreis"},"federalState":{"key":"03","name":"Niedersachsen"}},{"name":"Magnolienstr.","postalCode":"28816","locality":"Stuhr","municipality":{"key":"03251037","name":"Stuhr","type":"Kreisangehörige_Gemeinde"},"district":{"key":"03251","name":"Diepholz","type":"Landkreis"},"federalState":{"key":"03","name":"Niedersachsen"}},{"name":"Maifeldstr.","postalCode":"28816","locality":"Stuhr","municipality":{"key":"03251037","name":"Stuhr","type":"Kreisangehörige_Gemeinde"},"district":{"key":"03251","name":"Diepholz","type":"Landkreis"},"federalState":{"key":"03","name":"Niedersachsen"}},{"name":"Mainstr.","postalCode":"28816","locality":"Stuhr","municipality":{"key":"03251037","name":"Stuhr","type":"Kreisangehörige_Gemeinde"},"district":{"key":"03251","name":"Diepholz","type":"Landkreis"},"federalState":{"key":"03","name":"Niedersachsen"}},{"name":"Malvenstr.","postalCode":"28816","locality":"Stuhr","municipality":{"key":"03251037","name":"Stuhr","type":"Kreisangehörige_Gemeinde"},"district":{"key":"03251","name":"Diepholz","type":"Landkreis"},"federalState":{"key":"03","name":"Niedersachsen"}},{"name":"Marbacher Weg","postalCode":"28816","locality":"Stuhr","municipality":{"key":"03251037","name":"Stuhr","type":"Kreisangehörige_Gemeinde"},"district":{"key":"03251","name":"Diepholz","type":"Landkreis"},"federalState":{"key":"03","name":"Niedersachsen"}},{"name":"Marcusstr.","postalCode":"28816","locality":"Stuhr","municipality":{"key":"03251037","name":"Stuhr","type":"Kreisangehörige_Gemeinde"},"district":{"key":"03251","name":"Diepholz","type":"Landkreis"},"federalState":{"key":"03","name":"Niedersachsen"}},{"name":"Marienburger Weg","postalCode":"28816","locality":"Stuhr","municipality":{"key":"03251037","name":"Stuhr","type":"Kreisangehörige_Gemeinde"},"district":{"key":"03251","name":"Diepholz","type":"Landkreis"},"federalState":{"key":"03","name":"Niedersachsen"}},{"name":"Marienweg","postalCode":"28816","locality":"Stuhr","municipality":{"key":"03251037","name":"Stuhr","type":"Kreisangehörige_Gemeinde"},"district":{"key":"03251","name":"Diepholz","type":"Landkreis"},"federalState":{"key":"03","name":"Niedersachsen"}},{"name":"Marschdamm","postalCode":"28816","locality":"Stuhr","municipality":{"key":"03251037","name":"Stuhr","type":"Kreisangehörige_Gemeinde"},"district":{"key":"03251","name":"Diepholz","type":"Landkreis"},"federalState":{"key":"03","name":"Niedersachsen"}},{"name":"Marsstr.","postalCode":"28816","locality":"Stuhr","municipality":{"key":"03251037","name":"Stuhr","type":"Kreisangehörige_Gemeinde"},"district":{"key":"03251","name":"Diepholz","type":"Landkreis"},"federalState":{"key":"03","name":"Niedersachsen"}},{"name":"Martensweg","postalCode":"28816","locality":"Stuhr","municipality":{"key":"03251037","name":"Stuhr","type":"Kreisangehörige_Gemeinde"},"district":{"key":"03251","name":"Diepholz","type":"Landkreis"},"federalState":{"key":"03","name":"Niedersachsen"}},{"name":"Martin-Opitz-Weg","postalCode":"28816","locality":"Stuhr","municipality":{"key":"03251037","name":"Stuhr","type":"Kreisangehörige_Gemeinde"},"district":{"key":"03251","name":"Diepholz","type":"Landkreis"},"federalState":{"key":"03","name":"Niedersachsen"}},{"name":"Masurenstr.","postalCode":"28816","locality":"Stuhr","municipality":{"key":"03251037","name":"Stuhr","type":"Kreisangehörige_Gemeinde"},"district":{"key":"03251","name":"Diepholz","type":"Landkreis"},"federalState":{"key":"03","name":"Niedersachsen"}},{"name":"Max-Pechstein-Str.","postalCode":"28816","locality":"Stuhr","municipality":{"key":"03251037","name":"Stuhr","type":"Kreisangehörige_Gemeinde"},"district":{"key":"03251","name":"Diepholz","type":"Landkreis"},"federalState":{"key":"03","name":"Niedersachsen"}},{"name":"Mecklenburger Str.","postalCode":"28816","locality":"Stuhr","municipality":{"key":"03251037","name":"Stuhr","type":"Kreisangehörige_Gemeinde"},"district":{"key":"03251","name":"Diepholz","type":"Landkreis"},"federalState":{"key":"03","name":"Niedersachsen"}},{"name":"Meenheit","postalCode":"28816","locality":"Stuhr","municipality":{"key":"03251037","name":"Stuhr","type":"Kreisangehörige_Gemeinde"},"district":{"key":"03251","name":"Diepholz","type":"Landkreis"},"federalState":{"key":"03","name":"Niedersachsen"}},{"name":"Meisenkamp","postalCode":"28816","locality":"Stuhr","municipality":{"key":"03251037","name":"Stuhr","type":"Kreisangehörige_Gemeinde"},"district":{"key":"03251","name":"Diepholz","type":"Landkreis"},"federalState":{"key":"03","name":"Niedersachsen"}},{"name":"Meisenweg","postalCode":"28816","locality":"Stuhr","municipality":{"key":"03251037","name":"Stuhr","type":"Kreisangehörige_Gemeinde"},"district":{"key":"03251","name":"Diepholz","type":"Landkreis"},"federalState":{"key":"03","name":"Niedersachsen"}},{"name":"Meißener Weg","postalCode":"28816","locality":"Stuhr","municipality":{"key":"03251037","name":"Stuhr","type":"Kreisangehörige_Gemeinde"},"district":{"key":"03251","name":"Diepholz","type":"Landkreis"},"federalState":{"key":"03","name":"Niedersachsen"}},{"name":"Melcherstätte","postalCode":"28816","locality":"Stuhr","municipality":{"key":"03251037","name":"Stuhr","type":"Kreisangehörige_Gemeinde"},"district":{"key":"03251","name":"Diepholz","type":"Landkreis"},"federalState":{"key":"03","name":"Niedersachsen"}},{"name":"Memelländer Str.","postalCode":"28816","locality":"Stuhr","municipality":{"key":"03251037","name":"Stuhr","type":"Kreisangehörige_Gemeinde"},"district":{"key":"03251","name":"Diepholz","type":"Landkreis"},"federalState":{"key":"03","name":"Niedersachsen"}},{"name":"Merkurstr.","postalCode":"28816","locality":"Stuhr","municipality":{"key":"03251037","name":"Stuhr","type":"Kreisangehörige_Gemeinde"},"district":{"key":"03251","name":"Diepholz","type":"Landkreis"},"federalState":{"key":"03","name":"Niedersachsen"}},{"name":"Meyerstr.","postalCode":"28816","locality":"Stuhr","municipality":{"key":"03251037","name":"Stuhr","type":"Kreisangehörige_Gemeinde"},"district":{"key":"03251","name":"Diepholz","type":"Landkreis"},"federalState":{"key":"03","name":"Niedersachsen"}},{"name":"Michael-Ende-Str.","postalCode":"28816","locality":"Stuhr","municipality":{"key":"03251037","name":"Stuhr","type":"Kreisangehörige_Gemeinde"},"district":{"key":"03251","name":"Diepholz","type":"Landkreis"},"federalState":{"key":"03","name":"Niedersachsen"}},{"name":"Mispelstr.","postalCode":"28816","locality":"Stuhr","municipality":{"key":"03251037","name":"Stuhr","type":"Kreisangehörige_Gemeinde"},"district":{"key":"03251","name":"Diepholz","type":"Landkreis"},"federalState":{"key":"03","name":"Niedersachsen"}},{"name":"Mittelstr.","postalCode":"28816","locality":"Stuhr","municipality":{"key":"03251037","name":"Stuhr","type":"Kreisangehörige_Gemeinde"},"district":{"key":"03251","name":"Diepholz","type":"Landkreis"},"federalState":{"key":"03","name":"Niedersachsen"}},{"name":"Mittelweg","postalCode":"28816","locality":"Stuhr","municipality":{"key":"03251037","name":"Stuhr","type":"Kreisangehörige_Gemeinde"},"district":{"key":"03251","name":"Diepholz","type":"Landkreis"},"federalState":{"key":"03","name":"Niedersachsen"}},{"name":"Mondsteinstr.","postalCode":"28816","locality":"Stuhr","municipality":{"key":"03251037","name":"Stuhr","type":"Kreisangehörige_Gemeinde"},"district":{"key":"03251","name":"Diepholz","type":"Landkreis"},"federalState":{"key":"03","name":"Niedersachsen"}},{"name":"Moorbekweg","postalCode":"28816","locality":"Stuhr","municipality":{"key":"03251037","name":"Stuhr","type":"Kreisangehörige_Gemeinde"},"district":{"key":"03251","name":"Diepholz","type":"Landkreis"},"federalState":{"key":"03","name":"Niedersachsen"}},{"name":"Moordeicher Landstr.","postalCode":"28816","locality":"Stuhr","municipality":{"key":"03251037","name":"Stuhr","type":"Kreisangehörige_Gemeinde"},"district":{"key":"03251","name":"Diepholz","type":"Landkreis"},"federalState":{"key":"03","name":"Niedersachsen"}},{"name":"Moorkamp","postalCode":"28816","locality":"Stuhr","municipality":{"key":"03251037","name":"Stuhr","type":"Kreisangehörige_Gemeinde"},"district":{"key":"03251","name":"Diepholz","type":"Landkreis"},"federalState":{"key":"03","name":"Niedersachsen"}},{"name":"Moorstr.","postalCode":"28816","locality":"Stuhr","municipality":{"key":"03251037","name":"Stuhr","type":"Kreisangehörige_Gemeinde"},"district":{"key":"03251","name":"Diepholz","type":"Landkreis"},"federalState":{"key":"03","name":"Niedersachsen"}},{"name":"Moorweg","postalCode":"28816","locality":"Stuhr","municipality":{"key":"03251037","name":"Stuhr","type":"Kreisangehörige_Gemeinde"},"district":{"key":"03251","name":"Diepholz","type":"Landkreis"},"federalState":{"key":"03","name":"Niedersachsen"}},{"name":"Moselallee","postalCode":"28816","locality":"Stuhr","municipality":{"key":"03251037","name":"Stuhr","type":"Kreisangehörige_Gemeinde"},"district":{"key":"03251","name":"Diepholz","type":"Landkreis"},"federalState":{"key":"03","name":"Niedersachsen"}},{"name":"Moselstr.","postalCode":"28816","locality":"Stuhr","municipality":{"key":"03251037","name":"Stuhr","type":"Kreisangehörige_Gemeinde"},"district":{"key":"03251","name":"Diepholz","type":"Landkreis"},"federalState":{"key":"03","name":"Niedersachsen"}},{"name":"Mozartring","postalCode":"28816","locality":"Stuhr","municipality":{"key":"03251037","name":"Stuhr","type":"Kreisangehörige_Gemeinde"},"district":{"key":"03251","name":"Diepholz","type":"Landkreis"},"federalState":{"key":"03","name":"Niedersachsen"}},{"name":"Mühlenstr.","postalCode":"28816","locality":"Stuhr","municipality":{"key":"03251037","name":"Stuhr","type":"Kreisangehörige_Gemeinde"},"district":{"key":"03251","name":"Diepholz","type":"Landkreis"},"federalState":{"key":"03","name":"Niedersachsen"}},{"name":"Mühlenweg","postalCode":"28816","locality":"Stuhr","municipality":{"key":"03251037","name":"Stuhr","type":"Kreisangehörige_Gemeinde"},"district":{"key":"03251","name":"Diepholz","type":"Landkreis"},"federalState":{"key":"03","name":"Niedersachsen"}},{"name":"Mümmelmannstr.","postalCode":"28816","locality":"Stuhr","municipality":{"key":"03251037","name":"Stuhr","type":"Kreisangehörige_Gemeinde"},"district":{"key":"03251","name":"Diepholz","type":"Landkreis"},"federalState":{"key":"03","name":"Niedersachsen"}},{"name":"Nachtigallweg","postalCode":"28816","locality":"Stuhr","municipality":{"key":"03251037","name":"Stuhr","type":"Kreisangehörige_Gemeinde"},"district":{"key":"03251","name":"Diepholz","type":"Landkreis"},"federalState":{"key":"03","name":"Niedersachsen"}},{"name":"Nahestr.","postalCode":"28816","locality":"Stuhr","municipality":{"key":"03251037","name":"Stuhr","type":"Kreisangehörige_Gemeinde"},"district":{"key":"03251","name":"Diepholz","type":"Landkreis"},"federalState":{"key":"03","name":"Niedersachsen"}},{"name":"Neckarstr.","postalCode":"28816","locality":"Stuhr","municipality":{"key":"03251037","name":"Stuhr","type":"Kreisangehörige_Gemeinde"},"district":{"key":"03251","name":"Diepholz","type":"Landkreis"},"federalState":{"key":"03","name":"Niedersachsen"}},{"name":"Nelkenstr.","postalCode":"28816","locality":"Stuhr","municipality":{"key":"03251037","name":"Stuhr","type":"Kreisangehörige_Gemeinde"},"district":{"key":"03251","name":"Diepholz","type":"Landkreis"},"federalState":{"key":"03","name":"Niedersachsen"}},{"name":"Nelkenweg","postalCode":"28816","locality":"Stuhr","municipality":{"key":"03251037","name":"Stuhr","type":"Kreisangehörige_Gemeinde"},"district":{"key":"03251","name":"Diepholz","type":"Landkreis"},"federalState":{"key":"03","name":"Niedersachsen"}},{"name":"Nelly-Sachs-Str.","postalCode":"28816","locality":"Stuhr","municipality":{"key":"03251037","name":"Stuhr","type":"Kreisangehörige_Gemeinde"},"district":{"key":"03251","name":"Diepholz","type":"Landkreis"},"federalState":{"key":"03","name":"Niedersachsen"}},{"name":"Neue Heimat","postalCode":"28816","locality":"Stuhr","municipality":{"key":"03251037","name":"Stuhr","type":"Kreisangehörige_Gemeinde"},"district":{"key":"03251","name":"Diepholz","type":"Landkreis"},"federalState":{"key":"03","name":"Niedersachsen"}},{"name":"Neuenstr.","postalCode":"28816","locality":"Stuhr","municipality":{"key":"03251037","name":"Stuhr","type":"Kreisangehörige_Gemeinde"},"district":{"key":"03251","name":"Diepholz","type":"Landkreis"},"federalState":{"key":"03","name":"Niedersachsen"}},{"name":"Neuer Weg","postalCode":"28816","locality":"Stuhr","municipality":{"key":"03251037","name":"Stuhr","type":"Kreisangehörige_Gemeinde"},"district":{"key":"03251","name":"Diepholz","type":"Landkreis"},"federalState":{"key":"03","name":"Niedersachsen"}},{"name":"Neues Land","postalCode":"28816","locality":"Stuhr","municipality":{"key":"03251037","name":"Stuhr","type":"Kreisangehörige_Gemeinde"},"district":{"key":"03251","name":"Diepholz","type":"Landkreis"},"federalState":{"key":"03","name":"Niedersachsen"}},{"name":"Neue Wurth","postalCode":"28816","locality":"Stuhr","municipality":{"key":"03251037","name":"Stuhr","type":"Kreisangehörige_Gemeinde"},"district":{"key":"03251","name":"Diepholz","type":"Landkreis"},"federalState":{"key":"03","name":"Niedersachsen"}},{"name":"Neukruger Str.","postalCode":"28816","locality":"Stuhr","municipality":{"key":"03251037","name":"Stuhr","type":"Kreisangehörige_Gemeinde"},"district":{"key":"03251","name":"Diepholz","type":"Landkreis"},"federalState":{"key":"03","name":"Niedersachsen"}},{"name":"Niddastr.","postalCode":"28816","locality":"Stuhr","municipality":{"key":"03251037","name":"Stuhr","type":"Kreisangehörige_Gemeinde"},"district":{"key":"03251","name":"Diepholz","type":"Landkreis"},"federalState":{"key":"03","name":"Niedersachsen"}},{"name":"Norderländer Str.","postalCode":"28816","locality":"Stuhr","municipality":{"key":"03251037","name":"Stuhr","type":"Kreisangehörige_Gemeinde"},"district":{"key":"03251","name":"Diepholz","type":"Landkreis"},"federalState":{"key":"03","name":"Niedersachsen"}},{"name":"Nordstr.","postalCode":"28816","locality":"Stuhr","municipality":{"key":"03251037","name":"Stuhr","type":"Kreisangehörige_Gemeinde"},"district":{"key":"03251","name":"Diepholz","type":"Landkreis"},"federalState":{"key":"03","name":"Niedersachsen"}},{"name":"Ochtumweg","postalCode":"28816","locality":"Stuhr","municipality":{"key":"03251037","name":"Stuhr","type":"Kreisangehörige_Gemeinde"},"district":{"key":"03251","name":"Diepholz","type":"Landkreis"},"federalState":{"key":"03","name":"Niedersachsen"}},{"name":"Ofener Weg","postalCode":"28816","locality":"Stuhr","municipality":{"key":"03251037","name":"Stuhr","type":"Kreisangehörige_Gemeinde"},"district":{"key":"03251","name":"Diepholz","type":"Landkreis"},"federalState":{"key":"03","name":"Niedersachsen"}},{"name":"Opalstr.","postalCode":"28816","locality":"Stuhr","municipality":{"key":"03251037","name":"Stuhr","type":"Kreisangehörige_Gemeinde"},"district":{"key":"03251","name":"Diepholz","type":"Landkreis"},"federalState":{"key":"03","name":"Niedersachsen"}},{"name":"Orchideenstr.","postalCode":"28816","locality":"Stuhr","municipality":{"key":"03251037","name":"Stuhr","type":"Kreisangehörige_Gemeinde"},"district":{"key":"03251","name":"Diepholz","type":"Landkreis"},"federalState":{"key":"03","name":"Niedersachsen"}},{"name":"Orionweg","postalCode":"28816","locality":"Stuhr","municipality":{"key":"03251037","name":"Stuhr","type":"Kreisangehörige_Gemeinde"},"district":{"key":"03251","name":"Diepholz","type":"Landkreis"},"federalState":{"key":"03","name":"Niedersachsen"}},{"name":"Ortelsburger Weg","postalCode":"28816","locality":"Stuhr","municipality":{"key":"03251037","name":"Stuhr","type":"Kreisangehörige_Gemeinde"},"district":{"key":"03251","name":"Diepholz","type":"Landkreis"},"federalState":{"key":"03","name":"Niedersachsen"}},{"name":"Osterstr.","postalCode":"28816","locality":"Stuhr","municipality":{"key":"03251037","name":"Stuhr","type":"Kreisangehörige_Gemeinde"},"district":{"key":"03251","name":"Diepholz","type":"Landkreis"},"federalState":{"key":"03","name":"Niedersachsen"}},{"name":"Ostrzeszów-Platz","postalCode":"28816","locality":"Stuhr","municipality":{"key":"03251037","name":"Stuhr","type":"Kreisangehörige_Gemeinde"},"district":{"key":"03251","name":"Diepholz","type":"Landkreis"},"federalState":{"key":"03","name":"Niedersachsen"}},{"name":"Otto-Dix-Str.","postalCode":"28816","locality":"Stuhr","municipality":{"key":"03251037","name":"Stuhr","type":"Kreisangehörige_Gemeinde"},"district":{"key":"03251","name":"Diepholz","type":"Landkreis"},"federalState":{"key":"03","name":"Niedersachsen"}},{"name":"Pablo-Picasso-Str.","postalCode":"28816","locality":"Stuhr","municipality":{"key":"03251037","name":"Stuhr","type":"Kreisangehörige_Gemeinde"},"district":{"key":"03251","name":"Diepholz","type":"Landkreis"},"federalState":{"key":"03","name":"Niedersachsen"}},{"name":"Pappelstr.","postalCode":"28816","locality":"Stuhr","municipality":{"key":"03251037","name":"Stuhr","type":"Kreisangehörige_Gemeinde"},"district":{"key":"03251","name":"Diepholz","type":"Landkreis"},"federalState":{"key":"03","name":"Niedersachsen"}},{"name":"Pappelweg","postalCode":"28816","locality":"Stuhr","municipality":{"key":"03251037","name":"Stuhr","type":"Kreisangehörige_Gemeinde"},"district":{"key":"03251","name":"Diepholz","type":"Landkreis"},"federalState":{"key":"03","name":"Niedersachsen"}},{"name":"Park Osterbruchwiesen","postalCode":"28816","locality":"Stuhr","municipality":{"key":"03251037","name":"Stuhr","type":"Kreisangehörige_Gemeinde"},"district":{"key":"03251","name":"Diepholz","type":"Landkreis"},"federalState":{"key":"03","name":"Niedersachsen"}},{"name":"Paul-Keller-Weg","postalCode":"28816","locality":"Stuhr","municipality":{"key":"03251037","name":"Stuhr","type":"Kreisangehörige_Gemeinde"},"district":{"key":"03251","name":"Diepholz","type":"Landkreis"},"federalState":{"key":"03","name":"Niedersachsen"}},{"name":"Pegasusweg","postalCode":"28816","locality":"Stuhr","municipality":{"key":"03251037","name":"Stuhr","type":"Kreisangehörige_Gemeinde"},"district":{"key":"03251","name":"Diepholz","type":"Landkreis"},"federalState":{"key":"03","name":"Niedersachsen"}},{"name":"Pestalozzistr.","postalCode":"28816","locality":"Stuhr","municipality":{"key":"03251037","name":"Stuhr","type":"Kreisangehörige_Gemeinde"},"district":{"key":"03251","name":"Diepholz","type":"Landkreis"},"federalState":{"key":"03","name":"Niedersachsen"}},{"name":"Petrusweg","postalCode":"28816","locality":"Stuhr","municipality":{"key":"03251037","name":"Stuhr","type":"Kreisangehörige_Gemeinde"},"district":{"key":"03251","name":"Diepholz","type":"Landkreis"},"federalState":{"key":"03","name":"Niedersachsen"}},{"name":"Pillauer Str.","postalCode":"28816","locality":"Stuhr","municipality":{"key":"03251037","name":"Stuhr","type":"Kreisangehörige_Gemeinde"},"district":{"key":"03251","name":"Diepholz","type":"Landkreis"},"federalState":{"key":"03","name":"Niedersachsen"}},{"name":"Pirolstr.","postalCode":"28816","locality":"Stuhr","municipality":{"key":"03251037","name":"Stuhr","type":"Kreisangehörige_Gemeinde"},"district":{"key":"03251","name":"Diepholz","type":"Landkreis"},"federalState":{"key":"03","name":"Niedersachsen"}},{"name":"Platanenweg","postalCode":"28816","locality":"Stuhr","municipality":{"key":"03251037","name":"Stuhr","type":"Kreisangehörige_Gemeinde"},"district":{"key":"03251","name":"Diepholz","type":"Landkreis"},"federalState":{"key":"03","name":"Niedersachsen"}},{"name":"Pommernweg","postalCode":"28816","locality":"Stuhr","municipality":{"key":"03251037","name":"Stuhr","type":"Kreisangehörige_Gemeinde"},"district":{"key":"03251","name":"Diepholz","type":"Landkreis"},"federalState":{"key":"03","name":"Niedersachsen"}},{"name":"Posener Str.","postalCode":"28816","locality":"Stuhr","municipality":{"key":"03251037","name":"Stuhr","type":"Kreisangehörige_Gemeinde"},"district":{"key":"03251","name":"Diepholz","type":"Landkreis"},"federalState":{"key":"03","name":"Niedersachsen"}},{"name":"Postweg","postalCode":"28816","locality":"Stuhr","municipality":{"key":"03251037","name":"Stuhr","type":"Kreisangehörige_Gemeinde"},"district":{"key":"03251","name":"Diepholz","type":"Landkreis"},"federalState":{"key":"03","name":"Niedersachsen"}},{"name":"Quelleweg","postalCode":"49356","locality":"Diepholz","municipality":{"key":"03251012","name":"Diepholz, Stadt","type":"Stadt"},"district":{"key":"03251","name":"Diepholz","type":"Landkreis"},"federalState":{"key":"03","name":"Niedersachsen"}},{"name":"Rasteder Weg","postalCode":"28816","locality":"Stuhr","municipality":{"key":"03251037","name":"Stuhr","type":"Kreisangehörige_Gemeinde"},"district":{"key":"03251","name":"Diepholz","type":"Landkreis"},"federalState":{"key":"03","name":"Niedersachsen"}},{"name":"Rastenburger Weg","postalCode":"28816","locality":"Stuhr","municipality":{"key":"03251037","name":"Stuhr","type":"Kreisangehörige_Gemeinde"},"district":{"key":"03251","name":"Diepholz","type":"Landkreis"},"federalState":{"key":"03","name":"Niedersachsen"}},{"name":"Ravelstr.","postalCode":"28816","locality":"Stuhr","municipality":{"key":"03251037","name":"Stuhr","type":"Kreisangehörige_Gemeinde"},"district":{"key":"03251","name":"Diepholz","type":"Landkreis"},"federalState":{"key":"03","name":"Niedersachsen"}},{"name":"Rebhuhnweg","postalCode":"28816","locality":"Stuhr","municipality":{"key":"03251037","name":"Stuhr","type":"Kreisangehörige_Gemeinde"},"district":{"key":"03251","name":"Diepholz","type":"Landkreis"},"federalState":{"key":"03","name":"Niedersachsen"}},{"name":"Regenpfeiferweg","postalCode":"28816","locality":"Stuhr","municipality":{"key":"03251037","name":"Stuhr","type":"Kreisangehörige_Gemeinde"},"district":{"key":"03251","name":"Diepholz","type":"Landkreis"},"federalState":{"key":"03","name":"Niedersachsen"}},{"name":"Regnitzstr.","postalCode":"28816","locality":"Stuhr","municipality":{"key":"03251037","name":"Stuhr","type":"Kreisangehörige_Gemeinde"},"district":{"key":"03251","name":"Diepholz","type":"Landkreis"},"federalState":{"key":"03","name":"Niedersachsen"}},{"name":"Reutlinger Str.","postalCode":"28816","locality":"Stuhr","municipality":{"key":"03251037","name":"Stuhr","type":"Kreisangehörige_Gemeinde"},"district":{"key":"03251","name":"Diepholz","type":"Landkreis"},"federalState":{"key":"03","name":"Niedersachsen"}},{"name":"Rheinallee","postalCode":"28816","locality":"Stuhr","municipality":{"key":"03251037","name":"Stuhr","type":"Kreisangehörige_Gemeinde"},"district":{"key":"03251","name":"Diepholz","type":"Landkreis"},"federalState":{"key":"03","name":"Niedersachsen"}},{"name":"Rheinstr.","postalCode":"28816","locality":"Stuhr","municipality":{"key":"03251037","name":"Stuhr","type":"Kreisangehörige_Gemeinde"},"district":{"key":"03251","name":"Diepholz","type":"Landkreis"},"federalState":{"key":"03","name":"Niedersachsen"}},{"name":"Rhododendronstr.","postalCode":"28816","locality":"Stuhr","municipality":{"key":"03251037","name":"Stuhr","type":"Kreisangehörige_Gemeinde"},"district":{"key":"03251","name":"Diepholz","type":"Landkreis"},"federalState":{"key":"03","name":"Niedersachsen"}},{"name":"Ricarda-Huch-Str.","postalCode":"28816","locality":"Stuhr","municipality":{"key":"03251037","name":"Stuhr","type":"Kreisangehörige_Gemeinde"},"district":{"key":"03251","name":"Diepholz","type":"Landkreis"},"federalState":{"key":"03","name":"Niedersachsen"}},{"name":"Richtweg","postalCode":"28816","locality":"Stuhr","municipality":{"key":"03251037","name":"Stuhr","type":"Kreisangehörige_Gemeinde"},"district":{"key":"03251","name":"Diepholz","type":"Landkreis"},"federalState":{"key":"03","name":"Niedersachsen"}},{"name":"Rilkeweg","postalCode":"28816","locality":"Stuhr","municipality":{"key":"03251037","name":"Stuhr","type":"Kreisangehörige_Gemeinde"},"district":{"key":"03251","name":"Diepholz","type":"Landkreis"},"federalState":{"key":"03","name":"Niedersachsen"}},{"name":"Ristedter Str.","postalCode":"28816","locality":"Stuhr","municipality":{"key":"03251037","name":"Stuhr","type":"Kreisangehörige_Gemeinde"},"district":{"key":"03251","name":"Diepholz","type":"Landkreis"},"federalState":{"key":"03","name":"Niedersachsen"}},{"name":"Robert-Koch-Weg","postalCode":"28816","locality":"Stuhr","municipality":{"key":"03251037","name":"Stuhr","type":"Kreisangehörige_Gemeinde"},"district":{"key":"03251","name":"Diepholz","type":"Landkreis"},"federalState":{"key":"03","name":"Niedersachsen"}},{"name":"Rodendamm","postalCode":"28816","locality":"Stuhr","municipality":{"key":"03251037","name":"Stuhr","type":"Kreisangehörige_Gemeinde"},"district":{"key":"03251","name":"Diepholz","type":"Landkreis"},"federalState":{"key":"03","name":"Niedersachsen"}},{"name":"Roggenweg","postalCode":"28816","locality":"Stuhr","municipality":{"key":"03251037","name":"Stuhr","type":"Kreisangehörige_Gemeinde"},"district":{"key":"03251","name":"Diepholz","type":"Landkreis"},"federalState":{"key":"03","name":"Niedersachsen"}},{"name":"Rönnekenstr.","postalCode":"28816","locality":"Stuhr","municipality":{"key":"03251037","name":"Stuhr","type":"Kreisangehörige_Gemeinde"},"district":{"key":"03251","name":"Diepholz","type":"Landkreis"},"federalState":{"key":"03","name":"Niedersachsen"}},{"name":"Rosen Schmidts Weg","postalCode":"28816","locality":"Stuhr","municipality":{"key":"03251037","name":"Stuhr","type":"Kreisangehörige_Gemeinde"},"district":{"key":"03251","name":"Diepholz","type":"Landkreis"},"federalState":{"key":"03","name":"Niedersachsen"}},{"name":"Rosenstr.","postalCode":"28816","locality":"Stuhr","municipality":{"key":"03251037","name":"Stuhr","type":"Kreisangehörige_Gemeinde"},"district":{"key":"03251","name":"Diepholz","type":"Landkreis"},"federalState":{"key":"03","name":"Niedersachsen"}},{"name":"Rosenweg","postalCode":"28816","locality":"Stuhr","municipality":{"key":"03251037","name":"Stuhr","type":"Kreisangehörige_Gemeinde"},"district":{"key":"03251","name":"Diepholz","type":"Landkreis"},"federalState":{"key":"03","name":"Niedersachsen"}},{"name":"Rostocker Weg","postalCode":"28816","locality":"Stuhr","municipality":{"key":"03251037","name":"Stuhr","type":"Kreisangehörige_Gemeinde"},"district":{"key":"03251","name":"Diepholz","type":"Landkreis"},"federalState":{"key":"03","name":"Niedersachsen"}},{"name":"Rotdornweg","postalCode":"28816","locality":"Stuhr","municipality":{"key":"03251037","name":"Stuhr","type":"Kreisangehörige_Gemeinde"},"district":{"key":"03251","name":"Diepholz","type":"Landkreis"},"federalState":{"key":"03","name":"Niedersachsen"}},{"name":"Rubinstr.","postalCode":"28816","locality":"Stuhr","municipality":{"key":"03251037","name":"Stuhr","type":"Kreisangehörige_Gemeinde"},"district":{"key":"03251","name":"Diepholz","type":"Landkreis"},"federalState":{"key":"03","name":"Niedersachsen"}},{"name":"Rudolf-Steiner-Str.","postalCode":"28816","locality":"Stuhr","municipality":{"key":"03251037","name":"Stuhr","type":"Kreisangehörige_Gemeinde"},"district":{"key":"03251","name":"Diepholz","type":"Landkreis"},"federalState":{"key":"03","name":"Niedersachsen"}},{"name":"Ruhrstr.","postalCode":"28816","locality":"Stuhr","municipality":{"key":"03251037","name":"Stuhr","type":"Kreisangehörige_Gemeinde"},"district":{"key":"03251","name":"Diepholz","type":"Landkreis"},"federalState":{"key":"03","name":"Niedersachsen"}},{"name":"Rüsterweg","postalCode":"28816","locality":"Stuhr","municipality":{"key":"03251037","name":"Stuhr","type":"Kreisangehörige_Gemeinde"},"district":{"key":"03251","name":"Diepholz","type":"Landkreis"},"federalState":{"key":"03","name":"Niedersachsen"}},{"name":"Ruwerstr.","postalCode":"28816","locality":"Stuhr","municipality":{"key":"03251037","name":"Stuhr","type":"Kreisangehörige_Gemeinde"},"district":{"key":"03251","name":"Diepholz","type":"Landkreis"},"federalState":{"key":"03","name":"Niedersachsen"}},{"name":"Saalestr.","postalCode":"28816","locality":"Stuhr","municipality":{"key":"03251037","name":"Stuhr","type":"Kreisangehörige_Gemeinde"},"district":{"key":"03251","name":"Diepholz","type":"Landkreis"},"federalState":{"key":"03","name":"Niedersachsen"}},{"name":"Saarstr.","postalCode":"28816","locality":"Stuhr","municipality":{"key":"03251037","name":"Stuhr","type":"Kreisangehörige_Gemeinde"},"district":{"key":"03251","name":"Diepholz","type":"Landkreis"},"federalState":{"key":"03","name":"Niedersachsen"}},{"name":"Samlandstr.","postalCode":"28816","locality":"Stuhr","municipality":{"key":"03251037","name":"Stuhr","type":"Kreisangehörige_Gemeinde"},"district":{"key":"03251","name":"Diepholz","type":"Landkreis"},"federalState":{"key":"03","name":"Niedersachsen"}},{"name":"Sanddornweg","postalCode":"28816","locality":"Stuhr","municipality":{"key":"03251037","name":"Stuhr","type":"Kreisangehörige_Gemeinde"},"district":{"key":"03251","name":"Diepholz","type":"Landkreis"},"federalState":{"key":"03","name":"Niedersachsen"}},{"name":"Sandershof","postalCode":"28816","locality":"Stuhr","municipality":{"key":"03251037","name":"Stuhr","type":"Kreisangehörige_Gemeinde"},"district":{"key":"03251","name":"Diepholz","type":"Landkreis"},"federalState":{"key":"03","name":"Niedersachsen"}},{"name":"Sandweg","postalCode":"28816","locality":"Stuhr","municipality":{"key":"03251037","name":"Stuhr","type":"Kreisangehörige_Gemeinde"},"district":{"key":"03251","name":"Diepholz","type":"Landkreis"},"federalState":{"key":"03","name":"Niedersachsen"}},{"name":"Saphirstr.","postalCode":"28816","locality":"Stuhr","municipality":{"key":"03251037","name":"Stuhr","type":"Kreisangehörige_Gemeinde"},"district":{"key":"03251","name":"Diepholz","type":"Landkreis"},"federalState":{"key":"03","name":"Niedersachsen"}},{"name":"Schillerstr.","postalCode":"28816","locality":"Stuhr","municipality":{"key":"03251037","name":"Stuhr","type":"Kreisangehörige_Gemeinde"},"district":{"key":"03251","name":"Diepholz","type":"Landkreis"},"federalState":{"key":"03","name":"Niedersachsen"}},{"name":"Schlehenweg","postalCode":"28816","locality":"Stuhr","municipality":{"key":"03251037","name":"Stuhr","type":"Kreisangehörige_Gemeinde"},"district":{"key":"03251","name":"Diepholz","type":"Landkreis"},"federalState":{"key":"03","name":"Niedersachsen"}},{"name":"Schlesische Str.","postalCode":"28816","locality":"Stuhr","municipality":{"key":"03251037","name":"Stuhr","type":"Kreisangehörige_Gemeinde"},"district":{"key":"03251","name":"Diepholz","type":"Landkreis"},"federalState":{"key":"03","name":"Niedersachsen"}},{"name":"Schmalen Damm","postalCode":"28816","locality":"Stuhr","municipality":{"key":"03251037","name":"Stuhr","type":"Kreisangehörige_Gemeinde"},"district":{"key":"03251","name":"Diepholz","type":"Landkreis"},"federalState":{"key":"03","name":"Niedersachsen"}},{"name":"Schmidtstr.","postalCode":"28816","locality":"Stuhr","municipality":{"key":"03251037","name":"Stuhr","type":"Kreisangehörige_Gemeinde"},"district":{"key":"03251","name":"Diepholz","type":"Landkreis"},"federalState":{"key":"03","name":"Niedersachsen"}},{"name":"Schneiderstr.","postalCode":"28816","locality":"Stuhr","municipality":{"key":"03251037","name":"Stuhr","type":"Kreisangehörige_Gemeinde"},"district":{"key":"03251","name":"Diepholz","type":"Landkreis"},"federalState":{"key":"03","name":"Niedersachsen"}},{"name":"Schnepfenweg","postalCode":"28816","locality":"Stuhr","municipality":{"key":"03251037","name":"Stuhr","type":"Kreisangehörige_Gemeinde"},"district":{"key":"03251","name":"Diepholz","type":"Landkreis"},"federalState":{"key":"03","name":"Niedersachsen"}},{"name":"Schulstr.","postalCode":"28816","locality":"Stuhr","municipality":{"key":"03251037","name":"Stuhr","type":"Kreisangehörige_Gemeinde"},"district":{"key":"03251","name":"Diepholz","type":"Landkreis"},"federalState":{"key":"03","name":"Niedersachsen"}},{"name":"Schulweg","postalCode":"28816","locality":"Stuhr","municipality":{"key":"03251037","name":"Stuhr","type":"Kreisangehörige_Gemeinde"},"district":{"key":"03251","name":"Diepholz","type":"Landkreis"},"federalState":{"key":"03","name":"Niedersachsen"}},{"name":"Schützenplatz","postalCode":"28816","locality":"Stuhr","municipality":{"key":"03251037","name":"Stuhr","type":"Kreisangehörige_Gemeinde"},"district":{"key":"03251","name":"Diepholz","type":"Landkreis"},"federalState":{"key":"03","name":"Niedersachsen"}},{"name":"Schützenweg","postalCode":"28816","locality":"Stuhr","municipality":{"key":"03251037","name":"Stuhr","type":"Kreisangehörige_Gemeinde"},"district":{"key":"03251","name":"Diepholz","type":"Landkreis"},"federalState":{"key":"03","name":"Niedersachsen"}},{"name":"Schwäbisch-Hall-Str.","postalCode":"28816","locality":"Stuhr","municipality":{"key":"03251037","name":"Stuhr","type":"Kreisangehörige_Gemeinde"},"district":{"key":"03251","name":"Diepholz","type":"Landkreis"},"federalState":{"key":"03","name":"Niedersachsen"}},{"name":"Schwalbenstr.","postalCode":"28816","locality":"Stuhr","municipality":{"key":"03251037","name":"Stuhr","type":"Kreisangehörige_Gemeinde"},"district":{"key":"03251","name":"Diepholz","type":"Landkreis"},"federalState":{"key":"03","name":"Niedersachsen"}},{"name":"Schwarzer Weg","postalCode":"28816","locality":"Stuhr","municipality":{"key":"03251037","name":"Stuhr","type":"Kreisangehörige_Gemeinde"},"district":{"key":"03251","name":"Diepholz","type":"Landkreis"},"federalState":{"key":"03","name":"Niedersachsen"}},{"name":"Sebastian-Kneipp-Str.","postalCode":"28816","locality":"Stuhr","municipality":{"key":"03251037","name":"Stuhr","type":"Kreisangehörige_Gemeinde"},"district":{"key":"03251","name":"Diepholz","type":"Landkreis"},"federalState":{"key":"03","name":"Niedersachsen"}},{"name":"Semmelweisstr.","postalCode":"28816","locality":"Stuhr","municipality":{"key":"03251037","name":"Stuhr","type":"Kreisangehörige_Gemeinde"},"district":{"key":"03251","name":"Diepholz","type":"Landkreis"},"federalState":{"key":"03","name":"Niedersachsen"}},{"name":"Siedlerweg","postalCode":"28816","locality":"Stuhr","municipality":{"key":"03251037","name":"Stuhr","type":"Kreisangehörige_Gemeinde"},"district":{"key":"03251","name":"Diepholz","type":"Landkreis"},"federalState":{"key":"03","name":"Niedersachsen"}},{"name":"Siekstr.","postalCode":"28816","locality":"Stuhr","municipality":{"key":"03251037","name":"Stuhr","type":"Kreisangehörige_Gemeinde"},"district":{"key":"03251","name":"Diepholz","type":"Landkreis"},"federalState":{"key":"03","name":"Niedersachsen"}},{"name":"Siguldaer Platz","postalCode":"28816","locality":"Stuhr","municipality":{"key":"03251037","name":"Stuhr","type":"Kreisangehörige_Gemeinde"},"district":{"key":"03251","name":"Diepholz","type":"Landkreis"},"federalState":{"key":"03","name":"Niedersachsen"}},{"name":"Smaragdstr.","postalCode":"28816","locality":"Stuhr","municipality":{"key":"03251037","name":"Stuhr","type":"Kreisangehörige_Gemeinde"},"district":{"key":"03251","name":"Diepholz","type":"Landkreis"},"federalState":{"key":"03","name":"Niedersachsen"}},{"name":"Sonnenweg","postalCode":"28816","locality":"Stuhr","municipality":{"key":"03251037","name":"Stuhr","type":"Kreisangehörige_Gemeinde"},"district":{"key":"03251","name":"Diepholz","type":"Landkreis"},"federalState":{"key":"03","name":"Niedersachsen"}},{"name":"Spohnberg","postalCode":"28816","locality":"Stuhr","municipality":{"key":"03251037","name":"Stuhr","type":"Kreisangehörige_Gemeinde"},"district":{"key":"03251","name":"Diepholz","type":"Landkreis"},"federalState":{"key":"03","name":"Niedersachsen"}},{"name":"Spreeweg","postalCode":"28816","locality":"Stuhr","municipality":{"key":"03251037","name":"Stuhr","type":"Kreisangehörige_Gemeinde"},"district":{"key":"03251","name":"Diepholz","type":"Landkreis"},"federalState":{"key":"03","name":"Niedersachsen"}},{"name":"Steller Heide","postalCode":"28816","locality":"Stuhr","municipality":{"key":"03251037","name":"Stuhr","type":"Kreisangehörige_Gemeinde"},"district":{"key":"03251","name":"Diepholz","type":"Landkreis"},"federalState":{"key":"03","name":"Niedersachsen"}},{"name":"Steller Str.","postalCode":"28816","locality":"Stuhr","municipality":{"key":"03251037","name":"Stuhr","type":"Kreisangehörige_Gemeinde"},"district":{"key":"03251","name":"Diepholz","type":"Landkreis"},"federalState":{"key":"03","name":"Niedersachsen"}},{"name":"Stellmacherstr.","postalCode":"28816","locality":"Stuhr","municipality":{"key":"03251037","name":"Stuhr","type":"Kreisangehörige_Gemeinde"},"district":{"key":"03251","name":"Diepholz","type":"Landkreis"},"federalState":{"key":"03","name":"Niedersachsen"}},{"name":"Stettiner Str.","postalCode":"28816","locality":"Stuhr","municipality":{"key":"03251037","name":"Stuhr","type":"Kreisangehörige_Gemeinde"},"district":{"key":"03251","name":"Diepholz","type":"Landkreis"},"federalState":{"key":"03","name":"Niedersachsen"}},{"name":"Stiller Weg","postalCode":"28816","locality":"Stuhr","municipality":{"key":"03251037","name":"Stuhr","type":"Kreisangehörige_Gemeinde"},"district":{"key":"03251","name":"Diepholz","type":"Landkreis"},"federalState":{"key":"03","name":"Niedersachsen"}},{"name":"Stralsunder Weg","postalCode":"28816","locality":"Stuhr","municipality":{"key":"03251037","name":"Stuhr","type":"Kreisangehörige_Gemeinde"},"district":{"key":"03251","name":"Diepholz","type":"Landkreis"},"federalState":{"key":"03","name":"Niedersachsen"}},{"name":"Ströhener Weg","postalCode":"28816","locality":"Stuhr","municipality":{"key":"03251037","name":"Stuhr","type":"Kreisangehörige_Gemeinde"},"district":{"key":"03251","name":"Diepholz","type":"Landkreis"},"federalState":{"key":"03","name":"Niedersachsen"}},{"name":"Stubbeweg","postalCode":"28816","locality":"Stuhr","municipality":{"key":"03251037","name":"Stuhr","type":"Kreisangehörige_Gemeinde"},"district":{"key":"03251","name":"Diepholz","type":"Landkreis"},"federalState":{"key":"03","name":"Niedersachsen"}},{"name":"Studtriede","postalCode":"28816","locality":"Stuhr","municipality":{"key":"03251037","name":"Stuhr","type":"Kreisangehörige_Gemeinde"},"district":{"key":"03251","name":"Diepholz","type":"Landkreis"},"federalState":{"key":"03","name":"Niedersachsen"}},{"name":"Stuhrbaum","postalCode":"28816","locality":"Stuhr","municipality":{"key":"03251037","name":"Stuhr","type":"Kreisangehörige_Gemeinde"},"district":{"key":"03251","name":"Diepholz","type":"Landkreis"},"federalState":{"key":"03","name":"Niedersachsen"}},{"name":"Stuhrer Feld","postalCode":"28816","locality":"Stuhr","municipality":{"key":"03251037","name":"Stuhr","type":"Kreisangehörige_Gemeinde"},"district":{"key":"03251","name":"Diepholz","type":"Landkreis"},"federalState":{"key":"03","name":"Niedersachsen"}},{"name":"Stuhrer Landstr.","postalCode":"28816","locality":"Stuhr","municipality":{"key":"03251037","name":"Stuhr","type":"Kreisangehörige_Gemeinde"},"district":{"key":"03251","name":"Diepholz","type":"Landkreis"},"federalState":{"key":"03","name":"Niedersachsen"}},{"name":"Stührmanns Höhe","postalCode":"28816","locality":"Stuhr","municipality":{"key":"03251037","name":"Stuhr","type":"Kreisangehörige_Gemeinde"},"district":{"key":"03251","name":"Diepholz","type":"Landkreis"},"federalState":{"key":"03","name":"Niedersachsen"}},{"name":"Stuhrreihe","postalCode":"28816","locality":"Stuhr","municipality":{"key":"03251037","name":"Stuhr","type":"Kreisangehörige_Gemeinde"},"district":{"key":"03251","name":"Diepholz","type":"Landkreis"},"federalState":{"key":"03","name":"Niedersachsen"}},{"name":"Stuttgarter Str.","postalCode":"28816","locality":"Stuhr","municipality":{"key":"03251037","name":"Stuhr","type":"Kreisangehörige_Gemeinde"},"district":{"key":"03251","name":"Diepholz","type":"Landkreis"},"federalState":{"key":"03","name":"Niedersachsen"}},{"name":"Süderstr.","postalCode":"28816","locality":"Stuhr","municipality":{"key":"03251037","name":"Stuhr","type":"Kreisangehörige_Gemeinde"},"district":{"key":"03251","name":"Diepholz","type":"Landkreis"},"federalState":{"key":"03","name":"Niedersachsen"}},{"name":"Sulinger Str.","postalCode":"28816","locality":"Stuhr","municipality":{"key":"03251037","name":"Stuhr","type":"Kreisangehörige_Gemeinde"},"district":{"key":"03251","name":"Diepholz","type":"Landkreis"},"federalState":{"key":"03","name":"Niedersachsen"}},{"name":"Syker Str.","postalCode":"28816","locality":"Stuhr","municipality":{"key":"03251037","name":"Stuhr","type":"Kreisangehörige_Gemeinde"},"district":{"key":"03251","name":"Diepholz","type":"Landkreis"},"federalState":{"key":"03","name":"Niedersachsen"}},{"name":"Tannenstr.","postalCode":"28816","locality":"Stuhr","municipality":{"key":"03251037","name":"Stuhr","type":"Kreisangehörige_Gemeinde"},"district":{"key":"03251","name":"Diepholz","type":"Landkreis"},"federalState":{"key":"03","name":"Niedersachsen"}},{"name":"Tannenweg","postalCode":"28816","locality":"Stuhr","municipality":{"key":"03251037","name":"Stuhr","type":"Kreisangehörige_Gemeinde"},"district":{"key":"03251","name":"Diepholz","type":"Landkreis"},"federalState":{"key":"03","name":"Niedersachsen"}},{"name":"Taubenstr.","postalCode":"28816","locality":"Stuhr","municipality":{"key":"03251037","name":"Stuhr","type":"Kreisangehörige_Gemeinde"},"district":{"key":"03251","name":"Diepholz","type":"Landkreis"},"federalState":{"key":"03","name":"Niedersachsen"}},{"name":"Tempelweg","postalCode":"28816","locality":"Stuhr","municipality":{"key":"03251037","name":"Stuhr","type":"Kreisangehörige_Gemeinde"},"district":{"key":"03251","name":"Diepholz","type":"Landkreis"},"federalState":{"key":"03","name":"Niedersachsen"}},{"name":"Theodor-Storm-Str.","postalCode":"28816","locality":"Stuhr","municipality":{"key":"03251037","name":"Stuhr","type":"Kreisangehörige_Gemeinde"},"district":{"key":"03251","name":"Diepholz","type":"Landkreis"},"federalState":{"key":"03","name":"Niedersachsen"}},{"name":"Thölstedter Weg","postalCode":"28816","locality":"Stuhr","municipality":{"key":"03251037","name":"Stuhr","type":"Kreisangehörige_Gemeinde"},"district":{"key":"03251","name":"Diepholz","type":"Landkreis"},"federalState":{"key":"03","name":"Niedersachsen"}},{"name":"Thorner Weg","postalCode":"28816","locality":"Stuhr","municipality":{"key":"03251037","name":"Stuhr","type":"Kreisangehörige_Gemeinde"},"district":{"key":"03251","name":"Diepholz","type":"Landkreis"},"federalState":{"key":"03","name":"Niedersachsen"}},{"name":"Thüringer Weg","postalCode":"28816","locality":"Stuhr","municipality":{"key":"03251037","name":"Stuhr","type":"Kreisangehörige_Gemeinde"},"district":{"key":"03251","name":"Diepholz","type":"Landkreis"},"federalState":{"key":"03","name":"Niedersachsen"}},{"name":"Tilsiter Str.","postalCode":"28816","locality":"Stuhr","municipality":{"key":"03251037","name":"Stuhr","type":"Kreisangehörige_Gemeinde"},"district":{"key":"03251","name":"Diepholz","type":"Landkreis"},"federalState":{"key":"03","name":"Niedersachsen"}},{"name":"Timmstr.","postalCode":"28816","locality":"Stuhr","municipality":{"key":"03251037","name":"Stuhr","type":"Kreisangehörige_Gemeinde"},"district":{"key":"03251","name":"Diepholz","type":"Landkreis"},"federalState":{"key":"03","name":"Niedersachsen"}},{"name":"Tübinger Str.","postalCode":"28816","locality":"Stuhr","municipality":{"key":"03251037","name":"Stuhr","type":"Kreisangehörige_Gemeinde"},"district":{"key":"03251","name":"Diepholz","type":"Landkreis"},"federalState":{"key":"03","name":"Niedersachsen"}},{"name":"Tulpenstr.","postalCode":"28816","locality":"Stuhr","municipality":{"key":"03251037","name":"Stuhr","type":"Kreisangehörige_Gemeinde"},"district":{"key":"03251","name":"Diepholz","type":"Landkreis"},"federalState":{"key":"03","name":"Niedersachsen"}},{"name":"Turmstr.","postalCode":"28816","locality":"Stuhr","municipality":{"key":"03251037","name":"Stuhr","type":"Kreisangehörige_Gemeinde"},"district":{"key":"03251","name":"Diepholz","type":"Landkreis"},"federalState":{"key":"03","name":"Niedersachsen"}},{"name":"Twistringer Str.","postalCode":"28816","locality":"Stuhr","municipality":{"key":"03251037","name":"Stuhr","type":"Kreisangehörige_Gemeinde"},"district":{"key":"03251","name":"Diepholz","type":"Landkreis"},"federalState":{"key":"03","name":"Niedersachsen"}},{"name":"Uhlandweg","postalCode":"28816","locality":"Stuhr","municipality":{"key":"03251037","name":"Stuhr","type":"Kreisangehörige_Gemeinde"},"district":{"key":"03251","name":"Diepholz","type":"Landkreis"},"federalState":{"key":"03","name":"Niedersachsen"}},{"name":"Ulmenstr.","postalCode":"28816","locality":"Stuhr","municipality":{"key":"03251037","name":"Stuhr","type":"Kreisangehörige_Gemeinde"},"district":{"key":"03251","name":"Diepholz","type":"Landkreis"},"federalState":{"key":"03","name":"Niedersachsen"}},{"name":"Ulmenweg","postalCode":"28816","locality":"Stuhr","municipality":{"key":"03251037","name":"Stuhr","type":"Kreisangehörige_Gemeinde"},"district":{"key":"03251","name":"Diepholz","type":"Landkreis"},"federalState":{"key":"03","name":"Niedersachsen"}},{"name":"Varreler Feld","postalCode":"28816","locality":"Stuhr","municipality":{"key":"03251037","name":"Stuhr","type":"Kreisangehörige_Gemeinde"},"district":{"key":"03251","name":"Diepholz","type":"Landkreis"},"federalState":{"key":"03","name":"Niedersachsen"}},{"name":"Varreler Kirchweg","postalCode":"28816","locality":"Stuhr","municipality":{"key":"03251037","name":"Stuhr","type":"Kreisangehörige_Gemeinde"},"district":{"key":"03251","name":"Diepholz","type":"Landkreis"},"federalState":{"key":"03","name":"Niedersachsen"}},{"name":"Varreler Landstr.","postalCode":"28816","locality":"Stuhr","municipality":{"key":"03251037","name":"Stuhr","type":"Kreisangehörige_Gemeinde"},"district":{"key":"03251","name":"Diepholz","type":"Landkreis"},"federalState":{"key":"03","name":"Niedersachsen"}},{"name":"Vechtaer Weg","postalCode":"28816","locality":"Stuhr","municipality":{"key":"03251037","name":"Stuhr","type":"Kreisangehörige_Gemeinde"},"district":{"key":"03251","name":"Diepholz","type":"Landkreis"},"federalState":{"key":"03","name":"Niedersachsen"}},{"name":"Veilchenstr.","postalCode":"28816","locality":"Stuhr","municipality":{"key":"03251037","name":"Stuhr","type":"Kreisangehörige_Gemeinde"},"district":{"key":"03251","name":"Diepholz","type":"Landkreis"},"federalState":{"key":"03","name":"Niedersachsen"}},{"name":"Venusstr.","postalCode":"28816","locality":"Stuhr","municipality":{"key":"03251037","name":"Stuhr","type":"Kreisangehörige_Gemeinde"},"district":{"key":"03251","name":"Diepholz","type":"Landkreis"},"federalState":{"key":"03","name":"Niedersachsen"}},{"name":"Villinger Weg","postalCode":"28816","locality":"Stuhr","municipality":{"key":"03251037","name":"Stuhr","type":"Kreisangehörige_Gemeinde"},"district":{"key":"03251","name":"Diepholz","type":"Landkreis"},"federalState":{"key":"03","name":"Niedersachsen"}},{"name":"Visbeker Weg","postalCode":"28816","locality":"Stuhr","municipality":{"key":"03251037","name":"Stuhr","type":"Kreisangehörige_Gemeinde"},"district":{"key":"03251","name":"Diepholz","type":"Landkreis"},"federalState":{"key":"03","name":"Niedersachsen"}},{"name":"Von der Höge","postalCode":"28816","locality":"Stuhr","municipality":{"key":"03251037","name":"Stuhr","type":"Kreisangehörige_Gemeinde"},"district":{"key":"03251","name":"Diepholz","type":"Landkreis"},"federalState":{"key":"03","name":"Niedersachsen"}},{"name":"Vor den Fuhren","postalCode":"28816","locality":"Stuhr","municipality":{"key":"03251037","name":"Stuhr","type":"Kreisangehörige_Gemeinde"},"district":{"key":"03251","name":"Diepholz","type":"Landkreis"},"federalState":{"key":"03","name":"Niedersachsen"}},{"name":"Vorsteher-Kirchhoff-Str.","postalCode":"28816","locality":"Stuhr","municipality":{"key":"03251037","name":"Stuhr","type":"Kreisangehörige_Gemeinde"},"district":{"key":"03251","name":"Diepholz","type":"Landkreis"},"federalState":{"key":"03","name":"Niedersachsen"}},{"name":"Wacholderweg","postalCode":"28816","locality":"Stuhr","municipality":{"key":"03251037","name":"Stuhr","type":"Kreisangehörige_Gemeinde"},"district":{"key":"03251","name":"Diepholz","type":"Landkreis"},"federalState":{"key":"03","name":"Niedersachsen"}},{"name":"Waldstr.","postalCode":"28816","locality":"Stuhr","municipality":{"key":"03251037","name":"Stuhr","type":"Kreisangehörige_Gemeinde"},"district":{"key":"03251","name":"Diepholz","type":"Landkreis"},"federalState":{"key":"03","name":"Niedersachsen"}},{"name":"Waldweg","postalCode":"28816","locality":"Stuhr","municipality":{"key":"03251037","name":"Stuhr","type":"Kreisangehörige_Gemeinde"},"district":{"key":"03251","name":"Diepholz","type":"Landkreis"},"federalState":{"key":"03","name":"Niedersachsen"}},{"name":"Waldwinkel","postalCode":"28816","locality":"Stuhr","municipality":{"key":"03251037","name":"Stuhr","type":"Kreisangehörige_Gemeinde"},"district":{"key":"03251","name":"Diepholz","type":"Landkreis"},"federalState":{"key":"03","name":"Niedersachsen"}},{"name":"Wandelstr.","postalCode":"28816","locality":"Stuhr","municipality":{"key":"03251037","name":"Stuhr","type":"Kreisangehörige_Gemeinde"},"district":{"key":"03251","name":"Diepholz","type":"Landkreis"},"federalState":{"key":"03","name":"Niedersachsen"}},{"name":"Wartburgweg","postalCode":"28816","locality":"Stuhr","municipality":{"key":"03251037","name":"Stuhr","type":"Kreisangehörige_Gemeinde"},"district":{"key":"03251","name":"Diepholz","type":"Landkreis"},"federalState":{"key":"03","name":"Niedersachsen"}},{"name":"Warwer Str.","postalCode":"28816","locality":"Stuhr","municipality":{"key":"03251037","name":"Stuhr","type":"Kreisangehörige_Gemeinde"},"district":{"key":"03251","name":"Diepholz","type":"Landkreis"},"federalState":{"key":"03","name":"Niedersachsen"}},{"name":"Weberstr.","postalCode":"28816","locality":"Stuhr","municipality":{"key":"03251037","name":"Stuhr","type":"Kreisangehörige_Gemeinde"},"district":{"key":"03251","name":"Diepholz","type":"Landkreis"},"federalState":{"key":"03","name":"Niedersachsen"}},{"name":"Weidenstr.","postalCode":"28816","locality":"Stuhr","municipality":{"key":"03251037","name":"Stuhr","type":"Kreisangehörige_Gemeinde"},"district":{"key":"03251","name":"Diepholz","type":"Landkreis"},"federalState":{"key":"03","name":"Niedersachsen"}},{"name":"Weideweg","postalCode":"28816","locality":"Stuhr","municipality":{"key":"03251037","name":"Stuhr","type":"Kreisangehörige_Gemeinde"},"district":{"key":"03251","name":"Diepholz","type":"Landkreis"},"federalState":{"key":"03","name":"Niedersachsen"}},{"name":"Weimarer Weg","postalCode":"28816","locality":"Stuhr","municipality":{"key":"03251037","name":"Stuhr","type":"Kreisangehörige_Gemeinde"},"district":{"key":"03251","name":"Diepholz","type":"Landkreis"},"federalState":{"key":"03","name":"Niedersachsen"}},{"name":"Weißdornstr.","postalCode":"28816","locality":"Stuhr","municipality":{"key":"03251037","name":"Stuhr","type":"Kreisangehörige_Gemeinde"},"district":{"key":"03251","name":"Diepholz","type":"Landkreis"},"federalState":{"key":"03","name":"Niedersachsen"}},{"name":"Weiße Riede","postalCode":"28816","locality":"Stuhr","municipality":{"key":"03251037","name":"Stuhr","type":"Kreisangehörige_Gemeinde"},"district":{"key":"03251","name":"Diepholz","type":"Landkreis"},"federalState":{"key":"03","name":"Niedersachsen"}},{"name":"Weizenweg","postalCode":"28816","locality":"Stuhr","municipality":{"key":"03251037","name":"Stuhr","type":"Kreisangehörige_Gemeinde"},"district":{"key":"03251","name":"Diepholz","type":"Landkreis"},"federalState":{"key":"03","name":"Niedersachsen"}},{"name":"Welseweg","postalCode":"28816","locality":"Stuhr","municipality":{"key":"03251037","name":"Stuhr","type":"Kreisangehörige_Gemeinde"},"district":{"key":"03251","name":"Diepholz","type":"Landkreis"},"federalState":{"key":"03","name":"Niedersachsen"}},{"name":"Werner-von-Siemens-Str.","postalCode":"28816","locality":"Stuhr","municipality":{"key":"03251037","name":"Stuhr","type":"Kreisangehörige_Gemeinde"},"district":{"key":"03251","name":"Diepholz","type":"Landkreis"},"federalState":{"key":"03","name":"Niedersachsen"}},{"name":"Werrastr.","postalCode":"28816","locality":"Stuhr","municipality":{"key":"03251037","name":"Stuhr","type":"Kreisangehörige_Gemeinde"},"district":{"key":"03251","name":"Diepholz","type":"Landkreis"},"federalState":{"key":"03","name":"Niedersachsen"}},{"name":"Weserstr.","postalCode":"28816","locality":"Stuhr","municipality":{"key":"03251037","name":"Stuhr","type":"Kreisangehörige_Gemeinde"},"district":{"key":"03251","name":"Diepholz","type":"Landkreis"},"federalState":{"key":"03","name":"Niedersachsen"}},{"name":"Weyher Str.","postalCode":"28816","locality":"Stuhr","municipality":{"key":"03251037","name":"Stuhr","type":"Kreisangehörige_Gemeinde"},"district":{"key":"03251","name":"Diepholz","type":"Landkreis"},"federalState":{"key":"03","name":"Niedersachsen"}},{"name":"Wiedstr.","postalCode":"28816","locality":"Stuhr","municipality":{"key":"03251037","name":"Stuhr","type":"Kreisangehörige_Gemeinde"},"district":{"key":"03251","name":"Diepholz","type":"Landkreis"},"federalState":{"key":"03","name":"Niedersachsen"}},{"name":"Wildeshauser Str.","postalCode":"28816","locality":"Stuhr","municipality":{"key":"03251037","name":"Stuhr","type":"Kreisangehörige_Gemeinde"},"district":{"key":"03251","name":"Diepholz","type":"Landkreis"},"federalState":{"key":"03","name":"Niedersachsen"}},{"name":"Wilhelm-Busch-Str.","postalCode":"28816","locality":"Stuhr","municipality":{"key":"03251037","name":"Stuhr","type":"Kreisangehörige_Gemeinde"},"district":{"key":"03251","name":"Diepholz","type":"Landkreis"},"federalState":{"key":"03","name":"Niedersachsen"}},{"name":"Wilhelm-Hauff-Str.","postalCode":"28816","locality":"Stuhr","municipality":{"key":"03251037","name":"Stuhr","type":"Kreisangehörige_Gemeinde"},"district":{"key":"03251","name":"Diepholz","type":"Landkreis"},"federalState":{"key":"03","name":"Niedersachsen"}},{"name":"Wilhelm-Raabe-Str.","postalCode":"28816","locality":"Stuhr","municipality":{"key":"03251037","name":"Stuhr","type":"Kreisangehörige_Gemeinde"},"district":{"key":"03251","name":"Diepholz","type":"Landkreis"},"federalState":{"key":"03","name":"Niedersachsen"}},{"name":"Wilhelm-Röntgen-Weg","postalCode":"28816","locality":"Stuhr","municipality":{"key":"03251037","name":"Stuhr","type":"Kreisangehörige_Gemeinde"},"district":{"key":"03251","name":"Diepholz","type":"Landkreis"},"federalState":{"key":"03","name":"Niedersachsen"}},{"name":"Windhorst","postalCode":"28816","locality":"Stuhr","municipality":{"key":"03251037","name":"Stuhr","type":"Kreisangehörige_Gemeinde"},"district":{"key":"03251","name":"Diepholz","type":"Landkreis"},"federalState":{"key":"03","name":"Niedersachsen"}},{"name":"Wismarer Weg","postalCode":"28816","locality":"Stuhr","municipality":{"key":"03251037","name":"Stuhr","type":"Kreisangehörige_Gemeinde"},"district":{"key":"03251","name":"Diepholz","type":"Landkreis"},"federalState":{"key":"03","name":"Niedersachsen"}},{"name":"Wollgrasweg","postalCode":"28816","locality":"Stuhr","municipality":{"key":"03251037","name":"Stuhr","type":"Kreisangehörige_Gemeinde"},"district":{"key":"03251","name":"Diepholz","type":"Landkreis"},"federalState":{"key":"03","name":"Niedersachsen"}},{"name":"Wörpeweg","postalCode":"28816","locality":"Stuhr","municipality":{"key":"03251037","name":"Stuhr","type":"Kreisangehörige_Gemeinde"},"district":{"key":"03251","name":"Diepholz","type":"Landkreis"},"federalState":{"key":"03","name":"Niedersachsen"}},{"name":"Wulfhooper Heide","postalCode":"28816","locality":"Stuhr","municipality":{"key":"03251037","name":"Stuhr","type":"Kreisangehörige_Gemeinde"},"district":{"key":"03251","name":"Diepholz","type":"Landkreis"},"federalState":{"key":"03","name":"Niedersachsen"}},{"name":"Wümmeweg","postalCode":"28816","locality":"Stuhr","municipality":{"key":"03251037","name":"Stuhr","type":"Kreisangehörige_Gemeinde"},"district":{"key":"03251","name":"Diepholz","type":"Landkreis"},"federalState":{"key":"03","name":"Niedersachsen"}},{"name":"Wupperstr.","postalCode":"28816","locality":"Stuhr","municipality":{"key":"03251037","name":"Stuhr","type":"Kreisangehörige_Gemeinde"},"district":{"key":"03251","name":"Diepholz","type":"Landkreis"},"federalState":{"key":"03","name":"Niedersachsen"}},{"name":"Zeisigweg","postalCode":"28816","locality":"Stuhr","municipality":{"key":"03251037","name":"Stuhr","type":"Kreisangehörige_Gemeinde"},"district":{"key":"03251","name":"Diepholz","type":"Landkreis"},"federalState":{"key":"03","name":"Niedersachsen"}},{"name":"Zu den Gehöften","postalCode":"28816","locality":"Stuhr","municipality":{"key":"03251037","name":"Stuhr","type":"Kreisangehörige_Gemeinde"},"district":{"key":"03251","name":"Diepholz","type":"Landkreis"},"federalState":{"key":"03","name":"Niedersachsen"}},{"name":"Zu den Teichen","postalCode":"28816","locality":"Stuhr","municipality":{"key":"03251037","name":"Stuhr","type":"Kreisangehörige_Gemeinde"},"district":{"key":"03251","name":"Diepholz","type":"Landkreis"},"federalState":{"key":"03","name":"Niedersachsen"}},{"name":"Zum Birkenhof","postalCode":"28816","locality":"Stuhr","municipality":{"key":"03251037","name":"Stuhr","type":"Kreisangehörige_Gemeinde"},"district":{"key":"03251","name":"Diepholz","type":"Landkreis"},"federalState":{"key":"03","name":"Niedersachsen"}},{"name":"Zum Bradenholz","postalCode":"28816","locality":"Stuhr","municipality":{"key":"03251037","name":"Stuhr","type":"Kreisangehörige_Gemeinde"},"district":{"key":"03251","name":"Diepholz","type":"Landkreis"},"federalState":{"key":"03","name":"Niedersachsen"}},{"name":"Zum Braklandsweg","postalCode":"28816","locality":"Stuhr","municipality":{"key":"03251037","name":"Stuhr","type":"Kreisangehörige_Gemeinde"},"district":{"key":"03251","name":"Diepholz","type":"Landkreis"},"federalState":{"key":"03","name":"Niedersachsen"}},{"name":"Zum Bruch","postalCode":"28816","locality":"Stuhr","municipality":{"key":"03251037","name":"Stuhr","type":"Kreisangehörige_Gemeinde"},"district":{"key":"03251","name":"Diepholz","type":"Landkreis"},"federalState":{"key":"03","name":"Niedersachsen"}},{"name":"Zum Hasenkamp","postalCode":"28816","locality":"Stuhr","municipality":{"key":"03251037","name":"Stuhr","type":"Kreisangehörige_Gemeinde"},"district":{"key":"03251","name":"Diepholz","type":"Landkreis"},"federalState":{"key":"03","name":"Niedersachsen"}},{"name":"Zum Hombach","postalCode":"28816","locality":"Stuhr","municipality":{"key":"03251037","name":"Stuhr","type":"Kreisangehörige_Gemeinde"},"district":{"key":"03251","name":"Diepholz","type":"Landkreis"},"federalState":{"key":"03","name":"Niedersachsen"}},{"name":"Zum Kiekutsee","postalCode":"28816","locality":"Stuhr","municipality":{"key":"03251037","name":"Stuhr","type":"Kreisangehörige_Gemeinde"},"district":{"key":"03251","name":"Diepholz","type":"Landkreis"},"federalState":{"key":"03","name":"Niedersachsen"}},{"name":"Zum Kleinen Deichfluss","postalCode":"28816","locality":"Stuhr","municipality":{"key":"03251037","name":"Stuhr","type":"Kreisangehörige_Gemeinde"},"district":{"key":"03251","name":"Diepholz","type":"Landkreis"},"federalState":{"key":"03","name":"Niedersachsen"}},{"name":"Zum Pavillon","postalCode":"28816","locality":"Stuhr","municipality":{"key":"03251037","name":"Stuhr","type":"Kreisangehörige_Gemeinde"},"district":{"key":"03251","name":"Diepholz","type":"Landkreis"},"federalState":{"key":"03","name":"Niedersachsen"}},{"name":"Zum Sportplatz","postalCode":"28816","locality":"Stuhr","municipality":{"key":"03251037","name":"Stuhr","type":"Kreisangehörige_Gemeinde"},"district":{"key":"03251","name":"Diepholz","type":"Landkreis"},"federalState":{"key":"03","name":"Niedersachsen"}},{"name":"Zum Spritzenhaus","postalCode":"28816","locality":"Stuhr","municipality":{"key":"03251037","name":"Stuhr","type":"Kreisangehörige_Gemeinde"},"district":{"key":"03251","name":"Diepholz","type":"Landkreis"},"federalState":{"key":"03","name":"Niedersachsen"}},{"name":"Zum Steller Bahnhof","postalCode":"28816","locality":"Stuhr","municipality":{"key":"03251037","name":"Stuhr","type":"Kreisangehörige_Gemeinde"},"district":{"key":"03251","name":"Diepholz","type":"Landkreis"},"federalState":{"key":"03","name":"Niedersachsen"}},{"name":"Zum Warwer Sand","postalCode":"28816","locality":"Stuhr","municipality":{"key":"03251037","name":"Stuhr","type":"Kreisangehörige_Gemeinde"},"district":{"key":"03251","name":"Diepholz","type":"Landkreis"},"federalState":{"key":"03","name":"Niedersachsen"}},{"name":"Zur Bäke","postalCode":"28816","locality":"Stuhr","municipality":{"key":"03251037","name":"Stuhr","type":"Kreisangehörige_Gemeinde"},"district":{"key":"03251","name":"Diepholz","type":"Landkreis"},"federalState":{"key":"03","name":"Niedersachsen"}},{"name":"Zur Malsch","postalCode":"28816","locality":"Stuhr","municipality":{"key":"03251037","name":"Stuhr","type":"Kreisangehörige_Gemeinde"},"district":{"key":"03251","name":"Diepholz","type":"Landkreis"},"federalState":{"key":"03","name":"Niedersachsen"}},{"name":"Zur Windhorst","postalCode":"28816","locality":"Stuhr","municipality":{"key":"03251037","name":"Stuhr","type":"Kreisangehörige_Gemeinde"},"district":{"key":"03251","name":"Diepholz","type":"Landkreis"},"federalState":{"key":"03","name":"Niedersachsen"}},{"name":"Zur Wisch","postalCode":"28816","locality":"Stuhr","municipality":{"key":"03251037","name":"Stuhr","type":"Kreisangehörige_Gemeinde"},"district":{"key":"03251","name":"Diepholz","type":"Landkreis"},"federalState":{"key":"03","name":"Niedersachsen"}},{"name":"Zwischenahner Str.","postalCode":"28816","locality":"Stuhr","municipality":{"key":"03251037","name":"Stuhr","type":"Kreisangehörige_Gemeinde"},"district":{"key":"03251","name":"Diepholz","type":"Landkreis"},"federalState":{"key":"03","name":"Niedersachsen"}},]