[{"name":"ABC-Weg","postalCode":"24955","locality":"Harrislee","municipality":{"key":"01059120","name":"Harrislee","type":"Kreisangehörige_Gemeinde"},"district":{"key":"01059","name":"Schleswig-Flensburg","type":"Kreis"},"federalState":{"key":"01","name":"Schleswig-Holstein"}},{"name":"Achter de Möhl","postalCode":"24955","locality":"Harrislee","municipality":{"key":"01059120","name":"Harrislee","type":"Kreisangehörige_Gemeinde"},"district":{"key":"01059","name":"Schleswig-Flensburg","type":"Kreis"},"federalState":{"key":"01","name":"Schleswig-Holstein"}},{"name":"Achterum","postalCode":"24955","locality":"Harrislee","municipality":{"key":"01059120","name":"Harrislee","type":"Kreisangehörige_Gemeinde"},"district":{"key":"01059","name":"Schleswig-Flensburg","type":"Kreis"},"federalState":{"key":"01","name":"Schleswig-Holstein"}},{"name":"Albertinenstift","postalCode":"24955","locality":"Harrislee","municipality":{"key":"01059120","name":"Harrislee","type":"Kreisangehörige_Gemeinde"},"district":{"key":"01059","name":"Schleswig-Flensburg","type":"Kreis"},"federalState":{"key":"01","name":"Schleswig-Holstein"}},{"name":"Alter Holmberg","postalCode":"24955","locality":"Harrislee","municipality":{"key":"01059120","name":"Harrislee","type":"Kreisangehörige_Gemeinde"},"district":{"key":"01059","name":"Schleswig-Flensburg","type":"Kreis"},"federalState":{"key":"01","name":"Schleswig-Holstein"}},{"name":"Alte Zollstr.","postalCode":"24955","locality":"Harrislee","municipality":{"key":"01059120","name":"Harrislee","type":"Kreisangehörige_Gemeinde"},"district":{"key":"01059","name":"Schleswig-Flensburg","type":"Kreis"},"federalState":{"key":"01","name":"Schleswig-Holstein"}},{"name":"Alt Frösleer Weg","postalCode":"24955","locality":"Harrislee","municipality":{"key":"01059120","name":"Harrislee","type":"Kreisangehörige_Gemeinde"},"district":{"key":"01059","name":"Schleswig-Flensburg","type":"Kreis"},"federalState":{"key":"01","name":"Schleswig-Holstein"}},{"name":"Am Hang","postalCode":"24955","locality":"Harrislee","municipality":{"key":"01059120","name":"Harrislee","type":"Kreisangehörige_Gemeinde"},"district":{"key":"01059","name":"Schleswig-Flensburg","type":"Kreis"},"federalState":{"key":"01","name":"Schleswig-Holstein"}},{"name":"Am Klueshof","postalCode":"24955","locality":"Harrislee","municipality":{"key":"01059120","name":"Harrislee","type":"Kreisangehörige_Gemeinde"},"district":{"key":"01059","name":"Schleswig-Flensburg","type":"Kreis"},"federalState":{"key":"01","name":"Schleswig-Holstein"}},{"name":"Am Markt","postalCode":"24955","locality":"Harrislee","municipality":{"key":"01059120","name":"Harrislee","type":"Kreisangehörige_Gemeinde"},"district":{"key":"01059","name":"Schleswig-Flensburg","type":"Kreis"},"federalState":{"key":"01","name":"Schleswig-Holstein"}},{"name":"Am Teich","postalCode":"24955","locality":"Harrislee","municipality":{"key":"01059120","name":"Harrislee","type":"Kreisangehörige_Gemeinde"},"district":{"key":"01059","name":"Schleswig-Flensburg","type":"Kreis"},"federalState":{"key":"01","name":"Schleswig-Holstein"}},{"name":"An der alten Schule","postalCode":"24955","locality":"Harrislee","municipality":{"key":"01059120","name":"Harrislee","type":"Kreisangehörige_Gemeinde"},"district":{"key":"01059","name":"Schleswig-Flensburg","type":"Kreis"},"federalState":{"key":"01","name":"Schleswig-Holstein"}},{"name":"An der dänischen Kirche","postalCode":"24955","locality":"Harrislee","municipality":{"key":"01059120","name":"Harrislee","type":"Kreisangehörige_Gemeinde"},"district":{"key":"01059","name":"Schleswig-Flensburg","type":"Kreis"},"federalState":{"key":"01","name":"Schleswig-Holstein"}},{"name":"An der Krusau","postalCode":"24955","locality":"Harrislee","municipality":{"key":"01059120","name":"Harrislee","type":"Kreisangehörige_Gemeinde"},"district":{"key":"01059","name":"Schleswig-Flensburg","type":"Kreis"},"federalState":{"key":"01","name":"Schleswig-Holstein"}},{"name":"An der Marienhölzung","postalCode":"24955","locality":"Harrislee","municipality":{"key":"01059120","name":"Harrislee","type":"Kreisangehörige_Gemeinde"},"district":{"key":"01059","name":"Schleswig-Flensburg","type":"Kreis"},"federalState":{"key":"01","name":"Schleswig-Holstein"}},{"name":"Annenweg","postalCode":"24955","locality":"Harrislee","municipality":{"key":"01059120","name":"Harrislee","type":"Kreisangehörige_Gemeinde"},"district":{"key":"01059","name":"Schleswig-Flensburg","type":"Kreis"},"federalState":{"key":"01","name":"Schleswig-Holstein"}},{"name":"Bahnhofsweg","postalCode":"24955","locality":"Harrislee","municipality":{"key":"01059120","name":"Harrislee","type":"Kreisangehörige_Gemeinde"},"district":{"key":"01059","name":"Schleswig-Flensburg","type":"Kreis"},"federalState":{"key":"01","name":"Schleswig-Holstein"}},{"name":"Berghof","postalCode":"24955","locality":"Harrislee","municipality":{"key":"01059120","name":"Harrislee","type":"Kreisangehörige_Gemeinde"},"district":{"key":"01059","name":"Schleswig-Flensburg","type":"Kreis"},"federalState":{"key":"01","name":"Schleswig-Holstein"}},{"name":"Berghofstr.","postalCode":"24955","locality":"Harrislee","municipality":{"key":"01059120","name":"Harrislee","type":"Kreisangehörige_Gemeinde"},"district":{"key":"01059","name":"Schleswig-Flensburg","type":"Kreis"},"federalState":{"key":"01","name":"Schleswig-Holstein"}},{"name":"Blaubeerweg","postalCode":"24955","locality":"Harrislee","municipality":{"key":"01059120","name":"Harrislee","type":"Kreisangehörige_Gemeinde"},"district":{"key":"01059","name":"Schleswig-Flensburg","type":"Kreis"},"federalState":{"key":"01","name":"Schleswig-Holstein"}},{"name":"Brombeerweg","postalCode":"24955","locality":"Harrislee","municipality":{"key":"01059120","name":"Harrislee","type":"Kreisangehörige_Gemeinde"},"district":{"key":"01059","name":"Schleswig-Flensburg","type":"Kreis"},"federalState":{"key":"01","name":"Schleswig-Holstein"}},{"name":"Bürgermeister-Iversen-Bogen","postalCode":"24955","locality":"Harrislee","municipality":{"key":"01059120","name":"Harrislee","type":"Kreisangehörige_Gemeinde"},"district":{"key":"01059","name":"Schleswig-Flensburg","type":"Kreis"},"federalState":{"key":"01","name":"Schleswig-Holstein"}},{"name":"Cäcilienweg","postalCode":"24955","locality":"Harrislee","municipality":{"key":"01059120","name":"Harrislee","type":"Kreisangehörige_Gemeinde"},"district":{"key":"01059","name":"Schleswig-Flensburg","type":"Kreis"},"federalState":{"key":"01","name":"Schleswig-Holstein"}},{"name":"Christiansgang","postalCode":"24955","locality":"Harrislee","municipality":{"key":"01059120","name":"Harrislee","type":"Kreisangehörige_Gemeinde"},"district":{"key":"01059","name":"Schleswig-Flensburg","type":"Kreis"},"federalState":{"key":"01","name":"Schleswig-Holstein"}},{"name":"Dammoos","postalCode":"24955","locality":"Harrislee","municipality":{"key":"01059120","name":"Harrislee","type":"Kreisangehörige_Gemeinde"},"district":{"key":"01059","name":"Schleswig-Flensburg","type":"Kreis"},"federalState":{"key":"01","name":"Schleswig-Holstein"}},{"name":"Dammweg","postalCode":"24955","locality":"Harrislee","municipality":{"key":"01059120","name":"Harrislee","type":"Kreisangehörige_Gemeinde"},"district":{"key":"01059","name":"Schleswig-Flensburg","type":"Kreis"},"federalState":{"key":"01","name":"Schleswig-Holstein"}},{"name":"Drögeneck","postalCode":"24955","locality":"Harrislee","municipality":{"key":"01059120","name":"Harrislee","type":"Kreisangehörige_Gemeinde"},"district":{"key":"01059","name":"Schleswig-Flensburg","type":"Kreis"},"federalState":{"key":"01","name":"Schleswig-Holstein"}},{"name":"Ellunder Weg","postalCode":"24955","locality":"Harrislee","municipality":{"key":"01059120","name":"Harrislee","type":"Kreisangehörige_Gemeinde"},"district":{"key":"01059","name":"Schleswig-Flensburg","type":"Kreis"},"federalState":{"key":"01","name":"Schleswig-Holstein"}},{"name":"Emmi-Hartten-Str.","postalCode":"24955","locality":"Harrislee","municipality":{"key":"01059120","name":"Harrislee","type":"Kreisangehörige_Gemeinde"},"district":{"key":"01059","name":"Schleswig-Flensburg","type":"Kreis"},"federalState":{"key":"01","name":"Schleswig-Holstein"}},{"name":"Feldmark","postalCode":"24955","locality":"Harrislee","municipality":{"key":"01059120","name":"Harrislee","type":"Kreisangehörige_Gemeinde"},"district":{"key":"01059","name":"Schleswig-Flensburg","type":"Kreis"},"federalState":{"key":"01","name":"Schleswig-Holstein"}},{"name":"Flensburger Damm","postalCode":"24955","locality":"Harrislee","municipality":{"key":"01059120","name":"Harrislee","type":"Kreisangehörige_Gemeinde"},"district":{"key":"01059","name":"Schleswig-Flensburg","type":"Kreis"},"federalState":{"key":"01","name":"Schleswig-Holstein"}},{"name":"Fördebogen","postalCode":"24955","locality":"Harrislee","municipality":{"key":"01059120","name":"Harrislee","type":"Kreisangehörige_Gemeinde"},"district":{"key":"01059","name":"Schleswig-Flensburg","type":"Kreis"},"federalState":{"key":"01","name":"Schleswig-Holstein"}},{"name":"Forsteck","postalCode":"24955","locality":"Harrislee","municipality":{"key":"01059120","name":"Harrislee","type":"Kreisangehörige_Gemeinde"},"district":{"key":"01059","name":"Schleswig-Flensburg","type":"Kreis"},"federalState":{"key":"01","name":"Schleswig-Holstein"}},{"name":"Frühlingsbogen","postalCode":"24955","locality":"Harrislee","municipality":{"key":"01059120","name":"Harrislee","type":"Kreisangehörige_Gemeinde"},"district":{"key":"01059","name":"Schleswig-Flensburg","type":"Kreis"},"federalState":{"key":"01","name":"Schleswig-Holstein"}},{"name":"Geheimrat-Dr.-Schaedel-Str.","postalCode":"24955","locality":"Harrislee","municipality":{"key":"01059120","name":"Harrislee","type":"Kreisangehörige_Gemeinde"},"district":{"key":"01059","name":"Schleswig-Flensburg","type":"Kreis"},"federalState":{"key":"01","name":"Schleswig-Holstein"}},{"name":"Gewerbedamm","postalCode":"24955","locality":"Harrislee","municipality":{"key":"01059120","name":"Harrislee","type":"Kreisangehörige_Gemeinde"},"district":{"key":"01059","name":"Schleswig-Flensburg","type":"Kreis"},"federalState":{"key":"01","name":"Schleswig-Holstein"}},{"name":"Gewerbegrund","postalCode":"24955","locality":"Harrislee","municipality":{"key":"01059120","name":"Harrislee","type":"Kreisangehörige_Gemeinde"},"district":{"key":"01059","name":"Schleswig-Flensburg","type":"Kreis"},"federalState":{"key":"01","name":"Schleswig-Holstein"}},{"name":"Gewerbehof","postalCode":"24955","locality":"Harrislee","municipality":{"key":"01059120","name":"Harrislee","type":"Kreisangehörige_Gemeinde"},"district":{"key":"01059","name":"Schleswig-Flensburg","type":"Kreis"},"federalState":{"key":"01","name":"Schleswig-Holstein"}},{"name":"Glyngöre","postalCode":"24955","locality":"Harrislee","municipality":{"key":"01059120","name":"Harrislee","type":"Kreisangehörige_Gemeinde"},"district":{"key":"01059","name":"Schleswig-Flensburg","type":"Kreis"},"federalState":{"key":"01","name":"Schleswig-Holstein"}},{"name":"Grenzbogen","postalCode":"24955","locality":"Harrislee","municipality":{"key":"01059120","name":"Harrislee","type":"Kreisangehörige_Gemeinde"},"district":{"key":"01059","name":"Schleswig-Flensburg","type":"Kreis"},"federalState":{"key":"01","name":"Schleswig-Holstein"}},{"name":"Grenzstr.","postalCode":"24955","locality":"Harrislee","municipality":{"key":"01059120","name":"Harrislee","type":"Kreisangehörige_Gemeinde"},"district":{"key":"01059","name":"Schleswig-Flensburg","type":"Kreis"},"federalState":{"key":"01","name":"Schleswig-Holstein"}},{"name":"Grenztal","postalCode":"24955","locality":"Harrislee","municipality":{"key":"01059120","name":"Harrislee","type":"Kreisangehörige_Gemeinde"},"district":{"key":"01059","name":"Schleswig-Flensburg","type":"Kreis"},"federalState":{"key":"01","name":"Schleswig-Holstein"}},{"name":"Grönfahrtweg","postalCode":"24955","locality":"Harrislee","municipality":{"key":"01059120","name":"Harrislee","type":"Kreisangehörige_Gemeinde"},"district":{"key":"01059","name":"Schleswig-Flensburg","type":"Kreis"},"federalState":{"key":"01","name":"Schleswig-Holstein"}},{"name":"Grüner Brink","postalCode":"24955","locality":"Harrislee","municipality":{"key":"01059120","name":"Harrislee","type":"Kreisangehörige_Gemeinde"},"district":{"key":"01059","name":"Schleswig-Flensburg","type":"Kreis"},"federalState":{"key":"01","name":"Schleswig-Holstein"}},{"name":"Hainstr.","postalCode":"24955","locality":"Harrislee","municipality":{"key":"01059120","name":"Harrislee","type":"Kreisangehörige_Gemeinde"},"district":{"key":"01059","name":"Schleswig-Flensburg","type":"Kreis"},"federalState":{"key":"01","name":"Schleswig-Holstein"}},{"name":"Harrisleer Umgehung","postalCode":"24955","locality":"Harrislee","municipality":{"key":"01059120","name":"Harrislee","type":"Kreisangehörige_Gemeinde"},"district":{"key":"01059","name":"Schleswig-Flensburg","type":"Kreis"},"federalState":{"key":"01","name":"Schleswig-Holstein"}},{"name":"Hechtenteich","postalCode":"24955","locality":"Harrislee","municipality":{"key":"01059120","name":"Harrislee","type":"Kreisangehörige_Gemeinde"},"district":{"key":"01059","name":"Schleswig-Flensburg","type":"Kreis"},"federalState":{"key":"01","name":"Schleswig-Holstein"}},{"name":"Hedwig-Marggraff-Str.","postalCode":"24955","locality":"Harrislee","municipality":{"key":"01059120","name":"Harrislee","type":"Kreisangehörige_Gemeinde"},"district":{"key":"01059","name":"Schleswig-Flensburg","type":"Kreis"},"federalState":{"key":"01","name":"Schleswig-Holstein"}},{"name":"Heemark","postalCode":"24955","locality":"Harrislee","municipality":{"key":"01059120","name":"Harrislee","type":"Kreisangehörige_Gemeinde"},"district":{"key":"01059","name":"Schleswig-Flensburg","type":"Kreis"},"federalState":{"key":"01","name":"Schleswig-Holstein"}},{"name":"Heidewinkel","postalCode":"24955","locality":"Harrislee","municipality":{"key":"01059120","name":"Harrislee","type":"Kreisangehörige_Gemeinde"},"district":{"key":"01059","name":"Schleswig-Flensburg","type":"Kreis"},"federalState":{"key":"01","name":"Schleswig-Holstein"}},{"name":"Helenenweg","postalCode":"24955","locality":"Harrislee","municipality":{"key":"01059120","name":"Harrislee","type":"Kreisangehörige_Gemeinde"},"district":{"key":"01059","name":"Schleswig-Flensburg","type":"Kreis"},"federalState":{"key":"01","name":"Schleswig-Holstein"}},{"name":"Herbstgang","postalCode":"24955","locality":"Harrislee","municipality":{"key":"01059120","name":"Harrislee","type":"Kreisangehörige_Gemeinde"},"district":{"key":"01059","name":"Schleswig-Flensburg","type":"Kreis"},"federalState":{"key":"01","name":"Schleswig-Holstein"}},{"name":"Hermine-Knuth-Str.","postalCode":"24955","locality":"Harrislee","municipality":{"key":"01059120","name":"Harrislee","type":"Kreisangehörige_Gemeinde"},"district":{"key":"01059","name":"Schleswig-Flensburg","type":"Kreis"},"federalState":{"key":"01","name":"Schleswig-Holstein"}},{"name":"Himbeerbogen","postalCode":"24955","locality":"Harrislee","municipality":{"key":"01059120","name":"Harrislee","type":"Kreisangehörige_Gemeinde"},"district":{"key":"01059","name":"Schleswig-Flensburg","type":"Kreis"},"federalState":{"key":"01","name":"Schleswig-Holstein"}},{"name":"Himmern","postalCode":"24955","locality":"Harrislee","municipality":{"key":"01059120","name":"Harrislee","type":"Kreisangehörige_Gemeinde"},"district":{"key":"01059","name":"Schleswig-Flensburg","type":"Kreis"},"federalState":{"key":"01","name":"Schleswig-Holstein"}},{"name":"Himmernbogen","postalCode":"24955","locality":"Harrislee","municipality":{"key":"01059120","name":"Harrislee","type":"Kreisangehörige_Gemeinde"},"district":{"key":"01059","name":"Schleswig-Flensburg","type":"Kreis"},"federalState":{"key":"01","name":"Schleswig-Holstein"}},{"name":"Himmernlyk","postalCode":"24955","locality":"Harrislee","municipality":{"key":"01059120","name":"Harrislee","type":"Kreisangehörige_Gemeinde"},"district":{"key":"01059","name":"Schleswig-Flensburg","type":"Kreis"},"federalState":{"key":"01","name":"Schleswig-Holstein"}},{"name":"Himmernmoos","postalCode":"24955","locality":"Harrislee","municipality":{"key":"01059120","name":"Harrislee","type":"Kreisangehörige_Gemeinde"},"district":{"key":"01059","name":"Schleswig-Flensburg","type":"Kreis"},"federalState":{"key":"01","name":"Schleswig-Holstein"}},{"name":"Himmernsand","postalCode":"24955","locality":"Harrislee","municipality":{"key":"01059120","name":"Harrislee","type":"Kreisangehörige_Gemeinde"},"district":{"key":"01059","name":"Schleswig-Flensburg","type":"Kreis"},"federalState":{"key":"01","name":"Schleswig-Holstein"}},{"name":"Hohe Mark","postalCode":"24955","locality":"Harrislee","municipality":{"key":"01059120","name":"Harrislee","type":"Kreisangehörige_Gemeinde"},"district":{"key":"01059","name":"Schleswig-Flensburg","type":"Kreis"},"federalState":{"key":"01","name":"Schleswig-Holstein"}},{"name":"Holmberg","postalCode":"24955","locality":"Harrislee","municipality":{"key":"01059120","name":"Harrislee","type":"Kreisangehörige_Gemeinde"},"district":{"key":"01059","name":"Schleswig-Flensburg","type":"Kreis"},"federalState":{"key":"01","name":"Schleswig-Holstein"}},{"name":"Im Erdbeerfeld","postalCode":"24955","locality":"Harrislee","municipality":{"key":"01059120","name":"Harrislee","type":"Kreisangehörige_Gemeinde"},"district":{"key":"01059","name":"Schleswig-Flensburg","type":"Kreis"},"federalState":{"key":"01","name":"Schleswig-Holstein"}},{"name":"Im Gewerbepark","postalCode":"24955","locality":"Harrislee","municipality":{"key":"01059120","name":"Harrislee","type":"Kreisangehörige_Gemeinde"},"district":{"key":"01059","name":"Schleswig-Flensburg","type":"Kreis"},"federalState":{"key":"01","name":"Schleswig-Holstein"}},{"name":"Im Winkel","postalCode":"24955","locality":"Harrislee","municipality":{"key":"01059120","name":"Harrislee","type":"Kreisangehörige_Gemeinde"},"district":{"key":"01059","name":"Schleswig-Flensburg","type":"Kreis"},"federalState":{"key":"01","name":"Schleswig-Holstein"}},{"name":"Ina-Hochreuter-Str.","postalCode":"24955","locality":"Harrislee","municipality":{"key":"01059120","name":"Harrislee","type":"Kreisangehörige_Gemeinde"},"district":{"key":"01059","name":"Schleswig-Flensburg","type":"Kreis"},"federalState":{"key":"01","name":"Schleswig-Holstein"}},{"name":"Industrieweg","postalCode":"24955","locality":"Harrislee","municipality":{"key":"01059120","name":"Harrislee","type":"Kreisangehörige_Gemeinde"},"district":{"key":"01059","name":"Schleswig-Flensburg","type":"Kreis"},"federalState":{"key":"01","name":"Schleswig-Holstein"}},{"name":"Jahresring","postalCode":"24955","locality":"Harrislee","municipality":{"key":"01059120","name":"Harrislee","type":"Kreisangehörige_Gemeinde"},"district":{"key":"01059","name":"Schleswig-Flensburg","type":"Kreis"},"federalState":{"key":"01","name":"Schleswig-Holstein"}},{"name":"Johannisbeerweg","postalCode":"24955","locality":"Harrislee","municipality":{"key":"01059120","name":"Harrislee","type":"Kreisangehörige_Gemeinde"},"district":{"key":"01059","name":"Schleswig-Flensburg","type":"Kreis"},"federalState":{"key":"01","name":"Schleswig-Holstein"}},{"name":"Johannisberg","postalCode":"24955","locality":"Harrislee","municipality":{"key":"01059120","name":"Harrislee","type":"Kreisangehörige_Gemeinde"},"district":{"key":"01059","name":"Schleswig-Flensburg","type":"Kreis"},"federalState":{"key":"01","name":"Schleswig-Holstein"}},{"name":"Kallhoi","postalCode":"24955","locality":"Harrislee","municipality":{"key":"01059120","name":"Harrislee","type":"Kreisangehörige_Gemeinde"},"district":{"key":"01059","name":"Schleswig-Flensburg","type":"Kreis"},"federalState":{"key":"01","name":"Schleswig-Holstein"}},{"name":"Katharinenweg","postalCode":"24955","locality":"Harrislee","municipality":{"key":"01059120","name":"Harrislee","type":"Kreisangehörige_Gemeinde"},"district":{"key":"01059","name":"Schleswig-Flensburg","type":"Kreis"},"federalState":{"key":"01","name":"Schleswig-Holstein"}},{"name":"Käthe-Haken-Str.","postalCode":"24955","locality":"Harrislee","municipality":{"key":"01059120","name":"Harrislee","type":"Kreisangehörige_Gemeinde"},"district":{"key":"01059","name":"Schleswig-Flensburg","type":"Kreis"},"federalState":{"key":"01","name":"Schleswig-Holstein"}},{"name":"Landmesserweg","postalCode":"24955","locality":"Harrislee","municipality":{"key":"01059120","name":"Harrislee","type":"Kreisangehörige_Gemeinde"},"district":{"key":"01059","name":"Schleswig-Flensburg","type":"Kreis"},"federalState":{"key":"01","name":"Schleswig-Holstein"}},{"name":"Libellenring","postalCode":"24955","locality":"Harrislee","municipality":{"key":"01059120","name":"Harrislee","type":"Kreisangehörige_Gemeinde"},"district":{"key":"01059","name":"Schleswig-Flensburg","type":"Kreis"},"federalState":{"key":"01","name":"Schleswig-Holstein"}},{"name":"Lykberg","postalCode":"24955","locality":"Harrislee","municipality":{"key":"01059120","name":"Harrislee","type":"Kreisangehörige_Gemeinde"},"district":{"key":"01059","name":"Schleswig-Flensburg","type":"Kreis"},"federalState":{"key":"01","name":"Schleswig-Holstein"}},{"name":"Margarethe-Jacobsen-Str.","postalCode":"24955","locality":"Harrislee","municipality":{"key":"01059120","name":"Harrislee","type":"Kreisangehörige_Gemeinde"},"district":{"key":"01059","name":"Schleswig-Flensburg","type":"Kreis"},"federalState":{"key":"01","name":"Schleswig-Holstein"}},{"name":"Maria-Hansen-Str.","postalCode":"24955","locality":"Harrislee","municipality":{"key":"01059120","name":"Harrislee","type":"Kreisangehörige_Gemeinde"},"district":{"key":"01059","name":"Schleswig-Flensburg","type":"Kreis"},"federalState":{"key":"01","name":"Schleswig-Holstein"}},{"name":"Marktallee","postalCode":"24955","locality":"Harrislee","municipality":{"key":"01059120","name":"Harrislee","type":"Kreisangehörige_Gemeinde"},"district":{"key":"01059","name":"Schleswig-Flensburg","type":"Kreis"},"federalState":{"key":"01","name":"Schleswig-Holstein"}},{"name":"Messinghof","postalCode":"24955","locality":"Harrislee","municipality":{"key":"01059120","name":"Harrislee","type":"Kreisangehörige_Gemeinde"},"district":{"key":"01059","name":"Schleswig-Flensburg","type":"Kreis"},"federalState":{"key":"01","name":"Schleswig-Holstein"}},{"name":"Moorweide","postalCode":"24955","locality":"Harrislee","municipality":{"key":"01059120","name":"Harrislee","type":"Kreisangehörige_Gemeinde"},"district":{"key":"01059","name":"Schleswig-Flensburg","type":"Kreis"},"federalState":{"key":"01","name":"Schleswig-Holstein"}},{"name":"Moosbeerenweg","postalCode":"24955","locality":"Harrislee","municipality":{"key":"01059120","name":"Harrislee","type":"Kreisangehörige_Gemeinde"},"district":{"key":"01059","name":"Schleswig-Flensburg","type":"Kreis"},"federalState":{"key":"01","name":"Schleswig-Holstein"}},{"name":"Moränenweg","postalCode":"24955","locality":"Harrislee","municipality":{"key":"01059120","name":"Harrislee","type":"Kreisangehörige_Gemeinde"},"district":{"key":"01059","name":"Schleswig-Flensburg","type":"Kreis"},"federalState":{"key":"01","name":"Schleswig-Holstein"}},{"name":"Musbeker Weg","postalCode":"24955","locality":"Harrislee","municipality":{"key":"01059120","name":"Harrislee","type":"Kreisangehörige_Gemeinde"},"district":{"key":"01059","name":"Schleswig-Flensburg","type":"Kreis"},"federalState":{"key":"01","name":"Schleswig-Holstein"}},{"name":"Niehuuser Str.","postalCode":"24955","locality":"Harrislee","municipality":{"key":"01059120","name":"Harrislee","type":"Kreisangehörige_Gemeinde"},"district":{"key":"01059","name":"Schleswig-Flensburg","type":"Kreis"},"federalState":{"key":"01","name":"Schleswig-Holstein"}},{"name":"Norderdiek","postalCode":"24955","locality":"Harrislee","municipality":{"key":"01059120","name":"Harrislee","type":"Kreisangehörige_Gemeinde"},"district":{"key":"01059","name":"Schleswig-Flensburg","type":"Kreis"},"federalState":{"key":"01","name":"Schleswig-Holstein"}},{"name":"Norderfeld","postalCode":"24955","locality":"Harrislee","municipality":{"key":"01059120","name":"Harrislee","type":"Kreisangehörige_Gemeinde"},"district":{"key":"01059","name":"Schleswig-Flensburg","type":"Kreis"},"federalState":{"key":"01","name":"Schleswig-Holstein"}},{"name":"Norderholm","postalCode":"24955","locality":"Harrislee","municipality":{"key":"01059120","name":"Harrislee","type":"Kreisangehörige_Gemeinde"},"district":{"key":"01059","name":"Schleswig-Flensburg","type":"Kreis"},"federalState":{"key":"01","name":"Schleswig-Holstein"}},{"name":"Nordertoft","postalCode":"24955","locality":"Harrislee","municipality":{"key":"01059120","name":"Harrislee","type":"Kreisangehörige_Gemeinde"},"district":{"key":"01059","name":"Schleswig-Flensburg","type":"Kreis"},"federalState":{"key":"01","name":"Schleswig-Holstein"}},{"name":"Nörrmark","postalCode":"24955","locality":"Harrislee","municipality":{"key":"01059120","name":"Harrislee","type":"Kreisangehörige_Gemeinde"},"district":{"key":"01059","name":"Schleswig-Flensburg","type":"Kreis"},"federalState":{"key":"01","name":"Schleswig-Holstein"}},{"name":"Ochsenweg","postalCode":"24955","locality":"Harrislee","municipality":{"key":"01059120","name":"Harrislee","type":"Kreisangehörige_Gemeinde"},"district":{"key":"01059","name":"Schleswig-Flensburg","type":"Kreis"},"federalState":{"key":"01","name":"Schleswig-Holstein"}},{"name":"Osterlükken","postalCode":"24955","locality":"Harrislee","municipality":{"key":"01059120","name":"Harrislee","type":"Kreisangehörige_Gemeinde"},"district":{"key":"01059","name":"Schleswig-Flensburg","type":"Kreis"},"federalState":{"key":"01","name":"Schleswig-Holstein"}},{"name":"Ostermark","postalCode":"24955","locality":"Harrislee","municipality":{"key":"01059120","name":"Harrislee","type":"Kreisangehörige_Gemeinde"},"district":{"key":"01059","name":"Schleswig-Flensburg","type":"Kreis"},"federalState":{"key":"01","name":"Schleswig-Holstein"}},{"name":"Ostlandring","postalCode":"24955","locality":"Harrislee","municipality":{"key":"01059120","name":"Harrislee","type":"Kreisangehörige_Gemeinde"},"district":{"key":"01059","name":"Schleswig-Flensburg","type":"Kreis"},"federalState":{"key":"01","name":"Schleswig-Holstein"}},{"name":"Pastor-Matthiesen-Str.","postalCode":"24955","locality":"Harrislee","municipality":{"key":"01059120","name":"Harrislee","type":"Kreisangehörige_Gemeinde"},"district":{"key":"01059","name":"Schleswig-Flensburg","type":"Kreis"},"federalState":{"key":"01","name":"Schleswig-Holstein"}},{"name":"Pastor-Thomsen-Str.","postalCode":"24955","locality":"Harrislee","municipality":{"key":"01059120","name":"Harrislee","type":"Kreisangehörige_Gemeinde"},"district":{"key":"01059","name":"Schleswig-Flensburg","type":"Kreis"},"federalState":{"key":"01","name":"Schleswig-Holstein"}},{"name":"Pastor-Wacker-Str.","postalCode":"24955","locality":"Harrislee","municipality":{"key":"01059120","name":"Harrislee","type":"Kreisangehörige_Gemeinde"},"district":{"key":"01059","name":"Schleswig-Flensburg","type":"Kreis"},"federalState":{"key":"01","name":"Schleswig-Holstein"}},{"name":"Pattburger Bogen","postalCode":"24955","locality":"Harrislee","municipality":{"key":"01059120","name":"Harrislee","type":"Kreisangehörige_Gemeinde"},"district":{"key":"01059","name":"Schleswig-Flensburg","type":"Kreis"},"federalState":{"key":"01","name":"Schleswig-Holstein"}},{"name":"Petersilienweg","postalCode":"24955","locality":"Harrislee","municipality":{"key":"01059120","name":"Harrislee","type":"Kreisangehörige_Gemeinde"},"district":{"key":"01059","name":"Schleswig-Flensburg","type":"Kreis"},"federalState":{"key":"01","name":"Schleswig-Holstein"}},{"name":"Pferdekoppel","postalCode":"24955","locality":"Harrislee","municipality":{"key":"01059120","name":"Harrislee","type":"Kreisangehörige_Gemeinde"},"district":{"key":"01059","name":"Schleswig-Flensburg","type":"Kreis"},"federalState":{"key":"01","name":"Schleswig-Holstein"}},{"name":"Professor-Baum-Str.","postalCode":"24955","locality":"Harrislee","municipality":{"key":"01059120","name":"Harrislee","type":"Kreisangehörige_Gemeinde"},"district":{"key":"01059","name":"Schleswig-Flensburg","type":"Kreis"},"federalState":{"key":"01","name":"Schleswig-Holstein"}},{"name":"Puschenweg","postalCode":"24955","locality":"Harrislee","municipality":{"key":"01059120","name":"Harrislee","type":"Kreisangehörige_Gemeinde"},"district":{"key":"01059","name":"Schleswig-Flensburg","type":"Kreis"},"federalState":{"key":"01","name":"Schleswig-Holstein"}},{"name":"Schäferweg","postalCode":"24955","locality":"Harrislee","municipality":{"key":"01059120","name":"Harrislee","type":"Kreisangehörige_Gemeinde"},"district":{"key":"01059","name":"Schleswig-Flensburg","type":"Kreis"},"federalState":{"key":"01","name":"Schleswig-Holstein"}},{"name":"Schilfbogen","postalCode":"24955","locality":"Harrislee","municipality":{"key":"01059120","name":"Harrislee","type":"Kreisangehörige_Gemeinde"},"district":{"key":"01059","name":"Schleswig-Flensburg","type":"Kreis"},"federalState":{"key":"01","name":"Schleswig-Holstein"}},{"name":"Schulstr.","postalCode":"24955","locality":"Harrislee","municipality":{"key":"01059120","name":"Harrislee","type":"Kreisangehörige_Gemeinde"},"district":{"key":"01059","name":"Schleswig-Flensburg","type":"Kreis"},"federalState":{"key":"01","name":"Schleswig-Holstein"}},{"name":"Schusterkate","postalCode":"24955","locality":"Harrislee","municipality":{"key":"01059120","name":"Harrislee","type":"Kreisangehörige_Gemeinde"},"district":{"key":"01059","name":"Schleswig-Flensburg","type":"Kreis"},"federalState":{"key":"01","name":"Schleswig-Holstein"}},{"name":"Slukefterbogen","postalCode":"24955","locality":"Harrislee","municipality":{"key":"01059120","name":"Harrislee","type":"Kreisangehörige_Gemeinde"},"district":{"key":"01059","name":"Schleswig-Flensburg","type":"Kreis"},"federalState":{"key":"01","name":"Schleswig-Holstein"}},{"name":"Slukefterweg","postalCode":"24955","locality":"Harrislee","municipality":{"key":"01059120","name":"Harrislee","type":"Kreisangehörige_Gemeinde"},"district":{"key":"01059","name":"Schleswig-Flensburg","type":"Kreis"},"federalState":{"key":"01","name":"Schleswig-Holstein"}},{"name":"Sonnenpark","postalCode":"24955","locality":"Harrislee","municipality":{"key":"01059120","name":"Harrislee","type":"Kreisangehörige_Gemeinde"},"district":{"key":"01059","name":"Schleswig-Flensburg","type":"Kreis"},"federalState":{"key":"01","name":"Schleswig-Holstein"}},{"name":"Steinkamp","postalCode":"24955","locality":"Harrislee","municipality":{"key":"01059120","name":"Harrislee","type":"Kreisangehörige_Gemeinde"},"district":{"key":"01059","name":"Schleswig-Flensburg","type":"Kreis"},"federalState":{"key":"01","name":"Schleswig-Holstein"}},{"name":"Strandblick","postalCode":"24955","locality":"Harrislee","municipality":{"key":"01059120","name":"Harrislee","type":"Kreisangehörige_Gemeinde"},"district":{"key":"01059","name":"Schleswig-Flensburg","type":"Kreis"},"federalState":{"key":"01","name":"Schleswig-Holstein"}},{"name":"Strandhof","postalCode":"24955","locality":"Harrislee","municipality":{"key":"01059120","name":"Harrislee","type":"Kreisangehörige_Gemeinde"},"district":{"key":"01059","name":"Schleswig-Flensburg","type":"Kreis"},"federalState":{"key":"01","name":"Schleswig-Holstein"}},{"name":"Süderdiek","postalCode":"24955","locality":"Harrislee","municipality":{"key":"01059120","name":"Harrislee","type":"Kreisangehörige_Gemeinde"},"district":{"key":"01059","name":"Schleswig-Flensburg","type":"Kreis"},"federalState":{"key":"01","name":"Schleswig-Holstein"}},{"name":"Süderholm","postalCode":"24955","locality":"Harrislee","municipality":{"key":"01059120","name":"Harrislee","type":"Kreisangehörige_Gemeinde"},"district":{"key":"01059","name":"Schleswig-Flensburg","type":"Kreis"},"federalState":{"key":"01","name":"Schleswig-Holstein"}},{"name":"Südermoor","postalCode":"24955","locality":"Harrislee","municipality":{"key":"01059120","name":"Harrislee","type":"Kreisangehörige_Gemeinde"},"district":{"key":"01059","name":"Schleswig-Flensburg","type":"Kreis"},"federalState":{"key":"01","name":"Schleswig-Holstein"}},{"name":"Süderstr.","postalCode":"24955","locality":"Harrislee","municipality":{"key":"01059120","name":"Harrislee","type":"Kreisangehörige_Gemeinde"},"district":{"key":"01059","name":"Schleswig-Flensburg","type":"Kreis"},"federalState":{"key":"01","name":"Schleswig-Holstein"}},{"name":"Thomasstr.","postalCode":"24955","locality":"Harrislee","municipality":{"key":"01059120","name":"Harrislee","type":"Kreisangehörige_Gemeinde"},"district":{"key":"01059","name":"Schleswig-Flensburg","type":"Kreis"},"federalState":{"key":"01","name":"Schleswig-Holstein"}},{"name":"Thor-Straten-Weg","postalCode":"24955","locality":"Harrislee","municipality":{"key":"01059120","name":"Harrislee","type":"Kreisangehörige_Gemeinde"},"district":{"key":"01059","name":"Schleswig-Flensburg","type":"Kreis"},"federalState":{"key":"01","name":"Schleswig-Holstein"}},{"name":"Uferstieg","postalCode":"24955","locality":"Harrislee","municipality":{"key":"01059120","name":"Harrislee","type":"Kreisangehörige_Gemeinde"},"district":{"key":"01059","name":"Schleswig-Flensburg","type":"Kreis"},"federalState":{"key":"01","name":"Schleswig-Holstein"}},{"name":"Vor der Koppe","postalCode":"24955","locality":"Harrislee","municipality":{"key":"01059120","name":"Harrislee","type":"Kreisangehörige_Gemeinde"},"district":{"key":"01059","name":"Schleswig-Flensburg","type":"Kreis"},"federalState":{"key":"01","name":"Schleswig-Holstein"}},{"name":"Waaterkant","postalCode":"24955","locality":"Harrislee","municipality":{"key":"01059120","name":"Harrislee","type":"Kreisangehörige_Gemeinde"},"district":{"key":"01059","name":"Schleswig-Flensburg","type":"Kreis"},"federalState":{"key":"01","name":"Schleswig-Holstein"}},{"name":"Waldweg","postalCode":"24955","locality":"Harrislee","municipality":{"key":"01059120","name":"Harrislee","type":"Kreisangehörige_Gemeinde"},"district":{"key":"01059","name":"Schleswig-Flensburg","type":"Kreis"},"federalState":{"key":"01","name":"Schleswig-Holstein"}},{"name":"Wassersleben","postalCode":"24955","locality":"Harrislee","municipality":{"key":"01059120","name":"Harrislee","type":"Kreisangehörige_Gemeinde"},"district":{"key":"01059","name":"Schleswig-Flensburg","type":"Kreis"},"federalState":{"key":"01","name":"Schleswig-Holstein"}},{"name":"Werkstr.","postalCode":"24955","locality":"Harrislee","municipality":{"key":"01059120","name":"Harrislee","type":"Kreisangehörige_Gemeinde"},"district":{"key":"01059","name":"Schleswig-Flensburg","type":"Kreis"},"federalState":{"key":"01","name":"Schleswig-Holstein"}},{"name":"Westerlücke","postalCode":"24955","locality":"Harrislee","municipality":{"key":"01059120","name":"Harrislee","type":"Kreisangehörige_Gemeinde"},"district":{"key":"01059","name":"Schleswig-Flensburg","type":"Kreis"},"federalState":{"key":"01","name":"Schleswig-Holstein"}},{"name":"Westermark","postalCode":"24955","locality":"Harrislee","municipality":{"key":"01059120","name":"Harrislee","type":"Kreisangehörige_Gemeinde"},"district":{"key":"01059","name":"Schleswig-Flensburg","type":"Kreis"},"federalState":{"key":"01","name":"Schleswig-Holstein"}},{"name":"Westerstr.","postalCode":"24955","locality":"Harrislee","municipality":{"key":"01059120","name":"Harrislee","type":"Kreisangehörige_Gemeinde"},"district":{"key":"01059","name":"Schleswig-Flensburg","type":"Kreis"},"federalState":{"key":"01","name":"Schleswig-Holstein"}},{"name":"Westertoft","postalCode":"24955","locality":"Harrislee","municipality":{"key":"01059120","name":"Harrislee","type":"Kreisangehörige_Gemeinde"},"district":{"key":"01059","name":"Schleswig-Flensburg","type":"Kreis"},"federalState":{"key":"01","name":"Schleswig-Holstein"}},{"name":"Wiesenkamp","postalCode":"24955","locality":"Harrislee","municipality":{"key":"01059120","name":"Harrislee","type":"Kreisangehörige_Gemeinde"},"district":{"key":"01059","name":"Schleswig-Flensburg","type":"Kreis"},"federalState":{"key":"01","name":"Schleswig-Holstein"}},{"name":"Zur Höhe","postalCode":"24955","locality":"Harrislee","municipality":{"key":"01059120","name":"Harrislee","type":"Kreisangehörige_Gemeinde"},"district":{"key":"01059","name":"Schleswig-Flensburg","type":"Kreis"},"federalState":{"key":"01","name":"Schleswig-Holstein"}},{"name":"Zur Kupfermühle","postalCode":"24955","locality":"Harrislee","municipality":{"key":"01059120","name":"Harrislee","type":"Kreisangehörige_Gemeinde"},"district":{"key":"01059","name":"Schleswig-Flensburg","type":"Kreis"},"federalState":{"key":"01","name":"Schleswig-Holstein"}},]