[{"name":"An der Pfarrwiese","postalCode":"67591","locality":"Hohen-Sülzen","municipality":{"key":"07331041","name":"Hohen-Sülzen","type":"Kreisangehörige_Gemeinde"},"district":{"key":"07331","name":"Alzey-Worms","type":"Landkreis"},"federalState":{"key":"07","name":"Rheinland-Pfalz"}},{"name":"Bahnhofstr.","postalCode":"67591","locality":"Hohen-Sülzen","municipality":{"key":"07331041","name":"Hohen-Sülzen","type":"Kreisangehörige_Gemeinde"},"district":{"key":"07331","name":"Alzey-Worms","type":"Landkreis"},"federalState":{"key":"07","name":"Rheinland-Pfalz"}},{"name":"Bergstr.","postalCode":"67591","locality":"Hohen-Sülzen","municipality":{"key":"07331041","name":"Hohen-Sülzen","type":"Kreisangehörige_Gemeinde"},"district":{"key":"07331","name":"Alzey-Worms","type":"Landkreis"},"federalState":{"key":"07","name":"Rheinland-Pfalz"}},{"name":"Gartenstr.","postalCode":"67591","locality":"Hohen-Sülzen","municipality":{"key":"07331041","name":"Hohen-Sülzen","type":"Kreisangehörige_Gemeinde"},"district":{"key":"07331","name":"Alzey-Worms","type":"Landkreis"},"federalState":{"key":"07","name":"Rheinland-Pfalz"}},{"name":"Hauptstr.","postalCode":"67591","locality":"Hohen-Sülzen","municipality":{"key":"07331041","name":"Hohen-Sülzen","type":"Kreisangehörige_Gemeinde"},"district":{"key":"07331","name":"Alzey-Worms","type":"Landkreis"},"federalState":{"key":"07","name":"Rheinland-Pfalz"}},{"name":"Hinter der Burg","postalCode":"67591","locality":"Hohen-Sülzen","municipality":{"key":"07331041","name":"Hohen-Sülzen","type":"Kreisangehörige_Gemeinde"},"district":{"key":"07331","name":"Alzey-Worms","type":"Landkreis"},"federalState":{"key":"07","name":"Rheinland-Pfalz"}},{"name":"Im Striegel","postalCode":"67591","locality":"Hohen-Sülzen","municipality":{"key":"07331041","name":"Hohen-Sülzen","type":"Kreisangehörige_Gemeinde"},"district":{"key":"07331","name":"Alzey-Worms","type":"Landkreis"},"federalState":{"key":"07","name":"Rheinland-Pfalz"}},{"name":"Kirchstr.","postalCode":"67591","locality":"Hohen-Sülzen","municipality":{"key":"07331041","name":"Hohen-Sülzen","type":"Kreisangehörige_Gemeinde"},"district":{"key":"07331","name":"Alzey-Worms","type":"Landkreis"},"federalState":{"key":"07","name":"Rheinland-Pfalz"}},{"name":"Querstr.","postalCode":"67591","locality":"Hohen-Sülzen","municipality":{"key":"07331041","name":"Hohen-Sülzen","type":"Kreisangehörige_Gemeinde"},"district":{"key":"07331","name":"Alzey-Worms","type":"Landkreis"},"federalState":{"key":"07","name":"Rheinland-Pfalz"}},{"name":"Untere Bockenheimer Str.","postalCode":"67591","locality":"Hohen-Sülzen","municipality":{"key":"07331041","name":"Hohen-Sülzen","type":"Kreisangehörige_Gemeinde"},"district":{"key":"07331","name":"Alzey-Worms","type":"Landkreis"},"federalState":{"key":"07","name":"Rheinland-Pfalz"}},{"name":"Wallstr.","postalCode":"67591","locality":"Hohen-Sülzen","municipality":{"key":"07331041","name":"Hohen-Sülzen","type":"Kreisangehörige_Gemeinde"},"district":{"key":"07331","name":"Alzey-Worms","type":"Landkreis"},"federalState":{"key":"07","name":"Rheinland-Pfalz"}},{"name":"Wormser Str.","postalCode":"67591","locality":"Hohen-Sülzen","municipality":{"key":"07331041","name":"Hohen-Sülzen","type":"Kreisangehörige_Gemeinde"},"district":{"key":"07331","name":"Alzey-Worms","type":"Landkreis"},"federalState":{"key":"07","name":"Rheinland-Pfalz"}},{"name":"Zellerweg","postalCode":"67591","locality":"Hohen-Sülzen","municipality":{"key":"07331041","name":"Hohen-Sülzen","type":"Kreisangehörige_Gemeinde"},"district":{"key":"07331","name":"Alzey-Worms","type":"Landkreis"},"federalState":{"key":"07","name":"Rheinland-Pfalz"}},]