[{"name":"Am Sportplatz","postalCode":"19089","locality":"Zapel","municipality":{"key":"13076158","name":"Zapel","type":"Kreisangehörige_Gemeinde"},"district":{"key":"13076","name":"Ludwigslust-Parchim","type":"Landkreis"},"federalState":{"key":"13","name":"Mecklenburg-Vorpommern"}},{"name":"Crivitzer Weg","postalCode":"19089","locality":"Zapel","municipality":{"key":"13076158","name":"Zapel","type":"Kreisangehörige_Gemeinde"},"district":{"key":"13076","name":"Ludwigslust-Parchim","type":"Landkreis"},"federalState":{"key":"13","name":"Mecklenburg-Vorpommern"}},{"name":"Dorfstr.","postalCode":"19089","locality":"Zapel","municipality":{"key":"13076158","name":"Zapel","type":"Kreisangehörige_Gemeinde"},"district":{"key":"13076","name":"Ludwigslust-Parchim","type":"Landkreis"},"federalState":{"key":"13","name":"Mecklenburg-Vorpommern"}},{"name":"Grüner Weg","postalCode":"19089","locality":"Zapel","municipality":{"key":"13076158","name":"Zapel","type":"Kreisangehörige_Gemeinde"},"district":{"key":"13076","name":"Ludwigslust-Parchim","type":"Landkreis"},"federalState":{"key":"13","name":"Mecklenburg-Vorpommern"}},{"name":"Parchimer Str.","postalCode":"19089","locality":"Zapel","municipality":{"key":"13076158","name":"Zapel","type":"Kreisangehörige_Gemeinde"},"district":{"key":"13076","name":"Ludwigslust-Parchim","type":"Landkreis"},"federalState":{"key":"13","name":"Mecklenburg-Vorpommern"}},{"name":"Ruthenbecker Berg","postalCode":"19089","locality":"Zapel","municipality":{"key":"13076158","name":"Zapel","type":"Kreisangehörige_Gemeinde"},"district":{"key":"13076","name":"Ludwigslust-Parchim","type":"Landkreis"},"federalState":{"key":"13","name":"Mecklenburg-Vorpommern"}},{"name":"Settiner Weg","postalCode":"19089","locality":"Zapel","municipality":{"key":"13076158","name":"Zapel","type":"Kreisangehörige_Gemeinde"},"district":{"key":"13076","name":"Ludwigslust-Parchim","type":"Landkreis"},"federalState":{"key":"13","name":"Mecklenburg-Vorpommern"}},{"name":"Siedlung","postalCode":"19089","locality":"Zapel","municipality":{"key":"13076158","name":"Zapel","type":"Kreisangehörige_Gemeinde"},"district":{"key":"13076","name":"Ludwigslust-Parchim","type":"Landkreis"},"federalState":{"key":"13","name":"Mecklenburg-Vorpommern"}},{"name":"Speicherweg","postalCode":"19089","locality":"Zapel","municipality":{"key":"13076158","name":"Zapel","type":"Kreisangehörige_Gemeinde"},"district":{"key":"13076","name":"Ludwigslust-Parchim","type":"Landkreis"},"federalState":{"key":"13","name":"Mecklenburg-Vorpommern"}},{"name":"Trammer Str.","postalCode":"19089","locality":"Zapel","municipality":{"key":"13076158","name":"Zapel","type":"Kreisangehörige_Gemeinde"},"district":{"key":"13076","name":"Ludwigslust-Parchim","type":"Landkreis"},"federalState":{"key":"13","name":"Mecklenburg-Vorpommern"}},{"name":"Wessiner Weg","postalCode":"19089","locality":"Zapel","municipality":{"key":"13076158","name":"Zapel","type":"Kreisangehörige_Gemeinde"},"district":{"key":"13076","name":"Ludwigslust-Parchim","type":"Landkreis"},"federalState":{"key":"13","name":"Mecklenburg-Vorpommern"}},]