[{"name":"Am Hohen Weg","postalCode":"97792","locality":"Riedenberg","municipality":{"key":"09672145","name":"Riedenberg","type":"Kreisangehörige_Gemeinde"},"district":{"key":"09672","name":"Bad Kissingen","type":"Landkreis"},"federalState":{"key":"09","name":"Bayern"}},{"name":"Am Knörzchen","postalCode":"97792","locality":"Riedenberg","municipality":{"key":"09672145","name":"Riedenberg","type":"Kreisangehörige_Gemeinde"},"district":{"key":"09672","name":"Bad Kissingen","type":"Landkreis"},"federalState":{"key":"09","name":"Bayern"}},{"name":"Am Küppel","postalCode":"97792","locality":"Riedenberg","municipality":{"key":"09672145","name":"Riedenberg","type":"Kreisangehörige_Gemeinde"},"district":{"key":"09672","name":"Bad Kissingen","type":"Landkreis"},"federalState":{"key":"09","name":"Bayern"}},{"name":"Amselweg","postalCode":"97792","locality":"Riedenberg","municipality":{"key":"09672145","name":"Riedenberg","type":"Kreisangehörige_Gemeinde"},"district":{"key":"09672","name":"Bad Kissingen","type":"Landkreis"},"federalState":{"key":"09","name":"Bayern"}},{"name":"Bergseestr.","postalCode":"97792","locality":"Riedenberg","municipality":{"key":"09672145","name":"Riedenberg","type":"Kreisangehörige_Gemeinde"},"district":{"key":"09672","name":"Bad Kissingen","type":"Landkreis"},"federalState":{"key":"09","name":"Bayern"}},{"name":"Birkenweg","postalCode":"97792","locality":"Riedenberg","municipality":{"key":"09672145","name":"Riedenberg","type":"Kreisangehörige_Gemeinde"},"district":{"key":"09672","name":"Bad Kissingen","type":"Landkreis"},"federalState":{"key":"09","name":"Bayern"}},{"name":"Buchenweg","postalCode":"97792","locality":"Riedenberg","municipality":{"key":"09672145","name":"Riedenberg","type":"Kreisangehörige_Gemeinde"},"district":{"key":"09672","name":"Bad Kissingen","type":"Landkreis"},"federalState":{"key":"09","name":"Bayern"}},{"name":"Carl-Diem-Str.","postalCode":"97688","locality":"Bad Kissingen","municipality":{"key":"09672114","name":"Bad Kissingen, GKSt","type":"Große_Kreisstadt"},"district":{"key":"09672","name":"Bad Kissingen","type":"Landkreis"},"federalState":{"key":"09","name":"Bayern"}},{"name":"Chakrenweg","postalCode":"97688","locality":"Bad Kissingen","municipality":{"key":"09672114","name":"Bad Kissingen, GKSt","type":"Große_Kreisstadt"},"district":{"key":"09672","name":"Bad Kissingen","type":"Landkreis"},"federalState":{"key":"09","name":"Bayern"}},{"name":"Columbiastr.","postalCode":"97688","locality":"Bad Kissingen","municipality":{"key":"09672114","name":"Bad Kissingen, GKSt","type":"Große_Kreisstadt"},"district":{"key":"09672","name":"Bad Kissingen","type":"Landkreis"},"federalState":{"key":"09","name":"Bayern"}},{"name":"Cyrill-Kistler-Weg","postalCode":"97688","locality":"Bad Kissingen","municipality":{"key":"09672114","name":"Bad Kissingen, GKSt","type":"Große_Kreisstadt"},"district":{"key":"09672","name":"Bad Kissingen","type":"Landkreis"},"federalState":{"key":"09","name":"Bayern"}},{"name":"Dahlienstr.","postalCode":"97688","locality":"Bad Kissingen","municipality":{"key":"09672114","name":"Bad Kissingen, GKSt","type":"Große_Kreisstadt"},"district":{"key":"09672","name":"Bad Kissingen","type":"Landkreis"},"federalState":{"key":"09","name":"Bayern"}},{"name":"Dammstr.","postalCode":"97688","locality":"Bad Kissingen","municipality":{"key":"09672114","name":"Bad Kissingen, GKSt","type":"Große_Kreisstadt"},"district":{"key":"09672","name":"Bad Kissingen","type":"Landkreis"},"federalState":{"key":"09","name":"Bayern"}},{"name":"Danziger Str.","postalCode":"97688","locality":"Bad Kissingen","municipality":{"key":"09672114","name":"Bad Kissingen, GKSt","type":"Große_Kreisstadt"},"district":{"key":"09672","name":"Bad Kissingen","type":"Landkreis"},"federalState":{"key":"09","name":"Bayern"}},{"name":"Dapperstr.","postalCode":"97688","locality":"Bad Kissingen","municipality":{"key":"09672114","name":"Bad Kissingen, GKSt","type":"Große_Kreisstadt"},"district":{"key":"09672","name":"Bad Kissingen","type":"Landkreis"},"federalState":{"key":"09","name":"Bayern"}},{"name":"Datzenbrunnenstr.","postalCode":"97688","locality":"Bad Kissingen","municipality":{"key":"09672114","name":"Bad Kissingen, GKSt","type":"Große_Kreisstadt"},"district":{"key":"09672","name":"Bad Kissingen","type":"Landkreis"},"federalState":{"key":"09","name":"Bayern"}},{"name":"Dicker Busch","postalCode":"97688","locality":"Bad Kissingen","municipality":{"key":"09672114","name":"Bad Kissingen, GKSt","type":"Große_Kreisstadt"},"district":{"key":"09672","name":"Bad Kissingen","type":"Landkreis"},"federalState":{"key":"09","name":"Bayern"}},{"name":"Dientzenhoferstr.","postalCode":"97688","locality":"Bad Kissingen","municipality":{"key":"09672114","name":"Bad Kissingen, GKSt","type":"Große_Kreisstadt"},"district":{"key":"09672","name":"Bad Kissingen","type":"Landkreis"},"federalState":{"key":"09","name":"Bayern"}},{"name":"Dionysiusstr.","postalCode":"97688","locality":"Bad Kissingen","municipality":{"key":"09672114","name":"Bad Kissingen, GKSt","type":"Große_Kreisstadt"},"district":{"key":"09672","name":"Bad Kissingen","type":"Landkreis"},"federalState":{"key":"09","name":"Bayern"}},{"name":"Doktor-Georg-Heim-Str.","postalCode":"97688","locality":"Bad Kissingen","municipality":{"key":"09672114","name":"Bad Kissingen, GKSt","type":"Große_Kreisstadt"},"district":{"key":"09672","name":"Bad Kissingen","type":"Landkreis"},"federalState":{"key":"09","name":"Bayern"}},{"name":"Dresdner Str.","postalCode":"97688","locality":"Bad Kissingen","municipality":{"key":"09672114","name":"Bad Kissingen, GKSt","type":"Große_Kreisstadt"},"district":{"key":"09672","name":"Bad Kissingen","type":"Landkreis"},"federalState":{"key":"09","name":"Bayern"}},{"name":"Dummentaler Weg","postalCode":"97688","locality":"Bad Kissingen","municipality":{"key":"09672114","name":"Bad Kissingen, GKSt","type":"Große_Kreisstadt"},"district":{"key":"09672","name":"Bad Kissingen","type":"Landkreis"},"federalState":{"key":"09","name":"Bayern"}},{"name":"Egerlandstr.","postalCode":"97688","locality":"Bad Kissingen","municipality":{"key":"09672114","name":"Bad Kissingen, GKSt","type":"Große_Kreisstadt"},"district":{"key":"09672","name":"Bad Kissingen","type":"Landkreis"},"federalState":{"key":"09","name":"Bayern"}},{"name":"Eichelberg","postalCode":"97688","locality":"Bad Kissingen","municipality":{"key":"09672114","name":"Bad Kissingen, GKSt","type":"Große_Kreisstadt"},"district":{"key":"09672","name":"Bad Kissingen","type":"Landkreis"},"federalState":{"key":"09","name":"Bayern"}},{"name":"Eichendorffstr.","postalCode":"97688","locality":"Bad Kissingen","municipality":{"key":"09672114","name":"Bad Kissingen, GKSt","type":"Große_Kreisstadt"},"district":{"key":"09672","name":"Bad Kissingen","type":"Landkreis"},"federalState":{"key":"09","name":"Bayern"}},{"name":"Eichenstr.","postalCode":"97688","locality":"Bad Kissingen","municipality":{"key":"09672114","name":"Bad Kissingen, GKSt","type":"Große_Kreisstadt"},"district":{"key":"09672","name":"Bad Kissingen","type":"Landkreis"},"federalState":{"key":"09","name":"Bayern"}},{"name":"Einsteinstr.","postalCode":"97688","locality":"Bad Kissingen","municipality":{"key":"09672114","name":"Bad Kissingen, GKSt","type":"Große_Kreisstadt"},"district":{"key":"09672","name":"Bad Kissingen","type":"Landkreis"},"federalState":{"key":"09","name":"Bayern"}},{"name":"Elisabethstr.","postalCode":"97688","locality":"Bad Kissingen","municipality":{"key":"09672114","name":"Bad Kissingen, GKSt","type":"Große_Kreisstadt"},"district":{"key":"09672","name":"Bad Kissingen","type":"Landkreis"},"federalState":{"key":"09","name":"Bayern"}},{"name":"Emmerichstr.","postalCode":"97688","locality":"Bad Kissingen","municipality":{"key":"09672114","name":"Bad Kissingen, GKSt","type":"Große_Kreisstadt"},"district":{"key":"09672","name":"Bad Kissingen","type":"Landkreis"},"federalState":{"key":"09","name":"Bayern"}},{"name":"Enge Gasse","postalCode":"97688","locality":"Bad Kissingen","municipality":{"key":"09672114","name":"Bad Kissingen, GKSt","type":"Große_Kreisstadt"},"district":{"key":"09672","name":"Bad Kissingen","type":"Landkreis"},"federalState":{"key":"09","name":"Bayern"}},{"name":"Erhardstr.","postalCode":"97688","locality":"Bad Kissingen","municipality":{"key":"09672114","name":"Bad Kissingen, GKSt","type":"Große_Kreisstadt"},"district":{"key":"09672","name":"Bad Kissingen","type":"Landkreis"},"federalState":{"key":"09","name":"Bayern"}},{"name":"Erlenweg","postalCode":"97688","locality":"Bad Kissingen","municipality":{"key":"09672114","name":"Bad Kissingen, GKSt","type":"Große_Kreisstadt"},"district":{"key":"09672","name":"Bad Kissingen","type":"Landkreis"},"federalState":{"key":"09","name":"Bayern"}},{"name":"Eschenstr.","postalCode":"97688","locality":"Bad Kissingen","municipality":{"key":"09672114","name":"Bad Kissingen, GKSt","type":"Große_Kreisstadt"},"district":{"key":"09672","name":"Bad Kissingen","type":"Landkreis"},"federalState":{"key":"09","name":"Bayern"}},{"name":"Esperanto Platz","postalCode":"97688","locality":"Bad Kissingen","municipality":{"key":"09672114","name":"Bad Kissingen, GKSt","type":"Große_Kreisstadt"},"district":{"key":"09672","name":"Bad Kissingen","type":"Landkreis"},"federalState":{"key":"09","name":"Bayern"}},{"name":"Euerdorfer Str.","postalCode":"97688","locality":"Bad Kissingen","municipality":{"key":"09672114","name":"Bad Kissingen, GKSt","type":"Große_Kreisstadt"},"district":{"key":"09672","name":"Bad Kissingen","type":"Landkreis"},"federalState":{"key":"09","name":"Bayern"}},{"name":"Fichtenweg","postalCode":"97792","locality":"Riedenberg","municipality":{"key":"09672145","name":"Riedenberg","type":"Kreisangehörige_Gemeinde"},"district":{"key":"09672","name":"Bad Kissingen","type":"Landkreis"},"federalState":{"key":"09","name":"Bayern"}},{"name":"Finkenweg","postalCode":"97792","locality":"Riedenberg","municipality":{"key":"09672145","name":"Riedenberg","type":"Kreisangehörige_Gemeinde"},"district":{"key":"09672","name":"Bad Kissingen","type":"Landkreis"},"federalState":{"key":"09","name":"Bayern"}},{"name":"Forellenstr.","postalCode":"97792","locality":"Riedenberg","municipality":{"key":"09672145","name":"Riedenberg","type":"Kreisangehörige_Gemeinde"},"district":{"key":"09672","name":"Bad Kissingen","type":"Landkreis"},"federalState":{"key":"09","name":"Bayern"}},{"name":"Frühlingsstr.","postalCode":"97792","locality":"Riedenberg","municipality":{"key":"09672145","name":"Riedenberg","type":"Kreisangehörige_Gemeinde"},"district":{"key":"09672","name":"Bad Kissingen","type":"Landkreis"},"federalState":{"key":"09","name":"Bayern"}},{"name":"Gartenstr.","postalCode":"97792","locality":"Riedenberg","municipality":{"key":"09672145","name":"Riedenberg","type":"Kreisangehörige_Gemeinde"},"district":{"key":"09672","name":"Bad Kissingen","type":"Landkreis"},"federalState":{"key":"09","name":"Bayern"}},{"name":"Gerodaer Str.","postalCode":"97792","locality":"Riedenberg","municipality":{"key":"09672145","name":"Riedenberg","type":"Kreisangehörige_Gemeinde"},"district":{"key":"09672","name":"Bad Kissingen","type":"Landkreis"},"federalState":{"key":"09","name":"Bayern"}},{"name":"Glockenstr.","postalCode":"97792","locality":"Riedenberg","municipality":{"key":"09672145","name":"Riedenberg","type":"Kreisangehörige_Gemeinde"},"district":{"key":"09672","name":"Bad Kissingen","type":"Landkreis"},"federalState":{"key":"09","name":"Bayern"}},{"name":"Goethestr.","postalCode":"97792","locality":"Riedenberg","municipality":{"key":"09672145","name":"Riedenberg","type":"Kreisangehörige_Gemeinde"},"district":{"key":"09672","name":"Bad Kissingen","type":"Landkreis"},"federalState":{"key":"09","name":"Bayern"}},{"name":"Hollweg","postalCode":"97792","locality":"Riedenberg","municipality":{"key":"09672145","name":"Riedenberg","type":"Kreisangehörige_Gemeinde"},"district":{"key":"09672","name":"Bad Kissingen","type":"Landkreis"},"federalState":{"key":"09","name":"Bayern"}},{"name":"Ignatius-Taschner-Str.","postalCode":"97688","locality":"Bad Kissingen","municipality":{"key":"09672114","name":"Bad Kissingen, GKSt","type":"Große_Kreisstadt"},"district":{"key":"09672","name":"Bad Kissingen","type":"Landkreis"},"federalState":{"key":"09","name":"Bayern"}},{"name":"Im Beiberich","postalCode":"97688","locality":"Bad Kissingen","municipality":{"key":"09672114","name":"Bad Kissingen, GKSt","type":"Große_Kreisstadt"},"district":{"key":"09672","name":"Bad Kissingen","type":"Landkreis"},"federalState":{"key":"09","name":"Bayern"}},{"name":"Im Brühl","postalCode":"97688","locality":"Bad Kissingen","municipality":{"key":"09672114","name":"Bad Kissingen, GKSt","type":"Große_Kreisstadt"},"district":{"key":"09672","name":"Bad Kissingen","type":"Landkreis"},"federalState":{"key":"09","name":"Bayern"}},{"name":"Im Krautgarten","postalCode":"97688","locality":"Bad Kissingen","municipality":{"key":"09672114","name":"Bad Kissingen, GKSt","type":"Große_Kreisstadt"},"district":{"key":"09672","name":"Bad Kissingen","type":"Landkreis"},"federalState":{"key":"09","name":"Bayern"}},{"name":"Im Pförtlein","postalCode":"97688","locality":"Bad Kissingen","municipality":{"key":"09672114","name":"Bad Kissingen, GKSt","type":"Große_Kreisstadt"},"district":{"key":"09672","name":"Bad Kissingen","type":"Landkreis"},"federalState":{"key":"09","name":"Bayern"}},{"name":"Im Premes","postalCode":"97688","locality":"Bad Kissingen","municipality":{"key":"09672114","name":"Bad Kissingen, GKSt","type":"Große_Kreisstadt"},"district":{"key":"09672","name":"Bad Kissingen","type":"Landkreis"},"federalState":{"key":"09","name":"Bayern"}},{"name":"Im Röder","postalCode":"97688","locality":"Bad Kissingen","municipality":{"key":"09672114","name":"Bad Kissingen, GKSt","type":"Große_Kreisstadt"},"district":{"key":"09672","name":"Bad Kissingen","type":"Landkreis"},"federalState":{"key":"09","name":"Bayern"}},{"name":"Im Roth","postalCode":"97688","locality":"Bad Kissingen","municipality":{"key":"09672114","name":"Bad Kissingen, GKSt","type":"Große_Kreisstadt"},"district":{"key":"09672","name":"Bad Kissingen","type":"Landkreis"},"federalState":{"key":"09","name":"Bayern"}},{"name":"Im Steinbusch","postalCode":"97688","locality":"Bad Kissingen","municipality":{"key":"09672114","name":"Bad Kissingen, GKSt","type":"Große_Kreisstadt"},"district":{"key":"09672","name":"Bad Kissingen","type":"Landkreis"},"federalState":{"key":"09","name":"Bayern"}},{"name":"Im Tiefrödlein","postalCode":"97688","locality":"Bad Kissingen","municipality":{"key":"09672114","name":"Bad Kissingen, GKSt","type":"Große_Kreisstadt"},"district":{"key":"09672","name":"Bad Kissingen","type":"Landkreis"},"federalState":{"key":"09","name":"Bayern"}},{"name":"In den Höfen","postalCode":"97688","locality":"Bad Kissingen","municipality":{"key":"09672114","name":"Bad Kissingen, GKSt","type":"Große_Kreisstadt"},"district":{"key":"09672","name":"Bad Kissingen","type":"Landkreis"},"federalState":{"key":"09","name":"Bayern"}},{"name":"In der Au","postalCode":"97688","locality":"Bad Kissingen","municipality":{"key":"09672114","name":"Bad Kissingen, GKSt","type":"Große_Kreisstadt"},"district":{"key":"09672","name":"Bad Kissingen","type":"Landkreis"},"federalState":{"key":"09","name":"Bayern"}},{"name":"Iringstr.","postalCode":"97688","locality":"Bad Kissingen","municipality":{"key":"09672114","name":"Bad Kissingen, GKSt","type":"Große_Kreisstadt"},"district":{"key":"09672","name":"Bad Kissingen","type":"Landkreis"},"federalState":{"key":"09","name":"Bayern"}},{"name":"Julius-Kardinal-Doepfner-Weg","postalCode":"97792","locality":"Riedenberg","municipality":{"key":"09672145","name":"Riedenberg","type":"Kreisangehörige_Gemeinde"},"district":{"key":"09672","name":"Bad Kissingen","type":"Landkreis"},"federalState":{"key":"09","name":"Bayern"}},{"name":"Kirchstr.","postalCode":"97792","locality":"Riedenberg","municipality":{"key":"09672145","name":"Riedenberg","type":"Kreisangehörige_Gemeinde"},"district":{"key":"09672","name":"Bad Kissingen","type":"Landkreis"},"federalState":{"key":"09","name":"Bayern"}},{"name":"Kreuzbergstr.","postalCode":"97792","locality":"Riedenberg","municipality":{"key":"09672145","name":"Riedenberg","type":"Kreisangehörige_Gemeinde"},"district":{"key":"09672","name":"Bad Kissingen","type":"Landkreis"},"federalState":{"key":"09","name":"Bayern"}},{"name":"Lessingstr.","postalCode":"97792","locality":"Riedenberg","municipality":{"key":"09672145","name":"Riedenberg","type":"Kreisangehörige_Gemeinde"},"district":{"key":"09672","name":"Bad Kissingen","type":"Landkreis"},"federalState":{"key":"09","name":"Bayern"}},{"name":"Mittelbachstr.","postalCode":"97792","locality":"Riedenberg","municipality":{"key":"09672145","name":"Riedenberg","type":"Kreisangehörige_Gemeinde"},"district":{"key":"09672","name":"Bad Kissingen","type":"Landkreis"},"federalState":{"key":"09","name":"Bayern"}},{"name":"Mühlenweg","postalCode":"97792","locality":"Riedenberg","municipality":{"key":"09672145","name":"Riedenberg","type":"Kreisangehörige_Gemeinde"},"district":{"key":"09672","name":"Bad Kissingen","type":"Landkreis"},"federalState":{"key":"09","name":"Bayern"}},{"name":"Nepomukgasse","postalCode":"97688","locality":"Bad Kissingen","municipality":{"key":"09672114","name":"Bad Kissingen, GKSt","type":"Große_Kreisstadt"},"district":{"key":"09672","name":"Bad Kissingen","type":"Landkreis"},"federalState":{"key":"09","name":"Bayern"}},{"name":"Neulandstr.","postalCode":"97688","locality":"Bad Kissingen","municipality":{"key":"09672114","name":"Bad Kissingen, GKSt","type":"Große_Kreisstadt"},"district":{"key":"09672","name":"Bad Kissingen","type":"Landkreis"},"federalState":{"key":"09","name":"Bayern"}},{"name":"Nikolaus-Fey-Str.","postalCode":"97688","locality":"Bad Kissingen","municipality":{"key":"09672114","name":"Bad Kissingen, GKSt","type":"Große_Kreisstadt"},"district":{"key":"09672","name":"Bad Kissingen","type":"Landkreis"},"federalState":{"key":"09","name":"Bayern"}},{"name":"Nordring","postalCode":"97688","locality":"Bad Kissingen","municipality":{"key":"09672114","name":"Bad Kissingen, GKSt","type":"Große_Kreisstadt"},"district":{"key":"09672","name":"Bad Kissingen","type":"Landkreis"},"federalState":{"key":"09","name":"Bayern"}},{"name":"Nüdlinger Str.","postalCode":"97688","locality":"Bad Kissingen","municipality":{"key":"09672114","name":"Bad Kissingen, GKSt","type":"Große_Kreisstadt"},"district":{"key":"09672","name":"Bad Kissingen","type":"Landkreis"},"federalState":{"key":"09","name":"Bayern"}},{"name":"Oberer Mühlweg","postalCode":"97688","locality":"Bad Kissingen","municipality":{"key":"09672114","name":"Bad Kissingen, GKSt","type":"Große_Kreisstadt"},"district":{"key":"09672","name":"Bad Kissingen","type":"Landkreis"},"federalState":{"key":"09","name":"Bayern"}},{"name":"Oberer Steinberg","postalCode":"97688","locality":"Bad Kissingen","municipality":{"key":"09672114","name":"Bad Kissingen, GKSt","type":"Große_Kreisstadt"},"district":{"key":"09672","name":"Bad Kissingen","type":"Landkreis"},"federalState":{"key":"09","name":"Bayern"}},{"name":"Oberer Weg","postalCode":"97688","locality":"Bad Kissingen","municipality":{"key":"09672114","name":"Bad Kissingen, GKSt","type":"Große_Kreisstadt"},"district":{"key":"09672","name":"Bad Kissingen","type":"Landkreis"},"federalState":{"key":"09","name":"Bayern"}},{"name":"Oberer Zollweg","postalCode":"97688","locality":"Bad Kissingen","municipality":{"key":"09672114","name":"Bad Kissingen, GKSt","type":"Große_Kreisstadt"},"district":{"key":"09672","name":"Bad Kissingen","type":"Landkreis"},"federalState":{"key":"09","name":"Bayern"}},{"name":"Obere Saline","postalCode":"97688","locality":"Bad Kissingen","municipality":{"key":"09672114","name":"Bad Kissingen, GKSt","type":"Große_Kreisstadt"},"district":{"key":"09672","name":"Bad Kissingen","type":"Landkreis"},"federalState":{"key":"09","name":"Bayern"}},{"name":"Ohmstr.","postalCode":"97688","locality":"Bad Kissingen","municipality":{"key":"09672114","name":"Bad Kissingen, GKSt","type":"Große_Kreisstadt"},"district":{"key":"09672","name":"Bad Kissingen","type":"Landkreis"},"federalState":{"key":"09","name":"Bayern"}},{"name":"Oskar-von-Miller-Str.","postalCode":"97688","locality":"Bad Kissingen","municipality":{"key":"09672114","name":"Bad Kissingen, GKSt","type":"Große_Kreisstadt"},"district":{"key":"09672","name":"Bad Kissingen","type":"Landkreis"},"federalState":{"key":"09","name":"Bayern"}},{"name":"Osterbergweg","postalCode":"97688","locality":"Bad Kissingen","municipality":{"key":"09672114","name":"Bad Kissingen, GKSt","type":"Große_Kreisstadt"},"district":{"key":"09672","name":"Bad Kissingen","type":"Landkreis"},"federalState":{"key":"09","name":"Bayern"}},{"name":"Ostring","postalCode":"97688","locality":"Bad Kissingen","municipality":{"key":"09672114","name":"Bad Kissingen, GKSt","type":"Große_Kreisstadt"},"district":{"key":"09672","name":"Bad Kissingen","type":"Landkreis"},"federalState":{"key":"09","name":"Bayern"}},{"name":"Otto-Hahn-Str.","postalCode":"97688","locality":"Bad Kissingen","municipality":{"key":"09672114","name":"Bad Kissingen, GKSt","type":"Große_Kreisstadt"},"district":{"key":"09672","name":"Bad Kissingen","type":"Landkreis"},"federalState":{"key":"09","name":"Bayern"}},{"name":"Ottostr.","postalCode":"97688","locality":"Bad Kissingen","municipality":{"key":"09672114","name":"Bad Kissingen, GKSt","type":"Große_Kreisstadt"},"district":{"key":"09672","name":"Bad Kissingen","type":"Landkreis"},"federalState":{"key":"09","name":"Bayern"}},{"name":"Parkstr.","postalCode":"97688","locality":"Bad Kissingen","municipality":{"key":"09672114","name":"Bad Kissingen, GKSt","type":"Große_Kreisstadt"},"district":{"key":"09672","name":"Bad Kissingen","type":"Landkreis"},"federalState":{"key":"09","name":"Bayern"}},{"name":"Pater Reinisch Weg","postalCode":"97688","locality":"Bad Kissingen","municipality":{"key":"09672114","name":"Bad Kissingen, GKSt","type":"Große_Kreisstadt"},"district":{"key":"09672","name":"Bad Kissingen","type":"Landkreis"},"federalState":{"key":"09","name":"Bayern"}},{"name":"Paul-Haertl-Str.","postalCode":"97688","locality":"Bad Kissingen","municipality":{"key":"09672114","name":"Bad Kissingen, GKSt","type":"Große_Kreisstadt"},"district":{"key":"09672","name":"Bad Kissingen","type":"Landkreis"},"federalState":{"key":"09","name":"Bayern"}},{"name":"Pestalozzistr.","postalCode":"97688","locality":"Bad Kissingen","municipality":{"key":"09672114","name":"Bad Kissingen, GKSt","type":"Große_Kreisstadt"},"district":{"key":"09672","name":"Bad Kissingen","type":"Landkreis"},"federalState":{"key":"09","name":"Bayern"}},{"name":"Peter-Heil-Str.","postalCode":"97688","locality":"Bad Kissingen","municipality":{"key":"09672114","name":"Bad Kissingen, GKSt","type":"Große_Kreisstadt"},"district":{"key":"09672","name":"Bad Kissingen","type":"Landkreis"},"federalState":{"key":"09","name":"Bayern"}},{"name":"Peter-Henlein-Str.","postalCode":"97688","locality":"Bad Kissingen","municipality":{"key":"09672114","name":"Bad Kissingen, GKSt","type":"Große_Kreisstadt"},"district":{"key":"09672","name":"Bad Kissingen","type":"Landkreis"},"federalState":{"key":"09","name":"Bayern"}},{"name":"Pettenkoferstr.","postalCode":"97688","locality":"Bad Kissingen","municipality":{"key":"09672114","name":"Bad Kissingen, GKSt","type":"Große_Kreisstadt"},"district":{"key":"09672","name":"Bad Kissingen","type":"Landkreis"},"federalState":{"key":"09","name":"Bayern"}},{"name":"Pfaffstr.","postalCode":"97688","locality":"Bad Kissingen","municipality":{"key":"09672114","name":"Bad Kissingen, GKSt","type":"Große_Kreisstadt"},"district":{"key":"09672","name":"Bad Kissingen","type":"Landkreis"},"federalState":{"key":"09","name":"Bayern"}},{"name":"Pfalzstr.","postalCode":"97688","locality":"Bad Kissingen","municipality":{"key":"09672114","name":"Bad Kissingen, GKSt","type":"Große_Kreisstadt"},"district":{"key":"09672","name":"Bad Kissingen","type":"Landkreis"},"federalState":{"key":"09","name":"Bayern"}},{"name":"Pfarrer-Bleymann-Gasse","postalCode":"97688","locality":"Bad Kissingen","municipality":{"key":"09672114","name":"Bad Kissingen, GKSt","type":"Große_Kreisstadt"},"district":{"key":"09672","name":"Bad Kissingen","type":"Landkreis"},"federalState":{"key":"09","name":"Bayern"}},{"name":"Pfarrer-Wüst-Weg","postalCode":"97688","locality":"Bad Kissingen","municipality":{"key":"09672114","name":"Bad Kissingen, GKSt","type":"Große_Kreisstadt"},"district":{"key":"09672","name":"Bad Kissingen","type":"Landkreis"},"federalState":{"key":"09","name":"Bayern"}},{"name":"Pfarrgasse","postalCode":"97688","locality":"Bad Kissingen","municipality":{"key":"09672114","name":"Bad Kissingen, GKSt","type":"Große_Kreisstadt"},"district":{"key":"09672","name":"Bad Kissingen","type":"Landkreis"},"federalState":{"key":"09","name":"Bayern"}},{"name":"Pfarrhofgasse","postalCode":"97688","locality":"Bad Kissingen","municipality":{"key":"09672114","name":"Bad Kissingen, GKSt","type":"Große_Kreisstadt"},"district":{"key":"09672","name":"Bad Kissingen","type":"Landkreis"},"federalState":{"key":"09","name":"Bayern"}},{"name":"Pollweinstr.","postalCode":"97688","locality":"Bad Kissingen","municipality":{"key":"09672114","name":"Bad Kissingen, GKSt","type":"Große_Kreisstadt"},"district":{"key":"09672","name":"Bad Kissingen","type":"Landkreis"},"federalState":{"key":"09","name":"Bayern"}},{"name":"Poppenrother Höhe","postalCode":"97688","locality":"Bad Kissingen","municipality":{"key":"09672114","name":"Bad Kissingen, GKSt","type":"Große_Kreisstadt"},"district":{"key":"09672","name":"Bad Kissingen","type":"Landkreis"},"federalState":{"key":"09","name":"Bayern"}},{"name":"Poppenrother Str.","postalCode":"97688","locality":"Bad Kissingen","municipality":{"key":"09672114","name":"Bad Kissingen, GKSt","type":"Große_Kreisstadt"},"district":{"key":"09672","name":"Bad Kissingen","type":"Landkreis"},"federalState":{"key":"09","name":"Bayern"}},{"name":"Postweg","postalCode":"97688","locality":"Bad Kissingen","municipality":{"key":"09672114","name":"Bad Kissingen, GKSt","type":"Große_Kreisstadt"},"district":{"key":"09672","name":"Bad Kissingen","type":"Landkreis"},"federalState":{"key":"09","name":"Bayern"}},{"name":"Prälat-Roth-Str.","postalCode":"97688","locality":"Bad Kissingen","municipality":{"key":"09672114","name":"Bad Kissingen, GKSt","type":"Große_Kreisstadt"},"district":{"key":"09672","name":"Bad Kissingen","type":"Landkreis"},"federalState":{"key":"09","name":"Bayern"}},{"name":"Preußensteg","postalCode":"97688","locality":"Bad Kissingen","municipality":{"key":"09672114","name":"Bad Kissingen, GKSt","type":"Große_Kreisstadt"},"district":{"key":"09672","name":"Bad Kissingen","type":"Landkreis"},"federalState":{"key":"09","name":"Bayern"}},{"name":"Prinzengraben","postalCode":"97688","locality":"Bad Kissingen","municipality":{"key":"09672114","name":"Bad Kissingen, GKSt","type":"Große_Kreisstadt"},"district":{"key":"09672","name":"Bad Kissingen","type":"Landkreis"},"federalState":{"key":"09","name":"Bayern"}},{"name":"Prinzregentenstr.","postalCode":"97688","locality":"Bad Kissingen","municipality":{"key":"09672114","name":"Bad Kissingen, GKSt","type":"Große_Kreisstadt"},"district":{"key":"09672","name":"Bad Kissingen","type":"Landkreis"},"federalState":{"key":"09","name":"Bayern"}},{"name":"Promenadestr.","postalCode":"97688","locality":"Bad Kissingen","municipality":{"key":"09672114","name":"Bad Kissingen, GKSt","type":"Große_Kreisstadt"},"district":{"key":"09672","name":"Bad Kissingen","type":"Landkreis"},"federalState":{"key":"09","name":"Bayern"}},{"name":"Quellengasse","postalCode":"97688","locality":"Bad Kissingen","municipality":{"key":"09672114","name":"Bad Kissingen, GKSt","type":"Große_Kreisstadt"},"district":{"key":"09672","name":"Bad Kissingen","type":"Landkreis"},"federalState":{"key":"09","name":"Bayern"}},{"name":"Ringweg","postalCode":"97792","locality":"Riedenberg","municipality":{"key":"09672145","name":"Riedenberg","type":"Kreisangehörige_Gemeinde"},"district":{"key":"09672","name":"Bad Kissingen","type":"Landkreis"},"federalState":{"key":"09","name":"Bayern"}},{"name":"Schillerstr.","postalCode":"97792","locality":"Riedenberg","municipality":{"key":"09672145","name":"Riedenberg","type":"Kreisangehörige_Gemeinde"},"district":{"key":"09672","name":"Bad Kissingen","type":"Landkreis"},"federalState":{"key":"09","name":"Bayern"}},{"name":"Sinntalstr.","postalCode":"97792","locality":"Riedenberg","municipality":{"key":"09672145","name":"Riedenberg","type":"Kreisangehörige_Gemeinde"},"district":{"key":"09672","name":"Bad Kissingen","type":"Landkreis"},"federalState":{"key":"09","name":"Bayern"}},{"name":"Sonnenweg","postalCode":"97792","locality":"Riedenberg","municipality":{"key":"09672145","name":"Riedenberg","type":"Kreisangehörige_Gemeinde"},"district":{"key":"09672","name":"Bad Kissingen","type":"Landkreis"},"federalState":{"key":"09","name":"Bayern"}},{"name":"Steinweg","postalCode":"97792","locality":"Riedenberg","municipality":{"key":"09672145","name":"Riedenberg","type":"Kreisangehörige_Gemeinde"},"district":{"key":"09672","name":"Bad Kissingen","type":"Landkreis"},"federalState":{"key":"09","name":"Bayern"}},{"name":"Tannenweg","postalCode":"97792","locality":"Riedenberg","municipality":{"key":"09672145","name":"Riedenberg","type":"Kreisangehörige_Gemeinde"},"district":{"key":"09672","name":"Bad Kissingen","type":"Landkreis"},"federalState":{"key":"09","name":"Bayern"}},{"name":"Trockenbachweg","postalCode":"97792","locality":"Riedenberg","municipality":{"key":"09672145","name":"Riedenberg","type":"Kreisangehörige_Gemeinde"},"district":{"key":"09672","name":"Bad Kissingen","type":"Landkreis"},"federalState":{"key":"09","name":"Bayern"}},{"name":"Ulmenstr.","postalCode":"97688","locality":"Bad Kissingen","municipality":{"key":"09672114","name":"Bad Kissingen, GKSt","type":"Große_Kreisstadt"},"district":{"key":"09672","name":"Bad Kissingen","type":"Landkreis"},"federalState":{"key":"09","name":"Bayern"}},{"name":"Unterer Steinberg","postalCode":"97688","locality":"Bad Kissingen","municipality":{"key":"09672114","name":"Bad Kissingen, GKSt","type":"Große_Kreisstadt"},"district":{"key":"09672","name":"Bad Kissingen","type":"Landkreis"},"federalState":{"key":"09","name":"Bayern"}},{"name":"Unterer Zollweg","postalCode":"97688","locality":"Bad Kissingen","municipality":{"key":"09672114","name":"Bad Kissingen, GKSt","type":"Große_Kreisstadt"},"district":{"key":"09672","name":"Bad Kissingen","type":"Landkreis"},"federalState":{"key":"09","name":"Bayern"}},{"name":"Untere Saline","postalCode":"97688","locality":"Bad Kissingen","municipality":{"key":"09672114","name":"Bad Kissingen, GKSt","type":"Große_Kreisstadt"},"district":{"key":"09672","name":"Bad Kissingen","type":"Landkreis"},"federalState":{"key":"09","name":"Bayern"}},{"name":"Untere Wendelinusstr.","postalCode":"97688","locality":"Bad Kissingen","municipality":{"key":"09672114","name":"Bad Kissingen, GKSt","type":"Große_Kreisstadt"},"district":{"key":"09672","name":"Bad Kissingen","type":"Landkreis"},"federalState":{"key":"09","name":"Bayern"}},{"name":"Valentin-Becker-Str.","postalCode":"97688","locality":"Bad Kissingen","municipality":{"key":"09672114","name":"Bad Kissingen, GKSt","type":"Große_Kreisstadt"},"district":{"key":"09672","name":"Bad Kissingen","type":"Landkreis"},"federalState":{"key":"09","name":"Bayern"}},{"name":"Valentin-Rathgeber-Str.","postalCode":"97688","locality":"Bad Kissingen","municipality":{"key":"09672114","name":"Bad Kissingen, GKSt","type":"Große_Kreisstadt"},"district":{"key":"09672","name":"Bad Kissingen","type":"Landkreis"},"federalState":{"key":"09","name":"Bayern"}},{"name":"Veit-Stoss-Str.","postalCode":"97688","locality":"Bad Kissingen","municipality":{"key":"09672114","name":"Bad Kissingen, GKSt","type":"Große_Kreisstadt"},"district":{"key":"09672","name":"Bad Kissingen","type":"Landkreis"},"federalState":{"key":"09","name":"Bayern"}},{"name":"Vernonstr.","postalCode":"97688","locality":"Bad Kissingen","municipality":{"key":"09672114","name":"Bad Kissingen, GKSt","type":"Große_Kreisstadt"},"district":{"key":"09672","name":"Bad Kissingen","type":"Landkreis"},"federalState":{"key":"09","name":"Bayern"}},{"name":"Von-der-Tann-Str.","postalCode":"97688","locality":"Bad Kissingen","municipality":{"key":"09672114","name":"Bad Kissingen, GKSt","type":"Große_Kreisstadt"},"district":{"key":"09672","name":"Bad Kissingen","type":"Landkreis"},"federalState":{"key":"09","name":"Bayern"}},{"name":"Von-Henneberg-Str.","postalCode":"97688","locality":"Bad Kissingen","municipality":{"key":"09672114","name":"Bad Kissingen, GKSt","type":"Große_Kreisstadt"},"district":{"key":"09672","name":"Bad Kissingen","type":"Landkreis"},"federalState":{"key":"09","name":"Bayern"}},{"name":"Von-Hessing-Str.","postalCode":"97688","locality":"Bad Kissingen","municipality":{"key":"09672114","name":"Bad Kissingen, GKSt","type":"Große_Kreisstadt"},"district":{"key":"09672","name":"Bad Kissingen","type":"Landkreis"},"federalState":{"key":"09","name":"Bayern"}},{"name":"Von-Humboldt-Str.","postalCode":"97688","locality":"Bad Kissingen","municipality":{"key":"09672114","name":"Bad Kissingen, GKSt","type":"Große_Kreisstadt"},"district":{"key":"09672","name":"Bad Kissingen","type":"Landkreis"},"federalState":{"key":"09","name":"Bayern"}},{"name":"Von-Lobdeburg-Str.","postalCode":"97688","locality":"Bad Kissingen","municipality":{"key":"09672114","name":"Bad Kissingen, GKSt","type":"Große_Kreisstadt"},"district":{"key":"09672","name":"Bad Kissingen","type":"Landkreis"},"federalState":{"key":"09","name":"Bayern"}},{"name":"Waldstr.","postalCode":"97688","locality":"Bad Kissingen","municipality":{"key":"09672114","name":"Bad Kissingen, GKSt","type":"Große_Kreisstadt"},"district":{"key":"09672","name":"Bad Kissingen","type":"Landkreis"},"federalState":{"key":"09","name":"Bayern"}},{"name":"Wankelstr.","postalCode":"97688","locality":"Bad Kissingen","municipality":{"key":"09672114","name":"Bad Kissingen, GKSt","type":"Große_Kreisstadt"},"district":{"key":"09672","name":"Bad Kissingen","type":"Landkreis"},"federalState":{"key":"09","name":"Bayern"}},{"name":"Weg der Besinnung","postalCode":"97688","locality":"Bad Kissingen","municipality":{"key":"09672114","name":"Bad Kissingen, GKSt","type":"Große_Kreisstadt"},"district":{"key":"09672","name":"Bad Kissingen","type":"Landkreis"},"federalState":{"key":"09","name":"Bayern"}},{"name":"Weg des Wassers","postalCode":"97688","locality":"Bad Kissingen","municipality":{"key":"09672114","name":"Bad Kissingen, GKSt","type":"Große_Kreisstadt"},"district":{"key":"09672","name":"Bad Kissingen","type":"Landkreis"},"federalState":{"key":"09","name":"Bayern"}},{"name":"Weinbergweg","postalCode":"97688","locality":"Bad Kissingen","municipality":{"key":"09672114","name":"Bad Kissingen, GKSt","type":"Große_Kreisstadt"},"district":{"key":"09672","name":"Bad Kissingen","type":"Landkreis"},"federalState":{"key":"09","name":"Bayern"}},{"name":"Weizenäcker","postalCode":"97688","locality":"Bad Kissingen","municipality":{"key":"09672114","name":"Bad Kissingen, GKSt","type":"Große_Kreisstadt"},"district":{"key":"09672","name":"Bad Kissingen","type":"Landkreis"},"federalState":{"key":"09","name":"Bayern"}},{"name":"Wendelin-Dietz-Weg","postalCode":"97688","locality":"Bad Kissingen","municipality":{"key":"09672114","name":"Bad Kissingen, GKSt","type":"Große_Kreisstadt"},"district":{"key":"09672","name":"Bad Kissingen","type":"Landkreis"},"federalState":{"key":"09","name":"Bayern"}},{"name":"Wendelinusstr.","postalCode":"97688","locality":"Bad Kissingen","municipality":{"key":"09672114","name":"Bad Kissingen, GKSt","type":"Große_Kreisstadt"},"district":{"key":"09672","name":"Bad Kissingen","type":"Landkreis"},"federalState":{"key":"09","name":"Bayern"}},{"name":"Westendstr.","postalCode":"97688","locality":"Bad Kissingen","municipality":{"key":"09672114","name":"Bad Kissingen, GKSt","type":"Große_Kreisstadt"},"district":{"key":"09672","name":"Bad Kissingen","type":"Landkreis"},"federalState":{"key":"09","name":"Bayern"}},{"name":"Westring","postalCode":"97688","locality":"Bad Kissingen","municipality":{"key":"09672114","name":"Bad Kissingen, GKSt","type":"Große_Kreisstadt"},"district":{"key":"09672","name":"Bad Kissingen","type":"Landkreis"},"federalState":{"key":"09","name":"Bayern"}},{"name":"Wiesenweg","postalCode":"97688","locality":"Bad Kissingen","municipality":{"key":"09672114","name":"Bad Kissingen, GKSt","type":"Große_Kreisstadt"},"district":{"key":"09672","name":"Bad Kissingen","type":"Landkreis"},"federalState":{"key":"09","name":"Bayern"}},{"name":"Wildrosenpromenade","postalCode":"97688","locality":"Bad Kissingen","municipality":{"key":"09672114","name":"Bad Kissingen, GKSt","type":"Große_Kreisstadt"},"district":{"key":"09672","name":"Bad Kissingen","type":"Landkreis"},"federalState":{"key":"09","name":"Bayern"}},{"name":"Windheimer Weg","postalCode":"97688","locality":"Bad Kissingen","municipality":{"key":"09672114","name":"Bad Kissingen, GKSt","type":"Große_Kreisstadt"},"district":{"key":"09672","name":"Bad Kissingen","type":"Landkreis"},"federalState":{"key":"09","name":"Bayern"}},{"name":"Winkelser Str.","postalCode":"97688","locality":"Bad Kissingen","municipality":{"key":"09672114","name":"Bad Kissingen, GKSt","type":"Große_Kreisstadt"},"district":{"key":"09672","name":"Bad Kissingen","type":"Landkreis"},"federalState":{"key":"09","name":"Bayern"}},{"name":"Wittelsbacher Weg","postalCode":"97688","locality":"Bad Kissingen","municipality":{"key":"09672114","name":"Bad Kissingen, GKSt","type":"Große_Kreisstadt"},"district":{"key":"09672","name":"Bad Kissingen","type":"Landkreis"},"federalState":{"key":"09","name":"Bayern"}},{"name":"Würzburger Str.","postalCode":"97688","locality":"Bad Kissingen","municipality":{"key":"09672114","name":"Bad Kissingen, GKSt","type":"Große_Kreisstadt"},"district":{"key":"09672","name":"Bad Kissingen","type":"Landkreis"},"federalState":{"key":"09","name":"Bayern"}},{"name":"Ysenburgstr.","postalCode":"97688","locality":"Bad Kissingen","municipality":{"key":"09672114","name":"Bad Kissingen, GKSt","type":"Große_Kreisstadt"},"district":{"key":"09672","name":"Bad Kissingen","type":"Landkreis"},"federalState":{"key":"09","name":"Bayern"}},{"name":"Ziegelweg","postalCode":"97688","locality":"Bad Kissingen","municipality":{"key":"09672114","name":"Bad Kissingen, GKSt","type":"Große_Kreisstadt"},"district":{"key":"09672","name":"Bad Kissingen","type":"Landkreis"},"federalState":{"key":"09","name":"Bayern"}},{"name":"Zimmermannsstr.","postalCode":"97688","locality":"Bad Kissingen","municipality":{"key":"09672114","name":"Bad Kissingen, GKSt","type":"Große_Kreisstadt"},"district":{"key":"09672","name":"Bad Kissingen","type":"Landkreis"},"federalState":{"key":"09","name":"Bayern"}},{"name":"Zollerstr.","postalCode":"97688","locality":"Bad Kissingen","municipality":{"key":"09672114","name":"Bad Kissingen, GKSt","type":"Große_Kreisstadt"},"district":{"key":"09672","name":"Bad Kissingen","type":"Landkreis"},"federalState":{"key":"09","name":"Bayern"}},{"name":"Zwingergasse","postalCode":"97688","locality":"Bad Kissingen","municipality":{"key":"09672114","name":"Bad Kissingen, GKSt","type":"Große_Kreisstadt"},"district":{"key":"09672","name":"Bad Kissingen","type":"Landkreis"},"federalState":{"key":"09","name":"Bayern"}},]