[{"key":"10167663","name":"Chemin de la Crêt","postalCode":"1555","locality":"Villarzel","commune":{"key":"5830","name":"Villarzel","shortName":"Villarzel"},"district":{"key":"2222","name":"District de la Broye-Vully"},"canton":{"key":"22","code":"VD","name":"Vaud"},"status":"Real"},{"key":"10181066","name":"Chemin de l'Epine","postalCode":"1555","locality":"Villarzel","commune":{"key":"5830","name":"Villarzel","shortName":"Villarzel"},"district":{"key":"2222","name":"District de la Broye-Vully"},"canton":{"key":"22","code":"VD","name":"Vaud"},"status":"Real"},{"key":"10164976","name":"Chemin des Bains","postalCode":"1555","locality":"Villarzel","commune":{"key":"5830","name":"Villarzel","shortName":"Villarzel"},"district":{"key":"2222","name":"District de la Broye-Vully"},"canton":{"key":"22","code":"VD","name":"Vaud"},"status":"Real"},{"key":"10068570","name":"Chemin du Dévin","postalCode":"1555","locality":"Villarzel","commune":{"key":"5830","name":"Villarzel","shortName":"Villarzel"},"district":{"key":"2222","name":"District de la Broye-Vully"},"canton":{"key":"22","code":"VD","name":"Vaud"},"status":"Real"},{"key":"10109690","name":"Impasse de la Colline","postalCode":"1555","locality":"Villarzel","commune":{"key":"5830","name":"Villarzel","shortName":"Villarzel"},"district":{"key":"2222","name":"District de la Broye-Vully"},"canton":{"key":"22","code":"VD","name":"Vaud"},"status":"Real"},{"key":"10068571","name":"Impasse des Râpes","postalCode":"1555","locality":"Villarzel","commune":{"key":"5830","name":"Villarzel","shortName":"Villarzel"},"district":{"key":"2222","name":"District de la Broye-Vully"},"canton":{"key":"22","code":"VD","name":"Vaud"},"status":"Real"},{"key":"10077711","name":"Impasse du Saugy","postalCode":"1555","locality":"Villarzel","commune":{"key":"5830","name":"Villarzel","shortName":"Villarzel"},"district":{"key":"2222","name":"District de la Broye-Vully"},"canton":{"key":"22","code":"VD","name":"Vaud"},"status":"Real"},{"key":"10041730","name":"Impasse En la Ville","postalCode":"1555","locality":"Villarzel","commune":{"key":"5830","name":"Villarzel","shortName":"Villarzel"},"district":{"key":"2222","name":"District de la Broye-Vully"},"canton":{"key":"22","code":"VD","name":"Vaud"},"status":"Real"},{"key":"10121733","name":"Passage de Bellevue","postalCode":"1555","locality":"Villarzel","commune":{"key":"5830","name":"Villarzel","shortName":"Villarzel"},"district":{"key":"2222","name":"District de la Broye-Vully"},"canton":{"key":"22","code":"VD","name":"Vaud"},"status":"Real"},{"key":"10173948","name":"Route de Marnand","postalCode":"1555","locality":"Villarzel","commune":{"key":"5830","name":"Villarzel","shortName":"Villarzel"},"district":{"key":"2222","name":"District de la Broye-Vully"},"canton":{"key":"22","code":"VD","name":"Vaud"},"status":"Real"},{"key":"10041733","name":"Route des Sauges","postalCode":"1555","locality":"Villarzel","commune":{"key":"5830","name":"Villarzel","shortName":"Villarzel"},"district":{"key":"2222","name":"District de la Broye-Vully"},"canton":{"key":"22","code":"VD","name":"Vaud"},"status":"Real"},{"key":"10104158","name":"Rue du Collège","postalCode":"1555","locality":"Villarzel","commune":{"key":"5830","name":"Villarzel","shortName":"Villarzel"},"district":{"key":"2222","name":"District de la Broye-Vully"},"canton":{"key":"22","code":"VD","name":"Vaud"},"status":"Real"},]