[{"name":"Am Kirchberg","postalCode":"55278","locality":"Dalheim","municipality":{"key":"07339010","name":"Dalheim","type":"Kreisangehörige_Gemeinde"},"district":{"key":"07339","name":"Mainz-Bingen","type":"Landkreis"},"federalState":{"key":"07","name":"Rheinland-Pfalz"}},{"name":"Am Steinberg","postalCode":"55278","locality":"Dalheim","municipality":{"key":"07339010","name":"Dalheim","type":"Kreisangehörige_Gemeinde"},"district":{"key":"07339","name":"Mainz-Bingen","type":"Landkreis"},"federalState":{"key":"07","name":"Rheinland-Pfalz"}},{"name":"Auf dem Böhl","postalCode":"55278","locality":"Dalheim","municipality":{"key":"07339010","name":"Dalheim","type":"Kreisangehörige_Gemeinde"},"district":{"key":"07339","name":"Mainz-Bingen","type":"Landkreis"},"federalState":{"key":"07","name":"Rheinland-Pfalz"}},{"name":"Auf den Elfmorgen","postalCode":"55278","locality":"Dalheim","municipality":{"key":"07339010","name":"Dalheim","type":"Kreisangehörige_Gemeinde"},"district":{"key":"07339","name":"Mainz-Bingen","type":"Landkreis"},"federalState":{"key":"07","name":"Rheinland-Pfalz"}},{"name":"Backhausgasse","postalCode":"55278","locality":"Dalheim","municipality":{"key":"07339010","name":"Dalheim","type":"Kreisangehörige_Gemeinde"},"district":{"key":"07339","name":"Mainz-Bingen","type":"Landkreis"},"federalState":{"key":"07","name":"Rheinland-Pfalz"}},{"name":"Borngasse","postalCode":"55278","locality":"Dalheim","municipality":{"key":"07339010","name":"Dalheim","type":"Kreisangehörige_Gemeinde"},"district":{"key":"07339","name":"Mainz-Bingen","type":"Landkreis"},"federalState":{"key":"07","name":"Rheinland-Pfalz"}},{"name":"Dexheimer Str.","postalCode":"55278","locality":"Dalheim","municipality":{"key":"07339010","name":"Dalheim","type":"Kreisangehörige_Gemeinde"},"district":{"key":"07339","name":"Mainz-Bingen","type":"Landkreis"},"federalState":{"key":"07","name":"Rheinland-Pfalz"}},{"name":"Falkensteiner Str.","postalCode":"55278","locality":"Dalheim","municipality":{"key":"07339010","name":"Dalheim","type":"Kreisangehörige_Gemeinde"},"district":{"key":"07339","name":"Mainz-Bingen","type":"Landkreis"},"federalState":{"key":"07","name":"Rheinland-Pfalz"}},{"name":"Frankenstr.","postalCode":"55278","locality":"Dalheim","municipality":{"key":"07339010","name":"Dalheim","type":"Kreisangehörige_Gemeinde"},"district":{"key":"07339","name":"Mainz-Bingen","type":"Landkreis"},"federalState":{"key":"07","name":"Rheinland-Pfalz"}},{"name":"Friesenheimer Weg","postalCode":"55278","locality":"Dalheim","municipality":{"key":"07339010","name":"Dalheim","type":"Kreisangehörige_Gemeinde"},"district":{"key":"07339","name":"Mainz-Bingen","type":"Landkreis"},"federalState":{"key":"07","name":"Rheinland-Pfalz"}},{"name":"Haierweg","postalCode":"55278","locality":"Dalheim","municipality":{"key":"07339010","name":"Dalheim","type":"Kreisangehörige_Gemeinde"},"district":{"key":"07339","name":"Mainz-Bingen","type":"Landkreis"},"federalState":{"key":"07","name":"Rheinland-Pfalz"}},{"name":"Im Gartenfeld","postalCode":"55278","locality":"Dalheim","municipality":{"key":"07339010","name":"Dalheim","type":"Kreisangehörige_Gemeinde"},"district":{"key":"07339","name":"Mainz-Bingen","type":"Landkreis"},"federalState":{"key":"07","name":"Rheinland-Pfalz"}},{"name":"In den kleinen Wiesen","postalCode":"55278","locality":"Dalheim","municipality":{"key":"07339010","name":"Dalheim","type":"Kreisangehörige_Gemeinde"},"district":{"key":"07339","name":"Mainz-Bingen","type":"Landkreis"},"federalState":{"key":"07","name":"Rheinland-Pfalz"}},{"name":"Jahnstr.","postalCode":"55278","locality":"Dalheim","municipality":{"key":"07339010","name":"Dalheim","type":"Kreisangehörige_Gemeinde"},"district":{"key":"07339","name":"Mainz-Bingen","type":"Landkreis"},"federalState":{"key":"07","name":"Rheinland-Pfalz"}},{"name":"Lettengasse","postalCode":"55278","locality":"Dalheim","municipality":{"key":"07339010","name":"Dalheim","type":"Kreisangehörige_Gemeinde"},"district":{"key":"07339","name":"Mainz-Bingen","type":"Landkreis"},"federalState":{"key":"07","name":"Rheinland-Pfalz"}},{"name":"Neugasse","postalCode":"55278","locality":"Dalheim","municipality":{"key":"07339010","name":"Dalheim","type":"Kreisangehörige_Gemeinde"},"district":{"key":"07339","name":"Mainz-Bingen","type":"Landkreis"},"federalState":{"key":"07","name":"Rheinland-Pfalz"}},{"name":"Pfaffengasse","postalCode":"55278","locality":"Dalheim","municipality":{"key":"07339010","name":"Dalheim","type":"Kreisangehörige_Gemeinde"},"district":{"key":"07339","name":"Mainz-Bingen","type":"Landkreis"},"federalState":{"key":"07","name":"Rheinland-Pfalz"}},{"name":"Pforte","postalCode":"55278","locality":"Dalheim","municipality":{"key":"07339010","name":"Dalheim","type":"Kreisangehörige_Gemeinde"},"district":{"key":"07339","name":"Mainz-Bingen","type":"Landkreis"},"federalState":{"key":"07","name":"Rheinland-Pfalz"}},{"name":"Römerstr.","postalCode":"55278","locality":"Dalheim","municipality":{"key":"07339010","name":"Dalheim","type":"Kreisangehörige_Gemeinde"},"district":{"key":"07339","name":"Mainz-Bingen","type":"Landkreis"},"federalState":{"key":"07","name":"Rheinland-Pfalz"}},{"name":"Schnurgasse","postalCode":"55278","locality":"Dalheim","municipality":{"key":"07339010","name":"Dalheim","type":"Kreisangehörige_Gemeinde"},"district":{"key":"07339","name":"Mainz-Bingen","type":"Landkreis"},"federalState":{"key":"07","name":"Rheinland-Pfalz"}},{"name":"Silcherstr.","postalCode":"55278","locality":"Dalheim","municipality":{"key":"07339010","name":"Dalheim","type":"Kreisangehörige_Gemeinde"},"district":{"key":"07339","name":"Mainz-Bingen","type":"Landkreis"},"federalState":{"key":"07","name":"Rheinland-Pfalz"}},{"name":"St.-Georg-Str.","postalCode":"55278","locality":"Dalheim","municipality":{"key":"07339010","name":"Dalheim","type":"Kreisangehörige_Gemeinde"},"district":{"key":"07339","name":"Mainz-Bingen","type":"Landkreis"},"federalState":{"key":"07","name":"Rheinland-Pfalz"}},{"name":"St.-Martin-Str.","postalCode":"55278","locality":"Dalheim","municipality":{"key":"07339010","name":"Dalheim","type":"Kreisangehörige_Gemeinde"},"district":{"key":"07339","name":"Mainz-Bingen","type":"Landkreis"},"federalState":{"key":"07","name":"Rheinland-Pfalz"}},{"name":"Weinolsheimer Str.","postalCode":"55278","locality":"Dalheim","municipality":{"key":"07339010","name":"Dalheim","type":"Kreisangehörige_Gemeinde"},"district":{"key":"07339","name":"Mainz-Bingen","type":"Landkreis"},"federalState":{"key":"07","name":"Rheinland-Pfalz"}},{"name":"Weinolsheimer Weg","postalCode":"55278","locality":"Dalheim","municipality":{"key":"07339010","name":"Dalheim","type":"Kreisangehörige_Gemeinde"},"district":{"key":"07339","name":"Mainz-Bingen","type":"Landkreis"},"federalState":{"key":"07","name":"Rheinland-Pfalz"}},{"name":"Zum Ostertal","postalCode":"55278","locality":"Dalheim","municipality":{"key":"07339010","name":"Dalheim","type":"Kreisangehörige_Gemeinde"},"district":{"key":"07339","name":"Mainz-Bingen","type":"Landkreis"},"federalState":{"key":"07","name":"Rheinland-Pfalz"}},]