[{"name":"Am Fackelesberg","postalCode":"89584","locality":"Lauterach","municipality":{"key":"08425073","name":"Lauterach","type":"Kreisangehörige_Gemeinde"},"district":{"key":"08425","name":"Alb-Donau-Kreis","type":"Landkreis"},"federalState":{"key":"08","name":"Baden-Württemberg"}},{"name":"Am Hochberg","postalCode":"89584","locality":"Lauterach","municipality":{"key":"08425073","name":"Lauterach","type":"Kreisangehörige_Gemeinde"},"district":{"key":"08425","name":"Alb-Donau-Kreis","type":"Landkreis"},"federalState":{"key":"08","name":"Baden-Württemberg"}},{"name":"Bismarkhöhe","postalCode":"89584","locality":"Lauterach","municipality":{"key":"08425073","name":"Lauterach","type":"Kreisangehörige_Gemeinde"},"district":{"key":"08425","name":"Alb-Donau-Kreis","type":"Landkreis"},"federalState":{"key":"08","name":"Baden-Württemberg"}},{"name":"Burrenweg","postalCode":"89584","locality":"Lauterach","municipality":{"key":"08425073","name":"Lauterach","type":"Kreisangehörige_Gemeinde"},"district":{"key":"08425","name":"Alb-Donau-Kreis","type":"Landkreis"},"federalState":{"key":"08","name":"Baden-Württemberg"}},{"name":"Ehinger Steige","postalCode":"89584","locality":"Lauterach","municipality":{"key":"08425073","name":"Lauterach","type":"Kreisangehörige_Gemeinde"},"district":{"key":"08425","name":"Alb-Donau-Kreis","type":"Landkreis"},"federalState":{"key":"08","name":"Baden-Württemberg"}},{"name":"Froschäckerweg","postalCode":"89584","locality":"Lauterach","municipality":{"key":"08425073","name":"Lauterach","type":"Kreisangehörige_Gemeinde"},"district":{"key":"08425","name":"Alb-Donau-Kreis","type":"Landkreis"},"federalState":{"key":"08","name":"Baden-Württemberg"}},{"name":"Gartenstr.","postalCode":"89584","locality":"Lauterach","municipality":{"key":"08425073","name":"Lauterach","type":"Kreisangehörige_Gemeinde"},"district":{"key":"08425","name":"Alb-Donau-Kreis","type":"Landkreis"},"federalState":{"key":"08","name":"Baden-Württemberg"}},{"name":"Grubjauchert","postalCode":"89584","locality":"Lauterach","municipality":{"key":"08425073","name":"Lauterach","type":"Kreisangehörige_Gemeinde"},"district":{"key":"08425","name":"Alb-Donau-Kreis","type":"Landkreis"},"federalState":{"key":"08","name":"Baden-Württemberg"}},{"name":"Grubjauchertsteigle","postalCode":"89584","locality":"Lauterach","municipality":{"key":"08425073","name":"Lauterach","type":"Kreisangehörige_Gemeinde"},"district":{"key":"08425","name":"Alb-Donau-Kreis","type":"Landkreis"},"federalState":{"key":"08","name":"Baden-Württemberg"}},{"name":"Haldeneschle","postalCode":"89584","locality":"Lauterach","municipality":{"key":"08425073","name":"Lauterach","type":"Kreisangehörige_Gemeinde"},"district":{"key":"08425","name":"Alb-Donau-Kreis","type":"Landkreis"},"federalState":{"key":"08","name":"Baden-Württemberg"}},{"name":"Hanfgartenweg","postalCode":"89584","locality":"Lauterach","municipality":{"key":"08425073","name":"Lauterach","type":"Kreisangehörige_Gemeinde"},"district":{"key":"08425","name":"Alb-Donau-Kreis","type":"Landkreis"},"federalState":{"key":"08","name":"Baden-Württemberg"}},{"name":"Hochbergstr.","postalCode":"89584","locality":"Lauterach","municipality":{"key":"08425073","name":"Lauterach","type":"Kreisangehörige_Gemeinde"},"district":{"key":"08425","name":"Alb-Donau-Kreis","type":"Landkreis"},"federalState":{"key":"08","name":"Baden-Württemberg"}},{"name":"Höllweg","postalCode":"89584","locality":"Lauterach","municipality":{"key":"08425073","name":"Lauterach","type":"Kreisangehörige_Gemeinde"},"district":{"key":"08425","name":"Alb-Donau-Kreis","type":"Landkreis"},"federalState":{"key":"08","name":"Baden-Württemberg"}},{"name":"Kapellenweg","postalCode":"89584","locality":"Lauterach","municipality":{"key":"08425073","name":"Lauterach","type":"Kreisangehörige_Gemeinde"},"district":{"key":"08425","name":"Alb-Donau-Kreis","type":"Landkreis"},"federalState":{"key":"08","name":"Baden-Württemberg"}},{"name":"Kirchweg","postalCode":"89584","locality":"Lauterach","municipality":{"key":"08425073","name":"Lauterach","type":"Kreisangehörige_Gemeinde"},"district":{"key":"08425","name":"Alb-Donau-Kreis","type":"Landkreis"},"federalState":{"key":"08","name":"Baden-Württemberg"}},{"name":"Lautertalstr.","postalCode":"89584","locality":"Lauterach","municipality":{"key":"08425073","name":"Lauterach","type":"Kreisangehörige_Gemeinde"},"district":{"key":"08425","name":"Alb-Donau-Kreis","type":"Landkreis"},"federalState":{"key":"08","name":"Baden-Württemberg"}},{"name":"Mattenwiesen","postalCode":"89584","locality":"Lauterach","municipality":{"key":"08425073","name":"Lauterach","type":"Kreisangehörige_Gemeinde"},"district":{"key":"08425","name":"Alb-Donau-Kreis","type":"Landkreis"},"federalState":{"key":"08","name":"Baden-Württemberg"}},{"name":"Mühlgasse","postalCode":"89584","locality":"Lauterach","municipality":{"key":"08425073","name":"Lauterach","type":"Kreisangehörige_Gemeinde"},"district":{"key":"08425","name":"Alb-Donau-Kreis","type":"Landkreis"},"federalState":{"key":"08","name":"Baden-Württemberg"}},{"name":"Pionierweg","postalCode":"89584","locality":"Lauterach","municipality":{"key":"08425073","name":"Lauterach","type":"Kreisangehörige_Gemeinde"},"district":{"key":"08425","name":"Alb-Donau-Kreis","type":"Landkreis"},"federalState":{"key":"08","name":"Baden-Württemberg"}},{"name":"Reichensteiner Weg","postalCode":"89584","locality":"Lauterach","municipality":{"key":"08425073","name":"Lauterach","type":"Kreisangehörige_Gemeinde"},"district":{"key":"08425","name":"Alb-Donau-Kreis","type":"Landkreis"},"federalState":{"key":"08","name":"Baden-Württemberg"}},{"name":"Römerweg","postalCode":"89584","locality":"Lauterach","municipality":{"key":"08425073","name":"Lauterach","type":"Kreisangehörige_Gemeinde"},"district":{"key":"08425","name":"Alb-Donau-Kreis","type":"Landkreis"},"federalState":{"key":"08","name":"Baden-Württemberg"}},{"name":"Schlehenring","postalCode":"89584","locality":"Lauterach","municipality":{"key":"08425073","name":"Lauterach","type":"Kreisangehörige_Gemeinde"},"district":{"key":"08425","name":"Alb-Donau-Kreis","type":"Landkreis"},"federalState":{"key":"08","name":"Baden-Württemberg"}},{"name":"Schwärze","postalCode":"89584","locality":"Lauterach","municipality":{"key":"08425073","name":"Lauterach","type":"Kreisangehörige_Gemeinde"},"district":{"key":"08425","name":"Alb-Donau-Kreis","type":"Landkreis"},"federalState":{"key":"08","name":"Baden-Württemberg"}},{"name":"Tannenbühl","postalCode":"89584","locality":"Lauterach","municipality":{"key":"08425073","name":"Lauterach","type":"Kreisangehörige_Gemeinde"},"district":{"key":"08425","name":"Alb-Donau-Kreis","type":"Landkreis"},"federalState":{"key":"08","name":"Baden-Württemberg"}},{"name":"Untere Wiesen","postalCode":"89584","locality":"Lauterach","municipality":{"key":"08425073","name":"Lauterach","type":"Kreisangehörige_Gemeinde"},"district":{"key":"08425","name":"Alb-Donau-Kreis","type":"Landkreis"},"federalState":{"key":"08","name":"Baden-Württemberg"}},{"name":"Unterwilzinger Weg","postalCode":"89584","locality":"Lauterach","municipality":{"key":"08425073","name":"Lauterach","type":"Kreisangehörige_Gemeinde"},"district":{"key":"08425","name":"Alb-Donau-Kreis","type":"Landkreis"},"federalState":{"key":"08","name":"Baden-Württemberg"}},{"name":"Wagnergasse","postalCode":"89584","locality":"Lauterach","municipality":{"key":"08425073","name":"Lauterach","type":"Kreisangehörige_Gemeinde"},"district":{"key":"08425","name":"Alb-Donau-Kreis","type":"Landkreis"},"federalState":{"key":"08","name":"Baden-Württemberg"}},{"name":"Weiherweg","postalCode":"89584","locality":"Lauterach","municipality":{"key":"08425073","name":"Lauterach","type":"Kreisangehörige_Gemeinde"},"district":{"key":"08425","name":"Alb-Donau-Kreis","type":"Landkreis"},"federalState":{"key":"08","name":"Baden-Württemberg"}},{"name":"Wolfstal","postalCode":"89584","locality":"Lauterach","municipality":{"key":"08425073","name":"Lauterach","type":"Kreisangehörige_Gemeinde"},"district":{"key":"08425","name":"Alb-Donau-Kreis","type":"Landkreis"},"federalState":{"key":"08","name":"Baden-Württemberg"}},{"name":"Zum Burggraben","postalCode":"89584","locality":"Lauterach","municipality":{"key":"08425073","name":"Lauterach","type":"Kreisangehörige_Gemeinde"},"district":{"key":"08425","name":"Alb-Donau-Kreis","type":"Landkreis"},"federalState":{"key":"08","name":"Baden-Württemberg"}},]