[{"name":"Backhausstr.","postalCode":"56865","locality":"Reidenhausen","municipality":{"key":"07135074","name":"Reidenhausen","type":"Kreisangehörige_Gemeinde"},"district":{"key":"07135","name":"Cochem-Zell","type":"Landkreis"},"federalState":{"key":"07","name":"Rheinland-Pfalz"}},{"name":"Großtriescher","postalCode":"56865","locality":"Reidenhausen","municipality":{"key":"07135074","name":"Reidenhausen","type":"Kreisangehörige_Gemeinde"},"district":{"key":"07135","name":"Cochem-Zell","type":"Landkreis"},"federalState":{"key":"07","name":"Rheinland-Pfalz"}},{"name":"Mittelweg","postalCode":"56865","locality":"Reidenhausen","municipality":{"key":"07135074","name":"Reidenhausen","type":"Kreisangehörige_Gemeinde"},"district":{"key":"07135","name":"Cochem-Zell","type":"Landkreis"},"federalState":{"key":"07","name":"Rheinland-Pfalz"}},{"name":"Schulstr.","postalCode":"56865","locality":"Reidenhausen","municipality":{"key":"07135074","name":"Reidenhausen","type":"Kreisangehörige_Gemeinde"},"district":{"key":"07135","name":"Cochem-Zell","type":"Landkreis"},"federalState":{"key":"07","name":"Rheinland-Pfalz"}},{"name":"Weiherstr.","postalCode":"56865","locality":"Reidenhausen","municipality":{"key":"07135074","name":"Reidenhausen","type":"Kreisangehörige_Gemeinde"},"district":{"key":"07135","name":"Cochem-Zell","type":"Landkreis"},"federalState":{"key":"07","name":"Rheinland-Pfalz"}},{"name":"Wiesenweg","postalCode":"56865","locality":"Reidenhausen","municipality":{"key":"07135074","name":"Reidenhausen","type":"Kreisangehörige_Gemeinde"},"district":{"key":"07135","name":"Cochem-Zell","type":"Landkreis"},"federalState":{"key":"07","name":"Rheinland-Pfalz"}},{"name":"Zum Heidenfeld","postalCode":"56865","locality":"Reidenhausen","municipality":{"key":"07135074","name":"Reidenhausen","type":"Kreisangehörige_Gemeinde"},"district":{"key":"07135","name":"Cochem-Zell","type":"Landkreis"},"federalState":{"key":"07","name":"Rheinland-Pfalz"}},{"name":"Zum Thonhügel","postalCode":"56865","locality":"Reidenhausen","municipality":{"key":"07135074","name":"Reidenhausen","type":"Kreisangehörige_Gemeinde"},"district":{"key":"07135","name":"Cochem-Zell","type":"Landkreis"},"federalState":{"key":"07","name":"Rheinland-Pfalz"}},]