[{"name":"Achdorfer Weg","postalCode":"84184","locality":"Tiefenbach","municipality":{"key":"09274182","name":"Tiefenbach","type":"Kreisangehörige_Gemeinde"},"district":{"key":"09274","name":"Landshut","type":"Landkreis"},"federalState":{"key":"09","name":"Bayern"}},{"name":"Ackerstr.","postalCode":"55743","locality":"Hintertiefenbach","municipality":{"key":"07134041","name":"Hintertiefenbach","type":"Kreisangehörige_Gemeinde"},"district":{"key":"07134","name":"Birkenfeld","type":"Landkreis"},"federalState":{"key":"07","name":"Rheinland-Pfalz"}},{"name":"Aichaer Str.","postalCode":"94113","locality":"Tiefenbach","municipality":{"key":"09275151","name":"Tiefenbach","type":"Kreisangehörige_Gemeinde"},"district":{"key":"09275","name":"Passau","type":"Landkreis"},"federalState":{"key":"09","name":"Bayern"}},{"name":"Allerting","postalCode":"94113","locality":"Tiefenbach","municipality":{"key":"09275151","name":"Tiefenbach","type":"Kreisangehörige_Gemeinde"},"district":{"key":"09275","name":"Passau","type":"Landkreis"},"federalState":{"key":"09","name":"Bayern"}},{"name":"Allertinger Str.","postalCode":"94113","locality":"Tiefenbach","municipality":{"key":"09275151","name":"Tiefenbach","type":"Kreisangehörige_Gemeinde"},"district":{"key":"09275","name":"Passau","type":"Landkreis"},"federalState":{"key":"09","name":"Bayern"}},{"name":"Alois-Zwislsberger-Str.","postalCode":"94113","locality":"Tiefenbach","municipality":{"key":"09275151","name":"Tiefenbach","type":"Kreisangehörige_Gemeinde"},"district":{"key":"09275","name":"Passau","type":"Landkreis"},"federalState":{"key":"09","name":"Bayern"}},{"name":"Alte Dorfstr.","postalCode":"84184","locality":"Tiefenbach","municipality":{"key":"09274182","name":"Tiefenbach","type":"Kreisangehörige_Gemeinde"},"district":{"key":"09274","name":"Landshut","type":"Landkreis"},"federalState":{"key":"09","name":"Bayern"}},{"name":"Alte Hammerstr.","postalCode":"93464","locality":"Tiefenbach","municipality":{"key":"09372163","name":"Tiefenbach","type":"Kreisangehörige_Gemeinde"},"district":{"key":"09372","name":"Cham","type":"Landkreis"},"federalState":{"key":"09","name":"Bayern"}},{"name":"Alte Schulweg","postalCode":"94113","locality":"Tiefenbach","municipality":{"key":"09275151","name":"Tiefenbach","type":"Kreisangehörige_Gemeinde"},"district":{"key":"09275","name":"Passau","type":"Landkreis"},"federalState":{"key":"09","name":"Bayern"}},{"name":"Alte Str.","postalCode":"94113","locality":"Tiefenbach","municipality":{"key":"09275151","name":"Tiefenbach","type":"Kreisangehörige_Gemeinde"},"district":{"key":"09275","name":"Passau","type":"Landkreis"},"federalState":{"key":"09","name":"Bayern"}},{"name":"Altreuthweg","postalCode":"94113","locality":"Tiefenbach","municipality":{"key":"09275151","name":"Tiefenbach","type":"Kreisangehörige_Gemeinde"},"district":{"key":"09275","name":"Passau","type":"Landkreis"},"federalState":{"key":"09","name":"Bayern"}},{"name":"Altstr.nschlucht","postalCode":"84184","locality":"Tiefenbach","municipality":{"key":"09274182","name":"Tiefenbach","type":"Kreisangehörige_Gemeinde"},"district":{"key":"09274","name":"Landshut","type":"Landkreis"},"federalState":{"key":"09","name":"Bayern"}},{"name":"Am Bach","postalCode":"94113","locality":"Tiefenbach","municipality":{"key":"09275151","name":"Tiefenbach","type":"Kreisangehörige_Gemeinde"},"district":{"key":"09275","name":"Passau","type":"Landkreis"},"federalState":{"key":"09","name":"Bayern"}},{"name":"Am Bergacker","postalCode":"84184","locality":"Tiefenbach","municipality":{"key":"09274182","name":"Tiefenbach","type":"Kreisangehörige_Gemeinde"},"district":{"key":"09274","name":"Landshut","type":"Landkreis"},"federalState":{"key":"09","name":"Bayern"}},{"name":"Am Hang","postalCode":"84184","locality":"Tiefenbach","municipality":{"key":"09274182","name":"Tiefenbach","type":"Kreisangehörige_Gemeinde"},"district":{"key":"09274","name":"Landshut","type":"Landkreis"},"federalState":{"key":"09","name":"Bayern"}},{"name":"Am Hofacker","postalCode":"94113","locality":"Tiefenbach","municipality":{"key":"09275151","name":"Tiefenbach","type":"Kreisangehörige_Gemeinde"},"district":{"key":"09275","name":"Passau","type":"Landkreis"},"federalState":{"key":"09","name":"Bayern"}},{"name":"Am Hohen Bogen","postalCode":"84184","locality":"Tiefenbach","municipality":{"key":"09274182","name":"Tiefenbach","type":"Kreisangehörige_Gemeinde"},"district":{"key":"09274","name":"Landshut","type":"Landkreis"},"federalState":{"key":"09","name":"Bayern"}},{"name":"Am Holzacker","postalCode":"84184","locality":"Tiefenbach","municipality":{"key":"09274182","name":"Tiefenbach","type":"Kreisangehörige_Gemeinde"},"district":{"key":"09274","name":"Landshut","type":"Landkreis"},"federalState":{"key":"09","name":"Bayern"}},{"name":"Am Hütberg","postalCode":"93464","locality":"Tiefenbach","municipality":{"key":"09372163","name":"Tiefenbach","type":"Kreisangehörige_Gemeinde"},"district":{"key":"09372","name":"Cham","type":"Landkreis"},"federalState":{"key":"09","name":"Bayern"}},{"name":"Am Jackinger Berg","postalCode":"94113","locality":"Tiefenbach","municipality":{"key":"09275151","name":"Tiefenbach","type":"Kreisangehörige_Gemeinde"},"district":{"key":"09275","name":"Passau","type":"Landkreis"},"federalState":{"key":"09","name":"Bayern"}},{"name":"Am Kalvarienberg","postalCode":"93464","locality":"Tiefenbach","municipality":{"key":"09372163","name":"Tiefenbach","type":"Kreisangehörige_Gemeinde"},"district":{"key":"09372","name":"Cham","type":"Landkreis"},"federalState":{"key":"09","name":"Bayern"}},{"name":"Am Keilberg","postalCode":"84184","locality":"Tiefenbach","municipality":{"key":"09274182","name":"Tiefenbach","type":"Kreisangehörige_Gemeinde"},"district":{"key":"09274","name":"Landshut","type":"Landkreis"},"federalState":{"key":"09","name":"Bayern"}},{"name":"Am Kieswerk","postalCode":"94113","locality":"Tiefenbach","municipality":{"key":"09275151","name":"Tiefenbach","type":"Kreisangehörige_Gemeinde"},"district":{"key":"09275","name":"Passau","type":"Landkreis"},"federalState":{"key":"09","name":"Bayern"}},{"name":"Am Kirchenfeld","postalCode":"94113","locality":"Tiefenbach","municipality":{"key":"09275151","name":"Tiefenbach","type":"Kreisangehörige_Gemeinde"},"district":{"key":"09275","name":"Passau","type":"Landkreis"},"federalState":{"key":"09","name":"Bayern"}},{"name":"Am Klavarienberg","postalCode":"93464","locality":"Tiefenbach","municipality":{"key":"09372163","name":"Tiefenbach","type":"Kreisangehörige_Gemeinde"},"district":{"key":"09372","name":"Cham","type":"Landkreis"},"federalState":{"key":"09","name":"Bayern"}},{"name":"Ammerweg","postalCode":"88422","locality":"Tiefenbach","municipality":{"key":"08426118","name":"Tiefenbach","type":"Kreisangehörige_Gemeinde"},"district":{"key":"08426","name":"Biberach","type":"Landkreis"},"federalState":{"key":"08","name":"Baden-Württemberg"}},{"name":"Am Oberfeld","postalCode":"94113","locality":"Tiefenbach","municipality":{"key":"09275151","name":"Tiefenbach","type":"Kreisangehörige_Gemeinde"},"district":{"key":"09275","name":"Passau","type":"Landkreis"},"federalState":{"key":"09","name":"Bayern"}},{"name":"Am Rastfeld","postalCode":"94113","locality":"Tiefenbach","municipality":{"key":"09275151","name":"Tiefenbach","type":"Kreisangehörige_Gemeinde"},"district":{"key":"09275","name":"Passau","type":"Landkreis"},"federalState":{"key":"09","name":"Bayern"}},{"name":"Am Rosenium","postalCode":"94113","locality":"Tiefenbach","municipality":{"key":"09275151","name":"Tiefenbach","type":"Kreisangehörige_Gemeinde"},"district":{"key":"09275","name":"Passau","type":"Landkreis"},"federalState":{"key":"09","name":"Bayern"}},{"name":"Am Schlagl","postalCode":"93464","locality":"Tiefenbach","municipality":{"key":"09372163","name":"Tiefenbach","type":"Kreisangehörige_Gemeinde"},"district":{"key":"09372","name":"Cham","type":"Landkreis"},"federalState":{"key":"09","name":"Bayern"}},{"name":"Am See","postalCode":"88422","locality":"Tiefenbach","municipality":{"key":"08426118","name":"Tiefenbach","type":"Kreisangehörige_Gemeinde"},"district":{"key":"08426","name":"Biberach","type":"Landkreis"},"federalState":{"key":"08","name":"Baden-Württemberg"}},{"name":"Amselstr.","postalCode":"84184","locality":"Tiefenbach","municipality":{"key":"09274182","name":"Tiefenbach","type":"Kreisangehörige_Gemeinde"},"district":{"key":"09274","name":"Landshut","type":"Landkreis"},"federalState":{"key":"09","name":"Bayern"}},{"name":"Amselweg","postalCode":"88422","locality":"Tiefenbach","municipality":{"key":"08426118","name":"Tiefenbach","type":"Kreisangehörige_Gemeinde"},"district":{"key":"08426","name":"Biberach","type":"Landkreis"},"federalState":{"key":"08","name":"Baden-Württemberg"}},{"name":"Amselweg","postalCode":"94113","locality":"Tiefenbach","municipality":{"key":"09275151","name":"Tiefenbach","type":"Kreisangehörige_Gemeinde"},"district":{"key":"09275","name":"Passau","type":"Landkreis"},"federalState":{"key":"09","name":"Bayern"}},{"name":"Am Sonnenhang","postalCode":"94113","locality":"Tiefenbach","municipality":{"key":"09275151","name":"Tiefenbach","type":"Kreisangehörige_Gemeinde"},"district":{"key":"09275","name":"Passau","type":"Landkreis"},"federalState":{"key":"09","name":"Bayern"}},{"name":"Am Sportplatz","postalCode":"84184","locality":"Tiefenbach","municipality":{"key":"09274182","name":"Tiefenbach","type":"Kreisangehörige_Gemeinde"},"district":{"key":"09274","name":"Landshut","type":"Landkreis"},"federalState":{"key":"09","name":"Bayern"}},{"name":"Am Steinberg","postalCode":"94113","locality":"Tiefenbach","municipality":{"key":"09275151","name":"Tiefenbach","type":"Kreisangehörige_Gemeinde"},"district":{"key":"09275","name":"Passau","type":"Landkreis"},"federalState":{"key":"09","name":"Bayern"}},{"name":"Am Steppbach","postalCode":"94113","locality":"Tiefenbach","municipality":{"key":"09275151","name":"Tiefenbach","type":"Kreisangehörige_Gemeinde"},"district":{"key":"09275","name":"Passau","type":"Landkreis"},"federalState":{"key":"09","name":"Bayern"}},{"name":"Am Südhang","postalCode":"94113","locality":"Tiefenbach","municipality":{"key":"09275151","name":"Tiefenbach","type":"Kreisangehörige_Gemeinde"},"district":{"key":"09275","name":"Passau","type":"Landkreis"},"federalState":{"key":"09","name":"Bayern"}},{"name":"Am Tannenfeld","postalCode":"94113","locality":"Tiefenbach","municipality":{"key":"09275151","name":"Tiefenbach","type":"Kreisangehörige_Gemeinde"},"district":{"key":"09275","name":"Passau","type":"Landkreis"},"federalState":{"key":"09","name":"Bayern"}},{"name":"Am Vogeltend","postalCode":"94113","locality":"Tiefenbach","municipality":{"key":"09275151","name":"Tiefenbach","type":"Kreisangehörige_Gemeinde"},"district":{"key":"09275","name":"Passau","type":"Landkreis"},"federalState":{"key":"09","name":"Bayern"}},{"name":"Am Weiherberg","postalCode":"94113","locality":"Tiefenbach","municipality":{"key":"09275151","name":"Tiefenbach","type":"Kreisangehörige_Gemeinde"},"district":{"key":"09275","name":"Passau","type":"Landkreis"},"federalState":{"key":"09","name":"Bayern"}},{"name":"Am Weinberg","postalCode":"84184","locality":"Tiefenbach","municipality":{"key":"09274182","name":"Tiefenbach","type":"Kreisangehörige_Gemeinde"},"district":{"key":"09274","name":"Landshut","type":"Landkreis"},"federalState":{"key":"09","name":"Bayern"}},{"name":"Am Wiesengrund","postalCode":"93464","locality":"Tiefenbach","municipality":{"key":"09372163","name":"Tiefenbach","type":"Kreisangehörige_Gemeinde"},"district":{"key":"09372","name":"Cham","type":"Landkreis"},"federalState":{"key":"09","name":"Bayern"}},{"name":"Am Winkl","postalCode":"84184","locality":"Tiefenbach","municipality":{"key":"09274182","name":"Tiefenbach","type":"Kreisangehörige_Gemeinde"},"district":{"key":"09274","name":"Landshut","type":"Landkreis"},"federalState":{"key":"09","name":"Bayern"}},{"name":"Am Wirtsanger","postalCode":"84184","locality":"Tiefenbach","municipality":{"key":"09274182","name":"Tiefenbach","type":"Kreisangehörige_Gemeinde"},"district":{"key":"09274","name":"Landshut","type":"Landkreis"},"federalState":{"key":"09","name":"Bayern"}},{"name":"Am Wirtsgarten","postalCode":"84184","locality":"Tiefenbach","municipality":{"key":"09274182","name":"Tiefenbach","type":"Kreisangehörige_Gemeinde"},"district":{"key":"09274","name":"Landshut","type":"Landkreis"},"federalState":{"key":"09","name":"Bayern"}},{"name":"Am Woferlfeld","postalCode":"93464","locality":"Tiefenbach","municipality":{"key":"09372163","name":"Tiefenbach","type":"Kreisangehörige_Gemeinde"},"district":{"key":"09372","name":"Cham","type":"Landkreis"},"federalState":{"key":"09","name":"Bayern"}},{"name":"Am Zellweg","postalCode":"93464","locality":"Tiefenbach","municipality":{"key":"09372163","name":"Tiefenbach","type":"Kreisangehörige_Gemeinde"},"district":{"key":"09372","name":"Cham","type":"Landkreis"},"federalState":{"key":"09","name":"Bayern"}},{"name":"Am Ziegelstadl","postalCode":"84184","locality":"Tiefenbach","municipality":{"key":"09274182","name":"Tiefenbach","type":"Kreisangehörige_Gemeinde"},"district":{"key":"09274","name":"Landshut","type":"Landkreis"},"federalState":{"key":"09","name":"Bayern"}},{"name":"Bachleite","postalCode":"84184","locality":"Tiefenbach","municipality":{"key":"09274182","name":"Tiefenbach","type":"Kreisangehörige_Gemeinde"},"district":{"key":"09274","name":"Landshut","type":"Landkreis"},"federalState":{"key":"09","name":"Bayern"}},{"name":"Bachstr.","postalCode":"56368","locality":"Niedertiefenbach","municipality":{"key":"07141096","name":"Niedertiefenbach","type":"Kreisangehörige_Gemeinde"},"district":{"key":"07141","name":"Rhein-Lahn-Kreis","type":"Landkreis"},"federalState":{"key":"07","name":"Rheinland-Pfalz"}},{"name":"Bachstr.","postalCode":"84184","locality":"Tiefenbach","municipality":{"key":"09274182","name":"Tiefenbach","type":"Kreisangehörige_Gemeinde"},"district":{"key":"09274","name":"Landshut","type":"Landkreis"},"federalState":{"key":"09","name":"Bayern"}},{"name":"Bachstr.","postalCode":"93464","locality":"Tiefenbach","municipality":{"key":"09372163","name":"Tiefenbach","type":"Kreisangehörige_Gemeinde"},"district":{"key":"09372","name":"Cham","type":"Landkreis"},"federalState":{"key":"09","name":"Bayern"}},{"name":"Bachweg","postalCode":"94113","locality":"Tiefenbach","municipality":{"key":"09275151","name":"Tiefenbach","type":"Kreisangehörige_Gemeinde"},"district":{"key":"09275","name":"Passau","type":"Landkreis"},"federalState":{"key":"09","name":"Bayern"}},{"name":"Bäckerreuth","postalCode":"94113","locality":"Tiefenbach","municipality":{"key":"09275151","name":"Tiefenbach","type":"Kreisangehörige_Gemeinde"},"district":{"key":"09275","name":"Passau","type":"Landkreis"},"federalState":{"key":"09","name":"Bayern"}},{"name":"Bäckerreuthweg","postalCode":"94113","locality":"Tiefenbach","municipality":{"key":"09275151","name":"Tiefenbach","type":"Kreisangehörige_Gemeinde"},"district":{"key":"09275","name":"Passau","type":"Landkreis"},"federalState":{"key":"09","name":"Bayern"}},{"name":"Bäckerweg","postalCode":"84184","locality":"Tiefenbach","municipality":{"key":"09274182","name":"Tiefenbach","type":"Kreisangehörige_Gemeinde"},"district":{"key":"09274","name":"Landshut","type":"Landkreis"},"federalState":{"key":"09","name":"Bayern"}},{"name":"Bahnhofstr.","postalCode":"55471","locality":"Tiefenbach","municipality":{"key":"07140150","name":"Tiefenbach","type":"Kreisangehörige_Gemeinde"},"district":{"key":"07140","name":"Rhein-Hunsrück-Kreis","type":"Landkreis"},"federalState":{"key":"07","name":"Rheinland-Pfalz"}},{"name":"Bärenholzweg","postalCode":"94113","locality":"Tiefenbach","municipality":{"key":"09275151","name":"Tiefenbach","type":"Kreisangehörige_Gemeinde"},"district":{"key":"09275","name":"Passau","type":"Landkreis"},"federalState":{"key":"09","name":"Bayern"}},{"name":"Bauhofstr.","postalCode":"84184","locality":"Tiefenbach","municipality":{"key":"09274182","name":"Tiefenbach","type":"Kreisangehörige_Gemeinde"},"district":{"key":"09274","name":"Landshut","type":"Landkreis"},"federalState":{"key":"09","name":"Bayern"}},{"name":"Bayerwaldstr.","postalCode":"84184","locality":"Tiefenbach","municipality":{"key":"09274182","name":"Tiefenbach","type":"Kreisangehörige_Gemeinde"},"district":{"key":"09274","name":"Landshut","type":"Landkreis"},"federalState":{"key":"09","name":"Bayern"}},{"name":"Bayerwaldstr.","postalCode":"94113","locality":"Tiefenbach","municipality":{"key":"09275151","name":"Tiefenbach","type":"Kreisangehörige_Gemeinde"},"district":{"key":"09275","name":"Passau","type":"Landkreis"},"federalState":{"key":"09","name":"Bayern"}},{"name":"Bei der Oberwiese","postalCode":"88422","locality":"Tiefenbach","municipality":{"key":"08426118","name":"Tiefenbach","type":"Kreisangehörige_Gemeinde"},"district":{"key":"08426","name":"Biberach","type":"Landkreis"},"federalState":{"key":"08","name":"Baden-Württemberg"}},{"name":"Bergstr.","postalCode":"55743","locality":"Hintertiefenbach","municipality":{"key":"07134041","name":"Hintertiefenbach","type":"Kreisangehörige_Gemeinde"},"district":{"key":"07134","name":"Birkenfeld","type":"Landkreis"},"federalState":{"key":"07","name":"Rheinland-Pfalz"}},{"name":"Bergstr.","postalCode":"56368","locality":"Niedertiefenbach","municipality":{"key":"07141096","name":"Niedertiefenbach","type":"Kreisangehörige_Gemeinde"},"district":{"key":"07141","name":"Rhein-Lahn-Kreis","type":"Landkreis"},"federalState":{"key":"07","name":"Rheinland-Pfalz"}},{"name":"Bergstr.","postalCode":"84184","locality":"Tiefenbach","municipality":{"key":"09274182","name":"Tiefenbach","type":"Kreisangehörige_Gemeinde"},"district":{"key":"09274","name":"Landshut","type":"Landkreis"},"federalState":{"key":"09","name":"Bayern"}},{"name":"Biberacher Str.","postalCode":"88422","locality":"Tiefenbach","municipality":{"key":"08426118","name":"Tiefenbach","type":"Kreisangehörige_Gemeinde"},"district":{"key":"08426","name":"Biberach","type":"Landkreis"},"federalState":{"key":"08","name":"Baden-Württemberg"}},{"name":"Bielerfeld","postalCode":"84184","locality":"Tiefenbach","municipality":{"key":"09274182","name":"Tiefenbach","type":"Kreisangehörige_Gemeinde"},"district":{"key":"09274","name":"Landshut","type":"Landkreis"},"federalState":{"key":"09","name":"Bayern"}},{"name":"Birkenstr.","postalCode":"94113","locality":"Tiefenbach","municipality":{"key":"09275151","name":"Tiefenbach","type":"Kreisangehörige_Gemeinde"},"district":{"key":"09275","name":"Passau","type":"Landkreis"},"federalState":{"key":"09","name":"Bayern"}},{"name":"Birkenweg","postalCode":"88422","locality":"Tiefenbach","municipality":{"key":"08426118","name":"Tiefenbach","type":"Kreisangehörige_Gemeinde"},"district":{"key":"08426","name":"Biberach","type":"Landkreis"},"federalState":{"key":"08","name":"Baden-Württemberg"}},{"name":"Böhmerwaldstr.","postalCode":"93464","locality":"Tiefenbach","municipality":{"key":"09372163","name":"Tiefenbach","type":"Kreisangehörige_Gemeinde"},"district":{"key":"09372","name":"Cham","type":"Landkreis"},"federalState":{"key":"09","name":"Bayern"}},{"name":"Böhmerwaldstr.","postalCode":"94113","locality":"Tiefenbach","municipality":{"key":"09275151","name":"Tiefenbach","type":"Kreisangehörige_Gemeinde"},"district":{"key":"09275","name":"Passau","type":"Landkreis"},"federalState":{"key":"09","name":"Bayern"}},{"name":"Bonhoeffer-Weg","postalCode":"84184","locality":"Tiefenbach","municipality":{"key":"09274182","name":"Tiefenbach","type":"Kreisangehörige_Gemeinde"},"district":{"key":"09274","name":"Landshut","type":"Landkreis"},"federalState":{"key":"09","name":"Bayern"}},{"name":"Bornweg","postalCode":"56357","locality":"Obertiefenbach","municipality":{"key":"07141104","name":"Obertiefenbach","type":"Kreisangehörige_Gemeinde"},"district":{"key":"07141","name":"Rhein-Lahn-Kreis","type":"Landkreis"},"federalState":{"key":"07","name":"Rheinland-Pfalz"}},{"name":"Breitenried","postalCode":"93464","locality":"Tiefenbach","municipality":{"key":"09372163","name":"Tiefenbach","type":"Kreisangehörige_Gemeinde"},"district":{"key":"09372","name":"Cham","type":"Landkreis"},"federalState":{"key":"09","name":"Bayern"}},{"name":"Breitenrieder Str.","postalCode":"93464","locality":"Tiefenbach","municipality":{"key":"09372163","name":"Tiefenbach","type":"Kreisangehörige_Gemeinde"},"district":{"key":"09372","name":"Cham","type":"Landkreis"},"federalState":{"key":"09","name":"Bayern"}},{"name":"Brückenstr.","postalCode":"84184","locality":"Tiefenbach","municipality":{"key":"09274182","name":"Tiefenbach","type":"Kreisangehörige_Gemeinde"},"district":{"key":"09274","name":"Landshut","type":"Landkreis"},"federalState":{"key":"09","name":"Bayern"}},{"name":"Brunnenstr.","postalCode":"84184","locality":"Tiefenbach","municipality":{"key":"09274182","name":"Tiefenbach","type":"Kreisangehörige_Gemeinde"},"district":{"key":"09274","name":"Landshut","type":"Landkreis"},"federalState":{"key":"09","name":"Bayern"}},{"name":"Buchauer Str.","postalCode":"88422","locality":"Tiefenbach","municipality":{"key":"08426118","name":"Tiefenbach","type":"Kreisangehörige_Gemeinde"},"district":{"key":"08426","name":"Biberach","type":"Landkreis"},"federalState":{"key":"08","name":"Baden-Württemberg"}},{"name":"Buchenweg","postalCode":"94113","locality":"Tiefenbach","municipality":{"key":"09275151","name":"Tiefenbach","type":"Kreisangehörige_Gemeinde"},"district":{"key":"09275","name":"Passau","type":"Landkreis"},"federalState":{"key":"09","name":"Bayern"}},{"name":"Carl-Wittmann-Weg","postalCode":"84036","locality":"Landshut","municipality":{"key":"09261000","name":"Landshut","type":"Kreisfreie_Stadt"},"district":{"key":"09261","name":"Landshut","type":"Kreisfreie_Stadt"},"federalState":{"key":"09","name":"Bayern"}},{"name":"Carossaweg","postalCode":"84028","locality":"Landshut","municipality":{"key":"09261000","name":"Landshut","type":"Kreisfreie_Stadt"},"district":{"key":"09261","name":"Landshut","type":"Kreisfreie_Stadt"},"federalState":{"key":"09","name":"Bayern"}},{"name":"Chemnitzer Str.","postalCode":"84036","locality":"Landshut","municipality":{"key":"09261000","name":"Landshut","type":"Kreisfreie_Stadt"},"district":{"key":"09261","name":"Landshut","type":"Kreisfreie_Stadt"},"federalState":{"key":"09","name":"Bayern"}},{"name":"Christoph-Dorner-Str.","postalCode":"84028","locality":"Landshut","municipality":{"key":"09261000","name":"Landshut","type":"Kreisfreie_Stadt"},"district":{"key":"09261","name":"Landshut","type":"Kreisfreie_Stadt"},"federalState":{"key":"09","name":"Bayern"}},{"name":"Clara-Viebig-Str.","postalCode":"84032","locality":"Landshut","municipality":{"key":"09261000","name":"Landshut","type":"Kreisfreie_Stadt"},"district":{"key":"09261","name":"Landshut","type":"Kreisfreie_Stadt"},"federalState":{"key":"09","name":"Bayern"}},{"name":"Clemens-Brentano-Str.","postalCode":"84034","locality":"Landshut","municipality":{"key":"09261000","name":"Landshut","type":"Kreisfreie_Stadt"},"district":{"key":"09261","name":"Landshut","type":"Kreisfreie_Stadt"},"federalState":{"key":"09","name":"Bayern"}},{"name":"Dachsbergstr.","postalCode":"94113","locality":"Tiefenbach","municipality":{"key":"09275151","name":"Tiefenbach","type":"Kreisangehörige_Gemeinde"},"district":{"key":"09275","name":"Passau","type":"Landkreis"},"federalState":{"key":"09","name":"Bayern"}},{"name":"Dietrich-Bonhoefer-Str.","postalCode":"94113","locality":"Tiefenbach","municipality":{"key":"09275151","name":"Tiefenbach","type":"Kreisangehörige_Gemeinde"},"district":{"key":"09275","name":"Passau","type":"Landkreis"},"federalState":{"key":"09","name":"Bayern"}},{"name":"Donaublick","postalCode":"94113","locality":"Tiefenbach","municipality":{"key":"09275151","name":"Tiefenbach","type":"Kreisangehörige_Gemeinde"},"district":{"key":"09275","name":"Passau","type":"Landkreis"},"federalState":{"key":"09","name":"Bayern"}},{"name":"Dorfstr.","postalCode":"84184","locality":"Tiefenbach","municipality":{"key":"09274182","name":"Tiefenbach","type":"Kreisangehörige_Gemeinde"},"district":{"key":"09274","name":"Landshut","type":"Landkreis"},"federalState":{"key":"09","name":"Bayern"}},{"name":"Dorfstr.","postalCode":"93464","locality":"Tiefenbach","municipality":{"key":"09372163","name":"Tiefenbach","type":"Kreisangehörige_Gemeinde"},"district":{"key":"09372","name":"Cham","type":"Landkreis"},"federalState":{"key":"09","name":"Bayern"}},{"name":"Dorfstr.","postalCode":"94113","locality":"Tiefenbach","municipality":{"key":"09275151","name":"Tiefenbach","type":"Kreisangehörige_Gemeinde"},"district":{"key":"09275","name":"Passau","type":"Landkreis"},"federalState":{"key":"09","name":"Bayern"}},{"name":"Dreiburgenstr.","postalCode":"94113","locality":"Tiefenbach","municipality":{"key":"09275151","name":"Tiefenbach","type":"Kreisangehörige_Gemeinde"},"district":{"key":"09275","name":"Passau","type":"Landkreis"},"federalState":{"key":"09","name":"Bayern"}},{"name":"Dreispitz","postalCode":"56368","locality":"Niedertiefenbach","municipality":{"key":"07141096","name":"Niedertiefenbach","type":"Kreisangehörige_Gemeinde"},"district":{"key":"07141","name":"Rhein-Lahn-Kreis","type":"Landkreis"},"federalState":{"key":"07","name":"Rheinland-Pfalz"}},{"name":"Dr.-Jahn-Str.","postalCode":"93464","locality":"Tiefenbach","municipality":{"key":"09372163","name":"Tiefenbach","type":"Kreisangehörige_Gemeinde"},"district":{"key":"09372","name":"Cham","type":"Landkreis"},"federalState":{"key":"09","name":"Bayern"}},{"name":"Dr.-Ludwig-Simmet-Str.","postalCode":"84184","locality":"Tiefenbach","municipality":{"key":"09274182","name":"Tiefenbach","type":"Kreisangehörige_Gemeinde"},"district":{"key":"09274","name":"Landshut","type":"Landkreis"},"federalState":{"key":"09","name":"Bayern"}},{"name":"Drosselweg","postalCode":"84184","locality":"Tiefenbach","municipality":{"key":"09274182","name":"Tiefenbach","type":"Kreisangehörige_Gemeinde"},"district":{"key":"09274","name":"Landshut","type":"Landkreis"},"federalState":{"key":"09","name":"Bayern"}},{"name":"Drosselweg","postalCode":"94113","locality":"Tiefenbach","municipality":{"key":"09275151","name":"Tiefenbach","type":"Kreisangehörige_Gemeinde"},"district":{"key":"09275","name":"Passau","type":"Landkreis"},"federalState":{"key":"09","name":"Bayern"}},{"name":"Ebersbergerstr.","postalCode":"94113","locality":"Tiefenbach","municipality":{"key":"09275151","name":"Tiefenbach","type":"Kreisangehörige_Gemeinde"},"district":{"key":"09275","name":"Passau","type":"Landkreis"},"federalState":{"key":"09","name":"Bayern"}},{"name":"Eichenstr.","postalCode":"84184","locality":"Tiefenbach","municipality":{"key":"09274182","name":"Tiefenbach","type":"Kreisangehörige_Gemeinde"},"district":{"key":"09274","name":"Landshut","type":"Landkreis"},"federalState":{"key":"09","name":"Bayern"}},{"name":"Eichenweg","postalCode":"88422","locality":"Tiefenbach","municipality":{"key":"08426118","name":"Tiefenbach","type":"Kreisangehörige_Gemeinde"},"district":{"key":"08426","name":"Biberach","type":"Landkreis"},"federalState":{"key":"08","name":"Baden-Württemberg"}},{"name":"Eichenweg","postalCode":"94113","locality":"Tiefenbach","municipality":{"key":"09275151","name":"Tiefenbach","type":"Kreisangehörige_Gemeinde"},"district":{"key":"09275","name":"Passau","type":"Landkreis"},"federalState":{"key":"09","name":"Bayern"}},{"name":"Einfeldstr.","postalCode":"84184","locality":"Tiefenbach","municipality":{"key":"09274182","name":"Tiefenbach","type":"Kreisangehörige_Gemeinde"},"district":{"key":"09274","name":"Landshut","type":"Landkreis"},"federalState":{"key":"09","name":"Bayern"}},{"name":"Erlenweg","postalCode":"94113","locality":"Tiefenbach","municipality":{"key":"09275151","name":"Tiefenbach","type":"Kreisangehörige_Gemeinde"},"district":{"key":"09275","name":"Passau","type":"Landkreis"},"federalState":{"key":"09","name":"Bayern"}},{"name":"Eschenstr.","postalCode":"84184","locality":"Tiefenbach","municipality":{"key":"09274182","name":"Tiefenbach","type":"Kreisangehörige_Gemeinde"},"district":{"key":"09274","name":"Landshut","type":"Landkreis"},"federalState":{"key":"09","name":"Bayern"}},{"name":"Eulenweg","postalCode":"94113","locality":"Tiefenbach","municipality":{"key":"09275151","name":"Tiefenbach","type":"Kreisangehörige_Gemeinde"},"district":{"key":"09275","name":"Passau","type":"Landkreis"},"federalState":{"key":"09","name":"Bayern"}},{"name":"Fahrenweiher","postalCode":"93464","locality":"Tiefenbach","municipality":{"key":"09372163","name":"Tiefenbach","type":"Kreisangehörige_Gemeinde"},"district":{"key":"09372","name":"Cham","type":"Landkreis"},"federalState":{"key":"09","name":"Bayern"}},{"name":"Feldstr.","postalCode":"56368","locality":"Niedertiefenbach","municipality":{"key":"07141096","name":"Niedertiefenbach","type":"Kreisangehörige_Gemeinde"},"district":{"key":"07141","name":"Rhein-Lahn-Kreis","type":"Landkreis"},"federalState":{"key":"07","name":"Rheinland-Pfalz"}},{"name":"Feldweg","postalCode":"84184","locality":"Tiefenbach","municipality":{"key":"09274182","name":"Tiefenbach","type":"Kreisangehörige_Gemeinde"},"district":{"key":"09274","name":"Landshut","type":"Landkreis"},"federalState":{"key":"09","name":"Bayern"}},{"name":"Finkenweg","postalCode":"84184","locality":"Tiefenbach","municipality":{"key":"09274182","name":"Tiefenbach","type":"Kreisangehörige_Gemeinde"},"district":{"key":"09274","name":"Landshut","type":"Landkreis"},"federalState":{"key":"09","name":"Bayern"}},{"name":"Finkenweg","postalCode":"88422","locality":"Tiefenbach","municipality":{"key":"08426118","name":"Tiefenbach","type":"Kreisangehörige_Gemeinde"},"district":{"key":"08426","name":"Biberach","type":"Landkreis"},"federalState":{"key":"08","name":"Baden-Württemberg"}},{"name":"Finkenweg","postalCode":"94113","locality":"Tiefenbach","municipality":{"key":"09275151","name":"Tiefenbach","type":"Kreisangehörige_Gemeinde"},"district":{"key":"09275","name":"Passau","type":"Landkreis"},"federalState":{"key":"09","name":"Bayern"}},{"name":"Fliederstr.","postalCode":"84184","locality":"Tiefenbach","municipality":{"key":"09274182","name":"Tiefenbach","type":"Kreisangehörige_Gemeinde"},"district":{"key":"09274","name":"Landshut","type":"Landkreis"},"federalState":{"key":"09","name":"Bayern"}},{"name":"Flurstr.","postalCode":"67752","locality":"Oberweiler-Tiefenbach","municipality":{"key":"07336073","name":"Oberweiler-Tiefenbach","type":"Kreisangehörige_Gemeinde"},"district":{"key":"07336","name":"Kusel","type":"Landkreis"},"federalState":{"key":"07","name":"Rheinland-Pfalz"}},{"name":"Flurstr.","postalCode":"84184","locality":"Tiefenbach","municipality":{"key":"09274182","name":"Tiefenbach","type":"Kreisangehörige_Gemeinde"},"district":{"key":"09274","name":"Landshut","type":"Landkreis"},"federalState":{"key":"09","name":"Bayern"}},{"name":"Forellenweg","postalCode":"84184","locality":"Tiefenbach","municipality":{"key":"09274182","name":"Tiefenbach","type":"Kreisangehörige_Gemeinde"},"district":{"key":"09274","name":"Landshut","type":"Landkreis"},"federalState":{"key":"09","name":"Bayern"}},{"name":"Friedhofsstr.","postalCode":"56357","locality":"Obertiefenbach","municipality":{"key":"07141104","name":"Obertiefenbach","type":"Kreisangehörige_Gemeinde"},"district":{"key":"07141","name":"Rhein-Lahn-Kreis","type":"Landkreis"},"federalState":{"key":"07","name":"Rheinland-Pfalz"}},{"name":"Friedhofstr.","postalCode":"55471","locality":"Tiefenbach","municipality":{"key":"07140150","name":"Tiefenbach","type":"Kreisangehörige_Gemeinde"},"district":{"key":"07140","name":"Rhein-Hunsrück-Kreis","type":"Landkreis"},"federalState":{"key":"07","name":"Rheinland-Pfalz"}},{"name":"Galgenberg","postalCode":"93464","locality":"Tiefenbach","municipality":{"key":"09372163","name":"Tiefenbach","type":"Kreisangehörige_Gemeinde"},"district":{"key":"09372","name":"Cham","type":"Landkreis"},"federalState":{"key":"09","name":"Bayern"}},{"name":"Galgenfeldweg","postalCode":"93464","locality":"Tiefenbach","municipality":{"key":"09372163","name":"Tiefenbach","type":"Kreisangehörige_Gemeinde"},"district":{"key":"09372","name":"Cham","type":"Landkreis"},"federalState":{"key":"09","name":"Bayern"}},{"name":"Gartenstr.","postalCode":"56357","locality":"Obertiefenbach","municipality":{"key":"07141104","name":"Obertiefenbach","type":"Kreisangehörige_Gemeinde"},"district":{"key":"07141","name":"Rhein-Lahn-Kreis","type":"Landkreis"},"federalState":{"key":"07","name":"Rheinland-Pfalz"}},{"name":"Gartenstr.","postalCode":"84184","locality":"Tiefenbach","municipality":{"key":"09274182","name":"Tiefenbach","type":"Kreisangehörige_Gemeinde"},"district":{"key":"09274","name":"Landshut","type":"Landkreis"},"federalState":{"key":"09","name":"Bayern"}},{"name":"Georg-Fraunhofer-Str.","postalCode":"94113","locality":"Tiefenbach","municipality":{"key":"09275151","name":"Tiefenbach","type":"Kreisangehörige_Gemeinde"},"district":{"key":"09275","name":"Passau","type":"Landkreis"},"federalState":{"key":"09","name":"Bayern"}},{"name":"Georg-Kölbl-Steg","postalCode":"94113","locality":"Tiefenbach","municipality":{"key":"09275151","name":"Tiefenbach","type":"Kreisangehörige_Gemeinde"},"district":{"key":"09275","name":"Passau","type":"Landkreis"},"federalState":{"key":"09","name":"Bayern"}},{"name":"Georg-Kühberger-Str.","postalCode":"94113","locality":"Tiefenbach","municipality":{"key":"09275151","name":"Tiefenbach","type":"Kreisangehörige_Gemeinde"},"district":{"key":"09275","name":"Passau","type":"Landkreis"},"federalState":{"key":"09","name":"Bayern"}},{"name":"Glaserbühl","postalCode":"93464","locality":"Tiefenbach","municipality":{"key":"09372163","name":"Tiefenbach","type":"Kreisangehörige_Gemeinde"},"district":{"key":"09372","name":"Cham","type":"Landkreis"},"federalState":{"key":"09","name":"Bayern"}},{"name":"Gleißenbach","postalCode":"84184","locality":"Tiefenbach","municipality":{"key":"09274182","name":"Tiefenbach","type":"Kreisangehörige_Gemeinde"},"district":{"key":"09274","name":"Landshut","type":"Landkreis"},"federalState":{"key":"09","name":"Bayern"}},{"name":"Goldinger Str.","postalCode":"84184","locality":"Tiefenbach","municipality":{"key":"09274182","name":"Tiefenbach","type":"Kreisangehörige_Gemeinde"},"district":{"key":"09274","name":"Landshut","type":"Landkreis"},"federalState":{"key":"09","name":"Bayern"}},{"name":"Gottinger Str.","postalCode":"94113","locality":"Tiefenbach","municipality":{"key":"09275151","name":"Tiefenbach","type":"Kreisangehörige_Gemeinde"},"district":{"key":"09275","name":"Passau","type":"Landkreis"},"federalState":{"key":"09","name":"Bayern"}},{"name":"Gramming","postalCode":"94113","locality":"Tiefenbach","municipality":{"key":"09275151","name":"Tiefenbach","type":"Kreisangehörige_Gemeinde"},"district":{"key":"09275","name":"Passau","type":"Landkreis"},"federalState":{"key":"09","name":"Bayern"}},{"name":"Gustav-Kapaun-Str.","postalCode":"94113","locality":"Tiefenbach","municipality":{"key":"09275151","name":"Tiefenbach","type":"Kreisangehörige_Gemeinde"},"district":{"key":"09275","name":"Passau","type":"Landkreis"},"federalState":{"key":"09","name":"Bayern"}},{"name":"Gutenbergstr.","postalCode":"84184","locality":"Tiefenbach","municipality":{"key":"09274182","name":"Tiefenbach","type":"Kreisangehörige_Gemeinde"},"district":{"key":"09274","name":"Landshut","type":"Landkreis"},"federalState":{"key":"09","name":"Bayern"}},{"name":"Gütersdorf","postalCode":"84184","locality":"Tiefenbach","municipality":{"key":"09274182","name":"Tiefenbach","type":"Kreisangehörige_Gemeinde"},"district":{"key":"09274","name":"Landshut","type":"Landkreis"},"federalState":{"key":"09","name":"Bayern"}},{"name":"Hachelstuhler Str.","postalCode":"84184","locality":"Tiefenbach","municipality":{"key":"09274182","name":"Tiefenbach","type":"Kreisangehörige_Gemeinde"},"district":{"key":"09274","name":"Landshut","type":"Landkreis"},"federalState":{"key":"09","name":"Bayern"}},{"name":"Haldenweg","postalCode":"88422","locality":"Tiefenbach","municipality":{"key":"08426118","name":"Tiefenbach","type":"Kreisangehörige_Gemeinde"},"district":{"key":"08426","name":"Biberach","type":"Landkreis"},"federalState":{"key":"08","name":"Baden-Württemberg"}},{"name":"Hammer","postalCode":"93464","locality":"Tiefenbach","municipality":{"key":"09372163","name":"Tiefenbach","type":"Kreisangehörige_Gemeinde"},"district":{"key":"09372","name":"Cham","type":"Landkreis"},"federalState":{"key":"09","name":"Bayern"}},{"name":"Hammergraben","postalCode":"93464","locality":"Tiefenbach","municipality":{"key":"09372163","name":"Tiefenbach","type":"Kreisangehörige_Gemeinde"},"district":{"key":"09372","name":"Cham","type":"Landkreis"},"federalState":{"key":"09","name":"Bayern"}},{"name":"Hangleite","postalCode":"84184","locality":"Tiefenbach","municipality":{"key":"09274182","name":"Tiefenbach","type":"Kreisangehörige_Gemeinde"},"district":{"key":"09274","name":"Landshut","type":"Landkreis"},"federalState":{"key":"09","name":"Bayern"}},{"name":"Hannesried","postalCode":"93464","locality":"Tiefenbach","municipality":{"key":"09372163","name":"Tiefenbach","type":"Kreisangehörige_Gemeinde"},"district":{"key":"09372","name":"Cham","type":"Landkreis"},"federalState":{"key":"09","name":"Bayern"}},{"name":"Hauptstr.","postalCode":"55471","locality":"Tiefenbach","municipality":{"key":"07140150","name":"Tiefenbach","type":"Kreisangehörige_Gemeinde"},"district":{"key":"07140","name":"Rhein-Hunsrück-Kreis","type":"Landkreis"},"federalState":{"key":"07","name":"Rheinland-Pfalz"}},{"name":"Hauptstr.","postalCode":"55743","locality":"Hintertiefenbach","municipality":{"key":"07134041","name":"Hintertiefenbach","type":"Kreisangehörige_Gemeinde"},"district":{"key":"07134","name":"Birkenfeld","type":"Landkreis"},"federalState":{"key":"07","name":"Rheinland-Pfalz"}},{"name":"Hauptstr.","postalCode":"56368","locality":"Niedertiefenbach","municipality":{"key":"07141096","name":"Niedertiefenbach","type":"Kreisangehörige_Gemeinde"},"district":{"key":"07141","name":"Rhein-Lahn-Kreis","type":"Landkreis"},"federalState":{"key":"07","name":"Rheinland-Pfalz"}},{"name":"Hauptstr.","postalCode":"67752","locality":"Oberweiler-Tiefenbach","municipality":{"key":"07336073","name":"Oberweiler-Tiefenbach","type":"Kreisangehörige_Gemeinde"},"district":{"key":"07336","name":"Kusel","type":"Landkreis"},"federalState":{"key":"07","name":"Rheinland-Pfalz"}},{"name":"Hauptstr.","postalCode":"84184","locality":"Tiefenbach","municipality":{"key":"09274182","name":"Tiefenbach","type":"Kreisangehörige_Gemeinde"},"district":{"key":"09274","name":"Landshut","type":"Landkreis"},"federalState":{"key":"09","name":"Bayern"}},{"name":"Hauptstr.","postalCode":"93464","locality":"Tiefenbach","municipality":{"key":"09372163","name":"Tiefenbach","type":"Kreisangehörige_Gemeinde"},"district":{"key":"09372","name":"Cham","type":"Landkreis"},"federalState":{"key":"09","name":"Bayern"}},{"name":"Heidenkamer Feldweg","postalCode":"84184","locality":"Tiefenbach","municipality":{"key":"09274182","name":"Tiefenbach","type":"Kreisangehörige_Gemeinde"},"district":{"key":"09274","name":"Landshut","type":"Landkreis"},"federalState":{"key":"09","name":"Bayern"}},{"name":"Heidenkamer Str.","postalCode":"84184","locality":"Tiefenbach","municipality":{"key":"09274182","name":"Tiefenbach","type":"Kreisangehörige_Gemeinde"},"district":{"key":"09274","name":"Landshut","type":"Landkreis"},"federalState":{"key":"09","name":"Bayern"}},{"name":"Heinzelwinklstr.","postalCode":"84184","locality":"Tiefenbach","municipality":{"key":"09274182","name":"Tiefenbach","type":"Kreisangehörige_Gemeinde"},"district":{"key":"09274","name":"Landshut","type":"Landkreis"},"federalState":{"key":"09","name":"Bayern"}},{"name":"Hindlbachstr.","postalCode":"94113","locality":"Tiefenbach","municipality":{"key":"09275151","name":"Tiefenbach","type":"Kreisangehörige_Gemeinde"},"district":{"key":"09275","name":"Passau","type":"Landkreis"},"federalState":{"key":"09","name":"Bayern"}},{"name":"Hochfeld","postalCode":"84184","locality":"Tiefenbach","municipality":{"key":"09274182","name":"Tiefenbach","type":"Kreisangehörige_Gemeinde"},"district":{"key":"09274","name":"Landshut","type":"Landkreis"},"federalState":{"key":"09","name":"Bayern"}},{"name":"Hochholzweg","postalCode":"94113","locality":"Tiefenbach","municipality":{"key":"09275151","name":"Tiefenbach","type":"Kreisangehörige_Gemeinde"},"district":{"key":"09275","name":"Passau","type":"Landkreis"},"federalState":{"key":"09","name":"Bayern"}},{"name":"Hochstiftsweg","postalCode":"94113","locality":"Tiefenbach","municipality":{"key":"09275151","name":"Tiefenbach","type":"Kreisangehörige_Gemeinde"},"district":{"key":"09275","name":"Passau","type":"Landkreis"},"federalState":{"key":"09","name":"Bayern"}},{"name":"Hochstr.","postalCode":"94113","locality":"Tiefenbach","municipality":{"key":"09275151","name":"Tiefenbach","type":"Kreisangehörige_Gemeinde"},"district":{"key":"09275","name":"Passau","type":"Landkreis"},"federalState":{"key":"09","name":"Bayern"}},{"name":"Hofer Str.","postalCode":"94113","locality":"Tiefenbach","municipality":{"key":"09275151","name":"Tiefenbach","type":"Kreisangehörige_Gemeinde"},"district":{"key":"09275","name":"Passau","type":"Landkreis"},"federalState":{"key":"09","name":"Bayern"}},{"name":"Hoffelder Str.","postalCode":"93464","locality":"Tiefenbach","municipality":{"key":"09372163","name":"Tiefenbach","type":"Kreisangehörige_Gemeinde"},"district":{"key":"09372","name":"Cham","type":"Landkreis"},"federalState":{"key":"09","name":"Bayern"}},{"name":"Hofmarkstr.","postalCode":"94113","locality":"Tiefenbach","municipality":{"key":"09275151","name":"Tiefenbach","type":"Kreisangehörige_Gemeinde"},"district":{"key":"09275","name":"Passau","type":"Landkreis"},"federalState":{"key":"09","name":"Bayern"}},{"name":"Hopfenfeld","postalCode":"84184","locality":"Tiefenbach","municipality":{"key":"09274182","name":"Tiefenbach","type":"Kreisangehörige_Gemeinde"},"district":{"key":"09274","name":"Landshut","type":"Landkreis"},"federalState":{"key":"09","name":"Bayern"}},{"name":"Hütgasse","postalCode":"93464","locality":"Tiefenbach","municipality":{"key":"09372163","name":"Tiefenbach","type":"Kreisangehörige_Gemeinde"},"district":{"key":"09372","name":"Cham","type":"Landkreis"},"federalState":{"key":"09","name":"Bayern"}},{"name":"Im Baindt","postalCode":"88422","locality":"Tiefenbach","municipality":{"key":"08426118","name":"Tiefenbach","type":"Kreisangehörige_Gemeinde"},"district":{"key":"08426","name":"Biberach","type":"Landkreis"},"federalState":{"key":"08","name":"Baden-Württemberg"}},{"name":"Im Bodenklang","postalCode":"84184","locality":"Tiefenbach","municipality":{"key":"09274182","name":"Tiefenbach","type":"Kreisangehörige_Gemeinde"},"district":{"key":"09274","name":"Landshut","type":"Landkreis"},"federalState":{"key":"09","name":"Bayern"}},{"name":"Im Eck","postalCode":"67752","locality":"Oberweiler-Tiefenbach","municipality":{"key":"07336073","name":"Oberweiler-Tiefenbach","type":"Kreisangehörige_Gemeinde"},"district":{"key":"07336","name":"Kusel","type":"Landkreis"},"federalState":{"key":"07","name":"Rheinland-Pfalz"}},{"name":"Im Etter","postalCode":"88422","locality":"Tiefenbach","municipality":{"key":"08426118","name":"Tiefenbach","type":"Kreisangehörige_Gemeinde"},"district":{"key":"08426","name":"Biberach","type":"Landkreis"},"federalState":{"key":"08","name":"Baden-Württemberg"}},{"name":"Im Gründchen","postalCode":"55471","locality":"Tiefenbach","municipality":{"key":"07140150","name":"Tiefenbach","type":"Kreisangehörige_Gemeinde"},"district":{"key":"07140","name":"Rhein-Hunsrück-Kreis","type":"Landkreis"},"federalState":{"key":"07","name":"Rheinland-Pfalz"}},{"name":"Im Kappesgarten","postalCode":"56357","locality":"Obertiefenbach","municipality":{"key":"07141104","name":"Obertiefenbach","type":"Kreisangehörige_Gemeinde"},"district":{"key":"07141","name":"Rhein-Lahn-Kreis","type":"Landkreis"},"federalState":{"key":"07","name":"Rheinland-Pfalz"}},{"name":"Im Mohrfeld","postalCode":"84184","locality":"Tiefenbach","municipality":{"key":"09274182","name":"Tiefenbach","type":"Kreisangehörige_Gemeinde"},"district":{"key":"09274","name":"Landshut","type":"Landkreis"},"federalState":{"key":"09","name":"Bayern"}},{"name":"Im Uibet","postalCode":"88422","locality":"Tiefenbach","municipality":{"key":"08426118","name":"Tiefenbach","type":"Kreisangehörige_Gemeinde"},"district":{"key":"08426","name":"Biberach","type":"Landkreis"},"federalState":{"key":"08","name":"Baden-Württemberg"}},{"name":"Im Winkel","postalCode":"88422","locality":"Tiefenbach","municipality":{"key":"08426118","name":"Tiefenbach","type":"Kreisangehörige_Gemeinde"},"district":{"key":"08426","name":"Biberach","type":"Landkreis"},"federalState":{"key":"08","name":"Baden-Württemberg"}},{"name":"In der Dell","postalCode":"55743","locality":"Hintertiefenbach","municipality":{"key":"07134041","name":"Hintertiefenbach","type":"Kreisangehörige_Gemeinde"},"district":{"key":"07134","name":"Birkenfeld","type":"Landkreis"},"federalState":{"key":"07","name":"Rheinland-Pfalz"}},{"name":"In der Hohl","postalCode":"56368","locality":"Niedertiefenbach","municipality":{"key":"07141096","name":"Niedertiefenbach","type":"Kreisangehörige_Gemeinde"},"district":{"key":"07141","name":"Rhein-Lahn-Kreis","type":"Landkreis"},"federalState":{"key":"07","name":"Rheinland-Pfalz"}},{"name":"In der Krei","postalCode":"56357","locality":"Obertiefenbach","municipality":{"key":"07141104","name":"Obertiefenbach","type":"Kreisangehörige_Gemeinde"},"district":{"key":"07141","name":"Rhein-Lahn-Kreis","type":"Landkreis"},"federalState":{"key":"07","name":"Rheinland-Pfalz"}},{"name":"In der Point","postalCode":"84184","locality":"Tiefenbach","municipality":{"key":"09274182","name":"Tiefenbach","type":"Kreisangehörige_Gemeinde"},"district":{"key":"09274","name":"Landshut","type":"Landkreis"},"federalState":{"key":"09","name":"Bayern"}},{"name":"In der Vorstadt","postalCode":"56357","locality":"Obertiefenbach","municipality":{"key":"07141104","name":"Obertiefenbach","type":"Kreisangehörige_Gemeinde"},"district":{"key":"07141","name":"Rhein-Lahn-Kreis","type":"Landkreis"},"federalState":{"key":"07","name":"Rheinland-Pfalz"}},{"name":"In Langesbach","postalCode":"55743","locality":"Hintertiefenbach","municipality":{"key":"07134041","name":"Hintertiefenbach","type":"Kreisangehörige_Gemeinde"},"district":{"key":"07134","name":"Birkenfeld","type":"Landkreis"},"federalState":{"key":"07","name":"Rheinland-Pfalz"}},{"name":"Irlach","postalCode":"93464","locality":"Tiefenbach","municipality":{"key":"09372163","name":"Tiefenbach","type":"Kreisangehörige_Gemeinde"},"district":{"key":"09372","name":"Cham","type":"Landkreis"},"federalState":{"key":"09","name":"Bayern"}},{"name":"Irlacher Str.","postalCode":"93464","locality":"Tiefenbach","municipality":{"key":"09372163","name":"Tiefenbach","type":"Kreisangehörige_Gemeinde"},"district":{"key":"09372","name":"Cham","type":"Landkreis"},"federalState":{"key":"09","name":"Bayern"}},{"name":"Jacking","postalCode":"94113","locality":"Tiefenbach","municipality":{"key":"09275151","name":"Tiefenbach","type":"Kreisangehörige_Gemeinde"},"district":{"key":"09275","name":"Passau","type":"Landkreis"},"federalState":{"key":"09","name":"Bayern"}},{"name":"Jägerleiten","postalCode":"93464","locality":"Tiefenbach","municipality":{"key":"09372163","name":"Tiefenbach","type":"Kreisangehörige_Gemeinde"},"district":{"key":"09372","name":"Cham","type":"Landkreis"},"federalState":{"key":"09","name":"Bayern"}},{"name":"Josef-Erner-Str.","postalCode":"94113","locality":"Tiefenbach","municipality":{"key":"09275151","name":"Tiefenbach","type":"Kreisangehörige_Gemeinde"},"district":{"key":"09275","name":"Passau","type":"Landkreis"},"federalState":{"key":"09","name":"Bayern"}},{"name":"Kafferdinger Str.","postalCode":"94113","locality":"Tiefenbach","municipality":{"key":"09275151","name":"Tiefenbach","type":"Kreisangehörige_Gemeinde"},"district":{"key":"09275","name":"Passau","type":"Landkreis"},"federalState":{"key":"09","name":"Bayern"}},{"name":"Kaiserweg","postalCode":"94113","locality":"Tiefenbach","municipality":{"key":"09275151","name":"Tiefenbach","type":"Kreisangehörige_Gemeinde"},"district":{"key":"09275","name":"Passau","type":"Landkreis"},"federalState":{"key":"09","name":"Bayern"}},{"name":"Kapellenweg","postalCode":"93464","locality":"Tiefenbach","municipality":{"key":"09372163","name":"Tiefenbach","type":"Kreisangehörige_Gemeinde"},"district":{"key":"09372","name":"Cham","type":"Landkreis"},"federalState":{"key":"09","name":"Bayern"}},{"name":"Kastanienweg","postalCode":"84184","locality":"Tiefenbach","municipality":{"key":"09274182","name":"Tiefenbach","type":"Kreisangehörige_Gemeinde"},"district":{"key":"09274","name":"Landshut","type":"Landkreis"},"federalState":{"key":"09","name":"Bayern"}},{"name":"Kiefernweg","postalCode":"94113","locality":"Tiefenbach","municipality":{"key":"09275151","name":"Tiefenbach","type":"Kreisangehörige_Gemeinde"},"district":{"key":"09275","name":"Passau","type":"Landkreis"},"federalState":{"key":"09","name":"Bayern"}},{"name":"Kiesweg","postalCode":"94113","locality":"Tiefenbach","municipality":{"key":"09275151","name":"Tiefenbach","type":"Kreisangehörige_Gemeinde"},"district":{"key":"09275","name":"Passau","type":"Landkreis"},"federalState":{"key":"09","name":"Bayern"}},{"name":"Kirchberger Str.","postalCode":"94113","locality":"Tiefenbach","municipality":{"key":"09275151","name":"Tiefenbach","type":"Kreisangehörige_Gemeinde"},"district":{"key":"09275","name":"Passau","type":"Landkreis"},"federalState":{"key":"09","name":"Bayern"}},{"name":"Kirchenstr.","postalCode":"67752","locality":"Oberweiler-Tiefenbach","municipality":{"key":"07336073","name":"Oberweiler-Tiefenbach","type":"Kreisangehörige_Gemeinde"},"district":{"key":"07336","name":"Kusel","type":"Landkreis"},"federalState":{"key":"07","name":"Rheinland-Pfalz"}},{"name":"Kirchenstr.","postalCode":"84184","locality":"Tiefenbach","municipality":{"key":"09274182","name":"Tiefenbach","type":"Kreisangehörige_Gemeinde"},"district":{"key":"09274","name":"Landshut","type":"Landkreis"},"federalState":{"key":"09","name":"Bayern"}},{"name":"Kirchenweg","postalCode":"94113","locality":"Tiefenbach","municipality":{"key":"09275151","name":"Tiefenbach","type":"Kreisangehörige_Gemeinde"},"district":{"key":"09275","name":"Passau","type":"Landkreis"},"federalState":{"key":"09","name":"Bayern"}},{"name":"Kirchstr.","postalCode":"55471","locality":"Tiefenbach","municipality":{"key":"07140150","name":"Tiefenbach","type":"Kreisangehörige_Gemeinde"},"district":{"key":"07140","name":"Rhein-Hunsrück-Kreis","type":"Landkreis"},"federalState":{"key":"07","name":"Rheinland-Pfalz"}},{"name":"Kirchstr.","postalCode":"56368","locality":"Niedertiefenbach","municipality":{"key":"07141096","name":"Niedertiefenbach","type":"Kreisangehörige_Gemeinde"},"district":{"key":"07141","name":"Rhein-Lahn-Kreis","type":"Landkreis"},"federalState":{"key":"07","name":"Rheinland-Pfalz"}},{"name":"Kirchweg","postalCode":"93464","locality":"Tiefenbach","municipality":{"key":"09372163","name":"Tiefenbach","type":"Kreisangehörige_Gemeinde"},"district":{"key":"09372","name":"Cham","type":"Landkreis"},"federalState":{"key":"09","name":"Bayern"}},{"name":"Kornweg","postalCode":"88422","locality":"Tiefenbach","municipality":{"key":"08426118","name":"Tiefenbach","type":"Kreisangehörige_Gemeinde"},"district":{"key":"08426","name":"Biberach","type":"Landkreis"},"federalState":{"key":"08","name":"Baden-Württemberg"}},{"name":"Kramerweg","postalCode":"94113","locality":"Tiefenbach","municipality":{"key":"09275151","name":"Tiefenbach","type":"Kreisangehörige_Gemeinde"},"district":{"key":"09275","name":"Passau","type":"Landkreis"},"federalState":{"key":"09","name":"Bayern"}},{"name":"Krautlandweg","postalCode":"88422","locality":"Tiefenbach","municipality":{"key":"08426118","name":"Tiefenbach","type":"Kreisangehörige_Gemeinde"},"district":{"key":"08426","name":"Biberach","type":"Landkreis"},"federalState":{"key":"08","name":"Baden-Württemberg"}},{"name":"Kühberg","postalCode":"93464","locality":"Tiefenbach","municipality":{"key":"09372163","name":"Tiefenbach","type":"Kreisangehörige_Gemeinde"},"district":{"key":"09372","name":"Cham","type":"Landkreis"},"federalState":{"key":"09","name":"Bayern"}},{"name":"Kusarn","postalCode":"93464","locality":"Tiefenbach","municipality":{"key":"09372163","name":"Tiefenbach","type":"Kreisangehörige_Gemeinde"},"district":{"key":"09372","name":"Cham","type":"Landkreis"},"federalState":{"key":"09","name":"Bayern"}},{"name":"Landshuter Str.","postalCode":"84184","locality":"Tiefenbach","municipality":{"key":"09274182","name":"Tiefenbach","type":"Kreisangehörige_Gemeinde"},"district":{"key":"09274","name":"Landshut","type":"Landkreis"},"federalState":{"key":"09","name":"Bayern"}},{"name":"Lärchenweg","postalCode":"94113","locality":"Tiefenbach","municipality":{"key":"09275151","name":"Tiefenbach","type":"Kreisangehörige_Gemeinde"},"district":{"key":"09275","name":"Passau","type":"Landkreis"},"federalState":{"key":"09","name":"Bayern"}},{"name":"Lerchenweg","postalCode":"88422","locality":"Tiefenbach","municipality":{"key":"08426118","name":"Tiefenbach","type":"Kreisangehörige_Gemeinde"},"district":{"key":"08426","name":"Biberach","type":"Landkreis"},"federalState":{"key":"08","name":"Baden-Württemberg"}},{"name":"Lindenbergweg","postalCode":"94113","locality":"Tiefenbach","municipality":{"key":"09275151","name":"Tiefenbach","type":"Kreisangehörige_Gemeinde"},"district":{"key":"09275","name":"Passau","type":"Landkreis"},"federalState":{"key":"09","name":"Bayern"}},{"name":"Lindenstr.","postalCode":"56357","locality":"Obertiefenbach","municipality":{"key":"07141104","name":"Obertiefenbach","type":"Kreisangehörige_Gemeinde"},"district":{"key":"07141","name":"Rhein-Lahn-Kreis","type":"Landkreis"},"federalState":{"key":"07","name":"Rheinland-Pfalz"}},{"name":"Lindenstr.","postalCode":"84184","locality":"Tiefenbach","municipality":{"key":"09274182","name":"Tiefenbach","type":"Kreisangehörige_Gemeinde"},"district":{"key":"09274","name":"Landshut","type":"Landkreis"},"federalState":{"key":"09","name":"Bayern"}},{"name":"Linsengraben","postalCode":"84184","locality":"Tiefenbach","municipality":{"key":"09274182","name":"Tiefenbach","type":"Kreisangehörige_Gemeinde"},"district":{"key":"09274","name":"Landshut","type":"Landkreis"},"federalState":{"key":"09","name":"Bayern"}},{"name":"Lohwaldstr.","postalCode":"94113","locality":"Tiefenbach","municipality":{"key":"09275151","name":"Tiefenbach","type":"Kreisangehörige_Gemeinde"},"district":{"key":"09275","name":"Passau","type":"Landkreis"},"federalState":{"key":"09","name":"Bayern"}},{"name":"Maria-Stockbauer-Weg","postalCode":"94113","locality":"Tiefenbach","municipality":{"key":"09275151","name":"Tiefenbach","type":"Kreisangehörige_Gemeinde"},"district":{"key":"09275","name":"Passau","type":"Landkreis"},"federalState":{"key":"09","name":"Bayern"}},{"name":"Mausmühle","postalCode":"94113","locality":"Tiefenbach","municipality":{"key":"09275151","name":"Tiefenbach","type":"Kreisangehörige_Gemeinde"},"district":{"key":"09275","name":"Passau","type":"Landkreis"},"federalState":{"key":"09","name":"Bayern"}},{"name":"Meisenweg","postalCode":"84184","locality":"Tiefenbach","municipality":{"key":"09274182","name":"Tiefenbach","type":"Kreisangehörige_Gemeinde"},"district":{"key":"09274","name":"Landshut","type":"Landkreis"},"federalState":{"key":"09","name":"Bayern"}},{"name":"Mühlbergstr.","postalCode":"94113","locality":"Tiefenbach","municipality":{"key":"09275151","name":"Tiefenbach","type":"Kreisangehörige_Gemeinde"},"district":{"key":"09275","name":"Passau","type":"Landkreis"},"federalState":{"key":"09","name":"Bayern"}},{"name":"Mühlenweg","postalCode":"56357","locality":"Obertiefenbach","municipality":{"key":"07141104","name":"Obertiefenbach","type":"Kreisangehörige_Gemeinde"},"district":{"key":"07141","name":"Rhein-Lahn-Kreis","type":"Landkreis"},"federalState":{"key":"07","name":"Rheinland-Pfalz"}},{"name":"Mühlstr.","postalCode":"56368","locality":"Niedertiefenbach","municipality":{"key":"07141096","name":"Niedertiefenbach","type":"Kreisangehörige_Gemeinde"},"district":{"key":"07141","name":"Rhein-Lahn-Kreis","type":"Landkreis"},"federalState":{"key":"07","name":"Rheinland-Pfalz"}},{"name":"Mühlweg","postalCode":"84184","locality":"Tiefenbach","municipality":{"key":"09274182","name":"Tiefenbach","type":"Kreisangehörige_Gemeinde"},"district":{"key":"09274","name":"Landshut","type":"Landkreis"},"federalState":{"key":"09","name":"Bayern"}},{"name":"Nibelungenstr.","postalCode":"94113","locality":"Tiefenbach","municipality":{"key":"09275151","name":"Tiefenbach","type":"Kreisangehörige_Gemeinde"},"district":{"key":"09275","name":"Passau","type":"Landkreis"},"federalState":{"key":"09","name":"Bayern"}},{"name":"Oberbachham","postalCode":"84184","locality":"Tiefenbach","municipality":{"key":"09274182","name":"Tiefenbach","type":"Kreisangehörige_Gemeinde"},"district":{"key":"09274","name":"Landshut","type":"Landkreis"},"federalState":{"key":"09","name":"Bayern"}},{"name":"Obere Dell","postalCode":"55743","locality":"Hintertiefenbach","municipality":{"key":"07134041","name":"Hintertiefenbach","type":"Kreisangehörige_Gemeinde"},"district":{"key":"07134","name":"Birkenfeld","type":"Landkreis"},"federalState":{"key":"07","name":"Rheinland-Pfalz"}},{"name":"Ortsstr.","postalCode":"84184","locality":"Tiefenbach","municipality":{"key":"09274182","name":"Tiefenbach","type":"Kreisangehörige_Gemeinde"},"district":{"key":"09274","name":"Landshut","type":"Landkreis"},"federalState":{"key":"09","name":"Bayern"}},{"name":"Passauer Str.","postalCode":"94113","locality":"Tiefenbach","municipality":{"key":"09275151","name":"Tiefenbach","type":"Kreisangehörige_Gemeinde"},"district":{"key":"09275","name":"Passau","type":"Landkreis"},"federalState":{"key":"09","name":"Bayern"}},{"name":"Perlbachstr.","postalCode":"93464","locality":"Tiefenbach","municipality":{"key":"09372163","name":"Tiefenbach","type":"Kreisangehörige_Gemeinde"},"district":{"key":"09372","name":"Cham","type":"Landkreis"},"federalState":{"key":"09","name":"Bayern"}},{"name":"Perlthal","postalCode":"93464","locality":"Tiefenbach","municipality":{"key":"09372163","name":"Tiefenbach","type":"Kreisangehörige_Gemeinde"},"district":{"key":"09372","name":"Cham","type":"Landkreis"},"federalState":{"key":"09","name":"Bayern"}},{"name":"Petermuellerweg","postalCode":"94113","locality":"Tiefenbach","municipality":{"key":"09275151","name":"Tiefenbach","type":"Kreisangehörige_Gemeinde"},"district":{"key":"09275","name":"Passau","type":"Landkreis"},"federalState":{"key":"09","name":"Bayern"}},{"name":"Pfannenstiel","postalCode":"84184","locality":"Tiefenbach","municipality":{"key":"09274182","name":"Tiefenbach","type":"Kreisangehörige_Gemeinde"},"district":{"key":"09274","name":"Landshut","type":"Landkreis"},"federalState":{"key":"09","name":"Bayern"}},{"name":"Pfarrer-Böck-Str.","postalCode":"94113","locality":"Tiefenbach","municipality":{"key":"09275151","name":"Tiefenbach","type":"Kreisangehörige_Gemeinde"},"district":{"key":"09275","name":"Passau","type":"Landkreis"},"federalState":{"key":"09","name":"Bayern"}},{"name":"Pfarrer-Gantenhammer-Ring","postalCode":"84184","locality":"Tiefenbach","municipality":{"key":"09274182","name":"Tiefenbach","type":"Kreisangehörige_Gemeinde"},"district":{"key":"09274","name":"Landshut","type":"Landkreis"},"federalState":{"key":"09","name":"Bayern"}},{"name":"Pfarrer Kroll-Str.","postalCode":"94113","locality":"Tiefenbach","municipality":{"key":"09275151","name":"Tiefenbach","type":"Kreisangehörige_Gemeinde"},"district":{"key":"09275","name":"Passau","type":"Landkreis"},"federalState":{"key":"09","name":"Bayern"}},{"name":"Pfarrer-Müllbauer-Str.","postalCode":"93464","locality":"Tiefenbach","municipality":{"key":"09372163","name":"Tiefenbach","type":"Kreisangehörige_Gemeinde"},"district":{"key":"09372","name":"Cham","type":"Landkreis"},"federalState":{"key":"09","name":"Bayern"}},{"name":"Pfarrer-Zangl-Str.","postalCode":"93464","locality":"Tiefenbach","municipality":{"key":"09372163","name":"Tiefenbach","type":"Kreisangehörige_Gemeinde"},"district":{"key":"09372","name":"Cham","type":"Landkreis"},"federalState":{"key":"09","name":"Bayern"}},{"name":"Pfarrwiese","postalCode":"67752","locality":"Oberweiler-Tiefenbach","municipality":{"key":"07336073","name":"Oberweiler-Tiefenbach","type":"Kreisangehörige_Gemeinde"},"district":{"key":"07336","name":"Kusel","type":"Landkreis"},"federalState":{"key":"07","name":"Rheinland-Pfalz"}},{"name":"Pilgrimstr.","postalCode":"94113","locality":"Tiefenbach","municipality":{"key":"09275151","name":"Tiefenbach","type":"Kreisangehörige_Gemeinde"},"district":{"key":"09275","name":"Passau","type":"Landkreis"},"federalState":{"key":"09","name":"Bayern"}},{"name":"Postgasse","postalCode":"94113","locality":"Tiefenbach","municipality":{"key":"09275151","name":"Tiefenbach","type":"Kreisangehörige_Gemeinde"},"district":{"key":"09275","name":"Passau","type":"Landkreis"},"federalState":{"key":"09","name":"Bayern"}},{"name":"Preisenberger Weg","postalCode":"84184","locality":"Tiefenbach","municipality":{"key":"09274182","name":"Tiefenbach","type":"Kreisangehörige_Gemeinde"},"district":{"key":"09274","name":"Landshut","type":"Landkreis"},"federalState":{"key":"09","name":"Bayern"}},{"name":"Querstr.","postalCode":"84034","locality":"Landshut","municipality":{"key":"09261000","name":"Landshut","type":"Kreisfreie_Stadt"},"district":{"key":"09261","name":"Landshut","type":"Kreisfreie_Stadt"},"federalState":{"key":"09","name":"Bayern"}},{"name":"Querweg","postalCode":"84028","locality":"Landshut","municipality":{"key":"09261000","name":"Landshut","type":"Kreisfreie_Stadt"},"district":{"key":"09261","name":"Landshut","type":"Kreisfreie_Stadt"},"federalState":{"key":"09","name":"Bayern"}},{"name":"Raiffeisenstr.","postalCode":"94113","locality":"Tiefenbach","municipality":{"key":"09275151","name":"Tiefenbach","type":"Kreisangehörige_Gemeinde"},"district":{"key":"09275","name":"Passau","type":"Landkreis"},"federalState":{"key":"09","name":"Bayern"}},{"name":"Rathausstr.","postalCode":"56357","locality":"Obertiefenbach","municipality":{"key":"07141104","name":"Obertiefenbach","type":"Kreisangehörige_Gemeinde"},"district":{"key":"07141","name":"Rhein-Lahn-Kreis","type":"Landkreis"},"federalState":{"key":"07","name":"Rheinland-Pfalz"}},{"name":"Rosenweg","postalCode":"56357","locality":"Obertiefenbach","municipality":{"key":"07141104","name":"Obertiefenbach","type":"Kreisangehörige_Gemeinde"},"district":{"key":"07141","name":"Rhein-Lahn-Kreis","type":"Landkreis"},"federalState":{"key":"07","name":"Rheinland-Pfalz"}},{"name":"Rosenweg","postalCode":"84184","locality":"Tiefenbach","municipality":{"key":"09274182","name":"Tiefenbach","type":"Kreisangehörige_Gemeinde"},"district":{"key":"09274","name":"Landshut","type":"Landkreis"},"federalState":{"key":"09","name":"Bayern"}},{"name":"Rothenbühlweg","postalCode":"93464","locality":"Tiefenbach","municipality":{"key":"09372163","name":"Tiefenbach","type":"Kreisangehörige_Gemeinde"},"district":{"key":"09372","name":"Cham","type":"Landkreis"},"federalState":{"key":"09","name":"Bayern"}},{"name":"Rudertinger Str.","postalCode":"94113","locality":"Tiefenbach","municipality":{"key":"09275151","name":"Tiefenbach","type":"Kreisangehörige_Gemeinde"},"district":{"key":"09275","name":"Passau","type":"Landkreis"},"federalState":{"key":"09","name":"Bayern"}},{"name":"Rudolf-Töpfl-Str.","postalCode":"94113","locality":"Tiefenbach","municipality":{"key":"09275151","name":"Tiefenbach","type":"Kreisangehörige_Gemeinde"},"district":{"key":"09275","name":"Passau","type":"Landkreis"},"federalState":{"key":"09","name":"Bayern"}},{"name":"Ruselstr.","postalCode":"84184","locality":"Tiefenbach","municipality":{"key":"09274182","name":"Tiefenbach","type":"Kreisangehörige_Gemeinde"},"district":{"key":"09274","name":"Landshut","type":"Landkreis"},"federalState":{"key":"09","name":"Bayern"}},{"name":"Sauackerweg","postalCode":"93464","locality":"Tiefenbach","municipality":{"key":"09372163","name":"Tiefenbach","type":"Kreisangehörige_Gemeinde"},"district":{"key":"09372","name":"Cham","type":"Landkreis"},"federalState":{"key":"09","name":"Bayern"}},{"name":"Scheiblweg","postalCode":"94113","locality":"Tiefenbach","municipality":{"key":"09275151","name":"Tiefenbach","type":"Kreisangehörige_Gemeinde"},"district":{"key":"09275","name":"Passau","type":"Landkreis"},"federalState":{"key":"09","name":"Bayern"}},{"name":"Schießeneck","postalCode":"84184","locality":"Tiefenbach","municipality":{"key":"09274182","name":"Tiefenbach","type":"Kreisangehörige_Gemeinde"},"district":{"key":"09274","name":"Landshut","type":"Landkreis"},"federalState":{"key":"09","name":"Bayern"}},{"name":"Schlossbergweg","postalCode":"94113","locality":"Tiefenbach","municipality":{"key":"09275151","name":"Tiefenbach","type":"Kreisangehörige_Gemeinde"},"district":{"key":"09275","name":"Passau","type":"Landkreis"},"federalState":{"key":"09","name":"Bayern"}},{"name":"Schloßfeld","postalCode":"84184","locality":"Tiefenbach","municipality":{"key":"09274182","name":"Tiefenbach","type":"Kreisangehörige_Gemeinde"},"district":{"key":"09274","name":"Landshut","type":"Landkreis"},"federalState":{"key":"09","name":"Bayern"}},{"name":"Schlößlberg","postalCode":"93464","locality":"Tiefenbach","municipality":{"key":"09372163","name":"Tiefenbach","type":"Kreisangehörige_Gemeinde"},"district":{"key":"09372","name":"Cham","type":"Landkreis"},"federalState":{"key":"09","name":"Bayern"}},{"name":"Schloßstr.","postalCode":"84184","locality":"Tiefenbach","municipality":{"key":"09274182","name":"Tiefenbach","type":"Kreisangehörige_Gemeinde"},"district":{"key":"09274","name":"Landshut","type":"Landkreis"},"federalState":{"key":"09","name":"Bayern"}},{"name":"Schluckengasse","postalCode":"88422","locality":"Tiefenbach","municipality":{"key":"08426118","name":"Tiefenbach","type":"Kreisangehörige_Gemeinde"},"district":{"key":"08426","name":"Biberach","type":"Landkreis"},"federalState":{"key":"08","name":"Baden-Württemberg"}},{"name":"Schmiedweg","postalCode":"94113","locality":"Tiefenbach","municipality":{"key":"09275151","name":"Tiefenbach","type":"Kreisangehörige_Gemeinde"},"district":{"key":"09275","name":"Passau","type":"Landkreis"},"federalState":{"key":"09","name":"Bayern"}},{"name":"Schönauer Str.","postalCode":"93464","locality":"Tiefenbach","municipality":{"key":"09372163","name":"Tiefenbach","type":"Kreisangehörige_Gemeinde"},"district":{"key":"09372","name":"Cham","type":"Landkreis"},"federalState":{"key":"09","name":"Bayern"}},{"name":"Schulstr.","postalCode":"55471","locality":"Tiefenbach","municipality":{"key":"07140150","name":"Tiefenbach","type":"Kreisangehörige_Gemeinde"},"district":{"key":"07140","name":"Rhein-Hunsrück-Kreis","type":"Landkreis"},"federalState":{"key":"07","name":"Rheinland-Pfalz"}},{"name":"Schulstr.","postalCode":"55743","locality":"Hintertiefenbach","municipality":{"key":"07134041","name":"Hintertiefenbach","type":"Kreisangehörige_Gemeinde"},"district":{"key":"07134","name":"Birkenfeld","type":"Landkreis"},"federalState":{"key":"07","name":"Rheinland-Pfalz"}},{"name":"Schulstr.","postalCode":"67752","locality":"Oberweiler-Tiefenbach","municipality":{"key":"07336073","name":"Oberweiler-Tiefenbach","type":"Kreisangehörige_Gemeinde"},"district":{"key":"07336","name":"Kusel","type":"Landkreis"},"federalState":{"key":"07","name":"Rheinland-Pfalz"}},{"name":"Schulstr.","postalCode":"84184","locality":"Tiefenbach","municipality":{"key":"09274182","name":"Tiefenbach","type":"Kreisangehörige_Gemeinde"},"district":{"key":"09274","name":"Landshut","type":"Landkreis"},"federalState":{"key":"09","name":"Bayern"}},{"name":"Schulstr.","postalCode":"94113","locality":"Tiefenbach","municipality":{"key":"09275151","name":"Tiefenbach","type":"Kreisangehörige_Gemeinde"},"district":{"key":"09275","name":"Passau","type":"Landkreis"},"federalState":{"key":"09","name":"Bayern"}},{"name":"Schwaiberger Str.","postalCode":"94113","locality":"Tiefenbach","municipality":{"key":"09275151","name":"Tiefenbach","type":"Kreisangehörige_Gemeinde"},"district":{"key":"09275","name":"Passau","type":"Landkreis"},"federalState":{"key":"09","name":"Bayern"}},{"name":"Schwarzwaldstr.","postalCode":"93464","locality":"Tiefenbach","municipality":{"key":"09372163","name":"Tiefenbach","type":"Kreisangehörige_Gemeinde"},"district":{"key":"09372","name":"Cham","type":"Landkreis"},"federalState":{"key":"09","name":"Bayern"}},{"name":"Seeblick","postalCode":"88422","locality":"Tiefenbach","municipality":{"key":"08426118","name":"Tiefenbach","type":"Kreisangehörige_Gemeinde"},"district":{"key":"08426","name":"Biberach","type":"Landkreis"},"federalState":{"key":"08","name":"Baden-Württemberg"}},{"name":"Seekircher Str.","postalCode":"88422","locality":"Tiefenbach","municipality":{"key":"08426118","name":"Tiefenbach","type":"Kreisangehörige_Gemeinde"},"district":{"key":"08426","name":"Biberach","type":"Landkreis"},"federalState":{"key":"08","name":"Baden-Württemberg"}},{"name":"Seeweg","postalCode":"88422","locality":"Tiefenbach","municipality":{"key":"08426118","name":"Tiefenbach","type":"Kreisangehörige_Gemeinde"},"district":{"key":"08426","name":"Biberach","type":"Landkreis"},"federalState":{"key":"08","name":"Baden-Württemberg"}},{"name":"Siedlerweg","postalCode":"94113","locality":"Tiefenbach","municipality":{"key":"09275151","name":"Tiefenbach","type":"Kreisangehörige_Gemeinde"},"district":{"key":"09275","name":"Passau","type":"Landkreis"},"federalState":{"key":"09","name":"Bayern"}},{"name":"Siemens-Ring","postalCode":"84184","locality":"Tiefenbach","municipality":{"key":"09274182","name":"Tiefenbach","type":"Kreisangehörige_Gemeinde"},"district":{"key":"09274","name":"Landshut","type":"Landkreis"},"federalState":{"key":"09","name":"Bayern"}},{"name":"Silbersee Rundweg","postalCode":"93464","locality":"Tiefenbach","municipality":{"key":"09372163","name":"Tiefenbach","type":"Kreisangehörige_Gemeinde"},"district":{"key":"09372","name":"Cham","type":"Landkreis"},"federalState":{"key":"09","name":"Bayern"}},{"name":"Simmerner Str.","postalCode":"55471","locality":"Tiefenbach","municipality":{"key":"07140150","name":"Tiefenbach","type":"Kreisangehörige_Gemeinde"},"district":{"key":"07140","name":"Rhein-Hunsrück-Kreis","type":"Landkreis"},"federalState":{"key":"07","name":"Rheinland-Pfalz"}},{"name":"Söldenweg","postalCode":"94113","locality":"Tiefenbach","municipality":{"key":"09275151","name":"Tiefenbach","type":"Kreisangehörige_Gemeinde"},"district":{"key":"09275","name":"Passau","type":"Landkreis"},"federalState":{"key":"09","name":"Bayern"}},{"name":"Sonnenringstr.","postalCode":"84184","locality":"Tiefenbach","municipality":{"key":"09274182","name":"Tiefenbach","type":"Kreisangehörige_Gemeinde"},"district":{"key":"09274","name":"Landshut","type":"Landkreis"},"federalState":{"key":"09","name":"Bayern"}},{"name":"Sonnenstr.","postalCode":"93464","locality":"Tiefenbach","municipality":{"key":"09372163","name":"Tiefenbach","type":"Kreisangehörige_Gemeinde"},"district":{"key":"09372","name":"Cham","type":"Landkreis"},"federalState":{"key":"09","name":"Bayern"}},{"name":"Sonnenstr.","postalCode":"94113","locality":"Tiefenbach","municipality":{"key":"09275151","name":"Tiefenbach","type":"Kreisangehörige_Gemeinde"},"district":{"key":"09275","name":"Passau","type":"Landkreis"},"federalState":{"key":"09","name":"Bayern"}},{"name":"Sportplatzstr.","postalCode":"84184","locality":"Tiefenbach","municipality":{"key":"09274182","name":"Tiefenbach","type":"Kreisangehörige_Gemeinde"},"district":{"key":"09274","name":"Landshut","type":"Landkreis"},"federalState":{"key":"09","name":"Bayern"}},{"name":"Stanzlberg","postalCode":"93464","locality":"Tiefenbach","municipality":{"key":"09372163","name":"Tiefenbach","type":"Kreisangehörige_Gemeinde"},"district":{"key":"09372","name":"Cham","type":"Landkreis"},"federalState":{"key":"09","name":"Bayern"}},{"name":"Stein","postalCode":"93464","locality":"Tiefenbach","municipality":{"key":"09372163","name":"Tiefenbach","type":"Kreisangehörige_Gemeinde"},"district":{"key":"09372","name":"Cham","type":"Landkreis"},"federalState":{"key":"09","name":"Bayern"}},{"name":"Sumperweg","postalCode":"94113","locality":"Tiefenbach","municipality":{"key":"09275151","name":"Tiefenbach","type":"Kreisangehörige_Gemeinde"},"district":{"key":"09275","name":"Passau","type":"Landkreis"},"federalState":{"key":"09","name":"Bayern"}},{"name":"Sünzlweg","postalCode":"94113","locality":"Tiefenbach","municipality":{"key":"09275151","name":"Tiefenbach","type":"Kreisangehörige_Gemeinde"},"district":{"key":"09275","name":"Passau","type":"Landkreis"},"federalState":{"key":"09","name":"Bayern"}},{"name":"T8 (Glasschleiferweg)","postalCode":"93464","locality":"Tiefenbach","municipality":{"key":"09372163","name":"Tiefenbach","type":"Kreisangehörige_Gemeinde"},"district":{"key":"09372","name":"Cham","type":"Landkreis"},"federalState":{"key":"09","name":"Bayern"}},{"name":"Talstr.","postalCode":"56368","locality":"Niedertiefenbach","municipality":{"key":"07141096","name":"Niedertiefenbach","type":"Kreisangehörige_Gemeinde"},"district":{"key":"07141","name":"Rhein-Lahn-Kreis","type":"Landkreis"},"federalState":{"key":"07","name":"Rheinland-Pfalz"}},{"name":"Talstr.","postalCode":"67752","locality":"Oberweiler-Tiefenbach","municipality":{"key":"07336073","name":"Oberweiler-Tiefenbach","type":"Kreisangehörige_Gemeinde"},"district":{"key":"07336","name":"Kusel","type":"Landkreis"},"federalState":{"key":"07","name":"Rheinland-Pfalz"}},{"name":"Tiefenbacher Halde","postalCode":"88422","locality":"Tiefenbach","municipality":{"key":"08426118","name":"Tiefenbach","type":"Kreisangehörige_Gemeinde"},"district":{"key":"08426","name":"Biberach","type":"Landkreis"},"federalState":{"key":"08","name":"Baden-Württemberg"}},{"name":"Trath","postalCode":"93464","locality":"Tiefenbach","municipality":{"key":"09372163","name":"Tiefenbach","type":"Kreisangehörige_Gemeinde"},"district":{"key":"09372","name":"Cham","type":"Landkreis"},"federalState":{"key":"09","name":"Bayern"}},{"name":"Tulpenweg","postalCode":"56357","locality":"Obertiefenbach","municipality":{"key":"07141104","name":"Obertiefenbach","type":"Kreisangehörige_Gemeinde"},"district":{"key":"07141","name":"Rhein-Lahn-Kreis","type":"Landkreis"},"federalState":{"key":"07","name":"Rheinland-Pfalz"}},{"name":"Turmweg","postalCode":"94113","locality":"Tiefenbach","municipality":{"key":"09275151","name":"Tiefenbach","type":"Kreisangehörige_Gemeinde"},"district":{"key":"09275","name":"Passau","type":"Landkreis"},"federalState":{"key":"09","name":"Bayern"}},{"name":"Unterbachham","postalCode":"84184","locality":"Tiefenbach","municipality":{"key":"09274182","name":"Tiefenbach","type":"Kreisangehörige_Gemeinde"},"district":{"key":"09274","name":"Landshut","type":"Landkreis"},"federalState":{"key":"09","name":"Bayern"}},{"name":"Unter den Eichen","postalCode":"56357","locality":"Obertiefenbach","municipality":{"key":"07141104","name":"Obertiefenbach","type":"Kreisangehörige_Gemeinde"},"district":{"key":"07141","name":"Rhein-Lahn-Kreis","type":"Landkreis"},"federalState":{"key":"07","name":"Rheinland-Pfalz"}},{"name":"Unterfeld","postalCode":"84184","locality":"Tiefenbach","municipality":{"key":"09274182","name":"Tiefenbach","type":"Kreisangehörige_Gemeinde"},"district":{"key":"09274","name":"Landshut","type":"Landkreis"},"federalState":{"key":"09","name":"Bayern"}},{"name":"Unterjacking","postalCode":"94113","locality":"Tiefenbach","municipality":{"key":"09275151","name":"Tiefenbach","type":"Kreisangehörige_Gemeinde"},"district":{"key":"09275","name":"Passau","type":"Landkreis"},"federalState":{"key":"09","name":"Bayern"}},{"name":"Veichtederpointweg","postalCode":"84036","locality":"Landshut","municipality":{"key":"09261000","name":"Landshut","type":"Kreisfreie_Stadt"},"district":{"key":"09261","name":"Landshut","type":"Kreisfreie_Stadt"},"federalState":{"key":"09","name":"Bayern"}},{"name":"Veldener Str.","postalCode":"84036","locality":"Landshut","municipality":{"key":"09261000","name":"Landshut","type":"Kreisfreie_Stadt"},"district":{"key":"09261","name":"Landshut","type":"Kreisfreie_Stadt"},"federalState":{"key":"09","name":"Bayern"}},{"name":"Volksstr.","postalCode":"84028","locality":"Landshut","municipality":{"key":"09261000","name":"Landshut","type":"Kreisfreie_Stadt"},"district":{"key":"09261","name":"Landshut","type":"Kreisfreie_Stadt"},"federalState":{"key":"09","name":"Bayern"}},{"name":"Von-Arco-Weg","postalCode":"84036","locality":"Landshut","municipality":{"key":"09261000","name":"Landshut","type":"Kreisfreie_Stadt"},"district":{"key":"09261","name":"Landshut","type":"Kreisfreie_Stadt"},"federalState":{"key":"09","name":"Bayern"}},{"name":"Von-Behring-Weg","postalCode":"84034","locality":"Landshut","municipality":{"key":"09261000","name":"Landshut","type":"Kreisfreie_Stadt"},"district":{"key":"09261","name":"Landshut","type":"Kreisfreie_Stadt"},"federalState":{"key":"09","name":"Bayern"}},{"name":"Von-Doderer-Str.","postalCode":"84036","locality":"Landshut","municipality":{"key":"09261000","name":"Landshut","type":"Kreisfreie_Stadt"},"district":{"key":"09261","name":"Landshut","type":"Kreisfreie_Stadt"},"federalState":{"key":"09","name":"Bayern"}},{"name":"Von-Hohenhausen-Str.","postalCode":"84036","locality":"Landshut","municipality":{"key":"09261000","name":"Landshut","type":"Kreisfreie_Stadt"},"district":{"key":"09261","name":"Landshut","type":"Kreisfreie_Stadt"},"federalState":{"key":"09","name":"Bayern"}},{"name":"Von-Walther-Str.","postalCode":"84034","locality":"Landshut","municipality":{"key":"09261000","name":"Landshut","type":"Kreisfreie_Stadt"},"district":{"key":"09261","name":"Landshut","type":"Kreisfreie_Stadt"},"federalState":{"key":"09","name":"Bayern"}},{"name":"Von-Zabuesnig-Str.","postalCode":"84034","locality":"Landshut","municipality":{"key":"09261000","name":"Landshut","type":"Kreisfreie_Stadt"},"district":{"key":"09261","name":"Landshut","type":"Kreisfreie_Stadt"},"federalState":{"key":"09","name":"Bayern"}},{"name":"Waldbadstr.","postalCode":"93464","locality":"Tiefenbach","municipality":{"key":"09372163","name":"Tiefenbach","type":"Kreisangehörige_Gemeinde"},"district":{"key":"09372","name":"Cham","type":"Landkreis"},"federalState":{"key":"09","name":"Bayern"}},{"name":"Waldstr.","postalCode":"55471","locality":"Tiefenbach","municipality":{"key":"07140150","name":"Tiefenbach","type":"Kreisangehörige_Gemeinde"},"district":{"key":"07140","name":"Rhein-Hunsrück-Kreis","type":"Landkreis"},"federalState":{"key":"07","name":"Rheinland-Pfalz"}},{"name":"Waldstr.","postalCode":"56368","locality":"Niedertiefenbach","municipality":{"key":"07141096","name":"Niedertiefenbach","type":"Kreisangehörige_Gemeinde"},"district":{"key":"07141","name":"Rhein-Lahn-Kreis","type":"Landkreis"},"federalState":{"key":"07","name":"Rheinland-Pfalz"}},{"name":"Waldstr.","postalCode":"94113","locality":"Tiefenbach","municipality":{"key":"09275151","name":"Tiefenbach","type":"Kreisangehörige_Gemeinde"},"district":{"key":"09275","name":"Passau","type":"Landkreis"},"federalState":{"key":"09","name":"Bayern"}},{"name":"Waldweg","postalCode":"84184","locality":"Tiefenbach","municipality":{"key":"09274182","name":"Tiefenbach","type":"Kreisangehörige_Gemeinde"},"district":{"key":"09274","name":"Landshut","type":"Landkreis"},"federalState":{"key":"09","name":"Bayern"}},{"name":"Weideneckerstr.","postalCode":"94113","locality":"Tiefenbach","municipality":{"key":"09275151","name":"Tiefenbach","type":"Kreisangehörige_Gemeinde"},"district":{"key":"09275","name":"Passau","type":"Landkreis"},"federalState":{"key":"09","name":"Bayern"}},{"name":"Weidenweg","postalCode":"84184","locality":"Tiefenbach","municipality":{"key":"09274182","name":"Tiefenbach","type":"Kreisangehörige_Gemeinde"},"district":{"key":"09274","name":"Landshut","type":"Landkreis"},"federalState":{"key":"09","name":"Bayern"}},{"name":"Weiherhäuser","postalCode":"84184","locality":"Tiefenbach","municipality":{"key":"09274182","name":"Tiefenbach","type":"Kreisangehörige_Gemeinde"},"district":{"key":"09274","name":"Landshut","type":"Landkreis"},"federalState":{"key":"09","name":"Bayern"}},{"name":"Weiherweg","postalCode":"84184","locality":"Tiefenbach","municipality":{"key":"09274182","name":"Tiefenbach","type":"Kreisangehörige_Gemeinde"},"district":{"key":"09274","name":"Landshut","type":"Landkreis"},"federalState":{"key":"09","name":"Bayern"}},{"name":"Wiederleiten","postalCode":"94113","locality":"Tiefenbach","municipality":{"key":"09275151","name":"Tiefenbach","type":"Kreisangehörige_Gemeinde"},"district":{"key":"09275","name":"Passau","type":"Landkreis"},"federalState":{"key":"09","name":"Bayern"}},{"name":"Wildburger Str.","postalCode":"55471","locality":"Tiefenbach","municipality":{"key":"07140150","name":"Tiefenbach","type":"Kreisangehörige_Gemeinde"},"district":{"key":"07140","name":"Rhein-Hunsrück-Kreis","type":"Landkreis"},"federalState":{"key":"07","name":"Rheinland-Pfalz"}},{"name":"Zellinger Str.","postalCode":"94113","locality":"Tiefenbach","municipality":{"key":"09275151","name":"Tiefenbach","type":"Kreisangehörige_Gemeinde"},"district":{"key":"09275","name":"Passau","type":"Landkreis"},"federalState":{"key":"09","name":"Bayern"}},{"name":"Zieglerweg","postalCode":"88422","locality":"Tiefenbach","municipality":{"key":"08426118","name":"Tiefenbach","type":"Kreisangehörige_Gemeinde"},"district":{"key":"08426","name":"Biberach","type":"Landkreis"},"federalState":{"key":"08","name":"Baden-Württemberg"}},{"name":"Zum Hahnenbach","postalCode":"55471","locality":"Tiefenbach","municipality":{"key":"07140150","name":"Tiefenbach","type":"Kreisangehörige_Gemeinde"},"district":{"key":"07140","name":"Rhein-Hunsrück-Kreis","type":"Landkreis"},"federalState":{"key":"07","name":"Rheinland-Pfalz"}},{"name":"Zum Hang","postalCode":"55471","locality":"Tiefenbach","municipality":{"key":"07140150","name":"Tiefenbach","type":"Kreisangehörige_Gemeinde"},"district":{"key":"07140","name":"Rhein-Hunsrück-Kreis","type":"Landkreis"},"federalState":{"key":"07","name":"Rheinland-Pfalz"}},{"name":"Zum Landberg","postalCode":"67752","locality":"Oberweiler-Tiefenbach","municipality":{"key":"07336073","name":"Oberweiler-Tiefenbach","type":"Kreisangehörige_Gemeinde"},"district":{"key":"07336","name":"Kusel","type":"Landkreis"},"federalState":{"key":"07","name":"Rheinland-Pfalz"}},{"name":"Zweikirchener Str.","postalCode":"84184","locality":"Tiefenbach","municipality":{"key":"09274182","name":"Tiefenbach","type":"Kreisangehörige_Gemeinde"},"district":{"key":"09274","name":"Landshut","type":"Landkreis"},"federalState":{"key":"09","name":"Bayern"}},{"name":"Äußere Münchener Str.","postalCode":"84184","locality":"Tiefenbach","municipality":{"key":"09274182","name":"Tiefenbach","type":"Kreisangehörige_Gemeinde"},"district":{"key":"09274","name":"Landshut","type":"Landkreis"},"federalState":{"key":"09","name":"Bayern"}},{"name":"Überreiterweg","postalCode":"84036","locality":"Landshut","municipality":{"key":"09261000","name":"Landshut","type":"Kreisfreie_Stadt"},"district":{"key":"09261","name":"Landshut","type":"Kreisfreie_Stadt"},"federalState":{"key":"09","name":"Bayern"}},]