[{"key":"10002528","name":"Alter Postweg","postalCode":"8475","locality":"Ossingen","commune":{"key":"37","name":"Ossingen","shortName":"Ossingen"},"district":{"key":"102","name":"Bezirk Andelfingen"},"canton":{"key":"1","code":"ZH","name":"Zürich"},"status":"Real"},{"key":"10057543","name":"Alti Husemerstrasse","postalCode":"8475","locality":"Ossingen","commune":{"key":"37","name":"Ossingen","shortName":"Ossingen"},"district":{"key":"102","name":"Bezirk Andelfingen"},"canton":{"key":"1","code":"ZH","name":"Zürich"},"status":"Real"},{"key":"10203183","name":"Amtweierstrasse","postalCode":"8475","locality":"Ossingen","commune":{"key":"37","name":"Ossingen","shortName":"Ossingen"},"district":{"key":"102","name":"Bezirk Andelfingen"},"canton":{"key":"1","code":"ZH","name":"Zürich"},"status":"Real"},{"key":"10081245","name":"Andelfingerstrasse","postalCode":"8475","locality":"Ossingen","commune":{"key":"37","name":"Ossingen","shortName":"Ossingen"},"district":{"key":"102","name":"Bezirk Andelfingen"},"canton":{"key":"1","code":"ZH","name":"Zürich"},"status":"Real"},{"key":"10238161","name":"Bachtobelweg","postalCode":"8475","locality":"Ossingen","commune":{"key":"37","name":"Ossingen","shortName":"Ossingen"},"district":{"key":"102","name":"Bezirk Andelfingen"},"canton":{"key":"1","code":"ZH","name":"Zürich"},"status":"Real"},{"key":"10002529","name":"Bei der Linde","postalCode":"8475","locality":"Ossingen","commune":{"key":"37","name":"Ossingen","shortName":"Ossingen"},"district":{"key":"102","name":"Bezirk Andelfingen"},"canton":{"key":"1","code":"ZH","name":"Zürich"},"status":"Real"},{"key":"10057477","name":"Bei der Thurbrücke","postalCode":"8475","locality":"Ossingen","commune":{"key":"37","name":"Ossingen","shortName":"Ossingen"},"district":{"key":"102","name":"Bezirk Andelfingen"},"canton":{"key":"1","code":"ZH","name":"Zürich"},"status":"Real"},{"key":"10002530","name":"Berghof","postalCode":"8475","locality":"Ossingen","commune":{"key":"37","name":"Ossingen","shortName":"Ossingen"},"district":{"key":"102","name":"Bezirk Andelfingen"},"canton":{"key":"1","code":"ZH","name":"Zürich"},"status":"Real"},{"key":"10153971","name":"Brüelweg","postalCode":"8475","locality":"Ossingen","commune":{"key":"37","name":"Ossingen","shortName":"Ossingen"},"district":{"key":"102","name":"Bezirk Andelfingen"},"canton":{"key":"1","code":"ZH","name":"Zürich"},"status":"Real"},{"key":"10238148","name":"Bruggbachstrasse","postalCode":"8475","locality":"Ossingen","commune":{"key":"37","name":"Ossingen","shortName":"Ossingen"},"district":{"key":"102","name":"Bezirk Andelfingen"},"canton":{"key":"1","code":"ZH","name":"Zürich"},"status":"Real"},{"key":"10002531","name":"Burghof","postalCode":"8475","locality":"Ossingen","commune":{"key":"37","name":"Ossingen","shortName":"Ossingen"},"district":{"key":"102","name":"Bezirk Andelfingen"},"canton":{"key":"1","code":"ZH","name":"Zürich"},"status":"Real"},{"key":"10203184","name":"Burghofstrasse","postalCode":"8475","locality":"Ossingen","commune":{"key":"37","name":"Ossingen","shortName":"Ossingen"},"district":{"key":"102","name":"Bezirk Andelfingen"},"canton":{"key":"1","code":"ZH","name":"Zürich"},"status":"Real"},{"key":"10238165","name":"Chaltenbrunnenstrasse","postalCode":"8475","locality":"Ossingen","commune":{"key":"37","name":"Ossingen","shortName":"Ossingen"},"district":{"key":"102","name":"Bezirk Andelfingen"},"canton":{"key":"1","code":"ZH","name":"Zürich"},"status":"Real"},{"key":"10203411","name":"Chastelholzstrasse","postalCode":"8475","locality":"Ossingen","commune":{"key":"37","name":"Ossingen","shortName":"Ossingen"},"district":{"key":"102","name":"Bezirk Andelfingen"},"canton":{"key":"1","code":"ZH","name":"Zürich"},"status":"Real"},{"key":"10203412","name":"Chileweg","postalCode":"8475","locality":"Ossingen","commune":{"key":"37","name":"Ossingen","shortName":"Ossingen"},"district":{"key":"102","name":"Bezirk Andelfingen"},"canton":{"key":"1","code":"ZH","name":"Zürich"},"status":"Real"},{"key":"10203413","name":"Dachsenhauserstrasse","postalCode":"8475","locality":"Ossingen","commune":{"key":"37","name":"Ossingen","shortName":"Ossingen"},"district":{"key":"102","name":"Bezirk Andelfingen"},"canton":{"key":"1","code":"ZH","name":"Zürich"},"status":"Real"},{"key":"10175872","name":"Dammstrasse","postalCode":"8475","locality":"Ossingen","commune":{"key":"37","name":"Ossingen","shortName":"Ossingen"},"district":{"key":"102","name":"Bezirk Andelfingen"},"canton":{"key":"1","code":"ZH","name":"Zürich"},"status":"Real"},{"key":"10238157","name":"Dürnenstrasse","postalCode":"8475","locality":"Ossingen","commune":{"key":"37","name":"Ossingen","shortName":"Ossingen"},"district":{"key":"102","name":"Bezirk Andelfingen"},"canton":{"key":"1","code":"ZH","name":"Zürich"},"status":"Real"},{"key":"10238151","name":"Eichistrasse","postalCode":"8475","locality":"Ossingen","commune":{"key":"37","name":"Ossingen","shortName":"Ossingen"},"district":{"key":"102","name":"Bezirk Andelfingen"},"canton":{"key":"1","code":"ZH","name":"Zürich"},"status":"Real"},{"key":"10141843","name":"Enetbruggweg","postalCode":"8475","locality":"Ossingen","commune":{"key":"37","name":"Ossingen","shortName":"Ossingen"},"district":{"key":"102","name":"Bezirk Andelfingen"},"canton":{"key":"1","code":"ZH","name":"Zürich"},"status":"Real"},{"key":"10153338","name":"Eschibachweg","postalCode":"8475","locality":"Ossingen","commune":{"key":"37","name":"Ossingen","shortName":"Ossingen"},"district":{"key":"102","name":"Bezirk Andelfingen"},"canton":{"key":"1","code":"ZH","name":"Zürich"},"status":"Real"},{"key":"10203414","name":"Fahrhofstrasse","postalCode":"8475","locality":"Ossingen","commune":{"key":"37","name":"Ossingen","shortName":"Ossingen"},"district":{"key":"102","name":"Bezirk Andelfingen"},"canton":{"key":"1","code":"ZH","name":"Zürich"},"status":"Real"},{"key":"10203415","name":"Falmerriedstrasse","postalCode":"8475","locality":"Ossingen","commune":{"key":"37","name":"Ossingen","shortName":"Ossingen"},"district":{"key":"102","name":"Bezirk Andelfingen"},"canton":{"key":"1","code":"ZH","name":"Zürich"},"status":"Real"},{"key":"10081246","name":"Frohsinnweg","postalCode":"8475","locality":"Ossingen","commune":{"key":"37","name":"Ossingen","shortName":"Ossingen"},"district":{"key":"102","name":"Bezirk Andelfingen"},"canton":{"key":"1","code":"ZH","name":"Zürich"},"status":"Real"},{"key":"10203416","name":"Fuchsweg","postalCode":"8475","locality":"Ossingen","commune":{"key":"37","name":"Ossingen","shortName":"Ossingen"},"district":{"key":"102","name":"Bezirk Andelfingen"},"canton":{"key":"1","code":"ZH","name":"Zürich"},"status":"Real"},{"key":"10002533","name":"Gewerbestrasse","postalCode":"8475","locality":"Ossingen","commune":{"key":"37","name":"Ossingen","shortName":"Ossingen"},"district":{"key":"102","name":"Bezirk Andelfingen"},"canton":{"key":"1","code":"ZH","name":"Zürich"},"status":"Real"},{"key":"10112292","name":"Gisenhard","postalCode":"8475","locality":"Ossingen","commune":{"key":"37","name":"Ossingen","shortName":"Ossingen"},"district":{"key":"102","name":"Bezirk Andelfingen"},"canton":{"key":"1","code":"ZH","name":"Zürich"},"status":"Real"},{"key":"10002534","name":"Goldbuck","postalCode":"8475","locality":"Ossingen","commune":{"key":"37","name":"Ossingen","shortName":"Ossingen"},"district":{"key":"102","name":"Bezirk Andelfingen"},"canton":{"key":"1","code":"ZH","name":"Zürich"},"status":"Real"},{"key":"10200201","name":"Grenzstrasse","postalCode":"8475","locality":"Ossingen","commune":{"key":"37","name":"Ossingen","shortName":"Ossingen"},"district":{"key":"102","name":"Bezirk Andelfingen"},"canton":{"key":"1","code":"ZH","name":"Zürich"},"status":"Real"},{"key":"10203417","name":"Grenzweg","postalCode":"8475","locality":"Ossingen","commune":{"key":"37","name":"Ossingen","shortName":"Ossingen"},"district":{"key":"102","name":"Bezirk Andelfingen"},"canton":{"key":"1","code":"ZH","name":"Zürich"},"status":"Real"},{"key":"10238163","name":"Grüenenstrasse","postalCode":"8475","locality":"Ossingen","commune":{"key":"37","name":"Ossingen","shortName":"Ossingen"},"district":{"key":"102","name":"Bezirk Andelfingen"},"canton":{"key":"1","code":"ZH","name":"Zürich"},"status":"Real"},{"key":"10106315","name":"Grundhof","postalCode":"8475","locality":"Ossingen","commune":{"key":"37","name":"Ossingen","shortName":"Ossingen"},"district":{"key":"102","name":"Bezirk Andelfingen"},"canton":{"key":"1","code":"ZH","name":"Zürich"},"status":"Real"},{"key":"10057544","name":"Grundstrasse","postalCode":"8475","locality":"Ossingen","commune":{"key":"37","name":"Ossingen","shortName":"Ossingen"},"district":{"key":"102","name":"Bezirk Andelfingen"},"canton":{"key":"1","code":"ZH","name":"Zürich"},"status":"Real"},{"key":"10203418","name":"Grundwilstrasse","postalCode":"8475","locality":"Ossingen","commune":{"key":"37","name":"Ossingen","shortName":"Ossingen"},"district":{"key":"102","name":"Bezirk Andelfingen"},"canton":{"key":"1","code":"ZH","name":"Zürich"},"status":"Real"},{"key":"10081247","name":"Guggenbühl","postalCode":"8475","locality":"Ossingen","commune":{"key":"37","name":"Ossingen","shortName":"Ossingen"},"district":{"key":"102","name":"Bezirk Andelfingen"},"canton":{"key":"1","code":"ZH","name":"Zürich"},"status":"Real"},{"key":"10111706","name":"Guntibachstrasse","postalCode":"8475","locality":"Ossingen","commune":{"key":"37","name":"Ossingen","shortName":"Ossingen"},"district":{"key":"102","name":"Bezirk Andelfingen"},"canton":{"key":"1","code":"ZH","name":"Zürich"},"status":"Real"},{"key":"10121324","name":"Guntiweg","postalCode":"8475","locality":"Ossingen","commune":{"key":"37","name":"Ossingen","shortName":"Ossingen"},"district":{"key":"102","name":"Bezirk Andelfingen"},"canton":{"key":"1","code":"ZH","name":"Zürich"},"status":"Real"},{"key":"10081248","name":"Gütighuserstrasse","postalCode":"8475","locality":"Ossingen","commune":{"key":"37","name":"Ossingen","shortName":"Ossingen"},"district":{"key":"102","name":"Bezirk Andelfingen"},"canton":{"key":"1","code":"ZH","name":"Zürich"},"status":"Real"},{"key":"10238160","name":"Härdenbüelstrasse","postalCode":"8475","locality":"Ossingen","commune":{"key":"37","name":"Ossingen","shortName":"Ossingen"},"district":{"key":"102","name":"Bezirk Andelfingen"},"canton":{"key":"1","code":"ZH","name":"Zürich"},"status":"Real"},{"key":"10169126","name":"Harstig","postalCode":"8475","locality":"Ossingen","commune":{"key":"37","name":"Ossingen","shortName":"Ossingen"},"district":{"key":"102","name":"Bezirk Andelfingen"},"canton":{"key":"1","code":"ZH","name":"Zürich"},"status":"Real"},{"key":"10057545","name":"Hausen","postalCode":"8475","locality":"Ossingen","commune":{"key":"37","name":"Ossingen","shortName":"Ossingen"},"district":{"key":"102","name":"Bezirk Andelfingen"},"canton":{"key":"1","code":"ZH","name":"Zürich"},"status":"Real"},{"key":"10002535","name":"Hauserseestrasse","postalCode":"8475","locality":"Ossingen","commune":{"key":"37","name":"Ossingen","shortName":"Ossingen"},"district":{"key":"102","name":"Bezirk Andelfingen"},"canton":{"key":"1","code":"ZH","name":"Zürich"},"status":"Real"},{"key":"10002536","name":"Heldweg","postalCode":"8475","locality":"Ossingen","commune":{"key":"37","name":"Ossingen","shortName":"Ossingen"},"district":{"key":"102","name":"Bezirk Andelfingen"},"canton":{"key":"1","code":"ZH","name":"Zürich"},"status":"Real"},{"key":"10203419","name":"Himmelrichstrasse","postalCode":"8475","locality":"Ossingen","commune":{"key":"37","name":"Ossingen","shortName":"Ossingen"},"district":{"key":"102","name":"Bezirk Andelfingen"},"canton":{"key":"1","code":"ZH","name":"Zürich"},"status":"Real"},{"key":"10203420","name":"Hinderchastelstrasse","postalCode":"8475","locality":"Ossingen","commune":{"key":"37","name":"Ossingen","shortName":"Ossingen"},"district":{"key":"102","name":"Bezirk Andelfingen"},"canton":{"key":"1","code":"ZH","name":"Zürich"},"status":"Real"},{"key":"10203421","name":"Hirschewägli","postalCode":"8475","locality":"Ossingen","commune":{"key":"37","name":"Ossingen","shortName":"Ossingen"},"district":{"key":"102","name":"Bezirk Andelfingen"},"canton":{"key":"1","code":"ZH","name":"Zürich"},"status":"Real"},{"key":"10057546","name":"Honiggasse","postalCode":"8475","locality":"Ossingen","commune":{"key":"37","name":"Ossingen","shortName":"Ossingen"},"district":{"key":"102","name":"Bezirk Andelfingen"},"canton":{"key":"1","code":"ZH","name":"Zürich"},"status":"Real"},{"key":"10203422","name":"Husemerstrasse","postalCode":"8475","locality":"Ossingen","commune":{"key":"37","name":"Ossingen","shortName":"Ossingen"},"district":{"key":"102","name":"Bezirk Andelfingen"},"canton":{"key":"1","code":"ZH","name":"Zürich"},"status":"Real"},{"key":"10002537","name":"Im Berg","postalCode":"8475","locality":"Ossingen","commune":{"key":"37","name":"Ossingen","shortName":"Ossingen"},"district":{"key":"102","name":"Bezirk Andelfingen"},"canton":{"key":"1","code":"ZH","name":"Zürich"},"status":"Real"},{"key":"10187512","name":"Im Egli","postalCode":"8475","locality":"Ossingen","commune":{"key":"37","name":"Ossingen","shortName":"Ossingen"},"district":{"key":"102","name":"Bezirk Andelfingen"},"canton":{"key":"1","code":"ZH","name":"Zürich"},"status":"Real"},{"key":"10112293","name":"Im Eschi","postalCode":"8475","locality":"Ossingen","commune":{"key":"37","name":"Ossingen","shortName":"Ossingen"},"district":{"key":"102","name":"Bezirk Andelfingen"},"canton":{"key":"1","code":"ZH","name":"Zürich"},"status":"Real"},{"key":"10002538","name":"Im Heidi","postalCode":"8475","locality":"Ossingen","commune":{"key":"37","name":"Ossingen","shortName":"Ossingen"},"district":{"key":"102","name":"Bezirk Andelfingen"},"canton":{"key":"1","code":"ZH","name":"Zürich"},"status":"Real"},{"key":"10057478","name":"Im Lochacker","postalCode":"8475","locality":"Ossingen","commune":{"key":"37","name":"Ossingen","shortName":"Ossingen"},"district":{"key":"102","name":"Bezirk Andelfingen"},"canton":{"key":"1","code":"ZH","name":"Zürich"},"status":"Real"},{"key":"10057547","name":"Im Schlatter","postalCode":"8475","locality":"Ossingen","commune":{"key":"37","name":"Ossingen","shortName":"Ossingen"},"district":{"key":"102","name":"Bezirk Andelfingen"},"canton":{"key":"1","code":"ZH","name":"Zürich"},"status":"Real"},{"key":"10081249","name":"Im Steigli","postalCode":"8475","locality":"Ossingen","commune":{"key":"37","name":"Ossingen","shortName":"Ossingen"},"district":{"key":"102","name":"Bezirk Andelfingen"},"canton":{"key":"1","code":"ZH","name":"Zürich"},"status":"Real"},{"key":"10118082","name":"Im Stieg","postalCode":"8475","locality":"Ossingen","commune":{"key":"37","name":"Ossingen","shortName":"Ossingen"},"district":{"key":"102","name":"Bezirk Andelfingen"},"canton":{"key":"1","code":"ZH","name":"Zürich"},"status":"Real"},{"key":"10002539","name":"Im Zinggen","postalCode":"8475","locality":"Ossingen","commune":{"key":"37","name":"Ossingen","shortName":"Ossingen"},"district":{"key":"102","name":"Bezirk Andelfingen"},"canton":{"key":"1","code":"ZH","name":"Zürich"},"status":"Real"},{"key":"10002540","name":"In der Pünt","postalCode":"8475","locality":"Ossingen","commune":{"key":"37","name":"Ossingen","shortName":"Ossingen"},"district":{"key":"102","name":"Bezirk Andelfingen"},"canton":{"key":"1","code":"ZH","name":"Zürich"},"status":"Real"},{"key":"10203423","name":"Kantenrainstrasse","postalCode":"8475","locality":"Ossingen","commune":{"key":"37","name":"Ossingen","shortName":"Ossingen"},"district":{"key":"102","name":"Bezirk Andelfingen"},"canton":{"key":"1","code":"ZH","name":"Zürich"},"status":"Real"},{"key":"10081250","name":"Kastelhof","postalCode":"8475","locality":"Ossingen","commune":{"key":"37","name":"Ossingen","shortName":"Ossingen"},"district":{"key":"102","name":"Bezirk Andelfingen"},"canton":{"key":"1","code":"ZH","name":"Zürich"},"status":"Real"},{"key":"10057548","name":"Langenmoos","postalCode":"8475","locality":"Ossingen","commune":{"key":"37","name":"Ossingen","shortName":"Ossingen"},"district":{"key":"102","name":"Bezirk Andelfingen"},"canton":{"key":"1","code":"ZH","name":"Zürich"},"status":"Real"},{"key":"10202083","name":"Langenmooserstrasse","postalCode":"8475","locality":"Ossingen","commune":{"key":"37","name":"Ossingen","shortName":"Ossingen"},"district":{"key":"102","name":"Bezirk Andelfingen"},"canton":{"key":"1","code":"ZH","name":"Zürich"},"status":"Real"},{"key":"10238152","name":"Lattenbachweg","postalCode":"8475","locality":"Ossingen","commune":{"key":"37","name":"Ossingen","shortName":"Ossingen"},"district":{"key":"102","name":"Bezirk Andelfingen"},"canton":{"key":"1","code":"ZH","name":"Zürich"},"status":"Real"},{"key":"10002541","name":"Lenzbein","postalCode":"8475","locality":"Ossingen","commune":{"key":"37","name":"Ossingen","shortName":"Ossingen"},"district":{"key":"102","name":"Bezirk Andelfingen"},"canton":{"key":"1","code":"ZH","name":"Zürich"},"status":"Real"},{"key":"10002542","name":"Löberen","postalCode":"8475","locality":"Ossingen","commune":{"key":"37","name":"Ossingen","shortName":"Ossingen"},"district":{"key":"102","name":"Bezirk Andelfingen"},"canton":{"key":"1","code":"ZH","name":"Zürich"},"status":"Real"},{"key":"10203424","name":"Loorhaustrasse","postalCode":"8475","locality":"Ossingen","commune":{"key":"37","name":"Ossingen","shortName":"Ossingen"},"district":{"key":"102","name":"Bezirk Andelfingen"},"canton":{"key":"1","code":"ZH","name":"Zürich"},"status":"Real"},{"key":"10057549","name":"Löwengässchen","postalCode":"8475","locality":"Ossingen","commune":{"key":"37","name":"Ossingen","shortName":"Ossingen"},"district":{"key":"102","name":"Bezirk Andelfingen"},"canton":{"key":"1","code":"ZH","name":"Zürich"},"status":"Real"},{"key":"10112294","name":"Mitteldorfstrasse","postalCode":"8475","locality":"Ossingen","commune":{"key":"37","name":"Ossingen","shortName":"Ossingen"},"district":{"key":"102","name":"Bezirk Andelfingen"},"canton":{"key":"1","code":"ZH","name":"Zürich"},"status":"Real"},{"key":"10153853","name":"Mühle Hausen","postalCode":"8475","locality":"Ossingen","commune":{"key":"37","name":"Ossingen","shortName":"Ossingen"},"district":{"key":"102","name":"Bezirk Andelfingen"},"canton":{"key":"1","code":"ZH","name":"Zürich"},"status":"Real"},{"key":"10081251","name":"Neunfornerstrasse","postalCode":"8475","locality":"Ossingen","commune":{"key":"37","name":"Ossingen","shortName":"Ossingen"},"district":{"key":"102","name":"Bezirk Andelfingen"},"canton":{"key":"1","code":"ZH","name":"Zürich"},"status":"Real"},{"key":"10002543","name":"Neuwiesstrasse","postalCode":"8475","locality":"Ossingen","commune":{"key":"37","name":"Ossingen","shortName":"Ossingen"},"district":{"key":"102","name":"Bezirk Andelfingen"},"canton":{"key":"1","code":"ZH","name":"Zürich"},"status":"Real"},{"key":"10203425","name":"Niderwisen","postalCode":"8475","locality":"Ossingen","commune":{"key":"37","name":"Ossingen","shortName":"Ossingen"},"district":{"key":"102","name":"Bezirk Andelfingen"},"canton":{"key":"1","code":"ZH","name":"Zürich"},"status":"Real"},{"key":"10121325","name":"Oberer Grundweg","postalCode":"8475","locality":"Ossingen","commune":{"key":"37","name":"Ossingen","shortName":"Ossingen"},"district":{"key":"102","name":"Bezirk Andelfingen"},"canton":{"key":"1","code":"ZH","name":"Zürich"},"status":"Real"},{"key":"10238162","name":"Oberholzstrasse","postalCode":"8475","locality":"Ossingen","commune":{"key":"37","name":"Ossingen","shortName":"Ossingen"},"district":{"key":"102","name":"Bezirk Andelfingen"},"canton":{"key":"1","code":"ZH","name":"Zürich"},"status":"Real"},{"key":"10203426","name":"Oerlingerstrasse","postalCode":"8475","locality":"Ossingen","commune":{"key":"37","name":"Ossingen","shortName":"Ossingen"},"district":{"key":"102","name":"Bezirk Andelfingen"},"canton":{"key":"1","code":"ZH","name":"Zürich"},"status":"Real"},{"key":"10184645","name":"Orenbergstrasse","postalCode":"8475","locality":"Ossingen","commune":{"key":"37","name":"Ossingen","shortName":"Ossingen"},"district":{"key":"102","name":"Bezirk Andelfingen"},"canton":{"key":"1","code":"ZH","name":"Zürich"},"status":"Real"},{"key":"10203427","name":"Pflanzschulstrasse","postalCode":"8475","locality":"Ossingen","commune":{"key":"37","name":"Ossingen","shortName":"Ossingen"},"district":{"key":"102","name":"Bezirk Andelfingen"},"canton":{"key":"1","code":"ZH","name":"Zürich"},"status":"Real"},{"key":"10002544","name":"Postweg","postalCode":"8475","locality":"Ossingen","commune":{"key":"37","name":"Ossingen","shortName":"Ossingen"},"district":{"key":"102","name":"Bezirk Andelfingen"},"canton":{"key":"1","code":"ZH","name":"Zürich"},"status":"Real"},{"key":"10081252","name":"Rebhof","postalCode":"8475","locality":"Ossingen","commune":{"key":"37","name":"Ossingen","shortName":"Ossingen"},"district":{"key":"102","name":"Bezirk Andelfingen"},"canton":{"key":"1","code":"ZH","name":"Zürich"},"status":"Real"},{"key":"10203428","name":"Richenergetenstrasse","postalCode":"8475","locality":"Ossingen","commune":{"key":"37","name":"Ossingen","shortName":"Ossingen"},"district":{"key":"102","name":"Bezirk Andelfingen"},"canton":{"key":"1","code":"ZH","name":"Zürich"},"status":"Real"},{"key":"10002545","name":"Riethalde","postalCode":"8475","locality":"Ossingen","commune":{"key":"37","name":"Ossingen","shortName":"Ossingen"},"district":{"key":"102","name":"Bezirk Andelfingen"},"canton":{"key":"1","code":"ZH","name":"Zürich"},"status":"Real"},{"key":"10238155","name":"Rietstrasse","postalCode":"8475","locality":"Ossingen","commune":{"key":"37","name":"Ossingen","shortName":"Ossingen"},"district":{"key":"102","name":"Bezirk Andelfingen"},"canton":{"key":"1","code":"ZH","name":"Zürich"},"status":"Real"},{"key":"10057480","name":"Rosenhof","postalCode":"8475","locality":"Ossingen","commune":{"key":"37","name":"Ossingen","shortName":"Ossingen"},"district":{"key":"102","name":"Bezirk Andelfingen"},"canton":{"key":"1","code":"ZH","name":"Zürich"},"status":"Real"},{"key":"10111707","name":"Roti Trotte","postalCode":"8475","locality":"Ossingen","commune":{"key":"37","name":"Ossingen","shortName":"Ossingen"},"district":{"key":"102","name":"Bezirk Andelfingen"},"canton":{"key":"1","code":"ZH","name":"Zürich"},"status":"Real"},{"key":"10002546","name":"Sangiweg","postalCode":"8475","locality":"Ossingen","commune":{"key":"37","name":"Ossingen","shortName":"Ossingen"},"district":{"key":"102","name":"Bezirk Andelfingen"},"canton":{"key":"1","code":"ZH","name":"Zürich"},"status":"Real"},{"key":"10203429","name":"Schneitenbergstrasse","postalCode":"8475","locality":"Ossingen","commune":{"key":"37","name":"Ossingen","shortName":"Ossingen"},"district":{"key":"102","name":"Bezirk Andelfingen"},"canton":{"key":"1","code":"ZH","name":"Zürich"},"status":"Real"},{"key":"10238150","name":"Schützenhausstrasse","postalCode":"8475","locality":"Ossingen","commune":{"key":"37","name":"Ossingen","shortName":"Ossingen"},"district":{"key":"102","name":"Bezirk Andelfingen"},"canton":{"key":"1","code":"ZH","name":"Zürich"},"status":"Real"},{"key":"10238153","name":"Schwomel","postalCode":"8475","locality":"Ossingen","commune":{"key":"37","name":"Ossingen","shortName":"Ossingen"},"district":{"key":"102","name":"Bezirk Andelfingen"},"canton":{"key":"1","code":"ZH","name":"Zürich"},"status":"Real"},{"key":"10058410","name":"Seehof","postalCode":"8475","locality":"Ossingen","commune":{"key":"37","name":"Ossingen","shortName":"Ossingen"},"district":{"key":"102","name":"Bezirk Andelfingen"},"canton":{"key":"1","code":"ZH","name":"Zürich"},"status":"Real"},{"key":"10203430","name":"Seestrasse","postalCode":"8475","locality":"Ossingen","commune":{"key":"37","name":"Ossingen","shortName":"Ossingen"},"district":{"key":"102","name":"Bezirk Andelfingen"},"canton":{"key":"1","code":"ZH","name":"Zürich"},"status":"Real"},{"key":"10203431","name":"Speckweg","postalCode":"8475","locality":"Ossingen","commune":{"key":"37","name":"Ossingen","shortName":"Ossingen"},"district":{"key":"102","name":"Bezirk Andelfingen"},"canton":{"key":"1","code":"ZH","name":"Zürich"},"status":"Real"},{"key":"10057550","name":"Stationsstrasse","postalCode":"8475","locality":"Ossingen","commune":{"key":"37","name":"Ossingen","shortName":"Ossingen"},"district":{"key":"102","name":"Bezirk Andelfingen"},"canton":{"key":"1","code":"ZH","name":"Zürich"},"status":"Real"},{"key":"10081253","name":"Steinerstrasse","postalCode":"8475","locality":"Ossingen","commune":{"key":"37","name":"Ossingen","shortName":"Ossingen"},"district":{"key":"102","name":"Bezirk Andelfingen"},"canton":{"key":"1","code":"ZH","name":"Zürich"},"status":"Real"},{"key":"10238154","name":"Stirnenbuckstrasse","postalCode":"8475","locality":"Ossingen","commune":{"key":"37","name":"Ossingen","shortName":"Ossingen"},"district":{"key":"102","name":"Bezirk Andelfingen"},"canton":{"key":"1","code":"ZH","name":"Zürich"},"status":"Real"},{"key":"10238158","name":"Stockistrasse","postalCode":"8475","locality":"Ossingen","commune":{"key":"37","name":"Ossingen","shortName":"Ossingen"},"district":{"key":"102","name":"Bezirk Andelfingen"},"canton":{"key":"1","code":"ZH","name":"Zürich"},"status":"Real"},{"key":"10002547","name":"Strählgass","postalCode":"8475","locality":"Ossingen","commune":{"key":"37","name":"Ossingen","shortName":"Ossingen"},"district":{"key":"102","name":"Bezirk Andelfingen"},"canton":{"key":"1","code":"ZH","name":"Zürich"},"status":"Real"},{"key":"10106316","name":"Tannenhof","postalCode":"8475","locality":"Ossingen","commune":{"key":"37","name":"Ossingen","shortName":"Ossingen"},"district":{"key":"102","name":"Bezirk Andelfingen"},"canton":{"key":"1","code":"ZH","name":"Zürich"},"status":"Real"},{"key":"10203432","name":"Tännlieggstrasse","postalCode":"8475","locality":"Ossingen","commune":{"key":"37","name":"Ossingen","shortName":"Ossingen"},"district":{"key":"102","name":"Bezirk Andelfingen"},"canton":{"key":"1","code":"ZH","name":"Zürich"},"status":"Real"},{"key":"10003111","name":"Thurhof","postalCode":"8475","locality":"Ossingen","commune":{"key":"37","name":"Ossingen","shortName":"Ossingen"},"district":{"key":"102","name":"Bezirk Andelfingen"},"canton":{"key":"1","code":"ZH","name":"Zürich"},"status":"Real"},{"key":"10238156","name":"Thurhölzliweg","postalCode":"8475","locality":"Ossingen","commune":{"key":"37","name":"Ossingen","shortName":"Ossingen"},"district":{"key":"102","name":"Bezirk Andelfingen"},"canton":{"key":"1","code":"ZH","name":"Zürich"},"status":"Real"},{"key":"10057551","name":"Truttikerstrasse","postalCode":"8475","locality":"Ossingen","commune":{"key":"37","name":"Ossingen","shortName":"Ossingen"},"district":{"key":"102","name":"Bezirk Andelfingen"},"canton":{"key":"1","code":"ZH","name":"Zürich"},"status":"Real"},{"key":"10128122","name":"Uf Wil","postalCode":"8475","locality":"Ossingen","commune":{"key":"37","name":"Ossingen","shortName":"Ossingen"},"district":{"key":"102","name":"Bezirk Andelfingen"},"canton":{"key":"1","code":"ZH","name":"Zürich"},"status":"Real"},{"key":"10112295","name":"Underem Berg","postalCode":"8475","locality":"Ossingen","commune":{"key":"37","name":"Ossingen","shortName":"Ossingen"},"district":{"key":"102","name":"Bezirk Andelfingen"},"canton":{"key":"1","code":"ZH","name":"Zürich"},"status":"Real"},{"key":"10057481","name":"Under Husen","postalCode":"8475","locality":"Ossingen","commune":{"key":"37","name":"Ossingen","shortName":"Ossingen"},"district":{"key":"102","name":"Bezirk Andelfingen"},"canton":{"key":"1","code":"ZH","name":"Zürich"},"status":"Real"},{"key":"10003112","name":"Unterer Grundweg","postalCode":"8475","locality":"Ossingen","commune":{"key":"37","name":"Ossingen","shortName":"Ossingen"},"district":{"key":"102","name":"Bezirk Andelfingen"},"canton":{"key":"1","code":"ZH","name":"Zürich"},"status":"Real"},{"key":"10081254","name":"Usserdorfweg","postalCode":"8475","locality":"Ossingen","commune":{"key":"37","name":"Ossingen","shortName":"Ossingen"},"district":{"key":"102","name":"Bezirk Andelfingen"},"canton":{"key":"1","code":"ZH","name":"Zürich"},"status":"Real"},{"key":"10238159","name":"Wannerweg","postalCode":"8475","locality":"Ossingen","commune":{"key":"37","name":"Ossingen","shortName":"Ossingen"},"district":{"key":"102","name":"Bezirk Andelfingen"},"canton":{"key":"1","code":"ZH","name":"Zürich"},"status":"Real"},{"key":"10203433","name":"Weiherweg","postalCode":"8475","locality":"Ossingen","commune":{"key":"37","name":"Ossingen","shortName":"Ossingen"},"district":{"key":"102","name":"Bezirk Andelfingen"},"canton":{"key":"1","code":"ZH","name":"Zürich"},"status":"Real"},{"key":"10057552","name":"Werdhof","postalCode":"8475","locality":"Ossingen","commune":{"key":"37","name":"Ossingen","shortName":"Ossingen"},"district":{"key":"102","name":"Bezirk Andelfingen"},"canton":{"key":"1","code":"ZH","name":"Zürich"},"status":"Real"},{"key":"10203434","name":"Werdhofstrasse","postalCode":"8475","locality":"Ossingen","commune":{"key":"37","name":"Ossingen","shortName":"Ossingen"},"district":{"key":"102","name":"Bezirk Andelfingen"},"canton":{"key":"1","code":"ZH","name":"Zürich"},"status":"Real"},{"key":"10003113","name":"Wilhof","postalCode":"8475","locality":"Ossingen","commune":{"key":"37","name":"Ossingen","shortName":"Ossingen"},"district":{"key":"102","name":"Bezirk Andelfingen"},"canton":{"key":"1","code":"ZH","name":"Zürich"},"status":"Real"},{"key":"10003114","name":"Wyden","postalCode":"8475","locality":"Ossingen","commune":{"key":"37","name":"Ossingen","shortName":"Ossingen"},"district":{"key":"102","name":"Bezirk Andelfingen"},"canton":{"key":"1","code":"ZH","name":"Zürich"},"status":"Real"},{"key":"10057553","name":"Zehntenweg","postalCode":"8475","locality":"Ossingen","commune":{"key":"37","name":"Ossingen","shortName":"Ossingen"},"district":{"key":"102","name":"Bezirk Andelfingen"},"canton":{"key":"1","code":"ZH","name":"Zürich"},"status":"Real"},{"key":"10203435","name":"Zelgweg","postalCode":"8475","locality":"Ossingen","commune":{"key":"37","name":"Ossingen","shortName":"Ossingen"},"district":{"key":"102","name":"Bezirk Andelfingen"},"canton":{"key":"1","code":"ZH","name":"Zürich"},"status":"Real"},{"key":"10130073","name":"Ziegelhütte","postalCode":"8475","locality":"Ossingen","commune":{"key":"37","name":"Ossingen","shortName":"Ossingen"},"district":{"key":"102","name":"Bezirk Andelfingen"},"canton":{"key":"1","code":"ZH","name":"Zürich"},"status":"Real"},{"key":"10238149","name":"Zinggenweg","postalCode":"8475","locality":"Ossingen","commune":{"key":"37","name":"Ossingen","shortName":"Ossingen"},"district":{"key":"102","name":"Bezirk Andelfingen"},"canton":{"key":"1","code":"ZH","name":"Zürich"},"status":"Real"},{"key":"10081255","name":"Zur Station","postalCode":"8475","locality":"Ossingen","commune":{"key":"37","name":"Ossingen","shortName":"Ossingen"},"district":{"key":"102","name":"Bezirk Andelfingen"},"canton":{"key":"1","code":"ZH","name":"Zürich"},"status":"Real"},]