[{"name":"Adalbert-Stifter-Str.","postalCode":"79312","locality":"Emmendingen","municipality":{"key":"08316011","name":"Emmendingen, Stadt","type":"Große_Kreisstadt"},"district":{"key":"08316","name":"Emmendingen","type":"Landkreis"},"federalState":{"key":"08","name":"Baden-Württemberg"}},{"name":"Adelsberg","postalCode":"79312","locality":"Emmendingen","municipality":{"key":"08316011","name":"Emmendingen, Stadt","type":"Große_Kreisstadt"},"district":{"key":"08316","name":"Emmendingen","type":"Landkreis"},"federalState":{"key":"08","name":"Baden-Württemberg"}},{"name":"Adolf-Sexauer-Str.","postalCode":"79312","locality":"Emmendingen","municipality":{"key":"08316011","name":"Emmendingen, Stadt","type":"Große_Kreisstadt"},"district":{"key":"08316","name":"Emmendingen","type":"Landkreis"},"federalState":{"key":"08","name":"Baden-Württemberg"}},{"name":"Adolph-Kolping-Str.","postalCode":"79312","locality":"Emmendingen","municipality":{"key":"08316011","name":"Emmendingen, Stadt","type":"Große_Kreisstadt"},"district":{"key":"08316","name":"Emmendingen","type":"Landkreis"},"federalState":{"key":"08","name":"Baden-Württemberg"}},{"name":"Ahornweg","postalCode":"79312","locality":"Emmendingen","municipality":{"key":"08316011","name":"Emmendingen, Stadt","type":"Große_Kreisstadt"},"district":{"key":"08316","name":"Emmendingen","type":"Landkreis"},"federalState":{"key":"08","name":"Baden-Württemberg"}},{"name":"Albrecht-Dürer-Str.","postalCode":"79312","locality":"Emmendingen","municipality":{"key":"08316011","name":"Emmendingen, Stadt","type":"Große_Kreisstadt"},"district":{"key":"08316","name":"Emmendingen","type":"Landkreis"},"federalState":{"key":"08","name":"Baden-Württemberg"}},{"name":"Alemannenstr.","postalCode":"79312","locality":"Emmendingen","municipality":{"key":"08316011","name":"Emmendingen, Stadt","type":"Große_Kreisstadt"},"district":{"key":"08316","name":"Emmendingen","type":"Landkreis"},"federalState":{"key":"08","name":"Baden-Württemberg"}},{"name":"Alfred-Döblin-Str.","postalCode":"79312","locality":"Emmendingen","municipality":{"key":"08316011","name":"Emmendingen, Stadt","type":"Große_Kreisstadt"},"district":{"key":"08316","name":"Emmendingen","type":"Landkreis"},"federalState":{"key":"08","name":"Baden-Württemberg"}},{"name":"Altdorfstr.","postalCode":"79312","locality":"Emmendingen","municipality":{"key":"08316011","name":"Emmendingen, Stadt","type":"Große_Kreisstadt"},"district":{"key":"08316","name":"Emmendingen","type":"Landkreis"},"federalState":{"key":"08","name":"Baden-Württemberg"}},{"name":"Alte Landstr.","postalCode":"79312","locality":"Emmendingen","municipality":{"key":"08316011","name":"Emmendingen, Stadt","type":"Große_Kreisstadt"},"district":{"key":"08316","name":"Emmendingen","type":"Landkreis"},"federalState":{"key":"08","name":"Baden-Württemberg"}},{"name":"Alt Laberweg","postalCode":"79312","locality":"Emmendingen","municipality":{"key":"08316011","name":"Emmendingen, Stadt","type":"Große_Kreisstadt"},"district":{"key":"08316","name":"Emmendingen","type":"Landkreis"},"federalState":{"key":"08","name":"Baden-Württemberg"}},{"name":"Alt-Malecker Weg","postalCode":"79312","locality":"Emmendingen","municipality":{"key":"08316011","name":"Emmendingen, Stadt","type":"Große_Kreisstadt"},"district":{"key":"08316","name":"Emmendingen","type":"Landkreis"},"federalState":{"key":"08","name":"Baden-Württemberg"}},{"name":"Am Alemannenbuck","postalCode":"79312","locality":"Emmendingen","municipality":{"key":"08316011","name":"Emmendingen, Stadt","type":"Große_Kreisstadt"},"district":{"key":"08316","name":"Emmendingen","type":"Landkreis"},"federalState":{"key":"08","name":"Baden-Württemberg"}},{"name":"Am alten Festplatz","postalCode":"79312","locality":"Emmendingen","municipality":{"key":"08316011","name":"Emmendingen, Stadt","type":"Große_Kreisstadt"},"district":{"key":"08316","name":"Emmendingen","type":"Landkreis"},"federalState":{"key":"08","name":"Baden-Württemberg"}},{"name":"Am alten Marstall","postalCode":"79312","locality":"Emmendingen","municipality":{"key":"08316011","name":"Emmendingen, Stadt","type":"Große_Kreisstadt"},"district":{"key":"08316","name":"Emmendingen","type":"Landkreis"},"federalState":{"key":"08","name":"Baden-Württemberg"}},{"name":"Am Bürkle","postalCode":"79312","locality":"Emmendingen","municipality":{"key":"08316011","name":"Emmendingen, Stadt","type":"Große_Kreisstadt"},"district":{"key":"08316","name":"Emmendingen","type":"Landkreis"},"federalState":{"key":"08","name":"Baden-Württemberg"}},{"name":"Am Dachsrain","postalCode":"79312","locality":"Emmendingen","municipality":{"key":"08316011","name":"Emmendingen, Stadt","type":"Große_Kreisstadt"},"district":{"key":"08316","name":"Emmendingen","type":"Landkreis"},"federalState":{"key":"08","name":"Baden-Württemberg"}},{"name":"Ameisenweg","postalCode":"79312","locality":"Emmendingen","municipality":{"key":"08316011","name":"Emmendingen, Stadt","type":"Große_Kreisstadt"},"district":{"key":"08316","name":"Emmendingen","type":"Landkreis"},"federalState":{"key":"08","name":"Baden-Württemberg"}},{"name":"Am Elzdamm","postalCode":"79312","locality":"Emmendingen","municipality":{"key":"08316011","name":"Emmendingen, Stadt","type":"Große_Kreisstadt"},"district":{"key":"08316","name":"Emmendingen","type":"Landkreis"},"federalState":{"key":"08","name":"Baden-Württemberg"}},{"name":"Am Festplatz","postalCode":"79312","locality":"Emmendingen","municipality":{"key":"08316011","name":"Emmendingen, Stadt","type":"Große_Kreisstadt"},"district":{"key":"08316","name":"Emmendingen","type":"Landkreis"},"federalState":{"key":"08","name":"Baden-Württemberg"}},{"name":"Am Gaswerk","postalCode":"79312","locality":"Emmendingen","municipality":{"key":"08316011","name":"Emmendingen, Stadt","type":"Große_Kreisstadt"},"district":{"key":"08316","name":"Emmendingen","type":"Landkreis"},"federalState":{"key":"08","name":"Baden-Württemberg"}},{"name":"Am Himmelreich","postalCode":"79312","locality":"Emmendingen","municipality":{"key":"08316011","name":"Emmendingen, Stadt","type":"Große_Kreisstadt"},"district":{"key":"08316","name":"Emmendingen","type":"Landkreis"},"federalState":{"key":"08","name":"Baden-Württemberg"}},{"name":"Am Hofacker","postalCode":"79312","locality":"Emmendingen","municipality":{"key":"08316011","name":"Emmendingen, Stadt","type":"Große_Kreisstadt"},"district":{"key":"08316","name":"Emmendingen","type":"Landkreis"},"federalState":{"key":"08","name":"Baden-Württemberg"}},{"name":"Am Kurzarm","postalCode":"79312","locality":"Emmendingen","municipality":{"key":"08316011","name":"Emmendingen, Stadt","type":"Große_Kreisstadt"},"district":{"key":"08316","name":"Emmendingen","type":"Landkreis"},"federalState":{"key":"08","name":"Baden-Württemberg"}},{"name":"Am Lerchacker","postalCode":"79312","locality":"Emmendingen","municipality":{"key":"08316011","name":"Emmendingen, Stadt","type":"Große_Kreisstadt"},"district":{"key":"08316","name":"Emmendingen","type":"Landkreis"},"federalState":{"key":"08","name":"Baden-Württemberg"}},{"name":"Am Mühlbach","postalCode":"79312","locality":"Emmendingen","municipality":{"key":"08316011","name":"Emmendingen, Stadt","type":"Große_Kreisstadt"},"district":{"key":"08316","name":"Emmendingen","type":"Landkreis"},"federalState":{"key":"08","name":"Baden-Württemberg"}},{"name":"Am Schaffhauser","postalCode":"79312","locality":"Emmendingen","municipality":{"key":"08316011","name":"Emmendingen, Stadt","type":"Große_Kreisstadt"},"district":{"key":"08316","name":"Emmendingen","type":"Landkreis"},"federalState":{"key":"08","name":"Baden-Württemberg"}},{"name":"Am Schießrain","postalCode":"79312","locality":"Emmendingen","municipality":{"key":"08316011","name":"Emmendingen, Stadt","type":"Große_Kreisstadt"},"district":{"key":"08316","name":"Emmendingen","type":"Landkreis"},"federalState":{"key":"08","name":"Baden-Württemberg"}},{"name":"Am Schlauchturm","postalCode":"79312","locality":"Emmendingen","municipality":{"key":"08316011","name":"Emmendingen, Stadt","type":"Große_Kreisstadt"},"district":{"key":"08316","name":"Emmendingen","type":"Landkreis"},"federalState":{"key":"08","name":"Baden-Württemberg"}},{"name":"Amsenbuckweg","postalCode":"79312","locality":"Emmendingen","municipality":{"key":"08316011","name":"Emmendingen, Stadt","type":"Große_Kreisstadt"},"district":{"key":"08316","name":"Emmendingen","type":"Landkreis"},"federalState":{"key":"08","name":"Baden-Württemberg"}},{"name":"Am Sonnenberg","postalCode":"79312","locality":"Emmendingen","municipality":{"key":"08316011","name":"Emmendingen, Stadt","type":"Große_Kreisstadt"},"district":{"key":"08316","name":"Emmendingen","type":"Landkreis"},"federalState":{"key":"08","name":"Baden-Württemberg"}},{"name":"Am Sportfeld","postalCode":"79312","locality":"Emmendingen","municipality":{"key":"08316011","name":"Emmendingen, Stadt","type":"Große_Kreisstadt"},"district":{"key":"08316","name":"Emmendingen","type":"Landkreis"},"federalState":{"key":"08","name":"Baden-Württemberg"}},{"name":"Am Stadtgarten","postalCode":"79312","locality":"Emmendingen","municipality":{"key":"08316011","name":"Emmendingen, Stadt","type":"Große_Kreisstadt"},"district":{"key":"08316","name":"Emmendingen","type":"Landkreis"},"federalState":{"key":"08","name":"Baden-Württemberg"}},{"name":"Am Stöckenhof","postalCode":"79312","locality":"Emmendingen","municipality":{"key":"08316011","name":"Emmendingen, Stadt","type":"Große_Kreisstadt"},"district":{"key":"08316","name":"Emmendingen","type":"Landkreis"},"federalState":{"key":"08","name":"Baden-Württemberg"}},{"name":"Am Stockert","postalCode":"79312","locality":"Emmendingen","municipality":{"key":"08316011","name":"Emmendingen, Stadt","type":"Große_Kreisstadt"},"district":{"key":"08316","name":"Emmendingen","type":"Landkreis"},"federalState":{"key":"08","name":"Baden-Württemberg"}},{"name":"Am Vogelsang","postalCode":"79312","locality":"Emmendingen","municipality":{"key":"08316011","name":"Emmendingen, Stadt","type":"Große_Kreisstadt"},"district":{"key":"08316","name":"Emmendingen","type":"Landkreis"},"federalState":{"key":"08","name":"Baden-Württemberg"}},{"name":"Am Wäldele","postalCode":"79312","locality":"Emmendingen","municipality":{"key":"08316011","name":"Emmendingen, Stadt","type":"Große_Kreisstadt"},"district":{"key":"08316","name":"Emmendingen","type":"Landkreis"},"federalState":{"key":"08","name":"Baden-Württemberg"}},{"name":"Am Wehr","postalCode":"79312","locality":"Emmendingen","municipality":{"key":"08316011","name":"Emmendingen, Stadt","type":"Große_Kreisstadt"},"district":{"key":"08316","name":"Emmendingen","type":"Landkreis"},"federalState":{"key":"08","name":"Baden-Württemberg"}},{"name":"Am Weidenbach","postalCode":"79312","locality":"Emmendingen","municipality":{"key":"08316011","name":"Emmendingen, Stadt","type":"Große_Kreisstadt"},"district":{"key":"08316","name":"Emmendingen","type":"Landkreis"},"federalState":{"key":"08","name":"Baden-Württemberg"}},{"name":"An der Halde","postalCode":"79312","locality":"Emmendingen","municipality":{"key":"08316011","name":"Emmendingen, Stadt","type":"Große_Kreisstadt"},"district":{"key":"08316","name":"Emmendingen","type":"Landkreis"},"federalState":{"key":"08","name":"Baden-Württemberg"}},{"name":"An der Lehmgrube","postalCode":"79312","locality":"Emmendingen","municipality":{"key":"08316011","name":"Emmendingen, Stadt","type":"Große_Kreisstadt"},"district":{"key":"08316","name":"Emmendingen","type":"Landkreis"},"federalState":{"key":"08","name":"Baden-Württemberg"}},{"name":"An der Rothalde","postalCode":"79312","locality":"Emmendingen","municipality":{"key":"08316011","name":"Emmendingen, Stadt","type":"Große_Kreisstadt"},"district":{"key":"08316","name":"Emmendingen","type":"Landkreis"},"federalState":{"key":"08","name":"Baden-Württemberg"}},{"name":"An der Schwelle","postalCode":"79312","locality":"Emmendingen","municipality":{"key":"08316011","name":"Emmendingen, Stadt","type":"Große_Kreisstadt"},"district":{"key":"08316","name":"Emmendingen","type":"Landkreis"},"federalState":{"key":"08","name":"Baden-Württemberg"}},{"name":"An der Steige","postalCode":"79312","locality":"Emmendingen","municipality":{"key":"08316011","name":"Emmendingen, Stadt","type":"Große_Kreisstadt"},"district":{"key":"08316","name":"Emmendingen","type":"Landkreis"},"federalState":{"key":"08","name":"Baden-Württemberg"}},{"name":"Asternweg","postalCode":"79312","locality":"Emmendingen","municipality":{"key":"08316011","name":"Emmendingen, Stadt","type":"Große_Kreisstadt"},"district":{"key":"08316","name":"Emmendingen","type":"Landkreis"},"federalState":{"key":"08","name":"Baden-Württemberg"}},{"name":"Aubächleweg","postalCode":"79312","locality":"Emmendingen","municipality":{"key":"08316011","name":"Emmendingen, Stadt","type":"Große_Kreisstadt"},"district":{"key":"08316","name":"Emmendingen","type":"Landkreis"},"federalState":{"key":"08","name":"Baden-Württemberg"}},{"name":"Bachstr.","postalCode":"79312","locality":"Emmendingen","municipality":{"key":"08316011","name":"Emmendingen, Stadt","type":"Große_Kreisstadt"},"district":{"key":"08316","name":"Emmendingen","type":"Landkreis"},"federalState":{"key":"08","name":"Baden-Württemberg"}},{"name":"Bahnhofstr.","postalCode":"79312","locality":"Emmendingen","municipality":{"key":"08316011","name":"Emmendingen, Stadt","type":"Große_Kreisstadt"},"district":{"key":"08316","name":"Emmendingen","type":"Landkreis"},"federalState":{"key":"08","name":"Baden-Württemberg"}},{"name":"Baldung-Grien-Str.","postalCode":"79312","locality":"Emmendingen","municipality":{"key":"08316011","name":"Emmendingen, Stadt","type":"Große_Kreisstadt"},"district":{"key":"08316","name":"Emmendingen","type":"Landkreis"},"federalState":{"key":"08","name":"Baden-Württemberg"}},{"name":"Basler Str.","postalCode":"79312","locality":"Emmendingen","municipality":{"key":"08316011","name":"Emmendingen, Stadt","type":"Große_Kreisstadt"},"district":{"key":"08316","name":"Emmendingen","type":"Landkreis"},"federalState":{"key":"08","name":"Baden-Württemberg"}},{"name":"Bechererstr.","postalCode":"79312","locality":"Emmendingen","municipality":{"key":"08316011","name":"Emmendingen, Stadt","type":"Große_Kreisstadt"},"district":{"key":"08316","name":"Emmendingen","type":"Landkreis"},"federalState":{"key":"08","name":"Baden-Württemberg"}},{"name":"Beethovenstr.","postalCode":"79312","locality":"Emmendingen","municipality":{"key":"08316011","name":"Emmendingen, Stadt","type":"Große_Kreisstadt"},"district":{"key":"08316","name":"Emmendingen","type":"Landkreis"},"federalState":{"key":"08","name":"Baden-Württemberg"}},{"name":"Bergerstr.","postalCode":"79312","locality":"Emmendingen","municipality":{"key":"08316011","name":"Emmendingen, Stadt","type":"Große_Kreisstadt"},"district":{"key":"08316","name":"Emmendingen","type":"Landkreis"},"federalState":{"key":"08","name":"Baden-Württemberg"}},{"name":"Bergstr.","postalCode":"79312","locality":"Emmendingen","municipality":{"key":"08316011","name":"Emmendingen, Stadt","type":"Große_Kreisstadt"},"district":{"key":"08316","name":"Emmendingen","type":"Landkreis"},"federalState":{"key":"08","name":"Baden-Württemberg"}},{"name":"Birkenweg","postalCode":"79312","locality":"Emmendingen","municipality":{"key":"08316011","name":"Emmendingen, Stadt","type":"Große_Kreisstadt"},"district":{"key":"08316","name":"Emmendingen","type":"Landkreis"},"federalState":{"key":"08","name":"Baden-Württemberg"}},{"name":"Bismarckstr.","postalCode":"79312","locality":"Emmendingen","municipality":{"key":"08316011","name":"Emmendingen, Stadt","type":"Große_Kreisstadt"},"district":{"key":"08316","name":"Emmendingen","type":"Landkreis"},"federalState":{"key":"08","name":"Baden-Württemberg"}},{"name":"Bleiche-Schulweg","postalCode":"79312","locality":"Emmendingen","municipality":{"key":"08316011","name":"Emmendingen, Stadt","type":"Große_Kreisstadt"},"district":{"key":"08316","name":"Emmendingen","type":"Landkreis"},"federalState":{"key":"08","name":"Baden-Württemberg"}},{"name":"Blumenstr.","postalCode":"79312","locality":"Emmendingen","municipality":{"key":"08316011","name":"Emmendingen, Stadt","type":"Große_Kreisstadt"},"district":{"key":"08316","name":"Emmendingen","type":"Landkreis"},"federalState":{"key":"08","name":"Baden-Württemberg"}},{"name":"Blümlesmattenweg","postalCode":"79312","locality":"Emmendingen","municipality":{"key":"08316011","name":"Emmendingen, Stadt","type":"Große_Kreisstadt"},"district":{"key":"08316","name":"Emmendingen","type":"Landkreis"},"federalState":{"key":"08","name":"Baden-Württemberg"}},{"name":"Bogensportclub Emmendingen","postalCode":"79312","locality":"Emmendingen","municipality":{"key":"08316011","name":"Emmendingen, Stadt","type":"Große_Kreisstadt"},"district":{"key":"08316","name":"Emmendingen","type":"Landkreis"},"federalState":{"key":"08","name":"Baden-Württemberg"}},{"name":"Brandelweg","postalCode":"79312","locality":"Emmendingen","municipality":{"key":"08316011","name":"Emmendingen, Stadt","type":"Große_Kreisstadt"},"district":{"key":"08316","name":"Emmendingen","type":"Landkreis"},"federalState":{"key":"08","name":"Baden-Württemberg"}},{"name":"Breisgaustr.","postalCode":"79312","locality":"Emmendingen","municipality":{"key":"08316011","name":"Emmendingen, Stadt","type":"Große_Kreisstadt"},"district":{"key":"08316","name":"Emmendingen","type":"Landkreis"},"federalState":{"key":"08","name":"Baden-Württemberg"}},{"name":"Breiter Weg","postalCode":"79312","locality":"Emmendingen","municipality":{"key":"08316011","name":"Emmendingen, Stadt","type":"Große_Kreisstadt"},"district":{"key":"08316","name":"Emmendingen","type":"Landkreis"},"federalState":{"key":"08","name":"Baden-Württemberg"}},{"name":"Breitstockweg","postalCode":"79312","locality":"Emmendingen","municipality":{"key":"08316011","name":"Emmendingen, Stadt","type":"Große_Kreisstadt"},"district":{"key":"08316","name":"Emmendingen","type":"Landkreis"},"federalState":{"key":"08","name":"Baden-Württemberg"}},{"name":"Brettenbachbrücke","postalCode":"79312","locality":"Emmendingen","municipality":{"key":"08316011","name":"Emmendingen, Stadt","type":"Große_Kreisstadt"},"district":{"key":"08316","name":"Emmendingen","type":"Landkreis"},"federalState":{"key":"08","name":"Baden-Württemberg"}},{"name":"Brettenbachstr.","postalCode":"79312","locality":"Emmendingen","municipality":{"key":"08316011","name":"Emmendingen, Stadt","type":"Große_Kreisstadt"},"district":{"key":"08316","name":"Emmendingen","type":"Landkreis"},"federalState":{"key":"08","name":"Baden-Württemberg"}},{"name":"Bruderhäusledobelweg","postalCode":"79312","locality":"Emmendingen","municipality":{"key":"08316011","name":"Emmendingen, Stadt","type":"Große_Kreisstadt"},"district":{"key":"08316","name":"Emmendingen","type":"Landkreis"},"federalState":{"key":"08","name":"Baden-Württemberg"}},{"name":"Brunnackerweg","postalCode":"79312","locality":"Emmendingen","municipality":{"key":"08316011","name":"Emmendingen, Stadt","type":"Große_Kreisstadt"},"district":{"key":"08316","name":"Emmendingen","type":"Landkreis"},"federalState":{"key":"08","name":"Baden-Württemberg"}},{"name":"Brunnenstr.","postalCode":"79312","locality":"Emmendingen","municipality":{"key":"08316011","name":"Emmendingen, Stadt","type":"Große_Kreisstadt"},"district":{"key":"08316","name":"Emmendingen","type":"Landkreis"},"federalState":{"key":"08","name":"Baden-Württemberg"}},{"name":"Buchenweg","postalCode":"79312","locality":"Emmendingen","municipality":{"key":"08316011","name":"Emmendingen, Stadt","type":"Große_Kreisstadt"},"district":{"key":"08316","name":"Emmendingen","type":"Landkreis"},"federalState":{"key":"08","name":"Baden-Württemberg"}},{"name":"Buckweg","postalCode":"79312","locality":"Emmendingen","municipality":{"key":"08316011","name":"Emmendingen, Stadt","type":"Große_Kreisstadt"},"district":{"key":"08316","name":"Emmendingen","type":"Landkreis"},"federalState":{"key":"08","name":"Baden-Württemberg"}},{"name":"Bundesstr.","postalCode":"79312","locality":"Emmendingen","municipality":{"key":"08316011","name":"Emmendingen, Stadt","type":"Große_Kreisstadt"},"district":{"key":"08316","name":"Emmendingen","type":"Landkreis"},"federalState":{"key":"08","name":"Baden-Württemberg"}},{"name":"Burgstr.","postalCode":"79312","locality":"Emmendingen","municipality":{"key":"08316011","name":"Emmendingen, Stadt","type":"Große_Kreisstadt"},"district":{"key":"08316","name":"Emmendingen","type":"Landkreis"},"federalState":{"key":"08","name":"Baden-Württemberg"}},{"name":"Burgweg","postalCode":"79312","locality":"Emmendingen","municipality":{"key":"08316011","name":"Emmendingen, Stadt","type":"Große_Kreisstadt"},"district":{"key":"08316","name":"Emmendingen","type":"Landkreis"},"federalState":{"key":"08","name":"Baden-Württemberg"}},{"name":"Carl-Helbing-Str.","postalCode":"79312","locality":"Emmendingen","municipality":{"key":"08316011","name":"Emmendingen, Stadt","type":"Große_Kreisstadt"},"district":{"key":"08316","name":"Emmendingen","type":"Landkreis"},"federalState":{"key":"08","name":"Baden-Württemberg"}},{"name":"Carl-Orff-Weg","postalCode":"79312","locality":"Emmendingen","municipality":{"key":"08316011","name":"Emmendingen, Stadt","type":"Große_Kreisstadt"},"district":{"key":"08316","name":"Emmendingen","type":"Landkreis"},"federalState":{"key":"08","name":"Baden-Württemberg"}},{"name":"Carl-Ringwald-Str.","postalCode":"79312","locality":"Emmendingen","municipality":{"key":"08316011","name":"Emmendingen, Stadt","type":"Große_Kreisstadt"},"district":{"key":"08316","name":"Emmendingen","type":"Landkreis"},"federalState":{"key":"08","name":"Baden-Württemberg"}},{"name":"Christian-Herbst-Str.","postalCode":"79312","locality":"Emmendingen","municipality":{"key":"08316011","name":"Emmendingen, Stadt","type":"Große_Kreisstadt"},"district":{"key":"08316","name":"Emmendingen","type":"Landkreis"},"federalState":{"key":"08","name":"Baden-Württemberg"}},{"name":"Christian-Kiefer-Weg","postalCode":"79312","locality":"Emmendingen","municipality":{"key":"08316011","name":"Emmendingen, Stadt","type":"Große_Kreisstadt"},"district":{"key":"08316","name":"Emmendingen","type":"Landkreis"},"federalState":{"key":"08","name":"Baden-Württemberg"}},{"name":"Cornelia-Passage","postalCode":"79312","locality":"Emmendingen","municipality":{"key":"08316011","name":"Emmendingen, Stadt","type":"Große_Kreisstadt"},"district":{"key":"08316","name":"Emmendingen","type":"Landkreis"},"federalState":{"key":"08","name":"Baden-Württemberg"}},{"name":"Dahlienweg","postalCode":"79312","locality":"Emmendingen","municipality":{"key":"08316011","name":"Emmendingen, Stadt","type":"Große_Kreisstadt"},"district":{"key":"08316","name":"Emmendingen","type":"Landkreis"},"federalState":{"key":"08","name":"Baden-Württemberg"}},{"name":"Dammweg","postalCode":"79312","locality":"Emmendingen","municipality":{"key":"08316011","name":"Emmendingen, Stadt","type":"Große_Kreisstadt"},"district":{"key":"08316","name":"Emmendingen","type":"Landkreis"},"federalState":{"key":"08","name":"Baden-Württemberg"}},{"name":"Denzlinger Str.","postalCode":"79312","locality":"Emmendingen","municipality":{"key":"08316011","name":"Emmendingen, Stadt","type":"Große_Kreisstadt"},"district":{"key":"08316","name":"Emmendingen","type":"Landkreis"},"federalState":{"key":"08","name":"Baden-Württemberg"}},{"name":"Denzlinger Weg","postalCode":"79312","locality":"Emmendingen","municipality":{"key":"08316011","name":"Emmendingen, Stadt","type":"Große_Kreisstadt"},"district":{"key":"08316","name":"Emmendingen","type":"Landkreis"},"federalState":{"key":"08","name":"Baden-Württemberg"}},{"name":"Dickeichenweg","postalCode":"79312","locality":"Emmendingen","municipality":{"key":"08316011","name":"Emmendingen, Stadt","type":"Große_Kreisstadt"},"district":{"key":"08316","name":"Emmendingen","type":"Landkreis"},"federalState":{"key":"08","name":"Baden-Württemberg"}},{"name":"Dobelweg","postalCode":"79312","locality":"Emmendingen","municipality":{"key":"08316011","name":"Emmendingen, Stadt","type":"Große_Kreisstadt"},"district":{"key":"08316","name":"Emmendingen","type":"Landkreis"},"federalState":{"key":"08","name":"Baden-Württemberg"}},{"name":"Dominik-Weber-Str.","postalCode":"79312","locality":"Emmendingen","municipality":{"key":"08316011","name":"Emmendingen, Stadt","type":"Große_Kreisstadt"},"district":{"key":"08316","name":"Emmendingen","type":"Landkreis"},"federalState":{"key":"08","name":"Baden-Württemberg"}},{"name":"Dorfbachweg","postalCode":"79312","locality":"Emmendingen","municipality":{"key":"08316011","name":"Emmendingen, Stadt","type":"Große_Kreisstadt"},"district":{"key":"08316","name":"Emmendingen","type":"Landkreis"},"federalState":{"key":"08","name":"Baden-Württemberg"}},{"name":"Dorfstr.","postalCode":"79312","locality":"Emmendingen","municipality":{"key":"08316011","name":"Emmendingen, Stadt","type":"Große_Kreisstadt"},"district":{"key":"08316","name":"Emmendingen","type":"Landkreis"},"federalState":{"key":"08","name":"Baden-Württemberg"}},{"name":"Droste-Hülshoff-Weg","postalCode":"79312","locality":"Emmendingen","municipality":{"key":"08316011","name":"Emmendingen, Stadt","type":"Große_Kreisstadt"},"district":{"key":"08316","name":"Emmendingen","type":"Landkreis"},"federalState":{"key":"08","name":"Baden-Württemberg"}},{"name":"Eichberg-Rundweg","postalCode":"79312","locality":"Emmendingen","municipality":{"key":"08316011","name":"Emmendingen, Stadt","type":"Große_Kreisstadt"},"district":{"key":"08316","name":"Emmendingen","type":"Landkreis"},"federalState":{"key":"08","name":"Baden-Württemberg"}},{"name":"Eichendorffstr.","postalCode":"79312","locality":"Emmendingen","municipality":{"key":"08316011","name":"Emmendingen, Stadt","type":"Große_Kreisstadt"},"district":{"key":"08316","name":"Emmendingen","type":"Landkreis"},"federalState":{"key":"08","name":"Baden-Württemberg"}},{"name":"Eichholzstr.","postalCode":"79312","locality":"Emmendingen","municipality":{"key":"08316011","name":"Emmendingen, Stadt","type":"Große_Kreisstadt"},"district":{"key":"08316","name":"Emmendingen","type":"Landkreis"},"federalState":{"key":"08","name":"Baden-Württemberg"}},{"name":"Elzmattenstr.","postalCode":"79312","locality":"Emmendingen","municipality":{"key":"08316011","name":"Emmendingen, Stadt","type":"Große_Kreisstadt"},"district":{"key":"08316","name":"Emmendingen","type":"Landkreis"},"federalState":{"key":"08","name":"Baden-Württemberg"}},{"name":"Elzstr.","postalCode":"79312","locality":"Emmendingen","municipality":{"key":"08316011","name":"Emmendingen, Stadt","type":"Große_Kreisstadt"},"district":{"key":"08316","name":"Emmendingen","type":"Landkreis"},"federalState":{"key":"08","name":"Baden-Württemberg"}},{"name":"Elzweg","postalCode":"79312","locality":"Emmendingen","municipality":{"key":"08316011","name":"Emmendingen, Stadt","type":"Große_Kreisstadt"},"district":{"key":"08316","name":"Emmendingen","type":"Landkreis"},"federalState":{"key":"08","name":"Baden-Württemberg"}},{"name":"Emil-Gött-Weg","postalCode":"79312","locality":"Emmendingen","municipality":{"key":"08316011","name":"Emmendingen, Stadt","type":"Große_Kreisstadt"},"district":{"key":"08316","name":"Emmendingen","type":"Landkreis"},"federalState":{"key":"08","name":"Baden-Württemberg"}},{"name":"Emmendinger Str.","postalCode":"79312","locality":"Emmendingen","municipality":{"key":"08316011","name":"Emmendingen, Stadt","type":"Große_Kreisstadt"},"district":{"key":"08316","name":"Emmendingen","type":"Landkreis"},"federalState":{"key":"08","name":"Baden-Württemberg"}},{"name":"Emmendinger Str.","postalCode":"79331","locality":"Emmendingen","municipality":{"key":"08316011","name":"Emmendingen, Stadt","type":"Große_Kreisstadt"},"district":{"key":"08316","name":"Emmendingen","type":"Landkreis"},"federalState":{"key":"08","name":"Baden-Württemberg"}},{"name":"Erbackerweg","postalCode":"79312","locality":"Emmendingen","municipality":{"key":"08316011","name":"Emmendingen, Stadt","type":"Große_Kreisstadt"},"district":{"key":"08316","name":"Emmendingen","type":"Landkreis"},"federalState":{"key":"08","name":"Baden-Württemberg"}},{"name":"Erbsenreute","postalCode":"79312","locality":"Emmendingen","municipality":{"key":"08316011","name":"Emmendingen, Stadt","type":"Große_Kreisstadt"},"district":{"key":"08316","name":"Emmendingen","type":"Landkreis"},"federalState":{"key":"08","name":"Baden-Württemberg"}},{"name":"Erdlöcherweg","postalCode":"79312","locality":"Emmendingen","municipality":{"key":"08316011","name":"Emmendingen, Stadt","type":"Große_Kreisstadt"},"district":{"key":"08316","name":"Emmendingen","type":"Landkreis"},"federalState":{"key":"08","name":"Baden-Württemberg"}},{"name":"Erlenweg","postalCode":"79312","locality":"Emmendingen","municipality":{"key":"08316011","name":"Emmendingen, Stadt","type":"Große_Kreisstadt"},"district":{"key":"08316","name":"Emmendingen","type":"Landkreis"},"federalState":{"key":"08","name":"Baden-Württemberg"}},{"name":"Ernst-Barlach-Str.","postalCode":"79312","locality":"Emmendingen","municipality":{"key":"08316011","name":"Emmendingen, Stadt","type":"Große_Kreisstadt"},"district":{"key":"08316","name":"Emmendingen","type":"Landkreis"},"federalState":{"key":"08","name":"Baden-Württemberg"}},{"name":"Ernst-Hetzel-Weg","postalCode":"79312","locality":"Emmendingen","municipality":{"key":"08316011","name":"Emmendingen, Stadt","type":"Große_Kreisstadt"},"district":{"key":"08316","name":"Emmendingen","type":"Landkreis"},"federalState":{"key":"08","name":"Baden-Württemberg"}},{"name":"Fabrikstr.","postalCode":"79312","locality":"Emmendingen","municipality":{"key":"08316011","name":"Emmendingen, Stadt","type":"Große_Kreisstadt"},"district":{"key":"08316","name":"Emmendingen","type":"Landkreis"},"federalState":{"key":"08","name":"Baden-Württemberg"}},{"name":"Feldackerweg","postalCode":"79312","locality":"Emmendingen","municipality":{"key":"08316011","name":"Emmendingen, Stadt","type":"Große_Kreisstadt"},"district":{"key":"08316","name":"Emmendingen","type":"Landkreis"},"federalState":{"key":"08","name":"Baden-Württemberg"}},{"name":"Feldbergstr.","postalCode":"79312","locality":"Emmendingen","municipality":{"key":"08316011","name":"Emmendingen, Stadt","type":"Große_Kreisstadt"},"district":{"key":"08316","name":"Emmendingen","type":"Landkreis"},"federalState":{"key":"08","name":"Baden-Württemberg"}},{"name":"Finkenweg","postalCode":"79312","locality":"Emmendingen","municipality":{"key":"08316011","name":"Emmendingen, Stadt","type":"Große_Kreisstadt"},"district":{"key":"08316","name":"Emmendingen","type":"Landkreis"},"federalState":{"key":"08","name":"Baden-Württemberg"}},{"name":"F.-J.-Baumgartner-Str.","postalCode":"79312","locality":"Emmendingen","municipality":{"key":"08316011","name":"Emmendingen, Stadt","type":"Große_Kreisstadt"},"district":{"key":"08316","name":"Emmendingen","type":"Landkreis"},"federalState":{"key":"08","name":"Baden-Württemberg"}},{"name":"Fliederweg","postalCode":"79312","locality":"Emmendingen","municipality":{"key":"08316011","name":"Emmendingen, Stadt","type":"Große_Kreisstadt"},"district":{"key":"08316","name":"Emmendingen","type":"Landkreis"},"federalState":{"key":"08","name":"Baden-Württemberg"}},{"name":"Franz-Josef-Baumgartner-Str.","postalCode":"79312","locality":"Emmendingen","municipality":{"key":"08316011","name":"Emmendingen, Stadt","type":"Große_Kreisstadt"},"district":{"key":"08316","name":"Emmendingen","type":"Landkreis"},"federalState":{"key":"08","name":"Baden-Württemberg"}},{"name":"Freiburger Str.","postalCode":"79312","locality":"Emmendingen","municipality":{"key":"08316011","name":"Emmendingen, Stadt","type":"Große_Kreisstadt"},"district":{"key":"08316","name":"Emmendingen","type":"Landkreis"},"federalState":{"key":"08","name":"Baden-Württemberg"}},{"name":"Friedrich-Mößner-Str.","postalCode":"79312","locality":"Emmendingen","municipality":{"key":"08316011","name":"Emmendingen, Stadt","type":"Große_Kreisstadt"},"district":{"key":"08316","name":"Emmendingen","type":"Landkreis"},"federalState":{"key":"08","name":"Baden-Württemberg"}},{"name":"Fritz-Boehle-Str.","postalCode":"79312","locality":"Emmendingen","municipality":{"key":"08316011","name":"Emmendingen, Stadt","type":"Große_Kreisstadt"},"district":{"key":"08316","name":"Emmendingen","type":"Landkreis"},"federalState":{"key":"08","name":"Baden-Württemberg"}},{"name":"Frühlingstr.","postalCode":"79312","locality":"Emmendingen","municipality":{"key":"08316011","name":"Emmendingen, Stadt","type":"Große_Kreisstadt"},"district":{"key":"08316","name":"Emmendingen","type":"Landkreis"},"federalState":{"key":"08","name":"Baden-Württemberg"}},{"name":"Fuchslöcherweg","postalCode":"79312","locality":"Emmendingen","municipality":{"key":"08316011","name":"Emmendingen, Stadt","type":"Große_Kreisstadt"},"district":{"key":"08316","name":"Emmendingen","type":"Landkreis"},"federalState":{"key":"08","name":"Baden-Württemberg"}},{"name":"Fuchsrankweg","postalCode":"79312","locality":"Emmendingen","municipality":{"key":"08316011","name":"Emmendingen, Stadt","type":"Große_Kreisstadt"},"district":{"key":"08316","name":"Emmendingen","type":"Landkreis"},"federalState":{"key":"08","name":"Baden-Württemberg"}},{"name":"Gartenstr.","postalCode":"79312","locality":"Emmendingen","municipality":{"key":"08316011","name":"Emmendingen, Stadt","type":"Große_Kreisstadt"},"district":{"key":"08316","name":"Emmendingen","type":"Landkreis"},"federalState":{"key":"08","name":"Baden-Württemberg"}},{"name":"Geländeweg","postalCode":"79312","locality":"Emmendingen","municipality":{"key":"08316011","name":"Emmendingen, Stadt","type":"Große_Kreisstadt"},"district":{"key":"08316","name":"Emmendingen","type":"Landkreis"},"federalState":{"key":"08","name":"Baden-Württemberg"}},{"name":"Georg-Karcher-Str.","postalCode":"79312","locality":"Emmendingen","municipality":{"key":"08316011","name":"Emmendingen, Stadt","type":"Große_Kreisstadt"},"district":{"key":"08316","name":"Emmendingen","type":"Landkreis"},"federalState":{"key":"08","name":"Baden-Württemberg"}},{"name":"Geranienstr.","postalCode":"79312","locality":"Emmendingen","municipality":{"key":"08316011","name":"Emmendingen, Stadt","type":"Große_Kreisstadt"},"district":{"key":"08316","name":"Emmendingen","type":"Landkreis"},"federalState":{"key":"08","name":"Baden-Württemberg"}},{"name":"Gerstenweg","postalCode":"79312","locality":"Emmendingen","municipality":{"key":"08316011","name":"Emmendingen, Stadt","type":"Große_Kreisstadt"},"district":{"key":"08316","name":"Emmendingen","type":"Landkreis"},"federalState":{"key":"08","name":"Baden-Württemberg"}},{"name":"Geyer-zu-Lauf-Str.","postalCode":"79312","locality":"Emmendingen","municipality":{"key":"08316011","name":"Emmendingen, Stadt","type":"Große_Kreisstadt"},"district":{"key":"08316","name":"Emmendingen","type":"Landkreis"},"federalState":{"key":"08","name":"Baden-Württemberg"}},{"name":"Glimpenheimer Str.","postalCode":"79312","locality":"Emmendingen","municipality":{"key":"08316011","name":"Emmendingen, Stadt","type":"Große_Kreisstadt"},"district":{"key":"08316","name":"Emmendingen","type":"Landkreis"},"federalState":{"key":"08","name":"Baden-Württemberg"}},{"name":"Goethepark","postalCode":"79312","locality":"Emmendingen","municipality":{"key":"08316011","name":"Emmendingen, Stadt","type":"Große_Kreisstadt"},"district":{"key":"08316","name":"Emmendingen","type":"Landkreis"},"federalState":{"key":"08","name":"Baden-Württemberg"}},{"name":"Goethestr.","postalCode":"79312","locality":"Emmendingen","municipality":{"key":"08316011","name":"Emmendingen, Stadt","type":"Große_Kreisstadt"},"district":{"key":"08316","name":"Emmendingen","type":"Landkreis"},"federalState":{"key":"08","name":"Baden-Württemberg"}},{"name":"Gottfried-Keller-Weg","postalCode":"79312","locality":"Emmendingen","municipality":{"key":"08316011","name":"Emmendingen, Stadt","type":"Große_Kreisstadt"},"district":{"key":"08316","name":"Emmendingen","type":"Landkreis"},"federalState":{"key":"08","name":"Baden-Württemberg"}},{"name":"Grabenstr.","postalCode":"79312","locality":"Emmendingen","municipality":{"key":"08316011","name":"Emmendingen, Stadt","type":"Große_Kreisstadt"},"district":{"key":"08316","name":"Emmendingen","type":"Landkreis"},"federalState":{"key":"08","name":"Baden-Württemberg"}},{"name":"Grenzweg","postalCode":"79312","locality":"Emmendingen","municipality":{"key":"08316011","name":"Emmendingen, Stadt","type":"Große_Kreisstadt"},"district":{"key":"08316","name":"Emmendingen","type":"Landkreis"},"federalState":{"key":"08","name":"Baden-Württemberg"}},{"name":"Grundackerstr.","postalCode":"79312","locality":"Emmendingen","municipality":{"key":"08316011","name":"Emmendingen, Stadt","type":"Große_Kreisstadt"},"district":{"key":"08316","name":"Emmendingen","type":"Landkreis"},"federalState":{"key":"08","name":"Baden-Württemberg"}},{"name":"Grünewaldstr.","postalCode":"79312","locality":"Emmendingen","municipality":{"key":"08316011","name":"Emmendingen, Stadt","type":"Große_Kreisstadt"},"district":{"key":"08316","name":"Emmendingen","type":"Landkreis"},"federalState":{"key":"08","name":"Baden-Württemberg"}},{"name":"Grünweg","postalCode":"79312","locality":"Emmendingen","municipality":{"key":"08316011","name":"Emmendingen, Stadt","type":"Große_Kreisstadt"},"district":{"key":"08316","name":"Emmendingen","type":"Landkreis"},"federalState":{"key":"08","name":"Baden-Württemberg"}},{"name":"Gustav-Eisenlohr-Weg","postalCode":"79312","locality":"Emmendingen","municipality":{"key":"08316011","name":"Emmendingen, Stadt","type":"Große_Kreisstadt"},"district":{"key":"08316","name":"Emmendingen","type":"Landkreis"},"federalState":{"key":"08","name":"Baden-Württemberg"}},{"name":"Gütersbergstr.","postalCode":"79312","locality":"Emmendingen","municipality":{"key":"08316011","name":"Emmendingen, Stadt","type":"Große_Kreisstadt"},"district":{"key":"08316","name":"Emmendingen","type":"Landkreis"},"federalState":{"key":"08","name":"Baden-Württemberg"}},{"name":"Gutshof","postalCode":"79312","locality":"Emmendingen","municipality":{"key":"08316011","name":"Emmendingen, Stadt","type":"Große_Kreisstadt"},"district":{"key":"08316","name":"Emmendingen","type":"Landkreis"},"federalState":{"key":"08","name":"Baden-Württemberg"}},{"name":"Haferweg","postalCode":"79312","locality":"Emmendingen","municipality":{"key":"08316011","name":"Emmendingen, Stadt","type":"Große_Kreisstadt"},"district":{"key":"08316","name":"Emmendingen","type":"Landkreis"},"federalState":{"key":"08","name":"Baden-Württemberg"}},{"name":"Händelstr.","postalCode":"79312","locality":"Emmendingen","municipality":{"key":"08316011","name":"Emmendingen, Stadt","type":"Große_Kreisstadt"},"district":{"key":"08316","name":"Emmendingen","type":"Landkreis"},"federalState":{"key":"08","name":"Baden-Württemberg"}},{"name":"Hansjakobstr.","postalCode":"79312","locality":"Emmendingen","municipality":{"key":"08316011","name":"Emmendingen, Stadt","type":"Große_Kreisstadt"},"district":{"key":"08316","name":"Emmendingen","type":"Landkreis"},"federalState":{"key":"08","name":"Baden-Württemberg"}},{"name":"Hans-Thoma-Str.","postalCode":"79312","locality":"Emmendingen","municipality":{"key":"08316011","name":"Emmendingen, Stadt","type":"Große_Kreisstadt"},"district":{"key":"08316","name":"Emmendingen","type":"Landkreis"},"federalState":{"key":"08","name":"Baden-Württemberg"}},{"name":"Harriet-Straub-Weg","postalCode":"79312","locality":"Emmendingen","municipality":{"key":"08316011","name":"Emmendingen, Stadt","type":"Große_Kreisstadt"},"district":{"key":"08316","name":"Emmendingen","type":"Landkreis"},"federalState":{"key":"08","name":"Baden-Württemberg"}},{"name":"Haselmatten","postalCode":"79312","locality":"Emmendingen","municipality":{"key":"08316011","name":"Emmendingen, Stadt","type":"Große_Kreisstadt"},"district":{"key":"08316","name":"Emmendingen","type":"Landkreis"},"federalState":{"key":"08","name":"Baden-Württemberg"}},{"name":"Hauptstr.","postalCode":"79312","locality":"Emmendingen","municipality":{"key":"08316011","name":"Emmendingen, Stadt","type":"Große_Kreisstadt"},"district":{"key":"08316","name":"Emmendingen","type":"Landkreis"},"federalState":{"key":"08","name":"Baden-Württemberg"}},{"name":"Haydnweg","postalCode":"79312","locality":"Emmendingen","municipality":{"key":"08316011","name":"Emmendingen, Stadt","type":"Große_Kreisstadt"},"district":{"key":"08316","name":"Emmendingen","type":"Landkreis"},"federalState":{"key":"08","name":"Baden-Württemberg"}},{"name":"Hebelstr.","postalCode":"79312","locality":"Emmendingen","municipality":{"key":"08316011","name":"Emmendingen, Stadt","type":"Große_Kreisstadt"},"district":{"key":"08316","name":"Emmendingen","type":"Landkreis"},"federalState":{"key":"08","name":"Baden-Württemberg"}},{"name":"Hegeweg","postalCode":"79312","locality":"Emmendingen","municipality":{"key":"08316011","name":"Emmendingen, Stadt","type":"Große_Kreisstadt"},"district":{"key":"08316","name":"Emmendingen","type":"Landkreis"},"federalState":{"key":"08","name":"Baden-Württemberg"}},{"name":"Heinrich-Heine-Str.","postalCode":"79312","locality":"Emmendingen","municipality":{"key":"08316011","name":"Emmendingen, Stadt","type":"Große_Kreisstadt"},"district":{"key":"08316","name":"Emmendingen","type":"Landkreis"},"federalState":{"key":"08","name":"Baden-Württemberg"}},{"name":"Heinrich-Maurer-Str.","postalCode":"79312","locality":"Emmendingen","municipality":{"key":"08316011","name":"Emmendingen, Stadt","type":"Große_Kreisstadt"},"district":{"key":"08316","name":"Emmendingen","type":"Landkreis"},"federalState":{"key":"08","name":"Baden-Württemberg"}},{"name":"Herderweg","postalCode":"79312","locality":"Emmendingen","municipality":{"key":"08316011","name":"Emmendingen, Stadt","type":"Große_Kreisstadt"},"district":{"key":"08316","name":"Emmendingen","type":"Landkreis"},"federalState":{"key":"08","name":"Baden-Württemberg"}},{"name":"Herlinstr.","postalCode":"79312","locality":"Emmendingen","municipality":{"key":"08316011","name":"Emmendingen, Stadt","type":"Große_Kreisstadt"},"district":{"key":"08316","name":"Emmendingen","type":"Landkreis"},"federalState":{"key":"08","name":"Baden-Württemberg"}},{"name":"Hermann-Günth-Str.","postalCode":"79312","locality":"Emmendingen","municipality":{"key":"08316011","name":"Emmendingen, Stadt","type":"Große_Kreisstadt"},"district":{"key":"08316","name":"Emmendingen","type":"Landkreis"},"federalState":{"key":"08","name":"Baden-Württemberg"}},{"name":"Herrenweg","postalCode":"79312","locality":"Emmendingen","municipality":{"key":"08316011","name":"Emmendingen, Stadt","type":"Große_Kreisstadt"},"district":{"key":"08316","name":"Emmendingen","type":"Landkreis"},"federalState":{"key":"08","name":"Baden-Württemberg"}},{"name":"Herrschaftsacker","postalCode":"79312","locality":"Emmendingen","municipality":{"key":"08316011","name":"Emmendingen, Stadt","type":"Große_Kreisstadt"},"district":{"key":"08316","name":"Emmendingen","type":"Landkreis"},"federalState":{"key":"08","name":"Baden-Württemberg"}},{"name":"Heuweg","postalCode":"79312","locality":"Emmendingen","municipality":{"key":"08316011","name":"Emmendingen, Stadt","type":"Große_Kreisstadt"},"district":{"key":"08316","name":"Emmendingen","type":"Landkreis"},"federalState":{"key":"08","name":"Baden-Württemberg"}},{"name":"Hintere Zaismatt","postalCode":"79312","locality":"Emmendingen","municipality":{"key":"08316011","name":"Emmendingen, Stadt","type":"Große_Kreisstadt"},"district":{"key":"08316","name":"Emmendingen","type":"Landkreis"},"federalState":{"key":"08","name":"Baden-Württemberg"}},{"name":"Hinterhauweg","postalCode":"79312","locality":"Emmendingen","municipality":{"key":"08316011","name":"Emmendingen, Stadt","type":"Große_Kreisstadt"},"district":{"key":"08316","name":"Emmendingen","type":"Landkreis"},"federalState":{"key":"08","name":"Baden-Württemberg"}},{"name":"Hirtenweg","postalCode":"79312","locality":"Emmendingen","municipality":{"key":"08316011","name":"Emmendingen, Stadt","type":"Große_Kreisstadt"},"district":{"key":"08316","name":"Emmendingen","type":"Landkreis"},"federalState":{"key":"08","name":"Baden-Württemberg"}},{"name":"Hochburger Str.","postalCode":"79312","locality":"Emmendingen","municipality":{"key":"08316011","name":"Emmendingen, Stadt","type":"Große_Kreisstadt"},"district":{"key":"08316","name":"Emmendingen","type":"Landkreis"},"federalState":{"key":"08","name":"Baden-Württemberg"}},{"name":"Höhenweg","postalCode":"79312","locality":"Emmendingen","municipality":{"key":"08316011","name":"Emmendingen, Stadt","type":"Große_Kreisstadt"},"district":{"key":"08316","name":"Emmendingen","type":"Landkreis"},"federalState":{"key":"08","name":"Baden-Württemberg"}},{"name":"Höheweg","postalCode":"79312","locality":"Emmendingen","municipality":{"key":"08316011","name":"Emmendingen, Stadt","type":"Große_Kreisstadt"},"district":{"key":"08316","name":"Emmendingen","type":"Landkreis"},"federalState":{"key":"08","name":"Baden-Württemberg"}},{"name":"Holbeinstr.","postalCode":"79312","locality":"Emmendingen","municipality":{"key":"08316011","name":"Emmendingen, Stadt","type":"Große_Kreisstadt"},"district":{"key":"08316","name":"Emmendingen","type":"Landkreis"},"federalState":{"key":"08","name":"Baden-Württemberg"}},{"name":"Hölderlinstr.","postalCode":"79312","locality":"Emmendingen","municipality":{"key":"08316011","name":"Emmendingen, Stadt","type":"Große_Kreisstadt"},"district":{"key":"08316","name":"Emmendingen","type":"Landkreis"},"federalState":{"key":"08","name":"Baden-Württemberg"}},{"name":"Höllenbergstr.","postalCode":"79312","locality":"Emmendingen","municipality":{"key":"08316011","name":"Emmendingen, Stadt","type":"Große_Kreisstadt"},"district":{"key":"08316","name":"Emmendingen","type":"Landkreis"},"federalState":{"key":"08","name":"Baden-Württemberg"}},{"name":"Holzerhofweg","postalCode":"79312","locality":"Emmendingen","municipality":{"key":"08316011","name":"Emmendingen, Stadt","type":"Große_Kreisstadt"},"district":{"key":"08316","name":"Emmendingen","type":"Landkreis"},"federalState":{"key":"08","name":"Baden-Württemberg"}},{"name":"Hornwaldweg","postalCode":"79312","locality":"Emmendingen","municipality":{"key":"08316011","name":"Emmendingen, Stadt","type":"Große_Kreisstadt"},"district":{"key":"08316","name":"Emmendingen","type":"Landkreis"},"federalState":{"key":"08","name":"Baden-Württemberg"}},{"name":"Im Bitzi","postalCode":"79312","locality":"Emmendingen","municipality":{"key":"08316011","name":"Emmendingen, Stadt","type":"Große_Kreisstadt"},"district":{"key":"08316","name":"Emmendingen","type":"Landkreis"},"federalState":{"key":"08","name":"Baden-Württemberg"}},{"name":"Im Gäßle","postalCode":"79312","locality":"Emmendingen","municipality":{"key":"08316011","name":"Emmendingen, Stadt","type":"Große_Kreisstadt"},"district":{"key":"08316","name":"Emmendingen","type":"Landkreis"},"federalState":{"key":"08","name":"Baden-Württemberg"}},{"name":"Im Grün","postalCode":"79312","locality":"Emmendingen","municipality":{"key":"08316011","name":"Emmendingen, Stadt","type":"Große_Kreisstadt"},"district":{"key":"08316","name":"Emmendingen","type":"Landkreis"},"federalState":{"key":"08","name":"Baden-Württemberg"}},{"name":"Im Hausgrün","postalCode":"79312","locality":"Emmendingen","municipality":{"key":"08316011","name":"Emmendingen, Stadt","type":"Große_Kreisstadt"},"district":{"key":"08316","name":"Emmendingen","type":"Landkreis"},"federalState":{"key":"08","name":"Baden-Württemberg"}},{"name":"Im Jägeracker","postalCode":"79312","locality":"Emmendingen","municipality":{"key":"08316011","name":"Emmendingen, Stadt","type":"Große_Kreisstadt"},"district":{"key":"08316","name":"Emmendingen","type":"Landkreis"},"federalState":{"key":"08","name":"Baden-Württemberg"}},{"name":"Im Obstgarten","postalCode":"79312","locality":"Emmendingen","municipality":{"key":"08316011","name":"Emmendingen, Stadt","type":"Große_Kreisstadt"},"district":{"key":"08316","name":"Emmendingen","type":"Landkreis"},"federalState":{"key":"08","name":"Baden-Württemberg"}},{"name":"Im Roßschweif","postalCode":"79312","locality":"Emmendingen","municipality":{"key":"08316011","name":"Emmendingen, Stadt","type":"Große_Kreisstadt"},"district":{"key":"08316","name":"Emmendingen","type":"Landkreis"},"federalState":{"key":"08","name":"Baden-Württemberg"}},{"name":"Im Schmiedewinkel","postalCode":"79312","locality":"Emmendingen","municipality":{"key":"08316011","name":"Emmendingen, Stadt","type":"Große_Kreisstadt"},"district":{"key":"08316","name":"Emmendingen","type":"Landkreis"},"federalState":{"key":"08","name":"Baden-Württemberg"}},{"name":"Im Spitzacker","postalCode":"79312","locality":"Emmendingen","municipality":{"key":"08316011","name":"Emmendingen, Stadt","type":"Große_Kreisstadt"},"district":{"key":"08316","name":"Emmendingen","type":"Landkreis"},"federalState":{"key":"08","name":"Baden-Württemberg"}},{"name":"Im Vogtstal","postalCode":"79312","locality":"Emmendingen","municipality":{"key":"08316011","name":"Emmendingen, Stadt","type":"Große_Kreisstadt"},"district":{"key":"08316","name":"Emmendingen","type":"Landkreis"},"federalState":{"key":"08","name":"Baden-Württemberg"}},{"name":"Im Weingarten","postalCode":"79312","locality":"Emmendingen","municipality":{"key":"08316011","name":"Emmendingen, Stadt","type":"Große_Kreisstadt"},"district":{"key":"08316","name":"Emmendingen","type":"Landkreis"},"federalState":{"key":"08","name":"Baden-Württemberg"}},{"name":"Im Werth","postalCode":"79312","locality":"Emmendingen","municipality":{"key":"08316011","name":"Emmendingen, Stadt","type":"Große_Kreisstadt"},"district":{"key":"08316","name":"Emmendingen","type":"Landkreis"},"federalState":{"key":"08","name":"Baden-Württemberg"}},{"name":"In den Fischermatten","postalCode":"79312","locality":"Emmendingen","municipality":{"key":"08316011","name":"Emmendingen, Stadt","type":"Große_Kreisstadt"},"district":{"key":"08316","name":"Emmendingen","type":"Landkreis"},"federalState":{"key":"08","name":"Baden-Württemberg"}},{"name":"In der Grub","postalCode":"79312","locality":"Emmendingen","municipality":{"key":"08316011","name":"Emmendingen, Stadt","type":"Große_Kreisstadt"},"district":{"key":"08316","name":"Emmendingen","type":"Landkreis"},"federalState":{"key":"08","name":"Baden-Württemberg"}},{"name":"In der Kohlgrube","postalCode":"79312","locality":"Emmendingen","municipality":{"key":"08316011","name":"Emmendingen, Stadt","type":"Große_Kreisstadt"},"district":{"key":"08316","name":"Emmendingen","type":"Landkreis"},"federalState":{"key":"08","name":"Baden-Württemberg"}},{"name":"In der Waid","postalCode":"79312","locality":"Emmendingen","municipality":{"key":"08316011","name":"Emmendingen, Stadt","type":"Große_Kreisstadt"},"district":{"key":"08316","name":"Emmendingen","type":"Landkreis"},"federalState":{"key":"08","name":"Baden-Württemberg"}},{"name":"Jacobi-Weg","postalCode":"79312","locality":"Emmendingen","municipality":{"key":"08316011","name":"Emmendingen, Stadt","type":"Große_Kreisstadt"},"district":{"key":"08316","name":"Emmendingen","type":"Landkreis"},"federalState":{"key":"08","name":"Baden-Württemberg"}},{"name":"Jahnstr.","postalCode":"79312","locality":"Emmendingen","municipality":{"key":"08316011","name":"Emmendingen, Stadt","type":"Große_Kreisstadt"},"district":{"key":"08316","name":"Emmendingen","type":"Landkreis"},"federalState":{"key":"08","name":"Baden-Württemberg"}},{"name":"J.-M.-Scheffelt-Str.","postalCode":"79312","locality":"Emmendingen","municipality":{"key":"08316011","name":"Emmendingen, Stadt","type":"Große_Kreisstadt"},"district":{"key":"08316","name":"Emmendingen","type":"Landkreis"},"federalState":{"key":"08","name":"Baden-Württemberg"}},{"name":"Johann-Georg-Rieß-Weg","postalCode":"79312","locality":"Emmendingen","municipality":{"key":"08316011","name":"Emmendingen, Stadt","type":"Große_Kreisstadt"},"district":{"key":"08316","name":"Emmendingen","type":"Landkreis"},"federalState":{"key":"08","name":"Baden-Württemberg"}},{"name":"Johann-Philipp-Sonntag-Str.","postalCode":"79312","locality":"Emmendingen","municipality":{"key":"08316011","name":"Emmendingen, Stadt","type":"Große_Kreisstadt"},"district":{"key":"08316","name":"Emmendingen","type":"Landkreis"},"federalState":{"key":"08","name":"Baden-Württemberg"}},{"name":"Johann-Zenlin-Weg","postalCode":"79312","locality":"Emmendingen","municipality":{"key":"08316011","name":"Emmendingen, Stadt","type":"Große_Kreisstadt"},"district":{"key":"08316","name":"Emmendingen","type":"Landkreis"},"federalState":{"key":"08","name":"Baden-Württemberg"}},{"name":"Jörg-Erb-Weg","postalCode":"79312","locality":"Emmendingen","municipality":{"key":"08316011","name":"Emmendingen, Stadt","type":"Große_Kreisstadt"},"district":{"key":"08316","name":"Emmendingen","type":"Landkreis"},"federalState":{"key":"08","name":"Baden-Württemberg"}},{"name":"Kähnelacker","postalCode":"79312","locality":"Emmendingen","municipality":{"key":"08316011","name":"Emmendingen, Stadt","type":"Große_Kreisstadt"},"district":{"key":"08316","name":"Emmendingen","type":"Landkreis"},"federalState":{"key":"08","name":"Baden-Württemberg"}},{"name":"Kaiserstuhlstr.","postalCode":"79312","locality":"Emmendingen","municipality":{"key":"08316011","name":"Emmendingen, Stadt","type":"Große_Kreisstadt"},"district":{"key":"08316","name":"Emmendingen","type":"Landkreis"},"federalState":{"key":"08","name":"Baden-Württemberg"}},{"name":"Kalkofenweg","postalCode":"79312","locality":"Emmendingen","municipality":{"key":"08316011","name":"Emmendingen, Stadt","type":"Große_Kreisstadt"},"district":{"key":"08316","name":"Emmendingen","type":"Landkreis"},"federalState":{"key":"08","name":"Baden-Württemberg"}},{"name":"Kandelstr.","postalCode":"79312","locality":"Emmendingen","municipality":{"key":"08316011","name":"Emmendingen, Stadt","type":"Große_Kreisstadt"},"district":{"key":"08316","name":"Emmendingen","type":"Landkreis"},"federalState":{"key":"08","name":"Baden-Württemberg"}},{"name":"Karl-Bautz-Str.","postalCode":"79312","locality":"Emmendingen","municipality":{"key":"08316011","name":"Emmendingen, Stadt","type":"Große_Kreisstadt"},"district":{"key":"08316","name":"Emmendingen","type":"Landkreis"},"federalState":{"key":"08","name":"Baden-Württemberg"}},{"name":"Karl-Friedrich-Str.","postalCode":"79312","locality":"Emmendingen","municipality":{"key":"08316011","name":"Emmendingen, Stadt","type":"Große_Kreisstadt"},"district":{"key":"08316","name":"Emmendingen","type":"Landkreis"},"federalState":{"key":"08","name":"Baden-Württemberg"}},{"name":"Karl-Schmidt-Str.","postalCode":"79312","locality":"Emmendingen","municipality":{"key":"08316011","name":"Emmendingen, Stadt","type":"Große_Kreisstadt"},"district":{"key":"08316","name":"Emmendingen","type":"Landkreis"},"federalState":{"key":"08","name":"Baden-Württemberg"}},{"name":"Kastelbergweg","postalCode":"79312","locality":"Emmendingen","municipality":{"key":"08316011","name":"Emmendingen, Stadt","type":"Große_Kreisstadt"},"district":{"key":"08316","name":"Emmendingen","type":"Landkreis"},"federalState":{"key":"08","name":"Baden-Württemberg"}},{"name":"Käthe-Kollwitz-Str.","postalCode":"79312","locality":"Emmendingen","municipality":{"key":"08316011","name":"Emmendingen, Stadt","type":"Große_Kreisstadt"},"district":{"key":"08316","name":"Emmendingen","type":"Landkreis"},"federalState":{"key":"08","name":"Baden-Württemberg"}},{"name":"Kellenberg","postalCode":"79312","locality":"Emmendingen","municipality":{"key":"08316011","name":"Emmendingen, Stadt","type":"Große_Kreisstadt"},"district":{"key":"08316","name":"Emmendingen","type":"Landkreis"},"federalState":{"key":"08","name":"Baden-Württemberg"}},{"name":"Keplerstr.","postalCode":"79312","locality":"Emmendingen","municipality":{"key":"08316011","name":"Emmendingen, Stadt","type":"Große_Kreisstadt"},"district":{"key":"08316","name":"Emmendingen","type":"Landkreis"},"federalState":{"key":"08","name":"Baden-Württemberg"}},{"name":"Kirchgäßle","postalCode":"79312","locality":"Emmendingen","municipality":{"key":"08316011","name":"Emmendingen, Stadt","type":"Große_Kreisstadt"},"district":{"key":"08316","name":"Emmendingen","type":"Landkreis"},"federalState":{"key":"08","name":"Baden-Württemberg"}},{"name":"Kirchweg","postalCode":"79312","locality":"Emmendingen","municipality":{"key":"08316011","name":"Emmendingen, Stadt","type":"Große_Kreisstadt"},"district":{"key":"08316","name":"Emmendingen","type":"Landkreis"},"federalState":{"key":"08","name":"Baden-Württemberg"}},{"name":"Kleiststr.","postalCode":"79312","locality":"Emmendingen","municipality":{"key":"08316011","name":"Emmendingen, Stadt","type":"Große_Kreisstadt"},"district":{"key":"08316","name":"Emmendingen","type":"Landkreis"},"federalState":{"key":"08","name":"Baden-Württemberg"}},{"name":"Klostergasse","postalCode":"79312","locality":"Emmendingen","municipality":{"key":"08316011","name":"Emmendingen, Stadt","type":"Große_Kreisstadt"},"district":{"key":"08316","name":"Emmendingen","type":"Landkreis"},"federalState":{"key":"08","name":"Baden-Württemberg"}},{"name":"Kohlengrubenweg","postalCode":"79312","locality":"Emmendingen","municipality":{"key":"08316011","name":"Emmendingen, Stadt","type":"Große_Kreisstadt"},"district":{"key":"08316","name":"Emmendingen","type":"Landkreis"},"federalState":{"key":"08","name":"Baden-Württemberg"}},{"name":"Kohlwaldweg","postalCode":"79312","locality":"Emmendingen","municipality":{"key":"08316011","name":"Emmendingen, Stadt","type":"Große_Kreisstadt"},"district":{"key":"08316","name":"Emmendingen","type":"Landkreis"},"federalState":{"key":"08","name":"Baden-Württemberg"}},{"name":"Kollmarsreuter Str.","postalCode":"79312","locality":"Emmendingen","municipality":{"key":"08316011","name":"Emmendingen, Stadt","type":"Große_Kreisstadt"},"district":{"key":"08316","name":"Emmendingen","type":"Landkreis"},"federalState":{"key":"08","name":"Baden-Württemberg"}},{"name":"Krabbeweg","postalCode":"79312","locality":"Emmendingen","municipality":{"key":"08316011","name":"Emmendingen, Stadt","type":"Große_Kreisstadt"},"district":{"key":"08316","name":"Emmendingen","type":"Landkreis"},"federalState":{"key":"08","name":"Baden-Württemberg"}},{"name":"Krokusweg","postalCode":"79312","locality":"Emmendingen","municipality":{"key":"08316011","name":"Emmendingen, Stadt","type":"Große_Kreisstadt"},"district":{"key":"08316","name":"Emmendingen","type":"Landkreis"},"federalState":{"key":"08","name":"Baden-Württemberg"}},{"name":"Krumbachweg","postalCode":"79312","locality":"Emmendingen","municipality":{"key":"08316011","name":"Emmendingen, Stadt","type":"Große_Kreisstadt"},"district":{"key":"08316","name":"Emmendingen","type":"Landkreis"},"federalState":{"key":"08","name":"Baden-Württemberg"}},{"name":"Kübelestr.","postalCode":"79312","locality":"Emmendingen","municipality":{"key":"08316011","name":"Emmendingen, Stadt","type":"Große_Kreisstadt"},"district":{"key":"08316","name":"Emmendingen","type":"Landkreis"},"federalState":{"key":"08","name":"Baden-Württemberg"}},{"name":"Lachenweg","postalCode":"79312","locality":"Emmendingen","municipality":{"key":"08316011","name":"Emmendingen, Stadt","type":"Große_Kreisstadt"},"district":{"key":"08316","name":"Emmendingen","type":"Landkreis"},"federalState":{"key":"08","name":"Baden-Württemberg"}},{"name":"Landecker Str.","postalCode":"79312","locality":"Emmendingen","municipality":{"key":"08316011","name":"Emmendingen, Stadt","type":"Große_Kreisstadt"},"district":{"key":"08316","name":"Emmendingen","type":"Landkreis"},"federalState":{"key":"08","name":"Baden-Württemberg"}},{"name":"Landstr.","postalCode":"79312","locality":"Emmendingen","municipality":{"key":"08316011","name":"Emmendingen, Stadt","type":"Große_Kreisstadt"},"district":{"key":"08316","name":"Emmendingen","type":"Landkreis"},"federalState":{"key":"08","name":"Baden-Württemberg"}},{"name":"Langauweg","postalCode":"79312","locality":"Emmendingen","municipality":{"key":"08316011","name":"Emmendingen, Stadt","type":"Große_Kreisstadt"},"district":{"key":"08316","name":"Emmendingen","type":"Landkreis"},"federalState":{"key":"08","name":"Baden-Württemberg"}},{"name":"Langgasse","postalCode":"79312","locality":"Emmendingen","municipality":{"key":"08316011","name":"Emmendingen, Stadt","type":"Große_Kreisstadt"},"district":{"key":"08316","name":"Emmendingen","type":"Landkreis"},"federalState":{"key":"08","name":"Baden-Württemberg"}},{"name":"Leimenacker","postalCode":"79312","locality":"Emmendingen","municipality":{"key":"08316011","name":"Emmendingen, Stadt","type":"Große_Kreisstadt"},"district":{"key":"08316","name":"Emmendingen","type":"Landkreis"},"federalState":{"key":"08","name":"Baden-Württemberg"}},{"name":"Lenzweg","postalCode":"79312","locality":"Emmendingen","municipality":{"key":"08316011","name":"Emmendingen, Stadt","type":"Große_Kreisstadt"},"district":{"key":"08316","name":"Emmendingen","type":"Landkreis"},"federalState":{"key":"08","name":"Baden-Württemberg"}},{"name":"Lerchacker","postalCode":"79312","locality":"Emmendingen","municipality":{"key":"08316011","name":"Emmendingen, Stadt","type":"Große_Kreisstadt"},"district":{"key":"08316","name":"Emmendingen","type":"Landkreis"},"federalState":{"key":"08","name":"Baden-Württemberg"}},{"name":"Lerchenweg","postalCode":"79312","locality":"Emmendingen","municipality":{"key":"08316011","name":"Emmendingen, Stadt","type":"Große_Kreisstadt"},"district":{"key":"08316","name":"Emmendingen","type":"Landkreis"},"federalState":{"key":"08","name":"Baden-Württemberg"}},{"name":"Lessingstr.","postalCode":"79312","locality":"Emmendingen","municipality":{"key":"08316011","name":"Emmendingen, Stadt","type":"Große_Kreisstadt"},"district":{"key":"08316","name":"Emmendingen","type":"Landkreis"},"federalState":{"key":"08","name":"Baden-Württemberg"}},{"name":"Liebensteinstr.","postalCode":"79312","locality":"Emmendingen","municipality":{"key":"08316011","name":"Emmendingen, Stadt","type":"Große_Kreisstadt"},"district":{"key":"08316","name":"Emmendingen","type":"Landkreis"},"federalState":{"key":"08","name":"Baden-Württemberg"}},{"name":"Lilienweg","postalCode":"79312","locality":"Emmendingen","municipality":{"key":"08316011","name":"Emmendingen, Stadt","type":"Große_Kreisstadt"},"district":{"key":"08316","name":"Emmendingen","type":"Landkreis"},"federalState":{"key":"08","name":"Baden-Württemberg"}},{"name":"Lindenbergstr.","postalCode":"79312","locality":"Emmendingen","municipality":{"key":"08316011","name":"Emmendingen, Stadt","type":"Große_Kreisstadt"},"district":{"key":"08316","name":"Emmendingen","type":"Landkreis"},"federalState":{"key":"08","name":"Baden-Württemberg"}},{"name":"Lindenweg","postalCode":"79312","locality":"Emmendingen","municipality":{"key":"08316011","name":"Emmendingen, Stadt","type":"Große_Kreisstadt"},"district":{"key":"08316","name":"Emmendingen","type":"Landkreis"},"federalState":{"key":"08","name":"Baden-Württemberg"}},{"name":"Linkenstr.","postalCode":"79312","locality":"Emmendingen","municipality":{"key":"08316011","name":"Emmendingen, Stadt","type":"Große_Kreisstadt"},"district":{"key":"08316","name":"Emmendingen","type":"Landkreis"},"federalState":{"key":"08","name":"Baden-Württemberg"}},{"name":"Luisenstr.","postalCode":"79312","locality":"Emmendingen","municipality":{"key":"08316011","name":"Emmendingen, Stadt","type":"Große_Kreisstadt"},"district":{"key":"08316","name":"Emmendingen","type":"Landkreis"},"federalState":{"key":"08","name":"Baden-Württemberg"}},{"name":"Malvenweg","postalCode":"79312","locality":"Emmendingen","municipality":{"key":"08316011","name":"Emmendingen, Stadt","type":"Große_Kreisstadt"},"district":{"key":"08316","name":"Emmendingen","type":"Landkreis"},"federalState":{"key":"08","name":"Baden-Württemberg"}},{"name":"Marchstr.","postalCode":"79312","locality":"Emmendingen","municipality":{"key":"08316011","name":"Emmendingen, Stadt","type":"Große_Kreisstadt"},"district":{"key":"08316","name":"Emmendingen","type":"Landkreis"},"federalState":{"key":"08","name":"Baden-Württemberg"}},{"name":"Margeritenweg","postalCode":"79312","locality":"Emmendingen","municipality":{"key":"08316011","name":"Emmendingen, Stadt","type":"Große_Kreisstadt"},"district":{"key":"08316","name":"Emmendingen","type":"Landkreis"},"federalState":{"key":"08","name":"Baden-Württemberg"}},{"name":"Markgrafenstr.","postalCode":"79312","locality":"Emmendingen","municipality":{"key":"08316011","name":"Emmendingen, Stadt","type":"Große_Kreisstadt"},"district":{"key":"08316","name":"Emmendingen","type":"Landkreis"},"federalState":{"key":"08","name":"Baden-Württemberg"}},{"name":"Markgraf-Jacob-Allee","postalCode":"79312","locality":"Emmendingen","municipality":{"key":"08316011","name":"Emmendingen, Stadt","type":"Große_Kreisstadt"},"district":{"key":"08316","name":"Emmendingen","type":"Landkreis"},"federalState":{"key":"08","name":"Baden-Württemberg"}},{"name":"Marktplatz","postalCode":"79312","locality":"Emmendingen","municipality":{"key":"08316011","name":"Emmendingen, Stadt","type":"Große_Kreisstadt"},"district":{"key":"08316","name":"Emmendingen","type":"Landkreis"},"federalState":{"key":"08","name":"Baden-Württemberg"}},{"name":"Martin-Luther-Str.","postalCode":"79312","locality":"Emmendingen","municipality":{"key":"08316011","name":"Emmendingen, Stadt","type":"Große_Kreisstadt"},"district":{"key":"08316","name":"Emmendingen","type":"Landkreis"},"federalState":{"key":"08","name":"Baden-Württemberg"}},{"name":"Meerweinstr.","postalCode":"79312","locality":"Emmendingen","municipality":{"key":"08316011","name":"Emmendingen, Stadt","type":"Große_Kreisstadt"},"district":{"key":"08316","name":"Emmendingen","type":"Landkreis"},"federalState":{"key":"08","name":"Baden-Württemberg"}},{"name":"Merianstr.","postalCode":"79312","locality":"Emmendingen","municipality":{"key":"08316011","name":"Emmendingen, Stadt","type":"Große_Kreisstadt"},"district":{"key":"08316","name":"Emmendingen","type":"Landkreis"},"federalState":{"key":"08","name":"Baden-Württemberg"}},{"name":"Metzger-Gutjahr-Str.","postalCode":"79312","locality":"Emmendingen","municipality":{"key":"08316011","name":"Emmendingen, Stadt","type":"Große_Kreisstadt"},"district":{"key":"08316","name":"Emmendingen","type":"Landkreis"},"federalState":{"key":"08","name":"Baden-Württemberg"}},{"name":"Milchhofstr.","postalCode":"79312","locality":"Emmendingen","municipality":{"key":"08316011","name":"Emmendingen, Stadt","type":"Große_Kreisstadt"},"district":{"key":"08316","name":"Emmendingen","type":"Landkreis"},"federalState":{"key":"08","name":"Baden-Württemberg"}},{"name":"Moltkestr.","postalCode":"79312","locality":"Emmendingen","municipality":{"key":"08316011","name":"Emmendingen, Stadt","type":"Große_Kreisstadt"},"district":{"key":"08316","name":"Emmendingen","type":"Landkreis"},"federalState":{"key":"08","name":"Baden-Württemberg"}},{"name":"Mönchshofstr.","postalCode":"79312","locality":"Emmendingen","municipality":{"key":"08316011","name":"Emmendingen, Stadt","type":"Große_Kreisstadt"},"district":{"key":"08316","name":"Emmendingen","type":"Landkreis"},"federalState":{"key":"08","name":"Baden-Württemberg"}},{"name":"Mörikeweg","postalCode":"79312","locality":"Emmendingen","municipality":{"key":"08316011","name":"Emmendingen, Stadt","type":"Große_Kreisstadt"},"district":{"key":"08316","name":"Emmendingen","type":"Landkreis"},"federalState":{"key":"08","name":"Baden-Württemberg"}},{"name":"Mozartstr.","postalCode":"79312","locality":"Emmendingen","municipality":{"key":"08316011","name":"Emmendingen, Stadt","type":"Große_Kreisstadt"},"district":{"key":"08316","name":"Emmendingen","type":"Landkreis"},"federalState":{"key":"08","name":"Baden-Württemberg"}},{"name":"Mundinger Str.","postalCode":"79312","locality":"Emmendingen","municipality":{"key":"08316011","name":"Emmendingen, Stadt","type":"Große_Kreisstadt"},"district":{"key":"08316","name":"Emmendingen","type":"Landkreis"},"federalState":{"key":"08","name":"Baden-Württemberg"}},{"name":"Nelkenweg","postalCode":"79312","locality":"Emmendingen","municipality":{"key":"08316011","name":"Emmendingen, Stadt","type":"Große_Kreisstadt"},"district":{"key":"08316","name":"Emmendingen","type":"Landkreis"},"federalState":{"key":"08","name":"Baden-Württemberg"}},{"name":"Neubronnstr.","postalCode":"79312","locality":"Emmendingen","municipality":{"key":"08316011","name":"Emmendingen, Stadt","type":"Große_Kreisstadt"},"district":{"key":"08316","name":"Emmendingen","type":"Landkreis"},"federalState":{"key":"08","name":"Baden-Württemberg"}},{"name":"Neudorfstr.","postalCode":"79312","locality":"Emmendingen","municipality":{"key":"08316011","name":"Emmendingen, Stadt","type":"Große_Kreisstadt"},"district":{"key":"08316","name":"Emmendingen","type":"Landkreis"},"federalState":{"key":"08","name":"Baden-Württemberg"}},{"name":"Neumattenweg","postalCode":"79312","locality":"Emmendingen","municipality":{"key":"08316011","name":"Emmendingen, Stadt","type":"Große_Kreisstadt"},"district":{"key":"08316","name":"Emmendingen","type":"Landkreis"},"federalState":{"key":"08","name":"Baden-Württemberg"}},{"name":"Neustr.","postalCode":"79312","locality":"Emmendingen","municipality":{"key":"08316011","name":"Emmendingen, Stadt","type":"Große_Kreisstadt"},"district":{"key":"08316","name":"Emmendingen","type":"Landkreis"},"federalState":{"key":"08","name":"Baden-Württemberg"}},{"name":"Nonnenhölzleweg","postalCode":"79312","locality":"Emmendingen","municipality":{"key":"08316011","name":"Emmendingen, Stadt","type":"Große_Kreisstadt"},"district":{"key":"08316","name":"Emmendingen","type":"Landkreis"},"federalState":{"key":"08","name":"Baden-Württemberg"}},{"name":"Oberbergstr.","postalCode":"79312","locality":"Emmendingen","municipality":{"key":"08316011","name":"Emmendingen, Stadt","type":"Große_Kreisstadt"},"district":{"key":"08316","name":"Emmendingen","type":"Landkreis"},"federalState":{"key":"08","name":"Baden-Württemberg"}},{"name":"Oberdorfstr.","postalCode":"79312","locality":"Emmendingen","municipality":{"key":"08316011","name":"Emmendingen, Stadt","type":"Große_Kreisstadt"},"district":{"key":"08316","name":"Emmendingen","type":"Landkreis"},"federalState":{"key":"08","name":"Baden-Württemberg"}},{"name":"Obere-Höfe-Str.","postalCode":"79312","locality":"Emmendingen","municipality":{"key":"08316011","name":"Emmendingen, Stadt","type":"Große_Kreisstadt"},"district":{"key":"08316","name":"Emmendingen","type":"Landkreis"},"federalState":{"key":"08","name":"Baden-Württemberg"}},{"name":"Oberer Binsgenweg","postalCode":"79312","locality":"Emmendingen","municipality":{"key":"08316011","name":"Emmendingen, Stadt","type":"Große_Kreisstadt"},"district":{"key":"08316","name":"Emmendingen","type":"Landkreis"},"federalState":{"key":"08","name":"Baden-Württemberg"}},{"name":"Oberer Feckler","postalCode":"79312","locality":"Emmendingen","municipality":{"key":"08316011","name":"Emmendingen, Stadt","type":"Große_Kreisstadt"},"district":{"key":"08316","name":"Emmendingen","type":"Landkreis"},"federalState":{"key":"08","name":"Baden-Württemberg"}},{"name":"Oberer Laberweg","postalCode":"79312","locality":"Emmendingen","municipality":{"key":"08316011","name":"Emmendingen, Stadt","type":"Große_Kreisstadt"},"district":{"key":"08316","name":"Emmendingen","type":"Landkreis"},"federalState":{"key":"08","name":"Baden-Württemberg"}},{"name":"Oberer Traufweg","postalCode":"79312","locality":"Emmendingen","municipality":{"key":"08316011","name":"Emmendingen, Stadt","type":"Große_Kreisstadt"},"district":{"key":"08316","name":"Emmendingen","type":"Landkreis"},"federalState":{"key":"08","name":"Baden-Württemberg"}},{"name":"Oberlin-Weg","postalCode":"79312","locality":"Emmendingen","municipality":{"key":"08316011","name":"Emmendingen, Stadt","type":"Große_Kreisstadt"},"district":{"key":"08316","name":"Emmendingen","type":"Landkreis"},"federalState":{"key":"08","name":"Baden-Württemberg"}},{"name":"Oswald-Haug-Weg","postalCode":"79312","locality":"Emmendingen","municipality":{"key":"08316011","name":"Emmendingen, Stadt","type":"Große_Kreisstadt"},"district":{"key":"08316","name":"Emmendingen","type":"Landkreis"},"federalState":{"key":"08","name":"Baden-Württemberg"}},{"name":"Otto-Raupp-Str.","postalCode":"79312","locality":"Emmendingen","municipality":{"key":"08316011","name":"Emmendingen, Stadt","type":"Große_Kreisstadt"},"district":{"key":"08316","name":"Emmendingen","type":"Landkreis"},"federalState":{"key":"08","name":"Baden-Württemberg"}},{"name":"Otto-Sattler-Str.","postalCode":"79312","locality":"Emmendingen","municipality":{"key":"08316011","name":"Emmendingen, Stadt","type":"Große_Kreisstadt"},"district":{"key":"08316","name":"Emmendingen","type":"Landkreis"},"federalState":{"key":"08","name":"Baden-Württemberg"}},{"name":"Otto-Wehrle-Str.","postalCode":"79312","locality":"Emmendingen","municipality":{"key":"08316011","name":"Emmendingen, Stadt","type":"Große_Kreisstadt"},"district":{"key":"08316","name":"Emmendingen","type":"Landkreis"},"federalState":{"key":"08","name":"Baden-Württemberg"}},{"name":"Panoramastr.","postalCode":"79312","locality":"Emmendingen","municipality":{"key":"08316011","name":"Emmendingen, Stadt","type":"Große_Kreisstadt"},"district":{"key":"08316","name":"Emmendingen","type":"Landkreis"},"federalState":{"key":"08","name":"Baden-Württemberg"}},{"name":"Pappelgarten","postalCode":"79312","locality":"Emmendingen","municipality":{"key":"08316011","name":"Emmendingen, Stadt","type":"Große_Kreisstadt"},"district":{"key":"08316","name":"Emmendingen","type":"Landkreis"},"federalState":{"key":"08","name":"Baden-Württemberg"}},{"name":"Pausenhof","postalCode":"79312","locality":"Emmendingen","municipality":{"key":"08316011","name":"Emmendingen, Stadt","type":"Große_Kreisstadt"},"district":{"key":"08316","name":"Emmendingen","type":"Landkreis"},"federalState":{"key":"08","name":"Baden-Württemberg"}},{"name":"Pausenhof - Eduard-Spranger-Schule","postalCode":"79312","locality":"Emmendingen","municipality":{"key":"08316011","name":"Emmendingen, Stadt","type":"Große_Kreisstadt"},"district":{"key":"08316","name":"Emmendingen","type":"Landkreis"},"federalState":{"key":"08","name":"Baden-Württemberg"}},{"name":"Peter-Rosegger-Weg","postalCode":"79312","locality":"Emmendingen","municipality":{"key":"08316011","name":"Emmendingen, Stadt","type":"Große_Kreisstadt"},"district":{"key":"08316","name":"Emmendingen","type":"Landkreis"},"federalState":{"key":"08","name":"Baden-Württemberg"}},{"name":"Platanenweg","postalCode":"79312","locality":"Emmendingen","municipality":{"key":"08316011","name":"Emmendingen, Stadt","type":"Große_Kreisstadt"},"district":{"key":"08316","name":"Emmendingen","type":"Landkreis"},"federalState":{"key":"08","name":"Baden-Württemberg"}},{"name":"Quellenweg","postalCode":"79312","locality":"Emmendingen","municipality":{"key":"08316011","name":"Emmendingen, Stadt","type":"Große_Kreisstadt"},"district":{"key":"08316","name":"Emmendingen","type":"Landkreis"},"federalState":{"key":"08","name":"Baden-Württemberg"}},{"name":"Querstr.","postalCode":"79312","locality":"Emmendingen","municipality":{"key":"08316011","name":"Emmendingen, Stadt","type":"Große_Kreisstadt"},"district":{"key":"08316","name":"Emmendingen","type":"Landkreis"},"federalState":{"key":"08","name":"Baden-Württemberg"}},{"name":"Ramie-Str.","postalCode":"79312","locality":"Emmendingen","municipality":{"key":"08316011","name":"Emmendingen, Stadt","type":"Große_Kreisstadt"},"district":{"key":"08316","name":"Emmendingen","type":"Landkreis"},"federalState":{"key":"08","name":"Baden-Württemberg"}},{"name":"Rathausplatz","postalCode":"79312","locality":"Emmendingen","municipality":{"key":"08316011","name":"Emmendingen, Stadt","type":"Große_Kreisstadt"},"district":{"key":"08316","name":"Emmendingen","type":"Landkreis"},"federalState":{"key":"08","name":"Baden-Württemberg"}},{"name":"Rathausweg","postalCode":"79312","locality":"Emmendingen","municipality":{"key":"08316011","name":"Emmendingen, Stadt","type":"Große_Kreisstadt"},"district":{"key":"08316","name":"Emmendingen","type":"Landkreis"},"federalState":{"key":"08","name":"Baden-Württemberg"}},{"name":"Rebhauweg","postalCode":"79312","locality":"Emmendingen","municipality":{"key":"08316011","name":"Emmendingen, Stadt","type":"Große_Kreisstadt"},"district":{"key":"08316","name":"Emmendingen","type":"Landkreis"},"federalState":{"key":"08","name":"Baden-Württemberg"}},{"name":"Reichsgräfin-Weg","postalCode":"79312","locality":"Emmendingen","municipality":{"key":"08316011","name":"Emmendingen, Stadt","type":"Große_Kreisstadt"},"district":{"key":"08316","name":"Emmendingen","type":"Landkreis"},"federalState":{"key":"08","name":"Baden-Württemberg"}},{"name":"Reinhold-Schneider-Weg","postalCode":"79312","locality":"Emmendingen","municipality":{"key":"08316011","name":"Emmendingen, Stadt","type":"Große_Kreisstadt"},"district":{"key":"08316","name":"Emmendingen","type":"Landkreis"},"federalState":{"key":"08","name":"Baden-Württemberg"}},{"name":"Rheinstr.","postalCode":"79312","locality":"Emmendingen","municipality":{"key":"08316011","name":"Emmendingen, Stadt","type":"Große_Kreisstadt"},"district":{"key":"08316","name":"Emmendingen","type":"Landkreis"},"federalState":{"key":"08","name":"Baden-Württemberg"}},{"name":"Robert-Koch-Str.","postalCode":"79312","locality":"Emmendingen","municipality":{"key":"08316011","name":"Emmendingen, Stadt","type":"Große_Kreisstadt"},"district":{"key":"08316","name":"Emmendingen","type":"Landkreis"},"federalState":{"key":"08","name":"Baden-Württemberg"}},{"name":"Roethestr.","postalCode":"79312","locality":"Emmendingen","municipality":{"key":"08316011","name":"Emmendingen, Stadt","type":"Große_Kreisstadt"},"district":{"key":"08316","name":"Emmendingen","type":"Landkreis"},"federalState":{"key":"08","name":"Baden-Württemberg"}},{"name":"Roggenweg","postalCode":"79312","locality":"Emmendingen","municipality":{"key":"08316011","name":"Emmendingen, Stadt","type":"Große_Kreisstadt"},"district":{"key":"08316","name":"Emmendingen","type":"Landkreis"},"federalState":{"key":"08","name":"Baden-Württemberg"}},{"name":"Romaneistr.","postalCode":"79312","locality":"Emmendingen","municipality":{"key":"08316011","name":"Emmendingen, Stadt","type":"Große_Kreisstadt"},"district":{"key":"08316","name":"Emmendingen","type":"Landkreis"},"federalState":{"key":"08","name":"Baden-Württemberg"}},{"name":"Röntgenstr.","postalCode":"79312","locality":"Emmendingen","municipality":{"key":"08316011","name":"Emmendingen, Stadt","type":"Große_Kreisstadt"},"district":{"key":"08316","name":"Emmendingen","type":"Landkreis"},"federalState":{"key":"08","name":"Baden-Württemberg"}},{"name":"Rosenweg","postalCode":"79312","locality":"Emmendingen","municipality":{"key":"08316011","name":"Emmendingen, Stadt","type":"Große_Kreisstadt"},"district":{"key":"08316","name":"Emmendingen","type":"Landkreis"},"federalState":{"key":"08","name":"Baden-Württemberg"}},{"name":"Rotmeerweg","postalCode":"79312","locality":"Emmendingen","municipality":{"key":"08316011","name":"Emmendingen, Stadt","type":"Große_Kreisstadt"},"district":{"key":"08316","name":"Emmendingen","type":"Landkreis"},"federalState":{"key":"08","name":"Baden-Württemberg"}},{"name":"Rotstichweg","postalCode":"79312","locality":"Emmendingen","municipality":{"key":"08316011","name":"Emmendingen, Stadt","type":"Große_Kreisstadt"},"district":{"key":"08316","name":"Emmendingen","type":"Landkreis"},"federalState":{"key":"08","name":"Baden-Württemberg"}},{"name":"Sägeweg","postalCode":"79312","locality":"Emmendingen","municipality":{"key":"08316011","name":"Emmendingen, Stadt","type":"Große_Kreisstadt"},"district":{"key":"08316","name":"Emmendingen","type":"Landkreis"},"federalState":{"key":"08","name":"Baden-Württemberg"}},{"name":"Schauinslandstr.","postalCode":"79312","locality":"Emmendingen","municipality":{"key":"08316011","name":"Emmendingen, Stadt","type":"Große_Kreisstadt"},"district":{"key":"08316","name":"Emmendingen","type":"Landkreis"},"federalState":{"key":"08","name":"Baden-Württemberg"}},{"name":"Scheffelweg","postalCode":"79312","locality":"Emmendingen","municipality":{"key":"08316011","name":"Emmendingen, Stadt","type":"Große_Kreisstadt"},"district":{"key":"08316","name":"Emmendingen","type":"Landkreis"},"federalState":{"key":"08","name":"Baden-Württemberg"}},{"name":"Schillerstr.","postalCode":"79312","locality":"Emmendingen","municipality":{"key":"08316011","name":"Emmendingen, Stadt","type":"Große_Kreisstadt"},"district":{"key":"08316","name":"Emmendingen","type":"Landkreis"},"federalState":{"key":"08","name":"Baden-Württemberg"}},{"name":"Schlegelhof","postalCode":"79312","locality":"Emmendingen","municipality":{"key":"08316011","name":"Emmendingen, Stadt","type":"Große_Kreisstadt"},"district":{"key":"08316","name":"Emmendingen","type":"Landkreis"},"federalState":{"key":"08","name":"Baden-Württemberg"}},{"name":"Schlegelhofweg","postalCode":"79312","locality":"Emmendingen","municipality":{"key":"08316011","name":"Emmendingen, Stadt","type":"Große_Kreisstadt"},"district":{"key":"08316","name":"Emmendingen","type":"Landkreis"},"federalState":{"key":"08","name":"Baden-Württemberg"}},{"name":"Schloßbergstr.","postalCode":"79312","locality":"Emmendingen","municipality":{"key":"08316011","name":"Emmendingen, Stadt","type":"Große_Kreisstadt"},"district":{"key":"08316","name":"Emmendingen","type":"Landkreis"},"federalState":{"key":"08","name":"Baden-Württemberg"}},{"name":"Schlosserstr.","postalCode":"79312","locality":"Emmendingen","municipality":{"key":"08316011","name":"Emmendingen, Stadt","type":"Große_Kreisstadt"},"district":{"key":"08316","name":"Emmendingen","type":"Landkreis"},"federalState":{"key":"08","name":"Baden-Württemberg"}},{"name":"Schlucht","postalCode":"79312","locality":"Emmendingen","municipality":{"key":"08316011","name":"Emmendingen, Stadt","type":"Große_Kreisstadt"},"district":{"key":"08316","name":"Emmendingen","type":"Landkreis"},"federalState":{"key":"08","name":"Baden-Württemberg"}},{"name":"Schluchtweg","postalCode":"79312","locality":"Emmendingen","municipality":{"key":"08316011","name":"Emmendingen, Stadt","type":"Große_Kreisstadt"},"district":{"key":"08316","name":"Emmendingen","type":"Landkreis"},"federalState":{"key":"08","name":"Baden-Württemberg"}},{"name":"Schneckenbrücke","postalCode":"79312","locality":"Emmendingen","municipality":{"key":"08316011","name":"Emmendingen, Stadt","type":"Große_Kreisstadt"},"district":{"key":"08316","name":"Emmendingen","type":"Landkreis"},"federalState":{"key":"08","name":"Baden-Württemberg"}},{"name":"Schönbergweg","postalCode":"79312","locality":"Emmendingen","municipality":{"key":"08316011","name":"Emmendingen, Stadt","type":"Große_Kreisstadt"},"district":{"key":"08316","name":"Emmendingen","type":"Landkreis"},"federalState":{"key":"08","name":"Baden-Württemberg"}},{"name":"Schorenhofweg","postalCode":"79312","locality":"Emmendingen","municipality":{"key":"08316011","name":"Emmendingen, Stadt","type":"Große_Kreisstadt"},"district":{"key":"08316","name":"Emmendingen","type":"Landkreis"},"federalState":{"key":"08","name":"Baden-Württemberg"}},{"name":"Schorenweg","postalCode":"79312","locality":"Emmendingen","municipality":{"key":"08316011","name":"Emmendingen, Stadt","type":"Große_Kreisstadt"},"district":{"key":"08316","name":"Emmendingen","type":"Landkreis"},"federalState":{"key":"08","name":"Baden-Württemberg"}},{"name":"Schubertweg","postalCode":"79312","locality":"Emmendingen","municipality":{"key":"08316011","name":"Emmendingen, Stadt","type":"Große_Kreisstadt"},"district":{"key":"08316","name":"Emmendingen","type":"Landkreis"},"federalState":{"key":"08","name":"Baden-Württemberg"}},{"name":"Schulstr.","postalCode":"79312","locality":"Emmendingen","municipality":{"key":"08316011","name":"Emmendingen, Stadt","type":"Große_Kreisstadt"},"district":{"key":"08316","name":"Emmendingen","type":"Landkreis"},"federalState":{"key":"08","name":"Baden-Württemberg"}},{"name":"Schützenstr.","postalCode":"79312","locality":"Emmendingen","municipality":{"key":"08316011","name":"Emmendingen, Stadt","type":"Große_Kreisstadt"},"district":{"key":"08316","name":"Emmendingen","type":"Landkreis"},"federalState":{"key":"08","name":"Baden-Württemberg"}},{"name":"Schwarzwaldstr.","postalCode":"79312","locality":"Emmendingen","municipality":{"key":"08316011","name":"Emmendingen, Stadt","type":"Große_Kreisstadt"},"district":{"key":"08316","name":"Emmendingen","type":"Landkreis"},"federalState":{"key":"08","name":"Baden-Württemberg"}},{"name":"Schweidackerweg","postalCode":"79312","locality":"Emmendingen","municipality":{"key":"08316011","name":"Emmendingen, Stadt","type":"Große_Kreisstadt"},"district":{"key":"08316","name":"Emmendingen","type":"Landkreis"},"federalState":{"key":"08","name":"Baden-Württemberg"}},{"name":"Schweinsweideweg","postalCode":"79312","locality":"Emmendingen","municipality":{"key":"08316011","name":"Emmendingen, Stadt","type":"Große_Kreisstadt"},"district":{"key":"08316","name":"Emmendingen","type":"Landkreis"},"federalState":{"key":"08","name":"Baden-Württemberg"}},{"name":"Seitweg","postalCode":"79312","locality":"Emmendingen","municipality":{"key":"08316011","name":"Emmendingen, Stadt","type":"Große_Kreisstadt"},"district":{"key":"08316","name":"Emmendingen","type":"Landkreis"},"federalState":{"key":"08","name":"Baden-Württemberg"}},{"name":"Sendeweg","postalCode":"79312","locality":"Emmendingen","municipality":{"key":"08316011","name":"Emmendingen, Stadt","type":"Große_Kreisstadt"},"district":{"key":"08316","name":"Emmendingen","type":"Landkreis"},"federalState":{"key":"08","name":"Baden-Württemberg"}},{"name":"Siedlerbrücke","postalCode":"79312","locality":"Emmendingen","municipality":{"key":"08316011","name":"Emmendingen, Stadt","type":"Große_Kreisstadt"},"district":{"key":"08316","name":"Emmendingen","type":"Landkreis"},"federalState":{"key":"08","name":"Baden-Württemberg"}},{"name":"Silcherstr.","postalCode":"79312","locality":"Emmendingen","municipality":{"key":"08316011","name":"Emmendingen, Stadt","type":"Große_Kreisstadt"},"district":{"key":"08316","name":"Emmendingen","type":"Landkreis"},"federalState":{"key":"08","name":"Baden-Württemberg"}},{"name":"Simon-Veit-Gasse","postalCode":"79312","locality":"Emmendingen","municipality":{"key":"08316011","name":"Emmendingen, Stadt","type":"Große_Kreisstadt"},"district":{"key":"08316","name":"Emmendingen","type":"Landkreis"},"federalState":{"key":"08","name":"Baden-Württemberg"}},{"name":"Skulpturenpark","postalCode":"79312","locality":"Emmendingen","municipality":{"key":"08316011","name":"Emmendingen, Stadt","type":"Große_Kreisstadt"},"district":{"key":"08316","name":"Emmendingen","type":"Landkreis"},"federalState":{"key":"08","name":"Baden-Württemberg"}},{"name":"Sonnenweg","postalCode":"79312","locality":"Emmendingen","municipality":{"key":"08316011","name":"Emmendingen, Stadt","type":"Große_Kreisstadt"},"district":{"key":"08316","name":"Emmendingen","type":"Landkreis"},"federalState":{"key":"08","name":"Baden-Württemberg"}},{"name":"Sonnhalde","postalCode":"79312","locality":"Emmendingen","municipality":{"key":"08316011","name":"Emmendingen, Stadt","type":"Große_Kreisstadt"},"district":{"key":"08316","name":"Emmendingen","type":"Landkreis"},"federalState":{"key":"08","name":"Baden-Württemberg"}},{"name":"Sophie-von-La-Roche-Weg","postalCode":"79312","locality":"Emmendingen","municipality":{"key":"08316011","name":"Emmendingen, Stadt","type":"Große_Kreisstadt"},"district":{"key":"08316","name":"Emmendingen","type":"Landkreis"},"federalState":{"key":"08","name":"Baden-Württemberg"}},{"name":"Sparkassenpassage","postalCode":"79312","locality":"Emmendingen","municipality":{"key":"08316011","name":"Emmendingen, Stadt","type":"Große_Kreisstadt"},"district":{"key":"08316","name":"Emmendingen","type":"Landkreis"},"federalState":{"key":"08","name":"Baden-Württemberg"}},{"name":"Spitzwinkelweg","postalCode":"79312","locality":"Emmendingen","municipality":{"key":"08316011","name":"Emmendingen, Stadt","type":"Große_Kreisstadt"},"district":{"key":"08316","name":"Emmendingen","type":"Landkreis"},"federalState":{"key":"08","name":"Baden-Württemberg"}},{"name":"Stadtgarten","postalCode":"79312","locality":"Emmendingen","municipality":{"key":"08316011","name":"Emmendingen, Stadt","type":"Große_Kreisstadt"},"district":{"key":"08316","name":"Emmendingen","type":"Landkreis"},"federalState":{"key":"08","name":"Baden-Württemberg"}},{"name":"Staudingerstr.","postalCode":"79312","locality":"Emmendingen","municipality":{"key":"08316011","name":"Emmendingen, Stadt","type":"Große_Kreisstadt"},"district":{"key":"08316","name":"Emmendingen","type":"Landkreis"},"federalState":{"key":"08","name":"Baden-Württemberg"}},{"name":"Steinbruchweg","postalCode":"79312","locality":"Emmendingen","municipality":{"key":"08316011","name":"Emmendingen, Stadt","type":"Große_Kreisstadt"},"district":{"key":"08316","name":"Emmendingen","type":"Landkreis"},"federalState":{"key":"08","name":"Baden-Württemberg"}},{"name":"Steinbuckstr.","postalCode":"79312","locality":"Emmendingen","municipality":{"key":"08316011","name":"Emmendingen, Stadt","type":"Große_Kreisstadt"},"district":{"key":"08316","name":"Emmendingen","type":"Landkreis"},"federalState":{"key":"08","name":"Baden-Württemberg"}},{"name":"Steinstr.","postalCode":"79312","locality":"Emmendingen","municipality":{"key":"08316011","name":"Emmendingen, Stadt","type":"Große_Kreisstadt"},"district":{"key":"08316","name":"Emmendingen","type":"Landkreis"},"federalState":{"key":"08","name":"Baden-Württemberg"}},{"name":"SV Mundingen","postalCode":"79312","locality":"Emmendingen","municipality":{"key":"08316011","name":"Emmendingen, Stadt","type":"Große_Kreisstadt"},"district":{"key":"08316","name":"Emmendingen","type":"Landkreis"},"federalState":{"key":"08","name":"Baden-Württemberg"}},{"name":"Talstr.","postalCode":"79312","locality":"Emmendingen","municipality":{"key":"08316011","name":"Emmendingen, Stadt","type":"Große_Kreisstadt"},"district":{"key":"08316","name":"Emmendingen","type":"Landkreis"},"federalState":{"key":"08","name":"Baden-Württemberg"}},{"name":"Tannenweg","postalCode":"79312","locality":"Emmendingen","municipality":{"key":"08316011","name":"Emmendingen, Stadt","type":"Große_Kreisstadt"},"district":{"key":"08316","name":"Emmendingen","type":"Landkreis"},"federalState":{"key":"08","name":"Baden-Württemberg"}},{"name":"Teninger Str.","postalCode":"79312","locality":"Emmendingen","municipality":{"key":"08316011","name":"Emmendingen, Stadt","type":"Große_Kreisstadt"},"district":{"key":"08316","name":"Emmendingen","type":"Landkreis"},"federalState":{"key":"08","name":"Baden-Württemberg"}},{"name":"Tennenbach","postalCode":"79312","locality":"Emmendingen","municipality":{"key":"08316011","name":"Emmendingen, Stadt","type":"Große_Kreisstadt"},"district":{"key":"08316","name":"Emmendingen","type":"Landkreis"},"federalState":{"key":"08","name":"Baden-Württemberg"}},{"name":"Tennenbach","postalCode":"79348","locality":"Emmendingen","municipality":{"key":"08316011","name":"Emmendingen, Stadt","type":"Große_Kreisstadt"},"district":{"key":"08316","name":"Emmendingen","type":"Landkreis"},"federalState":{"key":"08","name":"Baden-Württemberg"}},{"name":"Tennenbacher Str.","postalCode":"79312","locality":"Emmendingen","municipality":{"key":"08316011","name":"Emmendingen, Stadt","type":"Große_Kreisstadt"},"district":{"key":"08316","name":"Emmendingen","type":"Landkreis"},"federalState":{"key":"08","name":"Baden-Württemberg"}},{"name":"Teufelsbrückleweg","postalCode":"79312","locality":"Emmendingen","municipality":{"key":"08316011","name":"Emmendingen, Stadt","type":"Große_Kreisstadt"},"district":{"key":"08316","name":"Emmendingen","type":"Landkreis"},"federalState":{"key":"08","name":"Baden-Württemberg"}},{"name":"Theodor-Storm-Weg","postalCode":"79312","locality":"Emmendingen","municipality":{"key":"08316011","name":"Emmendingen, Stadt","type":"Große_Kreisstadt"},"district":{"key":"08316","name":"Emmendingen","type":"Landkreis"},"federalState":{"key":"08","name":"Baden-Württemberg"}},{"name":"Tiefmattenweg","postalCode":"79312","locality":"Emmendingen","municipality":{"key":"08316011","name":"Emmendingen, Stadt","type":"Große_Kreisstadt"},"district":{"key":"08316","name":"Emmendingen","type":"Landkreis"},"federalState":{"key":"08","name":"Baden-Württemberg"}},{"name":"Torgasse","postalCode":"79312","locality":"Emmendingen","municipality":{"key":"08316011","name":"Emmendingen, Stadt","type":"Große_Kreisstadt"},"district":{"key":"08316","name":"Emmendingen","type":"Landkreis"},"federalState":{"key":"08","name":"Baden-Württemberg"}},{"name":"Traufweg","postalCode":"79312","locality":"Emmendingen","municipality":{"key":"08316011","name":"Emmendingen, Stadt","type":"Große_Kreisstadt"},"district":{"key":"08316","name":"Emmendingen","type":"Landkreis"},"federalState":{"key":"08","name":"Baden-Württemberg"}},{"name":"Tullaweg","postalCode":"79312","locality":"Emmendingen","municipality":{"key":"08316011","name":"Emmendingen, Stadt","type":"Große_Kreisstadt"},"district":{"key":"08316","name":"Emmendingen","type":"Landkreis"},"federalState":{"key":"08","name":"Baden-Württemberg"}},{"name":"Tulpenweg","postalCode":"79312","locality":"Emmendingen","municipality":{"key":"08316011","name":"Emmendingen, Stadt","type":"Große_Kreisstadt"},"district":{"key":"08316","name":"Emmendingen","type":"Landkreis"},"federalState":{"key":"08","name":"Baden-Württemberg"}},{"name":"Tunibergweg","postalCode":"79312","locality":"Emmendingen","municipality":{"key":"08316011","name":"Emmendingen, Stadt","type":"Große_Kreisstadt"},"district":{"key":"08316","name":"Emmendingen","type":"Landkreis"},"federalState":{"key":"08","name":"Baden-Württemberg"}},{"name":"Unterdorfstr.","postalCode":"79312","locality":"Emmendingen","municipality":{"key":"08316011","name":"Emmendingen, Stadt","type":"Große_Kreisstadt"},"district":{"key":"08316","name":"Emmendingen","type":"Landkreis"},"federalState":{"key":"08","name":"Baden-Württemberg"}},{"name":"Untere-Höfe-Str.","postalCode":"79312","locality":"Emmendingen","municipality":{"key":"08316011","name":"Emmendingen, Stadt","type":"Große_Kreisstadt"},"district":{"key":"08316","name":"Emmendingen","type":"Landkreis"},"federalState":{"key":"08","name":"Baden-Württemberg"}},{"name":"Unterer Binsgenweg","postalCode":"79312","locality":"Emmendingen","municipality":{"key":"08316011","name":"Emmendingen, Stadt","type":"Große_Kreisstadt"},"district":{"key":"08316","name":"Emmendingen","type":"Landkreis"},"federalState":{"key":"08","name":"Baden-Württemberg"}},{"name":"Unterer Laberberg","postalCode":"79312","locality":"Emmendingen","municipality":{"key":"08316011","name":"Emmendingen, Stadt","type":"Große_Kreisstadt"},"district":{"key":"08316","name":"Emmendingen","type":"Landkreis"},"federalState":{"key":"08","name":"Baden-Württemberg"}},{"name":"Verkehrsübungsplatz","postalCode":"79312","locality":"Emmendingen","municipality":{"key":"08316011","name":"Emmendingen, Stadt","type":"Große_Kreisstadt"},"district":{"key":"08316","name":"Emmendingen","type":"Landkreis"},"federalState":{"key":"08","name":"Baden-Württemberg"}},{"name":"Viehlägerweg","postalCode":"79312","locality":"Emmendingen","municipality":{"key":"08316011","name":"Emmendingen, Stadt","type":"Große_Kreisstadt"},"district":{"key":"08316","name":"Emmendingen","type":"Landkreis"},"federalState":{"key":"08","name":"Baden-Württemberg"}},{"name":"Vier Jauchert","postalCode":"79312","locality":"Emmendingen","municipality":{"key":"08316011","name":"Emmendingen, Stadt","type":"Große_Kreisstadt"},"district":{"key":"08316","name":"Emmendingen","type":"Landkreis"},"federalState":{"key":"08","name":"Baden-Württemberg"}},{"name":"Vogelsangweg","postalCode":"79312","locality":"Emmendingen","municipality":{"key":"08316011","name":"Emmendingen, Stadt","type":"Große_Kreisstadt"},"district":{"key":"08316","name":"Emmendingen","type":"Landkreis"},"federalState":{"key":"08","name":"Baden-Württemberg"}},{"name":"Vogesenstr.","postalCode":"79312","locality":"Emmendingen","municipality":{"key":"08316011","name":"Emmendingen, Stadt","type":"Große_Kreisstadt"},"district":{"key":"08316","name":"Emmendingen","type":"Landkreis"},"federalState":{"key":"08","name":"Baden-Württemberg"}},{"name":"Vogtsweg","postalCode":"79312","locality":"Emmendingen","municipality":{"key":"08316011","name":"Emmendingen, Stadt","type":"Große_Kreisstadt"},"district":{"key":"08316","name":"Emmendingen","type":"Landkreis"},"federalState":{"key":"08","name":"Baden-Württemberg"}},{"name":"Vordere Zaismatt","postalCode":"79312","locality":"Emmendingen","municipality":{"key":"08316011","name":"Emmendingen, Stadt","type":"Große_Kreisstadt"},"district":{"key":"08316","name":"Emmendingen","type":"Landkreis"},"federalState":{"key":"08","name":"Baden-Württemberg"}},{"name":"Wagenstr.","postalCode":"79312","locality":"Emmendingen","municipality":{"key":"08316011","name":"Emmendingen, Stadt","type":"Große_Kreisstadt"},"district":{"key":"08316","name":"Emmendingen","type":"Landkreis"},"federalState":{"key":"08","name":"Baden-Württemberg"}},{"name":"Waldseeweg","postalCode":"79312","locality":"Emmendingen","municipality":{"key":"08316011","name":"Emmendingen, Stadt","type":"Große_Kreisstadt"},"district":{"key":"08316","name":"Emmendingen","type":"Landkreis"},"federalState":{"key":"08","name":"Baden-Württemberg"}},{"name":"Waldstr.","postalCode":"79312","locality":"Emmendingen","municipality":{"key":"08316011","name":"Emmendingen, Stadt","type":"Große_Kreisstadt"},"district":{"key":"08316","name":"Emmendingen","type":"Landkreis"},"federalState":{"key":"08","name":"Baden-Württemberg"}},{"name":"Wannenweg","postalCode":"79312","locality":"Emmendingen","municipality":{"key":"08316011","name":"Emmendingen, Stadt","type":"Große_Kreisstadt"},"district":{"key":"08316","name":"Emmendingen","type":"Landkreis"},"federalState":{"key":"08","name":"Baden-Württemberg"}},{"name":"Wasserer Wiesenbrücke","postalCode":"79312","locality":"Emmendingen","municipality":{"key":"08316011","name":"Emmendingen, Stadt","type":"Große_Kreisstadt"},"district":{"key":"08316","name":"Emmendingen","type":"Landkreis"},"federalState":{"key":"08","name":"Baden-Württemberg"}},{"name":"Weberacker","postalCode":"79312","locality":"Emmendingen","municipality":{"key":"08316011","name":"Emmendingen, Stadt","type":"Große_Kreisstadt"},"district":{"key":"08316","name":"Emmendingen","type":"Landkreis"},"federalState":{"key":"08","name":"Baden-Württemberg"}},{"name":"Weidenmattenstr.","postalCode":"79312","locality":"Emmendingen","municipality":{"key":"08316011","name":"Emmendingen, Stadt","type":"Große_Kreisstadt"},"district":{"key":"08316","name":"Emmendingen","type":"Landkreis"},"federalState":{"key":"08","name":"Baden-Württemberg"}},{"name":"Weinstockstr.","postalCode":"79312","locality":"Emmendingen","municipality":{"key":"08316011","name":"Emmendingen, Stadt","type":"Große_Kreisstadt"},"district":{"key":"08316","name":"Emmendingen","type":"Landkreis"},"federalState":{"key":"08","name":"Baden-Württemberg"}},{"name":"Weißbachweg","postalCode":"79312","locality":"Emmendingen","municipality":{"key":"08316011","name":"Emmendingen, Stadt","type":"Große_Kreisstadt"},"district":{"key":"08316","name":"Emmendingen","type":"Landkreis"},"federalState":{"key":"08","name":"Baden-Württemberg"}},{"name":"Weizenweg","postalCode":"79312","locality":"Emmendingen","municipality":{"key":"08316011","name":"Emmendingen, Stadt","type":"Große_Kreisstadt"},"district":{"key":"08316","name":"Emmendingen","type":"Landkreis"},"federalState":{"key":"08","name":"Baden-Württemberg"}},{"name":"Werkhofstr.","postalCode":"79312","locality":"Emmendingen","municipality":{"key":"08316011","name":"Emmendingen, Stadt","type":"Große_Kreisstadt"},"district":{"key":"08316","name":"Emmendingen","type":"Landkreis"},"federalState":{"key":"08","name":"Baden-Württemberg"}},{"name":"Werkmannsweg","postalCode":"79312","locality":"Emmendingen","municipality":{"key":"08316011","name":"Emmendingen, Stadt","type":"Große_Kreisstadt"},"district":{"key":"08316","name":"Emmendingen","type":"Landkreis"},"federalState":{"key":"08","name":"Baden-Württemberg"}},{"name":"Wiesenstr.","postalCode":"79312","locality":"Emmendingen","municipality":{"key":"08316011","name":"Emmendingen, Stadt","type":"Große_Kreisstadt"},"district":{"key":"08316","name":"Emmendingen","type":"Landkreis"},"federalState":{"key":"08","name":"Baden-Württemberg"}},{"name":"Wilhelm-Busch-Weg","postalCode":"79312","locality":"Emmendingen","municipality":{"key":"08316011","name":"Emmendingen, Stadt","type":"Große_Kreisstadt"},"district":{"key":"08316","name":"Emmendingen","type":"Landkreis"},"federalState":{"key":"08","name":"Baden-Württemberg"}},{"name":"Wilhelmstr.","postalCode":"79312","locality":"Emmendingen","municipality":{"key":"08316011","name":"Emmendingen, Stadt","type":"Große_Kreisstadt"},"district":{"key":"08316","name":"Emmendingen","type":"Landkreis"},"federalState":{"key":"08","name":"Baden-Württemberg"}},{"name":"Windenreuter Str.","postalCode":"79312","locality":"Emmendingen","municipality":{"key":"08316011","name":"Emmendingen, Stadt","type":"Große_Kreisstadt"},"district":{"key":"08316","name":"Emmendingen","type":"Landkreis"},"federalState":{"key":"08","name":"Baden-Württemberg"}},{"name":"Wöpplinsberger Str.","postalCode":"79312","locality":"Emmendingen","municipality":{"key":"08316011","name":"Emmendingen, Stadt","type":"Große_Kreisstadt"},"district":{"key":"08316","name":"Emmendingen","type":"Landkreis"},"federalState":{"key":"08","name":"Baden-Württemberg"}},{"name":"Wöpplinsberger Weg","postalCode":"79312","locality":"Emmendingen","municipality":{"key":"08316011","name":"Emmendingen, Stadt","type":"Große_Kreisstadt"},"district":{"key":"08316","name":"Emmendingen","type":"Landkreis"},"federalState":{"key":"08","name":"Baden-Württemberg"}},{"name":"Ziegeleiweg","postalCode":"79312","locality":"Emmendingen","municipality":{"key":"08316011","name":"Emmendingen, Stadt","type":"Große_Kreisstadt"},"district":{"key":"08316","name":"Emmendingen","type":"Landkreis"},"federalState":{"key":"08","name":"Baden-Württemberg"}},{"name":"Ziegelhof","postalCode":"79312","locality":"Emmendingen","municipality":{"key":"08316011","name":"Emmendingen, Stadt","type":"Große_Kreisstadt"},"district":{"key":"08316","name":"Emmendingen","type":"Landkreis"},"federalState":{"key":"08","name":"Baden-Württemberg"}},{"name":"Zimmerholzweg","postalCode":"79312","locality":"Emmendingen","municipality":{"key":"08316011","name":"Emmendingen, Stadt","type":"Große_Kreisstadt"},"district":{"key":"08316","name":"Emmendingen","type":"Landkreis"},"federalState":{"key":"08","name":"Baden-Württemberg"}},{"name":"Zum alten Strässli","postalCode":"79312","locality":"Emmendingen","municipality":{"key":"08316011","name":"Emmendingen, Stadt","type":"Große_Kreisstadt"},"district":{"key":"08316","name":"Emmendingen","type":"Landkreis"},"federalState":{"key":"08","name":"Baden-Württemberg"}},{"name":"Zum Korbermättle","postalCode":"79312","locality":"Emmendingen","municipality":{"key":"08316011","name":"Emmendingen, Stadt","type":"Große_Kreisstadt"},"district":{"key":"08316","name":"Emmendingen","type":"Landkreis"},"federalState":{"key":"08","name":"Baden-Württemberg"}},{"name":"Zum Schneckenberg","postalCode":"79312","locality":"Emmendingen","municipality":{"key":"08316011","name":"Emmendingen, Stadt","type":"Große_Kreisstadt"},"district":{"key":"08316","name":"Emmendingen","type":"Landkreis"},"federalState":{"key":"08","name":"Baden-Württemberg"}},{"name":"Zum Übergang","postalCode":"79312","locality":"Emmendingen","municipality":{"key":"08316011","name":"Emmendingen, Stadt","type":"Große_Kreisstadt"},"district":{"key":"08316","name":"Emmendingen","type":"Landkreis"},"federalState":{"key":"08","name":"Baden-Württemberg"}},{"name":"Über der Elz","postalCode":"79312","locality":"Emmendingen","municipality":{"key":"08316011","name":"Emmendingen, Stadt","type":"Große_Kreisstadt"},"district":{"key":"08316","name":"Emmendingen","type":"Landkreis"},"federalState":{"key":"08","name":"Baden-Württemberg"}},]