[{"name":"Afelskreuzstr.","postalCode":"54552","locality":"Katzwinkel","municipality":{"key":"07233037","name":"Katzwinkel","type":"Kreisangehörige_Gemeinde"},"district":{"key":"07233","name":"Vulkaneifel","type":"Landkreis"},"federalState":{"key":"07","name":"Rheinland-Pfalz"}},{"name":"Alsenthal","postalCode":"57581","locality":"Katzwinkel (Sieg)","municipality":{"key":"07132080","name":"Katzwinkel (Sieg)","type":"Kreisangehörige_Gemeinde"},"district":{"key":"07132","name":"Altenkirchen (Westerwald)","type":"Landkreis"},"federalState":{"key":"07","name":"Rheinland-Pfalz"}},{"name":"Alte Poststr.","postalCode":"57581","locality":"Katzwinkel (Sieg)","municipality":{"key":"07132080","name":"Katzwinkel (Sieg)","type":"Kreisangehörige_Gemeinde"},"district":{"key":"07132","name":"Altenkirchen (Westerwald)","type":"Landkreis"},"federalState":{"key":"07","name":"Rheinland-Pfalz"}},{"name":"Alte Schulstr.","postalCode":"57581","locality":"Katzwinkel (Sieg)","municipality":{"key":"07132080","name":"Katzwinkel (Sieg)","type":"Kreisangehörige_Gemeinde"},"district":{"key":"07132","name":"Altenkirchen (Westerwald)","type":"Landkreis"},"federalState":{"key":"07","name":"Rheinland-Pfalz"}},{"name":"Am Gäsbach","postalCode":"54552","locality":"Katzwinkel","municipality":{"key":"07233037","name":"Katzwinkel","type":"Kreisangehörige_Gemeinde"},"district":{"key":"07233","name":"Vulkaneifel","type":"Landkreis"},"federalState":{"key":"07","name":"Rheinland-Pfalz"}},{"name":"Amselweg","postalCode":"57581","locality":"Katzwinkel (Sieg)","municipality":{"key":"07132080","name":"Katzwinkel (Sieg)","type":"Kreisangehörige_Gemeinde"},"district":{"key":"07132","name":"Altenkirchen (Westerwald)","type":"Landkreis"},"federalState":{"key":"07","name":"Rheinland-Pfalz"}},{"name":"Auf dem Haidchen","postalCode":"57581","locality":"Katzwinkel (Sieg)","municipality":{"key":"07132080","name":"Katzwinkel (Sieg)","type":"Kreisangehörige_Gemeinde"},"district":{"key":"07132","name":"Altenkirchen (Westerwald)","type":"Landkreis"},"federalState":{"key":"07","name":"Rheinland-Pfalz"}},{"name":"Auf dem Hügel","postalCode":"54552","locality":"Katzwinkel","municipality":{"key":"07233037","name":"Katzwinkel","type":"Kreisangehörige_Gemeinde"},"district":{"key":"07233","name":"Vulkaneifel","type":"Landkreis"},"federalState":{"key":"07","name":"Rheinland-Pfalz"}},{"name":"Auf der Burg","postalCode":"57581","locality":"Katzwinkel (Sieg)","municipality":{"key":"07132080","name":"Katzwinkel (Sieg)","type":"Kreisangehörige_Gemeinde"},"district":{"key":"07132","name":"Altenkirchen (Westerwald)","type":"Landkreis"},"federalState":{"key":"07","name":"Rheinland-Pfalz"}},{"name":"Barbarastr.","postalCode":"57581","locality":"Katzwinkel (Sieg)","municipality":{"key":"07132080","name":"Katzwinkel (Sieg)","type":"Kreisangehörige_Gemeinde"},"district":{"key":"07132","name":"Altenkirchen (Westerwald)","type":"Landkreis"},"federalState":{"key":"07","name":"Rheinland-Pfalz"}},{"name":"Baumschulstr.","postalCode":"54552","locality":"Katzwinkel","municipality":{"key":"07233037","name":"Katzwinkel","type":"Kreisangehörige_Gemeinde"},"district":{"key":"07233","name":"Vulkaneifel","type":"Landkreis"},"federalState":{"key":"07","name":"Rheinland-Pfalz"}},{"name":"Bergstr.","postalCode":"57581","locality":"Katzwinkel (Sieg)","municipality":{"key":"07132080","name":"Katzwinkel (Sieg)","type":"Kreisangehörige_Gemeinde"},"district":{"key":"07132","name":"Altenkirchen (Westerwald)","type":"Landkreis"},"federalState":{"key":"07","name":"Rheinland-Pfalz"}},{"name":"Birkenweg","postalCode":"57581","locality":"Katzwinkel (Sieg)","municipality":{"key":"07132080","name":"Katzwinkel (Sieg)","type":"Kreisangehörige_Gemeinde"},"district":{"key":"07132","name":"Altenkirchen (Westerwald)","type":"Landkreis"},"federalState":{"key":"07","name":"Rheinland-Pfalz"}},{"name":"Bornhahn","postalCode":"57581","locality":"Katzwinkel (Sieg)","municipality":{"key":"07132080","name":"Katzwinkel (Sieg)","type":"Kreisangehörige_Gemeinde"},"district":{"key":"07132","name":"Altenkirchen (Westerwald)","type":"Landkreis"},"federalState":{"key":"07","name":"Rheinland-Pfalz"}},{"name":"Buchenweg","postalCode":"57581","locality":"Katzwinkel (Sieg)","municipality":{"key":"07132080","name":"Katzwinkel (Sieg)","type":"Kreisangehörige_Gemeinde"},"district":{"key":"07132","name":"Altenkirchen (Westerwald)","type":"Landkreis"},"federalState":{"key":"07","name":"Rheinland-Pfalz"}},{"name":"Dr.-Alfred-Reichmann-Str.","postalCode":"57581","locality":"Katzwinkel (Sieg)","municipality":{"key":"07132080","name":"Katzwinkel (Sieg)","type":"Kreisangehörige_Gemeinde"},"district":{"key":"07132","name":"Altenkirchen (Westerwald)","type":"Landkreis"},"federalState":{"key":"07","name":"Rheinland-Pfalz"}},{"name":"Eichenweg","postalCode":"57581","locality":"Katzwinkel (Sieg)","municipality":{"key":"07132080","name":"Katzwinkel (Sieg)","type":"Kreisangehörige_Gemeinde"},"district":{"key":"07132","name":"Altenkirchen (Westerwald)","type":"Landkreis"},"federalState":{"key":"07","name":"Rheinland-Pfalz"}},{"name":"Erlenstr.","postalCode":"57581","locality":"Katzwinkel (Sieg)","municipality":{"key":"07132080","name":"Katzwinkel (Sieg)","type":"Kreisangehörige_Gemeinde"},"district":{"key":"07132","name":"Altenkirchen (Westerwald)","type":"Landkreis"},"federalState":{"key":"07","name":"Rheinland-Pfalz"}},{"name":"Eschenweg","postalCode":"54552","locality":"Katzwinkel","municipality":{"key":"07233037","name":"Katzwinkel","type":"Kreisangehörige_Gemeinde"},"district":{"key":"07233","name":"Vulkaneifel","type":"Landkreis"},"federalState":{"key":"07","name":"Rheinland-Pfalz"}},{"name":"Eueln","postalCode":"57581","locality":"Katzwinkel (Sieg)","municipality":{"key":"07132080","name":"Katzwinkel (Sieg)","type":"Kreisangehörige_Gemeinde"},"district":{"key":"07132","name":"Altenkirchen (Westerwald)","type":"Landkreis"},"federalState":{"key":"07","name":"Rheinland-Pfalz"}},{"name":"Fichtenweg","postalCode":"57581","locality":"Katzwinkel (Sieg)","municipality":{"key":"07132080","name":"Katzwinkel (Sieg)","type":"Kreisangehörige_Gemeinde"},"district":{"key":"07132","name":"Altenkirchen (Westerwald)","type":"Landkreis"},"federalState":{"key":"07","name":"Rheinland-Pfalz"}},{"name":"Finkenstr.","postalCode":"57581","locality":"Katzwinkel (Sieg)","municipality":{"key":"07132080","name":"Katzwinkel (Sieg)","type":"Kreisangehörige_Gemeinde"},"district":{"key":"07132","name":"Altenkirchen (Westerwald)","type":"Landkreis"},"federalState":{"key":"07","name":"Rheinland-Pfalz"}},{"name":"Glück-Auf-Str.","postalCode":"57581","locality":"Katzwinkel (Sieg)","municipality":{"key":"07132080","name":"Katzwinkel (Sieg)","type":"Kreisangehörige_Gemeinde"},"district":{"key":"07132","name":"Altenkirchen (Westerwald)","type":"Landkreis"},"federalState":{"key":"07","name":"Rheinland-Pfalz"}},{"name":"Goldenbock","postalCode":"57581","locality":"Katzwinkel (Sieg)","municipality":{"key":"07132080","name":"Katzwinkel (Sieg)","type":"Kreisangehörige_Gemeinde"},"district":{"key":"07132","name":"Altenkirchen (Westerwald)","type":"Landkreis"},"federalState":{"key":"07","name":"Rheinland-Pfalz"}},{"name":"Grubenweg","postalCode":"57581","locality":"Katzwinkel (Sieg)","municipality":{"key":"07132080","name":"Katzwinkel (Sieg)","type":"Kreisangehörige_Gemeinde"},"district":{"key":"07132","name":"Altenkirchen (Westerwald)","type":"Landkreis"},"federalState":{"key":"07","name":"Rheinland-Pfalz"}},{"name":"Hassel","postalCode":"57581","locality":"Katzwinkel (Sieg)","municipality":{"key":"07132080","name":"Katzwinkel (Sieg)","type":"Kreisangehörige_Gemeinde"},"district":{"key":"07132","name":"Altenkirchen (Westerwald)","type":"Landkreis"},"federalState":{"key":"07","name":"Rheinland-Pfalz"}},{"name":"Hecke","postalCode":"57581","locality":"Katzwinkel (Sieg)","municipality":{"key":"07132080","name":"Katzwinkel (Sieg)","type":"Kreisangehörige_Gemeinde"},"district":{"key":"07132","name":"Altenkirchen (Westerwald)","type":"Landkreis"},"federalState":{"key":"07","name":"Rheinland-Pfalz"}},{"name":"Hönningen-Dorfstr.","postalCode":"57581","locality":"Katzwinkel (Sieg)","municipality":{"key":"07132080","name":"Katzwinkel (Sieg)","type":"Kreisangehörige_Gemeinde"},"district":{"key":"07132","name":"Altenkirchen (Westerwald)","type":"Landkreis"},"federalState":{"key":"07","name":"Rheinland-Pfalz"}},{"name":"Hönninger Str.","postalCode":"57581","locality":"Katzwinkel (Sieg)","municipality":{"key":"07132080","name":"Katzwinkel (Sieg)","type":"Kreisangehörige_Gemeinde"},"district":{"key":"07132","name":"Altenkirchen (Westerwald)","type":"Landkreis"},"federalState":{"key":"07","name":"Rheinland-Pfalz"}},{"name":"Hubertusstr.","postalCode":"57581","locality":"Katzwinkel (Sieg)","municipality":{"key":"07132080","name":"Katzwinkel (Sieg)","type":"Kreisangehörige_Gemeinde"},"district":{"key":"07132","name":"Altenkirchen (Westerwald)","type":"Landkreis"},"federalState":{"key":"07","name":"Rheinland-Pfalz"}},{"name":"Im Wiesengrund","postalCode":"57581","locality":"Katzwinkel (Sieg)","municipality":{"key":"07132080","name":"Katzwinkel (Sieg)","type":"Kreisangehörige_Gemeinde"},"district":{"key":"07132","name":"Altenkirchen (Westerwald)","type":"Landkreis"},"federalState":{"key":"07","name":"Rheinland-Pfalz"}},{"name":"Im Wiesengrung","postalCode":"57581","locality":"Katzwinkel (Sieg)","municipality":{"key":"07132080","name":"Katzwinkel (Sieg)","type":"Kreisangehörige_Gemeinde"},"district":{"key":"07132","name":"Altenkirchen (Westerwald)","type":"Landkreis"},"federalState":{"key":"07","name":"Rheinland-Pfalz"}},{"name":"In der Ringelswiese","postalCode":"54552","locality":"Katzwinkel","municipality":{"key":"07233037","name":"Katzwinkel","type":"Kreisangehörige_Gemeinde"},"district":{"key":"07233","name":"Vulkaneifel","type":"Landkreis"},"federalState":{"key":"07","name":"Rheinland-Pfalz"}},{"name":"Kalteich","postalCode":"57581","locality":"Katzwinkel (Sieg)","municipality":{"key":"07132080","name":"Katzwinkel (Sieg)","type":"Kreisangehörige_Gemeinde"},"district":{"key":"07132","name":"Altenkirchen (Westerwald)","type":"Landkreis"},"federalState":{"key":"07","name":"Rheinland-Pfalz"}},{"name":"Kastanienweg","postalCode":"57581","locality":"Katzwinkel (Sieg)","municipality":{"key":"07132080","name":"Katzwinkel (Sieg)","type":"Kreisangehörige_Gemeinde"},"district":{"key":"07132","name":"Altenkirchen (Westerwald)","type":"Landkreis"},"federalState":{"key":"07","name":"Rheinland-Pfalz"}},{"name":"Kiefernweg","postalCode":"57581","locality":"Katzwinkel (Sieg)","municipality":{"key":"07132080","name":"Katzwinkel (Sieg)","type":"Kreisangehörige_Gemeinde"},"district":{"key":"07132","name":"Altenkirchen (Westerwald)","type":"Landkreis"},"federalState":{"key":"07","name":"Rheinland-Pfalz"}},{"name":"Kirchstr.","postalCode":"57581","locality":"Katzwinkel (Sieg)","municipality":{"key":"07132080","name":"Katzwinkel (Sieg)","type":"Kreisangehörige_Gemeinde"},"district":{"key":"07132","name":"Altenkirchen (Westerwald)","type":"Landkreis"},"federalState":{"key":"07","name":"Rheinland-Pfalz"}},{"name":"Knappenstr.","postalCode":"57581","locality":"Katzwinkel (Sieg)","municipality":{"key":"07132080","name":"Katzwinkel (Sieg)","type":"Kreisangehörige_Gemeinde"},"district":{"key":"07132","name":"Altenkirchen (Westerwald)","type":"Landkreis"},"federalState":{"key":"07","name":"Rheinland-Pfalz"}},{"name":"Lärchenweg","postalCode":"57581","locality":"Katzwinkel (Sieg)","municipality":{"key":"07132080","name":"Katzwinkel (Sieg)","type":"Kreisangehörige_Gemeinde"},"district":{"key":"07132","name":"Altenkirchen (Westerwald)","type":"Landkreis"},"federalState":{"key":"07","name":"Rheinland-Pfalz"}},{"name":"Magnolienweg","postalCode":"57581","locality":"Katzwinkel (Sieg)","municipality":{"key":"07132080","name":"Katzwinkel (Sieg)","type":"Kreisangehörige_Gemeinde"},"district":{"key":"07132","name":"Altenkirchen (Westerwald)","type":"Landkreis"},"federalState":{"key":"07","name":"Rheinland-Pfalz"}},{"name":"Mauswinkel","postalCode":"57581","locality":"Katzwinkel (Sieg)","municipality":{"key":"07132080","name":"Katzwinkel (Sieg)","type":"Kreisangehörige_Gemeinde"},"district":{"key":"07132","name":"Altenkirchen (Westerwald)","type":"Landkreis"},"federalState":{"key":"07","name":"Rheinland-Pfalz"}},{"name":"Neurom","postalCode":"57581","locality":"Katzwinkel (Sieg)","municipality":{"key":"07132080","name":"Katzwinkel (Sieg)","type":"Kreisangehörige_Gemeinde"},"district":{"key":"07132","name":"Altenkirchen (Westerwald)","type":"Landkreis"},"federalState":{"key":"07","name":"Rheinland-Pfalz"}},{"name":"Raiffeisenstr.","postalCode":"57581","locality":"Katzwinkel (Sieg)","municipality":{"key":"07132080","name":"Katzwinkel (Sieg)","type":"Kreisangehörige_Gemeinde"},"district":{"key":"07132","name":"Altenkirchen (Westerwald)","type":"Landkreis"},"federalState":{"key":"07","name":"Rheinland-Pfalz"}},{"name":"Sandstr.","postalCode":"57581","locality":"Katzwinkel (Sieg)","municipality":{"key":"07132080","name":"Katzwinkel (Sieg)","type":"Kreisangehörige_Gemeinde"},"district":{"key":"07132","name":"Altenkirchen (Westerwald)","type":"Landkreis"},"federalState":{"key":"07","name":"Rheinland-Pfalz"}},{"name":"Scheuern","postalCode":"57581","locality":"Katzwinkel (Sieg)","municipality":{"key":"07132080","name":"Katzwinkel (Sieg)","type":"Kreisangehörige_Gemeinde"},"district":{"key":"07132","name":"Altenkirchen (Westerwald)","type":"Landkreis"},"federalState":{"key":"07","name":"Rheinland-Pfalz"}},{"name":"Sonnenweg","postalCode":"57581","locality":"Katzwinkel (Sieg)","municipality":{"key":"07132080","name":"Katzwinkel (Sieg)","type":"Kreisangehörige_Gemeinde"},"district":{"key":"07132","name":"Altenkirchen (Westerwald)","type":"Landkreis"},"federalState":{"key":"07","name":"Rheinland-Pfalz"}},{"name":"Tannenweg","postalCode":"57581","locality":"Katzwinkel (Sieg)","municipality":{"key":"07132080","name":"Katzwinkel (Sieg)","type":"Kreisangehörige_Gemeinde"},"district":{"key":"07132","name":"Altenkirchen (Westerwald)","type":"Landkreis"},"federalState":{"key":"07","name":"Rheinland-Pfalz"}},{"name":"Uesser Weg","postalCode":"54552","locality":"Katzwinkel","municipality":{"key":"07233037","name":"Katzwinkel","type":"Kreisangehörige_Gemeinde"},"district":{"key":"07233","name":"Vulkaneifel","type":"Landkreis"},"federalState":{"key":"07","name":"Rheinland-Pfalz"}},{"name":"Waldstr.","postalCode":"57581","locality":"Katzwinkel (Sieg)","municipality":{"key":"07132080","name":"Katzwinkel (Sieg)","type":"Kreisangehörige_Gemeinde"},"district":{"key":"07132","name":"Altenkirchen (Westerwald)","type":"Landkreis"},"federalState":{"key":"07","name":"Rheinland-Pfalz"}},{"name":"Wallmenrother Str.","postalCode":"57581","locality":"Katzwinkel (Sieg)","municipality":{"key":"07132080","name":"Katzwinkel (Sieg)","type":"Kreisangehörige_Gemeinde"},"district":{"key":"07132","name":"Altenkirchen (Westerwald)","type":"Landkreis"},"federalState":{"key":"07","name":"Rheinland-Pfalz"}},{"name":"Zöllershöhe","postalCode":"57581","locality":"Katzwinkel (Sieg)","municipality":{"key":"07132080","name":"Katzwinkel (Sieg)","type":"Kreisangehörige_Gemeinde"},"district":{"key":"07132","name":"Altenkirchen (Westerwald)","type":"Landkreis"},"federalState":{"key":"07","name":"Rheinland-Pfalz"}},]