[{"name":"Abendtal","postalCode":"78078","locality":"Niedereschach","municipality":{"key":"08326041","name":"Niedereschach","type":"Kreisangehörige_Gemeinde"},"district":{"key":"08326","name":"Schwarzwald-Baar-Kreis","type":"Landkreis"},"federalState":{"key":"08","name":"Baden-Württemberg"}},{"name":"Adlerstr.","postalCode":"73569","locality":"Eschach","municipality":{"key":"08136020","name":"Eschach","type":"Kreisangehörige_Gemeinde"},"district":{"key":"08136","name":"Ostalbkreis","type":"Landkreis"},"federalState":{"key":"08","name":"Baden-Württemberg"}},{"name":"Ahornweg","postalCode":"78078","locality":"Niedereschach","municipality":{"key":"08326041","name":"Niedereschach","type":"Kreisangehörige_Gemeinde"},"district":{"key":"08326","name":"Schwarzwald-Baar-Kreis","type":"Landkreis"},"federalState":{"key":"08","name":"Baden-Württemberg"}},{"name":"Albweg","postalCode":"73569","locality":"Eschach","municipality":{"key":"08136020","name":"Eschach","type":"Kreisangehörige_Gemeinde"},"district":{"key":"08136","name":"Ostalbkreis","type":"Landkreis"},"federalState":{"key":"08","name":"Baden-Württemberg"}},{"name":"Alemannenstr.","postalCode":"78078","locality":"Niedereschach","municipality":{"key":"08326041","name":"Niedereschach","type":"Kreisangehörige_Gemeinde"},"district":{"key":"08326","name":"Schwarzwald-Baar-Kreis","type":"Landkreis"},"federalState":{"key":"08","name":"Baden-Württemberg"}},{"name":"Alte Steige","postalCode":"73569","locality":"Eschach","municipality":{"key":"08136020","name":"Eschach","type":"Kreisangehörige_Gemeinde"},"district":{"key":"08136","name":"Ostalbkreis","type":"Landkreis"},"federalState":{"key":"08","name":"Baden-Württemberg"}},{"name":"Am Ammelbach","postalCode":"78078","locality":"Niedereschach","municipality":{"key":"08326041","name":"Niedereschach","type":"Kreisangehörige_Gemeinde"},"district":{"key":"08326","name":"Schwarzwald-Baar-Kreis","type":"Landkreis"},"federalState":{"key":"08","name":"Baden-Württemberg"}},{"name":"Am Brückle","postalCode":"78078","locality":"Niedereschach","municipality":{"key":"08326041","name":"Niedereschach","type":"Kreisangehörige_Gemeinde"},"district":{"key":"08326","name":"Schwarzwald-Baar-Kreis","type":"Landkreis"},"federalState":{"key":"08","name":"Baden-Württemberg"}},{"name":"Am Rebberg","postalCode":"78078","locality":"Niedereschach","municipality":{"key":"08326041","name":"Niedereschach","type":"Kreisangehörige_Gemeinde"},"district":{"key":"08326","name":"Schwarzwald-Baar-Kreis","type":"Landkreis"},"federalState":{"key":"08","name":"Baden-Württemberg"}},{"name":"Amselweg","postalCode":"73569","locality":"Eschach","municipality":{"key":"08136020","name":"Eschach","type":"Kreisangehörige_Gemeinde"},"district":{"key":"08136","name":"Ostalbkreis","type":"Landkreis"},"federalState":{"key":"08","name":"Baden-Württemberg"}},{"name":"Amselweg","postalCode":"78078","locality":"Niedereschach","municipality":{"key":"08326041","name":"Niedereschach","type":"Kreisangehörige_Gemeinde"},"district":{"key":"08326","name":"Schwarzwald-Baar-Kreis","type":"Landkreis"},"federalState":{"key":"08","name":"Baden-Württemberg"}},{"name":"Am Sportplatz","postalCode":"73569","locality":"Eschach","municipality":{"key":"08136020","name":"Eschach","type":"Kreisangehörige_Gemeinde"},"district":{"key":"08136","name":"Ostalbkreis","type":"Landkreis"},"federalState":{"key":"08","name":"Baden-Württemberg"}},{"name":"Auf dem Zimmermann","postalCode":"78078","locality":"Niedereschach","municipality":{"key":"08326041","name":"Niedereschach","type":"Kreisangehörige_Gemeinde"},"district":{"key":"08326","name":"Schwarzwald-Baar-Kreis","type":"Landkreis"},"federalState":{"key":"08","name":"Baden-Württemberg"}},{"name":"Auf der Breite","postalCode":"78078","locality":"Niedereschach","municipality":{"key":"08326041","name":"Niedereschach","type":"Kreisangehörige_Gemeinde"},"district":{"key":"08326","name":"Schwarzwald-Baar-Kreis","type":"Landkreis"},"federalState":{"key":"08","name":"Baden-Württemberg"}},{"name":"Badäckerstr.","postalCode":"78078","locality":"Niedereschach","municipality":{"key":"08326041","name":"Niedereschach","type":"Kreisangehörige_Gemeinde"},"district":{"key":"08326","name":"Schwarzwald-Baar-Kreis","type":"Landkreis"},"federalState":{"key":"08","name":"Baden-Württemberg"}},{"name":"Bärwaldweg","postalCode":"78078","locality":"Niedereschach","municipality":{"key":"08326041","name":"Niedereschach","type":"Kreisangehörige_Gemeinde"},"district":{"key":"08326","name":"Schwarzwald-Baar-Kreis","type":"Landkreis"},"federalState":{"key":"08","name":"Baden-Württemberg"}},{"name":"Batschenhofer Str.","postalCode":"73569","locality":"Eschach","municipality":{"key":"08136020","name":"Eschach","type":"Kreisangehörige_Gemeinde"},"district":{"key":"08136","name":"Ostalbkreis","type":"Landkreis"},"federalState":{"key":"08","name":"Baden-Württemberg"}},{"name":"Baumgartenweg","postalCode":"73569","locality":"Eschach","municipality":{"key":"08136020","name":"Eschach","type":"Kreisangehörige_Gemeinde"},"district":{"key":"08136","name":"Ostalbkreis","type":"Landkreis"},"federalState":{"key":"08","name":"Baden-Württemberg"}},{"name":"Beroldingerstr.","postalCode":"78078","locality":"Niedereschach","municipality":{"key":"08326041","name":"Niedereschach","type":"Kreisangehörige_Gemeinde"},"district":{"key":"08326","name":"Schwarzwald-Baar-Kreis","type":"Landkreis"},"federalState":{"key":"08","name":"Baden-Württemberg"}},{"name":"Billingerstr.","postalCode":"78078","locality":"Niedereschach","municipality":{"key":"08326041","name":"Niedereschach","type":"Kreisangehörige_Gemeinde"},"district":{"key":"08326","name":"Schwarzwald-Baar-Kreis","type":"Landkreis"},"federalState":{"key":"08","name":"Baden-Württemberg"}},{"name":"Birkenweg","postalCode":"73569","locality":"Eschach","municipality":{"key":"08136020","name":"Eschach","type":"Kreisangehörige_Gemeinde"},"district":{"key":"08136","name":"Ostalbkreis","type":"Landkreis"},"federalState":{"key":"08","name":"Baden-Württemberg"}},{"name":"Birkenweg","postalCode":"78078","locality":"Niedereschach","municipality":{"key":"08326041","name":"Niedereschach","type":"Kreisangehörige_Gemeinde"},"district":{"key":"08326","name":"Schwarzwald-Baar-Kreis","type":"Landkreis"},"federalState":{"key":"08","name":"Baden-Württemberg"}},{"name":"Bischof-von-Lipp-Str.","postalCode":"73569","locality":"Eschach","municipality":{"key":"08136020","name":"Eschach","type":"Kreisangehörige_Gemeinde"},"district":{"key":"08136","name":"Ostalbkreis","type":"Landkreis"},"federalState":{"key":"08","name":"Baden-Württemberg"}},{"name":"Bodenacker","postalCode":"78078","locality":"Niedereschach","municipality":{"key":"08326041","name":"Niedereschach","type":"Kreisangehörige_Gemeinde"},"district":{"key":"08326","name":"Schwarzwald-Baar-Kreis","type":"Landkreis"},"federalState":{"key":"08","name":"Baden-Württemberg"}},{"name":"Braunäckerweg","postalCode":"73569","locality":"Eschach","municipality":{"key":"08136020","name":"Eschach","type":"Kreisangehörige_Gemeinde"},"district":{"key":"08136","name":"Ostalbkreis","type":"Landkreis"},"federalState":{"key":"08","name":"Baden-Württemberg"}},{"name":"Breitäcker","postalCode":"73569","locality":"Eschach","municipality":{"key":"08136020","name":"Eschach","type":"Kreisangehörige_Gemeinde"},"district":{"key":"08136","name":"Ostalbkreis","type":"Landkreis"},"federalState":{"key":"08","name":"Baden-Württemberg"}},{"name":"Breiteweg","postalCode":"78078","locality":"Niedereschach","municipality":{"key":"08326041","name":"Niedereschach","type":"Kreisangehörige_Gemeinde"},"district":{"key":"08326","name":"Schwarzwald-Baar-Kreis","type":"Landkreis"},"federalState":{"key":"08","name":"Baden-Württemberg"}},{"name":"Brestenberg","postalCode":"78078","locality":"Niedereschach","municipality":{"key":"08326041","name":"Niedereschach","type":"Kreisangehörige_Gemeinde"},"district":{"key":"08326","name":"Schwarzwald-Baar-Kreis","type":"Landkreis"},"federalState":{"key":"08","name":"Baden-Württemberg"}},{"name":"Bruder-Konrad-Str.","postalCode":"78078","locality":"Niedereschach","municipality":{"key":"08326041","name":"Niedereschach","type":"Kreisangehörige_Gemeinde"},"district":{"key":"08326","name":"Schwarzwald-Baar-Kreis","type":"Landkreis"},"federalState":{"key":"08","name":"Baden-Württemberg"}},{"name":"Bubenholzweg","postalCode":"78078","locality":"Niedereschach","municipality":{"key":"08326041","name":"Niedereschach","type":"Kreisangehörige_Gemeinde"},"district":{"key":"08326","name":"Schwarzwald-Baar-Kreis","type":"Landkreis"},"federalState":{"key":"08","name":"Baden-Württemberg"}},{"name":"Buchenweg","postalCode":"78078","locality":"Niedereschach","municipality":{"key":"08326041","name":"Niedereschach","type":"Kreisangehörige_Gemeinde"},"district":{"key":"08326","name":"Schwarzwald-Baar-Kreis","type":"Landkreis"},"federalState":{"key":"08","name":"Baden-Württemberg"}},{"name":"Buchhofer Str.","postalCode":"73569","locality":"Eschach","municipality":{"key":"08136020","name":"Eschach","type":"Kreisangehörige_Gemeinde"},"district":{"key":"08136","name":"Ostalbkreis","type":"Landkreis"},"federalState":{"key":"08","name":"Baden-Württemberg"}},{"name":"Bühlhof","postalCode":"78078","locality":"Niedereschach","municipality":{"key":"08326041","name":"Niedereschach","type":"Kreisangehörige_Gemeinde"},"district":{"key":"08326","name":"Schwarzwald-Baar-Kreis","type":"Landkreis"},"federalState":{"key":"08","name":"Baden-Württemberg"}},{"name":"Bühlweg","postalCode":"78078","locality":"Niedereschach","municipality":{"key":"08326041","name":"Niedereschach","type":"Kreisangehörige_Gemeinde"},"district":{"key":"08326","name":"Schwarzwald-Baar-Kreis","type":"Landkreis"},"federalState":{"key":"08","name":"Baden-Württemberg"}},{"name":"Bürgermeister Wirsching Str.","postalCode":"73569","locality":"Eschach","municipality":{"key":"08136020","name":"Eschach","type":"Kreisangehörige_Gemeinde"},"district":{"key":"08136","name":"Ostalbkreis","type":"Landkreis"},"federalState":{"key":"08","name":"Baden-Württemberg"}},{"name":"Dauchinger Str.","postalCode":"78078","locality":"Niedereschach","municipality":{"key":"08326041","name":"Niedereschach","type":"Kreisangehörige_Gemeinde"},"district":{"key":"08326","name":"Schwarzwald-Baar-Kreis","type":"Landkreis"},"federalState":{"key":"08","name":"Baden-Württemberg"}},{"name":"Deißlinger Str.","postalCode":"78078","locality":"Niedereschach","municipality":{"key":"08326041","name":"Niedereschach","type":"Kreisangehörige_Gemeinde"},"district":{"key":"08326","name":"Schwarzwald-Baar-Kreis","type":"Landkreis"},"federalState":{"key":"08","name":"Baden-Württemberg"}},{"name":"Dobel","postalCode":"78078","locality":"Niedereschach","municipality":{"key":"08326041","name":"Niedereschach","type":"Kreisangehörige_Gemeinde"},"district":{"key":"08326","name":"Schwarzwald-Baar-Kreis","type":"Landkreis"},"federalState":{"key":"08","name":"Baden-Württemberg"}},{"name":"Dominik-Spadinger-Weg","postalCode":"78078","locality":"Niedereschach","municipality":{"key":"08326041","name":"Niedereschach","type":"Kreisangehörige_Gemeinde"},"district":{"key":"08326","name":"Schwarzwald-Baar-Kreis","type":"Landkreis"},"federalState":{"key":"08","name":"Baden-Württemberg"}},{"name":"Drehgasse","postalCode":"73569","locality":"Eschach","municipality":{"key":"08136020","name":"Eschach","type":"Kreisangehörige_Gemeinde"},"district":{"key":"08136","name":"Ostalbkreis","type":"Landkreis"},"federalState":{"key":"08","name":"Baden-Württemberg"}},{"name":"Drosselweg","postalCode":"78078","locality":"Niedereschach","municipality":{"key":"08326041","name":"Niedereschach","type":"Kreisangehörige_Gemeinde"},"district":{"key":"08326","name":"Schwarzwald-Baar-Kreis","type":"Landkreis"},"federalState":{"key":"08","name":"Baden-Württemberg"}},{"name":"Eichberg","postalCode":"78078","locality":"Niedereschach","municipality":{"key":"08326041","name":"Niedereschach","type":"Kreisangehörige_Gemeinde"},"district":{"key":"08326","name":"Schwarzwald-Baar-Kreis","type":"Landkreis"},"federalState":{"key":"08","name":"Baden-Württemberg"}},{"name":"Erlenweg","postalCode":"78078","locality":"Niedereschach","municipality":{"key":"08326041","name":"Niedereschach","type":"Kreisangehörige_Gemeinde"},"district":{"key":"08326","name":"Schwarzwald-Baar-Kreis","type":"Landkreis"},"federalState":{"key":"08","name":"Baden-Württemberg"}},{"name":"Erlewinstr.","postalCode":"78078","locality":"Niedereschach","municipality":{"key":"08326041","name":"Niedereschach","type":"Kreisangehörige_Gemeinde"},"district":{"key":"08326","name":"Schwarzwald-Baar-Kreis","type":"Landkreis"},"federalState":{"key":"08","name":"Baden-Württemberg"}},{"name":"Eschacher Str.","postalCode":"73569","locality":"Eschach","municipality":{"key":"08136020","name":"Eschach","type":"Kreisangehörige_Gemeinde"},"district":{"key":"08136","name":"Ostalbkreis","type":"Landkreis"},"federalState":{"key":"08","name":"Baden-Württemberg"}},{"name":"Eschachpark","postalCode":"78078","locality":"Niedereschach","municipality":{"key":"08326041","name":"Niedereschach","type":"Kreisangehörige_Gemeinde"},"district":{"key":"08326","name":"Schwarzwald-Baar-Kreis","type":"Landkreis"},"federalState":{"key":"08","name":"Baden-Württemberg"}},{"name":"Eschachstr.","postalCode":"78078","locality":"Niedereschach","municipality":{"key":"08326041","name":"Niedereschach","type":"Kreisangehörige_Gemeinde"},"district":{"key":"08326","name":"Schwarzwald-Baar-Kreis","type":"Landkreis"},"federalState":{"key":"08","name":"Baden-Württemberg"}},{"name":"Eschbachweg","postalCode":"73569","locality":"Eschach","municipality":{"key":"08136020","name":"Eschach","type":"Kreisangehörige_Gemeinde"},"district":{"key":"08136","name":"Ostalbkreis","type":"Landkreis"},"federalState":{"key":"08","name":"Baden-Württemberg"}},{"name":"Falkensteinweg","postalCode":"78078","locality":"Niedereschach","municipality":{"key":"08326041","name":"Niedereschach","type":"Kreisangehörige_Gemeinde"},"district":{"key":"08326","name":"Schwarzwald-Baar-Kreis","type":"Landkreis"},"federalState":{"key":"08","name":"Baden-Württemberg"}},{"name":"Fichtenstr.","postalCode":"73569","locality":"Eschach","municipality":{"key":"08136020","name":"Eschach","type":"Kreisangehörige_Gemeinde"},"district":{"key":"08136","name":"Ostalbkreis","type":"Landkreis"},"federalState":{"key":"08","name":"Baden-Württemberg"}},{"name":"Fichtenstr.","postalCode":"78078","locality":"Niedereschach","municipality":{"key":"08326041","name":"Niedereschach","type":"Kreisangehörige_Gemeinde"},"district":{"key":"08326","name":"Schwarzwald-Baar-Kreis","type":"Landkreis"},"federalState":{"key":"08","name":"Baden-Württemberg"}},{"name":"Finkenweg","postalCode":"73569","locality":"Eschach","municipality":{"key":"08136020","name":"Eschach","type":"Kreisangehörige_Gemeinde"},"district":{"key":"08136","name":"Ostalbkreis","type":"Landkreis"},"federalState":{"key":"08","name":"Baden-Württemberg"}},{"name":"Finkenweg","postalCode":"78078","locality":"Niedereschach","municipality":{"key":"08326041","name":"Niedereschach","type":"Kreisangehörige_Gemeinde"},"district":{"key":"08326","name":"Schwarzwald-Baar-Kreis","type":"Landkreis"},"federalState":{"key":"08","name":"Baden-Württemberg"}},{"name":"Fischbacher Str.","postalCode":"78078","locality":"Niedereschach","municipality":{"key":"08326041","name":"Niedereschach","type":"Kreisangehörige_Gemeinde"},"district":{"key":"08326","name":"Schwarzwald-Baar-Kreis","type":"Landkreis"},"federalState":{"key":"08","name":"Baden-Württemberg"}},{"name":"Fischbachweg","postalCode":"73569","locality":"Eschach","municipality":{"key":"08136020","name":"Eschach","type":"Kreisangehörige_Gemeinde"},"district":{"key":"08136","name":"Ostalbkreis","type":"Landkreis"},"federalState":{"key":"08","name":"Baden-Württemberg"}},{"name":"Flözlinger Str.","postalCode":"78078","locality":"Niedereschach","municipality":{"key":"08326041","name":"Niedereschach","type":"Kreisangehörige_Gemeinde"},"district":{"key":"08326","name":"Schwarzwald-Baar-Kreis","type":"Landkreis"},"federalState":{"key":"08","name":"Baden-Württemberg"}},{"name":"Föhrenweg","postalCode":"78078","locality":"Niedereschach","municipality":{"key":"08326041","name":"Niedereschach","type":"Kreisangehörige_Gemeinde"},"district":{"key":"08326","name":"Schwarzwald-Baar-Kreis","type":"Landkreis"},"federalState":{"key":"08","name":"Baden-Württemberg"}},{"name":"Frideggstr.","postalCode":"78078","locality":"Niedereschach","municipality":{"key":"08326041","name":"Niedereschach","type":"Kreisangehörige_Gemeinde"},"district":{"key":"08326","name":"Schwarzwald-Baar-Kreis","type":"Landkreis"},"federalState":{"key":"08","name":"Baden-Württemberg"}},{"name":"Friedhofstr.","postalCode":"78078","locality":"Niedereschach","municipality":{"key":"08326041","name":"Niedereschach","type":"Kreisangehörige_Gemeinde"},"district":{"key":"08326","name":"Schwarzwald-Baar-Kreis","type":"Landkreis"},"federalState":{"key":"08","name":"Baden-Württemberg"}},{"name":"Froschlache","postalCode":"73569","locality":"Eschach","municipality":{"key":"08136020","name":"Eschach","type":"Kreisangehörige_Gemeinde"},"district":{"key":"08136","name":"Ostalbkreis","type":"Landkreis"},"federalState":{"key":"08","name":"Baden-Württemberg"}},{"name":"Gartenweg","postalCode":"73569","locality":"Eschach","municipality":{"key":"08136020","name":"Eschach","type":"Kreisangehörige_Gemeinde"},"district":{"key":"08136","name":"Ostalbkreis","type":"Landkreis"},"federalState":{"key":"08","name":"Baden-Württemberg"}},{"name":"Gartenweg","postalCode":"78078","locality":"Niedereschach","municipality":{"key":"08326041","name":"Niedereschach","type":"Kreisangehörige_Gemeinde"},"district":{"key":"08326","name":"Schwarzwald-Baar-Kreis","type":"Landkreis"},"federalState":{"key":"08","name":"Baden-Württemberg"}},{"name":"Gäßle","postalCode":"73569","locality":"Eschach","municipality":{"key":"08136020","name":"Eschach","type":"Kreisangehörige_Gemeinde"},"district":{"key":"08136","name":"Ostalbkreis","type":"Landkreis"},"federalState":{"key":"08","name":"Baden-Württemberg"}},{"name":"Gengenbachweg","postalCode":"78078","locality":"Niedereschach","municipality":{"key":"08326041","name":"Niedereschach","type":"Kreisangehörige_Gemeinde"},"district":{"key":"08326","name":"Schwarzwald-Baar-Kreis","type":"Landkreis"},"federalState":{"key":"08","name":"Baden-Württemberg"}},{"name":"Gewerbestr.","postalCode":"78078","locality":"Niedereschach","municipality":{"key":"08326041","name":"Niedereschach","type":"Kreisangehörige_Gemeinde"},"district":{"key":"08326","name":"Schwarzwald-Baar-Kreis","type":"Landkreis"},"federalState":{"key":"08","name":"Baden-Württemberg"}},{"name":"Gögginger Str.","postalCode":"73569","locality":"Eschach","municipality":{"key":"08136020","name":"Eschach","type":"Kreisangehörige_Gemeinde"},"district":{"key":"08136","name":"Ostalbkreis","type":"Landkreis"},"federalState":{"key":"08","name":"Baden-Württemberg"}},{"name":"Graneggstr.","postalCode":"78078","locality":"Niedereschach","municipality":{"key":"08326041","name":"Niedereschach","type":"Kreisangehörige_Gemeinde"},"district":{"key":"08326","name":"Schwarzwald-Baar-Kreis","type":"Landkreis"},"federalState":{"key":"08","name":"Baden-Württemberg"}},{"name":"Grauwiesenstr.","postalCode":"73569","locality":"Eschach","municipality":{"key":"08136020","name":"Eschach","type":"Kreisangehörige_Gemeinde"},"district":{"key":"08136","name":"Ostalbkreis","type":"Landkreis"},"federalState":{"key":"08","name":"Baden-Württemberg"}},{"name":"Grundstr.","postalCode":"78078","locality":"Niedereschach","municipality":{"key":"08326041","name":"Niedereschach","type":"Kreisangehörige_Gemeinde"},"district":{"key":"08326","name":"Schwarzwald-Baar-Kreis","type":"Landkreis"},"federalState":{"key":"08","name":"Baden-Württemberg"}},{"name":"Gustav-Strohm-Str.","postalCode":"78078","locality":"Niedereschach","municipality":{"key":"08326041","name":"Niedereschach","type":"Kreisangehörige_Gemeinde"},"district":{"key":"08326","name":"Schwarzwald-Baar-Kreis","type":"Landkreis"},"federalState":{"key":"08","name":"Baden-Württemberg"}},{"name":"Hardtweg","postalCode":"78078","locality":"Niedereschach","municipality":{"key":"08326041","name":"Niedereschach","type":"Kreisangehörige_Gemeinde"},"district":{"key":"08326","name":"Schwarzwald-Baar-Kreis","type":"Landkreis"},"federalState":{"key":"08","name":"Baden-Württemberg"}},{"name":"Hasenstallerhof","postalCode":"78078","locality":"Niedereschach","municipality":{"key":"08326041","name":"Niedereschach","type":"Kreisangehörige_Gemeinde"},"district":{"key":"08326","name":"Schwarzwald-Baar-Kreis","type":"Landkreis"},"federalState":{"key":"08","name":"Baden-Württemberg"}},{"name":"Hauptstr.","postalCode":"73569","locality":"Eschach","municipality":{"key":"08136020","name":"Eschach","type":"Kreisangehörige_Gemeinde"},"district":{"key":"08136","name":"Ostalbkreis","type":"Landkreis"},"federalState":{"key":"08","name":"Baden-Württemberg"}},{"name":"Heergasse","postalCode":"73569","locality":"Eschach","municipality":{"key":"08136020","name":"Eschach","type":"Kreisangehörige_Gemeinde"},"district":{"key":"08136","name":"Ostalbkreis","type":"Landkreis"},"federalState":{"key":"08","name":"Baden-Württemberg"}},{"name":"Helpertshofen","postalCode":"73569","locality":"Eschach","municipality":{"key":"08136020","name":"Eschach","type":"Kreisangehörige_Gemeinde"},"district":{"key":"08136","name":"Ostalbkreis","type":"Landkreis"},"federalState":{"key":"08","name":"Baden-Württemberg"}},{"name":"Helpertshofer Str.","postalCode":"73569","locality":"Eschach","municipality":{"key":"08136020","name":"Eschach","type":"Kreisangehörige_Gemeinde"},"district":{"key":"08136","name":"Ostalbkreis","type":"Landkreis"},"federalState":{"key":"08","name":"Baden-Württemberg"}},{"name":"Hinter den Gärten","postalCode":"73569","locality":"Eschach","municipality":{"key":"08136020","name":"Eschach","type":"Kreisangehörige_Gemeinde"},"district":{"key":"08136","name":"Ostalbkreis","type":"Landkreis"},"federalState":{"key":"08","name":"Baden-Württemberg"}},{"name":"Hirtengasse","postalCode":"73569","locality":"Eschach","municipality":{"key":"08136020","name":"Eschach","type":"Kreisangehörige_Gemeinde"},"district":{"key":"08136","name":"Ostalbkreis","type":"Landkreis"},"federalState":{"key":"08","name":"Baden-Württemberg"}},{"name":"Hohenstaufenstr.","postalCode":"73569","locality":"Eschach","municipality":{"key":"08136020","name":"Eschach","type":"Kreisangehörige_Gemeinde"},"district":{"key":"08136","name":"Ostalbkreis","type":"Landkreis"},"federalState":{"key":"08","name":"Baden-Württemberg"}},{"name":"Hohholz","postalCode":"78078","locality":"Niedereschach","municipality":{"key":"08326041","name":"Niedereschach","type":"Kreisangehörige_Gemeinde"},"district":{"key":"08326","name":"Schwarzwald-Baar-Kreis","type":"Landkreis"},"federalState":{"key":"08","name":"Baden-Württemberg"}},{"name":"Hohrain","postalCode":"78078","locality":"Niedereschach","municipality":{"key":"08326041","name":"Niedereschach","type":"Kreisangehörige_Gemeinde"},"district":{"key":"08326","name":"Schwarzwald-Baar-Kreis","type":"Landkreis"},"federalState":{"key":"08","name":"Baden-Württemberg"}},{"name":"Holderäcker","postalCode":"78078","locality":"Niedereschach","municipality":{"key":"08326041","name":"Niedereschach","type":"Kreisangehörige_Gemeinde"},"district":{"key":"08326","name":"Schwarzwald-Baar-Kreis","type":"Landkreis"},"federalState":{"key":"08","name":"Baden-Württemberg"}},{"name":"Holzhausener Str.","postalCode":"73569","locality":"Eschach","municipality":{"key":"08136020","name":"Eschach","type":"Kreisangehörige_Gemeinde"},"district":{"key":"08136","name":"Ostalbkreis","type":"Landkreis"},"federalState":{"key":"08","name":"Baden-Württemberg"}},{"name":"Hornausenacker","postalCode":"78078","locality":"Niedereschach","municipality":{"key":"08326041","name":"Niedereschach","type":"Kreisangehörige_Gemeinde"},"district":{"key":"08326","name":"Schwarzwald-Baar-Kreis","type":"Landkreis"},"federalState":{"key":"08","name":"Baden-Württemberg"}},{"name":"Hummelberg","postalCode":"78078","locality":"Niedereschach","municipality":{"key":"08326041","name":"Niedereschach","type":"Kreisangehörige_Gemeinde"},"district":{"key":"08326","name":"Schwarzwald-Baar-Kreis","type":"Landkreis"},"federalState":{"key":"08","name":"Baden-Württemberg"}},{"name":"Hurdstr.","postalCode":"73569","locality":"Eschach","municipality":{"key":"08136020","name":"Eschach","type":"Kreisangehörige_Gemeinde"},"district":{"key":"08136","name":"Ostalbkreis","type":"Landkreis"},"federalState":{"key":"08","name":"Baden-Württemberg"}},{"name":"Ifflingerstr.","postalCode":"78078","locality":"Niedereschach","municipality":{"key":"08326041","name":"Niedereschach","type":"Kreisangehörige_Gemeinde"},"district":{"key":"08326","name":"Schwarzwald-Baar-Kreis","type":"Landkreis"},"federalState":{"key":"08","name":"Baden-Württemberg"}},{"name":"Im Bühl","postalCode":"73569","locality":"Eschach","municipality":{"key":"08136020","name":"Eschach","type":"Kreisangehörige_Gemeinde"},"district":{"key":"08136","name":"Ostalbkreis","type":"Landkreis"},"federalState":{"key":"08","name":"Baden-Württemberg"}},{"name":"Im Einfang","postalCode":"78078","locality":"Niedereschach","municipality":{"key":"08326041","name":"Niedereschach","type":"Kreisangehörige_Gemeinde"},"district":{"key":"08326","name":"Schwarzwald-Baar-Kreis","type":"Landkreis"},"federalState":{"key":"08","name":"Baden-Württemberg"}},{"name":"Im Gässle","postalCode":"78078","locality":"Niedereschach","municipality":{"key":"08326041","name":"Niedereschach","type":"Kreisangehörige_Gemeinde"},"district":{"key":"08326","name":"Schwarzwald-Baar-Kreis","type":"Landkreis"},"federalState":{"key":"08","name":"Baden-Württemberg"}},{"name":"Im Hospert","postalCode":"73569","locality":"Eschach","municipality":{"key":"08136020","name":"Eschach","type":"Kreisangehörige_Gemeinde"},"district":{"key":"08136","name":"Ostalbkreis","type":"Landkreis"},"federalState":{"key":"08","name":"Baden-Württemberg"}},{"name":"Im Langfeld","postalCode":"73569","locality":"Eschach","municipality":{"key":"08136020","name":"Eschach","type":"Kreisangehörige_Gemeinde"},"district":{"key":"08136","name":"Ostalbkreis","type":"Landkreis"},"federalState":{"key":"08","name":"Baden-Württemberg"}},{"name":"Im Oberweiler","postalCode":"73569","locality":"Eschach","municipality":{"key":"08136020","name":"Eschach","type":"Kreisangehörige_Gemeinde"},"district":{"key":"08136","name":"Ostalbkreis","type":"Landkreis"},"federalState":{"key":"08","name":"Baden-Württemberg"}},{"name":"Im Schloßberg","postalCode":"78078","locality":"Niedereschach","municipality":{"key":"08326041","name":"Niedereschach","type":"Kreisangehörige_Gemeinde"},"district":{"key":"08326","name":"Schwarzwald-Baar-Kreis","type":"Landkreis"},"federalState":{"key":"08","name":"Baden-Württemberg"}},{"name":"Im Steiggarten","postalCode":"73569","locality":"Eschach","municipality":{"key":"08136020","name":"Eschach","type":"Kreisangehörige_Gemeinde"},"district":{"key":"08136","name":"Ostalbkreis","type":"Landkreis"},"federalState":{"key":"08","name":"Baden-Württemberg"}},{"name":"Im Steinenbächle","postalCode":"73569","locality":"Eschach","municipality":{"key":"08136020","name":"Eschach","type":"Kreisangehörige_Gemeinde"},"district":{"key":"08136","name":"Ostalbkreis","type":"Landkreis"},"federalState":{"key":"08","name":"Baden-Württemberg"}},{"name":"Im Unterweiler","postalCode":"73569","locality":"Eschach","municipality":{"key":"08136020","name":"Eschach","type":"Kreisangehörige_Gemeinde"},"district":{"key":"08136","name":"Ostalbkreis","type":"Landkreis"},"federalState":{"key":"08","name":"Baden-Württemberg"}},{"name":"Im Vogelsang","postalCode":"78078","locality":"Niedereschach","municipality":{"key":"08326041","name":"Niedereschach","type":"Kreisangehörige_Gemeinde"},"district":{"key":"08326","name":"Schwarzwald-Baar-Kreis","type":"Landkreis"},"federalState":{"key":"08","name":"Baden-Württemberg"}},{"name":"Im Winkel","postalCode":"78078","locality":"Niedereschach","municipality":{"key":"08326041","name":"Niedereschach","type":"Kreisangehörige_Gemeinde"},"district":{"key":"08326","name":"Schwarzwald-Baar-Kreis","type":"Landkreis"},"federalState":{"key":"08","name":"Baden-Württemberg"}},{"name":"Im Wolfacker","postalCode":"78078","locality":"Niedereschach","municipality":{"key":"08326041","name":"Niedereschach","type":"Kreisangehörige_Gemeinde"},"district":{"key":"08326","name":"Schwarzwald-Baar-Kreis","type":"Landkreis"},"federalState":{"key":"08","name":"Baden-Württemberg"}},{"name":"In der Aub","postalCode":"78078","locality":"Niedereschach","municipality":{"key":"08326041","name":"Niedereschach","type":"Kreisangehörige_Gemeinde"},"district":{"key":"08326","name":"Schwarzwald-Baar-Kreis","type":"Landkreis"},"federalState":{"key":"08","name":"Baden-Württemberg"}},{"name":"In der Beinge","postalCode":"73569","locality":"Eschach","municipality":{"key":"08136020","name":"Eschach","type":"Kreisangehörige_Gemeinde"},"district":{"key":"08136","name":"Ostalbkreis","type":"Landkreis"},"federalState":{"key":"08","name":"Baden-Württemberg"}},{"name":"In der Halde","postalCode":"73569","locality":"Eschach","municipality":{"key":"08136020","name":"Eschach","type":"Kreisangehörige_Gemeinde"},"district":{"key":"08136","name":"Ostalbkreis","type":"Landkreis"},"federalState":{"key":"08","name":"Baden-Württemberg"}},{"name":"Johann-Liesenberger-Str.","postalCode":"78078","locality":"Niedereschach","municipality":{"key":"08326041","name":"Niedereschach","type":"Kreisangehörige_Gemeinde"},"district":{"key":"08326","name":"Schwarzwald-Baar-Kreis","type":"Landkreis"},"federalState":{"key":"08","name":"Baden-Württemberg"}},{"name":"Kappelwasen","postalCode":"73569","locality":"Eschach","municipality":{"key":"08136020","name":"Eschach","type":"Kreisangehörige_Gemeinde"},"district":{"key":"08136","name":"Ostalbkreis","type":"Landkreis"},"federalState":{"key":"08","name":"Baden-Württemberg"}},{"name":"Keltenplatz","postalCode":"78078","locality":"Niedereschach","municipality":{"key":"08326041","name":"Niedereschach","type":"Kreisangehörige_Gemeinde"},"district":{"key":"08326","name":"Schwarzwald-Baar-Kreis","type":"Landkreis"},"federalState":{"key":"08","name":"Baden-Württemberg"}},{"name":"Keltenweg","postalCode":"78078","locality":"Niedereschach","municipality":{"key":"08326041","name":"Niedereschach","type":"Kreisangehörige_Gemeinde"},"district":{"key":"08326","name":"Schwarzwald-Baar-Kreis","type":"Landkreis"},"federalState":{"key":"08","name":"Baden-Württemberg"}},{"name":"Kirchberg","postalCode":"78078","locality":"Niedereschach","municipality":{"key":"08326041","name":"Niedereschach","type":"Kreisangehörige_Gemeinde"},"district":{"key":"08326","name":"Schwarzwald-Baar-Kreis","type":"Landkreis"},"federalState":{"key":"08","name":"Baden-Württemberg"}},{"name":"Kirchbergweg","postalCode":"73569","locality":"Eschach","municipality":{"key":"08136020","name":"Eschach","type":"Kreisangehörige_Gemeinde"},"district":{"key":"08136","name":"Ostalbkreis","type":"Landkreis"},"federalState":{"key":"08","name":"Baden-Württemberg"}},{"name":"Kirchplatz","postalCode":"73569","locality":"Eschach","municipality":{"key":"08136020","name":"Eschach","type":"Kreisangehörige_Gemeinde"},"district":{"key":"08136","name":"Ostalbkreis","type":"Landkreis"},"federalState":{"key":"08","name":"Baden-Württemberg"}},{"name":"Kirchweg","postalCode":"78078","locality":"Niedereschach","municipality":{"key":"08326041","name":"Niedereschach","type":"Kreisangehörige_Gemeinde"},"district":{"key":"08326","name":"Schwarzwald-Baar-Kreis","type":"Landkreis"},"federalState":{"key":"08","name":"Baden-Württemberg"}},{"name":"Kirneckstr.","postalCode":"78078","locality":"Niedereschach","municipality":{"key":"08326041","name":"Niedereschach","type":"Kreisangehörige_Gemeinde"},"district":{"key":"08326","name":"Schwarzwald-Baar-Kreis","type":"Landkreis"},"federalState":{"key":"08","name":"Baden-Württemberg"}},{"name":"Klosterhofstr.","postalCode":"78078","locality":"Niedereschach","municipality":{"key":"08326041","name":"Niedereschach","type":"Kreisangehörige_Gemeinde"},"district":{"key":"08326","name":"Schwarzwald-Baar-Kreis","type":"Landkreis"},"federalState":{"key":"08","name":"Baden-Württemberg"}},{"name":"Kohlerberg","postalCode":"78078","locality":"Niedereschach","municipality":{"key":"08326041","name":"Niedereschach","type":"Kreisangehörige_Gemeinde"},"district":{"key":"08326","name":"Schwarzwald-Baar-Kreis","type":"Landkreis"},"federalState":{"key":"08","name":"Baden-Württemberg"}},{"name":"Kohlwald","postalCode":"78078","locality":"Niedereschach","municipality":{"key":"08326041","name":"Niedereschach","type":"Kreisangehörige_Gemeinde"},"district":{"key":"08326","name":"Schwarzwald-Baar-Kreis","type":"Landkreis"},"federalState":{"key":"08","name":"Baden-Württemberg"}},{"name":"Königsfelder Str.","postalCode":"78078","locality":"Niedereschach","municipality":{"key":"08326041","name":"Niedereschach","type":"Kreisangehörige_Gemeinde"},"district":{"key":"08326","name":"Schwarzwald-Baar-Kreis","type":"Landkreis"},"federalState":{"key":"08","name":"Baden-Württemberg"}},{"name":"Kreuzäckerweg","postalCode":"73569","locality":"Eschach","municipality":{"key":"08136020","name":"Eschach","type":"Kreisangehörige_Gemeinde"},"district":{"key":"08136","name":"Ostalbkreis","type":"Landkreis"},"federalState":{"key":"08","name":"Baden-Württemberg"}},{"name":"Lärchenweg","postalCode":"78078","locality":"Niedereschach","municipality":{"key":"08326041","name":"Niedereschach","type":"Kreisangehörige_Gemeinde"},"district":{"key":"08326","name":"Schwarzwald-Baar-Kreis","type":"Landkreis"},"federalState":{"key":"08","name":"Baden-Württemberg"}},{"name":"Leimgrube","postalCode":"78078","locality":"Niedereschach","municipality":{"key":"08326041","name":"Niedereschach","type":"Kreisangehörige_Gemeinde"},"district":{"key":"08326","name":"Schwarzwald-Baar-Kreis","type":"Landkreis"},"federalState":{"key":"08","name":"Baden-Württemberg"}},{"name":"Lerchenweg","postalCode":"73569","locality":"Eschach","municipality":{"key":"08136020","name":"Eschach","type":"Kreisangehörige_Gemeinde"},"district":{"key":"08136","name":"Ostalbkreis","type":"Landkreis"},"federalState":{"key":"08","name":"Baden-Württemberg"}},{"name":"Lindenstr.","postalCode":"73569","locality":"Eschach","municipality":{"key":"08136020","name":"Eschach","type":"Kreisangehörige_Gemeinde"},"district":{"key":"08136","name":"Ostalbkreis","type":"Landkreis"},"federalState":{"key":"08","name":"Baden-Württemberg"}},{"name":"Lindenweg","postalCode":"78078","locality":"Niedereschach","municipality":{"key":"08326041","name":"Niedereschach","type":"Kreisangehörige_Gemeinde"},"district":{"key":"08326","name":"Schwarzwald-Baar-Kreis","type":"Landkreis"},"federalState":{"key":"08","name":"Baden-Württemberg"}},{"name":"Lohäckerstr.","postalCode":"78078","locality":"Niedereschach","municipality":{"key":"08326041","name":"Niedereschach","type":"Kreisangehörige_Gemeinde"},"district":{"key":"08326","name":"Schwarzwald-Baar-Kreis","type":"Landkreis"},"federalState":{"key":"08","name":"Baden-Württemberg"}},{"name":"Lohnweg","postalCode":"78078","locality":"Niedereschach","municipality":{"key":"08326041","name":"Niedereschach","type":"Kreisangehörige_Gemeinde"},"district":{"key":"08326","name":"Schwarzwald-Baar-Kreis","type":"Landkreis"},"federalState":{"key":"08","name":"Baden-Württemberg"}},{"name":"Mailänderweg","postalCode":"78078","locality":"Niedereschach","municipality":{"key":"08326041","name":"Niedereschach","type":"Kreisangehörige_Gemeinde"},"district":{"key":"08326","name":"Schwarzwald-Baar-Kreis","type":"Landkreis"},"federalState":{"key":"08","name":"Baden-Württemberg"}},{"name":"Mariusstr.","postalCode":"78078","locality":"Niedereschach","municipality":{"key":"08326041","name":"Niedereschach","type":"Kreisangehörige_Gemeinde"},"district":{"key":"08326","name":"Schwarzwald-Baar-Kreis","type":"Landkreis"},"federalState":{"key":"08","name":"Baden-Württemberg"}},{"name":"Marktstr.","postalCode":"73569","locality":"Eschach","municipality":{"key":"08136020","name":"Eschach","type":"Kreisangehörige_Gemeinde"},"district":{"key":"08136","name":"Ostalbkreis","type":"Landkreis"},"federalState":{"key":"08","name":"Baden-Württemberg"}},{"name":"Mäslinstr.","postalCode":"78078","locality":"Niedereschach","municipality":{"key":"08326041","name":"Niedereschach","type":"Kreisangehörige_Gemeinde"},"district":{"key":"08326","name":"Schwarzwald-Baar-Kreis","type":"Landkreis"},"federalState":{"key":"08","name":"Baden-Württemberg"}},{"name":"Merowingerring","postalCode":"78078","locality":"Niedereschach","municipality":{"key":"08326041","name":"Niedereschach","type":"Kreisangehörige_Gemeinde"},"district":{"key":"08326","name":"Schwarzwald-Baar-Kreis","type":"Landkreis"},"federalState":{"key":"08","name":"Baden-Württemberg"}},{"name":"Mühlenweg","postalCode":"78078","locality":"Niedereschach","municipality":{"key":"08326041","name":"Niedereschach","type":"Kreisangehörige_Gemeinde"},"district":{"key":"08326","name":"Schwarzwald-Baar-Kreis","type":"Landkreis"},"federalState":{"key":"08","name":"Baden-Württemberg"}},{"name":"Mühlweg","postalCode":"73569","locality":"Eschach","municipality":{"key":"08136020","name":"Eschach","type":"Kreisangehörige_Gemeinde"},"district":{"key":"08136","name":"Ostalbkreis","type":"Landkreis"},"federalState":{"key":"08","name":"Baden-Württemberg"}},{"name":"Neue Steige","postalCode":"73569","locality":"Eschach","municipality":{"key":"08136020","name":"Eschach","type":"Kreisangehörige_Gemeinde"},"district":{"key":"08136","name":"Ostalbkreis","type":"Landkreis"},"federalState":{"key":"08","name":"Baden-Württemberg"}},{"name":"Neuhauser Str.","postalCode":"78078","locality":"Niedereschach","municipality":{"key":"08326041","name":"Niedereschach","type":"Kreisangehörige_Gemeinde"},"district":{"key":"08326","name":"Schwarzwald-Baar-Kreis","type":"Landkreis"},"federalState":{"key":"08","name":"Baden-Württemberg"}},{"name":"Niedereschacher Str.","postalCode":"78078","locality":"Niedereschach","municipality":{"key":"08326041","name":"Niedereschach","type":"Kreisangehörige_Gemeinde"},"district":{"key":"08326","name":"Schwarzwald-Baar-Kreis","type":"Landkreis"},"federalState":{"key":"08","name":"Baden-Württemberg"}},{"name":"Nützelbuchweg","postalCode":"78078","locality":"Niedereschach","municipality":{"key":"08326041","name":"Niedereschach","type":"Kreisangehörige_Gemeinde"},"district":{"key":"08326","name":"Schwarzwald-Baar-Kreis","type":"Landkreis"},"federalState":{"key":"08","name":"Baden-Württemberg"}},{"name":"Obere-Lehr-Str.","postalCode":"78078","locality":"Niedereschach","municipality":{"key":"08326041","name":"Niedereschach","type":"Kreisangehörige_Gemeinde"},"district":{"key":"08326","name":"Schwarzwald-Baar-Kreis","type":"Landkreis"},"federalState":{"key":"08","name":"Baden-Württemberg"}},{"name":"Obere-Loh-Str.","postalCode":"78078","locality":"Niedereschach","municipality":{"key":"08326041","name":"Niedereschach","type":"Kreisangehörige_Gemeinde"},"district":{"key":"08326","name":"Schwarzwald-Baar-Kreis","type":"Landkreis"},"federalState":{"key":"08","name":"Baden-Württemberg"}},{"name":"Obereschacher Str.","postalCode":"78078","locality":"Niedereschach","municipality":{"key":"08326041","name":"Niedereschach","type":"Kreisangehörige_Gemeinde"},"district":{"key":"08326","name":"Schwarzwald-Baar-Kreis","type":"Landkreis"},"federalState":{"key":"08","name":"Baden-Württemberg"}},{"name":"Obergasse","postalCode":"73569","locality":"Eschach","municipality":{"key":"08136020","name":"Eschach","type":"Kreisangehörige_Gemeinde"},"district":{"key":"08136","name":"Ostalbkreis","type":"Landkreis"},"federalState":{"key":"08","name":"Baden-Württemberg"}},{"name":"Oschatzweg","postalCode":"73569","locality":"Eschach","municipality":{"key":"08136020","name":"Eschach","type":"Kreisangehörige_Gemeinde"},"district":{"key":"08136","name":"Ostalbkreis","type":"Landkreis"},"federalState":{"key":"08","name":"Baden-Württemberg"}},{"name":"Peter-Garten","postalCode":"78078","locality":"Niedereschach","municipality":{"key":"08326041","name":"Niedereschach","type":"Kreisangehörige_Gemeinde"},"district":{"key":"08326","name":"Schwarzwald-Baar-Kreis","type":"Landkreis"},"federalState":{"key":"08","name":"Baden-Württemberg"}},{"name":"Rathausplatz","postalCode":"73569","locality":"Eschach","municipality":{"key":"08136020","name":"Eschach","type":"Kreisangehörige_Gemeinde"},"district":{"key":"08136","name":"Ostalbkreis","type":"Landkreis"},"federalState":{"key":"08","name":"Baden-Württemberg"}},{"name":"Rechbergstr.","postalCode":"73569","locality":"Eschach","municipality":{"key":"08136020","name":"Eschach","type":"Kreisangehörige_Gemeinde"},"district":{"key":"08136","name":"Ostalbkreis","type":"Landkreis"},"federalState":{"key":"08","name":"Baden-Württemberg"}},{"name":"Reuzenbrunnenweg","postalCode":"73569","locality":"Eschach","municipality":{"key":"08136020","name":"Eschach","type":"Kreisangehörige_Gemeinde"},"district":{"key":"08136","name":"Ostalbkreis","type":"Landkreis"},"federalState":{"key":"08","name":"Baden-Württemberg"}},{"name":"Riedwiesen","postalCode":"78078","locality":"Niedereschach","municipality":{"key":"08326041","name":"Niedereschach","type":"Kreisangehörige_Gemeinde"},"district":{"key":"08326","name":"Schwarzwald-Baar-Kreis","type":"Landkreis"},"federalState":{"key":"08","name":"Baden-Württemberg"}},{"name":"Römerweg","postalCode":"78078","locality":"Niedereschach","municipality":{"key":"08326041","name":"Niedereschach","type":"Kreisangehörige_Gemeinde"},"district":{"key":"08326","name":"Schwarzwald-Baar-Kreis","type":"Landkreis"},"federalState":{"key":"08","name":"Baden-Württemberg"}},{"name":"Rosenweg","postalCode":"73569","locality":"Eschach","municipality":{"key":"08136020","name":"Eschach","type":"Kreisangehörige_Gemeinde"},"district":{"key":"08136","name":"Ostalbkreis","type":"Landkreis"},"federalState":{"key":"08","name":"Baden-Württemberg"}},{"name":"Rottweiler Str.","postalCode":"78078","locality":"Niedereschach","municipality":{"key":"08326041","name":"Niedereschach","type":"Kreisangehörige_Gemeinde"},"district":{"key":"08326","name":"Schwarzwald-Baar-Kreis","type":"Landkreis"},"federalState":{"key":"08","name":"Baden-Württemberg"}},{"name":"Sandsteinweg","postalCode":"78078","locality":"Niedereschach","municipality":{"key":"08326041","name":"Niedereschach","type":"Kreisangehörige_Gemeinde"},"district":{"key":"08326","name":"Schwarzwald-Baar-Kreis","type":"Landkreis"},"federalState":{"key":"08","name":"Baden-Württemberg"}},{"name":"Schäffnerstr.","postalCode":"78078","locality":"Niedereschach","municipality":{"key":"08326041","name":"Niedereschach","type":"Kreisangehörige_Gemeinde"},"district":{"key":"08326","name":"Schwarzwald-Baar-Kreis","type":"Landkreis"},"federalState":{"key":"08","name":"Baden-Württemberg"}},{"name":"Schechinger Str.","postalCode":"73569","locality":"Eschach","municipality":{"key":"08136020","name":"Eschach","type":"Kreisangehörige_Gemeinde"},"district":{"key":"08136","name":"Ostalbkreis","type":"Landkreis"},"federalState":{"key":"08","name":"Baden-Württemberg"}},{"name":"Schenkelgehrenweg","postalCode":"73569","locality":"Eschach","municipality":{"key":"08136020","name":"Eschach","type":"Kreisangehörige_Gemeinde"},"district":{"key":"08136","name":"Ostalbkreis","type":"Landkreis"},"federalState":{"key":"08","name":"Baden-Württemberg"}},{"name":"Schlehenweg","postalCode":"78078","locality":"Niedereschach","municipality":{"key":"08326041","name":"Niedereschach","type":"Kreisangehörige_Gemeinde"},"district":{"key":"08326","name":"Schwarzwald-Baar-Kreis","type":"Landkreis"},"federalState":{"key":"08","name":"Baden-Württemberg"}},{"name":"Schlierbachweg","postalCode":"78078","locality":"Niedereschach","municipality":{"key":"08326041","name":"Niedereschach","type":"Kreisangehörige_Gemeinde"},"district":{"key":"08326","name":"Schwarzwald-Baar-Kreis","type":"Landkreis"},"federalState":{"key":"08","name":"Baden-Württemberg"}},{"name":"Schlösslehof","postalCode":"78078","locality":"Niedereschach","municipality":{"key":"08326041","name":"Niedereschach","type":"Kreisangehörige_Gemeinde"},"district":{"key":"08326","name":"Schwarzwald-Baar-Kreis","type":"Landkreis"},"federalState":{"key":"08","name":"Baden-Württemberg"}},{"name":"Schlößlestr.","postalCode":"78078","locality":"Niedereschach","municipality":{"key":"08326041","name":"Niedereschach","type":"Kreisangehörige_Gemeinde"},"district":{"key":"08326","name":"Schwarzwald-Baar-Kreis","type":"Landkreis"},"federalState":{"key":"08","name":"Baden-Württemberg"}},{"name":"Schmiedegasse","postalCode":"78078","locality":"Niedereschach","municipality":{"key":"08326041","name":"Niedereschach","type":"Kreisangehörige_Gemeinde"},"district":{"key":"08326","name":"Schwarzwald-Baar-Kreis","type":"Landkreis"},"federalState":{"key":"08","name":"Baden-Württemberg"}},{"name":"Schramberger Str.","postalCode":"78078","locality":"Niedereschach","municipality":{"key":"08326041","name":"Niedereschach","type":"Kreisangehörige_Gemeinde"},"district":{"key":"08326","name":"Schwarzwald-Baar-Kreis","type":"Landkreis"},"federalState":{"key":"08","name":"Baden-Württemberg"}},{"name":"Schulberg","postalCode":"78078","locality":"Niedereschach","municipality":{"key":"08326041","name":"Niedereschach","type":"Kreisangehörige_Gemeinde"},"district":{"key":"08326","name":"Schwarzwald-Baar-Kreis","type":"Landkreis"},"federalState":{"key":"08","name":"Baden-Württemberg"}},{"name":"Schulstr.","postalCode":"78078","locality":"Niedereschach","municipality":{"key":"08326041","name":"Niedereschach","type":"Kreisangehörige_Gemeinde"},"district":{"key":"08326","name":"Schwarzwald-Baar-Kreis","type":"Landkreis"},"federalState":{"key":"08","name":"Baden-Württemberg"}},{"name":"Schulweg","postalCode":"73569","locality":"Eschach","municipality":{"key":"08136020","name":"Eschach","type":"Kreisangehörige_Gemeinde"},"district":{"key":"08136","name":"Ostalbkreis","type":"Landkreis"},"federalState":{"key":"08","name":"Baden-Württemberg"}},{"name":"Schwalbenweg","postalCode":"73569","locality":"Eschach","municipality":{"key":"08136020","name":"Eschach","type":"Kreisangehörige_Gemeinde"},"district":{"key":"08136","name":"Ostalbkreis","type":"Landkreis"},"federalState":{"key":"08","name":"Baden-Württemberg"}},{"name":"Silberhalde","postalCode":"78078","locality":"Niedereschach","municipality":{"key":"08326041","name":"Niedereschach","type":"Kreisangehörige_Gemeinde"},"district":{"key":"08326","name":"Schwarzwald-Baar-Kreis","type":"Landkreis"},"federalState":{"key":"08","name":"Baden-Württemberg"}},{"name":"Sinkinger Str.","postalCode":"78078","locality":"Niedereschach","municipality":{"key":"08326041","name":"Niedereschach","type":"Kreisangehörige_Gemeinde"},"district":{"key":"08326","name":"Schwarzwald-Baar-Kreis","type":"Landkreis"},"federalState":{"key":"08","name":"Baden-Württemberg"}},{"name":"Sommerberg","postalCode":"78078","locality":"Niedereschach","municipality":{"key":"08326041","name":"Niedereschach","type":"Kreisangehörige_Gemeinde"},"district":{"key":"08326","name":"Schwarzwald-Baar-Kreis","type":"Landkreis"},"federalState":{"key":"08","name":"Baden-Württemberg"}},{"name":"Spitzacker","postalCode":"78078","locality":"Niedereschach","municipality":{"key":"08326041","name":"Niedereschach","type":"Kreisangehörige_Gemeinde"},"district":{"key":"08326","name":"Schwarzwald-Baar-Kreis","type":"Landkreis"},"federalState":{"key":"08","name":"Baden-Württemberg"}},{"name":"Staffelweg","postalCode":"73569","locality":"Eschach","municipality":{"key":"08136020","name":"Eschach","type":"Kreisangehörige_Gemeinde"},"district":{"key":"08136","name":"Ostalbkreis","type":"Landkreis"},"federalState":{"key":"08","name":"Baden-Württemberg"}},{"name":"Starenweg","postalCode":"78078","locality":"Niedereschach","municipality":{"key":"08326041","name":"Niedereschach","type":"Kreisangehörige_Gemeinde"},"district":{"key":"08326","name":"Schwarzwald-Baar-Kreis","type":"Landkreis"},"federalState":{"key":"08","name":"Baden-Württemberg"}},{"name":"Steigäcker","postalCode":"73569","locality":"Eschach","municipality":{"key":"08136020","name":"Eschach","type":"Kreisangehörige_Gemeinde"},"district":{"key":"08136","name":"Ostalbkreis","type":"Landkreis"},"federalState":{"key":"08","name":"Baden-Württemberg"}},{"name":"Steigäcker","postalCode":"78078","locality":"Niedereschach","municipality":{"key":"08326041","name":"Niedereschach","type":"Kreisangehörige_Gemeinde"},"district":{"key":"08326","name":"Schwarzwald-Baar-Kreis","type":"Landkreis"},"federalState":{"key":"08","name":"Baden-Württemberg"}},{"name":"Steigäckerstr.","postalCode":"73569","locality":"Eschach","municipality":{"key":"08136020","name":"Eschach","type":"Kreisangehörige_Gemeinde"},"district":{"key":"08136","name":"Ostalbkreis","type":"Landkreis"},"federalState":{"key":"08","name":"Baden-Württemberg"}},{"name":"Steigstr.","postalCode":"78078","locality":"Niedereschach","municipality":{"key":"08326041","name":"Niedereschach","type":"Kreisangehörige_Gemeinde"},"district":{"key":"08326","name":"Schwarzwald-Baar-Kreis","type":"Landkreis"},"federalState":{"key":"08","name":"Baden-Württemberg"}},{"name":"Stiegelegasse","postalCode":"78078","locality":"Niedereschach","municipality":{"key":"08326041","name":"Niedereschach","type":"Kreisangehörige_Gemeinde"},"district":{"key":"08326","name":"Schwarzwald-Baar-Kreis","type":"Landkreis"},"federalState":{"key":"08","name":"Baden-Württemberg"}},{"name":"Sudetenstr.","postalCode":"73569","locality":"Eschach","municipality":{"key":"08136020","name":"Eschach","type":"Kreisangehörige_Gemeinde"},"district":{"key":"08136","name":"Ostalbkreis","type":"Landkreis"},"federalState":{"key":"08","name":"Baden-Württemberg"}},{"name":"Tann","postalCode":"73569","locality":"Eschach","municipality":{"key":"08136020","name":"Eschach","type":"Kreisangehörige_Gemeinde"},"district":{"key":"08136","name":"Ostalbkreis","type":"Landkreis"},"federalState":{"key":"08","name":"Baden-Württemberg"}},{"name":"Tannenstr.","postalCode":"78078","locality":"Niedereschach","municipality":{"key":"08326041","name":"Niedereschach","type":"Kreisangehörige_Gemeinde"},"district":{"key":"08326","name":"Schwarzwald-Baar-Kreis","type":"Landkreis"},"federalState":{"key":"08","name":"Baden-Württemberg"}},{"name":"Tannweg","postalCode":"73569","locality":"Eschach","municipality":{"key":"08136020","name":"Eschach","type":"Kreisangehörige_Gemeinde"},"district":{"key":"08136","name":"Ostalbkreis","type":"Landkreis"},"federalState":{"key":"08","name":"Baden-Württemberg"}},{"name":"Tummelhalde","postalCode":"78078","locality":"Niedereschach","municipality":{"key":"08326041","name":"Niedereschach","type":"Kreisangehörige_Gemeinde"},"district":{"key":"08326","name":"Schwarzwald-Baar-Kreis","type":"Landkreis"},"federalState":{"key":"08","name":"Baden-Württemberg"}},{"name":"Ulrichsweg","postalCode":"78078","locality":"Niedereschach","municipality":{"key":"08326041","name":"Niedereschach","type":"Kreisangehörige_Gemeinde"},"district":{"key":"08326","name":"Schwarzwald-Baar-Kreis","type":"Landkreis"},"federalState":{"key":"08","name":"Baden-Württemberg"}},{"name":"Untere-Lehr-Str.","postalCode":"78078","locality":"Niedereschach","municipality":{"key":"08326041","name":"Niedereschach","type":"Kreisangehörige_Gemeinde"},"district":{"key":"08326","name":"Schwarzwald-Baar-Kreis","type":"Landkreis"},"federalState":{"key":"08","name":"Baden-Württemberg"}},{"name":"Untergasse","postalCode":"73569","locality":"Eschach","municipality":{"key":"08136020","name":"Eschach","type":"Kreisangehörige_Gemeinde"},"district":{"key":"08136","name":"Ostalbkreis","type":"Landkreis"},"federalState":{"key":"08","name":"Baden-Württemberg"}},{"name":"Unterm Herrschaftswald","postalCode":"78078","locality":"Niedereschach","municipality":{"key":"08326041","name":"Niedereschach","type":"Kreisangehörige_Gemeinde"},"district":{"key":"08326","name":"Schwarzwald-Baar-Kreis","type":"Landkreis"},"federalState":{"key":"08","name":"Baden-Württemberg"}},{"name":"Uschbachweg","postalCode":"73569","locality":"Eschach","municipality":{"key":"08136020","name":"Eschach","type":"Kreisangehörige_Gemeinde"},"district":{"key":"08136","name":"Ostalbkreis","type":"Landkreis"},"federalState":{"key":"08","name":"Baden-Württemberg"}},{"name":"Vellbach","postalCode":"73569","locality":"Eschach","municipality":{"key":"08136020","name":"Eschach","type":"Kreisangehörige_Gemeinde"},"district":{"key":"08136","name":"Ostalbkreis","type":"Landkreis"},"federalState":{"key":"08","name":"Baden-Württemberg"}},{"name":"Villinger Str.","postalCode":"78078","locality":"Niedereschach","municipality":{"key":"08326041","name":"Niedereschach","type":"Kreisangehörige_Gemeinde"},"district":{"key":"08326","name":"Schwarzwald-Baar-Kreis","type":"Landkreis"},"federalState":{"key":"08","name":"Baden-Württemberg"}},{"name":"Vogelsangstr.","postalCode":"73569","locality":"Eschach","municipality":{"key":"08136020","name":"Eschach","type":"Kreisangehörige_Gemeinde"},"district":{"key":"08136","name":"Ostalbkreis","type":"Landkreis"},"federalState":{"key":"08","name":"Baden-Württemberg"}},{"name":"Vordere Gasse","postalCode":"73569","locality":"Eschach","municipality":{"key":"08136020","name":"Eschach","type":"Kreisangehörige_Gemeinde"},"district":{"key":"08136","name":"Ostalbkreis","type":"Landkreis"},"federalState":{"key":"08","name":"Baden-Württemberg"}},{"name":"Waldmannshofen","postalCode":"73569","locality":"Eschach","municipality":{"key":"08136020","name":"Eschach","type":"Kreisangehörige_Gemeinde"},"district":{"key":"08136","name":"Ostalbkreis","type":"Landkreis"},"federalState":{"key":"08","name":"Baden-Württemberg"}},{"name":"Waldweg","postalCode":"78078","locality":"Niedereschach","municipality":{"key":"08326041","name":"Niedereschach","type":"Kreisangehörige_Gemeinde"},"district":{"key":"08326","name":"Schwarzwald-Baar-Kreis","type":"Landkreis"},"federalState":{"key":"08","name":"Baden-Württemberg"}},{"name":"Weileräcker","postalCode":"78078","locality":"Niedereschach","municipality":{"key":"08326041","name":"Niedereschach","type":"Kreisangehörige_Gemeinde"},"district":{"key":"08326","name":"Schwarzwald-Baar-Kreis","type":"Landkreis"},"federalState":{"key":"08","name":"Baden-Württemberg"}},{"name":"Weinwiesenweg","postalCode":"73569","locality":"Eschach","municipality":{"key":"08136020","name":"Eschach","type":"Kreisangehörige_Gemeinde"},"district":{"key":"08136","name":"Ostalbkreis","type":"Landkreis"},"federalState":{"key":"08","name":"Baden-Württemberg"}},{"name":"Wespenweg","postalCode":"78078","locality":"Niedereschach","municipality":{"key":"08326041","name":"Niedereschach","type":"Kreisangehörige_Gemeinde"},"district":{"key":"08326","name":"Schwarzwald-Baar-Kreis","type":"Landkreis"},"federalState":{"key":"08","name":"Baden-Württemberg"}},{"name":"Wiesenweg","postalCode":"78078","locality":"Niedereschach","municipality":{"key":"08326041","name":"Niedereschach","type":"Kreisangehörige_Gemeinde"},"district":{"key":"08326","name":"Schwarzwald-Baar-Kreis","type":"Landkreis"},"federalState":{"key":"08","name":"Baden-Württemberg"}},{"name":"Wilhelm-Jerger-Str.","postalCode":"78078","locality":"Niedereschach","municipality":{"key":"08326041","name":"Niedereschach","type":"Kreisangehörige_Gemeinde"},"district":{"key":"08326","name":"Schwarzwald-Baar-Kreis","type":"Landkreis"},"federalState":{"key":"08","name":"Baden-Württemberg"}},{"name":"Ziegelhütte","postalCode":"73569","locality":"Eschach","municipality":{"key":"08136020","name":"Eschach","type":"Kreisangehörige_Gemeinde"},"district":{"key":"08136","name":"Ostalbkreis","type":"Landkreis"},"federalState":{"key":"08","name":"Baden-Württemberg"}},{"name":"Ziegelhüttenweg","postalCode":"73569","locality":"Eschach","municipality":{"key":"08136020","name":"Eschach","type":"Kreisangehörige_Gemeinde"},"district":{"key":"08136","name":"Ostalbkreis","type":"Landkreis"},"federalState":{"key":"08","name":"Baden-Württemberg"}},{"name":"Zwischen den Wegen","postalCode":"78078","locality":"Niedereschach","municipality":{"key":"08326041","name":"Niedereschach","type":"Kreisangehörige_Gemeinde"},"district":{"key":"08326","name":"Schwarzwald-Baar-Kreis","type":"Landkreis"},"federalState":{"key":"08","name":"Baden-Württemberg"}},{"name":"Öschlestr.","postalCode":"78078","locality":"Niedereschach","municipality":{"key":"08326041","name":"Niedereschach","type":"Kreisangehörige_Gemeinde"},"district":{"key":"08326","name":"Schwarzwald-Baar-Kreis","type":"Landkreis"},"federalState":{"key":"08","name":"Baden-Württemberg"}},]