[{"name":"Am Breitling","postalCode":"23999","locality":"Insel Poel","municipality":{"key":"13074035","name":"Insel Poel, Ostseebad","type":"Kreisangehörige_Gemeinde"},"district":{"key":"13074","name":"Nordwestmecklenburg","type":"Landkreis"},"federalState":{"key":"13","name":"Mecklenburg-Vorpommern"}},{"name":"Am Fährdorfer Berg","postalCode":"23999","locality":"Insel Poel","municipality":{"key":"13074035","name":"Insel Poel, Ostseebad","type":"Kreisangehörige_Gemeinde"},"district":{"key":"13074","name":"Nordwestmecklenburg","type":"Landkreis"},"federalState":{"key":"13","name":"Mecklenburg-Vorpommern"}},{"name":"Am Gutshof","postalCode":"23999","locality":"Insel Poel","municipality":{"key":"13074035","name":"Insel Poel, Ostseebad","type":"Kreisangehörige_Gemeinde"},"district":{"key":"13074","name":"Nordwestmecklenburg","type":"Landkreis"},"federalState":{"key":"13","name":"Mecklenburg-Vorpommern"}},{"name":"Am Kirchturmblick","postalCode":"23999","locality":"Insel Poel","municipality":{"key":"13074035","name":"Insel Poel, Ostseebad","type":"Kreisangehörige_Gemeinde"},"district":{"key":"13074","name":"Nordwestmecklenburg","type":"Landkreis"},"federalState":{"key":"13","name":"Mecklenburg-Vorpommern"}},{"name":"Am Markt","postalCode":"23999","locality":"Insel Poel","municipality":{"key":"13074035","name":"Insel Poel, Ostseebad","type":"Kreisangehörige_Gemeinde"},"district":{"key":"13074","name":"Nordwestmecklenburg","type":"Landkreis"},"federalState":{"key":"13","name":"Mecklenburg-Vorpommern"}},{"name":"Am Schwarzen Busch","postalCode":"23999","locality":"Insel Poel","municipality":{"key":"13074035","name":"Insel Poel, Ostseebad","type":"Kreisangehörige_Gemeinde"},"district":{"key":"13074","name":"Nordwestmecklenburg","type":"Landkreis"},"federalState":{"key":"13","name":"Mecklenburg-Vorpommern"}},{"name":"An den Salzwiesen","postalCode":"23999","locality":"Insel Poel","municipality":{"key":"13074035","name":"Insel Poel, Ostseebad","type":"Kreisangehörige_Gemeinde"},"district":{"key":"13074","name":"Nordwestmecklenburg","type":"Landkreis"},"federalState":{"key":"13","name":"Mecklenburg-Vorpommern"}},{"name":"An Haben","postalCode":"23999","locality":"Insel Poel","municipality":{"key":"13074035","name":"Insel Poel, Ostseebad","type":"Kreisangehörige_Gemeinde"},"district":{"key":"13074","name":"Nordwestmecklenburg","type":"Landkreis"},"federalState":{"key":"13","name":"Mecklenburg-Vorpommern"}},{"name":"Ausbau","postalCode":"23999","locality":"Insel Poel","municipality":{"key":"13074035","name":"Insel Poel, Ostseebad","type":"Kreisangehörige_Gemeinde"},"district":{"key":"13074","name":"Nordwestmecklenburg","type":"Landkreis"},"federalState":{"key":"13","name":"Mecklenburg-Vorpommern"}},{"name":"Bernsteinweg","postalCode":"23999","locality":"Insel Poel","municipality":{"key":"13074035","name":"Insel Poel, Ostseebad","type":"Kreisangehörige_Gemeinde"},"district":{"key":"13074","name":"Nordwestmecklenburg","type":"Landkreis"},"federalState":{"key":"13","name":"Mecklenburg-Vorpommern"}},{"name":"Birkenweg","postalCode":"23999","locality":"Insel Poel","municipality":{"key":"13074035","name":"Insel Poel, Ostseebad","type":"Kreisangehörige_Gemeinde"},"district":{"key":"13074","name":"Nordwestmecklenburg","type":"Landkreis"},"federalState":{"key":"13","name":"Mecklenburg-Vorpommern"}},{"name":"Brandenhusen","postalCode":"23999","locality":"Insel Poel","municipality":{"key":"13074035","name":"Insel Poel, Ostseebad","type":"Kreisangehörige_Gemeinde"},"district":{"key":"13074","name":"Nordwestmecklenburg","type":"Landkreis"},"federalState":{"key":"13","name":"Mecklenburg-Vorpommern"}},{"name":"Brunnenstr.","postalCode":"23999","locality":"Insel Poel","municipality":{"key":"13074035","name":"Insel Poel, Ostseebad","type":"Kreisangehörige_Gemeinde"},"district":{"key":"13074","name":"Nordwestmecklenburg","type":"Landkreis"},"federalState":{"key":"13","name":"Mecklenburg-Vorpommern"}},{"name":"Buchenweg","postalCode":"23999","locality":"Insel Poel","municipality":{"key":"13074035","name":"Insel Poel, Ostseebad","type":"Kreisangehörige_Gemeinde"},"district":{"key":"13074","name":"Nordwestmecklenburg","type":"Landkreis"},"federalState":{"key":"13","name":"Mecklenburg-Vorpommern"}},{"name":"Ernst-Thälmann-Str.","postalCode":"23999","locality":"Insel Poel","municipality":{"key":"13074035","name":"Insel Poel, Ostseebad","type":"Kreisangehörige_Gemeinde"},"district":{"key":"13074","name":"Nordwestmecklenburg","type":"Landkreis"},"federalState":{"key":"13","name":"Mecklenburg-Vorpommern"}},{"name":"Fährdorf-Ausbau","postalCode":"23999","locality":"Insel Poel","municipality":{"key":"13074035","name":"Insel Poel, Ostseebad","type":"Kreisangehörige_Gemeinde"},"district":{"key":"13074","name":"Nordwestmecklenburg","type":"Landkreis"},"federalState":{"key":"13","name":"Mecklenburg-Vorpommern"}},{"name":"Fährdorf-Dorf","postalCode":"23999","locality":"Insel Poel","municipality":{"key":"13074035","name":"Insel Poel, Ostseebad","type":"Kreisangehörige_Gemeinde"},"district":{"key":"13074","name":"Nordwestmecklenburg","type":"Landkreis"},"federalState":{"key":"13","name":"Mecklenburg-Vorpommern"}},{"name":"Fährdorf-Hof","postalCode":"23999","locality":"Insel Poel","municipality":{"key":"13074035","name":"Insel Poel, Ostseebad","type":"Kreisangehörige_Gemeinde"},"district":{"key":"13074","name":"Nordwestmecklenburg","type":"Landkreis"},"federalState":{"key":"13","name":"Mecklenburg-Vorpommern"}},{"name":"Feldstr.","postalCode":"23999","locality":"Insel Poel","municipality":{"key":"13074035","name":"Insel Poel, Ostseebad","type":"Kreisangehörige_Gemeinde"},"district":{"key":"13074","name":"Nordwestmecklenburg","type":"Landkreis"},"federalState":{"key":"13","name":"Mecklenburg-Vorpommern"}},{"name":"Finkenweg","postalCode":"23999","locality":"Insel Poel","municipality":{"key":"13074035","name":"Insel Poel, Ostseebad","type":"Kreisangehörige_Gemeinde"},"district":{"key":"13074","name":"Nordwestmecklenburg","type":"Landkreis"},"federalState":{"key":"13","name":"Mecklenburg-Vorpommern"}},{"name":"Fischerstieg","postalCode":"23999","locality":"Insel Poel","municipality":{"key":"13074035","name":"Insel Poel, Ostseebad","type":"Kreisangehörige_Gemeinde"},"district":{"key":"13074","name":"Nordwestmecklenburg","type":"Landkreis"},"federalState":{"key":"13","name":"Mecklenburg-Vorpommern"}},{"name":"Fischerstr.","postalCode":"23999","locality":"Insel Poel","municipality":{"key":"13074035","name":"Insel Poel, Ostseebad","type":"Kreisangehörige_Gemeinde"},"district":{"key":"13074","name":"Nordwestmecklenburg","type":"Landkreis"},"federalState":{"key":"13","name":"Mecklenburg-Vorpommern"}},{"name":"Gollwitz","postalCode":"23999","locality":"Insel Poel","municipality":{"key":"13074035","name":"Insel Poel, Ostseebad","type":"Kreisangehörige_Gemeinde"},"district":{"key":"13074","name":"Nordwestmecklenburg","type":"Landkreis"},"federalState":{"key":"13","name":"Mecklenburg-Vorpommern"}},{"name":"Hackelberg","postalCode":"23999","locality":"Insel Poel","municipality":{"key":"13074035","name":"Insel Poel, Ostseebad","type":"Kreisangehörige_Gemeinde"},"district":{"key":"13074","name":"Nordwestmecklenburg","type":"Landkreis"},"federalState":{"key":"13","name":"Mecklenburg-Vorpommern"}},{"name":"Halandhof","postalCode":"23999","locality":"Insel Poel","municipality":{"key":"13074035","name":"Insel Poel, Ostseebad","type":"Kreisangehörige_Gemeinde"},"district":{"key":"13074","name":"Nordwestmecklenburg","type":"Landkreis"},"federalState":{"key":"13","name":"Mecklenburg-Vorpommern"}},{"name":"Hinterstr.","postalCode":"23999","locality":"Insel Poel","municipality":{"key":"13074035","name":"Insel Poel, Ostseebad","type":"Kreisangehörige_Gemeinde"},"district":{"key":"13074","name":"Nordwestmecklenburg","type":"Landkreis"},"federalState":{"key":"13","name":"Mecklenburg-Vorpommern"}},{"name":"Inselstr.","postalCode":"23999","locality":"Insel Poel","municipality":{"key":"13074035","name":"Insel Poel, Ostseebad","type":"Kreisangehörige_Gemeinde"},"district":{"key":"13074","name":"Nordwestmecklenburg","type":"Landkreis"},"federalState":{"key":"13","name":"Mecklenburg-Vorpommern"}},{"name":"Kaltenhöfer Weg","postalCode":"23999","locality":"Insel Poel","municipality":{"key":"13074035","name":"Insel Poel, Ostseebad","type":"Kreisangehörige_Gemeinde"},"district":{"key":"13074","name":"Nordwestmecklenburg","type":"Landkreis"},"federalState":{"key":"13","name":"Mecklenburg-Vorpommern"}},{"name":"Kieckelbergstr.","postalCode":"23999","locality":"Insel Poel","municipality":{"key":"13074035","name":"Insel Poel, Ostseebad","type":"Kreisangehörige_Gemeinde"},"district":{"key":"13074","name":"Nordwestmecklenburg","type":"Landkreis"},"federalState":{"key":"13","name":"Mecklenburg-Vorpommern"}},{"name":"Krabbenweg","postalCode":"23999","locality":"Insel Poel","municipality":{"key":"13074035","name":"Insel Poel, Ostseebad","type":"Kreisangehörige_Gemeinde"},"district":{"key":"13074","name":"Nordwestmecklenburg","type":"Landkreis"},"federalState":{"key":"13","name":"Mecklenburg-Vorpommern"}},{"name":"Kurze Str.","postalCode":"23999","locality":"Insel Poel","municipality":{"key":"13074035","name":"Insel Poel, Ostseebad","type":"Kreisangehörige_Gemeinde"},"district":{"key":"13074","name":"Nordwestmecklenburg","type":"Landkreis"},"federalState":{"key":"13","name":"Mecklenburg-Vorpommern"}},{"name":"Lindenweg","postalCode":"23999","locality":"Insel Poel","municipality":{"key":"13074035","name":"Insel Poel, Ostseebad","type":"Kreisangehörige_Gemeinde"},"district":{"key":"13074","name":"Nordwestmecklenburg","type":"Landkreis"},"federalState":{"key":"13","name":"Mecklenburg-Vorpommern"}},{"name":"Lotsenstieg","postalCode":"23999","locality":"Insel Poel","municipality":{"key":"13074035","name":"Insel Poel, Ostseebad","type":"Kreisangehörige_Gemeinde"},"district":{"key":"13074","name":"Nordwestmecklenburg","type":"Landkreis"},"federalState":{"key":"13","name":"Mecklenburg-Vorpommern"}},{"name":"Mittelstr.","postalCode":"23999","locality":"Insel Poel","municipality":{"key":"13074035","name":"Insel Poel, Ostseebad","type":"Kreisangehörige_Gemeinde"},"district":{"key":"13074","name":"Nordwestmecklenburg","type":"Landkreis"},"federalState":{"key":"13","name":"Mecklenburg-Vorpommern"}},{"name":"Möwenweg","postalCode":"23999","locality":"Insel Poel","municipality":{"key":"13074035","name":"Insel Poel, Ostseebad","type":"Kreisangehörige_Gemeinde"},"district":{"key":"13074","name":"Nordwestmecklenburg","type":"Landkreis"},"federalState":{"key":"13","name":"Mecklenburg-Vorpommern"}},{"name":"Nah'n Kliff","postalCode":"23999","locality":"Insel Poel","municipality":{"key":"13074035","name":"Insel Poel, Ostseebad","type":"Kreisangehörige_Gemeinde"},"district":{"key":"13074","name":"Nordwestmecklenburg","type":"Landkreis"},"federalState":{"key":"13","name":"Mecklenburg-Vorpommern"}},{"name":"Neue Str.","postalCode":"23999","locality":"Insel Poel","municipality":{"key":"13074035","name":"Insel Poel, Ostseebad","type":"Kreisangehörige_Gemeinde"},"district":{"key":"13074","name":"Nordwestmecklenburg","type":"Landkreis"},"federalState":{"key":"13","name":"Mecklenburg-Vorpommern"}},{"name":"Neuhof","postalCode":"23999","locality":"Insel Poel","municipality":{"key":"13074035","name":"Insel Poel, Ostseebad","type":"Kreisangehörige_Gemeinde"},"district":{"key":"13074","name":"Nordwestmecklenburg","type":"Landkreis"},"federalState":{"key":"13","name":"Mecklenburg-Vorpommern"}},{"name":"Niendorf","postalCode":"23999","locality":"Insel Poel","municipality":{"key":"13074035","name":"Insel Poel, Ostseebad","type":"Kreisangehörige_Gemeinde"},"district":{"key":"13074","name":"Nordwestmecklenburg","type":"Landkreis"},"federalState":{"key":"13","name":"Mecklenburg-Vorpommern"}},{"name":"Oertzenhof","postalCode":"23999","locality":"Insel Poel","municipality":{"key":"13074035","name":"Insel Poel, Ostseebad","type":"Kreisangehörige_Gemeinde"},"district":{"key":"13074","name":"Nordwestmecklenburg","type":"Landkreis"},"federalState":{"key":"13","name":"Mecklenburg-Vorpommern"}},{"name":"Poststr.","postalCode":"23999","locality":"Insel Poel","municipality":{"key":"13074035","name":"Insel Poel, Ostseebad","type":"Kreisangehörige_Gemeinde"},"district":{"key":"13074","name":"Nordwestmecklenburg","type":"Landkreis"},"federalState":{"key":"13","name":"Mecklenburg-Vorpommern"}},{"name":"Promenade","postalCode":"23999","locality":"Insel Poel","municipality":{"key":"13074035","name":"Insel Poel, Ostseebad","type":"Kreisangehörige_Gemeinde"},"district":{"key":"13074","name":"Nordwestmecklenburg","type":"Landkreis"},"federalState":{"key":"13","name":"Mecklenburg-Vorpommern"}},{"name":"Reiterring","postalCode":"23999","locality":"Insel Poel","municipality":{"key":"13074035","name":"Insel Poel, Ostseebad","type":"Kreisangehörige_Gemeinde"},"district":{"key":"13074","name":"Nordwestmecklenburg","type":"Landkreis"},"federalState":{"key":"13","name":"Mecklenburg-Vorpommern"}},{"name":"Reuterhöhe","postalCode":"23999","locality":"Insel Poel","municipality":{"key":"13074035","name":"Insel Poel, Ostseebad","type":"Kreisangehörige_Gemeinde"},"district":{"key":"13074","name":"Nordwestmecklenburg","type":"Landkreis"},"federalState":{"key":"13","name":"Mecklenburg-Vorpommern"}},{"name":"Rüsenstieg","postalCode":"23999","locality":"Insel Poel","municipality":{"key":"13074035","name":"Insel Poel, Ostseebad","type":"Kreisangehörige_Gemeinde"},"district":{"key":"13074","name":"Nordwestmecklenburg","type":"Landkreis"},"federalState":{"key":"13","name":"Mecklenburg-Vorpommern"}},{"name":"Schulstr.","postalCode":"23999","locality":"Insel Poel","municipality":{"key":"13074035","name":"Insel Poel, Ostseebad","type":"Kreisangehörige_Gemeinde"},"district":{"key":"13074","name":"Nordwestmecklenburg","type":"Landkreis"},"federalState":{"key":"13","name":"Mecklenburg-Vorpommern"}},{"name":"Schwarzer Busch Ausbau","postalCode":"23999","locality":"Insel Poel","municipality":{"key":"13074035","name":"Insel Poel, Ostseebad","type":"Kreisangehörige_Gemeinde"},"district":{"key":"13074","name":"Nordwestmecklenburg","type":"Landkreis"},"federalState":{"key":"13","name":"Mecklenburg-Vorpommern"}},{"name":"Seedorf","postalCode":"23999","locality":"Insel Poel","municipality":{"key":"13074035","name":"Insel Poel, Ostseebad","type":"Kreisangehörige_Gemeinde"},"district":{"key":"13074","name":"Nordwestmecklenburg","type":"Landkreis"},"federalState":{"key":"13","name":"Mecklenburg-Vorpommern"}},{"name":"Seestr.","postalCode":"23999","locality":"Insel Poel","municipality":{"key":"13074035","name":"Insel Poel, Ostseebad","type":"Kreisangehörige_Gemeinde"},"district":{"key":"13074","name":"Nordwestmecklenburg","type":"Landkreis"},"federalState":{"key":"13","name":"Mecklenburg-Vorpommern"}},{"name":"Sonnenweg","postalCode":"23999","locality":"Insel Poel","municipality":{"key":"13074035","name":"Insel Poel, Ostseebad","type":"Kreisangehörige_Gemeinde"},"district":{"key":"13074","name":"Nordwestmecklenburg","type":"Landkreis"},"federalState":{"key":"13","name":"Mecklenburg-Vorpommern"}},{"name":"Strandstr.","postalCode":"23999","locality":"Insel Poel","municipality":{"key":"13074035","name":"Insel Poel, Ostseebad","type":"Kreisangehörige_Gemeinde"},"district":{"key":"13074","name":"Nordwestmecklenburg","type":"Landkreis"},"federalState":{"key":"13","name":"Mecklenburg-Vorpommern"}},{"name":"Str. der Jugend","postalCode":"23999","locality":"Insel Poel","municipality":{"key":"13074035","name":"Insel Poel, Ostseebad","type":"Kreisangehörige_Gemeinde"},"district":{"key":"13074","name":"Nordwestmecklenburg","type":"Landkreis"},"federalState":{"key":"13","name":"Mecklenburg-Vorpommern"}},{"name":"Tau'n Lüchttorm","postalCode":"23999","locality":"Insel Poel","municipality":{"key":"13074035","name":"Insel Poel, Ostseebad","type":"Kreisangehörige_Gemeinde"},"district":{"key":"13074","name":"Nordwestmecklenburg","type":"Landkreis"},"federalState":{"key":"13","name":"Mecklenburg-Vorpommern"}},{"name":"Timmendorf","postalCode":"23999","locality":"Insel Poel","municipality":{"key":"13074035","name":"Insel Poel, Ostseebad","type":"Kreisangehörige_Gemeinde"},"district":{"key":"13074","name":"Nordwestmecklenburg","type":"Landkreis"},"federalState":{"key":"13","name":"Mecklenburg-Vorpommern"}},{"name":"Verbindungsstr.","postalCode":"23999","locality":"Insel Poel","municipality":{"key":"13074035","name":"Insel Poel, Ostseebad","type":"Kreisangehörige_Gemeinde"},"district":{"key":"13074","name":"Nordwestmecklenburg","type":"Landkreis"},"federalState":{"key":"13","name":"Mecklenburg-Vorpommern"}},{"name":"Vorwerk","postalCode":"23999","locality":"Insel Poel","municipality":{"key":"13074035","name":"Insel Poel, Ostseebad","type":"Kreisangehörige_Gemeinde"},"district":{"key":"13074","name":"Nordwestmecklenburg","type":"Landkreis"},"federalState":{"key":"13","name":"Mecklenburg-Vorpommern"}},{"name":"Wangern","postalCode":"23999","locality":"Insel Poel","municipality":{"key":"13074035","name":"Insel Poel, Ostseebad","type":"Kreisangehörige_Gemeinde"},"district":{"key":"13074","name":"Nordwestmecklenburg","type":"Landkreis"},"federalState":{"key":"13","name":"Mecklenburg-Vorpommern"}},{"name":"Weitendorf Hof","postalCode":"23999","locality":"Insel Poel","municipality":{"key":"13074035","name":"Insel Poel, Ostseebad","type":"Kreisangehörige_Gemeinde"},"district":{"key":"13074","name":"Nordwestmecklenburg","type":"Landkreis"},"federalState":{"key":"13","name":"Mecklenburg-Vorpommern"}},{"name":"Wismarsche Str.","postalCode":"23999","locality":"Insel Poel","municipality":{"key":"13074035","name":"Insel Poel, Ostseebad","type":"Kreisangehörige_Gemeinde"},"district":{"key":"13074","name":"Nordwestmecklenburg","type":"Landkreis"},"federalState":{"key":"13","name":"Mecklenburg-Vorpommern"}},{"name":"Zum Reetmoor","postalCode":"23999","locality":"Insel Poel","municipality":{"key":"13074035","name":"Insel Poel, Ostseebad","type":"Kreisangehörige_Gemeinde"},"district":{"key":"13074","name":"Nordwestmecklenburg","type":"Landkreis"},"federalState":{"key":"13","name":"Mecklenburg-Vorpommern"}},]