[{"name":"Adalbert-Stifter-Str.","postalCode":"84371","locality":"Triftern","municipality":{"key":"09277149","name":"Triftern, M","type":"Markt"},"district":{"key":"09277","name":"Rottal-Inn","type":"Landkreis"},"federalState":{"key":"09","name":"Bayern"}},{"name":"Ahornstr.","postalCode":"84371","locality":"Triftern","municipality":{"key":"09277149","name":"Triftern, M","type":"Markt"},"district":{"key":"09277","name":"Rottal-Inn","type":"Landkreis"},"federalState":{"key":"09","name":"Bayern"}},{"name":"Akazienweg","postalCode":"84371","locality":"Triftern","municipality":{"key":"09277149","name":"Triftern, M","type":"Markt"},"district":{"key":"09277","name":"Rottal-Inn","type":"Landkreis"},"federalState":{"key":"09","name":"Bayern"}},{"name":"Altbachstr.","postalCode":"84371","locality":"Triftern","municipality":{"key":"09277149","name":"Triftern, M","type":"Markt"},"district":{"key":"09277","name":"Rottal-Inn","type":"Landkreis"},"federalState":{"key":"09","name":"Bayern"}},{"name":"Am Bachrain","postalCode":"84371","locality":"Triftern","municipality":{"key":"09277149","name":"Triftern, M","type":"Markt"},"district":{"key":"09277","name":"Rottal-Inn","type":"Landkreis"},"federalState":{"key":"09","name":"Bayern"}},{"name":"Am Dornlandl","postalCode":"84371","locality":"Triftern","municipality":{"key":"09277149","name":"Triftern, M","type":"Markt"},"district":{"key":"09277","name":"Rottal-Inn","type":"Landkreis"},"federalState":{"key":"09","name":"Bayern"}},{"name":"Am Haiderholz","postalCode":"84371","locality":"Triftern","municipality":{"key":"09277149","name":"Triftern, M","type":"Markt"},"district":{"key":"09277","name":"Rottal-Inn","type":"Landkreis"},"federalState":{"key":"09","name":"Bayern"}},{"name":"Apianring","postalCode":"84371","locality":"Triftern","municipality":{"key":"09277149","name":"Triftern, M","type":"Markt"},"district":{"key":"09277","name":"Rottal-Inn","type":"Landkreis"},"federalState":{"key":"09","name":"Bayern"}},{"name":"Asamstr.","postalCode":"84371","locality":"Triftern","municipality":{"key":"09277149","name":"Triftern, M","type":"Markt"},"district":{"key":"09277","name":"Rottal-Inn","type":"Landkreis"},"federalState":{"key":"09","name":"Bayern"}},{"name":"Aventinusstr.","postalCode":"84371","locality":"Triftern","municipality":{"key":"09277149","name":"Triftern, M","type":"Markt"},"district":{"key":"09277","name":"Rottal-Inn","type":"Landkreis"},"federalState":{"key":"09","name":"Bayern"}},{"name":"Bachstr.","postalCode":"84371","locality":"Triftern","municipality":{"key":"09277149","name":"Triftern, M","type":"Markt"},"district":{"key":"09277","name":"Rottal-Inn","type":"Landkreis"},"federalState":{"key":"09","name":"Bayern"}},{"name":"Bajuwarenring","postalCode":"84371","locality":"Triftern","municipality":{"key":"09277149","name":"Triftern, M","type":"Markt"},"district":{"key":"09277","name":"Rottal-Inn","type":"Landkreis"},"federalState":{"key":"09","name":"Bayern"}},{"name":"Berglandstr.","postalCode":"84371","locality":"Triftern","municipality":{"key":"09277149","name":"Triftern, M","type":"Markt"},"district":{"key":"09277","name":"Rottal-Inn","type":"Landkreis"},"federalState":{"key":"09","name":"Bayern"}},{"name":"Bergring","postalCode":"84371","locality":"Triftern","municipality":{"key":"09277149","name":"Triftern, M","type":"Markt"},"district":{"key":"09277","name":"Rottal-Inn","type":"Landkreis"},"federalState":{"key":"09","name":"Bayern"}},{"name":"Bergstr.","postalCode":"84371","locality":"Triftern","municipality":{"key":"09277149","name":"Triftern, M","type":"Markt"},"district":{"key":"09277","name":"Rottal-Inn","type":"Landkreis"},"federalState":{"key":"09","name":"Bayern"}},{"name":"Berndlberg","postalCode":"84371","locality":"Triftern","municipality":{"key":"09277149","name":"Triftern, M","type":"Markt"},"district":{"key":"09277","name":"Rottal-Inn","type":"Landkreis"},"federalState":{"key":"09","name":"Bayern"}},{"name":"Birkenstr.","postalCode":"84371","locality":"Triftern","municipality":{"key":"09277149","name":"Triftern, M","type":"Markt"},"district":{"key":"09277","name":"Rottal-Inn","type":"Landkreis"},"federalState":{"key":"09","name":"Bayern"}},{"name":"Blumenstr.","postalCode":"84371","locality":"Triftern","municipality":{"key":"09277149","name":"Triftern, M","type":"Markt"},"district":{"key":"09277","name":"Rottal-Inn","type":"Landkreis"},"federalState":{"key":"09","name":"Bayern"}},{"name":"Braunauer Str.","postalCode":"84371","locality":"Triftern","municipality":{"key":"09277149","name":"Triftern, M","type":"Markt"},"district":{"key":"09277","name":"Rottal-Inn","type":"Landkreis"},"federalState":{"key":"09","name":"Bayern"}},{"name":"Brückenstr.","postalCode":"84371","locality":"Triftern","municipality":{"key":"09277149","name":"Triftern, M","type":"Markt"},"district":{"key":"09277","name":"Rottal-Inn","type":"Landkreis"},"federalState":{"key":"09","name":"Bayern"}},{"name":"Brunnederstr.","postalCode":"84371","locality":"Triftern","municipality":{"key":"09277149","name":"Triftern, M","type":"Markt"},"district":{"key":"09277","name":"Rottal-Inn","type":"Landkreis"},"federalState":{"key":"09","name":"Bayern"}},{"name":"Brunnenstr.","postalCode":"84371","locality":"Triftern","municipality":{"key":"09277149","name":"Triftern, M","type":"Markt"},"district":{"key":"09277","name":"Rottal-Inn","type":"Landkreis"},"federalState":{"key":"09","name":"Bayern"}},{"name":"Brunning Str.","postalCode":"84371","locality":"Triftern","municipality":{"key":"09277149","name":"Triftern, M","type":"Markt"},"district":{"key":"09277","name":"Rottal-Inn","type":"Landkreis"},"federalState":{"key":"09","name":"Bayern"}},{"name":"Buchenweg","postalCode":"84371","locality":"Triftern","municipality":{"key":"09277149","name":"Triftern, M","type":"Markt"},"district":{"key":"09277","name":"Rottal-Inn","type":"Landkreis"},"federalState":{"key":"09","name":"Bayern"}},{"name":"Dorfstr.","postalCode":"84371","locality":"Triftern","municipality":{"key":"09277149","name":"Triftern, M","type":"Markt"},"district":{"key":"09277","name":"Rottal-Inn","type":"Landkreis"},"federalState":{"key":"09","name":"Bayern"}},{"name":"Dr-Austel-Str.","postalCode":"84371","locality":"Triftern","municipality":{"key":"09277149","name":"Triftern, M","type":"Markt"},"district":{"key":"09277","name":"Rottal-Inn","type":"Landkreis"},"federalState":{"key":"09","name":"Bayern"}},{"name":"Dreiwegeland","postalCode":"84371","locality":"Triftern","municipality":{"key":"09277149","name":"Triftern, M","type":"Markt"},"district":{"key":"09277","name":"Rottal-Inn","type":"Landkreis"},"federalState":{"key":"09","name":"Bayern"}},{"name":"Erlenweg","postalCode":"84371","locality":"Triftern","municipality":{"key":"09277149","name":"Triftern, M","type":"Markt"},"district":{"key":"09277","name":"Rottal-Inn","type":"Landkreis"},"federalState":{"key":"09","name":"Bayern"}},{"name":"Fischerstr.","postalCode":"84371","locality":"Triftern","municipality":{"key":"09277149","name":"Triftern, M","type":"Markt"},"district":{"key":"09277","name":"Rottal-Inn","type":"Landkreis"},"federalState":{"key":"09","name":"Bayern"}},{"name":"Flurstr.","postalCode":"84371","locality":"Triftern","municipality":{"key":"09277149","name":"Triftern, M","type":"Markt"},"district":{"key":"09277","name":"Rottal-Inn","type":"Landkreis"},"federalState":{"key":"09","name":"Bayern"}},{"name":"Frühlingsstr.","postalCode":"84371","locality":"Triftern","municipality":{"key":"09277149","name":"Triftern, M","type":"Markt"},"district":{"key":"09277","name":"Rottal-Inn","type":"Landkreis"},"federalState":{"key":"09","name":"Bayern"}},{"name":"Ganghoferstr.","postalCode":"84371","locality":"Triftern","municipality":{"key":"09277149","name":"Triftern, M","type":"Markt"},"district":{"key":"09277","name":"Rottal-Inn","type":"Landkreis"},"federalState":{"key":"09","name":"Bayern"}},{"name":"Gartenstr.","postalCode":"84371","locality":"Triftern","municipality":{"key":"09277149","name":"Triftern, M","type":"Markt"},"district":{"key":"09277","name":"Rottal-Inn","type":"Landkreis"},"federalState":{"key":"09","name":"Bayern"}},{"name":"Godlshamer Str.","postalCode":"84371","locality":"Triftern","municipality":{"key":"09277149","name":"Triftern, M","type":"Markt"},"district":{"key":"09277","name":"Rottal-Inn","type":"Landkreis"},"federalState":{"key":"09","name":"Bayern"}},{"name":"Graf-Lenberger-Str.","postalCode":"84371","locality":"Triftern","municipality":{"key":"09277149","name":"Triftern, M","type":"Markt"},"district":{"key":"09277","name":"Rottal-Inn","type":"Landkreis"},"federalState":{"key":"09","name":"Bayern"}},{"name":"Haiderweg","postalCode":"84371","locality":"Triftern","municipality":{"key":"09277149","name":"Triftern, M","type":"Markt"},"district":{"key":"09277","name":"Rottal-Inn","type":"Landkreis"},"federalState":{"key":"09","name":"Bayern"}},{"name":"Haidstr.","postalCode":"84371","locality":"Triftern","municipality":{"key":"09277149","name":"Triftern, M","type":"Markt"},"district":{"key":"09277","name":"Rottal-Inn","type":"Landkreis"},"federalState":{"key":"09","name":"Bayern"}},{"name":"Hainstr.","postalCode":"84371","locality":"Triftern","municipality":{"key":"09277149","name":"Triftern, M","type":"Markt"},"district":{"key":"09277","name":"Rottal-Inn","type":"Landkreis"},"federalState":{"key":"09","name":"Bayern"}},{"name":"Hauptstr.","postalCode":"84371","locality":"Triftern","municipality":{"key":"09277149","name":"Triftern, M","type":"Markt"},"district":{"key":"09277","name":"Rottal-Inn","type":"Landkreis"},"federalState":{"key":"09","name":"Bayern"}},{"name":"Heiningstr.","postalCode":"84371","locality":"Triftern","municipality":{"key":"09277149","name":"Triftern, M","type":"Markt"},"district":{"key":"09277","name":"Rottal-Inn","type":"Landkreis"},"federalState":{"key":"09","name":"Bayern"}},{"name":"Hochstr.","postalCode":"84371","locality":"Triftern","municipality":{"key":"09277149","name":"Triftern, M","type":"Markt"},"district":{"key":"09277","name":"Rottal-Inn","type":"Landkreis"},"federalState":{"key":"09","name":"Bayern"}},{"name":"Immelshamer Str.","postalCode":"84371","locality":"Triftern","municipality":{"key":"09277149","name":"Triftern, M","type":"Markt"},"district":{"key":"09277","name":"Rottal-Inn","type":"Landkreis"},"federalState":{"key":"09","name":"Bayern"}},{"name":"Innerer Gries","postalCode":"84371","locality":"Triftern","municipality":{"key":"09277149","name":"Triftern, M","type":"Markt"},"district":{"key":"09277","name":"Rottal-Inn","type":"Landkreis"},"federalState":{"key":"09","name":"Bayern"}},{"name":"Irlhamer Str.","postalCode":"84371","locality":"Triftern","municipality":{"key":"09277149","name":"Triftern, M","type":"Markt"},"district":{"key":"09277","name":"Rottal-Inn","type":"Landkreis"},"federalState":{"key":"09","name":"Bayern"}},{"name":"Jahnstr.","postalCode":"84371","locality":"Triftern","municipality":{"key":"09277149","name":"Triftern, M","type":"Markt"},"district":{"key":"09277","name":"Rottal-Inn","type":"Landkreis"},"federalState":{"key":"09","name":"Bayern"}},{"name":"Kastanienstr.","postalCode":"84371","locality":"Triftern","municipality":{"key":"09277149","name":"Triftern, M","type":"Markt"},"district":{"key":"09277","name":"Rottal-Inn","type":"Landkreis"},"federalState":{"key":"09","name":"Bayern"}},{"name":"Kauflandener Str.","postalCode":"84371","locality":"Triftern","municipality":{"key":"09277149","name":"Triftern, M","type":"Markt"},"district":{"key":"09277","name":"Rottal-Inn","type":"Landkreis"},"federalState":{"key":"09","name":"Bayern"}},{"name":"Kellerbergstr.","postalCode":"84371","locality":"Triftern","municipality":{"key":"09277149","name":"Triftern, M","type":"Markt"},"district":{"key":"09277","name":"Rottal-Inn","type":"Landkreis"},"federalState":{"key":"09","name":"Bayern"}},{"name":"Keltenstr.","postalCode":"84371","locality":"Triftern","municipality":{"key":"09277149","name":"Triftern, M","type":"Markt"},"district":{"key":"09277","name":"Rottal-Inn","type":"Landkreis"},"federalState":{"key":"09","name":"Bayern"}},{"name":"Kirchstr.","postalCode":"84371","locality":"Triftern","municipality":{"key":"09277149","name":"Triftern, M","type":"Markt"},"district":{"key":"09277","name":"Rottal-Inn","type":"Landkreis"},"federalState":{"key":"09","name":"Bayern"}},{"name":"Kößlarner Str.","postalCode":"84371","locality":"Triftern","municipality":{"key":"09277149","name":"Triftern, M","type":"Markt"},"district":{"key":"09277","name":"Rottal-Inn","type":"Landkreis"},"federalState":{"key":"09","name":"Bayern"}},{"name":"Kreuzstr.","postalCode":"84371","locality":"Triftern","municipality":{"key":"09277149","name":"Triftern, M","type":"Markt"},"district":{"key":"09277","name":"Rottal-Inn","type":"Landkreis"},"federalState":{"key":"09","name":"Bayern"}},{"name":"Lagerhausstr.","postalCode":"84371","locality":"Triftern","municipality":{"key":"09277149","name":"Triftern, M","type":"Markt"},"district":{"key":"09277","name":"Rottal-Inn","type":"Landkreis"},"federalState":{"key":"09","name":"Bayern"}},{"name":"Lärchenweg","postalCode":"84371","locality":"Triftern","municipality":{"key":"09277149","name":"Triftern, M","type":"Markt"},"district":{"key":"09277","name":"Rottal-Inn","type":"Landkreis"},"federalState":{"key":"09","name":"Bayern"}},{"name":"Lindenstr.","postalCode":"84371","locality":"Triftern","municipality":{"key":"09277149","name":"Triftern, M","type":"Markt"},"district":{"key":"09277","name":"Rottal-Inn","type":"Landkreis"},"federalState":{"key":"09","name":"Bayern"}},{"name":"Loderhamer Str.","postalCode":"84371","locality":"Triftern","municipality":{"key":"09277149","name":"Triftern, M","type":"Markt"},"district":{"key":"09277","name":"Rottal-Inn","type":"Landkreis"},"federalState":{"key":"09","name":"Bayern"}},{"name":"Magistratsstr.","postalCode":"84371","locality":"Triftern","municipality":{"key":"09277149","name":"Triftern, M","type":"Markt"},"district":{"key":"09277","name":"Rottal-Inn","type":"Landkreis"},"federalState":{"key":"09","name":"Bayern"}},{"name":"Marktplatz","postalCode":"84371","locality":"Triftern","municipality":{"key":"09277149","name":"Triftern, M","type":"Markt"},"district":{"key":"09277","name":"Rottal-Inn","type":"Landkreis"},"federalState":{"key":"09","name":"Bayern"}},{"name":"Matheisstr.","postalCode":"84371","locality":"Triftern","municipality":{"key":"09277149","name":"Triftern, M","type":"Markt"},"district":{"key":"09277","name":"Rottal-Inn","type":"Landkreis"},"federalState":{"key":"09","name":"Bayern"}},{"name":"Mathias-Schaller-Str.","postalCode":"84371","locality":"Triftern","municipality":{"key":"09277149","name":"Triftern, M","type":"Markt"},"district":{"key":"09277","name":"Rottal-Inn","type":"Landkreis"},"federalState":{"key":"09","name":"Bayern"}},{"name":"Modlerstr.","postalCode":"84371","locality":"Triftern","municipality":{"key":"09277149","name":"Triftern, M","type":"Markt"},"district":{"key":"09277","name":"Rottal-Inn","type":"Landkreis"},"federalState":{"key":"09","name":"Bayern"}},{"name":"Moserstr.","postalCode":"84371","locality":"Triftern","municipality":{"key":"09277149","name":"Triftern, M","type":"Markt"},"district":{"key":"09277","name":"Rottal-Inn","type":"Landkreis"},"federalState":{"key":"09","name":"Bayern"}},{"name":"Mühlbachstr.","postalCode":"84371","locality":"Triftern","municipality":{"key":"09277149","name":"Triftern, M","type":"Markt"},"district":{"key":"09277","name":"Rottal-Inn","type":"Landkreis"},"federalState":{"key":"09","name":"Bayern"}},{"name":"Numbergerstr.","postalCode":"84371","locality":"Triftern","municipality":{"key":"09277149","name":"Triftern, M","type":"Markt"},"district":{"key":"09277","name":"Rottal-Inn","type":"Landkreis"},"federalState":{"key":"09","name":"Bayern"}},{"name":"Nupplinger Str.","postalCode":"84371","locality":"Triftern","municipality":{"key":"09277149","name":"Triftern, M","type":"Markt"},"district":{"key":"09277","name":"Rottal-Inn","type":"Landkreis"},"federalState":{"key":"09","name":"Bayern"}},{"name":"Oberer Markt","postalCode":"84371","locality":"Triftern","municipality":{"key":"09277149","name":"Triftern, M","type":"Markt"},"district":{"key":"09277","name":"Rottal-Inn","type":"Landkreis"},"federalState":{"key":"09","name":"Bayern"}},{"name":"Pater-Possenti-Str.","postalCode":"84371","locality":"Triftern","municipality":{"key":"09277149","name":"Triftern, M","type":"Markt"},"district":{"key":"09277","name":"Rottal-Inn","type":"Landkreis"},"federalState":{"key":"09","name":"Bayern"}},{"name":"Peter-Allwang-Str.","postalCode":"84371","locality":"Triftern","municipality":{"key":"09277149","name":"Triftern, M","type":"Markt"},"district":{"key":"09277","name":"Rottal-Inn","type":"Landkreis"},"federalState":{"key":"09","name":"Bayern"}},{"name":"Pfarrer-Moritz-Str.","postalCode":"84371","locality":"Triftern","municipality":{"key":"09277149","name":"Triftern, M","type":"Markt"},"district":{"key":"09277","name":"Rottal-Inn","type":"Landkreis"},"federalState":{"key":"09","name":"Bayern"}},{"name":"Pfarrer-Nißl-Str.","postalCode":"84371","locality":"Triftern","municipality":{"key":"09277149","name":"Triftern, M","type":"Markt"},"district":{"key":"09277","name":"Rottal-Inn","type":"Landkreis"},"federalState":{"key":"09","name":"Bayern"}},{"name":"Pfarrer-Stingl-Str.","postalCode":"84371","locality":"Triftern","municipality":{"key":"09277149","name":"Triftern, M","type":"Markt"},"district":{"key":"09277","name":"Rottal-Inn","type":"Landkreis"},"federalState":{"key":"09","name":"Bayern"}},{"name":"Pfarrer-Venus-Str.","postalCode":"84371","locality":"Triftern","municipality":{"key":"09277149","name":"Triftern, M","type":"Markt"},"district":{"key":"09277","name":"Rottal-Inn","type":"Landkreis"},"federalState":{"key":"09","name":"Bayern"}},{"name":"Pfarrkirchener Str.","postalCode":"84371","locality":"Triftern","municipality":{"key":"09277149","name":"Triftern, M","type":"Markt"},"district":{"key":"09277","name":"Rottal-Inn","type":"Landkreis"},"federalState":{"key":"09","name":"Bayern"}},{"name":"Pfarrweg","postalCode":"84371","locality":"Triftern","municipality":{"key":"09277149","name":"Triftern, M","type":"Markt"},"district":{"key":"09277","name":"Rottal-Inn","type":"Landkreis"},"federalState":{"key":"09","name":"Bayern"}},{"name":"Quellenstr.","postalCode":"84371","locality":"Triftern","municipality":{"key":"09277149","name":"Triftern, M","type":"Markt"},"district":{"key":"09277","name":"Rottal-Inn","type":"Landkreis"},"federalState":{"key":"09","name":"Bayern"}},{"name":"Raiffeisenstr.","postalCode":"84371","locality":"Triftern","municipality":{"key":"09277149","name":"Triftern, M","type":"Markt"},"district":{"key":"09277","name":"Rottal-Inn","type":"Landkreis"},"federalState":{"key":"09","name":"Bayern"}},{"name":"Reichenwallnerstr.","postalCode":"84371","locality":"Triftern","municipality":{"key":"09277149","name":"Triftern, M","type":"Markt"},"district":{"key":"09277","name":"Rottal-Inn","type":"Landkreis"},"federalState":{"key":"09","name":"Bayern"}},{"name":"Ringstr.","postalCode":"84371","locality":"Triftern","municipality":{"key":"09277149","name":"Triftern, M","type":"Markt"},"district":{"key":"09277","name":"Rottal-Inn","type":"Landkreis"},"federalState":{"key":"09","name":"Bayern"}},{"name":"Römerstr.","postalCode":"84371","locality":"Triftern","municipality":{"key":"09277149","name":"Triftern, M","type":"Markt"},"district":{"key":"09277","name":"Rottal-Inn","type":"Landkreis"},"federalState":{"key":"09","name":"Bayern"}},{"name":"Rosenweg","postalCode":"84371","locality":"Triftern","municipality":{"key":"09277149","name":"Triftern, M","type":"Markt"},"district":{"key":"09277","name":"Rottal-Inn","type":"Landkreis"},"federalState":{"key":"09","name":"Bayern"}},{"name":"Schönhoferstr.","postalCode":"84371","locality":"Triftern","municipality":{"key":"09277149","name":"Triftern, M","type":"Markt"},"district":{"key":"09277","name":"Rottal-Inn","type":"Landkreis"},"federalState":{"key":"09","name":"Bayern"}},{"name":"Schulstr.","postalCode":"84371","locality":"Triftern","municipality":{"key":"09277149","name":"Triftern, M","type":"Markt"},"district":{"key":"09277","name":"Rottal-Inn","type":"Landkreis"},"federalState":{"key":"09","name":"Bayern"}},{"name":"Schulweg","postalCode":"84371","locality":"Triftern","municipality":{"key":"09277149","name":"Triftern, M","type":"Markt"},"district":{"key":"09277","name":"Rottal-Inn","type":"Landkreis"},"federalState":{"key":"09","name":"Bayern"}},{"name":"Schützenstr.","postalCode":"84371","locality":"Triftern","municipality":{"key":"09277149","name":"Triftern, M","type":"Markt"},"district":{"key":"09277","name":"Rottal-Inn","type":"Landkreis"},"federalState":{"key":"09","name":"Bayern"}},{"name":"Schwaibacher Str.","postalCode":"84371","locality":"Triftern","municipality":{"key":"09277149","name":"Triftern, M","type":"Markt"},"district":{"key":"09277","name":"Rottal-Inn","type":"Landkreis"},"federalState":{"key":"09","name":"Bayern"}},{"name":"Simbacher Str.","postalCode":"84371","locality":"Triftern","municipality":{"key":"09277149","name":"Triftern, M","type":"Markt"},"district":{"key":"09277","name":"Rottal-Inn","type":"Landkreis"},"federalState":{"key":"09","name":"Bayern"}},{"name":"Sportplatzweg","postalCode":"84371","locality":"Triftern","municipality":{"key":"09277149","name":"Triftern, M","type":"Markt"},"district":{"key":"09277","name":"Rottal-Inn","type":"Landkreis"},"federalState":{"key":"09","name":"Bayern"}},{"name":"Steinerstr.","postalCode":"84371","locality":"Triftern","municipality":{"key":"09277149","name":"Triftern, M","type":"Markt"},"district":{"key":"09277","name":"Rottal-Inn","type":"Landkreis"},"federalState":{"key":"09","name":"Bayern"}},{"name":"St.-Koloman-Str.","postalCode":"84371","locality":"Triftern","municipality":{"key":"09277149","name":"Triftern, M","type":"Markt"},"district":{"key":"09277","name":"Rottal-Inn","type":"Landkreis"},"federalState":{"key":"09","name":"Bayern"}},{"name":"St.-Stephan-Str.","postalCode":"84371","locality":"Triftern","municipality":{"key":"09277149","name":"Triftern, M","type":"Markt"},"district":{"key":"09277","name":"Rottal-Inn","type":"Landkreis"},"federalState":{"key":"09","name":"Bayern"}},{"name":"Tannenring","postalCode":"84371","locality":"Triftern","municipality":{"key":"09277149","name":"Triftern, M","type":"Markt"},"district":{"key":"09277","name":"Rottal-Inn","type":"Landkreis"},"federalState":{"key":"09","name":"Bayern"}},{"name":"Tanner Str.","postalCode":"84371","locality":"Triftern","municipality":{"key":"09277149","name":"Triftern, M","type":"Markt"},"district":{"key":"09277","name":"Rottal-Inn","type":"Landkreis"},"federalState":{"key":"09","name":"Bayern"}},{"name":"Thomastr.","postalCode":"84371","locality":"Triftern","municipality":{"key":"09277149","name":"Triftern, M","type":"Markt"},"district":{"key":"09277","name":"Rottal-Inn","type":"Landkreis"},"federalState":{"key":"09","name":"Bayern"}},{"name":"Trifterner Str.","postalCode":"84371","locality":"Triftern","municipality":{"key":"09277149","name":"Triftern, M","type":"Markt"},"district":{"key":"09277","name":"Rottal-Inn","type":"Landkreis"},"federalState":{"key":"09","name":"Bayern"}},{"name":"Tuchmacherstr.","postalCode":"84371","locality":"Triftern","municipality":{"key":"09277149","name":"Triftern, M","type":"Markt"},"district":{"key":"09277","name":"Rottal-Inn","type":"Landkreis"},"federalState":{"key":"09","name":"Bayern"}},{"name":"Unterer Markt","postalCode":"84371","locality":"Triftern","municipality":{"key":"09277149","name":"Triftern, M","type":"Markt"},"district":{"key":"09277","name":"Rottal-Inn","type":"Landkreis"},"federalState":{"key":"09","name":"Bayern"}},{"name":"Von-Streber-Str.","postalCode":"84371","locality":"Triftern","municipality":{"key":"09277149","name":"Triftern, M","type":"Markt"},"district":{"key":"09277","name":"Rottal-Inn","type":"Landkreis"},"federalState":{"key":"09","name":"Bayern"}},{"name":"Waldstr.","postalCode":"84371","locality":"Triftern","municipality":{"key":"09277149","name":"Triftern, M","type":"Markt"},"district":{"key":"09277","name":"Rottal-Inn","type":"Landkreis"},"federalState":{"key":"09","name":"Bayern"}},{"name":"Weiherstr.","postalCode":"84371","locality":"Triftern","municipality":{"key":"09277149","name":"Triftern, M","type":"Markt"},"district":{"key":"09277","name":"Rottal-Inn","type":"Landkreis"},"federalState":{"key":"09","name":"Bayern"}},{"name":"Weinbergstr.","postalCode":"84371","locality":"Triftern","municipality":{"key":"09277149","name":"Triftern, M","type":"Markt"},"district":{"key":"09277","name":"Rottal-Inn","type":"Landkreis"},"federalState":{"key":"09","name":"Bayern"}},{"name":"Weingasse","postalCode":"84371","locality":"Triftern","municipality":{"key":"09277149","name":"Triftern, M","type":"Markt"},"district":{"key":"09277","name":"Rottal-Inn","type":"Landkreis"},"federalState":{"key":"09","name":"Bayern"}},{"name":"Wennigweg","postalCode":"84371","locality":"Triftern","municipality":{"key":"09277149","name":"Triftern, M","type":"Markt"},"district":{"key":"09277","name":"Rottal-Inn","type":"Landkreis"},"federalState":{"key":"09","name":"Bayern"}},{"name":"Willinger Str.","postalCode":"84371","locality":"Triftern","municipality":{"key":"09277149","name":"Triftern, M","type":"Markt"},"district":{"key":"09277","name":"Rottal-Inn","type":"Landkreis"},"federalState":{"key":"09","name":"Bayern"}},{"name":"Äusserer Gries","postalCode":"84371","locality":"Triftern","municipality":{"key":"09277149","name":"Triftern, M","type":"Markt"},"district":{"key":"09277","name":"Rottal-Inn","type":"Landkreis"},"federalState":{"key":"09","name":"Bayern"}},]