[{"name":"Am Esch","postalCode":"48465","locality":"Samern","municipality":{"key":"03456020","name":"Samern","type":"Kreisangehörige_Gemeinde"},"district":{"key":"03456","name":"Grafschaft Bentheim","type":"Landkreis"},"federalState":{"key":"03","name":"Niedersachsen"}},{"name":"Am Ohner Diek","postalCode":"48465","locality":"Samern","municipality":{"key":"03456020","name":"Samern","type":"Kreisangehörige_Gemeinde"},"district":{"key":"03456","name":"Grafschaft Bentheim","type":"Landkreis"},"federalState":{"key":"03","name":"Niedersachsen"}},{"name":"Am See","postalCode":"48465","locality":"Samern","municipality":{"key":"03456020","name":"Samern","type":"Kreisangehörige_Gemeinde"},"district":{"key":"03456","name":"Grafschaft Bentheim","type":"Landkreis"},"federalState":{"key":"03","name":"Niedersachsen"}},{"name":"Am Wehr","postalCode":"48465","locality":"Samern","municipality":{"key":"03456020","name":"Samern","type":"Kreisangehörige_Gemeinde"},"district":{"key":"03456","name":"Grafschaft Bentheim","type":"Landkreis"},"federalState":{"key":"03","name":"Niedersachsen"}},{"name":"Feldweg","postalCode":"48465","locality":"Samern","municipality":{"key":"03456020","name":"Samern","type":"Kreisangehörige_Gemeinde"},"district":{"key":"03456","name":"Grafschaft Bentheim","type":"Landkreis"},"federalState":{"key":"03","name":"Niedersachsen"}},{"name":"Haarweg","postalCode":"48465","locality":"Samern","municipality":{"key":"03456020","name":"Samern","type":"Kreisangehörige_Gemeinde"},"district":{"key":"03456","name":"Grafschaft Bentheim","type":"Landkreis"},"federalState":{"key":"03","name":"Niedersachsen"}},{"name":"Haferkamp","postalCode":"48465","locality":"Samern","municipality":{"key":"03456020","name":"Samern","type":"Kreisangehörige_Gemeinde"},"district":{"key":"03456","name":"Grafschaft Bentheim","type":"Landkreis"},"federalState":{"key":"03","name":"Niedersachsen"}},{"name":"Holmer Maate","postalCode":"48465","locality":"Samern","municipality":{"key":"03456020","name":"Samern","type":"Kreisangehörige_Gemeinde"},"district":{"key":"03456","name":"Grafschaft Bentheim","type":"Landkreis"},"federalState":{"key":"03","name":"Niedersachsen"}},{"name":"Holmers Kamp","postalCode":"48465","locality":"Samern","municipality":{"key":"03456020","name":"Samern","type":"Kreisangehörige_Gemeinde"},"district":{"key":"03456","name":"Grafschaft Bentheim","type":"Landkreis"},"federalState":{"key":"03","name":"Niedersachsen"}},{"name":"In den Bergen","postalCode":"48465","locality":"Samern","municipality":{"key":"03456020","name":"Samern","type":"Kreisangehörige_Gemeinde"},"district":{"key":"03456","name":"Grafschaft Bentheim","type":"Landkreis"},"federalState":{"key":"03","name":"Niedersachsen"}},{"name":"Lütke Brook","postalCode":"48465","locality":"Samern","municipality":{"key":"03456020","name":"Samern","type":"Kreisangehörige_Gemeinde"},"district":{"key":"03456","name":"Grafschaft Bentheim","type":"Landkreis"},"federalState":{"key":"03","name":"Niedersachsen"}},{"name":"Nordkamp","postalCode":"48465","locality":"Samern","municipality":{"key":"03456020","name":"Samern","type":"Kreisangehörige_Gemeinde"},"district":{"key":"03456","name":"Grafschaft Bentheim","type":"Landkreis"},"federalState":{"key":"03","name":"Niedersachsen"}},{"name":"Nordring","postalCode":"48465","locality":"Samern","municipality":{"key":"03456020","name":"Samern","type":"Kreisangehörige_Gemeinde"},"district":{"key":"03456","name":"Grafschaft Bentheim","type":"Landkreis"},"federalState":{"key":"03","name":"Niedersachsen"}},{"name":"Ohner Str.","postalCode":"48465","locality":"Samern","municipality":{"key":"03456020","name":"Samern","type":"Kreisangehörige_Gemeinde"},"district":{"key":"03456","name":"Grafschaft Bentheim","type":"Landkreis"},"federalState":{"key":"03","name":"Niedersachsen"}},{"name":"Salzbergener Str.","postalCode":"48465","locality":"Samern","municipality":{"key":"03456020","name":"Samern","type":"Kreisangehörige_Gemeinde"},"district":{"key":"03456","name":"Grafschaft Bentheim","type":"Landkreis"},"federalState":{"key":"03","name":"Niedersachsen"}},{"name":"Salzberger Str.","postalCode":"48465","locality":"Samern","municipality":{"key":"03456020","name":"Samern","type":"Kreisangehörige_Gemeinde"},"district":{"key":"03456","name":"Grafschaft Bentheim","type":"Landkreis"},"federalState":{"key":"03","name":"Niedersachsen"}},{"name":"Schüttorfer Str.","postalCode":"48465","locality":"Samern","municipality":{"key":"03456020","name":"Samern","type":"Kreisangehörige_Gemeinde"},"district":{"key":"03456","name":"Grafschaft Bentheim","type":"Landkreis"},"federalState":{"key":"03","name":"Niedersachsen"}},{"name":"Südkamp","postalCode":"48465","locality":"Samern","municipality":{"key":"03456020","name":"Samern","type":"Kreisangehörige_Gemeinde"},"district":{"key":"03456","name":"Grafschaft Bentheim","type":"Landkreis"},"federalState":{"key":"03","name":"Niedersachsen"}},{"name":"Toschlag","postalCode":"48465","locality":"Samern","municipality":{"key":"03456020","name":"Samern","type":"Kreisangehörige_Gemeinde"},"district":{"key":"03456","name":"Grafschaft Bentheim","type":"Landkreis"},"federalState":{"key":"03","name":"Niedersachsen"}},{"name":"Vechtetal","postalCode":"48465","locality":"Samern","municipality":{"key":"03456020","name":"Samern","type":"Kreisangehörige_Gemeinde"},"district":{"key":"03456","name":"Grafschaft Bentheim","type":"Landkreis"},"federalState":{"key":"03","name":"Niedersachsen"}},{"name":"Weusten Weg","postalCode":"48465","locality":"Samern","municipality":{"key":"03456020","name":"Samern","type":"Kreisangehörige_Gemeinde"},"district":{"key":"03456","name":"Grafschaft Bentheim","type":"Landkreis"},"federalState":{"key":"03","name":"Niedersachsen"}},{"name":"Zum Adolfshof","postalCode":"48465","locality":"Samern","municipality":{"key":"03456020","name":"Samern","type":"Kreisangehörige_Gemeinde"},"district":{"key":"03456","name":"Grafschaft Bentheim","type":"Landkreis"},"federalState":{"key":"03","name":"Niedersachsen"}},{"name":"Zum Höring","postalCode":"48465","locality":"Samern","municipality":{"key":"03456020","name":"Samern","type":"Kreisangehörige_Gemeinde"},"district":{"key":"03456","name":"Grafschaft Bentheim","type":"Landkreis"},"federalState":{"key":"03","name":"Niedersachsen"}},]