[{"name":"Alte Schmiede","postalCode":"04567","locality":"Kitzscher","municipality":{"key":"14729220","name":"Kitzscher, Stadt","type":"Stadt"},"district":{"key":"14729","name":"Leipzig","type":"Landkreis"},"federalState":{"key":"14","name":"Sachsen"}},{"name":"Alte Str.","postalCode":"04567","locality":"Kitzscher","municipality":{"key":"14729220","name":"Kitzscher, Stadt","type":"Stadt"},"district":{"key":"14729","name":"Leipzig","type":"Landkreis"},"federalState":{"key":"14","name":"Sachsen"}},{"name":"Am Denkmal","postalCode":"04567","locality":"Kitzscher","municipality":{"key":"14729220","name":"Kitzscher, Stadt","type":"Stadt"},"district":{"key":"14729","name":"Leipzig","type":"Landkreis"},"federalState":{"key":"14","name":"Sachsen"}},{"name":"Am Eichholz","postalCode":"04567","locality":"Kitzscher","municipality":{"key":"14729220","name":"Kitzscher, Stadt","type":"Stadt"},"district":{"key":"14729","name":"Leipzig","type":"Landkreis"},"federalState":{"key":"14","name":"Sachsen"}},{"name":"Am Feldrain","postalCode":"04567","locality":"Kitzscher","municipality":{"key":"14729220","name":"Kitzscher, Stadt","type":"Stadt"},"district":{"key":"14729","name":"Leipzig","type":"Landkreis"},"federalState":{"key":"14","name":"Sachsen"}},{"name":"Am Heiligen Holz","postalCode":"04567","locality":"Kitzscher","municipality":{"key":"14729220","name":"Kitzscher, Stadt","type":"Stadt"},"district":{"key":"14729","name":"Leipzig","type":"Landkreis"},"federalState":{"key":"14","name":"Sachsen"}},{"name":"Am Markt","postalCode":"04567","locality":"Kitzscher","municipality":{"key":"14729220","name":"Kitzscher, Stadt","type":"Stadt"},"district":{"key":"14729","name":"Leipzig","type":"Landkreis"},"federalState":{"key":"14","name":"Sachsen"}},{"name":"Am Mondwinkel","postalCode":"04567","locality":"Kitzscher","municipality":{"key":"14729220","name":"Kitzscher, Stadt","type":"Stadt"},"district":{"key":"14729","name":"Leipzig","type":"Landkreis"},"federalState":{"key":"14","name":"Sachsen"}},{"name":"Am Rittergut","postalCode":"04567","locality":"Kitzscher","municipality":{"key":"14729220","name":"Kitzscher, Stadt","type":"Stadt"},"district":{"key":"14729","name":"Leipzig","type":"Landkreis"},"federalState":{"key":"14","name":"Sachsen"}},{"name":"Am Sonnenhügel","postalCode":"04567","locality":"Kitzscher","municipality":{"key":"14729220","name":"Kitzscher, Stadt","type":"Stadt"},"district":{"key":"14729","name":"Leipzig","type":"Landkreis"},"federalState":{"key":"14","name":"Sachsen"}},{"name":"Am Sportplatz","postalCode":"04567","locality":"Kitzscher","municipality":{"key":"14729220","name":"Kitzscher, Stadt","type":"Stadt"},"district":{"key":"14729","name":"Leipzig","type":"Landkreis"},"federalState":{"key":"14","name":"Sachsen"}},{"name":"Am Sternenweg","postalCode":"04567","locality":"Kitzscher","municipality":{"key":"14729220","name":"Kitzscher, Stadt","type":"Stadt"},"district":{"key":"14729","name":"Leipzig","type":"Landkreis"},"federalState":{"key":"14","name":"Sachsen"}},{"name":"Am Südhang","postalCode":"04567","locality":"Kitzscher","municipality":{"key":"14729220","name":"Kitzscher, Stadt","type":"Stadt"},"district":{"key":"14729","name":"Leipzig","type":"Landkreis"},"federalState":{"key":"14","name":"Sachsen"}},{"name":"Am Teich","postalCode":"04567","locality":"Kitzscher","municipality":{"key":"14729220","name":"Kitzscher, Stadt","type":"Stadt"},"district":{"key":"14729","name":"Leipzig","type":"Landkreis"},"federalState":{"key":"14","name":"Sachsen"}},{"name":"Am Wasserwerk","postalCode":"04567","locality":"Kitzscher","municipality":{"key":"14729220","name":"Kitzscher, Stadt","type":"Stadt"},"district":{"key":"14729","name":"Leipzig","type":"Landkreis"},"federalState":{"key":"14","name":"Sachsen"}},{"name":"An der Höhe","postalCode":"04567","locality":"Kitzscher","municipality":{"key":"14729220","name":"Kitzscher, Stadt","type":"Stadt"},"district":{"key":"14729","name":"Leipzig","type":"Landkreis"},"federalState":{"key":"14","name":"Sachsen"}},{"name":"An der Kirche","postalCode":"04567","locality":"Kitzscher","municipality":{"key":"14729220","name":"Kitzscher, Stadt","type":"Stadt"},"district":{"key":"14729","name":"Leipzig","type":"Landkreis"},"federalState":{"key":"14","name":"Sachsen"}},{"name":"An der Schäferei","postalCode":"04567","locality":"Kitzscher","municipality":{"key":"14729220","name":"Kitzscher, Stadt","type":"Stadt"},"district":{"key":"14729","name":"Leipzig","type":"Landkreis"},"federalState":{"key":"14","name":"Sachsen"}},{"name":"An der Schmiede","postalCode":"04567","locality":"Kitzscher","municipality":{"key":"14729220","name":"Kitzscher, Stadt","type":"Stadt"},"district":{"key":"14729","name":"Leipzig","type":"Landkreis"},"federalState":{"key":"14","name":"Sachsen"}},{"name":"August-Bebel-Str.","postalCode":"04567","locality":"Kitzscher","municipality":{"key":"14729220","name":"Kitzscher, Stadt","type":"Stadt"},"district":{"key":"14729","name":"Leipzig","type":"Landkreis"},"federalState":{"key":"14","name":"Sachsen"}},{"name":"Bäckerstr.","postalCode":"04567","locality":"Kitzscher","municipality":{"key":"14729220","name":"Kitzscher, Stadt","type":"Stadt"},"district":{"key":"14729","name":"Leipzig","type":"Landkreis"},"federalState":{"key":"14","name":"Sachsen"}},{"name":"Bad Lausicker Str.","postalCode":"04567","locality":"Kitzscher","municipality":{"key":"14729220","name":"Kitzscher, Stadt","type":"Stadt"},"district":{"key":"14729","name":"Leipzig","type":"Landkreis"},"federalState":{"key":"14","name":"Sachsen"}},{"name":"Barbaraweg","postalCode":"04567","locality":"Kitzscher","municipality":{"key":"14729220","name":"Kitzscher, Stadt","type":"Stadt"},"district":{"key":"14729","name":"Leipzig","type":"Landkreis"},"federalState":{"key":"14","name":"Sachsen"}},{"name":"Bauerngasse","postalCode":"04567","locality":"Kitzscher","municipality":{"key":"14729220","name":"Kitzscher, Stadt","type":"Stadt"},"district":{"key":"14729","name":"Leipzig","type":"Landkreis"},"federalState":{"key":"14","name":"Sachsen"}},{"name":"Bergmannsplatz","postalCode":"04567","locality":"Kitzscher","municipality":{"key":"14729220","name":"Kitzscher, Stadt","type":"Stadt"},"district":{"key":"14729","name":"Leipzig","type":"Landkreis"},"federalState":{"key":"14","name":"Sachsen"}},{"name":"Birkenstr.","postalCode":"04567","locality":"Kitzscher","municipality":{"key":"14729220","name":"Kitzscher, Stadt","type":"Stadt"},"district":{"key":"14729","name":"Leipzig","type":"Landkreis"},"federalState":{"key":"14","name":"Sachsen"}},{"name":"Bornaer Str.","postalCode":"04567","locality":"Kitzscher","municipality":{"key":"14729220","name":"Kitzscher, Stadt","type":"Stadt"},"district":{"key":"14729","name":"Leipzig","type":"Landkreis"},"federalState":{"key":"14","name":"Sachsen"}},{"name":"Braußwiger Str.","postalCode":"04567","locality":"Kitzscher","municipality":{"key":"14729220","name":"Kitzscher, Stadt","type":"Stadt"},"district":{"key":"14729","name":"Leipzig","type":"Landkreis"},"federalState":{"key":"14","name":"Sachsen"}},{"name":"Breiter Flügel","postalCode":"04567","locality":"Kitzscher","municipality":{"key":"14729220","name":"Kitzscher, Stadt","type":"Stadt"},"district":{"key":"14729","name":"Leipzig","type":"Landkreis"},"federalState":{"key":"14","name":"Sachsen"}},{"name":"Cäcilienstr.","postalCode":"04317","locality":"Leipzig","municipality":{"key":"14713000","name":"Leipzig, Stadt","type":"Kreisfreie_Stadt"},"district":{"key":"14713","name":"Leipzig, Stadt","type":"Kreisfreie_Stadt"},"federalState":{"key":"14","name":"Sachsen"}},{"name":"Calaustr.","postalCode":"04229","locality":"Leipzig","municipality":{"key":"14713000","name":"Leipzig, Stadt","type":"Kreisfreie_Stadt"},"district":{"key":"14713","name":"Leipzig, Stadt","type":"Kreisfreie_Stadt"},"federalState":{"key":"14","name":"Sachsen"}},{"name":"Calderónweg","postalCode":"04289","locality":"Leipzig","municipality":{"key":"14713000","name":"Leipzig, Stadt","type":"Kreisfreie_Stadt"},"district":{"key":"14713","name":"Leipzig, Stadt","type":"Kreisfreie_Stadt"},"federalState":{"key":"14","name":"Sachsen"}},{"name":"Calvisiusstr.","postalCode":"04177","locality":"Leipzig","municipality":{"key":"14713000","name":"Leipzig, Stadt","type":"Kreisfreie_Stadt"},"district":{"key":"14713","name":"Leipzig, Stadt","type":"Kreisfreie_Stadt"},"federalState":{"key":"14","name":"Sachsen"}},{"name":"Campestr.","postalCode":"04229","locality":"Leipzig","municipality":{"key":"14713000","name":"Leipzig, Stadt","type":"Kreisfreie_Stadt"},"district":{"key":"14713","name":"Leipzig, Stadt","type":"Kreisfreie_Stadt"},"federalState":{"key":"14","name":"Sachsen"}},{"name":"Cannaweg","postalCode":"04318","locality":"Leipzig","municipality":{"key":"14713000","name":"Leipzig, Stadt","type":"Kreisfreie_Stadt"},"district":{"key":"14713","name":"Leipzig, Stadt","type":"Kreisfreie_Stadt"},"federalState":{"key":"14","name":"Sachsen"}},{"name":"Carlebachstr.","postalCode":"04357","locality":"Leipzig","municipality":{"key":"14713000","name":"Leipzig, Stadt","type":"Kreisfreie_Stadt"},"district":{"key":"14713","name":"Leipzig, Stadt","type":"Kreisfreie_Stadt"},"federalState":{"key":"14","name":"Sachsen"}},{"name":"Carl-Hinné-Str.","postalCode":"04178","locality":"Leipzig","municipality":{"key":"14713000","name":"Leipzig, Stadt","type":"Kreisfreie_Stadt"},"district":{"key":"14713","name":"Leipzig, Stadt","type":"Kreisfreie_Stadt"},"federalState":{"key":"14","name":"Sachsen"}},{"name":"Carl-Maria-von-Weber-Str.","postalCode":"04109","locality":"Leipzig","municipality":{"key":"14713000","name":"Leipzig, Stadt","type":"Kreisfreie_Stadt"},"district":{"key":"14713","name":"Leipzig, Stadt","type":"Kreisfreie_Stadt"},"federalState":{"key":"14","name":"Sachsen"}},{"name":"Carl-Meyer-Str.","postalCode":"04178","locality":"Leipzig","municipality":{"key":"14713000","name":"Leipzig, Stadt","type":"Kreisfreie_Stadt"},"district":{"key":"14713","name":"Leipzig, Stadt","type":"Kreisfreie_Stadt"},"federalState":{"key":"14","name":"Sachsen"}},{"name":"Carl-Munde-Str.","postalCode":"04288","locality":"Leipzig","municipality":{"key":"14713000","name":"Leipzig, Stadt","type":"Kreisfreie_Stadt"},"district":{"key":"14713","name":"Leipzig, Stadt","type":"Kreisfreie_Stadt"},"federalState":{"key":"14","name":"Sachsen"}},{"name":"Carl-Weichelt-Str.","postalCode":"04249","locality":"Leipzig","municipality":{"key":"14713000","name":"Leipzig, Stadt","type":"Kreisfreie_Stadt"},"district":{"key":"14713","name":"Leipzig, Stadt","type":"Kreisfreie_Stadt"},"federalState":{"key":"14","name":"Sachsen"}},{"name":"Carpzovstr.","postalCode":"04317","locality":"Leipzig","municipality":{"key":"14713000","name":"Leipzig, Stadt","type":"Kreisfreie_Stadt"},"district":{"key":"14713","name":"Leipzig, Stadt","type":"Kreisfreie_Stadt"},"federalState":{"key":"14","name":"Sachsen"}},{"name":"Carusbrücke","postalCode":"04109","locality":"Leipzig","municipality":{"key":"14713000","name":"Leipzig, Stadt","type":"Kreisfreie_Stadt"},"district":{"key":"14713","name":"Leipzig, Stadt","type":"Kreisfreie_Stadt"},"federalState":{"key":"14","name":"Sachsen"}},{"name":"Cervantesweg","postalCode":"04289","locality":"Leipzig","municipality":{"key":"14713000","name":"Leipzig, Stadt","type":"Kreisfreie_Stadt"},"district":{"key":"14713","name":"Leipzig, Stadt","type":"Kreisfreie_Stadt"},"federalState":{"key":"14","name":"Sachsen"}},{"name":"Cézanneweg","postalCode":"04289","locality":"Leipzig","municipality":{"key":"14713000","name":"Leipzig, Stadt","type":"Kreisfreie_Stadt"},"district":{"key":"14713","name":"Leipzig, Stadt","type":"Kreisfreie_Stadt"},"federalState":{"key":"14","name":"Sachsen"}},{"name":"Charlottenstr.","postalCode":"04317","locality":"Leipzig","municipality":{"key":"14713000","name":"Leipzig, Stadt","type":"Kreisfreie_Stadt"},"district":{"key":"14713","name":"Leipzig, Stadt","type":"Kreisfreie_Stadt"},"federalState":{"key":"14","name":"Sachsen"}},{"name":"Charlottenweg","postalCode":"04159","locality":"Leipzig","municipality":{"key":"14713000","name":"Leipzig, Stadt","type":"Kreisfreie_Stadt"},"district":{"key":"14713","name":"Leipzig, Stadt","type":"Kreisfreie_Stadt"},"federalState":{"key":"14","name":"Sachsen"}},{"name":"Chemnitzer Str.","postalCode":"04289","locality":"Leipzig","municipality":{"key":"14713000","name":"Leipzig, Stadt","type":"Kreisfreie_Stadt"},"district":{"key":"14713","name":"Leipzig, Stadt","type":"Kreisfreie_Stadt"},"federalState":{"key":"14","name":"Sachsen"}},{"name":"Cheruskerstr.","postalCode":"04299","locality":"Leipzig","municipality":{"key":"14713000","name":"Leipzig, Stadt","type":"Kreisfreie_Stadt"},"district":{"key":"14713","name":"Leipzig, Stadt","type":"Kreisfreie_Stadt"},"federalState":{"key":"14","name":"Sachsen"}},{"name":"Chopinstr.","postalCode":"04103","locality":"Leipzig","municipality":{"key":"14713000","name":"Leipzig, Stadt","type":"Kreisfreie_Stadt"},"district":{"key":"14713","name":"Leipzig, Stadt","type":"Kreisfreie_Stadt"},"federalState":{"key":"14","name":"Sachsen"}},{"name":"Christian-Ferkel-Str.","postalCode":"04159","locality":"Leipzig","municipality":{"key":"14713000","name":"Leipzig, Stadt","type":"Kreisfreie_Stadt"},"district":{"key":"14713","name":"Leipzig, Stadt","type":"Kreisfreie_Stadt"},"federalState":{"key":"14","name":"Sachsen"}},{"name":"Christian-Grunert-Str.","postalCode":"04288","locality":"Leipzig","municipality":{"key":"14713000","name":"Leipzig, Stadt","type":"Kreisfreie_Stadt"},"district":{"key":"14713","name":"Leipzig, Stadt","type":"Kreisfreie_Stadt"},"federalState":{"key":"14","name":"Sachsen"}},{"name":"Christian-Schmid-Str.","postalCode":"04319","locality":"Leipzig","municipality":{"key":"14713000","name":"Leipzig, Stadt","type":"Kreisfreie_Stadt"},"district":{"key":"14713","name":"Leipzig, Stadt","type":"Kreisfreie_Stadt"},"federalState":{"key":"14","name":"Sachsen"}},{"name":"Christianstr.","postalCode":"04105","locality":"Leipzig","municipality":{"key":"14713000","name":"Leipzig, Stadt","type":"Kreisfreie_Stadt"},"district":{"key":"14713","name":"Leipzig, Stadt","type":"Kreisfreie_Stadt"},"federalState":{"key":"14","name":"Sachsen"}},{"name":"Christian-Wille-Weg","postalCode":"04316","locality":"Leipzig","municipality":{"key":"14713000","name":"Leipzig, Stadt","type":"Kreisfreie_Stadt"},"district":{"key":"14713","name":"Leipzig, Stadt","type":"Kreisfreie_Stadt"},"federalState":{"key":"14","name":"Sachsen"}},{"name":"Christoph-Probst-Str.","postalCode":"04159","locality":"Leipzig","municipality":{"key":"14713000","name":"Leipzig, Stadt","type":"Kreisfreie_Stadt"},"district":{"key":"14713","name":"Leipzig, Stadt","type":"Kreisfreie_Stadt"},"federalState":{"key":"14","name":"Sachsen"}},{"name":"Christoph-Schubert-Str.","postalCode":"04158","locality":"Leipzig","municipality":{"key":"14713000","name":"Leipzig, Stadt","type":"Kreisfreie_Stadt"},"district":{"key":"14713","name":"Leipzig, Stadt","type":"Kreisfreie_Stadt"},"federalState":{"key":"14","name":"Sachsen"}},{"name":"Chrysanthemenweg","postalCode":"04318","locality":"Leipzig","municipality":{"key":"14713000","name":"Leipzig, Stadt","type":"Kreisfreie_Stadt"},"district":{"key":"14713","name":"Leipzig, Stadt","type":"Kreisfreie_Stadt"},"federalState":{"key":"14","name":"Sachsen"}},{"name":"Cichoriusstr.","postalCode":"04318","locality":"Leipzig","municipality":{"key":"14713000","name":"Leipzig, Stadt","type":"Kreisfreie_Stadt"},"district":{"key":"14713","name":"Leipzig, Stadt","type":"Kreisfreie_Stadt"},"federalState":{"key":"14","name":"Sachsen"}},{"name":"Clara-Wieck-Str.","postalCode":"04347","locality":"Leipzig","municipality":{"key":"14713000","name":"Leipzig, Stadt","type":"Kreisfreie_Stadt"},"district":{"key":"14713","name":"Leipzig, Stadt","type":"Kreisfreie_Stadt"},"federalState":{"key":"14","name":"Sachsen"}},{"name":"Clara-Zetkin-Str.","postalCode":"04178","locality":"Leipzig","municipality":{"key":"14713000","name":"Leipzig, Stadt","type":"Kreisfreie_Stadt"},"district":{"key":"14713","name":"Leipzig, Stadt","type":"Kreisfreie_Stadt"},"federalState":{"key":"14","name":"Sachsen"}},{"name":"Claudiusstr.","postalCode":"04157","locality":"Leipzig","municipality":{"key":"14713000","name":"Leipzig, Stadt","type":"Kreisfreie_Stadt"},"district":{"key":"14713","name":"Leipzig, Stadt","type":"Kreisfreie_Stadt"},"federalState":{"key":"14","name":"Sachsen"}},{"name":"Clausewitzstr.","postalCode":"04159","locality":"Leipzig","municipality":{"key":"14713000","name":"Leipzig, Stadt","type":"Kreisfreie_Stadt"},"district":{"key":"14713","name":"Leipzig, Stadt","type":"Kreisfreie_Stadt"},"federalState":{"key":"14","name":"Sachsen"}},{"name":"Claußbruchstr.","postalCode":"04159","locality":"Leipzig","municipality":{"key":"14713000","name":"Leipzig, Stadt","type":"Kreisfreie_Stadt"},"district":{"key":"14713","name":"Leipzig, Stadt","type":"Kreisfreie_Stadt"},"federalState":{"key":"14","name":"Sachsen"}},{"name":"Clemens-Thieme-Str.","postalCode":"04288","locality":"Leipzig","municipality":{"key":"14713000","name":"Leipzig, Stadt","type":"Kreisfreie_Stadt"},"district":{"key":"14713","name":"Leipzig, Stadt","type":"Kreisfreie_Stadt"},"federalState":{"key":"14","name":"Sachsen"}},{"name":"Cletzener Weg","postalCode":"04129","locality":"Leipzig","municipality":{"key":"14713000","name":"Leipzig, Stadt","type":"Kreisfreie_Stadt"},"district":{"key":"14713","name":"Leipzig, Stadt","type":"Kreisfreie_Stadt"},"federalState":{"key":"14","name":"Sachsen"}},{"name":"Cleudner Str.","postalCode":"04349","locality":"Leipzig","municipality":{"key":"14713000","name":"Leipzig, Stadt","type":"Kreisfreie_Stadt"},"district":{"key":"14713","name":"Leipzig, Stadt","type":"Kreisfreie_Stadt"},"federalState":{"key":"14","name":"Sachsen"}},{"name":"Coblenzer Str.","postalCode":"04109","locality":"Leipzig","municipality":{"key":"14713000","name":"Leipzig, Stadt","type":"Kreisfreie_Stadt"},"district":{"key":"14713","name":"Leipzig, Stadt","type":"Kreisfreie_Stadt"},"federalState":{"key":"14","name":"Sachsen"}},{"name":"Cocciusstr.","postalCode":"04249","locality":"Leipzig","municipality":{"key":"14713000","name":"Leipzig, Stadt","type":"Kreisfreie_Stadt"},"district":{"key":"14713","name":"Leipzig, Stadt","type":"Kreisfreie_Stadt"},"federalState":{"key":"14","name":"Sachsen"}},{"name":"Cohnheimstr.","postalCode":"04289","locality":"Leipzig","municipality":{"key":"14713000","name":"Leipzig, Stadt","type":"Kreisfreie_Stadt"},"district":{"key":"14713","name":"Leipzig, Stadt","type":"Kreisfreie_Stadt"},"federalState":{"key":"14","name":"Sachsen"}},{"name":"Colberger Weg","postalCode":"04207","locality":"Leipzig","municipality":{"key":"14713000","name":"Leipzig, Stadt","type":"Kreisfreie_Stadt"},"district":{"key":"14713","name":"Leipzig, Stadt","type":"Kreisfreie_Stadt"},"federalState":{"key":"14","name":"Sachsen"}},{"name":"Colmbergsiedlung","postalCode":"04288","locality":"Leipzig","municipality":{"key":"14713000","name":"Leipzig, Stadt","type":"Kreisfreie_Stadt"},"district":{"key":"14713","name":"Leipzig, Stadt","type":"Kreisfreie_Stadt"},"federalState":{"key":"14","name":"Sachsen"}},{"name":"Colmblick","postalCode":"04288","locality":"Leipzig","municipality":{"key":"14713000","name":"Leipzig, Stadt","type":"Kreisfreie_Stadt"},"district":{"key":"14713","name":"Leipzig, Stadt","type":"Kreisfreie_Stadt"},"federalState":{"key":"14","name":"Sachsen"}},{"name":"Comeniusstr.","postalCode":"04315","locality":"Leipzig","municipality":{"key":"14713000","name":"Leipzig, Stadt","type":"Kreisfreie_Stadt"},"district":{"key":"14713","name":"Leipzig, Stadt","type":"Kreisfreie_Stadt"},"federalState":{"key":"14","name":"Sachsen"}},{"name":"Connewitzer Str.","postalCode":"04289","locality":"Leipzig","municipality":{"key":"14713000","name":"Leipzig, Stadt","type":"Kreisfreie_Stadt"},"district":{"key":"14713","name":"Leipzig, Stadt","type":"Kreisfreie_Stadt"},"federalState":{"key":"14","name":"Sachsen"}},{"name":"Coppiplatz","postalCode":"04157","locality":"Leipzig","municipality":{"key":"14713000","name":"Leipzig, Stadt","type":"Kreisfreie_Stadt"},"district":{"key":"14713","name":"Leipzig, Stadt","type":"Kreisfreie_Stadt"},"federalState":{"key":"14","name":"Sachsen"}},{"name":"Coppistr.","postalCode":"04129","locality":"Leipzig","municipality":{"key":"14713000","name":"Leipzig, Stadt","type":"Kreisfreie_Stadt"},"district":{"key":"14713","name":"Leipzig, Stadt","type":"Kreisfreie_Stadt"},"federalState":{"key":"14","name":"Sachsen"}},{"name":"Coppistr.","postalCode":"04157","locality":"Leipzig","municipality":{"key":"14713000","name":"Leipzig, Stadt","type":"Kreisfreie_Stadt"},"district":{"key":"14713","name":"Leipzig, Stadt","type":"Kreisfreie_Stadt"},"federalState":{"key":"14","name":"Sachsen"}},{"name":"Corinthstr.","postalCode":"04157","locality":"Leipzig","municipality":{"key":"14713000","name":"Leipzig, Stadt","type":"Kreisfreie_Stadt"},"district":{"key":"14713","name":"Leipzig, Stadt","type":"Kreisfreie_Stadt"},"federalState":{"key":"14","name":"Sachsen"}},{"name":"Dinterweg","postalCode":"04567","locality":"Kitzscher","municipality":{"key":"14729220","name":"Kitzscher, Stadt","type":"Stadt"},"district":{"key":"14729","name":"Leipzig","type":"Landkreis"},"federalState":{"key":"14","name":"Sachsen"}},{"name":"Dittmannsdorfer Str.","postalCode":"04567","locality":"Kitzscher","municipality":{"key":"14729220","name":"Kitzscher, Stadt","type":"Stadt"},"district":{"key":"14729","name":"Leipzig","type":"Landkreis"},"federalState":{"key":"14","name":"Sachsen"}},{"name":"Dorfstr.","postalCode":"04567","locality":"Kitzscher","municipality":{"key":"14729220","name":"Kitzscher, Stadt","type":"Stadt"},"district":{"key":"14729","name":"Leipzig","type":"Landkreis"},"federalState":{"key":"14","name":"Sachsen"}},{"name":"Ernst-Schneller-Str.","postalCode":"04567","locality":"Kitzscher","municipality":{"key":"14729220","name":"Kitzscher, Stadt","type":"Stadt"},"district":{"key":"14729","name":"Leipzig","type":"Landkreis"},"federalState":{"key":"14","name":"Sachsen"}},{"name":"Eulaaue","postalCode":"04567","locality":"Kitzscher","municipality":{"key":"14729220","name":"Kitzscher, Stadt","type":"Stadt"},"district":{"key":"14729","name":"Leipzig","type":"Landkreis"},"federalState":{"key":"14","name":"Sachsen"}},{"name":"Eulaer Str.","postalCode":"04567","locality":"Kitzscher","municipality":{"key":"14729220","name":"Kitzscher, Stadt","type":"Stadt"},"district":{"key":"14729","name":"Leipzig","type":"Landkreis"},"federalState":{"key":"14","name":"Sachsen"}},{"name":"Feuerwehrstr.","postalCode":"04567","locality":"Kitzscher","municipality":{"key":"14729220","name":"Kitzscher, Stadt","type":"Stadt"},"district":{"key":"14729","name":"Leipzig","type":"Landkreis"},"federalState":{"key":"14","name":"Sachsen"}},{"name":"Flößberger Weg","postalCode":"04567","locality":"Kitzscher","municipality":{"key":"14729220","name":"Kitzscher, Stadt","type":"Stadt"},"district":{"key":"14729","name":"Leipzig","type":"Landkreis"},"federalState":{"key":"14","name":"Sachsen"}},{"name":"Flurweg","postalCode":"04567","locality":"Kitzscher","municipality":{"key":"14729220","name":"Kitzscher, Stadt","type":"Stadt"},"district":{"key":"14729","name":"Leipzig","type":"Landkreis"},"federalState":{"key":"14","name":"Sachsen"}},{"name":"Fröbelstr.","postalCode":"04567","locality":"Kitzscher","municipality":{"key":"14729220","name":"Kitzscher, Stadt","type":"Stadt"},"district":{"key":"14729","name":"Leipzig","type":"Landkreis"},"federalState":{"key":"14","name":"Sachsen"}},{"name":"Gartenstr.","postalCode":"04567","locality":"Kitzscher","municipality":{"key":"14729220","name":"Kitzscher, Stadt","type":"Stadt"},"district":{"key":"14729","name":"Leipzig","type":"Landkreis"},"federalState":{"key":"14","name":"Sachsen"}},{"name":"Gasse","postalCode":"04567","locality":"Kitzscher","municipality":{"key":"14729220","name":"Kitzscher, Stadt","type":"Stadt"},"district":{"key":"14729","name":"Leipzig","type":"Landkreis"},"federalState":{"key":"14","name":"Sachsen"}},{"name":"Glück-Auf-Weg","postalCode":"04567","locality":"Kitzscher","municipality":{"key":"14729220","name":"Kitzscher, Stadt","type":"Stadt"},"district":{"key":"14729","name":"Leipzig","type":"Landkreis"},"federalState":{"key":"14","name":"Sachsen"}},{"name":"Grenzweg","postalCode":"04567","locality":"Kitzscher","municipality":{"key":"14729220","name":"Kitzscher, Stadt","type":"Stadt"},"district":{"key":"14729","name":"Leipzig","type":"Landkreis"},"federalState":{"key":"14","name":"Sachsen"}},{"name":"Gutshof","postalCode":"04567","locality":"Kitzscher","municipality":{"key":"14729220","name":"Kitzscher, Stadt","type":"Stadt"},"district":{"key":"14729","name":"Leipzig","type":"Landkreis"},"federalState":{"key":"14","name":"Sachsen"}},{"name":"Hainicher Str.","postalCode":"04567","locality":"Kitzscher","municipality":{"key":"14729220","name":"Kitzscher, Stadt","type":"Stadt"},"district":{"key":"14729","name":"Leipzig","type":"Landkreis"},"federalState":{"key":"14","name":"Sachsen"}},{"name":"Häuerweg","postalCode":"04567","locality":"Kitzscher","municipality":{"key":"14729220","name":"Kitzscher, Stadt","type":"Stadt"},"district":{"key":"14729","name":"Leipzig","type":"Landkreis"},"federalState":{"key":"14","name":"Sachsen"}},{"name":"Hauptstr.","postalCode":"04567","locality":"Kitzscher","municipality":{"key":"14729220","name":"Kitzscher, Stadt","type":"Stadt"},"district":{"key":"14729","name":"Leipzig","type":"Landkreis"},"federalState":{"key":"14","name":"Sachsen"}},{"name":"Herderweg","postalCode":"04567","locality":"Kitzscher","municipality":{"key":"14729220","name":"Kitzscher, Stadt","type":"Stadt"},"district":{"key":"14729","name":"Leipzig","type":"Landkreis"},"federalState":{"key":"14","name":"Sachsen"}},{"name":"Heuweg","postalCode":"04567","locality":"Kitzscher","municipality":{"key":"14729220","name":"Kitzscher, Stadt","type":"Stadt"},"district":{"key":"14729","name":"Leipzig","type":"Landkreis"},"federalState":{"key":"14","name":"Sachsen"}},{"name":"Hohlweg","postalCode":"04567","locality":"Kitzscher","municipality":{"key":"14729220","name":"Kitzscher, Stadt","type":"Stadt"},"district":{"key":"14729","name":"Leipzig","type":"Landkreis"},"federalState":{"key":"14","name":"Sachsen"}},{"name":"Idastr.","postalCode":"04315","locality":"Leipzig","municipality":{"key":"14713000","name":"Leipzig, Stadt","type":"Kreisfreie_Stadt"},"district":{"key":"14713","name":"Leipzig, Stadt","type":"Kreisfreie_Stadt"},"federalState":{"key":"14","name":"Sachsen"}},{"name":"Idunweg","postalCode":"04349","locality":"Leipzig","municipality":{"key":"14713000","name":"Leipzig, Stadt","type":"Kreisfreie_Stadt"},"district":{"key":"14713","name":"Leipzig, Stadt","type":"Kreisfreie_Stadt"},"federalState":{"key":"14","name":"Sachsen"}},{"name":"Igelstr.","postalCode":"04329","locality":"Leipzig","municipality":{"key":"14713000","name":"Leipzig, Stadt","type":"Kreisfreie_Stadt"},"district":{"key":"14713","name":"Leipzig, Stadt","type":"Kreisfreie_Stadt"},"federalState":{"key":"14","name":"Sachsen"}},{"name":"Igelweg","postalCode":"04279","locality":"Leipzig","municipality":{"key":"14713000","name":"Leipzig, Stadt","type":"Kreisfreie_Stadt"},"district":{"key":"14713","name":"Leipzig, Stadt","type":"Kreisfreie_Stadt"},"federalState":{"key":"14","name":"Sachsen"}},{"name":"Igelweg","postalCode":"04316","locality":"Leipzig","municipality":{"key":"14713000","name":"Leipzig, Stadt","type":"Kreisfreie_Stadt"},"district":{"key":"14713","name":"Leipzig, Stadt","type":"Kreisfreie_Stadt"},"federalState":{"key":"14","name":"Sachsen"}},{"name":"Ihmelsstr.","postalCode":"04315","locality":"Leipzig","municipality":{"key":"14713000","name":"Leipzig, Stadt","type":"Kreisfreie_Stadt"},"district":{"key":"14713","name":"Leipzig, Stadt","type":"Kreisfreie_Stadt"},"federalState":{"key":"14","name":"Sachsen"}},{"name":"Ilmenauer Weg","postalCode":"04205","locality":"Leipzig","municipality":{"key":"14713000","name":"Leipzig, Stadt","type":"Kreisfreie_Stadt"},"district":{"key":"14713","name":"Leipzig, Stadt","type":"Kreisfreie_Stadt"},"federalState":{"key":"14","name":"Sachsen"}},{"name":"Ilse-Decho-Weg","postalCode":"04319","locality":"Leipzig","municipality":{"key":"14713000","name":"Leipzig, Stadt","type":"Kreisfreie_Stadt"},"district":{"key":"14713","name":"Leipzig, Stadt","type":"Kreisfreie_Stadt"},"federalState":{"key":"14","name":"Sachsen"}},{"name":"Iltispfad","postalCode":"04249","locality":"Leipzig","municipality":{"key":"14713000","name":"Leipzig, Stadt","type":"Kreisfreie_Stadt"},"district":{"key":"14713","name":"Leipzig, Stadt","type":"Kreisfreie_Stadt"},"federalState":{"key":"14","name":"Sachsen"}},{"name":"Im Birkengrund","postalCode":"04288","locality":"Leipzig","municipality":{"key":"14713000","name":"Leipzig, Stadt","type":"Kreisfreie_Stadt"},"district":{"key":"14713","name":"Leipzig, Stadt","type":"Kreisfreie_Stadt"},"federalState":{"key":"14","name":"Sachsen"}},{"name":"Im Blumengrund","postalCode":"04319","locality":"Leipzig","municipality":{"key":"14713000","name":"Leipzig, Stadt","type":"Kreisfreie_Stadt"},"district":{"key":"14713","name":"Leipzig, Stadt","type":"Kreisfreie_Stadt"},"federalState":{"key":"14","name":"Sachsen"}},{"name":"Im Dölitzer Holz","postalCode":"04279","locality":"Leipzig","municipality":{"key":"14713000","name":"Leipzig, Stadt","type":"Kreisfreie_Stadt"},"district":{"key":"14713","name":"Leipzig, Stadt","type":"Kreisfreie_Stadt"},"federalState":{"key":"14","name":"Sachsen"}},{"name":"Im Limburgerpark","postalCode":"04279","locality":"Leipzig","municipality":{"key":"14713000","name":"Leipzig, Stadt","type":"Kreisfreie_Stadt"},"district":{"key":"14713","name":"Leipzig, Stadt","type":"Kreisfreie_Stadt"},"federalState":{"key":"14","name":"Sachsen"}},{"name":"Im Lindengrund","postalCode":"04288","locality":"Leipzig","municipality":{"key":"14713000","name":"Leipzig, Stadt","type":"Kreisfreie_Stadt"},"district":{"key":"14713","name":"Leipzig, Stadt","type":"Kreisfreie_Stadt"},"federalState":{"key":"14","name":"Sachsen"}},{"name":"Immenstr.","postalCode":"04249","locality":"Leipzig","municipality":{"key":"14713000","name":"Leipzig, Stadt","type":"Kreisfreie_Stadt"},"district":{"key":"14713","name":"Leipzig, Stadt","type":"Kreisfreie_Stadt"},"federalState":{"key":"14","name":"Sachsen"}},{"name":"Immischweg","postalCode":"04279","locality":"Leipzig","municipality":{"key":"14713000","name":"Leipzig, Stadt","type":"Kreisfreie_Stadt"},"district":{"key":"14713","name":"Leipzig, Stadt","type":"Kreisfreie_Stadt"},"federalState":{"key":"14","name":"Sachsen"}},{"name":"Im Tannengrund","postalCode":"04288","locality":"Leipzig","municipality":{"key":"14713000","name":"Leipzig, Stadt","type":"Kreisfreie_Stadt"},"district":{"key":"14713","name":"Leipzig, Stadt","type":"Kreisfreie_Stadt"},"federalState":{"key":"14","name":"Sachsen"}},{"name":"Im Weidengrund","postalCode":"04288","locality":"Leipzig","municipality":{"key":"14713000","name":"Leipzig, Stadt","type":"Kreisfreie_Stadt"},"district":{"key":"14713","name":"Leipzig, Stadt","type":"Kreisfreie_Stadt"},"federalState":{"key":"14","name":"Sachsen"}},{"name":"Im Winkel","postalCode":"04178","locality":"Leipzig","municipality":{"key":"14713000","name":"Leipzig, Stadt","type":"Kreisfreie_Stadt"},"district":{"key":"14713","name":"Leipzig, Stadt","type":"Kreisfreie_Stadt"},"federalState":{"key":"14","name":"Sachsen"}},{"name":"Im Zipfel","postalCode":"04159","locality":"Leipzig","municipality":{"key":"14713000","name":"Leipzig, Stadt","type":"Kreisfreie_Stadt"},"district":{"key":"14713","name":"Leipzig, Stadt","type":"Kreisfreie_Stadt"},"federalState":{"key":"14","name":"Sachsen"}},{"name":"Industriestr.","postalCode":"04229","locality":"Leipzig","municipality":{"key":"14713000","name":"Leipzig, Stadt","type":"Kreisfreie_Stadt"},"district":{"key":"14713","name":"Leipzig, Stadt","type":"Kreisfreie_Stadt"},"federalState":{"key":"14","name":"Sachsen"}},{"name":"Ingwerweg","postalCode":"04158","locality":"Leipzig","municipality":{"key":"14713000","name":"Leipzig, Stadt","type":"Kreisfreie_Stadt"},"district":{"key":"14713","name":"Leipzig, Stadt","type":"Kreisfreie_Stadt"},"federalState":{"key":"14","name":"Sachsen"}},{"name":"Innenring","postalCode":"04158","locality":"Leipzig","municipality":{"key":"14713000","name":"Leipzig, Stadt","type":"Kreisfreie_Stadt"},"district":{"key":"14713","name":"Leipzig, Stadt","type":"Kreisfreie_Stadt"},"federalState":{"key":"14","name":"Sachsen"}},{"name":"Inselstr.","postalCode":"04103","locality":"Leipzig","municipality":{"key":"14713000","name":"Leipzig, Stadt","type":"Kreisfreie_Stadt"},"district":{"key":"14713","name":"Leipzig, Stadt","type":"Kreisfreie_Stadt"},"federalState":{"key":"14","name":"Sachsen"}},{"name":"Irisweg","postalCode":"04157","locality":"Leipzig","municipality":{"key":"14713000","name":"Leipzig, Stadt","type":"Kreisfreie_Stadt"},"district":{"key":"14713","name":"Leipzig, Stadt","type":"Kreisfreie_Stadt"},"federalState":{"key":"14","name":"Sachsen"}},{"name":"Italiaanderstr.","postalCode":"04349","locality":"Leipzig","municipality":{"key":"14713000","name":"Leipzig, Stadt","type":"Kreisfreie_Stadt"},"district":{"key":"14713","name":"Leipzig, Stadt","type":"Kreisfreie_Stadt"},"federalState":{"key":"14","name":"Sachsen"}},{"name":"Jack-London-Weg","postalCode":"04289","locality":"Leipzig","municipality":{"key":"14713000","name":"Leipzig, Stadt","type":"Kreisfreie_Stadt"},"district":{"key":"14713","name":"Leipzig, Stadt","type":"Kreisfreie_Stadt"},"federalState":{"key":"14","name":"Sachsen"}},{"name":"Jacobstr.","postalCode":"04105","locality":"Leipzig","municipality":{"key":"14713000","name":"Leipzig, Stadt","type":"Kreisfreie_Stadt"},"district":{"key":"14713","name":"Leipzig, Stadt","type":"Kreisfreie_Stadt"},"federalState":{"key":"14","name":"Sachsen"}},{"name":"Jadassohnstr.","postalCode":"04179","locality":"Leipzig","municipality":{"key":"14713000","name":"Leipzig, Stadt","type":"Kreisfreie_Stadt"},"district":{"key":"14713","name":"Leipzig, Stadt","type":"Kreisfreie_Stadt"},"federalState":{"key":"14","name":"Sachsen"}},{"name":"Jadebogen","postalCode":"04319","locality":"Leipzig","municipality":{"key":"14713000","name":"Leipzig, Stadt","type":"Kreisfreie_Stadt"},"district":{"key":"14713","name":"Leipzig, Stadt","type":"Kreisfreie_Stadt"},"federalState":{"key":"14","name":"Sachsen"}},{"name":"Jägerhofpassage","postalCode":"04109","locality":"Leipzig","municipality":{"key":"14713000","name":"Leipzig, Stadt","type":"Kreisfreie_Stadt"},"district":{"key":"14713","name":"Leipzig, Stadt","type":"Kreisfreie_Stadt"},"federalState":{"key":"14","name":"Sachsen"}},{"name":"Jägerstr.","postalCode":"04157","locality":"Leipzig","municipality":{"key":"14713000","name":"Leipzig, Stadt","type":"Kreisfreie_Stadt"},"district":{"key":"14713","name":"Leipzig, Stadt","type":"Kreisfreie_Stadt"},"federalState":{"key":"14","name":"Sachsen"}},{"name":"Jahnallee","postalCode":"04109","locality":"Leipzig","municipality":{"key":"14713000","name":"Leipzig, Stadt","type":"Kreisfreie_Stadt"},"district":{"key":"14713","name":"Leipzig, Stadt","type":"Kreisfreie_Stadt"},"federalState":{"key":"14","name":"Sachsen"}},{"name":"Jahnallee","postalCode":"04177","locality":"Leipzig","municipality":{"key":"14713000","name":"Leipzig, Stadt","type":"Kreisfreie_Stadt"},"district":{"key":"14713","name":"Leipzig, Stadt","type":"Kreisfreie_Stadt"},"federalState":{"key":"14","name":"Sachsen"}},{"name":"Jahnstr.","postalCode":"04288","locality":"Leipzig","municipality":{"key":"14713000","name":"Leipzig, Stadt","type":"Kreisfreie_Stadt"},"district":{"key":"14713","name":"Leipzig, Stadt","type":"Kreisfreie_Stadt"},"federalState":{"key":"14","name":"Sachsen"}},{"name":"Jahnweg","postalCode":"04319","locality":"Leipzig","municipality":{"key":"14713000","name":"Leipzig, Stadt","type":"Kreisfreie_Stadt"},"district":{"key":"14713","name":"Leipzig, Stadt","type":"Kreisfreie_Stadt"},"federalState":{"key":"14","name":"Sachsen"}},{"name":"Jahrtausendfeld","postalCode":"04177","locality":"Leipzig","municipality":{"key":"14713000","name":"Leipzig, Stadt","type":"Kreisfreie_Stadt"},"district":{"key":"14713","name":"Leipzig, Stadt","type":"Kreisfreie_Stadt"},"federalState":{"key":"14","name":"Sachsen"}},{"name":"Jakobiwinkel","postalCode":"04178","locality":"Leipzig","municipality":{"key":"14713000","name":"Leipzig, Stadt","type":"Kreisfreie_Stadt"},"district":{"key":"14713","name":"Leipzig, Stadt","type":"Kreisfreie_Stadt"},"federalState":{"key":"14","name":"Sachsen"}},{"name":"Jasminweg","postalCode":"04318","locality":"Leipzig","municipality":{"key":"14713000","name":"Leipzig, Stadt","type":"Kreisfreie_Stadt"},"district":{"key":"14713","name":"Leipzig, Stadt","type":"Kreisfreie_Stadt"},"federalState":{"key":"14","name":"Sachsen"}},{"name":"Jaspisstr.","postalCode":"04319","locality":"Leipzig","municipality":{"key":"14713000","name":"Leipzig, Stadt","type":"Kreisfreie_Stadt"},"district":{"key":"14713","name":"Leipzig, Stadt","type":"Kreisfreie_Stadt"},"federalState":{"key":"14","name":"Sachsen"}},{"name":"J.-C.-Hinrichs-Str.","postalCode":"04315","locality":"Leipzig","municipality":{"key":"14713000","name":"Leipzig, Stadt","type":"Kreisfreie_Stadt"},"district":{"key":"14713","name":"Leipzig, Stadt","type":"Kreisfreie_Stadt"},"federalState":{"key":"14","name":"Sachsen"}},{"name":"Joachim-Gottschalk-Weg","postalCode":"04289","locality":"Leipzig","municipality":{"key":"14713000","name":"Leipzig, Stadt","type":"Kreisfreie_Stadt"},"district":{"key":"14713","name":"Leipzig, Stadt","type":"Kreisfreie_Stadt"},"federalState":{"key":"14","name":"Sachsen"}},{"name":"Jöcherstr.","postalCode":"04318","locality":"Leipzig","municipality":{"key":"14713000","name":"Leipzig, Stadt","type":"Kreisfreie_Stadt"},"district":{"key":"14713","name":"Leipzig, Stadt","type":"Kreisfreie_Stadt"},"federalState":{"key":"14","name":"Sachsen"}},{"name":"Johann-Adolf-Str.","postalCode":"04279","locality":"Leipzig","municipality":{"key":"14713000","name":"Leipzig, Stadt","type":"Kreisfreie_Stadt"},"district":{"key":"14713","name":"Leipzig, Stadt","type":"Kreisfreie_Stadt"},"federalState":{"key":"14","name":"Sachsen"}},{"name":"Johannastr.","postalCode":"04279","locality":"Leipzig","municipality":{"key":"14713000","name":"Leipzig, Stadt","type":"Kreisfreie_Stadt"},"district":{"key":"14713","name":"Leipzig, Stadt","type":"Kreisfreie_Stadt"},"federalState":{"key":"14","name":"Sachsen"}},{"name":"Johannes-Kärner-Str.","postalCode":"04328","locality":"Leipzig","municipality":{"key":"14713000","name":"Leipzig, Stadt","type":"Kreisfreie_Stadt"},"district":{"key":"14713","name":"Leipzig, Stadt","type":"Kreisfreie_Stadt"},"federalState":{"key":"14","name":"Sachsen"}},{"name":"Johannes-R.-Becher-Str.","postalCode":"04279","locality":"Leipzig","municipality":{"key":"14713000","name":"Leipzig, Stadt","type":"Kreisfreie_Stadt"},"district":{"key":"14713","name":"Leipzig, Stadt","type":"Kreisfreie_Stadt"},"federalState":{"key":"14","name":"Sachsen"}},{"name":"Johannes-Weyrauch-Platz","postalCode":"04178","locality":"Leipzig","municipality":{"key":"14713000","name":"Leipzig, Stadt","type":"Kreisfreie_Stadt"},"district":{"key":"14713","name":"Leipzig, Stadt","type":"Kreisfreie_Stadt"},"federalState":{"key":"14","name":"Sachsen"}},{"name":"Johannisallee","postalCode":"04103","locality":"Leipzig","municipality":{"key":"14713000","name":"Leipzig, Stadt","type":"Kreisfreie_Stadt"},"district":{"key":"14713","name":"Leipzig, Stadt","type":"Kreisfreie_Stadt"},"federalState":{"key":"14","name":"Sachsen"}},{"name":"Johannisallee","postalCode":"04317","locality":"Leipzig","municipality":{"key":"14713000","name":"Leipzig, Stadt","type":"Kreisfreie_Stadt"},"district":{"key":"14713","name":"Leipzig, Stadt","type":"Kreisfreie_Stadt"},"federalState":{"key":"14","name":"Sachsen"}},{"name":"Johannisgasse","postalCode":"04103","locality":"Leipzig","municipality":{"key":"14713000","name":"Leipzig, Stadt","type":"Kreisfreie_Stadt"},"district":{"key":"14713","name":"Leipzig, Stadt","type":"Kreisfreie_Stadt"},"federalState":{"key":"14","name":"Sachsen"}},{"name":"Johannishöhe","postalCode":"04279","locality":"Leipzig","municipality":{"key":"14713000","name":"Leipzig, Stadt","type":"Kreisfreie_Stadt"},"district":{"key":"14713","name":"Leipzig, Stadt","type":"Kreisfreie_Stadt"},"federalState":{"key":"14","name":"Sachsen"}},{"name":"Johannisplatz","postalCode":"04103","locality":"Leipzig","municipality":{"key":"14713000","name":"Leipzig, Stadt","type":"Kreisfreie_Stadt"},"district":{"key":"14713","name":"Leipzig, Stadt","type":"Kreisfreie_Stadt"},"federalState":{"key":"14","name":"Sachsen"}},{"name":"Johann-Jakob-Weber-Platz","postalCode":"04299","locality":"Leipzig","municipality":{"key":"14713000","name":"Leipzig, Stadt","type":"Kreisfreie_Stadt"},"district":{"key":"14713","name":"Leipzig, Stadt","type":"Kreisfreie_Stadt"},"federalState":{"key":"14","name":"Sachsen"}},{"name":"Johnsonweg","postalCode":"04289","locality":"Leipzig","municipality":{"key":"14713000","name":"Leipzig, Stadt","type":"Kreisfreie_Stadt"},"district":{"key":"14713","name":"Leipzig, Stadt","type":"Kreisfreie_Stadt"},"federalState":{"key":"14","name":"Sachsen"}},{"name":"Jöhstädter Str.","postalCode":"04349","locality":"Leipzig","municipality":{"key":"14713000","name":"Leipzig, Stadt","type":"Kreisfreie_Stadt"},"district":{"key":"14713","name":"Leipzig, Stadt","type":"Kreisfreie_Stadt"},"federalState":{"key":"14","name":"Sachsen"}},{"name":"Jonasstr.","postalCode":"04315","locality":"Leipzig","municipality":{"key":"14713000","name":"Leipzig, Stadt","type":"Kreisfreie_Stadt"},"district":{"key":"14713","name":"Leipzig, Stadt","type":"Kreisfreie_Stadt"},"federalState":{"key":"14","name":"Sachsen"}},{"name":"Jonsdorfer Str.","postalCode":"04207","locality":"Leipzig","municipality":{"key":"14713000","name":"Leipzig, Stadt","type":"Kreisfreie_Stadt"},"district":{"key":"14713","name":"Leipzig, Stadt","type":"Kreisfreie_Stadt"},"federalState":{"key":"14","name":"Sachsen"}},{"name":"Jordanstr.","postalCode":"04177","locality":"Leipzig","municipality":{"key":"14713000","name":"Leipzig, Stadt","type":"Kreisfreie_Stadt"},"district":{"key":"14713","name":"Leipzig, Stadt","type":"Kreisfreie_Stadt"},"federalState":{"key":"14","name":"Sachsen"}},{"name":"Jörgen-Schmidtchen-Weg","postalCode":"04157","locality":"Leipzig","municipality":{"key":"14713000","name":"Leipzig, Stadt","type":"Kreisfreie_Stadt"},"district":{"key":"14713","name":"Leipzig, Stadt","type":"Kreisfreie_Stadt"},"federalState":{"key":"14","name":"Sachsen"}},{"name":"Josephinenstr.","postalCode":"04317","locality":"Leipzig","municipality":{"key":"14713000","name":"Leipzig, Stadt","type":"Kreisfreie_Stadt"},"district":{"key":"14713","name":"Leipzig, Stadt","type":"Kreisfreie_Stadt"},"federalState":{"key":"14","name":"Sachsen"}},{"name":"Josephstr.","postalCode":"04177","locality":"Leipzig","municipality":{"key":"14713000","name":"Leipzig, Stadt","type":"Kreisfreie_Stadt"},"district":{"key":"14713","name":"Leipzig, Stadt","type":"Kreisfreie_Stadt"},"federalState":{"key":"14","name":"Sachsen"}},{"name":"Jouleweg","postalCode":"04299","locality":"Leipzig","municipality":{"key":"14713000","name":"Leipzig, Stadt","type":"Kreisfreie_Stadt"},"district":{"key":"14713","name":"Leipzig, Stadt","type":"Kreisfreie_Stadt"},"federalState":{"key":"14","name":"Sachsen"}},{"name":"Judith-Auer-Str.","postalCode":"04317","locality":"Leipzig","municipality":{"key":"14713000","name":"Leipzig, Stadt","type":"Kreisfreie_Stadt"},"district":{"key":"14713","name":"Leipzig, Stadt","type":"Kreisfreie_Stadt"},"federalState":{"key":"14","name":"Sachsen"}},{"name":"Juister Weg","postalCode":"04157","locality":"Leipzig","municipality":{"key":"14713000","name":"Leipzig, Stadt","type":"Kreisfreie_Stadt"},"district":{"key":"14713","name":"Leipzig, Stadt","type":"Kreisfreie_Stadt"},"federalState":{"key":"14","name":"Sachsen"}},{"name":"Julian-Marchlewski-Str.","postalCode":"04347","locality":"Leipzig","municipality":{"key":"14713000","name":"Leipzig, Stadt","type":"Kreisfreie_Stadt"},"district":{"key":"14713","name":"Leipzig, Stadt","type":"Kreisfreie_Stadt"},"federalState":{"key":"14","name":"Sachsen"}},{"name":"Julius-Krause-Str.","postalCode":"04318","locality":"Leipzig","municipality":{"key":"14713000","name":"Leipzig, Stadt","type":"Kreisfreie_Stadt"},"district":{"key":"14713","name":"Leipzig, Stadt","type":"Kreisfreie_Stadt"},"federalState":{"key":"14","name":"Sachsen"}},{"name":"Juliusstr.","postalCode":"04315","locality":"Leipzig","municipality":{"key":"14713000","name":"Leipzig, Stadt","type":"Kreisfreie_Stadt"},"district":{"key":"14713","name":"Leipzig, Stadt","type":"Kreisfreie_Stadt"},"federalState":{"key":"14","name":"Sachsen"}},{"name":"Jungfernstiege","postalCode":"04159","locality":"Leipzig","municipality":{"key":"14713000","name":"Leipzig, Stadt","type":"Kreisfreie_Stadt"},"district":{"key":"14713","name":"Leipzig, Stadt","type":"Kreisfreie_Stadt"},"federalState":{"key":"14","name":"Sachsen"}},{"name":"Junghanßstr.","postalCode":"04179","locality":"Leipzig","municipality":{"key":"14713000","name":"Leipzig, Stadt","type":"Kreisfreie_Stadt"},"district":{"key":"14713","name":"Leipzig, Stadt","type":"Kreisfreie_Stadt"},"federalState":{"key":"14","name":"Sachsen"}},{"name":"Jupiterstr.","postalCode":"04205","locality":"Leipzig","municipality":{"key":"14713000","name":"Leipzig, Stadt","type":"Kreisfreie_Stadt"},"district":{"key":"14713","name":"Leipzig, Stadt","type":"Kreisfreie_Stadt"},"federalState":{"key":"14","name":"Sachsen"}},{"name":"Jupp-Müller-Str.","postalCode":"04159","locality":"Leipzig","municipality":{"key":"14713000","name":"Leipzig, Stadt","type":"Kreisfreie_Stadt"},"district":{"key":"14713","name":"Leipzig, Stadt","type":"Kreisfreie_Stadt"},"federalState":{"key":"14","name":"Sachsen"}},{"name":"Juridicum-Passage","postalCode":"04109","locality":"Leipzig","municipality":{"key":"14713000","name":"Leipzig, Stadt","type":"Kreisfreie_Stadt"},"district":{"key":"14713","name":"Leipzig, Stadt","type":"Kreisfreie_Stadt"},"federalState":{"key":"14","name":"Sachsen"}},{"name":"Jutta-Hipp-Weg","postalCode":"04289","locality":"Leipzig","municipality":{"key":"14713000","name":"Leipzig, Stadt","type":"Kreisfreie_Stadt"},"district":{"key":"14713","name":"Leipzig, Stadt","type":"Kreisfreie_Stadt"},"federalState":{"key":"14","name":"Sachsen"}},{"name":"Karl-Liebknecht-Str.","postalCode":"04567","locality":"Kitzscher","municipality":{"key":"14729220","name":"Kitzscher, Stadt","type":"Stadt"},"district":{"key":"14729","name":"Leipzig","type":"Landkreis"},"federalState":{"key":"14","name":"Sachsen"}},{"name":"Kastanienallee","postalCode":"04567","locality":"Kitzscher","municipality":{"key":"14729220","name":"Kitzscher, Stadt","type":"Stadt"},"district":{"key":"14729","name":"Leipzig","type":"Landkreis"},"federalState":{"key":"14","name":"Sachsen"}},{"name":"Kirchsteig","postalCode":"04567","locality":"Kitzscher","municipality":{"key":"14729220","name":"Kitzscher, Stadt","type":"Stadt"},"district":{"key":"14729","name":"Leipzig","type":"Landkreis"},"federalState":{"key":"14","name":"Sachsen"}},{"name":"Kleinbeuchaer Weg","postalCode":"04567","locality":"Kitzscher","municipality":{"key":"14729220","name":"Kitzscher, Stadt","type":"Stadt"},"district":{"key":"14729","name":"Leipzig","type":"Landkreis"},"federalState":{"key":"14","name":"Sachsen"}},{"name":"Klingenbergstr.","postalCode":"04567","locality":"Kitzscher","municipality":{"key":"14729220","name":"Kitzscher, Stadt","type":"Stadt"},"district":{"key":"14729","name":"Leipzig","type":"Landkreis"},"federalState":{"key":"14","name":"Sachsen"}},{"name":"Knappenweg","postalCode":"04567","locality":"Kitzscher","municipality":{"key":"14729220","name":"Kitzscher, Stadt","type":"Stadt"},"district":{"key":"14729","name":"Leipzig","type":"Landkreis"},"federalState":{"key":"14","name":"Sachsen"}},{"name":"Kömmlitzer Str.","postalCode":"04567","locality":"Kitzscher","municipality":{"key":"14729220","name":"Kitzscher, Stadt","type":"Stadt"},"district":{"key":"14729","name":"Leipzig","type":"Landkreis"},"federalState":{"key":"14","name":"Sachsen"}},{"name":"Kurt-Schönfelder-Str.","postalCode":"04567","locality":"Kitzscher","municipality":{"key":"14729220","name":"Kitzscher, Stadt","type":"Stadt"},"district":{"key":"14729","name":"Leipzig","type":"Landkreis"},"federalState":{"key":"14","name":"Sachsen"}},{"name":"Landrain","postalCode":"04567","locality":"Kitzscher","municipality":{"key":"14729220","name":"Kitzscher, Stadt","type":"Stadt"},"district":{"key":"14729","name":"Leipzig","type":"Landkreis"},"federalState":{"key":"14","name":"Sachsen"}},{"name":"Landstr.","postalCode":"04567","locality":"Kitzscher","municipality":{"key":"14729220","name":"Kitzscher, Stadt","type":"Stadt"},"district":{"key":"14729","name":"Leipzig","type":"Landkreis"},"federalState":{"key":"14","name":"Sachsen"}},{"name":"Lärchenstr.","postalCode":"04567","locality":"Kitzscher","municipality":{"key":"14729220","name":"Kitzscher, Stadt","type":"Stadt"},"district":{"key":"14729","name":"Leipzig","type":"Landkreis"},"federalState":{"key":"14","name":"Sachsen"}},{"name":"Leipziger Str.","postalCode":"04567","locality":"Kitzscher","municipality":{"key":"14729220","name":"Kitzscher, Stadt","type":"Stadt"},"district":{"key":"14729","name":"Leipzig","type":"Landkreis"},"federalState":{"key":"14","name":"Sachsen"}},{"name":"Lindhardt","postalCode":"04567","locality":"Kitzscher","municipality":{"key":"14729220","name":"Kitzscher, Stadt","type":"Stadt"},"district":{"key":"14729","name":"Leipzig","type":"Landkreis"},"federalState":{"key":"14","name":"Sachsen"}},{"name":"Mölbiser Str.","postalCode":"04567","locality":"Kitzscher","municipality":{"key":"14729220","name":"Kitzscher, Stadt","type":"Stadt"},"district":{"key":"14729","name":"Leipzig","type":"Landkreis"},"federalState":{"key":"14","name":"Sachsen"}},{"name":"Mühlenbergstr.","postalCode":"04567","locality":"Kitzscher","municipality":{"key":"14729220","name":"Kitzscher, Stadt","type":"Stadt"},"district":{"key":"14729","name":"Leipzig","type":"Landkreis"},"federalState":{"key":"14","name":"Sachsen"}},{"name":"Mühlenstr.","postalCode":"04567","locality":"Kitzscher","municipality":{"key":"14729220","name":"Kitzscher, Stadt","type":"Stadt"},"district":{"key":"14729","name":"Leipzig","type":"Landkreis"},"federalState":{"key":"14","name":"Sachsen"}},{"name":"Neudorf","postalCode":"04567","locality":"Kitzscher","municipality":{"key":"14729220","name":"Kitzscher, Stadt","type":"Stadt"},"district":{"key":"14729","name":"Leipzig","type":"Landkreis"},"federalState":{"key":"14","name":"Sachsen"}},{"name":"Neue Mölbiser Str.","postalCode":"04567","locality":"Kitzscher","municipality":{"key":"14729220","name":"Kitzscher, Stadt","type":"Stadt"},"district":{"key":"14729","name":"Leipzig","type":"Landkreis"},"federalState":{"key":"14","name":"Sachsen"}},{"name":"Nordstr.","postalCode":"04567","locality":"Kitzscher","municipality":{"key":"14729220","name":"Kitzscher, Stadt","type":"Stadt"},"district":{"key":"14729","name":"Leipzig","type":"Landkreis"},"federalState":{"key":"14","name":"Sachsen"}},{"name":"Oelzschauer Str.","postalCode":"04567","locality":"Kitzscher","municipality":{"key":"14729220","name":"Kitzscher, Stadt","type":"Stadt"},"district":{"key":"14729","name":"Leipzig","type":"Landkreis"},"federalState":{"key":"14","name":"Sachsen"}},{"name":"Oststr.","postalCode":"04567","locality":"Kitzscher","municipality":{"key":"14729220","name":"Kitzscher, Stadt","type":"Stadt"},"district":{"key":"14729","name":"Leipzig","type":"Landkreis"},"federalState":{"key":"14","name":"Sachsen"}},{"name":"Otterwischer Str.","postalCode":"04567","locality":"Kitzscher","municipality":{"key":"14729220","name":"Kitzscher, Stadt","type":"Stadt"},"district":{"key":"14729","name":"Leipzig","type":"Landkreis"},"federalState":{"key":"14","name":"Sachsen"}},{"name":"Pappelstr.","postalCode":"04567","locality":"Kitzscher","municipality":{"key":"14729220","name":"Kitzscher, Stadt","type":"Stadt"},"district":{"key":"14729","name":"Leipzig","type":"Landkreis"},"federalState":{"key":"14","name":"Sachsen"}},{"name":"Parkstr.","postalCode":"04567","locality":"Kitzscher","municipality":{"key":"14729220","name":"Kitzscher, Stadt","type":"Stadt"},"district":{"key":"14729","name":"Leipzig","type":"Landkreis"},"federalState":{"key":"14","name":"Sachsen"}},{"name":"Parkweg","postalCode":"04567","locality":"Kitzscher","municipality":{"key":"14729220","name":"Kitzscher, Stadt","type":"Stadt"},"district":{"key":"14729","name":"Leipzig","type":"Landkreis"},"federalState":{"key":"14","name":"Sachsen"}},{"name":"Pestalozzistr.","postalCode":"04567","locality":"Kitzscher","municipality":{"key":"14729220","name":"Kitzscher, Stadt","type":"Stadt"},"district":{"key":"14729","name":"Leipzig","type":"Landkreis"},"federalState":{"key":"14","name":"Sachsen"}},{"name":"Querschlag","postalCode":"04567","locality":"Kitzscher","municipality":{"key":"14729220","name":"Kitzscher, Stadt","type":"Stadt"},"district":{"key":"14729","name":"Leipzig","type":"Landkreis"},"federalState":{"key":"14","name":"Sachsen"}},{"name":"Randsiedlung","postalCode":"04567","locality":"Kitzscher","municipality":{"key":"14729220","name":"Kitzscher, Stadt","type":"Stadt"},"district":{"key":"14729","name":"Leipzig","type":"Landkreis"},"federalState":{"key":"14","name":"Sachsen"}},{"name":"Rathenaustr.","postalCode":"04567","locality":"Kitzscher","municipality":{"key":"14729220","name":"Kitzscher, Stadt","type":"Stadt"},"district":{"key":"14729","name":"Leipzig","type":"Landkreis"},"federalState":{"key":"14","name":"Sachsen"}},{"name":"Rittergutsgasse","postalCode":"04567","locality":"Kitzscher","municipality":{"key":"14729220","name":"Kitzscher, Stadt","type":"Stadt"},"district":{"key":"14729","name":"Leipzig","type":"Landkreis"},"federalState":{"key":"14","name":"Sachsen"}},{"name":"Robert-Koch-Str.","postalCode":"04567","locality":"Kitzscher","municipality":{"key":"14729220","name":"Kitzscher, Stadt","type":"Stadt"},"district":{"key":"14729","name":"Leipzig","type":"Landkreis"},"federalState":{"key":"14","name":"Sachsen"}},{"name":"Rohrbacher Str.","postalCode":"04567","locality":"Kitzscher","municipality":{"key":"14729220","name":"Kitzscher, Stadt","type":"Stadt"},"district":{"key":"14729","name":"Leipzig","type":"Landkreis"},"federalState":{"key":"14","name":"Sachsen"}},{"name":"Rosengasse","postalCode":"04567","locality":"Kitzscher","municipality":{"key":"14729220","name":"Kitzscher, Stadt","type":"Stadt"},"district":{"key":"14729","name":"Leipzig","type":"Landkreis"},"federalState":{"key":"14","name":"Sachsen"}},{"name":"Schafteichweg","postalCode":"04567","locality":"Kitzscher","municipality":{"key":"14729220","name":"Kitzscher, Stadt","type":"Stadt"},"district":{"key":"14729","name":"Leipzig","type":"Landkreis"},"federalState":{"key":"14","name":"Sachsen"}},{"name":"Schloßpark Thierbach","postalCode":"04567","locality":"Kitzscher","municipality":{"key":"14729220","name":"Kitzscher, Stadt","type":"Stadt"},"district":{"key":"14729","name":"Leipzig","type":"Landkreis"},"federalState":{"key":"14","name":"Sachsen"}},{"name":"Schloßstr.","postalCode":"04567","locality":"Kitzscher","municipality":{"key":"14729220","name":"Kitzscher, Stadt","type":"Stadt"},"district":{"key":"14729","name":"Leipzig","type":"Landkreis"},"federalState":{"key":"14","name":"Sachsen"}},{"name":"Schwarzholzweg","postalCode":"04567","locality":"Kitzscher","municipality":{"key":"14729220","name":"Kitzscher, Stadt","type":"Stadt"},"district":{"key":"14729","name":"Leipzig","type":"Landkreis"},"federalState":{"key":"14","name":"Sachsen"}},{"name":"Seebergasse","postalCode":"04567","locality":"Kitzscher","municipality":{"key":"14729220","name":"Kitzscher, Stadt","type":"Stadt"},"district":{"key":"14729","name":"Leipzig","type":"Landkreis"},"federalState":{"key":"14","name":"Sachsen"}},{"name":"Seitenweg","postalCode":"04567","locality":"Kitzscher","municipality":{"key":"14729220","name":"Kitzscher, Stadt","type":"Stadt"},"district":{"key":"14729","name":"Leipzig","type":"Landkreis"},"federalState":{"key":"14","name":"Sachsen"}},{"name":"Siedlerweg","postalCode":"04567","locality":"Kitzscher","municipality":{"key":"14729220","name":"Kitzscher, Stadt","type":"Stadt"},"district":{"key":"14729","name":"Leipzig","type":"Landkreis"},"federalState":{"key":"14","name":"Sachsen"}},{"name":"Steigerstr.","postalCode":"04567","locality":"Kitzscher","municipality":{"key":"14729220","name":"Kitzscher, Stadt","type":"Stadt"},"district":{"key":"14729","name":"Leipzig","type":"Landkreis"},"federalState":{"key":"14","name":"Sachsen"}},{"name":"Steinbacher Str.","postalCode":"04567","locality":"Kitzscher","municipality":{"key":"14729220","name":"Kitzscher, Stadt","type":"Stadt"},"district":{"key":"14729","name":"Leipzig","type":"Landkreis"},"federalState":{"key":"14","name":"Sachsen"}},{"name":"Str. der Bergarbeiter","postalCode":"04567","locality":"Kitzscher","municipality":{"key":"14729220","name":"Kitzscher, Stadt","type":"Stadt"},"district":{"key":"14729","name":"Leipzig","type":"Landkreis"},"federalState":{"key":"14","name":"Sachsen"}},{"name":"Str. der Einheit","postalCode":"04567","locality":"Kitzscher","municipality":{"key":"14729220","name":"Kitzscher, Stadt","type":"Stadt"},"district":{"key":"14729","name":"Leipzig","type":"Landkreis"},"federalState":{"key":"14","name":"Sachsen"}},{"name":"Str. des Friedens","postalCode":"04567","locality":"Kitzscher","municipality":{"key":"14729220","name":"Kitzscher, Stadt","type":"Stadt"},"district":{"key":"14729","name":"Leipzig","type":"Landkreis"},"federalState":{"key":"14","name":"Sachsen"}},{"name":"Thierbacher Str.","postalCode":"04567","locality":"Kitzscher","municipality":{"key":"14729220","name":"Kitzscher, Stadt","type":"Stadt"},"district":{"key":"14729","name":"Leipzig","type":"Landkreis"},"federalState":{"key":"14","name":"Sachsen"}},{"name":"Thierbacher Weg","postalCode":"04567","locality":"Kitzscher","municipality":{"key":"14729220","name":"Kitzscher, Stadt","type":"Stadt"},"district":{"key":"14729","name":"Leipzig","type":"Landkreis"},"federalState":{"key":"14","name":"Sachsen"}},{"name":"Trageser Str.","postalCode":"04567","locality":"Kitzscher","municipality":{"key":"14729220","name":"Kitzscher, Stadt","type":"Stadt"},"district":{"key":"14729","name":"Leipzig","type":"Landkreis"},"federalState":{"key":"14","name":"Sachsen"}},{"name":"Uferstr.","postalCode":"04105","locality":"Leipzig","municipality":{"key":"14713000","name":"Leipzig, Stadt","type":"Kreisfreie_Stadt"},"district":{"key":"14713","name":"Leipzig, Stadt","type":"Kreisfreie_Stadt"},"federalState":{"key":"14","name":"Sachsen"}},{"name":"Ugiwinkel","postalCode":"04289","locality":"Leipzig","municipality":{"key":"14713000","name":"Leipzig, Stadt","type":"Kreisfreie_Stadt"},"district":{"key":"14713","name":"Leipzig, Stadt","type":"Kreisfreie_Stadt"},"federalState":{"key":"14","name":"Sachsen"}},{"name":"Uhlandstr.","postalCode":"04177","locality":"Leipzig","municipality":{"key":"14713000","name":"Leipzig, Stadt","type":"Kreisfreie_Stadt"},"district":{"key":"14713","name":"Leipzig, Stadt","type":"Kreisfreie_Stadt"},"federalState":{"key":"14","name":"Sachsen"}},{"name":"Uhlandweg","postalCode":"04316","locality":"Leipzig","municipality":{"key":"14713000","name":"Leipzig, Stadt","type":"Kreisfreie_Stadt"},"district":{"key":"14713","name":"Leipzig, Stadt","type":"Kreisfreie_Stadt"},"federalState":{"key":"14","name":"Sachsen"}},{"name":"Uhrigstr.","postalCode":"04159","locality":"Leipzig","municipality":{"key":"14713000","name":"Leipzig, Stadt","type":"Kreisfreie_Stadt"},"district":{"key":"14713","name":"Leipzig, Stadt","type":"Kreisfreie_Stadt"},"federalState":{"key":"14","name":"Sachsen"}},{"name":"Uhuweg","postalCode":"04155","locality":"Leipzig","municipality":{"key":"14713000","name":"Leipzig, Stadt","type":"Kreisfreie_Stadt"},"district":{"key":"14713","name":"Leipzig, Stadt","type":"Kreisfreie_Stadt"},"federalState":{"key":"14","name":"Sachsen"}},{"name":"Uhuweg","postalCode":"04318","locality":"Leipzig","municipality":{"key":"14713000","name":"Leipzig, Stadt","type":"Kreisfreie_Stadt"},"district":{"key":"14713","name":"Leipzig, Stadt","type":"Kreisfreie_Stadt"},"federalState":{"key":"14","name":"Sachsen"}},{"name":"Ulmenweg","postalCode":"04316","locality":"Leipzig","municipality":{"key":"14713000","name":"Leipzig, Stadt","type":"Kreisfreie_Stadt"},"district":{"key":"14713","name":"Leipzig, Stadt","type":"Kreisfreie_Stadt"},"federalState":{"key":"14","name":"Sachsen"}},{"name":"Ulmer Str.","postalCode":"04209","locality":"Leipzig","municipality":{"key":"14713000","name":"Leipzig, Stadt","type":"Kreisfreie_Stadt"},"district":{"key":"14713","name":"Leipzig, Stadt","type":"Kreisfreie_Stadt"},"federalState":{"key":"14","name":"Sachsen"}},{"name":"Ulrichstr.","postalCode":"04155","locality":"Leipzig","municipality":{"key":"14713000","name":"Leipzig, Stadt","type":"Kreisfreie_Stadt"},"district":{"key":"14713","name":"Leipzig, Stadt","type":"Kreisfreie_Stadt"},"federalState":{"key":"14","name":"Sachsen"}},{"name":"Undinenweg","postalCode":"04277","locality":"Leipzig","municipality":{"key":"14713000","name":"Leipzig, Stadt","type":"Kreisfreie_Stadt"},"district":{"key":"14713","name":"Leipzig, Stadt","type":"Kreisfreie_Stadt"},"federalState":{"key":"14","name":"Sachsen"}},{"name":"Ungerstr.","postalCode":"04318","locality":"Leipzig","municipality":{"key":"14713000","name":"Leipzig, Stadt","type":"Kreisfreie_Stadt"},"district":{"key":"14713","name":"Leipzig, Stadt","type":"Kreisfreie_Stadt"},"federalState":{"key":"14","name":"Sachsen"}},{"name":"Universitätsstr.","postalCode":"04109","locality":"Leipzig","municipality":{"key":"14713000","name":"Leipzig, Stadt","type":"Kreisfreie_Stadt"},"district":{"key":"14713","name":"Leipzig, Stadt","type":"Kreisfreie_Stadt"},"federalState":{"key":"14","name":"Sachsen"}},{"name":"Untere Eichstädtstr.","postalCode":"04299","locality":"Leipzig","municipality":{"key":"14713000","name":"Leipzig, Stadt","type":"Kreisfreie_Stadt"},"district":{"key":"14713","name":"Leipzig, Stadt","type":"Kreisfreie_Stadt"},"federalState":{"key":"14","name":"Sachsen"}},{"name":"Untere Mühlenstr.","postalCode":"04178","locality":"Leipzig","municipality":{"key":"14713000","name":"Leipzig, Stadt","type":"Kreisfreie_Stadt"},"district":{"key":"14713","name":"Leipzig, Stadt","type":"Kreisfreie_Stadt"},"federalState":{"key":"14","name":"Sachsen"}},{"name":"Untere Nordstr.","postalCode":"04288","locality":"Leipzig","municipality":{"key":"14713000","name":"Leipzig, Stadt","type":"Kreisfreie_Stadt"},"district":{"key":"14713","name":"Leipzig, Stadt","type":"Kreisfreie_Stadt"},"federalState":{"key":"14","name":"Sachsen"}},{"name":"Unterer Sandweg","postalCode":"04158","locality":"Leipzig","municipality":{"key":"14713000","name":"Leipzig, Stadt","type":"Kreisfreie_Stadt"},"district":{"key":"14713","name":"Leipzig, Stadt","type":"Kreisfreie_Stadt"},"federalState":{"key":"14","name":"Sachsen"}},{"name":"Unterführung","postalCode":"04159","locality":"Leipzig","municipality":{"key":"14713000","name":"Leipzig, Stadt","type":"Kreisfreie_Stadt"},"district":{"key":"14713","name":"Leipzig, Stadt","type":"Kreisfreie_Stadt"},"federalState":{"key":"14","name":"Sachsen"}},{"name":"Uranusstr.","postalCode":"04205","locality":"Leipzig","municipality":{"key":"14713000","name":"Leipzig, Stadt","type":"Kreisfreie_Stadt"},"district":{"key":"14713","name":"Leipzig, Stadt","type":"Kreisfreie_Stadt"},"federalState":{"key":"14","name":"Sachsen"}},{"name":"Ursula-Götze-Str.","postalCode":"04349","locality":"Leipzig","municipality":{"key":"14713000","name":"Leipzig, Stadt","type":"Kreisfreie_Stadt"},"district":{"key":"14713","name":"Leipzig, Stadt","type":"Kreisfreie_Stadt"},"federalState":{"key":"14","name":"Sachsen"}},{"name":"Usedomer Str.","postalCode":"04159","locality":"Leipzig","municipality":{"key":"14713000","name":"Leipzig, Stadt","type":"Kreisfreie_Stadt"},"district":{"key":"14713","name":"Leipzig, Stadt","type":"Kreisfreie_Stadt"},"federalState":{"key":"14","name":"Sachsen"}},{"name":"Václav-Neumann-Str.","postalCode":"04299","locality":"Leipzig","municipality":{"key":"14713000","name":"Leipzig, Stadt","type":"Kreisfreie_Stadt"},"district":{"key":"14713","name":"Leipzig, Stadt","type":"Kreisfreie_Stadt"},"federalState":{"key":"14","name":"Sachsen"}},{"name":"Vater-Jahn-Str.","postalCode":"04158","locality":"Leipzig","municipality":{"key":"14713000","name":"Leipzig, Stadt","type":"Kreisfreie_Stadt"},"district":{"key":"14713","name":"Leipzig, Stadt","type":"Kreisfreie_Stadt"},"federalState":{"key":"14","name":"Sachsen"}},{"name":"Veilchenweg","postalCode":"04155","locality":"Leipzig","municipality":{"key":"14713000","name":"Leipzig, Stadt","type":"Kreisfreie_Stadt"},"district":{"key":"14713","name":"Leipzig, Stadt","type":"Kreisfreie_Stadt"},"federalState":{"key":"14","name":"Sachsen"}},{"name":"Veilchenweg","postalCode":"04157","locality":"Leipzig","municipality":{"key":"14713000","name":"Leipzig, Stadt","type":"Kreisfreie_Stadt"},"district":{"key":"14713","name":"Leipzig, Stadt","type":"Kreisfreie_Stadt"},"federalState":{"key":"14","name":"Sachsen"}},{"name":"Veilchenweg","postalCode":"04205","locality":"Leipzig","municipality":{"key":"14713000","name":"Leipzig, Stadt","type":"Kreisfreie_Stadt"},"district":{"key":"14713","name":"Leipzig, Stadt","type":"Kreisfreie_Stadt"},"federalState":{"key":"14","name":"Sachsen"}},{"name":"Veilchenweg","postalCode":"04275","locality":"Leipzig","municipality":{"key":"14713000","name":"Leipzig, Stadt","type":"Kreisfreie_Stadt"},"district":{"key":"14713","name":"Leipzig, Stadt","type":"Kreisfreie_Stadt"},"federalState":{"key":"14","name":"Sachsen"}},{"name":"Veilchenweg","postalCode":"04299","locality":"Leipzig","municipality":{"key":"14713000","name":"Leipzig, Stadt","type":"Kreisfreie_Stadt"},"district":{"key":"14713","name":"Leipzig, Stadt","type":"Kreisfreie_Stadt"},"federalState":{"key":"14","name":"Sachsen"}},{"name":"Veilchenweg","postalCode":"04318","locality":"Leipzig","municipality":{"key":"14713000","name":"Leipzig, Stadt","type":"Kreisfreie_Stadt"},"district":{"key":"14713","name":"Leipzig, Stadt","type":"Kreisfreie_Stadt"},"federalState":{"key":"14","name":"Sachsen"}},{"name":"Verdistr.","postalCode":"04319","locality":"Leipzig","municipality":{"key":"14713000","name":"Leipzig, Stadt","type":"Kreisfreie_Stadt"},"district":{"key":"14713","name":"Leipzig, Stadt","type":"Kreisfreie_Stadt"},"federalState":{"key":"14","name":"Sachsen"}},{"name":"Verlängerte Max-Liebermann-Str.","postalCode":"04159","locality":"Leipzig","municipality":{"key":"14713000","name":"Leipzig, Stadt","type":"Kreisfreie_Stadt"},"district":{"key":"14713","name":"Leipzig, Stadt","type":"Kreisfreie_Stadt"},"federalState":{"key":"14","name":"Sachsen"}},{"name":"Verlängerte Schwedenstr.","postalCode":"04158","locality":"Leipzig","municipality":{"key":"14713000","name":"Leipzig, Stadt","type":"Kreisfreie_Stadt"},"district":{"key":"14713","name":"Leipzig, Stadt","type":"Kreisfreie_Stadt"},"federalState":{"key":"14","name":"Sachsen"}},{"name":"Verlängerte Wilhelmstr.","postalCode":"04158","locality":"Leipzig","municipality":{"key":"14713000","name":"Leipzig, Stadt","type":"Kreisfreie_Stadt"},"district":{"key":"14713","name":"Leipzig, Stadt","type":"Kreisfreie_Stadt"},"federalState":{"key":"14","name":"Sachsen"}},{"name":"Vetters Hof","postalCode":"04109","locality":"Leipzig","municipality":{"key":"14713000","name":"Leipzig, Stadt","type":"Kreisfreie_Stadt"},"district":{"key":"14713","name":"Leipzig, Stadt","type":"Kreisfreie_Stadt"},"federalState":{"key":"14","name":"Sachsen"}},{"name":"Viaduktweg","postalCode":"04158","locality":"Leipzig","municipality":{"key":"14713000","name":"Leipzig, Stadt","type":"Kreisfreie_Stadt"},"district":{"key":"14713","name":"Leipzig, Stadt","type":"Kreisfreie_Stadt"},"federalState":{"key":"14","name":"Sachsen"}},{"name":"Vierackerwiesen","postalCode":"04179","locality":"Leipzig","municipality":{"key":"14713000","name":"Leipzig, Stadt","type":"Kreisfreie_Stadt"},"district":{"key":"14713","name":"Leipzig, Stadt","type":"Kreisfreie_Stadt"},"federalState":{"key":"14","name":"Sachsen"}},{"name":"Viertelsweg","postalCode":"04157","locality":"Leipzig","municipality":{"key":"14713000","name":"Leipzig, Stadt","type":"Kreisfreie_Stadt"},"district":{"key":"14713","name":"Leipzig, Stadt","type":"Kreisfreie_Stadt"},"federalState":{"key":"14","name":"Sachsen"}},{"name":"Vierzehn-Bäume-Weg","postalCode":"04357","locality":"Leipzig","municipality":{"key":"14713000","name":"Leipzig, Stadt","type":"Kreisfreie_Stadt"},"district":{"key":"14713","name":"Leipzig, Stadt","type":"Kreisfreie_Stadt"},"federalState":{"key":"14","name":"Sachsen"}},{"name":"Viktoriastr.","postalCode":"04317","locality":"Leipzig","municipality":{"key":"14713000","name":"Leipzig, Stadt","type":"Kreisfreie_Stadt"},"district":{"key":"14713","name":"Leipzig, Stadt","type":"Kreisfreie_Stadt"},"federalState":{"key":"14","name":"Sachsen"}},{"name":"Virchowstr.","postalCode":"04157","locality":"Leipzig","municipality":{"key":"14713000","name":"Leipzig, Stadt","type":"Kreisfreie_Stadt"},"district":{"key":"14713","name":"Leipzig, Stadt","type":"Kreisfreie_Stadt"},"federalState":{"key":"14","name":"Sachsen"}},{"name":"Vivaldistr.","postalCode":"04319","locality":"Leipzig","municipality":{"key":"14713000","name":"Leipzig, Stadt","type":"Kreisfreie_Stadt"},"district":{"key":"14713","name":"Leipzig, Stadt","type":"Kreisfreie_Stadt"},"federalState":{"key":"14","name":"Sachsen"}},{"name":"Vlamenstr.","postalCode":"04159","locality":"Leipzig","municipality":{"key":"14713000","name":"Leipzig, Stadt","type":"Kreisfreie_Stadt"},"district":{"key":"14713","name":"Leipzig, Stadt","type":"Kreisfreie_Stadt"},"federalState":{"key":"14","name":"Sachsen"}},{"name":"Voigtstr.","postalCode":"04179","locality":"Leipzig","municipality":{"key":"14713000","name":"Leipzig, Stadt","type":"Kreisfreie_Stadt"},"district":{"key":"14713","name":"Leipzig, Stadt","type":"Kreisfreie_Stadt"},"federalState":{"key":"14","name":"Sachsen"}},{"name":"Volbedingstr.","postalCode":"04347","locality":"Leipzig","municipality":{"key":"14713000","name":"Leipzig, Stadt","type":"Kreisfreie_Stadt"},"district":{"key":"14713","name":"Leipzig, Stadt","type":"Kreisfreie_Stadt"},"federalState":{"key":"14","name":"Sachsen"}},{"name":"Volbedingstr.","postalCode":"04357","locality":"Leipzig","municipality":{"key":"14713000","name":"Leipzig, Stadt","type":"Kreisfreie_Stadt"},"district":{"key":"14713","name":"Leipzig, Stadt","type":"Kreisfreie_Stadt"},"federalState":{"key":"14","name":"Sachsen"}},{"name":"Volckmarstr.","postalCode":"04317","locality":"Leipzig","municipality":{"key":"14713000","name":"Leipzig, Stadt","type":"Kreisfreie_Stadt"},"district":{"key":"14713","name":"Leipzig, Stadt","type":"Kreisfreie_Stadt"},"federalState":{"key":"14","name":"Sachsen"}},{"name":"Volksgartenstr.","postalCode":"04347","locality":"Leipzig","municipality":{"key":"14713000","name":"Leipzig, Stadt","type":"Kreisfreie_Stadt"},"district":{"key":"14713","name":"Leipzig, Stadt","type":"Kreisfreie_Stadt"},"federalState":{"key":"14","name":"Sachsen"}},{"name":"Vollhardtstr.","postalCode":"04279","locality":"Leipzig","municipality":{"key":"14713000","name":"Leipzig, Stadt","type":"Kreisfreie_Stadt"},"district":{"key":"14713","name":"Leipzig, Stadt","type":"Kreisfreie_Stadt"},"federalState":{"key":"14","name":"Sachsen"}},{"name":"Voltairestr.","postalCode":"04159","locality":"Leipzig","municipality":{"key":"14713000","name":"Leipzig, Stadt","type":"Kreisfreie_Stadt"},"district":{"key":"14713","name":"Leipzig, Stadt","type":"Kreisfreie_Stadt"},"federalState":{"key":"14","name":"Sachsen"}},{"name":"Voltaweg","postalCode":"04299","locality":"Leipzig","municipality":{"key":"14713000","name":"Leipzig, Stadt","type":"Kreisfreie_Stadt"},"district":{"key":"14713","name":"Leipzig, Stadt","type":"Kreisfreie_Stadt"},"federalState":{"key":"14","name":"Sachsen"}},{"name":"Vor dem Hospitaltore","postalCode":"04103","locality":"Leipzig","municipality":{"key":"14713000","name":"Leipzig, Stadt","type":"Kreisfreie_Stadt"},"district":{"key":"14713","name":"Leipzig, Stadt","type":"Kreisfreie_Stadt"},"federalState":{"key":"14","name":"Sachsen"}},{"name":"Vordere Schlobachstr.","postalCode":"04178","locality":"Leipzig","municipality":{"key":"14713000","name":"Leipzig, Stadt","type":"Kreisfreie_Stadt"},"district":{"key":"14713","name":"Leipzig, Stadt","type":"Kreisfreie_Stadt"},"federalState":{"key":"14","name":"Sachsen"}},{"name":"Wiesenweg","postalCode":"04567","locality":"Kitzscher","municipality":{"key":"14729220","name":"Kitzscher, Stadt","type":"Stadt"},"district":{"key":"14729","name":"Leipzig","type":"Landkreis"},"federalState":{"key":"14","name":"Sachsen"}},{"name":"Winkelgasse","postalCode":"04567","locality":"Kitzscher","municipality":{"key":"14729220","name":"Kitzscher, Stadt","type":"Stadt"},"district":{"key":"14729","name":"Leipzig","type":"Landkreis"},"federalState":{"key":"14","name":"Sachsen"}},{"name":"Yorck-Diebitsch-Str.","postalCode":"04178","locality":"Leipzig","municipality":{"key":"14713000","name":"Leipzig, Stadt","type":"Kreisfreie_Stadt"},"district":{"key":"14713","name":"Leipzig, Stadt","type":"Kreisfreie_Stadt"},"federalState":{"key":"14","name":"Sachsen"}},{"name":"Yorckstr.","postalCode":"04159","locality":"Leipzig","municipality":{"key":"14713000","name":"Leipzig, Stadt","type":"Kreisfreie_Stadt"},"district":{"key":"14713","name":"Leipzig, Stadt","type":"Kreisfreie_Stadt"},"federalState":{"key":"14","name":"Sachsen"}},{"name":"Yuccaweg","postalCode":"04155","locality":"Leipzig","municipality":{"key":"14713000","name":"Leipzig, Stadt","type":"Kreisfreie_Stadt"},"district":{"key":"14713","name":"Leipzig, Stadt","type":"Kreisfreie_Stadt"},"federalState":{"key":"14","name":"Sachsen"}},{"name":"Zum Fürstenholz","postalCode":"04567","locality":"Kitzscher","municipality":{"key":"14729220","name":"Kitzscher, Stadt","type":"Stadt"},"district":{"key":"14729","name":"Leipzig","type":"Landkreis"},"federalState":{"key":"14","name":"Sachsen"}},{"name":"Zum Lerchenberg","postalCode":"04567","locality":"Kitzscher","municipality":{"key":"14729220","name":"Kitzscher, Stadt","type":"Stadt"},"district":{"key":"14729","name":"Leipzig","type":"Landkreis"},"federalState":{"key":"14","name":"Sachsen"}},{"name":"Äußere Auenblickstr.","postalCode":"04159","locality":"Leipzig","municipality":{"key":"14713000","name":"Leipzig, Stadt","type":"Kreisfreie_Stadt"},"district":{"key":"14713","name":"Leipzig, Stadt","type":"Kreisfreie_Stadt"},"federalState":{"key":"14","name":"Sachsen"}},{"name":"Äußere Friedrich-Naumann-Str.","postalCode":"04158","locality":"Leipzig","municipality":{"key":"14713000","name":"Leipzig, Stadt","type":"Kreisfreie_Stadt"},"district":{"key":"14713","name":"Leipzig, Stadt","type":"Kreisfreie_Stadt"},"federalState":{"key":"14","name":"Sachsen"}},{"name":"Äußere Mühlenstr.","postalCode":"04159","locality":"Leipzig","municipality":{"key":"14713000","name":"Leipzig, Stadt","type":"Kreisfreie_Stadt"},"district":{"key":"14713","name":"Leipzig, Stadt","type":"Kreisfreie_Stadt"},"federalState":{"key":"14","name":"Sachsen"}},{"name":"Äußere Raustr.","postalCode":"04158","locality":"Leipzig","municipality":{"key":"14713000","name":"Leipzig, Stadt","type":"Kreisfreie_Stadt"},"district":{"key":"14713","name":"Leipzig, Stadt","type":"Kreisfreie_Stadt"},"federalState":{"key":"14","name":"Sachsen"}},{"name":"Äußerer Zeisigweg","postalCode":"04158","locality":"Leipzig","municipality":{"key":"14713000","name":"Leipzig, Stadt","type":"Kreisfreie_Stadt"},"district":{"key":"14713","name":"Leipzig, Stadt","type":"Kreisfreie_Stadt"},"federalState":{"key":"14","name":"Sachsen"}},{"name":"Ölhafenstr.","postalCode":"04159","locality":"Leipzig","municipality":{"key":"14713000","name":"Leipzig, Stadt","type":"Kreisfreie_Stadt"},"district":{"key":"14713","name":"Leipzig, Stadt","type":"Kreisfreie_Stadt"},"federalState":{"key":"14","name":"Sachsen"}},{"name":"Österreicherweg","postalCode":"04289","locality":"Leipzig","municipality":{"key":"14713000","name":"Leipzig, Stadt","type":"Kreisfreie_Stadt"},"district":{"key":"14713","name":"Leipzig, Stadt","type":"Kreisfreie_Stadt"},"federalState":{"key":"14","name":"Sachsen"}},]