[{"name":"Ahornweg","postalCode":"06712","locality":"Zeitz","municipality":{"key":"15084590","name":"Zeitz, Stadt","type":"Stadt"},"district":{"key":"15084","name":"Burgenlandkreis","type":"Landkreis"},"federalState":{"key":"15","name":"Sachsen-Anhalt"}},{"name":"Akazienweg","postalCode":"06712","locality":"Zeitz","municipality":{"key":"15084590","name":"Zeitz, Stadt","type":"Stadt"},"district":{"key":"15084","name":"Burgenlandkreis","type":"Landkreis"},"federalState":{"key":"15","name":"Sachsen-Anhalt"}},{"name":"Albrechtstr.","postalCode":"06712","locality":"Zeitz","municipality":{"key":"15084590","name":"Zeitz, Stadt","type":"Stadt"},"district":{"key":"15084","name":"Burgenlandkreis","type":"Landkreis"},"federalState":{"key":"15","name":"Sachsen-Anhalt"}},{"name":"Altenburger Landstr.","postalCode":"06712","locality":"Zeitz","municipality":{"key":"15084590","name":"Zeitz, Stadt","type":"Stadt"},"district":{"key":"15084","name":"Burgenlandkreis","type":"Landkreis"},"federalState":{"key":"15","name":"Sachsen-Anhalt"}},{"name":"Altenburger Str.","postalCode":"06712","locality":"Zeitz","municipality":{"key":"15084590","name":"Zeitz, Stadt","type":"Stadt"},"district":{"key":"15084","name":"Burgenlandkreis","type":"Landkreis"},"federalState":{"key":"15","name":"Sachsen-Anhalt"}},{"name":"Alte Werkstr.","postalCode":"06712","locality":"Zeitz","municipality":{"key":"15084590","name":"Zeitz, Stadt","type":"Stadt"},"district":{"key":"15084","name":"Burgenlandkreis","type":"Landkreis"},"federalState":{"key":"15","name":"Sachsen-Anhalt"}},{"name":"Alte Ziegelei","postalCode":"06711","locality":"Zeitz","municipality":{"key":"15084590","name":"Zeitz, Stadt","type":"Stadt"},"district":{"key":"15084","name":"Burgenlandkreis","type":"Landkreis"},"federalState":{"key":"15","name":"Sachsen-Anhalt"}},{"name":"Altmarkt","postalCode":"06712","locality":"Zeitz","municipality":{"key":"15084590","name":"Zeitz, Stadt","type":"Stadt"},"district":{"key":"15084","name":"Burgenlandkreis","type":"Landkreis"},"federalState":{"key":"15","name":"Sachsen-Anhalt"}},{"name":"Am Bahnhof","postalCode":"06712","locality":"Zeitz","municipality":{"key":"15084590","name":"Zeitz, Stadt","type":"Stadt"},"district":{"key":"15084","name":"Burgenlandkreis","type":"Landkreis"},"federalState":{"key":"15","name":"Sachsen-Anhalt"}},{"name":"Am Bettelweg","postalCode":"06712","locality":"Zeitz","municipality":{"key":"15084590","name":"Zeitz, Stadt","type":"Stadt"},"district":{"key":"15084","name":"Burgenlandkreis","type":"Landkreis"},"federalState":{"key":"15","name":"Sachsen-Anhalt"}},{"name":"Am Elsterhang","postalCode":"06712","locality":"Zeitz","municipality":{"key":"15084590","name":"Zeitz, Stadt","type":"Stadt"},"district":{"key":"15084","name":"Burgenlandkreis","type":"Landkreis"},"federalState":{"key":"15","name":"Sachsen-Anhalt"}},{"name":"Am Eulengrund","postalCode":"06712","locality":"Zeitz","municipality":{"key":"15084590","name":"Zeitz, Stadt","type":"Stadt"},"district":{"key":"15084","name":"Burgenlandkreis","type":"Landkreis"},"federalState":{"key":"15","name":"Sachsen-Anhalt"}},{"name":"Am Floßgraben","postalCode":"06712","locality":"Zeitz","municipality":{"key":"15084590","name":"Zeitz, Stadt","type":"Stadt"},"district":{"key":"15084","name":"Burgenlandkreis","type":"Landkreis"},"federalState":{"key":"15","name":"Sachsen-Anhalt"}},{"name":"Am Friedhof","postalCode":"06712","locality":"Zeitz","municipality":{"key":"15084590","name":"Zeitz, Stadt","type":"Stadt"},"district":{"key":"15084","name":"Burgenlandkreis","type":"Landkreis"},"federalState":{"key":"15","name":"Sachsen-Anhalt"}},{"name":"Am Grundhof","postalCode":"06712","locality":"Zeitz","municipality":{"key":"15084590","name":"Zeitz, Stadt","type":"Stadt"},"district":{"key":"15084","name":"Burgenlandkreis","type":"Landkreis"},"federalState":{"key":"15","name":"Sachsen-Anhalt"}},{"name":"Am Güterbahnhof","postalCode":"06712","locality":"Zeitz","municipality":{"key":"15084590","name":"Zeitz, Stadt","type":"Stadt"},"district":{"key":"15084","name":"Burgenlandkreis","type":"Landkreis"},"federalState":{"key":"15","name":"Sachsen-Anhalt"}},{"name":"Am Herrmannschacht","postalCode":"06712","locality":"Zeitz","municipality":{"key":"15084590","name":"Zeitz, Stadt","type":"Stadt"},"district":{"key":"15084","name":"Burgenlandkreis","type":"Landkreis"},"federalState":{"key":"15","name":"Sachsen-Anhalt"}},{"name":"Am Kalktor","postalCode":"06712","locality":"Zeitz","municipality":{"key":"15084590","name":"Zeitz, Stadt","type":"Stadt"},"district":{"key":"15084","name":"Burgenlandkreis","type":"Landkreis"},"federalState":{"key":"15","name":"Sachsen-Anhalt"}},{"name":"Am Mühlenweg","postalCode":"06711","locality":"Zeitz","municipality":{"key":"15084590","name":"Zeitz, Stadt","type":"Stadt"},"district":{"key":"15084","name":"Burgenlandkreis","type":"Landkreis"},"federalState":{"key":"15","name":"Sachsen-Anhalt"}},{"name":"Am Mühlgraben","postalCode":"06712","locality":"Zeitz","municipality":{"key":"15084590","name":"Zeitz, Stadt","type":"Stadt"},"district":{"key":"15084","name":"Burgenlandkreis","type":"Landkreis"},"federalState":{"key":"15","name":"Sachsen-Anhalt"}},{"name":"Am Ochsenberg","postalCode":"06712","locality":"Zeitz","municipality":{"key":"15084590","name":"Zeitz, Stadt","type":"Stadt"},"district":{"key":"15084","name":"Burgenlandkreis","type":"Landkreis"},"federalState":{"key":"15","name":"Sachsen-Anhalt"}},{"name":"Am Park","postalCode":"06711","locality":"Zeitz","municipality":{"key":"15084590","name":"Zeitz, Stadt","type":"Stadt"},"district":{"key":"15084","name":"Burgenlandkreis","type":"Landkreis"},"federalState":{"key":"15","name":"Sachsen-Anhalt"}},{"name":"Am Sandberg","postalCode":"06711","locality":"Zeitz","municipality":{"key":"15084590","name":"Zeitz, Stadt","type":"Stadt"},"district":{"key":"15084","name":"Burgenlandkreis","type":"Landkreis"},"federalState":{"key":"15","name":"Sachsen-Anhalt"}},{"name":"Am Tagebau","postalCode":"06711","locality":"Zeitz","municipality":{"key":"15084590","name":"Zeitz, Stadt","type":"Stadt"},"district":{"key":"15084","name":"Burgenlandkreis","type":"Landkreis"},"federalState":{"key":"15","name":"Sachsen-Anhalt"}},{"name":"Am Wiesengrund","postalCode":"06712","locality":"Zeitz","municipality":{"key":"15084590","name":"Zeitz, Stadt","type":"Stadt"},"district":{"key":"15084","name":"Burgenlandkreis","type":"Landkreis"},"federalState":{"key":"15","name":"Sachsen-Anhalt"}},{"name":"An der Hohle","postalCode":"06712","locality":"Zeitz","municipality":{"key":"15084590","name":"Zeitz, Stadt","type":"Stadt"},"district":{"key":"15084","name":"Burgenlandkreis","type":"Landkreis"},"federalState":{"key":"15","name":"Sachsen-Anhalt"}},{"name":"An der Molkerei","postalCode":"06712","locality":"Zeitz","municipality":{"key":"15084590","name":"Zeitz, Stadt","type":"Stadt"},"district":{"key":"15084","name":"Burgenlandkreis","type":"Landkreis"},"federalState":{"key":"15","name":"Sachsen-Anhalt"}},{"name":"An der Stadtmauer","postalCode":"06712","locality":"Zeitz","municipality":{"key":"15084590","name":"Zeitz, Stadt","type":"Stadt"},"district":{"key":"15084","name":"Burgenlandkreis","type":"Landkreis"},"federalState":{"key":"15","name":"Sachsen-Anhalt"}},{"name":"Anger","postalCode":"06712","locality":"Zeitz","municipality":{"key":"15084590","name":"Zeitz, Stadt","type":"Stadt"},"district":{"key":"15084","name":"Burgenlandkreis","type":"Landkreis"},"federalState":{"key":"15","name":"Sachsen-Anhalt"}},{"name":"Anna-Magdalena-Bach-Str.","postalCode":"06712","locality":"Zeitz","municipality":{"key":"15084590","name":"Zeitz, Stadt","type":"Stadt"},"district":{"key":"15084","name":"Burgenlandkreis","type":"Landkreis"},"federalState":{"key":"15","name":"Sachsen-Anhalt"}},{"name":"Auebrücke","postalCode":"06712","locality":"Zeitz","municipality":{"key":"15084590","name":"Zeitz, Stadt","type":"Stadt"},"district":{"key":"15084","name":"Burgenlandkreis","type":"Landkreis"},"federalState":{"key":"15","name":"Sachsen-Anhalt"}},{"name":"Auestr.","postalCode":"06712","locality":"Zeitz","municipality":{"key":"15084590","name":"Zeitz, Stadt","type":"Stadt"},"district":{"key":"15084","name":"Burgenlandkreis","type":"Landkreis"},"federalState":{"key":"15","name":"Sachsen-Anhalt"}},{"name":"Auf dem Schlagstück","postalCode":"06712","locality":"Zeitz","municipality":{"key":"15084590","name":"Zeitz, Stadt","type":"Stadt"},"district":{"key":"15084","name":"Burgenlandkreis","type":"Landkreis"},"federalState":{"key":"15","name":"Sachsen-Anhalt"}},{"name":"Auf den Gebinden","postalCode":"06712","locality":"Zeitz","municipality":{"key":"15084590","name":"Zeitz, Stadt","type":"Stadt"},"district":{"key":"15084","name":"Burgenlandkreis","type":"Landkreis"},"federalState":{"key":"15","name":"Sachsen-Anhalt"}},{"name":"August-Bebel-Str.","postalCode":"06711","locality":"Zeitz","municipality":{"key":"15084590","name":"Zeitz, Stadt","type":"Stadt"},"district":{"key":"15084","name":"Burgenlandkreis","type":"Landkreis"},"federalState":{"key":"15","name":"Sachsen-Anhalt"}},{"name":"August-Bebel-Str.","postalCode":"06712","locality":"Zeitz","municipality":{"key":"15084590","name":"Zeitz, Stadt","type":"Stadt"},"district":{"key":"15084","name":"Burgenlandkreis","type":"Landkreis"},"federalState":{"key":"15","name":"Sachsen-Anhalt"}},{"name":"August-Dietzschold-Str.","postalCode":"06712","locality":"Zeitz","municipality":{"key":"15084590","name":"Zeitz, Stadt","type":"Stadt"},"district":{"key":"15084","name":"Burgenlandkreis","type":"Landkreis"},"federalState":{"key":"15","name":"Sachsen-Anhalt"}},{"name":"Aylsdorfer Str.","postalCode":"06712","locality":"Zeitz","municipality":{"key":"15084590","name":"Zeitz, Stadt","type":"Stadt"},"district":{"key":"15084","name":"Burgenlandkreis","type":"Landkreis"},"federalState":{"key":"15","name":"Sachsen-Anhalt"}},{"name":"Bachstr.","postalCode":"06712","locality":"Zeitz","municipality":{"key":"15084590","name":"Zeitz, Stadt","type":"Stadt"},"district":{"key":"15084","name":"Burgenlandkreis","type":"Landkreis"},"federalState":{"key":"15","name":"Sachsen-Anhalt"}},{"name":"Baderstr.","postalCode":"06712","locality":"Zeitz","municipality":{"key":"15084590","name":"Zeitz, Stadt","type":"Stadt"},"district":{"key":"15084","name":"Burgenlandkreis","type":"Landkreis"},"federalState":{"key":"15","name":"Sachsen-Anhalt"}},{"name":"Badstubenvorstadt","postalCode":"06712","locality":"Zeitz","municipality":{"key":"15084590","name":"Zeitz, Stadt","type":"Stadt"},"district":{"key":"15084","name":"Burgenlandkreis","type":"Landkreis"},"federalState":{"key":"15","name":"Sachsen-Anhalt"}},{"name":"Bahnhofstr.","postalCode":"06711","locality":"Zeitz","municipality":{"key":"15084590","name":"Zeitz, Stadt","type":"Stadt"},"district":{"key":"15084","name":"Burgenlandkreis","type":"Landkreis"},"federalState":{"key":"15","name":"Sachsen-Anhalt"}},{"name":"Bahnhofstr.","postalCode":"06712","locality":"Zeitz","municipality":{"key":"15084590","name":"Zeitz, Stadt","type":"Stadt"},"district":{"key":"15084","name":"Burgenlandkreis","type":"Landkreis"},"federalState":{"key":"15","name":"Sachsen-Anhalt"}},{"name":"Barbarossastr.","postalCode":"06712","locality":"Zeitz","municipality":{"key":"15084590","name":"Zeitz, Stadt","type":"Stadt"},"district":{"key":"15084","name":"Burgenlandkreis","type":"Landkreis"},"federalState":{"key":"15","name":"Sachsen-Anhalt"}},{"name":"Bauplatz","postalCode":"06712","locality":"Zeitz","municipality":{"key":"15084590","name":"Zeitz, Stadt","type":"Stadt"},"district":{"key":"15084","name":"Burgenlandkreis","type":"Landkreis"},"federalState":{"key":"15","name":"Sachsen-Anhalt"}},{"name":"Belgrader Str.","postalCode":"06712","locality":"Zeitz","municipality":{"key":"15084590","name":"Zeitz, Stadt","type":"Stadt"},"district":{"key":"15084","name":"Burgenlandkreis","type":"Landkreis"},"federalState":{"key":"15","name":"Sachsen-Anhalt"}},{"name":"Bergisdorfer Weg","postalCode":"06712","locality":"Zeitz","municipality":{"key":"15084590","name":"Zeitz, Stadt","type":"Stadt"},"district":{"key":"15084","name":"Burgenlandkreis","type":"Landkreis"},"federalState":{"key":"15","name":"Sachsen-Anhalt"}},{"name":"Bergstr.","postalCode":"06711","locality":"Zeitz","municipality":{"key":"15084590","name":"Zeitz, Stadt","type":"Stadt"},"district":{"key":"15084","name":"Burgenlandkreis","type":"Landkreis"},"federalState":{"key":"15","name":"Sachsen-Anhalt"}},{"name":"Bergstr.","postalCode":"06712","locality":"Zeitz","municipality":{"key":"15084590","name":"Zeitz, Stadt","type":"Stadt"},"district":{"key":"15084","name":"Burgenlandkreis","type":"Landkreis"},"federalState":{"key":"15","name":"Sachsen-Anhalt"}},{"name":"Bergweg","postalCode":"06711","locality":"Zeitz","municipality":{"key":"15084590","name":"Zeitz, Stadt","type":"Stadt"},"district":{"key":"15084","name":"Burgenlandkreis","type":"Landkreis"},"federalState":{"key":"15","name":"Sachsen-Anhalt"}},{"name":"Bergweg","postalCode":"06712","locality":"Zeitz","municipality":{"key":"15084590","name":"Zeitz, Stadt","type":"Stadt"},"district":{"key":"15084","name":"Burgenlandkreis","type":"Landkreis"},"federalState":{"key":"15","name":"Sachsen-Anhalt"}},{"name":"Bettelweg","postalCode":"06712","locality":"Zeitz","municipality":{"key":"15084590","name":"Zeitz, Stadt","type":"Stadt"},"district":{"key":"15084","name":"Burgenlandkreis","type":"Landkreis"},"federalState":{"key":"15","name":"Sachsen-Anhalt"}},{"name":"Betty-Kormann-Str.","postalCode":"06711","locality":"Zeitz","municipality":{"key":"15084590","name":"Zeitz, Stadt","type":"Stadt"},"district":{"key":"15084","name":"Burgenlandkreis","type":"Landkreis"},"federalState":{"key":"15","name":"Sachsen-Anhalt"}},{"name":"Bienenlehrgarten","postalCode":"06712","locality":"Zeitz","municipality":{"key":"15084590","name":"Zeitz, Stadt","type":"Stadt"},"district":{"key":"15084","name":"Burgenlandkreis","type":"Landkreis"},"federalState":{"key":"15","name":"Sachsen-Anhalt"}},{"name":"Birkenweg","postalCode":"06711","locality":"Zeitz","municipality":{"key":"15084590","name":"Zeitz, Stadt","type":"Stadt"},"district":{"key":"15084","name":"Burgenlandkreis","type":"Landkreis"},"federalState":{"key":"15","name":"Sachsen-Anhalt"}},{"name":"Birkenweg","postalCode":"06712","locality":"Zeitz","municipality":{"key":"15084590","name":"Zeitz, Stadt","type":"Stadt"},"district":{"key":"15084","name":"Burgenlandkreis","type":"Landkreis"},"federalState":{"key":"15","name":"Sachsen-Anhalt"}},{"name":"Blumenpark zur Lore","postalCode":"06711","locality":"Zeitz","municipality":{"key":"15084590","name":"Zeitz, Stadt","type":"Stadt"},"district":{"key":"15084","name":"Burgenlandkreis","type":"Landkreis"},"federalState":{"key":"15","name":"Sachsen-Anhalt"}},{"name":"Bockwitzer Str.","postalCode":"06712","locality":"Zeitz","municipality":{"key":"15084590","name":"Zeitz, Stadt","type":"Stadt"},"district":{"key":"15084","name":"Burgenlandkreis","type":"Landkreis"},"federalState":{"key":"15","name":"Sachsen-Anhalt"}},{"name":"Bockwitzer Weg","postalCode":"06712","locality":"Zeitz","municipality":{"key":"15084590","name":"Zeitz, Stadt","type":"Stadt"},"district":{"key":"15084","name":"Burgenlandkreis","type":"Landkreis"},"federalState":{"key":"15","name":"Sachsen-Anhalt"}},{"name":"Bodenreform","postalCode":"06712","locality":"Zeitz","municipality":{"key":"15084590","name":"Zeitz, Stadt","type":"Stadt"},"district":{"key":"15084","name":"Burgenlandkreis","type":"Landkreis"},"federalState":{"key":"15","name":"Sachsen-Anhalt"}},{"name":"Bornpromenade","postalCode":"06712","locality":"Zeitz","municipality":{"key":"15084590","name":"Zeitz, Stadt","type":"Stadt"},"district":{"key":"15084","name":"Burgenlandkreis","type":"Landkreis"},"federalState":{"key":"15","name":"Sachsen-Anhalt"}},{"name":"Bornstr.","postalCode":"06711","locality":"Zeitz","municipality":{"key":"15084590","name":"Zeitz, Stadt","type":"Stadt"},"district":{"key":"15084","name":"Burgenlandkreis","type":"Landkreis"},"federalState":{"key":"15","name":"Sachsen-Anhalt"}},{"name":"Braustr.","postalCode":"06712","locality":"Zeitz","municipality":{"key":"15084590","name":"Zeitz, Stadt","type":"Stadt"},"district":{"key":"15084","name":"Burgenlandkreis","type":"Landkreis"},"federalState":{"key":"15","name":"Sachsen-Anhalt"}},{"name":"Bröditzer Weg","postalCode":"06711","locality":"Zeitz","municipality":{"key":"15084590","name":"Zeitz, Stadt","type":"Stadt"},"district":{"key":"15084","name":"Burgenlandkreis","type":"Landkreis"},"federalState":{"key":"15","name":"Sachsen-Anhalt"}},{"name":"Brückenweg","postalCode":"06712","locality":"Zeitz","municipality":{"key":"15084590","name":"Zeitz, Stadt","type":"Stadt"},"district":{"key":"15084","name":"Burgenlandkreis","type":"Landkreis"},"federalState":{"key":"15","name":"Sachsen-Anhalt"}},{"name":"Brüderstr.","postalCode":"06712","locality":"Zeitz","municipality":{"key":"15084590","name":"Zeitz, Stadt","type":"Stadt"},"district":{"key":"15084","name":"Burgenlandkreis","type":"Landkreis"},"federalState":{"key":"15","name":"Sachsen-Anhalt"}},{"name":"Brühl","postalCode":"06712","locality":"Zeitz","municipality":{"key":"15084590","name":"Zeitz, Stadt","type":"Stadt"},"district":{"key":"15084","name":"Burgenlandkreis","type":"Landkreis"},"federalState":{"key":"15","name":"Sachsen-Anhalt"}},{"name":"Buchenweg","postalCode":"06712","locality":"Zeitz","municipality":{"key":"15084590","name":"Zeitz, Stadt","type":"Stadt"},"district":{"key":"15084","name":"Burgenlandkreis","type":"Landkreis"},"federalState":{"key":"15","name":"Sachsen-Anhalt"}},{"name":"Budapester Str.","postalCode":"06712","locality":"Zeitz","municipality":{"key":"15084590","name":"Zeitz, Stadt","type":"Stadt"},"district":{"key":"15084","name":"Burgenlandkreis","type":"Landkreis"},"federalState":{"key":"15","name":"Sachsen-Anhalt"}},{"name":"Bukarester Str.","postalCode":"06712","locality":"Zeitz","municipality":{"key":"15084590","name":"Zeitz, Stadt","type":"Stadt"},"district":{"key":"15084","name":"Burgenlandkreis","type":"Landkreis"},"federalState":{"key":"15","name":"Sachsen-Anhalt"}},{"name":"Burgstr.","postalCode":"06712","locality":"Zeitz","municipality":{"key":"15084590","name":"Zeitz, Stadt","type":"Stadt"},"district":{"key":"15084","name":"Burgenlandkreis","type":"Landkreis"},"federalState":{"key":"15","name":"Sachsen-Anhalt"}},{"name":"Carl-Benz-Str.","postalCode":"06712","locality":"Zeitz","municipality":{"key":"15084590","name":"Zeitz, Stadt","type":"Stadt"},"district":{"key":"15084","name":"Burgenlandkreis","type":"Landkreis"},"federalState":{"key":"15","name":"Sachsen-Anhalt"}},{"name":"Clara-Zetkin-Str.","postalCode":"06712","locality":"Zeitz","municipality":{"key":"15084590","name":"Zeitz, Stadt","type":"Stadt"},"district":{"key":"15084","name":"Burgenlandkreis","type":"Landkreis"},"federalState":{"key":"15","name":"Sachsen-Anhalt"}},{"name":"Cranachweg","postalCode":"06712","locality":"Zeitz","municipality":{"key":"15084590","name":"Zeitz, Stadt","type":"Stadt"},"district":{"key":"15084","name":"Burgenlandkreis","type":"Landkreis"},"federalState":{"key":"15","name":"Sachsen-Anhalt"}},{"name":"Dietrich-Bonhoeffer-Str.","postalCode":"06712","locality":"Zeitz","municipality":{"key":"15084590","name":"Zeitz, Stadt","type":"Stadt"},"district":{"key":"15084","name":"Burgenlandkreis","type":"Landkreis"},"federalState":{"key":"15","name":"Sachsen-Anhalt"}},{"name":"Domherrenstr.","postalCode":"06712","locality":"Zeitz","municipality":{"key":"15084590","name":"Zeitz, Stadt","type":"Stadt"},"district":{"key":"15084","name":"Burgenlandkreis","type":"Landkreis"},"federalState":{"key":"15","name":"Sachsen-Anhalt"}},{"name":"Donaliesstr.","postalCode":"06712","locality":"Zeitz","municipality":{"key":"15084590","name":"Zeitz, Stadt","type":"Stadt"},"district":{"key":"15084","name":"Burgenlandkreis","type":"Landkreis"},"federalState":{"key":"15","name":"Sachsen-Anhalt"}},{"name":"Dorfstr.","postalCode":"06711","locality":"Zeitz","municipality":{"key":"15084590","name":"Zeitz, Stadt","type":"Stadt"},"district":{"key":"15084","name":"Burgenlandkreis","type":"Landkreis"},"federalState":{"key":"15","name":"Sachsen-Anhalt"}},{"name":"Dorfstr.","postalCode":"06712","locality":"Zeitz","municipality":{"key":"15084590","name":"Zeitz, Stadt","type":"Stadt"},"district":{"key":"15084","name":"Burgenlandkreis","type":"Landkreis"},"federalState":{"key":"15","name":"Sachsen-Anhalt"}},{"name":"Dr.-Flörsheim-Allee","postalCode":"06712","locality":"Zeitz","municipality":{"key":"15084590","name":"Zeitz, Stadt","type":"Stadt"},"district":{"key":"15084","name":"Burgenlandkreis","type":"Landkreis"},"federalState":{"key":"15","name":"Sachsen-Anhalt"}},{"name":"Dr.-Kurt-Flöricke-Promenade","postalCode":"06712","locality":"Zeitz","municipality":{"key":"15084590","name":"Zeitz, Stadt","type":"Stadt"},"district":{"key":"15084","name":"Burgenlandkreis","type":"Landkreis"},"federalState":{"key":"15","name":"Sachsen-Anhalt"}},{"name":"Dr.-Lange Str.","postalCode":"06712","locality":"Zeitz","municipality":{"key":"15084590","name":"Zeitz, Stadt","type":"Stadt"},"district":{"key":"15084","name":"Burgenlandkreis","type":"Landkreis"},"federalState":{"key":"15","name":"Sachsen-Anhalt"}},{"name":"Dürerweg","postalCode":"06712","locality":"Zeitz","municipality":{"key":"15084590","name":"Zeitz, Stadt","type":"Stadt"},"district":{"key":"15084","name":"Burgenlandkreis","type":"Landkreis"},"federalState":{"key":"15","name":"Sachsen-Anhalt"}},{"name":"Ebereschenweg","postalCode":"06712","locality":"Zeitz","municipality":{"key":"15084590","name":"Zeitz, Stadt","type":"Stadt"},"district":{"key":"15084","name":"Burgenlandkreis","type":"Landkreis"},"federalState":{"key":"15","name":"Sachsen-Anhalt"}},{"name":"Eduard-Tretrop-Brücke","postalCode":"06712","locality":"Zeitz","municipality":{"key":"15084590","name":"Zeitz, Stadt","type":"Stadt"},"district":{"key":"15084","name":"Burgenlandkreis","type":"Landkreis"},"federalState":{"key":"15","name":"Sachsen-Anhalt"}},{"name":"Eichenweg","postalCode":"06712","locality":"Zeitz","municipality":{"key":"15084590","name":"Zeitz, Stadt","type":"Stadt"},"district":{"key":"15084","name":"Burgenlandkreis","type":"Landkreis"},"federalState":{"key":"15","name":"Sachsen-Anhalt"}},{"name":"Einsteinstr.","postalCode":"06712","locality":"Zeitz","municipality":{"key":"15084590","name":"Zeitz, Stadt","type":"Stadt"},"district":{"key":"15084","name":"Burgenlandkreis","type":"Landkreis"},"federalState":{"key":"15","name":"Sachsen-Anhalt"}},{"name":"Elsterstr.","postalCode":"06712","locality":"Zeitz","municipality":{"key":"15084590","name":"Zeitz, Stadt","type":"Stadt"},"district":{"key":"15084","name":"Burgenlandkreis","type":"Landkreis"},"federalState":{"key":"15","name":"Sachsen-Anhalt"}},{"name":"Erlenweg","postalCode":"06712","locality":"Zeitz","municipality":{"key":"15084590","name":"Zeitz, Stadt","type":"Stadt"},"district":{"key":"15084","name":"Burgenlandkreis","type":"Landkreis"},"federalState":{"key":"15","name":"Sachsen-Anhalt"}},{"name":"Fabrikstr.","postalCode":"06711","locality":"Zeitz","municipality":{"key":"15084590","name":"Zeitz, Stadt","type":"Stadt"},"district":{"key":"15084","name":"Burgenlandkreis","type":"Landkreis"},"federalState":{"key":"15","name":"Sachsen-Anhalt"}},{"name":"Feldstr.","postalCode":"06711","locality":"Zeitz","municipality":{"key":"15084590","name":"Zeitz, Stadt","type":"Stadt"},"district":{"key":"15084","name":"Burgenlandkreis","type":"Landkreis"},"federalState":{"key":"15","name":"Sachsen-Anhalt"}},{"name":"Feldstr.","postalCode":"06712","locality":"Zeitz","municipality":{"key":"15084590","name":"Zeitz, Stadt","type":"Stadt"},"district":{"key":"15084","name":"Burgenlandkreis","type":"Landkreis"},"federalState":{"key":"15","name":"Sachsen-Anhalt"}},{"name":"Feldweg","postalCode":"06712","locality":"Zeitz","municipality":{"key":"15084590","name":"Zeitz, Stadt","type":"Stadt"},"district":{"key":"15084","name":"Burgenlandkreis","type":"Landkreis"},"federalState":{"key":"15","name":"Sachsen-Anhalt"}},{"name":"Felleisenweg","postalCode":"06712","locality":"Zeitz","municipality":{"key":"15084590","name":"Zeitz, Stadt","type":"Stadt"},"district":{"key":"15084","name":"Burgenlandkreis","type":"Landkreis"},"federalState":{"key":"15","name":"Sachsen-Anhalt"}},{"name":"Fichtestr.","postalCode":"06712","locality":"Zeitz","municipality":{"key":"15084590","name":"Zeitz, Stadt","type":"Stadt"},"district":{"key":"15084","name":"Burgenlandkreis","type":"Landkreis"},"federalState":{"key":"15","name":"Sachsen-Anhalt"}},{"name":"Fischstr.","postalCode":"06712","locality":"Zeitz","municipality":{"key":"15084590","name":"Zeitz, Stadt","type":"Stadt"},"district":{"key":"15084","name":"Burgenlandkreis","type":"Landkreis"},"federalState":{"key":"15","name":"Sachsen-Anhalt"}},{"name":"Floßgrabenstr.","postalCode":"06712","locality":"Zeitz","municipality":{"key":"15084590","name":"Zeitz, Stadt","type":"Stadt"},"district":{"key":"15084","name":"Burgenlandkreis","type":"Landkreis"},"federalState":{"key":"15","name":"Sachsen-Anhalt"}},{"name":"Fockendorfer Grund","postalCode":"06712","locality":"Zeitz","municipality":{"key":"15084590","name":"Zeitz, Stadt","type":"Stadt"},"district":{"key":"15084","name":"Burgenlandkreis","type":"Landkreis"},"federalState":{"key":"15","name":"Sachsen-Anhalt"}},{"name":"Forstplatz","postalCode":"06712","locality":"Zeitz","municipality":{"key":"15084590","name":"Zeitz, Stadt","type":"Stadt"},"district":{"key":"15084","name":"Burgenlandkreis","type":"Landkreis"},"federalState":{"key":"15","name":"Sachsen-Anhalt"}},{"name":"Forststr.","postalCode":"06712","locality":"Zeitz","municipality":{"key":"15084590","name":"Zeitz, Stadt","type":"Stadt"},"district":{"key":"15084","name":"Burgenlandkreis","type":"Landkreis"},"federalState":{"key":"15","name":"Sachsen-Anhalt"}},{"name":"Forstweg","postalCode":"06712","locality":"Zeitz","municipality":{"key":"15084590","name":"Zeitz, Stadt","type":"Stadt"},"district":{"key":"15084","name":"Burgenlandkreis","type":"Landkreis"},"federalState":{"key":"15","name":"Sachsen-Anhalt"}},{"name":"Franz-Schubert-Str.","postalCode":"06712","locality":"Zeitz","municipality":{"key":"15084590","name":"Zeitz, Stadt","type":"Stadt"},"district":{"key":"15084","name":"Burgenlandkreis","type":"Landkreis"},"federalState":{"key":"15","name":"Sachsen-Anhalt"}},{"name":"Frauengasse","postalCode":"06712","locality":"Zeitz","municipality":{"key":"15084590","name":"Zeitz, Stadt","type":"Stadt"},"district":{"key":"15084","name":"Burgenlandkreis","type":"Landkreis"},"federalState":{"key":"15","name":"Sachsen-Anhalt"}},{"name":"Frauenleite","postalCode":"06712","locality":"Zeitz","municipality":{"key":"15084590","name":"Zeitz, Stadt","type":"Stadt"},"district":{"key":"15084","name":"Burgenlandkreis","type":"Landkreis"},"federalState":{"key":"15","name":"Sachsen-Anhalt"}},{"name":"Freiheit","postalCode":"06712","locality":"Zeitz","municipality":{"key":"15084590","name":"Zeitz, Stadt","type":"Stadt"},"district":{"key":"15084","name":"Burgenlandkreis","type":"Landkreis"},"federalState":{"key":"15","name":"Sachsen-Anhalt"}},{"name":"Freiheitsstr.","postalCode":"06712","locality":"Zeitz","municipality":{"key":"15084590","name":"Zeitz, Stadt","type":"Stadt"},"district":{"key":"15084","name":"Burgenlandkreis","type":"Landkreis"},"federalState":{"key":"15","name":"Sachsen-Anhalt"}},{"name":"Freiligrathstr.","postalCode":"06712","locality":"Zeitz","municipality":{"key":"15084590","name":"Zeitz, Stadt","type":"Stadt"},"district":{"key":"15084","name":"Burgenlandkreis","type":"Landkreis"},"federalState":{"key":"15","name":"Sachsen-Anhalt"}},{"name":"Friedensplan","postalCode":"06711","locality":"Zeitz","municipality":{"key":"15084590","name":"Zeitz, Stadt","type":"Stadt"},"district":{"key":"15084","name":"Burgenlandkreis","type":"Landkreis"},"federalState":{"key":"15","name":"Sachsen-Anhalt"}},{"name":"Friedensplatz","postalCode":"06711","locality":"Zeitz","municipality":{"key":"15084590","name":"Zeitz, Stadt","type":"Stadt"},"district":{"key":"15084","name":"Burgenlandkreis","type":"Landkreis"},"federalState":{"key":"15","name":"Sachsen-Anhalt"}},{"name":"Friedensstr.","postalCode":"06711","locality":"Zeitz","municipality":{"key":"15084590","name":"Zeitz, Stadt","type":"Stadt"},"district":{"key":"15084","name":"Burgenlandkreis","type":"Landkreis"},"federalState":{"key":"15","name":"Sachsen-Anhalt"}},{"name":"Friedensstr.","postalCode":"06712","locality":"Zeitz","municipality":{"key":"15084590","name":"Zeitz, Stadt","type":"Stadt"},"district":{"key":"15084","name":"Burgenlandkreis","type":"Landkreis"},"federalState":{"key":"15","name":"Sachsen-Anhalt"}},{"name":"Friedhofspark","postalCode":"06711","locality":"Zeitz","municipality":{"key":"15084590","name":"Zeitz, Stadt","type":"Stadt"},"district":{"key":"15084","name":"Burgenlandkreis","type":"Landkreis"},"federalState":{"key":"15","name":"Sachsen-Anhalt"}},{"name":"Froschgasse","postalCode":"06711","locality":"Zeitz","municipality":{"key":"15084590","name":"Zeitz, Stadt","type":"Stadt"},"district":{"key":"15084","name":"Burgenlandkreis","type":"Landkreis"},"federalState":{"key":"15","name":"Sachsen-Anhalt"}},{"name":"Gartengasse","postalCode":"06711","locality":"Zeitz","municipality":{"key":"15084590","name":"Zeitz, Stadt","type":"Stadt"},"district":{"key":"15084","name":"Burgenlandkreis","type":"Landkreis"},"federalState":{"key":"15","name":"Sachsen-Anhalt"}},{"name":"Gartensiedlung","postalCode":"06711","locality":"Zeitz","municipality":{"key":"15084590","name":"Zeitz, Stadt","type":"Stadt"},"district":{"key":"15084","name":"Burgenlandkreis","type":"Landkreis"},"federalState":{"key":"15","name":"Sachsen-Anhalt"}},{"name":"Gartenstr.","postalCode":"06711","locality":"Zeitz","municipality":{"key":"15084590","name":"Zeitz, Stadt","type":"Stadt"},"district":{"key":"15084","name":"Burgenlandkreis","type":"Landkreis"},"federalState":{"key":"15","name":"Sachsen-Anhalt"}},{"name":"Gartenweg","postalCode":"06711","locality":"Zeitz","municipality":{"key":"15084590","name":"Zeitz, Stadt","type":"Stadt"},"district":{"key":"15084","name":"Burgenlandkreis","type":"Landkreis"},"federalState":{"key":"15","name":"Sachsen-Anhalt"}},{"name":"Gartenweg","postalCode":"06712","locality":"Zeitz","municipality":{"key":"15084590","name":"Zeitz, Stadt","type":"Stadt"},"district":{"key":"15084","name":"Burgenlandkreis","type":"Landkreis"},"federalState":{"key":"15","name":"Sachsen-Anhalt"}},{"name":"Gärtnerstr.","postalCode":"06712","locality":"Zeitz","municipality":{"key":"15084590","name":"Zeitz, Stadt","type":"Stadt"},"district":{"key":"15084","name":"Burgenlandkreis","type":"Landkreis"},"federalState":{"key":"15","name":"Sachsen-Anhalt"}},{"name":"Gaumnitzer Str.","postalCode":"06711","locality":"Zeitz","municipality":{"key":"15084590","name":"Zeitz, Stadt","type":"Stadt"},"district":{"key":"15084","name":"Burgenlandkreis","type":"Landkreis"},"federalState":{"key":"15","name":"Sachsen-Anhalt"}},{"name":"Georgius-Agricola-Str.","postalCode":"06712","locality":"Zeitz","municipality":{"key":"15084590","name":"Zeitz, Stadt","type":"Stadt"},"district":{"key":"15084","name":"Burgenlandkreis","type":"Landkreis"},"federalState":{"key":"15","name":"Sachsen-Anhalt"}},{"name":"Geraer Str.","postalCode":"06712","locality":"Zeitz","municipality":{"key":"15084590","name":"Zeitz, Stadt","type":"Stadt"},"district":{"key":"15084","name":"Burgenlandkreis","type":"Landkreis"},"federalState":{"key":"15","name":"Sachsen-Anhalt"}},{"name":"Geschwister-Scholl-Str.","postalCode":"06712","locality":"Zeitz","municipality":{"key":"15084590","name":"Zeitz, Stadt","type":"Stadt"},"district":{"key":"15084","name":"Burgenlandkreis","type":"Landkreis"},"federalState":{"key":"15","name":"Sachsen-Anhalt"}},{"name":"Geußnitzer Str.","postalCode":"06712","locality":"Zeitz","municipality":{"key":"15084590","name":"Zeitz, Stadt","type":"Stadt"},"district":{"key":"15084","name":"Burgenlandkreis","type":"Landkreis"},"federalState":{"key":"15","name":"Sachsen-Anhalt"}},{"name":"Gleinaer Str.","postalCode":"06712","locality":"Zeitz","municipality":{"key":"15084590","name":"Zeitz, Stadt","type":"Stadt"},"district":{"key":"15084","name":"Burgenlandkreis","type":"Landkreis"},"federalState":{"key":"15","name":"Sachsen-Anhalt"}},{"name":"Glück-Auf-Str.","postalCode":"06711","locality":"Zeitz","municipality":{"key":"15084590","name":"Zeitz, Stadt","type":"Stadt"},"district":{"key":"15084","name":"Burgenlandkreis","type":"Landkreis"},"federalState":{"key":"15","name":"Sachsen-Anhalt"}},{"name":"Goethepark","postalCode":"06712","locality":"Zeitz","municipality":{"key":"15084590","name":"Zeitz, Stadt","type":"Stadt"},"district":{"key":"15084","name":"Burgenlandkreis","type":"Landkreis"},"federalState":{"key":"15","name":"Sachsen-Anhalt"}},{"name":"Goethestr.","postalCode":"06711","locality":"Zeitz","municipality":{"key":"15084590","name":"Zeitz, Stadt","type":"Stadt"},"district":{"key":"15084","name":"Burgenlandkreis","type":"Landkreis"},"federalState":{"key":"15","name":"Sachsen-Anhalt"}},{"name":"Goethestr.","postalCode":"06712","locality":"Zeitz","municipality":{"key":"15084590","name":"Zeitz, Stadt","type":"Stadt"},"district":{"key":"15084","name":"Burgenlandkreis","type":"Landkreis"},"federalState":{"key":"15","name":"Sachsen-Anhalt"}},{"name":"Granaer Weg","postalCode":"06711","locality":"Zeitz","municipality":{"key":"15084590","name":"Zeitz, Stadt","type":"Stadt"},"district":{"key":"15084","name":"Burgenlandkreis","type":"Landkreis"},"federalState":{"key":"15","name":"Sachsen-Anhalt"}},{"name":"Grenzstr.","postalCode":"06712","locality":"Zeitz","municipality":{"key":"15084590","name":"Zeitz, Stadt","type":"Stadt"},"district":{"key":"15084","name":"Burgenlandkreis","type":"Landkreis"},"federalState":{"key":"15","name":"Sachsen-Anhalt"}},{"name":"Großpörthener Weg","postalCode":"06712","locality":"Zeitz","municipality":{"key":"15084590","name":"Zeitz, Stadt","type":"Stadt"},"district":{"key":"15084","name":"Burgenlandkreis","type":"Landkreis"},"federalState":{"key":"15","name":"Sachsen-Anhalt"}},{"name":"Grube Wilhelm","postalCode":"06711","locality":"Zeitz","municipality":{"key":"15084590","name":"Zeitz, Stadt","type":"Stadt"},"district":{"key":"15084","name":"Burgenlandkreis","type":"Landkreis"},"federalState":{"key":"15","name":"Sachsen-Anhalt"}},{"name":"Gustav-Mahler-Str.","postalCode":"06712","locality":"Zeitz","municipality":{"key":"15084590","name":"Zeitz, Stadt","type":"Stadt"},"district":{"key":"15084","name":"Burgenlandkreis","type":"Landkreis"},"federalState":{"key":"15","name":"Sachsen-Anhalt"}},{"name":"Gustav-Sobottka-Str.","postalCode":"06712","locality":"Zeitz","municipality":{"key":"15084590","name":"Zeitz, Stadt","type":"Stadt"},"district":{"key":"15084","name":"Burgenlandkreis","type":"Landkreis"},"federalState":{"key":"15","name":"Sachsen-Anhalt"}},{"name":"Gutenbergstr.","postalCode":"06712","locality":"Zeitz","municipality":{"key":"15084590","name":"Zeitz, Stadt","type":"Stadt"},"district":{"key":"15084","name":"Burgenlandkreis","type":"Landkreis"},"federalState":{"key":"15","name":"Sachsen-Anhalt"}},{"name":"Hainichener Dorfstr.","postalCode":"06712","locality":"Zeitz","municipality":{"key":"15084590","name":"Zeitz, Stadt","type":"Stadt"},"district":{"key":"15084","name":"Burgenlandkreis","type":"Landkreis"},"federalState":{"key":"15","name":"Sachsen-Anhalt"}},{"name":"Hauptstr.","postalCode":"06711","locality":"Zeitz","municipality":{"key":"15084590","name":"Zeitz, Stadt","type":"Stadt"},"district":{"key":"15084","name":"Burgenlandkreis","type":"Landkreis"},"federalState":{"key":"15","name":"Sachsen-Anhalt"}},{"name":"Hauptstr.","postalCode":"06712","locality":"Zeitz","municipality":{"key":"15084590","name":"Zeitz, Stadt","type":"Stadt"},"district":{"key":"15084","name":"Burgenlandkreis","type":"Landkreis"},"federalState":{"key":"15","name":"Sachsen-Anhalt"}},{"name":"Heide zu Koyne","postalCode":"06712","locality":"Zeitz","municipality":{"key":"15084590","name":"Zeitz, Stadt","type":"Stadt"},"district":{"key":"15084","name":"Burgenlandkreis","type":"Landkreis"},"federalState":{"key":"15","name":"Sachsen-Anhalt"}},{"name":"Heinrich-Heine-Str.","postalCode":"06711","locality":"Zeitz","municipality":{"key":"15084590","name":"Zeitz, Stadt","type":"Stadt"},"district":{"key":"15084","name":"Burgenlandkreis","type":"Landkreis"},"federalState":{"key":"15","name":"Sachsen-Anhalt"}},{"name":"Heinrich-Heine-Str.","postalCode":"06712","locality":"Zeitz","municipality":{"key":"15084590","name":"Zeitz, Stadt","type":"Stadt"},"district":{"key":"15084","name":"Burgenlandkreis","type":"Landkreis"},"federalState":{"key":"15","name":"Sachsen-Anhalt"}},{"name":"Heinrich-Jacobi-Str.","postalCode":"06712","locality":"Zeitz","municipality":{"key":"15084590","name":"Zeitz, Stadt","type":"Stadt"},"district":{"key":"15084","name":"Burgenlandkreis","type":"Landkreis"},"federalState":{"key":"15","name":"Sachsen-Anhalt"}},{"name":"Heinrich-Schütz-Str.","postalCode":"06712","locality":"Zeitz","municipality":{"key":"15084590","name":"Zeitz, Stadt","type":"Stadt"},"district":{"key":"15084","name":"Burgenlandkreis","type":"Landkreis"},"federalState":{"key":"15","name":"Sachsen-Anhalt"}},{"name":"Henry-Dunant-Str.","postalCode":"06712","locality":"Zeitz","municipality":{"key":"15084590","name":"Zeitz, Stadt","type":"Stadt"},"district":{"key":"15084","name":"Burgenlandkreis","type":"Landkreis"},"federalState":{"key":"15","name":"Sachsen-Anhalt"}},{"name":"Hertha-Lindner-Str.","postalCode":"06712","locality":"Zeitz","municipality":{"key":"15084590","name":"Zeitz, Stadt","type":"Stadt"},"district":{"key":"15084","name":"Burgenlandkreis","type":"Landkreis"},"federalState":{"key":"15","name":"Sachsen-Anhalt"}},{"name":"Herzog-Moritz Platz","postalCode":"06712","locality":"Zeitz","municipality":{"key":"15084590","name":"Zeitz, Stadt","type":"Stadt"},"district":{"key":"15084","name":"Burgenlandkreis","type":"Landkreis"},"federalState":{"key":"15","name":"Sachsen-Anhalt"}},{"name":"Hilde-Coppi-Str.","postalCode":"06712","locality":"Zeitz","municipality":{"key":"15084590","name":"Zeitz, Stadt","type":"Stadt"},"district":{"key":"15084","name":"Burgenlandkreis","type":"Landkreis"},"federalState":{"key":"15","name":"Sachsen-Anhalt"}},{"name":"Hinter den Gärten","postalCode":"06712","locality":"Zeitz","municipality":{"key":"15084590","name":"Zeitz, Stadt","type":"Stadt"},"district":{"key":"15084","name":"Burgenlandkreis","type":"Landkreis"},"federalState":{"key":"15","name":"Sachsen-Anhalt"}},{"name":"Hoellingstr.","postalCode":"06712","locality":"Zeitz","municipality":{"key":"15084590","name":"Zeitz, Stadt","type":"Stadt"},"district":{"key":"15084","name":"Burgenlandkreis","type":"Landkreis"},"federalState":{"key":"15","name":"Sachsen-Anhalt"}},{"name":"Hohenmölsener Str.","postalCode":"06711","locality":"Zeitz","municipality":{"key":"15084590","name":"Zeitz, Stadt","type":"Stadt"},"district":{"key":"15084","name":"Burgenlandkreis","type":"Landkreis"},"federalState":{"key":"15","name":"Sachsen-Anhalt"}},{"name":"Hospitalstr.","postalCode":"06712","locality":"Zeitz","municipality":{"key":"15084590","name":"Zeitz, Stadt","type":"Stadt"},"district":{"key":"15084","name":"Burgenlandkreis","type":"Landkreis"},"federalState":{"key":"15","name":"Sachsen-Anhalt"}},{"name":"Hübnerstr.","postalCode":"06712","locality":"Zeitz","municipality":{"key":"15084590","name":"Zeitz, Stadt","type":"Stadt"},"district":{"key":"15084","name":"Burgenlandkreis","type":"Landkreis"},"federalState":{"key":"15","name":"Sachsen-Anhalt"}},{"name":"Humboldtstr.","postalCode":"06712","locality":"Zeitz","municipality":{"key":"15084590","name":"Zeitz, Stadt","type":"Stadt"},"district":{"key":"15084","name":"Burgenlandkreis","type":"Landkreis"},"federalState":{"key":"15","name":"Sachsen-Anhalt"}},{"name":"Immanuel-Kant-Str.","postalCode":"06712","locality":"Zeitz","municipality":{"key":"15084590","name":"Zeitz, Stadt","type":"Stadt"},"district":{"key":"15084","name":"Burgenlandkreis","type":"Landkreis"},"federalState":{"key":"15","name":"Sachsen-Anhalt"}},{"name":"Im stillen Winkel","postalCode":"06712","locality":"Zeitz","municipality":{"key":"15084590","name":"Zeitz, Stadt","type":"Stadt"},"district":{"key":"15084","name":"Burgenlandkreis","type":"Landkreis"},"federalState":{"key":"15","name":"Sachsen-Anhalt"}},{"name":"Im Winkel","postalCode":"06711","locality":"Zeitz","municipality":{"key":"15084590","name":"Zeitz, Stadt","type":"Stadt"},"district":{"key":"15084","name":"Burgenlandkreis","type":"Landkreis"},"federalState":{"key":"15","name":"Sachsen-Anhalt"}},{"name":"Innenpark zur alten Schule","postalCode":"06711","locality":"Zeitz","municipality":{"key":"15084590","name":"Zeitz, Stadt","type":"Stadt"},"district":{"key":"15084","name":"Burgenlandkreis","type":"Landkreis"},"federalState":{"key":"15","name":"Sachsen-Anhalt"}},{"name":"Jägerstr.","postalCode":"06712","locality":"Zeitz","municipality":{"key":"15084590","name":"Zeitz, Stadt","type":"Stadt"},"district":{"key":"15084","name":"Burgenlandkreis","type":"Landkreis"},"federalState":{"key":"15","name":"Sachsen-Anhalt"}},{"name":"Johann-Christian-Schubart-Str.","postalCode":"06712","locality":"Zeitz","municipality":{"key":"15084590","name":"Zeitz, Stadt","type":"Stadt"},"district":{"key":"15084","name":"Burgenlandkreis","type":"Landkreis"},"federalState":{"key":"15","name":"Sachsen-Anhalt"}},{"name":"Johann-Traugott-Weise-Str.","postalCode":"06712","locality":"Zeitz","municipality":{"key":"15084590","name":"Zeitz, Stadt","type":"Stadt"},"district":{"key":"15084","name":"Burgenlandkreis","type":"Landkreis"},"federalState":{"key":"15","name":"Sachsen-Anhalt"}},{"name":"Julius-von-Pflug-Str.","postalCode":"06712","locality":"Zeitz","municipality":{"key":"15084590","name":"Zeitz, Stadt","type":"Stadt"},"district":{"key":"15084","name":"Burgenlandkreis","type":"Landkreis"},"federalState":{"key":"15","name":"Sachsen-Anhalt"}},{"name":"Kalkstr.","postalCode":"06712","locality":"Zeitz","municipality":{"key":"15084590","name":"Zeitz, Stadt","type":"Stadt"},"district":{"key":"15084","name":"Burgenlandkreis","type":"Landkreis"},"federalState":{"key":"15","name":"Sachsen-Anhalt"}},{"name":"Kaltefeld","postalCode":"06712","locality":"Zeitz","municipality":{"key":"15084590","name":"Zeitz, Stadt","type":"Stadt"},"district":{"key":"15084","name":"Burgenlandkreis","type":"Landkreis"},"federalState":{"key":"15","name":"Sachsen-Anhalt"}},{"name":"Karl-Marx-Str.","postalCode":"06712","locality":"Zeitz","municipality":{"key":"15084590","name":"Zeitz, Stadt","type":"Stadt"},"district":{"key":"15084","name":"Burgenlandkreis","type":"Landkreis"},"federalState":{"key":"15","name":"Sachsen-Anhalt"}},{"name":"Kastanienplatz","postalCode":"06712","locality":"Zeitz","municipality":{"key":"15084590","name":"Zeitz, Stadt","type":"Stadt"},"district":{"key":"15084","name":"Burgenlandkreis","type":"Landkreis"},"federalState":{"key":"15","name":"Sachsen-Anhalt"}},{"name":"Kastanienweg","postalCode":"06712","locality":"Zeitz","municipality":{"key":"15084590","name":"Zeitz, Stadt","type":"Stadt"},"district":{"key":"15084","name":"Burgenlandkreis","type":"Landkreis"},"federalState":{"key":"15","name":"Sachsen-Anhalt"}},{"name":"Käthe-Kollwitz-Siedlung","postalCode":"06712","locality":"Zeitz","municipality":{"key":"15084590","name":"Zeitz, Stadt","type":"Stadt"},"district":{"key":"15084","name":"Burgenlandkreis","type":"Landkreis"},"federalState":{"key":"15","name":"Sachsen-Anhalt"}},{"name":"Käthe-Tucholla-Str.","postalCode":"06712","locality":"Zeitz","municipality":{"key":"15084590","name":"Zeitz, Stadt","type":"Stadt"},"district":{"key":"15084","name":"Burgenlandkreis","type":"Landkreis"},"federalState":{"key":"15","name":"Sachsen-Anhalt"}},{"name":"Kaynaer Weg","postalCode":"06712","locality":"Zeitz","municipality":{"key":"15084590","name":"Zeitz, Stadt","type":"Stadt"},"district":{"key":"15084","name":"Burgenlandkreis","type":"Landkreis"},"federalState":{"key":"15","name":"Sachsen-Anhalt"}},{"name":"Kiefernweg","postalCode":"06712","locality":"Zeitz","municipality":{"key":"15084590","name":"Zeitz, Stadt","type":"Stadt"},"district":{"key":"15084","name":"Burgenlandkreis","type":"Landkreis"},"federalState":{"key":"15","name":"Sachsen-Anhalt"}},{"name":"Kirchplatz","postalCode":"06712","locality":"Zeitz","municipality":{"key":"15084590","name":"Zeitz, Stadt","type":"Stadt"},"district":{"key":"15084","name":"Burgenlandkreis","type":"Landkreis"},"federalState":{"key":"15","name":"Sachsen-Anhalt"}},{"name":"Kirchstr.","postalCode":"06712","locality":"Zeitz","municipality":{"key":"15084590","name":"Zeitz, Stadt","type":"Stadt"},"district":{"key":"15084","name":"Burgenlandkreis","type":"Landkreis"},"federalState":{"key":"15","name":"Sachsen-Anhalt"}},{"name":"Kirschberg","postalCode":"06712","locality":"Zeitz","municipality":{"key":"15084590","name":"Zeitz, Stadt","type":"Stadt"},"district":{"key":"15084","name":"Burgenlandkreis","type":"Landkreis"},"federalState":{"key":"15","name":"Sachsen-Anhalt"}},{"name":"Kleefeldplatz","postalCode":"06712","locality":"Zeitz","municipality":{"key":"15084590","name":"Zeitz, Stadt","type":"Stadt"},"district":{"key":"15084","name":"Burgenlandkreis","type":"Landkreis"},"federalState":{"key":"15","name":"Sachsen-Anhalt"}},{"name":"Kleefeldweg","postalCode":"06712","locality":"Zeitz","municipality":{"key":"15084590","name":"Zeitz, Stadt","type":"Stadt"},"district":{"key":"15084","name":"Burgenlandkreis","type":"Landkreis"},"federalState":{"key":"15","name":"Sachsen-Anhalt"}},{"name":"Kleiner Park","postalCode":"06711","locality":"Zeitz","municipality":{"key":"15084590","name":"Zeitz, Stadt","type":"Stadt"},"district":{"key":"15084","name":"Burgenlandkreis","type":"Landkreis"},"federalState":{"key":"15","name":"Sachsen-Anhalt"}},{"name":"Klosterkirchhof","postalCode":"06712","locality":"Zeitz","municipality":{"key":"15084590","name":"Zeitz, Stadt","type":"Stadt"},"district":{"key":"15084","name":"Burgenlandkreis","type":"Landkreis"},"federalState":{"key":"15","name":"Sachsen-Anhalt"}},{"name":"Klosterstr.","postalCode":"06712","locality":"Zeitz","municipality":{"key":"15084590","name":"Zeitz, Stadt","type":"Stadt"},"district":{"key":"15084","name":"Burgenlandkreis","type":"Landkreis"},"federalState":{"key":"15","name":"Sachsen-Anhalt"}},{"name":"Knittelholzweg","postalCode":"06712","locality":"Zeitz","municipality":{"key":"15084590","name":"Zeitz, Stadt","type":"Stadt"},"district":{"key":"15084","name":"Burgenlandkreis","type":"Landkreis"},"federalState":{"key":"15","name":"Sachsen-Anhalt"}},{"name":"Krebsberg Gang 1","postalCode":"06712","locality":"Zeitz","municipality":{"key":"15084590","name":"Zeitz, Stadt","type":"Stadt"},"district":{"key":"15084","name":"Burgenlandkreis","type":"Landkreis"},"federalState":{"key":"15","name":"Sachsen-Anhalt"}},{"name":"Krebsberg Gang 2","postalCode":"06712","locality":"Zeitz","municipality":{"key":"15084590","name":"Zeitz, Stadt","type":"Stadt"},"district":{"key":"15084","name":"Burgenlandkreis","type":"Landkreis"},"federalState":{"key":"15","name":"Sachsen-Anhalt"}},{"name":"Krebsberg Gang 3","postalCode":"06712","locality":"Zeitz","municipality":{"key":"15084590","name":"Zeitz, Stadt","type":"Stadt"},"district":{"key":"15084","name":"Burgenlandkreis","type":"Landkreis"},"federalState":{"key":"15","name":"Sachsen-Anhalt"}},{"name":"Kreisstr.","postalCode":"06712","locality":"Zeitz","municipality":{"key":"15084590","name":"Zeitz, Stadt","type":"Stadt"},"district":{"key":"15084","name":"Burgenlandkreis","type":"Landkreis"},"federalState":{"key":"15","name":"Sachsen-Anhalt"}},{"name":"Kühler Grund","postalCode":"06712","locality":"Zeitz","municipality":{"key":"15084590","name":"Zeitz, Stadt","type":"Stadt"},"district":{"key":"15084","name":"Burgenlandkreis","type":"Landkreis"},"federalState":{"key":"15","name":"Sachsen-Anhalt"}},{"name":"Kurt-Eisner-Str.","postalCode":"06712","locality":"Zeitz","municipality":{"key":"15084590","name":"Zeitz, Stadt","type":"Stadt"},"district":{"key":"15084","name":"Burgenlandkreis","type":"Landkreis"},"federalState":{"key":"15","name":"Sachsen-Anhalt"}},{"name":"Kurt-Lange-Str.","postalCode":"06711","locality":"Zeitz","municipality":{"key":"15084590","name":"Zeitz, Stadt","type":"Stadt"},"district":{"key":"15084","name":"Burgenlandkreis","type":"Landkreis"},"federalState":{"key":"15","name":"Sachsen-Anhalt"}},{"name":"Kurzer Weg","postalCode":"06711","locality":"Zeitz","municipality":{"key":"15084590","name":"Zeitz, Stadt","type":"Stadt"},"district":{"key":"15084","name":"Burgenlandkreis","type":"Landkreis"},"federalState":{"key":"15","name":"Sachsen-Anhalt"}},{"name":"Kurze Str.","postalCode":"06711","locality":"Zeitz","municipality":{"key":"15084590","name":"Zeitz, Stadt","type":"Stadt"},"district":{"key":"15084","name":"Burgenlandkreis","type":"Landkreis"},"federalState":{"key":"15","name":"Sachsen-Anhalt"}},{"name":"Kurze Str.","postalCode":"06712","locality":"Zeitz","municipality":{"key":"15084590","name":"Zeitz, Stadt","type":"Stadt"},"district":{"key":"15084","name":"Burgenlandkreis","type":"Landkreis"},"federalState":{"key":"15","name":"Sachsen-Anhalt"}},{"name":"Lassallestr.","postalCode":"06712","locality":"Zeitz","municipality":{"key":"15084590","name":"Zeitz, Stadt","type":"Stadt"},"district":{"key":"15084","name":"Burgenlandkreis","type":"Landkreis"},"federalState":{"key":"15","name":"Sachsen-Anhalt"}},{"name":"Leipziger Str.","postalCode":"06711","locality":"Zeitz","municipality":{"key":"15084590","name":"Zeitz, Stadt","type":"Stadt"},"district":{"key":"15084","name":"Burgenlandkreis","type":"Landkreis"},"federalState":{"key":"15","name":"Sachsen-Anhalt"}},{"name":"Leipziger Str.","postalCode":"06712","locality":"Zeitz","municipality":{"key":"15084590","name":"Zeitz, Stadt","type":"Stadt"},"district":{"key":"15084","name":"Burgenlandkreis","type":"Landkreis"},"federalState":{"key":"15","name":"Sachsen-Anhalt"}},{"name":"Lessingstr.","postalCode":"06712","locality":"Zeitz","municipality":{"key":"15084590","name":"Zeitz, Stadt","type":"Stadt"},"district":{"key":"15084","name":"Burgenlandkreis","type":"Landkreis"},"federalState":{"key":"15","name":"Sachsen-Anhalt"}},{"name":"Liebknechtstr.","postalCode":"06711","locality":"Zeitz","municipality":{"key":"15084590","name":"Zeitz, Stadt","type":"Stadt"},"district":{"key":"15084","name":"Burgenlandkreis","type":"Landkreis"},"federalState":{"key":"15","name":"Sachsen-Anhalt"}},{"name":"Liebknechtstr.","postalCode":"06712","locality":"Zeitz","municipality":{"key":"15084590","name":"Zeitz, Stadt","type":"Stadt"},"district":{"key":"15084","name":"Burgenlandkreis","type":"Landkreis"},"federalState":{"key":"15","name":"Sachsen-Anhalt"}},{"name":"Lieselotte-Hermann-Str.","postalCode":"06712","locality":"Zeitz","municipality":{"key":"15084590","name":"Zeitz, Stadt","type":"Stadt"},"district":{"key":"15084","name":"Burgenlandkreis","type":"Landkreis"},"federalState":{"key":"15","name":"Sachsen-Anhalt"}},{"name":"Lindenallee","postalCode":"06712","locality":"Zeitz","municipality":{"key":"15084590","name":"Zeitz, Stadt","type":"Stadt"},"district":{"key":"15084","name":"Burgenlandkreis","type":"Landkreis"},"federalState":{"key":"15","name":"Sachsen-Anhalt"}},{"name":"Lindenberg","postalCode":"06712","locality":"Zeitz","municipality":{"key":"15084590","name":"Zeitz, Stadt","type":"Stadt"},"district":{"key":"15084","name":"Burgenlandkreis","type":"Landkreis"},"federalState":{"key":"15","name":"Sachsen-Anhalt"}},{"name":"Lindenplatz","postalCode":"06712","locality":"Zeitz","municipality":{"key":"15084590","name":"Zeitz, Stadt","type":"Stadt"},"district":{"key":"15084","name":"Burgenlandkreis","type":"Landkreis"},"federalState":{"key":"15","name":"Sachsen-Anhalt"}},{"name":"Lindenstr.","postalCode":"06711","locality":"Zeitz","municipality":{"key":"15084590","name":"Zeitz, Stadt","type":"Stadt"},"district":{"key":"15084","name":"Burgenlandkreis","type":"Landkreis"},"federalState":{"key":"15","name":"Sachsen-Anhalt"}},{"name":"Lobaser Dorfstr.","postalCode":"06712","locality":"Zeitz","municipality":{"key":"15084590","name":"Zeitz, Stadt","type":"Stadt"},"district":{"key":"15084","name":"Burgenlandkreis","type":"Landkreis"},"federalState":{"key":"15","name":"Sachsen-Anhalt"}},{"name":"Loitscher Brühl","postalCode":"06712","locality":"Zeitz","municipality":{"key":"15084590","name":"Zeitz, Stadt","type":"Stadt"},"district":{"key":"15084","name":"Burgenlandkreis","type":"Landkreis"},"federalState":{"key":"15","name":"Sachsen-Anhalt"}},{"name":"Loitscher Dorfstr.","postalCode":"06712","locality":"Zeitz","municipality":{"key":"15084590","name":"Zeitz, Stadt","type":"Stadt"},"district":{"key":"15084","name":"Burgenlandkreis","type":"Landkreis"},"federalState":{"key":"15","name":"Sachsen-Anhalt"}},{"name":"Loitscher Hauptstr.","postalCode":"06712","locality":"Zeitz","municipality":{"key":"15084590","name":"Zeitz, Stadt","type":"Stadt"},"district":{"key":"15084","name":"Burgenlandkreis","type":"Landkreis"},"federalState":{"key":"15","name":"Sachsen-Anhalt"}},{"name":"Loitzscher Str.","postalCode":"06712","locality":"Zeitz","municipality":{"key":"15084590","name":"Zeitz, Stadt","type":"Stadt"},"district":{"key":"15084","name":"Burgenlandkreis","type":"Landkreis"},"federalState":{"key":"15","name":"Sachsen-Anhalt"}},{"name":"Luckenauer Weg","postalCode":"06711","locality":"Zeitz","municipality":{"key":"15084590","name":"Zeitz, Stadt","type":"Stadt"},"district":{"key":"15084","name":"Burgenlandkreis","type":"Landkreis"},"federalState":{"key":"15","name":"Sachsen-Anhalt"}},{"name":"Ludwig-Lange-Str.","postalCode":"06712","locality":"Zeitz","municipality":{"key":"15084590","name":"Zeitz, Stadt","type":"Stadt"},"district":{"key":"15084","name":"Burgenlandkreis","type":"Landkreis"},"federalState":{"key":"15","name":"Sachsen-Anhalt"}},{"name":"Maria-Buch-Str.","postalCode":"06712","locality":"Zeitz","municipality":{"key":"15084590","name":"Zeitz, Stadt","type":"Stadt"},"district":{"key":"15084","name":"Burgenlandkreis","type":"Landkreis"},"federalState":{"key":"15","name":"Sachsen-Anhalt"}},{"name":"Markt","postalCode":"06712","locality":"Zeitz","municipality":{"key":"15084590","name":"Zeitz, Stadt","type":"Stadt"},"district":{"key":"15084","name":"Burgenlandkreis","type":"Landkreis"},"federalState":{"key":"15","name":"Sachsen-Anhalt"}},{"name":"Martin-Planer-Str.","postalCode":"06712","locality":"Zeitz","municipality":{"key":"15084590","name":"Zeitz, Stadt","type":"Stadt"},"district":{"key":"15084","name":"Burgenlandkreis","type":"Landkreis"},"federalState":{"key":"15","name":"Sachsen-Anhalt"}},{"name":"Max-Planck-Str.","postalCode":"06712","locality":"Zeitz","municipality":{"key":"15084590","name":"Zeitz, Stadt","type":"Stadt"},"district":{"key":"15084","name":"Burgenlandkreis","type":"Landkreis"},"federalState":{"key":"15","name":"Sachsen-Anhalt"}},{"name":"Messerschmiedestr.","postalCode":"06712","locality":"Zeitz","municipality":{"key":"15084590","name":"Zeitz, Stadt","type":"Stadt"},"district":{"key":"15084","name":"Burgenlandkreis","type":"Landkreis"},"federalState":{"key":"15","name":"Sachsen-Anhalt"}},{"name":"Mittelstr.","postalCode":"06711","locality":"Zeitz","municipality":{"key":"15084590","name":"Zeitz, Stadt","type":"Stadt"},"district":{"key":"15084","name":"Burgenlandkreis","type":"Landkreis"},"federalState":{"key":"15","name":"Sachsen-Anhalt"}},{"name":"Mittelstr.","postalCode":"06712","locality":"Zeitz","municipality":{"key":"15084590","name":"Zeitz, Stadt","type":"Stadt"},"district":{"key":"15084","name":"Burgenlandkreis","type":"Landkreis"},"federalState":{"key":"15","name":"Sachsen-Anhalt"}},{"name":"Mittelweg","postalCode":"06711","locality":"Zeitz","municipality":{"key":"15084590","name":"Zeitz, Stadt","type":"Stadt"},"district":{"key":"15084","name":"Burgenlandkreis","type":"Landkreis"},"federalState":{"key":"15","name":"Sachsen-Anhalt"}},{"name":"Mittelweg","postalCode":"06712","locality":"Zeitz","municipality":{"key":"15084590","name":"Zeitz, Stadt","type":"Stadt"},"district":{"key":"15084","name":"Burgenlandkreis","type":"Landkreis"},"federalState":{"key":"15","name":"Sachsen-Anhalt"}},{"name":"Moskauer Str.","postalCode":"06712","locality":"Zeitz","municipality":{"key":"15084590","name":"Zeitz, Stadt","type":"Stadt"},"district":{"key":"15084","name":"Burgenlandkreis","type":"Landkreis"},"federalState":{"key":"15","name":"Sachsen-Anhalt"}},{"name":"Mozartstr.","postalCode":"06712","locality":"Zeitz","municipality":{"key":"15084590","name":"Zeitz, Stadt","type":"Stadt"},"district":{"key":"15084","name":"Burgenlandkreis","type":"Landkreis"},"federalState":{"key":"15","name":"Sachsen-Anhalt"}},{"name":"Mühlenweg","postalCode":"06711","locality":"Zeitz","municipality":{"key":"15084590","name":"Zeitz, Stadt","type":"Stadt"},"district":{"key":"15084","name":"Burgenlandkreis","type":"Landkreis"},"federalState":{"key":"15","name":"Sachsen-Anhalt"}},{"name":"Naumburger Str.","postalCode":"06712","locality":"Zeitz","municipality":{"key":"15084590","name":"Zeitz, Stadt","type":"Stadt"},"district":{"key":"15084","name":"Burgenlandkreis","type":"Landkreis"},"federalState":{"key":"15","name":"Sachsen-Anhalt"}},{"name":"Naundorfer Str.","postalCode":"06712","locality":"Zeitz","municipality":{"key":"15084590","name":"Zeitz, Stadt","type":"Stadt"},"district":{"key":"15084","name":"Burgenlandkreis","type":"Landkreis"},"federalState":{"key":"15","name":"Sachsen-Anhalt"}},{"name":"Neue Str.","postalCode":"06712","locality":"Zeitz","municipality":{"key":"15084590","name":"Zeitz, Stadt","type":"Stadt"},"district":{"key":"15084","name":"Burgenlandkreis","type":"Landkreis"},"federalState":{"key":"15","name":"Sachsen-Anhalt"}},{"name":"Neumarkt","postalCode":"06712","locality":"Zeitz","municipality":{"key":"15084590","name":"Zeitz, Stadt","type":"Stadt"},"district":{"key":"15084","name":"Burgenlandkreis","type":"Landkreis"},"federalState":{"key":"15","name":"Sachsen-Anhalt"}},{"name":"Neumarktstr.","postalCode":"06712","locality":"Zeitz","municipality":{"key":"15084590","name":"Zeitz, Stadt","type":"Stadt"},"district":{"key":"15084","name":"Burgenlandkreis","type":"Landkreis"},"federalState":{"key":"15","name":"Sachsen-Anhalt"}},{"name":"Nicolaiplatz","postalCode":"06712","locality":"Zeitz","municipality":{"key":"15084590","name":"Zeitz, Stadt","type":"Stadt"},"district":{"key":"15084","name":"Burgenlandkreis","type":"Landkreis"},"federalState":{"key":"15","name":"Sachsen-Anhalt"}},{"name":"Nicolaistr.","postalCode":"06712","locality":"Zeitz","municipality":{"key":"15084590","name":"Zeitz, Stadt","type":"Stadt"},"district":{"key":"15084","name":"Burgenlandkreis","type":"Landkreis"},"federalState":{"key":"15","name":"Sachsen-Anhalt"}},{"name":"Nicolaus-von-Amsdorf-Str.","postalCode":"06712","locality":"Zeitz","municipality":{"key":"15084590","name":"Zeitz, Stadt","type":"Stadt"},"district":{"key":"15084","name":"Burgenlandkreis","type":"Landkreis"},"federalState":{"key":"15","name":"Sachsen-Anhalt"}},{"name":"Nordsiedlung","postalCode":"06712","locality":"Zeitz","municipality":{"key":"15084590","name":"Zeitz, Stadt","type":"Stadt"},"district":{"key":"15084","name":"Burgenlandkreis","type":"Landkreis"},"federalState":{"key":"15","name":"Sachsen-Anhalt"}},{"name":"Nordstr.","postalCode":"06711","locality":"Zeitz","municipality":{"key":"15084590","name":"Zeitz, Stadt","type":"Stadt"},"district":{"key":"15084","name":"Burgenlandkreis","type":"Landkreis"},"federalState":{"key":"15","name":"Sachsen-Anhalt"}},{"name":"Nordstr.","postalCode":"06712","locality":"Zeitz","municipality":{"key":"15084590","name":"Zeitz, Stadt","type":"Stadt"},"district":{"key":"15084","name":"Burgenlandkreis","type":"Landkreis"},"federalState":{"key":"15","name":"Sachsen-Anhalt"}},{"name":"Olga-Benario-Str.","postalCode":"06712","locality":"Zeitz","municipality":{"key":"15084590","name":"Zeitz, Stadt","type":"Stadt"},"district":{"key":"15084","name":"Burgenlandkreis","type":"Landkreis"},"federalState":{"key":"15","name":"Sachsen-Anhalt"}},{"name":"Oststr.","postalCode":"06711","locality":"Zeitz","municipality":{"key":"15084590","name":"Zeitz, Stadt","type":"Stadt"},"district":{"key":"15084","name":"Burgenlandkreis","type":"Landkreis"},"federalState":{"key":"15","name":"Sachsen-Anhalt"}},{"name":"Otto-Schauer-Str.","postalCode":"06711","locality":"Zeitz","municipality":{"key":"15084590","name":"Zeitz, Stadt","type":"Stadt"},"district":{"key":"15084","name":"Burgenlandkreis","type":"Landkreis"},"federalState":{"key":"15","name":"Sachsen-Anhalt"}},{"name":"Otto-Schlag Str.","postalCode":"06712","locality":"Zeitz","municipality":{"key":"15084590","name":"Zeitz, Stadt","type":"Stadt"},"district":{"key":"15084","name":"Burgenlandkreis","type":"Landkreis"},"federalState":{"key":"15","name":"Sachsen-Anhalt"}},{"name":"Pappelweg","postalCode":"06711","locality":"Zeitz","municipality":{"key":"15084590","name":"Zeitz, Stadt","type":"Stadt"},"district":{"key":"15084","name":"Burgenlandkreis","type":"Landkreis"},"federalState":{"key":"15","name":"Sachsen-Anhalt"}},{"name":"Pappelweg","postalCode":"06712","locality":"Zeitz","municipality":{"key":"15084590","name":"Zeitz, Stadt","type":"Stadt"},"district":{"key":"15084","name":"Burgenlandkreis","type":"Landkreis"},"federalState":{"key":"15","name":"Sachsen-Anhalt"}},{"name":"Parkstr.","postalCode":"06712","locality":"Zeitz","municipality":{"key":"15084590","name":"Zeitz, Stadt","type":"Stadt"},"district":{"key":"15084","name":"Burgenlandkreis","type":"Landkreis"},"federalState":{"key":"15","name":"Sachsen-Anhalt"}},{"name":"Parzellenstr.","postalCode":"06712","locality":"Zeitz","municipality":{"key":"15084590","name":"Zeitz, Stadt","type":"Stadt"},"district":{"key":"15084","name":"Burgenlandkreis","type":"Landkreis"},"federalState":{"key":"15","name":"Sachsen-Anhalt"}},{"name":"Paul-Rohland-Str.","postalCode":"06712","locality":"Zeitz","municipality":{"key":"15084590","name":"Zeitz, Stadt","type":"Stadt"},"district":{"key":"15084","name":"Burgenlandkreis","type":"Landkreis"},"federalState":{"key":"15","name":"Sachsen-Anhalt"}},{"name":"Paul-Wegmann-Str.","postalCode":"06712","locality":"Zeitz","municipality":{"key":"15084590","name":"Zeitz, Stadt","type":"Stadt"},"district":{"key":"15084","name":"Burgenlandkreis","type":"Landkreis"},"federalState":{"key":"15","name":"Sachsen-Anhalt"}},{"name":"Pekinger Str.","postalCode":"06712","locality":"Zeitz","municipality":{"key":"15084590","name":"Zeitz, Stadt","type":"Stadt"},"district":{"key":"15084","name":"Burgenlandkreis","type":"Landkreis"},"federalState":{"key":"15","name":"Sachsen-Anhalt"}},{"name":"Pestalozzistr.","postalCode":"06711","locality":"Zeitz","municipality":{"key":"15084590","name":"Zeitz, Stadt","type":"Stadt"},"district":{"key":"15084","name":"Burgenlandkreis","type":"Landkreis"},"federalState":{"key":"15","name":"Sachsen-Anhalt"}},{"name":"Pestalozzistr.","postalCode":"06712","locality":"Zeitz","municipality":{"key":"15084590","name":"Zeitz, Stadt","type":"Stadt"},"district":{"key":"15084","name":"Burgenlandkreis","type":"Landkreis"},"federalState":{"key":"15","name":"Sachsen-Anhalt"}},{"name":"Pfalzstr.","postalCode":"06712","locality":"Zeitz","municipality":{"key":"15084590","name":"Zeitz, Stadt","type":"Stadt"},"district":{"key":"15084","name":"Burgenlandkreis","type":"Landkreis"},"federalState":{"key":"15","name":"Sachsen-Anhalt"}},{"name":"Pirkau","postalCode":"06711","locality":"Zeitz","municipality":{"key":"15084590","name":"Zeitz, Stadt","type":"Stadt"},"district":{"key":"15084","name":"Burgenlandkreis","type":"Landkreis"},"federalState":{"key":"15","name":"Sachsen-Anhalt"}},{"name":"Platanenweg","postalCode":"06712","locality":"Zeitz","municipality":{"key":"15084590","name":"Zeitz, Stadt","type":"Stadt"},"district":{"key":"15084","name":"Burgenlandkreis","type":"Landkreis"},"federalState":{"key":"15","name":"Sachsen-Anhalt"}},{"name":"Platz der Einheit","postalCode":"06711","locality":"Zeitz","municipality":{"key":"15084590","name":"Zeitz, Stadt","type":"Stadt"},"district":{"key":"15084","name":"Burgenlandkreis","type":"Landkreis"},"federalState":{"key":"15","name":"Sachsen-Anhalt"}},{"name":"Posaer Str.","postalCode":"06712","locality":"Zeitz","municipality":{"key":"15084590","name":"Zeitz, Stadt","type":"Stadt"},"district":{"key":"15084","name":"Burgenlandkreis","type":"Landkreis"},"federalState":{"key":"15","name":"Sachsen-Anhalt"}},{"name":"Poststr.","postalCode":"06711","locality":"Zeitz","municipality":{"key":"15084590","name":"Zeitz, Stadt","type":"Stadt"},"district":{"key":"15084","name":"Burgenlandkreis","type":"Landkreis"},"federalState":{"key":"15","name":"Sachsen-Anhalt"}},{"name":"Prager Str.","postalCode":"06712","locality":"Zeitz","municipality":{"key":"15084590","name":"Zeitz, Stadt","type":"Stadt"},"district":{"key":"15084","name":"Burgenlandkreis","type":"Landkreis"},"federalState":{"key":"15","name":"Sachsen-Anhalt"}},{"name":"Querstr.","postalCode":"06711","locality":"Zeitz","municipality":{"key":"15084590","name":"Zeitz, Stadt","type":"Stadt"},"district":{"key":"15084","name":"Burgenlandkreis","type":"Landkreis"},"federalState":{"key":"15","name":"Sachsen-Anhalt"}},{"name":"Querstr.","postalCode":"06712","locality":"Zeitz","municipality":{"key":"15084590","name":"Zeitz, Stadt","type":"Stadt"},"district":{"key":"15084","name":"Burgenlandkreis","type":"Landkreis"},"federalState":{"key":"15","name":"Sachsen-Anhalt"}},{"name":"Rahnestr.","postalCode":"06712","locality":"Zeitz","municipality":{"key":"15084590","name":"Zeitz, Stadt","type":"Stadt"},"district":{"key":"15084","name":"Burgenlandkreis","type":"Landkreis"},"federalState":{"key":"15","name":"Sachsen-Anhalt"}},{"name":"Rasberger Str.","postalCode":"06712","locality":"Zeitz","municipality":{"key":"15084590","name":"Zeitz, Stadt","type":"Stadt"},"district":{"key":"15084","name":"Burgenlandkreis","type":"Landkreis"},"federalState":{"key":"15","name":"Sachsen-Anhalt"}},{"name":"Rathausgarten","postalCode":"06712","locality":"Zeitz","municipality":{"key":"15084590","name":"Zeitz, Stadt","type":"Stadt"},"district":{"key":"15084","name":"Burgenlandkreis","type":"Landkreis"},"federalState":{"key":"15","name":"Sachsen-Anhalt"}},{"name":"Reußener Park","postalCode":"06711","locality":"Zeitz","municipality":{"key":"15084590","name":"Zeitz, Stadt","type":"Stadt"},"district":{"key":"15084","name":"Burgenlandkreis","type":"Landkreis"},"federalState":{"key":"15","name":"Sachsen-Anhalt"}},{"name":"Reußener Str.","postalCode":"06711","locality":"Zeitz","municipality":{"key":"15084590","name":"Zeitz, Stadt","type":"Stadt"},"district":{"key":"15084","name":"Burgenlandkreis","type":"Landkreis"},"federalState":{"key":"15","name":"Sachsen-Anhalt"}},{"name":"Richard-Leißling-Str.","postalCode":"06712","locality":"Zeitz","municipality":{"key":"15084590","name":"Zeitz, Stadt","type":"Stadt"},"district":{"key":"15084","name":"Burgenlandkreis","type":"Landkreis"},"federalState":{"key":"15","name":"Sachsen-Anhalt"}},{"name":"Richard-Wagner-Str.","postalCode":"06712","locality":"Zeitz","municipality":{"key":"15084590","name":"Zeitz, Stadt","type":"Stadt"},"district":{"key":"15084","name":"Burgenlandkreis","type":"Landkreis"},"federalState":{"key":"15","name":"Sachsen-Anhalt"}},{"name":"Richterstr.","postalCode":"06712","locality":"Zeitz","municipality":{"key":"15084590","name":"Zeitz, Stadt","type":"Stadt"},"district":{"key":"15084","name":"Burgenlandkreis","type":"Landkreis"},"federalState":{"key":"15","name":"Sachsen-Anhalt"}},{"name":"Ringstr.","postalCode":"06711","locality":"Zeitz","municipality":{"key":"15084590","name":"Zeitz, Stadt","type":"Stadt"},"district":{"key":"15084","name":"Burgenlandkreis","type":"Landkreis"},"federalState":{"key":"15","name":"Sachsen-Anhalt"}},{"name":"Ringweg","postalCode":"06712","locality":"Zeitz","municipality":{"key":"15084590","name":"Zeitz, Stadt","type":"Stadt"},"district":{"key":"15084","name":"Burgenlandkreis","type":"Landkreis"},"federalState":{"key":"15","name":"Sachsen-Anhalt"}},{"name":"Ritterstr.","postalCode":"06712","locality":"Zeitz","municipality":{"key":"15084590","name":"Zeitz, Stadt","type":"Stadt"},"district":{"key":"15084","name":"Burgenlandkreis","type":"Landkreis"},"federalState":{"key":"15","name":"Sachsen-Anhalt"}},{"name":"Robert-Koch-Str.","postalCode":"06712","locality":"Zeitz","municipality":{"key":"15084590","name":"Zeitz, Stadt","type":"Stadt"},"district":{"key":"15084","name":"Burgenlandkreis","type":"Landkreis"},"federalState":{"key":"15","name":"Sachsen-Anhalt"}},{"name":"Robert-Schumann-Str.","postalCode":"06712","locality":"Zeitz","municipality":{"key":"15084590","name":"Zeitz, Stadt","type":"Stadt"},"district":{"key":"15084","name":"Burgenlandkreis","type":"Landkreis"},"federalState":{"key":"15","name":"Sachsen-Anhalt"}},{"name":"Rödener Weg","postalCode":"06712","locality":"Zeitz","municipality":{"key":"15084590","name":"Zeitz, Stadt","type":"Stadt"},"district":{"key":"15084","name":"Burgenlandkreis","type":"Landkreis"},"federalState":{"key":"15","name":"Sachsen-Anhalt"}},{"name":"Ronneburger Str.","postalCode":"06712","locality":"Zeitz","municipality":{"key":"15084590","name":"Zeitz, Stadt","type":"Stadt"},"district":{"key":"15084","name":"Burgenlandkreis","type":"Landkreis"},"federalState":{"key":"15","name":"Sachsen-Anhalt"}},{"name":"Röntgenstr.","postalCode":"06712","locality":"Zeitz","municipality":{"key":"15084590","name":"Zeitz, Stadt","type":"Stadt"},"district":{"key":"15084","name":"Burgenlandkreis","type":"Landkreis"},"federalState":{"key":"15","name":"Sachsen-Anhalt"}},{"name":"Rosa-Luxemburg-Str.","postalCode":"06712","locality":"Zeitz","municipality":{"key":"15084590","name":"Zeitz, Stadt","type":"Stadt"},"district":{"key":"15084","name":"Burgenlandkreis","type":"Landkreis"},"federalState":{"key":"15","name":"Sachsen-Anhalt"}},{"name":"Rosenweg","postalCode":"06712","locality":"Zeitz","municipality":{"key":"15084590","name":"Zeitz, Stadt","type":"Stadt"},"district":{"key":"15084","name":"Burgenlandkreis","type":"Landkreis"},"federalState":{"key":"15","name":"Sachsen-Anhalt"}},{"name":"Roßstr.","postalCode":"06712","locality":"Zeitz","municipality":{"key":"15084590","name":"Zeitz, Stadt","type":"Stadt"},"district":{"key":"15084","name":"Burgenlandkreis","type":"Landkreis"},"federalState":{"key":"15","name":"Sachsen-Anhalt"}},{"name":"Rothenfurter Str.","postalCode":"06712","locality":"Zeitz","municipality":{"key":"15084590","name":"Zeitz, Stadt","type":"Stadt"},"district":{"key":"15084","name":"Burgenlandkreis","type":"Landkreis"},"federalState":{"key":"15","name":"Sachsen-Anhalt"}},{"name":"Rothenfurter Wand","postalCode":"06712","locality":"Zeitz","municipality":{"key":"15084590","name":"Zeitz, Stadt","type":"Stadt"},"district":{"key":"15084","name":"Burgenlandkreis","type":"Landkreis"},"federalState":{"key":"15","name":"Sachsen-Anhalt"}},{"name":"Rothestr.","postalCode":"06712","locality":"Zeitz","municipality":{"key":"15084590","name":"Zeitz, Stadt","type":"Stadt"},"district":{"key":"15084","name":"Burgenlandkreis","type":"Landkreis"},"federalState":{"key":"15","name":"Sachsen-Anhalt"}},{"name":"Rudolf-Breitscheid-Str.","postalCode":"06712","locality":"Zeitz","municipality":{"key":"15084590","name":"Zeitz, Stadt","type":"Stadt"},"district":{"key":"15084","name":"Burgenlandkreis","type":"Landkreis"},"federalState":{"key":"15","name":"Sachsen-Anhalt"}},{"name":"Rudolf-Puschendorf-Str.","postalCode":"06712","locality":"Zeitz","municipality":{"key":"15084590","name":"Zeitz, Stadt","type":"Stadt"},"district":{"key":"15084","name":"Burgenlandkreis","type":"Landkreis"},"federalState":{"key":"15","name":"Sachsen-Anhalt"}},{"name":"Salzstr.","postalCode":"06712","locality":"Zeitz","municipality":{"key":"15084590","name":"Zeitz, Stadt","type":"Stadt"},"district":{"key":"15084","name":"Burgenlandkreis","type":"Landkreis"},"federalState":{"key":"15","name":"Sachsen-Anhalt"}},{"name":"Sandgraben","postalCode":"06712","locality":"Zeitz","municipality":{"key":"15084590","name":"Zeitz, Stadt","type":"Stadt"},"district":{"key":"15084","name":"Burgenlandkreis","type":"Landkreis"},"federalState":{"key":"15","name":"Sachsen-Anhalt"}},{"name":"Schädestr.","postalCode":"06712","locality":"Zeitz","municipality":{"key":"15084590","name":"Zeitz, Stadt","type":"Stadt"},"district":{"key":"15084","name":"Burgenlandkreis","type":"Landkreis"},"federalState":{"key":"15","name":"Sachsen-Anhalt"}},{"name":"Scharrenstr.","postalCode":"06712","locality":"Zeitz","municipality":{"key":"15084590","name":"Zeitz, Stadt","type":"Stadt"},"district":{"key":"15084","name":"Burgenlandkreis","type":"Landkreis"},"federalState":{"key":"15","name":"Sachsen-Anhalt"}},{"name":"Schenkenberg","postalCode":"06712","locality":"Zeitz","municipality":{"key":"15084590","name":"Zeitz, Stadt","type":"Stadt"},"district":{"key":"15084","name":"Burgenlandkreis","type":"Landkreis"},"federalState":{"key":"15","name":"Sachsen-Anhalt"}},{"name":"Schießgrabenstr.","postalCode":"06712","locality":"Zeitz","municipality":{"key":"15084590","name":"Zeitz, Stadt","type":"Stadt"},"district":{"key":"15084","name":"Burgenlandkreis","type":"Landkreis"},"federalState":{"key":"15","name":"Sachsen-Anhalt"}},{"name":"Schillerstr.","postalCode":"06712","locality":"Zeitz","municipality":{"key":"15084590","name":"Zeitz, Stadt","type":"Stadt"},"district":{"key":"15084","name":"Burgenlandkreis","type":"Landkreis"},"federalState":{"key":"15","name":"Sachsen-Anhalt"}},{"name":"Schloßstr.","postalCode":"06712","locality":"Zeitz","municipality":{"key":"15084590","name":"Zeitz, Stadt","type":"Stadt"},"district":{"key":"15084","name":"Burgenlandkreis","type":"Landkreis"},"federalState":{"key":"15","name":"Sachsen-Anhalt"}},{"name":"Schmiedegasse","postalCode":"06712","locality":"Zeitz","municipality":{"key":"15084590","name":"Zeitz, Stadt","type":"Stadt"},"district":{"key":"15084","name":"Burgenlandkreis","type":"Landkreis"},"federalState":{"key":"15","name":"Sachsen-Anhalt"}},{"name":"Schmöllnsche Str.","postalCode":"06712","locality":"Zeitz","municipality":{"key":"15084590","name":"Zeitz, Stadt","type":"Stadt"},"district":{"key":"15084","name":"Burgenlandkreis","type":"Landkreis"},"federalState":{"key":"15","name":"Sachsen-Anhalt"}},{"name":"Schulstr.","postalCode":"06711","locality":"Zeitz","municipality":{"key":"15084590","name":"Zeitz, Stadt","type":"Stadt"},"district":{"key":"15084","name":"Burgenlandkreis","type":"Landkreis"},"federalState":{"key":"15","name":"Sachsen-Anhalt"}},{"name":"Schulstr.","postalCode":"06712","locality":"Zeitz","municipality":{"key":"15084590","name":"Zeitz, Stadt","type":"Stadt"},"district":{"key":"15084","name":"Burgenlandkreis","type":"Landkreis"},"federalState":{"key":"15","name":"Sachsen-Anhalt"}},{"name":"Schützenplatz","postalCode":"06712","locality":"Zeitz","municipality":{"key":"15084590","name":"Zeitz, Stadt","type":"Stadt"},"district":{"key":"15084","name":"Burgenlandkreis","type":"Landkreis"},"federalState":{"key":"15","name":"Sachsen-Anhalt"}},{"name":"Schützenstr.","postalCode":"06712","locality":"Zeitz","municipality":{"key":"15084590","name":"Zeitz, Stadt","type":"Stadt"},"district":{"key":"15084","name":"Burgenlandkreis","type":"Landkreis"},"federalState":{"key":"15","name":"Sachsen-Anhalt"}},{"name":"Schwarzer Weg","postalCode":"06712","locality":"Zeitz","municipality":{"key":"15084590","name":"Zeitz, Stadt","type":"Stadt"},"district":{"key":"15084","name":"Burgenlandkreis","type":"Landkreis"},"federalState":{"key":"15","name":"Sachsen-Anhalt"}},{"name":"Sebald-Waldstein-Str.","postalCode":"06712","locality":"Zeitz","municipality":{"key":"15084590","name":"Zeitz, Stadt","type":"Stadt"},"district":{"key":"15084","name":"Burgenlandkreis","type":"Landkreis"},"federalState":{"key":"15","name":"Sachsen-Anhalt"}},{"name":"Semmelweisstr.","postalCode":"06712","locality":"Zeitz","municipality":{"key":"15084590","name":"Zeitz, Stadt","type":"Stadt"},"district":{"key":"15084","name":"Burgenlandkreis","type":"Landkreis"},"federalState":{"key":"15","name":"Sachsen-Anhalt"}},{"name":"Senefelderstr.","postalCode":"06712","locality":"Zeitz","municipality":{"key":"15084590","name":"Zeitz, Stadt","type":"Stadt"},"district":{"key":"15084","name":"Burgenlandkreis","type":"Landkreis"},"federalState":{"key":"15","name":"Sachsen-Anhalt"}},{"name":"Siedlung","postalCode":"06711","locality":"Zeitz","municipality":{"key":"15084590","name":"Zeitz, Stadt","type":"Stadt"},"district":{"key":"15084","name":"Burgenlandkreis","type":"Landkreis"},"federalState":{"key":"15","name":"Sachsen-Anhalt"}},{"name":"Siedlung","postalCode":"06712","locality":"Zeitz","municipality":{"key":"15084590","name":"Zeitz, Stadt","type":"Stadt"},"district":{"key":"15084","name":"Burgenlandkreis","type":"Landkreis"},"federalState":{"key":"15","name":"Sachsen-Anhalt"}},{"name":"Silberberg","postalCode":"06712","locality":"Zeitz","municipality":{"key":"15084590","name":"Zeitz, Stadt","type":"Stadt"},"district":{"key":"15084","name":"Burgenlandkreis","type":"Landkreis"},"federalState":{"key":"15","name":"Sachsen-Anhalt"}},{"name":"Spangenbergstr.","postalCode":"06712","locality":"Zeitz","municipality":{"key":"15084590","name":"Zeitz, Stadt","type":"Stadt"},"district":{"key":"15084","name":"Burgenlandkreis","type":"Landkreis"},"federalState":{"key":"15","name":"Sachsen-Anhalt"}},{"name":"Sporaer Str.","postalCode":"06712","locality":"Zeitz","municipality":{"key":"15084590","name":"Zeitz, Stadt","type":"Stadt"},"district":{"key":"15084","name":"Burgenlandkreis","type":"Landkreis"},"federalState":{"key":"15","name":"Sachsen-Anhalt"}},{"name":"Steinbrüchen","postalCode":"06712","locality":"Zeitz","municipality":{"key":"15084590","name":"Zeitz, Stadt","type":"Stadt"},"district":{"key":"15084","name":"Burgenlandkreis","type":"Landkreis"},"federalState":{"key":"15","name":"Sachsen-Anhalt"}},{"name":"Steinbrüchenener Weg","postalCode":"06712","locality":"Zeitz","municipality":{"key":"15084590","name":"Zeitz, Stadt","type":"Stadt"},"district":{"key":"15084","name":"Burgenlandkreis","type":"Landkreis"},"federalState":{"key":"15","name":"Sachsen-Anhalt"}},{"name":"Steingasse","postalCode":"06712","locality":"Zeitz","municipality":{"key":"15084590","name":"Zeitz, Stadt","type":"Stadt"},"district":{"key":"15084","name":"Burgenlandkreis","type":"Landkreis"},"federalState":{"key":"15","name":"Sachsen-Anhalt"}},{"name":"Steinsgraben","postalCode":"06712","locality":"Zeitz","municipality":{"key":"15084590","name":"Zeitz, Stadt","type":"Stadt"},"district":{"key":"15084","name":"Burgenlandkreis","type":"Landkreis"},"federalState":{"key":"15","name":"Sachsen-Anhalt"}},{"name":"Stephanstr.","postalCode":"06712","locality":"Zeitz","municipality":{"key":"15084590","name":"Zeitz, Stadt","type":"Stadt"},"district":{"key":"15084","name":"Burgenlandkreis","type":"Landkreis"},"federalState":{"key":"15","name":"Sachsen-Anhalt"}},{"name":"Stiftsberg","postalCode":"06712","locality":"Zeitz","municipality":{"key":"15084590","name":"Zeitz, Stadt","type":"Stadt"},"district":{"key":"15084","name":"Burgenlandkreis","type":"Landkreis"},"federalState":{"key":"15","name":"Sachsen-Anhalt"}},{"name":"Stiller Winkel","postalCode":"06712","locality":"Zeitz","municipality":{"key":"15084590","name":"Zeitz, Stadt","type":"Stadt"},"district":{"key":"15084","name":"Burgenlandkreis","type":"Landkreis"},"federalState":{"key":"15","name":"Sachsen-Anhalt"}},{"name":"Stockhausen","postalCode":"06712","locality":"Zeitz","municipality":{"key":"15084590","name":"Zeitz, Stadt","type":"Stadt"},"district":{"key":"15084","name":"Burgenlandkreis","type":"Landkreis"},"federalState":{"key":"15","name":"Sachsen-Anhalt"}},{"name":"Stockhausener Weg","postalCode":"06712","locality":"Zeitz","municipality":{"key":"15084590","name":"Zeitz, Stadt","type":"Stadt"},"district":{"key":"15084","name":"Burgenlandkreis","type":"Landkreis"},"federalState":{"key":"15","name":"Sachsen-Anhalt"}},{"name":"Streckauer Str.","postalCode":"06711","locality":"Zeitz","municipality":{"key":"15084590","name":"Zeitz, Stadt","type":"Stadt"},"district":{"key":"15084","name":"Burgenlandkreis","type":"Landkreis"},"federalState":{"key":"15","name":"Sachsen-Anhalt"}},{"name":"Str. zur MIBRAG","postalCode":"06711","locality":"Zeitz","municipality":{"key":"15084590","name":"Zeitz, Stadt","type":"Stadt"},"district":{"key":"15084","name":"Burgenlandkreis","type":"Landkreis"},"federalState":{"key":"15","name":"Sachsen-Anhalt"}},{"name":"Südplatz","postalCode":"06711","locality":"Zeitz","municipality":{"key":"15084590","name":"Zeitz, Stadt","type":"Stadt"},"district":{"key":"15084","name":"Burgenlandkreis","type":"Landkreis"},"federalState":{"key":"15","name":"Sachsen-Anhalt"}},{"name":"Südstr.","postalCode":"06711","locality":"Zeitz","municipality":{"key":"15084590","name":"Zeitz, Stadt","type":"Stadt"},"district":{"key":"15084","name":"Burgenlandkreis","type":"Landkreis"},"federalState":{"key":"15","name":"Sachsen-Anhalt"}},{"name":"Suxdorf","postalCode":"06712","locality":"Zeitz","municipality":{"key":"15084590","name":"Zeitz, Stadt","type":"Stadt"},"district":{"key":"15084","name":"Burgenlandkreis","type":"Landkreis"},"federalState":{"key":"15","name":"Sachsen-Anhalt"}},{"name":"Tannenberg","postalCode":"06712","locality":"Zeitz","municipality":{"key":"15084590","name":"Zeitz, Stadt","type":"Stadt"},"district":{"key":"15084","name":"Burgenlandkreis","type":"Landkreis"},"federalState":{"key":"15","name":"Sachsen-Anhalt"}},{"name":"Taubenberg","postalCode":"06712","locality":"Zeitz","municipality":{"key":"15084590","name":"Zeitz, Stadt","type":"Stadt"},"district":{"key":"15084","name":"Burgenlandkreis","type":"Landkreis"},"federalState":{"key":"15","name":"Sachsen-Anhalt"}},{"name":"Teichstr.","postalCode":"06711","locality":"Zeitz","municipality":{"key":"15084590","name":"Zeitz, Stadt","type":"Stadt"},"district":{"key":"15084","name":"Burgenlandkreis","type":"Landkreis"},"federalState":{"key":"15","name":"Sachsen-Anhalt"}},{"name":"Teufelsbrücke","postalCode":"06712","locality":"Zeitz","municipality":{"key":"15084590","name":"Zeitz, Stadt","type":"Stadt"},"district":{"key":"15084","name":"Burgenlandkreis","type":"Landkreis"},"federalState":{"key":"15","name":"Sachsen-Anhalt"}},{"name":"Thälmannstr.","postalCode":"06711","locality":"Zeitz","municipality":{"key":"15084590","name":"Zeitz, Stadt","type":"Stadt"},"district":{"key":"15084","name":"Burgenlandkreis","type":"Landkreis"},"federalState":{"key":"15","name":"Sachsen-Anhalt"}},{"name":"Theißener Hauptstr.","postalCode":"06711","locality":"Zeitz","municipality":{"key":"15084590","name":"Zeitz, Stadt","type":"Stadt"},"district":{"key":"15084","name":"Burgenlandkreis","type":"Landkreis"},"federalState":{"key":"15","name":"Sachsen-Anhalt"}},{"name":"Theißener Querstr.","postalCode":"06711","locality":"Zeitz","municipality":{"key":"15084590","name":"Zeitz, Stadt","type":"Stadt"},"district":{"key":"15084","name":"Burgenlandkreis","type":"Landkreis"},"federalState":{"key":"15","name":"Sachsen-Anhalt"}},{"name":"Theodor-Arnold-Promenade","postalCode":"06712","locality":"Zeitz","municipality":{"key":"15084590","name":"Zeitz, Stadt","type":"Stadt"},"district":{"key":"15084","name":"Burgenlandkreis","type":"Landkreis"},"federalState":{"key":"15","name":"Sachsen-Anhalt"}},{"name":"Thomas-Mann-Str.","postalCode":"06712","locality":"Zeitz","municipality":{"key":"15084590","name":"Zeitz, Stadt","type":"Stadt"},"district":{"key":"15084","name":"Burgenlandkreis","type":"Landkreis"},"federalState":{"key":"15","name":"Sachsen-Anhalt"}},{"name":"Thomas-Müntzer-Hof","postalCode":"06712","locality":"Zeitz","municipality":{"key":"15084590","name":"Zeitz, Stadt","type":"Stadt"},"district":{"key":"15084","name":"Burgenlandkreis","type":"Landkreis"},"federalState":{"key":"15","name":"Sachsen-Anhalt"}},{"name":"Thomas-Müntzer-Platz","postalCode":"06712","locality":"Zeitz","municipality":{"key":"15084590","name":"Zeitz, Stadt","type":"Stadt"},"district":{"key":"15084","name":"Burgenlandkreis","type":"Landkreis"},"federalState":{"key":"15","name":"Sachsen-Anhalt"}},{"name":"Thomas-Müntzer-Str.","postalCode":"06711","locality":"Zeitz","municipality":{"key":"15084590","name":"Zeitz, Stadt","type":"Stadt"},"district":{"key":"15084","name":"Burgenlandkreis","type":"Landkreis"},"federalState":{"key":"15","name":"Sachsen-Anhalt"}},{"name":"Tiergartenstr.","postalCode":"06712","locality":"Zeitz","municipality":{"key":"15084590","name":"Zeitz, Stadt","type":"Stadt"},"district":{"key":"15084","name":"Burgenlandkreis","type":"Landkreis"},"federalState":{"key":"15","name":"Sachsen-Anhalt"}},{"name":"Tröglitzer Str.","postalCode":"06712","locality":"Zeitz","municipality":{"key":"15084590","name":"Zeitz, Stadt","type":"Stadt"},"district":{"key":"15084","name":"Burgenlandkreis","type":"Landkreis"},"federalState":{"key":"15","name":"Sachsen-Anhalt"}},{"name":"Turmstr.","postalCode":"06712","locality":"Zeitz","municipality":{"key":"15084590","name":"Zeitz, Stadt","type":"Stadt"},"district":{"key":"15084","name":"Burgenlandkreis","type":"Landkreis"},"federalState":{"key":"15","name":"Sachsen-Anhalt"}},{"name":"Ulmenweg","postalCode":"06712","locality":"Zeitz","municipality":{"key":"15084590","name":"Zeitz, Stadt","type":"Stadt"},"district":{"key":"15084","name":"Burgenlandkreis","type":"Landkreis"},"federalState":{"key":"15","name":"Sachsen-Anhalt"}},{"name":"Unterer Promenadenweg","postalCode":"06712","locality":"Zeitz","municipality":{"key":"15084590","name":"Zeitz, Stadt","type":"Stadt"},"district":{"key":"15084","name":"Burgenlandkreis","type":"Landkreis"},"federalState":{"key":"15","name":"Sachsen-Anhalt"}},{"name":"Unterschwöditz","postalCode":"06711","locality":"Zeitz","municipality":{"key":"15084590","name":"Zeitz, Stadt","type":"Stadt"},"district":{"key":"15084","name":"Burgenlandkreis","type":"Landkreis"},"federalState":{"key":"15","name":"Sachsen-Anhalt"}},{"name":"Vater-Jahn-Str.","postalCode":"06712","locality":"Zeitz","municipality":{"key":"15084590","name":"Zeitz, Stadt","type":"Stadt"},"district":{"key":"15084","name":"Burgenlandkreis","type":"Landkreis"},"federalState":{"key":"15","name":"Sachsen-Anhalt"}},{"name":"Virchowstr.","postalCode":"06712","locality":"Zeitz","municipality":{"key":"15084590","name":"Zeitz, Stadt","type":"Stadt"},"district":{"key":"15084","name":"Burgenlandkreis","type":"Landkreis"},"federalState":{"key":"15","name":"Sachsen-Anhalt"}},{"name":"Voigtsmauer","postalCode":"06712","locality":"Zeitz","municipality":{"key":"15084590","name":"Zeitz, Stadt","type":"Stadt"},"district":{"key":"15084","name":"Burgenlandkreis","type":"Landkreis"},"federalState":{"key":"15","name":"Sachsen-Anhalt"}},{"name":"Voigtsstr.","postalCode":"06712","locality":"Zeitz","municipality":{"key":"15084590","name":"Zeitz, Stadt","type":"Stadt"},"district":{"key":"15084","name":"Burgenlandkreis","type":"Landkreis"},"federalState":{"key":"15","name":"Sachsen-Anhalt"}},{"name":"Von-Harnack-Str.","postalCode":"06712","locality":"Zeitz","municipality":{"key":"15084590","name":"Zeitz, Stadt","type":"Stadt"},"district":{"key":"15084","name":"Burgenlandkreis","type":"Landkreis"},"federalState":{"key":"15","name":"Sachsen-Anhalt"}},{"name":"Waldstr.","postalCode":"06712","locality":"Zeitz","municipality":{"key":"15084590","name":"Zeitz, Stadt","type":"Stadt"},"district":{"key":"15084","name":"Burgenlandkreis","type":"Landkreis"},"federalState":{"key":"15","name":"Sachsen-Anhalt"}},{"name":"Waldweg","postalCode":"06712","locality":"Zeitz","municipality":{"key":"15084590","name":"Zeitz, Stadt","type":"Stadt"},"district":{"key":"15084","name":"Burgenlandkreis","type":"Landkreis"},"federalState":{"key":"15","name":"Sachsen-Anhalt"}},{"name":"Warschauer Str.","postalCode":"06712","locality":"Zeitz","municipality":{"key":"15084590","name":"Zeitz, Stadt","type":"Stadt"},"district":{"key":"15084","name":"Burgenlandkreis","type":"Landkreis"},"federalState":{"key":"15","name":"Sachsen-Anhalt"}},{"name":"Wasserberg","postalCode":"06712","locality":"Zeitz","municipality":{"key":"15084590","name":"Zeitz, Stadt","type":"Stadt"},"district":{"key":"15084","name":"Burgenlandkreis","type":"Landkreis"},"federalState":{"key":"15","name":"Sachsen-Anhalt"}},{"name":"Wasservorstadt","postalCode":"06712","locality":"Zeitz","municipality":{"key":"15084590","name":"Zeitz, Stadt","type":"Stadt"},"district":{"key":"15084","name":"Burgenlandkreis","type":"Landkreis"},"federalState":{"key":"15","name":"Sachsen-Anhalt"}},{"name":"Weberstr.","postalCode":"06712","locality":"Zeitz","municipality":{"key":"15084590","name":"Zeitz, Stadt","type":"Stadt"},"district":{"key":"15084","name":"Burgenlandkreis","type":"Landkreis"},"federalState":{"key":"15","name":"Sachsen-Anhalt"}},{"name":"Weg zum Bahnhof","postalCode":"06712","locality":"Zeitz","municipality":{"key":"15084590","name":"Zeitz, Stadt","type":"Stadt"},"district":{"key":"15084","name":"Burgenlandkreis","type":"Landkreis"},"federalState":{"key":"15","name":"Sachsen-Anhalt"}},{"name":"Weg zum Knittelholz","postalCode":"06712","locality":"Zeitz","municipality":{"key":"15084590","name":"Zeitz, Stadt","type":"Stadt"},"district":{"key":"15084","name":"Burgenlandkreis","type":"Landkreis"},"federalState":{"key":"15","name":"Sachsen-Anhalt"}},{"name":"Weidauer Str.","postalCode":"06711","locality":"Zeitz","municipality":{"key":"15084590","name":"Zeitz, Stadt","type":"Stadt"},"district":{"key":"15084","name":"Burgenlandkreis","type":"Landkreis"},"federalState":{"key":"15","name":"Sachsen-Anhalt"}},{"name":"Weinberghäuser","postalCode":"06712","locality":"Zeitz","municipality":{"key":"15084590","name":"Zeitz, Stadt","type":"Stadt"},"district":{"key":"15084","name":"Burgenlandkreis","type":"Landkreis"},"federalState":{"key":"15","name":"Sachsen-Anhalt"}},{"name":"Weinbergstr.","postalCode":"06712","locality":"Zeitz","municipality":{"key":"15084590","name":"Zeitz, Stadt","type":"Stadt"},"district":{"key":"15084","name":"Burgenlandkreis","type":"Landkreis"},"federalState":{"key":"15","name":"Sachsen-Anhalt"}},{"name":"Weißenfelser Str.","postalCode":"06711","locality":"Zeitz","municipality":{"key":"15084590","name":"Zeitz, Stadt","type":"Stadt"},"district":{"key":"15084","name":"Burgenlandkreis","type":"Landkreis"},"federalState":{"key":"15","name":"Sachsen-Anhalt"}},{"name":"Weißenfelser Str.","postalCode":"06712","locality":"Zeitz","municipality":{"key":"15084590","name":"Zeitz, Stadt","type":"Stadt"},"district":{"key":"15084","name":"Burgenlandkreis","type":"Landkreis"},"federalState":{"key":"15","name":"Sachsen-Anhalt"}},{"name":"Wendischer Berg","postalCode":"06712","locality":"Zeitz","municipality":{"key":"15084590","name":"Zeitz, Stadt","type":"Stadt"},"district":{"key":"15084","name":"Burgenlandkreis","type":"Landkreis"},"federalState":{"key":"15","name":"Sachsen-Anhalt"}},{"name":"Westeck","postalCode":"06711","locality":"Zeitz","municipality":{"key":"15084590","name":"Zeitz, Stadt","type":"Stadt"},"district":{"key":"15084","name":"Burgenlandkreis","type":"Landkreis"},"federalState":{"key":"15","name":"Sachsen-Anhalt"}},{"name":"Westplatz","postalCode":"06711","locality":"Zeitz","municipality":{"key":"15084590","name":"Zeitz, Stadt","type":"Stadt"},"district":{"key":"15084","name":"Burgenlandkreis","type":"Landkreis"},"federalState":{"key":"15","name":"Sachsen-Anhalt"}},{"name":"Weststr.","postalCode":"06711","locality":"Zeitz","municipality":{"key":"15084590","name":"Zeitz, Stadt","type":"Stadt"},"district":{"key":"15084","name":"Burgenlandkreis","type":"Landkreis"},"federalState":{"key":"15","name":"Sachsen-Anhalt"}},{"name":"Wiesenstr.","postalCode":"06711","locality":"Zeitz","municipality":{"key":"15084590","name":"Zeitz, Stadt","type":"Stadt"},"district":{"key":"15084","name":"Burgenlandkreis","type":"Landkreis"},"federalState":{"key":"15","name":"Sachsen-Anhalt"}},{"name":"Wiesenstr.","postalCode":"06712","locality":"Zeitz","municipality":{"key":"15084590","name":"Zeitz, Stadt","type":"Stadt"},"district":{"key":"15084","name":"Burgenlandkreis","type":"Landkreis"},"federalState":{"key":"15","name":"Sachsen-Anhalt"}},{"name":"Wiesenweg","postalCode":"06712","locality":"Zeitz","municipality":{"key":"15084590","name":"Zeitz, Stadt","type":"Stadt"},"district":{"key":"15084","name":"Burgenlandkreis","type":"Landkreis"},"federalState":{"key":"15","name":"Sachsen-Anhalt"}},{"name":"Wildenborner Allee","postalCode":"06712","locality":"Zeitz","municipality":{"key":"15084590","name":"Zeitz, Stadt","type":"Stadt"},"district":{"key":"15084","name":"Burgenlandkreis","type":"Landkreis"},"federalState":{"key":"15","name":"Sachsen-Anhalt"}},{"name":"Wildenborner Weg","postalCode":"06712","locality":"Zeitz","municipality":{"key":"15084590","name":"Zeitz, Stadt","type":"Stadt"},"district":{"key":"15084","name":"Burgenlandkreis","type":"Landkreis"},"federalState":{"key":"15","name":"Sachsen-Anhalt"}},{"name":"Wildensee","postalCode":"06712","locality":"Zeitz","municipality":{"key":"15084590","name":"Zeitz, Stadt","type":"Stadt"},"district":{"key":"15084","name":"Burgenlandkreis","type":"Landkreis"},"federalState":{"key":"15","name":"Sachsen-Anhalt"}},{"name":"Wildenseer Weg","postalCode":"06712","locality":"Zeitz","municipality":{"key":"15084590","name":"Zeitz, Stadt","type":"Stadt"},"district":{"key":"15084","name":"Burgenlandkreis","type":"Landkreis"},"federalState":{"key":"15","name":"Sachsen-Anhalt"}},{"name":"Windmühlenstr.","postalCode":"06712","locality":"Zeitz","municipality":{"key":"15084590","name":"Zeitz, Stadt","type":"Stadt"},"district":{"key":"15084","name":"Burgenlandkreis","type":"Landkreis"},"federalState":{"key":"15","name":"Sachsen-Anhalt"}},{"name":"Zeitzer Str.","postalCode":"06711","locality":"Zeitz","municipality":{"key":"15084590","name":"Zeitz, Stadt","type":"Stadt"},"district":{"key":"15084","name":"Burgenlandkreis","type":"Landkreis"},"federalState":{"key":"15","name":"Sachsen-Anhalt"}},{"name":"Zeitzer Str.","postalCode":"06712","locality":"Zeitz","municipality":{"key":"15084590","name":"Zeitz, Stadt","type":"Stadt"},"district":{"key":"15084","name":"Burgenlandkreis","type":"Landkreis"},"federalState":{"key":"15","name":"Sachsen-Anhalt"}},{"name":"Zeitzer Weg","postalCode":"06711","locality":"Zeitz","municipality":{"key":"15084590","name":"Zeitz, Stadt","type":"Stadt"},"district":{"key":"15084","name":"Burgenlandkreis","type":"Landkreis"},"federalState":{"key":"15","name":"Sachsen-Anhalt"}},{"name":"Zeppelinstr.","postalCode":"06712","locality":"Zeitz","municipality":{"key":"15084590","name":"Zeitz, Stadt","type":"Stadt"},"district":{"key":"15084","name":"Burgenlandkreis","type":"Landkreis"},"federalState":{"key":"15","name":"Sachsen-Anhalt"}},{"name":"Zettweiler Anger","postalCode":"06712","locality":"Zeitz","municipality":{"key":"15084590","name":"Zeitz, Stadt","type":"Stadt"},"district":{"key":"15084","name":"Burgenlandkreis","type":"Landkreis"},"federalState":{"key":"15","name":"Sachsen-Anhalt"}},{"name":"Zettweiler Dorfstr.","postalCode":"06712","locality":"Zeitz","municipality":{"key":"15084590","name":"Zeitz, Stadt","type":"Stadt"},"district":{"key":"15084","name":"Burgenlandkreis","type":"Landkreis"},"federalState":{"key":"15","name":"Sachsen-Anhalt"}},{"name":"Zettweiler Hauptstr.","postalCode":"06712","locality":"Zeitz","municipality":{"key":"15084590","name":"Zeitz, Stadt","type":"Stadt"},"district":{"key":"15084","name":"Burgenlandkreis","type":"Landkreis"},"federalState":{"key":"15","name":"Sachsen-Anhalt"}},{"name":"Zettweiler Mittelstr.","postalCode":"06712","locality":"Zeitz","municipality":{"key":"15084590","name":"Zeitz, Stadt","type":"Stadt"},"district":{"key":"15084","name":"Burgenlandkreis","type":"Landkreis"},"federalState":{"key":"15","name":"Sachsen-Anhalt"}},{"name":"Zum Eichberg","postalCode":"06712","locality":"Zeitz","municipality":{"key":"15084590","name":"Zeitz, Stadt","type":"Stadt"},"district":{"key":"15084","name":"Burgenlandkreis","type":"Landkreis"},"federalState":{"key":"15","name":"Sachsen-Anhalt"}},{"name":"Zum Wagner","postalCode":"06712","locality":"Zeitz","municipality":{"key":"15084590","name":"Zeitz, Stadt","type":"Stadt"},"district":{"key":"15084","name":"Burgenlandkreis","type":"Landkreis"},"federalState":{"key":"15","name":"Sachsen-Anhalt"}},]