[{"name":"Adalbert-Stifter-Str.","postalCode":"94508","locality":"Schöllnach","municipality":{"key":"09271149","name":"Schöllnach, M","type":"Markt"},"district":{"key":"09271","name":"Deggendorf","type":"Landkreis"},"federalState":{"key":"09","name":"Bayern"}},{"name":"Adlmannig","postalCode":"94508","locality":"Schöllnach","municipality":{"key":"09271149","name":"Schöllnach, M","type":"Markt"},"district":{"key":"09271","name":"Deggendorf","type":"Landkreis"},"federalState":{"key":"09","name":"Bayern"}},{"name":"Amselweg","postalCode":"94508","locality":"Schöllnach","municipality":{"key":"09271149","name":"Schöllnach, M","type":"Markt"},"district":{"key":"09271","name":"Deggendorf","type":"Landkreis"},"federalState":{"key":"09","name":"Bayern"}},{"name":"Am Stockacker","postalCode":"94508","locality":"Schöllnach","municipality":{"key":"09271149","name":"Schöllnach, M","type":"Markt"},"district":{"key":"09271","name":"Deggendorf","type":"Landkreis"},"federalState":{"key":"09","name":"Bayern"}},{"name":"Angerweg","postalCode":"94508","locality":"Schöllnach","municipality":{"key":"09271149","name":"Schöllnach, M","type":"Markt"},"district":{"key":"09271","name":"Deggendorf","type":"Landkreis"},"federalState":{"key":"09","name":"Bayern"}},{"name":"Arberweg","postalCode":"94508","locality":"Schöllnach","municipality":{"key":"09271149","name":"Schöllnach, M","type":"Markt"},"district":{"key":"09271","name":"Deggendorf","type":"Landkreis"},"federalState":{"key":"09","name":"Bayern"}},{"name":"Arbing","postalCode":"94508","locality":"Schöllnach","municipality":{"key":"09271149","name":"Schöllnach, M","type":"Markt"},"district":{"key":"09271","name":"Deggendorf","type":"Landkreis"},"federalState":{"key":"09","name":"Bayern"}},{"name":"Bachstr.","postalCode":"94508","locality":"Schöllnach","municipality":{"key":"09271149","name":"Schöllnach, M","type":"Markt"},"district":{"key":"09271","name":"Deggendorf","type":"Landkreis"},"federalState":{"key":"09","name":"Bayern"}},{"name":"Bahnhofstr.","postalCode":"94508","locality":"Schöllnach","municipality":{"key":"09271149","name":"Schöllnach, M","type":"Markt"},"district":{"key":"09271","name":"Deggendorf","type":"Landkreis"},"federalState":{"key":"09","name":"Bayern"}},{"name":"Bieringerweg","postalCode":"94508","locality":"Schöllnach","municipality":{"key":"09271149","name":"Schöllnach, M","type":"Markt"},"district":{"key":"09271","name":"Deggendorf","type":"Landkreis"},"federalState":{"key":"09","name":"Bayern"}},{"name":"Birkenweg","postalCode":"94508","locality":"Schöllnach","municipality":{"key":"09271149","name":"Schöllnach, M","type":"Markt"},"district":{"key":"09271","name":"Deggendorf","type":"Landkreis"},"federalState":{"key":"09","name":"Bayern"}},{"name":"Bradlberg","postalCode":"94508","locality":"Schöllnach","municipality":{"key":"09271149","name":"Schöllnach, M","type":"Markt"},"district":{"key":"09271","name":"Deggendorf","type":"Landkreis"},"federalState":{"key":"09","name":"Bayern"}},{"name":"Bräureihe","postalCode":"94508","locality":"Schöllnach","municipality":{"key":"09271149","name":"Schöllnach, M","type":"Markt"},"district":{"key":"09271","name":"Deggendorf","type":"Landkreis"},"federalState":{"key":"09","name":"Bayern"}},{"name":"Brotjacklrieglweg","postalCode":"94508","locality":"Schöllnach","municipality":{"key":"09271149","name":"Schöllnach, M","type":"Markt"},"district":{"key":"09271","name":"Deggendorf","type":"Landkreis"},"federalState":{"key":"09","name":"Bayern"}},{"name":"Brückenweg","postalCode":"94508","locality":"Schöllnach","municipality":{"key":"09271149","name":"Schöllnach, M","type":"Markt"},"district":{"key":"09271","name":"Deggendorf","type":"Landkreis"},"federalState":{"key":"09","name":"Bayern"}},{"name":"Büchelsteinerstr.","postalCode":"94508","locality":"Schöllnach","municipality":{"key":"09271149","name":"Schöllnach, M","type":"Markt"},"district":{"key":"09271","name":"Deggendorf","type":"Landkreis"},"federalState":{"key":"09","name":"Bayern"}},{"name":"Buchenweg","postalCode":"94508","locality":"Schöllnach","municipality":{"key":"09271149","name":"Schöllnach, M","type":"Markt"},"district":{"key":"09271","name":"Deggendorf","type":"Landkreis"},"federalState":{"key":"09","name":"Bayern"}},{"name":"Büglweg","postalCode":"94508","locality":"Schöllnach","municipality":{"key":"09271149","name":"Schöllnach, M","type":"Markt"},"district":{"key":"09271","name":"Deggendorf","type":"Landkreis"},"federalState":{"key":"09","name":"Bayern"}},{"name":"Bussardstr.","postalCode":"94508","locality":"Schöllnach","municipality":{"key":"09271149","name":"Schöllnach, M","type":"Markt"},"district":{"key":"09271","name":"Deggendorf","type":"Landkreis"},"federalState":{"key":"09","name":"Bayern"}},{"name":"Carossastr.","postalCode":"94508","locality":"Schöllnach","municipality":{"key":"09271149","name":"Schöllnach, M","type":"Markt"},"district":{"key":"09271","name":"Deggendorf","type":"Landkreis"},"federalState":{"key":"09","name":"Bayern"}},{"name":"Dohlenweg","postalCode":"94508","locality":"Schöllnach","municipality":{"key":"09271149","name":"Schöllnach, M","type":"Markt"},"district":{"key":"09271","name":"Deggendorf","type":"Landkreis"},"federalState":{"key":"09","name":"Bayern"}},{"name":"Dörflerweg","postalCode":"94508","locality":"Schöllnach","municipality":{"key":"09271149","name":"Schöllnach, M","type":"Markt"},"district":{"key":"09271","name":"Deggendorf","type":"Landkreis"},"federalState":{"key":"09","name":"Bayern"}},{"name":"Drosselweg","postalCode":"94508","locality":"Schöllnach","municipality":{"key":"09271149","name":"Schöllnach, M","type":"Markt"},"district":{"key":"09271","name":"Deggendorf","type":"Landkreis"},"federalState":{"key":"09","name":"Bayern"}},{"name":"Eichenreuther Weg","postalCode":"94508","locality":"Schöllnach","municipality":{"key":"09271149","name":"Schöllnach, M","type":"Markt"},"district":{"key":"09271","name":"Deggendorf","type":"Landkreis"},"federalState":{"key":"09","name":"Bayern"}},{"name":"Eichenweg","postalCode":"94508","locality":"Schöllnach","municipality":{"key":"09271149","name":"Schöllnach, M","type":"Markt"},"district":{"key":"09271","name":"Deggendorf","type":"Landkreis"},"federalState":{"key":"09","name":"Bayern"}},{"name":"Einsteinstr.","postalCode":"94508","locality":"Schöllnach","municipality":{"key":"09271149","name":"Schöllnach, M","type":"Markt"},"district":{"key":"09271","name":"Deggendorf","type":"Landkreis"},"federalState":{"key":"09","name":"Bayern"}},{"name":"Englfinger Str.","postalCode":"94508","locality":"Schöllnach","municipality":{"key":"09271149","name":"Schöllnach, M","type":"Markt"},"district":{"key":"09271","name":"Deggendorf","type":"Landkreis"},"federalState":{"key":"09","name":"Bayern"}},{"name":"Erlenweg","postalCode":"94508","locality":"Schöllnach","municipality":{"key":"09271149","name":"Schöllnach, M","type":"Markt"},"district":{"key":"09271","name":"Deggendorf","type":"Landkreis"},"federalState":{"key":"09","name":"Bayern"}},{"name":"Falkensteinstr.","postalCode":"94508","locality":"Schöllnach","municipality":{"key":"09271149","name":"Schöllnach, M","type":"Markt"},"district":{"key":"09271","name":"Deggendorf","type":"Landkreis"},"federalState":{"key":"09","name":"Bayern"}},{"name":"Finkenweg","postalCode":"94508","locality":"Schöllnach","municipality":{"key":"09271149","name":"Schöllnach, M","type":"Markt"},"district":{"key":"09271","name":"Deggendorf","type":"Landkreis"},"federalState":{"key":"09","name":"Bayern"}},{"name":"Forstweg","postalCode":"94508","locality":"Schöllnach","municipality":{"key":"09271149","name":"Schöllnach, M","type":"Markt"},"district":{"key":"09271","name":"Deggendorf","type":"Landkreis"},"federalState":{"key":"09","name":"Bayern"}},{"name":"Fraunhoferweg","postalCode":"94508","locality":"Schöllnach","municipality":{"key":"09271149","name":"Schöllnach, M","type":"Markt"},"district":{"key":"09271","name":"Deggendorf","type":"Landkreis"},"federalState":{"key":"09","name":"Bayern"}},{"name":"Friedhofstr.","postalCode":"94508","locality":"Schöllnach","municipality":{"key":"09271149","name":"Schöllnach, M","type":"Markt"},"district":{"key":"09271","name":"Deggendorf","type":"Landkreis"},"federalState":{"key":"09","name":"Bayern"}},{"name":"Ganghoferweg","postalCode":"94508","locality":"Schöllnach","municipality":{"key":"09271149","name":"Schöllnach, M","type":"Markt"},"district":{"key":"09271","name":"Deggendorf","type":"Landkreis"},"federalState":{"key":"09","name":"Bayern"}},{"name":"Gärtnerstr.","postalCode":"94508","locality":"Schöllnach","municipality":{"key":"09271149","name":"Schöllnach, M","type":"Markt"},"district":{"key":"09271","name":"Deggendorf","type":"Landkreis"},"federalState":{"key":"09","name":"Bayern"}},{"name":"Geißlweg","postalCode":"94508","locality":"Schöllnach","municipality":{"key":"09271149","name":"Schöllnach, M","type":"Markt"},"district":{"key":"09271","name":"Deggendorf","type":"Landkreis"},"federalState":{"key":"09","name":"Bayern"}},{"name":"Georg-Nachtmann-Weg","postalCode":"94508","locality":"Schöllnach","municipality":{"key":"09271149","name":"Schöllnach, M","type":"Markt"},"district":{"key":"09271","name":"Deggendorf","type":"Landkreis"},"federalState":{"key":"09","name":"Bayern"}},{"name":"Guntherweg","postalCode":"94508","locality":"Schöllnach","municipality":{"key":"09271149","name":"Schöllnach, M","type":"Markt"},"district":{"key":"09271","name":"Deggendorf","type":"Landkreis"},"federalState":{"key":"09","name":"Bayern"}},{"name":"Habichtstr.","postalCode":"94508","locality":"Schöllnach","municipality":{"key":"09271149","name":"Schöllnach, M","type":"Markt"},"district":{"key":"09271","name":"Deggendorf","type":"Landkreis"},"federalState":{"key":"09","name":"Bayern"}},{"name":"Hauzenberger Weg","postalCode":"94508","locality":"Schöllnach","municipality":{"key":"09271149","name":"Schöllnach, M","type":"Markt"},"district":{"key":"09271","name":"Deggendorf","type":"Landkreis"},"federalState":{"key":"09","name":"Bayern"}},{"name":"Heideweg","postalCode":"94508","locality":"Schöllnach","municipality":{"key":"09271149","name":"Schöllnach, M","type":"Markt"},"district":{"key":"09271","name":"Deggendorf","type":"Landkreis"},"federalState":{"key":"09","name":"Bayern"}},{"name":"Herderweg","postalCode":"94508","locality":"Schöllnach","municipality":{"key":"09271149","name":"Schöllnach, M","type":"Markt"},"district":{"key":"09271","name":"Deggendorf","type":"Landkreis"},"federalState":{"key":"09","name":"Bayern"}},{"name":"Herrnholz","postalCode":"94508","locality":"Schöllnach","municipality":{"key":"09271149","name":"Schöllnach, M","type":"Markt"},"district":{"key":"09271","name":"Deggendorf","type":"Landkreis"},"federalState":{"key":"09","name":"Bayern"}},{"name":"Hochstr.","postalCode":"94508","locality":"Schöllnach","municipality":{"key":"09271149","name":"Schöllnach, M","type":"Markt"},"district":{"key":"09271","name":"Deggendorf","type":"Landkreis"},"federalState":{"key":"09","name":"Bayern"}},{"name":"Iggensbacherstr.","postalCode":"94508","locality":"Schöllnach","municipality":{"key":"09271149","name":"Schöllnach, M","type":"Markt"},"district":{"key":"09271","name":"Deggendorf","type":"Landkreis"},"federalState":{"key":"09","name":"Bayern"}},{"name":"Jägerstr.","postalCode":"94469","locality":"Deggendorf","municipality":{"key":"09271119","name":"Deggendorf, GKSt","type":"Große_Kreisstadt"},"district":{"key":"09271","name":"Deggendorf","type":"Landkreis"},"federalState":{"key":"09","name":"Bayern"}},{"name":"Jahnstr.","postalCode":"94469","locality":"Deggendorf","municipality":{"key":"09271119","name":"Deggendorf, GKSt","type":"Große_Kreisstadt"},"district":{"key":"09271","name":"Deggendorf","type":"Landkreis"},"federalState":{"key":"09","name":"Bayern"}},{"name":"Jobststr.","postalCode":"94469","locality":"Deggendorf","municipality":{"key":"09271119","name":"Deggendorf, GKSt","type":"Große_Kreisstadt"},"district":{"key":"09271","name":"Deggendorf","type":"Landkreis"},"federalState":{"key":"09","name":"Bayern"}},{"name":"Johann-Strauß-Str.","postalCode":"94469","locality":"Deggendorf","municipality":{"key":"09271119","name":"Deggendorf, GKSt","type":"Große_Kreisstadt"},"district":{"key":"09271","name":"Deggendorf","type":"Landkreis"},"federalState":{"key":"09","name":"Bayern"}},{"name":"Josef-Kircher-Str.","postalCode":"94469","locality":"Deggendorf","municipality":{"key":"09271119","name":"Deggendorf, GKSt","type":"Große_Kreisstadt"},"district":{"key":"09271","name":"Deggendorf","type":"Landkreis"},"federalState":{"key":"09","name":"Bayern"}},{"name":"Josef-Schreiner-Str.","postalCode":"94469","locality":"Deggendorf","municipality":{"key":"09271119","name":"Deggendorf, GKSt","type":"Große_Kreisstadt"},"district":{"key":"09271","name":"Deggendorf","type":"Landkreis"},"federalState":{"key":"09","name":"Bayern"}},{"name":"Josef-Wallner-Str.","postalCode":"94469","locality":"Deggendorf","municipality":{"key":"09271119","name":"Deggendorf, GKSt","type":"Große_Kreisstadt"},"district":{"key":"09271","name":"Deggendorf","type":"Landkreis"},"federalState":{"key":"09","name":"Bayern"}},{"name":"Joseph-Deutschmann-Weg","postalCode":"94469","locality":"Deggendorf","municipality":{"key":"09271119","name":"Deggendorf, GKSt","type":"Große_Kreisstadt"},"district":{"key":"09271","name":"Deggendorf","type":"Landkreis"},"federalState":{"key":"09","name":"Bayern"}},{"name":"Klingelweg","postalCode":"94508","locality":"Schöllnach","municipality":{"key":"09271149","name":"Schöllnach, M","type":"Markt"},"district":{"key":"09271","name":"Deggendorf","type":"Landkreis"},"federalState":{"key":"09","name":"Bayern"}},{"name":"Klingiweg","postalCode":"94508","locality":"Schöllnach","municipality":{"key":"09271149","name":"Schöllnach, M","type":"Markt"},"district":{"key":"09271","name":"Deggendorf","type":"Landkreis"},"federalState":{"key":"09","name":"Bayern"}},{"name":"Lärchenweg","postalCode":"94508","locality":"Schöllnach","municipality":{"key":"09271149","name":"Schöllnach, M","type":"Markt"},"district":{"key":"09271","name":"Deggendorf","type":"Landkreis"},"federalState":{"key":"09","name":"Bayern"}},{"name":"Lehenreuther Weg","postalCode":"94508","locality":"Schöllnach","municipality":{"key":"09271149","name":"Schöllnach, M","type":"Markt"},"district":{"key":"09271","name":"Deggendorf","type":"Landkreis"},"federalState":{"key":"09","name":"Bayern"}},{"name":"Loherweg","postalCode":"94508","locality":"Schöllnach","municipality":{"key":"09271149","name":"Schöllnach, M","type":"Markt"},"district":{"key":"09271","name":"Deggendorf","type":"Landkreis"},"federalState":{"key":"09","name":"Bayern"}},{"name":"Lusenweg","postalCode":"94508","locality":"Schöllnach","municipality":{"key":"09271149","name":"Schöllnach, M","type":"Markt"},"district":{"key":"09271","name":"Deggendorf","type":"Landkreis"},"federalState":{"key":"09","name":"Bayern"}},{"name":"Marktplatz","postalCode":"94508","locality":"Schöllnach","municipality":{"key":"09271149","name":"Schöllnach, M","type":"Markt"},"district":{"key":"09271","name":"Deggendorf","type":"Landkreis"},"federalState":{"key":"09","name":"Bayern"}},{"name":"Martin-Weber-Weg","postalCode":"94508","locality":"Schöllnach","municipality":{"key":"09271149","name":"Schöllnach, M","type":"Markt"},"district":{"key":"09271","name":"Deggendorf","type":"Landkreis"},"federalState":{"key":"09","name":"Bayern"}},{"name":"Neuhofen","postalCode":"94508","locality":"Schöllnach","municipality":{"key":"09271149","name":"Schöllnach, M","type":"Markt"},"district":{"key":"09271","name":"Deggendorf","type":"Landkreis"},"federalState":{"key":"09","name":"Bayern"}},{"name":"Oblfinger Str.","postalCode":"94508","locality":"Schöllnach","municipality":{"key":"09271149","name":"Schöllnach, M","type":"Markt"},"district":{"key":"09271","name":"Deggendorf","type":"Landkreis"},"federalState":{"key":"09","name":"Bayern"}},{"name":"Pappelweg","postalCode":"94508","locality":"Schöllnach","municipality":{"key":"09271149","name":"Schöllnach, M","type":"Markt"},"district":{"key":"09271","name":"Deggendorf","type":"Landkreis"},"federalState":{"key":"09","name":"Bayern"}},{"name":"Pfarrer-Ertl-Weg","postalCode":"94508","locality":"Schöllnach","municipality":{"key":"09271149","name":"Schöllnach, M","type":"Markt"},"district":{"key":"09271","name":"Deggendorf","type":"Landkreis"},"federalState":{"key":"09","name":"Bayern"}},{"name":"Pirolweg","postalCode":"94508","locality":"Schöllnach","municipality":{"key":"09271149","name":"Schöllnach, M","type":"Markt"},"district":{"key":"09271","name":"Deggendorf","type":"Landkreis"},"federalState":{"key":"09","name":"Bayern"}},{"name":"Quellenweg","postalCode":"94469","locality":"Deggendorf","municipality":{"key":"09271119","name":"Deggendorf, GKSt","type":"Große_Kreisstadt"},"district":{"key":"09271","name":"Deggendorf","type":"Landkreis"},"federalState":{"key":"09","name":"Bayern"}},{"name":"Riedener Str.","postalCode":"94508","locality":"Schöllnach","municipality":{"key":"09271149","name":"Schöllnach, M","type":"Markt"},"district":{"key":"09271","name":"Deggendorf","type":"Landkreis"},"federalState":{"key":"09","name":"Bayern"}},{"name":"Ringstr.","postalCode":"94508","locality":"Schöllnach","municipality":{"key":"09271149","name":"Schöllnach, M","type":"Markt"},"district":{"key":"09271","name":"Deggendorf","type":"Landkreis"},"federalState":{"key":"09","name":"Bayern"}},{"name":"Roseggerweg","postalCode":"94508","locality":"Schöllnach","municipality":{"key":"09271149","name":"Schöllnach, M","type":"Markt"},"district":{"key":"09271","name":"Deggendorf","type":"Landkreis"},"federalState":{"key":"09","name":"Bayern"}},{"name":"Rosenstr.","postalCode":"94508","locality":"Schöllnach","municipality":{"key":"09271149","name":"Schöllnach, M","type":"Markt"},"district":{"key":"09271","name":"Deggendorf","type":"Landkreis"},"federalState":{"key":"09","name":"Bayern"}},{"name":"Sandweg","postalCode":"94508","locality":"Schöllnach","municipality":{"key":"09271149","name":"Schöllnach, M","type":"Markt"},"district":{"key":"09271","name":"Deggendorf","type":"Landkreis"},"federalState":{"key":"09","name":"Bayern"}},{"name":"Sankt-Godehard-Weg","postalCode":"94508","locality":"Schöllnach","municipality":{"key":"09271149","name":"Schöllnach, M","type":"Markt"},"district":{"key":"09271","name":"Deggendorf","type":"Landkreis"},"federalState":{"key":"09","name":"Bayern"}},{"name":"Schmelzerweg","postalCode":"94508","locality":"Schöllnach","municipality":{"key":"09271149","name":"Schöllnach, M","type":"Markt"},"district":{"key":"09271","name":"Deggendorf","type":"Landkreis"},"federalState":{"key":"09","name":"Bayern"}},{"name":"Schosserweg","postalCode":"94508","locality":"Schöllnach","municipality":{"key":"09271149","name":"Schöllnach, M","type":"Markt"},"district":{"key":"09271","name":"Deggendorf","type":"Landkreis"},"federalState":{"key":"09","name":"Bayern"}},{"name":"Schulstr.","postalCode":"94508","locality":"Schöllnach","municipality":{"key":"09271149","name":"Schöllnach, M","type":"Markt"},"district":{"key":"09271","name":"Deggendorf","type":"Landkreis"},"federalState":{"key":"09","name":"Bayern"}},{"name":"Schuttholz","postalCode":"94508","locality":"Schöllnach","municipality":{"key":"09271149","name":"Schöllnach, M","type":"Markt"},"district":{"key":"09271","name":"Deggendorf","type":"Landkreis"},"federalState":{"key":"09","name":"Bayern"}},{"name":"Schuttholzweg","postalCode":"94508","locality":"Schöllnach","municipality":{"key":"09271149","name":"Schöllnach, M","type":"Markt"},"district":{"key":"09271","name":"Deggendorf","type":"Landkreis"},"federalState":{"key":"09","name":"Bayern"}},{"name":"Schwalbenweg","postalCode":"94508","locality":"Schöllnach","municipality":{"key":"09271149","name":"Schöllnach, M","type":"Markt"},"district":{"key":"09271","name":"Deggendorf","type":"Landkreis"},"federalState":{"key":"09","name":"Bayern"}},{"name":"Sonnenwaldstr.","postalCode":"94508","locality":"Schöllnach","municipality":{"key":"09271149","name":"Schöllnach, M","type":"Markt"},"district":{"key":"09271","name":"Deggendorf","type":"Landkreis"},"federalState":{"key":"09","name":"Bayern"}},{"name":"Sperbergasse","postalCode":"94508","locality":"Schöllnach","municipality":{"key":"09271149","name":"Schöllnach, M","type":"Markt"},"district":{"key":"09271","name":"Deggendorf","type":"Landkreis"},"federalState":{"key":"09","name":"Bayern"}},{"name":"Tiefendoblstr.","postalCode":"94508","locality":"Schöllnach","municipality":{"key":"09271149","name":"Schöllnach, M","type":"Markt"},"district":{"key":"09271","name":"Deggendorf","type":"Landkreis"},"federalState":{"key":"09","name":"Bayern"}},{"name":"Unterer Daxstein","postalCode":"94508","locality":"Schöllnach","municipality":{"key":"09271149","name":"Schöllnach, M","type":"Markt"},"district":{"key":"09271","name":"Deggendorf","type":"Landkreis"},"federalState":{"key":"09","name":"Bayern"}},{"name":"Urmannweg","postalCode":"94508","locality":"Schöllnach","municipality":{"key":"09271149","name":"Schöllnach, M","type":"Markt"},"district":{"key":"09271","name":"Deggendorf","type":"Landkreis"},"federalState":{"key":"09","name":"Bayern"}},{"name":"Veilchenweg","postalCode":"94508","locality":"Schöllnach","municipality":{"key":"09271149","name":"Schöllnach, M","type":"Markt"},"district":{"key":"09271","name":"Deggendorf","type":"Landkreis"},"federalState":{"key":"09","name":"Bayern"}},{"name":"Von-der-Trenk-Weg","postalCode":"94508","locality":"Schöllnach","municipality":{"key":"09271149","name":"Schöllnach, M","type":"Markt"},"district":{"key":"09271","name":"Deggendorf","type":"Landkreis"},"federalState":{"key":"09","name":"Bayern"}},{"name":"Vorading Siedlung","postalCode":"94508","locality":"Schöllnach","municipality":{"key":"09271149","name":"Schöllnach, M","type":"Markt"},"district":{"key":"09271","name":"Deggendorf","type":"Landkreis"},"federalState":{"key":"09","name":"Bayern"}},{"name":"Waldstr.","postalCode":"94508","locality":"Schöllnach","municipality":{"key":"09271149","name":"Schöllnach, M","type":"Markt"},"district":{"key":"09271","name":"Deggendorf","type":"Landkreis"},"federalState":{"key":"09","name":"Bayern"}},{"name":"Watzlikstr.","postalCode":"94508","locality":"Schöllnach","municipality":{"key":"09271149","name":"Schöllnach, M","type":"Markt"},"district":{"key":"09271","name":"Deggendorf","type":"Landkreis"},"federalState":{"key":"09","name":"Bayern"}},{"name":"Weißensteiner Weg","postalCode":"94508","locality":"Schöllnach","municipality":{"key":"09271149","name":"Schöllnach, M","type":"Markt"},"district":{"key":"09271","name":"Deggendorf","type":"Landkreis"},"federalState":{"key":"09","name":"Bayern"}},{"name":"Wiesenweg","postalCode":"94508","locality":"Schöllnach","municipality":{"key":"09271149","name":"Schöllnach, M","type":"Markt"},"district":{"key":"09271","name":"Deggendorf","type":"Landkreis"},"federalState":{"key":"09","name":"Bayern"}},{"name":"Xaver-Friedl-Str.","postalCode":"94469","locality":"Deggendorf","municipality":{"key":"09271119","name":"Deggendorf, GKSt","type":"Große_Kreisstadt"},"district":{"key":"09271","name":"Deggendorf","type":"Landkreis"},"federalState":{"key":"09","name":"Bayern"}},{"name":"Zettlweg","postalCode":"94508","locality":"Schöllnach","municipality":{"key":"09271149","name":"Schöllnach, M","type":"Markt"},"district":{"key":"09271","name":"Deggendorf","type":"Landkreis"},"federalState":{"key":"09","name":"Bayern"}},{"name":"Zieglerweg","postalCode":"94508","locality":"Schöllnach","municipality":{"key":"09271149","name":"Schöllnach, M","type":"Markt"},"district":{"key":"09271","name":"Deggendorf","type":"Landkreis"},"federalState":{"key":"09","name":"Bayern"}},{"name":"Zum Mühlfeld","postalCode":"94508","locality":"Schöllnach","municipality":{"key":"09271149","name":"Schöllnach, M","type":"Markt"},"district":{"key":"09271","name":"Deggendorf","type":"Landkreis"},"federalState":{"key":"09","name":"Bayern"}},{"name":"Zum Stadion","postalCode":"94508","locality":"Schöllnach","municipality":{"key":"09271149","name":"Schöllnach, M","type":"Markt"},"district":{"key":"09271","name":"Deggendorf","type":"Landkreis"},"federalState":{"key":"09","name":"Bayern"}},{"name":"Ölberg","postalCode":"94508","locality":"Schöllnach","municipality":{"key":"09271149","name":"Schöllnach, M","type":"Markt"},"district":{"key":"09271","name":"Deggendorf","type":"Landkreis"},"federalState":{"key":"09","name":"Bayern"}},]