[{"name":"Am Fuchsloch","postalCode":"74391","locality":"Erligheim","municipality":{"key":"08118015","name":"Erligheim","type":"Kreisangehörige_Gemeinde"},"district":{"key":"08118","name":"Ludwigsburg","type":"Landkreis"},"federalState":{"key":"08","name":"Baden-Württemberg"}},{"name":"Am Mühlgraben","postalCode":"74391","locality":"Erligheim","municipality":{"key":"08118015","name":"Erligheim","type":"Kreisangehörige_Gemeinde"},"district":{"key":"08118","name":"Ludwigsburg","type":"Landkreis"},"federalState":{"key":"08","name":"Baden-Württemberg"}},{"name":"Amselweg","postalCode":"74391","locality":"Erligheim","municipality":{"key":"08118015","name":"Erligheim","type":"Kreisangehörige_Gemeinde"},"district":{"key":"08118","name":"Ludwigsburg","type":"Landkreis"},"federalState":{"key":"08","name":"Baden-Württemberg"}},{"name":"Bachstr.","postalCode":"74391","locality":"Erligheim","municipality":{"key":"08118015","name":"Erligheim","type":"Kreisangehörige_Gemeinde"},"district":{"key":"08118","name":"Ludwigsburg","type":"Landkreis"},"federalState":{"key":"08","name":"Baden-Württemberg"}},{"name":"Bärenäcker","postalCode":"74391","locality":"Erligheim","municipality":{"key":"08118015","name":"Erligheim","type":"Kreisangehörige_Gemeinde"},"district":{"key":"08118","name":"Ludwigsburg","type":"Landkreis"},"federalState":{"key":"08","name":"Baden-Württemberg"}},{"name":"Baumbachstr.","postalCode":"74391","locality":"Erligheim","municipality":{"key":"08118015","name":"Erligheim","type":"Kreisangehörige_Gemeinde"},"district":{"key":"08118","name":"Ludwigsburg","type":"Landkreis"},"federalState":{"key":"08","name":"Baden-Württemberg"}},{"name":"Birkenstr.","postalCode":"74391","locality":"Erligheim","municipality":{"key":"08118015","name":"Erligheim","type":"Kreisangehörige_Gemeinde"},"district":{"key":"08118","name":"Ludwigsburg","type":"Landkreis"},"federalState":{"key":"08","name":"Baden-Württemberg"}},{"name":"Blattwiesenstr.","postalCode":"74391","locality":"Erligheim","municipality":{"key":"08118015","name":"Erligheim","type":"Kreisangehörige_Gemeinde"},"district":{"key":"08118","name":"Ludwigsburg","type":"Landkreis"},"federalState":{"key":"08","name":"Baden-Württemberg"}},{"name":"Blumenstr.","postalCode":"74391","locality":"Erligheim","municipality":{"key":"08118015","name":"Erligheim","type":"Kreisangehörige_Gemeinde"},"district":{"key":"08118","name":"Ludwigsburg","type":"Landkreis"},"federalState":{"key":"08","name":"Baden-Württemberg"}},{"name":"Bönnigheimer Str.","postalCode":"74391","locality":"Erligheim","municipality":{"key":"08118015","name":"Erligheim","type":"Kreisangehörige_Gemeinde"},"district":{"key":"08118","name":"Ludwigsburg","type":"Landkreis"},"federalState":{"key":"08","name":"Baden-Württemberg"}},{"name":"Christoph-Umbach-Str.","postalCode":"74391","locality":"Erligheim","municipality":{"key":"08118015","name":"Erligheim","type":"Kreisangehörige_Gemeinde"},"district":{"key":"08118","name":"Ludwigsburg","type":"Landkreis"},"federalState":{"key":"08","name":"Baden-Württemberg"}},{"name":"Cleebronner Weg","postalCode":"74391","locality":"Erligheim","municipality":{"key":"08118015","name":"Erligheim","type":"Kreisangehörige_Gemeinde"},"district":{"key":"08118","name":"Ludwigsburg","type":"Landkreis"},"federalState":{"key":"08","name":"Baden-Württemberg"}},{"name":"Dachsweg","postalCode":"71638","locality":"Ludwigsburg","municipality":{"key":"08118048","name":"Ludwigsburg, Stadt","type":"Große_Kreisstadt"},"district":{"key":"08118","name":"Ludwigsburg","type":"Landkreis"},"federalState":{"key":"08","name":"Baden-Württemberg"}},{"name":"Dahlienweg","postalCode":"71640","locality":"Ludwigsburg","municipality":{"key":"08118048","name":"Ludwigsburg, Stadt","type":"Große_Kreisstadt"},"district":{"key":"08118","name":"Ludwigsburg","type":"Landkreis"},"federalState":{"key":"08","name":"Baden-Württemberg"}},{"name":"Daimlerstr.","postalCode":"71636","locality":"Ludwigsburg","municipality":{"key":"08118048","name":"Ludwigsburg, Stadt","type":"Große_Kreisstadt"},"district":{"key":"08118","name":"Ludwigsburg","type":"Landkreis"},"federalState":{"key":"08","name":"Baden-Württemberg"}},{"name":"Damaschkestr.","postalCode":"71638","locality":"Ludwigsburg","municipality":{"key":"08118048","name":"Ludwigsburg, Stadt","type":"Große_Kreisstadt"},"district":{"key":"08118","name":"Ludwigsburg","type":"Landkreis"},"federalState":{"key":"08","name":"Baden-Württemberg"}},{"name":"Danneckerstr.","postalCode":"71636","locality":"Ludwigsburg","municipality":{"key":"08118048","name":"Ludwigsburg, Stadt","type":"Große_Kreisstadt"},"district":{"key":"08118","name":"Ludwigsburg","type":"Landkreis"},"federalState":{"key":"08","name":"Baden-Württemberg"}},{"name":"Danziger Str.","postalCode":"71638","locality":"Ludwigsburg","municipality":{"key":"08118048","name":"Ludwigsburg, Stadt","type":"Große_Kreisstadt"},"district":{"key":"08118","name":"Ludwigsburg","type":"Landkreis"},"federalState":{"key":"08","name":"Baden-Württemberg"}},{"name":"Denkendorfer Str.","postalCode":"71636","locality":"Ludwigsburg","municipality":{"key":"08118048","name":"Ludwigsburg, Stadt","type":"Große_Kreisstadt"},"district":{"key":"08118","name":"Ludwigsburg","type":"Landkreis"},"federalState":{"key":"08","name":"Baden-Württemberg"}},{"name":"Dieselstr.","postalCode":"71636","locality":"Ludwigsburg","municipality":{"key":"08118048","name":"Ludwigsburg, Stadt","type":"Große_Kreisstadt"},"district":{"key":"08118","name":"Ludwigsburg","type":"Landkreis"},"federalState":{"key":"08","name":"Baden-Württemberg"}},{"name":"Ditzenbacher Str.","postalCode":"71642","locality":"Ludwigsburg","municipality":{"key":"08118048","name":"Ludwigsburg, Stadt","type":"Große_Kreisstadt"},"district":{"key":"08118","name":"Ludwigsburg","type":"Landkreis"},"federalState":{"key":"08","name":"Baden-Württemberg"}},{"name":"Ditzinger Str.","postalCode":"71636","locality":"Ludwigsburg","municipality":{"key":"08118048","name":"Ludwigsburg, Stadt","type":"Große_Kreisstadt"},"district":{"key":"08118","name":"Ludwigsburg","type":"Landkreis"},"federalState":{"key":"08","name":"Baden-Württemberg"}},{"name":"Dobelweg","postalCode":"71642","locality":"Ludwigsburg","municipality":{"key":"08118048","name":"Ludwigsburg, Stadt","type":"Große_Kreisstadt"},"district":{"key":"08118","name":"Ludwigsburg","type":"Landkreis"},"federalState":{"key":"08","name":"Baden-Württemberg"}},{"name":"Donaustr.","postalCode":"71638","locality":"Ludwigsburg","municipality":{"key":"08118048","name":"Ludwigsburg, Stadt","type":"Große_Kreisstadt"},"district":{"key":"08118","name":"Ludwigsburg","type":"Landkreis"},"federalState":{"key":"08","name":"Baden-Württemberg"}},{"name":"Dorfstr.","postalCode":"71636","locality":"Ludwigsburg","municipality":{"key":"08118048","name":"Ludwigsburg, Stadt","type":"Große_Kreisstadt"},"district":{"key":"08118","name":"Ludwigsburg","type":"Landkreis"},"federalState":{"key":"08","name":"Baden-Württemberg"}},{"name":"Dragonergässle","postalCode":"71638","locality":"Ludwigsburg","municipality":{"key":"08118048","name":"Ludwigsburg, Stadt","type":"Große_Kreisstadt"},"district":{"key":"08118","name":"Ludwigsburg","type":"Landkreis"},"federalState":{"key":"08","name":"Baden-Württemberg"}},{"name":"Drittelshof","postalCode":"71636","locality":"Ludwigsburg","municipality":{"key":"08118048","name":"Ludwigsburg, Stadt","type":"Große_Kreisstadt"},"district":{"key":"08118","name":"Ludwigsburg","type":"Landkreis"},"federalState":{"key":"08","name":"Baden-Württemberg"}},{"name":"Drosselweg","postalCode":"71634","locality":"Ludwigsburg","municipality":{"key":"08118048","name":"Ludwigsburg, Stadt","type":"Große_Kreisstadt"},"district":{"key":"08118","name":"Ludwigsburg","type":"Landkreis"},"federalState":{"key":"08","name":"Baden-Württemberg"}},{"name":"Droste-Hülshoff-Str.","postalCode":"71642","locality":"Ludwigsburg","municipality":{"key":"08118048","name":"Ludwigsburg, Stadt","type":"Große_Kreisstadt"},"district":{"key":"08118","name":"Ludwigsburg","type":"Landkreis"},"federalState":{"key":"08","name":"Baden-Württemberg"}},{"name":"Dürrstr.","postalCode":"71636","locality":"Ludwigsburg","municipality":{"key":"08118048","name":"Ludwigsburg, Stadt","type":"Große_Kreisstadt"},"district":{"key":"08118","name":"Ludwigsburg","type":"Landkreis"},"federalState":{"key":"08","name":"Baden-Württemberg"}},{"name":"Ensbachstr.","postalCode":"74391","locality":"Erligheim","municipality":{"key":"08118015","name":"Erligheim","type":"Kreisangehörige_Gemeinde"},"district":{"key":"08118","name":"Ludwigsburg","type":"Landkreis"},"federalState":{"key":"08","name":"Baden-Württemberg"}},{"name":"Erlensumpfweg","postalCode":"74391","locality":"Erligheim","municipality":{"key":"08118015","name":"Erligheim","type":"Kreisangehörige_Gemeinde"},"district":{"key":"08118","name":"Ludwigsburg","type":"Landkreis"},"federalState":{"key":"08","name":"Baden-Württemberg"}},{"name":"Erlenweg","postalCode":"74391","locality":"Erligheim","municipality":{"key":"08118015","name":"Erligheim","type":"Kreisangehörige_Gemeinde"},"district":{"key":"08118","name":"Ludwigsburg","type":"Landkreis"},"federalState":{"key":"08","name":"Baden-Württemberg"}},{"name":"Finkenweg","postalCode":"74391","locality":"Erligheim","municipality":{"key":"08118015","name":"Erligheim","type":"Kreisangehörige_Gemeinde"},"district":{"key":"08118","name":"Ludwigsburg","type":"Landkreis"},"federalState":{"key":"08","name":"Baden-Württemberg"}},{"name":"Flurstr.","postalCode":"74391","locality":"Erligheim","municipality":{"key":"08118015","name":"Erligheim","type":"Kreisangehörige_Gemeinde"},"district":{"key":"08118","name":"Ludwigsburg","type":"Landkreis"},"federalState":{"key":"08","name":"Baden-Württemberg"}},{"name":"Franz-Lutz-Str.","postalCode":"74391","locality":"Erligheim","municipality":{"key":"08118015","name":"Erligheim","type":"Kreisangehörige_Gemeinde"},"district":{"key":"08118","name":"Ludwigsburg","type":"Landkreis"},"federalState":{"key":"08","name":"Baden-Württemberg"}},{"name":"Freudentaler Str.","postalCode":"74391","locality":"Erligheim","municipality":{"key":"08118015","name":"Erligheim","type":"Kreisangehörige_Gemeinde"},"district":{"key":"08118","name":"Ludwigsburg","type":"Landkreis"},"federalState":{"key":"08","name":"Baden-Württemberg"}},{"name":"Friedhofstr.","postalCode":"74391","locality":"Erligheim","municipality":{"key":"08118015","name":"Erligheim","type":"Kreisangehörige_Gemeinde"},"district":{"key":"08118","name":"Ludwigsburg","type":"Landkreis"},"federalState":{"key":"08","name":"Baden-Württemberg"}},{"name":"Gartenstr.","postalCode":"74391","locality":"Erligheim","municipality":{"key":"08118015","name":"Erligheim","type":"Kreisangehörige_Gemeinde"},"district":{"key":"08118","name":"Ludwigsburg","type":"Landkreis"},"federalState":{"key":"08","name":"Baden-Württemberg"}},{"name":"Georg-Murmann-Str.","postalCode":"74391","locality":"Erligheim","municipality":{"key":"08118015","name":"Erligheim","type":"Kreisangehörige_Gemeinde"},"district":{"key":"08118","name":"Ludwigsburg","type":"Landkreis"},"federalState":{"key":"08","name":"Baden-Württemberg"}},{"name":"Grabenstr.","postalCode":"74391","locality":"Erligheim","municipality":{"key":"08118015","name":"Erligheim","type":"Kreisangehörige_Gemeinde"},"district":{"key":"08118","name":"Ludwigsburg","type":"Landkreis"},"federalState":{"key":"08","name":"Baden-Württemberg"}},{"name":"Greuthweg","postalCode":"74391","locality":"Erligheim","municipality":{"key":"08118015","name":"Erligheim","type":"Kreisangehörige_Gemeinde"},"district":{"key":"08118","name":"Ludwigsburg","type":"Landkreis"},"federalState":{"key":"08","name":"Baden-Württemberg"}},{"name":"Habertsaustr.","postalCode":"74391","locality":"Erligheim","municipality":{"key":"08118015","name":"Erligheim","type":"Kreisangehörige_Gemeinde"},"district":{"key":"08118","name":"Ludwigsburg","type":"Landkreis"},"federalState":{"key":"08","name":"Baden-Württemberg"}},{"name":"Hauptstr.","postalCode":"74391","locality":"Erligheim","municipality":{"key":"08118015","name":"Erligheim","type":"Kreisangehörige_Gemeinde"},"district":{"key":"08118","name":"Ludwigsburg","type":"Landkreis"},"federalState":{"key":"08","name":"Baden-Württemberg"}},{"name":"Hofener Str.","postalCode":"74391","locality":"Erligheim","municipality":{"key":"08118015","name":"Erligheim","type":"Kreisangehörige_Gemeinde"},"district":{"key":"08118","name":"Ludwigsburg","type":"Landkreis"},"federalState":{"key":"08","name":"Baden-Württemberg"}},{"name":"Holderstr.","postalCode":"74391","locality":"Erligheim","municipality":{"key":"08118015","name":"Erligheim","type":"Kreisangehörige_Gemeinde"},"district":{"key":"08118","name":"Ludwigsburg","type":"Landkreis"},"federalState":{"key":"08","name":"Baden-Württemberg"}},{"name":"Im Aichert","postalCode":"74391","locality":"Erligheim","municipality":{"key":"08118015","name":"Erligheim","type":"Kreisangehörige_Gemeinde"},"district":{"key":"08118","name":"Ludwigsburg","type":"Landkreis"},"federalState":{"key":"08","name":"Baden-Württemberg"}},{"name":"Im Egerten","postalCode":"74391","locality":"Erligheim","municipality":{"key":"08118015","name":"Erligheim","type":"Kreisangehörige_Gemeinde"},"district":{"key":"08118","name":"Ludwigsburg","type":"Landkreis"},"federalState":{"key":"08","name":"Baden-Württemberg"}},{"name":"Im Kleeacker","postalCode":"74391","locality":"Erligheim","municipality":{"key":"08118015","name":"Erligheim","type":"Kreisangehörige_Gemeinde"},"district":{"key":"08118","name":"Ludwigsburg","type":"Landkreis"},"federalState":{"key":"08","name":"Baden-Württemberg"}},{"name":"Im kleinen Flürle","postalCode":"74391","locality":"Erligheim","municipality":{"key":"08118015","name":"Erligheim","type":"Kreisangehörige_Gemeinde"},"district":{"key":"08118","name":"Ludwigsburg","type":"Landkreis"},"federalState":{"key":"08","name":"Baden-Württemberg"}},{"name":"Im Ried","postalCode":"74391","locality":"Erligheim","municipality":{"key":"08118015","name":"Erligheim","type":"Kreisangehörige_Gemeinde"},"district":{"key":"08118","name":"Ludwigsburg","type":"Landkreis"},"federalState":{"key":"08","name":"Baden-Württemberg"}},{"name":"Im Rosenfeld","postalCode":"74391","locality":"Erligheim","municipality":{"key":"08118015","name":"Erligheim","type":"Kreisangehörige_Gemeinde"},"district":{"key":"08118","name":"Ludwigsburg","type":"Landkreis"},"federalState":{"key":"08","name":"Baden-Württemberg"}},{"name":"Im Sponhauer","postalCode":"74391","locality":"Erligheim","municipality":{"key":"08118015","name":"Erligheim","type":"Kreisangehörige_Gemeinde"},"district":{"key":"08118","name":"Ludwigsburg","type":"Landkreis"},"federalState":{"key":"08","name":"Baden-Württemberg"}},{"name":"Im Winterrain","postalCode":"74391","locality":"Erligheim","municipality":{"key":"08118015","name":"Erligheim","type":"Kreisangehörige_Gemeinde"},"district":{"key":"08118","name":"Ludwigsburg","type":"Landkreis"},"federalState":{"key":"08","name":"Baden-Württemberg"}},{"name":"Industriestr.","postalCode":"74391","locality":"Erligheim","municipality":{"key":"08118015","name":"Erligheim","type":"Kreisangehörige_Gemeinde"},"district":{"key":"08118","name":"Ludwigsburg","type":"Landkreis"},"federalState":{"key":"08","name":"Baden-Württemberg"}},{"name":"Johannes-Bieg-Str.","postalCode":"74391","locality":"Erligheim","municipality":{"key":"08118015","name":"Erligheim","type":"Kreisangehörige_Gemeinde"},"district":{"key":"08118","name":"Ludwigsburg","type":"Landkreis"},"federalState":{"key":"08","name":"Baden-Württemberg"}},{"name":"Kernerweg","postalCode":"74391","locality":"Erligheim","municipality":{"key":"08118015","name":"Erligheim","type":"Kreisangehörige_Gemeinde"},"district":{"key":"08118","name":"Ludwigsburg","type":"Landkreis"},"federalState":{"key":"08","name":"Baden-Württemberg"}},{"name":"Kirschenweg","postalCode":"74391","locality":"Erligheim","municipality":{"key":"08118015","name":"Erligheim","type":"Kreisangehörige_Gemeinde"},"district":{"key":"08118","name":"Ludwigsburg","type":"Landkreis"},"federalState":{"key":"08","name":"Baden-Württemberg"}},{"name":"Kuhäckerstr.","postalCode":"74391","locality":"Erligheim","municipality":{"key":"08118015","name":"Erligheim","type":"Kreisangehörige_Gemeinde"},"district":{"key":"08118","name":"Ludwigsburg","type":"Landkreis"},"federalState":{"key":"08","name":"Baden-Württemberg"}},{"name":"Lange Äcker","postalCode":"74391","locality":"Erligheim","municipality":{"key":"08118015","name":"Erligheim","type":"Kreisangehörige_Gemeinde"},"district":{"key":"08118","name":"Ludwigsburg","type":"Landkreis"},"federalState":{"key":"08","name":"Baden-Württemberg"}},{"name":"Lembergerstr.","postalCode":"74391","locality":"Erligheim","municipality":{"key":"08118015","name":"Erligheim","type":"Kreisangehörige_Gemeinde"},"district":{"key":"08118","name":"Ludwigsburg","type":"Landkreis"},"federalState":{"key":"08","name":"Baden-Württemberg"}},{"name":"Lerchenbergweg","postalCode":"74391","locality":"Erligheim","municipality":{"key":"08118015","name":"Erligheim","type":"Kreisangehörige_Gemeinde"},"district":{"key":"08118","name":"Ludwigsburg","type":"Landkreis"},"federalState":{"key":"08","name":"Baden-Württemberg"}},{"name":"Lindenstr.","postalCode":"74391","locality":"Erligheim","municipality":{"key":"08118015","name":"Erligheim","type":"Kreisangehörige_Gemeinde"},"district":{"key":"08118","name":"Ludwigsburg","type":"Landkreis"},"federalState":{"key":"08","name":"Baden-Württemberg"}},{"name":"Löchgauer Str.","postalCode":"74391","locality":"Erligheim","municipality":{"key":"08118015","name":"Erligheim","type":"Kreisangehörige_Gemeinde"},"district":{"key":"08118","name":"Ludwigsburg","type":"Landkreis"},"federalState":{"key":"08","name":"Baden-Württemberg"}},{"name":"Markersdorfer Str.","postalCode":"74391","locality":"Erligheim","municipality":{"key":"08118015","name":"Erligheim","type":"Kreisangehörige_Gemeinde"},"district":{"key":"08118","name":"Ludwigsburg","type":"Landkreis"},"federalState":{"key":"08","name":"Baden-Württemberg"}},{"name":"Mauerackerstr.","postalCode":"74391","locality":"Erligheim","municipality":{"key":"08118015","name":"Erligheim","type":"Kreisangehörige_Gemeinde"},"district":{"key":"08118","name":"Ludwigsburg","type":"Landkreis"},"federalState":{"key":"08","name":"Baden-Württemberg"}},{"name":"Mühlstr.","postalCode":"74391","locality":"Erligheim","municipality":{"key":"08118015","name":"Erligheim","type":"Kreisangehörige_Gemeinde"},"district":{"key":"08118","name":"Ludwigsburg","type":"Landkreis"},"federalState":{"key":"08","name":"Baden-Württemberg"}},{"name":"Nordstr.","postalCode":"74391","locality":"Erligheim","municipality":{"key":"08118015","name":"Erligheim","type":"Kreisangehörige_Gemeinde"},"district":{"key":"08118","name":"Ludwigsburg","type":"Landkreis"},"federalState":{"key":"08","name":"Baden-Württemberg"}},{"name":"Ob dem Schloss","postalCode":"71640","locality":"Ludwigsburg","municipality":{"key":"08118048","name":"Ludwigsburg, Stadt","type":"Große_Kreisstadt"},"district":{"key":"08118","name":"Ludwigsburg","type":"Landkreis"},"federalState":{"key":"08","name":"Baden-Württemberg"}},{"name":"Obere Gasse","postalCode":"71642","locality":"Ludwigsburg","municipality":{"key":"08118048","name":"Ludwigsburg, Stadt","type":"Große_Kreisstadt"},"district":{"key":"08118","name":"Ludwigsburg","type":"Landkreis"},"federalState":{"key":"08","name":"Baden-Württemberg"}},{"name":"Obere Kasernenstr.","postalCode":"71634","locality":"Ludwigsburg","municipality":{"key":"08118048","name":"Ludwigsburg, Stadt","type":"Große_Kreisstadt"},"district":{"key":"08118","name":"Ludwigsburg","type":"Landkreis"},"federalState":{"key":"08","name":"Baden-Württemberg"}},{"name":"Obere Reithausstr.","postalCode":"71634","locality":"Ludwigsburg","municipality":{"key":"08118048","name":"Ludwigsburg, Stadt","type":"Große_Kreisstadt"},"district":{"key":"08118","name":"Ludwigsburg","type":"Landkreis"},"federalState":{"key":"08","name":"Baden-Württemberg"}},{"name":"Odenheimstr.","postalCode":"71642","locality":"Ludwigsburg","municipality":{"key":"08118048","name":"Ludwigsburg, Stadt","type":"Große_Kreisstadt"},"district":{"key":"08118","name":"Ludwigsburg","type":"Landkreis"},"federalState":{"key":"08","name":"Baden-Württemberg"}},{"name":"Oderstr.","postalCode":"71638","locality":"Ludwigsburg","municipality":{"key":"08118048","name":"Ludwigsburg, Stadt","type":"Große_Kreisstadt"},"district":{"key":"08118","name":"Ludwigsburg","type":"Landkreis"},"federalState":{"key":"08","name":"Baden-Württemberg"}},{"name":"Ohmstr.","postalCode":"71642","locality":"Ludwigsburg","municipality":{"key":"08118048","name":"Ludwigsburg, Stadt","type":"Große_Kreisstadt"},"district":{"key":"08118","name":"Ludwigsburg","type":"Landkreis"},"federalState":{"key":"08","name":"Baden-Württemberg"}},{"name":"Olgastr.","postalCode":"71638","locality":"Ludwigsburg","municipality":{"key":"08118048","name":"Ludwigsburg, Stadt","type":"Große_Kreisstadt"},"district":{"key":"08118","name":"Ludwigsburg","type":"Landkreis"},"federalState":{"key":"08","name":"Baden-Württemberg"}},{"name":"Oscar-Paret-Str.","postalCode":"71642","locality":"Ludwigsburg","municipality":{"key":"08118048","name":"Ludwigsburg, Stadt","type":"Große_Kreisstadt"},"district":{"key":"08118","name":"Ludwigsburg","type":"Landkreis"},"federalState":{"key":"08","name":"Baden-Württemberg"}},{"name":"Oscar-Walcker-Str.","postalCode":"71636","locality":"Ludwigsburg","municipality":{"key":"08118048","name":"Ludwigsburg, Stadt","type":"Große_Kreisstadt"},"district":{"key":"08118","name":"Ludwigsburg","type":"Landkreis"},"federalState":{"key":"08","name":"Baden-Württemberg"}},{"name":"Osterholzallee","postalCode":"71636","locality":"Ludwigsburg","municipality":{"key":"08118048","name":"Ludwigsburg, Stadt","type":"Große_Kreisstadt"},"district":{"key":"08118","name":"Ludwigsburg","type":"Landkreis"},"federalState":{"key":"08","name":"Baden-Württemberg"}},{"name":"Ostertagstr.","postalCode":"71642","locality":"Ludwigsburg","municipality":{"key":"08118048","name":"Ludwigsburg, Stadt","type":"Große_Kreisstadt"},"district":{"key":"08118","name":"Ludwigsburg","type":"Landkreis"},"federalState":{"key":"08","name":"Baden-Württemberg"}},{"name":"Osterwiese","postalCode":"71634","locality":"Ludwigsburg","municipality":{"key":"08118048","name":"Ludwigsburg, Stadt","type":"Große_Kreisstadt"},"district":{"key":"08118","name":"Ludwigsburg","type":"Landkreis"},"federalState":{"key":"08","name":"Baden-Württemberg"}},{"name":"Oststr.","postalCode":"71638","locality":"Ludwigsburg","municipality":{"key":"08118048","name":"Ludwigsburg, Stadt","type":"Große_Kreisstadt"},"district":{"key":"08118","name":"Ludwigsburg","type":"Landkreis"},"federalState":{"key":"08","name":"Baden-Württemberg"}},{"name":"Otto-Geßler-Str.","postalCode":"71638","locality":"Ludwigsburg","municipality":{"key":"08118048","name":"Ludwigsburg, Stadt","type":"Große_Kreisstadt"},"district":{"key":"08118","name":"Ludwigsburg","type":"Landkreis"},"federalState":{"key":"08","name":"Baden-Württemberg"}},{"name":"Panoramaweg","postalCode":"74391","locality":"Erligheim","municipality":{"key":"08118015","name":"Erligheim","type":"Kreisangehörige_Gemeinde"},"district":{"key":"08118","name":"Ludwigsburg","type":"Landkreis"},"federalState":{"key":"08","name":"Baden-Württemberg"}},{"name":"Quergasse","postalCode":"71642","locality":"Ludwigsburg","municipality":{"key":"08118048","name":"Ludwigsburg, Stadt","type":"Große_Kreisstadt"},"district":{"key":"08118","name":"Ludwigsburg","type":"Landkreis"},"federalState":{"key":"08","name":"Baden-Württemberg"}},{"name":"Rathausstr.","postalCode":"74391","locality":"Erligheim","municipality":{"key":"08118015","name":"Erligheim","type":"Kreisangehörige_Gemeinde"},"district":{"key":"08118","name":"Ludwigsburg","type":"Landkreis"},"federalState":{"key":"08","name":"Baden-Württemberg"}},{"name":"Rieslingweg","postalCode":"74391","locality":"Erligheim","municipality":{"key":"08118015","name":"Erligheim","type":"Kreisangehörige_Gemeinde"},"district":{"key":"08118","name":"Ludwigsburg","type":"Landkreis"},"federalState":{"key":"08","name":"Baden-Württemberg"}},{"name":"Ringstr.","postalCode":"74391","locality":"Erligheim","municipality":{"key":"08118015","name":"Erligheim","type":"Kreisangehörige_Gemeinde"},"district":{"key":"08118","name":"Ludwigsburg","type":"Landkreis"},"federalState":{"key":"08","name":"Baden-Württemberg"}},{"name":"Schillerstr.","postalCode":"74391","locality":"Erligheim","municipality":{"key":"08118015","name":"Erligheim","type":"Kreisangehörige_Gemeinde"},"district":{"key":"08118","name":"Ludwigsburg","type":"Landkreis"},"federalState":{"key":"08","name":"Baden-Württemberg"}},{"name":"Schmerbachweg","postalCode":"74391","locality":"Erligheim","municipality":{"key":"08118015","name":"Erligheim","type":"Kreisangehörige_Gemeinde"},"district":{"key":"08118","name":"Ludwigsburg","type":"Landkreis"},"federalState":{"key":"08","name":"Baden-Württemberg"}},{"name":"Schützenhäuslesweg","postalCode":"74391","locality":"Erligheim","municipality":{"key":"08118015","name":"Erligheim","type":"Kreisangehörige_Gemeinde"},"district":{"key":"08118","name":"Ludwigsburg","type":"Landkreis"},"federalState":{"key":"08","name":"Baden-Württemberg"}},{"name":"Seestr.","postalCode":"74391","locality":"Erligheim","municipality":{"key":"08118015","name":"Erligheim","type":"Kreisangehörige_Gemeinde"},"district":{"key":"08118","name":"Ludwigsburg","type":"Landkreis"},"federalState":{"key":"08","name":"Baden-Württemberg"}},{"name":"Südstr.","postalCode":"74391","locality":"Erligheim","municipality":{"key":"08118015","name":"Erligheim","type":"Kreisangehörige_Gemeinde"},"district":{"key":"08118","name":"Ludwigsburg","type":"Landkreis"},"federalState":{"key":"08","name":"Baden-Württemberg"}},{"name":"Sumpfweg","postalCode":"74391","locality":"Erligheim","municipality":{"key":"08118015","name":"Erligheim","type":"Kreisangehörige_Gemeinde"},"district":{"key":"08118","name":"Ludwigsburg","type":"Landkreis"},"federalState":{"key":"08","name":"Baden-Württemberg"}},{"name":"Talstr.","postalCode":"74391","locality":"Erligheim","municipality":{"key":"08118015","name":"Erligheim","type":"Kreisangehörige_Gemeinde"},"district":{"key":"08118","name":"Ludwigsburg","type":"Landkreis"},"federalState":{"key":"08","name":"Baden-Württemberg"}},{"name":"Trollingerweg","postalCode":"74391","locality":"Erligheim","municipality":{"key":"08118015","name":"Erligheim","type":"Kreisangehörige_Gemeinde"},"district":{"key":"08118","name":"Ludwigsburg","type":"Landkreis"},"federalState":{"key":"08","name":"Baden-Württemberg"}},{"name":"Uferstr.","postalCode":"71642","locality":"Ludwigsburg","municipality":{"key":"08118048","name":"Ludwigsburg, Stadt","type":"Große_Kreisstadt"},"district":{"key":"08118","name":"Ludwigsburg","type":"Landkreis"},"federalState":{"key":"08","name":"Baden-Württemberg"}},{"name":"Uhlandstr.","postalCode":"71634","locality":"Ludwigsburg","municipality":{"key":"08118048","name":"Ludwigsburg, Stadt","type":"Große_Kreisstadt"},"district":{"key":"08118","name":"Ludwigsburg","type":"Landkreis"},"federalState":{"key":"08","name":"Baden-Württemberg"}},{"name":"Uhlandstr.","postalCode":"71638","locality":"Ludwigsburg","municipality":{"key":"08118048","name":"Ludwigsburg, Stadt","type":"Große_Kreisstadt"},"district":{"key":"08118","name":"Ludwigsburg","type":"Landkreis"},"federalState":{"key":"08","name":"Baden-Württemberg"}},{"name":"Ulmer Str.","postalCode":"71640","locality":"Ludwigsburg","municipality":{"key":"08118048","name":"Ludwigsburg, Stadt","type":"Große_Kreisstadt"},"district":{"key":"08118","name":"Ludwigsburg","type":"Landkreis"},"federalState":{"key":"08","name":"Baden-Württemberg"}},{"name":"Ulrichstr.","postalCode":"71636","locality":"Ludwigsburg","municipality":{"key":"08118048","name":"Ludwigsburg, Stadt","type":"Große_Kreisstadt"},"district":{"key":"08118","name":"Ludwigsburg","type":"Landkreis"},"federalState":{"key":"08","name":"Baden-Württemberg"}},{"name":"Untere Gasse","postalCode":"71642","locality":"Ludwigsburg","municipality":{"key":"08118048","name":"Ludwigsburg, Stadt","type":"Große_Kreisstadt"},"district":{"key":"08118","name":"Ludwigsburg","type":"Landkreis"},"federalState":{"key":"08","name":"Baden-Württemberg"}},{"name":"Untere Kasernenstr.","postalCode":"71634","locality":"Ludwigsburg","municipality":{"key":"08118048","name":"Ludwigsburg, Stadt","type":"Große_Kreisstadt"},"district":{"key":"08118","name":"Ludwigsburg","type":"Landkreis"},"federalState":{"key":"08","name":"Baden-Württemberg"}},{"name":"Untere Reithausstr.","postalCode":"71634","locality":"Ludwigsburg","municipality":{"key":"08118048","name":"Ludwigsburg, Stadt","type":"Große_Kreisstadt"},"district":{"key":"08118","name":"Ludwigsburg","type":"Landkreis"},"federalState":{"key":"08","name":"Baden-Württemberg"}},{"name":"Vogelsangweg","postalCode":"74391","locality":"Erligheim","municipality":{"key":"08118015","name":"Erligheim","type":"Kreisangehörige_Gemeinde"},"district":{"key":"08118","name":"Ludwigsburg","type":"Landkreis"},"federalState":{"key":"08","name":"Baden-Württemberg"}},{"name":"Weinstr.","postalCode":"74391","locality":"Erligheim","municipality":{"key":"08118015","name":"Erligheim","type":"Kreisangehörige_Gemeinde"},"district":{"key":"08118","name":"Ludwigsburg","type":"Landkreis"},"federalState":{"key":"08","name":"Baden-Württemberg"}},{"name":"Wengertweg","postalCode":"74391","locality":"Erligheim","municipality":{"key":"08118015","name":"Erligheim","type":"Kreisangehörige_Gemeinde"},"district":{"key":"08118","name":"Ludwigsburg","type":"Landkreis"},"federalState":{"key":"08","name":"Baden-Württemberg"}},{"name":"Yorckstr.","postalCode":"71636","locality":"Ludwigsburg","municipality":{"key":"08118048","name":"Ludwigsburg, Stadt","type":"Große_Kreisstadt"},"district":{"key":"08118","name":"Ludwigsburg","type":"Landkreis"},"federalState":{"key":"08","name":"Baden-Württemberg"}},{"name":"Zigeunereckweg","postalCode":"74391","locality":"Erligheim","municipality":{"key":"08118015","name":"Erligheim","type":"Kreisangehörige_Gemeinde"},"district":{"key":"08118","name":"Ludwigsburg","type":"Landkreis"},"federalState":{"key":"08","name":"Baden-Württemberg"}},{"name":"Östlicher Parkweg","postalCode":"71634","locality":"Ludwigsburg","municipality":{"key":"08118048","name":"Ludwigsburg, Stadt","type":"Große_Kreisstadt"},"district":{"key":"08118","name":"Ludwigsburg","type":"Landkreis"},"federalState":{"key":"08","name":"Baden-Württemberg"}},{"name":"Östlicher Parkweg","postalCode":"71642","locality":"Ludwigsburg","municipality":{"key":"08118048","name":"Ludwigsburg, Stadt","type":"Große_Kreisstadt"},"district":{"key":"08118","name":"Ludwigsburg","type":"Landkreis"},"federalState":{"key":"08","name":"Baden-Württemberg"}},{"name":"Überkinger Str.","postalCode":"71642","locality":"Ludwigsburg","municipality":{"key":"08118048","name":"Ludwigsburg, Stadt","type":"Große_Kreisstadt"},"district":{"key":"08118","name":"Ludwigsburg","type":"Landkreis"},"federalState":{"key":"08","name":"Baden-Württemberg"}},]