[{"name":"Alter Platz","postalCode":"53579","locality":"Erpel","municipality":{"key":"07138019","name":"Erpel","type":"Kreisangehörige_Gemeinde"},"district":{"key":"07138","name":"Neuwied","type":"Landkreis"},"federalState":{"key":"07","name":"Rheinland-Pfalz"}},{"name":"Alte Schleid","postalCode":"53579","locality":"Erpel","municipality":{"key":"07138019","name":"Erpel","type":"Kreisangehörige_Gemeinde"},"district":{"key":"07138","name":"Neuwied","type":"Landkreis"},"federalState":{"key":"07","name":"Rheinland-Pfalz"}},{"name":"Am alten Wallgraben","postalCode":"53579","locality":"Erpel","municipality":{"key":"07138019","name":"Erpel","type":"Kreisangehörige_Gemeinde"},"district":{"key":"07138","name":"Neuwied","type":"Landkreis"},"federalState":{"key":"07","name":"Rheinland-Pfalz"}},{"name":"Am Bachkreuz","postalCode":"53579","locality":"Erpel","municipality":{"key":"07138019","name":"Erpel","type":"Kreisangehörige_Gemeinde"},"district":{"key":"07138","name":"Neuwied","type":"Landkreis"},"federalState":{"key":"07","name":"Rheinland-Pfalz"}},{"name":"Am Brink","postalCode":"49751","locality":"Werpeloh","municipality":{"key":"03454058","name":"Werpeloh","type":"Kreisangehörige_Gemeinde"},"district":{"key":"03454","name":"Emsland","type":"Landkreis"},"federalState":{"key":"03","name":"Niedersachsen"}},{"name":"Am Bugenkamp","postalCode":"49751","locality":"Werpeloh","municipality":{"key":"03454058","name":"Werpeloh","type":"Kreisangehörige_Gemeinde"},"district":{"key":"03454","name":"Emsland","type":"Landkreis"},"federalState":{"key":"03","name":"Niedersachsen"}},{"name":"Am Drohn","postalCode":"49751","locality":"Werpeloh","municipality":{"key":"03454058","name":"Werpeloh","type":"Kreisangehörige_Gemeinde"},"district":{"key":"03454","name":"Emsland","type":"Landkreis"},"federalState":{"key":"03","name":"Niedersachsen"}},{"name":"Am Hangkamp","postalCode":"49751","locality":"Werpeloh","municipality":{"key":"03454058","name":"Werpeloh","type":"Kreisangehörige_Gemeinde"},"district":{"key":"03454","name":"Emsland","type":"Landkreis"},"federalState":{"key":"03","name":"Niedersachsen"}},{"name":"Am Liesenberg","postalCode":"53579","locality":"Erpel","municipality":{"key":"07138019","name":"Erpel","type":"Kreisangehörige_Gemeinde"},"district":{"key":"07138","name":"Neuwied","type":"Landkreis"},"federalState":{"key":"07","name":"Rheinland-Pfalz"}},{"name":"Am Rebenhang","postalCode":"53579","locality":"Erpel","municipality":{"key":"07138019","name":"Erpel","type":"Kreisangehörige_Gemeinde"},"district":{"key":"07138","name":"Neuwied","type":"Landkreis"},"federalState":{"key":"07","name":"Rheinland-Pfalz"}},{"name":"Am Schleidentor","postalCode":"53579","locality":"Erpel","municipality":{"key":"07138019","name":"Erpel","type":"Kreisangehörige_Gemeinde"},"district":{"key":"07138","name":"Neuwied","type":"Landkreis"},"federalState":{"key":"07","name":"Rheinland-Pfalz"}},{"name":"Am Wall","postalCode":"49751","locality":"Werpeloh","municipality":{"key":"03454058","name":"Werpeloh","type":"Kreisangehörige_Gemeinde"},"district":{"key":"03454","name":"Emsland","type":"Landkreis"},"federalState":{"key":"03","name":"Niedersachsen"}},{"name":"Am Weinstock","postalCode":"53579","locality":"Erpel","municipality":{"key":"07138019","name":"Erpel","type":"Kreisangehörige_Gemeinde"},"district":{"key":"07138","name":"Neuwied","type":"Landkreis"},"federalState":{"key":"07","name":"Rheinland-Pfalz"}},{"name":"An der alten Bleiche","postalCode":"53579","locality":"Erpel","municipality":{"key":"07138019","name":"Erpel","type":"Kreisangehörige_Gemeinde"},"district":{"key":"07138","name":"Neuwied","type":"Landkreis"},"federalState":{"key":"07","name":"Rheinland-Pfalz"}},{"name":"An der Wende","postalCode":"49751","locality":"Werpeloh","municipality":{"key":"03454058","name":"Werpeloh","type":"Kreisangehörige_Gemeinde"},"district":{"key":"03454","name":"Emsland","type":"Landkreis"},"federalState":{"key":"03","name":"Niedersachsen"}},{"name":"Apollinarisblick","postalCode":"53579","locality":"Erpel","municipality":{"key":"07138019","name":"Erpel","type":"Kreisangehörige_Gemeinde"},"district":{"key":"07138","name":"Neuwied","type":"Landkreis"},"federalState":{"key":"07","name":"Rheinland-Pfalz"}},{"name":"Auf dem Leitzberg","postalCode":"53579","locality":"Erpel","municipality":{"key":"07138019","name":"Erpel","type":"Kreisangehörige_Gemeinde"},"district":{"key":"07138","name":"Neuwied","type":"Landkreis"},"federalState":{"key":"07","name":"Rheinland-Pfalz"}},{"name":"Auf dem Schimmerich","postalCode":"53579","locality":"Erpel","municipality":{"key":"07138019","name":"Erpel","type":"Kreisangehörige_Gemeinde"},"district":{"key":"07138","name":"Neuwied","type":"Landkreis"},"federalState":{"key":"07","name":"Rheinland-Pfalz"}},{"name":"Bahnhofstr.","postalCode":"53579","locality":"Erpel","municipality":{"key":"07138019","name":"Erpel","type":"Kreisangehörige_Gemeinde"},"district":{"key":"07138","name":"Neuwied","type":"Landkreis"},"federalState":{"key":"07","name":"Rheinland-Pfalz"}},{"name":"Bergstr.","postalCode":"53579","locality":"Erpel","municipality":{"key":"07138019","name":"Erpel","type":"Kreisangehörige_Gemeinde"},"district":{"key":"07138","name":"Neuwied","type":"Landkreis"},"federalState":{"key":"07","name":"Rheinland-Pfalz"}},{"name":"Birkenweg","postalCode":"49751","locality":"Werpeloh","municipality":{"key":"03454058","name":"Werpeloh","type":"Kreisangehörige_Gemeinde"},"district":{"key":"03454","name":"Emsland","type":"Landkreis"},"federalState":{"key":"03","name":"Niedersachsen"}},{"name":"Brunnengasse","postalCode":"53579","locality":"Erpel","municipality":{"key":"07138019","name":"Erpel","type":"Kreisangehörige_Gemeinde"},"district":{"key":"07138","name":"Neuwied","type":"Landkreis"},"federalState":{"key":"07","name":"Rheinland-Pfalz"}},{"name":"Bugenweg","postalCode":"49751","locality":"Werpeloh","municipality":{"key":"03454058","name":"Werpeloh","type":"Kreisangehörige_Gemeinde"},"district":{"key":"03454","name":"Emsland","type":"Landkreis"},"federalState":{"key":"03","name":"Niedersachsen"}},{"name":"Burgunderstr.","postalCode":"53579","locality":"Erpel","municipality":{"key":"07138019","name":"Erpel","type":"Kreisangehörige_Gemeinde"},"district":{"key":"07138","name":"Neuwied","type":"Landkreis"},"federalState":{"key":"07","name":"Rheinland-Pfalz"}},{"name":"Calvinstr.","postalCode":"56567","locality":"Neuwied","municipality":{"key":"07138045","name":"Neuwied, Stadt","type":"Stadt"},"district":{"key":"07138","name":"Neuwied","type":"Landkreis"},"federalState":{"key":"07","name":"Rheinland-Pfalz"}},{"name":"Capybaras","postalCode":"56566","locality":"Neuwied","municipality":{"key":"07138045","name":"Neuwied, Stadt","type":"Stadt"},"district":{"key":"07138","name":"Neuwied","type":"Landkreis"},"federalState":{"key":"07","name":"Rheinland-Pfalz"}},{"name":"Carmen-Sylva-Garten","postalCode":"56564","locality":"Neuwied","municipality":{"key":"07138045","name":"Neuwied, Stadt","type":"Stadt"},"district":{"key":"07138","name":"Neuwied","type":"Landkreis"},"federalState":{"key":"07","name":"Rheinland-Pfalz"}},{"name":"Cheruskerstr.","postalCode":"56567","locality":"Neuwied","municipality":{"key":"07138045","name":"Neuwied, Stadt","type":"Stadt"},"district":{"key":"07138","name":"Neuwied","type":"Landkreis"},"federalState":{"key":"07","name":"Rheinland-Pfalz"}},{"name":"Clemensstr.","postalCode":"56566","locality":"Neuwied","municipality":{"key":"07138045","name":"Neuwied, Stadt","type":"Stadt"},"district":{"key":"07138","name":"Neuwied","type":"Landkreis"},"federalState":{"key":"07","name":"Rheinland-Pfalz"}},{"name":"Cranachstr.","postalCode":"56566","locality":"Neuwied","municipality":{"key":"07138045","name":"Neuwied, Stadt","type":"Stadt"},"district":{"key":"07138","name":"Neuwied","type":"Landkreis"},"federalState":{"key":"07","name":"Rheinland-Pfalz"}},{"name":"Deepenweg","postalCode":"53579","locality":"Erpel","municipality":{"key":"07138019","name":"Erpel","type":"Kreisangehörige_Gemeinde"},"district":{"key":"07138","name":"Neuwied","type":"Landkreis"},"federalState":{"key":"07","name":"Rheinland-Pfalz"}},{"name":"Eichengrund","postalCode":"49751","locality":"Werpeloh","municipality":{"key":"03454058","name":"Werpeloh","type":"Kreisangehörige_Gemeinde"},"district":{"key":"03454","name":"Emsland","type":"Landkreis"},"federalState":{"key":"03","name":"Niedersachsen"}},{"name":"Erpeler Ley Str.","postalCode":"53579","locality":"Erpel","municipality":{"key":"07138019","name":"Erpel","type":"Kreisangehörige_Gemeinde"},"district":{"key":"07138","name":"Neuwied","type":"Landkreis"},"federalState":{"key":"07","name":"Rheinland-Pfalz"}},{"name":"Erpeler Str.","postalCode":"53579","locality":"Erpel","municipality":{"key":"07138019","name":"Erpel","type":"Kreisangehörige_Gemeinde"},"district":{"key":"07138","name":"Neuwied","type":"Landkreis"},"federalState":{"key":"07","name":"Rheinland-Pfalz"}},{"name":"Finkenweg","postalCode":"53579","locality":"Erpel","municipality":{"key":"07138019","name":"Erpel","type":"Kreisangehörige_Gemeinde"},"district":{"key":"07138","name":"Neuwied","type":"Landkreis"},"federalState":{"key":"07","name":"Rheinland-Pfalz"}},{"name":"Friedhofsgasse","postalCode":"53579","locality":"Erpel","municipality":{"key":"07138019","name":"Erpel","type":"Kreisangehörige_Gemeinde"},"district":{"key":"07138","name":"Neuwied","type":"Landkreis"},"federalState":{"key":"07","name":"Rheinland-Pfalz"}},{"name":"Friedhofstr.","postalCode":"53579","locality":"Erpel","municipality":{"key":"07138019","name":"Erpel","type":"Kreisangehörige_Gemeinde"},"district":{"key":"07138","name":"Neuwied","type":"Landkreis"},"federalState":{"key":"07","name":"Rheinland-Pfalz"}},{"name":"Friesenweg","postalCode":"49751","locality":"Werpeloh","municipality":{"key":"03454058","name":"Werpeloh","type":"Kreisangehörige_Gemeinde"},"district":{"key":"03454","name":"Emsland","type":"Landkreis"},"federalState":{"key":"03","name":"Niedersachsen"}},{"name":"Frohntor","postalCode":"53579","locality":"Erpel","municipality":{"key":"07138019","name":"Erpel","type":"Kreisangehörige_Gemeinde"},"district":{"key":"07138","name":"Neuwied","type":"Landkreis"},"federalState":{"key":"07","name":"Rheinland-Pfalz"}},{"name":"Frongasse","postalCode":"53579","locality":"Erpel","municipality":{"key":"07138019","name":"Erpel","type":"Kreisangehörige_Gemeinde"},"district":{"key":"07138","name":"Neuwied","type":"Landkreis"},"federalState":{"key":"07","name":"Rheinland-Pfalz"}},{"name":"Gartenstr.","postalCode":"49751","locality":"Werpeloh","municipality":{"key":"03454058","name":"Werpeloh","type":"Kreisangehörige_Gemeinde"},"district":{"key":"03454","name":"Emsland","type":"Landkreis"},"federalState":{"key":"03","name":"Niedersachsen"}},{"name":"Gartenweg","postalCode":"53579","locality":"Erpel","municipality":{"key":"07138019","name":"Erpel","type":"Kreisangehörige_Gemeinde"},"district":{"key":"07138","name":"Neuwied","type":"Landkreis"},"federalState":{"key":"07","name":"Rheinland-Pfalz"}},{"name":"Ginsterweg","postalCode":"49751","locality":"Werpeloh","municipality":{"key":"03454058","name":"Werpeloh","type":"Kreisangehörige_Gemeinde"},"district":{"key":"03454","name":"Emsland","type":"Landkreis"},"federalState":{"key":"03","name":"Niedersachsen"}},{"name":"Grabenstr.","postalCode":"53579","locality":"Erpel","municipality":{"key":"07138019","name":"Erpel","type":"Kreisangehörige_Gemeinde"},"district":{"key":"07138","name":"Neuwied","type":"Landkreis"},"federalState":{"key":"07","name":"Rheinland-Pfalz"}},{"name":"Große Kreuzstr.","postalCode":"49751","locality":"Werpeloh","municipality":{"key":"03454058","name":"Werpeloh","type":"Kreisangehörige_Gemeinde"},"district":{"key":"03454","name":"Emsland","type":"Landkreis"},"federalState":{"key":"03","name":"Niedersachsen"}},{"name":"Handwerkerzentrum","postalCode":"53579","locality":"Erpel","municipality":{"key":"07138019","name":"Erpel","type":"Kreisangehörige_Gemeinde"},"district":{"key":"07138","name":"Neuwied","type":"Landkreis"},"federalState":{"key":"07","name":"Rheinland-Pfalz"}},{"name":"Hauptstr.","postalCode":"49751","locality":"Werpeloh","municipality":{"key":"03454058","name":"Werpeloh","type":"Kreisangehörige_Gemeinde"},"district":{"key":"03454","name":"Emsland","type":"Landkreis"},"federalState":{"key":"03","name":"Niedersachsen"}},{"name":"Heideweg","postalCode":"49751","locality":"Werpeloh","municipality":{"key":"03454058","name":"Werpeloh","type":"Kreisangehörige_Gemeinde"},"district":{"key":"03454","name":"Emsland","type":"Landkreis"},"federalState":{"key":"03","name":"Niedersachsen"}},{"name":"Heisterer Str.","postalCode":"53579","locality":"Erpel","municipality":{"key":"07138019","name":"Erpel","type":"Kreisangehörige_Gemeinde"},"district":{"key":"07138","name":"Neuwied","type":"Landkreis"},"federalState":{"key":"07","name":"Rheinland-Pfalz"}},{"name":"Hochstr.","postalCode":"53579","locality":"Erpel","municipality":{"key":"07138019","name":"Erpel","type":"Kreisangehörige_Gemeinde"},"district":{"key":"07138","name":"Neuwied","type":"Landkreis"},"federalState":{"key":"07","name":"Rheinland-Pfalz"}},{"name":"Holunderweg","postalCode":"49751","locality":"Werpeloh","municipality":{"key":"03454058","name":"Werpeloh","type":"Kreisangehörige_Gemeinde"},"district":{"key":"03454","name":"Emsland","type":"Landkreis"},"federalState":{"key":"03","name":"Niedersachsen"}},{"name":"Hospitalgasse","postalCode":"53579","locality":"Erpel","municipality":{"key":"07138019","name":"Erpel","type":"Kreisangehörige_Gemeinde"},"district":{"key":"07138","name":"Neuwied","type":"Landkreis"},"federalState":{"key":"07","name":"Rheinland-Pfalz"}},{"name":"Hündelsgasse","postalCode":"53579","locality":"Erpel","municipality":{"key":"07138019","name":"Erpel","type":"Kreisangehörige_Gemeinde"},"district":{"key":"07138","name":"Neuwied","type":"Landkreis"},"federalState":{"key":"07","name":"Rheinland-Pfalz"}},{"name":"Im Kamp","postalCode":"49751","locality":"Werpeloh","municipality":{"key":"03454058","name":"Werpeloh","type":"Kreisangehörige_Gemeinde"},"district":{"key":"03454","name":"Emsland","type":"Landkreis"},"federalState":{"key":"03","name":"Niedersachsen"}},{"name":"Im Sünnekamp","postalCode":"49751","locality":"Werpeloh","municipality":{"key":"03454058","name":"Werpeloh","type":"Kreisangehörige_Gemeinde"},"district":{"key":"03454","name":"Emsland","type":"Landkreis"},"federalState":{"key":"03","name":"Niedersachsen"}},{"name":"Im Vogelsang","postalCode":"53579","locality":"Erpel","municipality":{"key":"07138019","name":"Erpel","type":"Kreisangehörige_Gemeinde"},"district":{"key":"07138","name":"Neuwied","type":"Landkreis"},"federalState":{"key":"07","name":"Rheinland-Pfalz"}},{"name":"Im Weidengrund","postalCode":"49751","locality":"Werpeloh","municipality":{"key":"03454058","name":"Werpeloh","type":"Kreisangehörige_Gemeinde"},"district":{"key":"03454","name":"Emsland","type":"Landkreis"},"federalState":{"key":"03","name":"Niedersachsen"}},{"name":"In der Lache","postalCode":"53579","locality":"Erpel","municipality":{"key":"07138019","name":"Erpel","type":"Kreisangehörige_Gemeinde"},"district":{"key":"07138","name":"Neuwied","type":"Landkreis"},"federalState":{"key":"07","name":"Rheinland-Pfalz"}},{"name":"Jahnstr.","postalCode":"53579","locality":"Erpel","municipality":{"key":"07138019","name":"Erpel","type":"Kreisangehörige_Gemeinde"},"district":{"key":"07138","name":"Neuwied","type":"Landkreis"},"federalState":{"key":"07","name":"Rheinland-Pfalz"}},{"name":"Johannesstr.","postalCode":"53579","locality":"Erpel","municipality":{"key":"07138019","name":"Erpel","type":"Kreisangehörige_Gemeinde"},"district":{"key":"07138","name":"Neuwied","type":"Landkreis"},"federalState":{"key":"07","name":"Rheinland-Pfalz"}},{"name":"Josefstr.","postalCode":"53579","locality":"Erpel","municipality":{"key":"07138019","name":"Erpel","type":"Kreisangehörige_Gemeinde"},"district":{"key":"07138","name":"Neuwied","type":"Landkreis"},"federalState":{"key":"07","name":"Rheinland-Pfalz"}},{"name":"Kapellenstr.","postalCode":"53579","locality":"Erpel","municipality":{"key":"07138019","name":"Erpel","type":"Kreisangehörige_Gemeinde"},"district":{"key":"07138","name":"Neuwied","type":"Landkreis"},"federalState":{"key":"07","name":"Rheinland-Pfalz"}},{"name":"Kirchgasse","postalCode":"53579","locality":"Erpel","municipality":{"key":"07138019","name":"Erpel","type":"Kreisangehörige_Gemeinde"},"district":{"key":"07138","name":"Neuwied","type":"Landkreis"},"federalState":{"key":"07","name":"Rheinland-Pfalz"}},{"name":"Klinkenstr.","postalCode":"49751","locality":"Werpeloh","municipality":{"key":"03454058","name":"Werpeloh","type":"Kreisangehörige_Gemeinde"},"district":{"key":"03454","name":"Emsland","type":"Landkreis"},"federalState":{"key":"03","name":"Niedersachsen"}},{"name":"Kölner Str.","postalCode":"53579","locality":"Erpel","municipality":{"key":"07138019","name":"Erpel","type":"Kreisangehörige_Gemeinde"},"district":{"key":"07138","name":"Neuwied","type":"Landkreis"},"federalState":{"key":"07","name":"Rheinland-Pfalz"}},{"name":"Kreuzkamp","postalCode":"49751","locality":"Werpeloh","municipality":{"key":"03454058","name":"Werpeloh","type":"Kreisangehörige_Gemeinde"},"district":{"key":"03454","name":"Emsland","type":"Landkreis"},"federalState":{"key":"03","name":"Niedersachsen"}},{"name":"Lerchenweg","postalCode":"53579","locality":"Erpel","municipality":{"key":"07138019","name":"Erpel","type":"Kreisangehörige_Gemeinde"},"district":{"key":"07138","name":"Neuwied","type":"Landkreis"},"federalState":{"key":"07","name":"Rheinland-Pfalz"}},{"name":"Leyweg","postalCode":"53579","locality":"Erpel","municipality":{"key":"07138019","name":"Erpel","type":"Kreisangehörige_Gemeinde"},"district":{"key":"07138","name":"Neuwied","type":"Landkreis"},"federalState":{"key":"07","name":"Rheinland-Pfalz"}},{"name":"Marienstr.","postalCode":"53579","locality":"Erpel","municipality":{"key":"07138019","name":"Erpel","type":"Kreisangehörige_Gemeinde"},"district":{"key":"07138","name":"Neuwied","type":"Landkreis"},"federalState":{"key":"07","name":"Rheinland-Pfalz"}},{"name":"Marktgasse","postalCode":"53579","locality":"Erpel","municipality":{"key":"07138019","name":"Erpel","type":"Kreisangehörige_Gemeinde"},"district":{"key":"07138","name":"Neuwied","type":"Landkreis"},"federalState":{"key":"07","name":"Rheinland-Pfalz"}},{"name":"Marktplatz","postalCode":"53579","locality":"Erpel","municipality":{"key":"07138019","name":"Erpel","type":"Kreisangehörige_Gemeinde"},"district":{"key":"07138","name":"Neuwied","type":"Landkreis"},"federalState":{"key":"07","name":"Rheinland-Pfalz"}},{"name":"Mühlenweg","postalCode":"49751","locality":"Werpeloh","municipality":{"key":"03454058","name":"Werpeloh","type":"Kreisangehörige_Gemeinde"},"district":{"key":"03454","name":"Emsland","type":"Landkreis"},"federalState":{"key":"03","name":"Niedersachsen"}},{"name":"Neuer Grund","postalCode":"49751","locality":"Werpeloh","municipality":{"key":"03454058","name":"Werpeloh","type":"Kreisangehörige_Gemeinde"},"district":{"key":"03454","name":"Emsland","type":"Landkreis"},"federalState":{"key":"03","name":"Niedersachsen"}},{"name":"Neustr.","postalCode":"53579","locality":"Erpel","municipality":{"key":"07138019","name":"Erpel","type":"Kreisangehörige_Gemeinde"},"district":{"key":"07138","name":"Neuwied","type":"Landkreis"},"federalState":{"key":"07","name":"Rheinland-Pfalz"}},{"name":"Orsberger Str.","postalCode":"53579","locality":"Erpel","municipality":{"key":"07138019","name":"Erpel","type":"Kreisangehörige_Gemeinde"},"district":{"key":"07138","name":"Neuwied","type":"Landkreis"},"federalState":{"key":"07","name":"Rheinland-Pfalz"}},{"name":"Pützgasse","postalCode":"53579","locality":"Erpel","municipality":{"key":"07138019","name":"Erpel","type":"Kreisangehörige_Gemeinde"},"district":{"key":"07138","name":"Neuwied","type":"Landkreis"},"federalState":{"key":"07","name":"Rheinland-Pfalz"}},{"name":"Rheinallee","postalCode":"53579","locality":"Erpel","municipality":{"key":"07138019","name":"Erpel","type":"Kreisangehörige_Gemeinde"},"district":{"key":"07138","name":"Neuwied","type":"Landkreis"},"federalState":{"key":"07","name":"Rheinland-Pfalz"}},{"name":"Rheinblickstr.","postalCode":"53579","locality":"Erpel","municipality":{"key":"07138019","name":"Erpel","type":"Kreisangehörige_Gemeinde"},"district":{"key":"07138","name":"Neuwied","type":"Landkreis"},"federalState":{"key":"07","name":"Rheinland-Pfalz"}},{"name":"Rheinstr.","postalCode":"53579","locality":"Erpel","municipality":{"key":"07138019","name":"Erpel","type":"Kreisangehörige_Gemeinde"},"district":{"key":"07138","name":"Neuwied","type":"Landkreis"},"federalState":{"key":"07","name":"Rheinland-Pfalz"}},{"name":"Rieslingstr.","postalCode":"53579","locality":"Erpel","municipality":{"key":"07138019","name":"Erpel","type":"Kreisangehörige_Gemeinde"},"district":{"key":"07138","name":"Neuwied","type":"Landkreis"},"federalState":{"key":"07","name":"Rheinland-Pfalz"}},{"name":"Ritterstr.","postalCode":"53579","locality":"Erpel","municipality":{"key":"07138019","name":"Erpel","type":"Kreisangehörige_Gemeinde"},"district":{"key":"07138","name":"Neuwied","type":"Landkreis"},"federalState":{"key":"07","name":"Rheinland-Pfalz"}},{"name":"Schnüggenweg","postalCode":"49751","locality":"Werpeloh","municipality":{"key":"03454058","name":"Werpeloh","type":"Kreisangehörige_Gemeinde"},"district":{"key":"03454","name":"Emsland","type":"Landkreis"},"federalState":{"key":"03","name":"Niedersachsen"}},{"name":"Seiferhofweg","postalCode":"53579","locality":"Erpel","municipality":{"key":"07138019","name":"Erpel","type":"Kreisangehörige_Gemeinde"},"district":{"key":"07138","name":"Neuwied","type":"Landkreis"},"federalState":{"key":"07","name":"Rheinland-Pfalz"}},{"name":"Seilerpfad","postalCode":"53579","locality":"Erpel","municipality":{"key":"07138019","name":"Erpel","type":"Kreisangehörige_Gemeinde"},"district":{"key":"07138","name":"Neuwied","type":"Landkreis"},"federalState":{"key":"07","name":"Rheinland-Pfalz"}},{"name":"Severinstr.","postalCode":"53579","locality":"Erpel","municipality":{"key":"07138019","name":"Erpel","type":"Kreisangehörige_Gemeinde"},"district":{"key":"07138","name":"Neuwied","type":"Landkreis"},"federalState":{"key":"07","name":"Rheinland-Pfalz"}},{"name":"Sigiltrastr.","postalCode":"49751","locality":"Werpeloh","municipality":{"key":"03454058","name":"Werpeloh","type":"Kreisangehörige_Gemeinde"},"district":{"key":"03454","name":"Emsland","type":"Landkreis"},"federalState":{"key":"03","name":"Niedersachsen"}},{"name":"Silvanerstr.","postalCode":"53579","locality":"Erpel","municipality":{"key":"07138019","name":"Erpel","type":"Kreisangehörige_Gemeinde"},"district":{"key":"07138","name":"Neuwied","type":"Landkreis"},"federalState":{"key":"07","name":"Rheinland-Pfalz"}},{"name":"Sonnenstr.","postalCode":"53579","locality":"Erpel","municipality":{"key":"07138019","name":"Erpel","type":"Kreisangehörige_Gemeinde"},"district":{"key":"07138","name":"Neuwied","type":"Landkreis"},"federalState":{"key":"07","name":"Rheinland-Pfalz"}},{"name":"Steinstr.","postalCode":"53579","locality":"Erpel","municipality":{"key":"07138019","name":"Erpel","type":"Kreisangehörige_Gemeinde"},"district":{"key":"07138","name":"Neuwied","type":"Landkreis"},"federalState":{"key":"07","name":"Rheinland-Pfalz"}},{"name":"Stümpel","postalCode":"49751","locality":"Werpeloh","municipality":{"key":"03454058","name":"Werpeloh","type":"Kreisangehörige_Gemeinde"},"district":{"key":"03454","name":"Emsland","type":"Landkreis"},"federalState":{"key":"03","name":"Niedersachsen"}},{"name":"Stuxhöhe","postalCode":"53579","locality":"Erpel","municipality":{"key":"07138019","name":"Erpel","type":"Kreisangehörige_Gemeinde"},"district":{"key":"07138","name":"Neuwied","type":"Landkreis"},"federalState":{"key":"07","name":"Rheinland-Pfalz"}},{"name":"Sünnekampstr.","postalCode":"49751","locality":"Werpeloh","municipality":{"key":"03454058","name":"Werpeloh","type":"Kreisangehörige_Gemeinde"},"district":{"key":"03454","name":"Emsland","type":"Landkreis"},"federalState":{"key":"03","name":"Niedersachsen"}},{"name":"Talstr.","postalCode":"53579","locality":"Erpel","municipality":{"key":"07138019","name":"Erpel","type":"Kreisangehörige_Gemeinde"},"district":{"key":"07138","name":"Neuwied","type":"Landkreis"},"federalState":{"key":"07","name":"Rheinland-Pfalz"}},{"name":"Trimbornstr.","postalCode":"53579","locality":"Erpel","municipality":{"key":"07138019","name":"Erpel","type":"Kreisangehörige_Gemeinde"},"district":{"key":"07138","name":"Neuwied","type":"Landkreis"},"federalState":{"key":"07","name":"Rheinland-Pfalz"}},{"name":"Unkeler Str.","postalCode":"53579","locality":"Erpel","municipality":{"key":"07138019","name":"Erpel","type":"Kreisangehörige_Gemeinde"},"district":{"key":"07138","name":"Neuwied","type":"Landkreis"},"federalState":{"key":"07","name":"Rheinland-Pfalz"}},{"name":"Unterste Gasse","postalCode":"53579","locality":"Erpel","municipality":{"key":"07138019","name":"Erpel","type":"Kreisangehörige_Gemeinde"},"district":{"key":"07138","name":"Neuwied","type":"Landkreis"},"federalState":{"key":"07","name":"Rheinland-Pfalz"}},{"name":"Veilchenstr.","postalCode":"56566","locality":"Neuwied","municipality":{"key":"07138045","name":"Neuwied, Stadt","type":"Stadt"},"district":{"key":"07138","name":"Neuwied","type":"Landkreis"},"federalState":{"key":"07","name":"Rheinland-Pfalz"}},{"name":"Venusstr.","postalCode":"56566","locality":"Neuwied","municipality":{"key":"07138045","name":"Neuwied, Stadt","type":"Stadt"},"district":{"key":"07138","name":"Neuwied","type":"Landkreis"},"federalState":{"key":"07","name":"Rheinland-Pfalz"}},{"name":"Vikunjas","postalCode":"56566","locality":"Neuwied","municipality":{"key":"07138045","name":"Neuwied, Stadt","type":"Stadt"},"district":{"key":"07138","name":"Neuwied","type":"Landkreis"},"federalState":{"key":"07","name":"Rheinland-Pfalz"}},{"name":"Virchowweg","postalCode":"56566","locality":"Neuwied","municipality":{"key":"07138045","name":"Neuwied, Stadt","type":"Stadt"},"district":{"key":"07138","name":"Neuwied","type":"Landkreis"},"federalState":{"key":"07","name":"Rheinland-Pfalz"}},{"name":"Vogteistr.","postalCode":"56567","locality":"Neuwied","municipality":{"key":"07138045","name":"Neuwied, Stadt","type":"Stadt"},"district":{"key":"07138","name":"Neuwied","type":"Landkreis"},"federalState":{"key":"07","name":"Rheinland-Pfalz"}},{"name":"Volberskroog","postalCode":"56566","locality":"Neuwied","municipality":{"key":"07138045","name":"Neuwied, Stadt","type":"Stadt"},"district":{"key":"07138","name":"Neuwied","type":"Landkreis"},"federalState":{"key":"07","name":"Rheinland-Pfalz"}},{"name":"Von-der-Leyen-Str.","postalCode":"56567","locality":"Neuwied","municipality":{"key":"07138045","name":"Neuwied, Stadt","type":"Stadt"},"district":{"key":"07138","name":"Neuwied","type":"Landkreis"},"federalState":{"key":"07","name":"Rheinland-Pfalz"}},{"name":"Von-Ebner-Eschenbach-Str.","postalCode":"56567","locality":"Neuwied","municipality":{"key":"07138045","name":"Neuwied, Stadt","type":"Stadt"},"district":{"key":"07138","name":"Neuwied","type":"Landkreis"},"federalState":{"key":"07","name":"Rheinland-Pfalz"}},{"name":"Von-Eichendorff-Str.","postalCode":"56567","locality":"Neuwied","municipality":{"key":"07138045","name":"Neuwied, Stadt","type":"Stadt"},"district":{"key":"07138","name":"Neuwied","type":"Landkreis"},"federalState":{"key":"07","name":"Rheinland-Pfalz"}},{"name":"Von-Runkel-Platz","postalCode":"56564","locality":"Neuwied","municipality":{"key":"07138045","name":"Neuwied, Stadt","type":"Stadt"},"district":{"key":"07138","name":"Neuwied","type":"Landkreis"},"federalState":{"key":"07","name":"Rheinland-Pfalz"}},{"name":"Von-Stauffenberg-Str.","postalCode":"56567","locality":"Neuwied","municipality":{"key":"07138045","name":"Neuwied, Stadt","type":"Stadt"},"district":{"key":"07138","name":"Neuwied","type":"Landkreis"},"federalState":{"key":"07","name":"Rheinland-Pfalz"}},{"name":"Vor dem Damm","postalCode":"56564","locality":"Neuwied","municipality":{"key":"07138045","name":"Neuwied, Stadt","type":"Stadt"},"district":{"key":"07138","name":"Neuwied","type":"Landkreis"},"federalState":{"key":"07","name":"Rheinland-Pfalz"}},{"name":"Wahner Weg","postalCode":"49751","locality":"Werpeloh","municipality":{"key":"03454058","name":"Werpeloh","type":"Kreisangehörige_Gemeinde"},"district":{"key":"03454","name":"Emsland","type":"Landkreis"},"federalState":{"key":"03","name":"Niedersachsen"}},{"name":"Waldstr.","postalCode":"53579","locality":"Erpel","municipality":{"key":"07138019","name":"Erpel","type":"Kreisangehörige_Gemeinde"},"district":{"key":"07138","name":"Neuwied","type":"Landkreis"},"federalState":{"key":"07","name":"Rheinland-Pfalz"}},{"name":"Weinbergstr.","postalCode":"53579","locality":"Erpel","municipality":{"key":"07138019","name":"Erpel","type":"Kreisangehörige_Gemeinde"},"district":{"key":"07138","name":"Neuwied","type":"Landkreis"},"federalState":{"key":"07","name":"Rheinland-Pfalz"}},{"name":"Winzerstr.","postalCode":"53579","locality":"Erpel","municipality":{"key":"07138019","name":"Erpel","type":"Kreisangehörige_Gemeinde"},"district":{"key":"07138","name":"Neuwied","type":"Landkreis"},"federalState":{"key":"07","name":"Rheinland-Pfalz"}},{"name":"Wippinger Str.","postalCode":"49751","locality":"Werpeloh","municipality":{"key":"03454058","name":"Werpeloh","type":"Kreisangehörige_Gemeinde"},"district":{"key":"03454","name":"Emsland","type":"Landkreis"},"federalState":{"key":"03","name":"Niedersachsen"}},{"name":"Zum Jägerhof","postalCode":"49751","locality":"Werpeloh","municipality":{"key":"03454058","name":"Werpeloh","type":"Kreisangehörige_Gemeinde"},"district":{"key":"03454","name":"Emsland","type":"Landkreis"},"federalState":{"key":"03","name":"Niedersachsen"}},{"name":"Zum Klöwer","postalCode":"49751","locality":"Werpeloh","municipality":{"key":"03454058","name":"Werpeloh","type":"Kreisangehörige_Gemeinde"},"district":{"key":"03454","name":"Emsland","type":"Landkreis"},"federalState":{"key":"03","name":"Niedersachsen"}},{"name":"Zum Steinkamp","postalCode":"49751","locality":"Werpeloh","municipality":{"key":"03454058","name":"Werpeloh","type":"Kreisangehörige_Gemeinde"},"district":{"key":"03454","name":"Emsland","type":"Landkreis"},"federalState":{"key":"03","name":"Niedersachsen"}},{"name":"Zum Windberg","postalCode":"49751","locality":"Werpeloh","municipality":{"key":"03454058","name":"Werpeloh","type":"Kreisangehörige_Gemeinde"},"district":{"key":"03454","name":"Emsland","type":"Landkreis"},"federalState":{"key":"03","name":"Niedersachsen"}},{"name":"Über dem Aubach","postalCode":"56566","locality":"Neuwied","municipality":{"key":"07138045","name":"Neuwied, Stadt","type":"Stadt"},"district":{"key":"07138","name":"Neuwied","type":"Landkreis"},"federalState":{"key":"07","name":"Rheinland-Pfalz"}},]