[{"name":"Ahornweg","postalCode":"76474","locality":"Au am Rhein","municipality":{"key":"08216002","name":"Au am Rhein","type":"Kreisangehörige_Gemeinde"},"district":{"key":"08216","name":"Rastatt","type":"Landkreis"},"federalState":{"key":"08","name":"Baden-Württemberg"}},{"name":"Allmendstr.","postalCode":"76474","locality":"Au am Rhein","municipality":{"key":"08216002","name":"Au am Rhein","type":"Kreisangehörige_Gemeinde"},"district":{"key":"08216","name":"Rastatt","type":"Landkreis"},"federalState":{"key":"08","name":"Baden-Württemberg"}},{"name":"Am Altrheinhafen","postalCode":"76474","locality":"Au am Rhein","municipality":{"key":"08216002","name":"Au am Rhein","type":"Kreisangehörige_Gemeinde"},"district":{"key":"08216","name":"Rastatt","type":"Landkreis"},"federalState":{"key":"08","name":"Baden-Württemberg"}},{"name":"Am Karlsgraben","postalCode":"76474","locality":"Au am Rhein","municipality":{"key":"08216002","name":"Au am Rhein","type":"Kreisangehörige_Gemeinde"},"district":{"key":"08216","name":"Rastatt","type":"Landkreis"},"federalState":{"key":"08","name":"Baden-Württemberg"}},{"name":"Am Kohlplatz","postalCode":"76474","locality":"Au am Rhein","municipality":{"key":"08216002","name":"Au am Rhein","type":"Kreisangehörige_Gemeinde"},"district":{"key":"08216","name":"Rastatt","type":"Landkreis"},"federalState":{"key":"08","name":"Baden-Württemberg"}},{"name":"Am Waseme","postalCode":"76474","locality":"Au am Rhein","municipality":{"key":"08216002","name":"Au am Rhein","type":"Kreisangehörige_Gemeinde"},"district":{"key":"08216","name":"Rastatt","type":"Landkreis"},"federalState":{"key":"08","name":"Baden-Württemberg"}},{"name":"Anne-Frank-Str.","postalCode":"76474","locality":"Au am Rhein","municipality":{"key":"08216002","name":"Au am Rhein","type":"Kreisangehörige_Gemeinde"},"district":{"key":"08216","name":"Rastatt","type":"Landkreis"},"federalState":{"key":"08","name":"Baden-Württemberg"}},{"name":"Augartenstr.","postalCode":"76474","locality":"Au am Rhein","municipality":{"key":"08216002","name":"Au am Rhein","type":"Kreisangehörige_Gemeinde"},"district":{"key":"08216","name":"Rastatt","type":"Landkreis"},"federalState":{"key":"08","name":"Baden-Württemberg"}},{"name":"Bachstr.","postalCode":"76474","locality":"Au am Rhein","municipality":{"key":"08216002","name":"Au am Rhein","type":"Kreisangehörige_Gemeinde"},"district":{"key":"08216","name":"Rastatt","type":"Landkreis"},"federalState":{"key":"08","name":"Baden-Württemberg"}},{"name":"Billfeldweg","postalCode":"76474","locality":"Au am Rhein","municipality":{"key":"08216002","name":"Au am Rhein","type":"Kreisangehörige_Gemeinde"},"district":{"key":"08216","name":"Rastatt","type":"Landkreis"},"federalState":{"key":"08","name":"Baden-Württemberg"}},{"name":"Birkenweg","postalCode":"76474","locality":"Au am Rhein","municipality":{"key":"08216002","name":"Au am Rhein","type":"Kreisangehörige_Gemeinde"},"district":{"key":"08216","name":"Rastatt","type":"Landkreis"},"federalState":{"key":"08","name":"Baden-Württemberg"}},{"name":"Blumenstr.","postalCode":"76474","locality":"Au am Rhein","municipality":{"key":"08216002","name":"Au am Rhein","type":"Kreisangehörige_Gemeinde"},"district":{"key":"08216","name":"Rastatt","type":"Landkreis"},"federalState":{"key":"08","name":"Baden-Württemberg"}},{"name":"Boschstr.","postalCode":"76474","locality":"Au am Rhein","municipality":{"key":"08216002","name":"Au am Rhein","type":"Kreisangehörige_Gemeinde"},"district":{"key":"08216","name":"Rastatt","type":"Landkreis"},"federalState":{"key":"08","name":"Baden-Württemberg"}},{"name":"Carl-Benz-Str.","postalCode":"76437","locality":"Rastatt","municipality":{"key":"08216043","name":"Rastatt, Stadt","type":"Große_Kreisstadt"},"district":{"key":"08216","name":"Rastatt","type":"Landkreis"},"federalState":{"key":"08","name":"Baden-Württemberg"}},{"name":"Carl-Friedrich-Goerdeler-Str.","postalCode":"76437","locality":"Rastatt","municipality":{"key":"08216043","name":"Rastatt, Stadt","type":"Große_Kreisstadt"},"district":{"key":"08216","name":"Rastatt","type":"Landkreis"},"federalState":{"key":"08","name":"Baden-Württemberg"}},{"name":"Carl-Friedrich-Str.","postalCode":"76437","locality":"Rastatt","municipality":{"key":"08216043","name":"Rastatt, Stadt","type":"Große_Kreisstadt"},"district":{"key":"08216","name":"Rastatt","type":"Landkreis"},"federalState":{"key":"08","name":"Baden-Württemberg"}},{"name":"Carl-Maria-von-Weber-Str.","postalCode":"76437","locality":"Rastatt","municipality":{"key":"08216043","name":"Rastatt, Stadt","type":"Große_Kreisstadt"},"district":{"key":"08216","name":"Rastatt","type":"Landkreis"},"federalState":{"key":"08","name":"Baden-Württemberg"}},{"name":"Carl-Schurz-Str.","postalCode":"76437","locality":"Rastatt","municipality":{"key":"08216043","name":"Rastatt, Stadt","type":"Große_Kreisstadt"},"district":{"key":"08216","name":"Rastatt","type":"Landkreis"},"federalState":{"key":"08","name":"Baden-Württemberg"}},{"name":"Dieselstr.","postalCode":"76474","locality":"Au am Rhein","municipality":{"key":"08216002","name":"Au am Rhein","type":"Kreisangehörige_Gemeinde"},"district":{"key":"08216","name":"Rastatt","type":"Landkreis"},"federalState":{"key":"08","name":"Baden-Württemberg"}},{"name":"Eichenweg","postalCode":"76474","locality":"Au am Rhein","municipality":{"key":"08216002","name":"Au am Rhein","type":"Kreisangehörige_Gemeinde"},"district":{"key":"08216","name":"Rastatt","type":"Landkreis"},"federalState":{"key":"08","name":"Baden-Württemberg"}},{"name":"Elchesheimer Str.","postalCode":"76474","locality":"Au am Rhein","municipality":{"key":"08216002","name":"Au am Rhein","type":"Kreisangehörige_Gemeinde"},"district":{"key":"08216","name":"Rastatt","type":"Landkreis"},"federalState":{"key":"08","name":"Baden-Württemberg"}},{"name":"Erlenweg","postalCode":"76474","locality":"Au am Rhein","municipality":{"key":"08216002","name":"Au am Rhein","type":"Kreisangehörige_Gemeinde"},"district":{"key":"08216","name":"Rastatt","type":"Landkreis"},"federalState":{"key":"08","name":"Baden-Württemberg"}},{"name":"Feldstr.","postalCode":"76474","locality":"Au am Rhein","municipality":{"key":"08216002","name":"Au am Rhein","type":"Kreisangehörige_Gemeinde"},"district":{"key":"08216","name":"Rastatt","type":"Landkreis"},"federalState":{"key":"08","name":"Baden-Württemberg"}},{"name":"Fliederstr.","postalCode":"76474","locality":"Au am Rhein","municipality":{"key":"08216002","name":"Au am Rhein","type":"Kreisangehörige_Gemeinde"},"district":{"key":"08216","name":"Rastatt","type":"Landkreis"},"federalState":{"key":"08","name":"Baden-Württemberg"}},{"name":"Fronäcker","postalCode":"76474","locality":"Au am Rhein","municipality":{"key":"08216002","name":"Au am Rhein","type":"Kreisangehörige_Gemeinde"},"district":{"key":"08216","name":"Rastatt","type":"Landkreis"},"federalState":{"key":"08","name":"Baden-Württemberg"}},{"name":"Frühlingsstr.","postalCode":"76474","locality":"Au am Rhein","municipality":{"key":"08216002","name":"Au am Rhein","type":"Kreisangehörige_Gemeinde"},"district":{"key":"08216","name":"Rastatt","type":"Landkreis"},"federalState":{"key":"08","name":"Baden-Württemberg"}},{"name":"Gartenstr.","postalCode":"76474","locality":"Au am Rhein","municipality":{"key":"08216002","name":"Au am Rhein","type":"Kreisangehörige_Gemeinde"},"district":{"key":"08216","name":"Rastatt","type":"Landkreis"},"federalState":{"key":"08","name":"Baden-Württemberg"}},{"name":"Geranienstr.","postalCode":"76474","locality":"Au am Rhein","municipality":{"key":"08216002","name":"Au am Rhein","type":"Kreisangehörige_Gemeinde"},"district":{"key":"08216","name":"Rastatt","type":"Landkreis"},"federalState":{"key":"08","name":"Baden-Württemberg"}},{"name":"Goethestr.","postalCode":"76474","locality":"Au am Rhein","municipality":{"key":"08216002","name":"Au am Rhein","type":"Kreisangehörige_Gemeinde"},"district":{"key":"08216","name":"Rastatt","type":"Landkreis"},"federalState":{"key":"08","name":"Baden-Württemberg"}},{"name":"Grabäckerstr.","postalCode":"76474","locality":"Au am Rhein","municipality":{"key":"08216002","name":"Au am Rhein","type":"Kreisangehörige_Gemeinde"},"district":{"key":"08216","name":"Rastatt","type":"Landkreis"},"federalState":{"key":"08","name":"Baden-Württemberg"}},{"name":"Grenzstr.","postalCode":"76474","locality":"Au am Rhein","municipality":{"key":"08216002","name":"Au am Rhein","type":"Kreisangehörige_Gemeinde"},"district":{"key":"08216","name":"Rastatt","type":"Landkreis"},"federalState":{"key":"08","name":"Baden-Württemberg"}},{"name":"Hans-Thoma-Str.","postalCode":"76474","locality":"Au am Rhein","municipality":{"key":"08216002","name":"Au am Rhein","type":"Kreisangehörige_Gemeinde"},"district":{"key":"08216","name":"Rastatt","type":"Landkreis"},"federalState":{"key":"08","name":"Baden-Württemberg"}},{"name":"Hauptstr.","postalCode":"76474","locality":"Au am Rhein","municipality":{"key":"08216002","name":"Au am Rhein","type":"Kreisangehörige_Gemeinde"},"district":{"key":"08216","name":"Rastatt","type":"Landkreis"},"federalState":{"key":"08","name":"Baden-Württemberg"}},{"name":"Hebelstr.","postalCode":"76474","locality":"Au am Rhein","municipality":{"key":"08216002","name":"Au am Rhein","type":"Kreisangehörige_Gemeinde"},"district":{"key":"08216","name":"Rastatt","type":"Landkreis"},"federalState":{"key":"08","name":"Baden-Württemberg"}},{"name":"Humboldtstr.","postalCode":"76474","locality":"Au am Rhein","municipality":{"key":"08216002","name":"Au am Rhein","type":"Kreisangehörige_Gemeinde"},"district":{"key":"08216","name":"Rastatt","type":"Landkreis"},"federalState":{"key":"08","name":"Baden-Württemberg"}},{"name":"Im Hahneck","postalCode":"76474","locality":"Au am Rhein","municipality":{"key":"08216002","name":"Au am Rhein","type":"Kreisangehörige_Gemeinde"},"district":{"key":"08216","name":"Rastatt","type":"Landkreis"},"federalState":{"key":"08","name":"Baden-Württemberg"}},{"name":"Jahnstr.","postalCode":"76474","locality":"Au am Rhein","municipality":{"key":"08216002","name":"Au am Rhein","type":"Kreisangehörige_Gemeinde"},"district":{"key":"08216","name":"Rastatt","type":"Landkreis"},"federalState":{"key":"08","name":"Baden-Württemberg"}},{"name":"Kanalstr.","postalCode":"76474","locality":"Au am Rhein","municipality":{"key":"08216002","name":"Au am Rhein","type":"Kreisangehörige_Gemeinde"},"district":{"key":"08216","name":"Rastatt","type":"Landkreis"},"federalState":{"key":"08","name":"Baden-Württemberg"}},{"name":"Kapellenstr.","postalCode":"76474","locality":"Au am Rhein","municipality":{"key":"08216002","name":"Au am Rhein","type":"Kreisangehörige_Gemeinde"},"district":{"key":"08216","name":"Rastatt","type":"Landkreis"},"federalState":{"key":"08","name":"Baden-Württemberg"}},{"name":"Kastanienweg","postalCode":"76474","locality":"Au am Rhein","municipality":{"key":"08216002","name":"Au am Rhein","type":"Kreisangehörige_Gemeinde"},"district":{"key":"08216","name":"Rastatt","type":"Landkreis"},"federalState":{"key":"08","name":"Baden-Württemberg"}},{"name":"Kirchstr.","postalCode":"76474","locality":"Au am Rhein","municipality":{"key":"08216002","name":"Au am Rhein","type":"Kreisangehörige_Gemeinde"},"district":{"key":"08216","name":"Rastatt","type":"Landkreis"},"federalState":{"key":"08","name":"Baden-Württemberg"}},{"name":"Kreuzstr.","postalCode":"76474","locality":"Au am Rhein","municipality":{"key":"08216002","name":"Au am Rhein","type":"Kreisangehörige_Gemeinde"},"district":{"key":"08216","name":"Rastatt","type":"Landkreis"},"federalState":{"key":"08","name":"Baden-Württemberg"}},{"name":"Lammstr.","postalCode":"76474","locality":"Au am Rhein","municipality":{"key":"08216002","name":"Au am Rhein","type":"Kreisangehörige_Gemeinde"},"district":{"key":"08216","name":"Rastatt","type":"Landkreis"},"federalState":{"key":"08","name":"Baden-Württemberg"}},{"name":"Lindenweg","postalCode":"76474","locality":"Au am Rhein","municipality":{"key":"08216002","name":"Au am Rhein","type":"Kreisangehörige_Gemeinde"},"district":{"key":"08216","name":"Rastatt","type":"Landkreis"},"federalState":{"key":"08","name":"Baden-Württemberg"}},{"name":"Mittelstr.","postalCode":"76474","locality":"Au am Rhein","municipality":{"key":"08216002","name":"Au am Rhein","type":"Kreisangehörige_Gemeinde"},"district":{"key":"08216","name":"Rastatt","type":"Landkreis"},"federalState":{"key":"08","name":"Baden-Württemberg"}},{"name":"Morgenstr.","postalCode":"76474","locality":"Au am Rhein","municipality":{"key":"08216002","name":"Au am Rhein","type":"Kreisangehörige_Gemeinde"},"district":{"key":"08216","name":"Rastatt","type":"Landkreis"},"federalState":{"key":"08","name":"Baden-Württemberg"}},{"name":"Mühlwörtstr.","postalCode":"76474","locality":"Au am Rhein","municipality":{"key":"08216002","name":"Au am Rhein","type":"Kreisangehörige_Gemeinde"},"district":{"key":"08216","name":"Rastatt","type":"Landkreis"},"federalState":{"key":"08","name":"Baden-Württemberg"}},{"name":"Nelkenstr.","postalCode":"76474","locality":"Au am Rhein","municipality":{"key":"08216002","name":"Au am Rhein","type":"Kreisangehörige_Gemeinde"},"district":{"key":"08216","name":"Rastatt","type":"Landkreis"},"federalState":{"key":"08","name":"Baden-Württemberg"}},{"name":"Neuburgweierer Str.","postalCode":"76474","locality":"Au am Rhein","municipality":{"key":"08216002","name":"Au am Rhein","type":"Kreisangehörige_Gemeinde"},"district":{"key":"08216","name":"Rastatt","type":"Landkreis"},"federalState":{"key":"08","name":"Baden-Württemberg"}},{"name":"Oberwaldstr.","postalCode":"76474","locality":"Au am Rhein","municipality":{"key":"08216002","name":"Au am Rhein","type":"Kreisangehörige_Gemeinde"},"district":{"key":"08216","name":"Rastatt","type":"Landkreis"},"federalState":{"key":"08","name":"Baden-Württemberg"}},{"name":"Odlerweg","postalCode":"76474","locality":"Au am Rhein","municipality":{"key":"08216002","name":"Au am Rhein","type":"Kreisangehörige_Gemeinde"},"district":{"key":"08216","name":"Rastatt","type":"Landkreis"},"federalState":{"key":"08","name":"Baden-Württemberg"}},{"name":"Opelstr.","postalCode":"76474","locality":"Au am Rhein","municipality":{"key":"08216002","name":"Au am Rhein","type":"Kreisangehörige_Gemeinde"},"district":{"key":"08216","name":"Rastatt","type":"Landkreis"},"federalState":{"key":"08","name":"Baden-Württemberg"}},{"name":"Pappelweg","postalCode":"76474","locality":"Au am Rhein","municipality":{"key":"08216002","name":"Au am Rhein","type":"Kreisangehörige_Gemeinde"},"district":{"key":"08216","name":"Rastatt","type":"Landkreis"},"federalState":{"key":"08","name":"Baden-Württemberg"}},{"name":"Pestalozzistr.","postalCode":"76474","locality":"Au am Rhein","municipality":{"key":"08216002","name":"Au am Rhein","type":"Kreisangehörige_Gemeinde"},"district":{"key":"08216","name":"Rastatt","type":"Landkreis"},"federalState":{"key":"08","name":"Baden-Württemberg"}},{"name":"Raiffeisenstr.","postalCode":"76474","locality":"Au am Rhein","municipality":{"key":"08216002","name":"Au am Rhein","type":"Kreisangehörige_Gemeinde"},"district":{"key":"08216","name":"Rastatt","type":"Landkreis"},"federalState":{"key":"08","name":"Baden-Württemberg"}},{"name":"Rappenstr.","postalCode":"76474","locality":"Au am Rhein","municipality":{"key":"08216002","name":"Au am Rhein","type":"Kreisangehörige_Gemeinde"},"district":{"key":"08216","name":"Rastatt","type":"Landkreis"},"federalState":{"key":"08","name":"Baden-Württemberg"}},{"name":"Rheinaustr.","postalCode":"76474","locality":"Au am Rhein","municipality":{"key":"08216002","name":"Au am Rhein","type":"Kreisangehörige_Gemeinde"},"district":{"key":"08216","name":"Rastatt","type":"Landkreis"},"federalState":{"key":"08","name":"Baden-Württemberg"}},{"name":"Rheinstr.","postalCode":"76474","locality":"Au am Rhein","municipality":{"key":"08216002","name":"Au am Rhein","type":"Kreisangehörige_Gemeinde"},"district":{"key":"08216","name":"Rastatt","type":"Landkreis"},"federalState":{"key":"08","name":"Baden-Württemberg"}},{"name":"Rosenstr.","postalCode":"76474","locality":"Au am Rhein","municipality":{"key":"08216002","name":"Au am Rhein","type":"Kreisangehörige_Gemeinde"},"district":{"key":"08216","name":"Rastatt","type":"Landkreis"},"federalState":{"key":"08","name":"Baden-Württemberg"}},{"name":"Rottweg","postalCode":"76474","locality":"Au am Rhein","municipality":{"key":"08216002","name":"Au am Rhein","type":"Kreisangehörige_Gemeinde"},"district":{"key":"08216","name":"Rastatt","type":"Landkreis"},"federalState":{"key":"08","name":"Baden-Württemberg"}},{"name":"Schillerstr.","postalCode":"76474","locality":"Au am Rhein","municipality":{"key":"08216002","name":"Au am Rhein","type":"Kreisangehörige_Gemeinde"},"district":{"key":"08216","name":"Rastatt","type":"Landkreis"},"federalState":{"key":"08","name":"Baden-Württemberg"}},{"name":"Schulstr.","postalCode":"76474","locality":"Au am Rhein","municipality":{"key":"08216002","name":"Au am Rhein","type":"Kreisangehörige_Gemeinde"},"district":{"key":"08216","name":"Rastatt","type":"Landkreis"},"federalState":{"key":"08","name":"Baden-Württemberg"}},{"name":"Siemensstr.","postalCode":"76474","locality":"Au am Rhein","municipality":{"key":"08216002","name":"Au am Rhein","type":"Kreisangehörige_Gemeinde"},"district":{"key":"08216","name":"Rastatt","type":"Landkreis"},"federalState":{"key":"08","name":"Baden-Württemberg"}},{"name":"Südendstr.","postalCode":"76474","locality":"Au am Rhein","municipality":{"key":"08216002","name":"Au am Rhein","type":"Kreisangehörige_Gemeinde"},"district":{"key":"08216","name":"Rastatt","type":"Landkreis"},"federalState":{"key":"08","name":"Baden-Württemberg"}},{"name":"Tullastr.","postalCode":"76474","locality":"Au am Rhein","municipality":{"key":"08216002","name":"Au am Rhein","type":"Kreisangehörige_Gemeinde"},"district":{"key":"08216","name":"Rastatt","type":"Landkreis"},"federalState":{"key":"08","name":"Baden-Württemberg"}},{"name":"Tulpenstr.","postalCode":"76474","locality":"Au am Rhein","municipality":{"key":"08216002","name":"Au am Rhein","type":"Kreisangehörige_Gemeinde"},"district":{"key":"08216","name":"Rastatt","type":"Landkreis"},"federalState":{"key":"08","name":"Baden-Württemberg"}},{"name":"Uchtweg","postalCode":"76437","locality":"Rastatt","municipality":{"key":"08216043","name":"Rastatt, Stadt","type":"Große_Kreisstadt"},"district":{"key":"08216","name":"Rastatt","type":"Landkreis"},"federalState":{"key":"08","name":"Baden-Württemberg"}},{"name":"Uhlandstr.","postalCode":"76437","locality":"Rastatt","municipality":{"key":"08216043","name":"Rastatt, Stadt","type":"Große_Kreisstadt"},"district":{"key":"08216","name":"Rastatt","type":"Landkreis"},"federalState":{"key":"08","name":"Baden-Württemberg"}},{"name":"Ulmenstr.","postalCode":"76437","locality":"Rastatt","municipality":{"key":"08216043","name":"Rastatt, Stadt","type":"Große_Kreisstadt"},"district":{"key":"08216","name":"Rastatt","type":"Landkreis"},"federalState":{"key":"08","name":"Baden-Württemberg"}},{"name":"Unnenheimer Weg","postalCode":"76437","locality":"Rastatt","municipality":{"key":"08216043","name":"Rastatt, Stadt","type":"Große_Kreisstadt"},"district":{"key":"08216","name":"Rastatt","type":"Landkreis"},"federalState":{"key":"08","name":"Baden-Württemberg"}},{"name":"Untere Stauschleusenbrücke","postalCode":"76437","locality":"Rastatt","municipality":{"key":"08216043","name":"Rastatt, Stadt","type":"Große_Kreisstadt"},"district":{"key":"08216","name":"Rastatt","type":"Landkreis"},"federalState":{"key":"08","name":"Baden-Württemberg"}},{"name":"Untere Wiesen","postalCode":"76437","locality":"Rastatt","municipality":{"key":"08216043","name":"Rastatt, Stadt","type":"Große_Kreisstadt"},"district":{"key":"08216","name":"Rastatt","type":"Landkreis"},"federalState":{"key":"08","name":"Baden-Württemberg"}},{"name":"Ursula-Comlossi-Weg","postalCode":"76437","locality":"Rastatt","municipality":{"key":"08216043","name":"Rastatt, Stadt","type":"Große_Kreisstadt"},"district":{"key":"08216","name":"Rastatt","type":"Landkreis"},"federalState":{"key":"08","name":"Baden-Württemberg"}},{"name":"Veilchenstr.","postalCode":"76437","locality":"Rastatt","municipality":{"key":"08216043","name":"Rastatt, Stadt","type":"Große_Kreisstadt"},"district":{"key":"08216","name":"Rastatt","type":"Landkreis"},"federalState":{"key":"08","name":"Baden-Württemberg"}},{"name":"Venusstr.","postalCode":"76437","locality":"Rastatt","municipality":{"key":"08216043","name":"Rastatt, Stadt","type":"Große_Kreisstadt"},"district":{"key":"08216","name":"Rastatt","type":"Landkreis"},"federalState":{"key":"08","name":"Baden-Württemberg"}},{"name":"Verdiweg","postalCode":"76437","locality":"Rastatt","municipality":{"key":"08216043","name":"Rastatt, Stadt","type":"Große_Kreisstadt"},"district":{"key":"08216","name":"Rastatt","type":"Landkreis"},"federalState":{"key":"08","name":"Baden-Württemberg"}},{"name":"Vierordtweg","postalCode":"76437","locality":"Rastatt","municipality":{"key":"08216043","name":"Rastatt, Stadt","type":"Große_Kreisstadt"},"district":{"key":"08216","name":"Rastatt","type":"Landkreis"},"federalState":{"key":"08","name":"Baden-Württemberg"}},{"name":"Vogesenstr.","postalCode":"76437","locality":"Rastatt","municipality":{"key":"08216043","name":"Rastatt, Stadt","type":"Große_Kreisstadt"},"district":{"key":"08216","name":"Rastatt","type":"Landkreis"},"federalState":{"key":"08","name":"Baden-Württemberg"}},{"name":"Von-Gayling-Str.","postalCode":"76437","locality":"Rastatt","municipality":{"key":"08216043","name":"Rastatt, Stadt","type":"Große_Kreisstadt"},"district":{"key":"08216","name":"Rastatt","type":"Landkreis"},"federalState":{"key":"08","name":"Baden-Württemberg"}},{"name":"Waldstr.","postalCode":"76474","locality":"Au am Rhein","municipality":{"key":"08216002","name":"Au am Rhein","type":"Kreisangehörige_Gemeinde"},"district":{"key":"08216","name":"Rastatt","type":"Landkreis"},"federalState":{"key":"08","name":"Baden-Württemberg"}},{"name":"Walter-Gerstenkorn-Str.","postalCode":"76474","locality":"Au am Rhein","municipality":{"key":"08216002","name":"Au am Rhein","type":"Kreisangehörige_Gemeinde"},"district":{"key":"08216","name":"Rastatt","type":"Landkreis"},"federalState":{"key":"08","name":"Baden-Württemberg"}},{"name":"Wehrstr.","postalCode":"76474","locality":"Au am Rhein","municipality":{"key":"08216002","name":"Au am Rhein","type":"Kreisangehörige_Gemeinde"},"district":{"key":"08216","name":"Rastatt","type":"Landkreis"},"federalState":{"key":"08","name":"Baden-Württemberg"}},{"name":"Weinäckerplatz","postalCode":"76474","locality":"Au am Rhein","municipality":{"key":"08216002","name":"Au am Rhein","type":"Kreisangehörige_Gemeinde"},"district":{"key":"08216","name":"Rastatt","type":"Landkreis"},"federalState":{"key":"08","name":"Baden-Württemberg"}},{"name":"Winterstr.","postalCode":"76474","locality":"Au am Rhein","municipality":{"key":"08216002","name":"Au am Rhein","type":"Kreisangehörige_Gemeinde"},"district":{"key":"08216","name":"Rastatt","type":"Landkreis"},"federalState":{"key":"08","name":"Baden-Württemberg"}},{"name":"Würmersheimer Str.","postalCode":"76474","locality":"Au am Rhein","municipality":{"key":"08216002","name":"Au am Rhein","type":"Kreisangehörige_Gemeinde"},"district":{"key":"08216","name":"Rastatt","type":"Landkreis"},"federalState":{"key":"08","name":"Baden-Württemberg"}},{"name":"Zeppelinstr.","postalCode":"76474","locality":"Au am Rhein","municipality":{"key":"08216002","name":"Au am Rhein","type":"Kreisangehörige_Gemeinde"},"district":{"key":"08216","name":"Rastatt","type":"Landkreis"},"federalState":{"key":"08","name":"Baden-Württemberg"}},{"name":"Ötigheimer Weg","postalCode":"76437","locality":"Rastatt","municipality":{"key":"08216043","name":"Rastatt, Stadt","type":"Große_Kreisstadt"},"district":{"key":"08216","name":"Rastatt","type":"Landkreis"},"federalState":{"key":"08","name":"Baden-Württemberg"}},]