[{"name":"Albert-Schweitzer-Str.","postalCode":"02689","locality":"Sohland a. d. Spree","municipality":{"key":"14625560","name":"Sohland a. d. Spree","type":"Kreisangehörige_Gemeinde"},"district":{"key":"14625","name":"Bautzen","type":"Landkreis"},"federalState":{"key":"14","name":"Sachsen"}},{"name":"Alte Bautzener Strasse","postalCode":"02689","locality":"Sohland a. d. Spree","municipality":{"key":"14625560","name":"Sohland a. d. Spree","type":"Kreisangehörige_Gemeinde"},"district":{"key":"14625","name":"Bautzen","type":"Landkreis"},"federalState":{"key":"14","name":"Sachsen"}},{"name":"Alte Dorfstr.","postalCode":"02689","locality":"Sohland a. d. Spree","municipality":{"key":"14625560","name":"Sohland a. d. Spree","type":"Kreisangehörige_Gemeinde"},"district":{"key":"14625","name":"Bautzen","type":"Landkreis"},"federalState":{"key":"14","name":"Sachsen"}},{"name":"Alte Marktsstr.","postalCode":"02689","locality":"Sohland a. d. Spree","municipality":{"key":"14625560","name":"Sohland a. d. Spree","type":"Kreisangehörige_Gemeinde"},"district":{"key":"14625","name":"Bautzen","type":"Landkreis"},"federalState":{"key":"14","name":"Sachsen"}},{"name":"Alter Grenzweg","postalCode":"02689","locality":"Sohland a. d. Spree","municipality":{"key":"14625560","name":"Sohland a. d. Spree","type":"Kreisangehörige_Gemeinde"},"district":{"key":"14625","name":"Bautzen","type":"Landkreis"},"federalState":{"key":"14","name":"Sachsen"}},{"name":"Alter Schmiedeweg","postalCode":"02689","locality":"Sohland a. d. Spree","municipality":{"key":"14625560","name":"Sohland a. d. Spree","type":"Kreisangehörige_Gemeinde"},"district":{"key":"14625","name":"Bautzen","type":"Landkreis"},"federalState":{"key":"14","name":"Sachsen"}},{"name":"Am Anbau","postalCode":"02689","locality":"Sohland a. d. Spree","municipality":{"key":"14625560","name":"Sohland a. d. Spree","type":"Kreisangehörige_Gemeinde"},"district":{"key":"14625","name":"Bautzen","type":"Landkreis"},"federalState":{"key":"14","name":"Sachsen"}},{"name":"Am Bahnhof","postalCode":"02689","locality":"Sohland a. d. Spree","municipality":{"key":"14625560","name":"Sohland a. d. Spree","type":"Kreisangehörige_Gemeinde"},"district":{"key":"14625","name":"Bautzen","type":"Landkreis"},"federalState":{"key":"14","name":"Sachsen"}},{"name":"Am Gewerbering","postalCode":"02689","locality":"Sohland a. d. Spree","municipality":{"key":"14625560","name":"Sohland a. d. Spree","type":"Kreisangehörige_Gemeinde"},"district":{"key":"14625","name":"Bautzen","type":"Landkreis"},"federalState":{"key":"14","name":"Sachsen"}},{"name":"Am Grünen Baum","postalCode":"02689","locality":"Sohland a. d. Spree","municipality":{"key":"14625560","name":"Sohland a. d. Spree","type":"Kreisangehörige_Gemeinde"},"district":{"key":"14625","name":"Bautzen","type":"Landkreis"},"federalState":{"key":"14","name":"Sachsen"}},{"name":"Am Grünhut","postalCode":"02689","locality":"Sohland a. d. Spree","municipality":{"key":"14625560","name":"Sohland a. d. Spree","type":"Kreisangehörige_Gemeinde"},"district":{"key":"14625","name":"Bautzen","type":"Landkreis"},"federalState":{"key":"14","name":"Sachsen"}},{"name":"Am Hang","postalCode":"02689","locality":"Sohland a. d. Spree","municipality":{"key":"14625560","name":"Sohland a. d. Spree","type":"Kreisangehörige_Gemeinde"},"district":{"key":"14625","name":"Bautzen","type":"Landkreis"},"federalState":{"key":"14","name":"Sachsen"}},{"name":"Am Kirchberg","postalCode":"02689","locality":"Sohland a. d. Spree","municipality":{"key":"14625560","name":"Sohland a. d. Spree","type":"Kreisangehörige_Gemeinde"},"district":{"key":"14625","name":"Bautzen","type":"Landkreis"},"federalState":{"key":"14","name":"Sachsen"}},{"name":"Am Markt","postalCode":"02689","locality":"Sohland a. d. Spree","municipality":{"key":"14625560","name":"Sohland a. d. Spree","type":"Kreisangehörige_Gemeinde"},"district":{"key":"14625","name":"Bautzen","type":"Landkreis"},"federalState":{"key":"14","name":"Sachsen"}},{"name":"Am Pilzdörfel","postalCode":"02689","locality":"Sohland a. d. Spree","municipality":{"key":"14625560","name":"Sohland a. d. Spree","type":"Kreisangehörige_Gemeinde"},"district":{"key":"14625","name":"Bautzen","type":"Landkreis"},"federalState":{"key":"14","name":"Sachsen"}},{"name":"Am Schafberg","postalCode":"02689","locality":"Sohland a. d. Spree","municipality":{"key":"14625560","name":"Sohland a. d. Spree","type":"Kreisangehörige_Gemeinde"},"district":{"key":"14625","name":"Bautzen","type":"Landkreis"},"federalState":{"key":"14","name":"Sachsen"}},{"name":"Am Spielplatz","postalCode":"02689","locality":"Sohland a. d. Spree","municipality":{"key":"14625560","name":"Sohland a. d. Spree","type":"Kreisangehörige_Gemeinde"},"district":{"key":"14625","name":"Bautzen","type":"Landkreis"},"federalState":{"key":"14","name":"Sachsen"}},{"name":"Am Sportplatz","postalCode":"02689","locality":"Sohland a. d. Spree","municipality":{"key":"14625560","name":"Sohland a. d. Spree","type":"Kreisangehörige_Gemeinde"},"district":{"key":"14625","name":"Bautzen","type":"Landkreis"},"federalState":{"key":"14","name":"Sachsen"}},{"name":"Am Teich","postalCode":"02689","locality":"Sohland a. d. Spree","municipality":{"key":"14625560","name":"Sohland a. d. Spree","type":"Kreisangehörige_Gemeinde"},"district":{"key":"14625","name":"Bautzen","type":"Landkreis"},"federalState":{"key":"14","name":"Sachsen"}},{"name":"Am Viebig","postalCode":"02689","locality":"Sohland a. d. Spree","municipality":{"key":"14625560","name":"Sohland a. d. Spree","type":"Kreisangehörige_Gemeinde"},"district":{"key":"14625","name":"Bautzen","type":"Landkreis"},"federalState":{"key":"14","name":"Sachsen"}},{"name":"Am Volksbad","postalCode":"02689","locality":"Sohland a. d. Spree","municipality":{"key":"14625560","name":"Sohland a. d. Spree","type":"Kreisangehörige_Gemeinde"},"district":{"key":"14625","name":"Bautzen","type":"Landkreis"},"federalState":{"key":"14","name":"Sachsen"}},{"name":"Am Wald","postalCode":"02689","locality":"Sohland a. d. Spree","municipality":{"key":"14625560","name":"Sohland a. d. Spree","type":"Kreisangehörige_Gemeinde"},"district":{"key":"14625","name":"Bautzen","type":"Landkreis"},"federalState":{"key":"14","name":"Sachsen"}},{"name":"Am Waldrand","postalCode":"02689","locality":"Sohland a. d. Spree","municipality":{"key":"14625560","name":"Sohland a. d. Spree","type":"Kreisangehörige_Gemeinde"},"district":{"key":"14625","name":"Bautzen","type":"Landkreis"},"federalState":{"key":"14","name":"Sachsen"}},{"name":"Am Zimmerbeil","postalCode":"02689","locality":"Sohland a. d. Spree","municipality":{"key":"14625560","name":"Sohland a. d. Spree","type":"Kreisangehörige_Gemeinde"},"district":{"key":"14625","name":"Bautzen","type":"Landkreis"},"federalState":{"key":"14","name":"Sachsen"}},{"name":"Am Zion","postalCode":"02689","locality":"Sohland a. d. Spree","municipality":{"key":"14625560","name":"Sohland a. d. Spree","type":"Kreisangehörige_Gemeinde"},"district":{"key":"14625","name":"Bautzen","type":"Landkreis"},"federalState":{"key":"14","name":"Sachsen"}},{"name":"An der Aue","postalCode":"02689","locality":"Sohland a. d. Spree","municipality":{"key":"14625560","name":"Sohland a. d. Spree","type":"Kreisangehörige_Gemeinde"},"district":{"key":"14625","name":"Bautzen","type":"Landkreis"},"federalState":{"key":"14","name":"Sachsen"}},{"name":"An der Kleinbahn","postalCode":"02689","locality":"Sohland a. d. Spree","municipality":{"key":"14625560","name":"Sohland a. d. Spree","type":"Kreisangehörige_Gemeinde"},"district":{"key":"14625","name":"Bautzen","type":"Landkreis"},"federalState":{"key":"14","name":"Sachsen"}},{"name":"An der Weißbach","postalCode":"02689","locality":"Sohland a. d. Spree","municipality":{"key":"14625560","name":"Sohland a. d. Spree","type":"Kreisangehörige_Gemeinde"},"district":{"key":"14625","name":"Bautzen","type":"Landkreis"},"federalState":{"key":"14","name":"Sachsen"}},{"name":"Auenweg","postalCode":"02689","locality":"Sohland a. d. Spree","municipality":{"key":"14625560","name":"Sohland a. d. Spree","type":"Kreisangehörige_Gemeinde"},"district":{"key":"14625","name":"Bautzen","type":"Landkreis"},"federalState":{"key":"14","name":"Sachsen"}},{"name":"August-Matthes-Weg","postalCode":"02689","locality":"Sohland a. d. Spree","municipality":{"key":"14625560","name":"Sohland a. d. Spree","type":"Kreisangehörige_Gemeinde"},"district":{"key":"14625","name":"Bautzen","type":"Landkreis"},"federalState":{"key":"14","name":"Sachsen"}},{"name":"AWG","postalCode":"02689","locality":"Sohland a. d. Spree","municipality":{"key":"14625560","name":"Sohland a. d. Spree","type":"Kreisangehörige_Gemeinde"},"district":{"key":"14625","name":"Bautzen","type":"Landkreis"},"federalState":{"key":"14","name":"Sachsen"}},{"name":"Bahnhofstr.","postalCode":"02689","locality":"Sohland a. d. Spree","municipality":{"key":"14625560","name":"Sohland a. d. Spree","type":"Kreisangehörige_Gemeinde"},"district":{"key":"14625","name":"Bautzen","type":"Landkreis"},"federalState":{"key":"14","name":"Sachsen"}},{"name":"Baudenweg","postalCode":"02689","locality":"Sohland a. d. Spree","municipality":{"key":"14625560","name":"Sohland a. d. Spree","type":"Kreisangehörige_Gemeinde"},"district":{"key":"14625","name":"Bautzen","type":"Landkreis"},"federalState":{"key":"14","name":"Sachsen"}},{"name":"Bautzener Str.","postalCode":"02689","locality":"Sohland a. d. Spree","municipality":{"key":"14625560","name":"Sohland a. d. Spree","type":"Kreisangehörige_Gemeinde"},"district":{"key":"14625","name":"Bautzen","type":"Landkreis"},"federalState":{"key":"14","name":"Sachsen"}},{"name":"Bergstr.","postalCode":"02689","locality":"Sohland a. d. Spree","municipality":{"key":"14625560","name":"Sohland a. d. Spree","type":"Kreisangehörige_Gemeinde"},"district":{"key":"14625","name":"Bautzen","type":"Landkreis"},"federalState":{"key":"14","name":"Sachsen"}},{"name":"Böhmische Str.","postalCode":"02689","locality":"Sohland a. d. Spree","municipality":{"key":"14625560","name":"Sohland a. d. Spree","type":"Kreisangehörige_Gemeinde"},"district":{"key":"14625","name":"Bautzen","type":"Landkreis"},"federalState":{"key":"14","name":"Sachsen"}},{"name":"Buschmühlenweg","postalCode":"02689","locality":"Sohland a. d. Spree","municipality":{"key":"14625560","name":"Sohland a. d. Spree","type":"Kreisangehörige_Gemeinde"},"district":{"key":"14625","name":"Bautzen","type":"Landkreis"},"federalState":{"key":"14","name":"Sachsen"}},{"name":"Clara-Zetkin-Str.","postalCode":"02625","locality":"Bautzen","municipality":{"key":"14625020","name":"Bautzen / Budyšin, Stadt","type":"Stadt"},"district":{"key":"14625","name":"Bautzen","type":"Landkreis"},"federalState":{"key":"14","name":"Sachsen"}},{"name":"Czornebohstr.","postalCode":"02625","locality":"Bautzen","municipality":{"key":"14625020","name":"Bautzen / Budyšin, Stadt","type":"Stadt"},"district":{"key":"14625","name":"Bautzen","type":"Landkreis"},"federalState":{"key":"14","name":"Sachsen"}},{"name":"Der Schwarze Weg","postalCode":"02689","locality":"Sohland a. d. Spree","municipality":{"key":"14625560","name":"Sohland a. d. Spree","type":"Kreisangehörige_Gemeinde"},"district":{"key":"14625","name":"Bautzen","type":"Landkreis"},"federalState":{"key":"14","name":"Sachsen"}},{"name":"Doktorberg","postalCode":"02689","locality":"Sohland a. d. Spree","municipality":{"key":"14625560","name":"Sohland a. d. Spree","type":"Kreisangehörige_Gemeinde"},"district":{"key":"14625","name":"Bautzen","type":"Landkreis"},"federalState":{"key":"14","name":"Sachsen"}},{"name":"Dresdener Str.","postalCode":"02689","locality":"Sohland a. d. Spree","municipality":{"key":"14625560","name":"Sohland a. d. Spree","type":"Kreisangehörige_Gemeinde"},"district":{"key":"14625","name":"Bautzen","type":"Landkreis"},"federalState":{"key":"14","name":"Sachsen"}},{"name":"Eduard-Kauffer-Weg","postalCode":"02689","locality":"Sohland a. d. Spree","municipality":{"key":"14625560","name":"Sohland a. d. Spree","type":"Kreisangehörige_Gemeinde"},"district":{"key":"14625","name":"Bautzen","type":"Landkreis"},"federalState":{"key":"14","name":"Sachsen"}},{"name":"Ellersdorfer Str.","postalCode":"02689","locality":"Sohland a. d. Spree","municipality":{"key":"14625560","name":"Sohland a. d. Spree","type":"Kreisangehörige_Gemeinde"},"district":{"key":"14625","name":"Bautzen","type":"Landkreis"},"federalState":{"key":"14","name":"Sachsen"}},{"name":"Fichtestr.","postalCode":"02689","locality":"Sohland a. d. Spree","municipality":{"key":"14625560","name":"Sohland a. d. Spree","type":"Kreisangehörige_Gemeinde"},"district":{"key":"14625","name":"Bautzen","type":"Landkreis"},"federalState":{"key":"14","name":"Sachsen"}},{"name":"Friedrich-Ludwig-Jahn-Weg","postalCode":"02689","locality":"Sohland a. d. Spree","municipality":{"key":"14625560","name":"Sohland a. d. Spree","type":"Kreisangehörige_Gemeinde"},"district":{"key":"14625","name":"Bautzen","type":"Landkreis"},"federalState":{"key":"14","name":"Sachsen"}},{"name":"Frühlingstal","postalCode":"02689","locality":"Sohland a. d. Spree","municipality":{"key":"14625560","name":"Sohland a. d. Spree","type":"Kreisangehörige_Gemeinde"},"district":{"key":"14625","name":"Bautzen","type":"Landkreis"},"federalState":{"key":"14","name":"Sachsen"}},{"name":"Funkenburgstr.","postalCode":"02689","locality":"Sohland a. d. Spree","municipality":{"key":"14625560","name":"Sohland a. d. Spree","type":"Kreisangehörige_Gemeinde"},"district":{"key":"14625","name":"Bautzen","type":"Landkreis"},"federalState":{"key":"14","name":"Sachsen"}},{"name":"Gartenweg","postalCode":"02689","locality":"Sohland a. d. Spree","municipality":{"key":"14625560","name":"Sohland a. d. Spree","type":"Kreisangehörige_Gemeinde"},"district":{"key":"14625","name":"Bautzen","type":"Landkreis"},"federalState":{"key":"14","name":"Sachsen"}},{"name":"Geißlerweg","postalCode":"02689","locality":"Sohland a. d. Spree","municipality":{"key":"14625560","name":"Sohland a. d. Spree","type":"Kreisangehörige_Gemeinde"},"district":{"key":"14625","name":"Bautzen","type":"Landkreis"},"federalState":{"key":"14","name":"Sachsen"}},{"name":"Gerhart-Hauptmann-Str.","postalCode":"02689","locality":"Sohland a. d. Spree","municipality":{"key":"14625560","name":"Sohland a. d. Spree","type":"Kreisangehörige_Gemeinde"},"district":{"key":"14625","name":"Bautzen","type":"Landkreis"},"federalState":{"key":"14","name":"Sachsen"}},{"name":"Geschwister-Scholl-Str.","postalCode":"02689","locality":"Sohland a. d. Spree","municipality":{"key":"14625560","name":"Sohland a. d. Spree","type":"Kreisangehörige_Gemeinde"},"district":{"key":"14625","name":"Bautzen","type":"Landkreis"},"federalState":{"key":"14","name":"Sachsen"}},{"name":"Grenzwanderweg","postalCode":"02689","locality":"Sohland a. d. Spree","municipality":{"key":"14625560","name":"Sohland a. d. Spree","type":"Kreisangehörige_Gemeinde"},"district":{"key":"14625","name":"Bautzen","type":"Landkreis"},"federalState":{"key":"14","name":"Sachsen"}},{"name":"Grenzweg","postalCode":"02689","locality":"Sohland a. d. Spree","municipality":{"key":"14625560","name":"Sohland a. d. Spree","type":"Kreisangehörige_Gemeinde"},"district":{"key":"14625","name":"Bautzen","type":"Landkreis"},"federalState":{"key":"14","name":"Sachsen"}},{"name":"Hainspacher Str.","postalCode":"02689","locality":"Sohland a. d. Spree","municipality":{"key":"14625560","name":"Sohland a. d. Spree","type":"Kreisangehörige_Gemeinde"},"district":{"key":"14625","name":"Bautzen","type":"Landkreis"},"federalState":{"key":"14","name":"Sachsen"}},{"name":"Hauptstr.","postalCode":"02689","locality":"Sohland a. d. Spree","municipality":{"key":"14625560","name":"Sohland a. d. Spree","type":"Kreisangehörige_Gemeinde"},"district":{"key":"14625","name":"Bautzen","type":"Landkreis"},"federalState":{"key":"14","name":"Sachsen"}},{"name":"Himmelsbrücke","postalCode":"02689","locality":"Sohland a. d. Spree","municipality":{"key":"14625560","name":"Sohland a. d. Spree","type":"Kreisangehörige_Gemeinde"},"district":{"key":"14625","name":"Bautzen","type":"Landkreis"},"federalState":{"key":"14","name":"Sachsen"}},{"name":"Himmelsbrückenweg","postalCode":"02689","locality":"Sohland a. d. Spree","municipality":{"key":"14625560","name":"Sohland a. d. Spree","type":"Kreisangehörige_Gemeinde"},"district":{"key":"14625","name":"Bautzen","type":"Landkreis"},"federalState":{"key":"14","name":"Sachsen"}},{"name":"Hohbergstr.","postalCode":"02689","locality":"Sohland a. d. Spree","municipality":{"key":"14625560","name":"Sohland a. d. Spree","type":"Kreisangehörige_Gemeinde"},"district":{"key":"14625","name":"Bautzen","type":"Landkreis"},"federalState":{"key":"14","name":"Sachsen"}},{"name":"Hornsbergstr.","postalCode":"02689","locality":"Sohland a. d. Spree","municipality":{"key":"14625560","name":"Sohland a. d. Spree","type":"Kreisangehörige_Gemeinde"},"district":{"key":"14625","name":"Bautzen","type":"Landkreis"},"federalState":{"key":"14","name":"Sachsen"}},{"name":"Industriestr.","postalCode":"02689","locality":"Sohland a. d. Spree","municipality":{"key":"14625560","name":"Sohland a. d. Spree","type":"Kreisangehörige_Gemeinde"},"district":{"key":"14625","name":"Bautzen","type":"Landkreis"},"federalState":{"key":"14","name":"Sachsen"}},{"name":"Jagdweg","postalCode":"02625","locality":"Bautzen","municipality":{"key":"14625020","name":"Bautzen / Budyšin, Stadt","type":"Stadt"},"district":{"key":"14625","name":"Bautzen","type":"Landkreis"},"federalState":{"key":"14","name":"Sachsen"}},{"name":"Jägerstr.","postalCode":"02625","locality":"Bautzen","municipality":{"key":"14625020","name":"Bautzen / Budyšin, Stadt","type":"Stadt"},"district":{"key":"14625","name":"Bautzen","type":"Landkreis"},"federalState":{"key":"14","name":"Sachsen"}},{"name":"Jahnstr.","postalCode":"02625","locality":"Bautzen","municipality":{"key":"14625020","name":"Bautzen / Budyšin, Stadt","type":"Stadt"},"district":{"key":"14625","name":"Bautzen","type":"Landkreis"},"federalState":{"key":"14","name":"Sachsen"}},{"name":"Jan-Skala-Str.","postalCode":"02625","locality":"Bautzen","municipality":{"key":"14625020","name":"Bautzen / Budyšin, Stadt","type":"Stadt"},"district":{"key":"14625","name":"Bautzen","type":"Landkreis"},"federalState":{"key":"14","name":"Sachsen"}},{"name":"Johannes-Kepler-Str.","postalCode":"02625","locality":"Bautzen","municipality":{"key":"14625020","name":"Bautzen / Budyšin, Stadt","type":"Stadt"},"district":{"key":"14625","name":"Bautzen","type":"Landkreis"},"federalState":{"key":"14","name":"Sachsen"}},{"name":"Johannes-R.-Becher-Str.","postalCode":"02625","locality":"Bautzen","municipality":{"key":"14625020","name":"Bautzen / Budyšin, Stadt","type":"Stadt"},"district":{"key":"14625","name":"Bautzen","type":"Landkreis"},"federalState":{"key":"14","name":"Sachsen"}},{"name":"Johann-Sebastian-Bach-Str.","postalCode":"02625","locality":"Bautzen","municipality":{"key":"14625020","name":"Bautzen / Budyšin, Stadt","type":"Stadt"},"district":{"key":"14625","name":"Bautzen","type":"Landkreis"},"federalState":{"key":"14","name":"Sachsen"}},{"name":"Jordantalbrücke","postalCode":"02625","locality":"Bautzen","municipality":{"key":"14625020","name":"Bautzen / Budyšin, Stadt","type":"Stadt"},"district":{"key":"14625","name":"Bautzen","type":"Landkreis"},"federalState":{"key":"14","name":"Sachsen"}},{"name":"Juri-Gagarin-Str.","postalCode":"02625","locality":"Bautzen","municipality":{"key":"14625020","name":"Bautzen / Budyšin, Stadt","type":"Stadt"},"district":{"key":"14625","name":"Bautzen","type":"Landkreis"},"federalState":{"key":"14","name":"Sachsen"}},{"name":"Kälbersteinblick","postalCode":"02689","locality":"Sohland a. d. Spree","municipality":{"key":"14625560","name":"Sohland a. d. Spree","type":"Kreisangehörige_Gemeinde"},"district":{"key":"14625","name":"Bautzen","type":"Landkreis"},"federalState":{"key":"14","name":"Sachsen"}},{"name":"Kaltbachweg","postalCode":"02689","locality":"Sohland a. d. Spree","municipality":{"key":"14625560","name":"Sohland a. d. Spree","type":"Kreisangehörige_Gemeinde"},"district":{"key":"14625","name":"Bautzen","type":"Landkreis"},"federalState":{"key":"14","name":"Sachsen"}},{"name":"Karlsruhe","postalCode":"02689","locality":"Sohland a. d. Spree","municipality":{"key":"14625560","name":"Sohland a. d. Spree","type":"Kreisangehörige_Gemeinde"},"district":{"key":"14625","name":"Bautzen","type":"Landkreis"},"federalState":{"key":"14","name":"Sachsen"}},{"name":"Karl-Thomas-Str.","postalCode":"02689","locality":"Sohland a. d. Spree","municipality":{"key":"14625560","name":"Sohland a. d. Spree","type":"Kreisangehörige_Gemeinde"},"district":{"key":"14625","name":"Bautzen","type":"Landkreis"},"federalState":{"key":"14","name":"Sachsen"}},{"name":"Kirchsteig","postalCode":"02689","locality":"Sohland a. d. Spree","municipality":{"key":"14625560","name":"Sohland a. d. Spree","type":"Kreisangehörige_Gemeinde"},"district":{"key":"14625","name":"Bautzen","type":"Landkreis"},"federalState":{"key":"14","name":"Sachsen"}},{"name":"Lessingstr.","postalCode":"02689","locality":"Sohland a. d. Spree","municipality":{"key":"14625560","name":"Sohland a. d. Spree","type":"Kreisangehörige_Gemeinde"},"district":{"key":"14625","name":"Bautzen","type":"Landkreis"},"federalState":{"key":"14","name":"Sachsen"}},{"name":"Ministerweg","postalCode":"02689","locality":"Sohland a. d. Spree","municipality":{"key":"14625560","name":"Sohland a. d. Spree","type":"Kreisangehörige_Gemeinde"},"district":{"key":"14625","name":"Bautzen","type":"Landkreis"},"federalState":{"key":"14","name":"Sachsen"}},{"name":"Mittelstr.","postalCode":"02689","locality":"Sohland a. d. Spree","municipality":{"key":"14625560","name":"Sohland a. d. Spree","type":"Kreisangehörige_Gemeinde"},"district":{"key":"14625","name":"Bautzen","type":"Landkreis"},"federalState":{"key":"14","name":"Sachsen"}},{"name":"Mühlengasse","postalCode":"02689","locality":"Sohland a. d. Spree","municipality":{"key":"14625560","name":"Sohland a. d. Spree","type":"Kreisangehörige_Gemeinde"},"district":{"key":"14625","name":"Bautzen","type":"Landkreis"},"federalState":{"key":"14","name":"Sachsen"}},{"name":"Mühlteichstr.","postalCode":"02689","locality":"Sohland a. d. Spree","municipality":{"key":"14625560","name":"Sohland a. d. Spree","type":"Kreisangehörige_Gemeinde"},"district":{"key":"14625","name":"Bautzen","type":"Landkreis"},"federalState":{"key":"14","name":"Sachsen"}},{"name":"Neudorf","postalCode":"02689","locality":"Sohland a. d. Spree","municipality":{"key":"14625560","name":"Sohland a. d. Spree","type":"Kreisangehörige_Gemeinde"},"district":{"key":"14625","name":"Bautzen","type":"Landkreis"},"federalState":{"key":"14","name":"Sachsen"}},{"name":"Neutaubenheimer Str.","postalCode":"02689","locality":"Sohland a. d. Spree","municipality":{"key":"14625560","name":"Sohland a. d. Spree","type":"Kreisangehörige_Gemeinde"},"district":{"key":"14625","name":"Bautzen","type":"Landkreis"},"federalState":{"key":"14","name":"Sachsen"}},{"name":"Niederbrücke","postalCode":"02689","locality":"Sohland a. d. Spree","municipality":{"key":"14625560","name":"Sohland a. d. Spree","type":"Kreisangehörige_Gemeinde"},"district":{"key":"14625","name":"Bautzen","type":"Landkreis"},"federalState":{"key":"14","name":"Sachsen"}},{"name":"Oberdorfgasse","postalCode":"02689","locality":"Sohland a. d. Spree","municipality":{"key":"14625560","name":"Sohland a. d. Spree","type":"Kreisangehörige_Gemeinde"},"district":{"key":"14625","name":"Bautzen","type":"Landkreis"},"federalState":{"key":"14","name":"Sachsen"}},{"name":"Oberdorfstr.","postalCode":"02689","locality":"Sohland a. d. Spree","municipality":{"key":"14625560","name":"Sohland a. d. Spree","type":"Kreisangehörige_Gemeinde"},"district":{"key":"14625","name":"Bautzen","type":"Landkreis"},"federalState":{"key":"14","name":"Sachsen"}},{"name":"Oppacher Str.","postalCode":"02689","locality":"Sohland a. d. Spree","municipality":{"key":"14625560","name":"Sohland a. d. Spree","type":"Kreisangehörige_Gemeinde"},"district":{"key":"14625","name":"Bautzen","type":"Landkreis"},"federalState":{"key":"14","name":"Sachsen"}},{"name":"Oppacher Weg","postalCode":"02689","locality":"Sohland a. d. Spree","municipality":{"key":"14625560","name":"Sohland a. d. Spree","type":"Kreisangehörige_Gemeinde"},"district":{"key":"14625","name":"Bautzen","type":"Landkreis"},"federalState":{"key":"14","name":"Sachsen"}},{"name":"Pickaer Weg","postalCode":"02689","locality":"Sohland a. d. Spree","municipality":{"key":"14625560","name":"Sohland a. d. Spree","type":"Kreisangehörige_Gemeinde"},"district":{"key":"14625","name":"Bautzen","type":"Landkreis"},"federalState":{"key":"14","name":"Sachsen"}},{"name":"Pilzdörfelstr.","postalCode":"02689","locality":"Sohland a. d. Spree","municipality":{"key":"14625560","name":"Sohland a. d. Spree","type":"Kreisangehörige_Gemeinde"},"district":{"key":"14625","name":"Bautzen","type":"Landkreis"},"federalState":{"key":"14","name":"Sachsen"}},{"name":"Poststr.","postalCode":"02689","locality":"Sohland a. d. Spree","municipality":{"key":"14625560","name":"Sohland a. d. Spree","type":"Kreisangehörige_Gemeinde"},"district":{"key":"14625","name":"Bautzen","type":"Landkreis"},"federalState":{"key":"14","name":"Sachsen"}},{"name":"Richard-Lebelt-Weg","postalCode":"02689","locality":"Sohland a. d. Spree","municipality":{"key":"14625560","name":"Sohland a. d. Spree","type":"Kreisangehörige_Gemeinde"},"district":{"key":"14625","name":"Bautzen","type":"Landkreis"},"federalState":{"key":"14","name":"Sachsen"}},{"name":"Rösselburgstr.","postalCode":"02689","locality":"Sohland a. d. Spree","municipality":{"key":"14625560","name":"Sohland a. d. Spree","type":"Kreisangehörige_Gemeinde"},"district":{"key":"14625","name":"Bautzen","type":"Landkreis"},"federalState":{"key":"14","name":"Sachsen"}},{"name":"Sandweg","postalCode":"02689","locality":"Sohland a. d. Spree","municipality":{"key":"14625560","name":"Sohland a. d. Spree","type":"Kreisangehörige_Gemeinde"},"district":{"key":"14625","name":"Bautzen","type":"Landkreis"},"federalState":{"key":"14","name":"Sachsen"}},{"name":"Schenks Berg","postalCode":"02689","locality":"Sohland a. d. Spree","municipality":{"key":"14625560","name":"Sohland a. d. Spree","type":"Kreisangehörige_Gemeinde"},"district":{"key":"14625","name":"Bautzen","type":"Landkreis"},"federalState":{"key":"14","name":"Sachsen"}},{"name":"Schillerweg","postalCode":"02689","locality":"Sohland a. d. Spree","municipality":{"key":"14625560","name":"Sohland a. d. Spree","type":"Kreisangehörige_Gemeinde"},"district":{"key":"14625","name":"Bautzen","type":"Landkreis"},"federalState":{"key":"14","name":"Sachsen"}},{"name":"Schirgiswalder Str.","postalCode":"02689","locality":"Sohland a. d. Spree","municipality":{"key":"14625560","name":"Sohland a. d. Spree","type":"Kreisangehörige_Gemeinde"},"district":{"key":"14625","name":"Bautzen","type":"Landkreis"},"federalState":{"key":"14","name":"Sachsen"}},{"name":"Schirgiswalder Weg","postalCode":"02689","locality":"Sohland a. d. Spree","municipality":{"key":"14625560","name":"Sohland a. d. Spree","type":"Kreisangehörige_Gemeinde"},"district":{"key":"14625","name":"Bautzen","type":"Landkreis"},"federalState":{"key":"14","name":"Sachsen"}},{"name":"Schlossstr.","postalCode":"02689","locality":"Sohland a. d. Spree","municipality":{"key":"14625560","name":"Sohland a. d. Spree","type":"Kreisangehörige_Gemeinde"},"district":{"key":"14625","name":"Bautzen","type":"Landkreis"},"federalState":{"key":"14","name":"Sachsen"}},{"name":"Schluckenauer Str.","postalCode":"02689","locality":"Sohland a. d. Spree","municipality":{"key":"14625560","name":"Sohland a. d. Spree","type":"Kreisangehörige_Gemeinde"},"district":{"key":"14625","name":"Bautzen","type":"Landkreis"},"federalState":{"key":"14","name":"Sachsen"}},{"name":"Schmiedeweg","postalCode":"02689","locality":"Sohland a. d. Spree","municipality":{"key":"14625560","name":"Sohland a. d. Spree","type":"Kreisangehörige_Gemeinde"},"district":{"key":"14625","name":"Bautzen","type":"Landkreis"},"federalState":{"key":"14","name":"Sachsen"}},{"name":"Schulweg","postalCode":"02689","locality":"Sohland a. d. Spree","municipality":{"key":"14625560","name":"Sohland a. d. Spree","type":"Kreisangehörige_Gemeinde"},"district":{"key":"14625","name":"Bautzen","type":"Landkreis"},"federalState":{"key":"14","name":"Sachsen"}},{"name":"Siedlung","postalCode":"02689","locality":"Sohland a. d. Spree","municipality":{"key":"14625560","name":"Sohland a. d. Spree","type":"Kreisangehörige_Gemeinde"},"district":{"key":"14625","name":"Bautzen","type":"Landkreis"},"federalState":{"key":"14","name":"Sachsen"}},{"name":"Sohlander Str.","postalCode":"02689","locality":"Sohland a. d. Spree","municipality":{"key":"14625560","name":"Sohland a. d. Spree","type":"Kreisangehörige_Gemeinde"},"district":{"key":"14625","name":"Bautzen","type":"Landkreis"},"federalState":{"key":"14","name":"Sachsen"}},{"name":"Spreetalstr.","postalCode":"02689","locality":"Sohland a. d. Spree","municipality":{"key":"14625560","name":"Sohland a. d. Spree","type":"Kreisangehörige_Gemeinde"},"district":{"key":"14625","name":"Bautzen","type":"Landkreis"},"federalState":{"key":"14","name":"Sachsen"}},{"name":"Spreeweg","postalCode":"02689","locality":"Sohland a. d. Spree","municipality":{"key":"14625560","name":"Sohland a. d. Spree","type":"Kreisangehörige_Gemeinde"},"district":{"key":"14625","name":"Bautzen","type":"Landkreis"},"federalState":{"key":"14","name":"Sachsen"}},{"name":"Stauseeblick","postalCode":"02689","locality":"Sohland a. d. Spree","municipality":{"key":"14625560","name":"Sohland a. d. Spree","type":"Kreisangehörige_Gemeinde"},"district":{"key":"14625","name":"Bautzen","type":"Landkreis"},"federalState":{"key":"14","name":"Sachsen"}},{"name":"Steilweg","postalCode":"02689","locality":"Sohland a. d. Spree","municipality":{"key":"14625560","name":"Sohland a. d. Spree","type":"Kreisangehörige_Gemeinde"},"district":{"key":"14625","name":"Bautzen","type":"Landkreis"},"federalState":{"key":"14","name":"Sachsen"}},{"name":"Steinhübelweg","postalCode":"02689","locality":"Sohland a. d. Spree","municipality":{"key":"14625560","name":"Sohland a. d. Spree","type":"Kreisangehörige_Gemeinde"},"district":{"key":"14625","name":"Bautzen","type":"Landkreis"},"federalState":{"key":"14","name":"Sachsen"}},{"name":"Str. am Friedenshain","postalCode":"02689","locality":"Sohland a. d. Spree","municipality":{"key":"14625560","name":"Sohland a. d. Spree","type":"Kreisangehörige_Gemeinde"},"district":{"key":"14625","name":"Bautzen","type":"Landkreis"},"federalState":{"key":"14","name":"Sachsen"}},{"name":"Str. der Jugend","postalCode":"02689","locality":"Sohland a. d. Spree","municipality":{"key":"14625560","name":"Sohland a. d. Spree","type":"Kreisangehörige_Gemeinde"},"district":{"key":"14625","name":"Bautzen","type":"Landkreis"},"federalState":{"key":"14","name":"Sachsen"}},{"name":"Talweg","postalCode":"02689","locality":"Sohland a. d. Spree","municipality":{"key":"14625560","name":"Sohland a. d. Spree","type":"Kreisangehörige_Gemeinde"},"district":{"key":"14625","name":"Bautzen","type":"Landkreis"},"federalState":{"key":"14","name":"Sachsen"}},{"name":"Tännicht","postalCode":"02689","locality":"Sohland a. d. Spree","municipality":{"key":"14625560","name":"Sohland a. d. Spree","type":"Kreisangehörige_Gemeinde"},"district":{"key":"14625","name":"Bautzen","type":"Landkreis"},"federalState":{"key":"14","name":"Sachsen"}},{"name":"Tännichtstr.","postalCode":"02689","locality":"Sohland a. d. Spree","municipality":{"key":"14625560","name":"Sohland a. d. Spree","type":"Kreisangehörige_Gemeinde"},"district":{"key":"14625","name":"Bautzen","type":"Landkreis"},"federalState":{"key":"14","name":"Sachsen"}},{"name":"Taubenheimer Str.","postalCode":"02689","locality":"Sohland a. d. Spree","municipality":{"key":"14625560","name":"Sohland a. d. Spree","type":"Kreisangehörige_Gemeinde"},"district":{"key":"14625","name":"Bautzen","type":"Landkreis"},"federalState":{"key":"14","name":"Sachsen"}},{"name":"Theodor-Körner-Weg","postalCode":"02689","locality":"Sohland a. d. Spree","municipality":{"key":"14625560","name":"Sohland a. d. Spree","type":"Kreisangehörige_Gemeinde"},"district":{"key":"14625","name":"Bautzen","type":"Landkreis"},"federalState":{"key":"14","name":"Sachsen"}},{"name":"Trebestr.","postalCode":"02689","locality":"Sohland a. d. Spree","municipality":{"key":"14625560","name":"Sohland a. d. Spree","type":"Kreisangehörige_Gemeinde"},"district":{"key":"14625","name":"Bautzen","type":"Landkreis"},"federalState":{"key":"14","name":"Sachsen"}},{"name":"Uferweg","postalCode":"02625","locality":"Bautzen","municipality":{"key":"14625020","name":"Bautzen / Budyšin, Stadt","type":"Stadt"},"district":{"key":"14625","name":"Bautzen","type":"Landkreis"},"federalState":{"key":"14","name":"Sachsen"}},{"name":"Uhlandstr.","postalCode":"02625","locality":"Bautzen","municipality":{"key":"14625020","name":"Bautzen / Budyšin, Stadt","type":"Stadt"},"district":{"key":"14625","name":"Bautzen","type":"Landkreis"},"federalState":{"key":"14","name":"Sachsen"}},{"name":"Umgehungsstr.","postalCode":"02625","locality":"Bautzen","municipality":{"key":"14625020","name":"Bautzen / Budyšin, Stadt","type":"Stadt"},"district":{"key":"14625","name":"Bautzen","type":"Landkreis"},"federalState":{"key":"14","name":"Sachsen"}},{"name":"Untere Str.","postalCode":"02625","locality":"Bautzen","municipality":{"key":"14625020","name":"Bautzen / Budyšin, Stadt","type":"Stadt"},"district":{"key":"14625","name":"Bautzen","type":"Landkreis"},"federalState":{"key":"14","name":"Sachsen"}},{"name":"Unterm Schloß","postalCode":"02625","locality":"Bautzen","municipality":{"key":"14625020","name":"Bautzen / Budyšin, Stadt","type":"Stadt"},"district":{"key":"14625","name":"Bautzen","type":"Landkreis"},"federalState":{"key":"14","name":"Sachsen"}},{"name":"Veilchenberg","postalCode":"02625","locality":"Bautzen","municipality":{"key":"14625020","name":"Bautzen / Budyšin, Stadt","type":"Stadt"},"district":{"key":"14625","name":"Bautzen","type":"Landkreis"},"federalState":{"key":"14","name":"Sachsen"}},{"name":"Vor dem Gerbertor","postalCode":"02625","locality":"Bautzen","municipality":{"key":"14625020","name":"Bautzen / Budyšin, Stadt","type":"Stadt"},"district":{"key":"14625","name":"Bautzen","type":"Landkreis"},"federalState":{"key":"14","name":"Sachsen"}},{"name":"Vor dem Schülertor","postalCode":"02625","locality":"Bautzen","municipality":{"key":"14625020","name":"Bautzen / Budyšin, Stadt","type":"Stadt"},"district":{"key":"14625","name":"Bautzen","type":"Landkreis"},"federalState":{"key":"14","name":"Sachsen"}},{"name":"Vor der Fischerpforte","postalCode":"02625","locality":"Bautzen","municipality":{"key":"14625020","name":"Bautzen / Budyšin, Stadt","type":"Stadt"},"district":{"key":"14625","name":"Bautzen","type":"Landkreis"},"federalState":{"key":"14","name":"Sachsen"}},{"name":"Waldbadstr.","postalCode":"02689","locality":"Sohland a. d. Spree","municipality":{"key":"14625560","name":"Sohland a. d. Spree","type":"Kreisangehörige_Gemeinde"},"district":{"key":"14625","name":"Bautzen","type":"Landkreis"},"federalState":{"key":"14","name":"Sachsen"}},{"name":"Waldbad Wehrsdorf","postalCode":"02689","locality":"Sohland a. d. Spree","municipality":{"key":"14625560","name":"Sohland a. d. Spree","type":"Kreisangehörige_Gemeinde"},"district":{"key":"14625","name":"Bautzen","type":"Landkreis"},"federalState":{"key":"14","name":"Sachsen"}},{"name":"Waldstr.","postalCode":"02689","locality":"Sohland a. d. Spree","municipality":{"key":"14625560","name":"Sohland a. d. Spree","type":"Kreisangehörige_Gemeinde"},"district":{"key":"14625","name":"Bautzen","type":"Landkreis"},"federalState":{"key":"14","name":"Sachsen"}},{"name":"Wassergrundring","postalCode":"02689","locality":"Sohland a. d. Spree","municipality":{"key":"14625560","name":"Sohland a. d. Spree","type":"Kreisangehörige_Gemeinde"},"district":{"key":"14625","name":"Bautzen","type":"Landkreis"},"federalState":{"key":"14","name":"Sachsen"}},{"name":"Wehrsdorfer Str.","postalCode":"02689","locality":"Sohland a. d. Spree","municipality":{"key":"14625560","name":"Sohland a. d. Spree","type":"Kreisangehörige_Gemeinde"},"district":{"key":"14625","name":"Bautzen","type":"Landkreis"},"federalState":{"key":"14","name":"Sachsen"}},{"name":"Weifaer Str.","postalCode":"02689","locality":"Sohland a. d. Spree","municipality":{"key":"14625560","name":"Sohland a. d. Spree","type":"Kreisangehörige_Gemeinde"},"district":{"key":"14625","name":"Bautzen","type":"Landkreis"},"federalState":{"key":"14","name":"Sachsen"}},{"name":"Wiese","postalCode":"02689","locality":"Sohland a. d. Spree","municipality":{"key":"14625560","name":"Sohland a. d. Spree","type":"Kreisangehörige_Gemeinde"},"district":{"key":"14625","name":"Bautzen","type":"Landkreis"},"federalState":{"key":"14","name":"Sachsen"}},{"name":"Wiesengrundweg","postalCode":"02689","locality":"Sohland a. d. Spree","municipality":{"key":"14625560","name":"Sohland a. d. Spree","type":"Kreisangehörige_Gemeinde"},"district":{"key":"14625","name":"Bautzen","type":"Landkreis"},"federalState":{"key":"14","name":"Sachsen"}},{"name":"Wiesenweg","postalCode":"02689","locality":"Sohland a. d. Spree","municipality":{"key":"14625560","name":"Sohland a. d. Spree","type":"Kreisangehörige_Gemeinde"},"district":{"key":"14625","name":"Bautzen","type":"Landkreis"},"federalState":{"key":"14","name":"Sachsen"}},{"name":"Wolfssteinweg","postalCode":"02689","locality":"Sohland a. d. Spree","municipality":{"key":"14625560","name":"Sohland a. d. Spree","type":"Kreisangehörige_Gemeinde"},"district":{"key":"14625","name":"Bautzen","type":"Landkreis"},"federalState":{"key":"14","name":"Sachsen"}},{"name":"Yorckstr.","postalCode":"02625","locality":"Bautzen","municipality":{"key":"14625020","name":"Bautzen / Budyšin, Stadt","type":"Stadt"},"district":{"key":"14625","name":"Bautzen","type":"Landkreis"},"federalState":{"key":"14","name":"Sachsen"}},{"name":"Zittauer Str.","postalCode":"02689","locality":"Sohland a. d. Spree","municipality":{"key":"14625560","name":"Sohland a. d. Spree","type":"Kreisangehörige_Gemeinde"},"district":{"key":"14625","name":"Bautzen","type":"Landkreis"},"federalState":{"key":"14","name":"Sachsen"}},{"name":"Zöllnerweg","postalCode":"02689","locality":"Sohland a. d. Spree","municipality":{"key":"14625560","name":"Sohland a. d. Spree","type":"Kreisangehörige_Gemeinde"},"district":{"key":"14625","name":"Bautzen","type":"Landkreis"},"federalState":{"key":"14","name":"Sachsen"}},{"name":"Zumpeweg","postalCode":"02689","locality":"Sohland a. d. Spree","municipality":{"key":"14625560","name":"Sohland a. d. Spree","type":"Kreisangehörige_Gemeinde"},"district":{"key":"14625","name":"Bautzen","type":"Landkreis"},"federalState":{"key":"14","name":"Sachsen"}},{"name":"Zur Bleiche","postalCode":"02689","locality":"Sohland a. d. Spree","municipality":{"key":"14625560","name":"Sohland a. d. Spree","type":"Kreisangehörige_Gemeinde"},"district":{"key":"14625","name":"Bautzen","type":"Landkreis"},"federalState":{"key":"14","name":"Sachsen"}},{"name":"Äußere Lauenstr.","postalCode":"02625","locality":"Bautzen","municipality":{"key":"14625020","name":"Bautzen / Budyšin, Stadt","type":"Stadt"},"district":{"key":"14625","name":"Bautzen","type":"Landkreis"},"federalState":{"key":"14","name":"Sachsen"}},]