[{"name":"91er Str.","postalCode":"26121","locality":"Oldenburg","municipality":{"key":"03403000","name":"Oldenburg (Oldenburg), Stadt","type":"Kreisfreie_Stadt"},"district":{"key":"03403","name":"Oldenburg (Oldenburg), Stadt","type":"Kreisfreie_Stadt"},"federalState":{"key":"03","name":"Niedersachsen"}},{"name":"Achterhoek","postalCode":"27777","locality":"Ganderkesee","municipality":{"key":"03458005","name":"Ganderkesee","type":"Kreisangehörige_Gemeinde"},"district":{"key":"03458","name":"Oldenburg","type":"Landkreis"},"federalState":{"key":"03","name":"Niedersachsen"}},{"name":"Achterkamp","postalCode":"27777","locality":"Ganderkesee","municipality":{"key":"03458005","name":"Ganderkesee","type":"Kreisangehörige_Gemeinde"},"district":{"key":"03458","name":"Oldenburg","type":"Landkreis"},"federalState":{"key":"03","name":"Niedersachsen"}},{"name":"Achternstr.","postalCode":"27777","locality":"Ganderkesee","municipality":{"key":"03458005","name":"Ganderkesee","type":"Kreisangehörige_Gemeinde"},"district":{"key":"03458","name":"Oldenburg","type":"Landkreis"},"federalState":{"key":"03","name":"Niedersachsen"}},{"name":"Adelheider Str.","postalCode":"27777","locality":"Ganderkesee","municipality":{"key":"03458005","name":"Ganderkesee","type":"Kreisangehörige_Gemeinde"},"district":{"key":"03458","name":"Oldenburg","type":"Landkreis"},"federalState":{"key":"03","name":"Niedersachsen"}},{"name":"Agnes-Miegel-Str.","postalCode":"27777","locality":"Ganderkesee","municipality":{"key":"03458005","name":"Ganderkesee","type":"Kreisangehörige_Gemeinde"},"district":{"key":"03458","name":"Oldenburg","type":"Landkreis"},"federalState":{"key":"03","name":"Niedersachsen"}},{"name":"Ahnbeker Ring","postalCode":"27777","locality":"Ganderkesee","municipality":{"key":"03458005","name":"Ganderkesee","type":"Kreisangehörige_Gemeinde"},"district":{"key":"03458","name":"Oldenburg","type":"Landkreis"},"federalState":{"key":"03","name":"Niedersachsen"}},{"name":"Ahnbeker Weg","postalCode":"27777","locality":"Ganderkesee","municipality":{"key":"03458005","name":"Ganderkesee","type":"Kreisangehörige_Gemeinde"},"district":{"key":"03458","name":"Oldenburg","type":"Landkreis"},"federalState":{"key":"03","name":"Niedersachsen"}},{"name":"Ahornstr.","postalCode":"27777","locality":"Ganderkesee","municipality":{"key":"03458005","name":"Ganderkesee","type":"Kreisangehörige_Gemeinde"},"district":{"key":"03458","name":"Oldenburg","type":"Landkreis"},"federalState":{"key":"03","name":"Niedersachsen"}},{"name":"Ahrenshagen","postalCode":"27777","locality":"Ganderkesee","municipality":{"key":"03458005","name":"Ganderkesee","type":"Kreisangehörige_Gemeinde"},"district":{"key":"03458","name":"Oldenburg","type":"Landkreis"},"federalState":{"key":"03","name":"Niedersachsen"}},{"name":"Akazienstr.","postalCode":"27777","locality":"Ganderkesee","municipality":{"key":"03458005","name":"Ganderkesee","type":"Kreisangehörige_Gemeinde"},"district":{"key":"03458","name":"Oldenburg","type":"Landkreis"},"federalState":{"key":"03","name":"Niedersachsen"}},{"name":"Albert-Schweitzer-Weg","postalCode":"27777","locality":"Ganderkesee","municipality":{"key":"03458005","name":"Ganderkesee","type":"Kreisangehörige_Gemeinde"},"district":{"key":"03458","name":"Oldenburg","type":"Landkreis"},"federalState":{"key":"03","name":"Niedersachsen"}},{"name":"Allensteiner Weg","postalCode":"27777","locality":"Ganderkesee","municipality":{"key":"03458005","name":"Ganderkesee","type":"Kreisangehörige_Gemeinde"},"district":{"key":"03458","name":"Oldenburg","type":"Landkreis"},"federalState":{"key":"03","name":"Niedersachsen"}},{"name":"Alma-Rogge-Str.","postalCode":"27777","locality":"Ganderkesee","municipality":{"key":"03458005","name":"Ganderkesee","type":"Kreisangehörige_Gemeinde"},"district":{"key":"03458","name":"Oldenburg","type":"Landkreis"},"federalState":{"key":"03","name":"Niedersachsen"}},{"name":"Almsloher Dorfstr.","postalCode":"27777","locality":"Ganderkesee","municipality":{"key":"03458005","name":"Ganderkesee","type":"Kreisangehörige_Gemeinde"},"district":{"key":"03458","name":"Oldenburg","type":"Landkreis"},"federalState":{"key":"03","name":"Niedersachsen"}},{"name":"Almsloher Str.","postalCode":"27777","locality":"Ganderkesee","municipality":{"key":"03458005","name":"Ganderkesee","type":"Kreisangehörige_Gemeinde"},"district":{"key":"03458","name":"Oldenburg","type":"Landkreis"},"federalState":{"key":"03","name":"Niedersachsen"}},{"name":"Alte Allee","postalCode":"27777","locality":"Ganderkesee","municipality":{"key":"03458005","name":"Ganderkesee","type":"Kreisangehörige_Gemeinde"},"district":{"key":"03458","name":"Oldenburg","type":"Landkreis"},"federalState":{"key":"03","name":"Niedersachsen"}},{"name":"Alte Dorfstr.","postalCode":"27777","locality":"Ganderkesee","municipality":{"key":"03458005","name":"Ganderkesee","type":"Kreisangehörige_Gemeinde"},"district":{"key":"03458","name":"Oldenburg","type":"Landkreis"},"federalState":{"key":"03","name":"Niedersachsen"}},{"name":"Alter Postweg","postalCode":"27777","locality":"Ganderkesee","municipality":{"key":"03458005","name":"Ganderkesee","type":"Kreisangehörige_Gemeinde"},"district":{"key":"03458","name":"Oldenburg","type":"Landkreis"},"federalState":{"key":"03","name":"Niedersachsen"}},{"name":"Alter Wehrgraben","postalCode":"27777","locality":"Ganderkesee","municipality":{"key":"03458005","name":"Ganderkesee","type":"Kreisangehörige_Gemeinde"},"district":{"key":"03458","name":"Oldenburg","type":"Landkreis"},"federalState":{"key":"03","name":"Niedersachsen"}},{"name":"Alte Siedlung","postalCode":"27777","locality":"Ganderkesee","municipality":{"key":"03458005","name":"Ganderkesee","type":"Kreisangehörige_Gemeinde"},"district":{"key":"03458","name":"Oldenburg","type":"Landkreis"},"federalState":{"key":"03","name":"Niedersachsen"}},{"name":"Am Acker","postalCode":"27777","locality":"Ganderkesee","municipality":{"key":"03458005","name":"Ganderkesee","type":"Kreisangehörige_Gemeinde"},"district":{"key":"03458","name":"Oldenburg","type":"Landkreis"},"federalState":{"key":"03","name":"Niedersachsen"}},{"name":"Am Alten Kloster","postalCode":"27777","locality":"Ganderkesee","municipality":{"key":"03458005","name":"Ganderkesee","type":"Kreisangehörige_Gemeinde"},"district":{"key":"03458","name":"Oldenburg","type":"Landkreis"},"federalState":{"key":"03","name":"Niedersachsen"}},{"name":"Am Alten Schützenhof","postalCode":"27777","locality":"Ganderkesee","municipality":{"key":"03458005","name":"Ganderkesee","type":"Kreisangehörige_Gemeinde"},"district":{"key":"03458","name":"Oldenburg","type":"Landkreis"},"federalState":{"key":"03","name":"Niedersachsen"}},{"name":"Am Bienenschauer","postalCode":"27777","locality":"Ganderkesee","municipality":{"key":"03458005","name":"Ganderkesee","type":"Kreisangehörige_Gemeinde"},"district":{"key":"03458","name":"Oldenburg","type":"Landkreis"},"federalState":{"key":"03","name":"Niedersachsen"}},{"name":"Am Bookholzberg","postalCode":"27777","locality":"Ganderkesee","municipality":{"key":"03458005","name":"Ganderkesee","type":"Kreisangehörige_Gemeinde"},"district":{"key":"03458","name":"Oldenburg","type":"Landkreis"},"federalState":{"key":"03","name":"Niedersachsen"}},{"name":"Am Dorfrand","postalCode":"27777","locality":"Ganderkesee","municipality":{"key":"03458005","name":"Ganderkesee","type":"Kreisangehörige_Gemeinde"},"district":{"key":"03458","name":"Oldenburg","type":"Landkreis"},"federalState":{"key":"03","name":"Niedersachsen"}},{"name":"Am Eckerkamp","postalCode":"27777","locality":"Ganderkesee","municipality":{"key":"03458005","name":"Ganderkesee","type":"Kreisangehörige_Gemeinde"},"district":{"key":"03458","name":"Oldenburg","type":"Landkreis"},"federalState":{"key":"03","name":"Niedersachsen"}},{"name":"Am Geestrand","postalCode":"27777","locality":"Ganderkesee","municipality":{"key":"03458005","name":"Ganderkesee","type":"Kreisangehörige_Gemeinde"},"district":{"key":"03458","name":"Oldenburg","type":"Landkreis"},"federalState":{"key":"03","name":"Niedersachsen"}},{"name":"Am Gerichtsfelde","postalCode":"27777","locality":"Ganderkesee","municipality":{"key":"03458005","name":"Ganderkesee","type":"Kreisangehörige_Gemeinde"},"district":{"key":"03458","name":"Oldenburg","type":"Landkreis"},"federalState":{"key":"03","name":"Niedersachsen"}},{"name":"Am Glockenstein","postalCode":"27777","locality":"Ganderkesee","municipality":{"key":"03458005","name":"Ganderkesee","type":"Kreisangehörige_Gemeinde"},"district":{"key":"03458","name":"Oldenburg","type":"Landkreis"},"federalState":{"key":"03","name":"Niedersachsen"}},{"name":"Am Hackkamp","postalCode":"27777","locality":"Ganderkesee","municipality":{"key":"03458005","name":"Ganderkesee","type":"Kreisangehörige_Gemeinde"},"district":{"key":"03458","name":"Oldenburg","type":"Landkreis"},"federalState":{"key":"03","name":"Niedersachsen"}},{"name":"Am Hagen","postalCode":"27777","locality":"Ganderkesee","municipality":{"key":"03458005","name":"Ganderkesee","type":"Kreisangehörige_Gemeinde"},"district":{"key":"03458","name":"Oldenburg","type":"Landkreis"},"federalState":{"key":"03","name":"Niedersachsen"}},{"name":"Am Heidberg","postalCode":"27777","locality":"Ganderkesee","municipality":{"key":"03458005","name":"Ganderkesee","type":"Kreisangehörige_Gemeinde"},"district":{"key":"03458","name":"Oldenburg","type":"Landkreis"},"federalState":{"key":"03","name":"Niedersachsen"}},{"name":"Am Heidenwall","postalCode":"27777","locality":"Ganderkesee","municipality":{"key":"03458005","name":"Ganderkesee","type":"Kreisangehörige_Gemeinde"},"district":{"key":"03458","name":"Oldenburg","type":"Landkreis"},"federalState":{"key":"03","name":"Niedersachsen"}},{"name":"Am Hexenberg","postalCode":"27777","locality":"Ganderkesee","municipality":{"key":"03458005","name":"Ganderkesee","type":"Kreisangehörige_Gemeinde"},"district":{"key":"03458","name":"Oldenburg","type":"Landkreis"},"federalState":{"key":"03","name":"Niedersachsen"}},{"name":"Am Holz","postalCode":"27777","locality":"Ganderkesee","municipality":{"key":"03458005","name":"Ganderkesee","type":"Kreisangehörige_Gemeinde"},"district":{"key":"03458","name":"Oldenburg","type":"Landkreis"},"federalState":{"key":"03","name":"Niedersachsen"}},{"name":"Am Hünengrab","postalCode":"27777","locality":"Ganderkesee","municipality":{"key":"03458005","name":"Ganderkesee","type":"Kreisangehörige_Gemeinde"},"district":{"key":"03458","name":"Oldenburg","type":"Landkreis"},"federalState":{"key":"03","name":"Niedersachsen"}},{"name":"Am Jugendhof","postalCode":"27777","locality":"Ganderkesee","municipality":{"key":"03458005","name":"Ganderkesee","type":"Kreisangehörige_Gemeinde"},"district":{"key":"03458","name":"Oldenburg","type":"Landkreis"},"federalState":{"key":"03","name":"Niedersachsen"}},{"name":"Am Kamp","postalCode":"27777","locality":"Ganderkesee","municipality":{"key":"03458005","name":"Ganderkesee","type":"Kreisangehörige_Gemeinde"},"district":{"key":"03458","name":"Oldenburg","type":"Landkreis"},"federalState":{"key":"03","name":"Niedersachsen"}},{"name":"Am Kamphusmoor","postalCode":"27777","locality":"Ganderkesee","municipality":{"key":"03458005","name":"Ganderkesee","type":"Kreisangehörige_Gemeinde"},"district":{"key":"03458","name":"Oldenburg","type":"Landkreis"},"federalState":{"key":"03","name":"Niedersachsen"}},{"name":"Am Kronenschlatt","postalCode":"27777","locality":"Ganderkesee","municipality":{"key":"03458005","name":"Ganderkesee","type":"Kreisangehörige_Gemeinde"},"district":{"key":"03458","name":"Oldenburg","type":"Landkreis"},"federalState":{"key":"03","name":"Niedersachsen"}},{"name":"Am Kurpark","postalCode":"27777","locality":"Ganderkesee","municipality":{"key":"03458005","name":"Ganderkesee","type":"Kreisangehörige_Gemeinde"},"district":{"key":"03458","name":"Oldenburg","type":"Landkreis"},"federalState":{"key":"03","name":"Niedersachsen"}},{"name":"Am Langenkamp","postalCode":"27777","locality":"Ganderkesee","municipality":{"key":"03458005","name":"Ganderkesee","type":"Kreisangehörige_Gemeinde"},"district":{"key":"03458","name":"Oldenburg","type":"Landkreis"},"federalState":{"key":"03","name":"Niedersachsen"}},{"name":"Am Leeschen","postalCode":"27777","locality":"Ganderkesee","municipality":{"key":"03458005","name":"Ganderkesee","type":"Kreisangehörige_Gemeinde"},"district":{"key":"03458","name":"Oldenburg","type":"Landkreis"},"federalState":{"key":"03","name":"Niedersachsen"}},{"name":"Am Lindenhoff","postalCode":"27777","locality":"Ganderkesee","municipality":{"key":"03458005","name":"Ganderkesee","type":"Kreisangehörige_Gemeinde"},"district":{"key":"03458","name":"Oldenburg","type":"Landkreis"},"federalState":{"key":"03","name":"Niedersachsen"}},{"name":"Am Löschteich","postalCode":"27777","locality":"Ganderkesee","municipality":{"key":"03458005","name":"Ganderkesee","type":"Kreisangehörige_Gemeinde"},"district":{"key":"03458","name":"Oldenburg","type":"Landkreis"},"federalState":{"key":"03","name":"Niedersachsen"}},{"name":"Ammerweg","postalCode":"27777","locality":"Ganderkesee","municipality":{"key":"03458005","name":"Ganderkesee","type":"Kreisangehörige_Gemeinde"},"district":{"key":"03458","name":"Oldenburg","type":"Landkreis"},"federalState":{"key":"03","name":"Niedersachsen"}},{"name":"Am Ohlande","postalCode":"27777","locality":"Ganderkesee","municipality":{"key":"03458005","name":"Ganderkesee","type":"Kreisangehörige_Gemeinde"},"district":{"key":"03458","name":"Oldenburg","type":"Landkreis"},"federalState":{"key":"03","name":"Niedersachsen"}},{"name":"Am Över","postalCode":"27777","locality":"Ganderkesee","municipality":{"key":"03458005","name":"Ganderkesee","type":"Kreisangehörige_Gemeinde"},"district":{"key":"03458","name":"Oldenburg","type":"Landkreis"},"federalState":{"key":"03","name":"Niedersachsen"}},{"name":"Am Poggenpohl","postalCode":"27777","locality":"Ganderkesee","municipality":{"key":"03458005","name":"Ganderkesee","type":"Kreisangehörige_Gemeinde"},"district":{"key":"03458","name":"Oldenburg","type":"Landkreis"},"federalState":{"key":"03","name":"Niedersachsen"}},{"name":"Bachstelzenweg","postalCode":"27777","locality":"Ganderkesee","municipality":{"key":"03458005","name":"Ganderkesee","type":"Kreisangehörige_Gemeinde"},"district":{"key":"03458","name":"Oldenburg","type":"Landkreis"},"federalState":{"key":"03","name":"Niedersachsen"}},{"name":"Bachstr.","postalCode":"27777","locality":"Ganderkesee","municipality":{"key":"03458005","name":"Ganderkesee","type":"Kreisangehörige_Gemeinde"},"district":{"key":"03458","name":"Oldenburg","type":"Landkreis"},"federalState":{"key":"03","name":"Niedersachsen"}},{"name":"Bahnhofstr.","postalCode":"27777","locality":"Ganderkesee","municipality":{"key":"03458005","name":"Ganderkesee","type":"Kreisangehörige_Gemeinde"},"district":{"key":"03458","name":"Oldenburg","type":"Landkreis"},"federalState":{"key":"03","name":"Niedersachsen"}},{"name":"Bargup","postalCode":"27777","locality":"Ganderkesee","municipality":{"key":"03458005","name":"Ganderkesee","type":"Kreisangehörige_Gemeinde"},"district":{"key":"03458","name":"Oldenburg","type":"Landkreis"},"federalState":{"key":"03","name":"Niedersachsen"}},{"name":"Bassumer Weg","postalCode":"27777","locality":"Ganderkesee","municipality":{"key":"03458005","name":"Ganderkesee","type":"Kreisangehörige_Gemeinde"},"district":{"key":"03458","name":"Oldenburg","type":"Landkreis"},"federalState":{"key":"03","name":"Niedersachsen"}},{"name":"Baumstr.","postalCode":"27777","locality":"Ganderkesee","municipality":{"key":"03458005","name":"Ganderkesee","type":"Kreisangehörige_Gemeinde"},"district":{"key":"03458","name":"Oldenburg","type":"Landkreis"},"federalState":{"key":"03","name":"Niedersachsen"}},{"name":"Beerenweg","postalCode":"27777","locality":"Ganderkesee","municipality":{"key":"03458005","name":"Ganderkesee","type":"Kreisangehörige_Gemeinde"},"district":{"key":"03458","name":"Oldenburg","type":"Landkreis"},"federalState":{"key":"03","name":"Niedersachsen"}},{"name":"Beethovenstr.","postalCode":"27777","locality":"Ganderkesee","municipality":{"key":"03458005","name":"Ganderkesee","type":"Kreisangehörige_Gemeinde"},"district":{"key":"03458","name":"Oldenburg","type":"Landkreis"},"federalState":{"key":"03","name":"Niedersachsen"}},{"name":"Bei den Großen Steinen","postalCode":"27777","locality":"Ganderkesee","municipality":{"key":"03458005","name":"Ganderkesee","type":"Kreisangehörige_Gemeinde"},"district":{"key":"03458","name":"Oldenburg","type":"Landkreis"},"federalState":{"key":"03","name":"Niedersachsen"}},{"name":"Bei den Heidplacken","postalCode":"27777","locality":"Ganderkesee","municipality":{"key":"03458005","name":"Ganderkesee","type":"Kreisangehörige_Gemeinde"},"district":{"key":"03458","name":"Oldenburg","type":"Landkreis"},"federalState":{"key":"03","name":"Niedersachsen"}},{"name":"Bei den Imhöfen","postalCode":"27777","locality":"Ganderkesee","municipality":{"key":"03458005","name":"Ganderkesee","type":"Kreisangehörige_Gemeinde"},"district":{"key":"03458","name":"Oldenburg","type":"Landkreis"},"federalState":{"key":"03","name":"Niedersachsen"}},{"name":"Beim Achterbrook","postalCode":"27777","locality":"Ganderkesee","municipality":{"key":"03458005","name":"Ganderkesee","type":"Kreisangehörige_Gemeinde"},"district":{"key":"03458","name":"Oldenburg","type":"Landkreis"},"federalState":{"key":"03","name":"Niedersachsen"}},{"name":"Beim Angel","postalCode":"27777","locality":"Ganderkesee","municipality":{"key":"03458005","name":"Ganderkesee","type":"Kreisangehörige_Gemeinde"},"district":{"key":"03458","name":"Oldenburg","type":"Landkreis"},"federalState":{"key":"03","name":"Niedersachsen"}},{"name":"Bergedorfer Landstr.","postalCode":"27777","locality":"Ganderkesee","municipality":{"key":"03458005","name":"Ganderkesee","type":"Kreisangehörige_Gemeinde"},"district":{"key":"03458","name":"Oldenburg","type":"Landkreis"},"federalState":{"key":"03","name":"Niedersachsen"}},{"name":"Bergedorfer Str.","postalCode":"27777","locality":"Ganderkesee","municipality":{"key":"03458005","name":"Ganderkesee","type":"Kreisangehörige_Gemeinde"},"district":{"key":"03458","name":"Oldenburg","type":"Landkreis"},"federalState":{"key":"03","name":"Niedersachsen"}},{"name":"Bergweg","postalCode":"27777","locality":"Ganderkesee","municipality":{"key":"03458005","name":"Ganderkesee","type":"Kreisangehörige_Gemeinde"},"district":{"key":"03458","name":"Oldenburg","type":"Landkreis"},"federalState":{"key":"03","name":"Niedersachsen"}},{"name":"Bernhard-Winter-Str.","postalCode":"27777","locality":"Ganderkesee","municipality":{"key":"03458005","name":"Ganderkesee","type":"Kreisangehörige_Gemeinde"},"district":{"key":"03458","name":"Oldenburg","type":"Landkreis"},"federalState":{"key":"03","name":"Niedersachsen"}},{"name":"Biberweg","postalCode":"27777","locality":"Ganderkesee","municipality":{"key":"03458005","name":"Ganderkesee","type":"Kreisangehörige_Gemeinde"},"district":{"key":"03458","name":"Oldenburg","type":"Landkreis"},"federalState":{"key":"03","name":"Niedersachsen"}},{"name":"Bieresch","postalCode":"27777","locality":"Ganderkesee","municipality":{"key":"03458005","name":"Ganderkesee","type":"Kreisangehörige_Gemeinde"},"district":{"key":"03458","name":"Oldenburg","type":"Landkreis"},"federalState":{"key":"03","name":"Niedersachsen"}},{"name":"Binsenweg","postalCode":"27777","locality":"Ganderkesee","municipality":{"key":"03458005","name":"Ganderkesee","type":"Kreisangehörige_Gemeinde"},"district":{"key":"03458","name":"Oldenburg","type":"Landkreis"},"federalState":{"key":"03","name":"Niedersachsen"}},{"name":"Birkenallee","postalCode":"27777","locality":"Ganderkesee","municipality":{"key":"03458005","name":"Ganderkesee","type":"Kreisangehörige_Gemeinde"},"district":{"key":"03458","name":"Oldenburg","type":"Landkreis"},"federalState":{"key":"03","name":"Niedersachsen"}},{"name":"Birkenheider Str.","postalCode":"27777","locality":"Ganderkesee","municipality":{"key":"03458005","name":"Ganderkesee","type":"Kreisangehörige_Gemeinde"},"district":{"key":"03458","name":"Oldenburg","type":"Landkreis"},"federalState":{"key":"03","name":"Niedersachsen"}},{"name":"Birkenweg","postalCode":"27777","locality":"Ganderkesee","municipality":{"key":"03458005","name":"Ganderkesee","type":"Kreisangehörige_Gemeinde"},"district":{"key":"03458","name":"Oldenburg","type":"Landkreis"},"federalState":{"key":"03","name":"Niedersachsen"}},{"name":"Bissener Weg","postalCode":"27777","locality":"Ganderkesee","municipality":{"key":"03458005","name":"Ganderkesee","type":"Kreisangehörige_Gemeinde"},"district":{"key":"03458","name":"Oldenburg","type":"Landkreis"},"federalState":{"key":"03","name":"Niedersachsen"}},{"name":"Blumenstr.","postalCode":"27777","locality":"Ganderkesee","municipality":{"key":"03458005","name":"Ganderkesee","type":"Kreisangehörige_Gemeinde"},"district":{"key":"03458","name":"Oldenburg","type":"Landkreis"},"federalState":{"key":"03","name":"Niedersachsen"}},{"name":"Boddensbrok","postalCode":"27777","locality":"Ganderkesee","municipality":{"key":"03458005","name":"Ganderkesee","type":"Kreisangehörige_Gemeinde"},"district":{"key":"03458","name":"Oldenburg","type":"Landkreis"},"federalState":{"key":"03","name":"Niedersachsen"}},{"name":"Bogenweg","postalCode":"27777","locality":"Ganderkesee","municipality":{"key":"03458005","name":"Ganderkesee","type":"Kreisangehörige_Gemeinde"},"district":{"key":"03458","name":"Oldenburg","type":"Landkreis"},"federalState":{"key":"03","name":"Niedersachsen"}},{"name":"Bökenbusch","postalCode":"27777","locality":"Ganderkesee","municipality":{"key":"03458005","name":"Ganderkesee","type":"Kreisangehörige_Gemeinde"},"district":{"key":"03458","name":"Oldenburg","type":"Landkreis"},"federalState":{"key":"03","name":"Niedersachsen"}},{"name":"Bookhorner Weg","postalCode":"27777","locality":"Ganderkesee","municipality":{"key":"03458005","name":"Ganderkesee","type":"Kreisangehörige_Gemeinde"},"district":{"key":"03458","name":"Oldenburg","type":"Landkreis"},"federalState":{"key":"03","name":"Niedersachsen"}},{"name":"Bookhorner Wiesen","postalCode":"27777","locality":"Ganderkesee","municipality":{"key":"03458005","name":"Ganderkesee","type":"Kreisangehörige_Gemeinde"},"district":{"key":"03458","name":"Oldenburg","type":"Landkreis"},"federalState":{"key":"03","name":"Niedersachsen"}},{"name":"Boschenweg","postalCode":"27777","locality":"Ganderkesee","municipality":{"key":"03458005","name":"Ganderkesee","type":"Kreisangehörige_Gemeinde"},"district":{"key":"03458","name":"Oldenburg","type":"Landkreis"},"federalState":{"key":"03","name":"Niedersachsen"}},{"name":"Brahmregte","postalCode":"27777","locality":"Ganderkesee","municipality":{"key":"03458005","name":"Ganderkesee","type":"Kreisangehörige_Gemeinde"},"district":{"key":"03458","name":"Oldenburg","type":"Landkreis"},"federalState":{"key":"03","name":"Niedersachsen"}},{"name":"Brahmsstr.","postalCode":"27777","locality":"Ganderkesee","municipality":{"key":"03458005","name":"Ganderkesee","type":"Kreisangehörige_Gemeinde"},"district":{"key":"03458","name":"Oldenburg","type":"Landkreis"},"federalState":{"key":"03","name":"Niedersachsen"}},{"name":"Bramkampsweg","postalCode":"27777","locality":"Ganderkesee","municipality":{"key":"03458005","name":"Ganderkesee","type":"Kreisangehörige_Gemeinde"},"district":{"key":"03458","name":"Oldenburg","type":"Landkreis"},"federalState":{"key":"03","name":"Niedersachsen"}},{"name":"Brandewurth","postalCode":"27777","locality":"Ganderkesee","municipality":{"key":"03458005","name":"Ganderkesee","type":"Kreisangehörige_Gemeinde"},"district":{"key":"03458","name":"Oldenburg","type":"Landkreis"},"federalState":{"key":"03","name":"Niedersachsen"}},{"name":"Bremer Weg","postalCode":"27777","locality":"Ganderkesee","municipality":{"key":"03458005","name":"Ganderkesee","type":"Kreisangehörige_Gemeinde"},"district":{"key":"03458","name":"Oldenburg","type":"Landkreis"},"federalState":{"key":"03","name":"Niedersachsen"}},{"name":"Breslauer Weg","postalCode":"27777","locality":"Ganderkesee","municipality":{"key":"03458005","name":"Ganderkesee","type":"Kreisangehörige_Gemeinde"},"district":{"key":"03458","name":"Oldenburg","type":"Landkreis"},"federalState":{"key":"03","name":"Niedersachsen"}},{"name":"Brinkfuhren","postalCode":"27777","locality":"Ganderkesee","municipality":{"key":"03458005","name":"Ganderkesee","type":"Kreisangehörige_Gemeinde"},"district":{"key":"03458","name":"Oldenburg","type":"Landkreis"},"federalState":{"key":"03","name":"Niedersachsen"}},{"name":"Brombeerweg","postalCode":"27777","locality":"Ganderkesee","municipality":{"key":"03458005","name":"Ganderkesee","type":"Kreisangehörige_Gemeinde"},"district":{"key":"03458","name":"Oldenburg","type":"Landkreis"},"federalState":{"key":"03","name":"Niedersachsen"}},{"name":"Brookdamm","postalCode":"27777","locality":"Ganderkesee","municipality":{"key":"03458005","name":"Ganderkesee","type":"Kreisangehörige_Gemeinde"},"district":{"key":"03458","name":"Oldenburg","type":"Landkreis"},"federalState":{"key":"03","name":"Niedersachsen"}},{"name":"Brookkamp","postalCode":"27777","locality":"Ganderkesee","municipality":{"key":"03458005","name":"Ganderkesee","type":"Kreisangehörige_Gemeinde"},"district":{"key":"03458","name":"Oldenburg","type":"Landkreis"},"federalState":{"key":"03","name":"Niedersachsen"}},{"name":"Brookweg","postalCode":"27777","locality":"Ganderkesee","municipality":{"key":"03458005","name":"Ganderkesee","type":"Kreisangehörige_Gemeinde"},"district":{"key":"03458","name":"Oldenburg","type":"Landkreis"},"federalState":{"key":"03","name":"Niedersachsen"}},{"name":"Brummelhoop","postalCode":"27777","locality":"Ganderkesee","municipality":{"key":"03458005","name":"Ganderkesee","type":"Kreisangehörige_Gemeinde"},"district":{"key":"03458","name":"Oldenburg","type":"Landkreis"},"federalState":{"key":"03","name":"Niedersachsen"}},{"name":"Brüninger Weg","postalCode":"27777","locality":"Ganderkesee","municipality":{"key":"03458005","name":"Ganderkesee","type":"Kreisangehörige_Gemeinde"},"district":{"key":"03458","name":"Oldenburg","type":"Landkreis"},"federalState":{"key":"03","name":"Niedersachsen"}},{"name":"Buchenstr.","postalCode":"27777","locality":"Ganderkesee","municipality":{"key":"03458005","name":"Ganderkesee","type":"Kreisangehörige_Gemeinde"},"district":{"key":"03458","name":"Oldenburg","type":"Landkreis"},"federalState":{"key":"03","name":"Niedersachsen"}},{"name":"Buchsbaumweg","postalCode":"27777","locality":"Ganderkesee","municipality":{"key":"03458005","name":"Ganderkesee","type":"Kreisangehörige_Gemeinde"},"district":{"key":"03458","name":"Oldenburg","type":"Landkreis"},"federalState":{"key":"03","name":"Niedersachsen"}},{"name":"Bülterei","postalCode":"27777","locality":"Ganderkesee","municipality":{"key":"03458005","name":"Ganderkesee","type":"Kreisangehörige_Gemeinde"},"district":{"key":"03458","name":"Oldenburg","type":"Landkreis"},"federalState":{"key":"03","name":"Niedersachsen"}},{"name":"Burgstr.","postalCode":"27777","locality":"Ganderkesee","municipality":{"key":"03458005","name":"Ganderkesee","type":"Kreisangehörige_Gemeinde"},"district":{"key":"03458","name":"Oldenburg","type":"Landkreis"},"federalState":{"key":"03","name":"Niedersachsen"}},{"name":"Bürsteler Str.","postalCode":"27777","locality":"Ganderkesee","municipality":{"key":"03458005","name":"Ganderkesee","type":"Kreisangehörige_Gemeinde"},"district":{"key":"03458","name":"Oldenburg","type":"Landkreis"},"federalState":{"key":"03","name":"Niedersachsen"}},{"name":"Buschmannsweg","postalCode":"27777","locality":"Ganderkesee","municipality":{"key":"03458005","name":"Ganderkesee","type":"Kreisangehörige_Gemeinde"},"district":{"key":"03458","name":"Oldenburg","type":"Landkreis"},"federalState":{"key":"03","name":"Niedersachsen"}},{"name":"Charlottenweg","postalCode":"27777","locality":"Ganderkesee","municipality":{"key":"03458005","name":"Ganderkesee","type":"Kreisangehörige_Gemeinde"},"district":{"key":"03458","name":"Oldenburg","type":"Landkreis"},"federalState":{"key":"03","name":"Niedersachsen"}},{"name":"Cranachstr.","postalCode":"27777","locality":"Ganderkesee","municipality":{"key":"03458005","name":"Ganderkesee","type":"Kreisangehörige_Gemeinde"},"district":{"key":"03458","name":"Oldenburg","type":"Landkreis"},"federalState":{"key":"03","name":"Niedersachsen"}},{"name":"Dachsweg","postalCode":"27777","locality":"Ganderkesee","municipality":{"key":"03458005","name":"Ganderkesee","type":"Kreisangehörige_Gemeinde"},"district":{"key":"03458","name":"Oldenburg","type":"Landkreis"},"federalState":{"key":"03","name":"Niedersachsen"}},{"name":"Dahlienweg","postalCode":"27777","locality":"Ganderkesee","municipality":{"key":"03458005","name":"Ganderkesee","type":"Kreisangehörige_Gemeinde"},"district":{"key":"03458","name":"Oldenburg","type":"Landkreis"},"federalState":{"key":"03","name":"Niedersachsen"}},{"name":"Danziger Str.","postalCode":"27777","locality":"Ganderkesee","municipality":{"key":"03458005","name":"Ganderkesee","type":"Kreisangehörige_Gemeinde"},"district":{"key":"03458","name":"Oldenburg","type":"Landkreis"},"federalState":{"key":"03","name":"Niedersachsen"}},{"name":"Deelkamp","postalCode":"27777","locality":"Ganderkesee","municipality":{"key":"03458005","name":"Ganderkesee","type":"Kreisangehörige_Gemeinde"},"district":{"key":"03458","name":"Oldenburg","type":"Landkreis"},"federalState":{"key":"03","name":"Niedersachsen"}},{"name":"Dehlthuner Str.","postalCode":"27777","locality":"Ganderkesee","municipality":{"key":"03458005","name":"Ganderkesee","type":"Kreisangehörige_Gemeinde"},"district":{"key":"03458","name":"Oldenburg","type":"Landkreis"},"federalState":{"key":"03","name":"Niedersachsen"}},{"name":"Deichhauser Weg","postalCode":"27777","locality":"Ganderkesee","municipality":{"key":"03458005","name":"Ganderkesee","type":"Kreisangehörige_Gemeinde"},"district":{"key":"03458","name":"Oldenburg","type":"Landkreis"},"federalState":{"key":"03","name":"Niedersachsen"}},{"name":"Denkmalsweg","postalCode":"27777","locality":"Ganderkesee","municipality":{"key":"03458005","name":"Ganderkesee","type":"Kreisangehörige_Gemeinde"},"district":{"key":"03458","name":"Oldenburg","type":"Landkreis"},"federalState":{"key":"03","name":"Niedersachsen"}},{"name":"Dicke-Baum-Weg","postalCode":"27777","locality":"Ganderkesee","municipality":{"key":"03458005","name":"Ganderkesee","type":"Kreisangehörige_Gemeinde"},"district":{"key":"03458","name":"Oldenburg","type":"Landkreis"},"federalState":{"key":"03","name":"Niedersachsen"}},{"name":"Dobbenweg","postalCode":"27777","locality":"Ganderkesee","municipality":{"key":"03458005","name":"Ganderkesee","type":"Kreisangehörige_Gemeinde"},"district":{"key":"03458","name":"Oldenburg","type":"Landkreis"},"federalState":{"key":"03","name":"Niedersachsen"}},{"name":"Dompfaffweg","postalCode":"27777","locality":"Ganderkesee","municipality":{"key":"03458005","name":"Ganderkesee","type":"Kreisangehörige_Gemeinde"},"district":{"key":"03458","name":"Oldenburg","type":"Landkreis"},"federalState":{"key":"03","name":"Niedersachsen"}},{"name":"Donnermoor","postalCode":"27777","locality":"Ganderkesee","municipality":{"key":"03458005","name":"Ganderkesee","type":"Kreisangehörige_Gemeinde"},"district":{"key":"03458","name":"Oldenburg","type":"Landkreis"},"federalState":{"key":"03","name":"Niedersachsen"}},{"name":"Dorfring","postalCode":"27777","locality":"Ganderkesee","municipality":{"key":"03458005","name":"Ganderkesee","type":"Kreisangehörige_Gemeinde"},"district":{"key":"03458","name":"Oldenburg","type":"Landkreis"},"federalState":{"key":"03","name":"Niedersachsen"}},{"name":"Dorfstr.","postalCode":"27777","locality":"Ganderkesee","municipality":{"key":"03458005","name":"Ganderkesee","type":"Kreisangehörige_Gemeinde"},"district":{"key":"03458","name":"Oldenburg","type":"Landkreis"},"federalState":{"key":"03","name":"Niedersachsen"}},{"name":"Drannemanns Kamp","postalCode":"27777","locality":"Ganderkesee","municipality":{"key":"03458005","name":"Ganderkesee","type":"Kreisangehörige_Gemeinde"},"district":{"key":"03458","name":"Oldenburg","type":"Landkreis"},"federalState":{"key":"03","name":"Niedersachsen"}},{"name":"Dresdener Str.","postalCode":"27777","locality":"Ganderkesee","municipality":{"key":"03458005","name":"Ganderkesee","type":"Kreisangehörige_Gemeinde"},"district":{"key":"03458","name":"Oldenburg","type":"Landkreis"},"federalState":{"key":"03","name":"Niedersachsen"}},{"name":"Drosselweg","postalCode":"27777","locality":"Ganderkesee","municipality":{"key":"03458005","name":"Ganderkesee","type":"Kreisangehörige_Gemeinde"},"district":{"key":"03458","name":"Oldenburg","type":"Landkreis"},"federalState":{"key":"03","name":"Niedersachsen"}},{"name":"Droste-Hülshoff-Weg","postalCode":"27777","locality":"Ganderkesee","municipality":{"key":"03458005","name":"Ganderkesee","type":"Kreisangehörige_Gemeinde"},"district":{"key":"03458","name":"Oldenburg","type":"Landkreis"},"federalState":{"key":"03","name":"Niedersachsen"}},{"name":"Dürerstr.","postalCode":"27777","locality":"Ganderkesee","municipality":{"key":"03458005","name":"Ganderkesee","type":"Kreisangehörige_Gemeinde"},"district":{"key":"03458","name":"Oldenburg","type":"Landkreis"},"federalState":{"key":"03","name":"Niedersachsen"}},{"name":"Ebereschenweg","postalCode":"27777","locality":"Ganderkesee","municipality":{"key":"03458005","name":"Ganderkesee","type":"Kreisangehörige_Gemeinde"},"district":{"key":"03458","name":"Oldenburg","type":"Landkreis"},"federalState":{"key":"03","name":"Niedersachsen"}},{"name":"Efeuweg","postalCode":"27777","locality":"Ganderkesee","municipality":{"key":"03458005","name":"Ganderkesee","type":"Kreisangehörige_Gemeinde"},"district":{"key":"03458","name":"Oldenburg","type":"Landkreis"},"federalState":{"key":"03","name":"Niedersachsen"}},{"name":"Eibenstr.","postalCode":"27777","locality":"Ganderkesee","municipality":{"key":"03458005","name":"Ganderkesee","type":"Kreisangehörige_Gemeinde"},"district":{"key":"03458","name":"Oldenburg","type":"Landkreis"},"federalState":{"key":"03","name":"Niedersachsen"}},{"name":"Eichenallee","postalCode":"27777","locality":"Ganderkesee","municipality":{"key":"03458005","name":"Ganderkesee","type":"Kreisangehörige_Gemeinde"},"district":{"key":"03458","name":"Oldenburg","type":"Landkreis"},"federalState":{"key":"03","name":"Niedersachsen"}},{"name":"Eichenweg","postalCode":"27777","locality":"Ganderkesee","municipality":{"key":"03458005","name":"Ganderkesee","type":"Kreisangehörige_Gemeinde"},"district":{"key":"03458","name":"Oldenburg","type":"Landkreis"},"federalState":{"key":"03","name":"Niedersachsen"}},{"name":"Eichhörnchenweg","postalCode":"27777","locality":"Ganderkesee","municipality":{"key":"03458005","name":"Ganderkesee","type":"Kreisangehörige_Gemeinde"},"district":{"key":"03458","name":"Oldenburg","type":"Landkreis"},"federalState":{"key":"03","name":"Niedersachsen"}},{"name":"Elbinger Str.","postalCode":"27777","locality":"Ganderkesee","municipality":{"key":"03458005","name":"Ganderkesee","type":"Kreisangehörige_Gemeinde"},"district":{"key":"03458","name":"Oldenburg","type":"Landkreis"},"federalState":{"key":"03","name":"Niedersachsen"}},{"name":"Elise-Fink-Weg","postalCode":"27777","locality":"Ganderkesee","municipality":{"key":"03458005","name":"Ganderkesee","type":"Kreisangehörige_Gemeinde"},"district":{"key":"03458","name":"Oldenburg","type":"Landkreis"},"federalState":{"key":"03","name":"Niedersachsen"}},{"name":"Elly-Beinhorn-Str.","postalCode":"27777","locality":"Ganderkesee","municipality":{"key":"03458005","name":"Ganderkesee","type":"Kreisangehörige_Gemeinde"},"district":{"key":"03458","name":"Oldenburg","type":"Landkreis"},"federalState":{"key":"03","name":"Niedersachsen"}},{"name":"Elmeloher Str.","postalCode":"27777","locality":"Ganderkesee","municipality":{"key":"03458005","name":"Ganderkesee","type":"Kreisangehörige_Gemeinde"},"district":{"key":"03458","name":"Oldenburg","type":"Landkreis"},"federalState":{"key":"03","name":"Niedersachsen"}},{"name":"Elsa-Brandström-Str.","postalCode":"27777","locality":"Ganderkesee","municipality":{"key":"03458005","name":"Ganderkesee","type":"Kreisangehörige_Gemeinde"},"district":{"key":"03458","name":"Oldenburg","type":"Landkreis"},"federalState":{"key":"03","name":"Niedersachsen"}},{"name":"Elsternweg","postalCode":"27777","locality":"Ganderkesee","municipality":{"key":"03458005","name":"Ganderkesee","type":"Kreisangehörige_Gemeinde"},"district":{"key":"03458","name":"Oldenburg","type":"Landkreis"},"federalState":{"key":"03","name":"Niedersachsen"}},{"name":"Emil-Nolde-Str.","postalCode":"27777","locality":"Ganderkesee","municipality":{"key":"03458005","name":"Ganderkesee","type":"Kreisangehörige_Gemeinde"},"district":{"key":"03458","name":"Oldenburg","type":"Landkreis"},"federalState":{"key":"03","name":"Niedersachsen"}},{"name":"Erich-Kästner-Weg","postalCode":"27777","locality":"Ganderkesee","municipality":{"key":"03458005","name":"Ganderkesee","type":"Kreisangehörige_Gemeinde"},"district":{"key":"03458","name":"Oldenburg","type":"Landkreis"},"federalState":{"key":"03","name":"Niedersachsen"}},{"name":"Erikastr.","postalCode":"27777","locality":"Ganderkesee","municipality":{"key":"03458005","name":"Ganderkesee","type":"Kreisangehörige_Gemeinde"},"district":{"key":"03458","name":"Oldenburg","type":"Landkreis"},"federalState":{"key":"03","name":"Niedersachsen"}},{"name":"Erlenstr.","postalCode":"27777","locality":"Ganderkesee","municipality":{"key":"03458005","name":"Ganderkesee","type":"Kreisangehörige_Gemeinde"},"district":{"key":"03458","name":"Oldenburg","type":"Landkreis"},"federalState":{"key":"03","name":"Niedersachsen"}},{"name":"Eutiner Str.","postalCode":"27777","locality":"Ganderkesee","municipality":{"key":"03458005","name":"Ganderkesee","type":"Kreisangehörige_Gemeinde"},"district":{"key":"03458","name":"Oldenburg","type":"Landkreis"},"federalState":{"key":"03","name":"Niedersachsen"}},{"name":"Everndorf","postalCode":"27777","locality":"Ganderkesee","municipality":{"key":"03458005","name":"Ganderkesee","type":"Kreisangehörige_Gemeinde"},"district":{"key":"03458","name":"Oldenburg","type":"Landkreis"},"federalState":{"key":"03","name":"Niedersachsen"}},{"name":"Fahrener Weg","postalCode":"27777","locality":"Ganderkesee","municipality":{"key":"03458005","name":"Ganderkesee","type":"Kreisangehörige_Gemeinde"},"district":{"key":"03458","name":"Oldenburg","type":"Landkreis"},"federalState":{"key":"03","name":"Niedersachsen"}},{"name":"Falkenburger Weg","postalCode":"27777","locality":"Ganderkesee","municipality":{"key":"03458005","name":"Ganderkesee","type":"Kreisangehörige_Gemeinde"},"district":{"key":"03458","name":"Oldenburg","type":"Landkreis"},"federalState":{"key":"03","name":"Niedersachsen"}},{"name":"Falkenstr.","postalCode":"27777","locality":"Ganderkesee","municipality":{"key":"03458005","name":"Ganderkesee","type":"Kreisangehörige_Gemeinde"},"district":{"key":"03458","name":"Oldenburg","type":"Landkreis"},"federalState":{"key":"03","name":"Niedersachsen"}},{"name":"Falterweg","postalCode":"27777","locality":"Ganderkesee","municipality":{"key":"03458005","name":"Ganderkesee","type":"Kreisangehörige_Gemeinde"},"district":{"key":"03458","name":"Oldenburg","type":"Landkreis"},"federalState":{"key":"03","name":"Niedersachsen"}},{"name":"Fasanenweg","postalCode":"27777","locality":"Ganderkesee","municipality":{"key":"03458005","name":"Ganderkesee","type":"Kreisangehörige_Gemeinde"},"district":{"key":"03458","name":"Oldenburg","type":"Landkreis"},"federalState":{"key":"03","name":"Niedersachsen"}},{"name":"Feldweg","postalCode":"27777","locality":"Ganderkesee","municipality":{"key":"03458005","name":"Ganderkesee","type":"Kreisangehörige_Gemeinde"},"district":{"key":"03458","name":"Oldenburg","type":"Landkreis"},"federalState":{"key":"03","name":"Niedersachsen"}},{"name":"Fettenhenne","postalCode":"27777","locality":"Ganderkesee","municipality":{"key":"03458005","name":"Ganderkesee","type":"Kreisangehörige_Gemeinde"},"district":{"key":"03458","name":"Oldenburg","type":"Landkreis"},"federalState":{"key":"03","name":"Niedersachsen"}},{"name":"Feuerdornweg","postalCode":"27777","locality":"Ganderkesee","municipality":{"key":"03458005","name":"Ganderkesee","type":"Kreisangehörige_Gemeinde"},"district":{"key":"03458","name":"Oldenburg","type":"Landkreis"},"federalState":{"key":"03","name":"Niedersachsen"}},{"name":"Fichtenweg","postalCode":"27777","locality":"Ganderkesee","municipality":{"key":"03458005","name":"Ganderkesee","type":"Kreisangehörige_Gemeinde"},"district":{"key":"03458","name":"Oldenburg","type":"Landkreis"},"federalState":{"key":"03","name":"Niedersachsen"}},{"name":"Finkenweg","postalCode":"27777","locality":"Ganderkesee","municipality":{"key":"03458005","name":"Ganderkesee","type":"Kreisangehörige_Gemeinde"},"district":{"key":"03458","name":"Oldenburg","type":"Landkreis"},"federalState":{"key":"03","name":"Niedersachsen"}},{"name":"Fischbeckstr.","postalCode":"27777","locality":"Ganderkesee","municipality":{"key":"03458005","name":"Ganderkesee","type":"Kreisangehörige_Gemeinde"},"district":{"key":"03458","name":"Oldenburg","type":"Landkreis"},"federalState":{"key":"03","name":"Niedersachsen"}},{"name":"Fischstr.","postalCode":"27777","locality":"Ganderkesee","municipality":{"key":"03458005","name":"Ganderkesee","type":"Kreisangehörige_Gemeinde"},"district":{"key":"03458","name":"Oldenburg","type":"Landkreis"},"federalState":{"key":"03","name":"Niedersachsen"}},{"name":"Flechtenweg","postalCode":"27777","locality":"Ganderkesee","municipality":{"key":"03458005","name":"Ganderkesee","type":"Kreisangehörige_Gemeinde"},"district":{"key":"03458","name":"Oldenburg","type":"Landkreis"},"federalState":{"key":"03","name":"Niedersachsen"}},{"name":"Fleegenweg","postalCode":"27777","locality":"Ganderkesee","municipality":{"key":"03458005","name":"Ganderkesee","type":"Kreisangehörige_Gemeinde"},"district":{"key":"03458","name":"Oldenburg","type":"Landkreis"},"federalState":{"key":"03","name":"Niedersachsen"}},{"name":"Flensburger Str.","postalCode":"27777","locality":"Ganderkesee","municipality":{"key":"03458005","name":"Ganderkesee","type":"Kreisangehörige_Gemeinde"},"district":{"key":"03458","name":"Oldenburg","type":"Landkreis"},"federalState":{"key":"03","name":"Niedersachsen"}},{"name":"Fliederstr.","postalCode":"27777","locality":"Ganderkesee","municipality":{"key":"03458005","name":"Ganderkesee","type":"Kreisangehörige_Gemeinde"},"district":{"key":"03458","name":"Oldenburg","type":"Landkreis"},"federalState":{"key":"03","name":"Niedersachsen"}},{"name":"Fockestr.","postalCode":"27777","locality":"Ganderkesee","municipality":{"key":"03458005","name":"Ganderkesee","type":"Kreisangehörige_Gemeinde"},"district":{"key":"03458","name":"Oldenburg","type":"Landkreis"},"federalState":{"key":"03","name":"Niedersachsen"}},{"name":"Föhreneck","postalCode":"27777","locality":"Ganderkesee","municipality":{"key":"03458005","name":"Ganderkesee","type":"Kreisangehörige_Gemeinde"},"district":{"key":"03458","name":"Oldenburg","type":"Landkreis"},"federalState":{"key":"03","name":"Niedersachsen"}},{"name":"Forellenweg","postalCode":"27777","locality":"Ganderkesee","municipality":{"key":"03458005","name":"Ganderkesee","type":"Kreisangehörige_Gemeinde"},"district":{"key":"03458","name":"Oldenburg","type":"Landkreis"},"federalState":{"key":"03","name":"Niedersachsen"}},{"name":"Forstweg","postalCode":"27777","locality":"Ganderkesee","municipality":{"key":"03458005","name":"Ganderkesee","type":"Kreisangehörige_Gemeinde"},"district":{"key":"03458","name":"Oldenburg","type":"Landkreis"},"federalState":{"key":"03","name":"Niedersachsen"}},{"name":"Friedensweg","postalCode":"27777","locality":"Ganderkesee","municipality":{"key":"03458005","name":"Ganderkesee","type":"Kreisangehörige_Gemeinde"},"district":{"key":"03458","name":"Oldenburg","type":"Landkreis"},"federalState":{"key":"03","name":"Niedersachsen"}},{"name":"Friedlandstr.","postalCode":"27777","locality":"Ganderkesee","municipality":{"key":"03458005","name":"Ganderkesee","type":"Kreisangehörige_Gemeinde"},"district":{"key":"03458","name":"Oldenburg","type":"Landkreis"},"federalState":{"key":"03","name":"Niedersachsen"}},{"name":"Friedrich-Lange-Str.","postalCode":"27777","locality":"Ganderkesee","municipality":{"key":"03458005","name":"Ganderkesee","type":"Kreisangehörige_Gemeinde"},"district":{"key":"03458","name":"Oldenburg","type":"Landkreis"},"federalState":{"key":"03","name":"Niedersachsen"}},{"name":"Fritz-Reuter-Str.","postalCode":"27777","locality":"Ganderkesee","municipality":{"key":"03458005","name":"Ganderkesee","type":"Kreisangehörige_Gemeinde"},"district":{"key":"03458","name":"Oldenburg","type":"Landkreis"},"federalState":{"key":"03","name":"Niedersachsen"}},{"name":"Frühlingspadd","postalCode":"27777","locality":"Ganderkesee","municipality":{"key":"03458005","name":"Ganderkesee","type":"Kreisangehörige_Gemeinde"},"district":{"key":"03458","name":"Oldenburg","type":"Landkreis"},"federalState":{"key":"03","name":"Niedersachsen"}},{"name":"Furthstr.","postalCode":"27777","locality":"Ganderkesee","municipality":{"key":"03458005","name":"Ganderkesee","type":"Kreisangehörige_Gemeinde"},"district":{"key":"03458","name":"Oldenburg","type":"Landkreis"},"federalState":{"key":"03","name":"Niedersachsen"}},{"name":"Ganderkeseer Weg","postalCode":"27777","locality":"Ganderkesee","municipality":{"key":"03458005","name":"Ganderkesee","type":"Kreisangehörige_Gemeinde"},"district":{"key":"03458","name":"Oldenburg","type":"Landkreis"},"federalState":{"key":"03","name":"Niedersachsen"}},{"name":"Gartenstr.","postalCode":"27777","locality":"Ganderkesee","municipality":{"key":"03458005","name":"Ganderkesee","type":"Kreisangehörige_Gemeinde"},"district":{"key":"03458","name":"Oldenburg","type":"Landkreis"},"federalState":{"key":"03","name":"Niedersachsen"}},{"name":"Gärtnereiweg","postalCode":"27777","locality":"Ganderkesee","municipality":{"key":"03458005","name":"Ganderkesee","type":"Kreisangehörige_Gemeinde"},"district":{"key":"03458","name":"Oldenburg","type":"Landkreis"},"federalState":{"key":"03","name":"Niedersachsen"}},{"name":"Gerhart-Hauptmann-Str.","postalCode":"27777","locality":"Ganderkesee","municipality":{"key":"03458005","name":"Ganderkesee","type":"Kreisangehörige_Gemeinde"},"district":{"key":"03458","name":"Oldenburg","type":"Landkreis"},"federalState":{"key":"03","name":"Niedersachsen"}},{"name":"Geschwister-Scholl-Weg","postalCode":"27777","locality":"Ganderkesee","municipality":{"key":"03458005","name":"Ganderkesee","type":"Kreisangehörige_Gemeinde"},"district":{"key":"03458","name":"Oldenburg","type":"Landkreis"},"federalState":{"key":"03","name":"Niedersachsen"}},{"name":"Gesinenweg","postalCode":"27777","locality":"Ganderkesee","municipality":{"key":"03458005","name":"Ganderkesee","type":"Kreisangehörige_Gemeinde"},"district":{"key":"03458","name":"Oldenburg","type":"Landkreis"},"federalState":{"key":"03","name":"Niedersachsen"}},{"name":"Gewerbestr.","postalCode":"27777","locality":"Ganderkesee","municipality":{"key":"03458005","name":"Ganderkesee","type":"Kreisangehörige_Gemeinde"},"district":{"key":"03458","name":"Oldenburg","type":"Landkreis"},"federalState":{"key":"03","name":"Niedersachsen"}},{"name":"Ginsterweg","postalCode":"27777","locality":"Ganderkesee","municipality":{"key":"03458005","name":"Ganderkesee","type":"Kreisangehörige_Gemeinde"},"district":{"key":"03458","name":"Oldenburg","type":"Landkreis"},"federalState":{"key":"03","name":"Niedersachsen"}},{"name":"Girlitzweg","postalCode":"27777","locality":"Ganderkesee","municipality":{"key":"03458005","name":"Ganderkesee","type":"Kreisangehörige_Gemeinde"},"district":{"key":"03458","name":"Oldenburg","type":"Landkreis"},"federalState":{"key":"03","name":"Niedersachsen"}},{"name":"Gladiolenweg","postalCode":"27777","locality":"Ganderkesee","municipality":{"key":"03458005","name":"Ganderkesee","type":"Kreisangehörige_Gemeinde"},"district":{"key":"03458","name":"Oldenburg","type":"Landkreis"},"federalState":{"key":"03","name":"Niedersachsen"}},{"name":"Glockenweg","postalCode":"27777","locality":"Ganderkesee","municipality":{"key":"03458005","name":"Ganderkesee","type":"Kreisangehörige_Gemeinde"},"district":{"key":"03458","name":"Oldenburg","type":"Landkreis"},"federalState":{"key":"03","name":"Niedersachsen"}},{"name":"Goethestr.","postalCode":"27777","locality":"Ganderkesee","municipality":{"key":"03458005","name":"Ganderkesee","type":"Kreisangehörige_Gemeinde"},"district":{"key":"03458","name":"Oldenburg","type":"Landkreis"},"federalState":{"key":"03","name":"Niedersachsen"}},{"name":"Goldammerweg","postalCode":"27777","locality":"Ganderkesee","municipality":{"key":"03458005","name":"Ganderkesee","type":"Kreisangehörige_Gemeinde"},"district":{"key":"03458","name":"Oldenburg","type":"Landkreis"},"federalState":{"key":"03","name":"Niedersachsen"}},{"name":"Goldregenweg","postalCode":"27777","locality":"Ganderkesee","municipality":{"key":"03458005","name":"Ganderkesee","type":"Kreisangehörige_Gemeinde"},"district":{"key":"03458","name":"Oldenburg","type":"Landkreis"},"federalState":{"key":"03","name":"Niedersachsen"}},{"name":"Grenzweg","postalCode":"27777","locality":"Ganderkesee","municipality":{"key":"03458005","name":"Ganderkesee","type":"Kreisangehörige_Gemeinde"},"district":{"key":"03458","name":"Oldenburg","type":"Landkreis"},"federalState":{"key":"03","name":"Niedersachsen"}},{"name":"Großer Kamp","postalCode":"27777","locality":"Ganderkesee","municipality":{"key":"03458005","name":"Ganderkesee","type":"Kreisangehörige_Gemeinde"},"district":{"key":"03458","name":"Oldenburg","type":"Landkreis"},"federalState":{"key":"03","name":"Niedersachsen"}},{"name":"Große Schafheide","postalCode":"27777","locality":"Ganderkesee","municipality":{"key":"03458005","name":"Ganderkesee","type":"Kreisangehörige_Gemeinde"},"district":{"key":"03458","name":"Oldenburg","type":"Landkreis"},"federalState":{"key":"03","name":"Niedersachsen"}},{"name":"Grummetweg","postalCode":"27777","locality":"Ganderkesee","municipality":{"key":"03458005","name":"Ganderkesee","type":"Kreisangehörige_Gemeinde"},"district":{"key":"03458","name":"Oldenburg","type":"Landkreis"},"federalState":{"key":"03","name":"Niedersachsen"}},{"name":"Grüne Senke","postalCode":"27777","locality":"Ganderkesee","municipality":{"key":"03458005","name":"Ganderkesee","type":"Kreisangehörige_Gemeinde"},"district":{"key":"03458","name":"Oldenburg","type":"Landkreis"},"federalState":{"key":"03","name":"Niedersachsen"}},{"name":"Grüppenbührener Landstr.","postalCode":"27777","locality":"Ganderkesee","municipality":{"key":"03458005","name":"Ganderkesee","type":"Kreisangehörige_Gemeinde"},"district":{"key":"03458","name":"Oldenburg","type":"Landkreis"},"federalState":{"key":"03","name":"Niedersachsen"}},{"name":"Grüppenbührener Str.","postalCode":"27777","locality":"Ganderkesee","municipality":{"key":"03458005","name":"Ganderkesee","type":"Kreisangehörige_Gemeinde"},"district":{"key":"03458","name":"Oldenburg","type":"Landkreis"},"federalState":{"key":"03","name":"Niedersachsen"}},{"name":"Gustav-Weißkopf-Str.","postalCode":"27777","locality":"Ganderkesee","municipality":{"key":"03458005","name":"Ganderkesee","type":"Kreisangehörige_Gemeinde"},"district":{"key":"03458","name":"Oldenburg","type":"Landkreis"},"federalState":{"key":"03","name":"Niedersachsen"}},{"name":"Habbrügger Furth","postalCode":"27777","locality":"Ganderkesee","municipality":{"key":"03458005","name":"Ganderkesee","type":"Kreisangehörige_Gemeinde"},"district":{"key":"03458","name":"Oldenburg","type":"Landkreis"},"federalState":{"key":"03","name":"Niedersachsen"}},{"name":"Habbrügger Weg","postalCode":"27777","locality":"Ganderkesee","municipality":{"key":"03458005","name":"Ganderkesee","type":"Kreisangehörige_Gemeinde"},"district":{"key":"03458","name":"Oldenburg","type":"Landkreis"},"federalState":{"key":"03","name":"Niedersachsen"}},{"name":"Habichtsweg","postalCode":"27777","locality":"Ganderkesee","municipality":{"key":"03458005","name":"Ganderkesee","type":"Kreisangehörige_Gemeinde"},"district":{"key":"03458","name":"Oldenburg","type":"Landkreis"},"federalState":{"key":"03","name":"Niedersachsen"}},{"name":"Hainbuchenring","postalCode":"27777","locality":"Ganderkesee","municipality":{"key":"03458005","name":"Ganderkesee","type":"Kreisangehörige_Gemeinde"},"district":{"key":"03458","name":"Oldenburg","type":"Landkreis"},"federalState":{"key":"03","name":"Niedersachsen"}},{"name":"Handwerksweg","postalCode":"27777","locality":"Ganderkesee","municipality":{"key":"03458005","name":"Ganderkesee","type":"Kreisangehörige_Gemeinde"},"district":{"key":"03458","name":"Oldenburg","type":"Landkreis"},"federalState":{"key":"03","name":"Niedersachsen"}},{"name":"Hans-Sachs-Str.","postalCode":"27777","locality":"Ganderkesee","municipality":{"key":"03458005","name":"Ganderkesee","type":"Kreisangehörige_Gemeinde"},"district":{"key":"03458","name":"Oldenburg","type":"Landkreis"},"federalState":{"key":"03","name":"Niedersachsen"}},{"name":"Harmenhauser Str.","postalCode":"27777","locality":"Ganderkesee","municipality":{"key":"03458005","name":"Ganderkesee","type":"Kreisangehörige_Gemeinde"},"district":{"key":"03458","name":"Oldenburg","type":"Landkreis"},"federalState":{"key":"03","name":"Niedersachsen"}},{"name":"Harpstedter Str.","postalCode":"27777","locality":"Ganderkesee","municipality":{"key":"03458005","name":"Ganderkesee","type":"Kreisangehörige_Gemeinde"},"district":{"key":"03458","name":"Oldenburg","type":"Landkreis"},"federalState":{"key":"03","name":"Niedersachsen"}},{"name":"Hasbruchstr.","postalCode":"27777","locality":"Ganderkesee","municipality":{"key":"03458005","name":"Ganderkesee","type":"Kreisangehörige_Gemeinde"},"district":{"key":"03458","name":"Oldenburg","type":"Landkreis"},"federalState":{"key":"03","name":"Niedersachsen"}},{"name":"Haselnußweg","postalCode":"27777","locality":"Ganderkesee","municipality":{"key":"03458005","name":"Ganderkesee","type":"Kreisangehörige_Gemeinde"},"district":{"key":"03458","name":"Oldenburg","type":"Landkreis"},"federalState":{"key":"03","name":"Niedersachsen"}},{"name":"Hauptstr.","postalCode":"27777","locality":"Ganderkesee","municipality":{"key":"03458005","name":"Ganderkesee","type":"Kreisangehörige_Gemeinde"},"district":{"key":"03458","name":"Oldenburg","type":"Landkreis"},"federalState":{"key":"03","name":"Niedersachsen"}},{"name":"Havekoster Sand","postalCode":"27777","locality":"Ganderkesee","municipality":{"key":"03458005","name":"Ganderkesee","type":"Kreisangehörige_Gemeinde"},"district":{"key":"03458","name":"Oldenburg","type":"Landkreis"},"federalState":{"key":"03","name":"Niedersachsen"}},{"name":"Havekoster Str.","postalCode":"27777","locality":"Ganderkesee","municipality":{"key":"03458005","name":"Ganderkesee","type":"Kreisangehörige_Gemeinde"},"district":{"key":"03458","name":"Oldenburg","type":"Landkreis"},"federalState":{"key":"03","name":"Niedersachsen"}},{"name":"Heckenrosenweg","postalCode":"27777","locality":"Ganderkesee","municipality":{"key":"03458005","name":"Ganderkesee","type":"Kreisangehörige_Gemeinde"},"district":{"key":"03458","name":"Oldenburg","type":"Landkreis"},"federalState":{"key":"03","name":"Niedersachsen"}},{"name":"Hedenkampstr.","postalCode":"27777","locality":"Ganderkesee","municipality":{"key":"03458005","name":"Ganderkesee","type":"Kreisangehörige_Gemeinde"},"district":{"key":"03458","name":"Oldenburg","type":"Landkreis"},"federalState":{"key":"03","name":"Niedersachsen"}},{"name":"Hedwigsplatz","postalCode":"27777","locality":"Ganderkesee","municipality":{"key":"03458005","name":"Ganderkesee","type":"Kreisangehörige_Gemeinde"},"district":{"key":"03458","name":"Oldenburg","type":"Landkreis"},"federalState":{"key":"03","name":"Niedersachsen"}},{"name":"Heidelbeerweg","postalCode":"27777","locality":"Ganderkesee","municipality":{"key":"03458005","name":"Ganderkesee","type":"Kreisangehörige_Gemeinde"},"district":{"key":"03458","name":"Oldenburg","type":"Landkreis"},"federalState":{"key":"03","name":"Niedersachsen"}},{"name":"Heider Ring","postalCode":"27777","locality":"Ganderkesee","municipality":{"key":"03458005","name":"Ganderkesee","type":"Kreisangehörige_Gemeinde"},"district":{"key":"03458","name":"Oldenburg","type":"Landkreis"},"federalState":{"key":"03","name":"Niedersachsen"}},{"name":"Heider See","postalCode":"27777","locality":"Ganderkesee","municipality":{"key":"03458005","name":"Ganderkesee","type":"Kreisangehörige_Gemeinde"},"district":{"key":"03458","name":"Oldenburg","type":"Landkreis"},"federalState":{"key":"03","name":"Niedersachsen"}},{"name":"Heider Weg","postalCode":"27777","locality":"Ganderkesee","municipality":{"key":"03458005","name":"Ganderkesee","type":"Kreisangehörige_Gemeinde"},"district":{"key":"03458","name":"Oldenburg","type":"Landkreis"},"federalState":{"key":"03","name":"Niedersachsen"}},{"name":"Heideweg","postalCode":"27777","locality":"Ganderkesee","municipality":{"key":"03458005","name":"Ganderkesee","type":"Kreisangehörige_Gemeinde"},"district":{"key":"03458","name":"Oldenburg","type":"Landkreis"},"federalState":{"key":"03","name":"Niedersachsen"}},{"name":"Heidkamp","postalCode":"27777","locality":"Ganderkesee","municipality":{"key":"03458005","name":"Ganderkesee","type":"Kreisangehörige_Gemeinde"},"district":{"key":"03458","name":"Oldenburg","type":"Landkreis"},"federalState":{"key":"03","name":"Niedersachsen"}},{"name":"Heidloge","postalCode":"27777","locality":"Ganderkesee","municipality":{"key":"03458005","name":"Ganderkesee","type":"Kreisangehörige_Gemeinde"},"district":{"key":"03458","name":"Oldenburg","type":"Landkreis"},"federalState":{"key":"03","name":"Niedersachsen"}},{"name":"Heidschnuckenweg","postalCode":"27777","locality":"Ganderkesee","municipality":{"key":"03458005","name":"Ganderkesee","type":"Kreisangehörige_Gemeinde"},"district":{"key":"03458","name":"Oldenburg","type":"Landkreis"},"federalState":{"key":"03","name":"Niedersachsen"}},{"name":"Heinrich-Schwarz-Weg","postalCode":"27777","locality":"Ganderkesee","municipality":{"key":"03458005","name":"Ganderkesee","type":"Kreisangehörige_Gemeinde"},"district":{"key":"03458","name":"Oldenburg","type":"Landkreis"},"federalState":{"key":"03","name":"Niedersachsen"}},{"name":"Helmut-Denker-Weg","postalCode":"27777","locality":"Ganderkesee","municipality":{"key":"03458005","name":"Ganderkesee","type":"Kreisangehörige_Gemeinde"},"district":{"key":"03458","name":"Oldenburg","type":"Landkreis"},"federalState":{"key":"03","name":"Niedersachsen"}},{"name":"Hengsterholzer Str.","postalCode":"27777","locality":"Ganderkesee","municipality":{"key":"03458005","name":"Ganderkesee","type":"Kreisangehörige_Gemeinde"},"district":{"key":"03458","name":"Oldenburg","type":"Landkreis"},"federalState":{"key":"03","name":"Niedersachsen"}},{"name":"Herbstpadd","postalCode":"27777","locality":"Ganderkesee","municipality":{"key":"03458005","name":"Ganderkesee","type":"Kreisangehörige_Gemeinde"},"district":{"key":"03458","name":"Oldenburg","type":"Landkreis"},"federalState":{"key":"03","name":"Niedersachsen"}},{"name":"Herderstr.","postalCode":"27777","locality":"Ganderkesee","municipality":{"key":"03458005","name":"Ganderkesee","type":"Kreisangehörige_Gemeinde"},"district":{"key":"03458","name":"Oldenburg","type":"Landkreis"},"federalState":{"key":"03","name":"Niedersachsen"}},{"name":"Hermann-Allmers-Weg","postalCode":"27777","locality":"Ganderkesee","municipality":{"key":"03458005","name":"Ganderkesee","type":"Kreisangehörige_Gemeinde"},"district":{"key":"03458","name":"Oldenburg","type":"Landkreis"},"federalState":{"key":"03","name":"Niedersachsen"}},{"name":"Hermann-Löns-Weg","postalCode":"27777","locality":"Ganderkesee","municipality":{"key":"03458005","name":"Ganderkesee","type":"Kreisangehörige_Gemeinde"},"district":{"key":"03458","name":"Oldenburg","type":"Landkreis"},"federalState":{"key":"03","name":"Niedersachsen"}},{"name":"Hermelinweg","postalCode":"27777","locality":"Ganderkesee","municipality":{"key":"03458005","name":"Ganderkesee","type":"Kreisangehörige_Gemeinde"},"district":{"key":"03458","name":"Oldenburg","type":"Landkreis"},"federalState":{"key":"03","name":"Niedersachsen"}},{"name":"Hestern","postalCode":"27777","locality":"Ganderkesee","municipality":{"key":"03458005","name":"Ganderkesee","type":"Kreisangehörige_Gemeinde"},"district":{"key":"03458","name":"Oldenburg","type":"Landkreis"},"federalState":{"key":"03","name":"Niedersachsen"}},{"name":"Heuenweg","postalCode":"27777","locality":"Ganderkesee","municipality":{"key":"03458005","name":"Ganderkesee","type":"Kreisangehörige_Gemeinde"},"district":{"key":"03458","name":"Oldenburg","type":"Landkreis"},"federalState":{"key":"03","name":"Niedersachsen"}},{"name":"Hillmannsweg","postalCode":"27777","locality":"Ganderkesee","municipality":{"key":"03458005","name":"Ganderkesee","type":"Kreisangehörige_Gemeinde"},"district":{"key":"03458","name":"Oldenburg","type":"Landkreis"},"federalState":{"key":"03","name":"Niedersachsen"}},{"name":"Hinter dem Tiergarten","postalCode":"27777","locality":"Ganderkesee","municipality":{"key":"03458005","name":"Ganderkesee","type":"Kreisangehörige_Gemeinde"},"district":{"key":"03458","name":"Oldenburg","type":"Landkreis"},"federalState":{"key":"03","name":"Niedersachsen"}},{"name":"Hinter den Bräken","postalCode":"27777","locality":"Ganderkesee","municipality":{"key":"03458005","name":"Ganderkesee","type":"Kreisangehörige_Gemeinde"},"district":{"key":"03458","name":"Oldenburg","type":"Landkreis"},"federalState":{"key":"03","name":"Niedersachsen"}},{"name":"Hinter den Höfen","postalCode":"27777","locality":"Ganderkesee","municipality":{"key":"03458005","name":"Ganderkesee","type":"Kreisangehörige_Gemeinde"},"district":{"key":"03458","name":"Oldenburg","type":"Landkreis"},"federalState":{"key":"03","name":"Niedersachsen"}},{"name":"Hinter den Linden","postalCode":"27777","locality":"Ganderkesee","municipality":{"key":"03458005","name":"Ganderkesee","type":"Kreisangehörige_Gemeinde"},"district":{"key":"03458","name":"Oldenburg","type":"Landkreis"},"federalState":{"key":"03","name":"Niedersachsen"}},{"name":"Hinter der Wallhecke","postalCode":"27777","locality":"Ganderkesee","municipality":{"key":"03458005","name":"Ganderkesee","type":"Kreisangehörige_Gemeinde"},"district":{"key":"03458","name":"Oldenburg","type":"Landkreis"},"federalState":{"key":"03","name":"Niedersachsen"}},{"name":"Hinterm Felde","postalCode":"27777","locality":"Ganderkesee","municipality":{"key":"03458005","name":"Ganderkesee","type":"Kreisangehörige_Gemeinde"},"district":{"key":"03458","name":"Oldenburg","type":"Landkreis"},"federalState":{"key":"03","name":"Niedersachsen"}},{"name":"Hogendiek","postalCode":"27777","locality":"Ganderkesee","municipality":{"key":"03458005","name":"Ganderkesee","type":"Kreisangehörige_Gemeinde"},"district":{"key":"03458","name":"Oldenburg","type":"Landkreis"},"federalState":{"key":"03","name":"Niedersachsen"}},{"name":"Hohelucht","postalCode":"27777","locality":"Ganderkesee","municipality":{"key":"03458005","name":"Ganderkesee","type":"Kreisangehörige_Gemeinde"},"district":{"key":"03458","name":"Oldenburg","type":"Landkreis"},"federalState":{"key":"03","name":"Niedersachsen"}},{"name":"Hohenbökener Weg","postalCode":"27777","locality":"Ganderkesee","municipality":{"key":"03458005","name":"Ganderkesee","type":"Kreisangehörige_Gemeinde"},"district":{"key":"03458","name":"Oldenburg","type":"Landkreis"},"federalState":{"key":"03","name":"Niedersachsen"}},{"name":"Hohenheider Weg","postalCode":"27777","locality":"Ganderkesee","municipality":{"key":"03458005","name":"Ganderkesee","type":"Kreisangehörige_Gemeinde"},"district":{"key":"03458","name":"Oldenburg","type":"Landkreis"},"federalState":{"key":"03","name":"Niedersachsen"}},{"name":"Hoher Weg","postalCode":"27777","locality":"Ganderkesee","municipality":{"key":"03458005","name":"Ganderkesee","type":"Kreisangehörige_Gemeinde"},"district":{"key":"03458","name":"Oldenburg","type":"Landkreis"},"federalState":{"key":"03","name":"Niedersachsen"}},{"name":"Holbeinstr.","postalCode":"27777","locality":"Ganderkesee","municipality":{"key":"03458005","name":"Ganderkesee","type":"Kreisangehörige_Gemeinde"},"district":{"key":"03458","name":"Oldenburg","type":"Landkreis"},"federalState":{"key":"03","name":"Niedersachsen"}},{"name":"Holler Weg","postalCode":"27777","locality":"Ganderkesee","municipality":{"key":"03458005","name":"Ganderkesee","type":"Kreisangehörige_Gemeinde"},"district":{"key":"03458","name":"Oldenburg","type":"Landkreis"},"federalState":{"key":"03","name":"Niedersachsen"}},{"name":"Holtstreek","postalCode":"27777","locality":"Ganderkesee","municipality":{"key":"03458005","name":"Ganderkesee","type":"Kreisangehörige_Gemeinde"},"district":{"key":"03458","name":"Oldenburg","type":"Landkreis"},"federalState":{"key":"03","name":"Niedersachsen"}},{"name":"Holunderstr.","postalCode":"27777","locality":"Ganderkesee","municipality":{"key":"03458005","name":"Ganderkesee","type":"Kreisangehörige_Gemeinde"},"district":{"key":"03458","name":"Oldenburg","type":"Landkreis"},"federalState":{"key":"03","name":"Niedersachsen"}},{"name":"Ilexweg","postalCode":"27777","locality":"Ganderkesee","municipality":{"key":"03458005","name":"Ganderkesee","type":"Kreisangehörige_Gemeinde"},"district":{"key":"03458","name":"Oldenburg","type":"Landkreis"},"federalState":{"key":"03","name":"Niedersachsen"}},{"name":"Iltisweg","postalCode":"27777","locality":"Ganderkesee","municipality":{"key":"03458005","name":"Ganderkesee","type":"Kreisangehörige_Gemeinde"},"district":{"key":"03458","name":"Oldenburg","type":"Landkreis"},"federalState":{"key":"03","name":"Niedersachsen"}},{"name":"Im Bökel","postalCode":"27777","locality":"Ganderkesee","municipality":{"key":"03458005","name":"Ganderkesee","type":"Kreisangehörige_Gemeinde"},"district":{"key":"03458","name":"Oldenburg","type":"Landkreis"},"federalState":{"key":"03","name":"Niedersachsen"}},{"name":"Im Erlengrund","postalCode":"27777","locality":"Ganderkesee","municipality":{"key":"03458005","name":"Ganderkesee","type":"Kreisangehörige_Gemeinde"},"district":{"key":"03458","name":"Oldenburg","type":"Landkreis"},"federalState":{"key":"03","name":"Niedersachsen"}},{"name":"Im Felde","postalCode":"27777","locality":"Ganderkesee","municipality":{"key":"03458005","name":"Ganderkesee","type":"Kreisangehörige_Gemeinde"},"district":{"key":"03458","name":"Oldenburg","type":"Landkreis"},"federalState":{"key":"03","name":"Niedersachsen"}},{"name":"Im Fladder","postalCode":"27777","locality":"Ganderkesee","municipality":{"key":"03458005","name":"Ganderkesee","type":"Kreisangehörige_Gemeinde"},"district":{"key":"03458","name":"Oldenburg","type":"Landkreis"},"federalState":{"key":"03","name":"Niedersachsen"}},{"name":"Im Grund","postalCode":"27777","locality":"Ganderkesee","municipality":{"key":"03458005","name":"Ganderkesee","type":"Kreisangehörige_Gemeinde"},"district":{"key":"03458","name":"Oldenburg","type":"Landkreis"},"federalState":{"key":"03","name":"Niedersachsen"}},{"name":"Im Hohenbökener Moor","postalCode":"27777","locality":"Ganderkesee","municipality":{"key":"03458005","name":"Ganderkesee","type":"Kreisangehörige_Gemeinde"},"district":{"key":"03458","name":"Oldenburg","type":"Landkreis"},"federalState":{"key":"03","name":"Niedersachsen"}},{"name":"Im Knick","postalCode":"27777","locality":"Ganderkesee","municipality":{"key":"03458005","name":"Ganderkesee","type":"Kreisangehörige_Gemeinde"},"district":{"key":"03458","name":"Oldenburg","type":"Landkreis"},"federalState":{"key":"03","name":"Niedersachsen"}},{"name":"Im Krink","postalCode":"27777","locality":"Ganderkesee","municipality":{"key":"03458005","name":"Ganderkesee","type":"Kreisangehörige_Gemeinde"},"district":{"key":"03458","name":"Oldenburg","type":"Landkreis"},"federalState":{"key":"03","name":"Niedersachsen"}},{"name":"Im Langeland","postalCode":"27777","locality":"Ganderkesee","municipality":{"key":"03458005","name":"Ganderkesee","type":"Kreisangehörige_Gemeinde"},"district":{"key":"03458","name":"Oldenburg","type":"Landkreis"},"federalState":{"key":"03","name":"Niedersachsen"}},{"name":"Immerweg","postalCode":"27777","locality":"Ganderkesee","municipality":{"key":"03458005","name":"Ganderkesee","type":"Kreisangehörige_Gemeinde"},"district":{"key":"03458","name":"Oldenburg","type":"Landkreis"},"federalState":{"key":"03","name":"Niedersachsen"}},{"name":"Im Porst","postalCode":"27777","locality":"Ganderkesee","municipality":{"key":"03458005","name":"Ganderkesee","type":"Kreisangehörige_Gemeinde"},"district":{"key":"03458","name":"Oldenburg","type":"Landkreis"},"federalState":{"key":"03","name":"Niedersachsen"}},{"name":"Im Reet","postalCode":"27777","locality":"Ganderkesee","municipality":{"key":"03458005","name":"Ganderkesee","type":"Kreisangehörige_Gemeinde"},"district":{"key":"03458","name":"Oldenburg","type":"Landkreis"},"federalState":{"key":"03","name":"Niedersachsen"}},{"name":"Im Rusch","postalCode":"27777","locality":"Ganderkesee","municipality":{"key":"03458005","name":"Ganderkesee","type":"Kreisangehörige_Gemeinde"},"district":{"key":"03458","name":"Oldenburg","type":"Landkreis"},"federalState":{"key":"03","name":"Niedersachsen"}},{"name":"Im Sande","postalCode":"27777","locality":"Ganderkesee","municipality":{"key":"03458005","name":"Ganderkesee","type":"Kreisangehörige_Gemeinde"},"district":{"key":"03458","name":"Oldenburg","type":"Landkreis"},"federalState":{"key":"03","name":"Niedersachsen"}},{"name":"Im Schlatt","postalCode":"27777","locality":"Ganderkesee","municipality":{"key":"03458005","name":"Ganderkesee","type":"Kreisangehörige_Gemeinde"},"district":{"key":"03458","name":"Oldenburg","type":"Landkreis"},"federalState":{"key":"03","name":"Niedersachsen"}},{"name":"Im Sonnenwinkel","postalCode":"27777","locality":"Ganderkesee","municipality":{"key":"03458005","name":"Ganderkesee","type":"Kreisangehörige_Gemeinde"},"district":{"key":"03458","name":"Oldenburg","type":"Landkreis"},"federalState":{"key":"03","name":"Niedersachsen"}},{"name":"Im Tal","postalCode":"27777","locality":"Ganderkesee","municipality":{"key":"03458005","name":"Ganderkesee","type":"Kreisangehörige_Gemeinde"},"district":{"key":"03458","name":"Oldenburg","type":"Landkreis"},"federalState":{"key":"03","name":"Niedersachsen"}},{"name":"Im Waldpark","postalCode":"27777","locality":"Ganderkesee","municipality":{"key":"03458005","name":"Ganderkesee","type":"Kreisangehörige_Gemeinde"},"district":{"key":"03458","name":"Oldenburg","type":"Landkreis"},"federalState":{"key":"03","name":"Niedersachsen"}},{"name":"Im Wiesengrund","postalCode":"27777","locality":"Ganderkesee","municipality":{"key":"03458005","name":"Ganderkesee","type":"Kreisangehörige_Gemeinde"},"district":{"key":"03458","name":"Oldenburg","type":"Landkreis"},"federalState":{"key":"03","name":"Niedersachsen"}},{"name":"Im Winkel","postalCode":"27777","locality":"Ganderkesee","municipality":{"key":"03458005","name":"Ganderkesee","type":"Kreisangehörige_Gemeinde"},"district":{"key":"03458","name":"Oldenburg","type":"Landkreis"},"federalState":{"key":"03","name":"Niedersachsen"}},{"name":"In der Helle","postalCode":"27777","locality":"Ganderkesee","municipality":{"key":"03458005","name":"Ganderkesee","type":"Kreisangehörige_Gemeinde"},"district":{"key":"03458","name":"Oldenburg","type":"Landkreis"},"federalState":{"key":"03","name":"Niedersachsen"}},{"name":"In de Wisch","postalCode":"27777","locality":"Ganderkesee","municipality":{"key":"03458005","name":"Ganderkesee","type":"Kreisangehörige_Gemeinde"},"district":{"key":"03458","name":"Oldenburg","type":"Landkreis"},"federalState":{"key":"03","name":"Niedersachsen"}},{"name":"Industriepark","postalCode":"27777","locality":"Ganderkesee","municipality":{"key":"03458005","name":"Ganderkesee","type":"Kreisangehörige_Gemeinde"},"district":{"key":"03458","name":"Oldenburg","type":"Landkreis"},"federalState":{"key":"03","name":"Niedersachsen"}},{"name":"Insterburger Str.","postalCode":"27777","locality":"Ganderkesee","municipality":{"key":"03458005","name":"Ganderkesee","type":"Kreisangehörige_Gemeinde"},"district":{"key":"03458","name":"Oldenburg","type":"Landkreis"},"federalState":{"key":"03","name":"Niedersachsen"}},{"name":"Irisweg","postalCode":"27777","locality":"Ganderkesee","municipality":{"key":"03458005","name":"Ganderkesee","type":"Kreisangehörige_Gemeinde"},"district":{"key":"03458","name":"Oldenburg","type":"Landkreis"},"federalState":{"key":"03","name":"Niedersachsen"}},{"name":"Jägerstr.","postalCode":"27777","locality":"Ganderkesee","municipality":{"key":"03458005","name":"Ganderkesee","type":"Kreisangehörige_Gemeinde"},"district":{"key":"03458","name":"Oldenburg","type":"Landkreis"},"federalState":{"key":"03","name":"Niedersachsen"}},{"name":"Jahnstr.","postalCode":"27777","locality":"Ganderkesee","municipality":{"key":"03458005","name":"Ganderkesee","type":"Kreisangehörige_Gemeinde"},"district":{"key":"03458","name":"Oldenburg","type":"Landkreis"},"federalState":{"key":"03","name":"Niedersachsen"}},{"name":"Jasminstr.","postalCode":"27777","locality":"Ganderkesee","municipality":{"key":"03458005","name":"Ganderkesee","type":"Kreisangehörige_Gemeinde"},"district":{"key":"03458","name":"Oldenburg","type":"Landkreis"},"federalState":{"key":"03","name":"Niedersachsen"}},{"name":"Justus-Liebig-Weg","postalCode":"27777","locality":"Ganderkesee","municipality":{"key":"03458005","name":"Ganderkesee","type":"Kreisangehörige_Gemeinde"},"district":{"key":"03458","name":"Oldenburg","type":"Landkreis"},"federalState":{"key":"03","name":"Niedersachsen"}},{"name":"Kaminweg","postalCode":"27777","locality":"Ganderkesee","municipality":{"key":"03458005","name":"Ganderkesee","type":"Kreisangehörige_Gemeinde"},"district":{"key":"03458","name":"Oldenburg","type":"Landkreis"},"federalState":{"key":"03","name":"Niedersachsen"}},{"name":"Kantstr.","postalCode":"27777","locality":"Ganderkesee","municipality":{"key":"03458005","name":"Ganderkesee","type":"Kreisangehörige_Gemeinde"},"district":{"key":"03458","name":"Oldenburg","type":"Landkreis"},"federalState":{"key":"03","name":"Niedersachsen"}},{"name":"Karpfenweg","postalCode":"27777","locality":"Ganderkesee","municipality":{"key":"03458005","name":"Ganderkesee","type":"Kreisangehörige_Gemeinde"},"district":{"key":"03458","name":"Oldenburg","type":"Landkreis"},"federalState":{"key":"03","name":"Niedersachsen"}},{"name":"Kastanienweg","postalCode":"27777","locality":"Ganderkesee","municipality":{"key":"03458005","name":"Ganderkesee","type":"Kreisangehörige_Gemeinde"},"district":{"key":"03458","name":"Oldenburg","type":"Landkreis"},"federalState":{"key":"03","name":"Niedersachsen"}},{"name":"Käthe-Kollwitz-Str.","postalCode":"27777","locality":"Ganderkesee","municipality":{"key":"03458005","name":"Ganderkesee","type":"Kreisangehörige_Gemeinde"},"district":{"key":"03458","name":"Oldenburg","type":"Landkreis"},"federalState":{"key":"03","name":"Niedersachsen"}},{"name":"Kehnmoorweg","postalCode":"27777","locality":"Ganderkesee","municipality":{"key":"03458005","name":"Ganderkesee","type":"Kreisangehörige_Gemeinde"},"district":{"key":"03458","name":"Oldenburg","type":"Landkreis"},"federalState":{"key":"03","name":"Niedersachsen"}},{"name":"Kiebitzweg","postalCode":"27777","locality":"Ganderkesee","municipality":{"key":"03458005","name":"Ganderkesee","type":"Kreisangehörige_Gemeinde"},"district":{"key":"03458","name":"Oldenburg","type":"Landkreis"},"federalState":{"key":"03","name":"Niedersachsen"}},{"name":"Kiefernweg","postalCode":"27777","locality":"Ganderkesee","municipality":{"key":"03458005","name":"Ganderkesee","type":"Kreisangehörige_Gemeinde"},"district":{"key":"03458","name":"Oldenburg","type":"Landkreis"},"federalState":{"key":"03","name":"Niedersachsen"}},{"name":"Kiekut","postalCode":"27777","locality":"Ganderkesee","municipality":{"key":"03458005","name":"Ganderkesee","type":"Kreisangehörige_Gemeinde"},"district":{"key":"03458","name":"Oldenburg","type":"Landkreis"},"federalState":{"key":"03","name":"Niedersachsen"}},{"name":"Kimmer Landstr.","postalCode":"27777","locality":"Ganderkesee","municipality":{"key":"03458005","name":"Ganderkesee","type":"Kreisangehörige_Gemeinde"},"district":{"key":"03458","name":"Oldenburg","type":"Landkreis"},"federalState":{"key":"03","name":"Niedersachsen"}},{"name":"Kimmer Str.","postalCode":"27777","locality":"Ganderkesee","municipality":{"key":"03458005","name":"Ganderkesee","type":"Kreisangehörige_Gemeinde"},"district":{"key":"03458","name":"Oldenburg","type":"Landkreis"},"federalState":{"key":"03","name":"Niedersachsen"}},{"name":"Kirchweg","postalCode":"27777","locality":"Ganderkesee","municipality":{"key":"03458005","name":"Ganderkesee","type":"Kreisangehörige_Gemeinde"},"district":{"key":"03458","name":"Oldenburg","type":"Landkreis"},"federalState":{"key":"03","name":"Niedersachsen"}},{"name":"Klaus-Groth-Weg","postalCode":"27777","locality":"Ganderkesee","municipality":{"key":"03458005","name":"Ganderkesee","type":"Kreisangehörige_Gemeinde"},"district":{"key":"03458","name":"Oldenburg","type":"Landkreis"},"federalState":{"key":"03","name":"Niedersachsen"}},{"name":"Kleiner Esch","postalCode":"27777","locality":"Ganderkesee","municipality":{"key":"03458005","name":"Ganderkesee","type":"Kreisangehörige_Gemeinde"},"district":{"key":"03458","name":"Oldenburg","type":"Landkreis"},"federalState":{"key":"03","name":"Niedersachsen"}},{"name":"Klingenbergweg","postalCode":"27777","locality":"Ganderkesee","municipality":{"key":"03458005","name":"Ganderkesee","type":"Kreisangehörige_Gemeinde"},"district":{"key":"03458","name":"Oldenburg","type":"Landkreis"},"federalState":{"key":"03","name":"Niedersachsen"}},{"name":"Klingenhagen","postalCode":"27777","locality":"Ganderkesee","municipality":{"key":"03458005","name":"Ganderkesee","type":"Kreisangehörige_Gemeinde"},"district":{"key":"03458","name":"Oldenburg","type":"Landkreis"},"federalState":{"key":"03","name":"Niedersachsen"}},{"name":"Klosterweg","postalCode":"27777","locality":"Ganderkesee","municipality":{"key":"03458005","name":"Ganderkesee","type":"Kreisangehörige_Gemeinde"},"district":{"key":"03458","name":"Oldenburg","type":"Landkreis"},"federalState":{"key":"03","name":"Niedersachsen"}},{"name":"Knüppeldamm","postalCode":"27777","locality":"Ganderkesee","municipality":{"key":"03458005","name":"Ganderkesee","type":"Kreisangehörige_Gemeinde"},"district":{"key":"03458","name":"Oldenburg","type":"Landkreis"},"federalState":{"key":"03","name":"Niedersachsen"}},{"name":"Koniferenweg","postalCode":"27777","locality":"Ganderkesee","municipality":{"key":"03458005","name":"Ganderkesee","type":"Kreisangehörige_Gemeinde"},"district":{"key":"03458","name":"Oldenburg","type":"Landkreis"},"federalState":{"key":"03","name":"Niedersachsen"}},{"name":"Königsberger Weg","postalCode":"27777","locality":"Ganderkesee","municipality":{"key":"03458005","name":"Ganderkesee","type":"Kreisangehörige_Gemeinde"},"district":{"key":"03458","name":"Oldenburg","type":"Landkreis"},"federalState":{"key":"03","name":"Niedersachsen"}},{"name":"Korkeichenstr.","postalCode":"27777","locality":"Ganderkesee","municipality":{"key":"03458005","name":"Ganderkesee","type":"Kreisangehörige_Gemeinde"},"district":{"key":"03458","name":"Oldenburg","type":"Landkreis"},"federalState":{"key":"03","name":"Niedersachsen"}},{"name":"Kornblumenweg","postalCode":"27777","locality":"Ganderkesee","municipality":{"key":"03458005","name":"Ganderkesee","type":"Kreisangehörige_Gemeinde"},"district":{"key":"03458","name":"Oldenburg","type":"Landkreis"},"federalState":{"key":"03","name":"Niedersachsen"}},{"name":"Kornstr.","postalCode":"27777","locality":"Ganderkesee","municipality":{"key":"03458005","name":"Ganderkesee","type":"Kreisangehörige_Gemeinde"},"district":{"key":"03458","name":"Oldenburg","type":"Landkreis"},"federalState":{"key":"03","name":"Niedersachsen"}},{"name":"Kreuzweg","postalCode":"27777","locality":"Ganderkesee","municipality":{"key":"03458005","name":"Ganderkesee","type":"Kreisangehörige_Gemeinde"},"district":{"key":"03458","name":"Oldenburg","type":"Landkreis"},"federalState":{"key":"03","name":"Niedersachsen"}},{"name":"Kreyenhooper Str.","postalCode":"27777","locality":"Ganderkesee","municipality":{"key":"03458005","name":"Ganderkesee","type":"Kreisangehörige_Gemeinde"},"district":{"key":"03458","name":"Oldenburg","type":"Landkreis"},"federalState":{"key":"03","name":"Niedersachsen"}},{"name":"Krummer Weg","postalCode":"27777","locality":"Ganderkesee","municipality":{"key":"03458005","name":"Ganderkesee","type":"Kreisangehörige_Gemeinde"},"district":{"key":"03458","name":"Oldenburg","type":"Landkreis"},"federalState":{"key":"03","name":"Niedersachsen"}},{"name":"Kruses Kamp","postalCode":"27777","locality":"Ganderkesee","municipality":{"key":"03458005","name":"Ganderkesee","type":"Kreisangehörige_Gemeinde"},"district":{"key":"03458","name":"Oldenburg","type":"Landkreis"},"federalState":{"key":"03","name":"Niedersachsen"}},{"name":"Kühlinger Str.","postalCode":"27777","locality":"Ganderkesee","municipality":{"key":"03458005","name":"Ganderkesee","type":"Kreisangehörige_Gemeinde"},"district":{"key":"03458","name":"Oldenburg","type":"Landkreis"},"federalState":{"key":"03","name":"Niedersachsen"}},{"name":"Kurzer Kamp","postalCode":"27777","locality":"Ganderkesee","municipality":{"key":"03458005","name":"Ganderkesee","type":"Kreisangehörige_Gemeinde"},"district":{"key":"03458","name":"Oldenburg","type":"Landkreis"},"federalState":{"key":"03","name":"Niedersachsen"}},{"name":"Kurze Str.","postalCode":"27777","locality":"Ganderkesee","municipality":{"key":"03458005","name":"Ganderkesee","type":"Kreisangehörige_Gemeinde"},"district":{"key":"03458","name":"Oldenburg","type":"Landkreis"},"federalState":{"key":"03","name":"Niedersachsen"}},{"name":"Lange Str.","postalCode":"27777","locality":"Ganderkesee","municipality":{"key":"03458005","name":"Ganderkesee","type":"Kreisangehörige_Gemeinde"},"district":{"key":"03458","name":"Oldenburg","type":"Landkreis"},"federalState":{"key":"03","name":"Niedersachsen"}},{"name":"Lange Wand","postalCode":"27777","locality":"Ganderkesee","municipality":{"key":"03458005","name":"Ganderkesee","type":"Kreisangehörige_Gemeinde"},"district":{"key":"03458","name":"Oldenburg","type":"Landkreis"},"federalState":{"key":"03","name":"Niedersachsen"}},{"name":"Lärchenstr.","postalCode":"27777","locality":"Ganderkesee","municipality":{"key":"03458005","name":"Ganderkesee","type":"Kreisangehörige_Gemeinde"},"district":{"key":"03458","name":"Oldenburg","type":"Landkreis"},"federalState":{"key":"03","name":"Niedersachsen"}},{"name":"Leeskamp","postalCode":"27777","locality":"Ganderkesee","municipality":{"key":"03458005","name":"Ganderkesee","type":"Kreisangehörige_Gemeinde"},"district":{"key":"03458","name":"Oldenburg","type":"Landkreis"},"federalState":{"key":"03","name":"Niedersachsen"}},{"name":"Leipziger Str.","postalCode":"27777","locality":"Ganderkesee","municipality":{"key":"03458005","name":"Ganderkesee","type":"Kreisangehörige_Gemeinde"},"district":{"key":"03458","name":"Oldenburg","type":"Landkreis"},"federalState":{"key":"03","name":"Niedersachsen"}},{"name":"Lenbachstr.","postalCode":"27777","locality":"Ganderkesee","municipality":{"key":"03458005","name":"Ganderkesee","type":"Kreisangehörige_Gemeinde"},"district":{"key":"03458","name":"Oldenburg","type":"Landkreis"},"federalState":{"key":"03","name":"Niedersachsen"}},{"name":"Lessingstr.","postalCode":"27777","locality":"Ganderkesee","municipality":{"key":"03458005","name":"Ganderkesee","type":"Kreisangehörige_Gemeinde"},"district":{"key":"03458","name":"Oldenburg","type":"Landkreis"},"federalState":{"key":"03","name":"Niedersachsen"}},{"name":"Libellenweg","postalCode":"27777","locality":"Ganderkesee","municipality":{"key":"03458005","name":"Ganderkesee","type":"Kreisangehörige_Gemeinde"},"district":{"key":"03458","name":"Oldenburg","type":"Landkreis"},"federalState":{"key":"03","name":"Niedersachsen"}},{"name":"Ligusterweg","postalCode":"27777","locality":"Ganderkesee","municipality":{"key":"03458005","name":"Ganderkesee","type":"Kreisangehörige_Gemeinde"},"district":{"key":"03458","name":"Oldenburg","type":"Landkreis"},"federalState":{"key":"03","name":"Niedersachsen"}},{"name":"Lilienweg","postalCode":"27777","locality":"Ganderkesee","municipality":{"key":"03458005","name":"Ganderkesee","type":"Kreisangehörige_Gemeinde"},"district":{"key":"03458","name":"Oldenburg","type":"Landkreis"},"federalState":{"key":"03","name":"Niedersachsen"}},{"name":"Lindenstr.","postalCode":"27777","locality":"Ganderkesee","municipality":{"key":"03458005","name":"Ganderkesee","type":"Kreisangehörige_Gemeinde"},"district":{"key":"03458","name":"Oldenburg","type":"Landkreis"},"federalState":{"key":"03","name":"Niedersachsen"}},{"name":"Löwenzahnweg","postalCode":"27777","locality":"Ganderkesee","municipality":{"key":"03458005","name":"Ganderkesee","type":"Kreisangehörige_Gemeinde"},"district":{"key":"03458","name":"Oldenburg","type":"Landkreis"},"federalState":{"key":"03","name":"Niedersachsen"}},{"name":"Lübecker Str.","postalCode":"27777","locality":"Ganderkesee","municipality":{"key":"03458005","name":"Ganderkesee","type":"Kreisangehörige_Gemeinde"},"district":{"key":"03458","name":"Oldenburg","type":"Landkreis"},"federalState":{"key":"03","name":"Niedersachsen"}},{"name":"Lüneburger Str.","postalCode":"27777","locality":"Ganderkesee","municipality":{"key":"03458005","name":"Ganderkesee","type":"Kreisangehörige_Gemeinde"},"district":{"key":"03458","name":"Oldenburg","type":"Landkreis"},"federalState":{"key":"03","name":"Niedersachsen"}},{"name":"Machandelweg","postalCode":"27777","locality":"Ganderkesee","municipality":{"key":"03458005","name":"Ganderkesee","type":"Kreisangehörige_Gemeinde"},"district":{"key":"03458","name":"Oldenburg","type":"Landkreis"},"federalState":{"key":"03","name":"Niedersachsen"}},{"name":"Mackensenstr.","postalCode":"27777","locality":"Ganderkesee","municipality":{"key":"03458005","name":"Ganderkesee","type":"Kreisangehörige_Gemeinde"},"district":{"key":"03458","name":"Oldenburg","type":"Landkreis"},"federalState":{"key":"03","name":"Niedersachsen"}},{"name":"Maiplacken","postalCode":"27777","locality":"Ganderkesee","municipality":{"key":"03458005","name":"Ganderkesee","type":"Kreisangehörige_Gemeinde"},"district":{"key":"03458","name":"Oldenburg","type":"Landkreis"},"federalState":{"key":"03","name":"Niedersachsen"}},{"name":"Marderweg","postalCode":"27777","locality":"Ganderkesee","municipality":{"key":"03458005","name":"Ganderkesee","type":"Kreisangehörige_Gemeinde"},"district":{"key":"03458","name":"Oldenburg","type":"Landkreis"},"federalState":{"key":"03","name":"Niedersachsen"}},{"name":"Margeritenweg","postalCode":"27777","locality":"Ganderkesee","municipality":{"key":"03458005","name":"Ganderkesee","type":"Kreisangehörige_Gemeinde"},"district":{"key":"03458","name":"Oldenburg","type":"Landkreis"},"federalState":{"key":"03","name":"Niedersachsen"}},{"name":"Marienburger Str.","postalCode":"27777","locality":"Ganderkesee","municipality":{"key":"03458005","name":"Ganderkesee","type":"Kreisangehörige_Gemeinde"},"district":{"key":"03458","name":"Oldenburg","type":"Landkreis"},"federalState":{"key":"03","name":"Niedersachsen"}},{"name":"Marschweg","postalCode":"27777","locality":"Ganderkesee","municipality":{"key":"03458005","name":"Ganderkesee","type":"Kreisangehörige_Gemeinde"},"district":{"key":"03458","name":"Oldenburg","type":"Landkreis"},"federalState":{"key":"03","name":"Niedersachsen"}},{"name":"Matthias-Claudius-Weg","postalCode":"27777","locality":"Ganderkesee","municipality":{"key":"03458005","name":"Ganderkesee","type":"Kreisangehörige_Gemeinde"},"district":{"key":"03458","name":"Oldenburg","type":"Landkreis"},"federalState":{"key":"03","name":"Niedersachsen"}},{"name":"Meierhafe","postalCode":"27777","locality":"Ganderkesee","municipality":{"key":"03458005","name":"Ganderkesee","type":"Kreisangehörige_Gemeinde"},"district":{"key":"03458","name":"Oldenburg","type":"Landkreis"},"federalState":{"key":"03","name":"Niedersachsen"}},{"name":"Meisenweg","postalCode":"27777","locality":"Ganderkesee","municipality":{"key":"03458005","name":"Ganderkesee","type":"Kreisangehörige_Gemeinde"},"district":{"key":"03458","name":"Oldenburg","type":"Landkreis"},"federalState":{"key":"03","name":"Niedersachsen"}},{"name":"Mellenkamp","postalCode":"27777","locality":"Ganderkesee","municipality":{"key":"03458005","name":"Ganderkesee","type":"Kreisangehörige_Gemeinde"},"district":{"key":"03458","name":"Oldenburg","type":"Landkreis"},"federalState":{"key":"03","name":"Niedersachsen"}},{"name":"Memelstr.","postalCode":"27777","locality":"Ganderkesee","municipality":{"key":"03458005","name":"Ganderkesee","type":"Kreisangehörige_Gemeinde"},"district":{"key":"03458","name":"Oldenburg","type":"Landkreis"},"federalState":{"key":"03","name":"Niedersachsen"}},{"name":"Michaelweg","postalCode":"27777","locality":"Ganderkesee","municipality":{"key":"03458005","name":"Ganderkesee","type":"Kreisangehörige_Gemeinde"},"district":{"key":"03458","name":"Oldenburg","type":"Landkreis"},"federalState":{"key":"03","name":"Niedersachsen"}},{"name":"Mittelkamp","postalCode":"27777","locality":"Ganderkesee","municipality":{"key":"03458005","name":"Ganderkesee","type":"Kreisangehörige_Gemeinde"},"district":{"key":"03458","name":"Oldenburg","type":"Landkreis"},"federalState":{"key":"03","name":"Niedersachsen"}},{"name":"Mittelplacken","postalCode":"27777","locality":"Ganderkesee","municipality":{"key":"03458005","name":"Ganderkesee","type":"Kreisangehörige_Gemeinde"},"district":{"key":"03458","name":"Oldenburg","type":"Landkreis"},"federalState":{"key":"03","name":"Niedersachsen"}},{"name":"Mitternachtsbrücke","postalCode":"27777","locality":"Ganderkesee","municipality":{"key":"03458005","name":"Ganderkesee","type":"Kreisangehörige_Gemeinde"},"district":{"key":"03458","name":"Oldenburg","type":"Landkreis"},"federalState":{"key":"03","name":"Niedersachsen"}},{"name":"Modersohnstr.","postalCode":"27777","locality":"Ganderkesee","municipality":{"key":"03458005","name":"Ganderkesee","type":"Kreisangehörige_Gemeinde"},"district":{"key":"03458","name":"Oldenburg","type":"Landkreis"},"federalState":{"key":"03","name":"Niedersachsen"}},{"name":"Mohnblumenweg","postalCode":"27777","locality":"Ganderkesee","municipality":{"key":"03458005","name":"Ganderkesee","type":"Kreisangehörige_Gemeinde"},"district":{"key":"03458","name":"Oldenburg","type":"Landkreis"},"federalState":{"key":"03","name":"Niedersachsen"}},{"name":"Moorgrabendeich","postalCode":"27777","locality":"Ganderkesee","municipality":{"key":"03458005","name":"Ganderkesee","type":"Kreisangehörige_Gemeinde"},"district":{"key":"03458","name":"Oldenburg","type":"Landkreis"},"federalState":{"key":"03","name":"Niedersachsen"}},{"name":"Moorweg","postalCode":"27777","locality":"Ganderkesee","municipality":{"key":"03458005","name":"Ganderkesee","type":"Kreisangehörige_Gemeinde"},"district":{"key":"03458","name":"Oldenburg","type":"Landkreis"},"federalState":{"key":"03","name":"Niedersachsen"}},{"name":"Mozartstr.","postalCode":"27777","locality":"Ganderkesee","municipality":{"key":"03458005","name":"Ganderkesee","type":"Kreisangehörige_Gemeinde"},"district":{"key":"03458","name":"Oldenburg","type":"Landkreis"},"federalState":{"key":"03","name":"Niedersachsen"}},{"name":"Mühlenstr.","postalCode":"27777","locality":"Ganderkesee","municipality":{"key":"03458005","name":"Ganderkesee","type":"Kreisangehörige_Gemeinde"},"district":{"key":"03458","name":"Oldenburg","type":"Landkreis"},"federalState":{"key":"03","name":"Niedersachsen"}},{"name":"Müllerweg","postalCode":"27777","locality":"Ganderkesee","municipality":{"key":"03458005","name":"Ganderkesee","type":"Kreisangehörige_Gemeinde"},"district":{"key":"03458","name":"Oldenburg","type":"Landkreis"},"federalState":{"key":"03","name":"Niedersachsen"}},{"name":"Nachtigallenweg","postalCode":"27777","locality":"Ganderkesee","municipality":{"key":"03458005","name":"Ganderkesee","type":"Kreisangehörige_Gemeinde"},"district":{"key":"03458","name":"Oldenburg","type":"Landkreis"},"federalState":{"key":"03","name":"Niedersachsen"}},{"name":"Neddenheider Str.","postalCode":"27777","locality":"Ganderkesee","municipality":{"key":"03458005","name":"Ganderkesee","type":"Kreisangehörige_Gemeinde"},"district":{"key":"03458","name":"Oldenburg","type":"Landkreis"},"federalState":{"key":"03","name":"Niedersachsen"}},{"name":"Neddenhüsen","postalCode":"27777","locality":"Ganderkesee","municipality":{"key":"03458005","name":"Ganderkesee","type":"Kreisangehörige_Gemeinde"},"district":{"key":"03458","name":"Oldenburg","type":"Landkreis"},"federalState":{"key":"03","name":"Niedersachsen"}},{"name":"Nelkenstr.","postalCode":"27777","locality":"Ganderkesee","municipality":{"key":"03458005","name":"Ganderkesee","type":"Kreisangehörige_Gemeinde"},"district":{"key":"03458","name":"Oldenburg","type":"Landkreis"},"federalState":{"key":"03","name":"Niedersachsen"}},{"name":"Neue Kämpe","postalCode":"27777","locality":"Ganderkesee","municipality":{"key":"03458005","name":"Ganderkesee","type":"Kreisangehörige_Gemeinde"},"district":{"key":"03458","name":"Oldenburg","type":"Landkreis"},"federalState":{"key":"03","name":"Niedersachsen"}},{"name":"Neuenlander Str.","postalCode":"27777","locality":"Ganderkesee","municipality":{"key":"03458005","name":"Ganderkesee","type":"Kreisangehörige_Gemeinde"},"district":{"key":"03458","name":"Oldenburg","type":"Landkreis"},"federalState":{"key":"03","name":"Niedersachsen"}},{"name":"Neuer Postweg","postalCode":"27777","locality":"Ganderkesee","municipality":{"key":"03458005","name":"Ganderkesee","type":"Kreisangehörige_Gemeinde"},"district":{"key":"03458","name":"Oldenburg","type":"Landkreis"},"federalState":{"key":"03","name":"Niedersachsen"}},{"name":"Neue Str.","postalCode":"27777","locality":"Ganderkesee","municipality":{"key":"03458005","name":"Ganderkesee","type":"Kreisangehörige_Gemeinde"},"district":{"key":"03458","name":"Oldenburg","type":"Landkreis"},"federalState":{"key":"03","name":"Niedersachsen"}},{"name":"Neu-Holzkamp","postalCode":"27777","locality":"Ganderkesee","municipality":{"key":"03458005","name":"Ganderkesee","type":"Kreisangehörige_Gemeinde"},"district":{"key":"03458","name":"Oldenburg","type":"Landkreis"},"federalState":{"key":"03","name":"Niedersachsen"}},{"name":"Neustädter Str.","postalCode":"27777","locality":"Ganderkesee","municipality":{"key":"03458005","name":"Ganderkesee","type":"Kreisangehörige_Gemeinde"},"district":{"key":"03458","name":"Oldenburg","type":"Landkreis"},"federalState":{"key":"03","name":"Niedersachsen"}},{"name":"Nordenholzer Weg","postalCode":"27777","locality":"Ganderkesee","municipality":{"key":"03458005","name":"Ganderkesee","type":"Kreisangehörige_Gemeinde"},"district":{"key":"03458","name":"Oldenburg","type":"Landkreis"},"federalState":{"key":"03","name":"Niedersachsen"}},{"name":"Nordweg","postalCode":"27777","locality":"Ganderkesee","municipality":{"key":"03458005","name":"Ganderkesee","type":"Kreisangehörige_Gemeinde"},"district":{"key":"03458","name":"Oldenburg","type":"Landkreis"},"federalState":{"key":"03","name":"Niedersachsen"}},{"name":"Nutzhorn","postalCode":"27777","locality":"Ganderkesee","municipality":{"key":"03458005","name":"Ganderkesee","type":"Kreisangehörige_Gemeinde"},"district":{"key":"03458","name":"Oldenburg","type":"Landkreis"},"federalState":{"key":"03","name":"Niedersachsen"}},{"name":"Nutzhorner Landstr.","postalCode":"27777","locality":"Ganderkesee","municipality":{"key":"03458005","name":"Ganderkesee","type":"Kreisangehörige_Gemeinde"},"district":{"key":"03458","name":"Oldenburg","type":"Landkreis"},"federalState":{"key":"03","name":"Niedersachsen"}},{"name":"Nutzhorner Str.","postalCode":"27777","locality":"Ganderkesee","municipality":{"key":"03458005","name":"Ganderkesee","type":"Kreisangehörige_Gemeinde"},"district":{"key":"03458","name":"Oldenburg","type":"Landkreis"},"federalState":{"key":"03","name":"Niedersachsen"}},{"name":"Ochtumstr.","postalCode":"27777","locality":"Ganderkesee","municipality":{"key":"03458005","name":"Ganderkesee","type":"Kreisangehörige_Gemeinde"},"district":{"key":"03458","name":"Oldenburg","type":"Landkreis"},"federalState":{"key":"03","name":"Niedersachsen"}},{"name":"Ohlenbuschweg","postalCode":"27777","locality":"Ganderkesee","municipality":{"key":"03458005","name":"Ganderkesee","type":"Kreisangehörige_Gemeinde"},"district":{"key":"03458","name":"Oldenburg","type":"Landkreis"},"federalState":{"key":"03","name":"Niedersachsen"}},{"name":"Oldenburger Str.","postalCode":"27777","locality":"Ganderkesee","municipality":{"key":"03458005","name":"Ganderkesee","type":"Kreisangehörige_Gemeinde"},"district":{"key":"03458","name":"Oldenburg","type":"Landkreis"},"federalState":{"key":"03","name":"Niedersachsen"}},{"name":"Omorikaweg","postalCode":"27777","locality":"Ganderkesee","municipality":{"key":"03458005","name":"Ganderkesee","type":"Kreisangehörige_Gemeinde"},"district":{"key":"03458","name":"Oldenburg","type":"Landkreis"},"federalState":{"key":"03","name":"Niedersachsen"}},{"name":"Orchideenweg","postalCode":"27777","locality":"Ganderkesee","municipality":{"key":"03458005","name":"Ganderkesee","type":"Kreisangehörige_Gemeinde"},"district":{"key":"03458","name":"Oldenburg","type":"Landkreis"},"federalState":{"key":"03","name":"Niedersachsen"}},{"name":"Ortheide","postalCode":"27777","locality":"Ganderkesee","municipality":{"key":"03458005","name":"Ganderkesee","type":"Kreisangehörige_Gemeinde"},"district":{"key":"03458","name":"Oldenburg","type":"Landkreis"},"federalState":{"key":"03","name":"Niedersachsen"}},{"name":"Orthstr.","postalCode":"27777","locality":"Ganderkesee","municipality":{"key":"03458005","name":"Ganderkesee","type":"Kreisangehörige_Gemeinde"},"district":{"key":"03458","name":"Oldenburg","type":"Landkreis"},"federalState":{"key":"03","name":"Niedersachsen"}},{"name":"Osterfeuerberg","postalCode":"27777","locality":"Ganderkesee","municipality":{"key":"03458005","name":"Ganderkesee","type":"Kreisangehörige_Gemeinde"},"district":{"key":"03458","name":"Oldenburg","type":"Landkreis"},"federalState":{"key":"03","name":"Niedersachsen"}},{"name":"Osterhoop","postalCode":"27777","locality":"Ganderkesee","municipality":{"key":"03458005","name":"Ganderkesee","type":"Kreisangehörige_Gemeinde"},"district":{"key":"03458","name":"Oldenburg","type":"Landkreis"},"federalState":{"key":"03","name":"Niedersachsen"}},{"name":"Overbeckstr.","postalCode":"27777","locality":"Ganderkesee","municipality":{"key":"03458005","name":"Ganderkesee","type":"Kreisangehörige_Gemeinde"},"district":{"key":"03458","name":"Oldenburg","type":"Landkreis"},"federalState":{"key":"03","name":"Niedersachsen"}},{"name":"Parkstr.","postalCode":"27777","locality":"Ganderkesee","municipality":{"key":"03458005","name":"Ganderkesee","type":"Kreisangehörige_Gemeinde"},"district":{"key":"03458","name":"Oldenburg","type":"Landkreis"},"federalState":{"key":"03","name":"Niedersachsen"}},{"name":"Paul-Klee-Str.","postalCode":"27777","locality":"Ganderkesee","municipality":{"key":"03458005","name":"Ganderkesee","type":"Kreisangehörige_Gemeinde"},"district":{"key":"03458","name":"Oldenburg","type":"Landkreis"},"federalState":{"key":"03","name":"Niedersachsen"}},{"name":"Pestalozzistr.","postalCode":"27777","locality":"Ganderkesee","municipality":{"key":"03458005","name":"Ganderkesee","type":"Kreisangehörige_Gemeinde"},"district":{"key":"03458","name":"Oldenburg","type":"Landkreis"},"federalState":{"key":"03","name":"Niedersachsen"}},{"name":"Philosophenweg","postalCode":"27777","locality":"Ganderkesee","municipality":{"key":"03458005","name":"Ganderkesee","type":"Kreisangehörige_Gemeinde"},"district":{"key":"03458","name":"Oldenburg","type":"Landkreis"},"federalState":{"key":"03","name":"Niedersachsen"}},{"name":"Pirolweg","postalCode":"27777","locality":"Ganderkesee","municipality":{"key":"03458005","name":"Ganderkesee","type":"Kreisangehörige_Gemeinde"},"district":{"key":"03458","name":"Oldenburg","type":"Landkreis"},"federalState":{"key":"03","name":"Niedersachsen"}},{"name":"Plaggenweg","postalCode":"27777","locality":"Ganderkesee","municipality":{"key":"03458005","name":"Ganderkesee","type":"Kreisangehörige_Gemeinde"},"district":{"key":"03458","name":"Oldenburg","type":"Landkreis"},"federalState":{"key":"03","name":"Niedersachsen"}},{"name":"Platanenstr.","postalCode":"27777","locality":"Ganderkesee","municipality":{"key":"03458005","name":"Ganderkesee","type":"Kreisangehörige_Gemeinde"},"district":{"key":"03458","name":"Oldenburg","type":"Landkreis"},"federalState":{"key":"03","name":"Niedersachsen"}},{"name":"Plöner Str.","postalCode":"27777","locality":"Ganderkesee","municipality":{"key":"03458005","name":"Ganderkesee","type":"Kreisangehörige_Gemeinde"},"district":{"key":"03458","name":"Oldenburg","type":"Landkreis"},"federalState":{"key":"03","name":"Niedersachsen"}},{"name":"Poppestr.","postalCode":"27777","locality":"Ganderkesee","municipality":{"key":"03458005","name":"Ganderkesee","type":"Kreisangehörige_Gemeinde"},"district":{"key":"03458","name":"Oldenburg","type":"Landkreis"},"federalState":{"key":"03","name":"Niedersachsen"}},{"name":"Postmeisterweg","postalCode":"27777","locality":"Ganderkesee","municipality":{"key":"03458005","name":"Ganderkesee","type":"Kreisangehörige_Gemeinde"},"district":{"key":"03458","name":"Oldenburg","type":"Landkreis"},"federalState":{"key":"03","name":"Niedersachsen"}},{"name":"Privatweg","postalCode":"27777","locality":"Ganderkesee","municipality":{"key":"03458005","name":"Ganderkesee","type":"Kreisangehörige_Gemeinde"},"district":{"key":"03458","name":"Oldenburg","type":"Landkreis"},"federalState":{"key":"03","name":"Niedersachsen"}},{"name":"Quakenbrücker Str.","postalCode":"49632","locality":"Essen (Oldenburg)","municipality":{"key":"03453006","name":"Essen (Oldenburg)","type":"Kreisangehörige_Gemeinde"},"district":{"key":"03453","name":"Cloppenburg","type":"Landkreis"},"federalState":{"key":"03","name":"Niedersachsen"}},{"name":"Quellenweg","postalCode":"26129","locality":"Oldenburg","municipality":{"key":"03403000","name":"Oldenburg (Oldenburg), Stadt","type":"Kreisfreie_Stadt"},"district":{"key":"03403","name":"Oldenburg (Oldenburg), Stadt","type":"Kreisfreie_Stadt"},"federalState":{"key":"03","name":"Niedersachsen"}},{"name":"Quendelstr.","postalCode":"26127","locality":"Oldenburg","municipality":{"key":"03403000","name":"Oldenburg (Oldenburg), Stadt","type":"Kreisfreie_Stadt"},"district":{"key":"03403","name":"Oldenburg (Oldenburg), Stadt","type":"Kreisfreie_Stadt"},"federalState":{"key":"03","name":"Niedersachsen"}},{"name":"Querweg","postalCode":"26127","locality":"Oldenburg","municipality":{"key":"03403000","name":"Oldenburg (Oldenburg), Stadt","type":"Kreisfreie_Stadt"},"district":{"key":"03403","name":"Oldenburg (Oldenburg), Stadt","type":"Kreisfreie_Stadt"},"federalState":{"key":"03","name":"Niedersachsen"}},{"name":"Raiffeisenstr.","postalCode":"27777","locality":"Ganderkesee","municipality":{"key":"03458005","name":"Ganderkesee","type":"Kreisangehörige_Gemeinde"},"district":{"key":"03458","name":"Oldenburg","type":"Landkreis"},"federalState":{"key":"03","name":"Niedersachsen"}},{"name":"Ramsauerweg","postalCode":"27777","locality":"Ganderkesee","municipality":{"key":"03458005","name":"Ganderkesee","type":"Kreisangehörige_Gemeinde"},"district":{"key":"03458","name":"Oldenburg","type":"Landkreis"},"federalState":{"key":"03","name":"Niedersachsen"}},{"name":"Rathausstr.","postalCode":"27777","locality":"Ganderkesee","municipality":{"key":"03458005","name":"Ganderkesee","type":"Kreisangehörige_Gemeinde"},"district":{"key":"03458","name":"Oldenburg","type":"Landkreis"},"federalState":{"key":"03","name":"Niedersachsen"}},{"name":"Rehwinkel","postalCode":"27777","locality":"Ganderkesee","municipality":{"key":"03458005","name":"Ganderkesee","type":"Kreisangehörige_Gemeinde"},"district":{"key":"03458","name":"Oldenburg","type":"Landkreis"},"federalState":{"key":"03","name":"Niedersachsen"}},{"name":"Reiherweg","postalCode":"27777","locality":"Ganderkesee","municipality":{"key":"03458005","name":"Ganderkesee","type":"Kreisangehörige_Gemeinde"},"district":{"key":"03458","name":"Oldenburg","type":"Landkreis"},"federalState":{"key":"03","name":"Niedersachsen"}},{"name":"Reiterweg","postalCode":"27777","locality":"Ganderkesee","municipality":{"key":"03458005","name":"Ganderkesee","type":"Kreisangehörige_Gemeinde"},"district":{"key":"03458","name":"Oldenburg","type":"Landkreis"},"federalState":{"key":"03","name":"Niedersachsen"}},{"name":"Rembrandtstr.","postalCode":"27777","locality":"Ganderkesee","municipality":{"key":"03458005","name":"Ganderkesee","type":"Kreisangehörige_Gemeinde"},"district":{"key":"03458","name":"Oldenburg","type":"Landkreis"},"federalState":{"key":"03","name":"Niedersachsen"}},{"name":"Remelskamp","postalCode":"27777","locality":"Ganderkesee","municipality":{"key":"03458005","name":"Ganderkesee","type":"Kreisangehörige_Gemeinde"},"district":{"key":"03458","name":"Oldenburg","type":"Landkreis"},"federalState":{"key":"03","name":"Niedersachsen"}},{"name":"Rendsburger Str.","postalCode":"27777","locality":"Ganderkesee","municipality":{"key":"03458005","name":"Ganderkesee","type":"Kreisangehörige_Gemeinde"},"district":{"key":"03458","name":"Oldenburg","type":"Landkreis"},"federalState":{"key":"03","name":"Niedersachsen"}},{"name":"Richtweg","postalCode":"27777","locality":"Ganderkesee","municipality":{"key":"03458005","name":"Ganderkesee","type":"Kreisangehörige_Gemeinde"},"district":{"key":"03458","name":"Oldenburg","type":"Landkreis"},"federalState":{"key":"03","name":"Niedersachsen"}},{"name":"Riedenweg","postalCode":"27777","locality":"Ganderkesee","municipality":{"key":"03458005","name":"Ganderkesee","type":"Kreisangehörige_Gemeinde"},"district":{"key":"03458","name":"Oldenburg","type":"Landkreis"},"federalState":{"key":"03","name":"Niedersachsen"}},{"name":"Riehenweg","postalCode":"27777","locality":"Ganderkesee","municipality":{"key":"03458005","name":"Ganderkesee","type":"Kreisangehörige_Gemeinde"},"district":{"key":"03458","name":"Oldenburg","type":"Landkreis"},"federalState":{"key":"03","name":"Niedersachsen"}},{"name":"Ring","postalCode":"27777","locality":"Ganderkesee","municipality":{"key":"03458005","name":"Ganderkesee","type":"Kreisangehörige_Gemeinde"},"district":{"key":"03458","name":"Oldenburg","type":"Landkreis"},"federalState":{"key":"03","name":"Niedersachsen"}},{"name":"Robert-Bosch-Str.","postalCode":"27777","locality":"Ganderkesee","municipality":{"key":"03458005","name":"Ganderkesee","type":"Kreisangehörige_Gemeinde"},"district":{"key":"03458","name":"Oldenburg","type":"Landkreis"},"federalState":{"key":"03","name":"Niedersachsen"}},{"name":"Robert-Koch-Str.","postalCode":"27777","locality":"Ganderkesee","municipality":{"key":"03458005","name":"Ganderkesee","type":"Kreisangehörige_Gemeinde"},"district":{"key":"03458","name":"Oldenburg","type":"Landkreis"},"federalState":{"key":"03","name":"Niedersachsen"}},{"name":"Roggenkamp","postalCode":"27777","locality":"Ganderkesee","municipality":{"key":"03458005","name":"Ganderkesee","type":"Kreisangehörige_Gemeinde"},"district":{"key":"03458","name":"Oldenburg","type":"Landkreis"},"federalState":{"key":"03","name":"Niedersachsen"}},{"name":"Roseggerweg","postalCode":"27777","locality":"Ganderkesee","municipality":{"key":"03458005","name":"Ganderkesee","type":"Kreisangehörige_Gemeinde"},"district":{"key":"03458","name":"Oldenburg","type":"Landkreis"},"federalState":{"key":"03","name":"Niedersachsen"}},{"name":"Rosengarten","postalCode":"27777","locality":"Ganderkesee","municipality":{"key":"03458005","name":"Ganderkesee","type":"Kreisangehörige_Gemeinde"},"district":{"key":"03458","name":"Oldenburg","type":"Landkreis"},"federalState":{"key":"03","name":"Niedersachsen"}},{"name":"Rosenweg","postalCode":"27777","locality":"Ganderkesee","municipality":{"key":"03458005","name":"Ganderkesee","type":"Kreisangehörige_Gemeinde"},"district":{"key":"03458","name":"Oldenburg","type":"Landkreis"},"federalState":{"key":"03","name":"Niedersachsen"}},{"name":"Rotkehlchenweg","postalCode":"27777","locality":"Ganderkesee","municipality":{"key":"03458005","name":"Ganderkesee","type":"Kreisangehörige_Gemeinde"},"district":{"key":"03458","name":"Oldenburg","type":"Landkreis"},"federalState":{"key":"03","name":"Niedersachsen"}},{"name":"Rubensstr.","postalCode":"27777","locality":"Ganderkesee","municipality":{"key":"03458005","name":"Ganderkesee","type":"Kreisangehörige_Gemeinde"},"district":{"key":"03458","name":"Oldenburg","type":"Landkreis"},"federalState":{"key":"03","name":"Niedersachsen"}},{"name":"Rudolf-Diesel-Str.","postalCode":"27777","locality":"Ganderkesee","municipality":{"key":"03458005","name":"Ganderkesee","type":"Kreisangehörige_Gemeinde"},"district":{"key":"03458","name":"Oldenburg","type":"Landkreis"},"federalState":{"key":"03","name":"Niedersachsen"}},{"name":"Rudolf-Kinau-Str.","postalCode":"27777","locality":"Ganderkesee","municipality":{"key":"03458005","name":"Ganderkesee","type":"Kreisangehörige_Gemeinde"},"district":{"key":"03458","name":"Oldenburg","type":"Landkreis"},"federalState":{"key":"03","name":"Niedersachsen"}},{"name":"Ruschkamp","postalCode":"27777","locality":"Ganderkesee","municipality":{"key":"03458005","name":"Ganderkesee","type":"Kreisangehörige_Gemeinde"},"district":{"key":"03458","name":"Oldenburg","type":"Landkreis"},"federalState":{"key":"03","name":"Niedersachsen"}},{"name":"Sahren","postalCode":"27777","locality":"Ganderkesee","municipality":{"key":"03458005","name":"Ganderkesee","type":"Kreisangehörige_Gemeinde"},"district":{"key":"03458","name":"Oldenburg","type":"Landkreis"},"federalState":{"key":"03","name":"Niedersachsen"}},{"name":"Sahrener Ring","postalCode":"27777","locality":"Ganderkesee","municipality":{"key":"03458005","name":"Ganderkesee","type":"Kreisangehörige_Gemeinde"},"district":{"key":"03458","name":"Oldenburg","type":"Landkreis"},"federalState":{"key":"03","name":"Niedersachsen"}},{"name":"Sahrener Weg","postalCode":"27777","locality":"Ganderkesee","municipality":{"key":"03458005","name":"Ganderkesee","type":"Kreisangehörige_Gemeinde"},"district":{"key":"03458","name":"Oldenburg","type":"Landkreis"},"federalState":{"key":"03","name":"Niedersachsen"}},{"name":"Sanddornweg","postalCode":"27777","locality":"Ganderkesee","municipality":{"key":"03458005","name":"Ganderkesee","type":"Kreisangehörige_Gemeinde"},"district":{"key":"03458","name":"Oldenburg","type":"Landkreis"},"federalState":{"key":"03","name":"Niedersachsen"}},{"name":"Sandplacken","postalCode":"27777","locality":"Ganderkesee","municipality":{"key":"03458005","name":"Ganderkesee","type":"Kreisangehörige_Gemeinde"},"district":{"key":"03458","name":"Oldenburg","type":"Landkreis"},"federalState":{"key":"03","name":"Niedersachsen"}},{"name":"Sasseneck","postalCode":"27777","locality":"Ganderkesee","municipality":{"key":"03458005","name":"Ganderkesee","type":"Kreisangehörige_Gemeinde"},"district":{"key":"03458","name":"Oldenburg","type":"Landkreis"},"federalState":{"key":"03","name":"Niedersachsen"}},{"name":"Schäfersweg","postalCode":"27777","locality":"Ganderkesee","municipality":{"key":"03458005","name":"Ganderkesee","type":"Kreisangehörige_Gemeinde"},"district":{"key":"03458","name":"Oldenburg","type":"Landkreis"},"federalState":{"key":"03","name":"Niedersachsen"}},{"name":"Schaftrift","postalCode":"27777","locality":"Ganderkesee","municipality":{"key":"03458005","name":"Ganderkesee","type":"Kreisangehörige_Gemeinde"},"district":{"key":"03458","name":"Oldenburg","type":"Landkreis"},"federalState":{"key":"03","name":"Niedersachsen"}},{"name":"Schierbroker Mühlenweg","postalCode":"27777","locality":"Ganderkesee","municipality":{"key":"03458005","name":"Ganderkesee","type":"Kreisangehörige_Gemeinde"},"district":{"key":"03458","name":"Oldenburg","type":"Landkreis"},"federalState":{"key":"03","name":"Niedersachsen"}},{"name":"Schierbroker Str.","postalCode":"27777","locality":"Ganderkesee","municipality":{"key":"03458005","name":"Ganderkesee","type":"Kreisangehörige_Gemeinde"},"district":{"key":"03458","name":"Oldenburg","type":"Landkreis"},"federalState":{"key":"03","name":"Niedersachsen"}},{"name":"Schilfweg","postalCode":"27777","locality":"Ganderkesee","municipality":{"key":"03458005","name":"Ganderkesee","type":"Kreisangehörige_Gemeinde"},"district":{"key":"03458","name":"Oldenburg","type":"Landkreis"},"federalState":{"key":"03","name":"Niedersachsen"}},{"name":"Schillerstr.","postalCode":"27777","locality":"Ganderkesee","municipality":{"key":"03458005","name":"Ganderkesee","type":"Kreisangehörige_Gemeinde"},"district":{"key":"03458","name":"Oldenburg","type":"Landkreis"},"federalState":{"key":"03","name":"Niedersachsen"}},{"name":"Schlattenweg","postalCode":"27777","locality":"Ganderkesee","municipality":{"key":"03458005","name":"Ganderkesee","type":"Kreisangehörige_Gemeinde"},"district":{"key":"03458","name":"Oldenburg","type":"Landkreis"},"federalState":{"key":"03","name":"Niedersachsen"}},{"name":"Schleswiger Str.","postalCode":"27777","locality":"Ganderkesee","municipality":{"key":"03458005","name":"Ganderkesee","type":"Kreisangehörige_Gemeinde"},"district":{"key":"03458","name":"Oldenburg","type":"Landkreis"},"federalState":{"key":"03","name":"Niedersachsen"}},{"name":"Schluttermühlenweg","postalCode":"27777","locality":"Ganderkesee","municipality":{"key":"03458005","name":"Ganderkesee","type":"Kreisangehörige_Gemeinde"},"district":{"key":"03458","name":"Oldenburg","type":"Landkreis"},"federalState":{"key":"03","name":"Niedersachsen"}},{"name":"Schlutterweg","postalCode":"27777","locality":"Ganderkesee","municipality":{"key":"03458005","name":"Ganderkesee","type":"Kreisangehörige_Gemeinde"},"district":{"key":"03458","name":"Oldenburg","type":"Landkreis"},"federalState":{"key":"03","name":"Niedersachsen"}},{"name":"Schmale Str.","postalCode":"27777","locality":"Ganderkesee","municipality":{"key":"03458005","name":"Ganderkesee","type":"Kreisangehörige_Gemeinde"},"district":{"key":"03458","name":"Oldenburg","type":"Landkreis"},"federalState":{"key":"03","name":"Niedersachsen"}},{"name":"Schmiedeweg","postalCode":"27777","locality":"Ganderkesee","municipality":{"key":"03458005","name":"Ganderkesee","type":"Kreisangehörige_Gemeinde"},"district":{"key":"03458","name":"Oldenburg","type":"Landkreis"},"federalState":{"key":"03","name":"Niedersachsen"}},{"name":"Schönemoorer Dorfstr.","postalCode":"27777","locality":"Ganderkesee","municipality":{"key":"03458005","name":"Ganderkesee","type":"Kreisangehörige_Gemeinde"},"district":{"key":"03458","name":"Oldenburg","type":"Landkreis"},"federalState":{"key":"03","name":"Niedersachsen"}},{"name":"Schönemoorer Landstr.","postalCode":"27777","locality":"Ganderkesee","municipality":{"key":"03458005","name":"Ganderkesee","type":"Kreisangehörige_Gemeinde"},"district":{"key":"03458","name":"Oldenburg","type":"Landkreis"},"federalState":{"key":"03","name":"Niedersachsen"}},{"name":"Schulweg","postalCode":"27777","locality":"Ganderkesee","municipality":{"key":"03458005","name":"Ganderkesee","type":"Kreisangehörige_Gemeinde"},"district":{"key":"03458","name":"Oldenburg","type":"Landkreis"},"federalState":{"key":"03","name":"Niedersachsen"}},{"name":"Schütteweg","postalCode":"27777","locality":"Ganderkesee","municipality":{"key":"03458005","name":"Ganderkesee","type":"Kreisangehörige_Gemeinde"},"district":{"key":"03458","name":"Oldenburg","type":"Landkreis"},"federalState":{"key":"03","name":"Niedersachsen"}},{"name":"Schützenstr.","postalCode":"27777","locality":"Ganderkesee","municipality":{"key":"03458005","name":"Ganderkesee","type":"Kreisangehörige_Gemeinde"},"district":{"key":"03458","name":"Oldenburg","type":"Landkreis"},"federalState":{"key":"03","name":"Niedersachsen"}},{"name":"Schwalbenweg","postalCode":"27777","locality":"Ganderkesee","municipality":{"key":"03458005","name":"Ganderkesee","type":"Kreisangehörige_Gemeinde"},"district":{"key":"03458","name":"Oldenburg","type":"Landkreis"},"federalState":{"key":"03","name":"Niedersachsen"}},{"name":"Schwanenweg","postalCode":"27777","locality":"Ganderkesee","municipality":{"key":"03458005","name":"Ganderkesee","type":"Kreisangehörige_Gemeinde"},"district":{"key":"03458","name":"Oldenburg","type":"Landkreis"},"federalState":{"key":"03","name":"Niedersachsen"}},{"name":"Schwarzdornweg","postalCode":"27777","locality":"Ganderkesee","municipality":{"key":"03458005","name":"Ganderkesee","type":"Kreisangehörige_Gemeinde"},"district":{"key":"03458","name":"Oldenburg","type":"Landkreis"},"federalState":{"key":"03","name":"Niedersachsen"}},{"name":"Schweinsheide","postalCode":"27777","locality":"Ganderkesee","municipality":{"key":"03458005","name":"Ganderkesee","type":"Kreisangehörige_Gemeinde"},"district":{"key":"03458","name":"Oldenburg","type":"Landkreis"},"federalState":{"key":"03","name":"Niedersachsen"}},{"name":"Seemannsweg","postalCode":"27777","locality":"Ganderkesee","municipality":{"key":"03458005","name":"Ganderkesee","type":"Kreisangehörige_Gemeinde"},"district":{"key":"03458","name":"Oldenburg","type":"Landkreis"},"federalState":{"key":"03","name":"Niedersachsen"}},{"name":"Seggenkamp","postalCode":"27777","locality":"Ganderkesee","municipality":{"key":"03458005","name":"Ganderkesee","type":"Kreisangehörige_Gemeinde"},"district":{"key":"03458","name":"Oldenburg","type":"Landkreis"},"federalState":{"key":"03","name":"Niedersachsen"}},{"name":"Soltauer Str.","postalCode":"27777","locality":"Ganderkesee","municipality":{"key":"03458005","name":"Ganderkesee","type":"Kreisangehörige_Gemeinde"},"district":{"key":"03458","name":"Oldenburg","type":"Landkreis"},"federalState":{"key":"03","name":"Niedersachsen"}},{"name":"Sommerpadd","postalCode":"27777","locality":"Ganderkesee","municipality":{"key":"03458005","name":"Ganderkesee","type":"Kreisangehörige_Gemeinde"},"district":{"key":"03458","name":"Oldenburg","type":"Landkreis"},"federalState":{"key":"03","name":"Niedersachsen"}},{"name":"Sommerweg","postalCode":"27777","locality":"Ganderkesee","municipality":{"key":"03458005","name":"Ganderkesee","type":"Kreisangehörige_Gemeinde"},"district":{"key":"03458","name":"Oldenburg","type":"Landkreis"},"federalState":{"key":"03","name":"Niedersachsen"}},{"name":"Sonnenblumenweg","postalCode":"27777","locality":"Ganderkesee","municipality":{"key":"03458005","name":"Ganderkesee","type":"Kreisangehörige_Gemeinde"},"district":{"key":"03458","name":"Oldenburg","type":"Landkreis"},"federalState":{"key":"03","name":"Niedersachsen"}},{"name":"Sperberweg","postalCode":"27777","locality":"Ganderkesee","municipality":{"key":"03458005","name":"Ganderkesee","type":"Kreisangehörige_Gemeinde"},"district":{"key":"03458","name":"Oldenburg","type":"Landkreis"},"federalState":{"key":"03","name":"Niedersachsen"}},{"name":"Spitzenkiel","postalCode":"27777","locality":"Ganderkesee","municipality":{"key":"03458005","name":"Ganderkesee","type":"Kreisangehörige_Gemeinde"},"district":{"key":"03458","name":"Oldenburg","type":"Landkreis"},"federalState":{"key":"03","name":"Niedersachsen"}},{"name":"Spreenshöhe","postalCode":"27777","locality":"Ganderkesee","municipality":{"key":"03458005","name":"Ganderkesee","type":"Kreisangehörige_Gemeinde"},"district":{"key":"03458","name":"Oldenburg","type":"Landkreis"},"federalState":{"key":"03","name":"Niedersachsen"}},{"name":"St.-Bernhard-Str.","postalCode":"27777","locality":"Ganderkesee","municipality":{"key":"03458005","name":"Ganderkesee","type":"Kreisangehörige_Gemeinde"},"district":{"key":"03458","name":"Oldenburg","type":"Landkreis"},"federalState":{"key":"03","name":"Niedersachsen"}},{"name":"Stedinger Str.","postalCode":"27777","locality":"Ganderkesee","municipality":{"key":"03458005","name":"Ganderkesee","type":"Kreisangehörige_Gemeinde"},"district":{"key":"03458","name":"Oldenburg","type":"Landkreis"},"federalState":{"key":"03","name":"Niedersachsen"}},{"name":"Stedinger Weg","postalCode":"27777","locality":"Ganderkesee","municipality":{"key":"03458005","name":"Ganderkesee","type":"Kreisangehörige_Gemeinde"},"district":{"key":"03458","name":"Oldenburg","type":"Landkreis"},"federalState":{"key":"03","name":"Niedersachsen"}},{"name":"Steenhafer Berg","postalCode":"27777","locality":"Ganderkesee","municipality":{"key":"03458005","name":"Ganderkesee","type":"Kreisangehörige_Gemeinde"},"district":{"key":"03458","name":"Oldenburg","type":"Landkreis"},"federalState":{"key":"03","name":"Niedersachsen"}},{"name":"Steenpadd","postalCode":"27777","locality":"Ganderkesee","municipality":{"key":"03458005","name":"Ganderkesee","type":"Kreisangehörige_Gemeinde"},"district":{"key":"03458","name":"Oldenburg","type":"Landkreis"},"federalState":{"key":"03","name":"Niedersachsen"}},{"name":"Steinweg","postalCode":"27777","locality":"Ganderkesee","municipality":{"key":"03458005","name":"Ganderkesee","type":"Kreisangehörige_Gemeinde"},"district":{"key":"03458","name":"Oldenburg","type":"Landkreis"},"federalState":{"key":"03","name":"Niedersachsen"}},{"name":"Stenumer Str.","postalCode":"27777","locality":"Ganderkesee","municipality":{"key":"03458005","name":"Ganderkesee","type":"Kreisangehörige_Gemeinde"},"district":{"key":"03458","name":"Oldenburg","type":"Landkreis"},"federalState":{"key":"03","name":"Niedersachsen"}},{"name":"Sternstr.","postalCode":"27777","locality":"Ganderkesee","municipality":{"key":"03458005","name":"Ganderkesee","type":"Kreisangehörige_Gemeinde"},"district":{"key":"03458","name":"Oldenburg","type":"Landkreis"},"federalState":{"key":"03","name":"Niedersachsen"}},{"name":"Stettiner Weg","postalCode":"27777","locality":"Ganderkesee","municipality":{"key":"03458005","name":"Ganderkesee","type":"Kreisangehörige_Gemeinde"},"district":{"key":"03458","name":"Oldenburg","type":"Landkreis"},"federalState":{"key":"03","name":"Niedersachsen"}},{"name":"St.-Florian-Str.","postalCode":"27777","locality":"Ganderkesee","municipality":{"key":"03458005","name":"Ganderkesee","type":"Kreisangehörige_Gemeinde"},"district":{"key":"03458","name":"Oldenburg","type":"Landkreis"},"federalState":{"key":"03","name":"Niedersachsen"}},{"name":"Stieglitzstr.","postalCode":"27777","locality":"Ganderkesee","municipality":{"key":"03458005","name":"Ganderkesee","type":"Kreisangehörige_Gemeinde"},"district":{"key":"03458","name":"Oldenburg","type":"Landkreis"},"federalState":{"key":"03","name":"Niedersachsen"}},{"name":"Stockrosenweg","postalCode":"27777","locality":"Ganderkesee","municipality":{"key":"03458005","name":"Ganderkesee","type":"Kreisangehörige_Gemeinde"},"district":{"key":"03458","name":"Oldenburg","type":"Landkreis"},"federalState":{"key":"03","name":"Niedersachsen"}},{"name":"Strohpadd","postalCode":"27777","locality":"Ganderkesee","municipality":{"key":"03458005","name":"Ganderkesee","type":"Kreisangehörige_Gemeinde"},"district":{"key":"03458","name":"Oldenburg","type":"Landkreis"},"federalState":{"key":"03","name":"Niedersachsen"}},{"name":"Stüher Str.","postalCode":"27777","locality":"Ganderkesee","municipality":{"key":"03458005","name":"Ganderkesee","type":"Kreisangehörige_Gemeinde"},"district":{"key":"03458","name":"Oldenburg","type":"Landkreis"},"federalState":{"key":"03","name":"Niedersachsen"}},{"name":"Tange","postalCode":"27777","locality":"Ganderkesee","municipality":{"key":"03458005","name":"Ganderkesee","type":"Kreisangehörige_Gemeinde"},"district":{"key":"03458","name":"Oldenburg","type":"Landkreis"},"federalState":{"key":"03","name":"Niedersachsen"}},{"name":"Tannenweg","postalCode":"27777","locality":"Ganderkesee","municipality":{"key":"03458005","name":"Ganderkesee","type":"Kreisangehörige_Gemeinde"},"district":{"key":"03458","name":"Oldenburg","type":"Landkreis"},"federalState":{"key":"03","name":"Niedersachsen"}},{"name":"Taubenweg","postalCode":"27777","locality":"Ganderkesee","municipality":{"key":"03458005","name":"Ganderkesee","type":"Kreisangehörige_Gemeinde"},"district":{"key":"03458","name":"Oldenburg","type":"Landkreis"},"federalState":{"key":"03","name":"Niedersachsen"}},{"name":"Theodor-Fontane-Str.","postalCode":"27777","locality":"Ganderkesee","municipality":{"key":"03458005","name":"Ganderkesee","type":"Kreisangehörige_Gemeinde"},"district":{"key":"03458","name":"Oldenburg","type":"Landkreis"},"federalState":{"key":"03","name":"Niedersachsen"}},{"name":"Theodor-Storm-Weg","postalCode":"27777","locality":"Ganderkesee","municipality":{"key":"03458005","name":"Ganderkesee","type":"Kreisangehörige_Gemeinde"},"district":{"key":"03458","name":"Oldenburg","type":"Landkreis"},"federalState":{"key":"03","name":"Niedersachsen"}},{"name":"Tilsiter Weg","postalCode":"27777","locality":"Ganderkesee","municipality":{"key":"03458005","name":"Ganderkesee","type":"Kreisangehörige_Gemeinde"},"district":{"key":"03458","name":"Oldenburg","type":"Landkreis"},"federalState":{"key":"03","name":"Niedersachsen"}},{"name":"To'n Ahrensbarg","postalCode":"27777","locality":"Ganderkesee","municipality":{"key":"03458005","name":"Ganderkesee","type":"Kreisangehörige_Gemeinde"},"district":{"key":"03458","name":"Oldenburg","type":"Landkreis"},"federalState":{"key":"03","name":"Niedersachsen"}},{"name":"To'n Slagboom","postalCode":"27777","locality":"Ganderkesee","municipality":{"key":"03458005","name":"Ganderkesee","type":"Kreisangehörige_Gemeinde"},"district":{"key":"03458","name":"Oldenburg","type":"Landkreis"},"federalState":{"key":"03","name":"Niedersachsen"}},{"name":"Torfweg","postalCode":"27777","locality":"Ganderkesee","municipality":{"key":"03458005","name":"Ganderkesee","type":"Kreisangehörige_Gemeinde"},"district":{"key":"03458","name":"Oldenburg","type":"Landkreis"},"federalState":{"key":"03","name":"Niedersachsen"}},{"name":"Trendelbuscher Weg","postalCode":"27777","locality":"Ganderkesee","municipality":{"key":"03458005","name":"Ganderkesee","type":"Kreisangehörige_Gemeinde"},"district":{"key":"03458","name":"Oldenburg","type":"Landkreis"},"federalState":{"key":"03","name":"Niedersachsen"}},{"name":"Tulpenstr.","postalCode":"27777","locality":"Ganderkesee","municipality":{"key":"03458005","name":"Ganderkesee","type":"Kreisangehörige_Gemeinde"},"district":{"key":"03458","name":"Oldenburg","type":"Landkreis"},"federalState":{"key":"03","name":"Niedersachsen"}},{"name":"Uhlandstr.","postalCode":"27777","locality":"Ganderkesee","municipality":{"key":"03458005","name":"Ganderkesee","type":"Kreisangehörige_Gemeinde"},"district":{"key":"03458","name":"Oldenburg","type":"Landkreis"},"federalState":{"key":"03","name":"Niedersachsen"}},{"name":"Uhlenkamp","postalCode":"27777","locality":"Ganderkesee","municipality":{"key":"03458005","name":"Ganderkesee","type":"Kreisangehörige_Gemeinde"},"district":{"key":"03458","name":"Oldenburg","type":"Landkreis"},"federalState":{"key":"03","name":"Niedersachsen"}},{"name":"Ulmenstr.","postalCode":"27777","locality":"Ganderkesee","municipality":{"key":"03458005","name":"Ganderkesee","type":"Kreisangehörige_Gemeinde"},"district":{"key":"03458","name":"Oldenburg","type":"Landkreis"},"federalState":{"key":"03","name":"Niedersachsen"}},{"name":"Unter den Eichen","postalCode":"27777","locality":"Ganderkesee","municipality":{"key":"03458005","name":"Ganderkesee","type":"Kreisangehörige_Gemeinde"},"district":{"key":"03458","name":"Oldenburg","type":"Landkreis"},"federalState":{"key":"03","name":"Niedersachsen"}},{"name":"Urneburger Feld","postalCode":"27777","locality":"Ganderkesee","municipality":{"key":"03458005","name":"Ganderkesee","type":"Kreisangehörige_Gemeinde"},"district":{"key":"03458","name":"Oldenburg","type":"Landkreis"},"federalState":{"key":"03","name":"Niedersachsen"}},{"name":"Urneburger Str.","postalCode":"27777","locality":"Ganderkesee","municipality":{"key":"03458005","name":"Ganderkesee","type":"Kreisangehörige_Gemeinde"},"district":{"key":"03458","name":"Oldenburg","type":"Landkreis"},"federalState":{"key":"03","name":"Niedersachsen"}},{"name":"Vielstedter Str.","postalCode":"27777","locality":"Ganderkesee","municipality":{"key":"03458005","name":"Ganderkesee","type":"Kreisangehörige_Gemeinde"},"district":{"key":"03458","name":"Oldenburg","type":"Landkreis"},"federalState":{"key":"03","name":"Niedersachsen"}},{"name":"Vogelbeerstr.","postalCode":"27777","locality":"Ganderkesee","municipality":{"key":"03458005","name":"Ganderkesee","type":"Kreisangehörige_Gemeinde"},"district":{"key":"03458","name":"Oldenburg","type":"Landkreis"},"federalState":{"key":"03","name":"Niedersachsen"}},{"name":"Vollersweg","postalCode":"27777","locality":"Ganderkesee","municipality":{"key":"03458005","name":"Ganderkesee","type":"Kreisangehörige_Gemeinde"},"district":{"key":"03458","name":"Oldenburg","type":"Landkreis"},"federalState":{"key":"03","name":"Niedersachsen"}},{"name":"Vor dem Feld","postalCode":"27777","locality":"Ganderkesee","municipality":{"key":"03458005","name":"Ganderkesee","type":"Kreisangehörige_Gemeinde"},"district":{"key":"03458","name":"Oldenburg","type":"Landkreis"},"federalState":{"key":"03","name":"Niedersachsen"}},{"name":"Vor dem Moore","postalCode":"27777","locality":"Ganderkesee","municipality":{"key":"03458005","name":"Ganderkesee","type":"Kreisangehörige_Gemeinde"},"district":{"key":"03458","name":"Oldenburg","type":"Landkreis"},"federalState":{"key":"03","name":"Niedersachsen"}},{"name":"Vosteen","postalCode":"27777","locality":"Ganderkesee","municipality":{"key":"03458005","name":"Ganderkesee","type":"Kreisangehörige_Gemeinde"},"district":{"key":"03458","name":"Oldenburg","type":"Landkreis"},"federalState":{"key":"03","name":"Niedersachsen"}},{"name":"Wacholderstr.","postalCode":"27777","locality":"Ganderkesee","municipality":{"key":"03458005","name":"Ganderkesee","type":"Kreisangehörige_Gemeinde"},"district":{"key":"03458","name":"Oldenburg","type":"Landkreis"},"federalState":{"key":"03","name":"Niedersachsen"}},{"name":"Wachtelweg","postalCode":"27777","locality":"Ganderkesee","municipality":{"key":"03458005","name":"Ganderkesee","type":"Kreisangehörige_Gemeinde"},"district":{"key":"03458","name":"Oldenburg","type":"Landkreis"},"federalState":{"key":"03","name":"Niedersachsen"}},{"name":"Wagnerstr.","postalCode":"27777","locality":"Ganderkesee","municipality":{"key":"03458005","name":"Ganderkesee","type":"Kreisangehörige_Gemeinde"},"district":{"key":"03458","name":"Oldenburg","type":"Landkreis"},"federalState":{"key":"03","name":"Niedersachsen"}},{"name":"Waldrebenweg","postalCode":"27777","locality":"Ganderkesee","municipality":{"key":"03458005","name":"Ganderkesee","type":"Kreisangehörige_Gemeinde"},"district":{"key":"03458","name":"Oldenburg","type":"Landkreis"},"federalState":{"key":"03","name":"Niedersachsen"}},{"name":"Warrelmannsweg","postalCode":"27777","locality":"Ganderkesee","municipality":{"key":"03458005","name":"Ganderkesee","type":"Kreisangehörige_Gemeinde"},"district":{"key":"03458","name":"Oldenburg","type":"Landkreis"},"federalState":{"key":"03","name":"Niedersachsen"}},{"name":"Wasserrosenweg","postalCode":"27777","locality":"Ganderkesee","municipality":{"key":"03458005","name":"Ganderkesee","type":"Kreisangehörige_Gemeinde"},"district":{"key":"03458","name":"Oldenburg","type":"Landkreis"},"federalState":{"key":"03","name":"Niedersachsen"}},{"name":"Weberwinkel","postalCode":"27777","locality":"Ganderkesee","municipality":{"key":"03458005","name":"Ganderkesee","type":"Kreisangehörige_Gemeinde"},"district":{"key":"03458","name":"Oldenburg","type":"Landkreis"},"federalState":{"key":"03","name":"Niedersachsen"}},{"name":"Weetenstück","postalCode":"27777","locality":"Ganderkesee","municipality":{"key":"03458005","name":"Ganderkesee","type":"Kreisangehörige_Gemeinde"},"district":{"key":"03458","name":"Oldenburg","type":"Landkreis"},"federalState":{"key":"03","name":"Niedersachsen"}},{"name":"Weidenkamp","postalCode":"27777","locality":"Ganderkesee","municipality":{"key":"03458005","name":"Ganderkesee","type":"Kreisangehörige_Gemeinde"},"district":{"key":"03458","name":"Oldenburg","type":"Landkreis"},"federalState":{"key":"03","name":"Niedersachsen"}},{"name":"Weihenwiesenweg","postalCode":"27777","locality":"Ganderkesee","municipality":{"key":"03458005","name":"Ganderkesee","type":"Kreisangehörige_Gemeinde"},"district":{"key":"03458","name":"Oldenburg","type":"Landkreis"},"federalState":{"key":"03","name":"Niedersachsen"}},{"name":"Weißbuchenstr.","postalCode":"27777","locality":"Ganderkesee","municipality":{"key":"03458005","name":"Ganderkesee","type":"Kreisangehörige_Gemeinde"},"district":{"key":"03458","name":"Oldenburg","type":"Landkreis"},"federalState":{"key":"03","name":"Niedersachsen"}},{"name":"Weißdornweg","postalCode":"27777","locality":"Ganderkesee","municipality":{"key":"03458005","name":"Ganderkesee","type":"Kreisangehörige_Gemeinde"},"district":{"key":"03458","name":"Oldenburg","type":"Landkreis"},"federalState":{"key":"03","name":"Niedersachsen"}},{"name":"Wellenhofsweg","postalCode":"27777","locality":"Ganderkesee","municipality":{"key":"03458005","name":"Ganderkesee","type":"Kreisangehörige_Gemeinde"},"district":{"key":"03458","name":"Oldenburg","type":"Landkreis"},"federalState":{"key":"03","name":"Niedersachsen"}},{"name":"Welsestr.","postalCode":"27777","locality":"Ganderkesee","municipality":{"key":"03458005","name":"Ganderkesee","type":"Kreisangehörige_Gemeinde"},"district":{"key":"03458","name":"Oldenburg","type":"Landkreis"},"federalState":{"key":"03","name":"Niedersachsen"}},{"name":"Weserstr.","postalCode":"27777","locality":"Ganderkesee","municipality":{"key":"03458005","name":"Ganderkesee","type":"Kreisangehörige_Gemeinde"},"district":{"key":"03458","name":"Oldenburg","type":"Landkreis"},"federalState":{"key":"03","name":"Niedersachsen"}},{"name":"Westerloger Str.","postalCode":"27777","locality":"Ganderkesee","municipality":{"key":"03458005","name":"Ganderkesee","type":"Kreisangehörige_Gemeinde"},"district":{"key":"03458","name":"Oldenburg","type":"Landkreis"},"federalState":{"key":"03","name":"Niedersachsen"}},{"name":"Weststr.","postalCode":"27777","locality":"Ganderkesee","municipality":{"key":"03458005","name":"Ganderkesee","type":"Kreisangehörige_Gemeinde"},"district":{"key":"03458","name":"Oldenburg","type":"Landkreis"},"federalState":{"key":"03","name":"Niedersachsen"}},{"name":"Westtangente","postalCode":"27777","locality":"Ganderkesee","municipality":{"key":"03458005","name":"Ganderkesee","type":"Kreisangehörige_Gemeinde"},"district":{"key":"03458","name":"Oldenburg","type":"Landkreis"},"federalState":{"key":"03","name":"Niedersachsen"}},{"name":"Weyhausenweg","postalCode":"27777","locality":"Ganderkesee","municipality":{"key":"03458005","name":"Ganderkesee","type":"Kreisangehörige_Gemeinde"},"district":{"key":"03458","name":"Oldenburg","type":"Landkreis"},"federalState":{"key":"03","name":"Niedersachsen"}},{"name":"Wichernstift","postalCode":"27777","locality":"Ganderkesee","municipality":{"key":"03458005","name":"Ganderkesee","type":"Kreisangehörige_Gemeinde"},"district":{"key":"03458","name":"Oldenburg","type":"Landkreis"},"federalState":{"key":"03","name":"Niedersachsen"}},{"name":"Wiedau","postalCode":"27777","locality":"Ganderkesee","municipality":{"key":"03458005","name":"Ganderkesee","type":"Kreisangehörige_Gemeinde"},"district":{"key":"03458","name":"Oldenburg","type":"Landkreis"},"federalState":{"key":"03","name":"Niedersachsen"}},{"name":"Wieselweg","postalCode":"27777","locality":"Ganderkesee","municipality":{"key":"03458005","name":"Ganderkesee","type":"Kreisangehörige_Gemeinde"},"district":{"key":"03458","name":"Oldenburg","type":"Landkreis"},"federalState":{"key":"03","name":"Niedersachsen"}},{"name":"Wiesenweg","postalCode":"27777","locality":"Ganderkesee","municipality":{"key":"03458005","name":"Ganderkesee","type":"Kreisangehörige_Gemeinde"},"district":{"key":"03458","name":"Oldenburg","type":"Landkreis"},"federalState":{"key":"03","name":"Niedersachsen"}},{"name":"Wildeshauser Landstr.","postalCode":"27777","locality":"Ganderkesee","municipality":{"key":"03458005","name":"Ganderkesee","type":"Kreisangehörige_Gemeinde"},"district":{"key":"03458","name":"Oldenburg","type":"Landkreis"},"federalState":{"key":"03","name":"Niedersachsen"}},{"name":"Wilhelm-Busch-Weg","postalCode":"27777","locality":"Ganderkesee","municipality":{"key":"03458005","name":"Ganderkesee","type":"Kreisangehörige_Gemeinde"},"district":{"key":"03458","name":"Oldenburg","type":"Landkreis"},"federalState":{"key":"03","name":"Niedersachsen"}},{"name":"Windmühlenweg","postalCode":"27777","locality":"Ganderkesee","municipality":{"key":"03458005","name":"Ganderkesee","type":"Kreisangehörige_Gemeinde"},"district":{"key":"03458","name":"Oldenburg","type":"Landkreis"},"federalState":{"key":"03","name":"Niedersachsen"}},{"name":"Winkelweg","postalCode":"27777","locality":"Ganderkesee","municipality":{"key":"03458005","name":"Ganderkesee","type":"Kreisangehörige_Gemeinde"},"district":{"key":"03458","name":"Oldenburg","type":"Landkreis"},"federalState":{"key":"03","name":"Niedersachsen"}},{"name":"Winterpadd","postalCode":"27777","locality":"Ganderkesee","municipality":{"key":"03458005","name":"Ganderkesee","type":"Kreisangehörige_Gemeinde"},"district":{"key":"03458","name":"Oldenburg","type":"Landkreis"},"federalState":{"key":"03","name":"Niedersachsen"}},{"name":"Wischenweg","postalCode":"27777","locality":"Ganderkesee","municipality":{"key":"03458005","name":"Ganderkesee","type":"Kreisangehörige_Gemeinde"},"district":{"key":"03458","name":"Oldenburg","type":"Landkreis"},"federalState":{"key":"03","name":"Niedersachsen"}},{"name":"Wittekindstr.","postalCode":"27777","locality":"Ganderkesee","municipality":{"key":"03458005","name":"Ganderkesee","type":"Kreisangehörige_Gemeinde"},"district":{"key":"03458","name":"Oldenburg","type":"Landkreis"},"federalState":{"key":"03","name":"Niedersachsen"}},{"name":"Wolfsheide","postalCode":"27777","locality":"Ganderkesee","municipality":{"key":"03458005","name":"Ganderkesee","type":"Kreisangehörige_Gemeinde"},"district":{"key":"03458","name":"Oldenburg","type":"Landkreis"},"federalState":{"key":"03","name":"Niedersachsen"}},{"name":"Yorckstr.","postalCode":"26131","locality":"Oldenburg","municipality":{"key":"03403000","name":"Oldenburg (Oldenburg), Stadt","type":"Kreisfreie_Stadt"},"district":{"key":"03403","name":"Oldenburg (Oldenburg), Stadt","type":"Kreisfreie_Stadt"},"federalState":{"key":"03","name":"Niedersachsen"}},{"name":"Zaunkönigweg","postalCode":"27777","locality":"Ganderkesee","municipality":{"key":"03458005","name":"Ganderkesee","type":"Kreisangehörige_Gemeinde"},"district":{"key":"03458","name":"Oldenburg","type":"Landkreis"},"federalState":{"key":"03","name":"Niedersachsen"}},{"name":"Zedernring","postalCode":"27777","locality":"Ganderkesee","municipality":{"key":"03458005","name":"Ganderkesee","type":"Kreisangehörige_Gemeinde"},"district":{"key":"03458","name":"Oldenburg","type":"Landkreis"},"federalState":{"key":"03","name":"Niedersachsen"}},{"name":"Ziegelweg","postalCode":"27777","locality":"Ganderkesee","municipality":{"key":"03458005","name":"Ganderkesee","type":"Kreisangehörige_Gemeinde"},"district":{"key":"03458","name":"Oldenburg","type":"Landkreis"},"federalState":{"key":"03","name":"Niedersachsen"}},{"name":"Zu den Dammwiesen","postalCode":"27777","locality":"Ganderkesee","municipality":{"key":"03458005","name":"Ganderkesee","type":"Kreisangehörige_Gemeinde"},"district":{"key":"03458","name":"Oldenburg","type":"Landkreis"},"federalState":{"key":"03","name":"Niedersachsen"}},{"name":"Zu den Eichen","postalCode":"27777","locality":"Ganderkesee","municipality":{"key":"03458005","name":"Ganderkesee","type":"Kreisangehörige_Gemeinde"},"district":{"key":"03458","name":"Oldenburg","type":"Landkreis"},"federalState":{"key":"03","name":"Niedersachsen"}},{"name":"Zu den Fuhren","postalCode":"27777","locality":"Ganderkesee","municipality":{"key":"03458005","name":"Ganderkesee","type":"Kreisangehörige_Gemeinde"},"district":{"key":"03458","name":"Oldenburg","type":"Landkreis"},"federalState":{"key":"03","name":"Niedersachsen"}},{"name":"Zum Altengraben","postalCode":"27777","locality":"Ganderkesee","municipality":{"key":"03458005","name":"Ganderkesee","type":"Kreisangehörige_Gemeinde"},"district":{"key":"03458","name":"Oldenburg","type":"Landkreis"},"federalState":{"key":"03","name":"Niedersachsen"}},{"name":"Zum Anger","postalCode":"27777","locality":"Ganderkesee","municipality":{"key":"03458005","name":"Ganderkesee","type":"Kreisangehörige_Gemeinde"},"district":{"key":"03458","name":"Oldenburg","type":"Landkreis"},"federalState":{"key":"03","name":"Niedersachsen"}},{"name":"Zum Brook","postalCode":"27777","locality":"Ganderkesee","municipality":{"key":"03458005","name":"Ganderkesee","type":"Kreisangehörige_Gemeinde"},"district":{"key":"03458","name":"Oldenburg","type":"Landkreis"},"federalState":{"key":"03","name":"Niedersachsen"}},{"name":"Zum Brummelhoop","postalCode":"27777","locality":"Ganderkesee","municipality":{"key":"03458005","name":"Ganderkesee","type":"Kreisangehörige_Gemeinde"},"district":{"key":"03458","name":"Oldenburg","type":"Landkreis"},"federalState":{"key":"03","name":"Niedersachsen"}},{"name":"Zum Domskamp","postalCode":"27777","locality":"Ganderkesee","municipality":{"key":"03458005","name":"Ganderkesee","type":"Kreisangehörige_Gemeinde"},"district":{"key":"03458","name":"Oldenburg","type":"Landkreis"},"federalState":{"key":"03","name":"Niedersachsen"}},{"name":"Zum Dreiangel","postalCode":"27777","locality":"Ganderkesee","municipality":{"key":"03458005","name":"Ganderkesee","type":"Kreisangehörige_Gemeinde"},"district":{"key":"03458","name":"Oldenburg","type":"Landkreis"},"federalState":{"key":"03","name":"Niedersachsen"}},{"name":"Zum Dreieck","postalCode":"27777","locality":"Ganderkesee","municipality":{"key":"03458005","name":"Ganderkesee","type":"Kreisangehörige_Gemeinde"},"district":{"key":"03458","name":"Oldenburg","type":"Landkreis"},"federalState":{"key":"03","name":"Niedersachsen"}},{"name":"Zum Fischerteich","postalCode":"27777","locality":"Ganderkesee","municipality":{"key":"03458005","name":"Ganderkesee","type":"Kreisangehörige_Gemeinde"},"district":{"key":"03458","name":"Oldenburg","type":"Landkreis"},"federalState":{"key":"03","name":"Niedersachsen"}},{"name":"Zum Fritzenberg","postalCode":"27777","locality":"Ganderkesee","municipality":{"key":"03458005","name":"Ganderkesee","type":"Kreisangehörige_Gemeinde"},"district":{"key":"03458","name":"Oldenburg","type":"Landkreis"},"federalState":{"key":"03","name":"Niedersachsen"}},{"name":"Zum Fuchsbau","postalCode":"27777","locality":"Ganderkesee","municipality":{"key":"03458005","name":"Ganderkesee","type":"Kreisangehörige_Gemeinde"},"district":{"key":"03458","name":"Oldenburg","type":"Landkreis"},"federalState":{"key":"03","name":"Niedersachsen"}},{"name":"Zum Gut Holzkamp","postalCode":"27777","locality":"Ganderkesee","municipality":{"key":"03458005","name":"Ganderkesee","type":"Kreisangehörige_Gemeinde"},"district":{"key":"03458","name":"Oldenburg","type":"Landkreis"},"federalState":{"key":"03","name":"Niedersachsen"}},{"name":"Zum Hang","postalCode":"27777","locality":"Ganderkesee","municipality":{"key":"03458005","name":"Ganderkesee","type":"Kreisangehörige_Gemeinde"},"district":{"key":"03458","name":"Oldenburg","type":"Landkreis"},"federalState":{"key":"03","name":"Niedersachsen"}},{"name":"Zum Heidenloh","postalCode":"27777","locality":"Ganderkesee","municipality":{"key":"03458005","name":"Ganderkesee","type":"Kreisangehörige_Gemeinde"},"district":{"key":"03458","name":"Oldenburg","type":"Landkreis"},"federalState":{"key":"03","name":"Niedersachsen"}},{"name":"Zum Königsfarn","postalCode":"27777","locality":"Ganderkesee","municipality":{"key":"03458005","name":"Ganderkesee","type":"Kreisangehörige_Gemeinde"},"district":{"key":"03458","name":"Oldenburg","type":"Landkreis"},"federalState":{"key":"03","name":"Niedersachsen"}},{"name":"Zum Kreyenkamp","postalCode":"27777","locality":"Ganderkesee","municipality":{"key":"03458005","name":"Ganderkesee","type":"Kreisangehörige_Gemeinde"},"district":{"key":"03458","name":"Oldenburg","type":"Landkreis"},"federalState":{"key":"03","name":"Niedersachsen"}},{"name":"Zum Mitteldorf","postalCode":"27777","locality":"Ganderkesee","municipality":{"key":"03458005","name":"Ganderkesee","type":"Kreisangehörige_Gemeinde"},"district":{"key":"03458","name":"Oldenburg","type":"Landkreis"},"federalState":{"key":"03","name":"Niedersachsen"}},{"name":"Zum Mittelhoop","postalCode":"27777","locality":"Ganderkesee","municipality":{"key":"03458005","name":"Ganderkesee","type":"Kreisangehörige_Gemeinde"},"district":{"key":"03458","name":"Oldenburg","type":"Landkreis"},"federalState":{"key":"03","name":"Niedersachsen"}},{"name":"Zum Moorschlatt","postalCode":"27777","locality":"Ganderkesee","municipality":{"key":"03458005","name":"Ganderkesee","type":"Kreisangehörige_Gemeinde"},"district":{"key":"03458","name":"Oldenburg","type":"Landkreis"},"federalState":{"key":"03","name":"Niedersachsen"}},{"name":"Zum Mühlenbach","postalCode":"27777","locality":"Ganderkesee","municipality":{"key":"03458005","name":"Ganderkesee","type":"Kreisangehörige_Gemeinde"},"district":{"key":"03458","name":"Oldenburg","type":"Landkreis"},"federalState":{"key":"03","name":"Niedersachsen"}},{"name":"Zum Rickelsberg","postalCode":"27777","locality":"Ganderkesee","municipality":{"key":"03458005","name":"Ganderkesee","type":"Kreisangehörige_Gemeinde"},"district":{"key":"03458","name":"Oldenburg","type":"Landkreis"},"federalState":{"key":"03","name":"Niedersachsen"}},{"name":"Zum Sande","postalCode":"27777","locality":"Ganderkesee","municipality":{"key":"03458005","name":"Ganderkesee","type":"Kreisangehörige_Gemeinde"},"district":{"key":"03458","name":"Oldenburg","type":"Landkreis"},"federalState":{"key":"03","name":"Niedersachsen"}},{"name":"Zum Schierenfeld","postalCode":"27777","locality":"Ganderkesee","municipality":{"key":"03458005","name":"Ganderkesee","type":"Kreisangehörige_Gemeinde"},"district":{"key":"03458","name":"Oldenburg","type":"Landkreis"},"federalState":{"key":"03","name":"Niedersachsen"}},{"name":"Zum Sonnenberg","postalCode":"27777","locality":"Ganderkesee","municipality":{"key":"03458005","name":"Ganderkesee","type":"Kreisangehörige_Gemeinde"},"district":{"key":"03458","name":"Oldenburg","type":"Landkreis"},"federalState":{"key":"03","name":"Niedersachsen"}},{"name":"Zum Sonnentau","postalCode":"27777","locality":"Ganderkesee","municipality":{"key":"03458005","name":"Ganderkesee","type":"Kreisangehörige_Gemeinde"},"district":{"key":"03458","name":"Oldenburg","type":"Landkreis"},"federalState":{"key":"03","name":"Niedersachsen"}},{"name":"Zum Tonstich","postalCode":"27777","locality":"Ganderkesee","municipality":{"key":"03458005","name":"Ganderkesee","type":"Kreisangehörige_Gemeinde"},"district":{"key":"03458","name":"Oldenburg","type":"Landkreis"},"federalState":{"key":"03","name":"Niedersachsen"}},{"name":"Zur Bäke","postalCode":"27777","locality":"Ganderkesee","municipality":{"key":"03458005","name":"Ganderkesee","type":"Kreisangehörige_Gemeinde"},"district":{"key":"03458","name":"Oldenburg","type":"Landkreis"},"federalState":{"key":"03","name":"Niedersachsen"}},{"name":"Zur Bienenweide","postalCode":"27777","locality":"Ganderkesee","municipality":{"key":"03458005","name":"Ganderkesee","type":"Kreisangehörige_Gemeinde"},"district":{"key":"03458","name":"Oldenburg","type":"Landkreis"},"federalState":{"key":"03","name":"Niedersachsen"}},{"name":"Zur Dicken Eiche","postalCode":"27777","locality":"Ganderkesee","municipality":{"key":"03458005","name":"Ganderkesee","type":"Kreisangehörige_Gemeinde"},"district":{"key":"03458","name":"Oldenburg","type":"Landkreis"},"federalState":{"key":"03","name":"Niedersachsen"}},{"name":"Zur Feldhorst","postalCode":"27777","locality":"Ganderkesee","municipality":{"key":"03458005","name":"Ganderkesee","type":"Kreisangehörige_Gemeinde"},"district":{"key":"03458","name":"Oldenburg","type":"Landkreis"},"federalState":{"key":"03","name":"Niedersachsen"}},{"name":"Zur Försterei","postalCode":"27777","locality":"Ganderkesee","municipality":{"key":"03458005","name":"Ganderkesee","type":"Kreisangehörige_Gemeinde"},"district":{"key":"03458","name":"Oldenburg","type":"Landkreis"},"federalState":{"key":"03","name":"Niedersachsen"}},{"name":"Zur Hesterei","postalCode":"27777","locality":"Ganderkesee","municipality":{"key":"03458005","name":"Ganderkesee","type":"Kreisangehörige_Gemeinde"},"district":{"key":"03458","name":"Oldenburg","type":"Landkreis"},"federalState":{"key":"03","name":"Niedersachsen"}},{"name":"Zur Hörspe","postalCode":"27777","locality":"Ganderkesee","municipality":{"key":"03458005","name":"Ganderkesee","type":"Kreisangehörige_Gemeinde"},"district":{"key":"03458","name":"Oldenburg","type":"Landkreis"},"federalState":{"key":"03","name":"Niedersachsen"}},{"name":"Zur Löhnhorst","postalCode":"27777","locality":"Ganderkesee","municipality":{"key":"03458005","name":"Ganderkesee","type":"Kreisangehörige_Gemeinde"},"district":{"key":"03458","name":"Oldenburg","type":"Landkreis"},"federalState":{"key":"03","name":"Niedersachsen"}},{"name":"Zur Ollen","postalCode":"27777","locality":"Ganderkesee","municipality":{"key":"03458005","name":"Ganderkesee","type":"Kreisangehörige_Gemeinde"},"district":{"key":"03458","name":"Oldenburg","type":"Landkreis"},"federalState":{"key":"03","name":"Niedersachsen"}},{"name":"Zur Pferdeweide","postalCode":"27777","locality":"Ganderkesee","municipality":{"key":"03458005","name":"Ganderkesee","type":"Kreisangehörige_Gemeinde"},"district":{"key":"03458","name":"Oldenburg","type":"Landkreis"},"federalState":{"key":"03","name":"Niedersachsen"}},{"name":"Zur Rampe","postalCode":"27777","locality":"Ganderkesee","municipality":{"key":"03458005","name":"Ganderkesee","type":"Kreisangehörige_Gemeinde"},"district":{"key":"03458","name":"Oldenburg","type":"Landkreis"},"federalState":{"key":"03","name":"Niedersachsen"}},{"name":"Zur Schiffstede","postalCode":"27777","locality":"Ganderkesee","municipality":{"key":"03458005","name":"Ganderkesee","type":"Kreisangehörige_Gemeinde"},"district":{"key":"03458","name":"Oldenburg","type":"Landkreis"},"federalState":{"key":"03","name":"Niedersachsen"}},{"name":"Zur Str.nmeisterei","postalCode":"27777","locality":"Ganderkesee","municipality":{"key":"03458005","name":"Ganderkesee","type":"Kreisangehörige_Gemeinde"},"district":{"key":"03458","name":"Oldenburg","type":"Landkreis"},"federalState":{"key":"03","name":"Niedersachsen"}},{"name":"Zur Wassermühle","postalCode":"27777","locality":"Ganderkesee","municipality":{"key":"03458005","name":"Ganderkesee","type":"Kreisangehörige_Gemeinde"},"district":{"key":"03458","name":"Oldenburg","type":"Landkreis"},"federalState":{"key":"03","name":"Niedersachsen"}},{"name":"Zur Wolfskammer","postalCode":"27777","locality":"Ganderkesee","municipality":{"key":"03458005","name":"Ganderkesee","type":"Kreisangehörige_Gemeinde"},"district":{"key":"03458","name":"Oldenburg","type":"Landkreis"},"federalState":{"key":"03","name":"Niedersachsen"}},{"name":"Zwischen den Hestern","postalCode":"27777","locality":"Ganderkesee","municipality":{"key":"03458005","name":"Ganderkesee","type":"Kreisangehörige_Gemeinde"},"district":{"key":"03458","name":"Oldenburg","type":"Landkreis"},"federalState":{"key":"03","name":"Niedersachsen"}},{"name":"Östringer Str.","postalCode":"26121","locality":"Oldenburg","municipality":{"key":"03403000","name":"Oldenburg (Oldenburg), Stadt","type":"Kreisfreie_Stadt"},"district":{"key":"03403","name":"Oldenburg (Oldenburg), Stadt","type":"Kreisfreie_Stadt"},"federalState":{"key":"03","name":"Niedersachsen"}},{"name":"Överkamp","postalCode":"26125","locality":"Oldenburg","municipality":{"key":"03403000","name":"Oldenburg (Oldenburg), Stadt","type":"Kreisfreie_Stadt"},"district":{"key":"03403","name":"Oldenburg (Oldenburg), Stadt","type":"Kreisfreie_Stadt"},"federalState":{"key":"03","name":"Niedersachsen"}},{"name":"Übern Berg","postalCode":"27777","locality":"Ganderkesee","municipality":{"key":"03458005","name":"Ganderkesee","type":"Kreisangehörige_Gemeinde"},"district":{"key":"03458","name":"Oldenburg","type":"Landkreis"},"federalState":{"key":"03","name":"Niedersachsen"}},]