[{"key":"10051753","name":"Aeschi","postalCode":"3066","locality":"Stettlen","commune":{"key":"358","name":"Stettlen","shortName":"Stettlen"},"district":{"key":"246","name":"Verwaltungskreis Bern-Mittelland"},"canton":{"key":"2","code":"BE","name":"Bern / Berne"},"status":"Real"},{"key":"10056560","name":"Aeschiweg","postalCode":"3066","locality":"Stettlen","commune":{"key":"358","name":"Stettlen","shortName":"Stettlen"},"district":{"key":"246","name":"Verwaltungskreis Bern-Mittelland"},"canton":{"key":"2","code":"BE","name":"Bern / Berne"},"status":"Real"},{"key":"10183672","name":"Alpenstrasse","postalCode":"3066","locality":"Stettlen","commune":{"key":"358","name":"Stettlen","shortName":"Stettlen"},"district":{"key":"246","name":"Verwaltungskreis Bern-Mittelland"},"canton":{"key":"2","code":"BE","name":"Bern / Berne"},"status":"Real"},{"key":"10089009","name":"Bahnhofplatz","postalCode":"3066","locality":"Stettlen","commune":{"key":"358","name":"Stettlen","shortName":"Stettlen"},"district":{"key":"246","name":"Verwaltungskreis Bern-Mittelland"},"canton":{"key":"2","code":"BE","name":"Bern / Berne"},"status":"Real"},{"key":"10113504","name":"Bahnhofstrasse","postalCode":"3066","locality":"Stettlen","commune":{"key":"358","name":"Stettlen","shortName":"Stettlen"},"district":{"key":"246","name":"Verwaltungskreis Bern-Mittelland"},"canton":{"key":"2","code":"BE","name":"Bern / Berne"},"status":"Real"},{"key":"10007228","name":"Bergackerstrasse","postalCode":"3066","locality":"Stettlen","commune":{"key":"358","name":"Stettlen","shortName":"Stettlen"},"district":{"key":"246","name":"Verwaltungskreis Bern-Mittelland"},"canton":{"key":"2","code":"BE","name":"Bern / Berne"},"status":"Real"},{"key":"10216755","name":"Bernapark","postalCode":"3066","locality":"Stettlen","commune":{"key":"358","name":"Stettlen","shortName":"Stettlen"},"district":{"key":"246","name":"Verwaltungskreis Bern-Mittelland"},"canton":{"key":"2","code":"BE","name":"Bern / Berne"},"status":"Planned"},{"key":"10056561","name":"Bernstrasse","postalCode":"3066","locality":"Stettlen","commune":{"key":"358","name":"Stettlen","shortName":"Stettlen"},"district":{"key":"246","name":"Verwaltungskreis Bern-Mittelland"},"canton":{"key":"2","code":"BE","name":"Bern / Berne"},"status":"Real"},{"key":"10182007","name":"Bleichestrasse","postalCode":"3066","locality":"Stettlen","commune":{"key":"358","name":"Stettlen","shortName":"Stettlen"},"district":{"key":"246","name":"Verwaltungskreis Bern-Mittelland"},"canton":{"key":"2","code":"BE","name":"Bern / Berne"},"status":"Real"},{"key":"10056822","name":"Boden","postalCode":"3066","locality":"Stettlen","commune":{"key":"358","name":"Stettlen","shortName":"Stettlen"},"district":{"key":"246","name":"Verwaltungskreis Bern-Mittelland"},"canton":{"key":"2","code":"BE","name":"Bern / Berne"},"status":"Real"},{"key":"10007229","name":"Buchholzstrasse","postalCode":"3066","locality":"Stettlen","commune":{"key":"358","name":"Stettlen","shortName":"Stettlen"},"district":{"key":"246","name":"Verwaltungskreis Bern-Mittelland"},"canton":{"key":"2","code":"BE","name":"Bern / Berne"},"status":"Real"},{"key":"10217749","name":"Buchholzstrasse","postalCode":"3066","locality":"Stettlen","commune":{"key":"358","name":"Stettlen","shortName":"Stettlen"},"district":{"key":"246","name":"Verwaltungskreis Bern-Mittelland"},"canton":{"key":"2","code":"BE","name":"Bern / Berne"},"status":"Real"},{"key":"10182904","name":"Egghübeli","postalCode":"3066","locality":"Stettlen","commune":{"key":"358","name":"Stettlen","shortName":"Stettlen"},"district":{"key":"246","name":"Verwaltungskreis Bern-Mittelland"},"canton":{"key":"2","code":"BE","name":"Bern / Berne"},"status":"Real"},{"key":"10007230","name":"Etterholenweg","postalCode":"3066","locality":"Stettlen","commune":{"key":"358","name":"Stettlen","shortName":"Stettlen"},"district":{"key":"246","name":"Verwaltungskreis Bern-Mittelland"},"canton":{"key":"2","code":"BE","name":"Bern / Berne"},"status":"Real"},{"key":"10008108","name":"Feld","postalCode":"3066","locality":"Stettlen","commune":{"key":"358","name":"Stettlen","shortName":"Stettlen"},"district":{"key":"246","name":"Verwaltungskreis Bern-Mittelland"},"canton":{"key":"2","code":"BE","name":"Bern / Berne"},"status":"Real"},{"key":"10008109","name":"Ferenberg","postalCode":"3066","locality":"Stettlen","commune":{"key":"358","name":"Stettlen","shortName":"Stettlen"},"district":{"key":"246","name":"Verwaltungskreis Bern-Mittelland"},"canton":{"key":"2","code":"BE","name":"Bern / Berne"},"status":"Real"},{"key":"10122588","name":"Ferenbergstrasse","postalCode":"3066","locality":"Stettlen","commune":{"key":"358","name":"Stettlen","shortName":"Stettlen"},"district":{"key":"246","name":"Verwaltungskreis Bern-Mittelland"},"canton":{"key":"2","code":"BE","name":"Bern / Berne"},"status":"Real"},{"key":"10105278","name":"Flugbrunnenstrasse","postalCode":"3066","locality":"Stettlen","commune":{"key":"358","name":"Stettlen","shortName":"Stettlen"},"district":{"key":"246","name":"Verwaltungskreis Bern-Mittelland"},"canton":{"key":"2","code":"BE","name":"Bern / Berne"},"status":"Real"},{"key":"10007231","name":"Flurweg","postalCode":"3066","locality":"Stettlen","commune":{"key":"358","name":"Stettlen","shortName":"Stettlen"},"district":{"key":"246","name":"Verwaltungskreis Bern-Mittelland"},"canton":{"key":"2","code":"BE","name":"Bern / Berne"},"status":"Real"},{"key":"10007232","name":"Gartenstrasse","postalCode":"3066","locality":"Stettlen","commune":{"key":"358","name":"Stettlen","shortName":"Stettlen"},"district":{"key":"246","name":"Verwaltungskreis Bern-Mittelland"},"canton":{"key":"2","code":"BE","name":"Bern / Berne"},"status":"Real"},{"key":"10007233","name":"Gheiweg","postalCode":"3066","locality":"Stettlen","commune":{"key":"358","name":"Stettlen","shortName":"Stettlen"},"district":{"key":"246","name":"Verwaltungskreis Bern-Mittelland"},"canton":{"key":"2","code":"BE","name":"Bern / Berne"},"status":"Real"},{"key":"10183673","name":"Grabenweg","postalCode":"3066","locality":"Stettlen","commune":{"key":"358","name":"Stettlen","shortName":"Stettlen"},"district":{"key":"246","name":"Verwaltungskreis Bern-Mittelland"},"canton":{"key":"2","code":"BE","name":"Bern / Berne"},"status":"Real"},{"key":"10089010","name":"Gümligentalstrasse","postalCode":"3066","locality":"Stettlen","commune":{"key":"358","name":"Stettlen","shortName":"Stettlen"},"district":{"key":"246","name":"Verwaltungskreis Bern-Mittelland"},"canton":{"key":"2","code":"BE","name":"Bern / Berne"},"status":"Real"},{"key":"10005802","name":"Gümligentalstrasse","postalCode":"3066","locality":"Stettlen","commune":{"key":"358","name":"Stettlen","shortName":"Stettlen"},"district":{"key":"246","name":"Verwaltungskreis Bern-Mittelland"},"canton":{"key":"2","code":"BE","name":"Bern / Berne"},"status":"Real"},{"key":"10007234","name":"Heckenweg","postalCode":"3066","locality":"Stettlen","commune":{"key":"358","name":"Stettlen","shortName":"Stettlen"},"district":{"key":"246","name":"Verwaltungskreis Bern-Mittelland"},"canton":{"key":"2","code":"BE","name":"Bern / Berne"},"status":"Real"},{"key":"10008110","name":"Hofacher","postalCode":"3066","locality":"Stettlen","commune":{"key":"358","name":"Stettlen","shortName":"Stettlen"},"district":{"key":"246","name":"Verwaltungskreis Bern-Mittelland"},"canton":{"key":"2","code":"BE","name":"Bern / Berne"},"status":"Real"},{"key":"10188572","name":"Hofmatt","postalCode":"3066","locality":"Stettlen","commune":{"key":"358","name":"Stettlen","shortName":"Stettlen"},"district":{"key":"246","name":"Verwaltungskreis Bern-Mittelland"},"canton":{"key":"2","code":"BE","name":"Bern / Berne"},"status":"Real"},{"key":"10051739","name":"Hofure","postalCode":"3066","locality":"Stettlen","commune":{"key":"358","name":"Stettlen","shortName":"Stettlen"},"district":{"key":"246","name":"Verwaltungskreis Bern-Mittelland"},"canton":{"key":"2","code":"BE","name":"Bern / Berne"},"status":"Real"},{"key":"10056562","name":"Höhenradweg","postalCode":"3066","locality":"Stettlen","commune":{"key":"358","name":"Stettlen","shortName":"Stettlen"},"district":{"key":"246","name":"Verwaltungskreis Bern-Mittelland"},"canton":{"key":"2","code":"BE","name":"Bern / Berne"},"status":"Real"},{"key":"10117878","name":"Im Baumgarten","postalCode":"3066","locality":"Stettlen","commune":{"key":"358","name":"Stettlen","shortName":"Stettlen"},"district":{"key":"246","name":"Verwaltungskreis Bern-Mittelland"},"canton":{"key":"2","code":"BE","name":"Bern / Berne"},"status":"Real"},{"key":"10007235","name":"Kammenstrasse","postalCode":"3066","locality":"Stettlen","commune":{"key":"358","name":"Stettlen","shortName":"Stettlen"},"district":{"key":"246","name":"Verwaltungskreis Bern-Mittelland"},"canton":{"key":"2","code":"BE","name":"Bern / Berne"},"status":"Real"},{"key":"10089011","name":"Kirchgasse","postalCode":"3066","locality":"Stettlen","commune":{"key":"358","name":"Stettlen","shortName":"Stettlen"},"district":{"key":"246","name":"Verwaltungskreis Bern-Mittelland"},"canton":{"key":"2","code":"BE","name":"Bern / Berne"},"status":"Real"},{"key":"10007241","name":"Landolfrain","postalCode":"3066","locality":"Stettlen","commune":{"key":"358","name":"Stettlen","shortName":"Stettlen"},"district":{"key":"246","name":"Verwaltungskreis Bern-Mittelland"},"canton":{"key":"2","code":"BE","name":"Bern / Berne"},"status":"Real"},{"key":"10008111","name":"Liebiberg","postalCode":"3066","locality":"Stettlen","commune":{"key":"358","name":"Stettlen","shortName":"Stettlen"},"district":{"key":"246","name":"Verwaltungskreis Bern-Mittelland"},"canton":{"key":"2","code":"BE","name":"Bern / Berne"},"status":"Real"},{"key":"10193736","name":"Lindengarten","postalCode":"3066","locality":"Stettlen","commune":{"key":"358","name":"Stettlen","shortName":"Stettlen"},"district":{"key":"246","name":"Verwaltungskreis Bern-Mittelland"},"canton":{"key":"2","code":"BE","name":"Bern / Berne"},"status":"Real"},{"key":"10179937","name":"Lindenweg","postalCode":"3066","locality":"Stettlen","commune":{"key":"358","name":"Stettlen","shortName":"Stettlen"},"district":{"key":"246","name":"Verwaltungskreis Bern-Mittelland"},"canton":{"key":"2","code":"BE","name":"Bern / Berne"},"status":"Real"},{"key":"10007236","name":"Moosweg","postalCode":"3066","locality":"Stettlen","commune":{"key":"358","name":"Stettlen","shortName":"Stettlen"},"district":{"key":"246","name":"Verwaltungskreis Bern-Mittelland"},"canton":{"key":"2","code":"BE","name":"Bern / Berne"},"status":"Real"},{"key":"10117860","name":"Murmatt","postalCode":"3066","locality":"Stettlen","commune":{"key":"358","name":"Stettlen","shortName":"Stettlen"},"district":{"key":"246","name":"Verwaltungskreis Bern-Mittelland"},"canton":{"key":"2","code":"BE","name":"Bern / Berne"},"status":"Real"},{"key":"10115254","name":"Neunenenstrasse","postalCode":"3066","locality":"Stettlen","commune":{"key":"358","name":"Stettlen","shortName":"Stettlen"},"district":{"key":"246","name":"Verwaltungskreis Bern-Mittelland"},"canton":{"key":"2","code":"BE","name":"Bern / Berne"},"status":"Real"},{"key":"10089012","name":"Oberdorfstrasse","postalCode":"3066","locality":"Stettlen","commune":{"key":"358","name":"Stettlen","shortName":"Stettlen"},"district":{"key":"246","name":"Verwaltungskreis Bern-Mittelland"},"canton":{"key":"2","code":"BE","name":"Bern / Berne"},"status":"Real"},{"key":"10007237","name":"Rainweg","postalCode":"3066","locality":"Stettlen","commune":{"key":"358","name":"Stettlen","shortName":"Stettlen"},"district":{"key":"246","name":"Verwaltungskreis Bern-Mittelland"},"canton":{"key":"2","code":"BE","name":"Bern / Berne"},"status":"Real"},{"key":"10056563","name":"Ringstrasse","postalCode":"3066","locality":"Stettlen","commune":{"key":"358","name":"Stettlen","shortName":"Stettlen"},"district":{"key":"246","name":"Verwaltungskreis Bern-Mittelland"},"canton":{"key":"2","code":"BE","name":"Bern / Berne"},"status":"Real"},{"key":"10183674","name":"Rosenweg","postalCode":"3066","locality":"Stettlen","commune":{"key":"358","name":"Stettlen","shortName":"Stettlen"},"district":{"key":"246","name":"Verwaltungskreis Bern-Mittelland"},"canton":{"key":"2","code":"BE","name":"Bern / Berne"},"status":"Real"},{"key":"10051740","name":"Rüde","postalCode":"3066","locality":"Stettlen","commune":{"key":"358","name":"Stettlen","shortName":"Stettlen"},"district":{"key":"246","name":"Verwaltungskreis Bern-Mittelland"},"canton":{"key":"2","code":"BE","name":"Bern / Berne"},"status":"Real"},{"key":"10007238","name":"Schattseitenweg","postalCode":"3066","locality":"Stettlen","commune":{"key":"358","name":"Stettlen","shortName":"Stettlen"},"district":{"key":"246","name":"Verwaltungskreis Bern-Mittelland"},"canton":{"key":"2","code":"BE","name":"Bern / Berne"},"status":"Real"},{"key":"10007239","name":"Schwandiweg","postalCode":"3066","locality":"Stettlen","commune":{"key":"358","name":"Stettlen","shortName":"Stettlen"},"district":{"key":"246","name":"Verwaltungskreis Bern-Mittelland"},"canton":{"key":"2","code":"BE","name":"Bern / Berne"},"status":"Real"},{"key":"10177565","name":"Schwandiweg","postalCode":"3066","locality":"Stettlen","commune":{"key":"358","name":"Stettlen","shortName":"Stettlen"},"district":{"key":"246","name":"Verwaltungskreis Bern-Mittelland"},"canton":{"key":"2","code":"BE","name":"Bern / Berne"},"status":"Real"},{"key":"10089013","name":"Sonneggweg","postalCode":"3066","locality":"Stettlen","commune":{"key":"358","name":"Stettlen","shortName":"Stettlen"},"district":{"key":"246","name":"Verwaltungskreis Bern-Mittelland"},"canton":{"key":"2","code":"BE","name":"Bern / Berne"},"status":"Real"},{"key":"10218309","name":"Utzlenberghole","postalCode":"3066","locality":"Stettlen","commune":{"key":"358","name":"Stettlen","shortName":"Stettlen"},"district":{"key":"246","name":"Verwaltungskreis Bern-Mittelland"},"canton":{"key":"2","code":"BE","name":"Bern / Berne"},"status":"Real"},{"key":"10056564","name":"Utzlenbergstrasse","postalCode":"3066","locality":"Stettlen","commune":{"key":"358","name":"Stettlen","shortName":"Stettlen"},"district":{"key":"246","name":"Verwaltungskreis Bern-Mittelland"},"canton":{"key":"2","code":"BE","name":"Bern / Berne"},"status":"Real"},{"key":"10188573","name":"Wintele","postalCode":"3066","locality":"Stettlen","commune":{"key":"358","name":"Stettlen","shortName":"Stettlen"},"district":{"key":"246","name":"Verwaltungskreis Bern-Mittelland"},"canton":{"key":"2","code":"BE","name":"Bern / Berne"},"status":"Real"},{"key":"10113505","name":"Wolfenstallweg","postalCode":"3066","locality":"Stettlen","commune":{"key":"358","name":"Stettlen","shortName":"Stettlen"},"district":{"key":"246","name":"Verwaltungskreis Bern-Mittelland"},"canton":{"key":"2","code":"BE","name":"Bern / Berne"},"status":"Real"},{"key":"10115248","name":"Wydmatt","postalCode":"3066","locality":"Stettlen","commune":{"key":"358","name":"Stettlen","shortName":"Stettlen"},"district":{"key":"246","name":"Verwaltungskreis Bern-Mittelland"},"canton":{"key":"2","code":"BE","name":"Bern / Berne"},"status":"Real"},{"key":"10007240","name":"Wylerweg","postalCode":"3066","locality":"Stettlen","commune":{"key":"358","name":"Stettlen","shortName":"Stettlen"},"district":{"key":"246","name":"Verwaltungskreis Bern-Mittelland"},"canton":{"key":"2","code":"BE","name":"Bern / Berne"},"status":"Real"},{"key":"10008107","name":"Äschi","postalCode":"3066","locality":"Stettlen","commune":{"key":"358","name":"Stettlen","shortName":"Stettlen"},"district":{"key":"246","name":"Verwaltungskreis Bern-Mittelland"},"canton":{"key":"2","code":"BE","name":"Bern / Berne"},"status":"Real"},]