[{"name":"Auf Brandenbüsch","postalCode":"54558","locality":"Mückeln","municipality":{"key":"07233046","name":"Mückeln","type":"Kreisangehörige_Gemeinde"},"district":{"key":"07233","name":"Vulkaneifel","type":"Landkreis"},"federalState":{"key":"07","name":"Rheinland-Pfalz"}},{"name":"Auf dem Längert","postalCode":"54558","locality":"Mückeln","municipality":{"key":"07233046","name":"Mückeln","type":"Kreisangehörige_Gemeinde"},"district":{"key":"07233","name":"Vulkaneifel","type":"Landkreis"},"federalState":{"key":"07","name":"Rheinland-Pfalz"}},{"name":"Dauner Str.","postalCode":"54558","locality":"Mückeln","municipality":{"key":"07233046","name":"Mückeln","type":"Kreisangehörige_Gemeinde"},"district":{"key":"07233","name":"Vulkaneifel","type":"Landkreis"},"federalState":{"key":"07","name":"Rheinland-Pfalz"}},{"name":"Hauptstr.","postalCode":"54558","locality":"Mückeln","municipality":{"key":"07233046","name":"Mückeln","type":"Kreisangehörige_Gemeinde"},"district":{"key":"07233","name":"Vulkaneifel","type":"Landkreis"},"federalState":{"key":"07","name":"Rheinland-Pfalz"}},{"name":"Im Hanfgarten","postalCode":"54558","locality":"Mückeln","municipality":{"key":"07233046","name":"Mückeln","type":"Kreisangehörige_Gemeinde"},"district":{"key":"07233","name":"Vulkaneifel","type":"Landkreis"},"federalState":{"key":"07","name":"Rheinland-Pfalz"}},{"name":"Kierweg","postalCode":"54558","locality":"Mückeln","municipality":{"key":"07233046","name":"Mückeln","type":"Kreisangehörige_Gemeinde"},"district":{"key":"07233","name":"Vulkaneifel","type":"Landkreis"},"federalState":{"key":"07","name":"Rheinland-Pfalz"}},{"name":"Kirchstr.","postalCode":"54558","locality":"Mückeln","municipality":{"key":"07233046","name":"Mückeln","type":"Kreisangehörige_Gemeinde"},"district":{"key":"07233","name":"Vulkaneifel","type":"Landkreis"},"federalState":{"key":"07","name":"Rheinland-Pfalz"}},{"name":"Schutzalf","postalCode":"54558","locality":"Mückeln","municipality":{"key":"07233046","name":"Mückeln","type":"Kreisangehörige_Gemeinde"},"district":{"key":"07233","name":"Vulkaneifel","type":"Landkreis"},"federalState":{"key":"07","name":"Rheinland-Pfalz"}},{"name":"Wittlicher Str.","postalCode":"54558","locality":"Mückeln","municipality":{"key":"07233046","name":"Mückeln","type":"Kreisangehörige_Gemeinde"},"district":{"key":"07233","name":"Vulkaneifel","type":"Landkreis"},"federalState":{"key":"07","name":"Rheinland-Pfalz"}},]