[{"name":"Ahornweg","postalCode":"55494","locality":"Rheinböllen","municipality":{"key":"07140125","name":"Rheinböllen, Stadt","type":"Stadt"},"district":{"key":"07140","name":"Rhein-Hunsrück-Kreis","type":"Landkreis"},"federalState":{"key":"07","name":"Rheinland-Pfalz"}},{"name":"Alte Römerstr.","postalCode":"55494","locality":"Rheinböllen","municipality":{"key":"07140125","name":"Rheinböllen, Stadt","type":"Stadt"},"district":{"key":"07140","name":"Rhein-Hunsrück-Kreis","type":"Landkreis"},"federalState":{"key":"07","name":"Rheinland-Pfalz"}},{"name":"Am Bahnhof","postalCode":"55494","locality":"Rheinböllen","municipality":{"key":"07140125","name":"Rheinböllen, Stadt","type":"Stadt"},"district":{"key":"07140","name":"Rhein-Hunsrück-Kreis","type":"Landkreis"},"federalState":{"key":"07","name":"Rheinland-Pfalz"}},{"name":"Am Guldenbach","postalCode":"55494","locality":"Rheinböllen","municipality":{"key":"07140125","name":"Rheinböllen, Stadt","type":"Stadt"},"district":{"key":"07140","name":"Rhein-Hunsrück-Kreis","type":"Landkreis"},"federalState":{"key":"07","name":"Rheinland-Pfalz"}},{"name":"Am Hockenborn","postalCode":"55494","locality":"Rheinböllen","municipality":{"key":"07140125","name":"Rheinböllen, Stadt","type":"Stadt"},"district":{"key":"07140","name":"Rhein-Hunsrück-Kreis","type":"Landkreis"},"federalState":{"key":"07","name":"Rheinland-Pfalz"}},{"name":"Am Holzweg","postalCode":"55494","locality":"Rheinböllen","municipality":{"key":"07140125","name":"Rheinböllen, Stadt","type":"Stadt"},"district":{"key":"07140","name":"Rhein-Hunsrück-Kreis","type":"Landkreis"},"federalState":{"key":"07","name":"Rheinland-Pfalz"}},{"name":"Am Markt","postalCode":"55494","locality":"Rheinböllen","municipality":{"key":"07140125","name":"Rheinböllen, Stadt","type":"Stadt"},"district":{"key":"07140","name":"Rhein-Hunsrück-Kreis","type":"Landkreis"},"federalState":{"key":"07","name":"Rheinland-Pfalz"}},{"name":"Am Müllergraben","postalCode":"55494","locality":"Rheinböllen","municipality":{"key":"07140125","name":"Rheinböllen, Stadt","type":"Stadt"},"district":{"key":"07140","name":"Rhein-Hunsrück-Kreis","type":"Landkreis"},"federalState":{"key":"07","name":"Rheinland-Pfalz"}},{"name":"Am Pflanzgarten","postalCode":"55494","locality":"Rheinböllen","municipality":{"key":"07140125","name":"Rheinböllen, Stadt","type":"Stadt"},"district":{"key":"07140","name":"Rhein-Hunsrück-Kreis","type":"Landkreis"},"federalState":{"key":"07","name":"Rheinland-Pfalz"}},{"name":"Am See","postalCode":"55494","locality":"Rheinböllen","municipality":{"key":"07140125","name":"Rheinböllen, Stadt","type":"Stadt"},"district":{"key":"07140","name":"Rhein-Hunsrück-Kreis","type":"Landkreis"},"federalState":{"key":"07","name":"Rheinland-Pfalz"}},{"name":"Am Steckwald","postalCode":"55494","locality":"Rheinböllen","municipality":{"key":"07140125","name":"Rheinböllen, Stadt","type":"Stadt"},"district":{"key":"07140","name":"Rhein-Hunsrück-Kreis","type":"Landkreis"},"federalState":{"key":"07","name":"Rheinland-Pfalz"}},{"name":"Am Zollstock","postalCode":"55494","locality":"Rheinböllen","municipality":{"key":"07140125","name":"Rheinböllen, Stadt","type":"Stadt"},"district":{"key":"07140","name":"Rhein-Hunsrück-Kreis","type":"Landkreis"},"federalState":{"key":"07","name":"Rheinland-Pfalz"}},{"name":"Auf dem Lehen","postalCode":"55494","locality":"Rheinböllen","municipality":{"key":"07140125","name":"Rheinböllen, Stadt","type":"Stadt"},"district":{"key":"07140","name":"Rhein-Hunsrück-Kreis","type":"Landkreis"},"federalState":{"key":"07","name":"Rheinland-Pfalz"}},{"name":"Auf dem Schlag","postalCode":"55494","locality":"Rheinböllen","municipality":{"key":"07140125","name":"Rheinböllen, Stadt","type":"Stadt"},"district":{"key":"07140","name":"Rhein-Hunsrück-Kreis","type":"Landkreis"},"federalState":{"key":"07","name":"Rheinland-Pfalz"}},{"name":"Auf der Bell","postalCode":"55494","locality":"Rheinböllen","municipality":{"key":"07140125","name":"Rheinböllen, Stadt","type":"Stadt"},"district":{"key":"07140","name":"Rhein-Hunsrück-Kreis","type":"Landkreis"},"federalState":{"key":"07","name":"Rheinland-Pfalz"}},{"name":"Auf der Henschwies","postalCode":"55494","locality":"Rheinböllen","municipality":{"key":"07140125","name":"Rheinböllen, Stadt","type":"Stadt"},"district":{"key":"07140","name":"Rhein-Hunsrück-Kreis","type":"Landkreis"},"federalState":{"key":"07","name":"Rheinland-Pfalz"}},{"name":"Auf der Trift","postalCode":"55494","locality":"Rheinböllen","municipality":{"key":"07140125","name":"Rheinböllen, Stadt","type":"Stadt"},"district":{"key":"07140","name":"Rhein-Hunsrück-Kreis","type":"Landkreis"},"federalState":{"key":"07","name":"Rheinland-Pfalz"}},{"name":"Bacharacher Str.","postalCode":"55494","locality":"Rheinböllen","municipality":{"key":"07140125","name":"Rheinböllen, Stadt","type":"Stadt"},"district":{"key":"07140","name":"Rhein-Hunsrück-Kreis","type":"Landkreis"},"federalState":{"key":"07","name":"Rheinland-Pfalz"}},{"name":"Bahnhofstr.","postalCode":"55494","locality":"Rheinböllen","municipality":{"key":"07140125","name":"Rheinböllen, Stadt","type":"Stadt"},"district":{"key":"07140","name":"Rhein-Hunsrück-Kreis","type":"Landkreis"},"federalState":{"key":"07","name":"Rheinland-Pfalz"}},{"name":"Beethovenstr.","postalCode":"55494","locality":"Rheinböllen","municipality":{"key":"07140125","name":"Rheinböllen, Stadt","type":"Stadt"},"district":{"key":"07140","name":"Rhein-Hunsrück-Kreis","type":"Landkreis"},"federalState":{"key":"07","name":"Rheinland-Pfalz"}},{"name":"Birkenweg","postalCode":"55494","locality":"Rheinböllen","municipality":{"key":"07140125","name":"Rheinböllen, Stadt","type":"Stadt"},"district":{"key":"07140","name":"Rhein-Hunsrück-Kreis","type":"Landkreis"},"federalState":{"key":"07","name":"Rheinland-Pfalz"}},{"name":"Breitmossweg","postalCode":"79677","locality":"Böllen","municipality":{"key":"08336010","name":"Böllen","type":"Kreisangehörige_Gemeinde"},"district":{"key":"08336","name":"Lörrach","type":"Landkreis"},"federalState":{"key":"08","name":"Baden-Württemberg"}},{"name":"Breslauer Str.","postalCode":"55494","locality":"Rheinböllen","municipality":{"key":"07140125","name":"Rheinböllen, Stadt","type":"Stadt"},"district":{"key":"07140","name":"Rhein-Hunsrück-Kreis","type":"Landkreis"},"federalState":{"key":"07","name":"Rheinland-Pfalz"}},{"name":"Brunnenstr.","postalCode":"76887","locality":"Böllenborn","municipality":{"key":"07337013","name":"Böllenborn","type":"Kreisangehörige_Gemeinde"},"district":{"key":"07337","name":"Südliche Weinstraße","type":"Landkreis"},"federalState":{"key":"07","name":"Rheinland-Pfalz"}},{"name":"Buchenweg","postalCode":"55494","locality":"Rheinböllen","municipality":{"key":"07140125","name":"Rheinböllen, Stadt","type":"Stadt"},"district":{"key":"07140","name":"Rhein-Hunsrück-Kreis","type":"Landkreis"},"federalState":{"key":"07","name":"Rheinland-Pfalz"}},{"name":"Chaisenweg","postalCode":"76887","locality":"Böllenborn","municipality":{"key":"07337013","name":"Böllenborn","type":"Kreisangehörige_Gemeinde"},"district":{"key":"07337","name":"Südliche Weinstraße","type":"Landkreis"},"federalState":{"key":"07","name":"Rheinland-Pfalz"}},{"name":"Clara-Schumann-Str.","postalCode":"55494","locality":"Rheinböllen","municipality":{"key":"07140125","name":"Rheinböllen, Stadt","type":"Stadt"},"district":{"key":"07140","name":"Rhein-Hunsrück-Kreis","type":"Landkreis"},"federalState":{"key":"07","name":"Rheinland-Pfalz"}},{"name":"Danziger Str.","postalCode":"55494","locality":"Rheinböllen","municipality":{"key":"07140125","name":"Rheinböllen, Stadt","type":"Stadt"},"district":{"key":"07140","name":"Rhein-Hunsrück-Kreis","type":"Landkreis"},"federalState":{"key":"07","name":"Rheinland-Pfalz"}},{"name":"Dichtelbacher Str.","postalCode":"55494","locality":"Rheinböllen","municipality":{"key":"07140125","name":"Rheinböllen, Stadt","type":"Stadt"},"district":{"key":"07140","name":"Rhein-Hunsrück-Kreis","type":"Landkreis"},"federalState":{"key":"07","name":"Rheinland-Pfalz"}},{"name":"Diesslinstr.","postalCode":"79677","locality":"Böllen","municipality":{"key":"08336010","name":"Böllen","type":"Kreisangehörige_Gemeinde"},"district":{"key":"08336","name":"Lörrach","type":"Landkreis"},"federalState":{"key":"08","name":"Baden-Württemberg"}},{"name":"Eichendorffstr.","postalCode":"55494","locality":"Rheinböllen","municipality":{"key":"07140125","name":"Rheinböllen, Stadt","type":"Stadt"},"district":{"key":"07140","name":"Rhein-Hunsrück-Kreis","type":"Landkreis"},"federalState":{"key":"07","name":"Rheinland-Pfalz"}},{"name":"Eichenweg","postalCode":"55494","locality":"Rheinböllen","municipality":{"key":"07140125","name":"Rheinböllen, Stadt","type":"Stadt"},"district":{"key":"07140","name":"Rhein-Hunsrück-Kreis","type":"Landkreis"},"federalState":{"key":"07","name":"Rheinland-Pfalz"}},{"name":"Engelsgässchen","postalCode":"55494","locality":"Rheinböllen","municipality":{"key":"07140125","name":"Rheinböllen, Stadt","type":"Stadt"},"district":{"key":"07140","name":"Rhein-Hunsrück-Kreis","type":"Landkreis"},"federalState":{"key":"07","name":"Rheinland-Pfalz"}},{"name":"Erbacher Str.","postalCode":"55494","locality":"Rheinböllen","municipality":{"key":"07140125","name":"Rheinböllen, Stadt","type":"Stadt"},"district":{"key":"07140","name":"Rhein-Hunsrück-Kreis","type":"Landkreis"},"federalState":{"key":"07","name":"Rheinland-Pfalz"}},{"name":"Erikaweg","postalCode":"55494","locality":"Rheinböllen","municipality":{"key":"07140125","name":"Rheinböllen, Stadt","type":"Stadt"},"district":{"key":"07140","name":"Rhein-Hunsrück-Kreis","type":"Landkreis"},"federalState":{"key":"07","name":"Rheinland-Pfalz"}},{"name":"Erlenweg","postalCode":"55494","locality":"Rheinböllen","municipality":{"key":"07140125","name":"Rheinböllen, Stadt","type":"Stadt"},"district":{"key":"07140","name":"Rhein-Hunsrück-Kreis","type":"Landkreis"},"federalState":{"key":"07","name":"Rheinland-Pfalz"}},{"name":"Eschenweg","postalCode":"55494","locality":"Rheinböllen","municipality":{"key":"07140125","name":"Rheinböllen, Stadt","type":"Stadt"},"district":{"key":"07140","name":"Rhein-Hunsrück-Kreis","type":"Landkreis"},"federalState":{"key":"07","name":"Rheinland-Pfalz"}},{"name":"Farnweg","postalCode":"55494","locality":"Rheinböllen","municipality":{"key":"07140125","name":"Rheinböllen, Stadt","type":"Stadt"},"district":{"key":"07140","name":"Rhein-Hunsrück-Kreis","type":"Landkreis"},"federalState":{"key":"07","name":"Rheinland-Pfalz"}},{"name":"Franz-Liszt-Str.","postalCode":"55494","locality":"Rheinböllen","municipality":{"key":"07140125","name":"Rheinböllen, Stadt","type":"Stadt"},"district":{"key":"07140","name":"Rhein-Hunsrück-Kreis","type":"Landkreis"},"federalState":{"key":"07","name":"Rheinland-Pfalz"}},{"name":"Friedhofstr.","postalCode":"76887","locality":"Böllenborn","municipality":{"key":"07337013","name":"Böllenborn","type":"Kreisangehörige_Gemeinde"},"district":{"key":"07337","name":"Südliche Weinstraße","type":"Landkreis"},"federalState":{"key":"07","name":"Rheinland-Pfalz"}},{"name":"Gartenstr.","postalCode":"55494","locality":"Rheinböllen","municipality":{"key":"07140125","name":"Rheinböllen, Stadt","type":"Stadt"},"district":{"key":"07140","name":"Rhein-Hunsrück-Kreis","type":"Landkreis"},"federalState":{"key":"07","name":"Rheinland-Pfalz"}},{"name":"Goethepark","postalCode":"55494","locality":"Rheinböllen","municipality":{"key":"07140125","name":"Rheinböllen, Stadt","type":"Stadt"},"district":{"key":"07140","name":"Rhein-Hunsrück-Kreis","type":"Landkreis"},"federalState":{"key":"07","name":"Rheinland-Pfalz"}},{"name":"Goethestr.","postalCode":"55494","locality":"Rheinböllen","municipality":{"key":"07140125","name":"Rheinböllen, Stadt","type":"Stadt"},"district":{"key":"07140","name":"Rhein-Hunsrück-Kreis","type":"Landkreis"},"federalState":{"key":"07","name":"Rheinland-Pfalz"}},{"name":"Hagenmattweg","postalCode":"79677","locality":"Böllen","municipality":{"key":"08336010","name":"Böllen","type":"Kreisangehörige_Gemeinde"},"district":{"key":"08336","name":"Lörrach","type":"Landkreis"},"federalState":{"key":"08","name":"Baden-Württemberg"}},{"name":"Hauptstr.","postalCode":"76887","locality":"Böllenborn","municipality":{"key":"07337013","name":"Böllenborn","type":"Kreisangehörige_Gemeinde"},"district":{"key":"07337","name":"Südliche Weinstraße","type":"Landkreis"},"federalState":{"key":"07","name":"Rheinland-Pfalz"}},{"name":"Haustr.","postalCode":"79677","locality":"Böllen","municipality":{"key":"08336010","name":"Böllen","type":"Kreisangehörige_Gemeinde"},"district":{"key":"08336","name":"Lörrach","type":"Landkreis"},"federalState":{"key":"08","name":"Baden-Württemberg"}},{"name":"Heideweg","postalCode":"55494","locality":"Rheinböllen","municipality":{"key":"07140125","name":"Rheinböllen, Stadt","type":"Stadt"},"district":{"key":"07140","name":"Rhein-Hunsrück-Kreis","type":"Landkreis"},"federalState":{"key":"07","name":"Rheinland-Pfalz"}},{"name":"Henkersbitz","postalCode":"55494","locality":"Rheinböllen","municipality":{"key":"07140125","name":"Rheinböllen, Stadt","type":"Stadt"},"district":{"key":"07140","name":"Rhein-Hunsrück-Kreis","type":"Landkreis"},"federalState":{"key":"07","name":"Rheinland-Pfalz"}},{"name":"Hinter der Kirche","postalCode":"76887","locality":"Böllenborn","municipality":{"key":"07337013","name":"Böllenborn","type":"Kreisangehörige_Gemeinde"},"district":{"key":"07337","name":"Südliche Weinstraße","type":"Landkreis"},"federalState":{"key":"07","name":"Rheinland-Pfalz"}},{"name":"Hinterster Graben","postalCode":"55494","locality":"Rheinböllen","municipality":{"key":"07140125","name":"Rheinböllen, Stadt","type":"Stadt"},"district":{"key":"07140","name":"Rhein-Hunsrück-Kreis","type":"Landkreis"},"federalState":{"key":"07","name":"Rheinland-Pfalz"}},{"name":"Hohl","postalCode":"55494","locality":"Rheinböllen","municipality":{"key":"07140125","name":"Rheinböllen, Stadt","type":"Stadt"},"district":{"key":"07140","name":"Rhein-Hunsrück-Kreis","type":"Landkreis"},"federalState":{"key":"07","name":"Rheinland-Pfalz"}},{"name":"Holunderweg","postalCode":"55494","locality":"Rheinböllen","municipality":{"key":"07140125","name":"Rheinböllen, Stadt","type":"Stadt"},"district":{"key":"07140","name":"Rhein-Hunsrück-Kreis","type":"Landkreis"},"federalState":{"key":"07","name":"Rheinland-Pfalz"}},{"name":"Im Altdorf","postalCode":"55494","locality":"Rheinböllen","municipality":{"key":"07140125","name":"Rheinböllen, Stadt","type":"Stadt"},"district":{"key":"07140","name":"Rhein-Hunsrück-Kreis","type":"Landkreis"},"federalState":{"key":"07","name":"Rheinland-Pfalz"}},{"name":"Im Brühl","postalCode":"55494","locality":"Rheinböllen","municipality":{"key":"07140125","name":"Rheinböllen, Stadt","type":"Stadt"},"district":{"key":"07140","name":"Rhein-Hunsrück-Kreis","type":"Landkreis"},"federalState":{"key":"07","name":"Rheinland-Pfalz"}},{"name":"Im Schulwald","postalCode":"55494","locality":"Rheinböllen","municipality":{"key":"07140125","name":"Rheinböllen, Stadt","type":"Stadt"},"district":{"key":"07140","name":"Rhein-Hunsrück-Kreis","type":"Landkreis"},"federalState":{"key":"07","name":"Rheinland-Pfalz"}},{"name":"Im Schützenrech","postalCode":"55494","locality":"Rheinböllen","municipality":{"key":"07140125","name":"Rheinböllen, Stadt","type":"Stadt"},"district":{"key":"07140","name":"Rhein-Hunsrück-Kreis","type":"Landkreis"},"federalState":{"key":"07","name":"Rheinland-Pfalz"}},{"name":"Industriepark Soonwald","postalCode":"55494","locality":"Rheinböllen","municipality":{"key":"07140125","name":"Rheinböllen, Stadt","type":"Stadt"},"district":{"key":"07140","name":"Rhein-Hunsrück-Kreis","type":"Landkreis"},"federalState":{"key":"07","name":"Rheinland-Pfalz"}},{"name":"Jägerstr.","postalCode":"79677","locality":"Böllen","municipality":{"key":"08336010","name":"Böllen","type":"Kreisangehörige_Gemeinde"},"district":{"key":"08336","name":"Lörrach","type":"Landkreis"},"federalState":{"key":"08","name":"Baden-Württemberg"}},{"name":"Janismühle","postalCode":"55494","locality":"Rheinböllen","municipality":{"key":"07140125","name":"Rheinböllen, Stadt","type":"Stadt"},"district":{"key":"07140","name":"Rhein-Hunsrück-Kreis","type":"Landkreis"},"federalState":{"key":"07","name":"Rheinland-Pfalz"}},{"name":"Kastanienweg","postalCode":"55494","locality":"Rheinböllen","municipality":{"key":"07140125","name":"Rheinböllen, Stadt","type":"Stadt"},"district":{"key":"07140","name":"Rhein-Hunsrück-Kreis","type":"Landkreis"},"federalState":{"key":"07","name":"Rheinland-Pfalz"}},{"name":"Kiefernweg","postalCode":"55494","locality":"Rheinböllen","municipality":{"key":"07140125","name":"Rheinböllen, Stadt","type":"Stadt"},"district":{"key":"07140","name":"Rhein-Hunsrück-Kreis","type":"Landkreis"},"federalState":{"key":"07","name":"Rheinland-Pfalz"}},{"name":"Kirchgasse","postalCode":"55494","locality":"Rheinböllen","municipality":{"key":"07140125","name":"Rheinböllen, Stadt","type":"Stadt"},"district":{"key":"07140","name":"Rhein-Hunsrück-Kreis","type":"Landkreis"},"federalState":{"key":"07","name":"Rheinland-Pfalz"}},{"name":"Kirchstr.","postalCode":"76887","locality":"Böllenborn","municipality":{"key":"07337013","name":"Böllenborn","type":"Kreisangehörige_Gemeinde"},"district":{"key":"07337","name":"Südliche Weinstraße","type":"Landkreis"},"federalState":{"key":"07","name":"Rheinland-Pfalz"}},{"name":"Kleberspfad","postalCode":"55494","locality":"Rheinböllen","municipality":{"key":"07140125","name":"Rheinböllen, Stadt","type":"Stadt"},"district":{"key":"07140","name":"Rhein-Hunsrück-Kreis","type":"Landkreis"},"federalState":{"key":"07","name":"Rheinland-Pfalz"}},{"name":"Kleinweidelbach","postalCode":"55494","locality":"Rheinböllen","municipality":{"key":"07140125","name":"Rheinböllen, Stadt","type":"Stadt"},"district":{"key":"07140","name":"Rhein-Hunsrück-Kreis","type":"Landkreis"},"federalState":{"key":"07","name":"Rheinland-Pfalz"}},{"name":"Knebelbornerweg","postalCode":"55494","locality":"Rheinböllen","municipality":{"key":"07140125","name":"Rheinböllen, Stadt","type":"Stadt"},"district":{"key":"07140","name":"Rhein-Hunsrück-Kreis","type":"Landkreis"},"federalState":{"key":"07","name":"Rheinland-Pfalz"}},{"name":"Königsberger Str.","postalCode":"55494","locality":"Rheinböllen","municipality":{"key":"07140125","name":"Rheinböllen, Stadt","type":"Stadt"},"district":{"key":"07140","name":"Rhein-Hunsrück-Kreis","type":"Landkreis"},"federalState":{"key":"07","name":"Rheinland-Pfalz"}},{"name":"Konrad-Adenauer-Str.","postalCode":"76887","locality":"Böllenborn","municipality":{"key":"07337013","name":"Böllenborn","type":"Kreisangehörige_Gemeinde"},"district":{"key":"07337","name":"Südliche Weinstraße","type":"Landkreis"},"federalState":{"key":"07","name":"Rheinland-Pfalz"}},{"name":"Langengrundstr.","postalCode":"79677","locality":"Böllen","municipality":{"key":"08336010","name":"Böllen","type":"Kreisangehörige_Gemeinde"},"district":{"key":"08336","name":"Lörrach","type":"Landkreis"},"federalState":{"key":"08","name":"Baden-Württemberg"}},{"name":"Lärchenweg","postalCode":"55494","locality":"Rheinböllen","municipality":{"key":"07140125","name":"Rheinböllen, Stadt","type":"Stadt"},"district":{"key":"07140","name":"Rhein-Hunsrück-Kreis","type":"Landkreis"},"federalState":{"key":"07","name":"Rheinland-Pfalz"}},{"name":"Lessingstr.","postalCode":"55494","locality":"Rheinböllen","municipality":{"key":"07140125","name":"Rheinböllen, Stadt","type":"Stadt"},"district":{"key":"07140","name":"Rhein-Hunsrück-Kreis","type":"Landkreis"},"federalState":{"key":"07","name":"Rheinland-Pfalz"}},{"name":"Liebshausener Str.","postalCode":"55494","locality":"Rheinböllen","municipality":{"key":"07140125","name":"Rheinböllen, Stadt","type":"Stadt"},"district":{"key":"07140","name":"Rhein-Hunsrück-Kreis","type":"Landkreis"},"federalState":{"key":"07","name":"Rheinland-Pfalz"}},{"name":"Lindenstr.","postalCode":"55494","locality":"Rheinböllen","municipality":{"key":"07140125","name":"Rheinböllen, Stadt","type":"Stadt"},"district":{"key":"07140","name":"Rhein-Hunsrück-Kreis","type":"Landkreis"},"federalState":{"key":"07","name":"Rheinland-Pfalz"}},{"name":"Marktstr.","postalCode":"55494","locality":"Rheinböllen","municipality":{"key":"07140125","name":"Rheinböllen, Stadt","type":"Stadt"},"district":{"key":"07140","name":"Rhein-Hunsrück-Kreis","type":"Landkreis"},"federalState":{"key":"07","name":"Rheinland-Pfalz"}},{"name":"Mattenweg","postalCode":"79677","locality":"Böllen","municipality":{"key":"08336010","name":"Böllen","type":"Kreisangehörige_Gemeinde"},"district":{"key":"08336","name":"Lörrach","type":"Landkreis"},"federalState":{"key":"08","name":"Baden-Württemberg"}},{"name":"Mozartstr.","postalCode":"55494","locality":"Rheinböllen","municipality":{"key":"07140125","name":"Rheinböllen, Stadt","type":"Stadt"},"district":{"key":"07140","name":"Rhein-Hunsrück-Kreis","type":"Landkreis"},"federalState":{"key":"07","name":"Rheinland-Pfalz"}},{"name":"Niederböllen","postalCode":"79677","locality":"Böllen","municipality":{"key":"08336010","name":"Böllen","type":"Kreisangehörige_Gemeinde"},"district":{"key":"08336","name":"Lörrach","type":"Landkreis"},"federalState":{"key":"08","name":"Baden-Württemberg"}},{"name":"Oberböllen","postalCode":"79677","locality":"Böllen","municipality":{"key":"08336010","name":"Böllen","type":"Kreisangehörige_Gemeinde"},"district":{"key":"08336","name":"Lörrach","type":"Landkreis"},"federalState":{"key":"08","name":"Baden-Württemberg"}},{"name":"Pestalozzistr.","postalCode":"55494","locality":"Rheinböllen","municipality":{"key":"07140125","name":"Rheinböllen, Stadt","type":"Stadt"},"district":{"key":"07140","name":"Rhein-Hunsrück-Kreis","type":"Landkreis"},"federalState":{"key":"07","name":"Rheinland-Pfalz"}},{"name":"Poststr.","postalCode":"55494","locality":"Rheinböllen","municipality":{"key":"07140125","name":"Rheinböllen, Stadt","type":"Stadt"},"district":{"key":"07140","name":"Rhein-Hunsrück-Kreis","type":"Landkreis"},"federalState":{"key":"07","name":"Rheinland-Pfalz"}},{"name":"Richard-Wagner-Str.","postalCode":"55494","locality":"Rheinböllen","municipality":{"key":"07140125","name":"Rheinböllen, Stadt","type":"Stadt"},"district":{"key":"07140","name":"Rhein-Hunsrück-Kreis","type":"Landkreis"},"federalState":{"key":"07","name":"Rheinland-Pfalz"}},{"name":"Schillerstr.","postalCode":"55494","locality":"Rheinböllen","municipality":{"key":"07140125","name":"Rheinböllen, Stadt","type":"Stadt"},"district":{"key":"07140","name":"Rhein-Hunsrück-Kreis","type":"Landkreis"},"federalState":{"key":"07","name":"Rheinland-Pfalz"}},{"name":"Schulstr.","postalCode":"55494","locality":"Rheinböllen","municipality":{"key":"07140125","name":"Rheinböllen, Stadt","type":"Stadt"},"district":{"key":"07140","name":"Rhein-Hunsrück-Kreis","type":"Landkreis"},"federalState":{"key":"07","name":"Rheinland-Pfalz"}},{"name":"Simmerner Str.","postalCode":"55494","locality":"Rheinböllen","municipality":{"key":"07140125","name":"Rheinböllen, Stadt","type":"Stadt"},"district":{"key":"07140","name":"Rhein-Hunsrück-Kreis","type":"Landkreis"},"federalState":{"key":"07","name":"Rheinland-Pfalz"}},{"name":"Soonwaldblick","postalCode":"55494","locality":"Rheinböllen","municipality":{"key":"07140125","name":"Rheinböllen, Stadt","type":"Stadt"},"district":{"key":"07140","name":"Rhein-Hunsrück-Kreis","type":"Landkreis"},"federalState":{"key":"07","name":"Rheinland-Pfalz"}},{"name":"Soonwaldstr.","postalCode":"55494","locality":"Rheinböllen","municipality":{"key":"07140125","name":"Rheinböllen, Stadt","type":"Stadt"},"district":{"key":"07140","name":"Rhein-Hunsrück-Kreis","type":"Landkreis"},"federalState":{"key":"07","name":"Rheinland-Pfalz"}},{"name":"Steinstr.","postalCode":"55494","locality":"Rheinböllen","municipality":{"key":"07140125","name":"Rheinböllen, Stadt","type":"Stadt"},"district":{"key":"07140","name":"Rhein-Hunsrück-Kreis","type":"Landkreis"},"federalState":{"key":"07","name":"Rheinland-Pfalz"}},{"name":"Tannenweg","postalCode":"55494","locality":"Rheinböllen","municipality":{"key":"07140125","name":"Rheinböllen, Stadt","type":"Stadt"},"district":{"key":"07140","name":"Rhein-Hunsrück-Kreis","type":"Landkreis"},"federalState":{"key":"07","name":"Rheinland-Pfalz"}},{"name":"Teves-Str.","postalCode":"55494","locality":"Rheinböllen","municipality":{"key":"07140125","name":"Rheinböllen, Stadt","type":"Stadt"},"district":{"key":"07140","name":"Rhein-Hunsrück-Kreis","type":"Landkreis"},"federalState":{"key":"07","name":"Rheinland-Pfalz"}},{"name":"Ulmenweg","postalCode":"55494","locality":"Rheinböllen","municipality":{"key":"07140125","name":"Rheinböllen, Stadt","type":"Stadt"},"district":{"key":"07140","name":"Rhein-Hunsrück-Kreis","type":"Landkreis"},"federalState":{"key":"07","name":"Rheinland-Pfalz"}},{"name":"Untere Bell","postalCode":"55494","locality":"Rheinböllen","municipality":{"key":"07140125","name":"Rheinböllen, Stadt","type":"Stadt"},"district":{"key":"07140","name":"Rhein-Hunsrück-Kreis","type":"Landkreis"},"federalState":{"key":"07","name":"Rheinland-Pfalz"}},{"name":"Unterm Felsenberg","postalCode":"76887","locality":"Böllenborn","municipality":{"key":"07337013","name":"Böllenborn","type":"Kreisangehörige_Gemeinde"},"district":{"key":"07337","name":"Südliche Weinstraße","type":"Landkreis"},"federalState":{"key":"07","name":"Rheinland-Pfalz"}},{"name":"Vogesenstr.","postalCode":"79541","locality":"Lörrach","municipality":{"key":"08336050","name":"Lörrach, Stadt","type":"Große_Kreisstadt"},"district":{"key":"08336","name":"Lörrach","type":"Landkreis"},"federalState":{"key":"08","name":"Baden-Württemberg"}},{"name":"Vogteistr.","postalCode":"79541","locality":"Lörrach","municipality":{"key":"08336050","name":"Lörrach, Stadt","type":"Große_Kreisstadt"},"district":{"key":"08336","name":"Lörrach","type":"Landkreis"},"federalState":{"key":"08","name":"Baden-Württemberg"}},{"name":"Vordere Binzengrabenweg","postalCode":"79541","locality":"Lörrach","municipality":{"key":"08336050","name":"Lörrach, Stadt","type":"Große_Kreisstadt"},"district":{"key":"08336","name":"Lörrach","type":"Landkreis"},"federalState":{"key":"08","name":"Baden-Württemberg"}},{"name":"Vorderer Blinzgrabenweg","postalCode":"79541","locality":"Lörrach","municipality":{"key":"08336050","name":"Lörrach, Stadt","type":"Große_Kreisstadt"},"district":{"key":"08336","name":"Lörrach","type":"Landkreis"},"federalState":{"key":"08","name":"Baden-Württemberg"}},{"name":"Vorderer Karwiedenweg","postalCode":"79541","locality":"Lörrach","municipality":{"key":"08336050","name":"Lörrach, Stadt","type":"Große_Kreisstadt"},"district":{"key":"08336","name":"Lörrach","type":"Landkreis"},"federalState":{"key":"08","name":"Baden-Württemberg"}},{"name":"Vorderer Studweg","postalCode":"79541","locality":"Lörrach","municipality":{"key":"08336050","name":"Lörrach, Stadt","type":"Große_Kreisstadt"},"district":{"key":"08336","name":"Lörrach","type":"Landkreis"},"federalState":{"key":"08","name":"Baden-Württemberg"}},{"name":"Vorengeleweg","postalCode":"79539","locality":"Lörrach","municipality":{"key":"08336050","name":"Lörrach, Stadt","type":"Große_Kreisstadt"},"district":{"key":"08336","name":"Lörrach","type":"Landkreis"},"federalState":{"key":"08","name":"Baden-Württemberg"}},{"name":"Vorengeleweg","postalCode":"79540","locality":"Lörrach","municipality":{"key":"08336050","name":"Lörrach, Stadt","type":"Große_Kreisstadt"},"district":{"key":"08336","name":"Lörrach","type":"Landkreis"},"federalState":{"key":"08","name":"Baden-Württemberg"}},{"name":"Wacholderweg","postalCode":"55494","locality":"Rheinböllen","municipality":{"key":"07140125","name":"Rheinböllen, Stadt","type":"Stadt"},"district":{"key":"07140","name":"Rhein-Hunsrück-Kreis","type":"Landkreis"},"federalState":{"key":"07","name":"Rheinland-Pfalz"}},{"name":"Waldstr.","postalCode":"55494","locality":"Rheinböllen","municipality":{"key":"07140125","name":"Rheinböllen, Stadt","type":"Stadt"},"district":{"key":"07140","name":"Rhein-Hunsrück-Kreis","type":"Landkreis"},"federalState":{"key":"07","name":"Rheinland-Pfalz"}},{"name":"Waldstr.","postalCode":"76887","locality":"Böllenborn","municipality":{"key":"07337013","name":"Böllenborn","type":"Kreisangehörige_Gemeinde"},"district":{"key":"07337","name":"Südliche Weinstraße","type":"Landkreis"},"federalState":{"key":"07","name":"Rheinland-Pfalz"}},{"name":"Wehrstr.","postalCode":"55494","locality":"Rheinböllen","municipality":{"key":"07140125","name":"Rheinböllen, Stadt","type":"Stadt"},"district":{"key":"07140","name":"Rhein-Hunsrück-Kreis","type":"Landkreis"},"federalState":{"key":"07","name":"Rheinland-Pfalz"}},{"name":"Zapfenweg","postalCode":"55494","locality":"Rheinböllen","municipality":{"key":"07140125","name":"Rheinböllen, Stadt","type":"Stadt"},"district":{"key":"07140","name":"Rhein-Hunsrück-Kreis","type":"Landkreis"},"federalState":{"key":"07","name":"Rheinland-Pfalz"}},{"name":"Zeigerstr.","postalCode":"79677","locality":"Böllen","municipality":{"key":"08336010","name":"Böllen","type":"Kreisangehörige_Gemeinde"},"district":{"key":"08336","name":"Lörrach","type":"Landkreis"},"federalState":{"key":"08","name":"Baden-Württemberg"}},{"name":"Ötlinger Str.","postalCode":"79539","locality":"Lörrach","municipality":{"key":"08336050","name":"Lörrach, Stadt","type":"Große_Kreisstadt"},"district":{"key":"08336","name":"Lörrach","type":"Landkreis"},"federalState":{"key":"08","name":"Baden-Württemberg"}},{"name":"Über der Wiese","postalCode":"79540","locality":"Lörrach","municipality":{"key":"08336050","name":"Lörrach, Stadt","type":"Große_Kreisstadt"},"district":{"key":"08336","name":"Lörrach","type":"Landkreis"},"federalState":{"key":"08","name":"Baden-Württemberg"}},]