[{"name":"Alte Gresger Str.","postalCode":"79688","locality":"Hausen im Wiesental","municipality":{"key":"08336036","name":"Hausen im Wiesental","type":"Kreisangehörige_Gemeinde"},"district":{"key":"08336","name":"Lörrach","type":"Landkreis"},"federalState":{"key":"08","name":"Baden-Württemberg"}},{"name":"Am Eisenwerk","postalCode":"79688","locality":"Hausen im Wiesental","municipality":{"key":"08336036","name":"Hausen im Wiesental","type":"Kreisangehörige_Gemeinde"},"district":{"key":"08336","name":"Lörrach","type":"Landkreis"},"federalState":{"key":"08","name":"Baden-Württemberg"}},{"name":"Am Kleemättle","postalCode":"79688","locality":"Hausen im Wiesental","municipality":{"key":"08336036","name":"Hausen im Wiesental","type":"Kreisangehörige_Gemeinde"},"district":{"key":"08336","name":"Lörrach","type":"Landkreis"},"federalState":{"key":"08","name":"Baden-Württemberg"}},{"name":"Auf den Dellen","postalCode":"79688","locality":"Hausen im Wiesental","municipality":{"key":"08336036","name":"Hausen im Wiesental","type":"Kreisangehörige_Gemeinde"},"district":{"key":"08336","name":"Lörrach","type":"Landkreis"},"federalState":{"key":"08","name":"Baden-Württemberg"}},{"name":"Auf den Mauren","postalCode":"79688","locality":"Hausen im Wiesental","municipality":{"key":"08336036","name":"Hausen im Wiesental","type":"Kreisangehörige_Gemeinde"},"district":{"key":"08336","name":"Lörrach","type":"Landkreis"},"federalState":{"key":"08","name":"Baden-Württemberg"}},{"name":"Auf der Rütte","postalCode":"79688","locality":"Hausen im Wiesental","municipality":{"key":"08336036","name":"Hausen im Wiesental","type":"Kreisangehörige_Gemeinde"},"district":{"key":"08336","name":"Lörrach","type":"Landkreis"},"federalState":{"key":"08","name":"Baden-Württemberg"}},{"name":"Bahnhofstr.","postalCode":"79688","locality":"Hausen im Wiesental","municipality":{"key":"08336036","name":"Hausen im Wiesental","type":"Kreisangehörige_Gemeinde"},"district":{"key":"08336","name":"Lörrach","type":"Landkreis"},"federalState":{"key":"08","name":"Baden-Württemberg"}},{"name":"Baldersau","postalCode":"79688","locality":"Hausen im Wiesental","municipality":{"key":"08336036","name":"Hausen im Wiesental","type":"Kreisangehörige_Gemeinde"},"district":{"key":"08336","name":"Lörrach","type":"Landkreis"},"federalState":{"key":"08","name":"Baden-Württemberg"}},{"name":"Bergwerkstr.","postalCode":"79688","locality":"Hausen im Wiesental","municipality":{"key":"08336036","name":"Hausen im Wiesental","type":"Kreisangehörige_Gemeinde"},"district":{"key":"08336","name":"Lörrach","type":"Landkreis"},"federalState":{"key":"08","name":"Baden-Württemberg"}},{"name":"Binsenweg","postalCode":"79688","locality":"Hausen im Wiesental","municipality":{"key":"08336036","name":"Hausen im Wiesental","type":"Kreisangehörige_Gemeinde"},"district":{"key":"08336","name":"Lörrach","type":"Landkreis"},"federalState":{"key":"08","name":"Baden-Württemberg"}},{"name":"Bühlackerstr.","postalCode":"79688","locality":"Hausen im Wiesental","municipality":{"key":"08336036","name":"Hausen im Wiesental","type":"Kreisangehörige_Gemeinde"},"district":{"key":"08336","name":"Lörrach","type":"Landkreis"},"federalState":{"key":"08","name":"Baden-Württemberg"}},{"name":"Bundesstr.","postalCode":"79688","locality":"Hausen im Wiesental","municipality":{"key":"08336036","name":"Hausen im Wiesental","type":"Kreisangehörige_Gemeinde"},"district":{"key":"08336","name":"Lörrach","type":"Landkreis"},"federalState":{"key":"08","name":"Baden-Württemberg"}},{"name":"Bündtenfeldstr.","postalCode":"79688","locality":"Hausen im Wiesental","municipality":{"key":"08336036","name":"Hausen im Wiesental","type":"Kreisangehörige_Gemeinde"},"district":{"key":"08336","name":"Lörrach","type":"Landkreis"},"federalState":{"key":"08","name":"Baden-Württemberg"}},{"name":"Burgeck","postalCode":"79688","locality":"Hausen im Wiesental","municipality":{"key":"08336036","name":"Hausen im Wiesental","type":"Kreisangehörige_Gemeinde"},"district":{"key":"08336","name":"Lörrach","type":"Landkreis"},"federalState":{"key":"08","name":"Baden-Württemberg"}},{"name":"Burichweg","postalCode":"79688","locality":"Hausen im Wiesental","municipality":{"key":"08336036","name":"Hausen im Wiesental","type":"Kreisangehörige_Gemeinde"},"district":{"key":"08336","name":"Lörrach","type":"Landkreis"},"federalState":{"key":"08","name":"Baden-Württemberg"}},{"name":"Carl-Keller-Weg","postalCode":"79539","locality":"Lörrach","municipality":{"key":"08336050","name":"Lörrach, Stadt","type":"Große_Kreisstadt"},"district":{"key":"08336","name":"Lörrach","type":"Landkreis"},"federalState":{"key":"08","name":"Baden-Württemberg"}},{"name":"Carl-Maria-von-Weber-Str.","postalCode":"79540","locality":"Lörrach","municipality":{"key":"08336050","name":"Lörrach, Stadt","type":"Große_Kreisstadt"},"district":{"key":"08336","name":"Lörrach","type":"Landkreis"},"federalState":{"key":"08","name":"Baden-Württemberg"}},{"name":"Chesterplatz","postalCode":"79539","locality":"Lörrach","municipality":{"key":"08336050","name":"Lörrach, Stadt","type":"Große_Kreisstadt"},"district":{"key":"08336","name":"Lörrach","type":"Landkreis"},"federalState":{"key":"08","name":"Baden-Württemberg"}},{"name":"Chrischonastr.","postalCode":"79540","locality":"Lörrach","municipality":{"key":"08336050","name":"Lörrach, Stadt","type":"Große_Kreisstadt"},"district":{"key":"08336","name":"Lörrach","type":"Landkreis"},"federalState":{"key":"08","name":"Baden-Württemberg"}},{"name":"Clara-Immerwahr-Str.","postalCode":"79540","locality":"Lörrach","municipality":{"key":"08336050","name":"Lörrach, Stadt","type":"Große_Kreisstadt"},"district":{"key":"08336","name":"Lörrach","type":"Landkreis"},"federalState":{"key":"08","name":"Baden-Württemberg"}},{"name":"Distelweg","postalCode":"79688","locality":"Hausen im Wiesental","municipality":{"key":"08336036","name":"Hausen im Wiesental","type":"Kreisangehörige_Gemeinde"},"district":{"key":"08336","name":"Lörrach","type":"Landkreis"},"federalState":{"key":"08","name":"Baden-Württemberg"}},{"name":"Eichleneckweg","postalCode":"79688","locality":"Hausen im Wiesental","municipality":{"key":"08336036","name":"Hausen im Wiesental","type":"Kreisangehörige_Gemeinde"},"district":{"key":"08336","name":"Lörrach","type":"Landkreis"},"federalState":{"key":"08","name":"Baden-Württemberg"}},{"name":"Farnweg","postalCode":"79688","locality":"Hausen im Wiesental","municipality":{"key":"08336036","name":"Hausen im Wiesental","type":"Kreisangehörige_Gemeinde"},"district":{"key":"08336","name":"Lörrach","type":"Landkreis"},"federalState":{"key":"08","name":"Baden-Württemberg"}},{"name":"Flieschweg","postalCode":"79688","locality":"Hausen im Wiesental","municipality":{"key":"08336036","name":"Hausen im Wiesental","type":"Kreisangehörige_Gemeinde"},"district":{"key":"08336","name":"Lörrach","type":"Landkreis"},"federalState":{"key":"08","name":"Baden-Württemberg"}},{"name":"Fluegrabenweg","postalCode":"79688","locality":"Hausen im Wiesental","municipality":{"key":"08336036","name":"Hausen im Wiesental","type":"Kreisangehörige_Gemeinde"},"district":{"key":"08336","name":"Lörrach","type":"Landkreis"},"federalState":{"key":"08","name":"Baden-Württemberg"}},{"name":"Friedhofweg","postalCode":"79688","locality":"Hausen im Wiesental","municipality":{"key":"08336036","name":"Hausen im Wiesental","type":"Kreisangehörige_Gemeinde"},"district":{"key":"08336","name":"Lörrach","type":"Landkreis"},"federalState":{"key":"08","name":"Baden-Württemberg"}},{"name":"Gänsackerstr.","postalCode":"79688","locality":"Hausen im Wiesental","municipality":{"key":"08336036","name":"Hausen im Wiesental","type":"Kreisangehörige_Gemeinde"},"district":{"key":"08336","name":"Lörrach","type":"Landkreis"},"federalState":{"key":"08","name":"Baden-Württemberg"}},{"name":"Gärtnerei Kist","postalCode":"79688","locality":"Hausen im Wiesental","municipality":{"key":"08336036","name":"Hausen im Wiesental","type":"Kreisangehörige_Gemeinde"},"district":{"key":"08336","name":"Lörrach","type":"Landkreis"},"federalState":{"key":"08","name":"Baden-Württemberg"}},{"name":"Gernweg","postalCode":"79688","locality":"Hausen im Wiesental","municipality":{"key":"08336036","name":"Hausen im Wiesental","type":"Kreisangehörige_Gemeinde"},"district":{"key":"08336","name":"Lörrach","type":"Landkreis"},"federalState":{"key":"08","name":"Baden-Württemberg"}},{"name":"Giersmattstr.","postalCode":"79688","locality":"Hausen im Wiesental","municipality":{"key":"08336036","name":"Hausen im Wiesental","type":"Kreisangehörige_Gemeinde"},"district":{"key":"08336","name":"Lörrach","type":"Landkreis"},"federalState":{"key":"08","name":"Baden-Württemberg"}},{"name":"Grenzweg","postalCode":"79688","locality":"Hausen im Wiesental","municipality":{"key":"08336036","name":"Hausen im Wiesental","type":"Kreisangehörige_Gemeinde"},"district":{"key":"08336","name":"Lörrach","type":"Landkreis"},"federalState":{"key":"08","name":"Baden-Württemberg"}},{"name":"Gresgerweg","postalCode":"79688","locality":"Hausen im Wiesental","municipality":{"key":"08336036","name":"Hausen im Wiesental","type":"Kreisangehörige_Gemeinde"},"district":{"key":"08336","name":"Lörrach","type":"Landkreis"},"federalState":{"key":"08","name":"Baden-Württemberg"}},{"name":"Hammerwerksbrücke","postalCode":"79688","locality":"Hausen im Wiesental","municipality":{"key":"08336036","name":"Hausen im Wiesental","type":"Kreisangehörige_Gemeinde"},"district":{"key":"08336","name":"Lörrach","type":"Landkreis"},"federalState":{"key":"08","name":"Baden-Württemberg"}},{"name":"Hebelstr.","postalCode":"79688","locality":"Hausen im Wiesental","municipality":{"key":"08336036","name":"Hausen im Wiesental","type":"Kreisangehörige_Gemeinde"},"district":{"key":"08336","name":"Lörrach","type":"Landkreis"},"federalState":{"key":"08","name":"Baden-Württemberg"}},{"name":"Hellwaldweg","postalCode":"79688","locality":"Hausen im Wiesental","municipality":{"key":"08336036","name":"Hausen im Wiesental","type":"Kreisangehörige_Gemeinde"},"district":{"key":"08336","name":"Lörrach","type":"Landkreis"},"federalState":{"key":"08","name":"Baden-Württemberg"}},{"name":"Im Grien","postalCode":"79688","locality":"Hausen im Wiesental","municipality":{"key":"08336036","name":"Hausen im Wiesental","type":"Kreisangehörige_Gemeinde"},"district":{"key":"08336","name":"Lörrach","type":"Landkreis"},"federalState":{"key":"08","name":"Baden-Württemberg"}},{"name":"Im Herrengarten","postalCode":"79688","locality":"Hausen im Wiesental","municipality":{"key":"08336036","name":"Hausen im Wiesental","type":"Kreisangehörige_Gemeinde"},"district":{"key":"08336","name":"Lörrach","type":"Landkreis"},"federalState":{"key":"08","name":"Baden-Württemberg"}},{"name":"Im Lehacker","postalCode":"79688","locality":"Hausen im Wiesental","municipality":{"key":"08336036","name":"Hausen im Wiesental","type":"Kreisangehörige_Gemeinde"},"district":{"key":"08336","name":"Lörrach","type":"Landkreis"},"federalState":{"key":"08","name":"Baden-Württemberg"}},{"name":"Innerer Riedmattweg","postalCode":"79688","locality":"Hausen im Wiesental","municipality":{"key":"08336036","name":"Hausen im Wiesental","type":"Kreisangehörige_Gemeinde"},"district":{"key":"08336","name":"Lörrach","type":"Landkreis"},"federalState":{"key":"08","name":"Baden-Württemberg"}},{"name":"Jagdhausweg","postalCode":"79541","locality":"Lörrach","municipality":{"key":"08336050","name":"Lörrach, Stadt","type":"Große_Kreisstadt"},"district":{"key":"08336","name":"Lörrach","type":"Landkreis"},"federalState":{"key":"08","name":"Baden-Württemberg"}},{"name":"Jägerhüttenweg","postalCode":"79541","locality":"Lörrach","municipality":{"key":"08336050","name":"Lörrach, Stadt","type":"Große_Kreisstadt"},"district":{"key":"08336","name":"Lörrach","type":"Landkreis"},"federalState":{"key":"08","name":"Baden-Württemberg"}},{"name":"Jahnstr.","postalCode":"79539","locality":"Lörrach","municipality":{"key":"08336050","name":"Lörrach, Stadt","type":"Große_Kreisstadt"},"district":{"key":"08336","name":"Lörrach","type":"Landkreis"},"federalState":{"key":"08","name":"Baden-Württemberg"}},{"name":"Josef-Pfeffer-Weg","postalCode":"79540","locality":"Lörrach","municipality":{"key":"08336050","name":"Lörrach, Stadt","type":"Große_Kreisstadt"},"district":{"key":"08336","name":"Lörrach","type":"Landkreis"},"federalState":{"key":"08","name":"Baden-Württemberg"}},{"name":"Joseph-Rupp-Weg","postalCode":"79540","locality":"Lörrach","municipality":{"key":"08336050","name":"Lörrach, Stadt","type":"Große_Kreisstadt"},"district":{"key":"08336","name":"Lörrach","type":"Landkreis"},"federalState":{"key":"08","name":"Baden-Württemberg"}},{"name":"Juchweg","postalCode":"79541","locality":"Lörrach","municipality":{"key":"08336050","name":"Lörrach, Stadt","type":"Große_Kreisstadt"},"district":{"key":"08336","name":"Lörrach","type":"Landkreis"},"federalState":{"key":"08","name":"Baden-Württemberg"}},{"name":"Jung Almend Weg","postalCode":"79541","locality":"Lörrach","municipality":{"key":"08336050","name":"Lörrach, Stadt","type":"Große_Kreisstadt"},"district":{"key":"08336","name":"Lörrach","type":"Landkreis"},"federalState":{"key":"08","name":"Baden-Württemberg"}},{"name":"Jungholzweg","postalCode":"79541","locality":"Lörrach","municipality":{"key":"08336050","name":"Lörrach, Stadt","type":"Große_Kreisstadt"},"district":{"key":"08336","name":"Lörrach","type":"Landkreis"},"federalState":{"key":"08","name":"Baden-Württemberg"}},{"name":"Juraweg","postalCode":"79540","locality":"Lörrach","municipality":{"key":"08336050","name":"Lörrach, Stadt","type":"Große_Kreisstadt"},"district":{"key":"08336","name":"Lörrach","type":"Landkreis"},"federalState":{"key":"08","name":"Baden-Württemberg"}},{"name":"Knobelweg","postalCode":"79688","locality":"Hausen im Wiesental","municipality":{"key":"08336036","name":"Hausen im Wiesental","type":"Kreisangehörige_Gemeinde"},"district":{"key":"08336","name":"Lörrach","type":"Landkreis"},"federalState":{"key":"08","name":"Baden-Württemberg"}},{"name":"Köhlsbergweg","postalCode":"79688","locality":"Hausen im Wiesental","municipality":{"key":"08336036","name":"Hausen im Wiesental","type":"Kreisangehörige_Gemeinde"},"district":{"key":"08336","name":"Lörrach","type":"Landkreis"},"federalState":{"key":"08","name":"Baden-Württemberg"}},{"name":"Kohlweg","postalCode":"79688","locality":"Hausen im Wiesental","municipality":{"key":"08336036","name":"Hausen im Wiesental","type":"Kreisangehörige_Gemeinde"},"district":{"key":"08336","name":"Lörrach","type":"Landkreis"},"federalState":{"key":"08","name":"Baden-Württemberg"}},{"name":"Krummattstr.","postalCode":"79688","locality":"Hausen im Wiesental","municipality":{"key":"08336036","name":"Hausen im Wiesental","type":"Kreisangehörige_Gemeinde"},"district":{"key":"08336","name":"Lörrach","type":"Landkreis"},"federalState":{"key":"08","name":"Baden-Württemberg"}},{"name":"Kupfergruben","postalCode":"79688","locality":"Hausen im Wiesental","municipality":{"key":"08336036","name":"Hausen im Wiesental","type":"Kreisangehörige_Gemeinde"},"district":{"key":"08336","name":"Lörrach","type":"Landkreis"},"federalState":{"key":"08","name":"Baden-Württemberg"}},{"name":"Lettenweg","postalCode":"79688","locality":"Hausen im Wiesental","municipality":{"key":"08336036","name":"Hausen im Wiesental","type":"Kreisangehörige_Gemeinde"},"district":{"key":"08336","name":"Lörrach","type":"Landkreis"},"federalState":{"key":"08","name":"Baden-Württemberg"}},{"name":"Maibergstr.","postalCode":"79688","locality":"Hausen im Wiesental","municipality":{"key":"08336036","name":"Hausen im Wiesental","type":"Kreisangehörige_Gemeinde"},"district":{"key":"08336","name":"Lörrach","type":"Landkreis"},"federalState":{"key":"08","name":"Baden-Württemberg"}},{"name":"Mischelbachweg","postalCode":"79688","locality":"Hausen im Wiesental","municipality":{"key":"08336036","name":"Hausen im Wiesental","type":"Kreisangehörige_Gemeinde"},"district":{"key":"08336","name":"Lörrach","type":"Landkreis"},"federalState":{"key":"08","name":"Baden-Württemberg"}},{"name":"Mitteldorfstr.","postalCode":"79688","locality":"Hausen im Wiesental","municipality":{"key":"08336036","name":"Hausen im Wiesental","type":"Kreisangehörige_Gemeinde"},"district":{"key":"08336","name":"Lörrach","type":"Landkreis"},"federalState":{"key":"08","name":"Baden-Württemberg"}},{"name":"Moosweg","postalCode":"79688","locality":"Hausen im Wiesental","municipality":{"key":"08336036","name":"Hausen im Wiesental","type":"Kreisangehörige_Gemeinde"},"district":{"key":"08336","name":"Lörrach","type":"Landkreis"},"federalState":{"key":"08","name":"Baden-Württemberg"}},{"name":"Munibuckweg","postalCode":"79688","locality":"Hausen im Wiesental","municipality":{"key":"08336036","name":"Hausen im Wiesental","type":"Kreisangehörige_Gemeinde"},"district":{"key":"08336","name":"Lörrach","type":"Landkreis"},"federalState":{"key":"08","name":"Baden-Württemberg"}},{"name":"Niederbergerweg","postalCode":"79688","locality":"Hausen im Wiesental","municipality":{"key":"08336036","name":"Hausen im Wiesental","type":"Kreisangehörige_Gemeinde"},"district":{"key":"08336","name":"Lörrach","type":"Landkreis"},"federalState":{"key":"08","name":"Baden-Württemberg"}},{"name":"Oberdorfstr.","postalCode":"79688","locality":"Hausen im Wiesental","municipality":{"key":"08336036","name":"Hausen im Wiesental","type":"Kreisangehörige_Gemeinde"},"district":{"key":"08336","name":"Lörrach","type":"Landkreis"},"federalState":{"key":"08","name":"Baden-Württemberg"}},{"name":"Oberer Eichbühlweg","postalCode":"79688","locality":"Hausen im Wiesental","municipality":{"key":"08336036","name":"Hausen im Wiesental","type":"Kreisangehörige_Gemeinde"},"district":{"key":"08336","name":"Lörrach","type":"Landkreis"},"federalState":{"key":"08","name":"Baden-Württemberg"}},{"name":"Palmstr.","postalCode":"79539","locality":"Lörrach","municipality":{"key":"08336050","name":"Lörrach, Stadt","type":"Große_Kreisstadt"},"district":{"key":"08336","name":"Lörrach","type":"Landkreis"},"federalState":{"key":"08","name":"Baden-Württemberg"}},{"name":"Panoramaweg","postalCode":"79541","locality":"Lörrach","municipality":{"key":"08336050","name":"Lörrach, Stadt","type":"Große_Kreisstadt"},"district":{"key":"08336","name":"Lörrach","type":"Landkreis"},"federalState":{"key":"08","name":"Baden-Württemberg"}},{"name":"Pestalozzistr.","postalCode":"79540","locality":"Lörrach","municipality":{"key":"08336050","name":"Lörrach, Stadt","type":"Große_Kreisstadt"},"district":{"key":"08336","name":"Lörrach","type":"Landkreis"},"federalState":{"key":"08","name":"Baden-Württemberg"}},{"name":"Philippe-Suchard-Str.","postalCode":"79540","locality":"Lörrach","municipality":{"key":"08336050","name":"Lörrach, Stadt","type":"Große_Kreisstadt"},"district":{"key":"08336","name":"Lörrach","type":"Landkreis"},"federalState":{"key":"08","name":"Baden-Württemberg"}},{"name":"Priesterrain","postalCode":"79540","locality":"Lörrach","municipality":{"key":"08336050","name":"Lörrach, Stadt","type":"Große_Kreisstadt"},"district":{"key":"08336","name":"Lörrach","type":"Landkreis"},"federalState":{"key":"08","name":"Baden-Württemberg"}},{"name":"Promenadenweg","postalCode":"79539","locality":"Lörrach","municipality":{"key":"08336050","name":"Lörrach, Stadt","type":"Große_Kreisstadt"},"district":{"key":"08336","name":"Lörrach","type":"Landkreis"},"federalState":{"key":"08","name":"Baden-Württemberg"}},{"name":"Riedackerweg","postalCode":"79688","locality":"Hausen im Wiesental","municipality":{"key":"08336036","name":"Hausen im Wiesental","type":"Kreisangehörige_Gemeinde"},"district":{"key":"08336","name":"Lörrach","type":"Landkreis"},"federalState":{"key":"08","name":"Baden-Württemberg"}},{"name":"Rohrengrabenweg","postalCode":"79688","locality":"Hausen im Wiesental","municipality":{"key":"08336036","name":"Hausen im Wiesental","type":"Kreisangehörige_Gemeinde"},"district":{"key":"08336","name":"Lörrach","type":"Landkreis"},"federalState":{"key":"08","name":"Baden-Württemberg"}},{"name":"Sädeliweg","postalCode":"79688","locality":"Hausen im Wiesental","municipality":{"key":"08336036","name":"Hausen im Wiesental","type":"Kreisangehörige_Gemeinde"},"district":{"key":"08336","name":"Lörrach","type":"Landkreis"},"federalState":{"key":"08","name":"Baden-Württemberg"}},{"name":"Salzlachenweg","postalCode":"79688","locality":"Hausen im Wiesental","municipality":{"key":"08336036","name":"Hausen im Wiesental","type":"Kreisangehörige_Gemeinde"},"district":{"key":"08336","name":"Lörrach","type":"Landkreis"},"federalState":{"key":"08","name":"Baden-Württemberg"}},{"name":"Säuwaidweg","postalCode":"79688","locality":"Hausen im Wiesental","municipality":{"key":"08336036","name":"Hausen im Wiesental","type":"Kreisangehörige_Gemeinde"},"district":{"key":"08336","name":"Lörrach","type":"Landkreis"},"federalState":{"key":"08","name":"Baden-Württemberg"}},{"name":"Schrohweg","postalCode":"79688","locality":"Hausen im Wiesental","municipality":{"key":"08336036","name":"Hausen im Wiesental","type":"Kreisangehörige_Gemeinde"},"district":{"key":"08336","name":"Lörrach","type":"Landkreis"},"federalState":{"key":"08","name":"Baden-Württemberg"}},{"name":"Schulstr.","postalCode":"79688","locality":"Hausen im Wiesental","municipality":{"key":"08336036","name":"Hausen im Wiesental","type":"Kreisangehörige_Gemeinde"},"district":{"key":"08336","name":"Lörrach","type":"Landkreis"},"federalState":{"key":"08","name":"Baden-Württemberg"}},{"name":"Stempel","postalCode":"79688","locality":"Hausen im Wiesental","municipality":{"key":"08336036","name":"Hausen im Wiesental","type":"Kreisangehörige_Gemeinde"},"district":{"key":"08336","name":"Lörrach","type":"Landkreis"},"federalState":{"key":"08","name":"Baden-Württemberg"}},{"name":"Stiegenbrünnliweg","postalCode":"79688","locality":"Hausen im Wiesental","municipality":{"key":"08336036","name":"Hausen im Wiesental","type":"Kreisangehörige_Gemeinde"},"district":{"key":"08336","name":"Lörrach","type":"Landkreis"},"federalState":{"key":"08","name":"Baden-Württemberg"}},{"name":"Stockmattweg","postalCode":"79688","locality":"Hausen im Wiesental","municipality":{"key":"08336036","name":"Hausen im Wiesental","type":"Kreisangehörige_Gemeinde"},"district":{"key":"08336","name":"Lörrach","type":"Landkreis"},"federalState":{"key":"08","name":"Baden-Württemberg"}},{"name":"Teichstr.","postalCode":"79688","locality":"Hausen im Wiesental","municipality":{"key":"08336036","name":"Hausen im Wiesental","type":"Kreisangehörige_Gemeinde"},"district":{"key":"08336","name":"Lörrach","type":"Landkreis"},"federalState":{"key":"08","name":"Baden-Württemberg"}},{"name":"Torstr.","postalCode":"79688","locality":"Hausen im Wiesental","municipality":{"key":"08336036","name":"Hausen im Wiesental","type":"Kreisangehörige_Gemeinde"},"district":{"key":"08336","name":"Lörrach","type":"Landkreis"},"federalState":{"key":"08","name":"Baden-Württemberg"}},{"name":"Totengrabenweg","postalCode":"79688","locality":"Hausen im Wiesental","municipality":{"key":"08336036","name":"Hausen im Wiesental","type":"Kreisangehörige_Gemeinde"},"district":{"key":"08336","name":"Lörrach","type":"Landkreis"},"federalState":{"key":"08","name":"Baden-Württemberg"}},{"name":"Unterdorfstr.","postalCode":"79688","locality":"Hausen im Wiesental","municipality":{"key":"08336036","name":"Hausen im Wiesental","type":"Kreisangehörige_Gemeinde"},"district":{"key":"08336","name":"Lörrach","type":"Landkreis"},"federalState":{"key":"08","name":"Baden-Württemberg"}},{"name":"Unterer Niederbergweg","postalCode":"79688","locality":"Hausen im Wiesental","municipality":{"key":"08336036","name":"Hausen im Wiesental","type":"Kreisangehörige_Gemeinde"},"district":{"key":"08336","name":"Lörrach","type":"Landkreis"},"federalState":{"key":"08","name":"Baden-Württemberg"}},{"name":"Upholzweg","postalCode":"79688","locality":"Hausen im Wiesental","municipality":{"key":"08336036","name":"Hausen im Wiesental","type":"Kreisangehörige_Gemeinde"},"district":{"key":"08336","name":"Lörrach","type":"Landkreis"},"federalState":{"key":"08","name":"Baden-Württemberg"}},{"name":"Ushölzliweg","postalCode":"79688","locality":"Hausen im Wiesental","municipality":{"key":"08336036","name":"Hausen im Wiesental","type":"Kreisangehörige_Gemeinde"},"district":{"key":"08336","name":"Lörrach","type":"Landkreis"},"federalState":{"key":"08","name":"Baden-Württemberg"}},{"name":"Vogesenstr.","postalCode":"79541","locality":"Lörrach","municipality":{"key":"08336050","name":"Lörrach, Stadt","type":"Große_Kreisstadt"},"district":{"key":"08336","name":"Lörrach","type":"Landkreis"},"federalState":{"key":"08","name":"Baden-Württemberg"}},{"name":"Vogteistr.","postalCode":"79541","locality":"Lörrach","municipality":{"key":"08336050","name":"Lörrach, Stadt","type":"Große_Kreisstadt"},"district":{"key":"08336","name":"Lörrach","type":"Landkreis"},"federalState":{"key":"08","name":"Baden-Württemberg"}},{"name":"Vordere Binzengrabenweg","postalCode":"79541","locality":"Lörrach","municipality":{"key":"08336050","name":"Lörrach, Stadt","type":"Große_Kreisstadt"},"district":{"key":"08336","name":"Lörrach","type":"Landkreis"},"federalState":{"key":"08","name":"Baden-Württemberg"}},{"name":"Vorderer Blinzgrabenweg","postalCode":"79541","locality":"Lörrach","municipality":{"key":"08336050","name":"Lörrach, Stadt","type":"Große_Kreisstadt"},"district":{"key":"08336","name":"Lörrach","type":"Landkreis"},"federalState":{"key":"08","name":"Baden-Württemberg"}},{"name":"Vorderer Karwiedenweg","postalCode":"79541","locality":"Lörrach","municipality":{"key":"08336050","name":"Lörrach, Stadt","type":"Große_Kreisstadt"},"district":{"key":"08336","name":"Lörrach","type":"Landkreis"},"federalState":{"key":"08","name":"Baden-Württemberg"}},{"name":"Vorderer Studweg","postalCode":"79541","locality":"Lörrach","municipality":{"key":"08336050","name":"Lörrach, Stadt","type":"Große_Kreisstadt"},"district":{"key":"08336","name":"Lörrach","type":"Landkreis"},"federalState":{"key":"08","name":"Baden-Württemberg"}},{"name":"Vorengeleweg","postalCode":"79539","locality":"Lörrach","municipality":{"key":"08336050","name":"Lörrach, Stadt","type":"Große_Kreisstadt"},"district":{"key":"08336","name":"Lörrach","type":"Landkreis"},"federalState":{"key":"08","name":"Baden-Württemberg"}},{"name":"Vorengeleweg","postalCode":"79540","locality":"Lörrach","municipality":{"key":"08336050","name":"Lörrach, Stadt","type":"Große_Kreisstadt"},"district":{"key":"08336","name":"Lörrach","type":"Landkreis"},"federalState":{"key":"08","name":"Baden-Württemberg"}},{"name":"Wiesestr.","postalCode":"79688","locality":"Hausen im Wiesental","municipality":{"key":"08336036","name":"Hausen im Wiesental","type":"Kreisangehörige_Gemeinde"},"district":{"key":"08336","name":"Lörrach","type":"Landkreis"},"federalState":{"key":"08","name":"Baden-Württemberg"}},{"name":"Wuhrstr.","postalCode":"79688","locality":"Hausen im Wiesental","municipality":{"key":"08336036","name":"Hausen im Wiesental","type":"Kreisangehörige_Gemeinde"},"district":{"key":"08336","name":"Lörrach","type":"Landkreis"},"federalState":{"key":"08","name":"Baden-Württemberg"}},{"name":"Zweierweg","postalCode":"79688","locality":"Hausen im Wiesental","municipality":{"key":"08336036","name":"Hausen im Wiesental","type":"Kreisangehörige_Gemeinde"},"district":{"key":"08336","name":"Lörrach","type":"Landkreis"},"federalState":{"key":"08","name":"Baden-Württemberg"}},{"name":"Zwerweg","postalCode":"79688","locality":"Hausen im Wiesental","municipality":{"key":"08336036","name":"Hausen im Wiesental","type":"Kreisangehörige_Gemeinde"},"district":{"key":"08336","name":"Lörrach","type":"Landkreis"},"federalState":{"key":"08","name":"Baden-Württemberg"}},{"name":"Ötlinger Str.","postalCode":"79539","locality":"Lörrach","municipality":{"key":"08336050","name":"Lörrach, Stadt","type":"Große_Kreisstadt"},"district":{"key":"08336","name":"Lörrach","type":"Landkreis"},"federalState":{"key":"08","name":"Baden-Württemberg"}},{"name":"Über der Wiese","postalCode":"79540","locality":"Lörrach","municipality":{"key":"08336050","name":"Lörrach, Stadt","type":"Große_Kreisstadt"},"district":{"key":"08336","name":"Lörrach","type":"Landkreis"},"federalState":{"key":"08","name":"Baden-Württemberg"}},]