[{"name":"5 Minuten-Weg","postalCode":"01906","locality":"Burkau","municipality":{"key":"14625060","name":"Burkau / Porchow","type":"Kreisangehörige_Gemeinde"},"district":{"key":"14625","name":"Bautzen","type":"Landkreis"},"federalState":{"key":"14","name":"Sachsen"}},{"name":"Adelsheimer Str.","postalCode":"74706","locality":"Osterburken","municipality":{"key":"08225075","name":"Osterburken, Stadt","type":"Stadt"},"district":{"key":"08225","name":"Neckar-Odenwald-Kreis","type":"Landkreis"},"federalState":{"key":"08","name":"Baden-Württemberg"}},{"name":"Adolf-Kolping-Str.","postalCode":"74706","locality":"Osterburken","municipality":{"key":"08225075","name":"Osterburken, Stadt","type":"Stadt"},"district":{"key":"08225","name":"Neckar-Odenwald-Kreis","type":"Landkreis"},"federalState":{"key":"08","name":"Baden-Württemberg"}},{"name":"Adorfer Str.","postalCode":"09235","locality":"Burkhardtsdorf","municipality":{"key":"14521120","name":"Burkhardtsdorf","type":"Kreisangehörige_Gemeinde"},"district":{"key":"14521","name":"Erzgebirgskreis","type":"Landkreis"},"federalState":{"key":"14","name":"Sachsen"}},{"name":"Adorfer Weg","postalCode":"09235","locality":"Burkhardtsdorf","municipality":{"key":"14521120","name":"Burkhardtsdorf","type":"Kreisangehörige_Gemeinde"},"district":{"key":"14521","name":"Erzgebirgskreis","type":"Landkreis"},"federalState":{"key":"14","name":"Sachsen"}},{"name":"Ahnerweg","postalCode":"09235","locality":"Burkhardtsdorf","municipality":{"key":"14521120","name":"Burkhardtsdorf","type":"Kreisangehörige_Gemeinde"},"district":{"key":"14521","name":"Erzgebirgskreis","type":"Landkreis"},"federalState":{"key":"14","name":"Sachsen"}},{"name":"Ahornweg","postalCode":"09235","locality":"Burkhardtsdorf","municipality":{"key":"14521120","name":"Burkhardtsdorf","type":"Kreisangehörige_Gemeinde"},"district":{"key":"14521","name":"Erzgebirgskreis","type":"Landkreis"},"federalState":{"key":"14","name":"Sachsen"}},{"name":"Albert-Viertel-Weg","postalCode":"09235","locality":"Burkhardtsdorf","municipality":{"key":"14521120","name":"Burkhardtsdorf","type":"Kreisangehörige_Gemeinde"},"district":{"key":"14521","name":"Erzgebirgskreis","type":"Landkreis"},"federalState":{"key":"14","name":"Sachsen"}},{"name":"Alemannenstr.","postalCode":"74706","locality":"Osterburken","municipality":{"key":"08225075","name":"Osterburken, Stadt","type":"Stadt"},"district":{"key":"08225","name":"Neckar-Odenwald-Kreis","type":"Landkreis"},"federalState":{"key":"08","name":"Baden-Württemberg"}},{"name":"Alte Dorfstr.","postalCode":"09235","locality":"Burkhardtsdorf","municipality":{"key":"14521120","name":"Burkhardtsdorf","type":"Kreisangehörige_Gemeinde"},"district":{"key":"14521","name":"Erzgebirgskreis","type":"Landkreis"},"federalState":{"key":"14","name":"Sachsen"}},{"name":"Alte Gasse","postalCode":"09235","locality":"Burkhardtsdorf","municipality":{"key":"14521120","name":"Burkhardtsdorf","type":"Kreisangehörige_Gemeinde"},"district":{"key":"14521","name":"Erzgebirgskreis","type":"Landkreis"},"federalState":{"key":"14","name":"Sachsen"}},{"name":"Alte Kirnaubrücke","postalCode":"74706","locality":"Osterburken","municipality":{"key":"08225075","name":"Osterburken, Stadt","type":"Stadt"},"district":{"key":"08225","name":"Neckar-Odenwald-Kreis","type":"Landkreis"},"federalState":{"key":"08","name":"Baden-Württemberg"}},{"name":"Alte Poststr.","postalCode":"09235","locality":"Burkhardtsdorf","municipality":{"key":"14521120","name":"Burkhardtsdorf","type":"Kreisangehörige_Gemeinde"},"district":{"key":"14521","name":"Erzgebirgskreis","type":"Landkreis"},"federalState":{"key":"14","name":"Sachsen"}},{"name":"Alter Berg Weg","postalCode":"74706","locality":"Osterburken","municipality":{"key":"08225075","name":"Osterburken, Stadt","type":"Stadt"},"district":{"key":"08225","name":"Neckar-Odenwald-Kreis","type":"Landkreis"},"federalState":{"key":"08","name":"Baden-Württemberg"}},{"name":"Alter Bofsheimer Weg","postalCode":"74706","locality":"Osterburken","municipality":{"key":"08225075","name":"Osterburken, Stadt","type":"Stadt"},"district":{"key":"08225","name":"Neckar-Odenwald-Kreis","type":"Landkreis"},"federalState":{"key":"08","name":"Baden-Württemberg"}},{"name":"Alter Merchinger Weg","postalCode":"74706","locality":"Osterburken","municipality":{"key":"08225075","name":"Osterburken, Stadt","type":"Stadt"},"district":{"key":"08225","name":"Neckar-Odenwald-Kreis","type":"Landkreis"},"federalState":{"key":"08","name":"Baden-Württemberg"}},{"name":"Alte Römerstr.","postalCode":"74706","locality":"Osterburken","municipality":{"key":"08225075","name":"Osterburken, Stadt","type":"Stadt"},"district":{"key":"08225","name":"Neckar-Odenwald-Kreis","type":"Landkreis"},"federalState":{"key":"08","name":"Baden-Württemberg"}},{"name":"Alte Str.","postalCode":"01906","locality":"Burkau","municipality":{"key":"14625060","name":"Burkau / Porchow","type":"Kreisangehörige_Gemeinde"},"district":{"key":"14625","name":"Bautzen","type":"Landkreis"},"federalState":{"key":"14","name":"Sachsen"}},{"name":"Alte Str.","postalCode":"74706","locality":"Osterburken","municipality":{"key":"08225075","name":"Osterburken, Stadt","type":"Stadt"},"district":{"key":"08225","name":"Neckar-Odenwald-Kreis","type":"Landkreis"},"federalState":{"key":"08","name":"Baden-Württemberg"}},{"name":"Alte Thalheimer Str.","postalCode":"09235","locality":"Burkhardtsdorf","municipality":{"key":"14521120","name":"Burkhardtsdorf","type":"Kreisangehörige_Gemeinde"},"district":{"key":"14521","name":"Erzgebirgskreis","type":"Landkreis"},"federalState":{"key":"14","name":"Sachsen"}},{"name":"Am Auenberg","postalCode":"09235","locality":"Burkhardtsdorf","municipality":{"key":"14521120","name":"Burkhardtsdorf","type":"Kreisangehörige_Gemeinde"},"district":{"key":"14521","name":"Erzgebirgskreis","type":"Landkreis"},"federalState":{"key":"14","name":"Sachsen"}},{"name":"Am Bahnhof","postalCode":"09235","locality":"Burkhardtsdorf","municipality":{"key":"14521120","name":"Burkhardtsdorf","type":"Kreisangehörige_Gemeinde"},"district":{"key":"14521","name":"Erzgebirgskreis","type":"Landkreis"},"federalState":{"key":"14","name":"Sachsen"}},{"name":"Am Basterfeld","postalCode":"97705","locality":"Burkardroth","municipality":{"key":"09672117","name":"Burkardroth, M","type":"Markt"},"district":{"key":"09672","name":"Bad Kissingen","type":"Landkreis"},"federalState":{"key":"09","name":"Bayern"}},{"name":"Am Bauholz","postalCode":"97705","locality":"Burkardroth","municipality":{"key":"09672117","name":"Burkardroth, M","type":"Markt"},"district":{"key":"09672","name":"Bad Kissingen","type":"Landkreis"},"federalState":{"key":"09","name":"Bayern"}},{"name":"Am Berg","postalCode":"97705","locality":"Burkardroth","municipality":{"key":"09672117","name":"Burkardroth, M","type":"Markt"},"district":{"key":"09672","name":"Bad Kissingen","type":"Landkreis"},"federalState":{"key":"09","name":"Bayern"}},{"name":"Am Bild","postalCode":"74706","locality":"Osterburken","municipality":{"key":"08225075","name":"Osterburken, Stadt","type":"Stadt"},"district":{"key":"08225","name":"Neckar-Odenwald-Kreis","type":"Landkreis"},"federalState":{"key":"08","name":"Baden-Württemberg"}},{"name":"Am Birkenhain","postalCode":"09235","locality":"Burkhardtsdorf","municipality":{"key":"14521120","name":"Burkhardtsdorf","type":"Kreisangehörige_Gemeinde"},"district":{"key":"14521","name":"Erzgebirgskreis","type":"Landkreis"},"federalState":{"key":"14","name":"Sachsen"}},{"name":"Am Buck","postalCode":"91596","locality":"Burk","municipality":{"key":"09571128","name":"Burk","type":"Kreisangehörige_Gemeinde"},"district":{"key":"09571","name":"Ansbach","type":"Landkreis"},"federalState":{"key":"09","name":"Bayern"}},{"name":"Am Döllengraben","postalCode":"97705","locality":"Burkardroth","municipality":{"key":"09672117","name":"Burkardroth, M","type":"Markt"},"district":{"key":"09672","name":"Bad Kissingen","type":"Landkreis"},"federalState":{"key":"09","name":"Bayern"}},{"name":"Am Eber","postalCode":"74706","locality":"Osterburken","municipality":{"key":"08225075","name":"Osterburken, Stadt","type":"Stadt"},"district":{"key":"08225","name":"Neckar-Odenwald-Kreis","type":"Landkreis"},"federalState":{"key":"08","name":"Baden-Württemberg"}},{"name":"Am Eichelhof","postalCode":"97705","locality":"Burkardroth","municipality":{"key":"09672117","name":"Burkardroth, M","type":"Markt"},"district":{"key":"09672","name":"Bad Kissingen","type":"Landkreis"},"federalState":{"key":"09","name":"Bayern"}},{"name":"Am Ellbrunnen","postalCode":"97705","locality":"Burkardroth","municipality":{"key":"09672117","name":"Burkardroth, M","type":"Markt"},"district":{"key":"09672","name":"Bad Kissingen","type":"Landkreis"},"federalState":{"key":"09","name":"Bayern"}},{"name":"Am End","postalCode":"97705","locality":"Burkardroth","municipality":{"key":"09672117","name":"Burkardroth, M","type":"Markt"},"district":{"key":"09672","name":"Bad Kissingen","type":"Landkreis"},"federalState":{"key":"09","name":"Bayern"}},{"name":"Am Feldrain","postalCode":"09235","locality":"Burkhardtsdorf","municipality":{"key":"14521120","name":"Burkhardtsdorf","type":"Kreisangehörige_Gemeinde"},"district":{"key":"14521","name":"Erzgebirgskreis","type":"Landkreis"},"federalState":{"key":"14","name":"Sachsen"}},{"name":"Am Finkenrain","postalCode":"74706","locality":"Osterburken","municipality":{"key":"08225075","name":"Osterburken, Stadt","type":"Stadt"},"district":{"key":"08225","name":"Neckar-Odenwald-Kreis","type":"Landkreis"},"federalState":{"key":"08","name":"Baden-Württemberg"}},{"name":"Am Fleckle","postalCode":"97705","locality":"Burkardroth","municipality":{"key":"09672117","name":"Burkardroth, M","type":"Markt"},"district":{"key":"09672","name":"Bad Kissingen","type":"Landkreis"},"federalState":{"key":"09","name":"Bayern"}},{"name":"Am Geiersberg","postalCode":"09235","locality":"Burkhardtsdorf","municipality":{"key":"14521120","name":"Burkhardtsdorf","type":"Kreisangehörige_Gemeinde"},"district":{"key":"14521","name":"Erzgebirgskreis","type":"Landkreis"},"federalState":{"key":"14","name":"Sachsen"}},{"name":"Am Grohberg","postalCode":"97705","locality":"Burkardroth","municipality":{"key":"09672117","name":"Burkardroth, M","type":"Markt"},"district":{"key":"09672","name":"Bad Kissingen","type":"Landkreis"},"federalState":{"key":"09","name":"Bayern"}},{"name":"Am Gründlein","postalCode":"74706","locality":"Osterburken","municipality":{"key":"08225075","name":"Osterburken, Stadt","type":"Stadt"},"district":{"key":"08225","name":"Neckar-Odenwald-Kreis","type":"Landkreis"},"federalState":{"key":"08","name":"Baden-Württemberg"}},{"name":"Am Hang","postalCode":"09235","locality":"Burkhardtsdorf","municipality":{"key":"14521120","name":"Burkhardtsdorf","type":"Kreisangehörige_Gemeinde"},"district":{"key":"14521","name":"Erzgebirgskreis","type":"Landkreis"},"federalState":{"key":"14","name":"Sachsen"}},{"name":"Am Hang","postalCode":"97705","locality":"Burkardroth","municipality":{"key":"09672117","name":"Burkardroth, M","type":"Markt"},"district":{"key":"09672","name":"Bad Kissingen","type":"Landkreis"},"federalState":{"key":"09","name":"Bayern"}},{"name":"Am Heiligenbuck","postalCode":"91596","locality":"Burk","municipality":{"key":"09571128","name":"Burk","type":"Kreisangehörige_Gemeinde"},"district":{"key":"09571","name":"Ansbach","type":"Landkreis"},"federalState":{"key":"09","name":"Bayern"}},{"name":"Am Hirtenhain","postalCode":"97705","locality":"Burkardroth","municipality":{"key":"09672117","name":"Burkardroth, M","type":"Markt"},"district":{"key":"09672","name":"Bad Kissingen","type":"Landkreis"},"federalState":{"key":"09","name":"Bayern"}},{"name":"Am Hofacker","postalCode":"74706","locality":"Osterburken","municipality":{"key":"08225075","name":"Osterburken, Stadt","type":"Stadt"},"district":{"key":"08225","name":"Neckar-Odenwald-Kreis","type":"Landkreis"},"federalState":{"key":"08","name":"Baden-Württemberg"}},{"name":"Am Hundsrück","postalCode":"74706","locality":"Osterburken","municipality":{"key":"08225075","name":"Osterburken, Stadt","type":"Stadt"},"district":{"key":"08225","name":"Neckar-Odenwald-Kreis","type":"Landkreis"},"federalState":{"key":"08","name":"Baden-Württemberg"}},{"name":"Am Kalkofen","postalCode":"74706","locality":"Osterburken","municipality":{"key":"08225075","name":"Osterburken, Stadt","type":"Stadt"},"district":{"key":"08225","name":"Neckar-Odenwald-Kreis","type":"Landkreis"},"federalState":{"key":"08","name":"Baden-Württemberg"}},{"name":"Am Kandel","postalCode":"74706","locality":"Osterburken","municipality":{"key":"08225075","name":"Osterburken, Stadt","type":"Stadt"},"district":{"key":"08225","name":"Neckar-Odenwald-Kreis","type":"Landkreis"},"federalState":{"key":"08","name":"Baden-Württemberg"}},{"name":"Am Kirchberg","postalCode":"74706","locality":"Osterburken","municipality":{"key":"08225075","name":"Osterburken, Stadt","type":"Stadt"},"district":{"key":"08225","name":"Neckar-Odenwald-Kreis","type":"Landkreis"},"federalState":{"key":"08","name":"Baden-Württemberg"}},{"name":"Am Kirchberg","postalCode":"97705","locality":"Burkardroth","municipality":{"key":"09672117","name":"Burkardroth, M","type":"Markt"},"district":{"key":"09672","name":"Bad Kissingen","type":"Landkreis"},"federalState":{"key":"09","name":"Bayern"}},{"name":"Am Kirchplatz","postalCode":"91596","locality":"Burk","municipality":{"key":"09571128","name":"Burk","type":"Kreisangehörige_Gemeinde"},"district":{"key":"09571","name":"Ansbach","type":"Landkreis"},"federalState":{"key":"09","name":"Bayern"}},{"name":"Am Krüglein","postalCode":"97705","locality":"Burkardroth","municipality":{"key":"09672117","name":"Burkardroth, M","type":"Markt"},"district":{"key":"09672","name":"Bad Kissingen","type":"Landkreis"},"federalState":{"key":"09","name":"Bayern"}},{"name":"Bäcksgasse","postalCode":"97705","locality":"Burkardroth","municipality":{"key":"09672117","name":"Burkardroth, M","type":"Markt"},"district":{"key":"09672","name":"Bad Kissingen","type":"Landkreis"},"federalState":{"key":"09","name":"Bayern"}},{"name":"Badholzweg","postalCode":"74706","locality":"Osterburken","municipality":{"key":"08225075","name":"Osterburken, Stadt","type":"Stadt"},"district":{"key":"08225","name":"Neckar-Odenwald-Kreis","type":"Landkreis"},"federalState":{"key":"08","name":"Baden-Württemberg"}},{"name":"Bahnhofstr.","postalCode":"09235","locality":"Burkhardtsdorf","municipality":{"key":"14521120","name":"Burkhardtsdorf","type":"Kreisangehörige_Gemeinde"},"district":{"key":"14521","name":"Erzgebirgskreis","type":"Landkreis"},"federalState":{"key":"14","name":"Sachsen"}},{"name":"Bahnhofstr.","postalCode":"74706","locality":"Osterburken","municipality":{"key":"08225075","name":"Osterburken, Stadt","type":"Stadt"},"district":{"key":"08225","name":"Neckar-Odenwald-Kreis","type":"Landkreis"},"federalState":{"key":"08","name":"Baden-Württemberg"}},{"name":"Baumgartenstr.","postalCode":"91596","locality":"Burk","municipality":{"key":"09571128","name":"Burk","type":"Kreisangehörige_Gemeinde"},"district":{"key":"09571","name":"Ansbach","type":"Landkreis"},"federalState":{"key":"09","name":"Bayern"}},{"name":"Bayernstr.","postalCode":"97705","locality":"Burkardroth","municipality":{"key":"09672117","name":"Burkardroth, M","type":"Markt"},"district":{"key":"09672","name":"Bad Kissingen","type":"Landkreis"},"federalState":{"key":"09","name":"Bayern"}},{"name":"Becherstr.","postalCode":"09235","locality":"Burkhardtsdorf","municipality":{"key":"14521120","name":"Burkhardtsdorf","type":"Kreisangehörige_Gemeinde"},"district":{"key":"14521","name":"Erzgebirgskreis","type":"Landkreis"},"federalState":{"key":"14","name":"Sachsen"}},{"name":"Bechhofener Str.","postalCode":"91596","locality":"Burk","municipality":{"key":"09571128","name":"Burk","type":"Kreisangehörige_Gemeinde"},"district":{"key":"09571","name":"Ansbach","type":"Landkreis"},"federalState":{"key":"09","name":"Bayern"}},{"name":"Beethovenstr.","postalCode":"74706","locality":"Osterburken","municipality":{"key":"08225075","name":"Osterburken, Stadt","type":"Stadt"},"district":{"key":"08225","name":"Neckar-Odenwald-Kreis","type":"Landkreis"},"federalState":{"key":"08","name":"Baden-Württemberg"}},{"name":"Benefiziarierbrücke","postalCode":"74706","locality":"Osterburken","municipality":{"key":"08225075","name":"Osterburken, Stadt","type":"Stadt"},"district":{"key":"08225","name":"Neckar-Odenwald-Kreis","type":"Landkreis"},"federalState":{"key":"08","name":"Baden-Württemberg"}},{"name":"Benzstr.","postalCode":"74706","locality":"Osterburken","municipality":{"key":"08225075","name":"Osterburken, Stadt","type":"Stadt"},"district":{"key":"08225","name":"Neckar-Odenwald-Kreis","type":"Landkreis"},"federalState":{"key":"08","name":"Baden-Württemberg"}},{"name":"Berbisdorfer Str.","postalCode":"09235","locality":"Burkhardtsdorf","municipality":{"key":"14521120","name":"Burkhardtsdorf","type":"Kreisangehörige_Gemeinde"},"district":{"key":"14521","name":"Erzgebirgskreis","type":"Landkreis"},"federalState":{"key":"14","name":"Sachsen"}},{"name":"Bergstr.","postalCode":"09235","locality":"Burkhardtsdorf","municipality":{"key":"14521120","name":"Burkhardtsdorf","type":"Kreisangehörige_Gemeinde"},"district":{"key":"14521","name":"Erzgebirgskreis","type":"Landkreis"},"federalState":{"key":"14","name":"Sachsen"}},{"name":"Bergstr.","postalCode":"97705","locality":"Burkardroth","municipality":{"key":"09672117","name":"Burkardroth, M","type":"Markt"},"district":{"key":"09672","name":"Bad Kissingen","type":"Landkreis"},"federalState":{"key":"09","name":"Bayern"}},{"name":"Bergweg","postalCode":"97705","locality":"Burkardroth","municipality":{"key":"09672117","name":"Burkardroth, M","type":"Markt"},"district":{"key":"09672","name":"Bad Kissingen","type":"Landkreis"},"federalState":{"key":"09","name":"Bayern"}},{"name":"Bermlichsweg","postalCode":"74706","locality":"Osterburken","municipality":{"key":"08225075","name":"Osterburken, Stadt","type":"Stadt"},"district":{"key":"08225","name":"Neckar-Odenwald-Kreis","type":"Landkreis"},"federalState":{"key":"08","name":"Baden-Württemberg"}},{"name":"Beyerberger Str.","postalCode":"91596","locality":"Burk","municipality":{"key":"09571128","name":"Burk","type":"Kreisangehörige_Gemeinde"},"district":{"key":"09571","name":"Ansbach","type":"Landkreis"},"federalState":{"key":"09","name":"Bayern"}},{"name":"Bienenstockweg","postalCode":"74706","locality":"Osterburken","municipality":{"key":"08225075","name":"Osterburken, Stadt","type":"Stadt"},"district":{"key":"08225","name":"Neckar-Odenwald-Kreis","type":"Landkreis"},"federalState":{"key":"08","name":"Baden-Württemberg"}},{"name":"Bierbergweg","postalCode":"74706","locality":"Osterburken","municipality":{"key":"08225075","name":"Osterburken, Stadt","type":"Stadt"},"district":{"key":"08225","name":"Neckar-Odenwald-Kreis","type":"Landkreis"},"federalState":{"key":"08","name":"Baden-Württemberg"}},{"name":"Birkenhöhe","postalCode":"74706","locality":"Osterburken","municipality":{"key":"08225075","name":"Osterburken, Stadt","type":"Stadt"},"district":{"key":"08225","name":"Neckar-Odenwald-Kreis","type":"Landkreis"},"federalState":{"key":"08","name":"Baden-Württemberg"}},{"name":"Birkenweg","postalCode":"74706","locality":"Osterburken","municipality":{"key":"08225075","name":"Osterburken, Stadt","type":"Stadt"},"district":{"key":"08225","name":"Neckar-Odenwald-Kreis","type":"Landkreis"},"federalState":{"key":"08","name":"Baden-Württemberg"}},{"name":"Birkenweg","postalCode":"97705","locality":"Burkardroth","municipality":{"key":"09672117","name":"Burkardroth, M","type":"Markt"},"district":{"key":"09672","name":"Bad Kissingen","type":"Landkreis"},"federalState":{"key":"09","name":"Bayern"}},{"name":"Bischofswerdaer Str.","postalCode":"01906","locality":"Burkau","municipality":{"key":"14625060","name":"Burkau / Porchow","type":"Kreisangehörige_Gemeinde"},"district":{"key":"14625","name":"Bautzen","type":"Landkreis"},"federalState":{"key":"14","name":"Sachsen"}},{"name":"Blatzweg","postalCode":"74706","locality":"Osterburken","municipality":{"key":"08225075","name":"Osterburken, Stadt","type":"Stadt"},"district":{"key":"08225","name":"Neckar-Odenwald-Kreis","type":"Landkreis"},"federalState":{"key":"08","name":"Baden-Württemberg"}},{"name":"Blumenstr.","postalCode":"74706","locality":"Osterburken","municipality":{"key":"08225075","name":"Osterburken, Stadt","type":"Stadt"},"district":{"key":"08225","name":"Neckar-Odenwald-Kreis","type":"Landkreis"},"federalState":{"key":"08","name":"Baden-Württemberg"}},{"name":"Bocksäcker","postalCode":"97705","locality":"Burkardroth","municipality":{"key":"09672117","name":"Burkardroth, M","type":"Markt"},"district":{"key":"09672","name":"Bad Kissingen","type":"Landkreis"},"federalState":{"key":"09","name":"Bayern"}},{"name":"Bodenweg","postalCode":"74706","locality":"Osterburken","municipality":{"key":"08225075","name":"Osterburken, Stadt","type":"Stadt"},"district":{"key":"08225","name":"Neckar-Odenwald-Kreis","type":"Landkreis"},"federalState":{"key":"08","name":"Baden-Württemberg"}},{"name":"Bofsheimer Str.","postalCode":"74706","locality":"Osterburken","municipality":{"key":"08225075","name":"Osterburken, Stadt","type":"Stadt"},"district":{"key":"08225","name":"Neckar-Odenwald-Kreis","type":"Landkreis"},"federalState":{"key":"08","name":"Baden-Württemberg"}},{"name":"Böhmerwälder Weg","postalCode":"74706","locality":"Osterburken","municipality":{"key":"08225075","name":"Osterburken, Stadt","type":"Stadt"},"district":{"key":"08225","name":"Neckar-Odenwald-Kreis","type":"Landkreis"},"federalState":{"key":"08","name":"Baden-Württemberg"}},{"name":"Boschstr.","postalCode":"74706","locality":"Osterburken","municipality":{"key":"08225075","name":"Osterburken, Stadt","type":"Stadt"},"district":{"key":"08225","name":"Neckar-Odenwald-Kreis","type":"Landkreis"},"federalState":{"key":"08","name":"Baden-Württemberg"}},{"name":"Brahmsstr.","postalCode":"74706","locality":"Osterburken","municipality":{"key":"08225075","name":"Osterburken, Stadt","type":"Stadt"},"district":{"key":"08225","name":"Neckar-Odenwald-Kreis","type":"Landkreis"},"federalState":{"key":"08","name":"Baden-Württemberg"}},{"name":"Breiter Weg","postalCode":"74706","locality":"Osterburken","municipality":{"key":"08225075","name":"Osterburken, Stadt","type":"Stadt"},"district":{"key":"08225","name":"Neckar-Odenwald-Kreis","type":"Landkreis"},"federalState":{"key":"08","name":"Baden-Württemberg"}},{"name":"Breitfeldweg","postalCode":"74706","locality":"Osterburken","municipality":{"key":"08225075","name":"Osterburken, Stadt","type":"Stadt"},"district":{"key":"08225","name":"Neckar-Odenwald-Kreis","type":"Landkreis"},"federalState":{"key":"08","name":"Baden-Württemberg"}},{"name":"Brückenstr.","postalCode":"74706","locality":"Osterburken","municipality":{"key":"08225075","name":"Osterburken, Stadt","type":"Stadt"},"district":{"key":"08225","name":"Neckar-Odenwald-Kreis","type":"Landkreis"},"federalState":{"key":"08","name":"Baden-Württemberg"}},{"name":"Brückenstr.","postalCode":"97705","locality":"Burkardroth","municipality":{"key":"09672117","name":"Burkardroth, M","type":"Markt"},"district":{"key":"09672","name":"Bad Kissingen","type":"Landkreis"},"federalState":{"key":"09","name":"Bayern"}},{"name":"Brucker Dorfstr.","postalCode":"91596","locality":"Burk","municipality":{"key":"09571128","name":"Burk","type":"Kreisangehörige_Gemeinde"},"district":{"key":"09571","name":"Ansbach","type":"Landkreis"},"federalState":{"key":"09","name":"Bayern"}},{"name":"Brunnengasse","postalCode":"74706","locality":"Osterburken","municipality":{"key":"08225075","name":"Osterburken, Stadt","type":"Stadt"},"district":{"key":"08225","name":"Neckar-Odenwald-Kreis","type":"Landkreis"},"federalState":{"key":"08","name":"Baden-Württemberg"}},{"name":"Brunnengasse","postalCode":"97705","locality":"Burkardroth","municipality":{"key":"09672117","name":"Burkardroth, M","type":"Markt"},"district":{"key":"09672","name":"Bad Kissingen","type":"Landkreis"},"federalState":{"key":"09","name":"Bayern"}},{"name":"Brunnengraben","postalCode":"97705","locality":"Burkardroth","municipality":{"key":"09672117","name":"Burkardroth, M","type":"Markt"},"district":{"key":"09672","name":"Bad Kissingen","type":"Landkreis"},"federalState":{"key":"09","name":"Bayern"}},{"name":"Brunnenpfad","postalCode":"97705","locality":"Burkardroth","municipality":{"key":"09672117","name":"Burkardroth, M","type":"Markt"},"district":{"key":"09672","name":"Bad Kissingen","type":"Landkreis"},"federalState":{"key":"09","name":"Bayern"}},{"name":"Buchener Weg","postalCode":"74706","locality":"Osterburken","municipality":{"key":"08225075","name":"Osterburken, Stadt","type":"Stadt"},"district":{"key":"08225","name":"Neckar-Odenwald-Kreis","type":"Landkreis"},"federalState":{"key":"08","name":"Baden-Württemberg"}},{"name":"Buchhäldeweg","postalCode":"74706","locality":"Osterburken","municipality":{"key":"08225075","name":"Osterburken, Stadt","type":"Stadt"},"district":{"key":"08225","name":"Neckar-Odenwald-Kreis","type":"Landkreis"},"federalState":{"key":"08","name":"Baden-Württemberg"}},{"name":"Bürgermeister-Werle-Str.","postalCode":"74706","locality":"Osterburken","municipality":{"key":"08225075","name":"Osterburken, Stadt","type":"Stadt"},"district":{"key":"08225","name":"Neckar-Odenwald-Kreis","type":"Landkreis"},"federalState":{"key":"08","name":"Baden-Württemberg"}},{"name":"Bürgerpark „Alter Friedhof“","postalCode":"74706","locality":"Osterburken","municipality":{"key":"08225075","name":"Osterburken, Stadt","type":"Stadt"},"district":{"key":"08225","name":"Neckar-Odenwald-Kreis","type":"Landkreis"},"federalState":{"key":"08","name":"Baden-Württemberg"}},{"name":"Burkhardtsdorfer Str.","postalCode":"09235","locality":"Burkhardtsdorf","municipality":{"key":"14521120","name":"Burkhardtsdorf","type":"Kreisangehörige_Gemeinde"},"district":{"key":"14521","name":"Erzgebirgskreis","type":"Landkreis"},"federalState":{"key":"14","name":"Sachsen"}},{"name":"Büttnerstr.","postalCode":"97705","locality":"Burkardroth","municipality":{"key":"09672117","name":"Burkardroth, M","type":"Markt"},"district":{"key":"09672","name":"Bad Kissingen","type":"Landkreis"},"federalState":{"key":"09","name":"Bayern"}},{"name":"Canzlerstr.","postalCode":"09235","locality":"Burkhardtsdorf","municipality":{"key":"14521120","name":"Burkhardtsdorf","type":"Kreisangehörige_Gemeinde"},"district":{"key":"14521","name":"Erzgebirgskreis","type":"Landkreis"},"federalState":{"key":"14","name":"Sachsen"}},{"name":"Carl-Orff-Str.","postalCode":"74706","locality":"Osterburken","municipality":{"key":"08225075","name":"Osterburken, Stadt","type":"Stadt"},"district":{"key":"08225","name":"Neckar-Odenwald-Kreis","type":"Landkreis"},"federalState":{"key":"08","name":"Baden-Württemberg"}},{"name":"Chemnitzer Str.","postalCode":"09235","locality":"Burkhardtsdorf","municipality":{"key":"14521120","name":"Burkhardtsdorf","type":"Kreisangehörige_Gemeinde"},"district":{"key":"14521","name":"Erzgebirgskreis","type":"Landkreis"},"federalState":{"key":"14","name":"Sachsen"}},{"name":"Cristalstr.","postalCode":"97705","locality":"Burkardroth","municipality":{"key":"09672117","name":"Burkardroth, M","type":"Markt"},"district":{"key":"09672","name":"Bad Kissingen","type":"Landkreis"},"federalState":{"key":"09","name":"Bayern"}},{"name":"Dachsberg","postalCode":"09235","locality":"Burkhardtsdorf","municipality":{"key":"14521120","name":"Burkhardtsdorf","type":"Kreisangehörige_Gemeinde"},"district":{"key":"14521","name":"Erzgebirgskreis","type":"Landkreis"},"federalState":{"key":"14","name":"Sachsen"}},{"name":"Daimlerstr.","postalCode":"74706","locality":"Osterburken","municipality":{"key":"08225075","name":"Osterburken, Stadt","type":"Stadt"},"district":{"key":"08225","name":"Neckar-Odenwald-Kreis","type":"Landkreis"},"federalState":{"key":"08","name":"Baden-Württemberg"}},{"name":"Damaschkestr.","postalCode":"09235","locality":"Burkhardtsdorf","municipality":{"key":"14521120","name":"Burkhardtsdorf","type":"Kreisangehörige_Gemeinde"},"district":{"key":"14521","name":"Erzgebirgskreis","type":"Landkreis"},"federalState":{"key":"14","name":"Sachsen"}},{"name":"Dinkelsbühler Str.","postalCode":"91596","locality":"Burk","municipality":{"key":"09571128","name":"Burk","type":"Kreisangehörige_Gemeinde"},"district":{"key":"09571","name":"Ansbach","type":"Landkreis"},"federalState":{"key":"09","name":"Bayern"}},{"name":"Dittersdorf-Eibenberger Weg","postalCode":"09235","locality":"Burkhardtsdorf","municipality":{"key":"14521120","name":"Burkhardtsdorf","type":"Kreisangehörige_Gemeinde"},"district":{"key":"14521","name":"Erzgebirgskreis","type":"Landkreis"},"federalState":{"key":"14","name":"Sachsen"}},{"name":"Dittersdorfer Weg","postalCode":"09235","locality":"Burkhardtsdorf","municipality":{"key":"14521120","name":"Burkhardtsdorf","type":"Kreisangehörige_Gemeinde"},"district":{"key":"14521","name":"Erzgebirgskreis","type":"Landkreis"},"federalState":{"key":"14","name":"Sachsen"}},{"name":"Doktor-Rudolf-Link-Str.","postalCode":"74706","locality":"Osterburken","municipality":{"key":"08225075","name":"Osterburken, Stadt","type":"Stadt"},"district":{"key":"08225","name":"Neckar-Odenwald-Kreis","type":"Landkreis"},"federalState":{"key":"08","name":"Baden-Württemberg"}},{"name":"Dorfstr.","postalCode":"01906","locality":"Burkau","municipality":{"key":"14625060","name":"Burkau / Porchow","type":"Kreisangehörige_Gemeinde"},"district":{"key":"14625","name":"Bautzen","type":"Landkreis"},"federalState":{"key":"14","name":"Sachsen"}},{"name":"Dorfweg","postalCode":"09235","locality":"Burkhardtsdorf","municipality":{"key":"14521120","name":"Burkhardtsdorf","type":"Kreisangehörige_Gemeinde"},"district":{"key":"14521","name":"Erzgebirgskreis","type":"Landkreis"},"federalState":{"key":"14","name":"Sachsen"}},{"name":"Eberstadter Str.","postalCode":"74706","locality":"Osterburken","municipality":{"key":"08225075","name":"Osterburken, Stadt","type":"Stadt"},"district":{"key":"08225","name":"Neckar-Odenwald-Kreis","type":"Landkreis"},"federalState":{"key":"08","name":"Baden-Württemberg"}},{"name":"Eckegasse","postalCode":"97705","locality":"Burkardroth","municipality":{"key":"09672117","name":"Burkardroth, M","type":"Markt"},"district":{"key":"09672","name":"Bad Kissingen","type":"Landkreis"},"federalState":{"key":"09","name":"Bayern"}},{"name":"Eckenbergstr.","postalCode":"74706","locality":"Osterburken","municipality":{"key":"08225075","name":"Osterburken, Stadt","type":"Stadt"},"district":{"key":"08225","name":"Neckar-Odenwald-Kreis","type":"Landkreis"},"federalState":{"key":"08","name":"Baden-Württemberg"}},{"name":"Eckenbergweg","postalCode":"74706","locality":"Osterburken","municipality":{"key":"08225075","name":"Osterburken, Stadt","type":"Stadt"},"district":{"key":"08225","name":"Neckar-Odenwald-Kreis","type":"Landkreis"},"federalState":{"key":"08","name":"Baden-Württemberg"}},{"name":"Eckenpfad","postalCode":"97705","locality":"Burkardroth","municipality":{"key":"09672117","name":"Burkardroth, M","type":"Markt"},"district":{"key":"09672","name":"Bad Kissingen","type":"Landkreis"},"federalState":{"key":"09","name":"Bayern"}},{"name":"Ecksbergweg","postalCode":"74706","locality":"Osterburken","municipality":{"key":"08225075","name":"Osterburken, Stadt","type":"Stadt"},"district":{"key":"08225","name":"Neckar-Odenwald-Kreis","type":"Landkreis"},"federalState":{"key":"08","name":"Baden-Württemberg"}},{"name":"Ehrenberggasse","postalCode":"97705","locality":"Burkardroth","municipality":{"key":"09672117","name":"Burkardroth, M","type":"Markt"},"district":{"key":"09672","name":"Bad Kissingen","type":"Landkreis"},"federalState":{"key":"09","name":"Bayern"}},{"name":"Eibenberger Str.","postalCode":"09235","locality":"Burkhardtsdorf","municipality":{"key":"14521120","name":"Burkhardtsdorf","type":"Kreisangehörige_Gemeinde"},"district":{"key":"14521","name":"Erzgebirgskreis","type":"Landkreis"},"federalState":{"key":"14","name":"Sachsen"}},{"name":"Eichenweg","postalCode":"74706","locality":"Osterburken","municipality":{"key":"08225075","name":"Osterburken, Stadt","type":"Stadt"},"district":{"key":"08225","name":"Neckar-Odenwald-Kreis","type":"Landkreis"},"federalState":{"key":"08","name":"Baden-Württemberg"}},{"name":"Eigene Scholle","postalCode":"09235","locality":"Burkhardtsdorf","municipality":{"key":"14521120","name":"Burkhardtsdorf","type":"Kreisangehörige_Gemeinde"},"district":{"key":"14521","name":"Erzgebirgskreis","type":"Landkreis"},"federalState":{"key":"14","name":"Sachsen"}},{"name":"Einsiedelstr.","postalCode":"97705","locality":"Burkardroth","municipality":{"key":"09672117","name":"Burkardroth, M","type":"Markt"},"district":{"key":"09672","name":"Bad Kissingen","type":"Landkreis"},"federalState":{"key":"09","name":"Bayern"}},{"name":"Einsiedler Str.","postalCode":"09235","locality":"Burkhardtsdorf","municipality":{"key":"14521120","name":"Burkhardtsdorf","type":"Kreisangehörige_Gemeinde"},"district":{"key":"14521","name":"Erzgebirgskreis","type":"Landkreis"},"federalState":{"key":"14","name":"Sachsen"}},{"name":"Eisenstr.","postalCode":"09235","locality":"Burkhardtsdorf","municipality":{"key":"14521120","name":"Burkhardtsdorf","type":"Kreisangehörige_Gemeinde"},"district":{"key":"14521","name":"Erzgebirgskreis","type":"Landkreis"},"federalState":{"key":"14","name":"Sachsen"}},{"name":"Eisenweg","postalCode":"09235","locality":"Burkhardtsdorf","municipality":{"key":"14521120","name":"Burkhardtsdorf","type":"Kreisangehörige_Gemeinde"},"district":{"key":"14521","name":"Erzgebirgskreis","type":"Landkreis"},"federalState":{"key":"14","name":"Sachsen"}},{"name":"Eisstr.","postalCode":"74706","locality":"Osterburken","municipality":{"key":"08225075","name":"Osterburken, Stadt","type":"Stadt"},"district":{"key":"08225","name":"Neckar-Odenwald-Kreis","type":"Landkreis"},"federalState":{"key":"08","name":"Baden-Württemberg"}},{"name":"Ellerweg","postalCode":"97705","locality":"Burkardroth","municipality":{"key":"09672117","name":"Burkardroth, M","type":"Markt"},"district":{"key":"09672","name":"Bad Kissingen","type":"Landkreis"},"federalState":{"key":"09","name":"Bayern"}},{"name":"Enser Str.","postalCode":"97705","locality":"Burkardroth","municipality":{"key":"09672117","name":"Burkardroth, M","type":"Markt"},"district":{"key":"09672","name":"Bad Kissingen","type":"Landkreis"},"federalState":{"key":"09","name":"Bayern"}},{"name":"Erdfallweg","postalCode":"74706","locality":"Osterburken","municipality":{"key":"08225075","name":"Osterburken, Stadt","type":"Stadt"},"district":{"key":"08225","name":"Neckar-Odenwald-Kreis","type":"Landkreis"},"federalState":{"key":"08","name":"Baden-Württemberg"}},{"name":"Erlohweg","postalCode":"74706","locality":"Osterburken","municipality":{"key":"08225075","name":"Osterburken, Stadt","type":"Stadt"},"district":{"key":"08225","name":"Neckar-Odenwald-Kreis","type":"Landkreis"},"federalState":{"key":"08","name":"Baden-Württemberg"}},{"name":"Ernst-Thälmann-Str.","postalCode":"09235","locality":"Burkhardtsdorf","municipality":{"key":"14521120","name":"Burkhardtsdorf","type":"Kreisangehörige_Gemeinde"},"district":{"key":"14521","name":"Erzgebirgskreis","type":"Landkreis"},"federalState":{"key":"14","name":"Sachsen"}},{"name":"Feldweg","postalCode":"01906","locality":"Burkau","municipality":{"key":"14625060","name":"Burkau / Porchow","type":"Kreisangehörige_Gemeinde"},"district":{"key":"14625","name":"Bautzen","type":"Landkreis"},"federalState":{"key":"14","name":"Sachsen"}},{"name":"Festenburgstr.","postalCode":"91596","locality":"Burk","municipality":{"key":"09571128","name":"Burk","type":"Kreisangehörige_Gemeinde"},"district":{"key":"09571","name":"Ansbach","type":"Landkreis"},"federalState":{"key":"09","name":"Bayern"}},{"name":"Feuerbergstr.","postalCode":"97705","locality":"Burkardroth","municipality":{"key":"09672117","name":"Burkardroth, M","type":"Markt"},"district":{"key":"09672","name":"Bad Kissingen","type":"Landkreis"},"federalState":{"key":"09","name":"Bayern"}},{"name":"Fichtenwaldweg","postalCode":"74706","locality":"Osterburken","municipality":{"key":"08225075","name":"Osterburken, Stadt","type":"Stadt"},"district":{"key":"08225","name":"Neckar-Odenwald-Kreis","type":"Landkreis"},"federalState":{"key":"08","name":"Baden-Württemberg"}},{"name":"Finkenweg","postalCode":"09235","locality":"Burkhardtsdorf","municipality":{"key":"14521120","name":"Burkhardtsdorf","type":"Kreisangehörige_Gemeinde"},"district":{"key":"14521","name":"Erzgebirgskreis","type":"Landkreis"},"federalState":{"key":"14","name":"Sachsen"}},{"name":"Finsterhäldeweg","postalCode":"74706","locality":"Osterburken","municipality":{"key":"08225075","name":"Osterburken, Stadt","type":"Stadt"},"district":{"key":"08225","name":"Neckar-Odenwald-Kreis","type":"Landkreis"},"federalState":{"key":"08","name":"Baden-Württemberg"}},{"name":"Fischstr.","postalCode":"97705","locality":"Burkardroth","municipality":{"key":"09672117","name":"Burkardroth, M","type":"Markt"},"district":{"key":"09672","name":"Bad Kissingen","type":"Landkreis"},"federalState":{"key":"09","name":"Bayern"}},{"name":"Flinsweg","postalCode":"91596","locality":"Burk","municipality":{"key":"09571128","name":"Burk","type":"Kreisangehörige_Gemeinde"},"district":{"key":"09571","name":"Ansbach","type":"Landkreis"},"federalState":{"key":"09","name":"Bayern"}},{"name":"Forsthausstr.","postalCode":"97705","locality":"Burkardroth","municipality":{"key":"09672117","name":"Burkardroth, M","type":"Markt"},"district":{"key":"09672","name":"Bad Kissingen","type":"Landkreis"},"federalState":{"key":"09","name":"Bayern"}},{"name":"Forstmeisterstr.","postalCode":"97705","locality":"Burkardroth","municipality":{"key":"09672117","name":"Burkardroth, M","type":"Markt"},"district":{"key":"09672","name":"Bad Kissingen","type":"Landkreis"},"federalState":{"key":"09","name":"Bayern"}},{"name":"Forststr.","postalCode":"97705","locality":"Burkardroth","municipality":{"key":"09672117","name":"Burkardroth, M","type":"Markt"},"district":{"key":"09672","name":"Bad Kissingen","type":"Landkreis"},"federalState":{"key":"09","name":"Bayern"}},{"name":"Forstweg","postalCode":"91596","locality":"Burk","municipality":{"key":"09571128","name":"Burk","type":"Kreisangehörige_Gemeinde"},"district":{"key":"09571","name":"Ansbach","type":"Landkreis"},"federalState":{"key":"09","name":"Bayern"}},{"name":"Frankenstr.","postalCode":"74706","locality":"Osterburken","municipality":{"key":"08225075","name":"Osterburken, Stadt","type":"Stadt"},"district":{"key":"08225","name":"Neckar-Odenwald-Kreis","type":"Landkreis"},"federalState":{"key":"08","name":"Baden-Württemberg"}},{"name":"Frankenstr.","postalCode":"91596","locality":"Burk","municipality":{"key":"09571128","name":"Burk","type":"Kreisangehörige_Gemeinde"},"district":{"key":"09571","name":"Ansbach","type":"Landkreis"},"federalState":{"key":"09","name":"Bayern"}},{"name":"Frankenstr.","postalCode":"97705","locality":"Burkardroth","municipality":{"key":"09672117","name":"Burkardroth, M","type":"Markt"},"district":{"key":"09672","name":"Bad Kissingen","type":"Landkreis"},"federalState":{"key":"09","name":"Bayern"}},{"name":"Freier Weg","postalCode":"97705","locality":"Burkardroth","municipality":{"key":"09672117","name":"Burkardroth, M","type":"Markt"},"district":{"key":"09672","name":"Bad Kissingen","type":"Landkreis"},"federalState":{"key":"09","name":"Bayern"}},{"name":"Friedenstr.","postalCode":"97705","locality":"Burkardroth","municipality":{"key":"09672117","name":"Burkardroth, M","type":"Markt"},"district":{"key":"09672","name":"Bad Kissingen","type":"Landkreis"},"federalState":{"key":"09","name":"Bayern"}},{"name":"Friedhofpark","postalCode":"09235","locality":"Burkhardtsdorf","municipality":{"key":"14521120","name":"Burkhardtsdorf","type":"Kreisangehörige_Gemeinde"},"district":{"key":"14521","name":"Erzgebirgskreis","type":"Landkreis"},"federalState":{"key":"14","name":"Sachsen"}},{"name":"Friedhofstr.","postalCode":"74706","locality":"Osterburken","municipality":{"key":"08225075","name":"Osterburken, Stadt","type":"Stadt"},"district":{"key":"08225","name":"Neckar-Odenwald-Kreis","type":"Landkreis"},"federalState":{"key":"08","name":"Baden-Württemberg"}},{"name":"Friedrich-Bürklein-Str.","postalCode":"91596","locality":"Burk","municipality":{"key":"09571128","name":"Burk","type":"Kreisangehörige_Gemeinde"},"district":{"key":"09571","name":"Ansbach","type":"Landkreis"},"federalState":{"key":"09","name":"Bayern"}},{"name":"Friedrichstr.","postalCode":"74706","locality":"Osterburken","municipality":{"key":"08225075","name":"Osterburken, Stadt","type":"Stadt"},"district":{"key":"08225","name":"Neckar-Odenwald-Kreis","type":"Landkreis"},"federalState":{"key":"08","name":"Baden-Württemberg"}},{"name":"Fuchslochweg","postalCode":"74706","locality":"Osterburken","municipality":{"key":"08225075","name":"Osterburken, Stadt","type":"Stadt"},"district":{"key":"08225","name":"Neckar-Odenwald-Kreis","type":"Landkreis"},"federalState":{"key":"08","name":"Baden-Württemberg"}},{"name":"Galgensteige","postalCode":"74706","locality":"Osterburken","municipality":{"key":"08225075","name":"Osterburken, Stadt","type":"Stadt"},"district":{"key":"08225","name":"Neckar-Odenwald-Kreis","type":"Landkreis"},"federalState":{"key":"08","name":"Baden-Württemberg"}},{"name":"Gangolfstr.","postalCode":"74706","locality":"Osterburken","municipality":{"key":"08225075","name":"Osterburken, Stadt","type":"Stadt"},"district":{"key":"08225","name":"Neckar-Odenwald-Kreis","type":"Landkreis"},"federalState":{"key":"08","name":"Baden-Württemberg"}},{"name":"Gangolfsweg","postalCode":"74706","locality":"Osterburken","municipality":{"key":"08225075","name":"Osterburken, Stadt","type":"Stadt"},"district":{"key":"08225","name":"Neckar-Odenwald-Kreis","type":"Landkreis"},"federalState":{"key":"08","name":"Baden-Württemberg"}},{"name":"Gartenstr.","postalCode":"01906","locality":"Burkau","municipality":{"key":"14625060","name":"Burkau / Porchow","type":"Kreisangehörige_Gemeinde"},"district":{"key":"14625","name":"Bautzen","type":"Landkreis"},"federalState":{"key":"14","name":"Sachsen"}},{"name":"Gartenstr.","postalCode":"09235","locality":"Burkhardtsdorf","municipality":{"key":"14521120","name":"Burkhardtsdorf","type":"Kreisangehörige_Gemeinde"},"district":{"key":"14521","name":"Erzgebirgskreis","type":"Landkreis"},"federalState":{"key":"14","name":"Sachsen"}},{"name":"Gartenstr.","postalCode":"91596","locality":"Burk","municipality":{"key":"09571128","name":"Burk","type":"Kreisangehörige_Gemeinde"},"district":{"key":"09571","name":"Ansbach","type":"Landkreis"},"federalState":{"key":"09","name":"Bayern"}},{"name":"Gartenstr.","postalCode":"97705","locality":"Burkardroth","municipality":{"key":"09672117","name":"Burkardroth, M","type":"Markt"},"district":{"key":"09672","name":"Bad Kissingen","type":"Landkreis"},"federalState":{"key":"09","name":"Bayern"}},{"name":"Gartenweg","postalCode":"09235","locality":"Burkhardtsdorf","municipality":{"key":"14521120","name":"Burkhardtsdorf","type":"Kreisangehörige_Gemeinde"},"district":{"key":"14521","name":"Erzgebirgskreis","type":"Landkreis"},"federalState":{"key":"14","name":"Sachsen"}},{"name":"Gartenweg","postalCode":"74706","locality":"Osterburken","municipality":{"key":"08225075","name":"Osterburken, Stadt","type":"Stadt"},"district":{"key":"08225","name":"Neckar-Odenwald-Kreis","type":"Landkreis"},"federalState":{"key":"08","name":"Baden-Württemberg"}},{"name":"Gärtnereiweg","postalCode":"01906","locality":"Burkau","municipality":{"key":"14625060","name":"Burkau / Porchow","type":"Kreisangehörige_Gemeinde"},"district":{"key":"14625","name":"Bautzen","type":"Landkreis"},"federalState":{"key":"14","name":"Sachsen"}},{"name":"Gebertstr.","postalCode":"74706","locality":"Osterburken","municipality":{"key":"08225075","name":"Osterburken, Stadt","type":"Stadt"},"district":{"key":"08225","name":"Neckar-Odenwald-Kreis","type":"Landkreis"},"federalState":{"key":"08","name":"Baden-Württemberg"}},{"name":"Gebrannter Rainweg","postalCode":"74706","locality":"Osterburken","municipality":{"key":"08225075","name":"Osterburken, Stadt","type":"Stadt"},"district":{"key":"08225","name":"Neckar-Odenwald-Kreis","type":"Landkreis"},"federalState":{"key":"08","name":"Baden-Württemberg"}},{"name":"Geisbergstr.","postalCode":"74706","locality":"Osterburken","municipality":{"key":"08225075","name":"Osterburken, Stadt","type":"Stadt"},"district":{"key":"08225","name":"Neckar-Odenwald-Kreis","type":"Landkreis"},"federalState":{"key":"08","name":"Baden-Württemberg"}},{"name":"Gelenauer Str.","postalCode":"09235","locality":"Burkhardtsdorf","municipality":{"key":"14521120","name":"Burkhardtsdorf","type":"Kreisangehörige_Gemeinde"},"district":{"key":"14521","name":"Erzgebirgskreis","type":"Landkreis"},"federalState":{"key":"14","name":"Sachsen"}},{"name":"Giesweg","postalCode":"74706","locality":"Osterburken","municipality":{"key":"08225075","name":"Osterburken, Stadt","type":"Stadt"},"district":{"key":"08225","name":"Neckar-Odenwald-Kreis","type":"Landkreis"},"federalState":{"key":"08","name":"Baden-Württemberg"}},{"name":"Goethestr.","postalCode":"09235","locality":"Burkhardtsdorf","municipality":{"key":"14521120","name":"Burkhardtsdorf","type":"Kreisangehörige_Gemeinde"},"district":{"key":"14521","name":"Erzgebirgskreis","type":"Landkreis"},"federalState":{"key":"14","name":"Sachsen"}},{"name":"Grabenweg","postalCode":"97705","locality":"Burkardroth","municipality":{"key":"09672117","name":"Burkardroth, M","type":"Markt"},"district":{"key":"09672","name":"Bad Kissingen","type":"Landkreis"},"federalState":{"key":"09","name":"Bayern"}},{"name":"Gräfinsteig","postalCode":"09235","locality":"Burkhardtsdorf","municipality":{"key":"14521120","name":"Burkhardtsdorf","type":"Kreisangehörige_Gemeinde"},"district":{"key":"14521","name":"Erzgebirgskreis","type":"Landkreis"},"federalState":{"key":"14","name":"Sachsen"}},{"name":"Grenzwallweg","postalCode":"74706","locality":"Osterburken","municipality":{"key":"08225075","name":"Osterburken, Stadt","type":"Stadt"},"district":{"key":"08225","name":"Neckar-Odenwald-Kreis","type":"Landkreis"},"federalState":{"key":"08","name":"Baden-Württemberg"}},{"name":"Grenzweg","postalCode":"74706","locality":"Osterburken","municipality":{"key":"08225075","name":"Osterburken, Stadt","type":"Stadt"},"district":{"key":"08225","name":"Neckar-Odenwald-Kreis","type":"Landkreis"},"federalState":{"key":"08","name":"Baden-Württemberg"}},{"name":"Großohrenbronner Str.","postalCode":"91596","locality":"Burk","municipality":{"key":"09571128","name":"Burk","type":"Kreisangehörige_Gemeinde"},"district":{"key":"09571","name":"Ansbach","type":"Landkreis"},"federalState":{"key":"09","name":"Bayern"}},{"name":"Grundweg","postalCode":"74706","locality":"Osterburken","municipality":{"key":"08225075","name":"Osterburken, Stadt","type":"Stadt"},"district":{"key":"08225","name":"Neckar-Odenwald-Kreis","type":"Landkreis"},"federalState":{"key":"08","name":"Baden-Württemberg"}},{"name":"Grüner Weg","postalCode":"09235","locality":"Burkhardtsdorf","municipality":{"key":"14521120","name":"Burkhardtsdorf","type":"Kreisangehörige_Gemeinde"},"district":{"key":"14521","name":"Erzgebirgskreis","type":"Landkreis"},"federalState":{"key":"14","name":"Sachsen"}},{"name":"Güterhallenstr.","postalCode":"74706","locality":"Osterburken","municipality":{"key":"08225075","name":"Osterburken, Stadt","type":"Stadt"},"district":{"key":"08225","name":"Neckar-Odenwald-Kreis","type":"Landkreis"},"federalState":{"key":"08","name":"Baden-Württemberg"}},{"name":"Häfnergasse","postalCode":"97705","locality":"Burkardroth","municipality":{"key":"09672117","name":"Burkardroth, M","type":"Markt"},"district":{"key":"09672","name":"Bad Kissingen","type":"Landkreis"},"federalState":{"key":"09","name":"Bayern"}},{"name":"Hagerstr.","postalCode":"74706","locality":"Osterburken","municipality":{"key":"08225075","name":"Osterburken, Stadt","type":"Stadt"},"district":{"key":"08225","name":"Neckar-Odenwald-Kreis","type":"Landkreis"},"federalState":{"key":"08","name":"Baden-Württemberg"}},{"name":"Hahnbergweg","postalCode":"74706","locality":"Osterburken","municipality":{"key":"08225075","name":"Osterburken, Stadt","type":"Stadt"},"district":{"key":"08225","name":"Neckar-Odenwald-Kreis","type":"Landkreis"},"federalState":{"key":"08","name":"Baden-Württemberg"}},{"name":"Handbeilweg","postalCode":"74706","locality":"Osterburken","municipality":{"key":"08225075","name":"Osterburken, Stadt","type":"Stadt"},"district":{"key":"08225","name":"Neckar-Odenwald-Kreis","type":"Landkreis"},"federalState":{"key":"08","name":"Baden-Württemberg"}},{"name":"Hangweg","postalCode":"74706","locality":"Osterburken","municipality":{"key":"08225075","name":"Osterburken, Stadt","type":"Stadt"},"district":{"key":"08225","name":"Neckar-Odenwald-Kreis","type":"Landkreis"},"federalState":{"key":"08","name":"Baden-Württemberg"}},{"name":"Hansselmannstr.","postalCode":"74706","locality":"Osterburken","municipality":{"key":"08225075","name":"Osterburken, Stadt","type":"Stadt"},"district":{"key":"08225","name":"Neckar-Odenwald-Kreis","type":"Landkreis"},"federalState":{"key":"08","name":"Baden-Württemberg"}},{"name":"Hans-Ulrich-Breymann-Str.","postalCode":"74706","locality":"Osterburken","municipality":{"key":"08225075","name":"Osterburken, Stadt","type":"Stadt"},"district":{"key":"08225","name":"Neckar-Odenwald-Kreis","type":"Landkreis"},"federalState":{"key":"08","name":"Baden-Württemberg"}},{"name":"Haugstr.","postalCode":"74706","locality":"Osterburken","municipality":{"key":"08225075","name":"Osterburken, Stadt","type":"Stadt"},"district":{"key":"08225","name":"Neckar-Odenwald-Kreis","type":"Landkreis"},"federalState":{"key":"08","name":"Baden-Württemberg"}},{"name":"Hauptstr.","postalCode":"01906","locality":"Burkau","municipality":{"key":"14625060","name":"Burkau / Porchow","type":"Kreisangehörige_Gemeinde"},"district":{"key":"14625","name":"Bautzen","type":"Landkreis"},"federalState":{"key":"14","name":"Sachsen"}},{"name":"Hauptstr.","postalCode":"09235","locality":"Burkhardtsdorf","municipality":{"key":"14521120","name":"Burkhardtsdorf","type":"Kreisangehörige_Gemeinde"},"district":{"key":"14521","name":"Erzgebirgskreis","type":"Landkreis"},"federalState":{"key":"14","name":"Sachsen"}},{"name":"Hauptstr.","postalCode":"74706","locality":"Osterburken","municipality":{"key":"08225075","name":"Osterburken, Stadt","type":"Stadt"},"district":{"key":"08225","name":"Neckar-Odenwald-Kreis","type":"Landkreis"},"federalState":{"key":"08","name":"Baden-Württemberg"}},{"name":"Hausdorfer Str.","postalCode":"74706","locality":"Osterburken","municipality":{"key":"08225075","name":"Osterburken, Stadt","type":"Stadt"},"district":{"key":"08225","name":"Neckar-Odenwald-Kreis","type":"Landkreis"},"federalState":{"key":"08","name":"Baden-Württemberg"}},{"name":"Haydnweg","postalCode":"74706","locality":"Osterburken","municipality":{"key":"08225075","name":"Osterburken, Stadt","type":"Stadt"},"district":{"key":"08225","name":"Neckar-Odenwald-Kreis","type":"Landkreis"},"federalState":{"key":"08","name":"Baden-Württemberg"}},{"name":"Heckenstr.","postalCode":"74706","locality":"Osterburken","municipality":{"key":"08225075","name":"Osterburken, Stadt","type":"Stadt"},"district":{"key":"08225","name":"Neckar-Odenwald-Kreis","type":"Landkreis"},"federalState":{"key":"08","name":"Baden-Württemberg"}},{"name":"Hedwigstr.","postalCode":"74706","locality":"Osterburken","municipality":{"key":"08225075","name":"Osterburken, Stadt","type":"Stadt"},"district":{"key":"08225","name":"Neckar-Odenwald-Kreis","type":"Landkreis"},"federalState":{"key":"08","name":"Baden-Württemberg"}},{"name":"Hegenichweg","postalCode":"74706","locality":"Osterburken","municipality":{"key":"08225075","name":"Osterburken, Stadt","type":"Stadt"},"district":{"key":"08225","name":"Neckar-Odenwald-Kreis","type":"Landkreis"},"federalState":{"key":"08","name":"Baden-Württemberg"}},{"name":"Heimgartenstr.","postalCode":"97705","locality":"Burkardroth","municipality":{"key":"09672117","name":"Burkardroth, M","type":"Markt"},"district":{"key":"09672","name":"Bad Kissingen","type":"Landkreis"},"federalState":{"key":"09","name":"Bayern"}},{"name":"Heißenweg","postalCode":"97705","locality":"Burkardroth","municipality":{"key":"09672117","name":"Burkardroth, M","type":"Markt"},"district":{"key":"09672","name":"Bad Kissingen","type":"Landkreis"},"federalState":{"key":"09","name":"Bayern"}},{"name":"Hemsbacher Str.","postalCode":"74706","locality":"Osterburken","municipality":{"key":"08225075","name":"Osterburken, Stadt","type":"Stadt"},"district":{"key":"08225","name":"Neckar-Odenwald-Kreis","type":"Landkreis"},"federalState":{"key":"08","name":"Baden-Württemberg"}},{"name":"Hemsbacherweg","postalCode":"74706","locality":"Osterburken","municipality":{"key":"08225075","name":"Osterburken, Stadt","type":"Stadt"},"district":{"key":"08225","name":"Neckar-Odenwald-Kreis","type":"Landkreis"},"federalState":{"key":"08","name":"Baden-Württemberg"}},{"name":"Herrenwiese","postalCode":"74706","locality":"Osterburken","municipality":{"key":"08225075","name":"Osterburken, Stadt","type":"Stadt"},"district":{"key":"08225","name":"Neckar-Odenwald-Kreis","type":"Landkreis"},"federalState":{"key":"08","name":"Baden-Württemberg"}},{"name":"Heuhölzleweg","postalCode":"74706","locality":"Osterburken","municipality":{"key":"08225075","name":"Osterburken, Stadt","type":"Stadt"},"district":{"key":"08225","name":"Neckar-Odenwald-Kreis","type":"Landkreis"},"federalState":{"key":"08","name":"Baden-Württemberg"}},{"name":"Heuweg","postalCode":"74706","locality":"Osterburken","municipality":{"key":"08225075","name":"Osterburken, Stadt","type":"Stadt"},"district":{"key":"08225","name":"Neckar-Odenwald-Kreis","type":"Landkreis"},"federalState":{"key":"08","name":"Baden-Württemberg"}},{"name":"Himmelsleiter","postalCode":"09235","locality":"Burkhardtsdorf","municipality":{"key":"14521120","name":"Burkhardtsdorf","type":"Kreisangehörige_Gemeinde"},"district":{"key":"14521","name":"Erzgebirgskreis","type":"Landkreis"},"federalState":{"key":"14","name":"Sachsen"}},{"name":"Hinterer Weg","postalCode":"74706","locality":"Osterburken","municipality":{"key":"08225075","name":"Osterburken, Stadt","type":"Stadt"},"district":{"key":"08225","name":"Neckar-Odenwald-Kreis","type":"Landkreis"},"federalState":{"key":"08","name":"Baden-Württemberg"}},{"name":"Hinterhofweg Süden","postalCode":"01906","locality":"Burkau","municipality":{"key":"14625060","name":"Burkau / Porchow","type":"Kreisangehörige_Gemeinde"},"district":{"key":"14625","name":"Bautzen","type":"Landkreis"},"federalState":{"key":"14","name":"Sachsen"}},{"name":"Hobergweg","postalCode":"74706","locality":"Osterburken","municipality":{"key":"08225075","name":"Osterburken, Stadt","type":"Stadt"},"district":{"key":"08225","name":"Neckar-Odenwald-Kreis","type":"Landkreis"},"federalState":{"key":"08","name":"Baden-Württemberg"}},{"name":"Hofholzweg","postalCode":"74706","locality":"Osterburken","municipality":{"key":"08225075","name":"Osterburken, Stadt","type":"Stadt"},"district":{"key":"08225","name":"Neckar-Odenwald-Kreis","type":"Landkreis"},"federalState":{"key":"08","name":"Baden-Württemberg"}},{"name":"Hof Seligental","postalCode":"74706","locality":"Osterburken","municipality":{"key":"08225075","name":"Osterburken, Stadt","type":"Stadt"},"district":{"key":"08225","name":"Neckar-Odenwald-Kreis","type":"Landkreis"},"federalState":{"key":"08","name":"Baden-Württemberg"}},{"name":"Hofweg","postalCode":"09235","locality":"Burkhardtsdorf","municipality":{"key":"14521120","name":"Burkhardtsdorf","type":"Kreisangehörige_Gemeinde"},"district":{"key":"14521","name":"Erzgebirgskreis","type":"Landkreis"},"federalState":{"key":"14","name":"Sachsen"}},{"name":"Hofweg","postalCode":"74706","locality":"Osterburken","municipality":{"key":"08225075","name":"Osterburken, Stadt","type":"Stadt"},"district":{"key":"08225","name":"Neckar-Odenwald-Kreis","type":"Landkreis"},"federalState":{"key":"08","name":"Baden-Württemberg"}},{"name":"Hohenackerstr.","postalCode":"97705","locality":"Burkardroth","municipality":{"key":"09672117","name":"Burkardroth, M","type":"Markt"},"district":{"key":"09672","name":"Bad Kissingen","type":"Landkreis"},"federalState":{"key":"09","name":"Bayern"}},{"name":"Höhenweg","postalCode":"97705","locality":"Burkardroth","municipality":{"key":"09672117","name":"Burkardroth, M","type":"Markt"},"district":{"key":"09672","name":"Bad Kissingen","type":"Landkreis"},"federalState":{"key":"09","name":"Bayern"}},{"name":"Hoher Weg","postalCode":"09235","locality":"Burkhardtsdorf","municipality":{"key":"14521120","name":"Burkhardtsdorf","type":"Kreisangehörige_Gemeinde"},"district":{"key":"14521","name":"Erzgebirgskreis","type":"Landkreis"},"federalState":{"key":"14","name":"Sachsen"}},{"name":"Hohe Steige","postalCode":"74706","locality":"Osterburken","municipality":{"key":"08225075","name":"Osterburken, Stadt","type":"Stadt"},"district":{"key":"08225","name":"Neckar-Odenwald-Kreis","type":"Landkreis"},"federalState":{"key":"08","name":"Baden-Württemberg"}},{"name":"Hondschoote Platz","postalCode":"74706","locality":"Osterburken","municipality":{"key":"08225075","name":"Osterburken, Stadt","type":"Stadt"},"district":{"key":"08225","name":"Neckar-Odenwald-Kreis","type":"Landkreis"},"federalState":{"key":"08","name":"Baden-Württemberg"}},{"name":"Hondschoote Str.","postalCode":"74706","locality":"Osterburken","municipality":{"key":"08225075","name":"Osterburken, Stadt","type":"Stadt"},"district":{"key":"08225","name":"Neckar-Odenwald-Kreis","type":"Landkreis"},"federalState":{"key":"08","name":"Baden-Württemberg"}},{"name":"Huhle","postalCode":"09235","locality":"Burkhardtsdorf","municipality":{"key":"14521120","name":"Burkhardtsdorf","type":"Kreisangehörige_Gemeinde"},"district":{"key":"14521","name":"Erzgebirgskreis","type":"Landkreis"},"federalState":{"key":"14","name":"Sachsen"}},{"name":"Hutpfad","postalCode":"74706","locality":"Osterburken","municipality":{"key":"08225075","name":"Osterburken, Stadt","type":"Stadt"},"district":{"key":"08225","name":"Neckar-Odenwald-Kreis","type":"Landkreis"},"federalState":{"key":"08","name":"Baden-Württemberg"}},{"name":"Im Gäßchen","postalCode":"97705","locality":"Burkardroth","municipality":{"key":"09672117","name":"Burkardroth, M","type":"Markt"},"district":{"key":"09672","name":"Bad Kissingen","type":"Landkreis"},"federalState":{"key":"09","name":"Bayern"}},{"name":"Im Krautgarten","postalCode":"97705","locality":"Burkardroth","municipality":{"key":"09672117","name":"Burkardroth, M","type":"Markt"},"district":{"key":"09672","name":"Bad Kissingen","type":"Landkreis"},"federalState":{"key":"09","name":"Bayern"}},{"name":"Im Kreuzig","postalCode":"74706","locality":"Osterburken","municipality":{"key":"08225075","name":"Osterburken, Stadt","type":"Stadt"},"district":{"key":"08225","name":"Neckar-Odenwald-Kreis","type":"Landkreis"},"federalState":{"key":"08","name":"Baden-Württemberg"}},{"name":"Im Lothringer","postalCode":"74706","locality":"Osterburken","municipality":{"key":"08225075","name":"Osterburken, Stadt","type":"Stadt"},"district":{"key":"08225","name":"Neckar-Odenwald-Kreis","type":"Landkreis"},"federalState":{"key":"08","name":"Baden-Württemberg"}},{"name":"Im Oberdorf","postalCode":"97705","locality":"Burkardroth","municipality":{"key":"09672117","name":"Burkardroth, M","type":"Markt"},"district":{"key":"09672","name":"Bad Kissingen","type":"Landkreis"},"federalState":{"key":"09","name":"Bayern"}},{"name":"Im Schulzengrund","postalCode":"97705","locality":"Burkardroth","municipality":{"key":"09672117","name":"Burkardroth, M","type":"Markt"},"district":{"key":"09672","name":"Bad Kissingen","type":"Landkreis"},"federalState":{"key":"09","name":"Bayern"}},{"name":"Im Sonnenhag","postalCode":"97705","locality":"Burkardroth","municipality":{"key":"09672117","name":"Burkardroth, M","type":"Markt"},"district":{"key":"09672","name":"Bad Kissingen","type":"Landkreis"},"federalState":{"key":"09","name":"Bayern"}},{"name":"Im Vogelsang","postalCode":"74706","locality":"Osterburken","municipality":{"key":"08225075","name":"Osterburken, Stadt","type":"Stadt"},"district":{"key":"08225","name":"Neckar-Odenwald-Kreis","type":"Landkreis"},"federalState":{"key":"08","name":"Baden-Württemberg"}},{"name":"In den Gärten","postalCode":"97705","locality":"Burkardroth","municipality":{"key":"09672117","name":"Burkardroth, M","type":"Markt"},"district":{"key":"09672","name":"Bad Kissingen","type":"Landkreis"},"federalState":{"key":"09","name":"Bayern"}},{"name":"In der Au","postalCode":"74706","locality":"Osterburken","municipality":{"key":"08225075","name":"Osterburken, Stadt","type":"Stadt"},"district":{"key":"08225","name":"Neckar-Odenwald-Kreis","type":"Landkreis"},"federalState":{"key":"08","name":"Baden-Württemberg"}},{"name":"In der Steige","postalCode":"74706","locality":"Osterburken","municipality":{"key":"08225075","name":"Osterburken, Stadt","type":"Stadt"},"district":{"key":"08225","name":"Neckar-Odenwald-Kreis","type":"Landkreis"},"federalState":{"key":"08","name":"Baden-Württemberg"}},{"name":"In der Strütt","postalCode":"97705","locality":"Burkardroth","municipality":{"key":"09672117","name":"Burkardroth, M","type":"Markt"},"district":{"key":"09672","name":"Bad Kissingen","type":"Landkreis"},"federalState":{"key":"09","name":"Bayern"}},{"name":"Industriestr.","postalCode":"74706","locality":"Osterburken","municipality":{"key":"08225075","name":"Osterburken, Stadt","type":"Stadt"},"district":{"key":"08225","name":"Neckar-Odenwald-Kreis","type":"Landkreis"},"federalState":{"key":"08","name":"Baden-Württemberg"}},{"name":"Jägergasse","postalCode":"97705","locality":"Burkardroth","municipality":{"key":"09672117","name":"Burkardroth, M","type":"Markt"},"district":{"key":"09672","name":"Bad Kissingen","type":"Landkreis"},"federalState":{"key":"09","name":"Bayern"}},{"name":"Jägerstr.","postalCode":"97705","locality":"Burkardroth","municipality":{"key":"09672117","name":"Burkardroth, M","type":"Markt"},"district":{"key":"09672","name":"Bad Kissingen","type":"Landkreis"},"federalState":{"key":"09","name":"Bayern"}},{"name":"Jägerwiese","postalCode":"97705","locality":"Burkardroth","municipality":{"key":"09672117","name":"Burkardroth, M","type":"Markt"},"district":{"key":"09672","name":"Bad Kissingen","type":"Landkreis"},"federalState":{"key":"09","name":"Bayern"}},{"name":"Jahnsdorfer Str.","postalCode":"09235","locality":"Burkhardtsdorf","municipality":{"key":"14521120","name":"Burkhardtsdorf","type":"Kreisangehörige_Gemeinde"},"district":{"key":"14521","name":"Erzgebirgskreis","type":"Landkreis"},"federalState":{"key":"14","name":"Sachsen"}},{"name":"Johann-Strauß-Str.","postalCode":"74706","locality":"Osterburken","municipality":{"key":"08225075","name":"Osterburken, Stadt","type":"Stadt"},"district":{"key":"08225","name":"Neckar-Odenwald-Kreis","type":"Landkreis"},"federalState":{"key":"08","name":"Baden-Württemberg"}},{"name":"Josef-Martin-Kraus-Str.","postalCode":"74706","locality":"Osterburken","municipality":{"key":"08225075","name":"Osterburken, Stadt","type":"Stadt"},"district":{"key":"08225","name":"Neckar-Odenwald-Kreis","type":"Landkreis"},"federalState":{"key":"08","name":"Baden-Württemberg"}},{"name":"Josefsbildweg","postalCode":"74706","locality":"Osterburken","municipality":{"key":"08225075","name":"Osterburken, Stadt","type":"Stadt"},"district":{"key":"08225","name":"Neckar-Odenwald-Kreis","type":"Landkreis"},"federalState":{"key":"08","name":"Baden-Württemberg"}},{"name":"Jugendzeltplatz Farnsberg","postalCode":"97705","locality":"Burkardroth","municipality":{"key":"09672117","name":"Burkardroth, M","type":"Markt"},"district":{"key":"09672","name":"Bad Kissingen","type":"Landkreis"},"federalState":{"key":"09","name":"Bayern"}},{"name":"Julius-Echter-Weg","postalCode":"97705","locality":"Burkardroth","municipality":{"key":"09672117","name":"Burkardroth, M","type":"Markt"},"district":{"key":"09672","name":"Bad Kissingen","type":"Landkreis"},"federalState":{"key":"09","name":"Bayern"}},{"name":"Julius-Hoffmann-Str.","postalCode":"74706","locality":"Osterburken","municipality":{"key":"08225075","name":"Osterburken, Stadt","type":"Stadt"},"district":{"key":"08225","name":"Neckar-Odenwald-Kreis","type":"Landkreis"},"federalState":{"key":"08","name":"Baden-Württemberg"}},{"name":"Julius-Kardinal-Doepfner-Weg","postalCode":"97705","locality":"Burkardroth","municipality":{"key":"09672117","name":"Burkardroth, M","type":"Markt"},"district":{"key":"09672","name":"Bad Kissingen","type":"Landkreis"},"federalState":{"key":"09","name":"Bayern"}},{"name":"Kalberundweg","postalCode":"74706","locality":"Osterburken","municipality":{"key":"08225075","name":"Osterburken, Stadt","type":"Stadt"},"district":{"key":"08225","name":"Neckar-Odenwald-Kreis","type":"Landkreis"},"federalState":{"key":"08","name":"Baden-Württemberg"}},{"name":"Kalbesteige","postalCode":"74706","locality":"Osterburken","municipality":{"key":"08225075","name":"Osterburken, Stadt","type":"Stadt"},"district":{"key":"08225","name":"Neckar-Odenwald-Kreis","type":"Landkreis"},"federalState":{"key":"08","name":"Baden-Württemberg"}},{"name":"Kapellenstr.","postalCode":"74706","locality":"Osterburken","municipality":{"key":"08225075","name":"Osterburken, Stadt","type":"Stadt"},"district":{"key":"08225","name":"Neckar-Odenwald-Kreis","type":"Landkreis"},"federalState":{"key":"08","name":"Baden-Württemberg"}},{"name":"Kapellenweg","postalCode":"74706","locality":"Osterburken","municipality":{"key":"08225075","name":"Osterburken, Stadt","type":"Stadt"},"district":{"key":"08225","name":"Neckar-Odenwald-Kreis","type":"Landkreis"},"federalState":{"key":"08","name":"Baden-Württemberg"}},{"name":"Kapstr.","postalCode":"09235","locality":"Burkhardtsdorf","municipality":{"key":"14521120","name":"Burkhardtsdorf","type":"Kreisangehörige_Gemeinde"},"district":{"key":"14521","name":"Erzgebirgskreis","type":"Landkreis"},"federalState":{"key":"14","name":"Sachsen"}},{"name":"Karl-Marx-Str.","postalCode":"09235","locality":"Burkhardtsdorf","municipality":{"key":"14521120","name":"Burkhardtsdorf","type":"Kreisangehörige_Gemeinde"},"district":{"key":"14521","name":"Erzgebirgskreis","type":"Landkreis"},"federalState":{"key":"14","name":"Sachsen"}},{"name":"Karlstr.","postalCode":"74706","locality":"Osterburken","municipality":{"key":"08225075","name":"Osterburken, Stadt","type":"Stadt"},"district":{"key":"08225","name":"Neckar-Odenwald-Kreis","type":"Landkreis"},"federalState":{"key":"08","name":"Baden-Württemberg"}},{"name":"Kastellstr.","postalCode":"74706","locality":"Osterburken","municipality":{"key":"08225075","name":"Osterburken, Stadt","type":"Stadt"},"district":{"key":"08225","name":"Neckar-Odenwald-Kreis","type":"Landkreis"},"federalState":{"key":"08","name":"Baden-Württemberg"}},{"name":"Kautzweg","postalCode":"74706","locality":"Osterburken","municipality":{"key":"08225075","name":"Osterburken, Stadt","type":"Stadt"},"district":{"key":"08225","name":"Neckar-Odenwald-Kreis","type":"Landkreis"},"federalState":{"key":"08","name":"Baden-Württemberg"}},{"name":"Kellereistr.","postalCode":"74706","locality":"Osterburken","municipality":{"key":"08225075","name":"Osterburken, Stadt","type":"Stadt"},"district":{"key":"08225","name":"Neckar-Odenwald-Kreis","type":"Landkreis"},"federalState":{"key":"08","name":"Baden-Württemberg"}},{"name":"Kemtauer Str.","postalCode":"09235","locality":"Burkhardtsdorf","municipality":{"key":"14521120","name":"Burkhardtsdorf","type":"Kreisangehörige_Gemeinde"},"district":{"key":"14521","name":"Erzgebirgskreis","type":"Landkreis"},"federalState":{"key":"14","name":"Sachsen"}},{"name":"Kilianstr.","postalCode":"74706","locality":"Osterburken","municipality":{"key":"08225075","name":"Osterburken, Stadt","type":"Stadt"},"district":{"key":"08225","name":"Neckar-Odenwald-Kreis","type":"Landkreis"},"federalState":{"key":"08","name":"Baden-Württemberg"}},{"name":"Kilianstr.","postalCode":"97705","locality":"Burkardroth","municipality":{"key":"09672117","name":"Burkardroth, M","type":"Markt"},"district":{"key":"09672","name":"Bad Kissingen","type":"Landkreis"},"federalState":{"key":"09","name":"Bayern"}},{"name":"Kinobrücke","postalCode":"09235","locality":"Burkhardtsdorf","municipality":{"key":"14521120","name":"Burkhardtsdorf","type":"Kreisangehörige_Gemeinde"},"district":{"key":"14521","name":"Erzgebirgskreis","type":"Landkreis"},"federalState":{"key":"14","name":"Sachsen"}},{"name":"Kirchbergring","postalCode":"74706","locality":"Osterburken","municipality":{"key":"08225075","name":"Osterburken, Stadt","type":"Stadt"},"district":{"key":"08225","name":"Neckar-Odenwald-Kreis","type":"Landkreis"},"federalState":{"key":"08","name":"Baden-Württemberg"}},{"name":"Kirchgasse","postalCode":"97705","locality":"Burkardroth","municipality":{"key":"09672117","name":"Burkardroth, M","type":"Markt"},"district":{"key":"09672","name":"Bad Kissingen","type":"Landkreis"},"federalState":{"key":"09","name":"Bayern"}},{"name":"Kirchplatz","postalCode":"97705","locality":"Burkardroth","municipality":{"key":"09672117","name":"Burkardroth, M","type":"Markt"},"district":{"key":"09672","name":"Bad Kissingen","type":"Landkreis"},"federalState":{"key":"09","name":"Bayern"}},{"name":"Kirchsteig","postalCode":"09235","locality":"Burkhardtsdorf","municipality":{"key":"14521120","name":"Burkhardtsdorf","type":"Kreisangehörige_Gemeinde"},"district":{"key":"14521","name":"Erzgebirgskreis","type":"Landkreis"},"federalState":{"key":"14","name":"Sachsen"}},{"name":"Kirchstr.","postalCode":"74706","locality":"Osterburken","municipality":{"key":"08225075","name":"Osterburken, Stadt","type":"Stadt"},"district":{"key":"08225","name":"Neckar-Odenwald-Kreis","type":"Landkreis"},"federalState":{"key":"08","name":"Baden-Württemberg"}},{"name":"Kirchstr.","postalCode":"97705","locality":"Burkardroth","municipality":{"key":"09672117","name":"Burkardroth, M","type":"Markt"},"district":{"key":"09672","name":"Bad Kissingen","type":"Landkreis"},"federalState":{"key":"09","name":"Bayern"}},{"name":"Kirchweg","postalCode":"74706","locality":"Osterburken","municipality":{"key":"08225075","name":"Osterburken, Stadt","type":"Stadt"},"district":{"key":"08225","name":"Neckar-Odenwald-Kreis","type":"Landkreis"},"federalState":{"key":"08","name":"Baden-Württemberg"}},{"name":"Kirnautalradweg","postalCode":"74706","locality":"Osterburken","municipality":{"key":"08225075","name":"Osterburken, Stadt","type":"Stadt"},"district":{"key":"08225","name":"Neckar-Odenwald-Kreis","type":"Landkreis"},"federalState":{"key":"08","name":"Baden-Württemberg"}},{"name":"Klaffenbacher Str.","postalCode":"09235","locality":"Burkhardtsdorf","municipality":{"key":"14521120","name":"Burkhardtsdorf","type":"Kreisangehörige_Gemeinde"},"district":{"key":"14521","name":"Erzgebirgskreis","type":"Landkreis"},"federalState":{"key":"14","name":"Sachsen"}},{"name":"Klosterfeldweg","postalCode":"74706","locality":"Osterburken","municipality":{"key":"08225075","name":"Osterburken, Stadt","type":"Stadt"},"district":{"key":"08225","name":"Neckar-Odenwald-Kreis","type":"Landkreis"},"federalState":{"key":"08","name":"Baden-Württemberg"}},{"name":"Klosterhang","postalCode":"09235","locality":"Burkhardtsdorf","municipality":{"key":"14521120","name":"Burkhardtsdorf","type":"Kreisangehörige_Gemeinde"},"district":{"key":"14521","name":"Erzgebirgskreis","type":"Landkreis"},"federalState":{"key":"14","name":"Sachsen"}},{"name":"Klosterwaldweg","postalCode":"74706","locality":"Osterburken","municipality":{"key":"08225075","name":"Osterburken, Stadt","type":"Stadt"},"district":{"key":"08225","name":"Neckar-Odenwald-Kreis","type":"Landkreis"},"federalState":{"key":"08","name":"Baden-Württemberg"}},{"name":"Klöttener Weg","postalCode":"74706","locality":"Osterburken","municipality":{"key":"08225075","name":"Osterburken, Stadt","type":"Stadt"},"district":{"key":"08225","name":"Neckar-Odenwald-Kreis","type":"Landkreis"},"federalState":{"key":"08","name":"Baden-Württemberg"}},{"name":"Kohlbergstr.","postalCode":"97705","locality":"Burkardroth","municipality":{"key":"09672117","name":"Burkardroth, M","type":"Markt"},"district":{"key":"09672","name":"Bad Kissingen","type":"Landkreis"},"federalState":{"key":"09","name":"Bayern"}},{"name":"Köhlerstr.","postalCode":"97705","locality":"Burkardroth","municipality":{"key":"09672117","name":"Burkardroth, M","type":"Markt"},"district":{"key":"09672","name":"Bad Kissingen","type":"Landkreis"},"federalState":{"key":"09","name":"Bayern"}},{"name":"Kohleweg","postalCode":"74706","locality":"Osterburken","municipality":{"key":"08225075","name":"Osterburken, Stadt","type":"Stadt"},"district":{"key":"08225","name":"Neckar-Odenwald-Kreis","type":"Landkreis"},"federalState":{"key":"08","name":"Baden-Württemberg"}},{"name":"Koppenäcker","postalCode":"97705","locality":"Burkardroth","municipality":{"key":"09672117","name":"Burkardroth, M","type":"Markt"},"district":{"key":"09672","name":"Bad Kissingen","type":"Landkreis"},"federalState":{"key":"09","name":"Bayern"}},{"name":"Kräuternweg","postalCode":"74706","locality":"Osterburken","municipality":{"key":"08225075","name":"Osterburken, Stadt","type":"Stadt"},"district":{"key":"08225","name":"Neckar-Odenwald-Kreis","type":"Landkreis"},"federalState":{"key":"08","name":"Baden-Württemberg"}},{"name":"Kreuzbergstr.","postalCode":"97705","locality":"Burkardroth","municipality":{"key":"09672117","name":"Burkardroth, M","type":"Markt"},"district":{"key":"09672","name":"Bad Kissingen","type":"Landkreis"},"federalState":{"key":"09","name":"Bayern"}},{"name":"Kreuzbergweg","postalCode":"97705","locality":"Burkardroth","municipality":{"key":"09672117","name":"Burkardroth, M","type":"Markt"},"district":{"key":"09672","name":"Bad Kissingen","type":"Landkreis"},"federalState":{"key":"09","name":"Bayern"}},{"name":"Kreuzstr.","postalCode":"74706","locality":"Osterburken","municipality":{"key":"08225075","name":"Osterburken, Stadt","type":"Stadt"},"district":{"key":"08225","name":"Neckar-Odenwald-Kreis","type":"Landkreis"},"federalState":{"key":"08","name":"Baden-Württemberg"}},{"name":"Kreuzweglein","postalCode":"97705","locality":"Burkardroth","municipality":{"key":"09672117","name":"Burkardroth, M","type":"Markt"},"district":{"key":"09672","name":"Bad Kissingen","type":"Landkreis"},"federalState":{"key":"09","name":"Bayern"}},{"name":"Krummenäcker","postalCode":"74706","locality":"Osterburken","municipality":{"key":"08225075","name":"Osterburken, Stadt","type":"Stadt"},"district":{"key":"08225","name":"Neckar-Odenwald-Kreis","type":"Landkreis"},"federalState":{"key":"08","name":"Baden-Württemberg"}},{"name":"Kühruhweg","postalCode":"74706","locality":"Osterburken","municipality":{"key":"08225075","name":"Osterburken, Stadt","type":"Stadt"},"district":{"key":"08225","name":"Neckar-Odenwald-Kreis","type":"Landkreis"},"federalState":{"key":"08","name":"Baden-Württemberg"}},{"name":"Kurze Str.","postalCode":"01906","locality":"Burkau","municipality":{"key":"14625060","name":"Burkau / Porchow","type":"Kreisangehörige_Gemeinde"},"district":{"key":"14625","name":"Bautzen","type":"Landkreis"},"federalState":{"key":"14","name":"Sachsen"}},{"name":"Kurze Str.","postalCode":"09235","locality":"Burkhardtsdorf","municipality":{"key":"14521120","name":"Burkhardtsdorf","type":"Kreisangehörige_Gemeinde"},"district":{"key":"14521","name":"Erzgebirgskreis","type":"Landkreis"},"federalState":{"key":"14","name":"Sachsen"}},{"name":"Landstr.","postalCode":"01906","locality":"Burkau","municipality":{"key":"14625060","name":"Burkau / Porchow","type":"Kreisangehörige_Gemeinde"},"district":{"key":"14625","name":"Bautzen","type":"Landkreis"},"federalState":{"key":"14","name":"Sachsen"}},{"name":"Lange Str.","postalCode":"01906","locality":"Burkau","municipality":{"key":"14625060","name":"Burkau / Porchow","type":"Kreisangehörige_Gemeinde"},"district":{"key":"14625","name":"Bautzen","type":"Landkreis"},"federalState":{"key":"14","name":"Sachsen"}},{"name":"Langgasse","postalCode":"97705","locality":"Burkardroth","municipality":{"key":"09672117","name":"Burkardroth, M","type":"Markt"},"district":{"key":"09672","name":"Bad Kissingen","type":"Landkreis"},"federalState":{"key":"09","name":"Bayern"}},{"name":"Lanzenweg","postalCode":"97705","locality":"Burkardroth","municipality":{"key":"09672117","name":"Burkardroth, M","type":"Markt"},"district":{"key":"09672","name":"Bad Kissingen","type":"Landkreis"},"federalState":{"key":"09","name":"Bayern"}},{"name":"Lärchenweg","postalCode":"09235","locality":"Burkhardtsdorf","municipality":{"key":"14521120","name":"Burkhardtsdorf","type":"Kreisangehörige_Gemeinde"},"district":{"key":"14521","name":"Erzgebirgskreis","type":"Landkreis"},"federalState":{"key":"14","name":"Sachsen"}},{"name":"Lärchenweg","postalCode":"74706","locality":"Osterburken","municipality":{"key":"08225075","name":"Osterburken, Stadt","type":"Stadt"},"district":{"key":"08225","name":"Neckar-Odenwald-Kreis","type":"Landkreis"},"federalState":{"key":"08","name":"Baden-Württemberg"}},{"name":"Lauterweg","postalCode":"97705","locality":"Burkardroth","municipality":{"key":"09672117","name":"Burkardroth, M","type":"Markt"},"district":{"key":"09672","name":"Bad Kissingen","type":"Landkreis"},"federalState":{"key":"09","name":"Bayern"}},{"name":"Legionstr.","postalCode":"74706","locality":"Osterburken","municipality":{"key":"08225075","name":"Osterburken, Stadt","type":"Stadt"},"district":{"key":"08225","name":"Neckar-Odenwald-Kreis","type":"Landkreis"},"federalState":{"key":"08","name":"Baden-Württemberg"}},{"name":"Lerchensteig","postalCode":"09235","locality":"Burkhardtsdorf","municipality":{"key":"14521120","name":"Burkhardtsdorf","type":"Kreisangehörige_Gemeinde"},"district":{"key":"14521","name":"Erzgebirgskreis","type":"Landkreis"},"federalState":{"key":"14","name":"Sachsen"}},{"name":"Lessingstr.","postalCode":"09235","locality":"Burkhardtsdorf","municipality":{"key":"14521120","name":"Burkhardtsdorf","type":"Kreisangehörige_Gemeinde"},"district":{"key":"14521","name":"Erzgebirgskreis","type":"Landkreis"},"federalState":{"key":"14","name":"Sachsen"}},{"name":"Leuchtweg","postalCode":"74706","locality":"Osterburken","municipality":{"key":"08225075","name":"Osterburken, Stadt","type":"Stadt"},"district":{"key":"08225","name":"Neckar-Odenwald-Kreis","type":"Landkreis"},"federalState":{"key":"08","name":"Baden-Württemberg"}},{"name":"Leutwitzer Flügel","postalCode":"01906","locality":"Burkau","municipality":{"key":"14625060","name":"Burkau / Porchow","type":"Kreisangehörige_Gemeinde"},"district":{"key":"14625","name":"Bautzen","type":"Landkreis"},"federalState":{"key":"14","name":"Sachsen"}},{"name":"Leutwitzer Str.","postalCode":"01906","locality":"Burkau","municipality":{"key":"14625060","name":"Burkau / Porchow","type":"Kreisangehörige_Gemeinde"},"district":{"key":"14625","name":"Bautzen","type":"Landkreis"},"federalState":{"key":"14","name":"Sachsen"}},{"name":"Lidmannsklinge","postalCode":"74706","locality":"Osterburken","municipality":{"key":"08225075","name":"Osterburken, Stadt","type":"Stadt"},"district":{"key":"08225","name":"Neckar-Odenwald-Kreis","type":"Landkreis"},"federalState":{"key":"08","name":"Baden-Württemberg"}},{"name":"Limesstr.","postalCode":"74706","locality":"Osterburken","municipality":{"key":"08225075","name":"Osterburken, Stadt","type":"Stadt"},"district":{"key":"08225","name":"Neckar-Odenwald-Kreis","type":"Landkreis"},"federalState":{"key":"08","name":"Baden-Württemberg"}},{"name":"Limeswanderweg","postalCode":"74706","locality":"Osterburken","municipality":{"key":"08225075","name":"Osterburken, Stadt","type":"Stadt"},"district":{"key":"08225","name":"Neckar-Odenwald-Kreis","type":"Landkreis"},"federalState":{"key":"08","name":"Baden-Württemberg"}},{"name":"Lindenstr.","postalCode":"01906","locality":"Burkau","municipality":{"key":"14625060","name":"Burkau / Porchow","type":"Kreisangehörige_Gemeinde"},"district":{"key":"14625","name":"Bautzen","type":"Landkreis"},"federalState":{"key":"14","name":"Sachsen"}},{"name":"Lindenstr.","postalCode":"97705","locality":"Burkardroth","municipality":{"key":"09672117","name":"Burkardroth, M","type":"Markt"},"district":{"key":"09672","name":"Bad Kissingen","type":"Landkreis"},"federalState":{"key":"09","name":"Bayern"}},{"name":"Lindenweg","postalCode":"09235","locality":"Burkhardtsdorf","municipality":{"key":"14521120","name":"Burkhardtsdorf","type":"Kreisangehörige_Gemeinde"},"district":{"key":"14521","name":"Erzgebirgskreis","type":"Landkreis"},"federalState":{"key":"14","name":"Sachsen"}},{"name":"Linienweg","postalCode":"74706","locality":"Osterburken","municipality":{"key":"08225075","name":"Osterburken, Stadt","type":"Stadt"},"district":{"key":"08225","name":"Neckar-Odenwald-Kreis","type":"Landkreis"},"federalState":{"key":"08","name":"Baden-Württemberg"}},{"name":"Ludwig-Jahn-Str.","postalCode":"74706","locality":"Osterburken","municipality":{"key":"08225075","name":"Osterburken, Stadt","type":"Stadt"},"district":{"key":"08225","name":"Neckar-Odenwald-Kreis","type":"Landkreis"},"federalState":{"key":"08","name":"Baden-Württemberg"}},{"name":"Lusttalweg","postalCode":"74706","locality":"Osterburken","municipality":{"key":"08225075","name":"Osterburken, Stadt","type":"Stadt"},"district":{"key":"08225","name":"Neckar-Odenwald-Kreis","type":"Landkreis"},"federalState":{"key":"08","name":"Baden-Württemberg"}},{"name":"Madonnastr.","postalCode":"97705","locality":"Burkardroth","municipality":{"key":"09672117","name":"Burkardroth, M","type":"Markt"},"district":{"key":"09672","name":"Bad Kissingen","type":"Landkreis"},"federalState":{"key":"09","name":"Bayern"}},{"name":"Malzgraben","postalCode":"97705","locality":"Burkardroth","municipality":{"key":"09672117","name":"Burkardroth, M","type":"Markt"},"district":{"key":"09672","name":"Bad Kissingen","type":"Landkreis"},"federalState":{"key":"09","name":"Bayern"}},{"name":"Maria-Stern Str.","postalCode":"97705","locality":"Burkardroth","municipality":{"key":"09672117","name":"Burkardroth, M","type":"Markt"},"district":{"key":"09672","name":"Bad Kissingen","type":"Landkreis"},"federalState":{"key":"09","name":"Bayern"}},{"name":"Marienstr.","postalCode":"74706","locality":"Osterburken","municipality":{"key":"08225075","name":"Osterburken, Stadt","type":"Stadt"},"district":{"key":"08225","name":"Neckar-Odenwald-Kreis","type":"Landkreis"},"federalState":{"key":"08","name":"Baden-Württemberg"}},{"name":"Marienstr.","postalCode":"97705","locality":"Burkardroth","municipality":{"key":"09672117","name":"Burkardroth, M","type":"Markt"},"district":{"key":"09672","name":"Bad Kissingen","type":"Landkreis"},"federalState":{"key":"09","name":"Bayern"}},{"name":"Martinskreuzweg","postalCode":"74706","locality":"Osterburken","municipality":{"key":"08225075","name":"Osterburken, Stadt","type":"Stadt"},"district":{"key":"08225","name":"Neckar-Odenwald-Kreis","type":"Landkreis"},"federalState":{"key":"08","name":"Baden-Württemberg"}},{"name":"Martinstr.","postalCode":"74706","locality":"Osterburken","municipality":{"key":"08225075","name":"Osterburken, Stadt","type":"Stadt"},"district":{"key":"08225","name":"Neckar-Odenwald-Kreis","type":"Landkreis"},"federalState":{"key":"08","name":"Baden-Württemberg"}},{"name":"Märzenweg","postalCode":"97705","locality":"Burkardroth","municipality":{"key":"09672117","name":"Burkardroth, M","type":"Markt"},"district":{"key":"09672","name":"Bad Kissingen","type":"Landkreis"},"federalState":{"key":"09","name":"Bayern"}},{"name":"Matthäusweg","postalCode":"74706","locality":"Osterburken","municipality":{"key":"08225075","name":"Osterburken, Stadt","type":"Stadt"},"district":{"key":"08225","name":"Neckar-Odenwald-Kreis","type":"Landkreis"},"federalState":{"key":"08","name":"Baden-Württemberg"}},{"name":"Mauritiusstr.","postalCode":"74706","locality":"Osterburken","municipality":{"key":"08225075","name":"Osterburken, Stadt","type":"Stadt"},"district":{"key":"08225","name":"Neckar-Odenwald-Kreis","type":"Landkreis"},"federalState":{"key":"08","name":"Baden-Württemberg"}},{"name":"Meinersdorfer Str.","postalCode":"09235","locality":"Burkhardtsdorf","municipality":{"key":"14521120","name":"Burkhardtsdorf","type":"Kreisangehörige_Gemeinde"},"district":{"key":"14521","name":"Erzgebirgskreis","type":"Landkreis"},"federalState":{"key":"14","name":"Sachsen"}},{"name":"Meisenweg","postalCode":"09235","locality":"Burkhardtsdorf","municipality":{"key":"14521120","name":"Burkhardtsdorf","type":"Kreisangehörige_Gemeinde"},"district":{"key":"14521","name":"Erzgebirgskreis","type":"Landkreis"},"federalState":{"key":"14","name":"Sachsen"}},{"name":"Meisenweg","postalCode":"74706","locality":"Osterburken","municipality":{"key":"08225075","name":"Osterburken, Stadt","type":"Stadt"},"district":{"key":"08225","name":"Neckar-Odenwald-Kreis","type":"Landkreis"},"federalState":{"key":"08","name":"Baden-Württemberg"}},{"name":"Merchinger Str.","postalCode":"74706","locality":"Osterburken","municipality":{"key":"08225075","name":"Osterburken, Stadt","type":"Stadt"},"district":{"key":"08225","name":"Neckar-Odenwald-Kreis","type":"Landkreis"},"federalState":{"key":"08","name":"Baden-Württemberg"}},{"name":"Metzenbergstr.","postalCode":"97705","locality":"Burkardroth","municipality":{"key":"09672117","name":"Burkardroth, M","type":"Markt"},"district":{"key":"09672","name":"Bad Kissingen","type":"Landkreis"},"federalState":{"key":"09","name":"Bayern"}},{"name":"Metzgersbuschrundweg","postalCode":"74706","locality":"Osterburken","municipality":{"key":"08225075","name":"Osterburken, Stadt","type":"Stadt"},"district":{"key":"08225","name":"Neckar-Odenwald-Kreis","type":"Landkreis"},"federalState":{"key":"08","name":"Baden-Württemberg"}},{"name":"Michael-Gärtner-Str.","postalCode":"91596","locality":"Burk","municipality":{"key":"09571128","name":"Burk","type":"Kreisangehörige_Gemeinde"},"district":{"key":"09571","name":"Ansbach","type":"Landkreis"},"federalState":{"key":"09","name":"Bayern"}},{"name":"Michael-Wenz-Str.","postalCode":"74706","locality":"Osterburken","municipality":{"key":"08225075","name":"Osterburken, Stadt","type":"Stadt"},"district":{"key":"08225","name":"Neckar-Odenwald-Kreis","type":"Landkreis"},"federalState":{"key":"08","name":"Baden-Württemberg"}},{"name":"Minnesängerstr.","postalCode":"97705","locality":"Burkardroth","municipality":{"key":"09672117","name":"Burkardroth, M","type":"Markt"},"district":{"key":"09672","name":"Bad Kissingen","type":"Landkreis"},"federalState":{"key":"09","name":"Bayern"}},{"name":"Mittlerer Spiesslingweg","postalCode":"74706","locality":"Osterburken","municipality":{"key":"08225075","name":"Osterburken, Stadt","type":"Stadt"},"district":{"key":"08225","name":"Neckar-Odenwald-Kreis","type":"Landkreis"},"federalState":{"key":"08","name":"Baden-Württemberg"}},{"name":"Mommsenstr.","postalCode":"74706","locality":"Osterburken","municipality":{"key":"08225075","name":"Osterburken, Stadt","type":"Stadt"},"district":{"key":"08225","name":"Neckar-Odenwald-Kreis","type":"Landkreis"},"federalState":{"key":"08","name":"Baden-Württemberg"}},{"name":"Mosigweg","postalCode":"74706","locality":"Osterburken","municipality":{"key":"08225075","name":"Osterburken, Stadt","type":"Stadt"},"district":{"key":"08225","name":"Neckar-Odenwald-Kreis","type":"Landkreis"},"federalState":{"key":"08","name":"Baden-Württemberg"}},{"name":"Mozartstr.","postalCode":"74706","locality":"Osterburken","municipality":{"key":"08225075","name":"Osterburken, Stadt","type":"Stadt"},"district":{"key":"08225","name":"Neckar-Odenwald-Kreis","type":"Landkreis"},"federalState":{"key":"08","name":"Baden-Württemberg"}},{"name":"Mühlackerstr.","postalCode":"97705","locality":"Burkardroth","municipality":{"key":"09672117","name":"Burkardroth, M","type":"Markt"},"district":{"key":"09672","name":"Bad Kissingen","type":"Landkreis"},"federalState":{"key":"09","name":"Bayern"}},{"name":"Mühlenstr.","postalCode":"74706","locality":"Osterburken","municipality":{"key":"08225075","name":"Osterburken, Stadt","type":"Stadt"},"district":{"key":"08225","name":"Neckar-Odenwald-Kreis","type":"Landkreis"},"federalState":{"key":"08","name":"Baden-Württemberg"}},{"name":"Mühlenweg","postalCode":"09235","locality":"Burkhardtsdorf","municipality":{"key":"14521120","name":"Burkhardtsdorf","type":"Kreisangehörige_Gemeinde"},"district":{"key":"14521","name":"Erzgebirgskreis","type":"Landkreis"},"federalState":{"key":"14","name":"Sachsen"}},{"name":"Mühlpfad","postalCode":"97705","locality":"Burkardroth","municipality":{"key":"09672117","name":"Burkardroth, M","type":"Markt"},"district":{"key":"09672","name":"Bad Kissingen","type":"Landkreis"},"federalState":{"key":"09","name":"Bayern"}},{"name":"Mühlweg","postalCode":"09235","locality":"Burkhardtsdorf","municipality":{"key":"14521120","name":"Burkhardtsdorf","type":"Kreisangehörige_Gemeinde"},"district":{"key":"14521","name":"Erzgebirgskreis","type":"Landkreis"},"federalState":{"key":"14","name":"Sachsen"}},{"name":"Müllersweg","postalCode":"97705","locality":"Burkardroth","municipality":{"key":"09672117","name":"Burkardroth, M","type":"Markt"},"district":{"key":"09672","name":"Bad Kissingen","type":"Landkreis"},"federalState":{"key":"09","name":"Bayern"}},{"name":"Neraditz","postalCode":"01906","locality":"Burkau","municipality":{"key":"14625060","name":"Burkau / Porchow","type":"Kreisangehörige_Gemeinde"},"district":{"key":"14625","name":"Bautzen","type":"Landkreis"},"federalState":{"key":"14","name":"Sachsen"}},{"name":"Neue Gasse","postalCode":"09235","locality":"Burkhardtsdorf","municipality":{"key":"14521120","name":"Burkhardtsdorf","type":"Kreisangehörige_Gemeinde"},"district":{"key":"14521","name":"Erzgebirgskreis","type":"Landkreis"},"federalState":{"key":"14","name":"Sachsen"}},{"name":"Neuer Weg","postalCode":"01906","locality":"Burkau","municipality":{"key":"14625060","name":"Burkau / Porchow","type":"Kreisangehörige_Gemeinde"},"district":{"key":"14625","name":"Bautzen","type":"Landkreis"},"federalState":{"key":"14","name":"Sachsen"}},{"name":"Neuer Weg","postalCode":"74706","locality":"Osterburken","municipality":{"key":"08225075","name":"Osterburken, Stadt","type":"Stadt"},"district":{"key":"08225","name":"Neckar-Odenwald-Kreis","type":"Landkreis"},"federalState":{"key":"08","name":"Baden-Württemberg"}},{"name":"Neue Str.","postalCode":"09235","locality":"Burkhardtsdorf","municipality":{"key":"14521120","name":"Burkhardtsdorf","type":"Kreisangehörige_Gemeinde"},"district":{"key":"14521","name":"Erzgebirgskreis","type":"Landkreis"},"federalState":{"key":"14","name":"Sachsen"}},{"name":"Obere Dick","postalCode":"97705","locality":"Burkardroth","municipality":{"key":"09672117","name":"Burkardroth, M","type":"Markt"},"district":{"key":"09672","name":"Bad Kissingen","type":"Landkreis"},"federalState":{"key":"09","name":"Bayern"}},{"name":"Obere Hauptstr.","postalCode":"09235","locality":"Burkhardtsdorf","municipality":{"key":"14521120","name":"Burkhardtsdorf","type":"Kreisangehörige_Gemeinde"},"district":{"key":"14521","name":"Erzgebirgskreis","type":"Landkreis"},"federalState":{"key":"14","name":"Sachsen"}},{"name":"Obere Marktstr.","postalCode":"97705","locality":"Burkardroth","municipality":{"key":"09672117","name":"Burkardroth, M","type":"Markt"},"district":{"key":"09672","name":"Bad Kissingen","type":"Landkreis"},"federalState":{"key":"09","name":"Bayern"}},{"name":"Oberer Hangweg","postalCode":"74706","locality":"Osterburken","municipality":{"key":"08225075","name":"Osterburken, Stadt","type":"Stadt"},"district":{"key":"08225","name":"Neckar-Odenwald-Kreis","type":"Landkreis"},"federalState":{"key":"08","name":"Baden-Württemberg"}},{"name":"Oberer Neuenbergweg","postalCode":"74706","locality":"Osterburken","municipality":{"key":"08225075","name":"Osterburken, Stadt","type":"Stadt"},"district":{"key":"08225","name":"Neckar-Odenwald-Kreis","type":"Landkreis"},"federalState":{"key":"08","name":"Baden-Württemberg"}},{"name":"Oberer Spiesslingweg","postalCode":"74706","locality":"Osterburken","municipality":{"key":"08225075","name":"Osterburken, Stadt","type":"Stadt"},"district":{"key":"08225","name":"Neckar-Odenwald-Kreis","type":"Landkreis"},"federalState":{"key":"08","name":"Baden-Württemberg"}},{"name":"Obere Talstr.","postalCode":"74706","locality":"Osterburken","municipality":{"key":"08225075","name":"Osterburken, Stadt","type":"Stadt"},"district":{"key":"08225","name":"Neckar-Odenwald-Kreis","type":"Landkreis"},"federalState":{"key":"08","name":"Baden-Württemberg"}},{"name":"Oberlandstr.","postalCode":"74706","locality":"Osterburken","municipality":{"key":"08225075","name":"Osterburken, Stadt","type":"Stadt"},"district":{"key":"08225","name":"Neckar-Odenwald-Kreis","type":"Landkreis"},"federalState":{"key":"08","name":"Baden-Württemberg"}},{"name":"Oberlanglohweg","postalCode":"74706","locality":"Osterburken","municipality":{"key":"08225075","name":"Osterburken, Stadt","type":"Stadt"},"district":{"key":"08225","name":"Neckar-Odenwald-Kreis","type":"Landkreis"},"federalState":{"key":"08","name":"Baden-Württemberg"}},{"name":"Odertaler Weg","postalCode":"74706","locality":"Osterburken","municipality":{"key":"08225075","name":"Osterburken, Stadt","type":"Stadt"},"district":{"key":"08225","name":"Neckar-Odenwald-Kreis","type":"Landkreis"},"federalState":{"key":"08","name":"Baden-Württemberg"}},{"name":"Ohne Namen","postalCode":"97705","locality":"Burkardroth","municipality":{"key":"09672117","name":"Burkardroth, M","type":"Markt"},"district":{"key":"09672","name":"Bad Kissingen","type":"Landkreis"},"federalState":{"key":"09","name":"Bayern"}},{"name":"Osterburkener Str.","postalCode":"74706","locality":"Osterburken","municipality":{"key":"08225075","name":"Osterburken, Stadt","type":"Stadt"},"district":{"key":"08225","name":"Neckar-Odenwald-Kreis","type":"Landkreis"},"federalState":{"key":"08","name":"Baden-Württemberg"}},{"name":"Otto-Schüngel-Str.","postalCode":"09235","locality":"Burkhardtsdorf","municipality":{"key":"14521120","name":"Burkhardtsdorf","type":"Kreisangehörige_Gemeinde"},"district":{"key":"14521","name":"Erzgebirgskreis","type":"Landkreis"},"federalState":{"key":"14","name":"Sachsen"}},{"name":"Paradiesgartenweg","postalCode":"74706","locality":"Osterburken","municipality":{"key":"08225075","name":"Osterburken, Stadt","type":"Stadt"},"district":{"key":"08225","name":"Neckar-Odenwald-Kreis","type":"Landkreis"},"federalState":{"key":"08","name":"Baden-Württemberg"}},{"name":"Park am Bahnhof","postalCode":"09235","locality":"Burkhardtsdorf","municipality":{"key":"14521120","name":"Burkhardtsdorf","type":"Kreisangehörige_Gemeinde"},"district":{"key":"14521","name":"Erzgebirgskreis","type":"Landkreis"},"federalState":{"key":"14","name":"Sachsen"}},{"name":"Park am Rathaus","postalCode":"09235","locality":"Burkhardtsdorf","municipality":{"key":"14521120","name":"Burkhardtsdorf","type":"Kreisangehörige_Gemeinde"},"district":{"key":"14521","name":"Erzgebirgskreis","type":"Landkreis"},"federalState":{"key":"14","name":"Sachsen"}},{"name":"Paul-Hindemith-Weg","postalCode":"74706","locality":"Osterburken","municipality":{"key":"08225075","name":"Osterburken, Stadt","type":"Stadt"},"district":{"key":"08225","name":"Neckar-Odenwald-Kreis","type":"Landkreis"},"federalState":{"key":"08","name":"Baden-Württemberg"}},{"name":"Pestalozziweg","postalCode":"09235","locality":"Burkhardtsdorf","municipality":{"key":"14521120","name":"Burkhardtsdorf","type":"Kreisangehörige_Gemeinde"},"district":{"key":"14521","name":"Erzgebirgskreis","type":"Landkreis"},"federalState":{"key":"14","name":"Sachsen"}},{"name":"Pfannengrundweg","postalCode":"74706","locality":"Osterburken","municipality":{"key":"08225075","name":"Osterburken, Stadt","type":"Stadt"},"district":{"key":"08225","name":"Neckar-Odenwald-Kreis","type":"Landkreis"},"federalState":{"key":"08","name":"Baden-Württemberg"}},{"name":"Pfarrer-Braun-Str.","postalCode":"91596","locality":"Burk","municipality":{"key":"09571128","name":"Burk","type":"Kreisangehörige_Gemeinde"},"district":{"key":"09571","name":"Ansbach","type":"Landkreis"},"federalState":{"key":"09","name":"Bayern"}},{"name":"Pfarrersbildweg","postalCode":"74706","locality":"Osterburken","municipality":{"key":"08225075","name":"Osterburken, Stadt","type":"Stadt"},"district":{"key":"08225","name":"Neckar-Odenwald-Kreis","type":"Landkreis"},"federalState":{"key":"08","name":"Baden-Württemberg"}},{"name":"Pfarrweg","postalCode":"09235","locality":"Burkhardtsdorf","municipality":{"key":"14521120","name":"Burkhardtsdorf","type":"Kreisangehörige_Gemeinde"},"district":{"key":"14521","name":"Erzgebirgskreis","type":"Landkreis"},"federalState":{"key":"14","name":"Sachsen"}},{"name":"Platz der Jugend","postalCode":"09235","locality":"Burkhardtsdorf","municipality":{"key":"14521120","name":"Burkhardtsdorf","type":"Kreisangehörige_Gemeinde"},"district":{"key":"14521","name":"Erzgebirgskreis","type":"Landkreis"},"federalState":{"key":"14","name":"Sachsen"}},{"name":"Poststr.","postalCode":"97705","locality":"Burkardroth","municipality":{"key":"09672117","name":"Burkardroth, M","type":"Markt"},"district":{"key":"09672","name":"Bad Kissingen","type":"Landkreis"},"federalState":{"key":"09","name":"Bayern"}},{"name":"Professor-Schumacher-Str.","postalCode":"74706","locality":"Osterburken","municipality":{"key":"08225075","name":"Osterburken, Stadt","type":"Stadt"},"district":{"key":"08225","name":"Neckar-Odenwald-Kreis","type":"Landkreis"},"federalState":{"key":"08","name":"Baden-Württemberg"}},{"name":"Quaststr.","postalCode":"91522","locality":"Ansbach","municipality":{"key":"09561000","name":"Ansbach","type":"Kreisfreie_Stadt"},"district":{"key":"09561","name":"Ansbach","type":"Kreisfreie_Stadt"},"federalState":{"key":"09","name":"Bayern"}},{"name":"Raiffeisenstr.","postalCode":"91596","locality":"Burk","municipality":{"key":"09571128","name":"Burk","type":"Kreisangehörige_Gemeinde"},"district":{"key":"09571","name":"Ansbach","type":"Landkreis"},"federalState":{"key":"09","name":"Bayern"}},{"name":"Raiffeisenweg","postalCode":"74706","locality":"Osterburken","municipality":{"key":"08225075","name":"Osterburken, Stadt","type":"Stadt"},"district":{"key":"08225","name":"Neckar-Odenwald-Kreis","type":"Landkreis"},"federalState":{"key":"08","name":"Baden-Württemberg"}},{"name":"Randsiedlung","postalCode":"01906","locality":"Burkau","municipality":{"key":"14625060","name":"Burkau / Porchow","type":"Kreisangehörige_Gemeinde"},"district":{"key":"14625","name":"Bautzen","type":"Landkreis"},"federalState":{"key":"14","name":"Sachsen"}},{"name":"Randsiedlung","postalCode":"09235","locality":"Burkhardtsdorf","municipality":{"key":"14521120","name":"Burkhardtsdorf","type":"Kreisangehörige_Gemeinde"},"district":{"key":"14521","name":"Erzgebirgskreis","type":"Landkreis"},"federalState":{"key":"14","name":"Sachsen"}},{"name":"Rasenweg","postalCode":"97705","locality":"Burkardroth","municipality":{"key":"09672117","name":"Burkardroth, M","type":"Markt"},"district":{"key":"09672","name":"Bad Kissingen","type":"Landkreis"},"federalState":{"key":"09","name":"Bayern"}},{"name":"Rathausplatz","postalCode":"09235","locality":"Burkhardtsdorf","municipality":{"key":"14521120","name":"Burkhardtsdorf","type":"Kreisangehörige_Gemeinde"},"district":{"key":"14521","name":"Erzgebirgskreis","type":"Landkreis"},"federalState":{"key":"14","name":"Sachsen"}},{"name":"Rathausstr.","postalCode":"74706","locality":"Osterburken","municipality":{"key":"08225075","name":"Osterburken, Stadt","type":"Stadt"},"district":{"key":"08225","name":"Neckar-Odenwald-Kreis","type":"Landkreis"},"federalState":{"key":"08","name":"Baden-Württemberg"}},{"name":"Remschleinweg","postalCode":"74706","locality":"Osterburken","municipality":{"key":"08225075","name":"Osterburken, Stadt","type":"Stadt"},"district":{"key":"08225","name":"Neckar-Odenwald-Kreis","type":"Landkreis"},"federalState":{"key":"08","name":"Baden-Württemberg"}},{"name":"Rhönhallenstr.","postalCode":"97705","locality":"Burkardroth","municipality":{"key":"09672117","name":"Burkardroth, M","type":"Markt"},"district":{"key":"09672","name":"Bad Kissingen","type":"Landkreis"},"federalState":{"key":"09","name":"Bayern"}},{"name":"Rhönstr.","postalCode":"97705","locality":"Burkardroth","municipality":{"key":"09672117","name":"Burkardroth, M","type":"Markt"},"district":{"key":"09672","name":"Bad Kissingen","type":"Landkreis"},"federalState":{"key":"09","name":"Bayern"}},{"name":"Ringstr.","postalCode":"01906","locality":"Burkau","municipality":{"key":"14625060","name":"Burkau / Porchow","type":"Kreisangehörige_Gemeinde"},"district":{"key":"14625","name":"Bautzen","type":"Landkreis"},"federalState":{"key":"14","name":"Sachsen"}},{"name":"Ringstr.","postalCode":"97705","locality":"Burkardroth","municipality":{"key":"09672117","name":"Burkardroth, M","type":"Markt"},"district":{"key":"09672","name":"Bad Kissingen","type":"Landkreis"},"federalState":{"key":"09","name":"Bayern"}},{"name":"Ringweg","postalCode":"97705","locality":"Burkardroth","municipality":{"key":"09672117","name":"Burkardroth, M","type":"Markt"},"district":{"key":"09672","name":"Bad Kissingen","type":"Landkreis"},"federalState":{"key":"09","name":"Bayern"}},{"name":"Rinschbachstr.","postalCode":"74706","locality":"Osterburken","municipality":{"key":"08225075","name":"Osterburken, Stadt","type":"Stadt"},"district":{"key":"08225","name":"Neckar-Odenwald-Kreis","type":"Landkreis"},"federalState":{"key":"08","name":"Baden-Württemberg"}},{"name":"Rollweg","postalCode":"09235","locality":"Burkhardtsdorf","municipality":{"key":"14521120","name":"Burkhardtsdorf","type":"Kreisangehörige_Gemeinde"},"district":{"key":"14521","name":"Erzgebirgskreis","type":"Landkreis"},"federalState":{"key":"14","name":"Sachsen"}},{"name":"Römerplatz","postalCode":"74706","locality":"Osterburken","municipality":{"key":"08225075","name":"Osterburken, Stadt","type":"Stadt"},"district":{"key":"08225","name":"Neckar-Odenwald-Kreis","type":"Landkreis"},"federalState":{"key":"08","name":"Baden-Württemberg"}},{"name":"Römerstr.","postalCode":"74706","locality":"Osterburken","municipality":{"key":"08225075","name":"Osterburken, Stadt","type":"Stadt"},"district":{"key":"08225","name":"Neckar-Odenwald-Kreis","type":"Landkreis"},"federalState":{"key":"08","name":"Baden-Württemberg"}},{"name":"Römerweg","postalCode":"74706","locality":"Osterburken","municipality":{"key":"08225075","name":"Osterburken, Stadt","type":"Stadt"},"district":{"key":"08225","name":"Neckar-Odenwald-Kreis","type":"Landkreis"},"federalState":{"key":"08","name":"Baden-Württemberg"}},{"name":"Rosenberger Str.","postalCode":"74706","locality":"Osterburken","municipality":{"key":"08225075","name":"Osterburken, Stadt","type":"Stadt"},"district":{"key":"08225","name":"Neckar-Odenwald-Kreis","type":"Landkreis"},"federalState":{"key":"08","name":"Baden-Württemberg"}},{"name":"Rosenstr.","postalCode":"97705","locality":"Burkardroth","municipality":{"key":"09672117","name":"Burkardroth, M","type":"Markt"},"district":{"key":"09672","name":"Bad Kissingen","type":"Landkreis"},"federalState":{"key":"09","name":"Bayern"}},{"name":"Rottersbergweg","postalCode":"74706","locality":"Osterburken","municipality":{"key":"08225075","name":"Osterburken, Stadt","type":"Stadt"},"district":{"key":"08225","name":"Neckar-Odenwald-Kreis","type":"Landkreis"},"federalState":{"key":"08","name":"Baden-Württemberg"}},{"name":"Saatschulweg","postalCode":"74706","locality":"Osterburken","municipality":{"key":"08225075","name":"Osterburken, Stadt","type":"Stadt"},"district":{"key":"08225","name":"Neckar-Odenwald-Kreis","type":"Landkreis"},"federalState":{"key":"08","name":"Baden-Württemberg"}},{"name":"Sachsenheimer Str.","postalCode":"01906","locality":"Burkau","municipality":{"key":"14625060","name":"Burkau / Porchow","type":"Kreisangehörige_Gemeinde"},"district":{"key":"14625","name":"Bautzen","type":"Landkreis"},"federalState":{"key":"14","name":"Sachsen"}},{"name":"Salzbergstr.","postalCode":"74706","locality":"Osterburken","municipality":{"key":"08225075","name":"Osterburken, Stadt","type":"Stadt"},"district":{"key":"08225","name":"Neckar-Odenwald-Kreis","type":"Landkreis"},"federalState":{"key":"08","name":"Baden-Württemberg"}},{"name":"Sandweg","postalCode":"01906","locality":"Burkau","municipality":{"key":"14625060","name":"Burkau / Porchow","type":"Kreisangehörige_Gemeinde"},"district":{"key":"14625","name":"Bautzen","type":"Landkreis"},"federalState":{"key":"14","name":"Sachsen"}},{"name":"Sankt-Pius-Str.","postalCode":"97705","locality":"Burkardroth","municipality":{"key":"09672117","name":"Burkardroth, M","type":"Markt"},"district":{"key":"09672","name":"Bad Kissingen","type":"Landkreis"},"federalState":{"key":"09","name":"Bayern"}},{"name":"Säuritzer Str.","postalCode":"01906","locality":"Burkau","municipality":{"key":"14625060","name":"Burkau / Porchow","type":"Kreisangehörige_Gemeinde"},"district":{"key":"14625","name":"Bautzen","type":"Landkreis"},"federalState":{"key":"14","name":"Sachsen"}},{"name":"Säuritzer Str. Ost","postalCode":"01906","locality":"Burkau","municipality":{"key":"14625060","name":"Burkau / Porchow","type":"Kreisangehörige_Gemeinde"},"district":{"key":"14625","name":"Bautzen","type":"Landkreis"},"federalState":{"key":"14","name":"Sachsen"}},{"name":"Säuritzer Str. West","postalCode":"01906","locality":"Burkau","municipality":{"key":"14625060","name":"Burkau / Porchow","type":"Kreisangehörige_Gemeinde"},"district":{"key":"14625","name":"Bautzen","type":"Landkreis"},"federalState":{"key":"14","name":"Sachsen"}},{"name":"Schafstr.","postalCode":"74706","locality":"Osterburken","municipality":{"key":"08225075","name":"Osterburken, Stadt","type":"Stadt"},"district":{"key":"08225","name":"Neckar-Odenwald-Kreis","type":"Landkreis"},"federalState":{"key":"08","name":"Baden-Württemberg"}},{"name":"Schillerplatz","postalCode":"09235","locality":"Burkhardtsdorf","municipality":{"key":"14521120","name":"Burkhardtsdorf","type":"Kreisangehörige_Gemeinde"},"district":{"key":"14521","name":"Erzgebirgskreis","type":"Landkreis"},"federalState":{"key":"14","name":"Sachsen"}},{"name":"Schlägleinsweg","postalCode":"97705","locality":"Burkardroth","municipality":{"key":"09672117","name":"Burkardroth, M","type":"Markt"},"district":{"key":"09672","name":"Bad Kissingen","type":"Landkreis"},"federalState":{"key":"09","name":"Bayern"}},{"name":"Schlierstädter Str.","postalCode":"74706","locality":"Osterburken","municipality":{"key":"08225075","name":"Osterburken, Stadt","type":"Stadt"},"district":{"key":"08225","name":"Neckar-Odenwald-Kreis","type":"Landkreis"},"federalState":{"key":"08","name":"Baden-Württemberg"}},{"name":"Schlingenstr.","postalCode":"97705","locality":"Burkardroth","municipality":{"key":"09672117","name":"Burkardroth, M","type":"Markt"},"district":{"key":"09672","name":"Bad Kissingen","type":"Landkreis"},"federalState":{"key":"09","name":"Bayern"}},{"name":"Schmalzmühlweg","postalCode":"97705","locality":"Burkardroth","municipality":{"key":"09672117","name":"Burkardroth, M","type":"Markt"},"district":{"key":"09672","name":"Bad Kissingen","type":"Landkreis"},"federalState":{"key":"09","name":"Bayern"}},{"name":"Schubertstr.","postalCode":"74706","locality":"Osterburken","municipality":{"key":"08225075","name":"Osterburken, Stadt","type":"Stadt"},"district":{"key":"08225","name":"Neckar-Odenwald-Kreis","type":"Landkreis"},"federalState":{"key":"08","name":"Baden-Württemberg"}},{"name":"Schulbrücke","postalCode":"91596","locality":"Burk","municipality":{"key":"09571128","name":"Burk","type":"Kreisangehörige_Gemeinde"},"district":{"key":"09571","name":"Ansbach","type":"Landkreis"},"federalState":{"key":"09","name":"Bayern"}},{"name":"Schulstr.","postalCode":"01906","locality":"Burkau","municipality":{"key":"14625060","name":"Burkau / Porchow","type":"Kreisangehörige_Gemeinde"},"district":{"key":"14625","name":"Bautzen","type":"Landkreis"},"federalState":{"key":"14","name":"Sachsen"}},{"name":"Schulstr.","postalCode":"09235","locality":"Burkhardtsdorf","municipality":{"key":"14521120","name":"Burkhardtsdorf","type":"Kreisangehörige_Gemeinde"},"district":{"key":"14521","name":"Erzgebirgskreis","type":"Landkreis"},"federalState":{"key":"14","name":"Sachsen"}},{"name":"Schulstr.","postalCode":"74706","locality":"Osterburken","municipality":{"key":"08225075","name":"Osterburken, Stadt","type":"Stadt"},"district":{"key":"08225","name":"Neckar-Odenwald-Kreis","type":"Landkreis"},"federalState":{"key":"08","name":"Baden-Württemberg"}},{"name":"Schulstr.","postalCode":"97705","locality":"Burkardroth","municipality":{"key":"09672117","name":"Burkardroth, M","type":"Markt"},"district":{"key":"09672","name":"Bad Kissingen","type":"Landkreis"},"federalState":{"key":"09","name":"Bayern"}},{"name":"Schützenstr.","postalCode":"97705","locality":"Burkardroth","municipality":{"key":"09672117","name":"Burkardroth, M","type":"Markt"},"district":{"key":"09672","name":"Bad Kissingen","type":"Landkreis"},"federalState":{"key":"09","name":"Bayern"}},{"name":"Schwanenstr.","postalCode":"74706","locality":"Osterburken","municipality":{"key":"08225075","name":"Osterburken, Stadt","type":"Stadt"},"district":{"key":"08225","name":"Neckar-Odenwald-Kreis","type":"Landkreis"},"federalState":{"key":"08","name":"Baden-Württemberg"}},{"name":"Seckacher Pfad","postalCode":"74706","locality":"Osterburken","municipality":{"key":"08225075","name":"Osterburken, Stadt","type":"Stadt"},"district":{"key":"08225","name":"Neckar-Odenwald-Kreis","type":"Landkreis"},"federalState":{"key":"08","name":"Baden-Württemberg"}},{"name":"Seckacher Str.","postalCode":"74706","locality":"Osterburken","municipality":{"key":"08225075","name":"Osterburken, Stadt","type":"Stadt"},"district":{"key":"08225","name":"Neckar-Odenwald-Kreis","type":"Landkreis"},"federalState":{"key":"08","name":"Baden-Württemberg"}},{"name":"Seebachstr.","postalCode":"97705","locality":"Burkardroth","municipality":{"key":"09672117","name":"Burkardroth, M","type":"Markt"},"district":{"key":"09672","name":"Bad Kissingen","type":"Landkreis"},"federalState":{"key":"09","name":"Bayern"}},{"name":"Seedammstr.","postalCode":"74706","locality":"Osterburken","municipality":{"key":"08225075","name":"Osterburken, Stadt","type":"Stadt"},"district":{"key":"08225","name":"Neckar-Odenwald-Kreis","type":"Landkreis"},"federalState":{"key":"08","name":"Baden-Württemberg"}},{"name":"Seeweg","postalCode":"97705","locality":"Burkardroth","municipality":{"key":"09672117","name":"Burkardroth, M","type":"Markt"},"district":{"key":"09672","name":"Bad Kissingen","type":"Landkreis"},"federalState":{"key":"09","name":"Bayern"}},{"name":"Seilerweg","postalCode":"09235","locality":"Burkhardtsdorf","municipality":{"key":"14521120","name":"Burkhardtsdorf","type":"Kreisangehörige_Gemeinde"},"district":{"key":"14521","name":"Erzgebirgskreis","type":"Landkreis"},"federalState":{"key":"14","name":"Sachsen"}},{"name":"Seitenweg","postalCode":"01906","locality":"Burkau","municipality":{"key":"14625060","name":"Burkau / Porchow","type":"Kreisangehörige_Gemeinde"},"district":{"key":"14625","name":"Bautzen","type":"Landkreis"},"federalState":{"key":"14","name":"Sachsen"}},{"name":"Selligweg","postalCode":"74706","locality":"Osterburken","municipality":{"key":"08225075","name":"Osterburken, Stadt","type":"Stadt"},"district":{"key":"08225","name":"Neckar-Odenwald-Kreis","type":"Landkreis"},"federalState":{"key":"08","name":"Baden-Württemberg"}},{"name":"Siebenlindenweg","postalCode":"74706","locality":"Osterburken","municipality":{"key":"08225075","name":"Osterburken, Stadt","type":"Stadt"},"district":{"key":"08225","name":"Neckar-Odenwald-Kreis","type":"Landkreis"},"federalState":{"key":"08","name":"Baden-Württemberg"}},{"name":"Siebnlindenweg","postalCode":"74706","locality":"Osterburken","municipality":{"key":"08225075","name":"Osterburken, Stadt","type":"Stadt"},"district":{"key":"08225","name":"Neckar-Odenwald-Kreis","type":"Landkreis"},"federalState":{"key":"08","name":"Baden-Württemberg"}},{"name":"Siedlung","postalCode":"01906","locality":"Burkau","municipality":{"key":"14625060","name":"Burkau / Porchow","type":"Kreisangehörige_Gemeinde"},"district":{"key":"14625","name":"Bautzen","type":"Landkreis"},"federalState":{"key":"14","name":"Sachsen"}},{"name":"Siedlung Neraditz","postalCode":"01906","locality":"Burkau","municipality":{"key":"14625060","name":"Burkau / Porchow","type":"Kreisangehörige_Gemeinde"},"district":{"key":"14625","name":"Bautzen","type":"Landkreis"},"federalState":{"key":"14","name":"Sachsen"}},{"name":"Siemensstr.","postalCode":"74706","locality":"Osterburken","municipality":{"key":"08225075","name":"Osterburken, Stadt","type":"Stadt"},"district":{"key":"08225","name":"Neckar-Odenwald-Kreis","type":"Landkreis"},"federalState":{"key":"08","name":"Baden-Württemberg"}},{"name":"Silberdistelweg","postalCode":"97705","locality":"Burkardroth","municipality":{"key":"09672117","name":"Burkardroth, M","type":"Markt"},"district":{"key":"09672","name":"Bad Kissingen","type":"Landkreis"},"federalState":{"key":"09","name":"Bayern"}},{"name":"Silcherstr.","postalCode":"74706","locality":"Osterburken","municipality":{"key":"08225075","name":"Osterburken, Stadt","type":"Stadt"},"district":{"key":"08225","name":"Neckar-Odenwald-Kreis","type":"Landkreis"},"federalState":{"key":"08","name":"Baden-Württemberg"}},{"name":"Sindolsheimer Str.","postalCode":"74706","locality":"Osterburken","municipality":{"key":"08225075","name":"Osterburken, Stadt","type":"Stadt"},"district":{"key":"08225","name":"Neckar-Odenwald-Kreis","type":"Landkreis"},"federalState":{"key":"08","name":"Baden-Württemberg"}},{"name":"Sommerbuckelweg","postalCode":"74706","locality":"Osterburken","municipality":{"key":"08225075","name":"Osterburken, Stadt","type":"Stadt"},"district":{"key":"08225","name":"Neckar-Odenwald-Kreis","type":"Landkreis"},"federalState":{"key":"08","name":"Baden-Württemberg"}},{"name":"Sommerleite","postalCode":"09235","locality":"Burkhardtsdorf","municipality":{"key":"14521120","name":"Burkhardtsdorf","type":"Kreisangehörige_Gemeinde"},"district":{"key":"14521","name":"Erzgebirgskreis","type":"Landkreis"},"federalState":{"key":"14","name":"Sachsen"}},{"name":"Sonneneck","postalCode":"97705","locality":"Burkardroth","municipality":{"key":"09672117","name":"Burkardroth, M","type":"Markt"},"district":{"key":"09672","name":"Bad Kissingen","type":"Landkreis"},"federalState":{"key":"09","name":"Bayern"}},{"name":"Sonnenhalde","postalCode":"74706","locality":"Osterburken","municipality":{"key":"08225075","name":"Osterburken, Stadt","type":"Stadt"},"district":{"key":"08225","name":"Neckar-Odenwald-Kreis","type":"Landkreis"},"federalState":{"key":"08","name":"Baden-Württemberg"}},{"name":"Sonnenleite","postalCode":"97705","locality":"Burkardroth","municipality":{"key":"09672117","name":"Burkardroth, M","type":"Markt"},"district":{"key":"09672","name":"Bad Kissingen","type":"Landkreis"},"federalState":{"key":"09","name":"Bayern"}},{"name":"Sonnenstr.","postalCode":"09235","locality":"Burkhardtsdorf","municipality":{"key":"14521120","name":"Burkhardtsdorf","type":"Kreisangehörige_Gemeinde"},"district":{"key":"14521","name":"Erzgebirgskreis","type":"Landkreis"},"federalState":{"key":"14","name":"Sachsen"}},{"name":"Sportplatzstr.","postalCode":"01906","locality":"Burkau","municipality":{"key":"14625060","name":"Burkau / Porchow","type":"Kreisangehörige_Gemeinde"},"district":{"key":"14625","name":"Bautzen","type":"Landkreis"},"federalState":{"key":"14","name":"Sachsen"}},{"name":"Sportplatzweg","postalCode":"74706","locality":"Osterburken","municipality":{"key":"08225075","name":"Osterburken, Stadt","type":"Stadt"},"district":{"key":"08225","name":"Neckar-Odenwald-Kreis","type":"Landkreis"},"federalState":{"key":"08","name":"Baden-Württemberg"}},{"name":"Stadtgarten","postalCode":"74706","locality":"Osterburken","municipality":{"key":"08225075","name":"Osterburken, Stadt","type":"Stadt"},"district":{"key":"08225","name":"Neckar-Odenwald-Kreis","type":"Landkreis"},"federalState":{"key":"08","name":"Baden-Württemberg"}},{"name":"St.-Antonius-Str.","postalCode":"97705","locality":"Burkardroth","municipality":{"key":"09672117","name":"Burkardroth, M","type":"Markt"},"district":{"key":"09672","name":"Bad Kissingen","type":"Landkreis"},"federalState":{"key":"09","name":"Bayern"}},{"name":"Stationsweg","postalCode":"97705","locality":"Burkardroth","municipality":{"key":"09672117","name":"Burkardroth, M","type":"Markt"},"district":{"key":"09672","name":"Bad Kissingen","type":"Landkreis"},"federalState":{"key":"09","name":"Bayern"}},{"name":"Steinbergstr.","postalCode":"97705","locality":"Burkardroth","municipality":{"key":"09672117","name":"Burkardroth, M","type":"Markt"},"district":{"key":"09672","name":"Bad Kissingen","type":"Landkreis"},"federalState":{"key":"09","name":"Bayern"}},{"name":"Talblick","postalCode":"97705","locality":"Burkardroth","municipality":{"key":"09672117","name":"Burkardroth, M","type":"Markt"},"district":{"key":"09672","name":"Bad Kissingen","type":"Landkreis"},"federalState":{"key":"09","name":"Bayern"}},{"name":"Talstr.","postalCode":"09235","locality":"Burkhardtsdorf","municipality":{"key":"14521120","name":"Burkhardtsdorf","type":"Kreisangehörige_Gemeinde"},"district":{"key":"14521","name":"Erzgebirgskreis","type":"Landkreis"},"federalState":{"key":"14","name":"Sachsen"}},{"name":"Talweg","postalCode":"74706","locality":"Osterburken","municipality":{"key":"08225075","name":"Osterburken, Stadt","type":"Stadt"},"district":{"key":"08225","name":"Neckar-Odenwald-Kreis","type":"Landkreis"},"federalState":{"key":"08","name":"Baden-Württemberg"}},{"name":"Tannenbuckelweg","postalCode":"74706","locality":"Osterburken","municipality":{"key":"08225075","name":"Osterburken, Stadt","type":"Stadt"},"district":{"key":"08225","name":"Neckar-Odenwald-Kreis","type":"Landkreis"},"federalState":{"key":"08","name":"Baden-Württemberg"}},{"name":"Tannenweg","postalCode":"74706","locality":"Osterburken","municipality":{"key":"08225075","name":"Osterburken, Stadt","type":"Stadt"},"district":{"key":"08225","name":"Neckar-Odenwald-Kreis","type":"Landkreis"},"federalState":{"key":"08","name":"Baden-Württemberg"}},{"name":"Tannenweg","postalCode":"97705","locality":"Burkardroth","municipality":{"key":"09672117","name":"Burkardroth, M","type":"Markt"},"district":{"key":"09672","name":"Bad Kissingen","type":"Landkreis"},"federalState":{"key":"09","name":"Bayern"}},{"name":"Taucherwaldstr.","postalCode":"01906","locality":"Burkau","municipality":{"key":"14625060","name":"Burkau / Porchow","type":"Kreisangehörige_Gemeinde"},"district":{"key":"14625","name":"Bautzen","type":"Landkreis"},"federalState":{"key":"14","name":"Sachsen"}},{"name":"Teichstr.","postalCode":"97705","locality":"Burkardroth","municipality":{"key":"09672117","name":"Burkardroth, M","type":"Markt"},"district":{"key":"09672","name":"Bad Kissingen","type":"Landkreis"},"federalState":{"key":"09","name":"Bayern"}},{"name":"Teichweg","postalCode":"09235","locality":"Burkhardtsdorf","municipality":{"key":"14521120","name":"Burkhardtsdorf","type":"Kreisangehörige_Gemeinde"},"district":{"key":"14521","name":"Erzgebirgskreis","type":"Landkreis"},"federalState":{"key":"14","name":"Sachsen"}},{"name":"Topfmarkt","postalCode":"09235","locality":"Burkhardtsdorf","municipality":{"key":"14521120","name":"Burkhardtsdorf","type":"Kreisangehörige_Gemeinde"},"district":{"key":"14521","name":"Erzgebirgskreis","type":"Landkreis"},"federalState":{"key":"14","name":"Sachsen"}},{"name":"Totnansweg","postalCode":"97705","locality":"Burkardroth","municipality":{"key":"09672117","name":"Burkardroth, M","type":"Markt"},"district":{"key":"09672","name":"Bad Kissingen","type":"Landkreis"},"federalState":{"key":"09","name":"Bayern"}},{"name":"Tränkweg","postalCode":"97705","locality":"Burkardroth","municipality":{"key":"09672117","name":"Burkardroth, M","type":"Markt"},"district":{"key":"09672","name":"Bad Kissingen","type":"Landkreis"},"federalState":{"key":"09","name":"Bayern"}},{"name":"Tulpenweg","postalCode":"97705","locality":"Burkardroth","municipality":{"key":"09672117","name":"Burkardroth, M","type":"Markt"},"district":{"key":"09672","name":"Bad Kissingen","type":"Landkreis"},"federalState":{"key":"09","name":"Bayern"}},{"name":"Turmstr.","postalCode":"74706","locality":"Osterburken","municipality":{"key":"08225075","name":"Osterburken, Stadt","type":"Stadt"},"district":{"key":"08225","name":"Neckar-Odenwald-Kreis","type":"Landkreis"},"federalState":{"key":"08","name":"Baden-Württemberg"}},{"name":"Turmweg","postalCode":"74706","locality":"Osterburken","municipality":{"key":"08225075","name":"Osterburken, Stadt","type":"Stadt"},"district":{"key":"08225","name":"Neckar-Odenwald-Kreis","type":"Landkreis"},"federalState":{"key":"08","name":"Baden-Württemberg"}},{"name":"Turnstr.","postalCode":"09235","locality":"Burkhardtsdorf","municipality":{"key":"14521120","name":"Burkhardtsdorf","type":"Kreisangehörige_Gemeinde"},"district":{"key":"14521","name":"Erzgebirgskreis","type":"Landkreis"},"federalState":{"key":"14","name":"Sachsen"}},{"name":"Uferstr.","postalCode":"09235","locality":"Burkhardtsdorf","municipality":{"key":"14521120","name":"Burkhardtsdorf","type":"Kreisangehörige_Gemeinde"},"district":{"key":"14521","name":"Erzgebirgskreis","type":"Landkreis"},"federalState":{"key":"14","name":"Sachsen"}},{"name":"Uhyster Hauptweg","postalCode":"01906","locality":"Burkau","municipality":{"key":"14625060","name":"Burkau / Porchow","type":"Kreisangehörige_Gemeinde"},"district":{"key":"14625","name":"Bautzen","type":"Landkreis"},"federalState":{"key":"14","name":"Sachsen"}},{"name":"Uhyster Str.","postalCode":"01906","locality":"Burkau","municipality":{"key":"14625060","name":"Burkau / Porchow","type":"Kreisangehörige_Gemeinde"},"district":{"key":"14625","name":"Bautzen","type":"Landkreis"},"federalState":{"key":"14","name":"Sachsen"}},{"name":"Untere Hauptstr.","postalCode":"09235","locality":"Burkhardtsdorf","municipality":{"key":"14521120","name":"Burkhardtsdorf","type":"Kreisangehörige_Gemeinde"},"district":{"key":"14521","name":"Erzgebirgskreis","type":"Landkreis"},"federalState":{"key":"14","name":"Sachsen"}},{"name":"Untere Marktstr.","postalCode":"97705","locality":"Burkardroth","municipality":{"key":"09672117","name":"Burkardroth, M","type":"Markt"},"district":{"key":"09672","name":"Bad Kissingen","type":"Landkreis"},"federalState":{"key":"09","name":"Bayern"}},{"name":"Unterer Kirchberg","postalCode":"74706","locality":"Osterburken","municipality":{"key":"08225075","name":"Osterburken, Stadt","type":"Stadt"},"district":{"key":"08225","name":"Neckar-Odenwald-Kreis","type":"Landkreis"},"federalState":{"key":"08","name":"Baden-Württemberg"}},{"name":"Unterer Spiesslingweg","postalCode":"74706","locality":"Osterburken","municipality":{"key":"08225075","name":"Osterburken, Stadt","type":"Stadt"},"district":{"key":"08225","name":"Neckar-Odenwald-Kreis","type":"Landkreis"},"federalState":{"key":"08","name":"Baden-Württemberg"}},{"name":"Unterturzer Weg","postalCode":"74706","locality":"Osterburken","municipality":{"key":"08225075","name":"Osterburken, Stadt","type":"Stadt"},"district":{"key":"08225","name":"Neckar-Odenwald-Kreis","type":"Landkreis"},"federalState":{"key":"08","name":"Baden-Württemberg"}},{"name":"Vennstr.","postalCode":"97705","locality":"Burkardroth","municipality":{"key":"09672117","name":"Burkardroth, M","type":"Markt"},"district":{"key":"09672","name":"Bad Kissingen","type":"Landkreis"},"federalState":{"key":"09","name":"Bayern"}},{"name":"Viehweg","postalCode":"74706","locality":"Osterburken","municipality":{"key":"08225075","name":"Osterburken, Stadt","type":"Stadt"},"district":{"key":"08225","name":"Neckar-Odenwald-Kreis","type":"Landkreis"},"federalState":{"key":"08","name":"Baden-Württemberg"}},{"name":"Vogelherd","postalCode":"74706","locality":"Osterburken","municipality":{"key":"08225075","name":"Osterburken, Stadt","type":"Stadt"},"district":{"key":"08225","name":"Neckar-Odenwald-Kreis","type":"Landkreis"},"federalState":{"key":"08","name":"Baden-Württemberg"}},{"name":"Volllochweg","postalCode":"74706","locality":"Osterburken","municipality":{"key":"08225075","name":"Osterburken, Stadt","type":"Stadt"},"district":{"key":"08225","name":"Neckar-Odenwald-Kreis","type":"Landkreis"},"federalState":{"key":"08","name":"Baden-Württemberg"}},{"name":"Von-Fechenbach-Str.","postalCode":"97705","locality":"Burkardroth","municipality":{"key":"09672117","name":"Burkardroth, M","type":"Markt"},"district":{"key":"09672","name":"Bad Kissingen","type":"Landkreis"},"federalState":{"key":"09","name":"Bayern"}},{"name":"Von-Henneberg-Str.","postalCode":"97705","locality":"Burkardroth","municipality":{"key":"09672117","name":"Burkardroth, M","type":"Markt"},"district":{"key":"09672","name":"Bad Kissingen","type":"Landkreis"},"federalState":{"key":"09","name":"Bayern"}},{"name":"Waizendorfer Str.","postalCode":"91596","locality":"Burk","municipality":{"key":"09571128","name":"Burk","type":"Kreisangehörige_Gemeinde"},"district":{"key":"09571","name":"Ansbach","type":"Landkreis"},"federalState":{"key":"09","name":"Bayern"}},{"name":"Waldberger Str.","postalCode":"97705","locality":"Burkardroth","municipality":{"key":"09672117","name":"Burkardroth, M","type":"Markt"},"district":{"key":"09672","name":"Bad Kissingen","type":"Landkreis"},"federalState":{"key":"09","name":"Bayern"}},{"name":"Waldfriedhof","postalCode":"74706","locality":"Osterburken","municipality":{"key":"08225075","name":"Osterburken, Stadt","type":"Stadt"},"district":{"key":"08225","name":"Neckar-Odenwald-Kreis","type":"Landkreis"},"federalState":{"key":"08","name":"Baden-Württemberg"}},{"name":"Waldlaufpfad","postalCode":"74706","locality":"Osterburken","municipality":{"key":"08225075","name":"Osterburken, Stadt","type":"Stadt"},"district":{"key":"08225","name":"Neckar-Odenwald-Kreis","type":"Landkreis"},"federalState":{"key":"08","name":"Baden-Württemberg"}},{"name":"Waldmannsgasse","postalCode":"97705","locality":"Burkardroth","municipality":{"key":"09672117","name":"Burkardroth, M","type":"Markt"},"district":{"key":"09672","name":"Bad Kissingen","type":"Landkreis"},"federalState":{"key":"09","name":"Bayern"}},{"name":"Waldstr.","postalCode":"09235","locality":"Burkhardtsdorf","municipality":{"key":"14521120","name":"Burkhardtsdorf","type":"Kreisangehörige_Gemeinde"},"district":{"key":"14521","name":"Erzgebirgskreis","type":"Landkreis"},"federalState":{"key":"14","name":"Sachsen"}},{"name":"Waldstr.","postalCode":"74706","locality":"Osterburken","municipality":{"key":"08225075","name":"Osterburken, Stadt","type":"Stadt"},"district":{"key":"08225","name":"Neckar-Odenwald-Kreis","type":"Landkreis"},"federalState":{"key":"08","name":"Baden-Württemberg"}},{"name":"Waldstr.","postalCode":"97705","locality":"Burkardroth","municipality":{"key":"09672117","name":"Burkardroth, M","type":"Markt"},"district":{"key":"09672","name":"Bad Kissingen","type":"Landkreis"},"federalState":{"key":"09","name":"Bayern"}},{"name":"Waldweg","postalCode":"09235","locality":"Burkhardtsdorf","municipality":{"key":"14521120","name":"Burkhardtsdorf","type":"Kreisangehörige_Gemeinde"},"district":{"key":"14521","name":"Erzgebirgskreis","type":"Landkreis"},"federalState":{"key":"14","name":"Sachsen"}},{"name":"Wannestr.","postalCode":"74706","locality":"Osterburken","municipality":{"key":"08225075","name":"Osterburken, Stadt","type":"Stadt"},"district":{"key":"08225","name":"Neckar-Odenwald-Kreis","type":"Landkreis"},"federalState":{"key":"08","name":"Baden-Württemberg"}},{"name":"Weiherstr.","postalCode":"97705","locality":"Burkardroth","municipality":{"key":"09672117","name":"Burkardroth, M","type":"Markt"},"district":{"key":"09672","name":"Bad Kissingen","type":"Landkreis"},"federalState":{"key":"09","name":"Bayern"}},{"name":"Weinbergstr.","postalCode":"97705","locality":"Burkardroth","municipality":{"key":"09672117","name":"Burkardroth, M","type":"Markt"},"district":{"key":"09672","name":"Bad Kissingen","type":"Landkreis"},"federalState":{"key":"09","name":"Bayern"}},{"name":"Weindorfer Weg","postalCode":"74706","locality":"Osterburken","municipality":{"key":"08225075","name":"Osterburken, Stadt","type":"Stadt"},"district":{"key":"08225","name":"Neckar-Odenwald-Kreis","type":"Landkreis"},"federalState":{"key":"08","name":"Baden-Württemberg"}},{"name":"Weißbacher Str.","postalCode":"09235","locality":"Burkhardtsdorf","municipality":{"key":"14521120","name":"Burkhardtsdorf","type":"Kreisangehörige_Gemeinde"},"district":{"key":"14521","name":"Erzgebirgskreis","type":"Landkreis"},"federalState":{"key":"14","name":"Sachsen"}},{"name":"Weizäcker","postalCode":"97705","locality":"Burkardroth","municipality":{"key":"09672117","name":"Burkardroth, M","type":"Markt"},"district":{"key":"09672","name":"Bad Kissingen","type":"Landkreis"},"federalState":{"key":"09","name":"Bayern"}},{"name":"Wemmershöfer Str.","postalCode":"74706","locality":"Osterburken","municipality":{"key":"08225075","name":"Osterburken, Stadt","type":"Stadt"},"district":{"key":"08225","name":"Neckar-Odenwald-Kreis","type":"Landkreis"},"federalState":{"key":"08","name":"Baden-Württemberg"}},{"name":"Wengertstr.","postalCode":"97705","locality":"Burkardroth","municipality":{"key":"09672117","name":"Burkardroth, M","type":"Markt"},"district":{"key":"09672","name":"Bad Kissingen","type":"Landkreis"},"federalState":{"key":"09","name":"Bayern"}},{"name":"Wiesengrund","postalCode":"09235","locality":"Burkhardtsdorf","municipality":{"key":"14521120","name":"Burkhardtsdorf","type":"Kreisangehörige_Gemeinde"},"district":{"key":"14521","name":"Erzgebirgskreis","type":"Landkreis"},"federalState":{"key":"14","name":"Sachsen"}},{"name":"Wiesentalgrasweg","postalCode":"74706","locality":"Osterburken","municipality":{"key":"08225075","name":"Osterburken, Stadt","type":"Stadt"},"district":{"key":"08225","name":"Neckar-Odenwald-Kreis","type":"Landkreis"},"federalState":{"key":"08","name":"Baden-Württemberg"}},{"name":"Wiesenweg","postalCode":"01906","locality":"Burkau","municipality":{"key":"14625060","name":"Burkau / Porchow","type":"Kreisangehörige_Gemeinde"},"district":{"key":"14625","name":"Bautzen","type":"Landkreis"},"federalState":{"key":"14","name":"Sachsen"}},{"name":"Wiesenweg","postalCode":"09235","locality":"Burkhardtsdorf","municipality":{"key":"14521120","name":"Burkhardtsdorf","type":"Kreisangehörige_Gemeinde"},"district":{"key":"14521","name":"Erzgebirgskreis","type":"Landkreis"},"federalState":{"key":"14","name":"Sachsen"}},{"name":"Wiesenweg","postalCode":"97705","locality":"Burkardroth","municipality":{"key":"09672117","name":"Burkardroth, M","type":"Markt"},"district":{"key":"09672","name":"Bad Kissingen","type":"Landkreis"},"federalState":{"key":"09","name":"Bayern"}},{"name":"Wiesether Str.","postalCode":"91596","locality":"Burk","municipality":{"key":"09571128","name":"Burk","type":"Kreisangehörige_Gemeinde"},"district":{"key":"09571","name":"Ansbach","type":"Landkreis"},"federalState":{"key":"09","name":"Bayern"}},{"name":"Wilhelmistr.","postalCode":"74706","locality":"Osterburken","municipality":{"key":"08225075","name":"Osterburken, Stadt","type":"Stadt"},"district":{"key":"08225","name":"Neckar-Odenwald-Kreis","type":"Landkreis"},"federalState":{"key":"08","name":"Baden-Württemberg"}},{"name":"Wilhelm-Pfoh-Str.","postalCode":"74706","locality":"Osterburken","municipality":{"key":"08225075","name":"Osterburken, Stadt","type":"Stadt"},"district":{"key":"08225","name":"Neckar-Odenwald-Kreis","type":"Landkreis"},"federalState":{"key":"08","name":"Baden-Württemberg"}},{"name":"Winkel","postalCode":"09235","locality":"Burkhardtsdorf","municipality":{"key":"14521120","name":"Burkhardtsdorf","type":"Kreisangehörige_Gemeinde"},"district":{"key":"14521","name":"Erzgebirgskreis","type":"Landkreis"},"federalState":{"key":"14","name":"Sachsen"}},{"name":"Wolfshecke","postalCode":"97705","locality":"Burkardroth","municipality":{"key":"09672117","name":"Burkardroth, M","type":"Markt"},"district":{"key":"09672","name":"Bad Kissingen","type":"Landkreis"},"federalState":{"key":"09","name":"Bayern"}},{"name":"Wollbacher Str.","postalCode":"97705","locality":"Burkardroth","municipality":{"key":"09672117","name":"Burkardroth, M","type":"Markt"},"district":{"key":"09672","name":"Bad Kissingen","type":"Landkreis"},"federalState":{"key":"09","name":"Bayern"}},{"name":"Wüsteweg","postalCode":"09235","locality":"Burkhardtsdorf","municipality":{"key":"14521120","name":"Burkhardtsdorf","type":"Kreisangehörige_Gemeinde"},"district":{"key":"14521","name":"Erzgebirgskreis","type":"Landkreis"},"federalState":{"key":"14","name":"Sachsen"}},{"name":"Zeilacker","postalCode":"97705","locality":"Burkardroth","municipality":{"key":"09672117","name":"Burkardroth, M","type":"Markt"},"district":{"key":"09672","name":"Bad Kissingen","type":"Landkreis"},"federalState":{"key":"09","name":"Bayern"}},{"name":"Zeile","postalCode":"09235","locality":"Burkhardtsdorf","municipality":{"key":"14521120","name":"Burkhardtsdorf","type":"Kreisangehörige_Gemeinde"},"district":{"key":"14521","name":"Erzgebirgskreis","type":"Landkreis"},"federalState":{"key":"14","name":"Sachsen"}},{"name":"Zeisigwinkel","postalCode":"09235","locality":"Burkhardtsdorf","municipality":{"key":"14521120","name":"Burkhardtsdorf","type":"Kreisangehörige_Gemeinde"},"district":{"key":"14521","name":"Erzgebirgskreis","type":"Landkreis"},"federalState":{"key":"14","name":"Sachsen"}},{"name":"Ziegelwiese","postalCode":"97705","locality":"Burkardroth","municipality":{"key":"09672117","name":"Burkardroth, M","type":"Markt"},"district":{"key":"09672","name":"Bad Kissingen","type":"Landkreis"},"federalState":{"key":"09","name":"Bayern"}},{"name":"Zöpfelsteig","postalCode":"09235","locality":"Burkhardtsdorf","municipality":{"key":"14521120","name":"Burkhardtsdorf","type":"Kreisangehörige_Gemeinde"},"district":{"key":"14521","name":"Erzgebirgskreis","type":"Landkreis"},"federalState":{"key":"14","name":"Sachsen"}},{"name":"Zum Eichenbrunnen","postalCode":"97705","locality":"Burkardroth","municipality":{"key":"09672117","name":"Burkardroth, M","type":"Markt"},"district":{"key":"09672","name":"Bad Kissingen","type":"Landkreis"},"federalState":{"key":"09","name":"Bayern"}},{"name":"Zum Förstlein","postalCode":"74706","locality":"Osterburken","municipality":{"key":"08225075","name":"Osterburken, Stadt","type":"Stadt"},"district":{"key":"08225","name":"Neckar-Odenwald-Kreis","type":"Landkreis"},"federalState":{"key":"08","name":"Baden-Württemberg"}},{"name":"Zum Grohberg","postalCode":"97705","locality":"Burkardroth","municipality":{"key":"09672117","name":"Burkardroth, M","type":"Markt"},"district":{"key":"09672","name":"Bad Kissingen","type":"Landkreis"},"federalState":{"key":"09","name":"Bayern"}},{"name":"Zum Jägerbrunnen","postalCode":"97705","locality":"Burkardroth","municipality":{"key":"09672117","name":"Burkardroth, M","type":"Markt"},"district":{"key":"09672","name":"Bad Kissingen","type":"Landkreis"},"federalState":{"key":"09","name":"Bayern"}},{"name":"Zum Lärcheneck","postalCode":"97705","locality":"Burkardroth","municipality":{"key":"09672117","name":"Burkardroth, M","type":"Markt"},"district":{"key":"09672","name":"Bad Kissingen","type":"Landkreis"},"federalState":{"key":"09","name":"Bayern"}},{"name":"Zum Lautergrund","postalCode":"97705","locality":"Burkardroth","municipality":{"key":"09672117","name":"Burkardroth, M","type":"Markt"},"district":{"key":"09672","name":"Bad Kissingen","type":"Landkreis"},"federalState":{"key":"09","name":"Bayern"}},{"name":"Zum Lautsbach","postalCode":"97705","locality":"Burkardroth","municipality":{"key":"09672117","name":"Burkardroth, M","type":"Markt"},"district":{"key":"09672","name":"Bad Kissingen","type":"Landkreis"},"federalState":{"key":"09","name":"Bayern"}},{"name":"Zum Moosfirst","postalCode":"97705","locality":"Burkardroth","municipality":{"key":"09672117","name":"Burkardroth, M","type":"Markt"},"district":{"key":"09672","name":"Bad Kissingen","type":"Landkreis"},"federalState":{"key":"09","name":"Bayern"}},{"name":"Zum Mühlengrund","postalCode":"97705","locality":"Burkardroth","municipality":{"key":"09672117","name":"Burkardroth, M","type":"Markt"},"district":{"key":"09672","name":"Bad Kissingen","type":"Landkreis"},"federalState":{"key":"09","name":"Bayern"}},{"name":"Zum Ruhbrunnen","postalCode":"97705","locality":"Burkardroth","municipality":{"key":"09672117","name":"Burkardroth, M","type":"Markt"},"district":{"key":"09672","name":"Bad Kissingen","type":"Landkreis"},"federalState":{"key":"09","name":"Bayern"}},{"name":"Zum Schusterwald","postalCode":"97705","locality":"Burkardroth","municipality":{"key":"09672117","name":"Burkardroth, M","type":"Markt"},"district":{"key":"09672","name":"Bad Kissingen","type":"Landkreis"},"federalState":{"key":"09","name":"Bayern"}},{"name":"Zum Tiefenweg","postalCode":"97705","locality":"Burkardroth","municipality":{"key":"09672117","name":"Burkardroth, M","type":"Markt"},"district":{"key":"09672","name":"Bad Kissingen","type":"Landkreis"},"federalState":{"key":"09","name":"Bayern"}},{"name":"Zum Wiesengrund","postalCode":"97705","locality":"Burkardroth","municipality":{"key":"09672117","name":"Burkardroth, M","type":"Markt"},"district":{"key":"09672","name":"Bad Kissingen","type":"Landkreis"},"federalState":{"key":"09","name":"Bayern"}},{"name":"Zur Aschachquelle","postalCode":"97705","locality":"Burkardroth","municipality":{"key":"09672117","name":"Burkardroth, M","type":"Markt"},"district":{"key":"09672","name":"Bad Kissingen","type":"Landkreis"},"federalState":{"key":"09","name":"Bayern"}},{"name":"Zur Bergkirche","postalCode":"97705","locality":"Burkardroth","municipality":{"key":"09672117","name":"Burkardroth, M","type":"Markt"},"district":{"key":"09672","name":"Bad Kissingen","type":"Landkreis"},"federalState":{"key":"09","name":"Bayern"}},{"name":"Zur Feldswiese","postalCode":"97705","locality":"Burkardroth","municipality":{"key":"09672117","name":"Burkardroth, M","type":"Markt"},"district":{"key":"09672","name":"Bad Kissingen","type":"Landkreis"},"federalState":{"key":"09","name":"Bayern"}},{"name":"Zur Flinsbrücke","postalCode":"91596","locality":"Burk","municipality":{"key":"09571128","name":"Burk","type":"Kreisangehörige_Gemeinde"},"district":{"key":"09571","name":"Ansbach","type":"Landkreis"},"federalState":{"key":"09","name":"Bayern"}},{"name":"Zur Hauptstr.","postalCode":"01906","locality":"Burkau","municipality":{"key":"14625060","name":"Burkau / Porchow","type":"Kreisangehörige_Gemeinde"},"district":{"key":"14625","name":"Bautzen","type":"Landkreis"},"federalState":{"key":"14","name":"Sachsen"}},{"name":"Zur Melchersmühle","postalCode":"97705","locality":"Burkardroth","municipality":{"key":"09672117","name":"Burkardroth, M","type":"Markt"},"district":{"key":"09672","name":"Bad Kissingen","type":"Landkreis"},"federalState":{"key":"09","name":"Bayern"}},{"name":"Zur Schustermühle","postalCode":"97705","locality":"Burkardroth","municipality":{"key":"09672117","name":"Burkardroth, M","type":"Markt"},"district":{"key":"09672","name":"Bad Kissingen","type":"Landkreis"},"federalState":{"key":"09","name":"Bayern"}},{"name":"Zur Walkmühle","postalCode":"97705","locality":"Burkardroth","municipality":{"key":"09672117","name":"Burkardroth, M","type":"Markt"},"district":{"key":"09672","name":"Bad Kissingen","type":"Landkreis"},"federalState":{"key":"09","name":"Bayern"}},{"name":"Zwönitztalstr.","postalCode":"09235","locality":"Burkhardtsdorf","municipality":{"key":"14521120","name":"Burkhardtsdorf","type":"Kreisangehörige_Gemeinde"},"district":{"key":"14521","name":"Erzgebirgskreis","type":"Landkreis"},"federalState":{"key":"14","name":"Sachsen"}},{"name":"Zwönitztalweg","postalCode":"09235","locality":"Burkhardtsdorf","municipality":{"key":"14521120","name":"Burkhardtsdorf","type":"Kreisangehörige_Gemeinde"},"district":{"key":"14521","name":"Erzgebirgskreis","type":"Landkreis"},"federalState":{"key":"14","name":"Sachsen"}},{"name":"Äckerleinsweg","postalCode":"97705","locality":"Burkardroth","municipality":{"key":"09672117","name":"Burkardroth, M","type":"Markt"},"district":{"key":"09672","name":"Bad Kissingen","type":"Landkreis"},"federalState":{"key":"09","name":"Bayern"}},]