[{"name":"An der Ziegelei","postalCode":"24796","locality":"Bredenbek","municipality":{"key":"01058028","name":"Bredenbek","type":"Kreisangehörige_Gemeinde"},"district":{"key":"01058","name":"Rendsburg-Eckernförde","type":"Kreis"},"federalState":{"key":"01","name":"Schleswig-Holstein"}},{"name":"Birkenweg","postalCode":"24796","locality":"Bredenbek","municipality":{"key":"01058028","name":"Bredenbek","type":"Kreisangehörige_Gemeinde"},"district":{"key":"01058","name":"Rendsburg-Eckernförde","type":"Kreis"},"federalState":{"key":"01","name":"Schleswig-Holstein"}},{"name":"Brandshagener Weg","postalCode":"24796","locality":"Bredenbek","municipality":{"key":"01058028","name":"Bredenbek","type":"Kreisangehörige_Gemeinde"},"district":{"key":"01058","name":"Rendsburg-Eckernförde","type":"Kreis"},"federalState":{"key":"01","name":"Schleswig-Holstein"}},{"name":"Erlenbruch","postalCode":"24796","locality":"Bredenbek","municipality":{"key":"01058028","name":"Bredenbek","type":"Kreisangehörige_Gemeinde"},"district":{"key":"01058","name":"Rendsburg-Eckernförde","type":"Kreis"},"federalState":{"key":"01","name":"Schleswig-Holstein"}},{"name":"Gartenkoppel","postalCode":"24796","locality":"Bredenbek","municipality":{"key":"01058028","name":"Bredenbek","type":"Kreisangehörige_Gemeinde"},"district":{"key":"01058","name":"Rendsburg-Eckernförde","type":"Kreis"},"federalState":{"key":"01","name":"Schleswig-Holstein"}},{"name":"Heidberg","postalCode":"24796","locality":"Bredenbek","municipality":{"key":"01058028","name":"Bredenbek","type":"Kreisangehörige_Gemeinde"},"district":{"key":"01058","name":"Rendsburg-Eckernförde","type":"Kreis"},"federalState":{"key":"01","name":"Schleswig-Holstein"}},{"name":"Jasminweg","postalCode":"24796","locality":"Bredenbek","municipality":{"key":"01058028","name":"Bredenbek","type":"Kreisangehörige_Gemeinde"},"district":{"key":"01058","name":"Rendsburg-Eckernförde","type":"Kreis"},"federalState":{"key":"01","name":"Schleswig-Holstein"}},{"name":"Katzheide","postalCode":"24796","locality":"Bredenbek","municipality":{"key":"01058028","name":"Bredenbek","type":"Kreisangehörige_Gemeinde"},"district":{"key":"01058","name":"Rendsburg-Eckernförde","type":"Kreis"},"federalState":{"key":"01","name":"Schleswig-Holstein"}},{"name":"Kieler Str.","postalCode":"24796","locality":"Bredenbek","municipality":{"key":"01058028","name":"Bredenbek","type":"Kreisangehörige_Gemeinde"},"district":{"key":"01058","name":"Rendsburg-Eckernförde","type":"Kreis"},"federalState":{"key":"01","name":"Schleswig-Holstein"}},{"name":"Koppel der Künste","postalCode":"24796","locality":"Bredenbek","municipality":{"key":"01058028","name":"Bredenbek","type":"Kreisangehörige_Gemeinde"},"district":{"key":"01058","name":"Rendsburg-Eckernförde","type":"Kreis"},"federalState":{"key":"01","name":"Schleswig-Holstein"}},{"name":"Kronsburger Redder","postalCode":"24796","locality":"Bredenbek","municipality":{"key":"01058028","name":"Bredenbek","type":"Kreisangehörige_Gemeinde"},"district":{"key":"01058","name":"Rendsburg-Eckernförde","type":"Kreis"},"federalState":{"key":"01","name":"Schleswig-Holstein"}},{"name":"Kronsburg-Glinde","postalCode":"24796","locality":"Bredenbek","municipality":{"key":"01058028","name":"Bredenbek","type":"Kreisangehörige_Gemeinde"},"district":{"key":"01058","name":"Rendsburg-Eckernförde","type":"Kreis"},"federalState":{"key":"01","name":"Schleswig-Holstein"}},{"name":"Kronsfelde","postalCode":"24796","locality":"Bredenbek","municipality":{"key":"01058028","name":"Bredenbek","type":"Kreisangehörige_Gemeinde"},"district":{"key":"01058","name":"Rendsburg-Eckernförde","type":"Kreis"},"federalState":{"key":"01","name":"Schleswig-Holstein"}},{"name":"Lehmkoppel","postalCode":"24796","locality":"Bredenbek","municipality":{"key":"01058028","name":"Bredenbek","type":"Kreisangehörige_Gemeinde"},"district":{"key":"01058","name":"Rendsburg-Eckernförde","type":"Kreis"},"federalState":{"key":"01","name":"Schleswig-Holstein"}},{"name":"Lehmkuhle","postalCode":"24796","locality":"Bredenbek","municipality":{"key":"01058028","name":"Bredenbek","type":"Kreisangehörige_Gemeinde"},"district":{"key":"01058","name":"Rendsburg-Eckernförde","type":"Kreis"},"federalState":{"key":"01","name":"Schleswig-Holstein"}},{"name":"Lindenweg","postalCode":"24796","locality":"Bredenbek","municipality":{"key":"01058028","name":"Bredenbek","type":"Kreisangehörige_Gemeinde"},"district":{"key":"01058","name":"Rendsburg-Eckernförde","type":"Kreis"},"federalState":{"key":"01","name":"Schleswig-Holstein"}},{"name":"Mühlenkamp","postalCode":"24796","locality":"Bredenbek","municipality":{"key":"01058028","name":"Bredenbek","type":"Kreisangehörige_Gemeinde"},"district":{"key":"01058","name":"Rendsburg-Eckernförde","type":"Kreis"},"federalState":{"key":"01","name":"Schleswig-Holstein"}},{"name":"Mühlenweg","postalCode":"24796","locality":"Bredenbek","municipality":{"key":"01058028","name":"Bredenbek","type":"Kreisangehörige_Gemeinde"},"district":{"key":"01058","name":"Rendsburg-Eckernförde","type":"Kreis"},"federalState":{"key":"01","name":"Schleswig-Holstein"}},{"name":"Poststr.","postalCode":"24796","locality":"Bredenbek","municipality":{"key":"01058028","name":"Bredenbek","type":"Kreisangehörige_Gemeinde"},"district":{"key":"01058","name":"Rendsburg-Eckernförde","type":"Kreis"},"federalState":{"key":"01","name":"Schleswig-Holstein"}},{"name":"Raiffeisenstr.","postalCode":"24796","locality":"Bredenbek","municipality":{"key":"01058028","name":"Bredenbek","type":"Kreisangehörige_Gemeinde"},"district":{"key":"01058","name":"Rendsburg-Eckernförde","type":"Kreis"},"federalState":{"key":"01","name":"Schleswig-Holstein"}},{"name":"Rendsburger Str.","postalCode":"24796","locality":"Bredenbek","municipality":{"key":"01058028","name":"Bredenbek","type":"Kreisangehörige_Gemeinde"},"district":{"key":"01058","name":"Rendsburg-Eckernförde","type":"Kreis"},"federalState":{"key":"01","name":"Schleswig-Holstein"}},{"name":"Rolfshörner Holz","postalCode":"24796","locality":"Bredenbek","municipality":{"key":"01058028","name":"Bredenbek","type":"Kreisangehörige_Gemeinde"},"district":{"key":"01058","name":"Rendsburg-Eckernförde","type":"Kreis"},"federalState":{"key":"01","name":"Schleswig-Holstein"}},{"name":"Rolfshörner Weg","postalCode":"24796","locality":"Bredenbek","municipality":{"key":"01058028","name":"Bredenbek","type":"Kreisangehörige_Gemeinde"},"district":{"key":"01058","name":"Rendsburg-Eckernförde","type":"Kreis"},"federalState":{"key":"01","name":"Schleswig-Holstein"}},{"name":"Rosenstr.","postalCode":"24796","locality":"Bredenbek","municipality":{"key":"01058028","name":"Bredenbek","type":"Kreisangehörige_Gemeinde"},"district":{"key":"01058","name":"Rendsburg-Eckernförde","type":"Kreis"},"federalState":{"key":"01","name":"Schleswig-Holstein"}},{"name":"Schönhagener Str.","postalCode":"24796","locality":"Bredenbek","municipality":{"key":"01058028","name":"Bredenbek","type":"Kreisangehörige_Gemeinde"},"district":{"key":"01058","name":"Rendsburg-Eckernförde","type":"Kreis"},"federalState":{"key":"01","name":"Schleswig-Holstein"}},{"name":"Wakendorfer Weg","postalCode":"24796","locality":"Bredenbek","municipality":{"key":"01058028","name":"Bredenbek","type":"Kreisangehörige_Gemeinde"},"district":{"key":"01058","name":"Rendsburg-Eckernförde","type":"Kreis"},"federalState":{"key":"01","name":"Schleswig-Holstein"}},{"name":"Walcott Weg","postalCode":"24796","locality":"Bredenbek","municipality":{"key":"01058028","name":"Bredenbek","type":"Kreisangehörige_Gemeinde"},"district":{"key":"01058","name":"Rendsburg-Eckernförde","type":"Kreis"},"federalState":{"key":"01","name":"Schleswig-Holstein"}},]