[{"name":"Am Hahnwald","postalCode":"65399","locality":"Kiedrich","municipality":{"key":"06439009","name":"Kiedrich","type":"Kreisangehörige_Gemeinde"},"district":{"key":"06439","name":"Rheingau-Taunus-Kreis","type":"Landkreis"},"federalState":{"key":"06","name":"Hessen"}},{"name":"Am Sportfeld","postalCode":"65399","locality":"Kiedrich","municipality":{"key":"06439009","name":"Kiedrich","type":"Kreisangehörige_Gemeinde"},"district":{"key":"06439","name":"Rheingau-Taunus-Kreis","type":"Landkreis"},"federalState":{"key":"06","name":"Hessen"}},{"name":"An der Ankermühle","postalCode":"65399","locality":"Kiedrich","municipality":{"key":"06439009","name":"Kiedrich","type":"Kreisangehörige_Gemeinde"},"district":{"key":"06439","name":"Rheingau-Taunus-Kreis","type":"Landkreis"},"federalState":{"key":"06","name":"Hessen"}},{"name":"An der Klostermühle","postalCode":"65399","locality":"Kiedrich","municipality":{"key":"06439009","name":"Kiedrich","type":"Kreisangehörige_Gemeinde"},"district":{"key":"06439","name":"Rheingau-Taunus-Kreis","type":"Landkreis"},"federalState":{"key":"06","name":"Hessen"}},{"name":"An der Talstr.","postalCode":"65399","locality":"Kiedrich","municipality":{"key":"06439009","name":"Kiedrich","type":"Kreisangehörige_Gemeinde"},"district":{"key":"06439","name":"Rheingau-Taunus-Kreis","type":"Landkreis"},"federalState":{"key":"06","name":"Hessen"}},{"name":"Asternweg","postalCode":"65399","locality":"Kiedrich","municipality":{"key":"06439009","name":"Kiedrich","type":"Kreisangehörige_Gemeinde"},"district":{"key":"06439","name":"Rheingau-Taunus-Kreis","type":"Landkreis"},"federalState":{"key":"06","name":"Hessen"}},{"name":"Aulgasse","postalCode":"65399","locality":"Kiedrich","municipality":{"key":"06439009","name":"Kiedrich","type":"Kreisangehörige_Gemeinde"},"district":{"key":"06439","name":"Rheingau-Taunus-Kreis","type":"Landkreis"},"federalState":{"key":"06","name":"Hessen"}},{"name":"Backhausstr.","postalCode":"65399","locality":"Kiedrich","municipality":{"key":"06439009","name":"Kiedrich","type":"Kreisangehörige_Gemeinde"},"district":{"key":"06439","name":"Rheingau-Taunus-Kreis","type":"Landkreis"},"federalState":{"key":"06","name":"Hessen"}},{"name":"Bangertweg","postalCode":"65399","locality":"Kiedrich","municipality":{"key":"06439009","name":"Kiedrich","type":"Kreisangehörige_Gemeinde"},"district":{"key":"06439","name":"Rheingau-Taunus-Kreis","type":"Landkreis"},"federalState":{"key":"06","name":"Hessen"}},{"name":"Bassenheimer Weg","postalCode":"65399","locality":"Kiedrich","municipality":{"key":"06439009","name":"Kiedrich","type":"Kreisangehörige_Gemeinde"},"district":{"key":"06439","name":"Rheingau-Taunus-Kreis","type":"Landkreis"},"federalState":{"key":"06","name":"Hessen"}},{"name":"Bergchaussee","postalCode":"65399","locality":"Kiedrich","municipality":{"key":"06439009","name":"Kiedrich","type":"Kreisangehörige_Gemeinde"},"district":{"key":"06439","name":"Rheingau-Taunus-Kreis","type":"Landkreis"},"federalState":{"key":"06","name":"Hessen"}},{"name":"Bingerpfortenstr.","postalCode":"65399","locality":"Kiedrich","municipality":{"key":"06439009","name":"Kiedrich","type":"Kreisangehörige_Gemeinde"},"district":{"key":"06439","name":"Rheingau-Taunus-Kreis","type":"Landkreis"},"federalState":{"key":"06","name":"Hessen"}},{"name":"Borksgäßchen","postalCode":"65399","locality":"Kiedrich","municipality":{"key":"06439009","name":"Kiedrich","type":"Kreisangehörige_Gemeinde"},"district":{"key":"06439","name":"Rheingau-Taunus-Kreis","type":"Landkreis"},"federalState":{"key":"06","name":"Hessen"}},{"name":"Dalienweg","postalCode":"65399","locality":"Kiedrich","municipality":{"key":"06439009","name":"Kiedrich","type":"Kreisangehörige_Gemeinde"},"district":{"key":"06439","name":"Rheingau-Taunus-Kreis","type":"Landkreis"},"federalState":{"key":"06","name":"Hessen"}},{"name":"Draiser Weg","postalCode":"65399","locality":"Kiedrich","municipality":{"key":"06439009","name":"Kiedrich","type":"Kreisangehörige_Gemeinde"},"district":{"key":"06439","name":"Rheingau-Taunus-Kreis","type":"Landkreis"},"federalState":{"key":"06","name":"Hessen"}},{"name":"Eltviller Str.","postalCode":"65399","locality":"Kiedrich","municipality":{"key":"06439009","name":"Kiedrich","type":"Kreisangehörige_Gemeinde"},"district":{"key":"06439","name":"Rheingau-Taunus-Kreis","type":"Landkreis"},"federalState":{"key":"06","name":"Hessen"}},{"name":"Erbacher Weg","postalCode":"65399","locality":"Kiedrich","municipality":{"key":"06439009","name":"Kiedrich","type":"Kreisangehörige_Gemeinde"},"district":{"key":"06439","name":"Rheingau-Taunus-Kreis","type":"Landkreis"},"federalState":{"key":"06","name":"Hessen"}},{"name":"Erhard-Falkner-Platz","postalCode":"65399","locality":"Kiedrich","municipality":{"key":"06439009","name":"Kiedrich","type":"Kreisangehörige_Gemeinde"},"district":{"key":"06439","name":"Rheingau-Taunus-Kreis","type":"Landkreis"},"federalState":{"key":"06","name":"Hessen"}},{"name":"Fliederweg","postalCode":"65399","locality":"Kiedrich","municipality":{"key":"06439009","name":"Kiedrich","type":"Kreisangehörige_Gemeinde"},"district":{"key":"06439","name":"Rheingau-Taunus-Kreis","type":"Landkreis"},"federalState":{"key":"06","name":"Hessen"}},{"name":"Fritz-Erler-Str.","postalCode":"65399","locality":"Kiedrich","municipality":{"key":"06439009","name":"Kiedrich","type":"Kreisangehörige_Gemeinde"},"district":{"key":"06439","name":"Rheingau-Taunus-Kreis","type":"Landkreis"},"federalState":{"key":"06","name":"Hessen"}},{"name":"Gräfenbergstr.","postalCode":"65399","locality":"Kiedrich","municipality":{"key":"06439009","name":"Kiedrich","type":"Kreisangehörige_Gemeinde"},"district":{"key":"06439","name":"Rheingau-Taunus-Kreis","type":"Landkreis"},"federalState":{"key":"06","name":"Hessen"}},{"name":"Halbritterstr.","postalCode":"65399","locality":"Kiedrich","municipality":{"key":"06439009","name":"Kiedrich","type":"Kreisangehörige_Gemeinde"},"district":{"key":"06439","name":"Rheingau-Taunus-Kreis","type":"Landkreis"},"federalState":{"key":"06","name":"Hessen"}},{"name":"Hautvillers-Platz","postalCode":"65399","locality":"Kiedrich","municipality":{"key":"06439009","name":"Kiedrich","type":"Kreisangehörige_Gemeinde"},"district":{"key":"06439","name":"Rheingau-Taunus-Kreis","type":"Landkreis"},"federalState":{"key":"06","name":"Hessen"}},{"name":"Heiligenpfad","postalCode":"65399","locality":"Kiedrich","municipality":{"key":"06439009","name":"Kiedrich","type":"Kreisangehörige_Gemeinde"},"district":{"key":"06439","name":"Rheingau-Taunus-Kreis","type":"Landkreis"},"federalState":{"key":"06","name":"Hessen"}},{"name":"Hinter den Zäunen","postalCode":"65399","locality":"Kiedrich","municipality":{"key":"06439009","name":"Kiedrich","type":"Kreisangehörige_Gemeinde"},"district":{"key":"06439","name":"Rheingau-Taunus-Kreis","type":"Landkreis"},"federalState":{"key":"06","name":"Hessen"}},{"name":"Hinterer Langenerdweg","postalCode":"65399","locality":"Kiedrich","municipality":{"key":"06439009","name":"Kiedrich","type":"Kreisangehörige_Gemeinde"},"district":{"key":"06439","name":"Rheingau-Taunus-Kreis","type":"Landkreis"},"federalState":{"key":"06","name":"Hessen"}},{"name":"Hirtenacker","postalCode":"65399","locality":"Kiedrich","municipality":{"key":"06439009","name":"Kiedrich","type":"Kreisangehörige_Gemeinde"},"district":{"key":"06439","name":"Rheingau-Taunus-Kreis","type":"Landkreis"},"federalState":{"key":"06","name":"Hessen"}},{"name":"Hochfeld","postalCode":"65399","locality":"Kiedrich","municipality":{"key":"06439009","name":"Kiedrich","type":"Kreisangehörige_Gemeinde"},"district":{"key":"06439","name":"Rheingau-Taunus-Kreis","type":"Landkreis"},"federalState":{"key":"06","name":"Hessen"}},{"name":"Holzweg","postalCode":"65399","locality":"Kiedrich","municipality":{"key":"06439009","name":"Kiedrich","type":"Kreisangehörige_Gemeinde"},"district":{"key":"06439","name":"Rheingau-Taunus-Kreis","type":"Landkreis"},"federalState":{"key":"06","name":"Hessen"}},{"name":"Im Bangert","postalCode":"65399","locality":"Kiedrich","municipality":{"key":"06439009","name":"Kiedrich","type":"Kreisangehörige_Gemeinde"},"district":{"key":"06439","name":"Rheingau-Taunus-Kreis","type":"Landkreis"},"federalState":{"key":"06","name":"Hessen"}},{"name":"In der Sandgrub","postalCode":"65399","locality":"Kiedrich","municipality":{"key":"06439009","name":"Kiedrich","type":"Kreisangehörige_Gemeinde"},"district":{"key":"06439","name":"Rheingau-Taunus-Kreis","type":"Landkreis"},"federalState":{"key":"06","name":"Hessen"}},{"name":"Kammstr.","postalCode":"65399","locality":"Kiedrich","municipality":{"key":"06439009","name":"Kiedrich","type":"Kreisangehörige_Gemeinde"},"district":{"key":"06439","name":"Rheingau-Taunus-Kreis","type":"Landkreis"},"federalState":{"key":"06","name":"Hessen"}},{"name":"Klosterbergweg","postalCode":"65399","locality":"Kiedrich","municipality":{"key":"06439009","name":"Kiedrich","type":"Kreisangehörige_Gemeinde"},"district":{"key":"06439","name":"Rheingau-Taunus-Kreis","type":"Landkreis"},"federalState":{"key":"06","name":"Hessen"}},{"name":"Kolpingring","postalCode":"65399","locality":"Kiedrich","municipality":{"key":"06439009","name":"Kiedrich","type":"Kreisangehörige_Gemeinde"},"district":{"key":"06439","name":"Rheingau-Taunus-Kreis","type":"Landkreis"},"federalState":{"key":"06","name":"Hessen"}},{"name":"Langenerdweg","postalCode":"65399","locality":"Kiedrich","municipality":{"key":"06439009","name":"Kiedrich","type":"Kreisangehörige_Gemeinde"},"district":{"key":"06439","name":"Rheingau-Taunus-Kreis","type":"Landkreis"},"federalState":{"key":"06","name":"Hessen"}},{"name":"Lettchkaut","postalCode":"65399","locality":"Kiedrich","municipality":{"key":"06439009","name":"Kiedrich","type":"Kreisangehörige_Gemeinde"},"district":{"key":"06439","name":"Rheingau-Taunus-Kreis","type":"Landkreis"},"federalState":{"key":"06","name":"Hessen"}},{"name":"Mariahilfstr.","postalCode":"65399","locality":"Kiedrich","municipality":{"key":"06439009","name":"Kiedrich","type":"Kreisangehörige_Gemeinde"},"district":{"key":"06439","name":"Rheingau-Taunus-Kreis","type":"Landkreis"},"federalState":{"key":"06","name":"Hessen"}},{"name":"Marktplatz","postalCode":"65399","locality":"Kiedrich","municipality":{"key":"06439009","name":"Kiedrich","type":"Kreisangehörige_Gemeinde"},"district":{"key":"06439","name":"Rheingau-Taunus-Kreis","type":"Landkreis"},"federalState":{"key":"06","name":"Hessen"}},{"name":"Marktstr.","postalCode":"65399","locality":"Kiedrich","municipality":{"key":"06439009","name":"Kiedrich","type":"Kreisangehörige_Gemeinde"},"district":{"key":"06439","name":"Rheingau-Taunus-Kreis","type":"Landkreis"},"federalState":{"key":"06","name":"Hessen"}},{"name":"Mühlbergstr.","postalCode":"65399","locality":"Kiedrich","municipality":{"key":"06439009","name":"Kiedrich","type":"Kreisangehörige_Gemeinde"},"district":{"key":"06439","name":"Rheingau-Taunus-Kreis","type":"Landkreis"},"federalState":{"key":"06","name":"Hessen"}},{"name":"Mühlweg","postalCode":"65399","locality":"Kiedrich","municipality":{"key":"06439009","name":"Kiedrich","type":"Kreisangehörige_Gemeinde"},"district":{"key":"06439","name":"Rheingau-Taunus-Kreis","type":"Landkreis"},"federalState":{"key":"06","name":"Hessen"}},{"name":"Nelkenweg","postalCode":"65399","locality":"Kiedrich","municipality":{"key":"06439009","name":"Kiedrich","type":"Kreisangehörige_Gemeinde"},"district":{"key":"06439","name":"Rheingau-Taunus-Kreis","type":"Landkreis"},"federalState":{"key":"06","name":"Hessen"}},{"name":"Neue Heimat","postalCode":"65399","locality":"Kiedrich","municipality":{"key":"06439009","name":"Kiedrich","type":"Kreisangehörige_Gemeinde"},"district":{"key":"06439","name":"Rheingau-Taunus-Kreis","type":"Landkreis"},"federalState":{"key":"06","name":"Hessen"}},{"name":"Nußbaumstr.","postalCode":"65399","locality":"Kiedrich","municipality":{"key":"06439009","name":"Kiedrich","type":"Kreisangehörige_Gemeinde"},"district":{"key":"06439","name":"Rheingau-Taunus-Kreis","type":"Landkreis"},"federalState":{"key":"06","name":"Hessen"}},{"name":"Oberer Grünbachsweg","postalCode":"65399","locality":"Kiedrich","municipality":{"key":"06439009","name":"Kiedrich","type":"Kreisangehörige_Gemeinde"},"district":{"key":"06439","name":"Rheingau-Taunus-Kreis","type":"Landkreis"},"federalState":{"key":"06","name":"Hessen"}},{"name":"Oberer Schoß","postalCode":"65399","locality":"Kiedrich","municipality":{"key":"06439009","name":"Kiedrich","type":"Kreisangehörige_Gemeinde"},"district":{"key":"06439","name":"Rheingau-Taunus-Kreis","type":"Landkreis"},"federalState":{"key":"06","name":"Hessen"}},{"name":"Oberstr.","postalCode":"65399","locality":"Kiedrich","municipality":{"key":"06439009","name":"Kiedrich","type":"Kreisangehörige_Gemeinde"},"district":{"key":"06439","name":"Rheingau-Taunus-Kreis","type":"Landkreis"},"federalState":{"key":"06","name":"Hessen"}},{"name":"Pfarrer-Zaun-Weg","postalCode":"65399","locality":"Kiedrich","municipality":{"key":"06439009","name":"Kiedrich","type":"Kreisangehörige_Gemeinde"},"district":{"key":"06439","name":"Rheingau-Taunus-Kreis","type":"Landkreis"},"federalState":{"key":"06","name":"Hessen"}},{"name":"Pflichtweg","postalCode":"65399","locality":"Kiedrich","municipality":{"key":"06439009","name":"Kiedrich","type":"Kreisangehörige_Gemeinde"},"district":{"key":"06439","name":"Rheingau-Taunus-Kreis","type":"Landkreis"},"federalState":{"key":"06","name":"Hessen"}},{"name":"Rheinblick","postalCode":"65399","locality":"Kiedrich","municipality":{"key":"06439009","name":"Kiedrich","type":"Kreisangehörige_Gemeinde"},"district":{"key":"06439","name":"Rheingau-Taunus-Kreis","type":"Landkreis"},"federalState":{"key":"06","name":"Hessen"}},{"name":"Rieslingstr.","postalCode":"65399","locality":"Kiedrich","municipality":{"key":"06439009","name":"Kiedrich","type":"Kreisangehörige_Gemeinde"},"district":{"key":"06439","name":"Rheingau-Taunus-Kreis","type":"Landkreis"},"federalState":{"key":"06","name":"Hessen"}},{"name":"Rosenstr.","postalCode":"65399","locality":"Kiedrich","municipality":{"key":"06439009","name":"Kiedrich","type":"Kreisangehörige_Gemeinde"},"district":{"key":"06439","name":"Rheingau-Taunus-Kreis","type":"Landkreis"},"federalState":{"key":"06","name":"Hessen"}},{"name":"Scharfensteiner Str.","postalCode":"65399","locality":"Kiedrich","municipality":{"key":"06439009","name":"Kiedrich","type":"Kreisangehörige_Gemeinde"},"district":{"key":"06439","name":"Rheingau-Taunus-Kreis","type":"Landkreis"},"federalState":{"key":"06","name":"Hessen"}},{"name":"Schulstr.","postalCode":"65399","locality":"Kiedrich","municipality":{"key":"06439009","name":"Kiedrich","type":"Kreisangehörige_Gemeinde"},"district":{"key":"06439","name":"Rheingau-Taunus-Kreis","type":"Landkreis"},"federalState":{"key":"06","name":"Hessen"}},{"name":"Siegfried-Siems-Str.","postalCode":"65399","locality":"Kiedrich","municipality":{"key":"06439009","name":"Kiedrich","type":"Kreisangehörige_Gemeinde"},"district":{"key":"06439","name":"Rheingau-Taunus-Kreis","type":"Landkreis"},"federalState":{"key":"06","name":"Hessen"}},{"name":"Sonnenlandstr.","postalCode":"65399","locality":"Kiedrich","municipality":{"key":"06439009","name":"Kiedrich","type":"Kreisangehörige_Gemeinde"},"district":{"key":"06439","name":"Rheingau-Taunus-Kreis","type":"Landkreis"},"federalState":{"key":"06","name":"Hessen"}},{"name":"Suttonstr.","postalCode":"65399","locality":"Kiedrich","municipality":{"key":"06439009","name":"Kiedrich","type":"Kreisangehörige_Gemeinde"},"district":{"key":"06439","name":"Rheingau-Taunus-Kreis","type":"Landkreis"},"federalState":{"key":"06","name":"Hessen"}},{"name":"Talstr.","postalCode":"65399","locality":"Kiedrich","municipality":{"key":"06439009","name":"Kiedrich","type":"Kreisangehörige_Gemeinde"},"district":{"key":"06439","name":"Rheingau-Taunus-Kreis","type":"Landkreis"},"federalState":{"key":"06","name":"Hessen"}},{"name":"Tränkweg","postalCode":"65399","locality":"Kiedrich","municipality":{"key":"06439009","name":"Kiedrich","type":"Kreisangehörige_Gemeinde"},"district":{"key":"06439","name":"Rheingau-Taunus-Kreis","type":"Landkreis"},"federalState":{"key":"06","name":"Hessen"}},{"name":"Trift","postalCode":"65399","locality":"Kiedrich","municipality":{"key":"06439009","name":"Kiedrich","type":"Kreisangehörige_Gemeinde"},"district":{"key":"06439","name":"Rheingau-Taunus-Kreis","type":"Landkreis"},"federalState":{"key":"06","name":"Hessen"}},{"name":"Tulpenweg","postalCode":"65399","locality":"Kiedrich","municipality":{"key":"06439009","name":"Kiedrich","type":"Kreisangehörige_Gemeinde"},"district":{"key":"06439","name":"Rheingau-Taunus-Kreis","type":"Landkreis"},"federalState":{"key":"06","name":"Hessen"}},{"name":"Unterer Langenerdweg","postalCode":"65399","locality":"Kiedrich","municipality":{"key":"06439009","name":"Kiedrich","type":"Kreisangehörige_Gemeinde"},"district":{"key":"06439","name":"Rheingau-Taunus-Kreis","type":"Landkreis"},"federalState":{"key":"06","name":"Hessen"}},{"name":"Unterer Schoß","postalCode":"65399","locality":"Kiedrich","municipality":{"key":"06439009","name":"Kiedrich","type":"Kreisangehörige_Gemeinde"},"district":{"key":"06439","name":"Rheingau-Taunus-Kreis","type":"Landkreis"},"federalState":{"key":"06","name":"Hessen"}},{"name":"Veilchenweg","postalCode":"65399","locality":"Kiedrich","municipality":{"key":"06439009","name":"Kiedrich","type":"Kreisangehörige_Gemeinde"},"district":{"key":"06439","name":"Rheingau-Taunus-Kreis","type":"Landkreis"},"federalState":{"key":"06","name":"Hessen"}},{"name":"Waldpfortenstr.","postalCode":"65399","locality":"Kiedrich","municipality":{"key":"06439009","name":"Kiedrich","type":"Kreisangehörige_Gemeinde"},"district":{"key":"06439","name":"Rheingau-Taunus-Kreis","type":"Landkreis"},"federalState":{"key":"06","name":"Hessen"}},{"name":"Waldstr.","postalCode":"65399","locality":"Kiedrich","municipality":{"key":"06439009","name":"Kiedrich","type":"Kreisangehörige_Gemeinde"},"district":{"key":"06439","name":"Rheingau-Taunus-Kreis","type":"Landkreis"},"federalState":{"key":"06","name":"Hessen"}},{"name":"Weinbergblick","postalCode":"65399","locality":"Kiedrich","municipality":{"key":"06439009","name":"Kiedrich","type":"Kreisangehörige_Gemeinde"},"district":{"key":"06439","name":"Rheingau-Taunus-Kreis","type":"Landkreis"},"federalState":{"key":"06","name":"Hessen"}},{"name":"Weinprobierstand","postalCode":"65399","locality":"Kiedrich","municipality":{"key":"06439009","name":"Kiedrich","type":"Kreisangehörige_Gemeinde"},"district":{"key":"06439","name":"Rheingau-Taunus-Kreis","type":"Landkreis"},"federalState":{"key":"06","name":"Hessen"}},{"name":"Zäunstr.","postalCode":"65399","locality":"Kiedrich","municipality":{"key":"06439009","name":"Kiedrich","type":"Kreisangehörige_Gemeinde"},"district":{"key":"06439","name":"Rheingau-Taunus-Kreis","type":"Landkreis"},"federalState":{"key":"06","name":"Hessen"}},]