[{"name":"Försterei Ausbau","postalCode":"17358","locality":"Hammer a.d. Uecker","municipality":{"key":"13075045","name":"Hammer a.d. Uecker","type":"Kreisangehörige_Gemeinde"},"district":{"key":"13075","name":"Vorpommern-Greifswald","type":"Landkreis"},"federalState":{"key":"13","name":"Mecklenburg-Vorpommern"}},{"name":"Jatznicker Str.","postalCode":"17358","locality":"Hammer a.d. Uecker","municipality":{"key":"13075045","name":"Hammer a.d. Uecker","type":"Kreisangehörige_Gemeinde"},"district":{"key":"13075","name":"Vorpommern-Greifswald","type":"Landkreis"},"federalState":{"key":"13","name":"Mecklenburg-Vorpommern"}},{"name":"Klein Hammer","postalCode":"17358","locality":"Hammer a.d. Uecker","municipality":{"key":"13075045","name":"Hammer a.d. Uecker","type":"Kreisangehörige_Gemeinde"},"district":{"key":"13075","name":"Vorpommern-Greifswald","type":"Landkreis"},"federalState":{"key":"13","name":"Mecklenburg-Vorpommern"}},{"name":"Morgenmoor","postalCode":"17358","locality":"Hammer a.d. Uecker","municipality":{"key":"13075045","name":"Hammer a.d. Uecker","type":"Kreisangehörige_Gemeinde"},"district":{"key":"13075","name":"Vorpommern-Greifswald","type":"Landkreis"},"federalState":{"key":"13","name":"Mecklenburg-Vorpommern"}},{"name":"Otto-Bruchwitz-Str.","postalCode":"17358","locality":"Hammer a.d. Uecker","municipality":{"key":"13075045","name":"Hammer a.d. Uecker","type":"Kreisangehörige_Gemeinde"},"district":{"key":"13075","name":"Vorpommern-Greifswald","type":"Landkreis"},"federalState":{"key":"13","name":"Mecklenburg-Vorpommern"}},{"name":"Sandförder Str.","postalCode":"17358","locality":"Hammer a.d. Uecker","municipality":{"key":"13075045","name":"Hammer a.d. Uecker","type":"Kreisangehörige_Gemeinde"},"district":{"key":"13075","name":"Vorpommern-Greifswald","type":"Landkreis"},"federalState":{"key":"13","name":"Mecklenburg-Vorpommern"}},{"name":"Str. der Befreier","postalCode":"17358","locality":"Hammer a.d. Uecker","municipality":{"key":"13075045","name":"Hammer a.d. Uecker","type":"Kreisangehörige_Gemeinde"},"district":{"key":"13075","name":"Vorpommern-Greifswald","type":"Landkreis"},"federalState":{"key":"13","name":"Mecklenburg-Vorpommern"}},{"name":"Untere Dorfstr.","postalCode":"17358","locality":"Hammer a.d. Uecker","municipality":{"key":"13075045","name":"Hammer a.d. Uecker","type":"Kreisangehörige_Gemeinde"},"district":{"key":"13075","name":"Vorpommern-Greifswald","type":"Landkreis"},"federalState":{"key":"13","name":"Mecklenburg-Vorpommern"}},]