[{"name":"Ackerstr.","postalCode":"90530","locality":"Wendelstein","municipality":{"key":"09576151","name":"Wendelstein, M","type":"Markt"},"district":{"key":"09576","name":"Roth","type":"Landkreis"},"federalState":{"key":"09","name":"Bayern"}},{"name":"Adalbert-Stifter-Str.","postalCode":"90530","locality":"Wendelstein","municipality":{"key":"09576151","name":"Wendelstein, M","type":"Markt"},"district":{"key":"09576","name":"Roth","type":"Landkreis"},"federalState":{"key":"09","name":"Bayern"}},{"name":"Adlerweg","postalCode":"90530","locality":"Wendelstein","municipality":{"key":"09576151","name":"Wendelstein, M","type":"Markt"},"district":{"key":"09576","name":"Roth","type":"Landkreis"},"federalState":{"key":"09","name":"Bayern"}},{"name":"Ahornstr.","postalCode":"90530","locality":"Wendelstein","municipality":{"key":"09576151","name":"Wendelstein, M","type":"Markt"},"district":{"key":"09576","name":"Roth","type":"Landkreis"},"federalState":{"key":"09","name":"Bayern"}},{"name":"Akazienstr.","postalCode":"90530","locality":"Wendelstein","municipality":{"key":"09576151","name":"Wendelstein, M","type":"Markt"},"district":{"key":"09576","name":"Roth","type":"Landkreis"},"federalState":{"key":"09","name":"Bayern"}},{"name":"Allerheiligenweg","postalCode":"90530","locality":"Wendelstein","municipality":{"key":"09576151","name":"Wendelstein, M","type":"Markt"},"district":{"key":"09576","name":"Roth","type":"Landkreis"},"federalState":{"key":"09","name":"Bayern"}},{"name":"Allersberger Str.","postalCode":"90530","locality":"Wendelstein","municipality":{"key":"09576151","name":"Wendelstein, M","type":"Markt"},"district":{"key":"09576","name":"Roth","type":"Landkreis"},"federalState":{"key":"09","name":"Bayern"}},{"name":"Am Alten Bahnhof","postalCode":"90530","locality":"Wendelstein","municipality":{"key":"09576151","name":"Wendelstein, M","type":"Markt"},"district":{"key":"09576","name":"Roth","type":"Landkreis"},"federalState":{"key":"09","name":"Bayern"}},{"name":"Am Bäumelfeld","postalCode":"90530","locality":"Wendelstein","municipality":{"key":"09576151","name":"Wendelstein, M","type":"Markt"},"district":{"key":"09576","name":"Roth","type":"Landkreis"},"federalState":{"key":"09","name":"Bayern"}},{"name":"Am Bernlohe","postalCode":"90530","locality":"Wendelstein","municipality":{"key":"09576151","name":"Wendelstein, M","type":"Markt"},"district":{"key":"09576","name":"Roth","type":"Landkreis"},"federalState":{"key":"09","name":"Bayern"}},{"name":"Am Bühl","postalCode":"90530","locality":"Wendelstein","municipality":{"key":"09576151","name":"Wendelstein, M","type":"Markt"},"district":{"key":"09576","name":"Roth","type":"Landkreis"},"federalState":{"key":"09","name":"Bayern"}},{"name":"Am Entengraben","postalCode":"90530","locality":"Wendelstein","municipality":{"key":"09576151","name":"Wendelstein, M","type":"Markt"},"district":{"key":"09576","name":"Roth","type":"Landkreis"},"federalState":{"key":"09","name":"Bayern"}},{"name":"Am Felsenkeller","postalCode":"90530","locality":"Wendelstein","municipality":{"key":"09576151","name":"Wendelstein, M","type":"Markt"},"district":{"key":"09576","name":"Roth","type":"Landkreis"},"federalState":{"key":"09","name":"Bayern"}},{"name":"Am Fichtenbrünnlein","postalCode":"90530","locality":"Wendelstein","municipality":{"key":"09576151","name":"Wendelstein, M","type":"Markt"},"district":{"key":"09576","name":"Roth","type":"Landkreis"},"federalState":{"key":"09","name":"Bayern"}},{"name":"Am Flachmoor","postalCode":"90475","locality":"Wendelstein","municipality":{"key":"09576151","name":"Wendelstein, M","type":"Markt"},"district":{"key":"09576","name":"Roth","type":"Landkreis"},"federalState":{"key":"09","name":"Bayern"}},{"name":"Am Kanal","postalCode":"90530","locality":"Wendelstein","municipality":{"key":"09576151","name":"Wendelstein, M","type":"Markt"},"district":{"key":"09576","name":"Roth","type":"Landkreis"},"federalState":{"key":"09","name":"Bayern"}},{"name":"Am Keuper","postalCode":"90475","locality":"Wendelstein","municipality":{"key":"09576151","name":"Wendelstein, M","type":"Markt"},"district":{"key":"09576","name":"Roth","type":"Landkreis"},"federalState":{"key":"09","name":"Bayern"}},{"name":"Am Kirchberg","postalCode":"90530","locality":"Wendelstein","municipality":{"key":"09576151","name":"Wendelstein, M","type":"Markt"},"district":{"key":"09576","name":"Roth","type":"Landkreis"},"federalState":{"key":"09","name":"Bayern"}},{"name":"Am Kohlschlag","postalCode":"90530","locality":"Wendelstein","municipality":{"key":"09576151","name":"Wendelstein, M","type":"Markt"},"district":{"key":"09576","name":"Roth","type":"Landkreis"},"federalState":{"key":"09","name":"Bayern"}},{"name":"Am Kurzkreuz","postalCode":"90530","locality":"Wendelstein","municipality":{"key":"09576151","name":"Wendelstein, M","type":"Markt"},"district":{"key":"09576","name":"Roth","type":"Landkreis"},"federalState":{"key":"09","name":"Bayern"}},{"name":"Am Meiler","postalCode":"90530","locality":"Wendelstein","municipality":{"key":"09576151","name":"Wendelstein, M","type":"Markt"},"district":{"key":"09576","name":"Roth","type":"Landkreis"},"federalState":{"key":"09","name":"Bayern"}},{"name":"Am Mosthaus","postalCode":"90530","locality":"Wendelstein","municipality":{"key":"09576151","name":"Wendelstein, M","type":"Markt"},"district":{"key":"09576","name":"Roth","type":"Landkreis"},"federalState":{"key":"09","name":"Bayern"}},{"name":"Am Mühlbach","postalCode":"90530","locality":"Wendelstein","municipality":{"key":"09576151","name":"Wendelstein, M","type":"Markt"},"district":{"key":"09576","name":"Roth","type":"Landkreis"},"federalState":{"key":"09","name":"Bayern"}},{"name":"Am Reichswald","postalCode":"90530","locality":"Wendelstein","municipality":{"key":"09576151","name":"Wendelstein, M","type":"Markt"},"district":{"key":"09576","name":"Roth","type":"Landkreis"},"federalState":{"key":"09","name":"Bayern"}},{"name":"Am Richterhaus","postalCode":"90530","locality":"Wendelstein","municipality":{"key":"09576151","name":"Wendelstein, M","type":"Markt"},"district":{"key":"09576","name":"Roth","type":"Landkreis"},"federalState":{"key":"09","name":"Bayern"}},{"name":"Am Richtgraben","postalCode":"90530","locality":"Wendelstein","municipality":{"key":"09576151","name":"Wendelstein, M","type":"Markt"},"district":{"key":"09576","name":"Roth","type":"Landkreis"},"federalState":{"key":"09","name":"Bayern"}},{"name":"Am Salzstadel","postalCode":"90530","locality":"Wendelstein","municipality":{"key":"09576151","name":"Wendelstein, M","type":"Markt"},"district":{"key":"09576","name":"Roth","type":"Landkreis"},"federalState":{"key":"09","name":"Bayern"}},{"name":"Am Schießhaus","postalCode":"90530","locality":"Wendelstein","municipality":{"key":"09576151","name":"Wendelstein, M","type":"Markt"},"district":{"key":"09576","name":"Roth","type":"Landkreis"},"federalState":{"key":"09","name":"Bayern"}},{"name":"Am Schwarzachgrund","postalCode":"90530","locality":"Wendelstein","municipality":{"key":"09576151","name":"Wendelstein, M","type":"Markt"},"district":{"key":"09576","name":"Roth","type":"Landkreis"},"federalState":{"key":"09","name":"Bayern"}},{"name":"Am Silberhammer","postalCode":"90530","locality":"Wendelstein","municipality":{"key":"09576151","name":"Wendelstein, M","type":"Markt"},"district":{"key":"09576","name":"Roth","type":"Landkreis"},"federalState":{"key":"09","name":"Bayern"}},{"name":"Am Sillberg","postalCode":"90530","locality":"Wendelstein","municipality":{"key":"09576151","name":"Wendelstein, M","type":"Markt"},"district":{"key":"09576","name":"Roth","type":"Landkreis"},"federalState":{"key":"09","name":"Bayern"}},{"name":"Am Spielfeld","postalCode":"90530","locality":"Wendelstein","municipality":{"key":"09576151","name":"Wendelstein, M","type":"Markt"},"district":{"key":"09576","name":"Roth","type":"Landkreis"},"federalState":{"key":"09","name":"Bayern"}},{"name":"Am Waldeck","postalCode":"90530","locality":"Wendelstein","municipality":{"key":"09576151","name":"Wendelstein, M","type":"Markt"},"district":{"key":"09576","name":"Roth","type":"Landkreis"},"federalState":{"key":"09","name":"Bayern"}},{"name":"Am Wiesengrund","postalCode":"90530","locality":"Wendelstein","municipality":{"key":"09576151","name":"Wendelstein, M","type":"Markt"},"district":{"key":"09576","name":"Roth","type":"Landkreis"},"federalState":{"key":"09","name":"Bayern"}},{"name":"Am Wolfsbühl","postalCode":"90530","locality":"Wendelstein","municipality":{"key":"09576151","name":"Wendelstein, M","type":"Markt"},"district":{"key":"09576","name":"Roth","type":"Landkreis"},"federalState":{"key":"09","name":"Bayern"}},{"name":"Am Zehnthof","postalCode":"90530","locality":"Wendelstein","municipality":{"key":"09576151","name":"Wendelstein, M","type":"Markt"},"district":{"key":"09576","name":"Roth","type":"Landkreis"},"federalState":{"key":"09","name":"Bayern"}},{"name":"An der Lohstr.","postalCode":"90530","locality":"Wendelstein","municipality":{"key":"09576151","name":"Wendelstein, M","type":"Markt"},"district":{"key":"09576","name":"Roth","type":"Landkreis"},"federalState":{"key":"09","name":"Bayern"}},{"name":"An der Mühle","postalCode":"90530","locality":"Wendelstein","municipality":{"key":"09576151","name":"Wendelstein, M","type":"Markt"},"district":{"key":"09576","name":"Roth","type":"Landkreis"},"federalState":{"key":"09","name":"Bayern"}},{"name":"An der Winterleite","postalCode":"90530","locality":"Wendelstein","municipality":{"key":"09576151","name":"Wendelstein, M","type":"Markt"},"district":{"key":"09576","name":"Roth","type":"Landkreis"},"federalState":{"key":"09","name":"Bayern"}},{"name":"Anemonenweg","postalCode":"90530","locality":"Wendelstein","municipality":{"key":"09576151","name":"Wendelstein, M","type":"Markt"},"district":{"key":"09576","name":"Roth","type":"Landkreis"},"federalState":{"key":"09","name":"Bayern"}},{"name":"Anton-Bruckner-Str.","postalCode":"90530","locality":"Wendelstein","municipality":{"key":"09576151","name":"Wendelstein, M","type":"Markt"},"district":{"key":"09576","name":"Roth","type":"Landkreis"},"federalState":{"key":"09","name":"Bayern"}},{"name":"Asternstr.","postalCode":"90530","locality":"Wendelstein","municipality":{"key":"09576151","name":"Wendelstein, M","type":"Markt"},"district":{"key":"09576","name":"Roth","type":"Landkreis"},"federalState":{"key":"09","name":"Bayern"}},{"name":"Azaleenstr.","postalCode":"90530","locality":"Wendelstein","municipality":{"key":"09576151","name":"Wendelstein, M","type":"Markt"},"district":{"key":"09576","name":"Roth","type":"Landkreis"},"federalState":{"key":"09","name":"Bayern"}},{"name":"Bauerngasse","postalCode":"90530","locality":"Wendelstein","municipality":{"key":"09576151","name":"Wendelstein, M","type":"Markt"},"district":{"key":"09576","name":"Roth","type":"Landkreis"},"federalState":{"key":"09","name":"Bayern"}},{"name":"Baumstr.","postalCode":"90530","locality":"Wendelstein","municipality":{"key":"09576151","name":"Wendelstein, M","type":"Markt"},"district":{"key":"09576","name":"Roth","type":"Landkreis"},"federalState":{"key":"09","name":"Bayern"}},{"name":"Beethovenstr.","postalCode":"90530","locality":"Wendelstein","municipality":{"key":"09576151","name":"Wendelstein, M","type":"Markt"},"district":{"key":"09576","name":"Roth","type":"Landkreis"},"federalState":{"key":"09","name":"Bayern"}},{"name":"Bergstr.","postalCode":"90530","locality":"Wendelstein","municipality":{"key":"09576151","name":"Wendelstein, M","type":"Markt"},"district":{"key":"09576","name":"Roth","type":"Landkreis"},"federalState":{"key":"09","name":"Bayern"}},{"name":"Birkenweg","postalCode":"90530","locality":"Wendelstein","municipality":{"key":"09576151","name":"Wendelstein, M","type":"Markt"},"district":{"key":"09576","name":"Roth","type":"Landkreis"},"federalState":{"key":"09","name":"Bayern"}},{"name":"Blumenstr.","postalCode":"90530","locality":"Wendelstein","municipality":{"key":"09576151","name":"Wendelstein, M","type":"Markt"},"district":{"key":"09576","name":"Roth","type":"Landkreis"},"federalState":{"key":"09","name":"Bayern"}},{"name":"Blütenstr.","postalCode":"90530","locality":"Wendelstein","municipality":{"key":"09576151","name":"Wendelstein, M","type":"Markt"},"district":{"key":"09576","name":"Roth","type":"Landkreis"},"federalState":{"key":"09","name":"Bayern"}},{"name":"Bogenstr.","postalCode":"90530","locality":"Wendelstein","municipality":{"key":"09576151","name":"Wendelstein, M","type":"Markt"},"district":{"key":"09576","name":"Roth","type":"Landkreis"},"federalState":{"key":"09","name":"Bayern"}},{"name":"Borkweg","postalCode":"90530","locality":"Wendelstein","municipality":{"key":"09576151","name":"Wendelstein, M","type":"Markt"},"district":{"key":"09576","name":"Roth","type":"Landkreis"},"federalState":{"key":"09","name":"Bayern"}},{"name":"Boschstr.","postalCode":"90530","locality":"Wendelstein","municipality":{"key":"09576151","name":"Wendelstein, M","type":"Markt"},"district":{"key":"09576","name":"Roth","type":"Landkreis"},"federalState":{"key":"09","name":"Bayern"}},{"name":"Bradinger Feld","postalCode":"90530","locality":"Wendelstein","municipality":{"key":"09576151","name":"Wendelstein, M","type":"Markt"},"district":{"key":"09576","name":"Roth","type":"Landkreis"},"federalState":{"key":"09","name":"Bayern"}},{"name":"Brahmsstr.","postalCode":"90530","locality":"Wendelstein","municipality":{"key":"09576151","name":"Wendelstein, M","type":"Markt"},"district":{"key":"09576","name":"Roth","type":"Landkreis"},"federalState":{"key":"09","name":"Bayern"}},{"name":"Brücke Schleuse 60","postalCode":"90537","locality":"Wendelstein","municipality":{"key":"09576151","name":"Wendelstein, M","type":"Markt"},"district":{"key":"09576","name":"Roth","type":"Landkreis"},"federalState":{"key":"09","name":"Bayern"}},{"name":"Brücke Schleuse 61","postalCode":"90530","locality":"Wendelstein","municipality":{"key":"09576151","name":"Wendelstein, M","type":"Markt"},"district":{"key":"09576","name":"Roth","type":"Landkreis"},"federalState":{"key":"09","name":"Bayern"}},{"name":"Brunhildstr.","postalCode":"90530","locality":"Wendelstein","municipality":{"key":"09576151","name":"Wendelstein, M","type":"Markt"},"district":{"key":"09576","name":"Roth","type":"Landkreis"},"federalState":{"key":"09","name":"Bayern"}},{"name":"Buchenstr.","postalCode":"90530","locality":"Wendelstein","municipality":{"key":"09576151","name":"Wendelstein, M","type":"Markt"},"district":{"key":"09576","name":"Roth","type":"Landkreis"},"federalState":{"key":"09","name":"Bayern"}},{"name":"Carl-Orff-Ring","postalCode":"90530","locality":"Wendelstein","municipality":{"key":"09576151","name":"Wendelstein, M","type":"Markt"},"district":{"key":"09576","name":"Roth","type":"Landkreis"},"federalState":{"key":"09","name":"Bayern"}},{"name":"Carossastr.","postalCode":"90530","locality":"Wendelstein","municipality":{"key":"09576151","name":"Wendelstein, M","type":"Markt"},"district":{"key":"09576","name":"Roth","type":"Landkreis"},"federalState":{"key":"09","name":"Bayern"}},{"name":"Cochläusstr.","postalCode":"90530","locality":"Wendelstein","municipality":{"key":"09576151","name":"Wendelstein, M","type":"Markt"},"district":{"key":"09576","name":"Roth","type":"Landkreis"},"federalState":{"key":"09","name":"Bayern"}},{"name":"Dahlienstr.","postalCode":"90530","locality":"Wendelstein","municipality":{"key":"09576151","name":"Wendelstein, M","type":"Markt"},"district":{"key":"09576","name":"Roth","type":"Landkreis"},"federalState":{"key":"09","name":"Bayern"}},{"name":"Daimlerstr.","postalCode":"90530","locality":"Wendelstein","municipality":{"key":"09576151","name":"Wendelstein, M","type":"Markt"},"district":{"key":"09576","name":"Roth","type":"Landkreis"},"federalState":{"key":"09","name":"Bayern"}},{"name":"Datschenweg","postalCode":"90530","locality":"Wendelstein","municipality":{"key":"09576151","name":"Wendelstein, M","type":"Markt"},"district":{"key":"09576","name":"Roth","type":"Landkreis"},"federalState":{"key":"09","name":"Bayern"}},{"name":"Doktorsbuck","postalCode":"90530","locality":"Wendelstein","municipality":{"key":"09576151","name":"Wendelstein, M","type":"Markt"},"district":{"key":"09576","name":"Roth","type":"Landkreis"},"federalState":{"key":"09","name":"Bayern"}},{"name":"Drechslerstr.","postalCode":"90530","locality":"Wendelstein","municipality":{"key":"09576151","name":"Wendelstein, M","type":"Markt"},"district":{"key":"09576","name":"Roth","type":"Landkreis"},"federalState":{"key":"09","name":"Bayern"}},{"name":"Drosselstr.","postalCode":"90530","locality":"Wendelstein","municipality":{"key":"09576151","name":"Wendelstein, M","type":"Markt"},"district":{"key":"09576","name":"Roth","type":"Landkreis"},"federalState":{"key":"09","name":"Bayern"}},{"name":"Dürrenhembach","postalCode":"90530","locality":"Wendelstein","municipality":{"key":"09576151","name":"Wendelstein, M","type":"Markt"},"district":{"key":"09576","name":"Roth","type":"Landkreis"},"federalState":{"key":"09","name":"Bayern"}},{"name":"Eddastr.","postalCode":"90530","locality":"Wendelstein","municipality":{"key":"09576151","name":"Wendelstein, M","type":"Markt"},"district":{"key":"09576","name":"Roth","type":"Landkreis"},"federalState":{"key":"09","name":"Bayern"}},{"name":"Efeustr.","postalCode":"90530","locality":"Wendelstein","municipality":{"key":"09576151","name":"Wendelstein, M","type":"Markt"},"district":{"key":"09576","name":"Roth","type":"Landkreis"},"federalState":{"key":"09","name":"Bayern"}},{"name":"Eibenstr.","postalCode":"90530","locality":"Wendelstein","municipality":{"key":"09576151","name":"Wendelstein, M","type":"Markt"},"district":{"key":"09576","name":"Roth","type":"Landkreis"},"federalState":{"key":"09","name":"Bayern"}},{"name":"Eichengrund","postalCode":"90530","locality":"Wendelstein","municipality":{"key":"09576151","name":"Wendelstein, M","type":"Markt"},"district":{"key":"09576","name":"Roth","type":"Landkreis"},"federalState":{"key":"09","name":"Bayern"}},{"name":"Eichenstr.","postalCode":"90530","locality":"Wendelstein","municipality":{"key":"09576151","name":"Wendelstein, M","type":"Markt"},"district":{"key":"09576","name":"Roth","type":"Landkreis"},"federalState":{"key":"09","name":"Bayern"}},{"name":"Eichhornweg","postalCode":"90530","locality":"Wendelstein","municipality":{"key":"09576151","name":"Wendelstein, M","type":"Markt"},"district":{"key":"09576","name":"Roth","type":"Landkreis"},"federalState":{"key":"09","name":"Bayern"}},{"name":"Eisenschlag 22","postalCode":"90530","locality":"Wendelstein","municipality":{"key":"09576151","name":"Wendelstein, M","type":"Markt"},"district":{"key":"09576","name":"Roth","type":"Landkreis"},"federalState":{"key":"09","name":"Bayern"}},{"name":"Elsterweg","postalCode":"90530","locality":"Wendelstein","municipality":{"key":"09576151","name":"Wendelstein, M","type":"Markt"},"district":{"key":"09576","name":"Roth","type":"Landkreis"},"federalState":{"key":"09","name":"Bayern"}},{"name":"Enßerweg","postalCode":"90530","locality":"Wendelstein","municipality":{"key":"09576151","name":"Wendelstein, M","type":"Markt"},"district":{"key":"09576","name":"Roth","type":"Landkreis"},"federalState":{"key":"09","name":"Bayern"}},{"name":"Entenweg","postalCode":"90530","locality":"Wendelstein","municipality":{"key":"09576151","name":"Wendelstein, M","type":"Markt"},"district":{"key":"09576","name":"Roth","type":"Landkreis"},"federalState":{"key":"09","name":"Bayern"}},{"name":"Enzianweg","postalCode":"90530","locality":"Wendelstein","municipality":{"key":"09576151","name":"Wendelstein, M","type":"Markt"},"district":{"key":"09576","name":"Roth","type":"Landkreis"},"federalState":{"key":"09","name":"Bayern"}},{"name":"Erlenstr.","postalCode":"90530","locality":"Wendelstein","municipality":{"key":"09576151","name":"Wendelstein, M","type":"Markt"},"district":{"key":"09576","name":"Roth","type":"Landkreis"},"federalState":{"key":"09","name":"Bayern"}},{"name":"Eschenstr.","postalCode":"90530","locality":"Wendelstein","municipality":{"key":"09576151","name":"Wendelstein, M","type":"Markt"},"district":{"key":"09576","name":"Roth","type":"Landkreis"},"federalState":{"key":"09","name":"Bayern"}},{"name":"Espenstr.","postalCode":"90530","locality":"Wendelstein","municipality":{"key":"09576151","name":"Wendelstein, M","type":"Markt"},"district":{"key":"09576","name":"Roth","type":"Landkreis"},"federalState":{"key":"09","name":"Bayern"}},{"name":"Fabrikstr.","postalCode":"90530","locality":"Wendelstein","municipality":{"key":"09576151","name":"Wendelstein, M","type":"Markt"},"district":{"key":"09576","name":"Roth","type":"Landkreis"},"federalState":{"key":"09","name":"Bayern"}},{"name":"Falkenweg","postalCode":"90530","locality":"Wendelstein","municipality":{"key":"09576151","name":"Wendelstein, M","type":"Markt"},"district":{"key":"09576","name":"Roth","type":"Landkreis"},"federalState":{"key":"09","name":"Bayern"}},{"name":"Farnstr.","postalCode":"90530","locality":"Wendelstein","municipality":{"key":"09576151","name":"Wendelstein, M","type":"Markt"},"district":{"key":"09576","name":"Roth","type":"Landkreis"},"federalState":{"key":"09","name":"Bayern"}},{"name":"Fasanenweg","postalCode":"90530","locality":"Wendelstein","municipality":{"key":"09576151","name":"Wendelstein, M","type":"Markt"},"district":{"key":"09576","name":"Roth","type":"Landkreis"},"federalState":{"key":"09","name":"Bayern"}},{"name":"Feldstr.","postalCode":"90530","locality":"Wendelstein","municipality":{"key":"09576151","name":"Wendelstein, M","type":"Markt"},"district":{"key":"09576","name":"Roth","type":"Landkreis"},"federalState":{"key":"09","name":"Bayern"}},{"name":"Feuchter Str.","postalCode":"90530","locality":"Wendelstein","municipality":{"key":"09576151","name":"Wendelstein, M","type":"Markt"},"district":{"key":"09576","name":"Roth","type":"Landkreis"},"federalState":{"key":"09","name":"Bayern"}},{"name":"Fichtenstr.","postalCode":"90530","locality":"Wendelstein","municipality":{"key":"09576151","name":"Wendelstein, M","type":"Markt"},"district":{"key":"09576","name":"Roth","type":"Landkreis"},"federalState":{"key":"09","name":"Bayern"}},{"name":"Finkenweg","postalCode":"90530","locality":"Wendelstein","municipality":{"key":"09576151","name":"Wendelstein, M","type":"Markt"},"district":{"key":"09576","name":"Roth","type":"Landkreis"},"federalState":{"key":"09","name":"Bayern"}},{"name":"Fliederstr.","postalCode":"90530","locality":"Wendelstein","municipality":{"key":"09576151","name":"Wendelstein, M","type":"Markt"},"district":{"key":"09576","name":"Roth","type":"Landkreis"},"federalState":{"key":"09","name":"Bayern"}},{"name":"Flurstr.","postalCode":"90530","locality":"Wendelstein","municipality":{"key":"09576151","name":"Wendelstein, M","type":"Markt"},"district":{"key":"09576","name":"Roth","type":"Landkreis"},"federalState":{"key":"09","name":"Bayern"}},{"name":"Föhrenstr.","postalCode":"90530","locality":"Wendelstein","municipality":{"key":"09576151","name":"Wendelstein, M","type":"Markt"},"district":{"key":"09576","name":"Roth","type":"Landkreis"},"federalState":{"key":"09","name":"Bayern"}},{"name":"Forststr.","postalCode":"90530","locality":"Wendelstein","municipality":{"key":"09576151","name":"Wendelstein, M","type":"Markt"},"district":{"key":"09576","name":"Roth","type":"Landkreis"},"federalState":{"key":"09","name":"Bayern"}},{"name":"Frankenstr.","postalCode":"90530","locality":"Wendelstein","municipality":{"key":"09576151","name":"Wendelstein, M","type":"Markt"},"district":{"key":"09576","name":"Roth","type":"Landkreis"},"federalState":{"key":"09","name":"Bayern"}},{"name":"Friedrich-Silcher-Str.","postalCode":"90530","locality":"Wendelstein","municipality":{"key":"09576151","name":"Wendelstein, M","type":"Markt"},"district":{"key":"09576","name":"Roth","type":"Landkreis"},"federalState":{"key":"09","name":"Bayern"}},{"name":"Fuchsenweg","postalCode":"90530","locality":"Wendelstein","municipality":{"key":"09576151","name":"Wendelstein, M","type":"Markt"},"district":{"key":"09576","name":"Roth","type":"Landkreis"},"federalState":{"key":"09","name":"Bayern"}},{"name":"Fuchsstr.","postalCode":"90530","locality":"Wendelstein","municipality":{"key":"09576151","name":"Wendelstein, M","type":"Markt"},"district":{"key":"09576","name":"Roth","type":"Landkreis"},"federalState":{"key":"09","name":"Bayern"}},{"name":"Further Str.","postalCode":"90530","locality":"Wendelstein","municipality":{"key":"09576151","name":"Wendelstein, M","type":"Markt"},"district":{"key":"09576","name":"Roth","type":"Landkreis"},"federalState":{"key":"09","name":"Bayern"}},{"name":"Ganghoferstr.","postalCode":"90530","locality":"Wendelstein","municipality":{"key":"09576151","name":"Wendelstein, M","type":"Markt"},"district":{"key":"09576","name":"Roth","type":"Landkreis"},"federalState":{"key":"09","name":"Bayern"}},{"name":"Gartenweg","postalCode":"90530","locality":"Wendelstein","municipality":{"key":"09576151","name":"Wendelstein, M","type":"Markt"},"district":{"key":"09576","name":"Roth","type":"Landkreis"},"federalState":{"key":"09","name":"Bayern"}},{"name":"Gärtnerweg","postalCode":"90530","locality":"Wendelstein","municipality":{"key":"09576151","name":"Wendelstein, M","type":"Markt"},"district":{"key":"09576","name":"Roth","type":"Landkreis"},"federalState":{"key":"09","name":"Bayern"}},{"name":"Georg-Löhlein-Str.","postalCode":"90530","locality":"Wendelstein","municipality":{"key":"09576151","name":"Wendelstein, M","type":"Markt"},"district":{"key":"09576","name":"Roth","type":"Landkreis"},"federalState":{"key":"09","name":"Bayern"}},{"name":"Gerhart-Hauptmann-Str.","postalCode":"90530","locality":"Wendelstein","municipality":{"key":"09576151","name":"Wendelstein, M","type":"Markt"},"district":{"key":"09576","name":"Roth","type":"Landkreis"},"federalState":{"key":"09","name":"Bayern"}},{"name":"Gernotstr.","postalCode":"90530","locality":"Wendelstein","municipality":{"key":"09576151","name":"Wendelstein, M","type":"Markt"},"district":{"key":"09576","name":"Roth","type":"Landkreis"},"federalState":{"key":"09","name":"Bayern"}},{"name":"Ginsterweg","postalCode":"90530","locality":"Wendelstein","municipality":{"key":"09576151","name":"Wendelstein, M","type":"Markt"},"district":{"key":"09576","name":"Roth","type":"Landkreis"},"federalState":{"key":"09","name":"Bayern"}},{"name":"Goldweg","postalCode":"90530","locality":"Wendelstein","municipality":{"key":"09576151","name":"Wendelstein, M","type":"Markt"},"district":{"key":"09576","name":"Roth","type":"Landkreis"},"federalState":{"key":"09","name":"Bayern"}},{"name":"Greuther Str.","postalCode":"90530","locality":"Wendelstein","municipality":{"key":"09576151","name":"Wendelstein, M","type":"Markt"},"district":{"key":"09576","name":"Roth","type":"Landkreis"},"federalState":{"key":"09","name":"Bayern"}},{"name":"Gudrunstr.","postalCode":"90530","locality":"Wendelstein","municipality":{"key":"09576151","name":"Wendelstein, M","type":"Markt"},"district":{"key":"09576","name":"Roth","type":"Landkreis"},"federalState":{"key":"09","name":"Bayern"}},{"name":"Guntherstr.","postalCode":"90530","locality":"Wendelstein","municipality":{"key":"09576151","name":"Wendelstein, M","type":"Markt"},"district":{"key":"09576","name":"Roth","type":"Landkreis"},"federalState":{"key":"09","name":"Bayern"}},{"name":"Habichtweg","postalCode":"90530","locality":"Wendelstein","municipality":{"key":"09576151","name":"Wendelstein, M","type":"Markt"},"district":{"key":"09576","name":"Roth","type":"Landkreis"},"federalState":{"key":"09","name":"Bayern"}},{"name":"Hagenstr.","postalCode":"90530","locality":"Wendelstein","municipality":{"key":"09576151","name":"Wendelstein, M","type":"Markt"},"district":{"key":"09576","name":"Roth","type":"Landkreis"},"federalState":{"key":"09","name":"Bayern"}},{"name":"Hahnenfalz 23 a","postalCode":"90530","locality":"Wendelstein","municipality":{"key":"09576151","name":"Wendelstein, M","type":"Markt"},"district":{"key":"09576","name":"Roth","type":"Landkreis"},"federalState":{"key":"09","name":"Bayern"}},{"name":"Hallweg","postalCode":"90530","locality":"Wendelstein","municipality":{"key":"09576151","name":"Wendelstein, M","type":"Markt"},"district":{"key":"09576","name":"Roth","type":"Landkreis"},"federalState":{"key":"09","name":"Bayern"}},{"name":"Händelstr.","postalCode":"90530","locality":"Wendelstein","municipality":{"key":"09576151","name":"Wendelstein, M","type":"Markt"},"district":{"key":"09576","name":"Roth","type":"Landkreis"},"federalState":{"key":"09","name":"Bayern"}},{"name":"Handwerkerweg","postalCode":"90530","locality":"Wendelstein","municipality":{"key":"09576151","name":"Wendelstein, M","type":"Markt"},"district":{"key":"09576","name":"Roth","type":"Landkreis"},"federalState":{"key":"09","name":"Bayern"}},{"name":"Hänsenwöhr","postalCode":"90530","locality":"Wendelstein","municipality":{"key":"09576151","name":"Wendelstein, M","type":"Markt"},"district":{"key":"09576","name":"Roth","type":"Landkreis"},"federalState":{"key":"09","name":"Bayern"}},{"name":"Hans-Kudlich-Str.","postalCode":"90530","locality":"Wendelstein","municipality":{"key":"09576151","name":"Wendelstein, M","type":"Markt"},"district":{"key":"09576","name":"Roth","type":"Landkreis"},"federalState":{"key":"09","name":"Bayern"}},{"name":"Hans-Sachs-Str.","postalCode":"90530","locality":"Wendelstein","municipality":{"key":"09576151","name":"Wendelstein, M","type":"Markt"},"district":{"key":"09576","name":"Roth","type":"Landkreis"},"federalState":{"key":"09","name":"Bayern"}},{"name":"Harrlacher Weg","postalCode":"90530","locality":"Wendelstein","municipality":{"key":"09576151","name":"Wendelstein, M","type":"Markt"},"district":{"key":"09576","name":"Roth","type":"Landkreis"},"federalState":{"key":"09","name":"Bayern"}},{"name":"Hauptstr.","postalCode":"90530","locality":"Wendelstein","municipality":{"key":"09576151","name":"Wendelstein, M","type":"Markt"},"district":{"key":"09576","name":"Roth","type":"Landkreis"},"federalState":{"key":"09","name":"Bayern"}},{"name":"Heidestr.","postalCode":"90530","locality":"Wendelstein","municipality":{"key":"09576151","name":"Wendelstein, M","type":"Markt"},"district":{"key":"09576","name":"Roth","type":"Landkreis"},"federalState":{"key":"09","name":"Bayern"}},{"name":"Heimstr.","postalCode":"90530","locality":"Wendelstein","municipality":{"key":"09576151","name":"Wendelstein, M","type":"Markt"},"district":{"key":"09576","name":"Roth","type":"Landkreis"},"federalState":{"key":"09","name":"Bayern"}},{"name":"Heinrich-Müller-Str.","postalCode":"90530","locality":"Wendelstein","municipality":{"key":"09576151","name":"Wendelstein, M","type":"Markt"},"district":{"key":"09576","name":"Roth","type":"Landkreis"},"federalState":{"key":"09","name":"Bayern"}},{"name":"Heinrich-Wich-Str.","postalCode":"90530","locality":"Wendelstein","municipality":{"key":"09576151","name":"Wendelstein, M","type":"Markt"},"district":{"key":"09576","name":"Roth","type":"Landkreis"},"federalState":{"key":"09","name":"Bayern"}},{"name":"Hembacher Weg","postalCode":"90530","locality":"Wendelstein","municipality":{"key":"09576151","name":"Wendelstein, M","type":"Markt"},"district":{"key":"09576","name":"Roth","type":"Landkreis"},"federalState":{"key":"09","name":"Bayern"}},{"name":"Hermann-Hetzel-Str.","postalCode":"90530","locality":"Wendelstein","municipality":{"key":"09576151","name":"Wendelstein, M","type":"Markt"},"district":{"key":"09576","name":"Roth","type":"Landkreis"},"federalState":{"key":"09","name":"Bayern"}},{"name":"Heuweg","postalCode":"90530","locality":"Wendelstein","municipality":{"key":"09576151","name":"Wendelstein, M","type":"Markt"},"district":{"key":"09576","name":"Roth","type":"Landkreis"},"federalState":{"key":"09","name":"Bayern"}},{"name":"Hinterer Mühlbuck","postalCode":"90530","locality":"Wendelstein","municipality":{"key":"09576151","name":"Wendelstein, M","type":"Markt"},"district":{"key":"09576","name":"Roth","type":"Landkreis"},"federalState":{"key":"09","name":"Bayern"}},{"name":"Hinteres Dorf","postalCode":"90530","locality":"Wendelstein","municipality":{"key":"09576151","name":"Wendelstein, M","type":"Markt"},"district":{"key":"09576","name":"Roth","type":"Landkreis"},"federalState":{"key":"09","name":"Bayern"}},{"name":"Hirschenholzstr.","postalCode":"90530","locality":"Wendelstein","municipality":{"key":"09576151","name":"Wendelstein, M","type":"Markt"},"district":{"key":"09576","name":"Roth","type":"Landkreis"},"federalState":{"key":"09","name":"Bayern"}},{"name":"Hirtenbuck","postalCode":"90530","locality":"Wendelstein","municipality":{"key":"09576151","name":"Wendelstein, M","type":"Markt"},"district":{"key":"09576","name":"Roth","type":"Landkreis"},"federalState":{"key":"09","name":"Bayern"}},{"name":"Hofäckerstr.","postalCode":"90530","locality":"Wendelstein","municipality":{"key":"09576151","name":"Wendelstein, M","type":"Markt"},"district":{"key":"09576","name":"Roth","type":"Landkreis"},"federalState":{"key":"09","name":"Bayern"}},{"name":"Hohenwarthstr.","postalCode":"90530","locality":"Wendelstein","municipality":{"key":"09576151","name":"Wendelstein, M","type":"Markt"},"district":{"key":"09576","name":"Roth","type":"Landkreis"},"federalState":{"key":"09","name":"Bayern"}},{"name":"Holunderweg","postalCode":"90530","locality":"Wendelstein","municipality":{"key":"09576151","name":"Wendelstein, M","type":"Markt"},"district":{"key":"09576","name":"Roth","type":"Landkreis"},"federalState":{"key":"09","name":"Bayern"}},{"name":"Hopfenstr.","postalCode":"90530","locality":"Wendelstein","municipality":{"key":"09576151","name":"Wendelstein, M","type":"Markt"},"district":{"key":"09576","name":"Roth","type":"Landkreis"},"federalState":{"key":"09","name":"Bayern"}},{"name":"Hortweg","postalCode":"90530","locality":"Wendelstein","municipality":{"key":"09576151","name":"Wendelstein, M","type":"Markt"},"district":{"key":"09576","name":"Roth","type":"Landkreis"},"federalState":{"key":"09","name":"Bayern"}},{"name":"Hubertusstr.","postalCode":"90530","locality":"Wendelstein","municipality":{"key":"09576151","name":"Wendelstein, M","type":"Markt"},"district":{"key":"09576","name":"Roth","type":"Landkreis"},"federalState":{"key":"09","name":"Bayern"}},{"name":"Idealweg","postalCode":"90530","locality":"Wendelstein","municipality":{"key":"09576151","name":"Wendelstein, M","type":"Markt"},"district":{"key":"09576","name":"Roth","type":"Landkreis"},"federalState":{"key":"09","name":"Bayern"}},{"name":"Im Winkel","postalCode":"90530","locality":"Wendelstein","municipality":{"key":"09576151","name":"Wendelstein, M","type":"Markt"},"district":{"key":"09576","name":"Roth","type":"Landkreis"},"federalState":{"key":"09","name":"Bayern"}},{"name":"In der Au","postalCode":"90530","locality":"Wendelstein","municipality":{"key":"09576151","name":"Wendelstein, M","type":"Markt"},"district":{"key":"09576","name":"Roth","type":"Landkreis"},"federalState":{"key":"09","name":"Bayern"}},{"name":"In der Gibitzen","postalCode":"90530","locality":"Wendelstein","municipality":{"key":"09576151","name":"Wendelstein, M","type":"Markt"},"district":{"key":"09576","name":"Roth","type":"Landkreis"},"federalState":{"key":"09","name":"Bayern"}},{"name":"In der Lach","postalCode":"90530","locality":"Wendelstein","municipality":{"key":"09576151","name":"Wendelstein, M","type":"Markt"},"district":{"key":"09576","name":"Roth","type":"Landkreis"},"federalState":{"key":"09","name":"Bayern"}},{"name":"Irrlweg","postalCode":"90530","locality":"Wendelstein","municipality":{"key":"09576151","name":"Wendelstein, M","type":"Markt"},"district":{"key":"09576","name":"Roth","type":"Landkreis"},"federalState":{"key":"09","name":"Bayern"}},{"name":"Jagdstr.","postalCode":"90530","locality":"Wendelstein","municipality":{"key":"09576151","name":"Wendelstein, M","type":"Markt"},"district":{"key":"09576","name":"Roth","type":"Landkreis"},"federalState":{"key":"09","name":"Bayern"}},{"name":"Jegelstr.","postalCode":"90530","locality":"Wendelstein","municipality":{"key":"09576151","name":"Wendelstein, M","type":"Markt"},"district":{"key":"09576","name":"Roth","type":"Landkreis"},"federalState":{"key":"09","name":"Bayern"}},{"name":"Johann-Höllfritsch-Str.","postalCode":"90530","locality":"Wendelstein","municipality":{"key":"09576151","name":"Wendelstein, M","type":"Markt"},"district":{"key":"09576","name":"Roth","type":"Landkreis"},"federalState":{"key":"09","name":"Bayern"}},{"name":"Johann-Trinker-Str.","postalCode":"90530","locality":"Wendelstein","municipality":{"key":"09576151","name":"Wendelstein, M","type":"Markt"},"district":{"key":"09576","name":"Roth","type":"Landkreis"},"federalState":{"key":"09","name":"Bayern"}},{"name":"Joseph-Haydn-Str.","postalCode":"90530","locality":"Wendelstein","municipality":{"key":"09576151","name":"Wendelstein, M","type":"Markt"},"district":{"key":"09576","name":"Roth","type":"Landkreis"},"federalState":{"key":"09","name":"Bayern"}},{"name":"Kapellenweg","postalCode":"90530","locality":"Wendelstein","municipality":{"key":"09576151","name":"Wendelstein, M","type":"Markt"},"district":{"key":"09576","name":"Roth","type":"Landkreis"},"federalState":{"key":"09","name":"Bayern"}},{"name":"Kastanienstr.","postalCode":"90530","locality":"Wendelstein","municipality":{"key":"09576151","name":"Wendelstein, M","type":"Markt"},"district":{"key":"09576","name":"Roth","type":"Landkreis"},"federalState":{"key":"09","name":"Bayern"}},{"name":"Katzwanger Str.","postalCode":"90530","locality":"Wendelstein","municipality":{"key":"09576151","name":"Wendelstein, M","type":"Markt"},"district":{"key":"09576","name":"Roth","type":"Landkreis"},"federalState":{"key":"09","name":"Bayern"}},{"name":"Kellerstr.","postalCode":"90530","locality":"Wendelstein","municipality":{"key":"09576151","name":"Wendelstein, M","type":"Markt"},"district":{"key":"09576","name":"Roth","type":"Landkreis"},"federalState":{"key":"09","name":"Bayern"}},{"name":"Kiefernschlag","postalCode":"90530","locality":"Wendelstein","municipality":{"key":"09576151","name":"Wendelstein, M","type":"Markt"},"district":{"key":"09576","name":"Roth","type":"Landkreis"},"federalState":{"key":"09","name":"Bayern"}},{"name":"Kilianstr.","postalCode":"90530","locality":"Wendelstein","municipality":{"key":"09576151","name":"Wendelstein, M","type":"Markt"},"district":{"key":"09576","name":"Roth","type":"Landkreis"},"federalState":{"key":"09","name":"Bayern"}},{"name":"Kirchenstr.","postalCode":"90530","locality":"Wendelstein","municipality":{"key":"09576151","name":"Wendelstein, M","type":"Markt"},"district":{"key":"09576","name":"Roth","type":"Landkreis"},"federalState":{"key":"09","name":"Bayern"}},{"name":"Kleestr.","postalCode":"90530","locality":"Wendelstein","municipality":{"key":"09576151","name":"Wendelstein, M","type":"Markt"},"district":{"key":"09576","name":"Roth","type":"Landkreis"},"federalState":{"key":"09","name":"Bayern"}},{"name":"Köhlerstr.","postalCode":"90530","locality":"Wendelstein","municipality":{"key":"09576151","name":"Wendelstein, M","type":"Markt"},"district":{"key":"09576","name":"Roth","type":"Landkreis"},"federalState":{"key":"09","name":"Bayern"}},{"name":"Kornburger Str.","postalCode":"90530","locality":"Wendelstein","municipality":{"key":"09576151","name":"Wendelstein, M","type":"Markt"},"district":{"key":"09576","name":"Roth","type":"Landkreis"},"federalState":{"key":"09","name":"Bayern"}},{"name":"Kriemhildstr.","postalCode":"90530","locality":"Wendelstein","municipality":{"key":"09576151","name":"Wendelstein, M","type":"Markt"},"district":{"key":"09576","name":"Roth","type":"Landkreis"},"federalState":{"key":"09","name":"Bayern"}},{"name":"Krokusstr.","postalCode":"90530","locality":"Wendelstein","municipality":{"key":"09576151","name":"Wendelstein, M","type":"Markt"},"district":{"key":"09576","name":"Roth","type":"Landkreis"},"federalState":{"key":"09","name":"Bayern"}},{"name":"Kugelhammerweg","postalCode":"90530","locality":"Wendelstein","municipality":{"key":"09576151","name":"Wendelstein, M","type":"Markt"},"district":{"key":"09576","name":"Roth","type":"Landkreis"},"federalState":{"key":"09","name":"Bayern"}},{"name":"Kunigunde-Kreuzer-Str.","postalCode":"90530","locality":"Wendelstein","municipality":{"key":"09576151","name":"Wendelstein, M","type":"Markt"},"district":{"key":"09576","name":"Roth","type":"Landkreis"},"federalState":{"key":"09","name":"Bayern"}},{"name":"Langäckerleinsweg","postalCode":"90530","locality":"Wendelstein","municipality":{"key":"09576151","name":"Wendelstein, M","type":"Markt"},"district":{"key":"09576","name":"Roth","type":"Landkreis"},"federalState":{"key":"09","name":"Bayern"}},{"name":"Lanzenweiher","postalCode":"90530","locality":"Wendelstein","municipality":{"key":"09576151","name":"Wendelstein, M","type":"Markt"},"district":{"key":"09576","name":"Roth","type":"Landkreis"},"federalState":{"key":"09","name":"Bayern"}},{"name":"Lärchenweg","postalCode":"90530","locality":"Wendelstein","municipality":{"key":"09576151","name":"Wendelstein, M","type":"Markt"},"district":{"key":"09576","name":"Roth","type":"Landkreis"},"federalState":{"key":"09","name":"Bayern"}},{"name":"Leerstetter Str.","postalCode":"90530","locality":"Wendelstein","municipality":{"key":"09576151","name":"Wendelstein, M","type":"Markt"},"district":{"key":"09576","name":"Roth","type":"Landkreis"},"federalState":{"key":"09","name":"Bayern"}},{"name":"Leinschlag","postalCode":"90530","locality":"Wendelstein","municipality":{"key":"09576151","name":"Wendelstein, M","type":"Markt"},"district":{"key":"09576","name":"Roth","type":"Landkreis"},"federalState":{"key":"09","name":"Bayern"}},{"name":"Ligusterstr.","postalCode":"90530","locality":"Wendelstein","municipality":{"key":"09576151","name":"Wendelstein, M","type":"Markt"},"district":{"key":"09576","name":"Roth","type":"Landkreis"},"federalState":{"key":"09","name":"Bayern"}},{"name":"Lindenstr.","postalCode":"90530","locality":"Wendelstein","municipality":{"key":"09576151","name":"Wendelstein, M","type":"Markt"},"district":{"key":"09576","name":"Roth","type":"Landkreis"},"federalState":{"key":"09","name":"Bayern"}},{"name":"Ludwig-Thoma-Str.","postalCode":"90530","locality":"Wendelstein","municipality":{"key":"09576151","name":"Wendelstein, M","type":"Markt"},"district":{"key":"09576","name":"Roth","type":"Landkreis"},"federalState":{"key":"09","name":"Bayern"}},{"name":"Lupinenstr.","postalCode":"90530","locality":"Wendelstein","municipality":{"key":"09576151","name":"Wendelstein, M","type":"Markt"},"district":{"key":"09576","name":"Roth","type":"Landkreis"},"federalState":{"key":"09","name":"Bayern"}},{"name":"Margaretenstr.","postalCode":"90530","locality":"Wendelstein","municipality":{"key":"09576151","name":"Wendelstein, M","type":"Markt"},"district":{"key":"09576","name":"Roth","type":"Landkreis"},"federalState":{"key":"09","name":"Bayern"}},{"name":"Marktstr.","postalCode":"90530","locality":"Wendelstein","municipality":{"key":"09576151","name":"Wendelstein, M","type":"Markt"},"district":{"key":"09576","name":"Roth","type":"Landkreis"},"federalState":{"key":"09","name":"Bayern"}},{"name":"Max-Reger-Weg","postalCode":"90530","locality":"Wendelstein","municipality":{"key":"09576151","name":"Wendelstein, M","type":"Markt"},"district":{"key":"09576","name":"Roth","type":"Landkreis"},"federalState":{"key":"09","name":"Bayern"}},{"name":"Messererstr.","postalCode":"90530","locality":"Wendelstein","municipality":{"key":"09576151","name":"Wendelstein, M","type":"Markt"},"district":{"key":"09576","name":"Roth","type":"Landkreis"},"federalState":{"key":"09","name":"Bayern"}},{"name":"Mittelweg","postalCode":"90530","locality":"Wendelstein","municipality":{"key":"09576151","name":"Wendelstein, M","type":"Markt"},"district":{"key":"09576","name":"Roth","type":"Landkreis"},"federalState":{"key":"09","name":"Bayern"}},{"name":"Mohnweg","postalCode":"90530","locality":"Wendelstein","municipality":{"key":"09576151","name":"Wendelstein, M","type":"Markt"},"district":{"key":"09576","name":"Roth","type":"Landkreis"},"federalState":{"key":"09","name":"Bayern"}},{"name":"Moosweg","postalCode":"90530","locality":"Wendelstein","municipality":{"key":"09576151","name":"Wendelstein, M","type":"Markt"},"district":{"key":"09576","name":"Roth","type":"Landkreis"},"federalState":{"key":"09","name":"Bayern"}},{"name":"Mozartstr.","postalCode":"90530","locality":"Wendelstein","municipality":{"key":"09576151","name":"Wendelstein, M","type":"Markt"},"district":{"key":"09576","name":"Roth","type":"Landkreis"},"federalState":{"key":"09","name":"Bayern"}},{"name":"Mühlstr.","postalCode":"90530","locality":"Wendelstein","municipality":{"key":"09576151","name":"Wendelstein, M","type":"Markt"},"district":{"key":"09576","name":"Roth","type":"Landkreis"},"federalState":{"key":"09","name":"Bayern"}},{"name":"Nachtigallenweg","postalCode":"90530","locality":"Wendelstein","municipality":{"key":"09576151","name":"Wendelstein, M","type":"Markt"},"district":{"key":"09576","name":"Roth","type":"Landkreis"},"federalState":{"key":"09","name":"Bayern"}},{"name":"Nägeleinsbuck","postalCode":"90530","locality":"Wendelstein","municipality":{"key":"09576151","name":"Wendelstein, M","type":"Markt"},"district":{"key":"09576","name":"Roth","type":"Landkreis"},"federalState":{"key":"09","name":"Bayern"}},{"name":"Narzissenweg","postalCode":"90530","locality":"Wendelstein","municipality":{"key":"09576151","name":"Wendelstein, M","type":"Markt"},"district":{"key":"09576","name":"Roth","type":"Landkreis"},"federalState":{"key":"09","name":"Bayern"}},{"name":"Nelkenstr.","postalCode":"90530","locality":"Wendelstein","municipality":{"key":"09576151","name":"Wendelstein, M","type":"Markt"},"district":{"key":"09576","name":"Roth","type":"Landkreis"},"federalState":{"key":"09","name":"Bayern"}},{"name":"Nibelungenstr.","postalCode":"90530","locality":"Wendelstein","municipality":{"key":"09576151","name":"Wendelstein, M","type":"Markt"},"district":{"key":"09576","name":"Roth","type":"Landkreis"},"federalState":{"key":"09","name":"Bayern"}},{"name":"Nobelstr.","postalCode":"90530","locality":"Wendelstein","municipality":{"key":"09576151","name":"Wendelstein, M","type":"Markt"},"district":{"key":"09576","name":"Roth","type":"Landkreis"},"federalState":{"key":"09","name":"Bayern"}},{"name":"Nürnberger Str.","postalCode":"90530","locality":"Wendelstein","municipality":{"key":"09576151","name":"Wendelstein, M","type":"Markt"},"district":{"key":"09576","name":"Roth","type":"Landkreis"},"federalState":{"key":"09","name":"Bayern"}},{"name":"Obere Kanalstr.","postalCode":"90530","locality":"Wendelstein","municipality":{"key":"09576151","name":"Wendelstein, M","type":"Markt"},"district":{"key":"09576","name":"Roth","type":"Landkreis"},"federalState":{"key":"09","name":"Bayern"}},{"name":"Orchideenstr.","postalCode":"90530","locality":"Wendelstein","municipality":{"key":"09576151","name":"Wendelstein, M","type":"Markt"},"district":{"key":"09576","name":"Roth","type":"Landkreis"},"federalState":{"key":"09","name":"Bayern"}},{"name":"Ostring","postalCode":"90530","locality":"Wendelstein","municipality":{"key":"09576151","name":"Wendelstein, M","type":"Markt"},"district":{"key":"09576","name":"Roth","type":"Landkreis"},"federalState":{"key":"09","name":"Bayern"}},{"name":"Otto-Hübner-Ring","postalCode":"90530","locality":"Wendelstein","municipality":{"key":"09576151","name":"Wendelstein, M","type":"Markt"},"district":{"key":"09576","name":"Roth","type":"Landkreis"},"federalState":{"key":"09","name":"Bayern"}},{"name":"Pachelbelweg","postalCode":"90530","locality":"Wendelstein","municipality":{"key":"09576151","name":"Wendelstein, M","type":"Markt"},"district":{"key":"09576","name":"Roth","type":"Landkreis"},"federalState":{"key":"09","name":"Bayern"}},{"name":"Pappelstr.","postalCode":"90530","locality":"Wendelstein","municipality":{"key":"09576151","name":"Wendelstein, M","type":"Markt"},"district":{"key":"09576","name":"Roth","type":"Landkreis"},"federalState":{"key":"09","name":"Bayern"}},{"name":"Parkstr.","postalCode":"90530","locality":"Wendelstein","municipality":{"key":"09576151","name":"Wendelstein, M","type":"Markt"},"district":{"key":"09576","name":"Roth","type":"Landkreis"},"federalState":{"key":"09","name":"Bayern"}},{"name":"Pauckerstr.","postalCode":"90530","locality":"Wendelstein","municipality":{"key":"09576151","name":"Wendelstein, M","type":"Markt"},"district":{"key":"09576","name":"Roth","type":"Landkreis"},"federalState":{"key":"09","name":"Bayern"}},{"name":"Penzendorfer Str.","postalCode":"90530","locality":"Wendelstein","municipality":{"key":"09576151","name":"Wendelstein, M","type":"Markt"},"district":{"key":"09576","name":"Roth","type":"Landkreis"},"federalState":{"key":"09","name":"Bayern"}},{"name":"Pfarrgartenweg","postalCode":"90530","locality":"Wendelstein","municipality":{"key":"09576151","name":"Wendelstein, M","type":"Markt"},"district":{"key":"09576","name":"Roth","type":"Landkreis"},"federalState":{"key":"09","name":"Bayern"}},{"name":"Pfarrhof","postalCode":"90530","locality":"Wendelstein","municipality":{"key":"09576151","name":"Wendelstein, M","type":"Markt"},"district":{"key":"09576","name":"Roth","type":"Landkreis"},"federalState":{"key":"09","name":"Bayern"}},{"name":"Platanenstr.","postalCode":"90530","locality":"Wendelstein","municipality":{"key":"09576151","name":"Wendelstein, M","type":"Markt"},"district":{"key":"09576","name":"Roth","type":"Landkreis"},"federalState":{"key":"09","name":"Bayern"}},{"name":"Porschestr.","postalCode":"90530","locality":"Wendelstein","municipality":{"key":"09576151","name":"Wendelstein, M","type":"Markt"},"district":{"key":"09576","name":"Roth","type":"Landkreis"},"federalState":{"key":"09","name":"Bayern"}},{"name":"Primelweg","postalCode":"90530","locality":"Wendelstein","municipality":{"key":"09576151","name":"Wendelstein, M","type":"Markt"},"district":{"key":"09576","name":"Roth","type":"Landkreis"},"federalState":{"key":"09","name":"Bayern"}},{"name":"Quellengasse","postalCode":"97797","locality":"Wartmannsroth","municipality":{"key":"09672161","name":"Wartmannsroth","type":"Kreisangehörige_Gemeinde"},"district":{"key":"09672","name":"Bad Kissingen","type":"Landkreis"},"federalState":{"key":"09","name":"Bayern"}},{"name":"Quellenweg","postalCode":"49214","locality":"Bad Rothenfelde","municipality":{"key":"03459006","name":"Bad Rothenfelde","type":"Kreisangehörige_Gemeinde"},"district":{"key":"03459","name":"Osnabrück","type":"Landkreis"},"federalState":{"key":"03","name":"Niedersachsen"}},{"name":"Quellenweg","postalCode":"53809","locality":"Ruppichteroth","municipality":{"key":"05382052","name":"Ruppichteroth","type":"Kreisangehörige_Gemeinde"},"district":{"key":"05382","name":"Rhein-Sieg-Kreis","type":"Kreis"},"federalState":{"key":"05","name":"Nordrhein-Westfalen"}},{"name":"Quellgrund","postalCode":"49214","locality":"Bad Rothenfelde","municipality":{"key":"03459006","name":"Bad Rothenfelde","type":"Kreisangehörige_Gemeinde"},"district":{"key":"03459","name":"Osnabrück","type":"Landkreis"},"federalState":{"key":"03","name":"Niedersachsen"}},{"name":"Querbachshof","postalCode":"97618","locality":"Hohenroth","municipality":{"key":"09673135","name":"Hohenroth","type":"Kreisangehörige_Gemeinde"},"district":{"key":"09673","name":"Rhön-Grabfeld","type":"Landkreis"},"federalState":{"key":"09","name":"Bayern"}},{"name":"Querbachshofer Str.","postalCode":"97618","locality":"Hohenroth","municipality":{"key":"09673135","name":"Hohenroth","type":"Kreisangehörige_Gemeinde"},"district":{"key":"09673","name":"Rhön-Grabfeld","type":"Landkreis"},"federalState":{"key":"09","name":"Bayern"}},{"name":"querfeldein","postalCode":"53809","locality":"Ruppichteroth","municipality":{"key":"05382052","name":"Ruppichteroth","type":"Kreisangehörige_Gemeinde"},"district":{"key":"05382","name":"Rhein-Sieg-Kreis","type":"Kreis"},"federalState":{"key":"05","name":"Nordrhein-Westfalen"}},{"name":"Radwiese","postalCode":"90530","locality":"Wendelstein","municipality":{"key":"09576151","name":"Wendelstein, M","type":"Markt"},"district":{"key":"09576","name":"Roth","type":"Landkreis"},"federalState":{"key":"09","name":"Bayern"}},{"name":"Raischenpeckstr.","postalCode":"90530","locality":"Wendelstein","municipality":{"key":"09576151","name":"Wendelstein, M","type":"Markt"},"district":{"key":"09576","name":"Roth","type":"Landkreis"},"federalState":{"key":"09","name":"Bayern"}},{"name":"Rangaustr.","postalCode":"90530","locality":"Wendelstein","municipality":{"key":"09576151","name":"Wendelstein, M","type":"Markt"},"district":{"key":"09576","name":"Roth","type":"Landkreis"},"federalState":{"key":"09","name":"Bayern"}},{"name":"Rathauspark","postalCode":"90530","locality":"Wendelstein","municipality":{"key":"09576151","name":"Wendelstein, M","type":"Markt"},"district":{"key":"09576","name":"Roth","type":"Landkreis"},"federalState":{"key":"09","name":"Bayern"}},{"name":"Raubersrieder Weg","postalCode":"90530","locality":"Wendelstein","municipality":{"key":"09576151","name":"Wendelstein, M","type":"Markt"},"district":{"key":"09576","name":"Roth","type":"Landkreis"},"federalState":{"key":"09","name":"Bayern"}},{"name":"Rebhuhnweg","postalCode":"90530","locality":"Wendelstein","municipality":{"key":"09576151","name":"Wendelstein, M","type":"Markt"},"district":{"key":"09576","name":"Roth","type":"Landkreis"},"federalState":{"key":"09","name":"Bayern"}},{"name":"Reiherweg","postalCode":"90530","locality":"Wendelstein","municipality":{"key":"09576151","name":"Wendelstein, M","type":"Markt"},"district":{"key":"09576","name":"Roth","type":"Landkreis"},"federalState":{"key":"09","name":"Bayern"}},{"name":"Richard-Wagner-Str.","postalCode":"90530","locality":"Wendelstein","municipality":{"key":"09576151","name":"Wendelstein, M","type":"Markt"},"district":{"key":"09576","name":"Roth","type":"Landkreis"},"federalState":{"key":"09","name":"Bayern"}},{"name":"Richtweg","postalCode":"90530","locality":"Wendelstein","municipality":{"key":"09576151","name":"Wendelstein, M","type":"Markt"},"district":{"key":"09576","name":"Roth","type":"Landkreis"},"federalState":{"key":"09","name":"Bayern"}},{"name":"Rieterstr.","postalCode":"90530","locality":"Wendelstein","municipality":{"key":"09576151","name":"Wendelstein, M","type":"Markt"},"district":{"key":"09576","name":"Roth","type":"Landkreis"},"federalState":{"key":"09","name":"Bayern"}},{"name":"Römerstr.","postalCode":"90530","locality":"Wendelstein","municipality":{"key":"09576151","name":"Wendelstein, M","type":"Markt"},"district":{"key":"09576","name":"Roth","type":"Landkreis"},"federalState":{"key":"09","name":"Bayern"}},{"name":"Rosengartenstr.","postalCode":"90530","locality":"Wendelstein","municipality":{"key":"09576151","name":"Wendelstein, M","type":"Markt"},"district":{"key":"09576","name":"Roth","type":"Landkreis"},"federalState":{"key":"09","name":"Bayern"}},{"name":"Rosenstr.","postalCode":"90530","locality":"Wendelstein","municipality":{"key":"09576151","name":"Wendelstein, M","type":"Markt"},"district":{"key":"09576","name":"Roth","type":"Landkreis"},"federalState":{"key":"09","name":"Bayern"}},{"name":"Röthenbacher Str.","postalCode":"90530","locality":"Wendelstein","municipality":{"key":"09576151","name":"Wendelstein, M","type":"Markt"},"district":{"key":"09576","name":"Roth","type":"Landkreis"},"federalState":{"key":"09","name":"Bayern"}},{"name":"Rother Str.","postalCode":"90530","locality":"Wendelstein","municipality":{"key":"09576151","name":"Wendelstein, M","type":"Markt"},"district":{"key":"09576","name":"Roth","type":"Landkreis"},"federalState":{"key":"09","name":"Bayern"}},{"name":"Sandstr.","postalCode":"90530","locality":"Wendelstein","municipality":{"key":"09576151","name":"Wendelstein, M","type":"Markt"},"district":{"key":"09576","name":"Roth","type":"Landkreis"},"federalState":{"key":"09","name":"Bayern"}},{"name":"Schäferstr.","postalCode":"90530","locality":"Wendelstein","municipality":{"key":"09576151","name":"Wendelstein, M","type":"Markt"},"district":{"key":"09576","name":"Roth","type":"Landkreis"},"federalState":{"key":"09","name":"Bayern"}},{"name":"Schaftnacher Weg","postalCode":"90530","locality":"Wendelstein","municipality":{"key":"09576151","name":"Wendelstein, M","type":"Markt"},"district":{"key":"09576","name":"Roth","type":"Landkreis"},"federalState":{"key":"09","name":"Bayern"}},{"name":"Schloßsteig","postalCode":"90530","locality":"Wendelstein","municipality":{"key":"09576151","name":"Wendelstein, M","type":"Markt"},"district":{"key":"09576","name":"Roth","type":"Landkreis"},"federalState":{"key":"09","name":"Bayern"}},{"name":"Schmiedeweg","postalCode":"90530","locality":"Wendelstein","municipality":{"key":"09576151","name":"Wendelstein, M","type":"Markt"},"district":{"key":"09576","name":"Roth","type":"Landkreis"},"federalState":{"key":"09","name":"Bayern"}},{"name":"Schubertstr.","postalCode":"90530","locality":"Wendelstein","municipality":{"key":"09576151","name":"Wendelstein, M","type":"Markt"},"district":{"key":"09576","name":"Roth","type":"Landkreis"},"federalState":{"key":"09","name":"Bayern"}},{"name":"Schulhofstr.","postalCode":"90530","locality":"Wendelstein","municipality":{"key":"09576151","name":"Wendelstein, M","type":"Markt"},"district":{"key":"09576","name":"Roth","type":"Landkreis"},"federalState":{"key":"09","name":"Bayern"}},{"name":"Schulstr.","postalCode":"90530","locality":"Wendelstein","municipality":{"key":"09576151","name":"Wendelstein, M","type":"Markt"},"district":{"key":"09576","name":"Roth","type":"Landkreis"},"federalState":{"key":"09","name":"Bayern"}},{"name":"Schwabacher Str.","postalCode":"90530","locality":"Wendelstein","municipality":{"key":"09576151","name":"Wendelstein, M","type":"Markt"},"district":{"key":"09576","name":"Roth","type":"Landkreis"},"federalState":{"key":"09","name":"Bayern"}},{"name":"Schwalbenweg","postalCode":"90530","locality":"Wendelstein","municipality":{"key":"09576151","name":"Wendelstein, M","type":"Markt"},"district":{"key":"09576","name":"Roth","type":"Landkreis"},"federalState":{"key":"09","name":"Bayern"}},{"name":"Schwander Str.","postalCode":"90530","locality":"Wendelstein","municipality":{"key":"09576151","name":"Wendelstein, M","type":"Markt"},"district":{"key":"09576","name":"Roth","type":"Landkreis"},"federalState":{"key":"09","name":"Bayern"}},{"name":"Schwarzachweg","postalCode":"90530","locality":"Wendelstein","municipality":{"key":"09576151","name":"Wendelstein, M","type":"Markt"},"district":{"key":"09576","name":"Roth","type":"Landkreis"},"federalState":{"key":"09","name":"Bayern"}},{"name":"Seitenstr.","postalCode":"90530","locality":"Wendelstein","municipality":{"key":"09576151","name":"Wendelstein, M","type":"Markt"},"district":{"key":"09576","name":"Roth","type":"Landkreis"},"federalState":{"key":"09","name":"Bayern"}},{"name":"Siedlerstr.","postalCode":"90530","locality":"Wendelstein","municipality":{"key":"09576151","name":"Wendelstein, M","type":"Markt"},"district":{"key":"09576","name":"Roth","type":"Landkreis"},"federalState":{"key":"09","name":"Bayern"}},{"name":"Siegfriedstr.","postalCode":"90530","locality":"Wendelstein","municipality":{"key":"09576151","name":"Wendelstein, M","type":"Markt"},"district":{"key":"09576","name":"Roth","type":"Landkreis"},"federalState":{"key":"09","name":"Bayern"}},{"name":"Sonnenstr.","postalCode":"90530","locality":"Wendelstein","municipality":{"key":"09576151","name":"Wendelstein, M","type":"Markt"},"district":{"key":"09576","name":"Roth","type":"Landkreis"},"federalState":{"key":"09","name":"Bayern"}},{"name":"Sorger Weg","postalCode":"90530","locality":"Wendelstein","municipality":{"key":"09576151","name":"Wendelstein, M","type":"Markt"},"district":{"key":"09576","name":"Roth","type":"Landkreis"},"federalState":{"key":"09","name":"Bayern"}},{"name":"Sorgwiesen","postalCode":"90530","locality":"Wendelstein","municipality":{"key":"09576151","name":"Wendelstein, M","type":"Markt"},"district":{"key":"09576","name":"Roth","type":"Landkreis"},"federalState":{"key":"09","name":"Bayern"}},{"name":"Spechtweg","postalCode":"90530","locality":"Wendelstein","municipality":{"key":"09576151","name":"Wendelstein, M","type":"Markt"},"district":{"key":"09576","name":"Roth","type":"Landkreis"},"federalState":{"key":"09","name":"Bayern"}},{"name":"Sperbersloher Str.","postalCode":"90530","locality":"Wendelstein","municipality":{"key":"09576151","name":"Wendelstein, M","type":"Markt"},"district":{"key":"09576","name":"Roth","type":"Landkreis"},"federalState":{"key":"09","name":"Bayern"}},{"name":"Sperberstr.","postalCode":"90530","locality":"Wendelstein","municipality":{"key":"09576151","name":"Wendelstein, M","type":"Markt"},"district":{"key":"09576","name":"Roth","type":"Landkreis"},"federalState":{"key":"09","name":"Bayern"}},{"name":"Sperlingstr.","postalCode":"90530","locality":"Wendelstein","municipality":{"key":"09576151","name":"Wendelstein, M","type":"Markt"},"district":{"key":"09576","name":"Roth","type":"Landkreis"},"federalState":{"key":"09","name":"Bayern"}},{"name":"Stadlerweg","postalCode":"90530","locality":"Wendelstein","municipality":{"key":"09576151","name":"Wendelstein, M","type":"Markt"},"district":{"key":"09576","name":"Roth","type":"Landkreis"},"federalState":{"key":"09","name":"Bayern"}},{"name":"Starstr.","postalCode":"90530","locality":"Wendelstein","municipality":{"key":"09576151","name":"Wendelstein, M","type":"Markt"},"district":{"key":"09576","name":"Roth","type":"Landkreis"},"federalState":{"key":"09","name":"Bayern"}},{"name":"Südallee","postalCode":"90475","locality":"Wendelstein","municipality":{"key":"09576151","name":"Wendelstein, M","type":"Markt"},"district":{"key":"09576","name":"Roth","type":"Landkreis"},"federalState":{"key":"09","name":"Bayern"}},{"name":"Südring","postalCode":"90530","locality":"Wendelstein","municipality":{"key":"09576151","name":"Wendelstein, M","type":"Markt"},"district":{"key":"09576","name":"Roth","type":"Landkreis"},"federalState":{"key":"09","name":"Bayern"}},{"name":"Tannenstr.","postalCode":"90530","locality":"Wendelstein","municipality":{"key":"09576151","name":"Wendelstein, M","type":"Markt"},"district":{"key":"09576","name":"Roth","type":"Landkreis"},"federalState":{"key":"09","name":"Bayern"}},{"name":"Taubenstr.","postalCode":"90530","locality":"Wendelstein","municipality":{"key":"09576151","name":"Wendelstein, M","type":"Markt"},"district":{"key":"09576","name":"Roth","type":"Landkreis"},"federalState":{"key":"09","name":"Bayern"}},{"name":"Thomas-Dachser-Str.","postalCode":"90475","locality":"Wendelstein","municipality":{"key":"09576151","name":"Wendelstein, M","type":"Markt"},"district":{"key":"09576","name":"Roth","type":"Landkreis"},"federalState":{"key":"09","name":"Bayern"}},{"name":"Tiefentalstr.","postalCode":"90530","locality":"Wendelstein","municipality":{"key":"09576151","name":"Wendelstein, M","type":"Markt"},"district":{"key":"09576","name":"Roth","type":"Landkreis"},"federalState":{"key":"09","name":"Bayern"}},{"name":"Treidelsweg","postalCode":"90530","locality":"Wendelstein","municipality":{"key":"09576151","name":"Wendelstein, M","type":"Markt"},"district":{"key":"09576","name":"Roth","type":"Landkreis"},"federalState":{"key":"09","name":"Bayern"}},{"name":"Tulpenstr.","postalCode":"90530","locality":"Wendelstein","municipality":{"key":"09576151","name":"Wendelstein, M","type":"Markt"},"district":{"key":"09576","name":"Roth","type":"Landkreis"},"federalState":{"key":"09","name":"Bayern"}},{"name":"Ulmenstr.","postalCode":"90530","locality":"Wendelstein","municipality":{"key":"09576151","name":"Wendelstein, M","type":"Markt"},"district":{"key":"09576","name":"Roth","type":"Landkreis"},"federalState":{"key":"09","name":"Bayern"}},{"name":"Untere Kanalstr.","postalCode":"90530","locality":"Wendelstein","municipality":{"key":"09576151","name":"Wendelstein, M","type":"Markt"},"district":{"key":"09576","name":"Roth","type":"Landkreis"},"federalState":{"key":"09","name":"Bayern"}},{"name":"Untere Rathausgasse","postalCode":"90530","locality":"Wendelstein","municipality":{"key":"09576151","name":"Wendelstein, M","type":"Markt"},"district":{"key":"09576","name":"Roth","type":"Landkreis"},"federalState":{"key":"09","name":"Bayern"}},{"name":"Unterer Hirtenbuck","postalCode":"90530","locality":"Wendelstein","municipality":{"key":"09576151","name":"Wendelstein, M","type":"Markt"},"district":{"key":"09576","name":"Roth","type":"Landkreis"},"federalState":{"key":"09","name":"Bayern"}},{"name":"Veilchenstr.","postalCode":"90530","locality":"Wendelstein","municipality":{"key":"09576151","name":"Wendelstein, M","type":"Markt"},"district":{"key":"09576","name":"Roth","type":"Landkreis"},"federalState":{"key":"09","name":"Bayern"}},{"name":"Verein zur Erhaltung der Fränkischen Grillkultur e.V.","postalCode":"90530","locality":"Wendelstein","municipality":{"key":"09576151","name":"Wendelstein, M","type":"Markt"},"district":{"key":"09576","name":"Roth","type":"Landkreis"},"federalState":{"key":"09","name":"Bayern"}},{"name":"Von-Kreß-Str.","postalCode":"90530","locality":"Wendelstein","municipality":{"key":"09576151","name":"Wendelstein, M","type":"Markt"},"district":{"key":"09576","name":"Roth","type":"Landkreis"},"federalState":{"key":"09","name":"Bayern"}},{"name":"Von-Schlüsselfelder-Str.","postalCode":"90530","locality":"Wendelstein","municipality":{"key":"09576151","name":"Wendelstein, M","type":"Markt"},"district":{"key":"09576","name":"Roth","type":"Landkreis"},"federalState":{"key":"09","name":"Bayern"}},{"name":"Von-Volckamer-Str.","postalCode":"90530","locality":"Wendelstein","municipality":{"key":"09576151","name":"Wendelstein, M","type":"Markt"},"district":{"key":"09576","name":"Roth","type":"Landkreis"},"federalState":{"key":"09","name":"Bayern"}},{"name":"Vorderer Mühlbuck","postalCode":"90530","locality":"Wendelstein","municipality":{"key":"09576151","name":"Wendelstein, M","type":"Markt"},"district":{"key":"09576","name":"Roth","type":"Landkreis"},"federalState":{"key":"09","name":"Bayern"}},{"name":"Waldstr.","postalCode":"90530","locality":"Wendelstein","municipality":{"key":"09576151","name":"Wendelstein, M","type":"Markt"},"district":{"key":"09576","name":"Roth","type":"Landkreis"},"federalState":{"key":"09","name":"Bayern"}},{"name":"Weberweg","postalCode":"90530","locality":"Wendelstein","municipality":{"key":"09576151","name":"Wendelstein, M","type":"Markt"},"district":{"key":"09576","name":"Roth","type":"Landkreis"},"federalState":{"key":"09","name":"Bayern"}},{"name":"Weidenstr.","postalCode":"90530","locality":"Wendelstein","municipality":{"key":"09576151","name":"Wendelstein, M","type":"Markt"},"district":{"key":"09576","name":"Roth","type":"Landkreis"},"federalState":{"key":"09","name":"Bayern"}},{"name":"Weiherstr.","postalCode":"90530","locality":"Wendelstein","municipality":{"key":"09576151","name":"Wendelstein, M","type":"Markt"},"district":{"key":"09576","name":"Roth","type":"Landkreis"},"federalState":{"key":"09","name":"Bayern"}},{"name":"Wendelsteiner Str.","postalCode":"90530","locality":"Wendelstein","municipality":{"key":"09576151","name":"Wendelstein, M","type":"Markt"},"district":{"key":"09576","name":"Roth","type":"Landkreis"},"federalState":{"key":"09","name":"Bayern"}},{"name":"Wiesenstr.","postalCode":"90530","locality":"Wendelstein","municipality":{"key":"09576151","name":"Wendelstein, M","type":"Markt"},"district":{"key":"09576","name":"Roth","type":"Landkreis"},"federalState":{"key":"09","name":"Bayern"}},{"name":"Wiesenweg","postalCode":"90530","locality":"Wendelstein","municipality":{"key":"09576151","name":"Wendelstein, M","type":"Markt"},"district":{"key":"09576","name":"Roth","type":"Landkreis"},"federalState":{"key":"09","name":"Bayern"}},{"name":"Wilhelm-Maisel-Str.","postalCode":"90530","locality":"Wendelstein","municipality":{"key":"09576151","name":"Wendelstein, M","type":"Markt"},"district":{"key":"09576","name":"Roth","type":"Landkreis"},"federalState":{"key":"09","name":"Bayern"}},{"name":"Willibaldstr.","postalCode":"90530","locality":"Wendelstein","municipality":{"key":"09576151","name":"Wendelstein, M","type":"Markt"},"district":{"key":"09576","name":"Roth","type":"Landkreis"},"federalState":{"key":"09","name":"Bayern"}},{"name":"Wodanstr.","postalCode":"90530","locality":"Wendelstein","municipality":{"key":"09576151","name":"Wendelstein, M","type":"Markt"},"district":{"key":"09576","name":"Roth","type":"Landkreis"},"federalState":{"key":"09","name":"Bayern"}},{"name":"Wolfgang-Borchert-Str.","postalCode":"90530","locality":"Wendelstein","municipality":{"key":"09576151","name":"Wendelstein, M","type":"Markt"},"district":{"key":"09576","name":"Roth","type":"Landkreis"},"federalState":{"key":"09","name":"Bayern"}},{"name":"Wolfgang-Dinkler-Str.","postalCode":"90530","locality":"Wendelstein","municipality":{"key":"09576151","name":"Wendelstein, M","type":"Markt"},"district":{"key":"09576","name":"Roth","type":"Landkreis"},"federalState":{"key":"09","name":"Bayern"}},{"name":"Wolfgangstr.","postalCode":"90530","locality":"Wendelstein","municipality":{"key":"09576151","name":"Wendelstein, M","type":"Markt"},"district":{"key":"09576","name":"Roth","type":"Landkreis"},"federalState":{"key":"09","name":"Bayern"}},{"name":"Xaver-Meisinger-Str.","postalCode":"91154","locality":"Roth","municipality":{"key":"09576143","name":"Roth, St","type":"Stadt"},"district":{"key":"09576","name":"Roth","type":"Landkreis"},"federalState":{"key":"09","name":"Bayern"}},{"name":"Zandersstr.","postalCode":"90530","locality":"Wendelstein","municipality":{"key":"09576151","name":"Wendelstein, M","type":"Markt"},"district":{"key":"09576","name":"Roth","type":"Landkreis"},"federalState":{"key":"09","name":"Bayern"}},{"name":"Zedernstr.","postalCode":"90530","locality":"Wendelstein","municipality":{"key":"09576151","name":"Wendelstein, M","type":"Markt"},"district":{"key":"09576","name":"Roth","type":"Landkreis"},"federalState":{"key":"09","name":"Bayern"}},{"name":"Zeidlerstr.","postalCode":"90530","locality":"Wendelstein","municipality":{"key":"09576151","name":"Wendelstein, M","type":"Markt"},"district":{"key":"09576","name":"Roth","type":"Landkreis"},"federalState":{"key":"09","name":"Bayern"}},{"name":"Zeisigweg","postalCode":"90530","locality":"Wendelstein","municipality":{"key":"09576151","name":"Wendelstein, M","type":"Markt"},"district":{"key":"09576","name":"Roth","type":"Landkreis"},"federalState":{"key":"09","name":"Bayern"}},{"name":"Zum Handwerkerhof","postalCode":"90530","locality":"Wendelstein","municipality":{"key":"09576151","name":"Wendelstein, M","type":"Markt"},"district":{"key":"09576","name":"Roth","type":"Landkreis"},"federalState":{"key":"09","name":"Bayern"}},{"name":"Zum neuen Friedhof","postalCode":"90530","locality":"Wendelstein","municipality":{"key":"09576151","name":"Wendelstein, M","type":"Markt"},"district":{"key":"09576","name":"Roth","type":"Landkreis"},"federalState":{"key":"09","name":"Bayern"}},{"name":"Zum Schloß","postalCode":"90530","locality":"Wendelstein","municipality":{"key":"09576151","name":"Wendelstein, M","type":"Markt"},"district":{"key":"09576","name":"Roth","type":"Landkreis"},"federalState":{"key":"09","name":"Bayern"}},{"name":"Zum Sportheim","postalCode":"90530","locality":"Wendelstein","municipality":{"key":"09576151","name":"Wendelstein, M","type":"Markt"},"district":{"key":"09576","name":"Roth","type":"Landkreis"},"federalState":{"key":"09","name":"Bayern"}},{"name":"Äckerleinsweg","postalCode":"97705","locality":"Burkardroth","municipality":{"key":"09672117","name":"Burkardroth, M","type":"Markt"},"district":{"key":"09672","name":"Bad Kissingen","type":"Landkreis"},"federalState":{"key":"09","name":"Bayern"}},{"name":"Äußere Abenberger Str.","postalCode":"91154","locality":"Roth","municipality":{"key":"09576143","name":"Roth, St","type":"Stadt"},"district":{"key":"09576","name":"Roth","type":"Landkreis"},"federalState":{"key":"09","name":"Bayern"}},{"name":"Äußere Belmbracher Str.","postalCode":"91154","locality":"Roth","municipality":{"key":"09576143","name":"Roth, St","type":"Stadt"},"district":{"key":"09576","name":"Roth","type":"Landkreis"},"federalState":{"key":"09","name":"Bayern"}},{"name":"Äußere Nürnberger Str.","postalCode":"91154","locality":"Roth","municipality":{"key":"09576143","name":"Roth, St","type":"Stadt"},"district":{"key":"09576","name":"Roth","type":"Landkreis"},"federalState":{"key":"09","name":"Bayern"}},{"name":"Ölberg","postalCode":"63860","locality":"Rothenbuch","municipality":{"key":"09671148","name":"Rothenbuch","type":"Kreisangehörige_Gemeinde"},"district":{"key":"09671","name":"Aschaffenburg","type":"Landkreis"},"federalState":{"key":"09","name":"Bayern"}},]