[{"name":"Adalbert-Stifter-Str.","postalCode":"94137","locality":"Bayerbach","municipality":{"key":"09277112","name":"Bayerbach","type":"Kreisangehörige_Gemeinde"},"district":{"key":"09277","name":"Rottal-Inn","type":"Landkreis"},"federalState":{"key":"09","name":"Bayern"}},{"name":"Ahornstr.","postalCode":"84092","locality":"Bayerbach b. Ergoldsbach","municipality":{"key":"09274119","name":"Bayerbach b.Ergoldsbach","type":"Kreisangehörige_Gemeinde"},"district":{"key":"09274","name":"Landshut","type":"Landkreis"},"federalState":{"key":"09","name":"Bayern"}},{"name":"Akazienstr.","postalCode":"84092","locality":"Bayerbach b. Ergoldsbach","municipality":{"key":"09274119","name":"Bayerbach b.Ergoldsbach","type":"Kreisangehörige_Gemeinde"},"district":{"key":"09274","name":"Landshut","type":"Landkreis"},"federalState":{"key":"09","name":"Bayern"}},{"name":"Am Alten Brunnen","postalCode":"94137","locality":"Bayerbach","municipality":{"key":"09277112","name":"Bayerbach","type":"Kreisangehörige_Gemeinde"},"district":{"key":"09277","name":"Rottal-Inn","type":"Landkreis"},"federalState":{"key":"09","name":"Bayern"}},{"name":"Am Berg","postalCode":"84092","locality":"Bayerbach b. Ergoldsbach","municipality":{"key":"09274119","name":"Bayerbach b.Ergoldsbach","type":"Kreisangehörige_Gemeinde"},"district":{"key":"09274","name":"Landshut","type":"Landkreis"},"federalState":{"key":"09","name":"Bayern"}},{"name":"Am Campingplatz","postalCode":"94137","locality":"Bayerbach","municipality":{"key":"09277112","name":"Bayerbach","type":"Kreisangehörige_Gemeinde"},"district":{"key":"09277","name":"Rottal-Inn","type":"Landkreis"},"federalState":{"key":"09","name":"Bayern"}},{"name":"Am Schachten","postalCode":"84092","locality":"Bayerbach b. Ergoldsbach","municipality":{"key":"09274119","name":"Bayerbach b.Ergoldsbach","type":"Kreisangehörige_Gemeinde"},"district":{"key":"09274","name":"Landshut","type":"Landkreis"},"federalState":{"key":"09","name":"Bayern"}},{"name":"Anton-Perdolt-Str.","postalCode":"94137","locality":"Bayerbach","municipality":{"key":"09277112","name":"Bayerbach","type":"Kreisangehörige_Gemeinde"},"district":{"key":"09277","name":"Rottal-Inn","type":"Landkreis"},"federalState":{"key":"09","name":"Bayern"}},{"name":"Armannsberger Str.","postalCode":"84092","locality":"Bayerbach b. Ergoldsbach","municipality":{"key":"09274119","name":"Bayerbach b.Ergoldsbach","type":"Kreisangehörige_Gemeinde"},"district":{"key":"09274","name":"Landshut","type":"Landkreis"},"federalState":{"key":"09","name":"Bayern"}},{"name":"Asbacher Str.","postalCode":"84092","locality":"Bayerbach b. Ergoldsbach","municipality":{"key":"09274119","name":"Bayerbach b.Ergoldsbach","type":"Kreisangehörige_Gemeinde"},"district":{"key":"09274","name":"Landshut","type":"Landkreis"},"federalState":{"key":"09","name":"Bayern"}},{"name":"Au","postalCode":"94137","locality":"Bayerbach","municipality":{"key":"09277112","name":"Bayerbach","type":"Kreisangehörige_Gemeinde"},"district":{"key":"09277","name":"Rottal-Inn","type":"Landkreis"},"federalState":{"key":"09","name":"Bayern"}},{"name":"Bachstr.","postalCode":"84092","locality":"Bayerbach b. Ergoldsbach","municipality":{"key":"09274119","name":"Bayerbach b.Ergoldsbach","type":"Kreisangehörige_Gemeinde"},"district":{"key":"09274","name":"Landshut","type":"Landkreis"},"federalState":{"key":"09","name":"Bayern"}},{"name":"Bachweg","postalCode":"94137","locality":"Bayerbach","municipality":{"key":"09277112","name":"Bayerbach","type":"Kreisangehörige_Gemeinde"},"district":{"key":"09277","name":"Rottal-Inn","type":"Landkreis"},"federalState":{"key":"09","name":"Bayern"}},{"name":"Bahnhofstr.","postalCode":"94137","locality":"Bayerbach","municipality":{"key":"09277112","name":"Bayerbach","type":"Kreisangehörige_Gemeinde"},"district":{"key":"09277","name":"Rottal-Inn","type":"Landkreis"},"federalState":{"key":"09","name":"Bayern"}},{"name":"Bajuwarenweg","postalCode":"84092","locality":"Bayerbach b. Ergoldsbach","municipality":{"key":"09274119","name":"Bayerbach b.Ergoldsbach","type":"Kreisangehörige_Gemeinde"},"district":{"key":"09274","name":"Landshut","type":"Landkreis"},"federalState":{"key":"09","name":"Bayern"}},{"name":"Bayerbacher Str.","postalCode":"84092","locality":"Bayerbach b. Ergoldsbach","municipality":{"key":"09274119","name":"Bayerbach b.Ergoldsbach","type":"Kreisangehörige_Gemeinde"},"district":{"key":"09274","name":"Landshut","type":"Landkreis"},"federalState":{"key":"09","name":"Bayern"}},{"name":"Bergstr.","postalCode":"84092","locality":"Bayerbach b. Ergoldsbach","municipality":{"key":"09274119","name":"Bayerbach b.Ergoldsbach","type":"Kreisangehörige_Gemeinde"},"district":{"key":"09274","name":"Landshut","type":"Landkreis"},"federalState":{"key":"09","name":"Bayern"}},{"name":"Bruder-Konrad-Weg","postalCode":"94137","locality":"Bayerbach","municipality":{"key":"09277112","name":"Bayerbach","type":"Kreisangehörige_Gemeinde"},"district":{"key":"09277","name":"Rottal-Inn","type":"Landkreis"},"federalState":{"key":"09","name":"Bayern"}},{"name":"Brunnweg","postalCode":"94137","locality":"Bayerbach","municipality":{"key":"09277112","name":"Bayerbach","type":"Kreisangehörige_Gemeinde"},"district":{"key":"09277","name":"Rottal-Inn","type":"Landkreis"},"federalState":{"key":"09","name":"Bayern"}},{"name":"Buchenstr.","postalCode":"84092","locality":"Bayerbach b. Ergoldsbach","municipality":{"key":"09274119","name":"Bayerbach b.Ergoldsbach","type":"Kreisangehörige_Gemeinde"},"district":{"key":"09274","name":"Landshut","type":"Landkreis"},"federalState":{"key":"09","name":"Bayern"}},{"name":"Carl-Adam-Str.","postalCode":"94137","locality":"Bayerbach","municipality":{"key":"09277112","name":"Bayerbach","type":"Kreisangehörige_Gemeinde"},"district":{"key":"09277","name":"Rottal-Inn","type":"Landkreis"},"federalState":{"key":"09","name":"Bayern"}},{"name":"Carossastr.","postalCode":"94137","locality":"Bayerbach","municipality":{"key":"09277112","name":"Bayerbach","type":"Kreisangehörige_Gemeinde"},"district":{"key":"09277","name":"Rottal-Inn","type":"Landkreis"},"federalState":{"key":"09","name":"Bayern"}},{"name":"Dorfplatz","postalCode":"94137","locality":"Bayerbach","municipality":{"key":"09277112","name":"Bayerbach","type":"Kreisangehörige_Gemeinde"},"district":{"key":"09277","name":"Rottal-Inn","type":"Landkreis"},"federalState":{"key":"09","name":"Bayern"}},{"name":"Dorfstr.","postalCode":"84092","locality":"Bayerbach b. Ergoldsbach","municipality":{"key":"09274119","name":"Bayerbach b.Ergoldsbach","type":"Kreisangehörige_Gemeinde"},"district":{"key":"09274","name":"Landshut","type":"Landkreis"},"federalState":{"key":"09","name":"Bayern"}},{"name":"Dr.-Felix-Str.","postalCode":"84092","locality":"Bayerbach b. Ergoldsbach","municipality":{"key":"09274119","name":"Bayerbach b.Ergoldsbach","type":"Kreisangehörige_Gemeinde"},"district":{"key":"09274","name":"Landshut","type":"Landkreis"},"federalState":{"key":"09","name":"Bayern"}},{"name":"Eichenstr.","postalCode":"84092","locality":"Bayerbach b. Ergoldsbach","municipality":{"key":"09274119","name":"Bayerbach b.Ergoldsbach","type":"Kreisangehörige_Gemeinde"},"district":{"key":"09274","name":"Landshut","type":"Landkreis"},"federalState":{"key":"09","name":"Bayern"}},{"name":"Ergoldsbacher Str.","postalCode":"84092","locality":"Bayerbach b. Ergoldsbach","municipality":{"key":"09274119","name":"Bayerbach b.Ergoldsbach","type":"Kreisangehörige_Gemeinde"},"district":{"key":"09274","name":"Landshut","type":"Landkreis"},"federalState":{"key":"09","name":"Bayern"}},{"name":"Erlenweg","postalCode":"84092","locality":"Bayerbach b. Ergoldsbach","municipality":{"key":"09274119","name":"Bayerbach b.Ergoldsbach","type":"Kreisangehörige_Gemeinde"},"district":{"key":"09274","name":"Landshut","type":"Landkreis"},"federalState":{"key":"09","name":"Bayern"}},{"name":"Etzenbergwerg","postalCode":"94137","locality":"Bayerbach","municipality":{"key":"09277112","name":"Bayerbach","type":"Kreisangehörige_Gemeinde"},"district":{"key":"09277","name":"Rottal-Inn","type":"Landkreis"},"federalState":{"key":"09","name":"Bayern"}},{"name":"Feuchtener Str.","postalCode":"84092","locality":"Bayerbach b. Ergoldsbach","municipality":{"key":"09274119","name":"Bayerbach b.Ergoldsbach","type":"Kreisangehörige_Gemeinde"},"district":{"key":"09274","name":"Landshut","type":"Landkreis"},"federalState":{"key":"09","name":"Bayern"}},{"name":"Frühlingsstr.","postalCode":"84092","locality":"Bayerbach b. Ergoldsbach","municipality":{"key":"09274119","name":"Bayerbach b.Ergoldsbach","type":"Kreisangehörige_Gemeinde"},"district":{"key":"09274","name":"Landshut","type":"Landkreis"},"federalState":{"key":"09","name":"Bayern"}},{"name":"Gerabacher Str.","postalCode":"84092","locality":"Bayerbach b. Ergoldsbach","municipality":{"key":"09274119","name":"Bayerbach b.Ergoldsbach","type":"Kreisangehörige_Gemeinde"},"district":{"key":"09274","name":"Landshut","type":"Landkreis"},"federalState":{"key":"09","name":"Bayern"}},{"name":"Herbststr.","postalCode":"84092","locality":"Bayerbach b. Ergoldsbach","municipality":{"key":"09274119","name":"Bayerbach b.Ergoldsbach","type":"Kreisangehörige_Gemeinde"},"district":{"key":"09274","name":"Landshut","type":"Landkreis"},"federalState":{"key":"09","name":"Bayern"}},{"name":"Hillbachstr.","postalCode":"84092","locality":"Bayerbach b. Ergoldsbach","municipality":{"key":"09274119","name":"Bayerbach b.Ergoldsbach","type":"Kreisangehörige_Gemeinde"},"district":{"key":"09274","name":"Landshut","type":"Landkreis"},"federalState":{"key":"09","name":"Bayern"}},{"name":"Hirtenweg","postalCode":"84092","locality":"Bayerbach b. Ergoldsbach","municipality":{"key":"09274119","name":"Bayerbach b.Ergoldsbach","type":"Kreisangehörige_Gemeinde"},"district":{"key":"09274","name":"Landshut","type":"Landkreis"},"federalState":{"key":"09","name":"Bayern"}},{"name":"Hochfeld","postalCode":"94137","locality":"Bayerbach","municipality":{"key":"09277112","name":"Bayerbach","type":"Kreisangehörige_Gemeinde"},"district":{"key":"09277","name":"Rottal-Inn","type":"Landkreis"},"federalState":{"key":"09","name":"Bayern"}},{"name":"Hochmoos","postalCode":"84092","locality":"Bayerbach b. Ergoldsbach","municipality":{"key":"09274119","name":"Bayerbach b.Ergoldsbach","type":"Kreisangehörige_Gemeinde"},"district":{"key":"09274","name":"Landshut","type":"Landkreis"},"federalState":{"key":"09","name":"Bayern"}},{"name":"Hochmooser Str.","postalCode":"84092","locality":"Bayerbach b. Ergoldsbach","municipality":{"key":"09274119","name":"Bayerbach b.Ergoldsbach","type":"Kreisangehörige_Gemeinde"},"district":{"key":"09274","name":"Landshut","type":"Landkreis"},"federalState":{"key":"09","name":"Bayern"}},{"name":"Hochweg","postalCode":"84092","locality":"Bayerbach b. Ergoldsbach","municipality":{"key":"09274119","name":"Bayerbach b.Ergoldsbach","type":"Kreisangehörige_Gemeinde"},"district":{"key":"09274","name":"Landshut","type":"Landkreis"},"federalState":{"key":"09","name":"Bayern"}},{"name":"Hölskofen","postalCode":"84092","locality":"Bayerbach b. Ergoldsbach","municipality":{"key":"09274119","name":"Bayerbach b.Ergoldsbach","type":"Kreisangehörige_Gemeinde"},"district":{"key":"09274","name":"Landshut","type":"Landkreis"},"federalState":{"key":"09","name":"Bayern"}},{"name":"Huckenham","postalCode":"94137","locality":"Bayerbach","municipality":{"key":"09277112","name":"Bayerbach","type":"Kreisangehörige_Gemeinde"},"district":{"key":"09277","name":"Rottal-Inn","type":"Landkreis"},"federalState":{"key":"09","name":"Bayern"}},{"name":"Jägerweg","postalCode":"94137","locality":"Bayerbach","municipality":{"key":"09277112","name":"Bayerbach","type":"Kreisangehörige_Gemeinde"},"district":{"key":"09277","name":"Rottal-Inn","type":"Landkreis"},"federalState":{"key":"09","name":"Bayern"}},{"name":"Johann-Grienwald-Str.","postalCode":"94137","locality":"Bayerbach","municipality":{"key":"09277112","name":"Bayerbach","type":"Kreisangehörige_Gemeinde"},"district":{"key":"09277","name":"Rottal-Inn","type":"Landkreis"},"federalState":{"key":"09","name":"Bayern"}},{"name":"Joseph-Kaut-Str.","postalCode":"94137","locality":"Bayerbach","municipality":{"key":"09277112","name":"Bayerbach","type":"Kreisangehörige_Gemeinde"},"district":{"key":"09277","name":"Rottal-Inn","type":"Landkreis"},"federalState":{"key":"09","name":"Bayern"}},{"name":"Kapellenberg","postalCode":"84092","locality":"Bayerbach b. Ergoldsbach","municipality":{"key":"09274119","name":"Bayerbach b.Ergoldsbach","type":"Kreisangehörige_Gemeinde"},"district":{"key":"09274","name":"Landshut","type":"Landkreis"},"federalState":{"key":"09","name":"Bayern"}},{"name":"Keltenstr.","postalCode":"84092","locality":"Bayerbach b. Ergoldsbach","municipality":{"key":"09274119","name":"Bayerbach b.Ergoldsbach","type":"Kreisangehörige_Gemeinde"},"district":{"key":"09274","name":"Landshut","type":"Landkreis"},"federalState":{"key":"09","name":"Bayern"}},{"name":"Kirchbergstr.","postalCode":"84092","locality":"Bayerbach b. Ergoldsbach","municipality":{"key":"09274119","name":"Bayerbach b.Ergoldsbach","type":"Kreisangehörige_Gemeinde"},"district":{"key":"09274","name":"Landshut","type":"Landkreis"},"federalState":{"key":"09","name":"Bayern"}},{"name":"Kirchplatz","postalCode":"94137","locality":"Bayerbach","municipality":{"key":"09277112","name":"Bayerbach","type":"Kreisangehörige_Gemeinde"},"district":{"key":"09277","name":"Rottal-Inn","type":"Landkreis"},"federalState":{"key":"09","name":"Bayern"}},{"name":"Kirchweg","postalCode":"84092","locality":"Bayerbach b. Ergoldsbach","municipality":{"key":"09274119","name":"Bayerbach b.Ergoldsbach","type":"Kreisangehörige_Gemeinde"},"district":{"key":"09274","name":"Landshut","type":"Landkreis"},"federalState":{"key":"09","name":"Bayern"}},{"name":"Langwinklerstr.","postalCode":"94137","locality":"Bayerbach","municipality":{"key":"09277112","name":"Bayerbach","type":"Kreisangehörige_Gemeinde"},"district":{"key":"09277","name":"Rottal-Inn","type":"Landkreis"},"federalState":{"key":"09","name":"Bayern"}},{"name":"Lärchenberg","postalCode":"84092","locality":"Bayerbach b. Ergoldsbach","municipality":{"key":"09274119","name":"Bayerbach b.Ergoldsbach","type":"Kreisangehörige_Gemeinde"},"district":{"key":"09274","name":"Landshut","type":"Landkreis"},"federalState":{"key":"09","name":"Bayern"}},{"name":"Lindenstr.","postalCode":"84092","locality":"Bayerbach b. Ergoldsbach","municipality":{"key":"09274119","name":"Bayerbach b.Ergoldsbach","type":"Kreisangehörige_Gemeinde"},"district":{"key":"09274","name":"Landshut","type":"Landkreis"},"federalState":{"key":"09","name":"Bayern"}},{"name":"Lohausenstr.","postalCode":"94137","locality":"Bayerbach","municipality":{"key":"09277112","name":"Bayerbach","type":"Kreisangehörige_Gemeinde"},"district":{"key":"09277","name":"Rottal-Inn","type":"Landkreis"},"federalState":{"key":"09","name":"Bayern"}},{"name":"Luderbach","postalCode":"94137","locality":"Bayerbach","municipality":{"key":"09277112","name":"Bayerbach","type":"Kreisangehörige_Gemeinde"},"district":{"key":"09277","name":"Rottal-Inn","type":"Landkreis"},"federalState":{"key":"09","name":"Bayern"}},{"name":"Marktstr.","postalCode":"84092","locality":"Bayerbach b. Ergoldsbach","municipality":{"key":"09274119","name":"Bayerbach b.Ergoldsbach","type":"Kreisangehörige_Gemeinde"},"district":{"key":"09274","name":"Landshut","type":"Landkreis"},"federalState":{"key":"09","name":"Bayern"}},{"name":"Mühlbachstr.","postalCode":"84092","locality":"Bayerbach b. Ergoldsbach","municipality":{"key":"09274119","name":"Bayerbach b.Ergoldsbach","type":"Kreisangehörige_Gemeinde"},"district":{"key":"09274","name":"Landshut","type":"Landkreis"},"federalState":{"key":"09","name":"Bayern"}},{"name":"Mühlstr.","postalCode":"94137","locality":"Bayerbach","municipality":{"key":"09277112","name":"Bayerbach","type":"Kreisangehörige_Gemeinde"},"district":{"key":"09277","name":"Rottal-Inn","type":"Landkreis"},"federalState":{"key":"09","name":"Bayern"}},{"name":"Otto-Spanner-Str.","postalCode":"84092","locality":"Bayerbach b. Ergoldsbach","municipality":{"key":"09274119","name":"Bayerbach b.Ergoldsbach","type":"Kreisangehörige_Gemeinde"},"district":{"key":"09274","name":"Landshut","type":"Landkreis"},"federalState":{"key":"09","name":"Bayern"}},{"name":"Paindlkofener Str.","postalCode":"84092","locality":"Bayerbach b. Ergoldsbach","municipality":{"key":"09274119","name":"Bayerbach b.Ergoldsbach","type":"Kreisangehörige_Gemeinde"},"district":{"key":"09274","name":"Landshut","type":"Landkreis"},"federalState":{"key":"09","name":"Bayern"}},{"name":"Raumoos","postalCode":"94137","locality":"Bayerbach","municipality":{"key":"09277112","name":"Bayerbach","type":"Kreisangehörige_Gemeinde"},"district":{"key":"09277","name":"Rottal-Inn","type":"Landkreis"},"federalState":{"key":"09","name":"Bayern"}},{"name":"Ringstr.","postalCode":"94137","locality":"Bayerbach","municipality":{"key":"09277112","name":"Bayerbach","type":"Kreisangehörige_Gemeinde"},"district":{"key":"09277","name":"Rottal-Inn","type":"Landkreis"},"federalState":{"key":"09","name":"Bayern"}},{"name":"Rosenweg","postalCode":"84092","locality":"Bayerbach b. Ergoldsbach","municipality":{"key":"09274119","name":"Bayerbach b.Ergoldsbach","type":"Kreisangehörige_Gemeinde"},"district":{"key":"09274","name":"Landshut","type":"Landkreis"},"federalState":{"key":"09","name":"Bayern"}},{"name":"Rottstr.","postalCode":"94137","locality":"Bayerbach","municipality":{"key":"09277112","name":"Bayerbach","type":"Kreisangehörige_Gemeinde"},"district":{"key":"09277","name":"Rottal-Inn","type":"Landkreis"},"federalState":{"key":"09","name":"Bayern"}},{"name":"Schloßpoint","postalCode":"94137","locality":"Bayerbach","municipality":{"key":"09277112","name":"Bayerbach","type":"Kreisangehörige_Gemeinde"},"district":{"key":"09277","name":"Rottal-Inn","type":"Landkreis"},"federalState":{"key":"09","name":"Bayern"}},{"name":"Schloßstr.","postalCode":"84092","locality":"Bayerbach b. Ergoldsbach","municipality":{"key":"09274119","name":"Bayerbach b.Ergoldsbach","type":"Kreisangehörige_Gemeinde"},"district":{"key":"09274","name":"Landshut","type":"Landkreis"},"federalState":{"key":"09","name":"Bayern"}},{"name":"Schloßstr.","postalCode":"94137","locality":"Bayerbach","municipality":{"key":"09277112","name":"Bayerbach","type":"Kreisangehörige_Gemeinde"},"district":{"key":"09277","name":"Rottal-Inn","type":"Landkreis"},"federalState":{"key":"09","name":"Bayern"}},{"name":"Schulstr.","postalCode":"84092","locality":"Bayerbach b. Ergoldsbach","municipality":{"key":"09274119","name":"Bayerbach b.Ergoldsbach","type":"Kreisangehörige_Gemeinde"},"district":{"key":"09274","name":"Landshut","type":"Landkreis"},"federalState":{"key":"09","name":"Bayern"}},{"name":"Schulstr.","postalCode":"94137","locality":"Bayerbach","municipality":{"key":"09277112","name":"Bayerbach","type":"Kreisangehörige_Gemeinde"},"district":{"key":"09277","name":"Rottal-Inn","type":"Landkreis"},"federalState":{"key":"09","name":"Bayern"}},{"name":"Schusterfeld","postalCode":"84092","locality":"Bayerbach b. Ergoldsbach","municipality":{"key":"09274119","name":"Bayerbach b.Ergoldsbach","type":"Kreisangehörige_Gemeinde"},"district":{"key":"09274","name":"Landshut","type":"Landkreis"},"federalState":{"key":"09","name":"Bayern"}},{"name":"Sommerstr.","postalCode":"84092","locality":"Bayerbach b. Ergoldsbach","municipality":{"key":"09274119","name":"Bayerbach b.Ergoldsbach","type":"Kreisangehörige_Gemeinde"},"district":{"key":"09274","name":"Landshut","type":"Landkreis"},"federalState":{"key":"09","name":"Bayern"}},{"name":"Sportplatzsiedlung","postalCode":"84092","locality":"Bayerbach b. Ergoldsbach","municipality":{"key":"09274119","name":"Bayerbach b.Ergoldsbach","type":"Kreisangehörige_Gemeinde"},"district":{"key":"09274","name":"Landshut","type":"Landkreis"},"federalState":{"key":"09","name":"Bayern"}},{"name":"Steinbacher Str.","postalCode":"84092","locality":"Bayerbach b. Ergoldsbach","municipality":{"key":"09274119","name":"Bayerbach b.Ergoldsbach","type":"Kreisangehörige_Gemeinde"},"district":{"key":"09274","name":"Landshut","type":"Landkreis"},"federalState":{"key":"09","name":"Bayern"}},{"name":"Stomerberg","postalCode":"84092","locality":"Bayerbach b. Ergoldsbach","municipality":{"key":"09274119","name":"Bayerbach b.Ergoldsbach","type":"Kreisangehörige_Gemeinde"},"district":{"key":"09274","name":"Landshut","type":"Landkreis"},"federalState":{"key":"09","name":"Bayern"}},{"name":"St.-Wolfgang-Str.","postalCode":"84092","locality":"Bayerbach b. Ergoldsbach","municipality":{"key":"09274119","name":"Bayerbach b.Ergoldsbach","type":"Kreisangehörige_Gemeinde"},"district":{"key":"09274","name":"Landshut","type":"Landkreis"},"federalState":{"key":"09","name":"Bayern"}},{"name":"Tattenbachweg","postalCode":"94137","locality":"Bayerbach","municipality":{"key":"09277112","name":"Bayerbach","type":"Kreisangehörige_Gemeinde"},"district":{"key":"09277","name":"Rottal-Inn","type":"Landkreis"},"federalState":{"key":"09","name":"Bayern"}},{"name":"Viscardistr.","postalCode":"94137","locality":"Bayerbach","municipality":{"key":"09277112","name":"Bayerbach","type":"Kreisangehörige_Gemeinde"},"district":{"key":"09277","name":"Rottal-Inn","type":"Landkreis"},"federalState":{"key":"09","name":"Bayern"}},{"name":"Vogelbergstr.","postalCode":"84092","locality":"Bayerbach b. Ergoldsbach","municipality":{"key":"09274119","name":"Bayerbach b.Ergoldsbach","type":"Kreisangehörige_Gemeinde"},"district":{"key":"09274","name":"Landshut","type":"Landkreis"},"federalState":{"key":"09","name":"Bayern"}},{"name":"Wallnerberg","postalCode":"84092","locality":"Bayerbach b. Ergoldsbach","municipality":{"key":"09274119","name":"Bayerbach b.Ergoldsbach","type":"Kreisangehörige_Gemeinde"},"district":{"key":"09274","name":"Landshut","type":"Landkreis"},"federalState":{"key":"09","name":"Bayern"}},{"name":"Weidenweg","postalCode":"84092","locality":"Bayerbach b. Ergoldsbach","municipality":{"key":"09274119","name":"Bayerbach b.Ergoldsbach","type":"Kreisangehörige_Gemeinde"},"district":{"key":"09274","name":"Landshut","type":"Landkreis"},"federalState":{"key":"09","name":"Bayern"}},{"name":"Weidweg","postalCode":"94137","locality":"Bayerbach","municipality":{"key":"09277112","name":"Bayerbach","type":"Kreisangehörige_Gemeinde"},"district":{"key":"09277","name":"Rottal-Inn","type":"Landkreis"},"federalState":{"key":"09","name":"Bayern"}},{"name":"Wilhelm-Diess-Str.","postalCode":"94137","locality":"Bayerbach","municipality":{"key":"09277112","name":"Bayerbach","type":"Kreisangehörige_Gemeinde"},"district":{"key":"09277","name":"Rottal-Inn","type":"Landkreis"},"federalState":{"key":"09","name":"Bayern"}},{"name":"Winterstr.","postalCode":"84092","locality":"Bayerbach b. Ergoldsbach","municipality":{"key":"09274119","name":"Bayerbach b.Ergoldsbach","type":"Kreisangehörige_Gemeinde"},"district":{"key":"09274","name":"Landshut","type":"Landkreis"},"federalState":{"key":"09","name":"Bayern"}},{"name":"Wirtstalstr.","postalCode":"84092","locality":"Bayerbach b. Ergoldsbach","municipality":{"key":"09274119","name":"Bayerbach b.Ergoldsbach","type":"Kreisangehörige_Gemeinde"},"district":{"key":"09274","name":"Landshut","type":"Landkreis"},"federalState":{"key":"09","name":"Bayern"}},]