[{"name":"1. Siedlungsweg","postalCode":"17335","locality":"Strasburg (Uckermark)","municipality":{"key":"13075130","name":"Strasburg (Uckermark), Stadt","type":"Stadt"},"district":{"key":"13075","name":"Vorpommern-Greifswald","type":"Landkreis"},"federalState":{"key":"13","name":"Mecklenburg-Vorpommern"}},{"name":"2. Siedlungsweg","postalCode":"17335","locality":"Strasburg (Uckermark)","municipality":{"key":"13075130","name":"Strasburg (Uckermark), Stadt","type":"Stadt"},"district":{"key":"13075","name":"Vorpommern-Greifswald","type":"Landkreis"},"federalState":{"key":"13","name":"Mecklenburg-Vorpommern"}},{"name":"3. Siedlungsweg","postalCode":"17335","locality":"Strasburg (Uckermark)","municipality":{"key":"13075130","name":"Strasburg (Uckermark), Stadt","type":"Stadt"},"district":{"key":"13075","name":"Vorpommern-Greifswald","type":"Landkreis"},"federalState":{"key":"13","name":"Mecklenburg-Vorpommern"}},{"name":"Ahlimbsmühle","postalCode":"17268","locality":"Milmersdorf","municipality":{"key":"12073396","name":"Milmersdorf","type":"Kreisangehörige_Gemeinde"},"district":{"key":"12073","name":"Uckermark","type":"Landkreis"},"federalState":{"key":"12","name":"Brandenburg"}},{"name":"Ahrensnest","postalCode":"17268","locality":"Milmersdorf","municipality":{"key":"12073396","name":"Milmersdorf","type":"Kreisangehörige_Gemeinde"},"district":{"key":"12073","name":"Uckermark","type":"Landkreis"},"federalState":{"key":"12","name":"Brandenburg"}},{"name":"Alte Templiner Str.","postalCode":"17268","locality":"Milmersdorf","municipality":{"key":"12073396","name":"Milmersdorf","type":"Kreisangehörige_Gemeinde"},"district":{"key":"12073","name":"Uckermark","type":"Landkreis"},"federalState":{"key":"12","name":"Brandenburg"}},{"name":"Am Feldrain","postalCode":"17268","locality":"Milmersdorf","municipality":{"key":"12073396","name":"Milmersdorf","type":"Kreisangehörige_Gemeinde"},"district":{"key":"12073","name":"Uckermark","type":"Landkreis"},"federalState":{"key":"12","name":"Brandenburg"}},{"name":"Am Wasserwerk","postalCode":"17268","locality":"Milmersdorf","municipality":{"key":"12073396","name":"Milmersdorf","type":"Kreisangehörige_Gemeinde"},"district":{"key":"12073","name":"Uckermark","type":"Landkreis"},"federalState":{"key":"12","name":"Brandenburg"}},{"name":"Bahnhofstr.","postalCode":"17268","locality":"Milmersdorf","municipality":{"key":"12073396","name":"Milmersdorf","type":"Kreisangehörige_Gemeinde"},"district":{"key":"12073","name":"Uckermark","type":"Landkreis"},"federalState":{"key":"12","name":"Brandenburg"}},{"name":"Betonstr.","postalCode":"17268","locality":"Milmersdorf","municipality":{"key":"12073396","name":"Milmersdorf","type":"Kreisangehörige_Gemeinde"},"district":{"key":"12073","name":"Uckermark","type":"Landkreis"},"federalState":{"key":"12","name":"Brandenburg"}},{"name":"Chausseestr.","postalCode":"17291","locality":"Nordwestuckermark","municipality":{"key":"12073429","name":"Nordwestuckermark","type":"Kreisangehörige_Gemeinde"},"district":{"key":"12073","name":"Uckermark","type":"Landkreis"},"federalState":{"key":"12","name":"Brandenburg"}},{"name":"Dorfstr.","postalCode":"17268","locality":"Milmersdorf","municipality":{"key":"12073396","name":"Milmersdorf","type":"Kreisangehörige_Gemeinde"},"district":{"key":"12073","name":"Uckermark","type":"Landkreis"},"federalState":{"key":"12","name":"Brandenburg"}},{"name":"Engelsburg","postalCode":"17268","locality":"Milmersdorf","municipality":{"key":"12073396","name":"Milmersdorf","type":"Kreisangehörige_Gemeinde"},"district":{"key":"12073","name":"Uckermark","type":"Landkreis"},"federalState":{"key":"12","name":"Brandenburg"}},{"name":"Forstweg","postalCode":"17268","locality":"Milmersdorf","municipality":{"key":"12073396","name":"Milmersdorf","type":"Kreisangehörige_Gemeinde"},"district":{"key":"12073","name":"Uckermark","type":"Landkreis"},"federalState":{"key":"12","name":"Brandenburg"}},{"name":"Friedhofsweg","postalCode":"17268","locality":"Milmersdorf","municipality":{"key":"12073396","name":"Milmersdorf","type":"Kreisangehörige_Gemeinde"},"district":{"key":"12073","name":"Uckermark","type":"Landkreis"},"federalState":{"key":"12","name":"Brandenburg"}},{"name":"Götschendorf","postalCode":"17268","locality":"Milmersdorf","municipality":{"key":"12073396","name":"Milmersdorf","type":"Kreisangehörige_Gemeinde"},"district":{"key":"12073","name":"Uckermark","type":"Landkreis"},"federalState":{"key":"12","name":"Brandenburg"}},{"name":"Großer Eichwerder","postalCode":"17268","locality":"Milmersdorf","municipality":{"key":"12073396","name":"Milmersdorf","type":"Kreisangehörige_Gemeinde"},"district":{"key":"12073","name":"Uckermark","type":"Landkreis"},"federalState":{"key":"12","name":"Brandenburg"}},{"name":"Groß Kölpin","postalCode":"17268","locality":"Milmersdorf","municipality":{"key":"12073396","name":"Milmersdorf","type":"Kreisangehörige_Gemeinde"},"district":{"key":"12073","name":"Uckermark","type":"Landkreis"},"federalState":{"key":"12","name":"Brandenburg"}},{"name":"Haferkamp","postalCode":"17268","locality":"Milmersdorf","municipality":{"key":"12073396","name":"Milmersdorf","type":"Kreisangehörige_Gemeinde"},"district":{"key":"12073","name":"Uckermark","type":"Landkreis"},"federalState":{"key":"12","name":"Brandenburg"}},{"name":"Hahnwerder","postalCode":"17268","locality":"Milmersdorf","municipality":{"key":"12073396","name":"Milmersdorf","type":"Kreisangehörige_Gemeinde"},"district":{"key":"12073","name":"Uckermark","type":"Landkreis"},"federalState":{"key":"12","name":"Brandenburg"}},{"name":"Hinterer Eichwerder","postalCode":"17268","locality":"Milmersdorf","municipality":{"key":"12073396","name":"Milmersdorf","type":"Kreisangehörige_Gemeinde"},"district":{"key":"12073","name":"Uckermark","type":"Landkreis"},"federalState":{"key":"12","name":"Brandenburg"}},{"name":"Hohenwalde","postalCode":"17268","locality":"Milmersdorf","municipality":{"key":"12073396","name":"Milmersdorf","type":"Kreisangehörige_Gemeinde"},"district":{"key":"12073","name":"Uckermark","type":"Landkreis"},"federalState":{"key":"12","name":"Brandenburg"}},{"name":"Inselweg","postalCode":"17291","locality":"Nordwestuckermark","municipality":{"key":"12073429","name":"Nordwestuckermark","type":"Kreisangehörige_Gemeinde"},"district":{"key":"12073","name":"Uckermark","type":"Landkreis"},"federalState":{"key":"12","name":"Brandenburg"}},{"name":"Jüteritzer Str.","postalCode":"17335","locality":"Strasburg (Uckermark)","municipality":{"key":"13075130","name":"Strasburg (Uckermark), Stadt","type":"Stadt"},"district":{"key":"13075","name":"Vorpommern-Greifswald","type":"Landkreis"},"federalState":{"key":"13","name":"Mecklenburg-Vorpommern"}},{"name":"Kieferngrund","postalCode":"17268","locality":"Milmersdorf","municipality":{"key":"12073396","name":"Milmersdorf","type":"Kreisangehörige_Gemeinde"},"district":{"key":"12073","name":"Uckermark","type":"Landkreis"},"federalState":{"key":"12","name":"Brandenburg"}},{"name":"Kleiner Eichwerder","postalCode":"17268","locality":"Milmersdorf","municipality":{"key":"12073396","name":"Milmersdorf","type":"Kreisangehörige_Gemeinde"},"district":{"key":"12073","name":"Uckermark","type":"Landkreis"},"federalState":{"key":"12","name":"Brandenburg"}},{"name":"Luisenhof","postalCode":"17268","locality":"Milmersdorf","municipality":{"key":"12073396","name":"Milmersdorf","type":"Kreisangehörige_Gemeinde"},"district":{"key":"12073","name":"Uckermark","type":"Landkreis"},"federalState":{"key":"12","name":"Brandenburg"}},{"name":"Mittelweg","postalCode":"17268","locality":"Milmersdorf","municipality":{"key":"12073396","name":"Milmersdorf","type":"Kreisangehörige_Gemeinde"},"district":{"key":"12073","name":"Uckermark","type":"Landkreis"},"federalState":{"key":"12","name":"Brandenburg"}},{"name":"Naugartener Str.","postalCode":"17291","locality":"Nordwestuckermark","municipality":{"key":"12073429","name":"Nordwestuckermark","type":"Kreisangehörige_Gemeinde"},"district":{"key":"12073","name":"Uckermark","type":"Landkreis"},"federalState":{"key":"12","name":"Brandenburg"}},{"name":"Neubauweg","postalCode":"17291","locality":"Nordwestuckermark","municipality":{"key":"12073429","name":"Nordwestuckermark","type":"Kreisangehörige_Gemeinde"},"district":{"key":"12073","name":"Uckermark","type":"Landkreis"},"federalState":{"key":"12","name":"Brandenburg"}},{"name":"Neuensund","postalCode":"17335","locality":"Strasburg (Uckermark)","municipality":{"key":"13075130","name":"Strasburg (Uckermark), Stadt","type":"Stadt"},"district":{"key":"13075","name":"Vorpommern-Greifswald","type":"Landkreis"},"federalState":{"key":"13","name":"Mecklenburg-Vorpommern"}},{"name":"Neuer Damm","postalCode":"17291","locality":"Nordwestuckermark","municipality":{"key":"12073429","name":"Nordwestuckermark","type":"Kreisangehörige_Gemeinde"},"district":{"key":"12073","name":"Uckermark","type":"Landkreis"},"federalState":{"key":"12","name":"Brandenburg"}},{"name":"Neuer Weg","postalCode":"17291","locality":"Nordwestuckermark","municipality":{"key":"12073429","name":"Nordwestuckermark","type":"Kreisangehörige_Gemeinde"},"district":{"key":"12073","name":"Uckermark","type":"Landkreis"},"federalState":{"key":"12","name":"Brandenburg"}},{"name":"Neusiedlerstr.","postalCode":"17291","locality":"Nordwestuckermark","municipality":{"key":"12073429","name":"Nordwestuckermark","type":"Kreisangehörige_Gemeinde"},"district":{"key":"12073","name":"Uckermark","type":"Landkreis"},"federalState":{"key":"12","name":"Brandenburg"}},{"name":"Oskar-von-Arnim-Str.","postalCode":"17291","locality":"Nordwestuckermark","municipality":{"key":"12073429","name":"Nordwestuckermark","type":"Kreisangehörige_Gemeinde"},"district":{"key":"12073","name":"Uckermark","type":"Landkreis"},"federalState":{"key":"12","name":"Brandenburg"}},{"name":"Ottilienau","postalCode":"17335","locality":"Strasburg (Uckermark)","municipality":{"key":"13075130","name":"Strasburg (Uckermark), Stadt","type":"Stadt"},"district":{"key":"13075","name":"Vorpommern-Greifswald","type":"Landkreis"},"federalState":{"key":"13","name":"Mecklenburg-Vorpommern"}},{"name":"Otto-Bremer-Str.","postalCode":"17291","locality":"Nordwestuckermark","municipality":{"key":"12073429","name":"Nordwestuckermark","type":"Kreisangehörige_Gemeinde"},"district":{"key":"12073","name":"Uckermark","type":"Landkreis"},"federalState":{"key":"12","name":"Brandenburg"}},{"name":"Parkwiese","postalCode":"17268","locality":"Milmersdorf","municipality":{"key":"12073396","name":"Milmersdorf","type":"Kreisangehörige_Gemeinde"},"district":{"key":"12073","name":"Uckermark","type":"Landkreis"},"federalState":{"key":"12","name":"Brandenburg"}},{"name":"Petersdorf","postalCode":"17268","locality":"Milmersdorf","municipality":{"key":"12073396","name":"Milmersdorf","type":"Kreisangehörige_Gemeinde"},"district":{"key":"12073","name":"Uckermark","type":"Landkreis"},"federalState":{"key":"12","name":"Brandenburg"}},{"name":"Petersdorfer Siedlung","postalCode":"17268","locality":"Milmersdorf","municipality":{"key":"12073396","name":"Milmersdorf","type":"Kreisangehörige_Gemeinde"},"district":{"key":"12073","name":"Uckermark","type":"Landkreis"},"federalState":{"key":"12","name":"Brandenburg"}},{"name":"Petersdorfer Str.","postalCode":"17268","locality":"Milmersdorf","municipality":{"key":"12073396","name":"Milmersdorf","type":"Kreisangehörige_Gemeinde"},"district":{"key":"12073","name":"Uckermark","type":"Landkreis"},"federalState":{"key":"12","name":"Brandenburg"}},{"name":"Quillowstr.","postalCode":"17291","locality":"Nordwestuckermark","municipality":{"key":"12073429","name":"Nordwestuckermark","type":"Kreisangehörige_Gemeinde"},"district":{"key":"12073","name":"Uckermark","type":"Landkreis"},"federalState":{"key":"12","name":"Brandenburg"}},{"name":"Rittgartener Str.","postalCode":"17291","locality":"Nordwestuckermark","municipality":{"key":"12073429","name":"Nordwestuckermark","type":"Kreisangehörige_Gemeinde"},"district":{"key":"12073","name":"Uckermark","type":"Landkreis"},"federalState":{"key":"12","name":"Brandenburg"}},{"name":"Rosenstr.","postalCode":"17335","locality":"Strasburg (Uckermark)","municipality":{"key":"13075130","name":"Strasburg (Uckermark), Stadt","type":"Stadt"},"district":{"key":"13075","name":"Vorpommern-Greifswald","type":"Landkreis"},"federalState":{"key":"13","name":"Mecklenburg-Vorpommern"}},{"name":"Rosenthal","postalCode":"17335","locality":"Strasburg (Uckermark)","municipality":{"key":"13075130","name":"Strasburg (Uckermark), Stadt","type":"Stadt"},"district":{"key":"13075","name":"Vorpommern-Greifswald","type":"Landkreis"},"federalState":{"key":"13","name":"Mecklenburg-Vorpommern"}},{"name":"Roßstr.","postalCode":"17335","locality":"Strasburg (Uckermark)","municipality":{"key":"13075130","name":"Strasburg (Uckermark), Stadt","type":"Stadt"},"district":{"key":"13075","name":"Vorpommern-Greifswald","type":"Landkreis"},"federalState":{"key":"13","name":"Mecklenburg-Vorpommern"}},{"name":"Rothemühler Str.","postalCode":"17335","locality":"Strasburg (Uckermark)","municipality":{"key":"13075130","name":"Strasburg (Uckermark), Stadt","type":"Stadt"},"district":{"key":"13075","name":"Vorpommern-Greifswald","type":"Landkreis"},"federalState":{"key":"13","name":"Mecklenburg-Vorpommern"}},{"name":"Schwarzer Tanger","postalCode":"17268","locality":"Milmersdorf","municipality":{"key":"12073396","name":"Milmersdorf","type":"Kreisangehörige_Gemeinde"},"district":{"key":"12073","name":"Uckermark","type":"Landkreis"},"federalState":{"key":"12","name":"Brandenburg"}},{"name":"Tannenweg","postalCode":"17291","locality":"Nordwestuckermark","municipality":{"key":"12073429","name":"Nordwestuckermark","type":"Kreisangehörige_Gemeinde"},"district":{"key":"12073","name":"Uckermark","type":"Landkreis"},"federalState":{"key":"12","name":"Brandenburg"}},{"name":"Theerbrennerweg","postalCode":"17291","locality":"Nordwestuckermark","municipality":{"key":"12073429","name":"Nordwestuckermark","type":"Kreisangehörige_Gemeinde"},"district":{"key":"12073","name":"Uckermark","type":"Landkreis"},"federalState":{"key":"12","name":"Brandenburg"}},{"name":"Thomas-Müntzer-Str.","postalCode":"17335","locality":"Strasburg (Uckermark)","municipality":{"key":"13075130","name":"Strasburg (Uckermark), Stadt","type":"Stadt"},"district":{"key":"13075","name":"Vorpommern-Greifswald","type":"Landkreis"},"federalState":{"key":"13","name":"Mecklenburg-Vorpommern"}},{"name":"Torfwiesenweg","postalCode":"17291","locality":"Nordwestuckermark","municipality":{"key":"12073429","name":"Nordwestuckermark","type":"Kreisangehörige_Gemeinde"},"district":{"key":"12073","name":"Uckermark","type":"Landkreis"},"federalState":{"key":"12","name":"Brandenburg"}},{"name":"Uckerblick","postalCode":"17291","locality":"Nordwestuckermark","municipality":{"key":"12073429","name":"Nordwestuckermark","type":"Kreisangehörige_Gemeinde"},"district":{"key":"12073","name":"Uckermark","type":"Landkreis"},"federalState":{"key":"12","name":"Brandenburg"}},{"name":"Uferzone","postalCode":"17291","locality":"Nordwestuckermark","municipality":{"key":"12073429","name":"Nordwestuckermark","type":"Kreisangehörige_Gemeinde"},"district":{"key":"12073","name":"Uckermark","type":"Landkreis"},"federalState":{"key":"12","name":"Brandenburg"}},{"name":"Unkengrund","postalCode":"17291","locality":"Nordwestuckermark","municipality":{"key":"12073429","name":"Nordwestuckermark","type":"Kreisangehörige_Gemeinde"},"district":{"key":"12073","name":"Uckermark","type":"Landkreis"},"federalState":{"key":"12","name":"Brandenburg"}},{"name":"Unner Enn","postalCode":"17291","locality":"Nordwestuckermark","municipality":{"key":"12073429","name":"Nordwestuckermark","type":"Kreisangehörige_Gemeinde"},"district":{"key":"12073","name":"Uckermark","type":"Landkreis"},"federalState":{"key":"12","name":"Brandenburg"}},{"name":"Waldeck","postalCode":"17291","locality":"Nordwestuckermark","municipality":{"key":"12073429","name":"Nordwestuckermark","type":"Kreisangehörige_Gemeinde"},"district":{"key":"12073","name":"Uckermark","type":"Landkreis"},"federalState":{"key":"12","name":"Brandenburg"}},{"name":"Waldsiedlung","postalCode":"17291","locality":"Nordwestuckermark","municipality":{"key":"12073429","name":"Nordwestuckermark","type":"Kreisangehörige_Gemeinde"},"district":{"key":"12073","name":"Uckermark","type":"Landkreis"},"federalState":{"key":"12","name":"Brandenburg"}},{"name":"Waldweg","postalCode":"17291","locality":"Nordwestuckermark","municipality":{"key":"12073429","name":"Nordwestuckermark","type":"Kreisangehörige_Gemeinde"},"district":{"key":"12073","name":"Uckermark","type":"Landkreis"},"federalState":{"key":"12","name":"Brandenburg"}},{"name":"Walkmühler Weg","postalCode":"17335","locality":"Strasburg (Uckermark)","municipality":{"key":"13075130","name":"Strasburg (Uckermark), Stadt","type":"Stadt"},"district":{"key":"13075","name":"Vorpommern-Greifswald","type":"Landkreis"},"federalState":{"key":"13","name":"Mecklenburg-Vorpommern"}},{"name":"Wall","postalCode":"17335","locality":"Strasburg (Uckermark)","municipality":{"key":"13075130","name":"Strasburg (Uckermark), Stadt","type":"Stadt"},"district":{"key":"13075","name":"Vorpommern-Greifswald","type":"Landkreis"},"federalState":{"key":"13","name":"Mecklenburg-Vorpommern"}},{"name":"Wallscheunenweg","postalCode":"17291","locality":"Nordwestuckermark","municipality":{"key":"12073429","name":"Nordwestuckermark","type":"Kreisangehörige_Gemeinde"},"district":{"key":"12073","name":"Uckermark","type":"Landkreis"},"federalState":{"key":"12","name":"Brandenburg"}},{"name":"Wallstr.","postalCode":"17335","locality":"Strasburg (Uckermark)","municipality":{"key":"13075130","name":"Strasburg (Uckermark), Stadt","type":"Stadt"},"district":{"key":"13075","name":"Vorpommern-Greifswald","type":"Landkreis"},"federalState":{"key":"13","name":"Mecklenburg-Vorpommern"}},{"name":"Warbender Str.","postalCode":"17291","locality":"Nordwestuckermark","municipality":{"key":"12073429","name":"Nordwestuckermark","type":"Kreisangehörige_Gemeinde"},"district":{"key":"12073","name":"Uckermark","type":"Landkreis"},"federalState":{"key":"12","name":"Brandenburg"}},{"name":"Weidengrund","postalCode":"17291","locality":"Nordwestuckermark","municipality":{"key":"12073429","name":"Nordwestuckermark","type":"Kreisangehörige_Gemeinde"},"district":{"key":"12073","name":"Uckermark","type":"Landkreis"},"federalState":{"key":"12","name":"Brandenburg"}},{"name":"Wiesengrund","postalCode":"17291","locality":"Nordwestuckermark","municipality":{"key":"12073429","name":"Nordwestuckermark","type":"Kreisangehörige_Gemeinde"},"district":{"key":"12073","name":"Uckermark","type":"Landkreis"},"federalState":{"key":"12","name":"Brandenburg"}},{"name":"Wilhelmsburg","postalCode":"17335","locality":"Strasburg (Uckermark)","municipality":{"key":"13075130","name":"Strasburg (Uckermark), Stadt","type":"Stadt"},"district":{"key":"13075","name":"Vorpommern-Greifswald","type":"Landkreis"},"federalState":{"key":"13","name":"Mecklenburg-Vorpommern"}},{"name":"Wismarer Weg","postalCode":"17335","locality":"Strasburg (Uckermark)","municipality":{"key":"13075130","name":"Strasburg (Uckermark), Stadt","type":"Stadt"},"district":{"key":"13075","name":"Vorpommern-Greifswald","type":"Landkreis"},"federalState":{"key":"13","name":"Mecklenburg-Vorpommern"}},{"name":"Wittstocker Str.","postalCode":"17291","locality":"Nordwestuckermark","municipality":{"key":"12073429","name":"Nordwestuckermark","type":"Kreisangehörige_Gemeinde"},"district":{"key":"12073","name":"Uckermark","type":"Landkreis"},"federalState":{"key":"12","name":"Brandenburg"}},{"name":"Wittstocker Weg","postalCode":"17291","locality":"Nordwestuckermark","municipality":{"key":"12073429","name":"Nordwestuckermark","type":"Kreisangehörige_Gemeinde"},"district":{"key":"12073","name":"Uckermark","type":"Landkreis"},"federalState":{"key":"12","name":"Brandenburg"}},{"name":"Woldegker Chaussee","postalCode":"17291","locality":"Nordwestuckermark","municipality":{"key":"12073429","name":"Nordwestuckermark","type":"Kreisangehörige_Gemeinde"},"district":{"key":"12073","name":"Uckermark","type":"Landkreis"},"federalState":{"key":"12","name":"Brandenburg"}},{"name":"Woldegker Chaussee","postalCode":"17335","locality":"Strasburg (Uckermark)","municipality":{"key":"13075130","name":"Strasburg (Uckermark), Stadt","type":"Stadt"},"district":{"key":"13075","name":"Vorpommern-Greifswald","type":"Landkreis"},"federalState":{"key":"13","name":"Mecklenburg-Vorpommern"}},{"name":"Wolterberger Weg","postalCode":"17291","locality":"Nordwestuckermark","municipality":{"key":"12073429","name":"Nordwestuckermark","type":"Kreisangehörige_Gemeinde"},"district":{"key":"12073","name":"Uckermark","type":"Landkreis"},"federalState":{"key":"12","name":"Brandenburg"}},{"name":"Ziegenwinkel","postalCode":"17268","locality":"Milmersdorf","municipality":{"key":"12073396","name":"Milmersdorf","type":"Kreisangehörige_Gemeinde"},"district":{"key":"12073","name":"Uckermark","type":"Landkreis"},"federalState":{"key":"12","name":"Brandenburg"}},{"name":"Zum Waldstadion","postalCode":"17268","locality":"Milmersdorf","municipality":{"key":"12073396","name":"Milmersdorf","type":"Kreisangehörige_Gemeinde"},"district":{"key":"12073","name":"Uckermark","type":"Landkreis"},"federalState":{"key":"12","name":"Brandenburg"}},]