[{"name":"Alte Poststr.","postalCode":"06729","locality":"Elsteraue","municipality":{"key":"15084130","name":"Elsteraue","type":"Kreisangehörige_Gemeinde"},"district":{"key":"15084","name":"Burgenlandkreis","type":"Landkreis"},"federalState":{"key":"15","name":"Sachsen-Anhalt"}},{"name":"Alt Reuden","postalCode":"06729","locality":"Elsteraue","municipality":{"key":"15084130","name":"Elsteraue","type":"Kreisangehörige_Gemeinde"},"district":{"key":"15084","name":"Burgenlandkreis","type":"Landkreis"},"federalState":{"key":"15","name":"Sachsen-Anhalt"}},{"name":"Am Anger","postalCode":"06729","locality":"Elsteraue","municipality":{"key":"15084130","name":"Elsteraue","type":"Kreisangehörige_Gemeinde"},"district":{"key":"15084","name":"Burgenlandkreis","type":"Landkreis"},"federalState":{"key":"15","name":"Sachsen-Anhalt"}},{"name":"Am Bahnhof Reuden","postalCode":"06729","locality":"Elsteraue","municipality":{"key":"15084130","name":"Elsteraue","type":"Kreisangehörige_Gemeinde"},"district":{"key":"15084","name":"Burgenlandkreis","type":"Landkreis"},"federalState":{"key":"15","name":"Sachsen-Anhalt"}},{"name":"Am Berg","postalCode":"06729","locality":"Elsteraue","municipality":{"key":"15084130","name":"Elsteraue","type":"Kreisangehörige_Gemeinde"},"district":{"key":"15084","name":"Burgenlandkreis","type":"Landkreis"},"federalState":{"key":"15","name":"Sachsen-Anhalt"}},{"name":"Am Floßgraben","postalCode":"06729","locality":"Elsteraue","municipality":{"key":"15084130","name":"Elsteraue","type":"Kreisangehörige_Gemeinde"},"district":{"key":"15084","name":"Burgenlandkreis","type":"Landkreis"},"federalState":{"key":"15","name":"Sachsen-Anhalt"}},{"name":"Am Geiersberg","postalCode":"06729","locality":"Elsteraue","municipality":{"key":"15084130","name":"Elsteraue","type":"Kreisangehörige_Gemeinde"},"district":{"key":"15084","name":"Burgenlandkreis","type":"Landkreis"},"federalState":{"key":"15","name":"Sachsen-Anhalt"}},{"name":"Am Göbitzer Teich","postalCode":"06729","locality":"Elsteraue","municipality":{"key":"15084130","name":"Elsteraue","type":"Kreisangehörige_Gemeinde"},"district":{"key":"15084","name":"Burgenlandkreis","type":"Landkreis"},"federalState":{"key":"15","name":"Sachsen-Anhalt"}},{"name":"Am Kirchhof","postalCode":"06729","locality":"Elsteraue","municipality":{"key":"15084130","name":"Elsteraue","type":"Kreisangehörige_Gemeinde"},"district":{"key":"15084","name":"Burgenlandkreis","type":"Landkreis"},"federalState":{"key":"15","name":"Sachsen-Anhalt"}},{"name":"Am Maßnitzer Teich","postalCode":"06729","locality":"Elsteraue","municipality":{"key":"15084130","name":"Elsteraue","type":"Kreisangehörige_Gemeinde"},"district":{"key":"15084","name":"Burgenlandkreis","type":"Landkreis"},"federalState":{"key":"15","name":"Sachsen-Anhalt"}},{"name":"Am Naturbad","postalCode":"06729","locality":"Elsteraue","municipality":{"key":"15084130","name":"Elsteraue","type":"Kreisangehörige_Gemeinde"},"district":{"key":"15084","name":"Burgenlandkreis","type":"Landkreis"},"federalState":{"key":"15","name":"Sachsen-Anhalt"}},{"name":"Am Niederholz","postalCode":"06729","locality":"Elsteraue","municipality":{"key":"15084130","name":"Elsteraue","type":"Kreisangehörige_Gemeinde"},"district":{"key":"15084","name":"Burgenlandkreis","type":"Landkreis"},"federalState":{"key":"15","name":"Sachsen-Anhalt"}},{"name":"Am Park","postalCode":"06729","locality":"Elsteraue","municipality":{"key":"15084130","name":"Elsteraue","type":"Kreisangehörige_Gemeinde"},"district":{"key":"15084","name":"Burgenlandkreis","type":"Landkreis"},"federalState":{"key":"15","name":"Sachsen-Anhalt"}},{"name":"Am Profener Anger","postalCode":"06729","locality":"Elsteraue","municipality":{"key":"15084130","name":"Elsteraue","type":"Kreisangehörige_Gemeinde"},"district":{"key":"15084","name":"Burgenlandkreis","type":"Landkreis"},"federalState":{"key":"15","name":"Sachsen-Anhalt"}},{"name":"Am Sportplatz","postalCode":"06729","locality":"Elsteraue","municipality":{"key":"15084130","name":"Elsteraue","type":"Kreisangehörige_Gemeinde"},"district":{"key":"15084","name":"Burgenlandkreis","type":"Landkreis"},"federalState":{"key":"15","name":"Sachsen-Anhalt"}},{"name":"Am Teich","postalCode":"06729","locality":"Elsteraue","municipality":{"key":"15084130","name":"Elsteraue","type":"Kreisangehörige_Gemeinde"},"district":{"key":"15084","name":"Burgenlandkreis","type":"Landkreis"},"federalState":{"key":"15","name":"Sachsen-Anhalt"}},{"name":"An der Kirche","postalCode":"06729","locality":"Elsteraue","municipality":{"key":"15084130","name":"Elsteraue","type":"Kreisangehörige_Gemeinde"},"district":{"key":"15084","name":"Burgenlandkreis","type":"Landkreis"},"federalState":{"key":"15","name":"Sachsen-Anhalt"}},{"name":"An der Schnauder","postalCode":"06729","locality":"Elsteraue","municipality":{"key":"15084130","name":"Elsteraue","type":"Kreisangehörige_Gemeinde"},"district":{"key":"15084","name":"Burgenlandkreis","type":"Landkreis"},"federalState":{"key":"15","name":"Sachsen-Anhalt"}},{"name":"Artur-Klötzner-Str.","postalCode":"06729","locality":"Elsteraue","municipality":{"key":"15084130","name":"Elsteraue","type":"Kreisangehörige_Gemeinde"},"district":{"key":"15084","name":"Burgenlandkreis","type":"Landkreis"},"federalState":{"key":"15","name":"Sachsen-Anhalt"}},{"name":"Asternweg","postalCode":"06729","locality":"Elsteraue","municipality":{"key":"15084130","name":"Elsteraue","type":"Kreisangehörige_Gemeinde"},"district":{"key":"15084","name":"Burgenlandkreis","type":"Landkreis"},"federalState":{"key":"15","name":"Sachsen-Anhalt"}},{"name":"August-Bebel-Str.","postalCode":"06729","locality":"Elsteraue","municipality":{"key":"15084130","name":"Elsteraue","type":"Kreisangehörige_Gemeinde"},"district":{"key":"15084","name":"Burgenlandkreis","type":"Landkreis"},"federalState":{"key":"15","name":"Sachsen-Anhalt"}},{"name":"Augustushöhe","postalCode":"06729","locality":"Elsteraue","municipality":{"key":"15084130","name":"Elsteraue","type":"Kreisangehörige_Gemeinde"},"district":{"key":"15084","name":"Burgenlandkreis","type":"Landkreis"},"federalState":{"key":"15","name":"Sachsen-Anhalt"}},{"name":"Bahnhofstr.","postalCode":"06729","locality":"Elsteraue","municipality":{"key":"15084130","name":"Elsteraue","type":"Kreisangehörige_Gemeinde"},"district":{"key":"15084","name":"Burgenlandkreis","type":"Landkreis"},"federalState":{"key":"15","name":"Sachsen-Anhalt"}},{"name":"Bahnstr.","postalCode":"06729","locality":"Elsteraue","municipality":{"key":"15084130","name":"Elsteraue","type":"Kreisangehörige_Gemeinde"},"district":{"key":"15084","name":"Burgenlandkreis","type":"Landkreis"},"federalState":{"key":"15","name":"Sachsen-Anhalt"}},{"name":"Beersdorf","postalCode":"06729","locality":"Elsteraue","municipality":{"key":"15084130","name":"Elsteraue","type":"Kreisangehörige_Gemeinde"},"district":{"key":"15084","name":"Burgenlandkreis","type":"Landkreis"},"federalState":{"key":"15","name":"Sachsen-Anhalt"}},{"name":"Beethovenstr.","postalCode":"06729","locality":"Elsteraue","municipality":{"key":"15084130","name":"Elsteraue","type":"Kreisangehörige_Gemeinde"},"district":{"key":"15084","name":"Burgenlandkreis","type":"Landkreis"},"federalState":{"key":"15","name":"Sachsen-Anhalt"}},{"name":"Bergauf","postalCode":"06729","locality":"Elsteraue","municipality":{"key":"15084130","name":"Elsteraue","type":"Kreisangehörige_Gemeinde"},"district":{"key":"15084","name":"Burgenlandkreis","type":"Landkreis"},"federalState":{"key":"15","name":"Sachsen-Anhalt"}},{"name":"Bergweg","postalCode":"06729","locality":"Elsteraue","municipality":{"key":"15084130","name":"Elsteraue","type":"Kreisangehörige_Gemeinde"},"district":{"key":"15084","name":"Burgenlandkreis","type":"Landkreis"},"federalState":{"key":"15","name":"Sachsen-Anhalt"}},{"name":"Birkenweg","postalCode":"06729","locality":"Elsteraue","municipality":{"key":"15084130","name":"Elsteraue","type":"Kreisangehörige_Gemeinde"},"district":{"key":"15084","name":"Burgenlandkreis","type":"Landkreis"},"federalState":{"key":"15","name":"Sachsen-Anhalt"}},{"name":"Bornitzer Bahnhofstr.","postalCode":"06729","locality":"Elsteraue","municipality":{"key":"15084130","name":"Elsteraue","type":"Kreisangehörige_Gemeinde"},"district":{"key":"15084","name":"Burgenlandkreis","type":"Landkreis"},"federalState":{"key":"15","name":"Sachsen-Anhalt"}},{"name":"Bornitzer Hauptstr.","postalCode":"06729","locality":"Elsteraue","municipality":{"key":"15084130","name":"Elsteraue","type":"Kreisangehörige_Gemeinde"},"district":{"key":"15084","name":"Burgenlandkreis","type":"Landkreis"},"federalState":{"key":"15","name":"Sachsen-Anhalt"}},{"name":"Bornitzer Mühlenweg","postalCode":"06729","locality":"Elsteraue","municipality":{"key":"15084130","name":"Elsteraue","type":"Kreisangehörige_Gemeinde"},"district":{"key":"15084","name":"Burgenlandkreis","type":"Landkreis"},"federalState":{"key":"15","name":"Sachsen-Anhalt"}},{"name":"Bornitzer Weg","postalCode":"06729","locality":"Elsteraue","municipality":{"key":"15084130","name":"Elsteraue","type":"Kreisangehörige_Gemeinde"},"district":{"key":"15084","name":"Burgenlandkreis","type":"Landkreis"},"federalState":{"key":"15","name":"Sachsen-Anhalt"}},{"name":"Bornitzer Wiesenweg","postalCode":"06729","locality":"Elsteraue","municipality":{"key":"15084130","name":"Elsteraue","type":"Kreisangehörige_Gemeinde"},"district":{"key":"15084","name":"Burgenlandkreis","type":"Landkreis"},"federalState":{"key":"15","name":"Sachsen-Anhalt"}},{"name":"Brossener Weg","postalCode":"06729","locality":"Elsteraue","municipality":{"key":"15084130","name":"Elsteraue","type":"Kreisangehörige_Gemeinde"},"district":{"key":"15084","name":"Burgenlandkreis","type":"Landkreis"},"federalState":{"key":"15","name":"Sachsen-Anhalt"}},{"name":"Brunnenplatz","postalCode":"06729","locality":"Elsteraue","municipality":{"key":"15084130","name":"Elsteraue","type":"Kreisangehörige_Gemeinde"},"district":{"key":"15084","name":"Burgenlandkreis","type":"Landkreis"},"federalState":{"key":"15","name":"Sachsen-Anhalt"}},{"name":"Burtschützer Str.","postalCode":"06729","locality":"Elsteraue","municipality":{"key":"15084130","name":"Elsteraue","type":"Kreisangehörige_Gemeinde"},"district":{"key":"15084","name":"Burgenlandkreis","type":"Landkreis"},"federalState":{"key":"15","name":"Sachsen-Anhalt"}},{"name":"Clara-Zetkin-Siedlung","postalCode":"06729","locality":"Elsteraue","municipality":{"key":"15084130","name":"Elsteraue","type":"Kreisangehörige_Gemeinde"},"district":{"key":"15084","name":"Burgenlandkreis","type":"Landkreis"},"federalState":{"key":"15","name":"Sachsen-Anhalt"}},{"name":"Dahlienweg","postalCode":"06729","locality":"Elsteraue","municipality":{"key":"15084130","name":"Elsteraue","type":"Kreisangehörige_Gemeinde"},"district":{"key":"15084","name":"Burgenlandkreis","type":"Landkreis"},"federalState":{"key":"15","name":"Sachsen-Anhalt"}},{"name":"Döbitzschen","postalCode":"06729","locality":"Elsteraue","municipality":{"key":"15084130","name":"Elsteraue","type":"Kreisangehörige_Gemeinde"},"district":{"key":"15084","name":"Burgenlandkreis","type":"Landkreis"},"federalState":{"key":"15","name":"Sachsen-Anhalt"}},{"name":"Döbriser Weg","postalCode":"06729","locality":"Elsteraue","municipality":{"key":"15084130","name":"Elsteraue","type":"Kreisangehörige_Gemeinde"},"district":{"key":"15084","name":"Burgenlandkreis","type":"Landkreis"},"federalState":{"key":"15","name":"Sachsen-Anhalt"}},{"name":"Dorfplan","postalCode":"06729","locality":"Elsteraue","municipality":{"key":"15084130","name":"Elsteraue","type":"Kreisangehörige_Gemeinde"},"district":{"key":"15084","name":"Burgenlandkreis","type":"Landkreis"},"federalState":{"key":"15","name":"Sachsen-Anhalt"}},{"name":"Dorfstr.","postalCode":"06729","locality":"Elsteraue","municipality":{"key":"15084130","name":"Elsteraue","type":"Kreisangehörige_Gemeinde"},"district":{"key":"15084","name":"Burgenlandkreis","type":"Landkreis"},"federalState":{"key":"15","name":"Sachsen-Anhalt"}},{"name":"Draschwitzer Hauptstr.","postalCode":"06729","locality":"Elsteraue","municipality":{"key":"15084130","name":"Elsteraue","type":"Kreisangehörige_Gemeinde"},"district":{"key":"15084","name":"Burgenlandkreis","type":"Landkreis"},"federalState":{"key":"15","name":"Sachsen-Anhalt"}},{"name":"Dr.-Bergius-Str.","postalCode":"06729","locality":"Elsteraue","municipality":{"key":"15084130","name":"Elsteraue","type":"Kreisangehörige_Gemeinde"},"district":{"key":"15084","name":"Burgenlandkreis","type":"Landkreis"},"federalState":{"key":"15","name":"Sachsen-Anhalt"}},{"name":"Eichweg","postalCode":"06729","locality":"Elsteraue","municipality":{"key":"15084130","name":"Elsteraue","type":"Kreisangehörige_Gemeinde"},"district":{"key":"15084","name":"Burgenlandkreis","type":"Landkreis"},"federalState":{"key":"15","name":"Sachsen-Anhalt"}},{"name":"Eisberg","postalCode":"06729","locality":"Elsteraue","municipality":{"key":"15084130","name":"Elsteraue","type":"Kreisangehörige_Gemeinde"},"district":{"key":"15084","name":"Burgenlandkreis","type":"Landkreis"},"federalState":{"key":"15","name":"Sachsen-Anhalt"}},{"name":"Ernst-Thälmann-Str.","postalCode":"06729","locality":"Elsteraue","municipality":{"key":"15084130","name":"Elsteraue","type":"Kreisangehörige_Gemeinde"},"district":{"key":"15084","name":"Burgenlandkreis","type":"Landkreis"},"federalState":{"key":"15","name":"Sachsen-Anhalt"}},{"name":"Etzoldshainer Str.","postalCode":"06729","locality":"Elsteraue","municipality":{"key":"15084130","name":"Elsteraue","type":"Kreisangehörige_Gemeinde"},"district":{"key":"15084","name":"Burgenlandkreis","type":"Landkreis"},"federalState":{"key":"15","name":"Sachsen-Anhalt"}},{"name":"Feldstr.","postalCode":"06729","locality":"Elsteraue","municipality":{"key":"15084130","name":"Elsteraue","type":"Kreisangehörige_Gemeinde"},"district":{"key":"15084","name":"Burgenlandkreis","type":"Landkreis"},"federalState":{"key":"15","name":"Sachsen-Anhalt"}},{"name":"Franz-Liszt-Str.","postalCode":"06729","locality":"Elsteraue","municipality":{"key":"15084130","name":"Elsteraue","type":"Kreisangehörige_Gemeinde"},"district":{"key":"15084","name":"Burgenlandkreis","type":"Landkreis"},"federalState":{"key":"15","name":"Sachsen-Anhalt"}},{"name":"Franz-Schubert-Str.","postalCode":"06729","locality":"Elsteraue","municipality":{"key":"15084130","name":"Elsteraue","type":"Kreisangehörige_Gemeinde"},"district":{"key":"15084","name":"Burgenlandkreis","type":"Landkreis"},"federalState":{"key":"15","name":"Sachsen-Anhalt"}},{"name":"Friedensburgstr.","postalCode":"06729","locality":"Elsteraue","municipality":{"key":"15084130","name":"Elsteraue","type":"Kreisangehörige_Gemeinde"},"district":{"key":"15084","name":"Burgenlandkreis","type":"Landkreis"},"federalState":{"key":"15","name":"Sachsen-Anhalt"}},{"name":"Friedensplatz","postalCode":"06729","locality":"Elsteraue","municipality":{"key":"15084130","name":"Elsteraue","type":"Kreisangehörige_Gemeinde"},"district":{"key":"15084","name":"Burgenlandkreis","type":"Landkreis"},"federalState":{"key":"15","name":"Sachsen-Anhalt"}},{"name":"Friedensstr.","postalCode":"06729","locality":"Elsteraue","municipality":{"key":"15084130","name":"Elsteraue","type":"Kreisangehörige_Gemeinde"},"district":{"key":"15084","name":"Burgenlandkreis","type":"Landkreis"},"federalState":{"key":"15","name":"Sachsen-Anhalt"}},{"name":"Fritz-Kempe-Str.","postalCode":"06729","locality":"Elsteraue","municipality":{"key":"15084130","name":"Elsteraue","type":"Kreisangehörige_Gemeinde"},"district":{"key":"15084","name":"Burgenlandkreis","type":"Landkreis"},"federalState":{"key":"15","name":"Sachsen-Anhalt"}},{"name":"Gartenstr.","postalCode":"06729","locality":"Elsteraue","municipality":{"key":"15084130","name":"Elsteraue","type":"Kreisangehörige_Gemeinde"},"district":{"key":"15084","name":"Burgenlandkreis","type":"Landkreis"},"federalState":{"key":"15","name":"Sachsen-Anhalt"}},{"name":"Gartenweg","postalCode":"06729","locality":"Elsteraue","municipality":{"key":"15084130","name":"Elsteraue","type":"Kreisangehörige_Gemeinde"},"district":{"key":"15084","name":"Burgenlandkreis","type":"Landkreis"},"federalState":{"key":"15","name":"Sachsen-Anhalt"}},{"name":"Gleinaer Str.","postalCode":"06729","locality":"Elsteraue","municipality":{"key":"15084130","name":"Elsteraue","type":"Kreisangehörige_Gemeinde"},"district":{"key":"15084","name":"Burgenlandkreis","type":"Landkreis"},"federalState":{"key":"15","name":"Sachsen-Anhalt"}},{"name":"Göbitzer Str.","postalCode":"06729","locality":"Elsteraue","municipality":{"key":"15084130","name":"Elsteraue","type":"Kreisangehörige_Gemeinde"},"district":{"key":"15084","name":"Burgenlandkreis","type":"Landkreis"},"federalState":{"key":"15","name":"Sachsen-Anhalt"}},{"name":"Grenzstr.","postalCode":"06729","locality":"Elsteraue","municipality":{"key":"15084130","name":"Elsteraue","type":"Kreisangehörige_Gemeinde"},"district":{"key":"15084","name":"Burgenlandkreis","type":"Landkreis"},"federalState":{"key":"15","name":"Sachsen-Anhalt"}},{"name":"Gutsweg","postalCode":"06729","locality":"Elsteraue","municipality":{"key":"15084130","name":"Elsteraue","type":"Kreisangehörige_Gemeinde"},"district":{"key":"15084","name":"Burgenlandkreis","type":"Landkreis"},"federalState":{"key":"15","name":"Sachsen-Anhalt"}},{"name":"Hainicher Weg","postalCode":"06729","locality":"Elsteraue","municipality":{"key":"15084130","name":"Elsteraue","type":"Kreisangehörige_Gemeinde"},"district":{"key":"15084","name":"Burgenlandkreis","type":"Landkreis"},"federalState":{"key":"15","name":"Sachsen-Anhalt"}},{"name":"Hauptstr.","postalCode":"06729","locality":"Elsteraue","municipality":{"key":"15084130","name":"Elsteraue","type":"Kreisangehörige_Gemeinde"},"district":{"key":"15084","name":"Burgenlandkreis","type":"Landkreis"},"federalState":{"key":"15","name":"Sachsen-Anhalt"}},{"name":"Heinrich-Zille-Str.","postalCode":"06729","locality":"Elsteraue","municipality":{"key":"15084130","name":"Elsteraue","type":"Kreisangehörige_Gemeinde"},"district":{"key":"15084","name":"Burgenlandkreis","type":"Landkreis"},"federalState":{"key":"15","name":"Sachsen-Anhalt"}},{"name":"Hinter den Gärten","postalCode":"06729","locality":"Elsteraue","municipality":{"key":"15084130","name":"Elsteraue","type":"Kreisangehörige_Gemeinde"},"district":{"key":"15084","name":"Burgenlandkreis","type":"Landkreis"},"federalState":{"key":"15","name":"Sachsen-Anhalt"}},{"name":"Hohle","postalCode":"06729","locality":"Elsteraue","municipality":{"key":"15084130","name":"Elsteraue","type":"Kreisangehörige_Gemeinde"},"district":{"key":"15084","name":"Burgenlandkreis","type":"Landkreis"},"federalState":{"key":"15","name":"Sachsen-Anhalt"}},{"name":"Im Grund","postalCode":"06729","locality":"Elsteraue","municipality":{"key":"15084130","name":"Elsteraue","type":"Kreisangehörige_Gemeinde"},"district":{"key":"15084","name":"Burgenlandkreis","type":"Landkreis"},"federalState":{"key":"15","name":"Sachsen-Anhalt"}},{"name":"Im Winkel","postalCode":"06729","locality":"Elsteraue","municipality":{"key":"15084130","name":"Elsteraue","type":"Kreisangehörige_Gemeinde"},"district":{"key":"15084","name":"Burgenlandkreis","type":"Landkreis"},"federalState":{"key":"15","name":"Sachsen-Anhalt"}},{"name":"Kadischen","postalCode":"06729","locality":"Elsteraue","municipality":{"key":"15084130","name":"Elsteraue","type":"Kreisangehörige_Gemeinde"},"district":{"key":"15084","name":"Burgenlandkreis","type":"Landkreis"},"federalState":{"key":"15","name":"Sachsen-Anhalt"}},{"name":"Karl-Liebknecht-Str.","postalCode":"06729","locality":"Elsteraue","municipality":{"key":"15084130","name":"Elsteraue","type":"Kreisangehörige_Gemeinde"},"district":{"key":"15084","name":"Burgenlandkreis","type":"Landkreis"},"federalState":{"key":"15","name":"Sachsen-Anhalt"}},{"name":"Karl-Marx-Str.","postalCode":"06729","locality":"Elsteraue","municipality":{"key":"15084130","name":"Elsteraue","type":"Kreisangehörige_Gemeinde"},"district":{"key":"15084","name":"Burgenlandkreis","type":"Landkreis"},"federalState":{"key":"15","name":"Sachsen-Anhalt"}},{"name":"Kastanienweg","postalCode":"06729","locality":"Elsteraue","municipality":{"key":"15084130","name":"Elsteraue","type":"Kreisangehörige_Gemeinde"},"district":{"key":"15084","name":"Burgenlandkreis","type":"Landkreis"},"federalState":{"key":"15","name":"Sachsen-Anhalt"}},{"name":"Kiefernweg","postalCode":"06729","locality":"Elsteraue","municipality":{"key":"15084130","name":"Elsteraue","type":"Kreisangehörige_Gemeinde"},"district":{"key":"15084","name":"Burgenlandkreis","type":"Landkreis"},"federalState":{"key":"15","name":"Sachsen-Anhalt"}},{"name":"Kirchgasse","postalCode":"06729","locality":"Elsteraue","municipality":{"key":"15084130","name":"Elsteraue","type":"Kreisangehörige_Gemeinde"},"district":{"key":"15084","name":"Burgenlandkreis","type":"Landkreis"},"federalState":{"key":"15","name":"Sachsen-Anhalt"}},{"name":"Kolonie","postalCode":"06729","locality":"Elsteraue","municipality":{"key":"15084130","name":"Elsteraue","type":"Kreisangehörige_Gemeinde"},"district":{"key":"15084","name":"Burgenlandkreis","type":"Landkreis"},"federalState":{"key":"15","name":"Sachsen-Anhalt"}},{"name":"Könderitzer Dorfstr.","postalCode":"06729","locality":"Elsteraue","municipality":{"key":"15084130","name":"Elsteraue","type":"Kreisangehörige_Gemeinde"},"district":{"key":"15084","name":"Burgenlandkreis","type":"Landkreis"},"federalState":{"key":"15","name":"Sachsen-Anhalt"}},{"name":"Könderitzer Hauptstr.","postalCode":"06729","locality":"Elsteraue","municipality":{"key":"15084130","name":"Elsteraue","type":"Kreisangehörige_Gemeinde"},"district":{"key":"15084","name":"Burgenlandkreis","type":"Landkreis"},"federalState":{"key":"15","name":"Sachsen-Anhalt"}},{"name":"Könderitzer Str.","postalCode":"06729","locality":"Elsteraue","municipality":{"key":"15084130","name":"Elsteraue","type":"Kreisangehörige_Gemeinde"},"district":{"key":"15084","name":"Burgenlandkreis","type":"Landkreis"},"federalState":{"key":"15","name":"Sachsen-Anhalt"}},{"name":"Krimmitzschen","postalCode":"06729","locality":"Elsteraue","municipality":{"key":"15084130","name":"Elsteraue","type":"Kreisangehörige_Gemeinde"},"district":{"key":"15084","name":"Burgenlandkreis","type":"Landkreis"},"federalState":{"key":"15","name":"Sachsen-Anhalt"}},{"name":"Langer Weg","postalCode":"06729","locality":"Elsteraue","municipality":{"key":"15084130","name":"Elsteraue","type":"Kreisangehörige_Gemeinde"},"district":{"key":"15084","name":"Burgenlandkreis","type":"Landkreis"},"federalState":{"key":"15","name":"Sachsen-Anhalt"}},{"name":"Leipziger Str.","postalCode":"06729","locality":"Elsteraue","municipality":{"key":"15084130","name":"Elsteraue","type":"Kreisangehörige_Gemeinde"},"district":{"key":"15084","name":"Burgenlandkreis","type":"Landkreis"},"federalState":{"key":"15","name":"Sachsen-Anhalt"}},{"name":"Lilienweg","postalCode":"06729","locality":"Elsteraue","municipality":{"key":"15084130","name":"Elsteraue","type":"Kreisangehörige_Gemeinde"},"district":{"key":"15084","name":"Burgenlandkreis","type":"Landkreis"},"federalState":{"key":"15","name":"Sachsen-Anhalt"}},{"name":"Lindenweg","postalCode":"06729","locality":"Elsteraue","municipality":{"key":"15084130","name":"Elsteraue","type":"Kreisangehörige_Gemeinde"},"district":{"key":"15084","name":"Burgenlandkreis","type":"Landkreis"},"federalState":{"key":"15","name":"Sachsen-Anhalt"}},{"name":"Luckaer Str.","postalCode":"06729","locality":"Elsteraue","municipality":{"key":"15084130","name":"Elsteraue","type":"Kreisangehörige_Gemeinde"},"district":{"key":"15084","name":"Burgenlandkreis","type":"Landkreis"},"federalState":{"key":"15","name":"Sachsen-Anhalt"}},{"name":"Markt","postalCode":"06729","locality":"Elsteraue","municipality":{"key":"15084130","name":"Elsteraue","type":"Kreisangehörige_Gemeinde"},"district":{"key":"15084","name":"Burgenlandkreis","type":"Landkreis"},"federalState":{"key":"15","name":"Sachsen-Anhalt"}},{"name":"Maßnitzer Dorfstr.","postalCode":"06729","locality":"Elsteraue","municipality":{"key":"15084130","name":"Elsteraue","type":"Kreisangehörige_Gemeinde"},"district":{"key":"15084","name":"Burgenlandkreis","type":"Landkreis"},"federalState":{"key":"15","name":"Sachsen-Anhalt"}},{"name":"Maßnitzer Weg","postalCode":"06729","locality":"Elsteraue","municipality":{"key":"15084130","name":"Elsteraue","type":"Kreisangehörige_Gemeinde"},"district":{"key":"15084","name":"Burgenlandkreis","type":"Landkreis"},"federalState":{"key":"15","name":"Sachsen-Anhalt"}},{"name":"Meuselwitzer Str.","postalCode":"06729","locality":"Elsteraue","municipality":{"key":"15084130","name":"Elsteraue","type":"Kreisangehörige_Gemeinde"},"district":{"key":"15084","name":"Burgenlandkreis","type":"Landkreis"},"federalState":{"key":"15","name":"Sachsen-Anhalt"}},{"name":"Minkwitzer Dorfstr.","postalCode":"06729","locality":"Elsteraue","municipality":{"key":"15084130","name":"Elsteraue","type":"Kreisangehörige_Gemeinde"},"district":{"key":"15084","name":"Burgenlandkreis","type":"Landkreis"},"federalState":{"key":"15","name":"Sachsen-Anhalt"}},{"name":"Minkwitzer Str.","postalCode":"06729","locality":"Elsteraue","municipality":{"key":"15084130","name":"Elsteraue","type":"Kreisangehörige_Gemeinde"},"district":{"key":"15084","name":"Burgenlandkreis","type":"Landkreis"},"federalState":{"key":"15","name":"Sachsen-Anhalt"}},{"name":"Mittelstr.","postalCode":"06729","locality":"Elsteraue","municipality":{"key":"15084130","name":"Elsteraue","type":"Kreisangehörige_Gemeinde"},"district":{"key":"15084","name":"Burgenlandkreis","type":"Landkreis"},"federalState":{"key":"15","name":"Sachsen-Anhalt"}},{"name":"Mühlende","postalCode":"06729","locality":"Elsteraue","municipality":{"key":"15084130","name":"Elsteraue","type":"Kreisangehörige_Gemeinde"},"district":{"key":"15084","name":"Burgenlandkreis","type":"Landkreis"},"federalState":{"key":"15","name":"Sachsen-Anhalt"}},{"name":"Mühlenweg","postalCode":"06729","locality":"Elsteraue","municipality":{"key":"15084130","name":"Elsteraue","type":"Kreisangehörige_Gemeinde"},"district":{"key":"15084","name":"Burgenlandkreis","type":"Landkreis"},"federalState":{"key":"15","name":"Sachsen-Anhalt"}},{"name":"Nach der Wolfsmühle","postalCode":"06729","locality":"Elsteraue","municipality":{"key":"15084130","name":"Elsteraue","type":"Kreisangehörige_Gemeinde"},"district":{"key":"15084","name":"Burgenlandkreis","type":"Landkreis"},"federalState":{"key":"15","name":"Sachsen-Anhalt"}},{"name":"Nelkenweg","postalCode":"06729","locality":"Elsteraue","municipality":{"key":"15084130","name":"Elsteraue","type":"Kreisangehörige_Gemeinde"},"district":{"key":"15084","name":"Burgenlandkreis","type":"Landkreis"},"federalState":{"key":"15","name":"Sachsen-Anhalt"}},{"name":"Neue Dorfstr.","postalCode":"06729","locality":"Elsteraue","municipality":{"key":"15084130","name":"Elsteraue","type":"Kreisangehörige_Gemeinde"},"district":{"key":"15084","name":"Burgenlandkreis","type":"Landkreis"},"federalState":{"key":"15","name":"Sachsen-Anhalt"}},{"name":"Neue Str.","postalCode":"06729","locality":"Elsteraue","municipality":{"key":"15084130","name":"Elsteraue","type":"Kreisangehörige_Gemeinde"},"district":{"key":"15084","name":"Burgenlandkreis","type":"Landkreis"},"federalState":{"key":"15","name":"Sachsen-Anhalt"}},{"name":"Neupoderschauer Str.","postalCode":"06729","locality":"Elsteraue","municipality":{"key":"15084130","name":"Elsteraue","type":"Kreisangehörige_Gemeinde"},"district":{"key":"15084","name":"Burgenlandkreis","type":"Landkreis"},"federalState":{"key":"15","name":"Sachsen-Anhalt"}},{"name":"Neusiedlerweg","postalCode":"06729","locality":"Elsteraue","municipality":{"key":"15084130","name":"Elsteraue","type":"Kreisangehörige_Gemeinde"},"district":{"key":"15084","name":"Burgenlandkreis","type":"Landkreis"},"federalState":{"key":"15","name":"Sachsen-Anhalt"}},{"name":"Nißmaer Hauptstr.","postalCode":"06729","locality":"Elsteraue","municipality":{"key":"15084130","name":"Elsteraue","type":"Kreisangehörige_Gemeinde"},"district":{"key":"15084","name":"Burgenlandkreis","type":"Landkreis"},"federalState":{"key":"15","name":"Sachsen-Anhalt"}},{"name":"Nißmaer Schulstr.","postalCode":"06729","locality":"Elsteraue","municipality":{"key":"15084130","name":"Elsteraue","type":"Kreisangehörige_Gemeinde"},"district":{"key":"15084","name":"Burgenlandkreis","type":"Landkreis"},"federalState":{"key":"15","name":"Sachsen-Anhalt"}},{"name":"Nordstr.","postalCode":"06729","locality":"Elsteraue","municipality":{"key":"15084130","name":"Elsteraue","type":"Kreisangehörige_Gemeinde"},"district":{"key":"15084","name":"Burgenlandkreis","type":"Landkreis"},"federalState":{"key":"15","name":"Sachsen-Anhalt"}},{"name":"Oberer Dellenweg","postalCode":"06729","locality":"Elsteraue","municipality":{"key":"15084130","name":"Elsteraue","type":"Kreisangehörige_Gemeinde"},"district":{"key":"15084","name":"Burgenlandkreis","type":"Landkreis"},"federalState":{"key":"15","name":"Sachsen-Anhalt"}},{"name":"Oberer Tiefweg","postalCode":"06729","locality":"Elsteraue","municipality":{"key":"15084130","name":"Elsteraue","type":"Kreisangehörige_Gemeinde"},"district":{"key":"15084","name":"Burgenlandkreis","type":"Landkreis"},"federalState":{"key":"15","name":"Sachsen-Anhalt"}},{"name":"Ostrau","postalCode":"06729","locality":"Elsteraue","municipality":{"key":"15084130","name":"Elsteraue","type":"Kreisangehörige_Gemeinde"},"district":{"key":"15084","name":"Burgenlandkreis","type":"Landkreis"},"federalState":{"key":"15","name":"Sachsen-Anhalt"}},{"name":"Ostrauer Str.","postalCode":"06729","locality":"Elsteraue","municipality":{"key":"15084130","name":"Elsteraue","type":"Kreisangehörige_Gemeinde"},"district":{"key":"15084","name":"Burgenlandkreis","type":"Landkreis"},"federalState":{"key":"15","name":"Sachsen-Anhalt"}},{"name":"Ostrauer Weg","postalCode":"06729","locality":"Elsteraue","municipality":{"key":"15084130","name":"Elsteraue","type":"Kreisangehörige_Gemeinde"},"district":{"key":"15084","name":"Burgenlandkreis","type":"Landkreis"},"federalState":{"key":"15","name":"Sachsen-Anhalt"}},{"name":"Oststr.","postalCode":"06729","locality":"Elsteraue","municipality":{"key":"15084130","name":"Elsteraue","type":"Kreisangehörige_Gemeinde"},"district":{"key":"15084","name":"Burgenlandkreis","type":"Landkreis"},"federalState":{"key":"15","name":"Sachsen-Anhalt"}},{"name":"Paradies","postalCode":"06729","locality":"Elsteraue","municipality":{"key":"15084130","name":"Elsteraue","type":"Kreisangehörige_Gemeinde"},"district":{"key":"15084","name":"Burgenlandkreis","type":"Landkreis"},"federalState":{"key":"15","name":"Sachsen-Anhalt"}},{"name":"Parkstr.","postalCode":"06729","locality":"Elsteraue","municipality":{"key":"15084130","name":"Elsteraue","type":"Kreisangehörige_Gemeinde"},"district":{"key":"15084","name":"Burgenlandkreis","type":"Landkreis"},"federalState":{"key":"15","name":"Sachsen-Anhalt"}},{"name":"Parkweg","postalCode":"06729","locality":"Elsteraue","municipality":{"key":"15084130","name":"Elsteraue","type":"Kreisangehörige_Gemeinde"},"district":{"key":"15084","name":"Burgenlandkreis","type":"Landkreis"},"federalState":{"key":"15","name":"Sachsen-Anhalt"}},{"name":"Pegauer Str.","postalCode":"06729","locality":"Elsteraue","municipality":{"key":"15084130","name":"Elsteraue","type":"Kreisangehörige_Gemeinde"},"district":{"key":"15084","name":"Burgenlandkreis","type":"Landkreis"},"federalState":{"key":"15","name":"Sachsen-Anhalt"}},{"name":"Penkwitzer Dorfstr.","postalCode":"06729","locality":"Elsteraue","municipality":{"key":"15084130","name":"Elsteraue","type":"Kreisangehörige_Gemeinde"},"district":{"key":"15084","name":"Burgenlandkreis","type":"Landkreis"},"federalState":{"key":"15","name":"Sachsen-Anhalt"}},{"name":"Platz der Freiheit","postalCode":"06729","locality":"Elsteraue","municipality":{"key":"15084130","name":"Elsteraue","type":"Kreisangehörige_Gemeinde"},"district":{"key":"15084","name":"Burgenlandkreis","type":"Landkreis"},"federalState":{"key":"15","name":"Sachsen-Anhalt"}},{"name":"Poststr.","postalCode":"06729","locality":"Elsteraue","municipality":{"key":"15084130","name":"Elsteraue","type":"Kreisangehörige_Gemeinde"},"district":{"key":"15084","name":"Burgenlandkreis","type":"Landkreis"},"federalState":{"key":"15","name":"Sachsen-Anhalt"}},{"name":"Predel","postalCode":"06729","locality":"Elsteraue","municipality":{"key":"15084130","name":"Elsteraue","type":"Kreisangehörige_Gemeinde"},"district":{"key":"15084","name":"Burgenlandkreis","type":"Landkreis"},"federalState":{"key":"15","name":"Sachsen-Anhalt"}},{"name":"Prehlitzer Anger","postalCode":"06729","locality":"Elsteraue","municipality":{"key":"15084130","name":"Elsteraue","type":"Kreisangehörige_Gemeinde"},"district":{"key":"15084","name":"Burgenlandkreis","type":"Landkreis"},"federalState":{"key":"15","name":"Sachsen-Anhalt"}},{"name":"Profener Bahnhofstr.","postalCode":"06729","locality":"Elsteraue","municipality":{"key":"15084130","name":"Elsteraue","type":"Kreisangehörige_Gemeinde"},"district":{"key":"15084","name":"Burgenlandkreis","type":"Landkreis"},"federalState":{"key":"15","name":"Sachsen-Anhalt"}},{"name":"Profener Hauptstr.","postalCode":"06729","locality":"Elsteraue","municipality":{"key":"15084130","name":"Elsteraue","type":"Kreisangehörige_Gemeinde"},"district":{"key":"15084","name":"Burgenlandkreis","type":"Landkreis"},"federalState":{"key":"15","name":"Sachsen-Anhalt"}},{"name":"Puschendorf","postalCode":"06729","locality":"Elsteraue","municipality":{"key":"15084130","name":"Elsteraue","type":"Kreisangehörige_Gemeinde"},"district":{"key":"15084","name":"Burgenlandkreis","type":"Landkreis"},"federalState":{"key":"15","name":"Sachsen-Anhalt"}},{"name":"Querstr.","postalCode":"06729","locality":"Elsteraue","municipality":{"key":"15084130","name":"Elsteraue","type":"Kreisangehörige_Gemeinde"},"district":{"key":"15084","name":"Burgenlandkreis","type":"Landkreis"},"federalState":{"key":"15","name":"Sachsen-Anhalt"}},{"name":"Rehmsdorfer Gartenstr.","postalCode":"06729","locality":"Elsteraue","municipality":{"key":"15084130","name":"Elsteraue","type":"Kreisangehörige_Gemeinde"},"district":{"key":"15084","name":"Burgenlandkreis","type":"Landkreis"},"federalState":{"key":"15","name":"Sachsen-Anhalt"}},{"name":"Rehmsdorfer Hauptstr.","postalCode":"06729","locality":"Elsteraue","municipality":{"key":"15084130","name":"Elsteraue","type":"Kreisangehörige_Gemeinde"},"district":{"key":"15084","name":"Burgenlandkreis","type":"Landkreis"},"federalState":{"key":"15","name":"Sachsen-Anhalt"}},{"name":"Rehmsdorfer Str.","postalCode":"06729","locality":"Elsteraue","municipality":{"key":"15084130","name":"Elsteraue","type":"Kreisangehörige_Gemeinde"},"district":{"key":"15084","name":"Burgenlandkreis","type":"Landkreis"},"federalState":{"key":"15","name":"Sachsen-Anhalt"}},{"name":"Rheinlandstr.","postalCode":"06729","locality":"Elsteraue","municipality":{"key":"15084130","name":"Elsteraue","type":"Kreisangehörige_Gemeinde"},"district":{"key":"15084","name":"Burgenlandkreis","type":"Landkreis"},"federalState":{"key":"15","name":"Sachsen-Anhalt"}},{"name":"Ringstr.","postalCode":"06729","locality":"Elsteraue","municipality":{"key":"15084130","name":"Elsteraue","type":"Kreisangehörige_Gemeinde"},"district":{"key":"15084","name":"Burgenlandkreis","type":"Landkreis"},"federalState":{"key":"15","name":"Sachsen-Anhalt"}},{"name":"Robert-Koch-Str.","postalCode":"06729","locality":"Elsteraue","municipality":{"key":"15084130","name":"Elsteraue","type":"Kreisangehörige_Gemeinde"},"district":{"key":"15084","name":"Burgenlandkreis","type":"Landkreis"},"federalState":{"key":"15","name":"Sachsen-Anhalt"}},{"name":"Rodaer Winkel","postalCode":"06729","locality":"Elsteraue","municipality":{"key":"15084130","name":"Elsteraue","type":"Kreisangehörige_Gemeinde"},"district":{"key":"15084","name":"Burgenlandkreis","type":"Landkreis"},"federalState":{"key":"15","name":"Sachsen-Anhalt"}},{"name":"Rosenweg","postalCode":"06729","locality":"Elsteraue","municipality":{"key":"15084130","name":"Elsteraue","type":"Kreisangehörige_Gemeinde"},"district":{"key":"15084","name":"Burgenlandkreis","type":"Landkreis"},"federalState":{"key":"15","name":"Sachsen-Anhalt"}},{"name":"Rudolf-Breitscheid-Str.","postalCode":"06729","locality":"Elsteraue","municipality":{"key":"15084130","name":"Elsteraue","type":"Kreisangehörige_Gemeinde"},"district":{"key":"15084","name":"Burgenlandkreis","type":"Landkreis"},"federalState":{"key":"15","name":"Sachsen-Anhalt"}},{"name":"Rumsdorfer Platz","postalCode":"06729","locality":"Elsteraue","municipality":{"key":"15084130","name":"Elsteraue","type":"Kreisangehörige_Gemeinde"},"district":{"key":"15084","name":"Burgenlandkreis","type":"Landkreis"},"federalState":{"key":"15","name":"Sachsen-Anhalt"}},{"name":"Schillerstr.","postalCode":"06729","locality":"Elsteraue","municipality":{"key":"15084130","name":"Elsteraue","type":"Kreisangehörige_Gemeinde"},"district":{"key":"15084","name":"Burgenlandkreis","type":"Landkreis"},"federalState":{"key":"15","name":"Sachsen-Anhalt"}},{"name":"Schulgasse","postalCode":"06729","locality":"Elsteraue","municipality":{"key":"15084130","name":"Elsteraue","type":"Kreisangehörige_Gemeinde"},"district":{"key":"15084","name":"Burgenlandkreis","type":"Landkreis"},"federalState":{"key":"15","name":"Sachsen-Anhalt"}},{"name":"Schulplatz","postalCode":"06729","locality":"Elsteraue","municipality":{"key":"15084130","name":"Elsteraue","type":"Kreisangehörige_Gemeinde"},"district":{"key":"15084","name":"Burgenlandkreis","type":"Landkreis"},"federalState":{"key":"15","name":"Sachsen-Anhalt"}},{"name":"Schulstr.","postalCode":"06729","locality":"Elsteraue","municipality":{"key":"15084130","name":"Elsteraue","type":"Kreisangehörige_Gemeinde"},"district":{"key":"15084","name":"Burgenlandkreis","type":"Landkreis"},"federalState":{"key":"15","name":"Sachsen-Anhalt"}},{"name":"Schwerzauer Siedlung","postalCode":"06729","locality":"Elsteraue","municipality":{"key":"15084130","name":"Elsteraue","type":"Kreisangehörige_Gemeinde"},"district":{"key":"15084","name":"Burgenlandkreis","type":"Landkreis"},"federalState":{"key":"15","name":"Sachsen-Anhalt"}},{"name":"Schwerzauer Str.","postalCode":"06729","locality":"Elsteraue","municipality":{"key":"15084130","name":"Elsteraue","type":"Kreisangehörige_Gemeinde"},"district":{"key":"15084","name":"Burgenlandkreis","type":"Landkreis"},"federalState":{"key":"15","name":"Sachsen-Anhalt"}},{"name":"Siedlung","postalCode":"06729","locality":"Elsteraue","municipality":{"key":"15084130","name":"Elsteraue","type":"Kreisangehörige_Gemeinde"},"district":{"key":"15084","name":"Burgenlandkreis","type":"Landkreis"},"federalState":{"key":"15","name":"Sachsen-Anhalt"}},{"name":"Sporaer Hauptstr.","postalCode":"06729","locality":"Elsteraue","municipality":{"key":"15084130","name":"Elsteraue","type":"Kreisangehörige_Gemeinde"},"district":{"key":"15084","name":"Burgenlandkreis","type":"Landkreis"},"federalState":{"key":"15","name":"Sachsen-Anhalt"}},{"name":"Sporaer Schulstr.","postalCode":"06729","locality":"Elsteraue","municipality":{"key":"15084130","name":"Elsteraue","type":"Kreisangehörige_Gemeinde"},"district":{"key":"15084","name":"Burgenlandkreis","type":"Landkreis"},"federalState":{"key":"15","name":"Sachsen-Anhalt"}},{"name":"Sporaer Str.","postalCode":"06729","locality":"Elsteraue","municipality":{"key":"15084130","name":"Elsteraue","type":"Kreisangehörige_Gemeinde"},"district":{"key":"15084","name":"Burgenlandkreis","type":"Landkreis"},"federalState":{"key":"15","name":"Sachsen-Anhalt"}},{"name":"Sporarer Hauptstr.","postalCode":"06729","locality":"Elsteraue","municipality":{"key":"15084130","name":"Elsteraue","type":"Kreisangehörige_Gemeinde"},"district":{"key":"15084","name":"Burgenlandkreis","type":"Landkreis"},"federalState":{"key":"15","name":"Sachsen-Anhalt"}},{"name":"Sprossener Dorfstr.","postalCode":"06729","locality":"Elsteraue","municipality":{"key":"15084130","name":"Elsteraue","type":"Kreisangehörige_Gemeinde"},"district":{"key":"15084","name":"Burgenlandkreis","type":"Landkreis"},"federalState":{"key":"15","name":"Sachsen-Anhalt"}},{"name":"Sprossener Str.","postalCode":"06729","locality":"Elsteraue","municipality":{"key":"15084130","name":"Elsteraue","type":"Kreisangehörige_Gemeinde"},"district":{"key":"15084","name":"Burgenlandkreis","type":"Landkreis"},"federalState":{"key":"15","name":"Sachsen-Anhalt"}},{"name":"Staschwitzer Hauptstr.","postalCode":"06729","locality":"Elsteraue","municipality":{"key":"15084130","name":"Elsteraue","type":"Kreisangehörige_Gemeinde"},"district":{"key":"15084","name":"Burgenlandkreis","type":"Landkreis"},"federalState":{"key":"15","name":"Sachsen-Anhalt"}},{"name":"Steinweg","postalCode":"06729","locality":"Elsteraue","municipality":{"key":"15084130","name":"Elsteraue","type":"Kreisangehörige_Gemeinde"},"district":{"key":"15084","name":"Burgenlandkreis","type":"Landkreis"},"federalState":{"key":"15","name":"Sachsen-Anhalt"}},{"name":"Stocksdorf","postalCode":"06729","locality":"Elsteraue","municipality":{"key":"15084130","name":"Elsteraue","type":"Kreisangehörige_Gemeinde"},"district":{"key":"15084","name":"Burgenlandkreis","type":"Landkreis"},"federalState":{"key":"15","name":"Sachsen-Anhalt"}},{"name":"Str. der Freiheit","postalCode":"06729","locality":"Elsteraue","municipality":{"key":"15084130","name":"Elsteraue","type":"Kreisangehörige_Gemeinde"},"district":{"key":"15084","name":"Burgenlandkreis","type":"Landkreis"},"federalState":{"key":"15","name":"Sachsen-Anhalt"}},{"name":"Str. der Jugend","postalCode":"06729","locality":"Elsteraue","municipality":{"key":"15084130","name":"Elsteraue","type":"Kreisangehörige_Gemeinde"},"district":{"key":"15084","name":"Burgenlandkreis","type":"Landkreis"},"federalState":{"key":"15","name":"Sachsen-Anhalt"}},{"name":"Str. der Opfer","postalCode":"06729","locality":"Elsteraue","municipality":{"key":"15084130","name":"Elsteraue","type":"Kreisangehörige_Gemeinde"},"district":{"key":"15084","name":"Burgenlandkreis","type":"Landkreis"},"federalState":{"key":"15","name":"Sachsen-Anhalt"}},{"name":"Str. des Aufbaus","postalCode":"06729","locality":"Elsteraue","municipality":{"key":"15084130","name":"Elsteraue","type":"Kreisangehörige_Gemeinde"},"district":{"key":"15084","name":"Burgenlandkreis","type":"Landkreis"},"federalState":{"key":"15","name":"Sachsen-Anhalt"}},{"name":"Str. zur Freiheit","postalCode":"06729","locality":"Elsteraue","municipality":{"key":"15084130","name":"Elsteraue","type":"Kreisangehörige_Gemeinde"},"district":{"key":"15084","name":"Burgenlandkreis","type":"Landkreis"},"federalState":{"key":"15","name":"Sachsen-Anhalt"}},{"name":"Südstr.","postalCode":"06729","locality":"Elsteraue","municipality":{"key":"15084130","name":"Elsteraue","type":"Kreisangehörige_Gemeinde"},"district":{"key":"15084","name":"Burgenlandkreis","type":"Landkreis"},"federalState":{"key":"15","name":"Sachsen-Anhalt"}},{"name":"Techwitz","postalCode":"06729","locality":"Elsteraue","municipality":{"key":"15084130","name":"Elsteraue","type":"Kreisangehörige_Gemeinde"},"district":{"key":"15084","name":"Burgenlandkreis","type":"Landkreis"},"federalState":{"key":"15","name":"Sachsen-Anhalt"}},{"name":"Techwitzer Kreisstr.","postalCode":"06729","locality":"Elsteraue","municipality":{"key":"15084130","name":"Elsteraue","type":"Kreisangehörige_Gemeinde"},"district":{"key":"15084","name":"Burgenlandkreis","type":"Landkreis"},"federalState":{"key":"15","name":"Sachsen-Anhalt"}},{"name":"Techwitzer Str.","postalCode":"06729","locality":"Elsteraue","municipality":{"key":"15084130","name":"Elsteraue","type":"Kreisangehörige_Gemeinde"},"district":{"key":"15084","name":"Burgenlandkreis","type":"Landkreis"},"federalState":{"key":"15","name":"Sachsen-Anhalt"}},{"name":"Teichstr.","postalCode":"06729","locality":"Elsteraue","municipality":{"key":"15084130","name":"Elsteraue","type":"Kreisangehörige_Gemeinde"},"district":{"key":"15084","name":"Burgenlandkreis","type":"Landkreis"},"federalState":{"key":"15","name":"Sachsen-Anhalt"}},{"name":"Tiefweg","postalCode":"06729","locality":"Elsteraue","municipality":{"key":"15084130","name":"Elsteraue","type":"Kreisangehörige_Gemeinde"},"district":{"key":"15084","name":"Burgenlandkreis","type":"Landkreis"},"federalState":{"key":"15","name":"Sachsen-Anhalt"}},{"name":"Torna","postalCode":"06729","locality":"Elsteraue","municipality":{"key":"15084130","name":"Elsteraue","type":"Kreisangehörige_Gemeinde"},"district":{"key":"15084","name":"Burgenlandkreis","type":"Landkreis"},"federalState":{"key":"15","name":"Sachsen-Anhalt"}},{"name":"Tornaer Str.","postalCode":"06729","locality":"Elsteraue","municipality":{"key":"15084130","name":"Elsteraue","type":"Kreisangehörige_Gemeinde"},"district":{"key":"15084","name":"Burgenlandkreis","type":"Landkreis"},"federalState":{"key":"15","name":"Sachsen-Anhalt"}},{"name":"Traupitzer Dorfstr.","postalCode":"06729","locality":"Elsteraue","municipality":{"key":"15084130","name":"Elsteraue","type":"Kreisangehörige_Gemeinde"},"district":{"key":"15084","name":"Burgenlandkreis","type":"Landkreis"},"federalState":{"key":"15","name":"Sachsen-Anhalt"}},{"name":"Traupitzer Str.","postalCode":"06729","locality":"Elsteraue","municipality":{"key":"15084130","name":"Elsteraue","type":"Kreisangehörige_Gemeinde"},"district":{"key":"15084","name":"Burgenlandkreis","type":"Landkreis"},"federalState":{"key":"15","name":"Sachsen-Anhalt"}},{"name":"Traupitzer Weg","postalCode":"06729","locality":"Elsteraue","municipality":{"key":"15084130","name":"Elsteraue","type":"Kreisangehörige_Gemeinde"},"district":{"key":"15084","name":"Burgenlandkreis","type":"Landkreis"},"federalState":{"key":"15","name":"Sachsen-Anhalt"}},{"name":"Tröglitzer Feldstr.","postalCode":"06729","locality":"Elsteraue","municipality":{"key":"15084130","name":"Elsteraue","type":"Kreisangehörige_Gemeinde"},"district":{"key":"15084","name":"Burgenlandkreis","type":"Landkreis"},"federalState":{"key":"15","name":"Sachsen-Anhalt"}},{"name":"Tröglitzer Str.","postalCode":"06729","locality":"Elsteraue","municipality":{"key":"15084130","name":"Elsteraue","type":"Kreisangehörige_Gemeinde"},"district":{"key":"15084","name":"Burgenlandkreis","type":"Landkreis"},"federalState":{"key":"15","name":"Sachsen-Anhalt"}},{"name":"Tulpenweg","postalCode":"06729","locality":"Elsteraue","municipality":{"key":"15084130","name":"Elsteraue","type":"Kreisangehörige_Gemeinde"},"district":{"key":"15084","name":"Burgenlandkreis","type":"Landkreis"},"federalState":{"key":"15","name":"Sachsen-Anhalt"}},{"name":"Unterer Dellenweg","postalCode":"06729","locality":"Elsteraue","municipality":{"key":"15084130","name":"Elsteraue","type":"Kreisangehörige_Gemeinde"},"district":{"key":"15084","name":"Burgenlandkreis","type":"Landkreis"},"federalState":{"key":"15","name":"Sachsen-Anhalt"}},{"name":"Uthmannstr.","postalCode":"06729","locality":"Elsteraue","municipality":{"key":"15084130","name":"Elsteraue","type":"Kreisangehörige_Gemeinde"},"district":{"key":"15084","name":"Burgenlandkreis","type":"Landkreis"},"federalState":{"key":"15","name":"Sachsen-Anhalt"}},{"name":"Veilchenweg","postalCode":"06729","locality":"Elsteraue","municipality":{"key":"15084130","name":"Elsteraue","type":"Kreisangehörige_Gemeinde"},"district":{"key":"15084","name":"Burgenlandkreis","type":"Landkreis"},"federalState":{"key":"15","name":"Sachsen-Anhalt"}},{"name":"Wadewitz","postalCode":"06729","locality":"Elsteraue","municipality":{"key":"15084130","name":"Elsteraue","type":"Kreisangehörige_Gemeinde"},"district":{"key":"15084","name":"Burgenlandkreis","type":"Landkreis"},"federalState":{"key":"15","name":"Sachsen-Anhalt"}},{"name":"Werbenhainer Str.","postalCode":"06729","locality":"Elsteraue","municipality":{"key":"15084130","name":"Elsteraue","type":"Kreisangehörige_Gemeinde"},"district":{"key":"15084","name":"Burgenlandkreis","type":"Landkreis"},"federalState":{"key":"15","name":"Sachsen-Anhalt"}},{"name":"Weststr.","postalCode":"06729","locality":"Elsteraue","municipality":{"key":"15084130","name":"Elsteraue","type":"Kreisangehörige_Gemeinde"},"district":{"key":"15084","name":"Burgenlandkreis","type":"Landkreis"},"federalState":{"key":"15","name":"Sachsen-Anhalt"}},{"name":"Wiesenweg","postalCode":"06729","locality":"Elsteraue","municipality":{"key":"15084130","name":"Elsteraue","type":"Kreisangehörige_Gemeinde"},"district":{"key":"15084","name":"Burgenlandkreis","type":"Landkreis"},"federalState":{"key":"15","name":"Sachsen-Anhalt"}},{"name":"Zeitzer Str.","postalCode":"06729","locality":"Elsteraue","municipality":{"key":"15084130","name":"Elsteraue","type":"Kreisangehörige_Gemeinde"},"district":{"key":"15084","name":"Burgenlandkreis","type":"Landkreis"},"federalState":{"key":"15","name":"Sachsen-Anhalt"}},{"name":"Ziegeleistr.","postalCode":"06729","locality":"Elsteraue","municipality":{"key":"15084130","name":"Elsteraue","type":"Kreisangehörige_Gemeinde"},"district":{"key":"15084","name":"Burgenlandkreis","type":"Landkreis"},"federalState":{"key":"15","name":"Sachsen-Anhalt"}},]