[{"key":"10183917","name":"Alte Lohnbergstrasse","postalCode":"4315","locality":"Zuzgen","commune":{"key":"4264","name":"Zuzgen","shortName":"Zuzgen"},"district":{"key":"1909","name":"Bezirk Rheinfelden"},"canton":{"key":"19","code":"AG","name":"Aargau"},"status":"Real"},{"key":"10056636","name":"Bollhof","postalCode":"4315","locality":"Zuzgen","commune":{"key":"4264","name":"Zuzgen","shortName":"Zuzgen"},"district":{"key":"1909","name":"Bezirk Rheinfelden"},"canton":{"key":"19","code":"AG","name":"Aargau"},"status":"Real"},{"key":"10037812","name":"Bühlweg","postalCode":"4315","locality":"Zuzgen","commune":{"key":"4264","name":"Zuzgen","shortName":"Zuzgen"},"district":{"key":"1909","name":"Bezirk Rheinfelden"},"canton":{"key":"19","code":"AG","name":"Aargau"},"status":"Real"},{"key":"10078675","name":"Bummerten","postalCode":"4315","locality":"Zuzgen","commune":{"key":"4264","name":"Zuzgen","shortName":"Zuzgen"},"district":{"key":"1909","name":"Bezirk Rheinfelden"},"canton":{"key":"19","code":"AG","name":"Aargau"},"status":"Real"},{"key":"10095649","name":"Chürzihof","postalCode":"4315","locality":"Zuzgen","commune":{"key":"4264","name":"Zuzgen","shortName":"Zuzgen"},"district":{"key":"1909","name":"Bezirk Rheinfelden"},"canton":{"key":"19","code":"AG","name":"Aargau"},"status":"Real"},{"key":"10037813","name":"Chyndli","postalCode":"4315","locality":"Zuzgen","commune":{"key":"4264","name":"Zuzgen","shortName":"Zuzgen"},"district":{"key":"1909","name":"Bezirk Rheinfelden"},"canton":{"key":"19","code":"AG","name":"Aargau"},"status":"Real"},{"key":"10122803","name":"Dornhof","postalCode":"4315","locality":"Zuzgen","commune":{"key":"4264","name":"Zuzgen","shortName":"Zuzgen"},"district":{"key":"1909","name":"Bezirk Rheinfelden"},"canton":{"key":"19","code":"AG","name":"Aargau"},"status":"Real"},{"key":"10078676","name":"Eichmatt","postalCode":"4315","locality":"Zuzgen","commune":{"key":"4264","name":"Zuzgen","shortName":"Zuzgen"},"district":{"key":"1909","name":"Bezirk Rheinfelden"},"canton":{"key":"19","code":"AG","name":"Aargau"},"status":"Real"},{"key":"10037814","name":"Erfleten","postalCode":"4315","locality":"Zuzgen","commune":{"key":"4264","name":"Zuzgen","shortName":"Zuzgen"},"district":{"key":"1909","name":"Bezirk Rheinfelden"},"canton":{"key":"19","code":"AG","name":"Aargau"},"status":"Real"},{"key":"10111091","name":"Gassenbach","postalCode":"4315","locality":"Zuzgen","commune":{"key":"4264","name":"Zuzgen","shortName":"Zuzgen"},"district":{"key":"1909","name":"Bezirk Rheinfelden"},"canton":{"key":"19","code":"AG","name":"Aargau"},"status":"Real"},{"key":"10115635","name":"Geisshübel","postalCode":"4315","locality":"Zuzgen","commune":{"key":"4264","name":"Zuzgen","shortName":"Zuzgen"},"district":{"key":"1909","name":"Bezirk Rheinfelden"},"canton":{"key":"19","code":"AG","name":"Aargau"},"status":"Real"},{"key":"10037815","name":"Hauptstrasse","postalCode":"4315","locality":"Zuzgen","commune":{"key":"4264","name":"Zuzgen","shortName":"Zuzgen"},"district":{"key":"1909","name":"Bezirk Rheinfelden"},"canton":{"key":"19","code":"AG","name":"Aargau"},"status":"Real"},{"key":"10095650","name":"Hirsacker","postalCode":"4315","locality":"Zuzgen","commune":{"key":"4264","name":"Zuzgen","shortName":"Zuzgen"},"district":{"key":"1909","name":"Bezirk Rheinfelden"},"canton":{"key":"19","code":"AG","name":"Aargau"},"status":"Real"},{"key":"10062619","name":"Hirsackerhof","postalCode":"4315","locality":"Zuzgen","commune":{"key":"4264","name":"Zuzgen","shortName":"Zuzgen"},"district":{"key":"1909","name":"Bezirk Rheinfelden"},"canton":{"key":"19","code":"AG","name":"Aargau"},"status":"Real"},{"key":"10037816","name":"Höhle","postalCode":"4315","locality":"Zuzgen","commune":{"key":"4264","name":"Zuzgen","shortName":"Zuzgen"},"district":{"key":"1909","name":"Bezirk Rheinfelden"},"canton":{"key":"19","code":"AG","name":"Aargau"},"status":"Real"},{"key":"10179319","name":"Höhlehof","postalCode":"4315","locality":"Zuzgen","commune":{"key":"4264","name":"Zuzgen","shortName":"Zuzgen"},"district":{"key":"1909","name":"Bezirk Rheinfelden"},"canton":{"key":"19","code":"AG","name":"Aargau"},"status":"Real"},{"key":"10078677","name":"Katzenhalde","postalCode":"4315","locality":"Zuzgen","commune":{"key":"4264","name":"Zuzgen","shortName":"Zuzgen"},"district":{"key":"1909","name":"Bezirk Rheinfelden"},"canton":{"key":"19","code":"AG","name":"Aargau"},"status":"Real"},{"key":"10037817","name":"Kirchgasse","postalCode":"4315","locality":"Zuzgen","commune":{"key":"4264","name":"Zuzgen","shortName":"Zuzgen"},"district":{"key":"1909","name":"Bezirk Rheinfelden"},"canton":{"key":"19","code":"AG","name":"Aargau"},"status":"Real"},{"key":"10124856","name":"Kohliberg","postalCode":"4315","locality":"Zuzgen","commune":{"key":"4264","name":"Zuzgen","shortName":"Zuzgen"},"district":{"key":"1909","name":"Bezirk Rheinfelden"},"canton":{"key":"19","code":"AG","name":"Aargau"},"status":"Real"},{"key":"10109217","name":"Kohlmatthof","postalCode":"4315","locality":"Zuzgen","commune":{"key":"4264","name":"Zuzgen","shortName":"Zuzgen"},"district":{"key":"1909","name":"Bezirk Rheinfelden"},"canton":{"key":"19","code":"AG","name":"Aargau"},"status":"Real"},{"key":"10180141","name":"Kurzägertenhof","postalCode":"4315","locality":"Zuzgen","commune":{"key":"4264","name":"Zuzgen","shortName":"Zuzgen"},"district":{"key":"1909","name":"Bezirk Rheinfelden"},"canton":{"key":"19","code":"AG","name":"Aargau"},"status":"Real"},{"key":"10095651","name":"Langacker","postalCode":"4315","locality":"Zuzgen","commune":{"key":"4264","name":"Zuzgen","shortName":"Zuzgen"},"district":{"key":"1909","name":"Bezirk Rheinfelden"},"canton":{"key":"19","code":"AG","name":"Aargau"},"status":"Real"},{"key":"10037818","name":"Leigraben","postalCode":"4315","locality":"Zuzgen","commune":{"key":"4264","name":"Zuzgen","shortName":"Zuzgen"},"district":{"key":"1909","name":"Bezirk Rheinfelden"},"canton":{"key":"19","code":"AG","name":"Aargau"},"status":"Real"},{"key":"10183918","name":"Leishof","postalCode":"4315","locality":"Zuzgen","commune":{"key":"4264","name":"Zuzgen","shortName":"Zuzgen"},"district":{"key":"1909","name":"Bezirk Rheinfelden"},"canton":{"key":"19","code":"AG","name":"Aargau"},"status":"Real"},{"key":"10098192","name":"Lettackerhof","postalCode":"4315","locality":"Zuzgen","commune":{"key":"4264","name":"Zuzgen","shortName":"Zuzgen"},"district":{"key":"1909","name":"Bezirk Rheinfelden"},"canton":{"key":"19","code":"AG","name":"Aargau"},"status":"Real"},{"key":"10116144","name":"Lohnberg","postalCode":"4315","locality":"Zuzgen","commune":{"key":"4264","name":"Zuzgen","shortName":"Zuzgen"},"district":{"key":"1909","name":"Bezirk Rheinfelden"},"canton":{"key":"19","code":"AG","name":"Aargau"},"status":"Real"},{"key":"10095652","name":"Lohnbergstrasse","postalCode":"4315","locality":"Zuzgen","commune":{"key":"4264","name":"Zuzgen","shortName":"Zuzgen"},"district":{"key":"1909","name":"Bezirk Rheinfelden"},"canton":{"key":"19","code":"AG","name":"Aargau"},"status":"Real"},{"key":"10037819","name":"Mühle","postalCode":"4315","locality":"Zuzgen","commune":{"key":"4264","name":"Zuzgen","shortName":"Zuzgen"},"district":{"key":"1909","name":"Bezirk Rheinfelden"},"canton":{"key":"19","code":"AG","name":"Aargau"},"status":"Real"},{"key":"10037820","name":"Mühlehof","postalCode":"4315","locality":"Zuzgen","commune":{"key":"4264","name":"Zuzgen","shortName":"Zuzgen"},"district":{"key":"1909","name":"Bezirk Rheinfelden"},"canton":{"key":"19","code":"AG","name":"Aargau"},"status":"Real"},{"key":"10056637","name":"Mühlematt","postalCode":"4315","locality":"Zuzgen","commune":{"key":"4264","name":"Zuzgen","shortName":"Zuzgen"},"district":{"key":"1909","name":"Bezirk Rheinfelden"},"canton":{"key":"19","code":"AG","name":"Aargau"},"status":"Real"},{"key":"10078678","name":"Neumatt","postalCode":"4315","locality":"Zuzgen","commune":{"key":"4264","name":"Zuzgen","shortName":"Zuzgen"},"district":{"key":"1909","name":"Bezirk Rheinfelden"},"canton":{"key":"19","code":"AG","name":"Aargau"},"status":"Real"},{"key":"10037821","name":"Niedermatt","postalCode":"4315","locality":"Zuzgen","commune":{"key":"4264","name":"Zuzgen","shortName":"Zuzgen"},"district":{"key":"1909","name":"Bezirk Rheinfelden"},"canton":{"key":"19","code":"AG","name":"Aargau"},"status":"Real"},{"key":"10134090","name":"Obere Katzenhalde","postalCode":"4315","locality":"Zuzgen","commune":{"key":"4264","name":"Zuzgen","shortName":"Zuzgen"},"district":{"key":"1909","name":"Bezirk Rheinfelden"},"canton":{"key":"19","code":"AG","name":"Aargau"},"status":"Real"},{"key":"10195023","name":"Orchideenweg","postalCode":"4315","locality":"Zuzgen","commune":{"key":"4264","name":"Zuzgen","shortName":"Zuzgen"},"district":{"key":"1909","name":"Bezirk Rheinfelden"},"canton":{"key":"19","code":"AG","name":"Aargau"},"status":"Real"},{"key":"10239993","name":"Ortsverbindung","postalCode":"4315","locality":"Zuzgen","commune":{"key":"4264","name":"Zuzgen","shortName":"Zuzgen"},"district":{"key":"1909","name":"Bezirk Rheinfelden"},"canton":{"key":"19","code":"AG","name":"Aargau"},"status":"Real"},{"key":"10037822","name":"Raus","postalCode":"4315","locality":"Zuzgen","commune":{"key":"4264","name":"Zuzgen","shortName":"Zuzgen"},"district":{"key":"1909","name":"Bezirk Rheinfelden"},"canton":{"key":"19","code":"AG","name":"Aargau"},"status":"Real"},{"key":"10152280","name":"Rausmatthof","postalCode":"4315","locality":"Zuzgen","commune":{"key":"4264","name":"Zuzgen","shortName":"Zuzgen"},"district":{"key":"1909","name":"Bezirk Rheinfelden"},"canton":{"key":"19","code":"AG","name":"Aargau"},"status":"Real"},{"key":"10111092","name":"Rausstrasse","postalCode":"4315","locality":"Zuzgen","commune":{"key":"4264","name":"Zuzgen","shortName":"Zuzgen"},"district":{"key":"1909","name":"Bezirk Rheinfelden"},"canton":{"key":"19","code":"AG","name":"Aargau"},"status":"Real"},{"key":"10111221","name":"Riesmatthof","postalCode":"4315","locality":"Zuzgen","commune":{"key":"4264","name":"Zuzgen","shortName":"Zuzgen"},"district":{"key":"1909","name":"Bezirk Rheinfelden"},"canton":{"key":"19","code":"AG","name":"Aargau"},"status":"Real"},{"key":"10056638","name":"Rohrhof","postalCode":"4315","locality":"Zuzgen","commune":{"key":"4264","name":"Zuzgen","shortName":"Zuzgen"},"district":{"key":"1909","name":"Bezirk Rheinfelden"},"canton":{"key":"19","code":"AG","name":"Aargau"},"status":"Real"},{"key":"10095653","name":"Rössligass","postalCode":"4315","locality":"Zuzgen","commune":{"key":"4264","name":"Zuzgen","shortName":"Zuzgen"},"district":{"key":"1909","name":"Bezirk Rheinfelden"},"canton":{"key":"19","code":"AG","name":"Aargau"},"status":"Real"},{"key":"10056635","name":"Rötihof","postalCode":"4315","locality":"Zuzgen","commune":{"key":"4264","name":"Zuzgen","shortName":"Zuzgen"},"district":{"key":"1909","name":"Bezirk Rheinfelden"},"canton":{"key":"19","code":"AG","name":"Aargau"},"status":"Real"},{"key":"10051368","name":"Schulstrasse","postalCode":"4315","locality":"Zuzgen","commune":{"key":"4264","name":"Zuzgen","shortName":"Zuzgen"},"district":{"key":"1909","name":"Bezirk Rheinfelden"},"canton":{"key":"19","code":"AG","name":"Aargau"},"status":"Real"},{"key":"10183919","name":"Stegenhof","postalCode":"4315","locality":"Zuzgen","commune":{"key":"4264","name":"Zuzgen","shortName":"Zuzgen"},"district":{"key":"1909","name":"Bezirk Rheinfelden"},"canton":{"key":"19","code":"AG","name":"Aargau"},"status":"Real"},{"key":"10114540","name":"Steinackerhof","postalCode":"4315","locality":"Zuzgen","commune":{"key":"4264","name":"Zuzgen","shortName":"Zuzgen"},"district":{"key":"1909","name":"Bezirk Rheinfelden"},"canton":{"key":"19","code":"AG","name":"Aargau"},"status":"Real"},{"key":"10037823","name":"Tiergärtli","postalCode":"4315","locality":"Zuzgen","commune":{"key":"4264","name":"Zuzgen","shortName":"Zuzgen"},"district":{"key":"1909","name":"Bezirk Rheinfelden"},"canton":{"key":"19","code":"AG","name":"Aargau"},"status":"Real"},{"key":"10095654","name":"Tierrüti","postalCode":"4315","locality":"Zuzgen","commune":{"key":"4264","name":"Zuzgen","shortName":"Zuzgen"},"district":{"key":"1909","name":"Bezirk Rheinfelden"},"canton":{"key":"19","code":"AG","name":"Aargau"},"status":"Real"},{"key":"10056639","name":"Uerblerhof","postalCode":"4315","locality":"Zuzgen","commune":{"key":"4264","name":"Zuzgen","shortName":"Zuzgen"},"district":{"key":"1909","name":"Bezirk Rheinfelden"},"canton":{"key":"19","code":"AG","name":"Aargau"},"status":"Real"},{"key":"10037824","name":"Untere Katzenhalde","postalCode":"4315","locality":"Zuzgen","commune":{"key":"4264","name":"Zuzgen","shortName":"Zuzgen"},"district":{"key":"1909","name":"Bezirk Rheinfelden"},"canton":{"key":"19","code":"AG","name":"Aargau"},"status":"Real"},{"key":"10089930","name":"Urmishof","postalCode":"4315","locality":"Zuzgen","commune":{"key":"4264","name":"Zuzgen","shortName":"Zuzgen"},"district":{"key":"1909","name":"Bezirk Rheinfelden"},"canton":{"key":"19","code":"AG","name":"Aargau"},"status":"Real"},]