[{"key":"10133502","name":"Chemin de la Gissetta","postalCode":"1625","locality":"Sâles (Gruyère)","commune":{"key":"2152","name":"Sâles","shortName":"Sâles"},"district":{"key":"1003","name":"District de la Gruyère"},"canton":{"key":"10","code":"FR","name":"Fribourg / Freiburg"},"status":"Real"},{"key":"10159014","name":"Chemin de l'Ancienne-Ecole","postalCode":"1625","locality":"Sâles (Gruyère)","commune":{"key":"2152","name":"Sâles","shortName":"Sâles"},"district":{"key":"1003","name":"District de la Gruyère"},"canton":{"key":"10","code":"FR","name":"Fribourg / Freiburg"},"status":"Real"},{"key":"10259179","name":"Chemin de la Tourbière","postalCode":"1625","locality":"Sâles (Gruyère)","commune":{"key":"2152","name":"Sâles","shortName":"Sâles"},"district":{"key":"1003","name":"District de la Gruyère"},"canton":{"key":"10","code":"FR","name":"Fribourg / Freiburg"},"status":"Real"},{"key":"10259180","name":"Chemin de l'Esserta","postalCode":"1625","locality":"Sâles (Gruyère)","commune":{"key":"2152","name":"Sâles","shortName":"Sâles"},"district":{"key":"1003","name":"District de la Gruyère"},"canton":{"key":"10","code":"FR","name":"Fribourg / Freiburg"},"status":"Real"},{"key":"10259182","name":"Chemin des Joux-de-Sâles","postalCode":"1625","locality":"Sâles (Gruyère)","commune":{"key":"2152","name":"Sâles","shortName":"Sâles"},"district":{"key":"1003","name":"District de la Gruyère"},"canton":{"key":"10","code":"FR","name":"Fribourg / Freiburg"},"status":"Real"},{"key":"10068281","name":"Chemin du Pra-Mori","postalCode":"1625","locality":"Sâles (Gruyère)","commune":{"key":"2152","name":"Sâles","shortName":"Sâles"},"district":{"key":"1003","name":"District de la Gruyère"},"canton":{"key":"10","code":"FR","name":"Fribourg / Freiburg"},"status":"Real"},{"key":"10051393","name":"Impasse de l'Adrey","postalCode":"1625","locality":"Sâles (Gruyère)","commune":{"key":"2152","name":"Sâles","shortName":"Sâles"},"district":{"key":"1003","name":"District de la Gruyère"},"canton":{"key":"10","code":"FR","name":"Fribourg / Freiburg"},"status":"Real"},{"key":"10110352","name":"Impasse des Eterpis","postalCode":"1625","locality":"Sâles (Gruyère)","commune":{"key":"2152","name":"Sâles","shortName":"Sâles"},"district":{"key":"1003","name":"District de la Gruyère"},"canton":{"key":"10","code":"FR","name":"Fribourg / Freiburg"},"status":"Real"},{"key":"10253172","name":"L'Adrey","postalCode":"1625","locality":"Sâles (Gruyère)","commune":{"key":"2152","name":"Sâles","shortName":"Sâles"},"district":{"key":"1003","name":"District de la Gruyère"},"canton":{"key":"10","code":"FR","name":"Fribourg / Freiburg"},"status":"Real"},{"key":"10160316","name":"Les Maisons Neuves","postalCode":"1625","locality":"Sâles (Gruyère)","commune":{"key":"2152","name":"Sâles","shortName":"Sâles"},"district":{"key":"1003","name":"District de la Gruyère"},"canton":{"key":"10","code":"FR","name":"Fribourg / Freiburg"},"status":"Real"},{"key":"10022800","name":"Les Mosses","postalCode":"1625","locality":"Sâles (Gruyère)","commune":{"key":"2152","name":"Sâles","shortName":"Sâles"},"district":{"key":"1003","name":"District de la Gruyère"},"canton":{"key":"10","code":"FR","name":"Fribourg / Freiburg"},"status":"Real"},{"key":"10160318","name":"Place de l'Eglise","postalCode":"1625","locality":"Sâles (Gruyère)","commune":{"key":"2152","name":"Sâles","shortName":"Sâles"},"district":{"key":"1003","name":"District de la Gruyère"},"canton":{"key":"10","code":"FR","name":"Fribourg / Freiburg"},"status":"Real"},{"key":"10253228","name":"Pra Bocca","postalCode":"1625","locality":"Sâles (Gruyère)","commune":{"key":"2152","name":"Sâles","shortName":"Sâles"},"district":{"key":"1003","name":"District de la Gruyère"},"canton":{"key":"10","code":"FR","name":"Fribourg / Freiburg"},"status":"Real"},{"key":"10253246","name":"Pra Mory","postalCode":"1625","locality":"Sâles (Gruyère)","commune":{"key":"2152","name":"Sâles","shortName":"Sâles"},"district":{"key":"1003","name":"District de la Gruyère"},"canton":{"key":"10","code":"FR","name":"Fribourg / Freiburg"},"status":"Real"},{"key":"10161294","name":"Route de l'Abbé-Bovet","postalCode":"1625","locality":"Sâles (Gruyère)","commune":{"key":"2152","name":"Sâles","shortName":"Sâles"},"district":{"key":"1003","name":"District de la Gruyère"},"canton":{"key":"10","code":"FR","name":"Fribourg / Freiburg"},"status":"Real"},{"key":"10158591","name":"Route de la Joretta","postalCode":"1625","locality":"Sâles (Gruyère)","commune":{"key":"2152","name":"Sâles","shortName":"Sâles"},"district":{"key":"1003","name":"District de la Gruyère"},"canton":{"key":"10","code":"FR","name":"Fribourg / Freiburg"},"status":"Real"},{"key":"10104343","name":"Route de la Rosaire","postalCode":"1625","locality":"Sâles (Gruyère)","commune":{"key":"2152","name":"Sâles","shortName":"Sâles"},"district":{"key":"1003","name":"District de la Gruyère"},"canton":{"key":"10","code":"FR","name":"Fribourg / Freiburg"},"status":"Real"},{"key":"10068282","name":"Route de la Sionge","postalCode":"1625","locality":"Sâles (Gruyère)","commune":{"key":"2152","name":"Sâles","shortName":"Sâles"},"district":{"key":"1003","name":"District de la Gruyère"},"canton":{"key":"10","code":"FR","name":"Fribourg / Freiburg"},"status":"Real"},{"key":"10160320","name":"Route de Romanens","postalCode":"1625","locality":"Sâles (Gruyère)","commune":{"key":"2152","name":"Sâles","shortName":"Sâles"},"district":{"key":"1003","name":"District de la Gruyère"},"canton":{"key":"10","code":"FR","name":"Fribourg / Freiburg"},"status":"Real"},{"key":"10160322","name":"Route des Grands-Marais","postalCode":"1625","locality":"Sâles (Gruyère)","commune":{"key":"2152","name":"Sâles","shortName":"Sâles"},"district":{"key":"1003","name":"District de la Gruyère"},"canton":{"key":"10","code":"FR","name":"Fribourg / Freiburg"},"status":"Real"},{"key":"10160324","name":"Route du Centre-Sportif","postalCode":"1625","locality":"Sâles (Gruyère)","commune":{"key":"2152","name":"Sâles","shortName":"Sâles"},"district":{"key":"1003","name":"District de la Gruyère"},"canton":{"key":"10","code":"FR","name":"Fribourg / Freiburg"},"status":"Real"},{"key":"10244715","name":"Route du Crêt","postalCode":"1625","locality":"Sâles (Gruyère)","commune":{"key":"2152","name":"Sâles","shortName":"Sâles"},"district":{"key":"1003","name":"District de la Gruyère"},"canton":{"key":"10","code":"FR","name":"Fribourg / Freiburg"},"status":"Real"},{"key":"10019851","name":"Route du Grand-Clos","postalCode":"1625","locality":"Sâles (Gruyère)","commune":{"key":"2152","name":"Sâles","shortName":"Sâles"},"district":{"key":"1003","name":"District de la Gruyère"},"canton":{"key":"10","code":"FR","name":"Fribourg / Freiburg"},"status":"Real"},{"key":"10160326","name":"Route du Moulin","postalCode":"1625","locality":"Sâles (Gruyère)","commune":{"key":"2152","name":"Sâles","shortName":"Sâles"},"district":{"key":"1003","name":"District de la Gruyère"},"canton":{"key":"10","code":"FR","name":"Fribourg / Freiburg"},"status":"Real"},{"key":"10161296","name":"Route du Reposoir","postalCode":"1625","locality":"Sâles (Gruyère)","commune":{"key":"2152","name":"Sâles","shortName":"Sâles"},"district":{"key":"1003","name":"District de la Gruyère"},"canton":{"key":"10","code":"FR","name":"Fribourg / Freiburg"},"status":"Real"},{"key":"10121460","name":"Route du Rontet","postalCode":"1625","locality":"Sâles (Gruyère)","commune":{"key":"2152","name":"Sâles","shortName":"Sâles"},"district":{"key":"1003","name":"District de la Gruyère"},"canton":{"key":"10","code":"FR","name":"Fribourg / Freiburg"},"status":"Real"},]