[{"name":"Abstieg Felsenmühle","postalCode":"01855","locality":"Sebnitz","municipality":{"key":"14628360","name":"Sebnitz, Stadt","type":"Stadt"},"district":{"key":"14628","name":"Sächsische Schweiz-Osterzgebirge","type":"Landkreis"},"federalState":{"key":"14","name":"Sachsen"}},{"name":"Adamsberg","postalCode":"01855","locality":"Sebnitz","municipality":{"key":"14628360","name":"Sebnitz, Stadt","type":"Stadt"},"district":{"key":"14628","name":"Sächsische Schweiz-Osterzgebirge","type":"Landkreis"},"federalState":{"key":"14","name":"Sachsen"}},{"name":"Ahornweg","postalCode":"01855","locality":"Sebnitz","municipality":{"key":"14628360","name":"Sebnitz, Stadt","type":"Stadt"},"district":{"key":"14628","name":"Sächsische Schweiz-Osterzgebirge","type":"Landkreis"},"federalState":{"key":"14","name":"Sachsen"}},{"name":"Albert-Kunze-Weg","postalCode":"01855","locality":"Sebnitz","municipality":{"key":"14628360","name":"Sebnitz, Stadt","type":"Stadt"},"district":{"key":"14628","name":"Sächsische Schweiz-Osterzgebirge","type":"Landkreis"},"federalState":{"key":"14","name":"Sachsen"}},{"name":"Albertweg","postalCode":"01855","locality":"Sebnitz","municipality":{"key":"14628360","name":"Sebnitz, Stadt","type":"Stadt"},"district":{"key":"14628","name":"Sächsische Schweiz-Osterzgebirge","type":"Landkreis"},"federalState":{"key":"14","name":"Sachsen"}},{"name":"Alte Böhmerstr.","postalCode":"01855","locality":"Sebnitz","municipality":{"key":"14628360","name":"Sebnitz, Stadt","type":"Stadt"},"district":{"key":"14628","name":"Sächsische Schweiz-Osterzgebirge","type":"Landkreis"},"federalState":{"key":"14","name":"Sachsen"}},{"name":"Alte Hohe Str.","postalCode":"01855","locality":"Sebnitz","municipality":{"key":"14628360","name":"Sebnitz, Stadt","type":"Stadt"},"district":{"key":"14628","name":"Sächsische Schweiz-Osterzgebirge","type":"Landkreis"},"federalState":{"key":"14","name":"Sachsen"}},{"name":"Alte Hohe Str. / Panoramaweg","postalCode":"01855","locality":"Sebnitz","municipality":{"key":"14628360","name":"Sebnitz, Stadt","type":"Stadt"},"district":{"key":"14628","name":"Sächsische Schweiz-Osterzgebirge","type":"Landkreis"},"federalState":{"key":"14","name":"Sachsen"}},{"name":"Alte Nixdorfer Str.","postalCode":"01855","locality":"Sebnitz","municipality":{"key":"14628360","name":"Sebnitz, Stadt","type":"Stadt"},"district":{"key":"14628","name":"Sächsische Schweiz-Osterzgebirge","type":"Landkreis"},"federalState":{"key":"14","name":"Sachsen"}},{"name":"Alte Str.","postalCode":"01855","locality":"Sebnitz","municipality":{"key":"14628360","name":"Sebnitz, Stadt","type":"Stadt"},"district":{"key":"14628","name":"Sächsische Schweiz-Osterzgebirge","type":"Landkreis"},"federalState":{"key":"14","name":"Sachsen"}},{"name":"Alte Wölmsdorfer Str.","postalCode":"01855","locality":"Sebnitz","municipality":{"key":"14628360","name":"Sebnitz, Stadt","type":"Stadt"},"district":{"key":"14628","name":"Sächsische Schweiz-Osterzgebirge","type":"Landkreis"},"federalState":{"key":"14","name":"Sachsen"}},{"name":"Am Anger","postalCode":"01855","locality":"Sebnitz","municipality":{"key":"14628360","name":"Sebnitz, Stadt","type":"Stadt"},"district":{"key":"14628","name":"Sächsische Schweiz-Osterzgebirge","type":"Landkreis"},"federalState":{"key":"14","name":"Sachsen"}},{"name":"Am Brauhaus","postalCode":"01855","locality":"Sebnitz","municipality":{"key":"14628360","name":"Sebnitz, Stadt","type":"Stadt"},"district":{"key":"14628","name":"Sächsische Schweiz-Osterzgebirge","type":"Landkreis"},"federalState":{"key":"14","name":"Sachsen"}},{"name":"Am Helmelsberg","postalCode":"01855","locality":"Sebnitz","municipality":{"key":"14628360","name":"Sebnitz, Stadt","type":"Stadt"},"district":{"key":"14628","name":"Sächsische Schweiz-Osterzgebirge","type":"Landkreis"},"federalState":{"key":"14","name":"Sachsen"}},{"name":"Am Knöchel","postalCode":"01855","locality":"Sebnitz","municipality":{"key":"14628360","name":"Sebnitz, Stadt","type":"Stadt"},"district":{"key":"14628","name":"Sächsische Schweiz-Osterzgebirge","type":"Landkreis"},"federalState":{"key":"14","name":"Sachsen"}},{"name":"Am Plader","postalCode":"01855","locality":"Sebnitz","municipality":{"key":"14628360","name":"Sebnitz, Stadt","type":"Stadt"},"district":{"key":"14628","name":"Sächsische Schweiz-Osterzgebirge","type":"Landkreis"},"federalState":{"key":"14","name":"Sachsen"}},{"name":"Am Schäferberg","postalCode":"01855","locality":"Sebnitz","municipality":{"key":"14628360","name":"Sebnitz, Stadt","type":"Stadt"},"district":{"key":"14628","name":"Sächsische Schweiz-Osterzgebirge","type":"Landkreis"},"federalState":{"key":"14","name":"Sachsen"}},{"name":"Am Schäferräumicht","postalCode":"01855","locality":"Sebnitz","municipality":{"key":"14628360","name":"Sebnitz, Stadt","type":"Stadt"},"district":{"key":"14628","name":"Sächsische Schweiz-Osterzgebirge","type":"Landkreis"},"federalState":{"key":"14","name":"Sachsen"}},{"name":"Am Sebnitzbach","postalCode":"01855","locality":"Sebnitz","municipality":{"key":"14628360","name":"Sebnitz, Stadt","type":"Stadt"},"district":{"key":"14628","name":"Sächsische Schweiz-Osterzgebirge","type":"Landkreis"},"federalState":{"key":"14","name":"Sachsen"}},{"name":"Am Sonnenblick","postalCode":"01855","locality":"Sebnitz","municipality":{"key":"14628360","name":"Sebnitz, Stadt","type":"Stadt"},"district":{"key":"14628","name":"Sächsische Schweiz-Osterzgebirge","type":"Landkreis"},"federalState":{"key":"14","name":"Sachsen"}},{"name":"An der Aue","postalCode":"01855","locality":"Sebnitz","municipality":{"key":"14628360","name":"Sebnitz, Stadt","type":"Stadt"},"district":{"key":"14628","name":"Sächsische Schweiz-Osterzgebirge","type":"Landkreis"},"federalState":{"key":"14","name":"Sachsen"}},{"name":"An der Kirnitzsch","postalCode":"01855","locality":"Sebnitz","municipality":{"key":"14628360","name":"Sebnitz, Stadt","type":"Stadt"},"district":{"key":"14628","name":"Sächsische Schweiz-Osterzgebirge","type":"Landkreis"},"federalState":{"key":"14","name":"Sachsen"}},{"name":"An der Richtermühle","postalCode":"01855","locality":"Sebnitz","municipality":{"key":"14628360","name":"Sebnitz, Stadt","type":"Stadt"},"district":{"key":"14628","name":"Sächsische Schweiz-Osterzgebirge","type":"Landkreis"},"federalState":{"key":"14","name":"Sachsen"}},{"name":"ASB Seniorenpark","postalCode":"01855","locality":"Sebnitz","municipality":{"key":"14628360","name":"Sebnitz, Stadt","type":"Stadt"},"district":{"key":"14628","name":"Sächsische Schweiz-Osterzgebirge","type":"Landkreis"},"federalState":{"key":"14","name":"Sachsen"}},{"name":"Aschebloßweg","postalCode":"01855","locality":"Sebnitz","municipality":{"key":"14628360","name":"Sebnitz, Stadt","type":"Stadt"},"district":{"key":"14628","name":"Sächsische Schweiz-Osterzgebirge","type":"Landkreis"},"federalState":{"key":"14","name":"Sachsen"}},{"name":"Aschehübelweg","postalCode":"01855","locality":"Sebnitz","municipality":{"key":"14628360","name":"Sebnitz, Stadt","type":"Stadt"},"district":{"key":"14628","name":"Sächsische Schweiz-Osterzgebirge","type":"Landkreis"},"federalState":{"key":"14","name":"Sachsen"}},{"name":"Bachstr.","postalCode":"01855","locality":"Sebnitz","municipality":{"key":"14628360","name":"Sebnitz, Stadt","type":"Stadt"},"district":{"key":"14628","name":"Sächsische Schweiz-Osterzgebirge","type":"Landkreis"},"federalState":{"key":"14","name":"Sachsen"}},{"name":"Bahnhofstr.","postalCode":"01855","locality":"Sebnitz","municipality":{"key":"14628360","name":"Sebnitz, Stadt","type":"Stadt"},"district":{"key":"14628","name":"Sächsische Schweiz-Osterzgebirge","type":"Landkreis"},"federalState":{"key":"14","name":"Sachsen"}},{"name":"Bammelweg","postalCode":"01855","locality":"Sebnitz","municipality":{"key":"14628360","name":"Sebnitz, Stadt","type":"Stadt"},"district":{"key":"14628","name":"Sächsische Schweiz-Osterzgebirge","type":"Landkreis"},"federalState":{"key":"14","name":"Sachsen"}},{"name":"Baudenweg","postalCode":"01855","locality":"Sebnitz","municipality":{"key":"14628360","name":"Sebnitz, Stadt","type":"Stadt"},"district":{"key":"14628","name":"Sächsische Schweiz-Osterzgebirge","type":"Landkreis"},"federalState":{"key":"14","name":"Sachsen"}},{"name":"Beize","postalCode":"01855","locality":"Sebnitz","municipality":{"key":"14628360","name":"Sebnitz, Stadt","type":"Stadt"},"district":{"key":"14628","name":"Sächsische Schweiz-Osterzgebirge","type":"Landkreis"},"federalState":{"key":"14","name":"Sachsen"}},{"name":"Bergblick","postalCode":"01855","locality":"Sebnitz","municipality":{"key":"14628360","name":"Sebnitz, Stadt","type":"Stadt"},"district":{"key":"14628","name":"Sächsische Schweiz-Osterzgebirge","type":"Landkreis"},"federalState":{"key":"14","name":"Sachsen"}},{"name":"Berggäßchen","postalCode":"01855","locality":"Sebnitz","municipality":{"key":"14628360","name":"Sebnitz, Stadt","type":"Stadt"},"district":{"key":"14628","name":"Sächsische Schweiz-Osterzgebirge","type":"Landkreis"},"federalState":{"key":"14","name":"Sachsen"}},{"name":"Bergstr.","postalCode":"01855","locality":"Sebnitz","municipality":{"key":"14628360","name":"Sebnitz, Stadt","type":"Stadt"},"district":{"key":"14628","name":"Sächsische Schweiz-Osterzgebirge","type":"Landkreis"},"federalState":{"key":"14","name":"Sachsen"}},{"name":"Bergweg","postalCode":"01855","locality":"Sebnitz","municipality":{"key":"14628360","name":"Sebnitz, Stadt","type":"Stadt"},"district":{"key":"14628","name":"Sächsische Schweiz-Osterzgebirge","type":"Landkreis"},"federalState":{"key":"14","name":"Sachsen"}},{"name":"Bernigweg","postalCode":"01855","locality":"Sebnitz","municipality":{"key":"14628360","name":"Sebnitz, Stadt","type":"Stadt"},"district":{"key":"14628","name":"Sächsische Schweiz-Osterzgebirge","type":"Landkreis"},"federalState":{"key":"14","name":"Sachsen"}},{"name":"Birkenweg","postalCode":"01855","locality":"Sebnitz","municipality":{"key":"14628360","name":"Sebnitz, Stadt","type":"Stadt"},"district":{"key":"14628","name":"Sächsische Schweiz-Osterzgebirge","type":"Landkreis"},"federalState":{"key":"14","name":"Sachsen"}},{"name":"Blumenstr.","postalCode":"01855","locality":"Sebnitz","municipality":{"key":"14628360","name":"Sebnitz, Stadt","type":"Stadt"},"district":{"key":"14628","name":"Sächsische Schweiz-Osterzgebirge","type":"Landkreis"},"federalState":{"key":"14","name":"Sachsen"}},{"name":"Böhmische Str.","postalCode":"01855","locality":"Sebnitz","municipality":{"key":"14628360","name":"Sebnitz, Stadt","type":"Stadt"},"district":{"key":"14628","name":"Sächsische Schweiz-Osterzgebirge","type":"Landkreis"},"federalState":{"key":"14","name":"Sachsen"}},{"name":"Brückengrund","postalCode":"01855","locality":"Sebnitz","municipality":{"key":"14628360","name":"Sebnitz, Stadt","type":"Stadt"},"district":{"key":"14628","name":"Sächsische Schweiz-Osterzgebirge","type":"Landkreis"},"federalState":{"key":"14","name":"Sachsen"}},{"name":"Brückengrundbrücke","postalCode":"01855","locality":"Sebnitz","municipality":{"key":"14628360","name":"Sebnitz, Stadt","type":"Stadt"},"district":{"key":"14628","name":"Sächsische Schweiz-Osterzgebirge","type":"Landkreis"},"federalState":{"key":"14","name":"Sachsen"}},{"name":"Brunnenweg","postalCode":"01855","locality":"Sebnitz","municipality":{"key":"14628360","name":"Sebnitz, Stadt","type":"Stadt"},"district":{"key":"14628","name":"Sächsische Schweiz-Osterzgebirge","type":"Landkreis"},"federalState":{"key":"14","name":"Sachsen"}},{"name":"Buchenstr.","postalCode":"01855","locality":"Sebnitz","municipality":{"key":"14628360","name":"Sebnitz, Stadt","type":"Stadt"},"district":{"key":"14628","name":"Sächsische Schweiz-Osterzgebirge","type":"Landkreis"},"federalState":{"key":"14","name":"Sachsen"}},{"name":"Burggäßchen","postalCode":"01855","locality":"Sebnitz","municipality":{"key":"14628360","name":"Sebnitz, Stadt","type":"Stadt"},"district":{"key":"14628","name":"Sächsische Schweiz-Osterzgebirge","type":"Landkreis"},"federalState":{"key":"14","name":"Sachsen"}},{"name":"Bußbergweg","postalCode":"01855","locality":"Sebnitz","municipality":{"key":"14628360","name":"Sebnitz, Stadt","type":"Stadt"},"district":{"key":"14628","name":"Sächsische Schweiz-Osterzgebirge","type":"Landkreis"},"federalState":{"key":"14","name":"Sachsen"}},{"name":"Carolastr.","postalCode":"01855","locality":"Sebnitz","municipality":{"key":"14628360","name":"Sebnitz, Stadt","type":"Stadt"},"district":{"key":"14628","name":"Sächsische Schweiz-Osterzgebirge","type":"Landkreis"},"federalState":{"key":"14","name":"Sachsen"}},{"name":"Caspar-Grohmann-Str.","postalCode":"01855","locality":"Sebnitz","municipality":{"key":"14628360","name":"Sebnitz, Stadt","type":"Stadt"},"district":{"key":"14628","name":"Sächsische Schweiz-Osterzgebirge","type":"Landkreis"},"federalState":{"key":"14","name":"Sachsen"}},{"name":"Charlottenweg","postalCode":"01855","locality":"Sebnitz","municipality":{"key":"14628360","name":"Sebnitz, Stadt","type":"Stadt"},"district":{"key":"14628","name":"Sächsische Schweiz-Osterzgebirge","type":"Landkreis"},"federalState":{"key":"14","name":"Sachsen"}},{"name":"Contessensteinweg","postalCode":"01855","locality":"Sebnitz","municipality":{"key":"14628360","name":"Sebnitz, Stadt","type":"Stadt"},"district":{"key":"14628","name":"Sächsische Schweiz-Osterzgebirge","type":"Landkreis"},"federalState":{"key":"14","name":"Sachsen"}},{"name":"Doktor-Hanns-Georgi-Weg","postalCode":"01855","locality":"Sebnitz","municipality":{"key":"14628360","name":"Sebnitz, Stadt","type":"Stadt"},"district":{"key":"14628","name":"Sächsische Schweiz-Osterzgebirge","type":"Landkreis"},"federalState":{"key":"14","name":"Sachsen"}},{"name":"Doktor-Hesse-Str.","postalCode":"01855","locality":"Sebnitz","municipality":{"key":"14628360","name":"Sebnitz, Stadt","type":"Stadt"},"district":{"key":"14628","name":"Sächsische Schweiz-Osterzgebirge","type":"Landkreis"},"federalState":{"key":"14","name":"Sachsen"}},{"name":"Doktor-Petzold-Str.","postalCode":"01855","locality":"Sebnitz","municipality":{"key":"14628360","name":"Sebnitz, Stadt","type":"Stadt"},"district":{"key":"14628","name":"Sächsische Schweiz-Osterzgebirge","type":"Landkreis"},"federalState":{"key":"14","name":"Sachsen"}},{"name":"Doktor-Steudner-Str.","postalCode":"01855","locality":"Sebnitz","municipality":{"key":"14628360","name":"Sebnitz, Stadt","type":"Stadt"},"district":{"key":"14628","name":"Sächsische Schweiz-Osterzgebirge","type":"Landkreis"},"federalState":{"key":"14","name":"Sachsen"}},{"name":"Dorfbachgrund","postalCode":"01855","locality":"Sebnitz","municipality":{"key":"14628360","name":"Sebnitz, Stadt","type":"Stadt"},"district":{"key":"14628","name":"Sächsische Schweiz-Osterzgebirge","type":"Landkreis"},"federalState":{"key":"14","name":"Sachsen"}},{"name":"Dorfbachstr.","postalCode":"01855","locality":"Sebnitz","municipality":{"key":"14628360","name":"Sebnitz, Stadt","type":"Stadt"},"district":{"key":"14628","name":"Sächsische Schweiz-Osterzgebirge","type":"Landkreis"},"federalState":{"key":"14","name":"Sachsen"}},{"name":"Dorfbachweg","postalCode":"01855","locality":"Sebnitz","municipality":{"key":"14628360","name":"Sebnitz, Stadt","type":"Stadt"},"district":{"key":"14628","name":"Sächsische Schweiz-Osterzgebirge","type":"Landkreis"},"federalState":{"key":"14","name":"Sachsen"}},{"name":"Dorfbachwiesenweg","postalCode":"01855","locality":"Sebnitz","municipality":{"key":"14628360","name":"Sebnitz, Stadt","type":"Stadt"},"district":{"key":"14628","name":"Sächsische Schweiz-Osterzgebirge","type":"Landkreis"},"federalState":{"key":"14","name":"Sachsen"}},{"name":"Dorfstr.","postalCode":"01855","locality":"Sebnitz","municipality":{"key":"14628360","name":"Sebnitz, Stadt","type":"Stadt"},"district":{"key":"14628","name":"Sächsische Schweiz-Osterzgebirge","type":"Landkreis"},"federalState":{"key":"14","name":"Sachsen"}},{"name":"Dr.-Alfred-Meiche-Weg","postalCode":"01855","locality":"Sebnitz","municipality":{"key":"14628360","name":"Sebnitz, Stadt","type":"Stadt"},"district":{"key":"14628","name":"Sächsische Schweiz-Osterzgebirge","type":"Landkreis"},"federalState":{"key":"14","name":"Sachsen"}},{"name":"Duellweg","postalCode":"01855","locality":"Sebnitz","municipality":{"key":"14628360","name":"Sebnitz, Stadt","type":"Stadt"},"district":{"key":"14628","name":"Sächsische Schweiz-Osterzgebirge","type":"Landkreis"},"federalState":{"key":"14","name":"Sachsen"}},{"name":"Endlerkuppe","postalCode":"01855","locality":"Sebnitz","municipality":{"key":"14628360","name":"Sebnitz, Stadt","type":"Stadt"},"district":{"key":"14628","name":"Sächsische Schweiz-Osterzgebirge","type":"Landkreis"},"federalState":{"key":"14","name":"Sachsen"}},{"name":"Feldweg","postalCode":"01855","locality":"Sebnitz","municipality":{"key":"14628360","name":"Sebnitz, Stadt","type":"Stadt"},"district":{"key":"14628","name":"Sächsische Schweiz-Osterzgebirge","type":"Landkreis"},"federalState":{"key":"14","name":"Sachsen"}},{"name":"Fichtenweg","postalCode":"01855","locality":"Sebnitz","municipality":{"key":"14628360","name":"Sebnitz, Stadt","type":"Stadt"},"district":{"key":"14628","name":"Sächsische Schweiz-Osterzgebirge","type":"Landkreis"},"federalState":{"key":"14","name":"Sachsen"}},{"name":"Fietzeweg","postalCode":"01855","locality":"Sebnitz","municipality":{"key":"14628360","name":"Sebnitz, Stadt","type":"Stadt"},"district":{"key":"14628","name":"Sächsische Schweiz-Osterzgebirge","type":"Landkreis"},"federalState":{"key":"14","name":"Sachsen"}},{"name":"Finkenbergstr.","postalCode":"01855","locality":"Sebnitz","municipality":{"key":"14628360","name":"Sebnitz, Stadt","type":"Stadt"},"district":{"key":"14628","name":"Sächsische Schweiz-Osterzgebirge","type":"Landkreis"},"federalState":{"key":"14","name":"Sachsen"}},{"name":"Finkenbergweg","postalCode":"01855","locality":"Sebnitz","municipality":{"key":"14628360","name":"Sebnitz, Stadt","type":"Stadt"},"district":{"key":"14628","name":"Sächsische Schweiz-Osterzgebirge","type":"Landkreis"},"federalState":{"key":"14","name":"Sachsen"}},{"name":"Finsterwäldchenweg","postalCode":"01855","locality":"Sebnitz","municipality":{"key":"14628360","name":"Sebnitz, Stadt","type":"Stadt"},"district":{"key":"14628","name":"Sächsische Schweiz-Osterzgebirge","type":"Landkreis"},"federalState":{"key":"14","name":"Sachsen"}},{"name":"Finsterwinkelweg","postalCode":"01855","locality":"Sebnitz","municipality":{"key":"14628360","name":"Sebnitz, Stadt","type":"Stadt"},"district":{"key":"14628","name":"Sächsische Schweiz-Osterzgebirge","type":"Landkreis"},"federalState":{"key":"14","name":"Sachsen"}},{"name":"Flößersteig","postalCode":"01855","locality":"Sebnitz","municipality":{"key":"14628360","name":"Sebnitz, Stadt","type":"Stadt"},"district":{"key":"14628","name":"Sächsische Schweiz-Osterzgebirge","type":"Landkreis"},"federalState":{"key":"14","name":"Sachsen"}},{"name":"Flügel E","postalCode":"01855","locality":"Sebnitz","municipality":{"key":"14628360","name":"Sebnitz, Stadt","type":"Stadt"},"district":{"key":"14628","name":"Sächsische Schweiz-Osterzgebirge","type":"Landkreis"},"federalState":{"key":"14","name":"Sachsen"}},{"name":"Folgenweg","postalCode":"01855","locality":"Sebnitz","municipality":{"key":"14628360","name":"Sebnitz, Stadt","type":"Stadt"},"district":{"key":"14628","name":"Sächsische Schweiz-Osterzgebirge","type":"Landkreis"},"federalState":{"key":"14","name":"Sachsen"}},{"name":"Forstweg","postalCode":"01855","locality":"Sebnitz","municipality":{"key":"14628360","name":"Sebnitz, Stadt","type":"Stadt"},"district":{"key":"14628","name":"Sächsische Schweiz-Osterzgebirge","type":"Landkreis"},"federalState":{"key":"14","name":"Sachsen"}},{"name":"Friedhofstr.","postalCode":"01855","locality":"Sebnitz","municipality":{"key":"14628360","name":"Sebnitz, Stadt","type":"Stadt"},"district":{"key":"14628","name":"Sächsische Schweiz-Osterzgebirge","type":"Landkreis"},"federalState":{"key":"14","name":"Sachsen"}},{"name":"Gartenstr.","postalCode":"01855","locality":"Sebnitz","municipality":{"key":"14628360","name":"Sebnitz, Stadt","type":"Stadt"},"district":{"key":"14628","name":"Sächsische Schweiz-Osterzgebirge","type":"Landkreis"},"federalState":{"key":"14","name":"Sachsen"}},{"name":"Gerberweg","postalCode":"01855","locality":"Sebnitz","municipality":{"key":"14628360","name":"Sebnitz, Stadt","type":"Stadt"},"district":{"key":"14628","name":"Sächsische Schweiz-Osterzgebirge","type":"Landkreis"},"federalState":{"key":"14","name":"Sachsen"}},{"name":"Gießerweg","postalCode":"01855","locality":"Sebnitz","municipality":{"key":"14628360","name":"Sebnitz, Stadt","type":"Stadt"},"district":{"key":"14628","name":"Sächsische Schweiz-Osterzgebirge","type":"Landkreis"},"federalState":{"key":"14","name":"Sachsen"}},{"name":"Goetheweg","postalCode":"01855","locality":"Sebnitz","municipality":{"key":"14628360","name":"Sebnitz, Stadt","type":"Stadt"},"district":{"key":"14628","name":"Sächsische Schweiz-Osterzgebirge","type":"Landkreis"},"federalState":{"key":"14","name":"Sachsen"}},{"name":"Goldgruben","postalCode":"01855","locality":"Sebnitz","municipality":{"key":"14628360","name":"Sebnitz, Stadt","type":"Stadt"},"district":{"key":"14628","name":"Sächsische Schweiz-Osterzgebirge","type":"Landkreis"},"federalState":{"key":"14","name":"Sachsen"}},{"name":"Gotthelf-Mey-Str.","postalCode":"01855","locality":"Sebnitz","municipality":{"key":"14628360","name":"Sebnitz, Stadt","type":"Stadt"},"district":{"key":"14628","name":"Sächsische Schweiz-Osterzgebirge","type":"Landkreis"},"federalState":{"key":"14","name":"Sachsen"}},{"name":"Götzingerstr.","postalCode":"01855","locality":"Sebnitz","municipality":{"key":"14628360","name":"Sebnitz, Stadt","type":"Stadt"},"district":{"key":"14628","name":"Sächsische Schweiz-Osterzgebirge","type":"Landkreis"},"federalState":{"key":"14","name":"Sachsen"}},{"name":"Grenzbaudenweg","postalCode":"01855","locality":"Sebnitz","municipality":{"key":"14628360","name":"Sebnitz, Stadt","type":"Stadt"},"district":{"key":"14628","name":"Sächsische Schweiz-Osterzgebirge","type":"Landkreis"},"federalState":{"key":"14","name":"Sachsen"}},{"name":"Gröschelstr.","postalCode":"01855","locality":"Sebnitz","municipality":{"key":"14628360","name":"Sebnitz, Stadt","type":"Stadt"},"district":{"key":"14628","name":"Sächsische Schweiz-Osterzgebirge","type":"Landkreis"},"federalState":{"key":"14","name":"Sachsen"}},{"name":"Großer Hochhübelweg","postalCode":"01855","locality":"Sebnitz","municipality":{"key":"14628360","name":"Sebnitz, Stadt","type":"Stadt"},"district":{"key":"14628","name":"Sächsische Schweiz-Osterzgebirge","type":"Landkreis"},"federalState":{"key":"14","name":"Sachsen"}},{"name":"Großer Zschand","postalCode":"01855","locality":"Sebnitz","municipality":{"key":"14628360","name":"Sebnitz, Stadt","type":"Stadt"},"district":{"key":"14628","name":"Sächsische Schweiz-Osterzgebirge","type":"Landkreis"},"federalState":{"key":"14","name":"Sachsen"}},{"name":"Großstein","postalCode":"01855","locality":"Sebnitz","municipality":{"key":"14628360","name":"Sebnitz, Stadt","type":"Stadt"},"district":{"key":"14628","name":"Sächsische Schweiz-Osterzgebirge","type":"Landkreis"},"federalState":{"key":"14","name":"Sachsen"}},{"name":"Gründelweg","postalCode":"01855","locality":"Sebnitz","municipality":{"key":"14628360","name":"Sebnitz, Stadt","type":"Stadt"},"district":{"key":"14628","name":"Sächsische Schweiz-Osterzgebirge","type":"Landkreis"},"federalState":{"key":"14","name":"Sachsen"}},{"name":"Gutsweg","postalCode":"01855","locality":"Sebnitz","municipality":{"key":"14628360","name":"Sebnitz, Stadt","type":"Stadt"},"district":{"key":"14628","name":"Sächsische Schweiz-Osterzgebirge","type":"Landkreis"},"federalState":{"key":"14","name":"Sachsen"}},{"name":"Hähnelgrund","postalCode":"01855","locality":"Sebnitz","municipality":{"key":"14628360","name":"Sebnitz, Stadt","type":"Stadt"},"district":{"key":"14628","name":"Sächsische Schweiz-Osterzgebirge","type":"Landkreis"},"federalState":{"key":"14","name":"Sachsen"}},{"name":"Hainersdorfer Weg","postalCode":"01855","locality":"Sebnitz","municipality":{"key":"14628360","name":"Sebnitz, Stadt","type":"Stadt"},"district":{"key":"14628","name":"Sächsische Schweiz-Osterzgebirge","type":"Landkreis"},"federalState":{"key":"14","name":"Sachsen"}},{"name":"Hammerstr.","postalCode":"01855","locality":"Sebnitz","municipality":{"key":"14628360","name":"Sebnitz, Stadt","type":"Stadt"},"district":{"key":"14628","name":"Sächsische Schweiz-Osterzgebirge","type":"Landkreis"},"federalState":{"key":"14","name":"Sachsen"}},{"name":"Hangweg","postalCode":"01855","locality":"Sebnitz","municipality":{"key":"14628360","name":"Sebnitz, Stadt","type":"Stadt"},"district":{"key":"14628","name":"Sächsische Schweiz-Osterzgebirge","type":"Landkreis"},"federalState":{"key":"14","name":"Sachsen"}},{"name":"Haselleitenweg","postalCode":"01855","locality":"Sebnitz","municipality":{"key":"14628360","name":"Sebnitz, Stadt","type":"Stadt"},"district":{"key":"14628","name":"Sächsische Schweiz-Osterzgebirge","type":"Landkreis"},"federalState":{"key":"14","name":"Sachsen"}},{"name":"Hasenberg","postalCode":"01855","locality":"Sebnitz","municipality":{"key":"14628360","name":"Sebnitz, Stadt","type":"Stadt"},"district":{"key":"14628","name":"Sächsische Schweiz-Osterzgebirge","type":"Landkreis"},"federalState":{"key":"14","name":"Sachsen"}},{"name":"Hauptmannsschlüchte","postalCode":"01855","locality":"Sebnitz","municipality":{"key":"14628360","name":"Sebnitz, Stadt","type":"Stadt"},"district":{"key":"14628","name":"Sächsische Schweiz-Osterzgebirge","type":"Landkreis"},"federalState":{"key":"14","name":"Sachsen"}},{"name":"Hauptstr.","postalCode":"01855","locality":"Sebnitz","municipality":{"key":"14628360","name":"Sebnitz, Stadt","type":"Stadt"},"district":{"key":"14628","name":"Sächsische Schweiz-Osterzgebirge","type":"Landkreis"},"federalState":{"key":"14","name":"Sachsen"}},{"name":"Hebenhornweg","postalCode":"01855","locality":"Sebnitz","municipality":{"key":"14628360","name":"Sebnitz, Stadt","type":"Stadt"},"district":{"key":"14628","name":"Sächsische Schweiz-Osterzgebirge","type":"Landkreis"},"federalState":{"key":"14","name":"Sachsen"}},{"name":"Heidelbachweg","postalCode":"01855","locality":"Sebnitz","municipality":{"key":"14628360","name":"Sebnitz, Stadt","type":"Stadt"},"district":{"key":"14628","name":"Sächsische Schweiz-Osterzgebirge","type":"Landkreis"},"federalState":{"key":"14","name":"Sachsen"}},{"name":"Heilige Leite","postalCode":"01855","locality":"Sebnitz","municipality":{"key":"14628360","name":"Sebnitz, Stadt","type":"Stadt"},"district":{"key":"14628","name":"Sächsische Schweiz-Osterzgebirge","type":"Landkreis"},"federalState":{"key":"14","name":"Sachsen"}},{"name":"Heinestr.","postalCode":"01855","locality":"Sebnitz","municipality":{"key":"14628360","name":"Sebnitz, Stadt","type":"Stadt"},"district":{"key":"14628","name":"Sächsische Schweiz-Osterzgebirge","type":"Landkreis"},"federalState":{"key":"14","name":"Sachsen"}},{"name":"Hertigswalde","postalCode":"01855","locality":"Sebnitz","municipality":{"key":"14628360","name":"Sebnitz, Stadt","type":"Stadt"},"district":{"key":"14628","name":"Sächsische Schweiz-Osterzgebirge","type":"Landkreis"},"federalState":{"key":"14","name":"Sachsen"}},{"name":"Hertigswalder Kirchweg","postalCode":"01855","locality":"Sebnitz","municipality":{"key":"14628360","name":"Sebnitz, Stadt","type":"Stadt"},"district":{"key":"14628","name":"Sächsische Schweiz-Osterzgebirge","type":"Landkreis"},"federalState":{"key":"14","name":"Sachsen"}},{"name":"Hertigswalder Str.","postalCode":"01855","locality":"Sebnitz","municipality":{"key":"14628360","name":"Sebnitz, Stadt","type":"Stadt"},"district":{"key":"14628","name":"Sächsische Schweiz-Osterzgebirge","type":"Landkreis"},"federalState":{"key":"14","name":"Sachsen"}},{"name":"Hillenwiesenweg","postalCode":"01855","locality":"Sebnitz","municipality":{"key":"14628360","name":"Sebnitz, Stadt","type":"Stadt"},"district":{"key":"14628","name":"Sächsische Schweiz-Osterzgebirge","type":"Landkreis"},"federalState":{"key":"14","name":"Sachsen"}},{"name":"Hinterdaubitzer Str.","postalCode":"01855","locality":"Sebnitz","municipality":{"key":"14628360","name":"Sebnitz, Stadt","type":"Stadt"},"district":{"key":"14628","name":"Sächsische Schweiz-Osterzgebirge","type":"Landkreis"},"federalState":{"key":"14","name":"Sachsen"}},{"name":"Hinterer Dorfweg","postalCode":"01855","locality":"Sebnitz","municipality":{"key":"14628360","name":"Sebnitz, Stadt","type":"Stadt"},"district":{"key":"14628","name":"Sächsische Schweiz-Osterzgebirge","type":"Landkreis"},"federalState":{"key":"14","name":"Sachsen"}},{"name":"Hinterer Thorwaldweg","postalCode":"01855","locality":"Sebnitz","municipality":{"key":"14628360","name":"Sebnitz, Stadt","type":"Stadt"},"district":{"key":"14628","name":"Sächsische Schweiz-Osterzgebirge","type":"Landkreis"},"federalState":{"key":"14","name":"Sachsen"}},{"name":"Hinteres Räumicht","postalCode":"01855","locality":"Sebnitz","municipality":{"key":"14628360","name":"Sebnitz, Stadt","type":"Stadt"},"district":{"key":"14628","name":"Sächsische Schweiz-Osterzgebirge","type":"Landkreis"},"federalState":{"key":"14","name":"Sachsen"}},{"name":"Hinteres Schweineloch","postalCode":"01855","locality":"Sebnitz","municipality":{"key":"14628360","name":"Sebnitz, Stadt","type":"Stadt"},"district":{"key":"14628","name":"Sächsische Schweiz-Osterzgebirge","type":"Landkreis"},"federalState":{"key":"14","name":"Sachsen"}},{"name":"Hinterhermsdorfer Str.","postalCode":"01855","locality":"Sebnitz","municipality":{"key":"14628360","name":"Sebnitz, Stadt","type":"Stadt"},"district":{"key":"14628","name":"Sächsische Schweiz-Osterzgebirge","type":"Landkreis"},"federalState":{"key":"14","name":"Sachsen"}},{"name":"Hirschgrund","postalCode":"01855","locality":"Sebnitz","municipality":{"key":"14628360","name":"Sebnitz, Stadt","type":"Stadt"},"district":{"key":"14628","name":"Sächsische Schweiz-Osterzgebirge","type":"Landkreis"},"federalState":{"key":"14","name":"Sachsen"}},{"name":"Hohe","postalCode":"01855","locality":"Sebnitz","municipality":{"key":"14628360","name":"Sebnitz, Stadt","type":"Stadt"},"district":{"key":"14628","name":"Sächsische Schweiz-Osterzgebirge","type":"Landkreis"},"federalState":{"key":"14","name":"Sachsen"}},{"name":"Höhenweg","postalCode":"01855","locality":"Sebnitz","municipality":{"key":"14628360","name":"Sebnitz, Stadt","type":"Stadt"},"district":{"key":"14628","name":"Sächsische Schweiz-Osterzgebirge","type":"Landkreis"},"federalState":{"key":"14","name":"Sachsen"}},{"name":"Hohe Str.","postalCode":"01855","locality":"Sebnitz","municipality":{"key":"14628360","name":"Sebnitz, Stadt","type":"Stadt"},"district":{"key":"14628","name":"Sächsische Schweiz-Osterzgebirge","type":"Landkreis"},"federalState":{"key":"14","name":"Sachsen"}},{"name":"Hohlfelds Graben","postalCode":"01855","locality":"Sebnitz","municipality":{"key":"14628360","name":"Sebnitz, Stadt","type":"Stadt"},"district":{"key":"14628","name":"Sächsische Schweiz-Osterzgebirge","type":"Landkreis"},"federalState":{"key":"14","name":"Sachsen"}},{"name":"Hohnsteiner Str.","postalCode":"01855","locality":"Sebnitz","municipality":{"key":"14628360","name":"Sebnitz, Stadt","type":"Stadt"},"district":{"key":"14628","name":"Sächsische Schweiz-Osterzgebirge","type":"Landkreis"},"federalState":{"key":"14","name":"Sachsen"}},{"name":"Hohweg","postalCode":"01855","locality":"Sebnitz","municipality":{"key":"14628360","name":"Sebnitz, Stadt","type":"Stadt"},"district":{"key":"14628","name":"Sächsische Schweiz-Osterzgebirge","type":"Landkreis"},"federalState":{"key":"14","name":"Sachsen"}},{"name":"Hölle","postalCode":"01855","locality":"Sebnitz","municipality":{"key":"14628360","name":"Sebnitz, Stadt","type":"Stadt"},"district":{"key":"14628","name":"Sächsische Schweiz-Osterzgebirge","type":"Landkreis"},"federalState":{"key":"14","name":"Sachsen"}},{"name":"Höllstr.","postalCode":"01855","locality":"Sebnitz","municipality":{"key":"14628360","name":"Sebnitz, Stadt","type":"Stadt"},"district":{"key":"14628","name":"Sächsische Schweiz-Osterzgebirge","type":"Landkreis"},"federalState":{"key":"14","name":"Sachsen"}},{"name":"Horn","postalCode":"01855","locality":"Sebnitz","municipality":{"key":"14628360","name":"Sebnitz, Stadt","type":"Stadt"},"district":{"key":"14628","name":"Sächsische Schweiz-Osterzgebirge","type":"Landkreis"},"federalState":{"key":"14","name":"Sachsen"}},{"name":"Hörnelweg","postalCode":"01855","locality":"Sebnitz","municipality":{"key":"14628360","name":"Sebnitz, Stadt","type":"Stadt"},"district":{"key":"14628","name":"Sächsische Schweiz-Osterzgebirge","type":"Landkreis"},"federalState":{"key":"14","name":"Sachsen"}},{"name":"Jansloch","postalCode":"01855","locality":"Sebnitz","municipality":{"key":"14628360","name":"Sebnitz, Stadt","type":"Stadt"},"district":{"key":"14628","name":"Sächsische Schweiz-Osterzgebirge","type":"Landkreis"},"federalState":{"key":"14","name":"Sachsen"}},{"name":"Johannistal","postalCode":"01855","locality":"Sebnitz","municipality":{"key":"14628360","name":"Sebnitz, Stadt","type":"Stadt"},"district":{"key":"14628","name":"Sächsische Schweiz-Osterzgebirge","type":"Landkreis"},"federalState":{"key":"14","name":"Sachsen"}},{"name":"Johnsberg","postalCode":"01855","locality":"Sebnitz","municipality":{"key":"14628360","name":"Sebnitz, Stadt","type":"Stadt"},"district":{"key":"14628","name":"Sächsische Schweiz-Osterzgebirge","type":"Landkreis"},"federalState":{"key":"14","name":"Sachsen"}},{"name":"Jostleite","postalCode":"01855","locality":"Sebnitz","municipality":{"key":"14628360","name":"Sebnitz, Stadt","type":"Stadt"},"district":{"key":"14628","name":"Sächsische Schweiz-Osterzgebirge","type":"Landkreis"},"federalState":{"key":"14","name":"Sachsen"}},{"name":"Kälbersteig","postalCode":"01855","locality":"Sebnitz","municipality":{"key":"14628360","name":"Sebnitz, Stadt","type":"Stadt"},"district":{"key":"14628","name":"Sächsische Schweiz-Osterzgebirge","type":"Landkreis"},"federalState":{"key":"14","name":"Sachsen"}},{"name":"Kalkbuschweg","postalCode":"01855","locality":"Sebnitz","municipality":{"key":"14628360","name":"Sebnitz, Stadt","type":"Stadt"},"district":{"key":"14628","name":"Sächsische Schweiz-Osterzgebirge","type":"Landkreis"},"federalState":{"key":"14","name":"Sachsen"}},{"name":"Kalkstr.","postalCode":"01855","locality":"Sebnitz","municipality":{"key":"14628360","name":"Sebnitz, Stadt","type":"Stadt"},"district":{"key":"14628","name":"Sächsische Schweiz-Osterzgebirge","type":"Landkreis"},"federalState":{"key":"14","name":"Sachsen"}},{"name":"Kalschels Gründel","postalCode":"01855","locality":"Sebnitz","municipality":{"key":"14628360","name":"Sebnitz, Stadt","type":"Stadt"},"district":{"key":"14628","name":"Sächsische Schweiz-Osterzgebirge","type":"Landkreis"},"federalState":{"key":"14","name":"Sachsen"}},{"name":"Kanschlüchte","postalCode":"01855","locality":"Sebnitz","municipality":{"key":"14628360","name":"Sebnitz, Stadt","type":"Stadt"},"district":{"key":"14628","name":"Sächsische Schweiz-Osterzgebirge","type":"Landkreis"},"federalState":{"key":"14","name":"Sachsen"}},{"name":"Kapellenweg","postalCode":"01855","locality":"Sebnitz","municipality":{"key":"14628360","name":"Sebnitz, Stadt","type":"Stadt"},"district":{"key":"14628","name":"Sächsische Schweiz-Osterzgebirge","type":"Landkreis"},"federalState":{"key":"14","name":"Sachsen"}},{"name":"Kirchberg","postalCode":"01855","locality":"Sebnitz","municipality":{"key":"14628360","name":"Sebnitz, Stadt","type":"Stadt"},"district":{"key":"14628","name":"Sächsische Schweiz-Osterzgebirge","type":"Landkreis"},"federalState":{"key":"14","name":"Sachsen"}},{"name":"Kirchstr.","postalCode":"01855","locality":"Sebnitz","municipality":{"key":"14628360","name":"Sebnitz, Stadt","type":"Stadt"},"district":{"key":"14628","name":"Sächsische Schweiz-Osterzgebirge","type":"Landkreis"},"federalState":{"key":"14","name":"Sachsen"}},{"name":"Kirnitzschbergweg","postalCode":"01855","locality":"Sebnitz","municipality":{"key":"14628360","name":"Sebnitz, Stadt","type":"Stadt"},"district":{"key":"14628","name":"Sächsische Schweiz-Osterzgebirge","type":"Landkreis"},"federalState":{"key":"14","name":"Sachsen"}},{"name":"Kirnitzschtalstr.","postalCode":"01855","locality":"Sebnitz","municipality":{"key":"14628360","name":"Sebnitz, Stadt","type":"Stadt"},"district":{"key":"14628","name":"Sächsische Schweiz-Osterzgebirge","type":"Landkreis"},"federalState":{"key":"14","name":"Sachsen"}},{"name":"Kitzlerweg","postalCode":"01855","locality":"Sebnitz","municipality":{"key":"14628360","name":"Sebnitz, Stadt","type":"Stadt"},"district":{"key":"14628","name":"Sächsische Schweiz-Osterzgebirge","type":"Landkreis"},"federalState":{"key":"14","name":"Sachsen"}},{"name":"Klaftersteig","postalCode":"01855","locality":"Sebnitz","municipality":{"key":"14628360","name":"Sebnitz, Stadt","type":"Stadt"},"district":{"key":"14628","name":"Sächsische Schweiz-Osterzgebirge","type":"Landkreis"},"federalState":{"key":"14","name":"Sachsen"}},{"name":"Klausenweg","postalCode":"01855","locality":"Sebnitz","municipality":{"key":"14628360","name":"Sebnitz, Stadt","type":"Stadt"},"district":{"key":"14628","name":"Sächsische Schweiz-Osterzgebirge","type":"Landkreis"},"federalState":{"key":"14","name":"Sachsen"}},{"name":"Kleine Seifen","postalCode":"01855","locality":"Sebnitz","municipality":{"key":"14628360","name":"Sebnitz, Stadt","type":"Stadt"},"district":{"key":"14628","name":"Sächsische Schweiz-Osterzgebirge","type":"Landkreis"},"federalState":{"key":"14","name":"Sachsen"}},{"name":"Kleinsteinschlüchte","postalCode":"01855","locality":"Sebnitz","municipality":{"key":"14628360","name":"Sebnitz, Stadt","type":"Stadt"},"district":{"key":"14628","name":"Sächsische Schweiz-Osterzgebirge","type":"Landkreis"},"federalState":{"key":"14","name":"Sachsen"}},{"name":"Knechtsbachtal","postalCode":"01855","locality":"Sebnitz","municipality":{"key":"14628360","name":"Sebnitz, Stadt","type":"Stadt"},"district":{"key":"14628","name":"Sächsische Schweiz-Osterzgebirge","type":"Landkreis"},"federalState":{"key":"14","name":"Sachsen"}},{"name":"Königsjagdweg","postalCode":"01855","locality":"Sebnitz","municipality":{"key":"14628360","name":"Sebnitz, Stadt","type":"Stadt"},"district":{"key":"14628","name":"Sächsische Schweiz-Osterzgebirge","type":"Landkreis"},"federalState":{"key":"14","name":"Sachsen"}},{"name":"Kreuzstr.","postalCode":"01855","locality":"Sebnitz","municipality":{"key":"14628360","name":"Sebnitz, Stadt","type":"Stadt"},"district":{"key":"14628","name":"Sächsische Schweiz-Osterzgebirge","type":"Landkreis"},"federalState":{"key":"14","name":"Sachsen"}},{"name":"Kroatenschlucht","postalCode":"01855","locality":"Sebnitz","municipality":{"key":"14628360","name":"Sebnitz, Stadt","type":"Stadt"},"district":{"key":"14628","name":"Sächsische Schweiz-Osterzgebirge","type":"Landkreis"},"federalState":{"key":"14","name":"Sachsen"}},{"name":"Krummhermsdorfer Weg","postalCode":"01855","locality":"Sebnitz","municipality":{"key":"14628360","name":"Sebnitz, Stadt","type":"Stadt"},"district":{"key":"14628","name":"Sächsische Schweiz-Osterzgebirge","type":"Landkreis"},"federalState":{"key":"14","name":"Sachsen"}},{"name":"Kurze Str.","postalCode":"01855","locality":"Sebnitz","municipality":{"key":"14628360","name":"Sebnitz, Stadt","type":"Stadt"},"district":{"key":"14628","name":"Sächsische Schweiz-Osterzgebirge","type":"Landkreis"},"federalState":{"key":"14","name":"Sachsen"}},{"name":"Langer Flügel","postalCode":"01855","locality":"Sebnitz","municipality":{"key":"14628360","name":"Sebnitz, Stadt","type":"Stadt"},"district":{"key":"14628","name":"Sächsische Schweiz-Osterzgebirge","type":"Landkreis"},"federalState":{"key":"14","name":"Sachsen"}},{"name":"Lange Str.","postalCode":"01855","locality":"Sebnitz","municipality":{"key":"14628360","name":"Sebnitz, Stadt","type":"Stadt"},"district":{"key":"14628","name":"Sächsische Schweiz-Osterzgebirge","type":"Landkreis"},"federalState":{"key":"14","name":"Sachsen"}},{"name":"Langewiesenweg","postalCode":"01855","locality":"Sebnitz","municipality":{"key":"14628360","name":"Sebnitz, Stadt","type":"Stadt"},"district":{"key":"14628","name":"Sächsische Schweiz-Osterzgebirge","type":"Landkreis"},"federalState":{"key":"14","name":"Sachsen"}},{"name":"Langkweg","postalCode":"01855","locality":"Sebnitz","municipality":{"key":"14628360","name":"Sebnitz, Stadt","type":"Stadt"},"district":{"key":"14628","name":"Sächsische Schweiz-Osterzgebirge","type":"Landkreis"},"federalState":{"key":"14","name":"Sachsen"}},{"name":"Lehmhübelweg","postalCode":"01855","locality":"Sebnitz","municipality":{"key":"14628360","name":"Sebnitz, Stadt","type":"Stadt"},"district":{"key":"14628","name":"Sächsische Schweiz-Osterzgebirge","type":"Landkreis"},"federalState":{"key":"14","name":"Sachsen"}},{"name":"Lessingweg","postalCode":"01855","locality":"Sebnitz","municipality":{"key":"14628360","name":"Sebnitz, Stadt","type":"Stadt"},"district":{"key":"14628","name":"Sächsische Schweiz-Osterzgebirge","type":"Landkreis"},"federalState":{"key":"14","name":"Sachsen"}},{"name":"Lindengründel","postalCode":"01855","locality":"Sebnitz","municipality":{"key":"14628360","name":"Sebnitz, Stadt","type":"Stadt"},"district":{"key":"14628","name":"Sächsische Schweiz-Osterzgebirge","type":"Landkreis"},"federalState":{"key":"14","name":"Sachsen"}},{"name":"Lindigtstr.","postalCode":"01855","locality":"Sebnitz","municipality":{"key":"14628360","name":"Sebnitz, Stadt","type":"Stadt"},"district":{"key":"14628","name":"Sächsische Schweiz-Osterzgebirge","type":"Landkreis"},"federalState":{"key":"14","name":"Sachsen"}},{"name":"Loch-Räumicht","postalCode":"01855","locality":"Sebnitz","municipality":{"key":"14628360","name":"Sebnitz, Stadt","type":"Stadt"},"district":{"key":"14628","name":"Sächsische Schweiz-Osterzgebirge","type":"Landkreis"},"federalState":{"key":"14","name":"Sachsen"}},{"name":"Lutherstr.","postalCode":"01855","locality":"Sebnitz","municipality":{"key":"14628360","name":"Sebnitz, Stadt","type":"Stadt"},"district":{"key":"14628","name":"Sächsische Schweiz-Osterzgebirge","type":"Landkreis"},"federalState":{"key":"14","name":"Sachsen"}},{"name":"Mannsgrabenweg","postalCode":"01855","locality":"Sebnitz","municipality":{"key":"14628360","name":"Sebnitz, Stadt","type":"Stadt"},"district":{"key":"14628","name":"Sächsische Schweiz-Osterzgebirge","type":"Landkreis"},"federalState":{"key":"14","name":"Sachsen"}},{"name":"Markt","postalCode":"01855","locality":"Sebnitz","municipality":{"key":"14628360","name":"Sebnitz, Stadt","type":"Stadt"},"district":{"key":"14628","name":"Sächsische Schweiz-Osterzgebirge","type":"Landkreis"},"federalState":{"key":"14","name":"Sachsen"}},{"name":"Martin-May-Str.","postalCode":"01855","locality":"Sebnitz","municipality":{"key":"14628360","name":"Sebnitz, Stadt","type":"Stadt"},"district":{"key":"14628","name":"Sächsische Schweiz-Osterzgebirge","type":"Landkreis"},"federalState":{"key":"14","name":"Sachsen"}},{"name":"Meilerschlüchteweg","postalCode":"01855","locality":"Sebnitz","municipality":{"key":"14628360","name":"Sebnitz, Stadt","type":"Stadt"},"district":{"key":"14628","name":"Sächsische Schweiz-Osterzgebirge","type":"Landkreis"},"federalState":{"key":"14","name":"Sachsen"}},{"name":"Melanchthonstr.","postalCode":"01855","locality":"Sebnitz","municipality":{"key":"14628360","name":"Sebnitz, Stadt","type":"Stadt"},"district":{"key":"14628","name":"Sächsische Schweiz-Osterzgebirge","type":"Landkreis"},"federalState":{"key":"14","name":"Sachsen"}},{"name":"Mittelstr.","postalCode":"01855","locality":"Sebnitz","municipality":{"key":"14628360","name":"Sebnitz, Stadt","type":"Stadt"},"district":{"key":"14628","name":"Sächsische Schweiz-Osterzgebirge","type":"Landkreis"},"federalState":{"key":"14","name":"Sachsen"}},{"name":"Mittelweg","postalCode":"01855","locality":"Sebnitz","municipality":{"key":"14628360","name":"Sebnitz, Stadt","type":"Stadt"},"district":{"key":"14628","name":"Sächsische Schweiz-Osterzgebirge","type":"Landkreis"},"federalState":{"key":"14","name":"Sachsen"}},{"name":"Mühlberg","postalCode":"01855","locality":"Sebnitz","municipality":{"key":"14628360","name":"Sebnitz, Stadt","type":"Stadt"},"district":{"key":"14628","name":"Sächsische Schweiz-Osterzgebirge","type":"Landkreis"},"federalState":{"key":"14","name":"Sachsen"}},{"name":"Mühlenweg","postalCode":"01855","locality":"Sebnitz","municipality":{"key":"14628360","name":"Sebnitz, Stadt","type":"Stadt"},"district":{"key":"14628","name":"Sächsische Schweiz-Osterzgebirge","type":"Landkreis"},"federalState":{"key":"14","name":"Sachsen"}},{"name":"Mühlgässchen","postalCode":"01855","locality":"Sebnitz","municipality":{"key":"14628360","name":"Sebnitz, Stadt","type":"Stadt"},"district":{"key":"14628","name":"Sächsische Schweiz-Osterzgebirge","type":"Landkreis"},"federalState":{"key":"14","name":"Sachsen"}},{"name":"Mühlhübelweg","postalCode":"01855","locality":"Sebnitz","municipality":{"key":"14628360","name":"Sebnitz, Stadt","type":"Stadt"},"district":{"key":"14628","name":"Sächsische Schweiz-Osterzgebirge","type":"Landkreis"},"federalState":{"key":"14","name":"Sachsen"}},{"name":"Nädlers Steig","postalCode":"01855","locality":"Sebnitz","municipality":{"key":"14628360","name":"Sebnitz, Stadt","type":"Stadt"},"district":{"key":"14628","name":"Sächsische Schweiz-Osterzgebirge","type":"Landkreis"},"federalState":{"key":"14","name":"Sachsen"}},{"name":"Neidbergweg","postalCode":"01855","locality":"Sebnitz","municipality":{"key":"14628360","name":"Sebnitz, Stadt","type":"Stadt"},"district":{"key":"14628","name":"Sächsische Schweiz-Osterzgebirge","type":"Landkreis"},"federalState":{"key":"14","name":"Sachsen"}},{"name":"Neubau","postalCode":"01855","locality":"Sebnitz","municipality":{"key":"14628360","name":"Sebnitz, Stadt","type":"Stadt"},"district":{"key":"14628","name":"Sächsische Schweiz-Osterzgebirge","type":"Landkreis"},"federalState":{"key":"14","name":"Sachsen"}},{"name":"Neudorfstr.","postalCode":"01855","locality":"Sebnitz","municipality":{"key":"14628360","name":"Sebnitz, Stadt","type":"Stadt"},"district":{"key":"14628","name":"Sächsische Schweiz-Osterzgebirge","type":"Landkreis"},"federalState":{"key":"14","name":"Sachsen"}},{"name":"Neudorfweg","postalCode":"01855","locality":"Sebnitz","municipality":{"key":"14628360","name":"Sebnitz, Stadt","type":"Stadt"},"district":{"key":"14628","name":"Sächsische Schweiz-Osterzgebirge","type":"Landkreis"},"federalState":{"key":"14","name":"Sachsen"}},{"name":"Neuer Weg","postalCode":"01855","locality":"Sebnitz","municipality":{"key":"14628360","name":"Sebnitz, Stadt","type":"Stadt"},"district":{"key":"14628","name":"Sächsische Schweiz-Osterzgebirge","type":"Landkreis"},"federalState":{"key":"14","name":"Sachsen"}},{"name":"Neue Str.","postalCode":"01855","locality":"Sebnitz","municipality":{"key":"14628360","name":"Sebnitz, Stadt","type":"Stadt"},"district":{"key":"14628","name":"Sächsische Schweiz-Osterzgebirge","type":"Landkreis"},"federalState":{"key":"14","name":"Sachsen"}},{"name":"Neustädter Str.","postalCode":"01855","locality":"Sebnitz","municipality":{"key":"14628360","name":"Sebnitz, Stadt","type":"Stadt"},"district":{"key":"14628","name":"Sächsische Schweiz-Osterzgebirge","type":"Landkreis"},"federalState":{"key":"14","name":"Sachsen"}},{"name":"Neustädter Weg","postalCode":"01855","locality":"Sebnitz","municipality":{"key":"14628360","name":"Sebnitz, Stadt","type":"Stadt"},"district":{"key":"14628","name":"Sächsische Schweiz-Osterzgebirge","type":"Landkreis"},"federalState":{"key":"14","name":"Sachsen"}},{"name":"Nickelsbergweg","postalCode":"01855","locality":"Sebnitz","municipality":{"key":"14628360","name":"Sebnitz, Stadt","type":"Stadt"},"district":{"key":"14628","name":"Sächsische Schweiz-Osterzgebirge","type":"Landkreis"},"federalState":{"key":"14","name":"Sachsen"}},{"name":"Niederdorfstr.","postalCode":"01855","locality":"Sebnitz","municipality":{"key":"14628360","name":"Sebnitz, Stadt","type":"Stadt"},"district":{"key":"14628","name":"Sächsische Schweiz-Osterzgebirge","type":"Landkreis"},"federalState":{"key":"14","name":"Sachsen"}},{"name":"Niederer Hirschewaldweg","postalCode":"01855","locality":"Sebnitz","municipality":{"key":"14628360","name":"Sebnitz, Stadt","type":"Stadt"},"district":{"key":"14628","name":"Sächsische Schweiz-Osterzgebirge","type":"Landkreis"},"federalState":{"key":"14","name":"Sachsen"}},{"name":"Niederer Rosenberg","postalCode":"01855","locality":"Sebnitz","municipality":{"key":"14628360","name":"Sebnitz, Stadt","type":"Stadt"},"district":{"key":"14628","name":"Sächsische Schweiz-Osterzgebirge","type":"Landkreis"},"federalState":{"key":"14","name":"Sachsen"}},{"name":"Niederer Steinbergweg","postalCode":"01855","locality":"Sebnitz","municipality":{"key":"14628360","name":"Sebnitz, Stadt","type":"Stadt"},"district":{"key":"14628","name":"Sächsische Schweiz-Osterzgebirge","type":"Landkreis"},"federalState":{"key":"14","name":"Sachsen"}},{"name":"Nixdorfer Str.","postalCode":"01855","locality":"Sebnitz","municipality":{"key":"14628360","name":"Sebnitz, Stadt","type":"Stadt"},"district":{"key":"14628","name":"Sächsische Schweiz-Osterzgebirge","type":"Landkreis"},"federalState":{"key":"14","name":"Sachsen"}},{"name":"Nordstr.","postalCode":"01855","locality":"Sebnitz","municipality":{"key":"14628360","name":"Sebnitz, Stadt","type":"Stadt"},"district":{"key":"14628","name":"Sächsische Schweiz-Osterzgebirge","type":"Landkreis"},"federalState":{"key":"14","name":"Sachsen"}},{"name":"Oberdorf","postalCode":"01855","locality":"Sebnitz","municipality":{"key":"14628360","name":"Sebnitz, Stadt","type":"Stadt"},"district":{"key":"14628","name":"Sächsische Schweiz-Osterzgebirge","type":"Landkreis"},"federalState":{"key":"14","name":"Sachsen"}},{"name":"Oberdorfweg","postalCode":"01855","locality":"Sebnitz","municipality":{"key":"14628360","name":"Sebnitz, Stadt","type":"Stadt"},"district":{"key":"14628","name":"Sächsische Schweiz-Osterzgebirge","type":"Landkreis"},"federalState":{"key":"14","name":"Sachsen"}},{"name":"Obere Dorfstr.","postalCode":"01855","locality":"Sebnitz","municipality":{"key":"14628360","name":"Sebnitz, Stadt","type":"Stadt"},"district":{"key":"14628","name":"Sächsische Schweiz-Osterzgebirge","type":"Landkreis"},"federalState":{"key":"14","name":"Sachsen"}},{"name":"Oberer Hirschwaldweg","postalCode":"01855","locality":"Sebnitz","municipality":{"key":"14628360","name":"Sebnitz, Stadt","type":"Stadt"},"district":{"key":"14628","name":"Sächsische Schweiz-Osterzgebirge","type":"Landkreis"},"federalState":{"key":"14","name":"Sachsen"}},{"name":"Oberer Mühlhübelweg","postalCode":"01855","locality":"Sebnitz","municipality":{"key":"14628360","name":"Sebnitz, Stadt","type":"Stadt"},"district":{"key":"14628","name":"Sächsische Schweiz-Osterzgebirge","type":"Landkreis"},"federalState":{"key":"14","name":"Sachsen"}},{"name":"Oberer Rosenberg","postalCode":"01855","locality":"Sebnitz","municipality":{"key":"14628360","name":"Sebnitz, Stadt","type":"Stadt"},"district":{"key":"14628","name":"Sächsische Schweiz-Osterzgebirge","type":"Landkreis"},"federalState":{"key":"14","name":"Sachsen"}},{"name":"Oberer Steinbergweg","postalCode":"01855","locality":"Sebnitz","municipality":{"key":"14628360","name":"Sebnitz, Stadt","type":"Stadt"},"district":{"key":"14628","name":"Sächsische Schweiz-Osterzgebirge","type":"Landkreis"},"federalState":{"key":"14","name":"Sachsen"}},{"name":"Obere Str.","postalCode":"01855","locality":"Sebnitz","municipality":{"key":"14628360","name":"Sebnitz, Stadt","type":"Stadt"},"district":{"key":"14628","name":"Sächsische Schweiz-Osterzgebirge","type":"Landkreis"},"federalState":{"key":"14","name":"Sachsen"}},{"name":"Obergasse","postalCode":"01855","locality":"Sebnitz","municipality":{"key":"14628360","name":"Sebnitz, Stadt","type":"Stadt"},"district":{"key":"14628","name":"Sächsische Schweiz-Osterzgebirge","type":"Landkreis"},"federalState":{"key":"14","name":"Sachsen"}},{"name":"Ottendorfer Steig","postalCode":"01855","locality":"Sebnitz","municipality":{"key":"14628360","name":"Sebnitz, Stadt","type":"Stadt"},"district":{"key":"14628","name":"Sächsische Schweiz-Osterzgebirge","type":"Landkreis"},"federalState":{"key":"14","name":"Sachsen"}},{"name":"Ottendorfer Str.","postalCode":"01855","locality":"Sebnitz","municipality":{"key":"14628360","name":"Sebnitz, Stadt","type":"Stadt"},"district":{"key":"14628","name":"Sächsische Schweiz-Osterzgebirge","type":"Landkreis"},"federalState":{"key":"14","name":"Sachsen"}},{"name":"Ottendorfer Weg","postalCode":"01855","locality":"Sebnitz","municipality":{"key":"14628360","name":"Sebnitz, Stadt","type":"Stadt"},"district":{"key":"14628","name":"Sächsische Schweiz-Osterzgebirge","type":"Landkreis"},"federalState":{"key":"14","name":"Sachsen"}},{"name":"Palmes Stein","postalCode":"01855","locality":"Sebnitz","municipality":{"key":"14628360","name":"Sebnitz, Stadt","type":"Stadt"},"district":{"key":"14628","name":"Sächsische Schweiz-Osterzgebirge","type":"Landkreis"},"federalState":{"key":"14","name":"Sachsen"}},{"name":"Panoramaweg","postalCode":"01855","locality":"Sebnitz","municipality":{"key":"14628360","name":"Sebnitz, Stadt","type":"Stadt"},"district":{"key":"14628","name":"Sächsische Schweiz-Osterzgebirge","type":"Landkreis"},"federalState":{"key":"14","name":"Sachsen"}},{"name":"Panoramaweg / Schaarwändeweg","postalCode":"01855","locality":"Sebnitz","municipality":{"key":"14628360","name":"Sebnitz, Stadt","type":"Stadt"},"district":{"key":"14628","name":"Sächsische Schweiz-Osterzgebirge","type":"Landkreis"},"federalState":{"key":"14","name":"Sachsen"}},{"name":"Parkweg","postalCode":"01855","locality":"Sebnitz","municipality":{"key":"14628360","name":"Sebnitz, Stadt","type":"Stadt"},"district":{"key":"14628","name":"Sächsische Schweiz-Osterzgebirge","type":"Landkreis"},"federalState":{"key":"14","name":"Sachsen"}},{"name":"Peschkengrundweg","postalCode":"01855","locality":"Sebnitz","municipality":{"key":"14628360","name":"Sebnitz, Stadt","type":"Stadt"},"district":{"key":"14628","name":"Sächsische Schweiz-Osterzgebirge","type":"Landkreis"},"federalState":{"key":"14","name":"Sachsen"}},{"name":"Pestalozzistr.","postalCode":"01855","locality":"Sebnitz","municipality":{"key":"14628360","name":"Sebnitz, Stadt","type":"Stadt"},"district":{"key":"14628","name":"Sächsische Schweiz-Osterzgebirge","type":"Landkreis"},"federalState":{"key":"14","name":"Sachsen"}},{"name":"Pfarrgasse","postalCode":"01855","locality":"Sebnitz","municipality":{"key":"14628360","name":"Sebnitz, Stadt","type":"Stadt"},"district":{"key":"14628","name":"Sächsische Schweiz-Osterzgebirge","type":"Landkreis"},"federalState":{"key":"14","name":"Sachsen"}},{"name":"Pfarrplatz","postalCode":"01855","locality":"Sebnitz","municipality":{"key":"14628360","name":"Sebnitz, Stadt","type":"Stadt"},"district":{"key":"14628","name":"Sächsische Schweiz-Osterzgebirge","type":"Landkreis"},"federalState":{"key":"14","name":"Sachsen"}},{"name":"Promenade","postalCode":"01855","locality":"Sebnitz","municipality":{"key":"14628360","name":"Sebnitz, Stadt","type":"Stadt"},"district":{"key":"14628","name":"Sächsische Schweiz-Osterzgebirge","type":"Landkreis"},"federalState":{"key":"14","name":"Sachsen"}},{"name":"Puttrichberg","postalCode":"01855","locality":"Sebnitz","municipality":{"key":"14628360","name":"Sebnitz, Stadt","type":"Stadt"},"district":{"key":"14628","name":"Sächsische Schweiz-Osterzgebirge","type":"Landkreis"},"federalState":{"key":"14","name":"Sachsen"}},{"name":"Quasengrund","postalCode":"01855","locality":"Sebnitz","municipality":{"key":"14628360","name":"Sebnitz, Stadt","type":"Stadt"},"district":{"key":"14628","name":"Sächsische Schweiz-Osterzgebirge","type":"Landkreis"},"federalState":{"key":"14","name":"Sachsen"}},{"name":"Quasengrundweg","postalCode":"01855","locality":"Sebnitz","municipality":{"key":"14628360","name":"Sebnitz, Stadt","type":"Stadt"},"district":{"key":"14628","name":"Sächsische Schweiz-Osterzgebirge","type":"Landkreis"},"federalState":{"key":"14","name":"Sachsen"}},{"name":"Querstr. / Rundwanderweg II","postalCode":"01855","locality":"Sebnitz","municipality":{"key":"14628360","name":"Sebnitz, Stadt","type":"Stadt"},"district":{"key":"14628","name":"Sächsische Schweiz-Osterzgebirge","type":"Landkreis"},"federalState":{"key":"14","name":"Sachsen"}},{"name":"Querweg","postalCode":"01855","locality":"Sebnitz","municipality":{"key":"14628360","name":"Sebnitz, Stadt","type":"Stadt"},"district":{"key":"14628","name":"Sächsische Schweiz-Osterzgebirge","type":"Landkreis"},"federalState":{"key":"14","name":"Sachsen"}},{"name":"Rabensteinweg","postalCode":"01855","locality":"Sebnitz","municipality":{"key":"14628360","name":"Sebnitz, Stadt","type":"Stadt"},"district":{"key":"14628","name":"Sächsische Schweiz-Osterzgebirge","type":"Landkreis"},"federalState":{"key":"14","name":"Sachsen"}},{"name":"Randweg","postalCode":"01855","locality":"Sebnitz","municipality":{"key":"14628360","name":"Sebnitz, Stadt","type":"Stadt"},"district":{"key":"14628","name":"Sächsische Schweiz-Osterzgebirge","type":"Landkreis"},"federalState":{"key":"14","name":"Sachsen"}},{"name":"Rapinzenweg","postalCode":"01855","locality":"Sebnitz","municipality":{"key":"14628360","name":"Sebnitz, Stadt","type":"Stadt"},"district":{"key":"14628","name":"Sächsische Schweiz-Osterzgebirge","type":"Landkreis"},"federalState":{"key":"14","name":"Sachsen"}},{"name":"Rathmannsdorfer Str.","postalCode":"01855","locality":"Sebnitz","municipality":{"key":"14628360","name":"Sebnitz, Stadt","type":"Stadt"},"district":{"key":"14628","name":"Sächsische Schweiz-Osterzgebirge","type":"Landkreis"},"federalState":{"key":"14","name":"Sachsen"}},{"name":"Raumbergweg","postalCode":"01855","locality":"Sebnitz","municipality":{"key":"14628360","name":"Sebnitz, Stadt","type":"Stadt"},"district":{"key":"14628","name":"Sächsische Schweiz-Osterzgebirge","type":"Landkreis"},"federalState":{"key":"14","name":"Sachsen"}},{"name":"Räumicht","postalCode":"01855","locality":"Sebnitz","municipality":{"key":"14628360","name":"Sebnitz, Stadt","type":"Stadt"},"district":{"key":"14628","name":"Sächsische Schweiz-Osterzgebirge","type":"Landkreis"},"federalState":{"key":"14","name":"Sachsen"}},{"name":"Räumichtweg","postalCode":"01855","locality":"Sebnitz","municipality":{"key":"14628360","name":"Sebnitz, Stadt","type":"Stadt"},"district":{"key":"14628","name":"Sächsische Schweiz-Osterzgebirge","type":"Landkreis"},"federalState":{"key":"14","name":"Sachsen"}},{"name":"Reißersgrund","postalCode":"01855","locality":"Sebnitz","municipality":{"key":"14628360","name":"Sebnitz, Stadt","type":"Stadt"},"district":{"key":"14628","name":"Sächsische Schweiz-Osterzgebirge","type":"Landkreis"},"federalState":{"key":"14","name":"Sachsen"}},{"name":"Reitsteig","postalCode":"01855","locality":"Sebnitz","municipality":{"key":"14628360","name":"Sebnitz, Stadt","type":"Stadt"},"district":{"key":"14628","name":"Sächsische Schweiz-Osterzgebirge","type":"Landkreis"},"federalState":{"key":"14","name":"Sachsen"}},{"name":"Ringstr.","postalCode":"01855","locality":"Sebnitz","municipality":{"key":"14628360","name":"Sebnitz, Stadt","type":"Stadt"},"district":{"key":"14628","name":"Sächsische Schweiz-Osterzgebirge","type":"Landkreis"},"federalState":{"key":"14","name":"Sachsen"}},{"name":"Rosenstr.","postalCode":"01855","locality":"Sebnitz","municipality":{"key":"14628360","name":"Sebnitz, Stadt","type":"Stadt"},"district":{"key":"14628","name":"Sächsische Schweiz-Osterzgebirge","type":"Landkreis"},"federalState":{"key":"14","name":"Sachsen"}},{"name":"Roßsteig","postalCode":"01855","locality":"Sebnitz","municipality":{"key":"14628360","name":"Sebnitz, Stadt","type":"Stadt"},"district":{"key":"14628","name":"Sächsische Schweiz-Osterzgebirge","type":"Landkreis"},"federalState":{"key":"14","name":"Sachsen"}},{"name":"Rundwanderweg II","postalCode":"01855","locality":"Sebnitz","municipality":{"key":"14628360","name":"Sebnitz, Stadt","type":"Stadt"},"district":{"key":"14628","name":"Sächsische Schweiz-Osterzgebirge","type":"Landkreis"},"federalState":{"key":"14","name":"Sachsen"}},{"name":"Sauersweg","postalCode":"01855","locality":"Sebnitz","municipality":{"key":"14628360","name":"Sebnitz, Stadt","type":"Stadt"},"district":{"key":"14628","name":"Sächsische Schweiz-Osterzgebirge","type":"Landkreis"},"federalState":{"key":"14","name":"Sachsen"}},{"name":"Saupsdorfer Str.","postalCode":"01855","locality":"Sebnitz","municipality":{"key":"14628360","name":"Sebnitz, Stadt","type":"Stadt"},"district":{"key":"14628","name":"Sächsische Schweiz-Osterzgebirge","type":"Landkreis"},"federalState":{"key":"14","name":"Sachsen"}},{"name":"Saupsdorfer Streuweg","postalCode":"01855","locality":"Sebnitz","municipality":{"key":"14628360","name":"Sebnitz, Stadt","type":"Stadt"},"district":{"key":"14628","name":"Sächsische Schweiz-Osterzgebirge","type":"Landkreis"},"federalState":{"key":"14","name":"Sachsen"}},{"name":"Saupsdorfer Weg","postalCode":"01855","locality":"Sebnitz","municipality":{"key":"14628360","name":"Sebnitz, Stadt","type":"Stadt"},"district":{"key":"14628","name":"Sächsische Schweiz-Osterzgebirge","type":"Landkreis"},"federalState":{"key":"14","name":"Sachsen"}},{"name":"Schaar","postalCode":"01855","locality":"Sebnitz","municipality":{"key":"14628360","name":"Sebnitz, Stadt","type":"Stadt"},"district":{"key":"14628","name":"Sächsische Schweiz-Osterzgebirge","type":"Landkreis"},"federalState":{"key":"14","name":"Sachsen"}},{"name":"Schaarwändeweg","postalCode":"01855","locality":"Sebnitz","municipality":{"key":"14628360","name":"Sebnitz, Stadt","type":"Stadt"},"district":{"key":"14628","name":"Sächsische Schweiz-Osterzgebirge","type":"Landkreis"},"federalState":{"key":"14","name":"Sachsen"}},{"name":"Schandauer Str.","postalCode":"01855","locality":"Sebnitz","municipality":{"key":"14628360","name":"Sebnitz, Stadt","type":"Stadt"},"district":{"key":"14628","name":"Sächsische Schweiz-Osterzgebirge","type":"Landkreis"},"federalState":{"key":"14","name":"Sachsen"}},{"name":"Schillerplatz","postalCode":"01855","locality":"Sebnitz","municipality":{"key":"14628360","name":"Sebnitz, Stadt","type":"Stadt"},"district":{"key":"14628","name":"Sächsische Schweiz-Osterzgebirge","type":"Landkreis"},"federalState":{"key":"14","name":"Sachsen"}},{"name":"Schillerstr.","postalCode":"01855","locality":"Sebnitz","municipality":{"key":"14628360","name":"Sebnitz, Stadt","type":"Stadt"},"district":{"key":"14628","name":"Sächsische Schweiz-Osterzgebirge","type":"Landkreis"},"federalState":{"key":"14","name":"Sachsen"}},{"name":"Schleusenhornweg","postalCode":"01855","locality":"Sebnitz","municipality":{"key":"14628360","name":"Sebnitz, Stadt","type":"Stadt"},"district":{"key":"14628","name":"Sächsische Schweiz-Osterzgebirge","type":"Landkreis"},"federalState":{"key":"14","name":"Sachsen"}},{"name":"Schönbacher Weg","postalCode":"01855","locality":"Sebnitz","municipality":{"key":"14628360","name":"Sebnitz, Stadt","type":"Stadt"},"district":{"key":"14628","name":"Sächsische Schweiz-Osterzgebirge","type":"Landkreis"},"federalState":{"key":"14","name":"Sachsen"}},{"name":"Schulstr.","postalCode":"01855","locality":"Sebnitz","municipality":{"key":"14628360","name":"Sebnitz, Stadt","type":"Stadt"},"district":{"key":"14628","name":"Sächsische Schweiz-Osterzgebirge","type":"Landkreis"},"federalState":{"key":"14","name":"Sachsen"}},{"name":"Schulweg","postalCode":"01855","locality":"Sebnitz","municipality":{"key":"14628360","name":"Sebnitz, Stadt","type":"Stadt"},"district":{"key":"14628","name":"Sächsische Schweiz-Osterzgebirge","type":"Landkreis"},"federalState":{"key":"14","name":"Sachsen"}},{"name":"Schustergasse","postalCode":"01855","locality":"Sebnitz","municipality":{"key":"14628360","name":"Sebnitz, Stadt","type":"Stadt"},"district":{"key":"14628","name":"Sächsische Schweiz-Osterzgebirge","type":"Landkreis"},"federalState":{"key":"14","name":"Sachsen"}},{"name":"Schützenstr.","postalCode":"01855","locality":"Sebnitz","municipality":{"key":"14628360","name":"Sebnitz, Stadt","type":"Stadt"},"district":{"key":"14628","name":"Sächsische Schweiz-Osterzgebirge","type":"Landkreis"},"federalState":{"key":"14","name":"Sachsen"}},{"name":"Schwarze Schlüchte","postalCode":"01855","locality":"Sebnitz","municipality":{"key":"14628360","name":"Sebnitz, Stadt","type":"Stadt"},"district":{"key":"14628","name":"Sächsische Schweiz-Osterzgebirge","type":"Landkreis"},"federalState":{"key":"14","name":"Sachsen"}},{"name":"Sebnitzer Str.","postalCode":"01855","locality":"Sebnitz","municipality":{"key":"14628360","name":"Sebnitz, Stadt","type":"Stadt"},"district":{"key":"14628","name":"Sächsische Schweiz-Osterzgebirge","type":"Landkreis"},"federalState":{"key":"14","name":"Sachsen"}},{"name":"Siedlerstr.","postalCode":"01855","locality":"Sebnitz","municipality":{"key":"14628360","name":"Sebnitz, Stadt","type":"Stadt"},"district":{"key":"14628","name":"Sächsische Schweiz-Osterzgebirge","type":"Landkreis"},"federalState":{"key":"14","name":"Sachsen"}},{"name":"Siedlerweg","postalCode":"01855","locality":"Sebnitz","municipality":{"key":"14628360","name":"Sebnitz, Stadt","type":"Stadt"},"district":{"key":"14628","name":"Sächsische Schweiz-Osterzgebirge","type":"Landkreis"},"federalState":{"key":"14","name":"Sachsen"}},{"name":"Siedlung","postalCode":"01855","locality":"Sebnitz","municipality":{"key":"14628360","name":"Sebnitz, Stadt","type":"Stadt"},"district":{"key":"14628","name":"Sächsische Schweiz-Osterzgebirge","type":"Landkreis"},"federalState":{"key":"14","name":"Sachsen"}},{"name":"Siedlung-Anbau","postalCode":"01855","locality":"Sebnitz","municipality":{"key":"14628360","name":"Sebnitz, Stadt","type":"Stadt"},"district":{"key":"14628","name":"Sächsische Schweiz-Osterzgebirge","type":"Landkreis"},"federalState":{"key":"14","name":"Sachsen"}},{"name":"Sportplatzweg","postalCode":"01855","locality":"Sebnitz","municipality":{"key":"14628360","name":"Sebnitz, Stadt","type":"Stadt"},"district":{"key":"14628","name":"Sächsische Schweiz-Osterzgebirge","type":"Landkreis"},"federalState":{"key":"14","name":"Sachsen"}},{"name":"Sprungschanzenweg","postalCode":"01855","locality":"Sebnitz","municipality":{"key":"14628360","name":"Sebnitz, Stadt","type":"Stadt"},"district":{"key":"14628","name":"Sächsische Schweiz-Osterzgebirge","type":"Landkreis"},"federalState":{"key":"14","name":"Sachsen"}},{"name":"Steingässchen","postalCode":"01855","locality":"Sebnitz","municipality":{"key":"14628360","name":"Sebnitz, Stadt","type":"Stadt"},"district":{"key":"14628","name":"Sächsische Schweiz-Osterzgebirge","type":"Landkreis"},"federalState":{"key":"14","name":"Sachsen"}},{"name":"Stellweg","postalCode":"01855","locality":"Sebnitz","municipality":{"key":"14628360","name":"Sebnitz, Stadt","type":"Stadt"},"district":{"key":"14628","name":"Sächsische Schweiz-Osterzgebirge","type":"Landkreis"},"federalState":{"key":"14","name":"Sachsen"}},{"name":"Stimmersdorfer Weg","postalCode":"01855","locality":"Sebnitz","municipality":{"key":"14628360","name":"Sebnitz, Stadt","type":"Stadt"},"district":{"key":"14628","name":"Sächsische Schweiz-Osterzgebirge","type":"Landkreis"},"federalState":{"key":"14","name":"Sachsen"}},{"name":"Sturmbauers Eck","postalCode":"01855","locality":"Sebnitz","municipality":{"key":"14628360","name":"Sebnitz, Stadt","type":"Stadt"},"district":{"key":"14628","name":"Sächsische Schweiz-Osterzgebirge","type":"Landkreis"},"federalState":{"key":"14","name":"Sachsen"}},{"name":"Sturms Weg","postalCode":"01855","locality":"Sebnitz","municipality":{"key":"14628360","name":"Sebnitz, Stadt","type":"Stadt"},"district":{"key":"14628","name":"Sächsische Schweiz-Osterzgebirge","type":"Landkreis"},"federalState":{"key":"14","name":"Sachsen"}},{"name":"Südstr.","postalCode":"01855","locality":"Sebnitz","municipality":{"key":"14628360","name":"Sebnitz, Stadt","type":"Stadt"},"district":{"key":"14628","name":"Sächsische Schweiz-Osterzgebirge","type":"Landkreis"},"federalState":{"key":"14","name":"Sachsen"}},{"name":"Talstr.","postalCode":"01855","locality":"Sebnitz","municipality":{"key":"14628360","name":"Sebnitz, Stadt","type":"Stadt"},"district":{"key":"14628","name":"Sächsische Schweiz-Osterzgebirge","type":"Landkreis"},"federalState":{"key":"14","name":"Sachsen"}},{"name":"Tannertstr.","postalCode":"01855","locality":"Sebnitz","municipality":{"key":"14628360","name":"Sebnitz, Stadt","type":"Stadt"},"district":{"key":"14628","name":"Sächsische Schweiz-Osterzgebirge","type":"Landkreis"},"federalState":{"key":"14","name":"Sachsen"}},{"name":"Taubenstellige","postalCode":"01855","locality":"Sebnitz","municipality":{"key":"14628360","name":"Sebnitz, Stadt","type":"Stadt"},"district":{"key":"14628","name":"Sächsische Schweiz-Osterzgebirge","type":"Landkreis"},"federalState":{"key":"14","name":"Sachsen"}},{"name":"Thorwaldbrücke","postalCode":"01855","locality":"Sebnitz","municipality":{"key":"14628360","name":"Sebnitz, Stadt","type":"Stadt"},"district":{"key":"14628","name":"Sächsische Schweiz-Osterzgebirge","type":"Landkreis"},"federalState":{"key":"14","name":"Sachsen"}},{"name":"Thorwaldweg","postalCode":"01855","locality":"Sebnitz","municipality":{"key":"14628360","name":"Sebnitz, Stadt","type":"Stadt"},"district":{"key":"14628","name":"Sächsische Schweiz-Osterzgebirge","type":"Landkreis"},"federalState":{"key":"14","name":"Sachsen"}},{"name":"Tiefer Hahn","postalCode":"01855","locality":"Sebnitz","municipality":{"key":"14628360","name":"Sebnitz, Stadt","type":"Stadt"},"district":{"key":"14628","name":"Sächsische Schweiz-Osterzgebirge","type":"Landkreis"},"federalState":{"key":"14","name":"Sachsen"}},{"name":"Töpferschlüchte","postalCode":"01855","locality":"Sebnitz","municipality":{"key":"14628360","name":"Sebnitz, Stadt","type":"Stadt"},"district":{"key":"14628","name":"Sächsische Schweiz-Osterzgebirge","type":"Landkreis"},"federalState":{"key":"14","name":"Sachsen"}},{"name":"Trägnerweg","postalCode":"01855","locality":"Sebnitz","municipality":{"key":"14628360","name":"Sebnitz, Stadt","type":"Stadt"},"district":{"key":"14628","name":"Sächsische Schweiz-Osterzgebirge","type":"Landkreis"},"federalState":{"key":"14","name":"Sachsen"}},{"name":"Traugottsteinweg","postalCode":"01855","locality":"Sebnitz","municipality":{"key":"14628360","name":"Sebnitz, Stadt","type":"Stadt"},"district":{"key":"14628","name":"Sächsische Schweiz-Osterzgebirge","type":"Landkreis"},"federalState":{"key":"14","name":"Sachsen"}},{"name":"Tunnelweg","postalCode":"01855","locality":"Sebnitz","municipality":{"key":"14628360","name":"Sebnitz, Stadt","type":"Stadt"},"district":{"key":"14628","name":"Sächsische Schweiz-Osterzgebirge","type":"Landkreis"},"federalState":{"key":"14","name":"Sachsen"}},{"name":"Turnerstr.","postalCode":"01855","locality":"Sebnitz","municipality":{"key":"14628360","name":"Sebnitz, Stadt","type":"Stadt"},"district":{"key":"14628","name":"Sächsische Schweiz-Osterzgebirge","type":"Landkreis"},"federalState":{"key":"14","name":"Sachsen"}},{"name":"Ulbersdorfer Weg","postalCode":"01855","locality":"Sebnitz","municipality":{"key":"14628360","name":"Sebnitz, Stadt","type":"Stadt"},"district":{"key":"14628","name":"Sächsische Schweiz-Osterzgebirge","type":"Landkreis"},"federalState":{"key":"14","name":"Sachsen"}},{"name":"Ungerweg","postalCode":"01855","locality":"Sebnitz","municipality":{"key":"14628360","name":"Sebnitz, Stadt","type":"Stadt"},"district":{"key":"14628","name":"Sächsische Schweiz-Osterzgebirge","type":"Landkreis"},"federalState":{"key":"14","name":"Sachsen"}},{"name":"Untere Dorfstr.","postalCode":"01855","locality":"Sebnitz","municipality":{"key":"14628360","name":"Sebnitz, Stadt","type":"Stadt"},"district":{"key":"14628","name":"Sächsische Schweiz-Osterzgebirge","type":"Landkreis"},"federalState":{"key":"14","name":"Sachsen"}},{"name":"Verbindungsweg","postalCode":"01855","locality":"Sebnitz","municipality":{"key":"14628360","name":"Sebnitz, Stadt","type":"Stadt"},"district":{"key":"14628","name":"Sächsische Schweiz-Osterzgebirge","type":"Landkreis"},"federalState":{"key":"14","name":"Sachsen"}},{"name":"Vogelberg","postalCode":"01855","locality":"Sebnitz","municipality":{"key":"14628360","name":"Sebnitz, Stadt","type":"Stadt"},"district":{"key":"14628","name":"Sächsische Schweiz-Osterzgebirge","type":"Landkreis"},"federalState":{"key":"14","name":"Sachsen"}},{"name":"Vordere Pechschlüchte","postalCode":"01855","locality":"Sebnitz","municipality":{"key":"14628360","name":"Sebnitz, Stadt","type":"Stadt"},"district":{"key":"14628","name":"Sächsische Schweiz-Osterzgebirge","type":"Landkreis"},"federalState":{"key":"14","name":"Sachsen"}},{"name":"Vorderer Thorwaldweg","postalCode":"01855","locality":"Sebnitz","municipality":{"key":"14628360","name":"Sebnitz, Stadt","type":"Stadt"},"district":{"key":"14628","name":"Sächsische Schweiz-Osterzgebirge","type":"Landkreis"},"federalState":{"key":"14","name":"Sachsen"}},{"name":"Vorderes Schweineloch","postalCode":"01855","locality":"Sebnitz","municipality":{"key":"14628360","name":"Sebnitz, Stadt","type":"Stadt"},"district":{"key":"14628","name":"Sächsische Schweiz-Osterzgebirge","type":"Landkreis"},"federalState":{"key":"14","name":"Sachsen"}},{"name":"Wachbergstr.","postalCode":"01855","locality":"Sebnitz","municipality":{"key":"14628360","name":"Sebnitz, Stadt","type":"Stadt"},"district":{"key":"14628","name":"Sächsische Schweiz-Osterzgebirge","type":"Landkreis"},"federalState":{"key":"14","name":"Sachsen"}},{"name":"Waldblick","postalCode":"01855","locality":"Sebnitz","municipality":{"key":"14628360","name":"Sebnitz, Stadt","type":"Stadt"},"district":{"key":"14628","name":"Sächsische Schweiz-Osterzgebirge","type":"Landkreis"},"federalState":{"key":"14","name":"Sachsen"}},{"name":"Waldhusche","postalCode":"01855","locality":"Sebnitz","municipality":{"key":"14628360","name":"Sebnitz, Stadt","type":"Stadt"},"district":{"key":"14628","name":"Sächsische Schweiz-Osterzgebirge","type":"Landkreis"},"federalState":{"key":"14","name":"Sachsen"}},{"name":"Waldstr.","postalCode":"01855","locality":"Sebnitz","municipality":{"key":"14628360","name":"Sebnitz, Stadt","type":"Stadt"},"district":{"key":"14628","name":"Sächsische Schweiz-Osterzgebirge","type":"Landkreis"},"federalState":{"key":"14","name":"Sachsen"}},{"name":"Walther-Wolff-Str.","postalCode":"01855","locality":"Sebnitz","municipality":{"key":"14628360","name":"Sebnitz, Stadt","type":"Stadt"},"district":{"key":"14628","name":"Sächsische Schweiz-Osterzgebirge","type":"Landkreis"},"federalState":{"key":"14","name":"Sachsen"}},{"name":"Weberstr.","postalCode":"01855","locality":"Sebnitz","municipality":{"key":"14628360","name":"Sebnitz, Stadt","type":"Stadt"},"district":{"key":"14628","name":"Sächsische Schweiz-Osterzgebirge","type":"Landkreis"},"federalState":{"key":"14","name":"Sachsen"}},{"name":"Weifbergstr.","postalCode":"01855","locality":"Sebnitz","municipality":{"key":"14628360","name":"Sebnitz, Stadt","type":"Stadt"},"district":{"key":"14628","name":"Sächsische Schweiz-Osterzgebirge","type":"Landkreis"},"federalState":{"key":"14","name":"Sachsen"}},{"name":"Weinbergstr.","postalCode":"01855","locality":"Sebnitz","municipality":{"key":"14628360","name":"Sebnitz, Stadt","type":"Stadt"},"district":{"key":"14628","name":"Sächsische Schweiz-Osterzgebirge","type":"Landkreis"},"federalState":{"key":"14","name":"Sachsen"}},{"name":"Weißbachweg","postalCode":"01855","locality":"Sebnitz","municipality":{"key":"14628360","name":"Sebnitz, Stadt","type":"Stadt"},"district":{"key":"14628","name":"Sächsische Schweiz-Osterzgebirge","type":"Landkreis"},"federalState":{"key":"14","name":"Sachsen"}},{"name":"Wettinweg","postalCode":"01855","locality":"Sebnitz","municipality":{"key":"14628360","name":"Sebnitz, Stadt","type":"Stadt"},"district":{"key":"14628","name":"Sächsische Schweiz-Osterzgebirge","type":"Landkreis"},"federalState":{"key":"14","name":"Sachsen"}},{"name":"Wickelkindweg","postalCode":"01855","locality":"Sebnitz","municipality":{"key":"14628360","name":"Sebnitz, Stadt","type":"Stadt"},"district":{"key":"14628","name":"Sächsische Schweiz-Osterzgebirge","type":"Landkreis"},"federalState":{"key":"14","name":"Sachsen"}},{"name":"Wiesenweg","postalCode":"01855","locality":"Sebnitz","municipality":{"key":"14628360","name":"Sebnitz, Stadt","type":"Stadt"},"district":{"key":"14628","name":"Sächsische Schweiz-Osterzgebirge","type":"Landkreis"},"federalState":{"key":"14","name":"Sachsen"}},{"name":"Wilhelm-Schindler-Weg","postalCode":"01855","locality":"Sebnitz","municipality":{"key":"14628360","name":"Sebnitz, Stadt","type":"Stadt"},"district":{"key":"14628","name":"Sächsische Schweiz-Osterzgebirge","type":"Landkreis"},"federalState":{"key":"14","name":"Sachsen"}},{"name":"Wirtschaftsweg Kuhstall","postalCode":"01855","locality":"Sebnitz","municipality":{"key":"14628360","name":"Sebnitz, Stadt","type":"Stadt"},"district":{"key":"14628","name":"Sächsische Schweiz-Osterzgebirge","type":"Landkreis"},"federalState":{"key":"14","name":"Sachsen"}},{"name":"Wustmanndörfel","postalCode":"01855","locality":"Sebnitz","municipality":{"key":"14628360","name":"Sebnitz, Stadt","type":"Stadt"},"district":{"key":"14628","name":"Sächsische Schweiz-Osterzgebirge","type":"Landkreis"},"federalState":{"key":"14","name":"Sachsen"}},{"name":"Zeidlerweg","postalCode":"01855","locality":"Sebnitz","municipality":{"key":"14628360","name":"Sebnitz, Stadt","type":"Stadt"},"district":{"key":"14628","name":"Sächsische Schweiz-Osterzgebirge","type":"Landkreis"},"federalState":{"key":"14","name":"Sachsen"}},{"name":"Zeughausstr.","postalCode":"01855","locality":"Sebnitz","municipality":{"key":"14628360","name":"Sebnitz, Stadt","type":"Stadt"},"district":{"key":"14628","name":"Sächsische Schweiz-Osterzgebirge","type":"Landkreis"},"federalState":{"key":"14","name":"Sachsen"}},{"name":"Zollstr.","postalCode":"01855","locality":"Sebnitz","municipality":{"key":"14628360","name":"Sebnitz, Stadt","type":"Stadt"},"district":{"key":"14628","name":"Sächsische Schweiz-Osterzgebirge","type":"Landkreis"},"federalState":{"key":"14","name":"Sachsen"}},{"name":"Zum Hegebusch","postalCode":"01855","locality":"Sebnitz","municipality":{"key":"14628360","name":"Sebnitz, Stadt","type":"Stadt"},"district":{"key":"14628","name":"Sächsische Schweiz-Osterzgebirge","type":"Landkreis"},"federalState":{"key":"14","name":"Sachsen"}},{"name":"Zwingerstr.","postalCode":"01855","locality":"Sebnitz","municipality":{"key":"14628360","name":"Sebnitz, Stadt","type":"Stadt"},"district":{"key":"14628","name":"Sächsische Schweiz-Osterzgebirge","type":"Landkreis"},"federalState":{"key":"14","name":"Sachsen"}},]