[{"name":"Adolf-Edel-Str.","postalCode":"56410","locality":"Montabaur","municipality":{"key":"07143048","name":"Montabaur, Stadt","type":"Stadt"},"district":{"key":"07143","name":"Westerwaldkreis","type":"Landkreis"},"federalState":{"key":"07","name":"Rheinland-Pfalz"}},{"name":"Akazienstr.","postalCode":"56410","locality":"Montabaur","municipality":{"key":"07143048","name":"Montabaur, Stadt","type":"Stadt"},"district":{"key":"07143","name":"Westerwaldkreis","type":"Landkreis"},"federalState":{"key":"07","name":"Rheinland-Pfalz"}},{"name":"Albertstr.","postalCode":"56410","locality":"Montabaur","municipality":{"key":"07143048","name":"Montabaur, Stadt","type":"Stadt"},"district":{"key":"07143","name":"Westerwaldkreis","type":"Landkreis"},"federalState":{"key":"07","name":"Rheinland-Pfalz"}},{"name":"Alleestr.","postalCode":"56410","locality":"Montabaur","municipality":{"key":"07143048","name":"Montabaur, Stadt","type":"Stadt"},"district":{"key":"07143","name":"Westerwaldkreis","type":"Landkreis"},"federalState":{"key":"07","name":"Rheinland-Pfalz"}},{"name":"Allmannshausen","postalCode":"56410","locality":"Montabaur","municipality":{"key":"07143048","name":"Montabaur, Stadt","type":"Stadt"},"district":{"key":"07143","name":"Westerwaldkreis","type":"Landkreis"},"federalState":{"key":"07","name":"Rheinland-Pfalz"}},{"name":"Alois-Jäger-Platz","postalCode":"56410","locality":"Montabaur","municipality":{"key":"07143048","name":"Montabaur, Stadt","type":"Stadt"},"district":{"key":"07143","name":"Westerwaldkreis","type":"Landkreis"},"federalState":{"key":"07","name":"Rheinland-Pfalz"}},{"name":"Alois-Skatulla-Str.","postalCode":"56410","locality":"Montabaur","municipality":{"key":"07143048","name":"Montabaur, Stadt","type":"Stadt"},"district":{"key":"07143","name":"Westerwaldkreis","type":"Landkreis"},"federalState":{"key":"07","name":"Rheinland-Pfalz"}},{"name":"Alte Koblenzer Str.","postalCode":"56410","locality":"Montabaur","municipality":{"key":"07143048","name":"Montabaur, Stadt","type":"Stadt"},"district":{"key":"07143","name":"Westerwaldkreis","type":"Landkreis"},"federalState":{"key":"07","name":"Rheinland-Pfalz"}},{"name":"Alte Koblenzer Str. \"Chaussee\"","postalCode":"56410","locality":"Montabaur","municipality":{"key":"07143048","name":"Montabaur, Stadt","type":"Stadt"},"district":{"key":"07143","name":"Westerwaldkreis","type":"Landkreis"},"federalState":{"key":"07","name":"Rheinland-Pfalz"}},{"name":"alter Kirchhof \"Gebück\"","postalCode":"56410","locality":"Montabaur","municipality":{"key":"07143048","name":"Montabaur, Stadt","type":"Stadt"},"district":{"key":"07143","name":"Westerwaldkreis","type":"Landkreis"},"federalState":{"key":"07","name":"Rheinland-Pfalz"}},{"name":"Altstr.","postalCode":"56410","locality":"Montabaur","municipality":{"key":"07143048","name":"Montabaur, Stadt","type":"Stadt"},"district":{"key":"07143","name":"Westerwaldkreis","type":"Landkreis"},"federalState":{"key":"07","name":"Rheinland-Pfalz"}},{"name":"Am Alten Galgen","postalCode":"56410","locality":"Montabaur","municipality":{"key":"07143048","name":"Montabaur, Stadt","type":"Stadt"},"district":{"key":"07143","name":"Westerwaldkreis","type":"Landkreis"},"federalState":{"key":"07","name":"Rheinland-Pfalz"}},{"name":"Am Alten Sportplatz","postalCode":"56410","locality":"Montabaur","municipality":{"key":"07143048","name":"Montabaur, Stadt","type":"Stadt"},"district":{"key":"07143","name":"Westerwaldkreis","type":"Landkreis"},"federalState":{"key":"07","name":"Rheinland-Pfalz"}},{"name":"Am Aubachsee","postalCode":"56410","locality":"Montabaur","municipality":{"key":"07143048","name":"Montabaur, Stadt","type":"Stadt"},"district":{"key":"07143","name":"Westerwaldkreis","type":"Landkreis"},"federalState":{"key":"07","name":"Rheinland-Pfalz"}},{"name":"Am Biebrichsbach","postalCode":"56410","locality":"Montabaur","municipality":{"key":"07143048","name":"Montabaur, Stadt","type":"Stadt"},"district":{"key":"07143","name":"Westerwaldkreis","type":"Landkreis"},"federalState":{"key":"07","name":"Rheinland-Pfalz"}},{"name":"Am Bornrain","postalCode":"56410","locality":"Montabaur","municipality":{"key":"07143048","name":"Montabaur, Stadt","type":"Stadt"},"district":{"key":"07143","name":"Westerwaldkreis","type":"Landkreis"},"federalState":{"key":"07","name":"Rheinland-Pfalz"}},{"name":"Am Festplatz","postalCode":"56410","locality":"Montabaur","municipality":{"key":"07143048","name":"Montabaur, Stadt","type":"Stadt"},"district":{"key":"07143","name":"Westerwaldkreis","type":"Landkreis"},"federalState":{"key":"07","name":"Rheinland-Pfalz"}},{"name":"Am Gäulsbach","postalCode":"56410","locality":"Montabaur","municipality":{"key":"07143048","name":"Montabaur, Stadt","type":"Stadt"},"district":{"key":"07143","name":"Westerwaldkreis","type":"Landkreis"},"federalState":{"key":"07","name":"Rheinland-Pfalz"}},{"name":"Am Himmelfeld","postalCode":"56410","locality":"Montabaur","municipality":{"key":"07143048","name":"Montabaur, Stadt","type":"Stadt"},"district":{"key":"07143","name":"Westerwaldkreis","type":"Landkreis"},"federalState":{"key":"07","name":"Rheinland-Pfalz"}},{"name":"Am Hitzeberg","postalCode":"56410","locality":"Montabaur","municipality":{"key":"07143048","name":"Montabaur, Stadt","type":"Stadt"},"district":{"key":"07143","name":"Westerwaldkreis","type":"Landkreis"},"federalState":{"key":"07","name":"Rheinland-Pfalz"}},{"name":"Am Mühlrain","postalCode":"56410","locality":"Montabaur","municipality":{"key":"07143048","name":"Montabaur, Stadt","type":"Stadt"},"district":{"key":"07143","name":"Westerwaldkreis","type":"Landkreis"},"federalState":{"key":"07","name":"Rheinland-Pfalz"}},{"name":"Am Quendelberg","postalCode":"56410","locality":"Montabaur","municipality":{"key":"07143048","name":"Montabaur, Stadt","type":"Stadt"},"district":{"key":"07143","name":"Westerwaldkreis","type":"Landkreis"},"federalState":{"key":"07","name":"Rheinland-Pfalz"}},{"name":"Amselstr.","postalCode":"56410","locality":"Montabaur","municipality":{"key":"07143048","name":"Montabaur, Stadt","type":"Stadt"},"district":{"key":"07143","name":"Westerwaldkreis","type":"Landkreis"},"federalState":{"key":"07","name":"Rheinland-Pfalz"}},{"name":"Am Spießweiher","postalCode":"56410","locality":"Montabaur","municipality":{"key":"07143048","name":"Montabaur, Stadt","type":"Stadt"},"district":{"key":"07143","name":"Westerwaldkreis","type":"Landkreis"},"federalState":{"key":"07","name":"Rheinland-Pfalz"}},{"name":"Am Walde","postalCode":"56410","locality":"Montabaur","municipality":{"key":"07143048","name":"Montabaur, Stadt","type":"Stadt"},"district":{"key":"07143","name":"Westerwaldkreis","type":"Landkreis"},"federalState":{"key":"07","name":"Rheinland-Pfalz"}},{"name":"Am Wassergraben","postalCode":"56410","locality":"Montabaur","municipality":{"key":"07143048","name":"Montabaur, Stadt","type":"Stadt"},"district":{"key":"07143","name":"Westerwaldkreis","type":"Landkreis"},"federalState":{"key":"07","name":"Rheinland-Pfalz"}},{"name":"Am Wolfsturm","postalCode":"56410","locality":"Montabaur","municipality":{"key":"07143048","name":"Montabaur, Stadt","type":"Stadt"},"district":{"key":"07143","name":"Westerwaldkreis","type":"Landkreis"},"federalState":{"key":"07","name":"Rheinland-Pfalz"}},{"name":"Asterstr.","postalCode":"56410","locality":"Montabaur","municipality":{"key":"07143048","name":"Montabaur, Stadt","type":"Stadt"},"district":{"key":"07143","name":"Westerwaldkreis","type":"Landkreis"},"federalState":{"key":"07","name":"Rheinland-Pfalz"}},{"name":"Aubachstr.","postalCode":"56410","locality":"Montabaur","municipality":{"key":"07143048","name":"Montabaur, Stadt","type":"Stadt"},"district":{"key":"07143","name":"Westerwaldkreis","type":"Landkreis"},"federalState":{"key":"07","name":"Rheinland-Pfalz"}},{"name":"Auerhahnstr.","postalCode":"56410","locality":"Montabaur","municipality":{"key":"07143048","name":"Montabaur, Stadt","type":"Stadt"},"district":{"key":"07143","name":"Westerwaldkreis","type":"Landkreis"},"federalState":{"key":"07","name":"Rheinland-Pfalz"}},{"name":"Auf dem Alten Hof","postalCode":"56410","locality":"Montabaur","municipality":{"key":"07143048","name":"Montabaur, Stadt","type":"Stadt"},"district":{"key":"07143","name":"Westerwaldkreis","type":"Landkreis"},"federalState":{"key":"07","name":"Rheinland-Pfalz"}},{"name":"Auf dem Kalk","postalCode":"56410","locality":"Montabaur","municipality":{"key":"07143048","name":"Montabaur, Stadt","type":"Stadt"},"district":{"key":"07143","name":"Westerwaldkreis","type":"Landkreis"},"federalState":{"key":"07","name":"Rheinland-Pfalz"}},{"name":"Auf der Heide","postalCode":"56410","locality":"Montabaur","municipality":{"key":"07143048","name":"Montabaur, Stadt","type":"Stadt"},"district":{"key":"07143","name":"Westerwaldkreis","type":"Landkreis"},"federalState":{"key":"07","name":"Rheinland-Pfalz"}},{"name":"Auf der Ochsenheide","postalCode":"56410","locality":"Montabaur","municipality":{"key":"07143048","name":"Montabaur, Stadt","type":"Stadt"},"district":{"key":"07143","name":"Westerwaldkreis","type":"Landkreis"},"federalState":{"key":"07","name":"Rheinland-Pfalz"}},{"name":"Auf der Trift","postalCode":"56410","locality":"Montabaur","municipality":{"key":"07143048","name":"Montabaur, Stadt","type":"Stadt"},"district":{"key":"07143","name":"Westerwaldkreis","type":"Landkreis"},"federalState":{"key":"07","name":"Rheinland-Pfalz"}},{"name":"Bachstelzenweg","postalCode":"56410","locality":"Montabaur","municipality":{"key":"07143048","name":"Montabaur, Stadt","type":"Stadt"},"district":{"key":"07143","name":"Westerwaldkreis","type":"Landkreis"},"federalState":{"key":"07","name":"Rheinland-Pfalz"}},{"name":"Bahnallee","postalCode":"56410","locality":"Montabaur","municipality":{"key":"07143048","name":"Montabaur, Stadt","type":"Stadt"},"district":{"key":"07143","name":"Westerwaldkreis","type":"Landkreis"},"federalState":{"key":"07","name":"Rheinland-Pfalz"}},{"name":"Bahnhofsplatz","postalCode":"56410","locality":"Montabaur","municipality":{"key":"07143048","name":"Montabaur, Stadt","type":"Stadt"},"district":{"key":"07143","name":"Westerwaldkreis","type":"Landkreis"},"federalState":{"key":"07","name":"Rheinland-Pfalz"}},{"name":"Bahnhofstr.","postalCode":"56410","locality":"Montabaur","municipality":{"key":"07143048","name":"Montabaur, Stadt","type":"Stadt"},"district":{"key":"07143","name":"Westerwaldkreis","type":"Landkreis"},"federalState":{"key":"07","name":"Rheinland-Pfalz"}},{"name":"Barbarastr.","postalCode":"56410","locality":"Montabaur","municipality":{"key":"07143048","name":"Montabaur, Stadt","type":"Stadt"},"district":{"key":"07143","name":"Westerwaldkreis","type":"Landkreis"},"federalState":{"key":"07","name":"Rheinland-Pfalz"}},{"name":"Baumbacher Str.","postalCode":"56410","locality":"Montabaur","municipality":{"key":"07143048","name":"Montabaur, Stadt","type":"Stadt"},"district":{"key":"07143","name":"Westerwaldkreis","type":"Landkreis"},"federalState":{"key":"07","name":"Rheinland-Pfalz"}},{"name":"Beethovenstr.","postalCode":"56410","locality":"Montabaur","municipality":{"key":"07143048","name":"Montabaur, Stadt","type":"Stadt"},"district":{"key":"07143","name":"Westerwaldkreis","type":"Landkreis"},"federalState":{"key":"07","name":"Rheinland-Pfalz"}},{"name":"Bergstr.","postalCode":"56410","locality":"Montabaur","municipality":{"key":"07143048","name":"Montabaur, Stadt","type":"Stadt"},"district":{"key":"07143","name":"Westerwaldkreis","type":"Landkreis"},"federalState":{"key":"07","name":"Rheinland-Pfalz"}},{"name":"Berliner Str.","postalCode":"56410","locality":"Montabaur","municipality":{"key":"07143048","name":"Montabaur, Stadt","type":"Stadt"},"district":{"key":"07143","name":"Westerwaldkreis","type":"Landkreis"},"federalState":{"key":"07","name":"Rheinland-Pfalz"}},{"name":"Biergasse","postalCode":"56410","locality":"Montabaur","municipality":{"key":"07143048","name":"Montabaur, Stadt","type":"Stadt"},"district":{"key":"07143","name":"Westerwaldkreis","type":"Landkreis"},"federalState":{"key":"07","name":"Rheinland-Pfalz"}},{"name":"Birkenweg","postalCode":"56410","locality":"Montabaur","municipality":{"key":"07143048","name":"Montabaur, Stadt","type":"Stadt"},"district":{"key":"07143","name":"Westerwaldkreis","type":"Landkreis"},"federalState":{"key":"07","name":"Rheinland-Pfalz"}},{"name":"Boeselagerstr.","postalCode":"56410","locality":"Montabaur","municipality":{"key":"07143048","name":"Montabaur, Stadt","type":"Stadt"},"district":{"key":"07143","name":"Westerwaldkreis","type":"Landkreis"},"federalState":{"key":"07","name":"Rheinland-Pfalz"}},{"name":"Bonhoefferstr.","postalCode":"56410","locality":"Montabaur","municipality":{"key":"07143048","name":"Montabaur, Stadt","type":"Stadt"},"district":{"key":"07143","name":"Westerwaldkreis","type":"Landkreis"},"federalState":{"key":"07","name":"Rheinland-Pfalz"}},{"name":"Bonner Str.","postalCode":"56410","locality":"Montabaur","municipality":{"key":"07143048","name":"Montabaur, Stadt","type":"Stadt"},"district":{"key":"07143","name":"Westerwaldkreis","type":"Landkreis"},"federalState":{"key":"07","name":"Rheinland-Pfalz"}},{"name":"Bornweg","postalCode":"56410","locality":"Montabaur","municipality":{"key":"07143048","name":"Montabaur, Stadt","type":"Stadt"},"district":{"key":"07143","name":"Westerwaldkreis","type":"Landkreis"},"federalState":{"key":"07","name":"Rheinland-Pfalz"}},{"name":"Bornwiesenstr.","postalCode":"56410","locality":"Montabaur","municipality":{"key":"07143048","name":"Montabaur, Stadt","type":"Stadt"},"district":{"key":"07143","name":"Westerwaldkreis","type":"Landkreis"},"federalState":{"key":"07","name":"Rheinland-Pfalz"}},{"name":"Brackleystr.","postalCode":"56410","locality":"Montabaur","municipality":{"key":"07143048","name":"Montabaur, Stadt","type":"Stadt"},"district":{"key":"07143","name":"Westerwaldkreis","type":"Landkreis"},"federalState":{"key":"07","name":"Rheinland-Pfalz"}},{"name":"Breslauer Str.","postalCode":"56410","locality":"Montabaur","municipality":{"key":"07143048","name":"Montabaur, Stadt","type":"Stadt"},"district":{"key":"07143","name":"Westerwaldkreis","type":"Landkreis"},"federalState":{"key":"07","name":"Rheinland-Pfalz"}},{"name":"Brückenstr.","postalCode":"56410","locality":"Montabaur","municipality":{"key":"07143048","name":"Montabaur, Stadt","type":"Stadt"},"district":{"key":"07143","name":"Westerwaldkreis","type":"Landkreis"},"federalState":{"key":"07","name":"Rheinland-Pfalz"}},{"name":"Brunnenstr.","postalCode":"56410","locality":"Montabaur","municipality":{"key":"07143048","name":"Montabaur, Stadt","type":"Stadt"},"district":{"key":"07143","name":"Westerwaldkreis","type":"Landkreis"},"federalState":{"key":"07","name":"Rheinland-Pfalz"}},{"name":"Buchenstr.","postalCode":"56410","locality":"Montabaur","municipality":{"key":"07143048","name":"Montabaur, Stadt","type":"Stadt"},"district":{"key":"07143","name":"Westerwaldkreis","type":"Landkreis"},"federalState":{"key":"07","name":"Rheinland-Pfalz"}},{"name":"Burgstr.","postalCode":"56410","locality":"Montabaur","municipality":{"key":"07143048","name":"Montabaur, Stadt","type":"Stadt"},"district":{"key":"07143","name":"Westerwaldkreis","type":"Landkreis"},"federalState":{"key":"07","name":"Rheinland-Pfalz"}},{"name":"Colletstr.","postalCode":"56410","locality":"Montabaur","municipality":{"key":"07143048","name":"Montabaur, Stadt","type":"Stadt"},"district":{"key":"07143","name":"Westerwaldkreis","type":"Landkreis"},"federalState":{"key":"07","name":"Rheinland-Pfalz"}},{"name":"Dahlienstr.","postalCode":"56410","locality":"Montabaur","municipality":{"key":"07143048","name":"Montabaur, Stadt","type":"Stadt"},"district":{"key":"07143","name":"Westerwaldkreis","type":"Landkreis"},"federalState":{"key":"07","name":"Rheinland-Pfalz"}},{"name":"Densenaustr.","postalCode":"56410","locality":"Montabaur","municipality":{"key":"07143048","name":"Montabaur, Stadt","type":"Stadt"},"district":{"key":"07143","name":"Westerwaldkreis","type":"Landkreis"},"federalState":{"key":"07","name":"Rheinland-Pfalz"}},{"name":"Dernbacher Str.","postalCode":"56410","locality":"Montabaur","municipality":{"key":"07143048","name":"Montabaur, Stadt","type":"Stadt"},"district":{"key":"07143","name":"Westerwaldkreis","type":"Landkreis"},"federalState":{"key":"07","name":"Rheinland-Pfalz"}},{"name":"Dillstr.","postalCode":"56410","locality":"Montabaur","municipality":{"key":"07143048","name":"Montabaur, Stadt","type":"Stadt"},"district":{"key":"07143","name":"Westerwaldkreis","type":"Landkreis"},"federalState":{"key":"07","name":"Rheinland-Pfalz"}},{"name":"Drosselweg","postalCode":"56410","locality":"Montabaur","municipality":{"key":"07143048","name":"Montabaur, Stadt","type":"Stadt"},"district":{"key":"07143","name":"Westerwaldkreis","type":"Landkreis"},"federalState":{"key":"07","name":"Rheinland-Pfalz"}},{"name":"Dr.-Reinhold-Fuchs-Weg","postalCode":"56410","locality":"Montabaur","municipality":{"key":"07143048","name":"Montabaur, Stadt","type":"Stadt"},"district":{"key":"07143","name":"Westerwaldkreis","type":"Landkreis"},"federalState":{"key":"07","name":"Rheinland-Pfalz"}},{"name":"Ederstr.","postalCode":"56410","locality":"Montabaur","municipality":{"key":"07143048","name":"Montabaur, Stadt","type":"Stadt"},"district":{"key":"07143","name":"Westerwaldkreis","type":"Landkreis"},"federalState":{"key":"07","name":"Rheinland-Pfalz"}},{"name":"Eichendorffstr.","postalCode":"56410","locality":"Montabaur","municipality":{"key":"07143048","name":"Montabaur, Stadt","type":"Stadt"},"district":{"key":"07143","name":"Westerwaldkreis","type":"Landkreis"},"federalState":{"key":"07","name":"Rheinland-Pfalz"}},{"name":"Eichenweg","postalCode":"56410","locality":"Montabaur","municipality":{"key":"07143048","name":"Montabaur, Stadt","type":"Stadt"},"district":{"key":"07143","name":"Westerwaldkreis","type":"Landkreis"},"federalState":{"key":"07","name":"Rheinland-Pfalz"}},{"name":"Eifelstr.","postalCode":"56410","locality":"Montabaur","municipality":{"key":"07143048","name":"Montabaur, Stadt","type":"Stadt"},"district":{"key":"07143","name":"Westerwaldkreis","type":"Landkreis"},"federalState":{"key":"07","name":"Rheinland-Pfalz"}},{"name":"Elbestr.","postalCode":"56410","locality":"Montabaur","municipality":{"key":"07143048","name":"Montabaur, Stadt","type":"Stadt"},"district":{"key":"07143","name":"Westerwaldkreis","type":"Landkreis"},"federalState":{"key":"07","name":"Rheinland-Pfalz"}},{"name":"Elgendorfer Str.","postalCode":"56410","locality":"Montabaur","municipality":{"key":"07143048","name":"Montabaur, Stadt","type":"Stadt"},"district":{"key":"07143","name":"Westerwaldkreis","type":"Landkreis"},"federalState":{"key":"07","name":"Rheinland-Pfalz"}},{"name":"Elisabethenstr.","postalCode":"56410","locality":"Montabaur","municipality":{"key":"07143048","name":"Montabaur, Stadt","type":"Stadt"},"district":{"key":"07143","name":"Westerwaldkreis","type":"Landkreis"},"federalState":{"key":"07","name":"Rheinland-Pfalz"}},{"name":"Eschelbacher Au","postalCode":"56410","locality":"Montabaur","municipality":{"key":"07143048","name":"Montabaur, Stadt","type":"Stadt"},"district":{"key":"07143","name":"Westerwaldkreis","type":"Landkreis"},"federalState":{"key":"07","name":"Rheinland-Pfalz"}},{"name":"Eschelbacher Str.","postalCode":"56410","locality":"Montabaur","municipality":{"key":"07143048","name":"Montabaur, Stadt","type":"Stadt"},"district":{"key":"07143","name":"Westerwaldkreis","type":"Landkreis"},"federalState":{"key":"07","name":"Rheinland-Pfalz"}},{"name":"Färberbachstr.","postalCode":"56410","locality":"Montabaur","municipality":{"key":"07143048","name":"Montabaur, Stadt","type":"Stadt"},"district":{"key":"07143","name":"Westerwaldkreis","type":"Landkreis"},"federalState":{"key":"07","name":"Rheinland-Pfalz"}},{"name":"Fasanenallee","postalCode":"56410","locality":"Montabaur","municipality":{"key":"07143048","name":"Montabaur, Stadt","type":"Stadt"},"district":{"key":"07143","name":"Westerwaldkreis","type":"Landkreis"},"federalState":{"key":"07","name":"Rheinland-Pfalz"}},{"name":"Finkenweg","postalCode":"56410","locality":"Montabaur","municipality":{"key":"07143048","name":"Montabaur, Stadt","type":"Stadt"},"district":{"key":"07143","name":"Westerwaldkreis","type":"Landkreis"},"federalState":{"key":"07","name":"Rheinland-Pfalz"}},{"name":"Fliederstr.","postalCode":"56410","locality":"Montabaur","municipality":{"key":"07143048","name":"Montabaur, Stadt","type":"Stadt"},"district":{"key":"07143","name":"Westerwaldkreis","type":"Landkreis"},"federalState":{"key":"07","name":"Rheinland-Pfalz"}},{"name":"Freiherr-vom-Stein-Str.","postalCode":"56410","locality":"Montabaur","municipality":{"key":"07143048","name":"Montabaur, Stadt","type":"Stadt"},"district":{"key":"07143","name":"Westerwaldkreis","type":"Landkreis"},"federalState":{"key":"07","name":"Rheinland-Pfalz"}},{"name":"Friedensstr.","postalCode":"56410","locality":"Montabaur","municipality":{"key":"07143048","name":"Montabaur, Stadt","type":"Stadt"},"district":{"key":"07143","name":"Westerwaldkreis","type":"Landkreis"},"federalState":{"key":"07","name":"Rheinland-Pfalz"}},{"name":"Friedhofsweg","postalCode":"56410","locality":"Montabaur","municipality":{"key":"07143048","name":"Montabaur, Stadt","type":"Stadt"},"district":{"key":"07143","name":"Westerwaldkreis","type":"Landkreis"},"federalState":{"key":"07","name":"Rheinland-Pfalz"}},{"name":"Fritz-Bluhm-Str.","postalCode":"56410","locality":"Montabaur","municipality":{"key":"07143048","name":"Montabaur, Stadt","type":"Stadt"},"district":{"key":"07143","name":"Westerwaldkreis","type":"Landkreis"},"federalState":{"key":"07","name":"Rheinland-Pfalz"}},{"name":"Fröschpfortstr.","postalCode":"56410","locality":"Montabaur","municipality":{"key":"07143048","name":"Montabaur, Stadt","type":"Stadt"},"district":{"key":"07143","name":"Westerwaldkreis","type":"Landkreis"},"federalState":{"key":"07","name":"Rheinland-Pfalz"}},{"name":"Fuldastr.","postalCode":"56410","locality":"Montabaur","municipality":{"key":"07143048","name":"Montabaur, Stadt","type":"Stadt"},"district":{"key":"07143","name":"Westerwaldkreis","type":"Landkreis"},"federalState":{"key":"07","name":"Rheinland-Pfalz"}},{"name":"Fürstenweg","postalCode":"56410","locality":"Montabaur","municipality":{"key":"07143048","name":"Montabaur, Stadt","type":"Stadt"},"district":{"key":"07143","name":"Westerwaldkreis","type":"Landkreis"},"federalState":{"key":"07","name":"Rheinland-Pfalz"}},{"name":"Gartenstr.","postalCode":"56410","locality":"Montabaur","municipality":{"key":"07143048","name":"Montabaur, Stadt","type":"Stadt"},"district":{"key":"07143","name":"Westerwaldkreis","type":"Landkreis"},"federalState":{"key":"07","name":"Rheinland-Pfalz"}},{"name":"Gelbachstr.","postalCode":"56410","locality":"Montabaur","municipality":{"key":"07143048","name":"Montabaur, Stadt","type":"Stadt"},"district":{"key":"07143","name":"Westerwaldkreis","type":"Landkreis"},"federalState":{"key":"07","name":"Rheinland-Pfalz"}},{"name":"Geranienstr.","postalCode":"56410","locality":"Montabaur","municipality":{"key":"07143048","name":"Montabaur, Stadt","type":"Stadt"},"district":{"key":"07143","name":"Westerwaldkreis","type":"Landkreis"},"federalState":{"key":"07","name":"Rheinland-Pfalz"}},{"name":"Gerberhof","postalCode":"56410","locality":"Montabaur","municipality":{"key":"07143048","name":"Montabaur, Stadt","type":"Stadt"},"district":{"key":"07143","name":"Westerwaldkreis","type":"Landkreis"},"federalState":{"key":"07","name":"Rheinland-Pfalz"}},{"name":"Gerichtsstr.","postalCode":"56410","locality":"Montabaur","municipality":{"key":"07143048","name":"Montabaur, Stadt","type":"Stadt"},"district":{"key":"07143","name":"Westerwaldkreis","type":"Landkreis"},"federalState":{"key":"07","name":"Rheinland-Pfalz"}},{"name":"Geschwister-Scholl-Str.","postalCode":"56410","locality":"Montabaur","municipality":{"key":"07143048","name":"Montabaur, Stadt","type":"Stadt"},"district":{"key":"07143","name":"Westerwaldkreis","type":"Landkreis"},"federalState":{"key":"07","name":"Rheinland-Pfalz"}},{"name":"Gloedenstr.","postalCode":"56410","locality":"Montabaur","municipality":{"key":"07143048","name":"Montabaur, Stadt","type":"Stadt"},"district":{"key":"07143","name":"Westerwaldkreis","type":"Landkreis"},"federalState":{"key":"07","name":"Rheinland-Pfalz"}},{"name":"Goethestr.","postalCode":"56410","locality":"Montabaur","municipality":{"key":"07143048","name":"Montabaur, Stadt","type":"Stadt"},"district":{"key":"07143","name":"Westerwaldkreis","type":"Landkreis"},"federalState":{"key":"07","name":"Rheinland-Pfalz"}},{"name":"Graf-von-Zeppelin-Str.","postalCode":"56410","locality":"Montabaur","municipality":{"key":"07143048","name":"Montabaur, Stadt","type":"Stadt"},"district":{"key":"07143","name":"Westerwaldkreis","type":"Landkreis"},"federalState":{"key":"07","name":"Rheinland-Pfalz"}},{"name":"Grubenfeld","postalCode":"56410","locality":"Montabaur","municipality":{"key":"07143048","name":"Montabaur, Stadt","type":"Stadt"},"district":{"key":"07143","name":"Westerwaldkreis","type":"Landkreis"},"federalState":{"key":"07","name":"Rheinland-Pfalz"}},{"name":"Hammerweg","postalCode":"56410","locality":"Montabaur","municipality":{"key":"07143048","name":"Montabaur, Stadt","type":"Stadt"},"district":{"key":"07143","name":"Westerwaldkreis","type":"Landkreis"},"federalState":{"key":"07","name":"Rheinland-Pfalz"}},{"name":"Händelstr.","postalCode":"56410","locality":"Montabaur","municipality":{"key":"07143048","name":"Montabaur, Stadt","type":"Stadt"},"district":{"key":"07143","name":"Westerwaldkreis","type":"Landkreis"},"federalState":{"key":"07","name":"Rheinland-Pfalz"}},{"name":"Hangstr.","postalCode":"56410","locality":"Montabaur","municipality":{"key":"07143048","name":"Montabaur, Stadt","type":"Stadt"},"district":{"key":"07143","name":"Westerwaldkreis","type":"Landkreis"},"federalState":{"key":"07","name":"Rheinland-Pfalz"}},{"name":"Hardtweg","postalCode":"56410","locality":"Montabaur","municipality":{"key":"07143048","name":"Montabaur, Stadt","type":"Stadt"},"district":{"key":"07143","name":"Westerwaldkreis","type":"Landkreis"},"federalState":{"key":"07","name":"Rheinland-Pfalz"}},{"name":"Haydnstr.","postalCode":"56410","locality":"Montabaur","municipality":{"key":"07143048","name":"Montabaur, Stadt","type":"Stadt"},"district":{"key":"07143","name":"Westerwaldkreis","type":"Landkreis"},"federalState":{"key":"07","name":"Rheinland-Pfalz"}},{"name":"Heckenmühle","postalCode":"56410","locality":"Montabaur","municipality":{"key":"07143048","name":"Montabaur, Stadt","type":"Stadt"},"district":{"key":"07143","name":"Westerwaldkreis","type":"Landkreis"},"federalState":{"key":"07","name":"Rheinland-Pfalz"}},{"name":"Heckenweg","postalCode":"56410","locality":"Montabaur","municipality":{"key":"07143048","name":"Montabaur, Stadt","type":"Stadt"},"district":{"key":"07143","name":"Westerwaldkreis","type":"Landkreis"},"federalState":{"key":"07","name":"Rheinland-Pfalz"}},{"name":"Heideweg","postalCode":"56410","locality":"Montabaur","municipality":{"key":"07143048","name":"Montabaur, Stadt","type":"Stadt"},"district":{"key":"07143","name":"Westerwaldkreis","type":"Landkreis"},"federalState":{"key":"07","name":"Rheinland-Pfalz"}},{"name":"Heiligenrother Str.","postalCode":"56410","locality":"Montabaur","municipality":{"key":"07143048","name":"Montabaur, Stadt","type":"Stadt"},"district":{"key":"07143","name":"Westerwaldkreis","type":"Landkreis"},"federalState":{"key":"07","name":"Rheinland-Pfalz"}},{"name":"Herderstr.","postalCode":"56410","locality":"Montabaur","municipality":{"key":"07143048","name":"Montabaur, Stadt","type":"Stadt"},"district":{"key":"07143","name":"Westerwaldkreis","type":"Landkreis"},"federalState":{"key":"07","name":"Rheinland-Pfalz"}},{"name":"Hermannstr.","postalCode":"56410","locality":"Montabaur","municipality":{"key":"07143048","name":"Montabaur, Stadt","type":"Stadt"},"district":{"key":"07143","name":"Westerwaldkreis","type":"Landkreis"},"federalState":{"key":"07","name":"Rheinland-Pfalz"}},{"name":"Hermolderweg","postalCode":"56410","locality":"Montabaur","municipality":{"key":"07143048","name":"Montabaur, Stadt","type":"Stadt"},"district":{"key":"07143","name":"Westerwaldkreis","type":"Landkreis"},"federalState":{"key":"07","name":"Rheinland-Pfalz"}},{"name":"Herrenhahnweg","postalCode":"56410","locality":"Montabaur","municipality":{"key":"07143048","name":"Montabaur, Stadt","type":"Stadt"},"district":{"key":"07143","name":"Westerwaldkreis","type":"Landkreis"},"federalState":{"key":"07","name":"Rheinland-Pfalz"}},{"name":"Herzog-Adolf-Str.","postalCode":"56410","locality":"Montabaur","municipality":{"key":"07143048","name":"Montabaur, Stadt","type":"Stadt"},"district":{"key":"07143","name":"Westerwaldkreis","type":"Landkreis"},"federalState":{"key":"07","name":"Rheinland-Pfalz"}},{"name":"Hinterer Rebstock","postalCode":"56410","locality":"Montabaur","municipality":{"key":"07143048","name":"Montabaur, Stadt","type":"Stadt"},"district":{"key":"07143","name":"Westerwaldkreis","type":"Landkreis"},"federalState":{"key":"07","name":"Rheinland-Pfalz"}},{"name":"Hirtengarten","postalCode":"56410","locality":"Montabaur","municipality":{"key":"07143048","name":"Montabaur, Stadt","type":"Stadt"},"district":{"key":"07143","name":"Westerwaldkreis","type":"Landkreis"},"federalState":{"key":"07","name":"Rheinland-Pfalz"}},{"name":"Hohe Str.","postalCode":"56410","locality":"Montabaur","municipality":{"key":"07143048","name":"Montabaur, Stadt","type":"Stadt"},"district":{"key":"07143","name":"Westerwaldkreis","type":"Landkreis"},"federalState":{"key":"07","name":"Rheinland-Pfalz"}},{"name":"Hohlweg","postalCode":"56410","locality":"Montabaur","municipality":{"key":"07143048","name":"Montabaur, Stadt","type":"Stadt"},"district":{"key":"07143","name":"Westerwaldkreis","type":"Landkreis"},"federalState":{"key":"07","name":"Rheinland-Pfalz"}},{"name":"Horresser Berg","postalCode":"56410","locality":"Montabaur","municipality":{"key":"07143048","name":"Montabaur, Stadt","type":"Stadt"},"district":{"key":"07143","name":"Westerwaldkreis","type":"Landkreis"},"federalState":{"key":"07","name":"Rheinland-Pfalz"}},{"name":"Horresser Str.","postalCode":"56410","locality":"Montabaur","municipality":{"key":"07143048","name":"Montabaur, Stadt","type":"Stadt"},"district":{"key":"07143","name":"Westerwaldkreis","type":"Landkreis"},"federalState":{"key":"07","name":"Rheinland-Pfalz"}},{"name":"Hospitalstr.","postalCode":"56410","locality":"Montabaur","municipality":{"key":"07143048","name":"Montabaur, Stadt","type":"Stadt"},"district":{"key":"07143","name":"Westerwaldkreis","type":"Landkreis"},"federalState":{"key":"07","name":"Rheinland-Pfalz"}},{"name":"Humbachstr.","postalCode":"56410","locality":"Montabaur","municipality":{"key":"07143048","name":"Montabaur, Stadt","type":"Stadt"},"district":{"key":"07143","name":"Westerwaldkreis","type":"Landkreis"},"federalState":{"key":"07","name":"Rheinland-Pfalz"}},{"name":"Humboldtstr.","postalCode":"56410","locality":"Montabaur","municipality":{"key":"07143048","name":"Montabaur, Stadt","type":"Stadt"},"district":{"key":"07143","name":"Westerwaldkreis","type":"Landkreis"},"federalState":{"key":"07","name":"Rheinland-Pfalz"}},{"name":"Hunsrückstr.","postalCode":"56410","locality":"Montabaur","municipality":{"key":"07143048","name":"Montabaur, Stadt","type":"Stadt"},"district":{"key":"07143","name":"Westerwaldkreis","type":"Landkreis"},"federalState":{"key":"07","name":"Rheinland-Pfalz"}},{"name":"Ignatius-Lötschert-Str.","postalCode":"56410","locality":"Montabaur","municipality":{"key":"07143048","name":"Montabaur, Stadt","type":"Stadt"},"district":{"key":"07143","name":"Westerwaldkreis","type":"Landkreis"},"federalState":{"key":"07","name":"Rheinland-Pfalz"}},{"name":"Im Balmert","postalCode":"56410","locality":"Montabaur","municipality":{"key":"07143048","name":"Montabaur, Stadt","type":"Stadt"},"district":{"key":"07143","name":"Westerwaldkreis","type":"Landkreis"},"federalState":{"key":"07","name":"Rheinland-Pfalz"}},{"name":"Im Baumberg","postalCode":"56410","locality":"Montabaur","municipality":{"key":"07143048","name":"Montabaur, Stadt","type":"Stadt"},"district":{"key":"07143","name":"Westerwaldkreis","type":"Landkreis"},"federalState":{"key":"07","name":"Rheinland-Pfalz"}},{"name":"Im Farenau","postalCode":"56410","locality":"Montabaur","municipality":{"key":"07143048","name":"Montabaur, Stadt","type":"Stadt"},"district":{"key":"07143","name":"Westerwaldkreis","type":"Landkreis"},"federalState":{"key":"07","name":"Rheinland-Pfalz"}},{"name":"Im Gelbachtal","postalCode":"56410","locality":"Montabaur","municipality":{"key":"07143048","name":"Montabaur, Stadt","type":"Stadt"},"district":{"key":"07143","name":"Westerwaldkreis","type":"Landkreis"},"federalState":{"key":"07","name":"Rheinland-Pfalz"}},{"name":"Im Hemchen","postalCode":"56410","locality":"Montabaur","municipality":{"key":"07143048","name":"Montabaur, Stadt","type":"Stadt"},"district":{"key":"07143","name":"Westerwaldkreis","type":"Landkreis"},"federalState":{"key":"07","name":"Rheinland-Pfalz"}},{"name":"Im Obertal","postalCode":"56410","locality":"Montabaur","municipality":{"key":"07143048","name":"Montabaur, Stadt","type":"Stadt"},"district":{"key":"07143","name":"Westerwaldkreis","type":"Landkreis"},"federalState":{"key":"07","name":"Rheinland-Pfalz"}},{"name":"Im Wiesengrund","postalCode":"56410","locality":"Montabaur","municipality":{"key":"07143048","name":"Montabaur, Stadt","type":"Stadt"},"district":{"key":"07143","name":"Westerwaldkreis","type":"Landkreis"},"federalState":{"key":"07","name":"Rheinland-Pfalz"}},{"name":"In den Fichten","postalCode":"56410","locality":"Montabaur","municipality":{"key":"07143048","name":"Montabaur, Stadt","type":"Stadt"},"district":{"key":"07143","name":"Westerwaldkreis","type":"Landkreis"},"federalState":{"key":"07","name":"Rheinland-Pfalz"}},{"name":"In der Au","postalCode":"56410","locality":"Montabaur","municipality":{"key":"07143048","name":"Montabaur, Stadt","type":"Stadt"},"district":{"key":"07143","name":"Westerwaldkreis","type":"Landkreis"},"federalState":{"key":"07","name":"Rheinland-Pfalz"}},{"name":"In der Hehl","postalCode":"56410","locality":"Montabaur","municipality":{"key":"07143048","name":"Montabaur, Stadt","type":"Stadt"},"district":{"key":"07143","name":"Westerwaldkreis","type":"Landkreis"},"federalState":{"key":"07","name":"Rheinland-Pfalz"}},{"name":"In der Kesselwiese","postalCode":"56410","locality":"Montabaur","municipality":{"key":"07143048","name":"Montabaur, Stadt","type":"Stadt"},"district":{"key":"07143","name":"Westerwaldkreis","type":"Landkreis"},"federalState":{"key":"07","name":"Rheinland-Pfalz"}},{"name":"Jahnstr.","postalCode":"56410","locality":"Montabaur","municipality":{"key":"07143048","name":"Montabaur, Stadt","type":"Stadt"},"district":{"key":"07143","name":"Westerwaldkreis","type":"Landkreis"},"federalState":{"key":"07","name":"Rheinland-Pfalz"}},{"name":"Jakob-Hannappel-Str.","postalCode":"56410","locality":"Montabaur","municipality":{"key":"07143048","name":"Montabaur, Stadt","type":"Stadt"},"district":{"key":"07143","name":"Westerwaldkreis","type":"Landkreis"},"federalState":{"key":"07","name":"Rheinland-Pfalz"}},{"name":"Johannes-Gutenberg-Str.","postalCode":"56410","locality":"Montabaur","municipality":{"key":"07143048","name":"Montabaur, Stadt","type":"Stadt"},"district":{"key":"07143","name":"Westerwaldkreis","type":"Landkreis"},"federalState":{"key":"07","name":"Rheinland-Pfalz"}},{"name":"Joseph-Kehrein-Str.","postalCode":"56410","locality":"Montabaur","municipality":{"key":"07143048","name":"Montabaur, Stadt","type":"Stadt"},"district":{"key":"07143","name":"Westerwaldkreis","type":"Landkreis"},"federalState":{"key":"07","name":"Rheinland-Pfalz"}},{"name":"Judengasse","postalCode":"56410","locality":"Montabaur","municipality":{"key":"07143048","name":"Montabaur, Stadt","type":"Stadt"},"district":{"key":"07143","name":"Westerwaldkreis","type":"Landkreis"},"federalState":{"key":"07","name":"Rheinland-Pfalz"}},{"name":"Jupiterstr.","postalCode":"56410","locality":"Montabaur","municipality":{"key":"07143048","name":"Montabaur, Stadt","type":"Stadt"},"district":{"key":"07143","name":"Westerwaldkreis","type":"Landkreis"},"federalState":{"key":"07","name":"Rheinland-Pfalz"}},{"name":"Kaiserstr.","postalCode":"56410","locality":"Montabaur","municipality":{"key":"07143048","name":"Montabaur, Stadt","type":"Stadt"},"district":{"key":"07143","name":"Westerwaldkreis","type":"Landkreis"},"federalState":{"key":"07","name":"Rheinland-Pfalz"}},{"name":"Kantstr.","postalCode":"56410","locality":"Montabaur","municipality":{"key":"07143048","name":"Montabaur, Stadt","type":"Stadt"},"district":{"key":"07143","name":"Westerwaldkreis","type":"Landkreis"},"federalState":{"key":"07","name":"Rheinland-Pfalz"}},{"name":"Kapellenstr.","postalCode":"56410","locality":"Montabaur","municipality":{"key":"07143048","name":"Montabaur, Stadt","type":"Stadt"},"district":{"key":"07143","name":"Westerwaldkreis","type":"Landkreis"},"federalState":{"key":"07","name":"Rheinland-Pfalz"}},{"name":"Kapellenweg","postalCode":"56410","locality":"Montabaur","municipality":{"key":"07143048","name":"Montabaur, Stadt","type":"Stadt"},"district":{"key":"07143","name":"Westerwaldkreis","type":"Landkreis"},"federalState":{"key":"07","name":"Rheinland-Pfalz"}},{"name":"Kappesgärtenweg","postalCode":"56410","locality":"Montabaur","municipality":{"key":"07143048","name":"Montabaur, Stadt","type":"Stadt"},"district":{"key":"07143","name":"Westerwaldkreis","type":"Landkreis"},"federalState":{"key":"07","name":"Rheinland-Pfalz"}},{"name":"Karl-Siebert-Str.","postalCode":"56410","locality":"Montabaur","municipality":{"key":"07143048","name":"Montabaur, Stadt","type":"Stadt"},"district":{"key":"07143","name":"Westerwaldkreis","type":"Landkreis"},"federalState":{"key":"07","name":"Rheinland-Pfalz"}},{"name":"Karl-Walter-Str.","postalCode":"56410","locality":"Montabaur","municipality":{"key":"07143048","name":"Montabaur, Stadt","type":"Stadt"},"district":{"key":"07143","name":"Westerwaldkreis","type":"Landkreis"},"federalState":{"key":"07","name":"Rheinland-Pfalz"}},{"name":"Karoline-Kahn-Platz","postalCode":"56410","locality":"Montabaur","municipality":{"key":"07143048","name":"Montabaur, Stadt","type":"Stadt"},"district":{"key":"07143","name":"Westerwaldkreis","type":"Landkreis"},"federalState":{"key":"07","name":"Rheinland-Pfalz"}},{"name":"Kiefernweg","postalCode":"56410","locality":"Montabaur","municipality":{"key":"07143048","name":"Montabaur, Stadt","type":"Stadt"},"district":{"key":"07143","name":"Westerwaldkreis","type":"Landkreis"},"federalState":{"key":"07","name":"Rheinland-Pfalz"}},{"name":"Kirchstr.","postalCode":"56410","locality":"Montabaur","municipality":{"key":"07143048","name":"Montabaur, Stadt","type":"Stadt"},"district":{"key":"07143","name":"Westerwaldkreis","type":"Landkreis"},"federalState":{"key":"07","name":"Rheinland-Pfalz"}},{"name":"Kleiner Markt","postalCode":"56410","locality":"Montabaur","municipality":{"key":"07143048","name":"Montabaur, Stadt","type":"Stadt"},"district":{"key":"07143","name":"Westerwaldkreis","type":"Landkreis"},"federalState":{"key":"07","name":"Rheinland-Pfalz"}},{"name":"Koblenzer Str.","postalCode":"56410","locality":"Montabaur","municipality":{"key":"07143048","name":"Montabaur, Stadt","type":"Stadt"},"district":{"key":"07143","name":"Westerwaldkreis","type":"Landkreis"},"federalState":{"key":"07","name":"Rheinland-Pfalz"}},{"name":"Kölner Str.","postalCode":"56410","locality":"Montabaur","municipality":{"key":"07143048","name":"Montabaur, Stadt","type":"Stadt"},"district":{"key":"07143","name":"Westerwaldkreis","type":"Landkreis"},"federalState":{"key":"07","name":"Rheinland-Pfalz"}},{"name":"Kolpingstr.","postalCode":"56410","locality":"Montabaur","municipality":{"key":"07143048","name":"Montabaur, Stadt","type":"Stadt"},"district":{"key":"07143","name":"Westerwaldkreis","type":"Landkreis"},"federalState":{"key":"07","name":"Rheinland-Pfalz"}},{"name":"Kopernikusstr.","postalCode":"56410","locality":"Montabaur","municipality":{"key":"07143048","name":"Montabaur, Stadt","type":"Stadt"},"district":{"key":"07143","name":"Westerwaldkreis","type":"Landkreis"},"federalState":{"key":"07","name":"Rheinland-Pfalz"}},{"name":"Köppelstr.","postalCode":"56410","locality":"Montabaur","municipality":{"key":"07143048","name":"Montabaur, Stadt","type":"Stadt"},"district":{"key":"07143","name":"Westerwaldkreis","type":"Landkreis"},"federalState":{"key":"07","name":"Rheinland-Pfalz"}},{"name":"Krokusstr.","postalCode":"56410","locality":"Montabaur","municipality":{"key":"07143048","name":"Montabaur, Stadt","type":"Stadt"},"district":{"key":"07143","name":"Westerwaldkreis","type":"Landkreis"},"federalState":{"key":"07","name":"Rheinland-Pfalz"}},{"name":"Kurfürst-Dietrich-Str.","postalCode":"56410","locality":"Montabaur","municipality":{"key":"07143048","name":"Montabaur, Stadt","type":"Stadt"},"district":{"key":"07143","name":"Westerwaldkreis","type":"Landkreis"},"federalState":{"key":"07","name":"Rheinland-Pfalz"}},{"name":"Lahnstr.","postalCode":"56410","locality":"Montabaur","municipality":{"key":"07143048","name":"Montabaur, Stadt","type":"Stadt"},"district":{"key":"07143","name":"Westerwaldkreis","type":"Landkreis"},"federalState":{"key":"07","name":"Rheinland-Pfalz"}},{"name":"Lerchenstr.","postalCode":"56410","locality":"Montabaur","municipality":{"key":"07143048","name":"Montabaur, Stadt","type":"Stadt"},"district":{"key":"07143","name":"Westerwaldkreis","type":"Landkreis"},"federalState":{"key":"07","name":"Rheinland-Pfalz"}},{"name":"Lessingstr.","postalCode":"56410","locality":"Montabaur","municipality":{"key":"07143048","name":"Montabaur, Stadt","type":"Stadt"},"district":{"key":"07143","name":"Westerwaldkreis","type":"Landkreis"},"federalState":{"key":"07","name":"Rheinland-Pfalz"}},{"name":"Leuningerstr.","postalCode":"56410","locality":"Montabaur","municipality":{"key":"07143048","name":"Montabaur, Stadt","type":"Stadt"},"district":{"key":"07143","name":"Westerwaldkreis","type":"Landkreis"},"federalState":{"key":"07","name":"Rheinland-Pfalz"}},{"name":"Lilienstr.","postalCode":"56410","locality":"Montabaur","municipality":{"key":"07143048","name":"Montabaur, Stadt","type":"Stadt"},"district":{"key":"07143","name":"Westerwaldkreis","type":"Landkreis"},"federalState":{"key":"07","name":"Rheinland-Pfalz"}},{"name":"Limburger Str.","postalCode":"56410","locality":"Montabaur","municipality":{"key":"07143048","name":"Montabaur, Stadt","type":"Stadt"},"district":{"key":"07143","name":"Westerwaldkreis","type":"Landkreis"},"federalState":{"key":"07","name":"Rheinland-Pfalz"}},{"name":"Lupinenstr.","postalCode":"56410","locality":"Montabaur","municipality":{"key":"07143048","name":"Montabaur, Stadt","type":"Stadt"},"district":{"key":"07143","name":"Westerwaldkreis","type":"Landkreis"},"federalState":{"key":"07","name":"Rheinland-Pfalz"}},{"name":"Mainzer Str.","postalCode":"56410","locality":"Montabaur","municipality":{"key":"07143048","name":"Montabaur, Stadt","type":"Stadt"},"district":{"key":"07143","name":"Westerwaldkreis","type":"Landkreis"},"federalState":{"key":"07","name":"Rheinland-Pfalz"}},{"name":"Margarete-Schreiner-Str.","postalCode":"56410","locality":"Montabaur","municipality":{"key":"07143048","name":"Montabaur, Stadt","type":"Stadt"},"district":{"key":"07143","name":"Westerwaldkreis","type":"Landkreis"},"federalState":{"key":"07","name":"Rheinland-Pfalz"}},{"name":"Margeritenstr.","postalCode":"56410","locality":"Montabaur","municipality":{"key":"07143048","name":"Montabaur, Stadt","type":"Stadt"},"district":{"key":"07143","name":"Westerwaldkreis","type":"Landkreis"},"federalState":{"key":"07","name":"Rheinland-Pfalz"}},{"name":"Marsstr.","postalCode":"56410","locality":"Montabaur","municipality":{"key":"07143048","name":"Montabaur, Stadt","type":"Stadt"},"district":{"key":"07143","name":"Westerwaldkreis","type":"Landkreis"},"federalState":{"key":"07","name":"Rheinland-Pfalz"}},{"name":"Martin-Luther-Str.","postalCode":"56410","locality":"Montabaur","municipality":{"key":"07143048","name":"Montabaur, Stadt","type":"Stadt"},"district":{"key":"07143","name":"Westerwaldkreis","type":"Landkreis"},"federalState":{"key":"07","name":"Rheinland-Pfalz"}},{"name":"Meisenstr.","postalCode":"56410","locality":"Montabaur","municipality":{"key":"07143048","name":"Montabaur, Stadt","type":"Stadt"},"district":{"key":"07143","name":"Westerwaldkreis","type":"Landkreis"},"federalState":{"key":"07","name":"Rheinland-Pfalz"}},{"name":"Merkurstr.","postalCode":"56410","locality":"Montabaur","municipality":{"key":"07143048","name":"Montabaur, Stadt","type":"Stadt"},"district":{"key":"07143","name":"Westerwaldkreis","type":"Landkreis"},"federalState":{"key":"07","name":"Rheinland-Pfalz"}},{"name":"Milmet","postalCode":"56410","locality":"Montabaur","municipality":{"key":"07143048","name":"Montabaur, Stadt","type":"Stadt"},"district":{"key":"07143","name":"Westerwaldkreis","type":"Landkreis"},"federalState":{"key":"07","name":"Rheinland-Pfalz"}},{"name":"Mittelaustr.","postalCode":"56410","locality":"Montabaur","municipality":{"key":"07143048","name":"Montabaur, Stadt","type":"Stadt"},"district":{"key":"07143","name":"Westerwaldkreis","type":"Landkreis"},"federalState":{"key":"07","name":"Rheinland-Pfalz"}},{"name":"Mittelstr.","postalCode":"56410","locality":"Montabaur","municipality":{"key":"07143048","name":"Montabaur, Stadt","type":"Stadt"},"district":{"key":"07143","name":"Westerwaldkreis","type":"Landkreis"},"federalState":{"key":"07","name":"Rheinland-Pfalz"}},{"name":"Mohnstr.","postalCode":"56410","locality":"Montabaur","municipality":{"key":"07143048","name":"Montabaur, Stadt","type":"Stadt"},"district":{"key":"07143","name":"Westerwaldkreis","type":"Landkreis"},"federalState":{"key":"07","name":"Rheinland-Pfalz"}},{"name":"Mondring","postalCode":"56410","locality":"Montabaur","municipality":{"key":"07143048","name":"Montabaur, Stadt","type":"Stadt"},"district":{"key":"07143","name":"Westerwaldkreis","type":"Landkreis"},"federalState":{"key":"07","name":"Rheinland-Pfalz"}},{"name":"Mons-Tabor-Str.","postalCode":"56410","locality":"Montabaur","municipality":{"key":"07143048","name":"Montabaur, Stadt","type":"Stadt"},"district":{"key":"07143","name":"Westerwaldkreis","type":"Landkreis"},"federalState":{"key":"07","name":"Rheinland-Pfalz"}},{"name":"Moselstr.","postalCode":"56410","locality":"Montabaur","municipality":{"key":"07143048","name":"Montabaur, Stadt","type":"Stadt"},"district":{"key":"07143","name":"Westerwaldkreis","type":"Landkreis"},"federalState":{"key":"07","name":"Rheinland-Pfalz"}},{"name":"Mozartstr.","postalCode":"56410","locality":"Montabaur","municipality":{"key":"07143048","name":"Montabaur, Stadt","type":"Stadt"},"district":{"key":"07143","name":"Westerwaldkreis","type":"Landkreis"},"federalState":{"key":"07","name":"Rheinland-Pfalz"}},{"name":"Mühlenweg","postalCode":"56410","locality":"Montabaur","municipality":{"key":"07143048","name":"Montabaur, Stadt","type":"Stadt"},"district":{"key":"07143","name":"Westerwaldkreis","type":"Landkreis"},"federalState":{"key":"07","name":"Rheinland-Pfalz"}},{"name":"Neißestr.","postalCode":"56410","locality":"Montabaur","municipality":{"key":"07143048","name":"Montabaur, Stadt","type":"Stadt"},"district":{"key":"07143","name":"Westerwaldkreis","type":"Landkreis"},"federalState":{"key":"07","name":"Rheinland-Pfalz"}},{"name":"Nelkenstr.","postalCode":"56410","locality":"Montabaur","municipality":{"key":"07143048","name":"Montabaur, Stadt","type":"Stadt"},"district":{"key":"07143","name":"Westerwaldkreis","type":"Landkreis"},"federalState":{"key":"07","name":"Rheinland-Pfalz"}},{"name":"Neptunstr.","postalCode":"56410","locality":"Montabaur","municipality":{"key":"07143048","name":"Montabaur, Stadt","type":"Stadt"},"district":{"key":"07143","name":"Westerwaldkreis","type":"Landkreis"},"federalState":{"key":"07","name":"Rheinland-Pfalz"}},{"name":"Neustr.","postalCode":"56410","locality":"Montabaur","municipality":{"key":"07143048","name":"Montabaur, Stadt","type":"Stadt"},"district":{"key":"07143","name":"Westerwaldkreis","type":"Landkreis"},"federalState":{"key":"07","name":"Rheinland-Pfalz"}},{"name":"Niederelberter Str.","postalCode":"56410","locality":"Montabaur","municipality":{"key":"07143048","name":"Montabaur, Stadt","type":"Stadt"},"district":{"key":"07143","name":"Westerwaldkreis","type":"Landkreis"},"federalState":{"key":"07","name":"Rheinland-Pfalz"}},{"name":"Nordstr.","postalCode":"56410","locality":"Montabaur","municipality":{"key":"07143048","name":"Montabaur, Stadt","type":"Stadt"},"district":{"key":"07143","name":"Westerwaldkreis","type":"Landkreis"},"federalState":{"key":"07","name":"Rheinland-Pfalz"}},{"name":"Obere Plötzgasse","postalCode":"56410","locality":"Montabaur","municipality":{"key":"07143048","name":"Montabaur, Stadt","type":"Stadt"},"district":{"key":"07143","name":"Westerwaldkreis","type":"Landkreis"},"federalState":{"key":"07","name":"Rheinland-Pfalz"}},{"name":"Obergasse","postalCode":"56410","locality":"Montabaur","municipality":{"key":"07143048","name":"Montabaur, Stadt","type":"Stadt"},"district":{"key":"07143","name":"Westerwaldkreis","type":"Landkreis"},"federalState":{"key":"07","name":"Rheinland-Pfalz"}},{"name":"Odenwaldstr.","postalCode":"56410","locality":"Montabaur","municipality":{"key":"07143048","name":"Montabaur, Stadt","type":"Stadt"},"district":{"key":"07143","name":"Westerwaldkreis","type":"Landkreis"},"federalState":{"key":"07","name":"Rheinland-Pfalz"}},{"name":"Oderstr.","postalCode":"56410","locality":"Montabaur","municipality":{"key":"07143048","name":"Montabaur, Stadt","type":"Stadt"},"district":{"key":"07143","name":"Westerwaldkreis","type":"Landkreis"},"federalState":{"key":"07","name":"Rheinland-Pfalz"}},{"name":"Oststr.","postalCode":"56410","locality":"Montabaur","municipality":{"key":"07143048","name":"Montabaur, Stadt","type":"Stadt"},"district":{"key":"07143","name":"Westerwaldkreis","type":"Landkreis"},"federalState":{"key":"07","name":"Rheinland-Pfalz"}},{"name":"Paehlerstr.","postalCode":"56410","locality":"Montabaur","municipality":{"key":"07143048","name":"Montabaur, Stadt","type":"Stadt"},"district":{"key":"07143","name":"Westerwaldkreis","type":"Landkreis"},"federalState":{"key":"07","name":"Rheinland-Pfalz"}},{"name":"Parkstr.","postalCode":"56410","locality":"Montabaur","municipality":{"key":"07143048","name":"Montabaur, Stadt","type":"Stadt"},"district":{"key":"07143","name":"Westerwaldkreis","type":"Landkreis"},"federalState":{"key":"07","name":"Rheinland-Pfalz"}},{"name":"Peter-Altmeier-Platz","postalCode":"56410","locality":"Montabaur","municipality":{"key":"07143048","name":"Montabaur, Stadt","type":"Stadt"},"district":{"key":"07143","name":"Westerwaldkreis","type":"Landkreis"},"federalState":{"key":"07","name":"Rheinland-Pfalz"}},{"name":"Peterstorstr.","postalCode":"56410","locality":"Montabaur","municipality":{"key":"07143048","name":"Montabaur, Stadt","type":"Stadt"},"district":{"key":"07143","name":"Westerwaldkreis","type":"Landkreis"},"federalState":{"key":"07","name":"Rheinland-Pfalz"}},{"name":"Pfarrer-Fein-Str.","postalCode":"56410","locality":"Montabaur","municipality":{"key":"07143048","name":"Montabaur, Stadt","type":"Stadt"},"district":{"key":"07143","name":"Westerwaldkreis","type":"Landkreis"},"federalState":{"key":"07","name":"Rheinland-Pfalz"}},{"name":"Philipp-Gehling-Str.","postalCode":"56410","locality":"Montabaur","municipality":{"key":"07143048","name":"Montabaur, Stadt","type":"Stadt"},"district":{"key":"07143","name":"Westerwaldkreis","type":"Landkreis"},"federalState":{"key":"07","name":"Rheinland-Pfalz"}},{"name":"Poststr.","postalCode":"56410","locality":"Montabaur","municipality":{"key":"07143048","name":"Montabaur, Stadt","type":"Stadt"},"district":{"key":"07143","name":"Westerwaldkreis","type":"Landkreis"},"federalState":{"key":"07","name":"Rheinland-Pfalz"}},{"name":"Promenadenweg","postalCode":"56410","locality":"Montabaur","municipality":{"key":"07143048","name":"Montabaur, Stadt","type":"Stadt"},"district":{"key":"07143","name":"Westerwaldkreis","type":"Landkreis"},"federalState":{"key":"07","name":"Rheinland-Pfalz"}},{"name":"Rheinstr.","postalCode":"56410","locality":"Montabaur","municipality":{"key":"07143048","name":"Montabaur, Stadt","type":"Stadt"},"district":{"key":"07143","name":"Westerwaldkreis","type":"Landkreis"},"federalState":{"key":"07","name":"Rheinland-Pfalz"}},{"name":"Rhönstr.","postalCode":"56410","locality":"Montabaur","municipality":{"key":"07143048","name":"Montabaur, Stadt","type":"Stadt"},"district":{"key":"07143","name":"Westerwaldkreis","type":"Landkreis"},"federalState":{"key":"07","name":"Rheinland-Pfalz"}},{"name":"Ringstr.","postalCode":"56410","locality":"Montabaur","municipality":{"key":"07143048","name":"Montabaur, Stadt","type":"Stadt"},"district":{"key":"07143","name":"Westerwaldkreis","type":"Landkreis"},"federalState":{"key":"07","name":"Rheinland-Pfalz"}},{"name":"Robert-Bosch-Str.","postalCode":"56410","locality":"Montabaur","municipality":{"key":"07143048","name":"Montabaur, Stadt","type":"Stadt"},"district":{"key":"07143","name":"Westerwaldkreis","type":"Landkreis"},"federalState":{"key":"07","name":"Rheinland-Pfalz"}},{"name":"Rödernweg","postalCode":"56410","locality":"Montabaur","municipality":{"key":"07143048","name":"Montabaur, Stadt","type":"Stadt"},"district":{"key":"07143","name":"Westerwaldkreis","type":"Landkreis"},"federalState":{"key":"07","name":"Rheinland-Pfalz"}},{"name":"Rosenstr.","postalCode":"56410","locality":"Montabaur","municipality":{"key":"07143048","name":"Montabaur, Stadt","type":"Stadt"},"district":{"key":"07143","name":"Westerwaldkreis","type":"Landkreis"},"federalState":{"key":"07","name":"Rheinland-Pfalz"}},{"name":"Roßbergstr.","postalCode":"56410","locality":"Montabaur","municipality":{"key":"07143048","name":"Montabaur, Stadt","type":"Stadt"},"district":{"key":"07143","name":"Westerwaldkreis","type":"Landkreis"},"federalState":{"key":"07","name":"Rheinland-Pfalz"}},{"name":"Rübenstock","postalCode":"56410","locality":"Montabaur","municipality":{"key":"07143048","name":"Montabaur, Stadt","type":"Stadt"},"district":{"key":"07143","name":"Westerwaldkreis","type":"Landkreis"},"federalState":{"key":"07","name":"Rheinland-Pfalz"}},{"name":"Rudolf-Diesel-Str.","postalCode":"56410","locality":"Montabaur","municipality":{"key":"07143048","name":"Montabaur, Stadt","type":"Stadt"},"district":{"key":"07143","name":"Westerwaldkreis","type":"Landkreis"},"federalState":{"key":"07","name":"Rheinland-Pfalz"}},{"name":"Rudolf-von-Habsburg-Platz","postalCode":"56410","locality":"Montabaur","municipality":{"key":"07143048","name":"Montabaur, Stadt","type":"Stadt"},"district":{"key":"07143","name":"Westerwaldkreis","type":"Landkreis"},"federalState":{"key":"07","name":"Rheinland-Pfalz"}},{"name":"Ruhrstr.","postalCode":"56410","locality":"Montabaur","municipality":{"key":"07143048","name":"Montabaur, Stadt","type":"Stadt"},"district":{"key":"07143","name":"Westerwaldkreis","type":"Landkreis"},"federalState":{"key":"07","name":"Rheinland-Pfalz"}},{"name":"Ruwerstr.","postalCode":"56410","locality":"Montabaur","municipality":{"key":"07143048","name":"Montabaur, Stadt","type":"Stadt"},"district":{"key":"07143","name":"Westerwaldkreis","type":"Landkreis"},"federalState":{"key":"07","name":"Rheinland-Pfalz"}},{"name":"Saarstr.","postalCode":"56410","locality":"Montabaur","municipality":{"key":"07143048","name":"Montabaur, Stadt","type":"Stadt"},"district":{"key":"07143","name":"Westerwaldkreis","type":"Landkreis"},"federalState":{"key":"07","name":"Rheinland-Pfalz"}},{"name":"Saturnstr.","postalCode":"56410","locality":"Montabaur","municipality":{"key":"07143048","name":"Montabaur, Stadt","type":"Stadt"},"district":{"key":"07143","name":"Westerwaldkreis","type":"Landkreis"},"federalState":{"key":"07","name":"Rheinland-Pfalz"}},{"name":"Sauertalstr.","postalCode":"56410","locality":"Montabaur","municipality":{"key":"07143048","name":"Montabaur, Stadt","type":"Stadt"},"district":{"key":"07143","name":"Westerwaldkreis","type":"Landkreis"},"federalState":{"key":"07","name":"Rheinland-Pfalz"}},{"name":"Schellweg","postalCode":"56410","locality":"Montabaur","municipality":{"key":"07143048","name":"Montabaur, Stadt","type":"Stadt"},"district":{"key":"07143","name":"Westerwaldkreis","type":"Landkreis"},"federalState":{"key":"07","name":"Rheinland-Pfalz"}},{"name":"Schillerstr.","postalCode":"56410","locality":"Montabaur","municipality":{"key":"07143048","name":"Montabaur, Stadt","type":"Stadt"},"district":{"key":"07143","name":"Westerwaldkreis","type":"Landkreis"},"federalState":{"key":"07","name":"Rheinland-Pfalz"}},{"name":"Schlossweg","postalCode":"56410","locality":"Montabaur","municipality":{"key":"07143048","name":"Montabaur, Stadt","type":"Stadt"},"district":{"key":"07143","name":"Westerwaldkreis","type":"Landkreis"},"federalState":{"key":"07","name":"Rheinland-Pfalz"}},{"name":"Schöne Aussicht","postalCode":"56410","locality":"Montabaur","municipality":{"key":"07143048","name":"Montabaur, Stadt","type":"Stadt"},"district":{"key":"07143","name":"Westerwaldkreis","type":"Landkreis"},"federalState":{"key":"07","name":"Rheinland-Pfalz"}},{"name":"Schubertstr.","postalCode":"56410","locality":"Montabaur","municipality":{"key":"07143048","name":"Montabaur, Stadt","type":"Stadt"},"district":{"key":"07143","name":"Westerwaldkreis","type":"Landkreis"},"federalState":{"key":"07","name":"Rheinland-Pfalz"}},{"name":"Sebnitzer Ring","postalCode":"56410","locality":"Montabaur","municipality":{"key":"07143048","name":"Montabaur, Stadt","type":"Stadt"},"district":{"key":"07143","name":"Westerwaldkreis","type":"Landkreis"},"federalState":{"key":"07","name":"Rheinland-Pfalz"}},{"name":"Sespenrother Weg","postalCode":"56410","locality":"Montabaur","municipality":{"key":"07143048","name":"Montabaur, Stadt","type":"Stadt"},"district":{"key":"07143","name":"Westerwaldkreis","type":"Landkreis"},"federalState":{"key":"07","name":"Rheinland-Pfalz"}},{"name":"Siegstr.","postalCode":"56410","locality":"Montabaur","municipality":{"key":"07143048","name":"Montabaur, Stadt","type":"Stadt"},"district":{"key":"07143","name":"Westerwaldkreis","type":"Landkreis"},"federalState":{"key":"07","name":"Rheinland-Pfalz"}},{"name":"Sonnenblumenweg","postalCode":"56410","locality":"Montabaur","municipality":{"key":"07143048","name":"Montabaur, Stadt","type":"Stadt"},"district":{"key":"07143","name":"Westerwaldkreis","type":"Landkreis"},"federalState":{"key":"07","name":"Rheinland-Pfalz"}},{"name":"Sonnenring","postalCode":"56410","locality":"Montabaur","municipality":{"key":"07143048","name":"Montabaur, Stadt","type":"Stadt"},"district":{"key":"07143","name":"Westerwaldkreis","type":"Landkreis"},"federalState":{"key":"07","name":"Rheinland-Pfalz"}},{"name":"Sperlingstr.","postalCode":"56410","locality":"Montabaur","municipality":{"key":"07143048","name":"Montabaur, Stadt","type":"Stadt"},"district":{"key":"07143","name":"Westerwaldkreis","type":"Landkreis"},"federalState":{"key":"07","name":"Rheinland-Pfalz"}},{"name":"Spessartstr.","postalCode":"56410","locality":"Montabaur","municipality":{"key":"07143048","name":"Montabaur, Stadt","type":"Stadt"},"district":{"key":"07143","name":"Westerwaldkreis","type":"Landkreis"},"federalState":{"key":"07","name":"Rheinland-Pfalz"}},{"name":"Stationenweg","postalCode":"56410","locality":"Montabaur","municipality":{"key":"07143048","name":"Montabaur, Stadt","type":"Stadt"},"district":{"key":"07143","name":"Westerwaldkreis","type":"Landkreis"},"federalState":{"key":"07","name":"Rheinland-Pfalz"}},{"name":"Staudter Str.","postalCode":"56410","locality":"Montabaur","municipality":{"key":"07143048","name":"Montabaur, Stadt","type":"Stadt"},"district":{"key":"07143","name":"Westerwaldkreis","type":"Landkreis"},"federalState":{"key":"07","name":"Rheinland-Pfalz"}},{"name":"Stauffenbergallee","postalCode":"56410","locality":"Montabaur","municipality":{"key":"07143048","name":"Montabaur, Stadt","type":"Stadt"},"district":{"key":"07143","name":"Westerwaldkreis","type":"Landkreis"},"federalState":{"key":"07","name":"Rheinland-Pfalz"}},{"name":"Steinweg","postalCode":"56410","locality":"Montabaur","municipality":{"key":"07143048","name":"Montabaur, Stadt","type":"Stadt"},"district":{"key":"07143","name":"Westerwaldkreis","type":"Landkreis"},"federalState":{"key":"07","name":"Rheinland-Pfalz"}},{"name":"Südstr.","postalCode":"56410","locality":"Montabaur","municipality":{"key":"07143048","name":"Montabaur, Stadt","type":"Stadt"},"district":{"key":"07143","name":"Westerwaldkreis","type":"Landkreis"},"federalState":{"key":"07","name":"Rheinland-Pfalz"}},{"name":"Talweg","postalCode":"56410","locality":"Montabaur","municipality":{"key":"07143048","name":"Montabaur, Stadt","type":"Stadt"},"district":{"key":"07143","name":"Westerwaldkreis","type":"Landkreis"},"federalState":{"key":"07","name":"Rheinland-Pfalz"}},{"name":"Tannenweg","postalCode":"56410","locality":"Montabaur","municipality":{"key":"07143048","name":"Montabaur, Stadt","type":"Stadt"},"district":{"key":"07143","name":"Westerwaldkreis","type":"Landkreis"},"federalState":{"key":"07","name":"Rheinland-Pfalz"}},{"name":"Taubenweg","postalCode":"56410","locality":"Montabaur","municipality":{"key":"07143048","name":"Montabaur, Stadt","type":"Stadt"},"district":{"key":"07143","name":"Westerwaldkreis","type":"Landkreis"},"federalState":{"key":"07","name":"Rheinland-Pfalz"}},{"name":"Taunusstr.","postalCode":"56410","locality":"Montabaur","municipality":{"key":"07143048","name":"Montabaur, Stadt","type":"Stadt"},"district":{"key":"07143","name":"Westerwaldkreis","type":"Landkreis"},"federalState":{"key":"07","name":"Rheinland-Pfalz"}},{"name":"Tiergartenstr.","postalCode":"56410","locality":"Montabaur","municipality":{"key":"07143048","name":"Montabaur, Stadt","type":"Stadt"},"district":{"key":"07143","name":"Westerwaldkreis","type":"Landkreis"},"federalState":{"key":"07","name":"Rheinland-Pfalz"}},{"name":"Tonnerrestr.","postalCode":"56410","locality":"Montabaur","municipality":{"key":"07143048","name":"Montabaur, Stadt","type":"Stadt"},"district":{"key":"07143","name":"Westerwaldkreis","type":"Landkreis"},"federalState":{"key":"07","name":"Rheinland-Pfalz"}},{"name":"Tulpenstr.","postalCode":"56410","locality":"Montabaur","municipality":{"key":"07143048","name":"Montabaur, Stadt","type":"Stadt"},"district":{"key":"07143","name":"Westerwaldkreis","type":"Landkreis"},"federalState":{"key":"07","name":"Rheinland-Pfalz"}},{"name":"Unter dem Bornrain","postalCode":"56410","locality":"Montabaur","municipality":{"key":"07143048","name":"Montabaur, Stadt","type":"Stadt"},"district":{"key":"07143","name":"Westerwaldkreis","type":"Landkreis"},"federalState":{"key":"07","name":"Rheinland-Pfalz"}},{"name":"Unter dem Hahn","postalCode":"56410","locality":"Montabaur","municipality":{"key":"07143048","name":"Montabaur, Stadt","type":"Stadt"},"district":{"key":"07143","name":"Westerwaldkreis","type":"Landkreis"},"federalState":{"key":"07","name":"Rheinland-Pfalz"}},{"name":"Untere Plötzgasse","postalCode":"56410","locality":"Montabaur","municipality":{"key":"07143048","name":"Montabaur, Stadt","type":"Stadt"},"district":{"key":"07143","name":"Westerwaldkreis","type":"Landkreis"},"federalState":{"key":"07","name":"Rheinland-Pfalz"}},{"name":"Veilchenstr.","postalCode":"56410","locality":"Montabaur","municipality":{"key":"07143048","name":"Montabaur, Stadt","type":"Stadt"},"district":{"key":"07143","name":"Westerwaldkreis","type":"Landkreis"},"federalState":{"key":"07","name":"Rheinland-Pfalz"}},{"name":"Venusstr.","postalCode":"56410","locality":"Montabaur","municipality":{"key":"07143048","name":"Montabaur, Stadt","type":"Stadt"},"district":{"key":"07143","name":"Westerwaldkreis","type":"Landkreis"},"federalState":{"key":"07","name":"Rheinland-Pfalz"}},{"name":"Von-Bodelschwingh-Str.","postalCode":"56410","locality":"Montabaur","municipality":{"key":"07143048","name":"Montabaur, Stadt","type":"Stadt"},"district":{"key":"07143","name":"Westerwaldkreis","type":"Landkreis"},"federalState":{"key":"07","name":"Rheinland-Pfalz"}},{"name":"Von-Orsbeck-Str.","postalCode":"56410","locality":"Montabaur","municipality":{"key":"07143048","name":"Montabaur, Stadt","type":"Stadt"},"district":{"key":"07143","name":"Westerwaldkreis","type":"Landkreis"},"federalState":{"key":"07","name":"Rheinland-Pfalz"}},{"name":"Vor dem Forsthaus","postalCode":"56410","locality":"Montabaur","municipality":{"key":"07143048","name":"Montabaur, Stadt","type":"Stadt"},"district":{"key":"07143","name":"Westerwaldkreis","type":"Landkreis"},"federalState":{"key":"07","name":"Rheinland-Pfalz"}},{"name":"Vorderer Rebstock","postalCode":"56410","locality":"Montabaur","municipality":{"key":"07143048","name":"Montabaur, Stadt","type":"Stadt"},"district":{"key":"07143","name":"Westerwaldkreis","type":"Landkreis"},"federalState":{"key":"07","name":"Rheinland-Pfalz"}},{"name":"Wagnerstr.","postalCode":"56410","locality":"Montabaur","municipality":{"key":"07143048","name":"Montabaur, Stadt","type":"Stadt"},"district":{"key":"07143","name":"Westerwaldkreis","type":"Landkreis"},"federalState":{"key":"07","name":"Rheinland-Pfalz"}},{"name":"Waldbachstr.","postalCode":"56410","locality":"Montabaur","municipality":{"key":"07143048","name":"Montabaur, Stadt","type":"Stadt"},"district":{"key":"07143","name":"Westerwaldkreis","type":"Landkreis"},"federalState":{"key":"07","name":"Rheinland-Pfalz"}},{"name":"Waldlehrpfad","postalCode":"56410","locality":"Montabaur","municipality":{"key":"07143048","name":"Montabaur, Stadt","type":"Stadt"},"district":{"key":"07143","name":"Westerwaldkreis","type":"Landkreis"},"federalState":{"key":"07","name":"Rheinland-Pfalz"}},{"name":"Waldstr.","postalCode":"56410","locality":"Montabaur","municipality":{"key":"07143048","name":"Montabaur, Stadt","type":"Stadt"},"district":{"key":"07143","name":"Westerwaldkreis","type":"Landkreis"},"federalState":{"key":"07","name":"Rheinland-Pfalz"}},{"name":"Wallstr.","postalCode":"56410","locality":"Montabaur","municipality":{"key":"07143048","name":"Montabaur, Stadt","type":"Stadt"},"district":{"key":"07143","name":"Westerwaldkreis","type":"Landkreis"},"federalState":{"key":"07","name":"Rheinland-Pfalz"}},{"name":"Warthestr.","postalCode":"56410","locality":"Montabaur","municipality":{"key":"07143048","name":"Montabaur, Stadt","type":"Stadt"},"district":{"key":"07143","name":"Westerwaldkreis","type":"Landkreis"},"federalState":{"key":"07","name":"Rheinland-Pfalz"}},{"name":"Waterloostr.","postalCode":"56410","locality":"Montabaur","municipality":{"key":"07143048","name":"Montabaur, Stadt","type":"Stadt"},"district":{"key":"07143","name":"Westerwaldkreis","type":"Landkreis"},"federalState":{"key":"07","name":"Rheinland-Pfalz"}},{"name":"Werkstr.","postalCode":"56410","locality":"Montabaur","municipality":{"key":"07143048","name":"Montabaur, Stadt","type":"Stadt"},"district":{"key":"07143","name":"Westerwaldkreis","type":"Landkreis"},"federalState":{"key":"07","name":"Rheinland-Pfalz"}},{"name":"Werrastr.","postalCode":"56410","locality":"Montabaur","municipality":{"key":"07143048","name":"Montabaur, Stadt","type":"Stadt"},"district":{"key":"07143","name":"Westerwaldkreis","type":"Landkreis"},"federalState":{"key":"07","name":"Rheinland-Pfalz"}},{"name":"Weserstr.","postalCode":"56410","locality":"Montabaur","municipality":{"key":"07143048","name":"Montabaur, Stadt","type":"Stadt"},"district":{"key":"07143","name":"Westerwaldkreis","type":"Landkreis"},"federalState":{"key":"07","name":"Rheinland-Pfalz"}},{"name":"Westerwaldstr.","postalCode":"56410","locality":"Montabaur","municipality":{"key":"07143048","name":"Montabaur, Stadt","type":"Stadt"},"district":{"key":"07143","name":"Westerwaldkreis","type":"Landkreis"},"federalState":{"key":"07","name":"Rheinland-Pfalz"}},{"name":"Weststr.","postalCode":"56410","locality":"Montabaur","municipality":{"key":"07143048","name":"Montabaur, Stadt","type":"Stadt"},"district":{"key":"07143","name":"Westerwaldkreis","type":"Landkreis"},"federalState":{"key":"07","name":"Rheinland-Pfalz"}},{"name":"Wiedstr.","postalCode":"56410","locality":"Montabaur","municipality":{"key":"07143048","name":"Montabaur, Stadt","type":"Stadt"},"district":{"key":"07143","name":"Westerwaldkreis","type":"Landkreis"},"federalState":{"key":"07","name":"Rheinland-Pfalz"}},{"name":"Wilhelm-Mangels-Str.","postalCode":"56410","locality":"Montabaur","municipality":{"key":"07143048","name":"Montabaur, Stadt","type":"Stadt"},"district":{"key":"07143","name":"Westerwaldkreis","type":"Landkreis"},"federalState":{"key":"07","name":"Rheinland-Pfalz"}},{"name":"Willibald-Schütz-Platz","postalCode":"56410","locality":"Montabaur","municipality":{"key":"07143048","name":"Montabaur, Stadt","type":"Stadt"},"district":{"key":"07143","name":"Westerwaldkreis","type":"Landkreis"},"federalState":{"key":"07","name":"Rheinland-Pfalz"}},{"name":"Wirzenborner Str.","postalCode":"56410","locality":"Montabaur","municipality":{"key":"07143048","name":"Montabaur, Stadt","type":"Stadt"},"district":{"key":"07143","name":"Westerwaldkreis","type":"Landkreis"},"federalState":{"key":"07","name":"Rheinland-Pfalz"}},{"name":"Wölfchesbitzstr.","postalCode":"56410","locality":"Montabaur","municipality":{"key":"07143048","name":"Montabaur, Stadt","type":"Stadt"},"district":{"key":"07143","name":"Westerwaldkreis","type":"Landkreis"},"federalState":{"key":"07","name":"Rheinland-Pfalz"}},{"name":"Zur Hüttenmühle","postalCode":"56410","locality":"Montabaur","municipality":{"key":"07143048","name":"Montabaur, Stadt","type":"Stadt"},"district":{"key":"07143","name":"Westerwaldkreis","type":"Landkreis"},"federalState":{"key":"07","name":"Rheinland-Pfalz"}},{"name":"Zur Waldesruhe","postalCode":"56410","locality":"Montabaur","municipality":{"key":"07143048","name":"Montabaur, Stadt","type":"Stadt"},"district":{"key":"07143","name":"Westerwaldkreis","type":"Landkreis"},"federalState":{"key":"07","name":"Rheinland-Pfalz"}},]