[{"name":"Alte Dorfstr.","postalCode":"29578","locality":"Eimke","municipality":{"key":"03360007","name":"Eimke","type":"Kreisangehörige_Gemeinde"},"district":{"key":"03360","name":"Uelzen","type":"Landkreis"},"federalState":{"key":"03","name":"Niedersachsen"}},{"name":"Alte Poststr.","postalCode":"29578","locality":"Eimke","municipality":{"key":"03360007","name":"Eimke","type":"Kreisangehörige_Gemeinde"},"district":{"key":"03360","name":"Uelzen","type":"Landkreis"},"federalState":{"key":"03","name":"Niedersachsen"}},{"name":"Am Freibad","postalCode":"29578","locality":"Eimke","municipality":{"key":"03360007","name":"Eimke","type":"Kreisangehörige_Gemeinde"},"district":{"key":"03360","name":"Uelzen","type":"Landkreis"},"federalState":{"key":"03","name":"Niedersachsen"}},{"name":"Am Maienberg","postalCode":"29578","locality":"Eimke","municipality":{"key":"03360007","name":"Eimke","type":"Kreisangehörige_Gemeinde"},"district":{"key":"03360","name":"Uelzen","type":"Landkreis"},"federalState":{"key":"03","name":"Niedersachsen"}},{"name":"Am Mannhorn","postalCode":"29578","locality":"Eimke","municipality":{"key":"03360007","name":"Eimke","type":"Kreisangehörige_Gemeinde"},"district":{"key":"03360","name":"Uelzen","type":"Landkreis"},"federalState":{"key":"03","name":"Niedersachsen"}},{"name":"Am Sportplatz","postalCode":"29578","locality":"Eimke","municipality":{"key":"03360007","name":"Eimke","type":"Kreisangehörige_Gemeinde"},"district":{"key":"03360","name":"Uelzen","type":"Landkreis"},"federalState":{"key":"03","name":"Niedersachsen"}},{"name":"Bahnser Str.","postalCode":"29578","locality":"Eimke","municipality":{"key":"03360007","name":"Eimke","type":"Kreisangehörige_Gemeinde"},"district":{"key":"03360","name":"Uelzen","type":"Landkreis"},"federalState":{"key":"03","name":"Niedersachsen"}},{"name":"Bergstr.","postalCode":"29578","locality":"Eimke","municipality":{"key":"03360007","name":"Eimke","type":"Kreisangehörige_Gemeinde"},"district":{"key":"03360","name":"Uelzen","type":"Landkreis"},"federalState":{"key":"03","name":"Niedersachsen"}},{"name":"Birkenweg","postalCode":"29578","locality":"Eimke","municipality":{"key":"03360007","name":"Eimke","type":"Kreisangehörige_Gemeinde"},"district":{"key":"03360","name":"Uelzen","type":"Landkreis"},"federalState":{"key":"03","name":"Niedersachsen"}},{"name":"Birkhof","postalCode":"29578","locality":"Eimke","municipality":{"key":"03360007","name":"Eimke","type":"Kreisangehörige_Gemeinde"},"district":{"key":"03360","name":"Uelzen","type":"Landkreis"},"federalState":{"key":"03","name":"Niedersachsen"}},{"name":"Brambosteler Weg","postalCode":"29578","locality":"Eimke","municipality":{"key":"03360007","name":"Eimke","type":"Kreisangehörige_Gemeinde"},"district":{"key":"03360","name":"Uelzen","type":"Landkreis"},"federalState":{"key":"03","name":"Niedersachsen"}},{"name":"Brockhöfer Str.","postalCode":"29578","locality":"Eimke","municipality":{"key":"03360007","name":"Eimke","type":"Kreisangehörige_Gemeinde"},"district":{"key":"03360","name":"Uelzen","type":"Landkreis"},"federalState":{"key":"03","name":"Niedersachsen"}},{"name":"Caspar-Lehman-Str.","postalCode":"29525","locality":"Uelzen","municipality":{"key":"03360025","name":"Uelzen, Hansestadt","type":"Stadt"},"district":{"key":"03360","name":"Uelzen","type":"Landkreis"},"federalState":{"key":"03","name":"Niedersachsen"}},{"name":"Celler Str.","postalCode":"29525","locality":"Uelzen","municipality":{"key":"03360025","name":"Uelzen, Hansestadt","type":"Stadt"},"district":{"key":"03360","name":"Uelzen","type":"Landkreis"},"federalState":{"key":"03","name":"Niedersachsen"}},{"name":"Dorfstr.","postalCode":"29578","locality":"Eimke","municipality":{"key":"03360007","name":"Eimke","type":"Kreisangehörige_Gemeinde"},"district":{"key":"03360","name":"Uelzen","type":"Landkreis"},"federalState":{"key":"03","name":"Niedersachsen"}},{"name":"Ebstorfer Str.","postalCode":"29578","locality":"Eimke","municipality":{"key":"03360007","name":"Eimke","type":"Kreisangehörige_Gemeinde"},"district":{"key":"03360","name":"Uelzen","type":"Landkreis"},"federalState":{"key":"03","name":"Niedersachsen"}},{"name":"Eimker Str.","postalCode":"29578","locality":"Eimke","municipality":{"key":"03360007","name":"Eimke","type":"Kreisangehörige_Gemeinde"},"district":{"key":"03360","name":"Uelzen","type":"Landkreis"},"federalState":{"key":"03","name":"Niedersachsen"}},{"name":"Ellerndorfer Str.","postalCode":"29578","locality":"Eimke","municipality":{"key":"03360007","name":"Eimke","type":"Kreisangehörige_Gemeinde"},"district":{"key":"03360","name":"Uelzen","type":"Landkreis"},"federalState":{"key":"03","name":"Niedersachsen"}},{"name":"Falkenweg","postalCode":"29525","locality":"Uelzen","municipality":{"key":"03360025","name":"Uelzen, Hansestadt","type":"Stadt"},"district":{"key":"03360","name":"Uelzen","type":"Landkreis"},"federalState":{"key":"03","name":"Niedersachsen"}},{"name":"Familienpark","postalCode":"29525","locality":"Uelzen","municipality":{"key":"03360025","name":"Uelzen, Hansestadt","type":"Stadt"},"district":{"key":"03360","name":"Uelzen","type":"Landkreis"},"federalState":{"key":"03","name":"Niedersachsen"}},{"name":"Fasanenweg","postalCode":"29525","locality":"Uelzen","municipality":{"key":"03360025","name":"Uelzen, Hansestadt","type":"Stadt"},"district":{"key":"03360","name":"Uelzen","type":"Landkreis"},"federalState":{"key":"03","name":"Niedersachsen"}},{"name":"Feldstr.","postalCode":"29525","locality":"Uelzen","municipality":{"key":"03360025","name":"Uelzen, Hansestadt","type":"Stadt"},"district":{"key":"03360","name":"Uelzen","type":"Landkreis"},"federalState":{"key":"03","name":"Niedersachsen"}},{"name":"Festplatzweg","postalCode":"29525","locality":"Uelzen","municipality":{"key":"03360025","name":"Uelzen, Hansestadt","type":"Stadt"},"district":{"key":"03360","name":"Uelzen","type":"Landkreis"},"federalState":{"key":"03","name":"Niedersachsen"}},{"name":"Fichtengrund","postalCode":"29525","locality":"Uelzen","municipality":{"key":"03360025","name":"Uelzen, Hansestadt","type":"Stadt"},"district":{"key":"03360","name":"Uelzen","type":"Landkreis"},"federalState":{"key":"03","name":"Niedersachsen"}},{"name":"Fichtenhof","postalCode":"29525","locality":"Uelzen","municipality":{"key":"03360025","name":"Uelzen, Hansestadt","type":"Stadt"},"district":{"key":"03360","name":"Uelzen","type":"Landkreis"},"federalState":{"key":"03","name":"Niedersachsen"}},{"name":"Finkenstieg","postalCode":"29525","locality":"Uelzen","municipality":{"key":"03360025","name":"Uelzen, Hansestadt","type":"Stadt"},"district":{"key":"03360","name":"Uelzen","type":"Landkreis"},"federalState":{"key":"03","name":"Niedersachsen"}},{"name":"Finkenweg","postalCode":"29525","locality":"Uelzen","municipality":{"key":"03360025","name":"Uelzen, Hansestadt","type":"Stadt"},"district":{"key":"03360","name":"Uelzen","type":"Landkreis"},"federalState":{"key":"03","name":"Niedersachsen"}},{"name":"Fischerhof","postalCode":"29525","locality":"Uelzen","municipality":{"key":"03360025","name":"Uelzen, Hansestadt","type":"Stadt"},"district":{"key":"03360","name":"Uelzen","type":"Landkreis"},"federalState":{"key":"03","name":"Niedersachsen"}},{"name":"Fischerhofkreisel","postalCode":"29525","locality":"Uelzen","municipality":{"key":"03360025","name":"Uelzen, Hansestadt","type":"Stadt"},"district":{"key":"03360","name":"Uelzen","type":"Landkreis"},"federalState":{"key":"03","name":"Niedersachsen"}},{"name":"Fischerhofstr.","postalCode":"29525","locality":"Uelzen","municipality":{"key":"03360025","name":"Uelzen, Hansestadt","type":"Stadt"},"district":{"key":"03360","name":"Uelzen","type":"Landkreis"},"federalState":{"key":"03","name":"Niedersachsen"}},{"name":"Flachskamp","postalCode":"29525","locality":"Uelzen","municipality":{"key":"03360025","name":"Uelzen, Hansestadt","type":"Stadt"},"district":{"key":"03360","name":"Uelzen","type":"Landkreis"},"federalState":{"key":"03","name":"Niedersachsen"}},{"name":"Fliederweg","postalCode":"29525","locality":"Uelzen","municipality":{"key":"03360025","name":"Uelzen, Hansestadt","type":"Stadt"},"district":{"key":"03360","name":"Uelzen","type":"Landkreis"},"federalState":{"key":"03","name":"Niedersachsen"}},{"name":"Forstweg","postalCode":"29525","locality":"Uelzen","municipality":{"key":"03360025","name":"Uelzen, Hansestadt","type":"Stadt"},"district":{"key":"03360","name":"Uelzen","type":"Landkreis"},"federalState":{"key":"03","name":"Niedersachsen"}},{"name":"Friedensreich-Hundertwasser-Platz","postalCode":"29525","locality":"Uelzen","municipality":{"key":"03360025","name":"Uelzen, Hansestadt","type":"Stadt"},"district":{"key":"03360","name":"Uelzen","type":"Landkreis"},"federalState":{"key":"03","name":"Niedersachsen"}},{"name":"Friedrich-Ebert-Str.","postalCode":"29525","locality":"Uelzen","municipality":{"key":"03360025","name":"Uelzen, Hansestadt","type":"Stadt"},"district":{"key":"03360","name":"Uelzen","type":"Landkreis"},"federalState":{"key":"03","name":"Niedersachsen"}},{"name":"Friedrich-Seeßelberg-Str.","postalCode":"29525","locality":"Uelzen","municipality":{"key":"03360025","name":"Uelzen, Hansestadt","type":"Stadt"},"district":{"key":"03360","name":"Uelzen","type":"Landkreis"},"federalState":{"key":"03","name":"Niedersachsen"}},{"name":"Friedrichsruh","postalCode":"29525","locality":"Uelzen","municipality":{"key":"03360025","name":"Uelzen, Hansestadt","type":"Stadt"},"district":{"key":"03360","name":"Uelzen","type":"Landkreis"},"federalState":{"key":"03","name":"Niedersachsen"}},{"name":"Friedrichstr.","postalCode":"29525","locality":"Uelzen","municipality":{"key":"03360025","name":"Uelzen, Hansestadt","type":"Stadt"},"district":{"key":"03360","name":"Uelzen","type":"Landkreis"},"federalState":{"key":"03","name":"Niedersachsen"}},{"name":"Friedwaldweg","postalCode":"29525","locality":"Uelzen","municipality":{"key":"03360025","name":"Uelzen, Hansestadt","type":"Stadt"},"district":{"key":"03360","name":"Uelzen","type":"Landkreis"},"federalState":{"key":"03","name":"Niedersachsen"}},{"name":"Fritz-Reuter-Str.","postalCode":"29525","locality":"Uelzen","municipality":{"key":"03360025","name":"Uelzen, Hansestadt","type":"Stadt"},"district":{"key":"03360","name":"Uelzen","type":"Landkreis"},"federalState":{"key":"03","name":"Niedersachsen"}},{"name":"Fritz-Röver-Str.","postalCode":"29525","locality":"Uelzen","municipality":{"key":"03360025","name":"Uelzen, Hansestadt","type":"Stadt"},"district":{"key":"03360","name":"Uelzen","type":"Landkreis"},"federalState":{"key":"03","name":"Niedersachsen"}},{"name":"Fuchsberg","postalCode":"29525","locality":"Uelzen","municipality":{"key":"03360025","name":"Uelzen, Hansestadt","type":"Stadt"},"district":{"key":"03360","name":"Uelzen","type":"Landkreis"},"federalState":{"key":"03","name":"Niedersachsen"}},{"name":"Groß Süstedter Weg","postalCode":"29578","locality":"Eimke","municipality":{"key":"03360007","name":"Eimke","type":"Kreisangehörige_Gemeinde"},"district":{"key":"03360","name":"Uelzen","type":"Landkreis"},"federalState":{"key":"03","name":"Niedersachsen"}},{"name":"Hauptstr.","postalCode":"29578","locality":"Eimke","municipality":{"key":"03360007","name":"Eimke","type":"Kreisangehörige_Gemeinde"},"district":{"key":"03360","name":"Uelzen","type":"Landkreis"},"federalState":{"key":"03","name":"Niedersachsen"}},{"name":"Heide","postalCode":"29578","locality":"Eimke","municipality":{"key":"03360007","name":"Eimke","type":"Kreisangehörige_Gemeinde"},"district":{"key":"03360","name":"Uelzen","type":"Landkreis"},"federalState":{"key":"03","name":"Niedersachsen"}},{"name":"Horstberg","postalCode":"29578","locality":"Eimke","municipality":{"key":"03360007","name":"Eimke","type":"Kreisangehörige_Gemeinde"},"district":{"key":"03360","name":"Uelzen","type":"Landkreis"},"federalState":{"key":"03","name":"Niedersachsen"}},{"name":"Im Sande","postalCode":"29578","locality":"Eimke","municipality":{"key":"03360007","name":"Eimke","type":"Kreisangehörige_Gemeinde"},"district":{"key":"03360","name":"Uelzen","type":"Landkreis"},"federalState":{"key":"03","name":"Niedersachsen"}},{"name":"Jägerstr.","postalCode":"29525","locality":"Uelzen","municipality":{"key":"03360025","name":"Uelzen, Hansestadt","type":"Stadt"},"district":{"key":"03360","name":"Uelzen","type":"Landkreis"},"federalState":{"key":"03","name":"Niedersachsen"}},{"name":"Johannesstr.","postalCode":"29525","locality":"Uelzen","municipality":{"key":"03360025","name":"Uelzen, Hansestadt","type":"Stadt"},"district":{"key":"03360","name":"Uelzen","type":"Landkreis"},"federalState":{"key":"03","name":"Niedersachsen"}},{"name":"Johnsburg","postalCode":"29525","locality":"Uelzen","municipality":{"key":"03360025","name":"Uelzen, Hansestadt","type":"Stadt"},"district":{"key":"03360","name":"Uelzen","type":"Landkreis"},"federalState":{"key":"03","name":"Niedersachsen"}},{"name":"Johnsburg Kreisel","postalCode":"29525","locality":"Uelzen","municipality":{"key":"03360025","name":"Uelzen, Hansestadt","type":"Stadt"},"district":{"key":"03360","name":"Uelzen","type":"Landkreis"},"federalState":{"key":"03","name":"Niedersachsen"}},{"name":"Kattenstr.","postalCode":"29578","locality":"Eimke","municipality":{"key":"03360007","name":"Eimke","type":"Kreisangehörige_Gemeinde"},"district":{"key":"03360","name":"Uelzen","type":"Landkreis"},"federalState":{"key":"03","name":"Niedersachsen"}},{"name":"Kiehnmoorweg","postalCode":"29578","locality":"Eimke","municipality":{"key":"03360007","name":"Eimke","type":"Kreisangehörige_Gemeinde"},"district":{"key":"03360","name":"Uelzen","type":"Landkreis"},"federalState":{"key":"03","name":"Niedersachsen"}},{"name":"Kirchweg","postalCode":"29578","locality":"Eimke","municipality":{"key":"03360007","name":"Eimke","type":"Kreisangehörige_Gemeinde"},"district":{"key":"03360","name":"Uelzen","type":"Landkreis"},"federalState":{"key":"03","name":"Niedersachsen"}},{"name":"Kreisstr.","postalCode":"29578","locality":"Eimke","municipality":{"key":"03360007","name":"Eimke","type":"Kreisangehörige_Gemeinde"},"district":{"key":"03360","name":"Uelzen","type":"Landkreis"},"federalState":{"key":"03","name":"Niedersachsen"}},{"name":"Lindener Str.","postalCode":"29578","locality":"Eimke","municipality":{"key":"03360007","name":"Eimke","type":"Kreisangehörige_Gemeinde"},"district":{"key":"03360","name":"Uelzen","type":"Landkreis"},"federalState":{"key":"03","name":"Niedersachsen"}},{"name":"Lönsweg","postalCode":"29578","locality":"Eimke","municipality":{"key":"03360007","name":"Eimke","type":"Kreisangehörige_Gemeinde"},"district":{"key":"03360","name":"Uelzen","type":"Landkreis"},"federalState":{"key":"03","name":"Niedersachsen"}},{"name":"Mühlenfeld","postalCode":"29578","locality":"Eimke","municipality":{"key":"03360007","name":"Eimke","type":"Kreisangehörige_Gemeinde"},"district":{"key":"03360","name":"Uelzen","type":"Landkreis"},"federalState":{"key":"03","name":"Niedersachsen"}},{"name":"Mühlenstr.","postalCode":"29578","locality":"Eimke","municipality":{"key":"03360007","name":"Eimke","type":"Kreisangehörige_Gemeinde"},"district":{"key":"03360","name":"Uelzen","type":"Landkreis"},"federalState":{"key":"03","name":"Niedersachsen"}},{"name":"Nelkenweg","postalCode":"29525","locality":"Uelzen","municipality":{"key":"03360025","name":"Uelzen, Hansestadt","type":"Stadt"},"district":{"key":"03360","name":"Uelzen","type":"Landkreis"},"federalState":{"key":"03","name":"Niedersachsen"}},{"name":"Neu Ripdorf","postalCode":"29525","locality":"Uelzen","municipality":{"key":"03360025","name":"Uelzen, Hansestadt","type":"Stadt"},"district":{"key":"03360","name":"Uelzen","type":"Landkreis"},"federalState":{"key":"03","name":"Niedersachsen"}},{"name":"Niemannsweg","postalCode":"29525","locality":"Uelzen","municipality":{"key":"03360025","name":"Uelzen, Hansestadt","type":"Stadt"},"district":{"key":"03360","name":"Uelzen","type":"Landkreis"},"federalState":{"key":"03","name":"Niedersachsen"}},{"name":"Niendorfer Str.","postalCode":"29525","locality":"Uelzen","municipality":{"key":"03360025","name":"Uelzen, Hansestadt","type":"Stadt"},"district":{"key":"03360","name":"Uelzen","type":"Landkreis"},"federalState":{"key":"03","name":"Niedersachsen"}},{"name":"Niendorfer Weg","postalCode":"29525","locality":"Uelzen","municipality":{"key":"03360025","name":"Uelzen, Hansestadt","type":"Stadt"},"district":{"key":"03360","name":"Uelzen","type":"Landkreis"},"federalState":{"key":"03","name":"Niedersachsen"}},{"name":"Nordallee","postalCode":"29525","locality":"Uelzen","municipality":{"key":"03360025","name":"Uelzen, Hansestadt","type":"Stadt"},"district":{"key":"03360","name":"Uelzen","type":"Landkreis"},"federalState":{"key":"03","name":"Niedersachsen"}},{"name":"Norkstr.","postalCode":"29525","locality":"Uelzen","municipality":{"key":"03360025","name":"Uelzen, Hansestadt","type":"Stadt"},"district":{"key":"03360","name":"Uelzen","type":"Landkreis"},"federalState":{"key":"03","name":"Niedersachsen"}},{"name":"Nothmannstr.","postalCode":"29525","locality":"Uelzen","municipality":{"key":"03360025","name":"Uelzen, Hansestadt","type":"Stadt"},"district":{"key":"03360","name":"Uelzen","type":"Landkreis"},"federalState":{"key":"03","name":"Niedersachsen"}},{"name":"Oetzener Str.","postalCode":"29525","locality":"Uelzen","municipality":{"key":"03360025","name":"Uelzen, Hansestadt","type":"Stadt"},"district":{"key":"03360","name":"Uelzen","type":"Landkreis"},"federalState":{"key":"03","name":"Niedersachsen"}},{"name":"Oldenstädter Str.","postalCode":"29525","locality":"Uelzen","municipality":{"key":"03360025","name":"Uelzen, Hansestadt","type":"Stadt"},"district":{"key":"03360","name":"Uelzen","type":"Landkreis"},"federalState":{"key":"03","name":"Niedersachsen"}},{"name":"Orchideenweg","postalCode":"29525","locality":"Uelzen","municipality":{"key":"03360025","name":"Uelzen, Hansestadt","type":"Stadt"},"district":{"key":"03360","name":"Uelzen","type":"Landkreis"},"federalState":{"key":"03","name":"Niedersachsen"}},{"name":"Ortsumgehung Kirchweyhe","postalCode":"29525","locality":"Uelzen","municipality":{"key":"03360025","name":"Uelzen, Hansestadt","type":"Stadt"},"district":{"key":"03360","name":"Uelzen","type":"Landkreis"},"federalState":{"key":"03","name":"Niedersachsen"}},{"name":"Oskar-Wachler-Weg","postalCode":"29525","locality":"Uelzen","municipality":{"key":"03360025","name":"Uelzen, Hansestadt","type":"Stadt"},"district":{"key":"03360","name":"Uelzen","type":"Landkreis"},"federalState":{"key":"03","name":"Niedersachsen"}},{"name":"Ostermarsch","postalCode":"29525","locality":"Uelzen","municipality":{"key":"03360025","name":"Uelzen, Hansestadt","type":"Stadt"},"district":{"key":"03360","name":"Uelzen","type":"Landkreis"},"federalState":{"key":"03","name":"Niedersachsen"}},{"name":"Osterstr.","postalCode":"29525","locality":"Uelzen","municipality":{"key":"03360025","name":"Uelzen, Hansestadt","type":"Stadt"},"district":{"key":"03360","name":"Uelzen","type":"Landkreis"},"federalState":{"key":"03","name":"Niedersachsen"}},{"name":"Ostmarkstr.","postalCode":"29525","locality":"Uelzen","municipality":{"key":"03360025","name":"Uelzen, Hansestadt","type":"Stadt"},"district":{"key":"03360","name":"Uelzen","type":"Landkreis"},"federalState":{"key":"03","name":"Niedersachsen"}},{"name":"Ostpreußenring","postalCode":"29525","locality":"Uelzen","municipality":{"key":"03360025","name":"Uelzen, Hansestadt","type":"Stadt"},"district":{"key":"03360","name":"Uelzen","type":"Landkreis"},"federalState":{"key":"03","name":"Niedersachsen"}},{"name":"Parkweg","postalCode":"29578","locality":"Eimke","municipality":{"key":"03360007","name":"Eimke","type":"Kreisangehörige_Gemeinde"},"district":{"key":"03360","name":"Uelzen","type":"Landkreis"},"federalState":{"key":"03","name":"Niedersachsen"}},{"name":"Pflasterstr.","postalCode":"29578","locality":"Eimke","municipality":{"key":"03360007","name":"Eimke","type":"Kreisangehörige_Gemeinde"},"district":{"key":"03360","name":"Uelzen","type":"Landkreis"},"federalState":{"key":"03","name":"Niedersachsen"}},{"name":"Rabenweg","postalCode":"29525","locality":"Uelzen","municipality":{"key":"03360025","name":"Uelzen, Hansestadt","type":"Stadt"},"district":{"key":"03360","name":"Uelzen","type":"Landkreis"},"federalState":{"key":"03","name":"Niedersachsen"}},{"name":"Rademacherstr.","postalCode":"29525","locality":"Uelzen","municipality":{"key":"03360025","name":"Uelzen, Hansestadt","type":"Stadt"},"district":{"key":"03360","name":"Uelzen","type":"Landkreis"},"federalState":{"key":"03","name":"Niedersachsen"}},{"name":"Rätzlinger Str.","postalCode":"29525","locality":"Uelzen","municipality":{"key":"03360025","name":"Uelzen, Hansestadt","type":"Stadt"},"district":{"key":"03360","name":"Uelzen","type":"Landkreis"},"federalState":{"key":"03","name":"Niedersachsen"}},{"name":"Rehwiese","postalCode":"29525","locality":"Uelzen","municipality":{"key":"03360025","name":"Uelzen, Hansestadt","type":"Stadt"},"district":{"key":"03360","name":"Uelzen","type":"Landkreis"},"federalState":{"key":"03","name":"Niedersachsen"}},{"name":"Reiherstieg","postalCode":"29525","locality":"Uelzen","municipality":{"key":"03360025","name":"Uelzen, Hansestadt","type":"Stadt"},"district":{"key":"03360","name":"Uelzen","type":"Landkreis"},"federalState":{"key":"03","name":"Niedersachsen"}},{"name":"Reithausstr.","postalCode":"29525","locality":"Uelzen","municipality":{"key":"03360025","name":"Uelzen, Hansestadt","type":"Stadt"},"district":{"key":"03360","name":"Uelzen","type":"Landkreis"},"federalState":{"key":"03","name":"Niedersachsen"}},{"name":"Riedweg","postalCode":"29525","locality":"Uelzen","municipality":{"key":"03360025","name":"Uelzen, Hansestadt","type":"Stadt"},"district":{"key":"03360","name":"Uelzen","type":"Landkreis"},"federalState":{"key":"03","name":"Niedersachsen"}},{"name":"Rießelkamp","postalCode":"29525","locality":"Uelzen","municipality":{"key":"03360025","name":"Uelzen, Hansestadt","type":"Stadt"},"district":{"key":"03360","name":"Uelzen","type":"Landkreis"},"federalState":{"key":"03","name":"Niedersachsen"}},{"name":"Riestedter Ring","postalCode":"29525","locality":"Uelzen","municipality":{"key":"03360025","name":"Uelzen, Hansestadt","type":"Stadt"},"district":{"key":"03360","name":"Uelzen","type":"Landkreis"},"federalState":{"key":"03","name":"Niedersachsen"}},{"name":"Ringstr.","postalCode":"29525","locality":"Uelzen","municipality":{"key":"03360025","name":"Uelzen, Hansestadt","type":"Stadt"},"district":{"key":"03360","name":"Uelzen","type":"Landkreis"},"federalState":{"key":"03","name":"Niedersachsen"}},{"name":"Ripdorf","postalCode":"29525","locality":"Uelzen","municipality":{"key":"03360025","name":"Uelzen, Hansestadt","type":"Stadt"},"district":{"key":"03360","name":"Uelzen","type":"Landkreis"},"federalState":{"key":"03","name":"Niedersachsen"}},{"name":"Ripdorfer Str.","postalCode":"29525","locality":"Uelzen","municipality":{"key":"03360025","name":"Uelzen, Hansestadt","type":"Stadt"},"district":{"key":"03360","name":"Uelzen","type":"Landkreis"},"federalState":{"key":"03","name":"Niedersachsen"}},{"name":"Robert-Koch-Str.","postalCode":"29525","locality":"Uelzen","municipality":{"key":"03360025","name":"Uelzen, Hansestadt","type":"Stadt"},"district":{"key":"03360","name":"Uelzen","type":"Landkreis"},"federalState":{"key":"03","name":"Niedersachsen"}},{"name":"Rodelandstr.","postalCode":"29525","locality":"Uelzen","municipality":{"key":"03360025","name":"Uelzen, Hansestadt","type":"Stadt"},"district":{"key":"03360","name":"Uelzen","type":"Landkreis"},"federalState":{"key":"03","name":"Niedersachsen"}},{"name":"Roggenkamp","postalCode":"29525","locality":"Uelzen","municipality":{"key":"03360025","name":"Uelzen, Hansestadt","type":"Stadt"},"district":{"key":"03360","name":"Uelzen","type":"Landkreis"},"federalState":{"key":"03","name":"Niedersachsen"}},{"name":"Ronnewiesen","postalCode":"29525","locality":"Uelzen","municipality":{"key":"03360025","name":"Uelzen, Hansestadt","type":"Stadt"},"district":{"key":"03360","name":"Uelzen","type":"Landkreis"},"federalState":{"key":"03","name":"Niedersachsen"}},{"name":"Rosengarten","postalCode":"29525","locality":"Uelzen","municipality":{"key":"03360025","name":"Uelzen, Hansestadt","type":"Stadt"},"district":{"key":"03360","name":"Uelzen","type":"Landkreis"},"federalState":{"key":"03","name":"Niedersachsen"}},{"name":"Rosenmauer","postalCode":"29525","locality":"Uelzen","municipality":{"key":"03360025","name":"Uelzen, Hansestadt","type":"Stadt"},"district":{"key":"03360","name":"Uelzen","type":"Landkreis"},"federalState":{"key":"03","name":"Niedersachsen"}},{"name":"Rosenstr.","postalCode":"29525","locality":"Uelzen","municipality":{"key":"03360025","name":"Uelzen, Hansestadt","type":"Stadt"},"district":{"key":"03360","name":"Uelzen","type":"Landkreis"},"federalState":{"key":"03","name":"Niedersachsen"}},{"name":"Rosenweg","postalCode":"29525","locality":"Uelzen","municipality":{"key":"03360025","name":"Uelzen, Hansestadt","type":"Stadt"},"district":{"key":"03360","name":"Uelzen","type":"Landkreis"},"federalState":{"key":"03","name":"Niedersachsen"}},{"name":"Rottekuhlen","postalCode":"29525","locality":"Uelzen","municipality":{"key":"03360025","name":"Uelzen, Hansestadt","type":"Stadt"},"district":{"key":"03360","name":"Uelzen","type":"Landkreis"},"federalState":{"key":"03","name":"Niedersachsen"}},{"name":"Rudolf-Schmidt-Weg","postalCode":"29525","locality":"Uelzen","municipality":{"key":"03360025","name":"Uelzen, Hansestadt","type":"Stadt"},"district":{"key":"03360","name":"Uelzen","type":"Landkreis"},"federalState":{"key":"03","name":"Niedersachsen"}},{"name":"Rudolfstr.","postalCode":"29525","locality":"Uelzen","municipality":{"key":"03360025","name":"Uelzen, Hansestadt","type":"Stadt"},"district":{"key":"03360","name":"Uelzen","type":"Landkreis"},"federalState":{"key":"03","name":"Niedersachsen"}},{"name":"Rudolf-Virchow-Str.","postalCode":"29525","locality":"Uelzen","municipality":{"key":"03360025","name":"Uelzen, Hansestadt","type":"Stadt"},"district":{"key":"03360","name":"Uelzen","type":"Landkreis"},"federalState":{"key":"03","name":"Niedersachsen"}},{"name":"Rupertusweg","postalCode":"29525","locality":"Uelzen","municipality":{"key":"03360025","name":"Uelzen, Hansestadt","type":"Stadt"},"district":{"key":"03360","name":"Uelzen","type":"Landkreis"},"federalState":{"key":"03","name":"Niedersachsen"}},{"name":"Ruth-Schaumann-Weg","postalCode":"29525","locality":"Uelzen","municipality":{"key":"03360025","name":"Uelzen, Hansestadt","type":"Stadt"},"district":{"key":"03360","name":"Uelzen","type":"Landkreis"},"federalState":{"key":"03","name":"Niedersachsen"}},{"name":"Salzwedeler Str.","postalCode":"29578","locality":"Eimke","municipality":{"key":"03360007","name":"Eimke","type":"Kreisangehörige_Gemeinde"},"district":{"key":"03360","name":"Uelzen","type":"Landkreis"},"federalState":{"key":"03","name":"Niedersachsen"}},{"name":"Schmarbecker Weg","postalCode":"29578","locality":"Eimke","municipality":{"key":"03360007","name":"Eimke","type":"Kreisangehörige_Gemeinde"},"district":{"key":"03360","name":"Uelzen","type":"Landkreis"},"federalState":{"key":"03","name":"Niedersachsen"}},{"name":"Schöne Aussicht","postalCode":"29578","locality":"Eimke","municipality":{"key":"03360007","name":"Eimke","type":"Kreisangehörige_Gemeinde"},"district":{"key":"03360","name":"Uelzen","type":"Landkreis"},"federalState":{"key":"03","name":"Niedersachsen"}},{"name":"Schulweg","postalCode":"29578","locality":"Eimke","municipality":{"key":"03360007","name":"Eimke","type":"Kreisangehörige_Gemeinde"},"district":{"key":"03360","name":"Uelzen","type":"Landkreis"},"federalState":{"key":"03","name":"Niedersachsen"}},{"name":"Schützenstr.","postalCode":"29578","locality":"Eimke","municipality":{"key":"03360007","name":"Eimke","type":"Kreisangehörige_Gemeinde"},"district":{"key":"03360","name":"Uelzen","type":"Landkreis"},"federalState":{"key":"03","name":"Niedersachsen"}},{"name":"Trauener Weg","postalCode":"29578","locality":"Eimke","municipality":{"key":"03360007","name":"Eimke","type":"Kreisangehörige_Gemeinde"},"district":{"key":"03360","name":"Uelzen","type":"Landkreis"},"federalState":{"key":"03","name":"Niedersachsen"}},{"name":"Twiete","postalCode":"29578","locality":"Eimke","municipality":{"key":"03360007","name":"Eimke","type":"Kreisangehörige_Gemeinde"},"district":{"key":"03360","name":"Uelzen","type":"Landkreis"},"federalState":{"key":"03","name":"Niedersachsen"}},{"name":"Unterlüßer Str.","postalCode":"29578","locality":"Eimke","municipality":{"key":"03360007","name":"Eimke","type":"Kreisangehörige_Gemeinde"},"district":{"key":"03360","name":"Uelzen","type":"Landkreis"},"federalState":{"key":"03","name":"Niedersachsen"}},{"name":"Vareniusweg","postalCode":"29525","locality":"Uelzen","municipality":{"key":"03360025","name":"Uelzen, Hansestadt","type":"Stadt"},"district":{"key":"03360","name":"Uelzen","type":"Landkreis"},"federalState":{"key":"03","name":"Niedersachsen"}},{"name":"Veerßer Str.","postalCode":"29525","locality":"Uelzen","municipality":{"key":"03360025","name":"Uelzen, Hansestadt","type":"Stadt"},"district":{"key":"03360","name":"Uelzen","type":"Landkreis"},"federalState":{"key":"03","name":"Niedersachsen"}},{"name":"Von-Estorff-Str.","postalCode":"29525","locality":"Uelzen","municipality":{"key":"03360025","name":"Uelzen, Hansestadt","type":"Stadt"},"district":{"key":"03360","name":"Uelzen","type":"Landkreis"},"federalState":{"key":"03","name":"Niedersachsen"}},{"name":"Vor dem Kamp","postalCode":"29525","locality":"Uelzen","municipality":{"key":"03360025","name":"Uelzen, Hansestadt","type":"Stadt"},"district":{"key":"03360","name":"Uelzen","type":"Landkreis"},"federalState":{"key":"03","name":"Niedersachsen"}},{"name":"Vor den Fischteichen","postalCode":"29525","locality":"Uelzen","municipality":{"key":"03360025","name":"Uelzen, Hansestadt","type":"Stadt"},"district":{"key":"03360","name":"Uelzen","type":"Landkreis"},"federalState":{"key":"03","name":"Niedersachsen"}},{"name":"Vor der Deine","postalCode":"29525","locality":"Uelzen","municipality":{"key":"03360025","name":"Uelzen, Hansestadt","type":"Stadt"},"district":{"key":"03360","name":"Uelzen","type":"Landkreis"},"federalState":{"key":"03","name":"Niedersachsen"}},{"name":"Waldweg","postalCode":"29578","locality":"Eimke","municipality":{"key":"03360007","name":"Eimke","type":"Kreisangehörige_Gemeinde"},"district":{"key":"03360","name":"Uelzen","type":"Landkreis"},"federalState":{"key":"03","name":"Niedersachsen"}},{"name":"Wandel","postalCode":"29578","locality":"Eimke","municipality":{"key":"03360007","name":"Eimke","type":"Kreisangehörige_Gemeinde"},"district":{"key":"03360","name":"Uelzen","type":"Landkreis"},"federalState":{"key":"03","name":"Niedersachsen"}},{"name":"Wiesengrund","postalCode":"29578","locality":"Eimke","municipality":{"key":"03360007","name":"Eimke","type":"Kreisangehörige_Gemeinde"},"district":{"key":"03360","name":"Uelzen","type":"Landkreis"},"federalState":{"key":"03","name":"Niedersachsen"}},{"name":"Wiesenweg","postalCode":"29578","locality":"Eimke","municipality":{"key":"03360007","name":"Eimke","type":"Kreisangehörige_Gemeinde"},"district":{"key":"03360","name":"Uelzen","type":"Landkreis"},"federalState":{"key":"03","name":"Niedersachsen"}},{"name":"Ziegeleiweg","postalCode":"29525","locality":"Uelzen","municipality":{"key":"03360025","name":"Uelzen, Hansestadt","type":"Stadt"},"district":{"key":"03360","name":"Uelzen","type":"Landkreis"},"federalState":{"key":"03","name":"Niedersachsen"}},{"name":"Ziegelhof","postalCode":"29525","locality":"Uelzen","municipality":{"key":"03360025","name":"Uelzen, Hansestadt","type":"Stadt"},"district":{"key":"03360","name":"Uelzen","type":"Landkreis"},"federalState":{"key":"03","name":"Niedersachsen"}},{"name":"Ziegelhofstr.","postalCode":"29525","locality":"Uelzen","municipality":{"key":"03360025","name":"Uelzen, Hansestadt","type":"Stadt"},"district":{"key":"03360","name":"Uelzen","type":"Landkreis"},"federalState":{"key":"03","name":"Niedersachsen"}},{"name":"Zimmermannstr.","postalCode":"29525","locality":"Uelzen","municipality":{"key":"03360025","name":"Uelzen, Hansestadt","type":"Stadt"},"district":{"key":"03360","name":"Uelzen","type":"Landkreis"},"federalState":{"key":"03","name":"Niedersachsen"}},{"name":"Zollstr.","postalCode":"29525","locality":"Uelzen","municipality":{"key":"03360025","name":"Uelzen, Hansestadt","type":"Stadt"},"district":{"key":"03360","name":"Uelzen","type":"Landkreis"},"federalState":{"key":"03","name":"Niedersachsen"}},{"name":"Zum Brandgehäge","postalCode":"29525","locality":"Uelzen","municipality":{"key":"03360025","name":"Uelzen, Hansestadt","type":"Stadt"},"district":{"key":"03360","name":"Uelzen","type":"Landkreis"},"federalState":{"key":"03","name":"Niedersachsen"}},{"name":"Zum Gerdautal","postalCode":"29525","locality":"Uelzen","municipality":{"key":"03360025","name":"Uelzen, Hansestadt","type":"Stadt"},"district":{"key":"03360","name":"Uelzen","type":"Landkreis"},"federalState":{"key":"03","name":"Niedersachsen"}},{"name":"Zum Hasel","postalCode":"29525","locality":"Uelzen","municipality":{"key":"03360025","name":"Uelzen, Hansestadt","type":"Stadt"},"district":{"key":"03360","name":"Uelzen","type":"Landkreis"},"federalState":{"key":"03","name":"Niedersachsen"}},{"name":"Zum Ihlenphul","postalCode":"29525","locality":"Uelzen","municipality":{"key":"03360025","name":"Uelzen, Hansestadt","type":"Stadt"},"district":{"key":"03360","name":"Uelzen","type":"Landkreis"},"federalState":{"key":"03","name":"Niedersachsen"}},{"name":"Zum Moorfeld","postalCode":"29525","locality":"Uelzen","municipality":{"key":"03360025","name":"Uelzen, Hansestadt","type":"Stadt"},"district":{"key":"03360","name":"Uelzen","type":"Landkreis"},"federalState":{"key":"03","name":"Niedersachsen"}},{"name":"Zum Runden Bruch","postalCode":"29525","locality":"Uelzen","municipality":{"key":"03360025","name":"Uelzen, Hansestadt","type":"Stadt"},"district":{"key":"03360","name":"Uelzen","type":"Landkreis"},"federalState":{"key":"03","name":"Niedersachsen"}},{"name":"Zum See","postalCode":"29525","locality":"Uelzen","municipality":{"key":"03360025","name":"Uelzen, Hansestadt","type":"Stadt"},"district":{"key":"03360","name":"Uelzen","type":"Landkreis"},"federalState":{"key":"03","name":"Niedersachsen"}},{"name":"Zum Vierberg","postalCode":"29525","locality":"Uelzen","municipality":{"key":"03360025","name":"Uelzen, Hansestadt","type":"Stadt"},"district":{"key":"03360","name":"Uelzen","type":"Landkreis"},"federalState":{"key":"03","name":"Niedersachsen"}},{"name":"Zum Wiesengrund","postalCode":"29525","locality":"Uelzen","municipality":{"key":"03360025","name":"Uelzen, Hansestadt","type":"Stadt"},"district":{"key":"03360","name":"Uelzen","type":"Landkreis"},"federalState":{"key":"03","name":"Niedersachsen"}},{"name":"Zur Pfefferwiese","postalCode":"29525","locality":"Uelzen","municipality":{"key":"03360025","name":"Uelzen, Hansestadt","type":"Stadt"},"district":{"key":"03360","name":"Uelzen","type":"Landkreis"},"federalState":{"key":"03","name":"Niedersachsen"}},{"name":"Zur Wipperau","postalCode":"29525","locality":"Uelzen","municipality":{"key":"03360025","name":"Uelzen, Hansestadt","type":"Stadt"},"district":{"key":"03360","name":"Uelzen","type":"Landkreis"},"federalState":{"key":"03","name":"Niedersachsen"}},]