[{"name":"Am Mühlgarten","postalCode":"67822","locality":"Gaugrehweiler","municipality":{"key":"07333023","name":"Gaugrehweiler","type":"Kreisangehörige_Gemeinde"},"district":{"key":"07333","name":"Donnersbergkreis","type":"Landkreis"},"federalState":{"key":"07","name":"Rheinland-Pfalz"}},{"name":"Am Renzgarten","postalCode":"67822","locality":"Gaugrehweiler","municipality":{"key":"07333023","name":"Gaugrehweiler","type":"Kreisangehörige_Gemeinde"},"district":{"key":"07333","name":"Donnersbergkreis","type":"Landkreis"},"federalState":{"key":"07","name":"Rheinland-Pfalz"}},{"name":"Birkenstr.","postalCode":"67822","locality":"Gaugrehweiler","municipality":{"key":"07333023","name":"Gaugrehweiler","type":"Kreisangehörige_Gemeinde"},"district":{"key":"07333","name":"Donnersbergkreis","type":"Landkreis"},"federalState":{"key":"07","name":"Rheinland-Pfalz"}},{"name":"Gutenbacherhof","postalCode":"67822","locality":"Gaugrehweiler","municipality":{"key":"07333023","name":"Gaugrehweiler","type":"Kreisangehörige_Gemeinde"},"district":{"key":"07333","name":"Donnersbergkreis","type":"Landkreis"},"federalState":{"key":"07","name":"Rheinland-Pfalz"}},{"name":"Hauptstr.","postalCode":"67822","locality":"Gaugrehweiler","municipality":{"key":"07333023","name":"Gaugrehweiler","type":"Kreisangehörige_Gemeinde"},"district":{"key":"07333","name":"Donnersbergkreis","type":"Landkreis"},"federalState":{"key":"07","name":"Rheinland-Pfalz"}},{"name":"Hohlgasse","postalCode":"67822","locality":"Gaugrehweiler","municipality":{"key":"07333023","name":"Gaugrehweiler","type":"Kreisangehörige_Gemeinde"},"district":{"key":"07333","name":"Donnersbergkreis","type":"Landkreis"},"federalState":{"key":"07","name":"Rheinland-Pfalz"}},{"name":"Im Herrengarten","postalCode":"67822","locality":"Gaugrehweiler","municipality":{"key":"07333023","name":"Gaugrehweiler","type":"Kreisangehörige_Gemeinde"},"district":{"key":"07333","name":"Donnersbergkreis","type":"Landkreis"},"federalState":{"key":"07","name":"Rheinland-Pfalz"}},{"name":"Marktplatz","postalCode":"67822","locality":"Gaugrehweiler","municipality":{"key":"07333023","name":"Gaugrehweiler","type":"Kreisangehörige_Gemeinde"},"district":{"key":"07333","name":"Donnersbergkreis","type":"Landkreis"},"federalState":{"key":"07","name":"Rheinland-Pfalz"}},{"name":"Mühlstr.","postalCode":"67822","locality":"Gaugrehweiler","municipality":{"key":"07333023","name":"Gaugrehweiler","type":"Kreisangehörige_Gemeinde"},"district":{"key":"07333","name":"Donnersbergkreis","type":"Landkreis"},"federalState":{"key":"07","name":"Rheinland-Pfalz"}},{"name":"Neustr.","postalCode":"67822","locality":"Gaugrehweiler","municipality":{"key":"07333023","name":"Gaugrehweiler","type":"Kreisangehörige_Gemeinde"},"district":{"key":"07333","name":"Donnersbergkreis","type":"Landkreis"},"federalState":{"key":"07","name":"Rheinland-Pfalz"}},{"name":"Obere Waldstr.","postalCode":"67822","locality":"Gaugrehweiler","municipality":{"key":"07333023","name":"Gaugrehweiler","type":"Kreisangehörige_Gemeinde"},"district":{"key":"07333","name":"Donnersbergkreis","type":"Landkreis"},"federalState":{"key":"07","name":"Rheinland-Pfalz"}},{"name":"Riedstr.","postalCode":"67822","locality":"Gaugrehweiler","municipality":{"key":"07333023","name":"Gaugrehweiler","type":"Kreisangehörige_Gemeinde"},"district":{"key":"07333","name":"Donnersbergkreis","type":"Landkreis"},"federalState":{"key":"07","name":"Rheinland-Pfalz"}},{"name":"Triftstr.","postalCode":"67822","locality":"Gaugrehweiler","municipality":{"key":"07333023","name":"Gaugrehweiler","type":"Kreisangehörige_Gemeinde"},"district":{"key":"07333","name":"Donnersbergkreis","type":"Landkreis"},"federalState":{"key":"07","name":"Rheinland-Pfalz"}},{"name":"Waldstr.","postalCode":"67822","locality":"Gaugrehweiler","municipality":{"key":"07333023","name":"Gaugrehweiler","type":"Kreisangehörige_Gemeinde"},"district":{"key":"07333","name":"Donnersbergkreis","type":"Landkreis"},"federalState":{"key":"07","name":"Rheinland-Pfalz"}},{"name":"Zum Schlossberg","postalCode":"67822","locality":"Gaugrehweiler","municipality":{"key":"07333023","name":"Gaugrehweiler","type":"Kreisangehörige_Gemeinde"},"district":{"key":"07333","name":"Donnersbergkreis","type":"Landkreis"},"federalState":{"key":"07","name":"Rheinland-Pfalz"}},]