[{"name":"Altarbergsheide","postalCode":"31609","locality":"Balge","municipality":{"key":"03256001","name":"Balge","type":"Kreisangehörige_Gemeinde"},"district":{"key":"03256","name":"Nienburg (Weser)","type":"Landkreis"},"federalState":{"key":"03","name":"Niedersachsen"}},{"name":"Alte Heide","postalCode":"31609","locality":"Balge","municipality":{"key":"03256001","name":"Balge","type":"Kreisangehörige_Gemeinde"},"district":{"key":"03256","name":"Nienburg (Weser)","type":"Landkreis"},"federalState":{"key":"03","name":"Niedersachsen"}},{"name":"Am Feuerwehrhaus","postalCode":"31609","locality":"Balge","municipality":{"key":"03256001","name":"Balge","type":"Kreisangehörige_Gemeinde"},"district":{"key":"03256","name":"Nienburg (Weser)","type":"Landkreis"},"federalState":{"key":"03","name":"Niedersachsen"}},{"name":"Am Krüllberg","postalCode":"31609","locality":"Balge","municipality":{"key":"03256001","name":"Balge","type":"Kreisangehörige_Gemeinde"},"district":{"key":"03256","name":"Nienburg (Weser)","type":"Landkreis"},"federalState":{"key":"03","name":"Niedersachsen"}},{"name":"Am Schießstand","postalCode":"31609","locality":"Balge","municipality":{"key":"03256001","name":"Balge","type":"Kreisangehörige_Gemeinde"},"district":{"key":"03256","name":"Nienburg (Weser)","type":"Landkreis"},"federalState":{"key":"03","name":"Niedersachsen"}},{"name":"Am Sportplatz","postalCode":"31609","locality":"Balge","municipality":{"key":"03256001","name":"Balge","type":"Kreisangehörige_Gemeinde"},"district":{"key":"03256","name":"Nienburg (Weser)","type":"Landkreis"},"federalState":{"key":"03","name":"Niedersachsen"}},{"name":"Am Steinkamp","postalCode":"31609","locality":"Balge","municipality":{"key":"03256001","name":"Balge","type":"Kreisangehörige_Gemeinde"},"district":{"key":"03256","name":"Nienburg (Weser)","type":"Landkreis"},"federalState":{"key":"03","name":"Niedersachsen"}},{"name":"Am Teich","postalCode":"31609","locality":"Balge","municipality":{"key":"03256001","name":"Balge","type":"Kreisangehörige_Gemeinde"},"district":{"key":"03256","name":"Nienburg (Weser)","type":"Landkreis"},"federalState":{"key":"03","name":"Niedersachsen"}},{"name":"Am Timmenkamp","postalCode":"31609","locality":"Balge","municipality":{"key":"03256001","name":"Balge","type":"Kreisangehörige_Gemeinde"},"district":{"key":"03256","name":"Nienburg (Weser)","type":"Landkreis"},"federalState":{"key":"03","name":"Niedersachsen"}},{"name":"Am Walde","postalCode":"31609","locality":"Balge","municipality":{"key":"03256001","name":"Balge","type":"Kreisangehörige_Gemeinde"},"district":{"key":"03256","name":"Nienburg (Weser)","type":"Landkreis"},"federalState":{"key":"03","name":"Niedersachsen"}},{"name":"Auf dem Linnert","postalCode":"31609","locality":"Balge","municipality":{"key":"03256001","name":"Balge","type":"Kreisangehörige_Gemeinde"},"district":{"key":"03256","name":"Nienburg (Weser)","type":"Landkreis"},"federalState":{"key":"03","name":"Niedersachsen"}},{"name":"Auf dem Sande","postalCode":"31609","locality":"Balge","municipality":{"key":"03256001","name":"Balge","type":"Kreisangehörige_Gemeinde"},"district":{"key":"03256","name":"Nienburg (Weser)","type":"Landkreis"},"federalState":{"key":"03","name":"Niedersachsen"}},{"name":"Bahnhofstr.","postalCode":"31609","locality":"Balge","municipality":{"key":"03256001","name":"Balge","type":"Kreisangehörige_Gemeinde"},"district":{"key":"03256","name":"Nienburg (Weser)","type":"Landkreis"},"federalState":{"key":"03","name":"Niedersachsen"}},{"name":"Balger Str.","postalCode":"31609","locality":"Balge","municipality":{"key":"03256001","name":"Balge","type":"Kreisangehörige_Gemeinde"},"district":{"key":"03256","name":"Nienburg (Weser)","type":"Landkreis"},"federalState":{"key":"03","name":"Niedersachsen"}},{"name":"Behlinger Mühle","postalCode":"31609","locality":"Balge","municipality":{"key":"03256001","name":"Balge","type":"Kreisangehörige_Gemeinde"},"district":{"key":"03256","name":"Nienburg (Weser)","type":"Landkreis"},"federalState":{"key":"03","name":"Niedersachsen"}},{"name":"Behlinger Str.","postalCode":"31609","locality":"Balge","municipality":{"key":"03256001","name":"Balge","type":"Kreisangehörige_Gemeinde"},"district":{"key":"03256","name":"Nienburg (Weser)","type":"Landkreis"},"federalState":{"key":"03","name":"Niedersachsen"}},{"name":"Benther Mühle","postalCode":"31609","locality":"Balge","municipality":{"key":"03256001","name":"Balge","type":"Kreisangehörige_Gemeinde"},"district":{"key":"03256","name":"Nienburg (Weser)","type":"Landkreis"},"federalState":{"key":"03","name":"Niedersachsen"}},{"name":"Blenhorster Str.","postalCode":"31609","locality":"Balge","municipality":{"key":"03256001","name":"Balge","type":"Kreisangehörige_Gemeinde"},"district":{"key":"03256","name":"Nienburg (Weser)","type":"Landkreis"},"federalState":{"key":"03","name":"Niedersachsen"}},{"name":"Blenhorster Weg","postalCode":"31609","locality":"Balge","municipality":{"key":"03256001","name":"Balge","type":"Kreisangehörige_Gemeinde"},"district":{"key":"03256","name":"Nienburg (Weser)","type":"Landkreis"},"federalState":{"key":"03","name":"Niedersachsen"}},{"name":"Bötenberger Heerstr.","postalCode":"31609","locality":"Balge","municipality":{"key":"03256001","name":"Balge","type":"Kreisangehörige_Gemeinde"},"district":{"key":"03256","name":"Nienburg (Weser)","type":"Landkreis"},"federalState":{"key":"03","name":"Niedersachsen"}},{"name":"Bötenberger Str.","postalCode":"31609","locality":"Balge","municipality":{"key":"03256001","name":"Balge","type":"Kreisangehörige_Gemeinde"},"district":{"key":"03256","name":"Nienburg (Weser)","type":"Landkreis"},"federalState":{"key":"03","name":"Niedersachsen"}},{"name":"Brinkenne","postalCode":"31609","locality":"Balge","municipality":{"key":"03256001","name":"Balge","type":"Kreisangehörige_Gemeinde"},"district":{"key":"03256","name":"Nienburg (Weser)","type":"Landkreis"},"federalState":{"key":"03","name":"Niedersachsen"}},{"name":"Buchholzer Str.","postalCode":"31609","locality":"Balge","municipality":{"key":"03256001","name":"Balge","type":"Kreisangehörige_Gemeinde"},"district":{"key":"03256","name":"Nienburg (Weser)","type":"Landkreis"},"federalState":{"key":"03","name":"Niedersachsen"}},{"name":"Buchhorster Str.","postalCode":"31609","locality":"Balge","municipality":{"key":"03256001","name":"Balge","type":"Kreisangehörige_Gemeinde"},"district":{"key":"03256","name":"Nienburg (Weser)","type":"Landkreis"},"federalState":{"key":"03","name":"Niedersachsen"}},{"name":"Bullersberg","postalCode":"31609","locality":"Balge","municipality":{"key":"03256001","name":"Balge","type":"Kreisangehörige_Gemeinde"},"district":{"key":"03256","name":"Nienburg (Weser)","type":"Landkreis"},"federalState":{"key":"03","name":"Niedersachsen"}},{"name":"Dolldorf","postalCode":"31609","locality":"Balge","municipality":{"key":"03256001","name":"Balge","type":"Kreisangehörige_Gemeinde"},"district":{"key":"03256","name":"Nienburg (Weser)","type":"Landkreis"},"federalState":{"key":"03","name":"Niedersachsen"}},{"name":"Dolldorfer Eichenweg","postalCode":"31609","locality":"Balge","municipality":{"key":"03256001","name":"Balge","type":"Kreisangehörige_Gemeinde"},"district":{"key":"03256","name":"Nienburg (Weser)","type":"Landkreis"},"federalState":{"key":"03","name":"Niedersachsen"}},{"name":"Drakenburger Str.","postalCode":"31609","locality":"Balge","municipality":{"key":"03256001","name":"Balge","type":"Kreisangehörige_Gemeinde"},"district":{"key":"03256","name":"Nienburg (Weser)","type":"Landkreis"},"federalState":{"key":"03","name":"Niedersachsen"}},{"name":"Eichenring","postalCode":"31609","locality":"Balge","municipality":{"key":"03256001","name":"Balge","type":"Kreisangehörige_Gemeinde"},"district":{"key":"03256","name":"Nienburg (Weser)","type":"Landkreis"},"federalState":{"key":"03","name":"Niedersachsen"}},{"name":"Eschenweg","postalCode":"31609","locality":"Balge","municipality":{"key":"03256001","name":"Balge","type":"Kreisangehörige_Gemeinde"},"district":{"key":"03256","name":"Nienburg (Weser)","type":"Landkreis"},"federalState":{"key":"03","name":"Niedersachsen"}},{"name":"Fährstr.","postalCode":"31609","locality":"Balge","municipality":{"key":"03256001","name":"Balge","type":"Kreisangehörige_Gemeinde"},"district":{"key":"03256","name":"Nienburg (Weser)","type":"Landkreis"},"federalState":{"key":"03","name":"Niedersachsen"}},{"name":"Grummes Ort","postalCode":"31609","locality":"Balge","municipality":{"key":"03256001","name":"Balge","type":"Kreisangehörige_Gemeinde"},"district":{"key":"03256","name":"Nienburg (Weser)","type":"Landkreis"},"federalState":{"key":"03","name":"Niedersachsen"}},{"name":"Gut Wiede","postalCode":"31609","locality":"Balge","municipality":{"key":"03256001","name":"Balge","type":"Kreisangehörige_Gemeinde"},"district":{"key":"03256","name":"Nienburg (Weser)","type":"Landkreis"},"federalState":{"key":"03","name":"Niedersachsen"}},{"name":"Holzbalger Str.","postalCode":"31609","locality":"Balge","municipality":{"key":"03256001","name":"Balge","type":"Kreisangehörige_Gemeinde"},"district":{"key":"03256","name":"Nienburg (Weser)","type":"Landkreis"},"federalState":{"key":"03","name":"Niedersachsen"}},{"name":"In Hunneort","postalCode":"31609","locality":"Balge","municipality":{"key":"03256001","name":"Balge","type":"Kreisangehörige_Gemeinde"},"district":{"key":"03256","name":"Nienburg (Weser)","type":"Landkreis"},"federalState":{"key":"03","name":"Niedersachsen"}},{"name":"Kirchstr.","postalCode":"31609","locality":"Balge","municipality":{"key":"03256001","name":"Balge","type":"Kreisangehörige_Gemeinde"},"district":{"key":"03256","name":"Nienburg (Weser)","type":"Landkreis"},"federalState":{"key":"03","name":"Niedersachsen"}},{"name":"Kleine Marsch","postalCode":"31609","locality":"Balge","municipality":{"key":"03256001","name":"Balge","type":"Kreisangehörige_Gemeinde"},"district":{"key":"03256","name":"Nienburg (Weser)","type":"Landkreis"},"federalState":{"key":"03","name":"Niedersachsen"}},{"name":"Küsterweg","postalCode":"31609","locality":"Balge","municipality":{"key":"03256001","name":"Balge","type":"Kreisangehörige_Gemeinde"},"district":{"key":"03256","name":"Nienburg (Weser)","type":"Landkreis"},"federalState":{"key":"03","name":"Niedersachsen"}},{"name":"Labberstr.","postalCode":"31609","locality":"Balge","municipality":{"key":"03256001","name":"Balge","type":"Kreisangehörige_Gemeinde"},"district":{"key":"03256","name":"Nienburg (Weser)","type":"Landkreis"},"federalState":{"key":"03","name":"Niedersachsen"}},{"name":"Langer Kamp","postalCode":"31609","locality":"Balge","municipality":{"key":"03256001","name":"Balge","type":"Kreisangehörige_Gemeinde"},"district":{"key":"03256","name":"Nienburg (Weser)","type":"Landkreis"},"federalState":{"key":"03","name":"Niedersachsen"}},{"name":"Mehlberger Str.","postalCode":"31609","locality":"Balge","municipality":{"key":"03256001","name":"Balge","type":"Kreisangehörige_Gemeinde"},"district":{"key":"03256","name":"Nienburg (Weser)","type":"Landkreis"},"federalState":{"key":"03","name":"Niedersachsen"}},{"name":"Mühlenweg","postalCode":"31609","locality":"Balge","municipality":{"key":"03256001","name":"Balge","type":"Kreisangehörige_Gemeinde"},"district":{"key":"03256","name":"Nienburg (Weser)","type":"Landkreis"},"federalState":{"key":"03","name":"Niedersachsen"}},{"name":"Pastorenpatt","postalCode":"31609","locality":"Balge","municipality":{"key":"03256001","name":"Balge","type":"Kreisangehörige_Gemeinde"},"district":{"key":"03256","name":"Nienburg (Weser)","type":"Landkreis"},"federalState":{"key":"03","name":"Niedersachsen"}},{"name":"Rischweg","postalCode":"31609","locality":"Balge","municipality":{"key":"03256001","name":"Balge","type":"Kreisangehörige_Gemeinde"},"district":{"key":"03256","name":"Nienburg (Weser)","type":"Landkreis"},"federalState":{"key":"03","name":"Niedersachsen"}},{"name":"Ritterbruch","postalCode":"31609","locality":"Balge","municipality":{"key":"03256001","name":"Balge","type":"Kreisangehörige_Gemeinde"},"district":{"key":"03256","name":"Nienburg (Weser)","type":"Landkreis"},"federalState":{"key":"03","name":"Niedersachsen"}},{"name":"Schleusenweg","postalCode":"31609","locality":"Balge","municipality":{"key":"03256001","name":"Balge","type":"Kreisangehörige_Gemeinde"},"district":{"key":"03256","name":"Nienburg (Weser)","type":"Landkreis"},"federalState":{"key":"03","name":"Niedersachsen"}},{"name":"Schmalenbruch","postalCode":"31609","locality":"Balge","municipality":{"key":"03256001","name":"Balge","type":"Kreisangehörige_Gemeinde"},"district":{"key":"03256","name":"Nienburg (Weser)","type":"Landkreis"},"federalState":{"key":"03","name":"Niedersachsen"}},{"name":"Schulstr.","postalCode":"31609","locality":"Balge","municipality":{"key":"03256001","name":"Balge","type":"Kreisangehörige_Gemeinde"},"district":{"key":"03256","name":"Nienburg (Weser)","type":"Landkreis"},"federalState":{"key":"03","name":"Niedersachsen"}},{"name":"Schwarzer Weg","postalCode":"31609","locality":"Balge","municipality":{"key":"03256001","name":"Balge","type":"Kreisangehörige_Gemeinde"},"district":{"key":"03256","name":"Nienburg (Weser)","type":"Landkreis"},"federalState":{"key":"03","name":"Niedersachsen"}},{"name":"Sebbenhausener Str.","postalCode":"31609","locality":"Balge","municipality":{"key":"03256001","name":"Balge","type":"Kreisangehörige_Gemeinde"},"district":{"key":"03256","name":"Nienburg (Weser)","type":"Landkreis"},"federalState":{"key":"03","name":"Niedersachsen"}},{"name":"Seehofstr.","postalCode":"31609","locality":"Balge","municipality":{"key":"03256001","name":"Balge","type":"Kreisangehörige_Gemeinde"},"district":{"key":"03256","name":"Nienburg (Weser)","type":"Landkreis"},"federalState":{"key":"03","name":"Niedersachsen"}},{"name":"Stubbenweg","postalCode":"31609","locality":"Balge","municipality":{"key":"03256001","name":"Balge","type":"Kreisangehörige_Gemeinde"},"district":{"key":"03256","name":"Nienburg (Weser)","type":"Landkreis"},"federalState":{"key":"03","name":"Niedersachsen"}},{"name":"Tannenweg","postalCode":"31609","locality":"Balge","municipality":{"key":"03256001","name":"Balge","type":"Kreisangehörige_Gemeinde"},"district":{"key":"03256","name":"Nienburg (Weser)","type":"Landkreis"},"federalState":{"key":"03","name":"Niedersachsen"}},{"name":"Zum Ahrendberg","postalCode":"31609","locality":"Balge","municipality":{"key":"03256001","name":"Balge","type":"Kreisangehörige_Gemeinde"},"district":{"key":"03256","name":"Nienburg (Weser)","type":"Landkreis"},"federalState":{"key":"03","name":"Niedersachsen"}},{"name":"Zum Büntenmoor","postalCode":"31609","locality":"Balge","municipality":{"key":"03256001","name":"Balge","type":"Kreisangehörige_Gemeinde"},"district":{"key":"03256","name":"Nienburg (Weser)","type":"Landkreis"},"federalState":{"key":"03","name":"Niedersachsen"}},]