[{"key":"10248702","name":"A52","postalCode":"8626","locality":"Ottikon (Gossau ZH)","commune":{"key":"115","name":"Gossau (ZH)","shortName":"Gossau (ZH)"},"district":{"key":"105","name":"Bezirk Hinwil"},"canton":{"key":"1","code":"ZH","name":"Zürich"},"status":"Real"},{"key":"10160232","name":"Allenbergstrasse","postalCode":"8624","locality":"Grüt (Gossau ZH)","commune":{"key":"115","name":"Gossau (ZH)","shortName":"Gossau (ZH)"},"district":{"key":"105","name":"Bezirk Hinwil"},"canton":{"key":"1","code":"ZH","name":"Zürich"},"status":"Real"},{"key":"10060899","name":"Alte Bubikerstrasse","postalCode":"8626","locality":"Ottikon (Gossau ZH)","commune":{"key":"115","name":"Gossau (ZH)","shortName":"Gossau (ZH)"},"district":{"key":"105","name":"Bezirk Hinwil"},"canton":{"key":"1","code":"ZH","name":"Zürich"},"status":"Real"},{"key":"10175817","name":"Altrütistrasse","postalCode":"8625","locality":"Gossau ZH","commune":{"key":"115","name":"Gossau (ZH)","shortName":"Gossau (ZH)"},"district":{"key":"105","name":"Bezirk Hinwil"},"canton":{"key":"1","code":"ZH","name":"Zürich"},"status":"Real"},{"key":"10175817","name":"Altrütistrasse","postalCode":"8626","locality":"Ottikon (Gossau ZH)","commune":{"key":"115","name":"Gossau (ZH)","shortName":"Gossau (ZH)"},"district":{"key":"105","name":"Bezirk Hinwil"},"canton":{"key":"1","code":"ZH","name":"Zürich"},"status":"Real"},{"key":"10240381","name":"Altrütiweg","postalCode":"8625","locality":"Gossau ZH","commune":{"key":"115","name":"Gossau (ZH)","shortName":"Gossau (ZH)"},"district":{"key":"105","name":"Bezirk Hinwil"},"canton":{"key":"1","code":"ZH","name":"Zürich"},"status":"Real"},{"key":"10060900","name":"Ametsbergstrasse","postalCode":"8625","locality":"Gossau ZH","commune":{"key":"115","name":"Gossau (ZH)","shortName":"Gossau (ZH)"},"district":{"key":"105","name":"Bezirk Hinwil"},"canton":{"key":"1","code":"ZH","name":"Zürich"},"status":"Real"},{"key":"10244798","name":"Am Oeliweiher","postalCode":"8625","locality":"Gossau ZH","commune":{"key":"115","name":"Gossau (ZH)","shortName":"Gossau (ZH)"},"district":{"key":"105","name":"Bezirk Hinwil"},"canton":{"key":"1","code":"ZH","name":"Zürich"},"status":"Real"},{"key":"10000400","name":"Angelstrasse","postalCode":"8625","locality":"Gossau ZH","commune":{"key":"115","name":"Gossau (ZH)","shortName":"Gossau (ZH)"},"district":{"key":"105","name":"Bezirk Hinwil"},"canton":{"key":"1","code":"ZH","name":"Zürich"},"status":"Real"},{"key":"10080146","name":"Anhöheweg","postalCode":"8626","locality":"Ottikon (Gossau ZH)","commune":{"key":"115","name":"Gossau (ZH)","shortName":"Gossau (ZH)"},"district":{"key":"105","name":"Bezirk Hinwil"},"canton":{"key":"1","code":"ZH","name":"Zürich"},"status":"Real"},{"key":"10080136","name":"Austrasse","postalCode":"8625","locality":"Gossau ZH","commune":{"key":"115","name":"Gossau (ZH)","shortName":"Gossau (ZH)"},"district":{"key":"105","name":"Bezirk Hinwil"},"canton":{"key":"1","code":"ZH","name":"Zürich"},"status":"Real"},{"key":"10080136","name":"Austrasse","postalCode":"8626","locality":"Ottikon (Gossau ZH)","commune":{"key":"115","name":"Gossau (ZH)","shortName":"Gossau (ZH)"},"district":{"key":"105","name":"Bezirk Hinwil"},"canton":{"key":"1","code":"ZH","name":"Zürich"},"status":"Real"},{"key":"10166521","name":"Bachstrasse","postalCode":"8625","locality":"Gossau ZH","commune":{"key":"115","name":"Gossau (ZH)","shortName":"Gossau (ZH)"},"district":{"key":"105","name":"Bezirk Hinwil"},"canton":{"key":"1","code":"ZH","name":"Zürich"},"status":"Real"},{"key":"10170905","name":"Bachtobelstrasse","postalCode":"8625","locality":"Gossau ZH","commune":{"key":"115","name":"Gossau (ZH)","shortName":"Gossau (ZH)"},"district":{"key":"105","name":"Bezirk Hinwil"},"canton":{"key":"1","code":"ZH","name":"Zürich"},"status":"Real"},{"key":"10240371","name":"Bachtobelweg","postalCode":"8625","locality":"Gossau ZH","commune":{"key":"115","name":"Gossau (ZH)","shortName":"Gossau (ZH)"},"district":{"key":"105","name":"Bezirk Hinwil"},"canton":{"key":"1","code":"ZH","name":"Zürich"},"status":"Real"},{"key":"10000401","name":"Baumgartenstrasse","postalCode":"8625","locality":"Gossau ZH","commune":{"key":"115","name":"Gossau (ZH)","shortName":"Gossau (ZH)"},"district":{"key":"105","name":"Bezirk Hinwil"},"canton":{"key":"1","code":"ZH","name":"Zürich"},"status":"Real"},{"key":"10025233","name":"Bäumligacher","postalCode":"8614","locality":"Bertschikon (Gossau ZH)","commune":{"key":"115","name":"Gossau (ZH)","shortName":"Gossau (ZH)"},"district":{"key":"105","name":"Bezirk Hinwil"},"canton":{"key":"1","code":"ZH","name":"Zürich"},"status":"Real"},{"key":"10060901","name":"Benklen","postalCode":"8614","locality":"Bertschikon (Gossau ZH)","commune":{"key":"115","name":"Gossau (ZH)","shortName":"Gossau (ZH)"},"district":{"key":"105","name":"Bezirk Hinwil"},"canton":{"key":"1","code":"ZH","name":"Zürich"},"status":"Real"},{"key":"10189902","name":"Berghofstrasse","postalCode":"8624","locality":"Grüt (Gossau ZH)","commune":{"key":"115","name":"Gossau (ZH)","shortName":"Gossau (ZH)"},"district":{"key":"105","name":"Bezirk Hinwil"},"canton":{"key":"1","code":"ZH","name":"Zürich"},"status":"Real"},{"key":"10189902","name":"Berghofstrasse","postalCode":"8625","locality":"Gossau ZH","commune":{"key":"115","name":"Gossau (ZH)","shortName":"Gossau (ZH)"},"district":{"key":"105","name":"Bezirk Hinwil"},"canton":{"key":"1","code":"ZH","name":"Zürich"},"status":"Real"},{"key":"10054061","name":"Bergstrasse","postalCode":"8625","locality":"Gossau ZH","commune":{"key":"115","name":"Gossau (ZH)","shortName":"Gossau (ZH)"},"district":{"key":"105","name":"Bezirk Hinwil"},"canton":{"key":"1","code":"ZH","name":"Zürich"},"status":"Real"},{"key":"10240377","name":"Bernetstrasse","postalCode":"8626","locality":"Ottikon (Gossau ZH)","commune":{"key":"115","name":"Gossau (ZH)","shortName":"Gossau (ZH)"},"district":{"key":"105","name":"Bezirk Hinwil"},"canton":{"key":"1","code":"ZH","name":"Zürich"},"status":"Real"},{"key":"10000181","name":"Bertschikerstrasse","postalCode":"8614","locality":"Bertschikon (Gossau ZH)","commune":{"key":"115","name":"Gossau (ZH)","shortName":"Gossau (ZH)"},"district":{"key":"105","name":"Bezirk Hinwil"},"canton":{"key":"1","code":"ZH","name":"Zürich"},"status":"Real"},{"key":"10000181","name":"Bertschikerstrasse","postalCode":"8625","locality":"Gossau ZH","commune":{"key":"115","name":"Gossau (ZH)","shortName":"Gossau (ZH)"},"district":{"key":"105","name":"Bezirk Hinwil"},"canton":{"key":"1","code":"ZH","name":"Zürich"},"status":"Real"},{"key":"10080137","name":"Betschürenstrasse","postalCode":"8625","locality":"Gossau ZH","commune":{"key":"115","name":"Gossau (ZH)","shortName":"Gossau (ZH)"},"district":{"key":"105","name":"Bezirk Hinwil"},"canton":{"key":"1","code":"ZH","name":"Zürich"},"status":"Real"},{"key":"10176153","name":"Bielholzstrasse","postalCode":"8626","locality":"Ottikon (Gossau ZH)","commune":{"key":"115","name":"Gossau (ZH)","shortName":"Gossau (ZH)"},"district":{"key":"105","name":"Bezirk Hinwil"},"canton":{"key":"1","code":"ZH","name":"Zürich"},"status":"Real"},{"key":"10175770","name":"Birchstrasse","postalCode":"8626","locality":"Ottikon (Gossau ZH)","commune":{"key":"115","name":"Gossau (ZH)","shortName":"Gossau (ZH)"},"district":{"key":"105","name":"Bezirk Hinwil"},"canton":{"key":"1","code":"ZH","name":"Zürich"},"status":"Real"},{"key":"10175771","name":"Birchweidstrasse","postalCode":"8626","locality":"Ottikon (Gossau ZH)","commune":{"key":"115","name":"Gossau (ZH)","shortName":"Gossau (ZH)"},"district":{"key":"105","name":"Bezirk Hinwil"},"canton":{"key":"1","code":"ZH","name":"Zürich"},"status":"Real"},{"key":"10060902","name":"Birkenweg","postalCode":"8614","locality":"Bertschikon (Gossau ZH)","commune":{"key":"115","name":"Gossau (ZH)","shortName":"Gossau (ZH)"},"district":{"key":"105","name":"Bezirk Hinwil"},"canton":{"key":"1","code":"ZH","name":"Zürich"},"status":"Real"},{"key":"10172706","name":"Bodenholzstrasse","postalCode":"8626","locality":"Ottikon (Gossau ZH)","commune":{"key":"115","name":"Gossau (ZH)","shortName":"Gossau (ZH)"},"district":{"key":"105","name":"Bezirk Hinwil"},"canton":{"key":"1","code":"ZH","name":"Zürich"},"status":"Real"},{"key":"10000402","name":"Bölstrasse","postalCode":"8625","locality":"Gossau ZH","commune":{"key":"115","name":"Gossau (ZH)","shortName":"Gossau (ZH)"},"district":{"key":"105","name":"Bezirk Hinwil"},"canton":{"key":"1","code":"ZH","name":"Zürich"},"status":"Real"},{"key":"10079445","name":"Bönlerstrasse","postalCode":"8624","locality":"Grüt (Gossau ZH)","commune":{"key":"115","name":"Gossau (ZH)","shortName":"Gossau (ZH)"},"district":{"key":"105","name":"Bezirk Hinwil"},"canton":{"key":"1","code":"ZH","name":"Zürich"},"status":"Real"},{"key":"10079445","name":"Bönlerstrasse","postalCode":"8626","locality":"Ottikon (Gossau ZH)","commune":{"key":"115","name":"Gossau (ZH)","shortName":"Gossau (ZH)"},"district":{"key":"105","name":"Bezirk Hinwil"},"canton":{"key":"1","code":"ZH","name":"Zürich"},"status":"Real"},{"key":"10000386","name":"Böschacherstrasse","postalCode":"8624","locality":"Grüt (Gossau ZH)","commune":{"key":"115","name":"Gossau (ZH)","shortName":"Gossau (ZH)"},"district":{"key":"105","name":"Bezirk Hinwil"},"canton":{"key":"1","code":"ZH","name":"Zürich"},"status":"Real"},{"key":"10079441","name":"Breiti","postalCode":"8614","locality":"Bertschikon (Gossau ZH)","commune":{"key":"115","name":"Gossau (ZH)","shortName":"Gossau (ZH)"},"district":{"key":"105","name":"Bezirk Hinwil"},"canton":{"key":"1","code":"ZH","name":"Zürich"},"status":"Real"},{"key":"10248115","name":"Breitistrasse","postalCode":"8614","locality":"Bertschikon (Gossau ZH)","commune":{"key":"115","name":"Gossau (ZH)","shortName":"Gossau (ZH)"},"district":{"key":"105","name":"Bezirk Hinwil"},"canton":{"key":"1","code":"ZH","name":"Zürich"},"status":"Real"},{"key":"10248114","name":"Breitistrasse","postalCode":"8626","locality":"Ottikon (Gossau ZH)","commune":{"key":"115","name":"Gossau (ZH)","shortName":"Gossau (ZH)"},"district":{"key":"105","name":"Bezirk Hinwil"},"canton":{"key":"1","code":"ZH","name":"Zürich"},"status":"Real"},{"key":"10000385","name":"Brunnenweg","postalCode":"8624","locality":"Grüt (Gossau ZH)","commune":{"key":"115","name":"Gossau (ZH)","shortName":"Gossau (ZH)"},"district":{"key":"105","name":"Bezirk Hinwil"},"canton":{"key":"1","code":"ZH","name":"Zürich"},"status":"Real"},{"key":"10111055","name":"Brunngass","postalCode":"8625","locality":"Gossau ZH","commune":{"key":"115","name":"Gossau (ZH)","shortName":"Gossau (ZH)"},"district":{"key":"105","name":"Bezirk Hinwil"},"canton":{"key":"1","code":"ZH","name":"Zürich"},"status":"Real"},{"key":"10077679","name":"Brüschägertenweg","postalCode":"8626","locality":"Ottikon (Gossau ZH)","commune":{"key":"115","name":"Gossau (ZH)","shortName":"Gossau (ZH)"},"district":{"key":"105","name":"Bezirk Hinwil"},"canton":{"key":"1","code":"ZH","name":"Zürich"},"status":"Real"},{"key":"10101142","name":"Brüschweidstrasse","postalCode":"8624","locality":"Grüt (Gossau ZH)","commune":{"key":"115","name":"Gossau (ZH)","shortName":"Gossau (ZH)"},"district":{"key":"105","name":"Bezirk Hinwil"},"canton":{"key":"1","code":"ZH","name":"Zürich"},"status":"Real"},{"key":"10101142","name":"Brüschweidstrasse","postalCode":"8626","locality":"Ottikon (Gossau ZH)","commune":{"key":"115","name":"Gossau (ZH)","shortName":"Gossau (ZH)"},"district":{"key":"105","name":"Bezirk Hinwil"},"canton":{"key":"1","code":"ZH","name":"Zürich"},"status":"Real"},{"key":"10109243","name":"Bubikerstrasse","postalCode":"8626","locality":"Ottikon (Gossau ZH)","commune":{"key":"115","name":"Gossau (ZH)","shortName":"Gossau (ZH)"},"district":{"key":"105","name":"Bezirk Hinwil"},"canton":{"key":"1","code":"ZH","name":"Zürich"},"status":"Real"},{"key":"10172707","name":"Buchholzstrasse","postalCode":"8624","locality":"Grüt (Gossau ZH)","commune":{"key":"115","name":"Gossau (ZH)","shortName":"Gossau (ZH)"},"district":{"key":"105","name":"Bezirk Hinwil"},"canton":{"key":"1","code":"ZH","name":"Zürich"},"status":"Real"},{"key":"10000403","name":"Büelgass","postalCode":"8625","locality":"Gossau ZH","commune":{"key":"115","name":"Gossau (ZH)","shortName":"Gossau (ZH)"},"district":{"key":"105","name":"Bezirk Hinwil"},"canton":{"key":"1","code":"ZH","name":"Zürich"},"status":"Real"},{"key":"10171057","name":"Büelhalde","postalCode":"8626","locality":"Ottikon (Gossau ZH)","commune":{"key":"115","name":"Gossau (ZH)","shortName":"Gossau (ZH)"},"district":{"key":"105","name":"Bezirk Hinwil"},"canton":{"key":"1","code":"ZH","name":"Zürich"},"status":"Real"},{"key":"10172708","name":"Büelstrasse","postalCode":"8625","locality":"Gossau ZH","commune":{"key":"115","name":"Gossau (ZH)","shortName":"Gossau (ZH)"},"district":{"key":"105","name":"Bezirk Hinwil"},"canton":{"key":"1","code":"ZH","name":"Zürich"},"status":"Real"},{"key":"10175772","name":"Chalberweidlistrasse","postalCode":"8625","locality":"Gossau ZH","commune":{"key":"115","name":"Gossau (ZH)","shortName":"Gossau (ZH)"},"district":{"key":"105","name":"Bezirk Hinwil"},"canton":{"key":"1","code":"ZH","name":"Zürich"},"status":"Real"},{"key":"10000404","name":"Chapfstrasse","postalCode":"8625","locality":"Gossau ZH","commune":{"key":"115","name":"Gossau (ZH)","shortName":"Gossau (ZH)"},"district":{"key":"105","name":"Bezirk Hinwil"},"canton":{"key":"1","code":"ZH","name":"Zürich"},"status":"Real"},{"key":"10175773","name":"Chatzenweiherstrasse","postalCode":"8625","locality":"Gossau ZH","commune":{"key":"115","name":"Gossau (ZH)","shortName":"Gossau (ZH)"},"district":{"key":"105","name":"Bezirk Hinwil"},"canton":{"key":"1","code":"ZH","name":"Zürich"},"status":"Real"},{"key":"10155252","name":"Chileweg","postalCode":"8625","locality":"Gossau ZH","commune":{"key":"115","name":"Gossau (ZH)","shortName":"Gossau (ZH)"},"district":{"key":"105","name":"Bezirk Hinwil"},"canton":{"key":"1","code":"ZH","name":"Zürich"},"status":"Real"},{"key":"10054062","name":"Chindismülistrasse","postalCode":"8625","locality":"Gossau ZH","commune":{"key":"115","name":"Gossau (ZH)","shortName":"Gossau (ZH)"},"district":{"key":"105","name":"Bezirk Hinwil"},"canton":{"key":"1","code":"ZH","name":"Zürich"},"status":"Real"},{"key":"10054062","name":"Chindismülistrasse","postalCode":"8626","locality":"Ottikon (Gossau ZH)","commune":{"key":"115","name":"Gossau (ZH)","shortName":"Gossau (ZH)"},"district":{"key":"105","name":"Bezirk Hinwil"},"canton":{"key":"1","code":"ZH","name":"Zürich"},"status":"Real"},{"key":"10171058","name":"Chnebelstrasse","postalCode":"8626","locality":"Ottikon (Gossau ZH)","commune":{"key":"115","name":"Gossau (ZH)","shortName":"Gossau (ZH)"},"district":{"key":"105","name":"Bezirk Hinwil"},"canton":{"key":"1","code":"ZH","name":"Zürich"},"status":"Real"},{"key":"10060904","name":"Dürntnerstrasse","postalCode":"8626","locality":"Ottikon (Gossau ZH)","commune":{"key":"115","name":"Gossau (ZH)","shortName":"Gossau (ZH)"},"district":{"key":"105","name":"Bezirk Hinwil"},"canton":{"key":"1","code":"ZH","name":"Zürich"},"status":"Real"},{"key":"10172709","name":"Eggenbrunnenweg","postalCode":"8626","locality":"Ottikon (Gossau ZH)","commune":{"key":"115","name":"Gossau (ZH)","shortName":"Gossau (ZH)"},"district":{"key":"105","name":"Bezirk Hinwil"},"canton":{"key":"1","code":"ZH","name":"Zürich"},"status":"Real"},{"key":"10060905","name":"Eichhaldenstrasse","postalCode":"8614","locality":"Bertschikon (Gossau ZH)","commune":{"key":"115","name":"Gossau (ZH)","shortName":"Gossau (ZH)"},"district":{"key":"105","name":"Bezirk Hinwil"},"canton":{"key":"1","code":"ZH","name":"Zürich"},"status":"Real"},{"key":"10000182","name":"Eichholzstrasse","postalCode":"8614","locality":"Bertschikon (Gossau ZH)","commune":{"key":"115","name":"Gossau (ZH)","shortName":"Gossau (ZH)"},"district":{"key":"105","name":"Bezirk Hinwil"},"canton":{"key":"1","code":"ZH","name":"Zürich"},"status":"Real"},{"key":"10164380","name":"Ermisrietstrasse","postalCode":"8626","locality":"Ottikon (Gossau ZH)","commune":{"key":"115","name":"Gossau (ZH)","shortName":"Gossau (ZH)"},"district":{"key":"105","name":"Bezirk Hinwil"},"canton":{"key":"1","code":"ZH","name":"Zürich"},"status":"Real"},{"key":"10164461","name":"Esslingerstrasse","postalCode":"8625","locality":"Gossau ZH","commune":{"key":"115","name":"Gossau (ZH)","shortName":"Gossau (ZH)"},"district":{"key":"105","name":"Bezirk Hinwil"},"canton":{"key":"1","code":"ZH","name":"Zürich"},"status":"Real"},{"key":"10000387","name":"Etzelstrasse","postalCode":"8624","locality":"Grüt (Gossau ZH)","commune":{"key":"115","name":"Gossau (ZH)","shortName":"Gossau (ZH)"},"district":{"key":"105","name":"Bezirk Hinwil"},"canton":{"key":"1","code":"ZH","name":"Zürich"},"status":"Real"},{"key":"10000405","name":"Feldstrasse","postalCode":"8625","locality":"Gossau ZH","commune":{"key":"115","name":"Gossau (ZH)","shortName":"Gossau (ZH)"},"district":{"key":"105","name":"Bezirk Hinwil"},"canton":{"key":"1","code":"ZH","name":"Zürich"},"status":"Real"},{"key":"10000406","name":"Felsbergstrasse","postalCode":"8625","locality":"Gossau ZH","commune":{"key":"115","name":"Gossau (ZH)","shortName":"Gossau (ZH)"},"district":{"key":"105","name":"Bezirk Hinwil"},"canton":{"key":"1","code":"ZH","name":"Zürich"},"status":"Real"},{"key":"10101143","name":"Fochenmattweg","postalCode":"8624","locality":"Grüt (Gossau ZH)","commune":{"key":"115","name":"Gossau (ZH)","shortName":"Gossau (ZH)"},"district":{"key":"105","name":"Bezirk Hinwil"},"canton":{"key":"1","code":"ZH","name":"Zürich"},"status":"Real"},{"key":"10175775","name":"Freiwiesstrasse","postalCode":"8625","locality":"Gossau ZH","commune":{"key":"115","name":"Gossau (ZH)","shortName":"Gossau (ZH)"},"district":{"key":"105","name":"Bezirk Hinwil"},"canton":{"key":"1","code":"ZH","name":"Zürich"},"status":"Real"},{"key":"10080138","name":"Freudenbergstrasse","postalCode":"8625","locality":"Gossau ZH","commune":{"key":"115","name":"Gossau (ZH)","shortName":"Gossau (ZH)"},"district":{"key":"105","name":"Bezirk Hinwil"},"canton":{"key":"1","code":"ZH","name":"Zürich"},"status":"Real"},{"key":"10168398","name":"Frohbachweg","postalCode":"8626","locality":"Ottikon (Gossau ZH)","commune":{"key":"115","name":"Gossau (ZH)","shortName":"Gossau (ZH)"},"district":{"key":"105","name":"Bezirk Hinwil"},"canton":{"key":"1","code":"ZH","name":"Zürich"},"status":"Real"},{"key":"10168400","name":"Frohe Aussicht","postalCode":"8625","locality":"Gossau ZH","commune":{"key":"115","name":"Gossau (ZH)","shortName":"Gossau (ZH)"},"district":{"key":"105","name":"Bezirk Hinwil"},"canton":{"key":"1","code":"ZH","name":"Zürich"},"status":"Real"},{"key":"10170607","name":"Frohe-Aussicht-Weg","postalCode":"8625","locality":"Gossau ZH","commune":{"key":"115","name":"Gossau (ZH)","shortName":"Gossau (ZH)"},"district":{"key":"105","name":"Bezirk Hinwil"},"canton":{"key":"1","code":"ZH","name":"Zürich"},"status":"Real"},{"key":"10175776","name":"Fuchslochstrasse","postalCode":"8614","locality":"Bertschikon (Gossau ZH)","commune":{"key":"115","name":"Gossau (ZH)","shortName":"Gossau (ZH)"},"district":{"key":"105","name":"Bezirk Hinwil"},"canton":{"key":"1","code":"ZH","name":"Zürich"},"status":"Real"},{"key":"10000422","name":"Fuchsrütistrasse","postalCode":"8626","locality":"Ottikon (Gossau ZH)","commune":{"key":"115","name":"Gossau (ZH)","shortName":"Gossau (ZH)"},"district":{"key":"105","name":"Bezirk Hinwil"},"canton":{"key":"1","code":"ZH","name":"Zürich"},"status":"Real"},{"key":"10175777","name":"Galistrasse","postalCode":"8625","locality":"Gossau ZH","commune":{"key":"115","name":"Gossau (ZH)","shortName":"Gossau (ZH)"},"district":{"key":"105","name":"Bezirk Hinwil"},"canton":{"key":"1","code":"ZH","name":"Zürich"},"status":"Real"},{"key":"10110275","name":"Galtbergsteig","postalCode":"8625","locality":"Gossau ZH","commune":{"key":"115","name":"Gossau (ZH)","shortName":"Gossau (ZH)"},"district":{"key":"105","name":"Bezirk Hinwil"},"canton":{"key":"1","code":"ZH","name":"Zürich"},"status":"Real"},{"key":"10054063","name":"Galtbergstrasse","postalCode":"8625","locality":"Gossau ZH","commune":{"key":"115","name":"Gossau (ZH)","shortName":"Gossau (ZH)"},"district":{"key":"105","name":"Bezirk Hinwil"},"canton":{"key":"1","code":"ZH","name":"Zürich"},"status":"Real"},{"key":"10000423","name":"Gerbelstrasse","postalCode":"8626","locality":"Ottikon (Gossau ZH)","commune":{"key":"115","name":"Gossau (ZH)","shortName":"Gossau (ZH)"},"district":{"key":"105","name":"Bezirk Hinwil"},"canton":{"key":"1","code":"ZH","name":"Zürich"},"status":"Real"},{"key":"10180214","name":"Gfellerstrasse","postalCode":"8626","locality":"Ottikon (Gossau ZH)","commune":{"key":"115","name":"Gossau (ZH)","shortName":"Gossau (ZH)"},"district":{"key":"105","name":"Bezirk Hinwil"},"canton":{"key":"1","code":"ZH","name":"Zürich"},"status":"Real"},{"key":"10173834","name":"Glärnischweg","postalCode":"8614","locality":"Bertschikon (Gossau ZH)","commune":{"key":"115","name":"Gossau (ZH)","shortName":"Gossau (ZH)"},"district":{"key":"105","name":"Bezirk Hinwil"},"canton":{"key":"1","code":"ZH","name":"Zürich"},"status":"Real"},{"key":"10115772","name":"Goldistenstrasse","postalCode":"8625","locality":"Gossau ZH","commune":{"key":"115","name":"Gossau (ZH)","shortName":"Gossau (ZH)"},"district":{"key":"105","name":"Bezirk Hinwil"},"canton":{"key":"1","code":"ZH","name":"Zürich"},"status":"Real"},{"key":"10237919","name":"Gossauerrietweg","postalCode":"8625","locality":"Gossau ZH","commune":{"key":"115","name":"Gossau (ZH)","shortName":"Gossau (ZH)"},"district":{"key":"105","name":"Bezirk Hinwil"},"canton":{"key":"1","code":"ZH","name":"Zürich"},"status":"Real"},{"key":"10175778","name":"Grossholzstrasse","postalCode":"8626","locality":"Ottikon (Gossau ZH)","commune":{"key":"115","name":"Gossau (ZH)","shortName":"Gossau (ZH)"},"district":{"key":"105","name":"Bezirk Hinwil"},"canton":{"key":"1","code":"ZH","name":"Zürich"},"status":"Real"},{"key":"10079446","name":"Grüenaustrasse","postalCode":"8624","locality":"Grüt (Gossau ZH)","commune":{"key":"115","name":"Gossau (ZH)","shortName":"Gossau (ZH)"},"district":{"key":"105","name":"Bezirk Hinwil"},"canton":{"key":"1","code":"ZH","name":"Zürich"},"status":"Real"},{"key":"10080139","name":"Grüenenhofstrasse","postalCode":"8625","locality":"Gossau ZH","commune":{"key":"115","name":"Gossau (ZH)","shortName":"Gossau (ZH)"},"district":{"key":"105","name":"Bezirk Hinwil"},"canton":{"key":"1","code":"ZH","name":"Zürich"},"status":"Real"},{"key":"10077680","name":"Grundstrasse","postalCode":"8626","locality":"Ottikon (Gossau ZH)","commune":{"key":"115","name":"Gossau (ZH)","shortName":"Gossau (ZH)"},"district":{"key":"105","name":"Bezirk Hinwil"},"canton":{"key":"1","code":"ZH","name":"Zürich"},"status":"Real"},{"key":"10110274","name":"Grüningerstrasse","postalCode":"8624","locality":"Grüt (Gossau ZH)","commune":{"key":"115","name":"Gossau (ZH)","shortName":"Gossau (ZH)"},"district":{"key":"105","name":"Bezirk Hinwil"},"canton":{"key":"1","code":"ZH","name":"Zürich"},"status":"Real"},{"key":"10110274","name":"Grüningerstrasse","postalCode":"8626","locality":"Ottikon (Gossau ZH)","commune":{"key":"115","name":"Gossau (ZH)","shortName":"Gossau (ZH)"},"district":{"key":"105","name":"Bezirk Hinwil"},"canton":{"key":"1","code":"ZH","name":"Zürich"},"status":"Real"},{"key":"10111053","name":"Grütacherstrasse","postalCode":"8624","locality":"Grüt (Gossau ZH)","commune":{"key":"115","name":"Gossau (ZH)","shortName":"Gossau (ZH)"},"district":{"key":"105","name":"Bezirk Hinwil"},"canton":{"key":"1","code":"ZH","name":"Zürich"},"status":"Real"},{"key":"10000388","name":"Grütstrasse","postalCode":"8624","locality":"Grüt (Gossau ZH)","commune":{"key":"115","name":"Gossau (ZH)","shortName":"Gossau (ZH)"},"district":{"key":"105","name":"Bezirk Hinwil"},"canton":{"key":"1","code":"ZH","name":"Zürich"},"status":"Real"},{"key":"10000388","name":"Grütstrasse","postalCode":"8625","locality":"Gossau ZH","commune":{"key":"115","name":"Gossau (ZH)","shortName":"Gossau (ZH)"},"district":{"key":"105","name":"Bezirk Hinwil"},"canton":{"key":"1","code":"ZH","name":"Zürich"},"status":"Real"},{"key":"10172710","name":"Gschallbergstrasse","postalCode":"8626","locality":"Ottikon (Gossau ZH)","commune":{"key":"115","name":"Gossau (ZH)","shortName":"Gossau (ZH)"},"district":{"key":"105","name":"Bezirk Hinwil"},"canton":{"key":"1","code":"ZH","name":"Zürich"},"status":"Real"},{"key":"10000424","name":"Gsteinstrasse","postalCode":"8626","locality":"Ottikon (Gossau ZH)","commune":{"key":"115","name":"Gossau (ZH)","shortName":"Gossau (ZH)"},"district":{"key":"105","name":"Bezirk Hinwil"},"canton":{"key":"1","code":"ZH","name":"Zürich"},"status":"Real"},{"key":"10168672","name":"Guetshaldenweg","postalCode":"8624","locality":"Grüt (Gossau ZH)","commune":{"key":"115","name":"Gossau (ZH)","shortName":"Gossau (ZH)"},"district":{"key":"105","name":"Bezirk Hinwil"},"canton":{"key":"1","code":"ZH","name":"Zürich"},"status":"Real"},{"key":"10000407","name":"Haldenstrasse","postalCode":"8625","locality":"Gossau ZH","commune":{"key":"115","name":"Gossau (ZH)","shortName":"Gossau (ZH)"},"district":{"key":"105","name":"Bezirk Hinwil"},"canton":{"key":"1","code":"ZH","name":"Zürich"},"status":"Real"},{"key":"10077681","name":"Hanfgartenstrasse","postalCode":"8626","locality":"Ottikon (Gossau ZH)","commune":{"key":"115","name":"Gossau (ZH)","shortName":"Gossau (ZH)"},"district":{"key":"105","name":"Bezirk Hinwil"},"canton":{"key":"1","code":"ZH","name":"Zürich"},"status":"Real"},{"key":"10190603","name":"Hardstrasse","postalCode":"8614","locality":"Bertschikon (Gossau ZH)","commune":{"key":"115","name":"Gossau (ZH)","shortName":"Gossau (ZH)"},"district":{"key":"105","name":"Bezirk Hinwil"},"canton":{"key":"1","code":"ZH","name":"Zürich"},"status":"Real"},{"key":"10190603","name":"Hardstrasse","postalCode":"8624","locality":"Grüt (Gossau ZH)","commune":{"key":"115","name":"Gossau (ZH)","shortName":"Gossau (ZH)"},"district":{"key":"105","name":"Bezirk Hinwil"},"canton":{"key":"1","code":"ZH","name":"Zürich"},"status":"Real"},{"key":"10190603","name":"Hardstrasse","postalCode":"8625","locality":"Gossau ZH","commune":{"key":"115","name":"Gossau (ZH)","shortName":"Gossau (ZH)"},"district":{"key":"105","name":"Bezirk Hinwil"},"canton":{"key":"1","code":"ZH","name":"Zürich"},"status":"Real"},{"key":"10240379","name":"Hardweg","postalCode":"8624","locality":"Grüt (Gossau ZH)","commune":{"key":"115","name":"Gossau (ZH)","shortName":"Gossau (ZH)"},"district":{"key":"105","name":"Bezirk Hinwil"},"canton":{"key":"1","code":"ZH","name":"Zürich"},"status":"Real"},{"key":"10000389","name":"Hasenacherstrasse","postalCode":"8624","locality":"Grüt (Gossau ZH)","commune":{"key":"115","name":"Gossau (ZH)","shortName":"Gossau (ZH)"},"district":{"key":"105","name":"Bezirk Hinwil"},"canton":{"key":"1","code":"ZH","name":"Zürich"},"status":"Real"},{"key":"10000389","name":"Hasenacherstrasse","postalCode":"8626","locality":"Ottikon (Gossau ZH)","commune":{"key":"115","name":"Gossau (ZH)","shortName":"Gossau (ZH)"},"district":{"key":"105","name":"Bezirk Hinwil"},"canton":{"key":"1","code":"ZH","name":"Zürich"},"status":"Real"},{"key":"10000408","name":"Hasenbüelstrasse","postalCode":"8625","locality":"Gossau ZH","commune":{"key":"115","name":"Gossau (ZH)","shortName":"Gossau (ZH)"},"district":{"key":"105","name":"Bezirk Hinwil"},"canton":{"key":"1","code":"ZH","name":"Zürich"},"status":"Real"},{"key":"10156400","name":"Hegsrütistrasse","postalCode":"8614","locality":"Bertschikon (Gossau ZH)","commune":{"key":"115","name":"Gossau (ZH)","shortName":"Gossau (ZH)"},"district":{"key":"105","name":"Bezirk Hinwil"},"canton":{"key":"1","code":"ZH","name":"Zürich"},"status":"Real"},{"key":"10156400","name":"Hegsrütistrasse","postalCode":"8624","locality":"Grüt (Gossau ZH)","commune":{"key":"115","name":"Gossau (ZH)","shortName":"Gossau (ZH)"},"district":{"key":"105","name":"Bezirk Hinwil"},"canton":{"key":"1","code":"ZH","name":"Zürich"},"status":"Real"},{"key":"10080140","name":"Heidenrietstrasse","postalCode":"8625","locality":"Gossau ZH","commune":{"key":"115","name":"Gossau (ZH)","shortName":"Gossau (ZH)"},"district":{"key":"105","name":"Bezirk Hinwil"},"canton":{"key":"1","code":"ZH","name":"Zürich"},"status":"Real"},{"key":"10060906","name":"Hertenbüelweg","postalCode":"8626","locality":"Ottikon (Gossau ZH)","commune":{"key":"115","name":"Gossau (ZH)","shortName":"Gossau (ZH)"},"district":{"key":"105","name":"Bezirk Hinwil"},"canton":{"key":"1","code":"ZH","name":"Zürich"},"status":"Real"},{"key":"10129705","name":"Hertistrasse","postalCode":"8614","locality":"Bertschikon (Gossau ZH)","commune":{"key":"115","name":"Gossau (ZH)","shortName":"Gossau (ZH)"},"district":{"key":"105","name":"Bezirk Hinwil"},"canton":{"key":"1","code":"ZH","name":"Zürich"},"status":"Real"},{"key":"10189903","name":"Heusbergstrasse","postalCode":"8614","locality":"Bertschikon (Gossau ZH)","commune":{"key":"115","name":"Gossau (ZH)","shortName":"Gossau (ZH)"},"district":{"key":"105","name":"Bezirk Hinwil"},"canton":{"key":"1","code":"ZH","name":"Zürich"},"status":"Real"},{"key":"10157446","name":"Hintere Altenbergstrasse","postalCode":"8625","locality":"Gossau ZH","commune":{"key":"115","name":"Gossau (ZH)","shortName":"Gossau (ZH)"},"district":{"key":"105","name":"Bezirk Hinwil"},"canton":{"key":"1","code":"ZH","name":"Zürich"},"status":"Real"},{"key":"10154958","name":"Hinterer Eichholzweg","postalCode":"8614","locality":"Bertschikon (Gossau ZH)","commune":{"key":"115","name":"Gossau (ZH)","shortName":"Gossau (ZH)"},"district":{"key":"105","name":"Bezirk Hinwil"},"canton":{"key":"1","code":"ZH","name":"Zürich"},"status":"Real"},{"key":"10160713","name":"Hintere Sennweidstrasse","postalCode":"8626","locality":"Ottikon (Gossau ZH)","commune":{"key":"115","name":"Gossau (ZH)","shortName":"Gossau (ZH)"},"district":{"key":"105","name":"Bezirk Hinwil"},"canton":{"key":"1","code":"ZH","name":"Zürich"},"status":"Real"},{"key":"10168674","name":"Hinterrütistrasse","postalCode":"8625","locality":"Gossau ZH","commune":{"key":"115","name":"Gossau (ZH)","shortName":"Gossau (ZH)"},"district":{"key":"105","name":"Bezirk Hinwil"},"canton":{"key":"1","code":"ZH","name":"Zürich"},"status":"Real"},{"key":"10109241","name":"Hinwilerstrasse","postalCode":"8626","locality":"Ottikon (Gossau ZH)","commune":{"key":"115","name":"Gossau (ZH)","shortName":"Gossau (ZH)"},"district":{"key":"105","name":"Bezirk Hinwil"},"canton":{"key":"1","code":"ZH","name":"Zürich"},"status":"Real"},{"key":"10154959","name":"Höchiweg","postalCode":"8624","locality":"Grüt (Gossau ZH)","commune":{"key":"115","name":"Gossau (ZH)","shortName":"Gossau (ZH)"},"district":{"key":"105","name":"Bezirk Hinwil"},"canton":{"key":"1","code":"ZH","name":"Zürich"},"status":"Real"},{"key":"10000390","name":"Hofacherstrasse","postalCode":"8624","locality":"Grüt (Gossau ZH)","commune":{"key":"115","name":"Gossau (ZH)","shortName":"Gossau (ZH)"},"district":{"key":"105","name":"Bezirk Hinwil"},"canton":{"key":"1","code":"ZH","name":"Zürich"},"status":"Real"},{"key":"10155271","name":"Hornetstrasse","postalCode":"8625","locality":"Gossau ZH","commune":{"key":"115","name":"Gossau (ZH)","shortName":"Gossau (ZH)"},"district":{"key":"105","name":"Bezirk Hinwil"},"canton":{"key":"1","code":"ZH","name":"Zürich"},"status":"Real"},{"key":"10000183","name":"Hungerbüelstrasse","postalCode":"8614","locality":"Bertschikon (Gossau ZH)","commune":{"key":"115","name":"Gossau (ZH)","shortName":"Gossau (ZH)"},"district":{"key":"105","name":"Bezirk Hinwil"},"canton":{"key":"1","code":"ZH","name":"Zürich"},"status":"Real"},{"key":"10154653","name":"Hungerbüelweg","postalCode":"8614","locality":"Bertschikon (Gossau ZH)","commune":{"key":"115","name":"Gossau (ZH)","shortName":"Gossau (ZH)"},"district":{"key":"105","name":"Bezirk Hinwil"},"canton":{"key":"1","code":"ZH","name":"Zürich"},"status":"Real"},{"key":"10172067","name":"Hüttenacherstrasse","postalCode":"8626","locality":"Ottikon (Gossau ZH)","commune":{"key":"115","name":"Gossau (ZH)","shortName":"Gossau (ZH)"},"district":{"key":"105","name":"Bezirk Hinwil"},"canton":{"key":"1","code":"ZH","name":"Zürich"},"status":"Real"},{"key":"10154960","name":"Hüttenmoosstrasse","postalCode":"8614","locality":"Bertschikon (Gossau ZH)","commune":{"key":"115","name":"Gossau (ZH)","shortName":"Gossau (ZH)"},"district":{"key":"105","name":"Bezirk Hinwil"},"canton":{"key":"1","code":"ZH","name":"Zürich"},"status":"Real"},{"key":"10079447","name":"Im Bödeli","postalCode":"8624","locality":"Grüt (Gossau ZH)","commune":{"key":"115","name":"Gossau (ZH)","shortName":"Gossau (ZH)"},"district":{"key":"105","name":"Bezirk Hinwil"},"canton":{"key":"1","code":"ZH","name":"Zürich"},"status":"Real"},{"key":"10154380","name":"Im Drisgi","postalCode":"8626","locality":"Ottikon (Gossau ZH)","commune":{"key":"115","name":"Gossau (ZH)","shortName":"Gossau (ZH)"},"district":{"key":"105","name":"Bezirk Hinwil"},"canton":{"key":"1","code":"ZH","name":"Zürich"},"status":"Real"},{"key":"10154961","name":"Im Eich","postalCode":"8625","locality":"Gossau ZH","commune":{"key":"115","name":"Gossau (ZH)","shortName":"Gossau (ZH)"},"district":{"key":"105","name":"Bezirk Hinwil"},"canton":{"key":"1","code":"ZH","name":"Zürich"},"status":"Real"},{"key":"10000411","name":"Im Grüenenhof","postalCode":"8625","locality":"Gossau ZH","commune":{"key":"115","name":"Gossau (ZH)","shortName":"Gossau (ZH)"},"district":{"key":"105","name":"Bezirk Hinwil"},"canton":{"key":"1","code":"ZH","name":"Zürich"},"status":"Real"},{"key":"10000391","name":"Im Haufland","postalCode":"8624","locality":"Grüt (Gossau ZH)","commune":{"key":"115","name":"Gossau (ZH)","shortName":"Gossau (ZH)"},"district":{"key":"105","name":"Bezirk Hinwil"},"canton":{"key":"1","code":"ZH","name":"Zürich"},"status":"Real"},{"key":"10060907","name":"Im Husacher","postalCode":"8624","locality":"Grüt (Gossau ZH)","commune":{"key":"115","name":"Gossau (ZH)","shortName":"Gossau (ZH)"},"district":{"key":"105","name":"Bezirk Hinwil"},"canton":{"key":"1","code":"ZH","name":"Zürich"},"status":"Real"},{"key":"10168675","name":"Im Leerütiacher","postalCode":"8625","locality":"Gossau ZH","commune":{"key":"115","name":"Gossau (ZH)","shortName":"Gossau (ZH)"},"district":{"key":"105","name":"Bezirk Hinwil"},"canton":{"key":"1","code":"ZH","name":"Zürich"},"status":"Real"},{"key":"10079442","name":"Im Müselacher","postalCode":"8614","locality":"Bertschikon (Gossau ZH)","commune":{"key":"115","name":"Gossau (ZH)","shortName":"Gossau (ZH)"},"district":{"key":"105","name":"Bezirk Hinwil"},"canton":{"key":"1","code":"ZH","name":"Zürich"},"status":"Real"},{"key":"10000392","name":"Im Zelgli","postalCode":"8624","locality":"Grüt (Gossau ZH)","commune":{"key":"115","name":"Gossau (ZH)","shortName":"Gossau (ZH)"},"district":{"key":"105","name":"Bezirk Hinwil"},"canton":{"key":"1","code":"ZH","name":"Zürich"},"status":"Real"},{"key":"10157704","name":"Im Zentrum","postalCode":"8625","locality":"Gossau ZH","commune":{"key":"115","name":"Gossau (ZH)","shortName":"Gossau (ZH)"},"district":{"key":"105","name":"Bezirk Hinwil"},"canton":{"key":"1","code":"ZH","name":"Zürich"},"status":"Real"},{"key":"10060908","name":"Industriestrasse","postalCode":"8625","locality":"Gossau ZH","commune":{"key":"115","name":"Gossau (ZH)","shortName":"Gossau (ZH)"},"district":{"key":"105","name":"Bezirk Hinwil"},"canton":{"key":"1","code":"ZH","name":"Zürich"},"status":"Real"},{"key":"10204546","name":"Iselacherweg","postalCode":"8614","locality":"Bertschikon (Gossau ZH)","commune":{"key":"115","name":"Gossau (ZH)","shortName":"Gossau (ZH)"},"district":{"key":"105","name":"Bezirk Hinwil"},"canton":{"key":"1","code":"ZH","name":"Zürich"},"status":"Real"},{"key":"10168676","name":"Jungholzstrasse","postalCode":"8625","locality":"Gossau ZH","commune":{"key":"115","name":"Gossau (ZH)","shortName":"Gossau (ZH)"},"district":{"key":"105","name":"Bezirk Hinwil"},"canton":{"key":"1","code":"ZH","name":"Zürich"},"status":"Real"},{"key":"10174414","name":"Kanzleiweg","postalCode":"8625","locality":"Gossau ZH","commune":{"key":"115","name":"Gossau (ZH)","shortName":"Gossau (ZH)"},"district":{"key":"105","name":"Bezirk Hinwil"},"canton":{"key":"1","code":"ZH","name":"Zürich"},"status":"Real"},{"key":"10109242","name":"Kirchstrasse","postalCode":"8625","locality":"Gossau ZH","commune":{"key":"115","name":"Gossau (ZH)","shortName":"Gossau (ZH)"},"district":{"key":"105","name":"Bezirk Hinwil"},"canton":{"key":"1","code":"ZH","name":"Zürich"},"status":"Real"},{"key":"10060909","name":"Langfuhrstrasse","postalCode":"8614","locality":"Bertschikon (Gossau ZH)","commune":{"key":"115","name":"Gossau (ZH)","shortName":"Gossau (ZH)"},"district":{"key":"105","name":"Bezirk Hinwil"},"canton":{"key":"1","code":"ZH","name":"Zürich"},"status":"Real"},{"key":"10060909","name":"Langfuhrstrasse","postalCode":"8625","locality":"Gossau ZH","commune":{"key":"115","name":"Gossau (ZH)","shortName":"Gossau (ZH)"},"district":{"key":"105","name":"Bezirk Hinwil"},"canton":{"key":"1","code":"ZH","name":"Zürich"},"status":"Real"},{"key":"10190604","name":"Langweidstrasse","postalCode":"8624","locality":"Grüt (Gossau ZH)","commune":{"key":"115","name":"Gossau (ZH)","shortName":"Gossau (ZH)"},"district":{"key":"105","name":"Bezirk Hinwil"},"canton":{"key":"1","code":"ZH","name":"Zürich"},"status":"Real"},{"key":"10060910","name":"Lärchenweg","postalCode":"8626","locality":"Ottikon (Gossau ZH)","commune":{"key":"115","name":"Gossau (ZH)","shortName":"Gossau (ZH)"},"district":{"key":"105","name":"Bezirk Hinwil"},"canton":{"key":"1","code":"ZH","name":"Zürich"},"status":"Real"},{"key":"10080141","name":"Laufenbachstrasse","postalCode":"8625","locality":"Gossau ZH","commune":{"key":"115","name":"Gossau (ZH)","shortName":"Gossau (ZH)"},"district":{"key":"105","name":"Bezirk Hinwil"},"canton":{"key":"1","code":"ZH","name":"Zürich"},"status":"Real"},{"key":"10168677","name":"Leerütistrasse","postalCode":"8625","locality":"Gossau ZH","commune":{"key":"115","name":"Gossau (ZH)","shortName":"Gossau (ZH)"},"district":{"key":"105","name":"Bezirk Hinwil"},"canton":{"key":"1","code":"ZH","name":"Zürich"},"status":"Real"},{"key":"10000393","name":"Leigruebstrasse","postalCode":"8624","locality":"Grüt (Gossau ZH)","commune":{"key":"115","name":"Gossau (ZH)","shortName":"Gossau (ZH)"},"district":{"key":"105","name":"Bezirk Hinwil"},"canton":{"key":"1","code":"ZH","name":"Zürich"},"status":"Real"},{"key":"10077682","name":"Leihaldenweg","postalCode":"8625","locality":"Gossau ZH","commune":{"key":"115","name":"Gossau (ZH)","shortName":"Gossau (ZH)"},"district":{"key":"105","name":"Bezirk Hinwil"},"canton":{"key":"1","code":"ZH","name":"Zürich"},"status":"Real"},{"key":"10077682","name":"Leihaldenweg","postalCode":"8626","locality":"Ottikon (Gossau ZH)","commune":{"key":"115","name":"Gossau (ZH)","shortName":"Gossau (ZH)"},"district":{"key":"105","name":"Bezirk Hinwil"},"canton":{"key":"1","code":"ZH","name":"Zürich"},"status":"Real"},{"key":"10000184","name":"Leuenweg","postalCode":"8614","locality":"Bertschikon (Gossau ZH)","commune":{"key":"115","name":"Gossau (ZH)","shortName":"Gossau (ZH)"},"district":{"key":"105","name":"Bezirk Hinwil"},"canton":{"key":"1","code":"ZH","name":"Zürich"},"status":"Real"},{"key":"10154962","name":"Lindenbüelstrasse","postalCode":"8625","locality":"Gossau ZH","commune":{"key":"115","name":"Gossau (ZH)","shortName":"Gossau (ZH)"},"district":{"key":"105","name":"Bezirk Hinwil"},"canton":{"key":"1","code":"ZH","name":"Zürich"},"status":"Real"},{"key":"10120719","name":"Lindenhofstrasse","postalCode":"8624","locality":"Grüt (Gossau ZH)","commune":{"key":"115","name":"Gossau (ZH)","shortName":"Gossau (ZH)"},"district":{"key":"105","name":"Bezirk Hinwil"},"canton":{"key":"1","code":"ZH","name":"Zürich"},"status":"Real"},{"key":"10000394","name":"Lindenweg","postalCode":"8624","locality":"Grüt (Gossau ZH)","commune":{"key":"115","name":"Gossau (ZH)","shortName":"Gossau (ZH)"},"district":{"key":"105","name":"Bezirk Hinwil"},"canton":{"key":"1","code":"ZH","name":"Zürich"},"status":"Real"},{"key":"10175779","name":"Lindhofstrasse","postalCode":"8614","locality":"Bertschikon (Gossau ZH)","commune":{"key":"115","name":"Gossau (ZH)","shortName":"Gossau (ZH)"},"district":{"key":"105","name":"Bezirk Hinwil"},"canton":{"key":"1","code":"ZH","name":"Zürich"},"status":"Real"},{"key":"10175779","name":"Lindhofstrasse","postalCode":"8625","locality":"Gossau ZH","commune":{"key":"115","name":"Gossau (ZH)","shortName":"Gossau (ZH)"},"district":{"key":"105","name":"Bezirk Hinwil"},"canton":{"key":"1","code":"ZH","name":"Zürich"},"status":"Real"},{"key":"10176434","name":"Lochstrasse","postalCode":"8625","locality":"Gossau ZH","commune":{"key":"115","name":"Gossau (ZH)","shortName":"Gossau (ZH)"},"district":{"key":"105","name":"Bezirk Hinwil"},"canton":{"key":"1","code":"ZH","name":"Zürich"},"status":"Real"},{"key":"10117550","name":"Männetsrietstrasse","postalCode":"8614","locality":"Bertschikon (Gossau ZH)","commune":{"key":"115","name":"Gossau (ZH)","shortName":"Gossau (ZH)"},"district":{"key":"105","name":"Bezirk Hinwil"},"canton":{"key":"1","code":"ZH","name":"Zürich"},"status":"Real"},{"key":"10240382","name":"Massholderenstrasse","postalCode":"8625","locality":"Gossau ZH","commune":{"key":"115","name":"Gossau (ZH)","shortName":"Gossau (ZH)"},"district":{"key":"105","name":"Bezirk Hinwil"},"canton":{"key":"1","code":"ZH","name":"Zürich"},"status":"Real"},{"key":"10000185","name":"Medikerstrasse","postalCode":"8614","locality":"Bertschikon (Gossau ZH)","commune":{"key":"115","name":"Gossau (ZH)","shortName":"Gossau (ZH)"},"district":{"key":"105","name":"Bezirk Hinwil"},"canton":{"key":"1","code":"ZH","name":"Zürich"},"status":"Real"},{"key":"10080142","name":"Mönchaltorferstrasse","postalCode":"8625","locality":"Gossau ZH","commune":{"key":"115","name":"Gossau (ZH)","shortName":"Gossau (ZH)"},"district":{"key":"105","name":"Bezirk Hinwil"},"canton":{"key":"1","code":"ZH","name":"Zürich"},"status":"Real"},{"key":"10000425","name":"Moosacherstrasse","postalCode":"8626","locality":"Ottikon (Gossau ZH)","commune":{"key":"115","name":"Gossau (ZH)","shortName":"Gossau (ZH)"},"district":{"key":"105","name":"Bezirk Hinwil"},"canton":{"key":"1","code":"ZH","name":"Zürich"},"status":"Real"},{"key":"10000412","name":"Moosstrasse","postalCode":"8625","locality":"Gossau ZH","commune":{"key":"115","name":"Gossau (ZH)","shortName":"Gossau (ZH)"},"district":{"key":"105","name":"Bezirk Hinwil"},"canton":{"key":"1","code":"ZH","name":"Zürich"},"status":"Real"},{"key":"10240372","name":"Moosweg","postalCode":"8625","locality":"Gossau ZH","commune":{"key":"115","name":"Gossau (ZH)","shortName":"Gossau (ZH)"},"district":{"key":"105","name":"Bezirk Hinwil"},"canton":{"key":"1","code":"ZH","name":"Zürich"},"status":"Real"},{"key":"10240372","name":"Moosweg","postalCode":"8626","locality":"Ottikon (Gossau ZH)","commune":{"key":"115","name":"Gossau (ZH)","shortName":"Gossau (ZH)"},"district":{"key":"105","name":"Bezirk Hinwil"},"canton":{"key":"1","code":"ZH","name":"Zürich"},"status":"Real"},{"key":"10168678","name":"Morgenstrasse","postalCode":"8624","locality":"Grüt (Gossau ZH)","commune":{"key":"115","name":"Gossau (ZH)","shortName":"Gossau (ZH)"},"district":{"key":"105","name":"Bezirk Hinwil"},"canton":{"key":"1","code":"ZH","name":"Zürich"},"status":"Real"},{"key":"10000413","name":"Müliweg","postalCode":"8625","locality":"Gossau ZH","commune":{"key":"115","name":"Gossau (ZH)","shortName":"Gossau (ZH)"},"district":{"key":"105","name":"Bezirk Hinwil"},"canton":{"key":"1","code":"ZH","name":"Zürich"},"status":"Real"},{"key":"10240378","name":"Müliweierweg","postalCode":"8626","locality":"Ottikon (Gossau ZH)","commune":{"key":"115","name":"Gossau (ZH)","shortName":"Gossau (ZH)"},"district":{"key":"105","name":"Bezirk Hinwil"},"canton":{"key":"1","code":"ZH","name":"Zürich"},"status":"Real"},{"key":"10111054","name":"Neuguetstrasse","postalCode":"8624","locality":"Grüt (Gossau ZH)","commune":{"key":"115","name":"Gossau (ZH)","shortName":"Gossau (ZH)"},"district":{"key":"105","name":"Bezirk Hinwil"},"canton":{"key":"1","code":"ZH","name":"Zürich"},"status":"Real"},{"key":"10000414","name":"Neuwisstrasse","postalCode":"8625","locality":"Gossau ZH","commune":{"key":"115","name":"Gossau (ZH)","shortName":"Gossau (ZH)"},"district":{"key":"105","name":"Bezirk Hinwil"},"canton":{"key":"1","code":"ZH","name":"Zürich"},"status":"Real"},{"key":"10060911","name":"Obere Galtbergstrasse","postalCode":"8625","locality":"Gossau ZH","commune":{"key":"115","name":"Gossau (ZH)","shortName":"Gossau (ZH)"},"district":{"key":"105","name":"Bezirk Hinwil"},"canton":{"key":"1","code":"ZH","name":"Zürich"},"status":"Real"},{"key":"10000186","name":"Obstgartenweg","postalCode":"8614","locality":"Bertschikon (Gossau ZH)","commune":{"key":"115","name":"Gossau (ZH)","shortName":"Gossau (ZH)"},"district":{"key":"105","name":"Bezirk Hinwil"},"canton":{"key":"1","code":"ZH","name":"Zürich"},"status":"Real"},{"key":"10110276","name":"Oelestrasse","postalCode":"8625","locality":"Gossau ZH","commune":{"key":"115","name":"Gossau (ZH)","shortName":"Gossau (ZH)"},"district":{"key":"105","name":"Bezirk Hinwil"},"canton":{"key":"1","code":"ZH","name":"Zürich"},"status":"Real"},{"key":"10000187","name":"Poststrasse","postalCode":"8614","locality":"Bertschikon (Gossau ZH)","commune":{"key":"115","name":"Gossau (ZH)","shortName":"Gossau (ZH)"},"district":{"key":"105","name":"Bezirk Hinwil"},"canton":{"key":"1","code":"ZH","name":"Zürich"},"status":"Real"},{"key":"10000415","name":"Postweg","postalCode":"8625","locality":"Gossau ZH","commune":{"key":"115","name":"Gossau (ZH)","shortName":"Gossau (ZH)"},"district":{"key":"105","name":"Bezirk Hinwil"},"canton":{"key":"1","code":"ZH","name":"Zürich"},"status":"Real"},{"key":"10000395","name":"Pumertweg","postalCode":"8624","locality":"Grüt (Gossau ZH)","commune":{"key":"115","name":"Gossau (ZH)","shortName":"Gossau (ZH)"},"district":{"key":"105","name":"Bezirk Hinwil"},"canton":{"key":"1","code":"ZH","name":"Zürich"},"status":"Real"},{"key":"10000188","name":"Rain","postalCode":"8614","locality":"Bertschikon (Gossau ZH)","commune":{"key":"115","name":"Gossau (ZH)","shortName":"Gossau (ZH)"},"district":{"key":"105","name":"Bezirk Hinwil"},"canton":{"key":"1","code":"ZH","name":"Zürich"},"status":"Real"},{"key":"10168679","name":"Rebacherstrasse","postalCode":"8614","locality":"Bertschikon (Gossau ZH)","commune":{"key":"115","name":"Gossau (ZH)","shortName":"Gossau (ZH)"},"district":{"key":"105","name":"Bezirk Hinwil"},"canton":{"key":"1","code":"ZH","name":"Zürich"},"status":"Real"},{"key":"10240380","name":"Rebacherweg","postalCode":"8614","locality":"Bertschikon (Gossau ZH)","commune":{"key":"115","name":"Gossau (ZH)","shortName":"Gossau (ZH)"},"district":{"key":"105","name":"Bezirk Hinwil"},"canton":{"key":"1","code":"ZH","name":"Zürich"},"status":"Real"},{"key":"10080143","name":"Rebhaldenstrasse","postalCode":"8625","locality":"Gossau ZH","commune":{"key":"115","name":"Gossau (ZH)","shortName":"Gossau (ZH)"},"district":{"key":"105","name":"Bezirk Hinwil"},"canton":{"key":"1","code":"ZH","name":"Zürich"},"status":"Real"},{"key":"10080133","name":"Rebrainstrasse","postalCode":"8624","locality":"Grüt (Gossau ZH)","commune":{"key":"115","name":"Gossau (ZH)","shortName":"Gossau (ZH)"},"district":{"key":"105","name":"Bezirk Hinwil"},"canton":{"key":"1","code":"ZH","name":"Zürich"},"status":"Real"},{"key":"10000426","name":"Rifacherstrasse","postalCode":"8626","locality":"Ottikon (Gossau ZH)","commune":{"key":"115","name":"Gossau (ZH)","shortName":"Gossau (ZH)"},"district":{"key":"105","name":"Bezirk Hinwil"},"canton":{"key":"1","code":"ZH","name":"Zürich"},"status":"Real"},{"key":"10154963","name":"Rifrütistrasse","postalCode":"8625","locality":"Gossau ZH","commune":{"key":"115","name":"Gossau (ZH)","shortName":"Gossau (ZH)"},"district":{"key":"105","name":"Bezirk Hinwil"},"canton":{"key":"1","code":"ZH","name":"Zürich"},"status":"Real"},{"key":"10060912","name":"Rigistrasse","postalCode":"8625","locality":"Gossau ZH","commune":{"key":"115","name":"Gossau (ZH)","shortName":"Gossau (ZH)"},"district":{"key":"105","name":"Bezirk Hinwil"},"canton":{"key":"1","code":"ZH","name":"Zürich"},"status":"Real"},{"key":"10000396","name":"Rinderweid","postalCode":"8624","locality":"Grüt (Gossau ZH)","commune":{"key":"115","name":"Gossau (ZH)","shortName":"Gossau (ZH)"},"district":{"key":"105","name":"Bezirk Hinwil"},"canton":{"key":"1","code":"ZH","name":"Zürich"},"status":"Real"},{"key":"10240373","name":"Rosrietweg","postalCode":"8625","locality":"Gossau ZH","commune":{"key":"115","name":"Gossau (ZH)","shortName":"Gossau (ZH)"},"district":{"key":"105","name":"Bezirk Hinwil"},"canton":{"key":"1","code":"ZH","name":"Zürich"},"status":"Real"},{"key":"10077683","name":"Rössliwiese","postalCode":"8626","locality":"Ottikon (Gossau ZH)","commune":{"key":"115","name":"Gossau (ZH)","shortName":"Gossau (ZH)"},"district":{"key":"105","name":"Bezirk Hinwil"},"canton":{"key":"1","code":"ZH","name":"Zürich"},"status":"Real"},{"key":"10173930","name":"Sarenweg","postalCode":"8626","locality":"Ottikon (Gossau ZH)","commune":{"key":"115","name":"Gossau (ZH)","shortName":"Gossau (ZH)"},"district":{"key":"105","name":"Bezirk Hinwil"},"canton":{"key":"1","code":"ZH","name":"Zürich"},"status":"Real"},{"key":"10000416","name":"Saumstrasse","postalCode":"8625","locality":"Gossau ZH","commune":{"key":"115","name":"Gossau (ZH)","shortName":"Gossau (ZH)"},"district":{"key":"105","name":"Bezirk Hinwil"},"canton":{"key":"1","code":"ZH","name":"Zürich"},"status":"Real"},{"key":"10000397","name":"Schatzenrainweg","postalCode":"8624","locality":"Grüt (Gossau ZH)","commune":{"key":"115","name":"Gossau (ZH)","shortName":"Gossau (ZH)"},"district":{"key":"105","name":"Bezirk Hinwil"},"canton":{"key":"1","code":"ZH","name":"Zürich"},"status":"Real"},{"key":"10189904","name":"Schinbergstrasse","postalCode":"8614","locality":"Bertschikon (Gossau ZH)","commune":{"key":"115","name":"Gossau (ZH)","shortName":"Gossau (ZH)"},"district":{"key":"105","name":"Bezirk Hinwil"},"canton":{"key":"1","code":"ZH","name":"Zürich"},"status":"Real"},{"key":"10154964","name":"Schinbergweg","postalCode":"8614","locality":"Bertschikon (Gossau ZH)","commune":{"key":"115","name":"Gossau (ZH)","shortName":"Gossau (ZH)"},"district":{"key":"105","name":"Bezirk Hinwil"},"canton":{"key":"1","code":"ZH","name":"Zürich"},"status":"Real"},{"key":"10000417","name":"Schlottenbüelstrasse","postalCode":"8625","locality":"Gossau ZH","commune":{"key":"115","name":"Gossau (ZH)","shortName":"Gossau (ZH)"},"district":{"key":"105","name":"Bezirk Hinwil"},"canton":{"key":"1","code":"ZH","name":"Zürich"},"status":"Real"},{"key":"10154965","name":"Schnetzelrütistrasse","postalCode":"8624","locality":"Grüt (Gossau ZH)","commune":{"key":"115","name":"Gossau (ZH)","shortName":"Gossau (ZH)"},"district":{"key":"105","name":"Bezirk Hinwil"},"canton":{"key":"1","code":"ZH","name":"Zürich"},"status":"Real"},{"key":"10110277","name":"Schönaustrasse","postalCode":"8626","locality":"Ottikon (Gossau ZH)","commune":{"key":"115","name":"Gossau (ZH)","shortName":"Gossau (ZH)"},"district":{"key":"105","name":"Bezirk Hinwil"},"canton":{"key":"1","code":"ZH","name":"Zürich"},"status":"Real"},{"key":"10080144","name":"Schönbüelstrasse","postalCode":"8626","locality":"Ottikon (Gossau ZH)","commune":{"key":"115","name":"Gossau (ZH)","shortName":"Gossau (ZH)"},"district":{"key":"105","name":"Bezirk Hinwil"},"canton":{"key":"1","code":"ZH","name":"Zürich"},"status":"Real"},{"key":"10248117","name":"Schulstrasse","postalCode":"8614","locality":"Bertschikon (Gossau ZH)","commune":{"key":"115","name":"Gossau (ZH)","shortName":"Gossau (ZH)"},"district":{"key":"105","name":"Bezirk Hinwil"},"canton":{"key":"1","code":"ZH","name":"Zürich"},"status":"Real"},{"key":"10248116","name":"Schulstrasse","postalCode":"8624","locality":"Grüt (Gossau ZH)","commune":{"key":"115","name":"Gossau (ZH)","shortName":"Gossau (ZH)"},"district":{"key":"105","name":"Bezirk Hinwil"},"canton":{"key":"1","code":"ZH","name":"Zürich"},"status":"Real"},{"key":"10248119","name":"Schulweg","postalCode":"8624","locality":"Grüt (Gossau ZH)","commune":{"key":"115","name":"Gossau (ZH)","shortName":"Gossau (ZH)"},"district":{"key":"105","name":"Bezirk Hinwil"},"canton":{"key":"1","code":"ZH","name":"Zürich"},"status":"Real"},{"key":"10248118","name":"Schulweg","postalCode":"8625","locality":"Gossau ZH","commune":{"key":"115","name":"Gossau (ZH)","shortName":"Gossau (ZH)"},"district":{"key":"105","name":"Bezirk Hinwil"},"canton":{"key":"1","code":"ZH","name":"Zürich"},"status":"Real"},{"key":"10162317","name":"Schützenhausweg","postalCode":"8625","locality":"Gossau ZH","commune":{"key":"115","name":"Gossau (ZH)","shortName":"Gossau (ZH)"},"district":{"key":"105","name":"Bezirk Hinwil"},"canton":{"key":"1","code":"ZH","name":"Zürich"},"status":"Real"},{"key":"10060913","name":"Schwobshofstrasse","postalCode":"8625","locality":"Gossau ZH","commune":{"key":"115","name":"Gossau (ZH)","shortName":"Gossau (ZH)"},"district":{"key":"105","name":"Bezirk Hinwil"},"canton":{"key":"1","code":"ZH","name":"Zürich"},"status":"Real"},{"key":"10240374","name":"Seewadelweg","postalCode":"8625","locality":"Gossau ZH","commune":{"key":"115","name":"Gossau (ZH)","shortName":"Gossau (ZH)"},"district":{"key":"105","name":"Bezirk Hinwil"},"canton":{"key":"1","code":"ZH","name":"Zürich"},"status":"Real"},{"key":"10161559","name":"Sennhüttenweg","postalCode":"8626","locality":"Ottikon (Gossau ZH)","commune":{"key":"115","name":"Gossau (ZH)","shortName":"Gossau (ZH)"},"district":{"key":"105","name":"Bezirk Hinwil"},"canton":{"key":"1","code":"ZH","name":"Zürich"},"status":"Real"},{"key":"10154966","name":"Sennwaldstrasse","postalCode":"8626","locality":"Ottikon (Gossau ZH)","commune":{"key":"115","name":"Gossau (ZH)","shortName":"Gossau (ZH)"},"district":{"key":"105","name":"Bezirk Hinwil"},"canton":{"key":"1","code":"ZH","name":"Zürich"},"status":"Real"},{"key":"10154967","name":"Sigelsrütistrasse","postalCode":"8625","locality":"Gossau ZH","commune":{"key":"115","name":"Gossau (ZH)","shortName":"Gossau (ZH)"},"district":{"key":"105","name":"Bezirk Hinwil"},"canton":{"key":"1","code":"ZH","name":"Zürich"},"status":"Real"},{"key":"10155253","name":"Springplatzstrasse","postalCode":"8626","locality":"Ottikon (Gossau ZH)","commune":{"key":"115","name":"Gossau (ZH)","shortName":"Gossau (ZH)"},"district":{"key":"105","name":"Bezirk Hinwil"},"canton":{"key":"1","code":"ZH","name":"Zürich"},"status":"Real"},{"key":"10079443","name":"Stampfiweg","postalCode":"8614","locality":"Bertschikon (Gossau ZH)","commune":{"key":"115","name":"Gossau (ZH)","shortName":"Gossau (ZH)"},"district":{"key":"105","name":"Bezirk Hinwil"},"canton":{"key":"1","code":"ZH","name":"Zürich"},"status":"Real"},{"key":"10000189","name":"Steinacherstrasse","postalCode":"8614","locality":"Bertschikon (Gossau ZH)","commune":{"key":"115","name":"Gossau (ZH)","shortName":"Gossau (ZH)"},"district":{"key":"105","name":"Bezirk Hinwil"},"canton":{"key":"1","code":"ZH","name":"Zürich"},"status":"Real"},{"key":"10000418","name":"Stockenstrasse","postalCode":"8625","locality":"Gossau ZH","commune":{"key":"115","name":"Gossau (ZH)","shortName":"Gossau (ZH)"},"district":{"key":"105","name":"Bezirk Hinwil"},"canton":{"key":"1","code":"ZH","name":"Zürich"},"status":"Real"},{"key":"10000190","name":"Stockerstrasse","postalCode":"8614","locality":"Bertschikon (Gossau ZH)","commune":{"key":"115","name":"Gossau (ZH)","shortName":"Gossau (ZH)"},"district":{"key":"105","name":"Bezirk Hinwil"},"canton":{"key":"1","code":"ZH","name":"Zürich"},"status":"Real"},{"key":"10000419","name":"Sunnehofstrasse","postalCode":"8625","locality":"Gossau ZH","commune":{"key":"115","name":"Gossau (ZH)","shortName":"Gossau (ZH)"},"district":{"key":"105","name":"Bezirk Hinwil"},"canton":{"key":"1","code":"ZH","name":"Zürich"},"status":"Real"},{"key":"10168680","name":"Sunnengartenweg","postalCode":"8625","locality":"Gossau ZH","commune":{"key":"115","name":"Gossau (ZH)","shortName":"Gossau (ZH)"},"district":{"key":"105","name":"Bezirk Hinwil"},"canton":{"key":"1","code":"ZH","name":"Zürich"},"status":"Real"},{"key":"10168681","name":"Tägernaustrasse","postalCode":"8625","locality":"Gossau ZH","commune":{"key":"115","name":"Gossau (ZH)","shortName":"Gossau (ZH)"},"district":{"key":"105","name":"Bezirk Hinwil"},"canton":{"key":"1","code":"ZH","name":"Zürich"},"status":"Real"},{"key":"10060914","name":"Tannenbergstrasse","postalCode":"8625","locality":"Gossau ZH","commune":{"key":"115","name":"Gossau (ZH)","shortName":"Gossau (ZH)"},"district":{"key":"105","name":"Bezirk Hinwil"},"canton":{"key":"1","code":"ZH","name":"Zürich"},"status":"Real"},{"key":"10240369","name":"Tribelweg","postalCode":"8625","locality":"Gossau ZH","commune":{"key":"115","name":"Gossau (ZH)","shortName":"Gossau (ZH)"},"district":{"key":"105","name":"Bezirk Hinwil"},"canton":{"key":"1","code":"ZH","name":"Zürich"},"status":"Real"},{"key":"10060916","name":"Unterer Bönlerweg","postalCode":"8624","locality":"Grüt (Gossau ZH)","commune":{"key":"115","name":"Gossau (ZH)","shortName":"Gossau (ZH)"},"district":{"key":"105","name":"Bezirk Hinwil"},"canton":{"key":"1","code":"ZH","name":"Zürich"},"status":"Real"},{"key":"10000420","name":"Unterhofen","postalCode":"8625","locality":"Gossau ZH","commune":{"key":"115","name":"Gossau (ZH)","shortName":"Gossau (ZH)"},"district":{"key":"105","name":"Bezirk Hinwil"},"canton":{"key":"1","code":"ZH","name":"Zürich"},"status":"Real"},{"key":"10079444","name":"Usterstrasse","postalCode":"8614","locality":"Bertschikon (Gossau ZH)","commune":{"key":"115","name":"Gossau (ZH)","shortName":"Gossau (ZH)"},"district":{"key":"105","name":"Bezirk Hinwil"},"canton":{"key":"1","code":"ZH","name":"Zürich"},"status":"Real"},{"key":"10168683","name":"Vordere Altenbergstrasse","postalCode":"8625","locality":"Gossau ZH","commune":{"key":"115","name":"Gossau (ZH)","shortName":"Gossau (ZH)"},"district":{"key":"105","name":"Bezirk Hinwil"},"canton":{"key":"1","code":"ZH","name":"Zürich"},"status":"Real"},{"key":"10155254","name":"Vorderer Eichholzweg","postalCode":"8614","locality":"Bertschikon (Gossau ZH)","commune":{"key":"115","name":"Gossau (ZH)","shortName":"Gossau (ZH)"},"district":{"key":"105","name":"Bezirk Hinwil"},"canton":{"key":"1","code":"ZH","name":"Zürich"},"status":"Real"},{"key":"10080134","name":"Wabergstrasse","postalCode":"8624","locality":"Grüt (Gossau ZH)","commune":{"key":"115","name":"Gossau (ZH)","shortName":"Gossau (ZH)"},"district":{"key":"105","name":"Bezirk Hinwil"},"canton":{"key":"1","code":"ZH","name":"Zürich"},"status":"Real"},{"key":"10115771","name":"Weidholzstrasse","postalCode":"8624","locality":"Grüt (Gossau ZH)","commune":{"key":"115","name":"Gossau (ZH)","shortName":"Gossau (ZH)"},"district":{"key":"105","name":"Bezirk Hinwil"},"canton":{"key":"1","code":"ZH","name":"Zürich"},"status":"Real"},{"key":"10054060","name":"Weidlistrasse","postalCode":"8624","locality":"Grüt (Gossau ZH)","commune":{"key":"115","name":"Gossau (ZH)","shortName":"Gossau (ZH)"},"district":{"key":"105","name":"Bezirk Hinwil"},"canton":{"key":"1","code":"ZH","name":"Zürich"},"status":"Real"},{"key":"10000383","name":"Weidstrasse","postalCode":"8614","locality":"Bertschikon (Gossau ZH)","commune":{"key":"115","name":"Gossau (ZH)","shortName":"Gossau (ZH)"},"district":{"key":"105","name":"Bezirk Hinwil"},"canton":{"key":"1","code":"ZH","name":"Zürich"},"status":"Real"},{"key":"10080145","name":"Weiherstrasse","postalCode":"8625","locality":"Gossau ZH","commune":{"key":"115","name":"Gossau (ZH)","shortName":"Gossau (ZH)"},"district":{"key":"105","name":"Bezirk Hinwil"},"canton":{"key":"1","code":"ZH","name":"Zürich"},"status":"Real"},{"key":"10000427","name":"Wibergstrasse","postalCode":"8626","locality":"Ottikon (Gossau ZH)","commune":{"key":"115","name":"Gossau (ZH)","shortName":"Gossau (ZH)"},"district":{"key":"105","name":"Bezirk Hinwil"},"canton":{"key":"1","code":"ZH","name":"Zürich"},"status":"Real"},{"key":"10060917","name":"Wihaldenstrasse","postalCode":"8614","locality":"Bertschikon (Gossau ZH)","commune":{"key":"115","name":"Gossau (ZH)","shortName":"Gossau (ZH)"},"district":{"key":"105","name":"Bezirk Hinwil"},"canton":{"key":"1","code":"ZH","name":"Zürich"},"status":"Real"},{"key":"10000399","name":"Wolfrichtistrasse","postalCode":"8624","locality":"Grüt (Gossau ZH)","commune":{"key":"115","name":"Gossau (ZH)","shortName":"Gossau (ZH)"},"district":{"key":"105","name":"Bezirk Hinwil"},"canton":{"key":"1","code":"ZH","name":"Zürich"},"status":"Real"},{"key":"10060918","name":"Wüeristrasse","postalCode":"8625","locality":"Gossau ZH","commune":{"key":"115","name":"Gossau (ZH)","shortName":"Gossau (ZH)"},"district":{"key":"105","name":"Bezirk Hinwil"},"canton":{"key":"1","code":"ZH","name":"Zürich"},"status":"Real"},{"key":"10080135","name":"Zelgliweg","postalCode":"8624","locality":"Grüt (Gossau ZH)","commune":{"key":"115","name":"Gossau (ZH)","shortName":"Gossau (ZH)"},"district":{"key":"105","name":"Bezirk Hinwil"},"canton":{"key":"1","code":"ZH","name":"Zürich"},"status":"Real"},{"key":"10117551","name":"Zilstrasse","postalCode":"8626","locality":"Ottikon (Gossau ZH)","commune":{"key":"115","name":"Gossau (ZH)","shortName":"Gossau (ZH)"},"district":{"key":"105","name":"Bezirk Hinwil"},"canton":{"key":"1","code":"ZH","name":"Zürich"},"status":"Real"},{"key":"10240376","name":"Zimmbergweg","postalCode":"8626","locality":"Ottikon (Gossau ZH)","commune":{"key":"115","name":"Gossau (ZH)","shortName":"Gossau (ZH)"},"district":{"key":"105","name":"Bezirk Hinwil"},"canton":{"key":"1","code":"ZH","name":"Zürich"},"status":"Real"},{"key":"10163685","name":"Zweibollenstrasse","postalCode":"8626","locality":"Ottikon (Gossau ZH)","commune":{"key":"115","name":"Gossau (ZH)","shortName":"Gossau (ZH)"},"district":{"key":"105","name":"Bezirk Hinwil"},"canton":{"key":"1","code":"ZH","name":"Zürich"},"status":"Real"},{"key":"10000421","name":"Zwetschmetweg","postalCode":"8625","locality":"Gossau ZH","commune":{"key":"115","name":"Gossau (ZH)","shortName":"Gossau (ZH)"},"district":{"key":"105","name":"Bezirk Hinwil"},"canton":{"key":"1","code":"ZH","name":"Zürich"},"status":"Real"},]