[{"name":"2. Koppelweg","postalCode":"31863","locality":"Coppenbrügge","municipality":{"key":"03252004","name":"Coppenbrügge, Flecken","type":"Kreisangehörige_Gemeinde"},"district":{"key":"03252","name":"Hameln-Pyrmont","type":"Landkreis"},"federalState":{"key":"03","name":"Niedersachsen"}},{"name":"3. Koppelweg","postalCode":"31863","locality":"Coppenbrügge","municipality":{"key":"03252004","name":"Coppenbrügge, Flecken","type":"Kreisangehörige_Gemeinde"},"district":{"key":"03252","name":"Hameln-Pyrmont","type":"Landkreis"},"federalState":{"key":"03","name":"Niedersachsen"}},{"name":"Ahlswedenstr.","postalCode":"31863","locality":"Coppenbrügge","municipality":{"key":"03252004","name":"Coppenbrügge, Flecken","type":"Kreisangehörige_Gemeinde"},"district":{"key":"03252","name":"Hameln-Pyrmont","type":"Landkreis"},"federalState":{"key":"03","name":"Niedersachsen"}},{"name":"Ahornweg","postalCode":"31863","locality":"Coppenbrügge","municipality":{"key":"03252004","name":"Coppenbrügge, Flecken","type":"Kreisangehörige_Gemeinde"},"district":{"key":"03252","name":"Hameln-Pyrmont","type":"Landkreis"},"federalState":{"key":"03","name":"Niedersachsen"}},{"name":"Alte Dorfstr.","postalCode":"31863","locality":"Coppenbrügge","municipality":{"key":"03252004","name":"Coppenbrügge, Flecken","type":"Kreisangehörige_Gemeinde"},"district":{"key":"03252","name":"Hameln-Pyrmont","type":"Landkreis"},"federalState":{"key":"03","name":"Niedersachsen"}},{"name":"Alte Heerstr.","postalCode":"31863","locality":"Coppenbrügge","municipality":{"key":"03252004","name":"Coppenbrügge, Flecken","type":"Kreisangehörige_Gemeinde"},"district":{"key":"03252","name":"Hameln-Pyrmont","type":"Landkreis"},"federalState":{"key":"03","name":"Niedersachsen"}},{"name":"Alte Mühle","postalCode":"31863","locality":"Coppenbrügge","municipality":{"key":"03252004","name":"Coppenbrügge, Flecken","type":"Kreisangehörige_Gemeinde"},"district":{"key":"03252","name":"Hameln-Pyrmont","type":"Landkreis"},"federalState":{"key":"03","name":"Niedersachsen"}},{"name":"Altenhagen","postalCode":"31863","locality":"Coppenbrügge","municipality":{"key":"03252004","name":"Coppenbrügge, Flecken","type":"Kreisangehörige_Gemeinde"},"district":{"key":"03252","name":"Hameln-Pyrmont","type":"Landkreis"},"federalState":{"key":"03","name":"Niedersachsen"}},{"name":"Alter Kamp","postalCode":"31863","locality":"Coppenbrügge","municipality":{"key":"03252004","name":"Coppenbrügge, Flecken","type":"Kreisangehörige_Gemeinde"},"district":{"key":"03252","name":"Hameln-Pyrmont","type":"Landkreis"},"federalState":{"key":"03","name":"Niedersachsen"}},{"name":"Alter Teich","postalCode":"31863","locality":"Coppenbrügge","municipality":{"key":"03252004","name":"Coppenbrügge, Flecken","type":"Kreisangehörige_Gemeinde"},"district":{"key":"03252","name":"Hameln-Pyrmont","type":"Landkreis"},"federalState":{"key":"03","name":"Niedersachsen"}},{"name":"Alter Weg","postalCode":"31863","locality":"Coppenbrügge","municipality":{"key":"03252004","name":"Coppenbrügge, Flecken","type":"Kreisangehörige_Gemeinde"},"district":{"key":"03252","name":"Hameln-Pyrmont","type":"Landkreis"},"federalState":{"key":"03","name":"Niedersachsen"}},{"name":"Alte Siedlung","postalCode":"31863","locality":"Coppenbrügge","municipality":{"key":"03252004","name":"Coppenbrügge, Flecken","type":"Kreisangehörige_Gemeinde"},"district":{"key":"03252","name":"Hameln-Pyrmont","type":"Landkreis"},"federalState":{"key":"03","name":"Niedersachsen"}},{"name":"Am Anger","postalCode":"31863","locality":"Coppenbrügge","municipality":{"key":"03252004","name":"Coppenbrügge, Flecken","type":"Kreisangehörige_Gemeinde"},"district":{"key":"03252","name":"Hameln-Pyrmont","type":"Landkreis"},"federalState":{"key":"03","name":"Niedersachsen"}},{"name":"Am Bahnhof","postalCode":"31863","locality":"Coppenbrügge","municipality":{"key":"03252004","name":"Coppenbrügge, Flecken","type":"Kreisangehörige_Gemeinde"},"district":{"key":"03252","name":"Hameln-Pyrmont","type":"Landkreis"},"federalState":{"key":"03","name":"Niedersachsen"}},{"name":"Am Brink","postalCode":"31863","locality":"Coppenbrügge","municipality":{"key":"03252004","name":"Coppenbrügge, Flecken","type":"Kreisangehörige_Gemeinde"},"district":{"key":"03252","name":"Hameln-Pyrmont","type":"Landkreis"},"federalState":{"key":"03","name":"Niedersachsen"}},{"name":"Am Brookeweg","postalCode":"31863","locality":"Coppenbrügge","municipality":{"key":"03252004","name":"Coppenbrügge, Flecken","type":"Kreisangehörige_Gemeinde"},"district":{"key":"03252","name":"Hameln-Pyrmont","type":"Landkreis"},"federalState":{"key":"03","name":"Niedersachsen"}},{"name":"Am Feuerbache","postalCode":"31863","locality":"Coppenbrügge","municipality":{"key":"03252004","name":"Coppenbrügge, Flecken","type":"Kreisangehörige_Gemeinde"},"district":{"key":"03252","name":"Hameln-Pyrmont","type":"Landkreis"},"federalState":{"key":"03","name":"Niedersachsen"}},{"name":"Am Friedhof","postalCode":"31863","locality":"Coppenbrügge","municipality":{"key":"03252004","name":"Coppenbrügge, Flecken","type":"Kreisangehörige_Gemeinde"},"district":{"key":"03252","name":"Hameln-Pyrmont","type":"Landkreis"},"federalState":{"key":"03","name":"Niedersachsen"}},{"name":"Am Klei","postalCode":"31863","locality":"Coppenbrügge","municipality":{"key":"03252004","name":"Coppenbrügge, Flecken","type":"Kreisangehörige_Gemeinde"},"district":{"key":"03252","name":"Hameln-Pyrmont","type":"Landkreis"},"federalState":{"key":"03","name":"Niedersachsen"}},{"name":"Am Lindenbrunn","postalCode":"31863","locality":"Coppenbrügge","municipality":{"key":"03252004","name":"Coppenbrügge, Flecken","type":"Kreisangehörige_Gemeinde"},"district":{"key":"03252","name":"Hameln-Pyrmont","type":"Landkreis"},"federalState":{"key":"03","name":"Niedersachsen"}},{"name":"Am Linz","postalCode":"31863","locality":"Coppenbrügge","municipality":{"key":"03252004","name":"Coppenbrügge, Flecken","type":"Kreisangehörige_Gemeinde"},"district":{"key":"03252","name":"Hameln-Pyrmont","type":"Landkreis"},"federalState":{"key":"03","name":"Niedersachsen"}},{"name":"Am Schlägerfeld","postalCode":"31863","locality":"Coppenbrügge","municipality":{"key":"03252004","name":"Coppenbrügge, Flecken","type":"Kreisangehörige_Gemeinde"},"district":{"key":"03252","name":"Hameln-Pyrmont","type":"Landkreis"},"federalState":{"key":"03","name":"Niedersachsen"}},{"name":"Amselweg","postalCode":"31863","locality":"Coppenbrügge","municipality":{"key":"03252004","name":"Coppenbrügge, Flecken","type":"Kreisangehörige_Gemeinde"},"district":{"key":"03252","name":"Hameln-Pyrmont","type":"Landkreis"},"federalState":{"key":"03","name":"Niedersachsen"}},{"name":"Am Sportplatz","postalCode":"31863","locality":"Coppenbrügge","municipality":{"key":"03252004","name":"Coppenbrügge, Flecken","type":"Kreisangehörige_Gemeinde"},"district":{"key":"03252","name":"Hameln-Pyrmont","type":"Landkreis"},"federalState":{"key":"03","name":"Niedersachsen"}},{"name":"Am Stiegäcker","postalCode":"31863","locality":"Coppenbrügge","municipality":{"key":"03252004","name":"Coppenbrügge, Flecken","type":"Kreisangehörige_Gemeinde"},"district":{"key":"03252","name":"Hameln-Pyrmont","type":"Landkreis"},"federalState":{"key":"03","name":"Niedersachsen"}},{"name":"Am Walde","postalCode":"31863","locality":"Coppenbrügge","municipality":{"key":"03252004","name":"Coppenbrügge, Flecken","type":"Kreisangehörige_Gemeinde"},"district":{"key":"03252","name":"Hameln-Pyrmont","type":"Landkreis"},"federalState":{"key":"03","name":"Niedersachsen"}},{"name":"Am Wolfhagen","postalCode":"31863","locality":"Coppenbrügge","municipality":{"key":"03252004","name":"Coppenbrügge, Flecken","type":"Kreisangehörige_Gemeinde"},"district":{"key":"03252","name":"Hameln-Pyrmont","type":"Landkreis"},"federalState":{"key":"03","name":"Niedersachsen"}},{"name":"An den Eichen","postalCode":"31863","locality":"Coppenbrügge","municipality":{"key":"03252004","name":"Coppenbrügge, Flecken","type":"Kreisangehörige_Gemeinde"},"district":{"key":"03252","name":"Hameln-Pyrmont","type":"Landkreis"},"federalState":{"key":"03","name":"Niedersachsen"}},{"name":"An den Rootten","postalCode":"31863","locality":"Coppenbrügge","municipality":{"key":"03252004","name":"Coppenbrügge, Flecken","type":"Kreisangehörige_Gemeinde"},"district":{"key":"03252","name":"Hameln-Pyrmont","type":"Landkreis"},"federalState":{"key":"03","name":"Niedersachsen"}},{"name":"An der Beeke","postalCode":"31863","locality":"Coppenbrügge","municipality":{"key":"03252004","name":"Coppenbrügge, Flecken","type":"Kreisangehörige_Gemeinde"},"district":{"key":"03252","name":"Hameln-Pyrmont","type":"Landkreis"},"federalState":{"key":"03","name":"Niedersachsen"}},{"name":"An der Höhe","postalCode":"31863","locality":"Coppenbrügge","municipality":{"key":"03252004","name":"Coppenbrügge, Flecken","type":"Kreisangehörige_Gemeinde"},"district":{"key":"03252","name":"Hameln-Pyrmont","type":"Landkreis"},"federalState":{"key":"03","name":"Niedersachsen"}},{"name":"An der Remte","postalCode":"31863","locality":"Coppenbrügge","municipality":{"key":"03252004","name":"Coppenbrügge, Flecken","type":"Kreisangehörige_Gemeinde"},"district":{"key":"03252","name":"Hameln-Pyrmont","type":"Landkreis"},"federalState":{"key":"03","name":"Niedersachsen"}},{"name":"An der Schachtebeeke","postalCode":"31863","locality":"Coppenbrügge","municipality":{"key":"03252004","name":"Coppenbrügge, Flecken","type":"Kreisangehörige_Gemeinde"},"district":{"key":"03252","name":"Hameln-Pyrmont","type":"Landkreis"},"federalState":{"key":"03","name":"Niedersachsen"}},{"name":"Apfelkamp","postalCode":"31863","locality":"Coppenbrügge","municipality":{"key":"03252004","name":"Coppenbrügge, Flecken","type":"Kreisangehörige_Gemeinde"},"district":{"key":"03252","name":"Hameln-Pyrmont","type":"Landkreis"},"federalState":{"key":"03","name":"Niedersachsen"}},{"name":"Auhagenstr.","postalCode":"31863","locality":"Coppenbrügge","municipality":{"key":"03252004","name":"Coppenbrügge, Flecken","type":"Kreisangehörige_Gemeinde"},"district":{"key":"03252","name":"Hameln-Pyrmont","type":"Landkreis"},"federalState":{"key":"03","name":"Niedersachsen"}},{"name":"Bachstr.","postalCode":"31863","locality":"Coppenbrügge","municipality":{"key":"03252004","name":"Coppenbrügge, Flecken","type":"Kreisangehörige_Gemeinde"},"district":{"key":"03252","name":"Hameln-Pyrmont","type":"Landkreis"},"federalState":{"key":"03","name":"Niedersachsen"}},{"name":"Bäckerstr.","postalCode":"31863","locality":"Coppenbrügge","municipality":{"key":"03252004","name":"Coppenbrügge, Flecken","type":"Kreisangehörige_Gemeinde"},"district":{"key":"03252","name":"Hameln-Pyrmont","type":"Landkreis"},"federalState":{"key":"03","name":"Niedersachsen"}},{"name":"Bahndamm","postalCode":"31863","locality":"Coppenbrügge","municipality":{"key":"03252004","name":"Coppenbrügge, Flecken","type":"Kreisangehörige_Gemeinde"},"district":{"key":"03252","name":"Hameln-Pyrmont","type":"Landkreis"},"federalState":{"key":"03","name":"Niedersachsen"}},{"name":"Bahnhofstr.","postalCode":"31863","locality":"Coppenbrügge","municipality":{"key":"03252004","name":"Coppenbrügge, Flecken","type":"Kreisangehörige_Gemeinde"},"district":{"key":"03252","name":"Hameln-Pyrmont","type":"Landkreis"},"federalState":{"key":"03","name":"Niedersachsen"}},{"name":"Bäntorfer Str.","postalCode":"31863","locality":"Coppenbrügge","municipality":{"key":"03252004","name":"Coppenbrügge, Flecken","type":"Kreisangehörige_Gemeinde"},"district":{"key":"03252","name":"Hameln-Pyrmont","type":"Landkreis"},"federalState":{"key":"03","name":"Niedersachsen"}},{"name":"Bäntorfer Weg","postalCode":"31863","locality":"Coppenbrügge","municipality":{"key":"03252004","name":"Coppenbrügge, Flecken","type":"Kreisangehörige_Gemeinde"},"district":{"key":"03252","name":"Hameln-Pyrmont","type":"Landkreis"},"federalState":{"key":"03","name":"Niedersachsen"}},{"name":"Beckmannstr.","postalCode":"31863","locality":"Coppenbrügge","municipality":{"key":"03252004","name":"Coppenbrügge, Flecken","type":"Kreisangehörige_Gemeinde"},"district":{"key":"03252","name":"Hameln-Pyrmont","type":"Landkreis"},"federalState":{"key":"03","name":"Niedersachsen"}},{"name":"Behrenser Str.","postalCode":"31863","locality":"Coppenbrügge","municipality":{"key":"03252004","name":"Coppenbrügge, Flecken","type":"Kreisangehörige_Gemeinde"},"district":{"key":"03252","name":"Hameln-Pyrmont","type":"Landkreis"},"federalState":{"key":"03","name":"Niedersachsen"}},{"name":"Behrenser Weg","postalCode":"31863","locality":"Coppenbrügge","municipality":{"key":"03252004","name":"Coppenbrügge, Flecken","type":"Kreisangehörige_Gemeinde"},"district":{"key":"03252","name":"Hameln-Pyrmont","type":"Landkreis"},"federalState":{"key":"03","name":"Niedersachsen"}},{"name":"Bergstr.","postalCode":"31863","locality":"Coppenbrügge","municipality":{"key":"03252004","name":"Coppenbrügge, Flecken","type":"Kreisangehörige_Gemeinde"},"district":{"key":"03252","name":"Hameln-Pyrmont","type":"Landkreis"},"federalState":{"key":"03","name":"Niedersachsen"}},{"name":"Berliner Weg","postalCode":"31863","locality":"Coppenbrügge","municipality":{"key":"03252004","name":"Coppenbrügge, Flecken","type":"Kreisangehörige_Gemeinde"},"district":{"key":"03252","name":"Hameln-Pyrmont","type":"Landkreis"},"federalState":{"key":"03","name":"Niedersachsen"}},{"name":"Bertramstr.","postalCode":"31863","locality":"Coppenbrügge","municipality":{"key":"03252004","name":"Coppenbrügge, Flecken","type":"Kreisangehörige_Gemeinde"},"district":{"key":"03252","name":"Hameln-Pyrmont","type":"Landkreis"},"federalState":{"key":"03","name":"Niedersachsen"}},{"name":"Bessinger Str.","postalCode":"31863","locality":"Coppenbrügge","municipality":{"key":"03252004","name":"Coppenbrügge, Flecken","type":"Kreisangehörige_Gemeinde"},"district":{"key":"03252","name":"Hameln-Pyrmont","type":"Landkreis"},"federalState":{"key":"03","name":"Niedersachsen"}},{"name":"Birkenweg","postalCode":"31863","locality":"Coppenbrügge","municipality":{"key":"03252004","name":"Coppenbrügge, Flecken","type":"Kreisangehörige_Gemeinde"},"district":{"key":"03252","name":"Hameln-Pyrmont","type":"Landkreis"},"federalState":{"key":"03","name":"Niedersachsen"}},{"name":"Bisperoder Str.","postalCode":"31863","locality":"Coppenbrügge","municipality":{"key":"03252004","name":"Coppenbrügge, Flecken","type":"Kreisangehörige_Gemeinde"},"district":{"key":"03252","name":"Hameln-Pyrmont","type":"Landkreis"},"federalState":{"key":"03","name":"Niedersachsen"}},{"name":"Brinkstr.","postalCode":"31863","locality":"Coppenbrügge","municipality":{"key":"03252004","name":"Coppenbrügge, Flecken","type":"Kreisangehörige_Gemeinde"},"district":{"key":"03252","name":"Hameln-Pyrmont","type":"Landkreis"},"federalState":{"key":"03","name":"Niedersachsen"}},{"name":"Bruchweg","postalCode":"31863","locality":"Coppenbrügge","municipality":{"key":"03252004","name":"Coppenbrügge, Flecken","type":"Kreisangehörige_Gemeinde"},"district":{"key":"03252","name":"Hameln-Pyrmont","type":"Landkreis"},"federalState":{"key":"03","name":"Niedersachsen"}},{"name":"Brunnenstr.","postalCode":"31863","locality":"Coppenbrügge","municipality":{"key":"03252004","name":"Coppenbrügge, Flecken","type":"Kreisangehörige_Gemeinde"},"district":{"key":"03252","name":"Hameln-Pyrmont","type":"Landkreis"},"federalState":{"key":"03","name":"Niedersachsen"}},{"name":"Brunnenweg","postalCode":"31863","locality":"Coppenbrügge","municipality":{"key":"03252004","name":"Coppenbrügge, Flecken","type":"Kreisangehörige_Gemeinde"},"district":{"key":"03252","name":"Hameln-Pyrmont","type":"Landkreis"},"federalState":{"key":"03","name":"Niedersachsen"}},{"name":"Buchenweg","postalCode":"31863","locality":"Coppenbrügge","municipality":{"key":"03252004","name":"Coppenbrügge, Flecken","type":"Kreisangehörige_Gemeinde"},"district":{"key":"03252","name":"Hameln-Pyrmont","type":"Landkreis"},"federalState":{"key":"03","name":"Niedersachsen"}},{"name":"Daderser Weg","postalCode":"31863","locality":"Coppenbrügge","municipality":{"key":"03252004","name":"Coppenbrügge, Flecken","type":"Kreisangehörige_Gemeinde"},"district":{"key":"03252","name":"Hameln-Pyrmont","type":"Landkreis"},"federalState":{"key":"03","name":"Niedersachsen"}},{"name":"Dammstr.","postalCode":"31863","locality":"Coppenbrügge","municipality":{"key":"03252004","name":"Coppenbrügge, Flecken","type":"Kreisangehörige_Gemeinde"},"district":{"key":"03252","name":"Hameln-Pyrmont","type":"Landkreis"},"federalState":{"key":"03","name":"Niedersachsen"}},{"name":"Deisterblick","postalCode":"31863","locality":"Coppenbrügge","municipality":{"key":"03252004","name":"Coppenbrügge, Flecken","type":"Kreisangehörige_Gemeinde"},"district":{"key":"03252","name":"Hameln-Pyrmont","type":"Landkreis"},"federalState":{"key":"03","name":"Niedersachsen"}},{"name":"Diederser Str.","postalCode":"31863","locality":"Coppenbrügge","municipality":{"key":"03252004","name":"Coppenbrügge, Flecken","type":"Kreisangehörige_Gemeinde"},"district":{"key":"03252","name":"Hameln-Pyrmont","type":"Landkreis"},"federalState":{"key":"03","name":"Niedersachsen"}},{"name":"Die Herbe","postalCode":"31863","locality":"Coppenbrügge","municipality":{"key":"03252004","name":"Coppenbrügge, Flecken","type":"Kreisangehörige_Gemeinde"},"district":{"key":"03252","name":"Hameln-Pyrmont","type":"Landkreis"},"federalState":{"key":"03","name":"Niedersachsen"}},{"name":"Domänenweg","postalCode":"31863","locality":"Coppenbrügge","municipality":{"key":"03252004","name":"Coppenbrügge, Flecken","type":"Kreisangehörige_Gemeinde"},"district":{"key":"03252","name":"Hameln-Pyrmont","type":"Landkreis"},"federalState":{"key":"03","name":"Niedersachsen"}},{"name":"Dorfplatz","postalCode":"31863","locality":"Coppenbrügge","municipality":{"key":"03252004","name":"Coppenbrügge, Flecken","type":"Kreisangehörige_Gemeinde"},"district":{"key":"03252","name":"Hameln-Pyrmont","type":"Landkreis"},"federalState":{"key":"03","name":"Niedersachsen"}},{"name":"Dörper Str.","postalCode":"31863","locality":"Coppenbrügge","municipality":{"key":"03252004","name":"Coppenbrügge, Flecken","type":"Kreisangehörige_Gemeinde"},"district":{"key":"03252","name":"Hameln-Pyrmont","type":"Landkreis"},"federalState":{"key":"03","name":"Niedersachsen"}},{"name":"Dörper Weg","postalCode":"31863","locality":"Coppenbrügge","municipality":{"key":"03252004","name":"Coppenbrügge, Flecken","type":"Kreisangehörige_Gemeinde"},"district":{"key":"03252","name":"Hameln-Pyrmont","type":"Landkreis"},"federalState":{"key":"03","name":"Niedersachsen"}},{"name":"Echterseweg","postalCode":"31863","locality":"Coppenbrügge","municipality":{"key":"03252004","name":"Coppenbrügge, Flecken","type":"Kreisangehörige_Gemeinde"},"district":{"key":"03252","name":"Hameln-Pyrmont","type":"Landkreis"},"federalState":{"key":"03","name":"Niedersachsen"}},{"name":"Eichengrund","postalCode":"31863","locality":"Coppenbrügge","municipality":{"key":"03252004","name":"Coppenbrügge, Flecken","type":"Kreisangehörige_Gemeinde"},"district":{"key":"03252","name":"Hameln-Pyrmont","type":"Landkreis"},"federalState":{"key":"03","name":"Niedersachsen"}},{"name":"Feldweg","postalCode":"31863","locality":"Coppenbrügge","municipality":{"key":"03252004","name":"Coppenbrügge, Flecken","type":"Kreisangehörige_Gemeinde"},"district":{"key":"03252","name":"Hameln-Pyrmont","type":"Landkreis"},"federalState":{"key":"03","name":"Niedersachsen"}},{"name":"Felsenkeller","postalCode":"31863","locality":"Coppenbrügge","municipality":{"key":"03252004","name":"Coppenbrügge, Flecken","type":"Kreisangehörige_Gemeinde"},"district":{"key":"03252","name":"Hameln-Pyrmont","type":"Landkreis"},"federalState":{"key":"03","name":"Niedersachsen"}},{"name":"Fichtenweg","postalCode":"31863","locality":"Coppenbrügge","municipality":{"key":"03252004","name":"Coppenbrügge, Flecken","type":"Kreisangehörige_Gemeinde"},"district":{"key":"03252","name":"Hameln-Pyrmont","type":"Landkreis"},"federalState":{"key":"03","name":"Niedersachsen"}},{"name":"Finkenweg","postalCode":"31863","locality":"Coppenbrügge","municipality":{"key":"03252004","name":"Coppenbrügge, Flecken","type":"Kreisangehörige_Gemeinde"},"district":{"key":"03252","name":"Hameln-Pyrmont","type":"Landkreis"},"federalState":{"key":"03","name":"Niedersachsen"}},{"name":"Försterbrink","postalCode":"31863","locality":"Coppenbrügge","municipality":{"key":"03252004","name":"Coppenbrügge, Flecken","type":"Kreisangehörige_Gemeinde"},"district":{"key":"03252","name":"Hameln-Pyrmont","type":"Landkreis"},"federalState":{"key":"03","name":"Niedersachsen"}},{"name":"Fuchsgasse","postalCode":"31863","locality":"Coppenbrügge","municipality":{"key":"03252004","name":"Coppenbrügge, Flecken","type":"Kreisangehörige_Gemeinde"},"district":{"key":"03252","name":"Hameln-Pyrmont","type":"Landkreis"},"federalState":{"key":"03","name":"Niedersachsen"}},{"name":"Gartenstr.","postalCode":"31863","locality":"Coppenbrügge","municipality":{"key":"03252004","name":"Coppenbrügge, Flecken","type":"Kreisangehörige_Gemeinde"},"district":{"key":"03252","name":"Hameln-Pyrmont","type":"Landkreis"},"federalState":{"key":"03","name":"Niedersachsen"}},{"name":"Gartenweg","postalCode":"31863","locality":"Coppenbrügge","municipality":{"key":"03252004","name":"Coppenbrügge, Flecken","type":"Kreisangehörige_Gemeinde"},"district":{"key":"03252","name":"Hameln-Pyrmont","type":"Landkreis"},"federalState":{"key":"03","name":"Niedersachsen"}},{"name":"Granbrink","postalCode":"31863","locality":"Coppenbrügge","municipality":{"key":"03252004","name":"Coppenbrügge, Flecken","type":"Kreisangehörige_Gemeinde"},"district":{"key":"03252","name":"Hameln-Pyrmont","type":"Landkreis"},"federalState":{"key":"03","name":"Niedersachsen"}},{"name":"Grasweg","postalCode":"31863","locality":"Coppenbrügge","municipality":{"key":"03252004","name":"Coppenbrügge, Flecken","type":"Kreisangehörige_Gemeinde"},"district":{"key":"03252","name":"Hameln-Pyrmont","type":"Landkreis"},"federalState":{"key":"03","name":"Niedersachsen"}},{"name":"Grenzstr.","postalCode":"31863","locality":"Coppenbrügge","municipality":{"key":"03252004","name":"Coppenbrügge, Flecken","type":"Kreisangehörige_Gemeinde"},"district":{"key":"03252","name":"Hameln-Pyrmont","type":"Landkreis"},"federalState":{"key":"03","name":"Niedersachsen"}},{"name":"Hagenweg","postalCode":"31863","locality":"Coppenbrügge","municipality":{"key":"03252004","name":"Coppenbrügge, Flecken","type":"Kreisangehörige_Gemeinde"},"district":{"key":"03252","name":"Hameln-Pyrmont","type":"Landkreis"},"federalState":{"key":"03","name":"Niedersachsen"}},{"name":"Halbe","postalCode":"31863","locality":"Coppenbrügge","municipality":{"key":"03252004","name":"Coppenbrügge, Flecken","type":"Kreisangehörige_Gemeinde"},"district":{"key":"03252","name":"Hameln-Pyrmont","type":"Landkreis"},"federalState":{"key":"03","name":"Niedersachsen"}},{"name":"Hamelner Str.","postalCode":"31863","locality":"Coppenbrügge","municipality":{"key":"03252004","name":"Coppenbrügge, Flecken","type":"Kreisangehörige_Gemeinde"},"district":{"key":"03252","name":"Hameln-Pyrmont","type":"Landkreis"},"federalState":{"key":"03","name":"Niedersachsen"}},{"name":"Harderoder Str.","postalCode":"31863","locality":"Coppenbrügge","municipality":{"key":"03252004","name":"Coppenbrügge, Flecken","type":"Kreisangehörige_Gemeinde"},"district":{"key":"03252","name":"Hameln-Pyrmont","type":"Landkreis"},"federalState":{"key":"03","name":"Niedersachsen"}},{"name":"Häudekamp","postalCode":"31863","locality":"Coppenbrügge","municipality":{"key":"03252004","name":"Coppenbrügge, Flecken","type":"Kreisangehörige_Gemeinde"},"district":{"key":"03252","name":"Hameln-Pyrmont","type":"Landkreis"},"federalState":{"key":"03","name":"Niedersachsen"}},{"name":"Hauptstr.","postalCode":"31863","locality":"Coppenbrügge","municipality":{"key":"03252004","name":"Coppenbrügge, Flecken","type":"Kreisangehörige_Gemeinde"},"district":{"key":"03252","name":"Hameln-Pyrmont","type":"Landkreis"},"federalState":{"key":"03","name":"Niedersachsen"}},{"name":"Haus Harderode","postalCode":"31863","locality":"Coppenbrügge","municipality":{"key":"03252004","name":"Coppenbrügge, Flecken","type":"Kreisangehörige_Gemeinde"},"district":{"key":"03252","name":"Hameln-Pyrmont","type":"Landkreis"},"federalState":{"key":"03","name":"Niedersachsen"}},{"name":"Heerburg","postalCode":"31863","locality":"Coppenbrügge","municipality":{"key":"03252004","name":"Coppenbrügge, Flecken","type":"Kreisangehörige_Gemeinde"},"district":{"key":"03252","name":"Hameln-Pyrmont","type":"Landkreis"},"federalState":{"key":"03","name":"Niedersachsen"}},{"name":"Hellsieksweg","postalCode":"31863","locality":"Coppenbrügge","municipality":{"key":"03252004","name":"Coppenbrügge, Flecken","type":"Kreisangehörige_Gemeinde"},"district":{"key":"03252","name":"Hameln-Pyrmont","type":"Landkreis"},"federalState":{"key":"03","name":"Niedersachsen"}},{"name":"Hellweg","postalCode":"31863","locality":"Coppenbrügge","municipality":{"key":"03252004","name":"Coppenbrügge, Flecken","type":"Kreisangehörige_Gemeinde"},"district":{"key":"03252","name":"Hameln-Pyrmont","type":"Landkreis"},"federalState":{"key":"03","name":"Niedersachsen"}},{"name":"Herkenser Str.","postalCode":"31863","locality":"Coppenbrügge","municipality":{"key":"03252004","name":"Coppenbrügge, Flecken","type":"Kreisangehörige_Gemeinde"},"district":{"key":"03252","name":"Hameln-Pyrmont","type":"Landkreis"},"federalState":{"key":"03","name":"Niedersachsen"}},{"name":"Hinterm Dorfe","postalCode":"31863","locality":"Coppenbrügge","municipality":{"key":"03252004","name":"Coppenbrügge, Flecken","type":"Kreisangehörige_Gemeinde"},"district":{"key":"03252","name":"Hameln-Pyrmont","type":"Landkreis"},"federalState":{"key":"03","name":"Niedersachsen"}},{"name":"Hofstr.","postalCode":"31863","locality":"Coppenbrügge","municipality":{"key":"03252004","name":"Coppenbrügge, Flecken","type":"Kreisangehörige_Gemeinde"},"district":{"key":"03252","name":"Hameln-Pyrmont","type":"Landkreis"},"federalState":{"key":"03","name":"Niedersachsen"}},{"name":"Hohes Feld","postalCode":"31863","locality":"Coppenbrügge","municipality":{"key":"03252004","name":"Coppenbrügge, Flecken","type":"Kreisangehörige_Gemeinde"},"district":{"key":"03252","name":"Hameln-Pyrmont","type":"Landkreis"},"federalState":{"key":"03","name":"Niedersachsen"}},{"name":"Hohe Worth","postalCode":"31863","locality":"Coppenbrügge","municipality":{"key":"03252004","name":"Coppenbrügge, Flecken","type":"Kreisangehörige_Gemeinde"},"district":{"key":"03252","name":"Hameln-Pyrmont","type":"Landkreis"},"federalState":{"key":"03","name":"Niedersachsen"}},{"name":"Hohnser Str.","postalCode":"31863","locality":"Coppenbrügge","municipality":{"key":"03252004","name":"Coppenbrügge, Flecken","type":"Kreisangehörige_Gemeinde"},"district":{"key":"03252","name":"Hameln-Pyrmont","type":"Landkreis"},"federalState":{"key":"03","name":"Niedersachsen"}},{"name":"Horstweg","postalCode":"31863","locality":"Coppenbrügge","municipality":{"key":"03252004","name":"Coppenbrügge, Flecken","type":"Kreisangehörige_Gemeinde"},"district":{"key":"03252","name":"Hameln-Pyrmont","type":"Landkreis"},"federalState":{"key":"03","name":"Niedersachsen"}},{"name":"Ikenburg","postalCode":"31863","locality":"Coppenbrügge","municipality":{"key":"03252004","name":"Coppenbrügge, Flecken","type":"Kreisangehörige_Gemeinde"},"district":{"key":"03252","name":"Hameln-Pyrmont","type":"Landkreis"},"federalState":{"key":"03","name":"Niedersachsen"}},{"name":"Im Krugfeld","postalCode":"31863","locality":"Coppenbrügge","municipality":{"key":"03252004","name":"Coppenbrügge, Flecken","type":"Kreisangehörige_Gemeinde"},"district":{"key":"03252","name":"Hameln-Pyrmont","type":"Landkreis"},"federalState":{"key":"03","name":"Niedersachsen"}},{"name":"Im Ohr","postalCode":"31863","locality":"Coppenbrügge","municipality":{"key":"03252004","name":"Coppenbrügge, Flecken","type":"Kreisangehörige_Gemeinde"},"district":{"key":"03252","name":"Hameln-Pyrmont","type":"Landkreis"},"federalState":{"key":"03","name":"Niedersachsen"}},{"name":"Im Pump","postalCode":"31863","locality":"Coppenbrügge","municipality":{"key":"03252004","name":"Coppenbrügge, Flecken","type":"Kreisangehörige_Gemeinde"},"district":{"key":"03252","name":"Hameln-Pyrmont","type":"Landkreis"},"federalState":{"key":"03","name":"Niedersachsen"}},{"name":"Im Sacke","postalCode":"31863","locality":"Coppenbrügge","municipality":{"key":"03252004","name":"Coppenbrügge, Flecken","type":"Kreisangehörige_Gemeinde"},"district":{"key":"03252","name":"Hameln-Pyrmont","type":"Landkreis"},"federalState":{"key":"03","name":"Niedersachsen"}},{"name":"Im Timpen","postalCode":"31863","locality":"Coppenbrügge","municipality":{"key":"03252004","name":"Coppenbrügge, Flecken","type":"Kreisangehörige_Gemeinde"},"district":{"key":"03252","name":"Hameln-Pyrmont","type":"Landkreis"},"federalState":{"key":"03","name":"Niedersachsen"}},{"name":"Im Winkel","postalCode":"31863","locality":"Coppenbrügge","municipality":{"key":"03252004","name":"Coppenbrügge, Flecken","type":"Kreisangehörige_Gemeinde"},"district":{"key":"03252","name":"Hameln-Pyrmont","type":"Landkreis"},"federalState":{"key":"03","name":"Niedersachsen"}},{"name":"In der Reeke","postalCode":"31863","locality":"Coppenbrügge","municipality":{"key":"03252004","name":"Coppenbrügge, Flecken","type":"Kreisangehörige_Gemeinde"},"district":{"key":"03252","name":"Hameln-Pyrmont","type":"Landkreis"},"federalState":{"key":"03","name":"Niedersachsen"}},{"name":"Ithblick","postalCode":"31863","locality":"Coppenbrügge","municipality":{"key":"03252004","name":"Coppenbrügge, Flecken","type":"Kreisangehörige_Gemeinde"},"district":{"key":"03252","name":"Hameln-Pyrmont","type":"Landkreis"},"federalState":{"key":"03","name":"Niedersachsen"}},{"name":"Ithstr.","postalCode":"31863","locality":"Coppenbrügge","municipality":{"key":"03252004","name":"Coppenbrügge, Flecken","type":"Kreisangehörige_Gemeinde"},"district":{"key":"03252","name":"Hameln-Pyrmont","type":"Landkreis"},"federalState":{"key":"03","name":"Niedersachsen"}},{"name":"Jürgensweg","postalCode":"31863","locality":"Coppenbrügge","municipality":{"key":"03252004","name":"Coppenbrügge, Flecken","type":"Kreisangehörige_Gemeinde"},"district":{"key":"03252","name":"Hameln-Pyrmont","type":"Landkreis"},"federalState":{"key":"03","name":"Niedersachsen"}},{"name":"Kalberkamp","postalCode":"31863","locality":"Coppenbrügge","municipality":{"key":"03252004","name":"Coppenbrügge, Flecken","type":"Kreisangehörige_Gemeinde"},"district":{"key":"03252","name":"Hameln-Pyrmont","type":"Landkreis"},"federalState":{"key":"03","name":"Niedersachsen"}},{"name":"Kapellenweg","postalCode":"31863","locality":"Coppenbrügge","municipality":{"key":"03252004","name":"Coppenbrügge, Flecken","type":"Kreisangehörige_Gemeinde"},"district":{"key":"03252","name":"Hameln-Pyrmont","type":"Landkreis"},"federalState":{"key":"03","name":"Niedersachsen"}},{"name":"Kiefernweg","postalCode":"31863","locality":"Coppenbrügge","municipality":{"key":"03252004","name":"Coppenbrügge, Flecken","type":"Kreisangehörige_Gemeinde"},"district":{"key":"03252","name":"Hameln-Pyrmont","type":"Landkreis"},"federalState":{"key":"03","name":"Niedersachsen"}},{"name":"Kirchanger","postalCode":"31863","locality":"Coppenbrügge","municipality":{"key":"03252004","name":"Coppenbrügge, Flecken","type":"Kreisangehörige_Gemeinde"},"district":{"key":"03252","name":"Hameln-Pyrmont","type":"Landkreis"},"federalState":{"key":"03","name":"Niedersachsen"}},{"name":"Kirchbrink","postalCode":"31863","locality":"Coppenbrügge","municipality":{"key":"03252004","name":"Coppenbrügge, Flecken","type":"Kreisangehörige_Gemeinde"},"district":{"key":"03252","name":"Hameln-Pyrmont","type":"Landkreis"},"federalState":{"key":"03","name":"Niedersachsen"}},{"name":"Kirchstr.","postalCode":"31863","locality":"Coppenbrügge","municipality":{"key":"03252004","name":"Coppenbrügge, Flecken","type":"Kreisangehörige_Gemeinde"},"district":{"key":"03252","name":"Hameln-Pyrmont","type":"Landkreis"},"federalState":{"key":"03","name":"Niedersachsen"}},{"name":"Kirchweg","postalCode":"31863","locality":"Coppenbrügge","municipality":{"key":"03252004","name":"Coppenbrügge, Flecken","type":"Kreisangehörige_Gemeinde"},"district":{"key":"03252","name":"Hameln-Pyrmont","type":"Landkreis"},"federalState":{"key":"03","name":"Niedersachsen"}},{"name":"Kirschallee","postalCode":"31863","locality":"Coppenbrügge","municipality":{"key":"03252004","name":"Coppenbrügge, Flecken","type":"Kreisangehörige_Gemeinde"},"district":{"key":"03252","name":"Hameln-Pyrmont","type":"Landkreis"},"federalState":{"key":"03","name":"Niedersachsen"}},{"name":"Kirschbaumallee","postalCode":"31863","locality":"Coppenbrügge","municipality":{"key":"03252004","name":"Coppenbrügge, Flecken","type":"Kreisangehörige_Gemeinde"},"district":{"key":"03252","name":"Hameln-Pyrmont","type":"Landkreis"},"federalState":{"key":"03","name":"Niedersachsen"}},{"name":"Kleine Breite","postalCode":"31863","locality":"Coppenbrügge","municipality":{"key":"03252004","name":"Coppenbrügge, Flecken","type":"Kreisangehörige_Gemeinde"},"district":{"key":"03252","name":"Hameln-Pyrmont","type":"Landkreis"},"federalState":{"key":"03","name":"Niedersachsen"}},{"name":"Kleine Horst","postalCode":"31863","locality":"Coppenbrügge","municipality":{"key":"03252004","name":"Coppenbrügge, Flecken","type":"Kreisangehörige_Gemeinde"},"district":{"key":"03252","name":"Hameln-Pyrmont","type":"Landkreis"},"federalState":{"key":"03","name":"Niedersachsen"}},{"name":"Kleine Str.","postalCode":"31863","locality":"Coppenbrügge","municipality":{"key":"03252004","name":"Coppenbrügge, Flecken","type":"Kreisangehörige_Gemeinde"},"district":{"key":"03252","name":"Hameln-Pyrmont","type":"Landkreis"},"federalState":{"key":"03","name":"Niedersachsen"}},{"name":"Klosterstr.","postalCode":"31863","locality":"Coppenbrügge","municipality":{"key":"03252004","name":"Coppenbrügge, Flecken","type":"Kreisangehörige_Gemeinde"},"district":{"key":"03252","name":"Hameln-Pyrmont","type":"Landkreis"},"federalState":{"key":"03","name":"Niedersachsen"}},{"name":"Knickstr.","postalCode":"31863","locality":"Coppenbrügge","municipality":{"key":"03252004","name":"Coppenbrügge, Flecken","type":"Kreisangehörige_Gemeinde"},"district":{"key":"03252","name":"Hameln-Pyrmont","type":"Landkreis"},"federalState":{"key":"03","name":"Niedersachsen"}},{"name":"Krugstr.","postalCode":"31863","locality":"Coppenbrügge","municipality":{"key":"03252004","name":"Coppenbrügge, Flecken","type":"Kreisangehörige_Gemeinde"},"district":{"key":"03252","name":"Hameln-Pyrmont","type":"Landkreis"},"federalState":{"key":"03","name":"Niedersachsen"}},{"name":"Küthestr.","postalCode":"31863","locality":"Coppenbrügge","municipality":{"key":"03252004","name":"Coppenbrügge, Flecken","type":"Kreisangehörige_Gemeinde"},"district":{"key":"03252","name":"Hameln-Pyrmont","type":"Landkreis"},"federalState":{"key":"03","name":"Niedersachsen"}},{"name":"Lange Str.","postalCode":"31863","locality":"Coppenbrügge","municipality":{"key":"03252004","name":"Coppenbrügge, Flecken","type":"Kreisangehörige_Gemeinde"},"district":{"key":"03252","name":"Hameln-Pyrmont","type":"Landkreis"},"federalState":{"key":"03","name":"Niedersachsen"}},{"name":"Lerchenweg","postalCode":"31863","locality":"Coppenbrügge","municipality":{"key":"03252004","name":"Coppenbrügge, Flecken","type":"Kreisangehörige_Gemeinde"},"district":{"key":"03252","name":"Hameln-Pyrmont","type":"Landkreis"},"federalState":{"key":"03","name":"Niedersachsen"}},{"name":"Lindenbrunn","postalCode":"31863","locality":"Coppenbrügge","municipality":{"key":"03252004","name":"Coppenbrügge, Flecken","type":"Kreisangehörige_Gemeinde"},"district":{"key":"03252","name":"Hameln-Pyrmont","type":"Landkreis"},"federalState":{"key":"03","name":"Niedersachsen"}},{"name":"Lindenhof","postalCode":"31863","locality":"Coppenbrügge","municipality":{"key":"03252004","name":"Coppenbrügge, Flecken","type":"Kreisangehörige_Gemeinde"},"district":{"key":"03252","name":"Hameln-Pyrmont","type":"Landkreis"},"federalState":{"key":"03","name":"Niedersachsen"}},{"name":"Lindenplatz","postalCode":"31863","locality":"Coppenbrügge","municipality":{"key":"03252004","name":"Coppenbrügge, Flecken","type":"Kreisangehörige_Gemeinde"},"district":{"key":"03252","name":"Hameln-Pyrmont","type":"Landkreis"},"federalState":{"key":"03","name":"Niedersachsen"}},{"name":"Meierbreite","postalCode":"31863","locality":"Coppenbrügge","municipality":{"key":"03252004","name":"Coppenbrügge, Flecken","type":"Kreisangehörige_Gemeinde"},"district":{"key":"03252","name":"Hameln-Pyrmont","type":"Landkreis"},"federalState":{"key":"03","name":"Niedersachsen"}},{"name":"Meisenweg","postalCode":"31863","locality":"Coppenbrügge","municipality":{"key":"03252004","name":"Coppenbrügge, Flecken","type":"Kreisangehörige_Gemeinde"},"district":{"key":"03252","name":"Hameln-Pyrmont","type":"Landkreis"},"federalState":{"key":"03","name":"Niedersachsen"}},{"name":"Meyerfeld","postalCode":"31863","locality":"Coppenbrügge","municipality":{"key":"03252004","name":"Coppenbrügge, Flecken","type":"Kreisangehörige_Gemeinde"},"district":{"key":"03252","name":"Hameln-Pyrmont","type":"Landkreis"},"federalState":{"key":"03","name":"Niedersachsen"}},{"name":"Mittelmühle","postalCode":"31863","locality":"Coppenbrügge","municipality":{"key":"03252004","name":"Coppenbrügge, Flecken","type":"Kreisangehörige_Gemeinde"},"district":{"key":"03252","name":"Hameln-Pyrmont","type":"Landkreis"},"federalState":{"key":"03","name":"Niedersachsen"}},{"name":"Mühlenbrink","postalCode":"31863","locality":"Coppenbrügge","municipality":{"key":"03252004","name":"Coppenbrügge, Flecken","type":"Kreisangehörige_Gemeinde"},"district":{"key":"03252","name":"Hameln-Pyrmont","type":"Landkreis"},"federalState":{"key":"03","name":"Niedersachsen"}},{"name":"Mühlenfeld","postalCode":"31863","locality":"Coppenbrügge","municipality":{"key":"03252004","name":"Coppenbrügge, Flecken","type":"Kreisangehörige_Gemeinde"},"district":{"key":"03252","name":"Hameln-Pyrmont","type":"Landkreis"},"federalState":{"key":"03","name":"Niedersachsen"}},{"name":"Mühlenkamp","postalCode":"31863","locality":"Coppenbrügge","municipality":{"key":"03252004","name":"Coppenbrügge, Flecken","type":"Kreisangehörige_Gemeinde"},"district":{"key":"03252","name":"Hameln-Pyrmont","type":"Landkreis"},"federalState":{"key":"03","name":"Niedersachsen"}},{"name":"Mühlenstr.","postalCode":"31863","locality":"Coppenbrügge","municipality":{"key":"03252004","name":"Coppenbrügge, Flecken","type":"Kreisangehörige_Gemeinde"},"district":{"key":"03252","name":"Hameln-Pyrmont","type":"Landkreis"},"federalState":{"key":"03","name":"Niedersachsen"}},{"name":"Mühlenweg","postalCode":"31863","locality":"Coppenbrügge","municipality":{"key":"03252004","name":"Coppenbrügge, Flecken","type":"Kreisangehörige_Gemeinde"},"district":{"key":"03252","name":"Hameln-Pyrmont","type":"Landkreis"},"federalState":{"key":"03","name":"Niedersachsen"}},{"name":"Niederstr.","postalCode":"31863","locality":"Coppenbrügge","municipality":{"key":"03252004","name":"Coppenbrügge, Flecken","type":"Kreisangehörige_Gemeinde"},"district":{"key":"03252","name":"Hameln-Pyrmont","type":"Landkreis"},"federalState":{"key":"03","name":"Niedersachsen"}},{"name":"Nordholz","postalCode":"31863","locality":"Coppenbrügge","municipality":{"key":"03252004","name":"Coppenbrügge, Flecken","type":"Kreisangehörige_Gemeinde"},"district":{"key":"03252","name":"Hameln-Pyrmont","type":"Landkreis"},"federalState":{"key":"03","name":"Niedersachsen"}},{"name":"Obere Str.","postalCode":"31863","locality":"Coppenbrügge","municipality":{"key":"03252004","name":"Coppenbrügge, Flecken","type":"Kreisangehörige_Gemeinde"},"district":{"key":"03252","name":"Hameln-Pyrmont","type":"Landkreis"},"federalState":{"key":"03","name":"Niedersachsen"}},{"name":"Obere Wieme","postalCode":"31863","locality":"Coppenbrügge","municipality":{"key":"03252004","name":"Coppenbrügge, Flecken","type":"Kreisangehörige_Gemeinde"},"district":{"key":"03252","name":"Hameln-Pyrmont","type":"Landkreis"},"federalState":{"key":"03","name":"Niedersachsen"}},{"name":"Osterstr.","postalCode":"31863","locality":"Coppenbrügge","municipality":{"key":"03252004","name":"Coppenbrügge, Flecken","type":"Kreisangehörige_Gemeinde"},"district":{"key":"03252","name":"Hameln-Pyrmont","type":"Landkreis"},"federalState":{"key":"03","name":"Niedersachsen"}},{"name":"Osterwaldblick","postalCode":"31863","locality":"Coppenbrügge","municipality":{"key":"03252004","name":"Coppenbrügge, Flecken","type":"Kreisangehörige_Gemeinde"},"district":{"key":"03252","name":"Hameln-Pyrmont","type":"Landkreis"},"federalState":{"key":"03","name":"Niedersachsen"}},{"name":"Ostlandstr.","postalCode":"31863","locality":"Coppenbrügge","municipality":{"key":"03252004","name":"Coppenbrügge, Flecken","type":"Kreisangehörige_Gemeinde"},"district":{"key":"03252","name":"Hameln-Pyrmont","type":"Landkreis"},"federalState":{"key":"03","name":"Niedersachsen"}},{"name":"Oststr.","postalCode":"31863","locality":"Coppenbrügge","municipality":{"key":"03252004","name":"Coppenbrügge, Flecken","type":"Kreisangehörige_Gemeinde"},"district":{"key":"03252","name":"Hameln-Pyrmont","type":"Landkreis"},"federalState":{"key":"03","name":"Niedersachsen"}},{"name":"Postweg","postalCode":"31863","locality":"Coppenbrügge","municipality":{"key":"03252004","name":"Coppenbrügge, Flecken","type":"Kreisangehörige_Gemeinde"},"district":{"key":"03252","name":"Hameln-Pyrmont","type":"Landkreis"},"federalState":{"key":"03","name":"Niedersachsen"}},{"name":"Pulvermühle","postalCode":"31863","locality":"Coppenbrügge","municipality":{"key":"03252004","name":"Coppenbrügge, Flecken","type":"Kreisangehörige_Gemeinde"},"district":{"key":"03252","name":"Hameln-Pyrmont","type":"Landkreis"},"federalState":{"key":"03","name":"Niedersachsen"}},{"name":"Quellenweg","postalCode":"31863","locality":"Coppenbrügge","municipality":{"key":"03252004","name":"Coppenbrügge, Flecken","type":"Kreisangehörige_Gemeinde"},"district":{"key":"03252","name":"Hameln-Pyrmont","type":"Landkreis"},"federalState":{"key":"03","name":"Niedersachsen"}},{"name":"Raiffeisenweg","postalCode":"31863","locality":"Coppenbrügge","municipality":{"key":"03252004","name":"Coppenbrügge, Flecken","type":"Kreisangehörige_Gemeinde"},"district":{"key":"03252","name":"Hameln-Pyrmont","type":"Landkreis"},"federalState":{"key":"03","name":"Niedersachsen"}},{"name":"Rehagen","postalCode":"31863","locality":"Coppenbrügge","municipality":{"key":"03252004","name":"Coppenbrügge, Flecken","type":"Kreisangehörige_Gemeinde"},"district":{"key":"03252","name":"Hameln-Pyrmont","type":"Landkreis"},"federalState":{"key":"03","name":"Niedersachsen"}},{"name":"Riepenkamp","postalCode":"31863","locality":"Coppenbrügge","municipality":{"key":"03252004","name":"Coppenbrügge, Flecken","type":"Kreisangehörige_Gemeinde"},"district":{"key":"03252","name":"Hameln-Pyrmont","type":"Landkreis"},"federalState":{"key":"03","name":"Niedersachsen"}},{"name":"Ringstr.","postalCode":"31863","locality":"Coppenbrügge","municipality":{"key":"03252004","name":"Coppenbrügge, Flecken","type":"Kreisangehörige_Gemeinde"},"district":{"key":"03252","name":"Hameln-Pyrmont","type":"Landkreis"},"federalState":{"key":"03","name":"Niedersachsen"}},{"name":"Römbrink","postalCode":"31863","locality":"Coppenbrügge","municipality":{"key":"03252004","name":"Coppenbrügge, Flecken","type":"Kreisangehörige_Gemeinde"},"district":{"key":"03252","name":"Hameln-Pyrmont","type":"Landkreis"},"federalState":{"key":"03","name":"Niedersachsen"}},{"name":"Rosenweg","postalCode":"31863","locality":"Coppenbrügge","municipality":{"key":"03252004","name":"Coppenbrügge, Flecken","type":"Kreisangehörige_Gemeinde"},"district":{"key":"03252","name":"Hameln-Pyrmont","type":"Landkreis"},"federalState":{"key":"03","name":"Niedersachsen"}},{"name":"Rottenweg","postalCode":"31863","locality":"Coppenbrügge","municipality":{"key":"03252004","name":"Coppenbrügge, Flecken","type":"Kreisangehörige_Gemeinde"},"district":{"key":"03252","name":"Hameln-Pyrmont","type":"Landkreis"},"federalState":{"key":"03","name":"Niedersachsen"}},{"name":"Ruhkamp","postalCode":"31863","locality":"Coppenbrügge","municipality":{"key":"03252004","name":"Coppenbrügge, Flecken","type":"Kreisangehörige_Gemeinde"},"district":{"key":"03252","name":"Hameln-Pyrmont","type":"Landkreis"},"federalState":{"key":"03","name":"Niedersachsen"}},{"name":"Russelbrink","postalCode":"31863","locality":"Coppenbrügge","municipality":{"key":"03252004","name":"Coppenbrügge, Flecken","type":"Kreisangehörige_Gemeinde"},"district":{"key":"03252","name":"Hameln-Pyrmont","type":"Landkreis"},"federalState":{"key":"03","name":"Niedersachsen"}},{"name":"Sackstr.","postalCode":"31863","locality":"Coppenbrügge","municipality":{"key":"03252004","name":"Coppenbrügge, Flecken","type":"Kreisangehörige_Gemeinde"},"district":{"key":"03252","name":"Hameln-Pyrmont","type":"Landkreis"},"federalState":{"key":"03","name":"Niedersachsen"}},{"name":"Salzburg","postalCode":"31863","locality":"Coppenbrügge","municipality":{"key":"03252004","name":"Coppenbrügge, Flecken","type":"Kreisangehörige_Gemeinde"},"district":{"key":"03252","name":"Hameln-Pyrmont","type":"Landkreis"},"federalState":{"key":"03","name":"Niedersachsen"}},{"name":"Sandstr.","postalCode":"31863","locality":"Coppenbrügge","municipality":{"key":"03252004","name":"Coppenbrügge, Flecken","type":"Kreisangehörige_Gemeinde"},"district":{"key":"03252","name":"Hameln-Pyrmont","type":"Landkreis"},"federalState":{"key":"03","name":"Niedersachsen"}},{"name":"Schäbkerweg","postalCode":"31863","locality":"Coppenbrügge","municipality":{"key":"03252004","name":"Coppenbrügge, Flecken","type":"Kreisangehörige_Gemeinde"},"district":{"key":"03252","name":"Hameln-Pyrmont","type":"Landkreis"},"federalState":{"key":"03","name":"Niedersachsen"}},{"name":"Schäferhof","postalCode":"31863","locality":"Coppenbrügge","municipality":{"key":"03252004","name":"Coppenbrügge, Flecken","type":"Kreisangehörige_Gemeinde"},"district":{"key":"03252","name":"Hameln-Pyrmont","type":"Landkreis"},"federalState":{"key":"03","name":"Niedersachsen"}},{"name":"Schapersbrink","postalCode":"31863","locality":"Coppenbrügge","municipality":{"key":"03252004","name":"Coppenbrügge, Flecken","type":"Kreisangehörige_Gemeinde"},"district":{"key":"03252","name":"Hameln-Pyrmont","type":"Landkreis"},"federalState":{"key":"03","name":"Niedersachsen"}},{"name":"Scheckmühle","postalCode":"31863","locality":"Coppenbrügge","municipality":{"key":"03252004","name":"Coppenbrügge, Flecken","type":"Kreisangehörige_Gemeinde"},"district":{"key":"03252","name":"Hameln-Pyrmont","type":"Landkreis"},"federalState":{"key":"03","name":"Niedersachsen"}},{"name":"Schlangenweg","postalCode":"31863","locality":"Coppenbrügge","municipality":{"key":"03252004","name":"Coppenbrügge, Flecken","type":"Kreisangehörige_Gemeinde"},"district":{"key":"03252","name":"Hameln-Pyrmont","type":"Landkreis"},"federalState":{"key":"03","name":"Niedersachsen"}},{"name":"Schlesierweg","postalCode":"31863","locality":"Coppenbrügge","municipality":{"key":"03252004","name":"Coppenbrügge, Flecken","type":"Kreisangehörige_Gemeinde"},"district":{"key":"03252","name":"Hameln-Pyrmont","type":"Landkreis"},"federalState":{"key":"03","name":"Niedersachsen"}},{"name":"Schmiedestr.","postalCode":"31863","locality":"Coppenbrügge","municipality":{"key":"03252004","name":"Coppenbrügge, Flecken","type":"Kreisangehörige_Gemeinde"},"district":{"key":"03252","name":"Hameln-Pyrmont","type":"Landkreis"},"federalState":{"key":"03","name":"Niedersachsen"}},{"name":"Schulstr.","postalCode":"31863","locality":"Coppenbrügge","municipality":{"key":"03252004","name":"Coppenbrügge, Flecken","type":"Kreisangehörige_Gemeinde"},"district":{"key":"03252","name":"Hameln-Pyrmont","type":"Landkreis"},"federalState":{"key":"03","name":"Niedersachsen"}},{"name":"Schusterstr.","postalCode":"31863","locality":"Coppenbrügge","municipality":{"key":"03252004","name":"Coppenbrügge, Flecken","type":"Kreisangehörige_Gemeinde"},"district":{"key":"03252","name":"Hameln-Pyrmont","type":"Landkreis"},"federalState":{"key":"03","name":"Niedersachsen"}},{"name":"Schwefelborn","postalCode":"31863","locality":"Coppenbrügge","municipality":{"key":"03252004","name":"Coppenbrügge, Flecken","type":"Kreisangehörige_Gemeinde"},"district":{"key":"03252","name":"Hameln-Pyrmont","type":"Landkreis"},"federalState":{"key":"03","name":"Niedersachsen"}},{"name":"Schwickertstr.","postalCode":"31863","locality":"Coppenbrügge","municipality":{"key":"03252004","name":"Coppenbrügge, Flecken","type":"Kreisangehörige_Gemeinde"},"district":{"key":"03252","name":"Hameln-Pyrmont","type":"Landkreis"},"federalState":{"key":"03","name":"Niedersachsen"}},{"name":"Sieksweg","postalCode":"31863","locality":"Coppenbrügge","municipality":{"key":"03252004","name":"Coppenbrügge, Flecken","type":"Kreisangehörige_Gemeinde"},"district":{"key":"03252","name":"Hameln-Pyrmont","type":"Landkreis"},"federalState":{"key":"03","name":"Niedersachsen"}},{"name":"Steile Wand","postalCode":"31863","locality":"Coppenbrügge","municipality":{"key":"03252004","name":"Coppenbrügge, Flecken","type":"Kreisangehörige_Gemeinde"},"district":{"key":"03252","name":"Hameln-Pyrmont","type":"Landkreis"},"federalState":{"key":"03","name":"Niedersachsen"}},{"name":"Steinbrink","postalCode":"31863","locality":"Coppenbrügge","municipality":{"key":"03252004","name":"Coppenbrügge, Flecken","type":"Kreisangehörige_Gemeinde"},"district":{"key":"03252","name":"Hameln-Pyrmont","type":"Landkreis"},"federalState":{"key":"03","name":"Niedersachsen"}},{"name":"Steinweg","postalCode":"31863","locality":"Coppenbrügge","municipality":{"key":"03252004","name":"Coppenbrügge, Flecken","type":"Kreisangehörige_Gemeinde"},"district":{"key":"03252","name":"Hameln-Pyrmont","type":"Landkreis"},"federalState":{"key":"03","name":"Niedersachsen"}},{"name":"Stinkenbornfeldweg","postalCode":"31863","locality":"Coppenbrügge","municipality":{"key":"03252004","name":"Coppenbrügge, Flecken","type":"Kreisangehörige_Gemeinde"},"district":{"key":"03252","name":"Hameln-Pyrmont","type":"Landkreis"},"federalState":{"key":"03","name":"Niedersachsen"}},{"name":"Südstr.","postalCode":"31863","locality":"Coppenbrügge","municipality":{"key":"03252004","name":"Coppenbrügge, Flecken","type":"Kreisangehörige_Gemeinde"},"district":{"key":"03252","name":"Hameln-Pyrmont","type":"Landkreis"},"federalState":{"key":"03","name":"Niedersachsen"}},{"name":"Süntelblick","postalCode":"31863","locality":"Coppenbrügge","municipality":{"key":"03252004","name":"Coppenbrügge, Flecken","type":"Kreisangehörige_Gemeinde"},"district":{"key":"03252","name":"Hameln-Pyrmont","type":"Landkreis"},"federalState":{"key":"03","name":"Niedersachsen"}},{"name":"Tannenweg","postalCode":"31863","locality":"Coppenbrügge","municipality":{"key":"03252004","name":"Coppenbrügge, Flecken","type":"Kreisangehörige_Gemeinde"},"district":{"key":"03252","name":"Hameln-Pyrmont","type":"Landkreis"},"federalState":{"key":"03","name":"Niedersachsen"}},{"name":"Tiefer Weg","postalCode":"31863","locality":"Coppenbrügge","municipality":{"key":"03252004","name":"Coppenbrügge, Flecken","type":"Kreisangehörige_Gemeinde"},"district":{"key":"03252","name":"Hameln-Pyrmont","type":"Landkreis"},"federalState":{"key":"03","name":"Niedersachsen"}},{"name":"Tinnenstr.","postalCode":"31863","locality":"Coppenbrügge","municipality":{"key":"03252004","name":"Coppenbrügge, Flecken","type":"Kreisangehörige_Gemeinde"},"district":{"key":"03252","name":"Hameln-Pyrmont","type":"Landkreis"},"federalState":{"key":"03","name":"Niedersachsen"}},{"name":"Töpferweg","postalCode":"31863","locality":"Coppenbrügge","municipality":{"key":"03252004","name":"Coppenbrügge, Flecken","type":"Kreisangehörige_Gemeinde"},"district":{"key":"03252","name":"Hameln-Pyrmont","type":"Landkreis"},"federalState":{"key":"03","name":"Niedersachsen"}},{"name":"Triftstr.","postalCode":"31863","locality":"Coppenbrügge","municipality":{"key":"03252004","name":"Coppenbrügge, Flecken","type":"Kreisangehörige_Gemeinde"},"district":{"key":"03252","name":"Hameln-Pyrmont","type":"Landkreis"},"federalState":{"key":"03","name":"Niedersachsen"}},{"name":"Ulmenweg","postalCode":"31863","locality":"Coppenbrügge","municipality":{"key":"03252004","name":"Coppenbrügge, Flecken","type":"Kreisangehörige_Gemeinde"},"district":{"key":"03252","name":"Hameln-Pyrmont","type":"Landkreis"},"federalState":{"key":"03","name":"Niedersachsen"}},{"name":"Untere Wieme","postalCode":"31863","locality":"Coppenbrügge","municipality":{"key":"03252004","name":"Coppenbrügge, Flecken","type":"Kreisangehörige_Gemeinde"},"district":{"key":"03252","name":"Hameln-Pyrmont","type":"Landkreis"},"federalState":{"key":"03","name":"Niedersachsen"}},{"name":"Voldagsen","postalCode":"31863","locality":"Coppenbrügge","municipality":{"key":"03252004","name":"Coppenbrügge, Flecken","type":"Kreisangehörige_Gemeinde"},"district":{"key":"03252","name":"Hameln-Pyrmont","type":"Landkreis"},"federalState":{"key":"03","name":"Niedersachsen"}},{"name":"Voremberger Str.","postalCode":"31863","locality":"Coppenbrügge","municipality":{"key":"03252004","name":"Coppenbrügge, Flecken","type":"Kreisangehörige_Gemeinde"},"district":{"key":"03252","name":"Hameln-Pyrmont","type":"Landkreis"},"federalState":{"key":"03","name":"Niedersachsen"}},{"name":"Waldstr.","postalCode":"31863","locality":"Coppenbrügge","municipality":{"key":"03252004","name":"Coppenbrügge, Flecken","type":"Kreisangehörige_Gemeinde"},"district":{"key":"03252","name":"Hameln-Pyrmont","type":"Landkreis"},"federalState":{"key":"03","name":"Niedersachsen"}},{"name":"Wallbach","postalCode":"31863","locality":"Coppenbrügge","municipality":{"key":"03252004","name":"Coppenbrügge, Flecken","type":"Kreisangehörige_Gemeinde"},"district":{"key":"03252","name":"Hameln-Pyrmont","type":"Landkreis"},"federalState":{"key":"03","name":"Niedersachsen"}},{"name":"Werner-Düwel-Str.","postalCode":"31863","locality":"Coppenbrügge","municipality":{"key":"03252004","name":"Coppenbrügge, Flecken","type":"Kreisangehörige_Gemeinde"},"district":{"key":"03252","name":"Hameln-Pyrmont","type":"Landkreis"},"federalState":{"key":"03","name":"Niedersachsen"}},{"name":"Wiebesfeld","postalCode":"31863","locality":"Coppenbrügge","municipality":{"key":"03252004","name":"Coppenbrügge, Flecken","type":"Kreisangehörige_Gemeinde"},"district":{"key":"03252","name":"Hameln-Pyrmont","type":"Landkreis"},"federalState":{"key":"03","name":"Niedersachsen"}},{"name":"Wiesenweg","postalCode":"31863","locality":"Coppenbrügge","municipality":{"key":"03252004","name":"Coppenbrügge, Flecken","type":"Kreisangehörige_Gemeinde"},"district":{"key":"03252","name":"Hameln-Pyrmont","type":"Landkreis"},"federalState":{"key":"03","name":"Niedersachsen"}},{"name":"Wilhelm-Wiethase-Str.","postalCode":"31863","locality":"Coppenbrügge","municipality":{"key":"03252004","name":"Coppenbrügge, Flecken","type":"Kreisangehörige_Gemeinde"},"district":{"key":"03252","name":"Hameln-Pyrmont","type":"Landkreis"},"federalState":{"key":"03","name":"Niedersachsen"}},{"name":"Windmühlenweg","postalCode":"31863","locality":"Coppenbrügge","municipality":{"key":"03252004","name":"Coppenbrügge, Flecken","type":"Kreisangehörige_Gemeinde"},"district":{"key":"03252","name":"Hameln-Pyrmont","type":"Landkreis"},"federalState":{"key":"03","name":"Niedersachsen"}},{"name":"Wittkopps Höhe","postalCode":"31863","locality":"Coppenbrügge","municipality":{"key":"03252004","name":"Coppenbrügge, Flecken","type":"Kreisangehörige_Gemeinde"},"district":{"key":"03252","name":"Hameln-Pyrmont","type":"Landkreis"},"federalState":{"key":"03","name":"Niedersachsen"}},{"name":"Wöckenerweg","postalCode":"31863","locality":"Coppenbrügge","municipality":{"key":"03252004","name":"Coppenbrügge, Flecken","type":"Kreisangehörige_Gemeinde"},"district":{"key":"03252","name":"Hameln-Pyrmont","type":"Landkreis"},"federalState":{"key":"03","name":"Niedersachsen"}},{"name":"Woltmühle","postalCode":"31863","locality":"Coppenbrügge","municipality":{"key":"03252004","name":"Coppenbrügge, Flecken","type":"Kreisangehörige_Gemeinde"},"district":{"key":"03252","name":"Hameln-Pyrmont","type":"Landkreis"},"federalState":{"key":"03","name":"Niedersachsen"}},{"name":"Woltweg","postalCode":"31863","locality":"Coppenbrügge","municipality":{"key":"03252004","name":"Coppenbrügge, Flecken","type":"Kreisangehörige_Gemeinde"},"district":{"key":"03252","name":"Hameln-Pyrmont","type":"Landkreis"},"federalState":{"key":"03","name":"Niedersachsen"}},{"name":"Zum Eichberg","postalCode":"31863","locality":"Coppenbrügge","municipality":{"key":"03252004","name":"Coppenbrügge, Flecken","type":"Kreisangehörige_Gemeinde"},"district":{"key":"03252","name":"Hameln-Pyrmont","type":"Landkreis"},"federalState":{"key":"03","name":"Niedersachsen"}},{"name":"Zum Hakenstal","postalCode":"31863","locality":"Coppenbrügge","municipality":{"key":"03252004","name":"Coppenbrügge, Flecken","type":"Kreisangehörige_Gemeinde"},"district":{"key":"03252","name":"Hameln-Pyrmont","type":"Landkreis"},"federalState":{"key":"03","name":"Niedersachsen"}},{"name":"Überm Dorf","postalCode":"31863","locality":"Coppenbrügge","municipality":{"key":"03252004","name":"Coppenbrügge, Flecken","type":"Kreisangehörige_Gemeinde"},"district":{"key":"03252","name":"Hameln-Pyrmont","type":"Landkreis"},"federalState":{"key":"03","name":"Niedersachsen"}},]