[{"name":"Aalstieg","postalCode":"21762","locality":"Otterndorf","municipality":{"key":"03352046","name":"Otterndorf, Stadt","type":"Stadt"},"district":{"key":"03352","name":"Cuxhaven","type":"Landkreis"},"federalState":{"key":"03","name":"Niedersachsen"}},{"name":"Achtern Diek","postalCode":"21762","locality":"Otterndorf","municipality":{"key":"03352046","name":"Otterndorf, Stadt","type":"Stadt"},"district":{"key":"03352","name":"Cuxhaven","type":"Landkreis"},"federalState":{"key":"03","name":"Niedersachsen"}},{"name":"Ackerstr.","postalCode":"21762","locality":"Otterndorf","municipality":{"key":"03352046","name":"Otterndorf, Stadt","type":"Stadt"},"district":{"key":"03352","name":"Cuxhaven","type":"Landkreis"},"federalState":{"key":"03","name":"Niedersachsen"}},{"name":"Ahornweg","postalCode":"21762","locality":"Otterndorf","municipality":{"key":"03352046","name":"Otterndorf, Stadt","type":"Stadt"},"district":{"key":"03352","name":"Cuxhaven","type":"Landkreis"},"federalState":{"key":"03","name":"Niedersachsen"}},{"name":"Akazienweg","postalCode":"21762","locality":"Otterndorf","municipality":{"key":"03352046","name":"Otterndorf, Stadt","type":"Stadt"},"district":{"key":"03352","name":"Cuxhaven","type":"Landkreis"},"federalState":{"key":"03","name":"Niedersachsen"}},{"name":"Alfred-Paulsen-Str.","postalCode":"21762","locality":"Otterndorf","municipality":{"key":"03352046","name":"Otterndorf, Stadt","type":"Stadt"},"district":{"key":"03352","name":"Cuxhaven","type":"Landkreis"},"federalState":{"key":"03","name":"Niedersachsen"}},{"name":"Alte Medem","postalCode":"21762","locality":"Otterndorf","municipality":{"key":"03352046","name":"Otterndorf, Stadt","type":"Stadt"},"district":{"key":"03352","name":"Cuxhaven","type":"Landkreis"},"federalState":{"key":"03","name":"Niedersachsen"}},{"name":"Am Alten Deich","postalCode":"21762","locality":"Otterndorf","municipality":{"key":"03352046","name":"Otterndorf, Stadt","type":"Stadt"},"district":{"key":"03352","name":"Cuxhaven","type":"Landkreis"},"federalState":{"key":"03","name":"Niedersachsen"}},{"name":"Am Bahnhof","postalCode":"21762","locality":"Otterndorf","municipality":{"key":"03352046","name":"Otterndorf, Stadt","type":"Stadt"},"district":{"key":"03352","name":"Cuxhaven","type":"Landkreis"},"federalState":{"key":"03","name":"Niedersachsen"}},{"name":"Am Campingplatz","postalCode":"21762","locality":"Otterndorf","municipality":{"key":"03352046","name":"Otterndorf, Stadt","type":"Stadt"},"district":{"key":"03352","name":"Cuxhaven","type":"Landkreis"},"federalState":{"key":"03","name":"Niedersachsen"}},{"name":"Am Fleet","postalCode":"21762","locality":"Otterndorf","municipality":{"key":"03352046","name":"Otterndorf, Stadt","type":"Stadt"},"district":{"key":"03352","name":"Cuxhaven","type":"Landkreis"},"federalState":{"key":"03","name":"Niedersachsen"}},{"name":"Am Großen Specken","postalCode":"21762","locality":"Otterndorf","municipality":{"key":"03352046","name":"Otterndorf, Stadt","type":"Stadt"},"district":{"key":"03352","name":"Cuxhaven","type":"Landkreis"},"federalState":{"key":"03","name":"Niedersachsen"}},{"name":"Am Kirchplatz","postalCode":"21762","locality":"Otterndorf","municipality":{"key":"03352046","name":"Otterndorf, Stadt","type":"Stadt"},"district":{"key":"03352","name":"Cuxhaven","type":"Landkreis"},"federalState":{"key":"03","name":"Niedersachsen"}},{"name":"Am Kleinen Specken","postalCode":"21762","locality":"Otterndorf","municipality":{"key":"03352046","name":"Otterndorf, Stadt","type":"Stadt"},"district":{"key":"03352","name":"Cuxhaven","type":"Landkreis"},"federalState":{"key":"03","name":"Niedersachsen"}},{"name":"Am Kornacker","postalCode":"21762","locality":"Otterndorf","municipality":{"key":"03352046","name":"Otterndorf, Stadt","type":"Stadt"},"district":{"key":"03352","name":"Cuxhaven","type":"Landkreis"},"federalState":{"key":"03","name":"Niedersachsen"}},{"name":"Am Medembogen","postalCode":"21762","locality":"Otterndorf","municipality":{"key":"03352046","name":"Otterndorf, Stadt","type":"Stadt"},"district":{"key":"03352","name":"Cuxhaven","type":"Landkreis"},"federalState":{"key":"03","name":"Niedersachsen"}},{"name":"Am Mühlenberg","postalCode":"21762","locality":"Otterndorf","municipality":{"key":"03352046","name":"Otterndorf, Stadt","type":"Stadt"},"district":{"key":"03352","name":"Cuxhaven","type":"Landkreis"},"federalState":{"key":"03","name":"Niedersachsen"}},{"name":"Am Muschelplatz","postalCode":"21762","locality":"Otterndorf","municipality":{"key":"03352046","name":"Otterndorf, Stadt","type":"Stadt"},"district":{"key":"03352","name":"Cuxhaven","type":"Landkreis"},"federalState":{"key":"03","name":"Niedersachsen"}},{"name":"Am Priel","postalCode":"21762","locality":"Otterndorf","municipality":{"key":"03352046","name":"Otterndorf, Stadt","type":"Stadt"},"district":{"key":"03352","name":"Cuxhaven","type":"Landkreis"},"federalState":{"key":"03","name":"Niedersachsen"}},{"name":"Am Schilf","postalCode":"21762","locality":"Otterndorf","municipality":{"key":"03352046","name":"Otterndorf, Stadt","type":"Stadt"},"district":{"key":"03352","name":"Cuxhaven","type":"Landkreis"},"federalState":{"key":"03","name":"Niedersachsen"}},{"name":"Am Südsee","postalCode":"21762","locality":"Otterndorf","municipality":{"key":"03352046","name":"Otterndorf, Stadt","type":"Stadt"},"district":{"key":"03352","name":"Cuxhaven","type":"Landkreis"},"federalState":{"key":"03","name":"Niedersachsen"}},{"name":"Am Wehl","postalCode":"21762","locality":"Otterndorf","municipality":{"key":"03352046","name":"Otterndorf, Stadt","type":"Stadt"},"district":{"key":"03352","name":"Cuxhaven","type":"Landkreis"},"federalState":{"key":"03","name":"Niedersachsen"}},{"name":"An der Bahn","postalCode":"21762","locality":"Otterndorf","municipality":{"key":"03352046","name":"Otterndorf, Stadt","type":"Stadt"},"district":{"key":"03352","name":"Cuxhaven","type":"Landkreis"},"federalState":{"key":"03","name":"Niedersachsen"}},{"name":"An der Baumschule","postalCode":"21762","locality":"Otterndorf","municipality":{"key":"03352046","name":"Otterndorf, Stadt","type":"Stadt"},"district":{"key":"03352","name":"Cuxhaven","type":"Landkreis"},"federalState":{"key":"03","name":"Niedersachsen"}},{"name":"An der Hornweide","postalCode":"21762","locality":"Otterndorf","municipality":{"key":"03352046","name":"Otterndorf, Stadt","type":"Stadt"},"district":{"key":"03352","name":"Cuxhaven","type":"Landkreis"},"federalState":{"key":"03","name":"Niedersachsen"}},{"name":"An der Wasserlöse","postalCode":"21762","locality":"Otterndorf","municipality":{"key":"03352046","name":"Otterndorf, Stadt","type":"Stadt"},"district":{"key":"03352","name":"Cuxhaven","type":"Landkreis"},"federalState":{"key":"03","name":"Niedersachsen"}},{"name":"Assel","postalCode":"21762","locality":"Otterndorf","municipality":{"key":"03352046","name":"Otterndorf, Stadt","type":"Stadt"},"district":{"key":"03352","name":"Cuxhaven","type":"Landkreis"},"federalState":{"key":"03","name":"Niedersachsen"}},{"name":"Austernbank","postalCode":"21762","locality":"Otterndorf","municipality":{"key":"03352046","name":"Otterndorf, Stadt","type":"Stadt"},"district":{"key":"03352","name":"Cuxhaven","type":"Landkreis"},"federalState":{"key":"03","name":"Niedersachsen"}},{"name":"Bahnhofstr.","postalCode":"21762","locality":"Otterndorf","municipality":{"key":"03352046","name":"Otterndorf, Stadt","type":"Stadt"},"district":{"key":"03352","name":"Cuxhaven","type":"Landkreis"},"federalState":{"key":"03","name":"Niedersachsen"}},{"name":"Barkassenweg","postalCode":"21762","locality":"Otterndorf","municipality":{"key":"03352046","name":"Otterndorf, Stadt","type":"Stadt"},"district":{"key":"03352","name":"Cuxhaven","type":"Landkreis"},"federalState":{"key":"03","name":"Niedersachsen"}},{"name":"Barkweg","postalCode":"21762","locality":"Otterndorf","municipality":{"key":"03352046","name":"Otterndorf, Stadt","type":"Stadt"},"district":{"key":"03352","name":"Cuxhaven","type":"Landkreis"},"federalState":{"key":"03","name":"Niedersachsen"}},{"name":"Bayers Park","postalCode":"21762","locality":"Otterndorf","municipality":{"key":"03352046","name":"Otterndorf, Stadt","type":"Stadt"},"district":{"key":"03352","name":"Cuxhaven","type":"Landkreis"},"federalState":{"key":"03","name":"Niedersachsen"}},{"name":"Beethovenstr.","postalCode":"21762","locality":"Otterndorf","municipality":{"key":"03352046","name":"Otterndorf, Stadt","type":"Stadt"},"district":{"key":"03352","name":"Cuxhaven","type":"Landkreis"},"federalState":{"key":"03","name":"Niedersachsen"}},{"name":"Beutelstr.","postalCode":"21762","locality":"Otterndorf","municipality":{"key":"03352046","name":"Otterndorf, Stadt","type":"Stadt"},"district":{"key":"03352","name":"Cuxhaven","type":"Landkreis"},"federalState":{"key":"03","name":"Niedersachsen"}},{"name":"Biberweg","postalCode":"21762","locality":"Otterndorf","municipality":{"key":"03352046","name":"Otterndorf, Stadt","type":"Stadt"},"district":{"key":"03352","name":"Cuxhaven","type":"Landkreis"},"federalState":{"key":"03","name":"Niedersachsen"}},{"name":"Birkenweg","postalCode":"21762","locality":"Otterndorf","municipality":{"key":"03352046","name":"Otterndorf, Stadt","type":"Stadt"},"district":{"key":"03352","name":"Cuxhaven","type":"Landkreis"},"federalState":{"key":"03","name":"Niedersachsen"}},{"name":"Brahmsstr.","postalCode":"21762","locality":"Otterndorf","municipality":{"key":"03352046","name":"Otterndorf, Stadt","type":"Stadt"},"district":{"key":"03352","name":"Cuxhaven","type":"Landkreis"},"federalState":{"key":"03","name":"Niedersachsen"}},{"name":"Brassenstieg","postalCode":"21762","locality":"Otterndorf","municipality":{"key":"03352046","name":"Otterndorf, Stadt","type":"Stadt"},"district":{"key":"03352","name":"Cuxhaven","type":"Landkreis"},"federalState":{"key":"03","name":"Niedersachsen"}},{"name":"Breslauer Str.","postalCode":"21762","locality":"Otterndorf","municipality":{"key":"03352046","name":"Otterndorf, Stadt","type":"Stadt"},"district":{"key":"03352","name":"Cuxhaven","type":"Landkreis"},"federalState":{"key":"03","name":"Niedersachsen"}},{"name":"Briggweg","postalCode":"21762","locality":"Otterndorf","municipality":{"key":"03352046","name":"Otterndorf, Stadt","type":"Stadt"},"district":{"key":"03352","name":"Cuxhaven","type":"Landkreis"},"federalState":{"key":"03","name":"Niedersachsen"}},{"name":"Bürgerweide","postalCode":"21762","locality":"Otterndorf","municipality":{"key":"03352046","name":"Otterndorf, Stadt","type":"Stadt"},"district":{"key":"03352","name":"Cuxhaven","type":"Landkreis"},"federalState":{"key":"03","name":"Niedersachsen"}},{"name":"Buttpedderweg","postalCode":"21762","locality":"Otterndorf","municipality":{"key":"03352046","name":"Otterndorf, Stadt","type":"Stadt"},"district":{"key":"03352","name":"Cuxhaven","type":"Landkreis"},"federalState":{"key":"03","name":"Niedersachsen"}},{"name":"Carl-Bortfeldt-Str.","postalCode":"21762","locality":"Otterndorf","municipality":{"key":"03352046","name":"Otterndorf, Stadt","type":"Stadt"},"district":{"key":"03352","name":"Cuxhaven","type":"Landkreis"},"federalState":{"key":"03","name":"Niedersachsen"}},{"name":"Carsten-Niebuhr-Weg","postalCode":"21762","locality":"Otterndorf","municipality":{"key":"03352046","name":"Otterndorf, Stadt","type":"Stadt"},"district":{"key":"03352","name":"Cuxhaven","type":"Landkreis"},"federalState":{"key":"03","name":"Niedersachsen"}},{"name":"Catharinenweg","postalCode":"21762","locality":"Otterndorf","municipality":{"key":"03352046","name":"Otterndorf, Stadt","type":"Stadt"},"district":{"key":"03352","name":"Cuxhaven","type":"Landkreis"},"federalState":{"key":"03","name":"Niedersachsen"}},{"name":"Christoph-Lange-Str.","postalCode":"21762","locality":"Otterndorf","municipality":{"key":"03352046","name":"Otterndorf, Stadt","type":"Stadt"},"district":{"key":"03352","name":"Cuxhaven","type":"Landkreis"},"federalState":{"key":"03","name":"Niedersachsen"}},{"name":"Cuxhavener Landstr.","postalCode":"21762","locality":"Otterndorf","municipality":{"key":"03352046","name":"Otterndorf, Stadt","type":"Stadt"},"district":{"key":"03352","name":"Cuxhaven","type":"Landkreis"},"federalState":{"key":"03","name":"Niedersachsen"}},{"name":"Cuxhavener Str.","postalCode":"21762","locality":"Otterndorf","municipality":{"key":"03352046","name":"Otterndorf, Stadt","type":"Stadt"},"district":{"key":"03352","name":"Cuxhaven","type":"Landkreis"},"federalState":{"key":"03","name":"Niedersachsen"}},{"name":"Danziger Str.","postalCode":"21762","locality":"Otterndorf","municipality":{"key":"03352046","name":"Otterndorf, Stadt","type":"Stadt"},"district":{"key":"03352","name":"Cuxhaven","type":"Landkreis"},"federalState":{"key":"03","name":"Niedersachsen"}},{"name":"Deichkronenweg","postalCode":"21762","locality":"Otterndorf","municipality":{"key":"03352046","name":"Otterndorf, Stadt","type":"Stadt"},"district":{"key":"03352","name":"Cuxhaven","type":"Landkreis"},"federalState":{"key":"03","name":"Niedersachsen"}},{"name":"Deichstr.","postalCode":"21762","locality":"Otterndorf","municipality":{"key":"03352046","name":"Otterndorf, Stadt","type":"Stadt"},"district":{"key":"03352","name":"Cuxhaven","type":"Landkreis"},"federalState":{"key":"03","name":"Niedersachsen"}},{"name":"Diekenhoper Ring","postalCode":"21762","locality":"Otterndorf","municipality":{"key":"03352046","name":"Otterndorf, Stadt","type":"Stadt"},"district":{"key":"03352","name":"Cuxhaven","type":"Landkreis"},"federalState":{"key":"03","name":"Niedersachsen"}},{"name":"Dr.-Herbert-Augat-Weg","postalCode":"21762","locality":"Otterndorf","municipality":{"key":"03352046","name":"Otterndorf, Stadt","type":"Stadt"},"district":{"key":"03352","name":"Cuxhaven","type":"Landkreis"},"federalState":{"key":"03","name":"Niedersachsen"}},{"name":"Erlenwinkel","postalCode":"21762","locality":"Otterndorf","municipality":{"key":"03352046","name":"Otterndorf, Stadt","type":"Stadt"},"district":{"key":"03352","name":"Cuxhaven","type":"Landkreis"},"federalState":{"key":"03","name":"Niedersachsen"}},{"name":"Erna-Kayser-Str.","postalCode":"21762","locality":"Otterndorf","municipality":{"key":"03352046","name":"Otterndorf, Stadt","type":"Stadt"},"district":{"key":"03352","name":"Cuxhaven","type":"Landkreis"},"federalState":{"key":"03","name":"Niedersachsen"}},{"name":"Eschstr.","postalCode":"21762","locality":"Otterndorf","municipality":{"key":"03352046","name":"Otterndorf, Stadt","type":"Stadt"},"district":{"key":"03352","name":"Cuxhaven","type":"Landkreis"},"federalState":{"key":"03","name":"Niedersachsen"}},{"name":"Ewergang","postalCode":"21762","locality":"Otterndorf","municipality":{"key":"03352046","name":"Otterndorf, Stadt","type":"Stadt"},"district":{"key":"03352","name":"Cuxhaven","type":"Landkreis"},"federalState":{"key":"03","name":"Niedersachsen"}},{"name":"Fasanenstr.","postalCode":"21762","locality":"Otterndorf","municipality":{"key":"03352046","name":"Otterndorf, Stadt","type":"Stadt"},"district":{"key":"03352","name":"Cuxhaven","type":"Landkreis"},"federalState":{"key":"03","name":"Niedersachsen"}},{"name":"Feldrain","postalCode":"21762","locality":"Otterndorf","municipality":{"key":"03352046","name":"Otterndorf, Stadt","type":"Stadt"},"district":{"key":"03352","name":"Cuxhaven","type":"Landkreis"},"federalState":{"key":"03","name":"Niedersachsen"}},{"name":"Feldstr.","postalCode":"21762","locality":"Otterndorf","municipality":{"key":"03352046","name":"Otterndorf, Stadt","type":"Stadt"},"district":{"key":"03352","name":"Cuxhaven","type":"Landkreis"},"federalState":{"key":"03","name":"Niedersachsen"}},{"name":"Finkenstr.","postalCode":"21762","locality":"Otterndorf","municipality":{"key":"03352046","name":"Otterndorf, Stadt","type":"Stadt"},"district":{"key":"03352","name":"Cuxhaven","type":"Landkreis"},"federalState":{"key":"03","name":"Niedersachsen"}},{"name":"Fritz-Pahlke-Str.","postalCode":"21762","locality":"Otterndorf","municipality":{"key":"03352046","name":"Otterndorf, Stadt","type":"Stadt"},"district":{"key":"03352","name":"Cuxhaven","type":"Landkreis"},"federalState":{"key":"03","name":"Niedersachsen"}},{"name":"Fröbelweg","postalCode":"21762","locality":"Otterndorf","municipality":{"key":"03352046","name":"Otterndorf, Stadt","type":"Stadt"},"district":{"key":"03352","name":"Cuxhaven","type":"Landkreis"},"federalState":{"key":"03","name":"Niedersachsen"}},{"name":"Gartenstr.","postalCode":"21762","locality":"Otterndorf","municipality":{"key":"03352046","name":"Otterndorf, Stadt","type":"Stadt"},"district":{"key":"03352","name":"Cuxhaven","type":"Landkreis"},"federalState":{"key":"03","name":"Niedersachsen"}},{"name":"Godeke-Michels-Weg","postalCode":"21762","locality":"Otterndorf","municipality":{"key":"03352046","name":"Otterndorf, Stadt","type":"Stadt"},"district":{"key":"03352","name":"Cuxhaven","type":"Landkreis"},"federalState":{"key":"03","name":"Niedersachsen"}},{"name":"Goethestr.","postalCode":"21762","locality":"Otterndorf","municipality":{"key":"03352046","name":"Otterndorf, Stadt","type":"Stadt"},"district":{"key":"03352","name":"Cuxhaven","type":"Landkreis"},"federalState":{"key":"03","name":"Niedersachsen"}},{"name":"Gorch-Fock-Str.","postalCode":"21762","locality":"Otterndorf","municipality":{"key":"03352046","name":"Otterndorf, Stadt","type":"Stadt"},"district":{"key":"03352","name":"Cuxhaven","type":"Landkreis"},"federalState":{"key":"03","name":"Niedersachsen"}},{"name":"Große Dammstr.","postalCode":"21762","locality":"Otterndorf","municipality":{"key":"03352046","name":"Otterndorf, Stadt","type":"Stadt"},"district":{"key":"03352","name":"Cuxhaven","type":"Landkreis"},"federalState":{"key":"03","name":"Niedersachsen"}},{"name":"Große Ortstr.","postalCode":"21762","locality":"Otterndorf","municipality":{"key":"03352046","name":"Otterndorf, Stadt","type":"Stadt"},"district":{"key":"03352","name":"Cuxhaven","type":"Landkreis"},"federalState":{"key":"03","name":"Niedersachsen"}},{"name":"Hannoverscher Weg","postalCode":"21762","locality":"Otterndorf","municipality":{"key":"03352046","name":"Otterndorf, Stadt","type":"Stadt"},"district":{"key":"03352","name":"Cuxhaven","type":"Landkreis"},"federalState":{"key":"03","name":"Niedersachsen"}},{"name":"Hanseweg","postalCode":"21762","locality":"Otterndorf","municipality":{"key":"03352046","name":"Otterndorf, Stadt","type":"Stadt"},"district":{"key":"03352","name":"Cuxhaven","type":"Landkreis"},"federalState":{"key":"03","name":"Niedersachsen"}},{"name":"Hechtgang","postalCode":"21762","locality":"Otterndorf","municipality":{"key":"03352046","name":"Otterndorf, Stadt","type":"Stadt"},"district":{"key":"03352","name":"Cuxhaven","type":"Landkreis"},"federalState":{"key":"03","name":"Niedersachsen"}},{"name":"Helgoländer Weg","postalCode":"21762","locality":"Otterndorf","municipality":{"key":"03352046","name":"Otterndorf, Stadt","type":"Stadt"},"district":{"key":"03352","name":"Cuxhaven","type":"Landkreis"},"federalState":{"key":"03","name":"Niedersachsen"}},{"name":"Herbert-Huster-Str.","postalCode":"21762","locality":"Otterndorf","municipality":{"key":"03352046","name":"Otterndorf, Stadt","type":"Stadt"},"district":{"key":"03352","name":"Cuxhaven","type":"Landkreis"},"federalState":{"key":"03","name":"Niedersachsen"}},{"name":"Hermann-Allmers-Str.","postalCode":"21762","locality":"Otterndorf","municipality":{"key":"03352046","name":"Otterndorf, Stadt","type":"Stadt"},"district":{"key":"03352","name":"Cuxhaven","type":"Landkreis"},"federalState":{"key":"03","name":"Niedersachsen"}},{"name":"Hermann-Löns-Str.","postalCode":"21762","locality":"Otterndorf","municipality":{"key":"03352046","name":"Otterndorf, Stadt","type":"Stadt"},"district":{"key":"03352","name":"Cuxhaven","type":"Landkreis"},"federalState":{"key":"03","name":"Niedersachsen"}},{"name":"Herzog-Erich-Str.","postalCode":"21762","locality":"Otterndorf","municipality":{"key":"03352046","name":"Otterndorf, Stadt","type":"Stadt"},"district":{"key":"03352","name":"Cuxhaven","type":"Landkreis"},"federalState":{"key":"03","name":"Niedersachsen"}},{"name":"Himmelreich","postalCode":"21762","locality":"Otterndorf","municipality":{"key":"03352046","name":"Otterndorf, Stadt","type":"Stadt"},"district":{"key":"03352","name":"Cuxhaven","type":"Landkreis"},"federalState":{"key":"03","name":"Niedersachsen"}},{"name":"Hindenburgstr.","postalCode":"21762","locality":"Otterndorf","municipality":{"key":"03352046","name":"Otterndorf, Stadt","type":"Stadt"},"district":{"key":"03352","name":"Cuxhaven","type":"Landkreis"},"federalState":{"key":"03","name":"Niedersachsen"}},{"name":"Hinrich-Wilhelm-Kopf-Str.","postalCode":"21762","locality":"Otterndorf","municipality":{"key":"03352046","name":"Otterndorf, Stadt","type":"Stadt"},"district":{"key":"03352","name":"Cuxhaven","type":"Landkreis"},"federalState":{"key":"03","name":"Niedersachsen"}},{"name":"Hoffmann-von-Fallersleben-Weg","postalCode":"21762","locality":"Otterndorf","municipality":{"key":"03352046","name":"Otterndorf, Stadt","type":"Stadt"},"district":{"key":"03352","name":"Cuxhaven","type":"Landkreis"},"federalState":{"key":"03","name":"Niedersachsen"}},{"name":"Holunderweg","postalCode":"21762","locality":"Otterndorf","municipality":{"key":"03352046","name":"Otterndorf, Stadt","type":"Stadt"},"district":{"key":"03352","name":"Cuxhaven","type":"Landkreis"},"federalState":{"key":"03","name":"Niedersachsen"}},{"name":"Homarienthal","postalCode":"21762","locality":"Otterndorf","municipality":{"key":"03352046","name":"Otterndorf, Stadt","type":"Stadt"},"district":{"key":"03352","name":"Cuxhaven","type":"Landkreis"},"federalState":{"key":"03","name":"Niedersachsen"}},{"name":"Hugo-Wolf-Str.","postalCode":"21762","locality":"Otterndorf","municipality":{"key":"03352046","name":"Otterndorf, Stadt","type":"Stadt"},"district":{"key":"03352","name":"Cuxhaven","type":"Landkreis"},"federalState":{"key":"03","name":"Niedersachsen"}},{"name":"Im Assel","postalCode":"21762","locality":"Otterndorf","municipality":{"key":"03352046","name":"Otterndorf, Stadt","type":"Stadt"},"district":{"key":"03352","name":"Cuxhaven","type":"Landkreis"},"federalState":{"key":"03","name":"Niedersachsen"}},{"name":"Im Dicken Hop","postalCode":"21762","locality":"Otterndorf","municipality":{"key":"03352046","name":"Otterndorf, Stadt","type":"Stadt"},"district":{"key":"03352","name":"Cuxhaven","type":"Landkreis"},"federalState":{"key":"03","name":"Niedersachsen"}},{"name":"Im Kiebitzhörn","postalCode":"21762","locality":"Otterndorf","municipality":{"key":"03352046","name":"Otterndorf, Stadt","type":"Stadt"},"district":{"key":"03352","name":"Cuxhaven","type":"Landkreis"},"federalState":{"key":"03","name":"Niedersachsen"}},{"name":"Isländische Str.","postalCode":"21762","locality":"Otterndorf","municipality":{"key":"03352046","name":"Otterndorf, Stadt","type":"Stadt"},"district":{"key":"03352","name":"Cuxhaven","type":"Landkreis"},"federalState":{"key":"03","name":"Niedersachsen"}},{"name":"Jahnstr.","postalCode":"21762","locality":"Otterndorf","municipality":{"key":"03352046","name":"Otterndorf, Stadt","type":"Stadt"},"district":{"key":"03352","name":"Cuxhaven","type":"Landkreis"},"federalState":{"key":"03","name":"Niedersachsen"}},{"name":"Johann-Heinrich-Voß-Str.","postalCode":"21762","locality":"Otterndorf","municipality":{"key":"03352046","name":"Otterndorf, Stadt","type":"Stadt"},"district":{"key":"03352","name":"Cuxhaven","type":"Landkreis"},"federalState":{"key":"03","name":"Niedersachsen"}},{"name":"Johann-Pieper-Str.","postalCode":"21762","locality":"Otterndorf","municipality":{"key":"03352046","name":"Otterndorf, Stadt","type":"Stadt"},"district":{"key":"03352","name":"Cuxhaven","type":"Landkreis"},"federalState":{"key":"03","name":"Niedersachsen"}},{"name":"Joseph-Haydn-Str.","postalCode":"21762","locality":"Otterndorf","municipality":{"key":"03352046","name":"Otterndorf, Stadt","type":"Stadt"},"district":{"key":"03352","name":"Cuxhaven","type":"Landkreis"},"federalState":{"key":"03","name":"Niedersachsen"}},{"name":"Kampen","postalCode":"21762","locality":"Otterndorf","municipality":{"key":"03352046","name":"Otterndorf, Stadt","type":"Stadt"},"district":{"key":"03352","name":"Cuxhaven","type":"Landkreis"},"federalState":{"key":"03","name":"Niedersachsen"}},{"name":"Karpfengrund","postalCode":"21762","locality":"Otterndorf","municipality":{"key":"03352046","name":"Otterndorf, Stadt","type":"Stadt"},"district":{"key":"03352","name":"Cuxhaven","type":"Landkreis"},"federalState":{"key":"03","name":"Niedersachsen"}},{"name":"Kastanienbogen","postalCode":"21762","locality":"Otterndorf","municipality":{"key":"03352046","name":"Otterndorf, Stadt","type":"Stadt"},"district":{"key":"03352","name":"Cuxhaven","type":"Landkreis"},"federalState":{"key":"03","name":"Niedersachsen"}},{"name":"Kattenkopp","postalCode":"21762","locality":"Otterndorf","municipality":{"key":"03352046","name":"Otterndorf, Stadt","type":"Stadt"},"district":{"key":"03352","name":"Cuxhaven","type":"Landkreis"},"federalState":{"key":"03","name":"Niedersachsen"}},{"name":"Katzenkopf","postalCode":"21762","locality":"Otterndorf","municipality":{"key":"03352046","name":"Otterndorf, Stadt","type":"Stadt"},"district":{"key":"03352","name":"Cuxhaven","type":"Landkreis"},"federalState":{"key":"03","name":"Niedersachsen"}},{"name":"Kirchplatz","postalCode":"21762","locality":"Otterndorf","municipality":{"key":"03352046","name":"Otterndorf, Stadt","type":"Stadt"},"district":{"key":"03352","name":"Cuxhaven","type":"Landkreis"},"federalState":{"key":"03","name":"Niedersachsen"}},{"name":"Klaus-Störtebeker-Weg","postalCode":"21762","locality":"Otterndorf","municipality":{"key":"03352046","name":"Otterndorf, Stadt","type":"Stadt"},"district":{"key":"03352","name":"Cuxhaven","type":"Landkreis"},"federalState":{"key":"03","name":"Niedersachsen"}},{"name":"Kleiner Schmeelweg","postalCode":"21762","locality":"Otterndorf","municipality":{"key":"03352046","name":"Otterndorf, Stadt","type":"Stadt"},"district":{"key":"03352","name":"Cuxhaven","type":"Landkreis"},"federalState":{"key":"03","name":"Niedersachsen"}},{"name":"Knechtsand","postalCode":"21762","locality":"Otterndorf","municipality":{"key":"03352046","name":"Otterndorf, Stadt","type":"Stadt"},"district":{"key":"03352","name":"Cuxhaven","type":"Landkreis"},"federalState":{"key":"03","name":"Niedersachsen"}},{"name":"Kochenbütteler Weg","postalCode":"21762","locality":"Otterndorf","municipality":{"key":"03352046","name":"Otterndorf, Stadt","type":"Stadt"},"district":{"key":"03352","name":"Cuxhaven","type":"Landkreis"},"federalState":{"key":"03","name":"Niedersachsen"}},{"name":"Koggenweg","postalCode":"21762","locality":"Otterndorf","municipality":{"key":"03352046","name":"Otterndorf, Stadt","type":"Stadt"},"district":{"key":"03352","name":"Cuxhaven","type":"Landkreis"},"federalState":{"key":"03","name":"Niedersachsen"}},{"name":"Königsberger Str.","postalCode":"21762","locality":"Otterndorf","municipality":{"key":"03352046","name":"Otterndorf, Stadt","type":"Stadt"},"district":{"key":"03352","name":"Cuxhaven","type":"Landkreis"},"federalState":{"key":"03","name":"Niedersachsen"}},{"name":"Krabbenweg","postalCode":"21762","locality":"Otterndorf","municipality":{"key":"03352046","name":"Otterndorf, Stadt","type":"Stadt"},"district":{"key":"03352","name":"Cuxhaven","type":"Landkreis"},"federalState":{"key":"03","name":"Niedersachsen"}},{"name":"Krebsgang","postalCode":"21762","locality":"Otterndorf","municipality":{"key":"03352046","name":"Otterndorf, Stadt","type":"Stadt"},"district":{"key":"03352","name":"Cuxhaven","type":"Landkreis"},"federalState":{"key":"03","name":"Niedersachsen"}},{"name":"Krokusstr.","postalCode":"21762","locality":"Otterndorf","municipality":{"key":"03352046","name":"Otterndorf, Stadt","type":"Stadt"},"district":{"key":"03352","name":"Cuxhaven","type":"Landkreis"},"federalState":{"key":"03","name":"Niedersachsen"}},{"name":"Kutterweg","postalCode":"21762","locality":"Otterndorf","municipality":{"key":"03352046","name":"Otterndorf, Stadt","type":"Stadt"},"district":{"key":"03352","name":"Cuxhaven","type":"Landkreis"},"federalState":{"key":"03","name":"Niedersachsen"}},{"name":"Küvers Trift","postalCode":"21762","locality":"Otterndorf","municipality":{"key":"03352046","name":"Otterndorf, Stadt","type":"Stadt"},"district":{"key":"03352","name":"Cuxhaven","type":"Landkreis"},"federalState":{"key":"03","name":"Niedersachsen"}},{"name":"Labiauer Str.","postalCode":"21762","locality":"Otterndorf","municipality":{"key":"03352046","name":"Otterndorf, Stadt","type":"Stadt"},"district":{"key":"03352","name":"Cuxhaven","type":"Landkreis"},"federalState":{"key":"03","name":"Niedersachsen"}},{"name":"Landeshäuser Str.","postalCode":"21762","locality":"Otterndorf","municipality":{"key":"03352046","name":"Otterndorf, Stadt","type":"Stadt"},"district":{"key":"03352","name":"Cuxhaven","type":"Landkreis"},"federalState":{"key":"03","name":"Niedersachsen"}},{"name":"Lange Wisch","postalCode":"21762","locality":"Otterndorf","municipality":{"key":"03352046","name":"Otterndorf, Stadt","type":"Stadt"},"district":{"key":"03352","name":"Cuxhaven","type":"Landkreis"},"federalState":{"key":"03","name":"Niedersachsen"}},{"name":"Liebesweg","postalCode":"21762","locality":"Otterndorf","municipality":{"key":"03352046","name":"Otterndorf, Stadt","type":"Stadt"},"district":{"key":"03352","name":"Cuxhaven","type":"Landkreis"},"federalState":{"key":"03","name":"Niedersachsen"}},{"name":"Lilienweg","postalCode":"21762","locality":"Otterndorf","municipality":{"key":"03352046","name":"Otterndorf, Stadt","type":"Stadt"},"district":{"key":"03352","name":"Cuxhaven","type":"Landkreis"},"federalState":{"key":"03","name":"Niedersachsen"}},{"name":"Lindenweg","postalCode":"21762","locality":"Otterndorf","municipality":{"key":"03352046","name":"Otterndorf, Stadt","type":"Stadt"},"district":{"key":"03352","name":"Cuxhaven","type":"Landkreis"},"federalState":{"key":"03","name":"Niedersachsen"}},{"name":"Lütten Hop","postalCode":"21762","locality":"Otterndorf","municipality":{"key":"03352046","name":"Otterndorf, Stadt","type":"Stadt"},"district":{"key":"03352","name":"Cuxhaven","type":"Landkreis"},"federalState":{"key":"03","name":"Niedersachsen"}},{"name":"Marktstr.","postalCode":"21762","locality":"Otterndorf","municipality":{"key":"03352046","name":"Otterndorf, Stadt","type":"Stadt"},"district":{"key":"03352","name":"Cuxhaven","type":"Landkreis"},"federalState":{"key":"03","name":"Niedersachsen"}},{"name":"Medemland","postalCode":"21762","locality":"Otterndorf","municipality":{"key":"03352046","name":"Otterndorf, Stadt","type":"Stadt"},"district":{"key":"03352","name":"Cuxhaven","type":"Landkreis"},"federalState":{"key":"03","name":"Niedersachsen"}},{"name":"Medemsand","postalCode":"21762","locality":"Otterndorf","municipality":{"key":"03352046","name":"Otterndorf, Stadt","type":"Stadt"},"district":{"key":"03352","name":"Cuxhaven","type":"Landkreis"},"federalState":{"key":"03","name":"Niedersachsen"}},{"name":"Medemstr.","postalCode":"21762","locality":"Otterndorf","municipality":{"key":"03352046","name":"Otterndorf, Stadt","type":"Stadt"},"district":{"key":"03352","name":"Cuxhaven","type":"Landkreis"},"federalState":{"key":"03","name":"Niedersachsen"}},{"name":"Mittelteiler Weg","postalCode":"21762","locality":"Otterndorf","municipality":{"key":"03352046","name":"Otterndorf, Stadt","type":"Stadt"},"district":{"key":"03352","name":"Cuxhaven","type":"Landkreis"},"federalState":{"key":"03","name":"Niedersachsen"}},{"name":"Mittelweg","postalCode":"21762","locality":"Otterndorf","municipality":{"key":"03352046","name":"Otterndorf, Stadt","type":"Stadt"},"district":{"key":"03352","name":"Cuxhaven","type":"Landkreis"},"federalState":{"key":"03","name":"Niedersachsen"}},{"name":"Möwenstr.","postalCode":"21762","locality":"Otterndorf","municipality":{"key":"03352046","name":"Otterndorf, Stadt","type":"Stadt"},"district":{"key":"03352","name":"Cuxhaven","type":"Landkreis"},"federalState":{"key":"03","name":"Niedersachsen"}},{"name":"Mozartstr.","postalCode":"21762","locality":"Otterndorf","municipality":{"key":"03352046","name":"Otterndorf, Stadt","type":"Stadt"},"district":{"key":"03352","name":"Cuxhaven","type":"Landkreis"},"federalState":{"key":"03","name":"Niedersachsen"}},{"name":"Müggendorfer Str.","postalCode":"21762","locality":"Otterndorf","municipality":{"key":"03352046","name":"Otterndorf, Stadt","type":"Stadt"},"district":{"key":"03352","name":"Cuxhaven","type":"Landkreis"},"federalState":{"key":"03","name":"Niedersachsen"}},{"name":"Mühlenstr.","postalCode":"21762","locality":"Otterndorf","municipality":{"key":"03352046","name":"Otterndorf, Stadt","type":"Stadt"},"district":{"key":"03352","name":"Cuxhaven","type":"Landkreis"},"federalState":{"key":"03","name":"Niedersachsen"}},{"name":"Nelkenstr.","postalCode":"21762","locality":"Otterndorf","municipality":{"key":"03352046","name":"Otterndorf, Stadt","type":"Stadt"},"district":{"key":"03352","name":"Cuxhaven","type":"Landkreis"},"federalState":{"key":"03","name":"Niedersachsen"}},{"name":"Neufelder Weg","postalCode":"21762","locality":"Otterndorf","municipality":{"key":"03352046","name":"Otterndorf, Stadt","type":"Stadt"},"district":{"key":"03352","name":"Cuxhaven","type":"Landkreis"},"federalState":{"key":"03","name":"Niedersachsen"}},{"name":"Neu-Seeland","postalCode":"21762","locality":"Otterndorf","municipality":{"key":"03352046","name":"Otterndorf, Stadt","type":"Stadt"},"district":{"key":"03352","name":"Cuxhaven","type":"Landkreis"},"federalState":{"key":"03","name":"Niedersachsen"}},{"name":"Neuwerker Weg","postalCode":"21762","locality":"Otterndorf","municipality":{"key":"03352046","name":"Otterndorf, Stadt","type":"Stadt"},"district":{"key":"03352","name":"Cuxhaven","type":"Landkreis"},"federalState":{"key":"03","name":"Niedersachsen"}},{"name":"Norderteiler Weg","postalCode":"21762","locality":"Otterndorf","municipality":{"key":"03352046","name":"Otterndorf, Stadt","type":"Stadt"},"district":{"key":"03352","name":"Cuxhaven","type":"Landkreis"},"federalState":{"key":"03","name":"Niedersachsen"}},{"name":"Oeststr.","postalCode":"21762","locality":"Otterndorf","municipality":{"key":"03352046","name":"Otterndorf, Stadt","type":"Stadt"},"district":{"key":"03352","name":"Cuxhaven","type":"Landkreis"},"federalState":{"key":"03","name":"Niedersachsen"}},{"name":"Op de Worth","postalCode":"21762","locality":"Otterndorf","municipality":{"key":"03352046","name":"Otterndorf, Stadt","type":"Stadt"},"district":{"key":"03352","name":"Cuxhaven","type":"Landkreis"},"federalState":{"key":"03","name":"Niedersachsen"}},{"name":"Otterstr.","postalCode":"21762","locality":"Otterndorf","municipality":{"key":"03352046","name":"Otterndorf, Stadt","type":"Stadt"},"district":{"key":"03352","name":"Cuxhaven","type":"Landkreis"},"federalState":{"key":"03","name":"Niedersachsen"}},{"name":"Parkstr.","postalCode":"21762","locality":"Otterndorf","municipality":{"key":"03352046","name":"Otterndorf, Stadt","type":"Stadt"},"district":{"key":"03352","name":"Cuxhaven","type":"Landkreis"},"federalState":{"key":"03","name":"Niedersachsen"}},{"name":"Philosophenweg","postalCode":"21762","locality":"Otterndorf","municipality":{"key":"03352046","name":"Otterndorf, Stadt","type":"Stadt"},"district":{"key":"03352","name":"Cuxhaven","type":"Landkreis"},"federalState":{"key":"03","name":"Niedersachsen"}},{"name":"Piratengang","postalCode":"21762","locality":"Otterndorf","municipality":{"key":"03352046","name":"Otterndorf, Stadt","type":"Stadt"},"district":{"key":"03352","name":"Cuxhaven","type":"Landkreis"},"federalState":{"key":"03","name":"Niedersachsen"}},{"name":"Poststr.","postalCode":"21762","locality":"Otterndorf","municipality":{"key":"03352046","name":"Otterndorf, Stadt","type":"Stadt"},"district":{"key":"03352","name":"Cuxhaven","type":"Landkreis"},"federalState":{"key":"03","name":"Niedersachsen"}},{"name":"Querflaggen","postalCode":"27478","locality":"Cuxhaven","municipality":{"key":"03352011","name":"Cuxhaven, Stadt","type":"Stadt"},"district":{"key":"03352","name":"Cuxhaven","type":"Landkreis"},"federalState":{"key":"03","name":"Niedersachsen"}},{"name":"Raiffeisenstr.","postalCode":"21762","locality":"Otterndorf","municipality":{"key":"03352046","name":"Otterndorf, Stadt","type":"Stadt"},"district":{"key":"03352","name":"Cuxhaven","type":"Landkreis"},"federalState":{"key":"03","name":"Niedersachsen"}},{"name":"Rathausplatz","postalCode":"21762","locality":"Otterndorf","municipality":{"key":"03352046","name":"Otterndorf, Stadt","type":"Stadt"},"district":{"key":"03352","name":"Cuxhaven","type":"Landkreis"},"federalState":{"key":"03","name":"Niedersachsen"}},{"name":"Reichenstr.","postalCode":"21762","locality":"Otterndorf","municipality":{"key":"03352046","name":"Otterndorf, Stadt","type":"Stadt"},"district":{"key":"03352","name":"Cuxhaven","type":"Landkreis"},"federalState":{"key":"03","name":"Niedersachsen"}},{"name":"Richard-Tiensch-Weg","postalCode":"21762","locality":"Otterndorf","municipality":{"key":"03352046","name":"Otterndorf, Stadt","type":"Stadt"},"district":{"key":"03352","name":"Cuxhaven","type":"Landkreis"},"federalState":{"key":"03","name":"Niedersachsen"}},{"name":"Robbenplate","postalCode":"21762","locality":"Otterndorf","municipality":{"key":"03352046","name":"Otterndorf, Stadt","type":"Stadt"},"district":{"key":"03352","name":"Cuxhaven","type":"Landkreis"},"federalState":{"key":"03","name":"Niedersachsen"}},{"name":"Rosenstr.","postalCode":"21762","locality":"Otterndorf","municipality":{"key":"03352046","name":"Otterndorf, Stadt","type":"Stadt"},"district":{"key":"03352","name":"Cuxhaven","type":"Landkreis"},"federalState":{"key":"03","name":"Niedersachsen"}},{"name":"Rotdornweg","postalCode":"21762","locality":"Otterndorf","municipality":{"key":"03352046","name":"Otterndorf, Stadt","type":"Stadt"},"district":{"key":"03352","name":"Cuxhaven","type":"Landkreis"},"federalState":{"key":"03","name":"Niedersachsen"}},{"name":"Rotfedernstieg","postalCode":"21762","locality":"Otterndorf","municipality":{"key":"03352046","name":"Otterndorf, Stadt","type":"Stadt"},"district":{"key":"03352","name":"Cuxhaven","type":"Landkreis"},"federalState":{"key":"03","name":"Niedersachsen"}},{"name":"Sackstr.","postalCode":"21762","locality":"Otterndorf","municipality":{"key":"03352046","name":"Otterndorf, Stadt","type":"Stadt"},"district":{"key":"03352","name":"Cuxhaven","type":"Landkreis"},"federalState":{"key":"03","name":"Niedersachsen"}},{"name":"Scharhörner Ring","postalCode":"21762","locality":"Otterndorf","municipality":{"key":"03352046","name":"Otterndorf, Stadt","type":"Stadt"},"district":{"key":"03352","name":"Cuxhaven","type":"Landkreis"},"federalState":{"key":"03","name":"Niedersachsen"}},{"name":"Scharhörnweg","postalCode":"21762","locality":"Otterndorf","municipality":{"key":"03352046","name":"Otterndorf, Stadt","type":"Stadt"},"district":{"key":"03352","name":"Cuxhaven","type":"Landkreis"},"federalState":{"key":"03","name":"Niedersachsen"}},{"name":"Schillerstr.","postalCode":"21762","locality":"Otterndorf","municipality":{"key":"03352046","name":"Otterndorf, Stadt","type":"Stadt"},"district":{"key":"03352","name":"Cuxhaven","type":"Landkreis"},"federalState":{"key":"03","name":"Niedersachsen"}},{"name":"Schleientrift","postalCode":"21762","locality":"Otterndorf","municipality":{"key":"03352046","name":"Otterndorf, Stadt","type":"Stadt"},"district":{"key":"03352","name":"Cuxhaven","type":"Landkreis"},"federalState":{"key":"03","name":"Niedersachsen"}},{"name":"Schleuse","postalCode":"21762","locality":"Otterndorf","municipality":{"key":"03352046","name":"Otterndorf, Stadt","type":"Stadt"},"district":{"key":"03352","name":"Cuxhaven","type":"Landkreis"},"federalState":{"key":"03","name":"Niedersachsen"}},{"name":"Schleusenstr.","postalCode":"21762","locality":"Otterndorf","municipality":{"key":"03352046","name":"Otterndorf, Stadt","type":"Stadt"},"district":{"key":"03352","name":"Cuxhaven","type":"Landkreis"},"federalState":{"key":"03","name":"Niedersachsen"}},{"name":"Schmeelkestr.","postalCode":"21762","locality":"Otterndorf","municipality":{"key":"03352046","name":"Otterndorf, Stadt","type":"Stadt"},"district":{"key":"03352","name":"Cuxhaven","type":"Landkreis"},"federalState":{"key":"03","name":"Niedersachsen"}},{"name":"Schodenbüttel","postalCode":"21762","locality":"Otterndorf","municipality":{"key":"03352046","name":"Otterndorf, Stadt","type":"Stadt"},"district":{"key":"03352","name":"Cuxhaven","type":"Landkreis"},"federalState":{"key":"03","name":"Niedersachsen"}},{"name":"Scholien","postalCode":"21762","locality":"Otterndorf","municipality":{"key":"03352046","name":"Otterndorf, Stadt","type":"Stadt"},"district":{"key":"03352","name":"Cuxhaven","type":"Landkreis"},"federalState":{"key":"03","name":"Niedersachsen"}},{"name":"Scholienstr.","postalCode":"21762","locality":"Otterndorf","municipality":{"key":"03352046","name":"Otterndorf, Stadt","type":"Stadt"},"district":{"key":"03352","name":"Cuxhaven","type":"Landkreis"},"federalState":{"key":"03","name":"Niedersachsen"}},{"name":"Schonerweg","postalCode":"21762","locality":"Otterndorf","municipality":{"key":"03352046","name":"Otterndorf, Stadt","type":"Stadt"},"district":{"key":"03352","name":"Cuxhaven","type":"Landkreis"},"federalState":{"key":"03","name":"Niedersachsen"}},{"name":"Schubertstr.","postalCode":"21762","locality":"Otterndorf","municipality":{"key":"03352046","name":"Otterndorf, Stadt","type":"Stadt"},"district":{"key":"03352","name":"Cuxhaven","type":"Landkreis"},"federalState":{"key":"03","name":"Niedersachsen"}},{"name":"Schulstr.","postalCode":"21762","locality":"Otterndorf","municipality":{"key":"03352046","name":"Otterndorf, Stadt","type":"Stadt"},"district":{"key":"03352","name":"Cuxhaven","type":"Landkreis"},"federalState":{"key":"03","name":"Niedersachsen"}},{"name":"Schultheiss-Gerhard-Schneider-Weg","postalCode":"21762","locality":"Otterndorf","municipality":{"key":"03352046","name":"Otterndorf, Stadt","type":"Stadt"},"district":{"key":"03352","name":"Cuxhaven","type":"Landkreis"},"federalState":{"key":"03","name":"Niedersachsen"}},{"name":"Schumannstr.","postalCode":"21762","locality":"Otterndorf","municipality":{"key":"03352046","name":"Otterndorf, Stadt","type":"Stadt"},"district":{"key":"03352","name":"Cuxhaven","type":"Landkreis"},"federalState":{"key":"03","name":"Niedersachsen"}},{"name":"Seesterngang","postalCode":"21762","locality":"Otterndorf","municipality":{"key":"03352046","name":"Otterndorf, Stadt","type":"Stadt"},"district":{"key":"03352","name":"Cuxhaven","type":"Landkreis"},"federalState":{"key":"03","name":"Niedersachsen"}},{"name":"Sheringhamplatz","postalCode":"21762","locality":"Otterndorf","municipality":{"key":"03352046","name":"Otterndorf, Stadt","type":"Stadt"},"district":{"key":"03352","name":"Cuxhaven","type":"Landkreis"},"federalState":{"key":"03","name":"Niedersachsen"}},{"name":"Sophienweg","postalCode":"21762","locality":"Otterndorf","municipality":{"key":"03352046","name":"Otterndorf, Stadt","type":"Stadt"},"district":{"key":"03352","name":"Cuxhaven","type":"Landkreis"},"federalState":{"key":"03","name":"Niedersachsen"}},{"name":"Stader Landstr.","postalCode":"21762","locality":"Otterndorf","municipality":{"key":"03352046","name":"Otterndorf, Stadt","type":"Stadt"},"district":{"key":"03352","name":"Cuxhaven","type":"Landkreis"},"federalState":{"key":"03","name":"Niedersachsen"}},{"name":"Stader Str.","postalCode":"21762","locality":"Otterndorf","municipality":{"key":"03352046","name":"Otterndorf, Stadt","type":"Stadt"},"district":{"key":"03352","name":"Cuxhaven","type":"Landkreis"},"federalState":{"key":"03","name":"Niedersachsen"}},{"name":"Stephanstr.","postalCode":"21762","locality":"Otterndorf","municipality":{"key":"03352046","name":"Otterndorf, Stadt","type":"Stadt"},"district":{"key":"03352","name":"Cuxhaven","type":"Landkreis"},"federalState":{"key":"03","name":"Niedersachsen"}},{"name":"Stettiner Str.","postalCode":"21762","locality":"Otterndorf","municipality":{"key":"03352046","name":"Otterndorf, Stadt","type":"Stadt"},"district":{"key":"03352","name":"Cuxhaven","type":"Landkreis"},"federalState":{"key":"03","name":"Niedersachsen"}},{"name":"Stichling","postalCode":"21762","locality":"Otterndorf","municipality":{"key":"03352046","name":"Otterndorf, Stadt","type":"Stadt"},"district":{"key":"03352","name":"Cuxhaven","type":"Landkreis"},"federalState":{"key":"03","name":"Niedersachsen"}},{"name":"Stökergang","postalCode":"21762","locality":"Otterndorf","municipality":{"key":"03352046","name":"Otterndorf, Stadt","type":"Stadt"},"district":{"key":"03352","name":"Cuxhaven","type":"Landkreis"},"federalState":{"key":"03","name":"Niedersachsen"}},{"name":"Strandweg","postalCode":"21762","locality":"Otterndorf","municipality":{"key":"03352046","name":"Otterndorf, Stadt","type":"Stadt"},"district":{"key":"03352","name":"Cuxhaven","type":"Landkreis"},"federalState":{"key":"03","name":"Niedersachsen"}},{"name":"Süderwisch","postalCode":"21762","locality":"Otterndorf","municipality":{"key":"03352046","name":"Otterndorf, Stadt","type":"Stadt"},"district":{"key":"03352","name":"Cuxhaven","type":"Landkreis"},"federalState":{"key":"03","name":"Niedersachsen"}},{"name":"Theodor-Storm-Str.","postalCode":"21762","locality":"Otterndorf","municipality":{"key":"03352046","name":"Otterndorf, Stadt","type":"Stadt"},"district":{"key":"03352","name":"Cuxhaven","type":"Landkreis"},"federalState":{"key":"03","name":"Niedersachsen"}},{"name":"Tivoli","postalCode":"21762","locality":"Otterndorf","municipality":{"key":"03352046","name":"Otterndorf, Stadt","type":"Stadt"},"district":{"key":"03352","name":"Cuxhaven","type":"Landkreis"},"federalState":{"key":"03","name":"Niedersachsen"}},{"name":"Tivoliweg","postalCode":"21762","locality":"Otterndorf","municipality":{"key":"03352046","name":"Otterndorf, Stadt","type":"Stadt"},"district":{"key":"03352","name":"Cuxhaven","type":"Landkreis"},"federalState":{"key":"03","name":"Niedersachsen"}},{"name":"Uferweg","postalCode":"21762","locality":"Otterndorf","municipality":{"key":"03352046","name":"Otterndorf, Stadt","type":"Stadt"},"district":{"key":"03352","name":"Cuxhaven","type":"Landkreis"},"federalState":{"key":"03","name":"Niedersachsen"}},{"name":"Ulmenweg","postalCode":"21762","locality":"Otterndorf","municipality":{"key":"03352046","name":"Otterndorf, Stadt","type":"Stadt"},"district":{"key":"03352","name":"Cuxhaven","type":"Landkreis"},"federalState":{"key":"03","name":"Niedersachsen"}},{"name":"Vogelsand","postalCode":"21762","locality":"Otterndorf","municipality":{"key":"03352046","name":"Otterndorf, Stadt","type":"Stadt"},"district":{"key":"03352","name":"Cuxhaven","type":"Landkreis"},"federalState":{"key":"03","name":"Niedersachsen"}},{"name":"Von-Klenck-Str.","postalCode":"21762","locality":"Otterndorf","municipality":{"key":"03352046","name":"Otterndorf, Stadt","type":"Stadt"},"district":{"key":"03352","name":"Cuxhaven","type":"Landkreis"},"federalState":{"key":"03","name":"Niedersachsen"}},{"name":"Vorweg","postalCode":"21762","locality":"Otterndorf","municipality":{"key":"03352046","name":"Otterndorf, Stadt","type":"Stadt"},"district":{"key":"03352","name":"Cuxhaven","type":"Landkreis"},"federalState":{"key":"03","name":"Niedersachsen"}},{"name":"Wallstr.","postalCode":"21762","locality":"Otterndorf","municipality":{"key":"03352046","name":"Otterndorf, Stadt","type":"Stadt"},"district":{"key":"03352","name":"Cuxhaven","type":"Landkreis"},"federalState":{"key":"03","name":"Niedersachsen"}},{"name":"Warningsacker Weg","postalCode":"21762","locality":"Otterndorf","municipality":{"key":"03352046","name":"Otterndorf, Stadt","type":"Stadt"},"district":{"key":"03352","name":"Cuxhaven","type":"Landkreis"},"federalState":{"key":"03","name":"Niedersachsen"}},{"name":"Wattenweg","postalCode":"21762","locality":"Otterndorf","municipality":{"key":"03352046","name":"Otterndorf, Stadt","type":"Stadt"},"district":{"key":"03352","name":"Cuxhaven","type":"Landkreis"},"federalState":{"key":"03","name":"Niedersachsen"}},{"name":"Weißdornweg","postalCode":"21762","locality":"Otterndorf","municipality":{"key":"03352046","name":"Otterndorf, Stadt","type":"Stadt"},"district":{"key":"03352","name":"Cuxhaven","type":"Landkreis"},"federalState":{"key":"03","name":"Niedersachsen"}},{"name":"Wellingsbütteler Weg","postalCode":"21762","locality":"Otterndorf","municipality":{"key":"03352046","name":"Otterndorf, Stadt","type":"Stadt"},"district":{"key":"03352","name":"Cuxhaven","type":"Landkreis"},"federalState":{"key":"03","name":"Niedersachsen"}},{"name":"Werner-Seidensticker-Allee","postalCode":"21762","locality":"Otterndorf","municipality":{"key":"03352046","name":"Otterndorf, Stadt","type":"Stadt"},"district":{"key":"03352","name":"Cuxhaven","type":"Landkreis"},"federalState":{"key":"03","name":"Niedersachsen"}},{"name":"Wesermünder Str.","postalCode":"21762","locality":"Otterndorf","municipality":{"key":"03352046","name":"Otterndorf, Stadt","type":"Stadt"},"district":{"key":"03352","name":"Cuxhaven","type":"Landkreis"},"federalState":{"key":"03","name":"Niedersachsen"}},{"name":"Westerweidenweg","postalCode":"21762","locality":"Otterndorf","municipality":{"key":"03352046","name":"Otterndorf, Stadt","type":"Stadt"},"district":{"key":"03352","name":"Cuxhaven","type":"Landkreis"},"federalState":{"key":"03","name":"Niedersachsen"}},{"name":"Westerwischer Wasserlöse","postalCode":"21762","locality":"Otterndorf","municipality":{"key":"03352046","name":"Otterndorf, Stadt","type":"Stadt"},"district":{"key":"03352","name":"Cuxhaven","type":"Landkreis"},"federalState":{"key":"03","name":"Niedersachsen"}},{"name":"Westerwördener Weg","postalCode":"21762","locality":"Otterndorf","municipality":{"key":"03352046","name":"Otterndorf, Stadt","type":"Stadt"},"district":{"key":"03352","name":"Cuxhaven","type":"Landkreis"},"federalState":{"key":"03","name":"Niedersachsen"}},{"name":"Wetternweg","postalCode":"21762","locality":"Otterndorf","municipality":{"key":"03352046","name":"Otterndorf, Stadt","type":"Stadt"},"district":{"key":"03352","name":"Cuxhaven","type":"Landkreis"},"federalState":{"key":"03","name":"Niedersachsen"}},{"name":"Wiesenstr.","postalCode":"21762","locality":"Otterndorf","municipality":{"key":"03352046","name":"Otterndorf, Stadt","type":"Stadt"},"district":{"key":"03352","name":"Cuxhaven","type":"Landkreis"},"federalState":{"key":"03","name":"Niedersachsen"}},{"name":"Windweg","postalCode":"21762","locality":"Otterndorf","municipality":{"key":"03352046","name":"Otterndorf, Stadt","type":"Stadt"},"district":{"key":"03352","name":"Cuxhaven","type":"Landkreis"},"federalState":{"key":"03","name":"Niedersachsen"}},{"name":"Wittmackstr.","postalCode":"21762","locality":"Otterndorf","municipality":{"key":"03352046","name":"Otterndorf, Stadt","type":"Stadt"},"district":{"key":"03352","name":"Cuxhaven","type":"Landkreis"},"federalState":{"key":"03","name":"Niedersachsen"}},{"name":"Zanderwinkel","postalCode":"21762","locality":"Otterndorf","municipality":{"key":"03352046","name":"Otterndorf, Stadt","type":"Stadt"},"district":{"key":"03352","name":"Cuxhaven","type":"Landkreis"},"federalState":{"key":"03","name":"Niedersachsen"}},{"name":"ZOB 2 (nur Ausstieg)","postalCode":"21762","locality":"Otterndorf","municipality":{"key":"03352046","name":"Otterndorf, Stadt","type":"Stadt"},"district":{"key":"03352","name":"Cuxhaven","type":"Landkreis"},"federalState":{"key":"03","name":"Niedersachsen"}},{"name":"ZOB Otterndorf 1","postalCode":"21762","locality":"Otterndorf","municipality":{"key":"03352046","name":"Otterndorf, Stadt","type":"Stadt"},"district":{"key":"03352","name":"Cuxhaven","type":"Landkreis"},"federalState":{"key":"03","name":"Niedersachsen"}},{"name":"ZOB Otterndorf 3","postalCode":"21762","locality":"Otterndorf","municipality":{"key":"03352046","name":"Otterndorf, Stadt","type":"Stadt"},"district":{"key":"03352","name":"Cuxhaven","type":"Landkreis"},"federalState":{"key":"03","name":"Niedersachsen"}},{"name":"ZOB Otterndorf 4","postalCode":"21762","locality":"Otterndorf","municipality":{"key":"03352046","name":"Otterndorf, Stadt","type":"Stadt"},"district":{"key":"03352","name":"Cuxhaven","type":"Landkreis"},"federalState":{"key":"03","name":"Niedersachsen"}},{"name":"ZOB Otterndorf 5","postalCode":"21762","locality":"Otterndorf","municipality":{"key":"03352046","name":"Otterndorf, Stadt","type":"Stadt"},"district":{"key":"03352","name":"Cuxhaven","type":"Landkreis"},"federalState":{"key":"03","name":"Niedersachsen"}},{"name":"ZOB Otterndorf 6","postalCode":"21762","locality":"Otterndorf","municipality":{"key":"03352046","name":"Otterndorf, Stadt","type":"Stadt"},"district":{"key":"03352","name":"Cuxhaven","type":"Landkreis"},"federalState":{"key":"03","name":"Niedersachsen"}},{"name":"ZOB Otterndorf 7","postalCode":"21762","locality":"Otterndorf","municipality":{"key":"03352046","name":"Otterndorf, Stadt","type":"Stadt"},"district":{"key":"03352","name":"Cuxhaven","type":"Landkreis"},"federalState":{"key":"03","name":"Niedersachsen"}},{"name":"ZOB Otterndorf 8","postalCode":"21762","locality":"Otterndorf","municipality":{"key":"03352046","name":"Otterndorf, Stadt","type":"Stadt"},"district":{"key":"03352","name":"Cuxhaven","type":"Landkreis"},"federalState":{"key":"03","name":"Niedersachsen"}},{"name":"ZOB Otterndorf 9","postalCode":"21762","locality":"Otterndorf","municipality":{"key":"03352046","name":"Otterndorf, Stadt","type":"Stadt"},"district":{"key":"03352","name":"Cuxhaven","type":"Landkreis"},"federalState":{"key":"03","name":"Niedersachsen"}},{"name":"Zutrift","postalCode":"21762","locality":"Otterndorf","municipality":{"key":"03352046","name":"Otterndorf, Stadt","type":"Stadt"},"district":{"key":"03352","name":"Cuxhaven","type":"Landkreis"},"federalState":{"key":"03","name":"Niedersachsen"}},{"name":"Über der Braake","postalCode":"27478","locality":"Cuxhaven","municipality":{"key":"03352011","name":"Cuxhaven, Stadt","type":"Stadt"},"district":{"key":"03352","name":"Cuxhaven","type":"Landkreis"},"federalState":{"key":"03","name":"Niedersachsen"}},]