[{"name":"Am Brink","postalCode":"22958","locality":"Kuddewörde","municipality":{"key":"01053076","name":"Kuddewörde","type":"Kreisangehörige_Gemeinde"},"district":{"key":"01053","name":"Herzogtum Lauenburg","type":"Kreis"},"federalState":{"key":"01","name":"Schleswig-Holstein"}},{"name":"Am Großen Wasser","postalCode":"22958","locality":"Kuddewörde","municipality":{"key":"01053076","name":"Kuddewörde","type":"Kreisangehörige_Gemeinde"},"district":{"key":"01053","name":"Herzogtum Lauenburg","type":"Kreis"},"federalState":{"key":"01","name":"Schleswig-Holstein"}},{"name":"Am Klehf","postalCode":"22958","locality":"Kuddewörde","municipality":{"key":"01053076","name":"Kuddewörde","type":"Kreisangehörige_Gemeinde"},"district":{"key":"01053","name":"Herzogtum Lauenburg","type":"Kreis"},"federalState":{"key":"01","name":"Schleswig-Holstein"}},{"name":"Billeweg","postalCode":"22958","locality":"Kuddewörde","municipality":{"key":"01053076","name":"Kuddewörde","type":"Kreisangehörige_Gemeinde"},"district":{"key":"01053","name":"Herzogtum Lauenburg","type":"Kreis"},"federalState":{"key":"01","name":"Schleswig-Holstein"}},{"name":"Dahmker Weg","postalCode":"22958","locality":"Kuddewörde","municipality":{"key":"01053076","name":"Kuddewörde","type":"Kreisangehörige_Gemeinde"},"district":{"key":"01053","name":"Herzogtum Lauenburg","type":"Kreis"},"federalState":{"key":"01","name":"Schleswig-Holstein"}},{"name":"Großer Kamp","postalCode":"22958","locality":"Kuddewörde","municipality":{"key":"01053076","name":"Kuddewörde","type":"Kreisangehörige_Gemeinde"},"district":{"key":"01053","name":"Herzogtum Lauenburg","type":"Kreis"},"federalState":{"key":"01","name":"Schleswig-Holstein"}},{"name":"Haffkamp","postalCode":"22958","locality":"Kuddewörde","municipality":{"key":"01053076","name":"Kuddewörde","type":"Kreisangehörige_Gemeinde"},"district":{"key":"01053","name":"Herzogtum Lauenburg","type":"Kreis"},"federalState":{"key":"01","name":"Schleswig-Holstein"}},{"name":"Kleiner Kamp","postalCode":"22958","locality":"Kuddewörde","municipality":{"key":"01053076","name":"Kuddewörde","type":"Kreisangehörige_Gemeinde"},"district":{"key":"01053","name":"Herzogtum Lauenburg","type":"Kreis"},"federalState":{"key":"01","name":"Schleswig-Holstein"}},{"name":"Krummenstücken","postalCode":"22958","locality":"Kuddewörde","municipality":{"key":"01053076","name":"Kuddewörde","type":"Kreisangehörige_Gemeinde"},"district":{"key":"01053","name":"Herzogtum Lauenburg","type":"Kreis"},"federalState":{"key":"01","name":"Schleswig-Holstein"}},{"name":"Langenstücken","postalCode":"22958","locality":"Kuddewörde","municipality":{"key":"01053076","name":"Kuddewörde","type":"Kreisangehörige_Gemeinde"},"district":{"key":"01053","name":"Herzogtum Lauenburg","type":"Kreis"},"federalState":{"key":"01","name":"Schleswig-Holstein"}},{"name":"Lauenburger Str.","postalCode":"22958","locality":"Kuddewörde","municipality":{"key":"01053076","name":"Kuddewörde","type":"Kreisangehörige_Gemeinde"},"district":{"key":"01053","name":"Herzogtum Lauenburg","type":"Kreis"},"federalState":{"key":"01","name":"Schleswig-Holstein"}},{"name":"Möllner Str.","postalCode":"22958","locality":"Kuddewörde","municipality":{"key":"01053076","name":"Kuddewörde","type":"Kreisangehörige_Gemeinde"},"district":{"key":"01053","name":"Herzogtum Lauenburg","type":"Kreis"},"federalState":{"key":"01","name":"Schleswig-Holstein"}},{"name":"Mühlenredder","postalCode":"22958","locality":"Kuddewörde","municipality":{"key":"01053076","name":"Kuddewörde","type":"Kreisangehörige_Gemeinde"},"district":{"key":"01053","name":"Herzogtum Lauenburg","type":"Kreis"},"federalState":{"key":"01","name":"Schleswig-Holstein"}},{"name":"Reherweg","postalCode":"22958","locality":"Kuddewörde","municipality":{"key":"01053076","name":"Kuddewörde","type":"Kreisangehörige_Gemeinde"},"district":{"key":"01053","name":"Herzogtum Lauenburg","type":"Kreis"},"federalState":{"key":"01","name":"Schleswig-Holstein"}},{"name":"Rotenbekredder","postalCode":"22958","locality":"Kuddewörde","municipality":{"key":"01053076","name":"Kuddewörde","type":"Kreisangehörige_Gemeinde"},"district":{"key":"01053","name":"Herzogtum Lauenburg","type":"Kreis"},"federalState":{"key":"01","name":"Schleswig-Holstein"}},{"name":"Sachsenwaldstr.","postalCode":"22958","locality":"Kuddewörde","municipality":{"key":"01053076","name":"Kuddewörde","type":"Kreisangehörige_Gemeinde"},"district":{"key":"01053","name":"Herzogtum Lauenburg","type":"Kreis"},"federalState":{"key":"01","name":"Schleswig-Holstein"}},{"name":"Sonnenberg","postalCode":"22958","locality":"Kuddewörde","municipality":{"key":"01053076","name":"Kuddewörde","type":"Kreisangehörige_Gemeinde"},"district":{"key":"01053","name":"Herzogtum Lauenburg","type":"Kreis"},"federalState":{"key":"01","name":"Schleswig-Holstein"}},{"name":"Sperlingshöh","postalCode":"22958","locality":"Kuddewörde","municipality":{"key":"01053076","name":"Kuddewörde","type":"Kreisangehörige_Gemeinde"},"district":{"key":"01053","name":"Herzogtum Lauenburg","type":"Kreis"},"federalState":{"key":"01","name":"Schleswig-Holstein"}},]