[{"key":"10199950","name":"Beggetswis","postalCode":"8585","locality":"Birwinken","commune":{"key":"4901","name":"Birwinken","shortName":"Birwinken"},"district":{"key":"2015","name":"Bezirk Weinfelden"},"canton":{"key":"20","code":"TG","name":"Thurgau"},"status":"Real"},{"key":"10199952","name":"Faassewis","postalCode":"8585","locality":"Birwinken","commune":{"key":"4901","name":"Birwinken","shortName":"Birwinken"},"district":{"key":"2015","name":"Bezirk Weinfelden"},"canton":{"key":"20","code":"TG","name":"Thurgau"},"status":"Real"},{"key":"10203911","name":"Fadagger","postalCode":"8585","locality":"Birwinken","commune":{"key":"4901","name":"Birwinken","shortName":"Birwinken"},"district":{"key":"2015","name":"Bezirk Weinfelden"},"canton":{"key":"20","code":"TG","name":"Thurgau"},"status":"Real"},{"key":"10044590","name":"Hauptstrasse","postalCode":"8585","locality":"Birwinken","commune":{"key":"4901","name":"Birwinken","shortName":"Birwinken"},"district":{"key":"2015","name":"Bezirk Weinfelden"},"canton":{"key":"20","code":"TG","name":"Thurgau"},"status":"Real"},{"key":"10070582","name":"Löwenstrasse","postalCode":"8585","locality":"Birwinken","commune":{"key":"4901","name":"Birwinken","shortName":"Birwinken"},"district":{"key":"2015","name":"Bezirk Weinfelden"},"canton":{"key":"20","code":"TG","name":"Thurgau"},"status":"Real"},{"key":"10146426","name":"Roowis","postalCode":"8585","locality":"Birwinken","commune":{"key":"4901","name":"Birwinken","shortName":"Birwinken"},"district":{"key":"2015","name":"Bezirk Weinfelden"},"canton":{"key":"20","code":"TG","name":"Thurgau"},"status":"Real"},{"key":"10077727","name":"Rosengartenstrasse","postalCode":"8585","locality":"Birwinken","commune":{"key":"4901","name":"Birwinken","shortName":"Birwinken"},"district":{"key":"2015","name":"Bezirk Weinfelden"},"canton":{"key":"20","code":"TG","name":"Thurgau"},"status":"Real"},{"key":"10199957","name":"Rüütere","postalCode":"8585","locality":"Birwinken","commune":{"key":"4901","name":"Birwinken","shortName":"Birwinken"},"district":{"key":"2015","name":"Bezirk Weinfelden"},"canton":{"key":"20","code":"TG","name":"Thurgau"},"status":"Real"},{"key":"10096941","name":"Scherrersholz","postalCode":"8585","locality":"Birwinken","commune":{"key":"4901","name":"Birwinken","shortName":"Birwinken"},"district":{"key":"2015","name":"Bezirk Weinfelden"},"canton":{"key":"20","code":"TG","name":"Thurgau"},"status":"Real"},{"key":"10241151","name":"Unterdorf","postalCode":"8585","locality":"Birwinken","commune":{"key":"4901","name":"Birwinken","shortName":"Birwinken"},"district":{"key":"2015","name":"Bezirk Weinfelden"},"canton":{"key":"20","code":"TG","name":"Thurgau"},"status":"Real"},]