[{"name":"AB 21","postalCode":"63825","locality":"Sommerkahl","municipality":{"key":"09671153","name":"Sommerkahl","type":"Kreisangehörige_Gemeinde"},"district":{"key":"09671","name":"Aschaffenburg","type":"Landkreis"},"federalState":{"key":"09","name":"Bayern"}},{"name":"Am Böhmerfeld","postalCode":"63825","locality":"Sommerkahl","municipality":{"key":"09671153","name":"Sommerkahl","type":"Kreisangehörige_Gemeinde"},"district":{"key":"09671","name":"Aschaffenburg","type":"Landkreis"},"federalState":{"key":"09","name":"Bayern"}},{"name":"Am Eichenberg","postalCode":"63825","locality":"Sommerkahl","municipality":{"key":"09671153","name":"Sommerkahl","type":"Kreisangehörige_Gemeinde"},"district":{"key":"09671","name":"Aschaffenburg","type":"Landkreis"},"federalState":{"key":"09","name":"Bayern"}},{"name":"Am Kirchberg","postalCode":"63825","locality":"Sommerkahl","municipality":{"key":"09671153","name":"Sommerkahl","type":"Kreisangehörige_Gemeinde"},"district":{"key":"09671","name":"Aschaffenburg","type":"Landkreis"},"federalState":{"key":"09","name":"Bayern"}},{"name":"An den Bergäckern","postalCode":"63825","locality":"Sommerkahl","municipality":{"key":"09671153","name":"Sommerkahl","type":"Kreisangehörige_Gemeinde"},"district":{"key":"09671","name":"Aschaffenburg","type":"Landkreis"},"federalState":{"key":"09","name":"Bayern"}},{"name":"Aschaffenburger Str.","postalCode":"63825","locality":"Sommerkahl","municipality":{"key":"09671153","name":"Sommerkahl","type":"Kreisangehörige_Gemeinde"},"district":{"key":"09671","name":"Aschaffenburg","type":"Landkreis"},"federalState":{"key":"09","name":"Bayern"}},{"name":"Auweg","postalCode":"63825","locality":"Sommerkahl","municipality":{"key":"09671153","name":"Sommerkahl","type":"Kreisangehörige_Gemeinde"},"district":{"key":"09671","name":"Aschaffenburg","type":"Landkreis"},"federalState":{"key":"09","name":"Bayern"}},{"name":"Bergstr.","postalCode":"63825","locality":"Sommerkahl","municipality":{"key":"09671153","name":"Sommerkahl","type":"Kreisangehörige_Gemeinde"},"district":{"key":"09671","name":"Aschaffenburg","type":"Landkreis"},"federalState":{"key":"09","name":"Bayern"}},{"name":"Campus","postalCode":"63743","locality":"Aschaffenburg","municipality":{"key":"09661000","name":"Aschaffenburg","type":"Kreisfreie_Stadt"},"district":{"key":"09661","name":"Aschaffenburg","type":"Kreisfreie_Stadt"},"federalState":{"key":"09","name":"Bayern"}},{"name":"Carl-Joseph-Will-Str.","postalCode":"63743","locality":"Aschaffenburg","municipality":{"key":"09661000","name":"Aschaffenburg","type":"Kreisfreie_Stadt"},"district":{"key":"09661","name":"Aschaffenburg","type":"Kreisfreie_Stadt"},"federalState":{"key":"09","name":"Bayern"}},{"name":"Charlottenweg","postalCode":"63743","locality":"Aschaffenburg","municipality":{"key":"09661000","name":"Aschaffenburg","type":"Kreisfreie_Stadt"},"district":{"key":"09661","name":"Aschaffenburg","type":"Kreisfreie_Stadt"},"federalState":{"key":"09","name":"Bayern"}},{"name":"Christian-Schad-Str.","postalCode":"63743","locality":"Aschaffenburg","municipality":{"key":"09661000","name":"Aschaffenburg","type":"Kreisfreie_Stadt"},"district":{"key":"09661","name":"Aschaffenburg","type":"Kreisfreie_Stadt"},"federalState":{"key":"09","name":"Bayern"}},{"name":"City-Tunnel","postalCode":"63739","locality":"Aschaffenburg","municipality":{"key":"09661000","name":"Aschaffenburg","type":"Kreisfreie_Stadt"},"district":{"key":"09661","name":"Aschaffenburg","type":"Kreisfreie_Stadt"},"federalState":{"key":"09","name":"Bayern"}},{"name":"Clemensstr.","postalCode":"63743","locality":"Aschaffenburg","municipality":{"key":"09661000","name":"Aschaffenburg","type":"Kreisfreie_Stadt"},"district":{"key":"09661","name":"Aschaffenburg","type":"Kreisfreie_Stadt"},"federalState":{"key":"09","name":"Bayern"}},{"name":"Cornelienstr.","postalCode":"63739","locality":"Aschaffenburg","municipality":{"key":"09661000","name":"Aschaffenburg","type":"Kreisfreie_Stadt"},"district":{"key":"09661","name":"Aschaffenburg","type":"Kreisfreie_Stadt"},"federalState":{"key":"09","name":"Bayern"}},{"name":"Cranachstr.","postalCode":"63739","locality":"Aschaffenburg","municipality":{"key":"09661000","name":"Aschaffenburg","type":"Kreisfreie_Stadt"},"district":{"key":"09661","name":"Aschaffenburg","type":"Kreisfreie_Stadt"},"federalState":{"key":"09","name":"Bayern"}},{"name":"Cunibertstr.","postalCode":"63739","locality":"Aschaffenburg","municipality":{"key":"09661000","name":"Aschaffenburg","type":"Kreisfreie_Stadt"},"district":{"key":"09661","name":"Aschaffenburg","type":"Kreisfreie_Stadt"},"federalState":{"key":"09","name":"Bayern"}},{"name":"Dahlemstr.","postalCode":"63741","locality":"Aschaffenburg","municipality":{"key":"09661000","name":"Aschaffenburg","type":"Kreisfreie_Stadt"},"district":{"key":"09661","name":"Aschaffenburg","type":"Kreisfreie_Stadt"},"federalState":{"key":"09","name":"Bayern"}},{"name":"Dalbergstr.","postalCode":"63739","locality":"Aschaffenburg","municipality":{"key":"09661000","name":"Aschaffenburg","type":"Kreisfreie_Stadt"},"district":{"key":"09661","name":"Aschaffenburg","type":"Kreisfreie_Stadt"},"federalState":{"key":"09","name":"Bayern"}},{"name":"Dämmer Steg","postalCode":"63739","locality":"Aschaffenburg","municipality":{"key":"09661000","name":"Aschaffenburg","type":"Kreisfreie_Stadt"},"district":{"key":"09661","name":"Aschaffenburg","type":"Kreisfreie_Stadt"},"federalState":{"key":"09","name":"Bayern"}},{"name":"Dammer Str.","postalCode":"63741","locality":"Aschaffenburg","municipality":{"key":"09661000","name":"Aschaffenburg","type":"Kreisfreie_Stadt"},"district":{"key":"09661","name":"Aschaffenburg","type":"Kreisfreie_Stadt"},"federalState":{"key":"09","name":"Bayern"}},{"name":"Dankwartstr.","postalCode":"63743","locality":"Aschaffenburg","municipality":{"key":"09661000","name":"Aschaffenburg","type":"Kreisfreie_Stadt"},"district":{"key":"09661","name":"Aschaffenburg","type":"Kreisfreie_Stadt"},"federalState":{"key":"09","name":"Bayern"}},{"name":"Danziger Str.","postalCode":"63739","locality":"Aschaffenburg","municipality":{"key":"09661000","name":"Aschaffenburg","type":"Kreisfreie_Stadt"},"district":{"key":"09661","name":"Aschaffenburg","type":"Kreisfreie_Stadt"},"federalState":{"key":"09","name":"Bayern"}},{"name":"Darmstädter Str.","postalCode":"63741","locality":"Aschaffenburg","municipality":{"key":"09661000","name":"Aschaffenburg","type":"Kreisfreie_Stadt"},"district":{"key":"09661","name":"Aschaffenburg","type":"Kreisfreie_Stadt"},"federalState":{"key":"09","name":"Bayern"}},{"name":"Denkmalstr.","postalCode":"63739","locality":"Aschaffenburg","municipality":{"key":"09661000","name":"Aschaffenburg","type":"Kreisfreie_Stadt"},"district":{"key":"09661","name":"Aschaffenburg","type":"Kreisfreie_Stadt"},"federalState":{"key":"09","name":"Bayern"}},{"name":"Deschstr.","postalCode":"63739","locality":"Aschaffenburg","municipality":{"key":"09661000","name":"Aschaffenburg","type":"Kreisfreie_Stadt"},"district":{"key":"09661","name":"Aschaffenburg","type":"Kreisfreie_Stadt"},"federalState":{"key":"09","name":"Bayern"}},{"name":"Deutsche Str.","postalCode":"63739","locality":"Aschaffenburg","municipality":{"key":"09661000","name":"Aschaffenburg","type":"Kreisfreie_Stadt"},"district":{"key":"09661","name":"Aschaffenburg","type":"Kreisfreie_Stadt"},"federalState":{"key":"09","name":"Bayern"}},{"name":"Dietrich-Bonhoeffer-Str.","postalCode":"63741","locality":"Aschaffenburg","municipality":{"key":"09661000","name":"Aschaffenburg","type":"Kreisfreie_Stadt"},"district":{"key":"09661","name":"Aschaffenburg","type":"Kreisfreie_Stadt"},"federalState":{"key":"09","name":"Bayern"}},{"name":"Dilsheimerstr.","postalCode":"63739","locality":"Aschaffenburg","municipality":{"key":"09661000","name":"Aschaffenburg","type":"Kreisfreie_Stadt"},"district":{"key":"09661","name":"Aschaffenburg","type":"Kreisfreie_Stadt"},"federalState":{"key":"09","name":"Bayern"}},{"name":"Dinglerstr.","postalCode":"63739","locality":"Aschaffenburg","municipality":{"key":"09661000","name":"Aschaffenburg","type":"Kreisfreie_Stadt"},"district":{"key":"09661","name":"Aschaffenburg","type":"Kreisfreie_Stadt"},"federalState":{"key":"09","name":"Bayern"}},{"name":"Döllingerstr.","postalCode":"63743","locality":"Aschaffenburg","municipality":{"key":"09661000","name":"Aschaffenburg","type":"Kreisfreie_Stadt"},"district":{"key":"09661","name":"Aschaffenburg","type":"Kreisfreie_Stadt"},"federalState":{"key":"09","name":"Bayern"}},{"name":"Dorfgasse","postalCode":"63743","locality":"Aschaffenburg","municipality":{"key":"09661000","name":"Aschaffenburg","type":"Kreisfreie_Stadt"},"district":{"key":"09661","name":"Aschaffenburg","type":"Kreisfreie_Stadt"},"federalState":{"key":"09","name":"Bayern"}},{"name":"Dorfstr.","postalCode":"63741","locality":"Aschaffenburg","municipality":{"key":"09661000","name":"Aschaffenburg","type":"Kreisfreie_Stadt"},"district":{"key":"09661","name":"Aschaffenburg","type":"Kreisfreie_Stadt"},"federalState":{"key":"09","name":"Bayern"}},{"name":"Dörrmorsbacher Str.","postalCode":"63743","locality":"Aschaffenburg","municipality":{"key":"09661000","name":"Aschaffenburg","type":"Kreisfreie_Stadt"},"district":{"key":"09661","name":"Aschaffenburg","type":"Kreisfreie_Stadt"},"federalState":{"key":"09","name":"Bayern"}},{"name":"Drehbrücke","postalCode":"63741","locality":"Aschaffenburg","municipality":{"key":"09661000","name":"Aschaffenburg","type":"Kreisfreie_Stadt"},"district":{"key":"09661","name":"Aschaffenburg","type":"Kreisfreie_Stadt"},"federalState":{"key":"09","name":"Bayern"}},{"name":"Drosselweg","postalCode":"63741","locality":"Aschaffenburg","municipality":{"key":"09661000","name":"Aschaffenburg","type":"Kreisfreie_Stadt"},"district":{"key":"09661","name":"Aschaffenburg","type":"Kreisfreie_Stadt"},"federalState":{"key":"09","name":"Bayern"}},{"name":"Dr.-Willi-Reiland-Ring","postalCode":"63739","locality":"Aschaffenburg","municipality":{"key":"09661000","name":"Aschaffenburg","type":"Kreisfreie_Stadt"},"district":{"key":"09661","name":"Aschaffenburg","type":"Kreisfreie_Stadt"},"federalState":{"key":"09","name":"Bayern"}},{"name":"Dr.-Willi-Reiland-Ring","postalCode":"63741","locality":"Aschaffenburg","municipality":{"key":"09661000","name":"Aschaffenburg","type":"Kreisfreie_Stadt"},"district":{"key":"09661","name":"Aschaffenburg","type":"Kreisfreie_Stadt"},"federalState":{"key":"09","name":"Bayern"}},{"name":"Duccastr.","postalCode":"63739","locality":"Aschaffenburg","municipality":{"key":"09661000","name":"Aschaffenburg","type":"Kreisfreie_Stadt"},"district":{"key":"09661","name":"Aschaffenburg","type":"Kreisfreie_Stadt"},"federalState":{"key":"09","name":"Bayern"}},{"name":"Dümpelsmühlstr.","postalCode":"63743","locality":"Aschaffenburg","municipality":{"key":"09661000","name":"Aschaffenburg","type":"Kreisfreie_Stadt"},"district":{"key":"09661","name":"Aschaffenburg","type":"Kreisfreie_Stadt"},"federalState":{"key":"09","name":"Bayern"}},{"name":"Dunzerstr.","postalCode":"63739","locality":"Aschaffenburg","municipality":{"key":"09661000","name":"Aschaffenburg","type":"Kreisfreie_Stadt"},"district":{"key":"09661","name":"Aschaffenburg","type":"Kreisfreie_Stadt"},"federalState":{"key":"09","name":"Bayern"}},{"name":"Dürerstr.","postalCode":"63739","locality":"Aschaffenburg","municipality":{"key":"09661000","name":"Aschaffenburg","type":"Kreisfreie_Stadt"},"district":{"key":"09661","name":"Aschaffenburg","type":"Kreisfreie_Stadt"},"federalState":{"key":"09","name":"Bayern"}},{"name":"Dyroffstr.","postalCode":"63741","locality":"Aschaffenburg","municipality":{"key":"09661000","name":"Aschaffenburg","type":"Kreisfreie_Stadt"},"district":{"key":"09661","name":"Aschaffenburg","type":"Kreisfreie_Stadt"},"federalState":{"key":"09","name":"Bayern"}},{"name":"Engländerstr.","postalCode":"63825","locality":"Sommerkahl","municipality":{"key":"09671153","name":"Sommerkahl","type":"Kreisangehörige_Gemeinde"},"district":{"key":"09671","name":"Aschaffenburg","type":"Landkreis"},"federalState":{"key":"09","name":"Bayern"}},{"name":"Frankenstr.","postalCode":"63825","locality":"Sommerkahl","municipality":{"key":"09671153","name":"Sommerkahl","type":"Kreisangehörige_Gemeinde"},"district":{"key":"09671","name":"Aschaffenburg","type":"Landkreis"},"federalState":{"key":"09","name":"Bayern"}},{"name":"Geisersweg","postalCode":"63825","locality":"Sommerkahl","municipality":{"key":"09671153","name":"Sommerkahl","type":"Kreisangehörige_Gemeinde"},"district":{"key":"09671","name":"Aschaffenburg","type":"Landkreis"},"federalState":{"key":"09","name":"Bayern"}},{"name":"Haidbergweg","postalCode":"63825","locality":"Sommerkahl","municipality":{"key":"09671153","name":"Sommerkahl","type":"Kreisangehörige_Gemeinde"},"district":{"key":"09671","name":"Aschaffenburg","type":"Landkreis"},"federalState":{"key":"09","name":"Bayern"}},{"name":"Hüttenweg","postalCode":"63825","locality":"Sommerkahl","municipality":{"key":"09671153","name":"Sommerkahl","type":"Kreisangehörige_Gemeinde"},"district":{"key":"09671","name":"Aschaffenburg","type":"Landkreis"},"federalState":{"key":"09","name":"Bayern"}},{"name":"Im Felgen","postalCode":"63825","locality":"Sommerkahl","municipality":{"key":"09671153","name":"Sommerkahl","type":"Kreisangehörige_Gemeinde"},"district":{"key":"09671","name":"Aschaffenburg","type":"Landkreis"},"federalState":{"key":"09","name":"Bayern"}},{"name":"Im Gründel","postalCode":"63825","locality":"Sommerkahl","municipality":{"key":"09671153","name":"Sommerkahl","type":"Kreisangehörige_Gemeinde"},"district":{"key":"09671","name":"Aschaffenburg","type":"Landkreis"},"federalState":{"key":"09","name":"Bayern"}},{"name":"Im Langenborn","postalCode":"63825","locality":"Sommerkahl","municipality":{"key":"09671153","name":"Sommerkahl","type":"Kreisangehörige_Gemeinde"},"district":{"key":"09671","name":"Aschaffenburg","type":"Landkreis"},"federalState":{"key":"09","name":"Bayern"}},{"name":"Im Taubenfeld","postalCode":"63825","locality":"Sommerkahl","municipality":{"key":"09671153","name":"Sommerkahl","type":"Kreisangehörige_Gemeinde"},"district":{"key":"09671","name":"Aschaffenburg","type":"Landkreis"},"federalState":{"key":"09","name":"Bayern"}},{"name":"In der Ecke","postalCode":"63825","locality":"Sommerkahl","municipality":{"key":"09671153","name":"Sommerkahl","type":"Kreisangehörige_Gemeinde"},"district":{"key":"09671","name":"Aschaffenburg","type":"Landkreis"},"federalState":{"key":"09","name":"Bayern"}},{"name":"Jahnstr.","postalCode":"63743","locality":"Aschaffenburg","municipality":{"key":"09661000","name":"Aschaffenburg","type":"Kreisfreie_Stadt"},"district":{"key":"09661","name":"Aschaffenburg","type":"Kreisfreie_Stadt"},"federalState":{"key":"09","name":"Bayern"}},{"name":"Jaspersstr.","postalCode":"63741","locality":"Aschaffenburg","municipality":{"key":"09661000","name":"Aschaffenburg","type":"Kreisfreie_Stadt"},"district":{"key":"09661","name":"Aschaffenburg","type":"Kreisfreie_Stadt"},"federalState":{"key":"09","name":"Bayern"}},{"name":"Jasperstr.","postalCode":"63741","locality":"Aschaffenburg","municipality":{"key":"09661000","name":"Aschaffenburg","type":"Kreisfreie_Stadt"},"district":{"key":"09661","name":"Aschaffenburg","type":"Kreisfreie_Stadt"},"federalState":{"key":"09","name":"Bayern"}},{"name":"Jean-Stock-Str.","postalCode":"63741","locality":"Aschaffenburg","municipality":{"key":"09661000","name":"Aschaffenburg","type":"Kreisfreie_Stadt"},"district":{"key":"09661","name":"Aschaffenburg","type":"Kreisfreie_Stadt"},"federalState":{"key":"09","name":"Bayern"}},{"name":"Jochen-Klepper-Str.","postalCode":"63741","locality":"Aschaffenburg","municipality":{"key":"09661000","name":"Aschaffenburg","type":"Kreisfreie_Stadt"},"district":{"key":"09661","name":"Aschaffenburg","type":"Kreisfreie_Stadt"},"federalState":{"key":"09","name":"Bayern"}},{"name":"Johannesberger Str.","postalCode":"63741","locality":"Aschaffenburg","municipality":{"key":"09661000","name":"Aschaffenburg","type":"Kreisfreie_Stadt"},"district":{"key":"09661","name":"Aschaffenburg","type":"Kreisfreie_Stadt"},"federalState":{"key":"09","name":"Bayern"}},{"name":"Josef-Dinges-Str.","postalCode":"63743","locality":"Aschaffenburg","municipality":{"key":"09661000","name":"Aschaffenburg","type":"Kreisfreie_Stadt"},"district":{"key":"09661","name":"Aschaffenburg","type":"Kreisfreie_Stadt"},"federalState":{"key":"09","name":"Bayern"}},{"name":"Josef-Zeller-Anlage","postalCode":"63743","locality":"Aschaffenburg","municipality":{"key":"09661000","name":"Aschaffenburg","type":"Kreisfreie_Stadt"},"district":{"key":"09661","name":"Aschaffenburg","type":"Kreisfreie_Stadt"},"federalState":{"key":"09","name":"Bayern"}},{"name":"Jossaweg","postalCode":"63741","locality":"Aschaffenburg","municipality":{"key":"09661000","name":"Aschaffenburg","type":"Kreisfreie_Stadt"},"district":{"key":"09661","name":"Aschaffenburg","type":"Kreisfreie_Stadt"},"federalState":{"key":"09","name":"Bayern"}},{"name":"Judenpfad","postalCode":"63743","locality":"Aschaffenburg","municipality":{"key":"09661000","name":"Aschaffenburg","type":"Kreisfreie_Stadt"},"district":{"key":"09661","name":"Aschaffenburg","type":"Kreisfreie_Stadt"},"federalState":{"key":"09","name":"Bayern"}},{"name":"Julius-Leber-Str.","postalCode":"63741","locality":"Aschaffenburg","municipality":{"key":"09661000","name":"Aschaffenburg","type":"Kreisfreie_Stadt"},"district":{"key":"09661","name":"Aschaffenburg","type":"Kreisfreie_Stadt"},"federalState":{"key":"09","name":"Bayern"}},{"name":"Junckerstr.","postalCode":"63739","locality":"Aschaffenburg","municipality":{"key":"09661000","name":"Aschaffenburg","type":"Kreisfreie_Stadt"},"district":{"key":"09661","name":"Aschaffenburg","type":"Kreisfreie_Stadt"},"federalState":{"key":"09","name":"Bayern"}},{"name":"Kestweg","postalCode":"63825","locality":"Sommerkahl","municipality":{"key":"09671153","name":"Sommerkahl","type":"Kreisangehörige_Gemeinde"},"district":{"key":"09671","name":"Aschaffenburg","type":"Landkreis"},"federalState":{"key":"09","name":"Bayern"}},{"name":"Lindenstr.","postalCode":"63825","locality":"Sommerkahl","municipality":{"key":"09671153","name":"Sommerkahl","type":"Kreisangehörige_Gemeinde"},"district":{"key":"09671","name":"Aschaffenburg","type":"Landkreis"},"federalState":{"key":"09","name":"Bayern"}},{"name":"Mühlweg","postalCode":"63825","locality":"Sommerkahl","municipality":{"key":"09671153","name":"Sommerkahl","type":"Kreisangehörige_Gemeinde"},"district":{"key":"09671","name":"Aschaffenburg","type":"Landkreis"},"federalState":{"key":"09","name":"Bayern"}},{"name":"Neben der Großen Metzgergasse","postalCode":"63739","locality":"Aschaffenburg","municipality":{"key":"09661000","name":"Aschaffenburg","type":"Kreisfreie_Stadt"},"district":{"key":"09661","name":"Aschaffenburg","type":"Kreisfreie_Stadt"},"federalState":{"key":"09","name":"Bayern"}},{"name":"Nebensteingasse","postalCode":"63739","locality":"Aschaffenburg","municipality":{"key":"09661000","name":"Aschaffenburg","type":"Kreisfreie_Stadt"},"district":{"key":"09661","name":"Aschaffenburg","type":"Kreisfreie_Stadt"},"federalState":{"key":"09","name":"Bayern"}},{"name":"Nelseestr.","postalCode":"63739","locality":"Aschaffenburg","municipality":{"key":"09661000","name":"Aschaffenburg","type":"Kreisfreie_Stadt"},"district":{"key":"09661","name":"Aschaffenburg","type":"Kreisfreie_Stadt"},"federalState":{"key":"09","name":"Bayern"}},{"name":"Neue Glattbacher Str.","postalCode":"63741","locality":"Aschaffenburg","municipality":{"key":"09661000","name":"Aschaffenburg","type":"Kreisfreie_Stadt"},"district":{"key":"09661","name":"Aschaffenburg","type":"Kreisfreie_Stadt"},"federalState":{"key":"09","name":"Bayern"}},{"name":"Neugasse","postalCode":"63743","locality":"Aschaffenburg","municipality":{"key":"09661000","name":"Aschaffenburg","type":"Kreisfreie_Stadt"},"district":{"key":"09661","name":"Aschaffenburg","type":"Kreisfreie_Stadt"},"federalState":{"key":"09","name":"Bayern"}},{"name":"Neuhofstr.","postalCode":"63743","locality":"Aschaffenburg","municipality":{"key":"09661000","name":"Aschaffenburg","type":"Kreisfreie_Stadt"},"district":{"key":"09661","name":"Aschaffenburg","type":"Kreisfreie_Stadt"},"federalState":{"key":"09","name":"Bayern"}},{"name":"Neureutweg","postalCode":"63743","locality":"Aschaffenburg","municipality":{"key":"09661000","name":"Aschaffenburg","type":"Kreisfreie_Stadt"},"district":{"key":"09661","name":"Aschaffenburg","type":"Kreisfreie_Stadt"},"federalState":{"key":"09","name":"Bayern"}},{"name":"Niddaweg","postalCode":"63741","locality":"Aschaffenburg","municipality":{"key":"09661000","name":"Aschaffenburg","type":"Kreisfreie_Stadt"},"district":{"key":"09661","name":"Aschaffenburg","type":"Kreisfreie_Stadt"},"federalState":{"key":"09","name":"Bayern"}},{"name":"Nilkheimer Bahnhofstr.","postalCode":"63741","locality":"Aschaffenburg","municipality":{"key":"09661000","name":"Aschaffenburg","type":"Kreisfreie_Stadt"},"district":{"key":"09661","name":"Aschaffenburg","type":"Kreisfreie_Stadt"},"federalState":{"key":"09","name":"Bayern"}},{"name":"Nilkheimer Park","postalCode":"63741","locality":"Aschaffenburg","municipality":{"key":"09661000","name":"Aschaffenburg","type":"Kreisfreie_Stadt"},"district":{"key":"09661","name":"Aschaffenburg","type":"Kreisfreie_Stadt"},"federalState":{"key":"09","name":"Bayern"}},{"name":"Nordring","postalCode":"63739","locality":"Aschaffenburg","municipality":{"key":"09661000","name":"Aschaffenburg","type":"Kreisfreie_Stadt"},"district":{"key":"09661","name":"Aschaffenburg","type":"Kreisfreie_Stadt"},"federalState":{"key":"09","name":"Bayern"}},{"name":"Nordring","postalCode":"63741","locality":"Aschaffenburg","municipality":{"key":"09661000","name":"Aschaffenburg","type":"Kreisfreie_Stadt"},"district":{"key":"09661","name":"Aschaffenburg","type":"Kreisfreie_Stadt"},"federalState":{"key":"09","name":"Bayern"}},{"name":"Nürnberger Str.","postalCode":"63743","locality":"Aschaffenburg","municipality":{"key":"09661000","name":"Aschaffenburg","type":"Kreisfreie_Stadt"},"district":{"key":"09661","name":"Aschaffenburg","type":"Kreisfreie_Stadt"},"federalState":{"key":"09","name":"Bayern"}},{"name":"Nußbaumweg","postalCode":"63741","locality":"Aschaffenburg","municipality":{"key":"09661000","name":"Aschaffenburg","type":"Kreisfreie_Stadt"},"district":{"key":"09661","name":"Aschaffenburg","type":"Kreisfreie_Stadt"},"federalState":{"key":"09","name":"Bayern"}},{"name":"Ober dem Backes","postalCode":"63825","locality":"Sommerkahl","municipality":{"key":"09671153","name":"Sommerkahl","type":"Kreisangehörige_Gemeinde"},"district":{"key":"09671","name":"Aschaffenburg","type":"Landkreis"},"federalState":{"key":"09","name":"Bayern"}},{"name":"Palmenweg","postalCode":"63741","locality":"Aschaffenburg","municipality":{"key":"09661000","name":"Aschaffenburg","type":"Kreisfreie_Stadt"},"district":{"key":"09661","name":"Aschaffenburg","type":"Kreisfreie_Stadt"},"federalState":{"key":"09","name":"Bayern"}},{"name":"Pappelweg","postalCode":"63741","locality":"Aschaffenburg","municipality":{"key":"09661000","name":"Aschaffenburg","type":"Kreisfreie_Stadt"},"district":{"key":"09661","name":"Aschaffenburg","type":"Kreisfreie_Stadt"},"federalState":{"key":"09","name":"Bayern"}},{"name":"Pauluskirchplatz","postalCode":"63741","locality":"Aschaffenburg","municipality":{"key":"09661000","name":"Aschaffenburg","type":"Kreisfreie_Stadt"},"district":{"key":"09661","name":"Aschaffenburg","type":"Kreisfreie_Stadt"},"federalState":{"key":"09","name":"Bayern"}},{"name":"Paulusstr.","postalCode":"63741","locality":"Aschaffenburg","municipality":{"key":"09661000","name":"Aschaffenburg","type":"Kreisfreie_Stadt"},"district":{"key":"09661","name":"Aschaffenburg","type":"Kreisfreie_Stadt"},"federalState":{"key":"09","name":"Bayern"}},{"name":"Pestalozzistr.","postalCode":"63739","locality":"Aschaffenburg","municipality":{"key":"09661000","name":"Aschaffenburg","type":"Kreisfreie_Stadt"},"district":{"key":"09661","name":"Aschaffenburg","type":"Kreisfreie_Stadt"},"federalState":{"key":"09","name":"Bayern"}},{"name":"Pfaffengasse","postalCode":"63739","locality":"Aschaffenburg","municipality":{"key":"09661000","name":"Aschaffenburg","type":"Kreisfreie_Stadt"},"district":{"key":"09661","name":"Aschaffenburg","type":"Kreisfreie_Stadt"},"federalState":{"key":"09","name":"Bayern"}},{"name":"Pfaffengrundweg","postalCode":"63743","locality":"Aschaffenburg","municipality":{"key":"09661000","name":"Aschaffenburg","type":"Kreisfreie_Stadt"},"district":{"key":"09661","name":"Aschaffenburg","type":"Kreisfreie_Stadt"},"federalState":{"key":"09","name":"Bayern"}},{"name":"Pfaffenmühlweg","postalCode":"63741","locality":"Aschaffenburg","municipality":{"key":"09661000","name":"Aschaffenburg","type":"Kreisfreie_Stadt"},"district":{"key":"09661","name":"Aschaffenburg","type":"Kreisfreie_Stadt"},"federalState":{"key":"09","name":"Bayern"}},{"name":"Pfälzer Str.","postalCode":"63739","locality":"Aschaffenburg","municipality":{"key":"09661000","name":"Aschaffenburg","type":"Kreisfreie_Stadt"},"district":{"key":"09661","name":"Aschaffenburg","type":"Kreisfreie_Stadt"},"federalState":{"key":"09","name":"Bayern"}},{"name":"Pfarrer-Scherpf-Str.","postalCode":"63741","locality":"Aschaffenburg","municipality":{"key":"09661000","name":"Aschaffenburg","type":"Kreisfreie_Stadt"},"district":{"key":"09661","name":"Aschaffenburg","type":"Kreisfreie_Stadt"},"federalState":{"key":"09","name":"Bayern"}},{"name":"Pfarrer-Schweinfest-Platz","postalCode":"63743","locality":"Aschaffenburg","municipality":{"key":"09661000","name":"Aschaffenburg","type":"Kreisfreie_Stadt"},"district":{"key":"09661","name":"Aschaffenburg","type":"Kreisfreie_Stadt"},"federalState":{"key":"09","name":"Bayern"}},{"name":"Pfarrer-Türk-Platz","postalCode":"63743","locality":"Aschaffenburg","municipality":{"key":"09661000","name":"Aschaffenburg","type":"Kreisfreie_Stadt"},"district":{"key":"09661","name":"Aschaffenburg","type":"Kreisfreie_Stadt"},"federalState":{"key":"09","name":"Bayern"}},{"name":"Pfarrgasse","postalCode":"63739","locality":"Aschaffenburg","municipality":{"key":"09661000","name":"Aschaffenburg","type":"Kreisfreie_Stadt"},"district":{"key":"09661","name":"Aschaffenburg","type":"Kreisfreie_Stadt"},"federalState":{"key":"09","name":"Bayern"}},{"name":"Pfeiferstr.","postalCode":"63741","locality":"Aschaffenburg","municipality":{"key":"09661000","name":"Aschaffenburg","type":"Kreisfreie_Stadt"},"district":{"key":"09661","name":"Aschaffenburg","type":"Kreisfreie_Stadt"},"federalState":{"key":"09","name":"Bayern"}},{"name":"Pfirsichweg","postalCode":"63741","locality":"Aschaffenburg","municipality":{"key":"09661000","name":"Aschaffenburg","type":"Kreisfreie_Stadt"},"district":{"key":"09661","name":"Aschaffenburg","type":"Kreisfreie_Stadt"},"federalState":{"key":"09","name":"Bayern"}},{"name":"Pfisterstr.","postalCode":"63743","locality":"Aschaffenburg","municipality":{"key":"09661000","name":"Aschaffenburg","type":"Kreisfreie_Stadt"},"district":{"key":"09661","name":"Aschaffenburg","type":"Kreisfreie_Stadt"},"federalState":{"key":"09","name":"Bayern"}},{"name":"Philippstr.","postalCode":"63741","locality":"Aschaffenburg","municipality":{"key":"09661000","name":"Aschaffenburg","type":"Kreisfreie_Stadt"},"district":{"key":"09661","name":"Aschaffenburg","type":"Kreisfreie_Stadt"},"federalState":{"key":"09","name":"Bayern"}},{"name":"Pinienweg","postalCode":"63741","locality":"Aschaffenburg","municipality":{"key":"09661000","name":"Aschaffenburg","type":"Kreisfreie_Stadt"},"district":{"key":"09661","name":"Aschaffenburg","type":"Kreisfreie_Stadt"},"federalState":{"key":"09","name":"Bayern"}},{"name":"Planckstr.","postalCode":"63741","locality":"Aschaffenburg","municipality":{"key":"09661000","name":"Aschaffenburg","type":"Kreisfreie_Stadt"},"district":{"key":"09661","name":"Aschaffenburg","type":"Kreisfreie_Stadt"},"federalState":{"key":"09","name":"Bayern"}},{"name":"Platanenallee","postalCode":"63739","locality":"Aschaffenburg","municipality":{"key":"09661000","name":"Aschaffenburg","type":"Kreisfreie_Stadt"},"district":{"key":"09661","name":"Aschaffenburg","type":"Kreisfreie_Stadt"},"federalState":{"key":"09","name":"Bayern"}},{"name":"Pompejanumstr.","postalCode":"63739","locality":"Aschaffenburg","municipality":{"key":"09661000","name":"Aschaffenburg","type":"Kreisfreie_Stadt"},"district":{"key":"09661","name":"Aschaffenburg","type":"Kreisfreie_Stadt"},"federalState":{"key":"09","name":"Bayern"}},{"name":"Prälat-Heckelmann-Str.","postalCode":"63741","locality":"Aschaffenburg","municipality":{"key":"09661000","name":"Aschaffenburg","type":"Kreisfreie_Stadt"},"district":{"key":"09661","name":"Aschaffenburg","type":"Kreisfreie_Stadt"},"federalState":{"key":"09","name":"Bayern"}},{"name":"Preußenweg","postalCode":"63739","locality":"Aschaffenburg","municipality":{"key":"09661000","name":"Aschaffenburg","type":"Kreisfreie_Stadt"},"district":{"key":"09661","name":"Aschaffenburg","type":"Kreisfreie_Stadt"},"federalState":{"key":"09","name":"Bayern"}},{"name":"Quittenweg","postalCode":"63741","locality":"Aschaffenburg","municipality":{"key":"09661000","name":"Aschaffenburg","type":"Kreisfreie_Stadt"},"district":{"key":"09661","name":"Aschaffenburg","type":"Kreisfreie_Stadt"},"federalState":{"key":"09","name":"Bayern"}},{"name":"Ramsbachweg","postalCode":"63741","locality":"Aschaffenburg","municipality":{"key":"09661000","name":"Aschaffenburg","type":"Kreisfreie_Stadt"},"district":{"key":"09661","name":"Aschaffenburg","type":"Kreisfreie_Stadt"},"federalState":{"key":"09","name":"Bayern"}},{"name":"Rathausgasse","postalCode":"63739","locality":"Aschaffenburg","municipality":{"key":"09661000","name":"Aschaffenburg","type":"Kreisfreie_Stadt"},"district":{"key":"09661","name":"Aschaffenburg","type":"Kreisfreie_Stadt"},"federalState":{"key":"09","name":"Bayern"}},{"name":"Regerstr.","postalCode":"63743","locality":"Aschaffenburg","municipality":{"key":"09661000","name":"Aschaffenburg","type":"Kreisfreie_Stadt"},"district":{"key":"09661","name":"Aschaffenburg","type":"Kreisfreie_Stadt"},"federalState":{"key":"09","name":"Bayern"}},{"name":"Rehbergweg","postalCode":"63743","locality":"Aschaffenburg","municipality":{"key":"09661000","name":"Aschaffenburg","type":"Kreisfreie_Stadt"},"district":{"key":"09661","name":"Aschaffenburg","type":"Kreisfreie_Stadt"},"federalState":{"key":"09","name":"Bayern"}},{"name":"Rehsteig","postalCode":"63741","locality":"Aschaffenburg","municipality":{"key":"09661000","name":"Aschaffenburg","type":"Kreisfreie_Stadt"},"district":{"key":"09661","name":"Aschaffenburg","type":"Kreisfreie_Stadt"},"federalState":{"key":"09","name":"Bayern"}},{"name":"Reischbergweg","postalCode":"63741","locality":"Aschaffenburg","municipality":{"key":"09661000","name":"Aschaffenburg","type":"Kreisfreie_Stadt"},"district":{"key":"09661","name":"Aschaffenburg","type":"Kreisfreie_Stadt"},"federalState":{"key":"09","name":"Bayern"}},{"name":"Reiterweg","postalCode":"63743","locality":"Aschaffenburg","municipality":{"key":"09661000","name":"Aschaffenburg","type":"Kreisfreie_Stadt"},"district":{"key":"09661","name":"Aschaffenburg","type":"Kreisfreie_Stadt"},"federalState":{"key":"09","name":"Bayern"}},{"name":"Reitzstr.","postalCode":"63741","locality":"Aschaffenburg","municipality":{"key":"09661000","name":"Aschaffenburg","type":"Kreisfreie_Stadt"},"district":{"key":"09661","name":"Aschaffenburg","type":"Kreisfreie_Stadt"},"federalState":{"key":"09","name":"Bayern"}},{"name":"Reuterstr.","postalCode":"63741","locality":"Aschaffenburg","municipality":{"key":"09661000","name":"Aschaffenburg","type":"Kreisfreie_Stadt"},"district":{"key":"09661","name":"Aschaffenburg","type":"Kreisfreie_Stadt"},"federalState":{"key":"09","name":"Bayern"}},{"name":"Rhönstr.","postalCode":"63743","locality":"Aschaffenburg","municipality":{"key":"09661000","name":"Aschaffenburg","type":"Kreisfreie_Stadt"},"district":{"key":"09661","name":"Aschaffenburg","type":"Kreisfreie_Stadt"},"federalState":{"key":"09","name":"Bayern"}},{"name":"Ridingerstr.","postalCode":"63739","locality":"Aschaffenburg","municipality":{"key":"09661000","name":"Aschaffenburg","type":"Kreisfreie_Stadt"},"district":{"key":"09661","name":"Aschaffenburg","type":"Kreisfreie_Stadt"},"federalState":{"key":"09","name":"Bayern"}},{"name":"Riemenschneiderstr.","postalCode":"63739","locality":"Aschaffenburg","municipality":{"key":"09661000","name":"Aschaffenburg","type":"Kreisfreie_Stadt"},"district":{"key":"09661","name":"Aschaffenburg","type":"Kreisfreie_Stadt"},"federalState":{"key":"09","name":"Bayern"}},{"name":"Riesengasse","postalCode":"63739","locality":"Aschaffenburg","municipality":{"key":"09661000","name":"Aschaffenburg","type":"Kreisfreie_Stadt"},"district":{"key":"09661","name":"Aschaffenburg","type":"Kreisfreie_Stadt"},"federalState":{"key":"09","name":"Bayern"}},{"name":"Ringweg","postalCode":"63743","locality":"Aschaffenburg","municipality":{"key":"09661000","name":"Aschaffenburg","type":"Kreisfreie_Stadt"},"district":{"key":"09661","name":"Aschaffenburg","type":"Kreisfreie_Stadt"},"federalState":{"key":"09","name":"Bayern"}},{"name":"Röderweg","postalCode":"63739","locality":"Aschaffenburg","municipality":{"key":"09661000","name":"Aschaffenburg","type":"Kreisfreie_Stadt"},"district":{"key":"09661","name":"Aschaffenburg","type":"Kreisfreie_Stadt"},"federalState":{"key":"09","name":"Bayern"}},{"name":"Röntgenstr.","postalCode":"63741","locality":"Aschaffenburg","municipality":{"key":"09661000","name":"Aschaffenburg","type":"Kreisfreie_Stadt"},"district":{"key":"09661","name":"Aschaffenburg","type":"Kreisfreie_Stadt"},"federalState":{"key":"09","name":"Bayern"}},{"name":"Rosenstr.","postalCode":"63743","locality":"Aschaffenburg","municipality":{"key":"09661000","name":"Aschaffenburg","type":"Kreisfreie_Stadt"},"district":{"key":"09661","name":"Aschaffenburg","type":"Kreisfreie_Stadt"},"federalState":{"key":"09","name":"Bayern"}},{"name":"Roßmarkt","postalCode":"63739","locality":"Aschaffenburg","municipality":{"key":"09661000","name":"Aschaffenburg","type":"Kreisfreie_Stadt"},"district":{"key":"09661","name":"Aschaffenburg","type":"Kreisfreie_Stadt"},"federalState":{"key":"09","name":"Bayern"}},{"name":"Rotäckerstr.","postalCode":"63743","locality":"Aschaffenburg","municipality":{"key":"09661000","name":"Aschaffenburg","type":"Kreisfreie_Stadt"},"district":{"key":"09661","name":"Aschaffenburg","type":"Kreisfreie_Stadt"},"federalState":{"key":"09","name":"Bayern"}},{"name":"Rotwasserstr.","postalCode":"63743","locality":"Aschaffenburg","municipality":{"key":"09661000","name":"Aschaffenburg","type":"Kreisfreie_Stadt"},"district":{"key":"09661","name":"Aschaffenburg","type":"Kreisfreie_Stadt"},"federalState":{"key":"09","name":"Bayern"}},{"name":"Ruchelnheimstr.","postalCode":"63743","locality":"Aschaffenburg","municipality":{"key":"09661000","name":"Aschaffenburg","type":"Kreisfreie_Stadt"},"district":{"key":"09661","name":"Aschaffenburg","type":"Kreisfreie_Stadt"},"federalState":{"key":"09","name":"Bayern"}},{"name":"Ruhlandstr.","postalCode":"63741","locality":"Aschaffenburg","municipality":{"key":"09661000","name":"Aschaffenburg","type":"Kreisfreie_Stadt"},"district":{"key":"09661","name":"Aschaffenburg","type":"Kreisfreie_Stadt"},"federalState":{"key":"09","name":"Bayern"}},{"name":"Ruhrstr.","postalCode":"63739","locality":"Aschaffenburg","municipality":{"key":"09661000","name":"Aschaffenburg","type":"Kreisfreie_Stadt"},"district":{"key":"09661","name":"Aschaffenburg","type":"Kreisfreie_Stadt"},"federalState":{"key":"09","name":"Bayern"}},{"name":"Ruhstockweg","postalCode":"63743","locality":"Aschaffenburg","municipality":{"key":"09661000","name":"Aschaffenburg","type":"Kreisfreie_Stadt"},"district":{"key":"09661","name":"Aschaffenburg","type":"Kreisfreie_Stadt"},"federalState":{"key":"09","name":"Bayern"}},{"name":"Rupert-Mayer-Str.","postalCode":"63741","locality":"Aschaffenburg","municipality":{"key":"09661000","name":"Aschaffenburg","type":"Kreisfreie_Stadt"},"district":{"key":"09661","name":"Aschaffenburg","type":"Kreisfreie_Stadt"},"federalState":{"key":"09","name":"Bayern"}},{"name":"Rüsterweg","postalCode":"63741","locality":"Aschaffenburg","municipality":{"key":"09661000","name":"Aschaffenburg","type":"Kreisfreie_Stadt"},"district":{"key":"09661","name":"Aschaffenburg","type":"Kreisfreie_Stadt"},"federalState":{"key":"09","name":"Bayern"}},{"name":"Schulstr.","postalCode":"63825","locality":"Sommerkahl","municipality":{"key":"09671153","name":"Sommerkahl","type":"Kreisangehörige_Gemeinde"},"district":{"key":"09671","name":"Aschaffenburg","type":"Landkreis"},"federalState":{"key":"09","name":"Bayern"}},{"name":"Schwedenstr.","postalCode":"63825","locality":"Sommerkahl","municipality":{"key":"09671153","name":"Sommerkahl","type":"Kreisangehörige_Gemeinde"},"district":{"key":"09671","name":"Aschaffenburg","type":"Landkreis"},"federalState":{"key":"09","name":"Bayern"}},{"name":"Spessartstr.","postalCode":"63825","locality":"Sommerkahl","municipality":{"key":"09671153","name":"Sommerkahl","type":"Kreisangehörige_Gemeinde"},"district":{"key":"09671","name":"Aschaffenburg","type":"Landkreis"},"federalState":{"key":"09","name":"Bayern"}},{"name":"Steingasse","postalCode":"63825","locality":"Sommerkahl","municipality":{"key":"09671153","name":"Sommerkahl","type":"Kreisangehörige_Gemeinde"},"district":{"key":"09671","name":"Aschaffenburg","type":"Landkreis"},"federalState":{"key":"09","name":"Bayern"}},{"name":"Tannenweg","postalCode":"63741","locality":"Aschaffenburg","municipality":{"key":"09661000","name":"Aschaffenburg","type":"Kreisfreie_Stadt"},"district":{"key":"09661","name":"Aschaffenburg","type":"Kreisfreie_Stadt"},"federalState":{"key":"09","name":"Bayern"}},{"name":"Tannstr.","postalCode":"63739","locality":"Aschaffenburg","municipality":{"key":"09661000","name":"Aschaffenburg","type":"Kreisfreie_Stadt"},"district":{"key":"09661","name":"Aschaffenburg","type":"Kreisfreie_Stadt"},"federalState":{"key":"09","name":"Bayern"}},{"name":"Tauberstr.","postalCode":"63741","locality":"Aschaffenburg","municipality":{"key":"09661000","name":"Aschaffenburg","type":"Kreisfreie_Stadt"},"district":{"key":"09661","name":"Aschaffenburg","type":"Kreisfreie_Stadt"},"federalState":{"key":"09","name":"Bayern"}},{"name":"Taunusstr.","postalCode":"63743","locality":"Aschaffenburg","municipality":{"key":"09661000","name":"Aschaffenburg","type":"Kreisfreie_Stadt"},"district":{"key":"09661","name":"Aschaffenburg","type":"Kreisfreie_Stadt"},"federalState":{"key":"09","name":"Bayern"}},{"name":"Telemannweg","postalCode":"63743","locality":"Aschaffenburg","municipality":{"key":"09661000","name":"Aschaffenburg","type":"Kreisfreie_Stadt"},"district":{"key":"09661","name":"Aschaffenburg","type":"Kreisfreie_Stadt"},"federalState":{"key":"09","name":"Bayern"}},{"name":"Theatergasse","postalCode":"63739","locality":"Aschaffenburg","municipality":{"key":"09661000","name":"Aschaffenburg","type":"Kreisfreie_Stadt"},"district":{"key":"09661","name":"Aschaffenburg","type":"Kreisfreie_Stadt"},"federalState":{"key":"09","name":"Bayern"}},{"name":"Theodor-Heuss-Str.","postalCode":"63741","locality":"Aschaffenburg","municipality":{"key":"09661000","name":"Aschaffenburg","type":"Kreisfreie_Stadt"},"district":{"key":"09661","name":"Aschaffenburg","type":"Kreisfreie_Stadt"},"federalState":{"key":"09","name":"Bayern"}},{"name":"Theresienstr.","postalCode":"63741","locality":"Aschaffenburg","municipality":{"key":"09661000","name":"Aschaffenburg","type":"Kreisfreie_Stadt"},"district":{"key":"09661","name":"Aschaffenburg","type":"Kreisfreie_Stadt"},"federalState":{"key":"09","name":"Bayern"}},{"name":"Thüringer Str.","postalCode":"63739","locality":"Aschaffenburg","municipality":{"key":"09661000","name":"Aschaffenburg","type":"Kreisfreie_Stadt"},"district":{"key":"09661","name":"Aschaffenburg","type":"Kreisfreie_Stadt"},"federalState":{"key":"09","name":"Bayern"}},{"name":"Tiroler Str.","postalCode":"63739","locality":"Aschaffenburg","municipality":{"key":"09661000","name":"Aschaffenburg","type":"Kreisfreie_Stadt"},"district":{"key":"09661","name":"Aschaffenburg","type":"Kreisfreie_Stadt"},"federalState":{"key":"09","name":"Bayern"}},{"name":"Tränkgasse","postalCode":"63741","locality":"Aschaffenburg","municipality":{"key":"09661000","name":"Aschaffenburg","type":"Kreisfreie_Stadt"},"district":{"key":"09661","name":"Aschaffenburg","type":"Kreisfreie_Stadt"},"federalState":{"key":"09","name":"Bayern"}},{"name":"Treibgasse","postalCode":"63739","locality":"Aschaffenburg","municipality":{"key":"09661000","name":"Aschaffenburg","type":"Kreisfreie_Stadt"},"district":{"key":"09661","name":"Aschaffenburg","type":"Kreisfreie_Stadt"},"federalState":{"key":"09","name":"Bayern"}},{"name":"Triebshohle","postalCode":"63743","locality":"Aschaffenburg","municipality":{"key":"09661000","name":"Aschaffenburg","type":"Kreisfreie_Stadt"},"district":{"key":"09661","name":"Aschaffenburg","type":"Kreisfreie_Stadt"},"federalState":{"key":"09","name":"Bayern"}},{"name":"Trockenbrodtstr.","postalCode":"63739","locality":"Aschaffenburg","municipality":{"key":"09661000","name":"Aschaffenburg","type":"Kreisfreie_Stadt"},"district":{"key":"09661","name":"Aschaffenburg","type":"Kreisfreie_Stadt"},"federalState":{"key":"09","name":"Bayern"}},{"name":"Tschoepestr.","postalCode":"63743","locality":"Aschaffenburg","municipality":{"key":"09661000","name":"Aschaffenburg","type":"Kreisfreie_Stadt"},"district":{"key":"09661","name":"Aschaffenburg","type":"Kreisfreie_Stadt"},"federalState":{"key":"09","name":"Bayern"}},{"name":"Tuchbleiche","postalCode":"63743","locality":"Aschaffenburg","municipality":{"key":"09661000","name":"Aschaffenburg","type":"Kreisfreie_Stadt"},"district":{"key":"09661","name":"Aschaffenburg","type":"Kreisfreie_Stadt"},"federalState":{"key":"09","name":"Bayern"}},{"name":"Tulpenstr.","postalCode":"63743","locality":"Aschaffenburg","municipality":{"key":"09661000","name":"Aschaffenburg","type":"Kreisfreie_Stadt"},"district":{"key":"09661","name":"Aschaffenburg","type":"Kreisfreie_Stadt"},"federalState":{"key":"09","name":"Bayern"}},{"name":"Ufergasse","postalCode":"63743","locality":"Aschaffenburg","municipality":{"key":"09661000","name":"Aschaffenburg","type":"Kreisfreie_Stadt"},"district":{"key":"09661","name":"Aschaffenburg","type":"Kreisfreie_Stadt"},"federalState":{"key":"09","name":"Bayern"}},{"name":"Uhlandstr.","postalCode":"63741","locality":"Aschaffenburg","municipality":{"key":"09661000","name":"Aschaffenburg","type":"Kreisfreie_Stadt"},"district":{"key":"09661","name":"Aschaffenburg","type":"Kreisfreie_Stadt"},"federalState":{"key":"09","name":"Bayern"}},{"name":"Ulmenweg","postalCode":"63741","locality":"Aschaffenburg","municipality":{"key":"09661000","name":"Aschaffenburg","type":"Kreisfreie_Stadt"},"district":{"key":"09661","name":"Aschaffenburg","type":"Kreisfreie_Stadt"},"federalState":{"key":"09","name":"Bayern"}},{"name":"Umenhofstr.","postalCode":"63743","locality":"Aschaffenburg","municipality":{"key":"09661000","name":"Aschaffenburg","type":"Kreisfreie_Stadt"},"district":{"key":"09661","name":"Aschaffenburg","type":"Kreisfreie_Stadt"},"federalState":{"key":"09","name":"Bayern"}},{"name":"Unter dem Pfarracker","postalCode":"63743","locality":"Aschaffenburg","municipality":{"key":"09661000","name":"Aschaffenburg","type":"Kreisfreie_Stadt"},"district":{"key":"09661","name":"Aschaffenburg","type":"Kreisfreie_Stadt"},"federalState":{"key":"09","name":"Bayern"}},{"name":"Untere Auwiesen","postalCode":"63741","locality":"Aschaffenburg","municipality":{"key":"09661000","name":"Aschaffenburg","type":"Kreisfreie_Stadt"},"district":{"key":"09661","name":"Aschaffenburg","type":"Kreisfreie_Stadt"},"federalState":{"key":"09","name":"Bayern"}},{"name":"Untere Fischergasse","postalCode":"63739","locality":"Aschaffenburg","municipality":{"key":"09661000","name":"Aschaffenburg","type":"Kreisfreie_Stadt"},"district":{"key":"09661","name":"Aschaffenburg","type":"Kreisfreie_Stadt"},"federalState":{"key":"09","name":"Bayern"}},{"name":"Unterhainstr.","postalCode":"63743","locality":"Aschaffenburg","municipality":{"key":"09661000","name":"Aschaffenburg","type":"Kreisfreie_Stadt"},"district":{"key":"09661","name":"Aschaffenburg","type":"Kreisfreie_Stadt"},"federalState":{"key":"09","name":"Bayern"}},{"name":"Unterm Kist","postalCode":"63743","locality":"Aschaffenburg","municipality":{"key":"09661000","name":"Aschaffenburg","type":"Kreisfreie_Stadt"},"district":{"key":"09661","name":"Aschaffenburg","type":"Kreisfreie_Stadt"},"federalState":{"key":"09","name":"Bayern"}},{"name":"Vischerstr.","postalCode":"63739","locality":"Aschaffenburg","municipality":{"key":"09661000","name":"Aschaffenburg","type":"Kreisfreie_Stadt"},"district":{"key":"09661","name":"Aschaffenburg","type":"Kreisfreie_Stadt"},"federalState":{"key":"09","name":"Bayern"}},{"name":"Vogelsbergstr.","postalCode":"63743","locality":"Aschaffenburg","municipality":{"key":"09661000","name":"Aschaffenburg","type":"Kreisfreie_Stadt"},"district":{"key":"09661","name":"Aschaffenburg","type":"Kreisfreie_Stadt"},"federalState":{"key":"09","name":"Bayern"}},{"name":"Vor der Au","postalCode":"63743","locality":"Aschaffenburg","municipality":{"key":"09661000","name":"Aschaffenburg","type":"Kreisfreie_Stadt"},"district":{"key":"09661","name":"Aschaffenburg","type":"Kreisfreie_Stadt"},"federalState":{"key":"09","name":"Bayern"}},{"name":"Waldstr.","postalCode":"63825","locality":"Sommerkahl","municipality":{"key":"09671153","name":"Sommerkahl","type":"Kreisangehörige_Gemeinde"},"district":{"key":"09671","name":"Aschaffenburg","type":"Landkreis"},"federalState":{"key":"09","name":"Bayern"}},{"name":"Wilhelminenstr.","postalCode":"63825","locality":"Sommerkahl","municipality":{"key":"09671153","name":"Sommerkahl","type":"Kreisangehörige_Gemeinde"},"district":{"key":"09671","name":"Aschaffenburg","type":"Landkreis"},"federalState":{"key":"09","name":"Bayern"}},{"name":"Yorckstr.","postalCode":"63739","locality":"Aschaffenburg","municipality":{"key":"09661000","name":"Aschaffenburg","type":"Kreisfreie_Stadt"},"district":{"key":"09661","name":"Aschaffenburg","type":"Kreisfreie_Stadt"},"federalState":{"key":"09","name":"Bayern"}},{"name":"Zangstr.","postalCode":"63741","locality":"Aschaffenburg","municipality":{"key":"09661000","name":"Aschaffenburg","type":"Kreisfreie_Stadt"},"district":{"key":"09661","name":"Aschaffenburg","type":"Kreisfreie_Stadt"},"federalState":{"key":"09","name":"Bayern"}},{"name":"Zedernweg","postalCode":"63741","locality":"Aschaffenburg","municipality":{"key":"09661000","name":"Aschaffenburg","type":"Kreisfreie_Stadt"},"district":{"key":"09661","name":"Aschaffenburg","type":"Kreisfreie_Stadt"},"federalState":{"key":"09","name":"Bayern"}},{"name":"Ziegelbergstr.","postalCode":"63739","locality":"Aschaffenburg","municipality":{"key":"09661000","name":"Aschaffenburg","type":"Kreisfreie_Stadt"},"district":{"key":"09661","name":"Aschaffenburg","type":"Kreisfreie_Stadt"},"federalState":{"key":"09","name":"Bayern"}},{"name":"Ziegelhüttenweg","postalCode":"63743","locality":"Aschaffenburg","municipality":{"key":"09661000","name":"Aschaffenburg","type":"Kreisfreie_Stadt"},"district":{"key":"09661","name":"Aschaffenburg","type":"Kreisfreie_Stadt"},"federalState":{"key":"09","name":"Bayern"}},{"name":"Zobelstr.","postalCode":"63741","locality":"Aschaffenburg","municipality":{"key":"09661000","name":"Aschaffenburg","type":"Kreisfreie_Stadt"},"district":{"key":"09661","name":"Aschaffenburg","type":"Kreisfreie_Stadt"},"federalState":{"key":"09","name":"Bayern"}},{"name":"Zum Kreuz","postalCode":"63743","locality":"Aschaffenburg","municipality":{"key":"09661000","name":"Aschaffenburg","type":"Kreisfreie_Stadt"},"district":{"key":"09661","name":"Aschaffenburg","type":"Kreisfreie_Stadt"},"federalState":{"key":"09","name":"Bayern"}},{"name":"Zum Schreibersgraben","postalCode":"63743","locality":"Aschaffenburg","municipality":{"key":"09661000","name":"Aschaffenburg","type":"Kreisfreie_Stadt"},"district":{"key":"09661","name":"Aschaffenburg","type":"Kreisfreie_Stadt"},"federalState":{"key":"09","name":"Bayern"}},{"name":"Zypressenweg","postalCode":"63741","locality":"Aschaffenburg","municipality":{"key":"09661000","name":"Aschaffenburg","type":"Kreisfreie_Stadt"},"district":{"key":"09661","name":"Aschaffenburg","type":"Kreisfreie_Stadt"},"federalState":{"key":"09","name":"Bayern"}},{"name":"Ölmühlweg","postalCode":"63743","locality":"Aschaffenburg","municipality":{"key":"09661000","name":"Aschaffenburg","type":"Kreisfreie_Stadt"},"district":{"key":"09661","name":"Aschaffenburg","type":"Kreisfreie_Stadt"},"federalState":{"key":"09","name":"Bayern"}},{"name":"Österreicher Str.","postalCode":"63739","locality":"Aschaffenburg","municipality":{"key":"09661000","name":"Aschaffenburg","type":"Kreisfreie_Stadt"},"district":{"key":"09661","name":"Aschaffenburg","type":"Kreisfreie_Stadt"},"federalState":{"key":"09","name":"Bayern"}},]