[{"name":"Alte Dorfstr.","postalCode":"24814","locality":"Sehestedt","municipality":{"key":"01058152","name":"Sehestedt","type":"Kreisangehörige_Gemeinde"},"district":{"key":"01058","name":"Rendsburg-Eckernförde","type":"Kreis"},"federalState":{"key":"01","name":"Schleswig-Holstein"}},{"name":"Alte Meierei","postalCode":"24814","locality":"Sehestedt","municipality":{"key":"01058152","name":"Sehestedt","type":"Kreisangehörige_Gemeinde"},"district":{"key":"01058","name":"Rendsburg-Eckernförde","type":"Kreis"},"federalState":{"key":"01","name":"Schleswig-Holstein"}},{"name":"Alter Fährberg","postalCode":"24814","locality":"Sehestedt","municipality":{"key":"01058152","name":"Sehestedt","type":"Kreisangehörige_Gemeinde"},"district":{"key":"01058","name":"Rendsburg-Eckernförde","type":"Kreis"},"federalState":{"key":"01","name":"Schleswig-Holstein"}},{"name":"Am Denkmal","postalCode":"24814","locality":"Sehestedt","municipality":{"key":"01058152","name":"Sehestedt","type":"Kreisangehörige_Gemeinde"},"district":{"key":"01058","name":"Rendsburg-Eckernförde","type":"Kreis"},"federalState":{"key":"01","name":"Schleswig-Holstein"}},{"name":"Arft Kamp","postalCode":"24814","locality":"Sehestedt","municipality":{"key":"01058152","name":"Sehestedt","type":"Kreisangehörige_Gemeinde"},"district":{"key":"01058","name":"Rendsburg-Eckernförde","type":"Kreis"},"federalState":{"key":"01","name":"Schleswig-Holstein"}},{"name":"Bovenauer Str.","postalCode":"24814","locality":"Sehestedt","municipality":{"key":"01058152","name":"Sehestedt","type":"Kreisangehörige_Gemeinde"},"district":{"key":"01058","name":"Rendsburg-Eckernförde","type":"Kreis"},"federalState":{"key":"01","name":"Schleswig-Holstein"}},{"name":"Eichengrund","postalCode":"24814","locality":"Sehestedt","municipality":{"key":"01058152","name":"Sehestedt","type":"Kreisangehörige_Gemeinde"},"district":{"key":"01058","name":"Rendsburg-Eckernförde","type":"Kreis"},"federalState":{"key":"01","name":"Schleswig-Holstein"}},{"name":"Eiderblick","postalCode":"24814","locality":"Sehestedt","municipality":{"key":"01058152","name":"Sehestedt","type":"Kreisangehörige_Gemeinde"},"district":{"key":"01058","name":"Rendsburg-Eckernförde","type":"Kreis"},"federalState":{"key":"01","name":"Schleswig-Holstein"}},{"name":"Energiepark Denker&Wulf","postalCode":"24814","locality":"Sehestedt","municipality":{"key":"01058152","name":"Sehestedt","type":"Kreisangehörige_Gemeinde"},"district":{"key":"01058","name":"Rendsburg-Eckernförde","type":"Kreis"},"federalState":{"key":"01","name":"Schleswig-Holstein"}},{"name":"Fähre-Nord","postalCode":"24814","locality":"Sehestedt","municipality":{"key":"01058152","name":"Sehestedt","type":"Kreisangehörige_Gemeinde"},"district":{"key":"01058","name":"Rendsburg-Eckernförde","type":"Kreis"},"federalState":{"key":"01","name":"Schleswig-Holstein"}},{"name":"Fähre-Süd","postalCode":"24814","locality":"Sehestedt","municipality":{"key":"01058152","name":"Sehestedt","type":"Kreisangehörige_Gemeinde"},"district":{"key":"01058","name":"Rendsburg-Eckernförde","type":"Kreis"},"federalState":{"key":"01","name":"Schleswig-Holstein"}},{"name":"Fährstr.","postalCode":"24814","locality":"Sehestedt","municipality":{"key":"01058152","name":"Sehestedt","type":"Kreisangehörige_Gemeinde"},"district":{"key":"01058","name":"Rendsburg-Eckernförde","type":"Kreis"},"federalState":{"key":"01","name":"Schleswig-Holstein"}},{"name":"Feldscheide","postalCode":"24814","locality":"Sehestedt","municipality":{"key":"01058152","name":"Sehestedt","type":"Kreisangehörige_Gemeinde"},"district":{"key":"01058","name":"Rendsburg-Eckernförde","type":"Kreis"},"federalState":{"key":"01","name":"Schleswig-Holstein"}},{"name":"Forstweg","postalCode":"24814","locality":"Sehestedt","municipality":{"key":"01058152","name":"Sehestedt","type":"Kreisangehörige_Gemeinde"},"district":{"key":"01058","name":"Rendsburg-Eckernförde","type":"Kreis"},"federalState":{"key":"01","name":"Schleswig-Holstein"}},{"name":"Freienberg","postalCode":"24814","locality":"Sehestedt","municipality":{"key":"01058152","name":"Sehestedt","type":"Kreisangehörige_Gemeinde"},"district":{"key":"01058","name":"Rendsburg-Eckernförde","type":"Kreis"},"federalState":{"key":"01","name":"Schleswig-Holstein"}},{"name":"Gruhl","postalCode":"24814","locality":"Sehestedt","municipality":{"key":"01058152","name":"Sehestedt","type":"Kreisangehörige_Gemeinde"},"district":{"key":"01058","name":"Rendsburg-Eckernförde","type":"Kreis"},"federalState":{"key":"01","name":"Schleswig-Holstein"}},{"name":"Hammer","postalCode":"24814","locality":"Sehestedt","municipality":{"key":"01058152","name":"Sehestedt","type":"Kreisangehörige_Gemeinde"},"district":{"key":"01058","name":"Rendsburg-Eckernförde","type":"Kreis"},"federalState":{"key":"01","name":"Schleswig-Holstein"}},{"name":"Hauptstr.","postalCode":"24814","locality":"Sehestedt","municipality":{"key":"01058152","name":"Sehestedt","type":"Kreisangehörige_Gemeinde"},"district":{"key":"01058","name":"Rendsburg-Eckernförde","type":"Kreis"},"federalState":{"key":"01","name":"Schleswig-Holstein"}},{"name":"Kanalblick","postalCode":"24814","locality":"Sehestedt","municipality":{"key":"01058152","name":"Sehestedt","type":"Kreisangehörige_Gemeinde"},"district":{"key":"01058","name":"Rendsburg-Eckernförde","type":"Kreis"},"federalState":{"key":"01","name":"Schleswig-Holstein"}},{"name":"Kiebitzmoor","postalCode":"24814","locality":"Sehestedt","municipality":{"key":"01058152","name":"Sehestedt","type":"Kreisangehörige_Gemeinde"},"district":{"key":"01058","name":"Rendsburg-Eckernförde","type":"Kreis"},"federalState":{"key":"01","name":"Schleswig-Holstein"}},{"name":"Kirchenweg","postalCode":"24814","locality":"Sehestedt","municipality":{"key":"01058152","name":"Sehestedt","type":"Kreisangehörige_Gemeinde"},"district":{"key":"01058","name":"Rendsburg-Eckernförde","type":"Kreis"},"federalState":{"key":"01","name":"Schleswig-Holstein"}},{"name":"Schmiedeberg","postalCode":"24814","locality":"Sehestedt","municipality":{"key":"01058152","name":"Sehestedt","type":"Kreisangehörige_Gemeinde"},"district":{"key":"01058","name":"Rendsburg-Eckernförde","type":"Kreis"},"federalState":{"key":"01","name":"Schleswig-Holstein"}},{"name":"Wiesengrund","postalCode":"24814","locality":"Sehestedt","municipality":{"key":"01058152","name":"Sehestedt","type":"Kreisangehörige_Gemeinde"},"district":{"key":"01058","name":"Rendsburg-Eckernförde","type":"Kreis"},"federalState":{"key":"01","name":"Schleswig-Holstein"}},{"name":"Zufriedenheit","postalCode":"24814","locality":"Sehestedt","municipality":{"key":"01058152","name":"Sehestedt","type":"Kreisangehörige_Gemeinde"},"district":{"key":"01058","name":"Rendsburg-Eckernförde","type":"Kreis"},"federalState":{"key":"01","name":"Schleswig-Holstein"}},{"name":"Zum Hessenberg","postalCode":"24814","locality":"Sehestedt","municipality":{"key":"01058152","name":"Sehestedt","type":"Kreisangehörige_Gemeinde"},"district":{"key":"01058","name":"Rendsburg-Eckernförde","type":"Kreis"},"federalState":{"key":"01","name":"Schleswig-Holstein"}},]