[{"key":"10256399","name":"Plaun Murezi","postalCode":"7151","locality":"Schluein","commune":{"key":"3582","name":"Schluein","shortName":"Schluein"},"district":{"key":"1850","name":"Region Surselva"},"canton":{"key":"18","code":"GR","name":"Graubünden / Grigioni / Grischun"},"status":"Real"},{"key":"10256951","name":"Via Bual","postalCode":"7151","locality":"Schluein","commune":{"key":"3582","name":"Schluein","shortName":"Schluein"},"district":{"key":"1850","name":"Region Surselva"},"canton":{"key":"18","code":"GR","name":"Graubünden / Grigioni / Grischun"},"status":"Real"},{"key":"10143566","name":"Via Buortga","postalCode":"7151","locality":"Schluein","commune":{"key":"3582","name":"Schluein","shortName":"Schluein"},"district":{"key":"1850","name":"Region Surselva"},"canton":{"key":"18","code":"GR","name":"Graubünden / Grigioni / Grischun"},"status":"Real"},{"key":"10215524","name":"Via Cafegns","postalCode":"7151","locality":"Schluein","commune":{"key":"3582","name":"Schluein","shortName":"Schluein"},"district":{"key":"1850","name":"Region Surselva"},"canton":{"key":"18","code":"GR","name":"Graubünden / Grigioni / Grischun"},"status":"Real"},{"key":"10143567","name":"Via Caglia Liunga","postalCode":"7151","locality":"Schluein","commune":{"key":"3582","name":"Schluein","shortName":"Schluein"},"district":{"key":"1850","name":"Region Surselva"},"canton":{"key":"18","code":"GR","name":"Graubünden / Grigioni / Grischun"},"status":"Real"},{"key":"10143568","name":"Via Casanova","postalCode":"7151","locality":"Schluein","commune":{"key":"3582","name":"Schluein","shortName":"Schluein"},"district":{"key":"1850","name":"Region Surselva"},"canton":{"key":"18","code":"GR","name":"Graubünden / Grigioni / Grischun"},"status":"Real"},{"key":"10143569","name":"Via Casti","postalCode":"7151","locality":"Schluein","commune":{"key":"3582","name":"Schluein","shortName":"Schluein"},"district":{"key":"1850","name":"Region Surselva"},"canton":{"key":"18","code":"GR","name":"Graubünden / Grigioni / Grischun"},"status":"Real"},{"key":"10134626","name":"Via Cazzettas","postalCode":"7151","locality":"Schluein","commune":{"key":"3582","name":"Schluein","shortName":"Schluein"},"district":{"key":"1850","name":"Region Surselva"},"canton":{"key":"18","code":"GR","name":"Graubünden / Grigioni / Grischun"},"status":"Real"},{"key":"10242082","name":"Via Claus","postalCode":"7151","locality":"Schluein","commune":{"key":"3582","name":"Schluein","shortName":"Schluein"},"district":{"key":"1850","name":"Region Surselva"},"canton":{"key":"18","code":"GR","name":"Graubünden / Grigioni / Grischun"},"status":"Planned"},{"key":"10215509","name":"Via Clautras","postalCode":"7151","locality":"Schluein","commune":{"key":"3582","name":"Schluein","shortName":"Schluein"},"district":{"key":"1850","name":"Region Surselva"},"canton":{"key":"18","code":"GR","name":"Graubünden / Grigioni / Grischun"},"status":"Real"},{"key":"10215530","name":"Via Crap Agit","postalCode":"7151","locality":"Schluein","commune":{"key":"3582","name":"Schluein","shortName":"Schluein"},"district":{"key":"1850","name":"Region Surselva"},"canton":{"key":"18","code":"GR","name":"Graubünden / Grigioni / Grischun"},"status":"Real"},{"key":"10215533","name":"Via dil Parlet","postalCode":"7151","locality":"Schluein","commune":{"key":"3582","name":"Schluein","shortName":"Schluein"},"district":{"key":"1850","name":"Region Surselva"},"canton":{"key":"18","code":"GR","name":"Graubünden / Grigioni / Grischun"},"status":"Real"},{"key":"10150237","name":"Via Falerin","postalCode":"7151","locality":"Schluein","commune":{"key":"3582","name":"Schluein","shortName":"Schluein"},"district":{"key":"1850","name":"Region Surselva"},"canton":{"key":"18","code":"GR","name":"Graubünden / Grigioni / Grischun"},"status":"Real"},{"key":"10256952","name":"Via Farschlein","postalCode":"7151","locality":"Schluein","commune":{"key":"3582","name":"Schluein","shortName":"Schluein"},"district":{"key":"1850","name":"Region Surselva"},"canton":{"key":"18","code":"GR","name":"Graubünden / Grigioni / Grischun"},"status":"Real"},{"key":"10256953","name":"Via Fry","postalCode":"7151","locality":"Schluein","commune":{"key":"3582","name":"Schluein","shortName":"Schluein"},"district":{"key":"1850","name":"Region Surselva"},"canton":{"key":"18","code":"GR","name":"Graubünden / Grigioni / Grischun"},"status":"Real"},{"key":"10215537","name":"Via Fuorbas","postalCode":"7151","locality":"Schluein","commune":{"key":"3582","name":"Schluein","shortName":"Schluein"},"district":{"key":"1850","name":"Region Surselva"},"canton":{"key":"18","code":"GR","name":"Graubünden / Grigioni / Grischun"},"status":"Real"},{"key":"10143570","name":"Via Isla","postalCode":"7151","locality":"Schluein","commune":{"key":"3582","name":"Schluein","shortName":"Schluein"},"district":{"key":"1850","name":"Region Surselva"},"canton":{"key":"18","code":"GR","name":"Graubünden / Grigioni / Grischun"},"status":"Real"},{"key":"10151285","name":"Via Mulinas","postalCode":"7151","locality":"Schluein","commune":{"key":"3582","name":"Schluein","shortName":"Schluein"},"district":{"key":"1850","name":"Region Surselva"},"canton":{"key":"18","code":"GR","name":"Graubünden / Grigioni / Grischun"},"status":"Real"},{"key":"10150238","name":"Via Mulin Sut","postalCode":"7151","locality":"Schluein","commune":{"key":"3582","name":"Schluein","shortName":"Schluein"},"district":{"key":"1850","name":"Region Surselva"},"canton":{"key":"18","code":"GR","name":"Graubünden / Grigioni / Grischun"},"status":"Real"},{"key":"10215513","name":"Via Panadeglias","postalCode":"7151","locality":"Schluein","commune":{"key":"3582","name":"Schluein","shortName":"Schluein"},"district":{"key":"1850","name":"Region Surselva"},"canton":{"key":"18","code":"GR","name":"Graubünden / Grigioni / Grischun"},"status":"Real"},{"key":"10256954","name":"Via Plaun Gonda","postalCode":"7151","locality":"Schluein","commune":{"key":"3582","name":"Schluein","shortName":"Schluein"},"district":{"key":"1850","name":"Region Surselva"},"canton":{"key":"18","code":"GR","name":"Graubünden / Grigioni / Grischun"},"status":"Real"},{"key":"10256955","name":"Via Plaun la Fuortga","postalCode":"7151","locality":"Schluein","commune":{"key":"3582","name":"Schluein","shortName":"Schluein"},"district":{"key":"1850","name":"Region Surselva"},"canton":{"key":"18","code":"GR","name":"Graubünden / Grigioni / Grischun"},"status":"Real"},{"key":"10074016","name":"Via Principala","postalCode":"7151","locality":"Schluein","commune":{"key":"3582","name":"Schluein","shortName":"Schluein"},"district":{"key":"1850","name":"Region Surselva"},"canton":{"key":"18","code":"GR","name":"Graubünden / Grigioni / Grischun"},"status":"Real"},{"key":"10256398","name":"Via Salens","postalCode":"7151","locality":"Schluein","commune":{"key":"3582","name":"Schluein","shortName":"Schluein"},"district":{"key":"1850","name":"Region Surselva"},"canton":{"key":"18","code":"GR","name":"Graubünden / Grigioni / Grischun"},"status":"Real"},{"key":"10256394","name":"Via Schallas","postalCode":"7151","locality":"Schluein","commune":{"key":"3582","name":"Schluein","shortName":"Schluein"},"district":{"key":"1850","name":"Region Surselva"},"canton":{"key":"18","code":"GR","name":"Graubünden / Grigioni / Grischun"},"status":"Real"},{"key":"10256393","name":"Via Seglias","postalCode":"7151","locality":"Schluein","commune":{"key":"3582","name":"Schluein","shortName":"Schluein"},"district":{"key":"1850","name":"Region Surselva"},"canton":{"key":"18","code":"GR","name":"Graubünden / Grigioni / Grischun"},"status":"Real"},{"key":"10143571","name":"Via Sogn Pieder","postalCode":"7151","locality":"Schluein","commune":{"key":"3582","name":"Schluein","shortName":"Schluein"},"district":{"key":"1850","name":"Region Surselva"},"canton":{"key":"18","code":"GR","name":"Graubünden / Grigioni / Grischun"},"status":"Real"},{"key":"10134627","name":"Via Stavel","postalCode":"7151","locality":"Schluein","commune":{"key":"3582","name":"Schluein","shortName":"Schluein"},"district":{"key":"1850","name":"Region Surselva"},"canton":{"key":"18","code":"GR","name":"Graubünden / Grigioni / Grischun"},"status":"Real"},{"key":"10215541","name":"Via Stgira","postalCode":"7151","locality":"Schluein","commune":{"key":"3582","name":"Schluein","shortName":"Schluein"},"district":{"key":"1850","name":"Region Surselva"},"canton":{"key":"18","code":"GR","name":"Graubünden / Grigioni / Grischun"},"status":"Real"},{"key":"10215545","name":"Via Sura","postalCode":"7151","locality":"Schluein","commune":{"key":"3582","name":"Schluein","shortName":"Schluein"},"district":{"key":"1850","name":"Region Surselva"},"canton":{"key":"18","code":"GR","name":"Graubünden / Grigioni / Grischun"},"status":"Real"},{"key":"10215549","name":"Via Sut","postalCode":"7151","locality":"Schluein","commune":{"key":"3582","name":"Schluein","shortName":"Schluein"},"district":{"key":"1850","name":"Region Surselva"},"canton":{"key":"18","code":"GR","name":"Graubünden / Grigioni / Grischun"},"status":"Real"},{"key":"10215553","name":"Via Teissa","postalCode":"7151","locality":"Schluein","commune":{"key":"3582","name":"Schluein","shortName":"Schluein"},"district":{"key":"1850","name":"Region Surselva"},"canton":{"key":"18","code":"GR","name":"Graubünden / Grigioni / Grischun"},"status":"Real"},{"key":"10151286","name":"Via Val Vedra","postalCode":"7151","locality":"Schluein","commune":{"key":"3582","name":"Schluein","shortName":"Schluein"},"district":{"key":"1850","name":"Region Surselva"},"canton":{"key":"18","code":"GR","name":"Graubünden / Grigioni / Grischun"},"status":"Real"},{"key":"10143572","name":"Via Veglia","postalCode":"7151","locality":"Schluein","commune":{"key":"3582","name":"Schluein","shortName":"Schluein"},"district":{"key":"1850","name":"Region Surselva"},"canton":{"key":"18","code":"GR","name":"Graubünden / Grigioni / Grischun"},"status":"Real"},{"key":"10256957","name":"Via Vintgins","postalCode":"7151","locality":"Schluein","commune":{"key":"3582","name":"Schluein","shortName":"Schluein"},"district":{"key":"1850","name":"Region Surselva"},"canton":{"key":"18","code":"GR","name":"Graubünden / Grigioni / Grischun"},"status":"Real"},{"key":"10151287","name":"Via Vitg Dado","postalCode":"7151","locality":"Schluein","commune":{"key":"3582","name":"Schluein","shortName":"Schluein"},"district":{"key":"1850","name":"Region Surselva"},"canton":{"key":"18","code":"GR","name":"Graubünden / Grigioni / Grischun"},"status":"Real"},{"key":"10134628","name":"Via Vitg Sura","postalCode":"7151","locality":"Schluein","commune":{"key":"3582","name":"Schluein","shortName":"Schluein"},"district":{"key":"1850","name":"Region Surselva"},"canton":{"key":"18","code":"GR","name":"Graubünden / Grigioni / Grischun"},"status":"Real"},{"key":"10151513","name":"Via Vitg Sut","postalCode":"7151","locality":"Schluein","commune":{"key":"3582","name":"Schluein","shortName":"Schluein"},"district":{"key":"1850","name":"Region Surselva"},"canton":{"key":"18","code":"GR","name":"Graubünden / Grigioni / Grischun"},"status":"Real"},]