[{"key":"10102979","name":"Bergweg","postalCode":"3912","locality":"Termen","commune":{"key":"6010","name":"Termen","shortName":"Termen"},"district":{"key":"2301","name":"Bezirk Brig"},"canton":{"key":"23","code":"VS","name":"Valais / Wallis"},"status":"Real"},{"key":"10042611","name":"Bielaweg","postalCode":"3912","locality":"Termen","commune":{"key":"6010","name":"Termen","shortName":"Termen"},"district":{"key":"2301","name":"Bezirk Brig"},"canton":{"key":"23","code":"VS","name":"Valais / Wallis"},"status":"Real"},{"key":"10116344","name":"Bielstrasse","postalCode":"3912","locality":"Termen","commune":{"key":"6010","name":"Termen","shortName":"Termen"},"district":{"key":"2301","name":"Bezirk Brig"},"canton":{"key":"23","code":"VS","name":"Valais / Wallis"},"status":"Real"},{"key":"10116366","name":"Binna","postalCode":"3912","locality":"Termen","commune":{"key":"6010","name":"Termen","shortName":"Termen"},"district":{"key":"2301","name":"Bezirk Brig"},"canton":{"key":"23","code":"VS","name":"Valais / Wallis"},"status":"Real"},{"key":"10058354","name":"Dorfplatz","postalCode":"3912","locality":"Termen","commune":{"key":"6010","name":"Termen","shortName":"Termen"},"district":{"key":"2301","name":"Bezirk Brig"},"canton":{"key":"23","code":"VS","name":"Valais / Wallis"},"status":"Real"},{"key":"10042612","name":"Dorfstrasse","postalCode":"3912","locality":"Termen","commune":{"key":"6010","name":"Termen","shortName":"Termen"},"district":{"key":"2301","name":"Bezirk Brig"},"canton":{"key":"23","code":"VS","name":"Valais / Wallis"},"status":"Real"},{"key":"10189334","name":"Feldgraben","postalCode":"3912","locality":"Termen","commune":{"key":"6010","name":"Termen","shortName":"Termen"},"district":{"key":"2301","name":"Bezirk Brig"},"canton":{"key":"23","code":"VS","name":"Valais / Wallis"},"status":"Real"},{"key":"10042613","name":"Feldweg","postalCode":"3912","locality":"Termen","commune":{"key":"6010","name":"Termen","shortName":"Termen"},"district":{"key":"2301","name":"Bezirk Brig"},"canton":{"key":"23","code":"VS","name":"Valais / Wallis"},"status":"Real"},{"key":"10243346","name":"Gartenweg","postalCode":"3912","locality":"Termen","commune":{"key":"6010","name":"Termen","shortName":"Termen"},"district":{"key":"2301","name":"Bezirk Brig"},"canton":{"key":"23","code":"VS","name":"Valais / Wallis"},"status":"Real"},{"key":"10082371","name":"Hasel","postalCode":"3912","locality":"Termen","commune":{"key":"6010","name":"Termen","shortName":"Termen"},"district":{"key":"2301","name":"Bezirk Brig"},"canton":{"key":"23","code":"VS","name":"Valais / Wallis"},"status":"Real"},{"key":"10042614","name":"Im Feld","postalCode":"3912","locality":"Termen","commune":{"key":"6010","name":"Termen","shortName":"Termen"},"district":{"key":"2301","name":"Bezirk Brig"},"canton":{"key":"23","code":"VS","name":"Valais / Wallis"},"status":"Real"},{"key":"10246702","name":"Kapellenweg","postalCode":"3912","locality":"Termen","commune":{"key":"6010","name":"Termen","shortName":"Termen"},"district":{"key":"2301","name":"Bezirk Brig"},"canton":{"key":"23","code":"VS","name":"Valais / Wallis"},"status":"Real"},{"key":"10125508","name":"Kirchweg","postalCode":"3912","locality":"Termen","commune":{"key":"6010","name":"Termen","shortName":"Termen"},"district":{"key":"2301","name":"Bezirk Brig"},"canton":{"key":"23","code":"VS","name":"Valais / Wallis"},"status":"Real"},{"key":"10243347","name":"Ledistrasse","postalCode":"3912","locality":"Termen","commune":{"key":"6010","name":"Termen","shortName":"Termen"},"district":{"key":"2301","name":"Bezirk Brig"},"canton":{"key":"23","code":"VS","name":"Valais / Wallis"},"status":"Real"},{"key":"10185769","name":"Leischa","postalCode":"3912","locality":"Termen","commune":{"key":"6010","name":"Termen","shortName":"Termen"},"district":{"key":"2301","name":"Bezirk Brig"},"canton":{"key":"23","code":"VS","name":"Valais / Wallis"},"status":"Real"},{"key":"10170065","name":"Leitwang","postalCode":"3912","locality":"Termen","commune":{"key":"6010","name":"Termen","shortName":"Termen"},"district":{"key":"2301","name":"Bezirk Brig"},"canton":{"key":"23","code":"VS","name":"Valais / Wallis"},"status":"Real"},{"key":"10210894","name":"Mischinenstrasse","postalCode":"3912","locality":"Termen","commune":{"key":"6010","name":"Termen","shortName":"Termen"},"district":{"key":"2301","name":"Bezirk Brig"},"canton":{"key":"23","code":"VS","name":"Valais / Wallis"},"status":"Real"},{"key":"10248933","name":"Oberliweg","postalCode":"3912","locality":"Termen","commune":{"key":"6010","name":"Termen","shortName":"Termen"},"district":{"key":"2301","name":"Bezirk Brig"},"canton":{"key":"23","code":"VS","name":"Valais / Wallis"},"status":"Real"},{"key":"10248934","name":"Raaftweg","postalCode":"3912","locality":"Termen","commune":{"key":"6010","name":"Termen","shortName":"Termen"},"district":{"key":"2301","name":"Bezirk Brig"},"canton":{"key":"23","code":"VS","name":"Valais / Wallis"},"status":"Real"},{"key":"10243331","name":"Schieferstollenweg","postalCode":"3912","locality":"Termen","commune":{"key":"6010","name":"Termen","shortName":"Termen"},"district":{"key":"2301","name":"Bezirk Brig"},"canton":{"key":"23","code":"VS","name":"Valais / Wallis"},"status":"Real"},{"key":"10181607","name":"Schrota","postalCode":"3912","locality":"Termen","commune":{"key":"6010","name":"Termen","shortName":"Termen"},"district":{"key":"2301","name":"Bezirk Brig"},"canton":{"key":"23","code":"VS","name":"Valais / Wallis"},"status":"Real"},{"key":"10246701","name":"Stadelweg","postalCode":"3912","locality":"Termen","commune":{"key":"6010","name":"Termen","shortName":"Termen"},"district":{"key":"2301","name":"Bezirk Brig"},"canton":{"key":"23","code":"VS","name":"Valais / Wallis"},"status":"Real"},{"key":"10248935","name":"Tennistrasse","postalCode":"3912","locality":"Termen","commune":{"key":"6010","name":"Termen","shortName":"Termen"},"district":{"key":"2301","name":"Bezirk Brig"},"canton":{"key":"23","code":"VS","name":"Valais / Wallis"},"status":"Real"},{"key":"10042615","name":"Termerstrasse","postalCode":"3912","locality":"Termen","commune":{"key":"6010","name":"Termen","shortName":"Termen"},"district":{"key":"2301","name":"Bezirk Brig"},"canton":{"key":"23","code":"VS","name":"Valais / Wallis"},"status":"Real"},{"key":"10171249","name":"Termerweg","postalCode":"3912","locality":"Termen","commune":{"key":"6010","name":"Termen","shortName":"Termen"},"district":{"key":"2301","name":"Bezirk Brig"},"canton":{"key":"23","code":"VS","name":"Valais / Wallis"},"status":"Real"},{"key":"10248936","name":"Tunetschweg","postalCode":"3912","locality":"Termen","commune":{"key":"6010","name":"Termen","shortName":"Termen"},"district":{"key":"2301","name":"Bezirk Brig"},"canton":{"key":"23","code":"VS","name":"Valais / Wallis"},"status":"Real"},{"key":"10042616","name":"Untere Gasse","postalCode":"3912","locality":"Termen","commune":{"key":"6010","name":"Termen","shortName":"Termen"},"district":{"key":"2301","name":"Bezirk Brig"},"canton":{"key":"23","code":"VS","name":"Valais / Wallis"},"status":"Real"},{"key":"10097058","name":"Zum Graben","postalCode":"3912","locality":"Termen","commune":{"key":"6010","name":"Termen","shortName":"Termen"},"district":{"key":"2301","name":"Bezirk Brig"},"canton":{"key":"23","code":"VS","name":"Valais / Wallis"},"status":"Real"},]