[{"name":"Alte Eselsteige","postalCode":"73342","locality":"Bad Ditzenbach","municipality":{"key":"08117006","name":"Bad Ditzenbach","type":"Kreisangehörige_Gemeinde"},"district":{"key":"08117","name":"Göppingen","type":"Landkreis"},"federalState":{"key":"08","name":"Baden-Württemberg"}},{"name":"Alte Steige","postalCode":"73342","locality":"Bad Ditzenbach","municipality":{"key":"08117006","name":"Bad Ditzenbach","type":"Kreisangehörige_Gemeinde"},"district":{"key":"08117","name":"Göppingen","type":"Landkreis"},"federalState":{"key":"08","name":"Baden-Württemberg"}},{"name":"Am Bahndamm","postalCode":"73342","locality":"Bad Ditzenbach","municipality":{"key":"08117006","name":"Bad Ditzenbach","type":"Kreisangehörige_Gemeinde"},"district":{"key":"08117","name":"Göppingen","type":"Landkreis"},"federalState":{"key":"08","name":"Baden-Württemberg"}},{"name":"Am Oberberg","postalCode":"73342","locality":"Bad Ditzenbach","municipality":{"key":"08117006","name":"Bad Ditzenbach","type":"Kreisangehörige_Gemeinde"},"district":{"key":"08117","name":"Göppingen","type":"Landkreis"},"federalState":{"key":"08","name":"Baden-Württemberg"}},{"name":"Amselteichweg","postalCode":"73342","locality":"Bad Ditzenbach","municipality":{"key":"08117006","name":"Bad Ditzenbach","type":"Kreisangehörige_Gemeinde"},"district":{"key":"08117","name":"Göppingen","type":"Landkreis"},"federalState":{"key":"08","name":"Baden-Württemberg"}},{"name":"Am Tierstein","postalCode":"73342","locality":"Bad Ditzenbach","municipality":{"key":"08117006","name":"Bad Ditzenbach","type":"Kreisangehörige_Gemeinde"},"district":{"key":"08117","name":"Göppingen","type":"Landkreis"},"federalState":{"key":"08","name":"Baden-Württemberg"}},{"name":"Auendorfer Str.","postalCode":"73342","locality":"Bad Ditzenbach","municipality":{"key":"08117006","name":"Bad Ditzenbach","type":"Kreisangehörige_Gemeinde"},"district":{"key":"08117","name":"Göppingen","type":"Landkreis"},"federalState":{"key":"08","name":"Baden-Württemberg"}},{"name":"Badstr.","postalCode":"73342","locality":"Bad Ditzenbach","municipality":{"key":"08117006","name":"Bad Ditzenbach","type":"Kreisangehörige_Gemeinde"},"district":{"key":"08117","name":"Göppingen","type":"Landkreis"},"federalState":{"key":"08","name":"Baden-Württemberg"}},{"name":"Bahnhofstr.","postalCode":"73342","locality":"Bad Ditzenbach","municipality":{"key":"08117006","name":"Bad Ditzenbach","type":"Kreisangehörige_Gemeinde"},"district":{"key":"08117","name":"Göppingen","type":"Landkreis"},"federalState":{"key":"08","name":"Baden-Württemberg"}},{"name":"Bergstr.","postalCode":"73342","locality":"Bad Ditzenbach","municipality":{"key":"08117006","name":"Bad Ditzenbach","type":"Kreisangehörige_Gemeinde"},"district":{"key":"08117","name":"Göppingen","type":"Landkreis"},"federalState":{"key":"08","name":"Baden-Württemberg"}},{"name":"Bergwiesenstr.","postalCode":"73342","locality":"Bad Ditzenbach","municipality":{"key":"08117006","name":"Bad Ditzenbach","type":"Kreisangehörige_Gemeinde"},"district":{"key":"08117","name":"Göppingen","type":"Landkreis"},"federalState":{"key":"08","name":"Baden-Württemberg"}},{"name":"Bruckwiesenstr.","postalCode":"73342","locality":"Bad Ditzenbach","municipality":{"key":"08117006","name":"Bad Ditzenbach","type":"Kreisangehörige_Gemeinde"},"district":{"key":"08117","name":"Göppingen","type":"Landkreis"},"federalState":{"key":"08","name":"Baden-Württemberg"}},{"name":"Brunnbühlstr.","postalCode":"73342","locality":"Bad Ditzenbach","municipality":{"key":"08117006","name":"Bad Ditzenbach","type":"Kreisangehörige_Gemeinde"},"district":{"key":"08117","name":"Göppingen","type":"Landkreis"},"federalState":{"key":"08","name":"Baden-Württemberg"}},{"name":"Brunnenwiesenstr.","postalCode":"73342","locality":"Bad Ditzenbach","municipality":{"key":"08117006","name":"Bad Ditzenbach","type":"Kreisangehörige_Gemeinde"},"district":{"key":"08117","name":"Göppingen","type":"Landkreis"},"federalState":{"key":"08","name":"Baden-Württemberg"}},{"name":"Buchenweg","postalCode":"73342","locality":"Bad Ditzenbach","municipality":{"key":"08117006","name":"Bad Ditzenbach","type":"Kreisangehörige_Gemeinde"},"district":{"key":"08117","name":"Göppingen","type":"Landkreis"},"federalState":{"key":"08","name":"Baden-Württemberg"}},{"name":"Burgsteige","postalCode":"73342","locality":"Bad Ditzenbach","municipality":{"key":"08117006","name":"Bad Ditzenbach","type":"Kreisangehörige_Gemeinde"},"district":{"key":"08117","name":"Göppingen","type":"Landkreis"},"federalState":{"key":"08","name":"Baden-Württemberg"}},{"name":"Carl-Benz-Str.","postalCode":"73037","locality":"Göppingen","municipality":{"key":"08117026","name":"Göppingen, Stadt","type":"Große_Kreisstadt"},"district":{"key":"08117","name":"Göppingen","type":"Landkreis"},"federalState":{"key":"08","name":"Baden-Württemberg"}},{"name":"Carl-Hermann-Gaiser-Str.","postalCode":"73033","locality":"Göppingen","municipality":{"key":"08117026","name":"Göppingen, Stadt","type":"Große_Kreisstadt"},"district":{"key":"08117","name":"Göppingen","type":"Landkreis"},"federalState":{"key":"08","name":"Baden-Württemberg"}},{"name":"Carl-Martin-Weg","postalCode":"73037","locality":"Göppingen","municipality":{"key":"08117026","name":"Göppingen, Stadt","type":"Große_Kreisstadt"},"district":{"key":"08117","name":"Göppingen","type":"Landkreis"},"federalState":{"key":"08","name":"Baden-Württemberg"}},{"name":"Cäsar-Flaischlen-Str.","postalCode":"73033","locality":"Göppingen","municipality":{"key":"08117026","name":"Göppingen, Stadt","type":"Große_Kreisstadt"},"district":{"key":"08117","name":"Göppingen","type":"Landkreis"},"federalState":{"key":"08","name":"Baden-Württemberg"}},{"name":"Charlottenstr.","postalCode":"73037","locality":"Göppingen","municipality":{"key":"08117026","name":"Göppingen, Stadt","type":"Große_Kreisstadt"},"district":{"key":"08117","name":"Göppingen","type":"Landkreis"},"federalState":{"key":"08","name":"Baden-Württemberg"}},{"name":"Christian-Grüninger-Str.","postalCode":"73033","locality":"Göppingen","municipality":{"key":"08117026","name":"Göppingen, Stadt","type":"Große_Kreisstadt"},"district":{"key":"08117","name":"Göppingen","type":"Landkreis"},"federalState":{"key":"08","name":"Baden-Württemberg"}},{"name":"Christian-Grüninger-Str.","postalCode":"73035","locality":"Göppingen","municipality":{"key":"08117026","name":"Göppingen, Stadt","type":"Große_Kreisstadt"},"district":{"key":"08117","name":"Göppingen","type":"Landkreis"},"federalState":{"key":"08","name":"Baden-Württemberg"}},{"name":"Christophstr.","postalCode":"73033","locality":"Göppingen","municipality":{"key":"08117026","name":"Göppingen, Stadt","type":"Große_Kreisstadt"},"district":{"key":"08117","name":"Göppingen","type":"Landkreis"},"federalState":{"key":"08","name":"Baden-Württemberg"}},{"name":"Cranachweg","postalCode":"73033","locality":"Göppingen","municipality":{"key":"08117026","name":"Göppingen, Stadt","type":"Große_Kreisstadt"},"district":{"key":"08117","name":"Göppingen","type":"Landkreis"},"federalState":{"key":"08","name":"Baden-Württemberg"}},{"name":"Degginger Str.","postalCode":"73342","locality":"Bad Ditzenbach","municipality":{"key":"08117006","name":"Bad Ditzenbach","type":"Kreisangehörige_Gemeinde"},"district":{"key":"08117","name":"Göppingen","type":"Landkreis"},"federalState":{"key":"08","name":"Baden-Württemberg"}},{"name":"Ditzenbacher Str.","postalCode":"73342","locality":"Bad Ditzenbach","municipality":{"key":"08117006","name":"Bad Ditzenbach","type":"Kreisangehörige_Gemeinde"},"district":{"key":"08117","name":"Göppingen","type":"Landkreis"},"federalState":{"key":"08","name":"Baden-Württemberg"}},{"name":"Drackensteiner Str.","postalCode":"73342","locality":"Bad Ditzenbach","municipality":{"key":"08117006","name":"Bad Ditzenbach","type":"Kreisangehörige_Gemeinde"},"district":{"key":"08117","name":"Göppingen","type":"Landkreis"},"federalState":{"key":"08","name":"Baden-Württemberg"}},{"name":"Eichelestr.","postalCode":"73342","locality":"Bad Ditzenbach","municipality":{"key":"08117006","name":"Bad Ditzenbach","type":"Kreisangehörige_Gemeinde"},"district":{"key":"08117","name":"Göppingen","type":"Landkreis"},"federalState":{"key":"08","name":"Baden-Württemberg"}},{"name":"Eschenweg","postalCode":"73342","locality":"Bad Ditzenbach","municipality":{"key":"08117006","name":"Bad Ditzenbach","type":"Kreisangehörige_Gemeinde"},"district":{"key":"08117","name":"Göppingen","type":"Landkreis"},"federalState":{"key":"08","name":"Baden-Württemberg"}},{"name":"Feldend","postalCode":"73342","locality":"Bad Ditzenbach","municipality":{"key":"08117006","name":"Bad Ditzenbach","type":"Kreisangehörige_Gemeinde"},"district":{"key":"08117","name":"Göppingen","type":"Landkreis"},"federalState":{"key":"08","name":"Baden-Württemberg"}},{"name":"Filsstr.","postalCode":"73342","locality":"Bad Ditzenbach","municipality":{"key":"08117006","name":"Bad Ditzenbach","type":"Kreisangehörige_Gemeinde"},"district":{"key":"08117","name":"Göppingen","type":"Landkreis"},"federalState":{"key":"08","name":"Baden-Württemberg"}},{"name":"Fuchseckweg","postalCode":"73342","locality":"Bad Ditzenbach","municipality":{"key":"08117006","name":"Bad Ditzenbach","type":"Kreisangehörige_Gemeinde"},"district":{"key":"08117","name":"Göppingen","type":"Landkreis"},"federalState":{"key":"08","name":"Baden-Württemberg"}},{"name":"f.w","postalCode":"73342","locality":"Bad Ditzenbach","municipality":{"key":"08117006","name":"Bad Ditzenbach","type":"Kreisangehörige_Gemeinde"},"district":{"key":"08117","name":"Göppingen","type":"Landkreis"},"federalState":{"key":"08","name":"Baden-Württemberg"}},{"name":"F.W","postalCode":"73342","locality":"Bad Ditzenbach","municipality":{"key":"08117006","name":"Bad Ditzenbach","type":"Kreisangehörige_Gemeinde"},"district":{"key":"08117","name":"Göppingen","type":"Landkreis"},"federalState":{"key":"08","name":"Baden-Württemberg"}},{"name":"Gartenstr.","postalCode":"73342","locality":"Bad Ditzenbach","municipality":{"key":"08117006","name":"Bad Ditzenbach","type":"Kreisangehörige_Gemeinde"},"district":{"key":"08117","name":"Göppingen","type":"Landkreis"},"federalState":{"key":"08","name":"Baden-Württemberg"}},{"name":"Glockengasse","postalCode":"73342","locality":"Bad Ditzenbach","municipality":{"key":"08117006","name":"Bad Ditzenbach","type":"Kreisangehörige_Gemeinde"},"district":{"key":"08117","name":"Göppingen","type":"Landkreis"},"federalState":{"key":"08","name":"Baden-Württemberg"}},{"name":"Göppinger Str.","postalCode":"73342","locality":"Bad Ditzenbach","municipality":{"key":"08117006","name":"Bad Ditzenbach","type":"Kreisangehörige_Gemeinde"},"district":{"key":"08117","name":"Göppingen","type":"Landkreis"},"federalState":{"key":"08","name":"Baden-Württemberg"}},{"name":"Gosbacher Str.","postalCode":"73342","locality":"Bad Ditzenbach","municipality":{"key":"08117006","name":"Bad Ditzenbach","type":"Kreisangehörige_Gemeinde"},"district":{"key":"08117","name":"Göppingen","type":"Landkreis"},"federalState":{"key":"08","name":"Baden-Württemberg"}},{"name":"Hägenmarkpfad","postalCode":"73342","locality":"Bad Ditzenbach","municipality":{"key":"08117006","name":"Bad Ditzenbach","type":"Kreisangehörige_Gemeinde"},"district":{"key":"08117","name":"Göppingen","type":"Landkreis"},"federalState":{"key":"08","name":"Baden-Württemberg"}},{"name":"Hauffstr.","postalCode":"73342","locality":"Bad Ditzenbach","municipality":{"key":"08117006","name":"Bad Ditzenbach","type":"Kreisangehörige_Gemeinde"},"district":{"key":"08117","name":"Göppingen","type":"Landkreis"},"federalState":{"key":"08","name":"Baden-Württemberg"}},{"name":"Hauptstr.","postalCode":"73342","locality":"Bad Ditzenbach","municipality":{"key":"08117006","name":"Bad Ditzenbach","type":"Kreisangehörige_Gemeinde"},"district":{"key":"08117","name":"Göppingen","type":"Landkreis"},"federalState":{"key":"08","name":"Baden-Württemberg"}},{"name":"Helfensteinstr.","postalCode":"73342","locality":"Bad Ditzenbach","municipality":{"key":"08117006","name":"Bad Ditzenbach","type":"Kreisangehörige_Gemeinde"},"district":{"key":"08117","name":"Göppingen","type":"Landkreis"},"federalState":{"key":"08","name":"Baden-Württemberg"}},{"name":"Hennawegle","postalCode":"73342","locality":"Bad Ditzenbach","municipality":{"key":"08117006","name":"Bad Ditzenbach","type":"Kreisangehörige_Gemeinde"},"district":{"key":"08117","name":"Göppingen","type":"Landkreis"},"federalState":{"key":"08","name":"Baden-Württemberg"}},{"name":"Herrenbrücke","postalCode":"73342","locality":"Bad Ditzenbach","municipality":{"key":"08117006","name":"Bad Ditzenbach","type":"Kreisangehörige_Gemeinde"},"district":{"key":"08117","name":"Göppingen","type":"Landkreis"},"federalState":{"key":"08","name":"Baden-Württemberg"}},{"name":"Hiltenburgweg","postalCode":"73342","locality":"Bad Ditzenbach","municipality":{"key":"08117006","name":"Bad Ditzenbach","type":"Kreisangehörige_Gemeinde"},"district":{"key":"08117","name":"Göppingen","type":"Landkreis"},"federalState":{"key":"08","name":"Baden-Württemberg"}},{"name":"Hiltentalstr.","postalCode":"73342","locality":"Bad Ditzenbach","municipality":{"key":"08117006","name":"Bad Ditzenbach","type":"Kreisangehörige_Gemeinde"},"district":{"key":"08117","name":"Göppingen","type":"Landkreis"},"federalState":{"key":"08","name":"Baden-Württemberg"}},{"name":"Hinter den Gärten","postalCode":"73342","locality":"Bad Ditzenbach","municipality":{"key":"08117006","name":"Bad Ditzenbach","type":"Kreisangehörige_Gemeinde"},"district":{"key":"08117","name":"Göppingen","type":"Landkreis"},"federalState":{"key":"08","name":"Baden-Württemberg"}},{"name":"Hofweiherstr.","postalCode":"73342","locality":"Bad Ditzenbach","municipality":{"key":"08117006","name":"Bad Ditzenbach","type":"Kreisangehörige_Gemeinde"},"district":{"key":"08117","name":"Göppingen","type":"Landkreis"},"federalState":{"key":"08","name":"Baden-Württemberg"}},{"name":"Höhgasse","postalCode":"73342","locality":"Bad Ditzenbach","municipality":{"key":"08117006","name":"Bad Ditzenbach","type":"Kreisangehörige_Gemeinde"},"district":{"key":"08117","name":"Göppingen","type":"Landkreis"},"federalState":{"key":"08","name":"Baden-Württemberg"}},{"name":"Hölderlinweg","postalCode":"73342","locality":"Bad Ditzenbach","municipality":{"key":"08117006","name":"Bad Ditzenbach","type":"Kreisangehörige_Gemeinde"},"district":{"key":"08117","name":"Göppingen","type":"Landkreis"},"federalState":{"key":"08","name":"Baden-Württemberg"}},{"name":"Im Brühl","postalCode":"73342","locality":"Bad Ditzenbach","municipality":{"key":"08117006","name":"Bad Ditzenbach","type":"Kreisangehörige_Gemeinde"},"district":{"key":"08117","name":"Göppingen","type":"Landkreis"},"federalState":{"key":"08","name":"Baden-Württemberg"}},{"name":"Im Eichele","postalCode":"73342","locality":"Bad Ditzenbach","municipality":{"key":"08117006","name":"Bad Ditzenbach","type":"Kreisangehörige_Gemeinde"},"district":{"key":"08117","name":"Göppingen","type":"Landkreis"},"federalState":{"key":"08","name":"Baden-Württemberg"}},{"name":"Im Hofacker","postalCode":"73342","locality":"Bad Ditzenbach","municipality":{"key":"08117006","name":"Bad Ditzenbach","type":"Kreisangehörige_Gemeinde"},"district":{"key":"08117","name":"Göppingen","type":"Landkreis"},"federalState":{"key":"08","name":"Baden-Württemberg"}},{"name":"Im Sänder","postalCode":"73342","locality":"Bad Ditzenbach","municipality":{"key":"08117006","name":"Bad Ditzenbach","type":"Kreisangehörige_Gemeinde"},"district":{"key":"08117","name":"Göppingen","type":"Landkreis"},"federalState":{"key":"08","name":"Baden-Württemberg"}},{"name":"In den Dorfgärten","postalCode":"73342","locality":"Bad Ditzenbach","municipality":{"key":"08117006","name":"Bad Ditzenbach","type":"Kreisangehörige_Gemeinde"},"district":{"key":"08117","name":"Göppingen","type":"Landkreis"},"federalState":{"key":"08","name":"Baden-Württemberg"}},{"name":"In den Tiergärten","postalCode":"73342","locality":"Bad Ditzenbach","municipality":{"key":"08117006","name":"Bad Ditzenbach","type":"Kreisangehörige_Gemeinde"},"district":{"key":"08117","name":"Göppingen","type":"Landkreis"},"federalState":{"key":"08","name":"Baden-Württemberg"}},{"name":"Jakobsweg","postalCode":"73342","locality":"Bad Ditzenbach","municipality":{"key":"08117006","name":"Bad Ditzenbach","type":"Kreisangehörige_Gemeinde"},"district":{"key":"08117","name":"Göppingen","type":"Landkreis"},"federalState":{"key":"08","name":"Baden-Württemberg"}},{"name":"Kapellenweg","postalCode":"73342","locality":"Bad Ditzenbach","municipality":{"key":"08117006","name":"Bad Ditzenbach","type":"Kreisangehörige_Gemeinde"},"district":{"key":"08117","name":"Göppingen","type":"Landkreis"},"federalState":{"key":"08","name":"Baden-Württemberg"}},{"name":"Kirchstr.","postalCode":"73342","locality":"Bad Ditzenbach","municipality":{"key":"08117006","name":"Bad Ditzenbach","type":"Kreisangehörige_Gemeinde"},"district":{"key":"08117","name":"Göppingen","type":"Landkreis"},"federalState":{"key":"08","name":"Baden-Württemberg"}},{"name":"Klingenbrunnen","postalCode":"73342","locality":"Bad Ditzenbach","municipality":{"key":"08117006","name":"Bad Ditzenbach","type":"Kreisangehörige_Gemeinde"},"district":{"key":"08117","name":"Göppingen","type":"Landkreis"},"federalState":{"key":"08","name":"Baden-Württemberg"}},{"name":"Krügerstr.","postalCode":"73342","locality":"Bad Ditzenbach","municipality":{"key":"08117006","name":"Bad Ditzenbach","type":"Kreisangehörige_Gemeinde"},"district":{"key":"08117","name":"Göppingen","type":"Landkreis"},"federalState":{"key":"08","name":"Baden-Württemberg"}},{"name":"Krügerstr. - Hägenmarkpfad","postalCode":"73342","locality":"Bad Ditzenbach","municipality":{"key":"08117006","name":"Bad Ditzenbach","type":"Kreisangehörige_Gemeinde"},"district":{"key":"08117","name":"Göppingen","type":"Landkreis"},"federalState":{"key":"08","name":"Baden-Württemberg"}},{"name":"Kurhausstr.","postalCode":"73342","locality":"Bad Ditzenbach","municipality":{"key":"08117006","name":"Bad Ditzenbach","type":"Kreisangehörige_Gemeinde"},"district":{"key":"08117","name":"Göppingen","type":"Landkreis"},"federalState":{"key":"08","name":"Baden-Württemberg"}},{"name":"Kurpark","postalCode":"73342","locality":"Bad Ditzenbach","municipality":{"key":"08117006","name":"Bad Ditzenbach","type":"Kreisangehörige_Gemeinde"},"district":{"key":"08117","name":"Göppingen","type":"Landkreis"},"federalState":{"key":"08","name":"Baden-Württemberg"}},{"name":"Kurze Str.","postalCode":"73342","locality":"Bad Ditzenbach","municipality":{"key":"08117006","name":"Bad Ditzenbach","type":"Kreisangehörige_Gemeinde"},"district":{"key":"08117","name":"Göppingen","type":"Landkreis"},"federalState":{"key":"08","name":"Baden-Württemberg"}},{"name":"Leimbergstr.","postalCode":"73342","locality":"Bad Ditzenbach","municipality":{"key":"08117006","name":"Bad Ditzenbach","type":"Kreisangehörige_Gemeinde"},"district":{"key":"08117","name":"Göppingen","type":"Landkreis"},"federalState":{"key":"08","name":"Baden-Württemberg"}},{"name":"Lindenstr.","postalCode":"73342","locality":"Bad Ditzenbach","municipality":{"key":"08117006","name":"Bad Ditzenbach","type":"Kreisangehörige_Gemeinde"},"district":{"key":"08117","name":"Göppingen","type":"Landkreis"},"federalState":{"key":"08","name":"Baden-Württemberg"}},{"name":"Lützelalbweg","postalCode":"73342","locality":"Bad Ditzenbach","municipality":{"key":"08117006","name":"Bad Ditzenbach","type":"Kreisangehörige_Gemeinde"},"district":{"key":"08117","name":"Göppingen","type":"Landkreis"},"federalState":{"key":"08","name":"Baden-Württemberg"}},{"name":"Magnusstr.","postalCode":"73342","locality":"Bad Ditzenbach","municipality":{"key":"08117006","name":"Bad Ditzenbach","type":"Kreisangehörige_Gemeinde"},"district":{"key":"08117","name":"Göppingen","type":"Landkreis"},"federalState":{"key":"08","name":"Baden-Württemberg"}},{"name":"Maiweg","postalCode":"73342","locality":"Bad Ditzenbach","municipality":{"key":"08117006","name":"Bad Ditzenbach","type":"Kreisangehörige_Gemeinde"},"district":{"key":"08117","name":"Göppingen","type":"Landkreis"},"federalState":{"key":"08","name":"Baden-Württemberg"}},{"name":"Moosäckerstr.","postalCode":"73342","locality":"Bad Ditzenbach","municipality":{"key":"08117006","name":"Bad Ditzenbach","type":"Kreisangehörige_Gemeinde"},"district":{"key":"08117","name":"Göppingen","type":"Landkreis"},"federalState":{"key":"08","name":"Baden-Württemberg"}},{"name":"Mörikestr.","postalCode":"73342","locality":"Bad Ditzenbach","municipality":{"key":"08117006","name":"Bad Ditzenbach","type":"Kreisangehörige_Gemeinde"},"district":{"key":"08117","name":"Göppingen","type":"Landkreis"},"federalState":{"key":"08","name":"Baden-Württemberg"}},{"name":"Mühlstr.","postalCode":"73342","locality":"Bad Ditzenbach","municipality":{"key":"08117006","name":"Bad Ditzenbach","type":"Kreisangehörige_Gemeinde"},"district":{"key":"08117","name":"Göppingen","type":"Landkreis"},"federalState":{"key":"08","name":"Baden-Württemberg"}},{"name":"Mühlwiesenstr.","postalCode":"73342","locality":"Bad Ditzenbach","municipality":{"key":"08117006","name":"Bad Ditzenbach","type":"Kreisangehörige_Gemeinde"},"district":{"key":"08117","name":"Göppingen","type":"Landkreis"},"federalState":{"key":"08","name":"Baden-Württemberg"}},{"name":"Neue Steige","postalCode":"73342","locality":"Bad Ditzenbach","municipality":{"key":"08117006","name":"Bad Ditzenbach","type":"Kreisangehörige_Gemeinde"},"district":{"key":"08117","name":"Göppingen","type":"Landkreis"},"federalState":{"key":"08","name":"Baden-Württemberg"}},{"name":"Obere Gartenstr.","postalCode":"73033","locality":"Göppingen","municipality":{"key":"08117026","name":"Göppingen, Stadt","type":"Große_Kreisstadt"},"district":{"key":"08117","name":"Göppingen","type":"Landkreis"},"federalState":{"key":"08","name":"Baden-Württemberg"}},{"name":"Obere Halde","postalCode":"73037","locality":"Göppingen","municipality":{"key":"08117026","name":"Göppingen, Stadt","type":"Große_Kreisstadt"},"district":{"key":"08117","name":"Göppingen","type":"Landkreis"},"federalState":{"key":"08","name":"Baden-Württemberg"}},{"name":"Oberer Lederberg","postalCode":"73035","locality":"Göppingen","municipality":{"key":"08117026","name":"Göppingen, Stadt","type":"Große_Kreisstadt"},"district":{"key":"08117","name":"Göppingen","type":"Landkreis"},"federalState":{"key":"08","name":"Baden-Württemberg"}},{"name":"Obere Wasenstr.","postalCode":"73035","locality":"Göppingen","municipality":{"key":"08117026","name":"Göppingen, Stadt","type":"Große_Kreisstadt"},"district":{"key":"08117","name":"Göppingen","type":"Landkreis"},"federalState":{"key":"08","name":"Baden-Württemberg"}},{"name":"Oberhofenstr.","postalCode":"73033","locality":"Göppingen","municipality":{"key":"08117026","name":"Göppingen, Stadt","type":"Große_Kreisstadt"},"district":{"key":"08117","name":"Göppingen","type":"Landkreis"},"federalState":{"key":"08","name":"Baden-Württemberg"}},{"name":"Oberholzstr.","postalCode":"73033","locality":"Göppingen","municipality":{"key":"08117026","name":"Göppingen, Stadt","type":"Große_Kreisstadt"},"district":{"key":"08117","name":"Göppingen","type":"Landkreis"},"federalState":{"key":"08","name":"Baden-Württemberg"}},{"name":"Oberholzweg","postalCode":"73035","locality":"Göppingen","municipality":{"key":"08117026","name":"Göppingen, Stadt","type":"Große_Kreisstadt"},"district":{"key":"08117","name":"Göppingen","type":"Landkreis"},"federalState":{"key":"08","name":"Baden-Württemberg"}},{"name":"Oberholzweg","postalCode":"73037","locality":"Göppingen","municipality":{"key":"08117026","name":"Göppingen, Stadt","type":"Große_Kreisstadt"},"district":{"key":"08117","name":"Göppingen","type":"Landkreis"},"federalState":{"key":"08","name":"Baden-Württemberg"}},{"name":"Oetingerstr.","postalCode":"73033","locality":"Göppingen","municipality":{"key":"08117026","name":"Göppingen, Stadt","type":"Große_Kreisstadt"},"district":{"key":"08117","name":"Göppingen","type":"Landkreis"},"federalState":{"key":"08","name":"Baden-Württemberg"}},{"name":"Olgastr.","postalCode":"73033","locality":"Göppingen","municipality":{"key":"08117026","name":"Göppingen, Stadt","type":"Große_Kreisstadt"},"district":{"key":"08117","name":"Göppingen","type":"Landkreis"},"federalState":{"key":"08","name":"Baden-Württemberg"}},{"name":"Opelstr.","postalCode":"73035","locality":"Göppingen","municipality":{"key":"08117026","name":"Göppingen, Stadt","type":"Große_Kreisstadt"},"district":{"key":"08117","name":"Göppingen","type":"Landkreis"},"federalState":{"key":"08","name":"Baden-Württemberg"}},{"name":"Ostlandstr.","postalCode":"73035","locality":"Göppingen","municipality":{"key":"08117026","name":"Göppingen, Stadt","type":"Große_Kreisstadt"},"district":{"key":"08117","name":"Göppingen","type":"Landkreis"},"federalState":{"key":"08","name":"Baden-Württemberg"}},{"name":"Ostpreußenstr.","postalCode":"73035","locality":"Göppingen","municipality":{"key":"08117026","name":"Göppingen, Stadt","type":"Große_Kreisstadt"},"district":{"key":"08117","name":"Göppingen","type":"Landkreis"},"federalState":{"key":"08","name":"Baden-Württemberg"}},{"name":"Ottenbacher Str.","postalCode":"73037","locality":"Göppingen","municipality":{"key":"08117026","name":"Göppingen, Stadt","type":"Große_Kreisstadt"},"district":{"key":"08117","name":"Göppingen","type":"Landkreis"},"federalState":{"key":"08","name":"Baden-Württemberg"}},{"name":"Panoramaweg","postalCode":"73342","locality":"Bad Ditzenbach","municipality":{"key":"08117006","name":"Bad Ditzenbach","type":"Kreisangehörige_Gemeinde"},"district":{"key":"08117","name":"Göppingen","type":"Landkreis"},"federalState":{"key":"08","name":"Baden-Württemberg"}},{"name":"pf","postalCode":"73342","locality":"Bad Ditzenbach","municipality":{"key":"08117006","name":"Bad Ditzenbach","type":"Kreisangehörige_Gemeinde"},"district":{"key":"08117","name":"Göppingen","type":"Landkreis"},"federalState":{"key":"08","name":"Baden-Württemberg"}},{"name":"Quäkerstr.","postalCode":"73033","locality":"Göppingen","municipality":{"key":"08117026","name":"Göppingen, Stadt","type":"Große_Kreisstadt"},"district":{"key":"08117","name":"Göppingen","type":"Landkreis"},"federalState":{"key":"08","name":"Baden-Württemberg"}},{"name":"Querstr.","postalCode":"73033","locality":"Göppingen","municipality":{"key":"08117026","name":"Göppingen, Stadt","type":"Große_Kreisstadt"},"district":{"key":"08117","name":"Göppingen","type":"Landkreis"},"federalState":{"key":"08","name":"Baden-Württemberg"}},{"name":"Riesenweg","postalCode":"73342","locality":"Bad Ditzenbach","municipality":{"key":"08117006","name":"Bad Ditzenbach","type":"Kreisangehörige_Gemeinde"},"district":{"key":"08117","name":"Göppingen","type":"Landkreis"},"federalState":{"key":"08","name":"Baden-Württemberg"}},{"name":"Schillerstr.","postalCode":"73342","locality":"Bad Ditzenbach","municipality":{"key":"08117006","name":"Bad Ditzenbach","type":"Kreisangehörige_Gemeinde"},"district":{"key":"08117","name":"Göppingen","type":"Landkreis"},"federalState":{"key":"08","name":"Baden-Württemberg"}},{"name":"Schloßbergstr.","postalCode":"73342","locality":"Bad Ditzenbach","municipality":{"key":"08117006","name":"Bad Ditzenbach","type":"Kreisangehörige_Gemeinde"},"district":{"key":"08117","name":"Göppingen","type":"Landkreis"},"federalState":{"key":"08","name":"Baden-Württemberg"}},{"name":"Schönbühl","postalCode":"73342","locality":"Bad Ditzenbach","municipality":{"key":"08117006","name":"Bad Ditzenbach","type":"Kreisangehörige_Gemeinde"},"district":{"key":"08117","name":"Göppingen","type":"Landkreis"},"federalState":{"key":"08","name":"Baden-Württemberg"}},{"name":"Schubartstr.","postalCode":"73342","locality":"Bad Ditzenbach","municipality":{"key":"08117006","name":"Bad Ditzenbach","type":"Kreisangehörige_Gemeinde"},"district":{"key":"08117","name":"Göppingen","type":"Landkreis"},"federalState":{"key":"08","name":"Baden-Württemberg"}},{"name":"Schulstr.","postalCode":"73342","locality":"Bad Ditzenbach","municipality":{"key":"08117006","name":"Bad Ditzenbach","type":"Kreisangehörige_Gemeinde"},"district":{"key":"08117","name":"Göppingen","type":"Landkreis"},"federalState":{"key":"08","name":"Baden-Württemberg"}},{"name":"Silcherweg","postalCode":"73342","locality":"Bad Ditzenbach","municipality":{"key":"08117006","name":"Bad Ditzenbach","type":"Kreisangehörige_Gemeinde"},"district":{"key":"08117","name":"Göppingen","type":"Landkreis"},"federalState":{"key":"08","name":"Baden-Württemberg"}},{"name":"Sonnenbühl","postalCode":"73342","locality":"Bad Ditzenbach","municipality":{"key":"08117006","name":"Bad Ditzenbach","type":"Kreisangehörige_Gemeinde"},"district":{"key":"08117","name":"Göppingen","type":"Landkreis"},"federalState":{"key":"08","name":"Baden-Württemberg"}},{"name":"Tälesbahnstr.","postalCode":"73342","locality":"Bad Ditzenbach","municipality":{"key":"08117006","name":"Bad Ditzenbach","type":"Kreisangehörige_Gemeinde"},"district":{"key":"08117","name":"Göppingen","type":"Landkreis"},"federalState":{"key":"08","name":"Baden-Württemberg"}},{"name":"Talstr.","postalCode":"73342","locality":"Bad Ditzenbach","municipality":{"key":"08117006","name":"Bad Ditzenbach","type":"Kreisangehörige_Gemeinde"},"district":{"key":"08117","name":"Göppingen","type":"Landkreis"},"federalState":{"key":"08","name":"Baden-Württemberg"}},{"name":"Uhlandstr.","postalCode":"73342","locality":"Bad Ditzenbach","municipality":{"key":"08117006","name":"Bad Ditzenbach","type":"Kreisangehörige_Gemeinde"},"district":{"key":"08117","name":"Göppingen","type":"Landkreis"},"federalState":{"key":"08","name":"Baden-Württemberg"}},{"name":"Ulrich-Schiegg-Str.","postalCode":"73342","locality":"Bad Ditzenbach","municipality":{"key":"08117006","name":"Bad Ditzenbach","type":"Kreisangehörige_Gemeinde"},"district":{"key":"08117","name":"Göppingen","type":"Landkreis"},"federalState":{"key":"08","name":"Baden-Württemberg"}},{"name":"Unterdorfstr.","postalCode":"73342","locality":"Bad Ditzenbach","municipality":{"key":"08117006","name":"Bad Ditzenbach","type":"Kreisangehörige_Gemeinde"},"district":{"key":"08117","name":"Göppingen","type":"Landkreis"},"federalState":{"key":"08","name":"Baden-Württemberg"}},{"name":"Vinzenz-Stroh-Weg","postalCode":"73037","locality":"Göppingen","municipality":{"key":"08117026","name":"Göppingen, Stadt","type":"Große_Kreisstadt"},"district":{"key":"08117","name":"Göppingen","type":"Landkreis"},"federalState":{"key":"08","name":"Baden-Württemberg"}},{"name":"Von-Drais-Str.","postalCode":"73037","locality":"Göppingen","municipality":{"key":"08117026","name":"Göppingen, Stadt","type":"Große_Kreisstadt"},"district":{"key":"08117","name":"Göppingen","type":"Landkreis"},"federalState":{"key":"08","name":"Baden-Württemberg"}},{"name":"Von-Schwerdt-Weg","postalCode":"73035","locality":"Göppingen","municipality":{"key":"08117026","name":"Göppingen, Stadt","type":"Große_Kreisstadt"},"district":{"key":"08117","name":"Göppingen","type":"Landkreis"},"federalState":{"key":"08","name":"Baden-Württemberg"}},{"name":"Von-Sprewitz-Str.","postalCode":"73035","locality":"Göppingen","municipality":{"key":"08117026","name":"Göppingen, Stadt","type":"Große_Kreisstadt"},"district":{"key":"08117","name":"Göppingen","type":"Landkreis"},"federalState":{"key":"08","name":"Baden-Württemberg"}},{"name":"Vordere Karlstr.","postalCode":"73033","locality":"Göppingen","municipality":{"key":"08117026","name":"Göppingen, Stadt","type":"Große_Kreisstadt"},"district":{"key":"08117","name":"Göppingen","type":"Landkreis"},"federalState":{"key":"08","name":"Baden-Württemberg"}},{"name":"Vordere Mühlstr.","postalCode":"73035","locality":"Göppingen","municipality":{"key":"08117026","name":"Göppingen, Stadt","type":"Große_Kreisstadt"},"district":{"key":"08117","name":"Göppingen","type":"Landkreis"},"federalState":{"key":"08","name":"Baden-Württemberg"}},{"name":"Vorderer Berg","postalCode":"73035","locality":"Göppingen","municipality":{"key":"08117026","name":"Göppingen, Stadt","type":"Große_Kreisstadt"},"district":{"key":"08117","name":"Göppingen","type":"Landkreis"},"federalState":{"key":"08","name":"Baden-Württemberg"}},{"name":"Wacholderweg","postalCode":"73342","locality":"Bad Ditzenbach","municipality":{"key":"08117006","name":"Bad Ditzenbach","type":"Kreisangehörige_Gemeinde"},"district":{"key":"08117","name":"Göppingen","type":"Landkreis"},"federalState":{"key":"08","name":"Baden-Württemberg"}},{"name":"Waldweg","postalCode":"73342","locality":"Bad Ditzenbach","municipality":{"key":"08117006","name":"Bad Ditzenbach","type":"Kreisangehörige_Gemeinde"},"district":{"key":"08117","name":"Göppingen","type":"Landkreis"},"federalState":{"key":"08","name":"Baden-Württemberg"}},{"name":"Wiesensteiger Str.","postalCode":"73342","locality":"Bad Ditzenbach","municipality":{"key":"08117006","name":"Bad Ditzenbach","type":"Kreisangehörige_Gemeinde"},"district":{"key":"08117","name":"Göppingen","type":"Landkreis"},"federalState":{"key":"08","name":"Baden-Württemberg"}},{"name":"Zeisigweg","postalCode":"73035","locality":"Göppingen","municipality":{"key":"08117026","name":"Göppingen, Stadt","type":"Große_Kreisstadt"},"district":{"key":"08117","name":"Göppingen","type":"Landkreis"},"federalState":{"key":"08","name":"Baden-Württemberg"}},{"name":"Zeppelinstr.","postalCode":"73033","locality":"Göppingen","municipality":{"key":"08117026","name":"Göppingen, Stadt","type":"Große_Kreisstadt"},"district":{"key":"08117","name":"Göppingen","type":"Landkreis"},"federalState":{"key":"08","name":"Baden-Württemberg"}},{"name":"Ziegelstr.","postalCode":"73033","locality":"Göppingen","municipality":{"key":"08117026","name":"Göppingen, Stadt","type":"Große_Kreisstadt"},"district":{"key":"08117","name":"Göppingen","type":"Landkreis"},"federalState":{"key":"08","name":"Baden-Württemberg"}},{"name":"Ziegerhof","postalCode":"73037","locality":"Göppingen","municipality":{"key":"08117026","name":"Göppingen, Stadt","type":"Große_Kreisstadt"},"district":{"key":"08117","name":"Göppingen","type":"Landkreis"},"federalState":{"key":"08","name":"Baden-Württemberg"}},{"name":"Zinnweg","postalCode":"73035","locality":"Göppingen","municipality":{"key":"08117026","name":"Göppingen, Stadt","type":"Große_Kreisstadt"},"district":{"key":"08117","name":"Göppingen","type":"Landkreis"},"federalState":{"key":"08","name":"Baden-Württemberg"}},{"name":"Znaimer Weg","postalCode":"73035","locality":"Göppingen","municipality":{"key":"08117026","name":"Göppingen, Stadt","type":"Große_Kreisstadt"},"district":{"key":"08117","name":"Göppingen","type":"Landkreis"},"federalState":{"key":"08","name":"Baden-Württemberg"}},{"name":"Zur Friedenslinde","postalCode":"73037","locality":"Göppingen","municipality":{"key":"08117026","name":"Göppingen, Stadt","type":"Große_Kreisstadt"},"district":{"key":"08117","name":"Göppingen","type":"Landkreis"},"federalState":{"key":"08","name":"Baden-Württemberg"}},{"name":"Zwittauer Weg","postalCode":"73035","locality":"Göppingen","municipality":{"key":"08117026","name":"Göppingen, Stadt","type":"Große_Kreisstadt"},"district":{"key":"08117","name":"Göppingen","type":"Landkreis"},"federalState":{"key":"08","name":"Baden-Württemberg"}},{"name":"Öchslinstr.","postalCode":"73033","locality":"Göppingen","municipality":{"key":"08117026","name":"Göppingen, Stadt","type":"Große_Kreisstadt"},"district":{"key":"08117","name":"Göppingen","type":"Landkreis"},"federalState":{"key":"08","name":"Baden-Württemberg"}},{"name":"Ödeweg","postalCode":"73035","locality":"Göppingen","municipality":{"key":"08117026","name":"Göppingen, Stadt","type":"Große_Kreisstadt"},"district":{"key":"08117","name":"Göppingen","type":"Landkreis"},"federalState":{"key":"08","name":"Baden-Württemberg"}},{"name":"Österbachstr.","postalCode":"73033","locality":"Göppingen","municipality":{"key":"08117026","name":"Göppingen, Stadt","type":"Große_Kreisstadt"},"district":{"key":"08117","name":"Göppingen","type":"Landkreis"},"federalState":{"key":"08","name":"Baden-Württemberg"}},{"name":"Östliche Linsenholz-Ausfahrt","postalCode":"73037","locality":"Göppingen","municipality":{"key":"08117026","name":"Göppingen, Stadt","type":"Große_Kreisstadt"},"district":{"key":"08117","name":"Göppingen","type":"Landkreis"},"federalState":{"key":"08","name":"Baden-Württemberg"}},{"name":"Östliche Ringstr.","postalCode":"73033","locality":"Göppingen","municipality":{"key":"08117026","name":"Göppingen, Stadt","type":"Große_Kreisstadt"},"district":{"key":"08117","name":"Göppingen","type":"Landkreis"},"federalState":{"key":"08","name":"Baden-Württemberg"}},]