[{"name":"Ahornweg","postalCode":"67483","locality":"Großfischlingen","municipality":{"key":"07337035","name":"Großfischlingen","type":"Kreisangehörige_Gemeinde"},"district":{"key":"07337","name":"Südliche Weinstraße","type":"Landkreis"},"federalState":{"key":"07","name":"Rheinland-Pfalz"}},{"name":"Am Hofstück","postalCode":"67483","locality":"Großfischlingen","municipality":{"key":"07337035","name":"Großfischlingen","type":"Kreisangehörige_Gemeinde"},"district":{"key":"07337","name":"Südliche Weinstraße","type":"Landkreis"},"federalState":{"key":"07","name":"Rheinland-Pfalz"}},{"name":"Am Kirchgarten","postalCode":"67483","locality":"Großfischlingen","municipality":{"key":"07337035","name":"Großfischlingen","type":"Kreisangehörige_Gemeinde"},"district":{"key":"07337","name":"Südliche Weinstraße","type":"Landkreis"},"federalState":{"key":"07","name":"Rheinland-Pfalz"}},{"name":"Friedhofstr.","postalCode":"67483","locality":"Großfischlingen","municipality":{"key":"07337035","name":"Großfischlingen","type":"Kreisangehörige_Gemeinde"},"district":{"key":"07337","name":"Südliche Weinstraße","type":"Landkreis"},"federalState":{"key":"07","name":"Rheinland-Pfalz"}},{"name":"Gartenstr.","postalCode":"67483","locality":"Großfischlingen","municipality":{"key":"07337035","name":"Großfischlingen","type":"Kreisangehörige_Gemeinde"},"district":{"key":"07337","name":"Südliche Weinstraße","type":"Landkreis"},"federalState":{"key":"07","name":"Rheinland-Pfalz"}},{"name":"Hauptstr.","postalCode":"67483","locality":"Großfischlingen","municipality":{"key":"07337035","name":"Großfischlingen","type":"Kreisangehörige_Gemeinde"},"district":{"key":"07337","name":"Südliche Weinstraße","type":"Landkreis"},"federalState":{"key":"07","name":"Rheinland-Pfalz"}},{"name":"Hermann-Hollerith-Str.","postalCode":"67483","locality":"Großfischlingen","municipality":{"key":"07337035","name":"Großfischlingen","type":"Kreisangehörige_Gemeinde"},"district":{"key":"07337","name":"Südliche Weinstraße","type":"Landkreis"},"federalState":{"key":"07","name":"Rheinland-Pfalz"}},{"name":"Oberstr.","postalCode":"67483","locality":"Großfischlingen","municipality":{"key":"07337035","name":"Großfischlingen","type":"Kreisangehörige_Gemeinde"},"district":{"key":"07337","name":"Südliche Weinstraße","type":"Landkreis"},"federalState":{"key":"07","name":"Rheinland-Pfalz"}},{"name":"Unterstr.","postalCode":"67483","locality":"Großfischlingen","municipality":{"key":"07337035","name":"Großfischlingen","type":"Kreisangehörige_Gemeinde"},"district":{"key":"07337","name":"Südliche Weinstraße","type":"Landkreis"},"federalState":{"key":"07","name":"Rheinland-Pfalz"}},]