[{"key":"10122886","name":"Aachwiese","postalCode":"8560","locality":"Märstetten","commune":{"key":"4941","name":"Märstetten","shortName":"Märstetten"},"district":{"key":"2015","name":"Bezirk Weinfelden"},"canton":{"key":"20","code":"TG","name":"Thurgau"},"status":"Real"},{"key":"10044390","name":"Aeuliweg","postalCode":"8560","locality":"Märstetten","commune":{"key":"4941","name":"Märstetten","shortName":"Märstetten"},"district":{"key":"2015","name":"Bezirk Weinfelden"},"canton":{"key":"20","code":"TG","name":"Thurgau"},"status":"Real"},{"key":"10105251","name":"Allenwinden","postalCode":"8560","locality":"Märstetten","commune":{"key":"4941","name":"Märstetten","shortName":"Märstetten"},"district":{"key":"2015","name":"Bezirk Weinfelden"},"canton":{"key":"20","code":"TG","name":"Thurgau"},"status":"Real"},{"key":"10153530","name":"Alpsteinweg","postalCode":"8560","locality":"Märstetten","commune":{"key":"4941","name":"Märstetten","shortName":"Märstetten"},"district":{"key":"2015","name":"Bezirk Weinfelden"},"canton":{"key":"20","code":"TG","name":"Thurgau"},"status":"Real"},{"key":"10097238","name":"Alte Gillhofstrasse","postalCode":"8560","locality":"Märstetten","commune":{"key":"4941","name":"Märstetten","shortName":"Märstetten"},"district":{"key":"2015","name":"Bezirk Weinfelden"},"canton":{"key":"20","code":"TG","name":"Thurgau"},"status":"Real"},{"key":"10043469","name":"Altenklingen","postalCode":"8560","locality":"Märstetten","commune":{"key":"4941","name":"Märstetten","shortName":"Märstetten"},"district":{"key":"2015","name":"Bezirk Weinfelden"},"canton":{"key":"20","code":"TG","name":"Thurgau"},"status":"Real"},{"key":"10044391","name":"Am Bächli","postalCode":"8560","locality":"Märstetten","commune":{"key":"4941","name":"Märstetten","shortName":"Märstetten"},"district":{"key":"2015","name":"Bezirk Weinfelden"},"canton":{"key":"20","code":"TG","name":"Thurgau"},"status":"Real"},{"key":"10070612","name":"Amlikonerstrasse","postalCode":"8560","locality":"Märstetten","commune":{"key":"4941","name":"Märstetten","shortName":"Märstetten"},"district":{"key":"2015","name":"Bezirk Weinfelden"},"canton":{"key":"20","code":"TG","name":"Thurgau"},"status":"Real"},{"key":"10177918","name":"Bahnhofstrasse","postalCode":"8560","locality":"Märstetten","commune":{"key":"4941","name":"Märstetten","shortName":"Märstetten"},"district":{"key":"2015","name":"Bezirk Weinfelden"},"canton":{"key":"20","code":"TG","name":"Thurgau"},"status":"Real"},{"key":"10241198","name":"Birkenhofweg","postalCode":"8560","locality":"Märstetten","commune":{"key":"4941","name":"Märstetten","shortName":"Märstetten"},"district":{"key":"2015","name":"Bezirk Weinfelden"},"canton":{"key":"20","code":"TG","name":"Thurgau"},"status":"Real"},{"key":"10017489","name":"Blumenweg","postalCode":"8560","locality":"Märstetten","commune":{"key":"4941","name":"Märstetten","shortName":"Märstetten"},"district":{"key":"2015","name":"Bezirk Weinfelden"},"canton":{"key":"20","code":"TG","name":"Thurgau"},"status":"Real"},{"key":"10044392","name":"Boltshauserstrasse","postalCode":"8560","locality":"Märstetten","commune":{"key":"4941","name":"Märstetten","shortName":"Märstetten"},"district":{"key":"2015","name":"Bezirk Weinfelden"},"canton":{"key":"20","code":"TG","name":"Thurgau"},"status":"Real"},{"key":"10101833","name":"Breitfeld","postalCode":"8560","locality":"Märstetten","commune":{"key":"4941","name":"Märstetten","shortName":"Märstetten"},"district":{"key":"2015","name":"Bezirk Weinfelden"},"canton":{"key":"20","code":"TG","name":"Thurgau"},"status":"Real"},{"key":"10097239","name":"Brunnenwies","postalCode":"8560","locality":"Märstetten","commune":{"key":"4941","name":"Märstetten","shortName":"Märstetten"},"district":{"key":"2015","name":"Bezirk Weinfelden"},"canton":{"key":"20","code":"TG","name":"Thurgau"},"status":"Real"},{"key":"10116518","name":"Brunnenwiesenstrasse","postalCode":"8560","locality":"Märstetten","commune":{"key":"4941","name":"Märstetten","shortName":"Märstetten"},"district":{"key":"2015","name":"Bezirk Weinfelden"},"canton":{"key":"20","code":"TG","name":"Thurgau"},"status":"Real"},{"key":"10044393","name":"Bühlrain","postalCode":"8560","locality":"Märstetten","commune":{"key":"4941","name":"Märstetten","shortName":"Märstetten"},"district":{"key":"2015","name":"Bezirk Weinfelden"},"canton":{"key":"20","code":"TG","name":"Thurgau"},"status":"Real"},{"key":"10241216","name":"Chemehalde","postalCode":"8560","locality":"Märstetten","commune":{"key":"4941","name":"Märstetten","shortName":"Märstetten"},"district":{"key":"2015","name":"Bezirk Weinfelden"},"canton":{"key":"20","code":"TG","name":"Thurgau"},"status":"Real"},{"key":"10241220","name":"Chrosli","postalCode":"8560","locality":"Märstetten","commune":{"key":"4941","name":"Märstetten","shortName":"Märstetten"},"district":{"key":"2015","name":"Bezirk Weinfelden"},"canton":{"key":"20","code":"TG","name":"Thurgau"},"status":"Real"},{"key":"10097240","name":"Dorfstrasse","postalCode":"8560","locality":"Märstetten","commune":{"key":"4941","name":"Märstetten","shortName":"Märstetten"},"district":{"key":"2015","name":"Bezirk Weinfelden"},"canton":{"key":"20","code":"TG","name":"Thurgau"},"status":"Real"},{"key":"10215343","name":"Dorfwägli","postalCode":"8560","locality":"Märstetten","commune":{"key":"4941","name":"Märstetten","shortName":"Märstetten"},"district":{"key":"2015","name":"Bezirk Weinfelden"},"canton":{"key":"20","code":"TG","name":"Thurgau"},"status":"Real"},{"key":"10044394","name":"Dümpfelstrasse","postalCode":"8560","locality":"Märstetten","commune":{"key":"4941","name":"Märstetten","shortName":"Märstetten"},"district":{"key":"2015","name":"Bezirk Weinfelden"},"canton":{"key":"20","code":"TG","name":"Thurgau"},"status":"Real"},{"key":"10111939","name":"Egelshofen","postalCode":"8560","locality":"Märstetten","commune":{"key":"4941","name":"Märstetten","shortName":"Märstetten"},"district":{"key":"2015","name":"Bezirk Weinfelden"},"canton":{"key":"20","code":"TG","name":"Thurgau"},"status":"Real"},{"key":"10241232","name":"Eglibrunne","postalCode":"8560","locality":"Märstetten","commune":{"key":"4941","name":"Märstetten","shortName":"Märstetten"},"district":{"key":"2015","name":"Bezirk Weinfelden"},"canton":{"key":"20","code":"TG","name":"Thurgau"},"status":"Real"},{"key":"10202173","name":"Emdwiesestrasse","postalCode":"8560","locality":"Märstetten","commune":{"key":"4941","name":"Märstetten","shortName":"Märstetten"},"district":{"key":"2015","name":"Bezirk Weinfelden"},"canton":{"key":"20","code":"TG","name":"Thurgau"},"status":"Real"},{"key":"10241236","name":"Engwangerstrasse","postalCode":"8560","locality":"Märstetten","commune":{"key":"4941","name":"Märstetten","shortName":"Märstetten"},"district":{"key":"2015","name":"Bezirk Weinfelden"},"canton":{"key":"20","code":"TG","name":"Thurgau"},"status":"Real"},{"key":"10044395","name":"Euggelberg","postalCode":"8560","locality":"Märstetten","commune":{"key":"4941","name":"Märstetten","shortName":"Märstetten"},"district":{"key":"2015","name":"Bezirk Weinfelden"},"canton":{"key":"20","code":"TG","name":"Thurgau"},"status":"Real"},{"key":"10070615","name":"Evenhüsli","postalCode":"8560","locality":"Märstetten","commune":{"key":"4941","name":"Märstetten","shortName":"Märstetten"},"district":{"key":"2015","name":"Bezirk Weinfelden"},"canton":{"key":"20","code":"TG","name":"Thurgau"},"status":"Real"},{"key":"10097241","name":"Fabrikstrasse","postalCode":"8560","locality":"Märstetten","commune":{"key":"4941","name":"Märstetten","shortName":"Märstetten"},"district":{"key":"2015","name":"Bezirk Weinfelden"},"canton":{"key":"20","code":"TG","name":"Thurgau"},"status":"Real"},{"key":"10241240","name":"Falenwi","postalCode":"8560","locality":"Märstetten","commune":{"key":"4941","name":"Märstetten","shortName":"Märstetten"},"district":{"key":"2015","name":"Bezirk Weinfelden"},"canton":{"key":"20","code":"TG","name":"Thurgau"},"status":"Real"},{"key":"10044396","name":"Frauenfelderstrasse","postalCode":"8560","locality":"Märstetten","commune":{"key":"4941","name":"Märstetten","shortName":"Märstetten"},"district":{"key":"2015","name":"Bezirk Weinfelden"},"canton":{"key":"20","code":"TG","name":"Thurgau"},"status":"Real"},{"key":"10241248","name":"Fuchsbuel","postalCode":"8560","locality":"Märstetten","commune":{"key":"4941","name":"Märstetten","shortName":"Märstetten"},"district":{"key":"2015","name":"Bezirk Weinfelden"},"canton":{"key":"20","code":"TG","name":"Thurgau"},"status":"Real"},{"key":"10044397","name":"Gartenstrasse","postalCode":"8560","locality":"Märstetten","commune":{"key":"4941","name":"Märstetten","shortName":"Märstetten"},"district":{"key":"2015","name":"Bezirk Weinfelden"},"canton":{"key":"20","code":"TG","name":"Thurgau"},"status":"Real"},{"key":"10183819","name":"Geissbühl","postalCode":"8560","locality":"Märstetten","commune":{"key":"4941","name":"Märstetten","shortName":"Märstetten"},"district":{"key":"2015","name":"Bezirk Weinfelden"},"canton":{"key":"20","code":"TG","name":"Thurgau"},"status":"Real"},{"key":"10147631","name":"Gerbeweg","postalCode":"8560","locality":"Märstetten","commune":{"key":"4941","name":"Märstetten","shortName":"Märstetten"},"district":{"key":"2015","name":"Bezirk Weinfelden"},"canton":{"key":"20","code":"TG","name":"Thurgau"},"status":"Real"},{"key":"10097242","name":"Geroldsaustrasse","postalCode":"8560","locality":"Märstetten","commune":{"key":"4941","name":"Märstetten","shortName":"Märstetten"},"district":{"key":"2015","name":"Bezirk Weinfelden"},"canton":{"key":"20","code":"TG","name":"Thurgau"},"status":"Real"},{"key":"10241189","name":"Gewerbestrasse","postalCode":"8560","locality":"Märstetten","commune":{"key":"4941","name":"Märstetten","shortName":"Märstetten"},"district":{"key":"2015","name":"Bezirk Weinfelden"},"canton":{"key":"20","code":"TG","name":"Thurgau"},"status":"Real"},{"key":"10202228","name":"Giessewise","postalCode":"8560","locality":"Märstetten","commune":{"key":"4941","name":"Märstetten","shortName":"Märstetten"},"district":{"key":"2015","name":"Bezirk Weinfelden"},"canton":{"key":"20","code":"TG","name":"Thurgau"},"status":"Real"},{"key":"10241193","name":"Gillerfeld","postalCode":"8560","locality":"Märstetten","commune":{"key":"4941","name":"Märstetten","shortName":"Märstetten"},"district":{"key":"2015","name":"Bezirk Weinfelden"},"canton":{"key":"20","code":"TG","name":"Thurgau"},"status":"Real"},{"key":"10177104","name":"Gillhof","postalCode":"8560","locality":"Märstetten","commune":{"key":"4941","name":"Märstetten","shortName":"Märstetten"},"district":{"key":"2015","name":"Bezirk Weinfelden"},"canton":{"key":"20","code":"TG","name":"Thurgau"},"status":"Real"},{"key":"10177919","name":"Gillhofstrasse","postalCode":"8560","locality":"Märstetten","commune":{"key":"4941","name":"Märstetten","shortName":"Märstetten"},"district":{"key":"2015","name":"Bezirk Weinfelden"},"canton":{"key":"20","code":"TG","name":"Thurgau"},"status":"Real"},{"key":"10175236","name":"Gillhofstrasse","postalCode":"8560","locality":"Märstetten","commune":{"key":"4941","name":"Märstetten","shortName":"Märstetten"},"district":{"key":"2015","name":"Bezirk Weinfelden"},"canton":{"key":"20","code":"TG","name":"Thurgau"},"status":"Real"},{"key":"10241197","name":"Gillweg","postalCode":"8560","locality":"Märstetten","commune":{"key":"4941","name":"Märstetten","shortName":"Märstetten"},"district":{"key":"2015","name":"Bezirk Weinfelden"},"canton":{"key":"20","code":"TG","name":"Thurgau"},"status":"Real"},{"key":"10133977","name":"Grauer Stein","postalCode":"8560","locality":"Märstetten","commune":{"key":"4941","name":"Märstetten","shortName":"Märstetten"},"district":{"key":"2015","name":"Bezirk Weinfelden"},"canton":{"key":"20","code":"TG","name":"Thurgau"},"status":"Real"},{"key":"10215347","name":"Grauestaa","postalCode":"8560","locality":"Märstetten","commune":{"key":"4941","name":"Märstetten","shortName":"Märstetten"},"district":{"key":"2015","name":"Bezirk Weinfelden"},"canton":{"key":"20","code":"TG","name":"Thurgau"},"status":"Real"},{"key":"10044398","name":"Grubmühle","postalCode":"8560","locality":"Märstetten","commune":{"key":"4941","name":"Märstetten","shortName":"Märstetten"},"district":{"key":"2015","name":"Bezirk Weinfelden"},"canton":{"key":"20","code":"TG","name":"Thurgau"},"status":"Real"},{"key":"10044399","name":"Grubmühlestrasse","postalCode":"8560","locality":"Märstetten","commune":{"key":"4941","name":"Märstetten","shortName":"Märstetten"},"district":{"key":"2015","name":"Bezirk Weinfelden"},"canton":{"key":"20","code":"TG","name":"Thurgau"},"status":"Real"},{"key":"10202193","name":"Gugel","postalCode":"8560","locality":"Märstetten","commune":{"key":"4941","name":"Märstetten","shortName":"Märstetten"},"district":{"key":"2015","name":"Bezirk Weinfelden"},"canton":{"key":"20","code":"TG","name":"Thurgau"},"status":"Real"},{"key":"10241206","name":"Haldenweg","postalCode":"8560","locality":"Märstetten","commune":{"key":"4941","name":"Märstetten","shortName":"Märstetten"},"district":{"key":"2015","name":"Bezirk Weinfelden"},"canton":{"key":"20","code":"TG","name":"Thurgau"},"status":"Real"},{"key":"10241210","name":"Hanselmann","postalCode":"8560","locality":"Märstetten","commune":{"key":"4941","name":"Märstetten","shortName":"Märstetten"},"district":{"key":"2015","name":"Bezirk Weinfelden"},"canton":{"key":"20","code":"TG","name":"Thurgau"},"status":"Real"},{"key":"10097243","name":"Hintere Gillstrasse","postalCode":"8560","locality":"Märstetten","commune":{"key":"4941","name":"Märstetten","shortName":"Märstetten"},"district":{"key":"2015","name":"Bezirk Weinfelden"},"canton":{"key":"20","code":"TG","name":"Thurgau"},"status":"Real"},{"key":"10070617","name":"Höhenweg","postalCode":"8560","locality":"Märstetten","commune":{"key":"4941","name":"Märstetten","shortName":"Märstetten"},"district":{"key":"2015","name":"Bezirk Weinfelden"},"canton":{"key":"20","code":"TG","name":"Thurgau"},"status":"Real"},{"key":"10241226","name":"Horenbachäcker","postalCode":"8560","locality":"Märstetten","commune":{"key":"4941","name":"Märstetten","shortName":"Märstetten"},"district":{"key":"2015","name":"Bezirk Weinfelden"},"canton":{"key":"20","code":"TG","name":"Thurgau"},"status":"Real"},{"key":"10044400","name":"Hubstrasse","postalCode":"8560","locality":"Märstetten","commune":{"key":"4941","name":"Märstetten","shortName":"Märstetten"},"district":{"key":"2015","name":"Bezirk Weinfelden"},"canton":{"key":"20","code":"TG","name":"Thurgau"},"status":"Real"},{"key":"10044401","name":"Hugelshoferstrasse","postalCode":"8560","locality":"Märstetten","commune":{"key":"4941","name":"Märstetten","shortName":"Märstetten"},"district":{"key":"2015","name":"Bezirk Weinfelden"},"canton":{"key":"20","code":"TG","name":"Thurgau"},"status":"Real"},{"key":"10241238","name":"Illbrand","postalCode":"8560","locality":"Märstetten","commune":{"key":"4941","name":"Märstetten","shortName":"Märstetten"},"district":{"key":"2015","name":"Bezirk Weinfelden"},"canton":{"key":"20","code":"TG","name":"Thurgau"},"status":"Real"},{"key":"10141578","name":"Im Dümpfel","postalCode":"8560","locality":"Märstetten","commune":{"key":"4941","name":"Märstetten","shortName":"Märstetten"},"district":{"key":"2015","name":"Bezirk Weinfelden"},"canton":{"key":"20","code":"TG","name":"Thurgau"},"status":"Real"},{"key":"10188972","name":"Im Einfang","postalCode":"8560","locality":"Märstetten","commune":{"key":"4941","name":"Märstetten","shortName":"Märstetten"},"district":{"key":"2015","name":"Bezirk Weinfelden"},"canton":{"key":"20","code":"TG","name":"Thurgau"},"status":"Real"},{"key":"10044402","name":"Im Leim","postalCode":"8560","locality":"Märstetten","commune":{"key":"4941","name":"Märstetten","shortName":"Märstetten"},"district":{"key":"2015","name":"Bezirk Weinfelden"},"canton":{"key":"20","code":"TG","name":"Thurgau"},"status":"Real"},{"key":"10241242","name":"Im Speck","postalCode":"8560","locality":"Märstetten","commune":{"key":"4941","name":"Märstetten","shortName":"Märstetten"},"district":{"key":"2015","name":"Bezirk Weinfelden"},"canton":{"key":"20","code":"TG","name":"Thurgau"},"status":"Real"},{"key":"10110032","name":"Im Steig","postalCode":"8560","locality":"Märstetten","commune":{"key":"4941","name":"Märstetten","shortName":"Märstetten"},"district":{"key":"2015","name":"Bezirk Weinfelden"},"canton":{"key":"20","code":"TG","name":"Thurgau"},"status":"Real"},{"key":"10063716","name":"Im Winkel","postalCode":"8560","locality":"Märstetten","commune":{"key":"4941","name":"Märstetten","shortName":"Märstetten"},"district":{"key":"2015","name":"Bezirk Weinfelden"},"canton":{"key":"20","code":"TG","name":"Thurgau"},"status":"Real"},{"key":"10097244","name":"Im Wygärtli","postalCode":"8560","locality":"Märstetten","commune":{"key":"4941","name":"Märstetten","shortName":"Märstetten"},"district":{"key":"2015","name":"Bezirk Weinfelden"},"canton":{"key":"20","code":"TG","name":"Thurgau"},"status":"Real"},{"key":"10159223","name":"In der Hueb","postalCode":"8560","locality":"Märstetten","commune":{"key":"4941","name":"Märstetten","shortName":"Märstetten"},"district":{"key":"2015","name":"Bezirk Weinfelden"},"canton":{"key":"20","code":"TG","name":"Thurgau"},"status":"Real"},{"key":"10044660","name":"Kehlhofstrasse","postalCode":"8560","locality":"Märstetten","commune":{"key":"4941","name":"Märstetten","shortName":"Märstetten"},"district":{"key":"2015","name":"Bezirk Weinfelden"},"canton":{"key":"20","code":"TG","name":"Thurgau"},"status":"Real"},{"key":"10113311","name":"Kemmenhalde","postalCode":"8560","locality":"Märstetten","commune":{"key":"4941","name":"Märstetten","shortName":"Märstetten"},"district":{"key":"2015","name":"Bezirk Weinfelden"},"canton":{"key":"20","code":"TG","name":"Thurgau"},"status":"Real"},{"key":"10101834","name":"Kirchgasse","postalCode":"8560","locality":"Märstetten","commune":{"key":"4941","name":"Märstetten","shortName":"Märstetten"},"district":{"key":"2015","name":"Bezirk Weinfelden"},"canton":{"key":"20","code":"TG","name":"Thurgau"},"status":"Real"},{"key":"10059380","name":"Klingenmühle","postalCode":"8560","locality":"Märstetten","commune":{"key":"4941","name":"Märstetten","shortName":"Märstetten"},"district":{"key":"2015","name":"Bezirk Weinfelden"},"canton":{"key":"20","code":"TG","name":"Thurgau"},"status":"Real"},{"key":"10097245","name":"Kreuzlingerstrasse","postalCode":"8560","locality":"Märstetten","commune":{"key":"4941","name":"Märstetten","shortName":"Märstetten"},"district":{"key":"2015","name":"Bezirk Weinfelden"},"canton":{"key":"20","code":"TG","name":"Thurgau"},"status":"Real"},{"key":"10241211","name":"Langstrasse","postalCode":"8560","locality":"Märstetten","commune":{"key":"4941","name":"Märstetten","shortName":"Märstetten"},"district":{"key":"2015","name":"Bezirk Weinfelden"},"canton":{"key":"20","code":"TG","name":"Thurgau"},"status":"Real"},{"key":"10201818","name":"Lattehag","postalCode":"8560","locality":"Märstetten","commune":{"key":"4941","name":"Märstetten","shortName":"Märstetten"},"district":{"key":"2015","name":"Bezirk Weinfelden"},"canton":{"key":"20","code":"TG","name":"Thurgau"},"status":"Real"},{"key":"10241215","name":"Lerchenacker","postalCode":"8560","locality":"Märstetten","commune":{"key":"4941","name":"Märstetten","shortName":"Märstetten"},"district":{"key":"2015","name":"Bezirk Weinfelden"},"canton":{"key":"20","code":"TG","name":"Thurgau"},"status":"Real"},{"key":"10149956","name":"Lerchenfeld","postalCode":"8560","locality":"Märstetten","commune":{"key":"4941","name":"Märstetten","shortName":"Märstetten"},"district":{"key":"2015","name":"Bezirk Weinfelden"},"canton":{"key":"20","code":"TG","name":"Thurgau"},"status":"Real"},{"key":"10129563","name":"Lerchenweg","postalCode":"8560","locality":"Märstetten","commune":{"key":"4941","name":"Märstetten","shortName":"Märstetten"},"district":{"key":"2015","name":"Bezirk Weinfelden"},"canton":{"key":"20","code":"TG","name":"Thurgau"},"status":"Real"},{"key":"10044661","name":"Lindenhof","postalCode":"8560","locality":"Märstetten","commune":{"key":"4941","name":"Märstetten","shortName":"Märstetten"},"district":{"key":"2015","name":"Bezirk Weinfelden"},"canton":{"key":"20","code":"TG","name":"Thurgau"},"status":"Real"},{"key":"10241219","name":"Lochstrasse","postalCode":"8560","locality":"Märstetten","commune":{"key":"4941","name":"Märstetten","shortName":"Märstetten"},"district":{"key":"2015","name":"Bezirk Weinfelden"},"canton":{"key":"20","code":"TG","name":"Thurgau"},"status":"Real"},{"key":"10241223","name":"Neue Weinfelderstrasse","postalCode":"8560","locality":"Märstetten","commune":{"key":"4941","name":"Märstetten","shortName":"Märstetten"},"district":{"key":"2015","name":"Bezirk Weinfelden"},"canton":{"key":"20","code":"TG","name":"Thurgau"},"status":"Real"},{"key":"10177920","name":"Oberäuliweg","postalCode":"8560","locality":"Märstetten","commune":{"key":"4941","name":"Märstetten","shortName":"Märstetten"},"district":{"key":"2015","name":"Bezirk Weinfelden"},"canton":{"key":"20","code":"TG","name":"Thurgau"},"status":"Real"},{"key":"10044662","name":"Pfaffengartenweg","postalCode":"8560","locality":"Märstetten","commune":{"key":"4941","name":"Märstetten","shortName":"Märstetten"},"district":{"key":"2015","name":"Bezirk Weinfelden"},"canton":{"key":"20","code":"TG","name":"Thurgau"},"status":"Real"},{"key":"10044663","name":"Pilgerhof","postalCode":"8560","locality":"Märstetten","commune":{"key":"4941","name":"Märstetten","shortName":"Märstetten"},"district":{"key":"2015","name":"Bezirk Weinfelden"},"canton":{"key":"20","code":"TG","name":"Thurgau"},"status":"Real"},{"key":"10200986","name":"Pilgerwäg","postalCode":"8560","locality":"Märstetten","commune":{"key":"4941","name":"Märstetten","shortName":"Märstetten"},"district":{"key":"2015","name":"Bezirk Weinfelden"},"canton":{"key":"20","code":"TG","name":"Thurgau"},"status":"Real"},{"key":"10241239","name":"Räbenacker","postalCode":"8560","locality":"Märstetten","commune":{"key":"4941","name":"Märstetten","shortName":"Märstetten"},"district":{"key":"2015","name":"Bezirk Weinfelden"},"canton":{"key":"20","code":"TG","name":"Thurgau"},"status":"Real"},{"key":"10241243","name":"Radweg","postalCode":"8560","locality":"Märstetten","commune":{"key":"4941","name":"Märstetten","shortName":"Märstetten"},"district":{"key":"2015","name":"Bezirk Weinfelden"},"canton":{"key":"20","code":"TG","name":"Thurgau"},"status":"Real"},{"key":"10097246","name":"Regelwiesenstrasse","postalCode":"8560","locality":"Märstetten","commune":{"key":"4941","name":"Märstetten","shortName":"Märstetten"},"district":{"key":"2015","name":"Bezirk Weinfelden"},"canton":{"key":"20","code":"TG","name":"Thurgau"},"status":"Real"},{"key":"10241251","name":"Rohracker","postalCode":"8560","locality":"Märstetten","commune":{"key":"4941","name":"Märstetten","shortName":"Märstetten"},"district":{"key":"2015","name":"Bezirk Weinfelden"},"canton":{"key":"20","code":"TG","name":"Thurgau"},"status":"Real"},{"key":"10241255","name":"Rosium","postalCode":"8560","locality":"Märstetten","commune":{"key":"4941","name":"Märstetten","shortName":"Märstetten"},"district":{"key":"2015","name":"Bezirk Weinfelden"},"canton":{"key":"20","code":"TG","name":"Thurgau"},"status":"Real"},{"key":"10116519","name":"Ruberbaum","postalCode":"8560","locality":"Märstetten","commune":{"key":"4941","name":"Märstetten","shortName":"Märstetten"},"district":{"key":"2015","name":"Bezirk Weinfelden"},"canton":{"key":"20","code":"TG","name":"Thurgau"},"status":"Real"},{"key":"10044664","name":"Ruberbaumstrasse","postalCode":"8560","locality":"Märstetten","commune":{"key":"4941","name":"Märstetten","shortName":"Märstetten"},"district":{"key":"2015","name":"Bezirk Weinfelden"},"canton":{"key":"20","code":"TG","name":"Thurgau"},"status":"Real"},{"key":"10063718","name":"Sandeggstrasse","postalCode":"8560","locality":"Märstetten","commune":{"key":"4941","name":"Märstetten","shortName":"Märstetten"},"district":{"key":"2015","name":"Bezirk Weinfelden"},"canton":{"key":"20","code":"TG","name":"Thurgau"},"status":"Real"},{"key":"10115195","name":"Säntisstrasse","postalCode":"8560","locality":"Märstetten","commune":{"key":"4941","name":"Märstetten","shortName":"Märstetten"},"district":{"key":"2015","name":"Bezirk Weinfelden"},"canton":{"key":"20","code":"TG","name":"Thurgau"},"status":"Real"},{"key":"10241263","name":"Schalmewinkel","postalCode":"8560","locality":"Märstetten","commune":{"key":"4941","name":"Märstetten","shortName":"Märstetten"},"district":{"key":"2015","name":"Bezirk Weinfelden"},"canton":{"key":"20","code":"TG","name":"Thurgau"},"status":"Real"},{"key":"10241182","name":"Schleifebachweg","postalCode":"8560","locality":"Märstetten","commune":{"key":"4941","name":"Märstetten","shortName":"Märstetten"},"district":{"key":"2015","name":"Bezirk Weinfelden"},"canton":{"key":"20","code":"TG","name":"Thurgau"},"status":"Real"},{"key":"10044665","name":"Schleifestrasse","postalCode":"8560","locality":"Märstetten","commune":{"key":"4941","name":"Märstetten","shortName":"Märstetten"},"district":{"key":"2015","name":"Bezirk Weinfelden"},"canton":{"key":"20","code":"TG","name":"Thurgau"},"status":"Real"},{"key":"10241188","name":"Schluch","postalCode":"8560","locality":"Märstetten","commune":{"key":"4941","name":"Märstetten","shortName":"Märstetten"},"district":{"key":"2015","name":"Bezirk Weinfelden"},"canton":{"key":"20","code":"TG","name":"Thurgau"},"status":"Real"},{"key":"10215350","name":"Schreinerweg","postalCode":"8560","locality":"Märstetten","commune":{"key":"4941","name":"Märstetten","shortName":"Märstetten"},"district":{"key":"2015","name":"Bezirk Weinfelden"},"canton":{"key":"20","code":"TG","name":"Thurgau"},"status":"Real"},{"key":"10097247","name":"Schülerweg","postalCode":"8560","locality":"Märstetten","commune":{"key":"4941","name":"Märstetten","shortName":"Märstetten"},"district":{"key":"2015","name":"Bezirk Weinfelden"},"canton":{"key":"20","code":"TG","name":"Thurgau"},"status":"Real"},{"key":"10241192","name":"Schützenhausstrasse","postalCode":"8560","locality":"Märstetten","commune":{"key":"4941","name":"Märstetten","shortName":"Märstetten"},"district":{"key":"2015","name":"Bezirk Weinfelden"},"canton":{"key":"20","code":"TG","name":"Thurgau"},"status":"Real"},{"key":"10044666","name":"Schützlerweg","postalCode":"8560","locality":"Märstetten","commune":{"key":"4941","name":"Märstetten","shortName":"Märstetten"},"district":{"key":"2015","name":"Bezirk Weinfelden"},"canton":{"key":"20","code":"TG","name":"Thurgau"},"status":"Real"},{"key":"10110033","name":"Sonnenberg","postalCode":"8560","locality":"Märstetten","commune":{"key":"4941","name":"Märstetten","shortName":"Märstetten"},"district":{"key":"2015","name":"Bezirk Weinfelden"},"canton":{"key":"20","code":"TG","name":"Thurgau"},"status":"Real"},{"key":"10167316","name":"Sonnenhaldenstrasse","postalCode":"8560","locality":"Märstetten","commune":{"key":"4941","name":"Märstetten","shortName":"Märstetten"},"district":{"key":"2015","name":"Bezirk Weinfelden"},"canton":{"key":"20","code":"TG","name":"Thurgau"},"status":"Real"},{"key":"10097248","name":"Sonnenhaldenweg","postalCode":"8560","locality":"Märstetten","commune":{"key":"4941","name":"Märstetten","shortName":"Märstetten"},"district":{"key":"2015","name":"Bezirk Weinfelden"},"canton":{"key":"20","code":"TG","name":"Thurgau"},"status":"Real"},{"key":"10101835","name":"Steigweg","postalCode":"8560","locality":"Märstetten","commune":{"key":"4941","name":"Märstetten","shortName":"Märstetten"},"district":{"key":"2015","name":"Bezirk Weinfelden"},"canton":{"key":"20","code":"TG","name":"Thurgau"},"status":"Real"},{"key":"10241246","name":"Trittacker","postalCode":"8560","locality":"Märstetten","commune":{"key":"4941","name":"Märstetten","shortName":"Märstetten"},"district":{"key":"2015","name":"Bezirk Weinfelden"},"canton":{"key":"20","code":"TG","name":"Thurgau"},"status":"Real"},{"key":"10177921","name":"Unteräuliweg","postalCode":"8560","locality":"Märstetten","commune":{"key":"4941","name":"Märstetten","shortName":"Märstetten"},"district":{"key":"2015","name":"Bezirk Weinfelden"},"canton":{"key":"20","code":"TG","name":"Thurgau"},"status":"Real"},{"key":"10046850","name":"Untere Äulistrasse","postalCode":"8560","locality":"Märstetten","commune":{"key":"4941","name":"Märstetten","shortName":"Märstetten"},"district":{"key":"2015","name":"Bezirk Weinfelden"},"canton":{"key":"20","code":"TG","name":"Thurgau"},"status":"Real"},{"key":"10241254","name":"Usserwise","postalCode":"8560","locality":"Märstetten","commune":{"key":"4941","name":"Märstetten","shortName":"Märstetten"},"district":{"key":"2015","name":"Bezirk Weinfelden"},"canton":{"key":"20","code":"TG","name":"Thurgau"},"status":"Real"},{"key":"10241258","name":"Vordere Bühl","postalCode":"8560","locality":"Märstetten","commune":{"key":"4941","name":"Märstetten","shortName":"Märstetten"},"district":{"key":"2015","name":"Bezirk Weinfelden"},"canton":{"key":"20","code":"TG","name":"Thurgau"},"status":"Real"},{"key":"10044667","name":"Webergasse","postalCode":"8560","locality":"Märstetten","commune":{"key":"4941","name":"Märstetten","shortName":"Märstetten"},"district":{"key":"2015","name":"Bezirk Weinfelden"},"canton":{"key":"20","code":"TG","name":"Thurgau"},"status":"Real"},{"key":"10044668","name":"Weiherholz","postalCode":"8560","locality":"Märstetten","commune":{"key":"4941","name":"Märstetten","shortName":"Märstetten"},"district":{"key":"2015","name":"Bezirk Weinfelden"},"canton":{"key":"20","code":"TG","name":"Thurgau"},"status":"Real"},{"key":"10048961","name":"Weinfelderstrasse","postalCode":"8560","locality":"Märstetten","commune":{"key":"4941","name":"Märstetten","shortName":"Märstetten"},"district":{"key":"2015","name":"Bezirk Weinfelden"},"canton":{"key":"20","code":"TG","name":"Thurgau"},"status":"Real"},{"key":"10063721","name":"Wigoltingerstrasse","postalCode":"8560","locality":"Märstetten","commune":{"key":"4941","name":"Märstetten","shortName":"Märstetten"},"district":{"key":"2015","name":"Bezirk Weinfelden"},"canton":{"key":"20","code":"TG","name":"Thurgau"},"status":"Real"},{"key":"10200987","name":"Wiistere","postalCode":"8560","locality":"Märstetten","commune":{"key":"4941","name":"Märstetten","shortName":"Märstetten"},"district":{"key":"2015","name":"Bezirk Weinfelden"},"canton":{"key":"20","code":"TG","name":"Thurgau"},"status":"Real"},{"key":"10241265","name":"Wingertli","postalCode":"8560","locality":"Märstetten","commune":{"key":"4941","name":"Märstetten","shortName":"Märstetten"},"district":{"key":"2015","name":"Bezirk Weinfelden"},"canton":{"key":"20","code":"TG","name":"Thurgau"},"status":"Real"},{"key":"10241269","name":"Winkelweg","postalCode":"8560","locality":"Märstetten","commune":{"key":"4941","name":"Märstetten","shortName":"Märstetten"},"district":{"key":"2015","name":"Bezirk Weinfelden"},"canton":{"key":"20","code":"TG","name":"Thurgau"},"status":"Real"},{"key":"10202195","name":"Woog","postalCode":"8560","locality":"Märstetten","commune":{"key":"4941","name":"Märstetten","shortName":"Märstetten"},"district":{"key":"2015","name":"Bezirk Weinfelden"},"canton":{"key":"20","code":"TG","name":"Thurgau"},"status":"Real"},{"key":"10146269","name":"Ziegelhütte","postalCode":"8560","locality":"Märstetten","commune":{"key":"4941","name":"Märstetten","shortName":"Märstetten"},"district":{"key":"2015","name":"Bezirk Weinfelden"},"canton":{"key":"20","code":"TG","name":"Thurgau"},"status":"Real"},{"key":"10241272","name":"Zielgruben","postalCode":"8560","locality":"Märstetten","commune":{"key":"4941","name":"Märstetten","shortName":"Märstetten"},"district":{"key":"2015","name":"Bezirk Weinfelden"},"canton":{"key":"20","code":"TG","name":"Thurgau"},"status":"Real"},{"key":"10044669","name":"Zielstrasse","postalCode":"8560","locality":"Märstetten","commune":{"key":"4941","name":"Märstetten","shortName":"Märstetten"},"district":{"key":"2015","name":"Bezirk Weinfelden"},"canton":{"key":"20","code":"TG","name":"Thurgau"},"status":"Real"},{"key":"10204980","name":"Zimmerweg","postalCode":"8560","locality":"Märstetten","commune":{"key":"4941","name":"Märstetten","shortName":"Märstetten"},"district":{"key":"2015","name":"Bezirk Weinfelden"},"canton":{"key":"20","code":"TG","name":"Thurgau"},"status":"Real"},]