[{"name":"Ahornweg","postalCode":"71546","locality":"Aspach","municipality":{"key":"08119087","name":"Aspach","type":"Kreisangehörige_Gemeinde"},"district":{"key":"08119","name":"Rems-Murr-Kreis","type":"Landkreis"},"federalState":{"key":"08","name":"Baden-Württemberg"}},{"name":"Akazienweg","postalCode":"71546","locality":"Aspach","municipality":{"key":"08119087","name":"Aspach","type":"Kreisangehörige_Gemeinde"},"district":{"key":"08119","name":"Rems-Murr-Kreis","type":"Landkreis"},"federalState":{"key":"08","name":"Baden-Württemberg"}},{"name":"Albert-Schweitzer-Str.","postalCode":"71546","locality":"Aspach","municipality":{"key":"08119087","name":"Aspach","type":"Kreisangehörige_Gemeinde"},"district":{"key":"08119","name":"Rems-Murr-Kreis","type":"Landkreis"},"federalState":{"key":"08","name":"Baden-Württemberg"}},{"name":"Albrecht-Bengel-Str.","postalCode":"71546","locality":"Aspach","municipality":{"key":"08119087","name":"Aspach","type":"Kreisangehörige_Gemeinde"},"district":{"key":"08119","name":"Rems-Murr-Kreis","type":"Landkreis"},"federalState":{"key":"08","name":"Baden-Württemberg"}},{"name":"Allmersbacher Str.","postalCode":"71546","locality":"Aspach","municipality":{"key":"08119087","name":"Aspach","type":"Kreisangehörige_Gemeinde"},"district":{"key":"08119","name":"Rems-Murr-Kreis","type":"Landkreis"},"federalState":{"key":"08","name":"Baden-Württemberg"}},{"name":"Altenbergweg","postalCode":"71546","locality":"Aspach","municipality":{"key":"08119087","name":"Aspach","type":"Kreisangehörige_Gemeinde"},"district":{"key":"08119","name":"Rems-Murr-Kreis","type":"Landkreis"},"federalState":{"key":"08","name":"Baden-Württemberg"}},{"name":"Alter Weg","postalCode":"71546","locality":"Aspach","municipality":{"key":"08119087","name":"Aspach","type":"Kreisangehörige_Gemeinde"},"district":{"key":"08119","name":"Rems-Murr-Kreis","type":"Landkreis"},"federalState":{"key":"08","name":"Baden-Württemberg"}},{"name":"Amselweg","postalCode":"71546","locality":"Aspach","municipality":{"key":"08119087","name":"Aspach","type":"Kreisangehörige_Gemeinde"},"district":{"key":"08119","name":"Rems-Murr-Kreis","type":"Landkreis"},"federalState":{"key":"08","name":"Baden-Württemberg"}},{"name":"Angerweg","postalCode":"71546","locality":"Aspach","municipality":{"key":"08119087","name":"Aspach","type":"Kreisangehörige_Gemeinde"},"district":{"key":"08119","name":"Rems-Murr-Kreis","type":"Landkreis"},"federalState":{"key":"08","name":"Baden-Württemberg"}},{"name":"August-Lämmle-Str.","postalCode":"71546","locality":"Aspach","municipality":{"key":"08119087","name":"Aspach","type":"Kreisangehörige_Gemeinde"},"district":{"key":"08119","name":"Rems-Murr-Kreis","type":"Landkreis"},"federalState":{"key":"08","name":"Baden-Württemberg"}},{"name":"Aurain","postalCode":"71546","locality":"Aspach","municipality":{"key":"08119087","name":"Aspach","type":"Kreisangehörige_Gemeinde"},"district":{"key":"08119","name":"Rems-Murr-Kreis","type":"Landkreis"},"federalState":{"key":"08","name":"Baden-Württemberg"}},{"name":"Bachstr.","postalCode":"71546","locality":"Aspach","municipality":{"key":"08119087","name":"Aspach","type":"Kreisangehörige_Gemeinde"},"district":{"key":"08119","name":"Rems-Murr-Kreis","type":"Landkreis"},"federalState":{"key":"08","name":"Baden-Württemberg"}},{"name":"Backnanger Str.","postalCode":"71546","locality":"Aspach","municipality":{"key":"08119087","name":"Aspach","type":"Kreisangehörige_Gemeinde"},"district":{"key":"08119","name":"Rems-Murr-Kreis","type":"Landkreis"},"federalState":{"key":"08","name":"Baden-Württemberg"}},{"name":"Bad-Park","postalCode":"71546","locality":"Aspach","municipality":{"key":"08119087","name":"Aspach","type":"Kreisangehörige_Gemeinde"},"district":{"key":"08119","name":"Rems-Murr-Kreis","type":"Landkreis"},"federalState":{"key":"08","name":"Baden-Württemberg"}},{"name":"Badstr.","postalCode":"71546","locality":"Aspach","municipality":{"key":"08119087","name":"Aspach","type":"Kreisangehörige_Gemeinde"},"district":{"key":"08119","name":"Rems-Murr-Kreis","type":"Landkreis"},"federalState":{"key":"08","name":"Baden-Württemberg"}},{"name":"Beethovenstr.","postalCode":"71546","locality":"Aspach","municipality":{"key":"08119087","name":"Aspach","type":"Kreisangehörige_Gemeinde"},"district":{"key":"08119","name":"Rems-Murr-Kreis","type":"Landkreis"},"federalState":{"key":"08","name":"Baden-Württemberg"}},{"name":"Benzstr.","postalCode":"71546","locality":"Aspach","municipality":{"key":"08119087","name":"Aspach","type":"Kreisangehörige_Gemeinde"},"district":{"key":"08119","name":"Rems-Murr-Kreis","type":"Landkreis"},"federalState":{"key":"08","name":"Baden-Württemberg"}},{"name":"Bergstr.","postalCode":"71546","locality":"Aspach","municipality":{"key":"08119087","name":"Aspach","type":"Kreisangehörige_Gemeinde"},"district":{"key":"08119","name":"Rems-Murr-Kreis","type":"Landkreis"},"federalState":{"key":"08","name":"Baden-Württemberg"}},{"name":"Biegel","postalCode":"71546","locality":"Aspach","municipality":{"key":"08119087","name":"Aspach","type":"Kreisangehörige_Gemeinde"},"district":{"key":"08119","name":"Rems-Murr-Kreis","type":"Landkreis"},"federalState":{"key":"08","name":"Baden-Württemberg"}},{"name":"Birkenweg","postalCode":"71546","locality":"Aspach","municipality":{"key":"08119087","name":"Aspach","type":"Kreisangehörige_Gemeinde"},"district":{"key":"08119","name":"Rems-Murr-Kreis","type":"Landkreis"},"federalState":{"key":"08","name":"Baden-Württemberg"}},{"name":"Blumenstr.","postalCode":"71546","locality":"Aspach","municipality":{"key":"08119087","name":"Aspach","type":"Kreisangehörige_Gemeinde"},"district":{"key":"08119","name":"Rems-Murr-Kreis","type":"Landkreis"},"federalState":{"key":"08","name":"Baden-Württemberg"}},{"name":"Boschstr.","postalCode":"71546","locality":"Aspach","municipality":{"key":"08119087","name":"Aspach","type":"Kreisangehörige_Gemeinde"},"district":{"key":"08119","name":"Rems-Murr-Kreis","type":"Landkreis"},"federalState":{"key":"08","name":"Baden-Württemberg"}},{"name":"Bottwarweg","postalCode":"71546","locality":"Aspach","municipality":{"key":"08119087","name":"Aspach","type":"Kreisangehörige_Gemeinde"},"district":{"key":"08119","name":"Rems-Murr-Kreis","type":"Landkreis"},"federalState":{"key":"08","name":"Baden-Württemberg"}},{"name":"Brahmsstr.","postalCode":"71546","locality":"Aspach","municipality":{"key":"08119087","name":"Aspach","type":"Kreisangehörige_Gemeinde"},"district":{"key":"08119","name":"Rems-Murr-Kreis","type":"Landkreis"},"federalState":{"key":"08","name":"Baden-Württemberg"}},{"name":"Breitfeldweg","postalCode":"71546","locality":"Aspach","municipality":{"key":"08119087","name":"Aspach","type":"Kreisangehörige_Gemeinde"},"district":{"key":"08119","name":"Rems-Murr-Kreis","type":"Landkreis"},"federalState":{"key":"08","name":"Baden-Württemberg"}},{"name":"Brentenhauweg","postalCode":"71546","locality":"Aspach","municipality":{"key":"08119087","name":"Aspach","type":"Kreisangehörige_Gemeinde"},"district":{"key":"08119","name":"Rems-Murr-Kreis","type":"Landkreis"},"federalState":{"key":"08","name":"Baden-Württemberg"}},{"name":"Brucknerstr.","postalCode":"71546","locality":"Aspach","municipality":{"key":"08119087","name":"Aspach","type":"Kreisangehörige_Gemeinde"},"district":{"key":"08119","name":"Rems-Murr-Kreis","type":"Landkreis"},"federalState":{"key":"08","name":"Baden-Württemberg"}},{"name":"Brunnengässle","postalCode":"71546","locality":"Aspach","municipality":{"key":"08119087","name":"Aspach","type":"Kreisangehörige_Gemeinde"},"district":{"key":"08119","name":"Rems-Murr-Kreis","type":"Landkreis"},"federalState":{"key":"08","name":"Baden-Württemberg"}},{"name":"Buchenweg","postalCode":"71546","locality":"Aspach","municipality":{"key":"08119087","name":"Aspach","type":"Kreisangehörige_Gemeinde"},"district":{"key":"08119","name":"Rems-Murr-Kreis","type":"Landkreis"},"federalState":{"key":"08","name":"Baden-Württemberg"}},{"name":"Bühlstr.","postalCode":"71546","locality":"Aspach","municipality":{"key":"08119087","name":"Aspach","type":"Kreisangehörige_Gemeinde"},"district":{"key":"08119","name":"Rems-Murr-Kreis","type":"Landkreis"},"federalState":{"key":"08","name":"Baden-Württemberg"}},{"name":"Burgunderstr.","postalCode":"71546","locality":"Aspach","municipality":{"key":"08119087","name":"Aspach","type":"Kreisangehörige_Gemeinde"},"district":{"key":"08119","name":"Rems-Murr-Kreis","type":"Landkreis"},"federalState":{"key":"08","name":"Baden-Württemberg"}},{"name":"Dachshauweg","postalCode":"71546","locality":"Aspach","municipality":{"key":"08119087","name":"Aspach","type":"Kreisangehörige_Gemeinde"},"district":{"key":"08119","name":"Rems-Murr-Kreis","type":"Landkreis"},"federalState":{"key":"08","name":"Baden-Württemberg"}},{"name":"Daimlerstr.","postalCode":"71546","locality":"Aspach","municipality":{"key":"08119087","name":"Aspach","type":"Kreisangehörige_Gemeinde"},"district":{"key":"08119","name":"Rems-Murr-Kreis","type":"Landkreis"},"federalState":{"key":"08","name":"Baden-Württemberg"}},{"name":"Dieselstr.","postalCode":"71546","locality":"Aspach","municipality":{"key":"08119087","name":"Aspach","type":"Kreisangehörige_Gemeinde"},"district":{"key":"08119","name":"Rems-Murr-Kreis","type":"Landkreis"},"federalState":{"key":"08","name":"Baden-Württemberg"}},{"name":"Dornfelderstr.","postalCode":"71546","locality":"Aspach","municipality":{"key":"08119087","name":"Aspach","type":"Kreisangehörige_Gemeinde"},"district":{"key":"08119","name":"Rems-Murr-Kreis","type":"Landkreis"},"federalState":{"key":"08","name":"Baden-Württemberg"}},{"name":"Eberhardstr.","postalCode":"71546","locality":"Aspach","municipality":{"key":"08119087","name":"Aspach","type":"Kreisangehörige_Gemeinde"},"district":{"key":"08119","name":"Rems-Murr-Kreis","type":"Landkreis"},"federalState":{"key":"08","name":"Baden-Württemberg"}},{"name":"Eichendorffstr.","postalCode":"71546","locality":"Aspach","municipality":{"key":"08119087","name":"Aspach","type":"Kreisangehörige_Gemeinde"},"district":{"key":"08119","name":"Rems-Murr-Kreis","type":"Landkreis"},"federalState":{"key":"08","name":"Baden-Württemberg"}},{"name":"Eichenweg","postalCode":"71546","locality":"Aspach","municipality":{"key":"08119087","name":"Aspach","type":"Kreisangehörige_Gemeinde"},"district":{"key":"08119","name":"Rems-Murr-Kreis","type":"Landkreis"},"federalState":{"key":"08","name":"Baden-Württemberg"}},{"name":"Eisbergweg","postalCode":"71546","locality":"Aspach","municipality":{"key":"08119087","name":"Aspach","type":"Kreisangehörige_Gemeinde"},"district":{"key":"08119","name":"Rems-Murr-Kreis","type":"Landkreis"},"federalState":{"key":"08","name":"Baden-Württemberg"}},{"name":"Entenstr.","postalCode":"71546","locality":"Aspach","municipality":{"key":"08119087","name":"Aspach","type":"Kreisangehörige_Gemeinde"},"district":{"key":"08119","name":"Rems-Murr-Kreis","type":"Landkreis"},"federalState":{"key":"08","name":"Baden-Württemberg"}},{"name":"Erlenweg","postalCode":"71546","locality":"Aspach","municipality":{"key":"08119087","name":"Aspach","type":"Kreisangehörige_Gemeinde"},"district":{"key":"08119","name":"Rems-Murr-Kreis","type":"Landkreis"},"federalState":{"key":"08","name":"Baden-Württemberg"}},{"name":"Essiggasse","postalCode":"71546","locality":"Aspach","municipality":{"key":"08119087","name":"Aspach","type":"Kreisangehörige_Gemeinde"},"district":{"key":"08119","name":"Rems-Murr-Kreis","type":"Landkreis"},"federalState":{"key":"08","name":"Baden-Württemberg"}},{"name":"Falkenweg","postalCode":"71546","locality":"Aspach","municipality":{"key":"08119087","name":"Aspach","type":"Kreisangehörige_Gemeinde"},"district":{"key":"08119","name":"Rems-Murr-Kreis","type":"Landkreis"},"federalState":{"key":"08","name":"Baden-Württemberg"}},{"name":"Fasanenweg","postalCode":"71546","locality":"Aspach","municipality":{"key":"08119087","name":"Aspach","type":"Kreisangehörige_Gemeinde"},"district":{"key":"08119","name":"Rems-Murr-Kreis","type":"Landkreis"},"federalState":{"key":"08","name":"Baden-Württemberg"}},{"name":"Finkenweg","postalCode":"71546","locality":"Aspach","municipality":{"key":"08119087","name":"Aspach","type":"Kreisangehörige_Gemeinde"},"district":{"key":"08119","name":"Rems-Murr-Kreis","type":"Landkreis"},"federalState":{"key":"08","name":"Baden-Württemberg"}},{"name":"Fleckenackerweg","postalCode":"71546","locality":"Aspach","municipality":{"key":"08119087","name":"Aspach","type":"Kreisangehörige_Gemeinde"},"district":{"key":"08119","name":"Rems-Murr-Kreis","type":"Landkreis"},"federalState":{"key":"08","name":"Baden-Württemberg"}},{"name":"Fliederstr.","postalCode":"71546","locality":"Aspach","municipality":{"key":"08119087","name":"Aspach","type":"Kreisangehörige_Gemeinde"},"district":{"key":"08119","name":"Rems-Murr-Kreis","type":"Landkreis"},"federalState":{"key":"08","name":"Baden-Württemberg"}},{"name":"Freihof","postalCode":"71546","locality":"Aspach","municipality":{"key":"08119087","name":"Aspach","type":"Kreisangehörige_Gemeinde"},"district":{"key":"08119","name":"Rems-Murr-Kreis","type":"Landkreis"},"federalState":{"key":"08","name":"Baden-Württemberg"}},{"name":"Freihofgärten","postalCode":"71546","locality":"Aspach","municipality":{"key":"08119087","name":"Aspach","type":"Kreisangehörige_Gemeinde"},"district":{"key":"08119","name":"Rems-Murr-Kreis","type":"Landkreis"},"federalState":{"key":"08","name":"Baden-Württemberg"}},{"name":"Freudenstadter Str.","postalCode":"71546","locality":"Aspach","municipality":{"key":"08119087","name":"Aspach","type":"Kreisangehörige_Gemeinde"},"district":{"key":"08119","name":"Rems-Murr-Kreis","type":"Landkreis"},"federalState":{"key":"08","name":"Baden-Württemberg"}},{"name":"Friedhofweg","postalCode":"71546","locality":"Aspach","municipality":{"key":"08119087","name":"Aspach","type":"Kreisangehörige_Gemeinde"},"district":{"key":"08119","name":"Rems-Murr-Kreis","type":"Landkreis"},"federalState":{"key":"08","name":"Baden-Württemberg"}},{"name":"Friedrich-List-Str.","postalCode":"71546","locality":"Aspach","municipality":{"key":"08119087","name":"Aspach","type":"Kreisangehörige_Gemeinde"},"district":{"key":"08119","name":"Rems-Murr-Kreis","type":"Landkreis"},"federalState":{"key":"08","name":"Baden-Württemberg"}},{"name":"Friedrichstr.","postalCode":"71546","locality":"Aspach","municipality":{"key":"08119087","name":"Aspach","type":"Kreisangehörige_Gemeinde"},"district":{"key":"08119","name":"Rems-Murr-Kreis","type":"Landkreis"},"federalState":{"key":"08","name":"Baden-Württemberg"}},{"name":"Fürstenhof","postalCode":"71546","locality":"Aspach","municipality":{"key":"08119087","name":"Aspach","type":"Kreisangehörige_Gemeinde"},"district":{"key":"08119","name":"Rems-Murr-Kreis","type":"Landkreis"},"federalState":{"key":"08","name":"Baden-Württemberg"}},{"name":"Fürstenhofer Str.","postalCode":"71546","locality":"Aspach","municipality":{"key":"08119087","name":"Aspach","type":"Kreisangehörige_Gemeinde"},"district":{"key":"08119","name":"Rems-Murr-Kreis","type":"Landkreis"},"federalState":{"key":"08","name":"Baden-Württemberg"}},{"name":"Gartenstr.","postalCode":"71546","locality":"Aspach","municipality":{"key":"08119087","name":"Aspach","type":"Kreisangehörige_Gemeinde"},"district":{"key":"08119","name":"Rems-Murr-Kreis","type":"Landkreis"},"federalState":{"key":"08","name":"Baden-Württemberg"}},{"name":"Gehrnweg","postalCode":"71546","locality":"Aspach","municipality":{"key":"08119087","name":"Aspach","type":"Kreisangehörige_Gemeinde"},"district":{"key":"08119","name":"Rems-Murr-Kreis","type":"Landkreis"},"federalState":{"key":"08","name":"Baden-Württemberg"}},{"name":"Goethestr.","postalCode":"71546","locality":"Aspach","municipality":{"key":"08119087","name":"Aspach","type":"Kreisangehörige_Gemeinde"},"district":{"key":"08119","name":"Rems-Murr-Kreis","type":"Landkreis"},"federalState":{"key":"08","name":"Baden-Württemberg"}},{"name":"Griesbergsträßchen","postalCode":"71546","locality":"Aspach","municipality":{"key":"08119087","name":"Aspach","type":"Kreisangehörige_Gemeinde"},"district":{"key":"08119","name":"Rems-Murr-Kreis","type":"Landkreis"},"federalState":{"key":"08","name":"Baden-Württemberg"}},{"name":"Grießbergstr.","postalCode":"71546","locality":"Aspach","municipality":{"key":"08119087","name":"Aspach","type":"Kreisangehörige_Gemeinde"},"district":{"key":"08119","name":"Rems-Murr-Kreis","type":"Landkreis"},"federalState":{"key":"08","name":"Baden-Württemberg"}},{"name":"Großaspacher Str.","postalCode":"71546","locality":"Aspach","municipality":{"key":"08119087","name":"Aspach","type":"Kreisangehörige_Gemeinde"},"district":{"key":"08119","name":"Rems-Murr-Kreis","type":"Landkreis"},"federalState":{"key":"08","name":"Baden-Württemberg"}},{"name":"Haldenweg","postalCode":"71546","locality":"Aspach","municipality":{"key":"08119087","name":"Aspach","type":"Kreisangehörige_Gemeinde"},"district":{"key":"08119","name":"Rems-Murr-Kreis","type":"Landkreis"},"federalState":{"key":"08","name":"Baden-Württemberg"}},{"name":"Hangweg","postalCode":"71546","locality":"Aspach","municipality":{"key":"08119087","name":"Aspach","type":"Kreisangehörige_Gemeinde"},"district":{"key":"08119","name":"Rems-Murr-Kreis","type":"Landkreis"},"federalState":{"key":"08","name":"Baden-Württemberg"}},{"name":"Hardtwaldstr.","postalCode":"71546","locality":"Aspach","municipality":{"key":"08119087","name":"Aspach","type":"Kreisangehörige_Gemeinde"},"district":{"key":"08119","name":"Rems-Murr-Kreis","type":"Landkreis"},"federalState":{"key":"08","name":"Baden-Württemberg"}},{"name":"Hasengasse","postalCode":"71546","locality":"Aspach","municipality":{"key":"08119087","name":"Aspach","type":"Kreisangehörige_Gemeinde"},"district":{"key":"08119","name":"Rems-Murr-Kreis","type":"Landkreis"},"federalState":{"key":"08","name":"Baden-Württemberg"}},{"name":"Hauffstr.","postalCode":"71546","locality":"Aspach","municipality":{"key":"08119087","name":"Aspach","type":"Kreisangehörige_Gemeinde"},"district":{"key":"08119","name":"Rems-Murr-Kreis","type":"Landkreis"},"federalState":{"key":"08","name":"Baden-Württemberg"}},{"name":"Häulesweg","postalCode":"71546","locality":"Aspach","municipality":{"key":"08119087","name":"Aspach","type":"Kreisangehörige_Gemeinde"},"district":{"key":"08119","name":"Rems-Murr-Kreis","type":"Landkreis"},"federalState":{"key":"08","name":"Baden-Württemberg"}},{"name":"Hauptstr.","postalCode":"71546","locality":"Aspach","municipality":{"key":"08119087","name":"Aspach","type":"Kreisangehörige_Gemeinde"},"district":{"key":"08119","name":"Rems-Murr-Kreis","type":"Landkreis"},"federalState":{"key":"08","name":"Baden-Württemberg"}},{"name":"Haydnstr.","postalCode":"71546","locality":"Aspach","municipality":{"key":"08119087","name":"Aspach","type":"Kreisangehörige_Gemeinde"},"district":{"key":"08119","name":"Rems-Murr-Kreis","type":"Landkreis"},"federalState":{"key":"08","name":"Baden-Württemberg"}},{"name":"Hegelstr.","postalCode":"71546","locality":"Aspach","municipality":{"key":"08119087","name":"Aspach","type":"Kreisangehörige_Gemeinde"},"district":{"key":"08119","name":"Rems-Murr-Kreis","type":"Landkreis"},"federalState":{"key":"08","name":"Baden-Württemberg"}},{"name":"Heilbronner Str.","postalCode":"71546","locality":"Aspach","municipality":{"key":"08119087","name":"Aspach","type":"Kreisangehörige_Gemeinde"},"district":{"key":"08119","name":"Rems-Murr-Kreis","type":"Landkreis"},"federalState":{"key":"08","name":"Baden-Württemberg"}},{"name":"Heilgentalweg","postalCode":"71546","locality":"Aspach","municipality":{"key":"08119087","name":"Aspach","type":"Kreisangehörige_Gemeinde"},"district":{"key":"08119","name":"Rems-Murr-Kreis","type":"Landkreis"},"federalState":{"key":"08","name":"Baden-Württemberg"}},{"name":"Heiligentalstr.","postalCode":"71546","locality":"Aspach","municipality":{"key":"08119087","name":"Aspach","type":"Kreisangehörige_Gemeinde"},"district":{"key":"08119","name":"Rems-Murr-Kreis","type":"Landkreis"},"federalState":{"key":"08","name":"Baden-Württemberg"}},{"name":"Herderstr.","postalCode":"71546","locality":"Aspach","municipality":{"key":"08119087","name":"Aspach","type":"Kreisangehörige_Gemeinde"},"district":{"key":"08119","name":"Rems-Murr-Kreis","type":"Landkreis"},"federalState":{"key":"08","name":"Baden-Württemberg"}},{"name":"Hermann-Schadt-Str.","postalCode":"71546","locality":"Aspach","municipality":{"key":"08119087","name":"Aspach","type":"Kreisangehörige_Gemeinde"},"district":{"key":"08119","name":"Rems-Murr-Kreis","type":"Landkreis"},"federalState":{"key":"08","name":"Baden-Württemberg"}},{"name":"Hermann-Schmid-Str.","postalCode":"71546","locality":"Aspach","municipality":{"key":"08119087","name":"Aspach","type":"Kreisangehörige_Gemeinde"},"district":{"key":"08119","name":"Rems-Murr-Kreis","type":"Landkreis"},"federalState":{"key":"08","name":"Baden-Württemberg"}},{"name":"Herzogstr.","postalCode":"71546","locality":"Aspach","municipality":{"key":"08119087","name":"Aspach","type":"Kreisangehörige_Gemeinde"},"district":{"key":"08119","name":"Rems-Murr-Kreis","type":"Landkreis"},"federalState":{"key":"08","name":"Baden-Württemberg"}},{"name":"Heuweg","postalCode":"71546","locality":"Aspach","municipality":{"key":"08119087","name":"Aspach","type":"Kreisangehörige_Gemeinde"},"district":{"key":"08119","name":"Rems-Murr-Kreis","type":"Landkreis"},"federalState":{"key":"08","name":"Baden-Württemberg"}},{"name":"Hinterer Berg","postalCode":"71546","locality":"Aspach","municipality":{"key":"08119087","name":"Aspach","type":"Kreisangehörige_Gemeinde"},"district":{"key":"08119","name":"Rems-Murr-Kreis","type":"Landkreis"},"federalState":{"key":"08","name":"Baden-Württemberg"}},{"name":"Hirschhauweg","postalCode":"71546","locality":"Aspach","municipality":{"key":"08119087","name":"Aspach","type":"Kreisangehörige_Gemeinde"},"district":{"key":"08119","name":"Rems-Murr-Kreis","type":"Landkreis"},"federalState":{"key":"08","name":"Baden-Württemberg"}},{"name":"Hofackerstr.","postalCode":"71546","locality":"Aspach","municipality":{"key":"08119087","name":"Aspach","type":"Kreisangehörige_Gemeinde"},"district":{"key":"08119","name":"Rems-Murr-Kreis","type":"Landkreis"},"federalState":{"key":"08","name":"Baden-Württemberg"}},{"name":"Hohe Str.","postalCode":"71546","locality":"Aspach","municipality":{"key":"08119087","name":"Aspach","type":"Kreisangehörige_Gemeinde"},"district":{"key":"08119","name":"Rems-Murr-Kreis","type":"Landkreis"},"federalState":{"key":"08","name":"Baden-Württemberg"}},{"name":"Hohrotstr.","postalCode":"71546","locality":"Aspach","municipality":{"key":"08119087","name":"Aspach","type":"Kreisangehörige_Gemeinde"},"district":{"key":"08119","name":"Rems-Murr-Kreis","type":"Landkreis"},"federalState":{"key":"08","name":"Baden-Württemberg"}},{"name":"Hölderlinstr.","postalCode":"71546","locality":"Aspach","municipality":{"key":"08119087","name":"Aspach","type":"Kreisangehörige_Gemeinde"},"district":{"key":"08119","name":"Rems-Murr-Kreis","type":"Landkreis"},"federalState":{"key":"08","name":"Baden-Württemberg"}},{"name":"Hornungshofer Weg","postalCode":"71546","locality":"Aspach","municipality":{"key":"08119087","name":"Aspach","type":"Kreisangehörige_Gemeinde"},"district":{"key":"08119","name":"Rems-Murr-Kreis","type":"Landkreis"},"federalState":{"key":"08","name":"Baden-Württemberg"}},{"name":"Hügelstr.","postalCode":"71546","locality":"Aspach","municipality":{"key":"08119087","name":"Aspach","type":"Kreisangehörige_Gemeinde"},"district":{"key":"08119","name":"Rems-Murr-Kreis","type":"Landkreis"},"federalState":{"key":"08","name":"Baden-Württemberg"}},{"name":"Im Brühle","postalCode":"71546","locality":"Aspach","municipality":{"key":"08119087","name":"Aspach","type":"Kreisangehörige_Gemeinde"},"district":{"key":"08119","name":"Rems-Murr-Kreis","type":"Landkreis"},"federalState":{"key":"08","name":"Baden-Württemberg"}},{"name":"Im Mühlfeld","postalCode":"71546","locality":"Aspach","municipality":{"key":"08119087","name":"Aspach","type":"Kreisangehörige_Gemeinde"},"district":{"key":"08119","name":"Rems-Murr-Kreis","type":"Landkreis"},"federalState":{"key":"08","name":"Baden-Württemberg"}},{"name":"Im Rohr","postalCode":"71546","locality":"Aspach","municipality":{"key":"08119087","name":"Aspach","type":"Kreisangehörige_Gemeinde"},"district":{"key":"08119","name":"Rems-Murr-Kreis","type":"Landkreis"},"federalState":{"key":"08","name":"Baden-Württemberg"}},{"name":"Im Schützlen","postalCode":"71546","locality":"Aspach","municipality":{"key":"08119087","name":"Aspach","type":"Kreisangehörige_Gemeinde"},"district":{"key":"08119","name":"Rems-Murr-Kreis","type":"Landkreis"},"federalState":{"key":"08","name":"Baden-Württemberg"}},{"name":"Im Vogelsang","postalCode":"71546","locality":"Aspach","municipality":{"key":"08119087","name":"Aspach","type":"Kreisangehörige_Gemeinde"},"district":{"key":"08119","name":"Rems-Murr-Kreis","type":"Landkreis"},"federalState":{"key":"08","name":"Baden-Württemberg"}},{"name":"Im Wiesengrund","postalCode":"71546","locality":"Aspach","municipality":{"key":"08119087","name":"Aspach","type":"Kreisangehörige_Gemeinde"},"district":{"key":"08119","name":"Rems-Murr-Kreis","type":"Landkreis"},"federalState":{"key":"08","name":"Baden-Württemberg"}},{"name":"Jahnstr.","postalCode":"71546","locality":"Aspach","municipality":{"key":"08119087","name":"Aspach","type":"Kreisangehörige_Gemeinde"},"district":{"key":"08119","name":"Rems-Murr-Kreis","type":"Landkreis"},"federalState":{"key":"08","name":"Baden-Württemberg"}},{"name":"Johannes-Brenz-Str.","postalCode":"71546","locality":"Aspach","municipality":{"key":"08119087","name":"Aspach","type":"Kreisangehörige_Gemeinde"},"district":{"key":"08119","name":"Rems-Murr-Kreis","type":"Landkreis"},"federalState":{"key":"08","name":"Baden-Württemberg"}},{"name":"Kantstr.","postalCode":"71546","locality":"Aspach","municipality":{"key":"08119087","name":"Aspach","type":"Kreisangehörige_Gemeinde"},"district":{"key":"08119","name":"Rems-Murr-Kreis","type":"Landkreis"},"federalState":{"key":"08","name":"Baden-Württemberg"}},{"name":"Karlshof","postalCode":"71546","locality":"Aspach","municipality":{"key":"08119087","name":"Aspach","type":"Kreisangehörige_Gemeinde"},"district":{"key":"08119","name":"Rems-Murr-Kreis","type":"Landkreis"},"federalState":{"key":"08","name":"Baden-Württemberg"}},{"name":"Karlstr.","postalCode":"71546","locality":"Aspach","municipality":{"key":"08119087","name":"Aspach","type":"Kreisangehörige_Gemeinde"},"district":{"key":"08119","name":"Rems-Murr-Kreis","type":"Landkreis"},"federalState":{"key":"08","name":"Baden-Württemberg"}},{"name":"Katharinenweg","postalCode":"71546","locality":"Aspach","municipality":{"key":"08119087","name":"Aspach","type":"Kreisangehörige_Gemeinde"},"district":{"key":"08119","name":"Rems-Murr-Kreis","type":"Landkreis"},"federalState":{"key":"08","name":"Baden-Württemberg"}},{"name":"Kelterstr.","postalCode":"71546","locality":"Aspach","municipality":{"key":"08119087","name":"Aspach","type":"Kreisangehörige_Gemeinde"},"district":{"key":"08119","name":"Rems-Murr-Kreis","type":"Landkreis"},"federalState":{"key":"08","name":"Baden-Württemberg"}},{"name":"Kelterweg","postalCode":"71546","locality":"Aspach","municipality":{"key":"08119087","name":"Aspach","type":"Kreisangehörige_Gemeinde"},"district":{"key":"08119","name":"Rems-Murr-Kreis","type":"Landkreis"},"federalState":{"key":"08","name":"Baden-Württemberg"}},{"name":"Keplerstr.","postalCode":"71546","locality":"Aspach","municipality":{"key":"08119087","name":"Aspach","type":"Kreisangehörige_Gemeinde"},"district":{"key":"08119","name":"Rems-Murr-Kreis","type":"Landkreis"},"federalState":{"key":"08","name":"Baden-Württemberg"}},{"name":"Kernerstr.","postalCode":"71546","locality":"Aspach","municipality":{"key":"08119087","name":"Aspach","type":"Kreisangehörige_Gemeinde"},"district":{"key":"08119","name":"Rems-Murr-Kreis","type":"Landkreis"},"federalState":{"key":"08","name":"Baden-Württemberg"}},{"name":"Kirchberger Str.","postalCode":"71546","locality":"Aspach","municipality":{"key":"08119087","name":"Aspach","type":"Kreisangehörige_Gemeinde"},"district":{"key":"08119","name":"Rems-Murr-Kreis","type":"Landkreis"},"federalState":{"key":"08","name":"Baden-Württemberg"}},{"name":"Kirchstr.","postalCode":"71546","locality":"Aspach","municipality":{"key":"08119087","name":"Aspach","type":"Kreisangehörige_Gemeinde"},"district":{"key":"08119","name":"Rems-Murr-Kreis","type":"Landkreis"},"federalState":{"key":"08","name":"Baden-Württemberg"}},{"name":"Kleinaspacher Str.","postalCode":"71546","locality":"Aspach","municipality":{"key":"08119087","name":"Aspach","type":"Kreisangehörige_Gemeinde"},"district":{"key":"08119","name":"Rems-Murr-Kreis","type":"Landkreis"},"federalState":{"key":"08","name":"Baden-Württemberg"}},{"name":"Kohlklingensträßchen","postalCode":"71546","locality":"Aspach","municipality":{"key":"08119087","name":"Aspach","type":"Kreisangehörige_Gemeinde"},"district":{"key":"08119","name":"Rems-Murr-Kreis","type":"Landkreis"},"federalState":{"key":"08","name":"Baden-Württemberg"}},{"name":"Königsträßchen","postalCode":"71546","locality":"Aspach","municipality":{"key":"08119087","name":"Aspach","type":"Kreisangehörige_Gemeinde"},"district":{"key":"08119","name":"Rems-Murr-Kreis","type":"Landkreis"},"federalState":{"key":"08","name":"Baden-Württemberg"}},{"name":"Konrad-Weiser-Str.","postalCode":"71546","locality":"Aspach","municipality":{"key":"08119087","name":"Aspach","type":"Kreisangehörige_Gemeinde"},"district":{"key":"08119","name":"Rems-Murr-Kreis","type":"Landkreis"},"federalState":{"key":"08","name":"Baden-Württemberg"}},{"name":"Krummenbachweg","postalCode":"71546","locality":"Aspach","municipality":{"key":"08119087","name":"Aspach","type":"Kreisangehörige_Gemeinde"},"district":{"key":"08119","name":"Rems-Murr-Kreis","type":"Landkreis"},"federalState":{"key":"08","name":"Baden-Württemberg"}},{"name":"Kutschenweg","postalCode":"71546","locality":"Aspach","municipality":{"key":"08119087","name":"Aspach","type":"Kreisangehörige_Gemeinde"},"district":{"key":"08119","name":"Rems-Murr-Kreis","type":"Landkreis"},"federalState":{"key":"08","name":"Baden-Württemberg"}},{"name":"Lange Gasse","postalCode":"71546","locality":"Aspach","municipality":{"key":"08119087","name":"Aspach","type":"Kreisangehörige_Gemeinde"},"district":{"key":"08119","name":"Rems-Murr-Kreis","type":"Landkreis"},"federalState":{"key":"08","name":"Baden-Württemberg"}},{"name":"Lärchenallee","postalCode":"71546","locality":"Aspach","municipality":{"key":"08119087","name":"Aspach","type":"Kreisangehörige_Gemeinde"},"district":{"key":"08119","name":"Rems-Murr-Kreis","type":"Landkreis"},"federalState":{"key":"08","name":"Baden-Württemberg"}},{"name":"Leibnizstr.","postalCode":"71546","locality":"Aspach","municipality":{"key":"08119087","name":"Aspach","type":"Kreisangehörige_Gemeinde"},"district":{"key":"08119","name":"Rems-Murr-Kreis","type":"Landkreis"},"federalState":{"key":"08","name":"Baden-Württemberg"}},{"name":"Lembergerstr.","postalCode":"71546","locality":"Aspach","municipality":{"key":"08119087","name":"Aspach","type":"Kreisangehörige_Gemeinde"},"district":{"key":"08119","name":"Rems-Murr-Kreis","type":"Landkreis"},"federalState":{"key":"08","name":"Baden-Württemberg"}},{"name":"Lerchenstr.","postalCode":"71546","locality":"Aspach","municipality":{"key":"08119087","name":"Aspach","type":"Kreisangehörige_Gemeinde"},"district":{"key":"08119","name":"Rems-Murr-Kreis","type":"Landkreis"},"federalState":{"key":"08","name":"Baden-Württemberg"}},{"name":"Lichtenbergweg","postalCode":"71546","locality":"Aspach","municipality":{"key":"08119087","name":"Aspach","type":"Kreisangehörige_Gemeinde"},"district":{"key":"08119","name":"Rems-Murr-Kreis","type":"Landkreis"},"federalState":{"key":"08","name":"Baden-Württemberg"}},{"name":"Lilienweg","postalCode":"71546","locality":"Aspach","municipality":{"key":"08119087","name":"Aspach","type":"Kreisangehörige_Gemeinde"},"district":{"key":"08119","name":"Rems-Murr-Kreis","type":"Landkreis"},"federalState":{"key":"08","name":"Baden-Württemberg"}},{"name":"Lindenweg","postalCode":"71546","locality":"Aspach","municipality":{"key":"08119087","name":"Aspach","type":"Kreisangehörige_Gemeinde"},"district":{"key":"08119","name":"Rems-Murr-Kreis","type":"Landkreis"},"federalState":{"key":"08","name":"Baden-Württemberg"}},{"name":"Mairichweg","postalCode":"71546","locality":"Aspach","municipality":{"key":"08119087","name":"Aspach","type":"Kreisangehörige_Gemeinde"},"district":{"key":"08119","name":"Rems-Murr-Kreis","type":"Landkreis"},"federalState":{"key":"08","name":"Baden-Württemberg"}},{"name":"Marbacher Str.","postalCode":"71546","locality":"Aspach","municipality":{"key":"08119087","name":"Aspach","type":"Kreisangehörige_Gemeinde"},"district":{"key":"08119","name":"Rems-Murr-Kreis","type":"Landkreis"},"federalState":{"key":"08","name":"Baden-Württemberg"}},{"name":"Mittelpfadweg","postalCode":"71546","locality":"Aspach","municipality":{"key":"08119087","name":"Aspach","type":"Kreisangehörige_Gemeinde"},"district":{"key":"08119","name":"Rems-Murr-Kreis","type":"Landkreis"},"federalState":{"key":"08","name":"Baden-Württemberg"}},{"name":"Mittlerer Schönenbergweg","postalCode":"71546","locality":"Aspach","municipality":{"key":"08119087","name":"Aspach","type":"Kreisangehörige_Gemeinde"},"district":{"key":"08119","name":"Rems-Murr-Kreis","type":"Landkreis"},"federalState":{"key":"08","name":"Baden-Württemberg"}},{"name":"Mönchsklingenweg","postalCode":"71546","locality":"Aspach","municipality":{"key":"08119087","name":"Aspach","type":"Kreisangehörige_Gemeinde"},"district":{"key":"08119","name":"Rems-Murr-Kreis","type":"Landkreis"},"federalState":{"key":"08","name":"Baden-Württemberg"}},{"name":"Mörikestr.","postalCode":"71546","locality":"Aspach","municipality":{"key":"08119087","name":"Aspach","type":"Kreisangehörige_Gemeinde"},"district":{"key":"08119","name":"Rems-Murr-Kreis","type":"Landkreis"},"federalState":{"key":"08","name":"Baden-Württemberg"}},{"name":"Mozartstr.","postalCode":"71546","locality":"Aspach","municipality":{"key":"08119087","name":"Aspach","type":"Kreisangehörige_Gemeinde"},"district":{"key":"08119","name":"Rems-Murr-Kreis","type":"Landkreis"},"federalState":{"key":"08","name":"Baden-Württemberg"}},{"name":"Mühlgasse","postalCode":"71546","locality":"Aspach","municipality":{"key":"08119087","name":"Aspach","type":"Kreisangehörige_Gemeinde"},"district":{"key":"08119","name":"Rems-Murr-Kreis","type":"Landkreis"},"federalState":{"key":"08","name":"Baden-Württemberg"}},{"name":"Mühlhau","postalCode":"71546","locality":"Aspach","municipality":{"key":"08119087","name":"Aspach","type":"Kreisangehörige_Gemeinde"},"district":{"key":"08119","name":"Rems-Murr-Kreis","type":"Landkreis"},"federalState":{"key":"08","name":"Baden-Württemberg"}},{"name":"Muldenscherre","postalCode":"71546","locality":"Aspach","municipality":{"key":"08119087","name":"Aspach","type":"Kreisangehörige_Gemeinde"},"district":{"key":"08119","name":"Rems-Murr-Kreis","type":"Landkreis"},"federalState":{"key":"08","name":"Baden-Württemberg"}},{"name":"Narzissenweg","postalCode":"71546","locality":"Aspach","municipality":{"key":"08119087","name":"Aspach","type":"Kreisangehörige_Gemeinde"},"district":{"key":"08119","name":"Rems-Murr-Kreis","type":"Landkreis"},"federalState":{"key":"08","name":"Baden-Württemberg"}},{"name":"Nelkenstr.","postalCode":"71546","locality":"Aspach","municipality":{"key":"08119087","name":"Aspach","type":"Kreisangehörige_Gemeinde"},"district":{"key":"08119","name":"Rems-Murr-Kreis","type":"Landkreis"},"federalState":{"key":"08","name":"Baden-Württemberg"}},{"name":"Nonnenäcker","postalCode":"71546","locality":"Aspach","municipality":{"key":"08119087","name":"Aspach","type":"Kreisangehörige_Gemeinde"},"district":{"key":"08119","name":"Rems-Murr-Kreis","type":"Landkreis"},"federalState":{"key":"08","name":"Baden-Württemberg"}},{"name":"Obere Mühle","postalCode":"71546","locality":"Aspach","municipality":{"key":"08119087","name":"Aspach","type":"Kreisangehörige_Gemeinde"},"district":{"key":"08119","name":"Rems-Murr-Kreis","type":"Landkreis"},"federalState":{"key":"08","name":"Baden-Württemberg"}},{"name":"Oberer Hairlesgehrnweg","postalCode":"71546","locality":"Aspach","municipality":{"key":"08119087","name":"Aspach","type":"Kreisangehörige_Gemeinde"},"district":{"key":"08119","name":"Rems-Murr-Kreis","type":"Landkreis"},"federalState":{"key":"08","name":"Baden-Württemberg"}},{"name":"Oberstenfelder Str.","postalCode":"71546","locality":"Aspach","municipality":{"key":"08119087","name":"Aspach","type":"Kreisangehörige_Gemeinde"},"district":{"key":"08119","name":"Rems-Murr-Kreis","type":"Landkreis"},"federalState":{"key":"08","name":"Baden-Württemberg"}},{"name":"Ochsenhauweg","postalCode":"71546","locality":"Aspach","municipality":{"key":"08119087","name":"Aspach","type":"Kreisangehörige_Gemeinde"},"district":{"key":"08119","name":"Rems-Murr-Kreis","type":"Landkreis"},"federalState":{"key":"08","name":"Baden-Württemberg"}},{"name":"Olgaweg","postalCode":"71546","locality":"Aspach","municipality":{"key":"08119087","name":"Aspach","type":"Kreisangehörige_Gemeinde"},"district":{"key":"08119","name":"Rems-Murr-Kreis","type":"Landkreis"},"federalState":{"key":"08","name":"Baden-Württemberg"}},{"name":"Panoramastr.","postalCode":"71546","locality":"Aspach","municipality":{"key":"08119087","name":"Aspach","type":"Kreisangehörige_Gemeinde"},"district":{"key":"08119","name":"Rems-Murr-Kreis","type":"Landkreis"},"federalState":{"key":"08","name":"Baden-Württemberg"}},{"name":"Pappelweg","postalCode":"71546","locality":"Aspach","municipality":{"key":"08119087","name":"Aspach","type":"Kreisangehörige_Gemeinde"},"district":{"key":"08119","name":"Rems-Murr-Kreis","type":"Landkreis"},"federalState":{"key":"08","name":"Baden-Württemberg"}},{"name":"Plattenstr.","postalCode":"71546","locality":"Aspach","municipality":{"key":"08119087","name":"Aspach","type":"Kreisangehörige_Gemeinde"},"district":{"key":"08119","name":"Rems-Murr-Kreis","type":"Landkreis"},"federalState":{"key":"08","name":"Baden-Württemberg"}},{"name":"Prinzensteinweg","postalCode":"71546","locality":"Aspach","municipality":{"key":"08119087","name":"Aspach","type":"Kreisangehörige_Gemeinde"},"district":{"key":"08119","name":"Rems-Murr-Kreis","type":"Landkreis"},"federalState":{"key":"08","name":"Baden-Württemberg"}},{"name":"Quellenstr.","postalCode":"71546","locality":"Aspach","municipality":{"key":"08119087","name":"Aspach","type":"Kreisangehörige_Gemeinde"},"district":{"key":"08119","name":"Rems-Murr-Kreis","type":"Landkreis"},"federalState":{"key":"08","name":"Baden-Württemberg"}},{"name":"Reichenberger Weg","postalCode":"71546","locality":"Aspach","municipality":{"key":"08119087","name":"Aspach","type":"Kreisangehörige_Gemeinde"},"district":{"key":"08119","name":"Rems-Murr-Kreis","type":"Landkreis"},"federalState":{"key":"08","name":"Baden-Württemberg"}},{"name":"Richard-Wagner-Str.","postalCode":"71546","locality":"Aspach","municipality":{"key":"08119087","name":"Aspach","type":"Kreisangehörige_Gemeinde"},"district":{"key":"08119","name":"Rems-Murr-Kreis","type":"Landkreis"},"federalState":{"key":"08","name":"Baden-Württemberg"}},{"name":"Rielingshäuser Str.","postalCode":"71546","locality":"Aspach","municipality":{"key":"08119087","name":"Aspach","type":"Kreisangehörige_Gemeinde"},"district":{"key":"08119","name":"Rems-Murr-Kreis","type":"Landkreis"},"federalState":{"key":"08","name":"Baden-Württemberg"}},{"name":"Rieslingweg","postalCode":"71546","locality":"Aspach","municipality":{"key":"08119087","name":"Aspach","type":"Kreisangehörige_Gemeinde"},"district":{"key":"08119","name":"Rems-Murr-Kreis","type":"Landkreis"},"federalState":{"key":"08","name":"Baden-Württemberg"}},{"name":"Rietenauer Str.","postalCode":"71546","locality":"Aspach","municipality":{"key":"08119087","name":"Aspach","type":"Kreisangehörige_Gemeinde"},"district":{"key":"08119","name":"Rems-Murr-Kreis","type":"Landkreis"},"federalState":{"key":"08","name":"Baden-Württemberg"}},{"name":"Röhrach","postalCode":"71546","locality":"Aspach","municipality":{"key":"08119087","name":"Aspach","type":"Kreisangehörige_Gemeinde"},"district":{"key":"08119","name":"Rems-Murr-Kreis","type":"Landkreis"},"federalState":{"key":"08","name":"Baden-Württemberg"}},{"name":"Rosenstr.","postalCode":"71546","locality":"Aspach","municipality":{"key":"08119087","name":"Aspach","type":"Kreisangehörige_Gemeinde"},"district":{"key":"08119","name":"Rems-Murr-Kreis","type":"Landkreis"},"federalState":{"key":"08","name":"Baden-Württemberg"}},{"name":"Roter Bühl","postalCode":"71546","locality":"Aspach","municipality":{"key":"08119087","name":"Aspach","type":"Kreisangehörige_Gemeinde"},"district":{"key":"08119","name":"Rems-Murr-Kreis","type":"Landkreis"},"federalState":{"key":"08","name":"Baden-Württemberg"}},{"name":"Rübengasse","postalCode":"71546","locality":"Aspach","municipality":{"key":"08119087","name":"Aspach","type":"Kreisangehörige_Gemeinde"},"district":{"key":"08119","name":"Rems-Murr-Kreis","type":"Landkreis"},"federalState":{"key":"08","name":"Baden-Württemberg"}},{"name":"Saatschulweg","postalCode":"71546","locality":"Aspach","municipality":{"key":"08119087","name":"Aspach","type":"Kreisangehörige_Gemeinde"},"district":{"key":"08119","name":"Rems-Murr-Kreis","type":"Landkreis"},"federalState":{"key":"08","name":"Baden-Württemberg"}},{"name":"Scheffelstr.","postalCode":"71546","locality":"Aspach","municipality":{"key":"08119087","name":"Aspach","type":"Kreisangehörige_Gemeinde"},"district":{"key":"08119","name":"Rems-Murr-Kreis","type":"Landkreis"},"federalState":{"key":"08","name":"Baden-Württemberg"}},{"name":"Schick'sche Planie","postalCode":"71546","locality":"Aspach","municipality":{"key":"08119087","name":"Aspach","type":"Kreisangehörige_Gemeinde"},"district":{"key":"08119","name":"Rems-Murr-Kreis","type":"Landkreis"},"federalState":{"key":"08","name":"Baden-Württemberg"}},{"name":"Schillerstr.","postalCode":"71546","locality":"Aspach","municipality":{"key":"08119087","name":"Aspach","type":"Kreisangehörige_Gemeinde"},"district":{"key":"08119","name":"Rems-Murr-Kreis","type":"Landkreis"},"federalState":{"key":"08","name":"Baden-Württemberg"}},{"name":"Schöntaler Str.","postalCode":"71546","locality":"Aspach","municipality":{"key":"08119087","name":"Aspach","type":"Kreisangehörige_Gemeinde"},"district":{"key":"08119","name":"Rems-Murr-Kreis","type":"Landkreis"},"federalState":{"key":"08","name":"Baden-Württemberg"}},{"name":"Schubertstr.","postalCode":"71546","locality":"Aspach","municipality":{"key":"08119087","name":"Aspach","type":"Kreisangehörige_Gemeinde"},"district":{"key":"08119","name":"Rems-Murr-Kreis","type":"Landkreis"},"federalState":{"key":"08","name":"Baden-Württemberg"}},{"name":"Schulstr.","postalCode":"71546","locality":"Aspach","municipality":{"key":"08119087","name":"Aspach","type":"Kreisangehörige_Gemeinde"},"district":{"key":"08119","name":"Rems-Murr-Kreis","type":"Landkreis"},"federalState":{"key":"08","name":"Baden-Württemberg"}},{"name":"Schwabstr.","postalCode":"71546","locality":"Aspach","municipality":{"key":"08119087","name":"Aspach","type":"Kreisangehörige_Gemeinde"},"district":{"key":"08119","name":"Rems-Murr-Kreis","type":"Landkreis"},"federalState":{"key":"08","name":"Baden-Württemberg"}},{"name":"Schwarzackerstr.","postalCode":"71546","locality":"Aspach","municipality":{"key":"08119087","name":"Aspach","type":"Kreisangehörige_Gemeinde"},"district":{"key":"08119","name":"Rems-Murr-Kreis","type":"Landkreis"},"federalState":{"key":"08","name":"Baden-Württemberg"}},{"name":"Schweinsbergweg","postalCode":"71546","locality":"Aspach","municipality":{"key":"08119087","name":"Aspach","type":"Kreisangehörige_Gemeinde"},"district":{"key":"08119","name":"Rems-Murr-Kreis","type":"Landkreis"},"federalState":{"key":"08","name":"Baden-Württemberg"}},{"name":"Seestr.","postalCode":"71546","locality":"Aspach","municipality":{"key":"08119087","name":"Aspach","type":"Kreisangehörige_Gemeinde"},"district":{"key":"08119","name":"Rems-Murr-Kreis","type":"Landkreis"},"federalState":{"key":"08","name":"Baden-Württemberg"}},{"name":"Siemensstr.","postalCode":"71546","locality":"Aspach","municipality":{"key":"08119087","name":"Aspach","type":"Kreisangehörige_Gemeinde"},"district":{"key":"08119","name":"Rems-Murr-Kreis","type":"Landkreis"},"federalState":{"key":"08","name":"Baden-Württemberg"}},{"name":"Silcherstr.","postalCode":"71546","locality":"Aspach","municipality":{"key":"08119087","name":"Aspach","type":"Kreisangehörige_Gemeinde"},"district":{"key":"08119","name":"Rems-Murr-Kreis","type":"Landkreis"},"federalState":{"key":"08","name":"Baden-Württemberg"}},{"name":"Silvanerstr.","postalCode":"71546","locality":"Aspach","municipality":{"key":"08119087","name":"Aspach","type":"Kreisangehörige_Gemeinde"},"district":{"key":"08119","name":"Rems-Murr-Kreis","type":"Landkreis"},"federalState":{"key":"08","name":"Baden-Württemberg"}},{"name":"Sinzenburg","postalCode":"71546","locality":"Aspach","municipality":{"key":"08119087","name":"Aspach","type":"Kreisangehörige_Gemeinde"},"district":{"key":"08119","name":"Rems-Murr-Kreis","type":"Landkreis"},"federalState":{"key":"08","name":"Baden-Württemberg"}},{"name":"Skulpturenpark Lapidarium","postalCode":"71546","locality":"Aspach","municipality":{"key":"08119087","name":"Aspach","type":"Kreisangehörige_Gemeinde"},"district":{"key":"08119","name":"Rems-Murr-Kreis","type":"Landkreis"},"federalState":{"key":"08","name":"Baden-Württemberg"}},{"name":"Sommerrain","postalCode":"71546","locality":"Aspach","municipality":{"key":"08119087","name":"Aspach","type":"Kreisangehörige_Gemeinde"},"district":{"key":"08119","name":"Rems-Murr-Kreis","type":"Landkreis"},"federalState":{"key":"08","name":"Baden-Württemberg"}},{"name":"Sonnenhalde","postalCode":"71546","locality":"Aspach","municipality":{"key":"08119087","name":"Aspach","type":"Kreisangehörige_Gemeinde"},"district":{"key":"08119","name":"Rems-Murr-Kreis","type":"Landkreis"},"federalState":{"key":"08","name":"Baden-Württemberg"}},{"name":"Spengelgasse","postalCode":"71546","locality":"Aspach","municipality":{"key":"08119087","name":"Aspach","type":"Kreisangehörige_Gemeinde"},"district":{"key":"08119","name":"Rems-Murr-Kreis","type":"Landkreis"},"federalState":{"key":"08","name":"Baden-Württemberg"}},{"name":"Stegmühlenweg","postalCode":"71546","locality":"Aspach","municipality":{"key":"08119087","name":"Aspach","type":"Kreisangehörige_Gemeinde"},"district":{"key":"08119","name":"Rems-Murr-Kreis","type":"Landkreis"},"federalState":{"key":"08","name":"Baden-Württemberg"}},{"name":"Steinbruchweg","postalCode":"71546","locality":"Aspach","municipality":{"key":"08119087","name":"Aspach","type":"Kreisangehörige_Gemeinde"},"district":{"key":"08119","name":"Rems-Murr-Kreis","type":"Landkreis"},"federalState":{"key":"08","name":"Baden-Württemberg"}},{"name":"Steingrube","postalCode":"71546","locality":"Aspach","municipality":{"key":"08119087","name":"Aspach","type":"Kreisangehörige_Gemeinde"},"district":{"key":"08119","name":"Rems-Murr-Kreis","type":"Landkreis"},"federalState":{"key":"08","name":"Baden-Württemberg"}},{"name":"Steinhausen","postalCode":"71546","locality":"Aspach","municipality":{"key":"08119087","name":"Aspach","type":"Kreisangehörige_Gemeinde"},"district":{"key":"08119","name":"Rems-Murr-Kreis","type":"Landkreis"},"federalState":{"key":"08","name":"Baden-Württemberg"}},{"name":"Strümpfelbacher Str.","postalCode":"71546","locality":"Aspach","municipality":{"key":"08119087","name":"Aspach","type":"Kreisangehörige_Gemeinde"},"district":{"key":"08119","name":"Rems-Murr-Kreis","type":"Landkreis"},"federalState":{"key":"08","name":"Baden-Württemberg"}},{"name":"Strütweg","postalCode":"71546","locality":"Aspach","municipality":{"key":"08119087","name":"Aspach","type":"Kreisangehörige_Gemeinde"},"district":{"key":"08119","name":"Rems-Murr-Kreis","type":"Landkreis"},"federalState":{"key":"08","name":"Baden-Württemberg"}},{"name":"Talstr.","postalCode":"71546","locality":"Aspach","municipality":{"key":"08119087","name":"Aspach","type":"Kreisangehörige_Gemeinde"},"district":{"key":"08119","name":"Rems-Murr-Kreis","type":"Landkreis"},"federalState":{"key":"08","name":"Baden-Württemberg"}},{"name":"Teplitzer Weg","postalCode":"71546","locality":"Aspach","municipality":{"key":"08119087","name":"Aspach","type":"Kreisangehörige_Gemeinde"},"district":{"key":"08119","name":"Rems-Murr-Kreis","type":"Landkreis"},"federalState":{"key":"08","name":"Baden-Württemberg"}},{"name":"Thaddäus-Troll-Str.","postalCode":"71546","locality":"Aspach","municipality":{"key":"08119087","name":"Aspach","type":"Kreisangehörige_Gemeinde"},"district":{"key":"08119","name":"Rems-Murr-Kreis","type":"Landkreis"},"federalState":{"key":"08","name":"Baden-Württemberg"}},{"name":"Theodor-Heuss-Str.","postalCode":"71546","locality":"Aspach","municipality":{"key":"08119087","name":"Aspach","type":"Kreisangehörige_Gemeinde"},"district":{"key":"08119","name":"Rems-Murr-Kreis","type":"Landkreis"},"federalState":{"key":"08","name":"Baden-Württemberg"}},{"name":"Trinkgasse","postalCode":"71546","locality":"Aspach","municipality":{"key":"08119087","name":"Aspach","type":"Kreisangehörige_Gemeinde"},"district":{"key":"08119","name":"Rems-Murr-Kreis","type":"Landkreis"},"federalState":{"key":"08","name":"Baden-Württemberg"}},{"name":"Tripsweg","postalCode":"71546","locality":"Aspach","municipality":{"key":"08119087","name":"Aspach","type":"Kreisangehörige_Gemeinde"},"district":{"key":"08119","name":"Rems-Murr-Kreis","type":"Landkreis"},"federalState":{"key":"08","name":"Baden-Württemberg"}},{"name":"Trollingerstr.","postalCode":"71546","locality":"Aspach","municipality":{"key":"08119087","name":"Aspach","type":"Kreisangehörige_Gemeinde"},"district":{"key":"08119","name":"Rems-Murr-Kreis","type":"Landkreis"},"federalState":{"key":"08","name":"Baden-Württemberg"}},{"name":"Tulpenstr.","postalCode":"71546","locality":"Aspach","municipality":{"key":"08119087","name":"Aspach","type":"Kreisangehörige_Gemeinde"},"district":{"key":"08119","name":"Rems-Murr-Kreis","type":"Landkreis"},"federalState":{"key":"08","name":"Baden-Württemberg"}},{"name":"Uhlandstr.","postalCode":"71546","locality":"Aspach","municipality":{"key":"08119087","name":"Aspach","type":"Kreisangehörige_Gemeinde"},"district":{"key":"08119","name":"Rems-Murr-Kreis","type":"Landkreis"},"federalState":{"key":"08","name":"Baden-Württemberg"}},{"name":"Ulrichstr.","postalCode":"71546","locality":"Aspach","municipality":{"key":"08119087","name":"Aspach","type":"Kreisangehörige_Gemeinde"},"district":{"key":"08119","name":"Rems-Murr-Kreis","type":"Landkreis"},"federalState":{"key":"08","name":"Baden-Württemberg"}},{"name":"Völkleshofen","postalCode":"71546","locality":"Aspach","municipality":{"key":"08119087","name":"Aspach","type":"Kreisangehörige_Gemeinde"},"district":{"key":"08119","name":"Rems-Murr-Kreis","type":"Landkreis"},"federalState":{"key":"08","name":"Baden-Württemberg"}},{"name":"Vorderer Berg","postalCode":"71546","locality":"Aspach","municipality":{"key":"08119087","name":"Aspach","type":"Kreisangehörige_Gemeinde"},"district":{"key":"08119","name":"Rems-Murr-Kreis","type":"Landkreis"},"federalState":{"key":"08","name":"Baden-Württemberg"}},{"name":"Wachtelgasse","postalCode":"71546","locality":"Aspach","municipality":{"key":"08119087","name":"Aspach","type":"Kreisangehörige_Gemeinde"},"district":{"key":"08119","name":"Rems-Murr-Kreis","type":"Landkreis"},"federalState":{"key":"08","name":"Baden-Württemberg"}},{"name":"Wartesteinbruchweg","postalCode":"71546","locality":"Aspach","municipality":{"key":"08119087","name":"Aspach","type":"Kreisangehörige_Gemeinde"},"district":{"key":"08119","name":"Rems-Murr-Kreis","type":"Landkreis"},"federalState":{"key":"08","name":"Baden-Württemberg"}},{"name":"Warthof","postalCode":"71546","locality":"Aspach","municipality":{"key":"08119087","name":"Aspach","type":"Kreisangehörige_Gemeinde"},"district":{"key":"08119","name":"Rems-Murr-Kreis","type":"Landkreis"},"federalState":{"key":"08","name":"Baden-Württemberg"}},{"name":"Warthofer Weg","postalCode":"71546","locality":"Aspach","municipality":{"key":"08119087","name":"Aspach","type":"Kreisangehörige_Gemeinde"},"district":{"key":"08119","name":"Rems-Murr-Kreis","type":"Landkreis"},"federalState":{"key":"08","name":"Baden-Württemberg"}},{"name":"Weiherstr.","postalCode":"71546","locality":"Aspach","municipality":{"key":"08119087","name":"Aspach","type":"Kreisangehörige_Gemeinde"},"district":{"key":"08119","name":"Rems-Murr-Kreis","type":"Landkreis"},"federalState":{"key":"08","name":"Baden-Württemberg"}},{"name":"Weinbergweg","postalCode":"71546","locality":"Aspach","municipality":{"key":"08119087","name":"Aspach","type":"Kreisangehörige_Gemeinde"},"district":{"key":"08119","name":"Rems-Murr-Kreis","type":"Landkreis"},"federalState":{"key":"08","name":"Baden-Württemberg"}},{"name":"Weinsteigweg","postalCode":"71546","locality":"Aspach","municipality":{"key":"08119087","name":"Aspach","type":"Kreisangehörige_Gemeinde"},"district":{"key":"08119","name":"Rems-Murr-Kreis","type":"Landkreis"},"federalState":{"key":"08","name":"Baden-Württemberg"}},{"name":"Weinstr.","postalCode":"71546","locality":"Aspach","municipality":{"key":"08119087","name":"Aspach","type":"Kreisangehörige_Gemeinde"},"district":{"key":"08119","name":"Rems-Murr-Kreis","type":"Landkreis"},"federalState":{"key":"08","name":"Baden-Württemberg"}},{"name":"Wilhelmstr.","postalCode":"71546","locality":"Aspach","municipality":{"key":"08119087","name":"Aspach","type":"Kreisangehörige_Gemeinde"},"district":{"key":"08119","name":"Rems-Murr-Kreis","type":"Landkreis"},"federalState":{"key":"08","name":"Baden-Württemberg"}},{"name":"Winterhaldenweg","postalCode":"71546","locality":"Aspach","municipality":{"key":"08119087","name":"Aspach","type":"Kreisangehörige_Gemeinde"},"district":{"key":"08119","name":"Rems-Murr-Kreis","type":"Landkreis"},"federalState":{"key":"08","name":"Baden-Württemberg"}},{"name":"Winzerstr.","postalCode":"71546","locality":"Aspach","municipality":{"key":"08119087","name":"Aspach","type":"Kreisangehörige_Gemeinde"},"district":{"key":"08119","name":"Rems-Murr-Kreis","type":"Landkreis"},"federalState":{"key":"08","name":"Baden-Württemberg"}},{"name":"Wolfsklingentalstr.","postalCode":"71546","locality":"Aspach","municipality":{"key":"08119087","name":"Aspach","type":"Kreisangehörige_Gemeinde"},"district":{"key":"08119","name":"Rems-Murr-Kreis","type":"Landkreis"},"federalState":{"key":"08","name":"Baden-Württemberg"}},{"name":"Wüstenbacher Weg","postalCode":"71546","locality":"Aspach","municipality":{"key":"08119087","name":"Aspach","type":"Kreisangehörige_Gemeinde"},"district":{"key":"08119","name":"Rems-Murr-Kreis","type":"Landkreis"},"federalState":{"key":"08","name":"Baden-Württemberg"}},]