[{"name":"Allendorfer Allee","postalCode":"36280","locality":"Oberaula","municipality":{"key":"06634019","name":"Oberaula","type":"Kreisangehörige_Gemeinde"},"district":{"key":"06634","name":"Schwalm-Eder-Kreis","type":"Landkreis"},"federalState":{"key":"06","name":"Hessen"}},{"name":"Alsfelder Str.","postalCode":"36280","locality":"Oberaula","municipality":{"key":"06634019","name":"Oberaula","type":"Kreisangehörige_Gemeinde"},"district":{"key":"06634","name":"Schwalm-Eder-Kreis","type":"Landkreis"},"federalState":{"key":"06","name":"Hessen"}},{"name":"Am Birket","postalCode":"36280","locality":"Oberaula","municipality":{"key":"06634019","name":"Oberaula","type":"Kreisangehörige_Gemeinde"},"district":{"key":"06634","name":"Schwalm-Eder-Kreis","type":"Landkreis"},"federalState":{"key":"06","name":"Hessen"}},{"name":"Am Damm","postalCode":"36280","locality":"Oberaula","municipality":{"key":"06634019","name":"Oberaula","type":"Kreisangehörige_Gemeinde"},"district":{"key":"06634","name":"Schwalm-Eder-Kreis","type":"Landkreis"},"federalState":{"key":"06","name":"Hessen"}},{"name":"Am Frauenberg","postalCode":"36280","locality":"Oberaula","municipality":{"key":"06634019","name":"Oberaula","type":"Kreisangehörige_Gemeinde"},"district":{"key":"06634","name":"Schwalm-Eder-Kreis","type":"Landkreis"},"federalState":{"key":"06","name":"Hessen"}},{"name":"Am Goldrain","postalCode":"36280","locality":"Oberaula","municipality":{"key":"06634019","name":"Oberaula","type":"Kreisangehörige_Gemeinde"},"district":{"key":"06634","name":"Schwalm-Eder-Kreis","type":"Landkreis"},"federalState":{"key":"06","name":"Hessen"}},{"name":"Am Graben","postalCode":"36280","locality":"Oberaula","municipality":{"key":"06634019","name":"Oberaula","type":"Kreisangehörige_Gemeinde"},"district":{"key":"06634","name":"Schwalm-Eder-Kreis","type":"Landkreis"},"federalState":{"key":"06","name":"Hessen"}},{"name":"Am Hang","postalCode":"36280","locality":"Oberaula","municipality":{"key":"06634019","name":"Oberaula","type":"Kreisangehörige_Gemeinde"},"district":{"key":"06634","name":"Schwalm-Eder-Kreis","type":"Landkreis"},"federalState":{"key":"06","name":"Hessen"}},{"name":"Am Kirschgarten","postalCode":"36280","locality":"Oberaula","municipality":{"key":"06634019","name":"Oberaula","type":"Kreisangehörige_Gemeinde"},"district":{"key":"06634","name":"Schwalm-Eder-Kreis","type":"Landkreis"},"federalState":{"key":"06","name":"Hessen"}},{"name":"Am Kupferacker","postalCode":"36280","locality":"Oberaula","municipality":{"key":"06634019","name":"Oberaula","type":"Kreisangehörige_Gemeinde"},"district":{"key":"06634","name":"Schwalm-Eder-Kreis","type":"Landkreis"},"federalState":{"key":"06","name":"Hessen"}},{"name":"Am Rain","postalCode":"36280","locality":"Oberaula","municipality":{"key":"06634019","name":"Oberaula","type":"Kreisangehörige_Gemeinde"},"district":{"key":"06634","name":"Schwalm-Eder-Kreis","type":"Landkreis"},"federalState":{"key":"06","name":"Hessen"}},{"name":"Am Rotacker","postalCode":"36280","locality":"Oberaula","municipality":{"key":"06634019","name":"Oberaula","type":"Kreisangehörige_Gemeinde"},"district":{"key":"06634","name":"Schwalm-Eder-Kreis","type":"Landkreis"},"federalState":{"key":"06","name":"Hessen"}},{"name":"Am Sandacker","postalCode":"36280","locality":"Oberaula","municipality":{"key":"06634019","name":"Oberaula","type":"Kreisangehörige_Gemeinde"},"district":{"key":"06634","name":"Schwalm-Eder-Kreis","type":"Landkreis"},"federalState":{"key":"06","name":"Hessen"}},{"name":"Am Schorbach","postalCode":"36280","locality":"Oberaula","municipality":{"key":"06634019","name":"Oberaula","type":"Kreisangehörige_Gemeinde"},"district":{"key":"06634","name":"Schwalm-Eder-Kreis","type":"Landkreis"},"federalState":{"key":"06","name":"Hessen"}},{"name":"Amselweg","postalCode":"36280","locality":"Oberaula","municipality":{"key":"06634019","name":"Oberaula","type":"Kreisangehörige_Gemeinde"},"district":{"key":"06634","name":"Schwalm-Eder-Kreis","type":"Landkreis"},"federalState":{"key":"06","name":"Hessen"}},{"name":"Am Siegen","postalCode":"36280","locality":"Oberaula","municipality":{"key":"06634019","name":"Oberaula","type":"Kreisangehörige_Gemeinde"},"district":{"key":"06634","name":"Schwalm-Eder-Kreis","type":"Landkreis"},"federalState":{"key":"06","name":"Hessen"}},{"name":"Am Sportplatz","postalCode":"36280","locality":"Oberaula","municipality":{"key":"06634019","name":"Oberaula","type":"Kreisangehörige_Gemeinde"},"district":{"key":"06634","name":"Schwalm-Eder-Kreis","type":"Landkreis"},"federalState":{"key":"06","name":"Hessen"}},{"name":"Am Stauweiher","postalCode":"36280","locality":"Oberaula","municipality":{"key":"06634019","name":"Oberaula","type":"Kreisangehörige_Gemeinde"},"district":{"key":"06634","name":"Schwalm-Eder-Kreis","type":"Landkreis"},"federalState":{"key":"06","name":"Hessen"}},{"name":"Amtspfad","postalCode":"36280","locality":"Oberaula","municipality":{"key":"06634019","name":"Oberaula","type":"Kreisangehörige_Gemeinde"},"district":{"key":"06634","name":"Schwalm-Eder-Kreis","type":"Landkreis"},"federalState":{"key":"06","name":"Hessen"}},{"name":"Am Weißenstein","postalCode":"36280","locality":"Oberaula","municipality":{"key":"06634019","name":"Oberaula","type":"Kreisangehörige_Gemeinde"},"district":{"key":"06634","name":"Schwalm-Eder-Kreis","type":"Landkreis"},"federalState":{"key":"06","name":"Hessen"}},{"name":"Am Ziegenberg","postalCode":"36280","locality":"Oberaula","municipality":{"key":"06634019","name":"Oberaula","type":"Kreisangehörige_Gemeinde"},"district":{"key":"06634","name":"Schwalm-Eder-Kreis","type":"Landkreis"},"federalState":{"key":"06","name":"Hessen"}},{"name":"An den Littersbäumen","postalCode":"36280","locality":"Oberaula","municipality":{"key":"06634019","name":"Oberaula","type":"Kreisangehörige_Gemeinde"},"district":{"key":"06634","name":"Schwalm-Eder-Kreis","type":"Landkreis"},"federalState":{"key":"06","name":"Hessen"}},{"name":"An der Aula","postalCode":"36280","locality":"Oberaula","municipality":{"key":"06634019","name":"Oberaula","type":"Kreisangehörige_Gemeinde"},"district":{"key":"06634","name":"Schwalm-Eder-Kreis","type":"Landkreis"},"federalState":{"key":"06","name":"Hessen"}},{"name":"An der Wasserscheide","postalCode":"36280","locality":"Oberaula","municipality":{"key":"06634019","name":"Oberaula","type":"Kreisangehörige_Gemeinde"},"district":{"key":"06634","name":"Schwalm-Eder-Kreis","type":"Landkreis"},"federalState":{"key":"06","name":"Hessen"}},{"name":"An der Ziegelhütte","postalCode":"36280","locality":"Oberaula","municipality":{"key":"06634019","name":"Oberaula","type":"Kreisangehörige_Gemeinde"},"district":{"key":"06634","name":"Schwalm-Eder-Kreis","type":"Landkreis"},"federalState":{"key":"06","name":"Hessen"}},{"name":"Annette-Weg","postalCode":"36280","locality":"Oberaula","municipality":{"key":"06634019","name":"Oberaula","type":"Kreisangehörige_Gemeinde"},"district":{"key":"06634","name":"Schwalm-Eder-Kreis","type":"Landkreis"},"federalState":{"key":"06","name":"Hessen"}},{"name":"Aulastr.","postalCode":"36280","locality":"Oberaula","municipality":{"key":"06634019","name":"Oberaula","type":"Kreisangehörige_Gemeinde"},"district":{"key":"06634","name":"Schwalm-Eder-Kreis","type":"Landkreis"},"federalState":{"key":"06","name":"Hessen"}},{"name":"Aulaweg","postalCode":"36280","locality":"Oberaula","municipality":{"key":"06634019","name":"Oberaula","type":"Kreisangehörige_Gemeinde"},"district":{"key":"06634","name":"Schwalm-Eder-Kreis","type":"Landkreis"},"federalState":{"key":"06","name":"Hessen"}},{"name":"Aulawiesen","postalCode":"36280","locality":"Oberaula","municipality":{"key":"06634019","name":"Oberaula","type":"Kreisangehörige_Gemeinde"},"district":{"key":"06634","name":"Schwalm-Eder-Kreis","type":"Landkreis"},"federalState":{"key":"06","name":"Hessen"}},{"name":"Aumühle","postalCode":"36280","locality":"Oberaula","municipality":{"key":"06634019","name":"Oberaula","type":"Kreisangehörige_Gemeinde"},"district":{"key":"06634","name":"Schwalm-Eder-Kreis","type":"Landkreis"},"federalState":{"key":"06","name":"Hessen"}},{"name":"Bahnhofstr.","postalCode":"36280","locality":"Oberaula","municipality":{"key":"06634019","name":"Oberaula","type":"Kreisangehörige_Gemeinde"},"district":{"key":"06634","name":"Schwalm-Eder-Kreis","type":"Landkreis"},"federalState":{"key":"06","name":"Hessen"}},{"name":"Bahnhofsweg","postalCode":"36280","locality":"Oberaula","municipality":{"key":"06634019","name":"Oberaula","type":"Kreisangehörige_Gemeinde"},"district":{"key":"06634","name":"Schwalm-Eder-Kreis","type":"Landkreis"},"federalState":{"key":"06","name":"Hessen"}},{"name":"Baumgartenweg","postalCode":"36280","locality":"Oberaula","municipality":{"key":"06634019","name":"Oberaula","type":"Kreisangehörige_Gemeinde"},"district":{"key":"06634","name":"Schwalm-Eder-Kreis","type":"Landkreis"},"federalState":{"key":"06","name":"Hessen"}},{"name":"Bergweg","postalCode":"36280","locality":"Oberaula","municipality":{"key":"06634019","name":"Oberaula","type":"Kreisangehörige_Gemeinde"},"district":{"key":"06634","name":"Schwalm-Eder-Kreis","type":"Landkreis"},"federalState":{"key":"06","name":"Hessen"}},{"name":"Biegenweg","postalCode":"36280","locality":"Oberaula","municipality":{"key":"06634019","name":"Oberaula","type":"Kreisangehörige_Gemeinde"},"district":{"key":"06634","name":"Schwalm-Eder-Kreis","type":"Landkreis"},"federalState":{"key":"06","name":"Hessen"}},{"name":"Birketstr.","postalCode":"36280","locality":"Oberaula","municipality":{"key":"06634019","name":"Oberaula","type":"Kreisangehörige_Gemeinde"},"district":{"key":"06634","name":"Schwalm-Eder-Kreis","type":"Landkreis"},"federalState":{"key":"06","name":"Hessen"}},{"name":"Bodenfeldstr.","postalCode":"36280","locality":"Oberaula","municipality":{"key":"06634019","name":"Oberaula","type":"Kreisangehörige_Gemeinde"},"district":{"key":"06634","name":"Schwalm-Eder-Kreis","type":"Landkreis"},"federalState":{"key":"06","name":"Hessen"}},{"name":"Böhlstr.","postalCode":"36280","locality":"Oberaula","municipality":{"key":"06634019","name":"Oberaula","type":"Kreisangehörige_Gemeinde"},"district":{"key":"06634","name":"Schwalm-Eder-Kreis","type":"Landkreis"},"federalState":{"key":"06","name":"Hessen"}},{"name":"Borgmannstr.","postalCode":"36280","locality":"Oberaula","municipality":{"key":"06634019","name":"Oberaula","type":"Kreisangehörige_Gemeinde"},"district":{"key":"06634","name":"Schwalm-Eder-Kreis","type":"Landkreis"},"federalState":{"key":"06","name":"Hessen"}},{"name":"Bornweg","postalCode":"36280","locality":"Oberaula","municipality":{"key":"06634019","name":"Oberaula","type":"Kreisangehörige_Gemeinde"},"district":{"key":"06634","name":"Schwalm-Eder-Kreis","type":"Landkreis"},"federalState":{"key":"06","name":"Hessen"}},{"name":"Brauhausstr.","postalCode":"36280","locality":"Oberaula","municipality":{"key":"06634019","name":"Oberaula","type":"Kreisangehörige_Gemeinde"},"district":{"key":"06634","name":"Schwalm-Eder-Kreis","type":"Landkreis"},"federalState":{"key":"06","name":"Hessen"}},{"name":"Breslauer Str.","postalCode":"36280","locality":"Oberaula","municipality":{"key":"06634019","name":"Oberaula","type":"Kreisangehörige_Gemeinde"},"district":{"key":"06634","name":"Schwalm-Eder-Kreis","type":"Landkreis"},"federalState":{"key":"06","name":"Hessen"}},{"name":"Brunnenweg","postalCode":"36280","locality":"Oberaula","municipality":{"key":"06634019","name":"Oberaula","type":"Kreisangehörige_Gemeinde"},"district":{"key":"06634","name":"Schwalm-Eder-Kreis","type":"Landkreis"},"federalState":{"key":"06","name":"Hessen"}},{"name":"Buchenstr.","postalCode":"36280","locality":"Oberaula","municipality":{"key":"06634019","name":"Oberaula","type":"Kreisangehörige_Gemeinde"},"district":{"key":"06634","name":"Schwalm-Eder-Kreis","type":"Landkreis"},"federalState":{"key":"06","name":"Hessen"}},{"name":"Christeröder Weg","postalCode":"36280","locality":"Oberaula","municipality":{"key":"06634019","name":"Oberaula","type":"Kreisangehörige_Gemeinde"},"district":{"key":"06634","name":"Schwalm-Eder-Kreis","type":"Landkreis"},"federalState":{"key":"06","name":"Hessen"}},{"name":"Drosselweg","postalCode":"36280","locality":"Oberaula","municipality":{"key":"06634019","name":"Oberaula","type":"Kreisangehörige_Gemeinde"},"district":{"key":"06634","name":"Schwalm-Eder-Kreis","type":"Landkreis"},"federalState":{"key":"06","name":"Hessen"}},{"name":"Eckeröder Weg","postalCode":"36280","locality":"Oberaula","municipality":{"key":"06634019","name":"Oberaula","type":"Kreisangehörige_Gemeinde"},"district":{"key":"06634","name":"Schwalm-Eder-Kreis","type":"Landkreis"},"federalState":{"key":"06","name":"Hessen"}},{"name":"Edith-Weg","postalCode":"36280","locality":"Oberaula","municipality":{"key":"06634019","name":"Oberaula","type":"Kreisangehörige_Gemeinde"},"district":{"key":"06634","name":"Schwalm-Eder-Kreis","type":"Landkreis"},"federalState":{"key":"06","name":"Hessen"}},{"name":"Eichenweg","postalCode":"36280","locality":"Oberaula","municipality":{"key":"06634019","name":"Oberaula","type":"Kreisangehörige_Gemeinde"},"district":{"key":"06634","name":"Schwalm-Eder-Kreis","type":"Landkreis"},"federalState":{"key":"06","name":"Hessen"}},{"name":"Erlenstr.","postalCode":"36280","locality":"Oberaula","municipality":{"key":"06634019","name":"Oberaula","type":"Kreisangehörige_Gemeinde"},"district":{"key":"06634","name":"Schwalm-Eder-Kreis","type":"Landkreis"},"federalState":{"key":"06","name":"Hessen"}},{"name":"Ferienpark","postalCode":"36280","locality":"Oberaula","municipality":{"key":"06634019","name":"Oberaula","type":"Kreisangehörige_Gemeinde"},"district":{"key":"06634","name":"Schwalm-Eder-Kreis","type":"Landkreis"},"federalState":{"key":"06","name":"Hessen"}},{"name":"Fickelsmühle","postalCode":"36280","locality":"Oberaula","municipality":{"key":"06634019","name":"Oberaula","type":"Kreisangehörige_Gemeinde"},"district":{"key":"06634","name":"Schwalm-Eder-Kreis","type":"Landkreis"},"federalState":{"key":"06","name":"Hessen"}},{"name":"Finkenweg","postalCode":"36280","locality":"Oberaula","municipality":{"key":"06634019","name":"Oberaula","type":"Kreisangehörige_Gemeinde"},"district":{"key":"06634","name":"Schwalm-Eder-Kreis","type":"Landkreis"},"federalState":{"key":"06","name":"Hessen"}},{"name":"Friedigeröder Str.","postalCode":"36280","locality":"Oberaula","municipality":{"key":"06634019","name":"Oberaula","type":"Kreisangehörige_Gemeinde"},"district":{"key":"06634","name":"Schwalm-Eder-Kreis","type":"Landkreis"},"federalState":{"key":"06","name":"Hessen"}},{"name":"Fronackerstr.","postalCode":"36280","locality":"Oberaula","municipality":{"key":"06634019","name":"Oberaula","type":"Kreisangehörige_Gemeinde"},"district":{"key":"06634","name":"Schwalm-Eder-Kreis","type":"Landkreis"},"federalState":{"key":"06","name":"Hessen"}},{"name":"Gartenstr.","postalCode":"36280","locality":"Oberaula","municipality":{"key":"06634019","name":"Oberaula","type":"Kreisangehörige_Gemeinde"},"district":{"key":"06634","name":"Schwalm-Eder-Kreis","type":"Landkreis"},"federalState":{"key":"06","name":"Hessen"}},{"name":"Gräsbachstr.","postalCode":"36280","locality":"Oberaula","municipality":{"key":"06634019","name":"Oberaula","type":"Kreisangehörige_Gemeinde"},"district":{"key":"06634","name":"Schwalm-Eder-Kreis","type":"Landkreis"},"federalState":{"key":"06","name":"Hessen"}},{"name":"Grüner Weg","postalCode":"36280","locality":"Oberaula","municipality":{"key":"06634019","name":"Oberaula","type":"Kreisangehörige_Gemeinde"},"district":{"key":"06634","name":"Schwalm-Eder-Kreis","type":"Landkreis"},"federalState":{"key":"06","name":"Hessen"}},{"name":"Haintorstr.","postalCode":"36280","locality":"Oberaula","municipality":{"key":"06634019","name":"Oberaula","type":"Kreisangehörige_Gemeinde"},"district":{"key":"06634","name":"Schwalm-Eder-Kreis","type":"Landkreis"},"federalState":{"key":"06","name":"Hessen"}},{"name":"Hainweg","postalCode":"36280","locality":"Oberaula","municipality":{"key":"06634019","name":"Oberaula","type":"Kreisangehörige_Gemeinde"},"district":{"key":"06634","name":"Schwalm-Eder-Kreis","type":"Landkreis"},"federalState":{"key":"06","name":"Hessen"}},{"name":"Hardtweg","postalCode":"36280","locality":"Oberaula","municipality":{"key":"06634019","name":"Oberaula","type":"Kreisangehörige_Gemeinde"},"district":{"key":"06634","name":"Schwalm-Eder-Kreis","type":"Landkreis"},"federalState":{"key":"06","name":"Hessen"}},{"name":"Hauptstr.","postalCode":"36280","locality":"Oberaula","municipality":{"key":"06634019","name":"Oberaula","type":"Kreisangehörige_Gemeinde"},"district":{"key":"06634","name":"Schwalm-Eder-Kreis","type":"Landkreis"},"federalState":{"key":"06","name":"Hessen"}},{"name":"Häuserweg","postalCode":"36280","locality":"Oberaula","municipality":{"key":"06634019","name":"Oberaula","type":"Kreisangehörige_Gemeinde"},"district":{"key":"06634","name":"Schwalm-Eder-Kreis","type":"Landkreis"},"federalState":{"key":"06","name":"Hessen"}},{"name":"Heerstr.","postalCode":"36280","locality":"Oberaula","municipality":{"key":"06634019","name":"Oberaula","type":"Kreisangehörige_Gemeinde"},"district":{"key":"06634","name":"Schwalm-Eder-Kreis","type":"Landkreis"},"federalState":{"key":"06","name":"Hessen"}},{"name":"Hersfelder Str.","postalCode":"36280","locality":"Oberaula","municipality":{"key":"06634019","name":"Oberaula","type":"Kreisangehörige_Gemeinde"},"district":{"key":"06634","name":"Schwalm-Eder-Kreis","type":"Landkreis"},"federalState":{"key":"06","name":"Hessen"}},{"name":"Hinter der Kirche","postalCode":"36280","locality":"Oberaula","municipality":{"key":"06634019","name":"Oberaula","type":"Kreisangehörige_Gemeinde"},"district":{"key":"06634","name":"Schwalm-Eder-Kreis","type":"Landkreis"},"federalState":{"key":"06","name":"Hessen"}},{"name":"Hinter der Stätte","postalCode":"36280","locality":"Oberaula","municipality":{"key":"06634019","name":"Oberaula","type":"Kreisangehörige_Gemeinde"},"district":{"key":"06634","name":"Schwalm-Eder-Kreis","type":"Landkreis"},"federalState":{"key":"06","name":"Hessen"}},{"name":"Höchenweg","postalCode":"36280","locality":"Oberaula","municipality":{"key":"06634019","name":"Oberaula","type":"Kreisangehörige_Gemeinde"},"district":{"key":"06634","name":"Schwalm-Eder-Kreis","type":"Landkreis"},"federalState":{"key":"06","name":"Hessen"}},{"name":"Hofackerweg","postalCode":"36280","locality":"Oberaula","municipality":{"key":"06634019","name":"Oberaula","type":"Kreisangehörige_Gemeinde"},"district":{"key":"06634","name":"Schwalm-Eder-Kreis","type":"Landkreis"},"federalState":{"key":"06","name":"Hessen"}},{"name":"Homberger Str.","postalCode":"36280","locality":"Oberaula","municipality":{"key":"06634019","name":"Oberaula","type":"Kreisangehörige_Gemeinde"},"district":{"key":"06634","name":"Schwalm-Eder-Kreis","type":"Landkreis"},"federalState":{"key":"06","name":"Hessen"}},{"name":"Ibra-Kuppen-Weg","postalCode":"36280","locality":"Oberaula","municipality":{"key":"06634019","name":"Oberaula","type":"Kreisangehörige_Gemeinde"},"district":{"key":"06634","name":"Schwalm-Eder-Kreis","type":"Landkreis"},"federalState":{"key":"06","name":"Hessen"}},{"name":"Ibratalstr.","postalCode":"36280","locality":"Oberaula","municipality":{"key":"06634019","name":"Oberaula","type":"Kreisangehörige_Gemeinde"},"district":{"key":"06634","name":"Schwalm-Eder-Kreis","type":"Landkreis"},"federalState":{"key":"06","name":"Hessen"}},{"name":"Im Eck","postalCode":"36280","locality":"Oberaula","municipality":{"key":"06634019","name":"Oberaula","type":"Kreisangehörige_Gemeinde"},"district":{"key":"06634","name":"Schwalm-Eder-Kreis","type":"Landkreis"},"federalState":{"key":"06","name":"Hessen"}},{"name":"Im Ellertal","postalCode":"36280","locality":"Oberaula","municipality":{"key":"06634019","name":"Oberaula","type":"Kreisangehörige_Gemeinde"},"district":{"key":"06634","name":"Schwalm-Eder-Kreis","type":"Landkreis"},"federalState":{"key":"06","name":"Hessen"}},{"name":"In den langen Stangen","postalCode":"36280","locality":"Oberaula","municipality":{"key":"06634019","name":"Oberaula","type":"Kreisangehörige_Gemeinde"},"district":{"key":"06634","name":"Schwalm-Eder-Kreis","type":"Landkreis"},"federalState":{"key":"06","name":"Hessen"}},{"name":"In der Gasse","postalCode":"36280","locality":"Oberaula","municipality":{"key":"06634019","name":"Oberaula","type":"Kreisangehörige_Gemeinde"},"district":{"key":"06634","name":"Schwalm-Eder-Kreis","type":"Landkreis"},"federalState":{"key":"06","name":"Hessen"}},{"name":"Kasseler Str.","postalCode":"36280","locality":"Oberaula","municipality":{"key":"06634019","name":"Oberaula","type":"Kreisangehörige_Gemeinde"},"district":{"key":"06634","name":"Schwalm-Eder-Kreis","type":"Landkreis"},"federalState":{"key":"06","name":"Hessen"}},{"name":"Katteröder Weg","postalCode":"36280","locality":"Oberaula","municipality":{"key":"06634019","name":"Oberaula","type":"Kreisangehörige_Gemeinde"},"district":{"key":"06634","name":"Schwalm-Eder-Kreis","type":"Landkreis"},"federalState":{"key":"06","name":"Hessen"}},{"name":"Katzbachstr.","postalCode":"36280","locality":"Oberaula","municipality":{"key":"06634019","name":"Oberaula","type":"Kreisangehörige_Gemeinde"},"district":{"key":"06634","name":"Schwalm-Eder-Kreis","type":"Landkreis"},"federalState":{"key":"06","name":"Hessen"}},{"name":"Kirchweg","postalCode":"36280","locality":"Oberaula","municipality":{"key":"06634019","name":"Oberaula","type":"Kreisangehörige_Gemeinde"},"district":{"key":"06634","name":"Schwalm-Eder-Kreis","type":"Landkreis"},"federalState":{"key":"06","name":"Hessen"}},{"name":"Kirschgartenweg","postalCode":"36280","locality":"Oberaula","municipality":{"key":"06634019","name":"Oberaula","type":"Kreisangehörige_Gemeinde"},"district":{"key":"06634","name":"Schwalm-Eder-Kreis","type":"Landkreis"},"federalState":{"key":"06","name":"Hessen"}},{"name":"Knüllstr.","postalCode":"36280","locality":"Oberaula","municipality":{"key":"06634019","name":"Oberaula","type":"Kreisangehörige_Gemeinde"},"district":{"key":"06634","name":"Schwalm-Eder-Kreis","type":"Landkreis"},"federalState":{"key":"06","name":"Hessen"}},{"name":"Kuhlweg","postalCode":"36280","locality":"Oberaula","municipality":{"key":"06634019","name":"Oberaula","type":"Kreisangehörige_Gemeinde"},"district":{"key":"06634","name":"Schwalm-Eder-Kreis","type":"Landkreis"},"federalState":{"key":"06","name":"Hessen"}},{"name":"Küppelstr.","postalCode":"36280","locality":"Oberaula","municipality":{"key":"06634019","name":"Oberaula","type":"Kreisangehörige_Gemeinde"},"district":{"key":"06634","name":"Schwalm-Eder-Kreis","type":"Landkreis"},"federalState":{"key":"06","name":"Hessen"}},{"name":"Laubenweg","postalCode":"36280","locality":"Oberaula","municipality":{"key":"06634019","name":"Oberaula","type":"Kreisangehörige_Gemeinde"},"district":{"key":"06634","name":"Schwalm-Eder-Kreis","type":"Landkreis"},"federalState":{"key":"06","name":"Hessen"}},{"name":"Lehnweg","postalCode":"36280","locality":"Oberaula","municipality":{"key":"06634019","name":"Oberaula","type":"Kreisangehörige_Gemeinde"},"district":{"key":"06634","name":"Schwalm-Eder-Kreis","type":"Landkreis"},"federalState":{"key":"06","name":"Hessen"}},{"name":"Lerchenweg","postalCode":"36280","locality":"Oberaula","municipality":{"key":"06634019","name":"Oberaula","type":"Kreisangehörige_Gemeinde"},"district":{"key":"06634","name":"Schwalm-Eder-Kreis","type":"Landkreis"},"federalState":{"key":"06","name":"Hessen"}},{"name":"Lohnstr.","postalCode":"36280","locality":"Oberaula","municipality":{"key":"06634019","name":"Oberaula","type":"Kreisangehörige_Gemeinde"},"district":{"key":"06634","name":"Schwalm-Eder-Kreis","type":"Landkreis"},"federalState":{"key":"06","name":"Hessen"}},{"name":"Marktstr.","postalCode":"36280","locality":"Oberaula","municipality":{"key":"06634019","name":"Oberaula","type":"Kreisangehörige_Gemeinde"},"district":{"key":"06634","name":"Schwalm-Eder-Kreis","type":"Landkreis"},"federalState":{"key":"06","name":"Hessen"}},{"name":"Marschallshof","postalCode":"36280","locality":"Oberaula","municipality":{"key":"06634019","name":"Oberaula","type":"Kreisangehörige_Gemeinde"},"district":{"key":"06634","name":"Schwalm-Eder-Kreis","type":"Landkreis"},"federalState":{"key":"06","name":"Hessen"}},{"name":"Miesweg","postalCode":"36280","locality":"Oberaula","municipality":{"key":"06634019","name":"Oberaula","type":"Kreisangehörige_Gemeinde"},"district":{"key":"06634","name":"Schwalm-Eder-Kreis","type":"Landkreis"},"federalState":{"key":"06","name":"Hessen"}},{"name":"Mühlenweg","postalCode":"36280","locality":"Oberaula","municipality":{"key":"06634019","name":"Oberaula","type":"Kreisangehörige_Gemeinde"},"district":{"key":"06634","name":"Schwalm-Eder-Kreis","type":"Landkreis"},"federalState":{"key":"06","name":"Hessen"}},{"name":"Münzenmühle","postalCode":"36280","locality":"Oberaula","municipality":{"key":"06634019","name":"Oberaula","type":"Kreisangehörige_Gemeinde"},"district":{"key":"06634","name":"Schwalm-Eder-Kreis","type":"Landkreis"},"federalState":{"key":"06","name":"Hessen"}},{"name":"Niederrheinische Str.","postalCode":"36280","locality":"Oberaula","municipality":{"key":"06634019","name":"Oberaula","type":"Kreisangehörige_Gemeinde"},"district":{"key":"06634","name":"Schwalm-Eder-Kreis","type":"Landkreis"},"federalState":{"key":"06","name":"Hessen"}},{"name":"Oberaulaer Weg","postalCode":"36280","locality":"Oberaula","municipality":{"key":"06634019","name":"Oberaula","type":"Kreisangehörige_Gemeinde"},"district":{"key":"06634","name":"Schwalm-Eder-Kreis","type":"Landkreis"},"federalState":{"key":"06","name":"Hessen"}},{"name":"Oberer Kirchweg","postalCode":"36280","locality":"Oberaula","municipality":{"key":"06634019","name":"Oberaula","type":"Kreisangehörige_Gemeinde"},"district":{"key":"06634","name":"Schwalm-Eder-Kreis","type":"Landkreis"},"federalState":{"key":"06","name":"Hessen"}},{"name":"Olberöder Str.","postalCode":"36280","locality":"Oberaula","municipality":{"key":"06634019","name":"Oberaula","type":"Kreisangehörige_Gemeinde"},"district":{"key":"06634","name":"Schwalm-Eder-Kreis","type":"Landkreis"},"federalState":{"key":"06","name":"Hessen"}},{"name":"Ostpreußenstr.","postalCode":"36280","locality":"Oberaula","municipality":{"key":"06634019","name":"Oberaula","type":"Kreisangehörige_Gemeinde"},"district":{"key":"06634","name":"Schwalm-Eder-Kreis","type":"Landkreis"},"federalState":{"key":"06","name":"Hessen"}},{"name":"Panoramaweg","postalCode":"36280","locality":"Oberaula","municipality":{"key":"06634019","name":"Oberaula","type":"Kreisangehörige_Gemeinde"},"district":{"key":"06634","name":"Schwalm-Eder-Kreis","type":"Landkreis"},"federalState":{"key":"06","name":"Hessen"}},{"name":"Paul Heinz-Weg","postalCode":"36280","locality":"Oberaula","municipality":{"key":"06634019","name":"Oberaula","type":"Kreisangehörige_Gemeinde"},"district":{"key":"06634","name":"Schwalm-Eder-Kreis","type":"Landkreis"},"federalState":{"key":"06","name":"Hessen"}},{"name":"Raiffeisenstr.","postalCode":"36280","locality":"Oberaula","municipality":{"key":"06634019","name":"Oberaula","type":"Kreisangehörige_Gemeinde"},"district":{"key":"06634","name":"Schwalm-Eder-Kreis","type":"Landkreis"},"federalState":{"key":"06","name":"Hessen"}},{"name":"Reichenberger Str.","postalCode":"36280","locality":"Oberaula","municipality":{"key":"06634019","name":"Oberaula","type":"Kreisangehörige_Gemeinde"},"district":{"key":"06634","name":"Schwalm-Eder-Kreis","type":"Landkreis"},"federalState":{"key":"06","name":"Hessen"}},{"name":"Rhönblick","postalCode":"36280","locality":"Oberaula","municipality":{"key":"06634019","name":"Oberaula","type":"Kreisangehörige_Gemeinde"},"district":{"key":"06634","name":"Schwalm-Eder-Kreis","type":"Landkreis"},"federalState":{"key":"06","name":"Hessen"}},{"name":"Rimbachstr.","postalCode":"36280","locality":"Oberaula","municipality":{"key":"06634019","name":"Oberaula","type":"Kreisangehörige_Gemeinde"},"district":{"key":"06634","name":"Schwalm-Eder-Kreis","type":"Landkreis"},"federalState":{"key":"06","name":"Hessen"}},{"name":"Rimbergstr.","postalCode":"36280","locality":"Oberaula","municipality":{"key":"06634019","name":"Oberaula","type":"Kreisangehörige_Gemeinde"},"district":{"key":"06634","name":"Schwalm-Eder-Kreis","type":"Landkreis"},"federalState":{"key":"06","name":"Hessen"}},{"name":"Ringelsmühle","postalCode":"36280","locality":"Oberaula","municipality":{"key":"06634019","name":"Oberaula","type":"Kreisangehörige_Gemeinde"},"district":{"key":"06634","name":"Schwalm-Eder-Kreis","type":"Landkreis"},"federalState":{"key":"06","name":"Hessen"}},{"name":"Rosental","postalCode":"36280","locality":"Oberaula","municipality":{"key":"06634019","name":"Oberaula","type":"Kreisangehörige_Gemeinde"},"district":{"key":"06634","name":"Schwalm-Eder-Kreis","type":"Landkreis"},"federalState":{"key":"06","name":"Hessen"}},{"name":"Rossgasse","postalCode":"36280","locality":"Oberaula","municipality":{"key":"06634019","name":"Oberaula","type":"Kreisangehörige_Gemeinde"},"district":{"key":"06634","name":"Schwalm-Eder-Kreis","type":"Landkreis"},"federalState":{"key":"06","name":"Hessen"}},{"name":"Sandweg","postalCode":"36280","locality":"Oberaula","municipality":{"key":"06634019","name":"Oberaula","type":"Kreisangehörige_Gemeinde"},"district":{"key":"06634","name":"Schwalm-Eder-Kreis","type":"Landkreis"},"federalState":{"key":"06","name":"Hessen"}},{"name":"Schlesierstr.","postalCode":"36280","locality":"Oberaula","municipality":{"key":"06634019","name":"Oberaula","type":"Kreisangehörige_Gemeinde"},"district":{"key":"06634","name":"Schwalm-Eder-Kreis","type":"Landkreis"},"federalState":{"key":"06","name":"Hessen"}},{"name":"Schloßweg","postalCode":"36280","locality":"Oberaula","municipality":{"key":"06634019","name":"Oberaula","type":"Kreisangehörige_Gemeinde"},"district":{"key":"06634","name":"Schwalm-Eder-Kreis","type":"Landkreis"},"federalState":{"key":"06","name":"Hessen"}},{"name":"Schöne Aussicht","postalCode":"36280","locality":"Oberaula","municipality":{"key":"06634019","name":"Oberaula","type":"Kreisangehörige_Gemeinde"},"district":{"key":"06634","name":"Schwalm-Eder-Kreis","type":"Landkreis"},"federalState":{"key":"06","name":"Hessen"}},{"name":"Schorbacher Weg","postalCode":"36280","locality":"Oberaula","municipality":{"key":"06634019","name":"Oberaula","type":"Kreisangehörige_Gemeinde"},"district":{"key":"06634","name":"Schwalm-Eder-Kreis","type":"Landkreis"},"federalState":{"key":"06","name":"Hessen"}},{"name":"Schulstr.","postalCode":"36280","locality":"Oberaula","municipality":{"key":"06634019","name":"Oberaula","type":"Kreisangehörige_Gemeinde"},"district":{"key":"06634","name":"Schwalm-Eder-Kreis","type":"Landkreis"},"federalState":{"key":"06","name":"Hessen"}},{"name":"Schüßlerstr.","postalCode":"36280","locality":"Oberaula","municipality":{"key":"06634019","name":"Oberaula","type":"Kreisangehörige_Gemeinde"},"district":{"key":"06634","name":"Schwalm-Eder-Kreis","type":"Landkreis"},"federalState":{"key":"06","name":"Hessen"}},{"name":"Schwalbenweg","postalCode":"36280","locality":"Oberaula","municipality":{"key":"06634019","name":"Oberaula","type":"Kreisangehörige_Gemeinde"},"district":{"key":"06634","name":"Schwalm-Eder-Kreis","type":"Landkreis"},"federalState":{"key":"06","name":"Hessen"}},{"name":"Schwarzenbörner Str.","postalCode":"36280","locality":"Oberaula","municipality":{"key":"06634019","name":"Oberaula","type":"Kreisangehörige_Gemeinde"},"district":{"key":"06634","name":"Schwalm-Eder-Kreis","type":"Landkreis"},"federalState":{"key":"06","name":"Hessen"}},{"name":"Schwimmbadstr.","postalCode":"36280","locality":"Oberaula","municipality":{"key":"06634019","name":"Oberaula","type":"Kreisangehörige_Gemeinde"},"district":{"key":"06634","name":"Schwalm-Eder-Kreis","type":"Landkreis"},"federalState":{"key":"06","name":"Hessen"}},{"name":"Seeweg","postalCode":"36280","locality":"Oberaula","municipality":{"key":"06634019","name":"Oberaula","type":"Kreisangehörige_Gemeinde"},"district":{"key":"06634","name":"Schwalm-Eder-Kreis","type":"Landkreis"},"federalState":{"key":"06","name":"Hessen"}},{"name":"Sudetenstr.","postalCode":"36280","locality":"Oberaula","municipality":{"key":"06634019","name":"Oberaula","type":"Kreisangehörige_Gemeinde"},"district":{"key":"06634","name":"Schwalm-Eder-Kreis","type":"Landkreis"},"federalState":{"key":"06","name":"Hessen"}},{"name":"Talweg","postalCode":"36280","locality":"Oberaula","municipality":{"key":"06634019","name":"Oberaula","type":"Kreisangehörige_Gemeinde"},"district":{"key":"06634","name":"Schwalm-Eder-Kreis","type":"Landkreis"},"federalState":{"key":"06","name":"Hessen"}},{"name":"Tannenstr.","postalCode":"36280","locality":"Oberaula","municipality":{"key":"06634019","name":"Oberaula","type":"Kreisangehörige_Gemeinde"},"district":{"key":"06634","name":"Schwalm-Eder-Kreis","type":"Landkreis"},"federalState":{"key":"06","name":"Hessen"}},{"name":"Teichstr.","postalCode":"36280","locality":"Oberaula","municipality":{"key":"06634019","name":"Oberaula","type":"Kreisangehörige_Gemeinde"},"district":{"key":"06634","name":"Schwalm-Eder-Kreis","type":"Landkreis"},"federalState":{"key":"06","name":"Hessen"}},{"name":"Unterer Kirchweg","postalCode":"36280","locality":"Oberaula","municipality":{"key":"06634019","name":"Oberaula","type":"Kreisangehörige_Gemeinde"},"district":{"key":"06634","name":"Schwalm-Eder-Kreis","type":"Landkreis"},"federalState":{"key":"06","name":"Hessen"}},{"name":"Vor der Höhe","postalCode":"36280","locality":"Oberaula","municipality":{"key":"06634019","name":"Oberaula","type":"Kreisangehörige_Gemeinde"},"district":{"key":"06634","name":"Schwalm-Eder-Kreis","type":"Landkreis"},"federalState":{"key":"06","name":"Hessen"}},{"name":"Vorm Nöll","postalCode":"36280","locality":"Oberaula","municipality":{"key":"06634019","name":"Oberaula","type":"Kreisangehörige_Gemeinde"},"district":{"key":"06634","name":"Schwalm-Eder-Kreis","type":"Landkreis"},"federalState":{"key":"06","name":"Hessen"}},{"name":"Wallmersberger Weg","postalCode":"36280","locality":"Oberaula","municipality":{"key":"06634019","name":"Oberaula","type":"Kreisangehörige_Gemeinde"},"district":{"key":"06634","name":"Schwalm-Eder-Kreis","type":"Landkreis"},"federalState":{"key":"06","name":"Hessen"}},{"name":"Weiherstr.","postalCode":"36280","locality":"Oberaula","municipality":{"key":"06634019","name":"Oberaula","type":"Kreisangehörige_Gemeinde"},"district":{"key":"06634","name":"Schwalm-Eder-Kreis","type":"Landkreis"},"federalState":{"key":"06","name":"Hessen"}},{"name":"Weißenbörner Weg","postalCode":"36280","locality":"Oberaula","municipality":{"key":"06634019","name":"Oberaula","type":"Kreisangehörige_Gemeinde"},"district":{"key":"06634","name":"Schwalm-Eder-Kreis","type":"Landkreis"},"federalState":{"key":"06","name":"Hessen"}},{"name":"Wiesengrund","postalCode":"36280","locality":"Oberaula","municipality":{"key":"06634019","name":"Oberaula","type":"Kreisangehörige_Gemeinde"},"district":{"key":"06634","name":"Schwalm-Eder-Kreis","type":"Landkreis"},"federalState":{"key":"06","name":"Hessen"}},{"name":"Wiesenweg","postalCode":"36280","locality":"Oberaula","municipality":{"key":"06634019","name":"Oberaula","type":"Kreisangehörige_Gemeinde"},"district":{"key":"06634","name":"Schwalm-Eder-Kreis","type":"Landkreis"},"federalState":{"key":"06","name":"Hessen"}},{"name":"Zieleckstr.","postalCode":"36280","locality":"Oberaula","municipality":{"key":"06634019","name":"Oberaula","type":"Kreisangehörige_Gemeinde"},"district":{"key":"06634","name":"Schwalm-Eder-Kreis","type":"Landkreis"},"federalState":{"key":"06","name":"Hessen"}},{"name":"Zur Ibrakuppe","postalCode":"36280","locality":"Oberaula","municipality":{"key":"06634019","name":"Oberaula","type":"Kreisangehörige_Gemeinde"},"district":{"key":"06634","name":"Schwalm-Eder-Kreis","type":"Landkreis"},"federalState":{"key":"06","name":"Hessen"}},]