[{"name":"Am Feld","postalCode":"66919","locality":"Herschberg","municipality":{"key":"07340017","name":"Herschberg","type":"Kreisangehörige_Gemeinde"},"district":{"key":"07340","name":"Südwestpfalz","type":"Landkreis"},"federalState":{"key":"07","name":"Rheinland-Pfalz"}},{"name":"Am Wasserturm","postalCode":"66919","locality":"Herschberg","municipality":{"key":"07340017","name":"Herschberg","type":"Kreisangehörige_Gemeinde"},"district":{"key":"07340","name":"Südwestpfalz","type":"Landkreis"},"federalState":{"key":"07","name":"Rheinland-Pfalz"}},{"name":"Am Windhof","postalCode":"66919","locality":"Herschberg","municipality":{"key":"07340017","name":"Herschberg","type":"Kreisangehörige_Gemeinde"},"district":{"key":"07340","name":"Südwestpfalz","type":"Landkreis"},"federalState":{"key":"07","name":"Rheinland-Pfalz"}},{"name":"Auf der Höhe","postalCode":"66919","locality":"Herschberg","municipality":{"key":"07340017","name":"Herschberg","type":"Kreisangehörige_Gemeinde"},"district":{"key":"07340","name":"Südwestpfalz","type":"Landkreis"},"federalState":{"key":"07","name":"Rheinland-Pfalz"}},{"name":"Bergstr.","postalCode":"66919","locality":"Herschberg","municipality":{"key":"07340017","name":"Herschberg","type":"Kreisangehörige_Gemeinde"},"district":{"key":"07340","name":"Südwestpfalz","type":"Landkreis"},"federalState":{"key":"07","name":"Rheinland-Pfalz"}},{"name":"Eckersgasse","postalCode":"66919","locality":"Herschberg","municipality":{"key":"07340017","name":"Herschberg","type":"Kreisangehörige_Gemeinde"},"district":{"key":"07340","name":"Südwestpfalz","type":"Landkreis"},"federalState":{"key":"07","name":"Rheinland-Pfalz"}},{"name":"Frankenweg","postalCode":"66919","locality":"Herschberg","municipality":{"key":"07340017","name":"Herschberg","type":"Kreisangehörige_Gemeinde"},"district":{"key":"07340","name":"Südwestpfalz","type":"Landkreis"},"federalState":{"key":"07","name":"Rheinland-Pfalz"}},{"name":"Friedhofstr.","postalCode":"66919","locality":"Herschberg","municipality":{"key":"07340017","name":"Herschberg","type":"Kreisangehörige_Gemeinde"},"district":{"key":"07340","name":"Südwestpfalz","type":"Landkreis"},"federalState":{"key":"07","name":"Rheinland-Pfalz"}},{"name":"Gartenstr.","postalCode":"66919","locality":"Herschberg","municipality":{"key":"07340017","name":"Herschberg","type":"Kreisangehörige_Gemeinde"},"district":{"key":"07340","name":"Südwestpfalz","type":"Landkreis"},"federalState":{"key":"07","name":"Rheinland-Pfalz"}},{"name":"Hauptstr.","postalCode":"66919","locality":"Herschberg","municipality":{"key":"07340017","name":"Herschberg","type":"Kreisangehörige_Gemeinde"},"district":{"key":"07340","name":"Südwestpfalz","type":"Landkreis"},"federalState":{"key":"07","name":"Rheinland-Pfalz"}},{"name":"In der Lach","postalCode":"66919","locality":"Herschberg","municipality":{"key":"07340017","name":"Herschberg","type":"Kreisangehörige_Gemeinde"},"district":{"key":"07340","name":"Südwestpfalz","type":"Landkreis"},"federalState":{"key":"07","name":"Rheinland-Pfalz"}},{"name":"Keltenweg","postalCode":"66919","locality":"Herschberg","municipality":{"key":"07340017","name":"Herschberg","type":"Kreisangehörige_Gemeinde"},"district":{"key":"07340","name":"Südwestpfalz","type":"Landkreis"},"federalState":{"key":"07","name":"Rheinland-Pfalz"}},{"name":"Leiningerstr.","postalCode":"66919","locality":"Herschberg","municipality":{"key":"07340017","name":"Herschberg","type":"Kreisangehörige_Gemeinde"},"district":{"key":"07340","name":"Südwestpfalz","type":"Landkreis"},"federalState":{"key":"07","name":"Rheinland-Pfalz"}},{"name":"Pfälzer Str.","postalCode":"66919","locality":"Herschberg","municipality":{"key":"07340017","name":"Herschberg","type":"Kreisangehörige_Gemeinde"},"district":{"key":"07340","name":"Südwestpfalz","type":"Landkreis"},"federalState":{"key":"07","name":"Rheinland-Pfalz"}},{"name":"Pfützenstr.","postalCode":"66919","locality":"Herschberg","municipality":{"key":"07340017","name":"Herschberg","type":"Kreisangehörige_Gemeinde"},"district":{"key":"07340","name":"Südwestpfalz","type":"Landkreis"},"federalState":{"key":"07","name":"Rheinland-Pfalz"}},{"name":"Rathausstr.","postalCode":"66919","locality":"Herschberg","municipality":{"key":"07340017","name":"Herschberg","type":"Kreisangehörige_Gemeinde"},"district":{"key":"07340","name":"Südwestpfalz","type":"Landkreis"},"federalState":{"key":"07","name":"Rheinland-Pfalz"}},{"name":"Schulstr.","postalCode":"66919","locality":"Herschberg","municipality":{"key":"07340017","name":"Herschberg","type":"Kreisangehörige_Gemeinde"},"district":{"key":"07340","name":"Südwestpfalz","type":"Landkreis"},"federalState":{"key":"07","name":"Rheinland-Pfalz"}},{"name":"Sickingerstr.","postalCode":"66919","locality":"Herschberg","municipality":{"key":"07340017","name":"Herschberg","type":"Kreisangehörige_Gemeinde"},"district":{"key":"07340","name":"Südwestpfalz","type":"Landkreis"},"federalState":{"key":"07","name":"Rheinland-Pfalz"}},{"name":"Thaleischweiler Str.","postalCode":"66919","locality":"Herschberg","municipality":{"key":"07340017","name":"Herschberg","type":"Kreisangehörige_Gemeinde"},"district":{"key":"07340","name":"Südwestpfalz","type":"Landkreis"},"federalState":{"key":"07","name":"Rheinland-Pfalz"}},{"name":"Triftstr.","postalCode":"66919","locality":"Herschberg","municipality":{"key":"07340017","name":"Herschberg","type":"Kreisangehörige_Gemeinde"},"district":{"key":"07340","name":"Südwestpfalz","type":"Landkreis"},"federalState":{"key":"07","name":"Rheinland-Pfalz"}},{"name":"Weihermühler Weg","postalCode":"66987","locality":"Herschberg","municipality":{"key":"07340017","name":"Herschberg","type":"Kreisangehörige_Gemeinde"},"district":{"key":"07340","name":"Südwestpfalz","type":"Landkreis"},"federalState":{"key":"07","name":"Rheinland-Pfalz"}},{"name":"Wiesenstr.","postalCode":"66919","locality":"Herschberg","municipality":{"key":"07340017","name":"Herschberg","type":"Kreisangehörige_Gemeinde"},"district":{"key":"07340","name":"Südwestpfalz","type":"Landkreis"},"federalState":{"key":"07","name":"Rheinland-Pfalz"}},]