[{"name":"Ahornweg","postalCode":"22964","locality":"Steinburg","municipality":{"key":"01062091","name":"Steinburg","type":"Kreisangehörige_Gemeinde"},"district":{"key":"01062","name":"Stormarn","type":"Kreis"},"federalState":{"key":"01","name":"Schleswig-Holstein"}},{"name":"Am Brückisch","postalCode":"22964","locality":"Steinburg","municipality":{"key":"01062091","name":"Steinburg","type":"Kreisangehörige_Gemeinde"},"district":{"key":"01062","name":"Stormarn","type":"Kreis"},"federalState":{"key":"01","name":"Schleswig-Holstein"}},{"name":"Am Eichenhof","postalCode":"22964","locality":"Steinburg","municipality":{"key":"01062091","name":"Steinburg","type":"Kreisangehörige_Gemeinde"},"district":{"key":"01062","name":"Stormarn","type":"Kreis"},"federalState":{"key":"01","name":"Schleswig-Holstein"}},{"name":"Am Felde","postalCode":"22964","locality":"Steinburg","municipality":{"key":"01062091","name":"Steinburg","type":"Kreisangehörige_Gemeinde"},"district":{"key":"01062","name":"Stormarn","type":"Kreis"},"federalState":{"key":"01","name":"Schleswig-Holstein"}},{"name":"Am Hohenberg","postalCode":"22964","locality":"Steinburg","municipality":{"key":"01062091","name":"Steinburg","type":"Kreisangehörige_Gemeinde"},"district":{"key":"01062","name":"Stormarn","type":"Kreis"},"federalState":{"key":"01","name":"Schleswig-Holstein"}},{"name":"Bahnhofstr.","postalCode":"22964","locality":"Steinburg","municipality":{"key":"01062091","name":"Steinburg","type":"Kreisangehörige_Gemeinde"},"district":{"key":"01062","name":"Stormarn","type":"Kreis"},"federalState":{"key":"01","name":"Schleswig-Holstein"}},{"name":"Berodts Hof","postalCode":"22964","locality":"Steinburg","municipality":{"key":"01062091","name":"Steinburg","type":"Kreisangehörige_Gemeinde"},"district":{"key":"01062","name":"Stormarn","type":"Kreis"},"federalState":{"key":"01","name":"Schleswig-Holstein"}},{"name":"Beschkamp","postalCode":"22964","locality":"Steinburg","municipality":{"key":"01062091","name":"Steinburg","type":"Kreisangehörige_Gemeinde"},"district":{"key":"01062","name":"Stormarn","type":"Kreis"},"federalState":{"key":"01","name":"Schleswig-Holstein"}},{"name":"Blütenweg","postalCode":"22964","locality":"Steinburg","municipality":{"key":"01062091","name":"Steinburg","type":"Kreisangehörige_Gemeinde"},"district":{"key":"01062","name":"Stormarn","type":"Kreis"},"federalState":{"key":"01","name":"Schleswig-Holstein"}},{"name":"Dorfstr.","postalCode":"25582","locality":"Looft","municipality":{"key":"01061066","name":"Looft","type":"Kreisangehörige_Gemeinde"},"district":{"key":"01061","name":"Steinburg","type":"Kreis"},"federalState":{"key":"01","name":"Schleswig-Holstein"}},{"name":"Eichedeer Str.","postalCode":"22964","locality":"Steinburg","municipality":{"key":"01062091","name":"Steinburg","type":"Kreisangehörige_Gemeinde"},"district":{"key":"01062","name":"Stormarn","type":"Kreis"},"federalState":{"key":"01","name":"Schleswig-Holstein"}},{"name":"Eichenkamp","postalCode":"22964","locality":"Steinburg","municipality":{"key":"01062091","name":"Steinburg","type":"Kreisangehörige_Gemeinde"},"district":{"key":"01062","name":"Stormarn","type":"Kreis"},"federalState":{"key":"01","name":"Schleswig-Holstein"}},{"name":"Fasanenweg","postalCode":"22964","locality":"Steinburg","municipality":{"key":"01062091","name":"Steinburg","type":"Kreisangehörige_Gemeinde"},"district":{"key":"01062","name":"Stormarn","type":"Kreis"},"federalState":{"key":"01","name":"Schleswig-Holstein"}},{"name":"Gärtnerweg","postalCode":"22964","locality":"Steinburg","municipality":{"key":"01062091","name":"Steinburg","type":"Kreisangehörige_Gemeinde"},"district":{"key":"01062","name":"Stormarn","type":"Kreis"},"federalState":{"key":"01","name":"Schleswig-Holstein"}},{"name":"Hauptstr.","postalCode":"25582","locality":"Looft","municipality":{"key":"01061066","name":"Looft","type":"Kreisangehörige_Gemeinde"},"district":{"key":"01061","name":"Steinburg","type":"Kreis"},"federalState":{"key":"01","name":"Schleswig-Holstein"}},{"name":"Hohe Str.","postalCode":"25582","locality":"Looft","municipality":{"key":"01061066","name":"Looft","type":"Kreisangehörige_Gemeinde"},"district":{"key":"01061","name":"Steinburg","type":"Kreis"},"federalState":{"key":"01","name":"Schleswig-Holstein"}},{"name":"Im Wiesengrund","postalCode":"22964","locality":"Steinburg","municipality":{"key":"01062091","name":"Steinburg","type":"Kreisangehörige_Gemeinde"},"district":{"key":"01062","name":"Stormarn","type":"Kreis"},"federalState":{"key":"01","name":"Schleswig-Holstein"}},{"name":"Johanna Weg","postalCode":"22964","locality":"Steinburg","municipality":{"key":"01062091","name":"Steinburg","type":"Kreisangehörige_Gemeinde"},"district":{"key":"01062","name":"Stormarn","type":"Kreis"},"federalState":{"key":"01","name":"Schleswig-Holstein"}},{"name":"Katstelle","postalCode":"25582","locality":"Looft","municipality":{"key":"01061066","name":"Looft","type":"Kreisangehörige_Gemeinde"},"district":{"key":"01061","name":"Steinburg","type":"Kreis"},"federalState":{"key":"01","name":"Schleswig-Holstein"}},{"name":"Lerchenweg","postalCode":"25582","locality":"Looft","municipality":{"key":"01061066","name":"Looft","type":"Kreisangehörige_Gemeinde"},"district":{"key":"01061","name":"Steinburg","type":"Kreis"},"federalState":{"key":"01","name":"Schleswig-Holstein"}},{"name":"Mittelweg","postalCode":"22964","locality":"Steinburg","municipality":{"key":"01062091","name":"Steinburg","type":"Kreisangehörige_Gemeinde"},"district":{"key":"01062","name":"Stormarn","type":"Kreis"},"federalState":{"key":"01","name":"Schleswig-Holstein"}},{"name":"Mölenkamp","postalCode":"22964","locality":"Steinburg","municipality":{"key":"01062091","name":"Steinburg","type":"Kreisangehörige_Gemeinde"},"district":{"key":"01062","name":"Stormarn","type":"Kreis"},"federalState":{"key":"01","name":"Schleswig-Holstein"}},{"name":"Mollhagener Str.","postalCode":"22964","locality":"Steinburg","municipality":{"key":"01062091","name":"Steinburg","type":"Kreisangehörige_Gemeinde"},"district":{"key":"01062","name":"Stormarn","type":"Kreis"},"federalState":{"key":"01","name":"Schleswig-Holstein"}},{"name":"Möllner Str.","postalCode":"22964","locality":"Steinburg","municipality":{"key":"01062091","name":"Steinburg","type":"Kreisangehörige_Gemeinde"},"district":{"key":"01062","name":"Stormarn","type":"Kreis"},"federalState":{"key":"01","name":"Schleswig-Holstein"}},{"name":"Oldesloer Str.","postalCode":"22964","locality":"Steinburg","municipality":{"key":"01062091","name":"Steinburg","type":"Kreisangehörige_Gemeinde"},"district":{"key":"01062","name":"Stormarn","type":"Kreis"},"federalState":{"key":"01","name":"Schleswig-Holstein"}},{"name":"Olivia & Eva Weg","postalCode":"22964","locality":"Steinburg","municipality":{"key":"01062091","name":"Steinburg","type":"Kreisangehörige_Gemeinde"},"district":{"key":"01062","name":"Stormarn","type":"Kreis"},"federalState":{"key":"01","name":"Schleswig-Holstein"}},{"name":"Paradies","postalCode":"22964","locality":"Steinburg","municipality":{"key":"01062091","name":"Steinburg","type":"Kreisangehörige_Gemeinde"},"district":{"key":"01062","name":"Stormarn","type":"Kreis"},"federalState":{"key":"01","name":"Schleswig-Holstein"}},{"name":"Poststr.","postalCode":"22964","locality":"Steinburg","municipality":{"key":"01062091","name":"Steinburg","type":"Kreisangehörige_Gemeinde"},"district":{"key":"01062","name":"Stormarn","type":"Kreis"},"federalState":{"key":"01","name":"Schleswig-Holstein"}},{"name":"Raiffeisenstr.","postalCode":"25582","locality":"Looft","municipality":{"key":"01061066","name":"Looft","type":"Kreisangehörige_Gemeinde"},"district":{"key":"01061","name":"Steinburg","type":"Kreis"},"federalState":{"key":"01","name":"Schleswig-Holstein"}},{"name":"Schulstr.","postalCode":"25582","locality":"Looft","municipality":{"key":"01061066","name":"Looft","type":"Kreisangehörige_Gemeinde"},"district":{"key":"01061","name":"Steinburg","type":"Kreis"},"federalState":{"key":"01","name":"Schleswig-Holstein"}},{"name":"Todendorfer Str.","postalCode":"22964","locality":"Steinburg","municipality":{"key":"01062091","name":"Steinburg","type":"Kreisangehörige_Gemeinde"},"district":{"key":"01062","name":"Stormarn","type":"Kreis"},"federalState":{"key":"01","name":"Schleswig-Holstein"}},{"name":"Tulpenweg","postalCode":"22964","locality":"Steinburg","municipality":{"key":"01062091","name":"Steinburg","type":"Kreisangehörige_Gemeinde"},"district":{"key":"01062","name":"Stormarn","type":"Kreis"},"federalState":{"key":"01","name":"Schleswig-Holstein"}},{"name":"Twiete","postalCode":"22964","locality":"Steinburg","municipality":{"key":"01062091","name":"Steinburg","type":"Kreisangehörige_Gemeinde"},"district":{"key":"01062","name":"Stormarn","type":"Kreis"},"federalState":{"key":"01","name":"Schleswig-Holstein"}},{"name":"Waldweg","postalCode":"25582","locality":"Looft","municipality":{"key":"01061066","name":"Looft","type":"Kreisangehörige_Gemeinde"},"district":{"key":"01061","name":"Steinburg","type":"Kreis"},"federalState":{"key":"01","name":"Schleswig-Holstein"}},]