[{"name":"Aichacher Str.","postalCode":"86577","locality":"Sielenbach","municipality":{"key":"09771165","name":"Sielenbach","type":"Kreisangehörige_Gemeinde"},"district":{"key":"09771","name":"Aichach-Friedberg","type":"Landkreis"},"federalState":{"key":"09","name":"Bayern"}},{"name":"Am Anger","postalCode":"86577","locality":"Sielenbach","municipality":{"key":"09771165","name":"Sielenbach","type":"Kreisangehörige_Gemeinde"},"district":{"key":"09771","name":"Aichach-Friedberg","type":"Landkreis"},"federalState":{"key":"09","name":"Bayern"}},{"name":"Am Baumgarten","postalCode":"86577","locality":"Sielenbach","municipality":{"key":"09771165","name":"Sielenbach","type":"Kreisangehörige_Gemeinde"},"district":{"key":"09771","name":"Aichach-Friedberg","type":"Landkreis"},"federalState":{"key":"09","name":"Bayern"}},{"name":"Am Burgstall","postalCode":"86577","locality":"Sielenbach","municipality":{"key":"09771165","name":"Sielenbach","type":"Kreisangehörige_Gemeinde"},"district":{"key":"09771","name":"Aichach-Friedberg","type":"Landkreis"},"federalState":{"key":"09","name":"Bayern"}},{"name":"Am Hang","postalCode":"86577","locality":"Sielenbach","municipality":{"key":"09771165","name":"Sielenbach","type":"Kreisangehörige_Gemeinde"},"district":{"key":"09771","name":"Aichach-Friedberg","type":"Landkreis"},"federalState":{"key":"09","name":"Bayern"}},{"name":"Am Hürlberg","postalCode":"86577","locality":"Sielenbach","municipality":{"key":"09771165","name":"Sielenbach","type":"Kreisangehörige_Gemeinde"},"district":{"key":"09771","name":"Aichach-Friedberg","type":"Landkreis"},"federalState":{"key":"09","name":"Bayern"}},{"name":"Am Schauchen","postalCode":"86577","locality":"Sielenbach","municipality":{"key":"09771165","name":"Sielenbach","type":"Kreisangehörige_Gemeinde"},"district":{"key":"09771","name":"Aichach-Friedberg","type":"Landkreis"},"federalState":{"key":"09","name":"Bayern"}},{"name":"Amselweg","postalCode":"86577","locality":"Sielenbach","municipality":{"key":"09771165","name":"Sielenbach","type":"Kreisangehörige_Gemeinde"},"district":{"key":"09771","name":"Aichach-Friedberg","type":"Landkreis"},"federalState":{"key":"09","name":"Bayern"}},{"name":"Am Weiherbach","postalCode":"86577","locality":"Sielenbach","municipality":{"key":"09771165","name":"Sielenbach","type":"Kreisangehörige_Gemeinde"},"district":{"key":"09771","name":"Aichach-Friedberg","type":"Landkreis"},"federalState":{"key":"09","name":"Bayern"}},{"name":"Angerweg","postalCode":"86577","locality":"Sielenbach","municipality":{"key":"09771165","name":"Sielenbach","type":"Kreisangehörige_Gemeinde"},"district":{"key":"09771","name":"Aichach-Friedberg","type":"Landkreis"},"federalState":{"key":"09","name":"Bayern"}},{"name":"Bäckerfeldweg","postalCode":"86577","locality":"Sielenbach","municipality":{"key":"09771165","name":"Sielenbach","type":"Kreisangehörige_Gemeinde"},"district":{"key":"09771","name":"Aichach-Friedberg","type":"Landkreis"},"federalState":{"key":"09","name":"Bayern"}},{"name":"Bergstr.","postalCode":"86577","locality":"Sielenbach","municipality":{"key":"09771165","name":"Sielenbach","type":"Kreisangehörige_Gemeinde"},"district":{"key":"09771","name":"Aichach-Friedberg","type":"Landkreis"},"federalState":{"key":"09","name":"Bayern"}},{"name":"Blumenweg","postalCode":"86577","locality":"Sielenbach","municipality":{"key":"09771165","name":"Sielenbach","type":"Kreisangehörige_Gemeinde"},"district":{"key":"09771","name":"Aichach-Friedberg","type":"Landkreis"},"federalState":{"key":"09","name":"Bayern"}},{"name":"Brunnenstr.","postalCode":"86577","locality":"Sielenbach","municipality":{"key":"09771165","name":"Sielenbach","type":"Kreisangehörige_Gemeinde"},"district":{"key":"09771","name":"Aichach-Friedberg","type":"Landkreis"},"federalState":{"key":"09","name":"Bayern"}},{"name":"Buchenweg","postalCode":"86577","locality":"Sielenbach","municipality":{"key":"09771165","name":"Sielenbach","type":"Kreisangehörige_Gemeinde"},"district":{"key":"09771","name":"Aichach-Friedberg","type":"Landkreis"},"federalState":{"key":"09","name":"Bayern"}},{"name":"Drosselweg","postalCode":"86577","locality":"Sielenbach","municipality":{"key":"09771165","name":"Sielenbach","type":"Kreisangehörige_Gemeinde"},"district":{"key":"09771","name":"Aichach-Friedberg","type":"Landkreis"},"federalState":{"key":"09","name":"Bayern"}},{"name":"Ecknachstr.","postalCode":"86577","locality":"Sielenbach","municipality":{"key":"09771165","name":"Sielenbach","type":"Kreisangehörige_Gemeinde"},"district":{"key":"09771","name":"Aichach-Friedberg","type":"Landkreis"},"federalState":{"key":"09","name":"Bayern"}},{"name":"Eichenweg","postalCode":"86577","locality":"Sielenbach","municipality":{"key":"09771165","name":"Sielenbach","type":"Kreisangehörige_Gemeinde"},"district":{"key":"09771","name":"Aichach-Friedberg","type":"Landkreis"},"federalState":{"key":"09","name":"Bayern"}},{"name":"Erlenweg","postalCode":"86577","locality":"Sielenbach","municipality":{"key":"09771165","name":"Sielenbach","type":"Kreisangehörige_Gemeinde"},"district":{"key":"09771","name":"Aichach-Friedberg","type":"Landkreis"},"federalState":{"key":"09","name":"Bayern"}},{"name":"Filastr.","postalCode":"86577","locality":"Sielenbach","municipality":{"key":"09771165","name":"Sielenbach","type":"Kreisangehörige_Gemeinde"},"district":{"key":"09771","name":"Aichach-Friedberg","type":"Landkreis"},"federalState":{"key":"09","name":"Bayern"}},{"name":"Finkenweg","postalCode":"86577","locality":"Sielenbach","municipality":{"key":"09771165","name":"Sielenbach","type":"Kreisangehörige_Gemeinde"},"district":{"key":"09771","name":"Aichach-Friedberg","type":"Landkreis"},"federalState":{"key":"09","name":"Bayern"}},{"name":"Flursstr.","postalCode":"86577","locality":"Sielenbach","municipality":{"key":"09771165","name":"Sielenbach","type":"Kreisangehörige_Gemeinde"},"district":{"key":"09771","name":"Aichach-Friedberg","type":"Landkreis"},"federalState":{"key":"09","name":"Bayern"}},{"name":"Frühlingstr.","postalCode":"86577","locality":"Sielenbach","municipality":{"key":"09771165","name":"Sielenbach","type":"Kreisangehörige_Gemeinde"},"district":{"key":"09771","name":"Aichach-Friedberg","type":"Landkreis"},"federalState":{"key":"09","name":"Bayern"}},{"name":"Gartenstr.","postalCode":"86577","locality":"Sielenbach","municipality":{"key":"09771165","name":"Sielenbach","type":"Kreisangehörige_Gemeinde"},"district":{"key":"09771","name":"Aichach-Friedberg","type":"Landkreis"},"federalState":{"key":"09","name":"Bayern"}},{"name":"Haslacher Weg","postalCode":"86577","locality":"Sielenbach","municipality":{"key":"09771165","name":"Sielenbach","type":"Kreisangehörige_Gemeinde"},"district":{"key":"09771","name":"Aichach-Friedberg","type":"Landkreis"},"federalState":{"key":"09","name":"Bayern"}},{"name":"Hauptstr.","postalCode":"86577","locality":"Sielenbach","municipality":{"key":"09771165","name":"Sielenbach","type":"Kreisangehörige_Gemeinde"},"district":{"key":"09771","name":"Aichach-Friedberg","type":"Landkreis"},"federalState":{"key":"09","name":"Bayern"}},{"name":"Hinterm Herrn","postalCode":"86577","locality":"Sielenbach","municipality":{"key":"09771165","name":"Sielenbach","type":"Kreisangehörige_Gemeinde"},"district":{"key":"09771","name":"Aichach-Friedberg","type":"Landkreis"},"federalState":{"key":"09","name":"Bayern"}},{"name":"Hochstr.","postalCode":"86577","locality":"Sielenbach","municipality":{"key":"09771165","name":"Sielenbach","type":"Kreisangehörige_Gemeinde"},"district":{"key":"09771","name":"Aichach-Friedberg","type":"Landkreis"},"federalState":{"key":"09","name":"Bayern"}},{"name":"Josef-Veit-Str.","postalCode":"86577","locality":"Sielenbach","municipality":{"key":"09771165","name":"Sielenbach","type":"Kreisangehörige_Gemeinde"},"district":{"key":"09771","name":"Aichach-Friedberg","type":"Landkreis"},"federalState":{"key":"09","name":"Bayern"}},{"name":"Kapellenstr.","postalCode":"86577","locality":"Sielenbach","municipality":{"key":"09771165","name":"Sielenbach","type":"Kreisangehörige_Gemeinde"},"district":{"key":"09771","name":"Aichach-Friedberg","type":"Landkreis"},"federalState":{"key":"09","name":"Bayern"}},{"name":"Kiesweg","postalCode":"86577","locality":"Sielenbach","municipality":{"key":"09771165","name":"Sielenbach","type":"Kreisangehörige_Gemeinde"},"district":{"key":"09771","name":"Aichach-Friedberg","type":"Landkreis"},"federalState":{"key":"09","name":"Bayern"}},{"name":"Klosterweg","postalCode":"86577","locality":"Sielenbach","municipality":{"key":"09771165","name":"Sielenbach","type":"Kreisangehörige_Gemeinde"},"district":{"key":"09771","name":"Aichach-Friedberg","type":"Landkreis"},"federalState":{"key":"09","name":"Bayern"}},{"name":"Kreutmeierstr.","postalCode":"86577","locality":"Sielenbach","municipality":{"key":"09771165","name":"Sielenbach","type":"Kreisangehörige_Gemeinde"},"district":{"key":"09771","name":"Aichach-Friedberg","type":"Landkreis"},"federalState":{"key":"09","name":"Bayern"}},{"name":"Maria-Birnbaum-Str.","postalCode":"86577","locality":"Sielenbach","municipality":{"key":"09771165","name":"Sielenbach","type":"Kreisangehörige_Gemeinde"},"district":{"key":"09771","name":"Aichach-Friedberg","type":"Landkreis"},"federalState":{"key":"09","name":"Bayern"}},{"name":"Ostergasse","postalCode":"86577","locality":"Sielenbach","municipality":{"key":"09771165","name":"Sielenbach","type":"Kreisangehörige_Gemeinde"},"district":{"key":"09771","name":"Aichach-Friedberg","type":"Landkreis"},"federalState":{"key":"09","name":"Bayern"}},{"name":"Pfarrer-Frey-Weg","postalCode":"86577","locality":"Sielenbach","municipality":{"key":"09771165","name":"Sielenbach","type":"Kreisangehörige_Gemeinde"},"district":{"key":"09771","name":"Aichach-Friedberg","type":"Landkreis"},"federalState":{"key":"09","name":"Bayern"}},{"name":"Postweg","postalCode":"86577","locality":"Sielenbach","municipality":{"key":"09771165","name":"Sielenbach","type":"Kreisangehörige_Gemeinde"},"district":{"key":"09771","name":"Aichach-Friedberg","type":"Landkreis"},"federalState":{"key":"09","name":"Bayern"}},{"name":"Reutgasse","postalCode":"86577","locality":"Sielenbach","municipality":{"key":"09771165","name":"Sielenbach","type":"Kreisangehörige_Gemeinde"},"district":{"key":"09771","name":"Aichach-Friedberg","type":"Landkreis"},"federalState":{"key":"09","name":"Bayern"}},{"name":"Riedener Str.","postalCode":"86577","locality":"Sielenbach","municipality":{"key":"09771165","name":"Sielenbach","type":"Kreisangehörige_Gemeinde"},"district":{"key":"09771","name":"Aichach-Friedberg","type":"Landkreis"},"federalState":{"key":"09","name":"Bayern"}},{"name":"Ringstr.","postalCode":"86577","locality":"Sielenbach","municipality":{"key":"09771165","name":"Sielenbach","type":"Kreisangehörige_Gemeinde"},"district":{"key":"09771","name":"Aichach-Friedberg","type":"Landkreis"},"federalState":{"key":"09","name":"Bayern"}},{"name":"Rosenweg","postalCode":"86577","locality":"Sielenbach","municipality":{"key":"09771165","name":"Sielenbach","type":"Kreisangehörige_Gemeinde"},"district":{"key":"09771","name":"Aichach-Friedberg","type":"Landkreis"},"federalState":{"key":"09","name":"Bayern"}},{"name":"Samweg","postalCode":"86577","locality":"Sielenbach","municipality":{"key":"09771165","name":"Sielenbach","type":"Kreisangehörige_Gemeinde"},"district":{"key":"09771","name":"Aichach-Friedberg","type":"Landkreis"},"federalState":{"key":"09","name":"Bayern"}},{"name":"Schönberger Str.","postalCode":"86577","locality":"Sielenbach","municipality":{"key":"09771165","name":"Sielenbach","type":"Kreisangehörige_Gemeinde"},"district":{"key":"09771","name":"Aichach-Friedberg","type":"Landkreis"},"federalState":{"key":"09","name":"Bayern"}},{"name":"Schwaigstr.","postalCode":"86577","locality":"Sielenbach","municipality":{"key":"09771165","name":"Sielenbach","type":"Kreisangehörige_Gemeinde"},"district":{"key":"09771","name":"Aichach-Friedberg","type":"Landkreis"},"federalState":{"key":"09","name":"Bayern"}},{"name":"Sonnleiten","postalCode":"86577","locality":"Sielenbach","municipality":{"key":"09771165","name":"Sielenbach","type":"Kreisangehörige_Gemeinde"},"district":{"key":"09771","name":"Aichach-Friedberg","type":"Landkreis"},"federalState":{"key":"09","name":"Bayern"}},{"name":"Stunzbergstr.","postalCode":"86577","locality":"Sielenbach","municipality":{"key":"09771165","name":"Sielenbach","type":"Kreisangehörige_Gemeinde"},"district":{"key":"09771","name":"Aichach-Friedberg","type":"Landkreis"},"federalState":{"key":"09","name":"Bayern"}},{"name":"Weinbergstr.","postalCode":"86577","locality":"Sielenbach","municipality":{"key":"09771165","name":"Sielenbach","type":"Kreisangehörige_Gemeinde"},"district":{"key":"09771","name":"Aichach-Friedberg","type":"Landkreis"},"federalState":{"key":"09","name":"Bayern"}},{"name":"Ziegelweg","postalCode":"86577","locality":"Sielenbach","municipality":{"key":"09771165","name":"Sielenbach","type":"Kreisangehörige_Gemeinde"},"district":{"key":"09771","name":"Aichach-Friedberg","type":"Landkreis"},"federalState":{"key":"09","name":"Bayern"}},]