[{"name":"Achter de Kark","postalCode":"25792","locality":"Neuenkirchen","municipality":{"key":"01051075","name":"Neuenkirchen","type":"Kreisangehörige_Gemeinde"},"district":{"key":"01051","name":"Dithmarschen","type":"Kreis"},"federalState":{"key":"01","name":"Schleswig-Holstein"}},{"name":"Achterkamp","postalCode":"48485","locality":"Neuenkirchen","municipality":{"key":"05566060","name":"Neuenkirchen","type":"Kreisangehörige_Gemeinde"},"district":{"key":"05566","name":"Steinfurt","type":"Kreis"},"federalState":{"key":"05","name":"Nordrhein-Westfalen"}},{"name":"Adalbert-Stifter-Str.","postalCode":"48485","locality":"Neuenkirchen","municipality":{"key":"05566060","name":"Neuenkirchen","type":"Kreisangehörige_Gemeinde"},"district":{"key":"05566","name":"Steinfurt","type":"Kreis"},"federalState":{"key":"05","name":"Nordrhein-Westfalen"}},{"name":"Affinghäuser Str.","postalCode":"27251","locality":"Neuenkirchen","municipality":{"key":"03251028","name":"Neuenkirchen","type":"Kreisangehörige_Gemeinde"},"district":{"key":"03251","name":"Diepholz","type":"Landkreis"},"federalState":{"key":"03","name":"Niedersachsen"}},{"name":"Ahornstr.","postalCode":"48485","locality":"Neuenkirchen","municipality":{"key":"05566060","name":"Neuenkirchen","type":"Kreisangehörige_Gemeinde"},"district":{"key":"05566","name":"Steinfurt","type":"Kreis"},"federalState":{"key":"05","name":"Nordrhein-Westfalen"}},{"name":"Ahornweg","postalCode":"17498","locality":"Neuenkirchen","municipality":{"key":"13075102","name":"Neuenkirchen","type":"Kreisangehörige_Gemeinde"},"district":{"key":"13075","name":"Vorpommern-Greifswald","type":"Landkreis"},"federalState":{"key":"13","name":"Mecklenburg-Vorpommern"}},{"name":"Ahornweg","postalCode":"27251","locality":"Neuenkirchen","municipality":{"key":"03251028","name":"Neuenkirchen","type":"Kreisangehörige_Gemeinde"},"district":{"key":"03251","name":"Diepholz","type":"Landkreis"},"federalState":{"key":"03","name":"Niedersachsen"}},{"name":"Ahornweg","postalCode":"49434","locality":"Neuenkirchen-Vörden","municipality":{"key":"03460007","name":"Neuenkirchen-Vörden","type":"Kreisangehörige_Gemeinde"},"district":{"key":"03460","name":"Vechta","type":"Landkreis"},"federalState":{"key":"03","name":"Niedersachsen"}},{"name":"Akazienstr.","postalCode":"48485","locality":"Neuenkirchen","municipality":{"key":"05566060","name":"Neuenkirchen","type":"Kreisangehörige_Gemeinde"},"district":{"key":"05566","name":"Steinfurt","type":"Kreis"},"federalState":{"key":"05","name":"Nordrhein-Westfalen"}},{"name":"Albrecht-Dürer-Str.","postalCode":"48485","locality":"Neuenkirchen","municipality":{"key":"05566060","name":"Neuenkirchen","type":"Kreisangehörige_Gemeinde"},"district":{"key":"05566","name":"Steinfurt","type":"Kreis"},"federalState":{"key":"05","name":"Nordrhein-Westfalen"}},{"name":"Alfhausener Str.","postalCode":"49434","locality":"Neuenkirchen-Vörden","municipality":{"key":"03460007","name":"Neuenkirchen-Vörden","type":"Kreisangehörige_Gemeinde"},"district":{"key":"03460","name":"Vechta","type":"Landkreis"},"federalState":{"key":"03","name":"Niedersachsen"}},{"name":"Alphons-Hecking-Platz","postalCode":"48485","locality":"Neuenkirchen","municipality":{"key":"05566060","name":"Neuenkirchen","type":"Kreisangehörige_Gemeinde"},"district":{"key":"05566","name":"Steinfurt","type":"Kreis"},"federalState":{"key":"05","name":"Nordrhein-Westfalen"}},{"name":"Alte Dorfstr.","postalCode":"25792","locality":"Neuenkirchen","municipality":{"key":"01051075","name":"Neuenkirchen","type":"Kreisangehörige_Gemeinde"},"district":{"key":"01051","name":"Dithmarschen","type":"Kreis"},"federalState":{"key":"01","name":"Schleswig-Holstein"}},{"name":"Alte Mühle","postalCode":"49586","locality":"Neuenkirchen","municipality":{"key":"03459027","name":"Neuenkirchen","type":"Kreisangehörige_Gemeinde"},"district":{"key":"03459","name":"Osnabrück","type":"Landkreis"},"federalState":{"key":"03","name":"Niedersachsen"}},{"name":"Altenschleuse","postalCode":"21640","locality":"Neuenkirchen","municipality":{"key":"03359033","name":"Neuenkirchen","type":"Kreisangehörige_Gemeinde"},"district":{"key":"03359","name":"Stade","type":"Landkreis"},"federalState":{"key":"03","name":"Niedersachsen"}},{"name":"Alte Postbrücke","postalCode":"29643","locality":"Neuenkirchen","municipality":{"key":"03358017","name":"Neuenkirchen","type":"Kreisangehörige_Gemeinde"},"district":{"key":"03358","name":"Heidekreis","type":"Landkreis"},"federalState":{"key":"03","name":"Niedersachsen"}},{"name":"Alte Poststr.","postalCode":"49586","locality":"Neuenkirchen","municipality":{"key":"03459027","name":"Neuenkirchen","type":"Kreisangehörige_Gemeinde"},"district":{"key":"03459","name":"Osnabrück","type":"Landkreis"},"federalState":{"key":"03","name":"Niedersachsen"}},{"name":"Alter Markt","postalCode":"49434","locality":"Neuenkirchen-Vörden","municipality":{"key":"03460007","name":"Neuenkirchen-Vörden","type":"Kreisangehörige_Gemeinde"},"district":{"key":"03460","name":"Vechta","type":"Landkreis"},"federalState":{"key":"03","name":"Niedersachsen"}},{"name":"Alte Schulstr.","postalCode":"29643","locality":"Neuenkirchen","municipality":{"key":"03358017","name":"Neuenkirchen","type":"Kreisangehörige_Gemeinde"},"district":{"key":"03358","name":"Heidekreis","type":"Landkreis"},"federalState":{"key":"03","name":"Niedersachsen"}},{"name":"Alte Vogtei","postalCode":"29643","locality":"Neuenkirchen","municipality":{"key":"03358017","name":"Neuenkirchen","type":"Kreisangehörige_Gemeinde"},"district":{"key":"03358","name":"Heidekreis","type":"Landkreis"},"federalState":{"key":"03","name":"Niedersachsen"}},{"name":"Altländer Str.","postalCode":"21640","locality":"Neuenkirchen","municipality":{"key":"03359033","name":"Neuenkirchen","type":"Kreisangehörige_Gemeinde"},"district":{"key":"03359","name":"Stade","type":"Landkreis"},"federalState":{"key":"03","name":"Niedersachsen"}},{"name":"Alwine-Wuthenow-Ring","postalCode":"17498","locality":"Neuenkirchen","municipality":{"key":"13075102","name":"Neuenkirchen","type":"Kreisangehörige_Gemeinde"},"district":{"key":"13075","name":"Vorpommern-Greifswald","type":"Landkreis"},"federalState":{"key":"13","name":"Mecklenburg-Vorpommern"}},{"name":"Am alten Krankenhaus","postalCode":"48485","locality":"Neuenkirchen","municipality":{"key":"05566060","name":"Neuenkirchen","type":"Kreisangehörige_Gemeinde"},"district":{"key":"05566","name":"Steinfurt","type":"Kreis"},"federalState":{"key":"05","name":"Nordrhein-Westfalen"}},{"name":"Am Anger","postalCode":"17039","locality":"Neuenkirchen","municipality":{"key":"13071108","name":"Neuenkirchen","type":"Kreisangehörige_Gemeinde"},"district":{"key":"13071","name":"Mecklenburgische Seenplatte","type":"Landkreis"},"federalState":{"key":"13","name":"Mecklenburg-Vorpommern"}},{"name":"Am Apfelgarten","postalCode":"29643","locality":"Neuenkirchen","municipality":{"key":"03358017","name":"Neuenkirchen","type":"Kreisangehörige_Gemeinde"},"district":{"key":"03358","name":"Heidekreis","type":"Landkreis"},"federalState":{"key":"03","name":"Niedersachsen"}},{"name":"Am Bahndamm","postalCode":"48485","locality":"Neuenkirchen","municipality":{"key":"05566060","name":"Neuenkirchen","type":"Kreisangehörige_Gemeinde"},"district":{"key":"05566","name":"Steinfurt","type":"Kreis"},"federalState":{"key":"05","name":"Nordrhein-Westfalen"}},{"name":"Am Breetzer Bodden","postalCode":"18569","locality":"Neuenkirchen","municipality":{"key":"13073059","name":"Neuenkirchen","type":"Kreisangehörige_Gemeinde"},"district":{"key":"13073","name":"Vorpommern-Rügen","type":"Landkreis"},"federalState":{"key":"13","name":"Mecklenburg-Vorpommern"}},{"name":"Am Burggraben","postalCode":"49434","locality":"Neuenkirchen-Vörden","municipality":{"key":"03460007","name":"Neuenkirchen-Vörden","type":"Kreisangehörige_Gemeinde"},"district":{"key":"03460","name":"Vechta","type":"Landkreis"},"federalState":{"key":"03","name":"Niedersachsen"}},{"name":"Am Burghof","postalCode":"49434","locality":"Neuenkirchen-Vörden","municipality":{"key":"03460007","name":"Neuenkirchen-Vörden","type":"Kreisangehörige_Gemeinde"},"district":{"key":"03460","name":"Vechta","type":"Landkreis"},"federalState":{"key":"03","name":"Niedersachsen"}},{"name":"Am Dicken Sünder","postalCode":"27251","locality":"Neuenkirchen","municipality":{"key":"03251028","name":"Neuenkirchen","type":"Kreisangehörige_Gemeinde"},"district":{"key":"03251","name":"Diepholz","type":"Landkreis"},"federalState":{"key":"03","name":"Niedersachsen"}},{"name":"Am Dünnen Sünder","postalCode":"27251","locality":"Neuenkirchen","municipality":{"key":"03251028","name":"Neuenkirchen","type":"Kreisangehörige_Gemeinde"},"district":{"key":"03251","name":"Diepholz","type":"Landkreis"},"federalState":{"key":"03","name":"Niedersachsen"}},{"name":"Am Felde","postalCode":"17498","locality":"Neuenkirchen","municipality":{"key":"13075102","name":"Neuenkirchen","type":"Kreisangehörige_Gemeinde"},"district":{"key":"13075","name":"Vorpommern-Greifswald","type":"Landkreis"},"federalState":{"key":"13","name":"Mecklenburg-Vorpommern"}},{"name":"Am Forsthof","postalCode":"49434","locality":"Neuenkirchen-Vörden","municipality":{"key":"03460007","name":"Neuenkirchen-Vörden","type":"Kreisangehörige_Gemeinde"},"district":{"key":"03460","name":"Vechta","type":"Landkreis"},"federalState":{"key":"03","name":"Niedersachsen"}},{"name":"Am Fuchsbau","postalCode":"29643","locality":"Neuenkirchen","municipality":{"key":"03358017","name":"Neuenkirchen","type":"Kreisangehörige_Gemeinde"},"district":{"key":"03358","name":"Heidekreis","type":"Landkreis"},"federalState":{"key":"03","name":"Niedersachsen"}},{"name":"Am Füerboll","postalCode":"49434","locality":"Neuenkirchen-Vörden","municipality":{"key":"03460007","name":"Neuenkirchen-Vörden","type":"Kreisangehörige_Gemeinde"},"district":{"key":"03460","name":"Vechta","type":"Landkreis"},"federalState":{"key":"03","name":"Niedersachsen"}},{"name":"Am Goldberg","postalCode":"48485","locality":"Neuenkirchen","municipality":{"key":"05566060","name":"Neuenkirchen","type":"Kreisangehörige_Gemeinde"},"district":{"key":"05566","name":"Steinfurt","type":"Kreis"},"federalState":{"key":"05","name":"Nordrhein-Westfalen"}},{"name":"Am Grimberg","postalCode":"27251","locality":"Neuenkirchen","municipality":{"key":"03251028","name":"Neuenkirchen","type":"Kreisangehörige_Gemeinde"},"district":{"key":"03251","name":"Diepholz","type":"Landkreis"},"federalState":{"key":"03","name":"Niedersachsen"}},{"name":"Am Gutshaus","postalCode":"17039","locality":"Neuenkirchen","municipality":{"key":"13071108","name":"Neuenkirchen","type":"Kreisangehörige_Gemeinde"},"district":{"key":"13071","name":"Mecklenburgische Seenplatte","type":"Landkreis"},"federalState":{"key":"13","name":"Mecklenburg-Vorpommern"}},{"name":"Am Hiesberg","postalCode":"49434","locality":"Neuenkirchen-Vörden","municipality":{"key":"03460007","name":"Neuenkirchen-Vörden","type":"Kreisangehörige_Gemeinde"},"district":{"key":"03460","name":"Vechta","type":"Landkreis"},"federalState":{"key":"03","name":"Niedersachsen"}},{"name":"Am Hollersbach","postalCode":"49434","locality":"Neuenkirchen-Vörden","municipality":{"key":"03460007","name":"Neuenkirchen-Vörden","type":"Kreisangehörige_Gemeinde"},"district":{"key":"03460","name":"Vechta","type":"Landkreis"},"federalState":{"key":"03","name":"Niedersachsen"}},{"name":"Am Holzweg","postalCode":"29643","locality":"Neuenkirchen","municipality":{"key":"03358017","name":"Neuenkirchen","type":"Kreisangehörige_Gemeinde"},"district":{"key":"03358","name":"Heidekreis","type":"Landkreis"},"federalState":{"key":"03","name":"Niedersachsen"}},{"name":"Am Hungerkamp","postalCode":"29643","locality":"Neuenkirchen","municipality":{"key":"03358017","name":"Neuenkirchen","type":"Kreisangehörige_Gemeinde"},"district":{"key":"03358","name":"Heidekreis","type":"Landkreis"},"federalState":{"key":"03","name":"Niedersachsen"}},{"name":"Am Kienmoor","postalCode":"27251","locality":"Neuenkirchen","municipality":{"key":"03251028","name":"Neuenkirchen","type":"Kreisangehörige_Gemeinde"},"district":{"key":"03251","name":"Diepholz","type":"Landkreis"},"federalState":{"key":"03","name":"Niedersachsen"}},{"name":"Am Kleinbahnhof","postalCode":"29643","locality":"Neuenkirchen","municipality":{"key":"03358017","name":"Neuenkirchen","type":"Kreisangehörige_Gemeinde"},"district":{"key":"03358","name":"Heidekreis","type":"Landkreis"},"federalState":{"key":"03","name":"Niedersachsen"}},{"name":"Am Klusweg","postalCode":"49434","locality":"Neuenkirchen-Vörden","municipality":{"key":"03460007","name":"Neuenkirchen-Vörden","type":"Kreisangehörige_Gemeinde"},"district":{"key":"03460","name":"Vechta","type":"Landkreis"},"federalState":{"key":"03","name":"Niedersachsen"}},{"name":"Am Kohlgraben","postalCode":"17498","locality":"Neuenkirchen","municipality":{"key":"13075102","name":"Neuenkirchen","type":"Kreisangehörige_Gemeinde"},"district":{"key":"13075","name":"Vorpommern-Greifswald","type":"Landkreis"},"federalState":{"key":"13","name":"Mecklenburg-Vorpommern"}},{"name":"Am Krebsbach","postalCode":"49434","locality":"Neuenkirchen-Vörden","municipality":{"key":"03460007","name":"Neuenkirchen-Vörden","type":"Kreisangehörige_Gemeinde"},"district":{"key":"03460","name":"Vechta","type":"Landkreis"},"federalState":{"key":"03","name":"Niedersachsen"}},{"name":"Am Kreuzweg","postalCode":"21763","locality":"Neuenkirchen","municipality":{"key":"03352038","name":"Neuenkirchen","type":"Kreisangehörige_Gemeinde"},"district":{"key":"03352","name":"Cuxhaven","type":"Landkreis"},"federalState":{"key":"03","name":"Niedersachsen"}},{"name":"Am Lüersberg","postalCode":"49434","locality":"Neuenkirchen-Vörden","municipality":{"key":"03460007","name":"Neuenkirchen-Vörden","type":"Kreisangehörige_Gemeinde"},"district":{"key":"03460","name":"Vechta","type":"Landkreis"},"federalState":{"key":"03","name":"Niedersachsen"}},{"name":"Am Medembogen","postalCode":"21763","locality":"Neuenkirchen","municipality":{"key":"03352038","name":"Neuenkirchen","type":"Kreisangehörige_Gemeinde"},"district":{"key":"03352","name":"Cuxhaven","type":"Landkreis"},"federalState":{"key":"03","name":"Niedersachsen"}},{"name":"Bachstr.","postalCode":"29643","locality":"Neuenkirchen","municipality":{"key":"03358017","name":"Neuenkirchen","type":"Kreisangehörige_Gemeinde"},"district":{"key":"03358","name":"Heidekreis","type":"Landkreis"},"federalState":{"key":"03","name":"Niedersachsen"}},{"name":"Badergasse","postalCode":"49434","locality":"Neuenkirchen-Vörden","municipality":{"key":"03460007","name":"Neuenkirchen-Vörden","type":"Kreisangehörige_Gemeinde"},"district":{"key":"03460","name":"Vechta","type":"Landkreis"},"federalState":{"key":"03","name":"Niedersachsen"}},{"name":"Bahnhof","postalCode":"17039","locality":"Neuenkirchen","municipality":{"key":"13071108","name":"Neuenkirchen","type":"Kreisangehörige_Gemeinde"},"district":{"key":"13071","name":"Mecklenburgische Seenplatte","type":"Landkreis"},"federalState":{"key":"13","name":"Mecklenburg-Vorpommern"}},{"name":"Bahnhofstr.","postalCode":"29643","locality":"Neuenkirchen","municipality":{"key":"03358017","name":"Neuenkirchen","type":"Kreisangehörige_Gemeinde"},"district":{"key":"03358","name":"Heidekreis","type":"Landkreis"},"federalState":{"key":"03","name":"Niedersachsen"}},{"name":"Bahnhofstr.","postalCode":"48485","locality":"Neuenkirchen","municipality":{"key":"05566060","name":"Neuenkirchen","type":"Kreisangehörige_Gemeinde"},"district":{"key":"05566","name":"Steinfurt","type":"Kreis"},"federalState":{"key":"05","name":"Nordrhein-Westfalen"}},{"name":"Bahnhofstr.","postalCode":"49434","locality":"Neuenkirchen-Vörden","municipality":{"key":"03460007","name":"Neuenkirchen-Vörden","type":"Kreisangehörige_Gemeinde"},"district":{"key":"03460","name":"Vechta","type":"Landkreis"},"federalState":{"key":"03","name":"Niedersachsen"}},{"name":"Bahnseitenweg","postalCode":"27251","locality":"Neuenkirchen","municipality":{"key":"03251028","name":"Neuenkirchen","type":"Kreisangehörige_Gemeinde"},"district":{"key":"03251","name":"Diepholz","type":"Landkreis"},"federalState":{"key":"03","name":"Niedersachsen"}},{"name":"Bassumer Str.","postalCode":"27251","locality":"Neuenkirchen","municipality":{"key":"03251028","name":"Neuenkirchen","type":"Kreisangehörige_Gemeinde"},"district":{"key":"03251","name":"Diepholz","type":"Landkreis"},"federalState":{"key":"03","name":"Niedersachsen"}},{"name":"Beethovenstr.","postalCode":"29643","locality":"Neuenkirchen","municipality":{"key":"03358017","name":"Neuenkirchen","type":"Kreisangehörige_Gemeinde"},"district":{"key":"03358","name":"Heidekreis","type":"Landkreis"},"federalState":{"key":"03","name":"Niedersachsen"}},{"name":"Behningen","postalCode":"29643","locality":"Neuenkirchen","municipality":{"key":"03358017","name":"Neuenkirchen","type":"Kreisangehörige_Gemeinde"},"district":{"key":"03358","name":"Heidekreis","type":"Landkreis"},"federalState":{"key":"03","name":"Niedersachsen"}},{"name":"Behninger Str.","postalCode":"29643","locality":"Neuenkirchen","municipality":{"key":"03358017","name":"Neuenkirchen","type":"Kreisangehörige_Gemeinde"},"district":{"key":"03358","name":"Heidekreis","type":"Landkreis"},"federalState":{"key":"03","name":"Niedersachsen"}},{"name":"Bergstr.","postalCode":"49434","locality":"Neuenkirchen-Vörden","municipality":{"key":"03460007","name":"Neuenkirchen-Vörden","type":"Kreisangehörige_Gemeinde"},"district":{"key":"03460","name":"Vechta","type":"Landkreis"},"federalState":{"key":"03","name":"Niedersachsen"}},{"name":"Bergweg","postalCode":"48485","locality":"Neuenkirchen","municipality":{"key":"05566060","name":"Neuenkirchen","type":"Kreisangehörige_Gemeinde"},"district":{"key":"05566","name":"Steinfurt","type":"Kreis"},"federalState":{"key":"05","name":"Nordrhein-Westfalen"}},{"name":"Bersenbrücker Str.","postalCode":"49434","locality":"Neuenkirchen-Vörden","municipality":{"key":"03460007","name":"Neuenkirchen-Vörden","type":"Kreisangehörige_Gemeinde"},"district":{"key":"03460","name":"Vechta","type":"Landkreis"},"federalState":{"key":"03","name":"Niedersachsen"}},{"name":"Bienenweg","postalCode":"17039","locality":"Neuenkirchen","municipality":{"key":"13071108","name":"Neuenkirchen","type":"Kreisangehörige_Gemeinde"},"district":{"key":"13071","name":"Mecklenburgische Seenplatte","type":"Landkreis"},"federalState":{"key":"13","name":"Mecklenburg-Vorpommern"}},{"name":"Bieste","postalCode":"49434","locality":"Neuenkirchen-Vörden","municipality":{"key":"03460007","name":"Neuenkirchen-Vörden","type":"Kreisangehörige_Gemeinde"},"district":{"key":"03460","name":"Vechta","type":"Landkreis"},"federalState":{"key":"03","name":"Niedersachsen"}},{"name":"Biester Heide","postalCode":"49434","locality":"Neuenkirchen-Vörden","municipality":{"key":"03460007","name":"Neuenkirchen-Vörden","type":"Kreisangehörige_Gemeinde"},"district":{"key":"03460","name":"Vechta","type":"Landkreis"},"federalState":{"key":"03","name":"Niedersachsen"}},{"name":"Birkenweg","postalCode":"17498","locality":"Neuenkirchen","municipality":{"key":"13075102","name":"Neuenkirchen","type":"Kreisangehörige_Gemeinde"},"district":{"key":"13075","name":"Vorpommern-Greifswald","type":"Landkreis"},"federalState":{"key":"13","name":"Mecklenburg-Vorpommern"}},{"name":"Birkenweg","postalCode":"29643","locality":"Neuenkirchen","municipality":{"key":"03358017","name":"Neuenkirchen","type":"Kreisangehörige_Gemeinde"},"district":{"key":"03358","name":"Heidekreis","type":"Landkreis"},"federalState":{"key":"03","name":"Niedersachsen"}},{"name":"Birkenweg","postalCode":"48485","locality":"Neuenkirchen","municipality":{"key":"05566060","name":"Neuenkirchen","type":"Kreisangehörige_Gemeinde"},"district":{"key":"05566","name":"Steinfurt","type":"Kreis"},"federalState":{"key":"05","name":"Nordrhein-Westfalen"}},{"name":"Birkenweg","postalCode":"49434","locality":"Neuenkirchen-Vörden","municipality":{"key":"03460007","name":"Neuenkirchen-Vörden","type":"Kreisangehörige_Gemeinde"},"district":{"key":"03460","name":"Vechta","type":"Landkreis"},"federalState":{"key":"03","name":"Niedersachsen"}},{"name":"Blankenmoorer Str.","postalCode":"25792","locality":"Neuenkirchen","municipality":{"key":"01051075","name":"Neuenkirchen","type":"Kreisangehörige_Gemeinde"},"district":{"key":"01051","name":"Dithmarschen","type":"Kreis"},"federalState":{"key":"01","name":"Schleswig-Holstein"}},{"name":"Blumenstr.","postalCode":"29643","locality":"Neuenkirchen","municipality":{"key":"03358017","name":"Neuenkirchen","type":"Kreisangehörige_Gemeinde"},"district":{"key":"03358","name":"Heidekreis","type":"Landkreis"},"federalState":{"key":"03","name":"Niedersachsen"}},{"name":"Boddenblick","postalCode":"17498","locality":"Neuenkirchen","municipality":{"key":"13075102","name":"Neuenkirchen","type":"Kreisangehörige_Gemeinde"},"district":{"key":"13075","name":"Vorpommern-Greifswald","type":"Landkreis"},"federalState":{"key":"13","name":"Mecklenburg-Vorpommern"}},{"name":"Böddinghusener Weg","postalCode":"25792","locality":"Neuenkirchen","municipality":{"key":"01051075","name":"Neuenkirchen","type":"Kreisangehörige_Gemeinde"},"district":{"key":"01051","name":"Dithmarschen","type":"Kreis"},"federalState":{"key":"01","name":"Schleswig-Holstein"}},{"name":"Bohnenkamp","postalCode":"49434","locality":"Neuenkirchen-Vörden","municipality":{"key":"03460007","name":"Neuenkirchen-Vörden","type":"Kreisangehörige_Gemeinde"},"district":{"key":"03460","name":"Vechta","type":"Landkreis"},"federalState":{"key":"03","name":"Niedersachsen"}},{"name":"Bornbusch","postalCode":"29643","locality":"Neuenkirchen","municipality":{"key":"03358017","name":"Neuenkirchen","type":"Kreisangehörige_Gemeinde"},"district":{"key":"03358","name":"Heidekreis","type":"Landkreis"},"federalState":{"key":"03","name":"Niedersachsen"}},{"name":"Bornhorst","postalCode":"29643","locality":"Neuenkirchen","municipality":{"key":"03358017","name":"Neuenkirchen","type":"Kreisangehörige_Gemeinde"},"district":{"key":"03358","name":"Heidekreis","type":"Landkreis"},"federalState":{"key":"03","name":"Niedersachsen"}},{"name":"Bornstr.","postalCode":"27251","locality":"Neuenkirchen","municipality":{"key":"03251028","name":"Neuenkirchen","type":"Kreisangehörige_Gemeinde"},"district":{"key":"03251","name":"Diepholz","type":"Landkreis"},"federalState":{"key":"03","name":"Niedersachsen"}},{"name":"Boschstr.","postalCode":"29643","locality":"Neuenkirchen","municipality":{"key":"03358017","name":"Neuenkirchen","type":"Kreisangehörige_Gemeinde"},"district":{"key":"03358","name":"Heidekreis","type":"Landkreis"},"federalState":{"key":"03","name":"Niedersachsen"}},{"name":"Böttchergasse","postalCode":"49434","locality":"Neuenkirchen-Vörden","municipality":{"key":"03460007","name":"Neuenkirchen-Vörden","type":"Kreisangehörige_Gemeinde"},"district":{"key":"03460","name":"Vechta","type":"Landkreis"},"federalState":{"key":"03","name":"Niedersachsen"}},{"name":"Bramscher Str.","postalCode":"49586","locality":"Neuenkirchen","municipality":{"key":"03459027","name":"Neuenkirchen","type":"Kreisangehörige_Gemeinde"},"district":{"key":"03459","name":"Osnabrück","type":"Landkreis"},"federalState":{"key":"03","name":"Niedersachsen"}},{"name":"Brandenburger Str.","postalCode":"29643","locality":"Neuenkirchen","municipality":{"key":"03358017","name":"Neuenkirchen","type":"Kreisangehörige_Gemeinde"},"district":{"key":"03358","name":"Heidekreis","type":"Landkreis"},"federalState":{"key":"03","name":"Niedersachsen"}},{"name":"Brauergasse","postalCode":"49434","locality":"Neuenkirchen-Vörden","municipality":{"key":"03460007","name":"Neuenkirchen-Vörden","type":"Kreisangehörige_Gemeinde"},"district":{"key":"03460","name":"Vechta","type":"Landkreis"},"federalState":{"key":"03","name":"Niedersachsen"}},{"name":"Braunschweiger Str.","postalCode":"49434","locality":"Neuenkirchen-Vörden","municipality":{"key":"03460007","name":"Neuenkirchen-Vörden","type":"Kreisangehörige_Gemeinde"},"district":{"key":"03460","name":"Vechta","type":"Landkreis"},"federalState":{"key":"03","name":"Niedersachsen"}},{"name":"Breetz","postalCode":"18569","locality":"Neuenkirchen","municipality":{"key":"13073059","name":"Neuenkirchen","type":"Kreisangehörige_Gemeinde"},"district":{"key":"13073","name":"Vorpommern-Rügen","type":"Landkreis"},"federalState":{"key":"13","name":"Mecklenburg-Vorpommern"}},{"name":"Brochdorfer Str.","postalCode":"29643","locality":"Neuenkirchen","municipality":{"key":"03358017","name":"Neuenkirchen","type":"Kreisangehörige_Gemeinde"},"district":{"key":"03358","name":"Heidekreis","type":"Landkreis"},"federalState":{"key":"03","name":"Niedersachsen"}},{"name":"Brombeerweg","postalCode":"29643","locality":"Neuenkirchen","municipality":{"key":"03358017","name":"Neuenkirchen","type":"Kreisangehörige_Gemeinde"},"district":{"key":"03358","name":"Heidekreis","type":"Landkreis"},"federalState":{"key":"03","name":"Niedersachsen"}},{"name":"Brückenstr.","postalCode":"48485","locality":"Neuenkirchen","municipality":{"key":"05566060","name":"Neuenkirchen","type":"Kreisangehörige_Gemeinde"},"district":{"key":"05566","name":"Steinfurt","type":"Kreis"},"federalState":{"key":"05","name":"Nordrhein-Westfalen"}},{"name":"Brüder-Grimm-Weg","postalCode":"49434","locality":"Neuenkirchen-Vörden","municipality":{"key":"03460007","name":"Neuenkirchen-Vörden","type":"Kreisangehörige_Gemeinde"},"district":{"key":"03460","name":"Vechta","type":"Landkreis"},"federalState":{"key":"03","name":"Niedersachsen"}},{"name":"Bruktererweg","postalCode":"48485","locality":"Neuenkirchen","municipality":{"key":"05566060","name":"Neuenkirchen","type":"Kreisangehörige_Gemeinde"},"district":{"key":"05566","name":"Steinfurt","type":"Kreis"},"federalState":{"key":"05","name":"Nordrhein-Westfalen"}},{"name":"Brüninghemm","postalCode":"21763","locality":"Neuenkirchen","municipality":{"key":"03352038","name":"Neuenkirchen","type":"Kreisangehörige_Gemeinde"},"district":{"key":"03352","name":"Cuxhaven","type":"Landkreis"},"federalState":{"key":"03","name":"Niedersachsen"}},{"name":"Brünings Kamp","postalCode":"48485","locality":"Neuenkirchen","municipality":{"key":"05566060","name":"Neuenkirchen","type":"Kreisangehörige_Gemeinde"},"district":{"key":"05566","name":"Steinfurt","type":"Kreis"},"federalState":{"key":"05","name":"Nordrhein-Westfalen"}},{"name":"Buchenstr.","postalCode":"48485","locality":"Neuenkirchen","municipality":{"key":"05566060","name":"Neuenkirchen","type":"Kreisangehörige_Gemeinde"},"district":{"key":"05566","name":"Steinfurt","type":"Kreis"},"federalState":{"key":"05","name":"Nordrhein-Westfalen"}},{"name":"Buchenweg","postalCode":"27251","locality":"Neuenkirchen","municipality":{"key":"03251028","name":"Neuenkirchen","type":"Kreisangehörige_Gemeinde"},"district":{"key":"03251","name":"Diepholz","type":"Landkreis"},"federalState":{"key":"03","name":"Niedersachsen"}},{"name":"Buchenweg","postalCode":"49434","locality":"Neuenkirchen-Vörden","municipality":{"key":"03460007","name":"Neuenkirchen-Vörden","type":"Kreisangehörige_Gemeinde"},"district":{"key":"03460","name":"Vechta","type":"Landkreis"},"federalState":{"key":"03","name":"Niedersachsen"}},{"name":"Buchweizenkamp","postalCode":"29643","locality":"Neuenkirchen","municipality":{"key":"03358017","name":"Neuenkirchen","type":"Kreisangehörige_Gemeinde"},"district":{"key":"03358","name":"Heidekreis","type":"Landkreis"},"federalState":{"key":"03","name":"Niedersachsen"}},{"name":"Buerweg","postalCode":"25792","locality":"Neuenkirchen","municipality":{"key":"01051075","name":"Neuenkirchen","type":"Kreisangehörige_Gemeinde"},"district":{"key":"01051","name":"Dithmarschen","type":"Kreis"},"federalState":{"key":"01","name":"Schleswig-Holstein"}},{"name":"Bur","postalCode":"49586","locality":"Neuenkirchen","municipality":{"key":"03459027","name":"Neuenkirchen","type":"Kreisangehörige_Gemeinde"},"district":{"key":"03459","name":"Osnabrück","type":"Landkreis"},"federalState":{"key":"03","name":"Niedersachsen"}},{"name":"Burgsteinfurter Damm","postalCode":"48485","locality":"Neuenkirchen","municipality":{"key":"05566060","name":"Neuenkirchen","type":"Kreisangehörige_Gemeinde"},"district":{"key":"05566","name":"Steinfurt","type":"Kreis"},"federalState":{"key":"05","name":"Nordrhein-Westfalen"}},{"name":"Campemoor","postalCode":"49434","locality":"Neuenkirchen-Vörden","municipality":{"key":"03460007","name":"Neuenkirchen-Vörden","type":"Kreisangehörige_Gemeinde"},"district":{"key":"03460","name":"Vechta","type":"Landkreis"},"federalState":{"key":"03","name":"Niedersachsen"}},{"name":"Campemoorstr.","postalCode":"49434","locality":"Neuenkirchen-Vörden","municipality":{"key":"03460007","name":"Neuenkirchen-Vörden","type":"Kreisangehörige_Gemeinde"},"district":{"key":"03460","name":"Vechta","type":"Landkreis"},"federalState":{"key":"03","name":"Niedersachsen"}},{"name":"Cantruper Str.","postalCode":"27251","locality":"Neuenkirchen","municipality":{"key":"03251028","name":"Neuenkirchen","type":"Kreisangehörige_Gemeinde"},"district":{"key":"03251","name":"Diepholz","type":"Landkreis"},"federalState":{"key":"03","name":"Niedersachsen"}},{"name":"Caspar-David-Friedrich-Blick","postalCode":"17498","locality":"Neuenkirchen","municipality":{"key":"13075102","name":"Neuenkirchen","type":"Kreisangehörige_Gemeinde"},"district":{"key":"13075","name":"Vorpommern-Greifswald","type":"Landkreis"},"federalState":{"key":"13","name":"Mecklenburg-Vorpommern"}},{"name":"Catharinenlehn","postalCode":"21763","locality":"Neuenkirchen","municipality":{"key":"03352038","name":"Neuenkirchen","type":"Kreisangehörige_Gemeinde"},"district":{"key":"03352","name":"Cuxhaven","type":"Landkreis"},"federalState":{"key":"03","name":"Niedersachsen"}},{"name":"Chausseestr.","postalCode":"17498","locality":"Neuenkirchen","municipality":{"key":"13075102","name":"Neuenkirchen","type":"Kreisangehörige_Gemeinde"},"district":{"key":"13075","name":"Vorpommern-Greifswald","type":"Landkreis"},"federalState":{"key":"13","name":"Mecklenburg-Vorpommern"}},{"name":"Christmannsweg","postalCode":"29643","locality":"Neuenkirchen","municipality":{"key":"03358017","name":"Neuenkirchen","type":"Kreisangehörige_Gemeinde"},"district":{"key":"03358","name":"Heidekreis","type":"Landkreis"},"federalState":{"key":"03","name":"Niedersachsen"}},{"name":"Conrad-Röntgen-Str.","postalCode":"48485","locality":"Neuenkirchen","municipality":{"key":"05566060","name":"Neuenkirchen","type":"Kreisangehörige_Gemeinde"},"district":{"key":"05566","name":"Steinfurt","type":"Kreis"},"federalState":{"key":"05","name":"Nordrhein-Westfalen"}},{"name":"Dahlienstr.","postalCode":"48485","locality":"Neuenkirchen","municipality":{"key":"05566060","name":"Neuenkirchen","type":"Kreisangehörige_Gemeinde"},"district":{"key":"05566","name":"Steinfurt","type":"Kreis"},"federalState":{"key":"05","name":"Nordrhein-Westfalen"}},{"name":"Dallwand","postalCode":"48485","locality":"Neuenkirchen","municipality":{"key":"05566060","name":"Neuenkirchen","type":"Kreisangehörige_Gemeinde"},"district":{"key":"05566","name":"Steinfurt","type":"Kreis"},"federalState":{"key":"05","name":"Nordrhein-Westfalen"}},{"name":"Dammer Str.","postalCode":"49434","locality":"Neuenkirchen-Vörden","municipality":{"key":"03460007","name":"Neuenkirchen-Vörden","type":"Kreisangehörige_Gemeinde"},"district":{"key":"03460","name":"Vechta","type":"Landkreis"},"federalState":{"key":"03","name":"Niedersachsen"}},{"name":"Danziger Str.","postalCode":"29643","locality":"Neuenkirchen","municipality":{"key":"03358017","name":"Neuenkirchen","type":"Kreisangehörige_Gemeinde"},"district":{"key":"03358","name":"Heidekreis","type":"Landkreis"},"federalState":{"key":"03","name":"Niedersachsen"}},{"name":"Danziger Weg","postalCode":"29643","locality":"Neuenkirchen","municipality":{"key":"03358017","name":"Neuenkirchen","type":"Kreisangehörige_Gemeinde"},"district":{"key":"03358","name":"Heidekreis","type":"Landkreis"},"federalState":{"key":"03","name":"Niedersachsen"}},{"name":"Darlagenstr.","postalCode":"48485","locality":"Neuenkirchen","municipality":{"key":"05566060","name":"Neuenkirchen","type":"Kreisangehörige_Gemeinde"},"district":{"key":"05566","name":"Steinfurt","type":"Kreis"},"federalState":{"key":"05","name":"Nordrhein-Westfalen"}},{"name":"Dechant-Starp-Str.","postalCode":"49586","locality":"Neuenkirchen","municipality":{"key":"03459027","name":"Neuenkirchen","type":"Kreisangehörige_Gemeinde"},"district":{"key":"03459","name":"Osnabrück","type":"Landkreis"},"federalState":{"key":"03","name":"Niedersachsen"}},{"name":"Deepener Weg","postalCode":"29643","locality":"Neuenkirchen","municipality":{"key":"03358017","name":"Neuenkirchen","type":"Kreisangehörige_Gemeinde"},"district":{"key":"03358","name":"Heidekreis","type":"Landkreis"},"federalState":{"key":"03","name":"Niedersachsen"}},{"name":"Deichweg","postalCode":"17498","locality":"Neuenkirchen","municipality":{"key":"13075102","name":"Neuenkirchen","type":"Kreisangehörige_Gemeinde"},"district":{"key":"13075","name":"Vorpommern-Greifswald","type":"Landkreis"},"federalState":{"key":"13","name":"Mecklenburg-Vorpommern"}},{"name":"Dellweg","postalCode":"25792","locality":"Neuenkirchen","municipality":{"key":"01051075","name":"Neuenkirchen","type":"Kreisangehörige_Gemeinde"},"district":{"key":"01051","name":"Dithmarschen","type":"Kreis"},"federalState":{"key":"01","name":"Schleswig-Holstein"}},{"name":"Delmser Dorfstr.","postalCode":"29643","locality":"Neuenkirchen","municipality":{"key":"03358017","name":"Neuenkirchen","type":"Kreisangehörige_Gemeinde"},"district":{"key":"03358","name":"Heidekreis","type":"Landkreis"},"federalState":{"key":"03","name":"Niedersachsen"}},{"name":"Dinkelkamp","postalCode":"29643","locality":"Neuenkirchen","municipality":{"key":"03358017","name":"Neuenkirchen","type":"Kreisangehörige_Gemeinde"},"district":{"key":"03358","name":"Heidekreis","type":"Landkreis"},"federalState":{"key":"03","name":"Niedersachsen"}},{"name":"Dinkelkamp","postalCode":"48485","locality":"Neuenkirchen","municipality":{"key":"05566060","name":"Neuenkirchen","type":"Kreisangehörige_Gemeinde"},"district":{"key":"05566","name":"Steinfurt","type":"Kreis"},"federalState":{"key":"05","name":"Nordrhein-Westfalen"}},{"name":"Dobbelhofskamp","postalCode":"49586","locality":"Neuenkirchen","municipality":{"key":"03459027","name":"Neuenkirchen","type":"Kreisangehörige_Gemeinde"},"district":{"key":"03459","name":"Osnabrück","type":"Landkreis"},"federalState":{"key":"03","name":"Niedersachsen"}},{"name":"Dorfbauerschaft","postalCode":"48485","locality":"Neuenkirchen","municipality":{"key":"05566060","name":"Neuenkirchen","type":"Kreisangehörige_Gemeinde"},"district":{"key":"05566","name":"Steinfurt","type":"Kreis"},"federalState":{"key":"05","name":"Nordrhein-Westfalen"}},{"name":"Dorfplatz","postalCode":"49434","locality":"Neuenkirchen-Vörden","municipality":{"key":"03460007","name":"Neuenkirchen-Vörden","type":"Kreisangehörige_Gemeinde"},"district":{"key":"03460","name":"Vechta","type":"Landkreis"},"federalState":{"key":"03","name":"Niedersachsen"}},{"name":"Dorfstr.","postalCode":"17392","locality":"Neuenkirchen","municipality":{"key":"13075101","name":"Neuenkirchen","type":"Kreisangehörige_Gemeinde"},"district":{"key":"13075","name":"Vorpommern-Greifswald","type":"Landkreis"},"federalState":{"key":"13","name":"Mecklenburg-Vorpommern"}},{"name":"Dorfstr.","postalCode":"17498","locality":"Neuenkirchen","municipality":{"key":"13075102","name":"Neuenkirchen","type":"Kreisangehörige_Gemeinde"},"district":{"key":"13075","name":"Vorpommern-Greifswald","type":"Landkreis"},"federalState":{"key":"13","name":"Mecklenburg-Vorpommern"}},{"name":"Dorfstr.","postalCode":"18569","locality":"Neuenkirchen","municipality":{"key":"13073059","name":"Neuenkirchen","type":"Kreisangehörige_Gemeinde"},"district":{"key":"13073","name":"Vorpommern-Rügen","type":"Landkreis"},"federalState":{"key":"13","name":"Mecklenburg-Vorpommern"}},{"name":"Dorfstr.","postalCode":"21640","locality":"Neuenkirchen","municipality":{"key":"03359033","name":"Neuenkirchen","type":"Kreisangehörige_Gemeinde"},"district":{"key":"03359","name":"Stade","type":"Landkreis"},"federalState":{"key":"03","name":"Niedersachsen"}},{"name":"Dorfstr.","postalCode":"21763","locality":"Neuenkirchen","municipality":{"key":"03352038","name":"Neuenkirchen","type":"Kreisangehörige_Gemeinde"},"district":{"key":"03352","name":"Cuxhaven","type":"Landkreis"},"federalState":{"key":"03","name":"Niedersachsen"}},{"name":"Dorfstr.","postalCode":"27251","locality":"Neuenkirchen","municipality":{"key":"03251028","name":"Neuenkirchen","type":"Kreisangehörige_Gemeinde"},"district":{"key":"03251","name":"Diepholz","type":"Landkreis"},"federalState":{"key":"03","name":"Niedersachsen"}},{"name":"Dorfstr.","postalCode":"29643","locality":"Neuenkirchen","municipality":{"key":"03358017","name":"Neuenkirchen","type":"Kreisangehörige_Gemeinde"},"district":{"key":"03358","name":"Heidekreis","type":"Landkreis"},"federalState":{"key":"03","name":"Niedersachsen"}},{"name":"Dörringworth","postalCode":"21763","locality":"Neuenkirchen","municipality":{"key":"03352038","name":"Neuenkirchen","type":"Kreisangehörige_Gemeinde"},"district":{"key":"03352","name":"Cuxhaven","type":"Landkreis"},"federalState":{"key":"03","name":"Niedersachsen"}},{"name":"Dreuge Mesk","postalCode":"49434","locality":"Neuenkirchen-Vörden","municipality":{"key":"03460007","name":"Neuenkirchen-Vörden","type":"Kreisangehörige_Gemeinde"},"district":{"key":"03460","name":"Vechta","type":"Landkreis"},"federalState":{"key":"03","name":"Niedersachsen"}},{"name":"Drosselstr.","postalCode":"48485","locality":"Neuenkirchen","municipality":{"key":"05566060","name":"Neuenkirchen","type":"Kreisangehörige_Gemeinde"},"district":{"key":"05566","name":"Steinfurt","type":"Kreis"},"federalState":{"key":"05","name":"Nordrhein-Westfalen"}},{"name":"Drosselweg","postalCode":"29643","locality":"Neuenkirchen","municipality":{"key":"03358017","name":"Neuenkirchen","type":"Kreisangehörige_Gemeinde"},"district":{"key":"03358","name":"Heidekreis","type":"Landkreis"},"federalState":{"key":"03","name":"Niedersachsen"}},{"name":"Drosselweg","postalCode":"49434","locality":"Neuenkirchen-Vörden","municipality":{"key":"03460007","name":"Neuenkirchen-Vörden","type":"Kreisangehörige_Gemeinde"},"district":{"key":"03460","name":"Vechta","type":"Landkreis"},"federalState":{"key":"03","name":"Niedersachsen"}},{"name":"Droste-Hülshoff-Str.","postalCode":"48485","locality":"Neuenkirchen","municipality":{"key":"05566060","name":"Neuenkirchen","type":"Kreisangehörige_Gemeinde"},"district":{"key":"05566","name":"Steinfurt","type":"Kreis"},"federalState":{"key":"05","name":"Nordrhein-Westfalen"}},{"name":"Dr. Rudolf Faber-Str.","postalCode":"49434","locality":"Neuenkirchen-Vörden","municipality":{"key":"03460007","name":"Neuenkirchen-Vörden","type":"Kreisangehörige_Gemeinde"},"district":{"key":"03460","name":"Vechta","type":"Landkreis"},"federalState":{"key":"03","name":"Niedersachsen"}},{"name":"Duwockweg","postalCode":"49434","locality":"Neuenkirchen-Vörden","municipality":{"key":"03460007","name":"Neuenkirchen-Vörden","type":"Kreisangehörige_Gemeinde"},"district":{"key":"03460","name":"Vechta","type":"Landkreis"},"federalState":{"key":"03","name":"Niedersachsen"}},{"name":"Egenhäuser Ring","postalCode":"27251","locality":"Neuenkirchen","municipality":{"key":"03251028","name":"Neuenkirchen","type":"Kreisangehörige_Gemeinde"},"district":{"key":"03251","name":"Diepholz","type":"Landkreis"},"federalState":{"key":"03","name":"Niedersachsen"}},{"name":"Eichendorffstr.","postalCode":"48485","locality":"Neuenkirchen","municipality":{"key":"05566060","name":"Neuenkirchen","type":"Kreisangehörige_Gemeinde"},"district":{"key":"05566","name":"Steinfurt","type":"Kreis"},"federalState":{"key":"05","name":"Nordrhein-Westfalen"}},{"name":"Eichenweg","postalCode":"27251","locality":"Neuenkirchen","municipality":{"key":"03251028","name":"Neuenkirchen","type":"Kreisangehörige_Gemeinde"},"district":{"key":"03251","name":"Diepholz","type":"Landkreis"},"federalState":{"key":"03","name":"Niedersachsen"}},{"name":"Eichenweg","postalCode":"48485","locality":"Neuenkirchen","municipality":{"key":"05566060","name":"Neuenkirchen","type":"Kreisangehörige_Gemeinde"},"district":{"key":"05566","name":"Steinfurt","type":"Kreis"},"federalState":{"key":"05","name":"Nordrhein-Westfalen"}},{"name":"Eilersweg","postalCode":"48485","locality":"Neuenkirchen","municipality":{"key":"05566060","name":"Neuenkirchen","type":"Kreisangehörige_Gemeinde"},"district":{"key":"05566","name":"Steinfurt","type":"Kreis"},"federalState":{"key":"05","name":"Nordrhein-Westfalen"}},{"name":"Elisabethstr.","postalCode":"48485","locality":"Neuenkirchen","municipality":{"key":"05566060","name":"Neuenkirchen","type":"Kreisangehörige_Gemeinde"},"district":{"key":"05566","name":"Steinfurt","type":"Kreis"},"federalState":{"key":"05","name":"Nordrhein-Westfalen"}},{"name":"Elisabethstr.","postalCode":"49586","locality":"Neuenkirchen","municipality":{"key":"03459027","name":"Neuenkirchen","type":"Kreisangehörige_Gemeinde"},"district":{"key":"03459","name":"Osnabrück","type":"Landkreis"},"federalState":{"key":"03","name":"Niedersachsen"}},{"name":"Emsdettener Str.","postalCode":"48485","locality":"Neuenkirchen","municipality":{"key":"05566060","name":"Neuenkirchen","type":"Kreisangehörige_Gemeinde"},"district":{"key":"05566","name":"Steinfurt","type":"Kreis"},"federalState":{"key":"05","name":"Nordrhein-Westfalen"}},{"name":"Engbers Kamp","postalCode":"48485","locality":"Neuenkirchen","municipality":{"key":"05566060","name":"Neuenkirchen","type":"Kreisangehörige_Gemeinde"},"district":{"key":"05566","name":"Steinfurt","type":"Kreis"},"federalState":{"key":"05","name":"Nordrhein-Westfalen"}},{"name":"Enge Str.","postalCode":"29643","locality":"Neuenkirchen","municipality":{"key":"03358017","name":"Neuenkirchen","type":"Kreisangehörige_Gemeinde"},"district":{"key":"03358","name":"Heidekreis","type":"Landkreis"},"federalState":{"key":"03","name":"Niedersachsen"}},{"name":"Erich-Kästner-Str.","postalCode":"48485","locality":"Neuenkirchen","municipality":{"key":"05566060","name":"Neuenkirchen","type":"Kreisangehörige_Gemeinde"},"district":{"key":"05566","name":"Steinfurt","type":"Kreis"},"federalState":{"key":"05","name":"Nordrhein-Westfalen"}},{"name":"Erikaweg","postalCode":"48485","locality":"Neuenkirchen","municipality":{"key":"05566060","name":"Neuenkirchen","type":"Kreisangehörige_Gemeinde"},"district":{"key":"05566","name":"Steinfurt","type":"Kreis"},"federalState":{"key":"05","name":"Nordrhein-Westfalen"}},{"name":"Ernst-Thälmann-Platz","postalCode":"17498","locality":"Neuenkirchen","municipality":{"key":"13075102","name":"Neuenkirchen","type":"Kreisangehörige_Gemeinde"},"district":{"key":"13075","name":"Vorpommern-Greifswald","type":"Landkreis"},"federalState":{"key":"13","name":"Mecklenburg-Vorpommern"}},{"name":"Eschstr.","postalCode":"49434","locality":"Neuenkirchen-Vörden","municipality":{"key":"03460007","name":"Neuenkirchen-Vörden","type":"Kreisangehörige_Gemeinde"},"district":{"key":"03460","name":"Vechta","type":"Landkreis"},"federalState":{"key":"03","name":"Niedersachsen"}},{"name":"Eschweg","postalCode":"49586","locality":"Neuenkirchen","municipality":{"key":"03459027","name":"Neuenkirchen","type":"Kreisangehörige_Gemeinde"},"district":{"key":"03459","name":"Osnabrück","type":"Landkreis"},"federalState":{"key":"03","name":"Niedersachsen"}},{"name":"Falkenstr.","postalCode":"48485","locality":"Neuenkirchen","municipality":{"key":"05566060","name":"Neuenkirchen","type":"Kreisangehörige_Gemeinde"},"district":{"key":"05566","name":"Steinfurt","type":"Kreis"},"federalState":{"key":"05","name":"Nordrhein-Westfalen"}},{"name":"Fallerberg","postalCode":"29643","locality":"Neuenkirchen","municipality":{"key":"03358017","name":"Neuenkirchen","type":"Kreisangehörige_Gemeinde"},"district":{"key":"03358","name":"Heidekreis","type":"Landkreis"},"federalState":{"key":"03","name":"Niedersachsen"}},{"name":"Falshorner Str.","postalCode":"29643","locality":"Neuenkirchen","municipality":{"key":"03358017","name":"Neuenkirchen","type":"Kreisangehörige_Gemeinde"},"district":{"key":"03358","name":"Heidekreis","type":"Landkreis"},"federalState":{"key":"03","name":"Niedersachsen"}},{"name":"Familie-Hoffmann-Str.","postalCode":"48485","locality":"Neuenkirchen","municipality":{"key":"05566060","name":"Neuenkirchen","type":"Kreisangehörige_Gemeinde"},"district":{"key":"05566","name":"Steinfurt","type":"Kreis"},"federalState":{"key":"05","name":"Nordrhein-Westfalen"}},{"name":"Färbergasse","postalCode":"49434","locality":"Neuenkirchen-Vörden","municipality":{"key":"03460007","name":"Neuenkirchen-Vörden","type":"Kreisangehörige_Gemeinde"},"district":{"key":"03460","name":"Vechta","type":"Landkreis"},"federalState":{"key":"03","name":"Niedersachsen"}},{"name":"Fasanenstr.","postalCode":"29643","locality":"Neuenkirchen","municipality":{"key":"03358017","name":"Neuenkirchen","type":"Kreisangehörige_Gemeinde"},"district":{"key":"03358","name":"Heidekreis","type":"Landkreis"},"federalState":{"key":"03","name":"Niedersachsen"}},{"name":"Fasanenstr.","postalCode":"48485","locality":"Neuenkirchen","municipality":{"key":"05566060","name":"Neuenkirchen","type":"Kreisangehörige_Gemeinde"},"district":{"key":"05566","name":"Steinfurt","type":"Kreis"},"federalState":{"key":"05","name":"Nordrhein-Westfalen"}},{"name":"Fasanenstr.","postalCode":"49434","locality":"Neuenkirchen-Vörden","municipality":{"key":"03460007","name":"Neuenkirchen-Vörden","type":"Kreisangehörige_Gemeinde"},"district":{"key":"03460","name":"Vechta","type":"Landkreis"},"federalState":{"key":"03","name":"Niedersachsen"}},{"name":"Fasanenweg","postalCode":"27251","locality":"Neuenkirchen","municipality":{"key":"03251028","name":"Neuenkirchen","type":"Kreisangehörige_Gemeinde"},"district":{"key":"03251","name":"Diepholz","type":"Landkreis"},"federalState":{"key":"03","name":"Niedersachsen"}},{"name":"Fehrenkamp","postalCode":"49434","locality":"Neuenkirchen-Vörden","municipality":{"key":"03460007","name":"Neuenkirchen-Vörden","type":"Kreisangehörige_Gemeinde"},"district":{"key":"03460","name":"Vechta","type":"Landkreis"},"federalState":{"key":"03","name":"Niedersachsen"}},{"name":"Feldbrügge","postalCode":"49434","locality":"Neuenkirchen-Vörden","municipality":{"key":"03460007","name":"Neuenkirchen-Vörden","type":"Kreisangehörige_Gemeinde"},"district":{"key":"03460","name":"Vechta","type":"Landkreis"},"federalState":{"key":"03","name":"Niedersachsen"}},{"name":"Feldhof","postalCode":"48485","locality":"Neuenkirchen","municipality":{"key":"05566060","name":"Neuenkirchen","type":"Kreisangehörige_Gemeinde"},"district":{"key":"05566","name":"Steinfurt","type":"Kreis"},"federalState":{"key":"05","name":"Nordrhein-Westfalen"}},{"name":"Feldstiege","postalCode":"48485","locality":"Neuenkirchen","municipality":{"key":"05566060","name":"Neuenkirchen","type":"Kreisangehörige_Gemeinde"},"district":{"key":"05566","name":"Steinfurt","type":"Kreis"},"federalState":{"key":"05","name":"Nordrhein-Westfalen"}},{"name":"Feldstr.","postalCode":"17498","locality":"Neuenkirchen","municipality":{"key":"13075102","name":"Neuenkirchen","type":"Kreisangehörige_Gemeinde"},"district":{"key":"13075","name":"Vorpommern-Greifswald","type":"Landkreis"},"federalState":{"key":"13","name":"Mecklenburg-Vorpommern"}},{"name":"Fichtenstr.","postalCode":"29643","locality":"Neuenkirchen","municipality":{"key":"03358017","name":"Neuenkirchen","type":"Kreisangehörige_Gemeinde"},"district":{"key":"03358","name":"Heidekreis","type":"Landkreis"},"federalState":{"key":"03","name":"Niedersachsen"}},{"name":"Fichtenstr.","postalCode":"48485","locality":"Neuenkirchen","municipality":{"key":"05566060","name":"Neuenkirchen","type":"Kreisangehörige_Gemeinde"},"district":{"key":"05566","name":"Steinfurt","type":"Kreis"},"federalState":{"key":"05","name":"Nordrhein-Westfalen"}},{"name":"Findorffweg","postalCode":"29643","locality":"Neuenkirchen","municipality":{"key":"03358017","name":"Neuenkirchen","type":"Kreisangehörige_Gemeinde"},"district":{"key":"03358","name":"Heidekreis","type":"Landkreis"},"federalState":{"key":"03","name":"Niedersachsen"}},{"name":"Finkenstr.","postalCode":"29643","locality":"Neuenkirchen","municipality":{"key":"03358017","name":"Neuenkirchen","type":"Kreisangehörige_Gemeinde"},"district":{"key":"03358","name":"Heidekreis","type":"Landkreis"},"federalState":{"key":"03","name":"Niedersachsen"}},{"name":"Finkenstr.","postalCode":"48485","locality":"Neuenkirchen","municipality":{"key":"05566060","name":"Neuenkirchen","type":"Kreisangehörige_Gemeinde"},"district":{"key":"05566","name":"Steinfurt","type":"Kreis"},"federalState":{"key":"05","name":"Nordrhein-Westfalen"}},{"name":"Finkenweg","postalCode":"49434","locality":"Neuenkirchen-Vörden","municipality":{"key":"03460007","name":"Neuenkirchen-Vörden","type":"Kreisangehörige_Gemeinde"},"district":{"key":"03460","name":"Vechta","type":"Landkreis"},"federalState":{"key":"03","name":"Niedersachsen"}},{"name":"Fliederstr.","postalCode":"48485","locality":"Neuenkirchen","municipality":{"key":"05566060","name":"Neuenkirchen","type":"Kreisangehörige_Gemeinde"},"district":{"key":"05566","name":"Steinfurt","type":"Kreis"},"federalState":{"key":"05","name":"Nordrhein-Westfalen"}},{"name":"Fliederweg","postalCode":"17498","locality":"Neuenkirchen","municipality":{"key":"13075102","name":"Neuenkirchen","type":"Kreisangehörige_Gemeinde"},"district":{"key":"13075","name":"Vorpommern-Greifswald","type":"Landkreis"},"federalState":{"key":"13","name":"Mecklenburg-Vorpommern"}},{"name":"Fredestr.","postalCode":"49434","locality":"Neuenkirchen-Vörden","municipality":{"key":"03460007","name":"Neuenkirchen-Vörden","type":"Kreisangehörige_Gemeinde"},"district":{"key":"03460","name":"Vechta","type":"Landkreis"},"federalState":{"key":"03","name":"Niedersachsen"}},{"name":"Freudenthalstr.","postalCode":"29643","locality":"Neuenkirchen","municipality":{"key":"03358017","name":"Neuenkirchen","type":"Kreisangehörige_Gemeinde"},"district":{"key":"03358","name":"Heidekreis","type":"Landkreis"},"federalState":{"key":"03","name":"Niedersachsen"}},{"name":"Friedenstr.","postalCode":"48485","locality":"Neuenkirchen","municipality":{"key":"05566060","name":"Neuenkirchen","type":"Kreisangehörige_Gemeinde"},"district":{"key":"05566","name":"Steinfurt","type":"Kreis"},"federalState":{"key":"05","name":"Nordrhein-Westfalen"}},{"name":"Friedenstr.","postalCode":"49434","locality":"Neuenkirchen-Vörden","municipality":{"key":"03460007","name":"Neuenkirchen-Vörden","type":"Kreisangehörige_Gemeinde"},"district":{"key":"03460","name":"Vechta","type":"Landkreis"},"federalState":{"key":"03","name":"Niedersachsen"}},{"name":"Friedrich-Bülten-Str.","postalCode":"48485","locality":"Neuenkirchen","municipality":{"key":"05566060","name":"Neuenkirchen","type":"Kreisangehörige_Gemeinde"},"district":{"key":"05566","name":"Steinfurt","type":"Kreis"},"federalState":{"key":"05","name":"Nordrhein-Westfalen"}},{"name":"Friedrich-Ebert-Str.","postalCode":"49586","locality":"Neuenkirchen","municipality":{"key":"03459027","name":"Neuenkirchen","type":"Kreisangehörige_Gemeinde"},"district":{"key":"03459","name":"Osnabrück","type":"Landkreis"},"federalState":{"key":"03","name":"Niedersachsen"}},{"name":"Friedrich-Ludwig-Jahn-Str.","postalCode":"17498","locality":"Neuenkirchen","municipality":{"key":"13075102","name":"Neuenkirchen","type":"Kreisangehörige_Gemeinde"},"district":{"key":"13075","name":"Vorpommern-Greifswald","type":"Landkreis"},"federalState":{"key":"13","name":"Mecklenburg-Vorpommern"}},{"name":"Frielinger Str.","postalCode":"29643","locality":"Neuenkirchen","municipality":{"key":"03358017","name":"Neuenkirchen","type":"Kreisangehörige_Gemeinde"},"district":{"key":"03358","name":"Heidekreis","type":"Landkreis"},"federalState":{"key":"03","name":"Niedersachsen"}},{"name":"Frielingsweg","postalCode":"48485","locality":"Neuenkirchen","municipality":{"key":"05566060","name":"Neuenkirchen","type":"Kreisangehörige_Gemeinde"},"district":{"key":"05566","name":"Steinfurt","type":"Kreis"},"federalState":{"key":"05","name":"Nordrhein-Westfalen"}},{"name":"Fritz-Reuter-Weg","postalCode":"17498","locality":"Neuenkirchen","municipality":{"key":"13075102","name":"Neuenkirchen","type":"Kreisangehörige_Gemeinde"},"district":{"key":"13075","name":"Vorpommern-Greifswald","type":"Landkreis"},"federalState":{"key":"13","name":"Mecklenburg-Vorpommern"}},{"name":"Fuhrenstr.","postalCode":"29643","locality":"Neuenkirchen","municipality":{"key":"03358017","name":"Neuenkirchen","type":"Kreisangehörige_Gemeinde"},"district":{"key":"03358","name":"Heidekreis","type":"Landkreis"},"federalState":{"key":"03","name":"Niedersachsen"}},{"name":"Fürstenauer Damm","postalCode":"49586","locality":"Neuenkirchen","municipality":{"key":"03459027","name":"Neuenkirchen","type":"Kreisangehörige_Gemeinde"},"district":{"key":"03459","name":"Osnabrück","type":"Landkreis"},"federalState":{"key":"03","name":"Niedersachsen"}},{"name":"Gartenstiege","postalCode":"48485","locality":"Neuenkirchen","municipality":{"key":"05566060","name":"Neuenkirchen","type":"Kreisangehörige_Gemeinde"},"district":{"key":"05566","name":"Steinfurt","type":"Kreis"},"federalState":{"key":"05","name":"Nordrhein-Westfalen"}},{"name":"Gartenstr.","postalCode":"17039","locality":"Neuenkirchen","municipality":{"key":"13071108","name":"Neuenkirchen","type":"Kreisangehörige_Gemeinde"},"district":{"key":"13071","name":"Mecklenburgische Seenplatte","type":"Landkreis"},"federalState":{"key":"13","name":"Mecklenburg-Vorpommern"}},{"name":"Gartenstr.","postalCode":"27251","locality":"Neuenkirchen","municipality":{"key":"03251028","name":"Neuenkirchen","type":"Kreisangehörige_Gemeinde"},"district":{"key":"03251","name":"Diepholz","type":"Landkreis"},"federalState":{"key":"03","name":"Niedersachsen"}},{"name":"Gartenstr.","postalCode":"29643","locality":"Neuenkirchen","municipality":{"key":"03358017","name":"Neuenkirchen","type":"Kreisangehörige_Gemeinde"},"district":{"key":"03358","name":"Heidekreis","type":"Landkreis"},"federalState":{"key":"03","name":"Niedersachsen"}},{"name":"Gartenstr.","postalCode":"49434","locality":"Neuenkirchen-Vörden","municipality":{"key":"03460007","name":"Neuenkirchen-Vörden","type":"Kreisangehörige_Gemeinde"},"district":{"key":"03460","name":"Vechta","type":"Landkreis"},"federalState":{"key":"03","name":"Niedersachsen"}},{"name":"Gartenweg","postalCode":"17498","locality":"Neuenkirchen","municipality":{"key":"13075102","name":"Neuenkirchen","type":"Kreisangehörige_Gemeinde"},"district":{"key":"13075","name":"Vorpommern-Greifswald","type":"Landkreis"},"federalState":{"key":"13","name":"Mecklenburg-Vorpommern"}},{"name":"Geesweg","postalCode":"29643","locality":"Neuenkirchen","municipality":{"key":"03358017","name":"Neuenkirchen","type":"Kreisangehörige_Gemeinde"},"district":{"key":"03358","name":"Heidekreis","type":"Landkreis"},"federalState":{"key":"03","name":"Niedersachsen"}},{"name":"Georg-Bednorz-Str.","postalCode":"48485","locality":"Neuenkirchen","municipality":{"key":"05566060","name":"Neuenkirchen","type":"Kreisangehörige_Gemeinde"},"district":{"key":"05566","name":"Steinfurt","type":"Kreis"},"federalState":{"key":"05","name":"Nordrhein-Westfalen"}},{"name":"Gerberweg","postalCode":"49434","locality":"Neuenkirchen-Vörden","municipality":{"key":"03460007","name":"Neuenkirchen-Vörden","type":"Kreisangehörige_Gemeinde"},"district":{"key":"03460","name":"Vechta","type":"Landkreis"},"federalState":{"key":"03","name":"Niedersachsen"}},{"name":"Gerhart-Hauptmann-Str.","postalCode":"48485","locality":"Neuenkirchen","municipality":{"key":"05566060","name":"Neuenkirchen","type":"Kreisangehörige_Gemeinde"},"district":{"key":"05566","name":"Steinfurt","type":"Kreis"},"federalState":{"key":"05","name":"Nordrhein-Westfalen"}},{"name":"Gerhart-Hauptmann-Weg","postalCode":"49434","locality":"Neuenkirchen-Vörden","municipality":{"key":"03460007","name":"Neuenkirchen-Vörden","type":"Kreisangehörige_Gemeinde"},"district":{"key":"03460","name":"Vechta","type":"Landkreis"},"federalState":{"key":"03","name":"Niedersachsen"}},{"name":"Gerstenkamp","postalCode":"29643","locality":"Neuenkirchen","municipality":{"key":"03358017","name":"Neuenkirchen","type":"Kreisangehörige_Gemeinde"},"district":{"key":"03358","name":"Heidekreis","type":"Landkreis"},"federalState":{"key":"03","name":"Niedersachsen"}},{"name":"Gerstenkamp","postalCode":"48485","locality":"Neuenkirchen","municipality":{"key":"05566060","name":"Neuenkirchen","type":"Kreisangehörige_Gemeinde"},"district":{"key":"05566","name":"Steinfurt","type":"Kreis"},"federalState":{"key":"05","name":"Nordrhein-Westfalen"}},{"name":"Geschwister-Scholl-Str.","postalCode":"48485","locality":"Neuenkirchen","municipality":{"key":"05566060","name":"Neuenkirchen","type":"Kreisangehörige_Gemeinde"},"district":{"key":"05566","name":"Steinfurt","type":"Kreis"},"federalState":{"key":"05","name":"Nordrhein-Westfalen"}},{"name":"Gilmerdingen","postalCode":"29643","locality":"Neuenkirchen","municipality":{"key":"03358017","name":"Neuenkirchen","type":"Kreisangehörige_Gemeinde"},"district":{"key":"03358","name":"Heidekreis","type":"Landkreis"},"federalState":{"key":"03","name":"Niedersachsen"}},{"name":"Ginsterweg","postalCode":"29643","locality":"Neuenkirchen","municipality":{"key":"03358017","name":"Neuenkirchen","type":"Kreisangehörige_Gemeinde"},"district":{"key":"03358","name":"Heidekreis","type":"Landkreis"},"federalState":{"key":"03","name":"Niedersachsen"}},{"name":"Ginsterweg","postalCode":"48485","locality":"Neuenkirchen","municipality":{"key":"05566060","name":"Neuenkirchen","type":"Kreisangehörige_Gemeinde"},"district":{"key":"05566","name":"Steinfurt","type":"Kreis"},"federalState":{"key":"05","name":"Nordrhein-Westfalen"}},{"name":"Glücksallee","postalCode":"49434","locality":"Neuenkirchen-Vörden","municipality":{"key":"03460007","name":"Neuenkirchen-Vörden","type":"Kreisangehörige_Gemeinde"},"district":{"key":"03460","name":"Vechta","type":"Landkreis"},"federalState":{"key":"03","name":"Niedersachsen"}},{"name":"Gödderner Weg","postalCode":"27251","locality":"Neuenkirchen","municipality":{"key":"03251028","name":"Neuenkirchen","type":"Kreisangehörige_Gemeinde"},"district":{"key":"03251","name":"Diepholz","type":"Landkreis"},"federalState":{"key":"03","name":"Niedersachsen"}},{"name":"Goethestr.","postalCode":"48485","locality":"Neuenkirchen","municipality":{"key":"05566060","name":"Neuenkirchen","type":"Kreisangehörige_Gemeinde"},"district":{"key":"05566","name":"Steinfurt","type":"Kreis"},"federalState":{"key":"05","name":"Nordrhein-Westfalen"}},{"name":"Gorch-Fock-Str.","postalCode":"29643","locality":"Neuenkirchen","municipality":{"key":"03358017","name":"Neuenkirchen","type":"Kreisangehörige_Gemeinde"},"district":{"key":"03358","name":"Heidekreis","type":"Landkreis"},"federalState":{"key":"03","name":"Niedersachsen"}},{"name":"Göttinger Str.","postalCode":"49434","locality":"Neuenkirchen-Vörden","municipality":{"key":"03460007","name":"Neuenkirchen-Vörden","type":"Kreisangehörige_Gemeinde"},"district":{"key":"03460","name":"Vechta","type":"Landkreis"},"federalState":{"key":"03","name":"Niedersachsen"}},{"name":"Grabenweg","postalCode":"48485","locality":"Neuenkirchen","municipality":{"key":"05566060","name":"Neuenkirchen","type":"Kreisangehörige_Gemeinde"},"district":{"key":"05566","name":"Steinfurt","type":"Kreis"},"federalState":{"key":"05","name":"Nordrhein-Westfalen"}},{"name":"Graetzstr.","postalCode":"29643","locality":"Neuenkirchen","municipality":{"key":"03358017","name":"Neuenkirchen","type":"Kreisangehörige_Gemeinde"},"district":{"key":"03358","name":"Heidekreis","type":"Landkreis"},"federalState":{"key":"03","name":"Niedersachsen"}},{"name":"Grapperhausen","postalCode":"49434","locality":"Neuenkirchen-Vörden","municipality":{"key":"03460007","name":"Neuenkirchen-Vörden","type":"Kreisangehörige_Gemeinde"},"district":{"key":"03460","name":"Vechta","type":"Landkreis"},"federalState":{"key":"03","name":"Niedersachsen"}},{"name":"Grauener Str.","postalCode":"29643","locality":"Neuenkirchen","municipality":{"key":"03358017","name":"Neuenkirchen","type":"Kreisangehörige_Gemeinde"},"district":{"key":"03358","name":"Heidekreis","type":"Landkreis"},"federalState":{"key":"03","name":"Niedersachsen"}},{"name":"Grevenhornweg","postalCode":"29643","locality":"Neuenkirchen","municipality":{"key":"03358017","name":"Neuenkirchen","type":"Kreisangehörige_Gemeinde"},"district":{"key":"03358","name":"Heidekreis","type":"Landkreis"},"federalState":{"key":"03","name":"Niedersachsen"}},{"name":"Große Hinterstr.","postalCode":"49434","locality":"Neuenkirchen-Vörden","municipality":{"key":"03460007","name":"Neuenkirchen-Vörden","type":"Kreisangehörige_Gemeinde"},"district":{"key":"03460","name":"Vechta","type":"Landkreis"},"federalState":{"key":"03","name":"Niedersachsen"}},{"name":"Große Str.","postalCode":"49434","locality":"Neuenkirchen-Vörden","municipality":{"key":"03460007","name":"Neuenkirchen-Vörden","type":"Kreisangehörige_Gemeinde"},"district":{"key":"03460","name":"Vechta","type":"Landkreis"},"federalState":{"key":"03","name":"Niedersachsen"}},{"name":"Grote Kamp","postalCode":"48485","locality":"Neuenkirchen","municipality":{"key":"05566060","name":"Neuenkirchen","type":"Kreisangehörige_Gemeinde"},"district":{"key":"05566","name":"Steinfurt","type":"Kreis"},"federalState":{"key":"05","name":"Nordrhein-Westfalen"}},{"name":"Grubnow","postalCode":"18569","locality":"Neuenkirchen","municipality":{"key":"13073059","name":"Neuenkirchen","type":"Kreisangehörige_Gemeinde"},"district":{"key":"13073","name":"Vorpommern-Rügen","type":"Landkreis"},"federalState":{"key":"13","name":"Mecklenburg-Vorpommern"}},{"name":"Grüner Weg","postalCode":"17498","locality":"Neuenkirchen","municipality":{"key":"13075102","name":"Neuenkirchen","type":"Kreisangehörige_Gemeinde"},"district":{"key":"13075","name":"Vorpommern-Greifswald","type":"Landkreis"},"federalState":{"key":"13","name":"Mecklenburg-Vorpommern"}},{"name":"Grüner Weg","postalCode":"48485","locality":"Neuenkirchen","municipality":{"key":"05566060","name":"Neuenkirchen","type":"Kreisangehörige_Gemeinde"},"district":{"key":"05566","name":"Steinfurt","type":"Kreis"},"federalState":{"key":"05","name":"Nordrhein-Westfalen"}},{"name":"Guderhandviertel","postalCode":"21640","locality":"Neuenkirchen","municipality":{"key":"03359033","name":"Neuenkirchen","type":"Kreisangehörige_Gemeinde"},"district":{"key":"03359","name":"Stade","type":"Landkreis"},"federalState":{"key":"03","name":"Niedersachsen"}},{"name":"Haarmeyers Kamp","postalCode":"49586","locality":"Neuenkirchen","municipality":{"key":"03459027","name":"Neuenkirchen","type":"Kreisangehörige_Gemeinde"},"district":{"key":"03459","name":"Osnabrück","type":"Landkreis"},"federalState":{"key":"03","name":"Niedersachsen"}},{"name":"Haarweg","postalCode":"48485","locality":"Neuenkirchen","municipality":{"key":"05566060","name":"Neuenkirchen","type":"Kreisangehörige_Gemeinde"},"district":{"key":"05566","name":"Steinfurt","type":"Kreis"},"federalState":{"key":"05","name":"Nordrhein-Westfalen"}},{"name":"Habichtshorst","postalCode":"49434","locality":"Neuenkirchen-Vörden","municipality":{"key":"03460007","name":"Neuenkirchen-Vörden","type":"Kreisangehörige_Gemeinde"},"district":{"key":"03460","name":"Vechta","type":"Landkreis"},"federalState":{"key":"03","name":"Niedersachsen"}},{"name":"Haferkamp","postalCode":"27251","locality":"Neuenkirchen","municipality":{"key":"03251028","name":"Neuenkirchen","type":"Kreisangehörige_Gemeinde"},"district":{"key":"03251","name":"Diepholz","type":"Landkreis"},"federalState":{"key":"03","name":"Niedersachsen"}},{"name":"Haferkamp","postalCode":"29643","locality":"Neuenkirchen","municipality":{"key":"03358017","name":"Neuenkirchen","type":"Kreisangehörige_Gemeinde"},"district":{"key":"03358","name":"Heidekreis","type":"Landkreis"},"federalState":{"key":"03","name":"Niedersachsen"}},{"name":"Haferkamp","postalCode":"48485","locality":"Neuenkirchen","municipality":{"key":"05566060","name":"Neuenkirchen","type":"Kreisangehörige_Gemeinde"},"district":{"key":"05566","name":"Steinfurt","type":"Kreis"},"federalState":{"key":"05","name":"Nordrhein-Westfalen"}},{"name":"Haferkamp","postalCode":"49434","locality":"Neuenkirchen-Vörden","municipality":{"key":"03460007","name":"Neuenkirchen-Vörden","type":"Kreisangehörige_Gemeinde"},"district":{"key":"03460","name":"Vechta","type":"Landkreis"},"federalState":{"key":"03","name":"Niedersachsen"}},{"name":"Hagebuttenweg","postalCode":"48485","locality":"Neuenkirchen","municipality":{"key":"05566060","name":"Neuenkirchen","type":"Kreisangehörige_Gemeinde"},"district":{"key":"05566","name":"Steinfurt","type":"Kreis"},"federalState":{"key":"05","name":"Nordrhein-Westfalen"}},{"name":"Hainhoop","postalCode":"29643","locality":"Neuenkirchen","municipality":{"key":"03358017","name":"Neuenkirchen","type":"Kreisangehörige_Gemeinde"},"district":{"key":"03358","name":"Heidekreis","type":"Landkreis"},"federalState":{"key":"03","name":"Niedersachsen"}},{"name":"Hainhoop - Brücke z. zt. nicht befahrbar - Sperrung!","postalCode":"29643","locality":"Neuenkirchen","municipality":{"key":"03358017","name":"Neuenkirchen","type":"Kreisangehörige_Gemeinde"},"district":{"key":"03358","name":"Heidekreis","type":"Landkreis"},"federalState":{"key":"03","name":"Niedersachsen"}},{"name":"Hakenstr.","postalCode":"49434","locality":"Neuenkirchen-Vörden","municipality":{"key":"03460007","name":"Neuenkirchen-Vörden","type":"Kreisangehörige_Gemeinde"},"district":{"key":"03460","name":"Vechta","type":"Landkreis"},"federalState":{"key":"03","name":"Niedersachsen"}},{"name":"Hartböhn","postalCode":"29643","locality":"Neuenkirchen","municipality":{"key":"03358017","name":"Neuenkirchen","type":"Kreisangehörige_Gemeinde"},"district":{"key":"03358","name":"Heidekreis","type":"Landkreis"},"federalState":{"key":"03","name":"Niedersachsen"}},{"name":"Hartungsweg","postalCode":"29643","locality":"Neuenkirchen","municipality":{"key":"03358017","name":"Neuenkirchen","type":"Kreisangehörige_Gemeinde"},"district":{"key":"03358","name":"Heidekreis","type":"Landkreis"},"federalState":{"key":"03","name":"Niedersachsen"}},{"name":"Harumer Weg","postalCode":"48485","locality":"Neuenkirchen","municipality":{"key":"05566060","name":"Neuenkirchen","type":"Kreisangehörige_Gemeinde"},"district":{"key":"05566","name":"Steinfurt","type":"Kreis"},"federalState":{"key":"05","name":"Nordrhein-Westfalen"}},{"name":"Hasenfang","postalCode":"29643","locality":"Neuenkirchen","municipality":{"key":"03358017","name":"Neuenkirchen","type":"Kreisangehörige_Gemeinde"},"district":{"key":"03358","name":"Heidekreis","type":"Landkreis"},"federalState":{"key":"03","name":"Niedersachsen"}},{"name":"Hasenhügel","postalCode":"48485","locality":"Neuenkirchen","municipality":{"key":"05566060","name":"Neuenkirchen","type":"Kreisangehörige_Gemeinde"},"district":{"key":"05566","name":"Steinfurt","type":"Kreis"},"federalState":{"key":"05","name":"Nordrhein-Westfalen"}},{"name":"Hasensprung","postalCode":"17498","locality":"Neuenkirchen","municipality":{"key":"13075102","name":"Neuenkirchen","type":"Kreisangehörige_Gemeinde"},"district":{"key":"13075","name":"Vorpommern-Greifswald","type":"Landkreis"},"federalState":{"key":"13","name":"Mecklenburg-Vorpommern"}},{"name":"Hauptstr.","postalCode":"25792","locality":"Neuenkirchen","municipality":{"key":"01051075","name":"Neuenkirchen","type":"Kreisangehörige_Gemeinde"},"district":{"key":"01051","name":"Dithmarschen","type":"Kreis"},"federalState":{"key":"01","name":"Schleswig-Holstein"}},{"name":"Hauptstr.","postalCode":"29643","locality":"Neuenkirchen","municipality":{"key":"03358017","name":"Neuenkirchen","type":"Kreisangehörige_Gemeinde"},"district":{"key":"03358","name":"Heidekreis","type":"Landkreis"},"federalState":{"key":"03","name":"Niedersachsen"}},{"name":"Hauptstr.","postalCode":"48485","locality":"Neuenkirchen","municipality":{"key":"05566060","name":"Neuenkirchen","type":"Kreisangehörige_Gemeinde"},"district":{"key":"05566","name":"Steinfurt","type":"Kreis"},"federalState":{"key":"05","name":"Nordrhein-Westfalen"}},{"name":"Hebbelstr.","postalCode":"48485","locality":"Neuenkirchen","municipality":{"key":"05566060","name":"Neuenkirchen","type":"Kreisangehörige_Gemeinde"},"district":{"key":"05566","name":"Steinfurt","type":"Kreis"},"federalState":{"key":"05","name":"Nordrhein-Westfalen"}},{"name":"Heerweg","postalCode":"49434","locality":"Neuenkirchen-Vörden","municipality":{"key":"03460007","name":"Neuenkirchen-Vörden","type":"Kreisangehörige_Gemeinde"},"district":{"key":"03460","name":"Vechta","type":"Landkreis"},"federalState":{"key":"03","name":"Niedersachsen"}},{"name":"Heideweg","postalCode":"29643","locality":"Neuenkirchen","municipality":{"key":"03358017","name":"Neuenkirchen","type":"Kreisangehörige_Gemeinde"},"district":{"key":"03358","name":"Heidekreis","type":"Landkreis"},"federalState":{"key":"03","name":"Niedersachsen"}},{"name":"Heideweg","postalCode":"48485","locality":"Neuenkirchen","municipality":{"key":"05566060","name":"Neuenkirchen","type":"Kreisangehörige_Gemeinde"},"district":{"key":"05566","name":"Steinfurt","type":"Kreis"},"federalState":{"key":"05","name":"Nordrhein-Westfalen"}},{"name":"Heidvenn","postalCode":"48485","locality":"Neuenkirchen","municipality":{"key":"05566060","name":"Neuenkirchen","type":"Kreisangehörige_Gemeinde"},"district":{"key":"05566","name":"Steinfurt","type":"Kreis"},"federalState":{"key":"05","name":"Nordrhein-Westfalen"}},{"name":"Heiligen Wall","postalCode":"49434","locality":"Neuenkirchen-Vörden","municipality":{"key":"03460007","name":"Neuenkirchen-Vörden","type":"Kreisangehörige_Gemeinde"},"district":{"key":"03460","name":"Vechta","type":"Landkreis"},"federalState":{"key":"03","name":"Niedersachsen"}},{"name":"Heinestr.","postalCode":"48485","locality":"Neuenkirchen","municipality":{"key":"05566060","name":"Neuenkirchen","type":"Kreisangehörige_Gemeinde"},"district":{"key":"05566","name":"Steinfurt","type":"Kreis"},"federalState":{"key":"05","name":"Nordrhein-Westfalen"}},{"name":"Heinrich-Heine-Weg","postalCode":"49434","locality":"Neuenkirchen-Vörden","municipality":{"key":"03460007","name":"Neuenkirchen-Vörden","type":"Kreisangehörige_Gemeinde"},"district":{"key":"03460","name":"Vechta","type":"Landkreis"},"federalState":{"key":"03","name":"Niedersachsen"}},{"name":"Herderstr.","postalCode":"48485","locality":"Neuenkirchen","municipality":{"key":"05566060","name":"Neuenkirchen","type":"Kreisangehörige_Gemeinde"},"district":{"key":"05566","name":"Steinfurt","type":"Kreis"},"federalState":{"key":"05","name":"Nordrhein-Westfalen"}},{"name":"Heriburgstr.","postalCode":"48485","locality":"Neuenkirchen","municipality":{"key":"05566060","name":"Neuenkirchen","type":"Kreisangehörige_Gemeinde"},"district":{"key":"05566","name":"Steinfurt","type":"Kreis"},"federalState":{"key":"05","name":"Nordrhein-Westfalen"}},{"name":"Hermann-Keuhs-Str.","postalCode":"48485","locality":"Neuenkirchen","municipality":{"key":"05566060","name":"Neuenkirchen","type":"Kreisangehörige_Gemeinde"},"district":{"key":"05566","name":"Steinfurt","type":"Kreis"},"federalState":{"key":"05","name":"Nordrhein-Westfalen"}},{"name":"Hermann-Löns-Weg","postalCode":"49434","locality":"Neuenkirchen-Vörden","municipality":{"key":"03460007","name":"Neuenkirchen-Vörden","type":"Kreisangehörige_Gemeinde"},"district":{"key":"03460","name":"Vechta","type":"Landkreis"},"federalState":{"key":"03","name":"Niedersachsen"}},{"name":"Hermann-Tospan-Weg","postalCode":"49586","locality":"Neuenkirchen","municipality":{"key":"03459027","name":"Neuenkirchen","type":"Kreisangehörige_Gemeinde"},"district":{"key":"03459","name":"Osnabrück","type":"Landkreis"},"federalState":{"key":"03","name":"Niedersachsen"}},{"name":"Herteler Str.","postalCode":"29643","locality":"Neuenkirchen","municipality":{"key":"03358017","name":"Neuenkirchen","type":"Kreisangehörige_Gemeinde"},"district":{"key":"03358","name":"Heidekreis","type":"Landkreis"},"federalState":{"key":"03","name":"Niedersachsen"}},{"name":"Heuwisch","postalCode":"25792","locality":"Neuenkirchen","municipality":{"key":"01051075","name":"Neuenkirchen","type":"Kreisangehörige_Gemeinde"},"district":{"key":"01051","name":"Dithmarschen","type":"Kreis"},"federalState":{"key":"01","name":"Schleswig-Holstein"}},{"name":"Hinnenkamp","postalCode":"49434","locality":"Neuenkirchen-Vörden","municipality":{"key":"03460007","name":"Neuenkirchen-Vörden","type":"Kreisangehörige_Gemeinde"},"district":{"key":"03460","name":"Vechta","type":"Landkreis"},"federalState":{"key":"03","name":"Niedersachsen"}},{"name":"Hinnenkamper Kirchweg","postalCode":"49434","locality":"Neuenkirchen-Vörden","municipality":{"key":"03460007","name":"Neuenkirchen-Vörden","type":"Kreisangehörige_Gemeinde"},"district":{"key":"03460","name":"Vechta","type":"Landkreis"},"federalState":{"key":"03","name":"Niedersachsen"}},{"name":"Hinnenkamper Str.","postalCode":"49434","locality":"Neuenkirchen-Vörden","municipality":{"key":"03460007","name":"Neuenkirchen-Vörden","type":"Kreisangehörige_Gemeinde"},"district":{"key":"03460","name":"Vechta","type":"Landkreis"},"federalState":{"key":"03","name":"Niedersachsen"}},{"name":"Hinterdeich","postalCode":"21635","locality":"Neuenkirchen","municipality":{"key":"03359033","name":"Neuenkirchen","type":"Kreisangehörige_Gemeinde"},"district":{"key":"03359","name":"Stade","type":"Landkreis"},"federalState":{"key":"03","name":"Niedersachsen"}},{"name":"Hinterdeich","postalCode":"21640","locality":"Neuenkirchen","municipality":{"key":"03359033","name":"Neuenkirchen","type":"Kreisangehörige_Gemeinde"},"district":{"key":"03359","name":"Stade","type":"Landkreis"},"federalState":{"key":"03","name":"Niedersachsen"}},{"name":"Hinter den Gärten","postalCode":"49434","locality":"Neuenkirchen-Vörden","municipality":{"key":"03460007","name":"Neuenkirchen-Vörden","type":"Kreisangehörige_Gemeinde"},"district":{"key":"03460","name":"Vechta","type":"Landkreis"},"federalState":{"key":"03","name":"Niedersachsen"}},{"name":"Hinter den Höfen","postalCode":"29643","locality":"Neuenkirchen","municipality":{"key":"03358017","name":"Neuenkirchen","type":"Kreisangehörige_Gemeinde"},"district":{"key":"03358","name":"Heidekreis","type":"Landkreis"},"federalState":{"key":"03","name":"Niedersachsen"}},{"name":"Hinter der Herrlichkeit","postalCode":"27251","locality":"Neuenkirchen","municipality":{"key":"03251028","name":"Neuenkirchen","type":"Kreisangehörige_Gemeinde"},"district":{"key":"03251","name":"Diepholz","type":"Landkreis"},"federalState":{"key":"03","name":"Niedersachsen"}},{"name":"Hofstr.","postalCode":"17039","locality":"Neuenkirchen","municipality":{"key":"13071108","name":"Neuenkirchen","type":"Kreisangehörige_Gemeinde"},"district":{"key":"13071","name":"Mecklenburgische Seenplatte","type":"Landkreis"},"federalState":{"key":"13","name":"Mecklenburg-Vorpommern"}},{"name":"Höftenweg","postalCode":"49434","locality":"Neuenkirchen-Vörden","municipality":{"key":"03460007","name":"Neuenkirchen-Vörden","type":"Kreisangehörige_Gemeinde"},"district":{"key":"03460","name":"Vechta","type":"Landkreis"},"federalState":{"key":"03","name":"Niedersachsen"}},{"name":"Hohes Feld","postalCode":"29643","locality":"Neuenkirchen","municipality":{"key":"03358017","name":"Neuenkirchen","type":"Kreisangehörige_Gemeinde"},"district":{"key":"03358","name":"Heidekreis","type":"Landkreis"},"federalState":{"key":"03","name":"Niedersachsen"}},{"name":"Hölderlinstr.","postalCode":"48485","locality":"Neuenkirchen","municipality":{"key":"05566060","name":"Neuenkirchen","type":"Kreisangehörige_Gemeinde"},"district":{"key":"05566","name":"Steinfurt","type":"Kreis"},"federalState":{"key":"05","name":"Nordrhein-Westfalen"}},{"name":"Holdorfer Str.","postalCode":"49434","locality":"Neuenkirchen-Vörden","municipality":{"key":"03460007","name":"Neuenkirchen-Vörden","type":"Kreisangehörige_Gemeinde"},"district":{"key":"03460","name":"Vechta","type":"Landkreis"},"federalState":{"key":"03","name":"Niedersachsen"}},{"name":"Hölschers Kamp","postalCode":"48485","locality":"Neuenkirchen","municipality":{"key":"05566060","name":"Neuenkirchen","type":"Kreisangehörige_Gemeinde"},"district":{"key":"05566","name":"Steinfurt","type":"Kreis"},"federalState":{"key":"05","name":"Nordrhein-Westfalen"}},{"name":"Holtkamp","postalCode":"48485","locality":"Neuenkirchen","municipality":{"key":"05566060","name":"Neuenkirchen","type":"Kreisangehörige_Gemeinde"},"district":{"key":"05566","name":"Steinfurt","type":"Kreis"},"federalState":{"key":"05","name":"Nordrhein-Westfalen"}},{"name":"Ilhorn","postalCode":"29643","locality":"Neuenkirchen","municipality":{"key":"03358017","name":"Neuenkirchen","type":"Kreisangehörige_Gemeinde"},"district":{"key":"03358","name":"Heidekreis","type":"Landkreis"},"federalState":{"key":"03","name":"Niedersachsen"}},{"name":"Ilhorner Str.","postalCode":"29643","locality":"Neuenkirchen","municipality":{"key":"03358017","name":"Neuenkirchen","type":"Kreisangehörige_Gemeinde"},"district":{"key":"03358","name":"Heidekreis","type":"Landkreis"},"federalState":{"key":"03","name":"Niedersachsen"}},{"name":"Im Blanken","postalCode":"49434","locality":"Neuenkirchen-Vörden","municipality":{"key":"03460007","name":"Neuenkirchen-Vörden","type":"Kreisangehörige_Gemeinde"},"district":{"key":"03460","name":"Vechta","type":"Landkreis"},"federalState":{"key":"03","name":"Niedersachsen"}},{"name":"Im Braunen","postalCode":"49586","locality":"Neuenkirchen","municipality":{"key":"03459027","name":"Neuenkirchen","type":"Kreisangehörige_Gemeinde"},"district":{"key":"03459","name":"Osnabrück","type":"Landkreis"},"federalState":{"key":"03","name":"Niedersachsen"}},{"name":"Im Diek","postalCode":"49434","locality":"Neuenkirchen-Vörden","municipality":{"key":"03460007","name":"Neuenkirchen-Vörden","type":"Kreisangehörige_Gemeinde"},"district":{"key":"03460","name":"Vechta","type":"Landkreis"},"federalState":{"key":"03","name":"Niedersachsen"}},{"name":"Im Eichengrund","postalCode":"49434","locality":"Neuenkirchen-Vörden","municipality":{"key":"03460007","name":"Neuenkirchen-Vörden","type":"Kreisangehörige_Gemeinde"},"district":{"key":"03460","name":"Vechta","type":"Landkreis"},"federalState":{"key":"03","name":"Niedersachsen"}},{"name":"Im Esch","postalCode":"49586","locality":"Neuenkirchen","municipality":{"key":"03459027","name":"Neuenkirchen","type":"Kreisangehörige_Gemeinde"},"district":{"key":"03459","name":"Osnabrück","type":"Landkreis"},"federalState":{"key":"03","name":"Niedersachsen"}},{"name":"Im Flachsgarten","postalCode":"29643","locality":"Neuenkirchen","municipality":{"key":"03358017","name":"Neuenkirchen","type":"Kreisangehörige_Gemeinde"},"district":{"key":"03358","name":"Heidekreis","type":"Landkreis"},"federalState":{"key":"03","name":"Niedersachsen"}},{"name":"Im Gehecht","postalCode":"29643","locality":"Neuenkirchen","municipality":{"key":"03358017","name":"Neuenkirchen","type":"Kreisangehörige_Gemeinde"},"district":{"key":"03358","name":"Heidekreis","type":"Landkreis"},"federalState":{"key":"03","name":"Niedersachsen"}},{"name":"Im Hagen","postalCode":"29643","locality":"Neuenkirchen","municipality":{"key":"03358017","name":"Neuenkirchen","type":"Kreisangehörige_Gemeinde"},"district":{"key":"03358","name":"Heidekreis","type":"Landkreis"},"federalState":{"key":"03","name":"Niedersachsen"}},{"name":"Im Heithok","postalCode":"48485","locality":"Neuenkirchen","municipality":{"key":"05566060","name":"Neuenkirchen","type":"Kreisangehörige_Gemeinde"},"district":{"key":"05566","name":"Steinfurt","type":"Kreis"},"federalState":{"key":"05","name":"Nordrhein-Westfalen"}},{"name":"Im Herrengarten","postalCode":"49434","locality":"Neuenkirchen-Vörden","municipality":{"key":"03460007","name":"Neuenkirchen-Vörden","type":"Kreisangehörige_Gemeinde"},"district":{"key":"03460","name":"Vechta","type":"Landkreis"},"federalState":{"key":"03","name":"Niedersachsen"}},{"name":"Im Hülsen","postalCode":"49586","locality":"Neuenkirchen","municipality":{"key":"03459027","name":"Neuenkirchen","type":"Kreisangehörige_Gemeinde"},"district":{"key":"03459","name":"Osnabrück","type":"Landkreis"},"federalState":{"key":"03","name":"Niedersachsen"}},{"name":"Im Kamp","postalCode":"29643","locality":"Neuenkirchen","municipality":{"key":"03358017","name":"Neuenkirchen","type":"Kreisangehörige_Gemeinde"},"district":{"key":"03358","name":"Heidekreis","type":"Landkreis"},"federalState":{"key":"03","name":"Niedersachsen"}},{"name":"Im Kleinen Revier","postalCode":"49434","locality":"Neuenkirchen-Vörden","municipality":{"key":"03460007","name":"Neuenkirchen-Vörden","type":"Kreisangehörige_Gemeinde"},"district":{"key":"03460","name":"Vechta","type":"Landkreis"},"federalState":{"key":"03","name":"Niedersachsen"}},{"name":"Immenhof","postalCode":"29643","locality":"Neuenkirchen","municipality":{"key":"03358017","name":"Neuenkirchen","type":"Kreisangehörige_Gemeinde"},"district":{"key":"03358","name":"Heidekreis","type":"Landkreis"},"federalState":{"key":"03","name":"Niedersachsen"}},{"name":"Im Moore","postalCode":"49586","locality":"Neuenkirchen","municipality":{"key":"03459027","name":"Neuenkirchen","type":"Kreisangehörige_Gemeinde"},"district":{"key":"03459","name":"Osnabrück","type":"Landkreis"},"federalState":{"key":"03","name":"Niedersachsen"}},{"name":"Im Nihen","postalCode":"49586","locality":"Neuenkirchen","municipality":{"key":"03459027","name":"Neuenkirchen","type":"Kreisangehörige_Gemeinde"},"district":{"key":"03459","name":"Osnabrück","type":"Landkreis"},"federalState":{"key":"03","name":"Niedersachsen"}},{"name":"Im Nörtebruch","postalCode":"49434","locality":"Neuenkirchen-Vörden","municipality":{"key":"03460007","name":"Neuenkirchen-Vörden","type":"Kreisangehörige_Gemeinde"},"district":{"key":"03460","name":"Vechta","type":"Landkreis"},"federalState":{"key":"03","name":"Niedersachsen"}},{"name":"Im Obstgarten","postalCode":"49434","locality":"Neuenkirchen-Vörden","municipality":{"key":"03460007","name":"Neuenkirchen-Vörden","type":"Kreisangehörige_Gemeinde"},"district":{"key":"03460","name":"Vechta","type":"Landkreis"},"federalState":{"key":"03","name":"Niedersachsen"}},{"name":"Im Ohbusch","postalCode":"49434","locality":"Neuenkirchen-Vörden","municipality":{"key":"03460007","name":"Neuenkirchen-Vörden","type":"Kreisangehörige_Gemeinde"},"district":{"key":"03460","name":"Vechta","type":"Landkreis"},"federalState":{"key":"03","name":"Niedersachsen"}},{"name":"Im Orte","postalCode":"49434","locality":"Neuenkirchen-Vörden","municipality":{"key":"03460007","name":"Neuenkirchen-Vörden","type":"Kreisangehörige_Gemeinde"},"district":{"key":"03460","name":"Vechta","type":"Landkreis"},"federalState":{"key":"03","name":"Niedersachsen"}},{"name":"Im Wiesengrund","postalCode":"49434","locality":"Neuenkirchen-Vörden","municipality":{"key":"03460007","name":"Neuenkirchen-Vörden","type":"Kreisangehörige_Gemeinde"},"district":{"key":"03460","name":"Vechta","type":"Landkreis"},"federalState":{"key":"03","name":"Niedersachsen"}},{"name":"Im Wiesengrund","postalCode":"49586","locality":"Neuenkirchen","municipality":{"key":"03459027","name":"Neuenkirchen","type":"Kreisangehörige_Gemeinde"},"district":{"key":"03459","name":"Osnabrück","type":"Landkreis"},"federalState":{"key":"03","name":"Niedersachsen"}},{"name":"Im Winkel","postalCode":"29643","locality":"Neuenkirchen","municipality":{"key":"03358017","name":"Neuenkirchen","type":"Kreisangehörige_Gemeinde"},"district":{"key":"03358","name":"Heidekreis","type":"Landkreis"},"federalState":{"key":"03","name":"Niedersachsen"}},{"name":"Im Winkel","postalCode":"49434","locality":"Neuenkirchen-Vörden","municipality":{"key":"03460007","name":"Neuenkirchen-Vörden","type":"Kreisangehörige_Gemeinde"},"district":{"key":"03460","name":"Vechta","type":"Landkreis"},"federalState":{"key":"03","name":"Niedersachsen"}},{"name":"Im Wittefeld","postalCode":"49434","locality":"Neuenkirchen-Vörden","municipality":{"key":"03460007","name":"Neuenkirchen-Vörden","type":"Kreisangehörige_Gemeinde"},"district":{"key":"03460","name":"Vechta","type":"Landkreis"},"federalState":{"key":"03","name":"Niedersachsen"}},{"name":"In den Kämpen","postalCode":"48485","locality":"Neuenkirchen","municipality":{"key":"05566060","name":"Neuenkirchen","type":"Kreisangehörige_Gemeinde"},"district":{"key":"05566","name":"Steinfurt","type":"Kreis"},"federalState":{"key":"05","name":"Nordrhein-Westfalen"}},{"name":"In den Kämpen","postalCode":"49434","locality":"Neuenkirchen-Vörden","municipality":{"key":"03460007","name":"Neuenkirchen-Vörden","type":"Kreisangehörige_Gemeinde"},"district":{"key":"03460","name":"Vechta","type":"Landkreis"},"federalState":{"key":"03","name":"Niedersachsen"}},{"name":"In der Heide","postalCode":"29643","locality":"Neuenkirchen","municipality":{"key":"03358017","name":"Neuenkirchen","type":"Kreisangehörige_Gemeinde"},"district":{"key":"03358","name":"Heidekreis","type":"Landkreis"},"federalState":{"key":"03","name":"Niedersachsen"}},{"name":"In der Welle","postalCode":"48485","locality":"Neuenkirchen","municipality":{"key":"05566060","name":"Neuenkirchen","type":"Kreisangehörige_Gemeinde"},"district":{"key":"05566","name":"Steinfurt","type":"Kreis"},"federalState":{"key":"05","name":"Nordrhein-Westfalen"}},{"name":"In de Stroot","postalCode":"21640","locality":"Neuenkirchen","municipality":{"key":"03359033","name":"Neuenkirchen","type":"Kreisangehörige_Gemeinde"},"district":{"key":"03359","name":"Stade","type":"Landkreis"},"federalState":{"key":"03","name":"Niedersachsen"}},{"name":"Industriestr.","postalCode":"48485","locality":"Neuenkirchen","municipality":{"key":"05566060","name":"Neuenkirchen","type":"Kreisangehörige_Gemeinde"},"district":{"key":"05566","name":"Steinfurt","type":"Kreis"},"federalState":{"key":"05","name":"Nordrhein-Westfalen"}},{"name":"Industriestr.","postalCode":"49586","locality":"Neuenkirchen","municipality":{"key":"03459027","name":"Neuenkirchen","type":"Kreisangehörige_Gemeinde"},"district":{"key":"03459","name":"Osnabrück","type":"Landkreis"},"federalState":{"key":"03","name":"Niedersachsen"}},{"name":"Jahnstr.","postalCode":"49434","locality":"Neuenkirchen-Vörden","municipality":{"key":"03460007","name":"Neuenkirchen-Vörden","type":"Kreisangehörige_Gemeinde"},"district":{"key":"03460","name":"Vechta","type":"Landkreis"},"federalState":{"key":"03","name":"Niedersachsen"}},{"name":"Jannings Kamp","postalCode":"48485","locality":"Neuenkirchen","municipality":{"key":"05566060","name":"Neuenkirchen","type":"Kreisangehörige_Gemeinde"},"district":{"key":"05566","name":"Steinfurt","type":"Kreis"},"federalState":{"key":"05","name":"Nordrhein-Westfalen"}},{"name":"Jerusalem","postalCode":"29643","locality":"Neuenkirchen","municipality":{"key":"03358017","name":"Neuenkirchen","type":"Kreisangehörige_Gemeinde"},"district":{"key":"03358","name":"Heidekreis","type":"Landkreis"},"federalState":{"key":"03","name":"Niedersachsen"}},{"name":"Johanniterstr.","postalCode":"49434","locality":"Neuenkirchen-Vörden","municipality":{"key":"03460007","name":"Neuenkirchen-Vörden","type":"Kreisangehörige_Gemeinde"},"district":{"key":"03460","name":"Vechta","type":"Landkreis"},"federalState":{"key":"03","name":"Niedersachsen"}},{"name":"Josef-Hendel-Str.","postalCode":"48485","locality":"Neuenkirchen","municipality":{"key":"05566060","name":"Neuenkirchen","type":"Kreisangehörige_Gemeinde"},"district":{"key":"05566","name":"Steinfurt","type":"Kreis"},"federalState":{"key":"05","name":"Nordrhein-Westfalen"}},{"name":"Josefstr.","postalCode":"48485","locality":"Neuenkirchen","municipality":{"key":"05566060","name":"Neuenkirchen","type":"Kreisangehörige_Gemeinde"},"district":{"key":"05566","name":"Steinfurt","type":"Kreis"},"federalState":{"key":"05","name":"Nordrhein-Westfalen"}},{"name":"Jürgens Kamp","postalCode":"48485","locality":"Neuenkirchen","municipality":{"key":"05566060","name":"Neuenkirchen","type":"Kreisangehörige_Gemeinde"},"district":{"key":"05566","name":"Steinfurt","type":"Kreis"},"federalState":{"key":"05","name":"Nordrhein-Westfalen"}},{"name":"Kabenstr.","postalCode":"29643","locality":"Neuenkirchen","municipality":{"key":"03358017","name":"Neuenkirchen","type":"Kreisangehörige_Gemeinde"},"district":{"key":"03358","name":"Heidekreis","type":"Landkreis"},"federalState":{"key":"03","name":"Niedersachsen"}},{"name":"Kahler Wall","postalCode":"49434","locality":"Neuenkirchen-Vörden","municipality":{"key":"03460007","name":"Neuenkirchen-Vörden","type":"Kreisangehörige_Gemeinde"},"district":{"key":"03460","name":"Vechta","type":"Landkreis"},"federalState":{"key":"03","name":"Niedersachsen"}},{"name":"Kaisersweg","postalCode":"48485","locality":"Neuenkirchen","municipality":{"key":"05566060","name":"Neuenkirchen","type":"Kreisangehörige_Gemeinde"},"district":{"key":"05566","name":"Steinfurt","type":"Kreis"},"federalState":{"key":"05","name":"Nordrhein-Westfalen"}},{"name":"Kampstr.","postalCode":"27251","locality":"Neuenkirchen","municipality":{"key":"03251028","name":"Neuenkirchen","type":"Kreisangehörige_Gemeinde"},"district":{"key":"03251","name":"Diepholz","type":"Landkreis"},"federalState":{"key":"03","name":"Niedersachsen"}},{"name":"Kantor-Kruse-Str.","postalCode":"29643","locality":"Neuenkirchen","municipality":{"key":"03358017","name":"Neuenkirchen","type":"Kreisangehörige_Gemeinde"},"district":{"key":"03358","name":"Heidekreis","type":"Landkreis"},"federalState":{"key":"03","name":"Niedersachsen"}},{"name":"Kantstr.","postalCode":"48485","locality":"Neuenkirchen","municipality":{"key":"05566060","name":"Neuenkirchen","type":"Kreisangehörige_Gemeinde"},"district":{"key":"05566","name":"Steinfurt","type":"Kreis"},"federalState":{"key":"05","name":"Nordrhein-Westfalen"}},{"name":"Karkenweg","postalCode":"25792","locality":"Neuenkirchen","municipality":{"key":"01051075","name":"Neuenkirchen","type":"Kreisangehörige_Gemeinde"},"district":{"key":"01051","name":"Dithmarschen","type":"Kreis"},"federalState":{"key":"01","name":"Schleswig-Holstein"}},{"name":"Karrendorfer Str.","postalCode":"17498","locality":"Neuenkirchen","municipality":{"key":"13075102","name":"Neuenkirchen","type":"Kreisangehörige_Gemeinde"},"district":{"key":"13075","name":"Vorpommern-Greifswald","type":"Landkreis"},"federalState":{"key":"13","name":"Mecklenburg-Vorpommern"}},{"name":"Kastanienstr.","postalCode":"48485","locality":"Neuenkirchen","municipality":{"key":"05566060","name":"Neuenkirchen","type":"Kreisangehörige_Gemeinde"},"district":{"key":"05566","name":"Steinfurt","type":"Kreis"},"federalState":{"key":"05","name":"Nordrhein-Westfalen"}},{"name":"Katenweg","postalCode":"25792","locality":"Neuenkirchen","municipality":{"key":"01051075","name":"Neuenkirchen","type":"Kreisangehörige_Gemeinde"},"district":{"key":"01051","name":"Dithmarschen","type":"Kreis"},"federalState":{"key":"01","name":"Schleswig-Holstein"}},{"name":"Käthe-Kollwitz-Str.","postalCode":"48485","locality":"Neuenkirchen","municipality":{"key":"05566060","name":"Neuenkirchen","type":"Kreisangehörige_Gemeinde"},"district":{"key":"05566","name":"Steinfurt","type":"Kreis"},"federalState":{"key":"05","name":"Nordrhein-Westfalen"}},{"name":"Katthusen","postalCode":"21763","locality":"Neuenkirchen","municipality":{"key":"03352038","name":"Neuenkirchen","type":"Kreisangehörige_Gemeinde"},"district":{"key":"03352","name":"Cuxhaven","type":"Landkreis"},"federalState":{"key":"03","name":"Niedersachsen"}},{"name":"Kempen","postalCode":"29643","locality":"Neuenkirchen","municipality":{"key":"03358017","name":"Neuenkirchen","type":"Kreisangehörige_Gemeinde"},"district":{"key":"03358","name":"Heidekreis","type":"Landkreis"},"federalState":{"key":"03","name":"Niedersachsen"}},{"name":"Kettelerstr.","postalCode":"48485","locality":"Neuenkirchen","municipality":{"key":"05566060","name":"Neuenkirchen","type":"Kreisangehörige_Gemeinde"},"district":{"key":"05566","name":"Steinfurt","type":"Kreis"},"federalState":{"key":"05","name":"Nordrhein-Westfalen"}},{"name":"Kiebitzstr.","postalCode":"48485","locality":"Neuenkirchen","municipality":{"key":"05566060","name":"Neuenkirchen","type":"Kreisangehörige_Gemeinde"},"district":{"key":"05566","name":"Steinfurt","type":"Kreis"},"federalState":{"key":"05","name":"Nordrhein-Westfalen"}},{"name":"Kiefernstr.","postalCode":"29643","locality":"Neuenkirchen","municipality":{"key":"03358017","name":"Neuenkirchen","type":"Kreisangehörige_Gemeinde"},"district":{"key":"03358","name":"Heidekreis","type":"Landkreis"},"federalState":{"key":"03","name":"Niedersachsen"}},{"name":"Kiefernweg","postalCode":"48485","locality":"Neuenkirchen","municipality":{"key":"05566060","name":"Neuenkirchen","type":"Kreisangehörige_Gemeinde"},"district":{"key":"05566","name":"Steinfurt","type":"Kreis"},"federalState":{"key":"05","name":"Nordrhein-Westfalen"}},{"name":"Kiesweg","postalCode":"48485","locality":"Neuenkirchen","municipality":{"key":"05566060","name":"Neuenkirchen","type":"Kreisangehörige_Gemeinde"},"district":{"key":"05566","name":"Steinfurt","type":"Kreis"},"federalState":{"key":"05","name":"Nordrhein-Westfalen"}},{"name":"Kirchgasse","postalCode":"49434","locality":"Neuenkirchen-Vörden","municipality":{"key":"03460007","name":"Neuenkirchen-Vörden","type":"Kreisangehörige_Gemeinde"},"district":{"key":"03460","name":"Vechta","type":"Landkreis"},"federalState":{"key":"03","name":"Niedersachsen"}},{"name":"Kirchplatz","postalCode":"48485","locality":"Neuenkirchen","municipality":{"key":"05566060","name":"Neuenkirchen","type":"Kreisangehörige_Gemeinde"},"district":{"key":"05566","name":"Steinfurt","type":"Kreis"},"federalState":{"key":"05","name":"Nordrhein-Westfalen"}},{"name":"Kirchstr.","postalCode":"29643","locality":"Neuenkirchen","municipality":{"key":"03358017","name":"Neuenkirchen","type":"Kreisangehörige_Gemeinde"},"district":{"key":"03358","name":"Heidekreis","type":"Landkreis"},"federalState":{"key":"03","name":"Niedersachsen"}},{"name":"Kirchstr.","postalCode":"48485","locality":"Neuenkirchen","municipality":{"key":"05566060","name":"Neuenkirchen","type":"Kreisangehörige_Gemeinde"},"district":{"key":"05566","name":"Steinfurt","type":"Kreis"},"federalState":{"key":"05","name":"Nordrhein-Westfalen"}},{"name":"Kirchweg","postalCode":"49586","locality":"Neuenkirchen","municipality":{"key":"03459027","name":"Neuenkirchen","type":"Kreisangehörige_Gemeinde"},"district":{"key":"03459","name":"Osnabrück","type":"Landkreis"},"federalState":{"key":"03","name":"Niedersachsen"}},{"name":"Kitzerostr.","postalCode":"49586","locality":"Neuenkirchen","municipality":{"key":"03459027","name":"Neuenkirchen","type":"Kreisangehörige_Gemeinde"},"district":{"key":"03459","name":"Osnabrück","type":"Landkreis"},"federalState":{"key":"03","name":"Niedersachsen"}},{"name":"Kleine Hinterstr.","postalCode":"49434","locality":"Neuenkirchen-Vörden","municipality":{"key":"03460007","name":"Neuenkirchen-Vörden","type":"Kreisangehörige_Gemeinde"},"district":{"key":"03460","name":"Vechta","type":"Landkreis"},"federalState":{"key":"03","name":"Niedersachsen"}},{"name":"Kleiner Sundern","postalCode":"49586","locality":"Neuenkirchen","municipality":{"key":"03459027","name":"Neuenkirchen","type":"Kreisangehörige_Gemeinde"},"district":{"key":"03459","name":"Osnabrück","type":"Landkreis"},"federalState":{"key":"03","name":"Niedersachsen"}},{"name":"Kleiststr.","postalCode":"48485","locality":"Neuenkirchen","municipality":{"key":"05566060","name":"Neuenkirchen","type":"Kreisangehörige_Gemeinde"},"district":{"key":"05566","name":"Steinfurt","type":"Kreis"},"federalState":{"key":"05","name":"Nordrhein-Westfalen"}},{"name":"Klinik-Waldpark","postalCode":"49434","locality":"Neuenkirchen-Vörden","municipality":{"key":"03460007","name":"Neuenkirchen-Vörden","type":"Kreisangehörige_Gemeinde"},"district":{"key":"03460","name":"Vechta","type":"Landkreis"},"federalState":{"key":"03","name":"Niedersachsen"}},{"name":"Kohlenbruch","postalCode":"49586","locality":"Neuenkirchen","municipality":{"key":"03459027","name":"Neuenkirchen","type":"Kreisangehörige_Gemeinde"},"district":{"key":"03459","name":"Osnabrück","type":"Landkreis"},"federalState":{"key":"03","name":"Niedersachsen"}},{"name":"Kolkstr.","postalCode":"21763","locality":"Neuenkirchen","municipality":{"key":"03352038","name":"Neuenkirchen","type":"Kreisangehörige_Gemeinde"},"district":{"key":"03352","name":"Cuxhaven","type":"Landkreis"},"federalState":{"key":"03","name":"Niedersachsen"}},{"name":"Kolpingstr.","postalCode":"48485","locality":"Neuenkirchen","municipality":{"key":"05566060","name":"Neuenkirchen","type":"Kreisangehörige_Gemeinde"},"district":{"key":"05566","name":"Steinfurt","type":"Kreis"},"federalState":{"key":"05","name":"Nordrhein-Westfalen"}},{"name":"Kolpingstr.","postalCode":"49586","locality":"Neuenkirchen","municipality":{"key":"03459027","name":"Neuenkirchen","type":"Kreisangehörige_Gemeinde"},"district":{"key":"03459","name":"Osnabrück","type":"Landkreis"},"federalState":{"key":"03","name":"Niedersachsen"}},{"name":"Konrad-Adenauer-Str.","postalCode":"49586","locality":"Neuenkirchen","municipality":{"key":"03459027","name":"Neuenkirchen","type":"Kreisangehörige_Gemeinde"},"district":{"key":"03459","name":"Osnabrück","type":"Landkreis"},"federalState":{"key":"03","name":"Niedersachsen"}},{"name":"Koppelheide","postalCode":"49434","locality":"Neuenkirchen-Vörden","municipality":{"key":"03460007","name":"Neuenkirchen-Vörden","type":"Kreisangehörige_Gemeinde"},"district":{"key":"03460","name":"Vechta","type":"Landkreis"},"federalState":{"key":"03","name":"Niedersachsen"}},{"name":"Koppelstr.","postalCode":"49434","locality":"Neuenkirchen-Vörden","municipality":{"key":"03460007","name":"Neuenkirchen-Vörden","type":"Kreisangehörige_Gemeinde"},"district":{"key":"03460","name":"Vechta","type":"Landkreis"},"federalState":{"key":"03","name":"Niedersachsen"}},{"name":"Koppelweg","postalCode":"17498","locality":"Neuenkirchen","municipality":{"key":"13075102","name":"Neuenkirchen","type":"Kreisangehörige_Gemeinde"},"district":{"key":"13075","name":"Vorpommern-Greifswald","type":"Landkreis"},"federalState":{"key":"13","name":"Mecklenburg-Vorpommern"}},{"name":"Kornblumenweg","postalCode":"17498","locality":"Neuenkirchen","municipality":{"key":"13075102","name":"Neuenkirchen","type":"Kreisangehörige_Gemeinde"},"district":{"key":"13075","name":"Vorpommern-Greifswald","type":"Landkreis"},"federalState":{"key":"13","name":"Mecklenburg-Vorpommern"}},{"name":"Kornstr.","postalCode":"27251","locality":"Neuenkirchen","municipality":{"key":"03251028","name":"Neuenkirchen","type":"Kreisangehörige_Gemeinde"},"district":{"key":"03251","name":"Diepholz","type":"Landkreis"},"federalState":{"key":"03","name":"Niedersachsen"}},{"name":"Kreuzkamp","postalCode":"29643","locality":"Neuenkirchen","municipality":{"key":"03358017","name":"Neuenkirchen","type":"Kreisangehörige_Gemeinde"},"district":{"key":"03358","name":"Heidekreis","type":"Landkreis"},"federalState":{"key":"03","name":"Niedersachsen"}},{"name":"Kreuzweg","postalCode":"21763","locality":"Neuenkirchen","municipality":{"key":"03352038","name":"Neuenkirchen","type":"Kreisangehörige_Gemeinde"},"district":{"key":"03352","name":"Cuxhaven","type":"Landkreis"},"federalState":{"key":"03","name":"Niedersachsen"}},{"name":"Kreyenburg","postalCode":"48485","locality":"Neuenkirchen","municipality":{"key":"05566060","name":"Neuenkirchen","type":"Kreisangehörige_Gemeinde"},"district":{"key":"05566","name":"Steinfurt","type":"Kreis"},"federalState":{"key":"05","name":"Nordrhein-Westfalen"}},{"name":"Krögereiweg","postalCode":"29643","locality":"Neuenkirchen","municipality":{"key":"03358017","name":"Neuenkirchen","type":"Kreisangehörige_Gemeinde"},"district":{"key":"03358","name":"Heidekreis","type":"Landkreis"},"federalState":{"key":"03","name":"Niedersachsen"}},{"name":"Krummes Feld","postalCode":"21763","locality":"Neuenkirchen","municipality":{"key":"03352038","name":"Neuenkirchen","type":"Kreisangehörige_Gemeinde"},"district":{"key":"03352","name":"Cuxhaven","type":"Landkreis"},"federalState":{"key":"03","name":"Niedersachsen"}},{"name":"Küfergasse","postalCode":"49434","locality":"Neuenkirchen-Vörden","municipality":{"key":"03460007","name":"Neuenkirchen-Vörden","type":"Kreisangehörige_Gemeinde"},"district":{"key":"03460","name":"Vechta","type":"Landkreis"},"federalState":{"key":"03","name":"Niedersachsen"}},{"name":"Kuhnts Busch","postalCode":"48485","locality":"Neuenkirchen","municipality":{"key":"05566060","name":"Neuenkirchen","type":"Kreisangehörige_Gemeinde"},"district":{"key":"05566","name":"Steinfurt","type":"Kreis"},"federalState":{"key":"05","name":"Nordrhein-Westfalen"}},{"name":"Künhok","postalCode":"48485","locality":"Neuenkirchen","municipality":{"key":"05566060","name":"Neuenkirchen","type":"Kreisangehörige_Gemeinde"},"district":{"key":"05566","name":"Steinfurt","type":"Kreis"},"federalState":{"key":"05","name":"Nordrhein-Westfalen"}},{"name":"Kurze Str.","postalCode":"48485","locality":"Neuenkirchen","municipality":{"key":"05566060","name":"Neuenkirchen","type":"Kreisangehörige_Gemeinde"},"district":{"key":"05566","name":"Steinfurt","type":"Kreis"},"federalState":{"key":"05","name":"Nordrhein-Westfalen"}},{"name":"Küsterstr.","postalCode":"49434","locality":"Neuenkirchen-Vörden","municipality":{"key":"03460007","name":"Neuenkirchen-Vörden","type":"Kreisangehörige_Gemeinde"},"district":{"key":"03460","name":"Vechta","type":"Landkreis"},"federalState":{"key":"03","name":"Niedersachsen"}},{"name":"Laase","postalCode":"18569","locality":"Neuenkirchen","municipality":{"key":"13073059","name":"Neuenkirchen","type":"Kreisangehörige_Gemeinde"},"district":{"key":"13073","name":"Vorpommern-Rügen","type":"Landkreis"},"federalState":{"key":"13","name":"Mecklenburg-Vorpommern"}},{"name":"Ladebower Chaussee","postalCode":"17498","locality":"Neuenkirchen","municipality":{"key":"13075102","name":"Neuenkirchen","type":"Kreisangehörige_Gemeinde"},"district":{"key":"13075","name":"Vorpommern-Greifswald","type":"Landkreis"},"federalState":{"key":"13","name":"Mecklenburg-Vorpommern"}},{"name":"Landersum","postalCode":"48485","locality":"Neuenkirchen","municipality":{"key":"05566060","name":"Neuenkirchen","type":"Kreisangehörige_Gemeinde"},"district":{"key":"05566","name":"Steinfurt","type":"Kreis"},"federalState":{"key":"05","name":"Nordrhein-Westfalen"}},{"name":"Landhäger Weg","postalCode":"17498","locality":"Neuenkirchen","municipality":{"key":"13075102","name":"Neuenkirchen","type":"Kreisangehörige_Gemeinde"},"district":{"key":"13075","name":"Vorpommern-Greifswald","type":"Landkreis"},"federalState":{"key":"13","name":"Mecklenburg-Vorpommern"}},{"name":"Langeloher Str.","postalCode":"29643","locality":"Neuenkirchen","municipality":{"key":"03358017","name":"Neuenkirchen","type":"Kreisangehörige_Gemeinde"},"district":{"key":"03358","name":"Heidekreis","type":"Landkreis"},"federalState":{"key":"03","name":"Niedersachsen"}},{"name":"Lärchenstr.","postalCode":"49434","locality":"Neuenkirchen-Vörden","municipality":{"key":"03460007","name":"Neuenkirchen-Vörden","type":"Kreisangehörige_Gemeinde"},"district":{"key":"03460","name":"Vechta","type":"Landkreis"},"federalState":{"key":"03","name":"Niedersachsen"}},{"name":"Laukamp","postalCode":"48485","locality":"Neuenkirchen","municipality":{"key":"05566060","name":"Neuenkirchen","type":"Kreisangehörige_Gemeinde"},"district":{"key":"05566","name":"Steinfurt","type":"Kreis"},"federalState":{"key":"05","name":"Nordrhein-Westfalen"}},{"name":"Lechtruper Torfweg","postalCode":"49586","locality":"Neuenkirchen","municipality":{"key":"03459027","name":"Neuenkirchen","type":"Kreisangehörige_Gemeinde"},"district":{"key":"03459","name":"Osnabrück","type":"Landkreis"},"federalState":{"key":"03","name":"Niedersachsen"}},{"name":"Lehmweg","postalCode":"29643","locality":"Neuenkirchen","municipality":{"key":"03358017","name":"Neuenkirchen","type":"Kreisangehörige_Gemeinde"},"district":{"key":"03358","name":"Heidekreis","type":"Landkreis"},"federalState":{"key":"03","name":"Niedersachsen"}},{"name":"Leister Str.","postalCode":"17498","locality":"Neuenkirchen","municipality":{"key":"13075102","name":"Neuenkirchen","type":"Kreisangehörige_Gemeinde"},"district":{"key":"13075","name":"Vorpommern-Greifswald","type":"Landkreis"},"federalState":{"key":"13","name":"Mecklenburg-Vorpommern"}},{"name":"Lerchenstr.","postalCode":"29643","locality":"Neuenkirchen","municipality":{"key":"03358017","name":"Neuenkirchen","type":"Kreisangehörige_Gemeinde"},"district":{"key":"03358","name":"Heidekreis","type":"Landkreis"},"federalState":{"key":"03","name":"Niedersachsen"}},{"name":"Lerchenstr.","postalCode":"48485","locality":"Neuenkirchen","municipality":{"key":"05566060","name":"Neuenkirchen","type":"Kreisangehörige_Gemeinde"},"district":{"key":"05566","name":"Steinfurt","type":"Kreis"},"federalState":{"key":"05","name":"Nordrhein-Westfalen"}},{"name":"Lerchenweg","postalCode":"27251","locality":"Neuenkirchen","municipality":{"key":"03251028","name":"Neuenkirchen","type":"Kreisangehörige_Gemeinde"},"district":{"key":"03251","name":"Diepholz","type":"Landkreis"},"federalState":{"key":"03","name":"Niedersachsen"}},{"name":"Lessingstr.","postalCode":"48485","locality":"Neuenkirchen","municipality":{"key":"05566060","name":"Neuenkirchen","type":"Kreisangehörige_Gemeinde"},"district":{"key":"05566","name":"Steinfurt","type":"Kreis"},"federalState":{"key":"05","name":"Nordrhein-Westfalen"}},{"name":"Leverdingen","postalCode":"29643","locality":"Neuenkirchen","municipality":{"key":"03358017","name":"Neuenkirchen","type":"Kreisangehörige_Gemeinde"},"district":{"key":"03358","name":"Heidekreis","type":"Landkreis"},"federalState":{"key":"03","name":"Niedersachsen"}},{"name":"Lieschweg","postalCode":"49434","locality":"Neuenkirchen-Vörden","municipality":{"key":"03460007","name":"Neuenkirchen-Vörden","type":"Kreisangehörige_Gemeinde"},"district":{"key":"03460","name":"Vechta","type":"Landkreis"},"federalState":{"key":"03","name":"Niedersachsen"}},{"name":"Lieste","postalCode":"29643","locality":"Neuenkirchen","municipality":{"key":"03358017","name":"Neuenkirchen","type":"Kreisangehörige_Gemeinde"},"district":{"key":"03358","name":"Heidekreis","type":"Landkreis"},"federalState":{"key":"03","name":"Niedersachsen"}},{"name":"Liester Str.","postalCode":"29643","locality":"Neuenkirchen","municipality":{"key":"03358017","name":"Neuenkirchen","type":"Kreisangehörige_Gemeinde"},"district":{"key":"03358","name":"Heidekreis","type":"Landkreis"},"federalState":{"key":"03","name":"Niedersachsen"}},{"name":"Lilienstr.","postalCode":"48485","locality":"Neuenkirchen","municipality":{"key":"05566060","name":"Neuenkirchen","type":"Kreisangehörige_Gemeinde"},"district":{"key":"05566","name":"Steinfurt","type":"Kreis"},"federalState":{"key":"05","name":"Nordrhein-Westfalen"}},{"name":"Limberger Str.","postalCode":"49586","locality":"Neuenkirchen","municipality":{"key":"03459027","name":"Neuenkirchen","type":"Kreisangehörige_Gemeinde"},"district":{"key":"03459","name":"Osnabrück","type":"Landkreis"},"federalState":{"key":"03","name":"Niedersachsen"}},{"name":"Lindenstr.","postalCode":"29643","locality":"Neuenkirchen","municipality":{"key":"03358017","name":"Neuenkirchen","type":"Kreisangehörige_Gemeinde"},"district":{"key":"03358","name":"Heidekreis","type":"Landkreis"},"federalState":{"key":"03","name":"Niedersachsen"}},{"name":"Lindenstr.","postalCode":"48485","locality":"Neuenkirchen","municipality":{"key":"05566060","name":"Neuenkirchen","type":"Kreisangehörige_Gemeinde"},"district":{"key":"05566","name":"Steinfurt","type":"Kreis"},"federalState":{"key":"05","name":"Nordrhein-Westfalen"}},{"name":"Lindenstr.","postalCode":"49434","locality":"Neuenkirchen-Vörden","municipality":{"key":"03460007","name":"Neuenkirchen-Vörden","type":"Kreisangehörige_Gemeinde"},"district":{"key":"03460","name":"Vechta","type":"Landkreis"},"federalState":{"key":"03","name":"Niedersachsen"}},{"name":"Lindenstr.","postalCode":"49586","locality":"Neuenkirchen","municipality":{"key":"03459027","name":"Neuenkirchen","type":"Kreisangehörige_Gemeinde"},"district":{"key":"03459","name":"Osnabrück","type":"Landkreis"},"federalState":{"key":"03","name":"Niedersachsen"}},{"name":"Linterner Wiesen","postalCode":"49586","locality":"Neuenkirchen","municipality":{"key":"03459027","name":"Neuenkirchen","type":"Kreisangehörige_Gemeinde"},"district":{"key":"03459","name":"Osnabrück","type":"Landkreis"},"federalState":{"key":"03","name":"Niedersachsen"}},{"name":"Listweg","postalCode":"48485","locality":"Neuenkirchen","municipality":{"key":"05566060","name":"Neuenkirchen","type":"Kreisangehörige_Gemeinde"},"district":{"key":"05566","name":"Steinfurt","type":"Kreis"},"federalState":{"key":"05","name":"Nordrhein-Westfalen"}},{"name":"Lohweg","postalCode":"29643","locality":"Neuenkirchen","municipality":{"key":"03358017","name":"Neuenkirchen","type":"Kreisangehörige_Gemeinde"},"district":{"key":"03358","name":"Heidekreis","type":"Landkreis"},"federalState":{"key":"03","name":"Niedersachsen"}},{"name":"Lönsstr.","postalCode":"48485","locality":"Neuenkirchen","municipality":{"key":"05566060","name":"Neuenkirchen","type":"Kreisangehörige_Gemeinde"},"district":{"key":"05566","name":"Steinfurt","type":"Kreis"},"federalState":{"key":"05","name":"Nordrhein-Westfalen"}},{"name":"Lönsweg","postalCode":"29643","locality":"Neuenkirchen","municipality":{"key":"03358017","name":"Neuenkirchen","type":"Kreisangehörige_Gemeinde"},"district":{"key":"03358","name":"Heidekreis","type":"Landkreis"},"federalState":{"key":"03","name":"Niedersachsen"}},{"name":"Löwenzahnstr.","postalCode":"29643","locality":"Neuenkirchen","municipality":{"key":"03358017","name":"Neuenkirchen","type":"Kreisangehörige_Gemeinde"},"district":{"key":"03358","name":"Heidekreis","type":"Landkreis"},"federalState":{"key":"03","name":"Niedersachsen"}},{"name":"Ludwig-Uhland-Weg","postalCode":"49434","locality":"Neuenkirchen-Vörden","municipality":{"key":"03460007","name":"Neuenkirchen-Vörden","type":"Kreisangehörige_Gemeinde"},"district":{"key":"03460","name":"Vechta","type":"Landkreis"},"federalState":{"key":"03","name":"Niedersachsen"}},{"name":"Lühebogen","postalCode":"21640","locality":"Neuenkirchen","municipality":{"key":"03359033","name":"Neuenkirchen","type":"Kreisangehörige_Gemeinde"},"district":{"key":"03359","name":"Stade","type":"Landkreis"},"federalState":{"key":"03","name":"Niedersachsen"}},{"name":"Luisenhof","postalCode":"17039","locality":"Neuenkirchen","municipality":{"key":"13071108","name":"Neuenkirchen","type":"Kreisangehörige_Gemeinde"},"district":{"key":"13071","name":"Mecklenburgische Seenplatte","type":"Landkreis"},"federalState":{"key":"13","name":"Mecklenburg-Vorpommern"}},{"name":"Lünort","postalCode":"49586","locality":"Neuenkirchen","municipality":{"key":"03459027","name":"Neuenkirchen","type":"Kreisangehörige_Gemeinde"},"district":{"key":"03459","name":"Osnabrück","type":"Landkreis"},"federalState":{"key":"03","name":"Niedersachsen"}},{"name":"Lünzener Str.","postalCode":"29643","locality":"Neuenkirchen","municipality":{"key":"03358017","name":"Neuenkirchen","type":"Kreisangehörige_Gemeinde"},"district":{"key":"03358","name":"Heidekreis","type":"Landkreis"},"federalState":{"key":"03","name":"Niedersachsen"}},{"name":"Lütte Straat","postalCode":"29643","locality":"Neuenkirchen","municipality":{"key":"03358017","name":"Neuenkirchen","type":"Kreisangehörige_Gemeinde"},"district":{"key":"03358","name":"Heidekreis","type":"Landkreis"},"federalState":{"key":"03","name":"Niedersachsen"}},{"name":"Magnolienweg","postalCode":"48485","locality":"Neuenkirchen","municipality":{"key":"05566060","name":"Neuenkirchen","type":"Kreisangehörige_Gemeinde"},"district":{"key":"05566","name":"Steinfurt","type":"Kreis"},"federalState":{"key":"05","name":"Nordrhein-Westfalen"}},{"name":"Marie-Curie-Str.","postalCode":"48485","locality":"Neuenkirchen","municipality":{"key":"05566060","name":"Neuenkirchen","type":"Kreisangehörige_Gemeinde"},"district":{"key":"05566","name":"Steinfurt","type":"Kreis"},"federalState":{"key":"05","name":"Nordrhein-Westfalen"}},{"name":"Marienstr.","postalCode":"48485","locality":"Neuenkirchen","municipality":{"key":"05566060","name":"Neuenkirchen","type":"Kreisangehörige_Gemeinde"},"district":{"key":"05566","name":"Steinfurt","type":"Kreis"},"federalState":{"key":"05","name":"Nordrhein-Westfalen"}},{"name":"Marktstr.","postalCode":"48485","locality":"Neuenkirchen","municipality":{"key":"05566060","name":"Neuenkirchen","type":"Kreisangehörige_Gemeinde"},"district":{"key":"05566","name":"Steinfurt","type":"Kreis"},"federalState":{"key":"05","name":"Nordrhein-Westfalen"}},{"name":"Marten-Kröncke-Weg","postalCode":"21763","locality":"Neuenkirchen","municipality":{"key":"03352038","name":"Neuenkirchen","type":"Kreisangehörige_Gemeinde"},"district":{"key":"03352","name":"Cuxhaven","type":"Landkreis"},"federalState":{"key":"03","name":"Niedersachsen"}},{"name":"Maschenhack","postalCode":"18569","locality":"Neuenkirchen","municipality":{"key":"13073059","name":"Neuenkirchen","type":"Kreisangehörige_Gemeinde"},"district":{"key":"13073","name":"Vorpommern-Rügen","type":"Landkreis"},"federalState":{"key":"13","name":"Mecklenburg-Vorpommern"}},{"name":"Matthias-Claudius-Weg","postalCode":"49434","locality":"Neuenkirchen-Vörden","municipality":{"key":"03460007","name":"Neuenkirchen-Vörden","type":"Kreisangehörige_Gemeinde"},"district":{"key":"03460","name":"Vechta","type":"Landkreis"},"federalState":{"key":"03","name":"Niedersachsen"}},{"name":"Meisenstr.","postalCode":"48485","locality":"Neuenkirchen","municipality":{"key":"05566060","name":"Neuenkirchen","type":"Kreisangehörige_Gemeinde"},"district":{"key":"05566","name":"Steinfurt","type":"Kreis"},"federalState":{"key":"05","name":"Nordrhein-Westfalen"}},{"name":"Meisenweg","postalCode":"49434","locality":"Neuenkirchen-Vörden","municipality":{"key":"03460007","name":"Neuenkirchen-Vörden","type":"Kreisangehörige_Gemeinde"},"district":{"key":"03460","name":"Vechta","type":"Landkreis"},"federalState":{"key":"03","name":"Niedersachsen"}},{"name":"Merschkamp","postalCode":"48485","locality":"Neuenkirchen","municipality":{"key":"05566060","name":"Neuenkirchen","type":"Kreisangehörige_Gemeinde"},"district":{"key":"05566","name":"Steinfurt","type":"Kreis"},"federalState":{"key":"05","name":"Nordrhein-Westfalen"}},{"name":"Mesumer Str.","postalCode":"48485","locality":"Neuenkirchen","municipality":{"key":"05566060","name":"Neuenkirchen","type":"Kreisangehörige_Gemeinde"},"district":{"key":"05566","name":"Steinfurt","type":"Kreis"},"federalState":{"key":"05","name":"Nordrhein-Westfalen"}},{"name":"Mettinger Str.","postalCode":"49586","locality":"Neuenkirchen","municipality":{"key":"03459027","name":"Neuenkirchen","type":"Kreisangehörige_Gemeinde"},"district":{"key":"03459","name":"Osnabrück","type":"Landkreis"},"federalState":{"key":"03","name":"Niedersachsen"}},{"name":"Mittelstr.","postalCode":"27251","locality":"Neuenkirchen","municipality":{"key":"03251028","name":"Neuenkirchen","type":"Kreisangehörige_Gemeinde"},"district":{"key":"03251","name":"Diepholz","type":"Landkreis"},"federalState":{"key":"03","name":"Niedersachsen"}},{"name":"Mittelwand","postalCode":"27251","locality":"Neuenkirchen","municipality":{"key":"03251028","name":"Neuenkirchen","type":"Kreisangehörige_Gemeinde"},"district":{"key":"03251","name":"Diepholz","type":"Landkreis"},"federalState":{"key":"03","name":"Niedersachsen"}},{"name":"Mittelweg","postalCode":"25792","locality":"Neuenkirchen","municipality":{"key":"01051075","name":"Neuenkirchen","type":"Kreisangehörige_Gemeinde"},"district":{"key":"01051","name":"Dithmarschen","type":"Kreis"},"federalState":{"key":"01","name":"Schleswig-Holstein"}},{"name":"Möhlenweg","postalCode":"25792","locality":"Neuenkirchen","municipality":{"key":"01051075","name":"Neuenkirchen","type":"Kreisangehörige_Gemeinde"},"district":{"key":"01051","name":"Dithmarschen","type":"Kreis"},"federalState":{"key":"01","name":"Schleswig-Holstein"}},{"name":"Molkenreithsweg","postalCode":"29643","locality":"Neuenkirchen","municipality":{"key":"03358017","name":"Neuenkirchen","type":"Kreisangehörige_Gemeinde"},"district":{"key":"03358","name":"Heidekreis","type":"Landkreis"},"federalState":{"key":"03","name":"Niedersachsen"}},{"name":"Montgomery Weg","postalCode":"29643","locality":"Neuenkirchen","municipality":{"key":"03358017","name":"Neuenkirchen","type":"Kreisangehörige_Gemeinde"},"district":{"key":"03358","name":"Heidekreis","type":"Landkreis"},"federalState":{"key":"03","name":"Niedersachsen"}},{"name":"Moor","postalCode":"18569","locality":"Neuenkirchen","municipality":{"key":"13073059","name":"Neuenkirchen","type":"Kreisangehörige_Gemeinde"},"district":{"key":"13073","name":"Vorpommern-Rügen","type":"Landkreis"},"federalState":{"key":"13","name":"Mecklenburg-Vorpommern"}},{"name":"Moorstr.","postalCode":"49586","locality":"Neuenkirchen","municipality":{"key":"03459027","name":"Neuenkirchen","type":"Kreisangehörige_Gemeinde"},"district":{"key":"03459","name":"Osnabrück","type":"Landkreis"},"federalState":{"key":"03","name":"Niedersachsen"}},{"name":"Moränenstr.","postalCode":"48485","locality":"Neuenkirchen","municipality":{"key":"05566060","name":"Neuenkirchen","type":"Kreisangehörige_Gemeinde"},"district":{"key":"05566","name":"Steinfurt","type":"Kreis"},"federalState":{"key":"05","name":"Nordrhein-Westfalen"}},{"name":"Mörikestr.","postalCode":"48485","locality":"Neuenkirchen","municipality":{"key":"05566060","name":"Neuenkirchen","type":"Kreisangehörige_Gemeinde"},"district":{"key":"05566","name":"Steinfurt","type":"Kreis"},"federalState":{"key":"05","name":"Nordrhein-Westfalen"}},{"name":"Moritzhagen","postalCode":"18569","locality":"Neuenkirchen","municipality":{"key":"13073059","name":"Neuenkirchen","type":"Kreisangehörige_Gemeinde"},"district":{"key":"13073","name":"Vorpommern-Rügen","type":"Landkreis"},"federalState":{"key":"13","name":"Mecklenburg-Vorpommern"}},{"name":"Mozartstr.","postalCode":"29643","locality":"Neuenkirchen","municipality":{"key":"03358017","name":"Neuenkirchen","type":"Kreisangehörige_Gemeinde"},"district":{"key":"03358","name":"Heidekreis","type":"Landkreis"},"federalState":{"key":"03","name":"Niedersachsen"}},{"name":"Muddweg","postalCode":"21640","locality":"Neuenkirchen","municipality":{"key":"03359033","name":"Neuenkirchen","type":"Kreisangehörige_Gemeinde"},"district":{"key":"03359","name":"Stade","type":"Landkreis"},"federalState":{"key":"03","name":"Niedersachsen"}},{"name":"Müggenburg","postalCode":"17392","locality":"Neuenkirchen","municipality":{"key":"13075101","name":"Neuenkirchen","type":"Kreisangehörige_Gemeinde"},"district":{"key":"13075","name":"Vorpommern-Greifswald","type":"Landkreis"},"federalState":{"key":"13","name":"Mecklenburg-Vorpommern"}},{"name":"Mühlendamm","postalCode":"48485","locality":"Neuenkirchen","municipality":{"key":"05566060","name":"Neuenkirchen","type":"Kreisangehörige_Gemeinde"},"district":{"key":"05566","name":"Steinfurt","type":"Kreis"},"federalState":{"key":"05","name":"Nordrhein-Westfalen"}},{"name":"Mühlendamm","postalCode":"49434","locality":"Neuenkirchen-Vörden","municipality":{"key":"03460007","name":"Neuenkirchen-Vörden","type":"Kreisangehörige_Gemeinde"},"district":{"key":"03460","name":"Vechta","type":"Landkreis"},"federalState":{"key":"03","name":"Niedersachsen"}},{"name":"Mühlenstr.","postalCode":"48485","locality":"Neuenkirchen","municipality":{"key":"05566060","name":"Neuenkirchen","type":"Kreisangehörige_Gemeinde"},"district":{"key":"05566","name":"Steinfurt","type":"Kreis"},"federalState":{"key":"05","name":"Nordrhein-Westfalen"}},{"name":"Mühlenstr.","postalCode":"49434","locality":"Neuenkirchen-Vörden","municipality":{"key":"03460007","name":"Neuenkirchen-Vörden","type":"Kreisangehörige_Gemeinde"},"district":{"key":"03460","name":"Vechta","type":"Landkreis"},"federalState":{"key":"03","name":"Niedersachsen"}},{"name":"Mühlenweg","postalCode":"29643","locality":"Neuenkirchen","municipality":{"key":"03358017","name":"Neuenkirchen","type":"Kreisangehörige_Gemeinde"},"district":{"key":"03358","name":"Heidekreis","type":"Landkreis"},"federalState":{"key":"03","name":"Niedersachsen"}},{"name":"Mühlenweg","postalCode":"49586","locality":"Neuenkirchen","municipality":{"key":"03459027","name":"Neuenkirchen","type":"Kreisangehörige_Gemeinde"},"district":{"key":"03459","name":"Osnabrück","type":"Landkreis"},"federalState":{"key":"03","name":"Niedersachsen"}},{"name":"Mußteilswall","postalCode":"49434","locality":"Neuenkirchen-Vörden","municipality":{"key":"03460007","name":"Neuenkirchen-Vörden","type":"Kreisangehörige_Gemeinde"},"district":{"key":"03460","name":"Vechta","type":"Landkreis"},"federalState":{"key":"03","name":"Niedersachsen"}},{"name":"Nachtigallenweg","postalCode":"49434","locality":"Neuenkirchen-Vörden","municipality":{"key":"03460007","name":"Neuenkirchen-Vörden","type":"Kreisangehörige_Gemeinde"},"district":{"key":"03460","name":"Vechta","type":"Landkreis"},"federalState":{"key":"03","name":"Niedersachsen"}},{"name":"Narberhausen","postalCode":"49434","locality":"Neuenkirchen-Vörden","municipality":{"key":"03460007","name":"Neuenkirchen-Vörden","type":"Kreisangehörige_Gemeinde"},"district":{"key":"03460","name":"Vechta","type":"Landkreis"},"federalState":{"key":"03","name":"Niedersachsen"}},{"name":"Nelkenstr.","postalCode":"48485","locality":"Neuenkirchen","municipality":{"key":"05566060","name":"Neuenkirchen","type":"Kreisangehörige_Gemeinde"},"district":{"key":"05566","name":"Steinfurt","type":"Kreis"},"federalState":{"key":"05","name":"Nordrhein-Westfalen"}},{"name":"Nellinghof-Schierberg","postalCode":"49434","locality":"Neuenkirchen-Vörden","municipality":{"key":"03460007","name":"Neuenkirchen-Vörden","type":"Kreisangehörige_Gemeinde"},"district":{"key":"03460","name":"Vechta","type":"Landkreis"},"federalState":{"key":"03","name":"Niedersachsen"}},{"name":"Nersumer Str.","postalCode":"29643","locality":"Neuenkirchen","municipality":{"key":"03358017","name":"Neuenkirchen","type":"Kreisangehörige_Gemeinde"},"district":{"key":"03358","name":"Heidekreis","type":"Landkreis"},"federalState":{"key":"03","name":"Niedersachsen"}},{"name":"Neubrandenburger Str.","postalCode":"17039","locality":"Neuenkirchen","municipality":{"key":"13071108","name":"Neuenkirchen","type":"Kreisangehörige_Gemeinde"},"district":{"key":"13071","name":"Mecklenburgische Seenplatte","type":"Landkreis"},"federalState":{"key":"13","name":"Mecklenburg-Vorpommern"}},{"name":"Neuenkirchener Str.","postalCode":"48485","locality":"Neuenkirchen","municipality":{"key":"05566060","name":"Neuenkirchen","type":"Kreisangehörige_Gemeinde"},"district":{"key":"05566","name":"Steinfurt","type":"Kreis"},"federalState":{"key":"05","name":"Nordrhein-Westfalen"}},{"name":"Neuenkirchener Str.","postalCode":"49586","locality":"Neuenkirchen","municipality":{"key":"03459027","name":"Neuenkirchen","type":"Kreisangehörige_Gemeinde"},"district":{"key":"03459","name":"Osnabrück","type":"Landkreis"},"federalState":{"key":"03","name":"Niedersachsen"}},{"name":"Neustadt","postalCode":"49434","locality":"Neuenkirchen-Vörden","municipality":{"key":"03460007","name":"Neuenkirchen-Vörden","type":"Kreisangehörige_Gemeinde"},"district":{"key":"03460","name":"Vechta","type":"Landkreis"},"federalState":{"key":"03","name":"Niedersachsen"}},{"name":"Neveriner Str.","postalCode":"17039","locality":"Neuenkirchen","municipality":{"key":"13071108","name":"Neuenkirchen","type":"Kreisangehörige_Gemeinde"},"district":{"key":"13071","name":"Mecklenburgische Seenplatte","type":"Landkreis"},"federalState":{"key":"13","name":"Mecklenburg-Vorpommern"}},{"name":"Niedersachsenpark-Allee","postalCode":"49434","locality":"Neuenkirchen-Vörden","municipality":{"key":"03460007","name":"Neuenkirchen-Vörden","type":"Kreisangehörige_Gemeinde"},"district":{"key":"03460","name":"Vechta","type":"Landkreis"},"federalState":{"key":"03","name":"Niedersachsen"}},{"name":"Nienkamp","postalCode":"48485","locality":"Neuenkirchen","municipality":{"key":"05566060","name":"Neuenkirchen","type":"Kreisangehörige_Gemeinde"},"district":{"key":"05566","name":"Steinfurt","type":"Kreis"},"federalState":{"key":"05","name":"Nordrhein-Westfalen"}},{"name":"Nienstadt","postalCode":"49586","locality":"Neuenkirchen","municipality":{"key":"03459027","name":"Neuenkirchen","type":"Kreisangehörige_Gemeinde"},"district":{"key":"03459","name":"Osnabrück","type":"Landkreis"},"federalState":{"key":"03","name":"Niedersachsen"}},{"name":"Niewelers Kamp","postalCode":"48485","locality":"Neuenkirchen","municipality":{"key":"05566060","name":"Neuenkirchen","type":"Kreisangehörige_Gemeinde"},"district":{"key":"05566","name":"Steinfurt","type":"Kreis"},"federalState":{"key":"05","name":"Nordrhein-Westfalen"}},{"name":"Nixdörp","postalCode":"25792","locality":"Neuenkirchen","municipality":{"key":"01051075","name":"Neuenkirchen","type":"Kreisangehörige_Gemeinde"},"district":{"key":"01051","name":"Dithmarschen","type":"Kreis"},"federalState":{"key":"01","name":"Schleswig-Holstein"}},{"name":"Norbertastr.","postalCode":"49586","locality":"Neuenkirchen","municipality":{"key":"03459027","name":"Neuenkirchen","type":"Kreisangehörige_Gemeinde"},"district":{"key":"03459","name":"Osnabrück","type":"Landkreis"},"federalState":{"key":"03","name":"Niedersachsen"}},{"name":"Norderstr.","postalCode":"21763","locality":"Neuenkirchen","municipality":{"key":"03352038","name":"Neuenkirchen","type":"Kreisangehörige_Gemeinde"},"district":{"key":"03352","name":"Cuxhaven","type":"Landkreis"},"federalState":{"key":"03","name":"Niedersachsen"}},{"name":"Obstgarten","postalCode":"49586","locality":"Neuenkirchen","municipality":{"key":"03459027","name":"Neuenkirchen","type":"Kreisangehörige_Gemeinde"},"district":{"key":"03459","name":"Osnabrück","type":"Landkreis"},"federalState":{"key":"03","name":"Niedersachsen"}},{"name":"Oehrensweg","postalCode":"29643","locality":"Neuenkirchen","municipality":{"key":"03358017","name":"Neuenkirchen","type":"Kreisangehörige_Gemeinde"},"district":{"key":"03358","name":"Heidekreis","type":"Landkreis"},"federalState":{"key":"03","name":"Niedersachsen"}},{"name":"Offlum","postalCode":"48485","locality":"Neuenkirchen","municipality":{"key":"05566060","name":"Neuenkirchen","type":"Kreisangehörige_Gemeinde"},"district":{"key":"05566","name":"Steinfurt","type":"Kreis"},"federalState":{"key":"05","name":"Nordrhein-Westfalen"}},{"name":"Offlumer Str.","postalCode":"48485","locality":"Neuenkirchen","municipality":{"key":"05566060","name":"Neuenkirchen","type":"Kreisangehörige_Gemeinde"},"district":{"key":"05566","name":"Steinfurt","type":"Kreis"},"federalState":{"key":"05","name":"Nordrhein-Westfalen"}},{"name":"Oldenhäger Weg","postalCode":"17498","locality":"Neuenkirchen","municipality":{"key":"13075102","name":"Neuenkirchen","type":"Kreisangehörige_Gemeinde"},"district":{"key":"13075","name":"Vorpommern-Greifswald","type":"Landkreis"},"federalState":{"key":"13","name":"Mecklenburg-Vorpommern"}},{"name":"Osnabrücker Str.","postalCode":"49434","locality":"Neuenkirchen-Vörden","municipality":{"key":"03460007","name":"Neuenkirchen-Vörden","type":"Kreisangehörige_Gemeinde"},"district":{"key":"03460","name":"Vechta","type":"Landkreis"},"federalState":{"key":"03","name":"Niedersachsen"}},{"name":"Osterkamp","postalCode":"21763","locality":"Neuenkirchen","municipality":{"key":"03352038","name":"Neuenkirchen","type":"Kreisangehörige_Gemeinde"},"district":{"key":"03352","name":"Cuxhaven","type":"Landkreis"},"federalState":{"key":"03","name":"Niedersachsen"}},{"name":"Ostpreußenstr.","postalCode":"29643","locality":"Neuenkirchen","municipality":{"key":"03358017","name":"Neuenkirchen","type":"Kreisangehörige_Gemeinde"},"district":{"key":"03358","name":"Heidekreis","type":"Landkreis"},"federalState":{"key":"03","name":"Niedersachsen"}},{"name":"Overbergstr.","postalCode":"48485","locality":"Neuenkirchen","municipality":{"key":"05566060","name":"Neuenkirchen","type":"Kreisangehörige_Gemeinde"},"district":{"key":"05566","name":"Steinfurt","type":"Kreis"},"federalState":{"key":"05","name":"Nordrhein-Westfalen"}},{"name":"Pappelstr.","postalCode":"48485","locality":"Neuenkirchen","municipality":{"key":"05566060","name":"Neuenkirchen","type":"Kreisangehörige_Gemeinde"},"district":{"key":"05566","name":"Steinfurt","type":"Kreis"},"federalState":{"key":"05","name":"Nordrhein-Westfalen"}},{"name":"Pappelweg","postalCode":"17498","locality":"Neuenkirchen","municipality":{"key":"13075102","name":"Neuenkirchen","type":"Kreisangehörige_Gemeinde"},"district":{"key":"13075","name":"Vorpommern-Greifswald","type":"Landkreis"},"federalState":{"key":"13","name":"Mecklenburg-Vorpommern"}},{"name":"Parkstr.","postalCode":"17039","locality":"Neuenkirchen","municipality":{"key":"13071108","name":"Neuenkirchen","type":"Kreisangehörige_Gemeinde"},"district":{"key":"13071","name":"Mecklenburgische Seenplatte","type":"Landkreis"},"federalState":{"key":"13","name":"Mecklenburg-Vorpommern"}},{"name":"Pastorengarten","postalCode":"49434","locality":"Neuenkirchen-Vörden","municipality":{"key":"03460007","name":"Neuenkirchen-Vörden","type":"Kreisangehörige_Gemeinde"},"district":{"key":"03460","name":"Vechta","type":"Landkreis"},"federalState":{"key":"03","name":"Niedersachsen"}},{"name":"Pastorenweg","postalCode":"21763","locality":"Neuenkirchen","municipality":{"key":"03352038","name":"Neuenkirchen","type":"Kreisangehörige_Gemeinde"},"district":{"key":"03352","name":"Cuxhaven","type":"Landkreis"},"federalState":{"key":"03","name":"Niedersachsen"}},{"name":"Pastorskamp","postalCode":"48485","locality":"Neuenkirchen","municipality":{"key":"05566060","name":"Neuenkirchen","type":"Kreisangehörige_Gemeinde"},"district":{"key":"05566","name":"Steinfurt","type":"Kreis"},"federalState":{"key":"05","name":"Nordrhein-Westfalen"}},{"name":"Pastor-Wittkopf-Str.","postalCode":"29643","locality":"Neuenkirchen","municipality":{"key":"03358017","name":"Neuenkirchen","type":"Kreisangehörige_Gemeinde"},"district":{"key":"03358","name":"Heidekreis","type":"Landkreis"},"federalState":{"key":"03","name":"Niedersachsen"}},{"name":"Paul-Keller-Str.","postalCode":"48485","locality":"Neuenkirchen","municipality":{"key":"05566060","name":"Neuenkirchen","type":"Kreisangehörige_Gemeinde"},"district":{"key":"05566","name":"Steinfurt","type":"Kreis"},"federalState":{"key":"05","name":"Nordrhein-Westfalen"}},{"name":"Paul-Klee-Str.","postalCode":"48485","locality":"Neuenkirchen","municipality":{"key":"05566060","name":"Neuenkirchen","type":"Kreisangehörige_Gemeinde"},"district":{"key":"05566","name":"Steinfurt","type":"Kreis"},"federalState":{"key":"05","name":"Nordrhein-Westfalen"}},{"name":"Pedingworth","postalCode":"21763","locality":"Neuenkirchen","municipality":{"key":"03352038","name":"Neuenkirchen","type":"Kreisangehörige_Gemeinde"},"district":{"key":"03352","name":"Cuxhaven","type":"Landkreis"},"federalState":{"key":"03","name":"Niedersachsen"}},{"name":"Pfarrberg","postalCode":"29643","locality":"Neuenkirchen","municipality":{"key":"03358017","name":"Neuenkirchen","type":"Kreisangehörige_Gemeinde"},"district":{"key":"03358","name":"Heidekreis","type":"Landkreis"},"federalState":{"key":"03","name":"Niedersachsen"}},{"name":"Pfarrer-Bartels-Str.","postalCode":"49586","locality":"Neuenkirchen","municipality":{"key":"03459027","name":"Neuenkirchen","type":"Kreisangehörige_Gemeinde"},"district":{"key":"03459","name":"Osnabrück","type":"Landkreis"},"federalState":{"key":"03","name":"Niedersachsen"}},{"name":"Pfarrer-Bette-Str.","postalCode":"48485","locality":"Neuenkirchen","municipality":{"key":"05566060","name":"Neuenkirchen","type":"Kreisangehörige_Gemeinde"},"district":{"key":"05566","name":"Steinfurt","type":"Kreis"},"federalState":{"key":"05","name":"Nordrhein-Westfalen"}},{"name":"Pferdekoppel","postalCode":"29643","locality":"Neuenkirchen","municipality":{"key":"03358017","name":"Neuenkirchen","type":"Kreisangehörige_Gemeinde"},"district":{"key":"03358","name":"Heidekreis","type":"Landkreis"},"federalState":{"key":"03","name":"Niedersachsen"}},{"name":"Pfingsthorn","postalCode":"29643","locality":"Neuenkirchen","municipality":{"key":"03358017","name":"Neuenkirchen","type":"Kreisangehörige_Gemeinde"},"district":{"key":"03358","name":"Heidekreis","type":"Landkreis"},"federalState":{"key":"03","name":"Niedersachsen"}},{"name":"Platanenstr.","postalCode":"48485","locality":"Neuenkirchen","municipality":{"key":"05566060","name":"Neuenkirchen","type":"Kreisangehörige_Gemeinde"},"district":{"key":"05566","name":"Steinfurt","type":"Kreis"},"federalState":{"key":"05","name":"Nordrhein-Westfalen"}},{"name":"Poggenweg","postalCode":"17498","locality":"Neuenkirchen","municipality":{"key":"13075102","name":"Neuenkirchen","type":"Kreisangehörige_Gemeinde"},"district":{"key":"13075","name":"Vorpommern-Greifswald","type":"Landkreis"},"federalState":{"key":"13","name":"Mecklenburg-Vorpommern"}},{"name":"Pommernstr.","postalCode":"29643","locality":"Neuenkirchen","municipality":{"key":"03358017","name":"Neuenkirchen","type":"Kreisangehörige_Gemeinde"},"district":{"key":"03358","name":"Heidekreis","type":"Landkreis"},"federalState":{"key":"03","name":"Niedersachsen"}},{"name":"Postweg","postalCode":"21763","locality":"Neuenkirchen","municipality":{"key":"03352038","name":"Neuenkirchen","type":"Kreisangehörige_Gemeinde"},"district":{"key":"03352","name":"Cuxhaven","type":"Landkreis"},"federalState":{"key":"03","name":"Niedersachsen"}},{"name":"Prozessionsweg","postalCode":"48485","locality":"Neuenkirchen","municipality":{"key":"05566060","name":"Neuenkirchen","type":"Kreisangehörige_Gemeinde"},"district":{"key":"05566","name":"Steinfurt","type":"Kreis"},"federalState":{"key":"05","name":"Nordrhein-Westfalen"}},{"name":"Querstraat","postalCode":"29643","locality":"Neuenkirchen","municipality":{"key":"03358017","name":"Neuenkirchen","type":"Kreisangehörige_Gemeinde"},"district":{"key":"03358","name":"Heidekreis","type":"Landkreis"},"federalState":{"key":"03","name":"Niedersachsen"}},{"name":"Raiffeisenplatz","postalCode":"25792","locality":"Neuenkirchen","municipality":{"key":"01051075","name":"Neuenkirchen","type":"Kreisangehörige_Gemeinde"},"district":{"key":"01051","name":"Dithmarschen","type":"Kreis"},"federalState":{"key":"01","name":"Schleswig-Holstein"}},{"name":"Recker Str.","postalCode":"49586","locality":"Neuenkirchen","municipality":{"key":"03459027","name":"Neuenkirchen","type":"Kreisangehörige_Gemeinde"},"district":{"key":"03459","name":"Osnabrück","type":"Landkreis"},"federalState":{"key":"03","name":"Niedersachsen"}},{"name":"Reetz","postalCode":"18569","locality":"Neuenkirchen","municipality":{"key":"13073059","name":"Neuenkirchen","type":"Kreisangehörige_Gemeinde"},"district":{"key":"13073","name":"Vorpommern-Rügen","type":"Landkreis"},"federalState":{"key":"13","name":"Mecklenburg-Vorpommern"}},{"name":"Reimerdinger Str.","postalCode":"29643","locality":"Neuenkirchen","municipality":{"key":"03358017","name":"Neuenkirchen","type":"Kreisangehörige_Gemeinde"},"district":{"key":"03358","name":"Heidekreis","type":"Landkreis"},"federalState":{"key":"03","name":"Niedersachsen"}},{"name":"Reitweg Brücke","postalCode":"29643","locality":"Neuenkirchen","municipality":{"key":"03358017","name":"Neuenkirchen","type":"Kreisangehörige_Gemeinde"},"district":{"key":"03358","name":"Heidekreis","type":"Landkreis"},"federalState":{"key":"03","name":"Niedersachsen"}},{"name":"Reutestr.","postalCode":"49434","locality":"Neuenkirchen-Vörden","municipality":{"key":"03460007","name":"Neuenkirchen-Vörden","type":"Kreisangehörige_Gemeinde"},"district":{"key":"03460","name":"Vechta","type":"Landkreis"},"federalState":{"key":"03","name":"Niedersachsen"}},{"name":"Reyeringsort","postalCode":"49586","locality":"Neuenkirchen","municipality":{"key":"03459027","name":"Neuenkirchen","type":"Kreisangehörige_Gemeinde"},"district":{"key":"03459","name":"Osnabrück","type":"Landkreis"},"federalState":{"key":"03","name":"Niedersachsen"}},{"name":"Rheiner Str.","postalCode":"48485","locality":"Neuenkirchen","municipality":{"key":"05566060","name":"Neuenkirchen","type":"Kreisangehörige_Gemeinde"},"district":{"key":"05566","name":"Steinfurt","type":"Kreis"},"federalState":{"key":"05","name":"Nordrhein-Westfalen"}},{"name":"Riedenweg","postalCode":"49434","locality":"Neuenkirchen-Vörden","municipality":{"key":"03460007","name":"Neuenkirchen-Vörden","type":"Kreisangehörige_Gemeinde"},"district":{"key":"03460","name":"Vechta","type":"Landkreis"},"federalState":{"key":"03","name":"Niedersachsen"}},{"name":"Rilkestr.","postalCode":"48485","locality":"Neuenkirchen","municipality":{"key":"05566060","name":"Neuenkirchen","type":"Kreisangehörige_Gemeinde"},"district":{"key":"05566","name":"Steinfurt","type":"Kreis"},"federalState":{"key":"05","name":"Nordrhein-Westfalen"}},{"name":"Ringstr.","postalCode":"27251","locality":"Neuenkirchen","municipality":{"key":"03251028","name":"Neuenkirchen","type":"Kreisangehörige_Gemeinde"},"district":{"key":"03251","name":"Diepholz","type":"Landkreis"},"federalState":{"key":"03","name":"Niedersachsen"}},{"name":"Ringstr.","postalCode":"48485","locality":"Neuenkirchen","municipality":{"key":"05566060","name":"Neuenkirchen","type":"Kreisangehörige_Gemeinde"},"district":{"key":"05566","name":"Steinfurt","type":"Kreis"},"federalState":{"key":"05","name":"Nordrhein-Westfalen"}},{"name":"Ringstr.","postalCode":"49434","locality":"Neuenkirchen-Vörden","municipality":{"key":"03460007","name":"Neuenkirchen-Vörden","type":"Kreisangehörige_Gemeinde"},"district":{"key":"03460","name":"Vechta","type":"Landkreis"},"federalState":{"key":"03","name":"Niedersachsen"}},{"name":"Robert-Koch-Str.","postalCode":"29643","locality":"Neuenkirchen","municipality":{"key":"03358017","name":"Neuenkirchen","type":"Kreisangehörige_Gemeinde"},"district":{"key":"03358","name":"Heidekreis","type":"Landkreis"},"federalState":{"key":"03","name":"Niedersachsen"}},{"name":"Rodenkamp","postalCode":"48485","locality":"Neuenkirchen","municipality":{"key":"05566060","name":"Neuenkirchen","type":"Kreisangehörige_Gemeinde"},"district":{"key":"05566","name":"Steinfurt","type":"Kreis"},"federalState":{"key":"05","name":"Nordrhein-Westfalen"}},{"name":"Roggenkamp","postalCode":"29643","locality":"Neuenkirchen","municipality":{"key":"03358017","name":"Neuenkirchen","type":"Kreisangehörige_Gemeinde"},"district":{"key":"03358","name":"Heidekreis","type":"Landkreis"},"federalState":{"key":"03","name":"Niedersachsen"}},{"name":"Roggenkamp","postalCode":"48485","locality":"Neuenkirchen","municipality":{"key":"05566060","name":"Neuenkirchen","type":"Kreisangehörige_Gemeinde"},"district":{"key":"05566","name":"Steinfurt","type":"Kreis"},"federalState":{"key":"05","name":"Nordrhein-Westfalen"}},{"name":"Roggenkamp","postalCode":"49434","locality":"Neuenkirchen-Vörden","municipality":{"key":"03460007","name":"Neuenkirchen-Vörden","type":"Kreisangehörige_Gemeinde"},"district":{"key":"03460","name":"Vechta","type":"Landkreis"},"federalState":{"key":"03","name":"Niedersachsen"}},{"name":"Roseneck","postalCode":"49434","locality":"Neuenkirchen-Vörden","municipality":{"key":"03460007","name":"Neuenkirchen-Vörden","type":"Kreisangehörige_Gemeinde"},"district":{"key":"03460","name":"Vechta","type":"Landkreis"},"federalState":{"key":"03","name":"Niedersachsen"}},{"name":"Rosenstr.","postalCode":"29643","locality":"Neuenkirchen","municipality":{"key":"03358017","name":"Neuenkirchen","type":"Kreisangehörige_Gemeinde"},"district":{"key":"03358","name":"Heidekreis","type":"Landkreis"},"federalState":{"key":"03","name":"Niedersachsen"}},{"name":"Rosenstr.","postalCode":"48485","locality":"Neuenkirchen","municipality":{"key":"05566060","name":"Neuenkirchen","type":"Kreisangehörige_Gemeinde"},"district":{"key":"05566","name":"Steinfurt","type":"Kreis"},"federalState":{"key":"05","name":"Nordrhein-Westfalen"}},{"name":"Rosenweg","postalCode":"27251","locality":"Neuenkirchen","municipality":{"key":"03251028","name":"Neuenkirchen","type":"Kreisangehörige_Gemeinde"},"district":{"key":"03251","name":"Diepholz","type":"Landkreis"},"federalState":{"key":"03","name":"Niedersachsen"}},{"name":"Rosenwinkel","postalCode":"29643","locality":"Neuenkirchen","municipality":{"key":"03358017","name":"Neuenkirchen","type":"Kreisangehörige_Gemeinde"},"district":{"key":"03358","name":"Heidekreis","type":"Landkreis"},"federalState":{"key":"03","name":"Niedersachsen"}},{"name":"Rote Erde","postalCode":"48485","locality":"Neuenkirchen","municipality":{"key":"05566060","name":"Neuenkirchen","type":"Kreisangehörige_Gemeinde"},"district":{"key":"05566","name":"Steinfurt","type":"Kreis"},"federalState":{"key":"05","name":"Nordrhein-Westfalen"}},{"name":"Rötekamp","postalCode":"49434","locality":"Neuenkirchen-Vörden","municipality":{"key":"03460007","name":"Neuenkirchen-Vörden","type":"Kreisangehörige_Gemeinde"},"district":{"key":"03460","name":"Vechta","type":"Landkreis"},"federalState":{"key":"03","name":"Niedersachsen"}},{"name":"Rotenburger Str.","postalCode":"29643","locality":"Neuenkirchen","municipality":{"key":"03358017","name":"Neuenkirchen","type":"Kreisangehörige_Gemeinde"},"district":{"key":"03358","name":"Heidekreis","type":"Landkreis"},"federalState":{"key":"03","name":"Niedersachsen"}},{"name":"Roter Berg","postalCode":"49586","locality":"Neuenkirchen","municipality":{"key":"03459027","name":"Neuenkirchen","type":"Kreisangehörige_Gemeinde"},"district":{"key":"03459","name":"Osnabrück","type":"Landkreis"},"federalState":{"key":"03","name":"Niedersachsen"}},{"name":"Rudolf-Kinau-Str.","postalCode":"29643","locality":"Neuenkirchen","municipality":{"key":"03358017","name":"Neuenkirchen","type":"Kreisangehörige_Gemeinde"},"district":{"key":"03358","name":"Heidekreis","type":"Landkreis"},"federalState":{"key":"03","name":"Niedersachsen"}},{"name":"Rutenmühle","postalCode":"29643","locality":"Neuenkirchen","municipality":{"key":"03358017","name":"Neuenkirchen","type":"Kreisangehörige_Gemeinde"},"district":{"key":"03358","name":"Heidekreis","type":"Landkreis"},"federalState":{"key":"03","name":"Niedersachsen"}},{"name":"Rutenmühler Str.","postalCode":"29643","locality":"Neuenkirchen","municipality":{"key":"03358017","name":"Neuenkirchen","type":"Kreisangehörige_Gemeinde"},"district":{"key":"03358","name":"Heidekreis","type":"Landkreis"},"federalState":{"key":"03","name":"Niedersachsen"}},{"name":"Rüterpol","postalCode":"48485","locality":"Neuenkirchen","municipality":{"key":"05566060","name":"Neuenkirchen","type":"Kreisangehörige_Gemeinde"},"district":{"key":"05566","name":"Steinfurt","type":"Kreis"},"federalState":{"key":"05","name":"Nordrhein-Westfalen"}},{"name":"Salzbergener Str.","postalCode":"48485","locality":"Neuenkirchen","municipality":{"key":"05566060","name":"Neuenkirchen","type":"Kreisangehörige_Gemeinde"},"district":{"key":"05566","name":"Steinfurt","type":"Kreis"},"federalState":{"key":"05","name":"Nordrhein-Westfalen"}},{"name":"Sandgarten","postalCode":"29643","locality":"Neuenkirchen","municipality":{"key":"03358017","name":"Neuenkirchen","type":"Kreisangehörige_Gemeinde"},"district":{"key":"03358","name":"Heidekreis","type":"Landkreis"},"federalState":{"key":"03","name":"Niedersachsen"}},{"name":"Sandstr.","postalCode":"29643","locality":"Neuenkirchen","municipality":{"key":"03358017","name":"Neuenkirchen","type":"Kreisangehörige_Gemeinde"},"district":{"key":"03358","name":"Heidekreis","type":"Landkreis"},"federalState":{"key":"03","name":"Niedersachsen"}},{"name":"Sandweg","postalCode":"48485","locality":"Neuenkirchen","municipality":{"key":"05566060","name":"Neuenkirchen","type":"Kreisangehörige_Gemeinde"},"district":{"key":"05566","name":"Steinfurt","type":"Kreis"},"federalState":{"key":"05","name":"Nordrhein-Westfalen"}},{"name":"Sattlerweg","postalCode":"49434","locality":"Neuenkirchen-Vörden","municipality":{"key":"03460007","name":"Neuenkirchen-Vörden","type":"Kreisangehörige_Gemeinde"},"district":{"key":"03460","name":"Vechta","type":"Landkreis"},"federalState":{"key":"03","name":"Niedersachsen"}},{"name":"Schanzenweg","postalCode":"21763","locality":"Neuenkirchen","municipality":{"key":"03352038","name":"Neuenkirchen","type":"Kreisangehörige_Gemeinde"},"district":{"key":"03352","name":"Cuxhaven","type":"Landkreis"},"federalState":{"key":"03","name":"Niedersachsen"}},{"name":"Schäperweg","postalCode":"29643","locality":"Neuenkirchen","municipality":{"key":"03358017","name":"Neuenkirchen","type":"Kreisangehörige_Gemeinde"},"district":{"key":"03358","name":"Heidekreis","type":"Landkreis"},"federalState":{"key":"03","name":"Niedersachsen"}},{"name":"Scheuergartenweg","postalCode":"49434","locality":"Neuenkirchen-Vörden","municipality":{"key":"03460007","name":"Neuenkirchen-Vörden","type":"Kreisangehörige_Gemeinde"},"district":{"key":"03460","name":"Vechta","type":"Landkreis"},"federalState":{"key":"03","name":"Niedersachsen"}},{"name":"Schillerstr.","postalCode":"48485","locality":"Neuenkirchen","municipality":{"key":"05566060","name":"Neuenkirchen","type":"Kreisangehörige_Gemeinde"},"district":{"key":"05566","name":"Steinfurt","type":"Kreis"},"federalState":{"key":"05","name":"Nordrhein-Westfalen"}},{"name":"Schillerstr.","postalCode":"49434","locality":"Neuenkirchen-Vörden","municipality":{"key":"03460007","name":"Neuenkirchen-Vörden","type":"Kreisangehörige_Gemeinde"},"district":{"key":"03460","name":"Vechta","type":"Landkreis"},"federalState":{"key":"03","name":"Niedersachsen"}},{"name":"Schlehenweg","postalCode":"29643","locality":"Neuenkirchen","municipality":{"key":"03358017","name":"Neuenkirchen","type":"Kreisangehörige_Gemeinde"},"district":{"key":"03358","name":"Heidekreis","type":"Landkreis"},"federalState":{"key":"03","name":"Niedersachsen"}},{"name":"Schlehenweg","postalCode":"48485","locality":"Neuenkirchen","municipality":{"key":"05566060","name":"Neuenkirchen","type":"Kreisangehörige_Gemeinde"},"district":{"key":"05566","name":"Steinfurt","type":"Kreis"},"federalState":{"key":"05","name":"Nordrhein-Westfalen"}},{"name":"Schlesierweg","postalCode":"29643","locality":"Neuenkirchen","municipality":{"key":"03358017","name":"Neuenkirchen","type":"Kreisangehörige_Gemeinde"},"district":{"key":"03358","name":"Heidekreis","type":"Landkreis"},"federalState":{"key":"03","name":"Niedersachsen"}},{"name":"Schloßstr.","postalCode":"17039","locality":"Neuenkirchen","municipality":{"key":"13071108","name":"Neuenkirchen","type":"Kreisangehörige_Gemeinde"},"district":{"key":"13071","name":"Mecklenburgische Seenplatte","type":"Landkreis"},"federalState":{"key":"13","name":"Mecklenburg-Vorpommern"}},{"name":"Schmale Str.","postalCode":"48485","locality":"Neuenkirchen","municipality":{"key":"05566060","name":"Neuenkirchen","type":"Kreisangehörige_Gemeinde"},"district":{"key":"05566","name":"Steinfurt","type":"Kreis"},"federalState":{"key":"05","name":"Nordrhein-Westfalen"}},{"name":"Schmiedestr.","postalCode":"49434","locality":"Neuenkirchen-Vörden","municipality":{"key":"03460007","name":"Neuenkirchen-Vörden","type":"Kreisangehörige_Gemeinde"},"district":{"key":"03460","name":"Vechta","type":"Landkreis"},"federalState":{"key":"03","name":"Niedersachsen"}},{"name":"Schmittwilken Kamp","postalCode":"48485","locality":"Neuenkirchen","municipality":{"key":"05566060","name":"Neuenkirchen","type":"Kreisangehörige_Gemeinde"},"district":{"key":"05566","name":"Steinfurt","type":"Kreis"},"federalState":{"key":"05","name":"Nordrhein-Westfalen"}},{"name":"Schneverdinger Str.","postalCode":"29643","locality":"Neuenkirchen","municipality":{"key":"03358017","name":"Neuenkirchen","type":"Kreisangehörige_Gemeinde"},"district":{"key":"03358","name":"Heidekreis","type":"Landkreis"},"federalState":{"key":"03","name":"Niedersachsen"}},{"name":"Schniers Twiete","postalCode":"29643","locality":"Neuenkirchen","municipality":{"key":"03358017","name":"Neuenkirchen","type":"Kreisangehörige_Gemeinde"},"district":{"key":"03358","name":"Heidekreis","type":"Landkreis"},"federalState":{"key":"03","name":"Niedersachsen"}},{"name":"Scholien","postalCode":"21763","locality":"Neuenkirchen","municipality":{"key":"03352038","name":"Neuenkirchen","type":"Kreisangehörige_Gemeinde"},"district":{"key":"03352","name":"Cuxhaven","type":"Landkreis"},"federalState":{"key":"03","name":"Niedersachsen"}},{"name":"Schrägweg","postalCode":"27251","locality":"Neuenkirchen","municipality":{"key":"03251028","name":"Neuenkirchen","type":"Kreisangehörige_Gemeinde"},"district":{"key":"03251","name":"Diepholz","type":"Landkreis"},"federalState":{"key":"03","name":"Niedersachsen"}},{"name":"Schreinergasse","postalCode":"49434","locality":"Neuenkirchen-Vörden","municipality":{"key":"03460007","name":"Neuenkirchen-Vörden","type":"Kreisangehörige_Gemeinde"},"district":{"key":"03460","name":"Vechta","type":"Landkreis"},"federalState":{"key":"03","name":"Niedersachsen"}},{"name":"Schulstr.","postalCode":"49434","locality":"Neuenkirchen-Vörden","municipality":{"key":"03460007","name":"Neuenkirchen-Vörden","type":"Kreisangehörige_Gemeinde"},"district":{"key":"03460","name":"Vechta","type":"Landkreis"},"federalState":{"key":"03","name":"Niedersachsen"}},{"name":"Schultenhof","postalCode":"49586","locality":"Neuenkirchen","municipality":{"key":"03459027","name":"Neuenkirchen","type":"Kreisangehörige_Gemeinde"},"district":{"key":"03459","name":"Osnabrück","type":"Landkreis"},"federalState":{"key":"03","name":"Niedersachsen"}},{"name":"Schulten Wiese","postalCode":"49586","locality":"Neuenkirchen","municipality":{"key":"03459027","name":"Neuenkirchen","type":"Kreisangehörige_Gemeinde"},"district":{"key":"03459","name":"Osnabrück","type":"Landkreis"},"federalState":{"key":"03","name":"Niedersachsen"}},{"name":"Schultheißstr.","postalCode":"21763","locality":"Neuenkirchen","municipality":{"key":"03352038","name":"Neuenkirchen","type":"Kreisangehörige_Gemeinde"},"district":{"key":"03352","name":"Cuxhaven","type":"Landkreis"},"federalState":{"key":"03","name":"Niedersachsen"}},{"name":"Schusterweg","postalCode":"17498","locality":"Neuenkirchen","municipality":{"key":"13075102","name":"Neuenkirchen","type":"Kreisangehörige_Gemeinde"},"district":{"key":"13075","name":"Vorpommern-Greifswald","type":"Landkreis"},"federalState":{"key":"13","name":"Mecklenburg-Vorpommern"}},{"name":"Schützenstr.","postalCode":"48485","locality":"Neuenkirchen","municipality":{"key":"05566060","name":"Neuenkirchen","type":"Kreisangehörige_Gemeinde"},"district":{"key":"05566","name":"Steinfurt","type":"Kreis"},"federalState":{"key":"05","name":"Nordrhein-Westfalen"}},{"name":"Schwalbenweg","postalCode":"49434","locality":"Neuenkirchen-Vörden","municipality":{"key":"03460007","name":"Neuenkirchen-Vörden","type":"Kreisangehörige_Gemeinde"},"district":{"key":"03460","name":"Vechta","type":"Landkreis"},"federalState":{"key":"03","name":"Niedersachsen"}},{"name":"Schwalingen","postalCode":"29643","locality":"Neuenkirchen","municipality":{"key":"03358017","name":"Neuenkirchen","type":"Kreisangehörige_Gemeinde"},"district":{"key":"03358","name":"Heidekreis","type":"Landkreis"},"federalState":{"key":"03","name":"Niedersachsen"}},{"name":"Schwalinger Str.","postalCode":"29643","locality":"Neuenkirchen","municipality":{"key":"03358017","name":"Neuenkirchen","type":"Kreisangehörige_Gemeinde"},"district":{"key":"03358","name":"Heidekreis","type":"Landkreis"},"federalState":{"key":"03","name":"Niedersachsen"}},{"name":"Schwarzer Weg","postalCode":"48485","locality":"Neuenkirchen","municipality":{"key":"05566060","name":"Neuenkirchen","type":"Kreisangehörige_Gemeinde"},"district":{"key":"05566","name":"Steinfurt","type":"Kreis"},"federalState":{"key":"05","name":"Nordrhein-Westfalen"}},{"name":"Schwester-Maximilia-Str.","postalCode":"49586","locality":"Neuenkirchen","municipality":{"key":"03459027","name":"Neuenkirchen","type":"Kreisangehörige_Gemeinde"},"district":{"key":"03459","name":"Osnabrück","type":"Landkreis"},"federalState":{"key":"03","name":"Niedersachsen"}},{"name":"Seelgenhofstr.","postalCode":"49434","locality":"Neuenkirchen-Vörden","municipality":{"key":"03460007","name":"Neuenkirchen-Vörden","type":"Kreisangehörige_Gemeinde"},"district":{"key":"03460","name":"Vechta","type":"Landkreis"},"federalState":{"key":"03","name":"Niedersachsen"}},{"name":"Seilerstr.","postalCode":"49434","locality":"Neuenkirchen-Vörden","municipality":{"key":"03460007","name":"Neuenkirchen-Vörden","type":"Kreisangehörige_Gemeinde"},"district":{"key":"03460","name":"Vechta","type":"Landkreis"},"federalState":{"key":"03","name":"Niedersachsen"}},{"name":"Sepp-Herberger-Str.","postalCode":"48485","locality":"Neuenkirchen","municipality":{"key":"05566060","name":"Neuenkirchen","type":"Kreisangehörige_Gemeinde"},"district":{"key":"05566","name":"Steinfurt","type":"Kreis"},"federalState":{"key":"05","name":"Nordrhein-Westfalen"}},{"name":"Severinghauser Str.","postalCode":"49434","locality":"Neuenkirchen-Vörden","municipality":{"key":"03460007","name":"Neuenkirchen-Vörden","type":"Kreisangehörige_Gemeinde"},"district":{"key":"03460","name":"Vechta","type":"Landkreis"},"federalState":{"key":"03","name":"Niedersachsen"}},{"name":"Siedlerweg","postalCode":"17039","locality":"Neuenkirchen","municipality":{"key":"13071108","name":"Neuenkirchen","type":"Kreisangehörige_Gemeinde"},"district":{"key":"13071","name":"Mecklenburgische Seenplatte","type":"Landkreis"},"federalState":{"key":"13","name":"Mecklenburg-Vorpommern"}},{"name":"Siek","postalCode":"29643","locality":"Neuenkirchen","municipality":{"key":"03358017","name":"Neuenkirchen","type":"Kreisangehörige_Gemeinde"},"district":{"key":"03358","name":"Heidekreis","type":"Landkreis"},"federalState":{"key":"03","name":"Niedersachsen"}},{"name":"Siemensstr.","postalCode":"29643","locality":"Neuenkirchen","municipality":{"key":"03358017","name":"Neuenkirchen","type":"Kreisangehörige_Gemeinde"},"district":{"key":"03358","name":"Heidekreis","type":"Landkreis"},"federalState":{"key":"03","name":"Niedersachsen"}},{"name":"Slawenweg","postalCode":"17039","locality":"Neuenkirchen","municipality":{"key":"13071108","name":"Neuenkirchen","type":"Kreisangehörige_Gemeinde"},"district":{"key":"13071","name":"Mecklenburgische Seenplatte","type":"Landkreis"},"federalState":{"key":"13","name":"Mecklenburg-Vorpommern"}},{"name":"Snedwinkelstr.","postalCode":"48485","locality":"Neuenkirchen","municipality":{"key":"05566060","name":"Neuenkirchen","type":"Kreisangehörige_Gemeinde"},"district":{"key":"05566","name":"Steinfurt","type":"Kreis"},"federalState":{"key":"05","name":"Nordrhein-Westfalen"}},{"name":"Soltauer Str.","postalCode":"29643","locality":"Neuenkirchen","municipality":{"key":"03358017","name":"Neuenkirchen","type":"Kreisangehörige_Gemeinde"},"district":{"key":"03358","name":"Heidekreis","type":"Landkreis"},"federalState":{"key":"03","name":"Niedersachsen"}},{"name":"Sonnenkamp","postalCode":"17039","locality":"Neuenkirchen","municipality":{"key":"13071108","name":"Neuenkirchen","type":"Kreisangehörige_Gemeinde"},"district":{"key":"13071","name":"Mecklenburgische Seenplatte","type":"Landkreis"},"federalState":{"key":"13","name":"Mecklenburg-Vorpommern"}},{"name":"Sperberstr.","postalCode":"48485","locality":"Neuenkirchen","municipality":{"key":"05566060","name":"Neuenkirchen","type":"Kreisangehörige_Gemeinde"},"district":{"key":"05566","name":"Steinfurt","type":"Kreis"},"federalState":{"key":"05","name":"Nordrhein-Westfalen"}},{"name":"Sperlingsgasse","postalCode":"49434","locality":"Neuenkirchen-Vörden","municipality":{"key":"03460007","name":"Neuenkirchen-Vörden","type":"Kreisangehörige_Gemeinde"},"district":{"key":"03460","name":"Vechta","type":"Landkreis"},"federalState":{"key":"03","name":"Niedersachsen"}},{"name":"Spiekerhus","postalCode":"29643","locality":"Neuenkirchen","municipality":{"key":"03358017","name":"Neuenkirchen","type":"Kreisangehörige_Gemeinde"},"district":{"key":"03358","name":"Heidekreis","type":"Landkreis"},"federalState":{"key":"03","name":"Niedersachsen"}},{"name":"Sprengeler Dorfstr.","postalCode":"29643","locality":"Neuenkirchen","municipality":{"key":"03358017","name":"Neuenkirchen","type":"Kreisangehörige_Gemeinde"},"district":{"key":"03358","name":"Heidekreis","type":"Landkreis"},"federalState":{"key":"03","name":"Niedersachsen"}},{"name":"Stadionweg","postalCode":"48485","locality":"Neuenkirchen","municipality":{"key":"05566060","name":"Neuenkirchen","type":"Kreisangehörige_Gemeinde"},"district":{"key":"05566","name":"Steinfurt","type":"Kreis"},"federalState":{"key":"05","name":"Nordrhein-Westfalen"}},{"name":"Stavener Str.","postalCode":"17039","locality":"Neuenkirchen","municipality":{"key":"13071108","name":"Neuenkirchen","type":"Kreisangehörige_Gemeinde"},"district":{"key":"13071","name":"Mecklenburgische Seenplatte","type":"Landkreis"},"federalState":{"key":"13","name":"Mecklenburg-Vorpommern"}},{"name":"Tannenkamp","postalCode":"49434","locality":"Neuenkirchen-Vörden","municipality":{"key":"03460007","name":"Neuenkirchen-Vörden","type":"Kreisangehörige_Gemeinde"},"district":{"key":"03460","name":"Vechta","type":"Landkreis"},"federalState":{"key":"03","name":"Niedersachsen"}},{"name":"Tannenweg","postalCode":"48485","locality":"Neuenkirchen","municipality":{"key":"05566060","name":"Neuenkirchen","type":"Kreisangehörige_Gemeinde"},"district":{"key":"05566","name":"Steinfurt","type":"Kreis"},"federalState":{"key":"05","name":"Nordrhein-Westfalen"}},{"name":"Taubengasse","postalCode":"49434","locality":"Neuenkirchen-Vörden","municipality":{"key":"03460007","name":"Neuenkirchen-Vörden","type":"Kreisangehörige_Gemeinde"},"district":{"key":"03460","name":"Vechta","type":"Landkreis"},"federalState":{"key":"03","name":"Niedersachsen"}},{"name":"Tedensweg","postalCode":"25792","locality":"Neuenkirchen","municipality":{"key":"01051075","name":"Neuenkirchen","type":"Kreisangehörige_Gemeinde"},"district":{"key":"01051","name":"Dithmarschen","type":"Kreis"},"federalState":{"key":"01","name":"Schleswig-Holstein"}},{"name":"Teweler Str.","postalCode":"29643","locality":"Neuenkirchen","municipality":{"key":"03358017","name":"Neuenkirchen","type":"Kreisangehörige_Gemeinde"},"district":{"key":"03358","name":"Heidekreis","type":"Landkreis"},"federalState":{"key":"03","name":"Niedersachsen"}},{"name":"Theodor-Fliedner-Str.","postalCode":"48485","locality":"Neuenkirchen","municipality":{"key":"05566060","name":"Neuenkirchen","type":"Kreisangehörige_Gemeinde"},"district":{"key":"05566","name":"Steinfurt","type":"Kreis"},"federalState":{"key":"05","name":"Nordrhein-Westfalen"}},{"name":"Theodor-Fontane-Weg","postalCode":"49434","locality":"Neuenkirchen-Vörden","municipality":{"key":"03460007","name":"Neuenkirchen-Vörden","type":"Kreisangehörige_Gemeinde"},"district":{"key":"03460","name":"Vechta","type":"Landkreis"},"federalState":{"key":"03","name":"Niedersachsen"}},{"name":"Theodor-Heuss-Str.","postalCode":"49586","locality":"Neuenkirchen","municipality":{"key":"03459027","name":"Neuenkirchen","type":"Kreisangehörige_Gemeinde"},"district":{"key":"03459","name":"Osnabrück","type":"Landkreis"},"federalState":{"key":"03","name":"Niedersachsen"}},{"name":"Theodor-Körner-Str.","postalCode":"17498","locality":"Neuenkirchen","municipality":{"key":"13075102","name":"Neuenkirchen","type":"Kreisangehörige_Gemeinde"},"district":{"key":"13075","name":"Vorpommern-Greifswald","type":"Landkreis"},"federalState":{"key":"13","name":"Mecklenburg-Vorpommern"}},{"name":"Theodor-Storm-Str.","postalCode":"29643","locality":"Neuenkirchen","municipality":{"key":"03358017","name":"Neuenkirchen","type":"Kreisangehörige_Gemeinde"},"district":{"key":"03358","name":"Heidekreis","type":"Landkreis"},"federalState":{"key":"03","name":"Niedersachsen"}},{"name":"Theodor-Storm-Weg","postalCode":"49434","locality":"Neuenkirchen-Vörden","municipality":{"key":"03460007","name":"Neuenkirchen-Vörden","type":"Kreisangehörige_Gemeinde"},"district":{"key":"03460","name":"Vechta","type":"Landkreis"},"federalState":{"key":"03","name":"Niedersachsen"}},{"name":"Theresienstr.","postalCode":"48485","locality":"Neuenkirchen","municipality":{"key":"05566060","name":"Neuenkirchen","type":"Kreisangehörige_Gemeinde"},"district":{"key":"05566","name":"Steinfurt","type":"Kreis"},"federalState":{"key":"05","name":"Nordrhein-Westfalen"}},{"name":"Thomas-Mann-Str.","postalCode":"48485","locality":"Neuenkirchen","municipality":{"key":"05566060","name":"Neuenkirchen","type":"Kreisangehörige_Gemeinde"},"district":{"key":"05566","name":"Steinfurt","type":"Kreis"},"federalState":{"key":"05","name":"Nordrhein-Westfalen"}},{"name":"Thomas-Thorild-Platz","postalCode":"17498","locality":"Neuenkirchen","municipality":{"key":"13075102","name":"Neuenkirchen","type":"Kreisangehörige_Gemeinde"},"district":{"key":"13075","name":"Vorpommern-Greifswald","type":"Landkreis"},"federalState":{"key":"13","name":"Mecklenburg-Vorpommern"}},{"name":"Tiebenseer Str.","postalCode":"25792","locality":"Neuenkirchen","municipality":{"key":"01051075","name":"Neuenkirchen","type":"Kreisangehörige_Gemeinde"},"district":{"key":"01051","name":"Dithmarschen","type":"Kreis"},"federalState":{"key":"01","name":"Schleswig-Holstein"}},{"name":"Tiefe Str.","postalCode":"29643","locality":"Neuenkirchen","municipality":{"key":"03358017","name":"Neuenkirchen","type":"Kreisangehörige_Gemeinde"},"district":{"key":"03358","name":"Heidekreis","type":"Landkreis"},"federalState":{"key":"03","name":"Niedersachsen"}},{"name":"Tödienwisch","postalCode":"25792","locality":"Neuenkirchen","municipality":{"key":"01051075","name":"Neuenkirchen","type":"Kreisangehörige_Gemeinde"},"district":{"key":"01051","name":"Dithmarschen","type":"Kreis"},"federalState":{"key":"01","name":"Schleswig-Holstein"}},{"name":"Töpferweg","postalCode":"49434","locality":"Neuenkirchen-Vörden","municipality":{"key":"03460007","name":"Neuenkirchen-Vörden","type":"Kreisangehörige_Gemeinde"},"district":{"key":"03460","name":"Vechta","type":"Landkreis"},"federalState":{"key":"03","name":"Niedersachsen"}},{"name":"To Westen","postalCode":"25792","locality":"Neuenkirchen","municipality":{"key":"01051075","name":"Neuenkirchen","type":"Kreisangehörige_Gemeinde"},"district":{"key":"01051","name":"Dithmarschen","type":"Kreis"},"federalState":{"key":"01","name":"Schleswig-Holstein"}},{"name":"Tribbevitz","postalCode":"18569","locality":"Neuenkirchen","municipality":{"key":"13073059","name":"Neuenkirchen","type":"Kreisangehörige_Gemeinde"},"district":{"key":"13073","name":"Vorpommern-Rügen","type":"Landkreis"},"federalState":{"key":"13","name":"Mecklenburg-Vorpommern"}},{"name":"Tulpenstr.","postalCode":"48485","locality":"Neuenkirchen","municipality":{"key":"05566060","name":"Neuenkirchen","type":"Kreisangehörige_Gemeinde"},"district":{"key":"05566","name":"Steinfurt","type":"Kreis"},"federalState":{"key":"05","name":"Nordrhein-Westfalen"}},{"name":"Ueffelner Str.","postalCode":"49586","locality":"Neuenkirchen","municipality":{"key":"03459027","name":"Neuenkirchen","type":"Kreisangehörige_Gemeinde"},"district":{"key":"03459","name":"Osnabrück","type":"Landkreis"},"federalState":{"key":"03","name":"Niedersachsen"}},{"name":"Uhlandstr.","postalCode":"48485","locality":"Neuenkirchen","municipality":{"key":"05566060","name":"Neuenkirchen","type":"Kreisangehörige_Gemeinde"},"district":{"key":"05566","name":"Steinfurt","type":"Kreis"},"federalState":{"key":"05","name":"Nordrhein-Westfalen"}},{"name":"Uhlenbrock","postalCode":"49586","locality":"Neuenkirchen","municipality":{"key":"03459027","name":"Neuenkirchen","type":"Kreisangehörige_Gemeinde"},"district":{"key":"03459","name":"Osnabrück","type":"Landkreis"},"federalState":{"key":"03","name":"Niedersachsen"}},{"name":"Uhlenstr.","postalCode":"29643","locality":"Neuenkirchen","municipality":{"key":"03358017","name":"Neuenkirchen","type":"Kreisangehörige_Gemeinde"},"district":{"key":"03358","name":"Heidekreis","type":"Landkreis"},"federalState":{"key":"03","name":"Niedersachsen"}},{"name":"Umdeich","postalCode":"21640","locality":"Neuenkirchen","municipality":{"key":"03359033","name":"Neuenkirchen","type":"Kreisangehörige_Gemeinde"},"district":{"key":"03359","name":"Stade","type":"Landkreis"},"federalState":{"key":"03","name":"Niedersachsen"}},{"name":"Unter den Eichen","postalCode":"29643","locality":"Neuenkirchen","municipality":{"key":"03358017","name":"Neuenkirchen","type":"Kreisangehörige_Gemeinde"},"district":{"key":"03358","name":"Heidekreis","type":"Landkreis"},"federalState":{"key":"03","name":"Niedersachsen"}},{"name":"Unterm Esch","postalCode":"49586","locality":"Neuenkirchen","municipality":{"key":"03459027","name":"Neuenkirchen","type":"Kreisangehörige_Gemeinde"},"district":{"key":"03459","name":"Osnabrück","type":"Landkreis"},"federalState":{"key":"03","name":"Niedersachsen"}},{"name":"Uppen Drohm","postalCode":"29643","locality":"Neuenkirchen","municipality":{"key":"03358017","name":"Neuenkirchen","type":"Kreisangehörige_Gemeinde"},"district":{"key":"03358","name":"Heidekreis","type":"Landkreis"},"federalState":{"key":"03","name":"Niedersachsen"}},{"name":"Vahlzen","postalCode":"29643","locality":"Neuenkirchen","municipality":{"key":"03358017","name":"Neuenkirchen","type":"Kreisangehörige_Gemeinde"},"district":{"key":"03358","name":"Heidekreis","type":"Landkreis"},"federalState":{"key":"03","name":"Niedersachsen"}},{"name":"Vahlzener Str.","postalCode":"29643","locality":"Neuenkirchen","municipality":{"key":"03358017","name":"Neuenkirchen","type":"Kreisangehörige_Gemeinde"},"district":{"key":"03358","name":"Heidekreis","type":"Landkreis"},"federalState":{"key":"03","name":"Niedersachsen"}},{"name":"Veilchenstr.","postalCode":"48485","locality":"Neuenkirchen","municipality":{"key":"05566060","name":"Neuenkirchen","type":"Kreisangehörige_Gemeinde"},"district":{"key":"05566","name":"Steinfurt","type":"Kreis"},"federalState":{"key":"05","name":"Nordrhein-Westfalen"}},{"name":"Veltmannsweg","postalCode":"48485","locality":"Neuenkirchen","municipality":{"key":"05566060","name":"Neuenkirchen","type":"Kreisangehörige_Gemeinde"},"district":{"key":"05566","name":"Steinfurt","type":"Kreis"},"federalState":{"key":"05","name":"Nordrhein-Westfalen"}},{"name":"Versemannsweg","postalCode":"29643","locality":"Neuenkirchen","municipality":{"key":"03358017","name":"Neuenkirchen","type":"Kreisangehörige_Gemeinde"},"district":{"key":"03358","name":"Heidekreis","type":"Landkreis"},"federalState":{"key":"03","name":"Niedersachsen"}},{"name":"Vieregge","postalCode":"18569","locality":"Neuenkirchen","municipality":{"key":"13073059","name":"Neuenkirchen","type":"Kreisangehörige_Gemeinde"},"district":{"key":"13073","name":"Vorpommern-Rügen","type":"Landkreis"},"federalState":{"key":"13","name":"Mecklenburg-Vorpommern"}},{"name":"Vinter Grenzweg","postalCode":"49586","locality":"Neuenkirchen","municipality":{"key":"03459027","name":"Neuenkirchen","type":"Kreisangehörige_Gemeinde"},"district":{"key":"03459","name":"Osnabrück","type":"Landkreis"},"federalState":{"key":"03","name":"Niedersachsen"}},{"name":"Vinter Str.","postalCode":"49586","locality":"Neuenkirchen","municipality":{"key":"03459027","name":"Neuenkirchen","type":"Kreisangehörige_Gemeinde"},"district":{"key":"03459","name":"Osnabrück","type":"Landkreis"},"federalState":{"key":"03","name":"Niedersachsen"}},{"name":"Visselhöveder Str.","postalCode":"29643","locality":"Neuenkirchen","municipality":{"key":"03358017","name":"Neuenkirchen","type":"Kreisangehörige_Gemeinde"},"district":{"key":"03358","name":"Heidekreis","type":"Landkreis"},"federalState":{"key":"03","name":"Niedersachsen"}},{"name":"Voegedeweg","postalCode":"49586","locality":"Neuenkirchen","municipality":{"key":"03459027","name":"Neuenkirchen","type":"Kreisangehörige_Gemeinde"},"district":{"key":"03459","name":"Osnabrück","type":"Landkreis"},"federalState":{"key":"03","name":"Niedersachsen"}},{"name":"Voltlager Str.","postalCode":"49586","locality":"Neuenkirchen","municipality":{"key":"03459027","name":"Neuenkirchen","type":"Kreisangehörige_Gemeinde"},"district":{"key":"03459","name":"Osnabrück","type":"Landkreis"},"federalState":{"key":"03","name":"Niedersachsen"}},{"name":"Von-Galen-Str.","postalCode":"49586","locality":"Neuenkirchen","municipality":{"key":"03459027","name":"Neuenkirchen","type":"Kreisangehörige_Gemeinde"},"district":{"key":"03459","name":"Osnabrück","type":"Landkreis"},"federalState":{"key":"03","name":"Niedersachsen"}},{"name":"Vor dem Eickhoop","postalCode":"29643","locality":"Neuenkirchen","municipality":{"key":"03358017","name":"Neuenkirchen","type":"Kreisangehörige_Gemeinde"},"district":{"key":"03358","name":"Heidekreis","type":"Landkreis"},"federalState":{"key":"03","name":"Niedersachsen"}},{"name":"Vördener Str.","postalCode":"49434","locality":"Neuenkirchen-Vörden","municipality":{"key":"03460007","name":"Neuenkirchen-Vörden","type":"Kreisangehörige_Gemeinde"},"district":{"key":"03460","name":"Vechta","type":"Landkreis"},"federalState":{"key":"03","name":"Niedersachsen"}},{"name":"Vor den Höfen","postalCode":"49586","locality":"Neuenkirchen","municipality":{"key":"03459027","name":"Neuenkirchen","type":"Kreisangehörige_Gemeinde"},"district":{"key":"03459","name":"Osnabrück","type":"Landkreis"},"federalState":{"key":"03","name":"Niedersachsen"}},{"name":"Vornholtstr.","postalCode":"49586","locality":"Neuenkirchen","municipality":{"key":"03459027","name":"Neuenkirchen","type":"Kreisangehörige_Gemeinde"},"district":{"key":"03459","name":"Osnabrück","type":"Landkreis"},"federalState":{"key":"03","name":"Niedersachsen"}},{"name":"Wacholderweg","postalCode":"48485","locality":"Neuenkirchen","municipality":{"key":"05566060","name":"Neuenkirchen","type":"Kreisangehörige_Gemeinde"},"district":{"key":"05566","name":"Steinfurt","type":"Kreis"},"federalState":{"key":"05","name":"Nordrhein-Westfalen"}},{"name":"Wachtelstr.","postalCode":"48485","locality":"Neuenkirchen","municipality":{"key":"05566060","name":"Neuenkirchen","type":"Kreisangehörige_Gemeinde"},"district":{"key":"05566","name":"Steinfurt","type":"Kreis"},"federalState":{"key":"05","name":"Nordrhein-Westfalen"}},{"name":"Wachtelweg","postalCode":"17498","locality":"Neuenkirchen","municipality":{"key":"13075102","name":"Neuenkirchen","type":"Kreisangehörige_Gemeinde"},"district":{"key":"13075","name":"Vorpommern-Greifswald","type":"Landkreis"},"federalState":{"key":"13","name":"Mecklenburg-Vorpommern"}},{"name":"Wagnerstr.","postalCode":"29643","locality":"Neuenkirchen","municipality":{"key":"03358017","name":"Neuenkirchen","type":"Kreisangehörige_Gemeinde"},"district":{"key":"03358","name":"Heidekreis","type":"Landkreis"},"federalState":{"key":"03","name":"Niedersachsen"}},{"name":"Wahlde","postalCode":"49434","locality":"Neuenkirchen-Vörden","municipality":{"key":"03460007","name":"Neuenkirchen-Vörden","type":"Kreisangehörige_Gemeinde"},"district":{"key":"03460","name":"Vechta","type":"Landkreis"},"federalState":{"key":"03","name":"Niedersachsen"}},{"name":"Wahlder Weg","postalCode":"49434","locality":"Neuenkirchen-Vörden","municipality":{"key":"03460007","name":"Neuenkirchen-Vörden","type":"Kreisangehörige_Gemeinde"},"district":{"key":"03460","name":"Vechta","type":"Landkreis"},"federalState":{"key":"03","name":"Niedersachsen"}},{"name":"Waldweg","postalCode":"17498","locality":"Neuenkirchen","municipality":{"key":"13075102","name":"Neuenkirchen","type":"Kreisangehörige_Gemeinde"},"district":{"key":"13075","name":"Vorpommern-Greifswald","type":"Landkreis"},"federalState":{"key":"13","name":"Mecklenburg-Vorpommern"}},{"name":"Waldweg","postalCode":"29643","locality":"Neuenkirchen","municipality":{"key":"03358017","name":"Neuenkirchen","type":"Kreisangehörige_Gemeinde"},"district":{"key":"03358","name":"Heidekreis","type":"Landkreis"},"federalState":{"key":"03","name":"Niedersachsen"}},{"name":"Waldweg","postalCode":"48485","locality":"Neuenkirchen","municipality":{"key":"05566060","name":"Neuenkirchen","type":"Kreisangehörige_Gemeinde"},"district":{"key":"05566","name":"Steinfurt","type":"Kreis"},"federalState":{"key":"05","name":"Nordrhein-Westfalen"}},{"name":"Waldwinkel","postalCode":"29643","locality":"Neuenkirchen","municipality":{"key":"03358017","name":"Neuenkirchen","type":"Kreisangehörige_Gemeinde"},"district":{"key":"03358","name":"Heidekreis","type":"Landkreis"},"federalState":{"key":"03","name":"Niedersachsen"}},{"name":"Wampener Str.","postalCode":"17498","locality":"Neuenkirchen","municipality":{"key":"13075102","name":"Neuenkirchen","type":"Kreisangehörige_Gemeinde"},"district":{"key":"13075","name":"Vorpommern-Greifswald","type":"Landkreis"},"federalState":{"key":"13","name":"Mecklenburg-Vorpommern"}},{"name":"Warliner Str.","postalCode":"17039","locality":"Neuenkirchen","municipality":{"key":"13071108","name":"Neuenkirchen","type":"Kreisangehörige_Gemeinde"},"district":{"key":"13071","name":"Mecklenburgische Seenplatte","type":"Landkreis"},"federalState":{"key":"13","name":"Mecklenburg-Vorpommern"}},{"name":"Wasserstiege","postalCode":"48485","locality":"Neuenkirchen","municipality":{"key":"05566060","name":"Neuenkirchen","type":"Kreisangehörige_Gemeinde"},"district":{"key":"05566","name":"Steinfurt","type":"Kreis"},"federalState":{"key":"05","name":"Nordrhein-Westfalen"}},{"name":"Webergasse","postalCode":"49434","locality":"Neuenkirchen-Vörden","municipality":{"key":"03460007","name":"Neuenkirchen-Vörden","type":"Kreisangehörige_Gemeinde"},"district":{"key":"03460","name":"Vechta","type":"Landkreis"},"federalState":{"key":"03","name":"Niedersachsen"}},{"name":"Weeser Damm","postalCode":"49586","locality":"Neuenkirchen","municipality":{"key":"03459027","name":"Neuenkirchen","type":"Kreisangehörige_Gemeinde"},"district":{"key":"03459","name":"Osnabrück","type":"Landkreis"},"federalState":{"key":"03","name":"Niedersachsen"}},{"name":"Wehrenberger Ortsstr.","postalCode":"27251","locality":"Neuenkirchen","municipality":{"key":"03251028","name":"Neuenkirchen","type":"Kreisangehörige_Gemeinde"},"district":{"key":"03251","name":"Diepholz","type":"Landkreis"},"federalState":{"key":"03","name":"Niedersachsen"}},{"name":"Weidemannstr.","postalCode":"29643","locality":"Neuenkirchen","municipality":{"key":"03358017","name":"Neuenkirchen","type":"Kreisangehörige_Gemeinde"},"district":{"key":"03358","name":"Heidekreis","type":"Landkreis"},"federalState":{"key":"03","name":"Niedersachsen"}},{"name":"Weidenkamp","postalCode":"49434","locality":"Neuenkirchen-Vörden","municipality":{"key":"03460007","name":"Neuenkirchen-Vörden","type":"Kreisangehörige_Gemeinde"},"district":{"key":"03460","name":"Vechta","type":"Landkreis"},"federalState":{"key":"03","name":"Niedersachsen"}},{"name":"Weidenstr.","postalCode":"48485","locality":"Neuenkirchen","municipality":{"key":"05566060","name":"Neuenkirchen","type":"Kreisangehörige_Gemeinde"},"district":{"key":"05566","name":"Steinfurt","type":"Kreis"},"federalState":{"key":"05","name":"Nordrhein-Westfalen"}},{"name":"Weißdornweg","postalCode":"29643","locality":"Neuenkirchen","municipality":{"key":"03358017","name":"Neuenkirchen","type":"Kreisangehörige_Gemeinde"},"district":{"key":"03358","name":"Heidekreis","type":"Landkreis"},"federalState":{"key":"03","name":"Niedersachsen"}},{"name":"Weißdornweg","postalCode":"48485","locality":"Neuenkirchen","municipality":{"key":"05566060","name":"Neuenkirchen","type":"Kreisangehörige_Gemeinde"},"district":{"key":"05566","name":"Steinfurt","type":"Kreis"},"federalState":{"key":"05","name":"Nordrhein-Westfalen"}},{"name":"Weizenkamp","postalCode":"27251","locality":"Neuenkirchen","municipality":{"key":"03251028","name":"Neuenkirchen","type":"Kreisangehörige_Gemeinde"},"district":{"key":"03251","name":"Diepholz","type":"Landkreis"},"federalState":{"key":"03","name":"Niedersachsen"}},{"name":"Weizenkamp","postalCode":"29643","locality":"Neuenkirchen","municipality":{"key":"03358017","name":"Neuenkirchen","type":"Kreisangehörige_Gemeinde"},"district":{"key":"03358","name":"Heidekreis","type":"Landkreis"},"federalState":{"key":"03","name":"Niedersachsen"}},{"name":"Weizenkamp","postalCode":"48485","locality":"Neuenkirchen","municipality":{"key":"05566060","name":"Neuenkirchen","type":"Kreisangehörige_Gemeinde"},"district":{"key":"05566","name":"Steinfurt","type":"Kreis"},"federalState":{"key":"05","name":"Nordrhein-Westfalen"}},{"name":"Welsche Stiege","postalCode":"48485","locality":"Neuenkirchen","municipality":{"key":"05566060","name":"Neuenkirchen","type":"Kreisangehörige_Gemeinde"},"district":{"key":"05566","name":"Steinfurt","type":"Kreis"},"federalState":{"key":"05","name":"Nordrhein-Westfalen"}},{"name":"Wendenweg","postalCode":"17039","locality":"Neuenkirchen","municipality":{"key":"13071108","name":"Neuenkirchen","type":"Kreisangehörige_Gemeinde"},"district":{"key":"13071","name":"Mecklenburgische Seenplatte","type":"Landkreis"},"federalState":{"key":"13","name":"Mecklenburg-Vorpommern"}},{"name":"Wenstrup","postalCode":"49434","locality":"Neuenkirchen-Vörden","municipality":{"key":"03460007","name":"Neuenkirchen-Vörden","type":"Kreisangehörige_Gemeinde"},"district":{"key":"03460","name":"Vechta","type":"Landkreis"},"federalState":{"key":"03","name":"Niedersachsen"}},{"name":"Wesselburener Str.","postalCode":"25792","locality":"Neuenkirchen","municipality":{"key":"01051075","name":"Neuenkirchen","type":"Kreisangehörige_Gemeinde"},"district":{"key":"01051","name":"Dithmarschen","type":"Kreis"},"federalState":{"key":"01","name":"Schleswig-Holstein"}},{"name":"Westfalenring","postalCode":"48485","locality":"Neuenkirchen","municipality":{"key":"05566060","name":"Neuenkirchen","type":"Kreisangehörige_Gemeinde"},"district":{"key":"05566","name":"Steinfurt","type":"Kreis"},"federalState":{"key":"05","name":"Nordrhein-Westfalen"}},{"name":"Westpreußenstr.","postalCode":"29643","locality":"Neuenkirchen","municipality":{"key":"03358017","name":"Neuenkirchen","type":"Kreisangehörige_Gemeinde"},"district":{"key":"03358","name":"Heidekreis","type":"Landkreis"},"federalState":{"key":"03","name":"Niedersachsen"}},{"name":"Westruper Str.","postalCode":"49434","locality":"Neuenkirchen-Vörden","municipality":{"key":"03460007","name":"Neuenkirchen-Vörden","type":"Kreisangehörige_Gemeinde"},"district":{"key":"03460","name":"Vechta","type":"Landkreis"},"federalState":{"key":"03","name":"Niedersachsen"}},{"name":"Westruper Weg","postalCode":"49434","locality":"Neuenkirchen-Vörden","municipality":{"key":"03460007","name":"Neuenkirchen-Vörden","type":"Kreisangehörige_Gemeinde"},"district":{"key":"03460","name":"Vechta","type":"Landkreis"},"federalState":{"key":"03","name":"Niedersachsen"}},{"name":"Wettringer Str.","postalCode":"48485","locality":"Neuenkirchen","municipality":{"key":"05566060","name":"Neuenkirchen","type":"Kreisangehörige_Gemeinde"},"district":{"key":"05566","name":"Steinfurt","type":"Kreis"},"federalState":{"key":"05","name":"Nordrhein-Westfalen"}},{"name":"Wibbeltstr.","postalCode":"48485","locality":"Neuenkirchen","municipality":{"key":"05566060","name":"Neuenkirchen","type":"Kreisangehörige_Gemeinde"},"district":{"key":"05566","name":"Steinfurt","type":"Kreis"},"federalState":{"key":"05","name":"Nordrhein-Westfalen"}},{"name":"Wichernstr.","postalCode":"48485","locality":"Neuenkirchen","municipality":{"key":"05566060","name":"Neuenkirchen","type":"Kreisangehörige_Gemeinde"},"district":{"key":"05566","name":"Steinfurt","type":"Kreis"},"federalState":{"key":"05","name":"Nordrhein-Westfalen"}},{"name":"Wielandstr.","postalCode":"48485","locality":"Neuenkirchen","municipality":{"key":"05566060","name":"Neuenkirchen","type":"Kreisangehörige_Gemeinde"},"district":{"key":"05566","name":"Steinfurt","type":"Kreis"},"federalState":{"key":"05","name":"Nordrhein-Westfalen"}},{"name":"Wiesenhäuser Weg","postalCode":"48485","locality":"Neuenkirchen","municipality":{"key":"05566060","name":"Neuenkirchen","type":"Kreisangehörige_Gemeinde"},"district":{"key":"05566","name":"Steinfurt","type":"Kreis"},"federalState":{"key":"05","name":"Nordrhein-Westfalen"}},{"name":"Wiesenstr.","postalCode":"48485","locality":"Neuenkirchen","municipality":{"key":"05566060","name":"Neuenkirchen","type":"Kreisangehörige_Gemeinde"},"district":{"key":"05566","name":"Steinfurt","type":"Kreis"},"federalState":{"key":"05","name":"Nordrhein-Westfalen"}},{"name":"Wiesental","postalCode":"49434","locality":"Neuenkirchen-Vörden","municipality":{"key":"03460007","name":"Neuenkirchen-Vörden","type":"Kreisangehörige_Gemeinde"},"district":{"key":"03460","name":"Vechta","type":"Landkreis"},"federalState":{"key":"03","name":"Niedersachsen"}},{"name":"Wiesenweg","postalCode":"17498","locality":"Neuenkirchen","municipality":{"key":"13075102","name":"Neuenkirchen","type":"Kreisangehörige_Gemeinde"},"district":{"key":"13075","name":"Vorpommern-Greifswald","type":"Landkreis"},"federalState":{"key":"13","name":"Mecklenburg-Vorpommern"}},{"name":"Wilhelm-Busch-Str.","postalCode":"29643","locality":"Neuenkirchen","municipality":{"key":"03358017","name":"Neuenkirchen","type":"Kreisangehörige_Gemeinde"},"district":{"key":"03358","name":"Heidekreis","type":"Landkreis"},"federalState":{"key":"03","name":"Niedersachsen"}},{"name":"Wilhelm-Busch-Str.","postalCode":"48485","locality":"Neuenkirchen","municipality":{"key":"05566060","name":"Neuenkirchen","type":"Kreisangehörige_Gemeinde"},"district":{"key":"05566","name":"Steinfurt","type":"Kreis"},"federalState":{"key":"05","name":"Nordrhein-Westfalen"}},{"name":"Wilhelm-Busch-Weg","postalCode":"49434","locality":"Neuenkirchen-Vörden","municipality":{"key":"03460007","name":"Neuenkirchen-Vörden","type":"Kreisangehörige_Gemeinde"},"district":{"key":"03460","name":"Vechta","type":"Landkreis"},"federalState":{"key":"03","name":"Niedersachsen"}},{"name":"Wilhelm-Raabe-Str.","postalCode":"29643","locality":"Neuenkirchen","municipality":{"key":"03358017","name":"Neuenkirchen","type":"Kreisangehörige_Gemeinde"},"district":{"key":"03358","name":"Heidekreis","type":"Landkreis"},"federalState":{"key":"03","name":"Niedersachsen"}},{"name":"Wincklerplatz","postalCode":"48485","locality":"Neuenkirchen","municipality":{"key":"05566060","name":"Neuenkirchen","type":"Kreisangehörige_Gemeinde"},"district":{"key":"05566","name":"Steinfurt","type":"Kreis"},"federalState":{"key":"05","name":"Nordrhein-Westfalen"}},{"name":"Winkelstr.","postalCode":"48485","locality":"Neuenkirchen","municipality":{"key":"05566060","name":"Neuenkirchen","type":"Kreisangehörige_Gemeinde"},"district":{"key":"05566","name":"Steinfurt","type":"Kreis"},"federalState":{"key":"05","name":"Nordrhein-Westfalen"}},{"name":"Winzergasse","postalCode":"49434","locality":"Neuenkirchen-Vörden","municipality":{"key":"03460007","name":"Neuenkirchen-Vörden","type":"Kreisangehörige_Gemeinde"},"district":{"key":"03460","name":"Vechta","type":"Landkreis"},"federalState":{"key":"03","name":"Niedersachsen"}},{"name":"Wittenberg","postalCode":"49434","locality":"Neuenkirchen-Vörden","municipality":{"key":"03460007","name":"Neuenkirchen-Vörden","type":"Kreisangehörige_Gemeinde"},"district":{"key":"03460","name":"Vechta","type":"Landkreis"},"federalState":{"key":"03","name":"Niedersachsen"}},{"name":"Wittenfelder Str.","postalCode":"49434","locality":"Neuenkirchen-Vörden","municipality":{"key":"03460007","name":"Neuenkirchen-Vörden","type":"Kreisangehörige_Gemeinde"},"district":{"key":"03460","name":"Vechta","type":"Landkreis"},"federalState":{"key":"03","name":"Niedersachsen"}},{"name":"Wittenkamp","postalCode":"29643","locality":"Neuenkirchen","municipality":{"key":"03358017","name":"Neuenkirchen","type":"Kreisangehörige_Gemeinde"},"district":{"key":"03358","name":"Heidekreis","type":"Landkreis"},"federalState":{"key":"03","name":"Niedersachsen"}},{"name":"Zedernweg","postalCode":"48485","locality":"Neuenkirchen","municipality":{"key":"05566060","name":"Neuenkirchen","type":"Kreisangehörige_Gemeinde"},"district":{"key":"05566","name":"Steinfurt","type":"Kreis"},"federalState":{"key":"05","name":"Nordrhein-Westfalen"}},{"name":"Zessin","postalCode":"18569","locality":"Neuenkirchen","municipality":{"key":"13073059","name":"Neuenkirchen","type":"Kreisangehörige_Gemeinde"},"district":{"key":"13073","name":"Vorpommern-Rügen","type":"Landkreis"},"federalState":{"key":"13","name":"Mecklenburg-Vorpommern"}},{"name":"Zichorieneck","postalCode":"49434","locality":"Neuenkirchen-Vörden","municipality":{"key":"03460007","name":"Neuenkirchen-Vörden","type":"Kreisangehörige_Gemeinde"},"district":{"key":"03460","name":"Vechta","type":"Landkreis"},"federalState":{"key":"03","name":"Niedersachsen"}},{"name":"Ziegenbrücke","postalCode":"21640","locality":"Neuenkirchen","municipality":{"key":"03359033","name":"Neuenkirchen","type":"Kreisangehörige_Gemeinde"},"district":{"key":"03359","name":"Stade","type":"Landkreis"},"federalState":{"key":"03","name":"Niedersachsen"}},{"name":"Zu den Gärten","postalCode":"29643","locality":"Neuenkirchen","municipality":{"key":"03358017","name":"Neuenkirchen","type":"Kreisangehörige_Gemeinde"},"district":{"key":"03358","name":"Heidekreis","type":"Landkreis"},"federalState":{"key":"03","name":"Niedersachsen"}},{"name":"Zum Farwig","postalCode":"49586","locality":"Neuenkirchen","municipality":{"key":"03459027","name":"Neuenkirchen","type":"Kreisangehörige_Gemeinde"},"district":{"key":"03459","name":"Osnabrück","type":"Landkreis"},"federalState":{"key":"03","name":"Niedersachsen"}},{"name":"Zum Heidmoor","postalCode":"29643","locality":"Neuenkirchen","municipality":{"key":"03358017","name":"Neuenkirchen","type":"Kreisangehörige_Gemeinde"},"district":{"key":"03358","name":"Heidekreis","type":"Landkreis"},"federalState":{"key":"03","name":"Niedersachsen"}},{"name":"Zum Klosterbach","postalCode":"27251","locality":"Neuenkirchen","municipality":{"key":"03251028","name":"Neuenkirchen","type":"Kreisangehörige_Gemeinde"},"district":{"key":"03251","name":"Diepholz","type":"Landkreis"},"federalState":{"key":"03","name":"Niedersachsen"}},{"name":"Zum Krummen Feld","postalCode":"21763","locality":"Neuenkirchen","municipality":{"key":"03352038","name":"Neuenkirchen","type":"Kreisangehörige_Gemeinde"},"district":{"key":"03352","name":"Cuxhaven","type":"Landkreis"},"federalState":{"key":"03","name":"Niedersachsen"}},{"name":"Zum Naturschutzgebiet","postalCode":"49586","locality":"Neuenkirchen","municipality":{"key":"03459027","name":"Neuenkirchen","type":"Kreisangehörige_Gemeinde"},"district":{"key":"03459","name":"Osnabrück","type":"Landkreis"},"federalState":{"key":"03","name":"Niedersachsen"}},{"name":"Zum Rott","postalCode":"48485","locality":"Neuenkirchen","municipality":{"key":"05566060","name":"Neuenkirchen","type":"Kreisangehörige_Gemeinde"},"district":{"key":"05566","name":"Steinfurt","type":"Kreis"},"federalState":{"key":"05","name":"Nordrhein-Westfalen"}},{"name":"Zum Schießstand","postalCode":"29643","locality":"Neuenkirchen","municipality":{"key":"03358017","name":"Neuenkirchen","type":"Kreisangehörige_Gemeinde"},"district":{"key":"03358","name":"Heidekreis","type":"Landkreis"},"federalState":{"key":"03","name":"Niedersachsen"}},{"name":"Zum Schmiedefeuer","postalCode":"27251","locality":"Neuenkirchen","municipality":{"key":"03251028","name":"Neuenkirchen","type":"Kreisangehörige_Gemeinde"},"district":{"key":"03251","name":"Diepholz","type":"Landkreis"},"federalState":{"key":"03","name":"Niedersachsen"}},{"name":"Zum Seefeld","postalCode":"29643","locality":"Neuenkirchen","municipality":{"key":"03358017","name":"Neuenkirchen","type":"Kreisangehörige_Gemeinde"},"district":{"key":"03358","name":"Heidekreis","type":"Landkreis"},"federalState":{"key":"03","name":"Niedersachsen"}},{"name":"Zum Thie","postalCode":"48485","locality":"Neuenkirchen","municipality":{"key":"05566060","name":"Neuenkirchen","type":"Kreisangehörige_Gemeinde"},"district":{"key":"05566","name":"Steinfurt","type":"Kreis"},"federalState":{"key":"05","name":"Nordrhein-Westfalen"}},{"name":"Zum Wackers","postalCode":"29643","locality":"Neuenkirchen","municipality":{"key":"03358017","name":"Neuenkirchen","type":"Kreisangehörige_Gemeinde"},"district":{"key":"03358","name":"Heidekreis","type":"Landkreis"},"federalState":{"key":"03","name":"Niedersachsen"}},{"name":"Zur Brandheide","postalCode":"29643","locality":"Neuenkirchen","municipality":{"key":"03358017","name":"Neuenkirchen","type":"Kreisangehörige_Gemeinde"},"district":{"key":"03358","name":"Heidekreis","type":"Landkreis"},"federalState":{"key":"03","name":"Niedersachsen"}},{"name":"Zur Dell","postalCode":"29643","locality":"Neuenkirchen","municipality":{"key":"03358017","name":"Neuenkirchen","type":"Kreisangehörige_Gemeinde"},"district":{"key":"03358","name":"Heidekreis","type":"Landkreis"},"federalState":{"key":"03","name":"Niedersachsen"}},{"name":"Zur Helle","postalCode":"48485","locality":"Neuenkirchen","municipality":{"key":"05566060","name":"Neuenkirchen","type":"Kreisangehörige_Gemeinde"},"district":{"key":"05566","name":"Steinfurt","type":"Kreis"},"federalState":{"key":"05","name":"Nordrhein-Westfalen"}},{"name":"Zur Mühle","postalCode":"49434","locality":"Neuenkirchen-Vörden","municipality":{"key":"03460007","name":"Neuenkirchen-Vörden","type":"Kreisangehörige_Gemeinde"},"district":{"key":"03460","name":"Vechta","type":"Landkreis"},"federalState":{"key":"03","name":"Niedersachsen"}},{"name":"Zur Müße","postalCode":"49434","locality":"Neuenkirchen-Vörden","municipality":{"key":"03460007","name":"Neuenkirchen-Vörden","type":"Kreisangehörige_Gemeinde"},"district":{"key":"03460","name":"Vechta","type":"Landkreis"},"federalState":{"key":"03","name":"Niedersachsen"}},{"name":"Zur Tiefen Str.","postalCode":"29643","locality":"Neuenkirchen","municipality":{"key":"03358017","name":"Neuenkirchen","type":"Kreisangehörige_Gemeinde"},"district":{"key":"03358","name":"Heidekreis","type":"Landkreis"},"federalState":{"key":"03","name":"Niedersachsen"}},{"name":"Zweiter Höftenweg","postalCode":"49434","locality":"Neuenkirchen-Vörden","municipality":{"key":"03460007","name":"Neuenkirchen-Vörden","type":"Kreisangehörige_Gemeinde"},"district":{"key":"03460","name":"Vechta","type":"Landkreis"},"federalState":{"key":"03","name":"Niedersachsen"}},]