[{"name":"Alte Siedlung","postalCode":"38170","locality":"Kneitlingen","municipality":{"key":"03158022","name":"Kneitlingen","type":"Kreisangehörige_Gemeinde"},"district":{"key":"03158","name":"Wolfenbüttel","type":"Landkreis"},"federalState":{"key":"03","name":"Niedersachsen"}},{"name":"Am Backhaus","postalCode":"38170","locality":"Kneitlingen","municipality":{"key":"03158022","name":"Kneitlingen","type":"Kreisangehörige_Gemeinde"},"district":{"key":"03158","name":"Wolfenbüttel","type":"Landkreis"},"federalState":{"key":"03","name":"Niedersachsen"}},{"name":"Am Gemeindehaus","postalCode":"38170","locality":"Kneitlingen","municipality":{"key":"03158022","name":"Kneitlingen","type":"Kreisangehörige_Gemeinde"},"district":{"key":"03158","name":"Wolfenbüttel","type":"Landkreis"},"federalState":{"key":"03","name":"Niedersachsen"}},{"name":"Am Sandberg","postalCode":"38170","locality":"Kneitlingen","municipality":{"key":"03158022","name":"Kneitlingen","type":"Kreisangehörige_Gemeinde"},"district":{"key":"03158","name":"Wolfenbüttel","type":"Landkreis"},"federalState":{"key":"03","name":"Niedersachsen"}},{"name":"An der Höhe","postalCode":"38170","locality":"Kneitlingen","municipality":{"key":"03158022","name":"Kneitlingen","type":"Kreisangehörige_Gemeinde"},"district":{"key":"03158","name":"Wolfenbüttel","type":"Landkreis"},"federalState":{"key":"03","name":"Niedersachsen"}},{"name":"An der Schule","postalCode":"38170","locality":"Kneitlingen","municipality":{"key":"03158022","name":"Kneitlingen","type":"Kreisangehörige_Gemeinde"},"district":{"key":"03158","name":"Wolfenbüttel","type":"Landkreis"},"federalState":{"key":"03","name":"Niedersachsen"}},{"name":"Banslebenring","postalCode":"38170","locality":"Kneitlingen","municipality":{"key":"03158022","name":"Kneitlingen","type":"Kreisangehörige_Gemeinde"},"district":{"key":"03158","name":"Wolfenbüttel","type":"Landkreis"},"federalState":{"key":"03","name":"Niedersachsen"}},{"name":"Bansleber Holzweg","postalCode":"38170","locality":"Kneitlingen","municipality":{"key":"03158022","name":"Kneitlingen","type":"Kreisangehörige_Gemeinde"},"district":{"key":"03158","name":"Wolfenbüttel","type":"Landkreis"},"federalState":{"key":"03","name":"Niedersachsen"}},{"name":"Bockslager","postalCode":"38170","locality":"Kneitlingen","municipality":{"key":"03158022","name":"Kneitlingen","type":"Kreisangehörige_Gemeinde"},"district":{"key":"03158","name":"Wolfenbüttel","type":"Landkreis"},"federalState":{"key":"03","name":"Niedersachsen"}},{"name":"Campestr.","postalCode":"38302","locality":"Wolfenbüttel","municipality":{"key":"03158037","name":"Wolfenbüttel, Stadt","type":"Stadt"},"district":{"key":"03158","name":"Wolfenbüttel","type":"Landkreis"},"federalState":{"key":"03","name":"Niedersachsen"}},{"name":"Cort-Mente-Str.","postalCode":"38304","locality":"Wolfenbüttel","municipality":{"key":"03158037","name":"Wolfenbüttel, Stadt","type":"Stadt"},"district":{"key":"03158","name":"Wolfenbüttel","type":"Landkreis"},"federalState":{"key":"03","name":"Niedersachsen"}},{"name":"Crammer Str.","postalCode":"38304","locality":"Wolfenbüttel","municipality":{"key":"03158037","name":"Wolfenbüttel, Stadt","type":"Stadt"},"district":{"key":"03158","name":"Wolfenbüttel","type":"Landkreis"},"federalState":{"key":"03","name":"Niedersachsen"}},{"name":"Cranachstr.","postalCode":"38300","locality":"Wolfenbüttel","municipality":{"key":"03158037","name":"Wolfenbüttel, Stadt","type":"Stadt"},"district":{"key":"03158","name":"Wolfenbüttel","type":"Landkreis"},"federalState":{"key":"03","name":"Niedersachsen"}},{"name":"Dahlienweg","postalCode":"38302","locality":"Wolfenbüttel","municipality":{"key":"03158037","name":"Wolfenbüttel, Stadt","type":"Stadt"},"district":{"key":"03158","name":"Wolfenbüttel","type":"Landkreis"},"federalState":{"key":"03","name":"Niedersachsen"}},{"name":"Danziger Str.","postalCode":"38302","locality":"Wolfenbüttel","municipality":{"key":"03158037","name":"Wolfenbüttel, Stadt","type":"Stadt"},"district":{"key":"03158","name":"Wolfenbüttel","type":"Landkreis"},"federalState":{"key":"03","name":"Niedersachsen"}},{"name":"Der Anger","postalCode":"38302","locality":"Wolfenbüttel","municipality":{"key":"03158037","name":"Wolfenbüttel, Stadt","type":"Stadt"},"district":{"key":"03158","name":"Wolfenbüttel","type":"Landkreis"},"federalState":{"key":"03","name":"Niedersachsen"}},{"name":"Dietrich-Bonhoeffer-Str.","postalCode":"38300","locality":"Wolfenbüttel","municipality":{"key":"03158037","name":"Wolfenbüttel, Stadt","type":"Stadt"},"district":{"key":"03158","name":"Wolfenbüttel","type":"Landkreis"},"federalState":{"key":"03","name":"Niedersachsen"}},{"name":"Distelweg","postalCode":"38300","locality":"Wolfenbüttel","municipality":{"key":"03158037","name":"Wolfenbüttel, Stadt","type":"Stadt"},"district":{"key":"03158","name":"Wolfenbüttel","type":"Landkreis"},"federalState":{"key":"03","name":"Niedersachsen"}},{"name":"Doktor-August-Wolfstieg-Str.","postalCode":"38304","locality":"Wolfenbüttel","municipality":{"key":"03158037","name":"Wolfenbüttel, Stadt","type":"Stadt"},"district":{"key":"03158","name":"Wolfenbüttel","type":"Landkreis"},"federalState":{"key":"03","name":"Niedersachsen"}},{"name":"Doktorkamp","postalCode":"38302","locality":"Wolfenbüttel","municipality":{"key":"03158037","name":"Wolfenbüttel, Stadt","type":"Stadt"},"district":{"key":"03158","name":"Wolfenbüttel","type":"Landkreis"},"federalState":{"key":"03","name":"Niedersachsen"}},{"name":"Donnerbergstr.","postalCode":"38300","locality":"Wolfenbüttel","municipality":{"key":"03158037","name":"Wolfenbüttel, Stadt","type":"Stadt"},"district":{"key":"03158","name":"Wolfenbüttel","type":"Landkreis"},"federalState":{"key":"03","name":"Niedersachsen"}},{"name":"Dorfplatz","postalCode":"38304","locality":"Wolfenbüttel","municipality":{"key":"03158037","name":"Wolfenbüttel, Stadt","type":"Stadt"},"district":{"key":"03158","name":"Wolfenbüttel","type":"Landkreis"},"federalState":{"key":"03","name":"Niedersachsen"}},{"name":"Dorfstr.","postalCode":"38300","locality":"Wolfenbüttel","municipality":{"key":"03158037","name":"Wolfenbüttel, Stadt","type":"Stadt"},"district":{"key":"03158","name":"Wolfenbüttel","type":"Landkreis"},"federalState":{"key":"03","name":"Niedersachsen"}},{"name":"Drehstr.","postalCode":"38304","locality":"Wolfenbüttel","municipality":{"key":"03158037","name":"Wolfenbüttel, Stadt","type":"Stadt"},"district":{"key":"03158","name":"Wolfenbüttel","type":"Landkreis"},"federalState":{"key":"03","name":"Niedersachsen"}},{"name":"Drei-Linden-Weg","postalCode":"38300","locality":"Wolfenbüttel","municipality":{"key":"03158037","name":"Wolfenbüttel, Stadt","type":"Stadt"},"district":{"key":"03158","name":"Wolfenbüttel","type":"Landkreis"},"federalState":{"key":"03","name":"Niedersachsen"}},{"name":"Dr.-Heinrich-Jasper-Str.","postalCode":"38304","locality":"Wolfenbüttel","municipality":{"key":"03158037","name":"Wolfenbüttel, Stadt","type":"Stadt"},"district":{"key":"03158","name":"Wolfenbüttel","type":"Landkreis"},"federalState":{"key":"03","name":"Niedersachsen"}},{"name":"Dr.-Kirchheimer-Str.","postalCode":"38304","locality":"Wolfenbüttel","municipality":{"key":"03158037","name":"Wolfenbüttel, Stadt","type":"Stadt"},"district":{"key":"03158","name":"Wolfenbüttel","type":"Landkreis"},"federalState":{"key":"03","name":"Niedersachsen"}},{"name":"Drosselgasse","postalCode":"38300","locality":"Wolfenbüttel","municipality":{"key":"03158037","name":"Wolfenbüttel, Stadt","type":"Stadt"},"district":{"key":"03158","name":"Wolfenbüttel","type":"Landkreis"},"federalState":{"key":"03","name":"Niedersachsen"}},{"name":"Dürerstr.","postalCode":"38300","locality":"Wolfenbüttel","municipality":{"key":"03158037","name":"Wolfenbüttel, Stadt","type":"Stadt"},"district":{"key":"03158","name":"Wolfenbüttel","type":"Landkreis"},"federalState":{"key":"03","name":"Niedersachsen"}},{"name":"Eilumer Dorfstr.","postalCode":"38170","locality":"Kneitlingen","municipality":{"key":"03158022","name":"Kneitlingen","type":"Kreisangehörige_Gemeinde"},"district":{"key":"03158","name":"Wolfenbüttel","type":"Landkreis"},"federalState":{"key":"03","name":"Niedersachsen"}},{"name":"Elmstr.","postalCode":"38170","locality":"Kneitlingen","municipality":{"key":"03158022","name":"Kneitlingen","type":"Kreisangehörige_Gemeinde"},"district":{"key":"03158","name":"Wolfenbüttel","type":"Landkreis"},"federalState":{"key":"03","name":"Niedersachsen"}},{"name":"Eulenspiegelweg","postalCode":"38170","locality":"Kneitlingen","municipality":{"key":"03158022","name":"Kneitlingen","type":"Kreisangehörige_Gemeinde"},"district":{"key":"03158","name":"Wolfenbüttel","type":"Landkreis"},"federalState":{"key":"03","name":"Niedersachsen"}},{"name":"Flathweg","postalCode":"38170","locality":"Kneitlingen","municipality":{"key":"03158022","name":"Kneitlingen","type":"Kreisangehörige_Gemeinde"},"district":{"key":"03158","name":"Wolfenbüttel","type":"Landkreis"},"federalState":{"key":"03","name":"Niedersachsen"}},{"name":"Friedhofsweg","postalCode":"38170","locality":"Kneitlingen","municipality":{"key":"03158022","name":"Kneitlingen","type":"Kreisangehörige_Gemeinde"},"district":{"key":"03158","name":"Wolfenbüttel","type":"Landkreis"},"federalState":{"key":"03","name":"Niedersachsen"}},{"name":"Gartenweg","postalCode":"38170","locality":"Kneitlingen","municipality":{"key":"03158022","name":"Kneitlingen","type":"Kreisangehörige_Gemeinde"},"district":{"key":"03158","name":"Wolfenbüttel","type":"Landkreis"},"federalState":{"key":"03","name":"Niedersachsen"}},{"name":"Hinter der Kirche","postalCode":"38170","locality":"Kneitlingen","municipality":{"key":"03158022","name":"Kneitlingen","type":"Kreisangehörige_Gemeinde"},"district":{"key":"03158","name":"Wolfenbüttel","type":"Landkreis"},"federalState":{"key":"03","name":"Niedersachsen"}},{"name":"Ibergweg","postalCode":"38302","locality":"Wolfenbüttel","municipality":{"key":"03158037","name":"Wolfenbüttel, Stadt","type":"Stadt"},"district":{"key":"03158","name":"Wolfenbüttel","type":"Landkreis"},"federalState":{"key":"03","name":"Niedersachsen"}},{"name":"Ilsenburger Str.","postalCode":"38302","locality":"Wolfenbüttel","municipality":{"key":"03158037","name":"Wolfenbüttel, Stadt","type":"Stadt"},"district":{"key":"03158","name":"Wolfenbüttel","type":"Landkreis"},"federalState":{"key":"03","name":"Niedersachsen"}},{"name":"Im Blumengarten","postalCode":"38304","locality":"Wolfenbüttel","municipality":{"key":"03158037","name":"Wolfenbüttel, Stadt","type":"Stadt"},"district":{"key":"03158","name":"Wolfenbüttel","type":"Landkreis"},"federalState":{"key":"03","name":"Niedersachsen"}},{"name":"Im Bruchmorgen","postalCode":"38304","locality":"Wolfenbüttel","municipality":{"key":"03158037","name":"Wolfenbüttel, Stadt","type":"Stadt"},"district":{"key":"03158","name":"Wolfenbüttel","type":"Landkreis"},"federalState":{"key":"03","name":"Niedersachsen"}},{"name":"Im Burgkamp","postalCode":"38304","locality":"Wolfenbüttel","municipality":{"key":"03158037","name":"Wolfenbüttel, Stadt","type":"Stadt"},"district":{"key":"03158","name":"Wolfenbüttel","type":"Landkreis"},"federalState":{"key":"03","name":"Niedersachsen"}},{"name":"Im Giebel","postalCode":"38302","locality":"Wolfenbüttel","municipality":{"key":"03158037","name":"Wolfenbüttel, Stadt","type":"Stadt"},"district":{"key":"03158","name":"Wolfenbüttel","type":"Landkreis"},"federalState":{"key":"03","name":"Niedersachsen"}},{"name":"Im Grabeland","postalCode":"38300","locality":"Wolfenbüttel","municipality":{"key":"03158037","name":"Wolfenbüttel, Stadt","type":"Stadt"},"district":{"key":"03158","name":"Wolfenbüttel","type":"Landkreis"},"federalState":{"key":"03","name":"Niedersachsen"}},{"name":"Im Großen Teiche","postalCode":"38304","locality":"Wolfenbüttel","municipality":{"key":"03158037","name":"Wolfenbüttel, Stadt","type":"Stadt"},"district":{"key":"03158","name":"Wolfenbüttel","type":"Landkreis"},"federalState":{"key":"03","name":"Niedersachsen"}},{"name":"Im Honigtal","postalCode":"38304","locality":"Wolfenbüttel","municipality":{"key":"03158037","name":"Wolfenbüttel, Stadt","type":"Stadt"},"district":{"key":"03158","name":"Wolfenbüttel","type":"Landkreis"},"federalState":{"key":"03","name":"Niedersachsen"}},{"name":"Im Kalten Tale","postalCode":"38304","locality":"Wolfenbüttel","municipality":{"key":"03158037","name":"Wolfenbüttel, Stadt","type":"Stadt"},"district":{"key":"03158","name":"Wolfenbüttel","type":"Landkreis"},"federalState":{"key":"03","name":"Niedersachsen"}},{"name":"Im Kamp","postalCode":"38300","locality":"Wolfenbüttel","municipality":{"key":"03158037","name":"Wolfenbüttel, Stadt","type":"Stadt"},"district":{"key":"03158","name":"Wolfenbüttel","type":"Landkreis"},"federalState":{"key":"03","name":"Niedersachsen"}},{"name":"Im Kirchfeld","postalCode":"38304","locality":"Wolfenbüttel","municipality":{"key":"03158037","name":"Wolfenbüttel, Stadt","type":"Stadt"},"district":{"key":"03158","name":"Wolfenbüttel","type":"Landkreis"},"federalState":{"key":"03","name":"Niedersachsen"}},{"name":"Im Kleekamp","postalCode":"38304","locality":"Wolfenbüttel","municipality":{"key":"03158037","name":"Wolfenbüttel, Stadt","type":"Stadt"},"district":{"key":"03158","name":"Wolfenbüttel","type":"Landkreis"},"federalState":{"key":"03","name":"Niedersachsen"}},{"name":"Im Kleinen Feld","postalCode":"38304","locality":"Wolfenbüttel","municipality":{"key":"03158037","name":"Wolfenbüttel, Stadt","type":"Stadt"},"district":{"key":"03158","name":"Wolfenbüttel","type":"Landkreis"},"federalState":{"key":"03","name":"Niedersachsen"}},{"name":"Im kleinen Horn","postalCode":"38304","locality":"Wolfenbüttel","municipality":{"key":"03158037","name":"Wolfenbüttel, Stadt","type":"Stadt"},"district":{"key":"03158","name":"Wolfenbüttel","type":"Landkreis"},"federalState":{"key":"03","name":"Niedersachsen"}},{"name":"Im Kohlgarten","postalCode":"38302","locality":"Wolfenbüttel","municipality":{"key":"03158037","name":"Wolfenbüttel, Stadt","type":"Stadt"},"district":{"key":"03158","name":"Wolfenbüttel","type":"Landkreis"},"federalState":{"key":"03","name":"Niedersachsen"}},{"name":"Im Lehmkamp","postalCode":"38302","locality":"Wolfenbüttel","municipality":{"key":"03158037","name":"Wolfenbüttel, Stadt","type":"Stadt"},"district":{"key":"03158","name":"Wolfenbüttel","type":"Landkreis"},"federalState":{"key":"03","name":"Niedersachsen"}},{"name":"Im Lindenfeld","postalCode":"38300","locality":"Wolfenbüttel","municipality":{"key":"03158037","name":"Wolfenbüttel, Stadt","type":"Stadt"},"district":{"key":"03158","name":"Wolfenbüttel","type":"Landkreis"},"federalState":{"key":"03","name":"Niedersachsen"}},{"name":"Im Lössfeld","postalCode":"38302","locality":"Wolfenbüttel","municipality":{"key":"03158037","name":"Wolfenbüttel, Stadt","type":"Stadt"},"district":{"key":"03158","name":"Wolfenbüttel","type":"Landkreis"},"federalState":{"key":"03","name":"Niedersachsen"}},{"name":"Im Meer","postalCode":"38302","locality":"Wolfenbüttel","municipality":{"key":"03158037","name":"Wolfenbüttel, Stadt","type":"Stadt"},"district":{"key":"03158","name":"Wolfenbüttel","type":"Landkreis"},"federalState":{"key":"03","name":"Niedersachsen"}},{"name":"Immenhof","postalCode":"38304","locality":"Wolfenbüttel","municipality":{"key":"03158037","name":"Wolfenbüttel, Stadt","type":"Stadt"},"district":{"key":"03158","name":"Wolfenbüttel","type":"Landkreis"},"federalState":{"key":"03","name":"Niedersachsen"}},{"name":"Im Mühlengrund","postalCode":"38304","locality":"Wolfenbüttel","municipality":{"key":"03158037","name":"Wolfenbüttel, Stadt","type":"Stadt"},"district":{"key":"03158","name":"Wolfenbüttel","type":"Landkreis"},"federalState":{"key":"03","name":"Niedersachsen"}},{"name":"Im Pfarrkamp","postalCode":"38300","locality":"Wolfenbüttel","municipality":{"key":"03158037","name":"Wolfenbüttel, Stadt","type":"Stadt"},"district":{"key":"03158","name":"Wolfenbüttel","type":"Landkreis"},"federalState":{"key":"03","name":"Niedersachsen"}},{"name":"Im Roggenkamp","postalCode":"38304","locality":"Wolfenbüttel","municipality":{"key":"03158037","name":"Wolfenbüttel, Stadt","type":"Stadt"},"district":{"key":"03158","name":"Wolfenbüttel","type":"Landkreis"},"federalState":{"key":"03","name":"Niedersachsen"}},{"name":"Im Rosenwinkel","postalCode":"38300","locality":"Wolfenbüttel","municipality":{"key":"03158037","name":"Wolfenbüttel, Stadt","type":"Stadt"},"district":{"key":"03158","name":"Wolfenbüttel","type":"Landkreis"},"federalState":{"key":"03","name":"Niedersachsen"}},{"name":"Im Rübenkamp","postalCode":"38304","locality":"Wolfenbüttel","municipality":{"key":"03158037","name":"Wolfenbüttel, Stadt","type":"Stadt"},"district":{"key":"03158","name":"Wolfenbüttel","type":"Landkreis"},"federalState":{"key":"03","name":"Niedersachsen"}},{"name":"Im Sikfeld","postalCode":"38304","locality":"Wolfenbüttel","municipality":{"key":"03158037","name":"Wolfenbüttel, Stadt","type":"Stadt"},"district":{"key":"03158","name":"Wolfenbüttel","type":"Landkreis"},"federalState":{"key":"03","name":"Niedersachsen"}},{"name":"Im Sommerfeld","postalCode":"38304","locality":"Wolfenbüttel","municipality":{"key":"03158037","name":"Wolfenbüttel, Stadt","type":"Stadt"},"district":{"key":"03158","name":"Wolfenbüttel","type":"Landkreis"},"federalState":{"key":"03","name":"Niedersachsen"}},{"name":"Im Stadtfeld","postalCode":"38304","locality":"Wolfenbüttel","municipality":{"key":"03158037","name":"Wolfenbüttel, Stadt","type":"Stadt"},"district":{"key":"03158","name":"Wolfenbüttel","type":"Landkreis"},"federalState":{"key":"03","name":"Niedersachsen"}},{"name":"Im Turmfeld","postalCode":"38304","locality":"Wolfenbüttel","municipality":{"key":"03158037","name":"Wolfenbüttel, Stadt","type":"Stadt"},"district":{"key":"03158","name":"Wolfenbüttel","type":"Landkreis"},"federalState":{"key":"03","name":"Niedersachsen"}},{"name":"Im Vogelsang","postalCode":"38304","locality":"Wolfenbüttel","municipality":{"key":"03158037","name":"Wolfenbüttel, Stadt","type":"Stadt"},"district":{"key":"03158","name":"Wolfenbüttel","type":"Landkreis"},"federalState":{"key":"03","name":"Niedersachsen"}},{"name":"Im Weberkamp","postalCode":"38304","locality":"Wolfenbüttel","municipality":{"key":"03158037","name":"Wolfenbüttel, Stadt","type":"Stadt"},"district":{"key":"03158","name":"Wolfenbüttel","type":"Landkreis"},"federalState":{"key":"03","name":"Niedersachsen"}},{"name":"Im Weidenkamp","postalCode":"38304","locality":"Wolfenbüttel","municipality":{"key":"03158037","name":"Wolfenbüttel, Stadt","type":"Stadt"},"district":{"key":"03158","name":"Wolfenbüttel","type":"Landkreis"},"federalState":{"key":"03","name":"Niedersachsen"}},{"name":"Im Weingarten","postalCode":"38300","locality":"Wolfenbüttel","municipality":{"key":"03158037","name":"Wolfenbüttel, Stadt","type":"Stadt"},"district":{"key":"03158","name":"Wolfenbüttel","type":"Landkreis"},"federalState":{"key":"03","name":"Niedersachsen"}},{"name":"Im Winterfeld","postalCode":"38304","locality":"Wolfenbüttel","municipality":{"key":"03158037","name":"Wolfenbüttel, Stadt","type":"Stadt"},"district":{"key":"03158","name":"Wolfenbüttel","type":"Landkreis"},"federalState":{"key":"03","name":"Niedersachsen"}},{"name":"In den Äckern","postalCode":"38300","locality":"Wolfenbüttel","municipality":{"key":"03158037","name":"Wolfenbüttel, Stadt","type":"Stadt"},"district":{"key":"03158","name":"Wolfenbüttel","type":"Landkreis"},"federalState":{"key":"03","name":"Niedersachsen"}},{"name":"In den Lindendöhren","postalCode":"38300","locality":"Wolfenbüttel","municipality":{"key":"03158037","name":"Wolfenbüttel, Stadt","type":"Stadt"},"district":{"key":"03158","name":"Wolfenbüttel","type":"Landkreis"},"federalState":{"key":"03","name":"Niedersachsen"}},{"name":"In den Schönen Morgen","postalCode":"38300","locality":"Wolfenbüttel","municipality":{"key":"03158037","name":"Wolfenbüttel, Stadt","type":"Stadt"},"district":{"key":"03158","name":"Wolfenbüttel","type":"Landkreis"},"federalState":{"key":"03","name":"Niedersachsen"}},{"name":"In der Steinkuhle","postalCode":"38304","locality":"Wolfenbüttel","municipality":{"key":"03158037","name":"Wolfenbüttel, Stadt","type":"Stadt"},"district":{"key":"03158","name":"Wolfenbüttel","type":"Landkreis"},"federalState":{"key":"03","name":"Niedersachsen"}},{"name":"Jägermeisterstr.","postalCode":"38302","locality":"Wolfenbüttel","municipality":{"key":"03158037","name":"Wolfenbüttel, Stadt","type":"Stadt"},"district":{"key":"03158","name":"Wolfenbüttel","type":"Landkreis"},"federalState":{"key":"03","name":"Niedersachsen"}},{"name":"Jägerstr.","postalCode":"38304","locality":"Wolfenbüttel","municipality":{"key":"03158037","name":"Wolfenbüttel, Stadt","type":"Stadt"},"district":{"key":"03158","name":"Wolfenbüttel","type":"Landkreis"},"federalState":{"key":"03","name":"Niedersachsen"}},{"name":"Jahnstr.","postalCode":"38302","locality":"Wolfenbüttel","municipality":{"key":"03158037","name":"Wolfenbüttel, Stadt","type":"Stadt"},"district":{"key":"03158","name":"Wolfenbüttel","type":"Landkreis"},"federalState":{"key":"03","name":"Niedersachsen"}},{"name":"Jasminweg","postalCode":"38300","locality":"Wolfenbüttel","municipality":{"key":"03158037","name":"Wolfenbüttel, Stadt","type":"Stadt"},"district":{"key":"03158","name":"Wolfenbüttel","type":"Landkreis"},"federalState":{"key":"03","name":"Niedersachsen"}},{"name":"Jochen-Klepper-Str.","postalCode":"38300","locality":"Wolfenbüttel","municipality":{"key":"03158037","name":"Wolfenbüttel, Stadt","type":"Stadt"},"district":{"key":"03158","name":"Wolfenbüttel","type":"Landkreis"},"federalState":{"key":"03","name":"Niedersachsen"}},{"name":"Johannisstr.","postalCode":"38304","locality":"Wolfenbüttel","municipality":{"key":"03158037","name":"Wolfenbüttel, Stadt","type":"Stadt"},"district":{"key":"03158","name":"Wolfenbüttel","type":"Landkreis"},"federalState":{"key":"03","name":"Niedersachsen"}},{"name":"Josef-Müller-Str.","postalCode":"38300","locality":"Wolfenbüttel","municipality":{"key":"03158037","name":"Wolfenbüttel, Stadt","type":"Stadt"},"district":{"key":"03158","name":"Wolfenbüttel","type":"Landkreis"},"federalState":{"key":"03","name":"Niedersachsen"}},{"name":"Juliusmarkt","postalCode":"38300","locality":"Wolfenbüttel","municipality":{"key":"03158037","name":"Wolfenbüttel, Stadt","type":"Stadt"},"district":{"key":"03158","name":"Wolfenbüttel","type":"Landkreis"},"federalState":{"key":"03","name":"Niedersachsen"}},{"name":"Juliusstr.","postalCode":"38300","locality":"Wolfenbüttel","municipality":{"key":"03158037","name":"Wolfenbüttel, Stadt","type":"Stadt"},"district":{"key":"03158","name":"Wolfenbüttel","type":"Landkreis"},"federalState":{"key":"03","name":"Niedersachsen"}},{"name":"Juliusstr.","postalCode":"38302","locality":"Wolfenbüttel","municipality":{"key":"03158037","name":"Wolfenbüttel, Stadt","type":"Stadt"},"district":{"key":"03158","name":"Wolfenbüttel","type":"Landkreis"},"federalState":{"key":"03","name":"Niedersachsen"}},{"name":"Juliusweg","postalCode":"38304","locality":"Wolfenbüttel","municipality":{"key":"03158037","name":"Wolfenbüttel, Stadt","type":"Stadt"},"district":{"key":"03158","name":"Wolfenbüttel","type":"Landkreis"},"federalState":{"key":"03","name":"Niedersachsen"}},{"name":"Jungfernstieg","postalCode":"38302","locality":"Wolfenbüttel","municipality":{"key":"03158037","name":"Wolfenbüttel, Stadt","type":"Stadt"},"district":{"key":"03158","name":"Wolfenbüttel","type":"Landkreis"},"federalState":{"key":"03","name":"Niedersachsen"}},{"name":"Justus-von-Liebig-Str.","postalCode":"38302","locality":"Wolfenbüttel","municipality":{"key":"03158037","name":"Wolfenbüttel, Stadt","type":"Stadt"},"district":{"key":"03158","name":"Wolfenbüttel","type":"Landkreis"},"federalState":{"key":"03","name":"Niedersachsen"}},{"name":"Kapellenweg","postalCode":"38170","locality":"Kneitlingen","municipality":{"key":"03158022","name":"Kneitlingen","type":"Kreisangehörige_Gemeinde"},"district":{"key":"03158","name":"Wolfenbüttel","type":"Landkreis"},"federalState":{"key":"03","name":"Niedersachsen"}},{"name":"Kattenbeek","postalCode":"38170","locality":"Kneitlingen","municipality":{"key":"03158022","name":"Kneitlingen","type":"Kreisangehörige_Gemeinde"},"district":{"key":"03158","name":"Wolfenbüttel","type":"Landkreis"},"federalState":{"key":"03","name":"Niedersachsen"}},{"name":"Katzenhagen","postalCode":"38170","locality":"Kneitlingen","municipality":{"key":"03158022","name":"Kneitlingen","type":"Kreisangehörige_Gemeinde"},"district":{"key":"03158","name":"Wolfenbüttel","type":"Landkreis"},"federalState":{"key":"03","name":"Niedersachsen"}},{"name":"Kirchbergstr.","postalCode":"38170","locality":"Kneitlingen","municipality":{"key":"03158022","name":"Kneitlingen","type":"Kreisangehörige_Gemeinde"},"district":{"key":"03158","name":"Wolfenbüttel","type":"Landkreis"},"federalState":{"key":"03","name":"Niedersachsen"}},{"name":"Kirchstr.","postalCode":"38170","locality":"Kneitlingen","municipality":{"key":"03158022","name":"Kneitlingen","type":"Kreisangehörige_Gemeinde"},"district":{"key":"03158","name":"Wolfenbüttel","type":"Landkreis"},"federalState":{"key":"03","name":"Niedersachsen"}},{"name":"Klint","postalCode":"38170","locality":"Kneitlingen","municipality":{"key":"03158022","name":"Kneitlingen","type":"Kreisangehörige_Gemeinde"},"district":{"key":"03158","name":"Wolfenbüttel","type":"Landkreis"},"federalState":{"key":"03","name":"Niedersachsen"}},{"name":"Kraugweg","postalCode":"38170","locality":"Kneitlingen","municipality":{"key":"03158022","name":"Kneitlingen","type":"Kreisangehörige_Gemeinde"},"district":{"key":"03158","name":"Wolfenbüttel","type":"Landkreis"},"federalState":{"key":"03","name":"Niedersachsen"}},{"name":"Kreisstr.","postalCode":"38170","locality":"Kneitlingen","municipality":{"key":"03158022","name":"Kneitlingen","type":"Kreisangehörige_Gemeinde"},"district":{"key":"03158","name":"Wolfenbüttel","type":"Landkreis"},"federalState":{"key":"03","name":"Niedersachsen"}},{"name":"Landeshuter Platz","postalCode":"38300","locality":"Wolfenbüttel","municipality":{"key":"03158037","name":"Wolfenbüttel, Stadt","type":"Stadt"},"district":{"key":"03158","name":"Wolfenbüttel","type":"Landkreis"},"federalState":{"key":"03","name":"Niedersachsen"}},{"name":"Lange Str.","postalCode":"38300","locality":"Wolfenbüttel","municipality":{"key":"03158037","name":"Wolfenbüttel, Stadt","type":"Stadt"},"district":{"key":"03158","name":"Wolfenbüttel","type":"Landkreis"},"federalState":{"key":"03","name":"Niedersachsen"}},{"name":"Lange Str.","postalCode":"38304","locality":"Wolfenbüttel","municipality":{"key":"03158037","name":"Wolfenbüttel, Stadt","type":"Stadt"},"district":{"key":"03158","name":"Wolfenbüttel","type":"Landkreis"},"federalState":{"key":"03","name":"Niedersachsen"}},{"name":"Langhansweg","postalCode":"38302","locality":"Wolfenbüttel","municipality":{"key":"03158037","name":"Wolfenbüttel, Stadt","type":"Stadt"},"district":{"key":"03158","name":"Wolfenbüttel","type":"Landkreis"},"federalState":{"key":"03","name":"Niedersachsen"}},{"name":"Lärchenweg","postalCode":"38302","locality":"Wolfenbüttel","municipality":{"key":"03158037","name":"Wolfenbüttel, Stadt","type":"Stadt"},"district":{"key":"03158","name":"Wolfenbüttel","type":"Landkreis"},"federalState":{"key":"03","name":"Niedersachsen"}},{"name":"Lauenstr.","postalCode":"38304","locality":"Wolfenbüttel","municipality":{"key":"03158037","name":"Wolfenbüttel, Stadt","type":"Stadt"},"district":{"key":"03158","name":"Wolfenbüttel","type":"Landkreis"},"federalState":{"key":"03","name":"Niedersachsen"}},{"name":"Leibnizstr.","postalCode":"38300","locality":"Wolfenbüttel","municipality":{"key":"03158037","name":"Wolfenbüttel, Stadt","type":"Stadt"},"district":{"key":"03158","name":"Wolfenbüttel","type":"Landkreis"},"federalState":{"key":"03","name":"Niedersachsen"}},{"name":"Leiferder Weg","postalCode":"38304","locality":"Wolfenbüttel","municipality":{"key":"03158037","name":"Wolfenbüttel, Stadt","type":"Stadt"},"district":{"key":"03158","name":"Wolfenbüttel","type":"Landkreis"},"federalState":{"key":"03","name":"Niedersachsen"}},{"name":"Leinder Str.","postalCode":"38304","locality":"Wolfenbüttel","municipality":{"key":"03158037","name":"Wolfenbüttel, Stadt","type":"Stadt"},"district":{"key":"03158","name":"Wolfenbüttel","type":"Landkreis"},"federalState":{"key":"03","name":"Niedersachsen"}},{"name":"Leipziger Allee","postalCode":"38300","locality":"Wolfenbüttel","municipality":{"key":"03158037","name":"Wolfenbüttel, Stadt","type":"Stadt"},"district":{"key":"03158","name":"Wolfenbüttel","type":"Landkreis"},"federalState":{"key":"03","name":"Niedersachsen"}},{"name":"Leipziger Str.","postalCode":"38300","locality":"Wolfenbüttel","municipality":{"key":"03158037","name":"Wolfenbüttel, Stadt","type":"Stadt"},"district":{"key":"03158","name":"Wolfenbüttel","type":"Landkreis"},"federalState":{"key":"03","name":"Niedersachsen"}},{"name":"Leipziger Str.","postalCode":"38302","locality":"Wolfenbüttel","municipality":{"key":"03158037","name":"Wolfenbüttel, Stadt","type":"Stadt"},"district":{"key":"03158","name":"Wolfenbüttel","type":"Landkreis"},"federalState":{"key":"03","name":"Niedersachsen"}},{"name":"Lenauweg","postalCode":"38304","locality":"Wolfenbüttel","municipality":{"key":"03158037","name":"Wolfenbüttel, Stadt","type":"Stadt"},"district":{"key":"03158","name":"Wolfenbüttel","type":"Landkreis"},"federalState":{"key":"03","name":"Niedersachsen"}},{"name":"Leopoldstr.","postalCode":"38302","locality":"Wolfenbüttel","municipality":{"key":"03158037","name":"Wolfenbüttel, Stadt","type":"Stadt"},"district":{"key":"03158","name":"Wolfenbüttel","type":"Landkreis"},"federalState":{"key":"03","name":"Niedersachsen"}},{"name":"Lessingplatz","postalCode":"38304","locality":"Wolfenbüttel","municipality":{"key":"03158037","name":"Wolfenbüttel, Stadt","type":"Stadt"},"district":{"key":"03158","name":"Wolfenbüttel","type":"Landkreis"},"federalState":{"key":"03","name":"Niedersachsen"}},{"name":"Lessingstr.","postalCode":"38300","locality":"Wolfenbüttel","municipality":{"key":"03158037","name":"Wolfenbüttel, Stadt","type":"Stadt"},"district":{"key":"03158","name":"Wolfenbüttel","type":"Landkreis"},"federalState":{"key":"03","name":"Niedersachsen"}},{"name":"Lessingstr.","postalCode":"38304","locality":"Wolfenbüttel","municipality":{"key":"03158037","name":"Wolfenbüttel, Stadt","type":"Stadt"},"district":{"key":"03158","name":"Wolfenbüttel","type":"Landkreis"},"federalState":{"key":"03","name":"Niedersachsen"}},{"name":"Liebauer Str.","postalCode":"38302","locality":"Wolfenbüttel","municipality":{"key":"03158037","name":"Wolfenbüttel, Stadt","type":"Stadt"},"district":{"key":"03158","name":"Wolfenbüttel","type":"Landkreis"},"federalState":{"key":"03","name":"Niedersachsen"}},{"name":"Liegnitzer Str.","postalCode":"38302","locality":"Wolfenbüttel","municipality":{"key":"03158037","name":"Wolfenbüttel, Stadt","type":"Stadt"},"district":{"key":"03158","name":"Wolfenbüttel","type":"Landkreis"},"federalState":{"key":"03","name":"Niedersachsen"}},{"name":"Ligusterweg","postalCode":"38300","locality":"Wolfenbüttel","municipality":{"key":"03158037","name":"Wolfenbüttel, Stadt","type":"Stadt"},"district":{"key":"03158","name":"Wolfenbüttel","type":"Landkreis"},"federalState":{"key":"03","name":"Niedersachsen"}},{"name":"Lilienweg","postalCode":"38302","locality":"Wolfenbüttel","municipality":{"key":"03158037","name":"Wolfenbüttel, Stadt","type":"Stadt"},"district":{"key":"03158","name":"Wolfenbüttel","type":"Landkreis"},"federalState":{"key":"03","name":"Niedersachsen"}},{"name":"Lindenblick","postalCode":"38300","locality":"Wolfenbüttel","municipality":{"key":"03158037","name":"Wolfenbüttel, Stadt","type":"Stadt"},"district":{"key":"03158","name":"Wolfenbüttel","type":"Landkreis"},"federalState":{"key":"03","name":"Niedersachsen"}},{"name":"Lindener Str.","postalCode":"38300","locality":"Wolfenbüttel","municipality":{"key":"03158037","name":"Wolfenbüttel, Stadt","type":"Stadt"},"district":{"key":"03158","name":"Wolfenbüttel","type":"Landkreis"},"federalState":{"key":"03","name":"Niedersachsen"}},{"name":"Lindenstr.","postalCode":"38302","locality":"Wolfenbüttel","municipality":{"key":"03158037","name":"Wolfenbüttel, Stadt","type":"Stadt"},"district":{"key":"03158","name":"Wolfenbüttel","type":"Landkreis"},"federalState":{"key":"03","name":"Niedersachsen"}},{"name":"Lindenweg","postalCode":"38302","locality":"Wolfenbüttel","municipality":{"key":"03158037","name":"Wolfenbüttel, Stadt","type":"Stadt"},"district":{"key":"03158","name":"Wolfenbüttel","type":"Landkreis"},"federalState":{"key":"03","name":"Niedersachsen"}},{"name":"Lohenstr.","postalCode":"38300","locality":"Wolfenbüttel","municipality":{"key":"03158037","name":"Wolfenbüttel, Stadt","type":"Stadt"},"district":{"key":"03158","name":"Wolfenbüttel","type":"Landkreis"},"federalState":{"key":"03","name":"Niedersachsen"}},{"name":"Löwenzahnweg","postalCode":"38300","locality":"Wolfenbüttel","municipality":{"key":"03158037","name":"Wolfenbüttel, Stadt","type":"Stadt"},"district":{"key":"03158","name":"Wolfenbüttel","type":"Landkreis"},"federalState":{"key":"03","name":"Niedersachsen"}},{"name":"Ludwig-Richter-Str.","postalCode":"38300","locality":"Wolfenbüttel","municipality":{"key":"03158037","name":"Wolfenbüttel, Stadt","type":"Stadt"},"district":{"key":"03158","name":"Wolfenbüttel","type":"Landkreis"},"federalState":{"key":"03","name":"Niedersachsen"}},{"name":"Luisenweg","postalCode":"38302","locality":"Wolfenbüttel","municipality":{"key":"03158037","name":"Wolfenbüttel, Stadt","type":"Stadt"},"district":{"key":"03158","name":"Wolfenbüttel","type":"Landkreis"},"federalState":{"key":"03","name":"Niedersachsen"}},{"name":"Lupinenweg","postalCode":"38300","locality":"Wolfenbüttel","municipality":{"key":"03158037","name":"Wolfenbüttel, Stadt","type":"Stadt"},"district":{"key":"03158","name":"Wolfenbüttel","type":"Landkreis"},"federalState":{"key":"03","name":"Niedersachsen"}},{"name":"Lustgarten","postalCode":"38300","locality":"Wolfenbüttel","municipality":{"key":"03158037","name":"Wolfenbüttel, Stadt","type":"Stadt"},"district":{"key":"03158","name":"Wolfenbüttel","type":"Landkreis"},"federalState":{"key":"03","name":"Niedersachsen"}},{"name":"Lustgartensiedlung","postalCode":"38302","locality":"Wolfenbüttel","municipality":{"key":"03158037","name":"Wolfenbüttel, Stadt","type":"Stadt"},"district":{"key":"03158","name":"Wolfenbüttel","type":"Landkreis"},"federalState":{"key":"03","name":"Niedersachsen"}},{"name":"Mittelweg","postalCode":"38170","locality":"Kneitlingen","municipality":{"key":"03158022","name":"Kneitlingen","type":"Kreisangehörige_Gemeinde"},"district":{"key":"03158","name":"Wolfenbüttel","type":"Landkreis"},"federalState":{"key":"03","name":"Niedersachsen"}},{"name":"Mühlenweg","postalCode":"38170","locality":"Kneitlingen","municipality":{"key":"03158022","name":"Kneitlingen","type":"Kreisangehörige_Gemeinde"},"district":{"key":"03158","name":"Wolfenbüttel","type":"Landkreis"},"federalState":{"key":"03","name":"Niedersachsen"}},{"name":"Murrgasse","postalCode":"38170","locality":"Kneitlingen","municipality":{"key":"03158022","name":"Kneitlingen","type":"Kreisangehörige_Gemeinde"},"district":{"key":"03158","name":"Wolfenbüttel","type":"Landkreis"},"federalState":{"key":"03","name":"Niedersachsen"}},{"name":"Nansenweg","postalCode":"38300","locality":"Wolfenbüttel","municipality":{"key":"03158037","name":"Wolfenbüttel, Stadt","type":"Stadt"},"district":{"key":"03158","name":"Wolfenbüttel","type":"Landkreis"},"federalState":{"key":"03","name":"Niedersachsen"}},{"name":"Neindorfer Str.","postalCode":"38300","locality":"Wolfenbüttel","municipality":{"key":"03158037","name":"Wolfenbüttel, Stadt","type":"Stadt"},"district":{"key":"03158","name":"Wolfenbüttel","type":"Landkreis"},"federalState":{"key":"03","name":"Niedersachsen"}},{"name":"Nelkenweg","postalCode":"38302","locality":"Wolfenbüttel","municipality":{"key":"03158037","name":"Wolfenbüttel, Stadt","type":"Stadt"},"district":{"key":"03158","name":"Wolfenbüttel","type":"Landkreis"},"federalState":{"key":"03","name":"Niedersachsen"}},{"name":"Neuer Holzweg","postalCode":"38304","locality":"Wolfenbüttel","municipality":{"key":"03158037","name":"Wolfenbüttel, Stadt","type":"Stadt"},"district":{"key":"03158","name":"Wolfenbüttel","type":"Landkreis"},"federalState":{"key":"03","name":"Niedersachsen"}},{"name":"Neuer Weg","postalCode":"38302","locality":"Wolfenbüttel","municipality":{"key":"03158037","name":"Wolfenbüttel, Stadt","type":"Stadt"},"district":{"key":"03158","name":"Wolfenbüttel","type":"Landkreis"},"federalState":{"key":"03","name":"Niedersachsen"}},{"name":"Neue Str.","postalCode":"38300","locality":"Wolfenbüttel","municipality":{"key":"03158037","name":"Wolfenbüttel, Stadt","type":"Stadt"},"district":{"key":"03158","name":"Wolfenbüttel","type":"Landkreis"},"federalState":{"key":"03","name":"Niedersachsen"}},{"name":"Neuköllner Weg","postalCode":"38300","locality":"Wolfenbüttel","municipality":{"key":"03158037","name":"Wolfenbüttel, Stadt","type":"Stadt"},"district":{"key":"03158","name":"Wolfenbüttel","type":"Landkreis"},"federalState":{"key":"03","name":"Niedersachsen"}},{"name":"Nordring","postalCode":"38304","locality":"Wolfenbüttel","municipality":{"key":"03158037","name":"Wolfenbüttel, Stadt","type":"Stadt"},"district":{"key":"03158","name":"Wolfenbüttel","type":"Landkreis"},"federalState":{"key":"03","name":"Niedersachsen"}},{"name":"Ollaweg","postalCode":"38170","locality":"Kneitlingen","municipality":{"key":"03158022","name":"Kneitlingen","type":"Kreisangehörige_Gemeinde"},"district":{"key":"03158","name":"Wolfenbüttel","type":"Landkreis"},"federalState":{"key":"03","name":"Niedersachsen"}},{"name":"Philosophenweg","postalCode":"38170","locality":"Kneitlingen","municipality":{"key":"03158022","name":"Kneitlingen","type":"Kreisangehörige_Gemeinde"},"district":{"key":"03158","name":"Wolfenbüttel","type":"Landkreis"},"federalState":{"key":"03","name":"Niedersachsen"}},{"name":"Presseweg","postalCode":"38170","locality":"Kneitlingen","municipality":{"key":"03158022","name":"Kneitlingen","type":"Kreisangehörige_Gemeinde"},"district":{"key":"03158","name":"Wolfenbüttel","type":"Landkreis"},"federalState":{"key":"03","name":"Niedersachsen"}},{"name":"Quellenweg","postalCode":"38302","locality":"Wolfenbüttel","municipality":{"key":"03158037","name":"Wolfenbüttel, Stadt","type":"Stadt"},"district":{"key":"03158","name":"Wolfenbüttel","type":"Landkreis"},"federalState":{"key":"03","name":"Niedersachsen"}},{"name":"Ringstr.","postalCode":"38170","locality":"Kneitlingen","municipality":{"key":"03158022","name":"Kneitlingen","type":"Kreisangehörige_Gemeinde"},"district":{"key":"03158","name":"Wolfenbüttel","type":"Landkreis"},"federalState":{"key":"03","name":"Niedersachsen"}},{"name":"Sackstr.","postalCode":"38170","locality":"Kneitlingen","municipality":{"key":"03158022","name":"Kneitlingen","type":"Kreisangehörige_Gemeinde"},"district":{"key":"03158","name":"Wolfenbüttel","type":"Landkreis"},"federalState":{"key":"03","name":"Niedersachsen"}},{"name":"Schöppenstedter Weg","postalCode":"38170","locality":"Kneitlingen","municipality":{"key":"03158022","name":"Kneitlingen","type":"Kreisangehörige_Gemeinde"},"district":{"key":"03158","name":"Wolfenbüttel","type":"Landkreis"},"federalState":{"key":"03","name":"Niedersachsen"}},{"name":"Siedlungsweg","postalCode":"38170","locality":"Kneitlingen","municipality":{"key":"03158022","name":"Kneitlingen","type":"Kreisangehörige_Gemeinde"},"district":{"key":"03158","name":"Wolfenbüttel","type":"Landkreis"},"federalState":{"key":"03","name":"Niedersachsen"}},{"name":"Speckgasse","postalCode":"38170","locality":"Kneitlingen","municipality":{"key":"03158022","name":"Kneitlingen","type":"Kreisangehörige_Gemeinde"},"district":{"key":"03158","name":"Wolfenbüttel","type":"Landkreis"},"federalState":{"key":"03","name":"Niedersachsen"}},{"name":"Stieg","postalCode":"38170","locality":"Kneitlingen","municipality":{"key":"03158022","name":"Kneitlingen","type":"Kreisangehörige_Gemeinde"},"district":{"key":"03158","name":"Wolfenbüttel","type":"Landkreis"},"federalState":{"key":"03","name":"Niedersachsen"}},{"name":"Triftweg","postalCode":"38170","locality":"Kneitlingen","municipality":{"key":"03158022","name":"Kneitlingen","type":"Kreisangehörige_Gemeinde"},"district":{"key":"03158","name":"Wolfenbüttel","type":"Landkreis"},"federalState":{"key":"03","name":"Niedersachsen"}},{"name":"Urwelle","postalCode":"38170","locality":"Kneitlingen","municipality":{"key":"03158022","name":"Kneitlingen","type":"Kreisangehörige_Gemeinde"},"district":{"key":"03158","name":"Wolfenbüttel","type":"Landkreis"},"federalState":{"key":"03","name":"Niedersachsen"}},{"name":"Virchowweg","postalCode":"38302","locality":"Wolfenbüttel","municipality":{"key":"03158037","name":"Wolfenbüttel, Stadt","type":"Stadt"},"district":{"key":"03158","name":"Wolfenbüttel","type":"Landkreis"},"federalState":{"key":"03","name":"Niedersachsen"}},{"name":"Vogesweg","postalCode":"38304","locality":"Wolfenbüttel","municipality":{"key":"03158037","name":"Wolfenbüttel, Stadt","type":"Stadt"},"district":{"key":"03158","name":"Wolfenbüttel","type":"Landkreis"},"federalState":{"key":"03","name":"Niedersachsen"}},{"name":"Vor dem Gotteslager","postalCode":"38300","locality":"Wolfenbüttel","municipality":{"key":"03158037","name":"Wolfenbüttel, Stadt","type":"Stadt"},"district":{"key":"03158","name":"Wolfenbüttel","type":"Landkreis"},"federalState":{"key":"03","name":"Niedersachsen"}},{"name":"Vor dem Rottland","postalCode":"38302","locality":"Wolfenbüttel","municipality":{"key":"03158037","name":"Wolfenbüttel, Stadt","type":"Stadt"},"district":{"key":"03158","name":"Wolfenbüttel","type":"Landkreis"},"federalState":{"key":"03","name":"Niedersachsen"}},{"name":"Vor dem Schlosse","postalCode":"38302","locality":"Wolfenbüttel","municipality":{"key":"03158037","name":"Wolfenbüttel, Stadt","type":"Stadt"},"district":{"key":"03158","name":"Wolfenbüttel","type":"Landkreis"},"federalState":{"key":"03","name":"Niedersachsen"}},{"name":"Vor dem Stadtberge","postalCode":"38300","locality":"Wolfenbüttel","municipality":{"key":"03158037","name":"Wolfenbüttel, Stadt","type":"Stadt"},"district":{"key":"03158","name":"Wolfenbüttel","type":"Landkreis"},"federalState":{"key":"03","name":"Niedersachsen"}},{"name":"Vor den Drohnen","postalCode":"38302","locality":"Wolfenbüttel","municipality":{"key":"03158037","name":"Wolfenbüttel, Stadt","type":"Stadt"},"district":{"key":"03158","name":"Wolfenbüttel","type":"Landkreis"},"federalState":{"key":"03","name":"Niedersachsen"}},{"name":"Vor den Gärten","postalCode":"38302","locality":"Wolfenbüttel","municipality":{"key":"03158037","name":"Wolfenbüttel, Stadt","type":"Stadt"},"district":{"key":"03158","name":"Wolfenbüttel","type":"Landkreis"},"federalState":{"key":"03","name":"Niedersachsen"}},{"name":"Vor den Rotten","postalCode":"38304","locality":"Wolfenbüttel","municipality":{"key":"03158037","name":"Wolfenbüttel, Stadt","type":"Stadt"},"district":{"key":"03158","name":"Wolfenbüttel","type":"Landkreis"},"federalState":{"key":"03","name":"Niedersachsen"}},{"name":"Vor den Wiesen","postalCode":"38300","locality":"Wolfenbüttel","municipality":{"key":"03158037","name":"Wolfenbüttel, Stadt","type":"Stadt"},"district":{"key":"03158","name":"Wolfenbüttel","type":"Landkreis"},"federalState":{"key":"03","name":"Niedersachsen"}},{"name":"Wiesenfeldweg","postalCode":"38170","locality":"Kneitlingen","municipality":{"key":"03158022","name":"Kneitlingen","type":"Kreisangehörige_Gemeinde"},"district":{"key":"03158","name":"Wolfenbüttel","type":"Landkreis"},"federalState":{"key":"03","name":"Niedersachsen"}},{"name":"Witwenweg","postalCode":"38170","locality":"Kneitlingen","municipality":{"key":"03158022","name":"Kneitlingen","type":"Kreisangehörige_Gemeinde"},"district":{"key":"03158","name":"Wolfenbüttel","type":"Landkreis"},"federalState":{"key":"03","name":"Niedersachsen"}},{"name":"Wolfenbütteler Str.","postalCode":"38170","locality":"Kneitlingen","municipality":{"key":"03158022","name":"Kneitlingen","type":"Kreisangehörige_Gemeinde"},"district":{"key":"03158","name":"Wolfenbüttel","type":"Landkreis"},"federalState":{"key":"03","name":"Niedersachsen"}},{"name":"Zur Kuckucksmühle","postalCode":"38170","locality":"Kneitlingen","municipality":{"key":"03158022","name":"Kneitlingen","type":"Kreisangehörige_Gemeinde"},"district":{"key":"03158","name":"Wolfenbüttel","type":"Landkreis"},"federalState":{"key":"03","name":"Niedersachsen"}},{"name":"Öselblick","postalCode":"38300","locality":"Wolfenbüttel","municipality":{"key":"03158037","name":"Wolfenbüttel, Stadt","type":"Stadt"},"district":{"key":"03158","name":"Wolfenbüttel","type":"Landkreis"},"federalState":{"key":"03","name":"Niedersachsen"}},{"name":"Öselweg","postalCode":"38302","locality":"Wolfenbüttel","municipality":{"key":"03158037","name":"Wolfenbüttel, Stadt","type":"Stadt"},"district":{"key":"03158","name":"Wolfenbüttel","type":"Landkreis"},"federalState":{"key":"03","name":"Niedersachsen"}},{"name":"Über dem Dorfe","postalCode":"38304","locality":"Wolfenbüttel","municipality":{"key":"03158037","name":"Wolfenbüttel, Stadt","type":"Stadt"},"district":{"key":"03158","name":"Wolfenbüttel","type":"Landkreis"},"federalState":{"key":"03","name":"Niedersachsen"}},{"name":"Über der Wiese","postalCode":"38304","locality":"Wolfenbüttel","municipality":{"key":"03158037","name":"Wolfenbüttel, Stadt","type":"Stadt"},"district":{"key":"03158","name":"Wolfenbüttel","type":"Landkreis"},"federalState":{"key":"03","name":"Niedersachsen"}},]