[{"key":"10195474","name":"Alte Rüetschbergstrasse","postalCode":"8488","locality":"Turbenthal","commune":{"key":"228","name":"Turbenthal","shortName":"Turbenthal"},"district":{"key":"110","name":"Bezirk Winterthur"},"canton":{"key":"1","code":"ZH","name":"Zürich"},"status":"Real"},{"key":"10199694","name":"Alte St. Gallerstrasse","postalCode":"8488","locality":"Turbenthal","commune":{"key":"228","name":"Turbenthal","shortName":"Turbenthal"},"district":{"key":"110","name":"Bezirk Winterthur"},"canton":{"key":"1","code":"ZH","name":"Zürich"},"status":"Real"},{"key":"10156965","name":"Am Bichelsee","postalCode":"8488","locality":"Turbenthal","commune":{"key":"228","name":"Turbenthal","shortName":"Turbenthal"},"district":{"key":"110","name":"Bezirk Winterthur"},"canton":{"key":"1","code":"ZH","name":"Zürich"},"status":"Real"},{"key":"10105192","name":"Am Chatzenbach","postalCode":"8488","locality":"Turbenthal","commune":{"key":"228","name":"Turbenthal","shortName":"Turbenthal"},"district":{"key":"110","name":"Bezirk Winterthur"},"canton":{"key":"1","code":"ZH","name":"Zürich"},"status":"Real"},{"key":"10085807","name":"Am Chueribuck","postalCode":"8488","locality":"Turbenthal","commune":{"key":"228","name":"Turbenthal","shortName":"Turbenthal"},"district":{"key":"110","name":"Bezirk Winterthur"},"canton":{"key":"1","code":"ZH","name":"Zürich"},"status":"Real"},{"key":"10151390","name":"Am Setzibach","postalCode":"8488","locality":"Turbenthal","commune":{"key":"228","name":"Turbenthal","shortName":"Turbenthal"},"district":{"key":"110","name":"Bezirk Winterthur"},"canton":{"key":"1","code":"ZH","name":"Zürich"},"status":"Real"},{"key":"10060375","name":"Bahnhofplatz","postalCode":"8488","locality":"Turbenthal","commune":{"key":"228","name":"Turbenthal","shortName":"Turbenthal"},"district":{"key":"110","name":"Bezirk Winterthur"},"canton":{"key":"1","code":"ZH","name":"Zürich"},"status":"Real"},{"key":"10008593","name":"Bahnhofstrasse","postalCode":"8488","locality":"Turbenthal","commune":{"key":"228","name":"Turbenthal","shortName":"Turbenthal"},"district":{"key":"110","name":"Bezirk Winterthur"},"canton":{"key":"1","code":"ZH","name":"Zürich"},"status":"Real"},{"key":"10110100","name":"Bahnweg","postalCode":"8488","locality":"Turbenthal","commune":{"key":"228","name":"Turbenthal","shortName":"Turbenthal"},"district":{"key":"110","name":"Bezirk Winterthur"},"canton":{"key":"1","code":"ZH","name":"Zürich"},"status":"Real"},{"key":"10184063","name":"Beerberg","postalCode":"8488","locality":"Turbenthal","commune":{"key":"228","name":"Turbenthal","shortName":"Turbenthal"},"district":{"key":"110","name":"Bezirk Winterthur"},"canton":{"key":"1","code":"ZH","name":"Zürich"},"status":"Real"},{"key":"10008594","name":"Beerbergstrasse","postalCode":"8488","locality":"Turbenthal","commune":{"key":"228","name":"Turbenthal","shortName":"Turbenthal"},"district":{"key":"110","name":"Bezirk Winterthur"},"canton":{"key":"1","code":"ZH","name":"Zürich"},"status":"Real"},{"key":"10064271","name":"Berg","postalCode":"8488","locality":"Turbenthal","commune":{"key":"228","name":"Turbenthal","shortName":"Turbenthal"},"district":{"key":"110","name":"Bezirk Winterthur"},"canton":{"key":"1","code":"ZH","name":"Zürich"},"status":"Real"},{"key":"10177484","name":"Berghof","postalCode":"8488","locality":"Turbenthal","commune":{"key":"228","name":"Turbenthal","shortName":"Turbenthal"},"district":{"key":"110","name":"Bezirk Winterthur"},"canton":{"key":"1","code":"ZH","name":"Zürich"},"status":"Real"},{"key":"10085808","name":"Breitlandenberg","postalCode":"8488","locality":"Turbenthal","commune":{"key":"228","name":"Turbenthal","shortName":"Turbenthal"},"district":{"key":"110","name":"Bezirk Winterthur"},"canton":{"key":"1","code":"ZH","name":"Zürich"},"status":"Real"},{"key":"10064272","name":"Bruggackerweg","postalCode":"8488","locality":"Turbenthal","commune":{"key":"228","name":"Turbenthal","shortName":"Turbenthal"},"district":{"key":"110","name":"Bezirk Winterthur"},"canton":{"key":"1","code":"ZH","name":"Zürich"},"status":"Real"},{"key":"10187471","name":"Bühl","postalCode":"8488","locality":"Turbenthal","commune":{"key":"228","name":"Turbenthal","shortName":"Turbenthal"},"district":{"key":"110","name":"Bezirk Winterthur"},"canton":{"key":"1","code":"ZH","name":"Zürich"},"status":"Real"},{"key":"10205965","name":"Chäferweg","postalCode":"8488","locality":"Turbenthal","commune":{"key":"228","name":"Turbenthal","shortName":"Turbenthal"},"district":{"key":"110","name":"Bezirk Winterthur"},"canton":{"key":"1","code":"ZH","name":"Zürich"},"status":"Real"},{"key":"10195475","name":"Chämibachtobelweg","postalCode":"8488","locality":"Turbenthal","commune":{"key":"228","name":"Turbenthal","shortName":"Turbenthal"},"district":{"key":"110","name":"Bezirk Winterthur"},"canton":{"key":"1","code":"ZH","name":"Zürich"},"status":"Real"},{"key":"10199695","name":"Dorfstrasse","postalCode":"8488","locality":"Turbenthal","commune":{"key":"228","name":"Turbenthal","shortName":"Turbenthal"},"district":{"key":"110","name":"Bezirk Winterthur"},"canton":{"key":"1","code":"ZH","name":"Zürich"},"status":"Real"},{"key":"10008595","name":"Ebnet","postalCode":"8488","locality":"Turbenthal","commune":{"key":"228","name":"Turbenthal","shortName":"Turbenthal"},"district":{"key":"110","name":"Bezirk Winterthur"},"canton":{"key":"1","code":"ZH","name":"Zürich"},"status":"Real"},{"key":"10195477","name":"Einsamkeitweg","postalCode":"8488","locality":"Turbenthal","commune":{"key":"228","name":"Turbenthal","shortName":"Turbenthal"},"district":{"key":"110","name":"Bezirk Winterthur"},"canton":{"key":"1","code":"ZH","name":"Zürich"},"status":"Real"},{"key":"10182166","name":"Feldstrasse","postalCode":"8488","locality":"Turbenthal","commune":{"key":"228","name":"Turbenthal","shortName":"Turbenthal"},"district":{"key":"110","name":"Bezirk Winterthur"},"canton":{"key":"1","code":"ZH","name":"Zürich"},"status":"Real"},{"key":"10008596","name":"Fridtalweg","postalCode":"8488","locality":"Turbenthal","commune":{"key":"228","name":"Turbenthal","shortName":"Turbenthal"},"district":{"key":"110","name":"Bezirk Winterthur"},"canton":{"key":"1","code":"ZH","name":"Zürich"},"status":"Real"},{"key":"10127275","name":"Friedhofweg","postalCode":"8488","locality":"Turbenthal","commune":{"key":"228","name":"Turbenthal","shortName":"Turbenthal"},"district":{"key":"110","name":"Bezirk Winterthur"},"canton":{"key":"1","code":"ZH","name":"Zürich"},"status":"Real"},{"key":"10116890","name":"Frohwiesweg","postalCode":"8488","locality":"Turbenthal","commune":{"key":"228","name":"Turbenthal","shortName":"Turbenthal"},"district":{"key":"110","name":"Bezirk Winterthur"},"canton":{"key":"1","code":"ZH","name":"Zürich"},"status":"Real"},{"key":"10195478","name":"Galenbuechstrasse","postalCode":"8488","locality":"Turbenthal","commune":{"key":"228","name":"Turbenthal","shortName":"Turbenthal"},"district":{"key":"110","name":"Bezirk Winterthur"},"canton":{"key":"1","code":"ZH","name":"Zürich"},"status":"Real"},{"key":"10249544","name":"Gartenweg","postalCode":"8488","locality":"Turbenthal","commune":{"key":"228","name":"Turbenthal","shortName":"Turbenthal"},"district":{"key":"110","name":"Bezirk Winterthur"},"canton":{"key":"1","code":"ZH","name":"Zürich"},"status":"Real"},{"key":"10085809","name":"Gassacherstrasse","postalCode":"8488","locality":"Turbenthal","commune":{"key":"228","name":"Turbenthal","shortName":"Turbenthal"},"district":{"key":"110","name":"Bezirk Winterthur"},"canton":{"key":"1","code":"ZH","name":"Zürich"},"status":"Real"},{"key":"10064273","name":"Girenbad","postalCode":"8488","locality":"Turbenthal","commune":{"key":"228","name":"Turbenthal","shortName":"Turbenthal"},"district":{"key":"110","name":"Bezirk Winterthur"},"canton":{"key":"1","code":"ZH","name":"Zürich"},"status":"Real"},{"key":"10007653","name":"Girenbadstrasse","postalCode":"8488","locality":"Turbenthal","commune":{"key":"228","name":"Turbenthal","shortName":"Turbenthal"},"district":{"key":"110","name":"Bezirk Winterthur"},"canton":{"key":"1","code":"ZH","name":"Zürich"},"status":"Real"},{"key":"10007655","name":"Grundstrasse","postalCode":"8488","locality":"Turbenthal","commune":{"key":"228","name":"Turbenthal","shortName":"Turbenthal"},"district":{"key":"110","name":"Bezirk Winterthur"},"canton":{"key":"1","code":"ZH","name":"Zürich"},"status":"Real"},{"key":"10110101","name":"Hängetenstrasse","postalCode":"8488","locality":"Turbenthal","commune":{"key":"228","name":"Turbenthal","shortName":"Turbenthal"},"district":{"key":"110","name":"Bezirk Winterthur"},"canton":{"key":"1","code":"ZH","name":"Zürich"},"status":"Real"},{"key":"10182259","name":"Heerwiesweg","postalCode":"8488","locality":"Turbenthal","commune":{"key":"228","name":"Turbenthal","shortName":"Turbenthal"},"district":{"key":"110","name":"Bezirk Winterthur"},"canton":{"key":"1","code":"ZH","name":"Zürich"},"status":"Real"},{"key":"10195483","name":"Hegiweg","postalCode":"8488","locality":"Turbenthal","commune":{"key":"228","name":"Turbenthal","shortName":"Turbenthal"},"district":{"key":"110","name":"Bezirk Winterthur"},"canton":{"key":"1","code":"ZH","name":"Zürich"},"status":"Real"},{"key":"10007656","name":"Hermetsbüelstrasse","postalCode":"8488","locality":"Turbenthal","commune":{"key":"228","name":"Turbenthal","shortName":"Turbenthal"},"district":{"key":"110","name":"Bezirk Winterthur"},"canton":{"key":"1","code":"ZH","name":"Zürich"},"status":"Real"},{"key":"10195484","name":"Hinterdorfstrasse","postalCode":"8488","locality":"Turbenthal","commune":{"key":"228","name":"Turbenthal","shortName":"Turbenthal"},"district":{"key":"110","name":"Bezirk Winterthur"},"canton":{"key":"1","code":"ZH","name":"Zürich"},"status":"Real"},{"key":"10052074","name":"Hofstetten","postalCode":"8488","locality":"Turbenthal","commune":{"key":"228","name":"Turbenthal","shortName":"Turbenthal"},"district":{"key":"110","name":"Bezirk Winterthur"},"canton":{"key":"1","code":"ZH","name":"Zürich"},"status":"Real"},{"key":"10195486","name":"Hofstettenstrasse","postalCode":"8488","locality":"Turbenthal","commune":{"key":"228","name":"Turbenthal","shortName":"Turbenthal"},"district":{"key":"110","name":"Bezirk Winterthur"},"canton":{"key":"1","code":"ZH","name":"Zürich"},"status":"Real"},{"key":"10064274","name":"Hofwiesweg","postalCode":"8488","locality":"Turbenthal","commune":{"key":"228","name":"Turbenthal","shortName":"Turbenthal"},"district":{"key":"110","name":"Bezirk Winterthur"},"canton":{"key":"1","code":"ZH","name":"Zürich"},"status":"Real"},{"key":"10182167","name":"Hohmattring","postalCode":"8488","locality":"Turbenthal","commune":{"key":"228","name":"Turbenthal","shortName":"Turbenthal"},"district":{"key":"110","name":"Bezirk Winterthur"},"canton":{"key":"1","code":"ZH","name":"Zürich"},"status":"Real"},{"key":"10195487","name":"Hübschholzstrasse","postalCode":"8488","locality":"Turbenthal","commune":{"key":"228","name":"Turbenthal","shortName":"Turbenthal"},"district":{"key":"110","name":"Bezirk Winterthur"},"canton":{"key":"1","code":"ZH","name":"Zürich"},"status":"Real"},{"key":"10195488","name":"Huggenstigweg","postalCode":"8488","locality":"Turbenthal","commune":{"key":"228","name":"Turbenthal","shortName":"Turbenthal"},"district":{"key":"110","name":"Bezirk Winterthur"},"canton":{"key":"1","code":"ZH","name":"Zürich"},"status":"Real"},{"key":"10195489","name":"Hundbühlweg","postalCode":"8488","locality":"Turbenthal","commune":{"key":"228","name":"Turbenthal","shortName":"Turbenthal"},"district":{"key":"110","name":"Bezirk Winterthur"},"canton":{"key":"1","code":"ZH","name":"Zürich"},"status":"Real"},{"key":"10085810","name":"Hutzikerstrasse","postalCode":"8488","locality":"Turbenthal","commune":{"key":"228","name":"Turbenthal","shortName":"Turbenthal"},"district":{"key":"110","name":"Bezirk Winterthur"},"canton":{"key":"1","code":"ZH","name":"Zürich"},"status":"Real"},{"key":"10195491","name":"Hutzikertobelweg","postalCode":"8488","locality":"Turbenthal","commune":{"key":"228","name":"Turbenthal","shortName":"Turbenthal"},"district":{"key":"110","name":"Bezirk Winterthur"},"canton":{"key":"1","code":"ZH","name":"Zürich"},"status":"Real"},{"key":"10108552","name":"Hutzikon","postalCode":"8488","locality":"Turbenthal","commune":{"key":"228","name":"Turbenthal","shortName":"Turbenthal"},"district":{"key":"110","name":"Bezirk Winterthur"},"canton":{"key":"1","code":"ZH","name":"Zürich"},"status":"Real"},{"key":"10171429","name":"Im Lee","postalCode":"8488","locality":"Turbenthal","commune":{"key":"228","name":"Turbenthal","shortName":"Turbenthal"},"district":{"key":"110","name":"Bezirk Winterthur"},"canton":{"key":"1","code":"ZH","name":"Zürich"},"status":"Real"},{"key":"10007657","name":"Im Rain","postalCode":"8488","locality":"Turbenthal","commune":{"key":"228","name":"Turbenthal","shortName":"Turbenthal"},"district":{"key":"110","name":"Bezirk Winterthur"},"canton":{"key":"1","code":"ZH","name":"Zürich"},"status":"Real"},{"key":"10007660","name":"Käfer","postalCode":"8488","locality":"Turbenthal","commune":{"key":"228","name":"Turbenthal","shortName":"Turbenthal"},"district":{"key":"110","name":"Bezirk Winterthur"},"canton":{"key":"1","code":"ZH","name":"Zürich"},"status":"Real"},{"key":"10199692","name":"Käferstrasse","postalCode":"8488","locality":"Turbenthal","commune":{"key":"228","name":"Turbenthal","shortName":"Turbenthal"},"district":{"key":"110","name":"Bezirk Winterthur"},"canton":{"key":"1","code":"ZH","name":"Zürich"},"status":"Real"},{"key":"10112237","name":"Kanalwiese","postalCode":"8488","locality":"Turbenthal","commune":{"key":"228","name":"Turbenthal","shortName":"Turbenthal"},"district":{"key":"110","name":"Bezirk Winterthur"},"canton":{"key":"1","code":"ZH","name":"Zürich"},"status":"Real"},{"key":"10105193","name":"Käppeliweg","postalCode":"8488","locality":"Turbenthal","commune":{"key":"228","name":"Turbenthal","shortName":"Turbenthal"},"district":{"key":"110","name":"Bezirk Winterthur"},"canton":{"key":"1","code":"ZH","name":"Zürich"},"status":"Real"},{"key":"10007659","name":"Kehlhofweg","postalCode":"8488","locality":"Turbenthal","commune":{"key":"228","name":"Turbenthal","shortName":"Turbenthal"},"district":{"key":"110","name":"Bezirk Winterthur"},"canton":{"key":"1","code":"ZH","name":"Zürich"},"status":"Real"},{"key":"10117602","name":"Kehriweg","postalCode":"8488","locality":"Turbenthal","commune":{"key":"228","name":"Turbenthal","shortName":"Turbenthal"},"district":{"key":"110","name":"Bezirk Winterthur"},"canton":{"key":"1","code":"ZH","name":"Zürich"},"status":"Real"},{"key":"10195492","name":"Kellersackerweg","postalCode":"8488","locality":"Turbenthal","commune":{"key":"228","name":"Turbenthal","shortName":"Turbenthal"},"district":{"key":"110","name":"Bezirk Winterthur"},"canton":{"key":"1","code":"ZH","name":"Zürich"},"status":"Real"},{"key":"10007945","name":"Kümberg","postalCode":"8488","locality":"Turbenthal","commune":{"key":"228","name":"Turbenthal","shortName":"Turbenthal"},"district":{"key":"110","name":"Bezirk Winterthur"},"canton":{"key":"1","code":"ZH","name":"Zürich"},"status":"Real"},{"key":"10195493","name":"Landenbergfussweg","postalCode":"8488","locality":"Turbenthal","commune":{"key":"228","name":"Turbenthal","shortName":"Turbenthal"},"district":{"key":"110","name":"Bezirk Winterthur"},"canton":{"key":"1","code":"ZH","name":"Zürich"},"status":"Real"},{"key":"10115012","name":"Landenbergweg","postalCode":"8488","locality":"Turbenthal","commune":{"key":"228","name":"Turbenthal","shortName":"Turbenthal"},"district":{"key":"110","name":"Bezirk Winterthur"},"canton":{"key":"1","code":"ZH","name":"Zürich"},"status":"Real"},{"key":"10195494","name":"Landenbergweg Ost","postalCode":"8488","locality":"Turbenthal","commune":{"key":"228","name":"Turbenthal","shortName":"Turbenthal"},"district":{"key":"110","name":"Bezirk Winterthur"},"canton":{"key":"1","code":"ZH","name":"Zürich"},"status":"Real"},{"key":"10165794","name":"Langackersteig","postalCode":"8488","locality":"Turbenthal","commune":{"key":"228","name":"Turbenthal","shortName":"Turbenthal"},"district":{"key":"110","name":"Bezirk Winterthur"},"canton":{"key":"1","code":"ZH","name":"Zürich"},"status":"Real"},{"key":"10195495","name":"Länggiweg","postalCode":"8488","locality":"Turbenthal","commune":{"key":"228","name":"Turbenthal","shortName":"Turbenthal"},"district":{"key":"110","name":"Bezirk Winterthur"},"canton":{"key":"1","code":"ZH","name":"Zürich"},"status":"Real"},{"key":"10175275","name":"Leerüti","postalCode":"8488","locality":"Turbenthal","commune":{"key":"228","name":"Turbenthal","shortName":"Turbenthal"},"district":{"key":"110","name":"Bezirk Winterthur"},"canton":{"key":"1","code":"ZH","name":"Zürich"},"status":"Real"},{"key":"10195496","name":"Leerütistrasse","postalCode":"8488","locality":"Turbenthal","commune":{"key":"228","name":"Turbenthal","shortName":"Turbenthal"},"district":{"key":"110","name":"Bezirk Winterthur"},"canton":{"key":"1","code":"ZH","name":"Zürich"},"status":"Real"},{"key":"10195497","name":"Leeweg","postalCode":"8488","locality":"Turbenthal","commune":{"key":"228","name":"Turbenthal","shortName":"Turbenthal"},"district":{"key":"110","name":"Bezirk Winterthur"},"canton":{"key":"1","code":"ZH","name":"Zürich"},"status":"Real"},{"key":"10195498","name":"Leiterenweg","postalCode":"8488","locality":"Turbenthal","commune":{"key":"228","name":"Turbenthal","shortName":"Turbenthal"},"district":{"key":"110","name":"Bezirk Winterthur"},"canton":{"key":"1","code":"ZH","name":"Zürich"},"status":"Real"},{"key":"10195499","name":"Lettenbergstrasse","postalCode":"8488","locality":"Turbenthal","commune":{"key":"228","name":"Turbenthal","shortName":"Turbenthal"},"district":{"key":"110","name":"Bezirk Winterthur"},"canton":{"key":"1","code":"ZH","name":"Zürich"},"status":"Real"},{"key":"10195500","name":"Lettenbergweg","postalCode":"8488","locality":"Turbenthal","commune":{"key":"228","name":"Turbenthal","shortName":"Turbenthal"},"district":{"key":"110","name":"Bezirk Winterthur"},"canton":{"key":"1","code":"ZH","name":"Zürich"},"status":"Real"},{"key":"10085811","name":"Lettenweg","postalCode":"8488","locality":"Turbenthal","commune":{"key":"228","name":"Turbenthal","shortName":"Turbenthal"},"district":{"key":"110","name":"Bezirk Winterthur"},"canton":{"key":"1","code":"ZH","name":"Zürich"},"status":"Real"},{"key":"10182168","name":"Lettenzälgweg","postalCode":"8488","locality":"Turbenthal","commune":{"key":"228","name":"Turbenthal","shortName":"Turbenthal"},"district":{"key":"110","name":"Bezirk Winterthur"},"canton":{"key":"1","code":"ZH","name":"Zürich"},"status":"Real"},{"key":"10064276","name":"Lindenweg","postalCode":"8488","locality":"Turbenthal","commune":{"key":"228","name":"Turbenthal","shortName":"Turbenthal"},"district":{"key":"110","name":"Bezirk Winterthur"},"canton":{"key":"1","code":"ZH","name":"Zürich"},"status":"Real"},{"key":"10195501","name":"Lobenstelstrasse","postalCode":"8488","locality":"Turbenthal","commune":{"key":"228","name":"Turbenthal","shortName":"Turbenthal"},"district":{"key":"110","name":"Bezirk Winterthur"},"canton":{"key":"1","code":"ZH","name":"Zürich"},"status":"Real"},{"key":"10155503","name":"Loch","postalCode":"8488","locality":"Turbenthal","commune":{"key":"228","name":"Turbenthal","shortName":"Turbenthal"},"district":{"key":"110","name":"Bezirk Winterthur"},"canton":{"key":"1","code":"ZH","name":"Zürich"},"status":"Real"},{"key":"10007946","name":"Mettlenstrasse","postalCode":"8488","locality":"Turbenthal","commune":{"key":"228","name":"Turbenthal","shortName":"Turbenthal"},"district":{"key":"110","name":"Bezirk Winterthur"},"canton":{"key":"1","code":"ZH","name":"Zürich"},"status":"Real"},{"key":"10127277","name":"Migrosweg","postalCode":"8488","locality":"Turbenthal","commune":{"key":"228","name":"Turbenthal","shortName":"Turbenthal"},"district":{"key":"110","name":"Bezirk Winterthur"},"canton":{"key":"1","code":"ZH","name":"Zürich"},"status":"Real"},{"key":"10066236","name":"Mühlau","postalCode":"8488","locality":"Turbenthal","commune":{"key":"228","name":"Turbenthal","shortName":"Turbenthal"},"district":{"key":"110","name":"Bezirk Winterthur"},"canton":{"key":"1","code":"ZH","name":"Zürich"},"status":"Real"},{"key":"10007947","name":"Mühleweg","postalCode":"8488","locality":"Turbenthal","commune":{"key":"228","name":"Turbenthal","shortName":"Turbenthal"},"district":{"key":"110","name":"Bezirk Winterthur"},"canton":{"key":"1","code":"ZH","name":"Zürich"},"status":"Real"},{"key":"10085812","name":"Neubrunn","postalCode":"8488","locality":"Turbenthal","commune":{"key":"228","name":"Turbenthal","shortName":"Turbenthal"},"district":{"key":"110","name":"Bezirk Winterthur"},"canton":{"key":"1","code":"ZH","name":"Zürich"},"status":"Real"},{"key":"10195502","name":"Neubrunnerstrasse","postalCode":"8488","locality":"Turbenthal","commune":{"key":"228","name":"Turbenthal","shortName":"Turbenthal"},"district":{"key":"110","name":"Bezirk Winterthur"},"canton":{"key":"1","code":"ZH","name":"Zürich"},"status":"Real"},{"key":"10007948","name":"Neugrüt","postalCode":"8488","locality":"Turbenthal","commune":{"key":"228","name":"Turbenthal","shortName":"Turbenthal"},"district":{"key":"110","name":"Bezirk Winterthur"},"canton":{"key":"1","code":"ZH","name":"Zürich"},"status":"Real"},{"key":"10195503","name":"Neugrütstrasse","postalCode":"8488","locality":"Turbenthal","commune":{"key":"228","name":"Turbenthal","shortName":"Turbenthal"},"district":{"key":"110","name":"Bezirk Winterthur"},"canton":{"key":"1","code":"ZH","name":"Zürich"},"status":"Real"},{"key":"10064277","name":"Niederdorfweg","postalCode":"8488","locality":"Turbenthal","commune":{"key":"228","name":"Turbenthal","shortName":"Turbenthal"},"district":{"key":"110","name":"Bezirk Winterthur"},"canton":{"key":"1","code":"ZH","name":"Zürich"},"status":"Real"},{"key":"10195504","name":"Nordstrasse","postalCode":"8488","locality":"Turbenthal","commune":{"key":"228","name":"Turbenthal","shortName":"Turbenthal"},"district":{"key":"110","name":"Bezirk Winterthur"},"canton":{"key":"1","code":"ZH","name":"Zürich"},"status":"Real"},{"key":"10195505","name":"Oberdorfstrasse","postalCode":"8488","locality":"Turbenthal","commune":{"key":"228","name":"Turbenthal","shortName":"Turbenthal"},"district":{"key":"110","name":"Bezirk Winterthur"},"canton":{"key":"1","code":"ZH","name":"Zürich"},"status":"Real"},{"key":"10125739","name":"Oberer Langackerweg","postalCode":"8488","locality":"Turbenthal","commune":{"key":"228","name":"Turbenthal","shortName":"Turbenthal"},"district":{"key":"110","name":"Bezirk Winterthur"},"canton":{"key":"1","code":"ZH","name":"Zürich"},"status":"Real"},{"key":"10195506","name":"Obergassweg","postalCode":"8488","locality":"Turbenthal","commune":{"key":"228","name":"Turbenthal","shortName":"Turbenthal"},"district":{"key":"110","name":"Bezirk Winterthur"},"canton":{"key":"1","code":"ZH","name":"Zürich"},"status":"Real"},{"key":"10081260","name":"Oberhofen","postalCode":"8488","locality":"Turbenthal","commune":{"key":"228","name":"Turbenthal","shortName":"Turbenthal"},"district":{"key":"110","name":"Bezirk Winterthur"},"canton":{"key":"1","code":"ZH","name":"Zürich"},"status":"Real"},{"key":"10195507","name":"Oberholzweg","postalCode":"8488","locality":"Turbenthal","commune":{"key":"228","name":"Turbenthal","shortName":"Turbenthal"},"district":{"key":"110","name":"Bezirk Winterthur"},"canton":{"key":"1","code":"ZH","name":"Zürich"},"status":"Real"},{"key":"10007949","name":"Oberschreizen","postalCode":"8488","locality":"Turbenthal","commune":{"key":"228","name":"Turbenthal","shortName":"Turbenthal"},"district":{"key":"110","name":"Bezirk Winterthur"},"canton":{"key":"1","code":"ZH","name":"Zürich"},"status":"Real"},{"key":"10081261","name":"Oberspitzwies","postalCode":"8488","locality":"Turbenthal","commune":{"key":"228","name":"Turbenthal","shortName":"Turbenthal"},"district":{"key":"110","name":"Bezirk Winterthur"},"canton":{"key":"1","code":"ZH","name":"Zürich"},"status":"Real"},{"key":"10195508","name":"Oberspitzwiesstrasse","postalCode":"8488","locality":"Turbenthal","commune":{"key":"228","name":"Turbenthal","shortName":"Turbenthal"},"district":{"key":"110","name":"Bezirk Winterthur"},"canton":{"key":"1","code":"ZH","name":"Zürich"},"status":"Real"},{"key":"10244034","name":"Panoramastrasse","postalCode":"8488","locality":"Turbenthal","commune":{"key":"228","name":"Turbenthal","shortName":"Turbenthal"},"district":{"key":"110","name":"Bezirk Winterthur"},"canton":{"key":"1","code":"ZH","name":"Zürich"},"status":"Real"},{"key":"10195510","name":"Radweg","postalCode":"8488","locality":"Turbenthal","commune":{"key":"228","name":"Turbenthal","shortName":"Turbenthal"},"district":{"key":"110","name":"Bezirk Winterthur"},"canton":{"key":"1","code":"ZH","name":"Zürich"},"status":"Real"},{"key":"10064278","name":"Ramsberg","postalCode":"8488","locality":"Turbenthal","commune":{"key":"228","name":"Turbenthal","shortName":"Turbenthal"},"district":{"key":"110","name":"Bezirk Winterthur"},"canton":{"key":"1","code":"ZH","name":"Zürich"},"status":"Real"},{"key":"10007950","name":"Ramsbergstrasse","postalCode":"8488","locality":"Turbenthal","commune":{"key":"228","name":"Turbenthal","shortName":"Turbenthal"},"district":{"key":"110","name":"Bezirk Winterthur"},"canton":{"key":"1","code":"ZH","name":"Zürich"},"status":"Real"},{"key":"10007951","name":"Risistrasse","postalCode":"8488","locality":"Turbenthal","commune":{"key":"228","name":"Turbenthal","shortName":"Turbenthal"},"district":{"key":"110","name":"Bezirk Winterthur"},"canton":{"key":"1","code":"ZH","name":"Zürich"},"status":"Real"},{"key":"10064279","name":"Rossweid","postalCode":"8488","locality":"Turbenthal","commune":{"key":"228","name":"Turbenthal","shortName":"Turbenthal"},"district":{"key":"110","name":"Bezirk Winterthur"},"canton":{"key":"1","code":"ZH","name":"Zürich"},"status":"Real"},{"key":"10108954","name":"Rüetschberg","postalCode":"8488","locality":"Turbenthal","commune":{"key":"228","name":"Turbenthal","shortName":"Turbenthal"},"district":{"key":"110","name":"Bezirk Winterthur"},"canton":{"key":"1","code":"ZH","name":"Zürich"},"status":"Real"},{"key":"10195512","name":"Rüetschbergstrasse","postalCode":"8488","locality":"Turbenthal","commune":{"key":"228","name":"Turbenthal","shortName":"Turbenthal"},"district":{"key":"110","name":"Bezirk Winterthur"},"canton":{"key":"1","code":"ZH","name":"Zürich"},"status":"Real"},{"key":"10052075","name":"Sack","postalCode":"8488","locality":"Turbenthal","commune":{"key":"228","name":"Turbenthal","shortName":"Turbenthal"},"district":{"key":"110","name":"Bezirk Winterthur"},"canton":{"key":"1","code":"ZH","name":"Zürich"},"status":"Real"},{"key":"10182169","name":"Sandplatte","postalCode":"8488","locality":"Turbenthal","commune":{"key":"228","name":"Turbenthal","shortName":"Turbenthal"},"district":{"key":"110","name":"Bezirk Winterthur"},"canton":{"key":"1","code":"ZH","name":"Zürich"},"status":"Real"},{"key":"10195516","name":"Schlattstrasse","postalCode":"8488","locality":"Turbenthal","commune":{"key":"228","name":"Turbenthal","shortName":"Turbenthal"},"district":{"key":"110","name":"Bezirk Winterthur"},"canton":{"key":"1","code":"ZH","name":"Zürich"},"status":"Real"},{"key":"10081262","name":"Schnurrberg","postalCode":"8488","locality":"Turbenthal","commune":{"key":"228","name":"Turbenthal","shortName":"Turbenthal"},"district":{"key":"110","name":"Bezirk Winterthur"},"canton":{"key":"1","code":"ZH","name":"Zürich"},"status":"Real"},{"key":"10195747","name":"Schreizenstrasse","postalCode":"8488","locality":"Turbenthal","commune":{"key":"228","name":"Turbenthal","shortName":"Turbenthal"},"district":{"key":"110","name":"Bezirk Winterthur"},"canton":{"key":"1","code":"ZH","name":"Zürich"},"status":"Real"},{"key":"10007952","name":"Schulstrasse","postalCode":"8488","locality":"Turbenthal","commune":{"key":"228","name":"Turbenthal","shortName":"Turbenthal"},"district":{"key":"110","name":"Bezirk Winterthur"},"canton":{"key":"1","code":"ZH","name":"Zürich"},"status":"Real"},{"key":"10127279","name":"Schulweg","postalCode":"8488","locality":"Turbenthal","commune":{"key":"228","name":"Turbenthal","shortName":"Turbenthal"},"district":{"key":"110","name":"Bezirk Winterthur"},"canton":{"key":"1","code":"ZH","name":"Zürich"},"status":"Real"},{"key":"10081263","name":"Schürstrasse","postalCode":"8488","locality":"Turbenthal","commune":{"key":"228","name":"Turbenthal","shortName":"Turbenthal"},"district":{"key":"110","name":"Bezirk Winterthur"},"canton":{"key":"1","code":"ZH","name":"Zürich"},"status":"Real"},{"key":"10057354","name":"Schützenweg","postalCode":"8488","locality":"Turbenthal","commune":{"key":"228","name":"Turbenthal","shortName":"Turbenthal"},"district":{"key":"110","name":"Bezirk Winterthur"},"canton":{"key":"1","code":"ZH","name":"Zürich"},"status":"Real"},{"key":"10110102","name":"Schwanenweg","postalCode":"8488","locality":"Turbenthal","commune":{"key":"228","name":"Turbenthal","shortName":"Turbenthal"},"district":{"key":"110","name":"Bezirk Winterthur"},"canton":{"key":"1","code":"ZH","name":"Zürich"},"status":"Real"},{"key":"10007953","name":"Seelmatten","postalCode":"8488","locality":"Turbenthal","commune":{"key":"228","name":"Turbenthal","shortName":"Turbenthal"},"district":{"key":"110","name":"Bezirk Winterthur"},"canton":{"key":"1","code":"ZH","name":"Zürich"},"status":"Real"},{"key":"10007954","name":"Setziweg","postalCode":"8488","locality":"Turbenthal","commune":{"key":"228","name":"Turbenthal","shortName":"Turbenthal"},"district":{"key":"110","name":"Bezirk Winterthur"},"canton":{"key":"1","code":"ZH","name":"Zürich"},"status":"Real"},{"key":"10195749","name":"Sitzbergstrasse","postalCode":"8488","locality":"Turbenthal","commune":{"key":"228","name":"Turbenthal","shortName":"Turbenthal"},"district":{"key":"110","name":"Bezirk Winterthur"},"canton":{"key":"1","code":"ZH","name":"Zürich"},"status":"Real"},{"key":"10052346","name":"Sonnenberg","postalCode":"8488","locality":"Turbenthal","commune":{"key":"228","name":"Turbenthal","shortName":"Turbenthal"},"district":{"key":"110","name":"Bezirk Winterthur"},"canton":{"key":"1","code":"ZH","name":"Zürich"},"status":"Real"},{"key":"10175593","name":"Sonnenbergstrasse","postalCode":"8488","locality":"Turbenthal","commune":{"key":"228","name":"Turbenthal","shortName":"Turbenthal"},"district":{"key":"110","name":"Bezirk Winterthur"},"canton":{"key":"1","code":"ZH","name":"Zürich"},"status":"Real"},{"key":"10127281","name":"Sonnenbergweg","postalCode":"8488","locality":"Turbenthal","commune":{"key":"228","name":"Turbenthal","shortName":"Turbenthal"},"district":{"key":"110","name":"Bezirk Winterthur"},"canton":{"key":"1","code":"ZH","name":"Zürich"},"status":"Real"},{"key":"10127284","name":"Sonnhaldenfussweg","postalCode":"8488","locality":"Turbenthal","commune":{"key":"228","name":"Turbenthal","shortName":"Turbenthal"},"district":{"key":"110","name":"Bezirk Winterthur"},"canton":{"key":"1","code":"ZH","name":"Zürich"},"status":"Real"},{"key":"10007955","name":"Sonnhaldenstrasse","postalCode":"8488","locality":"Turbenthal","commune":{"key":"228","name":"Turbenthal","shortName":"Turbenthal"},"district":{"key":"110","name":"Bezirk Winterthur"},"canton":{"key":"1","code":"ZH","name":"Zürich"},"status":"Real"},{"key":"10195750","name":"Stadtweg","postalCode":"8488","locality":"Turbenthal","commune":{"key":"228","name":"Turbenthal","shortName":"Turbenthal"},"district":{"key":"110","name":"Bezirk Winterthur"},"canton":{"key":"1","code":"ZH","name":"Zürich"},"status":"Real"},{"key":"10195751","name":"Steckenbodenweg","postalCode":"8488","locality":"Turbenthal","commune":{"key":"228","name":"Turbenthal","shortName":"Turbenthal"},"district":{"key":"110","name":"Bezirk Winterthur"},"canton":{"key":"1","code":"ZH","name":"Zürich"},"status":"Real"},{"key":"10182170","name":"Steinackerweg","postalCode":"8488","locality":"Turbenthal","commune":{"key":"228","name":"Turbenthal","shortName":"Turbenthal"},"district":{"key":"110","name":"Bezirk Winterthur"},"canton":{"key":"1","code":"ZH","name":"Zürich"},"status":"Real"},{"key":"10007956","name":"St. Gallerstrasse","postalCode":"8488","locality":"Turbenthal","commune":{"key":"228","name":"Turbenthal","shortName":"Turbenthal"},"district":{"key":"110","name":"Bezirk Winterthur"},"canton":{"key":"1","code":"ZH","name":"Zürich"},"status":"Real"},{"key":"10195755","name":"Telggweg","postalCode":"8488","locality":"Turbenthal","commune":{"key":"228","name":"Turbenthal","shortName":"Turbenthal"},"district":{"key":"110","name":"Bezirk Winterthur"},"canton":{"key":"1","code":"ZH","name":"Zürich"},"status":"Real"},{"key":"10195756","name":"Tobelstrasse","postalCode":"8488","locality":"Turbenthal","commune":{"key":"228","name":"Turbenthal","shortName":"Turbenthal"},"district":{"key":"110","name":"Bezirk Winterthur"},"canton":{"key":"1","code":"ZH","name":"Zürich"},"status":"Real"},{"key":"10127287","name":"Tösssteg","postalCode":"8488","locality":"Turbenthal","commune":{"key":"228","name":"Turbenthal","shortName":"Turbenthal"},"district":{"key":"110","name":"Bezirk Winterthur"},"canton":{"key":"1","code":"ZH","name":"Zürich"},"status":"Real"},{"key":"10057355","name":"Tösstalstrasse","postalCode":"8488","locality":"Turbenthal","commune":{"key":"228","name":"Turbenthal","shortName":"Turbenthal"},"district":{"key":"110","name":"Bezirk Winterthur"},"canton":{"key":"1","code":"ZH","name":"Zürich"},"status":"Real"},{"key":"10007957","name":"Tösswis","postalCode":"8488","locality":"Turbenthal","commune":{"key":"228","name":"Turbenthal","shortName":"Turbenthal"},"district":{"key":"110","name":"Bezirk Winterthur"},"canton":{"key":"1","code":"ZH","name":"Zürich"},"status":"Real"},{"key":"10081264","name":"Unterschreizen","postalCode":"8488","locality":"Turbenthal","commune":{"key":"228","name":"Turbenthal","shortName":"Turbenthal"},"district":{"key":"110","name":"Bezirk Winterthur"},"canton":{"key":"1","code":"ZH","name":"Zürich"},"status":"Real"},{"key":"10007958","name":"Unterspitzwies","postalCode":"8488","locality":"Turbenthal","commune":{"key":"228","name":"Turbenthal","shortName":"Turbenthal"},"district":{"key":"110","name":"Bezirk Winterthur"},"canton":{"key":"1","code":"ZH","name":"Zürich"},"status":"Real"},{"key":"10007959","name":"Usserdorfweg","postalCode":"8488","locality":"Turbenthal","commune":{"key":"228","name":"Turbenthal","shortName":"Turbenthal"},"district":{"key":"110","name":"Bezirk Winterthur"},"canton":{"key":"1","code":"ZH","name":"Zürich"},"status":"Real"},{"key":"10195759","name":"Vogeleggstrasse","postalCode":"8488","locality":"Turbenthal","commune":{"key":"228","name":"Turbenthal","shortName":"Turbenthal"},"district":{"key":"110","name":"Bezirk Winterthur"},"canton":{"key":"1","code":"ZH","name":"Zürich"},"status":"Real"},{"key":"10081265","name":"Vorderwiesweg","postalCode":"8488","locality":"Turbenthal","commune":{"key":"228","name":"Turbenthal","shortName":"Turbenthal"},"district":{"key":"110","name":"Bezirk Winterthur"},"canton":{"key":"1","code":"ZH","name":"Zürich"},"status":"Real"},{"key":"10195760","name":"Weidhofstrasse","postalCode":"8488","locality":"Turbenthal","commune":{"key":"228","name":"Turbenthal","shortName":"Turbenthal"},"district":{"key":"110","name":"Bezirk Winterthur"},"canton":{"key":"1","code":"ZH","name":"Zürich"},"status":"Real"},{"key":"10007960","name":"Wiesentalstrasse","postalCode":"8488","locality":"Turbenthal","commune":{"key":"228","name":"Turbenthal","shortName":"Turbenthal"},"district":{"key":"110","name":"Bezirk Winterthur"},"canton":{"key":"1","code":"ZH","name":"Zürich"},"status":"Real"},{"key":"10127290","name":"Wildbergstrasse","postalCode":"8488","locality":"Turbenthal","commune":{"key":"228","name":"Turbenthal","shortName":"Turbenthal"},"district":{"key":"110","name":"Bezirk Winterthur"},"canton":{"key":"1","code":"ZH","name":"Zürich"},"status":"Real"},{"key":"10007961","name":"Winkelweg","postalCode":"8488","locality":"Turbenthal","commune":{"key":"228","name":"Turbenthal","shortName":"Turbenthal"},"district":{"key":"110","name":"Bezirk Winterthur"},"canton":{"key":"1","code":"ZH","name":"Zürich"},"status":"Real"},{"key":"10114451","name":"Zihlackerring","postalCode":"8488","locality":"Turbenthal","commune":{"key":"228","name":"Turbenthal","shortName":"Turbenthal"},"district":{"key":"110","name":"Bezirk Winterthur"},"canton":{"key":"1","code":"ZH","name":"Zürich"},"status":"Real"},{"key":"10125740","name":"Zihlackerstrasse","postalCode":"8488","locality":"Turbenthal","commune":{"key":"228","name":"Turbenthal","shortName":"Turbenthal"},"district":{"key":"110","name":"Bezirk Winterthur"},"canton":{"key":"1","code":"ZH","name":"Zürich"},"status":"Real"},{"key":"10206882","name":"Äschgrund","postalCode":"8488","locality":"Turbenthal","commune":{"key":"228","name":"Turbenthal","shortName":"Turbenthal"},"district":{"key":"110","name":"Bezirk Winterthur"},"canton":{"key":"1","code":"ZH","name":"Zürich"},"status":"Real"},]