[{"key":"10117035","name":"Chemin Creux","postalCode":"1772","locality":"Ponthaux","commune":{"key":"2217","name":"Ponthaux","shortName":"Ponthaux"},"district":{"key":"1004","name":"District de la Sarine"},"canton":{"key":"10","code":"FR","name":"Fribourg / Freiburg"},"status":"Real"},{"key":"10080480","name":"Chemin de Chalosi","postalCode":"1772","locality":"Ponthaux","commune":{"key":"2217","name":"Ponthaux","shortName":"Ponthaux"},"district":{"key":"1004","name":"District de la Sarine"},"canton":{"key":"10","code":"FR","name":"Fribourg / Freiburg"},"status":"Real"},{"key":"10248195","name":"Chemin de Chalosy","postalCode":"1772","locality":"Ponthaux","commune":{"key":"2217","name":"Ponthaux","shortName":"Ponthaux"},"district":{"key":"1004","name":"District de la Sarine"},"canton":{"key":"10","code":"FR","name":"Fribourg / Freiburg"},"status":"Real"},{"key":"10171811","name":"Chemin de la Croix","postalCode":"1772","locality":"Ponthaux","commune":{"key":"2217","name":"Ponthaux","shortName":"Ponthaux"},"district":{"key":"1004","name":"District de la Sarine"},"canton":{"key":"10","code":"FR","name":"Fribourg / Freiburg"},"status":"Real"},{"key":"10161640","name":"Chemin de l'Eglise","postalCode":"1772","locality":"Ponthaux","commune":{"key":"2217","name":"Ponthaux","shortName":"Ponthaux"},"district":{"key":"1004","name":"District de la Sarine"},"canton":{"key":"10","code":"FR","name":"Fribourg / Freiburg"},"status":"Real"},{"key":"10253052","name":"Chemin de l'Oratoire","postalCode":"1772","locality":"Ponthaux","commune":{"key":"2217","name":"Ponthaux","shortName":"Ponthaux"},"district":{"key":"1004","name":"District de la Sarine"},"canton":{"key":"10","code":"FR","name":"Fribourg / Freiburg"},"status":"Real"},{"key":"10023250","name":"Chemin des Coires","postalCode":"1772","locality":"Ponthaux","commune":{"key":"2217","name":"Ponthaux","shortName":"Ponthaux"},"district":{"key":"1004","name":"District de la Sarine"},"canton":{"key":"10","code":"FR","name":"Fribourg / Freiburg"},"status":"Real"},{"key":"10051709","name":"Impasse des Jordils","postalCode":"1772","locality":"Ponthaux","commune":{"key":"2217","name":"Ponthaux","shortName":"Ponthaux"},"district":{"key":"1004","name":"District de la Sarine"},"canton":{"key":"10","code":"FR","name":"Fribourg / Freiburg"},"status":"Real"},{"key":"10187396","name":"Impasse Devant-la-Ville","postalCode":"1772","locality":"Ponthaux","commune":{"key":"2217","name":"Ponthaux","shortName":"Ponthaux"},"district":{"key":"1004","name":"District de la Sarine"},"canton":{"key":"10","code":"FR","name":"Fribourg / Freiburg"},"status":"Real"},{"key":"10190516","name":"Impasse du Genièvre","postalCode":"1772","locality":"Ponthaux","commune":{"key":"2217","name":"Ponthaux","shortName":"Ponthaux"},"district":{"key":"1004","name":"District de la Sarine"},"canton":{"key":"10","code":"FR","name":"Fribourg / Freiburg"},"status":"Real"},{"key":"10080478","name":"Impasse du Lavau","postalCode":"1772","locality":"Ponthaux","commune":{"key":"2217","name":"Ponthaux","shortName":"Ponthaux"},"district":{"key":"1004","name":"District de la Sarine"},"canton":{"key":"10","code":"FR","name":"Fribourg / Freiburg"},"status":"Real"},{"key":"10167260","name":"Impasse du Verger","postalCode":"1772","locality":"Ponthaux","commune":{"key":"2217","name":"Ponthaux","shortName":"Ponthaux"},"district":{"key":"1004","name":"District de la Sarine"},"canton":{"key":"10","code":"FR","name":"Fribourg / Freiburg"},"status":"Real"},{"key":"10152912","name":"Route de Grolley","postalCode":"1772","locality":"Ponthaux","commune":{"key":"2217","name":"Ponthaux","shortName":"Ponthaux"},"district":{"key":"1004","name":"District de la Sarine"},"canton":{"key":"10","code":"FR","name":"Fribourg / Freiburg"},"status":"Real"},{"key":"10170082","name":"Route de la Grama","postalCode":"1772","locality":"Ponthaux","commune":{"key":"2217","name":"Ponthaux","shortName":"Ponthaux"},"district":{"key":"1004","name":"District de la Sarine"},"canton":{"key":"10","code":"FR","name":"Fribourg / Freiburg"},"status":"Real"},{"key":"10023255","name":"Route de Montagny","postalCode":"1772","locality":"Ponthaux","commune":{"key":"2217","name":"Ponthaux","shortName":"Ponthaux"},"district":{"key":"1004","name":"District de la Sarine"},"canton":{"key":"10","code":"FR","name":"Fribourg / Freiburg"},"status":"Real"},{"key":"10120482","name":"Route de Nierlet","postalCode":"1772","locality":"Ponthaux","commune":{"key":"2217","name":"Ponthaux","shortName":"Ponthaux"},"district":{"key":"1004","name":"District de la Sarine"},"canton":{"key":"10","code":"FR","name":"Fribourg / Freiburg"},"status":"Real"},{"key":"10114925","name":"Route de Noréaz","postalCode":"1772","locality":"Ponthaux","commune":{"key":"2217","name":"Ponthaux","shortName":"Ponthaux"},"district":{"key":"1004","name":"District de la Sarine"},"canton":{"key":"10","code":"FR","name":"Fribourg / Freiburg"},"status":"Real"},{"key":"10023249","name":"Route des Combes","postalCode":"1772","locality":"Ponthaux","commune":{"key":"2217","name":"Ponthaux","shortName":"Ponthaux"},"district":{"key":"1004","name":"District de la Sarine"},"canton":{"key":"10","code":"FR","name":"Fribourg / Freiburg"},"status":"Real"},{"key":"10187397","name":"Route des Trois-Sapins","postalCode":"1772","locality":"Ponthaux","commune":{"key":"2217","name":"Ponthaux","shortName":"Ponthaux"},"district":{"key":"1004","name":"District de la Sarine"},"canton":{"key":"10","code":"FR","name":"Fribourg / Freiburg"},"status":"Real"},{"key":"10069657","name":"Route du Village","postalCode":"1772","locality":"Ponthaux","commune":{"key":"2217","name":"Ponthaux","shortName":"Ponthaux"},"district":{"key":"1004","name":"District de la Sarine"},"canton":{"key":"10","code":"FR","name":"Fribourg / Freiburg"},"status":"Real"},{"key":"10080479","name":"Route en Beaumontant","postalCode":"1772","locality":"Ponthaux","commune":{"key":"2217","name":"Ponthaux","shortName":"Ponthaux"},"district":{"key":"1004","name":"District de la Sarine"},"canton":{"key":"10","code":"FR","name":"Fribourg / Freiburg"},"status":"Real"},]