[{"name":"Alter Friedhof","postalCode":"07422","locality":"Bad Blankenburg","municipality":{"key":"16073005","name":"Bad Blankenburg, Stadt","type":"Stadt"},"district":{"key":"16073","name":"Saalfeld-Rudolstadt","type":"Landkreis"},"federalState":{"key":"16","name":"Thüringen"}},{"name":"Am Anger","postalCode":"07422","locality":"Bad Blankenburg","municipality":{"key":"16073005","name":"Bad Blankenburg, Stadt","type":"Stadt"},"district":{"key":"16073","name":"Saalfeld-Rudolstadt","type":"Landkreis"},"federalState":{"key":"16","name":"Thüringen"}},{"name":"Am Eichwald","postalCode":"07422","locality":"Bad Blankenburg","municipality":{"key":"16073005","name":"Bad Blankenburg, Stadt","type":"Stadt"},"district":{"key":"16073","name":"Saalfeld-Rudolstadt","type":"Landkreis"},"federalState":{"key":"16","name":"Thüringen"}},{"name":"Am Friedhof","postalCode":"07422","locality":"Bad Blankenburg","municipality":{"key":"16073005","name":"Bad Blankenburg, Stadt","type":"Stadt"},"district":{"key":"16073","name":"Saalfeld-Rudolstadt","type":"Landkreis"},"federalState":{"key":"16","name":"Thüringen"}},{"name":"Am Hainberg","postalCode":"07422","locality":"Bad Blankenburg","municipality":{"key":"16073005","name":"Bad Blankenburg, Stadt","type":"Stadt"},"district":{"key":"16073","name":"Saalfeld-Rudolstadt","type":"Landkreis"},"federalState":{"key":"16","name":"Thüringen"}},{"name":"Am Jesuborn","postalCode":"07422","locality":"Bad Blankenburg","municipality":{"key":"16073005","name":"Bad Blankenburg, Stadt","type":"Stadt"},"district":{"key":"16073","name":"Saalfeld-Rudolstadt","type":"Landkreis"},"federalState":{"key":"16","name":"Thüringen"}},{"name":"Am Oelberg","postalCode":"07422","locality":"Bad Blankenburg","municipality":{"key":"16073005","name":"Bad Blankenburg, Stadt","type":"Stadt"},"district":{"key":"16073","name":"Saalfeld-Rudolstadt","type":"Landkreis"},"federalState":{"key":"16","name":"Thüringen"}},{"name":"Am Römischen Berg","postalCode":"07422","locality":"Bad Blankenburg","municipality":{"key":"16073005","name":"Bad Blankenburg, Stadt","type":"Stadt"},"district":{"key":"16073","name":"Saalfeld-Rudolstadt","type":"Landkreis"},"federalState":{"key":"16","name":"Thüringen"}},{"name":"An der Kaufhalle","postalCode":"07422","locality":"Bad Blankenburg","municipality":{"key":"16073005","name":"Bad Blankenburg, Stadt","type":"Stadt"},"district":{"key":"16073","name":"Saalfeld-Rudolstadt","type":"Landkreis"},"federalState":{"key":"16","name":"Thüringen"}},{"name":"Apostelgasse","postalCode":"07422","locality":"Bad Blankenburg","municipality":{"key":"16073005","name":"Bad Blankenburg, Stadt","type":"Stadt"},"district":{"key":"16073","name":"Saalfeld-Rudolstadt","type":"Landkreis"},"federalState":{"key":"16","name":"Thüringen"}},{"name":"Auf dem Sande","postalCode":"07422","locality":"Bad Blankenburg","municipality":{"key":"16073005","name":"Bad Blankenburg, Stadt","type":"Stadt"},"district":{"key":"16073","name":"Saalfeld-Rudolstadt","type":"Landkreis"},"federalState":{"key":"16","name":"Thüringen"}},{"name":"Babywiese","postalCode":"07422","locality":"Bad Blankenburg","municipality":{"key":"16073005","name":"Bad Blankenburg, Stadt","type":"Stadt"},"district":{"key":"16073","name":"Saalfeld-Rudolstadt","type":"Landkreis"},"federalState":{"key":"16","name":"Thüringen"}},{"name":"Bad Blankenburg, Stadtmühle","postalCode":"07422","locality":"Bad Blankenburg","municipality":{"key":"16073005","name":"Bad Blankenburg, Stadt","type":"Stadt"},"district":{"key":"16073","name":"Saalfeld-Rudolstadt","type":"Landkreis"},"federalState":{"key":"16","name":"Thüringen"}},{"name":"Bahnhofstr.","postalCode":"07422","locality":"Bad Blankenburg","municipality":{"key":"16073005","name":"Bad Blankenburg, Stadt","type":"Stadt"},"district":{"key":"16073","name":"Saalfeld-Rudolstadt","type":"Landkreis"},"federalState":{"key":"16","name":"Thüringen"}},{"name":"Bähringstr.","postalCode":"07422","locality":"Bad Blankenburg","municipality":{"key":"16073005","name":"Bad Blankenburg, Stadt","type":"Stadt"},"district":{"key":"16073","name":"Saalfeld-Rudolstadt","type":"Landkreis"},"federalState":{"key":"16","name":"Thüringen"}},{"name":"Bernhardtsweg","postalCode":"07422","locality":"Bad Blankenburg","municipality":{"key":"16073005","name":"Bad Blankenburg, Stadt","type":"Stadt"},"district":{"key":"16073","name":"Saalfeld-Rudolstadt","type":"Landkreis"},"federalState":{"key":"16","name":"Thüringen"}},{"name":"Blankenburger Str.","postalCode":"07422","locality":"Bad Blankenburg","municipality":{"key":"16073005","name":"Bad Blankenburg, Stadt","type":"Stadt"},"district":{"key":"16073","name":"Saalfeld-Rudolstadt","type":"Landkreis"},"federalState":{"key":"16","name":"Thüringen"}},{"name":"Brauhausgasse","postalCode":"07422","locality":"Bad Blankenburg","municipality":{"key":"16073005","name":"Bad Blankenburg, Stadt","type":"Stadt"},"district":{"key":"16073","name":"Saalfeld-Rudolstadt","type":"Landkreis"},"federalState":{"key":"16","name":"Thüringen"}},{"name":"Buchenweg","postalCode":"07422","locality":"Bad Blankenburg","municipality":{"key":"16073005","name":"Bad Blankenburg, Stadt","type":"Stadt"},"district":{"key":"16073","name":"Saalfeld-Rudolstadt","type":"Landkreis"},"federalState":{"key":"16","name":"Thüringen"}},{"name":"Burgweg","postalCode":"07422","locality":"Bad Blankenburg","municipality":{"key":"16073005","name":"Bad Blankenburg, Stadt","type":"Stadt"},"district":{"key":"16073","name":"Saalfeld-Rudolstadt","type":"Landkreis"},"federalState":{"key":"16","name":"Thüringen"}},{"name":"Carl-Franke-Str.","postalCode":"07422","locality":"Bad Blankenburg","municipality":{"key":"16073005","name":"Bad Blankenburg, Stadt","type":"Stadt"},"district":{"key":"16073","name":"Saalfeld-Rudolstadt","type":"Landkreis"},"federalState":{"key":"16","name":"Thüringen"}},{"name":"Carl-Vollrath-Str.","postalCode":"07422","locality":"Bad Blankenburg","municipality":{"key":"16073005","name":"Bad Blankenburg, Stadt","type":"Stadt"},"district":{"key":"16073","name":"Saalfeld-Rudolstadt","type":"Landkreis"},"federalState":{"key":"16","name":"Thüringen"}},{"name":"Cordobang","postalCode":"07422","locality":"Bad Blankenburg","municipality":{"key":"16073005","name":"Bad Blankenburg, Stadt","type":"Stadt"},"district":{"key":"16073","name":"Saalfeld-Rudolstadt","type":"Landkreis"},"federalState":{"key":"16","name":"Thüringen"}},{"name":"Edelsteig","postalCode":"07422","locality":"Bad Blankenburg","municipality":{"key":"16073005","name":"Bad Blankenburg, Stadt","type":"Stadt"},"district":{"key":"16073","name":"Saalfeld-Rudolstadt","type":"Landkreis"},"federalState":{"key":"16","name":"Thüringen"}},{"name":"Esplanade","postalCode":"07422","locality":"Bad Blankenburg","municipality":{"key":"16073005","name":"Bad Blankenburg, Stadt","type":"Stadt"},"district":{"key":"16073","name":"Saalfeld-Rudolstadt","type":"Landkreis"},"federalState":{"key":"16","name":"Thüringen"}},{"name":"Friedensstr.","postalCode":"07422","locality":"Bad Blankenburg","municipality":{"key":"16073005","name":"Bad Blankenburg, Stadt","type":"Stadt"},"district":{"key":"16073","name":"Saalfeld-Rudolstadt","type":"Landkreis"},"federalState":{"key":"16","name":"Thüringen"}},{"name":"Friedrich-Ebert-Str.","postalCode":"07422","locality":"Bad Blankenburg","municipality":{"key":"16073005","name":"Bad Blankenburg, Stadt","type":"Stadt"},"district":{"key":"16073","name":"Saalfeld-Rudolstadt","type":"Landkreis"},"federalState":{"key":"16","name":"Thüringen"}},{"name":"Fröbelstr.","postalCode":"07422","locality":"Bad Blankenburg","municipality":{"key":"16073005","name":"Bad Blankenburg, Stadt","type":"Stadt"},"district":{"key":"16073","name":"Saalfeld-Rudolstadt","type":"Landkreis"},"federalState":{"key":"16","name":"Thüringen"}},{"name":"Fröbitz","postalCode":"07422","locality":"Bad Blankenburg","municipality":{"key":"16073005","name":"Bad Blankenburg, Stadt","type":"Stadt"},"district":{"key":"16073","name":"Saalfeld-Rudolstadt","type":"Landkreis"},"federalState":{"key":"16","name":"Thüringen"}},{"name":"Gartenstr.","postalCode":"07422","locality":"Bad Blankenburg","municipality":{"key":"16073005","name":"Bad Blankenburg, Stadt","type":"Stadt"},"district":{"key":"16073","name":"Saalfeld-Rudolstadt","type":"Landkreis"},"federalState":{"key":"16","name":"Thüringen"}},{"name":"Georgstr.","postalCode":"07422","locality":"Bad Blankenburg","municipality":{"key":"16073005","name":"Bad Blankenburg, Stadt","type":"Stadt"},"district":{"key":"16073","name":"Saalfeld-Rudolstadt","type":"Landkreis"},"federalState":{"key":"16","name":"Thüringen"}},{"name":"Goetheweg","postalCode":"07422","locality":"Bad Blankenburg","municipality":{"key":"16073005","name":"Bad Blankenburg, Stadt","type":"Stadt"},"district":{"key":"16073","name":"Saalfeld-Rudolstadt","type":"Landkreis"},"federalState":{"key":"16","name":"Thüringen"}},{"name":"Großgölitz","postalCode":"07422","locality":"Bad Blankenburg","municipality":{"key":"16073005","name":"Bad Blankenburg, Stadt","type":"Stadt"},"district":{"key":"16073","name":"Saalfeld-Rudolstadt","type":"Landkreis"},"federalState":{"key":"16","name":"Thüringen"}},{"name":"Gustav-Töpfer-Str.","postalCode":"07422","locality":"Bad Blankenburg","municipality":{"key":"16073005","name":"Bad Blankenburg, Stadt","type":"Stadt"},"district":{"key":"16073","name":"Saalfeld-Rudolstadt","type":"Landkreis"},"federalState":{"key":"16","name":"Thüringen"}},{"name":"Heinrich-Heine-Str.","postalCode":"07422","locality":"Bad Blankenburg","municipality":{"key":"16073005","name":"Bad Blankenburg, Stadt","type":"Stadt"},"district":{"key":"16073","name":"Saalfeld-Rudolstadt","type":"Landkreis"},"federalState":{"key":"16","name":"Thüringen"}},{"name":"Hermann-Petersilge-Str.","postalCode":"07422","locality":"Bad Blankenburg","municipality":{"key":"16073005","name":"Bad Blankenburg, Stadt","type":"Stadt"},"district":{"key":"16073","name":"Saalfeld-Rudolstadt","type":"Landkreis"},"federalState":{"key":"16","name":"Thüringen"}},{"name":"Hofgeismarer Str.","postalCode":"07422","locality":"Bad Blankenburg","municipality":{"key":"16073005","name":"Bad Blankenburg, Stadt","type":"Stadt"},"district":{"key":"16073","name":"Saalfeld-Rudolstadt","type":"Landkreis"},"federalState":{"key":"16","name":"Thüringen"}},{"name":"Im Nebelteich","postalCode":"07422","locality":"Bad Blankenburg","municipality":{"key":"16073005","name":"Bad Blankenburg, Stadt","type":"Stadt"},"district":{"key":"16073","name":"Saalfeld-Rudolstadt","type":"Landkreis"},"federalState":{"key":"16","name":"Thüringen"}},{"name":"In der Flecke","postalCode":"07422","locality":"Bad Blankenburg","municipality":{"key":"16073005","name":"Bad Blankenburg, Stadt","type":"Stadt"},"district":{"key":"16073","name":"Saalfeld-Rudolstadt","type":"Landkreis"},"federalState":{"key":"16","name":"Thüringen"}},{"name":"In der Schremsche","postalCode":"07422","locality":"Bad Blankenburg","municipality":{"key":"16073005","name":"Bad Blankenburg, Stadt","type":"Stadt"},"district":{"key":"16073","name":"Saalfeld-Rudolstadt","type":"Landkreis"},"federalState":{"key":"16","name":"Thüringen"}},{"name":"In der Streitau","postalCode":"07422","locality":"Bad Blankenburg","municipality":{"key":"16073005","name":"Bad Blankenburg, Stadt","type":"Stadt"},"district":{"key":"16073","name":"Saalfeld-Rudolstadt","type":"Landkreis"},"federalState":{"key":"16","name":"Thüringen"}},{"name":"In der Warfe","postalCode":"07422","locality":"Bad Blankenburg","municipality":{"key":"16073005","name":"Bad Blankenburg, Stadt","type":"Stadt"},"district":{"key":"16073","name":"Saalfeld-Rudolstadt","type":"Landkreis"},"federalState":{"key":"16","name":"Thüringen"}},{"name":"Johannisgasse","postalCode":"07422","locality":"Bad Blankenburg","municipality":{"key":"16073005","name":"Bad Blankenburg, Stadt","type":"Stadt"},"district":{"key":"16073","name":"Saalfeld-Rudolstadt","type":"Landkreis"},"federalState":{"key":"16","name":"Thüringen"}},{"name":"Kammweg","postalCode":"07422","locality":"Bad Blankenburg","municipality":{"key":"16073005","name":"Bad Blankenburg, Stadt","type":"Stadt"},"district":{"key":"16073","name":"Saalfeld-Rudolstadt","type":"Landkreis"},"federalState":{"key":"16","name":"Thüringen"}},{"name":"Karl-Fischer-Str.","postalCode":"07422","locality":"Bad Blankenburg","municipality":{"key":"16073005","name":"Bad Blankenburg, Stadt","type":"Stadt"},"district":{"key":"16073","name":"Saalfeld-Rudolstadt","type":"Landkreis"},"federalState":{"key":"16","name":"Thüringen"}},{"name":"Kirchplatz","postalCode":"07422","locality":"Bad Blankenburg","municipality":{"key":"16073005","name":"Bad Blankenburg, Stadt","type":"Stadt"},"district":{"key":"16073","name":"Saalfeld-Rudolstadt","type":"Landkreis"},"federalState":{"key":"16","name":"Thüringen"}},{"name":"Kirschenweg","postalCode":"07422","locality":"Bad Blankenburg","municipality":{"key":"16073005","name":"Bad Blankenburg, Stadt","type":"Stadt"},"district":{"key":"16073","name":"Saalfeld-Rudolstadt","type":"Landkreis"},"federalState":{"key":"16","name":"Thüringen"}},{"name":"Kleingölitz","postalCode":"07422","locality":"Bad Blankenburg","municipality":{"key":"16073005","name":"Bad Blankenburg, Stadt","type":"Stadt"},"district":{"key":"16073","name":"Saalfeld-Rudolstadt","type":"Landkreis"},"federalState":{"key":"16","name":"Thüringen"}},{"name":"Königseer Str.","postalCode":"07422","locality":"Bad Blankenburg","municipality":{"key":"16073005","name":"Bad Blankenburg, Stadt","type":"Stadt"},"district":{"key":"16073","name":"Saalfeld-Rudolstadt","type":"Landkreis"},"federalState":{"key":"16","name":"Thüringen"}},{"name":"Kurpark","postalCode":"07422","locality":"Bad Blankenburg","municipality":{"key":"16073005","name":"Bad Blankenburg, Stadt","type":"Stadt"},"district":{"key":"16073","name":"Saalfeld-Rudolstadt","type":"Landkreis"},"federalState":{"key":"16","name":"Thüringen"}},{"name":"Langethalstr.","postalCode":"07422","locality":"Bad Blankenburg","municipality":{"key":"16073005","name":"Bad Blankenburg, Stadt","type":"Stadt"},"district":{"key":"16073","name":"Saalfeld-Rudolstadt","type":"Landkreis"},"federalState":{"key":"16","name":"Thüringen"}},{"name":"Löbichenstr.","postalCode":"07422","locality":"Bad Blankenburg","municipality":{"key":"16073005","name":"Bad Blankenburg, Stadt","type":"Stadt"},"district":{"key":"16073","name":"Saalfeld-Rudolstadt","type":"Landkreis"},"federalState":{"key":"16","name":"Thüringen"}},{"name":"Ludwig-Jahn-Str.","postalCode":"07422","locality":"Bad Blankenburg","municipality":{"key":"16073005","name":"Bad Blankenburg, Stadt","type":"Stadt"},"district":{"key":"16073","name":"Saalfeld-Rudolstadt","type":"Landkreis"},"federalState":{"key":"16","name":"Thüringen"}},{"name":"Magdeburger Gasse","postalCode":"07422","locality":"Bad Blankenburg","municipality":{"key":"16073005","name":"Bad Blankenburg, Stadt","type":"Stadt"},"district":{"key":"16073","name":"Saalfeld-Rudolstadt","type":"Landkreis"},"federalState":{"key":"16","name":"Thüringen"}},{"name":"Marktplatz","postalCode":"07422","locality":"Bad Blankenburg","municipality":{"key":"16073005","name":"Bad Blankenburg, Stadt","type":"Stadt"},"district":{"key":"16073","name":"Saalfeld-Rudolstadt","type":"Landkreis"},"federalState":{"key":"16","name":"Thüringen"}},{"name":"Middendorfstr.","postalCode":"07422","locality":"Bad Blankenburg","municipality":{"key":"16073005","name":"Bad Blankenburg, Stadt","type":"Stadt"},"district":{"key":"16073","name":"Saalfeld-Rudolstadt","type":"Landkreis"},"federalState":{"key":"16","name":"Thüringen"}},{"name":"Neuer Bergweg","postalCode":"07422","locality":"Bad Blankenburg","municipality":{"key":"16073005","name":"Bad Blankenburg, Stadt","type":"Stadt"},"district":{"key":"16073","name":"Saalfeld-Rudolstadt","type":"Landkreis"},"federalState":{"key":"16","name":"Thüringen"}},{"name":"Obere Hausbergstr.","postalCode":"07422","locality":"Bad Blankenburg","municipality":{"key":"16073005","name":"Bad Blankenburg, Stadt","type":"Stadt"},"district":{"key":"16073","name":"Saalfeld-Rudolstadt","type":"Landkreis"},"federalState":{"key":"16","name":"Thüringen"}},{"name":"Obere Marktstr.","postalCode":"07422","locality":"Bad Blankenburg","municipality":{"key":"16073005","name":"Bad Blankenburg, Stadt","type":"Stadt"},"district":{"key":"16073","name":"Saalfeld-Rudolstadt","type":"Landkreis"},"federalState":{"key":"16","name":"Thüringen"}},{"name":"Obere Mauergasse","postalCode":"07422","locality":"Bad Blankenburg","municipality":{"key":"16073005","name":"Bad Blankenburg, Stadt","type":"Stadt"},"district":{"key":"16073","name":"Saalfeld-Rudolstadt","type":"Landkreis"},"federalState":{"key":"16","name":"Thüringen"}},{"name":"Oberer Sonnenberg","postalCode":"07422","locality":"Bad Blankenburg","municipality":{"key":"16073005","name":"Bad Blankenburg, Stadt","type":"Stadt"},"district":{"key":"16073","name":"Saalfeld-Rudolstadt","type":"Landkreis"},"federalState":{"key":"16","name":"Thüringen"}},{"name":"Oberwirbach","postalCode":"07422","locality":"Bad Blankenburg","municipality":{"key":"16073005","name":"Bad Blankenburg, Stadt","type":"Stadt"},"district":{"key":"16073","name":"Saalfeld-Rudolstadt","type":"Landkreis"},"federalState":{"key":"16","name":"Thüringen"}},{"name":"Ortsstr.","postalCode":"07422","locality":"Bad Blankenburg","municipality":{"key":"16073005","name":"Bad Blankenburg, Stadt","type":"Stadt"},"district":{"key":"16073","name":"Saalfeld-Rudolstadt","type":"Landkreis"},"federalState":{"key":"16","name":"Thüringen"}},{"name":"Pestalozzistr.","postalCode":"07422","locality":"Bad Blankenburg","municipality":{"key":"16073005","name":"Bad Blankenburg, Stadt","type":"Stadt"},"district":{"key":"16073","name":"Saalfeld-Rudolstadt","type":"Landkreis"},"federalState":{"key":"16","name":"Thüringen"}},{"name":"Pestfriedhof","postalCode":"07422","locality":"Bad Blankenburg","municipality":{"key":"16073005","name":"Bad Blankenburg, Stadt","type":"Stadt"},"district":{"key":"16073","name":"Saalfeld-Rudolstadt","type":"Landkreis"},"federalState":{"key":"16","name":"Thüringen"}},{"name":"Prießnitzstr.","postalCode":"07422","locality":"Bad Blankenburg","municipality":{"key":"16073005","name":"Bad Blankenburg, Stadt","type":"Stadt"},"district":{"key":"16073","name":"Saalfeld-Rudolstadt","type":"Landkreis"},"federalState":{"key":"16","name":"Thüringen"}},{"name":"Prof.-Lauterbach-Str.","postalCode":"07422","locality":"Bad Blankenburg","municipality":{"key":"16073005","name":"Bad Blankenburg, Stadt","type":"Stadt"},"district":{"key":"16073","name":"Saalfeld-Rudolstadt","type":"Landkreis"},"federalState":{"key":"16","name":"Thüringen"}},{"name":"Prof.-Schmiedeknecht-Str.","postalCode":"07422","locality":"Bad Blankenburg","municipality":{"key":"16073005","name":"Bad Blankenburg, Stadt","type":"Stadt"},"district":{"key":"16073","name":"Saalfeld-Rudolstadt","type":"Landkreis"},"federalState":{"key":"16","name":"Thüringen"}},{"name":"Rainsteig","postalCode":"07422","locality":"Bad Blankenburg","municipality":{"key":"16073005","name":"Bad Blankenburg, Stadt","type":"Stadt"},"district":{"key":"16073","name":"Saalfeld-Rudolstadt","type":"Landkreis"},"federalState":{"key":"16","name":"Thüringen"}},{"name":"Rudolstädter Str.","postalCode":"07422","locality":"Bad Blankenburg","municipality":{"key":"16073005","name":"Bad Blankenburg, Stadt","type":"Stadt"},"district":{"key":"16073","name":"Saalfeld-Rudolstadt","type":"Landkreis"},"federalState":{"key":"16","name":"Thüringen"}},{"name":"Schillerstr.","postalCode":"07422","locality":"Bad Blankenburg","municipality":{"key":"16073005","name":"Bad Blankenburg, Stadt","type":"Stadt"},"district":{"key":"16073","name":"Saalfeld-Rudolstadt","type":"Landkreis"},"federalState":{"key":"16","name":"Thüringen"}},{"name":"Schlehenweg","postalCode":"07422","locality":"Bad Blankenburg","municipality":{"key":"16073005","name":"Bad Blankenburg, Stadt","type":"Stadt"},"district":{"key":"16073","name":"Saalfeld-Rudolstadt","type":"Landkreis"},"federalState":{"key":"16","name":"Thüringen"}},{"name":"Schwarzastr.","postalCode":"07422","locality":"Bad Blankenburg","municipality":{"key":"16073005","name":"Bad Blankenburg, Stadt","type":"Stadt"},"district":{"key":"16073","name":"Saalfeld-Rudolstadt","type":"Landkreis"},"federalState":{"key":"16","name":"Thüringen"}},{"name":"Schwarzburger Str.","postalCode":"07422","locality":"Bad Blankenburg","municipality":{"key":"16073005","name":"Bad Blankenburg, Stadt","type":"Stadt"},"district":{"key":"16073","name":"Saalfeld-Rudolstadt","type":"Landkreis"},"federalState":{"key":"16","name":"Thüringen"}},{"name":"Siedlung Ost","postalCode":"07422","locality":"Bad Blankenburg","municipality":{"key":"16073005","name":"Bad Blankenburg, Stadt","type":"Stadt"},"district":{"key":"16073","name":"Saalfeld-Rudolstadt","type":"Landkreis"},"federalState":{"key":"16","name":"Thüringen"}},{"name":"Str. der Deutschen Einheit","postalCode":"07422","locality":"Bad Blankenburg","municipality":{"key":"16073005","name":"Bad Blankenburg, Stadt","type":"Stadt"},"district":{"key":"16073","name":"Saalfeld-Rudolstadt","type":"Landkreis"},"federalState":{"key":"16","name":"Thüringen"}},{"name":"Thüringenweg","postalCode":"07422","locality":"Bad Blankenburg","municipality":{"key":"16073005","name":"Bad Blankenburg, Stadt","type":"Stadt"},"district":{"key":"16073","name":"Saalfeld-Rudolstadt","type":"Landkreis"},"federalState":{"key":"16","name":"Thüringen"}},{"name":"Uhlandstr.","postalCode":"07422","locality":"Bad Blankenburg","municipality":{"key":"16073005","name":"Bad Blankenburg, Stadt","type":"Stadt"},"district":{"key":"16073","name":"Saalfeld-Rudolstadt","type":"Landkreis"},"federalState":{"key":"16","name":"Thüringen"}},{"name":"Untere Hausbergstr.","postalCode":"07422","locality":"Bad Blankenburg","municipality":{"key":"16073005","name":"Bad Blankenburg, Stadt","type":"Stadt"},"district":{"key":"16073","name":"Saalfeld-Rudolstadt","type":"Landkreis"},"federalState":{"key":"16","name":"Thüringen"}},{"name":"Untere Marktstr.","postalCode":"07422","locality":"Bad Blankenburg","municipality":{"key":"16073005","name":"Bad Blankenburg, Stadt","type":"Stadt"},"district":{"key":"16073","name":"Saalfeld-Rudolstadt","type":"Landkreis"},"federalState":{"key":"16","name":"Thüringen"}},{"name":"Untere Mauergasse","postalCode":"07422","locality":"Bad Blankenburg","municipality":{"key":"16073005","name":"Bad Blankenburg, Stadt","type":"Stadt"},"district":{"key":"16073","name":"Saalfeld-Rudolstadt","type":"Landkreis"},"federalState":{"key":"16","name":"Thüringen"}},{"name":"Unterer Sonnenberg","postalCode":"07422","locality":"Bad Blankenburg","municipality":{"key":"16073005","name":"Bad Blankenburg, Stadt","type":"Stadt"},"district":{"key":"16073","name":"Saalfeld-Rudolstadt","type":"Landkreis"},"federalState":{"key":"16","name":"Thüringen"}},{"name":"Unterm Berg","postalCode":"07422","locality":"Bad Blankenburg","municipality":{"key":"16073005","name":"Bad Blankenburg, Stadt","type":"Stadt"},"district":{"key":"16073","name":"Saalfeld-Rudolstadt","type":"Landkreis"},"federalState":{"key":"16","name":"Thüringen"}},{"name":"Wacholderweg","postalCode":"07422","locality":"Bad Blankenburg","municipality":{"key":"16073005","name":"Bad Blankenburg, Stadt","type":"Stadt"},"district":{"key":"16073","name":"Saalfeld-Rudolstadt","type":"Landkreis"},"federalState":{"key":"16","name":"Thüringen"}},{"name":"Watzdorf","postalCode":"07422","locality":"Bad Blankenburg","municipality":{"key":"16073005","name":"Bad Blankenburg, Stadt","type":"Stadt"},"district":{"key":"16073","name":"Saalfeld-Rudolstadt","type":"Landkreis"},"federalState":{"key":"16","name":"Thüringen"}},{"name":"Wiesenweg","postalCode":"07422","locality":"Bad Blankenburg","municipality":{"key":"16073005","name":"Bad Blankenburg, Stadt","type":"Stadt"},"district":{"key":"16073","name":"Saalfeld-Rudolstadt","type":"Landkreis"},"federalState":{"key":"16","name":"Thüringen"}},{"name":"Wirbacher Str.","postalCode":"07422","locality":"Bad Blankenburg","municipality":{"key":"16073005","name":"Bad Blankenburg, Stadt","type":"Stadt"},"district":{"key":"16073","name":"Saalfeld-Rudolstadt","type":"Landkreis"},"federalState":{"key":"16","name":"Thüringen"}},{"name":"Zeigerheim","postalCode":"07422","locality":"Bad Blankenburg","municipality":{"key":"16073005","name":"Bad Blankenburg, Stadt","type":"Stadt"},"district":{"key":"16073","name":"Saalfeld-Rudolstadt","type":"Landkreis"},"federalState":{"key":"16","name":"Thüringen"}},{"name":"Zeigerheimer Weg","postalCode":"07422","locality":"Bad Blankenburg","municipality":{"key":"16073005","name":"Bad Blankenburg, Stadt","type":"Stadt"},"district":{"key":"16073","name":"Saalfeld-Rudolstadt","type":"Landkreis"},"federalState":{"key":"16","name":"Thüringen"}},{"name":"Zu den Pfarreichen","postalCode":"07422","locality":"Bad Blankenburg","municipality":{"key":"16073005","name":"Bad Blankenburg, Stadt","type":"Stadt"},"district":{"key":"16073","name":"Saalfeld-Rudolstadt","type":"Landkreis"},"federalState":{"key":"16","name":"Thüringen"}},{"name":"Zum Karnberg","postalCode":"07422","locality":"Bad Blankenburg","municipality":{"key":"16073005","name":"Bad Blankenburg, Stadt","type":"Stadt"},"district":{"key":"16073","name":"Saalfeld-Rudolstadt","type":"Landkreis"},"federalState":{"key":"16","name":"Thüringen"}},{"name":"Zum Windorf","postalCode":"07422","locality":"Bad Blankenburg","municipality":{"key":"16073005","name":"Bad Blankenburg, Stadt","type":"Stadt"},"district":{"key":"16073","name":"Saalfeld-Rudolstadt","type":"Landkreis"},"federalState":{"key":"16","name":"Thüringen"}},]