[{"name":"Achstr.","postalCode":"86706","locality":"Weichering","municipality":{"key":"09185168","name":"Weichering","type":"Kreisangehörige_Gemeinde"},"district":{"key":"09185","name":"Neuburg-Schrobenhausen","type":"Landkreis"},"federalState":{"key":"09","name":"Bayern"}},{"name":"Ahornstr.","postalCode":"86706","locality":"Weichering","municipality":{"key":"09185168","name":"Weichering","type":"Kreisangehörige_Gemeinde"},"district":{"key":"09185","name":"Neuburg-Schrobenhausen","type":"Landkreis"},"federalState":{"key":"09","name":"Bayern"}},{"name":"Am Anger","postalCode":"86706","locality":"Weichering","municipality":{"key":"09185168","name":"Weichering","type":"Kreisangehörige_Gemeinde"},"district":{"key":"09185","name":"Neuburg-Schrobenhausen","type":"Landkreis"},"federalState":{"key":"09","name":"Bayern"}},{"name":"Am Osterfeld","postalCode":"86706","locality":"Weichering","municipality":{"key":"09185168","name":"Weichering","type":"Kreisangehörige_Gemeinde"},"district":{"key":"09185","name":"Neuburg-Schrobenhausen","type":"Landkreis"},"federalState":{"key":"09","name":"Bayern"}},{"name":"Am Schlossgraben","postalCode":"86706","locality":"Weichering","municipality":{"key":"09185168","name":"Weichering","type":"Kreisangehörige_Gemeinde"},"district":{"key":"09185","name":"Neuburg-Schrobenhausen","type":"Landkreis"},"federalState":{"key":"09","name":"Bayern"}},{"name":"Am Sportplatz","postalCode":"86706","locality":"Weichering","municipality":{"key":"09185168","name":"Weichering","type":"Kreisangehörige_Gemeinde"},"district":{"key":"09185","name":"Neuburg-Schrobenhausen","type":"Landkreis"},"federalState":{"key":"09","name":"Bayern"}},{"name":"Am Wall","postalCode":"86706","locality":"Weichering","municipality":{"key":"09185168","name":"Weichering","type":"Kreisangehörige_Gemeinde"},"district":{"key":"09185","name":"Neuburg-Schrobenhausen","type":"Landkreis"},"federalState":{"key":"09","name":"Bayern"}},{"name":"Am Wasserwerk","postalCode":"86706","locality":"Weichering","municipality":{"key":"09185168","name":"Weichering","type":"Kreisangehörige_Gemeinde"},"district":{"key":"09185","name":"Neuburg-Schrobenhausen","type":"Landkreis"},"federalState":{"key":"09","name":"Bayern"}},{"name":"Bachholzstr.","postalCode":"86706","locality":"Weichering","municipality":{"key":"09185168","name":"Weichering","type":"Kreisangehörige_Gemeinde"},"district":{"key":"09185","name":"Neuburg-Schrobenhausen","type":"Landkreis"},"federalState":{"key":"09","name":"Bayern"}},{"name":"Bahnhofstr.","postalCode":"86706","locality":"Weichering","municipality":{"key":"09185168","name":"Weichering","type":"Kreisangehörige_Gemeinde"},"district":{"key":"09185","name":"Neuburg-Schrobenhausen","type":"Landkreis"},"federalState":{"key":"09","name":"Bayern"}},{"name":"Biberweg","postalCode":"86706","locality":"Weichering","municipality":{"key":"09185168","name":"Weichering","type":"Kreisangehörige_Gemeinde"},"district":{"key":"09185","name":"Neuburg-Schrobenhausen","type":"Landkreis"},"federalState":{"key":"09","name":"Bayern"}},{"name":"Birkenstr.","postalCode":"86706","locality":"Weichering","municipality":{"key":"09185168","name":"Weichering","type":"Kreisangehörige_Gemeinde"},"district":{"key":"09185","name":"Neuburg-Schrobenhausen","type":"Landkreis"},"federalState":{"key":"09","name":"Bayern"}},{"name":"Blumenweg","postalCode":"86706","locality":"Weichering","municipality":{"key":"09185168","name":"Weichering","type":"Kreisangehörige_Gemeinde"},"district":{"key":"09185","name":"Neuburg-Schrobenhausen","type":"Landkreis"},"federalState":{"key":"09","name":"Bayern"}},{"name":"Brückenweg","postalCode":"86706","locality":"Weichering","municipality":{"key":"09185168","name":"Weichering","type":"Kreisangehörige_Gemeinde"},"district":{"key":"09185","name":"Neuburg-Schrobenhausen","type":"Landkreis"},"federalState":{"key":"09","name":"Bayern"}},{"name":"Brunnenstr.","postalCode":"86706","locality":"Weichering","municipality":{"key":"09185168","name":"Weichering","type":"Kreisangehörige_Gemeinde"},"district":{"key":"09185","name":"Neuburg-Schrobenhausen","type":"Landkreis"},"federalState":{"key":"09","name":"Bayern"}},{"name":"Erlweg","postalCode":"86706","locality":"Weichering","municipality":{"key":"09185168","name":"Weichering","type":"Kreisangehörige_Gemeinde"},"district":{"key":"09185","name":"Neuburg-Schrobenhausen","type":"Landkreis"},"federalState":{"key":"09","name":"Bayern"}},{"name":"Friedhofstr.","postalCode":"86706","locality":"Weichering","municipality":{"key":"09185168","name":"Weichering","type":"Kreisangehörige_Gemeinde"},"district":{"key":"09185","name":"Neuburg-Schrobenhausen","type":"Landkreis"},"federalState":{"key":"09","name":"Bayern"}},{"name":"Gartenstr.","postalCode":"86706","locality":"Weichering","municipality":{"key":"09185168","name":"Weichering","type":"Kreisangehörige_Gemeinde"},"district":{"key":"09185","name":"Neuburg-Schrobenhausen","type":"Landkreis"},"federalState":{"key":"09","name":"Bayern"}},{"name":"Geländeackerweg","postalCode":"86706","locality":"Weichering","municipality":{"key":"09185168","name":"Weichering","type":"Kreisangehörige_Gemeinde"},"district":{"key":"09185","name":"Neuburg-Schrobenhausen","type":"Landkreis"},"federalState":{"key":"09","name":"Bayern"}},{"name":"Grünweg","postalCode":"86706","locality":"Weichering","municipality":{"key":"09185168","name":"Weichering","type":"Kreisangehörige_Gemeinde"},"district":{"key":"09185","name":"Neuburg-Schrobenhausen","type":"Landkreis"},"federalState":{"key":"09","name":"Bayern"}},{"name":"Hauptstr.","postalCode":"86706","locality":"Weichering","municipality":{"key":"09185168","name":"Weichering","type":"Kreisangehörige_Gemeinde"},"district":{"key":"09185","name":"Neuburg-Schrobenhausen","type":"Landkreis"},"federalState":{"key":"09","name":"Bayern"}},{"name":"Heubruckenweg","postalCode":"86706","locality":"Weichering","municipality":{"key":"09185168","name":"Weichering","type":"Kreisangehörige_Gemeinde"},"district":{"key":"09185","name":"Neuburg-Schrobenhausen","type":"Landkreis"},"federalState":{"key":"09","name":"Bayern"}},{"name":"Hopfenweg","postalCode":"86706","locality":"Weichering","municipality":{"key":"09185168","name":"Weichering","type":"Kreisangehörige_Gemeinde"},"district":{"key":"09185","name":"Neuburg-Schrobenhausen","type":"Landkreis"},"federalState":{"key":"09","name":"Bayern"}},{"name":"Ingolstädter Str.","postalCode":"86706","locality":"Weichering","municipality":{"key":"09185168","name":"Weichering","type":"Kreisangehörige_Gemeinde"},"district":{"key":"09185","name":"Neuburg-Schrobenhausen","type":"Landkreis"},"federalState":{"key":"09","name":"Bayern"}},{"name":"Kapellenplatz","postalCode":"86706","locality":"Weichering","municipality":{"key":"09185168","name":"Weichering","type":"Kreisangehörige_Gemeinde"},"district":{"key":"09185","name":"Neuburg-Schrobenhausen","type":"Landkreis"},"federalState":{"key":"09","name":"Bayern"}},{"name":"Kirchweg","postalCode":"86706","locality":"Weichering","municipality":{"key":"09185168","name":"Weichering","type":"Kreisangehörige_Gemeinde"},"district":{"key":"09185","name":"Neuburg-Schrobenhausen","type":"Landkreis"},"federalState":{"key":"09","name":"Bayern"}},{"name":"Kochheimer Str.","postalCode":"86706","locality":"Weichering","municipality":{"key":"09185168","name":"Weichering","type":"Kreisangehörige_Gemeinde"},"district":{"key":"09185","name":"Neuburg-Schrobenhausen","type":"Landkreis"},"federalState":{"key":"09","name":"Bayern"}},{"name":"Kohlstatt","postalCode":"86706","locality":"Weichering","municipality":{"key":"09185168","name":"Weichering","type":"Kreisangehörige_Gemeinde"},"district":{"key":"09185","name":"Neuburg-Schrobenhausen","type":"Landkreis"},"federalState":{"key":"09","name":"Bayern"}},{"name":"Königstr.","postalCode":"86706","locality":"Weichering","municipality":{"key":"09185168","name":"Weichering","type":"Kreisangehörige_Gemeinde"},"district":{"key":"09185","name":"Neuburg-Schrobenhausen","type":"Landkreis"},"federalState":{"key":"09","name":"Bayern"}},{"name":"Krautgarten","postalCode":"86706","locality":"Weichering","municipality":{"key":"09185168","name":"Weichering","type":"Kreisangehörige_Gemeinde"},"district":{"key":"09185","name":"Neuburg-Schrobenhausen","type":"Landkreis"},"federalState":{"key":"09","name":"Bayern"}},{"name":"Kreuzstr.","postalCode":"86706","locality":"Weichering","municipality":{"key":"09185168","name":"Weichering","type":"Kreisangehörige_Gemeinde"},"district":{"key":"09185","name":"Neuburg-Schrobenhausen","type":"Landkreis"},"federalState":{"key":"09","name":"Bayern"}},{"name":"Krokusweg","postalCode":"86706","locality":"Weichering","municipality":{"key":"09185168","name":"Weichering","type":"Kreisangehörige_Gemeinde"},"district":{"key":"09185","name":"Neuburg-Schrobenhausen","type":"Landkreis"},"federalState":{"key":"09","name":"Bayern"}},{"name":"Kurzstr.","postalCode":"86706","locality":"Weichering","municipality":{"key":"09185168","name":"Weichering","type":"Kreisangehörige_Gemeinde"},"district":{"key":"09185","name":"Neuburg-Schrobenhausen","type":"Landkreis"},"federalState":{"key":"09","name":"Bayern"}},{"name":"Ladestr.","postalCode":"86706","locality":"Weichering","municipality":{"key":"09185168","name":"Weichering","type":"Kreisangehörige_Gemeinde"},"district":{"key":"09185","name":"Neuburg-Schrobenhausen","type":"Landkreis"},"federalState":{"key":"09","name":"Bayern"}},{"name":"Langstr.","postalCode":"86706","locality":"Weichering","municipality":{"key":"09185168","name":"Weichering","type":"Kreisangehörige_Gemeinde"},"district":{"key":"09185","name":"Neuburg-Schrobenhausen","type":"Landkreis"},"federalState":{"key":"09","name":"Bayern"}},{"name":"Lärchenweg","postalCode":"86706","locality":"Weichering","municipality":{"key":"09185168","name":"Weichering","type":"Kreisangehörige_Gemeinde"},"district":{"key":"09185","name":"Neuburg-Schrobenhausen","type":"Landkreis"},"federalState":{"key":"09","name":"Bayern"}},{"name":"Lilienstr.","postalCode":"86706","locality":"Weichering","municipality":{"key":"09185168","name":"Weichering","type":"Kreisangehörige_Gemeinde"},"district":{"key":"09185","name":"Neuburg-Schrobenhausen","type":"Landkreis"},"federalState":{"key":"09","name":"Bayern"}},{"name":"Lindenstr.","postalCode":"86706","locality":"Weichering","municipality":{"key":"09185168","name":"Weichering","type":"Kreisangehörige_Gemeinde"},"district":{"key":"09185","name":"Neuburg-Schrobenhausen","type":"Landkreis"},"federalState":{"key":"09","name":"Bayern"}},{"name":"Mandlweg","postalCode":"86706","locality":"Weichering","municipality":{"key":"09185168","name":"Weichering","type":"Kreisangehörige_Gemeinde"},"district":{"key":"09185","name":"Neuburg-Schrobenhausen","type":"Landkreis"},"federalState":{"key":"09","name":"Bayern"}},{"name":"Mittlerer Weg","postalCode":"86706","locality":"Weichering","municipality":{"key":"09185168","name":"Weichering","type":"Kreisangehörige_Gemeinde"},"district":{"key":"09185","name":"Neuburg-Schrobenhausen","type":"Landkreis"},"federalState":{"key":"09","name":"Bayern"}},{"name":"Nelkenweg","postalCode":"86706","locality":"Weichering","municipality":{"key":"09185168","name":"Weichering","type":"Kreisangehörige_Gemeinde"},"district":{"key":"09185","name":"Neuburg-Schrobenhausen","type":"Landkreis"},"federalState":{"key":"09","name":"Bayern"}},{"name":"Neuburger Str.","postalCode":"86706","locality":"Weichering","municipality":{"key":"09185168","name":"Weichering","type":"Kreisangehörige_Gemeinde"},"district":{"key":"09185","name":"Neuburg-Schrobenhausen","type":"Landkreis"},"federalState":{"key":"09","name":"Bayern"}},{"name":"Neuschwetzinger Str.","postalCode":"86706","locality":"Weichering","municipality":{"key":"09185168","name":"Weichering","type":"Kreisangehörige_Gemeinde"},"district":{"key":"09185","name":"Neuburg-Schrobenhausen","type":"Landkreis"},"federalState":{"key":"09","name":"Bayern"}},{"name":"Pater-Steinherr-Str.","postalCode":"86706","locality":"Weichering","municipality":{"key":"09185168","name":"Weichering","type":"Kreisangehörige_Gemeinde"},"district":{"key":"09185","name":"Neuburg-Schrobenhausen","type":"Landkreis"},"federalState":{"key":"09","name":"Bayern"}},{"name":"Pettenkoferstr.","postalCode":"86706","locality":"Weichering","municipality":{"key":"09185168","name":"Weichering","type":"Kreisangehörige_Gemeinde"},"district":{"key":"09185","name":"Neuburg-Schrobenhausen","type":"Landkreis"},"federalState":{"key":"09","name":"Bayern"}},{"name":"Pfarranger","postalCode":"86706","locality":"Weichering","municipality":{"key":"09185168","name":"Weichering","type":"Kreisangehörige_Gemeinde"},"district":{"key":"09185","name":"Neuburg-Schrobenhausen","type":"Landkreis"},"federalState":{"key":"09","name":"Bayern"}},{"name":"Pfarrer-Kaeufel-Str.","postalCode":"86706","locality":"Weichering","municipality":{"key":"09185168","name":"Weichering","type":"Kreisangehörige_Gemeinde"},"district":{"key":"09185","name":"Neuburg-Schrobenhausen","type":"Landkreis"},"federalState":{"key":"09","name":"Bayern"}},{"name":"Raiffeisenstr.","postalCode":"86706","locality":"Weichering","municipality":{"key":"09185168","name":"Weichering","type":"Kreisangehörige_Gemeinde"},"district":{"key":"09185","name":"Neuburg-Schrobenhausen","type":"Landkreis"},"federalState":{"key":"09","name":"Bayern"}},{"name":"Ringstr.","postalCode":"86706","locality":"Weichering","municipality":{"key":"09185168","name":"Weichering","type":"Kreisangehörige_Gemeinde"},"district":{"key":"09185","name":"Neuburg-Schrobenhausen","type":"Landkreis"},"federalState":{"key":"09","name":"Bayern"}},{"name":"Rosenstr.","postalCode":"86706","locality":"Weichering","municipality":{"key":"09185168","name":"Weichering","type":"Kreisangehörige_Gemeinde"},"district":{"key":"09185","name":"Neuburg-Schrobenhausen","type":"Landkreis"},"federalState":{"key":"09","name":"Bayern"}},{"name":"Saierling","postalCode":"86706","locality":"Weichering","municipality":{"key":"09185168","name":"Weichering","type":"Kreisangehörige_Gemeinde"},"district":{"key":"09185","name":"Neuburg-Schrobenhausen","type":"Landkreis"},"federalState":{"key":"09","name":"Bayern"}},{"name":"Salzlachenweg","postalCode":"86706","locality":"Weichering","municipality":{"key":"09185168","name":"Weichering","type":"Kreisangehörige_Gemeinde"},"district":{"key":"09185","name":"Neuburg-Schrobenhausen","type":"Landkreis"},"federalState":{"key":"09","name":"Bayern"}},{"name":"Schilfstr.","postalCode":"86706","locality":"Weichering","municipality":{"key":"09185168","name":"Weichering","type":"Kreisangehörige_Gemeinde"},"district":{"key":"09185","name":"Neuburg-Schrobenhausen","type":"Landkreis"},"federalState":{"key":"09","name":"Bayern"}},{"name":"Schulweg","postalCode":"86706","locality":"Weichering","municipality":{"key":"09185168","name":"Weichering","type":"Kreisangehörige_Gemeinde"},"district":{"key":"09185","name":"Neuburg-Schrobenhausen","type":"Landkreis"},"federalState":{"key":"09","name":"Bayern"}},{"name":"Siedlungsweg","postalCode":"86706","locality":"Weichering","municipality":{"key":"09185168","name":"Weichering","type":"Kreisangehörige_Gemeinde"},"district":{"key":"09185","name":"Neuburg-Schrobenhausen","type":"Landkreis"},"federalState":{"key":"09","name":"Bayern"}},{"name":"Steilerweg","postalCode":"86706","locality":"Weichering","municipality":{"key":"09185168","name":"Weichering","type":"Kreisangehörige_Gemeinde"},"district":{"key":"09185","name":"Neuburg-Schrobenhausen","type":"Landkreis"},"federalState":{"key":"09","name":"Bayern"}},{"name":"Teichstr.","postalCode":"86706","locality":"Weichering","municipality":{"key":"09185168","name":"Weichering","type":"Kreisangehörige_Gemeinde"},"district":{"key":"09185","name":"Neuburg-Schrobenhausen","type":"Landkreis"},"federalState":{"key":"09","name":"Bayern"}},{"name":"Tulpenstr.","postalCode":"86706","locality":"Weichering","municipality":{"key":"09185168","name":"Weichering","type":"Kreisangehörige_Gemeinde"},"district":{"key":"09185","name":"Neuburg-Schrobenhausen","type":"Landkreis"},"federalState":{"key":"09","name":"Bayern"}},{"name":"Veilchenweg","postalCode":"86706","locality":"Weichering","municipality":{"key":"09185168","name":"Weichering","type":"Kreisangehörige_Gemeinde"},"district":{"key":"09185","name":"Neuburg-Schrobenhausen","type":"Landkreis"},"federalState":{"key":"09","name":"Bayern"}},{"name":"Waldstr.","postalCode":"86706","locality":"Weichering","municipality":{"key":"09185168","name":"Weichering","type":"Kreisangehörige_Gemeinde"},"district":{"key":"09185","name":"Neuburg-Schrobenhausen","type":"Landkreis"},"federalState":{"key":"09","name":"Bayern"}},{"name":"Weiherstr.","postalCode":"86706","locality":"Weichering","municipality":{"key":"09185168","name":"Weichering","type":"Kreisangehörige_Gemeinde"},"district":{"key":"09185","name":"Neuburg-Schrobenhausen","type":"Landkreis"},"federalState":{"key":"09","name":"Bayern"}},{"name":"Weingasse","postalCode":"86706","locality":"Weichering","municipality":{"key":"09185168","name":"Weichering","type":"Kreisangehörige_Gemeinde"},"district":{"key":"09185","name":"Neuburg-Schrobenhausen","type":"Landkreis"},"federalState":{"key":"09","name":"Bayern"}},{"name":"Windener Str.","postalCode":"86706","locality":"Weichering","municipality":{"key":"09185168","name":"Weichering","type":"Kreisangehörige_Gemeinde"},"district":{"key":"09185","name":"Neuburg-Schrobenhausen","type":"Landkreis"},"federalState":{"key":"09","name":"Bayern"}},{"name":"Zwickelweg","postalCode":"86706","locality":"Weichering","municipality":{"key":"09185168","name":"Weichering","type":"Kreisangehörige_Gemeinde"},"district":{"key":"09185","name":"Neuburg-Schrobenhausen","type":"Landkreis"},"federalState":{"key":"09","name":"Bayern"}},]