[{"name":"Am Bach","postalCode":"84533","locality":"Haiming","municipality":{"key":"09171118","name":"Haiming","type":"Kreisangehörige_Gemeinde"},"district":{"key":"09171","name":"Altötting","type":"Landkreis"},"federalState":{"key":"09","name":"Bayern"}},{"name":"Am Kirchfeld","postalCode":"84533","locality":"Haiming","municipality":{"key":"09171118","name":"Haiming","type":"Kreisangehörige_Gemeinde"},"district":{"key":"09171","name":"Altötting","type":"Landkreis"},"federalState":{"key":"09","name":"Bayern"}},{"name":"Am Mitterfeld","postalCode":"84533","locality":"Haiming","municipality":{"key":"09171118","name":"Haiming","type":"Kreisangehörige_Gemeinde"},"district":{"key":"09171","name":"Altötting","type":"Landkreis"},"federalState":{"key":"09","name":"Bayern"}},{"name":"Am Wirtsfeld","postalCode":"84533","locality":"Haiming","municipality":{"key":"09171118","name":"Haiming","type":"Kreisangehörige_Gemeinde"},"district":{"key":"09171","name":"Altötting","type":"Landkreis"},"federalState":{"key":"09","name":"Bayern"}},{"name":"Am Zehentweg","postalCode":"84533","locality":"Haiming","municipality":{"key":"09171118","name":"Haiming","type":"Kreisangehörige_Gemeinde"},"district":{"key":"09171","name":"Altötting","type":"Landkreis"},"federalState":{"key":"09","name":"Bayern"}},{"name":"Angererweg","postalCode":"84533","locality":"Haiming","municipality":{"key":"09171118","name":"Haiming","type":"Kreisangehörige_Gemeinde"},"district":{"key":"09171","name":"Altötting","type":"Landkreis"},"federalState":{"key":"09","name":"Bayern"}},{"name":"Asternweg","postalCode":"84533","locality":"Haiming","municipality":{"key":"09171118","name":"Haiming","type":"Kreisangehörige_Gemeinde"},"district":{"key":"09171","name":"Altötting","type":"Landkreis"},"federalState":{"key":"09","name":"Bayern"}},{"name":"Blumenstr.","postalCode":"84533","locality":"Haiming","municipality":{"key":"09171118","name":"Haiming","type":"Kreisangehörige_Gemeinde"},"district":{"key":"09171","name":"Altötting","type":"Landkreis"},"federalState":{"key":"09","name":"Bayern"}},{"name":"Blütenweg","postalCode":"84533","locality":"Haiming","municipality":{"key":"09171118","name":"Haiming","type":"Kreisangehörige_Gemeinde"},"district":{"key":"09171","name":"Altötting","type":"Landkreis"},"federalState":{"key":"09","name":"Bayern"}},{"name":"Burghauser Str.","postalCode":"84533","locality":"Haiming","municipality":{"key":"09171118","name":"Haiming","type":"Kreisangehörige_Gemeinde"},"district":{"key":"09171","name":"Altötting","type":"Landkreis"},"federalState":{"key":"09","name":"Bayern"}},{"name":"Caritasweg","postalCode":"84503","locality":"Altötting","municipality":{"key":"09171111","name":"Altötting, St","type":"Stadt"},"district":{"key":"09171","name":"Altötting","type":"Landkreis"},"federalState":{"key":"09","name":"Bayern"}},{"name":"Carl-Benz-Str.","postalCode":"84503","locality":"Altötting","municipality":{"key":"09171111","name":"Altötting, St","type":"Stadt"},"district":{"key":"09171","name":"Altötting","type":"Landkreis"},"federalState":{"key":"09","name":"Bayern"}},{"name":"Carl-Orff-Str.","postalCode":"84503","locality":"Altötting","municipality":{"key":"09171111","name":"Altötting, St","type":"Stadt"},"district":{"key":"09171","name":"Altötting","type":"Landkreis"},"federalState":{"key":"09","name":"Bayern"}},{"name":"Chiemgaustr.","postalCode":"84503","locality":"Altötting","municipality":{"key":"09171111","name":"Altötting, St","type":"Stadt"},"district":{"key":"09171","name":"Altötting","type":"Landkreis"},"federalState":{"key":"09","name":"Bayern"}},{"name":"Cyprianstr.","postalCode":"84503","locality":"Altötting","municipality":{"key":"09171111","name":"Altötting, St","type":"Stadt"},"district":{"key":"09171","name":"Altötting","type":"Landkreis"},"federalState":{"key":"09","name":"Bayern"}},{"name":"Dahlienweg","postalCode":"84533","locality":"Haiming","municipality":{"key":"09171118","name":"Haiming","type":"Kreisangehörige_Gemeinde"},"district":{"key":"09171","name":"Altötting","type":"Landkreis"},"federalState":{"key":"09","name":"Bayern"}},{"name":"Dorfstr.","postalCode":"84533","locality":"Haiming","municipality":{"key":"09171118","name":"Haiming","type":"Kreisangehörige_Gemeinde"},"district":{"key":"09171","name":"Altötting","type":"Landkreis"},"federalState":{"key":"09","name":"Bayern"}},{"name":"Erlenstr.","postalCode":"84533","locality":"Haiming","municipality":{"key":"09171118","name":"Haiming","type":"Kreisangehörige_Gemeinde"},"district":{"key":"09171","name":"Altötting","type":"Landkreis"},"federalState":{"key":"09","name":"Bayern"}},{"name":"Fahnbacher Str.","postalCode":"84533","locality":"Haiming","municipality":{"key":"09171118","name":"Haiming","type":"Kreisangehörige_Gemeinde"},"district":{"key":"09171","name":"Altötting","type":"Landkreis"},"federalState":{"key":"09","name":"Bayern"}},{"name":"Fliederweg","postalCode":"84533","locality":"Haiming","municipality":{"key":"09171118","name":"Haiming","type":"Kreisangehörige_Gemeinde"},"district":{"key":"09171","name":"Altötting","type":"Landkreis"},"federalState":{"key":"09","name":"Bayern"}},{"name":"Gartenweg","postalCode":"84533","locality":"Haiming","municipality":{"key":"09171118","name":"Haiming","type":"Kreisangehörige_Gemeinde"},"district":{"key":"09171","name":"Altötting","type":"Landkreis"},"federalState":{"key":"09","name":"Bayern"}},{"name":"Gradlweg","postalCode":"84533","locality":"Haiming","municipality":{"key":"09171118","name":"Haiming","type":"Kreisangehörige_Gemeinde"},"district":{"key":"09171","name":"Altötting","type":"Landkreis"},"federalState":{"key":"09","name":"Bayern"}},{"name":"Grünkreuzweg","postalCode":"84533","locality":"Haiming","municipality":{"key":"09171118","name":"Haiming","type":"Kreisangehörige_Gemeinde"},"district":{"key":"09171","name":"Altötting","type":"Landkreis"},"federalState":{"key":"09","name":"Bayern"}},{"name":"Haiminger Str.","postalCode":"84533","locality":"Haiming","municipality":{"key":"09171118","name":"Haiming","type":"Kreisangehörige_Gemeinde"},"district":{"key":"09171","name":"Altötting","type":"Landkreis"},"federalState":{"key":"09","name":"Bayern"}},{"name":"Hauptstr.","postalCode":"84533","locality":"Haiming","municipality":{"key":"09171118","name":"Haiming","type":"Kreisangehörige_Gemeinde"},"district":{"key":"09171","name":"Altötting","type":"Landkreis"},"federalState":{"key":"09","name":"Bayern"}},{"name":"Hub","postalCode":"84533","locality":"Haiming","municipality":{"key":"09171118","name":"Haiming","type":"Kreisangehörige_Gemeinde"},"district":{"key":"09171","name":"Altötting","type":"Landkreis"},"federalState":{"key":"09","name":"Bayern"}},{"name":"Innstr.","postalCode":"84533","locality":"Haiming","municipality":{"key":"09171118","name":"Haiming","type":"Kreisangehörige_Gemeinde"},"district":{"key":"09171","name":"Altötting","type":"Landkreis"},"federalState":{"key":"09","name":"Bayern"}},{"name":"Jahnstr.","postalCode":"84503","locality":"Altötting","municipality":{"key":"09171111","name":"Altötting, St","type":"Stadt"},"district":{"key":"09171","name":"Altötting","type":"Landkreis"},"federalState":{"key":"09","name":"Bayern"}},{"name":"Jakob-Waldhauser-Str.","postalCode":"84503","locality":"Altötting","municipality":{"key":"09171111","name":"Altötting, St","type":"Stadt"},"district":{"key":"09171","name":"Altötting","type":"Landkreis"},"federalState":{"key":"09","name":"Bayern"}},{"name":"Jennerstr.","postalCode":"84503","locality":"Altötting","municipality":{"key":"09171111","name":"Altötting, St","type":"Stadt"},"district":{"key":"09171","name":"Altötting","type":"Landkreis"},"federalState":{"key":"09","name":"Bayern"}},{"name":"Jesuitenweg","postalCode":"84503","locality":"Altötting","municipality":{"key":"09171111","name":"Altötting, St","type":"Stadt"},"district":{"key":"09171","name":"Altötting","type":"Landkreis"},"federalState":{"key":"09","name":"Bayern"}},{"name":"Josef-Bruckmayer-Str.","postalCode":"84503","locality":"Altötting","municipality":{"key":"09171111","name":"Altötting, St","type":"Stadt"},"district":{"key":"09171","name":"Altötting","type":"Landkreis"},"federalState":{"key":"09","name":"Bayern"}},{"name":"Josef-Geiselberger-Str.","postalCode":"84503","locality":"Altötting","municipality":{"key":"09171111","name":"Altötting, St","type":"Stadt"},"district":{"key":"09171","name":"Altötting","type":"Landkreis"},"federalState":{"key":"09","name":"Bayern"}},{"name":"Josef-Hofmiller-Weg","postalCode":"84503","locality":"Altötting","municipality":{"key":"09171111","name":"Altötting, St","type":"Stadt"},"district":{"key":"09171","name":"Altötting","type":"Landkreis"},"federalState":{"key":"09","name":"Bayern"}},{"name":"Josef-Kehrer-Str.","postalCode":"84503","locality":"Altötting","municipality":{"key":"09171111","name":"Altötting, St","type":"Stadt"},"district":{"key":"09171","name":"Altötting","type":"Landkreis"},"federalState":{"key":"09","name":"Bayern"}},{"name":"Josef-Leitl-Str.","postalCode":"84503","locality":"Altötting","municipality":{"key":"09171111","name":"Altötting, St","type":"Stadt"},"district":{"key":"09171","name":"Altötting","type":"Landkreis"},"federalState":{"key":"09","name":"Bayern"}},{"name":"Josef-Neumeier-Str.","postalCode":"84503","locality":"Altötting","municipality":{"key":"09171111","name":"Altötting, St","type":"Stadt"},"district":{"key":"09171","name":"Altötting","type":"Landkreis"},"federalState":{"key":"09","name":"Bayern"}},{"name":"Josefsburggasse","postalCode":"84503","locality":"Altötting","municipality":{"key":"09171111","name":"Altötting, St","type":"Stadt"},"district":{"key":"09171","name":"Altötting","type":"Landkreis"},"federalState":{"key":"09","name":"Bayern"}},{"name":"Justus-von-Liebig-Str.","postalCode":"84503","locality":"Altötting","municipality":{"key":"09171111","name":"Altötting, St","type":"Stadt"},"district":{"key":"09171","name":"Altötting","type":"Landkreis"},"federalState":{"key":"09","name":"Bayern"}},{"name":"Kemerting","postalCode":"84533","locality":"Haiming","municipality":{"key":"09171118","name":"Haiming","type":"Kreisangehörige_Gemeinde"},"district":{"key":"09171","name":"Altötting","type":"Landkreis"},"federalState":{"key":"09","name":"Bayern"}},{"name":"Kleebauerweg","postalCode":"84533","locality":"Haiming","municipality":{"key":"09171118","name":"Haiming","type":"Kreisangehörige_Gemeinde"},"district":{"key":"09171","name":"Altötting","type":"Landkreis"},"federalState":{"key":"09","name":"Bayern"}},{"name":"Kramerweg","postalCode":"84533","locality":"Haiming","municipality":{"key":"09171118","name":"Haiming","type":"Kreisangehörige_Gemeinde"},"district":{"key":"09171","name":"Altötting","type":"Landkreis"},"federalState":{"key":"09","name":"Bayern"}},{"name":"Leichspoint","postalCode":"84533","locality":"Haiming","municipality":{"key":"09171118","name":"Haiming","type":"Kreisangehörige_Gemeinde"},"district":{"key":"09171","name":"Altötting","type":"Landkreis"},"federalState":{"key":"09","name":"Bayern"}},{"name":"Lilienweg","postalCode":"84533","locality":"Haiming","municipality":{"key":"09171118","name":"Haiming","type":"Kreisangehörige_Gemeinde"},"district":{"key":"09171","name":"Altötting","type":"Landkreis"},"federalState":{"key":"09","name":"Bayern"}},{"name":"Lindenstr.","postalCode":"84533","locality":"Haiming","municipality":{"key":"09171118","name":"Haiming","type":"Kreisangehörige_Gemeinde"},"district":{"key":"09171","name":"Altötting","type":"Landkreis"},"federalState":{"key":"09","name":"Bayern"}},{"name":"Marktler Str.","postalCode":"84533","locality":"Haiming","municipality":{"key":"09171118","name":"Haiming","type":"Kreisangehörige_Gemeinde"},"district":{"key":"09171","name":"Altötting","type":"Landkreis"},"federalState":{"key":"09","name":"Bayern"}},{"name":"Moosen","postalCode":"84533","locality":"Haiming","municipality":{"key":"09171118","name":"Haiming","type":"Kreisangehörige_Gemeinde"},"district":{"key":"09171","name":"Altötting","type":"Landkreis"},"federalState":{"key":"09","name":"Bayern"}},{"name":"Motzenbrunn","postalCode":"84533","locality":"Haiming","municipality":{"key":"09171118","name":"Haiming","type":"Kreisangehörige_Gemeinde"},"district":{"key":"09171","name":"Altötting","type":"Landkreis"},"federalState":{"key":"09","name":"Bayern"}},{"name":"Mühlbachweg","postalCode":"84533","locality":"Haiming","municipality":{"key":"09171118","name":"Haiming","type":"Kreisangehörige_Gemeinde"},"district":{"key":"09171","name":"Altötting","type":"Landkreis"},"federalState":{"key":"09","name":"Bayern"}},{"name":"Narzissenweg","postalCode":"84533","locality":"Haiming","municipality":{"key":"09171118","name":"Haiming","type":"Kreisangehörige_Gemeinde"},"district":{"key":"09171","name":"Altötting","type":"Landkreis"},"federalState":{"key":"09","name":"Bayern"}},{"name":"Nelkenweg","postalCode":"84533","locality":"Haiming","municipality":{"key":"09171118","name":"Haiming","type":"Kreisangehörige_Gemeinde"},"district":{"key":"09171","name":"Altötting","type":"Landkreis"},"federalState":{"key":"09","name":"Bayern"}},{"name":"Neuhofen","postalCode":"84533","locality":"Haiming","municipality":{"key":"09171118","name":"Haiming","type":"Kreisangehörige_Gemeinde"},"district":{"key":"09171","name":"Altötting","type":"Landkreis"},"federalState":{"key":"09","name":"Bayern"}},{"name":"Nördliches Hauptgeräumt","postalCode":"84533","locality":"Haiming","municipality":{"key":"09171118","name":"Haiming","type":"Kreisangehörige_Gemeinde"},"district":{"key":"09171","name":"Altötting","type":"Landkreis"},"federalState":{"key":"09","name":"Bayern"}},{"name":"Oberviehhausen","postalCode":"84533","locality":"Haiming","municipality":{"key":"09171118","name":"Haiming","type":"Kreisangehörige_Gemeinde"},"district":{"key":"09171","name":"Altötting","type":"Landkreis"},"federalState":{"key":"09","name":"Bayern"}},{"name":"Pappelweg","postalCode":"84533","locality":"Haiming","municipality":{"key":"09171118","name":"Haiming","type":"Kreisangehörige_Gemeinde"},"district":{"key":"09171","name":"Altötting","type":"Landkreis"},"federalState":{"key":"09","name":"Bayern"}},{"name":"Piesing","postalCode":"84533","locality":"Haiming","municipality":{"key":"09171118","name":"Haiming","type":"Kreisangehörige_Gemeinde"},"district":{"key":"09171","name":"Altötting","type":"Landkreis"},"federalState":{"key":"09","name":"Bayern"}},{"name":"Rosenstr.","postalCode":"84533","locality":"Haiming","municipality":{"key":"09171118","name":"Haiming","type":"Kreisangehörige_Gemeinde"},"district":{"key":"09171","name":"Altötting","type":"Landkreis"},"federalState":{"key":"09","name":"Bayern"}},{"name":"Sallerweg","postalCode":"84533","locality":"Haiming","municipality":{"key":"09171118","name":"Haiming","type":"Kreisangehörige_Gemeinde"},"district":{"key":"09171","name":"Altötting","type":"Landkreis"},"federalState":{"key":"09","name":"Bayern"}},{"name":"Schloßstr.","postalCode":"84533","locality":"Haiming","municipality":{"key":"09171118","name":"Haiming","type":"Kreisangehörige_Gemeinde"},"district":{"key":"09171","name":"Altötting","type":"Landkreis"},"federalState":{"key":"09","name":"Bayern"}},{"name":"Schöffbergweg","postalCode":"84533","locality":"Haiming","municipality":{"key":"09171118","name":"Haiming","type":"Kreisangehörige_Gemeinde"},"district":{"key":"09171","name":"Altötting","type":"Landkreis"},"federalState":{"key":"09","name":"Bayern"}},{"name":"Stegmüllerweg","postalCode":"84533","locality":"Haiming","municipality":{"key":"09171118","name":"Haiming","type":"Kreisangehörige_Gemeinde"},"district":{"key":"09171","name":"Altötting","type":"Landkreis"},"federalState":{"key":"09","name":"Bayern"}},{"name":"Tulpenweg","postalCode":"84533","locality":"Haiming","municipality":{"key":"09171118","name":"Haiming","type":"Kreisangehörige_Gemeinde"},"district":{"key":"09171","name":"Altötting","type":"Landkreis"},"federalState":{"key":"09","name":"Bayern"}},{"name":"Unterviehhausen","postalCode":"84533","locality":"Haiming","municipality":{"key":"09171118","name":"Haiming","type":"Kreisangehörige_Gemeinde"},"district":{"key":"09171","name":"Altötting","type":"Landkreis"},"federalState":{"key":"09","name":"Bayern"}},{"name":"Veilchenweg","postalCode":"84533","locality":"Haiming","municipality":{"key":"09171118","name":"Haiming","type":"Kreisangehörige_Gemeinde"},"district":{"key":"09171","name":"Altötting","type":"Landkreis"},"federalState":{"key":"09","name":"Bayern"}},{"name":"Weg","postalCode":"84533","locality":"Haiming","municipality":{"key":"09171118","name":"Haiming","type":"Kreisangehörige_Gemeinde"},"district":{"key":"09171","name":"Altötting","type":"Landkreis"},"federalState":{"key":"09","name":"Bayern"}},{"name":"Wiesenweg","postalCode":"84533","locality":"Haiming","municipality":{"key":"09171118","name":"Haiming","type":"Kreisangehörige_Gemeinde"},"district":{"key":"09171","name":"Altötting","type":"Landkreis"},"federalState":{"key":"09","name":"Bayern"}},{"name":"Zinngießerstr.","postalCode":"84503","locality":"Altötting","municipality":{"key":"09171111","name":"Altötting, St","type":"Stadt"},"district":{"key":"09171","name":"Altötting","type":"Landkreis"},"federalState":{"key":"09","name":"Bayern"}},{"name":"Zuccalliplatz","postalCode":"84503","locality":"Altötting","municipality":{"key":"09171111","name":"Altötting, St","type":"Stadt"},"district":{"key":"09171","name":"Altötting","type":"Landkreis"},"federalState":{"key":"09","name":"Bayern"}},{"name":"Äußere Schlotthamer Str.","postalCode":"84503","locality":"Altötting","municipality":{"key":"09171111","name":"Altötting, St","type":"Stadt"},"district":{"key":"09171","name":"Altötting","type":"Landkreis"},"federalState":{"key":"09","name":"Bayern"}},]