[{"name":"Ahrensböker Weg","postalCode":"23936","locality":"Grevesmühlen","municipality":{"key":"13074026","name":"Grevesmühlen, Stadt","type":"Stadt"},"district":{"key":"13074","name":"Nordwestmecklenburg","type":"Landkreis"},"federalState":{"key":"13","name":"Mecklenburg-Vorpommern"}},{"name":"Alte Gärtnerei","postalCode":"23936","locality":"Grevesmühlen","municipality":{"key":"13074026","name":"Grevesmühlen, Stadt","type":"Stadt"},"district":{"key":"13074","name":"Nordwestmecklenburg","type":"Landkreis"},"federalState":{"key":"13","name":"Mecklenburg-Vorpommern"}},{"name":"Alte Schäferei","postalCode":"23936","locality":"Grevesmühlen","municipality":{"key":"13074026","name":"Grevesmühlen, Stadt","type":"Stadt"},"district":{"key":"13074","name":"Nordwestmecklenburg","type":"Landkreis"},"federalState":{"key":"13","name":"Mecklenburg-Vorpommern"}},{"name":"Am Bahnhof","postalCode":"23936","locality":"Grevesmühlen","municipality":{"key":"13074026","name":"Grevesmühlen, Stadt","type":"Stadt"},"district":{"key":"13074","name":"Nordwestmecklenburg","type":"Landkreis"},"federalState":{"key":"13","name":"Mecklenburg-Vorpommern"}},{"name":"Am Bleicher Berg","postalCode":"23936","locality":"Grevesmühlen","municipality":{"key":"13074026","name":"Grevesmühlen, Stadt","type":"Stadt"},"district":{"key":"13074","name":"Nordwestmecklenburg","type":"Landkreis"},"federalState":{"key":"13","name":"Mecklenburg-Vorpommern"}},{"name":"Am Grünen Steig","postalCode":"23936","locality":"Grevesmühlen","municipality":{"key":"13074026","name":"Grevesmühlen, Stadt","type":"Stadt"},"district":{"key":"13074","name":"Nordwestmecklenburg","type":"Landkreis"},"federalState":{"key":"13","name":"Mecklenburg-Vorpommern"}},{"name":"Am Kapellenberg","postalCode":"23936","locality":"Grevesmühlen","municipality":{"key":"13074026","name":"Grevesmühlen, Stadt","type":"Stadt"},"district":{"key":"13074","name":"Nordwestmecklenburg","type":"Landkreis"},"federalState":{"key":"13","name":"Mecklenburg-Vorpommern"}},{"name":"Am langen Stein","postalCode":"23936","locality":"Grevesmühlen","municipality":{"key":"13074026","name":"Grevesmühlen, Stadt","type":"Stadt"},"district":{"key":"13074","name":"Nordwestmecklenburg","type":"Landkreis"},"federalState":{"key":"13","name":"Mecklenburg-Vorpommern"}},{"name":"Am Lustgarten","postalCode":"23936","locality":"Grevesmühlen","municipality":{"key":"13074026","name":"Grevesmühlen, Stadt","type":"Stadt"},"district":{"key":"13074","name":"Nordwestmecklenburg","type":"Landkreis"},"federalState":{"key":"13","name":"Mecklenburg-Vorpommern"}},{"name":"Am Ploggensee","postalCode":"23936","locality":"Grevesmühlen","municipality":{"key":"13074026","name":"Grevesmühlen, Stadt","type":"Stadt"},"district":{"key":"13074","name":"Nordwestmecklenburg","type":"Landkreis"},"federalState":{"key":"13","name":"Mecklenburg-Vorpommern"}},{"name":"Am Sandsteig","postalCode":"23936","locality":"Grevesmühlen","municipality":{"key":"13074026","name":"Grevesmühlen, Stadt","type":"Stadt"},"district":{"key":"13074","name":"Nordwestmecklenburg","type":"Landkreis"},"federalState":{"key":"13","name":"Mecklenburg-Vorpommern"}},{"name":"Am Waldweg","postalCode":"23936","locality":"Grevesmühlen","municipality":{"key":"13074026","name":"Grevesmühlen, Stadt","type":"Stadt"},"district":{"key":"13074","name":"Nordwestmecklenburg","type":"Landkreis"},"federalState":{"key":"13","name":"Mecklenburg-Vorpommern"}},{"name":"Am Walkmühlengraben","postalCode":"23936","locality":"Grevesmühlen","municipality":{"key":"13074026","name":"Grevesmühlen, Stadt","type":"Stadt"},"district":{"key":"13074","name":"Nordwestmecklenburg","type":"Landkreis"},"federalState":{"key":"13","name":"Mecklenburg-Vorpommern"}},{"name":"Am Wasserturm","postalCode":"23936","locality":"Grevesmühlen","municipality":{"key":"13074026","name":"Grevesmühlen, Stadt","type":"Stadt"},"district":{"key":"13074","name":"Nordwestmecklenburg","type":"Landkreis"},"federalState":{"key":"13","name":"Mecklenburg-Vorpommern"}},{"name":"Am Wiesengrund","postalCode":"23936","locality":"Grevesmühlen","municipality":{"key":"13074026","name":"Grevesmühlen, Stadt","type":"Stadt"},"district":{"key":"13074","name":"Nordwestmecklenburg","type":"Landkreis"},"federalState":{"key":"13","name":"Mecklenburg-Vorpommern"}},{"name":"An der Burdenow","postalCode":"23936","locality":"Grevesmühlen","municipality":{"key":"13074026","name":"Grevesmühlen, Stadt","type":"Stadt"},"district":{"key":"13074","name":"Nordwestmecklenburg","type":"Landkreis"},"federalState":{"key":"13","name":"Mecklenburg-Vorpommern"}},{"name":"An der Kastanienallee","postalCode":"23936","locality":"Grevesmühlen","municipality":{"key":"13074026","name":"Grevesmühlen, Stadt","type":"Stadt"},"district":{"key":"13074","name":"Nordwestmecklenburg","type":"Landkreis"},"federalState":{"key":"13","name":"Mecklenburg-Vorpommern"}},{"name":"An der Trift","postalCode":"23936","locality":"Grevesmühlen","municipality":{"key":"13074026","name":"Grevesmühlen, Stadt","type":"Stadt"},"district":{"key":"13074","name":"Nordwestmecklenburg","type":"Landkreis"},"federalState":{"key":"13","name":"Mecklenburg-Vorpommern"}},{"name":"August-Bebel-Str.","postalCode":"23936","locality":"Grevesmühlen","municipality":{"key":"13074026","name":"Grevesmühlen, Stadt","type":"Stadt"},"district":{"key":"13074","name":"Nordwestmecklenburg","type":"Landkreis"},"federalState":{"key":"13","name":"Mecklenburg-Vorpommern"}},{"name":"Außenweg","postalCode":"23936","locality":"Grevesmühlen","municipality":{"key":"13074026","name":"Grevesmühlen, Stadt","type":"Stadt"},"district":{"key":"13074","name":"Nordwestmecklenburg","type":"Landkreis"},"federalState":{"key":"13","name":"Mecklenburg-Vorpommern"}},{"name":"Bäckergang","postalCode":"23936","locality":"Grevesmühlen","municipality":{"key":"13074026","name":"Grevesmühlen, Stadt","type":"Stadt"},"district":{"key":"13074","name":"Nordwestmecklenburg","type":"Landkreis"},"federalState":{"key":"13","name":"Mecklenburg-Vorpommern"}},{"name":"Badstüberbruch","postalCode":"23936","locality":"Grevesmühlen","municipality":{"key":"13074026","name":"Grevesmühlen, Stadt","type":"Stadt"},"district":{"key":"13074","name":"Nordwestmecklenburg","type":"Landkreis"},"federalState":{"key":"13","name":"Mecklenburg-Vorpommern"}},{"name":"Bahnhofstr.","postalCode":"23936","locality":"Grevesmühlen","municipality":{"key":"13074026","name":"Grevesmühlen, Stadt","type":"Stadt"},"district":{"key":"13074","name":"Nordwestmecklenburg","type":"Landkreis"},"federalState":{"key":"13","name":"Mecklenburg-Vorpommern"}},{"name":"Bahnwärterhaus","postalCode":"23936","locality":"Grevesmühlen","municipality":{"key":"13074026","name":"Grevesmühlen, Stadt","type":"Stadt"},"district":{"key":"13074","name":"Nordwestmecklenburg","type":"Landkreis"},"federalState":{"key":"13","name":"Mecklenburg-Vorpommern"}},{"name":"Behrensgang","postalCode":"23936","locality":"Grevesmühlen","municipality":{"key":"13074026","name":"Grevesmühlen, Stadt","type":"Stadt"},"district":{"key":"13074","name":"Nordwestmecklenburg","type":"Landkreis"},"federalState":{"key":"13","name":"Mecklenburg-Vorpommern"}},{"name":"Birkenweg","postalCode":"23936","locality":"Grevesmühlen","municipality":{"key":"13074026","name":"Grevesmühlen, Stadt","type":"Stadt"},"district":{"key":"13074","name":"Nordwestmecklenburg","type":"Landkreis"},"federalState":{"key":"13","name":"Mecklenburg-Vorpommern"}},{"name":"Burdenowstr.","postalCode":"23936","locality":"Grevesmühlen","municipality":{"key":"13074026","name":"Grevesmühlen, Stadt","type":"Stadt"},"district":{"key":"13074","name":"Nordwestmecklenburg","type":"Landkreis"},"federalState":{"key":"13","name":"Mecklenburg-Vorpommern"}},{"name":"Dahlienweg","postalCode":"23936","locality":"Grevesmühlen","municipality":{"key":"13074026","name":"Grevesmühlen, Stadt","type":"Stadt"},"district":{"key":"13074","name":"Nordwestmecklenburg","type":"Landkreis"},"federalState":{"key":"13","name":"Mecklenburg-Vorpommern"}},{"name":"Degtower Weg","postalCode":"23936","locality":"Grevesmühlen","municipality":{"key":"13074026","name":"Grevesmühlen, Stadt","type":"Stadt"},"district":{"key":"13074","name":"Nordwestmecklenburg","type":"Landkreis"},"federalState":{"key":"13","name":"Mecklenburg-Vorpommern"}},{"name":"Dorfstr.","postalCode":"23936","locality":"Grevesmühlen","municipality":{"key":"13074026","name":"Grevesmühlen, Stadt","type":"Stadt"},"district":{"key":"13074","name":"Nordwestmecklenburg","type":"Landkreis"},"federalState":{"key":"13","name":"Mecklenburg-Vorpommern"}},{"name":"Fliederweg","postalCode":"23936","locality":"Grevesmühlen","municipality":{"key":"13074026","name":"Grevesmühlen, Stadt","type":"Stadt"},"district":{"key":"13074","name":"Nordwestmecklenburg","type":"Landkreis"},"federalState":{"key":"13","name":"Mecklenburg-Vorpommern"}},{"name":"Försterei","postalCode":"23936","locality":"Grevesmühlen","municipality":{"key":"13074026","name":"Grevesmühlen, Stadt","type":"Stadt"},"district":{"key":"13074","name":"Nordwestmecklenburg","type":"Landkreis"},"federalState":{"key":"13","name":"Mecklenburg-Vorpommern"}},{"name":"Forstkaten","postalCode":"23936","locality":"Grevesmühlen","municipality":{"key":"13074026","name":"Grevesmühlen, Stadt","type":"Stadt"},"district":{"key":"13074","name":"Nordwestmecklenburg","type":"Landkreis"},"federalState":{"key":"13","name":"Mecklenburg-Vorpommern"}},{"name":"Freytagstr.","postalCode":"23936","locality":"Grevesmühlen","municipality":{"key":"13074026","name":"Grevesmühlen, Stadt","type":"Stadt"},"district":{"key":"13074","name":"Nordwestmecklenburg","type":"Landkreis"},"federalState":{"key":"13","name":"Mecklenburg-Vorpommern"}},{"name":"Friedrich-Belg-Str.","postalCode":"23936","locality":"Grevesmühlen","municipality":{"key":"13074026","name":"Grevesmühlen, Stadt","type":"Stadt"},"district":{"key":"13074","name":"Nordwestmecklenburg","type":"Landkreis"},"federalState":{"key":"13","name":"Mecklenburg-Vorpommern"}},{"name":"Fritz-Reuter-Str.","postalCode":"23936","locality":"Grevesmühlen","municipality":{"key":"13074026","name":"Grevesmühlen, Stadt","type":"Stadt"},"district":{"key":"13074","name":"Nordwestmecklenburg","type":"Landkreis"},"federalState":{"key":"13","name":"Mecklenburg-Vorpommern"}},{"name":"Gänsebrink","postalCode":"23936","locality":"Grevesmühlen","municipality":{"key":"13074026","name":"Grevesmühlen, Stadt","type":"Stadt"},"district":{"key":"13074","name":"Nordwestmecklenburg","type":"Landkreis"},"federalState":{"key":"13","name":"Mecklenburg-Vorpommern"}},{"name":"Gartenstr.","postalCode":"23936","locality":"Grevesmühlen","municipality":{"key":"13074026","name":"Grevesmühlen, Stadt","type":"Stadt"},"district":{"key":"13074","name":"Nordwestmecklenburg","type":"Landkreis"},"federalState":{"key":"13","name":"Mecklenburg-Vorpommern"}},{"name":"Gebhardstr.","postalCode":"23936","locality":"Grevesmühlen","municipality":{"key":"13074026","name":"Grevesmühlen, Stadt","type":"Stadt"},"district":{"key":"13074","name":"Nordwestmecklenburg","type":"Landkreis"},"federalState":{"key":"13","name":"Mecklenburg-Vorpommern"}},{"name":"Gebhardweg","postalCode":"23936","locality":"Grevesmühlen","municipality":{"key":"13074026","name":"Grevesmühlen, Stadt","type":"Stadt"},"district":{"key":"13074","name":"Nordwestmecklenburg","type":"Landkreis"},"federalState":{"key":"13","name":"Mecklenburg-Vorpommern"}},{"name":"Gerberhof","postalCode":"23936","locality":"Grevesmühlen","municipality":{"key":"13074026","name":"Grevesmühlen, Stadt","type":"Stadt"},"district":{"key":"13074","name":"Nordwestmecklenburg","type":"Landkreis"},"federalState":{"key":"13","name":"Mecklenburg-Vorpommern"}},{"name":"Goethestr.","postalCode":"23936","locality":"Grevesmühlen","municipality":{"key":"13074026","name":"Grevesmühlen, Stadt","type":"Stadt"},"district":{"key":"13074","name":"Nordwestmecklenburg","type":"Landkreis"},"federalState":{"key":"13","name":"Mecklenburg-Vorpommern"}},{"name":"Große Alleestr.","postalCode":"23936","locality":"Grevesmühlen","municipality":{"key":"13074026","name":"Grevesmühlen, Stadt","type":"Stadt"},"district":{"key":"13074","name":"Nordwestmecklenburg","type":"Landkreis"},"federalState":{"key":"13","name":"Mecklenburg-Vorpommern"}},{"name":"Großer Vogelsang","postalCode":"23936","locality":"Grevesmühlen","municipality":{"key":"13074026","name":"Grevesmühlen, Stadt","type":"Stadt"},"district":{"key":"13074","name":"Nordwestmecklenburg","type":"Landkreis"},"federalState":{"key":"13","name":"Mecklenburg-Vorpommern"}},{"name":"Große Seestr.","postalCode":"23936","locality":"Grevesmühlen","municipality":{"key":"13074026","name":"Grevesmühlen, Stadt","type":"Stadt"},"district":{"key":"13074","name":"Nordwestmecklenburg","type":"Landkreis"},"federalState":{"key":"13","name":"Mecklenburg-Vorpommern"}},{"name":"Große Voßstr.","postalCode":"23936","locality":"Grevesmühlen","municipality":{"key":"13074026","name":"Grevesmühlen, Stadt","type":"Stadt"},"district":{"key":"13074","name":"Nordwestmecklenburg","type":"Landkreis"},"federalState":{"key":"13","name":"Mecklenburg-Vorpommern"}},{"name":"Grüner Ring","postalCode":"23936","locality":"Grevesmühlen","municipality":{"key":"13074026","name":"Grevesmühlen, Stadt","type":"Stadt"},"district":{"key":"13074","name":"Nordwestmecklenburg","type":"Landkreis"},"federalState":{"key":"13","name":"Mecklenburg-Vorpommern"}},{"name":"Grüner Weg","postalCode":"23936","locality":"Grevesmühlen","municipality":{"key":"13074026","name":"Grevesmühlen, Stadt","type":"Stadt"},"district":{"key":"13074","name":"Nordwestmecklenburg","type":"Landkreis"},"federalState":{"key":"13","name":"Mecklenburg-Vorpommern"}},{"name":"Hamburger Berg","postalCode":"23936","locality":"Grevesmühlen","municipality":{"key":"13074026","name":"Grevesmühlen, Stadt","type":"Stadt"},"district":{"key":"13074","name":"Nordwestmecklenburg","type":"Landkreis"},"federalState":{"key":"13","name":"Mecklenburg-Vorpommern"}},{"name":"Hamburger Ring","postalCode":"23936","locality":"Grevesmühlen","municipality":{"key":"13074026","name":"Grevesmühlen, Stadt","type":"Stadt"},"district":{"key":"13074","name":"Nordwestmecklenburg","type":"Landkreis"},"federalState":{"key":"13","name":"Mecklenburg-Vorpommern"}},{"name":"Heinrich-Heine-Str.","postalCode":"23936","locality":"Grevesmühlen","municipality":{"key":"13074026","name":"Grevesmühlen, Stadt","type":"Stadt"},"district":{"key":"13074","name":"Nordwestmecklenburg","type":"Landkreis"},"federalState":{"key":"13","name":"Mecklenburg-Vorpommern"}},{"name":"Hinterstr.","postalCode":"23936","locality":"Grevesmühlen","municipality":{"key":"13074026","name":"Grevesmühlen, Stadt","type":"Stadt"},"district":{"key":"13074","name":"Nordwestmecklenburg","type":"Landkreis"},"federalState":{"key":"13","name":"Mecklenburg-Vorpommern"}},{"name":"Im Vogelsang","postalCode":"23936","locality":"Grevesmühlen","municipality":{"key":"13074026","name":"Grevesmühlen, Stadt","type":"Stadt"},"district":{"key":"13074","name":"Nordwestmecklenburg","type":"Landkreis"},"federalState":{"key":"13","name":"Mecklenburg-Vorpommern"}},{"name":"Jahnstr.","postalCode":"23936","locality":"Grevesmühlen","municipality":{"key":"13074026","name":"Grevesmühlen, Stadt","type":"Stadt"},"district":{"key":"13074","name":"Nordwestmecklenburg","type":"Landkreis"},"federalState":{"key":"13","name":"Mecklenburg-Vorpommern"}},{"name":"John-Brinckman-Str.","postalCode":"23936","locality":"Grevesmühlen","municipality":{"key":"13074026","name":"Grevesmühlen, Stadt","type":"Stadt"},"district":{"key":"13074","name":"Nordwestmecklenburg","type":"Landkreis"},"federalState":{"key":"13","name":"Mecklenburg-Vorpommern"}},{"name":"Karl-Liebknecht-Platz","postalCode":"23936","locality":"Grevesmühlen","municipality":{"key":"13074026","name":"Grevesmühlen, Stadt","type":"Stadt"},"district":{"key":"13074","name":"Nordwestmecklenburg","type":"Landkreis"},"federalState":{"key":"13","name":"Mecklenburg-Vorpommern"}},{"name":"Karl-Marx-Str.","postalCode":"23936","locality":"Grevesmühlen","municipality":{"key":"13074026","name":"Grevesmühlen, Stadt","type":"Stadt"},"district":{"key":"13074","name":"Nordwestmecklenburg","type":"Landkreis"},"federalState":{"key":"13","name":"Mecklenburg-Vorpommern"}},{"name":"Kastahner Weg","postalCode":"23936","locality":"Grevesmühlen","municipality":{"key":"13074026","name":"Grevesmühlen, Stadt","type":"Stadt"},"district":{"key":"13074","name":"Nordwestmecklenburg","type":"Landkreis"},"federalState":{"key":"13","name":"Mecklenburg-Vorpommern"}},{"name":"Kirchplatz","postalCode":"23936","locality":"Grevesmühlen","municipality":{"key":"13074026","name":"Grevesmühlen, Stadt","type":"Stadt"},"district":{"key":"13074","name":"Nordwestmecklenburg","type":"Landkreis"},"federalState":{"key":"13","name":"Mecklenburg-Vorpommern"}},{"name":"Kirchstr.","postalCode":"23936","locality":"Grevesmühlen","municipality":{"key":"13074026","name":"Grevesmühlen, Stadt","type":"Stadt"},"district":{"key":"13074","name":"Nordwestmecklenburg","type":"Landkreis"},"federalState":{"key":"13","name":"Mecklenburg-Vorpommern"}},{"name":"Klaus-Groth-Str.","postalCode":"23936","locality":"Grevesmühlen","municipality":{"key":"13074026","name":"Grevesmühlen, Stadt","type":"Stadt"},"district":{"key":"13074","name":"Nordwestmecklenburg","type":"Landkreis"},"federalState":{"key":"13","name":"Mecklenburg-Vorpommern"}},{"name":"Kleine Alleestr.","postalCode":"23936","locality":"Grevesmühlen","municipality":{"key":"13074026","name":"Grevesmühlen, Stadt","type":"Stadt"},"district":{"key":"13074","name":"Nordwestmecklenburg","type":"Landkreis"},"federalState":{"key":"13","name":"Mecklenburg-Vorpommern"}},{"name":"Kleiner Vogelsang","postalCode":"23936","locality":"Grevesmühlen","municipality":{"key":"13074026","name":"Grevesmühlen, Stadt","type":"Stadt"},"district":{"key":"13074","name":"Nordwestmecklenburg","type":"Landkreis"},"federalState":{"key":"13","name":"Mecklenburg-Vorpommern"}},{"name":"Kleine Seestr.","postalCode":"23936","locality":"Grevesmühlen","municipality":{"key":"13074026","name":"Grevesmühlen, Stadt","type":"Stadt"},"district":{"key":"13074","name":"Nordwestmecklenburg","type":"Landkreis"},"federalState":{"key":"13","name":"Mecklenburg-Vorpommern"}},{"name":"Kleine Voßstr.","postalCode":"23936","locality":"Grevesmühlen","municipality":{"key":"13074026","name":"Grevesmühlen, Stadt","type":"Stadt"},"district":{"key":"13074","name":"Nordwestmecklenburg","type":"Landkreis"},"federalState":{"key":"13","name":"Mecklenburg-Vorpommern"}},{"name":"Klützer Str.","postalCode":"23936","locality":"Grevesmühlen","municipality":{"key":"13074026","name":"Grevesmühlen, Stadt","type":"Stadt"},"district":{"key":"13074","name":"Nordwestmecklenburg","type":"Landkreis"},"federalState":{"key":"13","name":"Mecklenburg-Vorpommern"}},{"name":"Kuhhirtengang","postalCode":"23936","locality":"Grevesmühlen","municipality":{"key":"13074026","name":"Grevesmühlen, Stadt","type":"Stadt"},"district":{"key":"13074","name":"Nordwestmecklenburg","type":"Landkreis"},"federalState":{"key":"13","name":"Mecklenburg-Vorpommern"}},{"name":"Langer Steinschlag","postalCode":"23936","locality":"Grevesmühlen","municipality":{"key":"13074026","name":"Grevesmühlen, Stadt","type":"Stadt"},"district":{"key":"13074","name":"Nordwestmecklenburg","type":"Landkreis"},"federalState":{"key":"13","name":"Mecklenburg-Vorpommern"}},{"name":"Lindenallee","postalCode":"23936","locality":"Grevesmühlen","municipality":{"key":"13074026","name":"Grevesmühlen, Stadt","type":"Stadt"},"district":{"key":"13074","name":"Nordwestmecklenburg","type":"Landkreis"},"federalState":{"key":"13","name":"Mecklenburg-Vorpommern"}},{"name":"Lübecker Chaussee","postalCode":"23936","locality":"Grevesmühlen","municipality":{"key":"13074026","name":"Grevesmühlen, Stadt","type":"Stadt"},"district":{"key":"13074","name":"Nordwestmecklenburg","type":"Landkreis"},"federalState":{"key":"13","name":"Mecklenburg-Vorpommern"}},{"name":"Lübecker Str.","postalCode":"23936","locality":"Grevesmühlen","municipality":{"key":"13074026","name":"Grevesmühlen, Stadt","type":"Stadt"},"district":{"key":"13074","name":"Nordwestmecklenburg","type":"Landkreis"},"federalState":{"key":"13","name":"Mecklenburg-Vorpommern"}},{"name":"Ludwig-Kosegarten-Str.","postalCode":"23936","locality":"Grevesmühlen","municipality":{"key":"13074026","name":"Grevesmühlen, Stadt","type":"Stadt"},"district":{"key":"13074","name":"Nordwestmecklenburg","type":"Landkreis"},"federalState":{"key":"13","name":"Mecklenburg-Vorpommern"}},{"name":"Lustgarten","postalCode":"23936","locality":"Grevesmühlen","municipality":{"key":"13074026","name":"Grevesmühlen, Stadt","type":"Stadt"},"district":{"key":"13074","name":"Nordwestmecklenburg","type":"Landkreis"},"federalState":{"key":"13","name":"Mecklenburg-Vorpommern"}},{"name":"Maxim-Gorki-Str.","postalCode":"23936","locality":"Grevesmühlen","municipality":{"key":"13074026","name":"Grevesmühlen, Stadt","type":"Stadt"},"district":{"key":"13074","name":"Nordwestmecklenburg","type":"Landkreis"},"federalState":{"key":"13","name":"Mecklenburg-Vorpommern"}},{"name":"Mittelweg","postalCode":"23936","locality":"Grevesmühlen","municipality":{"key":"13074026","name":"Grevesmühlen, Stadt","type":"Stadt"},"district":{"key":"13074","name":"Nordwestmecklenburg","type":"Landkreis"},"federalState":{"key":"13","name":"Mecklenburg-Vorpommern"}},{"name":"Mönchhof","postalCode":"23936","locality":"Grevesmühlen","municipality":{"key":"13074026","name":"Grevesmühlen, Stadt","type":"Stadt"},"district":{"key":"13074","name":"Nordwestmecklenburg","type":"Landkreis"},"federalState":{"key":"13","name":"Mecklenburg-Vorpommern"}},{"name":"Mühlenblick","postalCode":"23936","locality":"Grevesmühlen","municipality":{"key":"13074026","name":"Grevesmühlen, Stadt","type":"Stadt"},"district":{"key":"13074","name":"Nordwestmecklenburg","type":"Landkreis"},"federalState":{"key":"13","name":"Mecklenburg-Vorpommern"}},{"name":"Mühlenstr.","postalCode":"23936","locality":"Grevesmühlen","municipality":{"key":"13074026","name":"Grevesmühlen, Stadt","type":"Stadt"},"district":{"key":"13074","name":"Nordwestmecklenburg","type":"Landkreis"},"federalState":{"key":"13","name":"Mecklenburg-Vorpommern"}},{"name":"Neustadt","postalCode":"23936","locality":"Grevesmühlen","municipality":{"key":"13074026","name":"Grevesmühlen, Stadt","type":"Stadt"},"district":{"key":"13074","name":"Nordwestmecklenburg","type":"Landkreis"},"federalState":{"key":"13","name":"Mecklenburg-Vorpommern"}},{"name":"Niels-Stensen-Weg","postalCode":"23936","locality":"Grevesmühlen","municipality":{"key":"13074026","name":"Grevesmühlen, Stadt","type":"Stadt"},"district":{"key":"13074","name":"Nordwestmecklenburg","type":"Landkreis"},"federalState":{"key":"13","name":"Mecklenburg-Vorpommern"}},{"name":"Parkstr.","postalCode":"23936","locality":"Grevesmühlen","municipality":{"key":"13074026","name":"Grevesmühlen, Stadt","type":"Stadt"},"district":{"key":"13074","name":"Nordwestmecklenburg","type":"Landkreis"},"federalState":{"key":"13","name":"Mecklenburg-Vorpommern"}},{"name":"Pelzerstr.","postalCode":"23936","locality":"Grevesmühlen","municipality":{"key":"13074026","name":"Grevesmühlen, Stadt","type":"Stadt"},"district":{"key":"13074","name":"Nordwestmecklenburg","type":"Landkreis"},"federalState":{"key":"13","name":"Mecklenburg-Vorpommern"}},{"name":"Pfaffenhufe","postalCode":"23936","locality":"Grevesmühlen","municipality":{"key":"13074026","name":"Grevesmühlen, Stadt","type":"Stadt"},"district":{"key":"13074","name":"Nordwestmecklenburg","type":"Landkreis"},"federalState":{"key":"13","name":"Mecklenburg-Vorpommern"}},{"name":"Ploggenseering","postalCode":"23936","locality":"Grevesmühlen","municipality":{"key":"13074026","name":"Grevesmühlen, Stadt","type":"Stadt"},"district":{"key":"13074","name":"Nordwestmecklenburg","type":"Landkreis"},"federalState":{"key":"13","name":"Mecklenburg-Vorpommern"}},{"name":"Poststeig","postalCode":"23936","locality":"Grevesmühlen","municipality":{"key":"13074026","name":"Grevesmühlen, Stadt","type":"Stadt"},"district":{"key":"13074","name":"Nordwestmecklenburg","type":"Landkreis"},"federalState":{"key":"13","name":"Mecklenburg-Vorpommern"}},{"name":"Puschkinstr.","postalCode":"23936","locality":"Grevesmühlen","municipality":{"key":"13074026","name":"Grevesmühlen, Stadt","type":"Stadt"},"district":{"key":"13074","name":"Nordwestmecklenburg","type":"Landkreis"},"federalState":{"key":"13","name":"Mecklenburg-Vorpommern"}},{"name":"Questiner Weg","postalCode":"23936","locality":"Grevesmühlen","municipality":{"key":"13074026","name":"Grevesmühlen, Stadt","type":"Stadt"},"district":{"key":"13074","name":"Nordwestmecklenburg","type":"Landkreis"},"federalState":{"key":"13","name":"Mecklenburg-Vorpommern"}},{"name":"Rehnaer Str.","postalCode":"23936","locality":"Grevesmühlen","municipality":{"key":"13074026","name":"Grevesmühlen, Stadt","type":"Stadt"},"district":{"key":"13074","name":"Nordwestmecklenburg","type":"Landkreis"},"federalState":{"key":"13","name":"Mecklenburg-Vorpommern"}},{"name":"Richard-Wossidlo-Str.","postalCode":"23936","locality":"Grevesmühlen","municipality":{"key":"13074026","name":"Grevesmühlen, Stadt","type":"Stadt"},"district":{"key":"13074","name":"Nordwestmecklenburg","type":"Landkreis"},"federalState":{"key":"13","name":"Mecklenburg-Vorpommern"}},{"name":"Rosa-Luxemburg-Str.","postalCode":"23936","locality":"Grevesmühlen","municipality":{"key":"13074026","name":"Grevesmühlen, Stadt","type":"Stadt"},"district":{"key":"13074","name":"Nordwestmecklenburg","type":"Landkreis"},"federalState":{"key":"13","name":"Mecklenburg-Vorpommern"}},{"name":"Rosenweg","postalCode":"23936","locality":"Grevesmühlen","municipality":{"key":"13074026","name":"Grevesmühlen, Stadt","type":"Stadt"},"district":{"key":"13074","name":"Nordwestmecklenburg","type":"Landkreis"},"federalState":{"key":"13","name":"Mecklenburg-Vorpommern"}},{"name":"Rudolf-Breitscheid-Str.","postalCode":"23936","locality":"Grevesmühlen","municipality":{"key":"13074026","name":"Grevesmühlen, Stadt","type":"Stadt"},"district":{"key":"13074","name":"Nordwestmecklenburg","type":"Landkreis"},"federalState":{"key":"13","name":"Mecklenburg-Vorpommern"}},{"name":"Rudolf-Tarnow-Ring","postalCode":"23936","locality":"Grevesmühlen","municipality":{"key":"13074026","name":"Grevesmühlen, Stadt","type":"Stadt"},"district":{"key":"13074","name":"Nordwestmecklenburg","type":"Landkreis"},"federalState":{"key":"13","name":"Mecklenburg-Vorpommern"}},{"name":"Rudolph-Karstadt-Str.","postalCode":"23936","locality":"Grevesmühlen","municipality":{"key":"13074026","name":"Grevesmühlen, Stadt","type":"Stadt"},"district":{"key":"13074","name":"Nordwestmecklenburg","type":"Landkreis"},"federalState":{"key":"13","name":"Mecklenburg-Vorpommern"}},{"name":"Sandstr.","postalCode":"23936","locality":"Grevesmühlen","municipality":{"key":"13074026","name":"Grevesmühlen, Stadt","type":"Stadt"},"district":{"key":"13074","name":"Nordwestmecklenburg","type":"Landkreis"},"federalState":{"key":"13","name":"Mecklenburg-Vorpommern"}},{"name":"Santower Str.","postalCode":"23936","locality":"Grevesmühlen","municipality":{"key":"13074026","name":"Grevesmühlen, Stadt","type":"Stadt"},"district":{"key":"13074","name":"Nordwestmecklenburg","type":"Landkreis"},"federalState":{"key":"13","name":"Mecklenburg-Vorpommern"}},{"name":"Schäfergang","postalCode":"23936","locality":"Grevesmühlen","municipality":{"key":"13074026","name":"Grevesmühlen, Stadt","type":"Stadt"},"district":{"key":"13074","name":"Nordwestmecklenburg","type":"Landkreis"},"federalState":{"key":"13","name":"Mecklenburg-Vorpommern"}},{"name":"Schillerstr.","postalCode":"23936","locality":"Grevesmühlen","municipality":{"key":"13074026","name":"Grevesmühlen, Stadt","type":"Stadt"},"district":{"key":"13074","name":"Nordwestmecklenburg","type":"Landkreis"},"federalState":{"key":"13","name":"Mecklenburg-Vorpommern"}},{"name":"Schmiedeberg","postalCode":"23936","locality":"Grevesmühlen","municipality":{"key":"13074026","name":"Grevesmühlen, Stadt","type":"Stadt"},"district":{"key":"13074","name":"Nordwestmecklenburg","type":"Landkreis"},"federalState":{"key":"13","name":"Mecklenburg-Vorpommern"}},{"name":"Schradergang","postalCode":"23936","locality":"Grevesmühlen","municipality":{"key":"13074026","name":"Grevesmühlen, Stadt","type":"Stadt"},"district":{"key":"13074","name":"Nordwestmecklenburg","type":"Landkreis"},"federalState":{"key":"13","name":"Mecklenburg-Vorpommern"}},{"name":"Schulstr.","postalCode":"23936","locality":"Grevesmühlen","municipality":{"key":"13074026","name":"Grevesmühlen, Stadt","type":"Stadt"},"district":{"key":"13074","name":"Nordwestmecklenburg","type":"Landkreis"},"federalState":{"key":"13","name":"Mecklenburg-Vorpommern"}},{"name":"Schumacherstr.","postalCode":"23936","locality":"Grevesmühlen","municipality":{"key":"13074026","name":"Grevesmühlen, Stadt","type":"Stadt"},"district":{"key":"13074","name":"Nordwestmecklenburg","type":"Landkreis"},"federalState":{"key":"13","name":"Mecklenburg-Vorpommern"}},{"name":"Schweriner Landstr.","postalCode":"23936","locality":"Grevesmühlen","municipality":{"key":"13074026","name":"Grevesmühlen, Stadt","type":"Stadt"},"district":{"key":"13074","name":"Nordwestmecklenburg","type":"Landkreis"},"federalState":{"key":"13","name":"Mecklenburg-Vorpommern"}},{"name":"Schweriner Str.","postalCode":"23936","locality":"Grevesmühlen","municipality":{"key":"13074026","name":"Grevesmühlen, Stadt","type":"Stadt"},"district":{"key":"13074","name":"Nordwestmecklenburg","type":"Landkreis"},"federalState":{"key":"13","name":"Mecklenburg-Vorpommern"}},{"name":"Siebenmorgen","postalCode":"23936","locality":"Grevesmühlen","municipality":{"key":"13074026","name":"Grevesmühlen, Stadt","type":"Stadt"},"district":{"key":"13074","name":"Nordwestmecklenburg","type":"Landkreis"},"federalState":{"key":"13","name":"Mecklenburg-Vorpommern"}},{"name":"Siedlerweg","postalCode":"23936","locality":"Grevesmühlen","municipality":{"key":"13074026","name":"Grevesmühlen, Stadt","type":"Stadt"},"district":{"key":"13074","name":"Nordwestmecklenburg","type":"Landkreis"},"federalState":{"key":"13","name":"Mecklenburg-Vorpommern"}},{"name":"Sparkassenplatz","postalCode":"23936","locality":"Grevesmühlen","municipality":{"key":"13074026","name":"Grevesmühlen, Stadt","type":"Stadt"},"district":{"key":"13074","name":"Nordwestmecklenburg","type":"Landkreis"},"federalState":{"key":"13","name":"Mecklenburg-Vorpommern"}},{"name":"Stadtpark","postalCode":"23936","locality":"Grevesmühlen","municipality":{"key":"13074026","name":"Grevesmühlen, Stadt","type":"Stadt"},"district":{"key":"13074","name":"Nordwestmecklenburg","type":"Landkreis"},"federalState":{"key":"13","name":"Mecklenburg-Vorpommern"}},{"name":"Str. des Friedens","postalCode":"23936","locality":"Grevesmühlen","municipality":{"key":"13074026","name":"Grevesmühlen, Stadt","type":"Stadt"},"district":{"key":"13074","name":"Nordwestmecklenburg","type":"Landkreis"},"federalState":{"key":"13","name":"Mecklenburg-Vorpommern"}},{"name":"Tannenbergstr.","postalCode":"23936","locality":"Grevesmühlen","municipality":{"key":"13074026","name":"Grevesmühlen, Stadt","type":"Stadt"},"district":{"key":"13074","name":"Nordwestmecklenburg","type":"Landkreis"},"federalState":{"key":"13","name":"Mecklenburg-Vorpommern"}},{"name":"Theodor-Körner-Str.","postalCode":"23936","locality":"Grevesmühlen","municipality":{"key":"13074026","name":"Grevesmühlen, Stadt","type":"Stadt"},"district":{"key":"13074","name":"Nordwestmecklenburg","type":"Landkreis"},"federalState":{"key":"13","name":"Mecklenburg-Vorpommern"}},{"name":"Theodor-Storm-Str.","postalCode":"23936","locality":"Grevesmühlen","municipality":{"key":"13074026","name":"Grevesmühlen, Stadt","type":"Stadt"},"district":{"key":"13074","name":"Nordwestmecklenburg","type":"Landkreis"},"federalState":{"key":"13","name":"Mecklenburg-Vorpommern"}},{"name":"Tulpenweg","postalCode":"23936","locality":"Grevesmühlen","municipality":{"key":"13074026","name":"Grevesmühlen, Stadt","type":"Stadt"},"district":{"key":"13074","name":"Nordwestmecklenburg","type":"Landkreis"},"federalState":{"key":"13","name":"Mecklenburg-Vorpommern"}},{"name":"Wasserlehrpfad","postalCode":"23936","locality":"Grevesmühlen","municipality":{"key":"13074026","name":"Grevesmühlen, Stadt","type":"Stadt"},"district":{"key":"13074","name":"Nordwestmecklenburg","type":"Landkreis"},"federalState":{"key":"13","name":"Mecklenburg-Vorpommern"}},{"name":"Wasserturmstr.","postalCode":"23936","locality":"Grevesmühlen","municipality":{"key":"13074026","name":"Grevesmühlen, Stadt","type":"Stadt"},"district":{"key":"13074","name":"Nordwestmecklenburg","type":"Landkreis"},"federalState":{"key":"13","name":"Mecklenburg-Vorpommern"}},{"name":"Wiesenweg","postalCode":"23936","locality":"Grevesmühlen","municipality":{"key":"13074026","name":"Grevesmühlen, Stadt","type":"Stadt"},"district":{"key":"13074","name":"Nordwestmecklenburg","type":"Landkreis"},"federalState":{"key":"13","name":"Mecklenburg-Vorpommern"}},{"name":"Wismarsche Str.","postalCode":"23936","locality":"Grevesmühlen","municipality":{"key":"13074026","name":"Grevesmühlen, Stadt","type":"Stadt"},"district":{"key":"13074","name":"Nordwestmecklenburg","type":"Landkreis"},"federalState":{"key":"13","name":"Mecklenburg-Vorpommern"}},{"name":"Ziegelhof","postalCode":"23936","locality":"Grevesmühlen","municipality":{"key":"13074026","name":"Grevesmühlen, Stadt","type":"Stadt"},"district":{"key":"13074","name":"Nordwestmecklenburg","type":"Landkreis"},"federalState":{"key":"13","name":"Mecklenburg-Vorpommern"}},{"name":"Ziegenhorn","postalCode":"23936","locality":"Grevesmühlen","municipality":{"key":"13074026","name":"Grevesmühlen, Stadt","type":"Stadt"},"district":{"key":"13074","name":"Nordwestmecklenburg","type":"Landkreis"},"federalState":{"key":"13","name":"Mecklenburg-Vorpommern"}},{"name":"Zum Kalkflachmoor","postalCode":"23936","locality":"Grevesmühlen","municipality":{"key":"13074026","name":"Grevesmühlen, Stadt","type":"Stadt"},"district":{"key":"13074","name":"Nordwestmecklenburg","type":"Landkreis"},"federalState":{"key":"13","name":"Mecklenburg-Vorpommern"}},{"name":"Zur Ton Weide","postalCode":"23936","locality":"Grevesmühlen","municipality":{"key":"13074026","name":"Grevesmühlen, Stadt","type":"Stadt"},"district":{"key":"13074","name":"Nordwestmecklenburg","type":"Landkreis"},"federalState":{"key":"13","name":"Mecklenburg-Vorpommern"}},]