[{"name":"Adlerberg","postalCode":"02791","locality":"Oderwitz","municipality":{"key":"14626390","name":"Oderwitz","type":"Kreisangehörige_Gemeinde"},"district":{"key":"14626","name":"Görlitz","type":"Landkreis"},"federalState":{"key":"14","name":"Sachsen"}},{"name":"Ahornallee","postalCode":"02791","locality":"Oderwitz","municipality":{"key":"14626390","name":"Oderwitz","type":"Kreisangehörige_Gemeinde"},"district":{"key":"14626","name":"Görlitz","type":"Landkreis"},"federalState":{"key":"14","name":"Sachsen"}},{"name":"Altmanngasse","postalCode":"02791","locality":"Oderwitz","municipality":{"key":"14626390","name":"Oderwitz","type":"Kreisangehörige_Gemeinde"},"district":{"key":"14626","name":"Görlitz","type":"Landkreis"},"federalState":{"key":"14","name":"Sachsen"}},{"name":"Am Dorfbach","postalCode":"02791","locality":"Oderwitz","municipality":{"key":"14626390","name":"Oderwitz","type":"Kreisangehörige_Gemeinde"},"district":{"key":"14626","name":"Görlitz","type":"Landkreis"},"federalState":{"key":"14","name":"Sachsen"}},{"name":"Am Eichberg","postalCode":"02791","locality":"Oderwitz","municipality":{"key":"14626390","name":"Oderwitz","type":"Kreisangehörige_Gemeinde"},"district":{"key":"14626","name":"Görlitz","type":"Landkreis"},"federalState":{"key":"14","name":"Sachsen"}},{"name":"Am Grundwasser","postalCode":"02791","locality":"Oderwitz","municipality":{"key":"14626390","name":"Oderwitz","type":"Kreisangehörige_Gemeinde"},"district":{"key":"14626","name":"Görlitz","type":"Landkreis"},"federalState":{"key":"14","name":"Sachsen"}},{"name":"Am Hang","postalCode":"02791","locality":"Oderwitz","municipality":{"key":"14626390","name":"Oderwitz","type":"Kreisangehörige_Gemeinde"},"district":{"key":"14626","name":"Görlitz","type":"Landkreis"},"federalState":{"key":"14","name":"Sachsen"}},{"name":"Am Köchlerberg","postalCode":"02791","locality":"Oderwitz","municipality":{"key":"14626390","name":"Oderwitz","type":"Kreisangehörige_Gemeinde"},"district":{"key":"14626","name":"Görlitz","type":"Landkreis"},"federalState":{"key":"14","name":"Sachsen"}},{"name":"Am Kosateich","postalCode":"02791","locality":"Oderwitz","municipality":{"key":"14626390","name":"Oderwitz","type":"Kreisangehörige_Gemeinde"},"district":{"key":"14626","name":"Görlitz","type":"Landkreis"},"federalState":{"key":"14","name":"Sachsen"}},{"name":"Am Landwasser","postalCode":"02791","locality":"Oderwitz","municipality":{"key":"14626390","name":"Oderwitz","type":"Kreisangehörige_Gemeinde"},"district":{"key":"14626","name":"Görlitz","type":"Landkreis"},"federalState":{"key":"14","name":"Sachsen"}},{"name":"Am Mühlgraben","postalCode":"02791","locality":"Oderwitz","municipality":{"key":"14626390","name":"Oderwitz","type":"Kreisangehörige_Gemeinde"},"district":{"key":"14626","name":"Görlitz","type":"Landkreis"},"federalState":{"key":"14","name":"Sachsen"}},{"name":"Am Reitplatz","postalCode":"02791","locality":"Oderwitz","municipality":{"key":"14626390","name":"Oderwitz","type":"Kreisangehörige_Gemeinde"},"district":{"key":"14626","name":"Görlitz","type":"Landkreis"},"federalState":{"key":"14","name":"Sachsen"}},{"name":"Am Schulberg","postalCode":"02791","locality":"Oderwitz","municipality":{"key":"14626390","name":"Oderwitz","type":"Kreisangehörige_Gemeinde"},"district":{"key":"14626","name":"Görlitz","type":"Landkreis"},"federalState":{"key":"14","name":"Sachsen"}},{"name":"Am Seniorenheim","postalCode":"02791","locality":"Oderwitz","municipality":{"key":"14626390","name":"Oderwitz","type":"Kreisangehörige_Gemeinde"},"district":{"key":"14626","name":"Görlitz","type":"Landkreis"},"federalState":{"key":"14","name":"Sachsen"}},{"name":"Am Spitzberg","postalCode":"02791","locality":"Oderwitz","municipality":{"key":"14626390","name":"Oderwitz","type":"Kreisangehörige_Gemeinde"},"district":{"key":"14626","name":"Görlitz","type":"Landkreis"},"federalState":{"key":"14","name":"Sachsen"}},{"name":"Am Volksbad","postalCode":"02791","locality":"Oderwitz","municipality":{"key":"14626390","name":"Oderwitz","type":"Kreisangehörige_Gemeinde"},"district":{"key":"14626","name":"Görlitz","type":"Landkreis"},"federalState":{"key":"14","name":"Sachsen"}},{"name":"Am Wehr","postalCode":"02791","locality":"Oderwitz","municipality":{"key":"14626390","name":"Oderwitz","type":"Kreisangehörige_Gemeinde"},"district":{"key":"14626","name":"Görlitz","type":"Landkreis"},"federalState":{"key":"14","name":"Sachsen"}},{"name":"Am Weiher","postalCode":"02791","locality":"Oderwitz","municipality":{"key":"14626390","name":"Oderwitz","type":"Kreisangehörige_Gemeinde"},"district":{"key":"14626","name":"Görlitz","type":"Landkreis"},"federalState":{"key":"14","name":"Sachsen"}},{"name":"An der Gärtnerei","postalCode":"02791","locality":"Oderwitz","municipality":{"key":"14626390","name":"Oderwitz","type":"Kreisangehörige_Gemeinde"},"district":{"key":"14626","name":"Görlitz","type":"Landkreis"},"federalState":{"key":"14","name":"Sachsen"}},{"name":"An der Mühlwiese","postalCode":"02791","locality":"Oderwitz","municipality":{"key":"14626390","name":"Oderwitz","type":"Kreisangehörige_Gemeinde"},"district":{"key":"14626","name":"Görlitz","type":"Landkreis"},"federalState":{"key":"14","name":"Sachsen"}},{"name":"An der Neubauernsiedlung","postalCode":"02791","locality":"Oderwitz","municipality":{"key":"14626390","name":"Oderwitz","type":"Kreisangehörige_Gemeinde"},"district":{"key":"14626","name":"Görlitz","type":"Landkreis"},"federalState":{"key":"14","name":"Sachsen"}},{"name":"An der Schäferei","postalCode":"02791","locality":"Oderwitz","municipality":{"key":"14626390","name":"Oderwitz","type":"Kreisangehörige_Gemeinde"},"district":{"key":"14626","name":"Görlitz","type":"Landkreis"},"federalState":{"key":"14","name":"Sachsen"}},{"name":"An der Volkswiese","postalCode":"02791","locality":"Oderwitz","municipality":{"key":"14626390","name":"Oderwitz","type":"Kreisangehörige_Gemeinde"},"district":{"key":"14626","name":"Görlitz","type":"Landkreis"},"federalState":{"key":"14","name":"Sachsen"}},{"name":"August-Bebel-Str.","postalCode":"02791","locality":"Oderwitz","municipality":{"key":"14626390","name":"Oderwitz","type":"Kreisangehörige_Gemeinde"},"district":{"key":"14626","name":"Görlitz","type":"Landkreis"},"federalState":{"key":"14","name":"Sachsen"}},{"name":"Bachweg","postalCode":"02791","locality":"Oderwitz","municipality":{"key":"14626390","name":"Oderwitz","type":"Kreisangehörige_Gemeinde"},"district":{"key":"14626","name":"Görlitz","type":"Landkreis"},"federalState":{"key":"14","name":"Sachsen"}},{"name":"Bäckergasse","postalCode":"02791","locality":"Oderwitz","municipality":{"key":"14626390","name":"Oderwitz","type":"Kreisangehörige_Gemeinde"},"district":{"key":"14626","name":"Görlitz","type":"Landkreis"},"federalState":{"key":"14","name":"Sachsen"}},{"name":"Badgasse","postalCode":"02791","locality":"Oderwitz","municipality":{"key":"14626390","name":"Oderwitz","type":"Kreisangehörige_Gemeinde"},"district":{"key":"14626","name":"Görlitz","type":"Landkreis"},"federalState":{"key":"14","name":"Sachsen"}},{"name":"Bahnhofstr.","postalCode":"02791","locality":"Oderwitz","municipality":{"key":"14626390","name":"Oderwitz","type":"Kreisangehörige_Gemeinde"},"district":{"key":"14626","name":"Görlitz","type":"Landkreis"},"federalState":{"key":"14","name":"Sachsen"}},{"name":"Behnerberg","postalCode":"02791","locality":"Oderwitz","municipality":{"key":"14626390","name":"Oderwitz","type":"Kreisangehörige_Gemeinde"},"district":{"key":"14626","name":"Görlitz","type":"Landkreis"},"federalState":{"key":"14","name":"Sachsen"}},{"name":"Berggasse","postalCode":"02791","locality":"Oderwitz","municipality":{"key":"14626390","name":"Oderwitz","type":"Kreisangehörige_Gemeinde"},"district":{"key":"14626","name":"Görlitz","type":"Landkreis"},"federalState":{"key":"14","name":"Sachsen"}},{"name":"Bergweg","postalCode":"02791","locality":"Oderwitz","municipality":{"key":"14626390","name":"Oderwitz","type":"Kreisangehörige_Gemeinde"},"district":{"key":"14626","name":"Görlitz","type":"Landkreis"},"federalState":{"key":"14","name":"Sachsen"}},{"name":"Birkenweg","postalCode":"02791","locality":"Oderwitz","municipality":{"key":"14626390","name":"Oderwitz","type":"Kreisangehörige_Gemeinde"},"district":{"key":"14626","name":"Görlitz","type":"Landkreis"},"federalState":{"key":"14","name":"Sachsen"}},{"name":"Birkmühlstr.","postalCode":"02791","locality":"Oderwitz","municipality":{"key":"14626390","name":"Oderwitz","type":"Kreisangehörige_Gemeinde"},"district":{"key":"14626","name":"Görlitz","type":"Landkreis"},"federalState":{"key":"14","name":"Sachsen"}},{"name":"Bleichstr.","postalCode":"02791","locality":"Oderwitz","municipality":{"key":"14626390","name":"Oderwitz","type":"Kreisangehörige_Gemeinde"},"district":{"key":"14626","name":"Görlitz","type":"Landkreis"},"federalState":{"key":"14","name":"Sachsen"}},{"name":"Blumenweg","postalCode":"02791","locality":"Oderwitz","municipality":{"key":"14626390","name":"Oderwitz","type":"Kreisangehörige_Gemeinde"},"district":{"key":"14626","name":"Görlitz","type":"Landkreis"},"federalState":{"key":"14","name":"Sachsen"}},{"name":"Carl-Friedrich-Gauß-Str.","postalCode":"02826","locality":"Görlitz","municipality":{"key":"14626110","name":"Görlitz, Stadt","type":"Stadt"},"district":{"key":"14626","name":"Görlitz","type":"Landkreis"},"federalState":{"key":"14","name":"Sachsen"}},{"name":"Carl-von-Ossietzky-Str.","postalCode":"02826","locality":"Görlitz","municipality":{"key":"14626110","name":"Görlitz, Stadt","type":"Stadt"},"district":{"key":"14626","name":"Görlitz","type":"Landkreis"},"federalState":{"key":"14","name":"Sachsen"}},{"name":"Carolusstr.","postalCode":"02827","locality":"Görlitz","municipality":{"key":"14626110","name":"Görlitz, Stadt","type":"Stadt"},"district":{"key":"14626","name":"Görlitz","type":"Landkreis"},"federalState":{"key":"14","name":"Sachsen"}},{"name":"Christian-Heuck-Str.","postalCode":"02827","locality":"Görlitz","municipality":{"key":"14626110","name":"Görlitz, Stadt","type":"Stadt"},"district":{"key":"14626","name":"Görlitz","type":"Landkreis"},"federalState":{"key":"14","name":"Sachsen"}},{"name":"Christoph-Lüders-Str.","postalCode":"02826","locality":"Görlitz","municipality":{"key":"14626110","name":"Görlitz, Stadt","type":"Stadt"},"district":{"key":"14626","name":"Görlitz","type":"Landkreis"},"federalState":{"key":"14","name":"Sachsen"}},{"name":"Chrysanthemenweg","postalCode":"02827","locality":"Görlitz","municipality":{"key":"14626110","name":"Görlitz, Stadt","type":"Stadt"},"district":{"key":"14626","name":"Görlitz","type":"Landkreis"},"federalState":{"key":"14","name":"Sachsen"}},{"name":"Clara-Zetkin-Str.","postalCode":"02827","locality":"Görlitz","municipality":{"key":"14626110","name":"Görlitz, Stadt","type":"Stadt"},"district":{"key":"14626","name":"Görlitz","type":"Landkreis"},"federalState":{"key":"14","name":"Sachsen"}},{"name":"Conrad-Schiedt-Str.","postalCode":"02826","locality":"Görlitz","municipality":{"key":"14626110","name":"Görlitz, Stadt","type":"Stadt"},"district":{"key":"14626","name":"Görlitz","type":"Landkreis"},"federalState":{"key":"14","name":"Sachsen"}},{"name":"Cottbuser Str.","postalCode":"02826","locality":"Görlitz","municipality":{"key":"14626110","name":"Görlitz, Stadt","type":"Stadt"},"district":{"key":"14626","name":"Görlitz","type":"Landkreis"},"federalState":{"key":"14","name":"Sachsen"}},{"name":"Dammweg","postalCode":"02791","locality":"Oderwitz","municipality":{"key":"14626390","name":"Oderwitz","type":"Kreisangehörige_Gemeinde"},"district":{"key":"14626","name":"Görlitz","type":"Landkreis"},"federalState":{"key":"14","name":"Sachsen"}},{"name":"Doktor-Friedrichs-Str.","postalCode":"02791","locality":"Oderwitz","municipality":{"key":"14626390","name":"Oderwitz","type":"Kreisangehörige_Gemeinde"},"district":{"key":"14626","name":"Görlitz","type":"Landkreis"},"federalState":{"key":"14","name":"Sachsen"}},{"name":"Doktor-Külz-Str.","postalCode":"02791","locality":"Oderwitz","municipality":{"key":"14626390","name":"Oderwitz","type":"Kreisangehörige_Gemeinde"},"district":{"key":"14626","name":"Görlitz","type":"Landkreis"},"federalState":{"key":"14","name":"Sachsen"}},{"name":"Dorfstr.","postalCode":"02791","locality":"Oderwitz","municipality":{"key":"14626390","name":"Oderwitz","type":"Kreisangehörige_Gemeinde"},"district":{"key":"14626","name":"Görlitz","type":"Landkreis"},"federalState":{"key":"14","name":"Sachsen"}},{"name":"Dreihäuser","postalCode":"02791","locality":"Oderwitz","municipality":{"key":"14626390","name":"Oderwitz","type":"Kreisangehörige_Gemeinde"},"district":{"key":"14626","name":"Görlitz","type":"Landkreis"},"federalState":{"key":"14","name":"Sachsen"}},{"name":"Eberleweg","postalCode":"02791","locality":"Oderwitz","municipality":{"key":"14626390","name":"Oderwitz","type":"Kreisangehörige_Gemeinde"},"district":{"key":"14626","name":"Görlitz","type":"Landkreis"},"federalState":{"key":"14","name":"Sachsen"}},{"name":"Eibauer Weg","postalCode":"02791","locality":"Oderwitz","municipality":{"key":"14626390","name":"Oderwitz","type":"Kreisangehörige_Gemeinde"},"district":{"key":"14626","name":"Görlitz","type":"Landkreis"},"federalState":{"key":"14","name":"Sachsen"}},{"name":"Ernst-Moritz-Arndt-Str.","postalCode":"02791","locality":"Oderwitz","municipality":{"key":"14626390","name":"Oderwitz","type":"Kreisangehörige_Gemeinde"},"district":{"key":"14626","name":"Görlitz","type":"Landkreis"},"federalState":{"key":"14","name":"Sachsen"}},{"name":"Ernst-Thälmann-Str.","postalCode":"02791","locality":"Oderwitz","municipality":{"key":"14626390","name":"Oderwitz","type":"Kreisangehörige_Gemeinde"},"district":{"key":"14626","name":"Görlitz","type":"Landkreis"},"federalState":{"key":"14","name":"Sachsen"}},{"name":"Färbergässel","postalCode":"02791","locality":"Oderwitz","municipality":{"key":"14626390","name":"Oderwitz","type":"Kreisangehörige_Gemeinde"},"district":{"key":"14626","name":"Görlitz","type":"Landkreis"},"federalState":{"key":"14","name":"Sachsen"}},{"name":"Fleischergasse","postalCode":"02791","locality":"Oderwitz","municipality":{"key":"14626390","name":"Oderwitz","type":"Kreisangehörige_Gemeinde"},"district":{"key":"14626","name":"Görlitz","type":"Landkreis"},"federalState":{"key":"14","name":"Sachsen"}},{"name":"Franz-Mehring-Str.","postalCode":"02791","locality":"Oderwitz","municipality":{"key":"14626390","name":"Oderwitz","type":"Kreisangehörige_Gemeinde"},"district":{"key":"14626","name":"Görlitz","type":"Landkreis"},"federalState":{"key":"14","name":"Sachsen"}},{"name":"Friedrich-Ludwig-Jahn-Str.","postalCode":"02791","locality":"Oderwitz","municipality":{"key":"14626390","name":"Oderwitz","type":"Kreisangehörige_Gemeinde"},"district":{"key":"14626","name":"Görlitz","type":"Landkreis"},"federalState":{"key":"14","name":"Sachsen"}},{"name":"Fuchsgässel","postalCode":"02791","locality":"Oderwitz","municipality":{"key":"14626390","name":"Oderwitz","type":"Kreisangehörige_Gemeinde"},"district":{"key":"14626","name":"Görlitz","type":"Landkreis"},"federalState":{"key":"14","name":"Sachsen"}},{"name":"Gartenstr.","postalCode":"02791","locality":"Oderwitz","municipality":{"key":"14626390","name":"Oderwitz","type":"Kreisangehörige_Gemeinde"},"district":{"key":"14626","name":"Görlitz","type":"Landkreis"},"federalState":{"key":"14","name":"Sachsen"}},{"name":"Gartenweg","postalCode":"02791","locality":"Oderwitz","municipality":{"key":"14626390","name":"Oderwitz","type":"Kreisangehörige_Gemeinde"},"district":{"key":"14626","name":"Görlitz","type":"Landkreis"},"federalState":{"key":"14","name":"Sachsen"}},{"name":"Gasstr.","postalCode":"02791","locality":"Oderwitz","municipality":{"key":"14626390","name":"Oderwitz","type":"Kreisangehörige_Gemeinde"},"district":{"key":"14626","name":"Görlitz","type":"Landkreis"},"federalState":{"key":"14","name":"Sachsen"}},{"name":"Grenzweg","postalCode":"02791","locality":"Oderwitz","municipality":{"key":"14626390","name":"Oderwitz","type":"Kreisangehörige_Gemeinde"},"district":{"key":"14626","name":"Görlitz","type":"Landkreis"},"federalState":{"key":"14","name":"Sachsen"}},{"name":"Großhennersdorfer Str.","postalCode":"02791","locality":"Oderwitz","municipality":{"key":"14626390","name":"Oderwitz","type":"Kreisangehörige_Gemeinde"},"district":{"key":"14626","name":"Görlitz","type":"Landkreis"},"federalState":{"key":"14","name":"Sachsen"}},{"name":"Grubenstr.","postalCode":"02791","locality":"Oderwitz","municipality":{"key":"14626390","name":"Oderwitz","type":"Kreisangehörige_Gemeinde"},"district":{"key":"14626","name":"Görlitz","type":"Landkreis"},"federalState":{"key":"14","name":"Sachsen"}},{"name":"Grundteichstr.","postalCode":"02791","locality":"Oderwitz","municipality":{"key":"14626390","name":"Oderwitz","type":"Kreisangehörige_Gemeinde"},"district":{"key":"14626","name":"Görlitz","type":"Landkreis"},"federalState":{"key":"14","name":"Sachsen"}},{"name":"Güterstr.","postalCode":"02791","locality":"Oderwitz","municipality":{"key":"14626390","name":"Oderwitz","type":"Kreisangehörige_Gemeinde"},"district":{"key":"14626","name":"Görlitz","type":"Landkreis"},"federalState":{"key":"14","name":"Sachsen"}},{"name":"Gutfeld","postalCode":"02791","locality":"Oderwitz","municipality":{"key":"14626390","name":"Oderwitz","type":"Kreisangehörige_Gemeinde"},"district":{"key":"14626","name":"Görlitz","type":"Landkreis"},"federalState":{"key":"14","name":"Sachsen"}},{"name":"Handwerk","postalCode":"02791","locality":"Oderwitz","municipality":{"key":"14626390","name":"Oderwitz","type":"Kreisangehörige_Gemeinde"},"district":{"key":"14626","name":"Görlitz","type":"Landkreis"},"federalState":{"key":"14","name":"Sachsen"}},{"name":"Hauptstr.","postalCode":"02791","locality":"Oderwitz","municipality":{"key":"14626390","name":"Oderwitz","type":"Kreisangehörige_Gemeinde"},"district":{"key":"14626","name":"Görlitz","type":"Landkreis"},"federalState":{"key":"14","name":"Sachsen"}},{"name":"Heideberg","postalCode":"02791","locality":"Oderwitz","municipality":{"key":"14626390","name":"Oderwitz","type":"Kreisangehörige_Gemeinde"},"district":{"key":"14626","name":"Görlitz","type":"Landkreis"},"federalState":{"key":"14","name":"Sachsen"}},{"name":"Hennersdorfer Weg","postalCode":"02791","locality":"Oderwitz","municipality":{"key":"14626390","name":"Oderwitz","type":"Kreisangehörige_Gemeinde"},"district":{"key":"14626","name":"Görlitz","type":"Landkreis"},"federalState":{"key":"14","name":"Sachsen"}},{"name":"Hintere Dorfstr.","postalCode":"02791","locality":"Oderwitz","municipality":{"key":"14626390","name":"Oderwitz","type":"Kreisangehörige_Gemeinde"},"district":{"key":"14626","name":"Görlitz","type":"Landkreis"},"federalState":{"key":"14","name":"Sachsen"}},{"name":"Hofstr.","postalCode":"02791","locality":"Oderwitz","municipality":{"key":"14626390","name":"Oderwitz","type":"Kreisangehörige_Gemeinde"},"district":{"key":"14626","name":"Görlitz","type":"Landkreis"},"federalState":{"key":"14","name":"Sachsen"}},{"name":"Hohlweg","postalCode":"02791","locality":"Oderwitz","municipality":{"key":"14626390","name":"Oderwitz","type":"Kreisangehörige_Gemeinde"},"district":{"key":"14626","name":"Görlitz","type":"Landkreis"},"federalState":{"key":"14","name":"Sachsen"}},{"name":"Holzstr.","postalCode":"02791","locality":"Oderwitz","municipality":{"key":"14626390","name":"Oderwitz","type":"Kreisangehörige_Gemeinde"},"district":{"key":"14626","name":"Görlitz","type":"Landkreis"},"federalState":{"key":"14","name":"Sachsen"}},{"name":"Hutbergblick","postalCode":"02791","locality":"Oderwitz","municipality":{"key":"14626390","name":"Oderwitz","type":"Kreisangehörige_Gemeinde"},"district":{"key":"14626","name":"Görlitz","type":"Landkreis"},"federalState":{"key":"14","name":"Sachsen"}},{"name":"Hutberggasse","postalCode":"02791","locality":"Oderwitz","municipality":{"key":"14626390","name":"Oderwitz","type":"Kreisangehörige_Gemeinde"},"district":{"key":"14626","name":"Görlitz","type":"Landkreis"},"federalState":{"key":"14","name":"Sachsen"}},{"name":"Im Grunde","postalCode":"02791","locality":"Oderwitz","municipality":{"key":"14626390","name":"Oderwitz","type":"Kreisangehörige_Gemeinde"},"district":{"key":"14626","name":"Görlitz","type":"Landkreis"},"federalState":{"key":"14","name":"Sachsen"}},{"name":"Im Winkel","postalCode":"02791","locality":"Oderwitz","municipality":{"key":"14626390","name":"Oderwitz","type":"Kreisangehörige_Gemeinde"},"district":{"key":"14626","name":"Görlitz","type":"Landkreis"},"federalState":{"key":"14","name":"Sachsen"}},{"name":"Jeschkenblick","postalCode":"02791","locality":"Oderwitz","municipality":{"key":"14626390","name":"Oderwitz","type":"Kreisangehörige_Gemeinde"},"district":{"key":"14626","name":"Görlitz","type":"Landkreis"},"federalState":{"key":"14","name":"Sachsen"}},{"name":"Johannes-R.-Becher-Str.","postalCode":"02791","locality":"Oderwitz","municipality":{"key":"14626390","name":"Oderwitz","type":"Kreisangehörige_Gemeinde"},"district":{"key":"14626","name":"Görlitz","type":"Landkreis"},"federalState":{"key":"14","name":"Sachsen"}},{"name":"Johann-Gottlieb-Fichte-Str.","postalCode":"02791","locality":"Oderwitz","municipality":{"key":"14626390","name":"Oderwitz","type":"Kreisangehörige_Gemeinde"},"district":{"key":"14626","name":"Görlitz","type":"Landkreis"},"federalState":{"key":"14","name":"Sachsen"}},{"name":"Karl-Liebknecht-Str.","postalCode":"02791","locality":"Oderwitz","municipality":{"key":"14626390","name":"Oderwitz","type":"Kreisangehörige_Gemeinde"},"district":{"key":"14626","name":"Görlitz","type":"Landkreis"},"federalState":{"key":"14","name":"Sachsen"}},{"name":"Kirchbuschweg","postalCode":"02791","locality":"Oderwitz","municipality":{"key":"14626390","name":"Oderwitz","type":"Kreisangehörige_Gemeinde"},"district":{"key":"14626","name":"Görlitz","type":"Landkreis"},"federalState":{"key":"14","name":"Sachsen"}},{"name":"Kirchstr.","postalCode":"02791","locality":"Oderwitz","municipality":{"key":"14626390","name":"Oderwitz","type":"Kreisangehörige_Gemeinde"},"district":{"key":"14626","name":"Görlitz","type":"Landkreis"},"federalState":{"key":"14","name":"Sachsen"}},{"name":"Kirchweg","postalCode":"02791","locality":"Oderwitz","municipality":{"key":"14626390","name":"Oderwitz","type":"Kreisangehörige_Gemeinde"},"district":{"key":"14626","name":"Görlitz","type":"Landkreis"},"federalState":{"key":"14","name":"Sachsen"}},{"name":"Kretschamweg","postalCode":"02791","locality":"Oderwitz","municipality":{"key":"14626390","name":"Oderwitz","type":"Kreisangehörige_Gemeinde"},"district":{"key":"14626","name":"Görlitz","type":"Landkreis"},"federalState":{"key":"14","name":"Sachsen"}},{"name":"Langer Garten","postalCode":"02791","locality":"Oderwitz","municipality":{"key":"14626390","name":"Oderwitz","type":"Kreisangehörige_Gemeinde"},"district":{"key":"14626","name":"Görlitz","type":"Landkreis"},"federalState":{"key":"14","name":"Sachsen"}},{"name":"Langer Weg","postalCode":"02791","locality":"Oderwitz","municipality":{"key":"14626390","name":"Oderwitz","type":"Kreisangehörige_Gemeinde"},"district":{"key":"14626","name":"Görlitz","type":"Landkreis"},"federalState":{"key":"14","name":"Sachsen"}},{"name":"Lärchenallee","postalCode":"02791","locality":"Oderwitz","municipality":{"key":"14626390","name":"Oderwitz","type":"Kreisangehörige_Gemeinde"},"district":{"key":"14626","name":"Görlitz","type":"Landkreis"},"federalState":{"key":"14","name":"Sachsen"}},{"name":"Marktstr.","postalCode":"02791","locality":"Oderwitz","municipality":{"key":"14626390","name":"Oderwitz","type":"Kreisangehörige_Gemeinde"},"district":{"key":"14626","name":"Görlitz","type":"Landkreis"},"federalState":{"key":"14","name":"Sachsen"}},{"name":"Mittelweg","postalCode":"02791","locality":"Oderwitz","municipality":{"key":"14626390","name":"Oderwitz","type":"Kreisangehörige_Gemeinde"},"district":{"key":"14626","name":"Görlitz","type":"Landkreis"},"federalState":{"key":"14","name":"Sachsen"}},{"name":"Mühlaue","postalCode":"02791","locality":"Oderwitz","municipality":{"key":"14626390","name":"Oderwitz","type":"Kreisangehörige_Gemeinde"},"district":{"key":"14626","name":"Görlitz","type":"Landkreis"},"federalState":{"key":"14","name":"Sachsen"}},{"name":"Mühlweg","postalCode":"02791","locality":"Oderwitz","municipality":{"key":"14626390","name":"Oderwitz","type":"Kreisangehörige_Gemeinde"},"district":{"key":"14626","name":"Görlitz","type":"Landkreis"},"federalState":{"key":"14","name":"Sachsen"}},{"name":"Neubauernsiedlung","postalCode":"02791","locality":"Oderwitz","municipality":{"key":"14626390","name":"Oderwitz","type":"Kreisangehörige_Gemeinde"},"district":{"key":"14626","name":"Görlitz","type":"Landkreis"},"federalState":{"key":"14","name":"Sachsen"}},{"name":"Neue Sorge","postalCode":"02791","locality":"Oderwitz","municipality":{"key":"14626390","name":"Oderwitz","type":"Kreisangehörige_Gemeinde"},"district":{"key":"14626","name":"Görlitz","type":"Landkreis"},"federalState":{"key":"14","name":"Sachsen"}},{"name":"Neue Str.","postalCode":"02791","locality":"Oderwitz","municipality":{"key":"14626390","name":"Oderwitz","type":"Kreisangehörige_Gemeinde"},"district":{"key":"14626","name":"Görlitz","type":"Landkreis"},"federalState":{"key":"14","name":"Sachsen"}},{"name":"Neufeldenstr.","postalCode":"02791","locality":"Oderwitz","municipality":{"key":"14626390","name":"Oderwitz","type":"Kreisangehörige_Gemeinde"},"district":{"key":"14626","name":"Görlitz","type":"Landkreis"},"federalState":{"key":"14","name":"Sachsen"}},{"name":"Niederoderwitzer Str.","postalCode":"02791","locality":"Oderwitz","municipality":{"key":"14626390","name":"Oderwitz","type":"Kreisangehörige_Gemeinde"},"district":{"key":"14626","name":"Görlitz","type":"Landkreis"},"federalState":{"key":"14","name":"Sachsen"}},{"name":"Oberer Viebig","postalCode":"02791","locality":"Oderwitz","municipality":{"key":"14626390","name":"Oderwitz","type":"Kreisangehörige_Gemeinde"},"district":{"key":"14626","name":"Görlitz","type":"Landkreis"},"federalState":{"key":"14","name":"Sachsen"}},{"name":"Oberherwigsdorfer Str.","postalCode":"02791","locality":"Oderwitz","municipality":{"key":"14626390","name":"Oderwitz","type":"Kreisangehörige_Gemeinde"},"district":{"key":"14626","name":"Görlitz","type":"Landkreis"},"federalState":{"key":"14","name":"Sachsen"}},{"name":"Otto-Buchwitz-Str.","postalCode":"02791","locality":"Oderwitz","municipality":{"key":"14626390","name":"Oderwitz","type":"Kreisangehörige_Gemeinde"},"district":{"key":"14626","name":"Görlitz","type":"Landkreis"},"federalState":{"key":"14","name":"Sachsen"}},{"name":"Postweg","postalCode":"02791","locality":"Oderwitz","municipality":{"key":"14626390","name":"Oderwitz","type":"Kreisangehörige_Gemeinde"},"district":{"key":"14626","name":"Görlitz","type":"Landkreis"},"federalState":{"key":"14","name":"Sachsen"}},{"name":"Querweg","postalCode":"02791","locality":"Oderwitz","municipality":{"key":"14626390","name":"Oderwitz","type":"Kreisangehörige_Gemeinde"},"district":{"key":"14626","name":"Görlitz","type":"Landkreis"},"federalState":{"key":"14","name":"Sachsen"}},{"name":"Rosa-Luxemburg-Str.","postalCode":"02791","locality":"Oderwitz","municipality":{"key":"14626390","name":"Oderwitz","type":"Kreisangehörige_Gemeinde"},"district":{"key":"14626","name":"Görlitz","type":"Landkreis"},"federalState":{"key":"14","name":"Sachsen"}},{"name":"Rosenstr.","postalCode":"02791","locality":"Oderwitz","municipality":{"key":"14626390","name":"Oderwitz","type":"Kreisangehörige_Gemeinde"},"district":{"key":"14626","name":"Görlitz","type":"Landkreis"},"federalState":{"key":"14","name":"Sachsen"}},{"name":"Rudolf-Renner-Str.","postalCode":"02791","locality":"Oderwitz","municipality":{"key":"14626390","name":"Oderwitz","type":"Kreisangehörige_Gemeinde"},"district":{"key":"14626","name":"Görlitz","type":"Landkreis"},"federalState":{"key":"14","name":"Sachsen"}},{"name":"Ruppersdorfer Str.","postalCode":"02791","locality":"Oderwitz","municipality":{"key":"14626390","name":"Oderwitz","type":"Kreisangehörige_Gemeinde"},"district":{"key":"14626","name":"Görlitz","type":"Landkreis"},"federalState":{"key":"14","name":"Sachsen"}},{"name":"Sandweg","postalCode":"02791","locality":"Oderwitz","municipality":{"key":"14626390","name":"Oderwitz","type":"Kreisangehörige_Gemeinde"},"district":{"key":"14626","name":"Görlitz","type":"Landkreis"},"federalState":{"key":"14","name":"Sachsen"}},{"name":"Scheringerstr.","postalCode":"02791","locality":"Oderwitz","municipality":{"key":"14626390","name":"Oderwitz","type":"Kreisangehörige_Gemeinde"},"district":{"key":"14626","name":"Görlitz","type":"Landkreis"},"federalState":{"key":"14","name":"Sachsen"}},{"name":"Schmiedegasse","postalCode":"02791","locality":"Oderwitz","municipality":{"key":"14626390","name":"Oderwitz","type":"Kreisangehörige_Gemeinde"},"district":{"key":"14626","name":"Görlitz","type":"Landkreis"},"federalState":{"key":"14","name":"Sachsen"}},{"name":"Schulstr.","postalCode":"02791","locality":"Oderwitz","municipality":{"key":"14626390","name":"Oderwitz","type":"Kreisangehörige_Gemeinde"},"district":{"key":"14626","name":"Görlitz","type":"Landkreis"},"federalState":{"key":"14","name":"Sachsen"}},{"name":"Seifersdorfer Weg","postalCode":"02791","locality":"Oderwitz","municipality":{"key":"14626390","name":"Oderwitz","type":"Kreisangehörige_Gemeinde"},"district":{"key":"14626","name":"Görlitz","type":"Landkreis"},"federalState":{"key":"14","name":"Sachsen"}},{"name":"Spitzbergstr.","postalCode":"02791","locality":"Oderwitz","municipality":{"key":"14626390","name":"Oderwitz","type":"Kreisangehörige_Gemeinde"},"district":{"key":"14626","name":"Görlitz","type":"Landkreis"},"federalState":{"key":"14","name":"Sachsen"}},{"name":"Spitzkunnersdorfer Str.","postalCode":"02791","locality":"Oderwitz","municipality":{"key":"14626390","name":"Oderwitz","type":"Kreisangehörige_Gemeinde"},"district":{"key":"14626","name":"Görlitz","type":"Landkreis"},"federalState":{"key":"14","name":"Sachsen"}},{"name":"Spitzkunnersdorfer Weg","postalCode":"02791","locality":"Oderwitz","municipality":{"key":"14626390","name":"Oderwitz","type":"Kreisangehörige_Gemeinde"},"district":{"key":"14626","name":"Görlitz","type":"Landkreis"},"federalState":{"key":"14","name":"Sachsen"}},{"name":"Steinbergblick","postalCode":"02791","locality":"Oderwitz","municipality":{"key":"14626390","name":"Oderwitz","type":"Kreisangehörige_Gemeinde"},"district":{"key":"14626","name":"Görlitz","type":"Landkreis"},"federalState":{"key":"14","name":"Sachsen"}},{"name":"Str. der Republik","postalCode":"02791","locality":"Oderwitz","municipality":{"key":"14626390","name":"Oderwitz","type":"Kreisangehörige_Gemeinde"},"district":{"key":"14626","name":"Görlitz","type":"Landkreis"},"federalState":{"key":"14","name":"Sachsen"}},{"name":"Talweg","postalCode":"02791","locality":"Oderwitz","municipality":{"key":"14626390","name":"Oderwitz","type":"Kreisangehörige_Gemeinde"},"district":{"key":"14626","name":"Görlitz","type":"Landkreis"},"federalState":{"key":"14","name":"Sachsen"}},{"name":"Thomas-Müntzer-Weg","postalCode":"02791","locality":"Oderwitz","municipality":{"key":"14626390","name":"Oderwitz","type":"Kreisangehörige_Gemeinde"},"district":{"key":"14626","name":"Görlitz","type":"Landkreis"},"federalState":{"key":"14","name":"Sachsen"}},{"name":"Turmweg","postalCode":"02791","locality":"Oderwitz","municipality":{"key":"14626390","name":"Oderwitz","type":"Kreisangehörige_Gemeinde"},"district":{"key":"14626","name":"Görlitz","type":"Landkreis"},"federalState":{"key":"14","name":"Sachsen"}},{"name":"Uferweg","postalCode":"02791","locality":"Oderwitz","municipality":{"key":"14626390","name":"Oderwitz","type":"Kreisangehörige_Gemeinde"},"district":{"key":"14626","name":"Görlitz","type":"Landkreis"},"federalState":{"key":"14","name":"Sachsen"}},{"name":"Untere Dorfstr.","postalCode":"02791","locality":"Oderwitz","municipality":{"key":"14626390","name":"Oderwitz","type":"Kreisangehörige_Gemeinde"},"district":{"key":"14626","name":"Görlitz","type":"Landkreis"},"federalState":{"key":"14","name":"Sachsen"}},{"name":"Unterer Viebig","postalCode":"02791","locality":"Oderwitz","municipality":{"key":"14626390","name":"Oderwitz","type":"Kreisangehörige_Gemeinde"},"district":{"key":"14626","name":"Görlitz","type":"Landkreis"},"federalState":{"key":"14","name":"Sachsen"}},{"name":"Viebig","postalCode":"02791","locality":"Oderwitz","municipality":{"key":"14626390","name":"Oderwitz","type":"Kreisangehörige_Gemeinde"},"district":{"key":"14626","name":"Görlitz","type":"Landkreis"},"federalState":{"key":"14","name":"Sachsen"}},{"name":"von-Canitz-Str.","postalCode":"02791","locality":"Oderwitz","municipality":{"key":"14626390","name":"Oderwitz","type":"Kreisangehörige_Gemeinde"},"district":{"key":"14626","name":"Görlitz","type":"Landkreis"},"federalState":{"key":"14","name":"Sachsen"}},{"name":"Webergasse","postalCode":"02791","locality":"Oderwitz","municipality":{"key":"14626390","name":"Oderwitz","type":"Kreisangehörige_Gemeinde"},"district":{"key":"14626","name":"Görlitz","type":"Landkreis"},"federalState":{"key":"14","name":"Sachsen"}},{"name":"Weberstr.","postalCode":"02791","locality":"Oderwitz","municipality":{"key":"14626390","name":"Oderwitz","type":"Kreisangehörige_Gemeinde"},"district":{"key":"14626","name":"Görlitz","type":"Landkreis"},"federalState":{"key":"14","name":"Sachsen"}},{"name":"Wiesengrund","postalCode":"02791","locality":"Oderwitz","municipality":{"key":"14626390","name":"Oderwitz","type":"Kreisangehörige_Gemeinde"},"district":{"key":"14626","name":"Görlitz","type":"Landkreis"},"federalState":{"key":"14","name":"Sachsen"}},{"name":"Zum Kühnelberg","postalCode":"02791","locality":"Oderwitz","municipality":{"key":"14626390","name":"Oderwitz","type":"Kreisangehörige_Gemeinde"},"district":{"key":"14626","name":"Görlitz","type":"Landkreis"},"federalState":{"key":"14","name":"Sachsen"}},{"name":"Zur Felsenmühle","postalCode":"02791","locality":"Oderwitz","municipality":{"key":"14626390","name":"Oderwitz","type":"Kreisangehörige_Gemeinde"},"district":{"key":"14626","name":"Görlitz","type":"Landkreis"},"federalState":{"key":"14","name":"Sachsen"}},{"name":"Zur Lindenallee","postalCode":"02791","locality":"Oderwitz","municipality":{"key":"14626390","name":"Oderwitz","type":"Kreisangehörige_Gemeinde"},"district":{"key":"14626","name":"Görlitz","type":"Landkreis"},"federalState":{"key":"14","name":"Sachsen"}},]