[{"key":"10080652","name":"Aebersold","postalCode":"3673","locality":"Linden","commune":{"key":"614","name":"Linden","shortName":"Linden"},"district":{"key":"246","name":"Verwaltungskreis Bern-Mittelland"},"canton":{"key":"2","code":"BE","name":"Bern / Berne"},"status":"Real"},{"key":"10005939","name":"Aebersoldweid","postalCode":"3673","locality":"Linden","commune":{"key":"614","name":"Linden","shortName":"Linden"},"district":{"key":"246","name":"Verwaltungskreis Bern-Mittelland"},"canton":{"key":"2","code":"BE","name":"Bern / Berne"},"status":"Real"},{"key":"10154720","name":"Aerntholden","postalCode":"4460","locality":"Gelterkinden","commune":{"key":"2846","name":"Gelterkinden","shortName":"Gelterkinden"},"district":{"key":"1304","name":"Bezirk Sissach"},"canton":{"key":"13","code":"BL","name":"Basel-Landschaft"},"status":"Real"},{"key":"10141424","name":"Aerntholdenweg","postalCode":"4460","locality":"Gelterkinden","commune":{"key":"2846","name":"Gelterkinden","shortName":"Gelterkinden"},"district":{"key":"1304","name":"Bezirk Sissach"},"canton":{"key":"13","code":"BL","name":"Basel-Landschaft"},"status":"Real"},{"key":"10005940","name":"Aeugsten","postalCode":"3673","locality":"Linden","commune":{"key":"614","name":"Linden","shortName":"Linden"},"district":{"key":"246","name":"Verwaltungskreis Bern-Mittelland"},"canton":{"key":"2","code":"BE","name":"Bern / Berne"},"status":"Real"},{"key":"10244579","name":"Ahornpark","postalCode":"3315","locality":"Bätterkinden","commune":{"key":"533","name":"Bätterkinden","shortName":"Bätterkinden"},"district":{"key":"245","name":"Verwaltungskreis Emmental"},"canton":{"key":"2","code":"BE","name":"Bern / Berne"},"status":"Planned"},{"key":"10082521","name":"Ahornweg","postalCode":"3315","locality":"Bätterkinden","commune":{"key":"533","name":"Bätterkinden","shortName":"Bätterkinden"},"district":{"key":"245","name":"Verwaltungskreis Emmental"},"canton":{"key":"2","code":"BE","name":"Bern / Berne"},"status":"Real"},{"key":"10201418","name":"Ahornweg","postalCode":"3673","locality":"Linden","commune":{"key":"614","name":"Linden","shortName":"Linden"},"district":{"key":"246","name":"Verwaltungskreis Bern-Mittelland"},"canton":{"key":"2","code":"BE","name":"Bern / Berne"},"status":"Real"},{"key":"10050744","name":"Akazienweg","postalCode":"3315","locality":"Bätterkinden","commune":{"key":"533","name":"Bätterkinden","shortName":"Bätterkinden"},"district":{"key":"245","name":"Verwaltungskreis Emmental"},"canton":{"key":"2","code":"BE","name":"Bern / Berne"},"status":"Real"},{"key":"10011275","name":"Albisblick","postalCode":"6319","locality":"Allenwinden","commune":{"key":"1701","name":"Baar","shortName":"Baar"},"district":{"key":"900","name":"Kanton Zug"},"canton":{"key":"9","code":"ZG","name":"Zug"},"status":"Real"},{"key":"10235762","name":"Allenwindenstrasse","postalCode":"6319","locality":"Allenwinden","commune":{"key":"1701","name":"Baar","shortName":"Baar"},"district":{"key":"900","name":"Kanton Zug"},"canton":{"key":"9","code":"ZG","name":"Zug"},"status":"Real"},{"key":"10114691","name":"Allerseggweg","postalCode":"4460","locality":"Gelterkinden","commune":{"key":"2846","name":"Gelterkinden","shortName":"Gelterkinden"},"district":{"key":"1304","name":"Bezirk Sissach"},"canton":{"key":"13","code":"BL","name":"Basel-Landschaft"},"status":"Real"},{"key":"10022659","name":"Allmend","postalCode":"4460","locality":"Gelterkinden","commune":{"key":"2846","name":"Gelterkinden","shortName":"Gelterkinden"},"district":{"key":"1304","name":"Bezirk Sissach"},"canton":{"key":"13","code":"BL","name":"Basel-Landschaft"},"status":"Real"},{"key":"10103845","name":"Allmendstrasse","postalCode":"4460","locality":"Gelterkinden","commune":{"key":"2846","name":"Gelterkinden","shortName":"Gelterkinden"},"district":{"key":"1304","name":"Bezirk Sissach"},"canton":{"key":"13","code":"BL","name":"Basel-Landschaft"},"status":"Real"},{"key":"10141455","name":"Alte Badi","postalCode":"4460","locality":"Gelterkinden","commune":{"key":"2846","name":"Gelterkinden","shortName":"Gelterkinden"},"district":{"key":"1304","name":"Bezirk Sissach"},"canton":{"key":"13","code":"BL","name":"Basel-Landschaft"},"status":"Real"},{"key":"10245393","name":"Alte Bahnstrasse","postalCode":"3953","locality":"Inden","commune":{"key":"6109","name":"Inden","shortName":"Inden"},"district":{"key":"2306","name":"Bezirk Leuk"},"canton":{"key":"23","code":"VS","name":"Valais / Wallis"},"status":"Real"},{"key":"10129445","name":"Alte Poststrasse","postalCode":"9315","locality":"Winden","commune":{"key":"4411","name":"Egnach","shortName":"Egnach"},"district":{"key":"2011","name":"Bezirk Arbon"},"canton":{"key":"20","code":"TG","name":"Thurgau"},"status":"Real"},{"key":"10245677","name":"Alter Römerweg","postalCode":"3953","locality":"Inden","commune":{"key":"6109","name":"Inden","shortName":"Inden"},"district":{"key":"2306","name":"Bezirk Leuk"},"canton":{"key":"23","code":"VS","name":"Valais / Wallis"},"status":"Real"},{"key":"10143270","name":"Alt Rössli","postalCode":"6319","locality":"Allenwinden","commune":{"key":"1701","name":"Baar","shortName":"Baar"},"district":{"key":"900","name":"Kanton Zug"},"canton":{"key":"9","code":"ZG","name":"Zug"},"status":"Real"},{"key":"10124970","name":"Am Rickenbächli","postalCode":"4460","locality":"Gelterkinden","commune":{"key":"2846","name":"Gelterkinden","shortName":"Gelterkinden"},"district":{"key":"1304","name":"Bezirk Sissach"},"canton":{"key":"13","code":"BL","name":"Basel-Landschaft"},"status":"Real"},{"key":"10190882","name":"Aspweg","postalCode":"4460","locality":"Gelterkinden","commune":{"key":"2846","name":"Gelterkinden","shortName":"Gelterkinden"},"district":{"key":"1304","name":"Bezirk Sissach"},"canton":{"key":"13","code":"BL","name":"Basel-Landschaft"},"status":"Real"},{"key":"10179328","name":"Asterweg","postalCode":"3315","locality":"Bätterkinden","commune":{"key":"533","name":"Bätterkinden","shortName":"Bätterkinden"},"district":{"key":"245","name":"Verwaltungskreis Emmental"},"canton":{"key":"2","code":"BE","name":"Bern / Berne"},"status":"Real"},{"key":"10096533","name":"Auf der Leieren","postalCode":"4460","locality":"Gelterkinden","commune":{"key":"2846","name":"Gelterkinden","shortName":"Gelterkinden"},"district":{"key":"1304","name":"Bezirk Sissach"},"canton":{"key":"13","code":"BL","name":"Basel-Landschaft"},"status":"Real"},{"key":"10175911","name":"Auf der Staffelen","postalCode":"4460","locality":"Gelterkinden","commune":{"key":"2846","name":"Gelterkinden","shortName":"Gelterkinden"},"district":{"key":"1304","name":"Bezirk Sissach"},"canton":{"key":"13","code":"BL","name":"Basel-Landschaft"},"status":"Real"},{"key":"10005941","name":"Aulennest","postalCode":"3673","locality":"Linden","commune":{"key":"614","name":"Linden","shortName":"Linden"},"district":{"key":"246","name":"Verwaltungskreis Bern-Mittelland"},"canton":{"key":"2","code":"BE","name":"Bern / Berne"},"status":"Real"},{"key":"10022660","name":"Aumattweg","postalCode":"4460","locality":"Gelterkinden","commune":{"key":"2846","name":"Gelterkinden","shortName":"Gelterkinden"},"district":{"key":"1304","name":"Bezirk Sissach"},"canton":{"key":"13","code":"BL","name":"Basel-Landschaft"},"status":"Real"},{"key":"10011276","name":"Aussergrüt","postalCode":"6319","locality":"Allenwinden","commune":{"key":"1701","name":"Baar","shortName":"Baar"},"district":{"key":"900","name":"Kanton Zug"},"canton":{"key":"9","code":"ZG","name":"Zug"},"status":"Real"},{"key":"10064840","name":"Aussergrütstrasse","postalCode":"6319","locality":"Allenwinden","commune":{"key":"1701","name":"Baar","shortName":"Baar"},"district":{"key":"900","name":"Kanton Zug"},"canton":{"key":"9","code":"ZG","name":"Zug"},"status":"Real"},{"key":"10047565","name":"Bachacherweg","postalCode":"4460","locality":"Gelterkinden","commune":{"key":"2846","name":"Gelterkinden","shortName":"Gelterkinden"},"district":{"key":"1304","name":"Bezirk Sissach"},"canton":{"key":"13","code":"BL","name":"Basel-Landschaft"},"status":"Real"},{"key":"10072818","name":"Bachgasse","postalCode":"4460","locality":"Gelterkinden","commune":{"key":"2846","name":"Gelterkinden","shortName":"Gelterkinden"},"district":{"key":"1304","name":"Bezirk Sissach"},"canton":{"key":"13","code":"BL","name":"Basel-Landschaft"},"status":"Real"},{"key":"10096534","name":"Badweg","postalCode":"4460","locality":"Gelterkinden","commune":{"key":"2846","name":"Gelterkinden","shortName":"Gelterkinden"},"district":{"key":"1304","name":"Bezirk Sissach"},"canton":{"key":"13","code":"BL","name":"Basel-Landschaft"},"status":"Real"},{"key":"10008372","name":"Bahnhofstrasse","postalCode":"3315","locality":"Bätterkinden","commune":{"key":"533","name":"Bätterkinden","shortName":"Bätterkinden"},"district":{"key":"245","name":"Verwaltungskreis Emmental"},"canton":{"key":"2","code":"BE","name":"Bern / Berne"},"status":"Real"},{"key":"10022661","name":"Bahnhofstrasse","postalCode":"4460","locality":"Gelterkinden","commune":{"key":"2846","name":"Gelterkinden","shortName":"Gelterkinden"},"district":{"key":"1304","name":"Bezirk Sissach"},"canton":{"key":"13","code":"BL","name":"Basel-Landschaft"},"status":"Real"},{"key":"10234954","name":"Bahnhofstrasse","postalCode":"9315","locality":"Winden","commune":{"key":"4411","name":"Egnach","shortName":"Egnach"},"district":{"key":"2011","name":"Bezirk Arbon"},"canton":{"key":"20","code":"TG","name":"Thurgau"},"status":"Real"},{"key":"10141401","name":"Bahnhofwegli","postalCode":"4460","locality":"Gelterkinden","commune":{"key":"2846","name":"Gelterkinden","shortName":"Gelterkinden"},"district":{"key":"1304","name":"Bezirk Sissach"},"canton":{"key":"13","code":"BL","name":"Basel-Landschaft"},"status":"Real"},{"key":"10154715","name":"Bahnweg","postalCode":"4460","locality":"Gelterkinden","commune":{"key":"2846","name":"Gelterkinden","shortName":"Gelterkinden"},"district":{"key":"1304","name":"Bezirk Sissach"},"canton":{"key":"13","code":"BL","name":"Basel-Landschaft"},"status":"Real"},{"key":"10028185","name":"Balgen","postalCode":"9315","locality":"Winden","commune":{"key":"4411","name":"Egnach","shortName":"Egnach"},"district":{"key":"2011","name":"Bezirk Arbon"},"canton":{"key":"20","code":"TG","name":"Thurgau"},"status":"Real"},{"key":"10108768","name":"Balkenweg","postalCode":"4460","locality":"Gelterkinden","commune":{"key":"2846","name":"Gelterkinden","shortName":"Gelterkinden"},"district":{"key":"1304","name":"Bezirk Sissach"},"canton":{"key":"13","code":"BL","name":"Basel-Landschaft"},"status":"Real"},{"key":"10093217","name":"Ballen","postalCode":"9315","locality":"Winden","commune":{"key":"4411","name":"Egnach","shortName":"Egnach"},"district":{"key":"2011","name":"Bezirk Arbon"},"canton":{"key":"20","code":"TG","name":"Thurgau"},"status":"Real"},{"key":"10215084","name":"Ballyweg","postalCode":"4460","locality":"Gelterkinden","commune":{"key":"2846","name":"Gelterkinden","shortName":"Gelterkinden"},"district":{"key":"1304","name":"Bezirk Sissach"},"canton":{"key":"13","code":"BL","name":"Basel-Landschaft"},"status":"Real"},{"key":"10008373","name":"Bärenmattweg","postalCode":"3315","locality":"Bätterkinden","commune":{"key":"533","name":"Bätterkinden","shortName":"Bätterkinden"},"district":{"key":"245","name":"Verwaltungskreis Emmental"},"canton":{"key":"2","code":"BE","name":"Bern / Berne"},"status":"Real"},{"key":"10080531","name":"Barschwand","postalCode":"3673","locality":"Linden","commune":{"key":"614","name":"Linden","shortName":"Linden"},"district":{"key":"246","name":"Verwaltungskreis Bern-Mittelland"},"canton":{"key":"2","code":"BE","name":"Bern / Berne"},"status":"Real"},{"key":"10066292","name":"Baumgartenweg","postalCode":"3315","locality":"Bätterkinden","commune":{"key":"533","name":"Bätterkinden","shortName":"Bätterkinden"},"district":{"key":"245","name":"Verwaltungskreis Emmental"},"canton":{"key":"2","code":"BE","name":"Bern / Berne"},"status":"Real"},{"key":"10184022","name":"Baumgartenweg","postalCode":"4447","locality":"Känerkinden","commune":{"key":"2850","name":"Känerkinden","shortName":"Känerkinden"},"district":{"key":"1304","name":"Bezirk Sissach"},"canton":{"key":"13","code":"BL","name":"Basel-Landschaft"},"status":"Real"},{"key":"10096535","name":"Baumgärtliring","postalCode":"4460","locality":"Gelterkinden","commune":{"key":"2846","name":"Gelterkinden","shortName":"Gelterkinden"},"district":{"key":"1304","name":"Bezirk Sissach"},"canton":{"key":"13","code":"BL","name":"Basel-Landschaft"},"status":"Real"},{"key":"10072819","name":"Baummattweg","postalCode":"4460","locality":"Gelterkinden","commune":{"key":"2846","name":"Gelterkinden","shortName":"Gelterkinden"},"district":{"key":"1304","name":"Bezirk Sissach"},"canton":{"key":"13","code":"BL","name":"Basel-Landschaft"},"status":"Real"},{"key":"10243753","name":"Bergweg","postalCode":"4447","locality":"Känerkinden","commune":{"key":"2850","name":"Känerkinden","shortName":"Känerkinden"},"district":{"key":"1304","name":"Bezirk Sissach"},"canton":{"key":"13","code":"BL","name":"Basel-Landschaft"},"status":"Real"},{"key":"10136406","name":"Bernstrasse","postalCode":"3315","locality":"Bätterkinden","commune":{"key":"533","name":"Bätterkinden","shortName":"Bätterkinden"},"district":{"key":"245","name":"Verwaltungskreis Emmental"},"canton":{"key":"2","code":"BE","name":"Bern / Berne"},"status":"Real"},{"key":"10154716","name":"Bettenberg","postalCode":"4460","locality":"Gelterkinden","commune":{"key":"2846","name":"Gelterkinden","shortName":"Gelterkinden"},"district":{"key":"1304","name":"Bezirk Sissach"},"canton":{"key":"13","code":"BL","name":"Basel-Landschaft"},"status":"Real"},{"key":"10141451","name":"Bettenbergweg","postalCode":"4460","locality":"Gelterkinden","commune":{"key":"2846","name":"Gelterkinden","shortName":"Gelterkinden"},"district":{"key":"1304","name":"Bezirk Sissach"},"canton":{"key":"13","code":"BL","name":"Basel-Landschaft"},"status":"Real"},{"key":"10061678","name":"Bilgerighof","postalCode":"6319","locality":"Allenwinden","commune":{"key":"1701","name":"Baar","shortName":"Baar"},"district":{"key":"900","name":"Kanton Zug"},"canton":{"key":"9","code":"ZG","name":"Zug"},"status":"Real"},{"key":"10193685","name":"Birkenweg","postalCode":"3315","locality":"Bätterkinden","commune":{"key":"533","name":"Bätterkinden","shortName":"Bätterkinden"},"district":{"key":"245","name":"Verwaltungskreis Emmental"},"canton":{"key":"2","code":"BE","name":"Bern / Berne"},"status":"Real"},{"key":"10060587","name":"Birkenweg","postalCode":"3673","locality":"Linden","commune":{"key":"614","name":"Linden","shortName":"Linden"},"district":{"key":"246","name":"Verwaltungskreis Bern-Mittelland"},"canton":{"key":"2","code":"BE","name":"Bern / Berne"},"status":"Real"},{"key":"10175709","name":"Birkenweg","postalCode":"4460","locality":"Gelterkinden","commune":{"key":"2846","name":"Gelterkinden","shortName":"Gelterkinden"},"district":{"key":"1304","name":"Bezirk Sissach"},"canton":{"key":"13","code":"BL","name":"Basel-Landschaft"},"status":"Real"},{"key":"10113768","name":"Birrmoosstrasse","postalCode":"3673","locality":"Linden","commune":{"key":"614","name":"Linden","shortName":"Linden"},"district":{"key":"246","name":"Verwaltungskreis Bern-Mittelland"},"canton":{"key":"2","code":"BE","name":"Bern / Berne"},"status":"Real"},{"key":"10179245","name":"Bleichiring","postalCode":"4460","locality":"Gelterkinden","commune":{"key":"2846","name":"Gelterkinden","shortName":"Gelterkinden"},"district":{"key":"1304","name":"Bezirk Sissach"},"canton":{"key":"13","code":"BL","name":"Basel-Landschaft"},"status":"Real"},{"key":"10022662","name":"Bleichiweg","postalCode":"4460","locality":"Gelterkinden","commune":{"key":"2846","name":"Gelterkinden","shortName":"Gelterkinden"},"district":{"key":"1304","name":"Bezirk Sissach"},"canton":{"key":"13","code":"BL","name":"Basel-Landschaft"},"status":"Real"},{"key":"10177337","name":"Blumenweg","postalCode":"3315","locality":"Bätterkinden","commune":{"key":"533","name":"Bätterkinden","shortName":"Bätterkinden"},"district":{"key":"245","name":"Verwaltungskreis Emmental"},"canton":{"key":"2","code":"BE","name":"Bern / Berne"},"status":"Real"},{"key":"10047566","name":"Bodenacherweg","postalCode":"4460","locality":"Gelterkinden","commune":{"key":"2846","name":"Gelterkinden","shortName":"Gelterkinden"},"district":{"key":"1304","name":"Bezirk Sissach"},"canton":{"key":"13","code":"BL","name":"Basel-Landschaft"},"status":"Real"},{"key":"10245400","name":"Bodenstrasse","postalCode":"3953","locality":"Inden","commune":{"key":"6109","name":"Inden","shortName":"Inden"},"district":{"key":"2306","name":"Bezirk Leuk"},"canton":{"key":"23","code":"VS","name":"Valais / Wallis"},"status":"Real"},{"key":"10196329","name":"Bodmerweg","postalCode":"4460","locality":"Gelterkinden","commune":{"key":"2846","name":"Gelterkinden","shortName":"Gelterkinden"},"district":{"key":"1304","name":"Bezirk Sissach"},"canton":{"key":"13","code":"BL","name":"Basel-Landschaft"},"status":"Real"},{"key":"10022663","name":"Bohnygasse","postalCode":"4460","locality":"Gelterkinden","commune":{"key":"2846","name":"Gelterkinden","shortName":"Gelterkinden"},"district":{"key":"1304","name":"Bezirk Sissach"},"canton":{"key":"13","code":"BL","name":"Basel-Landschaft"},"status":"Real"},{"key":"10196932","name":"Braatemoos","postalCode":"9315","locality":"Winden","commune":{"key":"4411","name":"Egnach","shortName":"Egnach"},"district":{"key":"2011","name":"Bezirk Arbon"},"canton":{"key":"20","code":"TG","name":"Thurgau"},"status":"Real"},{"key":"10096536","name":"Brackenweg","postalCode":"4460","locality":"Gelterkinden","commune":{"key":"2846","name":"Gelterkinden","shortName":"Gelterkinden"},"district":{"key":"1304","name":"Bezirk Sissach"},"canton":{"key":"13","code":"BL","name":"Basel-Landschaft"},"status":"Real"},{"key":"10073083","name":"Breitiweg","postalCode":"4460","locality":"Gelterkinden","commune":{"key":"2846","name":"Gelterkinden","shortName":"Gelterkinden"},"district":{"key":"1304","name":"Bezirk Sissach"},"canton":{"key":"13","code":"BL","name":"Basel-Landschaft"},"status":"Real"},{"key":"10005942","name":"Bröntschi","postalCode":"3673","locality":"Linden","commune":{"key":"614","name":"Linden","shortName":"Linden"},"district":{"key":"246","name":"Verwaltungskreis Bern-Mittelland"},"canton":{"key":"2","code":"BE","name":"Bern / Berne"},"status":"Real"},{"key":"10005090","name":"Brotheitern","postalCode":"3673","locality":"Linden","commune":{"key":"614","name":"Linden","shortName":"Linden"},"district":{"key":"246","name":"Verwaltungskreis Bern-Mittelland"},"canton":{"key":"2","code":"BE","name":"Bern / Berne"},"status":"Real"},{"key":"10107060","name":"Brühlgasse","postalCode":"4460","locality":"Gelterkinden","commune":{"key":"2846","name":"Gelterkinden","shortName":"Gelterkinden"},"district":{"key":"1304","name":"Bezirk Sissach"},"canton":{"key":"13","code":"BL","name":"Basel-Landschaft"},"status":"Real"},{"key":"10022664","name":"Brühlmattweg","postalCode":"4460","locality":"Gelterkinden","commune":{"key":"2846","name":"Gelterkinden","shortName":"Gelterkinden"},"district":{"key":"1304","name":"Bezirk Sissach"},"canton":{"key":"13","code":"BL","name":"Basel-Landschaft"},"status":"Real"},{"key":"10245404","name":"Brunnjistrasse","postalCode":"3953","locality":"Inden","commune":{"key":"6109","name":"Inden","shortName":"Inden"},"district":{"key":"2306","name":"Bezirk Leuk"},"canton":{"key":"23","code":"VS","name":"Valais / Wallis"},"status":"Real"},{"key":"10060588","name":"Bruuch","postalCode":"3673","locality":"Linden","commune":{"key":"614","name":"Linden","shortName":"Linden"},"district":{"key":"246","name":"Verwaltungskreis Bern-Mittelland"},"canton":{"key":"2","code":"BE","name":"Bern / Berne"},"status":"Real"},{"key":"10200397","name":"Bruuchweg","postalCode":"3673","locality":"Linden","commune":{"key":"614","name":"Linden","shortName":"Linden"},"district":{"key":"246","name":"Verwaltungskreis Bern-Mittelland"},"canton":{"key":"2","code":"BE","name":"Bern / Berne"},"status":"Real"},{"key":"10122616","name":"Bubenbergstrasse","postalCode":"3315","locality":"Bätterkinden","commune":{"key":"533","name":"Bätterkinden","shortName":"Bätterkinden"},"district":{"key":"245","name":"Verwaltungskreis Emmental"},"canton":{"key":"2","code":"BE","name":"Bern / Berne"},"status":"Real"},{"key":"10182621","name":"Buchenweg","postalCode":"3315","locality":"Bätterkinden","commune":{"key":"533","name":"Bätterkinden","shortName":"Bätterkinden"},"district":{"key":"245","name":"Verwaltungskreis Emmental"},"canton":{"key":"2","code":"BE","name":"Bern / Berne"},"status":"Real"},{"key":"10005943","name":"Buchenweg","postalCode":"3673","locality":"Linden","commune":{"key":"614","name":"Linden","shortName":"Linden"},"district":{"key":"246","name":"Verwaltungskreis Bern-Mittelland"},"canton":{"key":"2","code":"BE","name":"Bern / Berne"},"status":"Real"},{"key":"10011951","name":"Buechholz","postalCode":"6319","locality":"Allenwinden","commune":{"key":"1701","name":"Baar","shortName":"Baar"},"district":{"key":"900","name":"Kanton Zug"},"canton":{"key":"9","code":"ZG","name":"Zug"},"status":"Real"},{"key":"10196981","name":"Buewes","postalCode":"9315","locality":"Winden","commune":{"key":"4411","name":"Egnach","shortName":"Egnach"},"district":{"key":"2011","name":"Bezirk Arbon"},"canton":{"key":"20","code":"TG","name":"Thurgau"},"status":"Real"},{"key":"10115383","name":"Bühl","postalCode":"3673","locality":"Linden","commune":{"key":"614","name":"Linden","shortName":"Linden"},"district":{"key":"246","name":"Verwaltungskreis Bern-Mittelland"},"canton":{"key":"2","code":"BE","name":"Bern / Berne"},"status":"Real"},{"key":"10156014","name":"Chapf","postalCode":"4460","locality":"Gelterkinden","commune":{"key":"2846","name":"Gelterkinden","shortName":"Gelterkinden"},"district":{"key":"1304","name":"Bezirk Sissach"},"canton":{"key":"13","code":"BL","name":"Basel-Landschaft"},"status":"Real"},{"key":"10110799","name":"Chapfweg","postalCode":"4460","locality":"Gelterkinden","commune":{"key":"2846","name":"Gelterkinden","shortName":"Gelterkinden"},"district":{"key":"1304","name":"Bezirk Sissach"},"canton":{"key":"13","code":"BL","name":"Basel-Landschaft"},"status":"Real"},{"key":"10154717","name":"Chatzenholdenweg","postalCode":"4460","locality":"Gelterkinden","commune":{"key":"2846","name":"Gelterkinden","shortName":"Gelterkinden"},"district":{"key":"1304","name":"Bezirk Sissach"},"canton":{"key":"13","code":"BL","name":"Basel-Landschaft"},"status":"Real"},{"key":"10096537","name":"Chienbergreben","postalCode":"4460","locality":"Gelterkinden","commune":{"key":"2846","name":"Gelterkinden","shortName":"Gelterkinden"},"district":{"key":"1304","name":"Bezirk Sissach"},"canton":{"key":"13","code":"BL","name":"Basel-Landschaft"},"status":"Real"},{"key":"10141445","name":"Chillegässli","postalCode":"4460","locality":"Gelterkinden","commune":{"key":"2846","name":"Gelterkinden","shortName":"Gelterkinden"},"district":{"key":"1304","name":"Bezirk Sissach"},"canton":{"key":"13","code":"BL","name":"Basel-Landschaft"},"status":"Real"},{"key":"10025966","name":"Chirsgartenweg","postalCode":"4460","locality":"Gelterkinden","commune":{"key":"2846","name":"Gelterkinden","shortName":"Gelterkinden"},"district":{"key":"1304","name":"Bezirk Sissach"},"canton":{"key":"13","code":"BL","name":"Basel-Landschaft"},"status":"Real"},{"key":"10130797","name":"Chläbi","postalCode":"3673","locality":"Linden","commune":{"key":"614","name":"Linden","shortName":"Linden"},"district":{"key":"246","name":"Verwaltungskreis Bern-Mittelland"},"canton":{"key":"2","code":"BE","name":"Bern / Berne"},"status":"Real"},{"key":"10080532","name":"Chräjbel","postalCode":"3673","locality":"Linden","commune":{"key":"614","name":"Linden","shortName":"Linden"},"district":{"key":"246","name":"Verwaltungskreis Bern-Mittelland"},"canton":{"key":"2","code":"BE","name":"Bern / Berne"},"status":"Real"},{"key":"10196954","name":"Chrommholz","postalCode":"9315","locality":"Winden","commune":{"key":"4411","name":"Egnach","shortName":"Egnach"},"district":{"key":"2011","name":"Bezirk Arbon"},"canton":{"key":"20","code":"TG","name":"Thurgau"},"status":"Real"},{"key":"10047567","name":"Chrummacherweg","postalCode":"4460","locality":"Gelterkinden","commune":{"key":"2846","name":"Gelterkinden","shortName":"Gelterkinden"},"district":{"key":"1304","name":"Bezirk Sissach"},"canton":{"key":"13","code":"BL","name":"Basel-Landschaft"},"status":"Real"},{"key":"10217981","name":"Chrusi","postalCode":"3673","locality":"Linden","commune":{"key":"614","name":"Linden","shortName":"Linden"},"district":{"key":"246","name":"Verwaltungskreis Bern-Mittelland"},"canton":{"key":"2","code":"BE","name":"Bern / Berne"},"status":"Real"},{"key":"10154718","name":"Chüelbrunnen","postalCode":"4460","locality":"Gelterkinden","commune":{"key":"2846","name":"Gelterkinden","shortName":"Gelterkinden"},"district":{"key":"1304","name":"Bezirk Sissach"},"canton":{"key":"13","code":"BL","name":"Basel-Landschaft"},"status":"Real"},{"key":"10110316","name":"Chürzi","postalCode":"3673","locality":"Linden","commune":{"key":"614","name":"Linden","shortName":"Linden"},"district":{"key":"246","name":"Verwaltungskreis Bern-Mittelland"},"canton":{"key":"2","code":"BE","name":"Bern / Berne"},"status":"Real"},{"key":"10025967","name":"Chürziweg","postalCode":"4460","locality":"Gelterkinden","commune":{"key":"2846","name":"Gelterkinden","shortName":"Gelterkinden"},"district":{"key":"1304","name":"Bezirk Sissach"},"canton":{"key":"13","code":"BL","name":"Basel-Landschaft"},"status":"Real"},{"key":"10050745","name":"Dählenweg","postalCode":"3315","locality":"Bätterkinden","commune":{"key":"533","name":"Bätterkinden","shortName":"Bätterkinden"},"district":{"key":"245","name":"Verwaltungskreis Emmental"},"canton":{"key":"2","code":"BE","name":"Bern / Berne"},"status":"Real"},{"key":"10066293","name":"Dahlienweg","postalCode":"3315","locality":"Bätterkinden","commune":{"key":"533","name":"Bätterkinden","shortName":"Bätterkinden"},"district":{"key":"245","name":"Verwaltungskreis Emmental"},"canton":{"key":"2","code":"BE","name":"Bern / Berne"},"status":"Real"},{"key":"10179246","name":"Dammweg","postalCode":"4460","locality":"Gelterkinden","commune":{"key":"2846","name":"Gelterkinden","shortName":"Gelterkinden"},"district":{"key":"1304","name":"Bezirk Sissach"},"canton":{"key":"13","code":"BL","name":"Basel-Landschaft"},"status":"Real"},{"key":"10047568","name":"Dickelenweg","postalCode":"4460","locality":"Gelterkinden","commune":{"key":"2846","name":"Gelterkinden","shortName":"Gelterkinden"},"district":{"key":"1304","name":"Bezirk Sissach"},"canton":{"key":"13","code":"BL","name":"Basel-Landschaft"},"status":"Real"},{"key":"10245676","name":"Dorbuweg","postalCode":"3953","locality":"Inden","commune":{"key":"6109","name":"Inden","shortName":"Inden"},"district":{"key":"2306","name":"Bezirk Leuk"},"canton":{"key":"23","code":"VS","name":"Valais / Wallis"},"status":"Real"},{"key":"10008374","name":"Dorfmatt","postalCode":"3315","locality":"Bätterkinden","commune":{"key":"533","name":"Bätterkinden","shortName":"Bätterkinden"},"district":{"key":"245","name":"Verwaltungskreis Emmental"},"canton":{"key":"2","code":"BE","name":"Bern / Berne"},"status":"Real"},{"key":"10011277","name":"Dorfmatt","postalCode":"6319","locality":"Allenwinden","commune":{"key":"1701","name":"Baar","shortName":"Baar"},"district":{"key":"900","name":"Kanton Zug"},"canton":{"key":"9","code":"ZG","name":"Zug"},"status":"Real"},{"key":"10005944","name":"Dorfplatz","postalCode":"3673","locality":"Linden","commune":{"key":"614","name":"Linden","shortName":"Linden"},"district":{"key":"246","name":"Verwaltungskreis Bern-Mittelland"},"canton":{"key":"2","code":"BE","name":"Bern / Berne"},"status":"Real"},{"key":"10181539","name":"Dorfplatz","postalCode":"4460","locality":"Gelterkinden","commune":{"key":"2846","name":"Gelterkinden","shortName":"Gelterkinden"},"district":{"key":"1304","name":"Bezirk Sissach"},"canton":{"key":"13","code":"BL","name":"Basel-Landschaft"},"status":"Real"},{"key":"10064846","name":"Dorfring","postalCode":"6319","locality":"Allenwinden","commune":{"key":"1701","name":"Baar","shortName":"Baar"},"district":{"key":"900","name":"Kanton Zug"},"canton":{"key":"9","code":"ZG","name":"Zug"},"status":"Real"},{"key":"10080533","name":"Dorfstrasse","postalCode":"3673","locality":"Linden","commune":{"key":"614","name":"Linden","shortName":"Linden"},"district":{"key":"246","name":"Verwaltungskreis Bern-Mittelland"},"canton":{"key":"2","code":"BE","name":"Bern / Berne"},"status":"Real"},{"key":"10240882","name":"Dorfstrasse","postalCode":"6319","locality":"Allenwinden","commune":{"key":"1701","name":"Baar","shortName":"Baar"},"district":{"key":"900","name":"Kanton Zug"},"canton":{"key":"9","code":"ZG","name":"Zug"},"status":"Real"},{"key":"10154755","name":"Dörlimattweg","postalCode":"4447","locality":"Känerkinden","commune":{"key":"2850","name":"Känerkinden","shortName":"Känerkinden"},"district":{"key":"1304","name":"Bezirk Sissach"},"canton":{"key":"13","code":"BL","name":"Basel-Landschaft"},"status":"Real"},{"key":"10156017","name":"Dottmesen","postalCode":"4460","locality":"Gelterkinden","commune":{"key":"2846","name":"Gelterkinden","shortName":"Gelterkinden"},"district":{"key":"1304","name":"Bezirk Sissach"},"canton":{"key":"13","code":"BL","name":"Basel-Landschaft"},"status":"Real"},{"key":"10069456","name":"Ebenmattstrasse","postalCode":"4447","locality":"Känerkinden","commune":{"key":"2850","name":"Känerkinden","shortName":"Känerkinden"},"district":{"key":"1304","name":"Bezirk Sissach"},"canton":{"key":"13","code":"BL","name":"Basel-Landschaft"},"status":"Real"},{"key":"10118334","name":"Ebnetweg","postalCode":"4460","locality":"Gelterkinden","commune":{"key":"2846","name":"Gelterkinden","shortName":"Gelterkinden"},"district":{"key":"1304","name":"Bezirk Sissach"},"canton":{"key":"13","code":"BL","name":"Basel-Landschaft"},"status":"Real"},{"key":"10005945","name":"Egg","postalCode":"3673","locality":"Linden","commune":{"key":"614","name":"Linden","shortName":"Linden"},"district":{"key":"246","name":"Verwaltungskreis Bern-Mittelland"},"canton":{"key":"2","code":"BE","name":"Bern / Berne"},"status":"Real"},{"key":"10060589","name":"Egglishäusern","postalCode":"3673","locality":"Linden","commune":{"key":"614","name":"Linden","shortName":"Linden"},"district":{"key":"246","name":"Verwaltungskreis Bern-Mittelland"},"canton":{"key":"2","code":"BE","name":"Bern / Berne"},"status":"Real"},{"key":"10094761","name":"Eggried","postalCode":"6319","locality":"Allenwinden","commune":{"key":"1701","name":"Baar","shortName":"Baar"},"district":{"key":"900","name":"Kanton Zug"},"canton":{"key":"9","code":"ZG","name":"Zug"},"status":"Real"},{"key":"10005946","name":"Eggstalden","postalCode":"3673","locality":"Linden","commune":{"key":"614","name":"Linden","shortName":"Linden"},"district":{"key":"246","name":"Verwaltungskreis Bern-Mittelland"},"canton":{"key":"2","code":"BE","name":"Bern / Berne"},"status":"Real"},{"key":"10194006","name":"Eibenweg","postalCode":"3315","locality":"Bätterkinden","commune":{"key":"533","name":"Bätterkinden","shortName":"Bätterkinden"},"district":{"key":"245","name":"Verwaltungskreis Emmental"},"canton":{"key":"2","code":"BE","name":"Bern / Berne"},"status":"Real"},{"key":"10025968","name":"Eifeldweg","postalCode":"4460","locality":"Gelterkinden","commune":{"key":"2846","name":"Gelterkinden","shortName":"Gelterkinden"},"district":{"key":"1304","name":"Bezirk Sissach"},"canton":{"key":"13","code":"BL","name":"Basel-Landschaft"},"status":"Real"},{"key":"10053837","name":"Eireben","postalCode":"4460","locality":"Gelterkinden","commune":{"key":"2846","name":"Gelterkinden","shortName":"Gelterkinden"},"district":{"key":"1304","name":"Bezirk Sissach"},"canton":{"key":"13","code":"BL","name":"Basel-Landschaft"},"status":"Real"},{"key":"10047569","name":"Eiweg","postalCode":"4460","locality":"Gelterkinden","commune":{"key":"2846","name":"Gelterkinden","shortName":"Gelterkinden"},"district":{"key":"1304","name":"Bezirk Sissach"},"canton":{"key":"13","code":"BL","name":"Basel-Landschaft"},"status":"Real"},{"key":"10025969","name":"Ergolzstrasse","postalCode":"4460","locality":"Gelterkinden","commune":{"key":"2846","name":"Gelterkinden","shortName":"Gelterkinden"},"district":{"key":"1304","name":"Bezirk Sissach"},"canton":{"key":"13","code":"BL","name":"Basel-Landschaft"},"status":"Real"},{"key":"10005947","name":"Eriz","postalCode":"3673","locality":"Linden","commune":{"key":"614","name":"Linden","shortName":"Linden"},"district":{"key":"246","name":"Verwaltungskreis Bern-Mittelland"},"canton":{"key":"2","code":"BE","name":"Bern / Berne"},"status":"Real"},{"key":"10217414","name":"Erlenmatt","postalCode":"3315","locality":"Bätterkinden","commune":{"key":"533","name":"Bätterkinden","shortName":"Bätterkinden"},"district":{"key":"245","name":"Verwaltungskreis Emmental"},"canton":{"key":"2","code":"BE","name":"Bern / Berne"},"status":"Real"},{"key":"10009523","name":"Erlenweg","postalCode":"3315","locality":"Bätterkinden","commune":{"key":"533","name":"Bätterkinden","shortName":"Bätterkinden"},"district":{"key":"245","name":"Verwaltungskreis Emmental"},"canton":{"key":"2","code":"BE","name":"Bern / Berne"},"status":"Real"},{"key":"10096538","name":"Erlenweg","postalCode":"4460","locality":"Gelterkinden","commune":{"key":"2846","name":"Gelterkinden","shortName":"Gelterkinden"},"district":{"key":"1304","name":"Bezirk Sissach"},"canton":{"key":"13","code":"BL","name":"Basel-Landschaft"},"status":"Real"},{"key":"10155594","name":"Erli","postalCode":"4447","locality":"Känerkinden","commune":{"key":"2850","name":"Känerkinden","shortName":"Känerkinden"},"district":{"key":"1304","name":"Bezirk Sissach"},"canton":{"key":"13","code":"BL","name":"Basel-Landschaft"},"status":"Real"},{"key":"10112128","name":"Eschenweg","postalCode":"3315","locality":"Bätterkinden","commune":{"key":"533","name":"Bätterkinden","shortName":"Bätterkinden"},"district":{"key":"245","name":"Verwaltungskreis Emmental"},"canton":{"key":"2","code":"BE","name":"Bern / Berne"},"status":"Real"},{"key":"10113769","name":"Fabrikweg","postalCode":"3673","locality":"Linden","commune":{"key":"614","name":"Linden","shortName":"Linden"},"district":{"key":"246","name":"Verwaltungskreis Bern-Mittelland"},"canton":{"key":"2","code":"BE","name":"Bern / Berne"},"status":"Real"},{"key":"10025970","name":"Fabrikweg","postalCode":"4460","locality":"Gelterkinden","commune":{"key":"2846","name":"Gelterkinden","shortName":"Gelterkinden"},"district":{"key":"1304","name":"Bezirk Sissach"},"canton":{"key":"13","code":"BL","name":"Basel-Landschaft"},"status":"Real"},{"key":"10025971","name":"Farnsbergweg","postalCode":"4460","locality":"Gelterkinden","commune":{"key":"2846","name":"Gelterkinden","shortName":"Gelterkinden"},"district":{"key":"1304","name":"Bezirk Sissach"},"canton":{"key":"13","code":"BL","name":"Basel-Landschaft"},"status":"Real"},{"key":"10141125","name":"Farnsbergwegli","postalCode":"4460","locality":"Gelterkinden","commune":{"key":"2846","name":"Gelterkinden","shortName":"Gelterkinden"},"district":{"key":"1304","name":"Bezirk Sissach"},"canton":{"key":"13","code":"BL","name":"Basel-Landschaft"},"status":"Real"},{"key":"10011279","name":"Feldbergstrasse","postalCode":"6319","locality":"Allenwinden","commune":{"key":"1701","name":"Baar","shortName":"Baar"},"district":{"key":"900","name":"Kanton Zug"},"canton":{"key":"9","code":"ZG","name":"Zug"},"status":"Real"},{"key":"10154328","name":"Felli","postalCode":"4447","locality":"Känerkinden","commune":{"key":"2850","name":"Känerkinden","shortName":"Känerkinden"},"district":{"key":"1304","name":"Bezirk Sissach"},"canton":{"key":"13","code":"BL","name":"Basel-Landschaft"},"status":"Real"},{"key":"10196698","name":"Felliweg","postalCode":"4447","locality":"Känerkinden","commune":{"key":"2850","name":"Känerkinden","shortName":"Känerkinden"},"district":{"key":"1304","name":"Bezirk Sissach"},"canton":{"key":"13","code":"BL","name":"Basel-Landschaft"},"status":"Real"},{"key":"10116927","name":"Feltsche","postalCode":"3673","locality":"Linden","commune":{"key":"614","name":"Linden","shortName":"Linden"},"district":{"key":"246","name":"Verwaltungskreis Bern-Mittelland"},"canton":{"key":"2","code":"BE","name":"Bern / Berne"},"status":"Real"},{"key":"10179962","name":"Fichtenweg","postalCode":"3315","locality":"Bätterkinden","commune":{"key":"533","name":"Bätterkinden","shortName":"Bätterkinden"},"district":{"key":"245","name":"Verwaltungskreis Emmental"},"canton":{"key":"2","code":"BE","name":"Bern / Berne"},"status":"Real"},{"key":"10005948","name":"Fichtenweg","postalCode":"3673","locality":"Linden","commune":{"key":"614","name":"Linden","shortName":"Linden"},"district":{"key":"246","name":"Verwaltungskreis Bern-Mittelland"},"canton":{"key":"2","code":"BE","name":"Bern / Berne"},"status":"Real"},{"key":"10080534","name":"Finstermoos","postalCode":"3673","locality":"Linden","commune":{"key":"614","name":"Linden","shortName":"Linden"},"district":{"key":"246","name":"Verwaltungskreis Bern-Mittelland"},"canton":{"key":"2","code":"BE","name":"Bern / Berne"},"status":"Real"},{"key":"10124638","name":"Finstermoosstrasse","postalCode":"3673","locality":"Linden","commune":{"key":"614","name":"Linden","shortName":"Linden"},"district":{"key":"246","name":"Verwaltungskreis Bern-Mittelland"},"canton":{"key":"2","code":"BE","name":"Bern / Berne"},"status":"Real"},{"key":"10009524","name":"Fliederweg","postalCode":"3315","locality":"Bätterkinden","commune":{"key":"533","name":"Bätterkinden","shortName":"Bätterkinden"},"district":{"key":"245","name":"Verwaltungskreis Emmental"},"canton":{"key":"2","code":"BE","name":"Bern / Berne"},"status":"Real"},{"key":"10080535","name":"Fliederweg","postalCode":"3673","locality":"Linden","commune":{"key":"614","name":"Linden","shortName":"Linden"},"district":{"key":"246","name":"Verwaltungskreis Bern-Mittelland"},"canton":{"key":"2","code":"BE","name":"Bern / Berne"},"status":"Real"},{"key":"10156015","name":"Flue","postalCode":"4460","locality":"Gelterkinden","commune":{"key":"2846","name":"Gelterkinden","shortName":"Gelterkinden"},"district":{"key":"1304","name":"Bezirk Sissach"},"canton":{"key":"13","code":"BL","name":"Basel-Landschaft"},"status":"Real"},{"key":"10141673","name":"Flueweg","postalCode":"4460","locality":"Gelterkinden","commune":{"key":"2846","name":"Gelterkinden","shortName":"Gelterkinden"},"district":{"key":"1304","name":"Bezirk Sissach"},"canton":{"key":"13","code":"BL","name":"Basel-Landschaft"},"status":"Real"},{"key":"10009525","name":"Föhrenweg","postalCode":"3315","locality":"Bätterkinden","commune":{"key":"533","name":"Bätterkinden","shortName":"Bätterkinden"},"district":{"key":"245","name":"Verwaltungskreis Emmental"},"canton":{"key":"2","code":"BE","name":"Bern / Berne"},"status":"Real"},{"key":"10005950","name":"Föhrenweg","postalCode":"3673","locality":"Linden","commune":{"key":"614","name":"Linden","shortName":"Linden"},"district":{"key":"246","name":"Verwaltungskreis Bern-Mittelland"},"canton":{"key":"2","code":"BE","name":"Bern / Berne"},"status":"Real"},{"key":"10108769","name":"Föhrenweg","postalCode":"4460","locality":"Gelterkinden","commune":{"key":"2846","name":"Gelterkinden","shortName":"Gelterkinden"},"district":{"key":"1304","name":"Bezirk Sissach"},"canton":{"key":"13","code":"BL","name":"Basel-Landschaft"},"status":"Real"},{"key":"10110317","name":"Fölli","postalCode":"3673","locality":"Linden","commune":{"key":"614","name":"Linden","shortName":"Linden"},"district":{"key":"246","name":"Verwaltungskreis Bern-Mittelland"},"canton":{"key":"2","code":"BE","name":"Bern / Berne"},"status":"Real"},{"key":"10141434","name":"Frändleten","postalCode":"4460","locality":"Gelterkinden","commune":{"key":"2846","name":"Gelterkinden","shortName":"Gelterkinden"},"district":{"key":"1304","name":"Bezirk Sissach"},"canton":{"key":"13","code":"BL","name":"Basel-Landschaft"},"status":"Real"},{"key":"10096539","name":"Frändletenweg","postalCode":"4460","locality":"Gelterkinden","commune":{"key":"2846","name":"Gelterkinden","shortName":"Gelterkinden"},"district":{"key":"1304","name":"Bezirk Sissach"},"canton":{"key":"13","code":"BL","name":"Basel-Landschaft"},"status":"Real"},{"key":"10005949","name":"Freili","postalCode":"3673","locality":"Linden","commune":{"key":"614","name":"Linden","shortName":"Linden"},"district":{"key":"246","name":"Verwaltungskreis Bern-Mittelland"},"canton":{"key":"2","code":"BE","name":"Bern / Berne"},"status":"Real"},{"key":"10103792","name":"Furacher","postalCode":"3673","locality":"Linden","commune":{"key":"614","name":"Linden","shortName":"Linden"},"district":{"key":"246","name":"Verwaltungskreis Bern-Mittelland"},"canton":{"key":"2","code":"BE","name":"Bern / Berne"},"status":"Real"},{"key":"10156018","name":"Gämstenmatt","postalCode":"4460","locality":"Gelterkinden","commune":{"key":"2846","name":"Gelterkinden","shortName":"Gelterkinden"},"district":{"key":"1304","name":"Bezirk Sissach"},"canton":{"key":"13","code":"BL","name":"Basel-Landschaft"},"status":"Real"},{"key":"10103846","name":"Gansacherweg","postalCode":"4460","locality":"Gelterkinden","commune":{"key":"2846","name":"Gelterkinden","shortName":"Gelterkinden"},"district":{"key":"1304","name":"Bezirk Sissach"},"canton":{"key":"13","code":"BL","name":"Basel-Landschaft"},"status":"Real"},{"key":"10025973","name":"Gänsmattweg","postalCode":"4460","locality":"Gelterkinden","commune":{"key":"2846","name":"Gelterkinden","shortName":"Gelterkinden"},"district":{"key":"1304","name":"Bezirk Sissach"},"canton":{"key":"13","code":"BL","name":"Basel-Landschaft"},"status":"Real"},{"key":"10082522","name":"Gartenweg","postalCode":"3315","locality":"Bätterkinden","commune":{"key":"533","name":"Bätterkinden","shortName":"Bätterkinden"},"district":{"key":"245","name":"Verwaltungskreis Emmental"},"canton":{"key":"2","code":"BE","name":"Bern / Berne"},"status":"Real"},{"key":"10025972","name":"Gartenweg","postalCode":"4460","locality":"Gelterkinden","commune":{"key":"2846","name":"Gelterkinden","shortName":"Gelterkinden"},"district":{"key":"1304","name":"Bezirk Sissach"},"canton":{"key":"13","code":"BL","name":"Basel-Landschaft"},"status":"Real"},{"key":"10027445","name":"Gassackerstrasse","postalCode":"4447","locality":"Känerkinden","commune":{"key":"2850","name":"Känerkinden","shortName":"Känerkinden"},"district":{"key":"1304","name":"Bezirk Sissach"},"canton":{"key":"13","code":"BL","name":"Basel-Landschaft"},"status":"Real"},{"key":"10242624","name":"Geissmoss","postalCode":"3673","locality":"Linden","commune":{"key":"614","name":"Linden","shortName":"Linden"},"district":{"key":"246","name":"Verwaltungskreis Bern-Mittelland"},"canton":{"key":"2","code":"BE","name":"Bern / Berne"},"status":"Real"},{"key":"10066294","name":"Geranienweg","postalCode":"3315","locality":"Bätterkinden","commune":{"key":"533","name":"Bätterkinden","shortName":"Bätterkinden"},"district":{"key":"245","name":"Verwaltungskreis Emmental"},"canton":{"key":"2","code":"BE","name":"Bern / Berne"},"status":"Real"},{"key":"10080536","name":"Glasholz","postalCode":"3673","locality":"Linden","commune":{"key":"614","name":"Linden","shortName":"Linden"},"district":{"key":"246","name":"Verwaltungskreis Bern-Mittelland"},"canton":{"key":"2","code":"BE","name":"Bern / Berne"},"status":"Real"},{"key":"10245408","name":"Glügässi","postalCode":"3953","locality":"Inden","commune":{"key":"6109","name":"Inden","shortName":"Inden"},"district":{"key":"2306","name":"Bezirk Leuk"},"canton":{"key":"23","code":"VS","name":"Valais / Wallis"},"status":"Real"},{"key":"10104096","name":"Graben","postalCode":"3673","locality":"Linden","commune":{"key":"614","name":"Linden","shortName":"Linden"},"district":{"key":"246","name":"Verwaltungskreis Bern-Mittelland"},"canton":{"key":"2","code":"BE","name":"Bern / Berne"},"status":"Real"},{"key":"10005952","name":"Grafenbühl","postalCode":"3673","locality":"Linden","commune":{"key":"614","name":"Linden","shortName":"Linden"},"district":{"key":"246","name":"Verwaltungskreis Bern-Mittelland"},"canton":{"key":"2","code":"BE","name":"Bern / Berne"},"status":"Real"},{"key":"10009526","name":"Grafenwaldweg","postalCode":"3315","locality":"Bätterkinden","commune":{"key":"533","name":"Bätterkinden","shortName":"Bätterkinden"},"district":{"key":"245","name":"Verwaltungskreis Emmental"},"canton":{"key":"2","code":"BE","name":"Bern / Berne"},"status":"Real"},{"key":"10217418","name":"Grafewald","postalCode":"3315","locality":"Bätterkinden","commune":{"key":"533","name":"Bätterkinden","shortName":"Bätterkinden"},"district":{"key":"245","name":"Verwaltungskreis Emmental"},"canton":{"key":"2","code":"BE","name":"Bern / Berne"},"status":"Real"},{"key":"10061523","name":"Grat","postalCode":"3673","locality":"Linden","commune":{"key":"614","name":"Linden","shortName":"Linden"},"district":{"key":"246","name":"Verwaltungskreis Bern-Mittelland"},"canton":{"key":"2","code":"BE","name":"Bern / Berne"},"status":"Real"},{"key":"10124971","name":"Grauensteinweg","postalCode":"4460","locality":"Gelterkinden","commune":{"key":"2846","name":"Gelterkinden","shortName":"Gelterkinden"},"district":{"key":"1304","name":"Bezirk Sissach"},"canton":{"key":"13","code":"BL","name":"Basel-Landschaft"},"status":"Real"},{"key":"10113770","name":"Grebli","postalCode":"3673","locality":"Linden","commune":{"key":"614","name":"Linden","shortName":"Linden"},"district":{"key":"246","name":"Verwaltungskreis Bern-Mittelland"},"canton":{"key":"2","code":"BE","name":"Bern / Berne"},"status":"Real"},{"key":"10175665","name":"Gridenbühl","postalCode":"3673","locality":"Linden","commune":{"key":"614","name":"Linden","shortName":"Linden"},"district":{"key":"246","name":"Verwaltungskreis Bern-Mittelland"},"canton":{"key":"2","code":"BE","name":"Bern / Berne"},"status":"Real"},{"key":"10134588","name":"Grütmatt","postalCode":"6319","locality":"Allenwinden","commune":{"key":"1701","name":"Baar","shortName":"Baar"},"district":{"key":"900","name":"Kanton Zug"},"canton":{"key":"9","code":"ZG","name":"Zug"},"status":"Real"},{"key":"10245675","name":"Gsteistrasse","postalCode":"3953","locality":"Inden","commune":{"key":"6109","name":"Inden","shortName":"Inden"},"district":{"key":"2306","name":"Bezirk Leuk"},"canton":{"key":"23","code":"VS","name":"Valais / Wallis"},"status":"Real"},{"key":"10061679","name":"Gutsch","postalCode":"6319","locality":"Allenwinden","commune":{"key":"1701","name":"Baar","shortName":"Baar"},"district":{"key":"900","name":"Kanton Zug"},"canton":{"key":"9","code":"ZG","name":"Zug"},"status":"Real"},{"key":"10009527","name":"Habsburgstrasse","postalCode":"3315","locality":"Bätterkinden","commune":{"key":"533","name":"Bätterkinden","shortName":"Bätterkinden"},"district":{"key":"245","name":"Verwaltungskreis Emmental"},"canton":{"key":"2","code":"BE","name":"Bern / Berne"},"status":"Real"},{"key":"10191414","name":"Hagerhüsli","postalCode":"3315","locality":"Bätterkinden","commune":{"key":"533","name":"Bätterkinden","shortName":"Bätterkinden"},"district":{"key":"245","name":"Verwaltungskreis Emmental"},"canton":{"key":"2","code":"BE","name":"Bern / Berne"},"status":"Real"},{"key":"10091747","name":"Haldenweg","postalCode":"4460","locality":"Gelterkinden","commune":{"key":"2846","name":"Gelterkinden","shortName":"Gelterkinden"},"district":{"key":"1304","name":"Bezirk Sissach"},"canton":{"key":"13","code":"BL","name":"Basel-Landschaft"},"status":"Real"},{"key":"10217422","name":"Haltenacher","postalCode":"3315","locality":"Bätterkinden","commune":{"key":"533","name":"Bätterkinden","shortName":"Bätterkinden"},"district":{"key":"245","name":"Verwaltungskreis Emmental"},"canton":{"key":"2","code":"BE","name":"Bern / Berne"},"status":"Real"},{"key":"10060591","name":"Haltli","postalCode":"3673","locality":"Linden","commune":{"key":"614","name":"Linden","shortName":"Linden"},"district":{"key":"246","name":"Verwaltungskreis Bern-Mittelland"},"canton":{"key":"2","code":"BE","name":"Bern / Berne"},"status":"Real"},{"key":"10104097","name":"Hämlismatt","postalCode":"3673","locality":"Linden","commune":{"key":"614","name":"Linden","shortName":"Linden"},"district":{"key":"246","name":"Verwaltungskreis Bern-Mittelland"},"canton":{"key":"2","code":"BE","name":"Bern / Berne"},"status":"Real"},{"key":"10073084","name":"Handschinweg","postalCode":"4460","locality":"Gelterkinden","commune":{"key":"2846","name":"Gelterkinden","shortName":"Gelterkinden"},"district":{"key":"1304","name":"Bezirk Sissach"},"canton":{"key":"13","code":"BL","name":"Basel-Landschaft"},"status":"Real"},{"key":"10243757","name":"Hasengatterweg","postalCode":"4447","locality":"Känerkinden","commune":{"key":"2850","name":"Känerkinden","shortName":"Känerkinden"},"district":{"key":"1304","name":"Bezirk Sissach"},"canton":{"key":"13","code":"BL","name":"Basel-Landschaft"},"status":"Real"},{"key":"10245398","name":"Hauptstrasse","postalCode":"3953","locality":"Inden","commune":{"key":"6109","name":"Inden","shortName":"Inden"},"district":{"key":"2306","name":"Bezirk Leuk"},"canton":{"key":"23","code":"VS","name":"Valais / Wallis"},"status":"Real"},{"key":"10027446","name":"Hauptstrasse","postalCode":"4447","locality":"Känerkinden","commune":{"key":"2850","name":"Känerkinden","shortName":"Känerkinden"},"district":{"key":"1304","name":"Bezirk Sissach"},"canton":{"key":"13","code":"BL","name":"Basel-Landschaft"},"status":"Real"},{"key":"10189199","name":"Hegi","postalCode":"9315","locality":"Winden","commune":{"key":"4411","name":"Egnach","shortName":"Egnach"},"district":{"key":"2011","name":"Bezirk Arbon"},"canton":{"key":"20","code":"TG","name":"Thurgau"},"status":"Real"},{"key":"10140180","name":"Hegistrasse","postalCode":"9315","locality":"Winden","commune":{"key":"4411","name":"Egnach","shortName":"Egnach"},"district":{"key":"2011","name":"Bezirk Arbon"},"canton":{"key":"20","code":"TG","name":"Thurgau"},"status":"Real"},{"key":"10154719","name":"Heiligstöckli","postalCode":"4460","locality":"Gelterkinden","commune":{"key":"2846","name":"Gelterkinden","shortName":"Gelterkinden"},"district":{"key":"1304","name":"Bezirk Sissach"},"canton":{"key":"13","code":"BL","name":"Basel-Landschaft"},"status":"Real"},{"key":"10113771","name":"Hinterchnubel","postalCode":"3673","locality":"Linden","commune":{"key":"614","name":"Linden","shortName":"Linden"},"district":{"key":"246","name":"Verwaltungskreis Bern-Mittelland"},"canton":{"key":"2","code":"BE","name":"Bern / Berne"},"status":"Real"},{"key":"10162512","name":"Hinterdorfgasse","postalCode":"4460","locality":"Gelterkinden","commune":{"key":"2846","name":"Gelterkinden","shortName":"Gelterkinden"},"district":{"key":"1304","name":"Bezirk Sissach"},"canton":{"key":"13","code":"BL","name":"Basel-Landschaft"},"status":"Real"},{"key":"10110318","name":"Hinteregg","postalCode":"3673","locality":"Linden","commune":{"key":"614","name":"Linden","shortName":"Linden"},"district":{"key":"246","name":"Verwaltungskreis Bern-Mittelland"},"canton":{"key":"2","code":"BE","name":"Bern / Berne"},"status":"Real"},{"key":"10060592","name":"Hintgraben","postalCode":"3673","locality":"Linden","commune":{"key":"614","name":"Linden","shortName":"Linden"},"district":{"key":"246","name":"Verwaltungskreis Bern-Mittelland"},"canton":{"key":"2","code":"BE","name":"Bern / Berne"},"status":"Real"},{"key":"10118125","name":"Höcherainweg","postalCode":"4460","locality":"Gelterkinden","commune":{"key":"2846","name":"Gelterkinden","shortName":"Gelterkinden"},"district":{"key":"1304","name":"Bezirk Sissach"},"canton":{"key":"13","code":"BL","name":"Basel-Landschaft"},"status":"Real"},{"key":"10142063","name":"Hof Felli","postalCode":"4447","locality":"Känerkinden","commune":{"key":"2850","name":"Känerkinden","shortName":"Känerkinden"},"district":{"key":"1304","name":"Bezirk Sissach"},"canton":{"key":"13","code":"BL","name":"Basel-Landschaft"},"status":"Real"},{"key":"10180326","name":"Hofgartenweg","postalCode":"4460","locality":"Gelterkinden","commune":{"key":"2846","name":"Gelterkinden","shortName":"Gelterkinden"},"district":{"key":"1304","name":"Bezirk Sissach"},"canton":{"key":"13","code":"BL","name":"Basel-Landschaft"},"status":"Real"},{"key":"10175912","name":"Hofmatt","postalCode":"4460","locality":"Gelterkinden","commune":{"key":"2846","name":"Gelterkinden","shortName":"Gelterkinden"},"district":{"key":"1304","name":"Bezirk Sissach"},"canton":{"key":"13","code":"BL","name":"Basel-Landschaft"},"status":"Real"},{"key":"10025974","name":"Hofmattweg","postalCode":"4460","locality":"Gelterkinden","commune":{"key":"2846","name":"Gelterkinden","shortName":"Gelterkinden"},"district":{"key":"1304","name":"Bezirk Sissach"},"canton":{"key":"13","code":"BL","name":"Basel-Landschaft"},"status":"Real"},{"key":"10069458","name":"Hof Riedmatt","postalCode":"4447","locality":"Känerkinden","commune":{"key":"2850","name":"Känerkinden","shortName":"Känerkinden"},"district":{"key":"1304","name":"Bezirk Sissach"},"canton":{"key":"13","code":"BL","name":"Basel-Landschaft"},"status":"Real"},{"key":"10181474","name":"Hof Sonnenberg","postalCode":"4447","locality":"Känerkinden","commune":{"key":"2850","name":"Känerkinden","shortName":"Känerkinden"},"district":{"key":"1304","name":"Bezirk Sissach"},"canton":{"key":"13","code":"BL","name":"Basel-Landschaft"},"status":"Real"},{"key":"10142054","name":"Hof Stapflen","postalCode":"4447","locality":"Känerkinden","commune":{"key":"2850","name":"Känerkinden","shortName":"Känerkinden"},"district":{"key":"1304","name":"Bezirk Sissach"},"canton":{"key":"13","code":"BL","name":"Basel-Landschaft"},"status":"Real"},{"key":"10025975","name":"Höhenweg","postalCode":"4460","locality":"Gelterkinden","commune":{"key":"2846","name":"Gelterkinden","shortName":"Gelterkinden"},"district":{"key":"1304","name":"Bezirk Sissach"},"canton":{"key":"13","code":"BL","name":"Basel-Landschaft"},"status":"Real"},{"key":"10005953","name":"Hohrütti","postalCode":"3673","locality":"Linden","commune":{"key":"614","name":"Linden","shortName":"Linden"},"district":{"key":"246","name":"Verwaltungskreis Bern-Mittelland"},"canton":{"key":"2","code":"BE","name":"Bern / Berne"},"status":"Real"},{"key":"10186315","name":"Höldeliweg","postalCode":"4460","locality":"Gelterkinden","commune":{"key":"2846","name":"Gelterkinden","shortName":"Gelterkinden"},"district":{"key":"1304","name":"Bezirk Sissach"},"canton":{"key":"13","code":"BL","name":"Basel-Landschaft"},"status":"Real"},{"key":"10154726","name":"Holzweg","postalCode":"4460","locality":"Gelterkinden","commune":{"key":"2846","name":"Gelterkinden","shortName":"Gelterkinden"},"district":{"key":"1304","name":"Bezirk Sissach"},"canton":{"key":"13","code":"BL","name":"Basel-Landschaft"},"status":"Real"},{"key":"10154727","name":"Homberg","postalCode":"4460","locality":"Gelterkinden","commune":{"key":"2846","name":"Gelterkinden","shortName":"Gelterkinden"},"district":{"key":"1304","name":"Bezirk Sissach"},"canton":{"key":"13","code":"BL","name":"Basel-Landschaft"},"status":"Real"},{"key":"10141400","name":"Hombergweg","postalCode":"4460","locality":"Gelterkinden","commune":{"key":"2846","name":"Gelterkinden","shortName":"Gelterkinden"},"district":{"key":"1304","name":"Bezirk Sissach"},"canton":{"key":"13","code":"BL","name":"Basel-Landschaft"},"status":"Real"},{"key":"10141438","name":"Hoschtetwegli","postalCode":"4460","locality":"Gelterkinden","commune":{"key":"2846","name":"Gelterkinden","shortName":"Gelterkinden"},"district":{"key":"1304","name":"Bezirk Sissach"},"canton":{"key":"13","code":"BL","name":"Basel-Landschaft"},"status":"Real"},{"key":"10005954","name":"Hubel","postalCode":"3673","locality":"Linden","commune":{"key":"614","name":"Linden","shortName":"Linden"},"district":{"key":"246","name":"Verwaltungskreis Bern-Mittelland"},"canton":{"key":"2","code":"BE","name":"Bern / Berne"},"status":"Real"},{"key":"10154728","name":"Huebacherweg","postalCode":"4460","locality":"Gelterkinden","commune":{"key":"2846","name":"Gelterkinden","shortName":"Gelterkinden"},"district":{"key":"1304","name":"Bezirk Sissach"},"canton":{"key":"13","code":"BL","name":"Basel-Landschaft"},"status":"Real"},{"key":"10091748","name":"Hüslimattstrasse","postalCode":"4460","locality":"Gelterkinden","commune":{"key":"2846","name":"Gelterkinden","shortName":"Gelterkinden"},"district":{"key":"1304","name":"Bezirk Sissach"},"canton":{"key":"13","code":"BL","name":"Basel-Landschaft"},"status":"Real"},{"key":"10027113","name":"Im Baumgärtli","postalCode":"4460","locality":"Gelterkinden","commune":{"key":"2846","name":"Gelterkinden","shortName":"Gelterkinden"},"district":{"key":"1304","name":"Bezirk Sissach"},"canton":{"key":"13","code":"BL","name":"Basel-Landschaft"},"status":"Real"},{"key":"10144828","name":"Im Dorf","postalCode":"3315","locality":"Bätterkinden","commune":{"key":"533","name":"Bätterkinden","shortName":"Bätterkinden"},"district":{"key":"245","name":"Verwaltungskreis Emmental"},"canton":{"key":"2","code":"BE","name":"Bern / Berne"},"status":"Real"},{"key":"10142043","name":"Im Hau","postalCode":"4447","locality":"Känerkinden","commune":{"key":"2850","name":"Känerkinden","shortName":"Känerkinden"},"district":{"key":"1304","name":"Bezirk Sissach"},"canton":{"key":"13","code":"BL","name":"Basel-Landschaft"},"status":"Real"},{"key":"10201452","name":"Im Hinrauft","postalCode":"4447","locality":"Känerkinden","commune":{"key":"2850","name":"Känerkinden","shortName":"Känerkinden"},"district":{"key":"1304","name":"Bezirk Sissach"},"canton":{"key":"13","code":"BL","name":"Basel-Landschaft"},"status":"Real"},{"key":"10096265","name":"Im Winkel","postalCode":"4447","locality":"Känerkinden","commune":{"key":"2850","name":"Känerkinden","shortName":"Känerkinden"},"district":{"key":"1304","name":"Bezirk Sissach"},"canton":{"key":"13","code":"BL","name":"Basel-Landschaft"},"status":"Real"},{"key":"10212079","name":"Industrieweg","postalCode":"3673","locality":"Linden","commune":{"key":"614","name":"Linden","shortName":"Linden"},"district":{"key":"246","name":"Verwaltungskreis Bern-Mittelland"},"canton":{"key":"2","code":"BE","name":"Bern / Berne"},"status":"Real"},{"key":"10005955","name":"Innerer Styg","postalCode":"3673","locality":"Linden","commune":{"key":"614","name":"Linden","shortName":"Linden"},"district":{"key":"246","name":"Verwaltungskreis Bern-Mittelland"},"canton":{"key":"2","code":"BE","name":"Bern / Berne"},"status":"Real"},{"key":"10182322","name":"Innere Schachenstrasse","postalCode":"3315","locality":"Bätterkinden","commune":{"key":"533","name":"Bätterkinden","shortName":"Bätterkinden"},"district":{"key":"245","name":"Verwaltungskreis Emmental"},"canton":{"key":"2","code":"BE","name":"Bern / Berne"},"status":"Real"},{"key":"10156776","name":"Irisweg","postalCode":"3315","locality":"Bätterkinden","commune":{"key":"533","name":"Bätterkinden","shortName":"Bätterkinden"},"district":{"key":"245","name":"Verwaltungskreis Emmental"},"canton":{"key":"2","code":"BE","name":"Bern / Berne"},"status":"Real"},{"key":"10243741","name":"Irma-Gysin-Weg","postalCode":"4460","locality":"Gelterkinden","commune":{"key":"2846","name":"Gelterkinden","shortName":"Gelterkinden"},"district":{"key":"1304","name":"Bezirk Sissach"},"canton":{"key":"13","code":"BL","name":"Basel-Landschaft"},"status":"Real"},{"key":"10156022","name":"Ischlag","postalCode":"4460","locality":"Gelterkinden","commune":{"key":"2846","name":"Gelterkinden","shortName":"Gelterkinden"},"district":{"key":"1304","name":"Bezirk Sissach"},"canton":{"key":"13","code":"BL","name":"Basel-Landschaft"},"status":"Real"},{"key":"10073085","name":"Ischlagweg","postalCode":"4460","locality":"Gelterkinden","commune":{"key":"2846","name":"Gelterkinden","shortName":"Gelterkinden"},"district":{"key":"1304","name":"Bezirk Sissach"},"canton":{"key":"13","code":"BL","name":"Basel-Landschaft"},"status":"Real"},{"key":"10027447","name":"Joggismatt","postalCode":"4447","locality":"Känerkinden","commune":{"key":"2850","name":"Känerkinden","shortName":"Känerkinden"},"district":{"key":"1304","name":"Bezirk Sissach"},"canton":{"key":"13","code":"BL","name":"Basel-Landschaft"},"status":"Real"},{"key":"10112129","name":"Kanalweg","postalCode":"3315","locality":"Bätterkinden","commune":{"key":"533","name":"Bätterkinden","shortName":"Bätterkinden"},"district":{"key":"245","name":"Verwaltungskreis Emmental"},"canton":{"key":"2","code":"BE","name":"Bern / Berne"},"status":"Real"},{"key":"10258432","name":"Kanalweg","postalCode":"3953","locality":"Inden","commune":{"key":"6109","name":"Inden","shortName":"Inden"},"district":{"key":"2306","name":"Bezirk Leuk"},"canton":{"key":"23","code":"VS","name":"Valais / Wallis"},"status":"Real"},{"key":"10027114","name":"Kapellenweg","postalCode":"4460","locality":"Gelterkinden","commune":{"key":"2846","name":"Gelterkinden","shortName":"Gelterkinden"},"district":{"key":"1304","name":"Bezirk Sissach"},"canton":{"key":"13","code":"BL","name":"Basel-Landschaft"},"status":"Real"},{"key":"10009528","name":"Kastanienweg","postalCode":"3315","locality":"Bätterkinden","commune":{"key":"533","name":"Bätterkinden","shortName":"Bätterkinden"},"district":{"key":"245","name":"Verwaltungskreis Emmental"},"canton":{"key":"2","code":"BE","name":"Bern / Berne"},"status":"Real"},{"key":"10027115","name":"Keltenweg","postalCode":"4460","locality":"Gelterkinden","commune":{"key":"2846","name":"Gelterkinden","shortName":"Gelterkinden"},"district":{"key":"1304","name":"Bezirk Sissach"},"canton":{"key":"13","code":"BL","name":"Basel-Landschaft"},"status":"Real"},{"key":"10154729","name":"Kipp","postalCode":"4460","locality":"Gelterkinden","commune":{"key":"2846","name":"Gelterkinden","shortName":"Gelterkinden"},"district":{"key":"1304","name":"Bezirk Sissach"},"canton":{"key":"13","code":"BL","name":"Basel-Landschaft"},"status":"Real"},{"key":"10156023","name":"Kippweg","postalCode":"4460","locality":"Gelterkinden","commune":{"key":"2846","name":"Gelterkinden","shortName":"Gelterkinden"},"district":{"key":"1304","name":"Bezirk Sissach"},"canton":{"key":"13","code":"BL","name":"Basel-Landschaft"},"status":"Real"},{"key":"10027116","name":"Kirchrain","postalCode":"4460","locality":"Gelterkinden","commune":{"key":"2846","name":"Gelterkinden","shortName":"Gelterkinden"},"district":{"key":"1304","name":"Bezirk Sissach"},"canton":{"key":"13","code":"BL","name":"Basel-Landschaft"},"status":"Real"},{"key":"10064855","name":"Kirchweg","postalCode":"6319","locality":"Allenwinden","commune":{"key":"1701","name":"Baar","shortName":"Baar"},"district":{"key":"900","name":"Kanton Zug"},"canton":{"key":"9","code":"ZG","name":"Zug"},"status":"Real"},{"key":"10245674","name":"Kläranlagestrasse","postalCode":"3953","locality":"Inden","commune":{"key":"6109","name":"Inden","shortName":"Inden"},"district":{"key":"2306","name":"Bezirk Leuk"},"canton":{"key":"23","code":"VS","name":"Valais / Wallis"},"status":"Real"},{"key":"10059589","name":"Klösterli","postalCode":"9315","locality":"Winden","commune":{"key":"4411","name":"Egnach","shortName":"Egnach"},"district":{"key":"2011","name":"Bezirk Arbon"},"canton":{"key":"20","code":"TG","name":"Thurgau"},"status":"Real"},{"key":"10005956","name":"Knuppenweg","postalCode":"3673","locality":"Linden","commune":{"key":"614","name":"Linden","shortName":"Linden"},"district":{"key":"246","name":"Verwaltungskreis Bern-Mittelland"},"canton":{"key":"2","code":"BE","name":"Bern / Berne"},"status":"Real"},{"key":"10177338","name":"Konsumgasse","postalCode":"3315","locality":"Bätterkinden","commune":{"key":"533","name":"Bätterkinden","shortName":"Bätterkinden"},"district":{"key":"245","name":"Verwaltungskreis Emmental"},"canton":{"key":"2","code":"BE","name":"Bern / Berne"},"status":"Real"},{"key":"10005957","name":"Kreisbühl","postalCode":"3673","locality":"Linden","commune":{"key":"614","name":"Linden","shortName":"Linden"},"district":{"key":"246","name":"Verwaltungskreis Bern-Mittelland"},"canton":{"key":"2","code":"BE","name":"Bern / Berne"},"status":"Real"},{"key":"10114745","name":"Kreuzstrasse","postalCode":"9315","locality":"Winden","commune":{"key":"4411","name":"Egnach","shortName":"Egnach"},"district":{"key":"2011","name":"Bezirk Arbon"},"canton":{"key":"20","code":"TG","name":"Thurgau"},"status":"Real"},{"key":"10080537","name":"Kreuzweg","postalCode":"3673","locality":"Linden","commune":{"key":"614","name":"Linden","shortName":"Linden"},"district":{"key":"246","name":"Verwaltungskreis Bern-Mittelland"},"canton":{"key":"2","code":"BE","name":"Bern / Berne"},"status":"Real"},{"key":"10172564","name":"Kronenmattweg","postalCode":"3315","locality":"Bätterkinden","commune":{"key":"533","name":"Bätterkinden","shortName":"Bätterkinden"},"district":{"key":"245","name":"Verwaltungskreis Emmental"},"canton":{"key":"2","code":"BE","name":"Bern / Berne"},"status":"Real"},{"key":"10195084","name":"Kronenrain","postalCode":"3315","locality":"Bätterkinden","commune":{"key":"533","name":"Bätterkinden","shortName":"Bätterkinden"},"district":{"key":"245","name":"Verwaltungskreis Emmental"},"canton":{"key":"2","code":"BE","name":"Bern / Berne"},"status":"Real"},{"key":"10091749","name":"Kupftenweg","postalCode":"4460","locality":"Gelterkinden","commune":{"key":"2846","name":"Gelterkinden","shortName":"Gelterkinden"},"district":{"key":"1304","name":"Bezirk Sissach"},"canton":{"key":"13","code":"BL","name":"Basel-Landschaft"},"status":"Real"},{"key":"10243897","name":"Kürzeweg","postalCode":"4447","locality":"Känerkinden","commune":{"key":"2850","name":"Känerkinden","shortName":"Känerkinden"},"district":{"key":"1304","name":"Bezirk Sissach"},"canton":{"key":"13","code":"BL","name":"Basel-Landschaft"},"status":"Real"},{"key":"10245401","name":"Kweeweg","postalCode":"3953","locality":"Inden","commune":{"key":"6109","name":"Inden","shortName":"Inden"},"district":{"key":"2306","name":"Bezirk Leuk"},"canton":{"key":"23","code":"VS","name":"Valais / Wallis"},"status":"Real"},{"key":"10009529","name":"Kyburgstrasse","postalCode":"3315","locality":"Bätterkinden","commune":{"key":"533","name":"Bätterkinden","shortName":"Bätterkinden"},"district":{"key":"245","name":"Verwaltungskreis Emmental"},"canton":{"key":"2","code":"BE","name":"Bern / Berne"},"status":"Real"},{"key":"10073086","name":"Lachmattstrasse","postalCode":"4460","locality":"Gelterkinden","commune":{"key":"2846","name":"Gelterkinden","shortName":"Gelterkinden"},"district":{"key":"1304","name":"Bezirk Sissach"},"canton":{"key":"13","code":"BL","name":"Basel-Landschaft"},"status":"Real"},{"key":"10027895","name":"Ladreute","postalCode":"9315","locality":"Winden","commune":{"key":"4411","name":"Egnach","shortName":"Egnach"},"district":{"key":"2011","name":"Bezirk Arbon"},"canton":{"key":"20","code":"TG","name":"Thurgau"},"status":"Real"},{"key":"10082523","name":"Landshutstrasse","postalCode":"3315","locality":"Bätterkinden","commune":{"key":"533","name":"Bätterkinden","shortName":"Bätterkinden"},"district":{"key":"245","name":"Verwaltungskreis Emmental"},"canton":{"key":"2","code":"BE","name":"Bern / Berne"},"status":"Real"},{"key":"10156024","name":"Langacher","postalCode":"4460","locality":"Gelterkinden","commune":{"key":"2846","name":"Gelterkinden","shortName":"Gelterkinden"},"district":{"key":"1304","name":"Bezirk Sissach"},"canton":{"key":"13","code":"BL","name":"Basel-Landschaft"},"status":"Real"},{"key":"10108770","name":"Langacherweg","postalCode":"4460","locality":"Gelterkinden","commune":{"key":"2846","name":"Gelterkinden","shortName":"Gelterkinden"},"district":{"key":"1304","name":"Bezirk Sissach"},"canton":{"key":"13","code":"BL","name":"Basel-Landschaft"},"status":"Real"},{"key":"10027117","name":"Langmattweg","postalCode":"4460","locality":"Gelterkinden","commune":{"key":"2846","name":"Gelterkinden","shortName":"Gelterkinden"},"district":{"key":"1304","name":"Bezirk Sissach"},"canton":{"key":"13","code":"BL","name":"Basel-Landschaft"},"status":"Real"},{"key":"10066296","name":"Lärchenweg","postalCode":"3315","locality":"Bätterkinden","commune":{"key":"533","name":"Bätterkinden","shortName":"Bätterkinden"},"district":{"key":"245","name":"Verwaltungskreis Emmental"},"canton":{"key":"2","code":"BE","name":"Bern / Berne"},"status":"Real"},{"key":"10245405","name":"Larschystrasse","postalCode":"3953","locality":"Inden","commune":{"key":"6109","name":"Inden","shortName":"Inden"},"district":{"key":"2306","name":"Bezirk Leuk"},"canton":{"key":"23","code":"VS","name":"Valais / Wallis"},"status":"Real"},{"key":"10154730","name":"Lätten","postalCode":"4460","locality":"Gelterkinden","commune":{"key":"2846","name":"Gelterkinden","shortName":"Gelterkinden"},"district":{"key":"1304","name":"Bezirk Sissach"},"canton":{"key":"13","code":"BL","name":"Basel-Landschaft"},"status":"Real"},{"key":"10005958","name":"Lehmatt","postalCode":"3673","locality":"Linden","commune":{"key":"614","name":"Linden","shortName":"Linden"},"district":{"key":"246","name":"Verwaltungskreis Bern-Mittelland"},"canton":{"key":"2","code":"BE","name":"Bern / Berne"},"status":"Real"},{"key":"10180327","name":"Leierenweg","postalCode":"4460","locality":"Gelterkinden","commune":{"key":"2846","name":"Gelterkinden","shortName":"Gelterkinden"},"district":{"key":"1304","name":"Bezirk Sissach"},"canton":{"key":"13","code":"BL","name":"Basel-Landschaft"},"status":"Real"},{"key":"10141671","name":"Leimgrubenweg","postalCode":"4460","locality":"Gelterkinden","commune":{"key":"2846","name":"Gelterkinden","shortName":"Gelterkinden"},"district":{"key":"1304","name":"Bezirk Sissach"},"canton":{"key":"13","code":"BL","name":"Basel-Landschaft"},"status":"Real"},{"key":"10028186","name":"Lengwil","postalCode":"9315","locality":"Winden","commune":{"key":"4411","name":"Egnach","shortName":"Egnach"},"district":{"key":"2011","name":"Bezirk Arbon"},"canton":{"key":"20","code":"TG","name":"Thurgau"},"status":"Real"},{"key":"10009530","name":"Lilienweg","postalCode":"3315","locality":"Bätterkinden","commune":{"key":"533","name":"Bätterkinden","shortName":"Bätterkinden"},"district":{"key":"245","name":"Verwaltungskreis Emmental"},"canton":{"key":"2","code":"BE","name":"Bern / Berne"},"status":"Real"},{"key":"10139452","name":"Lindenweg","postalCode":"3315","locality":"Bätterkinden","commune":{"key":"533","name":"Bätterkinden","shortName":"Bätterkinden"},"district":{"key":"245","name":"Verwaltungskreis Emmental"},"canton":{"key":"2","code":"BE","name":"Bern / Berne"},"status":"Real"},{"key":"10005959","name":"Loch","postalCode":"3673","locality":"Linden","commune":{"key":"614","name":"Linden","shortName":"Linden"},"district":{"key":"246","name":"Verwaltungskreis Bern-Mittelland"},"canton":{"key":"2","code":"BE","name":"Bern / Berne"},"status":"Real"},{"key":"10005960","name":"Loh","postalCode":"3673","locality":"Linden","commune":{"key":"614","name":"Linden","shortName":"Linden"},"district":{"key":"246","name":"Verwaltungskreis Bern-Mittelland"},"canton":{"key":"2","code":"BE","name":"Bern / Berne"},"status":"Real"},{"key":"10141433","name":"Löhre","postalCode":"4460","locality":"Gelterkinden","commune":{"key":"2846","name":"Gelterkinden","shortName":"Gelterkinden"},"district":{"key":"1304","name":"Bezirk Sissach"},"canton":{"key":"13","code":"BL","name":"Basel-Landschaft"},"status":"Real"},{"key":"10069457","name":"Löhrweg","postalCode":"4447","locality":"Känerkinden","commune":{"key":"2850","name":"Känerkinden","shortName":"Känerkinden"},"district":{"key":"1304","name":"Bezirk Sissach"},"canton":{"key":"13","code":"BL","name":"Basel-Landschaft"},"status":"Real"},{"key":"10091750","name":"Lörenweg","postalCode":"4460","locality":"Gelterkinden","commune":{"key":"2846","name":"Gelterkinden","shortName":"Gelterkinden"},"district":{"key":"1304","name":"Bezirk Sissach"},"canton":{"key":"13","code":"BL","name":"Basel-Landschaft"},"status":"Real"},{"key":"10179241","name":"Luftmatt","postalCode":"4447","locality":"Känerkinden","commune":{"key":"2850","name":"Känerkinden","shortName":"Känerkinden"},"district":{"key":"1304","name":"Bezirk Sissach"},"canton":{"key":"13","code":"BL","name":"Basel-Landschaft"},"status":"Real"},{"key":"10080538","name":"Lugischlatt","postalCode":"3673","locality":"Linden","commune":{"key":"614","name":"Linden","shortName":"Linden"},"district":{"key":"246","name":"Verwaltungskreis Bern-Mittelland"},"canton":{"key":"2","code":"BE","name":"Bern / Berne"},"status":"Real"},{"key":"10141452","name":"Maloyawegli","postalCode":"4460","locality":"Gelterkinden","commune":{"key":"2846","name":"Gelterkinden","shortName":"Gelterkinden"},"district":{"key":"1304","name":"Bezirk Sissach"},"canton":{"key":"13","code":"BL","name":"Basel-Landschaft"},"status":"Real"},{"key":"10053838","name":"Marchmatten","postalCode":"4460","locality":"Gelterkinden","commune":{"key":"2846","name":"Gelterkinden","shortName":"Gelterkinden"},"district":{"key":"1304","name":"Bezirk Sissach"},"canton":{"key":"13","code":"BL","name":"Basel-Landschaft"},"status":"Real"},{"key":"10027118","name":"Marenweg","postalCode":"4460","locality":"Gelterkinden","commune":{"key":"2846","name":"Gelterkinden","shortName":"Gelterkinden"},"district":{"key":"1304","name":"Bezirk Sissach"},"canton":{"key":"13","code":"BL","name":"Basel-Landschaft"},"status":"Real"},{"key":"10009531","name":"Margritenweg","postalCode":"3315","locality":"Bätterkinden","commune":{"key":"533","name":"Bätterkinden","shortName":"Bätterkinden"},"district":{"key":"245","name":"Verwaltungskreis Emmental"},"canton":{"key":"2","code":"BE","name":"Bern / Berne"},"status":"Real"},{"key":"10103847","name":"Marktgasse","postalCode":"4460","locality":"Gelterkinden","commune":{"key":"2846","name":"Gelterkinden","shortName":"Gelterkinden"},"district":{"key":"1304","name":"Bezirk Sissach"},"canton":{"key":"13","code":"BL","name":"Basel-Landschaft"},"status":"Real"},{"key":"10175917","name":"Mattenweg","postalCode":"4447","locality":"Känerkinden","commune":{"key":"2850","name":"Känerkinden","shortName":"Känerkinden"},"district":{"key":"1304","name":"Bezirk Sissach"},"canton":{"key":"13","code":"BL","name":"Basel-Landschaft"},"status":"Real"},{"key":"10027119","name":"Mattenweg","postalCode":"4460","locality":"Gelterkinden","commune":{"key":"2846","name":"Gelterkinden","shortName":"Gelterkinden"},"district":{"key":"1304","name":"Bezirk Sissach"},"canton":{"key":"13","code":"BL","name":"Basel-Landschaft"},"status":"Real"},{"key":"10141399","name":"Mattenwegli","postalCode":"4460","locality":"Gelterkinden","commune":{"key":"2846","name":"Gelterkinden","shortName":"Gelterkinden"},"district":{"key":"1304","name":"Bezirk Sissach"},"canton":{"key":"13","code":"BL","name":"Basel-Landschaft"},"status":"Real"},{"key":"10141443","name":"Mättmatt","postalCode":"4460","locality":"Gelterkinden","commune":{"key":"2846","name":"Gelterkinden","shortName":"Gelterkinden"},"district":{"key":"1304","name":"Bezirk Sissach"},"canton":{"key":"13","code":"BL","name":"Basel-Landschaft"},"status":"Real"},{"key":"10073684","name":"Meistershüsli","postalCode":"9315","locality":"Winden","commune":{"key":"4411","name":"Egnach","shortName":"Egnach"},"district":{"key":"2011","name":"Bezirk Arbon"},"canton":{"key":"20","code":"TG","name":"Thurgau"},"status":"Real"},{"key":"10005961","name":"Mettlen","postalCode":"3673","locality":"Linden","commune":{"key":"614","name":"Linden","shortName":"Linden"},"district":{"key":"246","name":"Verwaltungskreis Bern-Mittelland"},"canton":{"key":"2","code":"BE","name":"Bern / Berne"},"status":"Real"},{"key":"10245409","name":"Miljütstrasse","postalCode":"3953","locality":"Inden","commune":{"key":"6109","name":"Inden","shortName":"Inden"},"district":{"key":"2306","name":"Bezirk Leuk"},"canton":{"key":"23","code":"VS","name":"Valais / Wallis"},"status":"Real"},{"key":"10060593","name":"Moos","postalCode":"3673","locality":"Linden","commune":{"key":"614","name":"Linden","shortName":"Linden"},"district":{"key":"246","name":"Verwaltungskreis Bern-Mittelland"},"canton":{"key":"2","code":"BE","name":"Bern / Berne"},"status":"Real"},{"key":"10005962","name":"Moosbühlweg","postalCode":"3673","locality":"Linden","commune":{"key":"614","name":"Linden","shortName":"Linden"},"district":{"key":"246","name":"Verwaltungskreis Bern-Mittelland"},"canton":{"key":"2","code":"BE","name":"Bern / Berne"},"status":"Real"},{"key":"10175913","name":"Moosweg","postalCode":"4460","locality":"Gelterkinden","commune":{"key":"2846","name":"Gelterkinden","shortName":"Gelterkinden"},"district":{"key":"1304","name":"Bezirk Sissach"},"canton":{"key":"13","code":"BL","name":"Basel-Landschaft"},"status":"Real"},{"key":"10104098","name":"Möslistutz","postalCode":"3673","locality":"Linden","commune":{"key":"614","name":"Linden","shortName":"Linden"},"district":{"key":"246","name":"Verwaltungskreis Bern-Mittelland"},"canton":{"key":"2","code":"BE","name":"Bern / Berne"},"status":"Real"},{"key":"10128984","name":"Mösliweg","postalCode":"3673","locality":"Linden","commune":{"key":"614","name":"Linden","shortName":"Linden"},"district":{"key":"246","name":"Verwaltungskreis Bern-Mittelland"},"canton":{"key":"2","code":"BE","name":"Bern / Berne"},"status":"Real"},{"key":"10005963","name":"Mühle","postalCode":"3673","locality":"Linden","commune":{"key":"614","name":"Linden","shortName":"Linden"},"district":{"key":"246","name":"Verwaltungskreis Bern-Mittelland"},"canton":{"key":"2","code":"BE","name":"Bern / Berne"},"status":"Real"},{"key":"10009532","name":"Mühlegasse","postalCode":"3315","locality":"Bätterkinden","commune":{"key":"533","name":"Bätterkinden","shortName":"Bätterkinden"},"district":{"key":"245","name":"Verwaltungskreis Emmental"},"canton":{"key":"2","code":"BE","name":"Bern / Berne"},"status":"Real"},{"key":"10092017","name":"Mühlegasse","postalCode":"4460","locality":"Gelterkinden","commune":{"key":"2846","name":"Gelterkinden","shortName":"Gelterkinden"},"district":{"key":"1304","name":"Bezirk Sissach"},"canton":{"key":"13","code":"BL","name":"Basel-Landschaft"},"status":"Real"},{"key":"10073087","name":"Mühlstett","postalCode":"4460","locality":"Gelterkinden","commune":{"key":"2846","name":"Gelterkinden","shortName":"Gelterkinden"},"district":{"key":"1304","name":"Bezirk Sissach"},"canton":{"key":"13","code":"BL","name":"Basel-Landschaft"},"status":"Real"},{"key":"10141672","name":"Mületen","postalCode":"4460","locality":"Gelterkinden","commune":{"key":"2846","name":"Gelterkinden","shortName":"Gelterkinden"},"district":{"key":"1304","name":"Bezirk Sissach"},"canton":{"key":"13","code":"BL","name":"Basel-Landschaft"},"status":"Real"},{"key":"10217429","name":"Mülisberg","postalCode":"3315","locality":"Bätterkinden","commune":{"key":"533","name":"Bätterkinden","shortName":"Bätterkinden"},"district":{"key":"245","name":"Verwaltungskreis Emmental"},"canton":{"key":"2","code":"BE","name":"Bern / Berne"},"status":"Real"},{"key":"10217985","name":"Müncheweid","postalCode":"3673","locality":"Linden","commune":{"key":"614","name":"Linden","shortName":"Linden"},"district":{"key":"246","name":"Verwaltungskreis Bern-Mittelland"},"canton":{"key":"2","code":"BE","name":"Bern / Berne"},"status":"Real"},{"key":"10094762","name":"Muserhof","postalCode":"6319","locality":"Allenwinden","commune":{"key":"1701","name":"Baar","shortName":"Baar"},"district":{"key":"900","name":"Kanton Zug"},"canton":{"key":"9","code":"ZG","name":"Zug"},"status":"Real"},{"key":"10082524","name":"Narzissenweg","postalCode":"3315","locality":"Bätterkinden","commune":{"key":"533","name":"Bätterkinden","shortName":"Bätterkinden"},"district":{"key":"245","name":"Verwaltungskreis Emmental"},"canton":{"key":"2","code":"BE","name":"Bern / Berne"},"status":"Real"},{"key":"10009533","name":"Nelkenweg","postalCode":"3315","locality":"Bätterkinden","commune":{"key":"533","name":"Bätterkinden","shortName":"Bätterkinden"},"district":{"key":"245","name":"Verwaltungskreis Emmental"},"canton":{"key":"2","code":"BE","name":"Bern / Berne"},"status":"Real"},{"key":"10027448","name":"Neuackerweg","postalCode":"4447","locality":"Känerkinden","commune":{"key":"2850","name":"Känerkinden","shortName":"Känerkinden"},"district":{"key":"1304","name":"Bezirk Sissach"},"canton":{"key":"13","code":"BL","name":"Basel-Landschaft"},"status":"Real"},{"key":"10154731","name":"Neuhof","postalCode":"4460","locality":"Gelterkinden","commune":{"key":"2846","name":"Gelterkinden","shortName":"Gelterkinden"},"district":{"key":"1304","name":"Bezirk Sissach"},"canton":{"key":"13","code":"BL","name":"Basel-Landschaft"},"status":"Real"},{"key":"10182972","name":"Neuhof","postalCode":"6319","locality":"Allenwinden","commune":{"key":"1701","name":"Baar","shortName":"Baar"},"district":{"key":"900","name":"Kanton Zug"},"canton":{"key":"9","code":"ZG","name":"Zug"},"status":"Real"},{"key":"10240887","name":"Neuhof Allenwinden","postalCode":"6319","locality":"Allenwinden","commune":{"key":"1701","name":"Baar","shortName":"Baar"},"district":{"key":"900","name":"Kanton Zug"},"canton":{"key":"9","code":"ZG","name":"Zug"},"status":"Real"},{"key":"10105330","name":"Neuhus","postalCode":"6319","locality":"Allenwinden","commune":{"key":"1701","name":"Baar","shortName":"Baar"},"district":{"key":"900","name":"Kanton Zug"},"canton":{"key":"9","code":"ZG","name":"Zug"},"status":"Real"},{"key":"10189823","name":"Neumatt","postalCode":"3315","locality":"Bätterkinden","commune":{"key":"533","name":"Bätterkinden","shortName":"Bätterkinden"},"district":{"key":"245","name":"Verwaltungskreis Emmental"},"canton":{"key":"2","code":"BE","name":"Bern / Berne"},"status":"Real"},{"key":"10215090","name":"Neumattweg","postalCode":"4447","locality":"Känerkinden","commune":{"key":"2850","name":"Känerkinden","shortName":"Känerkinden"},"district":{"key":"1304","name":"Bezirk Sissach"},"canton":{"key":"13","code":"BL","name":"Basel-Landschaft"},"status":"Real"},{"key":"10143267","name":"Neu Rössli","postalCode":"6319","locality":"Allenwinden","commune":{"key":"1701","name":"Baar","shortName":"Baar"},"district":{"key":"900","name":"Kanton Zug"},"canton":{"key":"9","code":"ZG","name":"Zug"},"status":"Real"},{"key":"10124972","name":"Neuweg","postalCode":"4460","locality":"Gelterkinden","commune":{"key":"2846","name":"Gelterkinden","shortName":"Gelterkinden"},"district":{"key":"1304","name":"Bezirk Sissach"},"canton":{"key":"13","code":"BL","name":"Basel-Landschaft"},"status":"Real"},{"key":"10245397","name":"Oberdorfstrasse","postalCode":"3953","locality":"Inden","commune":{"key":"6109","name":"Inden","shortName":"Inden"},"district":{"key":"2306","name":"Bezirk Leuk"},"canton":{"key":"23","code":"VS","name":"Valais / Wallis"},"status":"Real"},{"key":"10196330","name":"Oberer Chürziweg","postalCode":"4460","locality":"Gelterkinden","commune":{"key":"2846","name":"Gelterkinden","shortName":"Gelterkinden"},"district":{"key":"1304","name":"Bezirk Sissach"},"canton":{"key":"13","code":"BL","name":"Basel-Landschaft"},"status":"Real"},{"key":"10080539","name":"Obereriz","postalCode":"3673","locality":"Linden","commune":{"key":"614","name":"Linden","shortName":"Linden"},"district":{"key":"246","name":"Verwaltungskreis Bern-Mittelland"},"canton":{"key":"2","code":"BE","name":"Bern / Berne"},"status":"Real"},{"key":"10011280","name":"Obergrüt","postalCode":"6319","locality":"Allenwinden","commune":{"key":"1701","name":"Baar","shortName":"Baar"},"district":{"key":"900","name":"Kanton Zug"},"canton":{"key":"9","code":"ZG","name":"Zug"},"status":"Real"},{"key":"10156019","name":"Oberi Allersegg","postalCode":"4460","locality":"Gelterkinden","commune":{"key":"2846","name":"Gelterkinden","shortName":"Gelterkinden"},"district":{"key":"1304","name":"Bezirk Sissach"},"canton":{"key":"13","code":"BL","name":"Basel-Landschaft"},"status":"Real"},{"key":"10154723","name":"Oberi Röten","postalCode":"4460","locality":"Gelterkinden","commune":{"key":"2846","name":"Gelterkinden","shortName":"Gelterkinden"},"district":{"key":"1304","name":"Bezirk Sissach"},"canton":{"key":"13","code":"BL","name":"Basel-Landschaft"},"status":"Real"},{"key":"10064860","name":"Oberstock","postalCode":"6319","locality":"Allenwinden","commune":{"key":"1701","name":"Baar","shortName":"Baar"},"district":{"key":"900","name":"Kanton Zug"},"canton":{"key":"9","code":"ZG","name":"Zug"},"status":"Real"},{"key":"10121577","name":"Obertalacher","postalCode":"6319","locality":"Allenwinden","commune":{"key":"1701","name":"Baar","shortName":"Baar"},"district":{"key":"900","name":"Kanton Zug"},"canton":{"key":"9","code":"ZG","name":"Zug"},"status":"Real"},{"key":"10027121","name":"Ochsengasse","postalCode":"4460","locality":"Gelterkinden","commune":{"key":"2846","name":"Gelterkinden","shortName":"Gelterkinden"},"district":{"key":"1304","name":"Bezirk Sissach"},"canton":{"key":"13","code":"BL","name":"Basel-Landschaft"},"status":"Real"},{"key":"10124084","name":"Ormalingerstrasse","postalCode":"4460","locality":"Gelterkinden","commune":{"key":"2846","name":"Gelterkinden","shortName":"Gelterkinden"},"district":{"key":"1304","name":"Bezirk Sissach"},"canton":{"key":"13","code":"BL","name":"Basel-Landschaft"},"status":"Real"},{"key":"10005965","name":"Otterbach","postalCode":"3673","locality":"Linden","commune":{"key":"614","name":"Linden","shortName":"Linden"},"district":{"key":"246","name":"Verwaltungskreis Bern-Mittelland"},"canton":{"key":"2","code":"BE","name":"Bern / Berne"},"status":"Real"},{"key":"10060594","name":"Otterbachstrasse","postalCode":"3673","locality":"Linden","commune":{"key":"614","name":"Linden","shortName":"Linden"},"district":{"key":"246","name":"Verwaltungskreis Bern-Mittelland"},"canton":{"key":"2","code":"BE","name":"Bern / Berne"},"status":"Real"},{"key":"10092018","name":"Paradiesliweg","postalCode":"4460","locality":"Gelterkinden","commune":{"key":"2846","name":"Gelterkinden","shortName":"Gelterkinden"},"district":{"key":"1304","name":"Bezirk Sissach"},"canton":{"key":"13","code":"BL","name":"Basel-Landschaft"},"status":"Real"},{"key":"10027122","name":"Poststrasse","postalCode":"4460","locality":"Gelterkinden","commune":{"key":"2846","name":"Gelterkinden","shortName":"Gelterkinden"},"district":{"key":"1304","name":"Bezirk Sissach"},"canton":{"key":"13","code":"BL","name":"Basel-Landschaft"},"status":"Real"},{"key":"10142042","name":"Quellenweg","postalCode":"4447","locality":"Känerkinden","commune":{"key":"2850","name":"Känerkinden","shortName":"Känerkinden"},"district":{"key":"1304","name":"Bezirk Sissach"},"canton":{"key":"13","code":"BL","name":"Basel-Landschaft"},"status":"Real"},{"key":"10072554","name":"Raach","postalCode":"9315","locality":"Winden","commune":{"key":"4411","name":"Egnach","shortName":"Egnach"},"district":{"key":"2011","name":"Bezirk Arbon"},"canton":{"key":"20","code":"TG","name":"Thurgau"},"status":"Real"},{"key":"10028187","name":"Raach","postalCode":"9315","locality":"Winden","commune":{"key":"4411","name":"Egnach","shortName":"Egnach"},"district":{"key":"2011","name":"Bezirk Arbon"},"canton":{"key":"20","code":"TG","name":"Thurgau"},"status":"Real"},{"key":"10156025","name":"Rainen","postalCode":"4460","locality":"Gelterkinden","commune":{"key":"2846","name":"Gelterkinden","shortName":"Gelterkinden"},"district":{"key":"1304","name":"Bezirk Sissach"},"canton":{"key":"13","code":"BL","name":"Basel-Landschaft"},"status":"Real"},{"key":"10027123","name":"Rainenweg","postalCode":"4460","locality":"Gelterkinden","commune":{"key":"2846","name":"Gelterkinden","shortName":"Gelterkinden"},"district":{"key":"1304","name":"Bezirk Sissach"},"canton":{"key":"13","code":"BL","name":"Basel-Landschaft"},"status":"Real"},{"key":"10060595","name":"Rämis","postalCode":"3673","locality":"Linden","commune":{"key":"614","name":"Linden","shortName":"Linden"},"district":{"key":"246","name":"Verwaltungskreis Bern-Mittelland"},"canton":{"key":"2","code":"BE","name":"Bern / Berne"},"status":"Real"},{"key":"10110319","name":"Räss","postalCode":"3673","locality":"Linden","commune":{"key":"614","name":"Linden","shortName":"Linden"},"district":{"key":"246","name":"Verwaltungskreis Bern-Mittelland"},"canton":{"key":"2","code":"BE","name":"Bern / Berne"},"status":"Real"},{"key":"10027124","name":"Rauracherweg","postalCode":"4460","locality":"Gelterkinden","commune":{"key":"2846","name":"Gelterkinden","shortName":"Gelterkinden"},"district":{"key":"1304","name":"Bezirk Sissach"},"canton":{"key":"13","code":"BL","name":"Basel-Landschaft"},"status":"Real"},{"key":"10180328","name":"Rebgasse","postalCode":"4460","locality":"Gelterkinden","commune":{"key":"2846","name":"Gelterkinden","shortName":"Gelterkinden"},"district":{"key":"1304","name":"Bezirk Sissach"},"canton":{"key":"13","code":"BL","name":"Basel-Landschaft"},"status":"Real"},{"key":"10141447","name":"Rebwegli","postalCode":"4460","locality":"Gelterkinden","commune":{"key":"2846","name":"Gelterkinden","shortName":"Gelterkinden"},"district":{"key":"1304","name":"Bezirk Sissach"},"canton":{"key":"13","code":"BL","name":"Basel-Landschaft"},"status":"Real"},{"key":"10113772","name":"Reckiwil","postalCode":"3673","locality":"Linden","commune":{"key":"614","name":"Linden","shortName":"Linden"},"district":{"key":"246","name":"Verwaltungskreis Bern-Mittelland"},"canton":{"key":"2","code":"BE","name":"Bern / Berne"},"status":"Real"},{"key":"10156026","name":"Ribistrasse","postalCode":"4460","locality":"Gelterkinden","commune":{"key":"2846","name":"Gelterkinden","shortName":"Gelterkinden"},"district":{"key":"1304","name":"Bezirk Sissach"},"canton":{"key":"13","code":"BL","name":"Basel-Landschaft"},"status":"Real"},{"key":"10158232","name":"Ribistrasse","postalCode":"4460","locality":"Gelterkinden","commune":{"key":"2846","name":"Gelterkinden","shortName":"Gelterkinden"},"district":{"key":"1304","name":"Bezirk Sissach"},"canton":{"key":"13","code":"BL","name":"Basel-Landschaft"},"status":"Real"},{"key":"10073088","name":"Rickenbacherstrasse","postalCode":"4460","locality":"Gelterkinden","commune":{"key":"2846","name":"Gelterkinden","shortName":"Gelterkinden"},"district":{"key":"1304","name":"Bezirk Sissach"},"canton":{"key":"13","code":"BL","name":"Basel-Landschaft"},"status":"Real"},{"key":"10005966","name":"Ried","postalCode":"3673","locality":"Linden","commune":{"key":"614","name":"Linden","shortName":"Linden"},"district":{"key":"246","name":"Verwaltungskreis Bern-Mittelland"},"canton":{"key":"2","code":"BE","name":"Bern / Berne"},"status":"Real"},{"key":"10118713","name":"Riedmatt","postalCode":"4447","locality":"Känerkinden","commune":{"key":"2850","name":"Känerkinden","shortName":"Känerkinden"},"district":{"key":"1304","name":"Bezirk Sissach"},"canton":{"key":"13","code":"BL","name":"Basel-Landschaft"},"status":"Real"},{"key":"10061687","name":"Riedmatt","postalCode":"6319","locality":"Allenwinden","commune":{"key":"1701","name":"Baar","shortName":"Baar"},"district":{"key":"900","name":"Kanton Zug"},"canton":{"key":"9","code":"ZG","name":"Zug"},"status":"Real"},{"key":"10114817","name":"Riethüsli","postalCode":"6319","locality":"Allenwinden","commune":{"key":"1701","name":"Baar","shortName":"Baar"},"district":{"key":"900","name":"Kanton Zug"},"canton":{"key":"9","code":"ZG","name":"Zug"},"status":"Real"},{"key":"10027449","name":"Ringgackerstrasse","postalCode":"4447","locality":"Känerkinden","commune":{"key":"2850","name":"Känerkinden","shortName":"Känerkinden"},"district":{"key":"1304","name":"Bezirk Sissach"},"canton":{"key":"13","code":"BL","name":"Basel-Landschaft"},"status":"Real"},{"key":"10080540","name":"Ringgis","postalCode":"3673","locality":"Linden","commune":{"key":"614","name":"Linden","shortName":"Linden"},"district":{"key":"246","name":"Verwaltungskreis Bern-Mittelland"},"canton":{"key":"2","code":"BE","name":"Bern / Berne"},"status":"Real"},{"key":"10118335","name":"Ringweg","postalCode":"4460","locality":"Gelterkinden","commune":{"key":"2846","name":"Gelterkinden","shortName":"Gelterkinden"},"district":{"key":"1304","name":"Bezirk Sissach"},"canton":{"key":"13","code":"BL","name":"Basel-Landschaft"},"status":"Real"},{"key":"10217433","name":"Rodig","postalCode":"3315","locality":"Bätterkinden","commune":{"key":"533","name":"Bätterkinden","shortName":"Bätterkinden"},"district":{"key":"245","name":"Verwaltungskreis Emmental"},"canton":{"key":"2","code":"BE","name":"Bern / Berne"},"status":"Real"},{"key":"10200595","name":"Roggwilerstrasse","postalCode":"9315","locality":"Winden","commune":{"key":"4411","name":"Egnach","shortName":"Egnach"},"district":{"key":"2011","name":"Bezirk Arbon"},"canton":{"key":"20","code":"TG","name":"Thurgau"},"status":"Real"},{"key":"10027125","name":"Rohrbachweg","postalCode":"4460","locality":"Gelterkinden","commune":{"key":"2846","name":"Gelterkinden","shortName":"Gelterkinden"},"district":{"key":"1304","name":"Bezirk Sissach"},"canton":{"key":"13","code":"BL","name":"Basel-Landschaft"},"status":"Real"},{"key":"10092019","name":"Römerweg","postalCode":"4460","locality":"Gelterkinden","commune":{"key":"2846","name":"Gelterkinden","shortName":"Gelterkinden"},"district":{"key":"1304","name":"Bezirk Sissach"},"canton":{"key":"13","code":"BL","name":"Basel-Landschaft"},"status":"Real"},{"key":"10027126","name":"Roseneggweg","postalCode":"4460","locality":"Gelterkinden","commune":{"key":"2846","name":"Gelterkinden","shortName":"Gelterkinden"},"district":{"key":"1304","name":"Bezirk Sissach"},"canton":{"key":"13","code":"BL","name":"Basel-Landschaft"},"status":"Real"},{"key":"10028188","name":"Rosengarten","postalCode":"9315","locality":"Winden","commune":{"key":"4411","name":"Egnach","shortName":"Egnach"},"district":{"key":"2011","name":"Bezirk Arbon"},"canton":{"key":"20","code":"TG","name":"Thurgau"},"status":"Real"},{"key":"10094786","name":"Rosenhof","postalCode":"6319","locality":"Allenwinden","commune":{"key":"1701","name":"Baar","shortName":"Baar"},"district":{"key":"900","name":"Kanton Zug"},"canton":{"key":"9","code":"ZG","name":"Zug"},"status":"Real"},{"key":"10066297","name":"Rosenweg","postalCode":"3315","locality":"Bätterkinden","commune":{"key":"533","name":"Bätterkinden","shortName":"Bätterkinden"},"district":{"key":"245","name":"Verwaltungskreis Emmental"},"canton":{"key":"2","code":"BE","name":"Bern / Berne"},"status":"Real"},{"key":"10005967","name":"Rosenweg","postalCode":"3673","locality":"Linden","commune":{"key":"614","name":"Linden","shortName":"Linden"},"district":{"key":"246","name":"Verwaltungskreis Bern-Mittelland"},"canton":{"key":"2","code":"BE","name":"Bern / Berne"},"status":"Real"},{"key":"10108771","name":"Rosenweg","postalCode":"4460","locality":"Gelterkinden","commune":{"key":"2846","name":"Gelterkinden","shortName":"Gelterkinden"},"district":{"key":"1304","name":"Bezirk Sissach"},"canton":{"key":"13","code":"BL","name":"Basel-Landschaft"},"status":"Real"},{"key":"10027127","name":"Rössligasse","postalCode":"4460","locality":"Gelterkinden","commune":{"key":"2846","name":"Gelterkinden","shortName":"Gelterkinden"},"district":{"key":"1304","name":"Bezirk Sissach"},"canton":{"key":"13","code":"BL","name":"Basel-Landschaft"},"status":"Real"},{"key":"10141453","name":"Rössliweg","postalCode":"4460","locality":"Gelterkinden","commune":{"key":"2846","name":"Gelterkinden","shortName":"Gelterkinden"},"district":{"key":"1304","name":"Bezirk Sissach"},"canton":{"key":"13","code":"BL","name":"Basel-Landschaft"},"status":"Real"},{"key":"10005968","name":"Röthenbachstrasse","postalCode":"3673","locality":"Linden","commune":{"key":"614","name":"Linden","shortName":"Linden"},"district":{"key":"246","name":"Verwaltungskreis Bern-Mittelland"},"canton":{"key":"2","code":"BE","name":"Bern / Berne"},"status":"Real"},{"key":"10103848","name":"Röthenweg","postalCode":"4460","locality":"Gelterkinden","commune":{"key":"2846","name":"Gelterkinden","shortName":"Gelterkinden"},"district":{"key":"1304","name":"Bezirk Sissach"},"canton":{"key":"13","code":"BL","name":"Basel-Landschaft"},"status":"Real"},{"key":"10154724","name":"Rotsbühl","postalCode":"4460","locality":"Gelterkinden","commune":{"key":"2846","name":"Gelterkinden","shortName":"Gelterkinden"},"district":{"key":"1304","name":"Bezirk Sissach"},"canton":{"key":"13","code":"BL","name":"Basel-Landschaft"},"status":"Real"},{"key":"10208002","name":"Rumelingstrasse","postalCode":"3953","locality":"Inden","commune":{"key":"6109","name":"Inden","shortName":"Inden"},"district":{"key":"2306","name":"Bezirk Leuk"},"canton":{"key":"23","code":"VS","name":"Valais / Wallis"},"status":"Real"},{"key":"10245399","name":"Rumelingstrasse","postalCode":"3953","locality":"Inden","commune":{"key":"6109","name":"Inden","shortName":"Inden"},"district":{"key":"2306","name":"Bezirk Leuk"},"canton":{"key":"23","code":"VS","name":"Valais / Wallis"},"status":"Real"},{"key":"10092020","name":"Rünenbergerstrasse","postalCode":"4460","locality":"Gelterkinden","commune":{"key":"2846","name":"Gelterkinden","shortName":"Gelterkinden"},"district":{"key":"1304","name":"Bezirk Sissach"},"canton":{"key":"13","code":"BL","name":"Basel-Landschaft"},"status":"Real"},{"key":"10245407","name":"Russengrabenstrasse","postalCode":"3953","locality":"Inden","commune":{"key":"6109","name":"Inden","shortName":"Inden"},"district":{"key":"2306","name":"Bezirk Leuk"},"canton":{"key":"23","code":"VS","name":"Valais / Wallis"},"status":"Real"},{"key":"10027128","name":"Rütschacherweg","postalCode":"4460","locality":"Gelterkinden","commune":{"key":"2846","name":"Gelterkinden","shortName":"Gelterkinden"},"district":{"key":"1304","name":"Bezirk Sissach"},"canton":{"key":"13","code":"BL","name":"Basel-Landschaft"},"status":"Real"},{"key":"10027129","name":"Rüttebergweg","postalCode":"4460","locality":"Gelterkinden","commune":{"key":"2846","name":"Gelterkinden","shortName":"Gelterkinden"},"district":{"key":"1304","name":"Bezirk Sissach"},"canton":{"key":"13","code":"BL","name":"Basel-Landschaft"},"status":"Real"},{"key":"10154329","name":"Sackacher","postalCode":"4447","locality":"Känerkinden","commune":{"key":"2850","name":"Känerkinden","shortName":"Känerkinden"},"district":{"key":"1304","name":"Bezirk Sissach"},"canton":{"key":"13","code":"BL","name":"Basel-Landschaft"},"status":"Real"},{"key":"10047572","name":"Sägegasse","postalCode":"4460","locality":"Gelterkinden","commune":{"key":"2846","name":"Gelterkinden","shortName":"Gelterkinden"},"district":{"key":"1304","name":"Bezirk Sissach"},"canton":{"key":"13","code":"BL","name":"Basel-Landschaft"},"status":"Real"},{"key":"10080541","name":"Sagi","postalCode":"3673","locality":"Linden","commune":{"key":"614","name":"Linden","shortName":"Linden"},"district":{"key":"246","name":"Verwaltungskreis Bern-Mittelland"},"canton":{"key":"2","code":"BE","name":"Bern / Berne"},"status":"Real"},{"key":"10009534","name":"Schachenstrasse","postalCode":"3315","locality":"Bätterkinden","commune":{"key":"533","name":"Bätterkinden","shortName":"Bätterkinden"},"district":{"key":"245","name":"Verwaltungskreis Emmental"},"canton":{"key":"2","code":"BE","name":"Bern / Berne"},"status":"Real"},{"key":"10058813","name":"Schindellegi","postalCode":"3673","locality":"Linden","commune":{"key":"614","name":"Linden","shortName":"Linden"},"district":{"key":"246","name":"Verwaltungskreis Bern-Mittelland"},"canton":{"key":"2","code":"BE","name":"Bern / Berne"},"status":"Real"},{"key":"10005969","name":"Schlatt","postalCode":"3673","locality":"Linden","commune":{"key":"614","name":"Linden","shortName":"Linden"},"district":{"key":"246","name":"Verwaltungskreis Bern-Mittelland"},"canton":{"key":"2","code":"BE","name":"Bern / Berne"},"status":"Real"},{"key":"10005970","name":"Schlatthoger","postalCode":"3673","locality":"Linden","commune":{"key":"614","name":"Linden","shortName":"Linden"},"district":{"key":"246","name":"Verwaltungskreis Bern-Mittelland"},"canton":{"key":"2","code":"BE","name":"Bern / Berne"},"status":"Real"},{"key":"10080542","name":"Schlegwegbad","postalCode":"3673","locality":"Linden","commune":{"key":"614","name":"Linden","shortName":"Linden"},"district":{"key":"246","name":"Verwaltungskreis Bern-Mittelland"},"canton":{"key":"2","code":"BE","name":"Bern / Berne"},"status":"Real"},{"key":"10113773","name":"Schlegwegstrasse","postalCode":"3673","locality":"Linden","commune":{"key":"614","name":"Linden","shortName":"Linden"},"district":{"key":"246","name":"Verwaltungskreis Bern-Mittelland"},"canton":{"key":"2","code":"BE","name":"Bern / Berne"},"status":"Real"},{"key":"10069447","name":"Schleipfenweg","postalCode":"4460","locality":"Gelterkinden","commune":{"key":"2846","name":"Gelterkinden","shortName":"Gelterkinden"},"district":{"key":"1304","name":"Bezirk Sissach"},"canton":{"key":"13","code":"BL","name":"Basel-Landschaft"},"status":"Real"},{"key":"10058814","name":"Schlössli","postalCode":"3673","locality":"Linden","commune":{"key":"614","name":"Linden","shortName":"Linden"},"district":{"key":"246","name":"Verwaltungskreis Bern-Mittelland"},"canton":{"key":"2","code":"BE","name":"Bern / Berne"},"status":"Real"},{"key":"10117132","name":"Schmiedegasse","postalCode":"3315","locality":"Bätterkinden","commune":{"key":"533","name":"Bätterkinden","shortName":"Bätterkinden"},"district":{"key":"245","name":"Verwaltungskreis Emmental"},"canton":{"key":"2","code":"BE","name":"Bern / Berne"},"status":"Real"},{"key":"10103793","name":"Schnabel","postalCode":"3673","locality":"Linden","commune":{"key":"614","name":"Linden","shortName":"Linden"},"district":{"key":"246","name":"Verwaltungskreis Bern-Mittelland"},"canton":{"key":"2","code":"BE","name":"Bern / Berne"},"status":"Real"},{"key":"10061971","name":"Schönmatt","postalCode":"6319","locality":"Allenwinden","commune":{"key":"1701","name":"Baar","shortName":"Baar"},"district":{"key":"900","name":"Kanton Zug"},"canton":{"key":"9","code":"ZG","name":"Zug"},"status":"Real"},{"key":"10180620","name":"Schöntal","postalCode":"3673","locality":"Linden","commune":{"key":"614","name":"Linden","shortName":"Linden"},"district":{"key":"246","name":"Verwaltungskreis Bern-Mittelland"},"canton":{"key":"2","code":"BE","name":"Bern / Berne"},"status":"Real"},{"key":"10005972","name":"Schöntalgraben","postalCode":"3673","locality":"Linden","commune":{"key":"614","name":"Linden","shortName":"Linden"},"district":{"key":"246","name":"Verwaltungskreis Bern-Mittelland"},"canton":{"key":"2","code":"BE","name":"Bern / Berne"},"status":"Real"},{"key":"10058260","name":"Schöntalhole","postalCode":"3673","locality":"Linden","commune":{"key":"614","name":"Linden","shortName":"Linden"},"district":{"key":"246","name":"Verwaltungskreis Bern-Mittelland"},"canton":{"key":"2","code":"BE","name":"Bern / Berne"},"status":"Real"},{"key":"10005973","name":"Schöntalmatt","postalCode":"3673","locality":"Linden","commune":{"key":"614","name":"Linden","shortName":"Linden"},"district":{"key":"246","name":"Verwaltungskreis Bern-Mittelland"},"canton":{"key":"2","code":"BE","name":"Bern / Berne"},"status":"Real"},{"key":"10123906","name":"Schöntalwinkel","postalCode":"3673","locality":"Linden","commune":{"key":"614","name":"Linden","shortName":"Linden"},"district":{"key":"246","name":"Verwaltungskreis Bern-Mittelland"},"canton":{"key":"2","code":"BE","name":"Bern / Berne"},"status":"Real"},{"key":"10073690","name":"Schübshub","postalCode":"9315","locality":"Winden","commune":{"key":"4411","name":"Egnach","shortName":"Egnach"},"district":{"key":"2011","name":"Bezirk Arbon"},"canton":{"key":"20","code":"TG","name":"Thurgau"},"status":"Real"},{"key":"10175914","name":"Schulgasse","postalCode":"4460","locality":"Gelterkinden","commune":{"key":"2846","name":"Gelterkinden","shortName":"Gelterkinden"},"district":{"key":"1304","name":"Bezirk Sissach"},"canton":{"key":"13","code":"BL","name":"Basel-Landschaft"},"status":"Real"},{"key":"10005971","name":"Schulhausweg","postalCode":"3673","locality":"Linden","commune":{"key":"614","name":"Linden","shortName":"Linden"},"district":{"key":"246","name":"Verwaltungskreis Bern-Mittelland"},"canton":{"key":"2","code":"BE","name":"Bern / Berne"},"status":"Real"},{"key":"10141456","name":"Schulwegli","postalCode":"4460","locality":"Gelterkinden","commune":{"key":"2846","name":"Gelterkinden","shortName":"Gelterkinden"},"district":{"key":"1304","name":"Bezirk Sissach"},"canton":{"key":"13","code":"BL","name":"Basel-Landschaft"},"status":"Real"},{"key":"10092021","name":"Schützenhausweg","postalCode":"4460","locality":"Gelterkinden","commune":{"key":"2846","name":"Gelterkinden","shortName":"Gelterkinden"},"district":{"key":"1304","name":"Bezirk Sissach"},"canton":{"key":"13","code":"BL","name":"Basel-Landschaft"},"status":"Real"},{"key":"10154756","name":"Schützenmatt","postalCode":"4447","locality":"Känerkinden","commune":{"key":"2850","name":"Känerkinden","shortName":"Känerkinden"},"district":{"key":"1304","name":"Bezirk Sissach"},"canton":{"key":"13","code":"BL","name":"Basel-Landschaft"},"status":"Real"},{"key":"10053835","name":"Schützenmatt","postalCode":"4447","locality":"Känerkinden","commune":{"key":"2850","name":"Känerkinden","shortName":"Känerkinden"},"district":{"key":"1304","name":"Bezirk Sissach"},"canton":{"key":"13","code":"BL","name":"Basel-Landschaft"},"status":"Real"},{"key":"10027130","name":"Schützenmattweg","postalCode":"4460","locality":"Gelterkinden","commune":{"key":"2846","name":"Gelterkinden","shortName":"Gelterkinden"},"district":{"key":"1304","name":"Bezirk Sissach"},"canton":{"key":"13","code":"BL","name":"Basel-Landschaft"},"status":"Real"},{"key":"10082525","name":"Schützenstrasse","postalCode":"3315","locality":"Bätterkinden","commune":{"key":"533","name":"Bätterkinden","shortName":"Bätterkinden"},"district":{"key":"245","name":"Verwaltungskreis Emmental"},"canton":{"key":"2","code":"BE","name":"Bern / Berne"},"status":"Real"},{"key":"10121381","name":"Schwarzenbach","postalCode":"6319","locality":"Allenwinden","commune":{"key":"1701","name":"Baar","shortName":"Baar"},"district":{"key":"900","name":"Kanton Zug"},"canton":{"key":"9","code":"ZG","name":"Zug"},"status":"Real"},{"key":"10124973","name":"Schweienring","postalCode":"4460","locality":"Gelterkinden","commune":{"key":"2846","name":"Gelterkinden","shortName":"Gelterkinden"},"district":{"key":"1304","name":"Bezirk Sissach"},"canton":{"key":"13","code":"BL","name":"Basel-Landschaft"},"status":"Real"},{"key":"10047570","name":"Schweienweg","postalCode":"4460","locality":"Gelterkinden","commune":{"key":"2846","name":"Gelterkinden","shortName":"Gelterkinden"},"district":{"key":"1304","name":"Bezirk Sissach"},"canton":{"key":"13","code":"BL","name":"Basel-Landschaft"},"status":"Real"},{"key":"10245395","name":"Sennereigasse","postalCode":"3953","locality":"Inden","commune":{"key":"6109","name":"Inden","shortName":"Inden"},"district":{"key":"2306","name":"Bezirk Leuk"},"canton":{"key":"23","code":"VS","name":"Valais / Wallis"},"status":"Real"},{"key":"10180144","name":"Siebeneichen","postalCode":"9315","locality":"Winden","commune":{"key":"4411","name":"Egnach","shortName":"Egnach"},"district":{"key":"2011","name":"Bezirk Arbon"},"canton":{"key":"20","code":"TG","name":"Thurgau"},"status":"Real"},{"key":"10156021","name":"Sigmatt","postalCode":"4460","locality":"Gelterkinden","commune":{"key":"2846","name":"Gelterkinden","shortName":"Gelterkinden"},"district":{"key":"1304","name":"Bezirk Sissach"},"canton":{"key":"13","code":"BL","name":"Basel-Landschaft"},"status":"Real"},{"key":"10106922","name":"Sigmattstrasse","postalCode":"4460","locality":"Gelterkinden","commune":{"key":"2846","name":"Gelterkinden","shortName":"Gelterkinden"},"district":{"key":"1304","name":"Bezirk Sissach"},"canton":{"key":"13","code":"BL","name":"Basel-Landschaft"},"status":"Real"},{"key":"10141180","name":"Sirachewegli","postalCode":"4460","locality":"Gelterkinden","commune":{"key":"2846","name":"Gelterkinden","shortName":"Gelterkinden"},"district":{"key":"1304","name":"Bezirk Sissach"},"canton":{"key":"13","code":"BL","name":"Basel-Landschaft"},"status":"Real"},{"key":"10184019","name":"Sissacherstrasse","postalCode":"4460","locality":"Gelterkinden","commune":{"key":"2846","name":"Gelterkinden","shortName":"Gelterkinden"},"district":{"key":"1304","name":"Bezirk Sissach"},"canton":{"key":"13","code":"BL","name":"Basel-Landschaft"},"status":"Real"},{"key":"10009535","name":"Solothurnstrasse","postalCode":"3315","locality":"Bätterkinden","commune":{"key":"533","name":"Bätterkinden","shortName":"Bätterkinden"},"district":{"key":"245","name":"Verwaltungskreis Emmental"},"canton":{"key":"2","code":"BE","name":"Bern / Berne"},"status":"Real"},{"key":"10069448","name":"Sommerau","postalCode":"4460","locality":"Gelterkinden","commune":{"key":"2846","name":"Gelterkinden","shortName":"Gelterkinden"},"district":{"key":"1304","name":"Bezirk Sissach"},"canton":{"key":"13","code":"BL","name":"Basel-Landschaft"},"status":"Real"},{"key":"10118337","name":"Sonnenbergweg","postalCode":"4447","locality":"Känerkinden","commune":{"key":"2850","name":"Känerkinden","shortName":"Känerkinden"},"district":{"key":"1304","name":"Bezirk Sissach"},"canton":{"key":"13","code":"BL","name":"Basel-Landschaft"},"status":"Real"},{"key":"10154733","name":"Sonnenhof","postalCode":"4460","locality":"Gelterkinden","commune":{"key":"2846","name":"Gelterkinden","shortName":"Gelterkinden"},"district":{"key":"1304","name":"Bezirk Sissach"},"canton":{"key":"13","code":"BL","name":"Basel-Landschaft"},"status":"Real"},{"key":"10094763","name":"Sonnmatt","postalCode":"6319","locality":"Allenwinden","commune":{"key":"1701","name":"Baar","shortName":"Baar"},"district":{"key":"900","name":"Kanton Zug"},"canton":{"key":"9","code":"ZG","name":"Zug"},"status":"Real"},{"key":"10011281","name":"Spitzibüel","postalCode":"6319","locality":"Allenwinden","commune":{"key":"1701","name":"Baar","shortName":"Baar"},"district":{"key":"900","name":"Kanton Zug"},"canton":{"key":"9","code":"ZG","name":"Zug"},"status":"Real"},{"key":"10092022","name":"Staffelenweg","postalCode":"4460","locality":"Gelterkinden","commune":{"key":"2846","name":"Gelterkinden","shortName":"Gelterkinden"},"district":{"key":"1304","name":"Bezirk Sissach"},"canton":{"key":"13","code":"BL","name":"Basel-Landschaft"},"status":"Real"},{"key":"10047571","name":"Standweg","postalCode":"4460","locality":"Gelterkinden","commune":{"key":"2846","name":"Gelterkinden","shortName":"Gelterkinden"},"district":{"key":"1304","name":"Bezirk Sissach"},"canton":{"key":"13","code":"BL","name":"Basel-Landschaft"},"status":"Real"},{"key":"10027450","name":"Stapflenackerweg","postalCode":"4447","locality":"Känerkinden","commune":{"key":"2850","name":"Känerkinden","shortName":"Känerkinden"},"district":{"key":"1304","name":"Bezirk Sissach"},"canton":{"key":"13","code":"BL","name":"Basel-Landschaft"},"status":"Real"},{"key":"10028189","name":"Staubishub","postalCode":"9315","locality":"Winden","commune":{"key":"4411","name":"Egnach","shortName":"Egnach"},"district":{"key":"2011","name":"Bezirk Arbon"},"canton":{"key":"20","code":"TG","name":"Thurgau"},"status":"Real"},{"key":"10177339","name":"Stauffacherstrasse","postalCode":"3315","locality":"Bätterkinden","commune":{"key":"533","name":"Bätterkinden","shortName":"Bätterkinden"},"district":{"key":"245","name":"Verwaltungskreis Emmental"},"canton":{"key":"2","code":"BE","name":"Bern / Berne"},"status":"Real"},{"key":"10110320","name":"Steinmatt","postalCode":"3673","locality":"Linden","commune":{"key":"614","name":"Linden","shortName":"Linden"},"district":{"key":"246","name":"Verwaltungskreis Bern-Mittelland"},"canton":{"key":"2","code":"BE","name":"Bern / Berne"},"status":"Real"},{"key":"10141454","name":"Stelzenweg","postalCode":"4460","locality":"Gelterkinden","commune":{"key":"2846","name":"Gelterkinden","shortName":"Gelterkinden"},"district":{"key":"1304","name":"Bezirk Sissach"},"canton":{"key":"13","code":"BL","name":"Basel-Landschaft"},"status":"Real"},{"key":"10009537","name":"Tannenweg","postalCode":"3315","locality":"Bätterkinden","commune":{"key":"533","name":"Bätterkinden","shortName":"Bätterkinden"},"district":{"key":"245","name":"Verwaltungskreis Emmental"},"canton":{"key":"2","code":"BE","name":"Bern / Berne"},"status":"Real"},{"key":"10190324","name":"Täschliberg","postalCode":"9315","locality":"Winden","commune":{"key":"4411","name":"Egnach","shortName":"Egnach"},"district":{"key":"2011","name":"Bezirk Arbon"},"canton":{"key":"20","code":"TG","name":"Thurgau"},"status":"Real"},{"key":"10117529","name":"Tecknauerstrasse","postalCode":"4460","locality":"Gelterkinden","commune":{"key":"2846","name":"Gelterkinden","shortName":"Gelterkinden"},"district":{"key":"1304","name":"Bezirk Sissach"},"canton":{"key":"13","code":"BL","name":"Basel-Landschaft"},"status":"Real"},{"key":"10027133","name":"Teichweg","postalCode":"4460","locality":"Gelterkinden","commune":{"key":"2846","name":"Gelterkinden","shortName":"Gelterkinden"},"district":{"key":"1304","name":"Bezirk Sissach"},"canton":{"key":"13","code":"BL","name":"Basel-Landschaft"},"status":"Real"},{"key":"10112130","name":"Tellstrasse","postalCode":"3315","locality":"Bätterkinden","commune":{"key":"533","name":"Bätterkinden","shortName":"Bätterkinden"},"district":{"key":"245","name":"Verwaltungskreis Emmental"},"canton":{"key":"2","code":"BE","name":"Bern / Berne"},"status":"Real"},{"key":"10141670","name":"Thürnerfluhwegli","postalCode":"4460","locality":"Gelterkinden","commune":{"key":"2846","name":"Gelterkinden","shortName":"Gelterkinden"},"district":{"key":"1304","name":"Bezirk Sissach"},"canton":{"key":"13","code":"BL","name":"Basel-Landschaft"},"status":"Real"},{"key":"10080543","name":"Togglismatt","postalCode":"3673","locality":"Linden","commune":{"key":"614","name":"Linden","shortName":"Linden"},"district":{"key":"246","name":"Verwaltungskreis Bern-Mittelland"},"canton":{"key":"2","code":"BE","name":"Bern / Berne"},"status":"Real"},{"key":"10245394","name":"Tschareiestrasse","postalCode":"3953","locality":"Inden","commune":{"key":"6109","name":"Inden","shortName":"Inden"},"district":{"key":"2306","name":"Bezirk Leuk"},"canton":{"key":"23","code":"VS","name":"Valais / Wallis"},"status":"Real"},{"key":"10258439","name":"Tschärminiristrasse","postalCode":"3953","locality":"Inden","commune":{"key":"6109","name":"Inden","shortName":"Inden"},"district":{"key":"2306","name":"Bezirk Leuk"},"canton":{"key":"23","code":"VS","name":"Valais / Wallis"},"status":"Real"},{"key":"10245402","name":"Tscholistrasse","postalCode":"3953","locality":"Inden","commune":{"key":"6109","name":"Inden","shortName":"Inden"},"district":{"key":"2306","name":"Bezirk Leuk"},"canton":{"key":"23","code":"VS","name":"Valais / Wallis"},"status":"Real"},{"key":"10245673","name":"Tschuggstrasse","postalCode":"3953","locality":"Inden","commune":{"key":"6109","name":"Inden","shortName":"Inden"},"district":{"key":"2306","name":"Bezirk Leuk"},"canton":{"key":"23","code":"VS","name":"Valais / Wallis"},"status":"Real"},{"key":"10066298","name":"Tulpenweg","postalCode":"3315","locality":"Bätterkinden","commune":{"key":"533","name":"Bätterkinden","shortName":"Bätterkinden"},"district":{"key":"245","name":"Verwaltungskreis Emmental"},"canton":{"key":"2","code":"BE","name":"Bern / Berne"},"status":"Real"},{"key":"10047573","name":"Turnhallenstrasse","postalCode":"4460","locality":"Gelterkinden","commune":{"key":"2846","name":"Gelterkinden","shortName":"Gelterkinden"},"district":{"key":"1304","name":"Bezirk Sissach"},"canton":{"key":"13","code":"BL","name":"Basel-Landschaft"},"status":"Real"},{"key":"10069459","name":"Ueligasse","postalCode":"4447","locality":"Känerkinden","commune":{"key":"2850","name":"Känerkinden","shortName":"Känerkinden"},"district":{"key":"1304","name":"Bezirk Sissach"},"canton":{"key":"13","code":"BL","name":"Basel-Landschaft"},"status":"Real"},{"key":"10215087","name":"Uferwegli","postalCode":"4460","locality":"Gelterkinden","commune":{"key":"2846","name":"Gelterkinden","shortName":"Gelterkinden"},"district":{"key":"1304","name":"Bezirk Sissach"},"canton":{"key":"13","code":"BL","name":"Basel-Landschaft"},"status":"Real"},{"key":"10124934","name":"Ulmenweg","postalCode":"3315","locality":"Bätterkinden","commune":{"key":"533","name":"Bätterkinden","shortName":"Bätterkinden"},"district":{"key":"245","name":"Verwaltungskreis Emmental"},"canton":{"key":"2","code":"BE","name":"Bern / Berne"},"status":"Real"},{"key":"10245406","name":"Unterdorfstrasse","postalCode":"3953","locality":"Inden","commune":{"key":"6109","name":"Inden","shortName":"Inden"},"district":{"key":"2306","name":"Bezirk Leuk"},"canton":{"key":"23","code":"VS","name":"Valais / Wallis"},"status":"Real"},{"key":"10170535","name":"Unterhegi","postalCode":"9315","locality":"Winden","commune":{"key":"4411","name":"Egnach","shortName":"Egnach"},"district":{"key":"2011","name":"Bezirk Arbon"},"canton":{"key":"20","code":"TG","name":"Thurgau"},"status":"Real"},{"key":"10156020","name":"Unteri Allersegg","postalCode":"4460","locality":"Gelterkinden","commune":{"key":"2846","name":"Gelterkinden","shortName":"Gelterkinden"},"district":{"key":"1304","name":"Bezirk Sissach"},"canton":{"key":"13","code":"BL","name":"Basel-Landschaft"},"status":"Real"},{"key":"10154725","name":"Unteri Röten","postalCode":"4460","locality":"Gelterkinden","commune":{"key":"2846","name":"Gelterkinden","shortName":"Gelterkinden"},"district":{"key":"1304","name":"Bezirk Sissach"},"canton":{"key":"13","code":"BL","name":"Basel-Landschaft"},"status":"Real"},{"key":"10105334","name":"Unterschwarzenbach","postalCode":"6319","locality":"Allenwinden","commune":{"key":"1701","name":"Baar","shortName":"Baar"},"district":{"key":"900","name":"Kanton Zug"},"canton":{"key":"9","code":"ZG","name":"Zug"},"status":"Real"},{"key":"10064867","name":"Unterstock","postalCode":"6319","locality":"Allenwinden","commune":{"key":"1701","name":"Baar","shortName":"Baar"},"district":{"key":"900","name":"Kanton Zug"},"canton":{"key":"9","code":"ZG","name":"Zug"},"status":"Real"},{"key":"10027451","name":"Vordermattstrasse","postalCode":"4447","locality":"Känerkinden","commune":{"key":"2850","name":"Känerkinden","shortName":"Känerkinden"},"district":{"key":"1304","name":"Bezirk Sissach"},"canton":{"key":"13","code":"BL","name":"Basel-Landschaft"},"status":"Real"},{"key":"10082527","name":"Waldeckstrasse","postalCode":"3315","locality":"Bätterkinden","commune":{"key":"533","name":"Bätterkinden","shortName":"Bätterkinden"},"district":{"key":"245","name":"Verwaltungskreis Emmental"},"canton":{"key":"2","code":"BE","name":"Bern / Berne"},"status":"Real"},{"key":"10027134","name":"Waldeggweg","postalCode":"4460","locality":"Gelterkinden","commune":{"key":"2846","name":"Gelterkinden","shortName":"Gelterkinden"},"district":{"key":"1304","name":"Bezirk Sissach"},"canton":{"key":"13","code":"BL","name":"Basel-Landschaft"},"status":"Real"},{"key":"10066299","name":"Waldstrasse","postalCode":"3315","locality":"Bätterkinden","commune":{"key":"533","name":"Bätterkinden","shortName":"Bätterkinden"},"district":{"key":"245","name":"Verwaltungskreis Emmental"},"canton":{"key":"2","code":"BE","name":"Bern / Berne"},"status":"Real"},{"key":"10245396","name":"Waldstrasse","postalCode":"3953","locality":"Inden","commune":{"key":"6109","name":"Inden","shortName":"Inden"},"district":{"key":"2306","name":"Bezirk Leuk"},"canton":{"key":"23","code":"VS","name":"Valais / Wallis"},"status":"Real"},{"key":"10005976","name":"Waldweg","postalCode":"3673","locality":"Linden","commune":{"key":"614","name":"Linden","shortName":"Linden"},"district":{"key":"246","name":"Verwaltungskreis Bern-Mittelland"},"canton":{"key":"2","code":"BE","name":"Bern / Berne"},"status":"Real"},{"key":"10194311","name":"Walter-Eglin-Strasse","postalCode":"4447","locality":"Känerkinden","commune":{"key":"2850","name":"Känerkinden","shortName":"Känerkinden"},"district":{"key":"1304","name":"Bezirk Sissach"},"canton":{"key":"13","code":"BL","name":"Basel-Landschaft"},"status":"Real"},{"key":"10092023","name":"Wannenweg","postalCode":"4460","locality":"Gelterkinden","commune":{"key":"2846","name":"Gelterkinden","shortName":"Gelterkinden"},"district":{"key":"1304","name":"Bezirk Sissach"},"canton":{"key":"13","code":"BL","name":"Basel-Landschaft"},"status":"Real"},{"key":"10061680","name":"Weberhof","postalCode":"6319","locality":"Allenwinden","commune":{"key":"1701","name":"Baar","shortName":"Baar"},"district":{"key":"900","name":"Kanton Zug"},"canton":{"key":"9","code":"ZG","name":"Zug"},"status":"Real"},{"key":"10009538","name":"Weidenweg","postalCode":"3315","locality":"Bätterkinden","commune":{"key":"533","name":"Bätterkinden","shortName":"Bätterkinden"},"district":{"key":"245","name":"Verwaltungskreis Emmental"},"canton":{"key":"2","code":"BE","name":"Bern / Berne"},"status":"Real"},{"key":"10141431","name":"Weidmatt","postalCode":"4460","locality":"Gelterkinden","commune":{"key":"2846","name":"Gelterkinden","shortName":"Gelterkinden"},"district":{"key":"1304","name":"Bezirk Sissach"},"canton":{"key":"13","code":"BL","name":"Basel-Landschaft"},"status":"Real"},{"key":"10027135","name":"Weidmattweg","postalCode":"4460","locality":"Gelterkinden","commune":{"key":"2846","name":"Gelterkinden","shortName":"Gelterkinden"},"district":{"key":"1304","name":"Bezirk Sissach"},"canton":{"key":"13","code":"BL","name":"Basel-Landschaft"},"status":"Real"},{"key":"10154735","name":"Weielen","postalCode":"4460","locality":"Gelterkinden","commune":{"key":"2846","name":"Gelterkinden","shortName":"Gelterkinden"},"district":{"key":"1304","name":"Bezirk Sissach"},"canton":{"key":"13","code":"BL","name":"Basel-Landschaft"},"status":"Real"},{"key":"10047574","name":"Weihermattweg","postalCode":"4460","locality":"Gelterkinden","commune":{"key":"2846","name":"Gelterkinden","shortName":"Gelterkinden"},"district":{"key":"1304","name":"Bezirk Sissach"},"canton":{"key":"13","code":"BL","name":"Basel-Landschaft"},"status":"Real"},{"key":"10108772","name":"Weiherweg","postalCode":"4460","locality":"Gelterkinden","commune":{"key":"2846","name":"Gelterkinden","shortName":"Gelterkinden"},"district":{"key":"1304","name":"Bezirk Sissach"},"canton":{"key":"13","code":"BL","name":"Basel-Landschaft"},"status":"Real"},{"key":"10134587","name":"Wendelinhof","postalCode":"6319","locality":"Allenwinden","commune":{"key":"1701","name":"Baar","shortName":"Baar"},"district":{"key":"900","name":"Kanton Zug"},"canton":{"key":"9","code":"ZG","name":"Zug"},"status":"Real"},{"key":"10009539","name":"Wiesenweg","postalCode":"3315","locality":"Bätterkinden","commune":{"key":"533","name":"Bätterkinden","shortName":"Bätterkinden"},"district":{"key":"245","name":"Verwaltungskreis Emmental"},"canton":{"key":"2","code":"BE","name":"Bern / Berne"},"status":"Real"},{"key":"10116928","name":"Wildere","postalCode":"3673","locality":"Linden","commune":{"key":"614","name":"Linden","shortName":"Linden"},"district":{"key":"246","name":"Verwaltungskreis Bern-Mittelland"},"canton":{"key":"2","code":"BE","name":"Bern / Berne"},"status":"Real"},{"key":"10209577","name":"Winderholzstrasse","postalCode":"9315","locality":"Winden","commune":{"key":"4411","name":"Egnach","shortName":"Egnach"},"district":{"key":"2011","name":"Bezirk Arbon"},"canton":{"key":"20","code":"TG","name":"Thurgau"},"status":"Real"},{"key":"10005977","name":"Winkel","postalCode":"3673","locality":"Linden","commune":{"key":"614","name":"Linden","shortName":"Linden"},"district":{"key":"246","name":"Verwaltungskreis Bern-Mittelland"},"canton":{"key":"2","code":"BE","name":"Bern / Berne"},"status":"Real"},{"key":"10217441","name":"Winkelmatt","postalCode":"3315","locality":"Bätterkinden","commune":{"key":"533","name":"Bätterkinden","shortName":"Bätterkinden"},"district":{"key":"245","name":"Verwaltungskreis Emmental"},"canton":{"key":"2","code":"BE","name":"Bern / Berne"},"status":"Real"},{"key":"10009540","name":"Winkelriedstrasse","postalCode":"3315","locality":"Bätterkinden","commune":{"key":"533","name":"Bätterkinden","shortName":"Bätterkinden"},"district":{"key":"245","name":"Verwaltungskreis Emmental"},"canton":{"key":"2","code":"BE","name":"Bern / Berne"},"status":"Real"},{"key":"10066300","name":"Winkelstrasse","postalCode":"3315","locality":"Bätterkinden","commune":{"key":"533","name":"Bätterkinden","shortName":"Bätterkinden"},"district":{"key":"245","name":"Verwaltungskreis Emmental"},"canton":{"key":"2","code":"BE","name":"Bern / Berne"},"status":"Real"},{"key":"10116922","name":"Winterseiten","postalCode":"3673","locality":"Linden","commune":{"key":"614","name":"Linden","shortName":"Linden"},"district":{"key":"246","name":"Verwaltungskreis Bern-Mittelland"},"canton":{"key":"2","code":"BE","name":"Bern / Berne"},"status":"Real"},{"key":"10094764","name":"Winzrüti","postalCode":"6319","locality":"Allenwinden","commune":{"key":"1701","name":"Baar","shortName":"Baar"},"district":{"key":"900","name":"Kanton Zug"},"canton":{"key":"9","code":"ZG","name":"Zug"},"status":"Real"},{"key":"10096266","name":"Wittinsburgerstrasse","postalCode":"4447","locality":"Känerkinden","commune":{"key":"2850","name":"Känerkinden","shortName":"Känerkinden"},"district":{"key":"1304","name":"Bezirk Sissach"},"canton":{"key":"13","code":"BL","name":"Basel-Landschaft"},"status":"Real"},{"key":"10156027","name":"Wolfstiege","postalCode":"4460","locality":"Gelterkinden","commune":{"key":"2846","name":"Gelterkinden","shortName":"Gelterkinden"},"district":{"key":"1304","name":"Bezirk Sissach"},"canton":{"key":"13","code":"BL","name":"Basel-Landschaft"},"status":"Real"},{"key":"10186572","name":"Wuhrweg","postalCode":"4460","locality":"Gelterkinden","commune":{"key":"2846","name":"Gelterkinden","shortName":"Gelterkinden"},"district":{"key":"1304","name":"Bezirk Sissach"},"canton":{"key":"13","code":"BL","name":"Basel-Landschaft"},"status":"Real"},{"key":"10245403","name":"Zabonetstrasse","postalCode":"3953","locality":"Inden","commune":{"key":"6109","name":"Inden","shortName":"Inden"},"district":{"key":"2306","name":"Bezirk Leuk"},"canton":{"key":"23","code":"VS","name":"Valais / Wallis"},"status":"Real"},{"key":"10082528","name":"Zähringerstrasse","postalCode":"3315","locality":"Bätterkinden","commune":{"key":"533","name":"Bätterkinden","shortName":"Bätterkinden"},"district":{"key":"245","name":"Verwaltungskreis Emmental"},"canton":{"key":"2","code":"BE","name":"Bern / Berne"},"status":"Real"},{"key":"10114507","name":"Zälgli","postalCode":"3315","locality":"Bätterkinden","commune":{"key":"533","name":"Bätterkinden","shortName":"Bätterkinden"},"district":{"key":"245","name":"Verwaltungskreis Emmental"},"canton":{"key":"2","code":"BE","name":"Bern / Berne"},"status":"Real"},{"key":"10113774","name":"Zälgli","postalCode":"3673","locality":"Linden","commune":{"key":"614","name":"Linden","shortName":"Linden"},"district":{"key":"246","name":"Verwaltungskreis Bern-Mittelland"},"canton":{"key":"2","code":"BE","name":"Bern / Berne"},"status":"Real"},{"key":"10141677","name":"Zehntenwegli","postalCode":"4460","locality":"Gelterkinden","commune":{"key":"2846","name":"Gelterkinden","shortName":"Gelterkinden"},"district":{"key":"1304","name":"Bezirk Sissach"},"canton":{"key":"13","code":"BL","name":"Basel-Landschaft"},"status":"Real"},{"key":"10106923","name":"Zelgwasserweg","postalCode":"4460","locality":"Gelterkinden","commune":{"key":"2846","name":"Gelterkinden","shortName":"Gelterkinden"},"district":{"key":"1304","name":"Bezirk Sissach"},"canton":{"key":"13","code":"BL","name":"Basel-Landschaft"},"status":"Real"},{"key":"10141426","name":"Zeughausweg","postalCode":"4460","locality":"Gelterkinden","commune":{"key":"2846","name":"Gelterkinden","shortName":"Gelterkinden"},"district":{"key":"1304","name":"Bezirk Sissach"},"canton":{"key":"13","code":"BL","name":"Basel-Landschaft"},"status":"Real"},{"key":"10027136","name":"Zielämpenweg","postalCode":"4460","locality":"Gelterkinden","commune":{"key":"2846","name":"Gelterkinden","shortName":"Gelterkinden"},"district":{"key":"1304","name":"Bezirk Sissach"},"canton":{"key":"13","code":"BL","name":"Basel-Landschaft"},"status":"Real"},{"key":"10005978","name":"Zihl","postalCode":"3673","locality":"Linden","commune":{"key":"614","name":"Linden","shortName":"Linden"},"district":{"key":"246","name":"Verwaltungskreis Bern-Mittelland"},"canton":{"key":"2","code":"BE","name":"Bern / Berne"},"status":"Real"},{"key":"10119634","name":"Zilweg","postalCode":"4460","locality":"Gelterkinden","commune":{"key":"2846","name":"Gelterkinden","shortName":"Gelterkinden"},"district":{"key":"1304","name":"Bezirk Sissach"},"canton":{"key":"13","code":"BL","name":"Basel-Landschaft"},"status":"Real"},{"key":"10058817","name":"Zippershäusern","postalCode":"3673","locality":"Linden","commune":{"key":"614","name":"Linden","shortName":"Linden"},"district":{"key":"246","name":"Verwaltungskreis Bern-Mittelland"},"canton":{"key":"2","code":"BE","name":"Bern / Berne"},"status":"Real"},{"key":"10248155","name":"Zubustrasse","postalCode":"3953","locality":"Inden","commune":{"key":"6109","name":"Inden","shortName":"Inden"},"district":{"key":"2306","name":"Bezirk Leuk"},"canton":{"key":"23","code":"VS","name":"Valais / Wallis"},"status":"Real"},{"key":"10152260","name":"Zuestall","postalCode":"6319","locality":"Allenwinden","commune":{"key":"1701","name":"Baar","shortName":"Baar"},"district":{"key":"900","name":"Kanton Zug"},"canton":{"key":"9","code":"ZG","name":"Zug"},"status":"Real"},{"key":"10011283","name":"Zugerbergstrasse","postalCode":"6319","locality":"Allenwinden","commune":{"key":"1701","name":"Baar","shortName":"Baar"},"district":{"key":"900","name":"Kanton Zug"},"canton":{"key":"9","code":"ZG","name":"Zug"},"status":"Real"},]