[{"name":"Abrahamstal","postalCode":"51789","locality":"Lindlar","municipality":{"key":"05374020","name":"Lindlar","type":"Kreisangehörige_Gemeinde"},"district":{"key":"05374","name":"Oberbergischer Kreis","type":"Kreis"},"federalState":{"key":"05","name":"Nordrhein-Westfalen"}},{"name":"Adolph-Kolping-Str.","postalCode":"51789","locality":"Lindlar","municipality":{"key":"05374020","name":"Lindlar","type":"Kreisangehörige_Gemeinde"},"district":{"key":"05374","name":"Oberbergischer Kreis","type":"Kreis"},"federalState":{"key":"05","name":"Nordrhein-Westfalen"}},{"name":"Aggerweg","postalCode":"51789","locality":"Lindlar","municipality":{"key":"05374020","name":"Lindlar","type":"Kreisangehörige_Gemeinde"},"district":{"key":"05374","name":"Oberbergischer Kreis","type":"Kreis"},"federalState":{"key":"05","name":"Nordrhein-Westfalen"}},{"name":"Ahornweg","postalCode":"51789","locality":"Lindlar","municipality":{"key":"05374020","name":"Lindlar","type":"Kreisangehörige_Gemeinde"},"district":{"key":"05374","name":"Oberbergischer Kreis","type":"Kreis"},"federalState":{"key":"05","name":"Nordrhein-Westfalen"}},{"name":"Ahrweg","postalCode":"51789","locality":"Lindlar","municipality":{"key":"05374020","name":"Lindlar","type":"Kreisangehörige_Gemeinde"},"district":{"key":"05374","name":"Oberbergischer Kreis","type":"Kreis"},"federalState":{"key":"05","name":"Nordrhein-Westfalen"}},{"name":"Akazienweg","postalCode":"51789","locality":"Lindlar","municipality":{"key":"05374020","name":"Lindlar","type":"Kreisangehörige_Gemeinde"},"district":{"key":"05374","name":"Oberbergischer Kreis","type":"Kreis"},"federalState":{"key":"05","name":"Nordrhein-Westfalen"}},{"name":"Alsbacher Str.","postalCode":"51789","locality":"Lindlar","municipality":{"key":"05374020","name":"Lindlar","type":"Kreisangehörige_Gemeinde"},"district":{"key":"05374","name":"Oberbergischer Kreis","type":"Kreis"},"federalState":{"key":"05","name":"Nordrhein-Westfalen"}},{"name":"Alte Dorfstr.","postalCode":"51789","locality":"Lindlar","municipality":{"key":"05374020","name":"Lindlar","type":"Kreisangehörige_Gemeinde"},"district":{"key":"05374","name":"Oberbergischer Kreis","type":"Kreis"},"federalState":{"key":"05","name":"Nordrhein-Westfalen"}},{"name":"Alte Landstr.","postalCode":"51789","locality":"Lindlar","municipality":{"key":"05374020","name":"Lindlar","type":"Kreisangehörige_Gemeinde"},"district":{"key":"05374","name":"Oberbergischer Kreis","type":"Kreis"},"federalState":{"key":"05","name":"Nordrhein-Westfalen"}},{"name":"Altenlinde","postalCode":"51789","locality":"Lindlar","municipality":{"key":"05374020","name":"Lindlar","type":"Kreisangehörige_Gemeinde"},"district":{"key":"05374","name":"Oberbergischer Kreis","type":"Kreis"},"federalState":{"key":"05","name":"Nordrhein-Westfalen"}},{"name":"Altenrather Feld","postalCode":"51789","locality":"Lindlar","municipality":{"key":"05374020","name":"Lindlar","type":"Kreisangehörige_Gemeinde"},"district":{"key":"05374","name":"Oberbergischer Kreis","type":"Kreis"},"federalState":{"key":"05","name":"Nordrhein-Westfalen"}},{"name":"Altenrather Weg","postalCode":"51789","locality":"Lindlar","municipality":{"key":"05374020","name":"Lindlar","type":"Kreisangehörige_Gemeinde"},"district":{"key":"05374","name":"Oberbergischer Kreis","type":"Kreis"},"federalState":{"key":"05","name":"Nordrhein-Westfalen"}},{"name":"Alte Ommerbornstr.","postalCode":"51789","locality":"Lindlar","municipality":{"key":"05374020","name":"Lindlar","type":"Kreisangehörige_Gemeinde"},"district":{"key":"05374","name":"Oberbergischer Kreis","type":"Kreis"},"federalState":{"key":"05","name":"Nordrhein-Westfalen"}},{"name":"Am Acker","postalCode":"51789","locality":"Lindlar","municipality":{"key":"05374020","name":"Lindlar","type":"Kreisangehörige_Gemeinde"},"district":{"key":"05374","name":"Oberbergischer Kreis","type":"Kreis"},"federalState":{"key":"05","name":"Nordrhein-Westfalen"}},{"name":"Am Ackerhof","postalCode":"51789","locality":"Lindlar","municipality":{"key":"05374020","name":"Lindlar","type":"Kreisangehörige_Gemeinde"},"district":{"key":"05374","name":"Oberbergischer Kreis","type":"Kreis"},"federalState":{"key":"05","name":"Nordrhein-Westfalen"}},{"name":"Am Alten Friedhof","postalCode":"51789","locality":"Lindlar","municipality":{"key":"05374020","name":"Lindlar","type":"Kreisangehörige_Gemeinde"},"district":{"key":"05374","name":"Oberbergischer Kreis","type":"Kreis"},"federalState":{"key":"05","name":"Nordrhein-Westfalen"}},{"name":"Am Bahnhof","postalCode":"51789","locality":"Lindlar","municipality":{"key":"05374020","name":"Lindlar","type":"Kreisangehörige_Gemeinde"},"district":{"key":"05374","name":"Oberbergischer Kreis","type":"Kreis"},"federalState":{"key":"05","name":"Nordrhein-Westfalen"}},{"name":"Am Biesenberg","postalCode":"51789","locality":"Lindlar","municipality":{"key":"05374020","name":"Lindlar","type":"Kreisangehörige_Gemeinde"},"district":{"key":"05374","name":"Oberbergischer Kreis","type":"Kreis"},"federalState":{"key":"05","name":"Nordrhein-Westfalen"}},{"name":"Am Bolzenbacher Kreuz","postalCode":"51789","locality":"Lindlar","municipality":{"key":"05374020","name":"Lindlar","type":"Kreisangehörige_Gemeinde"},"district":{"key":"05374","name":"Oberbergischer Kreis","type":"Kreis"},"federalState":{"key":"05","name":"Nordrhein-Westfalen"}},{"name":"Am Brunnen","postalCode":"51789","locality":"Lindlar","municipality":{"key":"05374020","name":"Lindlar","type":"Kreisangehörige_Gemeinde"},"district":{"key":"05374","name":"Oberbergischer Kreis","type":"Kreis"},"federalState":{"key":"05","name":"Nordrhein-Westfalen"}},{"name":"Am Brunnenberg","postalCode":"51789","locality":"Lindlar","municipality":{"key":"05374020","name":"Lindlar","type":"Kreisangehörige_Gemeinde"},"district":{"key":"05374","name":"Oberbergischer Kreis","type":"Kreis"},"federalState":{"key":"05","name":"Nordrhein-Westfalen"}},{"name":"Am Dimberg","postalCode":"51789","locality":"Lindlar","municipality":{"key":"05374020","name":"Lindlar","type":"Kreisangehörige_Gemeinde"},"district":{"key":"05374","name":"Oberbergischer Kreis","type":"Kreis"},"federalState":{"key":"05","name":"Nordrhein-Westfalen"}},{"name":"Am Dorn","postalCode":"51789","locality":"Lindlar","municipality":{"key":"05374020","name":"Lindlar","type":"Kreisangehörige_Gemeinde"},"district":{"key":"05374","name":"Oberbergischer Kreis","type":"Kreis"},"federalState":{"key":"05","name":"Nordrhein-Westfalen"}},{"name":"Am Dornbusch","postalCode":"51789","locality":"Lindlar","municipality":{"key":"05374020","name":"Lindlar","type":"Kreisangehörige_Gemeinde"},"district":{"key":"05374","name":"Oberbergischer Kreis","type":"Kreis"},"federalState":{"key":"05","name":"Nordrhein-Westfalen"}},{"name":"Am Falltor","postalCode":"51789","locality":"Lindlar","municipality":{"key":"05374020","name":"Lindlar","type":"Kreisangehörige_Gemeinde"},"district":{"key":"05374","name":"Oberbergischer Kreis","type":"Kreis"},"federalState":{"key":"05","name":"Nordrhein-Westfalen"}},{"name":"Am Fronhofsgarten","postalCode":"51789","locality":"Lindlar","municipality":{"key":"05374020","name":"Lindlar","type":"Kreisangehörige_Gemeinde"},"district":{"key":"05374","name":"Oberbergischer Kreis","type":"Kreis"},"federalState":{"key":"05","name":"Nordrhein-Westfalen"}},{"name":"Am Hang","postalCode":"51789","locality":"Lindlar","municipality":{"key":"05374020","name":"Lindlar","type":"Kreisangehörige_Gemeinde"},"district":{"key":"05374","name":"Oberbergischer Kreis","type":"Kreis"},"federalState":{"key":"05","name":"Nordrhein-Westfalen"}},{"name":"Am Hellinger Bach","postalCode":"51789","locality":"Lindlar","municipality":{"key":"05374020","name":"Lindlar","type":"Kreisangehörige_Gemeinde"},"district":{"key":"05374","name":"Oberbergischer Kreis","type":"Kreis"},"federalState":{"key":"05","name":"Nordrhein-Westfalen"}},{"name":"Am Hofanger","postalCode":"51789","locality":"Lindlar","municipality":{"key":"05374020","name":"Lindlar","type":"Kreisangehörige_Gemeinde"},"district":{"key":"05374","name":"Oberbergischer Kreis","type":"Kreis"},"federalState":{"key":"05","name":"Nordrhein-Westfalen"}},{"name":"Am Höfchen","postalCode":"51789","locality":"Lindlar","municipality":{"key":"05374020","name":"Lindlar","type":"Kreisangehörige_Gemeinde"},"district":{"key":"05374","name":"Oberbergischer Kreis","type":"Kreis"},"federalState":{"key":"05","name":"Nordrhein-Westfalen"}},{"name":"Am Kamp","postalCode":"51789","locality":"Lindlar","municipality":{"key":"05374020","name":"Lindlar","type":"Kreisangehörige_Gemeinde"},"district":{"key":"05374","name":"Oberbergischer Kreis","type":"Kreis"},"federalState":{"key":"05","name":"Nordrhein-Westfalen"}},{"name":"Am Langen Hahn","postalCode":"51789","locality":"Lindlar","municipality":{"key":"05374020","name":"Lindlar","type":"Kreisangehörige_Gemeinde"},"district":{"key":"05374","name":"Oberbergischer Kreis","type":"Kreis"},"federalState":{"key":"05","name":"Nordrhein-Westfalen"}},{"name":"Am Lindenbaum","postalCode":"51789","locality":"Lindlar","municipality":{"key":"05374020","name":"Lindlar","type":"Kreisangehörige_Gemeinde"},"district":{"key":"05374","name":"Oberbergischer Kreis","type":"Kreis"},"federalState":{"key":"05","name":"Nordrhein-Westfalen"}},{"name":"Am Lindenkreuz","postalCode":"51789","locality":"Lindlar","municipality":{"key":"05374020","name":"Lindlar","type":"Kreisangehörige_Gemeinde"},"district":{"key":"05374","name":"Oberbergischer Kreis","type":"Kreis"},"federalState":{"key":"05","name":"Nordrhein-Westfalen"}},{"name":"Am Marktplatz","postalCode":"51789","locality":"Lindlar","municipality":{"key":"05374020","name":"Lindlar","type":"Kreisangehörige_Gemeinde"},"district":{"key":"05374","name":"Oberbergischer Kreis","type":"Kreis"},"federalState":{"key":"05","name":"Nordrhein-Westfalen"}},{"name":"Am Mühlenberg","postalCode":"51789","locality":"Lindlar","municipality":{"key":"05374020","name":"Lindlar","type":"Kreisangehörige_Gemeinde"},"district":{"key":"05374","name":"Oberbergischer Kreis","type":"Kreis"},"federalState":{"key":"05","name":"Nordrhein-Westfalen"}},{"name":"Am Mühlenteich","postalCode":"51789","locality":"Lindlar","municipality":{"key":"05374020","name":"Lindlar","type":"Kreisangehörige_Gemeinde"},"district":{"key":"05374","name":"Oberbergischer Kreis","type":"Kreis"},"federalState":{"key":"05","name":"Nordrhein-Westfalen"}},{"name":"Am Paffenberg","postalCode":"51789","locality":"Lindlar","municipality":{"key":"05374020","name":"Lindlar","type":"Kreisangehörige_Gemeinde"},"district":{"key":"05374","name":"Oberbergischer Kreis","type":"Kreis"},"federalState":{"key":"05","name":"Nordrhein-Westfalen"}},{"name":"Am Rosenhof","postalCode":"51789","locality":"Lindlar","municipality":{"key":"05374020","name":"Lindlar","type":"Kreisangehörige_Gemeinde"},"district":{"key":"05374","name":"Oberbergischer Kreis","type":"Kreis"},"federalState":{"key":"05","name":"Nordrhein-Westfalen"}},{"name":"Am Scheelbach","postalCode":"51789","locality":"Lindlar","municipality":{"key":"05374020","name":"Lindlar","type":"Kreisangehörige_Gemeinde"},"district":{"key":"05374","name":"Oberbergischer Kreis","type":"Kreis"},"federalState":{"key":"05","name":"Nordrhein-Westfalen"}},{"name":"Am Schlagbaum","postalCode":"51789","locality":"Lindlar","municipality":{"key":"05374020","name":"Lindlar","type":"Kreisangehörige_Gemeinde"},"district":{"key":"05374","name":"Oberbergischer Kreis","type":"Kreis"},"federalState":{"key":"05","name":"Nordrhein-Westfalen"}},{"name":"Amselweg","postalCode":"51789","locality":"Lindlar","municipality":{"key":"05374020","name":"Lindlar","type":"Kreisangehörige_Gemeinde"},"district":{"key":"05374","name":"Oberbergischer Kreis","type":"Kreis"},"federalState":{"key":"05","name":"Nordrhein-Westfalen"}},{"name":"Am Sonnenhang","postalCode":"51789","locality":"Lindlar","municipality":{"key":"05374020","name":"Lindlar","type":"Kreisangehörige_Gemeinde"},"district":{"key":"05374","name":"Oberbergischer Kreis","type":"Kreis"},"federalState":{"key":"05","name":"Nordrhein-Westfalen"}},{"name":"Am Südhang","postalCode":"51789","locality":"Lindlar","municipality":{"key":"05374020","name":"Lindlar","type":"Kreisangehörige_Gemeinde"},"district":{"key":"05374","name":"Oberbergischer Kreis","type":"Kreis"},"federalState":{"key":"05","name":"Nordrhein-Westfalen"}},{"name":"Am Sülzer Berg","postalCode":"51789","locality":"Lindlar","municipality":{"key":"05374020","name":"Lindlar","type":"Kreisangehörige_Gemeinde"},"district":{"key":"05374","name":"Oberbergischer Kreis","type":"Kreis"},"federalState":{"key":"05","name":"Nordrhein-Westfalen"}},{"name":"Am Wald","postalCode":"51789","locality":"Lindlar","municipality":{"key":"05374020","name":"Lindlar","type":"Kreisangehörige_Gemeinde"},"district":{"key":"05374","name":"Oberbergischer Kreis","type":"Kreis"},"federalState":{"key":"05","name":"Nordrhein-Westfalen"}},{"name":"Am Weiher","postalCode":"51789","locality":"Lindlar","municipality":{"key":"05374020","name":"Lindlar","type":"Kreisangehörige_Gemeinde"},"district":{"key":"05374","name":"Oberbergischer Kreis","type":"Kreis"},"federalState":{"key":"05","name":"Nordrhein-Westfalen"}},{"name":"Am Weilsberg","postalCode":"51789","locality":"Lindlar","municipality":{"key":"05374020","name":"Lindlar","type":"Kreisangehörige_Gemeinde"},"district":{"key":"05374","name":"Oberbergischer Kreis","type":"Kreis"},"federalState":{"key":"05","name":"Nordrhein-Westfalen"}},{"name":"Am Wiedenhof","postalCode":"51789","locality":"Lindlar","municipality":{"key":"05374020","name":"Lindlar","type":"Kreisangehörige_Gemeinde"},"district":{"key":"05374","name":"Oberbergischer Kreis","type":"Kreis"},"federalState":{"key":"05","name":"Nordrhein-Westfalen"}},{"name":"An der Gasse","postalCode":"51789","locality":"Lindlar","municipality":{"key":"05374020","name":"Lindlar","type":"Kreisangehörige_Gemeinde"},"district":{"key":"05374","name":"Oberbergischer Kreis","type":"Kreis"},"federalState":{"key":"05","name":"Nordrhein-Westfalen"}},{"name":"Bachstr.","postalCode":"51789","locality":"Lindlar","municipality":{"key":"05374020","name":"Lindlar","type":"Kreisangehörige_Gemeinde"},"district":{"key":"05374","name":"Oberbergischer Kreis","type":"Kreis"},"federalState":{"key":"05","name":"Nordrhein-Westfalen"}},{"name":"Bachwiese","postalCode":"51789","locality":"Lindlar","municipality":{"key":"05374020","name":"Lindlar","type":"Kreisangehörige_Gemeinde"},"district":{"key":"05374","name":"Oberbergischer Kreis","type":"Kreis"},"federalState":{"key":"05","name":"Nordrhein-Westfalen"}},{"name":"Bahnhofstr.","postalCode":"51789","locality":"Lindlar","municipality":{"key":"05374020","name":"Lindlar","type":"Kreisangehörige_Gemeinde"},"district":{"key":"05374","name":"Oberbergischer Kreis","type":"Kreis"},"federalState":{"key":"05","name":"Nordrhein-Westfalen"}},{"name":"Bahntrassenradweg Sülztalbahn","postalCode":"51789","locality":"Lindlar","municipality":{"key":"05374020","name":"Lindlar","type":"Kreisangehörige_Gemeinde"},"district":{"key":"05374","name":"Oberbergischer Kreis","type":"Kreis"},"federalState":{"key":"05","name":"Nordrhein-Westfalen"}},{"name":"Beethovenstr.","postalCode":"51789","locality":"Lindlar","municipality":{"key":"05374020","name":"Lindlar","type":"Kreisangehörige_Gemeinde"},"district":{"key":"05374","name":"Oberbergischer Kreis","type":"Kreis"},"federalState":{"key":"05","name":"Nordrhein-Westfalen"}},{"name":"Berg","postalCode":"51789","locality":"Lindlar","municipality":{"key":"05374020","name":"Lindlar","type":"Kreisangehörige_Gemeinde"},"district":{"key":"05374","name":"Oberbergischer Kreis","type":"Kreis"},"federalState":{"key":"05","name":"Nordrhein-Westfalen"}},{"name":"Berghäuschenweg","postalCode":"51789","locality":"Lindlar","municipality":{"key":"05374020","name":"Lindlar","type":"Kreisangehörige_Gemeinde"},"district":{"key":"05374","name":"Oberbergischer Kreis","type":"Kreis"},"federalState":{"key":"05","name":"Nordrhein-Westfalen"}},{"name":"Bergstr.","postalCode":"51789","locality":"Lindlar","municipality":{"key":"05374020","name":"Lindlar","type":"Kreisangehörige_Gemeinde"},"district":{"key":"05374","name":"Oberbergischer Kreis","type":"Kreis"},"federalState":{"key":"05","name":"Nordrhein-Westfalen"}},{"name":"Berliner Str.","postalCode":"51789","locality":"Lindlar","municipality":{"key":"05374020","name":"Lindlar","type":"Kreisangehörige_Gemeinde"},"district":{"key":"05374","name":"Oberbergischer Kreis","type":"Kreis"},"federalState":{"key":"05","name":"Nordrhein-Westfalen"}},{"name":"Birkenweg","postalCode":"51789","locality":"Lindlar","municipality":{"key":"05374020","name":"Lindlar","type":"Kreisangehörige_Gemeinde"},"district":{"key":"05374","name":"Oberbergischer Kreis","type":"Kreis"},"federalState":{"key":"05","name":"Nordrhein-Westfalen"}},{"name":"Bismarckstr.","postalCode":"51789","locality":"Lindlar","municipality":{"key":"05374020","name":"Lindlar","type":"Kreisangehörige_Gemeinde"},"district":{"key":"05374","name":"Oberbergischer Kreis","type":"Kreis"},"federalState":{"key":"05","name":"Nordrhein-Westfalen"}},{"name":"Böhl","postalCode":"51789","locality":"Lindlar","municipality":{"key":"05374020","name":"Lindlar","type":"Kreisangehörige_Gemeinde"},"district":{"key":"05374","name":"Oberbergischer Kreis","type":"Kreis"},"federalState":{"key":"05","name":"Nordrhein-Westfalen"}},{"name":"Böhler Str.","postalCode":"51789","locality":"Lindlar","municipality":{"key":"05374020","name":"Lindlar","type":"Kreisangehörige_Gemeinde"},"district":{"key":"05374","name":"Oberbergischer Kreis","type":"Kreis"},"federalState":{"key":"05","name":"Nordrhein-Westfalen"}},{"name":"Bolzenbach","postalCode":"51789","locality":"Lindlar","municipality":{"key":"05374020","name":"Lindlar","type":"Kreisangehörige_Gemeinde"},"district":{"key":"05374","name":"Oberbergischer Kreis","type":"Kreis"},"federalState":{"key":"05","name":"Nordrhein-Westfalen"}},{"name":"Bomerich","postalCode":"51789","locality":"Lindlar","municipality":{"key":"05374020","name":"Lindlar","type":"Kreisangehörige_Gemeinde"},"district":{"key":"05374","name":"Oberbergischer Kreis","type":"Kreis"},"federalState":{"key":"05","name":"Nordrhein-Westfalen"}},{"name":"Bonnersüng","postalCode":"51789","locality":"Lindlar","municipality":{"key":"05374020","name":"Lindlar","type":"Kreisangehörige_Gemeinde"},"district":{"key":"05374","name":"Oberbergischer Kreis","type":"Kreis"},"federalState":{"key":"05","name":"Nordrhein-Westfalen"}},{"name":"Borromäusstr.","postalCode":"51789","locality":"Lindlar","municipality":{"key":"05374020","name":"Lindlar","type":"Kreisangehörige_Gemeinde"},"district":{"key":"05374","name":"Oberbergischer Kreis","type":"Kreis"},"federalState":{"key":"05","name":"Nordrhein-Westfalen"}},{"name":"Brandenburger Str.","postalCode":"51789","locality":"Lindlar","municipality":{"key":"05374020","name":"Lindlar","type":"Kreisangehörige_Gemeinde"},"district":{"key":"05374","name":"Oberbergischer Kreis","type":"Kreis"},"federalState":{"key":"05","name":"Nordrhein-Westfalen"}},{"name":"Breidenbach","postalCode":"51789","locality":"Lindlar","municipality":{"key":"05374020","name":"Lindlar","type":"Kreisangehörige_Gemeinde"},"district":{"key":"05374","name":"Oberbergischer Kreis","type":"Kreis"},"federalState":{"key":"05","name":"Nordrhein-Westfalen"}},{"name":"Brennergasse","postalCode":"51789","locality":"Lindlar","municipality":{"key":"05374020","name":"Lindlar","type":"Kreisangehörige_Gemeinde"},"district":{"key":"05374","name":"Oberbergischer Kreis","type":"Kreis"},"federalState":{"key":"05","name":"Nordrhein-Westfalen"}},{"name":"Breslauer Str.","postalCode":"51789","locality":"Lindlar","municipality":{"key":"05374020","name":"Lindlar","type":"Kreisangehörige_Gemeinde"},"district":{"key":"05374","name":"Oberbergischer Kreis","type":"Kreis"},"federalState":{"key":"05","name":"Nordrhein-Westfalen"}},{"name":"Breun","postalCode":"51789","locality":"Lindlar","municipality":{"key":"05374020","name":"Lindlar","type":"Kreisangehörige_Gemeinde"},"district":{"key":"05374","name":"Oberbergischer Kreis","type":"Kreis"},"federalState":{"key":"05","name":"Nordrhein-Westfalen"}},{"name":"Bruch","postalCode":"51789","locality":"Lindlar","municipality":{"key":"05374020","name":"Lindlar","type":"Kreisangehörige_Gemeinde"},"district":{"key":"05374","name":"Oberbergischer Kreis","type":"Kreis"},"federalState":{"key":"05","name":"Nordrhein-Westfalen"}},{"name":"Brückenstr.","postalCode":"51789","locality":"Lindlar","municipality":{"key":"05374020","name":"Lindlar","type":"Kreisangehörige_Gemeinde"},"district":{"key":"05374","name":"Oberbergischer Kreis","type":"Kreis"},"federalState":{"key":"05","name":"Nordrhein-Westfalen"}},{"name":"Brungerststr.","postalCode":"51789","locality":"Lindlar","municipality":{"key":"05374020","name":"Lindlar","type":"Kreisangehörige_Gemeinde"},"district":{"key":"05374","name":"Oberbergischer Kreis","type":"Kreis"},"federalState":{"key":"05","name":"Nordrhein-Westfalen"}},{"name":"Brunnenweg","postalCode":"51789","locality":"Lindlar","municipality":{"key":"05374020","name":"Lindlar","type":"Kreisangehörige_Gemeinde"},"district":{"key":"05374","name":"Oberbergischer Kreis","type":"Kreis"},"federalState":{"key":"05","name":"Nordrhein-Westfalen"}},{"name":"Buchenweg","postalCode":"51789","locality":"Lindlar","municipality":{"key":"05374020","name":"Lindlar","type":"Kreisangehörige_Gemeinde"},"district":{"key":"05374","name":"Oberbergischer Kreis","type":"Kreis"},"federalState":{"key":"05","name":"Nordrhein-Westfalen"}},{"name":"Buchholz","postalCode":"51789","locality":"Lindlar","municipality":{"key":"05374020","name":"Lindlar","type":"Kreisangehörige_Gemeinde"},"district":{"key":"05374","name":"Oberbergischer Kreis","type":"Kreis"},"federalState":{"key":"05","name":"Nordrhein-Westfalen"}},{"name":"Burghof","postalCode":"51789","locality":"Lindlar","municipality":{"key":"05374020","name":"Lindlar","type":"Kreisangehörige_Gemeinde"},"district":{"key":"05374","name":"Oberbergischer Kreis","type":"Kreis"},"federalState":{"key":"05","name":"Nordrhein-Westfalen"}},{"name":"Buschweg","postalCode":"51789","locality":"Lindlar","municipality":{"key":"05374020","name":"Lindlar","type":"Kreisangehörige_Gemeinde"},"district":{"key":"05374","name":"Oberbergischer Kreis","type":"Kreis"},"federalState":{"key":"05","name":"Nordrhein-Westfalen"}},{"name":"Carl-Haselbeck-Str.","postalCode":"51789","locality":"Lindlar","municipality":{"key":"05374020","name":"Lindlar","type":"Kreisangehörige_Gemeinde"},"district":{"key":"05374","name":"Oberbergischer Kreis","type":"Kreis"},"federalState":{"key":"05","name":"Nordrhein-Westfalen"}},{"name":"Carola-Lob-Weg","postalCode":"51789","locality":"Lindlar","municipality":{"key":"05374020","name":"Lindlar","type":"Kreisangehörige_Gemeinde"},"district":{"key":"05374","name":"Oberbergischer Kreis","type":"Kreis"},"federalState":{"key":"05","name":"Nordrhein-Westfalen"}},{"name":"Corneliusstr.","postalCode":"51789","locality":"Lindlar","municipality":{"key":"05374020","name":"Lindlar","type":"Kreisangehörige_Gemeinde"},"district":{"key":"05374","name":"Oberbergischer Kreis","type":"Kreis"},"federalState":{"key":"05","name":"Nordrhein-Westfalen"}},{"name":"Dachsweg","postalCode":"51789","locality":"Lindlar","municipality":{"key":"05374020","name":"Lindlar","type":"Kreisangehörige_Gemeinde"},"district":{"key":"05374","name":"Oberbergischer Kreis","type":"Kreis"},"federalState":{"key":"05","name":"Nordrhein-Westfalen"}},{"name":"Dassiefen","postalCode":"51789","locality":"Lindlar","municipality":{"key":"05374020","name":"Lindlar","type":"Kreisangehörige_Gemeinde"},"district":{"key":"05374","name":"Oberbergischer Kreis","type":"Kreis"},"federalState":{"key":"05","name":"Nordrhein-Westfalen"}},{"name":"Dillensiefen","postalCode":"51789","locality":"Lindlar","municipality":{"key":"05374020","name":"Lindlar","type":"Kreisangehörige_Gemeinde"},"district":{"key":"05374","name":"Oberbergischer Kreis","type":"Kreis"},"federalState":{"key":"05","name":"Nordrhein-Westfalen"}},{"name":"Dominikus-Böhm-Str.","postalCode":"51789","locality":"Lindlar","municipality":{"key":"05374020","name":"Lindlar","type":"Kreisangehörige_Gemeinde"},"district":{"key":"05374","name":"Oberbergischer Kreis","type":"Kreis"},"federalState":{"key":"05","name":"Nordrhein-Westfalen"}},{"name":"Dominoweg","postalCode":"51789","locality":"Lindlar","municipality":{"key":"05374020","name":"Lindlar","type":"Kreisangehörige_Gemeinde"},"district":{"key":"05374","name":"Oberbergischer Kreis","type":"Kreis"},"federalState":{"key":"05","name":"Nordrhein-Westfalen"}},{"name":"Donauweg","postalCode":"51789","locality":"Lindlar","municipality":{"key":"05374020","name":"Lindlar","type":"Kreisangehörige_Gemeinde"},"district":{"key":"05374","name":"Oberbergischer Kreis","type":"Kreis"},"federalState":{"key":"05","name":"Nordrhein-Westfalen"}},{"name":"Dörler Str.","postalCode":"51789","locality":"Lindlar","municipality":{"key":"05374020","name":"Lindlar","type":"Kreisangehörige_Gemeinde"},"district":{"key":"05374","name":"Oberbergischer Kreis","type":"Kreis"},"federalState":{"key":"05","name":"Nordrhein-Westfalen"}},{"name":"Dornröschenweg","postalCode":"51789","locality":"Lindlar","municipality":{"key":"05374020","name":"Lindlar","type":"Kreisangehörige_Gemeinde"},"district":{"key":"05374","name":"Oberbergischer Kreis","type":"Kreis"},"federalState":{"key":"05","name":"Nordrhein-Westfalen"}},{"name":"Dr.-Meinerzhagen-Str.","postalCode":"51789","locality":"Lindlar","municipality":{"key":"05374020","name":"Lindlar","type":"Kreisangehörige_Gemeinde"},"district":{"key":"05374","name":"Oberbergischer Kreis","type":"Kreis"},"federalState":{"key":"05","name":"Nordrhein-Westfalen"}},{"name":"Drosselweg","postalCode":"51789","locality":"Lindlar","municipality":{"key":"05374020","name":"Lindlar","type":"Kreisangehörige_Gemeinde"},"district":{"key":"05374","name":"Oberbergischer Kreis","type":"Kreis"},"federalState":{"key":"05","name":"Nordrhein-Westfalen"}},{"name":"Droste-Hülshoff-Str.","postalCode":"51789","locality":"Lindlar","municipality":{"key":"05374020","name":"Lindlar","type":"Kreisangehörige_Gemeinde"},"district":{"key":"05374","name":"Oberbergischer Kreis","type":"Kreis"},"federalState":{"key":"05","name":"Nordrhein-Westfalen"}},{"name":"Druckerweg","postalCode":"51789","locality":"Lindlar","municipality":{"key":"05374020","name":"Lindlar","type":"Kreisangehörige_Gemeinde"},"district":{"key":"05374","name":"Oberbergischer Kreis","type":"Kreis"},"federalState":{"key":"05","name":"Nordrhein-Westfalen"}},{"name":"Ebbinghausen","postalCode":"51789","locality":"Lindlar","municipality":{"key":"05374020","name":"Lindlar","type":"Kreisangehörige_Gemeinde"},"district":{"key":"05374","name":"Oberbergischer Kreis","type":"Kreis"},"federalState":{"key":"05","name":"Nordrhein-Westfalen"}},{"name":"Eibacher Hammer","postalCode":"51789","locality":"Lindlar","municipality":{"key":"05374020","name":"Lindlar","type":"Kreisangehörige_Gemeinde"},"district":{"key":"05374","name":"Oberbergischer Kreis","type":"Kreis"},"federalState":{"key":"05","name":"Nordrhein-Westfalen"}},{"name":"Eibachstr.","postalCode":"51789","locality":"Lindlar","municipality":{"key":"05374020","name":"Lindlar","type":"Kreisangehörige_Gemeinde"},"district":{"key":"05374","name":"Oberbergischer Kreis","type":"Kreis"},"federalState":{"key":"05","name":"Nordrhein-Westfalen"}},{"name":"Eibenweg","postalCode":"51789","locality":"Lindlar","municipality":{"key":"05374020","name":"Lindlar","type":"Kreisangehörige_Gemeinde"},"district":{"key":"05374","name":"Oberbergischer Kreis","type":"Kreis"},"federalState":{"key":"05","name":"Nordrhein-Westfalen"}},{"name":"Eichendorffstr.","postalCode":"51789","locality":"Lindlar","municipality":{"key":"05374020","name":"Lindlar","type":"Kreisangehörige_Gemeinde"},"district":{"key":"05374","name":"Oberbergischer Kreis","type":"Kreis"},"federalState":{"key":"05","name":"Nordrhein-Westfalen"}},{"name":"Eichenhofstr.","postalCode":"51789","locality":"Lindlar","municipality":{"key":"05374020","name":"Lindlar","type":"Kreisangehörige_Gemeinde"},"district":{"key":"05374","name":"Oberbergischer Kreis","type":"Kreis"},"federalState":{"key":"05","name":"Nordrhein-Westfalen"}},{"name":"Eichenweg","postalCode":"51789","locality":"Lindlar","municipality":{"key":"05374020","name":"Lindlar","type":"Kreisangehörige_Gemeinde"},"district":{"key":"05374","name":"Oberbergischer Kreis","type":"Kreis"},"federalState":{"key":"05","name":"Nordrhein-Westfalen"}},{"name":"Elbeweg","postalCode":"51789","locality":"Lindlar","municipality":{"key":"05374020","name":"Lindlar","type":"Kreisangehörige_Gemeinde"},"district":{"key":"05374","name":"Oberbergischer Kreis","type":"Kreis"},"federalState":{"key":"05","name":"Nordrhein-Westfalen"}},{"name":"Elsterweg","postalCode":"51789","locality":"Lindlar","municipality":{"key":"05374020","name":"Lindlar","type":"Kreisangehörige_Gemeinde"},"district":{"key":"05374","name":"Oberbergischer Kreis","type":"Kreis"},"federalState":{"key":"05","name":"Nordrhein-Westfalen"}},{"name":"Emsweg","postalCode":"51789","locality":"Lindlar","municipality":{"key":"05374020","name":"Lindlar","type":"Kreisangehörige_Gemeinde"},"district":{"key":"05374","name":"Oberbergischer Kreis","type":"Kreis"},"federalState":{"key":"05","name":"Nordrhein-Westfalen"}},{"name":"Engelbertusstr.","postalCode":"51789","locality":"Lindlar","municipality":{"key":"05374020","name":"Lindlar","type":"Kreisangehörige_Gemeinde"},"district":{"key":"05374","name":"Oberbergischer Kreis","type":"Kreis"},"federalState":{"key":"05","name":"Nordrhein-Westfalen"}},{"name":"Engelskirchener Str.","postalCode":"51789","locality":"Lindlar","municipality":{"key":"05374020","name":"Lindlar","type":"Kreisangehörige_Gemeinde"},"district":{"key":"05374","name":"Oberbergischer Kreis","type":"Kreis"},"federalState":{"key":"05","name":"Nordrhein-Westfalen"}},{"name":"Ente","postalCode":"51789","locality":"Lindlar","municipality":{"key":"05374020","name":"Lindlar","type":"Kreisangehörige_Gemeinde"},"district":{"key":"05374","name":"Oberbergischer Kreis","type":"Kreis"},"federalState":{"key":"05","name":"Nordrhein-Westfalen"}},{"name":"Eremitage","postalCode":"51789","locality":"Lindlar","municipality":{"key":"05374020","name":"Lindlar","type":"Kreisangehörige_Gemeinde"},"district":{"key":"05374","name":"Oberbergischer Kreis","type":"Kreis"},"federalState":{"key":"05","name":"Nordrhein-Westfalen"}},{"name":"Eschenweg","postalCode":"51789","locality":"Lindlar","municipality":{"key":"05374020","name":"Lindlar","type":"Kreisangehörige_Gemeinde"},"district":{"key":"05374","name":"Oberbergischer Kreis","type":"Kreis"},"federalState":{"key":"05","name":"Nordrhein-Westfalen"}},{"name":"Fahn","postalCode":"51789","locality":"Lindlar","municipality":{"key":"05374020","name":"Lindlar","type":"Kreisangehörige_Gemeinde"},"district":{"key":"05374","name":"Oberbergischer Kreis","type":"Kreis"},"federalState":{"key":"05","name":"Nordrhein-Westfalen"}},{"name":"Feilenhauerstr.","postalCode":"51789","locality":"Lindlar","municipality":{"key":"05374020","name":"Lindlar","type":"Kreisangehörige_Gemeinde"},"district":{"key":"05374","name":"Oberbergischer Kreis","type":"Kreis"},"federalState":{"key":"05","name":"Nordrhein-Westfalen"}},{"name":"Fenker Heideweg","postalCode":"51789","locality":"Lindlar","municipality":{"key":"05374020","name":"Lindlar","type":"Kreisangehörige_Gemeinde"},"district":{"key":"05374","name":"Oberbergischer Kreis","type":"Kreis"},"federalState":{"key":"05","name":"Nordrhein-Westfalen"}},{"name":"Fichtenweg","postalCode":"51789","locality":"Lindlar","municipality":{"key":"05374020","name":"Lindlar","type":"Kreisangehörige_Gemeinde"},"district":{"key":"05374","name":"Oberbergischer Kreis","type":"Kreis"},"federalState":{"key":"05","name":"Nordrhein-Westfalen"}},{"name":"Finkenweg","postalCode":"51789","locality":"Lindlar","municipality":{"key":"05374020","name":"Lindlar","type":"Kreisangehörige_Gemeinde"},"district":{"key":"05374","name":"Oberbergischer Kreis","type":"Kreis"},"federalState":{"key":"05","name":"Nordrhein-Westfalen"}},{"name":"Frangenberg","postalCode":"51789","locality":"Lindlar","municipality":{"key":"05374020","name":"Lindlar","type":"Kreisangehörige_Gemeinde"},"district":{"key":"05374","name":"Oberbergischer Kreis","type":"Kreis"},"federalState":{"key":"05","name":"Nordrhein-Westfalen"}},{"name":"Frankenberg","postalCode":"51789","locality":"Lindlar","municipality":{"key":"05374020","name":"Lindlar","type":"Kreisangehörige_Gemeinde"},"district":{"key":"05374","name":"Oberbergischer Kreis","type":"Kreis"},"federalState":{"key":"05","name":"Nordrhein-Westfalen"}},{"name":"Franz-Martin-Str.","postalCode":"51789","locality":"Lindlar","municipality":{"key":"05374020","name":"Lindlar","type":"Kreisangehörige_Gemeinde"},"district":{"key":"05374","name":"Oberbergischer Kreis","type":"Kreis"},"federalState":{"key":"05","name":"Nordrhein-Westfalen"}},{"name":"Friedhofstr.","postalCode":"51789","locality":"Lindlar","municipality":{"key":"05374020","name":"Lindlar","type":"Kreisangehörige_Gemeinde"},"district":{"key":"05374","name":"Oberbergischer Kreis","type":"Kreis"},"federalState":{"key":"05","name":"Nordrhein-Westfalen"}},{"name":"Frielinghausen","postalCode":"51789","locality":"Lindlar","municipality":{"key":"05374020","name":"Lindlar","type":"Kreisangehörige_Gemeinde"},"district":{"key":"05374","name":"Oberbergischer Kreis","type":"Kreis"},"federalState":{"key":"05","name":"Nordrhein-Westfalen"}},{"name":"Frielingsdorfer Str.","postalCode":"51789","locality":"Lindlar","municipality":{"key":"05374020","name":"Lindlar","type":"Kreisangehörige_Gemeinde"},"district":{"key":"05374","name":"Oberbergischer Kreis","type":"Kreis"},"federalState":{"key":"05","name":"Nordrhein-Westfalen"}},{"name":"Gartenstr.","postalCode":"51789","locality":"Lindlar","municipality":{"key":"05374020","name":"Lindlar","type":"Kreisangehörige_Gemeinde"},"district":{"key":"05374","name":"Oberbergischer Kreis","type":"Kreis"},"federalState":{"key":"05","name":"Nordrhein-Westfalen"}},{"name":"Gartenweg","postalCode":"51789","locality":"Lindlar","municipality":{"key":"05374020","name":"Lindlar","type":"Kreisangehörige_Gemeinde"},"district":{"key":"05374","name":"Oberbergischer Kreis","type":"Kreis"},"federalState":{"key":"05","name":"Nordrhein-Westfalen"}},{"name":"Georghausen","postalCode":"51789","locality":"Lindlar","municipality":{"key":"05374020","name":"Lindlar","type":"Kreisangehörige_Gemeinde"},"district":{"key":"05374","name":"Oberbergischer Kreis","type":"Kreis"},"federalState":{"key":"05","name":"Nordrhein-Westfalen"}},{"name":"Gerberstr.","postalCode":"51789","locality":"Lindlar","municipality":{"key":"05374020","name":"Lindlar","type":"Kreisangehörige_Gemeinde"},"district":{"key":"05374","name":"Oberbergischer Kreis","type":"Kreis"},"federalState":{"key":"05","name":"Nordrhein-Westfalen"}},{"name":"Ginsterweg","postalCode":"51789","locality":"Lindlar","municipality":{"key":"05374020","name":"Lindlar","type":"Kreisangehörige_Gemeinde"},"district":{"key":"05374","name":"Oberbergischer Kreis","type":"Kreis"},"federalState":{"key":"05","name":"Nordrhein-Westfalen"}},{"name":"Goethestr.","postalCode":"51789","locality":"Lindlar","municipality":{"key":"05374020","name":"Lindlar","type":"Kreisangehörige_Gemeinde"},"district":{"key":"05374","name":"Oberbergischer Kreis","type":"Kreis"},"federalState":{"key":"05","name":"Nordrhein-Westfalen"}},{"name":"Hammen","postalCode":"51789","locality":"Lindlar","municipality":{"key":"05374020","name":"Lindlar","type":"Kreisangehörige_Gemeinde"},"district":{"key":"05374","name":"Oberbergischer Kreis","type":"Kreis"},"federalState":{"key":"05","name":"Nordrhein-Westfalen"}},{"name":"Hammerschmidt Allee","postalCode":"51789","locality":"Lindlar","municipality":{"key":"05374020","name":"Lindlar","type":"Kreisangehörige_Gemeinde"},"district":{"key":"05374","name":"Oberbergischer Kreis","type":"Kreis"},"federalState":{"key":"05","name":"Nordrhein-Westfalen"}},{"name":"Hasenweg","postalCode":"51789","locality":"Lindlar","municipality":{"key":"05374020","name":"Lindlar","type":"Kreisangehörige_Gemeinde"},"district":{"key":"05374","name":"Oberbergischer Kreis","type":"Kreis"},"federalState":{"key":"05","name":"Nordrhein-Westfalen"}},{"name":"Hauptstr.","postalCode":"51789","locality":"Lindlar","municipality":{"key":"05374020","name":"Lindlar","type":"Kreisangehörige_Gemeinde"},"district":{"key":"05374","name":"Oberbergischer Kreis","type":"Kreis"},"federalState":{"key":"05","name":"Nordrhein-Westfalen"}},{"name":"Hausgrund","postalCode":"51789","locality":"Lindlar","municipality":{"key":"05374020","name":"Lindlar","type":"Kreisangehörige_Gemeinde"},"district":{"key":"05374","name":"Oberbergischer Kreis","type":"Kreis"},"federalState":{"key":"05","name":"Nordrhein-Westfalen"}},{"name":"Heckenweg","postalCode":"51789","locality":"Lindlar","municipality":{"key":"05374020","name":"Lindlar","type":"Kreisangehörige_Gemeinde"},"district":{"key":"05374","name":"Oberbergischer Kreis","type":"Kreis"},"federalState":{"key":"05","name":"Nordrhein-Westfalen"}},{"name":"Heibach","postalCode":"51789","locality":"Lindlar","municipality":{"key":"05374020","name":"Lindlar","type":"Kreisangehörige_Gemeinde"},"district":{"key":"05374","name":"Oberbergischer Kreis","type":"Kreis"},"federalState":{"key":"05","name":"Nordrhein-Westfalen"}},{"name":"Heidplätzchen","postalCode":"51789","locality":"Lindlar","municipality":{"key":"05374020","name":"Lindlar","type":"Kreisangehörige_Gemeinde"},"district":{"key":"05374","name":"Oberbergischer Kreis","type":"Kreis"},"federalState":{"key":"05","name":"Nordrhein-Westfalen"}},{"name":"Heiligenhoven","postalCode":"51789","locality":"Lindlar","municipality":{"key":"05374020","name":"Lindlar","type":"Kreisangehörige_Gemeinde"},"district":{"key":"05374","name":"Oberbergischer Kreis","type":"Kreis"},"federalState":{"key":"05","name":"Nordrhein-Westfalen"}},{"name":"Heinrich-Heine-Str.","postalCode":"51789","locality":"Lindlar","municipality":{"key":"05374020","name":"Lindlar","type":"Kreisangehörige_Gemeinde"},"district":{"key":"05374","name":"Oberbergischer Kreis","type":"Kreis"},"federalState":{"key":"05","name":"Nordrhein-Westfalen"}},{"name":"Hellinger Str.","postalCode":"51789","locality":"Lindlar","municipality":{"key":"05374020","name":"Lindlar","type":"Kreisangehörige_Gemeinde"},"district":{"key":"05374","name":"Oberbergischer Kreis","type":"Kreis"},"federalState":{"key":"05","name":"Nordrhein-Westfalen"}},{"name":"Herbergsweg","postalCode":"51789","locality":"Lindlar","municipality":{"key":"05374020","name":"Lindlar","type":"Kreisangehörige_Gemeinde"},"district":{"key":"05374","name":"Oberbergischer Kreis","type":"Kreis"},"federalState":{"key":"05","name":"Nordrhein-Westfalen"}},{"name":"Hochstr.","postalCode":"51789","locality":"Lindlar","municipality":{"key":"05374020","name":"Lindlar","type":"Kreisangehörige_Gemeinde"},"district":{"key":"05374","name":"Oberbergischer Kreis","type":"Kreis"},"federalState":{"key":"05","name":"Nordrhein-Westfalen"}},{"name":"Hoffstadt","postalCode":"51789","locality":"Lindlar","municipality":{"key":"05374020","name":"Lindlar","type":"Kreisangehörige_Gemeinde"},"district":{"key":"05374","name":"Oberbergischer Kreis","type":"Kreis"},"federalState":{"key":"05","name":"Nordrhein-Westfalen"}},{"name":"Hohbusch","postalCode":"51789","locality":"Lindlar","municipality":{"key":"05374020","name":"Lindlar","type":"Kreisangehörige_Gemeinde"},"district":{"key":"05374","name":"Oberbergischer Kreis","type":"Kreis"},"federalState":{"key":"05","name":"Nordrhein-Westfalen"}},{"name":"Höhenweg","postalCode":"51789","locality":"Lindlar","municipality":{"key":"05374020","name":"Lindlar","type":"Kreisangehörige_Gemeinde"},"district":{"key":"05374","name":"Oberbergischer Kreis","type":"Kreis"},"federalState":{"key":"05","name":"Nordrhein-Westfalen"}},{"name":"Holl","postalCode":"51789","locality":"Lindlar","municipality":{"key":"05374020","name":"Lindlar","type":"Kreisangehörige_Gemeinde"},"district":{"key":"05374","name":"Oberbergischer Kreis","type":"Kreis"},"federalState":{"key":"05","name":"Nordrhein-Westfalen"}},{"name":"Holz","postalCode":"51789","locality":"Lindlar","municipality":{"key":"05374020","name":"Lindlar","type":"Kreisangehörige_Gemeinde"},"district":{"key":"05374","name":"Oberbergischer Kreis","type":"Kreis"},"federalState":{"key":"05","name":"Nordrhein-Westfalen"}},{"name":"Holzer Str.","postalCode":"51789","locality":"Lindlar","municipality":{"key":"05374020","name":"Lindlar","type":"Kreisangehörige_Gemeinde"},"district":{"key":"05374","name":"Oberbergischer Kreis","type":"Kreis"},"federalState":{"key":"05","name":"Nordrhein-Westfalen"}},{"name":"Homburger Weg","postalCode":"51789","locality":"Lindlar","municipality":{"key":"05374020","name":"Lindlar","type":"Kreisangehörige_Gemeinde"},"district":{"key":"05374","name":"Oberbergischer Kreis","type":"Kreis"},"federalState":{"key":"05","name":"Nordrhein-Westfalen"}},{"name":"Hommericher Str.","postalCode":"51789","locality":"Lindlar","municipality":{"key":"05374020","name":"Lindlar","type":"Kreisangehörige_Gemeinde"},"district":{"key":"05374","name":"Oberbergischer Kreis","type":"Kreis"},"federalState":{"key":"05","name":"Nordrhein-Westfalen"}},{"name":"Hönighausen","postalCode":"51789","locality":"Lindlar","municipality":{"key":"05374020","name":"Lindlar","type":"Kreisangehörige_Gemeinde"},"district":{"key":"05374","name":"Oberbergischer Kreis","type":"Kreis"},"federalState":{"key":"05","name":"Nordrhein-Westfalen"}},{"name":"Horpestr.","postalCode":"51789","locality":"Lindlar","municipality":{"key":"05374020","name":"Lindlar","type":"Kreisangehörige_Gemeinde"},"district":{"key":"05374","name":"Oberbergischer Kreis","type":"Kreis"},"federalState":{"key":"05","name":"Nordrhein-Westfalen"}},{"name":"Im alten Krom","postalCode":"51789","locality":"Lindlar","municipality":{"key":"05374020","name":"Lindlar","type":"Kreisangehörige_Gemeinde"},"district":{"key":"05374","name":"Oberbergischer Kreis","type":"Kreis"},"federalState":{"key":"05","name":"Nordrhein-Westfalen"}},{"name":"Im Berggarten","postalCode":"51789","locality":"Lindlar","municipality":{"key":"05374020","name":"Lindlar","type":"Kreisangehörige_Gemeinde"},"district":{"key":"05374","name":"Oberbergischer Kreis","type":"Kreis"},"federalState":{"key":"05","name":"Nordrhein-Westfalen"}},{"name":"Im Blumengarten","postalCode":"51789","locality":"Lindlar","municipality":{"key":"05374020","name":"Lindlar","type":"Kreisangehörige_Gemeinde"},"district":{"key":"05374","name":"Oberbergischer Kreis","type":"Kreis"},"federalState":{"key":"05","name":"Nordrhein-Westfalen"}},{"name":"Im Dellbruch","postalCode":"51789","locality":"Lindlar","municipality":{"key":"05374020","name":"Lindlar","type":"Kreisangehörige_Gemeinde"},"district":{"key":"05374","name":"Oberbergischer Kreis","type":"Kreis"},"federalState":{"key":"05","name":"Nordrhein-Westfalen"}},{"name":"Im Feldchens Garten","postalCode":"51789","locality":"Lindlar","municipality":{"key":"05374020","name":"Lindlar","type":"Kreisangehörige_Gemeinde"},"district":{"key":"05374","name":"Oberbergischer Kreis","type":"Kreis"},"federalState":{"key":"05","name":"Nordrhein-Westfalen"}},{"name":"Im Grashof","postalCode":"51789","locality":"Lindlar","municipality":{"key":"05374020","name":"Lindlar","type":"Kreisangehörige_Gemeinde"},"district":{"key":"05374","name":"Oberbergischer Kreis","type":"Kreis"},"federalState":{"key":"05","name":"Nordrhein-Westfalen"}},{"name":"Im Großen Garten","postalCode":"51789","locality":"Lindlar","municipality":{"key":"05374020","name":"Lindlar","type":"Kreisangehörige_Gemeinde"},"district":{"key":"05374","name":"Oberbergischer Kreis","type":"Kreis"},"federalState":{"key":"05","name":"Nordrhein-Westfalen"}},{"name":"Im Hassel","postalCode":"51789","locality":"Lindlar","municipality":{"key":"05374020","name":"Lindlar","type":"Kreisangehörige_Gemeinde"},"district":{"key":"05374","name":"Oberbergischer Kreis","type":"Kreis"},"federalState":{"key":"05","name":"Nordrhein-Westfalen"}},{"name":"Im Holler Feld","postalCode":"51789","locality":"Lindlar","municipality":{"key":"05374020","name":"Lindlar","type":"Kreisangehörige_Gemeinde"},"district":{"key":"05374","name":"Oberbergischer Kreis","type":"Kreis"},"federalState":{"key":"05","name":"Nordrhein-Westfalen"}},{"name":"Im Höngel","postalCode":"51789","locality":"Lindlar","municipality":{"key":"05374020","name":"Lindlar","type":"Kreisangehörige_Gemeinde"},"district":{"key":"05374","name":"Oberbergischer Kreis","type":"Kreis"},"federalState":{"key":"05","name":"Nordrhein-Westfalen"}},{"name":"Im Kammerfeld","postalCode":"51789","locality":"Lindlar","municipality":{"key":"05374020","name":"Lindlar","type":"Kreisangehörige_Gemeinde"},"district":{"key":"05374","name":"Oberbergischer Kreis","type":"Kreis"},"federalState":{"key":"05","name":"Nordrhein-Westfalen"}},{"name":"Im Kisselsgarten","postalCode":"51789","locality":"Lindlar","municipality":{"key":"05374020","name":"Lindlar","type":"Kreisangehörige_Gemeinde"},"district":{"key":"05374","name":"Oberbergischer Kreis","type":"Kreis"},"federalState":{"key":"05","name":"Nordrhein-Westfalen"}},{"name":"Im Kromsfeld","postalCode":"51789","locality":"Lindlar","municipality":{"key":"05374020","name":"Lindlar","type":"Kreisangehörige_Gemeinde"},"district":{"key":"05374","name":"Oberbergischer Kreis","type":"Kreis"},"federalState":{"key":"05","name":"Nordrhein-Westfalen"}},{"name":"Im Löhfeld","postalCode":"51789","locality":"Lindlar","municipality":{"key":"05374020","name":"Lindlar","type":"Kreisangehörige_Gemeinde"},"district":{"key":"05374","name":"Oberbergischer Kreis","type":"Kreis"},"federalState":{"key":"05","name":"Nordrhein-Westfalen"}},{"name":"Im Obsthof","postalCode":"51789","locality":"Lindlar","municipality":{"key":"05374020","name":"Lindlar","type":"Kreisangehörige_Gemeinde"},"district":{"key":"05374","name":"Oberbergischer Kreis","type":"Kreis"},"federalState":{"key":"05","name":"Nordrhein-Westfalen"}},{"name":"Im Otto-Lob-Winkel","postalCode":"51789","locality":"Lindlar","municipality":{"key":"05374020","name":"Lindlar","type":"Kreisangehörige_Gemeinde"},"district":{"key":"05374","name":"Oberbergischer Kreis","type":"Kreis"},"federalState":{"key":"05","name":"Nordrhein-Westfalen"}},{"name":"Im Paradies","postalCode":"51789","locality":"Lindlar","municipality":{"key":"05374020","name":"Lindlar","type":"Kreisangehörige_Gemeinde"},"district":{"key":"05374","name":"Oberbergischer Kreis","type":"Kreis"},"federalState":{"key":"05","name":"Nordrhein-Westfalen"}},{"name":"Im Pohlergarten","postalCode":"51789","locality":"Lindlar","municipality":{"key":"05374020","name":"Lindlar","type":"Kreisangehörige_Gemeinde"},"district":{"key":"05374","name":"Oberbergischer Kreis","type":"Kreis"},"federalState":{"key":"05","name":"Nordrhein-Westfalen"}},{"name":"Im Potthof","postalCode":"51789","locality":"Lindlar","municipality":{"key":"05374020","name":"Lindlar","type":"Kreisangehörige_Gemeinde"},"district":{"key":"05374","name":"Oberbergischer Kreis","type":"Kreis"},"federalState":{"key":"05","name":"Nordrhein-Westfalen"}},{"name":"Im Rosengarten","postalCode":"51789","locality":"Lindlar","municipality":{"key":"05374020","name":"Lindlar","type":"Kreisangehörige_Gemeinde"},"district":{"key":"05374","name":"Oberbergischer Kreis","type":"Kreis"},"federalState":{"key":"05","name":"Nordrhein-Westfalen"}},{"name":"Im Scheurengarten","postalCode":"51789","locality":"Lindlar","municipality":{"key":"05374020","name":"Lindlar","type":"Kreisangehörige_Gemeinde"},"district":{"key":"05374","name":"Oberbergischer Kreis","type":"Kreis"},"federalState":{"key":"05","name":"Nordrhein-Westfalen"}},{"name":"Im Sonnengarten","postalCode":"51789","locality":"Lindlar","municipality":{"key":"05374020","name":"Lindlar","type":"Kreisangehörige_Gemeinde"},"district":{"key":"05374","name":"Oberbergischer Kreis","type":"Kreis"},"federalState":{"key":"05","name":"Nordrhein-Westfalen"}},{"name":"Im Waldwinkel","postalCode":"51789","locality":"Lindlar","municipality":{"key":"05374020","name":"Lindlar","type":"Kreisangehörige_Gemeinde"},"district":{"key":"05374","name":"Oberbergischer Kreis","type":"Kreis"},"federalState":{"key":"05","name":"Nordrhein-Westfalen"}},{"name":"Im Wiesengrund","postalCode":"51789","locality":"Lindlar","municipality":{"key":"05374020","name":"Lindlar","type":"Kreisangehörige_Gemeinde"},"district":{"key":"05374","name":"Oberbergischer Kreis","type":"Kreis"},"federalState":{"key":"05","name":"Nordrhein-Westfalen"}},{"name":"Im Winkel","postalCode":"51789","locality":"Lindlar","municipality":{"key":"05374020","name":"Lindlar","type":"Kreisangehörige_Gemeinde"},"district":{"key":"05374","name":"Oberbergischer Kreis","type":"Kreis"},"federalState":{"key":"05","name":"Nordrhein-Westfalen"}},{"name":"In der Brüche","postalCode":"51789","locality":"Lindlar","municipality":{"key":"05374020","name":"Lindlar","type":"Kreisangehörige_Gemeinde"},"district":{"key":"05374","name":"Oberbergischer Kreis","type":"Kreis"},"federalState":{"key":"05","name":"Nordrhein-Westfalen"}},{"name":"In der Fuhr","postalCode":"51789","locality":"Lindlar","municipality":{"key":"05374020","name":"Lindlar","type":"Kreisangehörige_Gemeinde"},"district":{"key":"05374","name":"Oberbergischer Kreis","type":"Kreis"},"federalState":{"key":"05","name":"Nordrhein-Westfalen"}},{"name":"In der Korbich","postalCode":"51789","locality":"Lindlar","municipality":{"key":"05374020","name":"Lindlar","type":"Kreisangehörige_Gemeinde"},"district":{"key":"05374","name":"Oberbergischer Kreis","type":"Kreis"},"federalState":{"key":"05","name":"Nordrhein-Westfalen"}},{"name":"In der Pleng","postalCode":"51789","locality":"Lindlar","municipality":{"key":"05374020","name":"Lindlar","type":"Kreisangehörige_Gemeinde"},"district":{"key":"05374","name":"Oberbergischer Kreis","type":"Kreis"},"federalState":{"key":"05","name":"Nordrhein-Westfalen"}},{"name":"Jan-Wellem-Str.","postalCode":"51789","locality":"Lindlar","municipality":{"key":"05374020","name":"Lindlar","type":"Kreisangehörige_Gemeinde"},"district":{"key":"05374","name":"Oberbergischer Kreis","type":"Kreis"},"federalState":{"key":"05","name":"Nordrhein-Westfalen"}},{"name":"Johann-Breidenassel-Str.","postalCode":"51789","locality":"Lindlar","municipality":{"key":"05374020","name":"Lindlar","type":"Kreisangehörige_Gemeinde"},"district":{"key":"05374","name":"Oberbergischer Kreis","type":"Kreis"},"federalState":{"key":"05","name":"Nordrhein-Westfalen"}},{"name":"Johannes-Fischer-Weg","postalCode":"51789","locality":"Lindlar","municipality":{"key":"05374020","name":"Lindlar","type":"Kreisangehörige_Gemeinde"},"district":{"key":"05374","name":"Oberbergischer Kreis","type":"Kreis"},"federalState":{"key":"05","name":"Nordrhein-Westfalen"}},{"name":"Josef-Külheim-Weg","postalCode":"51789","locality":"Lindlar","municipality":{"key":"05374020","name":"Lindlar","type":"Kreisangehörige_Gemeinde"},"district":{"key":"05374","name":"Oberbergischer Kreis","type":"Kreis"},"federalState":{"key":"05","name":"Nordrhein-Westfalen"}},{"name":"Jubilateweg","postalCode":"51789","locality":"Lindlar","municipality":{"key":"05374020","name":"Lindlar","type":"Kreisangehörige_Gemeinde"},"district":{"key":"05374","name":"Oberbergischer Kreis","type":"Kreis"},"federalState":{"key":"05","name":"Nordrhein-Westfalen"}},{"name":"Jugendherberge","postalCode":"51789","locality":"Lindlar","municipality":{"key":"05374020","name":"Lindlar","type":"Kreisangehörige_Gemeinde"},"district":{"key":"05374","name":"Oberbergischer Kreis","type":"Kreis"},"federalState":{"key":"05","name":"Nordrhein-Westfalen"}},{"name":"Kaiserau","postalCode":"51789","locality":"Lindlar","municipality":{"key":"05374020","name":"Lindlar","type":"Kreisangehörige_Gemeinde"},"district":{"key":"05374","name":"Oberbergischer Kreis","type":"Kreis"},"federalState":{"key":"05","name":"Nordrhein-Westfalen"}},{"name":"Kalkofen","postalCode":"51789","locality":"Lindlar","municipality":{"key":"05374020","name":"Lindlar","type":"Kreisangehörige_Gemeinde"},"district":{"key":"05374","name":"Oberbergischer Kreis","type":"Kreis"},"federalState":{"key":"05","name":"Nordrhein-Westfalen"}},{"name":"Kaltenborn","postalCode":"51789","locality":"Lindlar","municipality":{"key":"05374020","name":"Lindlar","type":"Kreisangehörige_Gemeinde"},"district":{"key":"05374","name":"Oberbergischer Kreis","type":"Kreis"},"federalState":{"key":"05","name":"Nordrhein-Westfalen"}},{"name":"Kamper Str.","postalCode":"51789","locality":"Lindlar","municipality":{"key":"05374020","name":"Lindlar","type":"Kreisangehörige_Gemeinde"},"district":{"key":"05374","name":"Oberbergischer Kreis","type":"Kreis"},"federalState":{"key":"05","name":"Nordrhein-Westfalen"}},{"name":"Kantstr.","postalCode":"51789","locality":"Lindlar","municipality":{"key":"05374020","name":"Lindlar","type":"Kreisangehörige_Gemeinde"},"district":{"key":"05374","name":"Oberbergischer Kreis","type":"Kreis"},"federalState":{"key":"05","name":"Nordrhein-Westfalen"}},{"name":"Kapellenweg","postalCode":"51789","locality":"Lindlar","municipality":{"key":"05374020","name":"Lindlar","type":"Kreisangehörige_Gemeinde"},"district":{"key":"05374","name":"Oberbergischer Kreis","type":"Kreis"},"federalState":{"key":"05","name":"Nordrhein-Westfalen"}},{"name":"Kastanienweg","postalCode":"51789","locality":"Lindlar","municipality":{"key":"05374020","name":"Lindlar","type":"Kreisangehörige_Gemeinde"},"district":{"key":"05374","name":"Oberbergischer Kreis","type":"Kreis"},"federalState":{"key":"05","name":"Nordrhein-Westfalen"}},{"name":"Käthe-Kollwitz-Str.","postalCode":"51789","locality":"Lindlar","municipality":{"key":"05374020","name":"Lindlar","type":"Kreisangehörige_Gemeinde"},"district":{"key":"05374","name":"Oberbergischer Kreis","type":"Kreis"},"federalState":{"key":"05","name":"Nordrhein-Westfalen"}},{"name":"Kemmerich","postalCode":"51789","locality":"Lindlar","municipality":{"key":"05374020","name":"Lindlar","type":"Kreisangehörige_Gemeinde"},"district":{"key":"05374","name":"Oberbergischer Kreis","type":"Kreis"},"federalState":{"key":"05","name":"Nordrhein-Westfalen"}},{"name":"Kiefernweg","postalCode":"51789","locality":"Lindlar","municipality":{"key":"05374020","name":"Lindlar","type":"Kreisangehörige_Gemeinde"},"district":{"key":"05374","name":"Oberbergischer Kreis","type":"Kreis"},"federalState":{"key":"05","name":"Nordrhein-Westfalen"}},{"name":"Kirchplatz","postalCode":"51789","locality":"Lindlar","municipality":{"key":"05374020","name":"Lindlar","type":"Kreisangehörige_Gemeinde"},"district":{"key":"05374","name":"Oberbergischer Kreis","type":"Kreis"},"federalState":{"key":"05","name":"Nordrhein-Westfalen"}},{"name":"Kirchstr.","postalCode":"51789","locality":"Lindlar","municipality":{"key":"05374020","name":"Lindlar","type":"Kreisangehörige_Gemeinde"},"district":{"key":"05374","name":"Oberbergischer Kreis","type":"Kreis"},"federalState":{"key":"05","name":"Nordrhein-Westfalen"}},{"name":"Kirchweg","postalCode":"51789","locality":"Lindlar","municipality":{"key":"05374020","name":"Lindlar","type":"Kreisangehörige_Gemeinde"},"district":{"key":"05374","name":"Oberbergischer Kreis","type":"Kreis"},"federalState":{"key":"05","name":"Nordrhein-Westfalen"}},{"name":"Kirschbäumchen","postalCode":"51789","locality":"Lindlar","municipality":{"key":"05374020","name":"Lindlar","type":"Kreisangehörige_Gemeinde"},"district":{"key":"05374","name":"Oberbergischer Kreis","type":"Kreis"},"federalState":{"key":"05","name":"Nordrhein-Westfalen"}},{"name":"Klauser Str.","postalCode":"51789","locality":"Lindlar","municipality":{"key":"05374020","name":"Lindlar","type":"Kreisangehörige_Gemeinde"},"district":{"key":"05374","name":"Oberbergischer Kreis","type":"Kreis"},"federalState":{"key":"05","name":"Nordrhein-Westfalen"}},{"name":"Kleuelshöhe","postalCode":"51789","locality":"Lindlar","municipality":{"key":"05374020","name":"Lindlar","type":"Kreisangehörige_Gemeinde"},"district":{"key":"05374","name":"Oberbergischer Kreis","type":"Kreis"},"federalState":{"key":"05","name":"Nordrhein-Westfalen"}},{"name":"Knappenweg","postalCode":"51789","locality":"Lindlar","municipality":{"key":"05374020","name":"Lindlar","type":"Kreisangehörige_Gemeinde"},"district":{"key":"05374","name":"Oberbergischer Kreis","type":"Kreis"},"federalState":{"key":"05","name":"Nordrhein-Westfalen"}},{"name":"Kölner Str.","postalCode":"51789","locality":"Lindlar","municipality":{"key":"05374020","name":"Lindlar","type":"Kreisangehörige_Gemeinde"},"district":{"key":"05374","name":"Oberbergischer Kreis","type":"Kreis"},"federalState":{"key":"05","name":"Nordrhein-Westfalen"}},{"name":"Königsberger Str.","postalCode":"51789","locality":"Lindlar","municipality":{"key":"05374020","name":"Lindlar","type":"Kreisangehörige_Gemeinde"},"district":{"key":"05374","name":"Oberbergischer Kreis","type":"Kreis"},"federalState":{"key":"05","name":"Nordrhein-Westfalen"}},{"name":"Korbstr.","postalCode":"51789","locality":"Lindlar","municipality":{"key":"05374020","name":"Lindlar","type":"Kreisangehörige_Gemeinde"},"district":{"key":"05374","name":"Oberbergischer Kreis","type":"Kreis"},"federalState":{"key":"05","name":"Nordrhein-Westfalen"}},{"name":"Köttingen","postalCode":"51789","locality":"Lindlar","municipality":{"key":"05374020","name":"Lindlar","type":"Kreisangehörige_Gemeinde"},"district":{"key":"05374","name":"Oberbergischer Kreis","type":"Kreis"},"federalState":{"key":"05","name":"Nordrhein-Westfalen"}},{"name":"Krähenhof","postalCode":"51789","locality":"Lindlar","municipality":{"key":"05374020","name":"Lindlar","type":"Kreisangehörige_Gemeinde"},"district":{"key":"05374","name":"Oberbergischer Kreis","type":"Kreis"},"federalState":{"key":"05","name":"Nordrhein-Westfalen"}},{"name":"Krähsiefen","postalCode":"51789","locality":"Lindlar","municipality":{"key":"05374020","name":"Lindlar","type":"Kreisangehörige_Gemeinde"},"district":{"key":"05374","name":"Oberbergischer Kreis","type":"Kreis"},"federalState":{"key":"05","name":"Nordrhein-Westfalen"}},{"name":"Kurfürstenstr.","postalCode":"51789","locality":"Lindlar","municipality":{"key":"05374020","name":"Lindlar","type":"Kreisangehörige_Gemeinde"},"district":{"key":"05374","name":"Oberbergischer Kreis","type":"Kreis"},"federalState":{"key":"05","name":"Nordrhein-Westfalen"}},{"name":"Kurtenbach","postalCode":"51789","locality":"Lindlar","municipality":{"key":"05374020","name":"Lindlar","type":"Kreisangehörige_Gemeinde"},"district":{"key":"05374","name":"Oberbergischer Kreis","type":"Kreis"},"federalState":{"key":"05","name":"Nordrhein-Westfalen"}},{"name":"Kutschweg","postalCode":"51789","locality":"Lindlar","municipality":{"key":"05374020","name":"Lindlar","type":"Kreisangehörige_Gemeinde"},"district":{"key":"05374","name":"Oberbergischer Kreis","type":"Kreis"},"federalState":{"key":"05","name":"Nordrhein-Westfalen"}},{"name":"Laurentiusstr.","postalCode":"51789","locality":"Lindlar","municipality":{"key":"05374020","name":"Lindlar","type":"Kreisangehörige_Gemeinde"},"district":{"key":"05374","name":"Oberbergischer Kreis","type":"Kreis"},"federalState":{"key":"05","name":"Nordrhein-Westfalen"}},{"name":"Leienhöher Weg","postalCode":"51789","locality":"Lindlar","municipality":{"key":"05374020","name":"Lindlar","type":"Kreisangehörige_Gemeinde"},"district":{"key":"05374","name":"Oberbergischer Kreis","type":"Kreis"},"federalState":{"key":"05","name":"Nordrhein-Westfalen"}},{"name":"Lennefer Mühle","postalCode":"51789","locality":"Lindlar","municipality":{"key":"05374020","name":"Lindlar","type":"Kreisangehörige_Gemeinde"},"district":{"key":"05374","name":"Oberbergischer Kreis","type":"Kreis"},"federalState":{"key":"05","name":"Nordrhein-Westfalen"}},{"name":"Lerchenweg","postalCode":"51789","locality":"Lindlar","municipality":{"key":"05374020","name":"Lindlar","type":"Kreisangehörige_Gemeinde"},"district":{"key":"05374","name":"Oberbergischer Kreis","type":"Kreis"},"federalState":{"key":"05","name":"Nordrhein-Westfalen"}},{"name":"Lessingweg","postalCode":"51789","locality":"Lindlar","municipality":{"key":"05374020","name":"Lindlar","type":"Kreisangehörige_Gemeinde"},"district":{"key":"05374","name":"Oberbergischer Kreis","type":"Kreis"},"federalState":{"key":"05","name":"Nordrhein-Westfalen"}},{"name":"Lindenallee","postalCode":"51789","locality":"Lindlar","municipality":{"key":"05374020","name":"Lindlar","type":"Kreisangehörige_Gemeinde"},"district":{"key":"05374","name":"Oberbergischer Kreis","type":"Kreis"},"federalState":{"key":"05","name":"Nordrhein-Westfalen"}},{"name":"Lindenfeld","postalCode":"51789","locality":"Lindlar","municipality":{"key":"05374020","name":"Lindlar","type":"Kreisangehörige_Gemeinde"},"district":{"key":"05374","name":"Oberbergischer Kreis","type":"Kreis"},"federalState":{"key":"05","name":"Nordrhein-Westfalen"}},{"name":"Linder Str.","postalCode":"51789","locality":"Lindlar","municipality":{"key":"05374020","name":"Lindlar","type":"Kreisangehörige_Gemeinde"},"district":{"key":"05374","name":"Oberbergischer Kreis","type":"Kreis"},"federalState":{"key":"05","name":"Nordrhein-Westfalen"}},{"name":"Lindlarer Str.","postalCode":"51789","locality":"Lindlar","municipality":{"key":"05374020","name":"Lindlar","type":"Kreisangehörige_Gemeinde"},"district":{"key":"05374","name":"Oberbergischer Kreis","type":"Kreis"},"federalState":{"key":"05","name":"Nordrhein-Westfalen"}},{"name":"Lingenbach","postalCode":"51789","locality":"Lindlar","municipality":{"key":"05374020","name":"Lindlar","type":"Kreisangehörige_Gemeinde"},"district":{"key":"05374","name":"Oberbergischer Kreis","type":"Kreis"},"federalState":{"key":"05","name":"Nordrhein-Westfalen"}},{"name":"Lingenbacher Weg","postalCode":"51789","locality":"Lindlar","municipality":{"key":"05374020","name":"Lindlar","type":"Kreisangehörige_Gemeinde"},"district":{"key":"05374","name":"Oberbergischer Kreis","type":"Kreis"},"federalState":{"key":"05","name":"Nordrhein-Westfalen"}},{"name":"Lippeweg","postalCode":"51789","locality":"Lindlar","municipality":{"key":"05374020","name":"Lindlar","type":"Kreisangehörige_Gemeinde"},"district":{"key":"05374","name":"Oberbergischer Kreis","type":"Kreis"},"federalState":{"key":"05","name":"Nordrhein-Westfalen"}},{"name":"Löhsüng","postalCode":"51789","locality":"Lindlar","municipality":{"key":"05374020","name":"Lindlar","type":"Kreisangehörige_Gemeinde"},"district":{"key":"05374","name":"Oberbergischer Kreis","type":"Kreis"},"federalState":{"key":"05","name":"Nordrhein-Westfalen"}},{"name":"Loxsiefen","postalCode":"51789","locality":"Lindlar","municipality":{"key":"05374020","name":"Lindlar","type":"Kreisangehörige_Gemeinde"},"district":{"key":"05374","name":"Oberbergischer Kreis","type":"Kreis"},"federalState":{"key":"05","name":"Nordrhein-Westfalen"}},{"name":"Loxsteeg","postalCode":"51789","locality":"Lindlar","municipality":{"key":"05374020","name":"Lindlar","type":"Kreisangehörige_Gemeinde"},"district":{"key":"05374","name":"Oberbergischer Kreis","type":"Kreis"},"federalState":{"key":"05","name":"Nordrhein-Westfalen"}},{"name":"Ludwig-Jahn-Str.","postalCode":"51789","locality":"Lindlar","municipality":{"key":"05374020","name":"Lindlar","type":"Kreisangehörige_Gemeinde"},"district":{"key":"05374","name":"Oberbergischer Kreis","type":"Kreis"},"federalState":{"key":"05","name":"Nordrhein-Westfalen"}},{"name":"Luisenstr.","postalCode":"51789","locality":"Lindlar","municipality":{"key":"05374020","name":"Lindlar","type":"Kreisangehörige_Gemeinde"},"district":{"key":"05374","name":"Oberbergischer Kreis","type":"Kreis"},"federalState":{"key":"05","name":"Nordrhein-Westfalen"}},{"name":"Luttersiefen","postalCode":"51789","locality":"Lindlar","municipality":{"key":"05374020","name":"Lindlar","type":"Kreisangehörige_Gemeinde"},"district":{"key":"05374","name":"Oberbergischer Kreis","type":"Kreis"},"federalState":{"key":"05","name":"Nordrhein-Westfalen"}},{"name":"LVR-Freilichtmuseum Lindlar","postalCode":"51789","locality":"Lindlar","municipality":{"key":"05374020","name":"Lindlar","type":"Kreisangehörige_Gemeinde"},"district":{"key":"05374","name":"Oberbergischer Kreis","type":"Kreis"},"federalState":{"key":"05","name":"Nordrhein-Westfalen"}},{"name":"Mainweg","postalCode":"51789","locality":"Lindlar","municipality":{"key":"05374020","name":"Lindlar","type":"Kreisangehörige_Gemeinde"},"district":{"key":"05374","name":"Oberbergischer Kreis","type":"Kreis"},"federalState":{"key":"05","name":"Nordrhein-Westfalen"}},{"name":"Märker Stahlweg","postalCode":"51789","locality":"Lindlar","municipality":{"key":"05374020","name":"Lindlar","type":"Kreisangehörige_Gemeinde"},"district":{"key":"05374","name":"Oberbergischer Kreis","type":"Kreis"},"federalState":{"key":"05","name":"Nordrhein-Westfalen"}},{"name":"Marktgasse","postalCode":"51789","locality":"Lindlar","municipality":{"key":"05374020","name":"Lindlar","type":"Kreisangehörige_Gemeinde"},"district":{"key":"05374","name":"Oberbergischer Kreis","type":"Kreis"},"federalState":{"key":"05","name":"Nordrhein-Westfalen"}},{"name":"Meisenweg","postalCode":"51789","locality":"Lindlar","municipality":{"key":"05374020","name":"Lindlar","type":"Kreisangehörige_Gemeinde"},"district":{"key":"05374","name":"Oberbergischer Kreis","type":"Kreis"},"federalState":{"key":"05","name":"Nordrhein-Westfalen"}},{"name":"Merlenbach","postalCode":"51789","locality":"Lindlar","municipality":{"key":"05374020","name":"Lindlar","type":"Kreisangehörige_Gemeinde"},"district":{"key":"05374","name":"Oberbergischer Kreis","type":"Kreis"},"federalState":{"key":"05","name":"Nordrhein-Westfalen"}},{"name":"Montanusstr.","postalCode":"51789","locality":"Lindlar","municipality":{"key":"05374020","name":"Lindlar","type":"Kreisangehörige_Gemeinde"},"district":{"key":"05374","name":"Oberbergischer Kreis","type":"Kreis"},"federalState":{"key":"05","name":"Nordrhein-Westfalen"}},{"name":"Moselweg","postalCode":"51789","locality":"Lindlar","municipality":{"key":"05374020","name":"Lindlar","type":"Kreisangehörige_Gemeinde"},"district":{"key":"05374","name":"Oberbergischer Kreis","type":"Kreis"},"federalState":{"key":"05","name":"Nordrhein-Westfalen"}},{"name":"Mozartstr.","postalCode":"51789","locality":"Lindlar","municipality":{"key":"05374020","name":"Lindlar","type":"Kreisangehörige_Gemeinde"},"district":{"key":"05374","name":"Oberbergischer Kreis","type":"Kreis"},"federalState":{"key":"05","name":"Nordrhein-Westfalen"}},{"name":"Mühlenseite","postalCode":"51789","locality":"Lindlar","municipality":{"key":"05374020","name":"Lindlar","type":"Kreisangehörige_Gemeinde"},"district":{"key":"05374","name":"Oberbergischer Kreis","type":"Kreis"},"federalState":{"key":"05","name":"Nordrhein-Westfalen"}},{"name":"Mühlenweg","postalCode":"51789","locality":"Lindlar","municipality":{"key":"05374020","name":"Lindlar","type":"Kreisangehörige_Gemeinde"},"district":{"key":"05374","name":"Oberbergischer Kreis","type":"Kreis"},"federalState":{"key":"05","name":"Nordrhein-Westfalen"}},{"name":"Müllemich","postalCode":"51789","locality":"Lindlar","municipality":{"key":"05374020","name":"Lindlar","type":"Kreisangehörige_Gemeinde"},"district":{"key":"05374","name":"Oberbergischer Kreis","type":"Kreis"},"federalState":{"key":"05","name":"Nordrhein-Westfalen"}},{"name":"Müllerhof","postalCode":"51789","locality":"Lindlar","municipality":{"key":"05374020","name":"Lindlar","type":"Kreisangehörige_Gemeinde"},"district":{"key":"05374","name":"Oberbergischer Kreis","type":"Kreis"},"federalState":{"key":"05","name":"Nordrhein-Westfalen"}},{"name":"Müllersommer","postalCode":"51789","locality":"Lindlar","municipality":{"key":"05374020","name":"Lindlar","type":"Kreisangehörige_Gemeinde"},"district":{"key":"05374","name":"Oberbergischer Kreis","type":"Kreis"},"federalState":{"key":"05","name":"Nordrhein-Westfalen"}},{"name":"Nachtigallenweg","postalCode":"51789","locality":"Lindlar","municipality":{"key":"05374020","name":"Lindlar","type":"Kreisangehörige_Gemeinde"},"district":{"key":"05374","name":"Oberbergischer Kreis","type":"Kreis"},"federalState":{"key":"05","name":"Nordrhein-Westfalen"}},{"name":"Naheweg","postalCode":"51789","locality":"Lindlar","municipality":{"key":"05374020","name":"Lindlar","type":"Kreisangehörige_Gemeinde"},"district":{"key":"05374","name":"Oberbergischer Kreis","type":"Kreis"},"federalState":{"key":"05","name":"Nordrhein-Westfalen"}},{"name":"Neue Landstr.","postalCode":"51789","locality":"Lindlar","municipality":{"key":"05374020","name":"Lindlar","type":"Kreisangehörige_Gemeinde"},"district":{"key":"05374","name":"Oberbergischer Kreis","type":"Kreis"},"federalState":{"key":"05","name":"Nordrhein-Westfalen"}},{"name":"Neuenbergstr.","postalCode":"51789","locality":"Lindlar","municipality":{"key":"05374020","name":"Lindlar","type":"Kreisangehörige_Gemeinde"},"district":{"key":"05374","name":"Oberbergischer Kreis","type":"Kreis"},"federalState":{"key":"05","name":"Nordrhein-Westfalen"}},{"name":"Neuenfelder Str.","postalCode":"51789","locality":"Lindlar","municipality":{"key":"05374020","name":"Lindlar","type":"Kreisangehörige_Gemeinde"},"district":{"key":"05374","name":"Oberbergischer Kreis","type":"Kreis"},"federalState":{"key":"05","name":"Nordrhein-Westfalen"}},{"name":"Niederhabbach","postalCode":"51789","locality":"Lindlar","municipality":{"key":"05374020","name":"Lindlar","type":"Kreisangehörige_Gemeinde"},"district":{"key":"05374","name":"Oberbergischer Kreis","type":"Kreis"},"federalState":{"key":"05","name":"Nordrhein-Westfalen"}},{"name":"Nord-West-Allee","postalCode":"51789","locality":"Lindlar","municipality":{"key":"05374020","name":"Lindlar","type":"Kreisangehörige_Gemeinde"},"district":{"key":"05374","name":"Oberbergischer Kreis","type":"Kreis"},"federalState":{"key":"05","name":"Nordrhein-Westfalen"}},{"name":"Oberbergscheid","postalCode":"51789","locality":"Lindlar","municipality":{"key":"05374020","name":"Lindlar","type":"Kreisangehörige_Gemeinde"},"district":{"key":"05374","name":"Oberbergischer Kreis","type":"Kreis"},"federalState":{"key":"05","name":"Nordrhein-Westfalen"}},{"name":"Oberbüschem","postalCode":"51789","locality":"Lindlar","municipality":{"key":"05374020","name":"Lindlar","type":"Kreisangehörige_Gemeinde"},"district":{"key":"05374","name":"Oberbergischer Kreis","type":"Kreis"},"federalState":{"key":"05","name":"Nordrhein-Westfalen"}},{"name":"Oberer Kampacker","postalCode":"51789","locality":"Lindlar","municipality":{"key":"05374020","name":"Lindlar","type":"Kreisangehörige_Gemeinde"},"district":{"key":"05374","name":"Oberbergischer Kreis","type":"Kreis"},"federalState":{"key":"05","name":"Nordrhein-Westfalen"}},{"name":"Oberkotten","postalCode":"51789","locality":"Lindlar","municipality":{"key":"05374020","name":"Lindlar","type":"Kreisangehörige_Gemeinde"},"district":{"key":"05374","name":"Oberbergischer Kreis","type":"Kreis"},"federalState":{"key":"05","name":"Nordrhein-Westfalen"}},{"name":"Oberleppe","postalCode":"51789","locality":"Lindlar","municipality":{"key":"05374020","name":"Lindlar","type":"Kreisangehörige_Gemeinde"},"district":{"key":"05374","name":"Oberbergischer Kreis","type":"Kreis"},"federalState":{"key":"05","name":"Nordrhein-Westfalen"}},{"name":"Obersülze","postalCode":"51789","locality":"Lindlar","municipality":{"key":"05374020","name":"Lindlar","type":"Kreisangehörige_Gemeinde"},"district":{"key":"05374","name":"Oberbergischer Kreis","type":"Kreis"},"federalState":{"key":"05","name":"Nordrhein-Westfalen"}},{"name":"Ohl","postalCode":"51789","locality":"Lindlar","municipality":{"key":"05374020","name":"Lindlar","type":"Kreisangehörige_Gemeinde"},"district":{"key":"05374","name":"Oberbergischer Kreis","type":"Kreis"},"federalState":{"key":"05","name":"Nordrhein-Westfalen"}},{"name":"Ommerbornstr.","postalCode":"51789","locality":"Lindlar","municipality":{"key":"05374020","name":"Lindlar","type":"Kreisangehörige_Gemeinde"},"district":{"key":"05374","name":"Oberbergischer Kreis","type":"Kreis"},"federalState":{"key":"05","name":"Nordrhein-Westfalen"}},{"name":"Ossietzkystr.","postalCode":"51789","locality":"Lindlar","municipality":{"key":"05374020","name":"Lindlar","type":"Kreisangehörige_Gemeinde"},"district":{"key":"05374","name":"Oberbergischer Kreis","type":"Kreis"},"federalState":{"key":"05","name":"Nordrhein-Westfalen"}},{"name":"Pappelweg","postalCode":"51789","locality":"Lindlar","municipality":{"key":"05374020","name":"Lindlar","type":"Kreisangehörige_Gemeinde"},"district":{"key":"05374","name":"Oberbergischer Kreis","type":"Kreis"},"federalState":{"key":"05","name":"Nordrhein-Westfalen"}},{"name":"Pastor-Schneider-Weg","postalCode":"51789","locality":"Lindlar","municipality":{"key":"05374020","name":"Lindlar","type":"Kreisangehörige_Gemeinde"},"district":{"key":"05374","name":"Oberbergischer Kreis","type":"Kreis"},"federalState":{"key":"05","name":"Nordrhein-Westfalen"}},{"name":"Paul-Schneider-Str.","postalCode":"51789","locality":"Lindlar","municipality":{"key":"05374020","name":"Lindlar","type":"Kreisangehörige_Gemeinde"},"district":{"key":"05374","name":"Oberbergischer Kreis","type":"Kreis"},"federalState":{"key":"05","name":"Nordrhein-Westfalen"}},{"name":"Pöhler Weg","postalCode":"51789","locality":"Lindlar","municipality":{"key":"05374020","name":"Lindlar","type":"Kreisangehörige_Gemeinde"},"district":{"key":"05374","name":"Oberbergischer Kreis","type":"Kreis"},"federalState":{"key":"05","name":"Nordrhein-Westfalen"}},{"name":"Pollender Str.","postalCode":"51789","locality":"Lindlar","municipality":{"key":"05374020","name":"Lindlar","type":"Kreisangehörige_Gemeinde"},"district":{"key":"05374","name":"Oberbergischer Kreis","type":"Kreis"},"federalState":{"key":"05","name":"Nordrhein-Westfalen"}},{"name":"Pollerhofstr.","postalCode":"51789","locality":"Lindlar","municipality":{"key":"05374020","name":"Lindlar","type":"Kreisangehörige_Gemeinde"},"district":{"key":"05374","name":"Oberbergischer Kreis","type":"Kreis"},"federalState":{"key":"05","name":"Nordrhein-Westfalen"}},{"name":"Ponyweg","postalCode":"51789","locality":"Lindlar","municipality":{"key":"05374020","name":"Lindlar","type":"Kreisangehörige_Gemeinde"},"district":{"key":"05374","name":"Oberbergischer Kreis","type":"Kreis"},"federalState":{"key":"05","name":"Nordrhein-Westfalen"}},{"name":"Postweg","postalCode":"51789","locality":"Lindlar","municipality":{"key":"05374020","name":"Lindlar","type":"Kreisangehörige_Gemeinde"},"district":{"key":"05374","name":"Oberbergischer Kreis","type":"Kreis"},"federalState":{"key":"05","name":"Nordrhein-Westfalen"}},{"name":"Quabach","postalCode":"51789","locality":"Lindlar","municipality":{"key":"05374020","name":"Lindlar","type":"Kreisangehörige_Gemeinde"},"district":{"key":"05374","name":"Oberbergischer Kreis","type":"Kreis"},"federalState":{"key":"05","name":"Nordrhein-Westfalen"}},{"name":"Radeckweg","postalCode":"51789","locality":"Lindlar","municipality":{"key":"05374020","name":"Lindlar","type":"Kreisangehörige_Gemeinde"},"district":{"key":"05374","name":"Oberbergischer Kreis","type":"Kreis"},"federalState":{"key":"05","name":"Nordrhein-Westfalen"}},{"name":"Rapunzelweg","postalCode":"51789","locality":"Lindlar","municipality":{"key":"05374020","name":"Lindlar","type":"Kreisangehörige_Gemeinde"},"district":{"key":"05374","name":"Oberbergischer Kreis","type":"Kreis"},"federalState":{"key":"05","name":"Nordrhein-Westfalen"}},{"name":"Reichenhain","postalCode":"51789","locality":"Lindlar","municipality":{"key":"05374020","name":"Lindlar","type":"Kreisangehörige_Gemeinde"},"district":{"key":"05374","name":"Oberbergischer Kreis","type":"Kreis"},"federalState":{"key":"05","name":"Nordrhein-Westfalen"}},{"name":"Remshagener Str.","postalCode":"51789","locality":"Lindlar","municipality":{"key":"05374020","name":"Lindlar","type":"Kreisangehörige_Gemeinde"},"district":{"key":"05374","name":"Oberbergischer Kreis","type":"Kreis"},"federalState":{"key":"05","name":"Nordrhein-Westfalen"}},{"name":"Reudenbach","postalCode":"51789","locality":"Lindlar","municipality":{"key":"05374020","name":"Lindlar","type":"Kreisangehörige_Gemeinde"},"district":{"key":"05374","name":"Oberbergischer Kreis","type":"Kreis"},"federalState":{"key":"05","name":"Nordrhein-Westfalen"}},{"name":"Rheinstr.","postalCode":"51789","locality":"Lindlar","municipality":{"key":"05374020","name":"Lindlar","type":"Kreisangehörige_Gemeinde"},"district":{"key":"05374","name":"Oberbergischer Kreis","type":"Kreis"},"federalState":{"key":"05","name":"Nordrhein-Westfalen"}},{"name":"Ritterbusch","postalCode":"51789","locality":"Lindlar","municipality":{"key":"05374020","name":"Lindlar","type":"Kreisangehörige_Gemeinde"},"district":{"key":"05374","name":"Oberbergischer Kreis","type":"Kreis"},"federalState":{"key":"05","name":"Nordrhein-Westfalen"}},{"name":"Robert-Koch-Str.","postalCode":"51789","locality":"Lindlar","municipality":{"key":"05374020","name":"Lindlar","type":"Kreisangehörige_Gemeinde"},"district":{"key":"05374","name":"Oberbergischer Kreis","type":"Kreis"},"federalState":{"key":"05","name":"Nordrhein-Westfalen"}},{"name":"Roderwiese","postalCode":"51789","locality":"Lindlar","municipality":{"key":"05374020","name":"Lindlar","type":"Kreisangehörige_Gemeinde"},"district":{"key":"05374","name":"Oberbergischer Kreis","type":"Kreis"},"federalState":{"key":"05","name":"Nordrhein-Westfalen"}},{"name":"Römerweg","postalCode":"51789","locality":"Lindlar","municipality":{"key":"05374020","name":"Lindlar","type":"Kreisangehörige_Gemeinde"},"district":{"key":"05374","name":"Oberbergischer Kreis","type":"Kreis"},"federalState":{"key":"05","name":"Nordrhein-Westfalen"}},{"name":"Rommersberger Weg","postalCode":"51789","locality":"Lindlar","municipality":{"key":"05374020","name":"Lindlar","type":"Kreisangehörige_Gemeinde"},"district":{"key":"05374","name":"Oberbergischer Kreis","type":"Kreis"},"federalState":{"key":"05","name":"Nordrhein-Westfalen"}},{"name":"Röntgenstr.","postalCode":"51789","locality":"Lindlar","municipality":{"key":"05374020","name":"Lindlar","type":"Kreisangehörige_Gemeinde"},"district":{"key":"05374","name":"Oberbergischer Kreis","type":"Kreis"},"federalState":{"key":"05","name":"Nordrhein-Westfalen"}},{"name":"Rosenhügel","postalCode":"51789","locality":"Lindlar","municipality":{"key":"05374020","name":"Lindlar","type":"Kreisangehörige_Gemeinde"},"district":{"key":"05374","name":"Oberbergischer Kreis","type":"Kreis"},"federalState":{"key":"05","name":"Nordrhein-Westfalen"}},{"name":"Rosenweg","postalCode":"51789","locality":"Lindlar","municipality":{"key":"05374020","name":"Lindlar","type":"Kreisangehörige_Gemeinde"},"district":{"key":"05374","name":"Oberbergischer Kreis","type":"Kreis"},"federalState":{"key":"05","name":"Nordrhein-Westfalen"}},{"name":"Rotdornweg","postalCode":"51789","locality":"Lindlar","municipality":{"key":"05374020","name":"Lindlar","type":"Kreisangehörige_Gemeinde"},"district":{"key":"05374","name":"Oberbergischer Kreis","type":"Kreis"},"federalState":{"key":"05","name":"Nordrhein-Westfalen"}},{"name":"Roteichenweg","postalCode":"51789","locality":"Lindlar","municipality":{"key":"05374020","name":"Lindlar","type":"Kreisangehörige_Gemeinde"},"district":{"key":"05374","name":"Oberbergischer Kreis","type":"Kreis"},"federalState":{"key":"05","name":"Nordrhein-Westfalen"}},{"name":"Rotkäppchenweg","postalCode":"51789","locality":"Lindlar","municipality":{"key":"05374020","name":"Lindlar","type":"Kreisangehörige_Gemeinde"},"district":{"key":"05374","name":"Oberbergischer Kreis","type":"Kreis"},"federalState":{"key":"05","name":"Nordrhein-Westfalen"}},{"name":"Rotkehlchenweg","postalCode":"51789","locality":"Lindlar","municipality":{"key":"05374020","name":"Lindlar","type":"Kreisangehörige_Gemeinde"},"district":{"key":"05374","name":"Oberbergischer Kreis","type":"Kreis"},"federalState":{"key":"05","name":"Nordrhein-Westfalen"}},{"name":"Rübezahlweg","postalCode":"51789","locality":"Lindlar","municipality":{"key":"05374020","name":"Lindlar","type":"Kreisangehörige_Gemeinde"},"district":{"key":"05374","name":"Oberbergischer Kreis","type":"Kreis"},"federalState":{"key":"05","name":"Nordrhein-Westfalen"}},{"name":"Ruhrweg","postalCode":"51789","locality":"Lindlar","municipality":{"key":"05374020","name":"Lindlar","type":"Kreisangehörige_Gemeinde"},"district":{"key":"05374","name":"Oberbergischer Kreis","type":"Kreis"},"federalState":{"key":"05","name":"Nordrhein-Westfalen"}},{"name":"Rundweg","postalCode":"51789","locality":"Lindlar","municipality":{"key":"05374020","name":"Lindlar","type":"Kreisangehörige_Gemeinde"},"district":{"key":"05374","name":"Oberbergischer Kreis","type":"Kreis"},"federalState":{"key":"05","name":"Nordrhein-Westfalen"}},{"name":"Sankt-Apollinaris-Weg","postalCode":"51789","locality":"Lindlar","municipality":{"key":"05374020","name":"Lindlar","type":"Kreisangehörige_Gemeinde"},"district":{"key":"05374","name":"Oberbergischer Kreis","type":"Kreis"},"federalState":{"key":"05","name":"Nordrhein-Westfalen"}},{"name":"Sattlerweg","postalCode":"51789","locality":"Lindlar","municipality":{"key":"05374020","name":"Lindlar","type":"Kreisangehörige_Gemeinde"},"district":{"key":"05374","name":"Oberbergischer Kreis","type":"Kreis"},"federalState":{"key":"05","name":"Nordrhein-Westfalen"}},{"name":"Sauermannweg","postalCode":"51789","locality":"Lindlar","municipality":{"key":"05374020","name":"Lindlar","type":"Kreisangehörige_Gemeinde"},"district":{"key":"05374","name":"Oberbergischer Kreis","type":"Kreis"},"federalState":{"key":"05","name":"Nordrhein-Westfalen"}},{"name":"Schätzmühle","postalCode":"51789","locality":"Lindlar","municipality":{"key":"05374020","name":"Lindlar","type":"Kreisangehörige_Gemeinde"},"district":{"key":"05374","name":"Oberbergischer Kreis","type":"Kreis"},"federalState":{"key":"05","name":"Nordrhein-Westfalen"}},{"name":"Scheeler Mühle","postalCode":"51789","locality":"Lindlar","municipality":{"key":"05374020","name":"Lindlar","type":"Kreisangehörige_Gemeinde"},"district":{"key":"05374","name":"Oberbergischer Kreis","type":"Kreis"},"federalState":{"key":"05","name":"Nordrhein-Westfalen"}},{"name":"Scheller","postalCode":"51789","locality":"Lindlar","municipality":{"key":"05374020","name":"Lindlar","type":"Kreisangehörige_Gemeinde"},"district":{"key":"05374","name":"Oberbergischer Kreis","type":"Kreis"},"federalState":{"key":"05","name":"Nordrhein-Westfalen"}},{"name":"Scheurenhof","postalCode":"51789","locality":"Lindlar","municipality":{"key":"05374020","name":"Lindlar","type":"Kreisangehörige_Gemeinde"},"district":{"key":"05374","name":"Oberbergischer Kreis","type":"Kreis"},"federalState":{"key":"05","name":"Nordrhein-Westfalen"}},{"name":"Schiefbahn","postalCode":"51789","locality":"Lindlar","municipality":{"key":"05374020","name":"Lindlar","type":"Kreisangehörige_Gemeinde"},"district":{"key":"05374","name":"Oberbergischer Kreis","type":"Kreis"},"federalState":{"key":"05","name":"Nordrhein-Westfalen"}},{"name":"Schillerstr.","postalCode":"51789","locality":"Lindlar","municipality":{"key":"05374020","name":"Lindlar","type":"Kreisangehörige_Gemeinde"},"district":{"key":"05374","name":"Oberbergischer Kreis","type":"Kreis"},"federalState":{"key":"05","name":"Nordrhein-Westfalen"}},{"name":"Schlosserstr.","postalCode":"51789","locality":"Lindlar","municipality":{"key":"05374020","name":"Lindlar","type":"Kreisangehörige_Gemeinde"},"district":{"key":"05374","name":"Oberbergischer Kreis","type":"Kreis"},"federalState":{"key":"05","name":"Nordrhein-Westfalen"}},{"name":"Schmiedeweg","postalCode":"51789","locality":"Lindlar","municipality":{"key":"05374020","name":"Lindlar","type":"Kreisangehörige_Gemeinde"},"district":{"key":"05374","name":"Oberbergischer Kreis","type":"Kreis"},"federalState":{"key":"05","name":"Nordrhein-Westfalen"}},{"name":"Schneewittchenweg","postalCode":"51789","locality":"Lindlar","municipality":{"key":"05374020","name":"Lindlar","type":"Kreisangehörige_Gemeinde"},"district":{"key":"05374","name":"Oberbergischer Kreis","type":"Kreis"},"federalState":{"key":"05","name":"Nordrhein-Westfalen"}},{"name":"Schönenborn","postalCode":"51789","locality":"Lindlar","municipality":{"key":"05374020","name":"Lindlar","type":"Kreisangehörige_Gemeinde"},"district":{"key":"05374","name":"Oberbergischer Kreis","type":"Kreis"},"federalState":{"key":"05","name":"Nordrhein-Westfalen"}},{"name":"Schönenborner Weg","postalCode":"51789","locality":"Lindlar","municipality":{"key":"05374020","name":"Lindlar","type":"Kreisangehörige_Gemeinde"},"district":{"key":"05374","name":"Oberbergischer Kreis","type":"Kreis"},"federalState":{"key":"05","name":"Nordrhein-Westfalen"}},{"name":"Schreinerweg","postalCode":"51789","locality":"Lindlar","municipality":{"key":"05374020","name":"Lindlar","type":"Kreisangehörige_Gemeinde"},"district":{"key":"05374","name":"Oberbergischer Kreis","type":"Kreis"},"federalState":{"key":"05","name":"Nordrhein-Westfalen"}},{"name":"Schuhmacherstr.","postalCode":"51789","locality":"Lindlar","municipality":{"key":"05374020","name":"Lindlar","type":"Kreisangehörige_Gemeinde"},"district":{"key":"05374","name":"Oberbergischer Kreis","type":"Kreis"},"federalState":{"key":"05","name":"Nordrhein-Westfalen"}},{"name":"Schulweg","postalCode":"51789","locality":"Lindlar","municipality":{"key":"05374020","name":"Lindlar","type":"Kreisangehörige_Gemeinde"},"district":{"key":"05374","name":"Oberbergischer Kreis","type":"Kreis"},"federalState":{"key":"05","name":"Nordrhein-Westfalen"}},{"name":"Schützenstr.","postalCode":"51789","locality":"Lindlar","municipality":{"key":"05374020","name":"Lindlar","type":"Kreisangehörige_Gemeinde"},"district":{"key":"05374","name":"Oberbergischer Kreis","type":"Kreis"},"federalState":{"key":"05","name":"Nordrhein-Westfalen"}},{"name":"Schwalbenhof","postalCode":"51789","locality":"Lindlar","municipality":{"key":"05374020","name":"Lindlar","type":"Kreisangehörige_Gemeinde"},"district":{"key":"05374","name":"Oberbergischer Kreis","type":"Kreis"},"federalState":{"key":"05","name":"Nordrhein-Westfalen"}},{"name":"Schwalbenweg","postalCode":"51789","locality":"Lindlar","municipality":{"key":"05374020","name":"Lindlar","type":"Kreisangehörige_Gemeinde"},"district":{"key":"05374","name":"Oberbergischer Kreis","type":"Kreis"},"federalState":{"key":"05","name":"Nordrhein-Westfalen"}},{"name":"Schwarzenbachstr.","postalCode":"51789","locality":"Lindlar","municipality":{"key":"05374020","name":"Lindlar","type":"Kreisangehörige_Gemeinde"},"district":{"key":"05374","name":"Oberbergischer Kreis","type":"Kreis"},"federalState":{"key":"05","name":"Nordrhein-Westfalen"}},{"name":"Sebastianusweg","postalCode":"51789","locality":"Lindlar","municipality":{"key":"05374020","name":"Lindlar","type":"Kreisangehörige_Gemeinde"},"district":{"key":"05374","name":"Oberbergischer Kreis","type":"Kreis"},"federalState":{"key":"05","name":"Nordrhein-Westfalen"}},{"name":"Sieferhof","postalCode":"51789","locality":"Lindlar","municipality":{"key":"05374020","name":"Lindlar","type":"Kreisangehörige_Gemeinde"},"district":{"key":"05374","name":"Oberbergischer Kreis","type":"Kreis"},"federalState":{"key":"05","name":"Nordrhein-Westfalen"}},{"name":"Siegweg","postalCode":"51789","locality":"Lindlar","municipality":{"key":"05374020","name":"Lindlar","type":"Kreisangehörige_Gemeinde"},"district":{"key":"05374","name":"Oberbergischer Kreis","type":"Kreis"},"federalState":{"key":"05","name":"Nordrhein-Westfalen"}},{"name":"Sommerschlade","postalCode":"51789","locality":"Lindlar","municipality":{"key":"05374020","name":"Lindlar","type":"Kreisangehörige_Gemeinde"},"district":{"key":"05374","name":"Oberbergischer Kreis","type":"Kreis"},"federalState":{"key":"05","name":"Nordrhein-Westfalen"}},{"name":"Sonnenweg","postalCode":"51789","locality":"Lindlar","municipality":{"key":"05374020","name":"Lindlar","type":"Kreisangehörige_Gemeinde"},"district":{"key":"05374","name":"Oberbergischer Kreis","type":"Kreis"},"federalState":{"key":"05","name":"Nordrhein-Westfalen"}},{"name":"Starenweg","postalCode":"51789","locality":"Lindlar","municipality":{"key":"05374020","name":"Lindlar","type":"Kreisangehörige_Gemeinde"},"district":{"key":"05374","name":"Oberbergischer Kreis","type":"Kreis"},"federalState":{"key":"05","name":"Nordrhein-Westfalen"}},{"name":"Steinbach","postalCode":"51789","locality":"Lindlar","municipality":{"key":"05374020","name":"Lindlar","type":"Kreisangehörige_Gemeinde"},"district":{"key":"05374","name":"Oberbergischer Kreis","type":"Kreis"},"federalState":{"key":"05","name":"Nordrhein-Westfalen"}},{"name":"Steinenbrücke","postalCode":"51789","locality":"Lindlar","municipality":{"key":"05374020","name":"Lindlar","type":"Kreisangehörige_Gemeinde"},"district":{"key":"05374","name":"Oberbergischer Kreis","type":"Kreis"},"federalState":{"key":"05","name":"Nordrhein-Westfalen"}},{"name":"Stelberg","postalCode":"51789","locality":"Lindlar","municipality":{"key":"05374020","name":"Lindlar","type":"Kreisangehörige_Gemeinde"},"district":{"key":"05374","name":"Oberbergischer Kreis","type":"Kreis"},"federalState":{"key":"05","name":"Nordrhein-Westfalen"}},{"name":"Stellmacherweg","postalCode":"51789","locality":"Lindlar","municipality":{"key":"05374020","name":"Lindlar","type":"Kreisangehörige_Gemeinde"},"district":{"key":"05374","name":"Oberbergischer Kreis","type":"Kreis"},"federalState":{"key":"05","name":"Nordrhein-Westfalen"}},{"name":"Sterntalerweg","postalCode":"51789","locality":"Lindlar","municipality":{"key":"05374020","name":"Lindlar","type":"Kreisangehörige_Gemeinde"},"district":{"key":"05374","name":"Oberbergischer Kreis","type":"Kreis"},"federalState":{"key":"05","name":"Nordrhein-Westfalen"}},{"name":"Stockener Weg","postalCode":"51789","locality":"Lindlar","municipality":{"key":"05374020","name":"Lindlar","type":"Kreisangehörige_Gemeinde"},"district":{"key":"05374","name":"Oberbergischer Kreis","type":"Kreis"},"federalState":{"key":"05","name":"Nordrhein-Westfalen"}},{"name":"Stollenweg","postalCode":"51789","locality":"Lindlar","municipality":{"key":"05374020","name":"Lindlar","type":"Kreisangehörige_Gemeinde"},"district":{"key":"05374","name":"Oberbergischer Kreis","type":"Kreis"},"federalState":{"key":"05","name":"Nordrhein-Westfalen"}},{"name":"Stoppenbach","postalCode":"51789","locality":"Lindlar","municipality":{"key":"05374020","name":"Lindlar","type":"Kreisangehörige_Gemeinde"},"district":{"key":"05374","name":"Oberbergischer Kreis","type":"Kreis"},"federalState":{"key":"05","name":"Nordrhein-Westfalen"}},{"name":"Sülztalstr.","postalCode":"51789","locality":"Lindlar","municipality":{"key":"05374020","name":"Lindlar","type":"Kreisangehörige_Gemeinde"},"district":{"key":"05374","name":"Oberbergischer Kreis","type":"Kreis"},"federalState":{"key":"05","name":"Nordrhein-Westfalen"}},{"name":"Süttenbach","postalCode":"51789","locality":"Lindlar","municipality":{"key":"05374020","name":"Lindlar","type":"Kreisangehörige_Gemeinde"},"district":{"key":"05374","name":"Oberbergischer Kreis","type":"Kreis"},"federalState":{"key":"05","name":"Nordrhein-Westfalen"}},{"name":"Talstr.","postalCode":"51789","locality":"Lindlar","municipality":{"key":"05374020","name":"Lindlar","type":"Kreisangehörige_Gemeinde"},"district":{"key":"05374","name":"Oberbergischer Kreis","type":"Kreis"},"federalState":{"key":"05","name":"Nordrhein-Westfalen"}},{"name":"Talweg","postalCode":"51789","locality":"Lindlar","municipality":{"key":"05374020","name":"Lindlar","type":"Kreisangehörige_Gemeinde"},"district":{"key":"05374","name":"Oberbergischer Kreis","type":"Kreis"},"federalState":{"key":"05","name":"Nordrhein-Westfalen"}},{"name":"Tannenweg","postalCode":"51789","locality":"Lindlar","municipality":{"key":"05374020","name":"Lindlar","type":"Kreisangehörige_Gemeinde"},"district":{"key":"05374","name":"Oberbergischer Kreis","type":"Kreis"},"federalState":{"key":"05","name":"Nordrhein-Westfalen"}},{"name":"Taubenstr.","postalCode":"51789","locality":"Lindlar","municipality":{"key":"05374020","name":"Lindlar","type":"Kreisangehörige_Gemeinde"},"district":{"key":"05374","name":"Oberbergischer Kreis","type":"Kreis"},"federalState":{"key":"05","name":"Nordrhein-Westfalen"}},{"name":"Tulpenweg","postalCode":"51789","locality":"Lindlar","municipality":{"key":"05374020","name":"Lindlar","type":"Kreisangehörige_Gemeinde"},"district":{"key":"05374","name":"Oberbergischer Kreis","type":"Kreis"},"federalState":{"key":"05","name":"Nordrhein-Westfalen"}},{"name":"Tüschen","postalCode":"51789","locality":"Lindlar","municipality":{"key":"05374020","name":"Lindlar","type":"Kreisangehörige_Gemeinde"},"district":{"key":"05374","name":"Oberbergischer Kreis","type":"Kreis"},"federalState":{"key":"05","name":"Nordrhein-Westfalen"}},{"name":"Uferstr.","postalCode":"51789","locality":"Lindlar","municipality":{"key":"05374020","name":"Lindlar","type":"Kreisangehörige_Gemeinde"},"district":{"key":"05374","name":"Oberbergischer Kreis","type":"Kreis"},"federalState":{"key":"05","name":"Nordrhein-Westfalen"}},{"name":"Ulmenweg","postalCode":"51789","locality":"Lindlar","municipality":{"key":"05374020","name":"Lindlar","type":"Kreisangehörige_Gemeinde"},"district":{"key":"05374","name":"Oberbergischer Kreis","type":"Kreis"},"federalState":{"key":"05","name":"Nordrhein-Westfalen"}},{"name":"Unterbergscheid","postalCode":"51789","locality":"Lindlar","municipality":{"key":"05374020","name":"Lindlar","type":"Kreisangehörige_Gemeinde"},"district":{"key":"05374","name":"Oberbergischer Kreis","type":"Kreis"},"federalState":{"key":"05","name":"Nordrhein-Westfalen"}},{"name":"Unterbüschem","postalCode":"51789","locality":"Lindlar","municipality":{"key":"05374020","name":"Lindlar","type":"Kreisangehörige_Gemeinde"},"district":{"key":"05374","name":"Oberbergischer Kreis","type":"Kreis"},"federalState":{"key":"05","name":"Nordrhein-Westfalen"}},{"name":"Unterer Kampacker","postalCode":"51789","locality":"Lindlar","municipality":{"key":"05374020","name":"Lindlar","type":"Kreisangehörige_Gemeinde"},"district":{"key":"05374","name":"Oberbergischer Kreis","type":"Kreis"},"federalState":{"key":"05","name":"Nordrhein-Westfalen"}},{"name":"Unterfeld","postalCode":"51789","locality":"Lindlar","municipality":{"key":"05374020","name":"Lindlar","type":"Kreisangehörige_Gemeinde"},"district":{"key":"05374","name":"Oberbergischer Kreis","type":"Kreis"},"federalState":{"key":"05","name":"Nordrhein-Westfalen"}},{"name":"Unterhürholz","postalCode":"51789","locality":"Lindlar","municipality":{"key":"05374020","name":"Lindlar","type":"Kreisangehörige_Gemeinde"},"district":{"key":"05374","name":"Oberbergischer Kreis","type":"Kreis"},"federalState":{"key":"05","name":"Nordrhein-Westfalen"}},{"name":"Unterkotten","postalCode":"51789","locality":"Lindlar","municipality":{"key":"05374020","name":"Lindlar","type":"Kreisangehörige_Gemeinde"},"district":{"key":"05374","name":"Oberbergischer Kreis","type":"Kreis"},"federalState":{"key":"05","name":"Nordrhein-Westfalen"}},{"name":"Unterlichtinghagen","postalCode":"51789","locality":"Lindlar","municipality":{"key":"05374020","name":"Lindlar","type":"Kreisangehörige_Gemeinde"},"district":{"key":"05374","name":"Oberbergischer Kreis","type":"Kreis"},"federalState":{"key":"05","name":"Nordrhein-Westfalen"}},{"name":"Unterommer","postalCode":"51789","locality":"Lindlar","municipality":{"key":"05374020","name":"Lindlar","type":"Kreisangehörige_Gemeinde"},"district":{"key":"05374","name":"Oberbergischer Kreis","type":"Kreis"},"federalState":{"key":"05","name":"Nordrhein-Westfalen"}},{"name":"Van-der-Velden-Str.","postalCode":"51789","locality":"Lindlar","municipality":{"key":"05374020","name":"Lindlar","type":"Kreisangehörige_Gemeinde"},"district":{"key":"05374","name":"Oberbergischer Kreis","type":"Kreis"},"federalState":{"key":"05","name":"Nordrhein-Westfalen"}},{"name":"Vellingen","postalCode":"51789","locality":"Lindlar","municipality":{"key":"05374020","name":"Lindlar","type":"Kreisangehörige_Gemeinde"},"district":{"key":"05374","name":"Oberbergischer Kreis","type":"Kreis"},"federalState":{"key":"05","name":"Nordrhein-Westfalen"}},{"name":"Vorderrübach","postalCode":"51789","locality":"Lindlar","municipality":{"key":"05374020","name":"Lindlar","type":"Kreisangehörige_Gemeinde"},"district":{"key":"05374","name":"Oberbergischer Kreis","type":"Kreis"},"federalState":{"key":"05","name":"Nordrhein-Westfalen"}},{"name":"Voßbruch","postalCode":"51789","locality":"Lindlar","municipality":{"key":"05374020","name":"Lindlar","type":"Kreisangehörige_Gemeinde"},"district":{"key":"05374","name":"Oberbergischer Kreis","type":"Kreis"},"federalState":{"key":"05","name":"Nordrhein-Westfalen"}},{"name":"Voßbrucher Feld","postalCode":"51789","locality":"Lindlar","municipality":{"key":"05374020","name":"Lindlar","type":"Kreisangehörige_Gemeinde"},"district":{"key":"05374","name":"Oberbergischer Kreis","type":"Kreis"},"federalState":{"key":"05","name":"Nordrhein-Westfalen"}},{"name":"Voßbrucher Str.","postalCode":"51789","locality":"Lindlar","municipality":{"key":"05374020","name":"Lindlar","type":"Kreisangehörige_Gemeinde"},"district":{"key":"05374","name":"Oberbergischer Kreis","type":"Kreis"},"federalState":{"key":"05","name":"Nordrhein-Westfalen"}},{"name":"Waldbruch","postalCode":"51789","locality":"Lindlar","municipality":{"key":"05374020","name":"Lindlar","type":"Kreisangehörige_Gemeinde"},"district":{"key":"05374","name":"Oberbergischer Kreis","type":"Kreis"},"federalState":{"key":"05","name":"Nordrhein-Westfalen"}},{"name":"Waldheim","postalCode":"51789","locality":"Lindlar","municipality":{"key":"05374020","name":"Lindlar","type":"Kreisangehörige_Gemeinde"},"district":{"key":"05374","name":"Oberbergischer Kreis","type":"Kreis"},"federalState":{"key":"05","name":"Nordrhein-Westfalen"}},{"name":"Waldweg","postalCode":"51789","locality":"Lindlar","municipality":{"key":"05374020","name":"Lindlar","type":"Kreisangehörige_Gemeinde"},"district":{"key":"05374","name":"Oberbergischer Kreis","type":"Kreis"},"federalState":{"key":"05","name":"Nordrhein-Westfalen"}},{"name":"Weissdornweg","postalCode":"51789","locality":"Lindlar","municipality":{"key":"05374020","name":"Lindlar","type":"Kreisangehörige_Gemeinde"},"district":{"key":"05374","name":"Oberbergischer Kreis","type":"Kreis"},"federalState":{"key":"05","name":"Nordrhein-Westfalen"}},{"name":"Weißen Pferdchen","postalCode":"51789","locality":"Lindlar","municipality":{"key":"05374020","name":"Lindlar","type":"Kreisangehörige_Gemeinde"},"district":{"key":"05374","name":"Oberbergischer Kreis","type":"Kreis"},"federalState":{"key":"05","name":"Nordrhein-Westfalen"}},{"name":"Welzen","postalCode":"51789","locality":"Lindlar","municipality":{"key":"05374020","name":"Lindlar","type":"Kreisangehörige_Gemeinde"},"district":{"key":"05374","name":"Oberbergischer Kreis","type":"Kreis"},"federalState":{"key":"05","name":"Nordrhein-Westfalen"}},{"name":"Weserweg","postalCode":"51789","locality":"Lindlar","municipality":{"key":"05374020","name":"Lindlar","type":"Kreisangehörige_Gemeinde"},"district":{"key":"05374","name":"Oberbergischer Kreis","type":"Kreis"},"federalState":{"key":"05","name":"Nordrhein-Westfalen"}},{"name":"Weyerstr.","postalCode":"51789","locality":"Lindlar","municipality":{"key":"05374020","name":"Lindlar","type":"Kreisangehörige_Gemeinde"},"district":{"key":"05374","name":"Oberbergischer Kreis","type":"Kreis"},"federalState":{"key":"05","name":"Nordrhein-Westfalen"}},{"name":"Wiesberg","postalCode":"51789","locality":"Lindlar","municipality":{"key":"05374020","name":"Lindlar","type":"Kreisangehörige_Gemeinde"},"district":{"key":"05374","name":"Oberbergischer Kreis","type":"Kreis"},"federalState":{"key":"05","name":"Nordrhein-Westfalen"}},{"name":"Wiesenstr.","postalCode":"51789","locality":"Lindlar","municipality":{"key":"05374020","name":"Lindlar","type":"Kreisangehörige_Gemeinde"},"district":{"key":"05374","name":"Oberbergischer Kreis","type":"Kreis"},"federalState":{"key":"05","name":"Nordrhein-Westfalen"}},{"name":"Wilhelm-Breidenbach-Weg","postalCode":"51789","locality":"Lindlar","municipality":{"key":"05374020","name":"Lindlar","type":"Kreisangehörige_Gemeinde"},"district":{"key":"05374","name":"Oberbergischer Kreis","type":"Kreis"},"federalState":{"key":"05","name":"Nordrhein-Westfalen"}},{"name":"Wilhelm-Müller-Str.","postalCode":"51789","locality":"Lindlar","municipality":{"key":"05374020","name":"Lindlar","type":"Kreisangehörige_Gemeinde"},"district":{"key":"05374","name":"Oberbergischer Kreis","type":"Kreis"},"federalState":{"key":"05","name":"Nordrhein-Westfalen"}},{"name":"Wolfskuhl","postalCode":"51789","locality":"Lindlar","municipality":{"key":"05374020","name":"Lindlar","type":"Kreisangehörige_Gemeinde"},"district":{"key":"05374","name":"Oberbergischer Kreis","type":"Kreis"},"federalState":{"key":"05","name":"Nordrhein-Westfalen"}},{"name":"Wolfsschlade","postalCode":"51789","locality":"Lindlar","municipality":{"key":"05374020","name":"Lindlar","type":"Kreisangehörige_Gemeinde"},"district":{"key":"05374","name":"Oberbergischer Kreis","type":"Kreis"},"federalState":{"key":"05","name":"Nordrhein-Westfalen"}},{"name":"Wupperweg","postalCode":"51789","locality":"Lindlar","municipality":{"key":"05374020","name":"Lindlar","type":"Kreisangehörige_Gemeinde"},"district":{"key":"05374","name":"Oberbergischer Kreis","type":"Kreis"},"federalState":{"key":"05","name":"Nordrhein-Westfalen"}},{"name":"Wurtscheid","postalCode":"51789","locality":"Lindlar","municipality":{"key":"05374020","name":"Lindlar","type":"Kreisangehörige_Gemeinde"},"district":{"key":"05374","name":"Oberbergischer Kreis","type":"Kreis"},"federalState":{"key":"05","name":"Nordrhein-Westfalen"}},{"name":"Zedernweg","postalCode":"51789","locality":"Lindlar","municipality":{"key":"05374020","name":"Lindlar","type":"Kreisangehörige_Gemeinde"},"district":{"key":"05374","name":"Oberbergischer Kreis","type":"Kreis"},"federalState":{"key":"05","name":"Nordrhein-Westfalen"}},{"name":"Zeisigweg","postalCode":"51789","locality":"Lindlar","municipality":{"key":"05374020","name":"Lindlar","type":"Kreisangehörige_Gemeinde"},"district":{"key":"05374","name":"Oberbergischer Kreis","type":"Kreis"},"federalState":{"key":"05","name":"Nordrhein-Westfalen"}},{"name":"Zu den Brüchen","postalCode":"51789","locality":"Lindlar","municipality":{"key":"05374020","name":"Lindlar","type":"Kreisangehörige_Gemeinde"},"district":{"key":"05374","name":"Oberbergischer Kreis","type":"Kreis"},"federalState":{"key":"05","name":"Nordrhein-Westfalen"}},{"name":"Zu den Wiesen","postalCode":"51789","locality":"Lindlar","municipality":{"key":"05374020","name":"Lindlar","type":"Kreisangehörige_Gemeinde"},"district":{"key":"05374","name":"Oberbergischer Kreis","type":"Kreis"},"federalState":{"key":"05","name":"Nordrhein-Westfalen"}},{"name":"Zum Alten Sportplatz","postalCode":"51789","locality":"Lindlar","municipality":{"key":"05374020","name":"Lindlar","type":"Kreisangehörige_Gemeinde"},"district":{"key":"05374","name":"Oberbergischer Kreis","type":"Kreis"},"federalState":{"key":"05","name":"Nordrhein-Westfalen"}},{"name":"Zum Bayenhof","postalCode":"51789","locality":"Lindlar","municipality":{"key":"05374020","name":"Lindlar","type":"Kreisangehörige_Gemeinde"},"district":{"key":"05374","name":"Oberbergischer Kreis","type":"Kreis"},"federalState":{"key":"05","name":"Nordrhein-Westfalen"}},{"name":"Zum Birnbaum","postalCode":"51789","locality":"Lindlar","municipality":{"key":"05374020","name":"Lindlar","type":"Kreisangehörige_Gemeinde"},"district":{"key":"05374","name":"Oberbergischer Kreis","type":"Kreis"},"federalState":{"key":"05","name":"Nordrhein-Westfalen"}},{"name":"Zum Gartenfeld","postalCode":"51789","locality":"Lindlar","municipality":{"key":"05374020","name":"Lindlar","type":"Kreisangehörige_Gemeinde"},"district":{"key":"05374","name":"Oberbergischer Kreis","type":"Kreis"},"federalState":{"key":"05","name":"Nordrhein-Westfalen"}},{"name":"Zum Hohen Hahn","postalCode":"51789","locality":"Lindlar","municipality":{"key":"05374020","name":"Lindlar","type":"Kreisangehörige_Gemeinde"},"district":{"key":"05374","name":"Oberbergischer Kreis","type":"Kreis"},"federalState":{"key":"05","name":"Nordrhein-Westfalen"}},{"name":"Zum Kalkfeld","postalCode":"51789","locality":"Lindlar","municipality":{"key":"05374020","name":"Lindlar","type":"Kreisangehörige_Gemeinde"},"district":{"key":"05374","name":"Oberbergischer Kreis","type":"Kreis"},"federalState":{"key":"05","name":"Nordrhein-Westfalen"}},{"name":"Zum Kalkofen","postalCode":"51789","locality":"Lindlar","municipality":{"key":"05374020","name":"Lindlar","type":"Kreisangehörige_Gemeinde"},"district":{"key":"05374","name":"Oberbergischer Kreis","type":"Kreis"},"federalState":{"key":"05","name":"Nordrhein-Westfalen"}},{"name":"Zum Siefen","postalCode":"51789","locality":"Lindlar","municipality":{"key":"05374020","name":"Lindlar","type":"Kreisangehörige_Gemeinde"},"district":{"key":"05374","name":"Oberbergischer Kreis","type":"Kreis"},"federalState":{"key":"05","name":"Nordrhein-Westfalen"}},{"name":"Zum Steinbusch","postalCode":"51789","locality":"Lindlar","municipality":{"key":"05374020","name":"Lindlar","type":"Kreisangehörige_Gemeinde"},"district":{"key":"05374","name":"Oberbergischer Kreis","type":"Kreis"},"federalState":{"key":"05","name":"Nordrhein-Westfalen"}},{"name":"Zum Vogelberg","postalCode":"51789","locality":"Lindlar","municipality":{"key":"05374020","name":"Lindlar","type":"Kreisangehörige_Gemeinde"},"district":{"key":"05374","name":"Oberbergischer Kreis","type":"Kreis"},"federalState":{"key":"05","name":"Nordrhein-Westfalen"}},{"name":"Zur Alten Schule","postalCode":"51789","locality":"Lindlar","municipality":{"key":"05374020","name":"Lindlar","type":"Kreisangehörige_Gemeinde"},"district":{"key":"05374","name":"Oberbergischer Kreis","type":"Kreis"},"federalState":{"key":"05","name":"Nordrhein-Westfalen"}},{"name":"Zur Heide","postalCode":"51789","locality":"Lindlar","municipality":{"key":"05374020","name":"Lindlar","type":"Kreisangehörige_Gemeinde"},"district":{"key":"05374","name":"Oberbergischer Kreis","type":"Kreis"},"federalState":{"key":"05","name":"Nordrhein-Westfalen"}},{"name":"Zur Hohen Tanne","postalCode":"51789","locality":"Lindlar","municipality":{"key":"05374020","name":"Lindlar","type":"Kreisangehörige_Gemeinde"},"district":{"key":"05374","name":"Oberbergischer Kreis","type":"Kreis"},"federalState":{"key":"05","name":"Nordrhein-Westfalen"}},{"name":"Zur Landwehr","postalCode":"51789","locality":"Lindlar","municipality":{"key":"05374020","name":"Lindlar","type":"Kreisangehörige_Gemeinde"},"district":{"key":"05374","name":"Oberbergischer Kreis","type":"Kreis"},"federalState":{"key":"05","name":"Nordrhein-Westfalen"}},{"name":"Zur Satten Eiche","postalCode":"51789","locality":"Lindlar","municipality":{"key":"05374020","name":"Lindlar","type":"Kreisangehörige_Gemeinde"},"district":{"key":"05374","name":"Oberbergischer Kreis","type":"Kreis"},"federalState":{"key":"05","name":"Nordrhein-Westfalen"}},{"name":"Zur Weide","postalCode":"51789","locality":"Lindlar","municipality":{"key":"05374020","name":"Lindlar","type":"Kreisangehörige_Gemeinde"},"district":{"key":"05374","name":"Oberbergischer Kreis","type":"Kreis"},"federalState":{"key":"05","name":"Nordrhein-Westfalen"}},{"name":"Zur Zwergenhöhle","postalCode":"51789","locality":"Lindlar","municipality":{"key":"05374020","name":"Lindlar","type":"Kreisangehörige_Gemeinde"},"district":{"key":"05374","name":"Oberbergischer Kreis","type":"Kreis"},"federalState":{"key":"05","name":"Nordrhein-Westfalen"}},]