[{"key":"10171483","name":"Aeschlenalpweg","postalCode":"3672","locality":"Aeschlen b. Oberdiessbach","commune":{"key":"619","name":"Oberdiessbach","shortName":"Oberdiessbach"},"district":{"key":"246","name":"Verwaltungskreis Bern-Mittelland"},"canton":{"key":"2","code":"BE","name":"Bern / Berne"},"status":"Real"},{"key":"10170456","name":"Aeschlenstrasse","postalCode":"3672","locality":"Aeschlen b. Oberdiessbach","commune":{"key":"619","name":"Oberdiessbach","shortName":"Oberdiessbach"},"district":{"key":"246","name":"Verwaltungskreis Bern-Mittelland"},"canton":{"key":"2","code":"BE","name":"Bern / Berne"},"status":"Real"},{"key":"10104701","name":"Ahornweg","postalCode":"3672","locality":"Oberdiessbach","commune":{"key":"619","name":"Oberdiessbach","shortName":"Oberdiessbach"},"district":{"key":"246","name":"Verwaltungskreis Bern-Mittelland"},"canton":{"key":"2","code":"BE","name":"Bern / Berne"},"status":"Real"},{"key":"10171484","name":"Allenbergstrasse","postalCode":"3672","locality":"Aeschlen b. Oberdiessbach","commune":{"key":"619","name":"Oberdiessbach","shortName":"Oberdiessbach"},"district":{"key":"246","name":"Verwaltungskreis Bern-Mittelland"},"canton":{"key":"2","code":"BE","name":"Bern / Berne"},"status":"Real"},{"key":"10113784","name":"Alpenweg","postalCode":"3672","locality":"Oberdiessbach","commune":{"key":"619","name":"Oberdiessbach","shortName":"Oberdiessbach"},"district":{"key":"246","name":"Verwaltungskreis Bern-Mittelland"},"canton":{"key":"2","code":"BE","name":"Bern / Berne"},"status":"Real"},{"key":"10001039","name":"Amselweg","postalCode":"3672","locality":"Oberdiessbach","commune":{"key":"619","name":"Oberdiessbach","shortName":"Oberdiessbach"},"district":{"key":"246","name":"Verwaltungskreis Bern-Mittelland"},"canton":{"key":"2","code":"BE","name":"Bern / Berne"},"status":"Real"},{"key":"10061522","name":"Bachmatt","postalCode":"3672","locality":"Oberdiessbach","commune":{"key":"619","name":"Oberdiessbach","shortName":"Oberdiessbach"},"district":{"key":"246","name":"Verwaltungskreis Bern-Mittelland"},"canton":{"key":"2","code":"BE","name":"Bern / Berne"},"status":"Real"},{"key":"10217123","name":"Bahnhofareal West","postalCode":"3672","locality":"Oberdiessbach","commune":{"key":"619","name":"Oberdiessbach","shortName":"Oberdiessbach"},"district":{"key":"246","name":"Verwaltungskreis Bern-Mittelland"},"canton":{"key":"2","code":"BE","name":"Bern / Berne"},"status":"Real"},{"key":"10080575","name":"Bahnhofstrasse","postalCode":"3672","locality":"Oberdiessbach","commune":{"key":"619","name":"Oberdiessbach","shortName":"Oberdiessbach"},"district":{"key":"246","name":"Verwaltungskreis Bern-Mittelland"},"canton":{"key":"2","code":"BE","name":"Bern / Berne"},"status":"Real"},{"key":"10116920","name":"Barichti","postalCode":"3674","locality":"Bleiken b. Oberdiessbach","commune":{"key":"619","name":"Oberdiessbach","shortName":"Oberdiessbach"},"district":{"key":"246","name":"Verwaltungskreis Bern-Mittelland"},"canton":{"key":"2","code":"BE","name":"Bern / Berne"},"status":"Real"},{"key":"10001040","name":"Birkenweg","postalCode":"3672","locality":"Oberdiessbach","commune":{"key":"619","name":"Oberdiessbach","shortName":"Oberdiessbach"},"district":{"key":"246","name":"Verwaltungskreis Bern-Mittelland"},"canton":{"key":"2","code":"BE","name":"Bern / Berne"},"status":"Real"},{"key":"10112647","name":"Brügglen","postalCode":"3674","locality":"Bleiken b. Oberdiessbach","commune":{"key":"619","name":"Oberdiessbach","shortName":"Oberdiessbach"},"district":{"key":"246","name":"Verwaltungskreis Bern-Mittelland"},"canton":{"key":"2","code":"BE","name":"Bern / Berne"},"status":"Real"},{"key":"10001041","name":"Büchsenschmiedgraben","postalCode":"3672","locality":"Oberdiessbach","commune":{"key":"619","name":"Oberdiessbach","shortName":"Oberdiessbach"},"district":{"key":"246","name":"Verwaltungskreis Bern-Mittelland"},"canton":{"key":"2","code":"BE","name":"Bern / Berne"},"status":"Real"},{"key":"10162368","name":"Bühl","postalCode":"3674","locality":"Bleiken b. Oberdiessbach","commune":{"key":"619","name":"Oberdiessbach","shortName":"Oberdiessbach"},"district":{"key":"246","name":"Verwaltungskreis Bern-Mittelland"},"canton":{"key":"2","code":"BE","name":"Bern / Berne"},"status":"Real"},{"key":"10116933","name":"Burgdorfstrasse","postalCode":"3672","locality":"Oberdiessbach","commune":{"key":"619","name":"Oberdiessbach","shortName":"Oberdiessbach"},"district":{"key":"246","name":"Verwaltungskreis Bern-Mittelland"},"canton":{"key":"2","code":"BE","name":"Bern / Berne"},"status":"Real"},{"key":"10080576","name":"Chisemattweg","postalCode":"3672","locality":"Oberdiessbach","commune":{"key":"619","name":"Oberdiessbach","shortName":"Oberdiessbach"},"district":{"key":"246","name":"Verwaltungskreis Bern-Mittelland"},"canton":{"key":"2","code":"BE","name":"Bern / Berne"},"status":"Real"},{"key":"10001042","name":"Chrisegglenweg","postalCode":"3672","locality":"Oberdiessbach","commune":{"key":"619","name":"Oberdiessbach","shortName":"Oberdiessbach"},"district":{"key":"246","name":"Verwaltungskreis Bern-Mittelland"},"canton":{"key":"2","code":"BE","name":"Bern / Berne"},"status":"Real"},{"key":"10113785","name":"Dählenweg","postalCode":"3672","locality":"Oberdiessbach","commune":{"key":"619","name":"Oberdiessbach","shortName":"Oberdiessbach"},"district":{"key":"246","name":"Verwaltungskreis Bern-Mittelland"},"canton":{"key":"2","code":"BE","name":"Bern / Berne"},"status":"Real"},{"key":"10001043","name":"Diessbachgraben","postalCode":"3672","locality":"Oberdiessbach","commune":{"key":"619","name":"Oberdiessbach","shortName":"Oberdiessbach"},"district":{"key":"246","name":"Verwaltungskreis Bern-Mittelland"},"canton":{"key":"2","code":"BE","name":"Bern / Berne"},"status":"Real"},{"key":"10123101","name":"Diessbachgrabenstrasse","postalCode":"3672","locality":"Oberdiessbach","commune":{"key":"619","name":"Oberdiessbach","shortName":"Oberdiessbach"},"district":{"key":"246","name":"Verwaltungskreis Bern-Mittelland"},"canton":{"key":"2","code":"BE","name":"Bern / Berne"},"status":"Real"},{"key":"10004862","name":"Eggle","postalCode":"3674","locality":"Bleiken b. Oberdiessbach","commune":{"key":"619","name":"Oberdiessbach","shortName":"Oberdiessbach"},"district":{"key":"246","name":"Verwaltungskreis Bern-Mittelland"},"canton":{"key":"2","code":"BE","name":"Bern / Berne"},"status":"Real"},{"key":"10006525","name":"Egglen","postalCode":"3674","locality":"Bleiken b. Oberdiessbach","commune":{"key":"619","name":"Oberdiessbach","shortName":"Oberdiessbach"},"district":{"key":"246","name":"Verwaltungskreis Bern-Mittelland"},"canton":{"key":"2","code":"BE","name":"Bern / Berne"},"status":"Real"},{"key":"10080577","name":"Egglisried","postalCode":"3672","locality":"Oberdiessbach","commune":{"key":"619","name":"Oberdiessbach","shortName":"Oberdiessbach"},"district":{"key":"246","name":"Verwaltungskreis Bern-Mittelland"},"canton":{"key":"2","code":"BE","name":"Bern / Berne"},"status":"Real"},{"key":"10128014","name":"Eichhölzliweg","postalCode":"3672","locality":"Oberdiessbach","commune":{"key":"619","name":"Oberdiessbach","shortName":"Oberdiessbach"},"district":{"key":"246","name":"Verwaltungskreis Bern-Mittelland"},"canton":{"key":"2","code":"BE","name":"Bern / Berne"},"status":"Real"},{"key":"10006526","name":"Eichweid","postalCode":"3674","locality":"Bleiken b. Oberdiessbach","commune":{"key":"619","name":"Oberdiessbach","shortName":"Oberdiessbach"},"district":{"key":"246","name":"Verwaltungskreis Bern-Mittelland"},"canton":{"key":"2","code":"BE","name":"Bern / Berne"},"status":"Real"},{"key":"10104086","name":"Falkenfluh","postalCode":"3674","locality":"Bleiken b. Oberdiessbach","commune":{"key":"619","name":"Oberdiessbach","shortName":"Oberdiessbach"},"district":{"key":"246","name":"Verwaltungskreis Bern-Mittelland"},"canton":{"key":"2","code":"BE","name":"Bern / Berne"},"status":"Real"},{"key":"10112790","name":"Falkenweg","postalCode":"3672","locality":"Oberdiessbach","commune":{"key":"619","name":"Oberdiessbach","shortName":"Oberdiessbach"},"district":{"key":"246","name":"Verwaltungskreis Bern-Mittelland"},"canton":{"key":"2","code":"BE","name":"Bern / Berne"},"status":"Real"},{"key":"10001044","name":"Fichtenweg","postalCode":"3672","locality":"Oberdiessbach","commune":{"key":"619","name":"Oberdiessbach","shortName":"Oberdiessbach"},"district":{"key":"246","name":"Verwaltungskreis Bern-Mittelland"},"canton":{"key":"2","code":"BE","name":"Bern / Berne"},"status":"Real"},{"key":"10251744","name":"Fladerich","postalCode":"3672","locality":"Oberdiessbach","commune":{"key":"619","name":"Oberdiessbach","shortName":"Oberdiessbach"},"district":{"key":"246","name":"Verwaltungskreis Bern-Mittelland"},"canton":{"key":"2","code":"BE","name":"Bern / Berne"},"status":"Real"},{"key":"10080578","name":"Fliederweg","postalCode":"3672","locality":"Oberdiessbach","commune":{"key":"619","name":"Oberdiessbach","shortName":"Oberdiessbach"},"district":{"key":"246","name":"Verwaltungskreis Bern-Mittelland"},"canton":{"key":"2","code":"BE","name":"Bern / Berne"},"status":"Real"},{"key":"10104702","name":"Freimettigenstrasse","postalCode":"3672","locality":"Oberdiessbach","commune":{"key":"619","name":"Oberdiessbach","shortName":"Oberdiessbach"},"district":{"key":"246","name":"Verwaltungskreis Bern-Mittelland"},"canton":{"key":"2","code":"BE","name":"Bern / Berne"},"status":"Real"},{"key":"10001045","name":"Gantrischweg","postalCode":"3672","locality":"Oberdiessbach","commune":{"key":"619","name":"Oberdiessbach","shortName":"Oberdiessbach"},"district":{"key":"246","name":"Verwaltungskreis Bern-Mittelland"},"canton":{"key":"2","code":"BE","name":"Bern / Berne"},"status":"Real"},{"key":"10060397","name":"Gemeindeplatz","postalCode":"3672","locality":"Oberdiessbach","commune":{"key":"619","name":"Oberdiessbach","shortName":"Oberdiessbach"},"district":{"key":"246","name":"Verwaltungskreis Bern-Mittelland"},"canton":{"key":"2","code":"BE","name":"Bern / Berne"},"status":"Real"},{"key":"10080585","name":"Glasholz","postalCode":"3672","locality":"Oberdiessbach","commune":{"key":"619","name":"Oberdiessbach","shortName":"Oberdiessbach"},"district":{"key":"246","name":"Verwaltungskreis Bern-Mittelland"},"canton":{"key":"2","code":"BE","name":"Bern / Berne"},"status":"Real"},{"key":"10124645","name":"Glasholzstrasse","postalCode":"3672","locality":"Oberdiessbach","commune":{"key":"619","name":"Oberdiessbach","shortName":"Oberdiessbach"},"district":{"key":"246","name":"Verwaltungskreis Bern-Mittelland"},"canton":{"key":"2","code":"BE","name":"Bern / Berne"},"status":"Real"},{"key":"10080579","name":"Grünmattweg","postalCode":"3672","locality":"Oberdiessbach","commune":{"key":"619","name":"Oberdiessbach","shortName":"Oberdiessbach"},"district":{"key":"246","name":"Verwaltungskreis Bern-Mittelland"},"canton":{"key":"2","code":"BE","name":"Bern / Berne"},"status":"Real"},{"key":"10001046","name":"Gumiweg","postalCode":"3672","locality":"Oberdiessbach","commune":{"key":"619","name":"Oberdiessbach","shortName":"Oberdiessbach"},"district":{"key":"246","name":"Verwaltungskreis Bern-Mittelland"},"canton":{"key":"2","code":"BE","name":"Bern / Berne"},"status":"Real"},{"key":"10175667","name":"Haldenweg","postalCode":"3672","locality":"Oberdiessbach","commune":{"key":"619","name":"Oberdiessbach","shortName":"Oberdiessbach"},"district":{"key":"246","name":"Verwaltungskreis Bern-Mittelland"},"canton":{"key":"2","code":"BE","name":"Bern / Berne"},"status":"Real"},{"key":"10001047","name":"Hasli","postalCode":"3672","locality":"Oberdiessbach","commune":{"key":"619","name":"Oberdiessbach","shortName":"Oberdiessbach"},"district":{"key":"246","name":"Verwaltungskreis Bern-Mittelland"},"canton":{"key":"2","code":"BE","name":"Bern / Berne"},"status":"Real"},{"key":"10113786","name":"Haslifeldweg","postalCode":"3672","locality":"Oberdiessbach","commune":{"key":"619","name":"Oberdiessbach","shortName":"Oberdiessbach"},"district":{"key":"246","name":"Verwaltungskreis Bern-Mittelland"},"canton":{"key":"2","code":"BE","name":"Bern / Berne"},"status":"Real"},{"key":"10120161","name":"Haubenstrasse","postalCode":"3672","locality":"Oberdiessbach","commune":{"key":"619","name":"Oberdiessbach","shortName":"Oberdiessbach"},"district":{"key":"246","name":"Verwaltungskreis Bern-Mittelland"},"canton":{"key":"2","code":"BE","name":"Bern / Berne"},"status":"Real"},{"key":"10194013","name":"Helisbühlstrasse","postalCode":"3672","locality":"Oberdiessbach","commune":{"key":"619","name":"Oberdiessbach","shortName":"Oberdiessbach"},"district":{"key":"246","name":"Verwaltungskreis Bern-Mittelland"},"canton":{"key":"2","code":"BE","name":"Bern / Berne"},"status":"Real"},{"key":"10001050","name":"Höheweg","postalCode":"3672","locality":"Oberdiessbach","commune":{"key":"619","name":"Oberdiessbach","shortName":"Oberdiessbach"},"district":{"key":"246","name":"Verwaltungskreis Bern-Mittelland"},"canton":{"key":"2","code":"BE","name":"Bern / Berne"},"status":"Real"},{"key":"10060226","name":"Hohlenhausweg","postalCode":"3672","locality":"Oberdiessbach","commune":{"key":"619","name":"Oberdiessbach","shortName":"Oberdiessbach"},"district":{"key":"246","name":"Verwaltungskreis Bern-Mittelland"},"canton":{"key":"2","code":"BE","name":"Bern / Berne"},"status":"Real"},{"key":"10001048","name":"Hohliebeweg","postalCode":"3672","locality":"Oberdiessbach","commune":{"key":"619","name":"Oberdiessbach","shortName":"Oberdiessbach"},"district":{"key":"246","name":"Verwaltungskreis Bern-Mittelland"},"canton":{"key":"2","code":"BE","name":"Bern / Berne"},"status":"Real"},{"key":"10075062","name":"Holz","postalCode":"3674","locality":"Bleiken b. Oberdiessbach","commune":{"key":"619","name":"Oberdiessbach","shortName":"Oberdiessbach"},"district":{"key":"246","name":"Verwaltungskreis Bern-Mittelland"},"canton":{"key":"2","code":"BE","name":"Bern / Berne"},"status":"Real"},{"key":"10006527","name":"Hubel","postalCode":"3674","locality":"Bleiken b. Oberdiessbach","commune":{"key":"619","name":"Oberdiessbach","shortName":"Oberdiessbach"},"district":{"key":"246","name":"Verwaltungskreis Bern-Mittelland"},"canton":{"key":"2","code":"BE","name":"Bern / Berne"},"status":"Real"},{"key":"10001049","name":"Hubelacker","postalCode":"3672","locality":"Oberdiessbach","commune":{"key":"619","name":"Oberdiessbach","shortName":"Oberdiessbach"},"district":{"key":"246","name":"Verwaltungskreis Bern-Mittelland"},"canton":{"key":"2","code":"BE","name":"Bern / Berne"},"status":"Real"},{"key":"10102715","name":"Industriestrasse","postalCode":"3672","locality":"Oberdiessbach","commune":{"key":"619","name":"Oberdiessbach","shortName":"Oberdiessbach"},"district":{"key":"246","name":"Verwaltungskreis Bern-Mittelland"},"canton":{"key":"2","code":"BE","name":"Bern / Berne"},"status":"Real"},{"key":"10050795","name":"Kächbrunnenweg","postalCode":"3672","locality":"Oberdiessbach","commune":{"key":"619","name":"Oberdiessbach","shortName":"Oberdiessbach"},"district":{"key":"246","name":"Verwaltungskreis Bern-Mittelland"},"canton":{"key":"2","code":"BE","name":"Bern / Berne"},"status":"Real"},{"key":"10001051","name":"Kellen","postalCode":"3672","locality":"Oberdiessbach","commune":{"key":"619","name":"Oberdiessbach","shortName":"Oberdiessbach"},"district":{"key":"246","name":"Verwaltungskreis Bern-Mittelland"},"canton":{"key":"2","code":"BE","name":"Bern / Berne"},"status":"Real"},{"key":"10060527","name":"Kirch","postalCode":"3674","locality":"Bleiken b. Oberdiessbach","commune":{"key":"619","name":"Oberdiessbach","shortName":"Oberdiessbach"},"district":{"key":"246","name":"Verwaltungskreis Bern-Mittelland"},"canton":{"key":"2","code":"BE","name":"Bern / Berne"},"status":"Real"},{"key":"10080580","name":"Kirchbühlstrasse","postalCode":"3672","locality":"Oberdiessbach","commune":{"key":"619","name":"Oberdiessbach","shortName":"Oberdiessbach"},"district":{"key":"246","name":"Verwaltungskreis Bern-Mittelland"},"canton":{"key":"2","code":"BE","name":"Bern / Berne"},"status":"Real"},{"key":"10060227","name":"Kirchstrasse","postalCode":"3672","locality":"Oberdiessbach","commune":{"key":"619","name":"Oberdiessbach","shortName":"Oberdiessbach"},"district":{"key":"246","name":"Verwaltungskreis Bern-Mittelland"},"canton":{"key":"2","code":"BE","name":"Bern / Berne"},"status":"Real"},{"key":"10005211","name":"Kohlholz","postalCode":"3672","locality":"Oberdiessbach","commune":{"key":"619","name":"Oberdiessbach","shortName":"Oberdiessbach"},"district":{"key":"246","name":"Verwaltungskreis Bern-Mittelland"},"canton":{"key":"2","code":"BE","name":"Bern / Berne"},"status":"Real"},{"key":"10005212","name":"Krankenhausstrasse","postalCode":"3672","locality":"Oberdiessbach","commune":{"key":"619","name":"Oberdiessbach","shortName":"Oberdiessbach"},"district":{"key":"246","name":"Verwaltungskreis Bern-Mittelland"},"canton":{"key":"2","code":"BE","name":"Bern / Berne"},"status":"Real"},{"key":"10060530","name":"Kröscheren","postalCode":"3674","locality":"Bleiken b. Oberdiessbach","commune":{"key":"619","name":"Oberdiessbach","shortName":"Oberdiessbach"},"district":{"key":"246","name":"Verwaltungskreis Bern-Mittelland"},"canton":{"key":"2","code":"BE","name":"Bern / Berne"},"status":"Real"},{"key":"10058265","name":"Langenegg","postalCode":"3672","locality":"Aeschlen b. Oberdiessbach","commune":{"key":"619","name":"Oberdiessbach","shortName":"Oberdiessbach"},"district":{"key":"246","name":"Verwaltungskreis Bern-Mittelland"},"canton":{"key":"2","code":"BE","name":"Bern / Berne"},"status":"Real"},{"key":"10080581","name":"Lärchenweg","postalCode":"3672","locality":"Oberdiessbach","commune":{"key":"619","name":"Oberdiessbach","shortName":"Oberdiessbach"},"district":{"key":"246","name":"Verwaltungskreis Bern-Mittelland"},"canton":{"key":"2","code":"BE","name":"Bern / Berne"},"status":"Real"},{"key":"10006528","name":"Lehn","postalCode":"3674","locality":"Bleiken b. Oberdiessbach","commune":{"key":"619","name":"Oberdiessbach","shortName":"Oberdiessbach"},"district":{"key":"246","name":"Verwaltungskreis Bern-Mittelland"},"canton":{"key":"2","code":"BE","name":"Bern / Berne"},"status":"Real"},{"key":"10217126","name":"Leimen","postalCode":"3672","locality":"Oberdiessbach","commune":{"key":"619","name":"Oberdiessbach","shortName":"Oberdiessbach"},"district":{"key":"246","name":"Verwaltungskreis Bern-Mittelland"},"canton":{"key":"2","code":"BE","name":"Bern / Berne"},"status":"Real"},{"key":"10155635","name":"Lindenhof","postalCode":"3674","locality":"Bleiken b. Oberdiessbach","commune":{"key":"619","name":"Oberdiessbach","shortName":"Oberdiessbach"},"district":{"key":"246","name":"Verwaltungskreis Bern-Mittelland"},"canton":{"key":"2","code":"BE","name":"Bern / Berne"},"status":"Real"},{"key":"10112791","name":"Lindenstrasse","postalCode":"3672","locality":"Aeschlen b. Oberdiessbach","commune":{"key":"619","name":"Oberdiessbach","shortName":"Oberdiessbach"},"district":{"key":"246","name":"Verwaltungskreis Bern-Mittelland"},"canton":{"key":"2","code":"BE","name":"Bern / Berne"},"status":"Real"},{"key":"10112791","name":"Lindenstrasse","postalCode":"3672","locality":"Oberdiessbach","commune":{"key":"619","name":"Oberdiessbach","shortName":"Oberdiessbach"},"district":{"key":"246","name":"Verwaltungskreis Bern-Mittelland"},"canton":{"key":"2","code":"BE","name":"Bern / Berne"},"status":"Real"},{"key":"10050796","name":"Mattenweg","postalCode":"3672","locality":"Oberdiessbach","commune":{"key":"619","name":"Oberdiessbach","shortName":"Oberdiessbach"},"district":{"key":"246","name":"Verwaltungskreis Bern-Mittelland"},"canton":{"key":"2","code":"BE","name":"Bern / Berne"},"status":"Real"},{"key":"10171485","name":"Mattliweg","postalCode":"3672","locality":"Aeschlen b. Oberdiessbach","commune":{"key":"619","name":"Oberdiessbach","shortName":"Oberdiessbach"},"district":{"key":"246","name":"Verwaltungskreis Bern-Mittelland"},"canton":{"key":"2","code":"BE","name":"Bern / Berne"},"status":"Real"},{"key":"10060228","name":"Mittlere Hauben","postalCode":"3672","locality":"Oberdiessbach","commune":{"key":"619","name":"Oberdiessbach","shortName":"Oberdiessbach"},"district":{"key":"246","name":"Verwaltungskreis Bern-Mittelland"},"canton":{"key":"2","code":"BE","name":"Bern / Berne"},"status":"Real"},{"key":"10217132","name":"Moosweg","postalCode":"3672","locality":"Oberdiessbach","commune":{"key":"619","name":"Oberdiessbach","shortName":"Oberdiessbach"},"district":{"key":"246","name":"Verwaltungskreis Bern-Mittelland"},"canton":{"key":"2","code":"BE","name":"Bern / Berne"},"status":"Real"},{"key":"10060528","name":"Mühlestygen","postalCode":"3674","locality":"Bleiken b. Oberdiessbach","commune":{"key":"619","name":"Oberdiessbach","shortName":"Oberdiessbach"},"district":{"key":"246","name":"Verwaltungskreis Bern-Mittelland"},"canton":{"key":"2","code":"BE","name":"Bern / Berne"},"status":"Real"},{"key":"10075063","name":"Neumatt","postalCode":"3674","locality":"Bleiken b. Oberdiessbach","commune":{"key":"619","name":"Oberdiessbach","shortName":"Oberdiessbach"},"district":{"key":"246","name":"Verwaltungskreis Bern-Mittelland"},"canton":{"key":"2","code":"BE","name":"Bern / Berne"},"status":"Real"},{"key":"10110020","name":"Niederbleiken","postalCode":"3674","locality":"Bleiken b. Oberdiessbach","commune":{"key":"619","name":"Oberdiessbach","shortName":"Oberdiessbach"},"district":{"key":"246","name":"Verwaltungskreis Bern-Mittelland"},"canton":{"key":"2","code":"BE","name":"Bern / Berne"},"status":"Real"},{"key":"10112648","name":"Nüschen","postalCode":"3674","locality":"Bleiken b. Oberdiessbach","commune":{"key":"619","name":"Oberdiessbach","shortName":"Oberdiessbach"},"district":{"key":"246","name":"Verwaltungskreis Bern-Mittelland"},"canton":{"key":"2","code":"BE","name":"Bern / Berne"},"status":"Real"},{"key":"10113787","name":"Nussbaumweg","postalCode":"3672","locality":"Oberdiessbach","commune":{"key":"619","name":"Oberdiessbach","shortName":"Oberdiessbach"},"district":{"key":"246","name":"Verwaltungskreis Bern-Mittelland"},"canton":{"key":"2","code":"BE","name":"Bern / Berne"},"status":"Real"},{"key":"10060529","name":"Oberbleiken","postalCode":"3674","locality":"Bleiken b. Oberdiessbach","commune":{"key":"619","name":"Oberdiessbach","shortName":"Oberdiessbach"},"district":{"key":"246","name":"Verwaltungskreis Bern-Mittelland"},"canton":{"key":"2","code":"BE","name":"Bern / Berne"},"status":"Real"},{"key":"10005213","name":"Oberdorfweg","postalCode":"3672","locality":"Oberdiessbach","commune":{"key":"619","name":"Oberdiessbach","shortName":"Oberdiessbach"},"district":{"key":"246","name":"Verwaltungskreis Bern-Mittelland"},"canton":{"key":"2","code":"BE","name":"Bern / Berne"},"status":"Real"},{"key":"10005214","name":"Obere Hauben","postalCode":"3672","locality":"Oberdiessbach","commune":{"key":"619","name":"Oberdiessbach","shortName":"Oberdiessbach"},"district":{"key":"246","name":"Verwaltungskreis Bern-Mittelland"},"canton":{"key":"2","code":"BE","name":"Bern / Berne"},"status":"Real"},{"key":"10114649","name":"Oberer Rainweg","postalCode":"3672","locality":"Oberdiessbach","commune":{"key":"619","name":"Oberdiessbach","shortName":"Oberdiessbach"},"district":{"key":"246","name":"Verwaltungskreis Bern-Mittelland"},"canton":{"key":"2","code":"BE","name":"Bern / Berne"},"status":"Real"},{"key":"10170457","name":"Oberzelgweg","postalCode":"3672","locality":"Aeschlen b. Oberdiessbach","commune":{"key":"619","name":"Oberdiessbach","shortName":"Oberdiessbach"},"district":{"key":"246","name":"Verwaltungskreis Bern-Mittelland"},"canton":{"key":"2","code":"BE","name":"Bern / Berne"},"status":"Real"},{"key":"10060229","name":"Obstgartenweg","postalCode":"3672","locality":"Oberdiessbach","commune":{"key":"619","name":"Oberdiessbach","shortName":"Oberdiessbach"},"district":{"key":"246","name":"Verwaltungskreis Bern-Mittelland"},"canton":{"key":"2","code":"BE","name":"Bern / Berne"},"status":"Real"},{"key":"10171490","name":"Ofeneggweg","postalCode":"3672","locality":"Aeschlen b. Oberdiessbach","commune":{"key":"619","name":"Oberdiessbach","shortName":"Oberdiessbach"},"district":{"key":"246","name":"Verwaltungskreis Bern-Mittelland"},"canton":{"key":"2","code":"BE","name":"Bern / Berne"},"status":"Real"},{"key":"10005215","name":"Panoramaweg","postalCode":"3672","locality":"Oberdiessbach","commune":{"key":"619","name":"Oberdiessbach","shortName":"Oberdiessbach"},"district":{"key":"246","name":"Verwaltungskreis Bern-Mittelland"},"canton":{"key":"2","code":"BE","name":"Bern / Berne"},"status":"Real"},{"key":"10124646","name":"Pappelweg","postalCode":"3672","locality":"Oberdiessbach","commune":{"key":"619","name":"Oberdiessbach","shortName":"Oberdiessbach"},"district":{"key":"246","name":"Verwaltungskreis Bern-Mittelland"},"canton":{"key":"2","code":"BE","name":"Bern / Berne"},"status":"Real"},{"key":"10162365","name":"Reben","postalCode":"3674","locality":"Bleiken b. Oberdiessbach","commune":{"key":"619","name":"Oberdiessbach","shortName":"Oberdiessbach"},"district":{"key":"246","name":"Verwaltungskreis Bern-Mittelland"},"canton":{"key":"2","code":"BE","name":"Bern / Berne"},"status":"Real"},{"key":"10060231","name":"Sägematte","postalCode":"3672","locality":"Oberdiessbach","commune":{"key":"619","name":"Oberdiessbach","shortName":"Oberdiessbach"},"district":{"key":"246","name":"Verwaltungskreis Bern-Mittelland"},"canton":{"key":"2","code":"BE","name":"Bern / Berne"},"status":"Real"},{"key":"10121071","name":"Sandacker","postalCode":"3672","locality":"Oberdiessbach","commune":{"key":"619","name":"Oberdiessbach","shortName":"Oberdiessbach"},"district":{"key":"246","name":"Verwaltungskreis Bern-Mittelland"},"canton":{"key":"2","code":"BE","name":"Bern / Berne"},"status":"Real"},{"key":"10162369","name":"Scheuer","postalCode":"3674","locality":"Bleiken b. Oberdiessbach","commune":{"key":"619","name":"Oberdiessbach","shortName":"Oberdiessbach"},"district":{"key":"246","name":"Verwaltungskreis Bern-Mittelland"},"canton":{"key":"2","code":"BE","name":"Bern / Berne"},"status":"Real"},{"key":"10182632","name":"Schloss-Strasse","postalCode":"3672","locality":"Aeschlen b. Oberdiessbach","commune":{"key":"619","name":"Oberdiessbach","shortName":"Oberdiessbach"},"district":{"key":"246","name":"Verwaltungskreis Bern-Mittelland"},"canton":{"key":"2","code":"BE","name":"Bern / Berne"},"status":"Real"},{"key":"10182632","name":"Schloss-Strasse","postalCode":"3672","locality":"Oberdiessbach","commune":{"key":"619","name":"Oberdiessbach","shortName":"Oberdiessbach"},"district":{"key":"246","name":"Verwaltungskreis Bern-Mittelland"},"canton":{"key":"2","code":"BE","name":"Bern / Berne"},"status":"Real"},{"key":"10005216","name":"Schlupf","postalCode":"3672","locality":"Oberdiessbach","commune":{"key":"619","name":"Oberdiessbach","shortName":"Oberdiessbach"},"district":{"key":"246","name":"Verwaltungskreis Bern-Mittelland"},"canton":{"key":"2","code":"BE","name":"Bern / Berne"},"status":"Real"},{"key":"10060230","name":"Schlüsselacker","postalCode":"3672","locality":"Oberdiessbach","commune":{"key":"619","name":"Oberdiessbach","shortName":"Oberdiessbach"},"district":{"key":"246","name":"Verwaltungskreis Bern-Mittelland"},"canton":{"key":"2","code":"BE","name":"Bern / Berne"},"status":"Real"},{"key":"10131137","name":"Schniggenen","postalCode":"3674","locality":"Bleiken b. Oberdiessbach","commune":{"key":"619","name":"Oberdiessbach","shortName":"Oberdiessbach"},"district":{"key":"246","name":"Verwaltungskreis Bern-Mittelland"},"canton":{"key":"2","code":"BE","name":"Bern / Berne"},"status":"Real"},{"key":"10005217","name":"Schöneggweg","postalCode":"3672","locality":"Oberdiessbach","commune":{"key":"619","name":"Oberdiessbach","shortName":"Oberdiessbach"},"district":{"key":"246","name":"Verwaltungskreis Bern-Mittelland"},"canton":{"key":"2","code":"BE","name":"Bern / Berne"},"status":"Real"},{"key":"10080583","name":"Schulhausstrasse","postalCode":"3672","locality":"Oberdiessbach","commune":{"key":"619","name":"Oberdiessbach","shortName":"Oberdiessbach"},"district":{"key":"246","name":"Verwaltungskreis Bern-Mittelland"},"canton":{"key":"2","code":"BE","name":"Bern / Berne"},"status":"Real"},{"key":"10152905","name":"Schwand","postalCode":"3674","locality":"Bleiken b. Oberdiessbach","commune":{"key":"619","name":"Oberdiessbach","shortName":"Oberdiessbach"},"district":{"key":"246","name":"Verwaltungskreis Bern-Mittelland"},"canton":{"key":"2","code":"BE","name":"Bern / Berne"},"status":"Real"},{"key":"10171486","name":"Schwandstrasse","postalCode":"3672","locality":"Aeschlen b. Oberdiessbach","commune":{"key":"619","name":"Oberdiessbach","shortName":"Oberdiessbach"},"district":{"key":"246","name":"Verwaltungskreis Bern-Mittelland"},"canton":{"key":"2","code":"BE","name":"Bern / Berne"},"status":"Real"},{"key":"10050797","name":"Sonnenstrasse","postalCode":"3672","locality":"Oberdiessbach","commune":{"key":"619","name":"Oberdiessbach","shortName":"Oberdiessbach"},"district":{"key":"246","name":"Verwaltungskreis Bern-Mittelland"},"canton":{"key":"2","code":"BE","name":"Bern / Berne"},"status":"Real"},{"key":"10126939","name":"Sonnhalde","postalCode":"3674","locality":"Bleiken b. Oberdiessbach","commune":{"key":"619","name":"Oberdiessbach","shortName":"Oberdiessbach"},"district":{"key":"246","name":"Verwaltungskreis Bern-Mittelland"},"canton":{"key":"2","code":"BE","name":"Bern / Berne"},"status":"Real"},{"key":"10113788","name":"Sportplatzweg","postalCode":"3672","locality":"Oberdiessbach","commune":{"key":"619","name":"Oberdiessbach","shortName":"Oberdiessbach"},"district":{"key":"246","name":"Verwaltungskreis Bern-Mittelland"},"canton":{"key":"2","code":"BE","name":"Bern / Berne"},"status":"Real"},{"key":"10006530","name":"Stapfenrain","postalCode":"3674","locality":"Bleiken b. Oberdiessbach","commune":{"key":"619","name":"Oberdiessbach","shortName":"Oberdiessbach"},"district":{"key":"246","name":"Verwaltungskreis Bern-Mittelland"},"canton":{"key":"2","code":"BE","name":"Bern / Berne"},"status":"Real"},{"key":"10005218","name":"Stockhornweg","postalCode":"3672","locality":"Oberdiessbach","commune":{"key":"619","name":"Oberdiessbach","shortName":"Oberdiessbach"},"district":{"key":"246","name":"Verwaltungskreis Bern-Mittelland"},"canton":{"key":"2","code":"BE","name":"Bern / Berne"},"status":"Real"},{"key":"10180622","name":"Tannlimatt","postalCode":"3672","locality":"Oberdiessbach","commune":{"key":"619","name":"Oberdiessbach","shortName":"Oberdiessbach"},"district":{"key":"246","name":"Verwaltungskreis Bern-Mittelland"},"canton":{"key":"2","code":"BE","name":"Bern / Berne"},"status":"Real"},{"key":"10124626","name":"Thal","postalCode":"3674","locality":"Bleiken b. Oberdiessbach","commune":{"key":"619","name":"Oberdiessbach","shortName":"Oberdiessbach"},"district":{"key":"246","name":"Verwaltungskreis Bern-Mittelland"},"canton":{"key":"2","code":"BE","name":"Bern / Berne"},"status":"Real"},{"key":"10005219","name":"Thunstrasse","postalCode":"3672","locality":"Oberdiessbach","commune":{"key":"619","name":"Oberdiessbach","shortName":"Oberdiessbach"},"district":{"key":"246","name":"Verwaltungskreis Bern-Mittelland"},"canton":{"key":"2","code":"BE","name":"Bern / Berne"},"status":"Real"},{"key":"10102716","name":"Tulpenweg","postalCode":"3672","locality":"Oberdiessbach","commune":{"key":"619","name":"Oberdiessbach","shortName":"Oberdiessbach"},"district":{"key":"246","name":"Verwaltungskreis Bern-Mittelland"},"canton":{"key":"2","code":"BE","name":"Bern / Berne"},"status":"Real"},{"key":"10060232","name":"Unterer Rainweg","postalCode":"3672","locality":"Oberdiessbach","commune":{"key":"619","name":"Oberdiessbach","shortName":"Oberdiessbach"},"district":{"key":"246","name":"Verwaltungskreis Bern-Mittelland"},"canton":{"key":"2","code":"BE","name":"Bern / Berne"},"status":"Real"},{"key":"10005220","name":"Unterhaus","postalCode":"3672","locality":"Oberdiessbach","commune":{"key":"619","name":"Oberdiessbach","shortName":"Oberdiessbach"},"district":{"key":"246","name":"Verwaltungskreis Bern-Mittelland"},"canton":{"key":"2","code":"BE","name":"Bern / Berne"},"status":"Real"},{"key":"10171487","name":"Unterhausweg","postalCode":"3672","locality":"Aeschlen b. Oberdiessbach","commune":{"key":"619","name":"Oberdiessbach","shortName":"Oberdiessbach"},"district":{"key":"246","name":"Verwaltungskreis Bern-Mittelland"},"canton":{"key":"2","code":"BE","name":"Bern / Berne"},"status":"Real"},{"key":"10172578","name":"Unterzelgweg","postalCode":"3672","locality":"Aeschlen b. Oberdiessbach","commune":{"key":"619","name":"Oberdiessbach","shortName":"Oberdiessbach"},"district":{"key":"246","name":"Verwaltungskreis Bern-Mittelland"},"canton":{"key":"2","code":"BE","name":"Bern / Berne"},"status":"Real"},{"key":"10147809","name":"Vorderes Gumi","postalCode":"3672","locality":"Oberdiessbach","commune":{"key":"619","name":"Oberdiessbach","shortName":"Oberdiessbach"},"district":{"key":"246","name":"Verwaltungskreis Bern-Mittelland"},"canton":{"key":"2","code":"BE","name":"Bern / Berne"},"status":"Real"},{"key":"10050798","name":"Waldeckweg","postalCode":"3672","locality":"Oberdiessbach","commune":{"key":"619","name":"Oberdiessbach","shortName":"Oberdiessbach"},"district":{"key":"246","name":"Verwaltungskreis Bern-Mittelland"},"canton":{"key":"2","code":"BE","name":"Bern / Berne"},"status":"Real"},{"key":"10005223","name":"Wässermatte","postalCode":"3672","locality":"Oberdiessbach","commune":{"key":"619","name":"Oberdiessbach","shortName":"Oberdiessbach"},"district":{"key":"246","name":"Verwaltungskreis Bern-Mittelland"},"canton":{"key":"2","code":"BE","name":"Bern / Berne"},"status":"Real"},{"key":"10006531","name":"Weid","postalCode":"3674","locality":"Bleiken b. Oberdiessbach","commune":{"key":"619","name":"Oberdiessbach","shortName":"Oberdiessbach"},"district":{"key":"246","name":"Verwaltungskreis Bern-Mittelland"},"canton":{"key":"2","code":"BE","name":"Bern / Berne"},"status":"Real"},{"key":"10005221","name":"Weiggelen","postalCode":"3672","locality":"Oberdiessbach","commune":{"key":"619","name":"Oberdiessbach","shortName":"Oberdiessbach"},"district":{"key":"246","name":"Verwaltungskreis Bern-Mittelland"},"canton":{"key":"2","code":"BE","name":"Bern / Berne"},"status":"Real"},{"key":"10080584","name":"Weststrasse","postalCode":"3672","locality":"Oberdiessbach","commune":{"key":"619","name":"Oberdiessbach","shortName":"Oberdiessbach"},"district":{"key":"246","name":"Verwaltungskreis Bern-Mittelland"},"canton":{"key":"2","code":"BE","name":"Bern / Berne"},"status":"Real"},{"key":"10005222","name":"Wilstrasse","postalCode":"3672","locality":"Oberdiessbach","commune":{"key":"619","name":"Oberdiessbach","shortName":"Oberdiessbach"},"district":{"key":"246","name":"Verwaltungskreis Bern-Mittelland"},"canton":{"key":"2","code":"BE","name":"Bern / Berne"},"status":"Real"},{"key":"10201435","name":"Winkelmattweg","postalCode":"3672","locality":"Oberdiessbach","commune":{"key":"619","name":"Oberdiessbach","shortName":"Oberdiessbach"},"district":{"key":"246","name":"Verwaltungskreis Bern-Mittelland"},"canton":{"key":"2","code":"BE","name":"Bern / Berne"},"status":"Real"},{"key":"10060233","name":"Zelg","postalCode":"3672","locality":"Oberdiessbach","commune":{"key":"619","name":"Oberdiessbach","shortName":"Oberdiessbach"},"district":{"key":"246","name":"Verwaltungskreis Bern-Mittelland"},"canton":{"key":"2","code":"BE","name":"Bern / Berne"},"status":"Real"},{"key":"10104703","name":"Zelghaus","postalCode":"3672","locality":"Oberdiessbach","commune":{"key":"619","name":"Oberdiessbach","shortName":"Oberdiessbach"},"district":{"key":"246","name":"Verwaltungskreis Bern-Mittelland"},"canton":{"key":"2","code":"BE","name":"Bern / Berne"},"status":"Real"},{"key":"10112792","name":"Ziegelei","postalCode":"3672","locality":"Oberdiessbach","commune":{"key":"619","name":"Oberdiessbach","shortName":"Oberdiessbach"},"district":{"key":"246","name":"Verwaltungskreis Bern-Mittelland"},"canton":{"key":"2","code":"BE","name":"Bern / Berne"},"status":"Real"},]