[{"name":"Alte Dorfstr.","postalCode":"09328","locality":"Lunzenau","municipality":{"key":"14522350","name":"Lunzenau, Stadt","type":"Stadt"},"district":{"key":"14522","name":"Mittelsachsen","type":"Landkreis"},"federalState":{"key":"14","name":"Sachsen"}},{"name":"Altenburger Str.","postalCode":"09328","locality":"Lunzenau","municipality":{"key":"14522350","name":"Lunzenau, Stadt","type":"Stadt"},"district":{"key":"14522","name":"Mittelsachsen","type":"Landkreis"},"federalState":{"key":"14","name":"Sachsen"}},{"name":"Alte Str.","postalCode":"09328","locality":"Lunzenau","municipality":{"key":"14522350","name":"Lunzenau, Stadt","type":"Stadt"},"district":{"key":"14522","name":"Mittelsachsen","type":"Landkreis"},"federalState":{"key":"14","name":"Sachsen"}},{"name":"Am Chemnitzberg","postalCode":"09328","locality":"Lunzenau","municipality":{"key":"14522350","name":"Lunzenau, Stadt","type":"Stadt"},"district":{"key":"14522","name":"Mittelsachsen","type":"Landkreis"},"federalState":{"key":"14","name":"Sachsen"}},{"name":"Am Kindergarten","postalCode":"09328","locality":"Lunzenau","municipality":{"key":"14522350","name":"Lunzenau, Stadt","type":"Stadt"},"district":{"key":"14522","name":"Mittelsachsen","type":"Landkreis"},"federalState":{"key":"14","name":"Sachsen"}},{"name":"Am Ring","postalCode":"09328","locality":"Lunzenau","municipality":{"key":"14522350","name":"Lunzenau, Stadt","type":"Stadt"},"district":{"key":"14522","name":"Mittelsachsen","type":"Landkreis"},"federalState":{"key":"14","name":"Sachsen"}},{"name":"Am Sonnenhang","postalCode":"09328","locality":"Lunzenau","municipality":{"key":"14522350","name":"Lunzenau, Stadt","type":"Stadt"},"district":{"key":"14522","name":"Mittelsachsen","type":"Landkreis"},"federalState":{"key":"14","name":"Sachsen"}},{"name":"Am Südhang","postalCode":"09328","locality":"Lunzenau","municipality":{"key":"14522350","name":"Lunzenau, Stadt","type":"Stadt"},"district":{"key":"14522","name":"Mittelsachsen","type":"Landkreis"},"federalState":{"key":"14","name":"Sachsen"}},{"name":"Am Wald","postalCode":"09328","locality":"Lunzenau","municipality":{"key":"14522350","name":"Lunzenau, Stadt","type":"Stadt"},"district":{"key":"14522","name":"Mittelsachsen","type":"Landkreis"},"federalState":{"key":"14","name":"Sachsen"}},{"name":"An der Bahn","postalCode":"09328","locality":"Lunzenau","municipality":{"key":"14522350","name":"Lunzenau, Stadt","type":"Stadt"},"district":{"key":"14522","name":"Mittelsachsen","type":"Landkreis"},"federalState":{"key":"14","name":"Sachsen"}},{"name":"Arnsdorfer Str.","postalCode":"09328","locality":"Lunzenau","municipality":{"key":"14522350","name":"Lunzenau, Stadt","type":"Stadt"},"district":{"key":"14522","name":"Mittelsachsen","type":"Landkreis"},"federalState":{"key":"14","name":"Sachsen"}},{"name":"August-Bebel-Str.","postalCode":"09328","locality":"Lunzenau","municipality":{"key":"14522350","name":"Lunzenau, Stadt","type":"Stadt"},"district":{"key":"14522","name":"Mittelsachsen","type":"Landkreis"},"federalState":{"key":"14","name":"Sachsen"}},{"name":"Bahnhofstr.","postalCode":"09328","locality":"Lunzenau","municipality":{"key":"14522350","name":"Lunzenau, Stadt","type":"Stadt"},"district":{"key":"14522","name":"Mittelsachsen","type":"Landkreis"},"federalState":{"key":"14","name":"Sachsen"}},{"name":"Bauernseite","postalCode":"09328","locality":"Lunzenau","municipality":{"key":"14522350","name":"Lunzenau, Stadt","type":"Stadt"},"district":{"key":"14522","name":"Mittelsachsen","type":"Landkreis"},"federalState":{"key":"14","name":"Sachsen"}},{"name":"Burgstädter Str.","postalCode":"09328","locality":"Lunzenau","municipality":{"key":"14522350","name":"Lunzenau, Stadt","type":"Stadt"},"district":{"key":"14522","name":"Mittelsachsen","type":"Landkreis"},"federalState":{"key":"14","name":"Sachsen"}},{"name":"Chemnitztalstr.","postalCode":"09328","locality":"Lunzenau","municipality":{"key":"14522350","name":"Lunzenau, Stadt","type":"Stadt"},"district":{"key":"14522","name":"Mittelsachsen","type":"Landkreis"},"federalState":{"key":"14","name":"Sachsen"}},{"name":"Corbaer Str.","postalCode":"09328","locality":"Lunzenau","municipality":{"key":"14522350","name":"Lunzenau, Stadt","type":"Stadt"},"district":{"key":"14522","name":"Mittelsachsen","type":"Landkreis"},"federalState":{"key":"14","name":"Sachsen"}},{"name":"Cossener Str.","postalCode":"09328","locality":"Lunzenau","municipality":{"key":"14522350","name":"Lunzenau, Stadt","type":"Stadt"},"district":{"key":"14522","name":"Mittelsachsen","type":"Landkreis"},"federalState":{"key":"14","name":"Sachsen"}},{"name":"Dorfstr.","postalCode":"09328","locality":"Lunzenau","municipality":{"key":"14522350","name":"Lunzenau, Stadt","type":"Stadt"},"district":{"key":"14522","name":"Mittelsachsen","type":"Landkreis"},"federalState":{"key":"14","name":"Sachsen"}},{"name":"Dr.-Max-Vogler-Str.","postalCode":"09328","locality":"Lunzenau","municipality":{"key":"14522350","name":"Lunzenau, Stadt","type":"Stadt"},"district":{"key":"14522","name":"Mittelsachsen","type":"Landkreis"},"federalState":{"key":"14","name":"Sachsen"}},{"name":"Dr.-Otto-Nuschke-Str.","postalCode":"09328","locality":"Lunzenau","municipality":{"key":"14522350","name":"Lunzenau, Stadt","type":"Stadt"},"district":{"key":"14522","name":"Mittelsachsen","type":"Landkreis"},"federalState":{"key":"14","name":"Sachsen"}},{"name":"Erich-Weinert-Str.","postalCode":"09328","locality":"Lunzenau","municipality":{"key":"14522350","name":"Lunzenau, Stadt","type":"Stadt"},"district":{"key":"14522","name":"Mittelsachsen","type":"Landkreis"},"federalState":{"key":"14","name":"Sachsen"}},{"name":"Ernst-Schneller-Str.","postalCode":"09328","locality":"Lunzenau","municipality":{"key":"14522350","name":"Lunzenau, Stadt","type":"Stadt"},"district":{"key":"14522","name":"Mittelsachsen","type":"Landkreis"},"federalState":{"key":"14","name":"Sachsen"}},{"name":"Ernst-Thälmann-Str.","postalCode":"09328","locality":"Lunzenau","municipality":{"key":"14522350","name":"Lunzenau, Stadt","type":"Stadt"},"district":{"key":"14522","name":"Mittelsachsen","type":"Landkreis"},"federalState":{"key":"14","name":"Sachsen"}},{"name":"Fabrikstr.","postalCode":"09328","locality":"Lunzenau","municipality":{"key":"14522350","name":"Lunzenau, Stadt","type":"Stadt"},"district":{"key":"14522","name":"Mittelsachsen","type":"Landkreis"},"federalState":{"key":"14","name":"Sachsen"}},{"name":"Feldstr.","postalCode":"09328","locality":"Lunzenau","municipality":{"key":"14522350","name":"Lunzenau, Stadt","type":"Stadt"},"district":{"key":"14522","name":"Mittelsachsen","type":"Landkreis"},"federalState":{"key":"14","name":"Sachsen"}},{"name":"Friedensstr.","postalCode":"09328","locality":"Lunzenau","municipality":{"key":"14522350","name":"Lunzenau, Stadt","type":"Stadt"},"district":{"key":"14522","name":"Mittelsachsen","type":"Landkreis"},"federalState":{"key":"14","name":"Sachsen"}},{"name":"Friedhofstr.","postalCode":"09328","locality":"Lunzenau","municipality":{"key":"14522350","name":"Lunzenau, Stadt","type":"Stadt"},"district":{"key":"14522","name":"Mittelsachsen","type":"Landkreis"},"federalState":{"key":"14","name":"Sachsen"}},{"name":"Gartenstr.","postalCode":"09328","locality":"Lunzenau","municipality":{"key":"14522350","name":"Lunzenau, Stadt","type":"Stadt"},"district":{"key":"14522","name":"Mittelsachsen","type":"Landkreis"},"federalState":{"key":"14","name":"Sachsen"}},{"name":"Goethestr.","postalCode":"09328","locality":"Lunzenau","municipality":{"key":"14522350","name":"Lunzenau, Stadt","type":"Stadt"},"district":{"key":"14522","name":"Mittelsachsen","type":"Landkreis"},"federalState":{"key":"14","name":"Sachsen"}},{"name":"Göritzhainer Str.","postalCode":"09328","locality":"Lunzenau","municipality":{"key":"14522350","name":"Lunzenau, Stadt","type":"Stadt"},"district":{"key":"14522","name":"Mittelsachsen","type":"Landkreis"},"federalState":{"key":"14","name":"Sachsen"}},{"name":"Hauptstr.","postalCode":"09328","locality":"Lunzenau","municipality":{"key":"14522350","name":"Lunzenau, Stadt","type":"Stadt"},"district":{"key":"14522","name":"Mittelsachsen","type":"Landkreis"},"federalState":{"key":"14","name":"Sachsen"}},{"name":"Heinrich Heine Park","postalCode":"09328","locality":"Lunzenau","municipality":{"key":"14522350","name":"Lunzenau, Stadt","type":"Stadt"},"district":{"key":"14522","name":"Mittelsachsen","type":"Landkreis"},"federalState":{"key":"14","name":"Sachsen"}},{"name":"Heinrich-Heine-Str.","postalCode":"09328","locality":"Lunzenau","municipality":{"key":"14522350","name":"Lunzenau, Stadt","type":"Stadt"},"district":{"key":"14522","name":"Mittelsachsen","type":"Landkreis"},"federalState":{"key":"14","name":"Sachsen"}},{"name":"Henri-Dunant-Str.","postalCode":"09328","locality":"Lunzenau","municipality":{"key":"14522350","name":"Lunzenau, Stadt","type":"Stadt"},"district":{"key":"14522","name":"Mittelsachsen","type":"Landkreis"},"federalState":{"key":"14","name":"Sachsen"}},{"name":"Hofeweg","postalCode":"09328","locality":"Lunzenau","municipality":{"key":"14522350","name":"Lunzenau, Stadt","type":"Stadt"},"district":{"key":"14522","name":"Mittelsachsen","type":"Landkreis"},"federalState":{"key":"14","name":"Sachsen"}},{"name":"Johannes-Strehle-Str.","postalCode":"09328","locality":"Lunzenau","municipality":{"key":"14522350","name":"Lunzenau, Stadt","type":"Stadt"},"district":{"key":"14522","name":"Mittelsachsen","type":"Landkreis"},"federalState":{"key":"14","name":"Sachsen"}},{"name":"Karl-Marx-Str.","postalCode":"09328","locality":"Lunzenau","municipality":{"key":"14522350","name":"Lunzenau, Stadt","type":"Stadt"},"district":{"key":"14522","name":"Mittelsachsen","type":"Landkreis"},"federalState":{"key":"14","name":"Sachsen"}},{"name":"Kellerberg","postalCode":"09328","locality":"Lunzenau","municipality":{"key":"14522350","name":"Lunzenau, Stadt","type":"Stadt"},"district":{"key":"14522","name":"Mittelsachsen","type":"Landkreis"},"federalState":{"key":"14","name":"Sachsen"}},{"name":"Kirchgasse","postalCode":"09328","locality":"Lunzenau","municipality":{"key":"14522350","name":"Lunzenau, Stadt","type":"Stadt"},"district":{"key":"14522","name":"Mittelsachsen","type":"Landkreis"},"federalState":{"key":"14","name":"Sachsen"}},{"name":"Lunzenauer Str.","postalCode":"09328","locality":"Lunzenau","municipality":{"key":"14522350","name":"Lunzenau, Stadt","type":"Stadt"},"district":{"key":"14522","name":"Mittelsachsen","type":"Landkreis"},"federalState":{"key":"14","name":"Sachsen"}},{"name":"Markt","postalCode":"09328","locality":"Lunzenau","municipality":{"key":"14522350","name":"Lunzenau, Stadt","type":"Stadt"},"district":{"key":"14522","name":"Mittelsachsen","type":"Landkreis"},"federalState":{"key":"14","name":"Sachsen"}},{"name":"Max Vogler Park","postalCode":"09328","locality":"Lunzenau","municipality":{"key":"14522350","name":"Lunzenau, Stadt","type":"Stadt"},"district":{"key":"14522","name":"Mittelsachsen","type":"Landkreis"},"federalState":{"key":"14","name":"Sachsen"}},{"name":"Mendelssohnplatz","postalCode":"09328","locality":"Lunzenau","municipality":{"key":"14522350","name":"Lunzenau, Stadt","type":"Stadt"},"district":{"key":"14522","name":"Mittelsachsen","type":"Landkreis"},"federalState":{"key":"14","name":"Sachsen"}},{"name":"Mühlenweg","postalCode":"09328","locality":"Lunzenau","municipality":{"key":"14522350","name":"Lunzenau, Stadt","type":"Stadt"},"district":{"key":"14522","name":"Mittelsachsen","type":"Landkreis"},"federalState":{"key":"14","name":"Sachsen"}},{"name":"Muldebrücke","postalCode":"09328","locality":"Lunzenau","municipality":{"key":"14522350","name":"Lunzenau, Stadt","type":"Stadt"},"district":{"key":"14522","name":"Mittelsachsen","type":"Landkreis"},"federalState":{"key":"14","name":"Sachsen"}},{"name":"Muldenstr.","postalCode":"09328","locality":"Lunzenau","municipality":{"key":"14522350","name":"Lunzenau, Stadt","type":"Stadt"},"district":{"key":"14522","name":"Mittelsachsen","type":"Landkreis"},"federalState":{"key":"14","name":"Sachsen"}},{"name":"Muldenterrasse","postalCode":"09328","locality":"Lunzenau","municipality":{"key":"14522350","name":"Lunzenau, Stadt","type":"Stadt"},"district":{"key":"14522","name":"Mittelsachsen","type":"Landkreis"},"federalState":{"key":"14","name":"Sachsen"}},{"name":"Neugasse","postalCode":"09328","locality":"Lunzenau","municipality":{"key":"14522350","name":"Lunzenau, Stadt","type":"Stadt"},"district":{"key":"14522","name":"Mittelsachsen","type":"Landkreis"},"federalState":{"key":"14","name":"Sachsen"}},{"name":"Obere Hauptstr.","postalCode":"09328","locality":"Lunzenau","municipality":{"key":"14522350","name":"Lunzenau, Stadt","type":"Stadt"},"district":{"key":"14522","name":"Mittelsachsen","type":"Landkreis"},"federalState":{"key":"14","name":"Sachsen"}},{"name":"Obere Toranlage","postalCode":"09328","locality":"Lunzenau","municipality":{"key":"14522350","name":"Lunzenau, Stadt","type":"Stadt"},"district":{"key":"14522","name":"Mittelsachsen","type":"Landkreis"},"federalState":{"key":"14","name":"Sachsen"}},{"name":"Oberhohenkirchener Str.","postalCode":"09328","locality":"Lunzenau","municipality":{"key":"14522350","name":"Lunzenau, Stadt","type":"Stadt"},"district":{"key":"14522","name":"Mittelsachsen","type":"Landkreis"},"federalState":{"key":"14","name":"Sachsen"}},{"name":"Parkstr.","postalCode":"09328","locality":"Lunzenau","municipality":{"key":"14522350","name":"Lunzenau, Stadt","type":"Stadt"},"district":{"key":"14522","name":"Mittelsachsen","type":"Landkreis"},"federalState":{"key":"14","name":"Sachsen"}},{"name":"Peniger Str.","postalCode":"09328","locality":"Lunzenau","municipality":{"key":"14522350","name":"Lunzenau, Stadt","type":"Stadt"},"district":{"key":"14522","name":"Mittelsachsen","type":"Landkreis"},"federalState":{"key":"14","name":"Sachsen"}},{"name":"Pestalozzistr.","postalCode":"09328","locality":"Lunzenau","municipality":{"key":"14522350","name":"Lunzenau, Stadt","type":"Stadt"},"district":{"key":"14522","name":"Mittelsachsen","type":"Landkreis"},"federalState":{"key":"14","name":"Sachsen"}},{"name":"Pflaumenallee","postalCode":"09328","locality":"Lunzenau","municipality":{"key":"14522350","name":"Lunzenau, Stadt","type":"Stadt"},"district":{"key":"14522","name":"Mittelsachsen","type":"Landkreis"},"federalState":{"key":"14","name":"Sachsen"}},{"name":"Randsiedlung","postalCode":"09328","locality":"Lunzenau","municipality":{"key":"14522350","name":"Lunzenau, Stadt","type":"Stadt"},"district":{"key":"14522","name":"Mittelsachsen","type":"Landkreis"},"federalState":{"key":"14","name":"Sachsen"}},{"name":"Rochlitzer Str.","postalCode":"09328","locality":"Lunzenau","municipality":{"key":"14522350","name":"Lunzenau, Stadt","type":"Stadt"},"district":{"key":"14522","name":"Mittelsachsen","type":"Landkreis"},"federalState":{"key":"14","name":"Sachsen"}},{"name":"Salzstr.","postalCode":"09328","locality":"Lunzenau","municipality":{"key":"14522350","name":"Lunzenau, Stadt","type":"Stadt"},"district":{"key":"14522","name":"Mittelsachsen","type":"Landkreis"},"federalState":{"key":"14","name":"Sachsen"}},{"name":"Sandstr.","postalCode":"09328","locality":"Lunzenau","municipality":{"key":"14522350","name":"Lunzenau, Stadt","type":"Stadt"},"district":{"key":"14522","name":"Mittelsachsen","type":"Landkreis"},"federalState":{"key":"14","name":"Sachsen"}},{"name":"Schäfereiweg","postalCode":"09328","locality":"Lunzenau","municipality":{"key":"14522350","name":"Lunzenau, Stadt","type":"Stadt"},"district":{"key":"14522","name":"Mittelsachsen","type":"Landkreis"},"federalState":{"key":"14","name":"Sachsen"}},{"name":"Schaukelbrücke","postalCode":"09328","locality":"Lunzenau","municipality":{"key":"14522350","name":"Lunzenau, Stadt","type":"Stadt"},"district":{"key":"14522","name":"Mittelsachsen","type":"Landkreis"},"federalState":{"key":"14","name":"Sachsen"}},{"name":"Schillerstr.","postalCode":"09328","locality":"Lunzenau","municipality":{"key":"14522350","name":"Lunzenau, Stadt","type":"Stadt"},"district":{"key":"14522","name":"Mittelsachsen","type":"Landkreis"},"federalState":{"key":"14","name":"Sachsen"}},{"name":"Schlaisdorfer Str.","postalCode":"09328","locality":"Lunzenau","municipality":{"key":"14522350","name":"Lunzenau, Stadt","type":"Stadt"},"district":{"key":"14522","name":"Mittelsachsen","type":"Landkreis"},"federalState":{"key":"14","name":"Sachsen"}},{"name":"Schloßstr.","postalCode":"09328","locality":"Lunzenau","municipality":{"key":"14522350","name":"Lunzenau, Stadt","type":"Stadt"},"district":{"key":"14522","name":"Mittelsachsen","type":"Landkreis"},"federalState":{"key":"14","name":"Sachsen"}},{"name":"Schulstr.","postalCode":"09328","locality":"Lunzenau","municipality":{"key":"14522350","name":"Lunzenau, Stadt","type":"Stadt"},"district":{"key":"14522","name":"Mittelsachsen","type":"Landkreis"},"federalState":{"key":"14","name":"Sachsen"}},{"name":"Schwarzer Weg","postalCode":"09328","locality":"Lunzenau","municipality":{"key":"14522350","name":"Lunzenau, Stadt","type":"Stadt"},"district":{"key":"14522","name":"Mittelsachsen","type":"Landkreis"},"federalState":{"key":"14","name":"Sachsen"}},{"name":"Siedlung","postalCode":"09328","locality":"Lunzenau","municipality":{"key":"14522350","name":"Lunzenau, Stadt","type":"Stadt"},"district":{"key":"14522","name":"Mittelsachsen","type":"Landkreis"},"federalState":{"key":"14","name":"Sachsen"}},{"name":"Talstr.","postalCode":"09328","locality":"Lunzenau","municipality":{"key":"14522350","name":"Lunzenau, Stadt","type":"Stadt"},"district":{"key":"14522","name":"Mittelsachsen","type":"Landkreis"},"federalState":{"key":"14","name":"Sachsen"}},{"name":"Töpfergasse","postalCode":"09328","locality":"Lunzenau","municipality":{"key":"14522350","name":"Lunzenau, Stadt","type":"Stadt"},"district":{"key":"14522","name":"Mittelsachsen","type":"Landkreis"},"federalState":{"key":"14","name":"Sachsen"}},{"name":"Tränkgrundstr.","postalCode":"09328","locality":"Lunzenau","municipality":{"key":"14522350","name":"Lunzenau, Stadt","type":"Stadt"},"district":{"key":"14522","name":"Mittelsachsen","type":"Landkreis"},"federalState":{"key":"14","name":"Sachsen"}},{"name":"Untere Hauptstr.","postalCode":"09328","locality":"Lunzenau","municipality":{"key":"14522350","name":"Lunzenau, Stadt","type":"Stadt"},"district":{"key":"14522","name":"Mittelsachsen","type":"Landkreis"},"federalState":{"key":"14","name":"Sachsen"}},{"name":"Untergasse","postalCode":"09328","locality":"Lunzenau","municipality":{"key":"14522350","name":"Lunzenau, Stadt","type":"Stadt"},"district":{"key":"14522","name":"Mittelsachsen","type":"Landkreis"},"federalState":{"key":"14","name":"Sachsen"}},{"name":"weiß-grün-weiß","postalCode":"09328","locality":"Lunzenau","municipality":{"key":"14522350","name":"Lunzenau, Stadt","type":"Stadt"},"district":{"key":"14522","name":"Mittelsachsen","type":"Landkreis"},"federalState":{"key":"14","name":"Sachsen"}},{"name":"Wiesenstr.","postalCode":"09328","locality":"Lunzenau","municipality":{"key":"14522350","name":"Lunzenau, Stadt","type":"Stadt"},"district":{"key":"14522","name":"Mittelsachsen","type":"Landkreis"},"federalState":{"key":"14","name":"Sachsen"}},{"name":"Wilhelminenberg","postalCode":"09328","locality":"Lunzenau","municipality":{"key":"14522350","name":"Lunzenau, Stadt","type":"Stadt"},"district":{"key":"14522","name":"Mittelsachsen","type":"Landkreis"},"federalState":{"key":"14","name":"Sachsen"}},{"name":"Wirtschaftshof","postalCode":"09328","locality":"Lunzenau","municipality":{"key":"14522350","name":"Lunzenau, Stadt","type":"Stadt"},"district":{"key":"14522","name":"Mittelsachsen","type":"Landkreis"},"federalState":{"key":"14","name":"Sachsen"}},{"name":"Ziegeleigasse","postalCode":"09328","locality":"Lunzenau","municipality":{"key":"14522350","name":"Lunzenau, Stadt","type":"Stadt"},"district":{"key":"14522","name":"Mittelsachsen","type":"Landkreis"},"federalState":{"key":"14","name":"Sachsen"}},{"name":"Zur Amtmannskluft","postalCode":"09328","locality":"Lunzenau","municipality":{"key":"14522350","name":"Lunzenau, Stadt","type":"Stadt"},"district":{"key":"14522","name":"Mittelsachsen","type":"Landkreis"},"federalState":{"key":"14","name":"Sachsen"}},{"name":"Zur Goldenen Höhe","postalCode":"09328","locality":"Lunzenau","municipality":{"key":"14522350","name":"Lunzenau, Stadt","type":"Stadt"},"district":{"key":"14522","name":"Mittelsachsen","type":"Landkreis"},"federalState":{"key":"14","name":"Sachsen"}},]