[{"name":"Am Mühlfeld","postalCode":"66978","locality":"Merzalben","municipality":{"key":"07340031","name":"Merzalben","type":"Kreisangehörige_Gemeinde"},"district":{"key":"07340","name":"Südwestpfalz","type":"Landkreis"},"federalState":{"key":"07","name":"Rheinland-Pfalz"}},{"name":"Am Ringelsberg","postalCode":"66978","locality":"Merzalben","municipality":{"key":"07340031","name":"Merzalben","type":"Kreisangehörige_Gemeinde"},"district":{"key":"07340","name":"Südwestpfalz","type":"Landkreis"},"federalState":{"key":"07","name":"Rheinland-Pfalz"}},{"name":"Am Sportplatz","postalCode":"66978","locality":"Merzalben","municipality":{"key":"07340031","name":"Merzalben","type":"Kreisangehörige_Gemeinde"},"district":{"key":"07340","name":"Südwestpfalz","type":"Landkreis"},"federalState":{"key":"07","name":"Rheinland-Pfalz"}},{"name":"Auf dem Kiesel","postalCode":"66978","locality":"Merzalben","municipality":{"key":"07340031","name":"Merzalben","type":"Kreisangehörige_Gemeinde"},"district":{"key":"07340","name":"Südwestpfalz","type":"Landkreis"},"federalState":{"key":"07","name":"Rheinland-Pfalz"}},{"name":"Birkenstr.","postalCode":"66978","locality":"Merzalben","municipality":{"key":"07340031","name":"Merzalben","type":"Kreisangehörige_Gemeinde"},"district":{"key":"07340","name":"Südwestpfalz","type":"Landkreis"},"federalState":{"key":"07","name":"Rheinland-Pfalz"}},{"name":"Bischof-Emanuel-Str.","postalCode":"66978","locality":"Merzalben","municipality":{"key":"07340031","name":"Merzalben","type":"Kreisangehörige_Gemeinde"},"district":{"key":"07340","name":"Südwestpfalz","type":"Landkreis"},"federalState":{"key":"07","name":"Rheinland-Pfalz"}},{"name":"Buchenstr.","postalCode":"66978","locality":"Merzalben","municipality":{"key":"07340031","name":"Merzalben","type":"Kreisangehörige_Gemeinde"},"district":{"key":"07340","name":"Südwestpfalz","type":"Landkreis"},"federalState":{"key":"07","name":"Rheinland-Pfalz"}},{"name":"Edgar-Anstett-Str.","postalCode":"66978","locality":"Merzalben","municipality":{"key":"07340031","name":"Merzalben","type":"Kreisangehörige_Gemeinde"},"district":{"key":"07340","name":"Südwestpfalz","type":"Landkreis"},"federalState":{"key":"07","name":"Rheinland-Pfalz"}},{"name":"Erlenstr.","postalCode":"66978","locality":"Merzalben","municipality":{"key":"07340031","name":"Merzalben","type":"Kreisangehörige_Gemeinde"},"district":{"key":"07340","name":"Südwestpfalz","type":"Landkreis"},"federalState":{"key":"07","name":"Rheinland-Pfalz"}},{"name":"Fichtenstr.","postalCode":"66978","locality":"Merzalben","municipality":{"key":"07340031","name":"Merzalben","type":"Kreisangehörige_Gemeinde"},"district":{"key":"07340","name":"Südwestpfalz","type":"Landkreis"},"federalState":{"key":"07","name":"Rheinland-Pfalz"}},{"name":"Flurstr.","postalCode":"66978","locality":"Merzalben","municipality":{"key":"07340031","name":"Merzalben","type":"Kreisangehörige_Gemeinde"},"district":{"key":"07340","name":"Südwestpfalz","type":"Landkreis"},"federalState":{"key":"07","name":"Rheinland-Pfalz"}},{"name":"Freizeitanlage","postalCode":"66978","locality":"Merzalben","municipality":{"key":"07340031","name":"Merzalben","type":"Kreisangehörige_Gemeinde"},"district":{"key":"07340","name":"Südwestpfalz","type":"Landkreis"},"federalState":{"key":"07","name":"Rheinland-Pfalz"}},{"name":"Gräfensteinstr.","postalCode":"66978","locality":"Merzalben","municipality":{"key":"07340031","name":"Merzalben","type":"Kreisangehörige_Gemeinde"},"district":{"key":"07340","name":"Südwestpfalz","type":"Landkreis"},"federalState":{"key":"07","name":"Rheinland-Pfalz"}},{"name":"Hammelsbachstr.","postalCode":"66978","locality":"Merzalben","municipality":{"key":"07340031","name":"Merzalben","type":"Kreisangehörige_Gemeinde"},"district":{"key":"07340","name":"Südwestpfalz","type":"Landkreis"},"federalState":{"key":"07","name":"Rheinland-Pfalz"}},{"name":"Hauptstr.","postalCode":"66978","locality":"Merzalben","municipality":{"key":"07340031","name":"Merzalben","type":"Kreisangehörige_Gemeinde"},"district":{"key":"07340","name":"Südwestpfalz","type":"Landkreis"},"federalState":{"key":"07","name":"Rheinland-Pfalz"}},{"name":"Hirtenstr.","postalCode":"66978","locality":"Merzalben","municipality":{"key":"07340031","name":"Merzalben","type":"Kreisangehörige_Gemeinde"},"district":{"key":"07340","name":"Südwestpfalz","type":"Landkreis"},"federalState":{"key":"07","name":"Rheinland-Pfalz"}},{"name":"Höhstr.","postalCode":"66978","locality":"Merzalben","municipality":{"key":"07340031","name":"Merzalben","type":"Kreisangehörige_Gemeinde"},"district":{"key":"07340","name":"Südwestpfalz","type":"Landkreis"},"federalState":{"key":"07","name":"Rheinland-Pfalz"}},{"name":"In den Heidenäckern","postalCode":"66978","locality":"Merzalben","municipality":{"key":"07340031","name":"Merzalben","type":"Kreisangehörige_Gemeinde"},"district":{"key":"07340","name":"Südwestpfalz","type":"Landkreis"},"federalState":{"key":"07","name":"Rheinland-Pfalz"}},{"name":"Jahnstr.","postalCode":"66978","locality":"Merzalben","municipality":{"key":"07340031","name":"Merzalben","type":"Kreisangehörige_Gemeinde"},"district":{"key":"07340","name":"Südwestpfalz","type":"Landkreis"},"federalState":{"key":"07","name":"Rheinland-Pfalz"}},{"name":"Karl-Härig-Str.","postalCode":"66978","locality":"Merzalben","municipality":{"key":"07340031","name":"Merzalben","type":"Kreisangehörige_Gemeinde"},"district":{"key":"07340","name":"Südwestpfalz","type":"Landkreis"},"federalState":{"key":"07","name":"Rheinland-Pfalz"}},{"name":"Kreuzstr.","postalCode":"66978","locality":"Merzalben","municipality":{"key":"07340031","name":"Merzalben","type":"Kreisangehörige_Gemeinde"},"district":{"key":"07340","name":"Südwestpfalz","type":"Landkreis"},"federalState":{"key":"07","name":"Rheinland-Pfalz"}},{"name":"Kuffenbergstr.","postalCode":"66978","locality":"Merzalben","municipality":{"key":"07340031","name":"Merzalben","type":"Kreisangehörige_Gemeinde"},"district":{"key":"07340","name":"Südwestpfalz","type":"Landkreis"},"federalState":{"key":"07","name":"Rheinland-Pfalz"}},{"name":"Lindenstr.","postalCode":"66978","locality":"Merzalben","municipality":{"key":"07340031","name":"Merzalben","type":"Kreisangehörige_Gemeinde"},"district":{"key":"07340","name":"Südwestpfalz","type":"Landkreis"},"federalState":{"key":"07","name":"Rheinland-Pfalz"}},{"name":"Richard-Frank-Str.","postalCode":"66978","locality":"Merzalben","municipality":{"key":"07340031","name":"Merzalben","type":"Kreisangehörige_Gemeinde"},"district":{"key":"07340","name":"Südwestpfalz","type":"Landkreis"},"federalState":{"key":"07","name":"Rheinland-Pfalz"}},{"name":"Tannenstr.","postalCode":"66978","locality":"Merzalben","municipality":{"key":"07340031","name":"Merzalben","type":"Kreisangehörige_Gemeinde"},"district":{"key":"07340","name":"Südwestpfalz","type":"Landkreis"},"federalState":{"key":"07","name":"Rheinland-Pfalz"}},{"name":"Turnstr.","postalCode":"66978","locality":"Merzalben","municipality":{"key":"07340031","name":"Merzalben","type":"Kreisangehörige_Gemeinde"},"district":{"key":"07340","name":"Südwestpfalz","type":"Landkreis"},"federalState":{"key":"07","name":"Rheinland-Pfalz"}},{"name":"Unterer Kiesel","postalCode":"66978","locality":"Merzalben","municipality":{"key":"07340031","name":"Merzalben","type":"Kreisangehörige_Gemeinde"},"district":{"key":"07340","name":"Südwestpfalz","type":"Landkreis"},"federalState":{"key":"07","name":"Rheinland-Pfalz"}},{"name":"Waldstr.","postalCode":"66978","locality":"Merzalben","municipality":{"key":"07340031","name":"Merzalben","type":"Kreisangehörige_Gemeinde"},"district":{"key":"07340","name":"Südwestpfalz","type":"Landkreis"},"federalState":{"key":"07","name":"Rheinland-Pfalz"}},{"name":"Zimmerbergstr.","postalCode":"66978","locality":"Merzalben","municipality":{"key":"07340031","name":"Merzalben","type":"Kreisangehörige_Gemeinde"},"district":{"key":"07340","name":"Südwestpfalz","type":"Landkreis"},"federalState":{"key":"07","name":"Rheinland-Pfalz"}},{"name":"Zum Schäferkreuz","postalCode":"66978","locality":"Merzalben","municipality":{"key":"07340031","name":"Merzalben","type":"Kreisangehörige_Gemeinde"},"district":{"key":"07340","name":"Südwestpfalz","type":"Landkreis"},"federalState":{"key":"07","name":"Rheinland-Pfalz"}},]