[{"name":"Aachener Str.","postalCode":"53879","locality":"Euskirchen","municipality":{"key":"05366016","name":"Euskirchen, Stadt","type":"Stadt"},"district":{"key":"05366","name":"Euskirchen","type":"Kreis"},"federalState":{"key":"05","name":"Nordrhein-Westfalen"}},{"name":"Achatstr.","postalCode":"53881","locality":"Euskirchen","municipality":{"key":"05366016","name":"Euskirchen, Stadt","type":"Stadt"},"district":{"key":"05366","name":"Euskirchen","type":"Kreis"},"federalState":{"key":"05","name":"Nordrhein-Westfalen"}},{"name":"Ackerstr.","postalCode":"53881","locality":"Euskirchen","municipality":{"key":"05366016","name":"Euskirchen, Stadt","type":"Stadt"},"district":{"key":"05366","name":"Euskirchen","type":"Kreis"},"federalState":{"key":"05","name":"Nordrhein-Westfalen"}},{"name":"Adlerstr.","postalCode":"53881","locality":"Euskirchen","municipality":{"key":"05366016","name":"Euskirchen, Stadt","type":"Stadt"},"district":{"key":"05366","name":"Euskirchen","type":"Kreis"},"federalState":{"key":"05","name":"Nordrhein-Westfalen"}},{"name":"Adolf-Bohnen-Weg","postalCode":"53881","locality":"Euskirchen","municipality":{"key":"05366016","name":"Euskirchen, Stadt","type":"Stadt"},"district":{"key":"05366","name":"Euskirchen","type":"Kreis"},"federalState":{"key":"05","name":"Nordrhein-Westfalen"}},{"name":"Adolf-Halstrick-Str.","postalCode":"53881","locality":"Euskirchen","municipality":{"key":"05366016","name":"Euskirchen, Stadt","type":"Stadt"},"district":{"key":"05366","name":"Euskirchen","type":"Kreis"},"federalState":{"key":"05","name":"Nordrhein-Westfalen"}},{"name":"Agnes-Deutschbein-Str.","postalCode":"53879","locality":"Euskirchen","municipality":{"key":"05366016","name":"Euskirchen, Stadt","type":"Stadt"},"district":{"key":"05366","name":"Euskirchen","type":"Kreis"},"federalState":{"key":"05","name":"Nordrhein-Westfalen"}},{"name":"Ahornweg","postalCode":"53879","locality":"Euskirchen","municipality":{"key":"05366016","name":"Euskirchen, Stadt","type":"Stadt"},"district":{"key":"05366","name":"Euskirchen","type":"Kreis"},"federalState":{"key":"05","name":"Nordrhein-Westfalen"}},{"name":"Ahrstr.","postalCode":"53879","locality":"Euskirchen","municipality":{"key":"05366016","name":"Euskirchen, Stadt","type":"Stadt"},"district":{"key":"05366","name":"Euskirchen","type":"Kreis"},"federalState":{"key":"05","name":"Nordrhein-Westfalen"}},{"name":"Akazienweg","postalCode":"53879","locality":"Euskirchen","municipality":{"key":"05366016","name":"Euskirchen, Stadt","type":"Stadt"},"district":{"key":"05366","name":"Euskirchen","type":"Kreis"},"federalState":{"key":"05","name":"Nordrhein-Westfalen"}},{"name":"Albert-Schweitzer-Str.","postalCode":"53879","locality":"Euskirchen","municipality":{"key":"05366016","name":"Euskirchen, Stadt","type":"Stadt"},"district":{"key":"05366","name":"Euskirchen","type":"Kreis"},"federalState":{"key":"05","name":"Nordrhein-Westfalen"}},{"name":"Albrecht-Altdorfer-Str.","postalCode":"53879","locality":"Euskirchen","municipality":{"key":"05366016","name":"Euskirchen, Stadt","type":"Stadt"},"district":{"key":"05366","name":"Euskirchen","type":"Kreis"},"federalState":{"key":"05","name":"Nordrhein-Westfalen"}},{"name":"Albrecht-Dürer-Str.","postalCode":"53879","locality":"Euskirchen","municipality":{"key":"05366016","name":"Euskirchen, Stadt","type":"Stadt"},"district":{"key":"05366","name":"Euskirchen","type":"Kreis"},"federalState":{"key":"05","name":"Nordrhein-Westfalen"}},{"name":"Alemannenstr.","postalCode":"53881","locality":"Euskirchen","municipality":{"key":"05366016","name":"Euskirchen, Stadt","type":"Stadt"},"district":{"key":"05366","name":"Euskirchen","type":"Kreis"},"federalState":{"key":"05","name":"Nordrhein-Westfalen"}},{"name":"Alfred-Nobel-Str.","postalCode":"53879","locality":"Euskirchen","municipality":{"key":"05366016","name":"Euskirchen, Stadt","type":"Stadt"},"district":{"key":"05366","name":"Euskirchen","type":"Kreis"},"federalState":{"key":"05","name":"Nordrhein-Westfalen"}},{"name":"Alfred-Wegener-Str.","postalCode":"53881","locality":"Euskirchen","municipality":{"key":"05366016","name":"Euskirchen, Stadt","type":"Stadt"},"district":{"key":"05366","name":"Euskirchen","type":"Kreis"},"federalState":{"key":"05","name":"Nordrhein-Westfalen"}},{"name":"Alleestr.","postalCode":"53879","locality":"Euskirchen","municipality":{"key":"05366016","name":"Euskirchen, Stadt","type":"Stadt"},"district":{"key":"05366","name":"Euskirchen","type":"Kreis"},"federalState":{"key":"05","name":"Nordrhein-Westfalen"}},{"name":"Alte Gerberstr.","postalCode":"53879","locality":"Euskirchen","municipality":{"key":"05366016","name":"Euskirchen, Stadt","type":"Stadt"},"district":{"key":"05366","name":"Euskirchen","type":"Kreis"},"federalState":{"key":"05","name":"Nordrhein-Westfalen"}},{"name":"Alte Landstr.","postalCode":"53881","locality":"Euskirchen","municipality":{"key":"05366016","name":"Euskirchen, Stadt","type":"Stadt"},"district":{"key":"05366","name":"Euskirchen","type":"Kreis"},"federalState":{"key":"05","name":"Nordrhein-Westfalen"}},{"name":"Alte Lederfabrik","postalCode":"53881","locality":"Euskirchen","municipality":{"key":"05366016","name":"Euskirchen, Stadt","type":"Stadt"},"district":{"key":"05366","name":"Euskirchen","type":"Kreis"},"federalState":{"key":"05","name":"Nordrhein-Westfalen"}},{"name":"Alter Sportplatz","postalCode":"53881","locality":"Euskirchen","municipality":{"key":"05366016","name":"Euskirchen, Stadt","type":"Stadt"},"district":{"key":"05366","name":"Euskirchen","type":"Kreis"},"federalState":{"key":"05","name":"Nordrhein-Westfalen"}},{"name":"Altwerk","postalCode":"53881","locality":"Euskirchen","municipality":{"key":"05366016","name":"Euskirchen, Stadt","type":"Stadt"},"district":{"key":"05366","name":"Euskirchen","type":"Kreis"},"federalState":{"key":"05","name":"Nordrhein-Westfalen"}},{"name":"Alzenaustr.","postalCode":"53881","locality":"Euskirchen","municipality":{"key":"05366016","name":"Euskirchen, Stadt","type":"Stadt"},"district":{"key":"05366","name":"Euskirchen","type":"Kreis"},"federalState":{"key":"05","name":"Nordrhein-Westfalen"}},{"name":"Am Bach","postalCode":"53881","locality":"Euskirchen","municipality":{"key":"05366016","name":"Euskirchen, Stadt","type":"Stadt"},"district":{"key":"05366","name":"Euskirchen","type":"Kreis"},"federalState":{"key":"05","name":"Nordrhein-Westfalen"}},{"name":"Am Bäcker Janns Kreuz","postalCode":"53881","locality":"Euskirchen","municipality":{"key":"05366016","name":"Euskirchen, Stadt","type":"Stadt"},"district":{"key":"05366","name":"Euskirchen","type":"Kreis"},"federalState":{"key":"05","name":"Nordrhein-Westfalen"}},{"name":"Am Bollwerk","postalCode":"53879","locality":"Euskirchen","municipality":{"key":"05366016","name":"Euskirchen, Stadt","type":"Stadt"},"district":{"key":"05366","name":"Euskirchen","type":"Kreis"},"federalState":{"key":"05","name":"Nordrhein-Westfalen"}},{"name":"Am Bruchzaun","postalCode":"53881","locality":"Euskirchen","municipality":{"key":"05366016","name":"Euskirchen, Stadt","type":"Stadt"},"district":{"key":"05366","name":"Euskirchen","type":"Kreis"},"federalState":{"key":"05","name":"Nordrhein-Westfalen"}},{"name":"Am Buschweg","postalCode":"53881","locality":"Euskirchen","municipality":{"key":"05366016","name":"Euskirchen, Stadt","type":"Stadt"},"district":{"key":"05366","name":"Euskirchen","type":"Kreis"},"federalState":{"key":"05","name":"Nordrhein-Westfalen"}},{"name":"Am Dachsbusch","postalCode":"53881","locality":"Euskirchen","municipality":{"key":"05366016","name":"Euskirchen, Stadt","type":"Stadt"},"district":{"key":"05366","name":"Euskirchen","type":"Kreis"},"federalState":{"key":"05","name":"Nordrhein-Westfalen"}},{"name":"Am Domhof","postalCode":"53881","locality":"Euskirchen","municipality":{"key":"05366016","name":"Euskirchen, Stadt","type":"Stadt"},"district":{"key":"05366","name":"Euskirchen","type":"Kreis"},"federalState":{"key":"05","name":"Nordrhein-Westfalen"}},{"name":"Am Dorfgraben","postalCode":"53881","locality":"Euskirchen","municipality":{"key":"05366016","name":"Euskirchen, Stadt","type":"Stadt"},"district":{"key":"05366","name":"Euskirchen","type":"Kreis"},"federalState":{"key":"05","name":"Nordrhein-Westfalen"}},{"name":"Am Eichemer Garten","postalCode":"53881","locality":"Euskirchen","municipality":{"key":"05366016","name":"Euskirchen, Stadt","type":"Stadt"},"district":{"key":"05366","name":"Euskirchen","type":"Kreis"},"federalState":{"key":"05","name":"Nordrhein-Westfalen"}},{"name":"Am Erftmühlenbach","postalCode":"53881","locality":"Euskirchen","municipality":{"key":"05366016","name":"Euskirchen, Stadt","type":"Stadt"},"district":{"key":"05366","name":"Euskirchen","type":"Kreis"},"federalState":{"key":"05","name":"Nordrhein-Westfalen"}},{"name":"Am Erlenhof","postalCode":"53881","locality":"Euskirchen","municipality":{"key":"05366016","name":"Euskirchen, Stadt","type":"Stadt"},"district":{"key":"05366","name":"Euskirchen","type":"Kreis"},"federalState":{"key":"05","name":"Nordrhein-Westfalen"}},{"name":"Am Eulenhorst","postalCode":"53881","locality":"Euskirchen","municipality":{"key":"05366016","name":"Euskirchen, Stadt","type":"Stadt"},"district":{"key":"05366","name":"Euskirchen","type":"Kreis"},"federalState":{"key":"05","name":"Nordrhein-Westfalen"}},{"name":"Am Evangelischen Gemeindehaus","postalCode":"53881","locality":"Euskirchen","municipality":{"key":"05366016","name":"Euskirchen, Stadt","type":"Stadt"},"district":{"key":"05366","name":"Euskirchen","type":"Kreis"},"federalState":{"key":"05","name":"Nordrhein-Westfalen"}},{"name":"Am Flämmerbach","postalCode":"53881","locality":"Euskirchen","municipality":{"key":"05366016","name":"Euskirchen, Stadt","type":"Stadt"},"district":{"key":"05366","name":"Euskirchen","type":"Kreis"},"federalState":{"key":"05","name":"Nordrhein-Westfalen"}},{"name":"Am Fuchspfad","postalCode":"53879","locality":"Euskirchen","municipality":{"key":"05366016","name":"Euskirchen, Stadt","type":"Stadt"},"district":{"key":"05366","name":"Euskirchen","type":"Kreis"},"federalState":{"key":"05","name":"Nordrhein-Westfalen"}},{"name":"Am Hang","postalCode":"53881","locality":"Euskirchen","municipality":{"key":"05366016","name":"Euskirchen, Stadt","type":"Stadt"},"district":{"key":"05366","name":"Euskirchen","type":"Kreis"},"federalState":{"key":"05","name":"Nordrhein-Westfalen"}},{"name":"Am Himmelsgarten","postalCode":"53881","locality":"Euskirchen","municipality":{"key":"05366016","name":"Euskirchen, Stadt","type":"Stadt"},"district":{"key":"05366","name":"Euskirchen","type":"Kreis"},"federalState":{"key":"05","name":"Nordrhein-Westfalen"}},{"name":"Am Höchel","postalCode":"53881","locality":"Euskirchen","municipality":{"key":"05366016","name":"Euskirchen, Stadt","type":"Stadt"},"district":{"key":"05366","name":"Euskirchen","type":"Kreis"},"federalState":{"key":"05","name":"Nordrhein-Westfalen"}},{"name":"Am Kahlenturm","postalCode":"53879","locality":"Euskirchen","municipality":{"key":"05366016","name":"Euskirchen, Stadt","type":"Stadt"},"district":{"key":"05366","name":"Euskirchen","type":"Kreis"},"federalState":{"key":"05","name":"Nordrhein-Westfalen"}},{"name":"Am Kreuzberg","postalCode":"53881","locality":"Euskirchen","municipality":{"key":"05366016","name":"Euskirchen, Stadt","type":"Stadt"},"district":{"key":"05366","name":"Euskirchen","type":"Kreis"},"federalState":{"key":"05","name":"Nordrhein-Westfalen"}},{"name":"Am langen Graben","postalCode":"53881","locality":"Euskirchen","municipality":{"key":"05366016","name":"Euskirchen, Stadt","type":"Stadt"},"district":{"key":"05366","name":"Euskirchen","type":"Kreis"},"federalState":{"key":"05","name":"Nordrhein-Westfalen"}},{"name":"Am Lindenbaum","postalCode":"53881","locality":"Euskirchen","municipality":{"key":"05366016","name":"Euskirchen, Stadt","type":"Stadt"},"district":{"key":"05366","name":"Euskirchen","type":"Kreis"},"federalState":{"key":"05","name":"Nordrhein-Westfalen"}},{"name":"Am Marienpütz","postalCode":"53879","locality":"Euskirchen","municipality":{"key":"05366016","name":"Euskirchen, Stadt","type":"Stadt"},"district":{"key":"05366","name":"Euskirchen","type":"Kreis"},"federalState":{"key":"05","name":"Nordrhein-Westfalen"}},{"name":"Am Mitbach","postalCode":"53879","locality":"Euskirchen","municipality":{"key":"05366016","name":"Euskirchen, Stadt","type":"Stadt"},"district":{"key":"05366","name":"Euskirchen","type":"Kreis"},"federalState":{"key":"05","name":"Nordrhein-Westfalen"}},{"name":"Am Nonnenhof","postalCode":"53881","locality":"Euskirchen","municipality":{"key":"05366016","name":"Euskirchen, Stadt","type":"Stadt"},"district":{"key":"05366","name":"Euskirchen","type":"Kreis"},"federalState":{"key":"05","name":"Nordrhein-Westfalen"}},{"name":"Am Ratsheimer Hof","postalCode":"53879","locality":"Euskirchen","municipality":{"key":"05366016","name":"Euskirchen, Stadt","type":"Stadt"},"district":{"key":"05366","name":"Euskirchen","type":"Kreis"},"federalState":{"key":"05","name":"Nordrhein-Westfalen"}},{"name":"Am Ratsheimer Hof","postalCode":"53881","locality":"Euskirchen","municipality":{"key":"05366016","name":"Euskirchen, Stadt","type":"Stadt"},"district":{"key":"05366","name":"Euskirchen","type":"Kreis"},"federalState":{"key":"05","name":"Nordrhein-Westfalen"}},{"name":"Bachstr.","postalCode":"53881","locality":"Euskirchen","municipality":{"key":"05366016","name":"Euskirchen, Stadt","type":"Stadt"},"district":{"key":"05366","name":"Euskirchen","type":"Kreis"},"federalState":{"key":"05","name":"Nordrhein-Westfalen"}},{"name":"Bahnhofstr.","postalCode":"53879","locality":"Euskirchen","municipality":{"key":"05366016","name":"Euskirchen, Stadt","type":"Stadt"},"district":{"key":"05366","name":"Euskirchen","type":"Kreis"},"federalState":{"key":"05","name":"Nordrhein-Westfalen"}},{"name":"Barentsstr.","postalCode":"53881","locality":"Euskirchen","municipality":{"key":"05366016","name":"Euskirchen, Stadt","type":"Stadt"},"district":{"key":"05366","name":"Euskirchen","type":"Kreis"},"federalState":{"key":"05","name":"Nordrhein-Westfalen"}},{"name":"Basingstoker Ring","postalCode":"53879","locality":"Euskirchen","municipality":{"key":"05366016","name":"Euskirchen, Stadt","type":"Stadt"},"district":{"key":"05366","name":"Euskirchen","type":"Kreis"},"federalState":{"key":"05","name":"Nordrhein-Westfalen"}},{"name":"Bataverstr.","postalCode":"53881","locality":"Euskirchen","municipality":{"key":"05366016","name":"Euskirchen, Stadt","type":"Stadt"},"district":{"key":"05366","name":"Euskirchen","type":"Kreis"},"federalState":{"key":"05","name":"Nordrhein-Westfalen"}},{"name":"Baumstr.","postalCode":"53879","locality":"Euskirchen","municipality":{"key":"05366016","name":"Euskirchen, Stadt","type":"Stadt"},"district":{"key":"05366","name":"Euskirchen","type":"Kreis"},"federalState":{"key":"05","name":"Nordrhein-Westfalen"}},{"name":"Bechsteinstr.","postalCode":"53881","locality":"Euskirchen","municipality":{"key":"05366016","name":"Euskirchen, Stadt","type":"Stadt"},"district":{"key":"05366","name":"Euskirchen","type":"Kreis"},"federalState":{"key":"05","name":"Nordrhein-Westfalen"}},{"name":"Beethovenstr.","postalCode":"53881","locality":"Euskirchen","municipality":{"key":"05366016","name":"Euskirchen, Stadt","type":"Stadt"},"district":{"key":"05366","name":"Euskirchen","type":"Kreis"},"federalState":{"key":"05","name":"Nordrhein-Westfalen"}},{"name":"Behringstr.","postalCode":"53879","locality":"Euskirchen","municipality":{"key":"05366016","name":"Euskirchen, Stadt","type":"Stadt"},"district":{"key":"05366","name":"Euskirchen","type":"Kreis"},"federalState":{"key":"05","name":"Nordrhein-Westfalen"}},{"name":"Belgienstr.","postalCode":"53881","locality":"Euskirchen","municipality":{"key":"05366016","name":"Euskirchen, Stadt","type":"Stadt"},"district":{"key":"05366","name":"Euskirchen","type":"Kreis"},"federalState":{"key":"05","name":"Nordrhein-Westfalen"}},{"name":"Bendengasse","postalCode":"53879","locality":"Euskirchen","municipality":{"key":"05366016","name":"Euskirchen, Stadt","type":"Stadt"},"district":{"key":"05366","name":"Euskirchen","type":"Kreis"},"federalState":{"key":"05","name":"Nordrhein-Westfalen"}},{"name":"Bendenstr.","postalCode":"53879","locality":"Euskirchen","municipality":{"key":"05366016","name":"Euskirchen, Stadt","type":"Stadt"},"district":{"key":"05366","name":"Euskirchen","type":"Kreis"},"federalState":{"key":"05","name":"Nordrhein-Westfalen"}},{"name":"Bergerstr.","postalCode":"53879","locality":"Euskirchen","municipality":{"key":"05366016","name":"Euskirchen, Stadt","type":"Stadt"},"district":{"key":"05366","name":"Euskirchen","type":"Kreis"},"federalState":{"key":"05","name":"Nordrhein-Westfalen"}},{"name":"Berliner Str.","postalCode":"53879","locality":"Euskirchen","municipality":{"key":"05366016","name":"Euskirchen, Stadt","type":"Stadt"},"district":{"key":"05366","name":"Euskirchen","type":"Kreis"},"federalState":{"key":"05","name":"Nordrhein-Westfalen"}},{"name":"Bienenstr.","postalCode":"53881","locality":"Euskirchen","municipality":{"key":"05366016","name":"Euskirchen, Stadt","type":"Stadt"},"district":{"key":"05366","name":"Euskirchen","type":"Kreis"},"federalState":{"key":"05","name":"Nordrhein-Westfalen"}},{"name":"Billiger Str.","postalCode":"53879","locality":"Euskirchen","municipality":{"key":"05366016","name":"Euskirchen, Stadt","type":"Stadt"},"district":{"key":"05366","name":"Euskirchen","type":"Kreis"},"federalState":{"key":"05","name":"Nordrhein-Westfalen"}},{"name":"Billiger Str.","postalCode":"53881","locality":"Euskirchen","municipality":{"key":"05366016","name":"Euskirchen, Stadt","type":"Stadt"},"district":{"key":"05366","name":"Euskirchen","type":"Kreis"},"federalState":{"key":"05","name":"Nordrhein-Westfalen"}},{"name":"Billiger Wald","postalCode":"53881","locality":"Euskirchen","municipality":{"key":"05366016","name":"Euskirchen, Stadt","type":"Stadt"},"district":{"key":"05366","name":"Euskirchen","type":"Kreis"},"federalState":{"key":"05","name":"Nordrhein-Westfalen"}},{"name":"Birkenplatz","postalCode":"53879","locality":"Euskirchen","municipality":{"key":"05366016","name":"Euskirchen, Stadt","type":"Stadt"},"district":{"key":"05366","name":"Euskirchen","type":"Kreis"},"federalState":{"key":"05","name":"Nordrhein-Westfalen"}},{"name":"Bischofstr.","postalCode":"53879","locality":"Euskirchen","municipality":{"key":"05366016","name":"Euskirchen, Stadt","type":"Stadt"},"district":{"key":"05366","name":"Euskirchen","type":"Kreis"},"federalState":{"key":"05","name":"Nordrhein-Westfalen"}},{"name":"Bismarckstr.","postalCode":"53879","locality":"Euskirchen","municipality":{"key":"05366016","name":"Euskirchen, Stadt","type":"Stadt"},"district":{"key":"05366","name":"Euskirchen","type":"Kreis"},"federalState":{"key":"05","name":"Nordrhein-Westfalen"}},{"name":"Bleibachstr.","postalCode":"53881","locality":"Euskirchen","municipality":{"key":"05366016","name":"Euskirchen, Stadt","type":"Stadt"},"district":{"key":"05366","name":"Euskirchen","type":"Kreis"},"federalState":{"key":"05","name":"Nordrhein-Westfalen"}},{"name":"Bleigasse","postalCode":"53879","locality":"Euskirchen","municipality":{"key":"05366016","name":"Euskirchen, Stadt","type":"Stadt"},"district":{"key":"05366","name":"Euskirchen","type":"Kreis"},"federalState":{"key":"05","name":"Nordrhein-Westfalen"}},{"name":"Bodenheimer Str.","postalCode":"53881","locality":"Euskirchen","municipality":{"key":"05366016","name":"Euskirchen, Stadt","type":"Stadt"},"district":{"key":"05366","name":"Euskirchen","type":"Kreis"},"federalState":{"key":"05","name":"Nordrhein-Westfalen"}},{"name":"Boenerstr.","postalCode":"53879","locality":"Euskirchen","municipality":{"key":"05366016","name":"Euskirchen, Stadt","type":"Stadt"},"district":{"key":"05366","name":"Euskirchen","type":"Kreis"},"federalState":{"key":"05","name":"Nordrhein-Westfalen"}},{"name":"Bonner Str.","postalCode":"53879","locality":"Euskirchen","municipality":{"key":"05366016","name":"Euskirchen, Stadt","type":"Stadt"},"district":{"key":"05366","name":"Euskirchen","type":"Kreis"},"federalState":{"key":"05","name":"Nordrhein-Westfalen"}},{"name":"Borgmannstr.","postalCode":"53879","locality":"Euskirchen","municipality":{"key":"05366016","name":"Euskirchen, Stadt","type":"Stadt"},"district":{"key":"05366","name":"Euskirchen","type":"Kreis"},"federalState":{"key":"05","name":"Nordrhein-Westfalen"}},{"name":"Brandenburger Str.","postalCode":"53879","locality":"Euskirchen","municipality":{"key":"05366016","name":"Euskirchen, Stadt","type":"Stadt"},"district":{"key":"05366","name":"Euskirchen","type":"Kreis"},"federalState":{"key":"05","name":"Nordrhein-Westfalen"}},{"name":"Breite Str.","postalCode":"53879","locality":"Euskirchen","municipality":{"key":"05366016","name":"Euskirchen, Stadt","type":"Stadt"},"district":{"key":"05366","name":"Euskirchen","type":"Kreis"},"federalState":{"key":"05","name":"Nordrhein-Westfalen"}},{"name":"Breslauer Str.","postalCode":"53879","locality":"Euskirchen","municipality":{"key":"05366016","name":"Euskirchen, Stadt","type":"Stadt"},"district":{"key":"05366","name":"Euskirchen","type":"Kreis"},"federalState":{"key":"05","name":"Nordrhein-Westfalen"}},{"name":"Brictiusstr.","postalCode":"53881","locality":"Euskirchen","municipality":{"key":"05366016","name":"Euskirchen, Stadt","type":"Stadt"},"district":{"key":"05366","name":"Euskirchen","type":"Kreis"},"federalState":{"key":"05","name":"Nordrhein-Westfalen"}},{"name":"Brigittestr.","postalCode":"53881","locality":"Euskirchen","municipality":{"key":"05366016","name":"Euskirchen, Stadt","type":"Stadt"},"district":{"key":"05366","name":"Euskirchen","type":"Kreis"},"federalState":{"key":"05","name":"Nordrhein-Westfalen"}},{"name":"Broichstr.","postalCode":"53879","locality":"Euskirchen","municipality":{"key":"05366016","name":"Euskirchen, Stadt","type":"Stadt"},"district":{"key":"05366","name":"Euskirchen","type":"Kreis"},"federalState":{"key":"05","name":"Nordrhein-Westfalen"}},{"name":"Bruchstr.","postalCode":"53881","locality":"Euskirchen","municipality":{"key":"05366016","name":"Euskirchen, Stadt","type":"Stadt"},"district":{"key":"05366","name":"Euskirchen","type":"Kreis"},"federalState":{"key":"05","name":"Nordrhein-Westfalen"}},{"name":"Brückenstr.","postalCode":"53881","locality":"Euskirchen","municipality":{"key":"05366016","name":"Euskirchen, Stadt","type":"Stadt"},"district":{"key":"05366","name":"Euskirchen","type":"Kreis"},"federalState":{"key":"05","name":"Nordrhein-Westfalen"}},{"name":"Brunhildestr.","postalCode":"53881","locality":"Euskirchen","municipality":{"key":"05366016","name":"Euskirchen, Stadt","type":"Stadt"},"district":{"key":"05366","name":"Euskirchen","type":"Kreis"},"federalState":{"key":"05","name":"Nordrhein-Westfalen"}},{"name":"Brüsseler Str.","postalCode":"53881","locality":"Euskirchen","municipality":{"key":"05366016","name":"Euskirchen, Stadt","type":"Stadt"},"district":{"key":"05366","name":"Euskirchen","type":"Kreis"},"federalState":{"key":"05","name":"Nordrhein-Westfalen"}},{"name":"Buchenweg","postalCode":"53879","locality":"Euskirchen","municipality":{"key":"05366016","name":"Euskirchen, Stadt","type":"Stadt"},"district":{"key":"05366","name":"Euskirchen","type":"Kreis"},"federalState":{"key":"05","name":"Nordrhein-Westfalen"}},{"name":"Bunggasse","postalCode":"53881","locality":"Euskirchen","municipality":{"key":"05366016","name":"Euskirchen, Stadt","type":"Stadt"},"district":{"key":"05366","name":"Euskirchen","type":"Kreis"},"federalState":{"key":"05","name":"Nordrhein-Westfalen"}},{"name":"Burgacker","postalCode":"53881","locality":"Euskirchen","municipality":{"key":"05366016","name":"Euskirchen, Stadt","type":"Stadt"},"district":{"key":"05366","name":"Euskirchen","type":"Kreis"},"federalState":{"key":"05","name":"Nordrhein-Westfalen"}},{"name":"Burgberg","postalCode":"53881","locality":"Euskirchen","municipality":{"key":"05366016","name":"Euskirchen, Stadt","type":"Stadt"},"district":{"key":"05366","name":"Euskirchen","type":"Kreis"},"federalState":{"key":"05","name":"Nordrhein-Westfalen"}},{"name":"Burg Kleinbüllesheim","postalCode":"53881","locality":"Euskirchen","municipality":{"key":"05366016","name":"Euskirchen, Stadt","type":"Stadt"},"district":{"key":"05366","name":"Euskirchen","type":"Kreis"},"federalState":{"key":"05","name":"Nordrhein-Westfalen"}},{"name":"Burg Schweinheim","postalCode":"53881","locality":"Euskirchen","municipality":{"key":"05366016","name":"Euskirchen, Stadt","type":"Stadt"},"district":{"key":"05366","name":"Euskirchen","type":"Kreis"},"federalState":{"key":"05","name":"Nordrhein-Westfalen"}},{"name":"Burgunderstr.","postalCode":"53881","locality":"Euskirchen","municipality":{"key":"05366016","name":"Euskirchen, Stadt","type":"Stadt"},"district":{"key":"05366","name":"Euskirchen","type":"Kreis"},"federalState":{"key":"05","name":"Nordrhein-Westfalen"}},{"name":"Buschstr.","postalCode":"53881","locality":"Euskirchen","municipality":{"key":"05366016","name":"Euskirchen, Stadt","type":"Stadt"},"district":{"key":"05366","name":"Euskirchen","type":"Kreis"},"federalState":{"key":"05","name":"Nordrhein-Westfalen"}},{"name":"Cäcilienweg","postalCode":"53881","locality":"Euskirchen","municipality":{"key":"05366016","name":"Euskirchen, Stadt","type":"Stadt"},"district":{"key":"05366","name":"Euskirchen","type":"Kreis"},"federalState":{"key":"05","name":"Nordrhein-Westfalen"}},{"name":"Carl-Koenen-Str.","postalCode":"53881","locality":"Euskirchen","municipality":{"key":"05366016","name":"Euskirchen, Stadt","type":"Stadt"},"district":{"key":"05366","name":"Euskirchen","type":"Kreis"},"federalState":{"key":"05","name":"Nordrhein-Westfalen"}},{"name":"Carl-Schurz-Str.","postalCode":"53879","locality":"Euskirchen","municipality":{"key":"05366016","name":"Euskirchen, Stadt","type":"Stadt"},"district":{"key":"05366","name":"Euskirchen","type":"Kreis"},"federalState":{"key":"05","name":"Nordrhein-Westfalen"}},{"name":"Carl-Spitzweg-Str.","postalCode":"53879","locality":"Euskirchen","municipality":{"key":"05366016","name":"Euskirchen, Stadt","type":"Stadt"},"district":{"key":"05366","name":"Euskirchen","type":"Kreis"},"federalState":{"key":"05","name":"Nordrhein-Westfalen"}},{"name":"Carmanstr.","postalCode":"53879","locality":"Euskirchen","municipality":{"key":"05366016","name":"Euskirchen, Stadt","type":"Stadt"},"district":{"key":"05366","name":"Euskirchen","type":"Kreis"},"federalState":{"key":"05","name":"Nordrhein-Westfalen"}},{"name":"Caspar-Müller-Str.","postalCode":"53881","locality":"Euskirchen","municipality":{"key":"05366016","name":"Euskirchen, Stadt","type":"Stadt"},"district":{"key":"05366","name":"Euskirchen","type":"Kreis"},"federalState":{"key":"05","name":"Nordrhein-Westfalen"}},{"name":"Centaurstr.","postalCode":"53881","locality":"Euskirchen","municipality":{"key":"05366016","name":"Euskirchen, Stadt","type":"Stadt"},"district":{"key":"05366","name":"Euskirchen","type":"Kreis"},"federalState":{"key":"05","name":"Nordrhein-Westfalen"}},{"name":"Cheruskerstr.","postalCode":"53881","locality":"Euskirchen","municipality":{"key":"05366016","name":"Euskirchen, Stadt","type":"Stadt"},"district":{"key":"05366","name":"Euskirchen","type":"Kreis"},"federalState":{"key":"05","name":"Nordrhein-Westfalen"}},{"name":"Chlodwigstr.","postalCode":"53879","locality":"Euskirchen","municipality":{"key":"05366016","name":"Euskirchen, Stadt","type":"Stadt"},"district":{"key":"05366","name":"Euskirchen","type":"Kreis"},"federalState":{"key":"05","name":"Nordrhein-Westfalen"}},{"name":"Christian-Schäfer-Str.","postalCode":"53881","locality":"Euskirchen","municipality":{"key":"05366016","name":"Euskirchen, Stadt","type":"Stadt"},"district":{"key":"05366","name":"Euskirchen","type":"Kreis"},"federalState":{"key":"05","name":"Nordrhein-Westfalen"}},{"name":"Clemens-August-Str.","postalCode":"53881","locality":"Euskirchen","municipality":{"key":"05366016","name":"Euskirchen, Stadt","type":"Stadt"},"district":{"key":"05366","name":"Euskirchen","type":"Kreis"},"federalState":{"key":"05","name":"Nordrhein-Westfalen"}},{"name":"Cornelimünsterweg","postalCode":"53881","locality":"Euskirchen","municipality":{"key":"05366016","name":"Euskirchen, Stadt","type":"Stadt"},"district":{"key":"05366","name":"Euskirchen","type":"Kreis"},"federalState":{"key":"05","name":"Nordrhein-Westfalen"}},{"name":"Cyriakusstr.","postalCode":"53881","locality":"Euskirchen","municipality":{"key":"05366016","name":"Euskirchen, Stadt","type":"Stadt"},"district":{"key":"05366","name":"Euskirchen","type":"Kreis"},"federalState":{"key":"05","name":"Nordrhein-Westfalen"}},{"name":"Dachsstr.","postalCode":"53881","locality":"Euskirchen","municipality":{"key":"05366016","name":"Euskirchen, Stadt","type":"Stadt"},"district":{"key":"05366","name":"Euskirchen","type":"Kreis"},"federalState":{"key":"05","name":"Nordrhein-Westfalen"}},{"name":"Dadenbergring","postalCode":"53881","locality":"Euskirchen","municipality":{"key":"05366016","name":"Euskirchen, Stadt","type":"Stadt"},"district":{"key":"05366","name":"Euskirchen","type":"Kreis"},"federalState":{"key":"05","name":"Nordrhein-Westfalen"}},{"name":"Danziger Str.","postalCode":"53879","locality":"Euskirchen","municipality":{"key":"05366016","name":"Euskirchen, Stadt","type":"Stadt"},"district":{"key":"05366","name":"Euskirchen","type":"Kreis"},"federalState":{"key":"05","name":"Nordrhein-Westfalen"}},{"name":"Dat joldene Böddemche","postalCode":"53881","locality":"Euskirchen","municipality":{"key":"05366016","name":"Euskirchen, Stadt","type":"Stadt"},"district":{"key":"05366","name":"Euskirchen","type":"Kreis"},"federalState":{"key":"05","name":"Nordrhein-Westfalen"}},{"name":"Dechant-Boßhammer-Str.","postalCode":"53881","locality":"Euskirchen","municipality":{"key":"05366016","name":"Euskirchen, Stadt","type":"Stadt"},"district":{"key":"05366","name":"Euskirchen","type":"Kreis"},"federalState":{"key":"05","name":"Nordrhein-Westfalen"}},{"name":"Dechant-Joseph-Emonds-Weg","postalCode":"53881","locality":"Euskirchen","municipality":{"key":"05366016","name":"Euskirchen, Stadt","type":"Stadt"},"district":{"key":"05366","name":"Euskirchen","type":"Kreis"},"federalState":{"key":"05","name":"Nordrhein-Westfalen"}},{"name":"Dechant-Vogt-Str.","postalCode":"53879","locality":"Euskirchen","municipality":{"key":"05366016","name":"Euskirchen, Stadt","type":"Stadt"},"district":{"key":"05366","name":"Euskirchen","type":"Kreis"},"federalState":{"key":"05","name":"Nordrhein-Westfalen"}},{"name":"Dechant-Wolfgarten-Str.","postalCode":"53881","locality":"Euskirchen","municipality":{"key":"05366016","name":"Euskirchen, Stadt","type":"Stadt"},"district":{"key":"05366","name":"Euskirchen","type":"Kreis"},"federalState":{"key":"05","name":"Nordrhein-Westfalen"}},{"name":"Delphinstr.","postalCode":"53881","locality":"Euskirchen","municipality":{"key":"05366016","name":"Euskirchen, Stadt","type":"Stadt"},"district":{"key":"05366","name":"Euskirchen","type":"Kreis"},"federalState":{"key":"05","name":"Nordrhein-Westfalen"}},{"name":"Der Hohle Weg","postalCode":"53881","locality":"Euskirchen","municipality":{"key":"05366016","name":"Euskirchen, Stadt","type":"Stadt"},"district":{"key":"05366","name":"Euskirchen","type":"Kreis"},"federalState":{"key":"05","name":"Nordrhein-Westfalen"}},{"name":"Derkumer Str.","postalCode":"53881","locality":"Euskirchen","municipality":{"key":"05366016","name":"Euskirchen, Stadt","type":"Stadt"},"district":{"key":"05366","name":"Euskirchen","type":"Kreis"},"federalState":{"key":"05","name":"Nordrhein-Westfalen"}},{"name":"Diamantstr.","postalCode":"53881","locality":"Euskirchen","municipality":{"key":"05366016","name":"Euskirchen, Stadt","type":"Stadt"},"district":{"key":"05366","name":"Euskirchen","type":"Kreis"},"federalState":{"key":"05","name":"Nordrhein-Westfalen"}},{"name":"Diemstr.","postalCode":"53881","locality":"Euskirchen","municipality":{"key":"05366016","name":"Euskirchen, Stadt","type":"Stadt"},"district":{"key":"05366","name":"Euskirchen","type":"Kreis"},"federalState":{"key":"05","name":"Nordrhein-Westfalen"}},{"name":"Dinkelstr.","postalCode":"53881","locality":"Euskirchen","municipality":{"key":"05366016","name":"Euskirchen, Stadt","type":"Stadt"},"district":{"key":"05366","name":"Euskirchen","type":"Kreis"},"federalState":{"key":"05","name":"Nordrhein-Westfalen"}},{"name":"Disternicher Auel","postalCode":"53879","locality":"Euskirchen","municipality":{"key":"05366016","name":"Euskirchen, Stadt","type":"Stadt"},"district":{"key":"05366","name":"Euskirchen","type":"Kreis"},"federalState":{"key":"05","name":"Nordrhein-Westfalen"}},{"name":"Disternicher Torwall","postalCode":"53879","locality":"Euskirchen","municipality":{"key":"05366016","name":"Euskirchen, Stadt","type":"Stadt"},"district":{"key":"05366","name":"Euskirchen","type":"Kreis"},"federalState":{"key":"05","name":"Nordrhein-Westfalen"}},{"name":"Doktor-Bayer-Str.","postalCode":"53881","locality":"Euskirchen","municipality":{"key":"05366016","name":"Euskirchen, Stadt","type":"Stadt"},"district":{"key":"05366","name":"Euskirchen","type":"Kreis"},"federalState":{"key":"05","name":"Nordrhein-Westfalen"}},{"name":"Doktor-Doetsch-Str.","postalCode":"53879","locality":"Euskirchen","municipality":{"key":"05366016","name":"Euskirchen, Stadt","type":"Stadt"},"district":{"key":"05366","name":"Euskirchen","type":"Kreis"},"federalState":{"key":"05","name":"Nordrhein-Westfalen"}},{"name":"Doktor-Friedeberg-Str.","postalCode":"53879","locality":"Euskirchen","municipality":{"key":"05366016","name":"Euskirchen, Stadt","type":"Stadt"},"district":{"key":"05366","name":"Euskirchen","type":"Kreis"},"federalState":{"key":"05","name":"Nordrhein-Westfalen"}},{"name":"Doktor-Hildegard-Sina-Str.","postalCode":"53879","locality":"Euskirchen","municipality":{"key":"05366016","name":"Euskirchen, Stadt","type":"Stadt"},"district":{"key":"05366","name":"Euskirchen","type":"Kreis"},"federalState":{"key":"05","name":"Nordrhein-Westfalen"}},{"name":"Doktor-Hugo-Oster-Platz","postalCode":"53879","locality":"Euskirchen","municipality":{"key":"05366016","name":"Euskirchen, Stadt","type":"Stadt"},"district":{"key":"05366","name":"Euskirchen","type":"Kreis"},"federalState":{"key":"05","name":"Nordrhein-Westfalen"}},{"name":"Doktor-Josef-Steinhausen-Str.","postalCode":"53879","locality":"Euskirchen","municipality":{"key":"05366016","name":"Euskirchen, Stadt","type":"Stadt"},"district":{"key":"05366","name":"Euskirchen","type":"Kreis"},"federalState":{"key":"05","name":"Nordrhein-Westfalen"}},{"name":"Doktor-Lieser-Str.","postalCode":"53881","locality":"Euskirchen","municipality":{"key":"05366016","name":"Euskirchen, Stadt","type":"Stadt"},"district":{"key":"05366","name":"Euskirchen","type":"Kreis"},"federalState":{"key":"05","name":"Nordrhein-Westfalen"}},{"name":"Doktor-Rütten-Promenade","postalCode":"53879","locality":"Euskirchen","municipality":{"key":"05366016","name":"Euskirchen, Stadt","type":"Stadt"},"district":{"key":"05366","name":"Euskirchen","type":"Kreis"},"federalState":{"key":"05","name":"Nordrhein-Westfalen"}},{"name":"Doktor-Schönenborn-Str.","postalCode":"53879","locality":"Euskirchen","municipality":{"key":"05366016","name":"Euskirchen, Stadt","type":"Stadt"},"district":{"key":"05366","name":"Euskirchen","type":"Kreis"},"federalState":{"key":"05","name":"Nordrhein-Westfalen"}},{"name":"Doktor-Schweigel-Str.","postalCode":"53879","locality":"Euskirchen","municipality":{"key":"05366016","name":"Euskirchen, Stadt","type":"Stadt"},"district":{"key":"05366","name":"Euskirchen","type":"Kreis"},"federalState":{"key":"05","name":"Nordrhein-Westfalen"}},{"name":"Dom-Esch-Str.","postalCode":"53881","locality":"Euskirchen","municipality":{"key":"05366016","name":"Euskirchen, Stadt","type":"Stadt"},"district":{"key":"05366","name":"Euskirchen","type":"Kreis"},"federalState":{"key":"05","name":"Nordrhein-Westfalen"}},{"name":"Dominikanerinnenplatz","postalCode":"53879","locality":"Euskirchen","municipality":{"key":"05366016","name":"Euskirchen, Stadt","type":"Stadt"},"district":{"key":"05366","name":"Euskirchen","type":"Kreis"},"federalState":{"key":"05","name":"Nordrhein-Westfalen"}},{"name":"Dompfaffstr.","postalCode":"53881","locality":"Euskirchen","municipality":{"key":"05366016","name":"Euskirchen, Stadt","type":"Stadt"},"district":{"key":"05366","name":"Euskirchen","type":"Kreis"},"federalState":{"key":"05","name":"Nordrhein-Westfalen"}},{"name":"Domweide","postalCode":"53881","locality":"Euskirchen","municipality":{"key":"05366016","name":"Euskirchen, Stadt","type":"Stadt"},"district":{"key":"05366","name":"Euskirchen","type":"Kreis"},"federalState":{"key":"05","name":"Nordrhein-Westfalen"}},{"name":"Dornschneise","postalCode":"53881","locality":"Euskirchen","municipality":{"key":"05366016","name":"Euskirchen, Stadt","type":"Stadt"},"district":{"key":"05366","name":"Euskirchen","type":"Kreis"},"federalState":{"key":"05","name":"Nordrhein-Westfalen"}},{"name":"Dorotheastr.","postalCode":"53881","locality":"Euskirchen","municipality":{"key":"05366016","name":"Euskirchen, Stadt","type":"Stadt"},"district":{"key":"05366","name":"Euskirchen","type":"Kreis"},"federalState":{"key":"05","name":"Nordrhein-Westfalen"}},{"name":"Drosselweg","postalCode":"53881","locality":"Euskirchen","municipality":{"key":"05366016","name":"Euskirchen, Stadt","type":"Stadt"},"district":{"key":"05366","name":"Euskirchen","type":"Kreis"},"federalState":{"key":"05","name":"Nordrhein-Westfalen"}},{"name":"Dürener Str.","postalCode":"53879","locality":"Euskirchen","municipality":{"key":"05366016","name":"Euskirchen, Stadt","type":"Stadt"},"district":{"key":"05366","name":"Euskirchen","type":"Kreis"},"federalState":{"key":"05","name":"Nordrhein-Westfalen"}},{"name":"Ehrenstr.","postalCode":"53881","locality":"Euskirchen","municipality":{"key":"05366016","name":"Euskirchen, Stadt","type":"Stadt"},"district":{"key":"05366","name":"Euskirchen","type":"Kreis"},"federalState":{"key":"05","name":"Nordrhein-Westfalen"}},{"name":"Eichendorffstr.","postalCode":"53879","locality":"Euskirchen","municipality":{"key":"05366016","name":"Euskirchen, Stadt","type":"Stadt"},"district":{"key":"05366","name":"Euskirchen","type":"Kreis"},"federalState":{"key":"05","name":"Nordrhein-Westfalen"}},{"name":"Eifelring","postalCode":"53879","locality":"Euskirchen","municipality":{"key":"05366016","name":"Euskirchen, Stadt","type":"Stadt"},"district":{"key":"05366","name":"Euskirchen","type":"Kreis"},"federalState":{"key":"05","name":"Nordrhein-Westfalen"}},{"name":"Einsteinstr.","postalCode":"53881","locality":"Euskirchen","municipality":{"key":"05366016","name":"Euskirchen, Stadt","type":"Stadt"},"district":{"key":"05366","name":"Euskirchen","type":"Kreis"},"federalState":{"key":"05","name":"Nordrhein-Westfalen"}},{"name":"Eisenacher Str.","postalCode":"53879","locality":"Euskirchen","municipality":{"key":"05366016","name":"Euskirchen, Stadt","type":"Stadt"},"district":{"key":"05366","name":"Euskirchen","type":"Kreis"},"federalState":{"key":"05","name":"Nordrhein-Westfalen"}},{"name":"Elbinger Str.","postalCode":"53879","locality":"Euskirchen","municipality":{"key":"05366016","name":"Euskirchen, Stadt","type":"Stadt"},"district":{"key":"05366","name":"Euskirchen","type":"Kreis"},"federalState":{"key":"05","name":"Nordrhein-Westfalen"}},{"name":"Elchstr.","postalCode":"53881","locality":"Euskirchen","municipality":{"key":"05366016","name":"Euskirchen, Stadt","type":"Stadt"},"district":{"key":"05366","name":"Euskirchen","type":"Kreis"},"federalState":{"key":"05","name":"Nordrhein-Westfalen"}},{"name":"Elisabethstr.","postalCode":"53881","locality":"Euskirchen","municipality":{"key":"05366016","name":"Euskirchen, Stadt","type":"Stadt"},"district":{"key":"05366","name":"Euskirchen","type":"Kreis"},"federalState":{"key":"05","name":"Nordrhein-Westfalen"}},{"name":"Ellerbachsweg","postalCode":"53881","locality":"Euskirchen","municipality":{"key":"05366016","name":"Euskirchen, Stadt","type":"Stadt"},"district":{"key":"05366","name":"Euskirchen","type":"Kreis"},"federalState":{"key":"05","name":"Nordrhein-Westfalen"}},{"name":"Elsa-Brändström-Str.","postalCode":"53879","locality":"Euskirchen","municipality":{"key":"05366016","name":"Euskirchen, Stadt","type":"Stadt"},"district":{"key":"05366","name":"Euskirchen","type":"Kreis"},"federalState":{"key":"05","name":"Nordrhein-Westfalen"}},{"name":"Elsiger Str.","postalCode":"53881","locality":"Euskirchen","municipality":{"key":"05366016","name":"Euskirchen, Stadt","type":"Stadt"},"district":{"key":"05366","name":"Euskirchen","type":"Kreis"},"federalState":{"key":"05","name":"Nordrhein-Westfalen"}},{"name":"Emil-Fischer-Str.","postalCode":"53879","locality":"Euskirchen","municipality":{"key":"05366016","name":"Euskirchen, Stadt","type":"Stadt"},"district":{"key":"05366","name":"Euskirchen","type":"Kreis"},"federalState":{"key":"05","name":"Nordrhein-Westfalen"}},{"name":"Emil-Nolde-Str.","postalCode":"53879","locality":"Euskirchen","municipality":{"key":"05366016","name":"Euskirchen, Stadt","type":"Stadt"},"district":{"key":"05366","name":"Euskirchen","type":"Kreis"},"federalState":{"key":"05","name":"Nordrhein-Westfalen"}},{"name":"Em Krampe","postalCode":"53881","locality":"Euskirchen","municipality":{"key":"05366016","name":"Euskirchen, Stadt","type":"Stadt"},"district":{"key":"05366","name":"Euskirchen","type":"Kreis"},"federalState":{"key":"05","name":"Nordrhein-Westfalen"}},{"name":"Engelbert-Goebel-Str.","postalCode":"53879","locality":"Euskirchen","municipality":{"key":"05366016","name":"Euskirchen, Stadt","type":"Stadt"},"district":{"key":"05366","name":"Euskirchen","type":"Kreis"},"federalState":{"key":"05","name":"Nordrhein-Westfalen"}},{"name":"Entenpfuhl","postalCode":"53879","locality":"Euskirchen","municipality":{"key":"05366016","name":"Euskirchen, Stadt","type":"Stadt"},"district":{"key":"05366","name":"Euskirchen","type":"Kreis"},"federalState":{"key":"05","name":"Nordrhein-Westfalen"}},{"name":"Eremitageweg","postalCode":"53881","locality":"Euskirchen","municipality":{"key":"05366016","name":"Euskirchen, Stadt","type":"Stadt"},"district":{"key":"05366","name":"Euskirchen","type":"Kreis"},"federalState":{"key":"05","name":"Nordrhein-Westfalen"}},{"name":"Erftauen","postalCode":"53879","locality":"Euskirchen","municipality":{"key":"05366016","name":"Euskirchen, Stadt","type":"Stadt"},"district":{"key":"05366","name":"Euskirchen","type":"Kreis"},"federalState":{"key":"05","name":"Nordrhein-Westfalen"}},{"name":"Erftbleiche","postalCode":"53879","locality":"Euskirchen","municipality":{"key":"05366016","name":"Euskirchen, Stadt","type":"Stadt"},"district":{"key":"05366","name":"Euskirchen","type":"Kreis"},"federalState":{"key":"05","name":"Nordrhein-Westfalen"}},{"name":"Erftstr.","postalCode":"53879","locality":"Euskirchen","municipality":{"key":"05366016","name":"Euskirchen, Stadt","type":"Stadt"},"district":{"key":"05366","name":"Euskirchen","type":"Kreis"},"federalState":{"key":"05","name":"Nordrhein-Westfalen"}},{"name":"Erftstr.","postalCode":"53881","locality":"Euskirchen","municipality":{"key":"05366016","name":"Euskirchen, Stadt","type":"Stadt"},"district":{"key":"05366","name":"Euskirchen","type":"Kreis"},"federalState":{"key":"05","name":"Nordrhein-Westfalen"}},{"name":"Erfurter Str.","postalCode":"53879","locality":"Euskirchen","municipality":{"key":"05366016","name":"Euskirchen, Stadt","type":"Stadt"},"district":{"key":"05366","name":"Euskirchen","type":"Kreis"},"federalState":{"key":"05","name":"Nordrhein-Westfalen"}},{"name":"Erikastr.","postalCode":"53881","locality":"Euskirchen","municipality":{"key":"05366016","name":"Euskirchen, Stadt","type":"Stadt"},"district":{"key":"05366","name":"Euskirchen","type":"Kreis"},"federalState":{"key":"05","name":"Nordrhein-Westfalen"}},{"name":"Erlenweg","postalCode":"53881","locality":"Euskirchen","municipality":{"key":"05366016","name":"Euskirchen, Stadt","type":"Stadt"},"district":{"key":"05366","name":"Euskirchen","type":"Kreis"},"federalState":{"key":"05","name":"Nordrhein-Westfalen"}},{"name":"Ernastr.","postalCode":"53881","locality":"Euskirchen","municipality":{"key":"05366016","name":"Euskirchen, Stadt","type":"Stadt"},"district":{"key":"05366","name":"Euskirchen","type":"Kreis"},"federalState":{"key":"05","name":"Nordrhein-Westfalen"}},{"name":"Ernst-Moritz-Arndt-Str.","postalCode":"53879","locality":"Euskirchen","municipality":{"key":"05366016","name":"Euskirchen, Stadt","type":"Stadt"},"district":{"key":"05366","name":"Euskirchen","type":"Kreis"},"federalState":{"key":"05","name":"Nordrhein-Westfalen"}},{"name":"Eschenruhe","postalCode":"53881","locality":"Euskirchen","municipality":{"key":"05366016","name":"Euskirchen, Stadt","type":"Stadt"},"district":{"key":"05366","name":"Euskirchen","type":"Kreis"},"federalState":{"key":"05","name":"Nordrhein-Westfalen"}},{"name":"Eschenweg","postalCode":"53879","locality":"Euskirchen","municipality":{"key":"05366016","name":"Euskirchen, Stadt","type":"Stadt"},"district":{"key":"05366","name":"Euskirchen","type":"Kreis"},"federalState":{"key":"05","name":"Nordrhein-Westfalen"}},{"name":"Essiger Weg","postalCode":"53881","locality":"Euskirchen","municipality":{"key":"05366016","name":"Euskirchen, Stadt","type":"Stadt"},"district":{"key":"05366","name":"Euskirchen","type":"Kreis"},"federalState":{"key":"05","name":"Nordrhein-Westfalen"}},{"name":"Etruskerstr.","postalCode":"53881","locality":"Euskirchen","municipality":{"key":"05366016","name":"Euskirchen, Stadt","type":"Stadt"},"district":{"key":"05366","name":"Euskirchen","type":"Kreis"},"federalState":{"key":"05","name":"Nordrhein-Westfalen"}},{"name":"Euenheimer Str.","postalCode":"53881","locality":"Euskirchen","municipality":{"key":"05366016","name":"Euskirchen, Stadt","type":"Stadt"},"district":{"key":"05366","name":"Euskirchen","type":"Kreis"},"federalState":{"key":"05","name":"Nordrhein-Westfalen"}},{"name":"Eulenweg","postalCode":"53881","locality":"Euskirchen","municipality":{"key":"05366016","name":"Euskirchen, Stadt","type":"Stadt"},"district":{"key":"05366","name":"Euskirchen","type":"Kreis"},"federalState":{"key":"05","name":"Nordrhein-Westfalen"}},{"name":"Eupener Str.","postalCode":"53879","locality":"Euskirchen","municipality":{"key":"05366016","name":"Euskirchen, Stadt","type":"Stadt"},"district":{"key":"05366","name":"Euskirchen","type":"Kreis"},"federalState":{"key":"05","name":"Nordrhein-Westfalen"}},{"name":"Euskirchener Heide","postalCode":"53879","locality":"Euskirchen","municipality":{"key":"05366016","name":"Euskirchen, Stadt","type":"Stadt"},"district":{"key":"05366","name":"Euskirchen","type":"Kreis"},"federalState":{"key":"05","name":"Nordrhein-Westfalen"}},{"name":"Falkenburger Str.","postalCode":"53879","locality":"Euskirchen","municipality":{"key":"05366016","name":"Euskirchen, Stadt","type":"Stadt"},"district":{"key":"05366","name":"Euskirchen","type":"Kreis"},"federalState":{"key":"05","name":"Nordrhein-Westfalen"}},{"name":"Falkenweg","postalCode":"53881","locality":"Euskirchen","municipality":{"key":"05366016","name":"Euskirchen, Stadt","type":"Stadt"},"district":{"key":"05366","name":"Euskirchen","type":"Kreis"},"federalState":{"key":"05","name":"Nordrhein-Westfalen"}},{"name":"Falterstr.","postalCode":"53881","locality":"Euskirchen","municipality":{"key":"05366016","name":"Euskirchen, Stadt","type":"Stadt"},"district":{"key":"05366","name":"Euskirchen","type":"Kreis"},"federalState":{"key":"05","name":"Nordrhein-Westfalen"}},{"name":"Fasanenstr.","postalCode":"53881","locality":"Euskirchen","municipality":{"key":"05366016","name":"Euskirchen, Stadt","type":"Stadt"},"district":{"key":"05366","name":"Euskirchen","type":"Kreis"},"federalState":{"key":"05","name":"Nordrhein-Westfalen"}},{"name":"Feldgartenstr.","postalCode":"53881","locality":"Euskirchen","municipality":{"key":"05366016","name":"Euskirchen, Stadt","type":"Stadt"},"district":{"key":"05366","name":"Euskirchen","type":"Kreis"},"federalState":{"key":"05","name":"Nordrhein-Westfalen"}},{"name":"Feldgrillenstr.","postalCode":"53881","locality":"Euskirchen","municipality":{"key":"05366016","name":"Euskirchen, Stadt","type":"Stadt"},"district":{"key":"05366","name":"Euskirchen","type":"Kreis"},"federalState":{"key":"05","name":"Nordrhein-Westfalen"}},{"name":"Filchnerstr.","postalCode":"53881","locality":"Euskirchen","municipality":{"key":"05366016","name":"Euskirchen, Stadt","type":"Stadt"},"district":{"key":"05366","name":"Euskirchen","type":"Kreis"},"federalState":{"key":"05","name":"Nordrhein-Westfalen"}},{"name":"Finkenweg","postalCode":"53881","locality":"Euskirchen","municipality":{"key":"05366016","name":"Euskirchen, Stadt","type":"Stadt"},"district":{"key":"05366","name":"Euskirchen","type":"Kreis"},"federalState":{"key":"05","name":"Nordrhein-Westfalen"}},{"name":"Flamersheimer Allee","postalCode":"53881","locality":"Euskirchen","municipality":{"key":"05366016","name":"Euskirchen, Stadt","type":"Stadt"},"district":{"key":"05366","name":"Euskirchen","type":"Kreis"},"federalState":{"key":"05","name":"Nordrhein-Westfalen"}},{"name":"Flamersheimer Pfad","postalCode":"53881","locality":"Euskirchen","municipality":{"key":"05366016","name":"Euskirchen, Stadt","type":"Stadt"},"district":{"key":"05366","name":"Euskirchen","type":"Kreis"},"federalState":{"key":"05","name":"Nordrhein-Westfalen"}},{"name":"Flamersheimer Weg","postalCode":"53881","locality":"Euskirchen","municipality":{"key":"05366016","name":"Euskirchen, Stadt","type":"Stadt"},"district":{"key":"05366","name":"Euskirchen","type":"Kreis"},"federalState":{"key":"05","name":"Nordrhein-Westfalen"}},{"name":"Flockenmühle","postalCode":"53881","locality":"Euskirchen","municipality":{"key":"05366016","name":"Euskirchen, Stadt","type":"Stadt"},"district":{"key":"05366","name":"Euskirchen","type":"Kreis"},"federalState":{"key":"05","name":"Nordrhein-Westfalen"}},{"name":"Forellenstr.","postalCode":"53881","locality":"Euskirchen","municipality":{"key":"05366016","name":"Euskirchen, Stadt","type":"Stadt"},"district":{"key":"05366","name":"Euskirchen","type":"Kreis"},"federalState":{"key":"05","name":"Nordrhein-Westfalen"}},{"name":"Forsthaus Broich","postalCode":"53881","locality":"Euskirchen","municipality":{"key":"05366016","name":"Euskirchen, Stadt","type":"Stadt"},"district":{"key":"05366","name":"Euskirchen","type":"Kreis"},"federalState":{"key":"05","name":"Nordrhein-Westfalen"}},{"name":"Frankenstr.","postalCode":"53881","locality":"Euskirchen","municipality":{"key":"05366016","name":"Euskirchen, Stadt","type":"Stadt"},"district":{"key":"05366","name":"Euskirchen","type":"Kreis"},"federalState":{"key":"05","name":"Nordrhein-Westfalen"}},{"name":"Franziskanerplatz","postalCode":"53879","locality":"Euskirchen","municipality":{"key":"05366016","name":"Euskirchen, Stadt","type":"Stadt"},"district":{"key":"05366","name":"Euskirchen","type":"Kreis"},"federalState":{"key":"05","name":"Nordrhein-Westfalen"}},{"name":"Franz-Sester-Str.","postalCode":"53879","locality":"Euskirchen","municipality":{"key":"05366016","name":"Euskirchen, Stadt","type":"Stadt"},"district":{"key":"05366","name":"Euskirchen","type":"Kreis"},"federalState":{"key":"05","name":"Nordrhein-Westfalen"}},{"name":"Frauenberger Str.","postalCode":"53879","locality":"Euskirchen","municipality":{"key":"05366016","name":"Euskirchen, Stadt","type":"Stadt"},"district":{"key":"05366","name":"Euskirchen","type":"Kreis"},"federalState":{"key":"05","name":"Nordrhein-Westfalen"}},{"name":"Frauenberger Str.","postalCode":"53881","locality":"Euskirchen","municipality":{"key":"05366016","name":"Euskirchen, Stadt","type":"Stadt"},"district":{"key":"05366","name":"Euskirchen","type":"Kreis"},"federalState":{"key":"05","name":"Nordrhein-Westfalen"}},{"name":"Fraunhoferstr.","postalCode":"53881","locality":"Euskirchen","municipality":{"key":"05366016","name":"Euskirchen, Stadt","type":"Stadt"},"district":{"key":"05366","name":"Euskirchen","type":"Kreis"},"federalState":{"key":"05","name":"Nordrhein-Westfalen"}},{"name":"Freiheitsstr.","postalCode":"53881","locality":"Euskirchen","municipality":{"key":"05366016","name":"Euskirchen, Stadt","type":"Stadt"},"district":{"key":"05366","name":"Euskirchen","type":"Kreis"},"federalState":{"key":"05","name":"Nordrhein-Westfalen"}},{"name":"Friedhofstr.","postalCode":"53881","locality":"Euskirchen","municipality":{"key":"05366016","name":"Euskirchen, Stadt","type":"Stadt"},"district":{"key":"05366","name":"Euskirchen","type":"Kreis"},"federalState":{"key":"05","name":"Nordrhein-Westfalen"}},{"name":"Friedrichsruh","postalCode":"53879","locality":"Euskirchen","municipality":{"key":"05366016","name":"Euskirchen, Stadt","type":"Stadt"},"district":{"key":"05366","name":"Euskirchen","type":"Kreis"},"federalState":{"key":"05","name":"Nordrhein-Westfalen"}},{"name":"Friedrichstr.","postalCode":"53881","locality":"Euskirchen","municipality":{"key":"05366016","name":"Euskirchen, Stadt","type":"Stadt"},"district":{"key":"05366","name":"Euskirchen","type":"Kreis"},"federalState":{"key":"05","name":"Nordrhein-Westfalen"}},{"name":"Friesenstr.","postalCode":"53881","locality":"Euskirchen","municipality":{"key":"05366016","name":"Euskirchen, Stadt","type":"Stadt"},"district":{"key":"05366","name":"Euskirchen","type":"Kreis"},"federalState":{"key":"05","name":"Nordrhein-Westfalen"}},{"name":"Fritzstr.","postalCode":"53881","locality":"Euskirchen","municipality":{"key":"05366016","name":"Euskirchen, Stadt","type":"Stadt"},"district":{"key":"05366","name":"Euskirchen","type":"Kreis"},"federalState":{"key":"05","name":"Nordrhein-Westfalen"}},{"name":"Galileistr.","postalCode":"53881","locality":"Euskirchen","municipality":{"key":"05366016","name":"Euskirchen, Stadt","type":"Stadt"},"district":{"key":"05366","name":"Euskirchen","type":"Kreis"},"federalState":{"key":"05","name":"Nordrhein-Westfalen"}},{"name":"Gallierstr.","postalCode":"53881","locality":"Euskirchen","municipality":{"key":"05366016","name":"Euskirchen, Stadt","type":"Stadt"},"district":{"key":"05366","name":"Euskirchen","type":"Kreis"},"federalState":{"key":"05","name":"Nordrhein-Westfalen"}},{"name":"Gansweide","postalCode":"53879","locality":"Euskirchen","municipality":{"key":"05366016","name":"Euskirchen, Stadt","type":"Stadt"},"district":{"key":"05366","name":"Euskirchen","type":"Kreis"},"federalState":{"key":"05","name":"Nordrhein-Westfalen"}},{"name":"Gartenstr.","postalCode":"53879","locality":"Euskirchen","municipality":{"key":"05366016","name":"Euskirchen, Stadt","type":"Stadt"},"district":{"key":"05366","name":"Euskirchen","type":"Kreis"},"federalState":{"key":"05","name":"Nordrhein-Westfalen"}},{"name":"Gebrüder-Grimm-Str.","postalCode":"53881","locality":"Euskirchen","municipality":{"key":"05366016","name":"Euskirchen, Stadt","type":"Stadt"},"district":{"key":"05366","name":"Euskirchen","type":"Kreis"},"federalState":{"key":"05","name":"Nordrhein-Westfalen"}},{"name":"Geierstr.","postalCode":"53881","locality":"Euskirchen","municipality":{"key":"05366016","name":"Euskirchen, Stadt","type":"Stadt"},"district":{"key":"05366","name":"Euskirchen","type":"Kreis"},"federalState":{"key":"05","name":"Nordrhein-Westfalen"}},{"name":"Georg-Schweinfurth-Str.","postalCode":"53881","locality":"Euskirchen","municipality":{"key":"05366016","name":"Euskirchen, Stadt","type":"Stadt"},"district":{"key":"05366","name":"Euskirchen","type":"Kreis"},"federalState":{"key":"05","name":"Nordrhein-Westfalen"}},{"name":"Gerberstr.","postalCode":"53879","locality":"Euskirchen","municipality":{"key":"05366016","name":"Euskirchen, Stadt","type":"Stadt"},"district":{"key":"05366","name":"Euskirchen","type":"Kreis"},"federalState":{"key":"05","name":"Nordrhein-Westfalen"}},{"name":"Germanenstr.","postalCode":"53881","locality":"Euskirchen","municipality":{"key":"05366016","name":"Euskirchen, Stadt","type":"Stadt"},"district":{"key":"05366","name":"Euskirchen","type":"Kreis"},"federalState":{"key":"05","name":"Nordrhein-Westfalen"}},{"name":"Gerstenstr.","postalCode":"53881","locality":"Euskirchen","municipality":{"key":"05366016","name":"Euskirchen, Stadt","type":"Stadt"},"district":{"key":"05366","name":"Euskirchen","type":"Kreis"},"federalState":{"key":"05","name":"Nordrhein-Westfalen"}},{"name":"Gertrudenhof","postalCode":"53881","locality":"Euskirchen","municipality":{"key":"05366016","name":"Euskirchen, Stadt","type":"Stadt"},"district":{"key":"05366","name":"Euskirchen","type":"Kreis"},"federalState":{"key":"05","name":"Nordrhein-Westfalen"}},{"name":"Gertrudisgärten","postalCode":"53879","locality":"Euskirchen","municipality":{"key":"05366016","name":"Euskirchen, Stadt","type":"Stadt"},"district":{"key":"05366","name":"Euskirchen","type":"Kreis"},"federalState":{"key":"05","name":"Nordrhein-Westfalen"}},{"name":"Gertrudisweg","postalCode":"53881","locality":"Euskirchen","municipality":{"key":"05366016","name":"Euskirchen, Stadt","type":"Stadt"},"district":{"key":"05366","name":"Euskirchen","type":"Kreis"},"federalState":{"key":"05","name":"Nordrhein-Westfalen"}},{"name":"Geschwister-Burch-Str.","postalCode":"53881","locality":"Euskirchen","municipality":{"key":"05366016","name":"Euskirchen, Stadt","type":"Stadt"},"district":{"key":"05366","name":"Euskirchen","type":"Kreis"},"federalState":{"key":"05","name":"Nordrhein-Westfalen"}},{"name":"Gladiolenweg","postalCode":"53881","locality":"Euskirchen","municipality":{"key":"05366016","name":"Euskirchen, Stadt","type":"Stadt"},"district":{"key":"05366","name":"Euskirchen","type":"Kreis"},"federalState":{"key":"05","name":"Nordrhein-Westfalen"}},{"name":"Goethestr.","postalCode":"53879","locality":"Euskirchen","municipality":{"key":"05366016","name":"Euskirchen, Stadt","type":"Stadt"},"district":{"key":"05366","name":"Euskirchen","type":"Kreis"},"federalState":{"key":"05","name":"Nordrhein-Westfalen"}},{"name":"Goldschmidtpark","postalCode":"53879","locality":"Euskirchen","municipality":{"key":"05366016","name":"Euskirchen, Stadt","type":"Stadt"},"district":{"key":"05366","name":"Euskirchen","type":"Kreis"},"federalState":{"key":"05","name":"Nordrhein-Westfalen"}},{"name":"Golfstr.","postalCode":"53881","locality":"Euskirchen","municipality":{"key":"05366016","name":"Euskirchen, Stadt","type":"Stadt"},"district":{"key":"05366","name":"Euskirchen","type":"Kreis"},"federalState":{"key":"05","name":"Nordrhein-Westfalen"}},{"name":"Görresstr.","postalCode":"53879","locality":"Euskirchen","municipality":{"key":"05366016","name":"Euskirchen, Stadt","type":"Stadt"},"district":{"key":"05366","name":"Euskirchen","type":"Kreis"},"federalState":{"key":"05","name":"Nordrhein-Westfalen"}},{"name":"Gotenstr.","postalCode":"53881","locality":"Euskirchen","municipality":{"key":"05366016","name":"Euskirchen, Stadt","type":"Stadt"},"district":{"key":"05366","name":"Euskirchen","type":"Kreis"},"federalState":{"key":"05","name":"Nordrhein-Westfalen"}},{"name":"Gothaer Str.","postalCode":"53879","locality":"Euskirchen","municipality":{"key":"05366016","name":"Euskirchen, Stadt","type":"Stadt"},"district":{"key":"05366","name":"Euskirchen","type":"Kreis"},"federalState":{"key":"05","name":"Nordrhein-Westfalen"}},{"name":"Gottfried-Disse-Str.","postalCode":"53879","locality":"Euskirchen","municipality":{"key":"05366016","name":"Euskirchen, Stadt","type":"Stadt"},"district":{"key":"05366","name":"Euskirchen","type":"Kreis"},"federalState":{"key":"05","name":"Nordrhein-Westfalen"}},{"name":"Gottfried-Kinkel-Str.","postalCode":"53879","locality":"Euskirchen","municipality":{"key":"05366016","name":"Euskirchen, Stadt","type":"Stadt"},"district":{"key":"05366","name":"Euskirchen","type":"Kreis"},"federalState":{"key":"05","name":"Nordrhein-Westfalen"}},{"name":"Grabenstr.","postalCode":"53881","locality":"Euskirchen","municipality":{"key":"05366016","name":"Euskirchen, Stadt","type":"Stadt"},"district":{"key":"05366","name":"Euskirchen","type":"Kreis"},"federalState":{"key":"05","name":"Nordrhein-Westfalen"}},{"name":"Gregor-Mendel-Str.","postalCode":"53881","locality":"Euskirchen","municipality":{"key":"05366016","name":"Euskirchen, Stadt","type":"Stadt"},"district":{"key":"05366","name":"Euskirchen","type":"Kreis"},"federalState":{"key":"05","name":"Nordrhein-Westfalen"}},{"name":"Grenzweg","postalCode":"53881","locality":"Euskirchen","municipality":{"key":"05366016","name":"Euskirchen, Stadt","type":"Stadt"},"district":{"key":"05366","name":"Euskirchen","type":"Kreis"},"federalState":{"key":"05","name":"Nordrhein-Westfalen"}},{"name":"Grillanlage der KG Erfttal 1958 e.V.","postalCode":"53881","locality":"Euskirchen","municipality":{"key":"05366016","name":"Euskirchen, Stadt","type":"Stadt"},"district":{"key":"05366","name":"Euskirchen","type":"Kreis"},"federalState":{"key":"05","name":"Nordrhein-Westfalen"}},{"name":"Grondahlsmühle","postalCode":"53881","locality":"Euskirchen","municipality":{"key":"05366016","name":"Euskirchen, Stadt","type":"Stadt"},"district":{"key":"05366","name":"Euskirchen","type":"Kreis"},"federalState":{"key":"05","name":"Nordrhein-Westfalen"}},{"name":"Großbüllesheimer Str.","postalCode":"53881","locality":"Euskirchen","municipality":{"key":"05366016","name":"Euskirchen, Stadt","type":"Stadt"},"district":{"key":"05366","name":"Euskirchen","type":"Kreis"},"federalState":{"key":"05","name":"Nordrhein-Westfalen"}},{"name":"Große Höhle","postalCode":"53881","locality":"Euskirchen","municipality":{"key":"05366016","name":"Euskirchen, Stadt","type":"Stadt"},"district":{"key":"05366","name":"Euskirchen","type":"Kreis"},"federalState":{"key":"05","name":"Nordrhein-Westfalen"}},{"name":"Grüngasse","postalCode":"53879","locality":"Euskirchen","municipality":{"key":"05366016","name":"Euskirchen, Stadt","type":"Stadt"},"district":{"key":"05366","name":"Euskirchen","type":"Kreis"},"federalState":{"key":"05","name":"Nordrhein-Westfalen"}},{"name":"Grüngürtel Großbüllesheim","postalCode":"53881","locality":"Euskirchen","municipality":{"key":"05366016","name":"Euskirchen, Stadt","type":"Stadt"},"district":{"key":"05366","name":"Euskirchen","type":"Kreis"},"federalState":{"key":"05","name":"Nordrhein-Westfalen"}},{"name":"Grünstr.","postalCode":"53879","locality":"Euskirchen","municipality":{"key":"05366016","name":"Euskirchen, Stadt","type":"Stadt"},"district":{"key":"05366","name":"Euskirchen","type":"Kreis"},"federalState":{"key":"05","name":"Nordrhein-Westfalen"}},{"name":"Gustav-Nachtigal-Str.","postalCode":"53881","locality":"Euskirchen","municipality":{"key":"05366016","name":"Euskirchen, Stadt","type":"Stadt"},"district":{"key":"05366","name":"Euskirchen","type":"Kreis"},"federalState":{"key":"05","name":"Nordrhein-Westfalen"}},{"name":"Gutenbergstr.","postalCode":"53879","locality":"Euskirchen","municipality":{"key":"05366016","name":"Euskirchen, Stadt","type":"Stadt"},"district":{"key":"05366","name":"Euskirchen","type":"Kreis"},"federalState":{"key":"05","name":"Nordrhein-Westfalen"}},{"name":"Haferstr.","postalCode":"53881","locality":"Euskirchen","municipality":{"key":"05366016","name":"Euskirchen, Stadt","type":"Stadt"},"district":{"key":"05366","name":"Euskirchen","type":"Kreis"},"federalState":{"key":"05","name":"Nordrhein-Westfalen"}},{"name":"Hahnenberger Str.","postalCode":"53881","locality":"Euskirchen","municipality":{"key":"05366016","name":"Euskirchen, Stadt","type":"Stadt"},"district":{"key":"05366","name":"Euskirchen","type":"Kreis"},"federalState":{"key":"05","name":"Nordrhein-Westfalen"}},{"name":"Hahnentrift","postalCode":"53881","locality":"Euskirchen","municipality":{"key":"05366016","name":"Euskirchen, Stadt","type":"Stadt"},"district":{"key":"05366","name":"Euskirchen","type":"Kreis"},"federalState":{"key":"05","name":"Nordrhein-Westfalen"}},{"name":"Händelstr.","postalCode":"53881","locality":"Euskirchen","municipality":{"key":"05366016","name":"Euskirchen, Stadt","type":"Stadt"},"district":{"key":"05366","name":"Euskirchen","type":"Kreis"},"federalState":{"key":"05","name":"Nordrhein-Westfalen"}},{"name":"Hanna-Nagel-Str.","postalCode":"53879","locality":"Euskirchen","municipality":{"key":"05366016","name":"Euskirchen, Stadt","type":"Stadt"},"district":{"key":"05366","name":"Euskirchen","type":"Kreis"},"federalState":{"key":"05","name":"Nordrhein-Westfalen"}},{"name":"Hans-von-Bemberg-Str.","postalCode":"53881","locality":"Euskirchen","municipality":{"key":"05366016","name":"Euskirchen, Stadt","type":"Stadt"},"district":{"key":"05366","name":"Euskirchen","type":"Kreis"},"federalState":{"key":"05","name":"Nordrhein-Westfalen"}},{"name":"Harbigstr.","postalCode":"53881","locality":"Euskirchen","municipality":{"key":"05366016","name":"Euskirchen, Stadt","type":"Stadt"},"district":{"key":"05366","name":"Euskirchen","type":"Kreis"},"federalState":{"key":"05","name":"Nordrhein-Westfalen"}},{"name":"Hardenbergstr.","postalCode":"53879","locality":"Euskirchen","municipality":{"key":"05366016","name":"Euskirchen, Stadt","type":"Stadt"},"district":{"key":"05366","name":"Euskirchen","type":"Kreis"},"federalState":{"key":"05","name":"Nordrhein-Westfalen"}},{"name":"Hardtburg","postalCode":"53881","locality":"Euskirchen","municipality":{"key":"05366016","name":"Euskirchen, Stadt","type":"Stadt"},"district":{"key":"05366","name":"Euskirchen","type":"Kreis"},"federalState":{"key":"05","name":"Nordrhein-Westfalen"}},{"name":"Hardtburger Str.","postalCode":"53881","locality":"Euskirchen","municipality":{"key":"05366016","name":"Euskirchen, Stadt","type":"Stadt"},"district":{"key":"05366","name":"Euskirchen","type":"Kreis"},"federalState":{"key":"05","name":"Nordrhein-Westfalen"}},{"name":"Hardtstr.","postalCode":"53881","locality":"Euskirchen","municipality":{"key":"05366016","name":"Euskirchen, Stadt","type":"Stadt"},"district":{"key":"05366","name":"Euskirchen","type":"Kreis"},"federalState":{"key":"05","name":"Nordrhein-Westfalen"}},{"name":"Haselnußstr.","postalCode":"53881","locality":"Euskirchen","municipality":{"key":"05366016","name":"Euskirchen, Stadt","type":"Stadt"},"district":{"key":"05366","name":"Euskirchen","type":"Kreis"},"federalState":{"key":"05","name":"Nordrhein-Westfalen"}},{"name":"Hasenhecke","postalCode":"53881","locality":"Euskirchen","municipality":{"key":"05366016","name":"Euskirchen, Stadt","type":"Stadt"},"district":{"key":"05366","name":"Euskirchen","type":"Kreis"},"federalState":{"key":"05","name":"Nordrhein-Westfalen"}},{"name":"Hasenpfad","postalCode":"53881","locality":"Euskirchen","municipality":{"key":"05366016","name":"Euskirchen, Stadt","type":"Stadt"},"district":{"key":"05366","name":"Euskirchen","type":"Kreis"},"federalState":{"key":"05","name":"Nordrhein-Westfalen"}},{"name":"Hauffstr.","postalCode":"53881","locality":"Euskirchen","municipality":{"key":"05366016","name":"Euskirchen, Stadt","type":"Stadt"},"district":{"key":"05366","name":"Euskirchen","type":"Kreis"},"federalState":{"key":"05","name":"Nordrhein-Westfalen"}},{"name":"Haydnstr.","postalCode":"53881","locality":"Euskirchen","municipality":{"key":"05366016","name":"Euskirchen, Stadt","type":"Stadt"},"district":{"key":"05366","name":"Euskirchen","type":"Kreis"},"federalState":{"key":"05","name":"Nordrhein-Westfalen"}},{"name":"Hechtstr.","postalCode":"53881","locality":"Euskirchen","municipality":{"key":"05366016","name":"Euskirchen, Stadt","type":"Stadt"},"district":{"key":"05366","name":"Euskirchen","type":"Kreis"},"federalState":{"key":"05","name":"Nordrhein-Westfalen"}},{"name":"Hedwigstr.","postalCode":"53881","locality":"Euskirchen","municipality":{"key":"05366016","name":"Euskirchen, Stadt","type":"Stadt"},"district":{"key":"05366","name":"Euskirchen","type":"Kreis"},"federalState":{"key":"05","name":"Nordrhein-Westfalen"}},{"name":"Heinrich-Rick-Str.","postalCode":"53879","locality":"Euskirchen","municipality":{"key":"05366016","name":"Euskirchen, Stadt","type":"Stadt"},"district":{"key":"05366","name":"Euskirchen","type":"Kreis"},"federalState":{"key":"05","name":"Nordrhein-Westfalen"}},{"name":"Heinrichstr.","postalCode":"53881","locality":"Euskirchen","municipality":{"key":"05366016","name":"Euskirchen, Stadt","type":"Stadt"},"district":{"key":"05366","name":"Euskirchen","type":"Kreis"},"federalState":{"key":"05","name":"Nordrhein-Westfalen"}},{"name":"Helmchesgasse","postalCode":"53881","locality":"Euskirchen","municipality":{"key":"05366016","name":"Euskirchen, Stadt","type":"Stadt"},"district":{"key":"05366","name":"Euskirchen","type":"Kreis"},"federalState":{"key":"05","name":"Nordrhein-Westfalen"}},{"name":"Henri-Dunant-Str.","postalCode":"53879","locality":"Euskirchen","municipality":{"key":"05366016","name":"Euskirchen, Stadt","type":"Stadt"},"district":{"key":"05366","name":"Euskirchen","type":"Kreis"},"federalState":{"key":"05","name":"Nordrhein-Westfalen"}},{"name":"Herderstr.","postalCode":"53881","locality":"Euskirchen","municipality":{"key":"05366016","name":"Euskirchen, Stadt","type":"Stadt"},"district":{"key":"05366","name":"Euskirchen","type":"Kreis"},"federalState":{"key":"05","name":"Nordrhein-Westfalen"}},{"name":"Herkulesstr.","postalCode":"53881","locality":"Euskirchen","municipality":{"key":"05366016","name":"Euskirchen, Stadt","type":"Stadt"},"district":{"key":"05366","name":"Euskirchen","type":"Kreis"},"federalState":{"key":"05","name":"Nordrhein-Westfalen"}},{"name":"Hermann-Löns-Str.","postalCode":"53879","locality":"Euskirchen","municipality":{"key":"05366016","name":"Euskirchen, Stadt","type":"Stadt"},"district":{"key":"05366","name":"Euskirchen","type":"Kreis"},"federalState":{"key":"05","name":"Nordrhein-Westfalen"}},{"name":"Herrenhausstr.","postalCode":"53881","locality":"Euskirchen","municipality":{"key":"05366016","name":"Euskirchen, Stadt","type":"Stadt"},"district":{"key":"05366","name":"Euskirchen","type":"Kreis"},"federalState":{"key":"05","name":"Nordrhein-Westfalen"}},{"name":"Hertzstr.","postalCode":"53881","locality":"Euskirchen","municipality":{"key":"05366016","name":"Euskirchen, Stadt","type":"Stadt"},"district":{"key":"05366","name":"Euskirchen","type":"Kreis"},"federalState":{"key":"05","name":"Nordrhein-Westfalen"}},{"name":"Hildegard-von-Bingen-Str.","postalCode":"53881","locality":"Euskirchen","municipality":{"key":"05366016","name":"Euskirchen, Stadt","type":"Stadt"},"district":{"key":"05366","name":"Euskirchen","type":"Kreis"},"federalState":{"key":"05","name":"Nordrhein-Westfalen"}},{"name":"Hildegardweg","postalCode":"53881","locality":"Euskirchen","municipality":{"key":"05366016","name":"Euskirchen, Stadt","type":"Stadt"},"district":{"key":"05366","name":"Euskirchen","type":"Kreis"},"federalState":{"key":"05","name":"Nordrhein-Westfalen"}},{"name":"Hinter den Gärten","postalCode":"53881","locality":"Euskirchen","municipality":{"key":"05366016","name":"Euskirchen, Stadt","type":"Stadt"},"district":{"key":"05366","name":"Euskirchen","type":"Kreis"},"federalState":{"key":"05","name":"Nordrhein-Westfalen"}},{"name":"Hinter den Hecken","postalCode":"53881","locality":"Euskirchen","municipality":{"key":"05366016","name":"Euskirchen, Stadt","type":"Stadt"},"district":{"key":"05366","name":"Euskirchen","type":"Kreis"},"federalState":{"key":"05","name":"Nordrhein-Westfalen"}},{"name":"Hirschstr.","postalCode":"53881","locality":"Euskirchen","municipality":{"key":"05366016","name":"Euskirchen, Stadt","type":"Stadt"},"district":{"key":"05366","name":"Euskirchen","type":"Kreis"},"federalState":{"key":"05","name":"Nordrhein-Westfalen"}},{"name":"Hochstr.","postalCode":"53879","locality":"Euskirchen","municipality":{"key":"05366016","name":"Euskirchen, Stadt","type":"Stadt"},"district":{"key":"05366","name":"Euskirchen","type":"Kreis"},"federalState":{"key":"05","name":"Nordrhein-Westfalen"}},{"name":"Hockenbroicher Str.","postalCode":"53881","locality":"Euskirchen","municipality":{"key":"05366016","name":"Euskirchen, Stadt","type":"Stadt"},"district":{"key":"05366","name":"Euskirchen","type":"Kreis"},"federalState":{"key":"05","name":"Nordrhein-Westfalen"}},{"name":"Hockenbrucher Str.","postalCode":"53881","locality":"Euskirchen","municipality":{"key":"05366016","name":"Euskirchen, Stadt","type":"Stadt"},"district":{"key":"05366","name":"Euskirchen","type":"Kreis"},"federalState":{"key":"05","name":"Nordrhein-Westfalen"}},{"name":"Hofgasse","postalCode":"53881","locality":"Euskirchen","municipality":{"key":"05366016","name":"Euskirchen, Stadt","type":"Stadt"},"district":{"key":"05366","name":"Euskirchen","type":"Kreis"},"federalState":{"key":"05","name":"Nordrhein-Westfalen"}},{"name":"Hofpfad","postalCode":"53879","locality":"Euskirchen","municipality":{"key":"05366016","name":"Euskirchen, Stadt","type":"Stadt"},"district":{"key":"05366","name":"Euskirchen","type":"Kreis"},"federalState":{"key":"05","name":"Nordrhein-Westfalen"}},{"name":"Hohnshecker Weg","postalCode":"53881","locality":"Euskirchen","municipality":{"key":"05366016","name":"Euskirchen, Stadt","type":"Stadt"},"district":{"key":"05366","name":"Euskirchen","type":"Kreis"},"federalState":{"key":"05","name":"Nordrhein-Westfalen"}},{"name":"Holbeinstr.","postalCode":"53879","locality":"Euskirchen","municipality":{"key":"05366016","name":"Euskirchen, Stadt","type":"Stadt"},"district":{"key":"05366","name":"Euskirchen","type":"Kreis"},"federalState":{"key":"05","name":"Nordrhein-Westfalen"}},{"name":"Hollandstr.","postalCode":"53881","locality":"Euskirchen","municipality":{"key":"05366016","name":"Euskirchen, Stadt","type":"Stadt"},"district":{"key":"05366","name":"Euskirchen","type":"Kreis"},"federalState":{"key":"05","name":"Nordrhein-Westfalen"}},{"name":"Horchheimer Str.","postalCode":"53881","locality":"Euskirchen","municipality":{"key":"05366016","name":"Euskirchen, Stadt","type":"Stadt"},"district":{"key":"05366","name":"Euskirchen","type":"Kreis"},"federalState":{"key":"05","name":"Nordrhein-Westfalen"}},{"name":"Hörselgauer Str.","postalCode":"53879","locality":"Euskirchen","municipality":{"key":"05366016","name":"Euskirchen, Stadt","type":"Stadt"},"district":{"key":"05366","name":"Euskirchen","type":"Kreis"},"federalState":{"key":"05","name":"Nordrhein-Westfalen"}},{"name":"Hubert-Salentin-Str.","postalCode":"53879","locality":"Euskirchen","municipality":{"key":"05366016","name":"Euskirchen, Stadt","type":"Stadt"},"district":{"key":"05366","name":"Euskirchen","type":"Kreis"},"federalState":{"key":"05","name":"Nordrhein-Westfalen"}},{"name":"Hubertusstr.","postalCode":"53881","locality":"Euskirchen","municipality":{"key":"05366016","name":"Euskirchen, Stadt","type":"Stadt"},"district":{"key":"05366","name":"Euskirchen","type":"Kreis"},"federalState":{"key":"05","name":"Nordrhein-Westfalen"}},{"name":"Hubert-Vallender-Str.","postalCode":"53879","locality":"Euskirchen","municipality":{"key":"05366016","name":"Euskirchen, Stadt","type":"Stadt"},"district":{"key":"05366","name":"Euskirchen","type":"Kreis"},"federalState":{"key":"05","name":"Nordrhein-Westfalen"}},{"name":"Hugo-Schmöle-Str.","postalCode":"53879","locality":"Euskirchen","municipality":{"key":"05366016","name":"Euskirchen, Stadt","type":"Stadt"},"district":{"key":"05366","name":"Euskirchen","type":"Kreis"},"federalState":{"key":"05","name":"Nordrhein-Westfalen"}},{"name":"Humboldtstr.","postalCode":"53881","locality":"Euskirchen","municipality":{"key":"05366016","name":"Euskirchen, Stadt","type":"Stadt"},"district":{"key":"05366","name":"Euskirchen","type":"Kreis"},"federalState":{"key":"05","name":"Nordrhein-Westfalen"}},{"name":"Hummelstr.","postalCode":"53881","locality":"Euskirchen","municipality":{"key":"05366016","name":"Euskirchen, Stadt","type":"Stadt"},"district":{"key":"05366","name":"Euskirchen","type":"Kreis"},"federalState":{"key":"05","name":"Nordrhein-Westfalen"}},{"name":"Humperdinckstr.","postalCode":"53881","locality":"Euskirchen","municipality":{"key":"05366016","name":"Euskirchen, Stadt","type":"Stadt"},"district":{"key":"05366","name":"Euskirchen","type":"Kreis"},"federalState":{"key":"05","name":"Nordrhein-Westfalen"}},{"name":"Im Auel","postalCode":"53879","locality":"Euskirchen","municipality":{"key":"05366016","name":"Euskirchen, Stadt","type":"Stadt"},"district":{"key":"05366","name":"Euskirchen","type":"Kreis"},"federalState":{"key":"05","name":"Nordrhein-Westfalen"}},{"name":"Im Bruch","postalCode":"53879","locality":"Euskirchen","municipality":{"key":"05366016","name":"Euskirchen, Stadt","type":"Stadt"},"district":{"key":"05366","name":"Euskirchen","type":"Kreis"},"federalState":{"key":"05","name":"Nordrhein-Westfalen"}},{"name":"Im Bungert","postalCode":"53881","locality":"Euskirchen","municipality":{"key":"05366016","name":"Euskirchen, Stadt","type":"Stadt"},"district":{"key":"05366","name":"Euskirchen","type":"Kreis"},"federalState":{"key":"05","name":"Nordrhein-Westfalen"}},{"name":"Im Domgarten","postalCode":"53881","locality":"Euskirchen","municipality":{"key":"05366016","name":"Euskirchen, Stadt","type":"Stadt"},"district":{"key":"05366","name":"Euskirchen","type":"Kreis"},"federalState":{"key":"05","name":"Nordrhein-Westfalen"}},{"name":"Im Erfttal","postalCode":"53881","locality":"Euskirchen","municipality":{"key":"05366016","name":"Euskirchen, Stadt","type":"Stadt"},"district":{"key":"05366","name":"Euskirchen","type":"Kreis"},"federalState":{"key":"05","name":"Nordrhein-Westfalen"}},{"name":"Im Höstert","postalCode":"53881","locality":"Euskirchen","municipality":{"key":"05366016","name":"Euskirchen, Stadt","type":"Stadt"},"district":{"key":"05366","name":"Euskirchen","type":"Kreis"},"federalState":{"key":"05","name":"Nordrhein-Westfalen"}},{"name":"Im Kirschgarten","postalCode":"53881","locality":"Euskirchen","municipality":{"key":"05366016","name":"Euskirchen, Stadt","type":"Stadt"},"district":{"key":"05366","name":"Euskirchen","type":"Kreis"},"federalState":{"key":"05","name":"Nordrhein-Westfalen"}},{"name":"Im Kleinefeldchen","postalCode":"53879","locality":"Euskirchen","municipality":{"key":"05366016","name":"Euskirchen, Stadt","type":"Stadt"},"district":{"key":"05366","name":"Euskirchen","type":"Kreis"},"federalState":{"key":"05","name":"Nordrhein-Westfalen"}},{"name":"Im Klosterpfad","postalCode":"53881","locality":"Euskirchen","municipality":{"key":"05366016","name":"Euskirchen, Stadt","type":"Stadt"},"district":{"key":"05366","name":"Euskirchen","type":"Kreis"},"federalState":{"key":"05","name":"Nordrhein-Westfalen"}},{"name":"Im Klostertal","postalCode":"53881","locality":"Euskirchen","municipality":{"key":"05366016","name":"Euskirchen, Stadt","type":"Stadt"},"district":{"key":"05366","name":"Euskirchen","type":"Kreis"},"federalState":{"key":"05","name":"Nordrhein-Westfalen"}},{"name":"Im Krautgarten","postalCode":"53881","locality":"Euskirchen","municipality":{"key":"05366016","name":"Euskirchen, Stadt","type":"Stadt"},"district":{"key":"05366","name":"Euskirchen","type":"Kreis"},"federalState":{"key":"05","name":"Nordrhein-Westfalen"}},{"name":"Im Laach","postalCode":"53881","locality":"Euskirchen","municipality":{"key":"05366016","name":"Euskirchen, Stadt","type":"Stadt"},"district":{"key":"05366","name":"Euskirchen","type":"Kreis"},"federalState":{"key":"05","name":"Nordrhein-Westfalen"}},{"name":"Im Mariental","postalCode":"53881","locality":"Euskirchen","municipality":{"key":"05366016","name":"Euskirchen, Stadt","type":"Stadt"},"district":{"key":"05366","name":"Euskirchen","type":"Kreis"},"federalState":{"key":"05","name":"Nordrhein-Westfalen"}},{"name":"Im Mühlenacker","postalCode":"53881","locality":"Euskirchen","municipality":{"key":"05366016","name":"Euskirchen, Stadt","type":"Stadt"},"district":{"key":"05366","name":"Euskirchen","type":"Kreis"},"federalState":{"key":"05","name":"Nordrhein-Westfalen"}},{"name":"Im Mühlenfeld","postalCode":"53881","locality":"Euskirchen","municipality":{"key":"05366016","name":"Euskirchen, Stadt","type":"Stadt"},"district":{"key":"05366","name":"Euskirchen","type":"Kreis"},"federalState":{"key":"05","name":"Nordrhein-Westfalen"}},{"name":"Im Reiherflug","postalCode":"53881","locality":"Euskirchen","municipality":{"key":"05366016","name":"Euskirchen, Stadt","type":"Stadt"},"district":{"key":"05366","name":"Euskirchen","type":"Kreis"},"federalState":{"key":"05","name":"Nordrhein-Westfalen"}},{"name":"Im Rosenwinkel","postalCode":"53881","locality":"Euskirchen","municipality":{"key":"05366016","name":"Euskirchen, Stadt","type":"Stadt"},"district":{"key":"05366","name":"Euskirchen","type":"Kreis"},"federalState":{"key":"05","name":"Nordrhein-Westfalen"}},{"name":"Im Rosterfeld","postalCode":"53881","locality":"Euskirchen","municipality":{"key":"05366016","name":"Euskirchen, Stadt","type":"Stadt"},"district":{"key":"05366","name":"Euskirchen","type":"Kreis"},"federalState":{"key":"05","name":"Nordrhein-Westfalen"}},{"name":"Im Schilderfeldchen","postalCode":"53879","locality":"Euskirchen","municipality":{"key":"05366016","name":"Euskirchen, Stadt","type":"Stadt"},"district":{"key":"05366","name":"Euskirchen","type":"Kreis"},"federalState":{"key":"05","name":"Nordrhein-Westfalen"}},{"name":"Im Weingarten","postalCode":"53881","locality":"Euskirchen","municipality":{"key":"05366016","name":"Euskirchen, Stadt","type":"Stadt"},"district":{"key":"05366","name":"Euskirchen","type":"Kreis"},"federalState":{"key":"05","name":"Nordrhein-Westfalen"}},{"name":"In den Benden","postalCode":"53879","locality":"Euskirchen","municipality":{"key":"05366016","name":"Euskirchen, Stadt","type":"Stadt"},"district":{"key":"05366","name":"Euskirchen","type":"Kreis"},"federalState":{"key":"05","name":"Nordrhein-Westfalen"}},{"name":"In den Breiten","postalCode":"53881","locality":"Euskirchen","municipality":{"key":"05366016","name":"Euskirchen, Stadt","type":"Stadt"},"district":{"key":"05366","name":"Euskirchen","type":"Kreis"},"federalState":{"key":"05","name":"Nordrhein-Westfalen"}},{"name":"In den Dürten","postalCode":"53881","locality":"Euskirchen","municipality":{"key":"05366016","name":"Euskirchen, Stadt","type":"Stadt"},"district":{"key":"05366","name":"Euskirchen","type":"Kreis"},"federalState":{"key":"05","name":"Nordrhein-Westfalen"}},{"name":"In den Erken","postalCode":"53881","locality":"Euskirchen","municipality":{"key":"05366016","name":"Euskirchen, Stadt","type":"Stadt"},"district":{"key":"05366","name":"Euskirchen","type":"Kreis"},"federalState":{"key":"05","name":"Nordrhein-Westfalen"}},{"name":"In den Erlen","postalCode":"53881","locality":"Euskirchen","municipality":{"key":"05366016","name":"Euskirchen, Stadt","type":"Stadt"},"district":{"key":"05366","name":"Euskirchen","type":"Kreis"},"federalState":{"key":"05","name":"Nordrhein-Westfalen"}},{"name":"In den Essigbenden","postalCode":"53879","locality":"Euskirchen","municipality":{"key":"05366016","name":"Euskirchen, Stadt","type":"Stadt"},"district":{"key":"05366","name":"Euskirchen","type":"Kreis"},"federalState":{"key":"05","name":"Nordrhein-Westfalen"}},{"name":"In den Fließen","postalCode":"53881","locality":"Euskirchen","municipality":{"key":"05366016","name":"Euskirchen, Stadt","type":"Stadt"},"district":{"key":"05366","name":"Euskirchen","type":"Kreis"},"federalState":{"key":"05","name":"Nordrhein-Westfalen"}},{"name":"In den Herbstbenden","postalCode":"53881","locality":"Euskirchen","municipality":{"key":"05366016","name":"Euskirchen, Stadt","type":"Stadt"},"district":{"key":"05366","name":"Euskirchen","type":"Kreis"},"federalState":{"key":"05","name":"Nordrhein-Westfalen"}},{"name":"In den Herrenbenden","postalCode":"53879","locality":"Euskirchen","municipality":{"key":"05366016","name":"Euskirchen, Stadt","type":"Stadt"},"district":{"key":"05366","name":"Euskirchen","type":"Kreis"},"federalState":{"key":"05","name":"Nordrhein-Westfalen"}},{"name":"In den Hüppen","postalCode":"53881","locality":"Euskirchen","municipality":{"key":"05366016","name":"Euskirchen, Stadt","type":"Stadt"},"district":{"key":"05366","name":"Euskirchen","type":"Kreis"},"federalState":{"key":"05","name":"Nordrhein-Westfalen"}},{"name":"In den Seebenden","postalCode":"53879","locality":"Euskirchen","municipality":{"key":"05366016","name":"Euskirchen, Stadt","type":"Stadt"},"district":{"key":"05366","name":"Euskirchen","type":"Kreis"},"federalState":{"key":"05","name":"Nordrhein-Westfalen"}},{"name":"In den Weiden","postalCode":"53881","locality":"Euskirchen","municipality":{"key":"05366016","name":"Euskirchen, Stadt","type":"Stadt"},"district":{"key":"05366","name":"Euskirchen","type":"Kreis"},"federalState":{"key":"05","name":"Nordrhein-Westfalen"}},{"name":"In den Wiesen","postalCode":"53881","locality":"Euskirchen","municipality":{"key":"05366016","name":"Euskirchen, Stadt","type":"Stadt"},"district":{"key":"05366","name":"Euskirchen","type":"Kreis"},"federalState":{"key":"05","name":"Nordrhein-Westfalen"}},{"name":"In der Comme","postalCode":"53881","locality":"Euskirchen","municipality":{"key":"05366016","name":"Euskirchen, Stadt","type":"Stadt"},"district":{"key":"05366","name":"Euskirchen","type":"Kreis"},"federalState":{"key":"05","name":"Nordrhein-Westfalen"}},{"name":"In der Driesch","postalCode":"53881","locality":"Euskirchen","municipality":{"key":"05366016","name":"Euskirchen, Stadt","type":"Stadt"},"district":{"key":"05366","name":"Euskirchen","type":"Kreis"},"federalState":{"key":"05","name":"Nordrhein-Westfalen"}},{"name":"Irmelsgasse","postalCode":"53881","locality":"Euskirchen","municipality":{"key":"05366016","name":"Euskirchen, Stadt","type":"Stadt"},"district":{"key":"05366","name":"Euskirchen","type":"Kreis"},"federalState":{"key":"05","name":"Nordrhein-Westfalen"}},{"name":"Jahnstr.","postalCode":"53879","locality":"Euskirchen","municipality":{"key":"05366016","name":"Euskirchen, Stadt","type":"Stadt"},"district":{"key":"05366","name":"Euskirchen","type":"Kreis"},"federalState":{"key":"05","name":"Nordrhein-Westfalen"}},{"name":"Jakob-Brücker-Str.","postalCode":"53881","locality":"Euskirchen","municipality":{"key":"05366016","name":"Euskirchen, Stadt","type":"Stadt"},"district":{"key":"05366","name":"Euskirchen","type":"Kreis"},"federalState":{"key":"05","name":"Nordrhein-Westfalen"}},{"name":"Jakob-Regh-Str.","postalCode":"53881","locality":"Euskirchen","municipality":{"key":"05366016","name":"Euskirchen, Stadt","type":"Stadt"},"district":{"key":"05366","name":"Euskirchen","type":"Kreis"},"federalState":{"key":"05","name":"Nordrhein-Westfalen"}},{"name":"Jakobsgasse","postalCode":"53879","locality":"Euskirchen","municipality":{"key":"05366016","name":"Euskirchen, Stadt","type":"Stadt"},"district":{"key":"05366","name":"Euskirchen","type":"Kreis"},"federalState":{"key":"05","name":"Nordrhein-Westfalen"}},{"name":"Jakobstr.","postalCode":"53879","locality":"Euskirchen","municipality":{"key":"05366016","name":"Euskirchen, Stadt","type":"Stadt"},"district":{"key":"05366","name":"Euskirchen","type":"Kreis"},"federalState":{"key":"05","name":"Nordrhein-Westfalen"}},{"name":"James-Cook-Str.","postalCode":"53881","locality":"Euskirchen","municipality":{"key":"05366016","name":"Euskirchen, Stadt","type":"Stadt"},"district":{"key":"05366","name":"Euskirchen","type":"Kreis"},"federalState":{"key":"05","name":"Nordrhein-Westfalen"}},{"name":"Jean-Spessart-Str.","postalCode":"53879","locality":"Euskirchen","municipality":{"key":"05366016","name":"Euskirchen, Stadt","type":"Stadt"},"district":{"key":"05366","name":"Euskirchen","type":"Kreis"},"federalState":{"key":"05","name":"Nordrhein-Westfalen"}},{"name":"Johannesbergstr.","postalCode":"53879","locality":"Euskirchen","municipality":{"key":"05366016","name":"Euskirchen, Stadt","type":"Stadt"},"district":{"key":"05366","name":"Euskirchen","type":"Kreis"},"federalState":{"key":"05","name":"Nordrhein-Westfalen"}},{"name":"Johannes-Brahms-Str.","postalCode":"53881","locality":"Euskirchen","municipality":{"key":"05366016","name":"Euskirchen, Stadt","type":"Stadt"},"district":{"key":"05366","name":"Euskirchen","type":"Kreis"},"federalState":{"key":"05","name":"Nordrhein-Westfalen"}},{"name":"Johannesstr.","postalCode":"53881","locality":"Euskirchen","municipality":{"key":"05366016","name":"Euskirchen, Stadt","type":"Stadt"},"district":{"key":"05366","name":"Euskirchen","type":"Kreis"},"federalState":{"key":"05","name":"Nordrhein-Westfalen"}},{"name":"Johann-Schmitz-Str.","postalCode":"53881","locality":"Euskirchen","municipality":{"key":"05366016","name":"Euskirchen, Stadt","type":"Stadt"},"district":{"key":"05366","name":"Euskirchen","type":"Kreis"},"federalState":{"key":"05","name":"Nordrhein-Westfalen"}},{"name":"Johann-Strauß-Str.","postalCode":"53881","locality":"Euskirchen","municipality":{"key":"05366016","name":"Euskirchen, Stadt","type":"Stadt"},"district":{"key":"05366","name":"Euskirchen","type":"Kreis"},"federalState":{"key":"05","name":"Nordrhein-Westfalen"}},{"name":"Josef-Franke-Str.","postalCode":"53879","locality":"Euskirchen","municipality":{"key":"05366016","name":"Euskirchen, Stadt","type":"Stadt"},"district":{"key":"05366","name":"Euskirchen","type":"Kreis"},"federalState":{"key":"05","name":"Nordrhein-Westfalen"}},{"name":"Josef-Gebertz-Str.","postalCode":"53881","locality":"Euskirchen","municipality":{"key":"05366016","name":"Euskirchen, Stadt","type":"Stadt"},"district":{"key":"05366","name":"Euskirchen","type":"Kreis"},"federalState":{"key":"05","name":"Nordrhein-Westfalen"}},{"name":"Josef-Krauthausen-Str.","postalCode":"53879","locality":"Euskirchen","municipality":{"key":"05366016","name":"Euskirchen, Stadt","type":"Stadt"},"district":{"key":"05366","name":"Euskirchen","type":"Kreis"},"federalState":{"key":"05","name":"Nordrhein-Westfalen"}},{"name":"Josef-Krautwig-Str.","postalCode":"53881","locality":"Euskirchen","municipality":{"key":"05366016","name":"Euskirchen, Stadt","type":"Stadt"},"district":{"key":"05366","name":"Euskirchen","type":"Kreis"},"federalState":{"key":"05","name":"Nordrhein-Westfalen"}},{"name":"Josef-Ruhr-Str.","postalCode":"53879","locality":"Euskirchen","municipality":{"key":"05366016","name":"Euskirchen, Stadt","type":"Stadt"},"district":{"key":"05366","name":"Euskirchen","type":"Kreis"},"federalState":{"key":"05","name":"Nordrhein-Westfalen"}},{"name":"Josef-Schlösser-Str.","postalCode":"53879","locality":"Euskirchen","municipality":{"key":"05366016","name":"Euskirchen, Stadt","type":"Stadt"},"district":{"key":"05366","name":"Euskirchen","type":"Kreis"},"federalState":{"key":"05","name":"Nordrhein-Westfalen"}},{"name":"Josefstr.","postalCode":"53879","locality":"Euskirchen","municipality":{"key":"05366016","name":"Euskirchen, Stadt","type":"Stadt"},"district":{"key":"05366","name":"Euskirchen","type":"Kreis"},"federalState":{"key":"05","name":"Nordrhein-Westfalen"}},{"name":"Jülicher Ring","postalCode":"53879","locality":"Euskirchen","municipality":{"key":"05366016","name":"Euskirchen, Stadt","type":"Stadt"},"district":{"key":"05366","name":"Euskirchen","type":"Kreis"},"federalState":{"key":"05","name":"Nordrhein-Westfalen"}},{"name":"Jupiterstr.","postalCode":"53881","locality":"Euskirchen","municipality":{"key":"05366016","name":"Euskirchen, Stadt","type":"Stadt"},"district":{"key":"05366","name":"Euskirchen","type":"Kreis"},"federalState":{"key":"05","name":"Nordrhein-Westfalen"}},{"name":"Jupp-Weiss-Str.","postalCode":"53881","locality":"Euskirchen","municipality":{"key":"05366016","name":"Euskirchen, Stadt","type":"Stadt"},"district":{"key":"05366","name":"Euskirchen","type":"Kreis"},"federalState":{"key":"05","name":"Nordrhein-Westfalen"}},{"name":"Käferstr.","postalCode":"53881","locality":"Euskirchen","municipality":{"key":"05366016","name":"Euskirchen, Stadt","type":"Stadt"},"district":{"key":"05366","name":"Euskirchen","type":"Kreis"},"federalState":{"key":"05","name":"Nordrhein-Westfalen"}},{"name":"Kahlenbergstr.","postalCode":"53881","locality":"Euskirchen","municipality":{"key":"05366016","name":"Euskirchen, Stadt","type":"Stadt"},"district":{"key":"05366","name":"Euskirchen","type":"Kreis"},"federalState":{"key":"05","name":"Nordrhein-Westfalen"}},{"name":"Kälkstr.","postalCode":"53879","locality":"Euskirchen","municipality":{"key":"05366016","name":"Euskirchen, Stadt","type":"Stadt"},"district":{"key":"05366","name":"Euskirchen","type":"Kreis"},"federalState":{"key":"05","name":"Nordrhein-Westfalen"}},{"name":"Kapellenstr.","postalCode":"53879","locality":"Euskirchen","municipality":{"key":"05366016","name":"Euskirchen, Stadt","type":"Stadt"},"district":{"key":"05366","name":"Euskirchen","type":"Kreis"},"federalState":{"key":"05","name":"Nordrhein-Westfalen"}},{"name":"Kaplan-Kellermann-Str.","postalCode":"53879","locality":"Euskirchen","municipality":{"key":"05366016","name":"Euskirchen, Stadt","type":"Stadt"},"district":{"key":"05366","name":"Euskirchen","type":"Kreis"},"federalState":{"key":"05","name":"Nordrhein-Westfalen"}},{"name":"Karl-Gissinger-Str.","postalCode":"53879","locality":"Euskirchen","municipality":{"key":"05366016","name":"Euskirchen, Stadt","type":"Stadt"},"district":{"key":"05366","name":"Euskirchen","type":"Kreis"},"federalState":{"key":"05","name":"Nordrhein-Westfalen"}},{"name":"Karlstr.","postalCode":"53879","locality":"Euskirchen","municipality":{"key":"05366016","name":"Euskirchen, Stadt","type":"Stadt"},"district":{"key":"05366","name":"Euskirchen","type":"Kreis"},"federalState":{"key":"05","name":"Nordrhein-Westfalen"}},{"name":"Kastanienweg","postalCode":"53879","locality":"Euskirchen","municipality":{"key":"05366016","name":"Euskirchen, Stadt","type":"Stadt"},"district":{"key":"05366","name":"Euskirchen","type":"Kreis"},"federalState":{"key":"05","name":"Nordrhein-Westfalen"}},{"name":"Kastenholzer Burgstr.","postalCode":"53881","locality":"Euskirchen","municipality":{"key":"05366016","name":"Euskirchen, Stadt","type":"Stadt"},"district":{"key":"05366","name":"Euskirchen","type":"Kreis"},"federalState":{"key":"05","name":"Nordrhein-Westfalen"}},{"name":"Käthe-Kollwitz-Str.","postalCode":"53879","locality":"Euskirchen","municipality":{"key":"05366016","name":"Euskirchen, Stadt","type":"Stadt"},"district":{"key":"05366","name":"Euskirchen","type":"Kreis"},"federalState":{"key":"05","name":"Nordrhein-Westfalen"}},{"name":"Kaumannsstr.","postalCode":"53881","locality":"Euskirchen","municipality":{"key":"05366016","name":"Euskirchen, Stadt","type":"Stadt"},"district":{"key":"05366","name":"Euskirchen","type":"Kreis"},"federalState":{"key":"05","name":"Nordrhein-Westfalen"}},{"name":"Keltenring","postalCode":"53879","locality":"Euskirchen","municipality":{"key":"05366016","name":"Euskirchen, Stadt","type":"Stadt"},"district":{"key":"05366","name":"Euskirchen","type":"Kreis"},"federalState":{"key":"05","name":"Nordrhein-Westfalen"}},{"name":"Keplerstr.","postalCode":"53881","locality":"Euskirchen","municipality":{"key":"05366016","name":"Euskirchen, Stadt","type":"Stadt"},"district":{"key":"05366","name":"Euskirchen","type":"Kreis"},"federalState":{"key":"05","name":"Nordrhein-Westfalen"}},{"name":"Kerp’sches Mühlenweg","postalCode":"53881","locality":"Euskirchen","municipality":{"key":"05366016","name":"Euskirchen, Stadt","type":"Stadt"},"district":{"key":"05366","name":"Euskirchen","type":"Kreis"},"federalState":{"key":"05","name":"Nordrhein-Westfalen"}},{"name":"Kessenicher Str.","postalCode":"53879","locality":"Euskirchen","municipality":{"key":"05366016","name":"Euskirchen, Stadt","type":"Stadt"},"district":{"key":"05366","name":"Euskirchen","type":"Kreis"},"federalState":{"key":"05","name":"Nordrhein-Westfalen"}},{"name":"Kessenicher Str.","postalCode":"53881","locality":"Euskirchen","municipality":{"key":"05366016","name":"Euskirchen, Stadt","type":"Stadt"},"district":{"key":"05366","name":"Euskirchen","type":"Kreis"},"federalState":{"key":"05","name":"Nordrhein-Westfalen"}},{"name":"Kessenicher Torwall","postalCode":"53879","locality":"Euskirchen","municipality":{"key":"05366016","name":"Euskirchen, Stadt","type":"Stadt"},"district":{"key":"05366","name":"Euskirchen","type":"Kreis"},"federalState":{"key":"05","name":"Nordrhein-Westfalen"}},{"name":"Kiebitzstr.","postalCode":"53881","locality":"Euskirchen","municipality":{"key":"05366016","name":"Euskirchen, Stadt","type":"Stadt"},"district":{"key":"05366","name":"Euskirchen","type":"Kreis"},"federalState":{"key":"05","name":"Nordrhein-Westfalen"}},{"name":"Kiefernweg","postalCode":"53879","locality":"Euskirchen","municipality":{"key":"05366016","name":"Euskirchen, Stadt","type":"Stadt"},"district":{"key":"05366","name":"Euskirchen","type":"Kreis"},"federalState":{"key":"05","name":"Nordrhein-Westfalen"}},{"name":"Kieselweg","postalCode":"53881","locality":"Euskirchen","municipality":{"key":"05366016","name":"Euskirchen, Stadt","type":"Stadt"},"district":{"key":"05366","name":"Euskirchen","type":"Kreis"},"federalState":{"key":"05","name":"Nordrhein-Westfalen"}},{"name":"Kirchheimer Str.","postalCode":"53881","locality":"Euskirchen","municipality":{"key":"05366016","name":"Euskirchen, Stadt","type":"Stadt"},"district":{"key":"05366","name":"Euskirchen","type":"Kreis"},"federalState":{"key":"05","name":"Nordrhein-Westfalen"}},{"name":"Kirchplatz","postalCode":"53879","locality":"Euskirchen","municipality":{"key":"05366016","name":"Euskirchen, Stadt","type":"Stadt"},"district":{"key":"05366","name":"Euskirchen","type":"Kreis"},"federalState":{"key":"05","name":"Nordrhein-Westfalen"}},{"name":"Kirchstr.","postalCode":"53879","locality":"Euskirchen","municipality":{"key":"05366016","name":"Euskirchen, Stadt","type":"Stadt"},"district":{"key":"05366","name":"Euskirchen","type":"Kreis"},"federalState":{"key":"05","name":"Nordrhein-Westfalen"}},{"name":"Kirchwall","postalCode":"53879","locality":"Euskirchen","municipality":{"key":"05366016","name":"Euskirchen, Stadt","type":"Stadt"},"district":{"key":"05366","name":"Euskirchen","type":"Kreis"},"federalState":{"key":"05","name":"Nordrhein-Westfalen"}},{"name":"Kirschenallee","postalCode":"53879","locality":"Euskirchen","municipality":{"key":"05366016","name":"Euskirchen, Stadt","type":"Stadt"},"district":{"key":"05366","name":"Euskirchen","type":"Kreis"},"federalState":{"key":"05","name":"Nordrhein-Westfalen"}},{"name":"Kleinbüllesheimer Str.","postalCode":"53881","locality":"Euskirchen","municipality":{"key":"05366016","name":"Euskirchen, Stadt","type":"Stadt"},"district":{"key":"05366","name":"Euskirchen","type":"Kreis"},"federalState":{"key":"05","name":"Nordrhein-Westfalen"}},{"name":"Kleine Höhle","postalCode":"53881","locality":"Euskirchen","municipality":{"key":"05366016","name":"Euskirchen, Stadt","type":"Stadt"},"district":{"key":"05366","name":"Euskirchen","type":"Kreis"},"federalState":{"key":"05","name":"Nordrhein-Westfalen"}},{"name":"Kleiststr.","postalCode":"53881","locality":"Euskirchen","municipality":{"key":"05366016","name":"Euskirchen, Stadt","type":"Stadt"},"district":{"key":"05366","name":"Euskirchen","type":"Kreis"},"federalState":{"key":"05","name":"Nordrhein-Westfalen"}},{"name":"Klevische Str.","postalCode":"53879","locality":"Euskirchen","municipality":{"key":"05366016","name":"Euskirchen, Stadt","type":"Stadt"},"district":{"key":"05366","name":"Euskirchen","type":"Kreis"},"federalState":{"key":"05","name":"Nordrhein-Westfalen"}},{"name":"Klopstockstr.","postalCode":"53881","locality":"Euskirchen","municipality":{"key":"05366016","name":"Euskirchen, Stadt","type":"Stadt"},"district":{"key":"05366","name":"Euskirchen","type":"Kreis"},"federalState":{"key":"05","name":"Nordrhein-Westfalen"}},{"name":"Klostergarten","postalCode":"53879","locality":"Euskirchen","municipality":{"key":"05366016","name":"Euskirchen, Stadt","type":"Stadt"},"district":{"key":"05366","name":"Euskirchen","type":"Kreis"},"federalState":{"key":"05","name":"Nordrhein-Westfalen"}},{"name":"Klosterpfad","postalCode":"53881","locality":"Euskirchen","municipality":{"key":"05366016","name":"Euskirchen, Stadt","type":"Stadt"},"district":{"key":"05366","name":"Euskirchen","type":"Kreis"},"federalState":{"key":"05","name":"Nordrhein-Westfalen"}},{"name":"Klunkert","postalCode":"53881","locality":"Euskirchen","municipality":{"key":"05366016","name":"Euskirchen, Stadt","type":"Stadt"},"district":{"key":"05366","name":"Euskirchen","type":"Kreis"},"federalState":{"key":"05","name":"Nordrhein-Westfalen"}},{"name":"Klusenweg","postalCode":"53881","locality":"Euskirchen","municipality":{"key":"05366016","name":"Euskirchen, Stadt","type":"Stadt"},"district":{"key":"05366","name":"Euskirchen","type":"Kreis"},"federalState":{"key":"05","name":"Nordrhein-Westfalen"}},{"name":"Koenenkreuzstr.","postalCode":"53881","locality":"Euskirchen","municipality":{"key":"05366016","name":"Euskirchen, Stadt","type":"Stadt"},"district":{"key":"05366","name":"Euskirchen","type":"Kreis"},"federalState":{"key":"05","name":"Nordrhein-Westfalen"}},{"name":"Kolberger Str.","postalCode":"53879","locality":"Euskirchen","municipality":{"key":"05366016","name":"Euskirchen, Stadt","type":"Stadt"},"district":{"key":"05366","name":"Euskirchen","type":"Kreis"},"federalState":{"key":"05","name":"Nordrhein-Westfalen"}},{"name":"Kölner Str.","postalCode":"53879","locality":"Euskirchen","municipality":{"key":"05366016","name":"Euskirchen, Stadt","type":"Stadt"},"district":{"key":"05366","name":"Euskirchen","type":"Kreis"},"federalState":{"key":"05","name":"Nordrhein-Westfalen"}},{"name":"Kölner Str.","postalCode":"53881","locality":"Euskirchen","municipality":{"key":"05366016","name":"Euskirchen, Stadt","type":"Stadt"},"district":{"key":"05366","name":"Euskirchen","type":"Kreis"},"federalState":{"key":"05","name":"Nordrhein-Westfalen"}},{"name":"Kolpingstr.","postalCode":"53879","locality":"Euskirchen","municipality":{"key":"05366016","name":"Euskirchen, Stadt","type":"Stadt"},"district":{"key":"05366","name":"Euskirchen","type":"Kreis"},"federalState":{"key":"05","name":"Nordrhein-Westfalen"}},{"name":"Kolumbusstr.","postalCode":"53881","locality":"Euskirchen","municipality":{"key":"05366016","name":"Euskirchen, Stadt","type":"Stadt"},"district":{"key":"05366","name":"Euskirchen","type":"Kreis"},"federalState":{"key":"05","name":"Nordrhein-Westfalen"}},{"name":"Kommerner Str.","postalCode":"53879","locality":"Euskirchen","municipality":{"key":"05366016","name":"Euskirchen, Stadt","type":"Stadt"},"district":{"key":"05366","name":"Euskirchen","type":"Kreis"},"federalState":{"key":"05","name":"Nordrhein-Westfalen"}},{"name":"Kommerner Str.","postalCode":"53881","locality":"Euskirchen","municipality":{"key":"05366016","name":"Euskirchen, Stadt","type":"Stadt"},"district":{"key":"05366","name":"Euskirchen","type":"Kreis"},"federalState":{"key":"05","name":"Nordrhein-Westfalen"}},{"name":"Kompstr.","postalCode":"53881","locality":"Euskirchen","municipality":{"key":"05366016","name":"Euskirchen, Stadt","type":"Stadt"},"district":{"key":"05366","name":"Euskirchen","type":"Kreis"},"federalState":{"key":"05","name":"Nordrhein-Westfalen"}},{"name":"Königsberger Str.","postalCode":"53879","locality":"Euskirchen","municipality":{"key":"05366016","name":"Euskirchen, Stadt","type":"Stadt"},"district":{"key":"05366","name":"Euskirchen","type":"Kreis"},"federalState":{"key":"05","name":"Nordrhein-Westfalen"}},{"name":"Konradstr.","postalCode":"53881","locality":"Euskirchen","municipality":{"key":"05366016","name":"Euskirchen, Stadt","type":"Stadt"},"district":{"key":"05366","name":"Euskirchen","type":"Kreis"},"federalState":{"key":"05","name":"Nordrhein-Westfalen"}},{"name":"Konrad-von-Hochstaden-Str.","postalCode":"53881","locality":"Euskirchen","municipality":{"key":"05366016","name":"Euskirchen, Stadt","type":"Stadt"},"district":{"key":"05366","name":"Euskirchen","type":"Kreis"},"federalState":{"key":"05","name":"Nordrhein-Westfalen"}},{"name":"Kopenhagener Str.","postalCode":"53881","locality":"Euskirchen","municipality":{"key":"05366016","name":"Euskirchen, Stadt","type":"Stadt"},"district":{"key":"05366","name":"Euskirchen","type":"Kreis"},"federalState":{"key":"05","name":"Nordrhein-Westfalen"}},{"name":"Kopernikusstr.","postalCode":"53881","locality":"Euskirchen","municipality":{"key":"05366016","name":"Euskirchen, Stadt","type":"Stadt"},"district":{"key":"05366","name":"Euskirchen","type":"Kreis"},"federalState":{"key":"05","name":"Nordrhein-Westfalen"}},{"name":"Kornblumenweg","postalCode":"53881","locality":"Euskirchen","municipality":{"key":"05366016","name":"Euskirchen, Stadt","type":"Stadt"},"district":{"key":"05366","name":"Euskirchen","type":"Kreis"},"federalState":{"key":"05","name":"Nordrhein-Westfalen"}},{"name":"Kösliner Str.","postalCode":"53879","locality":"Euskirchen","municipality":{"key":"05366016","name":"Euskirchen, Stadt","type":"Stadt"},"district":{"key":"05366","name":"Euskirchen","type":"Kreis"},"federalState":{"key":"05","name":"Nordrhein-Westfalen"}},{"name":"Laachgasse","postalCode":"53881","locality":"Euskirchen","municipality":{"key":"05366016","name":"Euskirchen, Stadt","type":"Stadt"},"district":{"key":"05366","name":"Euskirchen","type":"Kreis"},"federalState":{"key":"05","name":"Nordrhein-Westfalen"}},{"name":"Lahnstr.","postalCode":"53879","locality":"Euskirchen","municipality":{"key":"05366016","name":"Euskirchen, Stadt","type":"Stadt"},"district":{"key":"05366","name":"Euskirchen","type":"Kreis"},"federalState":{"key":"05","name":"Nordrhein-Westfalen"}},{"name":"Lambertusstr.","postalCode":"53881","locality":"Euskirchen","municipality":{"key":"05366016","name":"Euskirchen, Stadt","type":"Stadt"},"district":{"key":"05366","name":"Euskirchen","type":"Kreis"},"federalState":{"key":"05","name":"Nordrhein-Westfalen"}},{"name":"Lappermühle","postalCode":"53881","locality":"Euskirchen","municipality":{"key":"05366016","name":"Euskirchen, Stadt","type":"Stadt"},"district":{"key":"05366","name":"Euskirchen","type":"Kreis"},"federalState":{"key":"05","name":"Nordrhein-Westfalen"}},{"name":"Lappermühlenallee","postalCode":"53881","locality":"Euskirchen","municipality":{"key":"05366016","name":"Euskirchen, Stadt","type":"Stadt"},"district":{"key":"05366","name":"Euskirchen","type":"Kreis"},"federalState":{"key":"05","name":"Nordrhein-Westfalen"}},{"name":"Laurentiusstr.","postalCode":"53881","locality":"Euskirchen","municipality":{"key":"05366016","name":"Euskirchen, Stadt","type":"Stadt"},"district":{"key":"05366","name":"Euskirchen","type":"Kreis"},"federalState":{"key":"05","name":"Nordrhein-Westfalen"}},{"name":"Leguanstr.","postalCode":"53879","locality":"Euskirchen","municipality":{"key":"05366016","name":"Euskirchen, Stadt","type":"Stadt"},"district":{"key":"05366","name":"Euskirchen","type":"Kreis"},"federalState":{"key":"05","name":"Nordrhein-Westfalen"}},{"name":"Leibnizstr.","postalCode":"53881","locality":"Euskirchen","municipality":{"key":"05366016","name":"Euskirchen, Stadt","type":"Stadt"},"district":{"key":"05366","name":"Euskirchen","type":"Kreis"},"federalState":{"key":"05","name":"Nordrhein-Westfalen"}},{"name":"Lerchenweg","postalCode":"53881","locality":"Euskirchen","municipality":{"key":"05366016","name":"Euskirchen, Stadt","type":"Stadt"},"district":{"key":"05366","name":"Euskirchen","type":"Kreis"},"federalState":{"key":"05","name":"Nordrhein-Westfalen"}},{"name":"Lessingstr.","postalCode":"53879","locality":"Euskirchen","municipality":{"key":"05366016","name":"Euskirchen, Stadt","type":"Stadt"},"district":{"key":"05366","name":"Euskirchen","type":"Kreis"},"federalState":{"key":"05","name":"Nordrhein-Westfalen"}},{"name":"Libellenstr.","postalCode":"53881","locality":"Euskirchen","municipality":{"key":"05366016","name":"Euskirchen, Stadt","type":"Stadt"},"district":{"key":"05366","name":"Euskirchen","type":"Kreis"},"federalState":{"key":"05","name":"Nordrhein-Westfalen"}},{"name":"Lilienstr.","postalCode":"53881","locality":"Euskirchen","municipality":{"key":"05366016","name":"Euskirchen, Stadt","type":"Stadt"},"district":{"key":"05366","name":"Euskirchen","type":"Kreis"},"federalState":{"key":"05","name":"Nordrhein-Westfalen"}},{"name":"Lindenberg","postalCode":"53881","locality":"Euskirchen","municipality":{"key":"05366016","name":"Euskirchen, Stadt","type":"Stadt"},"district":{"key":"05366","name":"Euskirchen","type":"Kreis"},"federalState":{"key":"05","name":"Nordrhein-Westfalen"}},{"name":"Lindenhofstr.","postalCode":"53881","locality":"Euskirchen","municipality":{"key":"05366016","name":"Euskirchen, Stadt","type":"Stadt"},"district":{"key":"05366","name":"Euskirchen","type":"Kreis"},"federalState":{"key":"05","name":"Nordrhein-Westfalen"}},{"name":"Lindenweg","postalCode":"53879","locality":"Euskirchen","municipality":{"key":"05366016","name":"Euskirchen, Stadt","type":"Stadt"},"district":{"key":"05366","name":"Euskirchen","type":"Kreis"},"federalState":{"key":"05","name":"Nordrhein-Westfalen"}},{"name":"Lippestr.","postalCode":"53879","locality":"Euskirchen","municipality":{"key":"05366016","name":"Euskirchen, Stadt","type":"Stadt"},"district":{"key":"05366","name":"Euskirchen","type":"Kreis"},"federalState":{"key":"05","name":"Nordrhein-Westfalen"}},{"name":"Lise-Meitner-Str.","postalCode":"53881","locality":"Euskirchen","municipality":{"key":"05366016","name":"Euskirchen, Stadt","type":"Stadt"},"district":{"key":"05366","name":"Euskirchen","type":"Kreis"},"federalState":{"key":"05","name":"Nordrhein-Westfalen"}},{"name":"Lisztstr.","postalCode":"53881","locality":"Euskirchen","municipality":{"key":"05366016","name":"Euskirchen, Stadt","type":"Stadt"},"district":{"key":"05366","name":"Euskirchen","type":"Kreis"},"federalState":{"key":"05","name":"Nordrhein-Westfalen"}},{"name":"Locher Allee","postalCode":"53881","locality":"Euskirchen","municipality":{"key":"05366016","name":"Euskirchen, Stadt","type":"Stadt"},"district":{"key":"05366","name":"Euskirchen","type":"Kreis"},"federalState":{"key":"05","name":"Nordrhein-Westfalen"}},{"name":"Lochnerstr.","postalCode":"53879","locality":"Euskirchen","municipality":{"key":"05366016","name":"Euskirchen, Stadt","type":"Stadt"},"district":{"key":"05366","name":"Euskirchen","type":"Kreis"},"federalState":{"key":"05","name":"Nordrhein-Westfalen"}},{"name":"Lohgasse","postalCode":"53881","locality":"Euskirchen","municipality":{"key":"05366016","name":"Euskirchen, Stadt","type":"Stadt"},"district":{"key":"05366","name":"Euskirchen","type":"Kreis"},"federalState":{"key":"05","name":"Nordrhein-Westfalen"}},{"name":"Lohmühlenweg","postalCode":"53881","locality":"Euskirchen","municipality":{"key":"05366016","name":"Euskirchen, Stadt","type":"Stadt"},"district":{"key":"05366","name":"Euskirchen","type":"Kreis"},"federalState":{"key":"05","name":"Nordrhein-Westfalen"}},{"name":"Lommersumer Str.","postalCode":"53881","locality":"Euskirchen","municipality":{"key":"05366016","name":"Euskirchen, Stadt","type":"Stadt"},"district":{"key":"05366","name":"Euskirchen","type":"Kreis"},"federalState":{"key":"05","name":"Nordrhein-Westfalen"}},{"name":"Londoner Str.","postalCode":"53881","locality":"Euskirchen","municipality":{"key":"05366016","name":"Euskirchen, Stadt","type":"Stadt"},"district":{"key":"05366","name":"Euskirchen","type":"Kreis"},"federalState":{"key":"05","name":"Nordrhein-Westfalen"}},{"name":"Lortzingstr.","postalCode":"53881","locality":"Euskirchen","municipality":{"key":"05366016","name":"Euskirchen, Stadt","type":"Stadt"},"district":{"key":"05366","name":"Euskirchen","type":"Kreis"},"federalState":{"key":"05","name":"Nordrhein-Westfalen"}},{"name":"Lotharstr.","postalCode":"53879","locality":"Euskirchen","municipality":{"key":"05366016","name":"Euskirchen, Stadt","type":"Stadt"},"district":{"key":"05366","name":"Euskirchen","type":"Kreis"},"federalState":{"key":"05","name":"Nordrhein-Westfalen"}},{"name":"Löwestr.","postalCode":"53881","locality":"Euskirchen","municipality":{"key":"05366016","name":"Euskirchen, Stadt","type":"Stadt"},"district":{"key":"05366","name":"Euskirchen","type":"Kreis"},"federalState":{"key":"05","name":"Nordrhein-Westfalen"}},{"name":"Luchsstr.","postalCode":"53881","locality":"Euskirchen","municipality":{"key":"05366016","name":"Euskirchen, Stadt","type":"Stadt"},"district":{"key":"05366","name":"Euskirchen","type":"Kreis"},"federalState":{"key":"05","name":"Nordrhein-Westfalen"}},{"name":"Ludwigstr.","postalCode":"53881","locality":"Euskirchen","municipality":{"key":"05366016","name":"Euskirchen, Stadt","type":"Stadt"},"district":{"key":"05366","name":"Euskirchen","type":"Kreis"},"federalState":{"key":"05","name":"Nordrhein-Westfalen"}},{"name":"Luisenplatz","postalCode":"53879","locality":"Euskirchen","municipality":{"key":"05366016","name":"Euskirchen, Stadt","type":"Stadt"},"district":{"key":"05366","name":"Euskirchen","type":"Kreis"},"federalState":{"key":"05","name":"Nordrhein-Westfalen"}},{"name":"Luisenstr.","postalCode":"53879","locality":"Euskirchen","municipality":{"key":"05366016","name":"Euskirchen, Stadt","type":"Stadt"},"district":{"key":"05366","name":"Euskirchen","type":"Kreis"},"federalState":{"key":"05","name":"Nordrhein-Westfalen"}},{"name":"Lütticher Str.","postalCode":"53881","locality":"Euskirchen","municipality":{"key":"05366016","name":"Euskirchen, Stadt","type":"Stadt"},"district":{"key":"05366","name":"Euskirchen","type":"Kreis"},"federalState":{"key":"05","name":"Nordrhein-Westfalen"}},{"name":"Luxemburger Str.","postalCode":"53881","locality":"Euskirchen","municipality":{"key":"05366016","name":"Euskirchen, Stadt","type":"Stadt"},"district":{"key":"05366","name":"Euskirchen","type":"Kreis"},"federalState":{"key":"05","name":"Nordrhein-Westfalen"}},{"name":"Magellanstr.","postalCode":"53881","locality":"Euskirchen","municipality":{"key":"05366016","name":"Euskirchen, Stadt","type":"Stadt"},"district":{"key":"05366","name":"Euskirchen","type":"Kreis"},"federalState":{"key":"05","name":"Nordrhein-Westfalen"}},{"name":"Mainstr.","postalCode":"53879","locality":"Euskirchen","municipality":{"key":"05366016","name":"Euskirchen, Stadt","type":"Stadt"},"district":{"key":"05366","name":"Euskirchen","type":"Kreis"},"federalState":{"key":"05","name":"Nordrhein-Westfalen"}},{"name":"Malmedyer Str.","postalCode":"53879","locality":"Euskirchen","municipality":{"key":"05366016","name":"Euskirchen, Stadt","type":"Stadt"},"district":{"key":"05366","name":"Euskirchen","type":"Kreis"},"federalState":{"key":"05","name":"Nordrhein-Westfalen"}},{"name":"Mandtgasse","postalCode":"53881","locality":"Euskirchen","municipality":{"key":"05366016","name":"Euskirchen, Stadt","type":"Stadt"},"district":{"key":"05366","name":"Euskirchen","type":"Kreis"},"federalState":{"key":"05","name":"Nordrhein-Westfalen"}},{"name":"Marathonstr.","postalCode":"53881","locality":"Euskirchen","municipality":{"key":"05366016","name":"Euskirchen, Stadt","type":"Stadt"},"district":{"key":"05366","name":"Euskirchen","type":"Kreis"},"federalState":{"key":"05","name":"Nordrhein-Westfalen"}},{"name":"Marco-Polo-Str.","postalCode":"53881","locality":"Euskirchen","municipality":{"key":"05366016","name":"Euskirchen, Stadt","type":"Stadt"},"district":{"key":"05366","name":"Euskirchen","type":"Kreis"},"federalState":{"key":"05","name":"Nordrhein-Westfalen"}},{"name":"Marderstr.","postalCode":"53881","locality":"Euskirchen","municipality":{"key":"05366016","name":"Euskirchen, Stadt","type":"Stadt"},"district":{"key":"05366","name":"Euskirchen","type":"Kreis"},"federalState":{"key":"05","name":"Nordrhein-Westfalen"}},{"name":"Margarete-Metz-Str.","postalCode":"53881","locality":"Euskirchen","municipality":{"key":"05366016","name":"Euskirchen, Stadt","type":"Stadt"},"district":{"key":"05366","name":"Euskirchen","type":"Kreis"},"federalState":{"key":"05","name":"Nordrhein-Westfalen"}},{"name":"Margaretenstr.","postalCode":"53881","locality":"Euskirchen","municipality":{"key":"05366016","name":"Euskirchen, Stadt","type":"Stadt"},"district":{"key":"05366","name":"Euskirchen","type":"Kreis"},"federalState":{"key":"05","name":"Nordrhein-Westfalen"}},{"name":"Marienburger Str.","postalCode":"53881","locality":"Euskirchen","municipality":{"key":"05366016","name":"Euskirchen, Stadt","type":"Stadt"},"district":{"key":"05366","name":"Euskirchen","type":"Kreis"},"federalState":{"key":"05","name":"Nordrhein-Westfalen"}},{"name":"Marienpfad","postalCode":"53881","locality":"Euskirchen","municipality":{"key":"05366016","name":"Euskirchen, Stadt","type":"Stadt"},"district":{"key":"05366","name":"Euskirchen","type":"Kreis"},"federalState":{"key":"05","name":"Nordrhein-Westfalen"}},{"name":"Markt Flamersheim","postalCode":"53881","locality":"Euskirchen","municipality":{"key":"05366016","name":"Euskirchen, Stadt","type":"Stadt"},"district":{"key":"05366","name":"Euskirchen","type":"Kreis"},"federalState":{"key":"05","name":"Nordrhein-Westfalen"}},{"name":"Marsstr.","postalCode":"53881","locality":"Euskirchen","municipality":{"key":"05366016","name":"Euskirchen, Stadt","type":"Stadt"},"district":{"key":"05366","name":"Euskirchen","type":"Kreis"},"federalState":{"key":"05","name":"Nordrhein-Westfalen"}},{"name":"Martinsgasse","postalCode":"53879","locality":"Euskirchen","municipality":{"key":"05366016","name":"Euskirchen, Stadt","type":"Stadt"},"district":{"key":"05366","name":"Euskirchen","type":"Kreis"},"federalState":{"key":"05","name":"Nordrhein-Westfalen"}},{"name":"Max-Born-Str.","postalCode":"53881","locality":"Euskirchen","municipality":{"key":"05366016","name":"Euskirchen, Stadt","type":"Stadt"},"district":{"key":"05366","name":"Euskirchen","type":"Kreis"},"federalState":{"key":"05","name":"Nordrhein-Westfalen"}},{"name":"Max-Ernst-Str.","postalCode":"53879","locality":"Euskirchen","municipality":{"key":"05366016","name":"Euskirchen, Stadt","type":"Stadt"},"district":{"key":"05366","name":"Euskirchen","type":"Kreis"},"federalState":{"key":"05","name":"Nordrhein-Westfalen"}},{"name":"Max-Liebermann-Str.","postalCode":"53879","locality":"Euskirchen","municipality":{"key":"05366016","name":"Euskirchen, Stadt","type":"Stadt"},"district":{"key":"05366","name":"Euskirchen","type":"Kreis"},"federalState":{"key":"05","name":"Nordrhein-Westfalen"}},{"name":"Max-Planck-Str.","postalCode":"53881","locality":"Euskirchen","municipality":{"key":"05366016","name":"Euskirchen, Stadt","type":"Stadt"},"district":{"key":"05366","name":"Euskirchen","type":"Kreis"},"federalState":{"key":"05","name":"Nordrhein-Westfalen"}},{"name":"Mecklenburger Str.","postalCode":"53879","locality":"Euskirchen","municipality":{"key":"05366016","name":"Euskirchen, Stadt","type":"Stadt"},"district":{"key":"05366","name":"Euskirchen","type":"Kreis"},"federalState":{"key":"05","name":"Nordrhein-Westfalen"}},{"name":"Medardusstr.","postalCode":"53881","locality":"Euskirchen","municipality":{"key":"05366016","name":"Euskirchen, Stadt","type":"Stadt"},"district":{"key":"05366","name":"Euskirchen","type":"Kreis"},"federalState":{"key":"05","name":"Nordrhein-Westfalen"}},{"name":"Meisenweg","postalCode":"53881","locality":"Euskirchen","municipality":{"key":"05366016","name":"Euskirchen, Stadt","type":"Stadt"},"district":{"key":"05366","name":"Euskirchen","type":"Kreis"},"federalState":{"key":"05","name":"Nordrhein-Westfalen"}},{"name":"Memelstr.","postalCode":"53879","locality":"Euskirchen","municipality":{"key":"05366016","name":"Euskirchen, Stadt","type":"Stadt"},"district":{"key":"05366","name":"Euskirchen","type":"Kreis"},"federalState":{"key":"05","name":"Nordrhein-Westfalen"}},{"name":"Merianstr.","postalCode":"53881","locality":"Euskirchen","municipality":{"key":"05366016","name":"Euskirchen, Stadt","type":"Stadt"},"district":{"key":"05366","name":"Euskirchen","type":"Kreis"},"federalState":{"key":"05","name":"Nordrhein-Westfalen"}},{"name":"Merkurstr.","postalCode":"53881","locality":"Euskirchen","municipality":{"key":"05366016","name":"Euskirchen, Stadt","type":"Stadt"},"district":{"key":"05366","name":"Euskirchen","type":"Kreis"},"federalState":{"key":"05","name":"Nordrhein-Westfalen"}},{"name":"Mersbachweg","postalCode":"53881","locality":"Euskirchen","municipality":{"key":"05366016","name":"Euskirchen, Stadt","type":"Stadt"},"district":{"key":"05366","name":"Euskirchen","type":"Kreis"},"federalState":{"key":"05","name":"Nordrhein-Westfalen"}},{"name":"Michaelstr.","postalCode":"53881","locality":"Euskirchen","municipality":{"key":"05366016","name":"Euskirchen, Stadt","type":"Stadt"},"district":{"key":"05366","name":"Euskirchen","type":"Kreis"},"federalState":{"key":"05","name":"Nordrhein-Westfalen"}},{"name":"Militscher Str.","postalCode":"53881","locality":"Euskirchen","municipality":{"key":"05366016","name":"Euskirchen, Stadt","type":"Stadt"},"district":{"key":"05366","name":"Euskirchen","type":"Kreis"},"federalState":{"key":"05","name":"Nordrhein-Westfalen"}},{"name":"Mittelstr.","postalCode":"53879","locality":"Euskirchen","municipality":{"key":"05366016","name":"Euskirchen, Stadt","type":"Stadt"},"district":{"key":"05366","name":"Euskirchen","type":"Kreis"},"federalState":{"key":"05","name":"Nordrhein-Westfalen"}},{"name":"Mönchstr.","postalCode":"53881","locality":"Euskirchen","municipality":{"key":"05366016","name":"Euskirchen, Stadt","type":"Stadt"},"district":{"key":"05366","name":"Euskirchen","type":"Kreis"},"federalState":{"key":"05","name":"Nordrhein-Westfalen"}},{"name":"Monikastr.","postalCode":"53881","locality":"Euskirchen","municipality":{"key":"05366016","name":"Euskirchen, Stadt","type":"Stadt"},"district":{"key":"05366","name":"Euskirchen","type":"Kreis"},"federalState":{"key":"05","name":"Nordrhein-Westfalen"}},{"name":"Monschauer Str.","postalCode":"53879","locality":"Euskirchen","municipality":{"key":"05366016","name":"Euskirchen, Stadt","type":"Stadt"},"district":{"key":"05366","name":"Euskirchen","type":"Kreis"},"federalState":{"key":"05","name":"Nordrhein-Westfalen"}},{"name":"Mörikestr.","postalCode":"53879","locality":"Euskirchen","municipality":{"key":"05366016","name":"Euskirchen, Stadt","type":"Stadt"},"district":{"key":"05366","name":"Euskirchen","type":"Kreis"},"federalState":{"key":"05","name":"Nordrhein-Westfalen"}},{"name":"Moselstr.","postalCode":"53879","locality":"Euskirchen","municipality":{"key":"05366016","name":"Euskirchen, Stadt","type":"Stadt"},"district":{"key":"05366","name":"Euskirchen","type":"Kreis"},"federalState":{"key":"05","name":"Nordrhein-Westfalen"}},{"name":"Möwenstr.","postalCode":"53881","locality":"Euskirchen","municipality":{"key":"05366016","name":"Euskirchen, Stadt","type":"Stadt"},"district":{"key":"05366","name":"Euskirchen","type":"Kreis"},"federalState":{"key":"05","name":"Nordrhein-Westfalen"}},{"name":"Mozartstr.","postalCode":"53881","locality":"Euskirchen","municipality":{"key":"05366016","name":"Euskirchen, Stadt","type":"Stadt"},"district":{"key":"05366","name":"Euskirchen","type":"Kreis"},"federalState":{"key":"05","name":"Nordrhein-Westfalen"}},{"name":"Mühlenstr.","postalCode":"53879","locality":"Euskirchen","municipality":{"key":"05366016","name":"Euskirchen, Stadt","type":"Stadt"},"district":{"key":"05366","name":"Euskirchen","type":"Kreis"},"federalState":{"key":"05","name":"Nordrhein-Westfalen"}},{"name":"Münchhausenstr.","postalCode":"53881","locality":"Euskirchen","municipality":{"key":"05366016","name":"Euskirchen, Stadt","type":"Stadt"},"district":{"key":"05366","name":"Euskirchen","type":"Kreis"},"federalState":{"key":"05","name":"Nordrhein-Westfalen"}},{"name":"Münsterbergstr.","postalCode":"53881","locality":"Euskirchen","municipality":{"key":"05366016","name":"Euskirchen, Stadt","type":"Stadt"},"district":{"key":"05366","name":"Euskirchen","type":"Kreis"},"federalState":{"key":"05","name":"Nordrhein-Westfalen"}},{"name":"Münstereifeler Str.","postalCode":"53879","locality":"Euskirchen","municipality":{"key":"05366016","name":"Euskirchen, Stadt","type":"Stadt"},"district":{"key":"05366","name":"Euskirchen","type":"Kreis"},"federalState":{"key":"05","name":"Nordrhein-Westfalen"}},{"name":"Münstereifeler Str.","postalCode":"53881","locality":"Euskirchen","municipality":{"key":"05366016","name":"Euskirchen, Stadt","type":"Stadt"},"district":{"key":"05366","name":"Euskirchen","type":"Kreis"},"federalState":{"key":"05","name":"Nordrhein-Westfalen"}},{"name":"Münsterstr.","postalCode":"53881","locality":"Euskirchen","municipality":{"key":"05366016","name":"Euskirchen, Stadt","type":"Stadt"},"district":{"key":"05366","name":"Euskirchen","type":"Kreis"},"federalState":{"key":"05","name":"Nordrhein-Westfalen"}},{"name":"Nachtigallenweg","postalCode":"53881","locality":"Euskirchen","municipality":{"key":"05366016","name":"Euskirchen, Stadt","type":"Stadt"},"district":{"key":"05366","name":"Euskirchen","type":"Kreis"},"federalState":{"key":"05","name":"Nordrhein-Westfalen"}},{"name":"Nahestr.","postalCode":"53879","locality":"Euskirchen","municipality":{"key":"05366016","name":"Euskirchen, Stadt","type":"Stadt"},"district":{"key":"05366","name":"Euskirchen","type":"Kreis"},"federalState":{"key":"05","name":"Nordrhein-Westfalen"}},{"name":"Namslauer Str.","postalCode":"53879","locality":"Euskirchen","municipality":{"key":"05366016","name":"Euskirchen, Stadt","type":"Stadt"},"district":{"key":"05366","name":"Euskirchen","type":"Kreis"},"federalState":{"key":"05","name":"Nordrhein-Westfalen"}},{"name":"Nansenstr.","postalCode":"53881","locality":"Euskirchen","municipality":{"key":"05366016","name":"Euskirchen, Stadt","type":"Stadt"},"district":{"key":"05366","name":"Euskirchen","type":"Kreis"},"federalState":{"key":"05","name":"Nordrhein-Westfalen"}},{"name":"Narzissenweg","postalCode":"53881","locality":"Euskirchen","municipality":{"key":"05366016","name":"Euskirchen, Stadt","type":"Stadt"},"district":{"key":"05366","name":"Euskirchen","type":"Kreis"},"federalState":{"key":"05","name":"Nordrhein-Westfalen"}},{"name":"Neckarstr.","postalCode":"53879","locality":"Euskirchen","municipality":{"key":"05366016","name":"Euskirchen, Stadt","type":"Stadt"},"district":{"key":"05366","name":"Euskirchen","type":"Kreis"},"federalState":{"key":"05","name":"Nordrhein-Westfalen"}},{"name":"Neißestr.","postalCode":"53879","locality":"Euskirchen","municipality":{"key":"05366016","name":"Euskirchen, Stadt","type":"Stadt"},"district":{"key":"05366","name":"Euskirchen","type":"Kreis"},"federalState":{"key":"05","name":"Nordrhein-Westfalen"}},{"name":"Nelkenstr.","postalCode":"53881","locality":"Euskirchen","municipality":{"key":"05366016","name":"Euskirchen, Stadt","type":"Stadt"},"district":{"key":"05366","name":"Euskirchen","type":"Kreis"},"federalState":{"key":"05","name":"Nordrhein-Westfalen"}},{"name":"Neptunstr.","postalCode":"53881","locality":"Euskirchen","municipality":{"key":"05366016","name":"Euskirchen, Stadt","type":"Stadt"},"district":{"key":"05366","name":"Euskirchen","type":"Kreis"},"federalState":{"key":"05","name":"Nordrhein-Westfalen"}},{"name":"Neue Allee","postalCode":"53881","locality":"Euskirchen","municipality":{"key":"05366016","name":"Euskirchen, Stadt","type":"Stadt"},"district":{"key":"05366","name":"Euskirchen","type":"Kreis"},"federalState":{"key":"05","name":"Nordrhein-Westfalen"}},{"name":"Neuer Pfad","postalCode":"53881","locality":"Euskirchen","municipality":{"key":"05366016","name":"Euskirchen, Stadt","type":"Stadt"},"district":{"key":"05366","name":"Euskirchen","type":"Kreis"},"federalState":{"key":"05","name":"Nordrhein-Westfalen"}},{"name":"Neutorwall","postalCode":"53879","locality":"Euskirchen","municipality":{"key":"05366016","name":"Euskirchen, Stadt","type":"Stadt"},"district":{"key":"05366","name":"Euskirchen","type":"Kreis"},"federalState":{"key":"05","name":"Nordrhein-Westfalen"}},{"name":"Nideggener Str.","postalCode":"53881","locality":"Euskirchen","municipality":{"key":"05366016","name":"Euskirchen, Stadt","type":"Stadt"},"district":{"key":"05366","name":"Euskirchen","type":"Kreis"},"federalState":{"key":"05","name":"Nordrhein-Westfalen"}},{"name":"Niederkastenholzer Str.","postalCode":"53881","locality":"Euskirchen","municipality":{"key":"05366016","name":"Euskirchen, Stadt","type":"Stadt"},"district":{"key":"05366","name":"Euskirchen","type":"Kreis"},"federalState":{"key":"05","name":"Nordrhein-Westfalen"}},{"name":"Niels-Bohr-Str.","postalCode":"53881","locality":"Euskirchen","municipality":{"key":"05366016","name":"Euskirchen, Stadt","type":"Stadt"},"district":{"key":"05366","name":"Euskirchen","type":"Kreis"},"federalState":{"key":"05","name":"Nordrhein-Westfalen"}},{"name":"Nikola-Reinartz-Str.","postalCode":"53881","locality":"Euskirchen","municipality":{"key":"05366016","name":"Euskirchen, Stadt","type":"Stadt"},"district":{"key":"05366","name":"Euskirchen","type":"Kreis"},"federalState":{"key":"05","name":"Nordrhein-Westfalen"}},{"name":"Nikolaus-Groß-Platz","postalCode":"53879","locality":"Euskirchen","municipality":{"key":"05366016","name":"Euskirchen, Stadt","type":"Stadt"},"district":{"key":"05366","name":"Euskirchen","type":"Kreis"},"federalState":{"key":"05","name":"Nordrhein-Westfalen"}},{"name":"Nikolaus-Otto-Str.","postalCode":"53879","locality":"Euskirchen","municipality":{"key":"05366016","name":"Euskirchen, Stadt","type":"Stadt"},"district":{"key":"05366","name":"Euskirchen","type":"Kreis"},"federalState":{"key":"05","name":"Nordrhein-Westfalen"}},{"name":"Nikolausstr.","postalCode":"53881","locality":"Euskirchen","municipality":{"key":"05366016","name":"Euskirchen, Stadt","type":"Stadt"},"district":{"key":"05366","name":"Euskirchen","type":"Kreis"},"federalState":{"key":"05","name":"Nordrhein-Westfalen"}},{"name":"Nobisstr.","postalCode":"53881","locality":"Euskirchen","municipality":{"key":"05366016","name":"Euskirchen, Stadt","type":"Stadt"},"district":{"key":"05366","name":"Euskirchen","type":"Kreis"},"federalState":{"key":"05","name":"Nordrhein-Westfalen"}},{"name":"Nordstr.","postalCode":"53879","locality":"Euskirchen","municipality":{"key":"05366016","name":"Euskirchen, Stadt","type":"Stadt"},"district":{"key":"05366","name":"Euskirchen","type":"Kreis"},"federalState":{"key":"05","name":"Nordrhein-Westfalen"}},{"name":"Ober den Erken","postalCode":"53881","locality":"Euskirchen","municipality":{"key":"05366016","name":"Euskirchen, Stadt","type":"Stadt"},"district":{"key":"05366","name":"Euskirchen","type":"Kreis"},"federalState":{"key":"05","name":"Nordrhein-Westfalen"}},{"name":"Obere Burg","postalCode":"53881","locality":"Euskirchen","municipality":{"key":"05366016","name":"Euskirchen, Stadt","type":"Stadt"},"district":{"key":"05366","name":"Euskirchen","type":"Kreis"},"federalState":{"key":"05","name":"Nordrhein-Westfalen"}},{"name":"Oberer Schulhof","postalCode":"53879","locality":"Euskirchen","municipality":{"key":"05366016","name":"Euskirchen, Stadt","type":"Stadt"},"district":{"key":"05366","name":"Euskirchen","type":"Kreis"},"federalState":{"key":"05","name":"Nordrhein-Westfalen"}},{"name":"Oberwichterichstr.","postalCode":"53881","locality":"Euskirchen","municipality":{"key":"05366016","name":"Euskirchen, Stadt","type":"Stadt"},"district":{"key":"05366","name":"Euskirchen","type":"Kreis"},"federalState":{"key":"05","name":"Nordrhein-Westfalen"}},{"name":"Odendorfer Weg","postalCode":"53881","locality":"Euskirchen","municipality":{"key":"05366016","name":"Euskirchen, Stadt","type":"Stadt"},"district":{"key":"05366","name":"Euskirchen","type":"Kreis"},"federalState":{"key":"05","name":"Nordrhein-Westfalen"}},{"name":"Oderstr.","postalCode":"53879","locality":"Euskirchen","municipality":{"key":"05366016","name":"Euskirchen, Stadt","type":"Stadt"},"district":{"key":"05366","name":"Euskirchen","type":"Kreis"},"federalState":{"key":"05","name":"Nordrhein-Westfalen"}},{"name":"Offenbachstr.","postalCode":"53881","locality":"Euskirchen","municipality":{"key":"05366016","name":"Euskirchen, Stadt","type":"Stadt"},"district":{"key":"05366","name":"Euskirchen","type":"Kreis"},"federalState":{"key":"05","name":"Nordrhein-Westfalen"}},{"name":"Ohmstr.","postalCode":"53881","locality":"Euskirchen","municipality":{"key":"05366016","name":"Euskirchen, Stadt","type":"Stadt"},"district":{"key":"05366","name":"Euskirchen","type":"Kreis"},"federalState":{"key":"05","name":"Nordrhein-Westfalen"}},{"name":"Olympiastr.","postalCode":"53881","locality":"Euskirchen","municipality":{"key":"05366016","name":"Euskirchen, Stadt","type":"Stadt"},"district":{"key":"05366","name":"Euskirchen","type":"Kreis"},"federalState":{"key":"05","name":"Nordrhein-Westfalen"}},{"name":"Orionstr.","postalCode":"53881","locality":"Euskirchen","municipality":{"key":"05366016","name":"Euskirchen, Stadt","type":"Stadt"},"district":{"key":"05366","name":"Euskirchen","type":"Kreis"},"federalState":{"key":"05","name":"Nordrhein-Westfalen"}},{"name":"Osloer Str.","postalCode":"53881","locality":"Euskirchen","municipality":{"key":"05366016","name":"Euskirchen, Stadt","type":"Stadt"},"district":{"key":"05366","name":"Euskirchen","type":"Kreis"},"federalState":{"key":"05","name":"Nordrhein-Westfalen"}},{"name":"Oststr.","postalCode":"53879","locality":"Euskirchen","municipality":{"key":"05366016","name":"Euskirchen, Stadt","type":"Stadt"},"district":{"key":"05366","name":"Euskirchen","type":"Kreis"},"federalState":{"key":"05","name":"Nordrhein-Westfalen"}},{"name":"Otto-Hahn-Str.","postalCode":"53881","locality":"Euskirchen","municipality":{"key":"05366016","name":"Euskirchen, Stadt","type":"Stadt"},"district":{"key":"05366","name":"Euskirchen","type":"Kreis"},"federalState":{"key":"05","name":"Nordrhein-Westfalen"}},{"name":"Otto-Lilienthal-Str.","postalCode":"53879","locality":"Euskirchen","municipality":{"key":"05366016","name":"Euskirchen, Stadt","type":"Stadt"},"district":{"key":"05366","name":"Euskirchen","type":"Kreis"},"federalState":{"key":"05","name":"Nordrhein-Westfalen"}},{"name":"Palmersheimer Str.","postalCode":"53881","locality":"Euskirchen","municipality":{"key":"05366016","name":"Euskirchen, Stadt","type":"Stadt"},"district":{"key":"05366","name":"Euskirchen","type":"Kreis"},"federalState":{"key":"05","name":"Nordrhein-Westfalen"}},{"name":"Pappelallee","postalCode":"53879","locality":"Euskirchen","municipality":{"key":"05366016","name":"Euskirchen, Stadt","type":"Stadt"},"district":{"key":"05366","name":"Euskirchen","type":"Kreis"},"federalState":{"key":"05","name":"Nordrhein-Westfalen"}},{"name":"Pastoratsstr.","postalCode":"53881","locality":"Euskirchen","municipality":{"key":"05366016","name":"Euskirchen, Stadt","type":"Stadt"},"district":{"key":"05366","name":"Euskirchen","type":"Kreis"},"federalState":{"key":"05","name":"Nordrhein-Westfalen"}},{"name":"Pastor-Klingler-Weg","postalCode":"53881","locality":"Euskirchen","municipality":{"key":"05366016","name":"Euskirchen, Stadt","type":"Stadt"},"district":{"key":"05366","name":"Euskirchen","type":"Kreis"},"federalState":{"key":"05","name":"Nordrhein-Westfalen"}},{"name":"Pater-Trompeter-Str.","postalCode":"53881","locality":"Euskirchen","municipality":{"key":"05366016","name":"Euskirchen, Stadt","type":"Stadt"},"district":{"key":"05366","name":"Euskirchen","type":"Kreis"},"federalState":{"key":"05","name":"Nordrhein-Westfalen"}},{"name":"Paula-Modersohn-Becker-Str.","postalCode":"53879","locality":"Euskirchen","municipality":{"key":"05366016","name":"Euskirchen, Stadt","type":"Stadt"},"district":{"key":"05366","name":"Euskirchen","type":"Kreis"},"federalState":{"key":"05","name":"Nordrhein-Westfalen"}},{"name":"Paul-Keller-Str.","postalCode":"53879","locality":"Euskirchen","municipality":{"key":"05366016","name":"Euskirchen, Stadt","type":"Stadt"},"district":{"key":"05366","name":"Euskirchen","type":"Kreis"},"federalState":{"key":"05","name":"Nordrhein-Westfalen"}},{"name":"Paul-Klee-Str.","postalCode":"53879","locality":"Euskirchen","municipality":{"key":"05366016","name":"Euskirchen, Stadt","type":"Stadt"},"district":{"key":"05366","name":"Euskirchen","type":"Kreis"},"federalState":{"key":"05","name":"Nordrhein-Westfalen"}},{"name":"Paulstr.","postalCode":"53881","locality":"Euskirchen","municipality":{"key":"05366016","name":"Euskirchen, Stadt","type":"Stadt"},"district":{"key":"05366","name":"Euskirchen","type":"Kreis"},"federalState":{"key":"05","name":"Nordrhein-Westfalen"}},{"name":"Paul-Tillmann-Str.","postalCode":"53881","locality":"Euskirchen","municipality":{"key":"05366016","name":"Euskirchen, Stadt","type":"Stadt"},"district":{"key":"05366","name":"Euskirchen","type":"Kreis"},"federalState":{"key":"05","name":"Nordrhein-Westfalen"}},{"name":"P.-C.-Ettighoffer-Str.","postalCode":"53881","locality":"Euskirchen","municipality":{"key":"05366016","name":"Euskirchen, Stadt","type":"Stadt"},"district":{"key":"05366","name":"Euskirchen","type":"Kreis"},"federalState":{"key":"05","name":"Nordrhein-Westfalen"}},{"name":"Pelzergasse","postalCode":"53881","locality":"Euskirchen","municipality":{"key":"05366016","name":"Euskirchen, Stadt","type":"Stadt"},"district":{"key":"05366","name":"Euskirchen","type":"Kreis"},"federalState":{"key":"05","name":"Nordrhein-Westfalen"}},{"name":"Peter-Falkenstein-Str.","postalCode":"53881","locality":"Euskirchen","municipality":{"key":"05366016","name":"Euskirchen, Stadt","type":"Stadt"},"district":{"key":"05366","name":"Euskirchen","type":"Kreis"},"federalState":{"key":"05","name":"Nordrhein-Westfalen"}},{"name":"Peter-Josef-Wohlmeiner-Str.","postalCode":"53881","locality":"Euskirchen","municipality":{"key":"05366016","name":"Euskirchen, Stadt","type":"Stadt"},"district":{"key":"05366","name":"Euskirchen","type":"Kreis"},"federalState":{"key":"05","name":"Nordrhein-Westfalen"}},{"name":"Peter-Paul-Schmitz-Str.","postalCode":"53881","locality":"Euskirchen","municipality":{"key":"05366016","name":"Euskirchen, Stadt","type":"Stadt"},"district":{"key":"05366","name":"Euskirchen","type":"Kreis"},"federalState":{"key":"05","name":"Nordrhein-Westfalen"}},{"name":"Peter-Simons-Str.","postalCode":"53879","locality":"Euskirchen","municipality":{"key":"05366016","name":"Euskirchen, Stadt","type":"Stadt"},"district":{"key":"05366","name":"Euskirchen","type":"Kreis"},"federalState":{"key":"05","name":"Nordrhein-Westfalen"}},{"name":"Peterstr.","postalCode":"53881","locality":"Euskirchen","municipality":{"key":"05366016","name":"Euskirchen, Stadt","type":"Stadt"},"district":{"key":"05366","name":"Euskirchen","type":"Kreis"},"federalState":{"key":"05","name":"Nordrhein-Westfalen"}},{"name":"Pfarrer-Doktor-Kurthen-Str.","postalCode":"53881","locality":"Euskirchen","municipality":{"key":"05366016","name":"Euskirchen, Stadt","type":"Stadt"},"district":{"key":"05366","name":"Euskirchen","type":"Kreis"},"federalState":{"key":"05","name":"Nordrhein-Westfalen"}},{"name":"Pfarrer-Frickenschmidt-Weg","postalCode":"53881","locality":"Euskirchen","municipality":{"key":"05366016","name":"Euskirchen, Stadt","type":"Stadt"},"district":{"key":"05366","name":"Euskirchen","type":"Kreis"},"federalState":{"key":"05","name":"Nordrhein-Westfalen"}},{"name":"Pfarrer-Leuchter-Str.","postalCode":"53881","locality":"Euskirchen","municipality":{"key":"05366016","name":"Euskirchen, Stadt","type":"Stadt"},"district":{"key":"05366","name":"Euskirchen","type":"Kreis"},"federalState":{"key":"05","name":"Nordrhein-Westfalen"}},{"name":"Pfarrer-Müller-Str.","postalCode":"53881","locality":"Euskirchen","municipality":{"key":"05366016","name":"Euskirchen, Stadt","type":"Stadt"},"district":{"key":"05366","name":"Euskirchen","type":"Kreis"},"federalState":{"key":"05","name":"Nordrhein-Westfalen"}},{"name":"Pfarrer-Scheeren-Str.","postalCode":"53881","locality":"Euskirchen","municipality":{"key":"05366016","name":"Euskirchen, Stadt","type":"Stadt"},"district":{"key":"05366","name":"Euskirchen","type":"Kreis"},"federalState":{"key":"05","name":"Nordrhein-Westfalen"}},{"name":"Pfarrer-Schelauske-Weg","postalCode":"53879","locality":"Euskirchen","municipality":{"key":"05366016","name":"Euskirchen, Stadt","type":"Stadt"},"district":{"key":"05366","name":"Euskirchen","type":"Kreis"},"federalState":{"key":"05","name":"Nordrhein-Westfalen"}},{"name":"Pfarrer-Strakerjahn-Weg","postalCode":"53881","locality":"Euskirchen","municipality":{"key":"05366016","name":"Euskirchen, Stadt","type":"Stadt"},"district":{"key":"05366","name":"Euskirchen","type":"Kreis"},"federalState":{"key":"05","name":"Nordrhein-Westfalen"}},{"name":"Pfauenstr.","postalCode":"53881","locality":"Euskirchen","municipality":{"key":"05366016","name":"Euskirchen, Stadt","type":"Stadt"},"district":{"key":"05366","name":"Euskirchen","type":"Kreis"},"federalState":{"key":"05","name":"Nordrhein-Westfalen"}},{"name":"Pferdefriedhofsgasse","postalCode":"53881","locality":"Euskirchen","municipality":{"key":"05366016","name":"Euskirchen, Stadt","type":"Stadt"},"district":{"key":"05366","name":"Euskirchen","type":"Kreis"},"federalState":{"key":"05","name":"Nordrhein-Westfalen"}},{"name":"Philipp-Reis-Str.","postalCode":"53879","locality":"Euskirchen","municipality":{"key":"05366016","name":"Euskirchen, Stadt","type":"Stadt"},"district":{"key":"05366","name":"Euskirchen","type":"Kreis"},"federalState":{"key":"05","name":"Nordrhein-Westfalen"}},{"name":"Phönixstr.","postalCode":"53881","locality":"Euskirchen","municipality":{"key":"05366016","name":"Euskirchen, Stadt","type":"Stadt"},"district":{"key":"05366","name":"Euskirchen","type":"Kreis"},"federalState":{"key":"05","name":"Nordrhein-Westfalen"}},{"name":"Pielsgasse","postalCode":"53879","locality":"Euskirchen","municipality":{"key":"05366016","name":"Euskirchen, Stadt","type":"Stadt"},"district":{"key":"05366","name":"Euskirchen","type":"Kreis"},"federalState":{"key":"05","name":"Nordrhein-Westfalen"}},{"name":"Pierre-De-Coubertin-Str.","postalCode":"53881","locality":"Euskirchen","municipality":{"key":"05366016","name":"Euskirchen, Stadt","type":"Stadt"},"district":{"key":"05366","name":"Euskirchen","type":"Kreis"},"federalState":{"key":"05","name":"Nordrhein-Westfalen"}},{"name":"Postweg","postalCode":"53881","locality":"Euskirchen","municipality":{"key":"05366016","name":"Euskirchen, Stadt","type":"Stadt"},"district":{"key":"05366","name":"Euskirchen","type":"Kreis"},"federalState":{"key":"05","name":"Nordrhein-Westfalen"}},{"name":"Pützbergring","postalCode":"53879","locality":"Euskirchen","municipality":{"key":"05366016","name":"Euskirchen, Stadt","type":"Stadt"},"district":{"key":"05366","name":"Euskirchen","type":"Kreis"},"federalState":{"key":"05","name":"Nordrhein-Westfalen"}},{"name":"Pützgasse","postalCode":"53881","locality":"Euskirchen","municipality":{"key":"05366016","name":"Euskirchen, Stadt","type":"Stadt"},"district":{"key":"05366","name":"Euskirchen","type":"Kreis"},"federalState":{"key":"05","name":"Nordrhein-Westfalen"}},{"name":"Quarzstr.","postalCode":"53881","locality":"Euskirchen","municipality":{"key":"05366016","name":"Euskirchen, Stadt","type":"Stadt"},"district":{"key":"05366","name":"Euskirchen","type":"Kreis"},"federalState":{"key":"05","name":"Nordrhein-Westfalen"}},{"name":"Rabenweg","postalCode":"53881","locality":"Euskirchen","municipality":{"key":"05366016","name":"Euskirchen, Stadt","type":"Stadt"},"district":{"key":"05366","name":"Euskirchen","type":"Kreis"},"federalState":{"key":"05","name":"Nordrhein-Westfalen"}},{"name":"Raiffeisenplatz","postalCode":"53881","locality":"Euskirchen","municipality":{"key":"05366016","name":"Euskirchen, Stadt","type":"Stadt"},"district":{"key":"05366","name":"Euskirchen","type":"Kreis"},"federalState":{"key":"05","name":"Nordrhein-Westfalen"}},{"name":"Ratsheimer Hof","postalCode":"53879","locality":"Euskirchen","municipality":{"key":"05366016","name":"Euskirchen, Stadt","type":"Stadt"},"district":{"key":"05366","name":"Euskirchen","type":"Kreis"},"federalState":{"key":"05","name":"Nordrhein-Westfalen"}},{"name":"Rauchschwalbenweg","postalCode":"53881","locality":"Euskirchen","municipality":{"key":"05366016","name":"Euskirchen, Stadt","type":"Stadt"},"district":{"key":"05366","name":"Euskirchen","type":"Kreis"},"federalState":{"key":"05","name":"Nordrhein-Westfalen"}},{"name":"Rebhuhnweg","postalCode":"53881","locality":"Euskirchen","municipality":{"key":"05366016","name":"Euskirchen, Stadt","type":"Stadt"},"district":{"key":"05366","name":"Euskirchen","type":"Kreis"},"federalState":{"key":"05","name":"Nordrhein-Westfalen"}},{"name":"Regenpfeiferweg","postalCode":"53881","locality":"Euskirchen","municipality":{"key":"05366016","name":"Euskirchen, Stadt","type":"Stadt"},"district":{"key":"05366","name":"Euskirchen","type":"Kreis"},"federalState":{"key":"05","name":"Nordrhein-Westfalen"}},{"name":"Rehstr.","postalCode":"53881","locality":"Euskirchen","municipality":{"key":"05366016","name":"Euskirchen, Stadt","type":"Stadt"},"district":{"key":"05366","name":"Euskirchen","type":"Kreis"},"federalState":{"key":"05","name":"Nordrhein-Westfalen"}},{"name":"Reichsstr.","postalCode":"53881","locality":"Euskirchen","municipality":{"key":"05366016","name":"Euskirchen, Stadt","type":"Stadt"},"district":{"key":"05366","name":"Euskirchen","type":"Kreis"},"federalState":{"key":"05","name":"Nordrhein-Westfalen"}},{"name":"Reinaldstr.","postalCode":"53879","locality":"Euskirchen","municipality":{"key":"05366016","name":"Euskirchen, Stadt","type":"Stadt"},"district":{"key":"05366","name":"Euskirchen","type":"Kreis"},"federalState":{"key":"05","name":"Nordrhein-Westfalen"}},{"name":"Rhederstr.","postalCode":"53881","locality":"Euskirchen","municipality":{"key":"05366016","name":"Euskirchen, Stadt","type":"Stadt"},"district":{"key":"05366","name":"Euskirchen","type":"Kreis"},"federalState":{"key":"05","name":"Nordrhein-Westfalen"}},{"name":"Rheinbacher Weg","postalCode":"53881","locality":"Euskirchen","municipality":{"key":"05366016","name":"Euskirchen, Stadt","type":"Stadt"},"district":{"key":"05366","name":"Euskirchen","type":"Kreis"},"federalState":{"key":"05","name":"Nordrhein-Westfalen"}},{"name":"Rheinstr.","postalCode":"53879","locality":"Euskirchen","municipality":{"key":"05366016","name":"Euskirchen, Stadt","type":"Stadt"},"district":{"key":"05366","name":"Euskirchen","type":"Kreis"},"federalState":{"key":"05","name":"Nordrhein-Westfalen"}},{"name":"Rheinstr.","postalCode":"53881","locality":"Euskirchen","municipality":{"key":"05366016","name":"Euskirchen, Stadt","type":"Stadt"},"district":{"key":"05366","name":"Euskirchen","type":"Kreis"},"federalState":{"key":"05","name":"Nordrhein-Westfalen"}},{"name":"Rigaer Str.","postalCode":"53881","locality":"Euskirchen","municipality":{"key":"05366016","name":"Euskirchen, Stadt","type":"Stadt"},"district":{"key":"05366","name":"Euskirchen","type":"Kreis"},"federalState":{"key":"05","name":"Nordrhein-Westfalen"}},{"name":"Ringelstr.","postalCode":"53881","locality":"Euskirchen","municipality":{"key":"05366016","name":"Euskirchen, Stadt","type":"Stadt"},"district":{"key":"05366","name":"Euskirchen","type":"Kreis"},"federalState":{"key":"05","name":"Nordrhein-Westfalen"}},{"name":"Ringsheimer Allee","postalCode":"53881","locality":"Euskirchen","municipality":{"key":"05366016","name":"Euskirchen, Stadt","type":"Stadt"},"district":{"key":"05366","name":"Euskirchen","type":"Kreis"},"federalState":{"key":"05","name":"Nordrhein-Westfalen"}},{"name":"Ringsheimer Weg","postalCode":"53881","locality":"Euskirchen","municipality":{"key":"05366016","name":"Euskirchen, Stadt","type":"Stadt"},"district":{"key":"05366","name":"Euskirchen","type":"Kreis"},"federalState":{"key":"05","name":"Nordrhein-Westfalen"}},{"name":"Ringstr.","postalCode":"53881","locality":"Euskirchen","municipality":{"key":"05366016","name":"Euskirchen, Stadt","type":"Stadt"},"district":{"key":"05366","name":"Euskirchen","type":"Kreis"},"federalState":{"key":"05","name":"Nordrhein-Westfalen"}},{"name":"Rischgasse","postalCode":"53881","locality":"Euskirchen","municipality":{"key":"05366016","name":"Euskirchen, Stadt","type":"Stadt"},"district":{"key":"05366","name":"Euskirchen","type":"Kreis"},"federalState":{"key":"05","name":"Nordrhein-Westfalen"}},{"name":"Robert-Koch-Str.","postalCode":"53879","locality":"Euskirchen","municipality":{"key":"05366016","name":"Euskirchen, Stadt","type":"Stadt"},"district":{"key":"05366","name":"Euskirchen","type":"Kreis"},"federalState":{"key":"05","name":"Nordrhein-Westfalen"}},{"name":"Robert-Stolz-Str.","postalCode":"53881","locality":"Euskirchen","municipality":{"key":"05366016","name":"Euskirchen, Stadt","type":"Stadt"},"district":{"key":"05366","name":"Euskirchen","type":"Kreis"},"federalState":{"key":"05","name":"Nordrhein-Westfalen"}},{"name":"Rodderbach","postalCode":"53881","locality":"Euskirchen","municipality":{"key":"05366016","name":"Euskirchen, Stadt","type":"Stadt"},"district":{"key":"05366","name":"Euskirchen","type":"Kreis"},"federalState":{"key":"05","name":"Nordrhein-Westfalen"}},{"name":"Roggenstr.","postalCode":"53881","locality":"Euskirchen","municipality":{"key":"05366016","name":"Euskirchen, Stadt","type":"Stadt"},"district":{"key":"05366","name":"Euskirchen","type":"Kreis"},"federalState":{"key":"05","name":"Nordrhein-Westfalen"}},{"name":"Rohrammerweg","postalCode":"53881","locality":"Euskirchen","municipality":{"key":"05366016","name":"Euskirchen, Stadt","type":"Stadt"},"district":{"key":"05366","name":"Euskirchen","type":"Kreis"},"federalState":{"key":"05","name":"Nordrhein-Westfalen"}},{"name":"Roitzheimer Str.","postalCode":"53879","locality":"Euskirchen","municipality":{"key":"05366016","name":"Euskirchen, Stadt","type":"Stadt"},"district":{"key":"05366","name":"Euskirchen","type":"Kreis"},"federalState":{"key":"05","name":"Nordrhein-Westfalen"}},{"name":"Roitzheimer Str.","postalCode":"53881","locality":"Euskirchen","municipality":{"key":"05366016","name":"Euskirchen, Stadt","type":"Stadt"},"district":{"key":"05366","name":"Euskirchen","type":"Kreis"},"federalState":{"key":"05","name":"Nordrhein-Westfalen"}},{"name":"Römerkastellstr.","postalCode":"53881","locality":"Euskirchen","municipality":{"key":"05366016","name":"Euskirchen, Stadt","type":"Stadt"},"district":{"key":"05366","name":"Euskirchen","type":"Kreis"},"federalState":{"key":"05","name":"Nordrhein-Westfalen"}},{"name":"Röntgenstr.","postalCode":"53879","locality":"Euskirchen","municipality":{"key":"05366016","name":"Euskirchen, Stadt","type":"Stadt"},"district":{"key":"05366","name":"Euskirchen","type":"Kreis"},"federalState":{"key":"05","name":"Nordrhein-Westfalen"}},{"name":"Rosengarten","postalCode":"53881","locality":"Euskirchen","municipality":{"key":"05366016","name":"Euskirchen, Stadt","type":"Stadt"},"district":{"key":"05366","name":"Euskirchen","type":"Kreis"},"federalState":{"key":"05","name":"Nordrhein-Westfalen"}},{"name":"Rosenpfad","postalCode":"53881","locality":"Euskirchen","municipality":{"key":"05366016","name":"Euskirchen, Stadt","type":"Stadt"},"district":{"key":"05366","name":"Euskirchen","type":"Kreis"},"federalState":{"key":"05","name":"Nordrhein-Westfalen"}},{"name":"Rotdornstr.","postalCode":"53881","locality":"Euskirchen","municipality":{"key":"05366016","name":"Euskirchen, Stadt","type":"Stadt"},"district":{"key":"05366","name":"Euskirchen","type":"Kreis"},"federalState":{"key":"05","name":"Nordrhein-Westfalen"}},{"name":"Rotkehlchenweg","postalCode":"53881","locality":"Euskirchen","municipality":{"key":"05366016","name":"Euskirchen, Stadt","type":"Stadt"},"district":{"key":"05366","name":"Euskirchen","type":"Kreis"},"federalState":{"key":"05","name":"Nordrhein-Westfalen"}},{"name":"Rüdesheimer Ring","postalCode":"53879","locality":"Euskirchen","municipality":{"key":"05366016","name":"Euskirchen, Stadt","type":"Stadt"},"district":{"key":"05366","name":"Euskirchen","type":"Kreis"},"federalState":{"key":"05","name":"Nordrhein-Westfalen"}},{"name":"Rüdesheimer Torwall","postalCode":"53879","locality":"Euskirchen","municipality":{"key":"05366016","name":"Euskirchen, Stadt","type":"Stadt"},"district":{"key":"05366","name":"Euskirchen","type":"Kreis"},"federalState":{"key":"05","name":"Nordrhein-Westfalen"}},{"name":"Rudolf-Diesel-Str.","postalCode":"53879","locality":"Euskirchen","municipality":{"key":"05366016","name":"Euskirchen, Stadt","type":"Stadt"},"district":{"key":"05366","name":"Euskirchen","type":"Kreis"},"federalState":{"key":"05","name":"Nordrhein-Westfalen"}},{"name":"Rührigstr.","postalCode":"53881","locality":"Euskirchen","municipality":{"key":"05366016","name":"Euskirchen, Stadt","type":"Stadt"},"district":{"key":"05366","name":"Euskirchen","type":"Kreis"},"federalState":{"key":"05","name":"Nordrhein-Westfalen"}},{"name":"Ruhrpark","postalCode":"53879","locality":"Euskirchen","municipality":{"key":"05366016","name":"Euskirchen, Stadt","type":"Stadt"},"district":{"key":"05366","name":"Euskirchen","type":"Kreis"},"federalState":{"key":"05","name":"Nordrhein-Westfalen"}},{"name":"Saalstr.","postalCode":"53881","locality":"Euskirchen","municipality":{"key":"05366016","name":"Euskirchen, Stadt","type":"Stadt"},"district":{"key":"05366","name":"Euskirchen","type":"Kreis"},"federalState":{"key":"05","name":"Nordrhein-Westfalen"}},{"name":"Saarstr.","postalCode":"53879","locality":"Euskirchen","municipality":{"key":"05366016","name":"Euskirchen, Stadt","type":"Stadt"},"district":{"key":"05366","name":"Euskirchen","type":"Kreis"},"federalState":{"key":"05","name":"Nordrhein-Westfalen"}},{"name":"Sachsenstr.","postalCode":"53881","locality":"Euskirchen","municipality":{"key":"05366016","name":"Euskirchen, Stadt","type":"Stadt"},"district":{"key":"05366","name":"Euskirchen","type":"Kreis"},"federalState":{"key":"05","name":"Nordrhein-Westfalen"}},{"name":"Saganer Str.","postalCode":"53881","locality":"Euskirchen","municipality":{"key":"05366016","name":"Euskirchen, Stadt","type":"Stadt"},"district":{"key":"05366","name":"Euskirchen","type":"Kreis"},"federalState":{"key":"05","name":"Nordrhein-Westfalen"}},{"name":"Salamanderweg","postalCode":"53879","locality":"Euskirchen","municipality":{"key":"05366016","name":"Euskirchen, Stadt","type":"Stadt"},"district":{"key":"05366","name":"Euskirchen","type":"Kreis"},"federalState":{"key":"05","name":"Nordrhein-Westfalen"}},{"name":"Salierstr.","postalCode":"53881","locality":"Euskirchen","municipality":{"key":"05366016","name":"Euskirchen, Stadt","type":"Stadt"},"district":{"key":"05366","name":"Euskirchen","type":"Kreis"},"federalState":{"key":"05","name":"Nordrhein-Westfalen"}},{"name":"Sandgrubenweg","postalCode":"53881","locality":"Euskirchen","municipality":{"key":"05366016","name":"Euskirchen, Stadt","type":"Stadt"},"district":{"key":"05366","name":"Euskirchen","type":"Kreis"},"federalState":{"key":"05","name":"Nordrhein-Westfalen"}},{"name":"Sankt-Georg-Platz","postalCode":"53881","locality":"Euskirchen","municipality":{"key":"05366016","name":"Euskirchen, Stadt","type":"Stadt"},"district":{"key":"05366","name":"Euskirchen","type":"Kreis"},"federalState":{"key":"05","name":"Nordrhein-Westfalen"}},{"name":"Sankt-Vither-Str.","postalCode":"53879","locality":"Euskirchen","municipality":{"key":"05366016","name":"Euskirchen, Stadt","type":"Stadt"},"district":{"key":"05366","name":"Euskirchen","type":"Kreis"},"federalState":{"key":"05","name":"Nordrhein-Westfalen"}},{"name":"Saturnstr.","postalCode":"53881","locality":"Euskirchen","municipality":{"key":"05366016","name":"Euskirchen, Stadt","type":"Stadt"},"district":{"key":"05366","name":"Euskirchen","type":"Kreis"},"federalState":{"key":"05","name":"Nordrhein-Westfalen"}},{"name":"Sauerbruchstr.","postalCode":"53879","locality":"Euskirchen","municipality":{"key":"05366016","name":"Euskirchen, Stadt","type":"Stadt"},"district":{"key":"05366","name":"Euskirchen","type":"Kreis"},"federalState":{"key":"05","name":"Nordrhein-Westfalen"}},{"name":"Schäferei","postalCode":"53881","locality":"Euskirchen","municipality":{"key":"05366016","name":"Euskirchen, Stadt","type":"Stadt"},"district":{"key":"05366","name":"Euskirchen","type":"Kreis"},"federalState":{"key":"05","name":"Nordrhein-Westfalen"}},{"name":"Schäferstr.","postalCode":"53881","locality":"Euskirchen","municipality":{"key":"05366016","name":"Euskirchen, Stadt","type":"Stadt"},"district":{"key":"05366","name":"Euskirchen","type":"Kreis"},"federalState":{"key":"05","name":"Nordrhein-Westfalen"}},{"name":"Schalderberg","postalCode":"53881","locality":"Euskirchen","municipality":{"key":"05366016","name":"Euskirchen, Stadt","type":"Stadt"},"district":{"key":"05366","name":"Euskirchen","type":"Kreis"},"federalState":{"key":"05","name":"Nordrhein-Westfalen"}},{"name":"Schallenbergstr.","postalCode":"53881","locality":"Euskirchen","municipality":{"key":"05366016","name":"Euskirchen, Stadt","type":"Stadt"},"district":{"key":"05366","name":"Euskirchen","type":"Kreis"},"federalState":{"key":"05","name":"Nordrhein-Westfalen"}},{"name":"Scheesgasse","postalCode":"53881","locality":"Euskirchen","municipality":{"key":"05366016","name":"Euskirchen, Stadt","type":"Stadt"},"district":{"key":"05366","name":"Euskirchen","type":"Kreis"},"federalState":{"key":"05","name":"Nordrhein-Westfalen"}},{"name":"Schießbergstr.","postalCode":"53881","locality":"Euskirchen","municipality":{"key":"05366016","name":"Euskirchen, Stadt","type":"Stadt"},"district":{"key":"05366","name":"Euskirchen","type":"Kreis"},"federalState":{"key":"05","name":"Nordrhein-Westfalen"}},{"name":"Schillerpark","postalCode":"53879","locality":"Euskirchen","municipality":{"key":"05366016","name":"Euskirchen, Stadt","type":"Stadt"},"district":{"key":"05366","name":"Euskirchen","type":"Kreis"},"federalState":{"key":"05","name":"Nordrhein-Westfalen"}},{"name":"Schillerstr.","postalCode":"53879","locality":"Euskirchen","municipality":{"key":"05366016","name":"Euskirchen, Stadt","type":"Stadt"},"district":{"key":"05366","name":"Euskirchen","type":"Kreis"},"federalState":{"key":"05","name":"Nordrhein-Westfalen"}},{"name":"Schillingstr.","postalCode":"53879","locality":"Euskirchen","municipality":{"key":"05366016","name":"Euskirchen, Stadt","type":"Stadt"},"district":{"key":"05366","name":"Euskirchen","type":"Kreis"},"federalState":{"key":"05","name":"Nordrhein-Westfalen"}},{"name":"Schleidener Str.","postalCode":"53879","locality":"Euskirchen","municipality":{"key":"05366016","name":"Euskirchen, Stadt","type":"Stadt"},"district":{"key":"05366","name":"Euskirchen","type":"Kreis"},"federalState":{"key":"05","name":"Nordrhein-Westfalen"}},{"name":"Schloßmühlenstr.","postalCode":"53881","locality":"Euskirchen","municipality":{"key":"05366016","name":"Euskirchen, Stadt","type":"Stadt"},"district":{"key":"05366","name":"Euskirchen","type":"Kreis"},"federalState":{"key":"05","name":"Nordrhein-Westfalen"}},{"name":"Schmaler Weg","postalCode":"53881","locality":"Euskirchen","municipality":{"key":"05366016","name":"Euskirchen, Stadt","type":"Stadt"},"district":{"key":"05366","name":"Euskirchen","type":"Kreis"},"federalState":{"key":"05","name":"Nordrhein-Westfalen"}},{"name":"Schmetterlingstr.","postalCode":"53881","locality":"Euskirchen","municipality":{"key":"05366016","name":"Euskirchen, Stadt","type":"Stadt"},"district":{"key":"05366","name":"Euskirchen","type":"Kreis"},"federalState":{"key":"05","name":"Nordrhein-Westfalen"}},{"name":"Schönblick","postalCode":"53881","locality":"Euskirchen","municipality":{"key":"05366016","name":"Euskirchen, Stadt","type":"Stadt"},"district":{"key":"05366","name":"Euskirchen","type":"Kreis"},"federalState":{"key":"05","name":"Nordrhein-Westfalen"}},{"name":"Schornbuschstr.","postalCode":"53881","locality":"Euskirchen","municipality":{"key":"05366016","name":"Euskirchen, Stadt","type":"Stadt"},"district":{"key":"05366","name":"Euskirchen","type":"Kreis"},"federalState":{"key":"05","name":"Nordrhein-Westfalen"}},{"name":"Schornstr.","postalCode":"53881","locality":"Euskirchen","municipality":{"key":"05366016","name":"Euskirchen, Stadt","type":"Stadt"},"district":{"key":"05366","name":"Euskirchen","type":"Kreis"},"federalState":{"key":"05","name":"Nordrhein-Westfalen"}},{"name":"Schubertstr.","postalCode":"53881","locality":"Euskirchen","municipality":{"key":"05366016","name":"Euskirchen, Stadt","type":"Stadt"},"district":{"key":"05366","name":"Euskirchen","type":"Kreis"},"federalState":{"key":"05","name":"Nordrhein-Westfalen"}},{"name":"Schumannstr.","postalCode":"53879","locality":"Euskirchen","municipality":{"key":"05366016","name":"Euskirchen, Stadt","type":"Stadt"},"district":{"key":"05366","name":"Euskirchen","type":"Kreis"},"federalState":{"key":"05","name":"Nordrhein-Westfalen"}},{"name":"Schwarzer Weg","postalCode":"53881","locality":"Euskirchen","municipality":{"key":"05366016","name":"Euskirchen, Stadt","type":"Stadt"},"district":{"key":"05366","name":"Euskirchen","type":"Kreis"},"federalState":{"key":"05","name":"Nordrhein-Westfalen"}},{"name":"Schwedenstr.","postalCode":"53881","locality":"Euskirchen","municipality":{"key":"05366016","name":"Euskirchen, Stadt","type":"Stadt"},"district":{"key":"05366","name":"Euskirchen","type":"Kreis"},"federalState":{"key":"05","name":"Nordrhein-Westfalen"}},{"name":"Schweinheimer Allee","postalCode":"53881","locality":"Euskirchen","municipality":{"key":"05366016","name":"Euskirchen, Stadt","type":"Stadt"},"district":{"key":"05366","name":"Euskirchen","type":"Kreis"},"federalState":{"key":"05","name":"Nordrhein-Westfalen"}},{"name":"Schweinheimer Pfad","postalCode":"53881","locality":"Euskirchen","municipality":{"key":"05366016","name":"Euskirchen, Stadt","type":"Stadt"},"district":{"key":"05366","name":"Euskirchen","type":"Kreis"},"federalState":{"key":"05","name":"Nordrhein-Westfalen"}},{"name":"Schweinheimer Str.","postalCode":"53881","locality":"Euskirchen","municipality":{"key":"05366016","name":"Euskirchen, Stadt","type":"Stadt"},"district":{"key":"05366","name":"Euskirchen","type":"Kreis"},"federalState":{"key":"05","name":"Nordrhein-Westfalen"}},{"name":"Schweizer Str.","postalCode":"53881","locality":"Euskirchen","municipality":{"key":"05366016","name":"Euskirchen, Stadt","type":"Stadt"},"district":{"key":"05366","name":"Euskirchen","type":"Kreis"},"federalState":{"key":"05","name":"Nordrhein-Westfalen"}},{"name":"Scottstr.","postalCode":"53881","locality":"Euskirchen","municipality":{"key":"05366016","name":"Euskirchen, Stadt","type":"Stadt"},"district":{"key":"05366","name":"Euskirchen","type":"Kreis"},"federalState":{"key":"05","name":"Nordrhein-Westfalen"}},{"name":"Sebastian-Kneipp-Str.","postalCode":"53879","locality":"Euskirchen","municipality":{"key":"05366016","name":"Euskirchen, Stadt","type":"Stadt"},"district":{"key":"05366","name":"Euskirchen","type":"Kreis"},"federalState":{"key":"05","name":"Nordrhein-Westfalen"}},{"name":"Sebastianusstr.","postalCode":"53879","locality":"Euskirchen","municipality":{"key":"05366016","name":"Euskirchen, Stadt","type":"Stadt"},"district":{"key":"05366","name":"Euskirchen","type":"Kreis"},"federalState":{"key":"05","name":"Nordrhein-Westfalen"}},{"name":"Selbachstr.","postalCode":"53879","locality":"Euskirchen","municipality":{"key":"05366016","name":"Euskirchen, Stadt","type":"Stadt"},"district":{"key":"05366","name":"Euskirchen","type":"Kreis"},"federalState":{"key":"05","name":"Nordrhein-Westfalen"}},{"name":"Selmenstr.","postalCode":"53881","locality":"Euskirchen","municipality":{"key":"05366016","name":"Euskirchen, Stadt","type":"Stadt"},"district":{"key":"05366","name":"Euskirchen","type":"Kreis"},"federalState":{"key":"05","name":"Nordrhein-Westfalen"}},{"name":"Siriusstr.","postalCode":"53881","locality":"Euskirchen","municipality":{"key":"05366016","name":"Euskirchen, Stadt","type":"Stadt"},"district":{"key":"05366","name":"Euskirchen","type":"Kreis"},"federalState":{"key":"05","name":"Nordrhein-Westfalen"}},{"name":"Skorpionstr.","postalCode":"53881","locality":"Euskirchen","municipality":{"key":"05366016","name":"Euskirchen, Stadt","type":"Stadt"},"district":{"key":"05366","name":"Euskirchen","type":"Kreis"},"federalState":{"key":"05","name":"Nordrhein-Westfalen"}},{"name":"Slawenstr.","postalCode":"53881","locality":"Euskirchen","municipality":{"key":"05366016","name":"Euskirchen, Stadt","type":"Stadt"},"district":{"key":"05366","name":"Euskirchen","type":"Kreis"},"federalState":{"key":"05","name":"Nordrhein-Westfalen"}},{"name":"Sonnenblumenstr.","postalCode":"53881","locality":"Euskirchen","municipality":{"key":"05366016","name":"Euskirchen, Stadt","type":"Stadt"},"district":{"key":"05366","name":"Euskirchen","type":"Kreis"},"federalState":{"key":"05","name":"Nordrhein-Westfalen"}},{"name":"Sonnenstr.","postalCode":"53881","locality":"Euskirchen","municipality":{"key":"05366016","name":"Euskirchen, Stadt","type":"Stadt"},"district":{"key":"05366","name":"Euskirchen","type":"Kreis"},"federalState":{"key":"05","name":"Nordrhein-Westfalen"}},{"name":"Speckelsteiner Allee","postalCode":"53881","locality":"Euskirchen","municipality":{"key":"05366016","name":"Euskirchen, Stadt","type":"Stadt"},"district":{"key":"05366","name":"Euskirchen","type":"Kreis"},"federalState":{"key":"05","name":"Nordrhein-Westfalen"}},{"name":"Speckelsteinstr.","postalCode":"53881","locality":"Euskirchen","municipality":{"key":"05366016","name":"Euskirchen, Stadt","type":"Stadt"},"district":{"key":"05366","name":"Euskirchen","type":"Kreis"},"federalState":{"key":"05","name":"Nordrhein-Westfalen"}},{"name":"Sperberstr.","postalCode":"53881","locality":"Euskirchen","municipality":{"key":"05366016","name":"Euskirchen, Stadt","type":"Stadt"},"district":{"key":"05366","name":"Euskirchen","type":"Kreis"},"federalState":{"key":"05","name":"Nordrhein-Westfalen"}},{"name":"Sperlingstr.","postalCode":"53881","locality":"Euskirchen","municipality":{"key":"05366016","name":"Euskirchen, Stadt","type":"Stadt"},"district":{"key":"05366","name":"Euskirchen","type":"Kreis"},"federalState":{"key":"05","name":"Nordrhein-Westfalen"}},{"name":"Spiegelstr.","postalCode":"53879","locality":"Euskirchen","municipality":{"key":"05366016","name":"Euskirchen, Stadt","type":"Stadt"},"district":{"key":"05366","name":"Euskirchen","type":"Kreis"},"federalState":{"key":"05","name":"Nordrhein-Westfalen"}},{"name":"Talsperrenstr.","postalCode":"53881","locality":"Euskirchen","municipality":{"key":"05366016","name":"Euskirchen, Stadt","type":"Stadt"},"district":{"key":"05366","name":"Euskirchen","type":"Kreis"},"federalState":{"key":"05","name":"Nordrhein-Westfalen"}},{"name":"Talstr.","postalCode":"53881","locality":"Euskirchen","municipality":{"key":"05366016","name":"Euskirchen, Stadt","type":"Stadt"},"district":{"key":"05366","name":"Euskirchen","type":"Kreis"},"federalState":{"key":"05","name":"Nordrhein-Westfalen"}},{"name":"Tannenau","postalCode":"53881","locality":"Euskirchen","municipality":{"key":"05366016","name":"Euskirchen, Stadt","type":"Stadt"},"district":{"key":"05366","name":"Euskirchen","type":"Kreis"},"federalState":{"key":"05","name":"Nordrhein-Westfalen"}},{"name":"Tannenweg","postalCode":"53879","locality":"Euskirchen","municipality":{"key":"05366016","name":"Euskirchen, Stadt","type":"Stadt"},"district":{"key":"05366","name":"Euskirchen","type":"Kreis"},"federalState":{"key":"05","name":"Nordrhein-Westfalen"}},{"name":"Taubenstr.","postalCode":"53881","locality":"Euskirchen","municipality":{"key":"05366016","name":"Euskirchen, Stadt","type":"Stadt"},"district":{"key":"05366","name":"Euskirchen","type":"Kreis"},"federalState":{"key":"05","name":"Nordrhein-Westfalen"}},{"name":"Taurusstr.","postalCode":"53881","locality":"Euskirchen","municipality":{"key":"05366016","name":"Euskirchen, Stadt","type":"Stadt"},"district":{"key":"05366","name":"Euskirchen","type":"Kreis"},"federalState":{"key":"05","name":"Nordrhein-Westfalen"}},{"name":"Telemannstr.","postalCode":"53881","locality":"Euskirchen","municipality":{"key":"05366016","name":"Euskirchen, Stadt","type":"Stadt"},"district":{"key":"05366","name":"Euskirchen","type":"Kreis"},"federalState":{"key":"05","name":"Nordrhein-Westfalen"}},{"name":"Theodor-Körner-Str.","postalCode":"53879","locality":"Euskirchen","municipality":{"key":"05366016","name":"Euskirchen, Stadt","type":"Stadt"},"district":{"key":"05366","name":"Euskirchen","type":"Kreis"},"federalState":{"key":"05","name":"Nordrhein-Westfalen"}},{"name":"Theodor-Nießen-Str.","postalCode":"53881","locality":"Euskirchen","municipality":{"key":"05366016","name":"Euskirchen, Stadt","type":"Stadt"},"district":{"key":"05366","name":"Euskirchen","type":"Kreis"},"federalState":{"key":"05","name":"Nordrhein-Westfalen"}},{"name":"Theudebertstr.","postalCode":"53881","locality":"Euskirchen","municipality":{"key":"05366016","name":"Euskirchen, Stadt","type":"Stadt"},"district":{"key":"05366","name":"Euskirchen","type":"Kreis"},"federalState":{"key":"05","name":"Nordrhein-Westfalen"}},{"name":"Thomas-Eßer-Str.","postalCode":"53879","locality":"Euskirchen","municipality":{"key":"05366016","name":"Euskirchen, Stadt","type":"Stadt"},"district":{"key":"05366","name":"Euskirchen","type":"Kreis"},"federalState":{"key":"05","name":"Nordrhein-Westfalen"}},{"name":"Thomas-Mann-Str.","postalCode":"53879","locality":"Euskirchen","municipality":{"key":"05366016","name":"Euskirchen, Stadt","type":"Stadt"},"district":{"key":"05366","name":"Euskirchen","type":"Kreis"},"federalState":{"key":"05","name":"Nordrhein-Westfalen"}},{"name":"Thomestr.","postalCode":"53879","locality":"Euskirchen","municipality":{"key":"05366016","name":"Euskirchen, Stadt","type":"Stadt"},"district":{"key":"05366","name":"Euskirchen","type":"Kreis"},"federalState":{"key":"05","name":"Nordrhein-Westfalen"}},{"name":"Thüringer Str.","postalCode":"53879","locality":"Euskirchen","municipality":{"key":"05366016","name":"Euskirchen, Stadt","type":"Stadt"},"district":{"key":"05366","name":"Euskirchen","type":"Kreis"},"federalState":{"key":"05","name":"Nordrhein-Westfalen"}},{"name":"Tilsiter Str.","postalCode":"53879","locality":"Euskirchen","municipality":{"key":"05366016","name":"Euskirchen, Stadt","type":"Stadt"},"district":{"key":"05366","name":"Euskirchen","type":"Kreis"},"federalState":{"key":"05","name":"Nordrhein-Westfalen"}},{"name":"Tomberger Mühle","postalCode":"53881","locality":"Euskirchen","municipality":{"key":"05366016","name":"Euskirchen, Stadt","type":"Stadt"},"district":{"key":"05366","name":"Euskirchen","type":"Kreis"},"federalState":{"key":"05","name":"Nordrhein-Westfalen"}},{"name":"Tomburgstr.","postalCode":"53881","locality":"Euskirchen","municipality":{"key":"05366016","name":"Euskirchen, Stadt","type":"Stadt"},"district":{"key":"05366","name":"Euskirchen","type":"Kreis"},"federalState":{"key":"05","name":"Nordrhein-Westfalen"}},{"name":"Traubenstr.","postalCode":"53881","locality":"Euskirchen","municipality":{"key":"05366016","name":"Euskirchen, Stadt","type":"Stadt"},"district":{"key":"05366","name":"Euskirchen","type":"Kreis"},"federalState":{"key":"05","name":"Nordrhein-Westfalen"}},{"name":"Treckgasse","postalCode":"53881","locality":"Euskirchen","municipality":{"key":"05366016","name":"Euskirchen, Stadt","type":"Stadt"},"district":{"key":"05366","name":"Euskirchen","type":"Kreis"},"federalState":{"key":"05","name":"Nordrhein-Westfalen"}},{"name":"Trierer Str.","postalCode":"53879","locality":"Euskirchen","municipality":{"key":"05366016","name":"Euskirchen, Stadt","type":"Stadt"},"district":{"key":"05366","name":"Euskirchen","type":"Kreis"},"federalState":{"key":"05","name":"Nordrhein-Westfalen"}},{"name":"Trotzenberg","postalCode":"53881","locality":"Euskirchen","municipality":{"key":"05366016","name":"Euskirchen, Stadt","type":"Stadt"},"district":{"key":"05366","name":"Euskirchen","type":"Kreis"},"federalState":{"key":"05","name":"Nordrhein-Westfalen"}},{"name":"Tuchmacherweg","postalCode":"53879","locality":"Euskirchen","municipality":{"key":"05366016","name":"Euskirchen, Stadt","type":"Stadt"},"district":{"key":"05366","name":"Euskirchen","type":"Kreis"},"federalState":{"key":"05","name":"Nordrhein-Westfalen"}},{"name":"Turnierstr.","postalCode":"53881","locality":"Euskirchen","municipality":{"key":"05366016","name":"Euskirchen, Stadt","type":"Stadt"},"district":{"key":"05366","name":"Euskirchen","type":"Kreis"},"federalState":{"key":"05","name":"Nordrhein-Westfalen"}},{"name":"Ubierstr.","postalCode":"53881","locality":"Euskirchen","municipality":{"key":"05366016","name":"Euskirchen, Stadt","type":"Stadt"},"district":{"key":"05366","name":"Euskirchen","type":"Kreis"},"federalState":{"key":"05","name":"Nordrhein-Westfalen"}},{"name":"Uhlandstr.","postalCode":"53879","locality":"Euskirchen","municipality":{"key":"05366016","name":"Euskirchen, Stadt","type":"Stadt"},"district":{"key":"05366","name":"Euskirchen","type":"Kreis"},"federalState":{"key":"05","name":"Nordrhein-Westfalen"}},{"name":"Uhuweg","postalCode":"53881","locality":"Euskirchen","municipality":{"key":"05366016","name":"Euskirchen, Stadt","type":"Stadt"},"district":{"key":"05366","name":"Euskirchen","type":"Kreis"},"federalState":{"key":"05","name":"Nordrhein-Westfalen"}},{"name":"Ulmenweg","postalCode":"53879","locality":"Euskirchen","municipality":{"key":"05366016","name":"Euskirchen, Stadt","type":"Stadt"},"district":{"key":"05366","name":"Euskirchen","type":"Kreis"},"federalState":{"key":"05","name":"Nordrhein-Westfalen"}},{"name":"Unitasstr.","postalCode":"53879","locality":"Euskirchen","municipality":{"key":"05366016","name":"Euskirchen, Stadt","type":"Stadt"},"district":{"key":"05366","name":"Euskirchen","type":"Kreis"},"federalState":{"key":"05","name":"Nordrhein-Westfalen"}},{"name":"Untere Ahr","postalCode":"53881","locality":"Euskirchen","municipality":{"key":"05366016","name":"Euskirchen, Stadt","type":"Stadt"},"district":{"key":"05366","name":"Euskirchen","type":"Kreis"},"federalState":{"key":"05","name":"Nordrhein-Westfalen"}},{"name":"Untere Burg","postalCode":"53881","locality":"Euskirchen","municipality":{"key":"05366016","name":"Euskirchen, Stadt","type":"Stadt"},"district":{"key":"05366","name":"Euskirchen","type":"Kreis"},"federalState":{"key":"05","name":"Nordrhein-Westfalen"}},{"name":"Uranusstr.","postalCode":"53881","locality":"Euskirchen","municipality":{"key":"05366016","name":"Euskirchen, Stadt","type":"Stadt"},"district":{"key":"05366","name":"Euskirchen","type":"Kreis"},"federalState":{"key":"05","name":"Nordrhein-Westfalen"}},{"name":"Ursulinenstr.","postalCode":"53879","locality":"Euskirchen","municipality":{"key":"05366016","name":"Euskirchen, Stadt","type":"Stadt"},"district":{"key":"05366","name":"Euskirchen","type":"Kreis"},"federalState":{"key":"05","name":"Nordrhein-Westfalen"}},{"name":"Valdergasse","postalCode":"53881","locality":"Euskirchen","municipality":{"key":"05366016","name":"Euskirchen, Stadt","type":"Stadt"},"district":{"key":"05366","name":"Euskirchen","type":"Kreis"},"federalState":{"key":"05","name":"Nordrhein-Westfalen"}},{"name":"Venusstr.","postalCode":"53881","locality":"Euskirchen","municipality":{"key":"05366016","name":"Euskirchen, Stadt","type":"Stadt"},"district":{"key":"05366","name":"Euskirchen","type":"Kreis"},"federalState":{"key":"05","name":"Nordrhein-Westfalen"}},{"name":"Verdistr.","postalCode":"53881","locality":"Euskirchen","municipality":{"key":"05366016","name":"Euskirchen, Stadt","type":"Stadt"},"district":{"key":"05366","name":"Euskirchen","type":"Kreis"},"federalState":{"key":"05","name":"Nordrhein-Westfalen"}},{"name":"Veybach Hof","postalCode":"53881","locality":"Euskirchen","municipality":{"key":"05366016","name":"Euskirchen, Stadt","type":"Stadt"},"district":{"key":"05366","name":"Euskirchen","type":"Kreis"},"federalState":{"key":"05","name":"Nordrhein-Westfalen"}},{"name":"Veybachpark","postalCode":"53879","locality":"Euskirchen","municipality":{"key":"05366016","name":"Euskirchen, Stadt","type":"Stadt"},"district":{"key":"05366","name":"Euskirchen","type":"Kreis"},"federalState":{"key":"05","name":"Nordrhein-Westfalen"}},{"name":"Veybachstr.","postalCode":"53879","locality":"Euskirchen","municipality":{"key":"05366016","name":"Euskirchen, Stadt","type":"Stadt"},"district":{"key":"05366","name":"Euskirchen","type":"Kreis"},"federalState":{"key":"05","name":"Nordrhein-Westfalen"}},{"name":"Veynauer Weg","postalCode":"53881","locality":"Euskirchen","municipality":{"key":"05366016","name":"Euskirchen, Stadt","type":"Stadt"},"district":{"key":"05366","name":"Euskirchen","type":"Kreis"},"federalState":{"key":"05","name":"Nordrhein-Westfalen"}},{"name":"Vikariegasse","postalCode":"53881","locality":"Euskirchen","municipality":{"key":"05366016","name":"Euskirchen, Stadt","type":"Stadt"},"district":{"key":"05366","name":"Euskirchen","type":"Kreis"},"federalState":{"key":"05","name":"Nordrhein-Westfalen"}},{"name":"Viktoriastr.","postalCode":"53879","locality":"Euskirchen","municipality":{"key":"05366016","name":"Euskirchen, Stadt","type":"Stadt"},"district":{"key":"05366","name":"Euskirchen","type":"Kreis"},"federalState":{"key":"05","name":"Nordrhein-Westfalen"}},{"name":"Virchowstr.","postalCode":"53879","locality":"Euskirchen","municipality":{"key":"05366016","name":"Euskirchen, Stadt","type":"Stadt"},"district":{"key":"05366","name":"Euskirchen","type":"Kreis"},"federalState":{"key":"05","name":"Nordrhein-Westfalen"}},{"name":"Vivaldistr.","postalCode":"53881","locality":"Euskirchen","municipality":{"key":"05366016","name":"Euskirchen, Stadt","type":"Stadt"},"district":{"key":"05366","name":"Euskirchen","type":"Kreis"},"federalState":{"key":"05","name":"Nordrhein-Westfalen"}},{"name":"Vogelsang","postalCode":"53881","locality":"Euskirchen","municipality":{"key":"05366016","name":"Euskirchen, Stadt","type":"Stadt"},"district":{"key":"05366","name":"Euskirchen","type":"Kreis"},"federalState":{"key":"05","name":"Nordrhein-Westfalen"}},{"name":"Vom-Stein-Str.","postalCode":"53879","locality":"Euskirchen","municipality":{"key":"05366016","name":"Euskirchen, Stadt","type":"Stadt"},"district":{"key":"05366","name":"Euskirchen","type":"Kreis"},"federalState":{"key":"05","name":"Nordrhein-Westfalen"}},{"name":"Von-Bassenheim-Str.","postalCode":"53881","locality":"Euskirchen","municipality":{"key":"05366016","name":"Euskirchen, Stadt","type":"Stadt"},"district":{"key":"05366","name":"Euskirchen","type":"Kreis"},"federalState":{"key":"05","name":"Nordrhein-Westfalen"}},{"name":"Von-Binsfeld-Str.","postalCode":"53881","locality":"Euskirchen","municipality":{"key":"05366016","name":"Euskirchen, Stadt","type":"Stadt"},"district":{"key":"05366","name":"Euskirchen","type":"Kreis"},"federalState":{"key":"05","name":"Nordrhein-Westfalen"}},{"name":"Von-Halt-Str.","postalCode":"53881","locality":"Euskirchen","municipality":{"key":"05366016","name":"Euskirchen, Stadt","type":"Stadt"},"district":{"key":"05366","name":"Euskirchen","type":"Kreis"},"federalState":{"key":"05","name":"Nordrhein-Westfalen"}},{"name":"Von-Heimbach-Str.","postalCode":"53881","locality":"Euskirchen","municipality":{"key":"05366016","name":"Euskirchen, Stadt","type":"Stadt"},"district":{"key":"05366","name":"Euskirchen","type":"Kreis"},"federalState":{"key":"05","name":"Nordrhein-Westfalen"}},{"name":"Von-Laue-Str.","postalCode":"53881","locality":"Euskirchen","municipality":{"key":"05366016","name":"Euskirchen, Stadt","type":"Stadt"},"district":{"key":"05366","name":"Euskirchen","type":"Kreis"},"federalState":{"key":"05","name":"Nordrhein-Westfalen"}},{"name":"Wagnerstr.","postalCode":"53881","locality":"Euskirchen","municipality":{"key":"05366016","name":"Euskirchen, Stadt","type":"Stadt"},"district":{"key":"05366","name":"Euskirchen","type":"Kreis"},"federalState":{"key":"05","name":"Nordrhein-Westfalen"}},{"name":"Walramstr.","postalCode":"53879","locality":"Euskirchen","municipality":{"key":"05366016","name":"Euskirchen, Stadt","type":"Stadt"},"district":{"key":"05366","name":"Euskirchen","type":"Kreis"},"federalState":{"key":"05","name":"Nordrhein-Westfalen"}},{"name":"Wassermannstr.","postalCode":"53881","locality":"Euskirchen","municipality":{"key":"05366016","name":"Euskirchen, Stadt","type":"Stadt"},"district":{"key":"05366","name":"Euskirchen","type":"Kreis"},"federalState":{"key":"05","name":"Nordrhein-Westfalen"}},{"name":"Wattstr.","postalCode":"53881","locality":"Euskirchen","municipality":{"key":"05366016","name":"Euskirchen, Stadt","type":"Stadt"},"district":{"key":"05366","name":"Euskirchen","type":"Kreis"},"federalState":{"key":"05","name":"Nordrhein-Westfalen"}},{"name":"Watzenbergsweg","postalCode":"53881","locality":"Euskirchen","municipality":{"key":"05366016","name":"Euskirchen, Stadt","type":"Stadt"},"district":{"key":"05366","name":"Euskirchen","type":"Kreis"},"federalState":{"key":"05","name":"Nordrhein-Westfalen"}},{"name":"Wegastr.","postalCode":"53881","locality":"Euskirchen","municipality":{"key":"05366016","name":"Euskirchen, Stadt","type":"Stadt"},"district":{"key":"05366","name":"Euskirchen","type":"Kreis"},"federalState":{"key":"05","name":"Nordrhein-Westfalen"}},{"name":"Weidenweg","postalCode":"53881","locality":"Euskirchen","municipality":{"key":"05366016","name":"Euskirchen, Stadt","type":"Stadt"},"district":{"key":"05366","name":"Euskirchen","type":"Kreis"},"federalState":{"key":"05","name":"Nordrhein-Westfalen"}},{"name":"Weidesheimer Str.","postalCode":"53881","locality":"Euskirchen","municipality":{"key":"05366016","name":"Euskirchen, Stadt","type":"Stadt"},"district":{"key":"05366","name":"Euskirchen","type":"Kreis"},"federalState":{"key":"05","name":"Nordrhein-Westfalen"}},{"name":"Weilerweg","postalCode":"53881","locality":"Euskirchen","municipality":{"key":"05366016","name":"Euskirchen, Stadt","type":"Stadt"},"district":{"key":"05366","name":"Euskirchen","type":"Kreis"},"federalState":{"key":"05","name":"Nordrhein-Westfalen"}},{"name":"Weimarer Str.","postalCode":"53879","locality":"Euskirchen","municipality":{"key":"05366016","name":"Euskirchen, Stadt","type":"Stadt"},"district":{"key":"05366","name":"Euskirchen","type":"Kreis"},"federalState":{"key":"05","name":"Nordrhein-Westfalen"}},{"name":"Weingartenstr.","postalCode":"53881","locality":"Euskirchen","municipality":{"key":"05366016","name":"Euskirchen, Stadt","type":"Stadt"},"district":{"key":"05366","name":"Euskirchen","type":"Kreis"},"federalState":{"key":"05","name":"Nordrhein-Westfalen"}},{"name":"Weingartsgasse","postalCode":"53881","locality":"Euskirchen","municipality":{"key":"05366016","name":"Euskirchen, Stadt","type":"Stadt"},"district":{"key":"05366","name":"Euskirchen","type":"Kreis"},"federalState":{"key":"05","name":"Nordrhein-Westfalen"}},{"name":"Weißdornstr.","postalCode":"53881","locality":"Euskirchen","municipality":{"key":"05366016","name":"Euskirchen, Stadt","type":"Stadt"},"district":{"key":"05366","name":"Euskirchen","type":"Kreis"},"federalState":{"key":"05","name":"Nordrhein-Westfalen"}},{"name":"Weiße Erde","postalCode":"53879","locality":"Euskirchen","municipality":{"key":"05366016","name":"Euskirchen, Stadt","type":"Stadt"},"district":{"key":"05366","name":"Euskirchen","type":"Kreis"},"federalState":{"key":"05","name":"Nordrhein-Westfalen"}},{"name":"Weizenstr.","postalCode":"53881","locality":"Euskirchen","municipality":{"key":"05366016","name":"Euskirchen, Stadt","type":"Stadt"},"district":{"key":"05366","name":"Euskirchen","type":"Kreis"},"federalState":{"key":"05","name":"Nordrhein-Westfalen"}},{"name":"Weserstr.","postalCode":"53879","locality":"Euskirchen","municipality":{"key":"05366016","name":"Euskirchen, Stadt","type":"Stadt"},"district":{"key":"05366","name":"Euskirchen","type":"Kreis"},"federalState":{"key":"05","name":"Nordrhein-Westfalen"}},{"name":"Weststr.","postalCode":"53879","locality":"Euskirchen","municipality":{"key":"05366016","name":"Euskirchen, Stadt","type":"Stadt"},"district":{"key":"05366","name":"Euskirchen","type":"Kreis"},"federalState":{"key":"05","name":"Nordrhein-Westfalen"}},{"name":"Widderstr.","postalCode":"53881","locality":"Euskirchen","municipality":{"key":"05366016","name":"Euskirchen, Stadt","type":"Stadt"},"district":{"key":"05366","name":"Euskirchen","type":"Kreis"},"federalState":{"key":"05","name":"Nordrhein-Westfalen"}},{"name":"Wiener Str.","postalCode":"53881","locality":"Euskirchen","municipality":{"key":"05366016","name":"Euskirchen, Stadt","type":"Stadt"},"district":{"key":"05366","name":"Euskirchen","type":"Kreis"},"federalState":{"key":"05","name":"Nordrhein-Westfalen"}},{"name":"Wieselstr.","postalCode":"53881","locality":"Euskirchen","municipality":{"key":"05366016","name":"Euskirchen, Stadt","type":"Stadt"},"district":{"key":"05366","name":"Euskirchen","type":"Kreis"},"federalState":{"key":"05","name":"Nordrhein-Westfalen"}},{"name":"Wikingerstr.","postalCode":"53881","locality":"Euskirchen","municipality":{"key":"05366016","name":"Euskirchen, Stadt","type":"Stadt"},"district":{"key":"05366","name":"Euskirchen","type":"Kreis"},"federalState":{"key":"05","name":"Nordrhein-Westfalen"}},{"name":"Wilhelm-Kalff-Str.","postalCode":"53881","locality":"Euskirchen","municipality":{"key":"05366016","name":"Euskirchen, Stadt","type":"Stadt"},"district":{"key":"05366","name":"Euskirchen","type":"Kreis"},"federalState":{"key":"05","name":"Nordrhein-Westfalen"}},{"name":"Wilhelm-Passage","postalCode":"53879","locality":"Euskirchen","municipality":{"key":"05366016","name":"Euskirchen, Stadt","type":"Stadt"},"district":{"key":"05366","name":"Euskirchen","type":"Kreis"},"federalState":{"key":"05","name":"Nordrhein-Westfalen"}},{"name":"Wilhelmstr.","postalCode":"53879","locality":"Euskirchen","municipality":{"key":"05366016","name":"Euskirchen, Stadt","type":"Stadt"},"district":{"key":"05366","name":"Euskirchen","type":"Kreis"},"federalState":{"key":"05","name":"Nordrhein-Westfalen"}},{"name":"Willi-Graf-Str.","postalCode":"53881","locality":"Euskirchen","municipality":{"key":"05366016","name":"Euskirchen, Stadt","type":"Stadt"},"district":{"key":"05366","name":"Euskirchen","type":"Kreis"},"federalState":{"key":"05","name":"Nordrhein-Westfalen"}},{"name":"Windenweg","postalCode":"53881","locality":"Euskirchen","municipality":{"key":"05366016","name":"Euskirchen, Stadt","type":"Stadt"},"district":{"key":"05366","name":"Euskirchen","type":"Kreis"},"federalState":{"key":"05","name":"Nordrhein-Westfalen"}},{"name":"Wingertsberg","postalCode":"53881","locality":"Euskirchen","municipality":{"key":"05366016","name":"Euskirchen, Stadt","type":"Stadt"},"district":{"key":"05366","name":"Euskirchen","type":"Kreis"},"federalState":{"key":"05","name":"Nordrhein-Westfalen"}},{"name":"Winkelpfad","postalCode":"53879","locality":"Euskirchen","municipality":{"key":"05366016","name":"Euskirchen, Stadt","type":"Stadt"},"district":{"key":"05366","name":"Euskirchen","type":"Kreis"},"federalState":{"key":"05","name":"Nordrhein-Westfalen"}},{"name":"Wißkirchener Fließ","postalCode":"53879","locality":"Euskirchen","municipality":{"key":"05366016","name":"Euskirchen, Stadt","type":"Stadt"},"district":{"key":"05366","name":"Euskirchen","type":"Kreis"},"federalState":{"key":"05","name":"Nordrhein-Westfalen"}},{"name":"Wißkirchener Str.","postalCode":"53881","locality":"Euskirchen","municipality":{"key":"05366016","name":"Euskirchen, Stadt","type":"Stadt"},"district":{"key":"05366","name":"Euskirchen","type":"Kreis"},"federalState":{"key":"05","name":"Nordrhein-Westfalen"}},{"name":"Wolfgangstr.","postalCode":"53881","locality":"Euskirchen","municipality":{"key":"05366016","name":"Euskirchen, Stadt","type":"Stadt"},"district":{"key":"05366","name":"Euskirchen","type":"Kreis"},"federalState":{"key":"05","name":"Nordrhein-Westfalen"}},{"name":"Wolfsgasse","postalCode":"53879","locality":"Euskirchen","municipality":{"key":"05366016","name":"Euskirchen, Stadt","type":"Stadt"},"district":{"key":"05366","name":"Euskirchen","type":"Kreis"},"federalState":{"key":"05","name":"Nordrhein-Westfalen"}},{"name":"Wolfskaule","postalCode":"53881","locality":"Euskirchen","municipality":{"key":"05366016","name":"Euskirchen, Stadt","type":"Stadt"},"district":{"key":"05366","name":"Euskirchen","type":"Kreis"},"federalState":{"key":"05","name":"Nordrhein-Westfalen"}},{"name":"Wüschheimer Str.","postalCode":"53881","locality":"Euskirchen","municipality":{"key":"05366016","name":"Euskirchen, Stadt","type":"Stadt"},"district":{"key":"05366","name":"Euskirchen","type":"Kreis"},"federalState":{"key":"05","name":"Nordrhein-Westfalen"}},{"name":"Zeisigstr.","postalCode":"53881","locality":"Euskirchen","municipality":{"key":"05366016","name":"Euskirchen, Stadt","type":"Stadt"},"district":{"key":"05366","name":"Euskirchen","type":"Kreis"},"federalState":{"key":"05","name":"Nordrhein-Westfalen"}},{"name":"Zeppelinstr.","postalCode":"53879","locality":"Euskirchen","municipality":{"key":"05366016","name":"Euskirchen, Stadt","type":"Stadt"},"district":{"key":"05366","name":"Euskirchen","type":"Kreis"},"federalState":{"key":"05","name":"Nordrhein-Westfalen"}},{"name":"Zikadenweg","postalCode":"53881","locality":"Euskirchen","municipality":{"key":"05366016","name":"Euskirchen, Stadt","type":"Stadt"},"district":{"key":"05366","name":"Euskirchen","type":"Kreis"},"federalState":{"key":"05","name":"Nordrhein-Westfalen"}},{"name":"Zömpel Weg","postalCode":"53881","locality":"Euskirchen","municipality":{"key":"05366016","name":"Euskirchen, Stadt","type":"Stadt"},"district":{"key":"05366","name":"Euskirchen","type":"Kreis"},"federalState":{"key":"05","name":"Nordrhein-Westfalen"}},{"name":"Zülpicher Str.","postalCode":"53879","locality":"Euskirchen","municipality":{"key":"05366016","name":"Euskirchen, Stadt","type":"Stadt"},"district":{"key":"05366","name":"Euskirchen","type":"Kreis"},"federalState":{"key":"05","name":"Nordrhein-Westfalen"}},{"name":"Zum Pastoratsacker","postalCode":"53881","locality":"Euskirchen","municipality":{"key":"05366016","name":"Euskirchen, Stadt","type":"Stadt"},"district":{"key":"05366","name":"Euskirchen","type":"Kreis"},"federalState":{"key":"05","name":"Nordrhein-Westfalen"}},{"name":"Zur Tomberger Mühle","postalCode":"53881","locality":"Euskirchen","municipality":{"key":"05366016","name":"Euskirchen, Stadt","type":"Stadt"},"district":{"key":"05366","name":"Euskirchen","type":"Kreis"},"federalState":{"key":"05","name":"Nordrhein-Westfalen"}},]