[{"name":"Am Röder","postalCode":"54655","locality":"Seinsfeld","municipality":{"key":"07232306","name":"Seinsfeld","type":"Kreisangehörige_Gemeinde"},"district":{"key":"07232","name":"Eifelkreis Bitburg-Prüm","type":"Landkreis"},"federalState":{"key":"07","name":"Rheinland-Pfalz"}},{"name":"Bergstr.","postalCode":"54655","locality":"Seinsfeld","municipality":{"key":"07232306","name":"Seinsfeld","type":"Kreisangehörige_Gemeinde"},"district":{"key":"07232","name":"Eifelkreis Bitburg-Prüm","type":"Landkreis"},"federalState":{"key":"07","name":"Rheinland-Pfalz"}},{"name":"Brunnenstr.","postalCode":"54655","locality":"Seinsfeld","municipality":{"key":"07232306","name":"Seinsfeld","type":"Kreisangehörige_Gemeinde"},"district":{"key":"07232","name":"Eifelkreis Bitburg-Prüm","type":"Landkreis"},"federalState":{"key":"07","name":"Rheinland-Pfalz"}},{"name":"Burgstr.","postalCode":"54655","locality":"Seinsfeld","municipality":{"key":"07232306","name":"Seinsfeld","type":"Kreisangehörige_Gemeinde"},"district":{"key":"07232","name":"Eifelkreis Bitburg-Prüm","type":"Landkreis"},"federalState":{"key":"07","name":"Rheinland-Pfalz"}},{"name":"Gartenweg","postalCode":"54655","locality":"Seinsfeld","municipality":{"key":"07232306","name":"Seinsfeld","type":"Kreisangehörige_Gemeinde"},"district":{"key":"07232","name":"Eifelkreis Bitburg-Prüm","type":"Landkreis"},"federalState":{"key":"07","name":"Rheinland-Pfalz"}},{"name":"Hillstr.","postalCode":"54655","locality":"Seinsfeld","municipality":{"key":"07232306","name":"Seinsfeld","type":"Kreisangehörige_Gemeinde"},"district":{"key":"07232","name":"Eifelkreis Bitburg-Prüm","type":"Landkreis"},"federalState":{"key":"07","name":"Rheinland-Pfalz"}},{"name":"Waldhof","postalCode":"54655","locality":"Seinsfeld","municipality":{"key":"07232306","name":"Seinsfeld","type":"Kreisangehörige_Gemeinde"},"district":{"key":"07232","name":"Eifelkreis Bitburg-Prüm","type":"Landkreis"},"federalState":{"key":"07","name":"Rheinland-Pfalz"}},{"name":"Weilerweg","postalCode":"54655","locality":"Seinsfeld","municipality":{"key":"07232306","name":"Seinsfeld","type":"Kreisangehörige_Gemeinde"},"district":{"key":"07232","name":"Eifelkreis Bitburg-Prüm","type":"Landkreis"},"federalState":{"key":"07","name":"Rheinland-Pfalz"}},{"name":"Wiedenhof","postalCode":"54655","locality":"Seinsfeld","municipality":{"key":"07232306","name":"Seinsfeld","type":"Kreisangehörige_Gemeinde"},"district":{"key":"07232","name":"Eifelkreis Bitburg-Prüm","type":"Landkreis"},"federalState":{"key":"07","name":"Rheinland-Pfalz"}},{"name":"Zum Kailbachtal","postalCode":"54655","locality":"Seinsfeld","municipality":{"key":"07232306","name":"Seinsfeld","type":"Kreisangehörige_Gemeinde"},"district":{"key":"07232","name":"Eifelkreis Bitburg-Prüm","type":"Landkreis"},"federalState":{"key":"07","name":"Rheinland-Pfalz"}},]