[{"key":"10219319","name":"Ahorni","postalCode":"3752","locality":"Wimmis","commune":{"key":"769","name":"Wimmis","shortName":"Wimmis"},"district":{"key":"249","name":"Verwaltungskreis Frutigen-Niedersimmental"},"canton":{"key":"2","code":"BE","name":"Bern / Berne"},"status":"Real"},{"key":"10086436","name":"Ahornistrasse","postalCode":"3752","locality":"Wimmis","commune":{"key":"769","name":"Wimmis","shortName":"Wimmis"},"district":{"key":"249","name":"Verwaltungskreis Frutigen-Niedersimmental"},"canton":{"key":"2","code":"BE","name":"Bern / Berne"},"status":"Real"},{"key":"10219324","name":"Alpbachweide","postalCode":"3752","locality":"Wimmis","commune":{"key":"769","name":"Wimmis","shortName":"Wimmis"},"district":{"key":"249","name":"Verwaltungskreis Frutigen-Niedersimmental"},"canton":{"key":"2","code":"BE","name":"Bern / Berne"},"status":"Real"},{"key":"10058136","name":"Alte Staatsstrasse","postalCode":"3752","locality":"Wimmis","commune":{"key":"769","name":"Wimmis","shortName":"Wimmis"},"district":{"key":"249","name":"Verwaltungskreis Frutigen-Niedersimmental"},"canton":{"key":"2","code":"BE","name":"Bern / Berne"},"status":"Real"},{"key":"10219330","name":"Ammansweide","postalCode":"3752","locality":"Wimmis","commune":{"key":"769","name":"Wimmis","shortName":"Wimmis"},"district":{"key":"249","name":"Verwaltungskreis Frutigen-Niedersimmental"},"canton":{"key":"2","code":"BE","name":"Bern / Berne"},"status":"Real"},{"key":"10106718","name":"Amthausgasse","postalCode":"3752","locality":"Wimmis","commune":{"key":"769","name":"Wimmis","shortName":"Wimmis"},"district":{"key":"249","name":"Verwaltungskreis Frutigen-Niedersimmental"},"canton":{"key":"2","code":"BE","name":"Bern / Berne"},"status":"Real"},{"key":"10240561","name":"AR. Nitrochemie","postalCode":"3752","locality":"Wimmis","commune":{"key":"769","name":"Wimmis","shortName":"Wimmis"},"district":{"key":"249","name":"Verwaltungskreis Frutigen-Niedersimmental"},"canton":{"key":"2","code":"BE","name":"Bern / Berne"},"status":"Real"},{"key":"10220592","name":"Au","postalCode":"3752","locality":"Wimmis","commune":{"key":"769","name":"Wimmis","shortName":"Wimmis"},"district":{"key":"249","name":"Verwaltungskreis Frutigen-Niedersimmental"},"canton":{"key":"2","code":"BE","name":"Bern / Berne"},"status":"Real"},{"key":"10220596","name":"Auetli","postalCode":"3752","locality":"Wimmis","commune":{"key":"769","name":"Wimmis","shortName":"Wimmis"},"district":{"key":"249","name":"Verwaltungskreis Frutigen-Niedersimmental"},"canton":{"key":"2","code":"BE","name":"Bern / Berne"},"status":"Real"},{"key":"10010147","name":"Bachtelestrasse","postalCode":"3752","locality":"Wimmis","commune":{"key":"769","name":"Wimmis","shortName":"Wimmis"},"district":{"key":"249","name":"Verwaltungskreis Frutigen-Niedersimmental"},"canton":{"key":"2","code":"BE","name":"Bern / Berne"},"status":"Real"},{"key":"10086439","name":"Bäckergasse","postalCode":"3752","locality":"Wimmis","commune":{"key":"769","name":"Wimmis","shortName":"Wimmis"},"district":{"key":"249","name":"Verwaltungskreis Frutigen-Niedersimmental"},"canton":{"key":"2","code":"BE","name":"Bern / Berne"},"status":"Real"},{"key":"10125233","name":"Bahnhof Nord","postalCode":"3752","locality":"Wimmis","commune":{"key":"769","name":"Wimmis","shortName":"Wimmis"},"district":{"key":"249","name":"Verwaltungskreis Frutigen-Niedersimmental"},"canton":{"key":"2","code":"BE","name":"Bern / Berne"},"status":"Real"},{"key":"10086437","name":"Bahnhofstrasse","postalCode":"3752","locality":"Wimmis","commune":{"key":"769","name":"Wimmis","shortName":"Wimmis"},"district":{"key":"249","name":"Verwaltungskreis Frutigen-Niedersimmental"},"canton":{"key":"2","code":"BE","name":"Bern / Berne"},"status":"Real"},{"key":"10131265","name":"Baumgartiweg","postalCode":"3752","locality":"Wimmis","commune":{"key":"769","name":"Wimmis","shortName":"Wimmis"},"district":{"key":"249","name":"Verwaltungskreis Frutigen-Niedersimmental"},"canton":{"key":"2","code":"BE","name":"Bern / Berne"},"status":"Real"},{"key":"10220600","name":"Bergli","postalCode":"3752","locality":"Wimmis","commune":{"key":"769","name":"Wimmis","shortName":"Wimmis"},"district":{"key":"249","name":"Verwaltungskreis Frutigen-Niedersimmental"},"canton":{"key":"2","code":"BE","name":"Bern / Berne"},"status":"Real"},{"key":"10058137","name":"Bodenmattestrasse","postalCode":"3752","locality":"Wimmis","commune":{"key":"769","name":"Wimmis","shortName":"Wimmis"},"district":{"key":"249","name":"Verwaltungskreis Frutigen-Niedersimmental"},"canton":{"key":"2","code":"BE","name":"Bern / Berne"},"status":"Real"},{"key":"10086438","name":"Brodhüsiweg","postalCode":"3752","locality":"Wimmis","commune":{"key":"769","name":"Wimmis","shortName":"Wimmis"},"district":{"key":"249","name":"Verwaltungskreis Frutigen-Niedersimmental"},"canton":{"key":"2","code":"BE","name":"Bern / Berne"},"status":"Real"},{"key":"10010148","name":"Bruchweg","postalCode":"3752","locality":"Wimmis","commune":{"key":"769","name":"Wimmis","shortName":"Wimmis"},"district":{"key":"249","name":"Verwaltungskreis Frutigen-Niedersimmental"},"canton":{"key":"2","code":"BE","name":"Bern / Berne"},"status":"Real"},{"key":"10220604","name":"Brunni","postalCode":"3752","locality":"Wimmis","commune":{"key":"769","name":"Wimmis","shortName":"Wimmis"},"district":{"key":"249","name":"Verwaltungskreis Frutigen-Niedersimmental"},"canton":{"key":"2","code":"BE","name":"Bern / Berne"},"status":"Real"},{"key":"10192294","name":"Brunniweg","postalCode":"3752","locality":"Wimmis","commune":{"key":"769","name":"Wimmis","shortName":"Wimmis"},"district":{"key":"249","name":"Verwaltungskreis Frutigen-Niedersimmental"},"canton":{"key":"2","code":"BE","name":"Bern / Berne"},"status":"Real"},{"key":"10010150","name":"Bühlstrasse","postalCode":"3752","locality":"Wimmis","commune":{"key":"769","name":"Wimmis","shortName":"Wimmis"},"district":{"key":"249","name":"Verwaltungskreis Frutigen-Niedersimmental"},"canton":{"key":"2","code":"BE","name":"Bern / Berne"},"status":"Real"},{"key":"10010149","name":"Burgfluhstrasse","postalCode":"3752","locality":"Wimmis","commune":{"key":"769","name":"Wimmis","shortName":"Wimmis"},"district":{"key":"249","name":"Verwaltungskreis Frutigen-Niedersimmental"},"canton":{"key":"2","code":"BE","name":"Bern / Berne"},"status":"Real"},{"key":"10220608","name":"Burgholz","postalCode":"3752","locality":"Wimmis","commune":{"key":"769","name":"Wimmis","shortName":"Wimmis"},"district":{"key":"249","name":"Verwaltungskreis Frutigen-Niedersimmental"},"canton":{"key":"2","code":"BE","name":"Bern / Berne"},"status":"Real"},{"key":"10109767","name":"Burgholzstrasse","postalCode":"3752","locality":"Wimmis","commune":{"key":"769","name":"Wimmis","shortName":"Wimmis"},"district":{"key":"249","name":"Verwaltungskreis Frutigen-Niedersimmental"},"canton":{"key":"2","code":"BE","name":"Bern / Berne"},"status":"Real"},{"key":"10220611","name":"Burgmatte","postalCode":"3752","locality":"Wimmis","commune":{"key":"769","name":"Wimmis","shortName":"Wimmis"},"district":{"key":"249","name":"Verwaltungskreis Frutigen-Niedersimmental"},"canton":{"key":"2","code":"BE","name":"Bern / Berne"},"status":"Real"},{"key":"10106719","name":"Chrümigstrasse","postalCode":"3752","locality":"Wimmis","commune":{"key":"769","name":"Wimmis","shortName":"Wimmis"},"district":{"key":"249","name":"Verwaltungskreis Frutigen-Niedersimmental"},"canton":{"key":"2","code":"BE","name":"Bern / Berne"},"status":"Real"},{"key":"10086440","name":"Eifeldweg","postalCode":"3752","locality":"Wimmis","commune":{"key":"769","name":"Wimmis","shortName":"Wimmis"},"district":{"key":"249","name":"Verwaltungskreis Frutigen-Niedersimmental"},"canton":{"key":"2","code":"BE","name":"Bern / Berne"},"status":"Real"},{"key":"10220615","name":"Elendgreth","postalCode":"3752","locality":"Wimmis","commune":{"key":"769","name":"Wimmis","shortName":"Wimmis"},"district":{"key":"249","name":"Verwaltungskreis Frutigen-Niedersimmental"},"canton":{"key":"2","code":"BE","name":"Bern / Berne"},"status":"Real"},{"key":"10220620","name":"Elendgreth Weidlein","postalCode":"3752","locality":"Wimmis","commune":{"key":"769","name":"Wimmis","shortName":"Wimmis"},"district":{"key":"249","name":"Verwaltungskreis Frutigen-Niedersimmental"},"canton":{"key":"2","code":"BE","name":"Bern / Berne"},"status":"Real"},{"key":"10123406","name":"Eliggrethweg","postalCode":"3752","locality":"Wimmis","commune":{"key":"769","name":"Wimmis","shortName":"Wimmis"},"district":{"key":"249","name":"Verwaltungskreis Frutigen-Niedersimmental"},"canton":{"key":"2","code":"BE","name":"Bern / Berne"},"status":"Real"},{"key":"10220624","name":"Eyfeld","postalCode":"3752","locality":"Wimmis","commune":{"key":"769","name":"Wimmis","shortName":"Wimmis"},"district":{"key":"249","name":"Verwaltungskreis Frutigen-Niedersimmental"},"canton":{"key":"2","code":"BE","name":"Bern / Berne"},"status":"Real"},{"key":"10010151","name":"Fährichweg","postalCode":"3752","locality":"Wimmis","commune":{"key":"769","name":"Wimmis","shortName":"Wimmis"},"district":{"key":"249","name":"Verwaltungskreis Frutigen-Niedersimmental"},"canton":{"key":"2","code":"BE","name":"Bern / Berne"},"status":"Real"},{"key":"10010152","name":"Gärbiweg","postalCode":"3752","locality":"Wimmis","commune":{"key":"769","name":"Wimmis","shortName":"Wimmis"},"district":{"key":"249","name":"Verwaltungskreis Frutigen-Niedersimmental"},"canton":{"key":"2","code":"BE","name":"Bern / Berne"},"status":"Real"},{"key":"10220628","name":"Gattafel","postalCode":"3752","locality":"Wimmis","commune":{"key":"769","name":"Wimmis","shortName":"Wimmis"},"district":{"key":"249","name":"Verwaltungskreis Frutigen-Niedersimmental"},"canton":{"key":"2","code":"BE","name":"Bern / Berne"},"status":"Real"},{"key":"10010153","name":"Güchstrasse","postalCode":"3752","locality":"Wimmis","commune":{"key":"769","name":"Wimmis","shortName":"Wimmis"},"district":{"key":"249","name":"Verwaltungskreis Frutigen-Niedersimmental"},"canton":{"key":"2","code":"BE","name":"Bern / Berne"},"status":"Real"},{"key":"10220632","name":"Guggerhorn","postalCode":"3752","locality":"Wimmis","commune":{"key":"769","name":"Wimmis","shortName":"Wimmis"},"district":{"key":"249","name":"Verwaltungskreis Frutigen-Niedersimmental"},"canton":{"key":"2","code":"BE","name":"Bern / Berne"},"status":"Real"},{"key":"10086441","name":"Gurzelestrasse","postalCode":"3752","locality":"Wimmis","commune":{"key":"769","name":"Wimmis","shortName":"Wimmis"},"district":{"key":"249","name":"Verwaltungskreis Frutigen-Niedersimmental"},"canton":{"key":"2","code":"BE","name":"Bern / Berne"},"status":"Real"},{"key":"10220637","name":"Güüch","postalCode":"3752","locality":"Wimmis","commune":{"key":"769","name":"Wimmis","shortName":"Wimmis"},"district":{"key":"249","name":"Verwaltungskreis Frutigen-Niedersimmental"},"canton":{"key":"2","code":"BE","name":"Bern / Berne"},"status":"Real"},{"key":"10220641","name":"Halten","postalCode":"3752","locality":"Wimmis","commune":{"key":"769","name":"Wimmis","shortName":"Wimmis"},"district":{"key":"249","name":"Verwaltungskreis Frutigen-Niedersimmental"},"canton":{"key":"2","code":"BE","name":"Bern / Berne"},"status":"Real"},{"key":"10220644","name":"Haslimatte","postalCode":"3752","locality":"Wimmis","commune":{"key":"769","name":"Wimmis","shortName":"Wimmis"},"district":{"key":"249","name":"Verwaltungskreis Frutigen-Niedersimmental"},"canton":{"key":"2","code":"BE","name":"Bern / Berne"},"status":"Real"},{"key":"10188859","name":"Haslistrasse","postalCode":"3752","locality":"Wimmis","commune":{"key":"769","name":"Wimmis","shortName":"Wimmis"},"district":{"key":"249","name":"Verwaltungskreis Frutigen-Niedersimmental"},"canton":{"key":"2","code":"BE","name":"Bern / Berne"},"status":"Real"},{"key":"10010154","name":"Hauptstrasse","postalCode":"3752","locality":"Wimmis","commune":{"key":"769","name":"Wimmis","shortName":"Wimmis"},"district":{"key":"249","name":"Verwaltungskreis Frutigen-Niedersimmental"},"canton":{"key":"2","code":"BE","name":"Bern / Berne"},"status":"Real"},{"key":"10220649","name":"Herrematte","postalCode":"3752","locality":"Wimmis","commune":{"key":"769","name":"Wimmis","shortName":"Wimmis"},"district":{"key":"249","name":"Verwaltungskreis Frutigen-Niedersimmental"},"canton":{"key":"2","code":"BE","name":"Bern / Berne"},"status":"Real"},{"key":"10220653","name":"Herremätteli","postalCode":"3752","locality":"Wimmis","commune":{"key":"769","name":"Wimmis","shortName":"Wimmis"},"district":{"key":"249","name":"Verwaltungskreis Frutigen-Niedersimmental"},"canton":{"key":"2","code":"BE","name":"Bern / Berne"},"status":"Real"},{"key":"10089230","name":"Herrenmattestrasse","postalCode":"3752","locality":"Wimmis","commune":{"key":"769","name":"Wimmis","shortName":"Wimmis"},"district":{"key":"249","name":"Verwaltungskreis Frutigen-Niedersimmental"},"canton":{"key":"2","code":"BE","name":"Bern / Berne"},"status":"Real"},{"key":"10220657","name":"Heustrich","postalCode":"3752","locality":"Wimmis","commune":{"key":"769","name":"Wimmis","shortName":"Wimmis"},"district":{"key":"249","name":"Verwaltungskreis Frutigen-Niedersimmental"},"canton":{"key":"2","code":"BE","name":"Bern / Berne"},"status":"Real"},{"key":"10220660","name":"Heustrich Allmend","postalCode":"3752","locality":"Wimmis","commune":{"key":"769","name":"Wimmis","shortName":"Wimmis"},"district":{"key":"249","name":"Verwaltungskreis Frutigen-Niedersimmental"},"canton":{"key":"2","code":"BE","name":"Bern / Berne"},"status":"Real"},{"key":"10220663","name":"Heustrichwald","postalCode":"3752","locality":"Wimmis","commune":{"key":"769","name":"Wimmis","shortName":"Wimmis"},"district":{"key":"249","name":"Verwaltungskreis Frutigen-Niedersimmental"},"canton":{"key":"2","code":"BE","name":"Bern / Berne"},"status":"Real"},{"key":"10106720","name":"Hofitgasse","postalCode":"3752","locality":"Wimmis","commune":{"key":"769","name":"Wimmis","shortName":"Wimmis"},"district":{"key":"249","name":"Verwaltungskreis Frutigen-Niedersimmental"},"canton":{"key":"2","code":"BE","name":"Bern / Berne"},"status":"Real"},{"key":"10220667","name":"Hundsmaad","postalCode":"3752","locality":"Wimmis","commune":{"key":"769","name":"Wimmis","shortName":"Wimmis"},"district":{"key":"249","name":"Verwaltungskreis Frutigen-Niedersimmental"},"canton":{"key":"2","code":"BE","name":"Bern / Berne"},"status":"Real"},{"key":"10058138","name":"Iselweg","postalCode":"3752","locality":"Wimmis","commune":{"key":"769","name":"Wimmis","shortName":"Wimmis"},"district":{"key":"249","name":"Verwaltungskreis Frutigen-Niedersimmental"},"canton":{"key":"2","code":"BE","name":"Bern / Berne"},"status":"Real"},{"key":"10220423","name":"Kummli","postalCode":"3752","locality":"Wimmis","commune":{"key":"769","name":"Wimmis","shortName":"Wimmis"},"district":{"key":"249","name":"Verwaltungskreis Frutigen-Niedersimmental"},"canton":{"key":"2","code":"BE","name":"Bern / Berne"},"status":"Real"},{"key":"10220427","name":"Längenweide","postalCode":"3752","locality":"Wimmis","commune":{"key":"769","name":"Wimmis","shortName":"Wimmis"},"district":{"key":"249","name":"Verwaltungskreis Frutigen-Niedersimmental"},"canton":{"key":"2","code":"BE","name":"Bern / Berne"},"status":"Real"},{"key":"10111261","name":"Lochmattestrasse","postalCode":"3752","locality":"Wimmis","commune":{"key":"769","name":"Wimmis","shortName":"Wimmis"},"district":{"key":"249","name":"Verwaltungskreis Frutigen-Niedersimmental"},"canton":{"key":"2","code":"BE","name":"Bern / Berne"},"status":"Real"},{"key":"10220431","name":"Maad","postalCode":"3752","locality":"Wimmis","commune":{"key":"769","name":"Wimmis","shortName":"Wimmis"},"district":{"key":"249","name":"Verwaltungskreis Frutigen-Niedersimmental"},"canton":{"key":"2","code":"BE","name":"Bern / Berne"},"status":"Real"},{"key":"10192295","name":"Maadweg","postalCode":"3752","locality":"Wimmis","commune":{"key":"769","name":"Wimmis","shortName":"Wimmis"},"district":{"key":"249","name":"Verwaltungskreis Frutigen-Niedersimmental"},"canton":{"key":"2","code":"BE","name":"Bern / Berne"},"status":"Real"},{"key":"10089231","name":"Mattestrasse","postalCode":"3752","locality":"Wimmis","commune":{"key":"769","name":"Wimmis","shortName":"Wimmis"},"district":{"key":"249","name":"Verwaltungskreis Frutigen-Niedersimmental"},"canton":{"key":"2","code":"BE","name":"Bern / Berne"},"status":"Real"},{"key":"10058139","name":"Moosweg","postalCode":"3752","locality":"Wimmis","commune":{"key":"769","name":"Wimmis","shortName":"Wimmis"},"district":{"key":"249","name":"Verwaltungskreis Frutigen-Niedersimmental"},"canton":{"key":"2","code":"BE","name":"Bern / Berne"},"status":"Real"},{"key":"10010156","name":"Mühlematteweg","postalCode":"3752","locality":"Wimmis","commune":{"key":"769","name":"Wimmis","shortName":"Wimmis"},"district":{"key":"249","name":"Verwaltungskreis Frutigen-Niedersimmental"},"canton":{"key":"2","code":"BE","name":"Bern / Berne"},"status":"Real"},{"key":"10010157","name":"Mühligasse","postalCode":"3752","locality":"Wimmis","commune":{"key":"769","name":"Wimmis","shortName":"Wimmis"},"district":{"key":"249","name":"Verwaltungskreis Frutigen-Niedersimmental"},"canton":{"key":"2","code":"BE","name":"Bern / Berne"},"status":"Real"},{"key":"10011596","name":"Niederfeldweg","postalCode":"3752","locality":"Wimmis","commune":{"key":"769","name":"Wimmis","shortName":"Wimmis"},"district":{"key":"249","name":"Verwaltungskreis Frutigen-Niedersimmental"},"canton":{"key":"2","code":"BE","name":"Bern / Berne"},"status":"Real"},{"key":"10220435","name":"Niesenmaad","postalCode":"3752","locality":"Wimmis","commune":{"key":"769","name":"Wimmis","shortName":"Wimmis"},"district":{"key":"249","name":"Verwaltungskreis Frutigen-Niedersimmental"},"canton":{"key":"2","code":"BE","name":"Bern / Berne"},"status":"Real"},{"key":"10089232","name":"Niesenstrasse","postalCode":"3752","locality":"Wimmis","commune":{"key":"769","name":"Wimmis","shortName":"Wimmis"},"district":{"key":"249","name":"Verwaltungskreis Frutigen-Niedersimmental"},"canton":{"key":"2","code":"BE","name":"Bern / Berne"},"status":"Real"},{"key":"10109768","name":"Oberdorfstrasse","postalCode":"3752","locality":"Wimmis","commune":{"key":"769","name":"Wimmis","shortName":"Wimmis"},"district":{"key":"249","name":"Verwaltungskreis Frutigen-Niedersimmental"},"canton":{"key":"2","code":"BE","name":"Bern / Berne"},"status":"Real"},{"key":"10220439","name":"Obere Hutten","postalCode":"3752","locality":"Wimmis","commune":{"key":"769","name":"Wimmis","shortName":"Wimmis"},"district":{"key":"249","name":"Verwaltungskreis Frutigen-Niedersimmental"},"canton":{"key":"2","code":"BE","name":"Bern / Berne"},"status":"Real"},{"key":"10220444","name":"Obermatten","postalCode":"3752","locality":"Wimmis","commune":{"key":"769","name":"Wimmis","shortName":"Wimmis"},"district":{"key":"249","name":"Verwaltungskreis Frutigen-Niedersimmental"},"canton":{"key":"2","code":"BE","name":"Bern / Berne"},"status":"Real"},{"key":"10011597","name":"Pintelgasse","postalCode":"3752","locality":"Wimmis","commune":{"key":"769","name":"Wimmis","shortName":"Wimmis"},"district":{"key":"249","name":"Verwaltungskreis Frutigen-Niedersimmental"},"canton":{"key":"2","code":"BE","name":"Bern / Berne"},"status":"Real"},{"key":"10011598","name":"Platzweg","postalCode":"3752","locality":"Wimmis","commune":{"key":"769","name":"Wimmis","shortName":"Wimmis"},"district":{"key":"249","name":"Verwaltungskreis Frutigen-Niedersimmental"},"canton":{"key":"2","code":"BE","name":"Bern / Berne"},"status":"Real"},{"key":"10011599","name":"Port","postalCode":"3752","locality":"Wimmis","commune":{"key":"769","name":"Wimmis","shortName":"Wimmis"},"district":{"key":"249","name":"Verwaltungskreis Frutigen-Niedersimmental"},"canton":{"key":"2","code":"BE","name":"Bern / Berne"},"status":"Real"},{"key":"10106721","name":"Postgasse","postalCode":"3752","locality":"Wimmis","commune":{"key":"769","name":"Wimmis","shortName":"Wimmis"},"district":{"key":"249","name":"Verwaltungskreis Frutigen-Niedersimmental"},"canton":{"key":"2","code":"BE","name":"Bern / Berne"},"status":"Real"},{"key":"10220447","name":"Rossweide","postalCode":"3752","locality":"Wimmis","commune":{"key":"769","name":"Wimmis","shortName":"Wimmis"},"district":{"key":"249","name":"Verwaltungskreis Frutigen-Niedersimmental"},"canton":{"key":"2","code":"BE","name":"Bern / Berne"},"status":"Real"},{"key":"10089233","name":"Rütenestrasse","postalCode":"3752","locality":"Wimmis","commune":{"key":"769","name":"Wimmis","shortName":"Wimmis"},"district":{"key":"249","name":"Verwaltungskreis Frutigen-Niedersimmental"},"canton":{"key":"2","code":"BE","name":"Bern / Berne"},"status":"Real"},{"key":"10180457","name":"Sagimoosweg","postalCode":"3752","locality":"Wimmis","commune":{"key":"769","name":"Wimmis","shortName":"Wimmis"},"district":{"key":"249","name":"Verwaltungskreis Frutigen-Niedersimmental"},"canton":{"key":"2","code":"BE","name":"Bern / Berne"},"status":"Real"},{"key":"10011600","name":"Sagistrasse","postalCode":"3752","locality":"Wimmis","commune":{"key":"769","name":"Wimmis","shortName":"Wimmis"},"district":{"key":"249","name":"Verwaltungskreis Frutigen-Niedersimmental"},"canton":{"key":"2","code":"BE","name":"Bern / Berne"},"status":"Real"},{"key":"10139766","name":"Satteleggweg","postalCode":"3752","locality":"Wimmis","commune":{"key":"769","name":"Wimmis","shortName":"Wimmis"},"district":{"key":"249","name":"Verwaltungskreis Frutigen-Niedersimmental"},"canton":{"key":"2","code":"BE","name":"Bern / Berne"},"status":"Real"},{"key":"10011601","name":"Schindelfeldweg","postalCode":"3752","locality":"Wimmis","commune":{"key":"769","name":"Wimmis","shortName":"Wimmis"},"district":{"key":"249","name":"Verwaltungskreis Frutigen-Niedersimmental"},"canton":{"key":"2","code":"BE","name":"Bern / Berne"},"status":"Real"},{"key":"10187143","name":"Schlossgasse","postalCode":"3752","locality":"Wimmis","commune":{"key":"769","name":"Wimmis","shortName":"Wimmis"},"district":{"key":"249","name":"Verwaltungskreis Frutigen-Niedersimmental"},"canton":{"key":"2","code":"BE","name":"Bern / Berne"},"status":"Real"},{"key":"10220451","name":"Schmürzern","postalCode":"3752","locality":"Wimmis","commune":{"key":"769","name":"Wimmis","shortName":"Wimmis"},"district":{"key":"249","name":"Verwaltungskreis Frutigen-Niedersimmental"},"canton":{"key":"2","code":"BE","name":"Bern / Berne"},"status":"Real"},{"key":"10089234","name":"Schreinergasse","postalCode":"3752","locality":"Wimmis","commune":{"key":"769","name":"Wimmis","shortName":"Wimmis"},"district":{"key":"249","name":"Verwaltungskreis Frutigen-Niedersimmental"},"canton":{"key":"2","code":"BE","name":"Bern / Berne"},"status":"Real"},{"key":"10011602","name":"Schulhausstrasse","postalCode":"3752","locality":"Wimmis","commune":{"key":"769","name":"Wimmis","shortName":"Wimmis"},"district":{"key":"249","name":"Verwaltungskreis Frutigen-Niedersimmental"},"canton":{"key":"2","code":"BE","name":"Bern / Berne"},"status":"Real"},{"key":"10050892","name":"Schwarze Gasse","postalCode":"3752","locality":"Wimmis","commune":{"key":"769","name":"Wimmis","shortName":"Wimmis"},"district":{"key":"249","name":"Verwaltungskreis Frutigen-Niedersimmental"},"canton":{"key":"2","code":"BE","name":"Bern / Berne"},"status":"Real"},{"key":"10220454","name":"Schwendenweidli","postalCode":"3752","locality":"Wimmis","commune":{"key":"769","name":"Wimmis","shortName":"Wimmis"},"district":{"key":"249","name":"Verwaltungskreis Frutigen-Niedersimmental"},"canton":{"key":"2","code":"BE","name":"Bern / Berne"},"status":"Real"},{"key":"10220458","name":"Schwendiboden","postalCode":"3752","locality":"Wimmis","commune":{"key":"769","name":"Wimmis","shortName":"Wimmis"},"district":{"key":"249","name":"Verwaltungskreis Frutigen-Niedersimmental"},"canton":{"key":"2","code":"BE","name":"Bern / Berne"},"status":"Real"},{"key":"10220462","name":"Seitenwald","postalCode":"3752","locality":"Wimmis","commune":{"key":"769","name":"Wimmis","shortName":"Wimmis"},"district":{"key":"249","name":"Verwaltungskreis Frutigen-Niedersimmental"},"canton":{"key":"2","code":"BE","name":"Bern / Berne"},"status":"Real"},{"key":"10058140","name":"Sekundarschulweg","postalCode":"3752","locality":"Wimmis","commune":{"key":"769","name":"Wimmis","shortName":"Wimmis"},"district":{"key":"249","name":"Verwaltungskreis Frutigen-Niedersimmental"},"canton":{"key":"2","code":"BE","name":"Bern / Berne"},"status":"Real"},{"key":"10192296","name":"Simmenfluhstrasse","postalCode":"3752","locality":"Wimmis","commune":{"key":"769","name":"Wimmis","shortName":"Wimmis"},"district":{"key":"249","name":"Verwaltungskreis Frutigen-Niedersimmental"},"canton":{"key":"2","code":"BE","name":"Bern / Berne"},"status":"Real"},{"key":"10089235","name":"Simmentalstrasse","postalCode":"3752","locality":"Wimmis","commune":{"key":"769","name":"Wimmis","shortName":"Wimmis"},"district":{"key":"249","name":"Verwaltungskreis Frutigen-Niedersimmental"},"canton":{"key":"2","code":"BE","name":"Bern / Berne"},"status":"Real"},{"key":"10220466","name":"Spissen","postalCode":"3752","locality":"Wimmis","commune":{"key":"769","name":"Wimmis","shortName":"Wimmis"},"district":{"key":"249","name":"Verwaltungskreis Frutigen-Niedersimmental"},"canton":{"key":"2","code":"BE","name":"Bern / Berne"},"status":"Real"},{"key":"10220470","name":"Spitzmaad","postalCode":"3752","locality":"Wimmis","commune":{"key":"769","name":"Wimmis","shortName":"Wimmis"},"district":{"key":"249","name":"Verwaltungskreis Frutigen-Niedersimmental"},"canton":{"key":"2","code":"BE","name":"Bern / Berne"},"status":"Real"},{"key":"10011603","name":"Spycherweide","postalCode":"3752","locality":"Wimmis","commune":{"key":"769","name":"Wimmis","shortName":"Wimmis"},"district":{"key":"249","name":"Verwaltungskreis Frutigen-Niedersimmental"},"canton":{"key":"2","code":"BE","name":"Bern / Berne"},"status":"Real"},{"key":"10220473","name":"Staldenberg","postalCode":"3752","locality":"Wimmis","commune":{"key":"769","name":"Wimmis","shortName":"Wimmis"},"district":{"key":"249","name":"Verwaltungskreis Frutigen-Niedersimmental"},"canton":{"key":"2","code":"BE","name":"Bern / Berne"},"status":"Real"},{"key":"10050893","name":"Stationsweg","postalCode":"3752","locality":"Wimmis","commune":{"key":"769","name":"Wimmis","shortName":"Wimmis"},"district":{"key":"249","name":"Verwaltungskreis Frutigen-Niedersimmental"},"canton":{"key":"2","code":"BE","name":"Bern / Berne"},"status":"Real"},{"key":"10106722","name":"Steinigand","postalCode":"3752","locality":"Wimmis","commune":{"key":"769","name":"Wimmis","shortName":"Wimmis"},"district":{"key":"249","name":"Verwaltungskreis Frutigen-Niedersimmental"},"canton":{"key":"2","code":"BE","name":"Bern / Berne"},"status":"Real"},{"key":"10126650","name":"Steiniweg","postalCode":"3752","locality":"Wimmis","commune":{"key":"769","name":"Wimmis","shortName":"Wimmis"},"district":{"key":"249","name":"Verwaltungskreis Frutigen-Niedersimmental"},"canton":{"key":"2","code":"BE","name":"Bern / Berne"},"status":"Real"},{"key":"10220477","name":"Stotzrain","postalCode":"3752","locality":"Wimmis","commune":{"key":"769","name":"Wimmis","shortName":"Wimmis"},"district":{"key":"249","name":"Verwaltungskreis Frutigen-Niedersimmental"},"canton":{"key":"2","code":"BE","name":"Bern / Berne"},"status":"Real"},{"key":"10220481","name":"Tägerstein","postalCode":"3752","locality":"Wimmis","commune":{"key":"769","name":"Wimmis","shortName":"Wimmis"},"district":{"key":"249","name":"Verwaltungskreis Frutigen-Niedersimmental"},"canton":{"key":"2","code":"BE","name":"Bern / Berne"},"status":"Real"},{"key":"10011604","name":"Unterdorfstrasse","postalCode":"3752","locality":"Wimmis","commune":{"key":"769","name":"Wimmis","shortName":"Wimmis"},"district":{"key":"249","name":"Verwaltungskreis Frutigen-Niedersimmental"},"canton":{"key":"2","code":"BE","name":"Bern / Berne"},"status":"Real"},{"key":"10058141","name":"Untere Hütte","postalCode":"3752","locality":"Wimmis","commune":{"key":"769","name":"Wimmis","shortName":"Wimmis"},"district":{"key":"249","name":"Verwaltungskreis Frutigen-Niedersimmental"},"canton":{"key":"2","code":"BE","name":"Bern / Berne"},"status":"Real"},{"key":"10220730","name":"Weinmatte","postalCode":"3752","locality":"Wimmis","commune":{"key":"769","name":"Wimmis","shortName":"Wimmis"},"district":{"key":"249","name":"Verwaltungskreis Frutigen-Niedersimmental"},"canton":{"key":"2","code":"BE","name":"Bern / Berne"},"status":"Real"},{"key":"10089236","name":"Wymatteweg","postalCode":"3752","locality":"Wimmis","commune":{"key":"769","name":"Wimmis","shortName":"Wimmis"},"district":{"key":"249","name":"Verwaltungskreis Frutigen-Niedersimmental"},"canton":{"key":"2","code":"BE","name":"Bern / Berne"},"status":"Real"},{"key":"10220734","name":"Zäuneggwald","postalCode":"3752","locality":"Wimmis","commune":{"key":"769","name":"Wimmis","shortName":"Wimmis"},"district":{"key":"249","name":"Verwaltungskreis Frutigen-Niedersimmental"},"canton":{"key":"2","code":"BE","name":"Bern / Berne"},"status":"Real"},]