[{"name":"Abteiweg","postalCode":"36251","locality":"Bad Hersfeld","municipality":{"key":"06632002","name":"Bad Hersfeld, Kreisstadt","type":"Stadt"},"district":{"key":"06632","name":"Hersfeld-Rotenburg","type":"Landkreis"},"federalState":{"key":"06","name":"Hessen"}},{"name":"Abt-Michael-Str.","postalCode":"36251","locality":"Bad Hersfeld","municipality":{"key":"06632002","name":"Bad Hersfeld, Kreisstadt","type":"Stadt"},"district":{"key":"06632","name":"Hersfeld-Rotenburg","type":"Landkreis"},"federalState":{"key":"06","name":"Hessen"}},{"name":"Ahornweg","postalCode":"36251","locality":"Bad Hersfeld","municipality":{"key":"06632002","name":"Bad Hersfeld, Kreisstadt","type":"Stadt"},"district":{"key":"06632","name":"Hersfeld-Rotenburg","type":"Landkreis"},"federalState":{"key":"06","name":"Hessen"}},{"name":"Akazienweg","postalCode":"36251","locality":"Bad Hersfeld","municipality":{"key":"06632002","name":"Bad Hersfeld, Kreisstadt","type":"Stadt"},"district":{"key":"06632","name":"Hersfeld-Rotenburg","type":"Landkreis"},"federalState":{"key":"06","name":"Hessen"}},{"name":"Albert-Schweitzer-Str.","postalCode":"36251","locality":"Bad Hersfeld","municipality":{"key":"06632002","name":"Bad Hersfeld, Kreisstadt","type":"Stadt"},"district":{"key":"06632","name":"Hersfeld-Rotenburg","type":"Landkreis"},"federalState":{"key":"06","name":"Hessen"}},{"name":"Alpen-Hangweg","postalCode":"36251","locality":"Bad Hersfeld","municipality":{"key":"06632002","name":"Bad Hersfeld, Kreisstadt","type":"Stadt"},"district":{"key":"06632","name":"Hersfeld-Rotenburg","type":"Landkreis"},"federalState":{"key":"06","name":"Hessen"}},{"name":"Alpen-Talweg","postalCode":"36251","locality":"Bad Hersfeld","municipality":{"key":"06632002","name":"Bad Hersfeld, Kreisstadt","type":"Stadt"},"district":{"key":"06632","name":"Hersfeld-Rotenburg","type":"Landkreis"},"federalState":{"key":"06","name":"Hessen"}},{"name":"Alsfelder Str.","postalCode":"36251","locality":"Bad Hersfeld","municipality":{"key":"06632002","name":"Bad Hersfeld, Kreisstadt","type":"Stadt"},"district":{"key":"06632","name":"Hersfeld-Rotenburg","type":"Landkreis"},"federalState":{"key":"06","name":"Hessen"}},{"name":"Alter Kirchweg","postalCode":"36251","locality":"Bad Hersfeld","municipality":{"key":"06632002","name":"Bad Hersfeld, Kreisstadt","type":"Stadt"},"district":{"key":"06632","name":"Hersfeld-Rotenburg","type":"Landkreis"},"federalState":{"key":"06","name":"Hessen"}},{"name":"Alte Str.","postalCode":"36251","locality":"Bad Hersfeld","municipality":{"key":"06632002","name":"Bad Hersfeld, Kreisstadt","type":"Stadt"},"district":{"key":"06632","name":"Hersfeld-Rotenburg","type":"Landkreis"},"federalState":{"key":"06","name":"Hessen"}},{"name":"Am Angersbach","postalCode":"36251","locality":"Bad Hersfeld","municipality":{"key":"06632002","name":"Bad Hersfeld, Kreisstadt","type":"Stadt"},"district":{"key":"06632","name":"Hersfeld-Rotenburg","type":"Landkreis"},"federalState":{"key":"06","name":"Hessen"}},{"name":"Amazon-Str.","postalCode":"36251","locality":"Bad Hersfeld","municipality":{"key":"06632002","name":"Bad Hersfeld, Kreisstadt","type":"Stadt"},"district":{"key":"06632","name":"Hersfeld-Rotenburg","type":"Landkreis"},"federalState":{"key":"06","name":"Hessen"}},{"name":"Am Baumgarten","postalCode":"36251","locality":"Bad Hersfeld","municipality":{"key":"06632002","name":"Bad Hersfeld, Kreisstadt","type":"Stadt"},"district":{"key":"06632","name":"Hersfeld-Rotenburg","type":"Landkreis"},"federalState":{"key":"06","name":"Hessen"}},{"name":"Am Berg","postalCode":"36251","locality":"Bad Hersfeld","municipality":{"key":"06632002","name":"Bad Hersfeld, Kreisstadt","type":"Stadt"},"district":{"key":"06632","name":"Hersfeld-Rotenburg","type":"Landkreis"},"federalState":{"key":"06","name":"Hessen"}},{"name":"Am Birkenrain","postalCode":"36251","locality":"Bad Hersfeld","municipality":{"key":"06632002","name":"Bad Hersfeld, Kreisstadt","type":"Stadt"},"district":{"key":"06632","name":"Hersfeld-Rotenburg","type":"Landkreis"},"federalState":{"key":"06","name":"Hessen"}},{"name":"Am Borngraben","postalCode":"36251","locality":"Bad Hersfeld","municipality":{"key":"06632002","name":"Bad Hersfeld, Kreisstadt","type":"Stadt"},"district":{"key":"06632","name":"Hersfeld-Rotenburg","type":"Landkreis"},"federalState":{"key":"06","name":"Hessen"}},{"name":"Am Brunnen","postalCode":"36251","locality":"Bad Hersfeld","municipality":{"key":"06632002","name":"Bad Hersfeld, Kreisstadt","type":"Stadt"},"district":{"key":"06632","name":"Hersfeld-Rotenburg","type":"Landkreis"},"federalState":{"key":"06","name":"Hessen"}},{"name":"Am Düngberg","postalCode":"36251","locality":"Bad Hersfeld","municipality":{"key":"06632002","name":"Bad Hersfeld, Kreisstadt","type":"Stadt"},"district":{"key":"06632","name":"Hersfeld-Rotenburg","type":"Landkreis"},"federalState":{"key":"06","name":"Hessen"}},{"name":"Am Ententeich","postalCode":"36251","locality":"Bad Hersfeld","municipality":{"key":"06632002","name":"Bad Hersfeld, Kreisstadt","type":"Stadt"},"district":{"key":"06632","name":"Hersfeld-Rotenburg","type":"Landkreis"},"federalState":{"key":"06","name":"Hessen"}},{"name":"Am Frauenberg","postalCode":"36251","locality":"Bad Hersfeld","municipality":{"key":"06632002","name":"Bad Hersfeld, Kreisstadt","type":"Stadt"},"district":{"key":"06632","name":"Hersfeld-Rotenburg","type":"Landkreis"},"federalState":{"key":"06","name":"Hessen"}},{"name":"Am Giegenberg","postalCode":"36251","locality":"Bad Hersfeld","municipality":{"key":"06632002","name":"Bad Hersfeld, Kreisstadt","type":"Stadt"},"district":{"key":"06632","name":"Hersfeld-Rotenburg","type":"Landkreis"},"federalState":{"key":"06","name":"Hessen"}},{"name":"Am Glanzenrain","postalCode":"36251","locality":"Bad Hersfeld","municipality":{"key":"06632002","name":"Bad Hersfeld, Kreisstadt","type":"Stadt"},"district":{"key":"06632","name":"Hersfeld-Rotenburg","type":"Landkreis"},"federalState":{"key":"06","name":"Hessen"}},{"name":"Am Hainberg","postalCode":"36251","locality":"Bad Hersfeld","municipality":{"key":"06632002","name":"Bad Hersfeld, Kreisstadt","type":"Stadt"},"district":{"key":"06632","name":"Hersfeld-Rotenburg","type":"Landkreis"},"federalState":{"key":"06","name":"Hessen"}},{"name":"Am Hang","postalCode":"36251","locality":"Bad Hersfeld","municipality":{"key":"06632002","name":"Bad Hersfeld, Kreisstadt","type":"Stadt"},"district":{"key":"06632","name":"Hersfeld-Rotenburg","type":"Landkreis"},"federalState":{"key":"06","name":"Hessen"}},{"name":"Am Hasenrain","postalCode":"36251","locality":"Bad Hersfeld","municipality":{"key":"06632002","name":"Bad Hersfeld, Kreisstadt","type":"Stadt"},"district":{"key":"06632","name":"Hersfeld-Rotenburg","type":"Landkreis"},"federalState":{"key":"06","name":"Hessen"}},{"name":"Am Helfersgrund","postalCode":"36251","locality":"Bad Hersfeld","municipality":{"key":"06632002","name":"Bad Hersfeld, Kreisstadt","type":"Stadt"},"district":{"key":"06632","name":"Hersfeld-Rotenburg","type":"Landkreis"},"federalState":{"key":"06","name":"Hessen"}},{"name":"Am Heyrings","postalCode":"36251","locality":"Bad Hersfeld","municipality":{"key":"06632002","name":"Bad Hersfeld, Kreisstadt","type":"Stadt"},"district":{"key":"06632","name":"Hersfeld-Rotenburg","type":"Landkreis"},"federalState":{"key":"06","name":"Hessen"}},{"name":"Am Hopfengarten","postalCode":"36251","locality":"Bad Hersfeld","municipality":{"key":"06632002","name":"Bad Hersfeld, Kreisstadt","type":"Stadt"},"district":{"key":"06632","name":"Hersfeld-Rotenburg","type":"Landkreis"},"federalState":{"key":"06","name":"Hessen"}},{"name":"Am Jägersgraben","postalCode":"36251","locality":"Bad Hersfeld","municipality":{"key":"06632002","name":"Bad Hersfeld, Kreisstadt","type":"Stadt"},"district":{"key":"06632","name":"Hersfeld-Rotenburg","type":"Landkreis"},"federalState":{"key":"06","name":"Hessen"}},{"name":"Am Johannesberg","postalCode":"36251","locality":"Bad Hersfeld","municipality":{"key":"06632002","name":"Bad Hersfeld, Kreisstadt","type":"Stadt"},"district":{"key":"06632","name":"Hersfeld-Rotenburg","type":"Landkreis"},"federalState":{"key":"06","name":"Hessen"}},{"name":"Am Karspich","postalCode":"36251","locality":"Bad Hersfeld","municipality":{"key":"06632002","name":"Bad Hersfeld, Kreisstadt","type":"Stadt"},"district":{"key":"06632","name":"Hersfeld-Rotenburg","type":"Landkreis"},"federalState":{"key":"06","name":"Hessen"}},{"name":"Am Kirchensteg","postalCode":"36251","locality":"Bad Hersfeld","municipality":{"key":"06632002","name":"Bad Hersfeld, Kreisstadt","type":"Stadt"},"district":{"key":"06632","name":"Hersfeld-Rotenburg","type":"Landkreis"},"federalState":{"key":"06","name":"Hessen"}},{"name":"Am Klausturm","postalCode":"36251","locality":"Bad Hersfeld","municipality":{"key":"06632002","name":"Bad Hersfeld, Kreisstadt","type":"Stadt"},"district":{"key":"06632","name":"Hersfeld-Rotenburg","type":"Landkreis"},"federalState":{"key":"06","name":"Hessen"}},{"name":"Am Kleußen","postalCode":"36251","locality":"Bad Hersfeld","municipality":{"key":"06632002","name":"Bad Hersfeld, Kreisstadt","type":"Stadt"},"district":{"key":"06632","name":"Hersfeld-Rotenburg","type":"Landkreis"},"federalState":{"key":"06","name":"Hessen"}},{"name":"Am Klosterbrunnen","postalCode":"36251","locality":"Bad Hersfeld","municipality":{"key":"06632002","name":"Bad Hersfeld, Kreisstadt","type":"Stadt"},"district":{"key":"06632","name":"Hersfeld-Rotenburg","type":"Landkreis"},"federalState":{"key":"06","name":"Hessen"}},{"name":"Am Küppel","postalCode":"36251","locality":"Bad Hersfeld","municipality":{"key":"06632002","name":"Bad Hersfeld, Kreisstadt","type":"Stadt"},"district":{"key":"06632","name":"Hersfeld-Rotenburg","type":"Landkreis"},"federalState":{"key":"06","name":"Hessen"}},{"name":"Am Kurpark","postalCode":"36251","locality":"Bad Hersfeld","municipality":{"key":"06632002","name":"Bad Hersfeld, Kreisstadt","type":"Stadt"},"district":{"key":"06632","name":"Hersfeld-Rotenburg","type":"Landkreis"},"federalState":{"key":"06","name":"Hessen"}},{"name":"Am Laufholz","postalCode":"36251","locality":"Bad Hersfeld","municipality":{"key":"06632002","name":"Bad Hersfeld, Kreisstadt","type":"Stadt"},"district":{"key":"06632","name":"Hersfeld-Rotenburg","type":"Landkreis"},"federalState":{"key":"06","name":"Hessen"}},{"name":"Am Lax","postalCode":"36251","locality":"Bad Hersfeld","municipality":{"key":"06632002","name":"Bad Hersfeld, Kreisstadt","type":"Stadt"},"district":{"key":"06632","name":"Hersfeld-Rotenburg","type":"Landkreis"},"federalState":{"key":"06","name":"Hessen"}},{"name":"Am Lindeneck","postalCode":"36251","locality":"Bad Hersfeld","municipality":{"key":"06632002","name":"Bad Hersfeld, Kreisstadt","type":"Stadt"},"district":{"key":"06632","name":"Hersfeld-Rotenburg","type":"Landkreis"},"federalState":{"key":"06","name":"Hessen"}},{"name":"Am Markt","postalCode":"36251","locality":"Bad Hersfeld","municipality":{"key":"06632002","name":"Bad Hersfeld, Kreisstadt","type":"Stadt"},"district":{"key":"06632","name":"Hersfeld-Rotenburg","type":"Landkreis"},"federalState":{"key":"06","name":"Hessen"}},{"name":"Am Merßeberg","postalCode":"36251","locality":"Bad Hersfeld","municipality":{"key":"06632002","name":"Bad Hersfeld, Kreisstadt","type":"Stadt"},"district":{"key":"06632","name":"Hersfeld-Rotenburg","type":"Landkreis"},"federalState":{"key":"06","name":"Hessen"}},{"name":"Am Mühlrain","postalCode":"36251","locality":"Bad Hersfeld","municipality":{"key":"06632002","name":"Bad Hersfeld, Kreisstadt","type":"Stadt"},"district":{"key":"06632","name":"Hersfeld-Rotenburg","type":"Landkreis"},"federalState":{"key":"06","name":"Hessen"}},{"name":"Am Obersberg","postalCode":"36251","locality":"Bad Hersfeld","municipality":{"key":"06632002","name":"Bad Hersfeld, Kreisstadt","type":"Stadt"},"district":{"key":"06632","name":"Hersfeld-Rotenburg","type":"Landkreis"},"federalState":{"key":"06","name":"Hessen"}},{"name":"Am Perfort","postalCode":"36251","locality":"Bad Hersfeld","municipality":{"key":"06632002","name":"Bad Hersfeld, Kreisstadt","type":"Stadt"},"district":{"key":"06632","name":"Hersfeld-Rotenburg","type":"Landkreis"},"federalState":{"key":"06","name":"Hessen"}},{"name":"Am Rainchen","postalCode":"36251","locality":"Bad Hersfeld","municipality":{"key":"06632002","name":"Bad Hersfeld, Kreisstadt","type":"Stadt"},"district":{"key":"06632","name":"Hersfeld-Rotenburg","type":"Landkreis"},"federalState":{"key":"06","name":"Hessen"}},{"name":"Am Rehgarten","postalCode":"36251","locality":"Bad Hersfeld","municipality":{"key":"06632002","name":"Bad Hersfeld, Kreisstadt","type":"Stadt"},"district":{"key":"06632","name":"Hersfeld-Rotenburg","type":"Landkreis"},"federalState":{"key":"06","name":"Hessen"}},{"name":"Am Roten Graben","postalCode":"36251","locality":"Bad Hersfeld","municipality":{"key":"06632002","name":"Bad Hersfeld, Kreisstadt","type":"Stadt"},"district":{"key":"06632","name":"Hersfeld-Rotenburg","type":"Landkreis"},"federalState":{"key":"06","name":"Hessen"}},{"name":"Am Schieferstein","postalCode":"36251","locality":"Bad Hersfeld","municipality":{"key":"06632002","name":"Bad Hersfeld, Kreisstadt","type":"Stadt"},"district":{"key":"06632","name":"Hersfeld-Rotenburg","type":"Landkreis"},"federalState":{"key":"06","name":"Hessen"}},{"name":"Am Schloß Eichhof","postalCode":"36251","locality":"Bad Hersfeld","municipality":{"key":"06632002","name":"Bad Hersfeld, Kreisstadt","type":"Stadt"},"district":{"key":"06632","name":"Hersfeld-Rotenburg","type":"Landkreis"},"federalState":{"key":"06","name":"Hessen"}},{"name":"Bachweg","postalCode":"36251","locality":"Bad Hersfeld","municipality":{"key":"06632002","name":"Bad Hersfeld, Kreisstadt","type":"Stadt"},"district":{"key":"06632","name":"Hersfeld-Rotenburg","type":"Landkreis"},"federalState":{"key":"06","name":"Hessen"}},{"name":"Badestube","postalCode":"36251","locality":"Bad Hersfeld","municipality":{"key":"06632002","name":"Bad Hersfeld, Kreisstadt","type":"Stadt"},"district":{"key":"06632","name":"Hersfeld-Rotenburg","type":"Landkreis"},"federalState":{"key":"06","name":"Hessen"}},{"name":"Bahnhofsplatz","postalCode":"36251","locality":"Bad Hersfeld","municipality":{"key":"06632002","name":"Bad Hersfeld, Kreisstadt","type":"Stadt"},"district":{"key":"06632","name":"Hersfeld-Rotenburg","type":"Landkreis"},"federalState":{"key":"06","name":"Hessen"}},{"name":"Bahnhofstr.","postalCode":"36251","locality":"Bad Hersfeld","municipality":{"key":"06632002","name":"Bad Hersfeld, Kreisstadt","type":"Stadt"},"district":{"key":"06632","name":"Hersfeld-Rotenburg","type":"Landkreis"},"federalState":{"key":"06","name":"Hessen"}},{"name":"Banater Str.","postalCode":"36251","locality":"Bad Hersfeld","municipality":{"key":"06632002","name":"Bad Hersfeld, Kreisstadt","type":"Stadt"},"district":{"key":"06632","name":"Hersfeld-Rotenburg","type":"Landkreis"},"federalState":{"key":"06","name":"Hessen"}},{"name":"Bärengasse","postalCode":"36251","locality":"Bad Hersfeld","municipality":{"key":"06632002","name":"Bad Hersfeld, Kreisstadt","type":"Stadt"},"district":{"key":"06632","name":"Hersfeld-Rotenburg","type":"Landkreis"},"federalState":{"key":"06","name":"Hessen"}},{"name":"Baumschule","postalCode":"36251","locality":"Bad Hersfeld","municipality":{"key":"06632002","name":"Bad Hersfeld, Kreisstadt","type":"Stadt"},"district":{"key":"06632","name":"Hersfeld-Rotenburg","type":"Landkreis"},"federalState":{"key":"06","name":"Hessen"}},{"name":"Beckersgraben","postalCode":"36251","locality":"Bad Hersfeld","municipality":{"key":"06632002","name":"Bad Hersfeld, Kreisstadt","type":"Stadt"},"district":{"key":"06632","name":"Hersfeld-Rotenburg","type":"Landkreis"},"federalState":{"key":"06","name":"Hessen"}},{"name":"Benno-Schilde-Platz","postalCode":"36251","locality":"Bad Hersfeld","municipality":{"key":"06632002","name":"Bad Hersfeld, Kreisstadt","type":"Stadt"},"district":{"key":"06632","name":"Hersfeld-Rotenburg","type":"Landkreis"},"federalState":{"key":"06","name":"Hessen"}},{"name":"Benno-Schilde-Str.","postalCode":"36251","locality":"Bad Hersfeld","municipality":{"key":"06632002","name":"Bad Hersfeld, Kreisstadt","type":"Stadt"},"district":{"key":"06632","name":"Hersfeld-Rotenburg","type":"Landkreis"},"federalState":{"key":"06","name":"Hessen"}},{"name":"Berberitzenweg","postalCode":"36251","locality":"Bad Hersfeld","municipality":{"key":"06632002","name":"Bad Hersfeld, Kreisstadt","type":"Stadt"},"district":{"key":"06632","name":"Hersfeld-Rotenburg","type":"Landkreis"},"federalState":{"key":"06","name":"Hessen"}},{"name":"Berliner Str.","postalCode":"36251","locality":"Bad Hersfeld","municipality":{"key":"06632002","name":"Bad Hersfeld, Kreisstadt","type":"Stadt"},"district":{"key":"06632","name":"Hersfeld-Rotenburg","type":"Landkreis"},"federalState":{"key":"06","name":"Hessen"}},{"name":"Biengraben","postalCode":"36251","locality":"Bad Hersfeld","municipality":{"key":"06632002","name":"Bad Hersfeld, Kreisstadt","type":"Stadt"},"district":{"key":"06632","name":"Hersfeld-Rotenburg","type":"Landkreis"},"federalState":{"key":"06","name":"Hessen"}},{"name":"Bienrückstr.","postalCode":"36251","locality":"Bad Hersfeld","municipality":{"key":"06632002","name":"Bad Hersfeld, Kreisstadt","type":"Stadt"},"district":{"key":"06632","name":"Hersfeld-Rotenburg","type":"Landkreis"},"federalState":{"key":"06","name":"Hessen"}},{"name":"Birkenweg","postalCode":"36251","locality":"Bad Hersfeld","municipality":{"key":"06632002","name":"Bad Hersfeld, Kreisstadt","type":"Stadt"},"district":{"key":"06632","name":"Hersfeld-Rotenburg","type":"Landkreis"},"federalState":{"key":"06","name":"Hessen"}},{"name":"Bismarckstr.","postalCode":"36251","locality":"Bad Hersfeld","municipality":{"key":"06632002","name":"Bad Hersfeld, Kreisstadt","type":"Stadt"},"district":{"key":"06632","name":"Hersfeld-Rotenburg","type":"Landkreis"},"federalState":{"key":"06","name":"Hessen"}},{"name":"Blumenweg","postalCode":"36251","locality":"Bad Hersfeld","municipality":{"key":"06632002","name":"Bad Hersfeld, Kreisstadt","type":"Stadt"},"district":{"key":"06632","name":"Hersfeld-Rotenburg","type":"Landkreis"},"federalState":{"key":"06","name":"Hessen"}},{"name":"Bommhutsweg","postalCode":"36251","locality":"Bad Hersfeld","municipality":{"key":"06632002","name":"Bad Hersfeld, Kreisstadt","type":"Stadt"},"district":{"key":"06632","name":"Hersfeld-Rotenburg","type":"Landkreis"},"federalState":{"key":"06","name":"Hessen"}},{"name":"Bornbergstr.","postalCode":"36251","locality":"Bad Hersfeld","municipality":{"key":"06632002","name":"Bad Hersfeld, Kreisstadt","type":"Stadt"},"district":{"key":"06632","name":"Hersfeld-Rotenburg","type":"Landkreis"},"federalState":{"key":"06","name":"Hessen"}},{"name":"Bornweg","postalCode":"36251","locality":"Bad Hersfeld","municipality":{"key":"06632002","name":"Bad Hersfeld, Kreisstadt","type":"Stadt"},"district":{"key":"06632","name":"Hersfeld-Rotenburg","type":"Landkreis"},"federalState":{"key":"06","name":"Hessen"}},{"name":"Brandenburger Str.","postalCode":"36251","locality":"Bad Hersfeld","municipality":{"key":"06632002","name":"Bad Hersfeld, Kreisstadt","type":"Stadt"},"district":{"key":"06632","name":"Hersfeld-Rotenburg","type":"Landkreis"},"federalState":{"key":"06","name":"Hessen"}},{"name":"Breitenstr.","postalCode":"36251","locality":"Bad Hersfeld","municipality":{"key":"06632002","name":"Bad Hersfeld, Kreisstadt","type":"Stadt"},"district":{"key":"06632","name":"Hersfeld-Rotenburg","type":"Landkreis"},"federalState":{"key":"06","name":"Hessen"}},{"name":"Breitzbachstr.","postalCode":"36251","locality":"Bad Hersfeld","municipality":{"key":"06632002","name":"Bad Hersfeld, Kreisstadt","type":"Stadt"},"district":{"key":"06632","name":"Hersfeld-Rotenburg","type":"Landkreis"},"federalState":{"key":"06","name":"Hessen"}},{"name":"Breslauer Str.","postalCode":"36251","locality":"Bad Hersfeld","municipality":{"key":"06632002","name":"Bad Hersfeld, Kreisstadt","type":"Stadt"},"district":{"key":"06632","name":"Hersfeld-Rotenburg","type":"Landkreis"},"federalState":{"key":"06","name":"Hessen"}},{"name":"Brink","postalCode":"36251","locality":"Bad Hersfeld","municipality":{"key":"06632002","name":"Bad Hersfeld, Kreisstadt","type":"Stadt"},"district":{"key":"06632","name":"Hersfeld-Rotenburg","type":"Landkreis"},"federalState":{"key":"06","name":"Hessen"}},{"name":"Bromberger Str.","postalCode":"36251","locality":"Bad Hersfeld","municipality":{"key":"06632002","name":"Bad Hersfeld, Kreisstadt","type":"Stadt"},"district":{"key":"06632","name":"Hersfeld-Rotenburg","type":"Landkreis"},"federalState":{"key":"06","name":"Hessen"}},{"name":"Brücke","postalCode":"36251","locality":"Bad Hersfeld","municipality":{"key":"06632002","name":"Bad Hersfeld, Kreisstadt","type":"Stadt"},"district":{"key":"06632","name":"Hersfeld-Rotenburg","type":"Landkreis"},"federalState":{"key":"06","name":"Hessen"}},{"name":"Brückenmüllerstr.","postalCode":"36251","locality":"Bad Hersfeld","municipality":{"key":"06632002","name":"Bad Hersfeld, Kreisstadt","type":"Stadt"},"district":{"key":"06632","name":"Hersfeld-Rotenburg","type":"Landkreis"},"federalState":{"key":"06","name":"Hessen"}},{"name":"Brückenstr.","postalCode":"36251","locality":"Bad Hersfeld","municipality":{"key":"06632002","name":"Bad Hersfeld, Kreisstadt","type":"Stadt"},"district":{"key":"06632","name":"Hersfeld-Rotenburg","type":"Landkreis"},"federalState":{"key":"06","name":"Hessen"}},{"name":"Brüdergasse","postalCode":"36251","locality":"Bad Hersfeld","municipality":{"key":"06632002","name":"Bad Hersfeld, Kreisstadt","type":"Stadt"},"district":{"key":"06632","name":"Hersfeld-Rotenburg","type":"Landkreis"},"federalState":{"key":"06","name":"Hessen"}},{"name":"Brunnengasse","postalCode":"36251","locality":"Bad Hersfeld","municipality":{"key":"06632002","name":"Bad Hersfeld, Kreisstadt","type":"Stadt"},"district":{"key":"06632","name":"Hersfeld-Rotenburg","type":"Landkreis"},"federalState":{"key":"06","name":"Hessen"}},{"name":"Buchenweg","postalCode":"36251","locality":"Bad Hersfeld","municipality":{"key":"06632002","name":"Bad Hersfeld, Kreisstadt","type":"Stadt"},"district":{"key":"06632","name":"Hersfeld-Rotenburg","type":"Landkreis"},"federalState":{"key":"06","name":"Hessen"}},{"name":"Buchsbaumweg","postalCode":"36251","locality":"Bad Hersfeld","municipality":{"key":"06632002","name":"Bad Hersfeld, Kreisstadt","type":"Stadt"},"district":{"key":"06632","name":"Hersfeld-Rotenburg","type":"Landkreis"},"federalState":{"key":"06","name":"Hessen"}},{"name":"Burggasse","postalCode":"36251","locality":"Bad Hersfeld","municipality":{"key":"06632002","name":"Bad Hersfeld, Kreisstadt","type":"Stadt"},"district":{"key":"06632","name":"Hersfeld-Rotenburg","type":"Landkreis"},"federalState":{"key":"06","name":"Hessen"}},{"name":"Carl-Benz-Str.","postalCode":"36251","locality":"Bad Hersfeld","municipality":{"key":"06632002","name":"Bad Hersfeld, Kreisstadt","type":"Stadt"},"district":{"key":"06632","name":"Hersfeld-Rotenburg","type":"Landkreis"},"federalState":{"key":"06","name":"Hessen"}},{"name":"Carl-Strauß-Anlage","postalCode":"36251","locality":"Bad Hersfeld","municipality":{"key":"06632002","name":"Bad Hersfeld, Kreisstadt","type":"Stadt"},"district":{"key":"06632","name":"Hersfeld-Rotenburg","type":"Landkreis"},"federalState":{"key":"06","name":"Hessen"}},{"name":"Chattenstr.","postalCode":"36251","locality":"Bad Hersfeld","municipality":{"key":"06632002","name":"Bad Hersfeld, Kreisstadt","type":"Stadt"},"district":{"key":"06632","name":"Hersfeld-Rotenburg","type":"Landkreis"},"federalState":{"key":"06","name":"Hessen"}},{"name":"Chemnitzer Str.","postalCode":"36251","locality":"Bad Hersfeld","municipality":{"key":"06632002","name":"Bad Hersfeld, Kreisstadt","type":"Stadt"},"district":{"key":"06632","name":"Hersfeld-Rotenburg","type":"Landkreis"},"federalState":{"key":"06","name":"Hessen"}},{"name":"Conrad-Mel-Str.","postalCode":"36251","locality":"Bad Hersfeld","municipality":{"key":"06632002","name":"Bad Hersfeld, Kreisstadt","type":"Stadt"},"district":{"key":"06632","name":"Hersfeld-Rotenburg","type":"Landkreis"},"federalState":{"key":"06","name":"Hessen"}},{"name":"Danziger Str.","postalCode":"36251","locality":"Bad Hersfeld","municipality":{"key":"06632002","name":"Bad Hersfeld, Kreisstadt","type":"Stadt"},"district":{"key":"06632","name":"Hersfeld-Rotenburg","type":"Landkreis"},"federalState":{"key":"06","name":"Hessen"}},{"name":"Dippelstr.","postalCode":"36251","locality":"Bad Hersfeld","municipality":{"key":"06632002","name":"Bad Hersfeld, Kreisstadt","type":"Stadt"},"district":{"key":"06632","name":"Hersfeld-Rotenburg","type":"Landkreis"},"federalState":{"key":"06","name":"Hessen"}},{"name":"Douglasienweg","postalCode":"36251","locality":"Bad Hersfeld","municipality":{"key":"06632002","name":"Bad Hersfeld, Kreisstadt","type":"Stadt"},"district":{"key":"06632","name":"Hersfeld-Rotenburg","type":"Landkreis"},"federalState":{"key":"06","name":"Hessen"}},{"name":"Dreherstr.","postalCode":"36251","locality":"Bad Hersfeld","municipality":{"key":"06632002","name":"Bad Hersfeld, Kreisstadt","type":"Stadt"},"district":{"key":"06632","name":"Hersfeld-Rotenburg","type":"Landkreis"},"federalState":{"key":"06","name":"Hessen"}},{"name":"Dreiplattenweg","postalCode":"36251","locality":"Bad Hersfeld","municipality":{"key":"06632002","name":"Bad Hersfeld, Kreisstadt","type":"Stadt"},"district":{"key":"06632","name":"Hersfeld-Rotenburg","type":"Landkreis"},"federalState":{"key":"06","name":"Hessen"}},{"name":"Dresdener Str.","postalCode":"36251","locality":"Bad Hersfeld","municipality":{"key":"06632002","name":"Bad Hersfeld, Kreisstadt","type":"Stadt"},"district":{"key":"06632","name":"Hersfeld-Rotenburg","type":"Landkreis"},"federalState":{"key":"06","name":"Hessen"}},{"name":"Dr.-Ronge-Weg","postalCode":"36251","locality":"Bad Hersfeld","municipality":{"key":"06632002","name":"Bad Hersfeld, Kreisstadt","type":"Stadt"},"district":{"key":"06632","name":"Hersfeld-Rotenburg","type":"Landkreis"},"federalState":{"key":"06","name":"Hessen"}},{"name":"Dudenstr.","postalCode":"36251","locality":"Bad Hersfeld","municipality":{"key":"06632002","name":"Bad Hersfeld, Kreisstadt","type":"Stadt"},"district":{"key":"06632","name":"Hersfeld-Rotenburg","type":"Landkreis"},"federalState":{"key":"06","name":"Hessen"}},{"name":"Efeuweg","postalCode":"36251","locality":"Bad Hersfeld","municipality":{"key":"06632002","name":"Bad Hersfeld, Kreisstadt","type":"Stadt"},"district":{"key":"06632","name":"Hersfeld-Rotenburg","type":"Landkreis"},"federalState":{"key":"06","name":"Hessen"}},{"name":"Eibenweg","postalCode":"36251","locality":"Bad Hersfeld","municipality":{"key":"06632002","name":"Bad Hersfeld, Kreisstadt","type":"Stadt"},"district":{"key":"06632","name":"Hersfeld-Rotenburg","type":"Landkreis"},"federalState":{"key":"06","name":"Hessen"}},{"name":"Eichhofplatz","postalCode":"36251","locality":"Bad Hersfeld","municipality":{"key":"06632002","name":"Bad Hersfeld, Kreisstadt","type":"Stadt"},"district":{"key":"06632","name":"Hersfeld-Rotenburg","type":"Landkreis"},"federalState":{"key":"06","name":"Hessen"}},{"name":"Eichhofstr.","postalCode":"36251","locality":"Bad Hersfeld","municipality":{"key":"06632002","name":"Bad Hersfeld, Kreisstadt","type":"Stadt"},"district":{"key":"06632","name":"Hersfeld-Rotenburg","type":"Landkreis"},"federalState":{"key":"06","name":"Hessen"}},{"name":"Eisenacher Str.","postalCode":"36251","locality":"Bad Hersfeld","municipality":{"key":"06632002","name":"Bad Hersfeld, Kreisstadt","type":"Stadt"},"district":{"key":"06632","name":"Hersfeld-Rotenburg","type":"Landkreis"},"federalState":{"key":"06","name":"Hessen"}},{"name":"Eisenbergstr.","postalCode":"36251","locality":"Bad Hersfeld","municipality":{"key":"06632002","name":"Bad Hersfeld, Kreisstadt","type":"Stadt"},"district":{"key":"06632","name":"Hersfeld-Rotenburg","type":"Landkreis"},"federalState":{"key":"06","name":"Hessen"}},{"name":"Eisfeld","postalCode":"36251","locality":"Bad Hersfeld","municipality":{"key":"06632002","name":"Bad Hersfeld, Kreisstadt","type":"Stadt"},"district":{"key":"06632","name":"Hersfeld-Rotenburg","type":"Landkreis"},"federalState":{"key":"06","name":"Hessen"}},{"name":"Elisabeth-Selbert-Str.","postalCode":"36251","locality":"Bad Hersfeld","municipality":{"key":"06632002","name":"Bad Hersfeld, Kreisstadt","type":"Stadt"},"district":{"key":"06632","name":"Hersfeld-Rotenburg","type":"Landkreis"},"federalState":{"key":"06","name":"Hessen"}},{"name":"Erfurter Str.","postalCode":"36251","locality":"Bad Hersfeld","municipality":{"key":"06632002","name":"Bad Hersfeld, Kreisstadt","type":"Stadt"},"district":{"key":"06632","name":"Hersfeld-Rotenburg","type":"Landkreis"},"federalState":{"key":"06","name":"Hessen"}},{"name":"Erlenweg","postalCode":"36251","locality":"Bad Hersfeld","municipality":{"key":"06632002","name":"Bad Hersfeld, Kreisstadt","type":"Stadt"},"district":{"key":"06632","name":"Hersfeld-Rotenburg","type":"Landkreis"},"federalState":{"key":"06","name":"Hessen"}},{"name":"Ernst-Reuter-Str.","postalCode":"36251","locality":"Bad Hersfeld","municipality":{"key":"06632002","name":"Bad Hersfeld, Kreisstadt","type":"Stadt"},"district":{"key":"06632","name":"Hersfeld-Rotenburg","type":"Landkreis"},"federalState":{"key":"06","name":"Hessen"}},{"name":"Ernst-von-Wildenbruch-Str.","postalCode":"36251","locality":"Bad Hersfeld","municipality":{"key":"06632002","name":"Bad Hersfeld, Kreisstadt","type":"Stadt"},"district":{"key":"06632","name":"Hersfeld-Rotenburg","type":"Landkreis"},"federalState":{"key":"06","name":"Hessen"}},{"name":"Eschenweg","postalCode":"36251","locality":"Bad Hersfeld","municipality":{"key":"06632002","name":"Bad Hersfeld, Kreisstadt","type":"Stadt"},"district":{"key":"06632","name":"Hersfeld-Rotenburg","type":"Landkreis"},"federalState":{"key":"06","name":"Hessen"}},{"name":"Europaallee","postalCode":"36251","locality":"Bad Hersfeld","municipality":{"key":"06632002","name":"Bad Hersfeld, Kreisstadt","type":"Stadt"},"district":{"key":"06632","name":"Hersfeld-Rotenburg","type":"Landkreis"},"federalState":{"key":"06","name":"Hessen"}},{"name":"Europakreisel","postalCode":"36251","locality":"Bad Hersfeld","municipality":{"key":"06632002","name":"Bad Hersfeld, Kreisstadt","type":"Stadt"},"district":{"key":"06632","name":"Hersfeld-Rotenburg","type":"Landkreis"},"federalState":{"key":"06","name":"Hessen"}},{"name":"Falkenbachstr.","postalCode":"36251","locality":"Bad Hersfeld","municipality":{"key":"06632002","name":"Bad Hersfeld, Kreisstadt","type":"Stadt"},"district":{"key":"06632","name":"Hersfeld-Rotenburg","type":"Landkreis"},"federalState":{"key":"06","name":"Hessen"}},{"name":"Falkenblick","postalCode":"36251","locality":"Bad Hersfeld","municipality":{"key":"06632002","name":"Bad Hersfeld, Kreisstadt","type":"Stadt"},"district":{"key":"06632","name":"Hersfeld-Rotenburg","type":"Landkreis"},"federalState":{"key":"06","name":"Hessen"}},{"name":"Färberweg","postalCode":"36251","locality":"Bad Hersfeld","municipality":{"key":"06632002","name":"Bad Hersfeld, Kreisstadt","type":"Stadt"},"district":{"key":"06632","name":"Hersfeld-Rotenburg","type":"Landkreis"},"federalState":{"key":"06","name":"Hessen"}},{"name":"Fichtenweg","postalCode":"36251","locality":"Bad Hersfeld","municipality":{"key":"06632002","name":"Bad Hersfeld, Kreisstadt","type":"Stadt"},"district":{"key":"06632","name":"Hersfeld-Rotenburg","type":"Landkreis"},"federalState":{"key":"06","name":"Hessen"}},{"name":"Fiddelhof","postalCode":"36251","locality":"Bad Hersfeld","municipality":{"key":"06632002","name":"Bad Hersfeld, Kreisstadt","type":"Stadt"},"district":{"key":"06632","name":"Hersfeld-Rotenburg","type":"Landkreis"},"federalState":{"key":"06","name":"Hessen"}},{"name":"Finkenweg","postalCode":"36251","locality":"Bad Hersfeld","municipality":{"key":"06632002","name":"Bad Hersfeld, Kreisstadt","type":"Stadt"},"district":{"key":"06632","name":"Hersfeld-Rotenburg","type":"Landkreis"},"federalState":{"key":"06","name":"Hessen"}},{"name":"Fliederweg","postalCode":"36251","locality":"Bad Hersfeld","municipality":{"key":"06632002","name":"Bad Hersfeld, Kreisstadt","type":"Stadt"},"district":{"key":"06632","name":"Hersfeld-Rotenburg","type":"Landkreis"},"federalState":{"key":"06","name":"Hessen"}},{"name":"Formerstr.","postalCode":"36251","locality":"Bad Hersfeld","municipality":{"key":"06632002","name":"Bad Hersfeld, Kreisstadt","type":"Stadt"},"district":{"key":"06632","name":"Hersfeld-Rotenburg","type":"Landkreis"},"federalState":{"key":"06","name":"Hessen"}},{"name":"Forsthausstr.","postalCode":"36251","locality":"Bad Hersfeld","municipality":{"key":"06632002","name":"Bad Hersfeld, Kreisstadt","type":"Stadt"},"district":{"key":"06632","name":"Hersfeld-Rotenburg","type":"Landkreis"},"federalState":{"key":"06","name":"Hessen"}},{"name":"Frankfurter Str.","postalCode":"36251","locality":"Bad Hersfeld","municipality":{"key":"06632002","name":"Bad Hersfeld, Kreisstadt","type":"Stadt"},"district":{"key":"06632","name":"Hersfeld-Rotenburg","type":"Landkreis"},"federalState":{"key":"06","name":"Hessen"}},{"name":"Freiherr-vom-Stein-Str.","postalCode":"36251","locality":"Bad Hersfeld","municipality":{"key":"06632002","name":"Bad Hersfeld, Kreisstadt","type":"Stadt"},"district":{"key":"06632","name":"Hersfeld-Rotenburg","type":"Landkreis"},"federalState":{"key":"06","name":"Hessen"}},{"name":"Friedewalder Str.","postalCode":"36251","locality":"Bad Hersfeld","municipality":{"key":"06632002","name":"Bad Hersfeld, Kreisstadt","type":"Stadt"},"district":{"key":"06632","name":"Hersfeld-Rotenburg","type":"Landkreis"},"federalState":{"key":"06","name":"Hessen"}},{"name":"Friedhofsweg","postalCode":"36251","locality":"Bad Hersfeld","municipality":{"key":"06632002","name":"Bad Hersfeld, Kreisstadt","type":"Stadt"},"district":{"key":"06632","name":"Hersfeld-Rotenburg","type":"Landkreis"},"federalState":{"key":"06","name":"Hessen"}},{"name":"Friedloser Str.","postalCode":"36251","locality":"Bad Hersfeld","municipality":{"key":"06632002","name":"Bad Hersfeld, Kreisstadt","type":"Stadt"},"district":{"key":"06632","name":"Hersfeld-Rotenburg","type":"Landkreis"},"federalState":{"key":"06","name":"Hessen"}},{"name":"Friedrich-Ebert-Str.","postalCode":"36251","locality":"Bad Hersfeld","municipality":{"key":"06632002","name":"Bad Hersfeld, Kreisstadt","type":"Stadt"},"district":{"key":"06632","name":"Hersfeld-Rotenburg","type":"Landkreis"},"federalState":{"key":"06","name":"Hessen"}},{"name":"Friedrich-Ludwig-Jahn-Str.","postalCode":"36251","locality":"Bad Hersfeld","municipality":{"key":"06632002","name":"Bad Hersfeld, Kreisstadt","type":"Stadt"},"district":{"key":"06632","name":"Hersfeld-Rotenburg","type":"Landkreis"},"federalState":{"key":"06","name":"Hessen"}},{"name":"Friedrich-Wagner-Str.","postalCode":"36251","locality":"Bad Hersfeld","municipality":{"key":"06632002","name":"Bad Hersfeld, Kreisstadt","type":"Stadt"},"district":{"key":"06632","name":"Hersfeld-Rotenburg","type":"Landkreis"},"federalState":{"key":"06","name":"Hessen"}},{"name":"Fritz-Rechberg-Str.","postalCode":"36251","locality":"Bad Hersfeld","municipality":{"key":"06632002","name":"Bad Hersfeld, Kreisstadt","type":"Stadt"},"district":{"key":"06632","name":"Hersfeld-Rotenburg","type":"Landkreis"},"federalState":{"key":"06","name":"Hessen"}},{"name":"Fuldablick","postalCode":"36251","locality":"Bad Hersfeld","municipality":{"key":"06632002","name":"Bad Hersfeld, Kreisstadt","type":"Stadt"},"district":{"key":"06632","name":"Hersfeld-Rotenburg","type":"Landkreis"},"federalState":{"key":"06","name":"Hessen"}},{"name":"Fuldastr.","postalCode":"36251","locality":"Bad Hersfeld","municipality":{"key":"06632002","name":"Bad Hersfeld, Kreisstadt","type":"Stadt"},"district":{"key":"06632","name":"Hersfeld-Rotenburg","type":"Landkreis"},"federalState":{"key":"06","name":"Hessen"}},{"name":"Fünfkirchener Str.","postalCode":"36251","locality":"Bad Hersfeld","municipality":{"key":"06632002","name":"Bad Hersfeld, Kreisstadt","type":"Stadt"},"district":{"key":"06632","name":"Hersfeld-Rotenburg","type":"Landkreis"},"federalState":{"key":"06","name":"Hessen"}},{"name":"Gartenstr.","postalCode":"36251","locality":"Bad Hersfeld","municipality":{"key":"06632002","name":"Bad Hersfeld, Kreisstadt","type":"Stadt"},"district":{"key":"06632","name":"Hersfeld-Rotenburg","type":"Landkreis"},"federalState":{"key":"06","name":"Hessen"}},{"name":"Gässchen","postalCode":"36251","locality":"Bad Hersfeld","municipality":{"key":"06632002","name":"Bad Hersfeld, Kreisstadt","type":"Stadt"},"district":{"key":"06632","name":"Hersfeld-Rotenburg","type":"Landkreis"},"federalState":{"key":"06","name":"Hessen"}},{"name":"Geistalweg","postalCode":"36251","locality":"Bad Hersfeld","municipality":{"key":"06632002","name":"Bad Hersfeld, Kreisstadt","type":"Stadt"},"district":{"key":"06632","name":"Hersfeld-Rotenburg","type":"Landkreis"},"federalState":{"key":"06","name":"Hessen"}},{"name":"Gellenbergstr.","postalCode":"36251","locality":"Bad Hersfeld","municipality":{"key":"06632002","name":"Bad Hersfeld, Kreisstadt","type":"Stadt"},"district":{"key":"06632","name":"Hersfeld-Rotenburg","type":"Landkreis"},"federalState":{"key":"06","name":"Hessen"}},{"name":"Georg-August-Moeller-Str.","postalCode":"36251","locality":"Bad Hersfeld","municipality":{"key":"06632002","name":"Bad Hersfeld, Kreisstadt","type":"Stadt"},"district":{"key":"06632","name":"Hersfeld-Rotenburg","type":"Landkreis"},"federalState":{"key":"06","name":"Hessen"}},{"name":"Gerstengarten","postalCode":"36251","locality":"Bad Hersfeld","municipality":{"key":"06632002","name":"Bad Hersfeld, Kreisstadt","type":"Stadt"},"district":{"key":"06632","name":"Hersfeld-Rotenburg","type":"Landkreis"},"federalState":{"key":"06","name":"Hessen"}},{"name":"Gerwigstr.","postalCode":"36251","locality":"Bad Hersfeld","municipality":{"key":"06632002","name":"Bad Hersfeld, Kreisstadt","type":"Stadt"},"district":{"key":"06632","name":"Hersfeld-Rotenburg","type":"Landkreis"},"federalState":{"key":"06","name":"Hessen"}},{"name":"Ginsterweg","postalCode":"36251","locality":"Bad Hersfeld","municipality":{"key":"06632002","name":"Bad Hersfeld, Kreisstadt","type":"Stadt"},"district":{"key":"06632","name":"Hersfeld-Rotenburg","type":"Landkreis"},"federalState":{"key":"06","name":"Hessen"}},{"name":"Glatzer Str.","postalCode":"36251","locality":"Bad Hersfeld","municipality":{"key":"06632002","name":"Bad Hersfeld, Kreisstadt","type":"Stadt"},"district":{"key":"06632","name":"Hersfeld-Rotenburg","type":"Landkreis"},"federalState":{"key":"06","name":"Hessen"}},{"name":"Glimmesweg","postalCode":"36251","locality":"Bad Hersfeld","municipality":{"key":"06632002","name":"Bad Hersfeld, Kreisstadt","type":"Stadt"},"district":{"key":"06632","name":"Hersfeld-Rotenburg","type":"Landkreis"},"federalState":{"key":"06","name":"Hessen"}},{"name":"Glockenstr.","postalCode":"36251","locality":"Bad Hersfeld","municipality":{"key":"06632002","name":"Bad Hersfeld, Kreisstadt","type":"Stadt"},"district":{"key":"06632","name":"Hersfeld-Rotenburg","type":"Landkreis"},"federalState":{"key":"06","name":"Hessen"}},{"name":"Goethestr.","postalCode":"36251","locality":"Bad Hersfeld","municipality":{"key":"06632002","name":"Bad Hersfeld, Kreisstadt","type":"Stadt"},"district":{"key":"06632","name":"Hersfeld-Rotenburg","type":"Landkreis"},"federalState":{"key":"06","name":"Hessen"}},{"name":"Görlitzer Str.","postalCode":"36251","locality":"Bad Hersfeld","municipality":{"key":"06632002","name":"Bad Hersfeld, Kreisstadt","type":"Stadt"},"district":{"key":"06632","name":"Hersfeld-Rotenburg","type":"Landkreis"},"federalState":{"key":"06","name":"Hessen"}},{"name":"Gothaer Str.","postalCode":"36251","locality":"Bad Hersfeld","municipality":{"key":"06632002","name":"Bad Hersfeld, Kreisstadt","type":"Stadt"},"district":{"key":"06632","name":"Hersfeld-Rotenburg","type":"Landkreis"},"federalState":{"key":"06","name":"Hessen"}},{"name":"Gotzbertstr.","postalCode":"36251","locality":"Bad Hersfeld","municipality":{"key":"06632002","name":"Bad Hersfeld, Kreisstadt","type":"Stadt"},"district":{"key":"06632","name":"Hersfeld-Rotenburg","type":"Landkreis"},"federalState":{"key":"06","name":"Hessen"}},{"name":"Grenzebergstr.","postalCode":"36251","locality":"Bad Hersfeld","municipality":{"key":"06632002","name":"Bad Hersfeld, Kreisstadt","type":"Stadt"},"district":{"key":"06632","name":"Hersfeld-Rotenburg","type":"Landkreis"},"federalState":{"key":"06","name":"Hessen"}},{"name":"Grenzweg","postalCode":"36251","locality":"Bad Hersfeld","municipality":{"key":"06632002","name":"Bad Hersfeld, Kreisstadt","type":"Stadt"},"district":{"key":"06632","name":"Hersfeld-Rotenburg","type":"Landkreis"},"federalState":{"key":"06","name":"Hessen"}},{"name":"Grüner Weg","postalCode":"36251","locality":"Bad Hersfeld","municipality":{"key":"06632002","name":"Bad Hersfeld, Kreisstadt","type":"Stadt"},"district":{"key":"06632","name":"Hersfeld-Rotenburg","type":"Landkreis"},"federalState":{"key":"06","name":"Hessen"}},{"name":"Güldene Kammer","postalCode":"36251","locality":"Bad Hersfeld","municipality":{"key":"06632002","name":"Bad Hersfeld, Kreisstadt","type":"Stadt"},"district":{"key":"06632","name":"Hersfeld-Rotenburg","type":"Landkreis"},"federalState":{"key":"06","name":"Hessen"}},{"name":"Gustav-Freytag-Str.","postalCode":"36251","locality":"Bad Hersfeld","municipality":{"key":"06632002","name":"Bad Hersfeld, Kreisstadt","type":"Stadt"},"district":{"key":"06632","name":"Hersfeld-Rotenburg","type":"Landkreis"},"federalState":{"key":"06","name":"Hessen"}},{"name":"Gutenbergstr.","postalCode":"36251","locality":"Bad Hersfeld","municipality":{"key":"06632002","name":"Bad Hersfeld, Kreisstadt","type":"Stadt"},"district":{"key":"06632","name":"Hersfeld-Rotenburg","type":"Landkreis"},"federalState":{"key":"06","name":"Hessen"}},{"name":"Hagebuttenweg","postalCode":"36251","locality":"Bad Hersfeld","municipality":{"key":"06632002","name":"Bad Hersfeld, Kreisstadt","type":"Stadt"},"district":{"key":"06632","name":"Hersfeld-Rotenburg","type":"Landkreis"},"federalState":{"key":"06","name":"Hessen"}},{"name":"Hainchenweg","postalCode":"36251","locality":"Bad Hersfeld","municipality":{"key":"06632002","name":"Bad Hersfeld, Kreisstadt","type":"Stadt"},"district":{"key":"06632","name":"Hersfeld-Rotenburg","type":"Landkreis"},"federalState":{"key":"06","name":"Hessen"}},{"name":"Hainstr.","postalCode":"36251","locality":"Bad Hersfeld","municipality":{"key":"06632002","name":"Bad Hersfeld, Kreisstadt","type":"Stadt"},"district":{"key":"06632","name":"Hersfeld-Rotenburg","type":"Landkreis"},"federalState":{"key":"06","name":"Hessen"}},{"name":"Hanfsack","postalCode":"36251","locality":"Bad Hersfeld","municipality":{"key":"06632002","name":"Bad Hersfeld, Kreisstadt","type":"Stadt"},"district":{"key":"06632","name":"Hersfeld-Rotenburg","type":"Landkreis"},"federalState":{"key":"06","name":"Hessen"}},{"name":"Hans-Petsch-Weg","postalCode":"36251","locality":"Bad Hersfeld","municipality":{"key":"06632002","name":"Bad Hersfeld, Kreisstadt","type":"Stadt"},"district":{"key":"06632","name":"Hersfeld-Rotenburg","type":"Landkreis"},"federalState":{"key":"06","name":"Hessen"}},{"name":"Hans-Post-Str.","postalCode":"36251","locality":"Bad Hersfeld","municipality":{"key":"06632002","name":"Bad Hersfeld, Kreisstadt","type":"Stadt"},"district":{"key":"06632","name":"Hersfeld-Rotenburg","type":"Landkreis"},"federalState":{"key":"06","name":"Hessen"}},{"name":"Haselnußweg","postalCode":"36251","locality":"Bad Hersfeld","municipality":{"key":"06632002","name":"Bad Hersfeld, Kreisstadt","type":"Stadt"},"district":{"key":"06632","name":"Hersfeld-Rotenburg","type":"Landkreis"},"federalState":{"key":"06","name":"Hessen"}},{"name":"Hauptstr.","postalCode":"36251","locality":"Bad Hersfeld","municipality":{"key":"06632002","name":"Bad Hersfeld, Kreisstadt","type":"Stadt"},"district":{"key":"06632","name":"Hersfeld-Rotenburg","type":"Landkreis"},"federalState":{"key":"06","name":"Hessen"}},{"name":"Heideweg","postalCode":"36251","locality":"Bad Hersfeld","municipality":{"key":"06632002","name":"Bad Hersfeld, Kreisstadt","type":"Stadt"},"district":{"key":"06632","name":"Hersfeld-Rotenburg","type":"Landkreis"},"federalState":{"key":"06","name":"Hessen"}},{"name":"Heidköpfchenweg","postalCode":"36251","locality":"Bad Hersfeld","municipality":{"key":"06632002","name":"Bad Hersfeld, Kreisstadt","type":"Stadt"},"district":{"key":"06632","name":"Hersfeld-Rotenburg","type":"Landkreis"},"federalState":{"key":"06","name":"Hessen"}},{"name":"Heinrich-Börner-Str.","postalCode":"36251","locality":"Bad Hersfeld","municipality":{"key":"06632002","name":"Bad Hersfeld, Kreisstadt","type":"Stadt"},"district":{"key":"06632","name":"Hersfeld-Rotenburg","type":"Landkreis"},"federalState":{"key":"06","name":"Hessen"}},{"name":"Heinrich-Gutberlet-Str.","postalCode":"36251","locality":"Bad Hersfeld","municipality":{"key":"06632002","name":"Bad Hersfeld, Kreisstadt","type":"Stadt"},"district":{"key":"06632","name":"Hersfeld-Rotenburg","type":"Landkreis"},"federalState":{"key":"06","name":"Hessen"}},{"name":"Heinrich-Heine-Str.","postalCode":"36251","locality":"Bad Hersfeld","municipality":{"key":"06632002","name":"Bad Hersfeld, Kreisstadt","type":"Stadt"},"district":{"key":"06632","name":"Hersfeld-Rotenburg","type":"Landkreis"},"federalState":{"key":"06","name":"Hessen"}},{"name":"Heinrich-von-Stephan-Str.","postalCode":"36251","locality":"Bad Hersfeld","municipality":{"key":"06632002","name":"Bad Hersfeld, Kreisstadt","type":"Stadt"},"district":{"key":"06632","name":"Hersfeld-Rotenburg","type":"Landkreis"},"federalState":{"key":"06","name":"Hessen"}},{"name":"Heinz Trox Str.","postalCode":"36251","locality":"Bad Hersfeld","municipality":{"key":"06632002","name":"Bad Hersfeld, Kreisstadt","type":"Stadt"},"district":{"key":"06632","name":"Hersfeld-Rotenburg","type":"Landkreis"},"federalState":{"key":"06","name":"Hessen"}},{"name":"Herbartstr.","postalCode":"36251","locality":"Bad Hersfeld","municipality":{"key":"06632002","name":"Bad Hersfeld, Kreisstadt","type":"Stadt"},"district":{"key":"06632","name":"Hersfeld-Rotenburg","type":"Landkreis"},"federalState":{"key":"06","name":"Hessen"}},{"name":"Hermann-Kirchner-Str.","postalCode":"36251","locality":"Bad Hersfeld","municipality":{"key":"06632002","name":"Bad Hersfeld, Kreisstadt","type":"Stadt"},"district":{"key":"06632","name":"Hersfeld-Rotenburg","type":"Landkreis"},"federalState":{"key":"06","name":"Hessen"}},{"name":"Hermann-Löns-Str.","postalCode":"36251","locality":"Bad Hersfeld","municipality":{"key":"06632002","name":"Bad Hersfeld, Kreisstadt","type":"Stadt"},"district":{"key":"06632","name":"Hersfeld-Rotenburg","type":"Landkreis"},"federalState":{"key":"06","name":"Hessen"}},{"name":"Hermannshof","postalCode":"36251","locality":"Bad Hersfeld","municipality":{"key":"06632002","name":"Bad Hersfeld, Kreisstadt","type":"Stadt"},"district":{"key":"06632","name":"Hersfeld-Rotenburg","type":"Landkreis"},"federalState":{"key":"06","name":"Hessen"}},{"name":"Hersfelder Str.","postalCode":"36251","locality":"Bad Hersfeld","municipality":{"key":"06632002","name":"Bad Hersfeld, Kreisstadt","type":"Stadt"},"district":{"key":"06632","name":"Hersfeld-Rotenburg","type":"Landkreis"},"federalState":{"key":"06","name":"Hessen"}},{"name":"Herzbergstr.","postalCode":"36251","locality":"Bad Hersfeld","municipality":{"key":"06632002","name":"Bad Hersfeld, Kreisstadt","type":"Stadt"},"district":{"key":"06632","name":"Hersfeld-Rotenburg","type":"Landkreis"},"federalState":{"key":"06","name":"Hessen"}},{"name":"Hilgenweg","postalCode":"36251","locality":"Bad Hersfeld","municipality":{"key":"06632002","name":"Bad Hersfeld, Kreisstadt","type":"Stadt"},"district":{"key":"06632","name":"Hersfeld-Rotenburg","type":"Landkreis"},"federalState":{"key":"06","name":"Hessen"}},{"name":"Hinterer Steingraben","postalCode":"36251","locality":"Bad Hersfeld","municipality":{"key":"06632002","name":"Bad Hersfeld, Kreisstadt","type":"Stadt"},"district":{"key":"06632","name":"Hersfeld-Rotenburg","type":"Landkreis"},"federalState":{"key":"06","name":"Hessen"}},{"name":"Hirschgraben","postalCode":"36251","locality":"Bad Hersfeld","municipality":{"key":"06632002","name":"Bad Hersfeld, Kreisstadt","type":"Stadt"},"district":{"key":"06632","name":"Hersfeld-Rotenburg","type":"Landkreis"},"federalState":{"key":"06","name":"Hessen"}},{"name":"Hofweg","postalCode":"36251","locality":"Bad Hersfeld","municipality":{"key":"06632002","name":"Bad Hersfeld, Kreisstadt","type":"Stadt"},"district":{"key":"06632","name":"Hersfeld-Rotenburg","type":"Landkreis"},"federalState":{"key":"06","name":"Hessen"}},{"name":"Hof Wehneberg","postalCode":"36251","locality":"Bad Hersfeld","municipality":{"key":"06632002","name":"Bad Hersfeld, Kreisstadt","type":"Stadt"},"district":{"key":"06632","name":"Hersfeld-Rotenburg","type":"Landkreis"},"federalState":{"key":"06","name":"Hessen"}},{"name":"Höhenstr.","postalCode":"36251","locality":"Bad Hersfeld","municipality":{"key":"06632002","name":"Bad Hersfeld, Kreisstadt","type":"Stadt"},"district":{"key":"06632","name":"Hersfeld-Rotenburg","type":"Landkreis"},"federalState":{"key":"06","name":"Hessen"}},{"name":"Hohlweg","postalCode":"36251","locality":"Bad Hersfeld","municipality":{"key":"06632002","name":"Bad Hersfeld, Kreisstadt","type":"Stadt"},"district":{"key":"06632","name":"Hersfeld-Rotenburg","type":"Landkreis"},"federalState":{"key":"06","name":"Hessen"}},{"name":"Holunderweg","postalCode":"36251","locality":"Bad Hersfeld","municipality":{"key":"06632002","name":"Bad Hersfeld, Kreisstadt","type":"Stadt"},"district":{"key":"06632","name":"Hersfeld-Rotenburg","type":"Landkreis"},"federalState":{"key":"06","name":"Hessen"}},{"name":"Holzgraben","postalCode":"36251","locality":"Bad Hersfeld","municipality":{"key":"06632002","name":"Bad Hersfeld, Kreisstadt","type":"Stadt"},"district":{"key":"06632","name":"Hersfeld-Rotenburg","type":"Landkreis"},"federalState":{"key":"06","name":"Hessen"}},{"name":"Homberger Str.","postalCode":"36251","locality":"Bad Hersfeld","municipality":{"key":"06632002","name":"Bad Hersfeld, Kreisstadt","type":"Stadt"},"district":{"key":"06632","name":"Hersfeld-Rotenburg","type":"Landkreis"},"federalState":{"key":"06","name":"Hessen"}},{"name":"Hosengasse","postalCode":"36251","locality":"Bad Hersfeld","municipality":{"key":"06632002","name":"Bad Hersfeld, Kreisstadt","type":"Stadt"},"district":{"key":"06632","name":"Hersfeld-Rotenburg","type":"Landkreis"},"federalState":{"key":"06","name":"Hessen"}},{"name":"Hospitalgasse","postalCode":"36251","locality":"Bad Hersfeld","municipality":{"key":"06632002","name":"Bad Hersfeld, Kreisstadt","type":"Stadt"},"district":{"key":"06632","name":"Hersfeld-Rotenburg","type":"Landkreis"},"federalState":{"key":"06","name":"Hessen"}},{"name":"Hottenbach","postalCode":"36251","locality":"Bad Hersfeld","municipality":{"key":"06632002","name":"Bad Hersfeld, Kreisstadt","type":"Stadt"},"district":{"key":"06632","name":"Hersfeld-Rotenburg","type":"Landkreis"},"federalState":{"key":"06","name":"Hessen"}},{"name":"Hubertusweg","postalCode":"36251","locality":"Bad Hersfeld","municipality":{"key":"06632002","name":"Bad Hersfeld, Kreisstadt","type":"Stadt"},"district":{"key":"06632","name":"Hersfeld-Rotenburg","type":"Landkreis"},"federalState":{"key":"06","name":"Hessen"}},{"name":"Hünfelder Str.","postalCode":"36251","locality":"Bad Hersfeld","municipality":{"key":"06632002","name":"Bad Hersfeld, Kreisstadt","type":"Stadt"},"district":{"key":"06632","name":"Hersfeld-Rotenburg","type":"Landkreis"},"federalState":{"key":"06","name":"Hessen"}},{"name":"Hutweide","postalCode":"36251","locality":"Bad Hersfeld","municipality":{"key":"06632002","name":"Bad Hersfeld, Kreisstadt","type":"Stadt"},"district":{"key":"06632","name":"Hersfeld-Rotenburg","type":"Landkreis"},"federalState":{"key":"06","name":"Hessen"}},{"name":"Illersrück","postalCode":"36251","locality":"Bad Hersfeld","municipality":{"key":"06632002","name":"Bad Hersfeld, Kreisstadt","type":"Stadt"},"district":{"key":"06632","name":"Hersfeld-Rotenburg","type":"Landkreis"},"federalState":{"key":"06","name":"Hessen"}},{"name":"Im Dorngarten","postalCode":"36251","locality":"Bad Hersfeld","municipality":{"key":"06632002","name":"Bad Hersfeld, Kreisstadt","type":"Stadt"},"district":{"key":"06632","name":"Hersfeld-Rotenburg","type":"Landkreis"},"federalState":{"key":"06","name":"Hessen"}},{"name":"Im Eichholz","postalCode":"36251","locality":"Bad Hersfeld","municipality":{"key":"06632002","name":"Bad Hersfeld, Kreisstadt","type":"Stadt"},"district":{"key":"06632","name":"Hersfeld-Rotenburg","type":"Landkreis"},"federalState":{"key":"06","name":"Hessen"}},{"name":"Im Forst","postalCode":"36251","locality":"Bad Hersfeld","municipality":{"key":"06632002","name":"Bad Hersfeld, Kreisstadt","type":"Stadt"},"district":{"key":"06632","name":"Hersfeld-Rotenburg","type":"Landkreis"},"federalState":{"key":"06","name":"Hessen"}},{"name":"Im Hasenwinkel","postalCode":"36251","locality":"Bad Hersfeld","municipality":{"key":"06632002","name":"Bad Hersfeld, Kreisstadt","type":"Stadt"},"district":{"key":"06632","name":"Hersfeld-Rotenburg","type":"Landkreis"},"federalState":{"key":"06","name":"Hessen"}},{"name":"Im Lotzenfeld","postalCode":"36251","locality":"Bad Hersfeld","municipality":{"key":"06632002","name":"Bad Hersfeld, Kreisstadt","type":"Stadt"},"district":{"key":"06632","name":"Hersfeld-Rotenburg","type":"Landkreis"},"federalState":{"key":"06","name":"Hessen"}},{"name":"Im Oberfeld","postalCode":"36251","locality":"Bad Hersfeld","municipality":{"key":"06632002","name":"Bad Hersfeld, Kreisstadt","type":"Stadt"},"district":{"key":"06632","name":"Hersfeld-Rotenburg","type":"Landkreis"},"federalState":{"key":"06","name":"Hessen"}},{"name":"Im Stift","postalCode":"36251","locality":"Bad Hersfeld","municipality":{"key":"06632002","name":"Bad Hersfeld, Kreisstadt","type":"Stadt"},"district":{"key":"06632","name":"Hersfeld-Rotenburg","type":"Landkreis"},"federalState":{"key":"06","name":"Hessen"}},{"name":"Im Unterfeld","postalCode":"36251","locality":"Bad Hersfeld","municipality":{"key":"06632002","name":"Bad Hersfeld, Kreisstadt","type":"Stadt"},"district":{"key":"06632","name":"Hersfeld-Rotenburg","type":"Landkreis"},"federalState":{"key":"06","name":"Hessen"}},{"name":"Im Zellersgrund","postalCode":"36251","locality":"Bad Hersfeld","municipality":{"key":"06632002","name":"Bad Hersfeld, Kreisstadt","type":"Stadt"},"district":{"key":"06632","name":"Hersfeld-Rotenburg","type":"Landkreis"},"federalState":{"key":"06","name":"Hessen"}},{"name":"Im Zinkengraben","postalCode":"36251","locality":"Bad Hersfeld","municipality":{"key":"06632002","name":"Bad Hersfeld, Kreisstadt","type":"Stadt"},"district":{"key":"06632","name":"Hersfeld-Rotenburg","type":"Landkreis"},"federalState":{"key":"06","name":"Hessen"}},{"name":"In den Giesen","postalCode":"36251","locality":"Bad Hersfeld","municipality":{"key":"06632002","name":"Bad Hersfeld, Kreisstadt","type":"Stadt"},"district":{"key":"06632","name":"Hersfeld-Rotenburg","type":"Landkreis"},"federalState":{"key":"06","name":"Hessen"}},{"name":"In den Tonkauten","postalCode":"36251","locality":"Bad Hersfeld","municipality":{"key":"06632002","name":"Bad Hersfeld, Kreisstadt","type":"Stadt"},"district":{"key":"06632","name":"Hersfeld-Rotenburg","type":"Landkreis"},"federalState":{"key":"06","name":"Hessen"}},{"name":"Industriestr.","postalCode":"36251","locality":"Bad Hersfeld","municipality":{"key":"06632002","name":"Bad Hersfeld, Kreisstadt","type":"Stadt"},"district":{"key":"06632","name":"Hersfeld-Rotenburg","type":"Landkreis"},"federalState":{"key":"06","name":"Hessen"}},{"name":"Jasminweg","postalCode":"36251","locality":"Bad Hersfeld","municipality":{"key":"06632002","name":"Bad Hersfeld, Kreisstadt","type":"Stadt"},"district":{"key":"06632","name":"Hersfeld-Rotenburg","type":"Landkreis"},"federalState":{"key":"06","name":"Hessen"}},{"name":"Jenaer Str.","postalCode":"36251","locality":"Bad Hersfeld","municipality":{"key":"06632002","name":"Bad Hersfeld, Kreisstadt","type":"Stadt"},"district":{"key":"06632","name":"Hersfeld-Rotenburg","type":"Landkreis"},"federalState":{"key":"06","name":"Hessen"}},{"name":"Johannes-Brahms-Str.","postalCode":"36251","locality":"Bad Hersfeld","municipality":{"key":"06632002","name":"Bad Hersfeld, Kreisstadt","type":"Stadt"},"district":{"key":"06632","name":"Hersfeld-Rotenburg","type":"Landkreis"},"federalState":{"key":"06","name":"Hessen"}},{"name":"Johannes-Klein-Str.","postalCode":"36251","locality":"Bad Hersfeld","municipality":{"key":"06632002","name":"Bad Hersfeld, Kreisstadt","type":"Stadt"},"district":{"key":"06632","name":"Hersfeld-Rotenburg","type":"Landkreis"},"federalState":{"key":"06","name":"Hessen"}},{"name":"Johannestor","postalCode":"36251","locality":"Bad Hersfeld","municipality":{"key":"06632002","name":"Bad Hersfeld, Kreisstadt","type":"Stadt"},"district":{"key":"06632","name":"Hersfeld-Rotenburg","type":"Landkreis"},"federalState":{"key":"06","name":"Hessen"}},{"name":"Johann-Sebastian-Bach-Str.","postalCode":"36251","locality":"Bad Hersfeld","municipality":{"key":"06632002","name":"Bad Hersfeld, Kreisstadt","type":"Stadt"},"district":{"key":"06632","name":"Hersfeld-Rotenburg","type":"Landkreis"},"federalState":{"key":"06","name":"Hessen"}},{"name":"Kaplangasse","postalCode":"36251","locality":"Bad Hersfeld","municipality":{"key":"06632002","name":"Bad Hersfeld, Kreisstadt","type":"Stadt"},"district":{"key":"06632","name":"Hersfeld-Rotenburg","type":"Landkreis"},"federalState":{"key":"06","name":"Hessen"}},{"name":"Karl-Güntzel-Str.","postalCode":"36251","locality":"Bad Hersfeld","municipality":{"key":"06632002","name":"Bad Hersfeld, Kreisstadt","type":"Stadt"},"district":{"key":"06632","name":"Hersfeld-Rotenburg","type":"Landkreis"},"federalState":{"key":"06","name":"Hessen"}},{"name":"Kastanienweg","postalCode":"36251","locality":"Bad Hersfeld","municipality":{"key":"06632002","name":"Bad Hersfeld, Kreisstadt","type":"Stadt"},"district":{"key":"06632","name":"Hersfeld-Rotenburg","type":"Landkreis"},"federalState":{"key":"06","name":"Hessen"}},{"name":"Kathuser Str.","postalCode":"36251","locality":"Bad Hersfeld","municipality":{"key":"06632002","name":"Bad Hersfeld, Kreisstadt","type":"Stadt"},"district":{"key":"06632","name":"Hersfeld-Rotenburg","type":"Landkreis"},"federalState":{"key":"06","name":"Hessen"}},{"name":"Kettelerstr.","postalCode":"36251","locality":"Bad Hersfeld","municipality":{"key":"06632002","name":"Bad Hersfeld, Kreisstadt","type":"Stadt"},"district":{"key":"06632","name":"Hersfeld-Rotenburg","type":"Landkreis"},"federalState":{"key":"06","name":"Hessen"}},{"name":"Kettengasse","postalCode":"36251","locality":"Bad Hersfeld","municipality":{"key":"06632002","name":"Bad Hersfeld, Kreisstadt","type":"Stadt"},"district":{"key":"06632","name":"Hersfeld-Rotenburg","type":"Landkreis"},"federalState":{"key":"06","name":"Hessen"}},{"name":"Kiefernallee","postalCode":"36251","locality":"Bad Hersfeld","municipality":{"key":"06632002","name":"Bad Hersfeld, Kreisstadt","type":"Stadt"},"district":{"key":"06632","name":"Hersfeld-Rotenburg","type":"Landkreis"},"federalState":{"key":"06","name":"Hessen"}},{"name":"Kielsbergstr.","postalCode":"36251","locality":"Bad Hersfeld","municipality":{"key":"06632002","name":"Bad Hersfeld, Kreisstadt","type":"Stadt"},"district":{"key":"06632","name":"Hersfeld-Rotenburg","type":"Landkreis"},"federalState":{"key":"06","name":"Hessen"}},{"name":"Kirchplatz","postalCode":"36251","locality":"Bad Hersfeld","municipality":{"key":"06632002","name":"Bad Hersfeld, Kreisstadt","type":"Stadt"},"district":{"key":"06632","name":"Hersfeld-Rotenburg","type":"Landkreis"},"federalState":{"key":"06","name":"Hessen"}},{"name":"Klaustor","postalCode":"36251","locality":"Bad Hersfeld","municipality":{"key":"06632002","name":"Bad Hersfeld, Kreisstadt","type":"Stadt"},"district":{"key":"06632","name":"Hersfeld-Rotenburg","type":"Landkreis"},"federalState":{"key":"06","name":"Hessen"}},{"name":"Kleine Industriestr.","postalCode":"36251","locality":"Bad Hersfeld","municipality":{"key":"06632002","name":"Bad Hersfeld, Kreisstadt","type":"Stadt"},"district":{"key":"06632","name":"Hersfeld-Rotenburg","type":"Landkreis"},"federalState":{"key":"06","name":"Hessen"}},{"name":"Kleinshöhe","postalCode":"36251","locality":"Bad Hersfeld","municipality":{"key":"06632002","name":"Bad Hersfeld, Kreisstadt","type":"Stadt"},"district":{"key":"06632","name":"Hersfeld-Rotenburg","type":"Landkreis"},"federalState":{"key":"06","name":"Hessen"}},{"name":"Knottengasse","postalCode":"36251","locality":"Bad Hersfeld","municipality":{"key":"06632002","name":"Bad Hersfeld, Kreisstadt","type":"Stadt"},"district":{"key":"06632","name":"Hersfeld-Rotenburg","type":"Landkreis"},"federalState":{"key":"06","name":"Hessen"}},{"name":"Knüllstr.","postalCode":"36251","locality":"Bad Hersfeld","municipality":{"key":"06632002","name":"Bad Hersfeld, Kreisstadt","type":"Stadt"},"district":{"key":"06632","name":"Hersfeld-Rotenburg","type":"Landkreis"},"federalState":{"key":"06","name":"Hessen"}},{"name":"Köhlergasse","postalCode":"36251","locality":"Bad Hersfeld","municipality":{"key":"06632002","name":"Bad Hersfeld, Kreisstadt","type":"Stadt"},"district":{"key":"06632","name":"Hersfeld-Rotenburg","type":"Landkreis"},"federalState":{"key":"06","name":"Hessen"}},{"name":"Kohlgraben-Str.","postalCode":"36251","locality":"Bad Hersfeld","municipality":{"key":"06632002","name":"Bad Hersfeld, Kreisstadt","type":"Stadt"},"district":{"key":"06632","name":"Hersfeld-Rotenburg","type":"Landkreis"},"federalState":{"key":"06","name":"Hessen"}},{"name":"Kolberger Str.","postalCode":"36251","locality":"Bad Hersfeld","municipality":{"key":"06632002","name":"Bad Hersfeld, Kreisstadt","type":"Stadt"},"district":{"key":"06632","name":"Hersfeld-Rotenburg","type":"Landkreis"},"federalState":{"key":"06","name":"Hessen"}},{"name":"Kolpingstr.","postalCode":"36251","locality":"Bad Hersfeld","municipality":{"key":"06632002","name":"Bad Hersfeld, Kreisstadt","type":"Stadt"},"district":{"key":"06632","name":"Hersfeld-Rotenburg","type":"Landkreis"},"federalState":{"key":"06","name":"Hessen"}},{"name":"Königsberger Str.","postalCode":"36251","locality":"Bad Hersfeld","municipality":{"key":"06632002","name":"Bad Hersfeld, Kreisstadt","type":"Stadt"},"district":{"key":"06632","name":"Hersfeld-Rotenburg","type":"Landkreis"},"federalState":{"key":"06","name":"Hessen"}},{"name":"Konrad-Zuse-Str.","postalCode":"36251","locality":"Bad Hersfeld","municipality":{"key":"06632002","name":"Bad Hersfeld, Kreisstadt","type":"Stadt"},"district":{"key":"06632","name":"Hersfeld-Rotenburg","type":"Landkreis"},"federalState":{"key":"06","name":"Hessen"}},{"name":"Kühnbachsgrund","postalCode":"36251","locality":"Bad Hersfeld","municipality":{"key":"06632002","name":"Bad Hersfeld, Kreisstadt","type":"Stadt"},"district":{"key":"06632","name":"Hersfeld-Rotenburg","type":"Landkreis"},"federalState":{"key":"06","name":"Hessen"}},{"name":"Kurpark","postalCode":"36251","locality":"Bad Hersfeld","municipality":{"key":"06632002","name":"Bad Hersfeld, Kreisstadt","type":"Stadt"},"district":{"key":"06632","name":"Hersfeld-Rotenburg","type":"Landkreis"},"federalState":{"key":"06","name":"Hessen"}},{"name":"Kurzer Weg","postalCode":"36251","locality":"Bad Hersfeld","municipality":{"key":"06632002","name":"Bad Hersfeld, Kreisstadt","type":"Stadt"},"district":{"key":"06632","name":"Hersfeld-Rotenburg","type":"Landkreis"},"federalState":{"key":"06","name":"Hessen"}},{"name":"Lambertstr.","postalCode":"36251","locality":"Bad Hersfeld","municipality":{"key":"06632002","name":"Bad Hersfeld, Kreisstadt","type":"Stadt"},"district":{"key":"06632","name":"Hersfeld-Rotenburg","type":"Landkreis"},"federalState":{"key":"06","name":"Hessen"}},{"name":"Landecker Str.","postalCode":"36251","locality":"Bad Hersfeld","municipality":{"key":"06632002","name":"Bad Hersfeld, Kreisstadt","type":"Stadt"},"district":{"key":"06632","name":"Hersfeld-Rotenburg","type":"Landkreis"},"federalState":{"key":"06","name":"Hessen"}},{"name":"Langenbergstr.","postalCode":"36251","locality":"Bad Hersfeld","municipality":{"key":"06632002","name":"Bad Hersfeld, Kreisstadt","type":"Stadt"},"district":{"key":"06632","name":"Hersfeld-Rotenburg","type":"Landkreis"},"federalState":{"key":"06","name":"Hessen"}},{"name":"Lappenlied","postalCode":"36251","locality":"Bad Hersfeld","municipality":{"key":"06632002","name":"Bad Hersfeld, Kreisstadt","type":"Stadt"},"district":{"key":"06632","name":"Hersfeld-Rotenburg","type":"Landkreis"},"federalState":{"key":"06","name":"Hessen"}},{"name":"Lärchenweg","postalCode":"36251","locality":"Bad Hersfeld","municipality":{"key":"06632002","name":"Bad Hersfeld, Kreisstadt","type":"Stadt"},"district":{"key":"06632","name":"Hersfeld-Rotenburg","type":"Landkreis"},"federalState":{"key":"06","name":"Hessen"}},{"name":"Laufholzweg","postalCode":"36251","locality":"Bad Hersfeld","municipality":{"key":"06632002","name":"Bad Hersfeld, Kreisstadt","type":"Stadt"},"district":{"key":"06632","name":"Hersfeld-Rotenburg","type":"Landkreis"},"federalState":{"key":"06","name":"Hessen"}},{"name":"Lausitzer Str.","postalCode":"36251","locality":"Bad Hersfeld","municipality":{"key":"06632002","name":"Bad Hersfeld, Kreisstadt","type":"Stadt"},"district":{"key":"06632","name":"Hersfeld-Rotenburg","type":"Landkreis"},"federalState":{"key":"06","name":"Hessen"}},{"name":"Leinenweberstr.","postalCode":"36251","locality":"Bad Hersfeld","municipality":{"key":"06632002","name":"Bad Hersfeld, Kreisstadt","type":"Stadt"},"district":{"key":"06632","name":"Hersfeld-Rotenburg","type":"Landkreis"},"federalState":{"key":"06","name":"Hessen"}},{"name":"Leipziger Str.","postalCode":"36251","locality":"Bad Hersfeld","municipality":{"key":"06632002","name":"Bad Hersfeld, Kreisstadt","type":"Stadt"},"district":{"key":"06632","name":"Hersfeld-Rotenburg","type":"Landkreis"},"federalState":{"key":"06","name":"Hessen"}},{"name":"Ligusterweg","postalCode":"36251","locality":"Bad Hersfeld","municipality":{"key":"06632002","name":"Bad Hersfeld, Kreisstadt","type":"Stadt"},"district":{"key":"06632","name":"Hersfeld-Rotenburg","type":"Landkreis"},"federalState":{"key":"06","name":"Hessen"}},{"name":"Lindenallee","postalCode":"36251","locality":"Bad Hersfeld","municipality":{"key":"06632002","name":"Bad Hersfeld, Kreisstadt","type":"Stadt"},"district":{"key":"06632","name":"Hersfeld-Rotenburg","type":"Landkreis"},"federalState":{"key":"06","name":"Hessen"}},{"name":"Lindenweg","postalCode":"36251","locality":"Bad Hersfeld","municipality":{"key":"06632002","name":"Bad Hersfeld, Kreisstadt","type":"Stadt"},"district":{"key":"06632","name":"Hersfeld-Rotenburg","type":"Landkreis"},"federalState":{"key":"06","name":"Hessen"}},{"name":"Linsengasse","postalCode":"36251","locality":"Bad Hersfeld","municipality":{"key":"06632002","name":"Bad Hersfeld, Kreisstadt","type":"Stadt"},"district":{"key":"06632","name":"Hersfeld-Rotenburg","type":"Landkreis"},"federalState":{"key":"06","name":"Hessen"}},{"name":"Lohmühlenweg","postalCode":"36251","locality":"Bad Hersfeld","municipality":{"key":"06632002","name":"Bad Hersfeld, Kreisstadt","type":"Stadt"},"district":{"key":"06632","name":"Hersfeld-Rotenburg","type":"Landkreis"},"federalState":{"key":"06","name":"Hessen"}},{"name":"Löhrgasse","postalCode":"36251","locality":"Bad Hersfeld","municipality":{"key":"06632002","name":"Bad Hersfeld, Kreisstadt","type":"Stadt"},"district":{"key":"06632","name":"Hersfeld-Rotenburg","type":"Landkreis"},"federalState":{"key":"06","name":"Hessen"}},{"name":"Louis-Demme-Str.","postalCode":"36251","locality":"Bad Hersfeld","municipality":{"key":"06632002","name":"Bad Hersfeld, Kreisstadt","type":"Stadt"},"district":{"key":"06632","name":"Hersfeld-Rotenburg","type":"Landkreis"},"federalState":{"key":"06","name":"Hessen"}},{"name":"Ludwig-Braun-Str.","postalCode":"36251","locality":"Bad Hersfeld","municipality":{"key":"06632002","name":"Bad Hersfeld, Kreisstadt","type":"Stadt"},"district":{"key":"06632","name":"Hersfeld-Rotenburg","type":"Landkreis"},"federalState":{"key":"06","name":"Hessen"}},{"name":"Ludwig-van-Beethoven-Ring","postalCode":"36251","locality":"Bad Hersfeld","municipality":{"key":"06632002","name":"Bad Hersfeld, Kreisstadt","type":"Stadt"},"district":{"key":"06632","name":"Hersfeld-Rotenburg","type":"Landkreis"},"federalState":{"key":"06","name":"Hessen"}},{"name":"Lullusstr.","postalCode":"36251","locality":"Bad Hersfeld","municipality":{"key":"06632002","name":"Bad Hersfeld, Kreisstadt","type":"Stadt"},"district":{"key":"06632","name":"Hersfeld-Rotenburg","type":"Landkreis"},"federalState":{"key":"06","name":"Hessen"}},{"name":"Lupinenweg","postalCode":"36251","locality":"Bad Hersfeld","municipality":{"key":"06632002","name":"Bad Hersfeld, Kreisstadt","type":"Stadt"},"district":{"key":"06632","name":"Hersfeld-Rotenburg","type":"Landkreis"},"federalState":{"key":"06","name":"Hessen"}},{"name":"Lutherstr.","postalCode":"36251","locality":"Bad Hersfeld","municipality":{"key":"06632002","name":"Bad Hersfeld, Kreisstadt","type":"Stadt"},"district":{"key":"06632","name":"Hersfeld-Rotenburg","type":"Landkreis"},"federalState":{"key":"06","name":"Hessen"}},{"name":"Magdeburger Str.","postalCode":"36251","locality":"Bad Hersfeld","municipality":{"key":"06632002","name":"Bad Hersfeld, Kreisstadt","type":"Stadt"},"district":{"key":"06632","name":"Hersfeld-Rotenburg","type":"Landkreis"},"federalState":{"key":"06","name":"Hessen"}},{"name":"Magnolienweg","postalCode":"36251","locality":"Bad Hersfeld","municipality":{"key":"06632002","name":"Bad Hersfeld, Kreisstadt","type":"Stadt"},"district":{"key":"06632","name":"Hersfeld-Rotenburg","type":"Landkreis"},"federalState":{"key":"06","name":"Hessen"}},{"name":"Mährisch-Schönberger-Str.","postalCode":"36251","locality":"Bad Hersfeld","municipality":{"key":"06632002","name":"Bad Hersfeld, Kreisstadt","type":"Stadt"},"district":{"key":"06632","name":"Hersfeld-Rotenburg","type":"Landkreis"},"federalState":{"key":"06","name":"Hessen"}},{"name":"Max-Becker-Str.","postalCode":"36251","locality":"Bad Hersfeld","municipality":{"key":"06632002","name":"Bad Hersfeld, Kreisstadt","type":"Stadt"},"district":{"key":"06632","name":"Hersfeld-Rotenburg","type":"Landkreis"},"federalState":{"key":"06","name":"Hessen"}},{"name":"Max-Planck-Str.","postalCode":"36251","locality":"Bad Hersfeld","municipality":{"key":"06632002","name":"Bad Hersfeld, Kreisstadt","type":"Stadt"},"district":{"key":"06632","name":"Hersfeld-Rotenburg","type":"Landkreis"},"federalState":{"key":"06","name":"Hessen"}},{"name":"Meisebacher Str.","postalCode":"36251","locality":"Bad Hersfeld","municipality":{"key":"06632002","name":"Bad Hersfeld, Kreisstadt","type":"Stadt"},"district":{"key":"06632","name":"Hersfeld-Rotenburg","type":"Landkreis"},"federalState":{"key":"06","name":"Hessen"}},{"name":"Memeler Str.","postalCode":"36251","locality":"Bad Hersfeld","municipality":{"key":"06632002","name":"Bad Hersfeld, Kreisstadt","type":"Stadt"},"district":{"key":"06632","name":"Hersfeld-Rotenburg","type":"Landkreis"},"federalState":{"key":"06","name":"Hessen"}},{"name":"Michael-Schnabrich-Str.","postalCode":"36251","locality":"Bad Hersfeld","municipality":{"key":"06632002","name":"Bad Hersfeld, Kreisstadt","type":"Stadt"},"district":{"key":"06632","name":"Hersfeld-Rotenburg","type":"Landkreis"},"federalState":{"key":"06","name":"Hessen"}},{"name":"Mistegasse","postalCode":"36251","locality":"Bad Hersfeld","municipality":{"key":"06632002","name":"Bad Hersfeld, Kreisstadt","type":"Stadt"},"district":{"key":"06632","name":"Hersfeld-Rotenburg","type":"Landkreis"},"federalState":{"key":"06","name":"Hessen"}},{"name":"Mistelweg","postalCode":"36251","locality":"Bad Hersfeld","municipality":{"key":"06632002","name":"Bad Hersfeld, Kreisstadt","type":"Stadt"},"district":{"key":"06632","name":"Hersfeld-Rotenburg","type":"Landkreis"},"federalState":{"key":"06","name":"Hessen"}},{"name":"Mittelbergstr.","postalCode":"36251","locality":"Bad Hersfeld","municipality":{"key":"06632002","name":"Bad Hersfeld, Kreisstadt","type":"Stadt"},"district":{"key":"06632","name":"Hersfeld-Rotenburg","type":"Landkreis"},"federalState":{"key":"06","name":"Hessen"}},{"name":"Mittelgasse","postalCode":"36251","locality":"Bad Hersfeld","municipality":{"key":"06632002","name":"Bad Hersfeld, Kreisstadt","type":"Stadt"},"district":{"key":"06632","name":"Hersfeld-Rotenburg","type":"Landkreis"},"federalState":{"key":"06","name":"Hessen"}},{"name":"Mönchesweg","postalCode":"36251","locality":"Bad Hersfeld","municipality":{"key":"06632002","name":"Bad Hersfeld, Kreisstadt","type":"Stadt"},"district":{"key":"06632","name":"Hersfeld-Rotenburg","type":"Landkreis"},"federalState":{"key":"06","name":"Hessen"}},{"name":"Mühlersfeldstr.","postalCode":"36251","locality":"Bad Hersfeld","municipality":{"key":"06632002","name":"Bad Hersfeld, Kreisstadt","type":"Stadt"},"district":{"key":"06632","name":"Hersfeld-Rotenburg","type":"Landkreis"},"federalState":{"key":"06","name":"Hessen"}},{"name":"Mühlestr.","postalCode":"36251","locality":"Bad Hersfeld","municipality":{"key":"06632002","name":"Bad Hersfeld, Kreisstadt","type":"Stadt"},"district":{"key":"06632","name":"Hersfeld-Rotenburg","type":"Landkreis"},"federalState":{"key":"06","name":"Hessen"}},{"name":"Mühlweg","postalCode":"36251","locality":"Bad Hersfeld","municipality":{"key":"06632002","name":"Bad Hersfeld, Kreisstadt","type":"Stadt"},"district":{"key":"06632","name":"Hersfeld-Rotenburg","type":"Landkreis"},"federalState":{"key":"06","name":"Hessen"}},{"name":"Münscherstr.","postalCode":"36251","locality":"Bad Hersfeld","municipality":{"key":"06632002","name":"Bad Hersfeld, Kreisstadt","type":"Stadt"},"district":{"key":"06632","name":"Hersfeld-Rotenburg","type":"Landkreis"},"federalState":{"key":"06","name":"Hessen"}},{"name":"Nachtigallenstr.","postalCode":"36251","locality":"Bad Hersfeld","municipality":{"key":"06632002","name":"Bad Hersfeld, Kreisstadt","type":"Stadt"},"district":{"key":"06632","name":"Hersfeld-Rotenburg","type":"Landkreis"},"federalState":{"key":"06","name":"Hessen"}},{"name":"Neuensteiner Str.","postalCode":"36251","locality":"Bad Hersfeld","municipality":{"key":"06632002","name":"Bad Hersfeld, Kreisstadt","type":"Stadt"},"district":{"key":"06632","name":"Hersfeld-Rotenburg","type":"Landkreis"},"federalState":{"key":"06","name":"Hessen"}},{"name":"Neugeiserhof","postalCode":"36251","locality":"Bad Hersfeld","municipality":{"key":"06632002","name":"Bad Hersfeld, Kreisstadt","type":"Stadt"},"district":{"key":"06632","name":"Hersfeld-Rotenburg","type":"Landkreis"},"federalState":{"key":"06","name":"Hessen"}},{"name":"Neumarkt","postalCode":"36251","locality":"Bad Hersfeld","municipality":{"key":"06632002","name":"Bad Hersfeld, Kreisstadt","type":"Stadt"},"district":{"key":"06632","name":"Hersfeld-Rotenburg","type":"Landkreis"},"federalState":{"key":"06","name":"Hessen"}},{"name":"Neustadt","postalCode":"36251","locality":"Bad Hersfeld","municipality":{"key":"06632002","name":"Bad Hersfeld, Kreisstadt","type":"Stadt"},"district":{"key":"06632","name":"Hersfeld-Rotenburg","type":"Landkreis"},"federalState":{"key":"06","name":"Hessen"}},{"name":"Nußbaumweg","postalCode":"36251","locality":"Bad Hersfeld","municipality":{"key":"06632002","name":"Bad Hersfeld, Kreisstadt","type":"Stadt"},"district":{"key":"06632","name":"Hersfeld-Rotenburg","type":"Landkreis"},"federalState":{"key":"06","name":"Hessen"}},{"name":"Oberdorf","postalCode":"36251","locality":"Bad Hersfeld","municipality":{"key":"06632002","name":"Bad Hersfeld, Kreisstadt","type":"Stadt"},"district":{"key":"06632","name":"Hersfeld-Rotenburg","type":"Landkreis"},"federalState":{"key":"06","name":"Hessen"}},{"name":"Obere Dorngartenstr.","postalCode":"36251","locality":"Bad Hersfeld","municipality":{"key":"06632002","name":"Bad Hersfeld, Kreisstadt","type":"Stadt"},"district":{"key":"06632","name":"Hersfeld-Rotenburg","type":"Landkreis"},"federalState":{"key":"06","name":"Hessen"}},{"name":"Obere Frauenstr.","postalCode":"36251","locality":"Bad Hersfeld","municipality":{"key":"06632002","name":"Bad Hersfeld, Kreisstadt","type":"Stadt"},"district":{"key":"06632","name":"Hersfeld-Rotenburg","type":"Landkreis"},"federalState":{"key":"06","name":"Hessen"}},{"name":"Oberweg","postalCode":"36251","locality":"Bad Hersfeld","municipality":{"key":"06632002","name":"Bad Hersfeld, Kreisstadt","type":"Stadt"},"district":{"key":"06632","name":"Hersfeld-Rotenburg","type":"Landkreis"},"federalState":{"key":"06","name":"Hessen"}},{"name":"Pappelweg","postalCode":"36251","locality":"Bad Hersfeld","municipality":{"key":"06632002","name":"Bad Hersfeld, Kreisstadt","type":"Stadt"},"district":{"key":"06632","name":"Hersfeld-Rotenburg","type":"Landkreis"},"federalState":{"key":"06","name":"Hessen"}},{"name":"Petersberger Str.","postalCode":"36251","locality":"Bad Hersfeld","municipality":{"key":"06632002","name":"Bad Hersfeld, Kreisstadt","type":"Stadt"},"district":{"key":"06632","name":"Hersfeld-Rotenburg","type":"Landkreis"},"federalState":{"key":"06","name":"Hessen"}},{"name":"Peterstor","postalCode":"36251","locality":"Bad Hersfeld","municipality":{"key":"06632002","name":"Bad Hersfeld, Kreisstadt","type":"Stadt"},"district":{"key":"06632","name":"Hersfeld-Rotenburg","type":"Landkreis"},"federalState":{"key":"06","name":"Hessen"}},{"name":"Pfarrer-Lotz-Str.","postalCode":"36251","locality":"Bad Hersfeld","municipality":{"key":"06632002","name":"Bad Hersfeld, Kreisstadt","type":"Stadt"},"district":{"key":"06632","name":"Hersfeld-Rotenburg","type":"Landkreis"},"federalState":{"key":"06","name":"Hessen"}},{"name":"Pfeiffergasse","postalCode":"36251","locality":"Bad Hersfeld","municipality":{"key":"06632002","name":"Bad Hersfeld, Kreisstadt","type":"Stadt"},"district":{"key":"06632","name":"Hersfeld-Rotenburg","type":"Landkreis"},"federalState":{"key":"06","name":"Hessen"}},{"name":"Philipp-Hafner-Str.","postalCode":"36251","locality":"Bad Hersfeld","municipality":{"key":"06632002","name":"Bad Hersfeld, Kreisstadt","type":"Stadt"},"district":{"key":"06632","name":"Hersfeld-Rotenburg","type":"Landkreis"},"federalState":{"key":"06","name":"Hessen"}},{"name":"Pommernweg","postalCode":"36251","locality":"Bad Hersfeld","municipality":{"key":"06632002","name":"Bad Hersfeld, Kreisstadt","type":"Stadt"},"district":{"key":"06632","name":"Hersfeld-Rotenburg","type":"Landkreis"},"federalState":{"key":"06","name":"Hessen"}},{"name":"Quittenweg","postalCode":"36251","locality":"Bad Hersfeld","municipality":{"key":"06632002","name":"Bad Hersfeld, Kreisstadt","type":"Stadt"},"district":{"key":"06632","name":"Hersfeld-Rotenburg","type":"Landkreis"},"federalState":{"key":"06","name":"Hessen"}},{"name":"Ransen","postalCode":"36251","locality":"Bad Hersfeld","municipality":{"key":"06632002","name":"Bad Hersfeld, Kreisstadt","type":"Stadt"},"district":{"key":"06632","name":"Hersfeld-Rotenburg","type":"Landkreis"},"federalState":{"key":"06","name":"Hessen"}},{"name":"Rasenweg","postalCode":"36251","locality":"Bad Hersfeld","municipality":{"key":"06632002","name":"Bad Hersfeld, Kreisstadt","type":"Stadt"},"district":{"key":"06632","name":"Hersfeld-Rotenburg","type":"Landkreis"},"federalState":{"key":"06","name":"Hessen"}},{"name":"Rauherweg","postalCode":"36251","locality":"Bad Hersfeld","municipality":{"key":"06632002","name":"Bad Hersfeld, Kreisstadt","type":"Stadt"},"district":{"key":"06632","name":"Hersfeld-Rotenburg","type":"Landkreis"},"federalState":{"key":"06","name":"Hessen"}},{"name":"Reckeröder Str.","postalCode":"36251","locality":"Bad Hersfeld","municipality":{"key":"06632002","name":"Bad Hersfeld, Kreisstadt","type":"Stadt"},"district":{"key":"06632","name":"Hersfeld-Rotenburg","type":"Landkreis"},"federalState":{"key":"06","name":"Hessen"}},{"name":"Rehkuppenweg","postalCode":"36251","locality":"Bad Hersfeld","municipality":{"key":"06632002","name":"Bad Hersfeld, Kreisstadt","type":"Stadt"},"district":{"key":"06632","name":"Hersfeld-Rotenburg","type":"Landkreis"},"federalState":{"key":"06","name":"Hessen"}},{"name":"Reichsstr.","postalCode":"36251","locality":"Bad Hersfeld","municipality":{"key":"06632002","name":"Bad Hersfeld, Kreisstadt","type":"Stadt"},"district":{"key":"06632","name":"Hersfeld-Rotenburg","type":"Landkreis"},"federalState":{"key":"06","name":"Hessen"}},{"name":"Rennhöfchen","postalCode":"36251","locality":"Bad Hersfeld","municipality":{"key":"06632002","name":"Bad Hersfeld, Kreisstadt","type":"Stadt"},"district":{"key":"06632","name":"Hersfeld-Rotenburg","type":"Landkreis"},"federalState":{"key":"06","name":"Hessen"}},{"name":"Rhönstr.","postalCode":"36251","locality":"Bad Hersfeld","municipality":{"key":"06632002","name":"Bad Hersfeld, Kreisstadt","type":"Stadt"},"district":{"key":"06632","name":"Hersfeld-Rotenburg","type":"Landkreis"},"federalState":{"key":"06","name":"Hessen"}},{"name":"Ricarda-Huch-Str.","postalCode":"36251","locality":"Bad Hersfeld","municipality":{"key":"06632002","name":"Bad Hersfeld, Kreisstadt","type":"Stadt"},"district":{"key":"06632","name":"Hersfeld-Rotenburg","type":"Landkreis"},"federalState":{"key":"06","name":"Hessen"}},{"name":"Rimbergstr.","postalCode":"36251","locality":"Bad Hersfeld","municipality":{"key":"06632002","name":"Bad Hersfeld, Kreisstadt","type":"Stadt"},"district":{"key":"06632","name":"Hersfeld-Rotenburg","type":"Landkreis"},"federalState":{"key":"06","name":"Hessen"}},{"name":"Ringstr.","postalCode":"36251","locality":"Bad Hersfeld","municipality":{"key":"06632002","name":"Bad Hersfeld, Kreisstadt","type":"Stadt"},"district":{"key":"06632","name":"Hersfeld-Rotenburg","type":"Landkreis"},"federalState":{"key":"06","name":"Hessen"}},{"name":"Rittergasse","postalCode":"36251","locality":"Bad Hersfeld","municipality":{"key":"06632002","name":"Bad Hersfeld, Kreisstadt","type":"Stadt"},"district":{"key":"06632","name":"Hersfeld-Rotenburg","type":"Landkreis"},"federalState":{"key":"06","name":"Hessen"}},{"name":"Robert-Heil-Str.","postalCode":"36251","locality":"Bad Hersfeld","municipality":{"key":"06632002","name":"Bad Hersfeld, Kreisstadt","type":"Stadt"},"district":{"key":"06632","name":"Hersfeld-Rotenburg","type":"Landkreis"},"federalState":{"key":"06","name":"Hessen"}},{"name":"Robert-Koch-Str.","postalCode":"36251","locality":"Bad Hersfeld","municipality":{"key":"06632002","name":"Bad Hersfeld, Kreisstadt","type":"Stadt"},"district":{"key":"06632","name":"Hersfeld-Rotenburg","type":"Landkreis"},"federalState":{"key":"06","name":"Hessen"}},{"name":"Rosengartenstr.","postalCode":"36251","locality":"Bad Hersfeld","municipality":{"key":"06632002","name":"Bad Hersfeld, Kreisstadt","type":"Stadt"},"district":{"key":"06632","name":"Hersfeld-Rotenburg","type":"Landkreis"},"federalState":{"key":"06","name":"Hessen"}},{"name":"Rosengasse","postalCode":"36251","locality":"Bad Hersfeld","municipality":{"key":"06632002","name":"Bad Hersfeld, Kreisstadt","type":"Stadt"},"district":{"key":"06632","name":"Hersfeld-Rotenburg","type":"Landkreis"},"federalState":{"key":"06","name":"Hessen"}},{"name":"Rosenweg","postalCode":"36251","locality":"Bad Hersfeld","municipality":{"key":"06632002","name":"Bad Hersfeld, Kreisstadt","type":"Stadt"},"district":{"key":"06632","name":"Hersfeld-Rotenburg","type":"Landkreis"},"federalState":{"key":"06","name":"Hessen"}},{"name":"Rosmariengasse","postalCode":"36251","locality":"Bad Hersfeld","municipality":{"key":"06632002","name":"Bad Hersfeld, Kreisstadt","type":"Stadt"},"district":{"key":"06632","name":"Hersfeld-Rotenburg","type":"Landkreis"},"federalState":{"key":"06","name":"Hessen"}},{"name":"Rotdornweg","postalCode":"36251","locality":"Bad Hersfeld","municipality":{"key":"06632002","name":"Bad Hersfeld, Kreisstadt","type":"Stadt"},"district":{"key":"06632","name":"Hersfeld-Rotenburg","type":"Landkreis"},"federalState":{"key":"06","name":"Hessen"}},{"name":"Rudolf-Diesel-Str.","postalCode":"36251","locality":"Bad Hersfeld","municipality":{"key":"06632002","name":"Bad Hersfeld, Kreisstadt","type":"Stadt"},"district":{"key":"06632","name":"Hersfeld-Rotenburg","type":"Landkreis"},"federalState":{"key":"06","name":"Hessen"}},{"name":"Rudolf-Grenzebach-Str.","postalCode":"36251","locality":"Bad Hersfeld","municipality":{"key":"06632002","name":"Bad Hersfeld, Kreisstadt","type":"Stadt"},"district":{"key":"06632","name":"Hersfeld-Rotenburg","type":"Landkreis"},"federalState":{"key":"06","name":"Hessen"}},{"name":"Rüsternweg","postalCode":"36251","locality":"Bad Hersfeld","municipality":{"key":"06632002","name":"Bad Hersfeld, Kreisstadt","type":"Stadt"},"district":{"key":"06632","name":"Hersfeld-Rotenburg","type":"Landkreis"},"federalState":{"key":"06","name":"Hessen"}},{"name":"Saarlandstr.","postalCode":"36251","locality":"Bad Hersfeld","municipality":{"key":"06632002","name":"Bad Hersfeld, Kreisstadt","type":"Stadt"},"district":{"key":"06632","name":"Hersfeld-Rotenburg","type":"Landkreis"},"federalState":{"key":"06","name":"Hessen"}},{"name":"Salzunger Str.","postalCode":"36251","locality":"Bad Hersfeld","municipality":{"key":"06632002","name":"Bad Hersfeld, Kreisstadt","type":"Stadt"},"district":{"key":"06632","name":"Hersfeld-Rotenburg","type":"Landkreis"},"federalState":{"key":"06","name":"Hessen"}},{"name":"Sanddornweg","postalCode":"36251","locality":"Bad Hersfeld","municipality":{"key":"06632002","name":"Bad Hersfeld, Kreisstadt","type":"Stadt"},"district":{"key":"06632","name":"Hersfeld-Rotenburg","type":"Landkreis"},"federalState":{"key":"06","name":"Hessen"}},{"name":"Sandweg","postalCode":"36251","locality":"Bad Hersfeld","municipality":{"key":"06632002","name":"Bad Hersfeld, Kreisstadt","type":"Stadt"},"district":{"key":"06632","name":"Hersfeld-Rotenburg","type":"Landkreis"},"federalState":{"key":"06","name":"Hessen"}},{"name":"Scheidemannstr.","postalCode":"36251","locality":"Bad Hersfeld","municipality":{"key":"06632002","name":"Bad Hersfeld, Kreisstadt","type":"Stadt"},"district":{"key":"06632","name":"Hersfeld-Rotenburg","type":"Landkreis"},"federalState":{"key":"06","name":"Hessen"}},{"name":"Schilde-Park","postalCode":"36251","locality":"Bad Hersfeld","municipality":{"key":"06632002","name":"Bad Hersfeld, Kreisstadt","type":"Stadt"},"district":{"key":"06632","name":"Hersfeld-Rotenburg","type":"Landkreis"},"federalState":{"key":"06","name":"Hessen"}},{"name":"Schillerstr.","postalCode":"36251","locality":"Bad Hersfeld","municipality":{"key":"06632002","name":"Bad Hersfeld, Kreisstadt","type":"Stadt"},"district":{"key":"06632","name":"Hersfeld-Rotenburg","type":"Landkreis"},"federalState":{"key":"06","name":"Hessen"}},{"name":"Schirngraben","postalCode":"36251","locality":"Bad Hersfeld","municipality":{"key":"06632002","name":"Bad Hersfeld, Kreisstadt","type":"Stadt"},"district":{"key":"06632","name":"Hersfeld-Rotenburg","type":"Landkreis"},"federalState":{"key":"06","name":"Hessen"}},{"name":"Schlehenweg","postalCode":"36251","locality":"Bad Hersfeld","municipality":{"key":"06632002","name":"Bad Hersfeld, Kreisstadt","type":"Stadt"},"district":{"key":"06632","name":"Hersfeld-Rotenburg","type":"Landkreis"},"federalState":{"key":"06","name":"Hessen"}},{"name":"Schlesische Str.","postalCode":"36251","locality":"Bad Hersfeld","municipality":{"key":"06632002","name":"Bad Hersfeld, Kreisstadt","type":"Stadt"},"district":{"key":"06632","name":"Hersfeld-Rotenburg","type":"Landkreis"},"federalState":{"key":"06","name":"Hessen"}},{"name":"Schlippental","postalCode":"36251","locality":"Bad Hersfeld","municipality":{"key":"06632002","name":"Bad Hersfeld, Kreisstadt","type":"Stadt"},"district":{"key":"06632","name":"Hersfeld-Rotenburg","type":"Landkreis"},"federalState":{"key":"06","name":"Hessen"}},{"name":"Schlosserstr.","postalCode":"36251","locality":"Bad Hersfeld","municipality":{"key":"06632002","name":"Bad Hersfeld, Kreisstadt","type":"Stadt"},"district":{"key":"06632","name":"Hersfeld-Rotenburg","type":"Landkreis"},"federalState":{"key":"06","name":"Hessen"}},{"name":"Schlossstr.","postalCode":"36251","locality":"Bad Hersfeld","municipality":{"key":"06632002","name":"Bad Hersfeld, Kreisstadt","type":"Stadt"},"district":{"key":"06632","name":"Hersfeld-Rotenburg","type":"Landkreis"},"federalState":{"key":"06","name":"Hessen"}},{"name":"Schöne Aussicht","postalCode":"36251","locality":"Bad Hersfeld","municipality":{"key":"06632002","name":"Bad Hersfeld, Kreisstadt","type":"Stadt"},"district":{"key":"06632","name":"Hersfeld-Rotenburg","type":"Landkreis"},"federalState":{"key":"06","name":"Hessen"}},{"name":"Schulstr.","postalCode":"36251","locality":"Bad Hersfeld","municipality":{"key":"06632002","name":"Bad Hersfeld, Kreisstadt","type":"Stadt"},"district":{"key":"06632","name":"Hersfeld-Rotenburg","type":"Landkreis"},"federalState":{"key":"06","name":"Hessen"}},{"name":"Schulweg","postalCode":"36251","locality":"Bad Hersfeld","municipality":{"key":"06632002","name":"Bad Hersfeld, Kreisstadt","type":"Stadt"},"district":{"key":"06632","name":"Hersfeld-Rotenburg","type":"Landkreis"},"federalState":{"key":"06","name":"Hessen"}},{"name":"Schützenstr.","postalCode":"36251","locality":"Bad Hersfeld","municipality":{"key":"06632002","name":"Bad Hersfeld, Kreisstadt","type":"Stadt"},"district":{"key":"06632","name":"Hersfeld-Rotenburg","type":"Landkreis"},"federalState":{"key":"06","name":"Hessen"}},{"name":"Schwarzdornweg","postalCode":"36251","locality":"Bad Hersfeld","municipality":{"key":"06632002","name":"Bad Hersfeld, Kreisstadt","type":"Stadt"},"district":{"key":"06632","name":"Hersfeld-Rotenburg","type":"Landkreis"},"federalState":{"key":"06","name":"Hessen"}},{"name":"Seidelbastweg","postalCode":"36251","locality":"Bad Hersfeld","municipality":{"key":"06632002","name":"Bad Hersfeld, Kreisstadt","type":"Stadt"},"district":{"key":"06632","name":"Hersfeld-Rotenburg","type":"Landkreis"},"federalState":{"key":"06","name":"Hessen"}},{"name":"Seilerweg","postalCode":"36251","locality":"Bad Hersfeld","municipality":{"key":"06632002","name":"Bad Hersfeld, Kreisstadt","type":"Stadt"},"district":{"key":"06632","name":"Hersfeld-Rotenburg","type":"Landkreis"},"federalState":{"key":"06","name":"Hessen"}},{"name":"Siebenbürgener Str.","postalCode":"36251","locality":"Bad Hersfeld","municipality":{"key":"06632002","name":"Bad Hersfeld, Kreisstadt","type":"Stadt"},"district":{"key":"06632","name":"Hersfeld-Rotenburg","type":"Landkreis"},"federalState":{"key":"06","name":"Hessen"}},{"name":"Siedlerstr.","postalCode":"36251","locality":"Bad Hersfeld","municipality":{"key":"06632002","name":"Bad Hersfeld, Kreisstadt","type":"Stadt"},"district":{"key":"06632","name":"Hersfeld-Rotenburg","type":"Landkreis"},"federalState":{"key":"06","name":"Hessen"}},{"name":"Simon-Haune-Str.","postalCode":"36251","locality":"Bad Hersfeld","municipality":{"key":"06632002","name":"Bad Hersfeld, Kreisstadt","type":"Stadt"},"district":{"key":"06632","name":"Hersfeld-Rotenburg","type":"Landkreis"},"federalState":{"key":"06","name":"Hessen"}},{"name":"Sölzerhöfe","postalCode":"36251","locality":"Bad Hersfeld","municipality":{"key":"06632002","name":"Bad Hersfeld, Kreisstadt","type":"Stadt"},"district":{"key":"06632","name":"Hersfeld-Rotenburg","type":"Landkreis"},"federalState":{"key":"06","name":"Hessen"}},{"name":"Solztalstr.","postalCode":"36251","locality":"Bad Hersfeld","municipality":{"key":"06632002","name":"Bad Hersfeld, Kreisstadt","type":"Stadt"},"district":{"key":"06632","name":"Hersfeld-Rotenburg","type":"Landkreis"},"federalState":{"key":"06","name":"Hessen"}},{"name":"Sondershäuser Str.","postalCode":"36251","locality":"Bad Hersfeld","municipality":{"key":"06632002","name":"Bad Hersfeld, Kreisstadt","type":"Stadt"},"district":{"key":"06632","name":"Hersfeld-Rotenburg","type":"Landkreis"},"federalState":{"key":"06","name":"Hessen"}},{"name":"Sonnenblick","postalCode":"36251","locality":"Bad Hersfeld","municipality":{"key":"06632002","name":"Bad Hersfeld, Kreisstadt","type":"Stadt"},"district":{"key":"06632","name":"Hersfeld-Rotenburg","type":"Landkreis"},"federalState":{"key":"06","name":"Hessen"}},{"name":"Sonnenhang","postalCode":"36251","locality":"Bad Hersfeld","municipality":{"key":"06632002","name":"Bad Hersfeld, Kreisstadt","type":"Stadt"},"district":{"key":"06632","name":"Hersfeld-Rotenburg","type":"Landkreis"},"federalState":{"key":"06","name":"Hessen"}},{"name":"Sonnenweg","postalCode":"36251","locality":"Bad Hersfeld","municipality":{"key":"06632002","name":"Bad Hersfeld, Kreisstadt","type":"Stadt"},"district":{"key":"06632","name":"Hersfeld-Rotenburg","type":"Landkreis"},"federalState":{"key":"06","name":"Hessen"}},{"name":"Spessartstr.","postalCode":"36251","locality":"Bad Hersfeld","municipality":{"key":"06632002","name":"Bad Hersfeld, Kreisstadt","type":"Stadt"},"district":{"key":"06632","name":"Hersfeld-Rotenburg","type":"Landkreis"},"federalState":{"key":"06","name":"Hessen"}},{"name":"Steiler Weg","postalCode":"36251","locality":"Bad Hersfeld","municipality":{"key":"06632002","name":"Bad Hersfeld, Kreisstadt","type":"Stadt"},"district":{"key":"06632","name":"Hersfeld-Rotenburg","type":"Landkreis"},"federalState":{"key":"06","name":"Hessen"}},{"name":"Steingraben","postalCode":"36251","locality":"Bad Hersfeld","municipality":{"key":"06632002","name":"Bad Hersfeld, Kreisstadt","type":"Stadt"},"district":{"key":"06632","name":"Hersfeld-Rotenburg","type":"Landkreis"},"federalState":{"key":"06","name":"Hessen"}},{"name":"Sternerstr.","postalCode":"36251","locality":"Bad Hersfeld","municipality":{"key":"06632002","name":"Bad Hersfeld, Kreisstadt","type":"Stadt"},"district":{"key":"06632","name":"Hersfeld-Rotenburg","type":"Landkreis"},"federalState":{"key":"06","name":"Hessen"}},{"name":"Stettiner Str.","postalCode":"36251","locality":"Bad Hersfeld","municipality":{"key":"06632002","name":"Bad Hersfeld, Kreisstadt","type":"Stadt"},"district":{"key":"06632","name":"Hersfeld-Rotenburg","type":"Landkreis"},"federalState":{"key":"06","name":"Hessen"}},{"name":"Stiftspark","postalCode":"36251","locality":"Bad Hersfeld","municipality":{"key":"06632002","name":"Bad Hersfeld, Kreisstadt","type":"Stadt"},"district":{"key":"06632","name":"Hersfeld-Rotenburg","type":"Landkreis"},"federalState":{"key":"06","name":"Hessen"}},{"name":"Stresemannallee","postalCode":"36251","locality":"Bad Hersfeld","municipality":{"key":"06632002","name":"Bad Hersfeld, Kreisstadt","type":"Stadt"},"district":{"key":"06632","name":"Hersfeld-Rotenburg","type":"Landkreis"},"federalState":{"key":"06","name":"Hessen"}},{"name":"Sturmiusstr.","postalCode":"36251","locality":"Bad Hersfeld","municipality":{"key":"06632002","name":"Bad Hersfeld, Kreisstadt","type":"Stadt"},"district":{"key":"06632","name":"Hersfeld-Rotenburg","type":"Landkreis"},"federalState":{"key":"06","name":"Hessen"}},{"name":"Sudetenstr.","postalCode":"36251","locality":"Bad Hersfeld","municipality":{"key":"06632002","name":"Bad Hersfeld, Kreisstadt","type":"Stadt"},"district":{"key":"06632","name":"Hersfeld-Rotenburg","type":"Landkreis"},"federalState":{"key":"06","name":"Hessen"}},{"name":"Talblick","postalCode":"36251","locality":"Bad Hersfeld","municipality":{"key":"06632002","name":"Bad Hersfeld, Kreisstadt","type":"Stadt"},"district":{"key":"06632","name":"Hersfeld-Rotenburg","type":"Landkreis"},"federalState":{"key":"06","name":"Hessen"}},{"name":"Talstr.","postalCode":"36251","locality":"Bad Hersfeld","municipality":{"key":"06632002","name":"Bad Hersfeld, Kreisstadt","type":"Stadt"},"district":{"key":"06632","name":"Hersfeld-Rotenburg","type":"Landkreis"},"federalState":{"key":"06","name":"Hessen"}},{"name":"Tannenweg","postalCode":"36251","locality":"Bad Hersfeld","municipality":{"key":"06632002","name":"Bad Hersfeld, Kreisstadt","type":"Stadt"},"district":{"key":"06632","name":"Hersfeld-Rotenburg","type":"Landkreis"},"federalState":{"key":"06","name":"Hessen"}},{"name":"Teichweg","postalCode":"36251","locality":"Bad Hersfeld","municipality":{"key":"06632002","name":"Bad Hersfeld, Kreisstadt","type":"Stadt"},"district":{"key":"06632","name":"Hersfeld-Rotenburg","type":"Landkreis"},"federalState":{"key":"06","name":"Hessen"}},{"name":"Theodor-Heuss-Platz","postalCode":"36251","locality":"Bad Hersfeld","municipality":{"key":"06632002","name":"Bad Hersfeld, Kreisstadt","type":"Stadt"},"district":{"key":"06632","name":"Hersfeld-Rotenburg","type":"Landkreis"},"federalState":{"key":"06","name":"Hessen"}},{"name":"Thorner Str.","postalCode":"36251","locality":"Bad Hersfeld","municipality":{"key":"06632002","name":"Bad Hersfeld, Kreisstadt","type":"Stadt"},"district":{"key":"06632","name":"Hersfeld-Rotenburg","type":"Landkreis"},"federalState":{"key":"06","name":"Hessen"}},{"name":"Torstr.","postalCode":"36251","locality":"Bad Hersfeld","municipality":{"key":"06632002","name":"Bad Hersfeld, Kreisstadt","type":"Stadt"},"district":{"key":"06632","name":"Hersfeld-Rotenburg","type":"Landkreis"},"federalState":{"key":"06","name":"Hessen"}},{"name":"Trimm-Dich-Pfad","postalCode":"36251","locality":"Bad Hersfeld","municipality":{"key":"06632002","name":"Bad Hersfeld, Kreisstadt","type":"Stadt"},"district":{"key":"06632","name":"Hersfeld-Rotenburg","type":"Landkreis"},"federalState":{"key":"06","name":"Hessen"}},{"name":"Tuchmacherweg","postalCode":"36251","locality":"Bad Hersfeld","municipality":{"key":"06632002","name":"Bad Hersfeld, Kreisstadt","type":"Stadt"},"district":{"key":"06632","name":"Hersfeld-Rotenburg","type":"Landkreis"},"federalState":{"key":"06","name":"Hessen"}},{"name":"Tulpenweg","postalCode":"36251","locality":"Bad Hersfeld","municipality":{"key":"06632002","name":"Bad Hersfeld, Kreisstadt","type":"Stadt"},"district":{"key":"06632","name":"Hersfeld-Rotenburg","type":"Landkreis"},"federalState":{"key":"06","name":"Hessen"}},{"name":"Uffhäuser Str.","postalCode":"36251","locality":"Bad Hersfeld","municipality":{"key":"06632002","name":"Bad Hersfeld, Kreisstadt","type":"Stadt"},"district":{"key":"06632","name":"Hersfeld-Rotenburg","type":"Landkreis"},"federalState":{"key":"06","name":"Hessen"}},{"name":"Ulmenweg","postalCode":"36251","locality":"Bad Hersfeld","municipality":{"key":"06632002","name":"Bad Hersfeld, Kreisstadt","type":"Stadt"},"district":{"key":"06632","name":"Hersfeld-Rotenburg","type":"Landkreis"},"federalState":{"key":"06","name":"Hessen"}},{"name":"Unter den Eichen","postalCode":"36251","locality":"Bad Hersfeld","municipality":{"key":"06632002","name":"Bad Hersfeld, Kreisstadt","type":"Stadt"},"district":{"key":"06632","name":"Hersfeld-Rotenburg","type":"Landkreis"},"federalState":{"key":"06","name":"Hessen"}},{"name":"Unter der Stiegel","postalCode":"36251","locality":"Bad Hersfeld","municipality":{"key":"06632002","name":"Bad Hersfeld, Kreisstadt","type":"Stadt"},"district":{"key":"06632","name":"Hersfeld-Rotenburg","type":"Landkreis"},"federalState":{"key":"06","name":"Hessen"}},{"name":"Untere Dorngartenstr.","postalCode":"36251","locality":"Bad Hersfeld","municipality":{"key":"06632002","name":"Bad Hersfeld, Kreisstadt","type":"Stadt"},"district":{"key":"06632","name":"Hersfeld-Rotenburg","type":"Landkreis"},"federalState":{"key":"06","name":"Hessen"}},{"name":"Untere Frauenstr.","postalCode":"36251","locality":"Bad Hersfeld","municipality":{"key":"06632002","name":"Bad Hersfeld, Kreisstadt","type":"Stadt"},"district":{"key":"06632","name":"Hersfeld-Rotenburg","type":"Landkreis"},"federalState":{"key":"06","name":"Hessen"}},{"name":"Untere Kühnbach","postalCode":"36251","locality":"Bad Hersfeld","municipality":{"key":"06632002","name":"Bad Hersfeld, Kreisstadt","type":"Stadt"},"district":{"key":"06632","name":"Hersfeld-Rotenburg","type":"Landkreis"},"federalState":{"key":"06","name":"Hessen"}},{"name":"Unterm Laufholz","postalCode":"36251","locality":"Bad Hersfeld","municipality":{"key":"06632002","name":"Bad Hersfeld, Kreisstadt","type":"Stadt"},"district":{"key":"06632","name":"Hersfeld-Rotenburg","type":"Landkreis"},"federalState":{"key":"06","name":"Hessen"}},{"name":"Vitalisstr.","postalCode":"36251","locality":"Bad Hersfeld","municipality":{"key":"06632002","name":"Bad Hersfeld, Kreisstadt","type":"Stadt"},"district":{"key":"06632","name":"Hersfeld-Rotenburg","type":"Landkreis"},"federalState":{"key":"06","name":"Hessen"}},{"name":"Vlämenweg","postalCode":"36251","locality":"Bad Hersfeld","municipality":{"key":"06632002","name":"Bad Hersfeld, Kreisstadt","type":"Stadt"},"district":{"key":"06632","name":"Hersfeld-Rotenburg","type":"Landkreis"},"federalState":{"key":"06","name":"Hessen"}},{"name":"Vogelbeerweg","postalCode":"36251","locality":"Bad Hersfeld","municipality":{"key":"06632002","name":"Bad Hersfeld, Kreisstadt","type":"Stadt"},"district":{"key":"06632","name":"Hersfeld-Rotenburg","type":"Landkreis"},"federalState":{"key":"06","name":"Hessen"}},{"name":"Vogelgesang","postalCode":"36251","locality":"Bad Hersfeld","municipality":{"key":"06632002","name":"Bad Hersfeld, Kreisstadt","type":"Stadt"},"district":{"key":"06632","name":"Hersfeld-Rotenburg","type":"Landkreis"},"federalState":{"key":"06","name":"Hessen"}},{"name":"Vogelsbergstr.","postalCode":"36251","locality":"Bad Hersfeld","municipality":{"key":"06632002","name":"Bad Hersfeld, Kreisstadt","type":"Stadt"},"district":{"key":"06632","name":"Hersfeld-Rotenburg","type":"Landkreis"},"federalState":{"key":"06","name":"Hessen"}},{"name":"Von-Harnack-Str.","postalCode":"36251","locality":"Bad Hersfeld","municipality":{"key":"06632002","name":"Bad Hersfeld, Kreisstadt","type":"Stadt"},"district":{"key":"06632","name":"Hersfeld-Rotenburg","type":"Landkreis"},"federalState":{"key":"06","name":"Hessen"}},{"name":"Vor dem Clauswerth","postalCode":"36251","locality":"Bad Hersfeld","municipality":{"key":"06632002","name":"Bad Hersfeld, Kreisstadt","type":"Stadt"},"district":{"key":"06632","name":"Hersfeld-Rotenburg","type":"Landkreis"},"federalState":{"key":"06","name":"Hessen"}},{"name":"Vorderer Steingraben","postalCode":"36251","locality":"Bad Hersfeld","municipality":{"key":"06632002","name":"Bad Hersfeld, Kreisstadt","type":"Stadt"},"district":{"key":"06632","name":"Hersfeld-Rotenburg","type":"Landkreis"},"federalState":{"key":"06","name":"Hessen"}},{"name":"Vorm Laufholz","postalCode":"36251","locality":"Bad Hersfeld","municipality":{"key":"06632002","name":"Bad Hersfeld, Kreisstadt","type":"Stadt"},"district":{"key":"06632","name":"Hersfeld-Rotenburg","type":"Landkreis"},"federalState":{"key":"06","name":"Hessen"}},{"name":"Vorm Wald","postalCode":"36251","locality":"Bad Hersfeld","municipality":{"key":"06632002","name":"Bad Hersfeld, Kreisstadt","type":"Stadt"},"district":{"key":"06632","name":"Hersfeld-Rotenburg","type":"Landkreis"},"federalState":{"key":"06","name":"Hessen"}},{"name":"Wacholderweg","postalCode":"36251","locality":"Bad Hersfeld","municipality":{"key":"06632002","name":"Bad Hersfeld, Kreisstadt","type":"Stadt"},"district":{"key":"06632","name":"Hersfeld-Rotenburg","type":"Landkreis"},"federalState":{"key":"06","name":"Hessen"}},{"name":"Waldenburger Str.","postalCode":"36251","locality":"Bad Hersfeld","municipality":{"key":"06632002","name":"Bad Hersfeld, Kreisstadt","type":"Stadt"},"district":{"key":"06632","name":"Hersfeld-Rotenburg","type":"Landkreis"},"federalState":{"key":"06","name":"Hessen"}},{"name":"Waldstr.","postalCode":"36251","locality":"Bad Hersfeld","municipality":{"key":"06632002","name":"Bad Hersfeld, Kreisstadt","type":"Stadt"},"district":{"key":"06632","name":"Hersfeld-Rotenburg","type":"Landkreis"},"federalState":{"key":"06","name":"Hessen"}},{"name":"Walkerweg","postalCode":"36251","locality":"Bad Hersfeld","municipality":{"key":"06632002","name":"Bad Hersfeld, Kreisstadt","type":"Stadt"},"district":{"key":"06632","name":"Hersfeld-Rotenburg","type":"Landkreis"},"federalState":{"key":"06","name":"Hessen"}},{"name":"Walmeröder Grund","postalCode":"36251","locality":"Bad Hersfeld","municipality":{"key":"06632002","name":"Bad Hersfeld, Kreisstadt","type":"Stadt"},"district":{"key":"06632","name":"Hersfeld-Rotenburg","type":"Landkreis"},"federalState":{"key":"06","name":"Hessen"}},{"name":"Walnußweg","postalCode":"36251","locality":"Bad Hersfeld","municipality":{"key":"06632002","name":"Bad Hersfeld, Kreisstadt","type":"Stadt"},"district":{"key":"06632","name":"Hersfeld-Rotenburg","type":"Landkreis"},"federalState":{"key":"06","name":"Hessen"}},{"name":"Wasserweg","postalCode":"36251","locality":"Bad Hersfeld","municipality":{"key":"06632002","name":"Bad Hersfeld, Kreisstadt","type":"Stadt"},"district":{"key":"06632","name":"Hersfeld-Rotenburg","type":"Landkreis"},"federalState":{"key":"06","name":"Hessen"}},{"name":"Webergasse","postalCode":"36251","locality":"Bad Hersfeld","municipality":{"key":"06632002","name":"Bad Hersfeld, Kreisstadt","type":"Stadt"},"district":{"key":"06632","name":"Hersfeld-Rotenburg","type":"Landkreis"},"federalState":{"key":"06","name":"Hessen"}},{"name":"Wehneberger Str.","postalCode":"36251","locality":"Bad Hersfeld","municipality":{"key":"06632002","name":"Bad Hersfeld, Kreisstadt","type":"Stadt"},"district":{"key":"06632","name":"Hersfeld-Rotenburg","type":"Landkreis"},"federalState":{"key":"06","name":"Hessen"}},{"name":"Weidenweg","postalCode":"36251","locality":"Bad Hersfeld","municipality":{"key":"06632002","name":"Bad Hersfeld, Kreisstadt","type":"Stadt"},"district":{"key":"06632","name":"Hersfeld-Rotenburg","type":"Landkreis"},"federalState":{"key":"06","name":"Hessen"}},{"name":"Weihersgartenstr.","postalCode":"36251","locality":"Bad Hersfeld","municipality":{"key":"06632002","name":"Bad Hersfeld, Kreisstadt","type":"Stadt"},"district":{"key":"06632","name":"Hersfeld-Rotenburg","type":"Landkreis"},"federalState":{"key":"06","name":"Hessen"}},{"name":"Weimarer Str.","postalCode":"36251","locality":"Bad Hersfeld","municipality":{"key":"06632002","name":"Bad Hersfeld, Kreisstadt","type":"Stadt"},"district":{"key":"06632","name":"Hersfeld-Rotenburg","type":"Landkreis"},"federalState":{"key":"06","name":"Hessen"}},{"name":"Weißdornweg","postalCode":"36251","locality":"Bad Hersfeld","municipality":{"key":"06632002","name":"Bad Hersfeld, Kreisstadt","type":"Stadt"},"district":{"key":"06632","name":"Hersfeld-Rotenburg","type":"Landkreis"},"federalState":{"key":"06","name":"Hessen"}},{"name":"Wiesenstr.","postalCode":"36251","locality":"Bad Hersfeld","municipality":{"key":"06632002","name":"Bad Hersfeld, Kreisstadt","type":"Stadt"},"district":{"key":"06632","name":"Hersfeld-Rotenburg","type":"Landkreis"},"federalState":{"key":"06","name":"Hessen"}},{"name":"Wigbertstr.","postalCode":"36251","locality":"Bad Hersfeld","municipality":{"key":"06632002","name":"Bad Hersfeld, Kreisstadt","type":"Stadt"},"district":{"key":"06632","name":"Hersfeld-Rotenburg","type":"Landkreis"},"federalState":{"key":"06","name":"Hessen"}},{"name":"Wilhelm-Engelhardt-Str.","postalCode":"36251","locality":"Bad Hersfeld","municipality":{"key":"06632002","name":"Bad Hersfeld, Kreisstadt","type":"Stadt"},"district":{"key":"06632","name":"Hersfeld-Rotenburg","type":"Landkreis"},"federalState":{"key":"06","name":"Hessen"}},{"name":"Wilhelm-Neuhaus-Str.","postalCode":"36251","locality":"Bad Hersfeld","municipality":{"key":"06632002","name":"Bad Hersfeld, Kreisstadt","type":"Stadt"},"district":{"key":"06632","name":"Hersfeld-Rotenburg","type":"Landkreis"},"federalState":{"key":"06","name":"Hessen"}},{"name":"Wilhelm-Wever-Str.","postalCode":"36251","locality":"Bad Hersfeld","municipality":{"key":"06632002","name":"Bad Hersfeld, Kreisstadt","type":"Stadt"},"district":{"key":"06632","name":"Hersfeld-Rotenburg","type":"Landkreis"},"federalState":{"key":"06","name":"Hessen"}},{"name":"Wippershainer Str.","postalCode":"36251","locality":"Bad Hersfeld","municipality":{"key":"06632002","name":"Bad Hersfeld, Kreisstadt","type":"Stadt"},"district":{"key":"06632","name":"Hersfeld-Rotenburg","type":"Landkreis"},"federalState":{"key":"06","name":"Hessen"}},{"name":"Wittastr.","postalCode":"36251","locality":"Bad Hersfeld","municipality":{"key":"06632002","name":"Bad Hersfeld, Kreisstadt","type":"Stadt"},"district":{"key":"06632","name":"Hersfeld-Rotenburg","type":"Landkreis"},"federalState":{"key":"06","name":"Hessen"}},{"name":"Wollweberstr.","postalCode":"36251","locality":"Bad Hersfeld","municipality":{"key":"06632002","name":"Bad Hersfeld, Kreisstadt","type":"Stadt"},"district":{"key":"06632","name":"Hersfeld-Rotenburg","type":"Landkreis"},"federalState":{"key":"06","name":"Hessen"}},{"name":"Zedernweg","postalCode":"36251","locality":"Bad Hersfeld","municipality":{"key":"06632002","name":"Bad Hersfeld, Kreisstadt","type":"Stadt"},"district":{"key":"06632","name":"Hersfeld-Rotenburg","type":"Landkreis"},"federalState":{"key":"06","name":"Hessen"}},{"name":"Ziegenbergweg","postalCode":"36251","locality":"Bad Hersfeld","municipality":{"key":"06632002","name":"Bad Hersfeld, Kreisstadt","type":"Stadt"},"district":{"key":"06632","name":"Hersfeld-Rotenburg","type":"Landkreis"},"federalState":{"key":"06","name":"Hessen"}},{"name":"Zum Dermbach","postalCode":"36251","locality":"Bad Hersfeld","municipality":{"key":"06632002","name":"Bad Hersfeld, Kreisstadt","type":"Stadt"},"district":{"key":"06632","name":"Hersfeld-Rotenburg","type":"Landkreis"},"federalState":{"key":"06","name":"Hessen"}},{"name":"Zum Felsenkeller","postalCode":"36251","locality":"Bad Hersfeld","municipality":{"key":"06632002","name":"Bad Hersfeld, Kreisstadt","type":"Stadt"},"district":{"key":"06632","name":"Hersfeld-Rotenburg","type":"Landkreis"},"federalState":{"key":"06","name":"Hessen"}},{"name":"Zum Giesenfeld","postalCode":"36251","locality":"Bad Hersfeld","municipality":{"key":"06632002","name":"Bad Hersfeld, Kreisstadt","type":"Stadt"},"district":{"key":"06632","name":"Hersfeld-Rotenburg","type":"Landkreis"},"federalState":{"key":"06","name":"Hessen"}},{"name":"Zum Hoherot","postalCode":"36251","locality":"Bad Hersfeld","municipality":{"key":"06632002","name":"Bad Hersfeld, Kreisstadt","type":"Stadt"},"district":{"key":"06632","name":"Hersfeld-Rotenburg","type":"Landkreis"},"federalState":{"key":"06","name":"Hessen"}},{"name":"Zum Pulverrain","postalCode":"36251","locality":"Bad Hersfeld","municipality":{"key":"06632002","name":"Bad Hersfeld, Kreisstadt","type":"Stadt"},"district":{"key":"06632","name":"Hersfeld-Rotenburg","type":"Landkreis"},"federalState":{"key":"06","name":"Hessen"}},{"name":"Zum Roth","postalCode":"36251","locality":"Bad Hersfeld","municipality":{"key":"06632002","name":"Bad Hersfeld, Kreisstadt","type":"Stadt"},"district":{"key":"06632","name":"Hersfeld-Rotenburg","type":"Landkreis"},"federalState":{"key":"06","name":"Hessen"}},{"name":"Zum Seeloch","postalCode":"36251","locality":"Bad Hersfeld","municipality":{"key":"06632002","name":"Bad Hersfeld, Kreisstadt","type":"Stadt"},"district":{"key":"06632","name":"Hersfeld-Rotenburg","type":"Landkreis"},"federalState":{"key":"06","name":"Hessen"}},{"name":"Zum Tanneneck","postalCode":"36251","locality":"Bad Hersfeld","municipality":{"key":"06632002","name":"Bad Hersfeld, Kreisstadt","type":"Stadt"},"district":{"key":"06632","name":"Hersfeld-Rotenburg","type":"Landkreis"},"federalState":{"key":"06","name":"Hessen"}},{"name":"Zur Klosterschenke","postalCode":"36251","locality":"Bad Hersfeld","municipality":{"key":"06632002","name":"Bad Hersfeld, Kreisstadt","type":"Stadt"},"district":{"key":"06632","name":"Hersfeld-Rotenburg","type":"Landkreis"},"federalState":{"key":"06","name":"Hessen"}},{"name":"Zur Linde","postalCode":"36251","locality":"Bad Hersfeld","municipality":{"key":"06632002","name":"Bad Hersfeld, Kreisstadt","type":"Stadt"},"district":{"key":"06632","name":"Hersfeld-Rotenburg","type":"Landkreis"},"federalState":{"key":"06","name":"Hessen"}},{"name":"Zypressenweg","postalCode":"36251","locality":"Bad Hersfeld","municipality":{"key":"06632002","name":"Bad Hersfeld, Kreisstadt","type":"Stadt"},"district":{"key":"06632","name":"Hersfeld-Rotenburg","type":"Landkreis"},"federalState":{"key":"06","name":"Hessen"}},{"name":"Über den Gärten","postalCode":"36251","locality":"Bad Hersfeld","municipality":{"key":"06632002","name":"Bad Hersfeld, Kreisstadt","type":"Stadt"},"district":{"key":"06632","name":"Hersfeld-Rotenburg","type":"Landkreis"},"federalState":{"key":"06","name":"Hessen"}},{"name":"Über der Hallstadt","postalCode":"36251","locality":"Bad Hersfeld","municipality":{"key":"06632002","name":"Bad Hersfeld, Kreisstadt","type":"Stadt"},"district":{"key":"06632","name":"Hersfeld-Rotenburg","type":"Landkreis"},"federalState":{"key":"06","name":"Hessen"}},{"name":"Überm Dorf","postalCode":"36251","locality":"Bad Hersfeld","municipality":{"key":"06632002","name":"Bad Hersfeld, Kreisstadt","type":"Stadt"},"district":{"key":"06632","name":"Hersfeld-Rotenburg","type":"Landkreis"},"federalState":{"key":"06","name":"Hessen"}},{"name":"Überm Grund","postalCode":"36251","locality":"Bad Hersfeld","municipality":{"key":"06632002","name":"Bad Hersfeld, Kreisstadt","type":"Stadt"},"district":{"key":"06632","name":"Hersfeld-Rotenburg","type":"Landkreis"},"federalState":{"key":"06","name":"Hessen"}},{"name":"Überm Hof","postalCode":"36251","locality":"Bad Hersfeld","municipality":{"key":"06632002","name":"Bad Hersfeld, Kreisstadt","type":"Stadt"},"district":{"key":"06632","name":"Hersfeld-Rotenburg","type":"Landkreis"},"federalState":{"key":"06","name":"Hessen"}},]