[{"name":"Ahornweg","postalCode":"92721","locality":"Störnstein","municipality":{"key":"09374158","name":"Störnstein","type":"Kreisangehörige_Gemeinde"},"district":{"key":"09374","name":"Neustadt a.d.Waldnaab","type":"Landkreis"},"federalState":{"key":"09","name":"Bayern"}},{"name":"Bergmühlweg","postalCode":"92721","locality":"Störnstein","municipality":{"key":"09374158","name":"Störnstein","type":"Kreisangehörige_Gemeinde"},"district":{"key":"09374","name":"Neustadt a.d.Waldnaab","type":"Landkreis"},"federalState":{"key":"09","name":"Bayern"}},{"name":"Bergweg","postalCode":"92721","locality":"Störnstein","municipality":{"key":"09374158","name":"Störnstein","type":"Kreisangehörige_Gemeinde"},"district":{"key":"09374","name":"Neustadt a.d.Waldnaab","type":"Landkreis"},"federalState":{"key":"09","name":"Bayern"}},{"name":"Birkenweg","postalCode":"92721","locality":"Störnstein","municipality":{"key":"09374158","name":"Störnstein","type":"Kreisangehörige_Gemeinde"},"district":{"key":"09374","name":"Neustadt a.d.Waldnaab","type":"Landkreis"},"federalState":{"key":"09","name":"Bayern"}},{"name":"Bühlweg","postalCode":"92721","locality":"Störnstein","municipality":{"key":"09374158","name":"Störnstein","type":"Kreisangehörige_Gemeinde"},"district":{"key":"09374","name":"Neustadt a.d.Waldnaab","type":"Landkreis"},"federalState":{"key":"09","name":"Bayern"}},{"name":"Burgpfad","postalCode":"92721","locality":"Störnstein","municipality":{"key":"09374158","name":"Störnstein","type":"Kreisangehörige_Gemeinde"},"district":{"key":"09374","name":"Neustadt a.d.Waldnaab","type":"Landkreis"},"federalState":{"key":"09","name":"Bayern"}},{"name":"Dachsweg","postalCode":"92721","locality":"Störnstein","municipality":{"key":"09374158","name":"Störnstein","type":"Kreisangehörige_Gemeinde"},"district":{"key":"09374","name":"Neustadt a.d.Waldnaab","type":"Landkreis"},"federalState":{"key":"09","name":"Bayern"}},{"name":"Dostweg","postalCode":"92721","locality":"Störnstein","municipality":{"key":"09374158","name":"Störnstein","type":"Kreisangehörige_Gemeinde"},"district":{"key":"09374","name":"Neustadt a.d.Waldnaab","type":"Landkreis"},"federalState":{"key":"09","name":"Bayern"}},{"name":"Eichenweg","postalCode":"92721","locality":"Störnstein","municipality":{"key":"09374158","name":"Störnstein","type":"Kreisangehörige_Gemeinde"},"district":{"key":"09374","name":"Neustadt a.d.Waldnaab","type":"Landkreis"},"federalState":{"key":"09","name":"Bayern"}},{"name":"Ernsthof","postalCode":"92721","locality":"Störnstein","municipality":{"key":"09374158","name":"Störnstein","type":"Kreisangehörige_Gemeinde"},"district":{"key":"09374","name":"Neustadt a.d.Waldnaab","type":"Landkreis"},"federalState":{"key":"09","name":"Bayern"}},{"name":"Fasanenweg","postalCode":"92721","locality":"Störnstein","municipality":{"key":"09374158","name":"Störnstein","type":"Kreisangehörige_Gemeinde"},"district":{"key":"09374","name":"Neustadt a.d.Waldnaab","type":"Landkreis"},"federalState":{"key":"09","name":"Bayern"}},{"name":"Fichtenweg","postalCode":"92721","locality":"Störnstein","municipality":{"key":"09374158","name":"Störnstein","type":"Kreisangehörige_Gemeinde"},"district":{"key":"09374","name":"Neustadt a.d.Waldnaab","type":"Landkreis"},"federalState":{"key":"09","name":"Bayern"}},{"name":"Floßer Str.","postalCode":"92721","locality":"Störnstein","municipality":{"key":"09374158","name":"Störnstein","type":"Kreisangehörige_Gemeinde"},"district":{"key":"09374","name":"Neustadt a.d.Waldnaab","type":"Landkreis"},"federalState":{"key":"09","name":"Bayern"}},{"name":"Gartenweg","postalCode":"92721","locality":"Störnstein","municipality":{"key":"09374158","name":"Störnstein","type":"Kreisangehörige_Gemeinde"},"district":{"key":"09374","name":"Neustadt a.d.Waldnaab","type":"Landkreis"},"federalState":{"key":"09","name":"Bayern"}},{"name":"Görnitzweg","postalCode":"92721","locality":"Störnstein","municipality":{"key":"09374158","name":"Störnstein","type":"Kreisangehörige_Gemeinde"},"district":{"key":"09374","name":"Neustadt a.d.Waldnaab","type":"Landkreis"},"federalState":{"key":"09","name":"Bayern"}},{"name":"Hafendeckstr.","postalCode":"92721","locality":"Störnstein","municipality":{"key":"09374158","name":"Störnstein","type":"Kreisangehörige_Gemeinde"},"district":{"key":"09374","name":"Neustadt a.d.Waldnaab","type":"Landkreis"},"federalState":{"key":"09","name":"Bayern"}},{"name":"Hasenweg","postalCode":"92721","locality":"Störnstein","municipality":{"key":"09374158","name":"Störnstein","type":"Kreisangehörige_Gemeinde"},"district":{"key":"09374","name":"Neustadt a.d.Waldnaab","type":"Landkreis"},"federalState":{"key":"09","name":"Bayern"}},{"name":"Im Dorf","postalCode":"92721","locality":"Störnstein","municipality":{"key":"09374158","name":"Störnstein","type":"Kreisangehörige_Gemeinde"},"district":{"key":"09374","name":"Neustadt a.d.Waldnaab","type":"Landkreis"},"federalState":{"key":"09","name":"Bayern"}},{"name":"Lanz","postalCode":"92721","locality":"Störnstein","municipality":{"key":"09374158","name":"Störnstein","type":"Kreisangehörige_Gemeinde"},"district":{"key":"09374","name":"Neustadt a.d.Waldnaab","type":"Landkreis"},"federalState":{"key":"09","name":"Bayern"}},{"name":"Lindenweg","postalCode":"92721","locality":"Störnstein","municipality":{"key":"09374158","name":"Störnstein","type":"Kreisangehörige_Gemeinde"},"district":{"key":"09374","name":"Neustadt a.d.Waldnaab","type":"Landkreis"},"federalState":{"key":"09","name":"Bayern"}},{"name":"Marderweg","postalCode":"92721","locality":"Störnstein","municipality":{"key":"09374158","name":"Störnstein","type":"Kreisangehörige_Gemeinde"},"district":{"key":"09374","name":"Neustadt a.d.Waldnaab","type":"Landkreis"},"federalState":{"key":"09","name":"Bayern"}},{"name":"Obere Giglstr.","postalCode":"92721","locality":"Störnstein","municipality":{"key":"09374158","name":"Störnstein","type":"Kreisangehörige_Gemeinde"},"district":{"key":"09374","name":"Neustadt a.d.Waldnaab","type":"Landkreis"},"federalState":{"key":"09","name":"Bayern"}},{"name":"Oberndorf","postalCode":"92721","locality":"Störnstein","municipality":{"key":"09374158","name":"Störnstein","type":"Kreisangehörige_Gemeinde"},"district":{"key":"09374","name":"Neustadt a.d.Waldnaab","type":"Landkreis"},"federalState":{"key":"09","name":"Bayern"}},{"name":"Püchersreuter Str.","postalCode":"92721","locality":"Störnstein","municipality":{"key":"09374158","name":"Störnstein","type":"Kreisangehörige_Gemeinde"},"district":{"key":"09374","name":"Neustadt a.d.Waldnaab","type":"Landkreis"},"federalState":{"key":"09","name":"Bayern"}},{"name":"Rebhuhnweg","postalCode":"92721","locality":"Störnstein","municipality":{"key":"09374158","name":"Störnstein","type":"Kreisangehörige_Gemeinde"},"district":{"key":"09374","name":"Neustadt a.d.Waldnaab","type":"Landkreis"},"federalState":{"key":"09","name":"Bayern"}},{"name":"Reiserdorf","postalCode":"92721","locality":"Störnstein","municipality":{"key":"09374158","name":"Störnstein","type":"Kreisangehörige_Gemeinde"},"district":{"key":"09374","name":"Neustadt a.d.Waldnaab","type":"Landkreis"},"federalState":{"key":"09","name":"Bayern"}},{"name":"Ulmenweg","postalCode":"92721","locality":"Störnstein","municipality":{"key":"09374158","name":"Störnstein","type":"Kreisangehörige_Gemeinde"},"district":{"key":"09374","name":"Neustadt a.d.Waldnaab","type":"Landkreis"},"federalState":{"key":"09","name":"Bayern"}},{"name":"Untere Giglstr.","postalCode":"92721","locality":"Störnstein","municipality":{"key":"09374158","name":"Störnstein","type":"Kreisangehörige_Gemeinde"},"district":{"key":"09374","name":"Neustadt a.d.Waldnaab","type":"Landkreis"},"federalState":{"key":"09","name":"Bayern"}},{"name":"Waldrandstr.","postalCode":"92721","locality":"Störnstein","municipality":{"key":"09374158","name":"Störnstein","type":"Kreisangehörige_Gemeinde"},"district":{"key":"09374","name":"Neustadt a.d.Waldnaab","type":"Landkreis"},"federalState":{"key":"09","name":"Bayern"}},{"name":"Weidenweg","postalCode":"92721","locality":"Störnstein","municipality":{"key":"09374158","name":"Störnstein","type":"Kreisangehörige_Gemeinde"},"district":{"key":"09374","name":"Neustadt a.d.Waldnaab","type":"Landkreis"},"federalState":{"key":"09","name":"Bayern"}},]