[{"name":"Achterhof","postalCode":"21483","locality":"Basedow","municipality":{"key":"01053006","name":"Basedow","type":"Kreisangehörige_Gemeinde"},"district":{"key":"01053","name":"Herzogtum Lauenburg","type":"Kreis"},"federalState":{"key":"01","name":"Schleswig-Holstein"}},{"name":"Am Dröbel","postalCode":"17139","locality":"Basedow","municipality":{"key":"13071007","name":"Basedow","type":"Kreisangehörige_Gemeinde"},"district":{"key":"13071","name":"Mecklenburgische Seenplatte","type":"Landkreis"},"federalState":{"key":"13","name":"Mecklenburg-Vorpommern"}},{"name":"Basedow-Höhe","postalCode":"17139","locality":"Basedow","municipality":{"key":"13071007","name":"Basedow","type":"Kreisangehörige_Gemeinde"},"district":{"key":"13071","name":"Mecklenburgische Seenplatte","type":"Landkreis"},"federalState":{"key":"13","name":"Mecklenburg-Vorpommern"}},{"name":"Brauereiweg","postalCode":"17139","locality":"Basedow","municipality":{"key":"13071007","name":"Basedow","type":"Kreisangehörige_Gemeinde"},"district":{"key":"13071","name":"Mecklenburgische Seenplatte","type":"Landkreis"},"federalState":{"key":"13","name":"Mecklenburg-Vorpommern"}},{"name":"Drosselweg","postalCode":"21483","locality":"Basedow","municipality":{"key":"01053006","name":"Basedow","type":"Kreisangehörige_Gemeinde"},"district":{"key":"01053","name":"Herzogtum Lauenburg","type":"Kreis"},"federalState":{"key":"01","name":"Schleswig-Holstein"}},{"name":"Finkenstieg","postalCode":"21483","locality":"Basedow","municipality":{"key":"01053006","name":"Basedow","type":"Kreisangehörige_Gemeinde"},"district":{"key":"01053","name":"Herzogtum Lauenburg","type":"Kreis"},"federalState":{"key":"01","name":"Schleswig-Holstein"}},{"name":"Gartenweg","postalCode":"21483","locality":"Basedow","municipality":{"key":"01053006","name":"Basedow","type":"Kreisangehörige_Gemeinde"},"district":{"key":"01053","name":"Herzogtum Lauenburg","type":"Kreis"},"federalState":{"key":"01","name":"Schleswig-Holstein"}},{"name":"Gausnarv","postalCode":"21483","locality":"Basedow","municipality":{"key":"01053006","name":"Basedow","type":"Kreisangehörige_Gemeinde"},"district":{"key":"01053","name":"Herzogtum Lauenburg","type":"Kreis"},"federalState":{"key":"01","name":"Schleswig-Holstein"}},{"name":"Gessin","postalCode":"17139","locality":"Basedow","municipality":{"key":"13071007","name":"Basedow","type":"Kreisangehörige_Gemeinde"},"district":{"key":"13071","name":"Mecklenburgische Seenplatte","type":"Landkreis"},"federalState":{"key":"13","name":"Mecklenburg-Vorpommern"}},{"name":"Gessiner Str.","postalCode":"17139","locality":"Basedow","municipality":{"key":"13071007","name":"Basedow","type":"Kreisangehörige_Gemeinde"},"district":{"key":"13071","name":"Mecklenburgische Seenplatte","type":"Landkreis"},"federalState":{"key":"13","name":"Mecklenburg-Vorpommern"}},{"name":"Kirchsteig","postalCode":"17139","locality":"Basedow","municipality":{"key":"13071007","name":"Basedow","type":"Kreisangehörige_Gemeinde"},"district":{"key":"13071","name":"Mecklenburgische Seenplatte","type":"Landkreis"},"federalState":{"key":"13","name":"Mecklenburg-Vorpommern"}},{"name":"Landstr.","postalCode":"21483","locality":"Basedow","municipality":{"key":"01053006","name":"Basedow","type":"Kreisangehörige_Gemeinde"},"district":{"key":"01053","name":"Herzogtum Lauenburg","type":"Kreis"},"federalState":{"key":"01","name":"Schleswig-Holstein"}},{"name":"Lehmbarg","postalCode":"21483","locality":"Basedow","municipality":{"key":"01053006","name":"Basedow","type":"Kreisangehörige_Gemeinde"},"district":{"key":"01053","name":"Herzogtum Lauenburg","type":"Kreis"},"federalState":{"key":"01","name":"Schleswig-Holstein"}},{"name":"Lehmbargskamp","postalCode":"21483","locality":"Basedow","municipality":{"key":"01053006","name":"Basedow","type":"Kreisangehörige_Gemeinde"},"district":{"key":"01053","name":"Herzogtum Lauenburg","type":"Kreis"},"federalState":{"key":"01","name":"Schleswig-Holstein"}},{"name":"Neu Basedow","postalCode":"17139","locality":"Basedow","municipality":{"key":"13071007","name":"Basedow","type":"Kreisangehörige_Gemeinde"},"district":{"key":"13071","name":"Mecklenburgische Seenplatte","type":"Landkreis"},"federalState":{"key":"13","name":"Mecklenburg-Vorpommern"}},{"name":"Neuhäuser Erholungsgebiet","postalCode":"17139","locality":"Basedow","municipality":{"key":"13071007","name":"Basedow","type":"Kreisangehörige_Gemeinde"},"district":{"key":"13071","name":"Mecklenburgische Seenplatte","type":"Landkreis"},"federalState":{"key":"13","name":"Mecklenburg-Vorpommern"}},{"name":"Op de Koppel","postalCode":"21483","locality":"Basedow","municipality":{"key":"01053006","name":"Basedow","type":"Kreisangehörige_Gemeinde"},"district":{"key":"01053","name":"Herzogtum Lauenburg","type":"Kreis"},"federalState":{"key":"01","name":"Schleswig-Holstein"}},{"name":"Randowberg","postalCode":"17139","locality":"Basedow","municipality":{"key":"13071007","name":"Basedow","type":"Kreisangehörige_Gemeinde"},"district":{"key":"13071","name":"Mecklenburgische Seenplatte","type":"Landkreis"},"federalState":{"key":"13","name":"Mecklenburg-Vorpommern"}},{"name":"Sandberg","postalCode":"21483","locality":"Basedow","municipality":{"key":"01053006","name":"Basedow","type":"Kreisangehörige_Gemeinde"},"district":{"key":"01053","name":"Herzogtum Lauenburg","type":"Kreis"},"federalState":{"key":"01","name":"Schleswig-Holstein"}},{"name":"Schloßstr.","postalCode":"17139","locality":"Basedow","municipality":{"key":"13071007","name":"Basedow","type":"Kreisangehörige_Gemeinde"},"district":{"key":"13071","name":"Mecklenburgische Seenplatte","type":"Landkreis"},"federalState":{"key":"13","name":"Mecklenburg-Vorpommern"}},{"name":"Seedorf","postalCode":"17139","locality":"Basedow","municipality":{"key":"13071007","name":"Basedow","type":"Kreisangehörige_Gemeinde"},"district":{"key":"13071","name":"Mecklenburgische Seenplatte","type":"Landkreis"},"federalState":{"key":"13","name":"Mecklenburg-Vorpommern"}},{"name":"Stöckersoll","postalCode":"17139","locality":"Basedow","municipality":{"key":"13071007","name":"Basedow","type":"Kreisangehörige_Gemeinde"},"district":{"key":"13071","name":"Mecklenburgische Seenplatte","type":"Landkreis"},"federalState":{"key":"13","name":"Mecklenburg-Vorpommern"}},{"name":"Teerofen","postalCode":"17139","locality":"Basedow","municipality":{"key":"13071007","name":"Basedow","type":"Kreisangehörige_Gemeinde"},"district":{"key":"13071","name":"Mecklenburgische Seenplatte","type":"Landkreis"},"federalState":{"key":"13","name":"Mecklenburg-Vorpommern"}},{"name":"Twieten","postalCode":"21483","locality":"Basedow","municipality":{"key":"01053006","name":"Basedow","type":"Kreisangehörige_Gemeinde"},"district":{"key":"01053","name":"Herzogtum Lauenburg","type":"Kreis"},"federalState":{"key":"01","name":"Schleswig-Holstein"}},{"name":"Vossort","postalCode":"21483","locality":"Basedow","municipality":{"key":"01053006","name":"Basedow","type":"Kreisangehörige_Gemeinde"},"district":{"key":"01053","name":"Herzogtum Lauenburg","type":"Kreis"},"federalState":{"key":"01","name":"Schleswig-Holstein"}},{"name":"Wargentiner Str.","postalCode":"17139","locality":"Basedow","municipality":{"key":"13071007","name":"Basedow","type":"Kreisangehörige_Gemeinde"},"district":{"key":"13071","name":"Mecklenburgische Seenplatte","type":"Landkreis"},"federalState":{"key":"13","name":"Mecklenburg-Vorpommern"}},]