[{"name":"Abgegrabenfelde","postalCode":"17166","locality":"Teterow","municipality":{"key":"13072106","name":"Teterow, Bergringstadt","type":"Stadt"},"district":{"key":"13072","name":"Landkreis Rostock","type":"Landkreis"},"federalState":{"key":"13","name":"Mecklenburg-Vorpommern"}},{"name":"Alte Dorfschule","postalCode":"17166","locality":"Teterow","municipality":{"key":"13072106","name":"Teterow, Bergringstadt","type":"Stadt"},"district":{"key":"13072","name":"Landkreis Rostock","type":"Landkreis"},"federalState":{"key":"13","name":"Mecklenburg-Vorpommern"}},{"name":"Alte Dorfstr.","postalCode":"17166","locality":"Teterow","municipality":{"key":"13072106","name":"Teterow, Bergringstadt","type":"Stadt"},"district":{"key":"13072","name":"Landkreis Rostock","type":"Landkreis"},"federalState":{"key":"13","name":"Mecklenburg-Vorpommern"}},{"name":"Alte Poststr.","postalCode":"17166","locality":"Teterow","municipality":{"key":"13072106","name":"Teterow, Bergringstadt","type":"Stadt"},"district":{"key":"13072","name":"Landkreis Rostock","type":"Landkreis"},"federalState":{"key":"13","name":"Mecklenburg-Vorpommern"}},{"name":"Am alten Friedhof","postalCode":"17166","locality":"Teterow","municipality":{"key":"13072106","name":"Teterow, Bergringstadt","type":"Stadt"},"district":{"key":"13072","name":"Landkreis Rostock","type":"Landkreis"},"federalState":{"key":"13","name":"Mecklenburg-Vorpommern"}},{"name":"Am alten Schlachthof","postalCode":"17166","locality":"Teterow","municipality":{"key":"13072106","name":"Teterow, Bergringstadt","type":"Stadt"},"district":{"key":"13072","name":"Landkreis Rostock","type":"Landkreis"},"federalState":{"key":"13","name":"Mecklenburg-Vorpommern"}},{"name":"Am Berg","postalCode":"17166","locality":"Teterow","municipality":{"key":"13072106","name":"Teterow, Bergringstadt","type":"Stadt"},"district":{"key":"13072","name":"Landkreis Rostock","type":"Landkreis"},"federalState":{"key":"13","name":"Mecklenburg-Vorpommern"}},{"name":"Am Bornmühlenweg","postalCode":"17166","locality":"Teterow","municipality":{"key":"13072106","name":"Teterow, Bergringstadt","type":"Stadt"},"district":{"key":"13072","name":"Landkreis Rostock","type":"Landkreis"},"federalState":{"key":"13","name":"Mecklenburg-Vorpommern"}},{"name":"Am Fliederkamp","postalCode":"17166","locality":"Teterow","municipality":{"key":"13072106","name":"Teterow, Bergringstadt","type":"Stadt"},"district":{"key":"13072","name":"Landkreis Rostock","type":"Landkreis"},"federalState":{"key":"13","name":"Mecklenburg-Vorpommern"}},{"name":"Am Friedhof","postalCode":"17166","locality":"Teterow","municipality":{"key":"13072106","name":"Teterow, Bergringstadt","type":"Stadt"},"district":{"key":"13072","name":"Landkreis Rostock","type":"Landkreis"},"federalState":{"key":"13","name":"Mecklenburg-Vorpommern"}},{"name":"Am Güterbahnhof","postalCode":"17166","locality":"Teterow","municipality":{"key":"13072106","name":"Teterow, Bergringstadt","type":"Stadt"},"district":{"key":"13072","name":"Landkreis Rostock","type":"Landkreis"},"federalState":{"key":"13","name":"Mecklenburg-Vorpommern"}},{"name":"Am Hollerberg","postalCode":"17166","locality":"Teterow","municipality":{"key":"13072106","name":"Teterow, Bergringstadt","type":"Stadt"},"district":{"key":"13072","name":"Landkreis Rostock","type":"Landkreis"},"federalState":{"key":"13","name":"Mecklenburg-Vorpommern"}},{"name":"Am Hügelgrab","postalCode":"17166","locality":"Teterow","municipality":{"key":"13072106","name":"Teterow, Bergringstadt","type":"Stadt"},"district":{"key":"13072","name":"Landkreis Rostock","type":"Landkreis"},"federalState":{"key":"13","name":"Mecklenburg-Vorpommern"}},{"name":"Am Kahnbach","postalCode":"17166","locality":"Teterow","municipality":{"key":"13072106","name":"Teterow, Bergringstadt","type":"Stadt"},"district":{"key":"13072","name":"Landkreis Rostock","type":"Landkreis"},"federalState":{"key":"13","name":"Mecklenburg-Vorpommern"}},{"name":"Am Kellerholz","postalCode":"17166","locality":"Teterow","municipality":{"key":"13072106","name":"Teterow, Bergringstadt","type":"Stadt"},"district":{"key":"13072","name":"Landkreis Rostock","type":"Landkreis"},"federalState":{"key":"13","name":"Mecklenburg-Vorpommern"}},{"name":"Am Mühlenberg","postalCode":"17166","locality":"Teterow","municipality":{"key":"13072106","name":"Teterow, Bergringstadt","type":"Stadt"},"district":{"key":"13072","name":"Landkreis Rostock","type":"Landkreis"},"federalState":{"key":"13","name":"Mecklenburg-Vorpommern"}},{"name":"Am Reitplatz","postalCode":"17166","locality":"Teterow","municipality":{"key":"13072106","name":"Teterow, Bergringstadt","type":"Stadt"},"district":{"key":"13072","name":"Landkreis Rostock","type":"Landkreis"},"federalState":{"key":"13","name":"Mecklenburg-Vorpommern"}},{"name":"Am Rhedebruch","postalCode":"17166","locality":"Teterow","municipality":{"key":"13072106","name":"Teterow, Bergringstadt","type":"Stadt"},"district":{"key":"13072","name":"Landkreis Rostock","type":"Landkreis"},"federalState":{"key":"13","name":"Mecklenburg-Vorpommern"}},{"name":"Am Roeseland","postalCode":"17166","locality":"Teterow","municipality":{"key":"13072106","name":"Teterow, Bergringstadt","type":"Stadt"},"district":{"key":"13072","name":"Landkreis Rostock","type":"Landkreis"},"federalState":{"key":"13","name":"Mecklenburg-Vorpommern"}},{"name":"Am Sägewerk","postalCode":"17166","locality":"Teterow","municipality":{"key":"13072106","name":"Teterow, Bergringstadt","type":"Stadt"},"district":{"key":"13072","name":"Landkreis Rostock","type":"Landkreis"},"federalState":{"key":"13","name":"Mecklenburg-Vorpommern"}},{"name":"Am Sandfeld","postalCode":"17166","locality":"Teterow","municipality":{"key":"13072106","name":"Teterow, Bergringstadt","type":"Stadt"},"district":{"key":"13072","name":"Landkreis Rostock","type":"Landkreis"},"federalState":{"key":"13","name":"Mecklenburg-Vorpommern"}},{"name":"Am Schwarzen See","postalCode":"17166","locality":"Teterow","municipality":{"key":"13072106","name":"Teterow, Bergringstadt","type":"Stadt"},"district":{"key":"13072","name":"Landkreis Rostock","type":"Landkreis"},"federalState":{"key":"13","name":"Mecklenburg-Vorpommern"}},{"name":"Am Seeufer","postalCode":"17166","locality":"Teterow","municipality":{"key":"13072106","name":"Teterow, Bergringstadt","type":"Stadt"},"district":{"key":"13072","name":"Landkreis Rostock","type":"Landkreis"},"federalState":{"key":"13","name":"Mecklenburg-Vorpommern"}},{"name":"Am Stubbenbruch","postalCode":"17166","locality":"Teterow","municipality":{"key":"13072106","name":"Teterow, Bergringstadt","type":"Stadt"},"district":{"key":"13072","name":"Landkreis Rostock","type":"Landkreis"},"federalState":{"key":"13","name":"Mecklenburg-Vorpommern"}},{"name":"Am Wall","postalCode":"17166","locality":"Teterow","municipality":{"key":"13072106","name":"Teterow, Bergringstadt","type":"Stadt"},"district":{"key":"13072","name":"Landkreis Rostock","type":"Landkreis"},"federalState":{"key":"13","name":"Mecklenburg-Vorpommern"}},{"name":"Am Weinberg","postalCode":"17166","locality":"Teterow","municipality":{"key":"13072106","name":"Teterow, Bergringstadt","type":"Stadt"},"district":{"key":"13072","name":"Landkreis Rostock","type":"Landkreis"},"federalState":{"key":"13","name":"Mecklenburg-Vorpommern"}},{"name":"An der Badeanstalt","postalCode":"17166","locality":"Teterow","municipality":{"key":"13072106","name":"Teterow, Bergringstadt","type":"Stadt"},"district":{"key":"13072","name":"Landkreis Rostock","type":"Landkreis"},"federalState":{"key":"13","name":"Mecklenburg-Vorpommern"}},{"name":"An der Feldbahn","postalCode":"17166","locality":"Teterow","municipality":{"key":"13072106","name":"Teterow, Bergringstadt","type":"Stadt"},"district":{"key":"13072","name":"Landkreis Rostock","type":"Landkreis"},"federalState":{"key":"13","name":"Mecklenburg-Vorpommern"}},{"name":"Appelhäger Chaussee","postalCode":"17166","locality":"Teterow","municipality":{"key":"13072106","name":"Teterow, Bergringstadt","type":"Stadt"},"district":{"key":"13072","name":"Landkreis Rostock","type":"Landkreis"},"federalState":{"key":"13","name":"Mecklenburg-Vorpommern"}},{"name":"Appelhäger Weg","postalCode":"17166","locality":"Teterow","municipality":{"key":"13072106","name":"Teterow, Bergringstadt","type":"Stadt"},"district":{"key":"13072","name":"Landkreis Rostock","type":"Landkreis"},"federalState":{"key":"13","name":"Mecklenburg-Vorpommern"}},{"name":"Auf dem Vietsmorgen","postalCode":"17166","locality":"Teterow","municipality":{"key":"13072106","name":"Teterow, Bergringstadt","type":"Stadt"},"district":{"key":"13072","name":"Landkreis Rostock","type":"Landkreis"},"federalState":{"key":"13","name":"Mecklenburg-Vorpommern"}},{"name":"Auf der Dorfstätte","postalCode":"17166","locality":"Teterow","municipality":{"key":"13072106","name":"Teterow, Bergringstadt","type":"Stadt"},"district":{"key":"13072","name":"Landkreis Rostock","type":"Landkreis"},"federalState":{"key":"13","name":"Mecklenburg-Vorpommern"}},{"name":"Auf der Horst","postalCode":"17166","locality":"Teterow","municipality":{"key":"13072106","name":"Teterow, Bergringstadt","type":"Stadt"},"district":{"key":"13072","name":"Landkreis Rostock","type":"Landkreis"},"federalState":{"key":"13","name":"Mecklenburg-Vorpommern"}},{"name":"August-Bebel-Str.","postalCode":"17166","locality":"Teterow","municipality":{"key":"13072106","name":"Teterow, Bergringstadt","type":"Stadt"},"district":{"key":"13072","name":"Landkreis Rostock","type":"Landkreis"},"federalState":{"key":"13","name":"Mecklenburg-Vorpommern"}},{"name":"Bachweg","postalCode":"17166","locality":"Teterow","municipality":{"key":"13072106","name":"Teterow, Bergringstadt","type":"Stadt"},"district":{"key":"13072","name":"Landkreis Rostock","type":"Landkreis"},"federalState":{"key":"13","name":"Mecklenburg-Vorpommern"}},{"name":"Bad Segeberger Str.","postalCode":"17166","locality":"Teterow","municipality":{"key":"13072106","name":"Teterow, Bergringstadt","type":"Stadt"},"district":{"key":"13072","name":"Landkreis Rostock","type":"Landkreis"},"federalState":{"key":"13","name":"Mecklenburg-Vorpommern"}},{"name":"Bahnhofstr.","postalCode":"17166","locality":"Teterow","municipality":{"key":"13072106","name":"Teterow, Bergringstadt","type":"Stadt"},"district":{"key":"13072","name":"Landkreis Rostock","type":"Landkreis"},"federalState":{"key":"13","name":"Mecklenburg-Vorpommern"}},{"name":"Bahnwärterhaus","postalCode":"17166","locality":"Teterow","municipality":{"key":"13072106","name":"Teterow, Bergringstadt","type":"Stadt"},"district":{"key":"13072","name":"Landkreis Rostock","type":"Landkreis"},"federalState":{"key":"13","name":"Mecklenburg-Vorpommern"}},{"name":"Bertolt-Brecht-Str.","postalCode":"17166","locality":"Teterow","municipality":{"key":"13072106","name":"Teterow, Bergringstadt","type":"Stadt"},"district":{"key":"13072","name":"Landkreis Rostock","type":"Landkreis"},"federalState":{"key":"13","name":"Mecklenburg-Vorpommern"}},{"name":"Birkenweg","postalCode":"17166","locality":"Teterow","municipality":{"key":"13072106","name":"Teterow, Bergringstadt","type":"Stadt"},"district":{"key":"13072","name":"Landkreis Rostock","type":"Landkreis"},"federalState":{"key":"13","name":"Mecklenburg-Vorpommern"}},{"name":"Bornmühle","postalCode":"17166","locality":"Teterow","municipality":{"key":"13072106","name":"Teterow, Bergringstadt","type":"Stadt"},"district":{"key":"13072","name":"Landkreis Rostock","type":"Landkreis"},"federalState":{"key":"13","name":"Mecklenburg-Vorpommern"}},{"name":"Börnungstr.","postalCode":"17166","locality":"Teterow","municipality":{"key":"13072106","name":"Teterow, Bergringstadt","type":"Stadt"},"district":{"key":"13072","name":"Landkreis Rostock","type":"Landkreis"},"federalState":{"key":"13","name":"Mecklenburg-Vorpommern"}},{"name":"Brikettweg","postalCode":"17166","locality":"Teterow","municipality":{"key":"13072106","name":"Teterow, Bergringstadt","type":"Stadt"},"district":{"key":"13072","name":"Landkreis Rostock","type":"Landkreis"},"federalState":{"key":"13","name":"Mecklenburg-Vorpommern"}},{"name":"Brückenstücke","postalCode":"17166","locality":"Teterow","municipality":{"key":"13072106","name":"Teterow, Bergringstadt","type":"Stadt"},"district":{"key":"13072","name":"Landkreis Rostock","type":"Landkreis"},"federalState":{"key":"13","name":"Mecklenburg-Vorpommern"}},{"name":"Bullerbäk","postalCode":"17166","locality":"Teterow","municipality":{"key":"13072106","name":"Teterow, Bergringstadt","type":"Stadt"},"district":{"key":"13072","name":"Landkreis Rostock","type":"Landkreis"},"federalState":{"key":"13","name":"Mecklenburg-Vorpommern"}},{"name":"Carl-Schröder-Platz","postalCode":"17166","locality":"Teterow","municipality":{"key":"13072106","name":"Teterow, Bergringstadt","type":"Stadt"},"district":{"key":"13072","name":"Landkreis Rostock","type":"Landkreis"},"federalState":{"key":"13","name":"Mecklenburg-Vorpommern"}},{"name":"Constantin-Kirchhoff-Str.","postalCode":"17166","locality":"Teterow","municipality":{"key":"13072106","name":"Teterow, Bergringstadt","type":"Stadt"},"district":{"key":"13072","name":"Landkreis Rostock","type":"Landkreis"},"federalState":{"key":"13","name":"Mecklenburg-Vorpommern"}},{"name":"Danschowstr.","postalCode":"17166","locality":"Teterow","municipality":{"key":"13072106","name":"Teterow, Bergringstadt","type":"Stadt"},"district":{"key":"13072","name":"Landkreis Rostock","type":"Landkreis"},"federalState":{"key":"13","name":"Mecklenburg-Vorpommern"}},{"name":"Eckernbrink","postalCode":"17166","locality":"Teterow","municipality":{"key":"13072106","name":"Teterow, Bergringstadt","type":"Stadt"},"district":{"key":"13072","name":"Landkreis Rostock","type":"Landkreis"},"federalState":{"key":"13","name":"Mecklenburg-Vorpommern"}},{"name":"Eichenweg","postalCode":"17166","locality":"Teterow","municipality":{"key":"13072106","name":"Teterow, Bergringstadt","type":"Stadt"},"district":{"key":"13072","name":"Landkreis Rostock","type":"Landkreis"},"federalState":{"key":"13","name":"Mecklenburg-Vorpommern"}},{"name":"Fischersteig","postalCode":"17166","locality":"Teterow","municipality":{"key":"13072106","name":"Teterow, Bergringstadt","type":"Stadt"},"district":{"key":"13072","name":"Landkreis Rostock","type":"Landkreis"},"federalState":{"key":"13","name":"Mecklenburg-Vorpommern"}},{"name":"Forsthof Niendorf","postalCode":"17166","locality":"Teterow","municipality":{"key":"13072106","name":"Teterow, Bergringstadt","type":"Stadt"},"district":{"key":"13072","name":"Landkreis Rostock","type":"Landkreis"},"federalState":{"key":"13","name":"Mecklenburg-Vorpommern"}},{"name":"Freiheit","postalCode":"17166","locality":"Teterow","municipality":{"key":"13072106","name":"Teterow, Bergringstadt","type":"Stadt"},"district":{"key":"13072","name":"Landkreis Rostock","type":"Landkreis"},"federalState":{"key":"13","name":"Mecklenburg-Vorpommern"}},{"name":"Fritz-Reuter-Str.","postalCode":"17166","locality":"Teterow","municipality":{"key":"13072106","name":"Teterow, Bergringstadt","type":"Stadt"},"district":{"key":"13072","name":"Landkreis Rostock","type":"Landkreis"},"federalState":{"key":"13","name":"Mecklenburg-Vorpommern"}},{"name":"Galgenbergsweg","postalCode":"17166","locality":"Teterow","municipality":{"key":"13072106","name":"Teterow, Bergringstadt","type":"Stadt"},"district":{"key":"13072","name":"Landkreis Rostock","type":"Landkreis"},"federalState":{"key":"13","name":"Mecklenburg-Vorpommern"}},{"name":"Gartensteig","postalCode":"17166","locality":"Teterow","municipality":{"key":"13072106","name":"Teterow, Bergringstadt","type":"Stadt"},"district":{"key":"13072","name":"Landkreis Rostock","type":"Landkreis"},"federalState":{"key":"13","name":"Mecklenburg-Vorpommern"}},{"name":"Gartenstr.","postalCode":"17166","locality":"Teterow","municipality":{"key":"13072106","name":"Teterow, Bergringstadt","type":"Stadt"},"district":{"key":"13072","name":"Landkreis Rostock","type":"Landkreis"},"federalState":{"key":"13","name":"Mecklenburg-Vorpommern"}},{"name":"Gasstr.","postalCode":"17166","locality":"Teterow","municipality":{"key":"13072106","name":"Teterow, Bergringstadt","type":"Stadt"},"district":{"key":"13072","name":"Landkreis Rostock","type":"Landkreis"},"federalState":{"key":"13","name":"Mecklenburg-Vorpommern"}},{"name":"Georgstr.","postalCode":"17166","locality":"Teterow","municipality":{"key":"13072106","name":"Teterow, Bergringstadt","type":"Stadt"},"district":{"key":"13072","name":"Landkreis Rostock","type":"Landkreis"},"federalState":{"key":"13","name":"Mecklenburg-Vorpommern"}},{"name":"Glasower Weg","postalCode":"17166","locality":"Teterow","municipality":{"key":"13072106","name":"Teterow, Bergringstadt","type":"Stadt"},"district":{"key":"13072","name":"Landkreis Rostock","type":"Landkreis"},"federalState":{"key":"13","name":"Mecklenburg-Vorpommern"}},{"name":"Goethestr.","postalCode":"17166","locality":"Teterow","municipality":{"key":"13072106","name":"Teterow, Bergringstadt","type":"Stadt"},"district":{"key":"13072","name":"Landkreis Rostock","type":"Landkreis"},"federalState":{"key":"13","name":"Mecklenburg-Vorpommern"}},{"name":"Große Bachstr.","postalCode":"17166","locality":"Teterow","municipality":{"key":"13072106","name":"Teterow, Bergringstadt","type":"Stadt"},"district":{"key":"13072","name":"Landkreis Rostock","type":"Landkreis"},"federalState":{"key":"13","name":"Mecklenburg-Vorpommern"}},{"name":"Große Knickhäger Str.","postalCode":"17166","locality":"Teterow","municipality":{"key":"13072106","name":"Teterow, Bergringstadt","type":"Stadt"},"district":{"key":"13072","name":"Landkreis Rostock","type":"Landkreis"},"federalState":{"key":"13","name":"Mecklenburg-Vorpommern"}},{"name":"Grüner Weg","postalCode":"17166","locality":"Teterow","municipality":{"key":"13072106","name":"Teterow, Bergringstadt","type":"Stadt"},"district":{"key":"13072","name":"Landkreis Rostock","type":"Landkreis"},"federalState":{"key":"13","name":"Mecklenburg-Vorpommern"}},{"name":"Gummiweg","postalCode":"17166","locality":"Teterow","municipality":{"key":"13072106","name":"Teterow, Bergringstadt","type":"Stadt"},"district":{"key":"13072","name":"Landkreis Rostock","type":"Landkreis"},"federalState":{"key":"13","name":"Mecklenburg-Vorpommern"}},{"name":"Güstrower Str.","postalCode":"17166","locality":"Teterow","municipality":{"key":"13072106","name":"Teterow, Bergringstadt","type":"Stadt"},"district":{"key":"13072","name":"Landkreis Rostock","type":"Landkreis"},"federalState":{"key":"13","name":"Mecklenburg-Vorpommern"}},{"name":"Güterbahnhof","postalCode":"17166","locality":"Teterow","municipality":{"key":"13072106","name":"Teterow, Bergringstadt","type":"Stadt"},"district":{"key":"13072","name":"Landkreis Rostock","type":"Landkreis"},"federalState":{"key":"13","name":"Mecklenburg-Vorpommern"}},{"name":"Gutsgarten","postalCode":"17166","locality":"Teterow","municipality":{"key":"13072106","name":"Teterow, Bergringstadt","type":"Stadt"},"district":{"key":"13072","name":"Landkreis Rostock","type":"Landkreis"},"federalState":{"key":"13","name":"Mecklenburg-Vorpommern"}},{"name":"Gutshofallee","postalCode":"17166","locality":"Teterow","municipality":{"key":"13072106","name":"Teterow, Bergringstadt","type":"Stadt"},"district":{"key":"13072","name":"Landkreis Rostock","type":"Landkreis"},"federalState":{"key":"13","name":"Mecklenburg-Vorpommern"}},{"name":"Heidbergsallee","postalCode":"17166","locality":"Teterow","municipality":{"key":"13072106","name":"Teterow, Bergringstadt","type":"Stadt"},"district":{"key":"13072","name":"Landkreis Rostock","type":"Landkreis"},"federalState":{"key":"13","name":"Mecklenburg-Vorpommern"}},{"name":"Heidenholzstr.","postalCode":"17166","locality":"Teterow","municipality":{"key":"13072106","name":"Teterow, Bergringstadt","type":"Stadt"},"district":{"key":"13072","name":"Landkreis Rostock","type":"Landkreis"},"federalState":{"key":"13","name":"Mecklenburg-Vorpommern"}},{"name":"Heinrich-Heine-Str.","postalCode":"17166","locality":"Teterow","municipality":{"key":"13072106","name":"Teterow, Bergringstadt","type":"Stadt"},"district":{"key":"13072","name":"Landkreis Rostock","type":"Landkreis"},"federalState":{"key":"13","name":"Mecklenburg-Vorpommern"}},{"name":"Hofwiesenweg","postalCode":"17166","locality":"Teterow","municipality":{"key":"13072106","name":"Teterow, Bergringstadt","type":"Stadt"},"district":{"key":"13072","name":"Landkreis Rostock","type":"Landkreis"},"federalState":{"key":"13","name":"Mecklenburg-Vorpommern"}},{"name":"Hohe-Holz-Weg","postalCode":"17166","locality":"Teterow","municipality":{"key":"13072106","name":"Teterow, Bergringstadt","type":"Stadt"},"district":{"key":"13072","name":"Landkreis Rostock","type":"Landkreis"},"federalState":{"key":"13","name":"Mecklenburg-Vorpommern"}},{"name":"Hohen Mistorfer Weg","postalCode":"17166","locality":"Teterow","municipality":{"key":"13072106","name":"Teterow, Bergringstadt","type":"Stadt"},"district":{"key":"13072","name":"Landkreis Rostock","type":"Landkreis"},"federalState":{"key":"13","name":"Mecklenburg-Vorpommern"}},{"name":"Hohes Holz","postalCode":"17166","locality":"Teterow","municipality":{"key":"13072106","name":"Teterow, Bergringstadt","type":"Stadt"},"district":{"key":"13072","name":"Landkreis Rostock","type":"Landkreis"},"federalState":{"key":"13","name":"Mecklenburg-Vorpommern"}},{"name":"Hoppenhof","postalCode":"17166","locality":"Teterow","municipality":{"key":"13072106","name":"Teterow, Bergringstadt","type":"Stadt"},"district":{"key":"13072","name":"Landkreis Rostock","type":"Landkreis"},"federalState":{"key":"13","name":"Mecklenburg-Vorpommern"}},{"name":"Johannes-R.-Becher-Str.","postalCode":"17166","locality":"Teterow","municipality":{"key":"13072106","name":"Teterow, Bergringstadt","type":"Stadt"},"district":{"key":"13072","name":"Landkreis Rostock","type":"Landkreis"},"federalState":{"key":"13","name":"Mecklenburg-Vorpommern"}},{"name":"John-Brinckman-Str.","postalCode":"17166","locality":"Teterow","municipality":{"key":"13072106","name":"Teterow, Bergringstadt","type":"Stadt"},"district":{"key":"13072","name":"Landkreis Rostock","type":"Landkreis"},"federalState":{"key":"13","name":"Mecklenburg-Vorpommern"}},{"name":"Kirchplatz","postalCode":"17166","locality":"Teterow","municipality":{"key":"13072106","name":"Teterow, Bergringstadt","type":"Stadt"},"district":{"key":"13072","name":"Landkreis Rostock","type":"Landkreis"},"federalState":{"key":"13","name":"Mecklenburg-Vorpommern"}},{"name":"Kleine Bachstr.","postalCode":"17166","locality":"Teterow","municipality":{"key":"13072106","name":"Teterow, Bergringstadt","type":"Stadt"},"district":{"key":"13072","name":"Landkreis Rostock","type":"Landkreis"},"federalState":{"key":"13","name":"Mecklenburg-Vorpommern"}},{"name":"Kleine Knickhäger Str.","postalCode":"17166","locality":"Teterow","municipality":{"key":"13072106","name":"Teterow, Bergringstadt","type":"Stadt"},"district":{"key":"13072","name":"Landkreis Rostock","type":"Landkreis"},"federalState":{"key":"13","name":"Mecklenburg-Vorpommern"}},{"name":"Klosterstr.","postalCode":"17166","locality":"Teterow","municipality":{"key":"13072106","name":"Teterow, Bergringstadt","type":"Stadt"},"district":{"key":"13072","name":"Landkreis Rostock","type":"Landkreis"},"federalState":{"key":"13","name":"Mecklenburg-Vorpommern"}},{"name":"Langhäger Chaussee","postalCode":"17166","locality":"Teterow","municipality":{"key":"13072106","name":"Teterow, Bergringstadt","type":"Stadt"},"district":{"key":"13072","name":"Landkreis Rostock","type":"Landkreis"},"federalState":{"key":"13","name":"Mecklenburg-Vorpommern"}},{"name":"Lärchenweg","postalCode":"17166","locality":"Teterow","municipality":{"key":"13072106","name":"Teterow, Bergringstadt","type":"Stadt"},"district":{"key":"13072","name":"Landkreis Rostock","type":"Landkreis"},"federalState":{"key":"13","name":"Mecklenburg-Vorpommern"}},{"name":"Lindenstr.","postalCode":"17166","locality":"Teterow","municipality":{"key":"13072106","name":"Teterow, Bergringstadt","type":"Stadt"},"district":{"key":"13072","name":"Landkreis Rostock","type":"Landkreis"},"federalState":{"key":"13","name":"Mecklenburg-Vorpommern"}},{"name":"Malchiner Str.","postalCode":"17166","locality":"Teterow","municipality":{"key":"13072106","name":"Teterow, Bergringstadt","type":"Stadt"},"district":{"key":"13072","name":"Landkreis Rostock","type":"Landkreis"},"federalState":{"key":"13","name":"Mecklenburg-Vorpommern"}},{"name":"Marktplatz","postalCode":"17166","locality":"Teterow","municipality":{"key":"13072106","name":"Teterow, Bergringstadt","type":"Stadt"},"district":{"key":"13072","name":"Landkreis Rostock","type":"Landkreis"},"federalState":{"key":"13","name":"Mecklenburg-Vorpommern"}},{"name":"Mieckower Weg","postalCode":"17166","locality":"Teterow","municipality":{"key":"13072106","name":"Teterow, Bergringstadt","type":"Stadt"},"district":{"key":"13072","name":"Landkreis Rostock","type":"Landkreis"},"federalState":{"key":"13","name":"Mecklenburg-Vorpommern"}},{"name":"Mittelweg","postalCode":"17166","locality":"Teterow","municipality":{"key":"13072106","name":"Teterow, Bergringstadt","type":"Stadt"},"district":{"key":"13072","name":"Landkreis Rostock","type":"Landkreis"},"federalState":{"key":"13","name":"Mecklenburg-Vorpommern"}},{"name":"Mühlenstr.","postalCode":"17166","locality":"Teterow","municipality":{"key":"13072106","name":"Teterow, Bergringstadt","type":"Stadt"},"district":{"key":"13072","name":"Landkreis Rostock","type":"Landkreis"},"federalState":{"key":"13","name":"Mecklenburg-Vorpommern"}},{"name":"Neukalener Str.","postalCode":"17166","locality":"Teterow","municipality":{"key":"13072106","name":"Teterow, Bergringstadt","type":"Stadt"},"district":{"key":"13072","name":"Landkreis Rostock","type":"Landkreis"},"federalState":{"key":"13","name":"Mecklenburg-Vorpommern"}},{"name":"Niels-Stensen-Str.","postalCode":"17166","locality":"Teterow","municipality":{"key":"13072106","name":"Teterow, Bergringstadt","type":"Stadt"},"district":{"key":"13072","name":"Landkreis Rostock","type":"Landkreis"},"federalState":{"key":"13","name":"Mecklenburg-Vorpommern"}},{"name":"Niendorf","postalCode":"17166","locality":"Teterow","municipality":{"key":"13072106","name":"Teterow, Bergringstadt","type":"Stadt"},"district":{"key":"13072","name":"Landkreis Rostock","type":"Landkreis"},"federalState":{"key":"13","name":"Mecklenburg-Vorpommern"}},{"name":"Niendorfer Weg","postalCode":"17166","locality":"Teterow","municipality":{"key":"13072106","name":"Teterow, Bergringstadt","type":"Stadt"},"district":{"key":"13072","name":"Landkreis Rostock","type":"Landkreis"},"federalState":{"key":"13","name":"Mecklenburg-Vorpommern"}},{"name":"Nördliche Ringstr.","postalCode":"17166","locality":"Teterow","municipality":{"key":"13072106","name":"Teterow, Bergringstadt","type":"Stadt"},"district":{"key":"13072","name":"Landkreis Rostock","type":"Landkreis"},"federalState":{"key":"13","name":"Mecklenburg-Vorpommern"}},{"name":"Otimarstr.","postalCode":"17166","locality":"Teterow","municipality":{"key":"13072106","name":"Teterow, Bergringstadt","type":"Stadt"},"district":{"key":"13072","name":"Landkreis Rostock","type":"Landkreis"},"federalState":{"key":"13","name":"Mecklenburg-Vorpommern"}},{"name":"Pampow","postalCode":"17166","locality":"Teterow","municipality":{"key":"13072106","name":"Teterow, Bergringstadt","type":"Stadt"},"district":{"key":"13072","name":"Landkreis Rostock","type":"Landkreis"},"federalState":{"key":"13","name":"Mecklenburg-Vorpommern"}},{"name":"Pampower Weg","postalCode":"17166","locality":"Teterow","municipality":{"key":"13072106","name":"Teterow, Bergringstadt","type":"Stadt"},"district":{"key":"13072","name":"Landkreis Rostock","type":"Landkreis"},"federalState":{"key":"13","name":"Mecklenburg-Vorpommern"}},{"name":"Pastor-Fiedler-Weg","postalCode":"17166","locality":"Teterow","municipality":{"key":"13072106","name":"Teterow, Bergringstadt","type":"Stadt"},"district":{"key":"13072","name":"Landkreis Rostock","type":"Landkreis"},"federalState":{"key":"13","name":"Mecklenburg-Vorpommern"}},{"name":"Pferdemarkt","postalCode":"17166","locality":"Teterow","municipality":{"key":"13072106","name":"Teterow, Bergringstadt","type":"Stadt"},"district":{"key":"13072","name":"Landkreis Rostock","type":"Landkreis"},"federalState":{"key":"13","name":"Mecklenburg-Vorpommern"}},{"name":"Pferdemarktstr.","postalCode":"17166","locality":"Teterow","municipality":{"key":"13072106","name":"Teterow, Bergringstadt","type":"Stadt"},"district":{"key":"13072","name":"Landkreis Rostock","type":"Landkreis"},"federalState":{"key":"13","name":"Mecklenburg-Vorpommern"}},{"name":"Philosophenweg","postalCode":"17166","locality":"Teterow","municipality":{"key":"13072106","name":"Teterow, Bergringstadt","type":"Stadt"},"district":{"key":"13072","name":"Landkreis Rostock","type":"Landkreis"},"federalState":{"key":"13","name":"Mecklenburg-Vorpommern"}},{"name":"Plantagenweg","postalCode":"17166","locality":"Teterow","municipality":{"key":"13072106","name":"Teterow, Bergringstadt","type":"Stadt"},"district":{"key":"13072","name":"Landkreis Rostock","type":"Landkreis"},"federalState":{"key":"13","name":"Mecklenburg-Vorpommern"}},{"name":"Poggestr.","postalCode":"17166","locality":"Teterow","municipality":{"key":"13072106","name":"Teterow, Bergringstadt","type":"Stadt"},"district":{"key":"13072","name":"Landkreis Rostock","type":"Landkreis"},"federalState":{"key":"13","name":"Mecklenburg-Vorpommern"}},{"name":"Predigersteig","postalCode":"17166","locality":"Teterow","municipality":{"key":"13072106","name":"Teterow, Bergringstadt","type":"Stadt"},"district":{"key":"13072","name":"Landkreis Rostock","type":"Landkreis"},"federalState":{"key":"13","name":"Mecklenburg-Vorpommern"}},{"name":"Predigerstr.","postalCode":"17166","locality":"Teterow","municipality":{"key":"13072106","name":"Teterow, Bergringstadt","type":"Stadt"},"district":{"key":"13072","name":"Landkreis Rostock","type":"Landkreis"},"federalState":{"key":"13","name":"Mecklenburg-Vorpommern"}},{"name":"Rosenstr.","postalCode":"17166","locality":"Teterow","municipality":{"key":"13072106","name":"Teterow, Bergringstadt","type":"Stadt"},"district":{"key":"13072","name":"Landkreis Rostock","type":"Landkreis"},"federalState":{"key":"13","name":"Mecklenburg-Vorpommern"}},{"name":"Rostocker Chaussee","postalCode":"17166","locality":"Teterow","municipality":{"key":"13072106","name":"Teterow, Bergringstadt","type":"Stadt"},"district":{"key":"13072","name":"Landkreis Rostock","type":"Landkreis"},"federalState":{"key":"13","name":"Mecklenburg-Vorpommern"}},{"name":"Rostocker Str.","postalCode":"17166","locality":"Teterow","municipality":{"key":"13072106","name":"Teterow, Bergringstadt","type":"Stadt"},"district":{"key":"13072","name":"Landkreis Rostock","type":"Landkreis"},"federalState":{"key":"13","name":"Mecklenburg-Vorpommern"}},{"name":"Rudolf-Tarnow-Str.","postalCode":"17166","locality":"Teterow","municipality":{"key":"13072106","name":"Teterow, Bergringstadt","type":"Stadt"},"district":{"key":"13072","name":"Landkreis Rostock","type":"Landkreis"},"federalState":{"key":"13","name":"Mecklenburg-Vorpommern"}},{"name":"Sauerwerder Rundweg","postalCode":"17166","locality":"Teterow","municipality":{"key":"13072106","name":"Teterow, Bergringstadt","type":"Stadt"},"district":{"key":"13072","name":"Landkreis Rostock","type":"Landkreis"},"federalState":{"key":"13","name":"Mecklenburg-Vorpommern"}},{"name":"Scheeßeler Str.","postalCode":"17166","locality":"Teterow","municipality":{"key":"13072106","name":"Teterow, Bergringstadt","type":"Stadt"},"district":{"key":"13072","name":"Landkreis Rostock","type":"Landkreis"},"federalState":{"key":"13","name":"Mecklenburg-Vorpommern"}},{"name":"Schillerstr.","postalCode":"17166","locality":"Teterow","municipality":{"key":"13072106","name":"Teterow, Bergringstadt","type":"Stadt"},"district":{"key":"13072","name":"Landkreis Rostock","type":"Landkreis"},"federalState":{"key":"13","name":"Mecklenburg-Vorpommern"}},{"name":"Schlachthofstr.","postalCode":"17166","locality":"Teterow","municipality":{"key":"13072106","name":"Teterow, Bergringstadt","type":"Stadt"},"district":{"key":"13072","name":"Landkreis Rostock","type":"Landkreis"},"federalState":{"key":"13","name":"Mecklenburg-Vorpommern"}},{"name":"Schlegelweg","postalCode":"17166","locality":"Teterow","municipality":{"key":"13072106","name":"Teterow, Bergringstadt","type":"Stadt"},"district":{"key":"13072","name":"Landkreis Rostock","type":"Landkreis"},"federalState":{"key":"13","name":"Mecklenburg-Vorpommern"}},{"name":"Schulkamp","postalCode":"17166","locality":"Teterow","municipality":{"key":"13072106","name":"Teterow, Bergringstadt","type":"Stadt"},"district":{"key":"13072","name":"Landkreis Rostock","type":"Landkreis"},"federalState":{"key":"13","name":"Mecklenburg-Vorpommern"}},{"name":"Schulkampallee","postalCode":"17166","locality":"Teterow","municipality":{"key":"13072106","name":"Teterow, Bergringstadt","type":"Stadt"},"district":{"key":"13072","name":"Landkreis Rostock","type":"Landkreis"},"federalState":{"key":"13","name":"Mecklenburg-Vorpommern"}},{"name":"Schulstr.","postalCode":"17166","locality":"Teterow","municipality":{"key":"13072106","name":"Teterow, Bergringstadt","type":"Stadt"},"district":{"key":"13072","name":"Landkreis Rostock","type":"Landkreis"},"federalState":{"key":"13","name":"Mecklenburg-Vorpommern"}},{"name":"Seestr.","postalCode":"17166","locality":"Teterow","municipality":{"key":"13072106","name":"Teterow, Bergringstadt","type":"Stadt"},"district":{"key":"13072","name":"Landkreis Rostock","type":"Landkreis"},"federalState":{"key":"13","name":"Mecklenburg-Vorpommern"}},{"name":"Seeweg","postalCode":"17166","locality":"Teterow","municipality":{"key":"13072106","name":"Teterow, Bergringstadt","type":"Stadt"},"district":{"key":"13072","name":"Landkreis Rostock","type":"Landkreis"},"federalState":{"key":"13","name":"Mecklenburg-Vorpommern"}},{"name":"Stadtrandsiedlung","postalCode":"17166","locality":"Teterow","municipality":{"key":"13072106","name":"Teterow, Bergringstadt","type":"Stadt"},"district":{"key":"13072","name":"Landkreis Rostock","type":"Landkreis"},"federalState":{"key":"13","name":"Mecklenburg-Vorpommern"}},{"name":"St.-Jürgen-Weg","postalCode":"17166","locality":"Teterow","municipality":{"key":"13072106","name":"Teterow, Bergringstadt","type":"Stadt"},"district":{"key":"13072","name":"Landkreis Rostock","type":"Landkreis"},"federalState":{"key":"13","name":"Mecklenburg-Vorpommern"}},{"name":"Str. der Freundschaft","postalCode":"17166","locality":"Teterow","municipality":{"key":"13072106","name":"Teterow, Bergringstadt","type":"Stadt"},"district":{"key":"13072","name":"Landkreis Rostock","type":"Landkreis"},"federalState":{"key":"13","name":"Mecklenburg-Vorpommern"}},{"name":"Südliche Ringstr.","postalCode":"17166","locality":"Teterow","municipality":{"key":"13072106","name":"Teterow, Bergringstadt","type":"Stadt"},"district":{"key":"13072","name":"Landkreis Rostock","type":"Landkreis"},"federalState":{"key":"13","name":"Mecklenburg-Vorpommern"}},{"name":"Teschower Chaussee","postalCode":"17166","locality":"Teterow","municipality":{"key":"13072106","name":"Teterow, Bergringstadt","type":"Stadt"},"district":{"key":"13072","name":"Landkreis Rostock","type":"Landkreis"},"federalState":{"key":"13","name":"Mecklenburg-Vorpommern"}},{"name":"Tischlereiweg","postalCode":"17166","locality":"Teterow","municipality":{"key":"13072106","name":"Teterow, Bergringstadt","type":"Stadt"},"district":{"key":"13072","name":"Landkreis Rostock","type":"Landkreis"},"federalState":{"key":"13","name":"Mecklenburg-Vorpommern"}},{"name":"Von-Moltke-Str.","postalCode":"17166","locality":"Teterow","municipality":{"key":"13072106","name":"Teterow, Bergringstadt","type":"Stadt"},"district":{"key":"13072","name":"Landkreis Rostock","type":"Landkreis"},"federalState":{"key":"13","name":"Mecklenburg-Vorpommern"}},{"name":"Von-Pentz-Allee","postalCode":"17166","locality":"Teterow","municipality":{"key":"13072106","name":"Teterow, Bergringstadt","type":"Stadt"},"district":{"key":"13072","name":"Landkreis Rostock","type":"Landkreis"},"federalState":{"key":"13","name":"Mecklenburg-Vorpommern"}},{"name":"Von-Thünen-Str.","postalCode":"17166","locality":"Teterow","municipality":{"key":"13072106","name":"Teterow, Bergringstadt","type":"Stadt"},"district":{"key":"13072","name":"Landkreis Rostock","type":"Landkreis"},"federalState":{"key":"13","name":"Mecklenburg-Vorpommern"}},{"name":"Warener Str.","postalCode":"17166","locality":"Teterow","municipality":{"key":"13072106","name":"Teterow, Bergringstadt","type":"Stadt"},"district":{"key":"13072","name":"Landkreis Rostock","type":"Landkreis"},"federalState":{"key":"13","name":"Mecklenburg-Vorpommern"}},{"name":"Weg der Verliebten","postalCode":"17166","locality":"Teterow","municipality":{"key":"13072106","name":"Teterow, Bergringstadt","type":"Stadt"},"district":{"key":"13072","name":"Landkreis Rostock","type":"Landkreis"},"federalState":{"key":"13","name":"Mecklenburg-Vorpommern"}},{"name":"Wendendamm","postalCode":"17166","locality":"Teterow","municipality":{"key":"13072106","name":"Teterow, Bergringstadt","type":"Stadt"},"district":{"key":"13072","name":"Landkreis Rostock","type":"Landkreis"},"federalState":{"key":"13","name":"Mecklenburg-Vorpommern"}},{"name":"Wendenring","postalCode":"17166","locality":"Teterow","municipality":{"key":"13072106","name":"Teterow, Bergringstadt","type":"Stadt"},"district":{"key":"13072","name":"Landkreis Rostock","type":"Landkreis"},"federalState":{"key":"13","name":"Mecklenburg-Vorpommern"}},{"name":"Westliche Ringstr.","postalCode":"17166","locality":"Teterow","municipality":{"key":"13072106","name":"Teterow, Bergringstadt","type":"Stadt"},"district":{"key":"13072","name":"Landkreis Rostock","type":"Landkreis"},"federalState":{"key":"13","name":"Mecklenburg-Vorpommern"}},{"name":"Wiesenweg","postalCode":"17166","locality":"Teterow","municipality":{"key":"13072106","name":"Teterow, Bergringstadt","type":"Stadt"},"district":{"key":"13072","name":"Landkreis Rostock","type":"Landkreis"},"federalState":{"key":"13","name":"Mecklenburg-Vorpommern"}},{"name":"Ziegelei","postalCode":"17166","locality":"Teterow","municipality":{"key":"13072106","name":"Teterow, Bergringstadt","type":"Stadt"},"district":{"key":"13072","name":"Landkreis Rostock","type":"Landkreis"},"federalState":{"key":"13","name":"Mecklenburg-Vorpommern"}},{"name":"Zu den Forellenteichen","postalCode":"17166","locality":"Teterow","municipality":{"key":"13072106","name":"Teterow, Bergringstadt","type":"Stadt"},"district":{"key":"13072","name":"Landkreis Rostock","type":"Landkreis"},"federalState":{"key":"13","name":"Mecklenburg-Vorpommern"}},{"name":"Zum Ehrenmal","postalCode":"17166","locality":"Teterow","municipality":{"key":"13072106","name":"Teterow, Bergringstadt","type":"Stadt"},"district":{"key":"13072","name":"Landkreis Rostock","type":"Landkreis"},"federalState":{"key":"13","name":"Mecklenburg-Vorpommern"}},{"name":"Zum Hohen Holz","postalCode":"17166","locality":"Teterow","municipality":{"key":"13072106","name":"Teterow, Bergringstadt","type":"Stadt"},"district":{"key":"13072","name":"Landkreis Rostock","type":"Landkreis"},"federalState":{"key":"13","name":"Mecklenburg-Vorpommern"}},{"name":"Zum Landgut","postalCode":"17166","locality":"Teterow","municipality":{"key":"13072106","name":"Teterow, Bergringstadt","type":"Stadt"},"district":{"key":"13072","name":"Landkreis Rostock","type":"Landkreis"},"federalState":{"key":"13","name":"Mecklenburg-Vorpommern"}},{"name":"Zum Nabu-Haus","postalCode":"17166","locality":"Teterow","municipality":{"key":"13072106","name":"Teterow, Bergringstadt","type":"Stadt"},"district":{"key":"13072","name":"Landkreis Rostock","type":"Landkreis"},"federalState":{"key":"13","name":"Mecklenburg-Vorpommern"}},{"name":"Zum Sauerwerder","postalCode":"17166","locality":"Teterow","municipality":{"key":"13072106","name":"Teterow, Bergringstadt","type":"Stadt"},"district":{"key":"13072","name":"Landkreis Rostock","type":"Landkreis"},"federalState":{"key":"13","name":"Mecklenburg-Vorpommern"}},{"name":"Zum Wasserwerk","postalCode":"17166","locality":"Teterow","municipality":{"key":"13072106","name":"Teterow, Bergringstadt","type":"Stadt"},"district":{"key":"13072","name":"Landkreis Rostock","type":"Landkreis"},"federalState":{"key":"13","name":"Mecklenburg-Vorpommern"}},{"name":"Östliche Ringstr.","postalCode":"17166","locality":"Teterow","municipality":{"key":"13072106","name":"Teterow, Bergringstadt","type":"Stadt"},"district":{"key":"13072","name":"Landkreis Rostock","type":"Landkreis"},"federalState":{"key":"13","name":"Mecklenburg-Vorpommern"}},]