[{"name":"Am Fliederbusch","postalCode":"75399","locality":"Unterreichenbach","municipality":{"key":"08235073","name":"Unterreichenbach","type":"Kreisangehörige_Gemeinde"},"district":{"key":"08235","name":"Calw","type":"Landkreis"},"federalState":{"key":"08","name":"Baden-Württemberg"}},{"name":"Bahnhofstr.","postalCode":"75399","locality":"Unterreichenbach","municipality":{"key":"08235073","name":"Unterreichenbach","type":"Kreisangehörige_Gemeinde"},"district":{"key":"08235","name":"Calw","type":"Landkreis"},"federalState":{"key":"08","name":"Baden-Württemberg"}},{"name":"Bergstr.","postalCode":"75399","locality":"Unterreichenbach","municipality":{"key":"08235073","name":"Unterreichenbach","type":"Kreisangehörige_Gemeinde"},"district":{"key":"08235","name":"Calw","type":"Landkreis"},"federalState":{"key":"08","name":"Baden-Württemberg"}},{"name":"Bieselsberger Weg","postalCode":"75399","locality":"Unterreichenbach","municipality":{"key":"08235073","name":"Unterreichenbach","type":"Kreisangehörige_Gemeinde"},"district":{"key":"08235","name":"Calw","type":"Landkreis"},"federalState":{"key":"08","name":"Baden-Württemberg"}},{"name":"Brunnenweg","postalCode":"75399","locality":"Unterreichenbach","municipality":{"key":"08235073","name":"Unterreichenbach","type":"Kreisangehörige_Gemeinde"},"district":{"key":"08235","name":"Calw","type":"Landkreis"},"federalState":{"key":"08","name":"Baden-Württemberg"}},{"name":"Calwer Str.","postalCode":"75399","locality":"Unterreichenbach","municipality":{"key":"08235073","name":"Unterreichenbach","type":"Kreisangehörige_Gemeinde"},"district":{"key":"08235","name":"Calw","type":"Landkreis"},"federalState":{"key":"08","name":"Baden-Württemberg"}},{"name":"Dennjächt Halde","postalCode":"75399","locality":"Unterreichenbach","municipality":{"key":"08235073","name":"Unterreichenbach","type":"Kreisangehörige_Gemeinde"},"district":{"key":"08235","name":"Calw","type":"Landkreis"},"federalState":{"key":"08","name":"Baden-Württemberg"}},{"name":"Dennjaechtsteige","postalCode":"75399","locality":"Unterreichenbach","municipality":{"key":"08235073","name":"Unterreichenbach","type":"Kreisangehörige_Gemeinde"},"district":{"key":"08235","name":"Calw","type":"Landkreis"},"federalState":{"key":"08","name":"Baden-Württemberg"}},{"name":"Dreimarksteinweg","postalCode":"75399","locality":"Unterreichenbach","municipality":{"key":"08235073","name":"Unterreichenbach","type":"Kreisangehörige_Gemeinde"},"district":{"key":"08235","name":"Calw","type":"Landkreis"},"federalState":{"key":"08","name":"Baden-Württemberg"}},{"name":"Eulenbachweg","postalCode":"75399","locality":"Unterreichenbach","municipality":{"key":"08235073","name":"Unterreichenbach","type":"Kreisangehörige_Gemeinde"},"district":{"key":"08235","name":"Calw","type":"Landkreis"},"federalState":{"key":"08","name":"Baden-Württemberg"}},{"name":"Flößerweg","postalCode":"75399","locality":"Unterreichenbach","municipality":{"key":"08235073","name":"Unterreichenbach","type":"Kreisangehörige_Gemeinde"},"district":{"key":"08235","name":"Calw","type":"Landkreis"},"federalState":{"key":"08","name":"Baden-Württemberg"}},{"name":"Friedenstr.","postalCode":"75399","locality":"Unterreichenbach","municipality":{"key":"08235073","name":"Unterreichenbach","type":"Kreisangehörige_Gemeinde"},"district":{"key":"08235","name":"Calw","type":"Landkreis"},"federalState":{"key":"08","name":"Baden-Württemberg"}},{"name":"Friedhofstr.","postalCode":"75399","locality":"Unterreichenbach","municipality":{"key":"08235073","name":"Unterreichenbach","type":"Kreisangehörige_Gemeinde"},"district":{"key":"08235","name":"Calw","type":"Landkreis"},"federalState":{"key":"08","name":"Baden-Württemberg"}},{"name":"Frühlingshalde","postalCode":"75399","locality":"Unterreichenbach","municipality":{"key":"08235073","name":"Unterreichenbach","type":"Kreisangehörige_Gemeinde"},"district":{"key":"08235","name":"Calw","type":"Landkreis"},"federalState":{"key":"08","name":"Baden-Württemberg"}},{"name":"Gaiernweg","postalCode":"75399","locality":"Unterreichenbach","municipality":{"key":"08235073","name":"Unterreichenbach","type":"Kreisangehörige_Gemeinde"},"district":{"key":"08235","name":"Calw","type":"Landkreis"},"federalState":{"key":"08","name":"Baden-Württemberg"}},{"name":"Gfaellweg","postalCode":"75399","locality":"Unterreichenbach","municipality":{"key":"08235073","name":"Unterreichenbach","type":"Kreisangehörige_Gemeinde"},"district":{"key":"08235","name":"Calw","type":"Landkreis"},"federalState":{"key":"08","name":"Baden-Württemberg"}},{"name":"Grunbacher Str.","postalCode":"75399","locality":"Unterreichenbach","municipality":{"key":"08235073","name":"Unterreichenbach","type":"Kreisangehörige_Gemeinde"},"district":{"key":"08235","name":"Calw","type":"Landkreis"},"federalState":{"key":"08","name":"Baden-Württemberg"}},{"name":"Hausackerweg","postalCode":"75399","locality":"Unterreichenbach","municipality":{"key":"08235073","name":"Unterreichenbach","type":"Kreisangehörige_Gemeinde"},"district":{"key":"08235","name":"Calw","type":"Landkreis"},"federalState":{"key":"08","name":"Baden-Württemberg"}},{"name":"Heckenweg","postalCode":"75399","locality":"Unterreichenbach","municipality":{"key":"08235073","name":"Unterreichenbach","type":"Kreisangehörige_Gemeinde"},"district":{"key":"08235","name":"Calw","type":"Landkreis"},"federalState":{"key":"08","name":"Baden-Württemberg"}},{"name":"Herdgasse","postalCode":"75399","locality":"Unterreichenbach","municipality":{"key":"08235073","name":"Unterreichenbach","type":"Kreisangehörige_Gemeinde"},"district":{"key":"08235","name":"Calw","type":"Landkreis"},"federalState":{"key":"08","name":"Baden-Württemberg"}},{"name":"Im Maile","postalCode":"75399","locality":"Unterreichenbach","municipality":{"key":"08235073","name":"Unterreichenbach","type":"Kreisangehörige_Gemeinde"},"district":{"key":"08235","name":"Calw","type":"Landkreis"},"federalState":{"key":"08","name":"Baden-Württemberg"}},{"name":"Im Oberdorf","postalCode":"75399","locality":"Unterreichenbach","municipality":{"key":"08235073","name":"Unterreichenbach","type":"Kreisangehörige_Gemeinde"},"district":{"key":"08235","name":"Calw","type":"Landkreis"},"federalState":{"key":"08","name":"Baden-Württemberg"}},{"name":"Im Rosenhag","postalCode":"75399","locality":"Unterreichenbach","municipality":{"key":"08235073","name":"Unterreichenbach","type":"Kreisangehörige_Gemeinde"},"district":{"key":"08235","name":"Calw","type":"Landkreis"},"federalState":{"key":"08","name":"Baden-Württemberg"}},{"name":"Im Seidigbusch","postalCode":"75399","locality":"Unterreichenbach","municipality":{"key":"08235073","name":"Unterreichenbach","type":"Kreisangehörige_Gemeinde"},"district":{"key":"08235","name":"Calw","type":"Landkreis"},"federalState":{"key":"08","name":"Baden-Württemberg"}},{"name":"Im Steinriegel","postalCode":"75399","locality":"Unterreichenbach","municipality":{"key":"08235073","name":"Unterreichenbach","type":"Kreisangehörige_Gemeinde"},"district":{"key":"08235","name":"Calw","type":"Landkreis"},"federalState":{"key":"08","name":"Baden-Württemberg"}},{"name":"Im Tann","postalCode":"75399","locality":"Unterreichenbach","municipality":{"key":"08235073","name":"Unterreichenbach","type":"Kreisangehörige_Gemeinde"},"district":{"key":"08235","name":"Calw","type":"Landkreis"},"federalState":{"key":"08","name":"Baden-Württemberg"}},{"name":"Jägerweg","postalCode":"75365","locality":"Calw","municipality":{"key":"08235085","name":"Calw, Stadt","type":"Große_Kreisstadt"},"district":{"key":"08235","name":"Calw","type":"Landkreis"},"federalState":{"key":"08","name":"Baden-Württemberg"}},{"name":"Jahnstr.","postalCode":"75365","locality":"Calw","municipality":{"key":"08235085","name":"Calw, Stadt","type":"Große_Kreisstadt"},"district":{"key":"08235","name":"Calw","type":"Landkreis"},"federalState":{"key":"08","name":"Baden-Württemberg"}},{"name":"Jahnweg","postalCode":"75365","locality":"Calw","municipality":{"key":"08235085","name":"Calw, Stadt","type":"Große_Kreisstadt"},"district":{"key":"08235","name":"Calw","type":"Landkreis"},"federalState":{"key":"08","name":"Baden-Württemberg"}},{"name":"Jakob-Alber-Str.","postalCode":"75365","locality":"Calw","municipality":{"key":"08235085","name":"Calw, Stadt","type":"Große_Kreisstadt"},"district":{"key":"08235","name":"Calw","type":"Landkreis"},"federalState":{"key":"08","name":"Baden-Württemberg"}},{"name":"Johannes-Brenz-Platz","postalCode":"75365","locality":"Calw","municipality":{"key":"08235085","name":"Calw, Stadt","type":"Große_Kreisstadt"},"district":{"key":"08235","name":"Calw","type":"Landkreis"},"federalState":{"key":"08","name":"Baden-Württemberg"}},{"name":"Johannes-Kepler-Str.","postalCode":"75365","locality":"Calw","municipality":{"key":"08235085","name":"Calw, Stadt","type":"Große_Kreisstadt"},"district":{"key":"08235","name":"Calw","type":"Landkreis"},"federalState":{"key":"08","name":"Baden-Württemberg"}},{"name":"Johannes-Nothacker-Weg","postalCode":"75365","locality":"Calw","municipality":{"key":"08235085","name":"Calw, Stadt","type":"Große_Kreisstadt"},"district":{"key":"08235","name":"Calw","type":"Landkreis"},"federalState":{"key":"08","name":"Baden-Württemberg"}},{"name":"Justinus-Kerner-Str.","postalCode":"75365","locality":"Calw","municipality":{"key":"08235085","name":"Calw, Stadt","type":"Große_Kreisstadt"},"district":{"key":"08235","name":"Calw","type":"Landkreis"},"federalState":{"key":"08","name":"Baden-Württemberg"}},{"name":"Kapfenhardter Str.","postalCode":"75399","locality":"Unterreichenbach","municipality":{"key":"08235073","name":"Unterreichenbach","type":"Kreisangehörige_Gemeinde"},"district":{"key":"08235","name":"Calw","type":"Landkreis"},"federalState":{"key":"08","name":"Baden-Württemberg"}},{"name":"Kapfenhardter Tal","postalCode":"75399","locality":"Unterreichenbach","municipality":{"key":"08235073","name":"Unterreichenbach","type":"Kreisangehörige_Gemeinde"},"district":{"key":"08235","name":"Calw","type":"Landkreis"},"federalState":{"key":"08","name":"Baden-Württemberg"}},{"name":"Kirchberg","postalCode":"75399","locality":"Unterreichenbach","municipality":{"key":"08235073","name":"Unterreichenbach","type":"Kreisangehörige_Gemeinde"},"district":{"key":"08235","name":"Calw","type":"Landkreis"},"federalState":{"key":"08","name":"Baden-Württemberg"}},{"name":"Kirchstr.","postalCode":"75399","locality":"Unterreichenbach","municipality":{"key":"08235073","name":"Unterreichenbach","type":"Kreisangehörige_Gemeinde"},"district":{"key":"08235","name":"Calw","type":"Landkreis"},"federalState":{"key":"08","name":"Baden-Württemberg"}},{"name":"Kurt-Fischer-Weg","postalCode":"75399","locality":"Unterreichenbach","municipality":{"key":"08235073","name":"Unterreichenbach","type":"Kreisangehörige_Gemeinde"},"district":{"key":"08235","name":"Calw","type":"Landkreis"},"federalState":{"key":"08","name":"Baden-Württemberg"}},{"name":"Lanbergweg","postalCode":"75399","locality":"Unterreichenbach","municipality":{"key":"08235073","name":"Unterreichenbach","type":"Kreisangehörige_Gemeinde"},"district":{"key":"08235","name":"Calw","type":"Landkreis"},"federalState":{"key":"08","name":"Baden-Württemberg"}},{"name":"Landhausstr.","postalCode":"75399","locality":"Unterreichenbach","municipality":{"key":"08235073","name":"Unterreichenbach","type":"Kreisangehörige_Gemeinde"},"district":{"key":"08235","name":"Calw","type":"Landkreis"},"federalState":{"key":"08","name":"Baden-Württemberg"}},{"name":"Maueräckerstr.","postalCode":"75399","locality":"Unterreichenbach","municipality":{"key":"08235073","name":"Unterreichenbach","type":"Kreisangehörige_Gemeinde"},"district":{"key":"08235","name":"Calw","type":"Landkreis"},"federalState":{"key":"08","name":"Baden-Württemberg"}},{"name":"Mühlsteige","postalCode":"75399","locality":"Unterreichenbach","municipality":{"key":"08235073","name":"Unterreichenbach","type":"Kreisangehörige_Gemeinde"},"district":{"key":"08235","name":"Calw","type":"Landkreis"},"federalState":{"key":"08","name":"Baden-Württemberg"}},{"name":"Nagoldblick","postalCode":"75399","locality":"Unterreichenbach","municipality":{"key":"08235073","name":"Unterreichenbach","type":"Kreisangehörige_Gemeinde"},"district":{"key":"08235","name":"Calw","type":"Landkreis"},"federalState":{"key":"08","name":"Baden-Württemberg"}},{"name":"Nagoldtalweg","postalCode":"75399","locality":"Unterreichenbach","municipality":{"key":"08235073","name":"Unterreichenbach","type":"Kreisangehörige_Gemeinde"},"district":{"key":"08235","name":"Calw","type":"Landkreis"},"federalState":{"key":"08","name":"Baden-Württemberg"}},{"name":"Obere-Äcker-Weg","postalCode":"75399","locality":"Unterreichenbach","municipality":{"key":"08235073","name":"Unterreichenbach","type":"Kreisangehörige_Gemeinde"},"district":{"key":"08235","name":"Calw","type":"Landkreis"},"federalState":{"key":"08","name":"Baden-Württemberg"}},{"name":"Oberer Misswaldweg","postalCode":"75399","locality":"Unterreichenbach","municipality":{"key":"08235073","name":"Unterreichenbach","type":"Kreisangehörige_Gemeinde"},"district":{"key":"08235","name":"Calw","type":"Landkreis"},"federalState":{"key":"08","name":"Baden-Württemberg"}},{"name":"Ochsenbrücke","postalCode":"75399","locality":"Unterreichenbach","municipality":{"key":"08235073","name":"Unterreichenbach","type":"Kreisangehörige_Gemeinde"},"district":{"key":"08235","name":"Calw","type":"Landkreis"},"federalState":{"key":"08","name":"Baden-Württemberg"}},{"name":"Panoramastr.","postalCode":"75399","locality":"Unterreichenbach","municipality":{"key":"08235073","name":"Unterreichenbach","type":"Kreisangehörige_Gemeinde"},"district":{"key":"08235","name":"Calw","type":"Landkreis"},"federalState":{"key":"08","name":"Baden-Württemberg"}},{"name":"Panoramaweg","postalCode":"75399","locality":"Unterreichenbach","municipality":{"key":"08235073","name":"Unterreichenbach","type":"Kreisangehörige_Gemeinde"},"district":{"key":"08235","name":"Calw","type":"Landkreis"},"federalState":{"key":"08","name":"Baden-Württemberg"}},{"name":"Pforzheimer Str.","postalCode":"75399","locality":"Unterreichenbach","municipality":{"key":"08235073","name":"Unterreichenbach","type":"Kreisangehörige_Gemeinde"},"district":{"key":"08235","name":"Calw","type":"Landkreis"},"federalState":{"key":"08","name":"Baden-Württemberg"}},{"name":"Rathausstr.","postalCode":"75399","locality":"Unterreichenbach","municipality":{"key":"08235073","name":"Unterreichenbach","type":"Kreisangehörige_Gemeinde"},"district":{"key":"08235","name":"Calw","type":"Landkreis"},"federalState":{"key":"08","name":"Baden-Württemberg"}},{"name":"Rittbergstr.","postalCode":"75399","locality":"Unterreichenbach","municipality":{"key":"08235073","name":"Unterreichenbach","type":"Kreisangehörige_Gemeinde"},"district":{"key":"08235","name":"Calw","type":"Landkreis"},"federalState":{"key":"08","name":"Baden-Württemberg"}},{"name":"Römerweg","postalCode":"75399","locality":"Unterreichenbach","municipality":{"key":"08235073","name":"Unterreichenbach","type":"Kreisangehörige_Gemeinde"},"district":{"key":"08235","name":"Calw","type":"Landkreis"},"federalState":{"key":"08","name":"Baden-Württemberg"}},{"name":"Salmbacher Str.","postalCode":"75399","locality":"Unterreichenbach","municipality":{"key":"08235073","name":"Unterreichenbach","type":"Kreisangehörige_Gemeinde"},"district":{"key":"08235","name":"Calw","type":"Landkreis"},"federalState":{"key":"08","name":"Baden-Württemberg"}},{"name":"Sauklinge","postalCode":"75399","locality":"Unterreichenbach","municipality":{"key":"08235073","name":"Unterreichenbach","type":"Kreisangehörige_Gemeinde"},"district":{"key":"08235","name":"Calw","type":"Landkreis"},"federalState":{"key":"08","name":"Baden-Württemberg"}},{"name":"Schömberger Str.","postalCode":"75399","locality":"Unterreichenbach","municipality":{"key":"08235073","name":"Unterreichenbach","type":"Kreisangehörige_Gemeinde"},"district":{"key":"08235","name":"Calw","type":"Landkreis"},"federalState":{"key":"08","name":"Baden-Württemberg"}},{"name":"Schönblickstr.","postalCode":"75399","locality":"Unterreichenbach","municipality":{"key":"08235073","name":"Unterreichenbach","type":"Kreisangehörige_Gemeinde"},"district":{"key":"08235","name":"Calw","type":"Landkreis"},"federalState":{"key":"08","name":"Baden-Württemberg"}},{"name":"Schulstr.","postalCode":"75399","locality":"Unterreichenbach","municipality":{"key":"08235073","name":"Unterreichenbach","type":"Kreisangehörige_Gemeinde"},"district":{"key":"08235","name":"Calw","type":"Landkreis"},"federalState":{"key":"08","name":"Baden-Württemberg"}},{"name":"Sonnenhalde","postalCode":"75399","locality":"Unterreichenbach","municipality":{"key":"08235073","name":"Unterreichenbach","type":"Kreisangehörige_Gemeinde"},"district":{"key":"08235","name":"Calw","type":"Landkreis"},"federalState":{"key":"08","name":"Baden-Württemberg"}},{"name":"Sprengergäßle","postalCode":"75399","locality":"Unterreichenbach","municipality":{"key":"08235073","name":"Unterreichenbach","type":"Kreisangehörige_Gemeinde"},"district":{"key":"08235","name":"Calw","type":"Landkreis"},"federalState":{"key":"08","name":"Baden-Württemberg"}},{"name":"Steinhofstr.","postalCode":"75399","locality":"Unterreichenbach","municipality":{"key":"08235073","name":"Unterreichenbach","type":"Kreisangehörige_Gemeinde"},"district":{"key":"08235","name":"Calw","type":"Landkreis"},"federalState":{"key":"08","name":"Baden-Württemberg"}},{"name":"Streitweg","postalCode":"75399","locality":"Unterreichenbach","municipality":{"key":"08235073","name":"Unterreichenbach","type":"Kreisangehörige_Gemeinde"},"district":{"key":"08235","name":"Calw","type":"Landkreis"},"federalState":{"key":"08","name":"Baden-Württemberg"}},{"name":"Streuweg","postalCode":"75399","locality":"Unterreichenbach","municipality":{"key":"08235073","name":"Unterreichenbach","type":"Kreisangehörige_Gemeinde"},"district":{"key":"08235","name":"Calw","type":"Landkreis"},"federalState":{"key":"08","name":"Baden-Württemberg"}},{"name":"Sturzwaldweg","postalCode":"75399","locality":"Unterreichenbach","municipality":{"key":"08235073","name":"Unterreichenbach","type":"Kreisangehörige_Gemeinde"},"district":{"key":"08235","name":"Calw","type":"Landkreis"},"federalState":{"key":"08","name":"Baden-Württemberg"}},{"name":"Talstr.","postalCode":"75399","locality":"Unterreichenbach","municipality":{"key":"08235073","name":"Unterreichenbach","type":"Kreisangehörige_Gemeinde"},"district":{"key":"08235","name":"Calw","type":"Landkreis"},"federalState":{"key":"08","name":"Baden-Württemberg"}},{"name":"Unterer Misswaldweg","postalCode":"75399","locality":"Unterreichenbach","municipality":{"key":"08235073","name":"Unterreichenbach","type":"Kreisangehörige_Gemeinde"},"district":{"key":"08235","name":"Calw","type":"Landkreis"},"federalState":{"key":"08","name":"Baden-Württemberg"}},{"name":"Unterreichenbacher Weg","postalCode":"75399","locality":"Unterreichenbach","municipality":{"key":"08235073","name":"Unterreichenbach","type":"Kreisangehörige_Gemeinde"},"district":{"key":"08235","name":"Calw","type":"Landkreis"},"federalState":{"key":"08","name":"Baden-Württemberg"}},{"name":"Viertelesweg","postalCode":"75399","locality":"Unterreichenbach","municipality":{"key":"08235073","name":"Unterreichenbach","type":"Kreisangehörige_Gemeinde"},"district":{"key":"08235","name":"Calw","type":"Landkreis"},"federalState":{"key":"08","name":"Baden-Württemberg"}},{"name":"Waldstr.","postalCode":"75399","locality":"Unterreichenbach","municipality":{"key":"08235073","name":"Unterreichenbach","type":"Kreisangehörige_Gemeinde"},"district":{"key":"08235","name":"Calw","type":"Landkreis"},"federalState":{"key":"08","name":"Baden-Württemberg"}},{"name":"Walzenweg","postalCode":"75399","locality":"Unterreichenbach","municipality":{"key":"08235073","name":"Unterreichenbach","type":"Kreisangehörige_Gemeinde"},"district":{"key":"08235","name":"Calw","type":"Landkreis"},"federalState":{"key":"08","name":"Baden-Württemberg"}},{"name":"Westliche Hauptstr.","postalCode":"75399","locality":"Unterreichenbach","municipality":{"key":"08235073","name":"Unterreichenbach","type":"Kreisangehörige_Gemeinde"},"district":{"key":"08235","name":"Calw","type":"Landkreis"},"federalState":{"key":"08","name":"Baden-Württemberg"}},{"name":"Wilhelmstr.","postalCode":"75399","locality":"Unterreichenbach","municipality":{"key":"08235073","name":"Unterreichenbach","type":"Kreisangehörige_Gemeinde"},"district":{"key":"08235","name":"Calw","type":"Landkreis"},"federalState":{"key":"08","name":"Baden-Württemberg"}},{"name":"Zu den Mühlen","postalCode":"75399","locality":"Unterreichenbach","municipality":{"key":"08235073","name":"Unterreichenbach","type":"Kreisangehörige_Gemeinde"},"district":{"key":"08235","name":"Calw","type":"Landkreis"},"federalState":{"key":"08","name":"Baden-Württemberg"}},{"name":"Zum Hasenloch","postalCode":"75399","locality":"Unterreichenbach","municipality":{"key":"08235073","name":"Unterreichenbach","type":"Kreisangehörige_Gemeinde"},"district":{"key":"08235","name":"Calw","type":"Landkreis"},"federalState":{"key":"08","name":"Baden-Württemberg"}},{"name":"Östliche Hauptstr.","postalCode":"75399","locality":"Unterreichenbach","municipality":{"key":"08235073","name":"Unterreichenbach","type":"Kreisangehörige_Gemeinde"},"district":{"key":"08235","name":"Calw","type":"Landkreis"},"federalState":{"key":"08","name":"Baden-Württemberg"}},{"name":"Östlicher Misswaldweg","postalCode":"75399","locality":"Unterreichenbach","municipality":{"key":"08235073","name":"Unterreichenbach","type":"Kreisangehörige_Gemeinde"},"district":{"key":"08235","name":"Calw","type":"Landkreis"},"federalState":{"key":"08","name":"Baden-Württemberg"}},{"name":"Überlönecksweg","postalCode":"75399","locality":"Unterreichenbach","municipality":{"key":"08235073","name":"Unterreichenbach","type":"Kreisangehörige_Gemeinde"},"district":{"key":"08235","name":"Calw","type":"Landkreis"},"federalState":{"key":"08","name":"Baden-Württemberg"}},]