[{"name":"Am Friedhof","postalCode":"67281","locality":"Kirchheim an der Weinstraße","municipality":{"key":"07332030","name":"Kirchheim an der Weinstraße","type":"Kreisangehörige_Gemeinde"},"district":{"key":"07332","name":"Bad Dürkheim","type":"Landkreis"},"federalState":{"key":"07","name":"Rheinland-Pfalz"}},{"name":"Am Grünborn","postalCode":"67281","locality":"Kirchheim an der Weinstraße","municipality":{"key":"07332030","name":"Kirchheim an der Weinstraße","type":"Kreisangehörige_Gemeinde"},"district":{"key":"07332","name":"Bad Dürkheim","type":"Landkreis"},"federalState":{"key":"07","name":"Rheinland-Pfalz"}},{"name":"Am Mühlbach","postalCode":"67281","locality":"Kirchheim an der Weinstraße","municipality":{"key":"07332030","name":"Kirchheim an der Weinstraße","type":"Kreisangehörige_Gemeinde"},"district":{"key":"07332","name":"Bad Dürkheim","type":"Landkreis"},"federalState":{"key":"07","name":"Rheinland-Pfalz"}},{"name":"Backhausgraben","postalCode":"67281","locality":"Kirchheim an der Weinstraße","municipality":{"key":"07332030","name":"Kirchheim an der Weinstraße","type":"Kreisangehörige_Gemeinde"},"district":{"key":"07332","name":"Bad Dürkheim","type":"Landkreis"},"federalState":{"key":"07","name":"Rheinland-Pfalz"}},{"name":"Bahnhofstr.","postalCode":"67281","locality":"Kirchheim an der Weinstraße","municipality":{"key":"07332030","name":"Kirchheim an der Weinstraße","type":"Kreisangehörige_Gemeinde"},"district":{"key":"07332","name":"Bad Dürkheim","type":"Landkreis"},"federalState":{"key":"07","name":"Rheinland-Pfalz"}},{"name":"Bissersheimer Str.","postalCode":"67281","locality":"Kirchheim an der Weinstraße","municipality":{"key":"07332030","name":"Kirchheim an der Weinstraße","type":"Kreisangehörige_Gemeinde"},"district":{"key":"07332","name":"Bad Dürkheim","type":"Landkreis"},"federalState":{"key":"07","name":"Rheinland-Pfalz"}},{"name":"Carl-Korbmann-Str.","postalCode":"67098","locality":"Bad Dürkheim","municipality":{"key":"07332002","name":"Bad Dürkheim, Stadt","type":"Stadt"},"district":{"key":"07332","name":"Bad Dürkheim","type":"Landkreis"},"federalState":{"key":"07","name":"Rheinland-Pfalz"}},{"name":"Chemnitzer Str.","postalCode":"67098","locality":"Bad Dürkheim","municipality":{"key":"07332002","name":"Bad Dürkheim, Stadt","type":"Stadt"},"district":{"key":"07332","name":"Bad Dürkheim","type":"Landkreis"},"federalState":{"key":"07","name":"Rheinland-Pfalz"}},{"name":"Dammweg","postalCode":"67098","locality":"Bad Dürkheim","municipality":{"key":"07332002","name":"Bad Dürkheim, Stadt","type":"Stadt"},"district":{"key":"07332","name":"Bad Dürkheim","type":"Landkreis"},"federalState":{"key":"07","name":"Rheinland-Pfalz"}},{"name":"Danziger Str.","postalCode":"67098","locality":"Bad Dürkheim","municipality":{"key":"07332002","name":"Bad Dürkheim, Stadt","type":"Stadt"},"district":{"key":"07332","name":"Bad Dürkheim","type":"Landkreis"},"federalState":{"key":"07","name":"Rheinland-Pfalz"}},{"name":"Denisstr.","postalCode":"67098","locality":"Bad Dürkheim","municipality":{"key":"07332002","name":"Bad Dürkheim, Stadt","type":"Stadt"},"district":{"key":"07332","name":"Bad Dürkheim","type":"Landkreis"},"federalState":{"key":"07","name":"Rheinland-Pfalz"}},{"name":"Dorfplatz","postalCode":"67098","locality":"Bad Dürkheim","municipality":{"key":"07332002","name":"Bad Dürkheim, Stadt","type":"Stadt"},"district":{"key":"07332","name":"Bad Dürkheim","type":"Landkreis"},"federalState":{"key":"07","name":"Rheinland-Pfalz"}},{"name":"Dornfelderweg","postalCode":"67098","locality":"Bad Dürkheim","municipality":{"key":"07332002","name":"Bad Dürkheim, Stadt","type":"Stadt"},"district":{"key":"07332","name":"Bad Dürkheim","type":"Landkreis"},"federalState":{"key":"07","name":"Rheinland-Pfalz"}},{"name":"Dresdener Str.","postalCode":"67098","locality":"Bad Dürkheim","municipality":{"key":"07332002","name":"Bad Dürkheim, Stadt","type":"Stadt"},"district":{"key":"07332","name":"Bad Dürkheim","type":"Landkreis"},"federalState":{"key":"07","name":"Rheinland-Pfalz"}},{"name":"Dr.-Hugo-Bischoff-Str.","postalCode":"67098","locality":"Bad Dürkheim","municipality":{"key":"07332002","name":"Bad Dürkheim, Stadt","type":"Stadt"},"district":{"key":"07332","name":"Bad Dürkheim","type":"Landkreis"},"federalState":{"key":"07","name":"Rheinland-Pfalz"}},{"name":"Dr.-Kaufmann-Str.","postalCode":"67098","locality":"Bad Dürkheim","municipality":{"key":"07332002","name":"Bad Dürkheim, Stadt","type":"Stadt"},"district":{"key":"07332","name":"Bad Dürkheim","type":"Landkreis"},"federalState":{"key":"07","name":"Rheinland-Pfalz"}},{"name":"Durlacher Weg","postalCode":"67098","locality":"Bad Dürkheim","municipality":{"key":"07332002","name":"Bad Dürkheim, Stadt","type":"Stadt"},"district":{"key":"07332","name":"Bad Dürkheim","type":"Landkreis"},"federalState":{"key":"07","name":"Rheinland-Pfalz"}},{"name":"Eduard-Jost-Str.","postalCode":"67098","locality":"Bad Dürkheim","municipality":{"key":"07332002","name":"Bad Dürkheim, Stadt","type":"Stadt"},"district":{"key":"07332","name":"Bad Dürkheim","type":"Landkreis"},"federalState":{"key":"07","name":"Rheinland-Pfalz"}},{"name":"Eichenplatz","postalCode":"67098","locality":"Bad Dürkheim","municipality":{"key":"07332002","name":"Bad Dürkheim, Stadt","type":"Stadt"},"district":{"key":"07332","name":"Bad Dürkheim","type":"Landkreis"},"federalState":{"key":"07","name":"Rheinland-Pfalz"}},{"name":"Eichstr.","postalCode":"67098","locality":"Bad Dürkheim","municipality":{"key":"07332002","name":"Bad Dürkheim, Stadt","type":"Stadt"},"district":{"key":"07332","name":"Bad Dürkheim","type":"Landkreis"},"federalState":{"key":"07","name":"Rheinland-Pfalz"}},{"name":"Entengasse","postalCode":"67098","locality":"Bad Dürkheim","municipality":{"key":"07332002","name":"Bad Dürkheim, Stadt","type":"Stadt"},"district":{"key":"07332","name":"Bad Dürkheim","type":"Landkreis"},"federalState":{"key":"07","name":"Rheinland-Pfalz"}},{"name":"Erlenweg","postalCode":"67098","locality":"Bad Dürkheim","municipality":{"key":"07332002","name":"Bad Dürkheim, Stadt","type":"Stadt"},"district":{"key":"07332","name":"Bad Dürkheim","type":"Landkreis"},"federalState":{"key":"07","name":"Rheinland-Pfalz"}},{"name":"Erpolzheimer Str.","postalCode":"67098","locality":"Bad Dürkheim","municipality":{"key":"07332002","name":"Bad Dürkheim, Stadt","type":"Stadt"},"district":{"key":"07332","name":"Bad Dürkheim","type":"Landkreis"},"federalState":{"key":"07","name":"Rheinland-Pfalz"}},{"name":"Eschenweg","postalCode":"67098","locality":"Bad Dürkheim","municipality":{"key":"07332002","name":"Bad Dürkheim, Stadt","type":"Stadt"},"district":{"key":"07332","name":"Bad Dürkheim","type":"Landkreis"},"federalState":{"key":"07","name":"Rheinland-Pfalz"}},{"name":"Friederich-Diffiné-Str.","postalCode":"67281","locality":"Kirchheim an der Weinstraße","municipality":{"key":"07332030","name":"Kirchheim an der Weinstraße","type":"Kreisangehörige_Gemeinde"},"district":{"key":"07332","name":"Bad Dürkheim","type":"Landkreis"},"federalState":{"key":"07","name":"Rheinland-Pfalz"}},{"name":"Fußweg zum Mittleren Waldweg","postalCode":"67281","locality":"Kirchheim an der Weinstraße","municipality":{"key":"07332030","name":"Kirchheim an der Weinstraße","type":"Kreisangehörige_Gemeinde"},"district":{"key":"07332","name":"Bad Dürkheim","type":"Landkreis"},"federalState":{"key":"07","name":"Rheinland-Pfalz"}},{"name":"Fußweg zum Oberen Waldweg","postalCode":"67281","locality":"Kirchheim an der Weinstraße","municipality":{"key":"07332030","name":"Kirchheim an der Weinstraße","type":"Kreisangehörige_Gemeinde"},"district":{"key":"07332","name":"Bad Dürkheim","type":"Landkreis"},"federalState":{"key":"07","name":"Rheinland-Pfalz"}},{"name":"Fußweg zum Unteren Waldweg","postalCode":"67281","locality":"Kirchheim an der Weinstraße","municipality":{"key":"07332030","name":"Kirchheim an der Weinstraße","type":"Kreisangehörige_Gemeinde"},"district":{"key":"07332","name":"Bad Dürkheim","type":"Landkreis"},"federalState":{"key":"07","name":"Rheinland-Pfalz"}},{"name":"Gartenstr.","postalCode":"67098","locality":"Bad Dürkheim","municipality":{"key":"07332002","name":"Bad Dürkheim, Stadt","type":"Stadt"},"district":{"key":"07332","name":"Bad Dürkheim","type":"Landkreis"},"federalState":{"key":"07","name":"Rheinland-Pfalz"}},{"name":"Gaustr.","postalCode":"67098","locality":"Bad Dürkheim","municipality":{"key":"07332002","name":"Bad Dürkheim, Stadt","type":"Stadt"},"district":{"key":"07332","name":"Bad Dürkheim","type":"Landkreis"},"federalState":{"key":"07","name":"Rheinland-Pfalz"}},{"name":"Gelber Balken; Blau-Weißer Balken; Gelb-Roter Balken; Roter Balken; Blauer Balken","postalCode":"67098","locality":"Bad Dürkheim","municipality":{"key":"07332002","name":"Bad Dürkheim, Stadt","type":"Stadt"},"district":{"key":"07332","name":"Bad Dürkheim","type":"Landkreis"},"federalState":{"key":"07","name":"Rheinland-Pfalz"}},{"name":"Gerberstr.","postalCode":"67098","locality":"Bad Dürkheim","municipality":{"key":"07332002","name":"Bad Dürkheim, Stadt","type":"Stadt"},"district":{"key":"07332","name":"Bad Dürkheim","type":"Landkreis"},"federalState":{"key":"07","name":"Rheinland-Pfalz"}},{"name":"Goethestr.","postalCode":"67098","locality":"Bad Dürkheim","municipality":{"key":"07332002","name":"Bad Dürkheim, Stadt","type":"Stadt"},"district":{"key":"07332","name":"Bad Dürkheim","type":"Landkreis"},"federalState":{"key":"07","name":"Rheinland-Pfalz"}},{"name":"Grasweg","postalCode":"67098","locality":"Bad Dürkheim","municipality":{"key":"07332002","name":"Bad Dürkheim, Stadt","type":"Stadt"},"district":{"key":"07332","name":"Bad Dürkheim","type":"Landkreis"},"federalState":{"key":"07","name":"Rheinland-Pfalz"}},{"name":"Großes Eppental","postalCode":"67098","locality":"Bad Dürkheim","municipality":{"key":"07332002","name":"Bad Dürkheim, Stadt","type":"Stadt"},"district":{"key":"07332","name":"Bad Dürkheim","type":"Landkreis"},"federalState":{"key":"07","name":"Rheinland-Pfalz"}},{"name":"Grünstreifen Fronhof 1","postalCode":"67098","locality":"Bad Dürkheim","municipality":{"key":"07332002","name":"Bad Dürkheim, Stadt","type":"Stadt"},"district":{"key":"07332","name":"Bad Dürkheim","type":"Landkreis"},"federalState":{"key":"07","name":"Rheinland-Pfalz"}},{"name":"Grünstreifen Fronhof II","postalCode":"67098","locality":"Bad Dürkheim","municipality":{"key":"07332002","name":"Bad Dürkheim, Stadt","type":"Stadt"},"district":{"key":"07332","name":"Bad Dürkheim","type":"Landkreis"},"federalState":{"key":"07","name":"Rheinland-Pfalz"}},{"name":"Guck ins Land","postalCode":"67098","locality":"Bad Dürkheim","municipality":{"key":"07332002","name":"Bad Dürkheim, Stadt","type":"Stadt"},"district":{"key":"07332","name":"Bad Dürkheim","type":"Landkreis"},"federalState":{"key":"07","name":"Rheinland-Pfalz"}},{"name":"Gundheimer Gasse","postalCode":"67098","locality":"Bad Dürkheim","municipality":{"key":"07332002","name":"Bad Dürkheim, Stadt","type":"Stadt"},"district":{"key":"07332","name":"Bad Dürkheim","type":"Landkreis"},"federalState":{"key":"07","name":"Rheinland-Pfalz"}},{"name":"Gustav-Kirchhoff-Str.","postalCode":"67098","locality":"Bad Dürkheim","municipality":{"key":"07332002","name":"Bad Dürkheim, Stadt","type":"Stadt"},"district":{"key":"07332","name":"Bad Dürkheim","type":"Landkreis"},"federalState":{"key":"07","name":"Rheinland-Pfalz"}},{"name":"Gutleutstr.","postalCode":"67098","locality":"Bad Dürkheim","municipality":{"key":"07332002","name":"Bad Dürkheim, Stadt","type":"Stadt"},"district":{"key":"07332","name":"Bad Dürkheim","type":"Landkreis"},"federalState":{"key":"07","name":"Rheinland-Pfalz"}},{"name":"Hintergasse","postalCode":"67281","locality":"Kirchheim an der Weinstraße","municipality":{"key":"07332030","name":"Kirchheim an der Weinstraße","type":"Kreisangehörige_Gemeinde"},"district":{"key":"07332","name":"Bad Dürkheim","type":"Landkreis"},"federalState":{"key":"07","name":"Rheinland-Pfalz"}},{"name":"Hollergasse","postalCode":"67281","locality":"Kirchheim an der Weinstraße","municipality":{"key":"07332030","name":"Kirchheim an der Weinstraße","type":"Kreisangehörige_Gemeinde"},"district":{"key":"07332","name":"Bad Dürkheim","type":"Landkreis"},"federalState":{"key":"07","name":"Rheinland-Pfalz"}},{"name":"Im Bügen","postalCode":"67281","locality":"Kirchheim an der Weinstraße","municipality":{"key":"07332030","name":"Kirchheim an der Weinstraße","type":"Kreisangehörige_Gemeinde"},"district":{"key":"07332","name":"Bad Dürkheim","type":"Landkreis"},"federalState":{"key":"07","name":"Rheinland-Pfalz"}},{"name":"Im Kiesling","postalCode":"67281","locality":"Kirchheim an der Weinstraße","municipality":{"key":"07332030","name":"Kirchheim an der Weinstraße","type":"Kreisangehörige_Gemeinde"},"district":{"key":"07332","name":"Bad Dürkheim","type":"Landkreis"},"federalState":{"key":"07","name":"Rheinland-Pfalz"}},{"name":"In den Schlossäckern","postalCode":"67281","locality":"Kirchheim an der Weinstraße","municipality":{"key":"07332030","name":"Kirchheim an der Weinstraße","type":"Kreisangehörige_Gemeinde"},"district":{"key":"07332","name":"Bad Dürkheim","type":"Landkreis"},"federalState":{"key":"07","name":"Rheinland-Pfalz"}},{"name":"Jakobsstr.","postalCode":"67281","locality":"Kirchheim an der Weinstraße","municipality":{"key":"07332030","name":"Kirchheim an der Weinstraße","type":"Kreisangehörige_Gemeinde"},"district":{"key":"07332","name":"Bad Dürkheim","type":"Landkreis"},"federalState":{"key":"07","name":"Rheinland-Pfalz"}},{"name":"Kellerstr.","postalCode":"67281","locality":"Kirchheim an der Weinstraße","municipality":{"key":"07332030","name":"Kirchheim an der Weinstraße","type":"Kreisangehörige_Gemeinde"},"district":{"key":"07332","name":"Bad Dürkheim","type":"Landkreis"},"federalState":{"key":"07","name":"Rheinland-Pfalz"}},{"name":"Kirchheimer Str.","postalCode":"67281","locality":"Kirchheim an der Weinstraße","municipality":{"key":"07332030","name":"Kirchheim an der Weinstraße","type":"Kreisangehörige_Gemeinde"},"district":{"key":"07332","name":"Bad Dürkheim","type":"Landkreis"},"federalState":{"key":"07","name":"Rheinland-Pfalz"}},{"name":"Kleinkarlbacher Str.","postalCode":"67281","locality":"Kirchheim an der Weinstraße","municipality":{"key":"07332030","name":"Kirchheim an der Weinstraße","type":"Kreisangehörige_Gemeinde"},"district":{"key":"07332","name":"Bad Dürkheim","type":"Landkreis"},"federalState":{"key":"07","name":"Rheinland-Pfalz"}},{"name":"Kochstr.","postalCode":"67281","locality":"Kirchheim an der Weinstraße","municipality":{"key":"07332030","name":"Kirchheim an der Weinstraße","type":"Kreisangehörige_Gemeinde"},"district":{"key":"07332","name":"Bad Dürkheim","type":"Landkreis"},"federalState":{"key":"07","name":"Rheinland-Pfalz"}},{"name":"Leininger Weg","postalCode":"67281","locality":"Kirchheim an der Weinstraße","municipality":{"key":"07332030","name":"Kirchheim an der Weinstraße","type":"Kreisangehörige_Gemeinde"},"district":{"key":"07332","name":"Bad Dürkheim","type":"Landkreis"},"federalState":{"key":"07","name":"Rheinland-Pfalz"}},{"name":"Mahlerweinstr.","postalCode":"67281","locality":"Kirchheim an der Weinstraße","municipality":{"key":"07332030","name":"Kirchheim an der Weinstraße","type":"Kreisangehörige_Gemeinde"},"district":{"key":"07332","name":"Bad Dürkheim","type":"Landkreis"},"federalState":{"key":"07","name":"Rheinland-Pfalz"}},{"name":"Mittlerer Waldweg","postalCode":"67281","locality":"Kirchheim an der Weinstraße","municipality":{"key":"07332030","name":"Kirchheim an der Weinstraße","type":"Kreisangehörige_Gemeinde"},"district":{"key":"07332","name":"Bad Dürkheim","type":"Landkreis"},"federalState":{"key":"07","name":"Rheinland-Pfalz"}},{"name":"Mühlstr.","postalCode":"67281","locality":"Kirchheim an der Weinstraße","municipality":{"key":"07332030","name":"Kirchheim an der Weinstraße","type":"Kreisangehörige_Gemeinde"},"district":{"key":"07332","name":"Bad Dürkheim","type":"Landkreis"},"federalState":{"key":"07","name":"Rheinland-Pfalz"}},{"name":"Neugasse","postalCode":"67098","locality":"Bad Dürkheim","municipality":{"key":"07332002","name":"Bad Dürkheim, Stadt","type":"Stadt"},"district":{"key":"07332","name":"Bad Dürkheim","type":"Landkreis"},"federalState":{"key":"07","name":"Rheinland-Pfalz"}},{"name":"Nolzeruhe","postalCode":"67098","locality":"Bad Dürkheim","municipality":{"key":"07332002","name":"Bad Dürkheim, Stadt","type":"Stadt"},"district":{"key":"07332","name":"Bad Dürkheim","type":"Landkreis"},"federalState":{"key":"07","name":"Rheinland-Pfalz"}},{"name":"Oberer Waldweg","postalCode":"67281","locality":"Kirchheim an der Weinstraße","municipality":{"key":"07332030","name":"Kirchheim an der Weinstraße","type":"Kreisangehörige_Gemeinde"},"district":{"key":"07332","name":"Bad Dürkheim","type":"Landkreis"},"federalState":{"key":"07","name":"Rheinland-Pfalz"}},{"name":"Ostring","postalCode":"67281","locality":"Kirchheim an der Weinstraße","municipality":{"key":"07332030","name":"Kirchheim an der Weinstraße","type":"Kreisangehörige_Gemeinde"},"district":{"key":"07332","name":"Bad Dürkheim","type":"Landkreis"},"federalState":{"key":"07","name":"Rheinland-Pfalz"}},{"name":"Portugieserweg","postalCode":"67281","locality":"Kirchheim an der Weinstraße","municipality":{"key":"07332030","name":"Kirchheim an der Weinstraße","type":"Kreisangehörige_Gemeinde"},"district":{"key":"07332","name":"Bad Dürkheim","type":"Landkreis"},"federalState":{"key":"07","name":"Rheinland-Pfalz"}},{"name":"Quirngasse","postalCode":"67281","locality":"Kirchheim an der Weinstraße","municipality":{"key":"07332030","name":"Kirchheim an der Weinstraße","type":"Kreisangehörige_Gemeinde"},"district":{"key":"07332","name":"Bad Dürkheim","type":"Landkreis"},"federalState":{"key":"07","name":"Rheinland-Pfalz"}},{"name":"Rieslingweg","postalCode":"67281","locality":"Kirchheim an der Weinstraße","municipality":{"key":"07332030","name":"Kirchheim an der Weinstraße","type":"Kreisangehörige_Gemeinde"},"district":{"key":"07332","name":"Bad Dürkheim","type":"Landkreis"},"federalState":{"key":"07","name":"Rheinland-Pfalz"}},{"name":"Römerstr.","postalCode":"67281","locality":"Kirchheim an der Weinstraße","municipality":{"key":"07332030","name":"Kirchheim an der Weinstraße","type":"Kreisangehörige_Gemeinde"},"district":{"key":"07332","name":"Bad Dürkheim","type":"Landkreis"},"federalState":{"key":"07","name":"Rheinland-Pfalz"}},{"name":"Rückgasse","postalCode":"67281","locality":"Kirchheim an der Weinstraße","municipality":{"key":"07332030","name":"Kirchheim an der Weinstraße","type":"Kreisangehörige_Gemeinde"},"district":{"key":"07332","name":"Bad Dürkheim","type":"Landkreis"},"federalState":{"key":"07","name":"Rheinland-Pfalz"}},{"name":"Schleusingerstr.","postalCode":"67281","locality":"Kirchheim an der Weinstraße","municipality":{"key":"07332030","name":"Kirchheim an der Weinstraße","type":"Kreisangehörige_Gemeinde"},"district":{"key":"07332","name":"Bad Dürkheim","type":"Landkreis"},"federalState":{"key":"07","name":"Rheinland-Pfalz"}},{"name":"Schulgasse","postalCode":"67281","locality":"Kirchheim an der Weinstraße","municipality":{"key":"07332030","name":"Kirchheim an der Weinstraße","type":"Kreisangehörige_Gemeinde"},"district":{"key":"07332","name":"Bad Dürkheim","type":"Landkreis"},"federalState":{"key":"07","name":"Rheinland-Pfalz"}},{"name":"Silvanerweg","postalCode":"67281","locality":"Kirchheim an der Weinstraße","municipality":{"key":"07332030","name":"Kirchheim an der Weinstraße","type":"Kreisangehörige_Gemeinde"},"district":{"key":"07332","name":"Bad Dürkheim","type":"Landkreis"},"federalState":{"key":"07","name":"Rheinland-Pfalz"}},{"name":"Triftweg","postalCode":"67281","locality":"Kirchheim an der Weinstraße","municipality":{"key":"07332030","name":"Kirchheim an der Weinstraße","type":"Kreisangehörige_Gemeinde"},"district":{"key":"07332","name":"Bad Dürkheim","type":"Landkreis"},"federalState":{"key":"07","name":"Rheinland-Pfalz"}},{"name":"Uhrigstr.","postalCode":"67281","locality":"Kirchheim an der Weinstraße","municipality":{"key":"07332030","name":"Kirchheim an der Weinstraße","type":"Kreisangehörige_Gemeinde"},"district":{"key":"07332","name":"Bad Dürkheim","type":"Landkreis"},"federalState":{"key":"07","name":"Rheinland-Pfalz"}},{"name":"Unterer Waldweg","postalCode":"67281","locality":"Kirchheim an der Weinstraße","municipality":{"key":"07332030","name":"Kirchheim an der Weinstraße","type":"Kreisangehörige_Gemeinde"},"district":{"key":"07332","name":"Bad Dürkheim","type":"Landkreis"},"federalState":{"key":"07","name":"Rheinland-Pfalz"}},{"name":"Verladestr.","postalCode":"67281","locality":"Kirchheim an der Weinstraße","municipality":{"key":"07332030","name":"Kirchheim an der Weinstraße","type":"Kreisangehörige_Gemeinde"},"district":{"key":"07332","name":"Bad Dürkheim","type":"Landkreis"},"federalState":{"key":"07","name":"Rheinland-Pfalz"}},{"name":"Weinstr. Nord","postalCode":"67281","locality":"Kirchheim an der Weinstraße","municipality":{"key":"07332030","name":"Kirchheim an der Weinstraße","type":"Kreisangehörige_Gemeinde"},"district":{"key":"07332","name":"Bad Dürkheim","type":"Landkreis"},"federalState":{"key":"07","name":"Rheinland-Pfalz"}},{"name":"Weinstr. Süd","postalCode":"67281","locality":"Kirchheim an der Weinstraße","municipality":{"key":"07332030","name":"Kirchheim an der Weinstraße","type":"Kreisangehörige_Gemeinde"},"district":{"key":"07332","name":"Bad Dürkheim","type":"Landkreis"},"federalState":{"key":"07","name":"Rheinland-Pfalz"}},{"name":"Weisenheimer Str.","postalCode":"67281","locality":"Kirchheim an der Weinstraße","municipality":{"key":"07332030","name":"Kirchheim an der Weinstraße","type":"Kreisangehörige_Gemeinde"},"district":{"key":"07332","name":"Bad Dürkheim","type":"Landkreis"},"federalState":{"key":"07","name":"Rheinland-Pfalz"}},{"name":"Westring","postalCode":"67281","locality":"Kirchheim an der Weinstraße","municipality":{"key":"07332030","name":"Kirchheim an der Weinstraße","type":"Kreisangehörige_Gemeinde"},"district":{"key":"07332","name":"Bad Dürkheim","type":"Landkreis"},"federalState":{"key":"07","name":"Rheinland-Pfalz"}},{"name":"Zeppelinstr.","postalCode":"67098","locality":"Bad Dürkheim","municipality":{"key":"07332002","name":"Bad Dürkheim, Stadt","type":"Stadt"},"district":{"key":"07332","name":"Bad Dürkheim","type":"Landkreis"},"federalState":{"key":"07","name":"Rheinland-Pfalz"}},{"name":"Zum Röhrig","postalCode":"67098","locality":"Bad Dürkheim","municipality":{"key":"07332002","name":"Bad Dürkheim, Stadt","type":"Stadt"},"district":{"key":"07332","name":"Bad Dürkheim","type":"Landkreis"},"federalState":{"key":"07","name":"Rheinland-Pfalz"}},{"name":"Östlicher Kurpark","postalCode":"67098","locality":"Bad Dürkheim","municipality":{"key":"07332002","name":"Bad Dürkheim, Stadt","type":"Stadt"},"district":{"key":"07332","name":"Bad Dürkheim","type":"Landkreis"},"federalState":{"key":"07","name":"Rheinland-Pfalz"}},]