[{"key":"10209914","name":"Alte Gasse","postalCode":"3910","locality":"Saas-Grund","commune":{"key":"6291","name":"Saas-Grund","shortName":"Saas-Grund"},"district":{"key":"2313","name":"Bezirk Visp"},"canton":{"key":"23","code":"VS","name":"Valais / Wallis"},"status":"Real"},{"key":"10237168","name":"Alte Gasse","postalCode":"3910","locality":"Saas-Grund","commune":{"key":"6291","name":"Saas-Grund","shortName":"Saas-Grund"},"district":{"key":"2313","name":"Bezirk Visp"},"canton":{"key":"23","code":"VS","name":"Valais / Wallis"},"status":"Real"},{"key":"10209919","name":"Alter Talweg","postalCode":"3910","locality":"Saas-Grund","commune":{"key":"6291","name":"Saas-Grund","shortName":"Saas-Grund"},"district":{"key":"2313","name":"Bezirk Visp"},"canton":{"key":"23","code":"VS","name":"Valais / Wallis"},"status":"Real"},{"key":"10209923","name":"Bergstrasse","postalCode":"3910","locality":"Saas-Grund","commune":{"key":"6291","name":"Saas-Grund","shortName":"Saas-Grund"},"district":{"key":"2313","name":"Bezirk Visp"},"canton":{"key":"23","code":"VS","name":"Valais / Wallis"},"status":"Real"},{"key":"10209927","name":"Bodmenstrasse","postalCode":"3910","locality":"Saas-Grund","commune":{"key":"6291","name":"Saas-Grund","shortName":"Saas-Grund"},"district":{"key":"2313","name":"Bezirk Visp"},"canton":{"key":"23","code":"VS","name":"Valais / Wallis"},"status":"Real"},{"key":"10209916","name":"BÃ¶rterstrasse","postalCode":"3910","locality":"Saas-Grund","commune":{"key":"6291","name":"Saas-Grund","shortName":"Saas-Grund"},"district":{"key":"2313","name":"Bezirk Visp"},"canton":{"key":"23","code":"VS","name":"Valais / Wallis"},"status":"Real"},{"key":"10255249","name":"Brunnenweg","postalCode":"3910","locality":"Saas-Grund","commune":{"key":"6291","name":"Saas-Grund","shortName":"Saas-Grund"},"district":{"key":"2313","name":"Bezirk Visp"},"canton":{"key":"23","code":"VS","name":"Valais / Wallis"},"status":"Real"},{"key":"10236258","name":"Dammstrasse","postalCode":"3910","locality":"Saas-Grund","commune":{"key":"6291","name":"Saas-Grund","shortName":"Saas-Grund"},"district":{"key":"2313","name":"Bezirk Visp"},"canton":{"key":"23","code":"VS","name":"Valais / Wallis"},"status":"Real"},{"key":"10209930","name":"Dammstrasse","postalCode":"3910","locality":"Saas-Grund","commune":{"key":"6291","name":"Saas-Grund","shortName":"Saas-Grund"},"district":{"key":"2313","name":"Bezirk Visp"},"canton":{"key":"23","code":"VS","name":"Valais / Wallis"},"status":"Real"},{"key":"10209932","name":"Dorfgasse","postalCode":"3910","locality":"Saas-Grund","commune":{"key":"6291","name":"Saas-Grund","shortName":"Saas-Grund"},"district":{"key":"2313","name":"Bezirk Visp"},"canton":{"key":"23","code":"VS","name":"Valais / Wallis"},"status":"Real"},{"key":"10209928","name":"Im Moos","postalCode":"3910","locality":"Saas-Grund","commune":{"key":"6291","name":"Saas-Grund","shortName":"Saas-Grund"},"district":{"key":"2313","name":"Bezirk Visp"},"canton":{"key":"23","code":"VS","name":"Valais / Wallis"},"status":"Real"},{"key":"10209915","name":"Innere Saastalstrasse","postalCode":"3910","locality":"Saas-Grund","commune":{"key":"6291","name":"Saas-Grund","shortName":"Saas-Grund"},"district":{"key":"2313","name":"Bezirk Visp"},"canton":{"key":"23","code":"VS","name":"Valais / Wallis"},"status":"Real"},{"key":"10119400","name":"Kantonsstrasse","postalCode":"3910","locality":"Saas-Grund","commune":{"key":"6291","name":"Saas-Grund","shortName":"Saas-Grund"},"district":{"key":"2313","name":"Bezirk Visp"},"canton":{"key":"23","code":"VS","name":"Valais / Wallis"},"status":"Real"},{"key":"10139660","name":"Kapellenweg","postalCode":"3910","locality":"Saas-Grund","commune":{"key":"6291","name":"Saas-Grund","shortName":"Saas-Grund"},"district":{"key":"2313","name":"Bezirk Visp"},"canton":{"key":"23","code":"VS","name":"Valais / Wallis"},"status":"Real"},{"key":"10238007","name":"Kapellenweg","postalCode":"3910","locality":"Saas-Grund","commune":{"key":"6291","name":"Saas-Grund","shortName":"Saas-Grund"},"district":{"key":"2313","name":"Bezirk Visp"},"canton":{"key":"23","code":"VS","name":"Valais / Wallis"},"status":"Real"},{"key":"10209920","name":"Kreuzgasse","postalCode":"3910","locality":"Saas-Grund","commune":{"key":"6291","name":"Saas-Grund","shortName":"Saas-Grund"},"district":{"key":"2313","name":"Bezirk Visp"},"canton":{"key":"23","code":"VS","name":"Valais / Wallis"},"status":"Real"},{"key":"10209924","name":"Mittaghornstrasse","postalCode":"3910","locality":"Saas-Grund","commune":{"key":"6291","name":"Saas-Grund","shortName":"Saas-Grund"},"district":{"key":"2313","name":"Bezirk Visp"},"canton":{"key":"23","code":"VS","name":"Valais / Wallis"},"status":"Real"},{"key":"10209918","name":"Niwistrasse","postalCode":"3910","locality":"Saas-Grund","commune":{"key":"6291","name":"Saas-Grund","shortName":"Saas-Grund"},"district":{"key":"2313","name":"Bezirk Visp"},"canton":{"key":"23","code":"VS","name":"Valais / Wallis"},"status":"Real"},{"key":"10209922","name":"Obere Tamattenstrasse","postalCode":"3910","locality":"Saas-Grund","commune":{"key":"6291","name":"Saas-Grund","shortName":"Saas-Grund"},"district":{"key":"2313","name":"Bezirk Visp"},"canton":{"key":"23","code":"VS","name":"Valais / Wallis"},"status":"Real"},{"key":"10209926","name":"Obere Triftbachstrasse","postalCode":"3910","locality":"Saas-Grund","commune":{"key":"6291","name":"Saas-Grund","shortName":"Saas-Grund"},"district":{"key":"2313","name":"Bezirk Visp"},"canton":{"key":"23","code":"VS","name":"Valais / Wallis"},"status":"Real"},{"key":"10207032","name":"Saastalstrasse","postalCode":"3910","locality":"Saas-Grund","commune":{"key":"6291","name":"Saas-Grund","shortName":"Saas-Grund"},"district":{"key":"2313","name":"Bezirk Visp"},"canton":{"key":"23","code":"VS","name":"Valais / Wallis"},"status":"Real"},{"key":"10209931","name":"Schulhausstrasse","postalCode":"3910","locality":"Saas-Grund","commune":{"key":"6291","name":"Saas-Grund","shortName":"Saas-Grund"},"district":{"key":"2313","name":"Bezirk Visp"},"canton":{"key":"23","code":"VS","name":"Valais / Wallis"},"status":"Real"},{"key":"10204596","name":"Seilbahnstrasse","postalCode":"3910","locality":"Saas-Grund","commune":{"key":"6291","name":"Saas-Grund","shortName":"Saas-Grund"},"district":{"key":"2313","name":"Bezirk Visp"},"canton":{"key":"23","code":"VS","name":"Valais / Wallis"},"status":"Real"},{"key":"10209917","name":"Sonnenstrasse","postalCode":"3910","locality":"Saas-Grund","commune":{"key":"6291","name":"Saas-Grund","shortName":"Saas-Grund"},"district":{"key":"2313","name":"Bezirk Visp"},"canton":{"key":"23","code":"VS","name":"Valais / Wallis"},"status":"Real"},{"key":"10207033","name":"Sportplatzstrasse","postalCode":"3910","locality":"Saas-Grund","commune":{"key":"6291","name":"Saas-Grund","shortName":"Saas-Grund"},"district":{"key":"2313","name":"Bezirk Visp"},"canton":{"key":"23","code":"VS","name":"Valais / Wallis"},"status":"Real"},{"key":"10237300","name":"St. Antoniweg","postalCode":"3910","locality":"Saas-Grund","commune":{"key":"6291","name":"Saas-Grund","shortName":"Saas-Grund"},"district":{"key":"2313","name":"Bezirk Visp"},"canton":{"key":"23","code":"VS","name":"Valais / Wallis"},"status":"Real"},{"key":"10197849","name":"Tamatthaltenstrasse","postalCode":"3910","locality":"Saas-Grund","commune":{"key":"6291","name":"Saas-Grund","shortName":"Saas-Grund"},"district":{"key":"2313","name":"Bezirk Visp"},"canton":{"key":"23","code":"VS","name":"Valais / Wallis"},"status":"Real"},{"key":"10255250","name":"Triftalpweg","postalCode":"3910","locality":"Saas-Grund","commune":{"key":"6291","name":"Saas-Grund","shortName":"Saas-Grund"},"district":{"key":"2313","name":"Bezirk Visp"},"canton":{"key":"23","code":"VS","name":"Valais / Wallis"},"status":"Real"},{"key":"10209921","name":"Unter dem Berg","postalCode":"3910","locality":"Saas-Grund","commune":{"key":"6291","name":"Saas-Grund","shortName":"Saas-Grund"},"district":{"key":"2313","name":"Bezirk Visp"},"canton":{"key":"23","code":"VS","name":"Valais / Wallis"},"status":"Real"},{"key":"10209925","name":"Untere Gasse","postalCode":"3910","locality":"Saas-Grund","commune":{"key":"6291","name":"Saas-Grund","shortName":"Saas-Grund"},"district":{"key":"2313","name":"Bezirk Visp"},"canton":{"key":"23","code":"VS","name":"Valais / Wallis"},"status":"Real"},{"key":"10209929","name":"Untere Tamattenstrasse","postalCode":"3910","locality":"Saas-Grund","commune":{"key":"6291","name":"Saas-Grund","shortName":"Saas-Grund"},"district":{"key":"2313","name":"Bezirk Visp"},"canton":{"key":"23","code":"VS","name":"Valais / Wallis"},"status":"Real"},{"key":"10210200","name":"Untere Triftbachstrasse","postalCode":"3910","locality":"Saas-Grund","commune":{"key":"6291","name":"Saas-Grund","shortName":"Saas-Grund"},"district":{"key":"2313","name":"Bezirk Visp"},"canton":{"key":"23","code":"VS","name":"Valais / Wallis"},"status":"Real"},]