[{"key":"10009116","name":"Alpenblick","postalCode":"8311","locality":"Brütten","commune":{"key":"213","name":"Brütten","shortName":"Brütten"},"district":{"key":"110","name":"Bezirk Winterthur"},"canton":{"key":"1","code":"ZH","name":"Zürich"},"status":"Real"},{"key":"10079977","name":"Ankengasse","postalCode":"8311","locality":"Brütten","commune":{"key":"213","name":"Brütten","shortName":"Brütten"},"district":{"key":"110","name":"Bezirk Winterthur"},"canton":{"key":"1","code":"ZH","name":"Zürich"},"status":"Real"},{"key":"10150032","name":"Aspenrietweg","postalCode":"8311","locality":"Brütten","commune":{"key":"213","name":"Brütten","shortName":"Brütten"},"district":{"key":"110","name":"Bezirk Winterthur"},"canton":{"key":"1","code":"ZH","name":"Zürich"},"status":"Real"},{"key":"10141556","name":"Bachweg","postalCode":"8311","locality":"Brütten","commune":{"key":"213","name":"Brütten","shortName":"Brütten"},"district":{"key":"110","name":"Bezirk Winterthur"},"canton":{"key":"1","code":"ZH","name":"Zürich"},"status":"Real"},{"key":"10141559","name":"Bäppurweg","postalCode":"8311","locality":"Brütten","commune":{"key":"213","name":"Brütten","shortName":"Brütten"},"district":{"key":"110","name":"Bezirk Winterthur"},"canton":{"key":"1","code":"ZH","name":"Zürich"},"status":"Real"},{"key":"10197698","name":"Bellevue","postalCode":"8311","locality":"Brütten","commune":{"key":"213","name":"Brütten","shortName":"Brütten"},"district":{"key":"110","name":"Bezirk Winterthur"},"canton":{"key":"1","code":"ZH","name":"Zürich"},"status":"Real"},{"key":"10064556","name":"Birch","postalCode":"8311","locality":"Brütten","commune":{"key":"213","name":"Brütten","shortName":"Brütten"},"district":{"key":"110","name":"Bezirk Winterthur"},"canton":{"key":"1","code":"ZH","name":"Zürich"},"status":"Real"},{"key":"10133463","name":"Birchholzweg","postalCode":"8311","locality":"Brütten","commune":{"key":"213","name":"Brütten","shortName":"Brütten"},"district":{"key":"110","name":"Bezirk Winterthur"},"canton":{"key":"1","code":"ZH","name":"Zürich"},"status":"Real"},{"key":"10150033","name":"Birchstrasse","postalCode":"8311","locality":"Brütten","commune":{"key":"213","name":"Brütten","shortName":"Brütten"},"district":{"key":"110","name":"Bezirk Winterthur"},"canton":{"key":"1","code":"ZH","name":"Zürich"},"status":"Real"},{"key":"10141560","name":"Blätzwisenweg","postalCode":"8311","locality":"Brütten","commune":{"key":"213","name":"Brütten","shortName":"Brütten"},"district":{"key":"110","name":"Bezirk Winterthur"},"canton":{"key":"1","code":"ZH","name":"Zürich"},"status":"Real"},{"key":"10149329","name":"Böschenwiesenweg","postalCode":"8311","locality":"Brütten","commune":{"key":"213","name":"Brütten","shortName":"Brütten"},"district":{"key":"110","name":"Bezirk Winterthur"},"canton":{"key":"1","code":"ZH","name":"Zürich"},"status":"Real"},{"key":"10157862","name":"Breitiweg","postalCode":"8311","locality":"Brütten","commune":{"key":"213","name":"Brütten","shortName":"Brütten"},"district":{"key":"110","name":"Bezirk Winterthur"},"canton":{"key":"1","code":"ZH","name":"Zürich"},"status":"Real"},{"key":"10175587","name":"Brüelgasse","postalCode":"8311","locality":"Brütten","commune":{"key":"213","name":"Brütten","shortName":"Brütten"},"district":{"key":"110","name":"Bezirk Winterthur"},"canton":{"key":"1","code":"ZH","name":"Zürich"},"status":"Real"},{"key":"10009117","name":"Brühlstrasse","postalCode":"8311","locality":"Brütten","commune":{"key":"213","name":"Brütten","shortName":"Brütten"},"district":{"key":"110","name":"Bezirk Winterthur"},"canton":{"key":"1","code":"ZH","name":"Zürich"},"status":"Real"},{"key":"10009118","name":"Buchsächer","postalCode":"8311","locality":"Brütten","commune":{"key":"213","name":"Brütten","shortName":"Brütten"},"district":{"key":"110","name":"Bezirk Winterthur"},"canton":{"key":"1","code":"ZH","name":"Zürich"},"status":"Real"},{"key":"10149330","name":"Buckweg","postalCode":"8311","locality":"Brütten","commune":{"key":"213","name":"Brütten","shortName":"Brütten"},"district":{"key":"110","name":"Bezirk Winterthur"},"canton":{"key":"1","code":"ZH","name":"Zürich"},"status":"Real"},{"key":"10056735","name":"Büechli","postalCode":"8311","locality":"Brütten","commune":{"key":"213","name":"Brütten","shortName":"Brütten"},"district":{"key":"110","name":"Bezirk Winterthur"},"canton":{"key":"1","code":"ZH","name":"Zürich"},"status":"Real"},{"key":"10151575","name":"Büechliweg","postalCode":"8311","locality":"Brütten","commune":{"key":"213","name":"Brütten","shortName":"Brütten"},"district":{"key":"110","name":"Bezirk Winterthur"},"canton":{"key":"1","code":"ZH","name":"Zürich"},"status":"Real"},{"key":"10009119","name":"Buechmes","postalCode":"8311","locality":"Brütten","commune":{"key":"213","name":"Brütten","shortName":"Brütten"},"district":{"key":"110","name":"Bezirk Winterthur"},"canton":{"key":"1","code":"ZH","name":"Zürich"},"status":"Real"},{"key":"10141832","name":"Buechmesweg","postalCode":"8311","locality":"Brütten","commune":{"key":"213","name":"Brütten","shortName":"Brütten"},"district":{"key":"110","name":"Bezirk Winterthur"},"canton":{"key":"1","code":"ZH","name":"Zürich"},"status":"Real"},{"key":"10108936","name":"Chapfstrasse","postalCode":"8311","locality":"Brütten","commune":{"key":"213","name":"Brütten","shortName":"Brütten"},"district":{"key":"110","name":"Bezirk Winterthur"},"canton":{"key":"1","code":"ZH","name":"Zürich"},"status":"Real"},{"key":"10149331","name":"Chapfweg","postalCode":"8311","locality":"Brütten","commune":{"key":"213","name":"Brütten","shortName":"Brütten"},"district":{"key":"110","name":"Bezirk Winterthur"},"canton":{"key":"1","code":"ZH","name":"Zürich"},"status":"Real"},{"key":"10009120","name":"Chätzlerweg","postalCode":"8311","locality":"Brütten","commune":{"key":"213","name":"Brütten","shortName":"Brütten"},"district":{"key":"110","name":"Bezirk Winterthur"},"canton":{"key":"1","code":"ZH","name":"Zürich"},"status":"Real"},{"key":"10064557","name":"Chilerain","postalCode":"8311","locality":"Brütten","commune":{"key":"213","name":"Brütten","shortName":"Brütten"},"district":{"key":"110","name":"Bezirk Winterthur"},"canton":{"key":"1","code":"ZH","name":"Zürich"},"status":"Real"},{"key":"10128419","name":"Chrumbüel","postalCode":"8311","locality":"Brütten","commune":{"key":"213","name":"Brütten","shortName":"Brütten"},"district":{"key":"110","name":"Bezirk Winterthur"},"canton":{"key":"1","code":"ZH","name":"Zürich"},"status":"Real"},{"key":"10133464","name":"Chrumbüelstrasse","postalCode":"8311","locality":"Brütten","commune":{"key":"213","name":"Brütten","shortName":"Brütten"},"district":{"key":"110","name":"Bezirk Winterthur"},"canton":{"key":"1","code":"ZH","name":"Zürich"},"status":"Real"},{"key":"10064558","name":"Dorfstrasse","postalCode":"8311","locality":"Brütten","commune":{"key":"213","name":"Brütten","shortName":"Brütten"},"district":{"key":"110","name":"Bezirk Winterthur"},"canton":{"key":"1","code":"ZH","name":"Zürich"},"status":"Real"},{"key":"10009121","name":"Eich","postalCode":"8311","locality":"Brütten","commune":{"key":"213","name":"Brütten","shortName":"Brütten"},"district":{"key":"110","name":"Bezirk Winterthur"},"canton":{"key":"1","code":"ZH","name":"Zürich"},"status":"Real"},{"key":"10148574","name":"Eichacher","postalCode":"8311","locality":"Brütten","commune":{"key":"213","name":"Brütten","shortName":"Brütten"},"district":{"key":"110","name":"Bezirk Winterthur"},"canton":{"key":"1","code":"ZH","name":"Zürich"},"status":"Real"},{"key":"10148575","name":"Eichacherweg","postalCode":"8311","locality":"Brütten","commune":{"key":"213","name":"Brütten","shortName":"Brütten"},"district":{"key":"110","name":"Bezirk Winterthur"},"canton":{"key":"1","code":"ZH","name":"Zürich"},"status":"Real"},{"key":"10052045","name":"Eichhölzli","postalCode":"8311","locality":"Brütten","commune":{"key":"213","name":"Brütten","shortName":"Brütten"},"district":{"key":"110","name":"Bezirk Winterthur"},"canton":{"key":"1","code":"ZH","name":"Zürich"},"status":"Real"},{"key":"10148576","name":"Eichhölzliweg","postalCode":"8311","locality":"Brütten","commune":{"key":"213","name":"Brütten","shortName":"Brütten"},"district":{"key":"110","name":"Bezirk Winterthur"},"canton":{"key":"1","code":"ZH","name":"Zürich"},"status":"Real"},{"key":"10148577","name":"Eigenweg","postalCode":"8311","locality":"Brütten","commune":{"key":"213","name":"Brütten","shortName":"Brütten"},"district":{"key":"110","name":"Bezirk Winterthur"},"canton":{"key":"1","code":"ZH","name":"Zürich"},"status":"Real"},{"key":"10009122","name":"Forbüel","postalCode":"8311","locality":"Brütten","commune":{"key":"213","name":"Brütten","shortName":"Brütten"},"district":{"key":"110","name":"Bezirk Winterthur"},"canton":{"key":"1","code":"ZH","name":"Zürich"},"status":"Real"},{"key":"10148578","name":"Forbüelweg","postalCode":"8311","locality":"Brütten","commune":{"key":"213","name":"Brütten","shortName":"Brütten"},"district":{"key":"110","name":"Bezirk Winterthur"},"canton":{"key":"1","code":"ZH","name":"Zürich"},"status":"Real"},{"key":"10248636","name":"Franzosenbrunnenweg","postalCode":"8311","locality":"Brütten","commune":{"key":"213","name":"Brütten","shortName":"Brütten"},"district":{"key":"110","name":"Bezirk Winterthur"},"canton":{"key":"1","code":"ZH","name":"Zürich"},"status":"Real"},{"key":"10079978","name":"Geretwinkel","postalCode":"8311","locality":"Brütten","commune":{"key":"213","name":"Brütten","shortName":"Brütten"},"district":{"key":"110","name":"Bezirk Winterthur"},"canton":{"key":"1","code":"ZH","name":"Zürich"},"status":"Real"},{"key":"10151576","name":"Geretwinkelweg","postalCode":"8311","locality":"Brütten","commune":{"key":"213","name":"Brütten","shortName":"Brütten"},"district":{"key":"110","name":"Bezirk Winterthur"},"canton":{"key":"1","code":"ZH","name":"Zürich"},"status":"Real"},{"key":"10009123","name":"Gernstrasse","postalCode":"8311","locality":"Brütten","commune":{"key":"213","name":"Brütten","shortName":"Brütten"},"district":{"key":"110","name":"Bezirk Winterthur"},"canton":{"key":"1","code":"ZH","name":"Zürich"},"status":"Real"},{"key":"10148579","name":"Goussiweg","postalCode":"8311","locality":"Brütten","commune":{"key":"213","name":"Brütten","shortName":"Brütten"},"district":{"key":"110","name":"Bezirk Winterthur"},"canton":{"key":"1","code":"ZH","name":"Zürich"},"status":"Real"},{"key":"10149332","name":"Gruenenwaldweg","postalCode":"8311","locality":"Brütten","commune":{"key":"213","name":"Brütten","shortName":"Brütten"},"district":{"key":"110","name":"Bezirk Winterthur"},"canton":{"key":"1","code":"ZH","name":"Zürich"},"status":"Real"},{"key":"10184050","name":"Hagenstrasse","postalCode":"8311","locality":"Brütten","commune":{"key":"213","name":"Brütten","shortName":"Brütten"},"district":{"key":"110","name":"Bezirk Winterthur"},"canton":{"key":"1","code":"ZH","name":"Zürich"},"status":"Real"},{"key":"10110076","name":"Haldlerstrasse","postalCode":"8311","locality":"Brütten","commune":{"key":"213","name":"Brütten","shortName":"Brütten"},"district":{"key":"110","name":"Bezirk Winterthur"},"canton":{"key":"1","code":"ZH","name":"Zürich"},"status":"Real"},{"key":"10133465","name":"Haldlerweg","postalCode":"8311","locality":"Brütten","commune":{"key":"213","name":"Brütten","shortName":"Brütten"},"district":{"key":"110","name":"Bezirk Winterthur"},"canton":{"key":"1","code":"ZH","name":"Zürich"},"status":"Real"},{"key":"10079979","name":"Harossenstrasse","postalCode":"8311","locality":"Brütten","commune":{"key":"213","name":"Brütten","shortName":"Brütten"},"district":{"key":"110","name":"Bezirk Winterthur"},"canton":{"key":"1","code":"ZH","name":"Zürich"},"status":"Real"},{"key":"10151577","name":"Heissetrütiweg","postalCode":"8311","locality":"Brütten","commune":{"key":"213","name":"Brütten","shortName":"Brütten"},"district":{"key":"110","name":"Bezirk Winterthur"},"canton":{"key":"1","code":"ZH","name":"Zürich"},"status":"Real"},{"key":"10151578","name":"Helltobelweg","postalCode":"8311","locality":"Brütten","commune":{"key":"213","name":"Brütten","shortName":"Brütten"},"district":{"key":"110","name":"Bezirk Winterthur"},"canton":{"key":"1","code":"ZH","name":"Zürich"},"status":"Real"},{"key":"10151579","name":"Hellweg","postalCode":"8311","locality":"Brütten","commune":{"key":"213","name":"Brütten","shortName":"Brütten"},"district":{"key":"110","name":"Bezirk Winterthur"},"canton":{"key":"1","code":"ZH","name":"Zürich"},"status":"Real"},{"key":"10141833","name":"Himerichstrasse","postalCode":"8311","locality":"Brütten","commune":{"key":"213","name":"Brütten","shortName":"Brütten"},"district":{"key":"110","name":"Bezirk Winterthur"},"canton":{"key":"1","code":"ZH","name":"Zürich"},"status":"Real"},{"key":"10183656","name":"Hintergässli","postalCode":"8311","locality":"Brütten","commune":{"key":"213","name":"Brütten","shortName":"Brütten"},"district":{"key":"110","name":"Bezirk Winterthur"},"canton":{"key":"1","code":"ZH","name":"Zürich"},"status":"Real"},{"key":"10148580","name":"Hofacherweg","postalCode":"8311","locality":"Brütten","commune":{"key":"213","name":"Brütten","shortName":"Brütten"},"district":{"key":"110","name":"Bezirk Winterthur"},"canton":{"key":"1","code":"ZH","name":"Zürich"},"status":"Real"},{"key":"10009124","name":"Hofackerstrasse","postalCode":"8311","locality":"Brütten","commune":{"key":"213","name":"Brütten","shortName":"Brütten"},"district":{"key":"110","name":"Bezirk Winterthur"},"canton":{"key":"1","code":"ZH","name":"Zürich"},"status":"Real"},{"key":"10113296","name":"Höiweg","postalCode":"8311","locality":"Brütten","commune":{"key":"213","name":"Brütten","shortName":"Brütten"},"district":{"key":"110","name":"Bezirk Winterthur"},"canton":{"key":"1","code":"ZH","name":"Zürich"},"status":"Real"},{"key":"10151580","name":"Holzacherweg","postalCode":"8311","locality":"Brütten","commune":{"key":"213","name":"Brütten","shortName":"Brütten"},"district":{"key":"110","name":"Bezirk Winterthur"},"canton":{"key":"1","code":"ZH","name":"Zürich"},"status":"Real"},{"key":"10151581","name":"Holzächerweg","postalCode":"8311","locality":"Brütten","commune":{"key":"213","name":"Brütten","shortName":"Brütten"},"district":{"key":"110","name":"Bezirk Winterthur"},"canton":{"key":"1","code":"ZH","name":"Zürich"},"status":"Real"},{"key":"10248441","name":"Huebacherweg","postalCode":"8311","locality":"Brütten","commune":{"key":"213","name":"Brütten","shortName":"Brütten"},"district":{"key":"110","name":"Bezirk Winterthur"},"canton":{"key":"1","code":"ZH","name":"Zürich"},"status":"Real"},{"key":"10125719","name":"Ifang","postalCode":"8311","locality":"Brütten","commune":{"key":"213","name":"Brütten","shortName":"Brütten"},"district":{"key":"110","name":"Bezirk Winterthur"},"canton":{"key":"1","code":"ZH","name":"Zürich"},"status":"Real"},{"key":"10133466","name":"Ifangweg","postalCode":"8311","locality":"Brütten","commune":{"key":"213","name":"Brütten","shortName":"Brütten"},"district":{"key":"110","name":"Bezirk Winterthur"},"canton":{"key":"1","code":"ZH","name":"Zürich"},"status":"Real"},{"key":"10141834","name":"Krebsbachstrasse","postalCode":"8311","locality":"Brütten","commune":{"key":"213","name":"Brütten","shortName":"Brütten"},"district":{"key":"110","name":"Bezirk Winterthur"},"canton":{"key":"1","code":"ZH","name":"Zürich"},"status":"Real"},{"key":"10141835","name":"Langacherweg","postalCode":"8311","locality":"Brütten","commune":{"key":"213","name":"Brütten","shortName":"Brütten"},"district":{"key":"110","name":"Bezirk Winterthur"},"canton":{"key":"1","code":"ZH","name":"Zürich"},"status":"Real"},{"key":"10064559","name":"Moos","postalCode":"8311","locality":"Brütten","commune":{"key":"213","name":"Brütten","shortName":"Brütten"},"district":{"key":"110","name":"Bezirk Winterthur"},"canton":{"key":"1","code":"ZH","name":"Zürich"},"status":"Real"},{"key":"10151582","name":"Moosweg","postalCode":"8311","locality":"Brütten","commune":{"key":"213","name":"Brütten","shortName":"Brütten"},"district":{"key":"110","name":"Bezirk Winterthur"},"canton":{"key":"1","code":"ZH","name":"Zürich"},"status":"Real"},{"key":"10248713","name":"Mühlbergstrasse","postalCode":"8311","locality":"Brütten","commune":{"key":"213","name":"Brütten","shortName":"Brütten"},"district":{"key":"110","name":"Bezirk Winterthur"},"canton":{"key":"1","code":"ZH","name":"Zürich"},"status":"Real"},{"key":"10133467","name":"Neubruchweg","postalCode":"8311","locality":"Brütten","commune":{"key":"213","name":"Brütten","shortName":"Brütten"},"district":{"key":"110","name":"Bezirk Winterthur"},"canton":{"key":"1","code":"ZH","name":"Zürich"},"status":"Real"},{"key":"10052046","name":"Obereich","postalCode":"8311","locality":"Brütten","commune":{"key":"213","name":"Brütten","shortName":"Brütten"},"district":{"key":"110","name":"Bezirk Winterthur"},"canton":{"key":"1","code":"ZH","name":"Zürich"},"status":"Real"},{"key":"10151583","name":"Oberer Tobelweg","postalCode":"8311","locality":"Brütten","commune":{"key":"213","name":"Brütten","shortName":"Brütten"},"district":{"key":"110","name":"Bezirk Winterthur"},"canton":{"key":"1","code":"ZH","name":"Zürich"},"status":"Real"},{"key":"10151584","name":"Oberfeldweg","postalCode":"8311","locality":"Brütten","commune":{"key":"213","name":"Brütten","shortName":"Brütten"},"district":{"key":"110","name":"Bezirk Winterthur"},"canton":{"key":"1","code":"ZH","name":"Zürich"},"status":"Real"},{"key":"10009125","name":"Oberwilerstrasse","postalCode":"8311","locality":"Brütten","commune":{"key":"213","name":"Brütten","shortName":"Brütten"},"district":{"key":"110","name":"Bezirk Winterthur"},"canton":{"key":"1","code":"ZH","name":"Zürich"},"status":"Real"},{"key":"10150034","name":"Obstgartenweg","postalCode":"8311","locality":"Brütten","commune":{"key":"213","name":"Brütten","shortName":"Brütten"},"district":{"key":"110","name":"Bezirk Winterthur"},"canton":{"key":"1","code":"ZH","name":"Zürich"},"status":"Real"},{"key":"10079980","name":"Pfarrgasse","postalCode":"8311","locality":"Brütten","commune":{"key":"213","name":"Brütten","shortName":"Brütten"},"district":{"key":"110","name":"Bezirk Winterthur"},"canton":{"key":"1","code":"ZH","name":"Zürich"},"status":"Real"},{"key":"10148581","name":"Pflanzschulweg","postalCode":"8311","locality":"Brütten","commune":{"key":"213","name":"Brütten","shortName":"Brütten"},"district":{"key":"110","name":"Bezirk Winterthur"},"canton":{"key":"1","code":"ZH","name":"Zürich"},"status":"Real"},{"key":"10133468","name":"Pöschenwisenweg","postalCode":"8311","locality":"Brütten","commune":{"key":"213","name":"Brütten","shortName":"Brütten"},"district":{"key":"110","name":"Bezirk Winterthur"},"canton":{"key":"1","code":"ZH","name":"Zürich"},"status":"Real"},{"key":"10248885","name":"Rainweg","postalCode":"8311","locality":"Brütten","commune":{"key":"213","name":"Brütten","shortName":"Brütten"},"district":{"key":"110","name":"Bezirk Winterthur"},"canton":{"key":"1","code":"ZH","name":"Zürich"},"status":"Real"},{"key":"10064560","name":"Rätschiweg","postalCode":"8311","locality":"Brütten","commune":{"key":"213","name":"Brütten","shortName":"Brütten"},"district":{"key":"110","name":"Bezirk Winterthur"},"canton":{"key":"1","code":"ZH","name":"Zürich"},"status":"Real"},{"key":"10141836","name":"Rebhaldweg","postalCode":"8311","locality":"Brütten","commune":{"key":"213","name":"Brütten","shortName":"Brütten"},"district":{"key":"110","name":"Bezirk Winterthur"},"canton":{"key":"1","code":"ZH","name":"Zürich"},"status":"Real"},{"key":"10133469","name":"Rebweg","postalCode":"8311","locality":"Brütten","commune":{"key":"213","name":"Brütten","shortName":"Brütten"},"district":{"key":"110","name":"Bezirk Winterthur"},"canton":{"key":"1","code":"ZH","name":"Zürich"},"status":"Real"},{"key":"10141837","name":"Rietacherweg","postalCode":"8311","locality":"Brütten","commune":{"key":"213","name":"Brütten","shortName":"Brütten"},"district":{"key":"110","name":"Bezirk Winterthur"},"canton":{"key":"1","code":"ZH","name":"Zürich"},"status":"Real"},{"key":"10009126","name":"Rietgasse","postalCode":"8311","locality":"Brütten","commune":{"key":"213","name":"Brütten","shortName":"Brütten"},"district":{"key":"110","name":"Bezirk Winterthur"},"canton":{"key":"1","code":"ZH","name":"Zürich"},"status":"Real"},{"key":"10141838","name":"Riethölzliweg","postalCode":"8311","locality":"Brütten","commune":{"key":"213","name":"Brütten","shortName":"Brütten"},"district":{"key":"110","name":"Bezirk Winterthur"},"canton":{"key":"1","code":"ZH","name":"Zürich"},"status":"Real"},{"key":"10141839","name":"Rietzelgweg","postalCode":"8311","locality":"Brütten","commune":{"key":"213","name":"Brütten","shortName":"Brütten"},"district":{"key":"110","name":"Bezirk Winterthur"},"canton":{"key":"1","code":"ZH","name":"Zürich"},"status":"Real"},{"key":"10141840","name":"Rosacherweg","postalCode":"8311","locality":"Brütten","commune":{"key":"213","name":"Brütten","shortName":"Brütten"},"district":{"key":"110","name":"Bezirk Winterthur"},"canton":{"key":"1","code":"ZH","name":"Zürich"},"status":"Real"},{"key":"10142100","name":"Rötelhaldenweg","postalCode":"8311","locality":"Brütten","commune":{"key":"213","name":"Brütten","shortName":"Brütten"},"district":{"key":"110","name":"Bezirk Winterthur"},"canton":{"key":"1","code":"ZH","name":"Zürich"},"status":"Real"},{"key":"10142101","name":"Rüeswisenweg","postalCode":"8311","locality":"Brütten","commune":{"key":"213","name":"Brütten","shortName":"Brütten"},"district":{"key":"110","name":"Bezirk Winterthur"},"canton":{"key":"1","code":"ZH","name":"Zürich"},"status":"Real"},{"key":"10146167","name":"Rüholzweg","postalCode":"8311","locality":"Brütten","commune":{"key":"213","name":"Brütten","shortName":"Brütten"},"district":{"key":"110","name":"Bezirk Winterthur"},"canton":{"key":"1","code":"ZH","name":"Zürich"},"status":"Real"},{"key":"10133470","name":"Rüteliweg","postalCode":"8311","locality":"Brütten","commune":{"key":"213","name":"Brütten","shortName":"Brütten"},"district":{"key":"110","name":"Bezirk Winterthur"},"canton":{"key":"1","code":"ZH","name":"Zürich"},"status":"Real"},{"key":"10146168","name":"Rüterenweg","postalCode":"8311","locality":"Brütten","commune":{"key":"213","name":"Brütten","shortName":"Brütten"},"district":{"key":"110","name":"Bezirk Winterthur"},"canton":{"key":"1","code":"ZH","name":"Zürich"},"status":"Real"},{"key":"10133471","name":"Sandbüelweg","postalCode":"8311","locality":"Brütten","commune":{"key":"213","name":"Brütten","shortName":"Brütten"},"district":{"key":"110","name":"Bezirk Winterthur"},"canton":{"key":"1","code":"ZH","name":"Zürich"},"status":"Real"},{"key":"10105177","name":"Säntisstrasse","postalCode":"8311","locality":"Brütten","commune":{"key":"213","name":"Brütten","shortName":"Brütten"},"district":{"key":"110","name":"Bezirk Winterthur"},"canton":{"key":"1","code":"ZH","name":"Zürich"},"status":"Real"},{"key":"10146169","name":"Schüracherweg","postalCode":"8311","locality":"Brütten","commune":{"key":"213","name":"Brütten","shortName":"Brütten"},"district":{"key":"110","name":"Bezirk Winterthur"},"canton":{"key":"1","code":"ZH","name":"Zürich"},"status":"Real"},{"key":"10146170","name":"Schwarzmattweg","postalCode":"8311","locality":"Brütten","commune":{"key":"213","name":"Brütten","shortName":"Brütten"},"district":{"key":"110","name":"Bezirk Winterthur"},"canton":{"key":"1","code":"ZH","name":"Zürich"},"status":"Real"},{"key":"10126809","name":"Sigilochweg","postalCode":"8311","locality":"Brütten","commune":{"key":"213","name":"Brütten","shortName":"Brütten"},"district":{"key":"110","name":"Bezirk Winterthur"},"canton":{"key":"1","code":"ZH","name":"Zürich"},"status":"Real"},{"key":"10122230","name":"Sonnenbühl","postalCode":"8311","locality":"Brütten","commune":{"key":"213","name":"Brütten","shortName":"Brütten"},"district":{"key":"110","name":"Bezirk Winterthur"},"canton":{"key":"1","code":"ZH","name":"Zürich"},"status":"Real"},{"key":"10126810","name":"Stäffenzelgliweg","postalCode":"8311","locality":"Brütten","commune":{"key":"213","name":"Brütten","shortName":"Brütten"},"district":{"key":"110","name":"Bezirk Winterthur"},"canton":{"key":"1","code":"ZH","name":"Zürich"},"status":"Real"},{"key":"10170493","name":"Steigacher","postalCode":"8311","locality":"Brütten","commune":{"key":"213","name":"Brütten","shortName":"Brütten"},"district":{"key":"110","name":"Bezirk Winterthur"},"canton":{"key":"1","code":"ZH","name":"Zürich"},"status":"Real"},{"key":"10133472","name":"Steigacherweg","postalCode":"8311","locality":"Brütten","commune":{"key":"213","name":"Brütten","shortName":"Brütten"},"district":{"key":"110","name":"Bezirk Winterthur"},"canton":{"key":"1","code":"ZH","name":"Zürich"},"status":"Real"},{"key":"10133473","name":"Steighäuliweg","postalCode":"8311","locality":"Brütten","commune":{"key":"213","name":"Brütten","shortName":"Brütten"},"district":{"key":"110","name":"Bezirk Winterthur"},"canton":{"key":"1","code":"ZH","name":"Zürich"},"status":"Real"},{"key":"10009127","name":"Steighof","postalCode":"8311","locality":"Brütten","commune":{"key":"213","name":"Brütten","shortName":"Brütten"},"district":{"key":"110","name":"Bezirk Winterthur"},"canton":{"key":"1","code":"ZH","name":"Zürich"},"status":"Real"},{"key":"10142102","name":"Steighofstrasse","postalCode":"8311","locality":"Brütten","commune":{"key":"213","name":"Brütten","shortName":"Brütten"},"district":{"key":"110","name":"Bezirk Winterthur"},"canton":{"key":"1","code":"ZH","name":"Zürich"},"status":"Real"},{"key":"10142103","name":"Steighofweg","postalCode":"8311","locality":"Brütten","commune":{"key":"213","name":"Brütten","shortName":"Brütten"},"district":{"key":"110","name":"Bezirk Winterthur"},"canton":{"key":"1","code":"ZH","name":"Zürich"},"status":"Real"},{"key":"10079981","name":"Steinlerstrasse","postalCode":"8311","locality":"Brütten","commune":{"key":"213","name":"Brütten","shortName":"Brütten"},"district":{"key":"110","name":"Bezirk Winterthur"},"canton":{"key":"1","code":"ZH","name":"Zürich"},"status":"Real"},{"key":"10009128","name":"Strehlgasse","postalCode":"8311","locality":"Brütten","commune":{"key":"213","name":"Brütten","shortName":"Brütten"},"district":{"key":"110","name":"Bezirk Winterthur"},"canton":{"key":"1","code":"ZH","name":"Zürich"},"status":"Real"},{"key":"10142104","name":"Streuacherweg","postalCode":"8311","locality":"Brütten","commune":{"key":"213","name":"Brütten","shortName":"Brütten"},"district":{"key":"110","name":"Bezirk Winterthur"},"canton":{"key":"1","code":"ZH","name":"Zürich"},"status":"Real"},{"key":"10150035","name":"Strubikerweg","postalCode":"8311","locality":"Brütten","commune":{"key":"213","name":"Brütten","shortName":"Brütten"},"district":{"key":"110","name":"Bezirk Winterthur"},"canton":{"key":"1","code":"ZH","name":"Zürich"},"status":"Real"},{"key":"10064561","name":"Strubikon","postalCode":"8311","locality":"Brütten","commune":{"key":"213","name":"Brütten","shortName":"Brütten"},"district":{"key":"110","name":"Bezirk Winterthur"},"canton":{"key":"1","code":"ZH","name":"Zürich"},"status":"Real"},{"key":"10183657","name":"Strubikonerstrasse","postalCode":"8311","locality":"Brütten","commune":{"key":"213","name":"Brütten","shortName":"Brütten"},"district":{"key":"110","name":"Bezirk Winterthur"},"canton":{"key":"1","code":"ZH","name":"Zürich"},"status":"Real"},{"key":"10126323","name":"Stürzikerweg","postalCode":"8311","locality":"Brütten","commune":{"key":"213","name":"Brütten","shortName":"Brütten"},"district":{"key":"110","name":"Bezirk Winterthur"},"canton":{"key":"1","code":"ZH","name":"Zürich"},"status":"Real"},{"key":"10079982","name":"Sunnehaldenstrasse","postalCode":"8311","locality":"Brütten","commune":{"key":"213","name":"Brütten","shortName":"Brütten"},"district":{"key":"110","name":"Bezirk Winterthur"},"canton":{"key":"1","code":"ZH","name":"Zürich"},"status":"Real"},{"key":"10142105","name":"Taaweg","postalCode":"8311","locality":"Brütten","commune":{"key":"213","name":"Brütten","shortName":"Brütten"},"district":{"key":"110","name":"Bezirk Winterthur"},"canton":{"key":"1","code":"ZH","name":"Zürich"},"status":"Real"},{"key":"10126324","name":"Tannholzweg","postalCode":"8311","locality":"Brütten","commune":{"key":"213","name":"Brütten","shortName":"Brütten"},"district":{"key":"110","name":"Bezirk Winterthur"},"canton":{"key":"1","code":"ZH","name":"Zürich"},"status":"Real"},{"key":"10009056","name":"Tüfistrasse","postalCode":"8311","locality":"Brütten","commune":{"key":"213","name":"Brütten","shortName":"Brütten"},"district":{"key":"110","name":"Bezirk Winterthur"},"canton":{"key":"1","code":"ZH","name":"Zürich"},"status":"Real"},{"key":"10126325","name":"Tüfiweg","postalCode":"8311","locality":"Brütten","commune":{"key":"213","name":"Brütten","shortName":"Brütten"},"district":{"key":"110","name":"Bezirk Winterthur"},"canton":{"key":"1","code":"ZH","name":"Zürich"},"status":"Real"},{"key":"10009057","name":"Uetlibergstrasse","postalCode":"8311","locality":"Brütten","commune":{"key":"213","name":"Brütten","shortName":"Brütten"},"district":{"key":"110","name":"Bezirk Winterthur"},"canton":{"key":"1","code":"ZH","name":"Zürich"},"status":"Real"},{"key":"10009058","name":"Unterdorfstrasse","postalCode":"8311","locality":"Brütten","commune":{"key":"213","name":"Brütten","shortName":"Brütten"},"district":{"key":"110","name":"Bezirk Winterthur"},"canton":{"key":"1","code":"ZH","name":"Zürich"},"status":"Real"},{"key":"10240383","name":"Unterdorfweg","postalCode":"8311","locality":"Brütten","commune":{"key":"213","name":"Brütten","shortName":"Brütten"},"district":{"key":"110","name":"Bezirk Winterthur"},"canton":{"key":"1","code":"ZH","name":"Zürich"},"status":"Real"},{"key":"10142106","name":"Unterer Tobelweg","postalCode":"8311","locality":"Brütten","commune":{"key":"213","name":"Brütten","shortName":"Brütten"},"district":{"key":"110","name":"Bezirk Winterthur"},"canton":{"key":"1","code":"ZH","name":"Zürich"},"status":"Real"},{"key":"10142107","name":"Vogtwisenweg","postalCode":"8311","locality":"Brütten","commune":{"key":"213","name":"Brütten","shortName":"Brütten"},"district":{"key":"110","name":"Bezirk Winterthur"},"canton":{"key":"1","code":"ZH","name":"Zürich"},"status":"Real"},{"key":"10079983","name":"Wegacher","postalCode":"8311","locality":"Brütten","commune":{"key":"213","name":"Brütten","shortName":"Brütten"},"district":{"key":"110","name":"Bezirk Winterthur"},"canton":{"key":"1","code":"ZH","name":"Zürich"},"status":"Real"},{"key":"10142108","name":"Weidweg","postalCode":"8311","locality":"Brütten","commune":{"key":"213","name":"Brütten","shortName":"Brütten"},"district":{"key":"110","name":"Bezirk Winterthur"},"canton":{"key":"1","code":"ZH","name":"Zürich"},"status":"Real"},{"key":"10064562","name":"Wergasse","postalCode":"8311","locality":"Brütten","commune":{"key":"213","name":"Brütten","shortName":"Brütten"},"district":{"key":"110","name":"Bezirk Winterthur"},"canton":{"key":"1","code":"ZH","name":"Zürich"},"status":"Real"},{"key":"10142109","name":"Wisacherweg","postalCode":"8311","locality":"Brütten","commune":{"key":"213","name":"Brütten","shortName":"Brütten"},"district":{"key":"110","name":"Bezirk Winterthur"},"canton":{"key":"1","code":"ZH","name":"Zürich"},"status":"Real"},{"key":"10125720","name":"Zelglistrasse","postalCode":"8311","locality":"Brütten","commune":{"key":"213","name":"Brütten","shortName":"Brütten"},"district":{"key":"110","name":"Bezirk Winterthur"},"canton":{"key":"1","code":"ZH","name":"Zürich"},"status":"Real"},{"key":"10009059","name":"Zelgliweg","postalCode":"8311","locality":"Brütten","commune":{"key":"213","name":"Brütten","shortName":"Brütten"},"district":{"key":"110","name":"Bezirk Winterthur"},"canton":{"key":"1","code":"ZH","name":"Zürich"},"status":"Real"},{"key":"10142110","name":"Zürcherstrasse","postalCode":"8311","locality":"Brütten","commune":{"key":"213","name":"Brütten","shortName":"Brütten"},"district":{"key":"110","name":"Bezirk Winterthur"},"canton":{"key":"1","code":"ZH","name":"Zürich"},"status":"Real"},{"key":"10146171","name":"Züriweg","postalCode":"8311","locality":"Brütten","commune":{"key":"213","name":"Brütten","shortName":"Brütten"},"district":{"key":"110","name":"Bezirk Winterthur"},"canton":{"key":"1","code":"ZH","name":"Zürich"},"status":"Real"},{"key":"10146172","name":"Zürliweg","postalCode":"8311","locality":"Brütten","commune":{"key":"213","name":"Brütten","shortName":"Brütten"},"district":{"key":"110","name":"Bezirk Winterthur"},"canton":{"key":"1","code":"ZH","name":"Zürich"},"status":"Real"},]