[{"name":"Adalbert-Stifter-Str.","postalCode":"94110","locality":"Wegscheid","municipality":{"key":"09275156","name":"Wegscheid, M","type":"Markt"},"district":{"key":"09275","name":"Passau","type":"Landkreis"},"federalState":{"key":"09","name":"Bayern"}},{"name":"Ameisbergstr.","postalCode":"94110","locality":"Wegscheid","municipality":{"key":"09275156","name":"Wegscheid, M","type":"Markt"},"district":{"key":"09275","name":"Passau","type":"Landkreis"},"federalState":{"key":"09","name":"Bayern"}},{"name":"Am Kirchenfeld","postalCode":"94110","locality":"Wegscheid","municipality":{"key":"09275156","name":"Wegscheid, M","type":"Markt"},"district":{"key":"09275","name":"Passau","type":"Landkreis"},"federalState":{"key":"09","name":"Bayern"}},{"name":"Am Ponzaun","postalCode":"94110","locality":"Wegscheid","municipality":{"key":"09275156","name":"Wegscheid, M","type":"Markt"},"district":{"key":"09275","name":"Passau","type":"Landkreis"},"federalState":{"key":"09","name":"Bayern"}},{"name":"Am Postberg","postalCode":"94110","locality":"Wegscheid","municipality":{"key":"09275156","name":"Wegscheid, M","type":"Markt"},"district":{"key":"09275","name":"Passau","type":"Landkreis"},"federalState":{"key":"09","name":"Bayern"}},{"name":"Badgasse","postalCode":"94110","locality":"Wegscheid","municipality":{"key":"09275156","name":"Wegscheid, M","type":"Markt"},"district":{"key":"09275","name":"Passau","type":"Landkreis"},"federalState":{"key":"09","name":"Bayern"}},{"name":"Bahnhofstr.","postalCode":"94110","locality":"Wegscheid","municipality":{"key":"09275156","name":"Wegscheid, M","type":"Markt"},"district":{"key":"09275","name":"Passau","type":"Landkreis"},"federalState":{"key":"09","name":"Bayern"}},{"name":"Bergstr.","postalCode":"94110","locality":"Wegscheid","municipality":{"key":"09275156","name":"Wegscheid, M","type":"Markt"},"district":{"key":"09275","name":"Passau","type":"Landkreis"},"federalState":{"key":"09","name":"Bayern"}},{"name":"Bergweg","postalCode":"94110","locality":"Wegscheid","municipality":{"key":"09275156","name":"Wegscheid, M","type":"Markt"},"district":{"key":"09275","name":"Passau","type":"Landkreis"},"federalState":{"key":"09","name":"Bayern"}},{"name":"Bgm.-Gierlinger-Str.","postalCode":"94110","locality":"Wegscheid","municipality":{"key":"09275156","name":"Wegscheid, M","type":"Markt"},"district":{"key":"09275","name":"Passau","type":"Landkreis"},"federalState":{"key":"09","name":"Bayern"}},{"name":"Bischof-Gottfried-Str.","postalCode":"94110","locality":"Wegscheid","municipality":{"key":"09275156","name":"Wegscheid, M","type":"Markt"},"district":{"key":"09275","name":"Passau","type":"Landkreis"},"federalState":{"key":"09","name":"Bayern"}},{"name":"Brunnenwiesen","postalCode":"94110","locality":"Wegscheid","municipality":{"key":"09275156","name":"Wegscheid, M","type":"Markt"},"district":{"key":"09275","name":"Passau","type":"Landkreis"},"federalState":{"key":"09","name":"Bayern"}},{"name":"Burgstallstr.","postalCode":"94110","locality":"Wegscheid","municipality":{"key":"09275156","name":"Wegscheid, M","type":"Markt"},"district":{"key":"09275","name":"Passau","type":"Landkreis"},"federalState":{"key":"09","name":"Bayern"}},{"name":"Carlonegasse","postalCode":"94032","locality":"Passau","municipality":{"key":"09262000","name":"Passau","type":"Kreisfreie_Stadt"},"district":{"key":"09262","name":"Passau","type":"Kreisfreie_Stadt"},"federalState":{"key":"09","name":"Bayern"}},{"name":"Carossastr.","postalCode":"94036","locality":"Passau","municipality":{"key":"09262000","name":"Passau","type":"Kreisfreie_Stadt"},"district":{"key":"09262","name":"Passau","type":"Kreisfreie_Stadt"},"federalState":{"key":"09","name":"Bayern"}},{"name":"Christdobl","postalCode":"94034","locality":"Passau","municipality":{"key":"09262000","name":"Passau","type":"Kreisfreie_Stadt"},"district":{"key":"09262","name":"Passau","type":"Kreisfreie_Stadt"},"federalState":{"key":"09","name":"Bayern"}},{"name":"Dorfstr.","postalCode":"94110","locality":"Wegscheid","municipality":{"key":"09275156","name":"Wegscheid, M","type":"Markt"},"district":{"key":"09275","name":"Passau","type":"Landkreis"},"federalState":{"key":"09","name":"Bayern"}},{"name":"Dreisesselstr.","postalCode":"94110","locality":"Wegscheid","municipality":{"key":"09275156","name":"Wegscheid, M","type":"Markt"},"district":{"key":"09275","name":"Passau","type":"Landkreis"},"federalState":{"key":"09","name":"Bayern"}},{"name":"Ebenäckerring","postalCode":"94110","locality":"Wegscheid","municipality":{"key":"09275156","name":"Wegscheid, M","type":"Markt"},"district":{"key":"09275","name":"Passau","type":"Landkreis"},"federalState":{"key":"09","name":"Bayern"}},{"name":"Ebernäckerring","postalCode":"94110","locality":"Wegscheid","municipality":{"key":"09275156","name":"Wegscheid, M","type":"Markt"},"district":{"key":"09275","name":"Passau","type":"Landkreis"},"federalState":{"key":"09","name":"Bayern"}},{"name":"Flurbereinigungsstr.","postalCode":"94110","locality":"Wegscheid","municipality":{"key":"09275156","name":"Wegscheid, M","type":"Markt"},"district":{"key":"09275","name":"Passau","type":"Landkreis"},"federalState":{"key":"09","name":"Bayern"}},{"name":"Flurwiesenweg","postalCode":"94110","locality":"Wegscheid","municipality":{"key":"09275156","name":"Wegscheid, M","type":"Markt"},"district":{"key":"09275","name":"Passau","type":"Landkreis"},"federalState":{"key":"09","name":"Bayern"}},{"name":"Garmer Str.","postalCode":"94110","locality":"Wegscheid","municipality":{"key":"09275156","name":"Wegscheid, M","type":"Markt"},"district":{"key":"09275","name":"Passau","type":"Landkreis"},"federalState":{"key":"09","name":"Bayern"}},{"name":"Gartenstr.","postalCode":"94110","locality":"Wegscheid","municipality":{"key":"09275156","name":"Wegscheid, M","type":"Markt"},"district":{"key":"09275","name":"Passau","type":"Landkreis"},"federalState":{"key":"09","name":"Bayern"}},{"name":"Hammerleiten","postalCode":"94110","locality":"Wegscheid","municipality":{"key":"09275156","name":"Wegscheid, M","type":"Markt"},"district":{"key":"09275","name":"Passau","type":"Landkreis"},"federalState":{"key":"09","name":"Bayern"}},{"name":"Hochwurzweg","postalCode":"94110","locality":"Wegscheid","municipality":{"key":"09275156","name":"Wegscheid, M","type":"Markt"},"district":{"key":"09275","name":"Passau","type":"Landkreis"},"federalState":{"key":"09","name":"Bayern"}},{"name":"Hofacker","postalCode":"94110","locality":"Wegscheid","municipality":{"key":"09275156","name":"Wegscheid, M","type":"Markt"},"district":{"key":"09275","name":"Passau","type":"Landkreis"},"federalState":{"key":"09","name":"Bayern"}},{"name":"Ilzbrücke","postalCode":"94034","locality":"Passau","municipality":{"key":"09262000","name":"Passau","type":"Kreisfreie_Stadt"},"district":{"key":"09262","name":"Passau","type":"Kreisfreie_Stadt"},"federalState":{"key":"09","name":"Bayern"}},{"name":"Ilzleite","postalCode":"94034","locality":"Passau","municipality":{"key":"09262000","name":"Passau","type":"Kreisfreie_Stadt"},"district":{"key":"09262","name":"Passau","type":"Kreisfreie_Stadt"},"federalState":{"key":"09","name":"Bayern"}},{"name":"Ilztalwanderweg","postalCode":"94034","locality":"Passau","municipality":{"key":"09262000","name":"Passau","type":"Kreisfreie_Stadt"},"district":{"key":"09262","name":"Passau","type":"Kreisfreie_Stadt"},"federalState":{"key":"09","name":"Bayern"}},{"name":"Innbrückgasse","postalCode":"94032","locality":"Passau","municipality":{"key":"09262000","name":"Passau","type":"Kreisfreie_Stadt"},"district":{"key":"09262","name":"Passau","type":"Kreisfreie_Stadt"},"federalState":{"key":"09","name":"Bayern"}},{"name":"Innkai","postalCode":"94032","locality":"Passau","municipality":{"key":"09262000","name":"Passau","type":"Kreisfreie_Stadt"},"district":{"key":"09262","name":"Passau","type":"Kreisfreie_Stadt"},"federalState":{"key":"09","name":"Bayern"}},{"name":"Innpromenade","postalCode":"94032","locality":"Passau","municipality":{"key":"09262000","name":"Passau","type":"Kreisfreie_Stadt"},"district":{"key":"09262","name":"Passau","type":"Kreisfreie_Stadt"},"federalState":{"key":"09","name":"Bayern"}},{"name":"Innsteg","postalCode":"94032","locality":"Passau","municipality":{"key":"09262000","name":"Passau","type":"Kreisfreie_Stadt"},"district":{"key":"09262","name":"Passau","type":"Kreisfreie_Stadt"},"federalState":{"key":"09","name":"Bayern"}},{"name":"Innstr.","postalCode":"94032","locality":"Passau","municipality":{"key":"09262000","name":"Passau","type":"Kreisfreie_Stadt"},"district":{"key":"09262","name":"Passau","type":"Kreisfreie_Stadt"},"federalState":{"key":"09","name":"Bayern"}},{"name":"Innstr.","postalCode":"94036","locality":"Passau","municipality":{"key":"09262000","name":"Passau","type":"Kreisfreie_Stadt"},"district":{"key":"09262","name":"Passau","type":"Kreisfreie_Stadt"},"federalState":{"key":"09","name":"Bayern"}},{"name":"Innwiese","postalCode":"94032","locality":"Passau","municipality":{"key":"09262000","name":"Passau","type":"Kreisfreie_Stadt"},"district":{"key":"09262","name":"Passau","type":"Kreisfreie_Stadt"},"federalState":{"key":"09","name":"Bayern"}},{"name":"Jahnstr.","postalCode":"94110","locality":"Wegscheid","municipality":{"key":"09275156","name":"Wegscheid, M","type":"Markt"},"district":{"key":"09275","name":"Passau","type":"Landkreis"},"federalState":{"key":"09","name":"Bayern"}},{"name":"Kappel","postalCode":"94110","locality":"Wegscheid","municipality":{"key":"09275156","name":"Wegscheid, M","type":"Markt"},"district":{"key":"09275","name":"Passau","type":"Landkreis"},"federalState":{"key":"09","name":"Bayern"}},{"name":"Kappelgartenstr.","postalCode":"94110","locality":"Wegscheid","municipality":{"key":"09275156","name":"Wegscheid, M","type":"Markt"},"district":{"key":"09275","name":"Passau","type":"Landkreis"},"federalState":{"key":"09","name":"Bayern"}},{"name":"Kasberger Str.","postalCode":"94110","locality":"Wegscheid","municipality":{"key":"09275156","name":"Wegscheid, M","type":"Markt"},"district":{"key":"09275","name":"Passau","type":"Landkreis"},"federalState":{"key":"09","name":"Bayern"}},{"name":"Kirchenweg","postalCode":"94110","locality":"Wegscheid","municipality":{"key":"09275156","name":"Wegscheid, M","type":"Markt"},"district":{"key":"09275","name":"Passau","type":"Landkreis"},"federalState":{"key":"09","name":"Bayern"}},{"name":"Kirchstr.","postalCode":"94110","locality":"Wegscheid","municipality":{"key":"09275156","name":"Wegscheid, M","type":"Markt"},"district":{"key":"09275","name":"Passau","type":"Landkreis"},"federalState":{"key":"09","name":"Bayern"}},{"name":"Kohlstatt","postalCode":"94110","locality":"Wegscheid","municipality":{"key":"09275156","name":"Wegscheid, M","type":"Markt"},"district":{"key":"09275","name":"Passau","type":"Landkreis"},"federalState":{"key":"09","name":"Bayern"}},{"name":"Kolpingstr.","postalCode":"94110","locality":"Wegscheid","municipality":{"key":"09275156","name":"Wegscheid, M","type":"Markt"},"district":{"key":"09275","name":"Passau","type":"Landkreis"},"federalState":{"key":"09","name":"Bayern"}},{"name":"Kühbachäcker","postalCode":"94110","locality":"Wegscheid","municipality":{"key":"09275156","name":"Wegscheid, M","type":"Markt"},"district":{"key":"09275","name":"Passau","type":"Landkreis"},"federalState":{"key":"09","name":"Bayern"}},{"name":"Laimgrub","postalCode":"94034","locality":"Passau","municipality":{"key":"09262000","name":"Passau","type":"Kreisfreie_Stadt"},"district":{"key":"09262","name":"Passau","type":"Kreisfreie_Stadt"},"federalState":{"key":"09","name":"Bayern"}},{"name":"Lambergstr.","postalCode":"94032","locality":"Passau","municipality":{"key":"09262000","name":"Passau","type":"Kreisfreie_Stadt"},"district":{"key":"09262","name":"Passau","type":"Kreisfreie_Stadt"},"federalState":{"key":"09","name":"Bayern"}},{"name":"Landrichterstr.","postalCode":"94034","locality":"Passau","municipality":{"key":"09262000","name":"Passau","type":"Kreisfreie_Stadt"},"district":{"key":"09262","name":"Passau","type":"Kreisfreie_Stadt"},"federalState":{"key":"09","name":"Bayern"}},{"name":"Langemarckstr.","postalCode":"94036","locality":"Passau","municipality":{"key":"09262000","name":"Passau","type":"Kreisfreie_Stadt"},"district":{"key":"09262","name":"Passau","type":"Kreisfreie_Stadt"},"federalState":{"key":"09","name":"Bayern"}},{"name":"Langlebenhofweg","postalCode":"94034","locality":"Passau","municipality":{"key":"09262000","name":"Passau","type":"Kreisfreie_Stadt"},"district":{"key":"09262","name":"Passau","type":"Kreisfreie_Stadt"},"federalState":{"key":"09","name":"Bayern"}},{"name":"Laurentiusstr.","postalCode":"94034","locality":"Passau","municipality":{"key":"09262000","name":"Passau","type":"Kreisfreie_Stadt"},"district":{"key":"09262","name":"Passau","type":"Kreisfreie_Stadt"},"federalState":{"key":"09","name":"Bayern"}},{"name":"Lautensackstr.","postalCode":"94036","locality":"Passau","municipality":{"key":"09262000","name":"Passau","type":"Kreisfreie_Stadt"},"district":{"key":"09262","name":"Passau","type":"Kreisfreie_Stadt"},"federalState":{"key":"09","name":"Bayern"}},{"name":"Lederergasse","postalCode":"94032","locality":"Passau","municipality":{"key":"09262000","name":"Passau","type":"Kreisfreie_Stadt"},"district":{"key":"09262","name":"Passau","type":"Kreisfreie_Stadt"},"federalState":{"key":"09","name":"Bayern"}},{"name":"Leharweg","postalCode":"94034","locality":"Passau","municipality":{"key":"09262000","name":"Passau","type":"Kreisfreie_Stadt"},"district":{"key":"09262","name":"Passau","type":"Kreisfreie_Stadt"},"federalState":{"key":"09","name":"Bayern"}},{"name":"Leidlstr.","postalCode":"94032","locality":"Passau","municipality":{"key":"09262000","name":"Passau","type":"Kreisfreie_Stadt"},"district":{"key":"09262","name":"Passau","type":"Kreisfreie_Stadt"},"federalState":{"key":"09","name":"Bayern"}},{"name":"Leitenwiesweg","postalCode":"94036","locality":"Passau","municipality":{"key":"09262000","name":"Passau","type":"Kreisfreie_Stadt"},"district":{"key":"09262","name":"Passau","type":"Kreisfreie_Stadt"},"federalState":{"key":"09","name":"Bayern"}},{"name":"Lenckweg","postalCode":"94032","locality":"Passau","municipality":{"key":"09262000","name":"Passau","type":"Kreisfreie_Stadt"},"district":{"key":"09262","name":"Passau","type":"Kreisfreie_Stadt"},"federalState":{"key":"09","name":"Bayern"}},{"name":"Lenzenweg","postalCode":"94034","locality":"Passau","municipality":{"key":"09262000","name":"Passau","type":"Kreisfreie_Stadt"},"district":{"key":"09262","name":"Passau","type":"Kreisfreie_Stadt"},"federalState":{"key":"09","name":"Bayern"}},{"name":"Leonhard-Paminger-Str.","postalCode":"94032","locality":"Passau","municipality":{"key":"09262000","name":"Passau","type":"Kreisfreie_Stadt"},"district":{"key":"09262","name":"Passau","type":"Kreisfreie_Stadt"},"federalState":{"key":"09","name":"Bayern"}},{"name":"Leopoldstr.","postalCode":"94032","locality":"Passau","municipality":{"key":"09262000","name":"Passau","type":"Kreisfreie_Stadt"},"district":{"key":"09262","name":"Passau","type":"Kreisfreie_Stadt"},"federalState":{"key":"09","name":"Bayern"}},{"name":"Lerchenstr.","postalCode":"94036","locality":"Passau","municipality":{"key":"09262000","name":"Passau","type":"Kreisfreie_Stadt"},"district":{"key":"09262","name":"Passau","type":"Kreisfreie_Stadt"},"federalState":{"key":"09","name":"Bayern"}},{"name":"Liegnitzer Str.","postalCode":"94036","locality":"Passau","municipality":{"key":"09262000","name":"Passau","type":"Kreisfreie_Stadt"},"district":{"key":"09262","name":"Passau","type":"Kreisfreie_Stadt"},"federalState":{"key":"09","name":"Bayern"}},{"name":"Lilienstr.","postalCode":"94034","locality":"Passau","municipality":{"key":"09262000","name":"Passau","type":"Kreisfreie_Stadt"},"district":{"key":"09262","name":"Passau","type":"Kreisfreie_Stadt"},"federalState":{"key":"09","name":"Bayern"}},{"name":"Lilly-Zeheter-Str.","postalCode":"94036","locality":"Passau","municipality":{"key":"09262000","name":"Passau","type":"Kreisfreie_Stadt"},"district":{"key":"09262","name":"Passau","type":"Kreisfreie_Stadt"},"federalState":{"key":"09","name":"Bayern"}},{"name":"Lindau","postalCode":"94034","locality":"Passau","municipality":{"key":"09262000","name":"Passau","type":"Kreisfreie_Stadt"},"district":{"key":"09262","name":"Passau","type":"Kreisfreie_Stadt"},"federalState":{"key":"09","name":"Bayern"}},{"name":"Lindenstr.","postalCode":"94036","locality":"Passau","municipality":{"key":"09262000","name":"Passau","type":"Kreisfreie_Stadt"},"district":{"key":"09262","name":"Passau","type":"Kreisfreie_Stadt"},"federalState":{"key":"09","name":"Bayern"}},{"name":"Lindental","postalCode":"94032","locality":"Passau","municipality":{"key":"09262000","name":"Passau","type":"Kreisfreie_Stadt"},"district":{"key":"09262","name":"Passau","type":"Kreisfreie_Stadt"},"federalState":{"key":"09","name":"Bayern"}},{"name":"Linzer Str.","postalCode":"94032","locality":"Passau","municipality":{"key":"09262000","name":"Passau","type":"Kreisfreie_Stadt"},"district":{"key":"09262","name":"Passau","type":"Kreisfreie_Stadt"},"federalState":{"key":"09","name":"Bayern"}},{"name":"Löwengrube","postalCode":"94032","locality":"Passau","municipality":{"key":"09262000","name":"Passau","type":"Kreisfreie_Stadt"},"district":{"key":"09262","name":"Passau","type":"Kreisfreie_Stadt"},"federalState":{"key":"09","name":"Bayern"}},{"name":"Löwenmühlstr.","postalCode":"94034","locality":"Passau","municipality":{"key":"09262000","name":"Passau","type":"Kreisfreie_Stadt"},"district":{"key":"09262","name":"Passau","type":"Kreisfreie_Stadt"},"federalState":{"key":"09","name":"Bayern"}},{"name":"Ludwig-Schmidseder-Str.","postalCode":"94036","locality":"Passau","municipality":{"key":"09262000","name":"Passau","type":"Kreisfreie_Stadt"},"district":{"key":"09262","name":"Passau","type":"Kreisfreie_Stadt"},"federalState":{"key":"09","name":"Bayern"}},{"name":"Ludwigshöhe","postalCode":"94034","locality":"Passau","municipality":{"key":"09262000","name":"Passau","type":"Kreisfreie_Stadt"},"district":{"key":"09262","name":"Passau","type":"Kreisfreie_Stadt"},"federalState":{"key":"09","name":"Bayern"}},{"name":"Ludwigsplatz","postalCode":"94032","locality":"Passau","municipality":{"key":"09262000","name":"Passau","type":"Kreisfreie_Stadt"},"district":{"key":"09262","name":"Passau","type":"Kreisfreie_Stadt"},"federalState":{"key":"09","name":"Bayern"}},{"name":"Ludwigssteig","postalCode":"94034","locality":"Passau","municipality":{"key":"09262000","name":"Passau","type":"Kreisfreie_Stadt"},"district":{"key":"09262","name":"Passau","type":"Kreisfreie_Stadt"},"federalState":{"key":"09","name":"Bayern"}},{"name":"Ludwigstr.","postalCode":"94032","locality":"Passau","municipality":{"key":"09262000","name":"Passau","type":"Kreisfreie_Stadt"},"district":{"key":"09262","name":"Passau","type":"Kreisfreie_Stadt"},"federalState":{"key":"09","name":"Bayern"}},{"name":"Lueg","postalCode":"94034","locality":"Passau","municipality":{"key":"09262000","name":"Passau","type":"Kreisfreie_Stadt"},"district":{"key":"09262","name":"Passau","type":"Kreisfreie_Stadt"},"federalState":{"key":"09","name":"Bayern"}},{"name":"Lüfteneck","postalCode":"94034","locality":"Passau","municipality":{"key":"09262000","name":"Passau","type":"Kreisfreie_Stadt"},"district":{"key":"09262","name":"Passau","type":"Kreisfreie_Stadt"},"federalState":{"key":"09","name":"Bayern"}},{"name":"Lüftlbergstr.","postalCode":"94034","locality":"Passau","municipality":{"key":"09262000","name":"Passau","type":"Kreisfreie_Stadt"},"district":{"key":"09262","name":"Passau","type":"Kreisfreie_Stadt"},"federalState":{"key":"09","name":"Bayern"}},{"name":"Lukas-Kern-Str.","postalCode":"94032","locality":"Passau","municipality":{"key":"09262000","name":"Passau","type":"Kreisfreie_Stadt"},"district":{"key":"09262","name":"Passau","type":"Kreisfreie_Stadt"},"federalState":{"key":"09","name":"Bayern"}},{"name":"Lupingäßchen","postalCode":"94032","locality":"Passau","municipality":{"key":"09262000","name":"Passau","type":"Kreisfreie_Stadt"},"district":{"key":"09262","name":"Passau","type":"Kreisfreie_Stadt"},"federalState":{"key":"09","name":"Bayern"}},{"name":"Luragogasse","postalCode":"94032","locality":"Passau","municipality":{"key":"09262000","name":"Passau","type":"Kreisfreie_Stadt"},"district":{"key":"09262","name":"Passau","type":"Kreisfreie_Stadt"},"federalState":{"key":"09","name":"Bayern"}},{"name":"Lusenweg","postalCode":"94034","locality":"Passau","municipality":{"key":"09262000","name":"Passau","type":"Kreisfreie_Stadt"},"district":{"key":"09262","name":"Passau","type":"Kreisfreie_Stadt"},"federalState":{"key":"09","name":"Bayern"}},{"name":"Maierhof","postalCode":"94110","locality":"Wegscheid","municipality":{"key":"09275156","name":"Wegscheid, M","type":"Markt"},"district":{"key":"09275","name":"Passau","type":"Landkreis"},"federalState":{"key":"09","name":"Bayern"}},{"name":"Marktstr.","postalCode":"94110","locality":"Wegscheid","municipality":{"key":"09275156","name":"Wegscheid, M","type":"Markt"},"district":{"key":"09275","name":"Passau","type":"Landkreis"},"federalState":{"key":"09","name":"Bayern"}},{"name":"Meßnerschlagerwaide","postalCode":"94110","locality":"Wegscheid","municipality":{"key":"09275156","name":"Wegscheid, M","type":"Markt"},"district":{"key":"09275","name":"Passau","type":"Landkreis"},"federalState":{"key":"09","name":"Bayern"}},{"name":"Mitterweg","postalCode":"94110","locality":"Wegscheid","municipality":{"key":"09275156","name":"Wegscheid, M","type":"Markt"},"district":{"key":"09275","name":"Passau","type":"Landkreis"},"federalState":{"key":"09","name":"Bayern"}},{"name":"MTB HERO Wegscheid","postalCode":"94110","locality":"Wegscheid","municipality":{"key":"09275156","name":"Wegscheid, M","type":"Markt"},"district":{"key":"09275","name":"Passau","type":"Landkreis"},"federalState":{"key":"09","name":"Bayern"}},{"name":"Mühlfeld","postalCode":"94110","locality":"Wegscheid","municipality":{"key":"09275156","name":"Wegscheid, M","type":"Markt"},"district":{"key":"09275","name":"Passau","type":"Landkreis"},"federalState":{"key":"09","name":"Bayern"}},{"name":"Mühlgasse","postalCode":"94110","locality":"Wegscheid","municipality":{"key":"09275156","name":"Wegscheid, M","type":"Markt"},"district":{"key":"09275","name":"Passau","type":"Landkreis"},"federalState":{"key":"09","name":"Bayern"}},{"name":"Nagelschmiedgasse","postalCode":"94032","locality":"Passau","municipality":{"key":"09262000","name":"Passau","type":"Kreisfreie_Stadt"},"district":{"key":"09262","name":"Passau","type":"Kreisfreie_Stadt"},"federalState":{"key":"09","name":"Bayern"}},{"name":"Nelkenstr.","postalCode":"94034","locality":"Passau","municipality":{"key":"09262000","name":"Passau","type":"Kreisfreie_Stadt"},"district":{"key":"09262","name":"Passau","type":"Kreisfreie_Stadt"},"federalState":{"key":"09","name":"Bayern"}},{"name":"Netzerstr.","postalCode":"94036","locality":"Passau","municipality":{"key":"09262000","name":"Passau","type":"Kreisfreie_Stadt"},"district":{"key":"09262","name":"Passau","type":"Kreisfreie_Stadt"},"federalState":{"key":"09","name":"Bayern"}},{"name":"Neuburger Str.","postalCode":"94032","locality":"Passau","municipality":{"key":"09262000","name":"Passau","type":"Kreisfreie_Stadt"},"district":{"key":"09262","name":"Passau","type":"Kreisfreie_Stadt"},"federalState":{"key":"09","name":"Bayern"}},{"name":"Neuburger Str.","postalCode":"94036","locality":"Passau","municipality":{"key":"09262000","name":"Passau","type":"Kreisfreie_Stadt"},"district":{"key":"09262","name":"Passau","type":"Kreisfreie_Stadt"},"federalState":{"key":"09","name":"Bayern"}},{"name":"Neue Rieser Str.","postalCode":"94034","locality":"Passau","municipality":{"key":"09262000","name":"Passau","type":"Kreisfreie_Stadt"},"district":{"key":"09262","name":"Passau","type":"Kreisfreie_Stadt"},"federalState":{"key":"09","name":"Bayern"}},{"name":"Neue Schulbergstr.","postalCode":"94034","locality":"Passau","municipality":{"key":"09262000","name":"Passau","type":"Kreisfreie_Stadt"},"district":{"key":"09262","name":"Passau","type":"Kreisfreie_Stadt"},"federalState":{"key":"09","name":"Bayern"}},{"name":"Neureut","postalCode":"94034","locality":"Passau","municipality":{"key":"09262000","name":"Passau","type":"Kreisfreie_Stadt"},"district":{"key":"09262","name":"Passau","type":"Kreisfreie_Stadt"},"federalState":{"key":"09","name":"Bayern"}},{"name":"Neustift","postalCode":"94036","locality":"Passau","municipality":{"key":"09262000","name":"Passau","type":"Kreisfreie_Stadt"},"district":{"key":"09262","name":"Passau","type":"Kreisfreie_Stadt"},"federalState":{"key":"09","name":"Bayern"}},{"name":"Neustifter Str.","postalCode":"94036","locality":"Passau","municipality":{"key":"09262000","name":"Passau","type":"Kreisfreie_Stadt"},"district":{"key":"09262","name":"Passau","type":"Kreisfreie_Stadt"},"federalState":{"key":"09","name":"Bayern"}},{"name":"Neutorgraben","postalCode":"94032","locality":"Passau","municipality":{"key":"09262000","name":"Passau","type":"Kreisfreie_Stadt"},"district":{"key":"09262","name":"Passau","type":"Kreisfreie_Stadt"},"federalState":{"key":"09","name":"Bayern"}},{"name":"Nibelungenstr.","postalCode":"94032","locality":"Passau","municipality":{"key":"09262000","name":"Passau","type":"Kreisfreie_Stadt"},"district":{"key":"09262","name":"Passau","type":"Kreisfreie_Stadt"},"federalState":{"key":"09","name":"Bayern"}},{"name":"Niederharter Str.","postalCode":"94034","locality":"Passau","municipality":{"key":"09262000","name":"Passau","type":"Kreisfreie_Stadt"},"district":{"key":"09262","name":"Passau","type":"Kreisfreie_Stadt"},"federalState":{"key":"09","name":"Bayern"}},{"name":"Niedersatzbach","postalCode":"94034","locality":"Passau","municipality":{"key":"09262000","name":"Passau","type":"Kreisfreie_Stadt"},"district":{"key":"09262","name":"Passau","type":"Kreisfreie_Stadt"},"federalState":{"key":"09","name":"Bayern"}},{"name":"Nikolastr.","postalCode":"94032","locality":"Passau","municipality":{"key":"09262000","name":"Passau","type":"Kreisfreie_Stadt"},"district":{"key":"09262","name":"Passau","type":"Kreisfreie_Stadt"},"federalState":{"key":"09","name":"Bayern"}},{"name":"Oberlehrer-Haiböck-Str.","postalCode":"94110","locality":"Wegscheid","municipality":{"key":"09275156","name":"Wegscheid, M","type":"Markt"},"district":{"key":"09275","name":"Passau","type":"Landkreis"},"federalState":{"key":"09","name":"Bayern"}},{"name":"Passauer Str.","postalCode":"94110","locality":"Wegscheid","municipality":{"key":"09275156","name":"Wegscheid, M","type":"Markt"},"district":{"key":"09275","name":"Passau","type":"Landkreis"},"federalState":{"key":"09","name":"Bayern"}},{"name":"Pfarrer-Hannes-Str.","postalCode":"94110","locality":"Wegscheid","municipality":{"key":"09275156","name":"Wegscheid, M","type":"Markt"},"district":{"key":"09275","name":"Passau","type":"Landkreis"},"federalState":{"key":"09","name":"Bayern"}},{"name":"Pfarrer-Schwarzbauer-Str.","postalCode":"94110","locality":"Wegscheid","municipality":{"key":"09275156","name":"Wegscheid, M","type":"Markt"},"district":{"key":"09275","name":"Passau","type":"Landkreis"},"federalState":{"key":"09","name":"Bayern"}},{"name":"Pointenweg","postalCode":"94110","locality":"Wegscheid","municipality":{"key":"09275156","name":"Wegscheid, M","type":"Markt"},"district":{"key":"09275","name":"Passau","type":"Landkreis"},"federalState":{"key":"09","name":"Bayern"}},{"name":"Quellenweg","postalCode":"94036","locality":"Passau","municipality":{"key":"09262000","name":"Passau","type":"Kreisfreie_Stadt"},"district":{"key":"09262","name":"Passau","type":"Kreisfreie_Stadt"},"federalState":{"key":"09","name":"Bayern"}},{"name":"Raiffeisenstr.","postalCode":"94110","locality":"Wegscheid","municipality":{"key":"09275156","name":"Wegscheid, M","type":"Markt"},"district":{"key":"09275","name":"Passau","type":"Landkreis"},"federalState":{"key":"09","name":"Bayern"}},{"name":"Rannafeld","postalCode":"94110","locality":"Wegscheid","municipality":{"key":"09275156","name":"Wegscheid, M","type":"Markt"},"district":{"key":"09275","name":"Passau","type":"Landkreis"},"federalState":{"key":"09","name":"Bayern"}},{"name":"Rosengasse","postalCode":"94110","locality":"Wegscheid","municipality":{"key":"09275156","name":"Wegscheid, M","type":"Markt"},"district":{"key":"09275","name":"Passau","type":"Landkreis"},"federalState":{"key":"09","name":"Bayern"}},{"name":"Sägeweg","postalCode":"94110","locality":"Wegscheid","municipality":{"key":"09275156","name":"Wegscheid, M","type":"Markt"},"district":{"key":"09275","name":"Passau","type":"Landkreis"},"federalState":{"key":"09","name":"Bayern"}},{"name":"Sattlerbrücke","postalCode":"94110","locality":"Wegscheid","municipality":{"key":"09275156","name":"Wegscheid, M","type":"Markt"},"district":{"key":"09275","name":"Passau","type":"Landkreis"},"federalState":{"key":"09","name":"Bayern"}},{"name":"Säumerweg","postalCode":"94110","locality":"Wegscheid","municipality":{"key":"09275156","name":"Wegscheid, M","type":"Markt"},"district":{"key":"09275","name":"Passau","type":"Landkreis"},"federalState":{"key":"09","name":"Bayern"}},{"name":"Schulweg","postalCode":"94110","locality":"Wegscheid","municipality":{"key":"09275156","name":"Wegscheid, M","type":"Markt"},"district":{"key":"09275","name":"Passau","type":"Landkreis"},"federalState":{"key":"09","name":"Bayern"}},{"name":"Seerundweg Rannasee","postalCode":"94110","locality":"Wegscheid","municipality":{"key":"09275156","name":"Wegscheid, M","type":"Markt"},"district":{"key":"09275","name":"Passau","type":"Landkreis"},"federalState":{"key":"09","name":"Bayern"}},{"name":"Siedlungsstr.","postalCode":"94110","locality":"Wegscheid","municipality":{"key":"09275156","name":"Wegscheid, M","type":"Markt"},"district":{"key":"09275","name":"Passau","type":"Landkreis"},"federalState":{"key":"09","name":"Bayern"}},{"name":"Spitalweg","postalCode":"94110","locality":"Wegscheid","municipality":{"key":"09275156","name":"Wegscheid, M","type":"Markt"},"district":{"key":"09275","name":"Passau","type":"Landkreis"},"federalState":{"key":"09","name":"Bayern"}},{"name":"Steinmühl","postalCode":"94110","locality":"Wegscheid","municipality":{"key":"09275156","name":"Wegscheid, M","type":"Markt"},"district":{"key":"09275","name":"Passau","type":"Landkreis"},"federalState":{"key":"09","name":"Bayern"}},{"name":"Tannenleite","postalCode":"94034","locality":"Passau","municipality":{"key":"09262000","name":"Passau","type":"Kreisfreie_Stadt"},"district":{"key":"09262","name":"Passau","type":"Kreisfreie_Stadt"},"federalState":{"key":"09","name":"Bayern"}},{"name":"Tannenstr.","postalCode":"94034","locality":"Passau","municipality":{"key":"09262000","name":"Passau","type":"Kreisfreie_Stadt"},"district":{"key":"09262","name":"Passau","type":"Kreisfreie_Stadt"},"federalState":{"key":"09","name":"Bayern"}},{"name":"Thanöd","postalCode":"94034","locality":"Passau","municipality":{"key":"09262000","name":"Passau","type":"Kreisfreie_Stadt"},"district":{"key":"09262","name":"Passau","type":"Kreisfreie_Stadt"},"federalState":{"key":"09","name":"Bayern"}},{"name":"Theresienstr.","postalCode":"94032","locality":"Passau","municipality":{"key":"09262000","name":"Passau","type":"Kreisfreie_Stadt"},"district":{"key":"09262","name":"Passau","type":"Kreisfreie_Stadt"},"federalState":{"key":"09","name":"Bayern"}},{"name":"Tittlinger Str.","postalCode":"94034","locality":"Passau","municipality":{"key":"09262000","name":"Passau","type":"Kreisfreie_Stadt"},"district":{"key":"09262","name":"Passau","type":"Kreisfreie_Stadt"},"federalState":{"key":"09","name":"Bayern"}},{"name":"Toblacher Str.","postalCode":"94036","locality":"Passau","municipality":{"key":"09262000","name":"Passau","type":"Kreisfreie_Stadt"},"district":{"key":"09262","name":"Passau","type":"Kreisfreie_Stadt"},"federalState":{"key":"09","name":"Bayern"}},{"name":"Traminer Str.","postalCode":"94036","locality":"Passau","municipality":{"key":"09262000","name":"Passau","type":"Kreisfreie_Stadt"},"district":{"key":"09262","name":"Passau","type":"Kreisfreie_Stadt"},"federalState":{"key":"09","name":"Bayern"}},{"name":"Triftsperre","postalCode":"94034","locality":"Passau","municipality":{"key":"09262000","name":"Passau","type":"Kreisfreie_Stadt"},"district":{"key":"09262","name":"Passau","type":"Kreisfreie_Stadt"},"federalState":{"key":"09","name":"Bayern"}},{"name":"Trimm dich Pfad","postalCode":"94034","locality":"Passau","municipality":{"key":"09262000","name":"Passau","type":"Kreisfreie_Stadt"},"district":{"key":"09262","name":"Passau","type":"Kreisfreie_Stadt"},"federalState":{"key":"09","name":"Bayern"}},{"name":"Tulpenstr.","postalCode":"94034","locality":"Passau","municipality":{"key":"09262000","name":"Passau","type":"Kreisfreie_Stadt"},"district":{"key":"09262","name":"Passau","type":"Kreisfreie_Stadt"},"federalState":{"key":"09","name":"Bayern"}},{"name":"Unterdietzing","postalCode":"94034","locality":"Passau","municipality":{"key":"09262000","name":"Passau","type":"Kreisfreie_Stadt"},"district":{"key":"09262","name":"Passau","type":"Kreisfreie_Stadt"},"federalState":{"key":"09","name":"Bayern"}},{"name":"Untere Bahnhofstr.","postalCode":"94032","locality":"Passau","municipality":{"key":"09262000","name":"Passau","type":"Kreisfreie_Stadt"},"district":{"key":"09262","name":"Passau","type":"Kreisfreie_Stadt"},"federalState":{"key":"09","name":"Bayern"}},{"name":"Untere Donaulände","postalCode":"94032","locality":"Passau","municipality":{"key":"09262000","name":"Passau","type":"Kreisfreie_Stadt"},"district":{"key":"09262","name":"Passau","type":"Kreisfreie_Stadt"},"federalState":{"key":"09","name":"Bayern"}},{"name":"Unterer Alleenweg","postalCode":"94034","locality":"Passau","municipality":{"key":"09262000","name":"Passau","type":"Kreisfreie_Stadt"},"district":{"key":"09262","name":"Passau","type":"Kreisfreie_Stadt"},"federalState":{"key":"09","name":"Bayern"}},{"name":"Unterer Klosterholzweg","postalCode":"94034","locality":"Passau","municipality":{"key":"09262000","name":"Passau","type":"Kreisfreie_Stadt"},"district":{"key":"09262","name":"Passau","type":"Kreisfreie_Stadt"},"federalState":{"key":"09","name":"Bayern"}},{"name":"Unterer Sand","postalCode":"94032","locality":"Passau","municipality":{"key":"09262000","name":"Passau","type":"Kreisfreie_Stadt"},"district":{"key":"09262","name":"Passau","type":"Kreisfreie_Stadt"},"federalState":{"key":"09","name":"Bayern"}},{"name":"Untere Schneckenbergstr.","postalCode":"94034","locality":"Passau","municipality":{"key":"09262000","name":"Passau","type":"Kreisfreie_Stadt"},"district":{"key":"09262","name":"Passau","type":"Kreisfreie_Stadt"},"federalState":{"key":"09","name":"Bayern"}},{"name":"Unteröd i.Ilztal","postalCode":"94034","locality":"Passau","municipality":{"key":"09262000","name":"Passau","type":"Kreisfreie_Stadt"},"district":{"key":"09262","name":"Passau","type":"Kreisfreie_Stadt"},"federalState":{"key":"09","name":"Bayern"}},{"name":"Unteröd im Ilztal","postalCode":"94034","locality":"Passau","municipality":{"key":"09262000","name":"Passau","type":"Kreisfreie_Stadt"},"district":{"key":"09262","name":"Passau","type":"Kreisfreie_Stadt"},"federalState":{"key":"09","name":"Bayern"}},{"name":"Untersölden","postalCode":"94034","locality":"Passau","municipality":{"key":"09262000","name":"Passau","type":"Kreisfreie_Stadt"},"district":{"key":"09262","name":"Passau","type":"Kreisfreie_Stadt"},"federalState":{"key":"09","name":"Bayern"}},{"name":"Valentinweg","postalCode":"94034","locality":"Passau","municipality":{"key":"09262000","name":"Passau","type":"Kreisfreie_Stadt"},"district":{"key":"09262","name":"Passau","type":"Kreisfreie_Stadt"},"federalState":{"key":"09","name":"Bayern"}},{"name":"Verbindungsweg Bramerhof - Stromlänge","postalCode":"94034","locality":"Passau","municipality":{"key":"09262000","name":"Passau","type":"Kreisfreie_Stadt"},"district":{"key":"09262","name":"Passau","type":"Kreisfreie_Stadt"},"federalState":{"key":"09","name":"Bayern"}},{"name":"Verbindungsweg Ilzleite - Bramerhof","postalCode":"94034","locality":"Passau","municipality":{"key":"09262000","name":"Passau","type":"Kreisfreie_Stadt"},"district":{"key":"09262","name":"Passau","type":"Kreisfreie_Stadt"},"federalState":{"key":"09","name":"Bayern"}},{"name":"Vilshofener Str.","postalCode":"94034","locality":"Passau","municipality":{"key":"09262000","name":"Passau","type":"Kreisfreie_Stadt"},"district":{"key":"09262","name":"Passau","type":"Kreisfreie_Stadt"},"federalState":{"key":"09","name":"Bayern"}},{"name":"Vogelweiderstr.","postalCode":"94036","locality":"Passau","municipality":{"key":"09262000","name":"Passau","type":"Kreisfreie_Stadt"},"district":{"key":"09262","name":"Passau","type":"Kreisfreie_Stadt"},"federalState":{"key":"09","name":"Bayern"}},{"name":"Voggenberger Weg","postalCode":"94034","locality":"Passau","municipality":{"key":"09262000","name":"Passau","type":"Kreisfreie_Stadt"},"district":{"key":"09262","name":"Passau","type":"Kreisfreie_Stadt"},"federalState":{"key":"09","name":"Bayern"}},{"name":"Voglau","postalCode":"94032","locality":"Passau","municipality":{"key":"09262000","name":"Passau","type":"Kreisfreie_Stadt"},"district":{"key":"09262","name":"Passau","type":"Kreisfreie_Stadt"},"federalState":{"key":"09","name":"Bayern"}},{"name":"Von-Kramer-Str.","postalCode":"94034","locality":"Passau","municipality":{"key":"09262000","name":"Passau","type":"Kreisfreie_Stadt"},"district":{"key":"09262","name":"Passau","type":"Kreisfreie_Stadt"},"federalState":{"key":"09","name":"Bayern"}},{"name":"Von-Rudhart-Str.","postalCode":"94032","locality":"Passau","municipality":{"key":"09262000","name":"Passau","type":"Kreisfreie_Stadt"},"district":{"key":"09262","name":"Passau","type":"Kreisfreie_Stadt"},"federalState":{"key":"09","name":"Bayern"}},{"name":"Vornholzstr.","postalCode":"94036","locality":"Passau","municipality":{"key":"09262000","name":"Passau","type":"Kreisfreie_Stadt"},"district":{"key":"09262","name":"Passau","type":"Kreisfreie_Stadt"},"federalState":{"key":"09","name":"Bayern"}},{"name":"Waldlmühle","postalCode":"94110","locality":"Wegscheid","municipality":{"key":"09275156","name":"Wegscheid, M","type":"Markt"},"district":{"key":"09275","name":"Passau","type":"Landkreis"},"federalState":{"key":"09","name":"Bayern"}},{"name":"Waldweg","postalCode":"94110","locality":"Wegscheid","municipality":{"key":"09275156","name":"Wegscheid, M","type":"Markt"},"district":{"key":"09275","name":"Passau","type":"Landkreis"},"federalState":{"key":"09","name":"Bayern"}},{"name":"Watzlikweg","postalCode":"94110","locality":"Wegscheid","municipality":{"key":"09275156","name":"Wegscheid, M","type":"Markt"},"district":{"key":"09275","name":"Passau","type":"Landkreis"},"federalState":{"key":"09","name":"Bayern"}},{"name":"Weberstr.","postalCode":"94110","locality":"Wegscheid","municipality":{"key":"09275156","name":"Wegscheid, M","type":"Markt"},"district":{"key":"09275","name":"Passau","type":"Landkreis"},"federalState":{"key":"09","name":"Bayern"}},{"name":"Zellergasse","postalCode":"94110","locality":"Wegscheid","municipality":{"key":"09275156","name":"Wegscheid, M","type":"Markt"},"district":{"key":"09275","name":"Passau","type":"Landkreis"},"federalState":{"key":"09","name":"Bayern"}},{"name":"Äußere Spitalhofstr.","postalCode":"94036","locality":"Passau","municipality":{"key":"09262000","name":"Passau","type":"Kreisfreie_Stadt"},"district":{"key":"09262","name":"Passau","type":"Kreisfreie_Stadt"},"federalState":{"key":"09","name":"Bayern"}},]