[{"key":"10218851","name":"Allmend","postalCode":"3368","locality":"Bleienbach","commune":{"key":"324","name":"Bleienbach","shortName":"Bleienbach"},"district":{"key":"244","name":"Verwaltungskreis Oberaargau"},"canton":{"key":"2","code":"BE","name":"Bern / Berne"},"status":"Real"},{"key":"10138119","name":"Bachsprenge","postalCode":"3368","locality":"Bleienbach","commune":{"key":"324","name":"Bleienbach","shortName":"Bleienbach"},"district":{"key":"244","name":"Verwaltungskreis Oberaargau"},"canton":{"key":"2","code":"BE","name":"Bern / Berne"},"status":"Real"},{"key":"10062562","name":"Brunnacker","postalCode":"3368","locality":"Bleienbach","commune":{"key":"324","name":"Bleienbach","shortName":"Bleienbach"},"district":{"key":"244","name":"Verwaltungskreis Oberaargau"},"canton":{"key":"2","code":"BE","name":"Bern / Berne"},"status":"Real"},{"key":"10009416","name":"Dorfstrasse","postalCode":"3368","locality":"Bleienbach","commune":{"key":"324","name":"Bleienbach","shortName":"Bleienbach"},"district":{"key":"244","name":"Verwaltungskreis Oberaargau"},"canton":{"key":"2","code":"BE","name":"Bern / Berne"},"status":"Real"},{"key":"10218855","name":"Egg-Aeschenbach","postalCode":"3368","locality":"Bleienbach","commune":{"key":"324","name":"Bleienbach","shortName":"Bleienbach"},"district":{"key":"244","name":"Verwaltungskreis Oberaargau"},"canton":{"key":"2","code":"BE","name":"Bern / Berne"},"status":"Real"},{"key":"10109085","name":"Eichi","postalCode":"3368","locality":"Bleienbach","commune":{"key":"324","name":"Bleienbach","shortName":"Bleienbach"},"district":{"key":"244","name":"Verwaltungskreis Oberaargau"},"canton":{"key":"2","code":"BE","name":"Bern / Berne"},"status":"Real"},{"key":"10127843","name":"Ey","postalCode":"3368","locality":"Bleienbach","commune":{"key":"324","name":"Bleienbach","shortName":"Bleienbach"},"district":{"key":"244","name":"Verwaltungskreis Oberaargau"},"canton":{"key":"2","code":"BE","name":"Bern / Berne"},"status":"Real"},{"key":"10138115","name":"Flugplatz","postalCode":"3368","locality":"Bleienbach","commune":{"key":"324","name":"Bleienbach","shortName":"Bleienbach"},"district":{"key":"244","name":"Verwaltungskreis Oberaargau"},"canton":{"key":"2","code":"BE","name":"Bern / Berne"},"status":"Real"},{"key":"10182590","name":"Friedhofweg","postalCode":"3368","locality":"Bleienbach","commune":{"key":"324","name":"Bleienbach","shortName":"Bleienbach"},"district":{"key":"244","name":"Verwaltungskreis Oberaargau"},"canton":{"key":"2","code":"BE","name":"Bern / Berne"},"status":"Real"},{"key":"10085096","name":"Gässli","postalCode":"3368","locality":"Bleienbach","commune":{"key":"324","name":"Bleienbach","shortName":"Bleienbach"},"district":{"key":"244","name":"Verwaltungskreis Oberaargau"},"canton":{"key":"2","code":"BE","name":"Bern / Berne"},"status":"Real"},{"key":"10218860","name":"Grauenstein","postalCode":"3368","locality":"Bleienbach","commune":{"key":"324","name":"Bleienbach","shortName":"Bleienbach"},"district":{"key":"244","name":"Verwaltungskreis Oberaargau"},"canton":{"key":"2","code":"BE","name":"Bern / Berne"},"status":"Real"},{"key":"10009417","name":"Katzacker","postalCode":"3368","locality":"Bleienbach","commune":{"key":"324","name":"Bleienbach","shortName":"Bleienbach"},"district":{"key":"244","name":"Verwaltungskreis Oberaargau"},"canton":{"key":"2","code":"BE","name":"Bern / Berne"},"status":"Real"},{"key":"10085097","name":"Kirchgasse","postalCode":"3368","locality":"Bleienbach","commune":{"key":"324","name":"Bleienbach","shortName":"Bleienbach"},"district":{"key":"244","name":"Verwaltungskreis Oberaargau"},"canton":{"key":"2","code":"BE","name":"Bern / Berne"},"status":"Real"},{"key":"10138114","name":"Langenthalstrasse","postalCode":"3368","locality":"Bleienbach","commune":{"key":"324","name":"Bleienbach","shortName":"Bleienbach"},"district":{"key":"244","name":"Verwaltungskreis Oberaargau"},"canton":{"key":"2","code":"BE","name":"Bern / Berne"},"status":"Real"},{"key":"10138117","name":"Längmatt","postalCode":"3368","locality":"Bleienbach","commune":{"key":"324","name":"Bleienbach","shortName":"Bleienbach"},"district":{"key":"244","name":"Verwaltungskreis Oberaargau"},"canton":{"key":"2","code":"BE","name":"Bern / Berne"},"status":"Real"},{"key":"10009418","name":"Lehmgrube","postalCode":"3368","locality":"Bleienbach","commune":{"key":"324","name":"Bleienbach","shortName":"Bleienbach"},"district":{"key":"244","name":"Verwaltungskreis Oberaargau"},"canton":{"key":"2","code":"BE","name":"Bern / Berne"},"status":"Real"},{"key":"10062563","name":"Lindenfeld","postalCode":"3368","locality":"Bleienbach","commune":{"key":"324","name":"Bleienbach","shortName":"Bleienbach"},"district":{"key":"244","name":"Verwaltungskreis Oberaargau"},"canton":{"key":"2","code":"BE","name":"Bern / Berne"},"status":"Real"},{"key":"10054952","name":"Lotzwilstrasse","postalCode":"3368","locality":"Bleienbach","commune":{"key":"324","name":"Bleienbach","shortName":"Bleienbach"},"district":{"key":"244","name":"Verwaltungskreis Oberaargau"},"canton":{"key":"2","code":"BE","name":"Bern / Berne"},"status":"Real"},{"key":"10218863","name":"Musterplatz","postalCode":"3368","locality":"Bleienbach","commune":{"key":"324","name":"Bleienbach","shortName":"Bleienbach"},"district":{"key":"244","name":"Verwaltungskreis Oberaargau"},"canton":{"key":"2","code":"BE","name":"Bern / Berne"},"status":"Real"},{"key":"10234916","name":"Neumatt","postalCode":"3368","locality":"Bleienbach","commune":{"key":"324","name":"Bleienbach","shortName":"Bleienbach"},"district":{"key":"244","name":"Verwaltungskreis Oberaargau"},"canton":{"key":"2","code":"BE","name":"Bern / Berne"},"status":"Planned"},{"key":"10062564","name":"Neustrasse","postalCode":"3368","locality":"Bleienbach","commune":{"key":"324","name":"Bleienbach","shortName":"Bleienbach"},"district":{"key":"244","name":"Verwaltungskreis Oberaargau"},"canton":{"key":"2","code":"BE","name":"Bern / Berne"},"status":"Real"},{"key":"10182295","name":"Oberbützberg","postalCode":"3368","locality":"Bleienbach","commune":{"key":"324","name":"Bleienbach","shortName":"Bleienbach"},"district":{"key":"244","name":"Verwaltungskreis Oberaargau"},"canton":{"key":"2","code":"BE","name":"Bern / Berne"},"status":"Real"},{"key":"10177037","name":"Oberdorf","postalCode":"3368","locality":"Bleienbach","commune":{"key":"324","name":"Bleienbach","shortName":"Bleienbach"},"district":{"key":"244","name":"Verwaltungskreis Oberaargau"},"canton":{"key":"2","code":"BE","name":"Bern / Berne"},"status":"Real"},{"key":"10102628","name":"Rütschelenstrasse","postalCode":"3368","locality":"Bleienbach","commune":{"key":"324","name":"Bleienbach","shortName":"Bleienbach"},"district":{"key":"244","name":"Verwaltungskreis Oberaargau"},"canton":{"key":"2","code":"BE","name":"Bern / Berne"},"status":"Real"},{"key":"10190402","name":"Schindelrain","postalCode":"3368","locality":"Bleienbach","commune":{"key":"324","name":"Bleienbach","shortName":"Bleienbach"},"district":{"key":"244","name":"Verwaltungskreis Oberaargau"},"canton":{"key":"2","code":"BE","name":"Bern / Berne"},"status":"Real"},{"key":"10138118","name":"Thörigenstrasse","postalCode":"3368","locality":"Bleienbach","commune":{"key":"324","name":"Bleienbach","shortName":"Bleienbach"},"district":{"key":"244","name":"Verwaltungskreis Oberaargau"},"canton":{"key":"2","code":"BE","name":"Bern / Berne"},"status":"Real"},{"key":"10138116","name":"Thunstettenstrasse","postalCode":"3368","locality":"Bleienbach","commune":{"key":"324","name":"Bleienbach","shortName":"Bleienbach"},"district":{"key":"244","name":"Verwaltungskreis Oberaargau"},"canton":{"key":"2","code":"BE","name":"Bern / Berne"},"status":"Real"},{"key":"10218872","name":"Trubberg","postalCode":"3368","locality":"Bleienbach","commune":{"key":"324","name":"Bleienbach","shortName":"Bleienbach"},"district":{"key":"244","name":"Verwaltungskreis Oberaargau"},"canton":{"key":"2","code":"BE","name":"Bern / Berne"},"status":"Real"},{"key":"10009496","name":"Weidhof","postalCode":"3368","locality":"Bleienbach","commune":{"key":"324","name":"Bleienbach","shortName":"Bleienbach"},"district":{"key":"244","name":"Verwaltungskreis Oberaargau"},"canton":{"key":"2","code":"BE","name":"Bern / Berne"},"status":"Real"},]