[{"name":"Adalbert-Stifter-Str.","postalCode":"71672","locality":"Marbach am Neckar","municipality":{"key":"08118049","name":"Marbach am Neckar, Stadt","type":"Stadt"},"district":{"key":"08118","name":"Ludwigsburg","type":"Landkreis"},"federalState":{"key":"08","name":"Baden-Württemberg"}},{"name":"Affalterbacher Str.","postalCode":"71672","locality":"Marbach am Neckar","municipality":{"key":"08118049","name":"Marbach am Neckar, Stadt","type":"Stadt"},"district":{"key":"08118","name":"Ludwigsburg","type":"Landkreis"},"federalState":{"key":"08","name":"Baden-Württemberg"}},{"name":"Ahornweg","postalCode":"71672","locality":"Marbach am Neckar","municipality":{"key":"08118049","name":"Marbach am Neckar, Stadt","type":"Stadt"},"district":{"key":"08118","name":"Ludwigsburg","type":"Landkreis"},"federalState":{"key":"08","name":"Baden-Württemberg"}},{"name":"Alemannenstr.","postalCode":"71672","locality":"Marbach am Neckar","municipality":{"key":"08118049","name":"Marbach am Neckar, Stadt","type":"Stadt"},"district":{"key":"08118","name":"Ludwigsburg","type":"Landkreis"},"federalState":{"key":"08","name":"Baden-Württemberg"}},{"name":"Alleenstr.","postalCode":"71672","locality":"Marbach am Neckar","municipality":{"key":"08118049","name":"Marbach am Neckar, Stadt","type":"Stadt"},"district":{"key":"08118","name":"Ludwigsburg","type":"Landkreis"},"federalState":{"key":"08","name":"Baden-Württemberg"}},{"name":"Am alten Kraftwerk","postalCode":"71672","locality":"Marbach am Neckar","municipality":{"key":"08118049","name":"Marbach am Neckar, Stadt","type":"Stadt"},"district":{"key":"08118","name":"Ludwigsburg","type":"Landkreis"},"federalState":{"key":"08","name":"Baden-Württemberg"}},{"name":"Am alten Markt","postalCode":"71672","locality":"Marbach am Neckar","municipality":{"key":"08118049","name":"Marbach am Neckar, Stadt","type":"Stadt"},"district":{"key":"08118","name":"Ludwigsburg","type":"Landkreis"},"federalState":{"key":"08","name":"Baden-Württemberg"}},{"name":"Am Kreuzweg","postalCode":"71672","locality":"Marbach am Neckar","municipality":{"key":"08118049","name":"Marbach am Neckar, Stadt","type":"Stadt"},"district":{"key":"08118","name":"Ludwigsburg","type":"Landkreis"},"federalState":{"key":"08","name":"Baden-Württemberg"}},{"name":"Am Leiselstein","postalCode":"71672","locality":"Marbach am Neckar","municipality":{"key":"08118049","name":"Marbach am Neckar, Stadt","type":"Stadt"},"district":{"key":"08118","name":"Ludwigsburg","type":"Landkreis"},"federalState":{"key":"08","name":"Baden-Württemberg"}},{"name":"Amselweg","postalCode":"71672","locality":"Marbach am Neckar","municipality":{"key":"08118049","name":"Marbach am Neckar, Stadt","type":"Stadt"},"district":{"key":"08118","name":"Ludwigsburg","type":"Landkreis"},"federalState":{"key":"08","name":"Baden-Württemberg"}},{"name":"Anemonenweg","postalCode":"71672","locality":"Marbach am Neckar","municipality":{"key":"08118049","name":"Marbach am Neckar, Stadt","type":"Stadt"},"district":{"key":"08118","name":"Ludwigsburg","type":"Landkreis"},"federalState":{"key":"08","name":"Baden-Württemberg"}},{"name":"Aspergweg","postalCode":"71672","locality":"Marbach am Neckar","municipality":{"key":"08118049","name":"Marbach am Neckar, Stadt","type":"Stadt"},"district":{"key":"08118","name":"Ludwigsburg","type":"Landkreis"},"federalState":{"key":"08","name":"Baden-Württemberg"}},{"name":"Asternweg","postalCode":"71672","locality":"Marbach am Neckar","municipality":{"key":"08118049","name":"Marbach am Neckar, Stadt","type":"Stadt"},"district":{"key":"08118","name":"Ludwigsburg","type":"Landkreis"},"federalState":{"key":"08","name":"Baden-Württemberg"}},{"name":"Atzenweg","postalCode":"71672","locality":"Marbach am Neckar","municipality":{"key":"08118049","name":"Marbach am Neckar, Stadt","type":"Stadt"},"district":{"key":"08118","name":"Ludwigsburg","type":"Landkreis"},"federalState":{"key":"08","name":"Baden-Württemberg"}},{"name":"Auerbachstr.","postalCode":"71672","locality":"Marbach am Neckar","municipality":{"key":"08118049","name":"Marbach am Neckar, Stadt","type":"Stadt"},"district":{"key":"08118","name":"Ludwigsburg","type":"Landkreis"},"federalState":{"key":"08","name":"Baden-Württemberg"}},{"name":"Auf den Felsen","postalCode":"71672","locality":"Marbach am Neckar","municipality":{"key":"08118049","name":"Marbach am Neckar, Stadt","type":"Stadt"},"district":{"key":"08118","name":"Ludwigsburg","type":"Landkreis"},"federalState":{"key":"08","name":"Baden-Württemberg"}},{"name":"Auf der Stadtmauer","postalCode":"71672","locality":"Marbach am Neckar","municipality":{"key":"08118049","name":"Marbach am Neckar, Stadt","type":"Stadt"},"district":{"key":"08118","name":"Ludwigsburg","type":"Landkreis"},"federalState":{"key":"08","name":"Baden-Württemberg"}},{"name":"August-Lämmle-Str.","postalCode":"71672","locality":"Marbach am Neckar","municipality":{"key":"08118049","name":"Marbach am Neckar, Stadt","type":"Stadt"},"district":{"key":"08118","name":"Ludwigsburg","type":"Landkreis"},"federalState":{"key":"08","name":"Baden-Württemberg"}},{"name":"Bachstr.","postalCode":"71672","locality":"Marbach am Neckar","municipality":{"key":"08118049","name":"Marbach am Neckar, Stadt","type":"Stadt"},"district":{"key":"08118","name":"Ludwigsburg","type":"Landkreis"},"federalState":{"key":"08","name":"Baden-Württemberg"}},{"name":"Backnanger Str.","postalCode":"71672","locality":"Marbach am Neckar","municipality":{"key":"08118049","name":"Marbach am Neckar, Stadt","type":"Stadt"},"district":{"key":"08118","name":"Ludwigsburg","type":"Landkreis"},"federalState":{"key":"08","name":"Baden-Württemberg"}},{"name":"Bad-Berka-Weg","postalCode":"71672","locality":"Marbach am Neckar","municipality":{"key":"08118049","name":"Marbach am Neckar, Stadt","type":"Stadt"},"district":{"key":"08118","name":"Ludwigsburg","type":"Landkreis"},"federalState":{"key":"08","name":"Baden-Württemberg"}},{"name":"Bahnhofstr.","postalCode":"71672","locality":"Marbach am Neckar","municipality":{"key":"08118049","name":"Marbach am Neckar, Stadt","type":"Stadt"},"district":{"key":"08118","name":"Ludwigsburg","type":"Landkreis"},"federalState":{"key":"08","name":"Baden-Württemberg"}},{"name":"Bangertstr.","postalCode":"71672","locality":"Marbach am Neckar","municipality":{"key":"08118049","name":"Marbach am Neckar, Stadt","type":"Stadt"},"district":{"key":"08118","name":"Ludwigsburg","type":"Landkreis"},"federalState":{"key":"08","name":"Baden-Württemberg"}},{"name":"Bärengasse","postalCode":"71672","locality":"Marbach am Neckar","municipality":{"key":"08118049","name":"Marbach am Neckar, Stadt","type":"Stadt"},"district":{"key":"08118","name":"Ludwigsburg","type":"Landkreis"},"federalState":{"key":"08","name":"Baden-Württemberg"}},{"name":"Beethovenstr.","postalCode":"71672","locality":"Marbach am Neckar","municipality":{"key":"08118049","name":"Marbach am Neckar, Stadt","type":"Stadt"},"district":{"key":"08118","name":"Ludwigsburg","type":"Landkreis"},"federalState":{"key":"08","name":"Baden-Württemberg"}},{"name":"Benninger Str.","postalCode":"71672","locality":"Marbach am Neckar","municipality":{"key":"08118049","name":"Marbach am Neckar, Stadt","type":"Stadt"},"district":{"key":"08118","name":"Ludwigsburg","type":"Landkreis"},"federalState":{"key":"08","name":"Baden-Württemberg"}},{"name":"Benningweg","postalCode":"71672","locality":"Marbach am Neckar","municipality":{"key":"08118049","name":"Marbach am Neckar, Stadt","type":"Stadt"},"district":{"key":"08118","name":"Ludwigsburg","type":"Landkreis"},"federalState":{"key":"08","name":"Baden-Württemberg"}},{"name":"Benzstr.","postalCode":"71672","locality":"Marbach am Neckar","municipality":{"key":"08118049","name":"Marbach am Neckar, Stadt","type":"Stadt"},"district":{"key":"08118","name":"Ludwigsburg","type":"Landkreis"},"federalState":{"key":"08","name":"Baden-Württemberg"}},{"name":"Bergstr.","postalCode":"71672","locality":"Marbach am Neckar","municipality":{"key":"08118049","name":"Marbach am Neckar, Stadt","type":"Stadt"},"district":{"key":"08118","name":"Ludwigsburg","type":"Landkreis"},"federalState":{"key":"08","name":"Baden-Württemberg"}},{"name":"Billsbergweg","postalCode":"71672","locality":"Marbach am Neckar","municipality":{"key":"08118049","name":"Marbach am Neckar, Stadt","type":"Stadt"},"district":{"key":"08118","name":"Ludwigsburg","type":"Landkreis"},"federalState":{"key":"08","name":"Baden-Württemberg"}},{"name":"Birkenweg","postalCode":"71672","locality":"Marbach am Neckar","municipality":{"key":"08118049","name":"Marbach am Neckar, Stadt","type":"Stadt"},"district":{"key":"08118","name":"Ludwigsburg","type":"Landkreis"},"federalState":{"key":"08","name":"Baden-Württemberg"}},{"name":"Blankensteinstr.","postalCode":"71672","locality":"Marbach am Neckar","municipality":{"key":"08118049","name":"Marbach am Neckar, Stadt","type":"Stadt"},"district":{"key":"08118","name":"Ludwigsburg","type":"Landkreis"},"federalState":{"key":"08","name":"Baden-Württemberg"}},{"name":"Bottwartalstr.","postalCode":"71672","locality":"Marbach am Neckar","municipality":{"key":"08118049","name":"Marbach am Neckar, Stadt","type":"Stadt"},"district":{"key":"08118","name":"Ludwigsburg","type":"Landkreis"},"federalState":{"key":"08","name":"Baden-Württemberg"}},{"name":"Brahmsweg","postalCode":"71672","locality":"Marbach am Neckar","municipality":{"key":"08118049","name":"Marbach am Neckar, Stadt","type":"Stadt"},"district":{"key":"08118","name":"Ludwigsburg","type":"Landkreis"},"federalState":{"key":"08","name":"Baden-Württemberg"}},{"name":"Bräunersbergweg","postalCode":"71672","locality":"Marbach am Neckar","municipality":{"key":"08118049","name":"Marbach am Neckar, Stadt","type":"Stadt"},"district":{"key":"08118","name":"Ludwigsburg","type":"Landkreis"},"federalState":{"key":"08","name":"Baden-Württemberg"}},{"name":"Brucknerstr.","postalCode":"71672","locality":"Marbach am Neckar","municipality":{"key":"08118049","name":"Marbach am Neckar, Stadt","type":"Stadt"},"district":{"key":"08118","name":"Ludwigsburg","type":"Landkreis"},"federalState":{"key":"08","name":"Baden-Württemberg"}},{"name":"Buchenweg","postalCode":"71672","locality":"Marbach am Neckar","municipality":{"key":"08118049","name":"Marbach am Neckar, Stadt","type":"Stadt"},"district":{"key":"08118","name":"Ludwigsburg","type":"Landkreis"},"federalState":{"key":"08","name":"Baden-Württemberg"}},{"name":"Büchlesweg","postalCode":"71672","locality":"Marbach am Neckar","municipality":{"key":"08118049","name":"Marbach am Neckar, Stadt","type":"Stadt"},"district":{"key":"08118","name":"Ludwigsburg","type":"Landkreis"},"federalState":{"key":"08","name":"Baden-Württemberg"}},{"name":"Burgunderstr.","postalCode":"71672","locality":"Marbach am Neckar","municipality":{"key":"08118049","name":"Marbach am Neckar, Stadt","type":"Stadt"},"district":{"key":"08118","name":"Ludwigsburg","type":"Landkreis"},"federalState":{"key":"08","name":"Baden-Württemberg"}},{"name":"Cäsar-Flaischlen-Str.","postalCode":"71672","locality":"Marbach am Neckar","municipality":{"key":"08118049","name":"Marbach am Neckar, Stadt","type":"Stadt"},"district":{"key":"08118","name":"Ludwigsburg","type":"Landkreis"},"federalState":{"key":"08","name":"Baden-Württemberg"}},{"name":"Charlottenstr.","postalCode":"71672","locality":"Marbach am Neckar","municipality":{"key":"08118049","name":"Marbach am Neckar, Stadt","type":"Stadt"},"district":{"key":"08118","name":"Ludwigsburg","type":"Landkreis"},"federalState":{"key":"08","name":"Baden-Württemberg"}},{"name":"Chemnitzer Weg","postalCode":"71672","locality":"Marbach am Neckar","municipality":{"key":"08118049","name":"Marbach am Neckar, Stadt","type":"Stadt"},"district":{"key":"08118","name":"Ludwigsburg","type":"Landkreis"},"federalState":{"key":"08","name":"Baden-Württemberg"}},{"name":"Cottaplatz","postalCode":"71672","locality":"Marbach am Neckar","municipality":{"key":"08118049","name":"Marbach am Neckar, Stadt","type":"Stadt"},"district":{"key":"08118","name":"Ludwigsburg","type":"Landkreis"},"federalState":{"key":"08","name":"Baden-Württemberg"}},{"name":"Daimlerstr.","postalCode":"71672","locality":"Marbach am Neckar","municipality":{"key":"08118049","name":"Marbach am Neckar, Stadt","type":"Stadt"},"district":{"key":"08118","name":"Ludwigsburg","type":"Landkreis"},"federalState":{"key":"08","name":"Baden-Württemberg"}},{"name":"Danneckerstr.","postalCode":"71672","locality":"Marbach am Neckar","municipality":{"key":"08118049","name":"Marbach am Neckar, Stadt","type":"Stadt"},"district":{"key":"08118","name":"Ludwigsburg","type":"Landkreis"},"federalState":{"key":"08","name":"Baden-Württemberg"}},{"name":"Dreibronnenstr.","postalCode":"71672","locality":"Marbach am Neckar","municipality":{"key":"08118049","name":"Marbach am Neckar, Stadt","type":"Stadt"},"district":{"key":"08118","name":"Ludwigsburg","type":"Landkreis"},"federalState":{"key":"08","name":"Baden-Württemberg"}},{"name":"Dresdener Weg","postalCode":"71672","locality":"Marbach am Neckar","municipality":{"key":"08118049","name":"Marbach am Neckar, Stadt","type":"Stadt"},"district":{"key":"08118","name":"Ludwigsburg","type":"Landkreis"},"federalState":{"key":"08","name":"Baden-Württemberg"}},{"name":"Egelseestr.","postalCode":"71672","locality":"Marbach am Neckar","municipality":{"key":"08118049","name":"Marbach am Neckar, Stadt","type":"Stadt"},"district":{"key":"08118","name":"Ludwigsburg","type":"Landkreis"},"federalState":{"key":"08","name":"Baden-Württemberg"}},{"name":"Egenackerweg","postalCode":"71672","locality":"Marbach am Neckar","municipality":{"key":"08118049","name":"Marbach am Neckar, Stadt","type":"Stadt"},"district":{"key":"08118","name":"Ludwigsburg","type":"Landkreis"},"federalState":{"key":"08","name":"Baden-Württemberg"}},{"name":"Eichenweg","postalCode":"71672","locality":"Marbach am Neckar","municipality":{"key":"08118049","name":"Marbach am Neckar, Stadt","type":"Stadt"},"district":{"key":"08118","name":"Ludwigsburg","type":"Landkreis"},"federalState":{"key":"08","name":"Baden-Württemberg"}},{"name":"Eichgraben","postalCode":"71672","locality":"Marbach am Neckar","municipality":{"key":"08118049","name":"Marbach am Neckar, Stadt","type":"Stadt"},"district":{"key":"08118","name":"Ludwigsburg","type":"Landkreis"},"federalState":{"key":"08","name":"Baden-Württemberg"}},{"name":"Eisenachweg","postalCode":"71672","locality":"Marbach am Neckar","municipality":{"key":"08118049","name":"Marbach am Neckar, Stadt","type":"Stadt"},"district":{"key":"08118","name":"Ludwigsburg","type":"Landkreis"},"federalState":{"key":"08","name":"Baden-Württemberg"}},{"name":"Erdmannhäuser Str.","postalCode":"71672","locality":"Marbach am Neckar","municipality":{"key":"08118049","name":"Marbach am Neckar, Stadt","type":"Stadt"},"district":{"key":"08118","name":"Ludwigsburg","type":"Landkreis"},"federalState":{"key":"08","name":"Baden-Württemberg"}},{"name":"Erfurter Weg","postalCode":"71672","locality":"Marbach am Neckar","municipality":{"key":"08118049","name":"Marbach am Neckar, Stadt","type":"Stadt"},"district":{"key":"08118","name":"Ludwigsburg","type":"Landkreis"},"federalState":{"key":"08","name":"Baden-Württemberg"}},{"name":"Erlenweg","postalCode":"71672","locality":"Marbach am Neckar","municipality":{"key":"08118049","name":"Marbach am Neckar, Stadt","type":"Stadt"},"district":{"key":"08118","name":"Ludwigsburg","type":"Landkreis"},"federalState":{"key":"08","name":"Baden-Württemberg"}},{"name":"Eschenweg","postalCode":"71672","locality":"Marbach am Neckar","municipality":{"key":"08118049","name":"Marbach am Neckar, Stadt","type":"Stadt"},"district":{"key":"08118","name":"Ludwigsburg","type":"Landkreis"},"federalState":{"key":"08","name":"Baden-Württemberg"}},{"name":"Etzwiesenweg","postalCode":"71672","locality":"Marbach am Neckar","municipality":{"key":"08118049","name":"Marbach am Neckar, Stadt","type":"Stadt"},"district":{"key":"08118","name":"Ludwigsburg","type":"Landkreis"},"federalState":{"key":"08","name":"Baden-Württemberg"}},{"name":"Fichtenweg","postalCode":"71672","locality":"Marbach am Neckar","municipality":{"key":"08118049","name":"Marbach am Neckar, Stadt","type":"Stadt"},"district":{"key":"08118","name":"Ludwigsburg","type":"Landkreis"},"federalState":{"key":"08","name":"Baden-Württemberg"}},{"name":"Finkenweg","postalCode":"71672","locality":"Marbach am Neckar","municipality":{"key":"08118049","name":"Marbach am Neckar, Stadt","type":"Stadt"},"district":{"key":"08118","name":"Ludwigsburg","type":"Landkreis"},"federalState":{"key":"08","name":"Baden-Württemberg"}},{"name":"Fliederstr.","postalCode":"71672","locality":"Marbach am Neckar","municipality":{"key":"08118049","name":"Marbach am Neckar, Stadt","type":"Stadt"},"district":{"key":"08118","name":"Ludwigsburg","type":"Landkreis"},"federalState":{"key":"08","name":"Baden-Württemberg"}},{"name":"Fohlenbergstr.","postalCode":"71672","locality":"Marbach am Neckar","municipality":{"key":"08118049","name":"Marbach am Neckar, Stadt","type":"Stadt"},"district":{"key":"08118","name":"Ludwigsburg","type":"Landkreis"},"federalState":{"key":"08","name":"Baden-Württemberg"}},{"name":"Forstbergweg","postalCode":"71672","locality":"Marbach am Neckar","municipality":{"key":"08118049","name":"Marbach am Neckar, Stadt","type":"Stadt"},"district":{"key":"08118","name":"Ludwigsburg","type":"Landkreis"},"federalState":{"key":"08","name":"Baden-Württemberg"}},{"name":"Forststr.","postalCode":"71672","locality":"Marbach am Neckar","municipality":{"key":"08118049","name":"Marbach am Neckar, Stadt","type":"Stadt"},"district":{"key":"08118","name":"Ludwigsburg","type":"Landkreis"},"federalState":{"key":"08","name":"Baden-Württemberg"}},{"name":"Frankenstr.","postalCode":"71672","locality":"Marbach am Neckar","municipality":{"key":"08118049","name":"Marbach am Neckar, Stadt","type":"Stadt"},"district":{"key":"08118","name":"Ludwigsburg","type":"Landkreis"},"federalState":{"key":"08","name":"Baden-Württemberg"}},{"name":"Friedenstr.","postalCode":"71672","locality":"Marbach am Neckar","municipality":{"key":"08118049","name":"Marbach am Neckar, Stadt","type":"Stadt"},"district":{"key":"08118","name":"Ludwigsburg","type":"Landkreis"},"federalState":{"key":"08","name":"Baden-Württemberg"}},{"name":"Friesenstr.","postalCode":"71672","locality":"Marbach am Neckar","municipality":{"key":"08118049","name":"Marbach am Neckar, Stadt","type":"Stadt"},"district":{"key":"08118","name":"Ludwigsburg","type":"Landkreis"},"federalState":{"key":"08","name":"Baden-Württemberg"}},{"name":"Gartenstr.","postalCode":"71672","locality":"Marbach am Neckar","municipality":{"key":"08118049","name":"Marbach am Neckar, Stadt","type":"Stadt"},"district":{"key":"08118","name":"Ludwigsburg","type":"Landkreis"},"federalState":{"key":"08","name":"Baden-Württemberg"}},{"name":"Göckelhof","postalCode":"71672","locality":"Marbach am Neckar","municipality":{"key":"08118049","name":"Marbach am Neckar, Stadt","type":"Stadt"},"district":{"key":"08118","name":"Ludwigsburg","type":"Landkreis"},"federalState":{"key":"08","name":"Baden-Württemberg"}},{"name":"Goethestr.","postalCode":"71672","locality":"Marbach am Neckar","municipality":{"key":"08118049","name":"Marbach am Neckar, Stadt","type":"Stadt"},"district":{"key":"08118","name":"Ludwigsburg","type":"Landkreis"},"federalState":{"key":"08","name":"Baden-Württemberg"}},{"name":"Görlitzer Weg","postalCode":"71672","locality":"Marbach am Neckar","municipality":{"key":"08118049","name":"Marbach am Neckar, Stadt","type":"Stadt"},"district":{"key":"08118","name":"Ludwigsburg","type":"Landkreis"},"federalState":{"key":"08","name":"Baden-Württemberg"}},{"name":"Gotenstr.","postalCode":"71672","locality":"Marbach am Neckar","municipality":{"key":"08118049","name":"Marbach am Neckar, Stadt","type":"Stadt"},"district":{"key":"08118","name":"Ludwigsburg","type":"Landkreis"},"federalState":{"key":"08","name":"Baden-Württemberg"}},{"name":"Gothaweg","postalCode":"71672","locality":"Marbach am Neckar","municipality":{"key":"08118049","name":"Marbach am Neckar, Stadt","type":"Stadt"},"district":{"key":"08118","name":"Ludwigsburg","type":"Landkreis"},"federalState":{"key":"08","name":"Baden-Württemberg"}},{"name":"Grabenpassage","postalCode":"71672","locality":"Marbach am Neckar","municipality":{"key":"08118049","name":"Marbach am Neckar, Stadt","type":"Stadt"},"district":{"key":"08118","name":"Ludwigsburg","type":"Landkreis"},"federalState":{"key":"08","name":"Baden-Württemberg"}},{"name":"Grabenstr.","postalCode":"71672","locality":"Marbach am Neckar","municipality":{"key":"08118049","name":"Marbach am Neckar, Stadt","type":"Stadt"},"district":{"key":"08118","name":"Ludwigsburg","type":"Landkreis"},"federalState":{"key":"08","name":"Baden-Württemberg"}},{"name":"Grießbergweg","postalCode":"71672","locality":"Marbach am Neckar","municipality":{"key":"08118049","name":"Marbach am Neckar, Stadt","type":"Stadt"},"district":{"key":"08118","name":"Ludwigsburg","type":"Landkreis"},"federalState":{"key":"08","name":"Baden-Württemberg"}},{"name":"Güntterstr.","postalCode":"71672","locality":"Marbach am Neckar","municipality":{"key":"08118049","name":"Marbach am Neckar, Stadt","type":"Stadt"},"district":{"key":"08118","name":"Ludwigsburg","type":"Landkreis"},"federalState":{"key":"08","name":"Baden-Württemberg"}},{"name":"Gutenbergstr.","postalCode":"71672","locality":"Marbach am Neckar","municipality":{"key":"08118049","name":"Marbach am Neckar, Stadt","type":"Stadt"},"district":{"key":"08118","name":"Ludwigsburg","type":"Landkreis"},"federalState":{"key":"08","name":"Baden-Württemberg"}},{"name":"Haffnerstr.","postalCode":"71672","locality":"Marbach am Neckar","municipality":{"key":"08118049","name":"Marbach am Neckar, Stadt","type":"Stadt"},"district":{"key":"08118","name":"Ludwigsburg","type":"Landkreis"},"federalState":{"key":"08","name":"Baden-Württemberg"}},{"name":"Häldenstr.","postalCode":"71672","locality":"Marbach am Neckar","municipality":{"key":"08118049","name":"Marbach am Neckar, Stadt","type":"Stadt"},"district":{"key":"08118","name":"Ludwigsburg","type":"Landkreis"},"federalState":{"key":"08","name":"Baden-Württemberg"}},{"name":"Hardtstr.","postalCode":"71672","locality":"Marbach am Neckar","municipality":{"key":"08118049","name":"Marbach am Neckar, Stadt","type":"Stadt"},"district":{"key":"08118","name":"Ludwigsburg","type":"Landkreis"},"federalState":{"key":"08","name":"Baden-Württemberg"}},{"name":"Hardtweinbergstr.","postalCode":"71672","locality":"Marbach am Neckar","municipality":{"key":"08118049","name":"Marbach am Neckar, Stadt","type":"Stadt"},"district":{"key":"08118","name":"Ludwigsburg","type":"Landkreis"},"federalState":{"key":"08","name":"Baden-Württemberg"}},{"name":"Harzbergweg","postalCode":"71672","locality":"Marbach am Neckar","municipality":{"key":"08118049","name":"Marbach am Neckar, Stadt","type":"Stadt"},"district":{"key":"08118","name":"Ludwigsburg","type":"Landkreis"},"federalState":{"key":"08","name":"Baden-Württemberg"}},{"name":"Hauffstr.","postalCode":"71672","locality":"Marbach am Neckar","municipality":{"key":"08118049","name":"Marbach am Neckar, Stadt","type":"Stadt"},"district":{"key":"08118","name":"Ludwigsburg","type":"Landkreis"},"federalState":{"key":"08","name":"Baden-Württemberg"}},{"name":"Hauptstr.","postalCode":"71672","locality":"Marbach am Neckar","municipality":{"key":"08118049","name":"Marbach am Neckar, Stadt","type":"Stadt"},"district":{"key":"08118","name":"Ludwigsburg","type":"Landkreis"},"federalState":{"key":"08","name":"Baden-Württemberg"}},{"name":"Haydnstr.","postalCode":"71672","locality":"Marbach am Neckar","municipality":{"key":"08118049","name":"Marbach am Neckar, Stadt","type":"Stadt"},"district":{"key":"08118","name":"Ludwigsburg","type":"Landkreis"},"federalState":{"key":"08","name":"Baden-Württemberg"}},{"name":"Heckenstr.","postalCode":"71672","locality":"Marbach am Neckar","municipality":{"key":"08118049","name":"Marbach am Neckar, Stadt","type":"Stadt"},"district":{"key":"08118","name":"Ludwigsburg","type":"Landkreis"},"federalState":{"key":"08","name":"Baden-Württemberg"}},{"name":"Hegelstr.","postalCode":"71672","locality":"Marbach am Neckar","municipality":{"key":"08118049","name":"Marbach am Neckar, Stadt","type":"Stadt"},"district":{"key":"08118","name":"Ludwigsburg","type":"Landkreis"},"federalState":{"key":"08","name":"Baden-Württemberg"}},{"name":"Hegnach","postalCode":"71672","locality":"Marbach am Neckar","municipality":{"key":"08118049","name":"Marbach am Neckar, Stadt","type":"Stadt"},"district":{"key":"08118","name":"Ludwigsburg","type":"Landkreis"},"federalState":{"key":"08","name":"Baden-Württemberg"}},{"name":"Heilbronner Str.","postalCode":"71672","locality":"Marbach am Neckar","municipality":{"key":"08118049","name":"Marbach am Neckar, Stadt","type":"Stadt"},"district":{"key":"08118","name":"Ludwigsburg","type":"Landkreis"},"federalState":{"key":"08","name":"Baden-Württemberg"}},{"name":"Heinrich-Hertz-Ring","postalCode":"71672","locality":"Marbach am Neckar","municipality":{"key":"08118049","name":"Marbach am Neckar, Stadt","type":"Stadt"},"district":{"key":"08118","name":"Ludwigsburg","type":"Landkreis"},"federalState":{"key":"08","name":"Baden-Württemberg"}},{"name":"Hermann-Hesse-Str.","postalCode":"71672","locality":"Marbach am Neckar","municipality":{"key":"08118049","name":"Marbach am Neckar, Stadt","type":"Stadt"},"district":{"key":"08118","name":"Ludwigsburg","type":"Landkreis"},"federalState":{"key":"08","name":"Baden-Württemberg"}},{"name":"Hermann-Kurz-Str.","postalCode":"71672","locality":"Marbach am Neckar","municipality":{"key":"08118049","name":"Marbach am Neckar, Stadt","type":"Stadt"},"district":{"key":"08118","name":"Ludwigsburg","type":"Landkreis"},"federalState":{"key":"08","name":"Baden-Württemberg"}},{"name":"Heuchelbergweg","postalCode":"71672","locality":"Marbach am Neckar","municipality":{"key":"08118049","name":"Marbach am Neckar, Stadt","type":"Stadt"},"district":{"key":"08118","name":"Ludwigsburg","type":"Landkreis"},"federalState":{"key":"08","name":"Baden-Württemberg"}},{"name":"Hinter den Gärten","postalCode":"71672","locality":"Marbach am Neckar","municipality":{"key":"08118049","name":"Marbach am Neckar, Stadt","type":"Stadt"},"district":{"key":"08118","name":"Ludwigsburg","type":"Landkreis"},"federalState":{"key":"08","name":"Baden-Württemberg"}},{"name":"Hinter der Schillerhöhe","postalCode":"71672","locality":"Marbach am Neckar","municipality":{"key":"08118049","name":"Marbach am Neckar, Stadt","type":"Stadt"},"district":{"key":"08118","name":"Ludwigsburg","type":"Landkreis"},"federalState":{"key":"08","name":"Baden-Württemberg"}},{"name":"Hirschgasse","postalCode":"71672","locality":"Marbach am Neckar","municipality":{"key":"08118049","name":"Marbach am Neckar, Stadt","type":"Stadt"},"district":{"key":"08118","name":"Ludwigsburg","type":"Landkreis"},"federalState":{"key":"08","name":"Baden-Württemberg"}},{"name":"Holderbüschle","postalCode":"71672","locality":"Marbach am Neckar","municipality":{"key":"08118049","name":"Marbach am Neckar, Stadt","type":"Stadt"},"district":{"key":"08118","name":"Ludwigsburg","type":"Landkreis"},"federalState":{"key":"08","name":"Baden-Württemberg"}},{"name":"Hölderlinstr.","postalCode":"71672","locality":"Marbach am Neckar","municipality":{"key":"08118049","name":"Marbach am Neckar, Stadt","type":"Stadt"},"district":{"key":"08118","name":"Ludwigsburg","type":"Landkreis"},"federalState":{"key":"08","name":"Baden-Württemberg"}},{"name":"Hörnlesweg","postalCode":"71672","locality":"Marbach am Neckar","municipality":{"key":"08118049","name":"Marbach am Neckar, Stadt","type":"Stadt"},"district":{"key":"08118","name":"Ludwigsburg","type":"Landkreis"},"federalState":{"key":"08","name":"Baden-Württemberg"}},{"name":"Im Bannmüller","postalCode":"71672","locality":"Marbach am Neckar","municipality":{"key":"08118049","name":"Marbach am Neckar, Stadt","type":"Stadt"},"district":{"key":"08118","name":"Ludwigsburg","type":"Landkreis"},"federalState":{"key":"08","name":"Baden-Württemberg"}},{"name":"Im Blütengarten","postalCode":"71672","locality":"Marbach am Neckar","municipality":{"key":"08118049","name":"Marbach am Neckar, Stadt","type":"Stadt"},"district":{"key":"08118","name":"Ludwigsburg","type":"Landkreis"},"federalState":{"key":"08","name":"Baden-Württemberg"}},{"name":"Im Forst","postalCode":"71672","locality":"Marbach am Neckar","municipality":{"key":"08118049","name":"Marbach am Neckar, Stadt","type":"Stadt"},"district":{"key":"08118","name":"Ludwigsburg","type":"Landkreis"},"federalState":{"key":"08","name":"Baden-Württemberg"}},{"name":"Im Haidacker","postalCode":"71672","locality":"Marbach am Neckar","municipality":{"key":"08118049","name":"Marbach am Neckar, Stadt","type":"Stadt"},"district":{"key":"08118","name":"Ludwigsburg","type":"Landkreis"},"federalState":{"key":"08","name":"Baden-Württemberg"}},{"name":"Im Lauerbäumle","postalCode":"71672","locality":"Marbach am Neckar","municipality":{"key":"08118049","name":"Marbach am Neckar, Stadt","type":"Stadt"},"district":{"key":"08118","name":"Ludwigsburg","type":"Landkreis"},"federalState":{"key":"08","name":"Baden-Württemberg"}},{"name":"Im Stöckach","postalCode":"71672","locality":"Marbach am Neckar","municipality":{"key":"08118049","name":"Marbach am Neckar, Stadt","type":"Stadt"},"district":{"key":"08118","name":"Ludwigsburg","type":"Landkreis"},"federalState":{"key":"08","name":"Baden-Württemberg"}},{"name":"Irisweg","postalCode":"71672","locality":"Marbach am Neckar","municipality":{"key":"08118049","name":"Marbach am Neckar, Stadt","type":"Stadt"},"district":{"key":"08118","name":"Ludwigsburg","type":"Landkreis"},"federalState":{"key":"08","name":"Baden-Württemberg"}},{"name":"Jahnstr.","postalCode":"71672","locality":"Marbach am Neckar","municipality":{"key":"08118049","name":"Marbach am Neckar, Stadt","type":"Stadt"},"district":{"key":"08118","name":"Ludwigsburg","type":"Landkreis"},"federalState":{"key":"08","name":"Baden-Württemberg"}},{"name":"Jenaweg","postalCode":"71672","locality":"Marbach am Neckar","municipality":{"key":"08118049","name":"Marbach am Neckar, Stadt","type":"Stadt"},"district":{"key":"08118","name":"Ludwigsburg","type":"Landkreis"},"federalState":{"key":"08","name":"Baden-Württemberg"}},{"name":"J.-G.-Fischer-Str.","postalCode":"71672","locality":"Marbach am Neckar","municipality":{"key":"08118049","name":"Marbach am Neckar, Stadt","type":"Stadt"},"district":{"key":"08118","name":"Ludwigsburg","type":"Landkreis"},"federalState":{"key":"08","name":"Baden-Württemberg"}},{"name":"Kaisersbergweg","postalCode":"71672","locality":"Marbach am Neckar","municipality":{"key":"08118049","name":"Marbach am Neckar, Stadt","type":"Stadt"},"district":{"key":"08118","name":"Ludwigsburg","type":"Landkreis"},"federalState":{"key":"08","name":"Baden-Württemberg"}},{"name":"Karlstr.","postalCode":"71672","locality":"Marbach am Neckar","municipality":{"key":"08118049","name":"Marbach am Neckar, Stadt","type":"Stadt"},"district":{"key":"08118","name":"Ludwigsburg","type":"Landkreis"},"federalState":{"key":"08","name":"Baden-Württemberg"}},{"name":"Kastanienweg","postalCode":"71672","locality":"Marbach am Neckar","municipality":{"key":"08118049","name":"Marbach am Neckar, Stadt","type":"Stadt"},"district":{"key":"08118","name":"Ludwigsburg","type":"Landkreis"},"federalState":{"key":"08","name":"Baden-Württemberg"}},{"name":"Kelterstr.","postalCode":"71672","locality":"Marbach am Neckar","municipality":{"key":"08118049","name":"Marbach am Neckar, Stadt","type":"Stadt"},"district":{"key":"08118","name":"Ludwigsburg","type":"Landkreis"},"federalState":{"key":"08","name":"Baden-Württemberg"}},{"name":"Kernerstr.","postalCode":"71672","locality":"Marbach am Neckar","municipality":{"key":"08118049","name":"Marbach am Neckar, Stadt","type":"Stadt"},"district":{"key":"08118","name":"Ludwigsburg","type":"Landkreis"},"federalState":{"key":"08","name":"Baden-Württemberg"}},{"name":"Kindergartenstr.","postalCode":"71672","locality":"Marbach am Neckar","municipality":{"key":"08118049","name":"Marbach am Neckar, Stadt","type":"Stadt"},"district":{"key":"08118","name":"Ludwigsburg","type":"Landkreis"},"federalState":{"key":"08","name":"Baden-Württemberg"}},{"name":"Kirchberger Str.","postalCode":"71672","locality":"Marbach am Neckar","municipality":{"key":"08118049","name":"Marbach am Neckar, Stadt","type":"Stadt"},"district":{"key":"08118","name":"Ludwigsburg","type":"Landkreis"},"federalState":{"key":"08","name":"Baden-Württemberg"}},{"name":"Kirchenweinbergstr.","postalCode":"71672","locality":"Marbach am Neckar","municipality":{"key":"08118049","name":"Marbach am Neckar, Stadt","type":"Stadt"},"district":{"key":"08118","name":"Ludwigsburg","type":"Landkreis"},"federalState":{"key":"08","name":"Baden-Württemberg"}},{"name":"Kirchgasse","postalCode":"71672","locality":"Marbach am Neckar","municipality":{"key":"08118049","name":"Marbach am Neckar, Stadt","type":"Stadt"},"district":{"key":"08118","name":"Ludwigsburg","type":"Landkreis"},"federalState":{"key":"08","name":"Baden-Württemberg"}},{"name":"Kirchstr.","postalCode":"71672","locality":"Marbach am Neckar","municipality":{"key":"08118049","name":"Marbach am Neckar, Stadt","type":"Stadt"},"district":{"key":"08118","name":"Ludwigsburg","type":"Landkreis"},"federalState":{"key":"08","name":"Baden-Württemberg"}},{"name":"Königstr.","postalCode":"71672","locality":"Marbach am Neckar","municipality":{"key":"08118049","name":"Marbach am Neckar, Stadt","type":"Stadt"},"district":{"key":"08118","name":"Ludwigsburg","type":"Landkreis"},"federalState":{"key":"08","name":"Baden-Württemberg"}},{"name":"König-Wilhelm-Platz","postalCode":"71672","locality":"Marbach am Neckar","municipality":{"key":"08118049","name":"Marbach am Neckar, Stadt","type":"Stadt"},"district":{"key":"08118","name":"Ludwigsburg","type":"Landkreis"},"federalState":{"key":"08","name":"Baden-Württemberg"}},{"name":"Krähbergstr.","postalCode":"71672","locality":"Marbach am Neckar","municipality":{"key":"08118049","name":"Marbach am Neckar, Stadt","type":"Stadt"},"district":{"key":"08118","name":"Ludwigsburg","type":"Landkreis"},"federalState":{"key":"08","name":"Baden-Württemberg"}},{"name":"Krummenäckerstr.","postalCode":"71672","locality":"Marbach am Neckar","municipality":{"key":"08118049","name":"Marbach am Neckar, Stadt","type":"Stadt"},"district":{"key":"08118","name":"Ludwigsburg","type":"Landkreis"},"federalState":{"key":"08","name":"Baden-Württemberg"}},{"name":"Kurze Str.","postalCode":"71672","locality":"Marbach am Neckar","municipality":{"key":"08118049","name":"Marbach am Neckar, Stadt","type":"Stadt"},"district":{"key":"08118","name":"Ludwigsburg","type":"Landkreis"},"federalState":{"key":"08","name":"Baden-Württemberg"}},{"name":"Lämmlesbühlweg","postalCode":"71672","locality":"Marbach am Neckar","municipality":{"key":"08118049","name":"Marbach am Neckar, Stadt","type":"Stadt"},"district":{"key":"08118","name":"Ludwigsburg","type":"Landkreis"},"federalState":{"key":"08","name":"Baden-Württemberg"}},{"name":"Lange Str.","postalCode":"71672","locality":"Marbach am Neckar","municipality":{"key":"08118049","name":"Marbach am Neckar, Stadt","type":"Stadt"},"district":{"key":"08118","name":"Ludwigsburg","type":"Landkreis"},"federalState":{"key":"08","name":"Baden-Württemberg"}},{"name":"Leipziger Str.","postalCode":"71672","locality":"Marbach am Neckar","municipality":{"key":"08118049","name":"Marbach am Neckar, Stadt","type":"Stadt"},"district":{"key":"08118","name":"Ludwigsburg","type":"Landkreis"},"federalState":{"key":"08","name":"Baden-Württemberg"}},{"name":"Lembergstr.","postalCode":"71672","locality":"Marbach am Neckar","municipality":{"key":"08118049","name":"Marbach am Neckar, Stadt","type":"Stadt"},"district":{"key":"08118","name":"Ludwigsburg","type":"Landkreis"},"federalState":{"key":"08","name":"Baden-Württemberg"}},{"name":"Lerchenstr.","postalCode":"71672","locality":"Marbach am Neckar","municipality":{"key":"08118049","name":"Marbach am Neckar, Stadt","type":"Stadt"},"district":{"key":"08118","name":"Ludwigsburg","type":"Landkreis"},"federalState":{"key":"08","name":"Baden-Württemberg"}},{"name":"Lichtenbergweg","postalCode":"71672","locality":"Marbach am Neckar","municipality":{"key":"08118049","name":"Marbach am Neckar, Stadt","type":"Stadt"},"district":{"key":"08118","name":"Ludwigsburg","type":"Landkreis"},"federalState":{"key":"08","name":"Baden-Württemberg"}},{"name":"Lilienstr.","postalCode":"71672","locality":"Marbach am Neckar","municipality":{"key":"08118049","name":"Marbach am Neckar, Stadt","type":"Stadt"},"district":{"key":"08118","name":"Ludwigsburg","type":"Landkreis"},"federalState":{"key":"08","name":"Baden-Württemberg"}},{"name":"Lindenstr.","postalCode":"71672","locality":"Marbach am Neckar","municipality":{"key":"08118049","name":"Marbach am Neckar, Stadt","type":"Stadt"},"district":{"key":"08118","name":"Ludwigsburg","type":"Landkreis"},"federalState":{"key":"08","name":"Baden-Württemberg"}},{"name":"Linsenbergweg","postalCode":"71672","locality":"Marbach am Neckar","municipality":{"key":"08118049","name":"Marbach am Neckar, Stadt","type":"Stadt"},"district":{"key":"08118","name":"Ludwigsburg","type":"Landkreis"},"federalState":{"key":"08","name":"Baden-Württemberg"}},{"name":"L'Isle-Adam-Anlage","postalCode":"71672","locality":"Marbach am Neckar","municipality":{"key":"08118049","name":"Marbach am Neckar, Stadt","type":"Stadt"},"district":{"key":"08118","name":"Ludwigsburg","type":"Landkreis"},"federalState":{"key":"08","name":"Baden-Württemberg"}},{"name":"Ludwig-Hofacker-Str.","postalCode":"71672","locality":"Marbach am Neckar","municipality":{"key":"08118049","name":"Marbach am Neckar, Stadt","type":"Stadt"},"district":{"key":"08118","name":"Ludwigsburg","type":"Landkreis"},"federalState":{"key":"08","name":"Baden-Württemberg"}},{"name":"Ludwigsburger Str.","postalCode":"71672","locality":"Marbach am Neckar","municipality":{"key":"08118049","name":"Marbach am Neckar, Stadt","type":"Stadt"},"district":{"key":"08118","name":"Ludwigsburg","type":"Landkreis"},"federalState":{"key":"08","name":"Baden-Württemberg"}},{"name":"Magdeburger Weg","postalCode":"71672","locality":"Marbach am Neckar","municipality":{"key":"08118049","name":"Marbach am Neckar, Stadt","type":"Stadt"},"district":{"key":"08118","name":"Ludwigsburg","type":"Landkreis"},"federalState":{"key":"08","name":"Baden-Württemberg"}},{"name":"Mainzer Str.","postalCode":"71672","locality":"Marbach am Neckar","municipality":{"key":"08118049","name":"Marbach am Neckar, Stadt","type":"Stadt"},"district":{"key":"08118","name":"Ludwigsburg","type":"Landkreis"},"federalState":{"key":"08","name":"Baden-Württemberg"}},{"name":"Makenhofstr.","postalCode":"71672","locality":"Marbach am Neckar","municipality":{"key":"08118049","name":"Marbach am Neckar, Stadt","type":"Stadt"},"district":{"key":"08118","name":"Ludwigsburg","type":"Landkreis"},"federalState":{"key":"08","name":"Baden-Württemberg"}},{"name":"Mannheimer Str.","postalCode":"71672","locality":"Marbach am Neckar","municipality":{"key":"08118049","name":"Marbach am Neckar, Stadt","type":"Stadt"},"district":{"key":"08118","name":"Ludwigsburg","type":"Landkreis"},"federalState":{"key":"08","name":"Baden-Württemberg"}},{"name":"Marktstr.","postalCode":"71672","locality":"Marbach am Neckar","municipality":{"key":"08118049","name":"Marbach am Neckar, Stadt","type":"Stadt"},"district":{"key":"08118","name":"Ludwigsburg","type":"Landkreis"},"federalState":{"key":"08","name":"Baden-Württemberg"}},{"name":"Max-Eyth-Str.","postalCode":"71672","locality":"Marbach am Neckar","municipality":{"key":"08118049","name":"Marbach am Neckar, Stadt","type":"Stadt"},"district":{"key":"08118","name":"Ludwigsburg","type":"Landkreis"},"federalState":{"key":"08","name":"Baden-Württemberg"}},{"name":"Max-Planck-Str.","postalCode":"71672","locality":"Marbach am Neckar","municipality":{"key":"08118049","name":"Marbach am Neckar, Stadt","type":"Stadt"},"district":{"key":"08118","name":"Ludwigsburg","type":"Landkreis"},"federalState":{"key":"08","name":"Baden-Württemberg"}},{"name":"Meisenstr.","postalCode":"71672","locality":"Marbach am Neckar","municipality":{"key":"08118049","name":"Marbach am Neckar, Stadt","type":"Stadt"},"district":{"key":"08118","name":"Ludwigsburg","type":"Landkreis"},"federalState":{"key":"08","name":"Baden-Württemberg"}},{"name":"Mittelweg","postalCode":"71672","locality":"Marbach am Neckar","municipality":{"key":"08118049","name":"Marbach am Neckar, Stadt","type":"Stadt"},"district":{"key":"08118","name":"Ludwigsburg","type":"Landkreis"},"federalState":{"key":"08","name":"Baden-Württemberg"}},{"name":"Mittlere Holdergasse","postalCode":"71672","locality":"Marbach am Neckar","municipality":{"key":"08118049","name":"Marbach am Neckar, Stadt","type":"Stadt"},"district":{"key":"08118","name":"Ludwigsburg","type":"Landkreis"},"federalState":{"key":"08","name":"Baden-Württemberg"}},{"name":"Mörikestr.","postalCode":"71672","locality":"Marbach am Neckar","municipality":{"key":"08118049","name":"Marbach am Neckar, Stadt","type":"Stadt"},"district":{"key":"08118","name":"Ludwigsburg","type":"Landkreis"},"federalState":{"key":"08","name":"Baden-Württemberg"}},{"name":"Mozartstr.","postalCode":"71672","locality":"Marbach am Neckar","municipality":{"key":"08118049","name":"Marbach am Neckar, Stadt","type":"Stadt"},"district":{"key":"08118","name":"Ludwigsburg","type":"Landkreis"},"federalState":{"key":"08","name":"Baden-Württemberg"}},{"name":"Mühlweg","postalCode":"71672","locality":"Marbach am Neckar","municipality":{"key":"08118049","name":"Marbach am Neckar, Stadt","type":"Stadt"},"district":{"key":"08118","name":"Ludwigsburg","type":"Landkreis"},"federalState":{"key":"08","name":"Baden-Württemberg"}},{"name":"Nelkenstr.","postalCode":"71672","locality":"Marbach am Neckar","municipality":{"key":"08118049","name":"Marbach am Neckar, Stadt","type":"Stadt"},"district":{"key":"08118","name":"Ludwigsburg","type":"Landkreis"},"federalState":{"key":"08","name":"Baden-Württemberg"}},{"name":"Niklastorstr.","postalCode":"71672","locality":"Marbach am Neckar","municipality":{"key":"08118049","name":"Marbach am Neckar, Stadt","type":"Stadt"},"district":{"key":"08118","name":"Ludwigsburg","type":"Landkreis"},"federalState":{"key":"08","name":"Baden-Württemberg"}},{"name":"Nußbergweg","postalCode":"71672","locality":"Marbach am Neckar","municipality":{"key":"08118049","name":"Marbach am Neckar, Stadt","type":"Stadt"},"district":{"key":"08118","name":"Ludwigsburg","type":"Landkreis"},"federalState":{"key":"08","name":"Baden-Württemberg"}},{"name":"Oberamteigasse","postalCode":"71672","locality":"Marbach am Neckar","municipality":{"key":"08118049","name":"Marbach am Neckar, Stadt","type":"Stadt"},"district":{"key":"08118","name":"Ludwigsburg","type":"Landkreis"},"federalState":{"key":"08","name":"Baden-Württemberg"}},{"name":"Obere Holdergasse","postalCode":"71672","locality":"Marbach am Neckar","municipality":{"key":"08118049","name":"Marbach am Neckar, Stadt","type":"Stadt"},"district":{"key":"08118","name":"Ludwigsburg","type":"Landkreis"},"federalState":{"key":"08","name":"Baden-Württemberg"}},{"name":"Oskar-Jenner-Weg","postalCode":"71672","locality":"Marbach am Neckar","municipality":{"key":"08118049","name":"Marbach am Neckar, Stadt","type":"Stadt"},"district":{"key":"08118","name":"Ludwigsburg","type":"Landkreis"},"federalState":{"key":"08","name":"Baden-Württemberg"}},{"name":"Oststr.","postalCode":"71672","locality":"Marbach am Neckar","municipality":{"key":"08118049","name":"Marbach am Neckar, Stadt","type":"Stadt"},"district":{"key":"08118","name":"Ludwigsburg","type":"Landkreis"},"federalState":{"key":"08","name":"Baden-Württemberg"}},{"name":"Panoramastr.","postalCode":"71672","locality":"Marbach am Neckar","municipality":{"key":"08118049","name":"Marbach am Neckar, Stadt","type":"Stadt"},"district":{"key":"08118","name":"Ludwigsburg","type":"Landkreis"},"federalState":{"key":"08","name":"Baden-Württemberg"}},{"name":"Panoramaweg","postalCode":"71672","locality":"Marbach am Neckar","municipality":{"key":"08118049","name":"Marbach am Neckar, Stadt","type":"Stadt"},"district":{"key":"08118","name":"Ludwigsburg","type":"Landkreis"},"federalState":{"key":"08","name":"Baden-Württemberg"}},{"name":"Paul-Gerhardt-Str.","postalCode":"71672","locality":"Marbach am Neckar","municipality":{"key":"08118049","name":"Marbach am Neckar, Stadt","type":"Stadt"},"district":{"key":"08118","name":"Ludwigsburg","type":"Landkreis"},"federalState":{"key":"08","name":"Baden-Württemberg"}},{"name":"Pestalozziplatz","postalCode":"71672","locality":"Marbach am Neckar","municipality":{"key":"08118049","name":"Marbach am Neckar, Stadt","type":"Stadt"},"district":{"key":"08118","name":"Ludwigsburg","type":"Landkreis"},"federalState":{"key":"08","name":"Baden-Württemberg"}},{"name":"Poppenweiler Str.","postalCode":"71672","locality":"Marbach am Neckar","municipality":{"key":"08118049","name":"Marbach am Neckar, Stadt","type":"Stadt"},"district":{"key":"08118","name":"Ludwigsburg","type":"Landkreis"},"federalState":{"key":"08","name":"Baden-Württemberg"}},{"name":"Porschestr.","postalCode":"71672","locality":"Marbach am Neckar","municipality":{"key":"08118049","name":"Marbach am Neckar, Stadt","type":"Stadt"},"district":{"key":"08118","name":"Ludwigsburg","type":"Landkreis"},"federalState":{"key":"08","name":"Baden-Württemberg"}},{"name":"Postweg","postalCode":"71672","locality":"Marbach am Neckar","municipality":{"key":"08118049","name":"Marbach am Neckar, Stadt","type":"Stadt"},"district":{"key":"08118","name":"Ludwigsburg","type":"Landkreis"},"federalState":{"key":"08","name":"Baden-Württemberg"}},{"name":"Quellenweg","postalCode":"71672","locality":"Marbach am Neckar","municipality":{"key":"08118049","name":"Marbach am Neckar, Stadt","type":"Stadt"},"district":{"key":"08118","name":"Ludwigsburg","type":"Landkreis"},"federalState":{"key":"08","name":"Baden-Württemberg"}},{"name":"Raitstr.","postalCode":"71672","locality":"Marbach am Neckar","municipality":{"key":"08118049","name":"Marbach am Neckar, Stadt","type":"Stadt"},"district":{"key":"08118","name":"Ludwigsburg","type":"Landkreis"},"federalState":{"key":"08","name":"Baden-Württemberg"}},{"name":"Rathausgasse","postalCode":"71672","locality":"Marbach am Neckar","municipality":{"key":"08118049","name":"Marbach am Neckar, Stadt","type":"Stadt"},"district":{"key":"08118","name":"Ludwigsburg","type":"Landkreis"},"federalState":{"key":"08","name":"Baden-Württemberg"}},{"name":"Rathausplatz","postalCode":"71672","locality":"Marbach am Neckar","municipality":{"key":"08118049","name":"Marbach am Neckar, Stadt","type":"Stadt"},"district":{"key":"08118","name":"Ludwigsburg","type":"Landkreis"},"federalState":{"key":"08","name":"Baden-Württemberg"}},{"name":"Reinhold-Würth-Str.","postalCode":"71672","locality":"Marbach am Neckar","municipality":{"key":"08118049","name":"Marbach am Neckar, Stadt","type":"Stadt"},"district":{"key":"08118","name":"Ludwigsburg","type":"Landkreis"},"federalState":{"key":"08","name":"Baden-Württemberg"}},{"name":"Reutgässle","postalCode":"71672","locality":"Marbach am Neckar","municipality":{"key":"08118049","name":"Marbach am Neckar, Stadt","type":"Stadt"},"district":{"key":"08118","name":"Ludwigsburg","type":"Landkreis"},"federalState":{"key":"08","name":"Baden-Württemberg"}},{"name":"Reutpfädle","postalCode":"71672","locality":"Marbach am Neckar","municipality":{"key":"08118049","name":"Marbach am Neckar, Stadt","type":"Stadt"},"district":{"key":"08118","name":"Ludwigsburg","type":"Landkreis"},"federalState":{"key":"08","name":"Baden-Württemberg"}},{"name":"Richard-Wagner-Str.","postalCode":"71672","locality":"Marbach am Neckar","municipality":{"key":"08118049","name":"Marbach am Neckar, Stadt","type":"Stadt"},"district":{"key":"08118","name":"Ludwigsburg","type":"Landkreis"},"federalState":{"key":"08","name":"Baden-Württemberg"}},{"name":"Rielingshäuser Str.","postalCode":"71672","locality":"Marbach am Neckar","municipality":{"key":"08118049","name":"Marbach am Neckar, Stadt","type":"Stadt"},"district":{"key":"08118","name":"Ludwigsburg","type":"Landkreis"},"federalState":{"key":"08","name":"Baden-Württemberg"}},{"name":"Ringstr.","postalCode":"71672","locality":"Marbach am Neckar","municipality":{"key":"08118049","name":"Marbach am Neckar, Stadt","type":"Stadt"},"district":{"key":"08118","name":"Ludwigsburg","type":"Landkreis"},"federalState":{"key":"08","name":"Baden-Württemberg"}},{"name":"Rinnenweg","postalCode":"71672","locality":"Marbach am Neckar","municipality":{"key":"08118049","name":"Marbach am Neckar, Stadt","type":"Stadt"},"district":{"key":"08118","name":"Ludwigsburg","type":"Landkreis"},"federalState":{"key":"08","name":"Baden-Württemberg"}},{"name":"Robert-Bosch-Str.","postalCode":"71672","locality":"Marbach am Neckar","municipality":{"key":"08118049","name":"Marbach am Neckar, Stadt","type":"Stadt"},"district":{"key":"08118","name":"Ludwigsburg","type":"Landkreis"},"federalState":{"key":"08","name":"Baden-Württemberg"}},{"name":"Römersträßchen","postalCode":"71672","locality":"Marbach am Neckar","municipality":{"key":"08118049","name":"Marbach am Neckar, Stadt","type":"Stadt"},"district":{"key":"08118","name":"Ludwigsburg","type":"Landkreis"},"federalState":{"key":"08","name":"Baden-Württemberg"}},{"name":"Rooschüzstr.","postalCode":"71672","locality":"Marbach am Neckar","municipality":{"key":"08118049","name":"Marbach am Neckar, Stadt","type":"Stadt"},"district":{"key":"08118","name":"Ludwigsburg","type":"Landkreis"},"federalState":{"key":"08","name":"Baden-Württemberg"}},{"name":"Rosengasse","postalCode":"71672","locality":"Marbach am Neckar","municipality":{"key":"08118049","name":"Marbach am Neckar, Stadt","type":"Stadt"},"district":{"key":"08118","name":"Ludwigsburg","type":"Landkreis"},"federalState":{"key":"08","name":"Baden-Württemberg"}},{"name":"Sachsenstr.","postalCode":"71672","locality":"Marbach am Neckar","municipality":{"key":"08118049","name":"Marbach am Neckar, Stadt","type":"Stadt"},"district":{"key":"08118","name":"Ludwigsburg","type":"Landkreis"},"federalState":{"key":"08","name":"Baden-Württemberg"}},{"name":"Salbeiweg","postalCode":"71672","locality":"Marbach am Neckar","municipality":{"key":"08118049","name":"Marbach am Neckar, Stadt","type":"Stadt"},"district":{"key":"08118","name":"Ludwigsburg","type":"Landkreis"},"federalState":{"key":"08","name":"Baden-Württemberg"}},{"name":"Salzstr.","postalCode":"71672","locality":"Marbach am Neckar","municipality":{"key":"08118049","name":"Marbach am Neckar, Stadt","type":"Stadt"},"district":{"key":"08118","name":"Ludwigsburg","type":"Landkreis"},"federalState":{"key":"08","name":"Baden-Württemberg"}},{"name":"Schafgartenstr.","postalCode":"71672","locality":"Marbach am Neckar","municipality":{"key":"08118049","name":"Marbach am Neckar, Stadt","type":"Stadt"},"district":{"key":"08118","name":"Ludwigsburg","type":"Landkreis"},"federalState":{"key":"08","name":"Baden-Württemberg"}},{"name":"Schellingweg","postalCode":"71672","locality":"Marbach am Neckar","municipality":{"key":"08118049","name":"Marbach am Neckar, Stadt","type":"Stadt"},"district":{"key":"08118","name":"Ludwigsburg","type":"Landkreis"},"federalState":{"key":"08","name":"Baden-Württemberg"}},{"name":"Schillerhöhe","postalCode":"71672","locality":"Marbach am Neckar","municipality":{"key":"08118049","name":"Marbach am Neckar, Stadt","type":"Stadt"},"district":{"key":"08118","name":"Ludwigsburg","type":"Landkreis"},"federalState":{"key":"08","name":"Baden-Württemberg"}},{"name":"Schillerstr.","postalCode":"71672","locality":"Marbach am Neckar","municipality":{"key":"08118049","name":"Marbach am Neckar, Stadt","type":"Stadt"},"district":{"key":"08118","name":"Ludwigsburg","type":"Landkreis"},"federalState":{"key":"08","name":"Baden-Württemberg"}},{"name":"Schubartstr.","postalCode":"71672","locality":"Marbach am Neckar","municipality":{"key":"08118049","name":"Marbach am Neckar, Stadt","type":"Stadt"},"district":{"key":"08118","name":"Ludwigsburg","type":"Landkreis"},"federalState":{"key":"08","name":"Baden-Württemberg"}},{"name":"Schulgartenweg","postalCode":"71672","locality":"Marbach am Neckar","municipality":{"key":"08118049","name":"Marbach am Neckar, Stadt","type":"Stadt"},"district":{"key":"08118","name":"Ludwigsburg","type":"Landkreis"},"federalState":{"key":"08","name":"Baden-Württemberg"}},{"name":"Schulstr.","postalCode":"71672","locality":"Marbach am Neckar","municipality":{"key":"08118049","name":"Marbach am Neckar, Stadt","type":"Stadt"},"district":{"key":"08118","name":"Ludwigsburg","type":"Landkreis"},"federalState":{"key":"08","name":"Baden-Württemberg"}},{"name":"Schumannstr.","postalCode":"71672","locality":"Marbach am Neckar","municipality":{"key":"08118049","name":"Marbach am Neckar, Stadt","type":"Stadt"},"district":{"key":"08118","name":"Ludwigsburg","type":"Landkreis"},"federalState":{"key":"08","name":"Baden-Württemberg"}},{"name":"Schwabstr.","postalCode":"71672","locality":"Marbach am Neckar","municipality":{"key":"08118049","name":"Marbach am Neckar, Stadt","type":"Stadt"},"district":{"key":"08118","name":"Ludwigsburg","type":"Landkreis"},"federalState":{"key":"08","name":"Baden-Württemberg"}},{"name":"Schweriner Weg","postalCode":"71672","locality":"Marbach am Neckar","municipality":{"key":"08118049","name":"Marbach am Neckar, Stadt","type":"Stadt"},"district":{"key":"08118","name":"Ludwigsburg","type":"Landkreis"},"federalState":{"key":"08","name":"Baden-Württemberg"}},{"name":"Siegelhausen","postalCode":"71672","locality":"Marbach am Neckar","municipality":{"key":"08118049","name":"Marbach am Neckar, Stadt","type":"Stadt"},"district":{"key":"08118","name":"Ludwigsburg","type":"Landkreis"},"federalState":{"key":"08","name":"Baden-Württemberg"}},{"name":"Siemensstr.","postalCode":"71672","locality":"Marbach am Neckar","municipality":{"key":"08118049","name":"Marbach am Neckar, Stadt","type":"Stadt"},"district":{"key":"08118","name":"Ludwigsburg","type":"Landkreis"},"federalState":{"key":"08","name":"Baden-Württemberg"}},{"name":"Silcherstr.","postalCode":"71672","locality":"Marbach am Neckar","municipality":{"key":"08118049","name":"Marbach am Neckar, Stadt","type":"Stadt"},"district":{"key":"08118","name":"Ludwigsburg","type":"Landkreis"},"federalState":{"key":"08","name":"Baden-Württemberg"}},{"name":"Sommerhalde","postalCode":"71672","locality":"Marbach am Neckar","municipality":{"key":"08118049","name":"Marbach am Neckar, Stadt","type":"Stadt"},"district":{"key":"08118","name":"Ludwigsburg","type":"Landkreis"},"federalState":{"key":"08","name":"Baden-Württemberg"}},{"name":"Sonnengasse","postalCode":"71672","locality":"Marbach am Neckar","municipality":{"key":"08118049","name":"Marbach am Neckar, Stadt","type":"Stadt"},"district":{"key":"08118","name":"Ludwigsburg","type":"Landkreis"},"federalState":{"key":"08","name":"Baden-Württemberg"}},{"name":"Stadtpark Schillerhöhe","postalCode":"71672","locality":"Marbach am Neckar","municipality":{"key":"08118049","name":"Marbach am Neckar, Stadt","type":"Stadt"},"district":{"key":"08118","name":"Ludwigsburg","type":"Landkreis"},"federalState":{"key":"08","name":"Baden-Württemberg"}},{"name":"Steigäckerstr.","postalCode":"71672","locality":"Marbach am Neckar","municipality":{"key":"08118049","name":"Marbach am Neckar, Stadt","type":"Stadt"},"district":{"key":"08118","name":"Ludwigsburg","type":"Landkreis"},"federalState":{"key":"08","name":"Baden-Württemberg"}},{"name":"Steinerstr.","postalCode":"71672","locality":"Marbach am Neckar","municipality":{"key":"08118049","name":"Marbach am Neckar, Stadt","type":"Stadt"},"district":{"key":"08118","name":"Ludwigsburg","type":"Landkreis"},"federalState":{"key":"08","name":"Baden-Württemberg"}},{"name":"Stollenäckerweg","postalCode":"71672","locality":"Marbach am Neckar","municipality":{"key":"08118049","name":"Marbach am Neckar, Stadt","type":"Stadt"},"district":{"key":"08118","name":"Ludwigsburg","type":"Landkreis"},"federalState":{"key":"08","name":"Baden-Württemberg"}},{"name":"Strohgasse","postalCode":"71672","locality":"Marbach am Neckar","municipality":{"key":"08118049","name":"Marbach am Neckar, Stadt","type":"Stadt"},"district":{"key":"08118","name":"Ludwigsburg","type":"Landkreis"},"federalState":{"key":"08","name":"Baden-Württemberg"}},{"name":"Strombergstr.","postalCode":"71672","locality":"Marbach am Neckar","municipality":{"key":"08118049","name":"Marbach am Neckar, Stadt","type":"Stadt"},"district":{"key":"08118","name":"Ludwigsburg","type":"Landkreis"},"federalState":{"key":"08","name":"Baden-Württemberg"}},{"name":"Stuttgarter Str.","postalCode":"71672","locality":"Marbach am Neckar","municipality":{"key":"08118049","name":"Marbach am Neckar, Stadt","type":"Stadt"},"district":{"key":"08118","name":"Ludwigsburg","type":"Landkreis"},"federalState":{"key":"08","name":"Baden-Württemberg"}},{"name":"Sudetenstr.","postalCode":"71672","locality":"Marbach am Neckar","municipality":{"key":"08118049","name":"Marbach am Neckar, Stadt","type":"Stadt"},"district":{"key":"08118","name":"Ludwigsburg","type":"Landkreis"},"federalState":{"key":"08","name":"Baden-Württemberg"}},{"name":"Tannenweg","postalCode":"71672","locality":"Marbach am Neckar","municipality":{"key":"08118049","name":"Marbach am Neckar, Stadt","type":"Stadt"},"district":{"key":"08118","name":"Ludwigsburg","type":"Landkreis"},"federalState":{"key":"08","name":"Baden-Württemberg"}},{"name":"Theodor-Heuss-Str.","postalCode":"71672","locality":"Marbach am Neckar","municipality":{"key":"08118049","name":"Marbach am Neckar, Stadt","type":"Stadt"},"district":{"key":"08118","name":"Ludwigsburg","type":"Landkreis"},"federalState":{"key":"08","name":"Baden-Württemberg"}},{"name":"Thomas-Alva-Edison-Ring","postalCode":"71672","locality":"Marbach am Neckar","municipality":{"key":"08118049","name":"Marbach am Neckar, Stadt","type":"Stadt"},"district":{"key":"08118","name":"Ludwigsburg","type":"Landkreis"},"federalState":{"key":"08","name":"Baden-Württemberg"}},{"name":"Tobias-Mayer-Str.","postalCode":"71672","locality":"Marbach am Neckar","municipality":{"key":"08118049","name":"Marbach am Neckar, Stadt","type":"Stadt"},"district":{"key":"08118","name":"Ludwigsburg","type":"Landkreis"},"federalState":{"key":"08","name":"Baden-Württemberg"}},{"name":"Tobias-Mayer-Weg","postalCode":"71672","locality":"Marbach am Neckar","municipality":{"key":"08118049","name":"Marbach am Neckar, Stadt","type":"Stadt"},"district":{"key":"08118","name":"Ludwigsburg","type":"Landkreis"},"federalState":{"key":"08","name":"Baden-Württemberg"}},{"name":"Torgasse","postalCode":"71672","locality":"Marbach am Neckar","municipality":{"key":"08118049","name":"Marbach am Neckar, Stadt","type":"Stadt"},"district":{"key":"08118","name":"Ludwigsburg","type":"Landkreis"},"federalState":{"key":"08","name":"Baden-Württemberg"}},{"name":"Triebstr.","postalCode":"71672","locality":"Marbach am Neckar","municipality":{"key":"08118049","name":"Marbach am Neckar, Stadt","type":"Stadt"},"district":{"key":"08118","name":"Ludwigsburg","type":"Landkreis"},"federalState":{"key":"08","name":"Baden-Württemberg"}},{"name":"Tulpenstr.","postalCode":"71672","locality":"Marbach am Neckar","municipality":{"key":"08118049","name":"Marbach am Neckar, Stadt","type":"Stadt"},"district":{"key":"08118","name":"Ludwigsburg","type":"Landkreis"},"federalState":{"key":"08","name":"Baden-Württemberg"}},{"name":"Uhlandstr.","postalCode":"71672","locality":"Marbach am Neckar","municipality":{"key":"08118049","name":"Marbach am Neckar, Stadt","type":"Stadt"},"district":{"key":"08118","name":"Ludwigsburg","type":"Landkreis"},"federalState":{"key":"08","name":"Baden-Württemberg"}},{"name":"Ulmenweg","postalCode":"71672","locality":"Marbach am Neckar","municipality":{"key":"08118049","name":"Marbach am Neckar, Stadt","type":"Stadt"},"district":{"key":"08118","name":"Ludwigsburg","type":"Landkreis"},"federalState":{"key":"08","name":"Baden-Württemberg"}},{"name":"Ulrichstr.","postalCode":"71672","locality":"Marbach am Neckar","municipality":{"key":"08118049","name":"Marbach am Neckar, Stadt","type":"Stadt"},"district":{"key":"08118","name":"Ludwigsburg","type":"Landkreis"},"federalState":{"key":"08","name":"Baden-Württemberg"}},{"name":"Untere Holdergasse","postalCode":"71672","locality":"Marbach am Neckar","municipality":{"key":"08118049","name":"Marbach am Neckar, Stadt","type":"Stadt"},"district":{"key":"08118","name":"Ludwigsburg","type":"Landkreis"},"federalState":{"key":"08","name":"Baden-Württemberg"}},{"name":"Veilchenweg","postalCode":"71672","locality":"Marbach am Neckar","municipality":{"key":"08118049","name":"Marbach am Neckar, Stadt","type":"Stadt"},"district":{"key":"08118","name":"Ludwigsburg","type":"Landkreis"},"federalState":{"key":"08","name":"Baden-Württemberg"}},{"name":"Viehwegbrücke","postalCode":"71672","locality":"Marbach am Neckar","municipality":{"key":"08118049","name":"Marbach am Neckar, Stadt","type":"Stadt"},"district":{"key":"08118","name":"Ludwigsburg","type":"Landkreis"},"federalState":{"key":"08","name":"Baden-Württemberg"}},{"name":"Vogelgraben","postalCode":"71672","locality":"Marbach am Neckar","municipality":{"key":"08118049","name":"Marbach am Neckar, Stadt","type":"Stadt"},"district":{"key":"08118","name":"Ludwigsburg","type":"Landkreis"},"federalState":{"key":"08","name":"Baden-Württemberg"}},{"name":"Vorderes Eck","postalCode":"71672","locality":"Marbach am Neckar","municipality":{"key":"08118049","name":"Marbach am Neckar, Stadt","type":"Stadt"},"district":{"key":"08118","name":"Ludwigsburg","type":"Landkreis"},"federalState":{"key":"08","name":"Baden-Württemberg"}},{"name":"Wächterstr.","postalCode":"71672","locality":"Marbach am Neckar","municipality":{"key":"08118049","name":"Marbach am Neckar, Stadt","type":"Stadt"},"district":{"key":"08118","name":"Ludwigsburg","type":"Landkreis"},"federalState":{"key":"08","name":"Baden-Württemberg"}},{"name":"Walther-Zimmermann-Weg","postalCode":"71672","locality":"Marbach am Neckar","municipality":{"key":"08118049","name":"Marbach am Neckar, Stadt","type":"Stadt"},"district":{"key":"08118","name":"Ludwigsburg","type":"Landkreis"},"federalState":{"key":"08","name":"Baden-Württemberg"}},{"name":"Wartbergweg","postalCode":"71672","locality":"Marbach am Neckar","municipality":{"key":"08118049","name":"Marbach am Neckar, Stadt","type":"Stadt"},"district":{"key":"08118","name":"Ludwigsburg","type":"Landkreis"},"federalState":{"key":"08","name":"Baden-Württemberg"}},{"name":"Washington-Kreisel","postalCode":"71672","locality":"Marbach am Neckar","municipality":{"key":"08118049","name":"Marbach am Neckar, Stadt","type":"Stadt"},"district":{"key":"08118","name":"Ludwigsburg","type":"Landkreis"},"federalState":{"key":"08","name":"Baden-Württemberg"}},{"name":"Washingtonstr.","postalCode":"71672","locality":"Marbach am Neckar","municipality":{"key":"08118049","name":"Marbach am Neckar, Stadt","type":"Stadt"},"district":{"key":"08118","name":"Ludwigsburg","type":"Landkreis"},"federalState":{"key":"08","name":"Baden-Württemberg"}},{"name":"Weidenweg","postalCode":"71672","locality":"Marbach am Neckar","municipality":{"key":"08118049","name":"Marbach am Neckar, Stadt","type":"Stadt"},"district":{"key":"08118","name":"Ludwigsburg","type":"Landkreis"},"federalState":{"key":"08","name":"Baden-Württemberg"}},{"name":"Weimarstr.","postalCode":"71672","locality":"Marbach am Neckar","municipality":{"key":"08118049","name":"Marbach am Neckar, Stadt","type":"Stadt"},"district":{"key":"08118","name":"Ludwigsburg","type":"Landkreis"},"federalState":{"key":"08","name":"Baden-Württemberg"}},{"name":"Wielandstr.","postalCode":"71672","locality":"Marbach am Neckar","municipality":{"key":"08118049","name":"Marbach am Neckar, Stadt","type":"Stadt"},"district":{"key":"08118","name":"Ludwigsburg","type":"Landkreis"},"federalState":{"key":"08","name":"Baden-Württemberg"}},{"name":"Wiesbadener Platz","postalCode":"71672","locality":"Marbach am Neckar","municipality":{"key":"08118049","name":"Marbach am Neckar, Stadt","type":"Stadt"},"district":{"key":"08118","name":"Ludwigsburg","type":"Landkreis"},"federalState":{"key":"08","name":"Baden-Württemberg"}},{"name":"Wildermuthstr.","postalCode":"71672","locality":"Marbach am Neckar","municipality":{"key":"08118049","name":"Marbach am Neckar, Stadt","type":"Stadt"},"district":{"key":"08118","name":"Ludwigsburg","type":"Landkreis"},"federalState":{"key":"08","name":"Baden-Württemberg"}},{"name":"Wilhelm-Kopf-Str.","postalCode":"71672","locality":"Marbach am Neckar","municipality":{"key":"08118049","name":"Marbach am Neckar, Stadt","type":"Stadt"},"district":{"key":"08118","name":"Ludwigsburg","type":"Landkreis"},"federalState":{"key":"08","name":"Baden-Württemberg"}},{"name":"Wilhelm-Lutz-Str.","postalCode":"71672","locality":"Marbach am Neckar","municipality":{"key":"08118049","name":"Marbach am Neckar, Stadt","type":"Stadt"},"district":{"key":"08118","name":"Ludwigsburg","type":"Landkreis"},"federalState":{"key":"08","name":"Baden-Württemberg"}},{"name":"Wilhelm-Schenk-Weg","postalCode":"71672","locality":"Marbach am Neckar","municipality":{"key":"08118049","name":"Marbach am Neckar, Stadt","type":"Stadt"},"district":{"key":"08118","name":"Ludwigsburg","type":"Landkreis"},"federalState":{"key":"08","name":"Baden-Württemberg"}},{"name":"Wunnensteinstr.","postalCode":"71672","locality":"Marbach am Neckar","municipality":{"key":"08118049","name":"Marbach am Neckar, Stadt","type":"Stadt"},"district":{"key":"08118","name":"Ludwigsburg","type":"Landkreis"},"federalState":{"key":"08","name":"Baden-Württemberg"}},{"name":"Yorckstr.","postalCode":"71636","locality":"Ludwigsburg","municipality":{"key":"08118048","name":"Ludwigsburg, Stadt","type":"Große_Kreisstadt"},"district":{"key":"08118","name":"Ludwigsburg","type":"Landkreis"},"federalState":{"key":"08","name":"Baden-Württemberg"}},{"name":"Zeilstr.","postalCode":"71672","locality":"Marbach am Neckar","municipality":{"key":"08118049","name":"Marbach am Neckar, Stadt","type":"Stadt"},"district":{"key":"08118","name":"Ludwigsburg","type":"Landkreis"},"federalState":{"key":"08","name":"Baden-Württemberg"}},{"name":"Zeppelinstr.","postalCode":"71672","locality":"Marbach am Neckar","municipality":{"key":"08118049","name":"Marbach am Neckar, Stadt","type":"Stadt"},"district":{"key":"08118","name":"Ludwigsburg","type":"Landkreis"},"federalState":{"key":"08","name":"Baden-Württemberg"}},{"name":"Ziegelhütteweg","postalCode":"71672","locality":"Marbach am Neckar","municipality":{"key":"08118049","name":"Marbach am Neckar, Stadt","type":"Stadt"},"district":{"key":"08118","name":"Ludwigsburg","type":"Landkreis"},"federalState":{"key":"08","name":"Baden-Württemberg"}},{"name":"Ziegelstr.","postalCode":"71672","locality":"Marbach am Neckar","municipality":{"key":"08118049","name":"Marbach am Neckar, Stadt","type":"Stadt"},"district":{"key":"08118","name":"Ludwigsburg","type":"Landkreis"},"federalState":{"key":"08","name":"Baden-Württemberg"}},{"name":"Östlicher Parkweg","postalCode":"71634","locality":"Ludwigsburg","municipality":{"key":"08118048","name":"Ludwigsburg, Stadt","type":"Große_Kreisstadt"},"district":{"key":"08118","name":"Ludwigsburg","type":"Landkreis"},"federalState":{"key":"08","name":"Baden-Württemberg"}},{"name":"Östlicher Parkweg","postalCode":"71642","locality":"Ludwigsburg","municipality":{"key":"08118048","name":"Ludwigsburg, Stadt","type":"Große_Kreisstadt"},"district":{"key":"08118","name":"Ludwigsburg","type":"Landkreis"},"federalState":{"key":"08","name":"Baden-Württemberg"}},{"name":"Überkinger Str.","postalCode":"71642","locality":"Ludwigsburg","municipality":{"key":"08118048","name":"Ludwigsburg, Stadt","type":"Große_Kreisstadt"},"district":{"key":"08118","name":"Ludwigsburg","type":"Landkreis"},"federalState":{"key":"08","name":"Baden-Württemberg"}},]