[{"name":"Am Kakerberg","postalCode":"25779","locality":"Hennstedt","municipality":{"key":"01051049","name":"Hennstedt","type":"Kreisangehörige_Gemeinde"},"district":{"key":"01051","name":"Dithmarschen","type":"Kreis"},"federalState":{"key":"01","name":"Schleswig-Holstein"}},{"name":"Am Markt","postalCode":"25779","locality":"Hennstedt","municipality":{"key":"01051049","name":"Hennstedt","type":"Kreisangehörige_Gemeinde"},"district":{"key":"01051","name":"Dithmarschen","type":"Kreis"},"federalState":{"key":"01","name":"Schleswig-Holstein"}},{"name":"Am Mühlenberg","postalCode":"25779","locality":"Hennstedt","municipality":{"key":"01051049","name":"Hennstedt","type":"Kreisangehörige_Gemeinde"},"district":{"key":"01051","name":"Dithmarschen","type":"Kreis"},"federalState":{"key":"01","name":"Schleswig-Holstein"}},{"name":"Am Teich","postalCode":"25581","locality":"Hennstedt","municipality":{"key":"01061036","name":"Hennstedt","type":"Kreisangehörige_Gemeinde"},"district":{"key":"01061","name":"Steinburg","type":"Kreis"},"federalState":{"key":"01","name":"Schleswig-Holstein"}},{"name":"Am Turm","postalCode":"25581","locality":"Hennstedt","municipality":{"key":"01061036","name":"Hennstedt","type":"Kreisangehörige_Gemeinde"},"district":{"key":"01061","name":"Steinburg","type":"Kreis"},"federalState":{"key":"01","name":"Schleswig-Holstein"}},{"name":"An der Eider","postalCode":"25779","locality":"Hennstedt","municipality":{"key":"01051049","name":"Hennstedt","type":"Kreisangehörige_Gemeinde"},"district":{"key":"01051","name":"Dithmarschen","type":"Kreis"},"federalState":{"key":"01","name":"Schleswig-Holstein"}},{"name":"An der Kirche","postalCode":"25779","locality":"Hennstedt","municipality":{"key":"01051049","name":"Hennstedt","type":"Kreisangehörige_Gemeinde"},"district":{"key":"01051","name":"Dithmarschen","type":"Kreis"},"federalState":{"key":"01","name":"Schleswig-Holstein"}},{"name":"Apeldör","postalCode":"25779","locality":"Hennstedt","municipality":{"key":"01051049","name":"Hennstedt","type":"Kreisangehörige_Gemeinde"},"district":{"key":"01051","name":"Dithmarschen","type":"Kreis"},"federalState":{"key":"01","name":"Schleswig-Holstein"}},{"name":"Bauerholzweg","postalCode":"25779","locality":"Hennstedt","municipality":{"key":"01051049","name":"Hennstedt","type":"Kreisangehörige_Gemeinde"},"district":{"key":"01051","name":"Dithmarschen","type":"Kreis"},"federalState":{"key":"01","name":"Schleswig-Holstein"}},{"name":"Birkenweg","postalCode":"25779","locality":"Hennstedt","municipality":{"key":"01051049","name":"Hennstedt","type":"Kreisangehörige_Gemeinde"},"district":{"key":"01051","name":"Dithmarschen","type":"Kreis"},"federalState":{"key":"01","name":"Schleswig-Holstein"}},{"name":"Borstel","postalCode":"25581","locality":"Hennstedt","municipality":{"key":"01061036","name":"Hennstedt","type":"Kreisangehörige_Gemeinde"},"district":{"key":"01061","name":"Steinburg","type":"Kreis"},"federalState":{"key":"01","name":"Schleswig-Holstein"}},{"name":"Busch","postalCode":"25779","locality":"Hennstedt","municipality":{"key":"01051049","name":"Hennstedt","type":"Kreisangehörige_Gemeinde"},"district":{"key":"01051","name":"Dithmarschen","type":"Kreis"},"federalState":{"key":"01","name":"Schleswig-Holstein"}},{"name":"Deichkrug","postalCode":"25779","locality":"Hennstedt","municipality":{"key":"01051049","name":"Hennstedt","type":"Kreisangehörige_Gemeinde"},"district":{"key":"01051","name":"Dithmarschen","type":"Kreis"},"federalState":{"key":"01","name":"Schleswig-Holstein"}},{"name":"Dellenberg","postalCode":"25581","locality":"Hennstedt","municipality":{"key":"01061036","name":"Hennstedt","type":"Kreisangehörige_Gemeinde"},"district":{"key":"01061","name":"Steinburg","type":"Kreis"},"federalState":{"key":"01","name":"Schleswig-Holstein"}},{"name":"Eichedeer Str.","postalCode":"22964","locality":"Steinburg","municipality":{"key":"01062091","name":"Steinburg","type":"Kreisangehörige_Gemeinde"},"district":{"key":"01062","name":"Stormarn","type":"Kreis"},"federalState":{"key":"01","name":"Schleswig-Holstein"}},{"name":"Eichenkamp","postalCode":"22964","locality":"Steinburg","municipality":{"key":"01062091","name":"Steinburg","type":"Kreisangehörige_Gemeinde"},"district":{"key":"01062","name":"Stormarn","type":"Kreis"},"federalState":{"key":"01","name":"Schleswig-Holstein"}},{"name":"Feldstr.","postalCode":"25779","locality":"Hennstedt","municipality":{"key":"01051049","name":"Hennstedt","type":"Kreisangehörige_Gemeinde"},"district":{"key":"01051","name":"Dithmarschen","type":"Kreis"},"federalState":{"key":"01","name":"Schleswig-Holstein"}},{"name":"Friedhofstr.","postalCode":"25779","locality":"Hennstedt","municipality":{"key":"01051049","name":"Hennstedt","type":"Kreisangehörige_Gemeinde"},"district":{"key":"01051","name":"Dithmarschen","type":"Kreis"},"federalState":{"key":"01","name":"Schleswig-Holstein"}},{"name":"Gärtnerweg","postalCode":"25779","locality":"Hennstedt","municipality":{"key":"01051049","name":"Hennstedt","type":"Kreisangehörige_Gemeinde"},"district":{"key":"01051","name":"Dithmarschen","type":"Kreis"},"federalState":{"key":"01","name":"Schleswig-Holstein"}},{"name":"Grüner Weg","postalCode":"25779","locality":"Hennstedt","municipality":{"key":"01051049","name":"Hennstedt","type":"Kreisangehörige_Gemeinde"},"district":{"key":"01051","name":"Dithmarschen","type":"Kreis"},"federalState":{"key":"01","name":"Schleswig-Holstein"}},{"name":"Haferkamp","postalCode":"25779","locality":"Hennstedt","municipality":{"key":"01051049","name":"Hennstedt","type":"Kreisangehörige_Gemeinde"},"district":{"key":"01051","name":"Dithmarschen","type":"Kreis"},"federalState":{"key":"01","name":"Schleswig-Holstein"}},{"name":"Hamburger Str.","postalCode":"25779","locality":"Hennstedt","municipality":{"key":"01051049","name":"Hennstedt","type":"Kreisangehörige_Gemeinde"},"district":{"key":"01051","name":"Dithmarschen","type":"Kreis"},"federalState":{"key":"01","name":"Schleswig-Holstein"}},{"name":"Heider Str.","postalCode":"25779","locality":"Hennstedt","municipality":{"key":"01051049","name":"Hennstedt","type":"Kreisangehörige_Gemeinde"},"district":{"key":"01051","name":"Dithmarschen","type":"Kreis"},"federalState":{"key":"01","name":"Schleswig-Holstein"}},{"name":"Heideweg","postalCode":"25581","locality":"Hennstedt","municipality":{"key":"01061036","name":"Hennstedt","type":"Kreisangehörige_Gemeinde"},"district":{"key":"01061","name":"Steinburg","type":"Kreis"},"federalState":{"key":"01","name":"Schleswig-Holstein"}},{"name":"Heideweg","postalCode":"25779","locality":"Hennstedt","municipality":{"key":"01051049","name":"Hennstedt","type":"Kreisangehörige_Gemeinde"},"district":{"key":"01051","name":"Dithmarschen","type":"Kreis"},"federalState":{"key":"01","name":"Schleswig-Holstein"}},{"name":"Hennstedter Str.","postalCode":"25779","locality":"Hennstedt","municipality":{"key":"01051049","name":"Hennstedt","type":"Kreisangehörige_Gemeinde"},"district":{"key":"01051","name":"Dithmarschen","type":"Kreis"},"federalState":{"key":"01","name":"Schleswig-Holstein"}},{"name":"Hinterm Klever Weg","postalCode":"25779","locality":"Hennstedt","municipality":{"key":"01051049","name":"Hennstedt","type":"Kreisangehörige_Gemeinde"},"district":{"key":"01051","name":"Dithmarschen","type":"Kreis"},"federalState":{"key":"01","name":"Schleswig-Holstein"}},{"name":"Hohenwestedter Str.","postalCode":"25581","locality":"Hennstedt","municipality":{"key":"01061036","name":"Hennstedt","type":"Kreisangehörige_Gemeinde"},"district":{"key":"01061","name":"Steinburg","type":"Kreis"},"federalState":{"key":"01","name":"Schleswig-Holstein"}},{"name":"Horst","postalCode":"25779","locality":"Hennstedt","municipality":{"key":"01051049","name":"Hennstedt","type":"Kreisangehörige_Gemeinde"},"district":{"key":"01051","name":"Dithmarschen","type":"Kreis"},"federalState":{"key":"01","name":"Schleswig-Holstein"}},{"name":"Horster Str.","postalCode":"25779","locality":"Hennstedt","municipality":{"key":"01051049","name":"Hennstedt","type":"Kreisangehörige_Gemeinde"},"district":{"key":"01051","name":"Dithmarschen","type":"Kreis"},"federalState":{"key":"01","name":"Schleswig-Holstein"}},{"name":"Im Winkel","postalCode":"25779","locality":"Hennstedt","municipality":{"key":"01051049","name":"Hennstedt","type":"Kreisangehörige_Gemeinde"},"district":{"key":"01051","name":"Dithmarschen","type":"Kreis"},"federalState":{"key":"01","name":"Schleswig-Holstein"}},{"name":"Itzehoer Str.","postalCode":"25581","locality":"Hennstedt","municipality":{"key":"01061036","name":"Hennstedt","type":"Kreisangehörige_Gemeinde"},"district":{"key":"01061","name":"Steinburg","type":"Kreis"},"federalState":{"key":"01","name":"Schleswig-Holstein"}},{"name":"Johanna Weg","postalCode":"22964","locality":"Steinburg","municipality":{"key":"01062091","name":"Steinburg","type":"Kreisangehörige_Gemeinde"},"district":{"key":"01062","name":"Stormarn","type":"Kreis"},"federalState":{"key":"01","name":"Schleswig-Holstein"}},{"name":"Kamerun","postalCode":"25581","locality":"Hennstedt","municipality":{"key":"01061036","name":"Hennstedt","type":"Kreisangehörige_Gemeinde"},"district":{"key":"01061","name":"Steinburg","type":"Kreis"},"federalState":{"key":"01","name":"Schleswig-Holstein"}},{"name":"Kätnersbüttenweg","postalCode":"25779","locality":"Hennstedt","municipality":{"key":"01051049","name":"Hennstedt","type":"Kreisangehörige_Gemeinde"},"district":{"key":"01051","name":"Dithmarschen","type":"Kreis"},"federalState":{"key":"01","name":"Schleswig-Holstein"}},{"name":"Kellinghusener Str.","postalCode":"25581","locality":"Hennstedt","municipality":{"key":"01061036","name":"Hennstedt","type":"Kreisangehörige_Gemeinde"},"district":{"key":"01061","name":"Steinburg","type":"Kreis"},"federalState":{"key":"01","name":"Schleswig-Holstein"}},{"name":"Kiefernweg","postalCode":"25779","locality":"Hennstedt","municipality":{"key":"01051049","name":"Hennstedt","type":"Kreisangehörige_Gemeinde"},"district":{"key":"01051","name":"Dithmarschen","type":"Kreis"},"federalState":{"key":"01","name":"Schleswig-Holstein"}},{"name":"Kirchenstr.","postalCode":"25779","locality":"Hennstedt","municipality":{"key":"01051049","name":"Hennstedt","type":"Kreisangehörige_Gemeinde"},"district":{"key":"01051","name":"Dithmarschen","type":"Kreis"},"federalState":{"key":"01","name":"Schleswig-Holstein"}},{"name":"Kirchspielschreiber-Schmidt-Str.","postalCode":"25779","locality":"Hennstedt","municipality":{"key":"01051049","name":"Hennstedt","type":"Kreisangehörige_Gemeinde"},"district":{"key":"01051","name":"Dithmarschen","type":"Kreis"},"federalState":{"key":"01","name":"Schleswig-Holstein"}},{"name":"Klever Weg","postalCode":"25779","locality":"Hennstedt","municipality":{"key":"01051049","name":"Hennstedt","type":"Kreisangehörige_Gemeinde"},"district":{"key":"01051","name":"Dithmarschen","type":"Kreis"},"federalState":{"key":"01","name":"Schleswig-Holstein"}},{"name":"Kreuzstr.","postalCode":"25779","locality":"Hennstedt","municipality":{"key":"01051049","name":"Hennstedt","type":"Kreisangehörige_Gemeinde"},"district":{"key":"01051","name":"Dithmarschen","type":"Kreis"},"federalState":{"key":"01","name":"Schleswig-Holstein"}},{"name":"Kummerfeld","postalCode":"25779","locality":"Hennstedt","municipality":{"key":"01051049","name":"Hennstedt","type":"Kreisangehörige_Gemeinde"},"district":{"key":"01051","name":"Dithmarschen","type":"Kreis"},"federalState":{"key":"01","name":"Schleswig-Holstein"}},{"name":"Kummerfeldweg","postalCode":"25779","locality":"Hennstedt","municipality":{"key":"01051049","name":"Hennstedt","type":"Kreisangehörige_Gemeinde"},"district":{"key":"01051","name":"Dithmarschen","type":"Kreis"},"federalState":{"key":"01","name":"Schleswig-Holstein"}},{"name":"Lindener Koog","postalCode":"25779","locality":"Hennstedt","municipality":{"key":"01051049","name":"Hennstedt","type":"Kreisangehörige_Gemeinde"},"district":{"key":"01051","name":"Dithmarschen","type":"Kreis"},"federalState":{"key":"01","name":"Schleswig-Holstein"}},{"name":"Meiereistr.","postalCode":"25779","locality":"Hennstedt","municipality":{"key":"01051049","name":"Hennstedt","type":"Kreisangehörige_Gemeinde"},"district":{"key":"01051","name":"Dithmarschen","type":"Kreis"},"federalState":{"key":"01","name":"Schleswig-Holstein"}},{"name":"Mittelstr.","postalCode":"25779","locality":"Hennstedt","municipality":{"key":"01051049","name":"Hennstedt","type":"Kreisangehörige_Gemeinde"},"district":{"key":"01051","name":"Dithmarschen","type":"Kreis"},"federalState":{"key":"01","name":"Schleswig-Holstein"}},{"name":"Moorlandsweg","postalCode":"25779","locality":"Hennstedt","municipality":{"key":"01051049","name":"Hennstedt","type":"Kreisangehörige_Gemeinde"},"district":{"key":"01051","name":"Dithmarschen","type":"Kreis"},"federalState":{"key":"01","name":"Schleswig-Holstein"}},{"name":"Mühlenstr.","postalCode":"25779","locality":"Hennstedt","municipality":{"key":"01051049","name":"Hennstedt","type":"Kreisangehörige_Gemeinde"},"district":{"key":"01051","name":"Dithmarschen","type":"Kreis"},"federalState":{"key":"01","name":"Schleswig-Holstein"}},{"name":"Norder Moorsweg","postalCode":"25779","locality":"Hennstedt","municipality":{"key":"01051049","name":"Hennstedt","type":"Kreisangehörige_Gemeinde"},"district":{"key":"01051","name":"Dithmarschen","type":"Kreis"},"federalState":{"key":"01","name":"Schleswig-Holstein"}},{"name":"Norderstr.","postalCode":"25779","locality":"Hennstedt","municipality":{"key":"01051049","name":"Hennstedt","type":"Kreisangehörige_Gemeinde"},"district":{"key":"01051","name":"Dithmarschen","type":"Kreis"},"federalState":{"key":"01","name":"Schleswig-Holstein"}},{"name":"Ottensstr.","postalCode":"25779","locality":"Hennstedt","municipality":{"key":"01051049","name":"Hennstedt","type":"Kreisangehörige_Gemeinde"},"district":{"key":"01051","name":"Dithmarschen","type":"Kreis"},"federalState":{"key":"01","name":"Schleswig-Holstein"}},{"name":"Paradies","postalCode":"22964","locality":"Steinburg","municipality":{"key":"01062091","name":"Steinburg","type":"Kreisangehörige_Gemeinde"},"district":{"key":"01062","name":"Stormarn","type":"Kreis"},"federalState":{"key":"01","name":"Schleswig-Holstein"}},{"name":"Poststr.","postalCode":"22964","locality":"Steinburg","municipality":{"key":"01062091","name":"Steinburg","type":"Kreisangehörige_Gemeinde"},"district":{"key":"01062","name":"Stormarn","type":"Kreis"},"federalState":{"key":"01","name":"Schleswig-Holstein"}},{"name":"Reetkrüger Weg","postalCode":"25779","locality":"Hennstedt","municipality":{"key":"01051049","name":"Hennstedt","type":"Kreisangehörige_Gemeinde"},"district":{"key":"01051","name":"Dithmarschen","type":"Kreis"},"federalState":{"key":"01","name":"Schleswig-Holstein"}},{"name":"Reller","postalCode":"25581","locality":"Hennstedt","municipality":{"key":"01061036","name":"Hennstedt","type":"Kreisangehörige_Gemeinde"},"district":{"key":"01061","name":"Steinburg","type":"Kreis"},"federalState":{"key":"01","name":"Schleswig-Holstein"}},{"name":"Rolfsstr.","postalCode":"25779","locality":"Hennstedt","municipality":{"key":"01051049","name":"Hennstedt","type":"Kreisangehörige_Gemeinde"},"district":{"key":"01051","name":"Dithmarschen","type":"Kreis"},"federalState":{"key":"01","name":"Schleswig-Holstein"}},{"name":"Rosengarten","postalCode":"25779","locality":"Hennstedt","municipality":{"key":"01051049","name":"Hennstedt","type":"Kreisangehörige_Gemeinde"},"district":{"key":"01051","name":"Dithmarschen","type":"Kreis"},"federalState":{"key":"01","name":"Schleswig-Holstein"}},{"name":"Sandberg","postalCode":"25581","locality":"Hennstedt","municipality":{"key":"01061036","name":"Hennstedt","type":"Kreisangehörige_Gemeinde"},"district":{"key":"01061","name":"Steinburg","type":"Kreis"},"federalState":{"key":"01","name":"Schleswig-Holstein"}},{"name":"Sattelkamp","postalCode":"25581","locality":"Hennstedt","municipality":{"key":"01061036","name":"Hennstedt","type":"Kreisangehörige_Gemeinde"},"district":{"key":"01061","name":"Steinburg","type":"Kreis"},"federalState":{"key":"01","name":"Schleswig-Holstein"}},{"name":"Sattlergang","postalCode":"25779","locality":"Hennstedt","municipality":{"key":"01051049","name":"Hennstedt","type":"Kreisangehörige_Gemeinde"},"district":{"key":"01051","name":"Dithmarschen","type":"Kreis"},"federalState":{"key":"01","name":"Schleswig-Holstein"}},{"name":"Schmiedegang","postalCode":"25779","locality":"Hennstedt","municipality":{"key":"01051049","name":"Hennstedt","type":"Kreisangehörige_Gemeinde"},"district":{"key":"01051","name":"Dithmarschen","type":"Kreis"},"federalState":{"key":"01","name":"Schleswig-Holstein"}},{"name":"Schulstr.","postalCode":"25581","locality":"Hennstedt","municipality":{"key":"01061036","name":"Hennstedt","type":"Kreisangehörige_Gemeinde"},"district":{"key":"01061","name":"Steinburg","type":"Kreis"},"federalState":{"key":"01","name":"Schleswig-Holstein"}},{"name":"Schulstr.","postalCode":"25779","locality":"Hennstedt","municipality":{"key":"01051049","name":"Hennstedt","type":"Kreisangehörige_Gemeinde"},"district":{"key":"01051","name":"Dithmarschen","type":"Kreis"},"federalState":{"key":"01","name":"Schleswig-Holstein"}},{"name":"Seelust","postalCode":"25581","locality":"Hennstedt","municipality":{"key":"01061036","name":"Hennstedt","type":"Kreisangehörige_Gemeinde"},"district":{"key":"01061","name":"Steinburg","type":"Kreis"},"federalState":{"key":"01","name":"Schleswig-Holstein"}},{"name":"Siedlerstr.","postalCode":"25779","locality":"Hennstedt","municipality":{"key":"01051049","name":"Hennstedt","type":"Kreisangehörige_Gemeinde"},"district":{"key":"01051","name":"Dithmarschen","type":"Kreis"},"federalState":{"key":"01","name":"Schleswig-Holstein"}},{"name":"Stilker","postalCode":"25581","locality":"Hennstedt","municipality":{"key":"01061036","name":"Hennstedt","type":"Kreisangehörige_Gemeinde"},"district":{"key":"01061","name":"Steinburg","type":"Kreis"},"federalState":{"key":"01","name":"Schleswig-Holstein"}},{"name":"Süderstr.","postalCode":"25779","locality":"Hennstedt","municipality":{"key":"01051049","name":"Hennstedt","type":"Kreisangehörige_Gemeinde"},"district":{"key":"01051","name":"Dithmarschen","type":"Kreis"},"federalState":{"key":"01","name":"Schleswig-Holstein"}},{"name":"Tellingstedter Chaussee","postalCode":"25779","locality":"Hennstedt","municipality":{"key":"01051049","name":"Hennstedt","type":"Kreisangehörige_Gemeinde"},"district":{"key":"01051","name":"Dithmarschen","type":"Kreis"},"federalState":{"key":"01","name":"Schleswig-Holstein"}},{"name":"Tellingstedter Str.","postalCode":"25779","locality":"Hennstedt","municipality":{"key":"01051049","name":"Hennstedt","type":"Kreisangehörige_Gemeinde"},"district":{"key":"01051","name":"Dithmarschen","type":"Kreis"},"federalState":{"key":"01","name":"Schleswig-Holstein"}},{"name":"Tönsheider Str.","postalCode":"25581","locality":"Hennstedt","municipality":{"key":"01061036","name":"Hennstedt","type":"Kreisangehörige_Gemeinde"},"district":{"key":"01061","name":"Steinburg","type":"Kreis"},"federalState":{"key":"01","name":"Schleswig-Holstein"}},{"name":"Vesterkoppel","postalCode":"25779","locality":"Hennstedt","municipality":{"key":"01051049","name":"Hennstedt","type":"Kreisangehörige_Gemeinde"},"district":{"key":"01051","name":"Dithmarschen","type":"Kreis"},"federalState":{"key":"01","name":"Schleswig-Holstein"}},{"name":"Westerweide","postalCode":"25779","locality":"Hennstedt","municipality":{"key":"01051049","name":"Hennstedt","type":"Kreisangehörige_Gemeinde"},"district":{"key":"01051","name":"Dithmarschen","type":"Kreis"},"federalState":{"key":"01","name":"Schleswig-Holstein"}},{"name":"Wiedenborstel","postalCode":"25581","locality":"Hennstedt","municipality":{"key":"01061036","name":"Hennstedt","type":"Kreisangehörige_Gemeinde"},"district":{"key":"01061","name":"Steinburg","type":"Kreis"},"federalState":{"key":"01","name":"Schleswig-Holstein"}},{"name":"Wiesengrund","postalCode":"25581","locality":"Hennstedt","municipality":{"key":"01061036","name":"Hennstedt","type":"Kreisangehörige_Gemeinde"},"district":{"key":"01061","name":"Steinburg","type":"Kreis"},"federalState":{"key":"01","name":"Schleswig-Holstein"}},{"name":"Wiesengrund","postalCode":"25779","locality":"Hennstedt","municipality":{"key":"01051049","name":"Hennstedt","type":"Kreisangehörige_Gemeinde"},"district":{"key":"01051","name":"Dithmarschen","type":"Kreis"},"federalState":{"key":"01","name":"Schleswig-Holstein"}},{"name":"Wiesenhof","postalCode":"25581","locality":"Hennstedt","municipality":{"key":"01061036","name":"Hennstedt","type":"Kreisangehörige_Gemeinde"},"district":{"key":"01061","name":"Steinburg","type":"Kreis"},"federalState":{"key":"01","name":"Schleswig-Holstein"}},{"name":"Wildbahn","postalCode":"25779","locality":"Hennstedt","municipality":{"key":"01051049","name":"Hennstedt","type":"Kreisangehörige_Gemeinde"},"district":{"key":"01051","name":"Dithmarschen","type":"Kreis"},"federalState":{"key":"01","name":"Schleswig-Holstein"}},]