[{"name":"Ahornweg","postalCode":"19230","locality":"Bresegard bei Picher","municipality":{"key":"13076019","name":"Bresegard bei Picher","type":"Kreisangehörige_Gemeinde"},"district":{"key":"13076","name":"Ludwigslust-Parchim","type":"Landkreis"},"federalState":{"key":"13","name":"Mecklenburg-Vorpommern"}},{"name":"Am Mühlenbach","postalCode":"19230","locality":"Bresegard bei Picher","municipality":{"key":"13076019","name":"Bresegard bei Picher","type":"Kreisangehörige_Gemeinde"},"district":{"key":"13076","name":"Ludwigslust-Parchim","type":"Landkreis"},"federalState":{"key":"13","name":"Mecklenburg-Vorpommern"}},{"name":"Am Nielser Weg","postalCode":"19230","locality":"Bresegard bei Picher","municipality":{"key":"13076019","name":"Bresegard bei Picher","type":"Kreisangehörige_Gemeinde"},"district":{"key":"13076","name":"Ludwigslust-Parchim","type":"Landkreis"},"federalState":{"key":"13","name":"Mecklenburg-Vorpommern"}},{"name":"Dorfstr.","postalCode":"19230","locality":"Bresegard bei Picher","municipality":{"key":"13076019","name":"Bresegard bei Picher","type":"Kreisangehörige_Gemeinde"},"district":{"key":"13076","name":"Ludwigslust-Parchim","type":"Landkreis"},"federalState":{"key":"13","name":"Mecklenburg-Vorpommern"}},{"name":"Hauptstr.","postalCode":"19230","locality":"Bresegard bei Picher","municipality":{"key":"13076019","name":"Bresegard bei Picher","type":"Kreisangehörige_Gemeinde"},"district":{"key":"13076","name":"Ludwigslust-Parchim","type":"Landkreis"},"federalState":{"key":"13","name":"Mecklenburg-Vorpommern"}},{"name":"Häuslerreihe","postalCode":"19230","locality":"Bresegard bei Picher","municipality":{"key":"13076019","name":"Bresegard bei Picher","type":"Kreisangehörige_Gemeinde"},"district":{"key":"13076","name":"Ludwigslust-Parchim","type":"Landkreis"},"federalState":{"key":"13","name":"Mecklenburg-Vorpommern"}},{"name":"Hofberg","postalCode":"19230","locality":"Bresegard bei Picher","municipality":{"key":"13076019","name":"Bresegard bei Picher","type":"Kreisangehörige_Gemeinde"},"district":{"key":"13076","name":"Ludwigslust-Parchim","type":"Landkreis"},"federalState":{"key":"13","name":"Mecklenburg-Vorpommern"}},{"name":"Hufe","postalCode":"19230","locality":"Bresegard bei Picher","municipality":{"key":"13076019","name":"Bresegard bei Picher","type":"Kreisangehörige_Gemeinde"},"district":{"key":"13076","name":"Ludwigslust-Parchim","type":"Landkreis"},"federalState":{"key":"13","name":"Mecklenburg-Vorpommern"}},{"name":"Langen Jammer","postalCode":"19230","locality":"Bresegard bei Picher","municipality":{"key":"13076019","name":"Bresegard bei Picher","type":"Kreisangehörige_Gemeinde"},"district":{"key":"13076","name":"Ludwigslust-Parchim","type":"Landkreis"},"federalState":{"key":"13","name":"Mecklenburg-Vorpommern"}},{"name":"Mühlenweg","postalCode":"19230","locality":"Bresegard bei Picher","municipality":{"key":"13076019","name":"Bresegard bei Picher","type":"Kreisangehörige_Gemeinde"},"district":{"key":"13076","name":"Ludwigslust-Parchim","type":"Landkreis"},"federalState":{"key":"13","name":"Mecklenburg-Vorpommern"}},{"name":"Neuer Weg","postalCode":"19230","locality":"Bresegard bei Picher","municipality":{"key":"13076019","name":"Bresegard bei Picher","type":"Kreisangehörige_Gemeinde"},"district":{"key":"13076","name":"Ludwigslust-Parchim","type":"Landkreis"},"federalState":{"key":"13","name":"Mecklenburg-Vorpommern"}},{"name":"Plüter","postalCode":"19230","locality":"Bresegard bei Picher","municipality":{"key":"13076019","name":"Bresegard bei Picher","type":"Kreisangehörige_Gemeinde"},"district":{"key":"13076","name":"Ludwigslust-Parchim","type":"Landkreis"},"federalState":{"key":"13","name":"Mecklenburg-Vorpommern"}},{"name":"Schulstr.","postalCode":"19230","locality":"Bresegard bei Picher","municipality":{"key":"13076019","name":"Bresegard bei Picher","type":"Kreisangehörige_Gemeinde"},"district":{"key":"13076","name":"Ludwigslust-Parchim","type":"Landkreis"},"federalState":{"key":"13","name":"Mecklenburg-Vorpommern"}},]