[{"name":"Alter Berg","postalCode":"96224","locality":"Burgkunstadt","municipality":{"key":"09478116","name":"Burgkunstadt, St","type":"Stadt"},"district":{"key":"09478","name":"Lichtenfels","type":"Landkreis"},"federalState":{"key":"09","name":"Bayern"}},{"name":"Alte Reichsstr.","postalCode":"96224","locality":"Burgkunstadt","municipality":{"key":"09478116","name":"Burgkunstadt, St","type":"Stadt"},"district":{"key":"09478","name":"Lichtenfels","type":"Landkreis"},"federalState":{"key":"09","name":"Bayern"}},{"name":"Alter Postweg","postalCode":"96224","locality":"Burgkunstadt","municipality":{"key":"09478116","name":"Burgkunstadt, St","type":"Stadt"},"district":{"key":"09478","name":"Lichtenfels","type":"Landkreis"},"federalState":{"key":"09","name":"Bayern"}},{"name":"Alte Schmiede","postalCode":"96224","locality":"Burgkunstadt","municipality":{"key":"09478116","name":"Burgkunstadt, St","type":"Stadt"},"district":{"key":"09478","name":"Lichtenfels","type":"Landkreis"},"federalState":{"key":"09","name":"Bayern"}},{"name":"Am Äckerlein","postalCode":"96224","locality":"Burgkunstadt","municipality":{"key":"09478116","name":"Burgkunstadt, St","type":"Stadt"},"district":{"key":"09478","name":"Lichtenfels","type":"Landkreis"},"federalState":{"key":"09","name":"Bayern"}},{"name":"Am Bahnhof","postalCode":"96224","locality":"Burgkunstadt","municipality":{"key":"09478116","name":"Burgkunstadt, St","type":"Stadt"},"district":{"key":"09478","name":"Lichtenfels","type":"Landkreis"},"federalState":{"key":"09","name":"Bayern"}},{"name":"Am Bauershof","postalCode":"96224","locality":"Burgkunstadt","municipality":{"key":"09478116","name":"Burgkunstadt, St","type":"Stadt"},"district":{"key":"09478","name":"Lichtenfels","type":"Landkreis"},"federalState":{"key":"09","name":"Bayern"}},{"name":"Am Gutshof","postalCode":"96224","locality":"Burgkunstadt","municipality":{"key":"09478116","name":"Burgkunstadt, St","type":"Stadt"},"district":{"key":"09478","name":"Lichtenfels","type":"Landkreis"},"federalState":{"key":"09","name":"Bayern"}},{"name":"Am Modschiel","postalCode":"96224","locality":"Burgkunstadt","municipality":{"key":"09478116","name":"Burgkunstadt, St","type":"Stadt"},"district":{"key":"09478","name":"Lichtenfels","type":"Landkreis"},"federalState":{"key":"09","name":"Bayern"}},{"name":"Am Mühlbach","postalCode":"96224","locality":"Burgkunstadt","municipality":{"key":"09478116","name":"Burgkunstadt, St","type":"Stadt"},"district":{"key":"09478","name":"Lichtenfels","type":"Landkreis"},"federalState":{"key":"09","name":"Bayern"}},{"name":"Am Sandhölzchen","postalCode":"96224","locality":"Burgkunstadt","municipality":{"key":"09478116","name":"Burgkunstadt, St","type":"Stadt"},"district":{"key":"09478","name":"Lichtenfels","type":"Landkreis"},"federalState":{"key":"09","name":"Bayern"}},{"name":"An der Röten","postalCode":"96224","locality":"Burgkunstadt","municipality":{"key":"09478116","name":"Burgkunstadt, St","type":"Stadt"},"district":{"key":"09478","name":"Lichtenfels","type":"Landkreis"},"federalState":{"key":"09","name":"Bayern"}},{"name":"Anger","postalCode":"96224","locality":"Burgkunstadt","municipality":{"key":"09478116","name":"Burgkunstadt, St","type":"Stadt"},"district":{"key":"09478","name":"Lichtenfels","type":"Landkreis"},"federalState":{"key":"09","name":"Bayern"}},{"name":"Auweg","postalCode":"96224","locality":"Burgkunstadt","municipality":{"key":"09478116","name":"Burgkunstadt, St","type":"Stadt"},"district":{"key":"09478","name":"Lichtenfels","type":"Landkreis"},"federalState":{"key":"09","name":"Bayern"}},{"name":"Auwiese","postalCode":"96224","locality":"Burgkunstadt","municipality":{"key":"09478116","name":"Burgkunstadt, St","type":"Stadt"},"district":{"key":"09478","name":"Lichtenfels","type":"Landkreis"},"federalState":{"key":"09","name":"Bayern"}},{"name":"Bachgasse","postalCode":"96224","locality":"Burgkunstadt","municipality":{"key":"09478116","name":"Burgkunstadt, St","type":"Stadt"},"district":{"key":"09478","name":"Lichtenfels","type":"Landkreis"},"federalState":{"key":"09","name":"Bayern"}},{"name":"Bahnhofstr.","postalCode":"96224","locality":"Burgkunstadt","municipality":{"key":"09478116","name":"Burgkunstadt, St","type":"Stadt"},"district":{"key":"09478","name":"Lichtenfels","type":"Landkreis"},"federalState":{"key":"09","name":"Bayern"}},{"name":"Bahnweg","postalCode":"96224","locality":"Burgkunstadt","municipality":{"key":"09478116","name":"Burgkunstadt, St","type":"Stadt"},"district":{"key":"09478","name":"Lichtenfels","type":"Landkreis"},"federalState":{"key":"09","name":"Bayern"}},{"name":"Bamberger Str.","postalCode":"96224","locality":"Burgkunstadt","municipality":{"key":"09478116","name":"Burgkunstadt, St","type":"Stadt"},"district":{"key":"09478","name":"Lichtenfels","type":"Landkreis"},"federalState":{"key":"09","name":"Bayern"}},{"name":"Baumgarten","postalCode":"96224","locality":"Burgkunstadt","municipality":{"key":"09478116","name":"Burgkunstadt, St","type":"Stadt"},"district":{"key":"09478","name":"Lichtenfels","type":"Landkreis"},"federalState":{"key":"09","name":"Bayern"}},{"name":"Bayreuther Str.","postalCode":"96224","locality":"Burgkunstadt","municipality":{"key":"09478116","name":"Burgkunstadt, St","type":"Stadt"},"district":{"key":"09478","name":"Lichtenfels","type":"Landkreis"},"federalState":{"key":"09","name":"Bayern"}},{"name":"Beethovenstr.","postalCode":"96224","locality":"Burgkunstadt","municipality":{"key":"09478116","name":"Burgkunstadt, St","type":"Stadt"},"district":{"key":"09478","name":"Lichtenfels","type":"Landkreis"},"federalState":{"key":"09","name":"Bayern"}},{"name":"Bergacker","postalCode":"96224","locality":"Burgkunstadt","municipality":{"key":"09478116","name":"Burgkunstadt, St","type":"Stadt"},"district":{"key":"09478","name":"Lichtenfels","type":"Landkreis"},"federalState":{"key":"09","name":"Bayern"}},{"name":"Berglein","postalCode":"96224","locality":"Burgkunstadt","municipality":{"key":"09478116","name":"Burgkunstadt, St","type":"Stadt"},"district":{"key":"09478","name":"Lichtenfels","type":"Landkreis"},"federalState":{"key":"09","name":"Bayern"}},{"name":"Bergstr.","postalCode":"96224","locality":"Burgkunstadt","municipality":{"key":"09478116","name":"Burgkunstadt, St","type":"Stadt"},"district":{"key":"09478","name":"Lichtenfels","type":"Landkreis"},"federalState":{"key":"09","name":"Bayern"}},{"name":"Börnlein","postalCode":"96224","locality":"Burgkunstadt","municipality":{"key":"09478116","name":"Burgkunstadt, St","type":"Stadt"},"district":{"key":"09478","name":"Lichtenfels","type":"Landkreis"},"federalState":{"key":"09","name":"Bayern"}},{"name":"Breslauer Str.","postalCode":"96224","locality":"Burgkunstadt","municipality":{"key":"09478116","name":"Burgkunstadt, St","type":"Stadt"},"district":{"key":"09478","name":"Lichtenfels","type":"Landkreis"},"federalState":{"key":"09","name":"Bayern"}},{"name":"Brunnengasse","postalCode":"96224","locality":"Burgkunstadt","municipality":{"key":"09478116","name":"Burgkunstadt, St","type":"Stadt"},"district":{"key":"09478","name":"Lichtenfels","type":"Landkreis"},"federalState":{"key":"09","name":"Bayern"}},{"name":"Bürgermeister-Vonbrunn-Str.","postalCode":"96224","locality":"Burgkunstadt","municipality":{"key":"09478116","name":"Burgkunstadt, St","type":"Stadt"},"district":{"key":"09478","name":"Lichtenfels","type":"Landkreis"},"federalState":{"key":"09","name":"Bayern"}},{"name":"Burgweg","postalCode":"96224","locality":"Burgkunstadt","municipality":{"key":"09478116","name":"Burgkunstadt, St","type":"Stadt"},"district":{"key":"09478","name":"Lichtenfels","type":"Landkreis"},"federalState":{"key":"09","name":"Bayern"}},{"name":"Coburger Str.","postalCode":"96224","locality":"Burgkunstadt","municipality":{"key":"09478116","name":"Burgkunstadt, St","type":"Stadt"},"district":{"key":"09478","name":"Lichtenfels","type":"Landkreis"},"federalState":{"key":"09","name":"Bayern"}},{"name":"Dammsiedlung","postalCode":"96224","locality":"Burgkunstadt","municipality":{"key":"09478116","name":"Burgkunstadt, St","type":"Stadt"},"district":{"key":"09478","name":"Lichtenfels","type":"Landkreis"},"federalState":{"key":"09","name":"Bayern"}},{"name":"Danziger Weg","postalCode":"96224","locality":"Burgkunstadt","municipality":{"key":"09478116","name":"Burgkunstadt, St","type":"Stadt"},"district":{"key":"09478","name":"Lichtenfels","type":"Landkreis"},"federalState":{"key":"09","name":"Bayern"}},{"name":"Dr.-Baur-Siedlung","postalCode":"96224","locality":"Burgkunstadt","municipality":{"key":"09478116","name":"Burgkunstadt, St","type":"Stadt"},"district":{"key":"09478","name":"Lichtenfels","type":"Landkreis"},"federalState":{"key":"09","name":"Bayern"}},{"name":"Dr.-Bullinger-Str.","postalCode":"96224","locality":"Burgkunstadt","municipality":{"key":"09478116","name":"Burgkunstadt, St","type":"Stadt"},"district":{"key":"09478","name":"Lichtenfels","type":"Landkreis"},"federalState":{"key":"09","name":"Bayern"}},{"name":"Dr.-Pühn-Str.","postalCode":"96224","locality":"Burgkunstadt","municipality":{"key":"09478116","name":"Burgkunstadt, St","type":"Stadt"},"district":{"key":"09478","name":"Lichtenfels","type":"Landkreis"},"federalState":{"key":"09","name":"Bayern"}},{"name":"Dr.-Sattler-Ring","postalCode":"96224","locality":"Burgkunstadt","municipality":{"key":"09478116","name":"Burgkunstadt, St","type":"Stadt"},"district":{"key":"09478","name":"Lichtenfels","type":"Landkreis"},"federalState":{"key":"09","name":"Bayern"}},{"name":"Dr.-Sattler-Str.","postalCode":"96224","locality":"Burgkunstadt","municipality":{"key":"09478116","name":"Burgkunstadt, St","type":"Stadt"},"district":{"key":"09478","name":"Lichtenfels","type":"Landkreis"},"federalState":{"key":"09","name":"Bayern"}},{"name":"Ebnether Str.","postalCode":"96224","locality":"Burgkunstadt","municipality":{"key":"09478116","name":"Burgkunstadt, St","type":"Stadt"},"district":{"key":"09478","name":"Lichtenfels","type":"Landkreis"},"federalState":{"key":"09","name":"Bayern"}},{"name":"Egerer Str.","postalCode":"96224","locality":"Burgkunstadt","municipality":{"key":"09478116","name":"Burgkunstadt, St","type":"Stadt"},"district":{"key":"09478","name":"Lichtenfels","type":"Landkreis"},"federalState":{"key":"09","name":"Bayern"}},{"name":"Einzuziehendes Teilstück","postalCode":"96224","locality":"Burgkunstadt","municipality":{"key":"09478116","name":"Burgkunstadt, St","type":"Stadt"},"district":{"key":"09478","name":"Lichtenfels","type":"Landkreis"},"federalState":{"key":"09","name":"Bayern"}},{"name":"Elbinger Weg","postalCode":"96224","locality":"Burgkunstadt","municipality":{"key":"09478116","name":"Burgkunstadt, St","type":"Stadt"},"district":{"key":"09478","name":"Lichtenfels","type":"Landkreis"},"federalState":{"key":"09","name":"Bayern"}},{"name":"Erlenweg","postalCode":"96224","locality":"Burgkunstadt","municipality":{"key":"09478116","name":"Burgkunstadt, St","type":"Stadt"},"district":{"key":"09478","name":"Lichtenfels","type":"Landkreis"},"federalState":{"key":"09","name":"Bayern"}},{"name":"Etschigstr.","postalCode":"96224","locality":"Burgkunstadt","municipality":{"key":"09478116","name":"Burgkunstadt, St","type":"Stadt"},"district":{"key":"09478","name":"Lichtenfels","type":"Landkreis"},"federalState":{"key":"09","name":"Bayern"}},{"name":"Feuerweg","postalCode":"96224","locality":"Burgkunstadt","municipality":{"key":"09478116","name":"Burgkunstadt, St","type":"Stadt"},"district":{"key":"09478","name":"Lichtenfels","type":"Landkreis"},"federalState":{"key":"09","name":"Bayern"}},{"name":"Finkenschlag","postalCode":"96224","locality":"Burgkunstadt","municipality":{"key":"09478116","name":"Burgkunstadt, St","type":"Stadt"},"district":{"key":"09478","name":"Lichtenfels","type":"Landkreis"},"federalState":{"key":"09","name":"Bayern"}},{"name":"Fliehgasse","postalCode":"96224","locality":"Burgkunstadt","municipality":{"key":"09478116","name":"Burgkunstadt, St","type":"Stadt"},"district":{"key":"09478","name":"Lichtenfels","type":"Landkreis"},"federalState":{"key":"09","name":"Bayern"}},{"name":"Flurholz","postalCode":"96224","locality":"Burgkunstadt","municipality":{"key":"09478116","name":"Burgkunstadt, St","type":"Stadt"},"district":{"key":"09478","name":"Lichtenfels","type":"Landkreis"},"federalState":{"key":"09","name":"Bayern"}},{"name":"Frankenleite","postalCode":"96224","locality":"Burgkunstadt","municipality":{"key":"09478116","name":"Burgkunstadt, St","type":"Stadt"},"district":{"key":"09478","name":"Lichtenfels","type":"Landkreis"},"federalState":{"key":"09","name":"Bayern"}},{"name":"Franz-Leonhard-Pregler-Str.","postalCode":"96224","locality":"Burgkunstadt","municipality":{"key":"09478116","name":"Burgkunstadt, St","type":"Stadt"},"district":{"key":"09478","name":"Lichtenfels","type":"Landkreis"},"federalState":{"key":"09","name":"Bayern"}},{"name":"Franz-Roscher-Str.","postalCode":"96224","locality":"Burgkunstadt","municipality":{"key":"09478116","name":"Burgkunstadt, St","type":"Stadt"},"district":{"key":"09478","name":"Lichtenfels","type":"Landkreis"},"federalState":{"key":"09","name":"Bayern"}},{"name":"Friedhofstr.","postalCode":"96224","locality":"Burgkunstadt","municipality":{"key":"09478116","name":"Burgkunstadt, St","type":"Stadt"},"district":{"key":"09478","name":"Lichtenfels","type":"Landkreis"},"federalState":{"key":"09","name":"Bayern"}},{"name":"Funksberg","postalCode":"96224","locality":"Burgkunstadt","municipality":{"key":"09478116","name":"Burgkunstadt, St","type":"Stadt"},"district":{"key":"09478","name":"Lichtenfels","type":"Landkreis"},"federalState":{"key":"09","name":"Bayern"}},{"name":"Fußweg Synagoge","postalCode":"96224","locality":"Burgkunstadt","municipality":{"key":"09478116","name":"Burgkunstadt, St","type":"Stadt"},"district":{"key":"09478","name":"Lichtenfels","type":"Landkreis"},"federalState":{"key":"09","name":"Bayern"}},{"name":"Gabelsbergerweg","postalCode":"96224","locality":"Burgkunstadt","municipality":{"key":"09478116","name":"Burgkunstadt, St","type":"Stadt"},"district":{"key":"09478","name":"Lichtenfels","type":"Landkreis"},"federalState":{"key":"09","name":"Bayern"}},{"name":"Gartenbach","postalCode":"96224","locality":"Burgkunstadt","municipality":{"key":"09478116","name":"Burgkunstadt, St","type":"Stadt"},"district":{"key":"09478","name":"Lichtenfels","type":"Landkreis"},"federalState":{"key":"09","name":"Bayern"}},{"name":"Gärtenrother Str.","postalCode":"96224","locality":"Burgkunstadt","municipality":{"key":"09478116","name":"Burgkunstadt, St","type":"Stadt"},"district":{"key":"09478","name":"Lichtenfels","type":"Landkreis"},"federalState":{"key":"09","name":"Bayern"}},{"name":"Gartenweg","postalCode":"96224","locality":"Burgkunstadt","municipality":{"key":"09478116","name":"Burgkunstadt, St","type":"Stadt"},"district":{"key":"09478","name":"Lichtenfels","type":"Landkreis"},"federalState":{"key":"09","name":"Bayern"}},{"name":"Gäßla","postalCode":"96224","locality":"Burgkunstadt","municipality":{"key":"09478116","name":"Burgkunstadt, St","type":"Stadt"},"district":{"key":"09478","name":"Lichtenfels","type":"Landkreis"},"federalState":{"key":"09","name":"Bayern"}},{"name":"Geheimrat-Püls-Str.","postalCode":"96224","locality":"Burgkunstadt","municipality":{"key":"09478116","name":"Burgkunstadt, St","type":"Stadt"},"district":{"key":"09478","name":"Lichtenfels","type":"Landkreis"},"federalState":{"key":"09","name":"Bayern"}},{"name":"Georg-Will-Str.","postalCode":"96224","locality":"Burgkunstadt","municipality":{"key":"09478116","name":"Burgkunstadt, St","type":"Stadt"},"district":{"key":"09478","name":"Lichtenfels","type":"Landkreis"},"federalState":{"key":"09","name":"Bayern"}},{"name":"Goethestr.","postalCode":"96224","locality":"Burgkunstadt","municipality":{"key":"09478116","name":"Burgkunstadt, St","type":"Stadt"},"district":{"key":"09478","name":"Lichtenfels","type":"Landkreis"},"federalState":{"key":"09","name":"Bayern"}},{"name":"Grabenweg","postalCode":"96224","locality":"Burgkunstadt","municipality":{"key":"09478116","name":"Burgkunstadt, St","type":"Stadt"},"district":{"key":"09478","name":"Lichtenfels","type":"Landkreis"},"federalState":{"key":"09","name":"Bayern"}},{"name":"Gries","postalCode":"96224","locality":"Burgkunstadt","municipality":{"key":"09478116","name":"Burgkunstadt, St","type":"Stadt"},"district":{"key":"09478","name":"Lichtenfels","type":"Landkreis"},"federalState":{"key":"09","name":"Bayern"}},{"name":"Großer Flügel","postalCode":"96224","locality":"Burgkunstadt","municipality":{"key":"09478116","name":"Burgkunstadt, St","type":"Stadt"},"district":{"key":"09478","name":"Lichtenfels","type":"Landkreis"},"federalState":{"key":"09","name":"Bayern"}},{"name":"Großer Graben","postalCode":"96224","locality":"Burgkunstadt","municipality":{"key":"09478116","name":"Burgkunstadt, St","type":"Stadt"},"district":{"key":"09478","name":"Lichtenfels","type":"Landkreis"},"federalState":{"key":"09","name":"Bayern"}},{"name":"Grubenweg","postalCode":"96224","locality":"Burgkunstadt","municipality":{"key":"09478116","name":"Burgkunstadt, St","type":"Stadt"},"district":{"key":"09478","name":"Lichtenfels","type":"Landkreis"},"federalState":{"key":"09","name":"Bayern"}},{"name":"Häckergrund","postalCode":"96224","locality":"Burgkunstadt","municipality":{"key":"09478116","name":"Burgkunstadt, St","type":"Stadt"},"district":{"key":"09478","name":"Lichtenfels","type":"Landkreis"},"federalState":{"key":"09","name":"Bayern"}},{"name":"Hängleitenweg","postalCode":"96224","locality":"Burgkunstadt","municipality":{"key":"09478116","name":"Burgkunstadt, St","type":"Stadt"},"district":{"key":"09478","name":"Lichtenfels","type":"Landkreis"},"federalState":{"key":"09","name":"Bayern"}},{"name":"Hangstr.","postalCode":"96224","locality":"Burgkunstadt","municipality":{"key":"09478116","name":"Burgkunstadt, St","type":"Stadt"},"district":{"key":"09478","name":"Lichtenfels","type":"Landkreis"},"federalState":{"key":"09","name":"Bayern"}},{"name":"Hans-Agath-Str.","postalCode":"96224","locality":"Burgkunstadt","municipality":{"key":"09478116","name":"Burgkunstadt, St","type":"Stadt"},"district":{"key":"09478","name":"Lichtenfels","type":"Landkreis"},"federalState":{"key":"09","name":"Bayern"}},{"name":"Hasenstein","postalCode":"96224","locality":"Burgkunstadt","municipality":{"key":"09478116","name":"Burgkunstadt, St","type":"Stadt"},"district":{"key":"09478","name":"Lichtenfels","type":"Landkreis"},"federalState":{"key":"09","name":"Bayern"}},{"name":"Hauptstr.","postalCode":"96224","locality":"Burgkunstadt","municipality":{"key":"09478116","name":"Burgkunstadt, St","type":"Stadt"},"district":{"key":"09478","name":"Lichtenfels","type":"Landkreis"},"federalState":{"key":"09","name":"Bayern"}},{"name":"Heckenweg","postalCode":"96224","locality":"Burgkunstadt","municipality":{"key":"09478116","name":"Burgkunstadt, St","type":"Stadt"},"district":{"key":"09478","name":"Lichtenfels","type":"Landkreis"},"federalState":{"key":"09","name":"Bayern"}},{"name":"Heufuhr","postalCode":"96224","locality":"Burgkunstadt","municipality":{"key":"09478116","name":"Burgkunstadt, St","type":"Stadt"},"district":{"key":"09478","name":"Lichtenfels","type":"Landkreis"},"federalState":{"key":"09","name":"Bayern"}},{"name":"Himmelreich","postalCode":"96224","locality":"Burgkunstadt","municipality":{"key":"09478116","name":"Burgkunstadt, St","type":"Stadt"},"district":{"key":"09478","name":"Lichtenfels","type":"Landkreis"},"federalState":{"key":"09","name":"Bayern"}},{"name":"Hirtenweg","postalCode":"96224","locality":"Burgkunstadt","municipality":{"key":"09478116","name":"Burgkunstadt, St","type":"Stadt"},"district":{"key":"09478","name":"Lichtenfels","type":"Landkreis"},"federalState":{"key":"09","name":"Bayern"}},{"name":"Hohes Feld","postalCode":"96224","locality":"Burgkunstadt","municipality":{"key":"09478116","name":"Burgkunstadt, St","type":"Stadt"},"district":{"key":"09478","name":"Lichtenfels","type":"Landkreis"},"federalState":{"key":"09","name":"Bayern"}},{"name":"Horlache","postalCode":"96224","locality":"Burgkunstadt","municipality":{"key":"09478116","name":"Burgkunstadt, St","type":"Stadt"},"district":{"key":"09478","name":"Lichtenfels","type":"Landkreis"},"federalState":{"key":"09","name":"Bayern"}},{"name":"In der Au","postalCode":"96224","locality":"Burgkunstadt","municipality":{"key":"09478116","name":"Burgkunstadt, St","type":"Stadt"},"district":{"key":"09478","name":"Lichtenfels","type":"Landkreis"},"federalState":{"key":"09","name":"Bayern"}},{"name":"Jahnstr.","postalCode":"96224","locality":"Burgkunstadt","municipality":{"key":"09478116","name":"Burgkunstadt, St","type":"Stadt"},"district":{"key":"09478","name":"Lichtenfels","type":"Landkreis"},"federalState":{"key":"09","name":"Bayern"}},{"name":"Jakob-May-Str.","postalCode":"96224","locality":"Burgkunstadt","municipality":{"key":"09478116","name":"Burgkunstadt, St","type":"Stadt"},"district":{"key":"09478","name":"Lichtenfels","type":"Landkreis"},"federalState":{"key":"09","name":"Bayern"}},{"name":"Johann-Cellarius-Str.","postalCode":"96224","locality":"Burgkunstadt","municipality":{"key":"09478116","name":"Burgkunstadt, St","type":"Stadt"},"district":{"key":"09478","name":"Lichtenfels","type":"Landkreis"},"federalState":{"key":"09","name":"Bayern"}},{"name":"Johann-Paul-Benkert-Str.","postalCode":"96224","locality":"Burgkunstadt","municipality":{"key":"09478116","name":"Burgkunstadt, St","type":"Stadt"},"district":{"key":"09478","name":"Lichtenfels","type":"Landkreis"},"federalState":{"key":"09","name":"Bayern"}},{"name":"Johann-Schlund-Str.","postalCode":"96224","locality":"Burgkunstadt","municipality":{"key":"09478116","name":"Burgkunstadt, St","type":"Stadt"},"district":{"key":"09478","name":"Lichtenfels","type":"Landkreis"},"federalState":{"key":"09","name":"Bayern"}},{"name":"Joseph-Weiermann-Str.","postalCode":"96224","locality":"Burgkunstadt","municipality":{"key":"09478116","name":"Burgkunstadt, St","type":"Stadt"},"district":{"key":"09478","name":"Lichtenfels","type":"Landkreis"},"federalState":{"key":"09","name":"Bayern"}},{"name":"Karl-Eugen-Fischer-Str.","postalCode":"96224","locality":"Burgkunstadt","municipality":{"key":"09478116","name":"Burgkunstadt, St","type":"Stadt"},"district":{"key":"09478","name":"Lichtenfels","type":"Landkreis"},"federalState":{"key":"09","name":"Bayern"}},{"name":"Karlsbader Weg","postalCode":"96224","locality":"Burgkunstadt","municipality":{"key":"09478116","name":"Burgkunstadt, St","type":"Stadt"},"district":{"key":"09478","name":"Lichtenfels","type":"Landkreis"},"federalState":{"key":"09","name":"Bayern"}},{"name":"Kathi-Baur-Platz","postalCode":"96224","locality":"Burgkunstadt","municipality":{"key":"09478116","name":"Burgkunstadt, St","type":"Stadt"},"district":{"key":"09478","name":"Lichtenfels","type":"Landkreis"},"federalState":{"key":"09","name":"Bayern"}},{"name":"Kathi-Baur-Str.","postalCode":"96224","locality":"Burgkunstadt","municipality":{"key":"09478116","name":"Burgkunstadt, St","type":"Stadt"},"district":{"key":"09478","name":"Lichtenfels","type":"Landkreis"},"federalState":{"key":"09","name":"Bayern"}},{"name":"Kaufleite","postalCode":"96224","locality":"Burgkunstadt","municipality":{"key":"09478116","name":"Burgkunstadt, St","type":"Stadt"},"district":{"key":"09478","name":"Lichtenfels","type":"Landkreis"},"federalState":{"key":"09","name":"Bayern"}},{"name":"Keplerweg","postalCode":"96224","locality":"Burgkunstadt","municipality":{"key":"09478116","name":"Burgkunstadt, St","type":"Stadt"},"district":{"key":"09478","name":"Lichtenfels","type":"Landkreis"},"federalState":{"key":"09","name":"Bayern"}},{"name":"Kesselweg","postalCode":"96224","locality":"Burgkunstadt","municipality":{"key":"09478116","name":"Burgkunstadt, St","type":"Stadt"},"district":{"key":"09478","name":"Lichtenfels","type":"Landkreis"},"federalState":{"key":"09","name":"Bayern"}},{"name":"Kiefernwald","postalCode":"96224","locality":"Burgkunstadt","municipality":{"key":"09478116","name":"Burgkunstadt, St","type":"Stadt"},"district":{"key":"09478","name":"Lichtenfels","type":"Landkreis"},"federalState":{"key":"09","name":"Bayern"}},{"name":"Kirchleiner Str.","postalCode":"96224","locality":"Burgkunstadt","municipality":{"key":"09478116","name":"Burgkunstadt, St","type":"Stadt"},"district":{"key":"09478","name":"Lichtenfels","type":"Landkreis"},"federalState":{"key":"09","name":"Bayern"}},{"name":"Klausenhof","postalCode":"96224","locality":"Burgkunstadt","municipality":{"key":"09478116","name":"Burgkunstadt, St","type":"Stadt"},"district":{"key":"09478","name":"Lichtenfels","type":"Landkreis"},"federalState":{"key":"09","name":"Bayern"}},{"name":"Kleiner Flügel","postalCode":"96224","locality":"Burgkunstadt","municipality":{"key":"09478116","name":"Burgkunstadt, St","type":"Stadt"},"district":{"key":"09478","name":"Lichtenfels","type":"Landkreis"},"federalState":{"key":"09","name":"Bayern"}},{"name":"Kommerzienrat-Riexinger-Weg","postalCode":"96224","locality":"Burgkunstadt","municipality":{"key":"09478116","name":"Burgkunstadt, St","type":"Stadt"},"district":{"key":"09478","name":"Lichtenfels","type":"Landkreis"},"federalState":{"key":"09","name":"Bayern"}},{"name":"Königsberger Str.","postalCode":"96224","locality":"Burgkunstadt","municipality":{"key":"09478116","name":"Burgkunstadt, St","type":"Stadt"},"district":{"key":"09478","name":"Lichtenfels","type":"Landkreis"},"federalState":{"key":"09","name":"Bayern"}},{"name":"Konrad-Zeitler-Str.","postalCode":"96224","locality":"Burgkunstadt","municipality":{"key":"09478116","name":"Burgkunstadt, St","type":"Stadt"},"district":{"key":"09478","name":"Lichtenfels","type":"Landkreis"},"federalState":{"key":"09","name":"Bayern"}},{"name":"Kriegsäcker","postalCode":"96224","locality":"Burgkunstadt","municipality":{"key":"09478116","name":"Burgkunstadt, St","type":"Stadt"},"district":{"key":"09478","name":"Lichtenfels","type":"Landkreis"},"federalState":{"key":"09","name":"Bayern"}},{"name":"Kronacher Tor","postalCode":"96224","locality":"Burgkunstadt","municipality":{"key":"09478116","name":"Burgkunstadt, St","type":"Stadt"},"district":{"key":"09478","name":"Lichtenfels","type":"Landkreis"},"federalState":{"key":"09","name":"Bayern"}},{"name":"Kugelgasse","postalCode":"96224","locality":"Burgkunstadt","municipality":{"key":"09478116","name":"Burgkunstadt, St","type":"Stadt"},"district":{"key":"09478","name":"Lichtenfels","type":"Landkreis"},"federalState":{"key":"09","name":"Bayern"}},{"name":"Kulmbacher Str.","postalCode":"96224","locality":"Burgkunstadt","municipality":{"key":"09478116","name":"Burgkunstadt, St","type":"Stadt"},"district":{"key":"09478","name":"Lichtenfels","type":"Landkreis"},"federalState":{"key":"09","name":"Bayern"}},{"name":"Kuni-Tremel-Eggert-Str.","postalCode":"96224","locality":"Burgkunstadt","municipality":{"key":"09478116","name":"Burgkunstadt, St","type":"Stadt"},"district":{"key":"09478","name":"Lichtenfels","type":"Landkreis"},"federalState":{"key":"09","name":"Bayern"}},{"name":"Kurmainzer Str.","postalCode":"96224","locality":"Burgkunstadt","municipality":{"key":"09478116","name":"Burgkunstadt, St","type":"Stadt"},"district":{"key":"09478","name":"Lichtenfels","type":"Landkreis"},"federalState":{"key":"09","name":"Bayern"}},{"name":"Lange Gasse","postalCode":"96224","locality":"Burgkunstadt","municipality":{"key":"09478116","name":"Burgkunstadt, St","type":"Stadt"},"district":{"key":"09478","name":"Lichtenfels","type":"Landkreis"},"federalState":{"key":"09","name":"Bayern"}},{"name":"Leite","postalCode":"96224","locality":"Burgkunstadt","municipality":{"key":"09478116","name":"Burgkunstadt, St","type":"Stadt"},"district":{"key":"09478","name":"Lichtenfels","type":"Landkreis"},"federalState":{"key":"09","name":"Bayern"}},{"name":"Lend","postalCode":"96224","locality":"Burgkunstadt","municipality":{"key":"09478116","name":"Burgkunstadt, St","type":"Stadt"},"district":{"key":"09478","name":"Lichtenfels","type":"Landkreis"},"federalState":{"key":"09","name":"Bayern"}},{"name":"Lerchenbühl","postalCode":"96224","locality":"Burgkunstadt","municipality":{"key":"09478116","name":"Burgkunstadt, St","type":"Stadt"},"district":{"key":"09478","name":"Lichtenfels","type":"Landkreis"},"federalState":{"key":"09","name":"Bayern"}},{"name":"Lichtenfelser Str.","postalCode":"96224","locality":"Burgkunstadt","municipality":{"key":"09478116","name":"Burgkunstadt, St","type":"Stadt"},"district":{"key":"09478","name":"Lichtenfels","type":"Landkreis"},"federalState":{"key":"09","name":"Bayern"}},{"name":"Liegnitzer Str.","postalCode":"96224","locality":"Burgkunstadt","municipality":{"key":"09478116","name":"Burgkunstadt, St","type":"Stadt"},"district":{"key":"09478","name":"Lichtenfels","type":"Landkreis"},"federalState":{"key":"09","name":"Bayern"}},{"name":"Lindenweg","postalCode":"96224","locality":"Burgkunstadt","municipality":{"key":"09478116","name":"Burgkunstadt, St","type":"Stadt"},"district":{"key":"09478","name":"Lichtenfels","type":"Landkreis"},"federalState":{"key":"09","name":"Bayern"}},{"name":"Mainbrücke","postalCode":"96224","locality":"Burgkunstadt","municipality":{"key":"09478116","name":"Burgkunstadt, St","type":"Stadt"},"district":{"key":"09478","name":"Lichtenfels","type":"Landkreis"},"federalState":{"key":"09","name":"Bayern"}},{"name":"Mainbrücke Theisau","postalCode":"96224","locality":"Burgkunstadt","municipality":{"key":"09478116","name":"Burgkunstadt, St","type":"Stadt"},"district":{"key":"09478","name":"Lichtenfels","type":"Landkreis"},"federalState":{"key":"09","name":"Bayern"}},{"name":"Mainecker Str.","postalCode":"96224","locality":"Burgkunstadt","municipality":{"key":"09478116","name":"Burgkunstadt, St","type":"Stadt"},"district":{"key":"09478","name":"Lichtenfels","type":"Landkreis"},"federalState":{"key":"09","name":"Bayern"}},{"name":"Mainkleiner Weg","postalCode":"96224","locality":"Burgkunstadt","municipality":{"key":"09478116","name":"Burgkunstadt, St","type":"Stadt"},"district":{"key":"09478","name":"Lichtenfels","type":"Landkreis"},"federalState":{"key":"09","name":"Bayern"}},{"name":"Mainrother Str.","postalCode":"96224","locality":"Burgkunstadt","municipality":{"key":"09478116","name":"Burgkunstadt, St","type":"Stadt"},"district":{"key":"09478","name":"Lichtenfels","type":"Landkreis"},"federalState":{"key":"09","name":"Bayern"}},{"name":"Marienbader Weg","postalCode":"96224","locality":"Burgkunstadt","municipality":{"key":"09478116","name":"Burgkunstadt, St","type":"Stadt"},"district":{"key":"09478","name":"Lichtenfels","type":"Landkreis"},"federalState":{"key":"09","name":"Bayern"}},{"name":"Marktplatz","postalCode":"96224","locality":"Burgkunstadt","municipality":{"key":"09478116","name":"Burgkunstadt, St","type":"Stadt"},"district":{"key":"09478","name":"Lichtenfels","type":"Landkreis"},"federalState":{"key":"09","name":"Bayern"}},{"name":"Martin-Luther-Str.","postalCode":"96224","locality":"Burgkunstadt","municipality":{"key":"09478116","name":"Burgkunstadt, St","type":"Stadt"},"district":{"key":"09478","name":"Lichtenfels","type":"Landkreis"},"federalState":{"key":"09","name":"Bayern"}},{"name":"Meschleinsgraben","postalCode":"96224","locality":"Burgkunstadt","municipality":{"key":"09478116","name":"Burgkunstadt, St","type":"Stadt"},"district":{"key":"09478","name":"Lichtenfels","type":"Landkreis"},"federalState":{"key":"09","name":"Bayern"}},{"name":"Mozartstr.","postalCode":"96224","locality":"Burgkunstadt","municipality":{"key":"09478116","name":"Burgkunstadt, St","type":"Stadt"},"district":{"key":"09478","name":"Lichtenfels","type":"Landkreis"},"federalState":{"key":"09","name":"Bayern"}},{"name":"Naßanger","postalCode":"96215","locality":"Lichtenfels","municipality":{"key":"09478139","name":"Lichtenfels, St","type":"Stadt"},"district":{"key":"09478","name":"Lichtenfels","type":"Landkreis"},"federalState":{"key":"09","name":"Bayern"}},{"name":"Nelkenstr.","postalCode":"35104","locality":"Lichtenfels","municipality":{"key":"06635016","name":"Lichtenfels, Stadt","type":"Stadt"},"district":{"key":"06635","name":"Waldeck-Frankenberg","type":"Landkreis"},"federalState":{"key":"06","name":"Hessen"}},{"name":"Nelkenstr.","postalCode":"96215","locality":"Lichtenfels","municipality":{"key":"09478139","name":"Lichtenfels, St","type":"Stadt"},"district":{"key":"09478","name":"Lichtenfels","type":"Landkreis"},"federalState":{"key":"09","name":"Bayern"}},{"name":"Nelkenweg","postalCode":"96215","locality":"Lichtenfels","municipality":{"key":"09478139","name":"Lichtenfels, St","type":"Stadt"},"district":{"key":"09478","name":"Lichtenfels","type":"Landkreis"},"federalState":{"key":"09","name":"Bayern"}},{"name":"Nestelgraben","postalCode":"96215","locality":"Lichtenfels","municipality":{"key":"09478139","name":"Lichtenfels, St","type":"Stadt"},"district":{"key":"09478","name":"Lichtenfels","type":"Landkreis"},"federalState":{"key":"09","name":"Bayern"}},{"name":"Neuensorger Str.","postalCode":"96215","locality":"Lichtenfels","municipality":{"key":"09478139","name":"Lichtenfels, St","type":"Stadt"},"district":{"key":"09478","name":"Lichtenfels","type":"Landkreis"},"federalState":{"key":"09","name":"Bayern"}},{"name":"Neuer Weg","postalCode":"35104","locality":"Lichtenfels","municipality":{"key":"06635016","name":"Lichtenfels, Stadt","type":"Stadt"},"district":{"key":"06635","name":"Waldeck-Frankenberg","type":"Landkreis"},"federalState":{"key":"06","name":"Hessen"}},{"name":"Neue Siedlung","postalCode":"35104","locality":"Lichtenfels","municipality":{"key":"06635016","name":"Lichtenfels, Stadt","type":"Stadt"},"district":{"key":"06635","name":"Waldeck-Frankenberg","type":"Landkreis"},"federalState":{"key":"06","name":"Hessen"}},{"name":"Neue Welt","postalCode":"96215","locality":"Lichtenfels","municipality":{"key":"09478139","name":"Lichtenfels, St","type":"Stadt"},"district":{"key":"09478","name":"Lichtenfels","type":"Landkreis"},"federalState":{"key":"09","name":"Bayern"}},{"name":"Neukirchener Str.","postalCode":"35104","locality":"Lichtenfels","municipality":{"key":"06635016","name":"Lichtenfels, Stadt","type":"Stadt"},"district":{"key":"06635","name":"Waldeck-Frankenberg","type":"Landkreis"},"federalState":{"key":"06","name":"Hessen"}},{"name":"Nibelungenstr.","postalCode":"96215","locality":"Lichtenfels","municipality":{"key":"09478139","name":"Lichtenfels, St","type":"Stadt"},"district":{"key":"09478","name":"Lichtenfels","type":"Landkreis"},"federalState":{"key":"09","name":"Bayern"}},{"name":"Nikolaus-Schmidt-Str.","postalCode":"96215","locality":"Lichtenfels","municipality":{"key":"09478139","name":"Lichtenfels, St","type":"Stadt"},"district":{"key":"09478","name":"Lichtenfels","type":"Landkreis"},"federalState":{"key":"09","name":"Bayern"}},{"name":"Norbert-Hartan-Weg","postalCode":"96215","locality":"Lichtenfels","municipality":{"key":"09478139","name":"Lichtenfels, St","type":"Stadt"},"district":{"key":"09478","name":"Lichtenfels","type":"Landkreis"},"federalState":{"key":"09","name":"Bayern"}},{"name":"Nordgauerstr.","postalCode":"96215","locality":"Lichtenfels","municipality":{"key":"09478139","name":"Lichtenfels, St","type":"Stadt"},"district":{"key":"09478","name":"Lichtenfels","type":"Landkreis"},"federalState":{"key":"09","name":"Bayern"}},{"name":"Nordstr.","postalCode":"35104","locality":"Lichtenfels","municipality":{"key":"06635016","name":"Lichtenfels, Stadt","type":"Stadt"},"district":{"key":"06635","name":"Waldeck-Frankenberg","type":"Landkreis"},"federalState":{"key":"06","name":"Hessen"}},{"name":"Nothelfersteig","postalCode":"96215","locality":"Lichtenfels","municipality":{"key":"09478139","name":"Lichtenfels, St","type":"Stadt"},"district":{"key":"09478","name":"Lichtenfels","type":"Landkreis"},"federalState":{"key":"09","name":"Bayern"}},{"name":"Nuhneweg","postalCode":"35104","locality":"Lichtenfels","municipality":{"key":"06635016","name":"Lichtenfels, Stadt","type":"Stadt"},"district":{"key":"06635","name":"Waldeck-Frankenberg","type":"Landkreis"},"federalState":{"key":"06","name":"Hessen"}},{"name":"Nußweg","postalCode":"96215","locality":"Lichtenfels","municipality":{"key":"09478139","name":"Lichtenfels, St","type":"Stadt"},"district":{"key":"09478","name":"Lichtenfels","type":"Landkreis"},"federalState":{"key":"09","name":"Bayern"}},{"name":"Oberdorfstr.","postalCode":"96224","locality":"Burgkunstadt","municipality":{"key":"09478116","name":"Burgkunstadt, St","type":"Stadt"},"district":{"key":"09478","name":"Lichtenfels","type":"Landkreis"},"federalState":{"key":"09","name":"Bayern"}},{"name":"Oberer Berg","postalCode":"96224","locality":"Burgkunstadt","municipality":{"key":"09478116","name":"Burgkunstadt, St","type":"Stadt"},"district":{"key":"09478","name":"Lichtenfels","type":"Landkreis"},"federalState":{"key":"09","name":"Bayern"}},{"name":"Obristfelder Weg","postalCode":"96224","locality":"Burgkunstadt","municipality":{"key":"09478116","name":"Burgkunstadt, St","type":"Stadt"},"district":{"key":"09478","name":"Lichtenfels","type":"Landkreis"},"federalState":{"key":"09","name":"Bayern"}},{"name":"Paulus-Hetzel-Str.","postalCode":"96224","locality":"Burgkunstadt","municipality":{"key":"09478116","name":"Burgkunstadt, St","type":"Stadt"},"district":{"key":"09478","name":"Lichtenfels","type":"Landkreis"},"federalState":{"key":"09","name":"Bayern"}},{"name":"Pentzer Tor","postalCode":"96224","locality":"Burgkunstadt","municipality":{"key":"09478116","name":"Burgkunstadt, St","type":"Stadt"},"district":{"key":"09478","name":"Lichtenfels","type":"Landkreis"},"federalState":{"key":"09","name":"Bayern"}},{"name":"Pestalozzistr.","postalCode":"96224","locality":"Burgkunstadt","municipality":{"key":"09478116","name":"Burgkunstadt, St","type":"Stadt"},"district":{"key":"09478","name":"Lichtenfels","type":"Landkreis"},"federalState":{"key":"09","name":"Bayern"}},{"name":"Peunt","postalCode":"96224","locality":"Burgkunstadt","municipality":{"key":"09478116","name":"Burgkunstadt, St","type":"Stadt"},"district":{"key":"09478","name":"Lichtenfels","type":"Landkreis"},"federalState":{"key":"09","name":"Bayern"}},{"name":"Pfarrer-Böhmer-Str.","postalCode":"96224","locality":"Burgkunstadt","municipality":{"key":"09478116","name":"Burgkunstadt, St","type":"Stadt"},"district":{"key":"09478","name":"Lichtenfels","type":"Landkreis"},"federalState":{"key":"09","name":"Bayern"}},{"name":"Pfarrer-Eckert-Str.","postalCode":"96224","locality":"Burgkunstadt","municipality":{"key":"09478116","name":"Burgkunstadt, St","type":"Stadt"},"district":{"key":"09478","name":"Lichtenfels","type":"Landkreis"},"federalState":{"key":"09","name":"Bayern"}},{"name":"Philipp-Brückner-Str.","postalCode":"96224","locality":"Burgkunstadt","municipality":{"key":"09478116","name":"Burgkunstadt, St","type":"Stadt"},"district":{"key":"09478","name":"Lichtenfels","type":"Landkreis"},"federalState":{"key":"09","name":"Bayern"}},{"name":"Plan","postalCode":"96224","locality":"Burgkunstadt","municipality":{"key":"09478116","name":"Burgkunstadt, St","type":"Stadt"},"district":{"key":"09478","name":"Lichtenfels","type":"Landkreis"},"federalState":{"key":"09","name":"Bayern"}},{"name":"Polizeirangen","postalCode":"96224","locality":"Burgkunstadt","municipality":{"key":"09478116","name":"Burgkunstadt, St","type":"Stadt"},"district":{"key":"09478","name":"Lichtenfels","type":"Landkreis"},"federalState":{"key":"09","name":"Bayern"}},{"name":"Prelles","postalCode":"96224","locality":"Burgkunstadt","municipality":{"key":"09478116","name":"Burgkunstadt, St","type":"Stadt"},"district":{"key":"09478","name":"Lichtenfels","type":"Landkreis"},"federalState":{"key":"09","name":"Bayern"}},{"name":"Professor-Arneth-Str.","postalCode":"96224","locality":"Burgkunstadt","municipality":{"key":"09478116","name":"Burgkunstadt, St","type":"Stadt"},"district":{"key":"09478","name":"Lichtenfels","type":"Landkreis"},"federalState":{"key":"09","name":"Bayern"}},{"name":"Professor-Kist-Str.","postalCode":"96224","locality":"Burgkunstadt","municipality":{"key":"09478116","name":"Burgkunstadt, St","type":"Stadt"},"district":{"key":"09478","name":"Lichtenfels","type":"Landkreis"},"federalState":{"key":"09","name":"Bayern"}},{"name":"Prügeler Weg","postalCode":"96224","locality":"Burgkunstadt","municipality":{"key":"09478116","name":"Burgkunstadt, St","type":"Stadt"},"district":{"key":"09478","name":"Lichtenfels","type":"Landkreis"},"federalState":{"key":"09","name":"Bayern"}},{"name":"Rangengasse","postalCode":"96224","locality":"Burgkunstadt","municipality":{"key":"09478116","name":"Burgkunstadt, St","type":"Stadt"},"district":{"key":"09478","name":"Lichtenfels","type":"Landkreis"},"federalState":{"key":"09","name":"Bayern"}},{"name":"Redwitzer Str.","postalCode":"96224","locality":"Burgkunstadt","municipality":{"key":"09478116","name":"Burgkunstadt, St","type":"Stadt"},"district":{"key":"09478","name":"Lichtenfels","type":"Landkreis"},"federalState":{"key":"09","name":"Bayern"}},{"name":"Regens-Wagner-Platz","postalCode":"96224","locality":"Burgkunstadt","municipality":{"key":"09478116","name":"Burgkunstadt, St","type":"Stadt"},"district":{"key":"09478","name":"Lichtenfels","type":"Landkreis"},"federalState":{"key":"09","name":"Bayern"}},{"name":"Reichenberger Weg","postalCode":"96224","locality":"Burgkunstadt","municipality":{"key":"09478116","name":"Burgkunstadt, St","type":"Stadt"},"district":{"key":"09478","name":"Lichtenfels","type":"Landkreis"},"federalState":{"key":"09","name":"Bayern"}},{"name":"Reuther Berg","postalCode":"96224","locality":"Burgkunstadt","municipality":{"key":"09478116","name":"Burgkunstadt, St","type":"Stadt"},"district":{"key":"09478","name":"Lichtenfels","type":"Landkreis"},"federalState":{"key":"09","name":"Bayern"}},{"name":"Reuthgasse","postalCode":"96224","locality":"Burgkunstadt","municipality":{"key":"09478116","name":"Burgkunstadt, St","type":"Stadt"},"district":{"key":"09478","name":"Lichtenfels","type":"Landkreis"},"federalState":{"key":"09","name":"Bayern"}},{"name":"Richard-Wagner-Str.","postalCode":"96224","locality":"Burgkunstadt","municipality":{"key":"09478116","name":"Burgkunstadt, St","type":"Stadt"},"district":{"key":"09478","name":"Lichtenfels","type":"Landkreis"},"federalState":{"key":"09","name":"Bayern"}},{"name":"Rosengasse","postalCode":"96224","locality":"Burgkunstadt","municipality":{"key":"09478116","name":"Burgkunstadt, St","type":"Stadt"},"district":{"key":"09478","name":"Lichtenfels","type":"Landkreis"},"federalState":{"key":"09","name":"Bayern"}},{"name":"Roßgasse","postalCode":"96224","locality":"Burgkunstadt","municipality":{"key":"09478116","name":"Burgkunstadt, St","type":"Stadt"},"district":{"key":"09478","name":"Lichtenfels","type":"Landkreis"},"federalState":{"key":"09","name":"Bayern"}},{"name":"Rötenberg","postalCode":"96224","locality":"Burgkunstadt","municipality":{"key":"09478116","name":"Burgkunstadt, St","type":"Stadt"},"district":{"key":"09478","name":"Lichtenfels","type":"Landkreis"},"federalState":{"key":"09","name":"Bayern"}},{"name":"Rothenbühl","postalCode":"96224","locality":"Burgkunstadt","municipality":{"key":"09478116","name":"Burgkunstadt, St","type":"Stadt"},"district":{"key":"09478","name":"Lichtenfels","type":"Landkreis"},"federalState":{"key":"09","name":"Bayern"}},{"name":"Rotsteinstr.","postalCode":"96224","locality":"Burgkunstadt","municipality":{"key":"09478116","name":"Burgkunstadt, St","type":"Stadt"},"district":{"key":"09478","name":"Lichtenfels","type":"Landkreis"},"federalState":{"key":"09","name":"Bayern"}},{"name":"Rügersleite","postalCode":"96224","locality":"Burgkunstadt","municipality":{"key":"09478116","name":"Burgkunstadt, St","type":"Stadt"},"district":{"key":"09478","name":"Lichtenfels","type":"Landkreis"},"federalState":{"key":"09","name":"Bayern"}},{"name":"Salzrinne","postalCode":"96224","locality":"Burgkunstadt","municipality":{"key":"09478116","name":"Burgkunstadt, St","type":"Stadt"},"district":{"key":"09478","name":"Lichtenfels","type":"Landkreis"},"federalState":{"key":"09","name":"Bayern"}},{"name":"Schäfersweg","postalCode":"96224","locality":"Burgkunstadt","municipality":{"key":"09478116","name":"Burgkunstadt, St","type":"Stadt"},"district":{"key":"09478","name":"Lichtenfels","type":"Landkreis"},"federalState":{"key":"09","name":"Bayern"}},{"name":"Schaftrieb","postalCode":"96224","locality":"Burgkunstadt","municipality":{"key":"09478116","name":"Burgkunstadt, St","type":"Stadt"},"district":{"key":"09478","name":"Lichtenfels","type":"Landkreis"},"federalState":{"key":"09","name":"Bayern"}},{"name":"Schillerstr.","postalCode":"96224","locality":"Burgkunstadt","municipality":{"key":"09478116","name":"Burgkunstadt, St","type":"Stadt"},"district":{"key":"09478","name":"Lichtenfels","type":"Landkreis"},"federalState":{"key":"09","name":"Bayern"}},{"name":"Schindgraben","postalCode":"96224","locality":"Burgkunstadt","municipality":{"key":"09478116","name":"Burgkunstadt, St","type":"Stadt"},"district":{"key":"09478","name":"Lichtenfels","type":"Landkreis"},"federalState":{"key":"09","name":"Bayern"}},{"name":"Schlehenhang","postalCode":"96224","locality":"Burgkunstadt","municipality":{"key":"09478116","name":"Burgkunstadt, St","type":"Stadt"},"district":{"key":"09478","name":"Lichtenfels","type":"Landkreis"},"federalState":{"key":"09","name":"Bayern"}},{"name":"Schlimmendorfer Str.","postalCode":"96224","locality":"Burgkunstadt","municipality":{"key":"09478116","name":"Burgkunstadt, St","type":"Stadt"},"district":{"key":"09478","name":"Lichtenfels","type":"Landkreis"},"federalState":{"key":"09","name":"Bayern"}},{"name":"Schönberg","postalCode":"96224","locality":"Burgkunstadt","municipality":{"key":"09478116","name":"Burgkunstadt, St","type":"Stadt"},"district":{"key":"09478","name":"Lichtenfels","type":"Landkreis"},"federalState":{"key":"09","name":"Bayern"}},{"name":"Schrötlein","postalCode":"96224","locality":"Burgkunstadt","municipality":{"key":"09478116","name":"Burgkunstadt, St","type":"Stadt"},"district":{"key":"09478","name":"Lichtenfels","type":"Landkreis"},"federalState":{"key":"09","name":"Bayern"}},{"name":"Schwarzer Graben","postalCode":"96224","locality":"Burgkunstadt","municipality":{"key":"09478116","name":"Burgkunstadt, St","type":"Stadt"},"district":{"key":"09478","name":"Lichtenfels","type":"Landkreis"},"federalState":{"key":"09","name":"Bayern"}},{"name":"Siedlungsweg","postalCode":"96224","locality":"Burgkunstadt","municipality":{"key":"09478116","name":"Burgkunstadt, St","type":"Stadt"},"district":{"key":"09478","name":"Lichtenfels","type":"Landkreis"},"federalState":{"key":"09","name":"Bayern"}},{"name":"Silberbach","postalCode":"96224","locality":"Burgkunstadt","municipality":{"key":"09478116","name":"Burgkunstadt, St","type":"Stadt"},"district":{"key":"09478","name":"Lichtenfels","type":"Landkreis"},"federalState":{"key":"09","name":"Bayern"}},{"name":"Sonnenhang","postalCode":"96224","locality":"Burgkunstadt","municipality":{"key":"09478116","name":"Burgkunstadt, St","type":"Stadt"},"district":{"key":"09478","name":"Lichtenfels","type":"Landkreis"},"federalState":{"key":"09","name":"Bayern"}},{"name":"Städelgasse","postalCode":"96224","locality":"Burgkunstadt","municipality":{"key":"09478116","name":"Burgkunstadt, St","type":"Stadt"},"district":{"key":"09478","name":"Lichtenfels","type":"Landkreis"},"federalState":{"key":"09","name":"Bayern"}},{"name":"Steig","postalCode":"96224","locality":"Burgkunstadt","municipality":{"key":"09478116","name":"Burgkunstadt, St","type":"Stadt"},"district":{"key":"09478","name":"Lichtenfels","type":"Landkreis"},"federalState":{"key":"09","name":"Bayern"}},{"name":"Steinacker","postalCode":"96224","locality":"Burgkunstadt","municipality":{"key":"09478116","name":"Burgkunstadt, St","type":"Stadt"},"district":{"key":"09478","name":"Lichtenfels","type":"Landkreis"},"federalState":{"key":"09","name":"Bayern"}},{"name":"Steingraben","postalCode":"96224","locality":"Burgkunstadt","municipality":{"key":"09478116","name":"Burgkunstadt, St","type":"Stadt"},"district":{"key":"09478","name":"Lichtenfels","type":"Landkreis"},"federalState":{"key":"09","name":"Bayern"}},{"name":"Steinleite","postalCode":"96224","locality":"Burgkunstadt","municipality":{"key":"09478116","name":"Burgkunstadt, St","type":"Stadt"},"district":{"key":"09478","name":"Lichtenfels","type":"Landkreis"},"federalState":{"key":"09","name":"Bayern"}},{"name":"Steinweg","postalCode":"96224","locality":"Burgkunstadt","municipality":{"key":"09478116","name":"Burgkunstadt, St","type":"Stadt"},"district":{"key":"09478","name":"Lichtenfels","type":"Landkreis"},"federalState":{"key":"09","name":"Bayern"}},{"name":"Sternshof","postalCode":"96224","locality":"Burgkunstadt","municipality":{"key":"09478116","name":"Burgkunstadt, St","type":"Stadt"},"district":{"key":"09478","name":"Lichtenfels","type":"Landkreis"},"federalState":{"key":"09","name":"Bayern"}},{"name":"Stettiner Str.","postalCode":"96224","locality":"Burgkunstadt","municipality":{"key":"09478116","name":"Burgkunstadt, St","type":"Stadt"},"district":{"key":"09478","name":"Lichtenfels","type":"Landkreis"},"federalState":{"key":"09","name":"Bayern"}},{"name":"Str. der Residenzen","postalCode":"96224","locality":"Burgkunstadt","municipality":{"key":"09478116","name":"Burgkunstadt, St","type":"Stadt"},"district":{"key":"09478","name":"Lichtenfels","type":"Landkreis"},"federalState":{"key":"09","name":"Bayern"}},{"name":"Strössendorfer Weg","postalCode":"96224","locality":"Burgkunstadt","municipality":{"key":"09478116","name":"Burgkunstadt, St","type":"Stadt"},"district":{"key":"09478","name":"Lichtenfels","type":"Landkreis"},"federalState":{"key":"09","name":"Bayern"}},{"name":"Taubengasse","postalCode":"96224","locality":"Burgkunstadt","municipality":{"key":"09478116","name":"Burgkunstadt, St","type":"Stadt"},"district":{"key":"09478","name":"Lichtenfels","type":"Landkreis"},"federalState":{"key":"09","name":"Bayern"}},{"name":"Thomas-Rüblein-Str.","postalCode":"96224","locality":"Burgkunstadt","municipality":{"key":"09478116","name":"Burgkunstadt, St","type":"Stadt"},"district":{"key":"09478","name":"Lichtenfels","type":"Landkreis"},"federalState":{"key":"09","name":"Bayern"}},{"name":"Tiefe Gasse","postalCode":"96224","locality":"Burgkunstadt","municipality":{"key":"09478116","name":"Burgkunstadt, St","type":"Stadt"},"district":{"key":"09478","name":"Lichtenfels","type":"Landkreis"},"federalState":{"key":"09","name":"Bayern"}},{"name":"Torwiese","postalCode":"96224","locality":"Burgkunstadt","municipality":{"key":"09478116","name":"Burgkunstadt, St","type":"Stadt"},"district":{"key":"09478","name":"Lichtenfels","type":"Landkreis"},"federalState":{"key":"09","name":"Bayern"}},{"name":"Tuschera","postalCode":"96224","locality":"Burgkunstadt","municipality":{"key":"09478116","name":"Burgkunstadt, St","type":"Stadt"},"district":{"key":"09478","name":"Lichtenfels","type":"Landkreis"},"federalState":{"key":"09","name":"Bayern"}},{"name":"Unterer Berg","postalCode":"96224","locality":"Burgkunstadt","municipality":{"key":"09478116","name":"Burgkunstadt, St","type":"Stadt"},"district":{"key":"09478","name":"Lichtenfels","type":"Landkreis"},"federalState":{"key":"09","name":"Bayern"}},{"name":"Unterfeld","postalCode":"96224","locality":"Burgkunstadt","municipality":{"key":"09478116","name":"Burgkunstadt, St","type":"Stadt"},"district":{"key":"09478","name":"Lichtenfels","type":"Landkreis"},"federalState":{"key":"09","name":"Bayern"}},{"name":"Vogelherd","postalCode":"96224","locality":"Burgkunstadt","municipality":{"key":"09478116","name":"Burgkunstadt, St","type":"Stadt"},"district":{"key":"09478","name":"Lichtenfels","type":"Landkreis"},"federalState":{"key":"09","name":"Bayern"}},{"name":"Vogtei","postalCode":"96224","locality":"Burgkunstadt","municipality":{"key":"09478116","name":"Burgkunstadt, St","type":"Stadt"},"district":{"key":"09478","name":"Lichtenfels","type":"Landkreis"},"federalState":{"key":"09","name":"Bayern"}},{"name":"Von-Eichendorff-Str.","postalCode":"96224","locality":"Burgkunstadt","municipality":{"key":"09478116","name":"Burgkunstadt, St","type":"Stadt"},"district":{"key":"09478","name":"Lichtenfels","type":"Landkreis"},"federalState":{"key":"09","name":"Bayern"}},{"name":"Von-Scheffel-Str.","postalCode":"96224","locality":"Burgkunstadt","municipality":{"key":"09478116","name":"Burgkunstadt, St","type":"Stadt"},"district":{"key":"09478","name":"Lichtenfels","type":"Landkreis"},"federalState":{"key":"09","name":"Bayern"}},{"name":"Wagnersgasse","postalCode":"96224","locality":"Burgkunstadt","municipality":{"key":"09478116","name":"Burgkunstadt, St","type":"Stadt"},"district":{"key":"09478","name":"Lichtenfels","type":"Landkreis"},"federalState":{"key":"09","name":"Bayern"}},{"name":"Weidenburg","postalCode":"96224","locality":"Burgkunstadt","municipality":{"key":"09478116","name":"Burgkunstadt, St","type":"Stadt"},"district":{"key":"09478","name":"Lichtenfels","type":"Landkreis"},"federalState":{"key":"09","name":"Bayern"}},{"name":"Weidnitzer Weg","postalCode":"96224","locality":"Burgkunstadt","municipality":{"key":"09478116","name":"Burgkunstadt, St","type":"Stadt"},"district":{"key":"09478","name":"Lichtenfels","type":"Landkreis"},"federalState":{"key":"09","name":"Bayern"}},{"name":"Weihersbach","postalCode":"96224","locality":"Burgkunstadt","municipality":{"key":"09478116","name":"Burgkunstadt, St","type":"Stadt"},"district":{"key":"09478","name":"Lichtenfels","type":"Landkreis"},"federalState":{"key":"09","name":"Bayern"}},{"name":"Weismainer Str.","postalCode":"96224","locality":"Burgkunstadt","municipality":{"key":"09478116","name":"Burgkunstadt, St","type":"Stadt"},"district":{"key":"09478","name":"Lichtenfels","type":"Landkreis"},"federalState":{"key":"09","name":"Bayern"}},{"name":"Widencer Platz","postalCode":"96224","locality":"Burgkunstadt","municipality":{"key":"09478116","name":"Burgkunstadt, St","type":"Stadt"},"district":{"key":"09478","name":"Lichtenfels","type":"Landkreis"},"federalState":{"key":"09","name":"Bayern"}},{"name":"Wiesenstr.","postalCode":"96224","locality":"Burgkunstadt","municipality":{"key":"09478116","name":"Burgkunstadt, St","type":"Stadt"},"district":{"key":"09478","name":"Lichtenfels","type":"Landkreis"},"federalState":{"key":"09","name":"Bayern"}},{"name":"Wirtsberg","postalCode":"96224","locality":"Burgkunstadt","municipality":{"key":"09478116","name":"Burgkunstadt, St","type":"Stadt"},"district":{"key":"09478","name":"Lichtenfels","type":"Landkreis"},"federalState":{"key":"09","name":"Bayern"}},{"name":"Wolfsberg","postalCode":"96224","locality":"Burgkunstadt","municipality":{"key":"09478116","name":"Burgkunstadt, St","type":"Stadt"},"district":{"key":"09478","name":"Lichtenfels","type":"Landkreis"},"federalState":{"key":"09","name":"Bayern"}},{"name":"Wolf-von-Schaumberg-Str.","postalCode":"96224","locality":"Burgkunstadt","municipality":{"key":"09478116","name":"Burgkunstadt, St","type":"Stadt"},"district":{"key":"09478","name":"Lichtenfels","type":"Landkreis"},"federalState":{"key":"09","name":"Bayern"}},{"name":"Zehntweg","postalCode":"96224","locality":"Burgkunstadt","municipality":{"key":"09478116","name":"Burgkunstadt, St","type":"Stadt"},"district":{"key":"09478","name":"Lichtenfels","type":"Landkreis"},"federalState":{"key":"09","name":"Bayern"}},{"name":"Ziegelgarten","postalCode":"96224","locality":"Burgkunstadt","municipality":{"key":"09478116","name":"Burgkunstadt, St","type":"Stadt"},"district":{"key":"09478","name":"Lichtenfels","type":"Landkreis"},"federalState":{"key":"09","name":"Bayern"}},{"name":"Zum Wehr","postalCode":"96224","locality":"Burgkunstadt","municipality":{"key":"09478116","name":"Burgkunstadt, St","type":"Stadt"},"district":{"key":"09478","name":"Lichtenfels","type":"Landkreis"},"federalState":{"key":"09","name":"Bayern"}},{"name":"Überscharweg","postalCode":"96215","locality":"Lichtenfels","municipality":{"key":"09478139","name":"Lichtenfels, St","type":"Stadt"},"district":{"key":"09478","name":"Lichtenfels","type":"Landkreis"},"federalState":{"key":"09","name":"Bayern"}},]