[{"name":"Am Bahnhof","postalCode":"56767","locality":"Höchstberg","municipality":{"key":"07233215","name":"Höchstberg","type":"Kreisangehörige_Gemeinde"},"district":{"key":"07233","name":"Vulkaneifel","type":"Landkreis"},"federalState":{"key":"07","name":"Rheinland-Pfalz"}},{"name":"Amselweg","postalCode":"56767","locality":"Höchstberg","municipality":{"key":"07233215","name":"Höchstberg","type":"Kreisangehörige_Gemeinde"},"district":{"key":"07233","name":"Vulkaneifel","type":"Landkreis"},"federalState":{"key":"07","name":"Rheinland-Pfalz"}},{"name":"Auf der Eich","postalCode":"56767","locality":"Höchstberg","municipality":{"key":"07233215","name":"Höchstberg","type":"Kreisangehörige_Gemeinde"},"district":{"key":"07233","name":"Vulkaneifel","type":"Landkreis"},"federalState":{"key":"07","name":"Rheinland-Pfalz"}},{"name":"Auf der Wacht","postalCode":"56767","locality":"Höchstberg","municipality":{"key":"07233215","name":"Höchstberg","type":"Kreisangehörige_Gemeinde"},"district":{"key":"07233","name":"Vulkaneifel","type":"Landkreis"},"federalState":{"key":"07","name":"Rheinland-Pfalz"}},{"name":"Birkenweg","postalCode":"56767","locality":"Höchstberg","municipality":{"key":"07233215","name":"Höchstberg","type":"Kreisangehörige_Gemeinde"},"district":{"key":"07233","name":"Vulkaneifel","type":"Landkreis"},"federalState":{"key":"07","name":"Rheinland-Pfalz"}},{"name":"Buchenweg","postalCode":"56767","locality":"Höchstberg","municipality":{"key":"07233215","name":"Höchstberg","type":"Kreisangehörige_Gemeinde"},"district":{"key":"07233","name":"Vulkaneifel","type":"Landkreis"},"federalState":{"key":"07","name":"Rheinland-Pfalz"}},{"name":"Endertstr.","postalCode":"56767","locality":"Höchstberg","municipality":{"key":"07233215","name":"Höchstberg","type":"Kreisangehörige_Gemeinde"},"district":{"key":"07233","name":"Vulkaneifel","type":"Landkreis"},"federalState":{"key":"07","name":"Rheinland-Pfalz"}},{"name":"Finkenweg","postalCode":"56767","locality":"Höchstberg","municipality":{"key":"07233215","name":"Höchstberg","type":"Kreisangehörige_Gemeinde"},"district":{"key":"07233","name":"Vulkaneifel","type":"Landkreis"},"federalState":{"key":"07","name":"Rheinland-Pfalz"}},{"name":"Flurstr.","postalCode":"56767","locality":"Höchstberg","municipality":{"key":"07233215","name":"Höchstberg","type":"Kreisangehörige_Gemeinde"},"district":{"key":"07233","name":"Vulkaneifel","type":"Landkreis"},"federalState":{"key":"07","name":"Rheinland-Pfalz"}},{"name":"Gartenstr.","postalCode":"56767","locality":"Höchstberg","municipality":{"key":"07233215","name":"Höchstberg","type":"Kreisangehörige_Gemeinde"},"district":{"key":"07233","name":"Vulkaneifel","type":"Landkreis"},"federalState":{"key":"07","name":"Rheinland-Pfalz"}},{"name":"Hauptstr.","postalCode":"56767","locality":"Höchstberg","municipality":{"key":"07233215","name":"Höchstberg","type":"Kreisangehörige_Gemeinde"},"district":{"key":"07233","name":"Vulkaneifel","type":"Landkreis"},"federalState":{"key":"07","name":"Rheinland-Pfalz"}},{"name":"Im Berg","postalCode":"56767","locality":"Höchstberg","municipality":{"key":"07233215","name":"Höchstberg","type":"Kreisangehörige_Gemeinde"},"district":{"key":"07233","name":"Vulkaneifel","type":"Landkreis"},"federalState":{"key":"07","name":"Rheinland-Pfalz"}},{"name":"Im Staudchen","postalCode":"56767","locality":"Höchstberg","municipality":{"key":"07233215","name":"Höchstberg","type":"Kreisangehörige_Gemeinde"},"district":{"key":"07233","name":"Vulkaneifel","type":"Landkreis"},"federalState":{"key":"07","name":"Rheinland-Pfalz"}},{"name":"Klosheck","postalCode":"56767","locality":"Höchstberg","municipality":{"key":"07233215","name":"Höchstberg","type":"Kreisangehörige_Gemeinde"},"district":{"key":"07233","name":"Vulkaneifel","type":"Landkreis"},"federalState":{"key":"07","name":"Rheinland-Pfalz"}},{"name":"Köttericher Str.","postalCode":"56767","locality":"Höchstberg","municipality":{"key":"07233215","name":"Höchstberg","type":"Kreisangehörige_Gemeinde"},"district":{"key":"07233","name":"Vulkaneifel","type":"Landkreis"},"federalState":{"key":"07","name":"Rheinland-Pfalz"}},{"name":"Schulstr.","postalCode":"56767","locality":"Höchstberg","municipality":{"key":"07233215","name":"Höchstberg","type":"Kreisangehörige_Gemeinde"},"district":{"key":"07233","name":"Vulkaneifel","type":"Landkreis"},"federalState":{"key":"07","name":"Rheinland-Pfalz"}},{"name":"Seilbahnweg","postalCode":"56767","locality":"Höchstberg","municipality":{"key":"07233215","name":"Höchstberg","type":"Kreisangehörige_Gemeinde"},"district":{"key":"07233","name":"Vulkaneifel","type":"Landkreis"},"federalState":{"key":"07","name":"Rheinland-Pfalz"}},{"name":"Sonnenberg","postalCode":"56767","locality":"Höchstberg","municipality":{"key":"07233215","name":"Höchstberg","type":"Kreisangehörige_Gemeinde"},"district":{"key":"07233","name":"Vulkaneifel","type":"Landkreis"},"federalState":{"key":"07","name":"Rheinland-Pfalz"}},{"name":"Tannenweg","postalCode":"56767","locality":"Höchstberg","municipality":{"key":"07233215","name":"Höchstberg","type":"Kreisangehörige_Gemeinde"},"district":{"key":"07233","name":"Vulkaneifel","type":"Landkreis"},"federalState":{"key":"07","name":"Rheinland-Pfalz"}},{"name":"Ulmener Str.","postalCode":"56767","locality":"Höchstberg","municipality":{"key":"07233215","name":"Höchstberg","type":"Kreisangehörige_Gemeinde"},"district":{"key":"07233","name":"Vulkaneifel","type":"Landkreis"},"federalState":{"key":"07","name":"Rheinland-Pfalz"}},{"name":"Weinstr.","postalCode":"56767","locality":"Höchstberg","municipality":{"key":"07233215","name":"Höchstberg","type":"Kreisangehörige_Gemeinde"},"district":{"key":"07233","name":"Vulkaneifel","type":"Landkreis"},"federalState":{"key":"07","name":"Rheinland-Pfalz"}},]