[{"name":"Adlerstr.","postalCode":"65824","locality":"Schwalbach am Taunus","municipality":{"key":"06436011","name":"Schwalbach am Taunus, Stadt","type":"Stadt"},"district":{"key":"06436","name":"Main-Taunus-Kreis","type":"Landkreis"},"federalState":{"key":"06","name":"Hessen"}},{"name":"Adolf-Damaschke-Str.","postalCode":"65824","locality":"Schwalbach am Taunus","municipality":{"key":"06436011","name":"Schwalbach am Taunus, Stadt","type":"Stadt"},"district":{"key":"06436","name":"Main-Taunus-Kreis","type":"Landkreis"},"federalState":{"key":"06","name":"Hessen"}},{"name":"Albert-Richter-Weg","postalCode":"65824","locality":"Schwalbach am Taunus","municipality":{"key":"06436011","name":"Schwalbach am Taunus, Stadt","type":"Stadt"},"district":{"key":"06436","name":"Main-Taunus-Kreis","type":"Landkreis"},"federalState":{"key":"06","name":"Hessen"}},{"name":"Alter Postkutschenweg","postalCode":"65824","locality":"Schwalbach am Taunus","municipality":{"key":"06436011","name":"Schwalbach am Taunus, Stadt","type":"Stadt"},"district":{"key":"06436","name":"Main-Taunus-Kreis","type":"Landkreis"},"federalState":{"key":"06","name":"Hessen"}},{"name":"Altkönigstr.","postalCode":"65824","locality":"Schwalbach am Taunus","municipality":{"key":"06436011","name":"Schwalbach am Taunus, Stadt","type":"Stadt"},"district":{"key":"06436","name":"Main-Taunus-Kreis","type":"Landkreis"},"federalState":{"key":"06","name":"Hessen"}},{"name":"Am Brater","postalCode":"65824","locality":"Schwalbach am Taunus","municipality":{"key":"06436011","name":"Schwalbach am Taunus, Stadt","type":"Stadt"},"district":{"key":"06436","name":"Main-Taunus-Kreis","type":"Landkreis"},"federalState":{"key":"06","name":"Hessen"}},{"name":"Am Erlenborn","postalCode":"65824","locality":"Schwalbach am Taunus","municipality":{"key":"06436011","name":"Schwalbach am Taunus, Stadt","type":"Stadt"},"district":{"key":"06436","name":"Main-Taunus-Kreis","type":"Landkreis"},"federalState":{"key":"06","name":"Hessen"}},{"name":"Am Flachsacker","postalCode":"65824","locality":"Schwalbach am Taunus","municipality":{"key":"06436011","name":"Schwalbach am Taunus, Stadt","type":"Stadt"},"district":{"key":"06436","name":"Main-Taunus-Kreis","type":"Landkreis"},"federalState":{"key":"06","name":"Hessen"}},{"name":"Am Kronberger Hang","postalCode":"65824","locality":"Schwalbach am Taunus","municipality":{"key":"06436011","name":"Schwalbach am Taunus, Stadt","type":"Stadt"},"district":{"key":"06436","name":"Main-Taunus-Kreis","type":"Landkreis"},"federalState":{"key":"06","name":"Hessen"}},{"name":"Am Park","postalCode":"65824","locality":"Schwalbach am Taunus","municipality":{"key":"06436011","name":"Schwalbach am Taunus, Stadt","type":"Stadt"},"district":{"key":"06436","name":"Main-Taunus-Kreis","type":"Landkreis"},"federalState":{"key":"06","name":"Hessen"}},{"name":"Am Sandring","postalCode":"65824","locality":"Schwalbach am Taunus","municipality":{"key":"06436011","name":"Schwalbach am Taunus, Stadt","type":"Stadt"},"district":{"key":"06436","name":"Main-Taunus-Kreis","type":"Landkreis"},"federalState":{"key":"06","name":"Hessen"}},{"name":"Am Schollengarten","postalCode":"65824","locality":"Schwalbach am Taunus","municipality":{"key":"06436011","name":"Schwalbach am Taunus, Stadt","type":"Stadt"},"district":{"key":"06436","name":"Main-Taunus-Kreis","type":"Landkreis"},"federalState":{"key":"06","name":"Hessen"}},{"name":"Amselweg","postalCode":"65824","locality":"Schwalbach am Taunus","municipality":{"key":"06436011","name":"Schwalbach am Taunus, Stadt","type":"Stadt"},"district":{"key":"06436","name":"Main-Taunus-Kreis","type":"Landkreis"},"federalState":{"key":"06","name":"Hessen"}},{"name":"Am Sulzbacher Pfad","postalCode":"65824","locality":"Schwalbach am Taunus","municipality":{"key":"06436011","name":"Schwalbach am Taunus, Stadt","type":"Stadt"},"district":{"key":"06436","name":"Main-Taunus-Kreis","type":"Landkreis"},"federalState":{"key":"06","name":"Hessen"}},{"name":"Am Taunusblick","postalCode":"65824","locality":"Schwalbach am Taunus","municipality":{"key":"06436011","name":"Schwalbach am Taunus, Stadt","type":"Stadt"},"district":{"key":"06436","name":"Main-Taunus-Kreis","type":"Landkreis"},"federalState":{"key":"06","name":"Hessen"}},{"name":"An der Mühl","postalCode":"65824","locality":"Schwalbach am Taunus","municipality":{"key":"06436011","name":"Schwalbach am Taunus, Stadt","type":"Stadt"},"district":{"key":"06436","name":"Main-Taunus-Kreis","type":"Landkreis"},"federalState":{"key":"06","name":"Hessen"}},{"name":"Avrilléstr.","postalCode":"65824","locality":"Schwalbach am Taunus","municipality":{"key":"06436011","name":"Schwalbach am Taunus, Stadt","type":"Stadt"},"district":{"key":"06436","name":"Main-Taunus-Kreis","type":"Landkreis"},"federalState":{"key":"06","name":"Hessen"}},{"name":"Badener Str.","postalCode":"65824","locality":"Schwalbach am Taunus","municipality":{"key":"06436011","name":"Schwalbach am Taunus, Stadt","type":"Stadt"},"district":{"key":"06436","name":"Main-Taunus-Kreis","type":"Landkreis"},"federalState":{"key":"06","name":"Hessen"}},{"name":"Bahnstr.","postalCode":"65824","locality":"Schwalbach am Taunus","municipality":{"key":"06436011","name":"Schwalbach am Taunus, Stadt","type":"Stadt"},"district":{"key":"06436","name":"Main-Taunus-Kreis","type":"Landkreis"},"federalState":{"key":"06","name":"Hessen"}},{"name":"Berliner Str.","postalCode":"65824","locality":"Schwalbach am Taunus","municipality":{"key":"06436011","name":"Schwalbach am Taunus, Stadt","type":"Stadt"},"district":{"key":"06436","name":"Main-Taunus-Kreis","type":"Landkreis"},"federalState":{"key":"06","name":"Hessen"}},{"name":"Bockenheimer Str.","postalCode":"65824","locality":"Schwalbach am Taunus","municipality":{"key":"06436011","name":"Schwalbach am Taunus, Stadt","type":"Stadt"},"district":{"key":"06436","name":"Main-Taunus-Kreis","type":"Landkreis"},"federalState":{"key":"06","name":"Hessen"}},{"name":"Borngasse","postalCode":"65824","locality":"Schwalbach am Taunus","municipality":{"key":"06436011","name":"Schwalbach am Taunus, Stadt","type":"Stadt"},"district":{"key":"06436","name":"Main-Taunus-Kreis","type":"Landkreis"},"federalState":{"key":"06","name":"Hessen"}},{"name":"Brandenburger Str.","postalCode":"65824","locality":"Schwalbach am Taunus","municipality":{"key":"06436011","name":"Schwalbach am Taunus, Stadt","type":"Stadt"},"district":{"key":"06436","name":"Main-Taunus-Kreis","type":"Landkreis"},"federalState":{"key":"06","name":"Hessen"}},{"name":"Bremer Str.","postalCode":"65824","locality":"Schwalbach am Taunus","municipality":{"key":"06436011","name":"Schwalbach am Taunus, Stadt","type":"Stadt"},"district":{"key":"06436","name":"Main-Taunus-Kreis","type":"Landkreis"},"federalState":{"key":"06","name":"Hessen"}},{"name":"Breslauer Str.","postalCode":"65824","locality":"Schwalbach am Taunus","municipality":{"key":"06436011","name":"Schwalbach am Taunus, Stadt","type":"Stadt"},"district":{"key":"06436","name":"Main-Taunus-Kreis","type":"Landkreis"},"federalState":{"key":"06","name":"Hessen"}},{"name":"Burgstr.","postalCode":"65824","locality":"Schwalbach am Taunus","municipality":{"key":"06436011","name":"Schwalbach am Taunus, Stadt","type":"Stadt"},"district":{"key":"06436","name":"Main-Taunus-Kreis","type":"Landkreis"},"federalState":{"key":"06","name":"Hessen"}},{"name":"Danziger Str.","postalCode":"65824","locality":"Schwalbach am Taunus","municipality":{"key":"06436011","name":"Schwalbach am Taunus, Stadt","type":"Stadt"},"district":{"key":"06436","name":"Main-Taunus-Kreis","type":"Landkreis"},"federalState":{"key":"06","name":"Hessen"}},{"name":"Eschborner Str.","postalCode":"65824","locality":"Schwalbach am Taunus","municipality":{"key":"06436011","name":"Schwalbach am Taunus, Stadt","type":"Stadt"},"district":{"key":"06436","name":"Main-Taunus-Kreis","type":"Landkreis"},"federalState":{"key":"06","name":"Hessen"}},{"name":"Europapark","postalCode":"65824","locality":"Schwalbach am Taunus","municipality":{"key":"06436011","name":"Schwalbach am Taunus, Stadt","type":"Stadt"},"district":{"key":"06436","name":"Main-Taunus-Kreis","type":"Landkreis"},"federalState":{"key":"06","name":"Hessen"}},{"name":"Europaring","postalCode":"65824","locality":"Schwalbach am Taunus","municipality":{"key":"06436011","name":"Schwalbach am Taunus, Stadt","type":"Stadt"},"district":{"key":"06436","name":"Main-Taunus-Kreis","type":"Landkreis"},"federalState":{"key":"06","name":"Hessen"}},{"name":"Fasanenweg","postalCode":"65824","locality":"Schwalbach am Taunus","municipality":{"key":"06436011","name":"Schwalbach am Taunus, Stadt","type":"Stadt"},"district":{"key":"06436","name":"Main-Taunus-Kreis","type":"Landkreis"},"federalState":{"key":"06","name":"Hessen"}},{"name":"Feldbergstr.","postalCode":"65824","locality":"Schwalbach am Taunus","municipality":{"key":"06436011","name":"Schwalbach am Taunus, Stadt","type":"Stadt"},"district":{"key":"06436","name":"Main-Taunus-Kreis","type":"Landkreis"},"federalState":{"key":"06","name":"Hessen"}},{"name":"Feldstr.","postalCode":"65824","locality":"Schwalbach am Taunus","municipality":{"key":"06436011","name":"Schwalbach am Taunus, Stadt","type":"Stadt"},"district":{"key":"06436","name":"Main-Taunus-Kreis","type":"Landkreis"},"federalState":{"key":"06","name":"Hessen"}},{"name":"Finkenweg","postalCode":"65824","locality":"Schwalbach am Taunus","municipality":{"key":"06436011","name":"Schwalbach am Taunus, Stadt","type":"Stadt"},"district":{"key":"06436","name":"Main-Taunus-Kreis","type":"Landkreis"},"federalState":{"key":"06","name":"Hessen"}},{"name":"Frankenstr.","postalCode":"65824","locality":"Schwalbach am Taunus","municipality":{"key":"06436011","name":"Schwalbach am Taunus, Stadt","type":"Stadt"},"district":{"key":"06436","name":"Main-Taunus-Kreis","type":"Landkreis"},"federalState":{"key":"06","name":"Hessen"}},{"name":"Frankfurter Str.","postalCode":"65824","locality":"Schwalbach am Taunus","municipality":{"key":"06436011","name":"Schwalbach am Taunus, Stadt","type":"Stadt"},"district":{"key":"06436","name":"Main-Taunus-Kreis","type":"Landkreis"},"federalState":{"key":"06","name":"Hessen"}},{"name":"Friedrich-Ebert-Str.","postalCode":"65824","locality":"Schwalbach am Taunus","municipality":{"key":"06436011","name":"Schwalbach am Taunus, Stadt","type":"Stadt"},"district":{"key":"06436","name":"Main-Taunus-Kreis","type":"Landkreis"},"federalState":{"key":"06","name":"Hessen"}},{"name":"Friedrich-Stoltze-Str.","postalCode":"65824","locality":"Schwalbach am Taunus","municipality":{"key":"06436011","name":"Schwalbach am Taunus, Stadt","type":"Stadt"},"district":{"key":"06436","name":"Main-Taunus-Kreis","type":"Landkreis"},"federalState":{"key":"06","name":"Hessen"}},{"name":"Fuchstanzstr.","postalCode":"65824","locality":"Schwalbach am Taunus","municipality":{"key":"06436011","name":"Schwalbach am Taunus, Stadt","type":"Stadt"},"district":{"key":"06436","name":"Main-Taunus-Kreis","type":"Landkreis"},"federalState":{"key":"06","name":"Hessen"}},{"name":"Gartenstr.","postalCode":"65824","locality":"Schwalbach am Taunus","municipality":{"key":"06436011","name":"Schwalbach am Taunus, Stadt","type":"Stadt"},"district":{"key":"06436","name":"Main-Taunus-Kreis","type":"Landkreis"},"federalState":{"key":"06","name":"Hessen"}},{"name":"Gärtnerweg","postalCode":"65824","locality":"Schwalbach am Taunus","municipality":{"key":"06436011","name":"Schwalbach am Taunus, Stadt","type":"Stadt"},"district":{"key":"06436","name":"Main-Taunus-Kreis","type":"Landkreis"},"federalState":{"key":"06","name":"Hessen"}},{"name":"Ginnheimer Str.","postalCode":"65824","locality":"Schwalbach am Taunus","municipality":{"key":"06436011","name":"Schwalbach am Taunus, Stadt","type":"Stadt"},"district":{"key":"06436","name":"Main-Taunus-Kreis","type":"Landkreis"},"federalState":{"key":"06","name":"Hessen"}},{"name":"Grabenstr.","postalCode":"65824","locality":"Schwalbach am Taunus","municipality":{"key":"06436011","name":"Schwalbach am Taunus, Stadt","type":"Stadt"},"district":{"key":"06436","name":"Main-Taunus-Kreis","type":"Landkreis"},"federalState":{"key":"06","name":"Hessen"}},{"name":"Grüneburgweg","postalCode":"65824","locality":"Schwalbach am Taunus","municipality":{"key":"06436011","name":"Schwalbach am Taunus, Stadt","type":"Stadt"},"district":{"key":"06436","name":"Main-Taunus-Kreis","type":"Landkreis"},"federalState":{"key":"06","name":"Hessen"}},{"name":"Hainstr.","postalCode":"65824","locality":"Schwalbach am Taunus","municipality":{"key":"06436011","name":"Schwalbach am Taunus, Stadt","type":"Stadt"},"district":{"key":"06436","name":"Main-Taunus-Kreis","type":"Landkreis"},"federalState":{"key":"06","name":"Hessen"}},{"name":"Hardtbergstr.","postalCode":"65824","locality":"Schwalbach am Taunus","municipality":{"key":"06436011","name":"Schwalbach am Taunus, Stadt","type":"Stadt"},"district":{"key":"06436","name":"Main-Taunus-Kreis","type":"Landkreis"},"federalState":{"key":"06","name":"Hessen"}},{"name":"Hauptstr.","postalCode":"65824","locality":"Schwalbach am Taunus","municipality":{"key":"06436011","name":"Schwalbach am Taunus, Stadt","type":"Stadt"},"district":{"key":"06436","name":"Main-Taunus-Kreis","type":"Landkreis"},"federalState":{"key":"06","name":"Hessen"}},{"name":"Hausener Weg","postalCode":"65824","locality":"Schwalbach am Taunus","municipality":{"key":"06436011","name":"Schwalbach am Taunus, Stadt","type":"Stadt"},"district":{"key":"06436","name":"Main-Taunus-Kreis","type":"Landkreis"},"federalState":{"key":"06","name":"Hessen"}},{"name":"Hessenstr.","postalCode":"65824","locality":"Schwalbach am Taunus","municipality":{"key":"06436011","name":"Schwalbach am Taunus, Stadt","type":"Stadt"},"district":{"key":"06436","name":"Main-Taunus-Kreis","type":"Landkreis"},"federalState":{"key":"06","name":"Hessen"}},{"name":"Höchster Str.","postalCode":"65824","locality":"Schwalbach am Taunus","municipality":{"key":"06436011","name":"Schwalbach am Taunus, Stadt","type":"Stadt"},"district":{"key":"06436","name":"Main-Taunus-Kreis","type":"Landkreis"},"federalState":{"key":"06","name":"Hessen"}},{"name":"Hofheimer Str.","postalCode":"65824","locality":"Schwalbach am Taunus","municipality":{"key":"06436011","name":"Schwalbach am Taunus, Stadt","type":"Stadt"},"district":{"key":"06436","name":"Main-Taunus-Kreis","type":"Landkreis"},"federalState":{"key":"06","name":"Hessen"}},{"name":"Höhenstr.","postalCode":"65824","locality":"Schwalbach am Taunus","municipality":{"key":"06436011","name":"Schwalbach am Taunus, Stadt","type":"Stadt"},"district":{"key":"06436","name":"Main-Taunus-Kreis","type":"Landkreis"},"federalState":{"key":"06","name":"Hessen"}},{"name":"Insterburger Str.","postalCode":"65824","locality":"Schwalbach am Taunus","municipality":{"key":"06436011","name":"Schwalbach am Taunus, Stadt","type":"Stadt"},"district":{"key":"06436","name":"Main-Taunus-Kreis","type":"Landkreis"},"federalState":{"key":"06","name":"Hessen"}},{"name":"Jahnstr.","postalCode":"65824","locality":"Schwalbach am Taunus","municipality":{"key":"06436011","name":"Schwalbach am Taunus, Stadt","type":"Stadt"},"district":{"key":"06436","name":"Main-Taunus-Kreis","type":"Landkreis"},"federalState":{"key":"06","name":"Hessen"}},{"name":"Julius-Brecht-Str.","postalCode":"65824","locality":"Schwalbach am Taunus","municipality":{"key":"06436011","name":"Schwalbach am Taunus, Stadt","type":"Stadt"},"district":{"key":"06436","name":"Main-Taunus-Kreis","type":"Landkreis"},"federalState":{"key":"06","name":"Hessen"}},{"name":"Karlsbader Str.","postalCode":"65824","locality":"Schwalbach am Taunus","municipality":{"key":"06436011","name":"Schwalbach am Taunus, Stadt","type":"Stadt"},"district":{"key":"06436","name":"Main-Taunus-Kreis","type":"Landkreis"},"federalState":{"key":"06","name":"Hessen"}},{"name":"Kirchgasse","postalCode":"65824","locality":"Schwalbach am Taunus","municipality":{"key":"06436011","name":"Schwalbach am Taunus, Stadt","type":"Stadt"},"district":{"key":"06436","name":"Main-Taunus-Kreis","type":"Landkreis"},"federalState":{"key":"06","name":"Hessen"}},{"name":"Kronberger Str.","postalCode":"65824","locality":"Schwalbach am Taunus","municipality":{"key":"06436011","name":"Schwalbach am Taunus, Stadt","type":"Stadt"},"district":{"key":"06436","name":"Main-Taunus-Kreis","type":"Landkreis"},"federalState":{"key":"06","name":"Hessen"}},{"name":"Kronthaler Weg","postalCode":"65824","locality":"Schwalbach am Taunus","municipality":{"key":"06436011","name":"Schwalbach am Taunus, Stadt","type":"Stadt"},"district":{"key":"06436","name":"Main-Taunus-Kreis","type":"Landkreis"},"federalState":{"key":"06","name":"Hessen"}},{"name":"Lauenburger Str.","postalCode":"65824","locality":"Schwalbach am Taunus","municipality":{"key":"06436011","name":"Schwalbach am Taunus, Stadt","type":"Stadt"},"district":{"key":"06436","name":"Main-Taunus-Kreis","type":"Landkreis"},"federalState":{"key":"06","name":"Hessen"}},{"name":"Lerchenstr.","postalCode":"65824","locality":"Schwalbach am Taunus","municipality":{"key":"06436011","name":"Schwalbach am Taunus, Stadt","type":"Stadt"},"district":{"key":"06436","name":"Main-Taunus-Kreis","type":"Landkreis"},"federalState":{"key":"06","name":"Hessen"}},{"name":"Limesspange","postalCode":"65824","locality":"Schwalbach am Taunus","municipality":{"key":"06436011","name":"Schwalbach am Taunus, Stadt","type":"Stadt"},"district":{"key":"06436","name":"Main-Taunus-Kreis","type":"Landkreis"},"federalState":{"key":"06","name":"Hessen"}},{"name":"Mammolshainer Weg","postalCode":"65824","locality":"Schwalbach am Taunus","municipality":{"key":"06436011","name":"Schwalbach am Taunus, Stadt","type":"Stadt"},"district":{"key":"06436","name":"Main-Taunus-Kreis","type":"Landkreis"},"federalState":{"key":"06","name":"Hessen"}},{"name":"Marktplatz","postalCode":"65824","locality":"Schwalbach am Taunus","municipality":{"key":"06436011","name":"Schwalbach am Taunus, Stadt","type":"Stadt"},"district":{"key":"06436","name":"Main-Taunus-Kreis","type":"Landkreis"},"federalState":{"key":"06","name":"Hessen"}},{"name":"Mecklenburger Str.","postalCode":"65824","locality":"Schwalbach am Taunus","municipality":{"key":"06436011","name":"Schwalbach am Taunus, Stadt","type":"Stadt"},"district":{"key":"06436","name":"Main-Taunus-Kreis","type":"Landkreis"},"federalState":{"key":"06","name":"Hessen"}},{"name":"Meisenstr.","postalCode":"65824","locality":"Schwalbach am Taunus","municipality":{"key":"06436011","name":"Schwalbach am Taunus, Stadt","type":"Stadt"},"district":{"key":"06436","name":"Main-Taunus-Kreis","type":"Landkreis"},"federalState":{"key":"06","name":"Hessen"}},{"name":"Naherholungsgebiet Rinderwiesen","postalCode":"65824","locality":"Schwalbach am Taunus","municipality":{"key":"06436011","name":"Schwalbach am Taunus, Stadt","type":"Stadt"},"district":{"key":"06436","name":"Main-Taunus-Kreis","type":"Landkreis"},"federalState":{"key":"06","name":"Hessen"}},{"name":"Neustr.","postalCode":"65824","locality":"Schwalbach am Taunus","municipality":{"key":"06436011","name":"Schwalbach am Taunus, Stadt","type":"Stadt"},"district":{"key":"06436","name":"Main-Taunus-Kreis","type":"Landkreis"},"federalState":{"key":"06","name":"Hessen"}},{"name":"Niebergallweg","postalCode":"65824","locality":"Schwalbach am Taunus","municipality":{"key":"06436011","name":"Schwalbach am Taunus, Stadt","type":"Stadt"},"district":{"key":"06436","name":"Main-Taunus-Kreis","type":"Landkreis"},"federalState":{"key":"06","name":"Hessen"}},{"name":"Niederdorfstr.","postalCode":"65824","locality":"Schwalbach am Taunus","municipality":{"key":"06436011","name":"Schwalbach am Taunus, Stadt","type":"Stadt"},"district":{"key":"06436","name":"Main-Taunus-Kreis","type":"Landkreis"},"federalState":{"key":"06","name":"Hessen"}},{"name":"Niederhöchstädter Pfad","postalCode":"65824","locality":"Schwalbach am Taunus","municipality":{"key":"06436011","name":"Schwalbach am Taunus, Stadt","type":"Stadt"},"district":{"key":"06436","name":"Main-Taunus-Kreis","type":"Landkreis"},"federalState":{"key":"06","name":"Hessen"}},{"name":"Niederräder Str.","postalCode":"65824","locality":"Schwalbach am Taunus","municipality":{"key":"06436011","name":"Schwalbach am Taunus, Stadt","type":"Stadt"},"district":{"key":"06436","name":"Main-Taunus-Kreis","type":"Landkreis"},"federalState":{"key":"06","name":"Hessen"}},{"name":"Nordstr.","postalCode":"65824","locality":"Schwalbach am Taunus","municipality":{"key":"06436011","name":"Schwalbach am Taunus, Stadt","type":"Stadt"},"district":{"key":"06436","name":"Main-Taunus-Kreis","type":"Landkreis"},"federalState":{"key":"06","name":"Hessen"}},{"name":"Ober der Röth","postalCode":"65824","locality":"Schwalbach am Taunus","municipality":{"key":"06436011","name":"Schwalbach am Taunus, Stadt","type":"Stadt"},"district":{"key":"06436","name":"Main-Taunus-Kreis","type":"Landkreis"},"federalState":{"key":"06","name":"Hessen"}},{"name":"Odenwaldstr.","postalCode":"65824","locality":"Schwalbach am Taunus","municipality":{"key":"06436011","name":"Schwalbach am Taunus, Stadt","type":"Stadt"},"district":{"key":"06436","name":"Main-Taunus-Kreis","type":"Landkreis"},"federalState":{"key":"06","name":"Hessen"}},{"name":"Olkuszstr.","postalCode":"65824","locality":"Schwalbach am Taunus","municipality":{"key":"06436011","name":"Schwalbach am Taunus, Stadt","type":"Stadt"},"district":{"key":"06436","name":"Main-Taunus-Kreis","type":"Landkreis"},"federalState":{"key":"06","name":"Hessen"}},{"name":"Ostpreußenstr.","postalCode":"65824","locality":"Schwalbach am Taunus","municipality":{"key":"06436011","name":"Schwalbach am Taunus, Stadt","type":"Stadt"},"district":{"key":"06436","name":"Main-Taunus-Kreis","type":"Landkreis"},"federalState":{"key":"06","name":"Hessen"}},{"name":"Ostring","postalCode":"65824","locality":"Schwalbach am Taunus","municipality":{"key":"06436011","name":"Schwalbach am Taunus, Stadt","type":"Stadt"},"district":{"key":"06436","name":"Main-Taunus-Kreis","type":"Landkreis"},"federalState":{"key":"06","name":"Hessen"}},{"name":"Pfingstbrunnenstr.","postalCode":"65824","locality":"Schwalbach am Taunus","municipality":{"key":"06436011","name":"Schwalbach am Taunus, Stadt","type":"Stadt"},"district":{"key":"06436","name":"Main-Taunus-Kreis","type":"Landkreis"},"federalState":{"key":"06","name":"Hessen"}},{"name":"Pommernstr.","postalCode":"65824","locality":"Schwalbach am Taunus","municipality":{"key":"06436011","name":"Schwalbach am Taunus, Stadt","type":"Stadt"},"district":{"key":"06436","name":"Main-Taunus-Kreis","type":"Landkreis"},"federalState":{"key":"06","name":"Hessen"}},{"name":"Rheinlandstr.","postalCode":"65824","locality":"Schwalbach am Taunus","municipality":{"key":"06436011","name":"Schwalbach am Taunus, Stadt","type":"Stadt"},"district":{"key":"06436","name":"Main-Taunus-Kreis","type":"Landkreis"},"federalState":{"key":"06","name":"Hessen"}},{"name":"Rhönstr.","postalCode":"65824","locality":"Schwalbach am Taunus","municipality":{"key":"06436011","name":"Schwalbach am Taunus, Stadt","type":"Stadt"},"district":{"key":"06436","name":"Main-Taunus-Kreis","type":"Landkreis"},"federalState":{"key":"06","name":"Hessen"}},{"name":"Ringstr.","postalCode":"65824","locality":"Schwalbach am Taunus","municipality":{"key":"06436011","name":"Schwalbach am Taunus, Stadt","type":"Stadt"},"district":{"key":"06436","name":"Main-Taunus-Kreis","type":"Landkreis"},"federalState":{"key":"06","name":"Hessen"}},{"name":"Rödelheimer Str.","postalCode":"65824","locality":"Schwalbach am Taunus","municipality":{"key":"06436011","name":"Schwalbach am Taunus, Stadt","type":"Stadt"},"district":{"key":"06436","name":"Main-Taunus-Kreis","type":"Landkreis"},"federalState":{"key":"06","name":"Hessen"}},{"name":"Rudolf-Dietz-Weg","postalCode":"65824","locality":"Schwalbach am Taunus","municipality":{"key":"06436011","name":"Schwalbach am Taunus, Stadt","type":"Stadt"},"district":{"key":"06436","name":"Main-Taunus-Kreis","type":"Landkreis"},"federalState":{"key":"06","name":"Hessen"}},{"name":"Sachsenhausener Str.","postalCode":"65824","locality":"Schwalbach am Taunus","municipality":{"key":"06436011","name":"Schwalbach am Taunus, Stadt","type":"Stadt"},"district":{"key":"06436","name":"Main-Taunus-Kreis","type":"Landkreis"},"federalState":{"key":"06","name":"Hessen"}},{"name":"Sachsenstr.","postalCode":"65824","locality":"Schwalbach am Taunus","municipality":{"key":"06436011","name":"Schwalbach am Taunus, Stadt","type":"Stadt"},"district":{"key":"06436","name":"Main-Taunus-Kreis","type":"Landkreis"},"federalState":{"key":"06","name":"Hessen"}},{"name":"Salzbornstr.","postalCode":"65824","locality":"Schwalbach am Taunus","municipality":{"key":"06436011","name":"Schwalbach am Taunus, Stadt","type":"Stadt"},"district":{"key":"06436","name":"Main-Taunus-Kreis","type":"Landkreis"},"federalState":{"key":"06","name":"Hessen"}},{"name":"Sauererlenstr.","postalCode":"65824","locality":"Schwalbach am Taunus","municipality":{"key":"06436011","name":"Schwalbach am Taunus, Stadt","type":"Stadt"},"district":{"key":"06436","name":"Main-Taunus-Kreis","type":"Landkreis"},"federalState":{"key":"06","name":"Hessen"}},{"name":"Schlesienstr.","postalCode":"65824","locality":"Schwalbach am Taunus","municipality":{"key":"06436011","name":"Schwalbach am Taunus, Stadt","type":"Stadt"},"district":{"key":"06436","name":"Main-Taunus-Kreis","type":"Landkreis"},"federalState":{"key":"06","name":"Hessen"}},{"name":"Schneidemühler Str.","postalCode":"65824","locality":"Schwalbach am Taunus","municipality":{"key":"06436011","name":"Schwalbach am Taunus, Stadt","type":"Stadt"},"district":{"key":"06436","name":"Main-Taunus-Kreis","type":"Landkreis"},"federalState":{"key":"06","name":"Hessen"}},{"name":"Schönberger Weg","postalCode":"65824","locality":"Schwalbach am Taunus","municipality":{"key":"06436011","name":"Schwalbach am Taunus, Stadt","type":"Stadt"},"district":{"key":"06436","name":"Main-Taunus-Kreis","type":"Landkreis"},"federalState":{"key":"06","name":"Hessen"}},{"name":"Schulstr.","postalCode":"65824","locality":"Schwalbach am Taunus","municipality":{"key":"06436011","name":"Schwalbach am Taunus, Stadt","type":"Stadt"},"district":{"key":"06436","name":"Main-Taunus-Kreis","type":"Landkreis"},"federalState":{"key":"06","name":"Hessen"}},{"name":"Schützenstr.","postalCode":"65824","locality":"Schwalbach am Taunus","municipality":{"key":"06436011","name":"Schwalbach am Taunus, Stadt","type":"Stadt"},"district":{"key":"06436","name":"Main-Taunus-Kreis","type":"Landkreis"},"federalState":{"key":"06","name":"Hessen"}},{"name":"Schwalbenstr.","postalCode":"65824","locality":"Schwalbach am Taunus","municipality":{"key":"06436011","name":"Schwalbach am Taunus, Stadt","type":"Stadt"},"district":{"key":"06436","name":"Main-Taunus-Kreis","type":"Landkreis"},"federalState":{"key":"06","name":"Hessen"}},{"name":"Schwanheimer Str.","postalCode":"65824","locality":"Schwalbach am Taunus","municipality":{"key":"06436011","name":"Schwalbach am Taunus, Stadt","type":"Stadt"},"district":{"key":"06436","name":"Main-Taunus-Kreis","type":"Landkreis"},"federalState":{"key":"06","name":"Hessen"}},{"name":"Sodener Str.","postalCode":"65824","locality":"Schwalbach am Taunus","municipality":{"key":"06436011","name":"Schwalbach am Taunus, Stadt","type":"Stadt"},"district":{"key":"06436","name":"Main-Taunus-Kreis","type":"Landkreis"},"federalState":{"key":"06","name":"Hessen"}},{"name":"Sossenheimer Weg","postalCode":"65824","locality":"Schwalbach am Taunus","municipality":{"key":"06436011","name":"Schwalbach am Taunus, Stadt","type":"Stadt"},"district":{"key":"06436","name":"Main-Taunus-Kreis","type":"Landkreis"},"federalState":{"key":"06","name":"Hessen"}},{"name":"Spechtstr.","postalCode":"65824","locality":"Schwalbach am Taunus","municipality":{"key":"06436011","name":"Schwalbach am Taunus, Stadt","type":"Stadt"},"district":{"key":"06436","name":"Main-Taunus-Kreis","type":"Landkreis"},"federalState":{"key":"06","name":"Hessen"}},{"name":"Spessartstr.","postalCode":"65824","locality":"Schwalbach am Taunus","municipality":{"key":"06436011","name":"Schwalbach am Taunus, Stadt","type":"Stadt"},"district":{"key":"06436","name":"Main-Taunus-Kreis","type":"Landkreis"},"federalState":{"key":"06","name":"Hessen"}},{"name":"Staufenstr.","postalCode":"65824","locality":"Schwalbach am Taunus","municipality":{"key":"06436011","name":"Schwalbach am Taunus, Stadt","type":"Stadt"},"district":{"key":"06436","name":"Main-Taunus-Kreis","type":"Landkreis"},"federalState":{"key":"06","name":"Hessen"}},{"name":"Steinweg","postalCode":"65824","locality":"Schwalbach am Taunus","municipality":{"key":"06436011","name":"Schwalbach am Taunus, Stadt","type":"Stadt"},"district":{"key":"06436","name":"Main-Taunus-Kreis","type":"Landkreis"},"federalState":{"key":"06","name":"Hessen"}},{"name":"Sulzbacher Str.","postalCode":"65824","locality":"Schwalbach am Taunus","municipality":{"key":"06436011","name":"Schwalbach am Taunus, Stadt","type":"Stadt"},"district":{"key":"06436","name":"Main-Taunus-Kreis","type":"Landkreis"},"federalState":{"key":"06","name":"Hessen"}},{"name":"Taunusstr.","postalCode":"65824","locality":"Schwalbach am Taunus","municipality":{"key":"06436011","name":"Schwalbach am Taunus, Stadt","type":"Stadt"},"district":{"key":"06436","name":"Main-Taunus-Kreis","type":"Landkreis"},"federalState":{"key":"06","name":"Hessen"}},{"name":"Thüringer Str.","postalCode":"65824","locality":"Schwalbach am Taunus","municipality":{"key":"06436011","name":"Schwalbach am Taunus, Stadt","type":"Stadt"},"district":{"key":"06436","name":"Main-Taunus-Kreis","type":"Landkreis"},"federalState":{"key":"06","name":"Hessen"}},{"name":"Waldstr.","postalCode":"65824","locality":"Schwalbach am Taunus","municipality":{"key":"06436011","name":"Schwalbach am Taunus, Stadt","type":"Stadt"},"district":{"key":"06436","name":"Main-Taunus-Kreis","type":"Landkreis"},"federalState":{"key":"06","name":"Hessen"}},{"name":"Westring","postalCode":"65824","locality":"Schwalbach am Taunus","municipality":{"key":"06436011","name":"Schwalbach am Taunus, Stadt","type":"Stadt"},"district":{"key":"06436","name":"Main-Taunus-Kreis","type":"Landkreis"},"federalState":{"key":"06","name":"Hessen"}},{"name":"Wiesenweg","postalCode":"65824","locality":"Schwalbach am Taunus","municipality":{"key":"06436011","name":"Schwalbach am Taunus, Stadt","type":"Stadt"},"district":{"key":"06436","name":"Main-Taunus-Kreis","type":"Landkreis"},"federalState":{"key":"06","name":"Hessen"}},{"name":"Wilhelm-Leuschner-Str.","postalCode":"65824","locality":"Schwalbach am Taunus","municipality":{"key":"06436011","name":"Schwalbach am Taunus, Stadt","type":"Stadt"},"district":{"key":"06436","name":"Main-Taunus-Kreis","type":"Landkreis"},"federalState":{"key":"06","name":"Hessen"}},{"name":"Württemberger Str.","postalCode":"65824","locality":"Schwalbach am Taunus","municipality":{"key":"06436011","name":"Schwalbach am Taunus, Stadt","type":"Stadt"},"district":{"key":"06436","name":"Main-Taunus-Kreis","type":"Landkreis"},"federalState":{"key":"06","name":"Hessen"}},{"name":"Yarmstr.","postalCode":"65824","locality":"Schwalbach am Taunus","municipality":{"key":"06436011","name":"Schwalbach am Taunus, Stadt","type":"Stadt"},"district":{"key":"06436","name":"Main-Taunus-Kreis","type":"Landkreis"},"federalState":{"key":"06","name":"Hessen"}},]