[{"name":"Am Anger","postalCode":"07955","locality":"Auma-Weidatal","municipality":{"key":"16076092","name":"Auma-Weidatal, Stadt","type":"Stadt"},"district":{"key":"16076","name":"Greiz","type":"Landkreis"},"federalState":{"key":"16","name":"Thüringen"}},{"name":"Am Katzenberg","postalCode":"07955","locality":"Auma-Weidatal","municipality":{"key":"16076092","name":"Auma-Weidatal, Stadt","type":"Stadt"},"district":{"key":"16076","name":"Greiz","type":"Landkreis"},"federalState":{"key":"16","name":"Thüringen"}},{"name":"Am Plan","postalCode":"07955","locality":"Auma-Weidatal","municipality":{"key":"16076092","name":"Auma-Weidatal, Stadt","type":"Stadt"},"district":{"key":"16076","name":"Greiz","type":"Landkreis"},"federalState":{"key":"16","name":"Thüringen"}},{"name":"Am Seeweg","postalCode":"07955","locality":"Auma-Weidatal","municipality":{"key":"16076092","name":"Auma-Weidatal, Stadt","type":"Stadt"},"district":{"key":"16076","name":"Greiz","type":"Landkreis"},"federalState":{"key":"16","name":"Thüringen"}},{"name":"Am Sophienbad","postalCode":"07955","locality":"Auma-Weidatal","municipality":{"key":"16076092","name":"Auma-Weidatal, Stadt","type":"Stadt"},"district":{"key":"16076","name":"Greiz","type":"Landkreis"},"federalState":{"key":"16","name":"Thüringen"}},{"name":"Am Stadtpark","postalCode":"07955","locality":"Auma-Weidatal","municipality":{"key":"16076092","name":"Auma-Weidatal, Stadt","type":"Stadt"},"district":{"key":"16076","name":"Greiz","type":"Landkreis"},"federalState":{"key":"16","name":"Thüringen"}},{"name":"Am Talberg","postalCode":"07955","locality":"Auma-Weidatal","municipality":{"key":"16076092","name":"Auma-Weidatal, Stadt","type":"Stadt"},"district":{"key":"16076","name":"Greiz","type":"Landkreis"},"federalState":{"key":"16","name":"Thüringen"}},{"name":"Am Weidaer Tor","postalCode":"07955","locality":"Auma-Weidatal","municipality":{"key":"16076092","name":"Auma-Weidatal, Stadt","type":"Stadt"},"district":{"key":"16076","name":"Greiz","type":"Landkreis"},"federalState":{"key":"16","name":"Thüringen"}},{"name":"Am Wendischen Teich","postalCode":"07955","locality":"Auma-Weidatal","municipality":{"key":"16076092","name":"Auma-Weidatal, Stadt","type":"Stadt"},"district":{"key":"16076","name":"Greiz","type":"Landkreis"},"federalState":{"key":"16","name":"Thüringen"}},{"name":"Auestr.","postalCode":"07955","locality":"Auma-Weidatal","municipality":{"key":"16076092","name":"Auma-Weidatal, Stadt","type":"Stadt"},"district":{"key":"16076","name":"Greiz","type":"Landkreis"},"federalState":{"key":"16","name":"Thüringen"}},{"name":"Bahnhofstr.","postalCode":"07955","locality":"Auma-Weidatal","municipality":{"key":"16076092","name":"Auma-Weidatal, Stadt","type":"Stadt"},"district":{"key":"16076","name":"Greiz","type":"Landkreis"},"federalState":{"key":"16","name":"Thüringen"}},{"name":"Bergweg","postalCode":"07955","locality":"Auma-Weidatal","municipality":{"key":"16076092","name":"Auma-Weidatal, Stadt","type":"Stadt"},"district":{"key":"16076","name":"Greiz","type":"Landkreis"},"federalState":{"key":"16","name":"Thüringen"}},{"name":"Braunsdorf","postalCode":"07955","locality":"Auma-Weidatal","municipality":{"key":"16076092","name":"Auma-Weidatal, Stadt","type":"Stadt"},"district":{"key":"16076","name":"Greiz","type":"Landkreis"},"federalState":{"key":"16","name":"Thüringen"}},{"name":"Breite Str.","postalCode":"07955","locality":"Auma-Weidatal","municipality":{"key":"16076092","name":"Auma-Weidatal, Stadt","type":"Stadt"},"district":{"key":"16076","name":"Greiz","type":"Landkreis"},"federalState":{"key":"16","name":"Thüringen"}},{"name":"Carl-Röder-Str.","postalCode":"07973","locality":"Greiz","municipality":{"key":"16076022","name":"Greiz, Stadt","type":"Stadt"},"district":{"key":"16076","name":"Greiz","type":"Landkreis"},"federalState":{"key":"16","name":"Thüringen"}},{"name":"Carolinenstr.","postalCode":"07973","locality":"Greiz","municipality":{"key":"16076022","name":"Greiz, Stadt","type":"Stadt"},"district":{"key":"16076","name":"Greiz","type":"Landkreis"},"federalState":{"key":"16","name":"Thüringen"}},{"name":"Clara-Zetkin-Str.","postalCode":"07973","locality":"Greiz","municipality":{"key":"16076022","name":"Greiz, Stadt","type":"Stadt"},"district":{"key":"16076","name":"Greiz","type":"Landkreis"},"federalState":{"key":"16","name":"Thüringen"}},{"name":"Cloßstr.","postalCode":"07973","locality":"Greiz","municipality":{"key":"16076022","name":"Greiz, Stadt","type":"Stadt"},"district":{"key":"16076","name":"Greiz","type":"Landkreis"},"federalState":{"key":"16","name":"Thüringen"}},{"name":"Cossengrün","postalCode":"07973","locality":"Greiz","municipality":{"key":"16076022","name":"Greiz, Stadt","type":"Stadt"},"district":{"key":"16076","name":"Greiz","type":"Landkreis"},"federalState":{"key":"16","name":"Thüringen"}},{"name":"Döhlen","postalCode":"07955","locality":"Auma-Weidatal","municipality":{"key":"16076092","name":"Auma-Weidatal, Stadt","type":"Stadt"},"district":{"key":"16076","name":"Greiz","type":"Landkreis"},"federalState":{"key":"16","name":"Thüringen"}},{"name":"Dr.-Martin-Luther-Str.","postalCode":"07955","locality":"Auma-Weidatal","municipality":{"key":"16076092","name":"Auma-Weidatal, Stadt","type":"Stadt"},"district":{"key":"16076","name":"Greiz","type":"Landkreis"},"federalState":{"key":"16","name":"Thüringen"}},{"name":"Eichplatz","postalCode":"07955","locality":"Auma-Weidatal","municipality":{"key":"16076092","name":"Auma-Weidatal, Stadt","type":"Stadt"},"district":{"key":"16076","name":"Greiz","type":"Landkreis"},"federalState":{"key":"16","name":"Thüringen"}},{"name":"Eichstr.","postalCode":"07955","locality":"Auma-Weidatal","municipality":{"key":"16076092","name":"Auma-Weidatal, Stadt","type":"Stadt"},"district":{"key":"16076","name":"Greiz","type":"Landkreis"},"federalState":{"key":"16","name":"Thüringen"}},{"name":"Freybergstr.","postalCode":"07955","locality":"Auma-Weidatal","municipality":{"key":"16076092","name":"Auma-Weidatal, Stadt","type":"Stadt"},"district":{"key":"16076","name":"Greiz","type":"Landkreis"},"federalState":{"key":"16","name":"Thüringen"}},{"name":"Friedhofstr.","postalCode":"07955","locality":"Auma-Weidatal","municipality":{"key":"16076092","name":"Auma-Weidatal, Stadt","type":"Stadt"},"district":{"key":"16076","name":"Greiz","type":"Landkreis"},"federalState":{"key":"16","name":"Thüringen"}},{"name":"Friedrich-Schiller-Str.","postalCode":"07955","locality":"Auma-Weidatal","municipality":{"key":"16076092","name":"Auma-Weidatal, Stadt","type":"Stadt"},"district":{"key":"16076","name":"Greiz","type":"Landkreis"},"federalState":{"key":"16","name":"Thüringen"}},{"name":"Gartenstr.","postalCode":"07955","locality":"Auma-Weidatal","municipality":{"key":"16076092","name":"Auma-Weidatal, Stadt","type":"Stadt"},"district":{"key":"16076","name":"Greiz","type":"Landkreis"},"federalState":{"key":"16","name":"Thüringen"}},{"name":"Georg-Kresse-Weg","postalCode":"07955","locality":"Auma-Weidatal","municipality":{"key":"16076092","name":"Auma-Weidatal, Stadt","type":"Stadt"},"district":{"key":"16076","name":"Greiz","type":"Landkreis"},"federalState":{"key":"16","name":"Thüringen"}},{"name":"Geraische Str.","postalCode":"07955","locality":"Auma-Weidatal","municipality":{"key":"16076092","name":"Auma-Weidatal, Stadt","type":"Stadt"},"district":{"key":"16076","name":"Greiz","type":"Landkreis"},"federalState":{"key":"16","name":"Thüringen"}},{"name":"Göhren","postalCode":"07955","locality":"Auma-Weidatal","municipality":{"key":"16076092","name":"Auma-Weidatal, Stadt","type":"Stadt"},"district":{"key":"16076","name":"Greiz","type":"Landkreis"},"federalState":{"key":"16","name":"Thüringen"}},{"name":"Gütterlitz","postalCode":"07955","locality":"Auma-Weidatal","municipality":{"key":"16076092","name":"Auma-Weidatal, Stadt","type":"Stadt"},"district":{"key":"16076","name":"Greiz","type":"Landkreis"},"federalState":{"key":"16","name":"Thüringen"}},{"name":"Hasestr.","postalCode":"07955","locality":"Auma-Weidatal","municipality":{"key":"16076092","name":"Auma-Weidatal, Stadt","type":"Stadt"},"district":{"key":"16076","name":"Greiz","type":"Landkreis"},"federalState":{"key":"16","name":"Thüringen"}},{"name":"Heinrich-Heine-Str.","postalCode":"07955","locality":"Auma-Weidatal","municipality":{"key":"16076092","name":"Auma-Weidatal, Stadt","type":"Stadt"},"district":{"key":"16076","name":"Greiz","type":"Landkreis"},"federalState":{"key":"16","name":"Thüringen"}},{"name":"Hinter den Höfen","postalCode":"07955","locality":"Auma-Weidatal","municipality":{"key":"16076092","name":"Auma-Weidatal, Stadt","type":"Stadt"},"district":{"key":"16076","name":"Greiz","type":"Landkreis"},"federalState":{"key":"16","name":"Thüringen"}},{"name":"Hospitalstr.","postalCode":"07955","locality":"Auma-Weidatal","municipality":{"key":"16076092","name":"Auma-Weidatal, Stadt","type":"Stadt"},"district":{"key":"16076","name":"Greiz","type":"Landkreis"},"federalState":{"key":"16","name":"Thüringen"}},{"name":"Im Gewerbegebiet Wenigenauma","postalCode":"07955","locality":"Auma-Weidatal","municipality":{"key":"16076092","name":"Auma-Weidatal, Stadt","type":"Stadt"},"district":{"key":"16076","name":"Greiz","type":"Landkreis"},"federalState":{"key":"16","name":"Thüringen"}},{"name":"Jahnstr.","postalCode":"07955","locality":"Auma-Weidatal","municipality":{"key":"16076092","name":"Auma-Weidatal, Stadt","type":"Stadt"},"district":{"key":"16076","name":"Greiz","type":"Landkreis"},"federalState":{"key":"16","name":"Thüringen"}},{"name":"Kolbestr.","postalCode":"07955","locality":"Auma-Weidatal","municipality":{"key":"16076092","name":"Auma-Weidatal, Stadt","type":"Stadt"},"district":{"key":"16076","name":"Greiz","type":"Landkreis"},"federalState":{"key":"16","name":"Thüringen"}},{"name":"Köthnitzer Weg","postalCode":"07955","locality":"Auma-Weidatal","municipality":{"key":"16076092","name":"Auma-Weidatal, Stadt","type":"Stadt"},"district":{"key":"16076","name":"Greiz","type":"Landkreis"},"federalState":{"key":"16","name":"Thüringen"}},{"name":"Krölpa","postalCode":"07955","locality":"Auma-Weidatal","municipality":{"key":"16076092","name":"Auma-Weidatal, Stadt","type":"Stadt"},"district":{"key":"16076","name":"Greiz","type":"Landkreis"},"federalState":{"key":"16","name":"Thüringen"}},{"name":"Lange Gasse","postalCode":"07955","locality":"Auma-Weidatal","municipality":{"key":"16076092","name":"Auma-Weidatal, Stadt","type":"Stadt"},"district":{"key":"16076","name":"Greiz","type":"Landkreis"},"federalState":{"key":"16","name":"Thüringen"}},{"name":"Lindenweg","postalCode":"07955","locality":"Auma-Weidatal","municipality":{"key":"16076092","name":"Auma-Weidatal, Stadt","type":"Stadt"},"district":{"key":"16076","name":"Greiz","type":"Landkreis"},"federalState":{"key":"16","name":"Thüringen"}},{"name":"Markt","postalCode":"07955","locality":"Auma-Weidatal","municipality":{"key":"16076092","name":"Auma-Weidatal, Stadt","type":"Stadt"},"district":{"key":"16076","name":"Greiz","type":"Landkreis"},"federalState":{"key":"16","name":"Thüringen"}},{"name":"Marktberg","postalCode":"07955","locality":"Auma-Weidatal","municipality":{"key":"16076092","name":"Auma-Weidatal, Stadt","type":"Stadt"},"district":{"key":"16076","name":"Greiz","type":"Landkreis"},"federalState":{"key":"16","name":"Thüringen"}},{"name":"Moßbacher Str.","postalCode":"07955","locality":"Auma-Weidatal","municipality":{"key":"16076092","name":"Auma-Weidatal, Stadt","type":"Stadt"},"district":{"key":"16076","name":"Greiz","type":"Landkreis"},"federalState":{"key":"16","name":"Thüringen"}},{"name":"Muntscha","postalCode":"07955","locality":"Auma-Weidatal","municipality":{"key":"16076092","name":"Auma-Weidatal, Stadt","type":"Stadt"},"district":{"key":"16076","name":"Greiz","type":"Landkreis"},"federalState":{"key":"16","name":"Thüringen"}},{"name":"Nordstr.","postalCode":"07955","locality":"Auma-Weidatal","municipality":{"key":"16076092","name":"Auma-Weidatal, Stadt","type":"Stadt"},"district":{"key":"16076","name":"Greiz","type":"Landkreis"},"federalState":{"key":"16","name":"Thüringen"}},{"name":"Obere Gasse","postalCode":"07955","locality":"Auma-Weidatal","municipality":{"key":"16076092","name":"Auma-Weidatal, Stadt","type":"Stadt"},"district":{"key":"16076","name":"Greiz","type":"Landkreis"},"federalState":{"key":"16","name":"Thüringen"}},{"name":"Oberer Graben","postalCode":"07955","locality":"Auma-Weidatal","municipality":{"key":"16076092","name":"Auma-Weidatal, Stadt","type":"Stadt"},"district":{"key":"16076","name":"Greiz","type":"Landkreis"},"federalState":{"key":"16","name":"Thüringen"}},{"name":"Pfersdorf","postalCode":"07955","locality":"Auma-Weidatal","municipality":{"key":"16076092","name":"Auma-Weidatal, Stadt","type":"Stadt"},"district":{"key":"16076","name":"Greiz","type":"Landkreis"},"federalState":{"key":"16","name":"Thüringen"}},{"name":"Querweg","postalCode":"07955","locality":"Auma-Weidatal","municipality":{"key":"16076092","name":"Auma-Weidatal, Stadt","type":"Stadt"},"district":{"key":"16076","name":"Greiz","type":"Landkreis"},"federalState":{"key":"16","name":"Thüringen"}},{"name":"Raasdorfer Str.","postalCode":"07973","locality":"Greiz","municipality":{"key":"16076022","name":"Greiz, Stadt","type":"Stadt"},"district":{"key":"16076","name":"Greiz","type":"Landkreis"},"federalState":{"key":"16","name":"Thüringen"}},{"name":"Raunerstr.","postalCode":"07973","locality":"Greiz","municipality":{"key":"16076022","name":"Greiz, Stadt","type":"Stadt"},"district":{"key":"16076","name":"Greiz","type":"Landkreis"},"federalState":{"key":"16","name":"Thüringen"}},{"name":"Reichenbacher Str.","postalCode":"07973","locality":"Greiz","municipality":{"key":"16076022","name":"Greiz, Stadt","type":"Stadt"},"district":{"key":"16076","name":"Greiz","type":"Landkreis"},"federalState":{"key":"16","name":"Thüringen"}},{"name":"Reinsdorfer Alte Gasse","postalCode":"07973","locality":"Greiz","municipality":{"key":"16076022","name":"Greiz, Stadt","type":"Stadt"},"district":{"key":"16076","name":"Greiz","type":"Landkreis"},"federalState":{"key":"16","name":"Thüringen"}},{"name":"Reinsdorfer Str.","postalCode":"07973","locality":"Greiz","municipality":{"key":"16076022","name":"Greiz, Stadt","type":"Stadt"},"district":{"key":"16076","name":"Greiz","type":"Landkreis"},"federalState":{"key":"16","name":"Thüringen"}},{"name":"Reißbergplatz","postalCode":"07973","locality":"Greiz","municipality":{"key":"16076022","name":"Greiz, Stadt","type":"Stadt"},"district":{"key":"16076","name":"Greiz","type":"Landkreis"},"federalState":{"key":"16","name":"Thüringen"}},{"name":"Rilkestr.","postalCode":"07973","locality":"Greiz","municipality":{"key":"16076022","name":"Greiz, Stadt","type":"Stadt"},"district":{"key":"16076","name":"Greiz","type":"Landkreis"},"federalState":{"key":"16","name":"Thüringen"}},{"name":"Rosa-Luxemburg-Str.","postalCode":"07973","locality":"Greiz","municipality":{"key":"16076022","name":"Greiz, Stadt","type":"Stadt"},"district":{"key":"16076","name":"Greiz","type":"Landkreis"},"federalState":{"key":"16","name":"Thüringen"}},{"name":"Rosenweg","postalCode":"07973","locality":"Greiz","municipality":{"key":"16076022","name":"Greiz, Stadt","type":"Stadt"},"district":{"key":"16076","name":"Greiz","type":"Landkreis"},"federalState":{"key":"16","name":"Thüringen"}},{"name":"Rückeweg","postalCode":"07973","locality":"Greiz","municipality":{"key":"16076022","name":"Greiz, Stadt","type":"Stadt"},"district":{"key":"16076","name":"Greiz","type":"Landkreis"},"federalState":{"key":"16","name":"Thüringen"}},{"name":"Rudolf-Breitscheid-Str.","postalCode":"07973","locality":"Greiz","municipality":{"key":"16076022","name":"Greiz, Stadt","type":"Stadt"},"district":{"key":"16076","name":"Greiz","type":"Landkreis"},"federalState":{"key":"16","name":"Thüringen"}},{"name":"Schleizer Str.","postalCode":"07955","locality":"Auma-Weidatal","municipality":{"key":"16076092","name":"Auma-Weidatal, Stadt","type":"Stadt"},"district":{"key":"16076","name":"Greiz","type":"Landkreis"},"federalState":{"key":"16","name":"Thüringen"}},{"name":"Schulpark","postalCode":"07955","locality":"Auma-Weidatal","municipality":{"key":"16076092","name":"Auma-Weidatal, Stadt","type":"Stadt"},"district":{"key":"16076","name":"Greiz","type":"Landkreis"},"federalState":{"key":"16","name":"Thüringen"}},{"name":"Schulstr.","postalCode":"07955","locality":"Auma-Weidatal","municipality":{"key":"16076092","name":"Auma-Weidatal, Stadt","type":"Stadt"},"district":{"key":"16076","name":"Greiz","type":"Landkreis"},"federalState":{"key":"16","name":"Thüringen"}},{"name":"Siedlungsstr.","postalCode":"07955","locality":"Auma-Weidatal","municipality":{"key":"16076092","name":"Auma-Weidatal, Stadt","type":"Stadt"},"district":{"key":"16076","name":"Greiz","type":"Landkreis"},"federalState":{"key":"16","name":"Thüringen"}},{"name":"Staitzer Dorfstr.","postalCode":"07955","locality":"Auma-Weidatal","municipality":{"key":"16076092","name":"Auma-Weidatal, Stadt","type":"Stadt"},"district":{"key":"16076","name":"Greiz","type":"Landkreis"},"federalState":{"key":"16","name":"Thüringen"}},{"name":"Staitzer Lindenstr.","postalCode":"07955","locality":"Auma-Weidatal","municipality":{"key":"16076092","name":"Auma-Weidatal, Stadt","type":"Stadt"},"district":{"key":"16076","name":"Greiz","type":"Landkreis"},"federalState":{"key":"16","name":"Thüringen"}},{"name":"Staitzer Südstr.","postalCode":"07955","locality":"Auma-Weidatal","municipality":{"key":"16076092","name":"Auma-Weidatal, Stadt","type":"Stadt"},"district":{"key":"16076","name":"Greiz","type":"Landkreis"},"federalState":{"key":"16","name":"Thüringen"}},{"name":"Str. des Friedens","postalCode":"07955","locality":"Auma-Weidatal","municipality":{"key":"16076092","name":"Auma-Weidatal, Stadt","type":"Stadt"},"district":{"key":"16076","name":"Greiz","type":"Landkreis"},"federalState":{"key":"16","name":"Thüringen"}},{"name":"Südstr.","postalCode":"07955","locality":"Auma-Weidatal","municipality":{"key":"16076092","name":"Auma-Weidatal, Stadt","type":"Stadt"},"district":{"key":"16076","name":"Greiz","type":"Landkreis"},"federalState":{"key":"16","name":"Thüringen"}},{"name":"Talsperrenweg","postalCode":"07955","locality":"Auma-Weidatal","municipality":{"key":"16076092","name":"Auma-Weidatal, Stadt","type":"Stadt"},"district":{"key":"16076","name":"Greiz","type":"Landkreis"},"federalState":{"key":"16","name":"Thüringen"}},{"name":"Teichdamm","postalCode":"07955","locality":"Auma-Weidatal","municipality":{"key":"16076092","name":"Auma-Weidatal, Stadt","type":"Stadt"},"district":{"key":"16076","name":"Greiz","type":"Landkreis"},"federalState":{"key":"16","name":"Thüringen"}},{"name":"Tischendorf","postalCode":"07955","locality":"Auma-Weidatal","municipality":{"key":"16076092","name":"Auma-Weidatal, Stadt","type":"Stadt"},"district":{"key":"16076","name":"Greiz","type":"Landkreis"},"federalState":{"key":"16","name":"Thüringen"}},{"name":"Triptiser Str.","postalCode":"07955","locality":"Auma-Weidatal","municipality":{"key":"16076092","name":"Auma-Weidatal, Stadt","type":"Stadt"},"district":{"key":"16076","name":"Greiz","type":"Landkreis"},"federalState":{"key":"16","name":"Thüringen"}},{"name":"Untendorf","postalCode":"07955","locality":"Auma-Weidatal","municipality":{"key":"16076092","name":"Auma-Weidatal, Stadt","type":"Stadt"},"district":{"key":"16076","name":"Greiz","type":"Landkreis"},"federalState":{"key":"16","name":"Thüringen"}},{"name":"Untere Gasse","postalCode":"07955","locality":"Auma-Weidatal","municipality":{"key":"16076092","name":"Auma-Weidatal, Stadt","type":"Stadt"},"district":{"key":"16076","name":"Greiz","type":"Landkreis"},"federalState":{"key":"16","name":"Thüringen"}},{"name":"Unterer Graben","postalCode":"07955","locality":"Auma-Weidatal","municipality":{"key":"16076092","name":"Auma-Weidatal, Stadt","type":"Stadt"},"district":{"key":"16076","name":"Greiz","type":"Landkreis"},"federalState":{"key":"16","name":"Thüringen"}},{"name":"Vor dem Kreuztor","postalCode":"07955","locality":"Auma-Weidatal","municipality":{"key":"16076092","name":"Auma-Weidatal, Stadt","type":"Stadt"},"district":{"key":"16076","name":"Greiz","type":"Landkreis"},"federalState":{"key":"16","name":"Thüringen"}},{"name":"Waldstr.","postalCode":"07955","locality":"Auma-Weidatal","municipality":{"key":"16076092","name":"Auma-Weidatal, Stadt","type":"Stadt"},"district":{"key":"16076","name":"Greiz","type":"Landkreis"},"federalState":{"key":"16","name":"Thüringen"}},{"name":"Wendisches Dorf","postalCode":"07955","locality":"Auma-Weidatal","municipality":{"key":"16076092","name":"Auma-Weidatal, Stadt","type":"Stadt"},"district":{"key":"16076","name":"Greiz","type":"Landkreis"},"federalState":{"key":"16","name":"Thüringen"}},{"name":"Wenigenauma","postalCode":"07955","locality":"Auma-Weidatal","municipality":{"key":"16076092","name":"Auma-Weidatal, Stadt","type":"Stadt"},"district":{"key":"16076","name":"Greiz","type":"Landkreis"},"federalState":{"key":"16","name":"Thüringen"}},{"name":"Weststr.","postalCode":"07955","locality":"Auma-Weidatal","municipality":{"key":"16076092","name":"Auma-Weidatal, Stadt","type":"Stadt"},"district":{"key":"16076","name":"Greiz","type":"Landkreis"},"federalState":{"key":"16","name":"Thüringen"}},{"name":"Wiebelsdorf","postalCode":"07955","locality":"Auma-Weidatal","municipality":{"key":"16076092","name":"Auma-Weidatal, Stadt","type":"Stadt"},"district":{"key":"16076","name":"Greiz","type":"Landkreis"},"federalState":{"key":"16","name":"Thüringen"}},{"name":"Windmühlenstr.","postalCode":"07955","locality":"Auma-Weidatal","municipality":{"key":"16076092","name":"Auma-Weidatal, Stadt","type":"Stadt"},"district":{"key":"16076","name":"Greiz","type":"Landkreis"},"federalState":{"key":"16","name":"Thüringen"}},{"name":"Wöhlsdorf","postalCode":"07955","locality":"Auma-Weidatal","municipality":{"key":"16076092","name":"Auma-Weidatal, Stadt","type":"Stadt"},"district":{"key":"16076","name":"Greiz","type":"Landkreis"},"federalState":{"key":"16","name":"Thüringen"}},{"name":"Wöhlsdorfer Str.","postalCode":"07955","locality":"Auma-Weidatal","municipality":{"key":"16076092","name":"Auma-Weidatal, Stadt","type":"Stadt"},"district":{"key":"16076","name":"Greiz","type":"Landkreis"},"federalState":{"key":"16","name":"Thüringen"}},{"name":"Wüstenwetzdorfer Weg","postalCode":"07955","locality":"Auma-Weidatal","municipality":{"key":"16076092","name":"Auma-Weidatal, Stadt","type":"Stadt"},"district":{"key":"16076","name":"Greiz","type":"Landkreis"},"federalState":{"key":"16","name":"Thüringen"}},{"name":"Zeulenrodaer Str.","postalCode":"07955","locality":"Auma-Weidatal","municipality":{"key":"16076092","name":"Auma-Weidatal, Stadt","type":"Stadt"},"district":{"key":"16076","name":"Greiz","type":"Landkreis"},"federalState":{"key":"16","name":"Thüringen"}},{"name":"Zickra","postalCode":"07955","locality":"Auma-Weidatal","municipality":{"key":"16076092","name":"Auma-Weidatal, Stadt","type":"Stadt"},"district":{"key":"16076","name":"Greiz","type":"Landkreis"},"federalState":{"key":"16","name":"Thüringen"}},{"name":"Äußere Zeulenrodaer Str.","postalCode":"07973","locality":"Greiz","municipality":{"key":"16076022","name":"Greiz, Stadt","type":"Stadt"},"district":{"key":"16076","name":"Greiz","type":"Landkreis"},"federalState":{"key":"16","name":"Thüringen"}},]