[{"name":"Am Graben","postalCode":"55278","locality":"Uelversheim","municipality":{"key":"07339059","name":"Uelversheim","type":"Kreisangehörige_Gemeinde"},"district":{"key":"07339","name":"Mainz-Bingen","type":"Landkreis"},"federalState":{"key":"07","name":"Rheinland-Pfalz"}},{"name":"Am Jungfernborn","postalCode":"55278","locality":"Uelversheim","municipality":{"key":"07339059","name":"Uelversheim","type":"Kreisangehörige_Gemeinde"},"district":{"key":"07339","name":"Mainz-Bingen","type":"Landkreis"},"federalState":{"key":"07","name":"Rheinland-Pfalz"}},{"name":"Am Leitgraben","postalCode":"55278","locality":"Uelversheim","municipality":{"key":"07339059","name":"Uelversheim","type":"Kreisangehörige_Gemeinde"},"district":{"key":"07339","name":"Mainz-Bingen","type":"Landkreis"},"federalState":{"key":"07","name":"Rheinland-Pfalz"}},{"name":"Am Sasselbach","postalCode":"55278","locality":"Uelversheim","municipality":{"key":"07339059","name":"Uelversheim","type":"Kreisangehörige_Gemeinde"},"district":{"key":"07339","name":"Mainz-Bingen","type":"Landkreis"},"federalState":{"key":"07","name":"Rheinland-Pfalz"}},{"name":"Am Schmittrain","postalCode":"55278","locality":"Uelversheim","municipality":{"key":"07339059","name":"Uelversheim","type":"Kreisangehörige_Gemeinde"},"district":{"key":"07339","name":"Mainz-Bingen","type":"Landkreis"},"federalState":{"key":"07","name":"Rheinland-Pfalz"}},{"name":"Dienheimer Str.","postalCode":"55278","locality":"Uelversheim","municipality":{"key":"07339059","name":"Uelversheim","type":"Kreisangehörige_Gemeinde"},"district":{"key":"07339","name":"Mainz-Bingen","type":"Landkreis"},"federalState":{"key":"07","name":"Rheinland-Pfalz"}},{"name":"Dolgesheimer Str.","postalCode":"55278","locality":"Uelversheim","municipality":{"key":"07339059","name":"Uelversheim","type":"Kreisangehörige_Gemeinde"},"district":{"key":"07339","name":"Mainz-Bingen","type":"Landkreis"},"federalState":{"key":"07","name":"Rheinland-Pfalz"}},{"name":"Eimsheimer Str.","postalCode":"55278","locality":"Uelversheim","municipality":{"key":"07339059","name":"Uelversheim","type":"Kreisangehörige_Gemeinde"},"district":{"key":"07339","name":"Mainz-Bingen","type":"Landkreis"},"federalState":{"key":"07","name":"Rheinland-Pfalz"}},{"name":"Eisgasse","postalCode":"55278","locality":"Uelversheim","municipality":{"key":"07339059","name":"Uelversheim","type":"Kreisangehörige_Gemeinde"},"district":{"key":"07339","name":"Mainz-Bingen","type":"Landkreis"},"federalState":{"key":"07","name":"Rheinland-Pfalz"}},{"name":"Gärtnerweg","postalCode":"55278","locality":"Uelversheim","municipality":{"key":"07339059","name":"Uelversheim","type":"Kreisangehörige_Gemeinde"},"district":{"key":"07339","name":"Mainz-Bingen","type":"Landkreis"},"federalState":{"key":"07","name":"Rheinland-Pfalz"}},{"name":"Guntersblumer Str.","postalCode":"55278","locality":"Uelversheim","municipality":{"key":"07339059","name":"Uelversheim","type":"Kreisangehörige_Gemeinde"},"district":{"key":"07339","name":"Mainz-Bingen","type":"Landkreis"},"federalState":{"key":"07","name":"Rheinland-Pfalz"}},{"name":"Heerstr.","postalCode":"55278","locality":"Uelversheim","municipality":{"key":"07339059","name":"Uelversheim","type":"Kreisangehörige_Gemeinde"},"district":{"key":"07339","name":"Mainz-Bingen","type":"Landkreis"},"federalState":{"key":"07","name":"Rheinland-Pfalz"}},{"name":"Kellerweg","postalCode":"55278","locality":"Uelversheim","municipality":{"key":"07339059","name":"Uelversheim","type":"Kreisangehörige_Gemeinde"},"district":{"key":"07339","name":"Mainz-Bingen","type":"Landkreis"},"federalState":{"key":"07","name":"Rheinland-Pfalz"}},{"name":"Kirchstr.","postalCode":"55278","locality":"Uelversheim","municipality":{"key":"07339059","name":"Uelversheim","type":"Kreisangehörige_Gemeinde"},"district":{"key":"07339","name":"Mainz-Bingen","type":"Landkreis"},"federalState":{"key":"07","name":"Rheinland-Pfalz"}},{"name":"Kleine Kirchstr.","postalCode":"55278","locality":"Uelversheim","municipality":{"key":"07339059","name":"Uelversheim","type":"Kreisangehörige_Gemeinde"},"district":{"key":"07339","name":"Mainz-Bingen","type":"Landkreis"},"federalState":{"key":"07","name":"Rheinland-Pfalz"}},{"name":"Landswindastr.","postalCode":"55278","locality":"Uelversheim","municipality":{"key":"07339059","name":"Uelversheim","type":"Kreisangehörige_Gemeinde"},"district":{"key":"07339","name":"Mainz-Bingen","type":"Landkreis"},"federalState":{"key":"07","name":"Rheinland-Pfalz"}},{"name":"Leiningenstr.","postalCode":"55278","locality":"Uelversheim","municipality":{"key":"07339059","name":"Uelversheim","type":"Kreisangehörige_Gemeinde"},"district":{"key":"07339","name":"Mainz-Bingen","type":"Landkreis"},"federalState":{"key":"07","name":"Rheinland-Pfalz"}},{"name":"Obergasse","postalCode":"55278","locality":"Uelversheim","municipality":{"key":"07339059","name":"Uelversheim","type":"Kreisangehörige_Gemeinde"},"district":{"key":"07339","name":"Mainz-Bingen","type":"Landkreis"},"federalState":{"key":"07","name":"Rheinland-Pfalz"}},{"name":"Oppenheimer Weg","postalCode":"55278","locality":"Uelversheim","municipality":{"key":"07339059","name":"Uelversheim","type":"Kreisangehörige_Gemeinde"},"district":{"key":"07339","name":"Mainz-Bingen","type":"Landkreis"},"federalState":{"key":"07","name":"Rheinland-Pfalz"}},{"name":"Ostergasse","postalCode":"55278","locality":"Uelversheim","municipality":{"key":"07339059","name":"Uelversheim","type":"Kreisangehörige_Gemeinde"},"district":{"key":"07339","name":"Mainz-Bingen","type":"Landkreis"},"federalState":{"key":"07","name":"Rheinland-Pfalz"}},{"name":"Peterstr.","postalCode":"55278","locality":"Uelversheim","municipality":{"key":"07339059","name":"Uelversheim","type":"Kreisangehörige_Gemeinde"},"district":{"key":"07339","name":"Mainz-Bingen","type":"Landkreis"},"federalState":{"key":"07","name":"Rheinland-Pfalz"}},{"name":"Rathausplatz","postalCode":"55278","locality":"Uelversheim","municipality":{"key":"07339059","name":"Uelversheim","type":"Kreisangehörige_Gemeinde"},"district":{"key":"07339","name":"Mainz-Bingen","type":"Landkreis"},"federalState":{"key":"07","name":"Rheinland-Pfalz"}},{"name":"Römerstr.","postalCode":"55278","locality":"Uelversheim","municipality":{"key":"07339059","name":"Uelversheim","type":"Kreisangehörige_Gemeinde"},"district":{"key":"07339","name":"Mainz-Bingen","type":"Landkreis"},"federalState":{"key":"07","name":"Rheinland-Pfalz"}},{"name":"Rotbeerweg","postalCode":"55278","locality":"Uelversheim","municipality":{"key":"07339059","name":"Uelversheim","type":"Kreisangehörige_Gemeinde"},"district":{"key":"07339","name":"Mainz-Bingen","type":"Landkreis"},"federalState":{"key":"07","name":"Rheinland-Pfalz"}},{"name":"Schloßpforte","postalCode":"55278","locality":"Uelversheim","municipality":{"key":"07339059","name":"Uelversheim","type":"Kreisangehörige_Gemeinde"},"district":{"key":"07339","name":"Mainz-Bingen","type":"Landkreis"},"federalState":{"key":"07","name":"Rheinland-Pfalz"}},{"name":"Schulstr.","postalCode":"55278","locality":"Uelversheim","municipality":{"key":"07339059","name":"Uelversheim","type":"Kreisangehörige_Gemeinde"},"district":{"key":"07339","name":"Mainz-Bingen","type":"Landkreis"},"federalState":{"key":"07","name":"Rheinland-Pfalz"}},{"name":"St.-Martin-Str.","postalCode":"55278","locality":"Uelversheim","municipality":{"key":"07339059","name":"Uelversheim","type":"Kreisangehörige_Gemeinde"},"district":{"key":"07339","name":"Mainz-Bingen","type":"Landkreis"},"federalState":{"key":"07","name":"Rheinland-Pfalz"}},{"name":"St. Ritter","postalCode":"55278","locality":"Uelversheim","municipality":{"key":"07339059","name":"Uelversheim","type":"Kreisangehörige_Gemeinde"},"district":{"key":"07339","name":"Mainz-Bingen","type":"Landkreis"},"federalState":{"key":"07","name":"Rheinland-Pfalz"}},{"name":"Ulfridstr.","postalCode":"55278","locality":"Uelversheim","municipality":{"key":"07339059","name":"Uelversheim","type":"Kreisangehörige_Gemeinde"},"district":{"key":"07339","name":"Mainz-Bingen","type":"Landkreis"},"federalState":{"key":"07","name":"Rheinland-Pfalz"}},{"name":"Weinolsheimer Str.","postalCode":"55278","locality":"Uelversheim","municipality":{"key":"07339059","name":"Uelversheim","type":"Kreisangehörige_Gemeinde"},"district":{"key":"07339","name":"Mainz-Bingen","type":"Landkreis"},"federalState":{"key":"07","name":"Rheinland-Pfalz"}},{"name":"Zehntenstr.","postalCode":"55278","locality":"Uelversheim","municipality":{"key":"07339059","name":"Uelversheim","type":"Kreisangehörige_Gemeinde"},"district":{"key":"07339","name":"Mainz-Bingen","type":"Landkreis"},"federalState":{"key":"07","name":"Rheinland-Pfalz"}},]