[{"name":"Adalbert-Stifter-Weg","postalCode":"64347","locality":"Griesheim","municipality":{"key":"06432008","name":"Griesheim, Stadt","type":"Stadt"},"district":{"key":"06432","name":"Darmstadt-Dieburg","type":"Landkreis"},"federalState":{"key":"06","name":"Hessen"}},{"name":"Agilatrudstr.","postalCode":"64347","locality":"Griesheim","municipality":{"key":"06432008","name":"Griesheim, Stadt","type":"Stadt"},"district":{"key":"06432","name":"Darmstadt-Dieburg","type":"Landkreis"},"federalState":{"key":"06","name":"Hessen"}},{"name":"Ahornweg","postalCode":"64347","locality":"Griesheim","municipality":{"key":"06432008","name":"Griesheim, Stadt","type":"Stadt"},"district":{"key":"06432","name":"Darmstadt-Dieburg","type":"Landkreis"},"federalState":{"key":"06","name":"Hessen"}},{"name":"Am Alten Bahndamm","postalCode":"64347","locality":"Griesheim","municipality":{"key":"06432008","name":"Griesheim, Stadt","type":"Stadt"},"district":{"key":"06432","name":"Darmstadt-Dieburg","type":"Landkreis"},"federalState":{"key":"06","name":"Hessen"}},{"name":"Am Bahnhof","postalCode":"64347","locality":"Griesheim","municipality":{"key":"06432008","name":"Griesheim, Stadt","type":"Stadt"},"district":{"key":"06432","name":"Darmstadt-Dieburg","type":"Landkreis"},"federalState":{"key":"06","name":"Hessen"}},{"name":"Am Felsenkeller","postalCode":"64347","locality":"Griesheim","municipality":{"key":"06432008","name":"Griesheim, Stadt","type":"Stadt"},"district":{"key":"06432","name":"Darmstadt-Dieburg","type":"Landkreis"},"federalState":{"key":"06","name":"Hessen"}},{"name":"Am Flurgraben","postalCode":"64347","locality":"Griesheim","municipality":{"key":"06432008","name":"Griesheim, Stadt","type":"Stadt"},"district":{"key":"06432","name":"Darmstadt-Dieburg","type":"Landkreis"},"federalState":{"key":"06","name":"Hessen"}},{"name":"Am Hegelsberg","postalCode":"64347","locality":"Griesheim","municipality":{"key":"06432008","name":"Griesheim, Stadt","type":"Stadt"},"district":{"key":"06432","name":"Darmstadt-Dieburg","type":"Landkreis"},"federalState":{"key":"06","name":"Hessen"}},{"name":"Am Kiefernwäldchen","postalCode":"64347","locality":"Griesheim","municipality":{"key":"06432008","name":"Griesheim, Stadt","type":"Stadt"},"district":{"key":"06432","name":"Darmstadt-Dieburg","type":"Landkreis"},"federalState":{"key":"06","name":"Hessen"}},{"name":"Am Schwimmbad","postalCode":"64347","locality":"Griesheim","municipality":{"key":"06432008","name":"Griesheim, Stadt","type":"Stadt"},"district":{"key":"06432","name":"Darmstadt-Dieburg","type":"Landkreis"},"federalState":{"key":"06","name":"Hessen"}},{"name":"Am Sportfeld","postalCode":"64347","locality":"Griesheim","municipality":{"key":"06432008","name":"Griesheim, Stadt","type":"Stadt"},"district":{"key":"06432","name":"Darmstadt-Dieburg","type":"Landkreis"},"federalState":{"key":"06","name":"Hessen"}},{"name":"Am Storchennest","postalCode":"64347","locality":"Griesheim","municipality":{"key":"06432008","name":"Griesheim, Stadt","type":"Stadt"},"district":{"key":"06432","name":"Darmstadt-Dieburg","type":"Landkreis"},"federalState":{"key":"06","name":"Hessen"}},{"name":"An der Friedenslinde","postalCode":"64347","locality":"Griesheim","municipality":{"key":"06432008","name":"Griesheim, Stadt","type":"Stadt"},"district":{"key":"06432","name":"Darmstadt-Dieburg","type":"Landkreis"},"federalState":{"key":"06","name":"Hessen"}},{"name":"Annastr.","postalCode":"64347","locality":"Griesheim","municipality":{"key":"06432008","name":"Griesheim, Stadt","type":"Stadt"},"district":{"key":"06432","name":"Darmstadt-Dieburg","type":"Landkreis"},"federalState":{"key":"06","name":"Hessen"}},{"name":"Anne-Frank-Str.","postalCode":"64347","locality":"Griesheim","municipality":{"key":"06432008","name":"Griesheim, Stadt","type":"Stadt"},"district":{"key":"06432","name":"Darmstadt-Dieburg","type":"Landkreis"},"federalState":{"key":"06","name":"Hessen"}},{"name":"August-Bebel-Str.","postalCode":"64347","locality":"Griesheim","municipality":{"key":"06432008","name":"Griesheim, Stadt","type":"Stadt"},"district":{"key":"06432","name":"Darmstadt-Dieburg","type":"Landkreis"},"federalState":{"key":"06","name":"Hessen"}},{"name":"Außerhalb","postalCode":"64347","locality":"Griesheim","municipality":{"key":"06432008","name":"Griesheim, Stadt","type":"Stadt"},"district":{"key":"06432","name":"Darmstadt-Dieburg","type":"Landkreis"},"federalState":{"key":"06","name":"Hessen"}},{"name":"Bachstr.","postalCode":"64347","locality":"Griesheim","municipality":{"key":"06432008","name":"Griesheim, Stadt","type":"Stadt"},"district":{"key":"06432","name":"Darmstadt-Dieburg","type":"Landkreis"},"federalState":{"key":"06","name":"Hessen"}},{"name":"Backesgasse","postalCode":"64347","locality":"Griesheim","municipality":{"key":"06432008","name":"Griesheim, Stadt","type":"Stadt"},"district":{"key":"06432","name":"Darmstadt-Dieburg","type":"Landkreis"},"federalState":{"key":"06","name":"Hessen"}},{"name":"Bahnhofstr.","postalCode":"64347","locality":"Griesheim","municipality":{"key":"06432008","name":"Griesheim, Stadt","type":"Stadt"},"district":{"key":"06432","name":"Darmstadt-Dieburg","type":"Landkreis"},"federalState":{"key":"06","name":"Hessen"}},{"name":"Barbaraweg","postalCode":"64347","locality":"Griesheim","municipality":{"key":"06432008","name":"Griesheim, Stadt","type":"Stadt"},"district":{"key":"06432","name":"Darmstadt-Dieburg","type":"Landkreis"},"federalState":{"key":"06","name":"Hessen"}},{"name":"Beethovenstr.","postalCode":"64347","locality":"Griesheim","municipality":{"key":"06432008","name":"Griesheim, Stadt","type":"Stadt"},"district":{"key":"06432","name":"Darmstadt-Dieburg","type":"Landkreis"},"federalState":{"key":"06","name":"Hessen"}},{"name":"Berliner Str.","postalCode":"64347","locality":"Griesheim","municipality":{"key":"06432008","name":"Griesheim, Stadt","type":"Stadt"},"district":{"key":"06432","name":"Darmstadt-Dieburg","type":"Landkreis"},"federalState":{"key":"06","name":"Hessen"}},{"name":"Berta-von-Suttner-Str.","postalCode":"64347","locality":"Griesheim","municipality":{"key":"06432008","name":"Griesheim, Stadt","type":"Stadt"},"district":{"key":"06432","name":"Darmstadt-Dieburg","type":"Landkreis"},"federalState":{"key":"06","name":"Hessen"}},{"name":"Bessunger Str.","postalCode":"64347","locality":"Griesheim","municipality":{"key":"06432008","name":"Griesheim, Stadt","type":"Stadt"},"district":{"key":"06432","name":"Darmstadt-Dieburg","type":"Landkreis"},"federalState":{"key":"06","name":"Hessen"}},{"name":"Birkenweg","postalCode":"64347","locality":"Griesheim","municipality":{"key":"06432008","name":"Griesheim, Stadt","type":"Stadt"},"district":{"key":"06432","name":"Darmstadt-Dieburg","type":"Landkreis"},"federalState":{"key":"06","name":"Hessen"}},{"name":"Borngasse","postalCode":"64347","locality":"Griesheim","municipality":{"key":"06432008","name":"Griesheim, Stadt","type":"Stadt"},"district":{"key":"06432","name":"Darmstadt-Dieburg","type":"Landkreis"},"federalState":{"key":"06","name":"Hessen"}},{"name":"Boschstr.","postalCode":"64347","locality":"Griesheim","municipality":{"key":"06432008","name":"Griesheim, Stadt","type":"Stadt"},"district":{"key":"06432","name":"Darmstadt-Dieburg","type":"Landkreis"},"federalState":{"key":"06","name":"Hessen"}},{"name":"Brahmsstr.","postalCode":"64347","locality":"Griesheim","municipality":{"key":"06432008","name":"Griesheim, Stadt","type":"Stadt"},"district":{"key":"06432","name":"Darmstadt-Dieburg","type":"Landkreis"},"federalState":{"key":"06","name":"Hessen"}},{"name":"Brandschlagschneise","postalCode":"64347","locality":"Griesheim","municipality":{"key":"06432008","name":"Griesheim, Stadt","type":"Stadt"},"district":{"key":"06432","name":"Darmstadt-Dieburg","type":"Landkreis"},"federalState":{"key":"06","name":"Hessen"}},{"name":"Braunshardter Hausschneise","postalCode":"64347","locality":"Griesheim","municipality":{"key":"06432008","name":"Griesheim, Stadt","type":"Stadt"},"district":{"key":"06432","name":"Darmstadt-Dieburg","type":"Landkreis"},"federalState":{"key":"06","name":"Hessen"}},{"name":"Brückenschneise","postalCode":"64347","locality":"Griesheim","municipality":{"key":"06432008","name":"Griesheim, Stadt","type":"Stadt"},"district":{"key":"06432","name":"Darmstadt-Dieburg","type":"Landkreis"},"federalState":{"key":"06","name":"Hessen"}},{"name":"Brucknerstr.","postalCode":"64347","locality":"Griesheim","municipality":{"key":"06432008","name":"Griesheim, Stadt","type":"Stadt"},"district":{"key":"06432","name":"Darmstadt-Dieburg","type":"Landkreis"},"federalState":{"key":"06","name":"Hessen"}},{"name":"Brunnenschneise","postalCode":"64347","locality":"Griesheim","municipality":{"key":"06432008","name":"Griesheim, Stadt","type":"Stadt"},"district":{"key":"06432","name":"Darmstadt-Dieburg","type":"Landkreis"},"federalState":{"key":"06","name":"Hessen"}},{"name":"Bunsenstr.","postalCode":"64347","locality":"Griesheim","municipality":{"key":"06432008","name":"Griesheim, Stadt","type":"Stadt"},"district":{"key":"06432","name":"Darmstadt-Dieburg","type":"Landkreis"},"federalState":{"key":"06","name":"Hessen"}},{"name":"Bürgerpark","postalCode":"64347","locality":"Griesheim","municipality":{"key":"06432008","name":"Griesheim, Stadt","type":"Stadt"},"district":{"key":"06432","name":"Darmstadt-Dieburg","type":"Landkreis"},"federalState":{"key":"06","name":"Hessen"}},{"name":"Christian-Stock-Str.","postalCode":"64347","locality":"Griesheim","municipality":{"key":"06432008","name":"Griesheim, Stadt","type":"Stadt"},"district":{"key":"06432","name":"Darmstadt-Dieburg","type":"Landkreis"},"federalState":{"key":"06","name":"Hessen"}},{"name":"Dachsbauschneise","postalCode":"64347","locality":"Griesheim","municipality":{"key":"06432008","name":"Griesheim, Stadt","type":"Stadt"},"district":{"key":"06432","name":"Darmstadt-Dieburg","type":"Landkreis"},"federalState":{"key":"06","name":"Hessen"}},{"name":"Daimlerstr.","postalCode":"64347","locality":"Griesheim","municipality":{"key":"06432008","name":"Griesheim, Stadt","type":"Stadt"},"district":{"key":"06432","name":"Darmstadt-Dieburg","type":"Landkreis"},"federalState":{"key":"06","name":"Hessen"}},{"name":"Daniel-Müller-Str.","postalCode":"64347","locality":"Griesheim","municipality":{"key":"06432008","name":"Griesheim, Stadt","type":"Stadt"},"district":{"key":"06432","name":"Darmstadt-Dieburg","type":"Landkreis"},"federalState":{"key":"06","name":"Hessen"}},{"name":"Darmstädter Str.","postalCode":"64347","locality":"Griesheim","municipality":{"key":"06432008","name":"Griesheim, Stadt","type":"Stadt"},"district":{"key":"06432","name":"Darmstadt-Dieburg","type":"Landkreis"},"federalState":{"key":"06","name":"Hessen"}},{"name":"Dieselstr.","postalCode":"64347","locality":"Griesheim","municipality":{"key":"06432008","name":"Griesheim, Stadt","type":"Stadt"},"district":{"key":"06432","name":"Darmstadt-Dieburg","type":"Landkreis"},"federalState":{"key":"06","name":"Hessen"}},{"name":"Donaustr.","postalCode":"64347","locality":"Griesheim","municipality":{"key":"06432008","name":"Griesheim, Stadt","type":"Stadt"},"district":{"key":"06432","name":"Darmstadt-Dieburg","type":"Landkreis"},"federalState":{"key":"06","name":"Hessen"}},{"name":"Dornheimer Weg","postalCode":"64347","locality":"Griesheim","municipality":{"key":"06432008","name":"Griesheim, Stadt","type":"Stadt"},"district":{"key":"06432","name":"Darmstadt-Dieburg","type":"Landkreis"},"federalState":{"key":"06","name":"Hessen"}},{"name":"Draustr.","postalCode":"64347","locality":"Griesheim","municipality":{"key":"06432008","name":"Griesheim, Stadt","type":"Stadt"},"district":{"key":"06432","name":"Darmstadt-Dieburg","type":"Landkreis"},"federalState":{"key":"06","name":"Hessen"}},{"name":"Eichendorffstr.","postalCode":"64347","locality":"Griesheim","municipality":{"key":"06432008","name":"Griesheim, Stadt","type":"Stadt"},"district":{"key":"06432","name":"Darmstadt-Dieburg","type":"Landkreis"},"federalState":{"key":"06","name":"Hessen"}},{"name":"Elbestr.","postalCode":"64347","locality":"Griesheim","municipality":{"key":"06432008","name":"Griesheim, Stadt","type":"Stadt"},"district":{"key":"06432","name":"Darmstadt-Dieburg","type":"Landkreis"},"federalState":{"key":"06","name":"Hessen"}},{"name":"Elisabethenstr.","postalCode":"64347","locality":"Griesheim","municipality":{"key":"06432008","name":"Griesheim, Stadt","type":"Stadt"},"district":{"key":"06432","name":"Darmstadt-Dieburg","type":"Landkreis"},"federalState":{"key":"06","name":"Hessen"}},{"name":"Erich-Ollenhauer-Str.","postalCode":"64347","locality":"Griesheim","municipality":{"key":"06432008","name":"Griesheim, Stadt","type":"Stadt"},"district":{"key":"06432","name":"Darmstadt-Dieburg","type":"Landkreis"},"federalState":{"key":"06","name":"Hessen"}},{"name":"Eulerweg","postalCode":"64347","locality":"Griesheim","municipality":{"key":"06432008","name":"Griesheim, Stadt","type":"Stadt"},"district":{"key":"06432","name":"Darmstadt-Dieburg","type":"Landkreis"},"federalState":{"key":"06","name":"Hessen"}},{"name":"Feldmannstr.","postalCode":"64347","locality":"Griesheim","municipality":{"key":"06432008","name":"Griesheim, Stadt","type":"Stadt"},"district":{"key":"06432","name":"Darmstadt-Dieburg","type":"Landkreis"},"federalState":{"key":"06","name":"Hessen"}},{"name":"Feldstr.","postalCode":"64347","locality":"Griesheim","municipality":{"key":"06432008","name":"Griesheim, Stadt","type":"Stadt"},"district":{"key":"06432","name":"Darmstadt-Dieburg","type":"Landkreis"},"federalState":{"key":"06","name":"Hessen"}},{"name":"Fichtestr.","postalCode":"64347","locality":"Griesheim","municipality":{"key":"06432008","name":"Griesheim, Stadt","type":"Stadt"},"district":{"key":"06432","name":"Darmstadt-Dieburg","type":"Landkreis"},"federalState":{"key":"06","name":"Hessen"}},{"name":"Flecksweg","postalCode":"64347","locality":"Griesheim","municipality":{"key":"06432008","name":"Griesheim, Stadt","type":"Stadt"},"district":{"key":"06432","name":"Darmstadt-Dieburg","type":"Landkreis"},"federalState":{"key":"06","name":"Hessen"}},{"name":"Flughafenstr.","postalCode":"64347","locality":"Griesheim","municipality":{"key":"06432008","name":"Griesheim, Stadt","type":"Stadt"},"district":{"key":"06432","name":"Darmstadt-Dieburg","type":"Landkreis"},"federalState":{"key":"06","name":"Hessen"}},{"name":"Forsthausstr.","postalCode":"64347","locality":"Griesheim","municipality":{"key":"06432008","name":"Griesheim, Stadt","type":"Stadt"},"district":{"key":"06432","name":"Darmstadt-Dieburg","type":"Landkreis"},"federalState":{"key":"06","name":"Hessen"}},{"name":"Frankensteinweg","postalCode":"64347","locality":"Griesheim","municipality":{"key":"06432008","name":"Griesheim, Stadt","type":"Stadt"},"district":{"key":"06432","name":"Darmstadt-Dieburg","type":"Landkreis"},"federalState":{"key":"06","name":"Hessen"}},{"name":"Frankfurter Str.","postalCode":"64347","locality":"Griesheim","municipality":{"key":"06432008","name":"Griesheim, Stadt","type":"Stadt"},"district":{"key":"06432","name":"Darmstadt-Dieburg","type":"Landkreis"},"federalState":{"key":"06","name":"Hessen"}},{"name":"Franz-Liszt-Str.","postalCode":"64347","locality":"Griesheim","municipality":{"key":"06432008","name":"Griesheim, Stadt","type":"Stadt"},"district":{"key":"06432","name":"Darmstadt-Dieburg","type":"Landkreis"},"federalState":{"key":"06","name":"Hessen"}},{"name":"Freiligrathstr.","postalCode":"64347","locality":"Griesheim","municipality":{"key":"06432008","name":"Griesheim, Stadt","type":"Stadt"},"district":{"key":"06432","name":"Darmstadt-Dieburg","type":"Landkreis"},"federalState":{"key":"06","name":"Hessen"}},{"name":"Friedhofsweg","postalCode":"64347","locality":"Griesheim","municipality":{"key":"06432008","name":"Griesheim, Stadt","type":"Stadt"},"district":{"key":"06432","name":"Darmstadt-Dieburg","type":"Landkreis"},"federalState":{"key":"06","name":"Hessen"}},{"name":"Friedrich-Ebert-Str.","postalCode":"64347","locality":"Griesheim","municipality":{"key":"06432008","name":"Griesheim, Stadt","type":"Stadt"},"district":{"key":"06432","name":"Darmstadt-Dieburg","type":"Landkreis"},"federalState":{"key":"06","name":"Hessen"}},{"name":"Fuldastr.","postalCode":"64347","locality":"Griesheim","municipality":{"key":"06432008","name":"Griesheim, Stadt","type":"Stadt"},"district":{"key":"06432","name":"Darmstadt-Dieburg","type":"Landkreis"},"federalState":{"key":"06","name":"Hessen"}},{"name":"Gabelsberger Weg","postalCode":"64347","locality":"Griesheim","municipality":{"key":"06432008","name":"Griesheim, Stadt","type":"Stadt"},"district":{"key":"06432","name":"Darmstadt-Dieburg","type":"Landkreis"},"federalState":{"key":"06","name":"Hessen"}},{"name":"Gartenstr.","postalCode":"64347","locality":"Griesheim","municipality":{"key":"06432008","name":"Griesheim, Stadt","type":"Stadt"},"district":{"key":"06432","name":"Darmstadt-Dieburg","type":"Landkreis"},"federalState":{"key":"06","name":"Hessen"}},{"name":"Gehaborner Str.","postalCode":"64347","locality":"Griesheim","municipality":{"key":"06432008","name":"Griesheim, Stadt","type":"Stadt"},"district":{"key":"06432","name":"Darmstadt-Dieburg","type":"Landkreis"},"federalState":{"key":"06","name":"Hessen"}},{"name":"Gehaborner Weg","postalCode":"64347","locality":"Griesheim","municipality":{"key":"06432008","name":"Griesheim, Stadt","type":"Stadt"},"district":{"key":"06432","name":"Darmstadt-Dieburg","type":"Landkreis"},"federalState":{"key":"06","name":"Hessen"}},{"name":"Gellgasse","postalCode":"64347","locality":"Griesheim","municipality":{"key":"06432008","name":"Griesheim, Stadt","type":"Stadt"},"district":{"key":"06432","name":"Darmstadt-Dieburg","type":"Landkreis"},"federalState":{"key":"06","name":"Hessen"}},{"name":"Georg-Büchner-Str.","postalCode":"64347","locality":"Griesheim","municipality":{"key":"06432008","name":"Griesheim, Stadt","type":"Stadt"},"district":{"key":"06432","name":"Darmstadt-Dieburg","type":"Landkreis"},"federalState":{"key":"06","name":"Hessen"}},{"name":"Georg-Fröba-Str.","postalCode":"64347","locality":"Griesheim","municipality":{"key":"06432008","name":"Griesheim, Stadt","type":"Stadt"},"district":{"key":"06432","name":"Darmstadt-Dieburg","type":"Landkreis"},"federalState":{"key":"06","name":"Hessen"}},{"name":"Georg-Schüler-Platz","postalCode":"64347","locality":"Griesheim","municipality":{"key":"06432008","name":"Griesheim, Stadt","type":"Stadt"},"district":{"key":"06432","name":"Darmstadt-Dieburg","type":"Landkreis"},"federalState":{"key":"06","name":"Hessen"}},{"name":"Georgstr.","postalCode":"64347","locality":"Griesheim","municipality":{"key":"06432008","name":"Griesheim, Stadt","type":"Stadt"},"district":{"key":"06432","name":"Darmstadt-Dieburg","type":"Landkreis"},"federalState":{"key":"06","name":"Hessen"}},{"name":"Gerhart-Hauptmann-Str.","postalCode":"64347","locality":"Griesheim","municipality":{"key":"06432008","name":"Griesheim, Stadt","type":"Stadt"},"district":{"key":"06432","name":"Darmstadt-Dieburg","type":"Landkreis"},"federalState":{"key":"06","name":"Hessen"}},{"name":"Goethestr.","postalCode":"64347","locality":"Griesheim","municipality":{"key":"06432008","name":"Griesheim, Stadt","type":"Stadt"},"district":{"key":"06432","name":"Darmstadt-Dieburg","type":"Landkreis"},"federalState":{"key":"06","name":"Hessen"}},{"name":"Groenhoffstr.","postalCode":"64347","locality":"Griesheim","municipality":{"key":"06432008","name":"Griesheim, Stadt","type":"Stadt"},"district":{"key":"06432","name":"Darmstadt-Dieburg","type":"Landkreis"},"federalState":{"key":"06","name":"Hessen"}},{"name":"Groß-Gerauer-Str.","postalCode":"64347","locality":"Griesheim","municipality":{"key":"06432008","name":"Griesheim, Stadt","type":"Stadt"},"district":{"key":"06432","name":"Darmstadt-Dieburg","type":"Landkreis"},"federalState":{"key":"06","name":"Hessen"}},{"name":"Grünanlage des Neubaugebiets Nord","postalCode":"64347","locality":"Griesheim","municipality":{"key":"06432008","name":"Griesheim, Stadt","type":"Stadt"},"district":{"key":"06432","name":"Darmstadt-Dieburg","type":"Landkreis"},"federalState":{"key":"06","name":"Hessen"}},{"name":"Grüne Insel mit verschiedenen Spielobjekten für Kinder","postalCode":"64347","locality":"Griesheim","municipality":{"key":"06432008","name":"Griesheim, Stadt","type":"Stadt"},"district":{"key":"06432","name":"Darmstadt-Dieburg","type":"Landkreis"},"federalState":{"key":"06","name":"Hessen"}},{"name":"Grüner Weg","postalCode":"64347","locality":"Griesheim","municipality":{"key":"06432008","name":"Griesheim, Stadt","type":"Stadt"},"district":{"key":"06432","name":"Darmstadt-Dieburg","type":"Landkreis"},"federalState":{"key":"06","name":"Hessen"}},{"name":"Gustav-Heinemann-Str.","postalCode":"64347","locality":"Griesheim","municipality":{"key":"06432008","name":"Griesheim, Stadt","type":"Stadt"},"district":{"key":"06432","name":"Darmstadt-Dieburg","type":"Landkreis"},"federalState":{"key":"06","name":"Hessen"}},{"name":"Gutermuthstr.","postalCode":"64347","locality":"Griesheim","municipality":{"key":"06432008","name":"Griesheim, Stadt","type":"Stadt"},"district":{"key":"06432","name":"Darmstadt-Dieburg","type":"Landkreis"},"federalState":{"key":"06","name":"Hessen"}},{"name":"Guttenbrunnstr.","postalCode":"64347","locality":"Griesheim","municipality":{"key":"06432008","name":"Griesheim, Stadt","type":"Stadt"},"district":{"key":"06432","name":"Darmstadt-Dieburg","type":"Landkreis"},"federalState":{"key":"06","name":"Hessen"}},{"name":"Gyönker Str.","postalCode":"64347","locality":"Griesheim","municipality":{"key":"06432008","name":"Griesheim, Stadt","type":"Stadt"},"district":{"key":"06432","name":"Darmstadt-Dieburg","type":"Landkreis"},"federalState":{"key":"06","name":"Hessen"}},{"name":"Hahlgartenstr.","postalCode":"64347","locality":"Griesheim","municipality":{"key":"06432008","name":"Griesheim, Stadt","type":"Stadt"},"district":{"key":"06432","name":"Darmstadt-Dieburg","type":"Landkreis"},"federalState":{"key":"06","name":"Hessen"}},{"name":"Hans-Karl-Platz am Markt","postalCode":"64347","locality":"Griesheim","municipality":{"key":"06432008","name":"Griesheim, Stadt","type":"Stadt"},"district":{"key":"06432","name":"Darmstadt-Dieburg","type":"Landkreis"},"federalState":{"key":"06","name":"Hessen"}},{"name":"Hasenschneise","postalCode":"64347","locality":"Griesheim","municipality":{"key":"06432008","name":"Griesheim, Stadt","type":"Stadt"},"district":{"key":"06432","name":"Darmstadt-Dieburg","type":"Landkreis"},"federalState":{"key":"06","name":"Hessen"}},{"name":"Hausweg","postalCode":"64347","locality":"Griesheim","municipality":{"key":"06432008","name":"Griesheim, Stadt","type":"Stadt"},"district":{"key":"06432","name":"Darmstadt-Dieburg","type":"Landkreis"},"federalState":{"key":"06","name":"Hessen"}},{"name":"Haydnstr.","postalCode":"64347","locality":"Griesheim","municipality":{"key":"06432008","name":"Griesheim, Stadt","type":"Stadt"},"district":{"key":"06432","name":"Darmstadt-Dieburg","type":"Landkreis"},"federalState":{"key":"06","name":"Hessen"}},{"name":"Heinrich-Heine-Str.","postalCode":"64347","locality":"Griesheim","municipality":{"key":"06432008","name":"Griesheim, Stadt","type":"Stadt"},"district":{"key":"06432","name":"Darmstadt-Dieburg","type":"Landkreis"},"federalState":{"key":"06","name":"Hessen"}},{"name":"Heinrich-Moter-Str.","postalCode":"64347","locality":"Griesheim","municipality":{"key":"06432008","name":"Griesheim, Stadt","type":"Stadt"},"district":{"key":"06432","name":"Darmstadt-Dieburg","type":"Landkreis"},"federalState":{"key":"06","name":"Hessen"}},{"name":"Heinrichstr.","postalCode":"64347","locality":"Griesheim","municipality":{"key":"06432008","name":"Griesheim, Stadt","type":"Stadt"},"district":{"key":"06432","name":"Darmstadt-Dieburg","type":"Landkreis"},"federalState":{"key":"06","name":"Hessen"}},{"name":"Herweghstr.","postalCode":"64347","locality":"Griesheim","municipality":{"key":"06432008","name":"Griesheim, Stadt","type":"Stadt"},"district":{"key":"06432","name":"Darmstadt-Dieburg","type":"Landkreis"},"federalState":{"key":"06","name":"Hessen"}},{"name":"Hinter den Haigern","postalCode":"64347","locality":"Griesheim","municipality":{"key":"06432008","name":"Griesheim, Stadt","type":"Stadt"},"district":{"key":"06432","name":"Darmstadt-Dieburg","type":"Landkreis"},"federalState":{"key":"06","name":"Hessen"}},{"name":"Hintergasse","postalCode":"64347","locality":"Griesheim","municipality":{"key":"06432008","name":"Griesheim, Stadt","type":"Stadt"},"district":{"key":"06432","name":"Darmstadt-Dieburg","type":"Landkreis"},"federalState":{"key":"06","name":"Hessen"}},{"name":"Hofmannstr.","postalCode":"64347","locality":"Griesheim","municipality":{"key":"06432008","name":"Griesheim, Stadt","type":"Stadt"},"district":{"key":"06432","name":"Darmstadt-Dieburg","type":"Landkreis"},"federalState":{"key":"06","name":"Hessen"}},{"name":"Im Dürren Kopf","postalCode":"64347","locality":"Griesheim","municipality":{"key":"06432008","name":"Griesheim, Stadt","type":"Stadt"},"district":{"key":"06432","name":"Darmstadt-Dieburg","type":"Landkreis"},"federalState":{"key":"06","name":"Hessen"}},{"name":"Im Rosengarten","postalCode":"64347","locality":"Griesheim","municipality":{"key":"06432008","name":"Griesheim, Stadt","type":"Stadt"},"district":{"key":"06432","name":"Darmstadt-Dieburg","type":"Landkreis"},"federalState":{"key":"06","name":"Hessen"}},{"name":"Im Weingarten","postalCode":"64347","locality":"Griesheim","municipality":{"key":"06432008","name":"Griesheim, Stadt","type":"Stadt"},"district":{"key":"06432","name":"Darmstadt-Dieburg","type":"Landkreis"},"federalState":{"key":"06","name":"Hessen"}},{"name":"Im Wiesengarten","postalCode":"64347","locality":"Griesheim","municipality":{"key":"06432008","name":"Griesheim, Stadt","type":"Stadt"},"district":{"key":"06432","name":"Darmstadt-Dieburg","type":"Landkreis"},"federalState":{"key":"06","name":"Hessen"}},{"name":"In der Leimkaute","postalCode":"64347","locality":"Griesheim","municipality":{"key":"06432008","name":"Griesheim, Stadt","type":"Stadt"},"district":{"key":"06432","name":"Darmstadt-Dieburg","type":"Landkreis"},"federalState":{"key":"06","name":"Hessen"}},{"name":"Isarstr.","postalCode":"64347","locality":"Griesheim","municipality":{"key":"06432008","name":"Griesheim, Stadt","type":"Stadt"},"district":{"key":"06432","name":"Darmstadt-Dieburg","type":"Landkreis"},"federalState":{"key":"06","name":"Hessen"}},{"name":"Jahnstr.","postalCode":"64347","locality":"Griesheim","municipality":{"key":"06432008","name":"Griesheim, Stadt","type":"Stadt"},"district":{"key":"06432","name":"Darmstadt-Dieburg","type":"Landkreis"},"federalState":{"key":"06","name":"Hessen"}},{"name":"Kantstr.","postalCode":"64347","locality":"Griesheim","municipality":{"key":"06432008","name":"Griesheim, Stadt","type":"Stadt"},"district":{"key":"06432","name":"Darmstadt-Dieburg","type":"Landkreis"},"federalState":{"key":"06","name":"Hessen"}},{"name":"Karl-Liebknecht-Str.","postalCode":"64347","locality":"Griesheim","municipality":{"key":"06432008","name":"Griesheim, Stadt","type":"Stadt"},"district":{"key":"06432","name":"Darmstadt-Dieburg","type":"Landkreis"},"federalState":{"key":"06","name":"Hessen"}},{"name":"Karlstr.","postalCode":"64347","locality":"Griesheim","municipality":{"key":"06432008","name":"Griesheim, Stadt","type":"Stadt"},"district":{"key":"06432","name":"Darmstadt-Dieburg","type":"Landkreis"},"federalState":{"key":"06","name":"Hessen"}},{"name":"Katharinenstr.","postalCode":"64347","locality":"Griesheim","municipality":{"key":"06432008","name":"Griesheim, Stadt","type":"Stadt"},"district":{"key":"06432","name":"Darmstadt-Dieburg","type":"Landkreis"},"federalState":{"key":"06","name":"Hessen"}},{"name":"Käthe-Kollwitz-Str.","postalCode":"64347","locality":"Griesheim","municipality":{"key":"06432008","name":"Griesheim, Stadt","type":"Stadt"},"district":{"key":"06432","name":"Darmstadt-Dieburg","type":"Landkreis"},"federalState":{"key":"06","name":"Hessen"}},{"name":"Kinzigweg","postalCode":"64347","locality":"Griesheim","municipality":{"key":"06432008","name":"Griesheim, Stadt","type":"Stadt"},"district":{"key":"06432","name":"Darmstadt-Dieburg","type":"Landkreis"},"federalState":{"key":"06","name":"Hessen"}},{"name":"Kirchgasse","postalCode":"64347","locality":"Griesheim","municipality":{"key":"06432008","name":"Griesheim, Stadt","type":"Stadt"},"district":{"key":"06432","name":"Darmstadt-Dieburg","type":"Landkreis"},"federalState":{"key":"06","name":"Hessen"}},{"name":"Kirschberg","postalCode":"64347","locality":"Griesheim","municipality":{"key":"06432008","name":"Griesheim, Stadt","type":"Stadt"},"district":{"key":"06432","name":"Darmstadt-Dieburg","type":"Landkreis"},"federalState":{"key":"06","name":"Hessen"}},{"name":"Kirschbergschneise","postalCode":"64347","locality":"Griesheim","municipality":{"key":"06432008","name":"Griesheim, Stadt","type":"Stadt"},"district":{"key":"06432","name":"Darmstadt-Dieburg","type":"Landkreis"},"federalState":{"key":"06","name":"Hessen"}},{"name":"Konrad-Adenauer-Str.","postalCode":"64347","locality":"Griesheim","municipality":{"key":"06432008","name":"Griesheim, Stadt","type":"Stadt"},"district":{"key":"06432","name":"Darmstadt-Dieburg","type":"Landkreis"},"federalState":{"key":"06","name":"Hessen"}},{"name":"Kosakenbrücke","postalCode":"64347","locality":"Griesheim","municipality":{"key":"06432008","name":"Griesheim, Stadt","type":"Stadt"},"district":{"key":"06432","name":"Darmstadt-Dieburg","type":"Landkreis"},"federalState":{"key":"06","name":"Hessen"}},{"name":"Kreuzgasse","postalCode":"64347","locality":"Griesheim","municipality":{"key":"06432008","name":"Griesheim, Stadt","type":"Stadt"},"district":{"key":"06432","name":"Darmstadt-Dieburg","type":"Landkreis"},"federalState":{"key":"06","name":"Hessen"}},{"name":"Kreuzweg","postalCode":"64347","locality":"Griesheim","municipality":{"key":"06432008","name":"Griesheim, Stadt","type":"Stadt"},"district":{"key":"06432","name":"Darmstadt-Dieburg","type":"Landkreis"},"federalState":{"key":"06","name":"Hessen"}},{"name":"Krohbergschneise","postalCode":"64347","locality":"Griesheim","municipality":{"key":"06432008","name":"Griesheim, Stadt","type":"Stadt"},"district":{"key":"06432","name":"Darmstadt-Dieburg","type":"Landkreis"},"federalState":{"key":"06","name":"Hessen"}},{"name":"Küchenmeisterschneise","postalCode":"64347","locality":"Griesheim","municipality":{"key":"06432008","name":"Griesheim, Stadt","type":"Stadt"},"district":{"key":"06432","name":"Darmstadt-Dieburg","type":"Landkreis"},"federalState":{"key":"06","name":"Hessen"}},{"name":"Lachenauerweg","postalCode":"64347","locality":"Griesheim","municipality":{"key":"06432008","name":"Griesheim, Stadt","type":"Stadt"},"district":{"key":"06432","name":"Darmstadt-Dieburg","type":"Landkreis"},"federalState":{"key":"06","name":"Hessen"}},{"name":"Lahnstr.","postalCode":"64347","locality":"Griesheim","municipality":{"key":"06432008","name":"Griesheim, Stadt","type":"Stadt"},"district":{"key":"06432","name":"Darmstadt-Dieburg","type":"Landkreis"},"federalState":{"key":"06","name":"Hessen"}},{"name":"Langgässerweg","postalCode":"64347","locality":"Griesheim","municipality":{"key":"06432008","name":"Griesheim, Stadt","type":"Stadt"},"district":{"key":"06432","name":"Darmstadt-Dieburg","type":"Landkreis"},"federalState":{"key":"06","name":"Hessen"}},{"name":"Lichtenbergweg","postalCode":"64347","locality":"Griesheim","municipality":{"key":"06432008","name":"Griesheim, Stadt","type":"Stadt"},"district":{"key":"06432","name":"Darmstadt-Dieburg","type":"Landkreis"},"federalState":{"key":"06","name":"Hessen"}},{"name":"Lilienthalstr.","postalCode":"64347","locality":"Griesheim","municipality":{"key":"06432008","name":"Griesheim, Stadt","type":"Stadt"},"district":{"key":"06432","name":"Darmstadt-Dieburg","type":"Landkreis"},"federalState":{"key":"06","name":"Hessen"}},{"name":"Lindenstr.","postalCode":"64347","locality":"Griesheim","municipality":{"key":"06432008","name":"Griesheim, Stadt","type":"Stadt"},"district":{"key":"06432","name":"Darmstadt-Dieburg","type":"Landkreis"},"federalState":{"key":"06","name":"Hessen"}},{"name":"Lisa-Tetzner-Str.","postalCode":"64347","locality":"Griesheim","municipality":{"key":"06432008","name":"Griesheim, Stadt","type":"Stadt"},"district":{"key":"06432","name":"Darmstadt-Dieburg","type":"Landkreis"},"federalState":{"key":"06","name":"Hessen"}},{"name":"Löffelgasse","postalCode":"64347","locality":"Griesheim","municipality":{"key":"06432008","name":"Griesheim, Stadt","type":"Stadt"},"district":{"key":"06432","name":"Darmstadt-Dieburg","type":"Landkreis"},"federalState":{"key":"06","name":"Hessen"}},{"name":"Luisenstr.","postalCode":"64347","locality":"Griesheim","municipality":{"key":"06432008","name":"Griesheim, Stadt","type":"Stadt"},"district":{"key":"06432","name":"Darmstadt-Dieburg","type":"Landkreis"},"federalState":{"key":"06","name":"Hessen"}},{"name":"Magdalenenstr.","postalCode":"64347","locality":"Griesheim","municipality":{"key":"06432008","name":"Griesheim, Stadt","type":"Stadt"},"district":{"key":"06432","name":"Darmstadt-Dieburg","type":"Landkreis"},"federalState":{"key":"06","name":"Hessen"}},{"name":"Mainstr.","postalCode":"64347","locality":"Griesheim","municipality":{"key":"06432008","name":"Griesheim, Stadt","type":"Stadt"},"district":{"key":"06432","name":"Darmstadt-Dieburg","type":"Landkreis"},"federalState":{"key":"06","name":"Hessen"}},{"name":"Margaretenstr.","postalCode":"64347","locality":"Griesheim","municipality":{"key":"06432008","name":"Griesheim, Stadt","type":"Stadt"},"district":{"key":"06432","name":"Darmstadt-Dieburg","type":"Landkreis"},"federalState":{"key":"06","name":"Hessen"}},{"name":"Maria-Theresia-Str.","postalCode":"64347","locality":"Griesheim","municipality":{"key":"06432008","name":"Griesheim, Stadt","type":"Stadt"},"district":{"key":"06432","name":"Darmstadt-Dieburg","type":"Landkreis"},"federalState":{"key":"06","name":"Hessen"}},{"name":"Marie-Curie-Str.","postalCode":"64347","locality":"Griesheim","municipality":{"key":"06432008","name":"Griesheim, Stadt","type":"Stadt"},"district":{"key":"06432","name":"Darmstadt-Dieburg","type":"Landkreis"},"federalState":{"key":"06","name":"Hessen"}},{"name":"Marienstr.","postalCode":"64347","locality":"Griesheim","municipality":{"key":"06432008","name":"Griesheim, Stadt","type":"Stadt"},"district":{"key":"06432","name":"Darmstadt-Dieburg","type":"Landkreis"},"federalState":{"key":"06","name":"Hessen"}},{"name":"Martin-Luther-Str.","postalCode":"64347","locality":"Griesheim","municipality":{"key":"06432008","name":"Griesheim, Stadt","type":"Stadt"},"district":{"key":"06432","name":"Darmstadt-Dieburg","type":"Landkreis"},"federalState":{"key":"06","name":"Hessen"}},{"name":"Mathildenstr.","postalCode":"64347","locality":"Griesheim","municipality":{"key":"06432008","name":"Griesheim, Stadt","type":"Stadt"},"district":{"key":"06432","name":"Darmstadt-Dieburg","type":"Landkreis"},"federalState":{"key":"06","name":"Hessen"}},{"name":"Melibokusweg","postalCode":"64347","locality":"Griesheim","municipality":{"key":"06432008","name":"Griesheim, Stadt","type":"Stadt"},"district":{"key":"06432","name":"Darmstadt-Dieburg","type":"Landkreis"},"federalState":{"key":"06","name":"Hessen"}},{"name":"Mercystr.","postalCode":"64347","locality":"Griesheim","municipality":{"key":"06432008","name":"Griesheim, Stadt","type":"Stadt"},"district":{"key":"06432","name":"Darmstadt-Dieburg","type":"Landkreis"},"federalState":{"key":"06","name":"Hessen"}},{"name":"Mittelweg","postalCode":"64347","locality":"Griesheim","municipality":{"key":"06432008","name":"Griesheim, Stadt","type":"Stadt"},"district":{"key":"06432","name":"Darmstadt-Dieburg","type":"Landkreis"},"federalState":{"key":"06","name":"Hessen"}},{"name":"Moselstr.","postalCode":"64347","locality":"Griesheim","municipality":{"key":"06432008","name":"Griesheim, Stadt","type":"Stadt"},"district":{"key":"06432","name":"Darmstadt-Dieburg","type":"Landkreis"},"federalState":{"key":"06","name":"Hessen"}},{"name":"Mozartstr.","postalCode":"64347","locality":"Griesheim","municipality":{"key":"06432008","name":"Griesheim, Stadt","type":"Stadt"},"district":{"key":"06432","name":"Darmstadt-Dieburg","type":"Landkreis"},"federalState":{"key":"06","name":"Hessen"}},{"name":"Mühlenweg","postalCode":"64347","locality":"Griesheim","municipality":{"key":"06432008","name":"Griesheim, Stadt","type":"Stadt"},"district":{"key":"06432","name":"Darmstadt-Dieburg","type":"Landkreis"},"federalState":{"key":"06","name":"Hessen"}},{"name":"Murstr.","postalCode":"64347","locality":"Griesheim","municipality":{"key":"06432008","name":"Griesheim, Stadt","type":"Stadt"},"district":{"key":"06432","name":"Darmstadt-Dieburg","type":"Landkreis"},"federalState":{"key":"06","name":"Hessen"}},{"name":"Nahestr.","postalCode":"64347","locality":"Griesheim","municipality":{"key":"06432008","name":"Griesheim, Stadt","type":"Stadt"},"district":{"key":"06432","name":"Darmstadt-Dieburg","type":"Landkreis"},"federalState":{"key":"06","name":"Hessen"}},{"name":"Neckarstr.","postalCode":"64347","locality":"Griesheim","municipality":{"key":"06432008","name":"Griesheim, Stadt","type":"Stadt"},"district":{"key":"06432","name":"Darmstadt-Dieburg","type":"Landkreis"},"federalState":{"key":"06","name":"Hessen"}},{"name":"Nehringstr.","postalCode":"64347","locality":"Griesheim","municipality":{"key":"06432008","name":"Griesheim, Stadt","type":"Stadt"},"district":{"key":"06432","name":"Darmstadt-Dieburg","type":"Landkreis"},"federalState":{"key":"06","name":"Hessen"}},{"name":"Nelly-Sachs-Str.","postalCode":"64347","locality":"Griesheim","municipality":{"key":"06432008","name":"Griesheim, Stadt","type":"Stadt"},"district":{"key":"06432","name":"Darmstadt-Dieburg","type":"Landkreis"},"federalState":{"key":"06","name":"Hessen"}},{"name":"Neugasse","postalCode":"64347","locality":"Griesheim","municipality":{"key":"06432008","name":"Griesheim, Stadt","type":"Stadt"},"district":{"key":"06432","name":"Darmstadt-Dieburg","type":"Landkreis"},"federalState":{"key":"06","name":"Hessen"}},{"name":"Nordend","postalCode":"64347","locality":"Griesheim","municipality":{"key":"06432008","name":"Griesheim, Stadt","type":"Stadt"},"district":{"key":"06432","name":"Darmstadt-Dieburg","type":"Landkreis"},"federalState":{"key":"06","name":"Hessen"}},{"name":"Nordring","postalCode":"64347","locality":"Griesheim","municipality":{"key":"06432008","name":"Griesheim, Stadt","type":"Stadt"},"district":{"key":"06432","name":"Darmstadt-Dieburg","type":"Landkreis"},"federalState":{"key":"06","name":"Hessen"}},{"name":"Nordringanschluss","postalCode":"64347","locality":"Griesheim","municipality":{"key":"06432008","name":"Griesheim, Stadt","type":"Stadt"},"district":{"key":"06432","name":"Darmstadt-Dieburg","type":"Landkreis"},"federalState":{"key":"06","name":"Hessen"}},{"name":"Oberndorferstr.","postalCode":"64347","locality":"Griesheim","municipality":{"key":"06432008","name":"Griesheim, Stadt","type":"Stadt"},"district":{"key":"06432","name":"Darmstadt-Dieburg","type":"Landkreis"},"federalState":{"key":"06","name":"Hessen"}},{"name":"Oberndorfer Str.","postalCode":"64347","locality":"Griesheim","municipality":{"key":"06432008","name":"Griesheim, Stadt","type":"Stadt"},"district":{"key":"06432","name":"Darmstadt-Dieburg","type":"Landkreis"},"federalState":{"key":"06","name":"Hessen"}},{"name":"Odenwaldstr.","postalCode":"64347","locality":"Griesheim","municipality":{"key":"06432008","name":"Griesheim, Stadt","type":"Stadt"},"district":{"key":"06432","name":"Darmstadt-Dieburg","type":"Landkreis"},"federalState":{"key":"06","name":"Hessen"}},{"name":"Oderstr.","postalCode":"64347","locality":"Griesheim","municipality":{"key":"06432008","name":"Griesheim, Stadt","type":"Stadt"},"district":{"key":"06432","name":"Darmstadt-Dieburg","type":"Landkreis"},"federalState":{"key":"06","name":"Hessen"}},{"name":"Ostend","postalCode":"64347","locality":"Griesheim","municipality":{"key":"06432008","name":"Griesheim, Stadt","type":"Stadt"},"district":{"key":"06432","name":"Darmstadt-Dieburg","type":"Landkreis"},"federalState":{"key":"06","name":"Hessen"}},{"name":"Ottostr.","postalCode":"64347","locality":"Griesheim","municipality":{"key":"06432008","name":"Griesheim, Stadt","type":"Stadt"},"district":{"key":"06432","name":"Darmstadt-Dieburg","type":"Landkreis"},"federalState":{"key":"06","name":"Hessen"}},{"name":"Otto-Wels-Weg","postalCode":"64347","locality":"Griesheim","municipality":{"key":"06432008","name":"Griesheim, Stadt","type":"Stadt"},"district":{"key":"06432","name":"Darmstadt-Dieburg","type":"Landkreis"},"federalState":{"key":"06","name":"Hessen"}},{"name":"Pariser Gasse","postalCode":"64347","locality":"Griesheim","municipality":{"key":"06432008","name":"Griesheim, Stadt","type":"Stadt"},"district":{"key":"06432","name":"Darmstadt-Dieburg","type":"Landkreis"},"federalState":{"key":"06","name":"Hessen"}},{"name":"Parsevalstr.","postalCode":"64347","locality":"Griesheim","municipality":{"key":"06432008","name":"Griesheim, Stadt","type":"Stadt"},"district":{"key":"06432","name":"Darmstadt-Dieburg","type":"Landkreis"},"federalState":{"key":"06","name":"Hessen"}},{"name":"Petersgasse","postalCode":"64347","locality":"Griesheim","municipality":{"key":"06432008","name":"Griesheim, Stadt","type":"Stadt"},"district":{"key":"06432","name":"Darmstadt-Dieburg","type":"Landkreis"},"federalState":{"key":"06","name":"Hessen"}},{"name":"Pfarrgasse","postalCode":"64347","locality":"Griesheim","municipality":{"key":"06432008","name":"Griesheim, Stadt","type":"Stadt"},"district":{"key":"06432","name":"Darmstadt-Dieburg","type":"Landkreis"},"federalState":{"key":"06","name":"Hessen"}},{"name":"Pferchweg","postalCode":"64347","locality":"Griesheim","municipality":{"key":"06432008","name":"Griesheim, Stadt","type":"Stadt"},"district":{"key":"06432","name":"Darmstadt-Dieburg","type":"Landkreis"},"federalState":{"key":"06","name":"Hessen"}},{"name":"Pfungstädter Str.","postalCode":"64347","locality":"Griesheim","municipality":{"key":"06432008","name":"Griesheim, Stadt","type":"Stadt"},"district":{"key":"06432","name":"Darmstadt-Dieburg","type":"Landkreis"},"federalState":{"key":"06","name":"Hessen"}},{"name":"Pfungstädter Weg","postalCode":"64347","locality":"Griesheim","municipality":{"key":"06432008","name":"Griesheim, Stadt","type":"Stadt"},"district":{"key":"06432","name":"Darmstadt-Dieburg","type":"Landkreis"},"federalState":{"key":"06","name":"Hessen"}},{"name":"Pfützengäßchen","postalCode":"64347","locality":"Griesheim","municipality":{"key":"06432008","name":"Griesheim, Stadt","type":"Stadt"},"district":{"key":"06432","name":"Darmstadt-Dieburg","type":"Landkreis"},"federalState":{"key":"06","name":"Hessen"}},{"name":"Pfützenstr.","postalCode":"64347","locality":"Griesheim","municipality":{"key":"06432008","name":"Griesheim, Stadt","type":"Stadt"},"district":{"key":"06432","name":"Darmstadt-Dieburg","type":"Landkreis"},"federalState":{"key":"06","name":"Hessen"}},{"name":"Platanenweg","postalCode":"64347","locality":"Griesheim","municipality":{"key":"06432008","name":"Griesheim, Stadt","type":"Stadt"},"district":{"key":"06432","name":"Darmstadt-Dieburg","type":"Landkreis"},"federalState":{"key":"06","name":"Hessen"}},{"name":"Prinz-Eugen-Str.","postalCode":"64347","locality":"Griesheim","municipality":{"key":"06432008","name":"Griesheim, Stadt","type":"Stadt"},"district":{"key":"06432","name":"Darmstadt-Dieburg","type":"Landkreis"},"federalState":{"key":"06","name":"Hessen"}},{"name":"Raiffeisenstr.","postalCode":"64347","locality":"Griesheim","municipality":{"key":"06432008","name":"Griesheim, Stadt","type":"Stadt"},"district":{"key":"06432","name":"Darmstadt-Dieburg","type":"Landkreis"},"federalState":{"key":"06","name":"Hessen"}},{"name":"Rebstockweg","postalCode":"64347","locality":"Griesheim","municipality":{"key":"06432008","name":"Griesheim, Stadt","type":"Stadt"},"district":{"key":"06432","name":"Darmstadt-Dieburg","type":"Landkreis"},"federalState":{"key":"06","name":"Hessen"}},{"name":"Rheinstr.","postalCode":"64347","locality":"Griesheim","municipality":{"key":"06432008","name":"Griesheim, Stadt","type":"Stadt"},"district":{"key":"06432","name":"Darmstadt-Dieburg","type":"Landkreis"},"federalState":{"key":"06","name":"Hessen"}},{"name":"Ricarda-Huch-Str.","postalCode":"64347","locality":"Griesheim","municipality":{"key":"06432008","name":"Griesheim, Stadt","type":"Stadt"},"district":{"key":"06432","name":"Darmstadt-Dieburg","type":"Landkreis"},"federalState":{"key":"06","name":"Hessen"}},{"name":"Rübgrund","postalCode":"64347","locality":"Griesheim","municipality":{"key":"06432008","name":"Griesheim, Stadt","type":"Stadt"},"district":{"key":"06432","name":"Darmstadt-Dieburg","type":"Landkreis"},"federalState":{"key":"06","name":"Hessen"}},{"name":"Rückgasse","postalCode":"64347","locality":"Griesheim","municipality":{"key":"06432008","name":"Griesheim, Stadt","type":"Stadt"},"district":{"key":"06432","name":"Darmstadt-Dieburg","type":"Landkreis"},"federalState":{"key":"06","name":"Hessen"}},{"name":"Saalestr.","postalCode":"64347","locality":"Griesheim","municipality":{"key":"06432008","name":"Griesheim, Stadt","type":"Stadt"},"district":{"key":"06432","name":"Darmstadt-Dieburg","type":"Landkreis"},"federalState":{"key":"06","name":"Hessen"}},{"name":"Saarstr.","postalCode":"64347","locality":"Griesheim","municipality":{"key":"06432008","name":"Griesheim, Stadt","type":"Stadt"},"district":{"key":"06432","name":"Darmstadt-Dieburg","type":"Landkreis"},"federalState":{"key":"06","name":"Hessen"}},{"name":"Salzack-Schneise","postalCode":"64347","locality":"Griesheim","municipality":{"key":"06432008","name":"Griesheim, Stadt","type":"Stadt"},"district":{"key":"06432","name":"Darmstadt-Dieburg","type":"Landkreis"},"federalState":{"key":"06","name":"Hessen"}},{"name":"Sandgasse","postalCode":"64347","locality":"Griesheim","municipality":{"key":"06432008","name":"Griesheim, Stadt","type":"Stadt"},"district":{"key":"06432","name":"Darmstadt-Dieburg","type":"Landkreis"},"federalState":{"key":"06","name":"Hessen"}},{"name":"Schaafgasse","postalCode":"64347","locality":"Griesheim","municipality":{"key":"06432008","name":"Griesheim, Stadt","type":"Stadt"},"district":{"key":"06432","name":"Darmstadt-Dieburg","type":"Landkreis"},"federalState":{"key":"06","name":"Hessen"}},{"name":"Schillerstr.","postalCode":"64347","locality":"Griesheim","municipality":{"key":"06432008","name":"Griesheim, Stadt","type":"Stadt"},"district":{"key":"06432","name":"Darmstadt-Dieburg","type":"Landkreis"},"federalState":{"key":"06","name":"Hessen"}},{"name":"Schlußgasse","postalCode":"64347","locality":"Griesheim","municipality":{"key":"06432008","name":"Griesheim, Stadt","type":"Stadt"},"district":{"key":"06432","name":"Darmstadt-Dieburg","type":"Landkreis"},"federalState":{"key":"06","name":"Hessen"}},{"name":"Schöneweibergasse","postalCode":"64347","locality":"Griesheim","municipality":{"key":"06432008","name":"Griesheim, Stadt","type":"Stadt"},"district":{"key":"06432","name":"Darmstadt-Dieburg","type":"Landkreis"},"federalState":{"key":"06","name":"Hessen"}},{"name":"Schubertstr.","postalCode":"64347","locality":"Griesheim","municipality":{"key":"06432008","name":"Griesheim, Stadt","type":"Stadt"},"district":{"key":"06432","name":"Darmstadt-Dieburg","type":"Landkreis"},"federalState":{"key":"06","name":"Hessen"}},{"name":"Schülerstr.","postalCode":"64347","locality":"Griesheim","municipality":{"key":"06432008","name":"Griesheim, Stadt","type":"Stadt"},"district":{"key":"06432","name":"Darmstadt-Dieburg","type":"Landkreis"},"federalState":{"key":"06","name":"Hessen"}},{"name":"Schulgasse","postalCode":"64347","locality":"Griesheim","municipality":{"key":"06432008","name":"Griesheim, Stadt","type":"Stadt"},"district":{"key":"06432","name":"Darmstadt-Dieburg","type":"Landkreis"},"federalState":{"key":"06","name":"Hessen"}},{"name":"Schützenstr.","postalCode":"64347","locality":"Griesheim","municipality":{"key":"06432008","name":"Griesheim, Stadt","type":"Stadt"},"district":{"key":"06432","name":"Darmstadt-Dieburg","type":"Landkreis"},"federalState":{"key":"06","name":"Hessen"}},{"name":"Sophie-Scholl-Str.","postalCode":"64347","locality":"Griesheim","municipality":{"key":"06432008","name":"Griesheim, Stadt","type":"Stadt"},"district":{"key":"06432","name":"Darmstadt-Dieburg","type":"Landkreis"},"federalState":{"key":"06","name":"Hessen"}},{"name":"Spielobjekte für Kinder, mit Teich und Modelleisenbahn.","postalCode":"64347","locality":"Griesheim","municipality":{"key":"06432008","name":"Griesheim, Stadt","type":"Stadt"},"district":{"key":"06432","name":"Darmstadt-Dieburg","type":"Landkreis"},"federalState":{"key":"06","name":"Hessen"}},{"name":"Sterngasse","postalCode":"64347","locality":"Griesheim","municipality":{"key":"06432008","name":"Griesheim, Stadt","type":"Stadt"},"district":{"key":"06432","name":"Darmstadt-Dieburg","type":"Landkreis"},"federalState":{"key":"06","name":"Hessen"}},{"name":"St.-Stephans-Platz","postalCode":"64347","locality":"Griesheim","municipality":{"key":"06432008","name":"Griesheim, Stadt","type":"Stadt"},"district":{"key":"06432","name":"Darmstadt-Dieburg","type":"Landkreis"},"federalState":{"key":"06","name":"Hessen"}},{"name":"Südring","postalCode":"64347","locality":"Griesheim","municipality":{"key":"06432008","name":"Griesheim, Stadt","type":"Stadt"},"district":{"key":"06432","name":"Darmstadt-Dieburg","type":"Landkreis"},"federalState":{"key":"06","name":"Hessen"}},{"name":"Tannenweg","postalCode":"64347","locality":"Griesheim","municipality":{"key":"06432008","name":"Griesheim, Stadt","type":"Stadt"},"district":{"key":"06432","name":"Darmstadt-Dieburg","type":"Landkreis"},"federalState":{"key":"06","name":"Hessen"}},{"name":"Tauberstr.","postalCode":"64347","locality":"Griesheim","municipality":{"key":"06432008","name":"Griesheim, Stadt","type":"Stadt"},"district":{"key":"06432","name":"Darmstadt-Dieburg","type":"Landkreis"},"federalState":{"key":"06","name":"Hessen"}},{"name":"Theißstr.","postalCode":"64347","locality":"Griesheim","municipality":{"key":"06432008","name":"Griesheim, Stadt","type":"Stadt"},"district":{"key":"06432","name":"Darmstadt-Dieburg","type":"Landkreis"},"federalState":{"key":"06","name":"Hessen"}},{"name":"Theodor-Heuss-Str.","postalCode":"64347","locality":"Griesheim","municipality":{"key":"06432008","name":"Griesheim, Stadt","type":"Stadt"},"district":{"key":"06432","name":"Darmstadt-Dieburg","type":"Landkreis"},"federalState":{"key":"06","name":"Hessen"}},{"name":"Tränkschneise","postalCode":"64347","locality":"Griesheim","municipality":{"key":"06432008","name":"Griesheim, Stadt","type":"Stadt"},"district":{"key":"06432","name":"Darmstadt-Dieburg","type":"Landkreis"},"federalState":{"key":"06","name":"Hessen"}},{"name":"Traubenschneise","postalCode":"64347","locality":"Griesheim","municipality":{"key":"06432008","name":"Griesheim, Stadt","type":"Stadt"},"district":{"key":"06432","name":"Darmstadt-Dieburg","type":"Landkreis"},"federalState":{"key":"06","name":"Hessen"}},{"name":"Uhlandstr.","postalCode":"64347","locality":"Griesheim","municipality":{"key":"06432008","name":"Griesheim, Stadt","type":"Stadt"},"district":{"key":"06432","name":"Darmstadt-Dieburg","type":"Landkreis"},"federalState":{"key":"06","name":"Hessen"}},{"name":"Ulmenweg","postalCode":"64347","locality":"Griesheim","municipality":{"key":"06432008","name":"Griesheim, Stadt","type":"Stadt"},"district":{"key":"06432","name":"Darmstadt-Dieburg","type":"Landkreis"},"federalState":{"key":"06","name":"Hessen"}},{"name":"Uthmannstr.","postalCode":"64347","locality":"Griesheim","municipality":{"key":"06432008","name":"Griesheim, Stadt","type":"Stadt"},"district":{"key":"06432","name":"Darmstadt-Dieburg","type":"Landkreis"},"federalState":{"key":"06","name":"Hessen"}},{"name":"Viktoriastr.","postalCode":"64347","locality":"Griesheim","municipality":{"key":"06432008","name":"Griesheim, Stadt","type":"Stadt"},"district":{"key":"06432","name":"Darmstadt-Dieburg","type":"Landkreis"},"federalState":{"key":"06","name":"Hessen"}},{"name":"Waldstr.","postalCode":"64347","locality":"Griesheim","municipality":{"key":"06432008","name":"Griesheim, Stadt","type":"Stadt"},"district":{"key":"06432","name":"Darmstadt-Dieburg","type":"Landkreis"},"federalState":{"key":"06","name":"Hessen"}},{"name":"Weichgasse","postalCode":"64347","locality":"Griesheim","municipality":{"key":"06432008","name":"Griesheim, Stadt","type":"Stadt"},"district":{"key":"06432","name":"Darmstadt-Dieburg","type":"Landkreis"},"federalState":{"key":"06","name":"Hessen"}},{"name":"Weiterstädter Weg","postalCode":"64347","locality":"Griesheim","municipality":{"key":"06432008","name":"Griesheim, Stadt","type":"Stadt"},"district":{"key":"06432","name":"Darmstadt-Dieburg","type":"Landkreis"},"federalState":{"key":"06","name":"Hessen"}},{"name":"Werner-Hilpert-Str.","postalCode":"64347","locality":"Griesheim","municipality":{"key":"06432008","name":"Griesheim, Stadt","type":"Stadt"},"district":{"key":"06432","name":"Darmstadt-Dieburg","type":"Landkreis"},"federalState":{"key":"06","name":"Hessen"}},{"name":"Werrastr.","postalCode":"64347","locality":"Griesheim","municipality":{"key":"06432008","name":"Griesheim, Stadt","type":"Stadt"},"district":{"key":"06432","name":"Darmstadt-Dieburg","type":"Landkreis"},"federalState":{"key":"06","name":"Hessen"}},{"name":"Weserstr.","postalCode":"64347","locality":"Griesheim","municipality":{"key":"06432008","name":"Griesheim, Stadt","type":"Stadt"},"district":{"key":"06432","name":"Darmstadt-Dieburg","type":"Landkreis"},"federalState":{"key":"06","name":"Hessen"}},{"name":"Westring","postalCode":"64347","locality":"Griesheim","municipality":{"key":"06432008","name":"Griesheim, Stadt","type":"Stadt"},"district":{"key":"06432","name":"Darmstadt-Dieburg","type":"Landkreis"},"federalState":{"key":"06","name":"Hessen"}},{"name":"Wichteweg","postalCode":"64347","locality":"Griesheim","municipality":{"key":"06432008","name":"Griesheim, Stadt","type":"Stadt"},"district":{"key":"06432","name":"Darmstadt-Dieburg","type":"Landkreis"},"federalState":{"key":"06","name":"Hessen"}},{"name":"Wiesenschneise","postalCode":"64347","locality":"Griesheim","municipality":{"key":"06432008","name":"Griesheim, Stadt","type":"Stadt"},"district":{"key":"06432","name":"Darmstadt-Dieburg","type":"Landkreis"},"federalState":{"key":"06","name":"Hessen"}},{"name":"Wiesenstr.","postalCode":"64347","locality":"Griesheim","municipality":{"key":"06432008","name":"Griesheim, Stadt","type":"Stadt"},"district":{"key":"06432","name":"Darmstadt-Dieburg","type":"Landkreis"},"federalState":{"key":"06","name":"Hessen"}},{"name":"Wilhelminenstr.","postalCode":"64347","locality":"Griesheim","municipality":{"key":"06432008","name":"Griesheim, Stadt","type":"Stadt"},"district":{"key":"06432","name":"Darmstadt-Dieburg","type":"Landkreis"},"federalState":{"key":"06","name":"Hessen"}},{"name":"Wilhelm-Leuschner-Str.","postalCode":"64347","locality":"Griesheim","municipality":{"key":"06432008","name":"Griesheim, Stadt","type":"Stadt"},"district":{"key":"06432","name":"Darmstadt-Dieburg","type":"Landkreis"},"federalState":{"key":"06","name":"Hessen"}},{"name":"Wilkau-Haßlauer Str.","postalCode":"64347","locality":"Griesheim","municipality":{"key":"06432008","name":"Griesheim, Stadt","type":"Stadt"},"district":{"key":"06432","name":"Darmstadt-Dieburg","type":"Landkreis"},"federalState":{"key":"06","name":"Hessen"}},{"name":"Willy-Brandt-Allee","postalCode":"64347","locality":"Griesheim","municipality":{"key":"06432008","name":"Griesheim, Stadt","type":"Stadt"},"district":{"key":"06432","name":"Darmstadt-Dieburg","type":"Landkreis"},"federalState":{"key":"06","name":"Hessen"}},{"name":"Wolfsweg","postalCode":"64347","locality":"Griesheim","municipality":{"key":"06432008","name":"Griesheim, Stadt","type":"Stadt"},"district":{"key":"06432","name":"Darmstadt-Dieburg","type":"Landkreis"},"federalState":{"key":"06","name":"Hessen"}},{"name":"Zeppelinstr.","postalCode":"64347","locality":"Griesheim","municipality":{"key":"06432008","name":"Griesheim, Stadt","type":"Stadt"},"district":{"key":"06432","name":"Darmstadt-Dieburg","type":"Landkreis"},"federalState":{"key":"06","name":"Hessen"}},{"name":"Zöllerplatz","postalCode":"64347","locality":"Griesheim","municipality":{"key":"06432008","name":"Griesheim, Stadt","type":"Stadt"},"district":{"key":"06432","name":"Darmstadt-Dieburg","type":"Landkreis"},"federalState":{"key":"06","name":"Hessen"}},{"name":"Zöllerstr.","postalCode":"64347","locality":"Griesheim","municipality":{"key":"06432008","name":"Griesheim, Stadt","type":"Stadt"},"district":{"key":"06432","name":"Darmstadt-Dieburg","type":"Landkreis"},"federalState":{"key":"06","name":"Hessen"}},{"name":"Zusestr.","postalCode":"64347","locality":"Griesheim","municipality":{"key":"06432008","name":"Griesheim, Stadt","type":"Stadt"},"district":{"key":"06432","name":"Darmstadt-Dieburg","type":"Landkreis"},"federalState":{"key":"06","name":"Hessen"}},]