[{"name":"A8","postalCode":"46569","locality":"Hünxe","municipality":{"key":"05170016","name":"Hünxe","type":"Kreisangehörige_Gemeinde"},"district":{"key":"05170","name":"Wesel","type":"Kreis"},"federalState":{"key":"05","name":"Nordrhein-Westfalen"}},{"name":"Aapweg","postalCode":"46569","locality":"Hünxe","municipality":{"key":"05170016","name":"Hünxe","type":"Kreisangehörige_Gemeinde"},"district":{"key":"05170","name":"Wesel","type":"Kreis"},"federalState":{"key":"05","name":"Nordrhein-Westfalen"}},{"name":"Akazienwinkel","postalCode":"46569","locality":"Hünxe","municipality":{"key":"05170016","name":"Hünxe","type":"Kreisangehörige_Gemeinde"},"district":{"key":"05170","name":"Wesel","type":"Kreis"},"federalState":{"key":"05","name":"Nordrhein-Westfalen"}},{"name":"Albert-Einstein-Str.","postalCode":"46569","locality":"Hünxe","municipality":{"key":"05170016","name":"Hünxe","type":"Kreisangehörige_Gemeinde"},"district":{"key":"05170","name":"Wesel","type":"Kreis"},"federalState":{"key":"05","name":"Nordrhein-Westfalen"}},{"name":"Albertus-Magnus-Weg","postalCode":"46569","locality":"Hünxe","municipality":{"key":"05170016","name":"Hünxe","type":"Kreisangehörige_Gemeinde"},"district":{"key":"05170","name":"Wesel","type":"Kreis"},"federalState":{"key":"05","name":"Nordrhein-Westfalen"}},{"name":"Alte Dinslakener Str.","postalCode":"46569","locality":"Hünxe","municipality":{"key":"05170016","name":"Hünxe","type":"Kreisangehörige_Gemeinde"},"district":{"key":"05170","name":"Wesel","type":"Kreis"},"federalState":{"key":"05","name":"Nordrhein-Westfalen"}},{"name":"Alte Landstr.","postalCode":"46569","locality":"Hünxe","municipality":{"key":"05170016","name":"Hünxe","type":"Kreisangehörige_Gemeinde"},"district":{"key":"05170","name":"Wesel","type":"Kreis"},"federalState":{"key":"05","name":"Nordrhein-Westfalen"}},{"name":"Alte Marienthaler Str.","postalCode":"46569","locality":"Hünxe","municipality":{"key":"05170016","name":"Hünxe","type":"Kreisangehörige_Gemeinde"},"district":{"key":"05170","name":"Wesel","type":"Kreis"},"federalState":{"key":"05","name":"Nordrhein-Westfalen"}},{"name":"Alte Raesfelder Str.","postalCode":"46569","locality":"Hünxe","municipality":{"key":"05170016","name":"Hünxe","type":"Kreisangehörige_Gemeinde"},"district":{"key":"05170","name":"Wesel","type":"Kreis"},"federalState":{"key":"05","name":"Nordrhein-Westfalen"}},{"name":"Alte Weseler Str.","postalCode":"46569","locality":"Hünxe","municipality":{"key":"05170016","name":"Hünxe","type":"Kreisangehörige_Gemeinde"},"district":{"key":"05170","name":"Wesel","type":"Kreis"},"federalState":{"key":"05","name":"Nordrhein-Westfalen"}},{"name":"Am Biesengrund","postalCode":"46569","locality":"Hünxe","municipality":{"key":"05170016","name":"Hünxe","type":"Kreisangehörige_Gemeinde"},"district":{"key":"05170","name":"Wesel","type":"Kreis"},"federalState":{"key":"05","name":"Nordrhein-Westfalen"}},{"name":"Am Brücksken","postalCode":"46569","locality":"Hünxe","municipality":{"key":"05170016","name":"Hünxe","type":"Kreisangehörige_Gemeinde"},"district":{"key":"05170","name":"Wesel","type":"Kreis"},"federalState":{"key":"05","name":"Nordrhein-Westfalen"}},{"name":"Am Burshof","postalCode":"46569","locality":"Hünxe","municipality":{"key":"05170016","name":"Hünxe","type":"Kreisangehörige_Gemeinde"},"district":{"key":"05170","name":"Wesel","type":"Kreis"},"federalState":{"key":"05","name":"Nordrhein-Westfalen"}},{"name":"Am Büschchen","postalCode":"46569","locality":"Hünxe","municipality":{"key":"05170016","name":"Hünxe","type":"Kreisangehörige_Gemeinde"},"district":{"key":"05170","name":"Wesel","type":"Kreis"},"federalState":{"key":"05","name":"Nordrhein-Westfalen"}},{"name":"Am Egelsberg","postalCode":"46569","locality":"Hünxe","municipality":{"key":"05170016","name":"Hünxe","type":"Kreisangehörige_Gemeinde"},"district":{"key":"05170","name":"Wesel","type":"Kreis"},"federalState":{"key":"05","name":"Nordrhein-Westfalen"}},{"name":"Am Hohen Malberg","postalCode":"46569","locality":"Hünxe","municipality":{"key":"05170016","name":"Hünxe","type":"Kreisangehörige_Gemeinde"},"district":{"key":"05170","name":"Wesel","type":"Kreis"},"federalState":{"key":"05","name":"Nordrhein-Westfalen"}},{"name":"Am Kirchplatz","postalCode":"46569","locality":"Hünxe","municipality":{"key":"05170016","name":"Hünxe","type":"Kreisangehörige_Gemeinde"},"district":{"key":"05170","name":"Wesel","type":"Kreis"},"federalState":{"key":"05","name":"Nordrhein-Westfalen"}},{"name":"Am Krummen Acker","postalCode":"46569","locality":"Hünxe","municipality":{"key":"05170016","name":"Hünxe","type":"Kreisangehörige_Gemeinde"},"district":{"key":"05170","name":"Wesel","type":"Kreis"},"federalState":{"key":"05","name":"Nordrhein-Westfalen"}},{"name":"Am Licken Berg","postalCode":"46569","locality":"Hünxe","municipality":{"key":"05170016","name":"Hünxe","type":"Kreisangehörige_Gemeinde"},"district":{"key":"05170","name":"Wesel","type":"Kreis"},"federalState":{"key":"05","name":"Nordrhein-Westfalen"}},{"name":"Am Mühlenbach","postalCode":"46569","locality":"Hünxe","municipality":{"key":"05170016","name":"Hünxe","type":"Kreisangehörige_Gemeinde"},"district":{"key":"05170","name":"Wesel","type":"Kreis"},"federalState":{"key":"05","name":"Nordrhein-Westfalen"}},{"name":"Am Pliesterhuf","postalCode":"46569","locality":"Hünxe","municipality":{"key":"05170016","name":"Hünxe","type":"Kreisangehörige_Gemeinde"},"district":{"key":"05170","name":"Wesel","type":"Kreis"},"federalState":{"key":"05","name":"Nordrhein-Westfalen"}},{"name":"Am Ringwall","postalCode":"46569","locality":"Hünxe","municipality":{"key":"05170016","name":"Hünxe","type":"Kreisangehörige_Gemeinde"},"district":{"key":"05170","name":"Wesel","type":"Kreis"},"federalState":{"key":"05","name":"Nordrhein-Westfalen"}},{"name":"Am Siebenstern","postalCode":"46569","locality":"Hünxe","municipality":{"key":"05170016","name":"Hünxe","type":"Kreisangehörige_Gemeinde"},"district":{"key":"05170","name":"Wesel","type":"Kreis"},"federalState":{"key":"05","name":"Nordrhein-Westfalen"}},{"name":"Am Tiefen Steg","postalCode":"46569","locality":"Hünxe","municipality":{"key":"05170016","name":"Hünxe","type":"Kreisangehörige_Gemeinde"},"district":{"key":"05170","name":"Wesel","type":"Kreis"},"federalState":{"key":"05","name":"Nordrhein-Westfalen"}},{"name":"An den Höfen","postalCode":"46569","locality":"Hünxe","municipality":{"key":"05170016","name":"Hünxe","type":"Kreisangehörige_Gemeinde"},"district":{"key":"05170","name":"Wesel","type":"Kreis"},"federalState":{"key":"05","name":"Nordrhein-Westfalen"}},{"name":"An der Alten Bergschule","postalCode":"46569","locality":"Hünxe","municipality":{"key":"05170016","name":"Hünxe","type":"Kreisangehörige_Gemeinde"},"district":{"key":"05170","name":"Wesel","type":"Kreis"},"federalState":{"key":"05","name":"Nordrhein-Westfalen"}},{"name":"An der Kirche","postalCode":"46569","locality":"Hünxe","municipality":{"key":"05170016","name":"Hünxe","type":"Kreisangehörige_Gemeinde"},"district":{"key":"05170","name":"Wesel","type":"Kreis"},"federalState":{"key":"05","name":"Nordrhein-Westfalen"}},{"name":"An der Schleuse","postalCode":"46569","locality":"Hünxe","municipality":{"key":"05170016","name":"Hünxe","type":"Kreisangehörige_Gemeinde"},"district":{"key":"05170","name":"Wesel","type":"Kreis"},"federalState":{"key":"05","name":"Nordrhein-Westfalen"}},{"name":"An der Windmühle","postalCode":"46569","locality":"Hünxe","municipality":{"key":"05170016","name":"Hünxe","type":"Kreisangehörige_Gemeinde"},"district":{"key":"05170","name":"Wesel","type":"Kreis"},"federalState":{"key":"05","name":"Nordrhein-Westfalen"}},{"name":"Asternweg","postalCode":"46569","locality":"Hünxe","municipality":{"key":"05170016","name":"Hünxe","type":"Kreisangehörige_Gemeinde"},"district":{"key":"05170","name":"Wesel","type":"Kreis"},"federalState":{"key":"05","name":"Nordrhein-Westfalen"}},{"name":"Auf dem Dudel","postalCode":"46569","locality":"Hünxe","municipality":{"key":"05170016","name":"Hünxe","type":"Kreisangehörige_Gemeinde"},"district":{"key":"05170","name":"Wesel","type":"Kreis"},"federalState":{"key":"05","name":"Nordrhein-Westfalen"}},{"name":"Auf dem Kamp","postalCode":"46569","locality":"Hünxe","municipality":{"key":"05170016","name":"Hünxe","type":"Kreisangehörige_Gemeinde"},"district":{"key":"05170","name":"Wesel","type":"Kreis"},"federalState":{"key":"05","name":"Nordrhein-Westfalen"}},{"name":"August-Oppenberg-Str.","postalCode":"46569","locality":"Hünxe","municipality":{"key":"05170016","name":"Hünxe","type":"Kreisangehörige_Gemeinde"},"district":{"key":"05170","name":"Wesel","type":"Kreis"},"federalState":{"key":"05","name":"Nordrhein-Westfalen"}},{"name":"Bachstege","postalCode":"46569","locality":"Hünxe","municipality":{"key":"05170016","name":"Hünxe","type":"Kreisangehörige_Gemeinde"},"district":{"key":"05170","name":"Wesel","type":"Kreis"},"federalState":{"key":"05","name":"Nordrhein-Westfalen"}},{"name":"Bachweg","postalCode":"46569","locality":"Hünxe","municipality":{"key":"05170016","name":"Hünxe","type":"Kreisangehörige_Gemeinde"},"district":{"key":"05170","name":"Wesel","type":"Kreis"},"federalState":{"key":"05","name":"Nordrhein-Westfalen"}},{"name":"Bahnhofstr.","postalCode":"46569","locality":"Hünxe","municipality":{"key":"05170016","name":"Hünxe","type":"Kreisangehörige_Gemeinde"},"district":{"key":"05170","name":"Wesel","type":"Kreis"},"federalState":{"key":"05","name":"Nordrhein-Westfalen"}},{"name":"Bahnhofsweg","postalCode":"46569","locality":"Hünxe","municipality":{"key":"05170016","name":"Hünxe","type":"Kreisangehörige_Gemeinde"},"district":{"key":"05170","name":"Wesel","type":"Kreis"},"federalState":{"key":"05","name":"Nordrhein-Westfalen"}},{"name":"Bannemer Feld","postalCode":"46569","locality":"Hünxe","municipality":{"key":"05170016","name":"Hünxe","type":"Kreisangehörige_Gemeinde"},"district":{"key":"05170","name":"Wesel","type":"Kreis"},"federalState":{"key":"05","name":"Nordrhein-Westfalen"}},{"name":"Baumschulenweg","postalCode":"46569","locality":"Hünxe","municipality":{"key":"05170016","name":"Hünxe","type":"Kreisangehörige_Gemeinde"},"district":{"key":"05170","name":"Wesel","type":"Kreis"},"federalState":{"key":"05","name":"Nordrhein-Westfalen"}},{"name":"Bensumskamp","postalCode":"46569","locality":"Hünxe","municipality":{"key":"05170016","name":"Hünxe","type":"Kreisangehörige_Gemeinde"},"district":{"key":"05170","name":"Wesel","type":"Kreis"},"federalState":{"key":"05","name":"Nordrhein-Westfalen"}},{"name":"Bergerstr.","postalCode":"46569","locality":"Hünxe","municipality":{"key":"05170016","name":"Hünxe","type":"Kreisangehörige_Gemeinde"},"district":{"key":"05170","name":"Wesel","type":"Kreis"},"federalState":{"key":"05","name":"Nordrhein-Westfalen"}},{"name":"Bergschlagweg","postalCode":"46569","locality":"Hünxe","municipality":{"key":"05170016","name":"Hünxe","type":"Kreisangehörige_Gemeinde"},"district":{"key":"05170","name":"Wesel","type":"Kreis"},"federalState":{"key":"05","name":"Nordrhein-Westfalen"}},{"name":"Birkenweg","postalCode":"46569","locality":"Hünxe","municipality":{"key":"05170016","name":"Hünxe","type":"Kreisangehörige_Gemeinde"},"district":{"key":"05170","name":"Wesel","type":"Kreis"},"federalState":{"key":"05","name":"Nordrhein-Westfalen"}},{"name":"Bockstr.","postalCode":"46569","locality":"Hünxe","municipality":{"key":"05170016","name":"Hünxe","type":"Kreisangehörige_Gemeinde"},"district":{"key":"05170","name":"Wesel","type":"Kreis"},"federalState":{"key":"05","name":"Nordrhein-Westfalen"}},{"name":"Brömmenkamp","postalCode":"46569","locality":"Hünxe","municipality":{"key":"05170016","name":"Hünxe","type":"Kreisangehörige_Gemeinde"},"district":{"key":"05170","name":"Wesel","type":"Kreis"},"federalState":{"key":"05","name":"Nordrhein-Westfalen"}},{"name":"Brückenweg","postalCode":"46569","locality":"Hünxe","municipality":{"key":"05170016","name":"Hünxe","type":"Kreisangehörige_Gemeinde"},"district":{"key":"05170","name":"Wesel","type":"Kreis"},"federalState":{"key":"05","name":"Nordrhein-Westfalen"}},{"name":"Buchenstr.","postalCode":"46569","locality":"Hünxe","municipality":{"key":"05170016","name":"Hünxe","type":"Kreisangehörige_Gemeinde"},"district":{"key":"05170","name":"Wesel","type":"Kreis"},"federalState":{"key":"05","name":"Nordrhein-Westfalen"}},{"name":"Bühler Feldweg","postalCode":"46569","locality":"Hünxe","municipality":{"key":"05170016","name":"Hünxe","type":"Kreisangehörige_Gemeinde"},"district":{"key":"05170","name":"Wesel","type":"Kreis"},"federalState":{"key":"05","name":"Nordrhein-Westfalen"}},{"name":"Bühler Stege","postalCode":"46569","locality":"Hünxe","municipality":{"key":"05170016","name":"Hünxe","type":"Kreisangehörige_Gemeinde"},"district":{"key":"05170","name":"Wesel","type":"Kreis"},"federalState":{"key":"05","name":"Nordrhein-Westfalen"}},{"name":"Bündertweg","postalCode":"46569","locality":"Hünxe","municipality":{"key":"05170016","name":"Hünxe","type":"Kreisangehörige_Gemeinde"},"district":{"key":"05170","name":"Wesel","type":"Kreis"},"federalState":{"key":"05","name":"Nordrhein-Westfalen"}},{"name":"Buschweg","postalCode":"46569","locality":"Hünxe","municipality":{"key":"05170016","name":"Hünxe","type":"Kreisangehörige_Gemeinde"},"district":{"key":"05170","name":"Wesel","type":"Kreis"},"federalState":{"key":"05","name":"Nordrhein-Westfalen"}},{"name":"Cyrenerhof","postalCode":"46569","locality":"Hünxe","municipality":{"key":"05170016","name":"Hünxe","type":"Kreisangehörige_Gemeinde"},"district":{"key":"05170","name":"Wesel","type":"Kreis"},"federalState":{"key":"05","name":"Nordrhein-Westfalen"}},{"name":"Dahlienweg","postalCode":"46569","locality":"Hünxe","municipality":{"key":"05170016","name":"Hünxe","type":"Kreisangehörige_Gemeinde"},"district":{"key":"05170","name":"Wesel","type":"Kreis"},"federalState":{"key":"05","name":"Nordrhein-Westfalen"}},{"name":"Dammer Kirchweg","postalCode":"46569","locality":"Hünxe","municipality":{"key":"05170016","name":"Hünxe","type":"Kreisangehörige_Gemeinde"},"district":{"key":"05170","name":"Wesel","type":"Kreis"},"federalState":{"key":"05","name":"Nordrhein-Westfalen"}},{"name":"Danziger Platz","postalCode":"46569","locality":"Hünxe","municipality":{"key":"05170016","name":"Hünxe","type":"Kreisangehörige_Gemeinde"},"district":{"key":"05170","name":"Wesel","type":"Kreis"},"federalState":{"key":"05","name":"Nordrhein-Westfalen"}},{"name":"Dinslakener Str.","postalCode":"46569","locality":"Hünxe","municipality":{"key":"05170016","name":"Hünxe","type":"Kreisangehörige_Gemeinde"},"district":{"key":"05170","name":"Wesel","type":"Kreis"},"federalState":{"key":"05","name":"Nordrhein-Westfalen"}},{"name":"Donnersbergstege","postalCode":"46569","locality":"Hünxe","municipality":{"key":"05170016","name":"Hünxe","type":"Kreisangehörige_Gemeinde"},"district":{"key":"05170","name":"Wesel","type":"Kreis"},"federalState":{"key":"05","name":"Nordrhein-Westfalen"}},{"name":"Dorfkamp","postalCode":"46569","locality":"Hünxe","municipality":{"key":"05170016","name":"Hünxe","type":"Kreisangehörige_Gemeinde"},"district":{"key":"05170","name":"Wesel","type":"Kreis"},"federalState":{"key":"05","name":"Nordrhein-Westfalen"}},{"name":"Dorfstr.","postalCode":"46569","locality":"Hünxe","municipality":{"key":"05170016","name":"Hünxe","type":"Kreisangehörige_Gemeinde"},"district":{"key":"05170","name":"Wesel","type":"Kreis"},"federalState":{"key":"05","name":"Nordrhein-Westfalen"}},{"name":"Dorstener Str.","postalCode":"46569","locality":"Hünxe","municipality":{"key":"05170016","name":"Hünxe","type":"Kreisangehörige_Gemeinde"},"district":{"key":"05170","name":"Wesel","type":"Kreis"},"federalState":{"key":"05","name":"Nordrhein-Westfalen"}},{"name":"Drijschämm","postalCode":"46569","locality":"Hünxe","municipality":{"key":"05170016","name":"Hünxe","type":"Kreisangehörige_Gemeinde"},"district":{"key":"05170","name":"Wesel","type":"Kreis"},"federalState":{"key":"05","name":"Nordrhein-Westfalen"}},{"name":"Eichenweg","postalCode":"46569","locality":"Hünxe","municipality":{"key":"05170016","name":"Hünxe","type":"Kreisangehörige_Gemeinde"},"district":{"key":"05170","name":"Wesel","type":"Kreis"},"federalState":{"key":"05","name":"Nordrhein-Westfalen"}},{"name":"Erich-Bockemühl-Str.","postalCode":"46569","locality":"Hünxe","municipality":{"key":"05170016","name":"Hünxe","type":"Kreisangehörige_Gemeinde"},"district":{"key":"05170","name":"Wesel","type":"Kreis"},"federalState":{"key":"05","name":"Nordrhein-Westfalen"}},{"name":"Eschenweg","postalCode":"46569","locality":"Hünxe","municipality":{"key":"05170016","name":"Hünxe","type":"Kreisangehörige_Gemeinde"},"district":{"key":"05170","name":"Wesel","type":"Kreis"},"federalState":{"key":"05","name":"Nordrhein-Westfalen"}},{"name":"Esseltweg","postalCode":"46569","locality":"Hünxe","municipality":{"key":"05170016","name":"Hünxe","type":"Kreisangehörige_Gemeinde"},"district":{"key":"05170","name":"Wesel","type":"Kreis"},"federalState":{"key":"05","name":"Nordrhein-Westfalen"}},{"name":"Fasanenweg","postalCode":"46569","locality":"Hünxe","municipality":{"key":"05170016","name":"Hünxe","type":"Kreisangehörige_Gemeinde"},"district":{"key":"05170","name":"Wesel","type":"Kreis"},"federalState":{"key":"05","name":"Nordrhein-Westfalen"}},{"name":"Feldmark","postalCode":"46569","locality":"Hünxe","municipality":{"key":"05170016","name":"Hünxe","type":"Kreisangehörige_Gemeinde"},"district":{"key":"05170","name":"Wesel","type":"Kreis"},"federalState":{"key":"05","name":"Nordrhein-Westfalen"}},{"name":"Ferdinand-Freiligrath-Weg","postalCode":"46569","locality":"Hünxe","municipality":{"key":"05170016","name":"Hünxe","type":"Kreisangehörige_Gemeinde"},"district":{"key":"05170","name":"Wesel","type":"Kreis"},"federalState":{"key":"05","name":"Nordrhein-Westfalen"}},{"name":"Fichtenweg","postalCode":"46569","locality":"Hünxe","municipality":{"key":"05170016","name":"Hünxe","type":"Kreisangehörige_Gemeinde"},"district":{"key":"05170","name":"Wesel","type":"Kreis"},"federalState":{"key":"05","name":"Nordrhein-Westfalen"}},{"name":"Fliederweg","postalCode":"46569","locality":"Hünxe","municipality":{"key":"05170016","name":"Hünxe","type":"Kreisangehörige_Gemeinde"},"district":{"key":"05170","name":"Wesel","type":"Kreis"},"federalState":{"key":"05","name":"Nordrhein-Westfalen"}},{"name":"Franzosenweg","postalCode":"46569","locality":"Hünxe","municipality":{"key":"05170016","name":"Hünxe","type":"Kreisangehörige_Gemeinde"},"district":{"key":"05170","name":"Wesel","type":"Kreis"},"federalState":{"key":"05","name":"Nordrhein-Westfalen"}},{"name":"Friedrich-Endemann-Str.","postalCode":"46569","locality":"Hünxe","municipality":{"key":"05170016","name":"Hünxe","type":"Kreisangehörige_Gemeinde"},"district":{"key":"05170","name":"Wesel","type":"Kreis"},"federalState":{"key":"05","name":"Nordrhein-Westfalen"}},{"name":"Friemsackerweg","postalCode":"46569","locality":"Hünxe","municipality":{"key":"05170016","name":"Hünxe","type":"Kreisangehörige_Gemeinde"},"district":{"key":"05170","name":"Wesel","type":"Kreis"},"federalState":{"key":"05","name":"Nordrhein-Westfalen"}},{"name":"Gahlener Str.","postalCode":"46569","locality":"Hünxe","municipality":{"key":"05170016","name":"Hünxe","type":"Kreisangehörige_Gemeinde"},"district":{"key":"05170","name":"Wesel","type":"Kreis"},"federalState":{"key":"05","name":"Nordrhein-Westfalen"}},{"name":"Gansenbergweg","postalCode":"46569","locality":"Hünxe","municipality":{"key":"05170016","name":"Hünxe","type":"Kreisangehörige_Gemeinde"},"district":{"key":"05170","name":"Wesel","type":"Kreis"},"federalState":{"key":"05","name":"Nordrhein-Westfalen"}},{"name":"Gartenweg","postalCode":"46569","locality":"Hünxe","municipality":{"key":"05170016","name":"Hünxe","type":"Kreisangehörige_Gemeinde"},"district":{"key":"05170","name":"Wesel","type":"Kreis"},"federalState":{"key":"05","name":"Nordrhein-Westfalen"}},{"name":"Gebrüder-Grimm-Weg","postalCode":"46569","locality":"Hünxe","municipality":{"key":"05170016","name":"Hünxe","type":"Kreisangehörige_Gemeinde"},"district":{"key":"05170","name":"Wesel","type":"Kreis"},"federalState":{"key":"05","name":"Nordrhein-Westfalen"}},{"name":"Goetheweg","postalCode":"46569","locality":"Hünxe","municipality":{"key":"05170016","name":"Hünxe","type":"Kreisangehörige_Gemeinde"},"district":{"key":"05170","name":"Wesel","type":"Kreis"},"federalState":{"key":"05","name":"Nordrhein-Westfalen"}},{"name":"Gottfried-Hesselmann-Platz","postalCode":"46569","locality":"Hünxe","municipality":{"key":"05170016","name":"Hünxe","type":"Kreisangehörige_Gemeinde"},"district":{"key":"05170","name":"Wesel","type":"Kreis"},"federalState":{"key":"05","name":"Nordrhein-Westfalen"}},{"name":"Grüner Weg","postalCode":"46569","locality":"Hünxe","municipality":{"key":"05170016","name":"Hünxe","type":"Kreisangehörige_Gemeinde"},"district":{"key":"05170","name":"Wesel","type":"Kreis"},"federalState":{"key":"05","name":"Nordrhein-Westfalen"}},{"name":"Hans-Richter-Str.","postalCode":"46569","locality":"Hünxe","municipality":{"key":"05170016","name":"Hünxe","type":"Kreisangehörige_Gemeinde"},"district":{"key":"05170","name":"Wesel","type":"Kreis"},"federalState":{"key":"05","name":"Nordrhein-Westfalen"}},{"name":"Hauptstr.","postalCode":"46569","locality":"Hünxe","municipality":{"key":"05170016","name":"Hünxe","type":"Kreisangehörige_Gemeinde"},"district":{"key":"05170","name":"Wesel","type":"Kreis"},"federalState":{"key":"05","name":"Nordrhein-Westfalen"}},{"name":"Heckenkamp","postalCode":"46569","locality":"Hünxe","municipality":{"key":"05170016","name":"Hünxe","type":"Kreisangehörige_Gemeinde"},"district":{"key":"05170","name":"Wesel","type":"Kreis"},"federalState":{"key":"05","name":"Nordrhein-Westfalen"}},{"name":"Heierfeld","postalCode":"46569","locality":"Hünxe","municipality":{"key":"05170016","name":"Hünxe","type":"Kreisangehörige_Gemeinde"},"district":{"key":"05170","name":"Wesel","type":"Kreis"},"federalState":{"key":"05","name":"Nordrhein-Westfalen"}},{"name":"Heinrich-Heine-Weg","postalCode":"46569","locality":"Hünxe","municipality":{"key":"05170016","name":"Hünxe","type":"Kreisangehörige_Gemeinde"},"district":{"key":"05170","name":"Wesel","type":"Kreis"},"federalState":{"key":"05","name":"Nordrhein-Westfalen"}},{"name":"Heisterweg","postalCode":"46569","locality":"Hünxe","municipality":{"key":"05170016","name":"Hünxe","type":"Kreisangehörige_Gemeinde"},"district":{"key":"05170","name":"Wesel","type":"Kreis"},"federalState":{"key":"05","name":"Nordrhein-Westfalen"}},{"name":"Höfkensfeld","postalCode":"46569","locality":"Hünxe","municipality":{"key":"05170016","name":"Hünxe","type":"Kreisangehörige_Gemeinde"},"district":{"key":"05170","name":"Wesel","type":"Kreis"},"federalState":{"key":"05","name":"Nordrhein-Westfalen"}},{"name":"Högemannshof","postalCode":"46569","locality":"Hünxe","municipality":{"key":"05170016","name":"Hünxe","type":"Kreisangehörige_Gemeinde"},"district":{"key":"05170","name":"Wesel","type":"Kreis"},"federalState":{"key":"05","name":"Nordrhein-Westfalen"}},{"name":"Hoher Weg","postalCode":"46569","locality":"Hünxe","municipality":{"key":"05170016","name":"Hünxe","type":"Kreisangehörige_Gemeinde"},"district":{"key":"05170","name":"Wesel","type":"Kreis"},"federalState":{"key":"05","name":"Nordrhein-Westfalen"}},{"name":"Hohlbachweg","postalCode":"46569","locality":"Hünxe","municipality":{"key":"05170016","name":"Hünxe","type":"Kreisangehörige_Gemeinde"},"district":{"key":"05170","name":"Wesel","type":"Kreis"},"federalState":{"key":"05","name":"Nordrhein-Westfalen"}},{"name":"Hunsdorfer Weg","postalCode":"46569","locality":"Hünxe","municipality":{"key":"05170016","name":"Hünxe","type":"Kreisangehörige_Gemeinde"},"district":{"key":"05170","name":"Wesel","type":"Kreis"},"federalState":{"key":"05","name":"Nordrhein-Westfalen"}},{"name":"Hünxer Feld","postalCode":"46569","locality":"Hünxe","municipality":{"key":"05170016","name":"Hünxe","type":"Kreisangehörige_Gemeinde"},"district":{"key":"05170","name":"Wesel","type":"Kreis"},"federalState":{"key":"05","name":"Nordrhein-Westfalen"}},{"name":"Hünxer Heide","postalCode":"46569","locality":"Hünxe","municipality":{"key":"05170016","name":"Hünxe","type":"Kreisangehörige_Gemeinde"},"district":{"key":"05170","name":"Wesel","type":"Kreis"},"federalState":{"key":"05","name":"Nordrhein-Westfalen"}},{"name":"Hünxer Str.","postalCode":"46569","locality":"Hünxe","municipality":{"key":"05170016","name":"Hünxe","type":"Kreisangehörige_Gemeinde"},"district":{"key":"05170","name":"Wesel","type":"Kreis"},"federalState":{"key":"05","name":"Nordrhein-Westfalen"}},{"name":"Im Freihof","postalCode":"46569","locality":"Hünxe","municipality":{"key":"05170016","name":"Hünxe","type":"Kreisangehörige_Gemeinde"},"district":{"key":"05170","name":"Wesel","type":"Kreis"},"federalState":{"key":"05","name":"Nordrhein-Westfalen"}},{"name":"Im Großen Feld","postalCode":"46569","locality":"Hünxe","municipality":{"key":"05170016","name":"Hünxe","type":"Kreisangehörige_Gemeinde"},"district":{"key":"05170","name":"Wesel","type":"Kreis"},"federalState":{"key":"05","name":"Nordrhein-Westfalen"}},{"name":"Im Sand","postalCode":"46569","locality":"Hünxe","municipality":{"key":"05170016","name":"Hünxe","type":"Kreisangehörige_Gemeinde"},"district":{"key":"05170","name":"Wesel","type":"Kreis"},"federalState":{"key":"05","name":"Nordrhein-Westfalen"}},{"name":"In den Elsen","postalCode":"46569","locality":"Hünxe","municipality":{"key":"05170016","name":"Hünxe","type":"Kreisangehörige_Gemeinde"},"district":{"key":"05170","name":"Wesel","type":"Kreis"},"federalState":{"key":"05","name":"Nordrhein-Westfalen"}},{"name":"In der Aue","postalCode":"46569","locality":"Hünxe","municipality":{"key":"05170016","name":"Hünxe","type":"Kreisangehörige_Gemeinde"},"district":{"key":"05170","name":"Wesel","type":"Kreis"},"federalState":{"key":"05","name":"Nordrhein-Westfalen"}},{"name":"In der Beckuhl","postalCode":"46569","locality":"Hünxe","municipality":{"key":"05170016","name":"Hünxe","type":"Kreisangehörige_Gemeinde"},"district":{"key":"05170","name":"Wesel","type":"Kreis"},"federalState":{"key":"05","name":"Nordrhein-Westfalen"}},{"name":"Junkers Feld","postalCode":"46569","locality":"Hünxe","municipality":{"key":"05170016","name":"Hünxe","type":"Kreisangehörige_Gemeinde"},"district":{"key":"05170","name":"Wesel","type":"Kreis"},"federalState":{"key":"05","name":"Nordrhein-Westfalen"}},{"name":"Keilerstr.","postalCode":"46569","locality":"Hünxe","municipality":{"key":"05170016","name":"Hünxe","type":"Kreisangehörige_Gemeinde"},"district":{"key":"05170","name":"Wesel","type":"Kreis"},"federalState":{"key":"05","name":"Nordrhein-Westfalen"}},{"name":"Keilerweg","postalCode":"46569","locality":"Hünxe","municipality":{"key":"05170016","name":"Hünxe","type":"Kreisangehörige_Gemeinde"},"district":{"key":"05170","name":"Wesel","type":"Kreis"},"federalState":{"key":"05","name":"Nordrhein-Westfalen"}},{"name":"Keltenweg","postalCode":"46569","locality":"Hünxe","municipality":{"key":"05170016","name":"Hünxe","type":"Kreisangehörige_Gemeinde"},"district":{"key":"05170","name":"Wesel","type":"Kreis"},"federalState":{"key":"05","name":"Nordrhein-Westfalen"}},{"name":"Kiefernweg","postalCode":"46569","locality":"Hünxe","municipality":{"key":"05170016","name":"Hünxe","type":"Kreisangehörige_Gemeinde"},"district":{"key":"05170","name":"Wesel","type":"Kreis"},"federalState":{"key":"05","name":"Nordrhein-Westfalen"}},{"name":"Kirchstr.","postalCode":"46569","locality":"Hünxe","municipality":{"key":"05170016","name":"Hünxe","type":"Kreisangehörige_Gemeinde"},"district":{"key":"05170","name":"Wesel","type":"Kreis"},"federalState":{"key":"05","name":"Nordrhein-Westfalen"}},{"name":"Kirchweg","postalCode":"46569","locality":"Hünxe","municipality":{"key":"05170016","name":"Hünxe","type":"Kreisangehörige_Gemeinde"},"district":{"key":"05170","name":"Wesel","type":"Kreis"},"federalState":{"key":"05","name":"Nordrhein-Westfalen"}},{"name":"Kleiner Feldweg","postalCode":"46569","locality":"Hünxe","municipality":{"key":"05170016","name":"Hünxe","type":"Kreisangehörige_Gemeinde"},"district":{"key":"05170","name":"Wesel","type":"Kreis"},"federalState":{"key":"05","name":"Nordrhein-Westfalen"}},{"name":"Kleiner Steg","postalCode":"46569","locality":"Hünxe","municipality":{"key":"05170016","name":"Hünxe","type":"Kreisangehörige_Gemeinde"},"district":{"key":"05170","name":"Wesel","type":"Kreis"},"federalState":{"key":"05","name":"Nordrhein-Westfalen"}},{"name":"Klever Str.","postalCode":"46569","locality":"Hünxe","municipality":{"key":"05170016","name":"Hünxe","type":"Kreisangehörige_Gemeinde"},"district":{"key":"05170","name":"Wesel","type":"Kreis"},"federalState":{"key":"05","name":"Nordrhein-Westfalen"}},{"name":"Knuppelweg","postalCode":"46569","locality":"Hünxe","municipality":{"key":"05170016","name":"Hünxe","type":"Kreisangehörige_Gemeinde"},"district":{"key":"05170","name":"Wesel","type":"Kreis"},"federalState":{"key":"05","name":"Nordrhein-Westfalen"}},{"name":"Kolkstege","postalCode":"46569","locality":"Hünxe","municipality":{"key":"05170016","name":"Hünxe","type":"Kreisangehörige_Gemeinde"},"district":{"key":"05170","name":"Wesel","type":"Kreis"},"federalState":{"key":"05","name":"Nordrhein-Westfalen"}},{"name":"Kost-im-Busch-Weg","postalCode":"46569","locality":"Hünxe","municipality":{"key":"05170016","name":"Hünxe","type":"Kreisangehörige_Gemeinde"},"district":{"key":"05170","name":"Wesel","type":"Kreis"},"federalState":{"key":"05","name":"Nordrhein-Westfalen"}},{"name":"Krudenburger Str.","postalCode":"46569","locality":"Hünxe","municipality":{"key":"05170016","name":"Hünxe","type":"Kreisangehörige_Gemeinde"},"district":{"key":"05170","name":"Wesel","type":"Kreis"},"federalState":{"key":"05","name":"Nordrhein-Westfalen"}},{"name":"Kuhweg","postalCode":"46569","locality":"Hünxe","municipality":{"key":"05170016","name":"Hünxe","type":"Kreisangehörige_Gemeinde"},"district":{"key":"05170","name":"Wesel","type":"Kreis"},"federalState":{"key":"05","name":"Nordrhein-Westfalen"}},{"name":"Küsterstege","postalCode":"46569","locality":"Hünxe","municipality":{"key":"05170016","name":"Hünxe","type":"Kreisangehörige_Gemeinde"},"district":{"key":"05170","name":"Wesel","type":"Kreis"},"federalState":{"key":"05","name":"Nordrhein-Westfalen"}},{"name":"Kutzersstege","postalCode":"46569","locality":"Hünxe","municipality":{"key":"05170016","name":"Hünxe","type":"Kreisangehörige_Gemeinde"},"district":{"key":"05170","name":"Wesel","type":"Kreis"},"federalState":{"key":"05","name":"Nordrhein-Westfalen"}},{"name":"Langer Weg","postalCode":"46569","locality":"Hünxe","municipality":{"key":"05170016","name":"Hünxe","type":"Kreisangehörige_Gemeinde"},"district":{"key":"05170","name":"Wesel","type":"Kreis"},"federalState":{"key":"05","name":"Nordrhein-Westfalen"}},{"name":"Lanter","postalCode":"46569","locality":"Hünxe","municipality":{"key":"05170016","name":"Hünxe","type":"Kreisangehörige_Gemeinde"},"district":{"key":"05170","name":"Wesel","type":"Kreis"},"federalState":{"key":"05","name":"Nordrhein-Westfalen"}},{"name":"Lärchenweg","postalCode":"46569","locality":"Hünxe","municipality":{"key":"05170016","name":"Hünxe","type":"Kreisangehörige_Gemeinde"},"district":{"key":"05170","name":"Wesel","type":"Kreis"},"federalState":{"key":"05","name":"Nordrhein-Westfalen"}},{"name":"Lehmweg","postalCode":"46569","locality":"Hünxe","municipality":{"key":"05170016","name":"Hünxe","type":"Kreisangehörige_Gemeinde"},"district":{"key":"05170","name":"Wesel","type":"Kreis"},"federalState":{"key":"05","name":"Nordrhein-Westfalen"}},{"name":"Lipperhofweg","postalCode":"46569","locality":"Hünxe","municipality":{"key":"05170016","name":"Hünxe","type":"Kreisangehörige_Gemeinde"},"district":{"key":"05170","name":"Wesel","type":"Kreis"},"federalState":{"key":"05","name":"Nordrhein-Westfalen"}},{"name":"Lippeweg","postalCode":"46569","locality":"Hünxe","municipality":{"key":"05170016","name":"Hünxe","type":"Kreisangehörige_Gemeinde"},"district":{"key":"05170","name":"Wesel","type":"Kreis"},"federalState":{"key":"05","name":"Nordrhein-Westfalen"}},{"name":"Lüttenkamp","postalCode":"46569","locality":"Hünxe","municipality":{"key":"05170016","name":"Hünxe","type":"Kreisangehörige_Gemeinde"},"district":{"key":"05170","name":"Wesel","type":"Kreis"},"federalState":{"key":"05","name":"Nordrhein-Westfalen"}},{"name":"Marienthaler Str.","postalCode":"46569","locality":"Hünxe","municipality":{"key":"05170016","name":"Hünxe","type":"Kreisangehörige_Gemeinde"},"district":{"key":"05170","name":"Wesel","type":"Kreis"},"federalState":{"key":"05","name":"Nordrhein-Westfalen"}},{"name":"Meesenweg","postalCode":"46569","locality":"Hünxe","municipality":{"key":"05170016","name":"Hünxe","type":"Kreisangehörige_Gemeinde"},"district":{"key":"05170","name":"Wesel","type":"Kreis"},"federalState":{"key":"05","name":"Nordrhein-Westfalen"}},{"name":"Minnekenstege","postalCode":"46569","locality":"Hünxe","municipality":{"key":"05170016","name":"Hünxe","type":"Kreisangehörige_Gemeinde"},"district":{"key":"05170","name":"Wesel","type":"Kreis"},"federalState":{"key":"05","name":"Nordrhein-Westfalen"}},{"name":"Möllekensfeld","postalCode":"46569","locality":"Hünxe","municipality":{"key":"05170016","name":"Hünxe","type":"Kreisangehörige_Gemeinde"},"district":{"key":"05170","name":"Wesel","type":"Kreis"},"federalState":{"key":"05","name":"Nordrhein-Westfalen"}},{"name":"Möllenweg","postalCode":"46569","locality":"Hünxe","municipality":{"key":"05170016","name":"Hünxe","type":"Kreisangehörige_Gemeinde"},"district":{"key":"05170","name":"Wesel","type":"Kreis"},"federalState":{"key":"05","name":"Nordrhein-Westfalen"}},{"name":"Mössenbergweg","postalCode":"46569","locality":"Hünxe","municipality":{"key":"05170016","name":"Hünxe","type":"Kreisangehörige_Gemeinde"},"district":{"key":"05170","name":"Wesel","type":"Kreis"},"federalState":{"key":"05","name":"Nordrhein-Westfalen"}},{"name":"Mühlenhof","postalCode":"46569","locality":"Hünxe","municipality":{"key":"05170016","name":"Hünxe","type":"Kreisangehörige_Gemeinde"},"district":{"key":"05170","name":"Wesel","type":"Kreis"},"federalState":{"key":"05","name":"Nordrhein-Westfalen"}},{"name":"Mühlenweg","postalCode":"46569","locality":"Hünxe","municipality":{"key":"05170016","name":"Hünxe","type":"Kreisangehörige_Gemeinde"},"district":{"key":"05170","name":"Wesel","type":"Kreis"},"federalState":{"key":"05","name":"Nordrhein-Westfalen"}},{"name":"Mühlenwinkel","postalCode":"46569","locality":"Hünxe","municipality":{"key":"05170016","name":"Hünxe","type":"Kreisangehörige_Gemeinde"},"district":{"key":"05170","name":"Wesel","type":"Kreis"},"federalState":{"key":"05","name":"Nordrhein-Westfalen"}},{"name":"Nelkenstr.","postalCode":"46569","locality":"Hünxe","municipality":{"key":"05170016","name":"Hünxe","type":"Kreisangehörige_Gemeinde"},"district":{"key":"05170","name":"Wesel","type":"Kreis"},"federalState":{"key":"05","name":"Nordrhein-Westfalen"}},{"name":"Olle Beek","postalCode":"46569","locality":"Hünxe","municipality":{"key":"05170016","name":"Hünxe","type":"Kreisangehörige_Gemeinde"},"district":{"key":"05170","name":"Wesel","type":"Kreis"},"federalState":{"key":"05","name":"Nordrhein-Westfalen"}},{"name":"Oprielshof","postalCode":"46569","locality":"Hünxe","municipality":{"key":"05170016","name":"Hünxe","type":"Kreisangehörige_Gemeinde"},"district":{"key":"05170","name":"Wesel","type":"Kreis"},"federalState":{"key":"05","name":"Nordrhein-Westfalen"}},{"name":"Opschlagweg","postalCode":"46569","locality":"Hünxe","municipality":{"key":"05170016","name":"Hünxe","type":"Kreisangehörige_Gemeinde"},"district":{"key":"05170","name":"Wesel","type":"Kreis"},"federalState":{"key":"05","name":"Nordrhein-Westfalen"}},{"name":"Otto-Pankok-Weg","postalCode":"46569","locality":"Hünxe","municipality":{"key":"05170016","name":"Hünxe","type":"Kreisangehörige_Gemeinde"},"district":{"key":"05170","name":"Wesel","type":"Kreis"},"federalState":{"key":"05","name":"Nordrhein-Westfalen"}},{"name":"Peddenberger Str.","postalCode":"46569","locality":"Hünxe","municipality":{"key":"05170016","name":"Hünxe","type":"Kreisangehörige_Gemeinde"},"district":{"key":"05170","name":"Wesel","type":"Kreis"},"federalState":{"key":"05","name":"Nordrhein-Westfalen"}},{"name":"Platanenweg","postalCode":"46569","locality":"Hünxe","municipality":{"key":"05170016","name":"Hünxe","type":"Kreisangehörige_Gemeinde"},"district":{"key":"05170","name":"Wesel","type":"Kreis"},"federalState":{"key":"05","name":"Nordrhein-Westfalen"}},{"name":"Pömpers Feld","postalCode":"46569","locality":"Hünxe","municipality":{"key":"05170016","name":"Hünxe","type":"Kreisangehörige_Gemeinde"},"district":{"key":"05170","name":"Wesel","type":"Kreis"},"federalState":{"key":"05","name":"Nordrhein-Westfalen"}},{"name":"Postweg","postalCode":"46569","locality":"Hünxe","municipality":{"key":"05170016","name":"Hünxe","type":"Kreisangehörige_Gemeinde"},"district":{"key":"05170","name":"Wesel","type":"Kreis"},"federalState":{"key":"05","name":"Nordrhein-Westfalen"}},{"name":"Quadenweg","postalCode":"46485","locality":"Wesel","municipality":{"key":"05170048","name":"Wesel, Stadt","type":"Stadt"},"district":{"key":"05170","name":"Wesel","type":"Kreis"},"federalState":{"key":"05","name":"Nordrhein-Westfalen"}},{"name":"Querstr.","postalCode":"46487","locality":"Wesel","municipality":{"key":"05170048","name":"Wesel, Stadt","type":"Stadt"},"district":{"key":"05170","name":"Wesel","type":"Kreis"},"federalState":{"key":"05","name":"Nordrhein-Westfalen"}},{"name":"Raasweg","postalCode":"46569","locality":"Hünxe","municipality":{"key":"05170016","name":"Hünxe","type":"Kreisangehörige_Gemeinde"},"district":{"key":"05170","name":"Wesel","type":"Kreis"},"federalState":{"key":"05","name":"Nordrhein-Westfalen"}},{"name":"Riedgarten","postalCode":"46569","locality":"Hünxe","municipality":{"key":"05170016","name":"Hünxe","type":"Kreisangehörige_Gemeinde"},"district":{"key":"05170","name":"Wesel","type":"Kreis"},"federalState":{"key":"05","name":"Nordrhein-Westfalen"}},{"name":"Römerweg","postalCode":"46569","locality":"Hünxe","municipality":{"key":"05170016","name":"Hünxe","type":"Kreisangehörige_Gemeinde"},"district":{"key":"05170","name":"Wesel","type":"Kreis"},"federalState":{"key":"05","name":"Nordrhein-Westfalen"}},{"name":"Rosenweg","postalCode":"46569","locality":"Hünxe","municipality":{"key":"05170016","name":"Hünxe","type":"Kreisangehörige_Gemeinde"},"district":{"key":"05170","name":"Wesel","type":"Kreis"},"federalState":{"key":"05","name":"Nordrhein-Westfalen"}},{"name":"Sandkamp","postalCode":"46569","locality":"Hünxe","municipality":{"key":"05170016","name":"Hünxe","type":"Kreisangehörige_Gemeinde"},"district":{"key":"05170","name":"Wesel","type":"Kreis"},"federalState":{"key":"05","name":"Nordrhein-Westfalen"}},{"name":"Scheperstr.","postalCode":"46569","locality":"Hünxe","municipality":{"key":"05170016","name":"Hünxe","type":"Kreisangehörige_Gemeinde"},"district":{"key":"05170","name":"Wesel","type":"Kreis"},"federalState":{"key":"05","name":"Nordrhein-Westfalen"}},{"name":"Schermbecker Landstr.","postalCode":"46569","locality":"Hünxe","municipality":{"key":"05170016","name":"Hünxe","type":"Kreisangehörige_Gemeinde"},"district":{"key":"05170","name":"Wesel","type":"Kreis"},"federalState":{"key":"05","name":"Nordrhein-Westfalen"}},{"name":"Schillerweg","postalCode":"46569","locality":"Hünxe","municipality":{"key":"05170016","name":"Hünxe","type":"Kreisangehörige_Gemeinde"},"district":{"key":"05170","name":"Wesel","type":"Kreis"},"federalState":{"key":"05","name":"Nordrhein-Westfalen"}},{"name":"Schmelten-Heide","postalCode":"46569","locality":"Hünxe","municipality":{"key":"05170016","name":"Hünxe","type":"Kreisangehörige_Gemeinde"},"district":{"key":"05170","name":"Wesel","type":"Kreis"},"federalState":{"key":"05","name":"Nordrhein-Westfalen"}},{"name":"Scholtenhof","postalCode":"46569","locality":"Hünxe","municipality":{"key":"05170016","name":"Hünxe","type":"Kreisangehörige_Gemeinde"},"district":{"key":"05170","name":"Wesel","type":"Kreis"},"federalState":{"key":"05","name":"Nordrhein-Westfalen"}},{"name":"Schöltjenshof","postalCode":"46569","locality":"Hünxe","municipality":{"key":"05170016","name":"Hünxe","type":"Kreisangehörige_Gemeinde"},"district":{"key":"05170","name":"Wesel","type":"Kreis"},"federalState":{"key":"05","name":"Nordrhein-Westfalen"}},{"name":"Schützenstr.","postalCode":"46569","locality":"Hünxe","municipality":{"key":"05170016","name":"Hünxe","type":"Kreisangehörige_Gemeinde"},"district":{"key":"05170","name":"Wesel","type":"Kreis"},"federalState":{"key":"05","name":"Nordrhein-Westfalen"}},{"name":"Schwarze Heide","postalCode":"46569","locality":"Hünxe","municipality":{"key":"05170016","name":"Hünxe","type":"Kreisangehörige_Gemeinde"},"district":{"key":"05170","name":"Wesel","type":"Kreis"},"federalState":{"key":"05","name":"Nordrhein-Westfalen"}},{"name":"Schwarzensteiner Weg","postalCode":"46569","locality":"Hünxe","municipality":{"key":"05170016","name":"Hünxe","type":"Kreisangehörige_Gemeinde"},"district":{"key":"05170","name":"Wesel","type":"Kreis"},"federalState":{"key":"05","name":"Nordrhein-Westfalen"}},{"name":"Schwarzer Weg","postalCode":"46569","locality":"Hünxe","municipality":{"key":"05170016","name":"Hünxe","type":"Kreisangehörige_Gemeinde"},"district":{"key":"05170","name":"Wesel","type":"Kreis"},"federalState":{"key":"05","name":"Nordrhein-Westfalen"}},{"name":"Seikampsweg","postalCode":"46569","locality":"Hünxe","municipality":{"key":"05170016","name":"Hünxe","type":"Kreisangehörige_Gemeinde"},"district":{"key":"05170","name":"Wesel","type":"Kreis"},"federalState":{"key":"05","name":"Nordrhein-Westfalen"}},{"name":"Soldatengrabweg","postalCode":"46569","locality":"Hünxe","municipality":{"key":"05170016","name":"Hünxe","type":"Kreisangehörige_Gemeinde"},"district":{"key":"05170","name":"Wesel","type":"Kreis"},"federalState":{"key":"05","name":"Nordrhein-Westfalen"}},{"name":"Sondersweg","postalCode":"46569","locality":"Hünxe","municipality":{"key":"05170016","name":"Hünxe","type":"Kreisangehörige_Gemeinde"},"district":{"key":"05170","name":"Wesel","type":"Kreis"},"federalState":{"key":"05","name":"Nordrhein-Westfalen"}},{"name":"Spickerweg","postalCode":"46569","locality":"Hünxe","municipality":{"key":"05170016","name":"Hünxe","type":"Kreisangehörige_Gemeinde"},"district":{"key":"05170","name":"Wesel","type":"Kreis"},"federalState":{"key":"05","name":"Nordrhein-Westfalen"}},{"name":"Spillendreher","postalCode":"46569","locality":"Hünxe","municipality":{"key":"05170016","name":"Hünxe","type":"Kreisangehörige_Gemeinde"},"district":{"key":"05170","name":"Wesel","type":"Kreis"},"federalState":{"key":"05","name":"Nordrhein-Westfalen"}},{"name":"Stallbergweg","postalCode":"46569","locality":"Hünxe","municipality":{"key":"05170016","name":"Hünxe","type":"Kreisangehörige_Gemeinde"},"district":{"key":"05170","name":"Wesel","type":"Kreis"},"federalState":{"key":"05","name":"Nordrhein-Westfalen"}},{"name":"Stegerfeld","postalCode":"46569","locality":"Hünxe","municipality":{"key":"05170016","name":"Hünxe","type":"Kreisangehörige_Gemeinde"},"district":{"key":"05170","name":"Wesel","type":"Kreis"},"federalState":{"key":"05","name":"Nordrhein-Westfalen"}},{"name":"Steinbrinkstr.","postalCode":"46569","locality":"Hünxe","municipality":{"key":"05170016","name":"Hünxe","type":"Kreisangehörige_Gemeinde"},"district":{"key":"05170","name":"Wesel","type":"Kreis"},"federalState":{"key":"05","name":"Nordrhein-Westfalen"}},{"name":"Stenderhof","postalCode":"46569","locality":"Hünxe","municipality":{"key":"05170016","name":"Hünxe","type":"Kreisangehörige_Gemeinde"},"district":{"key":"05170","name":"Wesel","type":"Kreis"},"federalState":{"key":"05","name":"Nordrhein-Westfalen"}},{"name":"Sternweg","postalCode":"46569","locality":"Hünxe","municipality":{"key":"05170016","name":"Hünxe","type":"Kreisangehörige_Gemeinde"},"district":{"key":"05170","name":"Wesel","type":"Kreis"},"federalState":{"key":"05","name":"Nordrhein-Westfalen"}},{"name":"Südturmweg","postalCode":"46569","locality":"Hünxe","municipality":{"key":"05170016","name":"Hünxe","type":"Kreisangehörige_Gemeinde"},"district":{"key":"05170","name":"Wesel","type":"Kreis"},"federalState":{"key":"05","name":"Nordrhein-Westfalen"}},{"name":"Tenderingsweg","postalCode":"46569","locality":"Hünxe","municipality":{"key":"05170016","name":"Hünxe","type":"Kreisangehörige_Gemeinde"},"district":{"key":"05170","name":"Wesel","type":"Kreis"},"federalState":{"key":"05","name":"Nordrhein-Westfalen"}},{"name":"Testerweg","postalCode":"46569","locality":"Hünxe","municipality":{"key":"05170016","name":"Hünxe","type":"Kreisangehörige_Gemeinde"},"district":{"key":"05170","name":"Wesel","type":"Kreis"},"federalState":{"key":"05","name":"Nordrhein-Westfalen"}},{"name":"Teufelssteinweg","postalCode":"46569","locality":"Hünxe","municipality":{"key":"05170016","name":"Hünxe","type":"Kreisangehörige_Gemeinde"},"district":{"key":"05170","name":"Wesel","type":"Kreis"},"federalState":{"key":"05","name":"Nordrhein-Westfalen"}},{"name":"Tulpenstr.","postalCode":"46569","locality":"Hünxe","municipality":{"key":"05170016","name":"Hünxe","type":"Kreisangehörige_Gemeinde"},"district":{"key":"05170","name":"Wesel","type":"Kreis"},"federalState":{"key":"05","name":"Nordrhein-Westfalen"}},{"name":"Uferstr.","postalCode":"46483","locality":"Wesel","municipality":{"key":"05170048","name":"Wesel, Stadt","type":"Stadt"},"district":{"key":"05170","name":"Wesel","type":"Kreis"},"federalState":{"key":"05","name":"Nordrhein-Westfalen"}},{"name":"Uhlandweg","postalCode":"46487","locality":"Wesel","municipality":{"key":"05170048","name":"Wesel, Stadt","type":"Stadt"},"district":{"key":"05170","name":"Wesel","type":"Kreis"},"federalState":{"key":"05","name":"Nordrhein-Westfalen"}},{"name":"Ullrichstr.","postalCode":"46485","locality":"Wesel","municipality":{"key":"05170048","name":"Wesel, Stadt","type":"Stadt"},"district":{"key":"05170","name":"Wesel","type":"Kreis"},"federalState":{"key":"05","name":"Nordrhein-Westfalen"}},{"name":"Ulmenstr.","postalCode":"46485","locality":"Wesel","municipality":{"key":"05170048","name":"Wesel, Stadt","type":"Stadt"},"district":{"key":"05170","name":"Wesel","type":"Kreis"},"federalState":{"key":"05","name":"Nordrhein-Westfalen"}},{"name":"Unterstr.","postalCode":"55430","locality":"Oberwesel","municipality":{"key":"07140112","name":"Oberwesel, Stadt","type":"Stadt"},"district":{"key":"07140","name":"Rhein-Hunsrück-Kreis","type":"Landkreis"},"federalState":{"key":"07","name":"Rheinland-Pfalz"}},{"name":"Urbarer Ellig","postalCode":"55430","locality":"Oberwesel","municipality":{"key":"07140112","name":"Oberwesel, Stadt","type":"Stadt"},"district":{"key":"07140","name":"Rhein-Hunsrück-Kreis","type":"Landkreis"},"federalState":{"key":"07","name":"Rheinland-Pfalz"}},{"name":"Ursulaweg","postalCode":"46483","locality":"Wesel","municipality":{"key":"05170048","name":"Wesel, Stadt","type":"Stadt"},"district":{"key":"05170","name":"Wesel","type":"Kreis"},"federalState":{"key":"05","name":"Nordrhein-Westfalen"}},{"name":"Vennweg","postalCode":"46569","locality":"Hünxe","municipality":{"key":"05170016","name":"Hünxe","type":"Kreisangehörige_Gemeinde"},"district":{"key":"05170","name":"Wesel","type":"Kreis"},"federalState":{"key":"05","name":"Nordrhein-Westfalen"}},{"name":"Voßkampsfeld","postalCode":"46569","locality":"Hünxe","municipality":{"key":"05170016","name":"Hünxe","type":"Kreisangehörige_Gemeinde"},"district":{"key":"05170","name":"Wesel","type":"Kreis"},"federalState":{"key":"05","name":"Nordrhein-Westfalen"}},{"name":"Waldheideweg","postalCode":"46569","locality":"Hünxe","municipality":{"key":"05170016","name":"Hünxe","type":"Kreisangehörige_Gemeinde"},"district":{"key":"05170","name":"Wesel","type":"Kreis"},"federalState":{"key":"05","name":"Nordrhein-Westfalen"}},{"name":"Waldweg","postalCode":"46569","locality":"Hünxe","municipality":{"key":"05170016","name":"Hünxe","type":"Kreisangehörige_Gemeinde"},"district":{"key":"05170","name":"Wesel","type":"Kreis"},"federalState":{"key":"05","name":"Nordrhein-Westfalen"}},{"name":"Waldwinkel","postalCode":"46569","locality":"Hünxe","municipality":{"key":"05170016","name":"Hünxe","type":"Kreisangehörige_Gemeinde"},"district":{"key":"05170","name":"Wesel","type":"Kreis"},"federalState":{"key":"05","name":"Nordrhein-Westfalen"}},{"name":"Weseler Str.","postalCode":"46569","locality":"Hünxe","municipality":{"key":"05170016","name":"Hünxe","type":"Kreisangehörige_Gemeinde"},"district":{"key":"05170","name":"Wesel","type":"Kreis"},"federalState":{"key":"05","name":"Nordrhein-Westfalen"}},{"name":"Wilhelm-Busch-Weg","postalCode":"46569","locality":"Hünxe","municipality":{"key":"05170016","name":"Hünxe","type":"Kreisangehörige_Gemeinde"},"district":{"key":"05170","name":"Wesel","type":"Kreis"},"federalState":{"key":"05","name":"Nordrhein-Westfalen"}},{"name":"Wilhelmstr.","postalCode":"46569","locality":"Hünxe","municipality":{"key":"05170016","name":"Hünxe","type":"Kreisangehörige_Gemeinde"},"district":{"key":"05170","name":"Wesel","type":"Kreis"},"federalState":{"key":"05","name":"Nordrhein-Westfalen"}},{"name":"Wurmflakstr.","postalCode":"46569","locality":"Hünxe","municipality":{"key":"05170016","name":"Hünxe","type":"Kreisangehörige_Gemeinde"},"district":{"key":"05170","name":"Wesel","type":"Kreis"},"federalState":{"key":"05","name":"Nordrhein-Westfalen"}},{"name":"Wurzelfurth","postalCode":"46569","locality":"Hünxe","municipality":{"key":"05170016","name":"Hünxe","type":"Kreisangehörige_Gemeinde"},"district":{"key":"05170","name":"Wesel","type":"Kreis"},"federalState":{"key":"05","name":"Nordrhein-Westfalen"}},{"name":"Xantener Str.","postalCode":"46487","locality":"Wesel","municipality":{"key":"05170048","name":"Wesel, Stadt","type":"Stadt"},"district":{"key":"05170","name":"Wesel","type":"Kreis"},"federalState":{"key":"05","name":"Nordrhein-Westfalen"}},{"name":"Yorckstr.","postalCode":"46485","locality":"Wesel","municipality":{"key":"05170048","name":"Wesel, Stadt","type":"Stadt"},"district":{"key":"05170","name":"Wesel","type":"Kreis"},"federalState":{"key":"05","name":"Nordrhein-Westfalen"}},{"name":"Zum Aansberg","postalCode":"46569","locality":"Hünxe","municipality":{"key":"05170016","name":"Hünxe","type":"Kreisangehörige_Gemeinde"},"district":{"key":"05170","name":"Wesel","type":"Kreis"},"federalState":{"key":"05","name":"Nordrhein-Westfalen"}},{"name":"Zum Alten Pastorat","postalCode":"46569","locality":"Hünxe","municipality":{"key":"05170016","name":"Hünxe","type":"Kreisangehörige_Gemeinde"},"district":{"key":"05170","name":"Wesel","type":"Kreis"},"federalState":{"key":"05","name":"Nordrhein-Westfalen"}},{"name":"Zur Alten Schmiede","postalCode":"46569","locality":"Hünxe","municipality":{"key":"05170016","name":"Hünxe","type":"Kreisangehörige_Gemeinde"},"district":{"key":"05170","name":"Wesel","type":"Kreis"},"federalState":{"key":"05","name":"Nordrhein-Westfalen"}},{"name":"Zur Alten Schule","postalCode":"46569","locality":"Hünxe","municipality":{"key":"05170016","name":"Hünxe","type":"Kreisangehörige_Gemeinde"},"district":{"key":"05170","name":"Wesel","type":"Kreis"},"federalState":{"key":"05","name":"Nordrhein-Westfalen"}},{"name":"Zur Langen Brücke","postalCode":"46569","locality":"Hünxe","municipality":{"key":"05170016","name":"Hünxe","type":"Kreisangehörige_Gemeinde"},"district":{"key":"05170","name":"Wesel","type":"Kreis"},"federalState":{"key":"05","name":"Nordrhein-Westfalen"}},]