[{"name":"Ackerstr.","postalCode":"06925","locality":"Annaburg","municipality":{"key":"15091010","name":"Annaburg, Stadt","type":"Stadt"},"district":{"key":"15091","name":"Wittenberg","type":"Landkreis"},"federalState":{"key":"15","name":"Sachsen-Anhalt"}},{"name":"Alte Bahnhofsstr.","postalCode":"06925","locality":"Annaburg","municipality":{"key":"15091010","name":"Annaburg, Stadt","type":"Stadt"},"district":{"key":"15091","name":"Wittenberg","type":"Landkreis"},"federalState":{"key":"15","name":"Sachsen-Anhalt"}},{"name":"Am Bruch","postalCode":"06925","locality":"Annaburg","municipality":{"key":"15091010","name":"Annaburg, Stadt","type":"Stadt"},"district":{"key":"15091","name":"Wittenberg","type":"Landkreis"},"federalState":{"key":"15","name":"Sachsen-Anhalt"}},{"name":"Am Bruchflügel","postalCode":"06925","locality":"Annaburg","municipality":{"key":"15091010","name":"Annaburg, Stadt","type":"Stadt"},"district":{"key":"15091","name":"Wittenberg","type":"Landkreis"},"federalState":{"key":"15","name":"Sachsen-Anhalt"}},{"name":"Am Dorfteich","postalCode":"06925","locality":"Annaburg","municipality":{"key":"15091010","name":"Annaburg, Stadt","type":"Stadt"},"district":{"key":"15091","name":"Wittenberg","type":"Landkreis"},"federalState":{"key":"15","name":"Sachsen-Anhalt"}},{"name":"Am Gaswerk","postalCode":"06925","locality":"Annaburg","municipality":{"key":"15091010","name":"Annaburg, Stadt","type":"Stadt"},"district":{"key":"15091","name":"Wittenberg","type":"Landkreis"},"federalState":{"key":"15","name":"Sachsen-Anhalt"}},{"name":"Am Güterbahnhof","postalCode":"06925","locality":"Annaburg","municipality":{"key":"15091010","name":"Annaburg, Stadt","type":"Stadt"},"district":{"key":"15091","name":"Wittenberg","type":"Landkreis"},"federalState":{"key":"15","name":"Sachsen-Anhalt"}},{"name":"Am Hellersteg","postalCode":"06925","locality":"Annaburg","municipality":{"key":"15091010","name":"Annaburg, Stadt","type":"Stadt"},"district":{"key":"15091","name":"Wittenberg","type":"Landkreis"},"federalState":{"key":"15","name":"Sachsen-Anhalt"}},{"name":"Am Neugraben","postalCode":"06925","locality":"Annaburg","municipality":{"key":"15091010","name":"Annaburg, Stadt","type":"Stadt"},"district":{"key":"15091","name":"Wittenberg","type":"Landkreis"},"federalState":{"key":"15","name":"Sachsen-Anhalt"}},{"name":"Amselgrund","postalCode":"06925","locality":"Annaburg","municipality":{"key":"15091010","name":"Annaburg, Stadt","type":"Stadt"},"district":{"key":"15091","name":"Wittenberg","type":"Landkreis"},"federalState":{"key":"15","name":"Sachsen-Anhalt"}},{"name":"Amselweg","postalCode":"06925","locality":"Annaburg","municipality":{"key":"15091010","name":"Annaburg, Stadt","type":"Stadt"},"district":{"key":"15091","name":"Wittenberg","type":"Landkreis"},"federalState":{"key":"15","name":"Sachsen-Anhalt"}},{"name":"Am Sportplatz","postalCode":"06925","locality":"Annaburg","municipality":{"key":"15091010","name":"Annaburg, Stadt","type":"Stadt"},"district":{"key":"15091","name":"Wittenberg","type":"Landkreis"},"federalState":{"key":"15","name":"Sachsen-Anhalt"}},{"name":"Am Stadion","postalCode":"06925","locality":"Annaburg","municipality":{"key":"15091010","name":"Annaburg, Stadt","type":"Stadt"},"district":{"key":"15091","name":"Wittenberg","type":"Landkreis"},"federalState":{"key":"15","name":"Sachsen-Anhalt"}},{"name":"Am Teich","postalCode":"06925","locality":"Annaburg","municipality":{"key":"15091010","name":"Annaburg, Stadt","type":"Stadt"},"district":{"key":"15091","name":"Wittenberg","type":"Landkreis"},"federalState":{"key":"15","name":"Sachsen-Anhalt"}},{"name":"An der Alten Ziegelei","postalCode":"06925","locality":"Annaburg","municipality":{"key":"15091010","name":"Annaburg, Stadt","type":"Stadt"},"district":{"key":"15091","name":"Wittenberg","type":"Landkreis"},"federalState":{"key":"15","name":"Sachsen-Anhalt"}},{"name":"An der Heide","postalCode":"06925","locality":"Annaburg","municipality":{"key":"15091010","name":"Annaburg, Stadt","type":"Stadt"},"district":{"key":"15091","name":"Wittenberg","type":"Landkreis"},"federalState":{"key":"15","name":"Sachsen-Anhalt"}},{"name":"An der Kirche","postalCode":"06925","locality":"Annaburg","municipality":{"key":"15091010","name":"Annaburg, Stadt","type":"Stadt"},"district":{"key":"15091","name":"Wittenberg","type":"Landkreis"},"federalState":{"key":"15","name":"Sachsen-Anhalt"}},{"name":"An der Lache","postalCode":"06925","locality":"Annaburg","municipality":{"key":"15091010","name":"Annaburg, Stadt","type":"Stadt"},"district":{"key":"15091","name":"Wittenberg","type":"Landkreis"},"federalState":{"key":"15","name":"Sachsen-Anhalt"}},{"name":"An der Lichtenburg","postalCode":"06925","locality":"Annaburg","municipality":{"key":"15091010","name":"Annaburg, Stadt","type":"Stadt"},"district":{"key":"15091","name":"Wittenberg","type":"Landkreis"},"federalState":{"key":"15","name":"Sachsen-Anhalt"}},{"name":"An der Mauer","postalCode":"06925","locality":"Annaburg","municipality":{"key":"15091010","name":"Annaburg, Stadt","type":"Stadt"},"district":{"key":"15091","name":"Wittenberg","type":"Landkreis"},"federalState":{"key":"15","name":"Sachsen-Anhalt"}},{"name":"An der Mühle","postalCode":"06925","locality":"Annaburg","municipality":{"key":"15091010","name":"Annaburg, Stadt","type":"Stadt"},"district":{"key":"15091","name":"Wittenberg","type":"Landkreis"},"federalState":{"key":"15","name":"Sachsen-Anhalt"}},{"name":"An der Schule","postalCode":"06925","locality":"Annaburg","municipality":{"key":"15091010","name":"Annaburg, Stadt","type":"Stadt"},"district":{"key":"15091","name":"Wittenberg","type":"Landkreis"},"federalState":{"key":"15","name":"Sachsen-Anhalt"}},{"name":"Annaburger Str.","postalCode":"06925","locality":"Annaburg","municipality":{"key":"15091010","name":"Annaburg, Stadt","type":"Stadt"},"district":{"key":"15091","name":"Wittenberg","type":"Landkreis"},"federalState":{"key":"15","name":"Sachsen-Anhalt"}},{"name":"Axiener Feldstr.","postalCode":"06925","locality":"Annaburg","municipality":{"key":"15091010","name":"Annaburg, Stadt","type":"Stadt"},"district":{"key":"15091","name":"Wittenberg","type":"Landkreis"},"federalState":{"key":"15","name":"Sachsen-Anhalt"}},{"name":"Axiener Str.","postalCode":"06925","locality":"Annaburg","municipality":{"key":"15091010","name":"Annaburg, Stadt","type":"Stadt"},"district":{"key":"15091","name":"Wittenberg","type":"Landkreis"},"federalState":{"key":"15","name":"Sachsen-Anhalt"}},{"name":"Baderei","postalCode":"06925","locality":"Annaburg","municipality":{"key":"15091010","name":"Annaburg, Stadt","type":"Stadt"},"district":{"key":"15091","name":"Wittenberg","type":"Landkreis"},"federalState":{"key":"15","name":"Sachsen-Anhalt"}},{"name":"Baderstr.","postalCode":"06925","locality":"Annaburg","municipality":{"key":"15091010","name":"Annaburg, Stadt","type":"Stadt"},"district":{"key":"15091","name":"Wittenberg","type":"Landkreis"},"federalState":{"key":"15","name":"Sachsen-Anhalt"}},{"name":"Bahnhofstr.","postalCode":"06925","locality":"Annaburg","municipality":{"key":"15091010","name":"Annaburg, Stadt","type":"Stadt"},"district":{"key":"15091","name":"Wittenberg","type":"Landkreis"},"federalState":{"key":"15","name":"Sachsen-Anhalt"}},{"name":"Bahnhofsweg","postalCode":"06925","locality":"Annaburg","municipality":{"key":"15091010","name":"Annaburg, Stadt","type":"Stadt"},"district":{"key":"15091","name":"Wittenberg","type":"Landkreis"},"federalState":{"key":"15","name":"Sachsen-Anhalt"}},{"name":"Bankbrücke","postalCode":"06925","locality":"Annaburg","municipality":{"key":"15091010","name":"Annaburg, Stadt","type":"Stadt"},"district":{"key":"15091","name":"Wittenberg","type":"Landkreis"},"federalState":{"key":"15","name":"Sachsen-Anhalt"}},{"name":"Baumschulenweg","postalCode":"06925","locality":"Annaburg","municipality":{"key":"15091010","name":"Annaburg, Stadt","type":"Stadt"},"district":{"key":"15091","name":"Wittenberg","type":"Landkreis"},"federalState":{"key":"15","name":"Sachsen-Anhalt"}},{"name":"Betgestr.","postalCode":"06925","locality":"Annaburg","municipality":{"key":"15091010","name":"Annaburg, Stadt","type":"Stadt"},"district":{"key":"15091","name":"Wittenberg","type":"Landkreis"},"federalState":{"key":"15","name":"Sachsen-Anhalt"}},{"name":"Bethau","postalCode":"06925","locality":"Annaburg","municipality":{"key":"15091010","name":"Annaburg, Stadt","type":"Stadt"},"district":{"key":"15091","name":"Wittenberg","type":"Landkreis"},"federalState":{"key":"15","name":"Sachsen-Anhalt"}},{"name":"Bethauer Str.","postalCode":"06925","locality":"Annaburg","municipality":{"key":"15091010","name":"Annaburg, Stadt","type":"Stadt"},"district":{"key":"15091","name":"Wittenberg","type":"Landkreis"},"federalState":{"key":"15","name":"Sachsen-Anhalt"}},{"name":"Birkenweg","postalCode":"06925","locality":"Annaburg","municipality":{"key":"15091010","name":"Annaburg, Stadt","type":"Stadt"},"district":{"key":"15091","name":"Wittenberg","type":"Landkreis"},"federalState":{"key":"15","name":"Sachsen-Anhalt"}},{"name":"Charlottenstr.","postalCode":"06886","locality":"Wittenberg","municipality":{"key":"15091375","name":"Wittenberg, Lutherstadt","type":"Stadt"},"district":{"key":"15091","name":"Wittenberg","type":"Landkreis"},"federalState":{"key":"15","name":"Sachsen-Anhalt"}},{"name":"Clara-Zetkin-Str.","postalCode":"06886","locality":"Wittenberg","municipality":{"key":"15091375","name":"Wittenberg, Lutherstadt","type":"Stadt"},"district":{"key":"15091","name":"Wittenberg","type":"Landkreis"},"federalState":{"key":"15","name":"Sachsen-Anhalt"}},{"name":"Collegienstr.","postalCode":"06886","locality":"Wittenberg","municipality":{"key":"15091375","name":"Wittenberg, Lutherstadt","type":"Stadt"},"district":{"key":"15091","name":"Wittenberg","type":"Landkreis"},"federalState":{"key":"15","name":"Sachsen-Anhalt"}},{"name":"Coswiger Landstr.","postalCode":"06886","locality":"Wittenberg","municipality":{"key":"15091375","name":"Wittenberg, Lutherstadt","type":"Stadt"},"district":{"key":"15091","name":"Wittenberg","type":"Landkreis"},"federalState":{"key":"15","name":"Sachsen-Anhalt"}},{"name":"Cumlosener Str.","postalCode":"19322","locality":"Wittenberge","municipality":{"key":"12070424","name":"Wittenberge, Stadt","type":"Stadt"},"district":{"key":"12070","name":"Prignitz","type":"Landkreis"},"federalState":{"key":"12","name":"Brandenburg"}},{"name":"Das doppelte T","postalCode":"06925","locality":"Annaburg","municipality":{"key":"15091010","name":"Annaburg, Stadt","type":"Stadt"},"district":{"key":"15091","name":"Wittenberg","type":"Landkreis"},"federalState":{"key":"15","name":"Sachsen-Anhalt"}},{"name":"Domäne","postalCode":"06925","locality":"Annaburg","municipality":{"key":"15091010","name":"Annaburg, Stadt","type":"Stadt"},"district":{"key":"15091","name":"Wittenberg","type":"Landkreis"},"federalState":{"key":"15","name":"Sachsen-Anhalt"}},{"name":"Dorfstr.","postalCode":"06925","locality":"Annaburg","municipality":{"key":"15091010","name":"Annaburg, Stadt","type":"Stadt"},"district":{"key":"15091","name":"Wittenberg","type":"Landkreis"},"federalState":{"key":"15","name":"Sachsen-Anhalt"}},{"name":"Drosselweg","postalCode":"06925","locality":"Annaburg","municipality":{"key":"15091010","name":"Annaburg, Stadt","type":"Stadt"},"district":{"key":"15091","name":"Wittenberg","type":"Landkreis"},"federalState":{"key":"15","name":"Sachsen-Anhalt"}},{"name":"Düßnitzer Str.","postalCode":"06925","locality":"Annaburg","municipality":{"key":"15091010","name":"Annaburg, Stadt","type":"Stadt"},"district":{"key":"15091","name":"Wittenberg","type":"Landkreis"},"federalState":{"key":"15","name":"Sachsen-Anhalt"}},{"name":"Elbstr.","postalCode":"06925","locality":"Annaburg","municipality":{"key":"15091010","name":"Annaburg, Stadt","type":"Stadt"},"district":{"key":"15091","name":"Wittenberg","type":"Landkreis"},"federalState":{"key":"15","name":"Sachsen-Anhalt"}},{"name":"Ernst-Thälmann-Str.","postalCode":"06925","locality":"Annaburg","municipality":{"key":"15091010","name":"Annaburg, Stadt","type":"Stadt"},"district":{"key":"15091","name":"Wittenberg","type":"Landkreis"},"federalState":{"key":"15","name":"Sachsen-Anhalt"}},{"name":"Eschenweg","postalCode":"06925","locality":"Annaburg","municipality":{"key":"15091010","name":"Annaburg, Stadt","type":"Stadt"},"district":{"key":"15091","name":"Wittenberg","type":"Landkreis"},"federalState":{"key":"15","name":"Sachsen-Anhalt"}},{"name":"Fährstr.","postalCode":"06925","locality":"Annaburg","municipality":{"key":"15091010","name":"Annaburg, Stadt","type":"Stadt"},"district":{"key":"15091","name":"Wittenberg","type":"Landkreis"},"federalState":{"key":"15","name":"Sachsen-Anhalt"}},{"name":"Feldstr.","postalCode":"06925","locality":"Annaburg","municipality":{"key":"15091010","name":"Annaburg, Stadt","type":"Stadt"},"district":{"key":"15091","name":"Wittenberg","type":"Landkreis"},"federalState":{"key":"15","name":"Sachsen-Anhalt"}},{"name":"Finkenweg","postalCode":"06925","locality":"Annaburg","municipality":{"key":"15091010","name":"Annaburg, Stadt","type":"Stadt"},"district":{"key":"15091","name":"Wittenberg","type":"Landkreis"},"federalState":{"key":"15","name":"Sachsen-Anhalt"}},{"name":"Flügel L","postalCode":"06925","locality":"Annaburg","municipality":{"key":"15091010","name":"Annaburg, Stadt","type":"Stadt"},"district":{"key":"15091","name":"Wittenberg","type":"Landkreis"},"federalState":{"key":"15","name":"Sachsen-Anhalt"}},{"name":"Forstweg","postalCode":"06925","locality":"Annaburg","municipality":{"key":"15091010","name":"Annaburg, Stadt","type":"Stadt"},"district":{"key":"15091","name":"Wittenberg","type":"Landkreis"},"federalState":{"key":"15","name":"Sachsen-Anhalt"}},{"name":"Forstwiesenweg","postalCode":"06925","locality":"Annaburg","municipality":{"key":"15091010","name":"Annaburg, Stadt","type":"Stadt"},"district":{"key":"15091","name":"Wittenberg","type":"Landkreis"},"federalState":{"key":"15","name":"Sachsen-Anhalt"}},{"name":"Friedensstr.","postalCode":"06925","locality":"Annaburg","municipality":{"key":"15091010","name":"Annaburg, Stadt","type":"Stadt"},"district":{"key":"15091","name":"Wittenberg","type":"Landkreis"},"federalState":{"key":"15","name":"Sachsen-Anhalt"}},{"name":"Garnsack","postalCode":"06925","locality":"Annaburg","municipality":{"key":"15091010","name":"Annaburg, Stadt","type":"Stadt"},"district":{"key":"15091","name":"Wittenberg","type":"Landkreis"},"federalState":{"key":"15","name":"Sachsen-Anhalt"}},{"name":"Gartenstr.","postalCode":"06925","locality":"Annaburg","municipality":{"key":"15091010","name":"Annaburg, Stadt","type":"Stadt"},"district":{"key":"15091","name":"Wittenberg","type":"Landkreis"},"federalState":{"key":"15","name":"Sachsen-Anhalt"}},{"name":"Gärtnerstr.","postalCode":"06925","locality":"Annaburg","municipality":{"key":"15091010","name":"Annaburg, Stadt","type":"Stadt"},"district":{"key":"15091","name":"Wittenberg","type":"Landkreis"},"federalState":{"key":"15","name":"Sachsen-Anhalt"}},{"name":"Gasse","postalCode":"06925","locality":"Annaburg","municipality":{"key":"15091010","name":"Annaburg, Stadt","type":"Stadt"},"district":{"key":"15091","name":"Wittenberg","type":"Landkreis"},"federalState":{"key":"15","name":"Sachsen-Anhalt"}},{"name":"Gehmen-Axiener Str.","postalCode":"06925","locality":"Annaburg","municipality":{"key":"15091010","name":"Annaburg, Stadt","type":"Stadt"},"district":{"key":"15091","name":"Wittenberg","type":"Landkreis"},"federalState":{"key":"15","name":"Sachsen-Anhalt"}},{"name":"Gehmen-Elbstr.","postalCode":"06925","locality":"Annaburg","municipality":{"key":"15091010","name":"Annaburg, Stadt","type":"Stadt"},"district":{"key":"15091","name":"Wittenberg","type":"Landkreis"},"federalState":{"key":"15","name":"Sachsen-Anhalt"}},{"name":"Gehmener Str.","postalCode":"06925","locality":"Annaburg","municipality":{"key":"15091010","name":"Annaburg, Stadt","type":"Stadt"},"district":{"key":"15091","name":"Wittenberg","type":"Landkreis"},"federalState":{"key":"15","name":"Sachsen-Anhalt"}},{"name":"Gehmen-Im Felde","postalCode":"06925","locality":"Annaburg","municipality":{"key":"15091010","name":"Annaburg, Stadt","type":"Stadt"},"district":{"key":"15091","name":"Wittenberg","type":"Landkreis"},"federalState":{"key":"15","name":"Sachsen-Anhalt"}},{"name":"Gehmen-Lindenstr.","postalCode":"06925","locality":"Annaburg","municipality":{"key":"15091010","name":"Annaburg, Stadt","type":"Stadt"},"district":{"key":"15091","name":"Wittenberg","type":"Landkreis"},"federalState":{"key":"15","name":"Sachsen-Anhalt"}},{"name":"Gehrenring","postalCode":"06925","locality":"Annaburg","municipality":{"key":"15091010","name":"Annaburg, Stadt","type":"Stadt"},"district":{"key":"15091","name":"Wittenberg","type":"Landkreis"},"federalState":{"key":"15","name":"Sachsen-Anhalt"}},{"name":"Großtrebener Landstr.","postalCode":"06925","locality":"Annaburg","municipality":{"key":"15091010","name":"Annaburg, Stadt","type":"Stadt"},"district":{"key":"15091","name":"Wittenberg","type":"Landkreis"},"federalState":{"key":"15","name":"Sachsen-Anhalt"}},{"name":"Gurkengasse","postalCode":"06925","locality":"Annaburg","municipality":{"key":"15091010","name":"Annaburg, Stadt","type":"Stadt"},"district":{"key":"15091","name":"Wittenberg","type":"Landkreis"},"federalState":{"key":"15","name":"Sachsen-Anhalt"}},{"name":"Gustav-Fischer-Str.","postalCode":"06925","locality":"Annaburg","municipality":{"key":"15091010","name":"Annaburg, Stadt","type":"Stadt"},"district":{"key":"15091","name":"Wittenberg","type":"Landkreis"},"federalState":{"key":"15","name":"Sachsen-Anhalt"}},{"name":"Hauptstr.","postalCode":"06925","locality":"Annaburg","municipality":{"key":"15091010","name":"Annaburg, Stadt","type":"Stadt"},"district":{"key":"15091","name":"Wittenberg","type":"Landkreis"},"federalState":{"key":"15","name":"Sachsen-Anhalt"}},{"name":"Herrenstr.","postalCode":"06925","locality":"Annaburg","municipality":{"key":"15091010","name":"Annaburg, Stadt","type":"Stadt"},"district":{"key":"15091","name":"Wittenberg","type":"Landkreis"},"federalState":{"key":"15","name":"Sachsen-Anhalt"}},{"name":"Herzberger Str.","postalCode":"06925","locality":"Annaburg","municipality":{"key":"15091010","name":"Annaburg, Stadt","type":"Stadt"},"district":{"key":"15091","name":"Wittenberg","type":"Landkreis"},"federalState":{"key":"15","name":"Sachsen-Anhalt"}},{"name":"Hinterfährstr.","postalCode":"06925","locality":"Annaburg","municipality":{"key":"15091010","name":"Annaburg, Stadt","type":"Stadt"},"district":{"key":"15091","name":"Wittenberg","type":"Landkreis"},"federalState":{"key":"15","name":"Sachsen-Anhalt"}},{"name":"Hinterseer Str.","postalCode":"06925","locality":"Annaburg","municipality":{"key":"15091010","name":"Annaburg, Stadt","type":"Stadt"},"district":{"key":"15091","name":"Wittenberg","type":"Landkreis"},"federalState":{"key":"15","name":"Sachsen-Anhalt"}},{"name":"Hinterstr.","postalCode":"06925","locality":"Annaburg","municipality":{"key":"15091010","name":"Annaburg, Stadt","type":"Stadt"},"district":{"key":"15091","name":"Wittenberg","type":"Landkreis"},"federalState":{"key":"15","name":"Sachsen-Anhalt"}},{"name":"Hirschmühlenweg","postalCode":"06925","locality":"Annaburg","municipality":{"key":"15091010","name":"Annaburg, Stadt","type":"Stadt"},"district":{"key":"15091","name":"Wittenberg","type":"Landkreis"},"federalState":{"key":"15","name":"Sachsen-Anhalt"}},{"name":"Hofbreite","postalCode":"06925","locality":"Annaburg","municipality":{"key":"15091010","name":"Annaburg, Stadt","type":"Stadt"},"district":{"key":"15091","name":"Wittenberg","type":"Landkreis"},"federalState":{"key":"15","name":"Sachsen-Anhalt"}},{"name":"Hohe Str.","postalCode":"06925","locality":"Annaburg","municipality":{"key":"15091010","name":"Annaburg, Stadt","type":"Stadt"},"district":{"key":"15091","name":"Wittenberg","type":"Landkreis"},"federalState":{"key":"15","name":"Sachsen-Anhalt"}},{"name":"Hohndorfer Hauptstr.","postalCode":"06925","locality":"Annaburg","municipality":{"key":"15091010","name":"Annaburg, Stadt","type":"Stadt"},"district":{"key":"15091","name":"Wittenberg","type":"Landkreis"},"federalState":{"key":"15","name":"Sachsen-Anhalt"}},{"name":"Hohndorfer Str.","postalCode":"06925","locality":"Annaburg","municipality":{"key":"15091010","name":"Annaburg, Stadt","type":"Stadt"},"district":{"key":"15091","name":"Wittenberg","type":"Landkreis"},"federalState":{"key":"15","name":"Sachsen-Anhalt"}},{"name":"Hohndorf-Prettiner Str.","postalCode":"06925","locality":"Annaburg","municipality":{"key":"15091010","name":"Annaburg, Stadt","type":"Stadt"},"district":{"key":"15091","name":"Wittenberg","type":"Landkreis"},"federalState":{"key":"15","name":"Sachsen-Anhalt"}},{"name":"Holzdorfer Str.","postalCode":"06925","locality":"Annaburg","municipality":{"key":"15091010","name":"Annaburg, Stadt","type":"Stadt"},"district":{"key":"15091","name":"Wittenberg","type":"Landkreis"},"federalState":{"key":"15","name":"Sachsen-Anhalt"}},{"name":"Holzweißigstr.","postalCode":"06925","locality":"Annaburg","municipality":{"key":"15091010","name":"Annaburg, Stadt","type":"Stadt"},"district":{"key":"15091","name":"Wittenberg","type":"Landkreis"},"federalState":{"key":"15","name":"Sachsen-Anhalt"}},{"name":"Im Felde","postalCode":"06925","locality":"Annaburg","municipality":{"key":"15091010","name":"Annaburg, Stadt","type":"Stadt"},"district":{"key":"15091","name":"Wittenberg","type":"Landkreis"},"federalState":{"key":"15","name":"Sachsen-Anhalt"}},{"name":"Jahnstr.","postalCode":"06925","locality":"Annaburg","municipality":{"key":"15091010","name":"Annaburg, Stadt","type":"Stadt"},"district":{"key":"15091","name":"Wittenberg","type":"Landkreis"},"federalState":{"key":"15","name":"Sachsen-Anhalt"}},{"name":"Jessener Str.","postalCode":"06925","locality":"Annaburg","municipality":{"key":"15091010","name":"Annaburg, Stadt","type":"Stadt"},"district":{"key":"15091","name":"Wittenberg","type":"Landkreis"},"federalState":{"key":"15","name":"Sachsen-Anhalt"}},{"name":"Kähnitzscher Str.","postalCode":"06925","locality":"Annaburg","municipality":{"key":"15091010","name":"Annaburg, Stadt","type":"Stadt"},"district":{"key":"15091","name":"Wittenberg","type":"Landkreis"},"federalState":{"key":"15","name":"Sachsen-Anhalt"}},{"name":"Kellerberg","postalCode":"06925","locality":"Annaburg","municipality":{"key":"15091010","name":"Annaburg, Stadt","type":"Stadt"},"district":{"key":"15091","name":"Wittenberg","type":"Landkreis"},"federalState":{"key":"15","name":"Sachsen-Anhalt"}},{"name":"Kiebitzweg","postalCode":"06925","locality":"Annaburg","municipality":{"key":"15091010","name":"Annaburg, Stadt","type":"Stadt"},"district":{"key":"15091","name":"Wittenberg","type":"Landkreis"},"federalState":{"key":"15","name":"Sachsen-Anhalt"}},{"name":"Klein Hohndorf","postalCode":"06925","locality":"Annaburg","municipality":{"key":"15091010","name":"Annaburg, Stadt","type":"Stadt"},"district":{"key":"15091","name":"Wittenberg","type":"Landkreis"},"federalState":{"key":"15","name":"Sachsen-Anhalt"}},{"name":"Kochgasse","postalCode":"06925","locality":"Annaburg","municipality":{"key":"15091010","name":"Annaburg, Stadt","type":"Stadt"},"district":{"key":"15091","name":"Wittenberg","type":"Landkreis"},"federalState":{"key":"15","name":"Sachsen-Anhalt"}},{"name":"Kolonie","postalCode":"06925","locality":"Annaburg","municipality":{"key":"15091010","name":"Annaburg, Stadt","type":"Stadt"},"district":{"key":"15091","name":"Wittenberg","type":"Landkreis"},"federalState":{"key":"15","name":"Sachsen-Anhalt"}},{"name":"Kolonie-Friedensstr.","postalCode":"06925","locality":"Annaburg","municipality":{"key":"15091010","name":"Annaburg, Stadt","type":"Stadt"},"district":{"key":"15091","name":"Wittenberg","type":"Landkreis"},"federalState":{"key":"15","name":"Sachsen-Anhalt"}},{"name":"Kolonie-Heidewinkel","postalCode":"06925","locality":"Annaburg","municipality":{"key":"15091010","name":"Annaburg, Stadt","type":"Stadt"},"district":{"key":"15091","name":"Wittenberg","type":"Landkreis"},"federalState":{"key":"15","name":"Sachsen-Anhalt"}},{"name":"Kolonie-Waldweg","postalCode":"06925","locality":"Annaburg","municipality":{"key":"15091010","name":"Annaburg, Stadt","type":"Stadt"},"district":{"key":"15091","name":"Wittenberg","type":"Landkreis"},"federalState":{"key":"15","name":"Sachsen-Anhalt"}},{"name":"Labruner Feldstr.","postalCode":"06925","locality":"Annaburg","municipality":{"key":"15091010","name":"Annaburg, Stadt","type":"Stadt"},"district":{"key":"15091","name":"Wittenberg","type":"Landkreis"},"federalState":{"key":"15","name":"Sachsen-Anhalt"}},{"name":"Labruner Hauptstr.","postalCode":"06925","locality":"Annaburg","municipality":{"key":"15091010","name":"Annaburg, Stadt","type":"Stadt"},"district":{"key":"15091","name":"Wittenberg","type":"Landkreis"},"federalState":{"key":"15","name":"Sachsen-Anhalt"}},{"name":"Labruner Mühlenstr.","postalCode":"06925","locality":"Annaburg","municipality":{"key":"15091010","name":"Annaburg, Stadt","type":"Stadt"},"district":{"key":"15091","name":"Wittenberg","type":"Landkreis"},"federalState":{"key":"15","name":"Sachsen-Anhalt"}},{"name":"Labruner Str.","postalCode":"06925","locality":"Annaburg","municipality":{"key":"15091010","name":"Annaburg, Stadt","type":"Stadt"},"district":{"key":"15091","name":"Wittenberg","type":"Landkreis"},"federalState":{"key":"15","name":"Sachsen-Anhalt"}},{"name":"Labruner Winkel","postalCode":"06925","locality":"Annaburg","municipality":{"key":"15091010","name":"Annaburg, Stadt","type":"Stadt"},"district":{"key":"15091","name":"Wittenberg","type":"Landkreis"},"federalState":{"key":"15","name":"Sachsen-Anhalt"}},{"name":"Lebiener Str.","postalCode":"06925","locality":"Annaburg","municipality":{"key":"15091010","name":"Annaburg, Stadt","type":"Stadt"},"district":{"key":"15091","name":"Wittenberg","type":"Landkreis"},"federalState":{"key":"15","name":"Sachsen-Anhalt"}},{"name":"Lerchenweg","postalCode":"06925","locality":"Annaburg","municipality":{"key":"15091010","name":"Annaburg, Stadt","type":"Stadt"},"district":{"key":"15091","name":"Wittenberg","type":"Landkreis"},"federalState":{"key":"15","name":"Sachsen-Anhalt"}},{"name":"Lichtenburger Str.","postalCode":"06925","locality":"Annaburg","municipality":{"key":"15091010","name":"Annaburg, Stadt","type":"Stadt"},"district":{"key":"15091","name":"Wittenberg","type":"Landkreis"},"federalState":{"key":"15","name":"Sachsen-Anhalt"}},{"name":"Lichtenburger Tor","postalCode":"06925","locality":"Annaburg","municipality":{"key":"15091010","name":"Annaburg, Stadt","type":"Stadt"},"district":{"key":"15091","name":"Wittenberg","type":"Landkreis"},"federalState":{"key":"15","name":"Sachsen-Anhalt"}},{"name":"Lindenstr.","postalCode":"06925","locality":"Annaburg","municipality":{"key":"15091010","name":"Annaburg, Stadt","type":"Stadt"},"district":{"key":"15091","name":"Wittenberg","type":"Landkreis"},"federalState":{"key":"15","name":"Sachsen-Anhalt"}},{"name":"Löben","postalCode":"06925","locality":"Annaburg","municipality":{"key":"15091010","name":"Annaburg, Stadt","type":"Stadt"},"district":{"key":"15091","name":"Wittenberg","type":"Landkreis"},"federalState":{"key":"15","name":"Sachsen-Anhalt"}},{"name":"Lochauer Str.","postalCode":"06925","locality":"Annaburg","municipality":{"key":"15091010","name":"Annaburg, Stadt","type":"Stadt"},"district":{"key":"15091","name":"Wittenberg","type":"Landkreis"},"federalState":{"key":"15","name":"Sachsen-Anhalt"}},{"name":"Markt","postalCode":"06925","locality":"Annaburg","municipality":{"key":"15091010","name":"Annaburg, Stadt","type":"Stadt"},"district":{"key":"15091","name":"Wittenberg","type":"Landkreis"},"federalState":{"key":"15","name":"Sachsen-Anhalt"}},{"name":"Meuselko","postalCode":"06925","locality":"Annaburg","municipality":{"key":"15091010","name":"Annaburg, Stadt","type":"Stadt"},"district":{"key":"15091","name":"Wittenberg","type":"Landkreis"},"federalState":{"key":"15","name":"Sachsen-Anhalt"}},{"name":"Mittelstr.","postalCode":"06925","locality":"Annaburg","municipality":{"key":"15091010","name":"Annaburg, Stadt","type":"Stadt"},"district":{"key":"15091","name":"Wittenberg","type":"Landkreis"},"federalState":{"key":"15","name":"Sachsen-Anhalt"}},{"name":"Morellenberg","postalCode":"06925","locality":"Annaburg","municipality":{"key":"15091010","name":"Annaburg, Stadt","type":"Stadt"},"district":{"key":"15091","name":"Wittenberg","type":"Landkreis"},"federalState":{"key":"15","name":"Sachsen-Anhalt"}},{"name":"Mühlenkietz","postalCode":"06925","locality":"Annaburg","municipality":{"key":"15091010","name":"Annaburg, Stadt","type":"Stadt"},"district":{"key":"15091","name":"Wittenberg","type":"Landkreis"},"federalState":{"key":"15","name":"Sachsen-Anhalt"}},{"name":"Mühlenstr.","postalCode":"06925","locality":"Annaburg","municipality":{"key":"15091010","name":"Annaburg, Stadt","type":"Stadt"},"district":{"key":"15091","name":"Wittenberg","type":"Landkreis"},"federalState":{"key":"15","name":"Sachsen-Anhalt"}},{"name":"Mühlweg","postalCode":"06925","locality":"Annaburg","municipality":{"key":"15091010","name":"Annaburg, Stadt","type":"Stadt"},"district":{"key":"15091","name":"Wittenberg","type":"Landkreis"},"federalState":{"key":"15","name":"Sachsen-Anhalt"}},{"name":"Neue Welt","postalCode":"06925","locality":"Annaburg","municipality":{"key":"15091010","name":"Annaburg, Stadt","type":"Stadt"},"district":{"key":"15091","name":"Wittenberg","type":"Landkreis"},"federalState":{"key":"15","name":"Sachsen-Anhalt"}},{"name":"Neuhäuser","postalCode":"06925","locality":"Annaburg","municipality":{"key":"15091010","name":"Annaburg, Stadt","type":"Stadt"},"district":{"key":"15091","name":"Wittenberg","type":"Landkreis"},"federalState":{"key":"15","name":"Sachsen-Anhalt"}},{"name":"Neustadt","postalCode":"06925","locality":"Annaburg","municipality":{"key":"15091010","name":"Annaburg, Stadt","type":"Stadt"},"district":{"key":"15091","name":"Wittenberg","type":"Landkreis"},"federalState":{"key":"15","name":"Sachsen-Anhalt"}},{"name":"Niedere Str.","postalCode":"06925","locality":"Annaburg","municipality":{"key":"15091010","name":"Annaburg, Stadt","type":"Stadt"},"district":{"key":"15091","name":"Wittenberg","type":"Landkreis"},"federalState":{"key":"15","name":"Sachsen-Anhalt"}},{"name":"Otto-Heintze-Str.","postalCode":"06925","locality":"Annaburg","municipality":{"key":"15091010","name":"Annaburg, Stadt","type":"Stadt"},"district":{"key":"15091","name":"Wittenberg","type":"Landkreis"},"federalState":{"key":"15","name":"Sachsen-Anhalt"}},{"name":"Planweg","postalCode":"06925","locality":"Annaburg","municipality":{"key":"15091010","name":"Annaburg, Stadt","type":"Stadt"},"district":{"key":"15091","name":"Wittenberg","type":"Landkreis"},"federalState":{"key":"15","name":"Sachsen-Anhalt"}},{"name":"Plossiger Dorfstr.","postalCode":"06925","locality":"Annaburg","municipality":{"key":"15091010","name":"Annaburg, Stadt","type":"Stadt"},"district":{"key":"15091","name":"Wittenberg","type":"Landkreis"},"federalState":{"key":"15","name":"Sachsen-Anhalt"}},{"name":"Plossiger Str.","postalCode":"06925","locality":"Annaburg","municipality":{"key":"15091010","name":"Annaburg, Stadt","type":"Stadt"},"district":{"key":"15091","name":"Wittenberg","type":"Landkreis"},"federalState":{"key":"15","name":"Sachsen-Anhalt"}},{"name":"Plossiger Weg","postalCode":"06925","locality":"Annaburg","municipality":{"key":"15091010","name":"Annaburg, Stadt","type":"Stadt"},"district":{"key":"15091","name":"Wittenberg","type":"Landkreis"},"federalState":{"key":"15","name":"Sachsen-Anhalt"}},{"name":"Premsendorf","postalCode":"06925","locality":"Annaburg","municipality":{"key":"15091010","name":"Annaburg, Stadt","type":"Stadt"},"district":{"key":"15091","name":"Wittenberg","type":"Landkreis"},"federalState":{"key":"15","name":"Sachsen-Anhalt"}},{"name":"Prettiner Landstr.","postalCode":"06925","locality":"Annaburg","municipality":{"key":"15091010","name":"Annaburg, Stadt","type":"Stadt"},"district":{"key":"15091","name":"Wittenberg","type":"Landkreis"},"federalState":{"key":"15","name":"Sachsen-Anhalt"}},{"name":"Prettiner Str.","postalCode":"06925","locality":"Annaburg","municipality":{"key":"15091010","name":"Annaburg, Stadt","type":"Stadt"},"district":{"key":"15091","name":"Wittenberg","type":"Landkreis"},"federalState":{"key":"15","name":"Sachsen-Anhalt"}},{"name":"Puschkinstr.","postalCode":"06925","locality":"Annaburg","municipality":{"key":"15091010","name":"Annaburg, Stadt","type":"Stadt"},"district":{"key":"15091","name":"Wittenberg","type":"Landkreis"},"federalState":{"key":"15","name":"Sachsen-Anhalt"}},{"name":"Querstr.","postalCode":"06889","locality":"Wittenberg","municipality":{"key":"15091375","name":"Wittenberg, Lutherstadt","type":"Stadt"},"district":{"key":"15091","name":"Wittenberg","type":"Landkreis"},"federalState":{"key":"15","name":"Sachsen-Anhalt"}},{"name":"Quitzowstr.","postalCode":"19322","locality":"Wittenberge","municipality":{"key":"12070424","name":"Wittenberge, Stadt","type":"Stadt"},"district":{"key":"12070","name":"Prignitz","type":"Landkreis"},"federalState":{"key":"12","name":"Brandenburg"}},{"name":"Rektorstr.","postalCode":"06925","locality":"Annaburg","municipality":{"key":"15091010","name":"Annaburg, Stadt","type":"Stadt"},"district":{"key":"15091","name":"Wittenberg","type":"Landkreis"},"federalState":{"key":"15","name":"Sachsen-Anhalt"}},{"name":"Ringstr.","postalCode":"06925","locality":"Annaburg","municipality":{"key":"15091010","name":"Annaburg, Stadt","type":"Stadt"},"district":{"key":"15091","name":"Wittenberg","type":"Landkreis"},"federalState":{"key":"15","name":"Sachsen-Anhalt"}},{"name":"Rosenweg","postalCode":"06925","locality":"Annaburg","municipality":{"key":"15091010","name":"Annaburg, Stadt","type":"Stadt"},"district":{"key":"15091","name":"Wittenberg","type":"Landkreis"},"federalState":{"key":"15","name":"Sachsen-Anhalt"}},{"name":"Scharfenberg","postalCode":"06925","locality":"Annaburg","municipality":{"key":"15091010","name":"Annaburg, Stadt","type":"Stadt"},"district":{"key":"15091","name":"Wittenberg","type":"Landkreis"},"federalState":{"key":"15","name":"Sachsen-Anhalt"}},{"name":"Schleswiger Weg","postalCode":"06925","locality":"Annaburg","municipality":{"key":"15091010","name":"Annaburg, Stadt","type":"Stadt"},"district":{"key":"15091","name":"Wittenberg","type":"Landkreis"},"federalState":{"key":"15","name":"Sachsen-Anhalt"}},{"name":"Schloßstr.","postalCode":"06925","locality":"Annaburg","municipality":{"key":"15091010","name":"Annaburg, Stadt","type":"Stadt"},"district":{"key":"15091","name":"Wittenberg","type":"Landkreis"},"federalState":{"key":"15","name":"Sachsen-Anhalt"}},{"name":"Schulstr.","postalCode":"06925","locality":"Annaburg","municipality":{"key":"15091010","name":"Annaburg, Stadt","type":"Stadt"},"district":{"key":"15091","name":"Wittenberg","type":"Landkreis"},"federalState":{"key":"15","name":"Sachsen-Anhalt"}},{"name":"Schulweg","postalCode":"06925","locality":"Annaburg","municipality":{"key":"15091010","name":"Annaburg, Stadt","type":"Stadt"},"district":{"key":"15091","name":"Wittenberg","type":"Landkreis"},"federalState":{"key":"15","name":"Sachsen-Anhalt"}},{"name":"Schwenitzer Str.","postalCode":"06925","locality":"Annaburg","municipality":{"key":"15091010","name":"Annaburg, Stadt","type":"Stadt"},"district":{"key":"15091","name":"Wittenberg","type":"Landkreis"},"federalState":{"key":"15","name":"Sachsen-Anhalt"}},{"name":"Seegasse","postalCode":"06925","locality":"Annaburg","municipality":{"key":"15091010","name":"Annaburg, Stadt","type":"Stadt"},"district":{"key":"15091","name":"Wittenberg","type":"Landkreis"},"federalState":{"key":"15","name":"Sachsen-Anhalt"}},{"name":"Siedlung-Haselweg","postalCode":"06925","locality":"Annaburg","municipality":{"key":"15091010","name":"Annaburg, Stadt","type":"Stadt"},"district":{"key":"15091","name":"Wittenberg","type":"Landkreis"},"federalState":{"key":"15","name":"Sachsen-Anhalt"}},{"name":"Siedlung-Hauptweg","postalCode":"06925","locality":"Annaburg","municipality":{"key":"15091010","name":"Annaburg, Stadt","type":"Stadt"},"district":{"key":"15091","name":"Wittenberg","type":"Landkreis"},"federalState":{"key":"15","name":"Sachsen-Anhalt"}},{"name":"Siedlung-Hirschweg","postalCode":"06925","locality":"Annaburg","municipality":{"key":"15091010","name":"Annaburg, Stadt","type":"Stadt"},"district":{"key":"15091","name":"Wittenberg","type":"Landkreis"},"federalState":{"key":"15","name":"Sachsen-Anhalt"}},{"name":"Siedlung-Kiefernweg","postalCode":"06925","locality":"Annaburg","municipality":{"key":"15091010","name":"Annaburg, Stadt","type":"Stadt"},"district":{"key":"15091","name":"Wittenberg","type":"Landkreis"},"federalState":{"key":"15","name":"Sachsen-Anhalt"}},{"name":"Siedlung-Kreuzweg","postalCode":"06925","locality":"Annaburg","municipality":{"key":"15091010","name":"Annaburg, Stadt","type":"Stadt"},"district":{"key":"15091","name":"Wittenberg","type":"Landkreis"},"federalState":{"key":"15","name":"Sachsen-Anhalt"}},{"name":"Spielstr.","postalCode":"06925","locality":"Annaburg","municipality":{"key":"15091010","name":"Annaburg, Stadt","type":"Stadt"},"district":{"key":"15091","name":"Wittenberg","type":"Landkreis"},"federalState":{"key":"15","name":"Sachsen-Anhalt"}},{"name":"Stadtpark","postalCode":"06925","locality":"Annaburg","municipality":{"key":"15091010","name":"Annaburg, Stadt","type":"Stadt"},"district":{"key":"15091","name":"Wittenberg","type":"Landkreis"},"federalState":{"key":"15","name":"Sachsen-Anhalt"}},{"name":"Steinblinkweg","postalCode":"06925","locality":"Annaburg","municipality":{"key":"15091010","name":"Annaburg, Stadt","type":"Stadt"},"district":{"key":"15091","name":"Wittenberg","type":"Landkreis"},"federalState":{"key":"15","name":"Sachsen-Anhalt"}},{"name":"Str. der Freundschaft","postalCode":"06925","locality":"Annaburg","municipality":{"key":"15091010","name":"Annaburg, Stadt","type":"Stadt"},"district":{"key":"15091","name":"Wittenberg","type":"Landkreis"},"federalState":{"key":"15","name":"Sachsen-Anhalt"}},{"name":"Tiergarten","postalCode":"06925","locality":"Annaburg","municipality":{"key":"15091010","name":"Annaburg, Stadt","type":"Stadt"},"district":{"key":"15091","name":"Wittenberg","type":"Landkreis"},"federalState":{"key":"15","name":"Sachsen-Anhalt"}},{"name":"Töpferstr.","postalCode":"06925","locality":"Annaburg","municipality":{"key":"15091010","name":"Annaburg, Stadt","type":"Stadt"},"district":{"key":"15091","name":"Wittenberg","type":"Landkreis"},"federalState":{"key":"15","name":"Sachsen-Anhalt"}},{"name":"Torgauer Str.","postalCode":"06925","locality":"Annaburg","municipality":{"key":"15091010","name":"Annaburg, Stadt","type":"Stadt"},"district":{"key":"15091","name":"Wittenberg","type":"Landkreis"},"federalState":{"key":"15","name":"Sachsen-Anhalt"}},{"name":"Trift","postalCode":"06925","locality":"Annaburg","municipality":{"key":"15091010","name":"Annaburg, Stadt","type":"Stadt"},"district":{"key":"15091","name":"Wittenberg","type":"Landkreis"},"federalState":{"key":"15","name":"Sachsen-Anhalt"}},{"name":"Ulmenstr.","postalCode":"06925","locality":"Annaburg","municipality":{"key":"15091010","name":"Annaburg, Stadt","type":"Stadt"},"district":{"key":"15091","name":"Wittenberg","type":"Landkreis"},"federalState":{"key":"15","name":"Sachsen-Anhalt"}},{"name":"Verkehrter Hammer","postalCode":"06925","locality":"Annaburg","municipality":{"key":"15091010","name":"Annaburg, Stadt","type":"Stadt"},"district":{"key":"15091","name":"Wittenberg","type":"Landkreis"},"federalState":{"key":"15","name":"Sachsen-Anhalt"}},{"name":"Verler Weg","postalCode":"06925","locality":"Annaburg","municipality":{"key":"15091010","name":"Annaburg, Stadt","type":"Stadt"},"district":{"key":"15091","name":"Wittenberg","type":"Landkreis"},"federalState":{"key":"15","name":"Sachsen-Anhalt"}},{"name":"Vorstadt","postalCode":"06925","locality":"Annaburg","municipality":{"key":"15091010","name":"Annaburg, Stadt","type":"Stadt"},"district":{"key":"15091","name":"Wittenberg","type":"Landkreis"},"federalState":{"key":"15","name":"Sachsen-Anhalt"}},{"name":"Wahles Weg","postalCode":"06925","locality":"Annaburg","municipality":{"key":"15091010","name":"Annaburg, Stadt","type":"Stadt"},"district":{"key":"15091","name":"Wittenberg","type":"Landkreis"},"federalState":{"key":"15","name":"Sachsen-Anhalt"}},{"name":"Weg zum Schlößchen","postalCode":"06925","locality":"Annaburg","municipality":{"key":"15091010","name":"Annaburg, Stadt","type":"Stadt"},"district":{"key":"15091","name":"Wittenberg","type":"Landkreis"},"federalState":{"key":"15","name":"Sachsen-Anhalt"}},{"name":"Weinberg","postalCode":"06925","locality":"Annaburg","municipality":{"key":"15091010","name":"Annaburg, Stadt","type":"Stadt"},"district":{"key":"15091","name":"Wittenberg","type":"Landkreis"},"federalState":{"key":"15","name":"Sachsen-Anhalt"}},{"name":"Weinbergstr.","postalCode":"06925","locality":"Annaburg","municipality":{"key":"15091010","name":"Annaburg, Stadt","type":"Stadt"},"district":{"key":"15091","name":"Wittenberg","type":"Landkreis"},"federalState":{"key":"15","name":"Sachsen-Anhalt"}},{"name":"Wittenberger Str.","postalCode":"06925","locality":"Annaburg","municipality":{"key":"15091010","name":"Annaburg, Stadt","type":"Stadt"},"district":{"key":"15091","name":"Wittenberg","type":"Landkreis"},"federalState":{"key":"15","name":"Sachsen-Anhalt"}},{"name":"Züllsdorfer Str.","postalCode":"06925","locality":"Annaburg","municipality":{"key":"15091010","name":"Annaburg, Stadt","type":"Stadt"},"district":{"key":"15091","name":"Wittenberg","type":"Landkreis"},"federalState":{"key":"15","name":"Sachsen-Anhalt"}},]