[{"name":"1. Moorweg","postalCode":"26849","locality":"Filsum","municipality":{"key":"03457008","name":"Filsum","type":"Kreisangehörige_Gemeinde"},"district":{"key":"03457","name":"Leer","type":"Landkreis"},"federalState":{"key":"03","name":"Niedersachsen"}},{"name":"2. Moorweg","postalCode":"26849","locality":"Filsum","municipality":{"key":"03457008","name":"Filsum","type":"Kreisangehörige_Gemeinde"},"district":{"key":"03457","name":"Leer","type":"Landkreis"},"federalState":{"key":"03","name":"Niedersachsen"}},{"name":"Aantenbarger Weg","postalCode":"26849","locality":"Filsum","municipality":{"key":"03457008","name":"Filsum","type":"Kreisangehörige_Gemeinde"},"district":{"key":"03457","name":"Leer","type":"Landkreis"},"federalState":{"key":"03","name":"Niedersachsen"}},{"name":"Achter de Wirde","postalCode":"26849","locality":"Filsum","municipality":{"key":"03457008","name":"Filsum","type":"Kreisangehörige_Gemeinde"},"district":{"key":"03457","name":"Leer","type":"Landkreis"},"federalState":{"key":"03","name":"Niedersachsen"}},{"name":"Achter Gaste Weg","postalCode":"26849","locality":"Filsum","municipality":{"key":"03457008","name":"Filsum","type":"Kreisangehörige_Gemeinde"},"district":{"key":"03457","name":"Leer","type":"Landkreis"},"federalState":{"key":"03","name":"Niedersachsen"}},{"name":"Ahornweg","postalCode":"26849","locality":"Filsum","municipality":{"key":"03457008","name":"Filsum","type":"Kreisangehörige_Gemeinde"},"district":{"key":"03457","name":"Leer","type":"Landkreis"},"federalState":{"key":"03","name":"Niedersachsen"}},{"name":"Alte Schulstr.","postalCode":"26849","locality":"Filsum","municipality":{"key":"03457008","name":"Filsum","type":"Kreisangehörige_Gemeinde"},"district":{"key":"03457","name":"Leer","type":"Landkreis"},"federalState":{"key":"03","name":"Niedersachsen"}},{"name":"Am Bahndamm","postalCode":"26849","locality":"Filsum","municipality":{"key":"03457008","name":"Filsum","type":"Kreisangehörige_Gemeinde"},"district":{"key":"03457","name":"Leer","type":"Landkreis"},"federalState":{"key":"03","name":"Niedersachsen"}},{"name":"Am Burgplatz","postalCode":"26849","locality":"Filsum","municipality":{"key":"03457008","name":"Filsum","type":"Kreisangehörige_Gemeinde"},"district":{"key":"03457","name":"Leer","type":"Landkreis"},"federalState":{"key":"03","name":"Niedersachsen"}},{"name":"Am Deich","postalCode":"26849","locality":"Filsum","municipality":{"key":"03457008","name":"Filsum","type":"Kreisangehörige_Gemeinde"},"district":{"key":"03457","name":"Leer","type":"Landkreis"},"federalState":{"key":"03","name":"Niedersachsen"}},{"name":"Am Herrenmoor","postalCode":"26849","locality":"Filsum","municipality":{"key":"03457008","name":"Filsum","type":"Kreisangehörige_Gemeinde"},"district":{"key":"03457","name":"Leer","type":"Landkreis"},"federalState":{"key":"03","name":"Niedersachsen"}},{"name":"An der Bahn","postalCode":"26849","locality":"Filsum","municipality":{"key":"03457008","name":"Filsum","type":"Kreisangehörige_Gemeinde"},"district":{"key":"03457","name":"Leer","type":"Landkreis"},"federalState":{"key":"03","name":"Niedersachsen"}},{"name":"Auf dem Brink","postalCode":"26849","locality":"Filsum","municipality":{"key":"03457008","name":"Filsum","type":"Kreisangehörige_Gemeinde"},"district":{"key":"03457","name":"Leer","type":"Landkreis"},"federalState":{"key":"03","name":"Niedersachsen"}},{"name":"Bernd-Tönjes-Weg","postalCode":"26849","locality":"Filsum","municipality":{"key":"03457008","name":"Filsum","type":"Kreisangehörige_Gemeinde"},"district":{"key":"03457","name":"Leer","type":"Landkreis"},"federalState":{"key":"03","name":"Niedersachsen"}},{"name":"Brinkhusen","postalCode":"26849","locality":"Filsum","municipality":{"key":"03457008","name":"Filsum","type":"Kreisangehörige_Gemeinde"},"district":{"key":"03457","name":"Leer","type":"Landkreis"},"federalState":{"key":"03","name":"Niedersachsen"}},{"name":"Brooksweg","postalCode":"26849","locality":"Filsum","municipality":{"key":"03457008","name":"Filsum","type":"Kreisangehörige_Gemeinde"},"district":{"key":"03457","name":"Leer","type":"Landkreis"},"federalState":{"key":"03","name":"Niedersachsen"}},{"name":"Burggarten","postalCode":"26849","locality":"Filsum","municipality":{"key":"03457008","name":"Filsum","type":"Kreisangehörige_Gemeinde"},"district":{"key":"03457","name":"Leer","type":"Landkreis"},"federalState":{"key":"03","name":"Niedersachsen"}},{"name":"Burgweg","postalCode":"26849","locality":"Filsum","municipality":{"key":"03457008","name":"Filsum","type":"Kreisangehörige_Gemeinde"},"district":{"key":"03457","name":"Leer","type":"Landkreis"},"federalState":{"key":"03","name":"Niedersachsen"}},{"name":"Busboomsfehner Str.","postalCode":"26849","locality":"Filsum","municipality":{"key":"03457008","name":"Filsum","type":"Kreisangehörige_Gemeinde"},"district":{"key":"03457","name":"Leer","type":"Landkreis"},"federalState":{"key":"03","name":"Niedersachsen"}},{"name":"Buschstücke","postalCode":"26849","locality":"Filsum","municipality":{"key":"03457008","name":"Filsum","type":"Kreisangehörige_Gemeinde"},"district":{"key":"03457","name":"Leer","type":"Landkreis"},"federalState":{"key":"03","name":"Niedersachsen"}},{"name":"Buschstückenweg","postalCode":"26849","locality":"Filsum","municipality":{"key":"03457008","name":"Filsum","type":"Kreisangehörige_Gemeinde"},"district":{"key":"03457","name":"Leer","type":"Landkreis"},"federalState":{"key":"03","name":"Niedersachsen"}},{"name":"Buschweg","postalCode":"26849","locality":"Filsum","municipality":{"key":"03457008","name":"Filsum","type":"Kreisangehörige_Gemeinde"},"district":{"key":"03457","name":"Leer","type":"Landkreis"},"federalState":{"key":"03","name":"Niedersachsen"}},{"name":"Buxbarger Weg","postalCode":"26849","locality":"Filsum","municipality":{"key":"03457008","name":"Filsum","type":"Kreisangehörige_Gemeinde"},"district":{"key":"03457","name":"Leer","type":"Landkreis"},"federalState":{"key":"03","name":"Niedersachsen"}},{"name":"Chaukenstr.","postalCode":"26789","locality":"Leer","municipality":{"key":"03457013","name":"Leer (Ostfriesland), Stadt","type":"Stadt"},"district":{"key":"03457","name":"Leer","type":"Landkreis"},"federalState":{"key":"03","name":"Niedersachsen"}},{"name":"Cheruskerstr.","postalCode":"26789","locality":"Leer","municipality":{"key":"03457013","name":"Leer (Ostfriesland), Stadt","type":"Stadt"},"district":{"key":"03457","name":"Leer","type":"Landkreis"},"federalState":{"key":"03","name":"Niedersachsen"}},{"name":"Christine-Charlotten-Str.","postalCode":"26789","locality":"Leer","municipality":{"key":"03457013","name":"Leer (Ostfriesland), Stadt","type":"Stadt"},"district":{"key":"03457","name":"Leer","type":"Landkreis"},"federalState":{"key":"03","name":"Niedersachsen"}},{"name":"Cirksenastr.","postalCode":"26789","locality":"Leer","municipality":{"key":"03457013","name":"Leer (Ostfriesland), Stadt","type":"Stadt"},"district":{"key":"03457","name":"Leer","type":"Landkreis"},"federalState":{"key":"03","name":"Niedersachsen"}},{"name":"Claas-Wolff-Pad","postalCode":"26789","locality":"Leer","municipality":{"key":"03457013","name":"Leer (Ostfriesland), Stadt","type":"Stadt"},"district":{"key":"03457","name":"Leer","type":"Landkreis"},"federalState":{"key":"03","name":"Niedersachsen"}},{"name":"Coldamer Str.","postalCode":"26789","locality":"Leer","municipality":{"key":"03457013","name":"Leer (Ostfriesland), Stadt","type":"Stadt"},"district":{"key":"03457","name":"Leer","type":"Landkreis"},"federalState":{"key":"03","name":"Niedersachsen"}},{"name":"Conrebbersweg","postalCode":"26789","locality":"Leer","municipality":{"key":"03457013","name":"Leer (Ostfriesland), Stadt","type":"Stadt"},"district":{"key":"03457","name":"Leer","type":"Landkreis"},"federalState":{"key":"03","name":"Niedersachsen"}},{"name":"Cranachstr.","postalCode":"26789","locality":"Leer","municipality":{"key":"03457013","name":"Leer (Ostfriesland), Stadt","type":"Stadt"},"district":{"key":"03457","name":"Leer","type":"Landkreis"},"federalState":{"key":"03","name":"Niedersachsen"}},{"name":"Deichstr.","postalCode":"26849","locality":"Filsum","municipality":{"key":"03457008","name":"Filsum","type":"Kreisangehörige_Gemeinde"},"district":{"key":"03457","name":"Leer","type":"Landkreis"},"federalState":{"key":"03","name":"Niedersachsen"}},{"name":"Deterner Str.","postalCode":"26849","locality":"Filsum","municipality":{"key":"03457008","name":"Filsum","type":"Kreisangehörige_Gemeinde"},"district":{"key":"03457","name":"Leer","type":"Landkreis"},"federalState":{"key":"03","name":"Niedersachsen"}},{"name":"Dorfstr.","postalCode":"26849","locality":"Filsum","municipality":{"key":"03457008","name":"Filsum","type":"Kreisangehörige_Gemeinde"},"district":{"key":"03457","name":"Leer","type":"Landkreis"},"federalState":{"key":"03","name":"Niedersachsen"}},{"name":"Dreißig-Diemat-Weg","postalCode":"26849","locality":"Filsum","municipality":{"key":"03457008","name":"Filsum","type":"Kreisangehörige_Gemeinde"},"district":{"key":"03457","name":"Leer","type":"Landkreis"},"federalState":{"key":"03","name":"Niedersachsen"}},{"name":"Eckelkampsweg","postalCode":"26849","locality":"Filsum","municipality":{"key":"03457008","name":"Filsum","type":"Kreisangehörige_Gemeinde"},"district":{"key":"03457","name":"Leer","type":"Landkreis"},"federalState":{"key":"03","name":"Niedersachsen"}},{"name":"Eichenweg","postalCode":"26849","locality":"Filsum","municipality":{"key":"03457008","name":"Filsum","type":"Kreisangehörige_Gemeinde"},"district":{"key":"03457","name":"Leer","type":"Landkreis"},"federalState":{"key":"03","name":"Niedersachsen"}},{"name":"Fantke Weg Ost","postalCode":"26849","locality":"Filsum","municipality":{"key":"03457008","name":"Filsum","type":"Kreisangehörige_Gemeinde"},"district":{"key":"03457","name":"Leer","type":"Landkreis"},"federalState":{"key":"03","name":"Niedersachsen"}},{"name":"Fantke Weg West","postalCode":"26849","locality":"Filsum","municipality":{"key":"03457008","name":"Filsum","type":"Kreisangehörige_Gemeinde"},"district":{"key":"03457","name":"Leer","type":"Landkreis"},"federalState":{"key":"03","name":"Niedersachsen"}},{"name":"Feeks-Linden","postalCode":"26849","locality":"Filsum","municipality":{"key":"03457008","name":"Filsum","type":"Kreisangehörige_Gemeinde"},"district":{"key":"03457","name":"Leer","type":"Landkreis"},"federalState":{"key":"03","name":"Niedersachsen"}},{"name":"Feldstr.","postalCode":"26849","locality":"Filsum","municipality":{"key":"03457008","name":"Filsum","type":"Kreisangehörige_Gemeinde"},"district":{"key":"03457","name":"Leer","type":"Landkreis"},"federalState":{"key":"03","name":"Niedersachsen"}},{"name":"Friedhofsweg","postalCode":"26849","locality":"Filsum","municipality":{"key":"03457008","name":"Filsum","type":"Kreisangehörige_Gemeinde"},"district":{"key":"03457","name":"Leer","type":"Landkreis"},"federalState":{"key":"03","name":"Niedersachsen"}},{"name":"Friesenstr.","postalCode":"26849","locality":"Filsum","municipality":{"key":"03457008","name":"Filsum","type":"Kreisangehörige_Gemeinde"},"district":{"key":"03457","name":"Leer","type":"Landkreis"},"federalState":{"key":"03","name":"Niedersachsen"}},{"name":"Gastenweg","postalCode":"26849","locality":"Filsum","municipality":{"key":"03457008","name":"Filsum","type":"Kreisangehörige_Gemeinde"},"district":{"key":"03457","name":"Leer","type":"Landkreis"},"federalState":{"key":"03","name":"Niedersachsen"}},{"name":"Gasteweg","postalCode":"26849","locality":"Filsum","municipality":{"key":"03457008","name":"Filsum","type":"Kreisangehörige_Gemeinde"},"district":{"key":"03457","name":"Leer","type":"Landkreis"},"federalState":{"key":"03","name":"Niedersachsen"}},{"name":"Georgsmoorweg","postalCode":"26849","locality":"Filsum","municipality":{"key":"03457008","name":"Filsum","type":"Kreisangehörige_Gemeinde"},"district":{"key":"03457","name":"Leer","type":"Landkreis"},"federalState":{"key":"03","name":"Niedersachsen"}},{"name":"Grenzweg","postalCode":"26849","locality":"Filsum","municipality":{"key":"03457008","name":"Filsum","type":"Kreisangehörige_Gemeinde"},"district":{"key":"03457","name":"Leer","type":"Landkreis"},"federalState":{"key":"03","name":"Niedersachsen"}},{"name":"Grote Jannen Weg","postalCode":"26849","locality":"Filsum","municipality":{"key":"03457008","name":"Filsum","type":"Kreisangehörige_Gemeinde"},"district":{"key":"03457","name":"Leer","type":"Landkreis"},"federalState":{"key":"03","name":"Niedersachsen"}},{"name":"Hauptstr.","postalCode":"26849","locality":"Filsum","municipality":{"key":"03457008","name":"Filsum","type":"Kreisangehörige_Gemeinde"},"district":{"key":"03457","name":"Leer","type":"Landkreis"},"federalState":{"key":"03","name":"Niedersachsen"}},{"name":"Heidestr.","postalCode":"26849","locality":"Filsum","municipality":{"key":"03457008","name":"Filsum","type":"Kreisangehörige_Gemeinde"},"district":{"key":"03457","name":"Leer","type":"Landkreis"},"federalState":{"key":"03","name":"Niedersachsen"}},{"name":"Heidkampweg","postalCode":"26849","locality":"Filsum","municipality":{"key":"03457008","name":"Filsum","type":"Kreisangehörige_Gemeinde"},"district":{"key":"03457","name":"Leer","type":"Landkreis"},"federalState":{"key":"03","name":"Niedersachsen"}},{"name":"Heidstückenweg","postalCode":"26849","locality":"Filsum","municipality":{"key":"03457008","name":"Filsum","type":"Kreisangehörige_Gemeinde"},"district":{"key":"03457","name":"Leer","type":"Landkreis"},"federalState":{"key":"03","name":"Niedersachsen"}},{"name":"Hemelter Weg","postalCode":"26849","locality":"Filsum","municipality":{"key":"03457008","name":"Filsum","type":"Kreisangehörige_Gemeinde"},"district":{"key":"03457","name":"Leer","type":"Landkreis"},"federalState":{"key":"03","name":"Niedersachsen"}},{"name":"Herrenmoorweg","postalCode":"26849","locality":"Filsum","municipality":{"key":"03457008","name":"Filsum","type":"Kreisangehörige_Gemeinde"},"district":{"key":"03457","name":"Leer","type":"Landkreis"},"federalState":{"key":"03","name":"Niedersachsen"}},{"name":"Hilgenholt","postalCode":"26849","locality":"Filsum","municipality":{"key":"03457008","name":"Filsum","type":"Kreisangehörige_Gemeinde"},"district":{"key":"03457","name":"Leer","type":"Landkreis"},"federalState":{"key":"03","name":"Niedersachsen"}},{"name":"Höchstweg","postalCode":"26849","locality":"Filsum","municipality":{"key":"03457008","name":"Filsum","type":"Kreisangehörige_Gemeinde"},"district":{"key":"03457","name":"Leer","type":"Landkreis"},"federalState":{"key":"03","name":"Niedersachsen"}},{"name":"Hoogeland","postalCode":"26849","locality":"Filsum","municipality":{"key":"03457008","name":"Filsum","type":"Kreisangehörige_Gemeinde"},"district":{"key":"03457","name":"Leer","type":"Landkreis"},"federalState":{"key":"03","name":"Niedersachsen"}},{"name":"Houkweg","postalCode":"26849","locality":"Filsum","municipality":{"key":"03457008","name":"Filsum","type":"Kreisangehörige_Gemeinde"},"district":{"key":"03457","name":"Leer","type":"Landkreis"},"federalState":{"key":"03","name":"Niedersachsen"}},{"name":"Hullenweg","postalCode":"26849","locality":"Filsum","municipality":{"key":"03457008","name":"Filsum","type":"Kreisangehörige_Gemeinde"},"district":{"key":"03457","name":"Leer","type":"Landkreis"},"federalState":{"key":"03","name":"Niedersachsen"}},{"name":"Im Ellerk","postalCode":"26849","locality":"Filsum","municipality":{"key":"03457008","name":"Filsum","type":"Kreisangehörige_Gemeinde"},"district":{"key":"03457","name":"Leer","type":"Landkreis"},"federalState":{"key":"03","name":"Niedersachsen"}},{"name":"Im Schleden","postalCode":"26849","locality":"Filsum","municipality":{"key":"03457008","name":"Filsum","type":"Kreisangehörige_Gemeinde"},"district":{"key":"03457","name":"Leer","type":"Landkreis"},"federalState":{"key":"03","name":"Niedersachsen"}},{"name":"Industriestr.","postalCode":"26849","locality":"Filsum","municipality":{"key":"03457008","name":"Filsum","type":"Kreisangehörige_Gemeinde"},"district":{"key":"03457","name":"Leer","type":"Landkreis"},"federalState":{"key":"03","name":"Niedersachsen"}},{"name":"Jübberkeweg","postalCode":"26849","locality":"Filsum","municipality":{"key":"03457008","name":"Filsum","type":"Kreisangehörige_Gemeinde"},"district":{"key":"03457","name":"Leer","type":"Landkreis"},"federalState":{"key":"03","name":"Niedersachsen"}},{"name":"Kampweg","postalCode":"26849","locality":"Filsum","municipality":{"key":"03457008","name":"Filsum","type":"Kreisangehörige_Gemeinde"},"district":{"key":"03457","name":"Leer","type":"Landkreis"},"federalState":{"key":"03","name":"Niedersachsen"}},{"name":"Kanalstr. Ost","postalCode":"26849","locality":"Filsum","municipality":{"key":"03457008","name":"Filsum","type":"Kreisangehörige_Gemeinde"},"district":{"key":"03457","name":"Leer","type":"Landkreis"},"federalState":{"key":"03","name":"Niedersachsen"}},{"name":"Kanalstr. West","postalCode":"26849","locality":"Filsum","municipality":{"key":"03457008","name":"Filsum","type":"Kreisangehörige_Gemeinde"},"district":{"key":"03457","name":"Leer","type":"Landkreis"},"federalState":{"key":"03","name":"Niedersachsen"}},{"name":"Keierpad","postalCode":"26849","locality":"Filsum","municipality":{"key":"03457008","name":"Filsum","type":"Kreisangehörige_Gemeinde"},"district":{"key":"03457","name":"Leer","type":"Landkreis"},"federalState":{"key":"03","name":"Niedersachsen"}},{"name":"Kellerweg","postalCode":"26849","locality":"Filsum","municipality":{"key":"03457008","name":"Filsum","type":"Kreisangehörige_Gemeinde"},"district":{"key":"03457","name":"Leer","type":"Landkreis"},"federalState":{"key":"03","name":"Niedersachsen"}},{"name":"Kielweg","postalCode":"26849","locality":"Filsum","municipality":{"key":"03457008","name":"Filsum","type":"Kreisangehörige_Gemeinde"},"district":{"key":"03457","name":"Leer","type":"Landkreis"},"federalState":{"key":"03","name":"Niedersachsen"}},{"name":"Königsweg","postalCode":"26849","locality":"Filsum","municipality":{"key":"03457008","name":"Filsum","type":"Kreisangehörige_Gemeinde"},"district":{"key":"03457","name":"Leer","type":"Landkreis"},"federalState":{"key":"03","name":"Niedersachsen"}},{"name":"Koppelkamp","postalCode":"26849","locality":"Filsum","municipality":{"key":"03457008","name":"Filsum","type":"Kreisangehörige_Gemeinde"},"district":{"key":"03457","name":"Leer","type":"Landkreis"},"federalState":{"key":"03","name":"Niedersachsen"}},{"name":"Kreuzweg","postalCode":"26849","locality":"Filsum","municipality":{"key":"03457008","name":"Filsum","type":"Kreisangehörige_Gemeinde"},"district":{"key":"03457","name":"Leer","type":"Landkreis"},"federalState":{"key":"03","name":"Niedersachsen"}},{"name":"Kurzer Weg","postalCode":"26849","locality":"Filsum","municipality":{"key":"03457008","name":"Filsum","type":"Kreisangehörige_Gemeinde"},"district":{"key":"03457","name":"Leer","type":"Landkreis"},"federalState":{"key":"03","name":"Niedersachsen"}},{"name":"Lammertsfehner Str.","postalCode":"26849","locality":"Filsum","municipality":{"key":"03457008","name":"Filsum","type":"Kreisangehörige_Gemeinde"},"district":{"key":"03457","name":"Leer","type":"Landkreis"},"federalState":{"key":"03","name":"Niedersachsen"}},{"name":"Langer Weg","postalCode":"26849","locality":"Filsum","municipality":{"key":"03457008","name":"Filsum","type":"Kreisangehörige_Gemeinde"},"district":{"key":"03457","name":"Leer","type":"Landkreis"},"federalState":{"key":"03","name":"Niedersachsen"}},{"name":"Leegweg","postalCode":"26849","locality":"Filsum","municipality":{"key":"03457008","name":"Filsum","type":"Kreisangehörige_Gemeinde"},"district":{"key":"03457","name":"Leer","type":"Landkreis"},"federalState":{"key":"03","name":"Niedersachsen"}},{"name":"Leeraner Str.","postalCode":"26849","locality":"Filsum","municipality":{"key":"03457008","name":"Filsum","type":"Kreisangehörige_Gemeinde"},"district":{"key":"03457","name":"Leer","type":"Landkreis"},"federalState":{"key":"03","name":"Niedersachsen"}},{"name":"Leisbrookenweg","postalCode":"26849","locality":"Filsum","municipality":{"key":"03457008","name":"Filsum","type":"Kreisangehörige_Gemeinde"},"district":{"key":"03457","name":"Leer","type":"Landkreis"},"federalState":{"key":"03","name":"Niedersachsen"}},{"name":"Lindenweg","postalCode":"26849","locality":"Filsum","municipality":{"key":"03457008","name":"Filsum","type":"Kreisangehörige_Gemeinde"},"district":{"key":"03457","name":"Leer","type":"Landkreis"},"federalState":{"key":"03","name":"Niedersachsen"}},{"name":"Mesterskamp","postalCode":"26849","locality":"Filsum","municipality":{"key":"03457008","name":"Filsum","type":"Kreisangehörige_Gemeinde"},"district":{"key":"03457","name":"Leer","type":"Landkreis"},"federalState":{"key":"03","name":"Niedersachsen"}},{"name":"Mittelweg","postalCode":"26849","locality":"Filsum","municipality":{"key":"03457008","name":"Filsum","type":"Kreisangehörige_Gemeinde"},"district":{"key":"03457","name":"Leer","type":"Landkreis"},"federalState":{"key":"03","name":"Niedersachsen"}},{"name":"Möhlenweg","postalCode":"26849","locality":"Filsum","municipality":{"key":"03457008","name":"Filsum","type":"Kreisangehörige_Gemeinde"},"district":{"key":"03457","name":"Leer","type":"Landkreis"},"federalState":{"key":"03","name":"Niedersachsen"}},{"name":"Moorweg","postalCode":"26849","locality":"Filsum","municipality":{"key":"03457008","name":"Filsum","type":"Kreisangehörige_Gemeinde"},"district":{"key":"03457","name":"Leer","type":"Landkreis"},"federalState":{"key":"03","name":"Niedersachsen"}},{"name":"Nennsfeldweg","postalCode":"26849","locality":"Filsum","municipality":{"key":"03457008","name":"Filsum","type":"Kreisangehörige_Gemeinde"},"district":{"key":"03457","name":"Leer","type":"Landkreis"},"federalState":{"key":"03","name":"Niedersachsen"}},{"name":"Neuer Weg","postalCode":"26849","locality":"Filsum","municipality":{"key":"03457008","name":"Filsum","type":"Kreisangehörige_Gemeinde"},"district":{"key":"03457","name":"Leer","type":"Landkreis"},"federalState":{"key":"03","name":"Niedersachsen"}},{"name":"Nodweg","postalCode":"26849","locality":"Filsum","municipality":{"key":"03457008","name":"Filsum","type":"Kreisangehörige_Gemeinde"},"district":{"key":"03457","name":"Leer","type":"Landkreis"},"federalState":{"key":"03","name":"Niedersachsen"}},{"name":"Nordbargen","postalCode":"26849","locality":"Filsum","municipality":{"key":"03457008","name":"Filsum","type":"Kreisangehörige_Gemeinde"},"district":{"key":"03457","name":"Leer","type":"Landkreis"},"federalState":{"key":"03","name":"Niedersachsen"}},{"name":"Olleweg","postalCode":"26849","locality":"Filsum","municipality":{"key":"03457008","name":"Filsum","type":"Kreisangehörige_Gemeinde"},"district":{"key":"03457","name":"Leer","type":"Landkreis"},"federalState":{"key":"03","name":"Niedersachsen"}},{"name":"Oll Kamp","postalCode":"26849","locality":"Filsum","municipality":{"key":"03457008","name":"Filsum","type":"Kreisangehörige_Gemeinde"},"district":{"key":"03457","name":"Leer","type":"Landkreis"},"federalState":{"key":"03","name":"Niedersachsen"}},{"name":"Ossensetmoorweg","postalCode":"26849","locality":"Filsum","municipality":{"key":"03457008","name":"Filsum","type":"Kreisangehörige_Gemeinde"},"district":{"key":"03457","name":"Leer","type":"Landkreis"},"federalState":{"key":"03","name":"Niedersachsen"}},{"name":"Ossensetweg","postalCode":"26849","locality":"Filsum","municipality":{"key":"03457008","name":"Filsum","type":"Kreisangehörige_Gemeinde"},"district":{"key":"03457","name":"Leer","type":"Landkreis"},"federalState":{"key":"03","name":"Niedersachsen"}},{"name":"Ostdreeskweg","postalCode":"26849","locality":"Filsum","municipality":{"key":"03457008","name":"Filsum","type":"Kreisangehörige_Gemeinde"},"district":{"key":"03457","name":"Leer","type":"Landkreis"},"federalState":{"key":"03","name":"Niedersachsen"}},{"name":"Osterbrookstr.","postalCode":"26849","locality":"Filsum","municipality":{"key":"03457008","name":"Filsum","type":"Kreisangehörige_Gemeinde"},"district":{"key":"03457","name":"Leer","type":"Landkreis"},"federalState":{"key":"03","name":"Niedersachsen"}},{"name":"Osterende","postalCode":"26849","locality":"Filsum","municipality":{"key":"03457008","name":"Filsum","type":"Kreisangehörige_Gemeinde"},"district":{"key":"03457","name":"Leer","type":"Landkreis"},"federalState":{"key":"03","name":"Niedersachsen"}},{"name":"Osterschlede","postalCode":"26849","locality":"Filsum","municipality":{"key":"03457008","name":"Filsum","type":"Kreisangehörige_Gemeinde"},"district":{"key":"03457","name":"Leer","type":"Landkreis"},"federalState":{"key":"03","name":"Niedersachsen"}},{"name":"Padstückenweg","postalCode":"26849","locality":"Filsum","municipality":{"key":"03457008","name":"Filsum","type":"Kreisangehörige_Gemeinde"},"district":{"key":"03457","name":"Leer","type":"Landkreis"},"federalState":{"key":"03","name":"Niedersachsen"}},{"name":"Pallerkweg","postalCode":"26849","locality":"Filsum","municipality":{"key":"03457008","name":"Filsum","type":"Kreisangehörige_Gemeinde"},"district":{"key":"03457","name":"Leer","type":"Landkreis"},"federalState":{"key":"03","name":"Niedersachsen"}},{"name":"Polderweg","postalCode":"26849","locality":"Filsum","municipality":{"key":"03457008","name":"Filsum","type":"Kreisangehörige_Gemeinde"},"district":{"key":"03457","name":"Leer","type":"Landkreis"},"federalState":{"key":"03","name":"Niedersachsen"}},{"name":"Querweg","postalCode":"26789","locality":"Leer","municipality":{"key":"03457013","name":"Leer (Ostfriesland), Stadt","type":"Stadt"},"district":{"key":"03457","name":"Leer","type":"Landkreis"},"federalState":{"key":"03","name":"Niedersachsen"}},{"name":"Rathausring","postalCode":"26849","locality":"Filsum","municipality":{"key":"03457008","name":"Filsum","type":"Kreisangehörige_Gemeinde"},"district":{"key":"03457","name":"Leer","type":"Landkreis"},"federalState":{"key":"03","name":"Niedersachsen"}},{"name":"Rathausstr.","postalCode":"26849","locality":"Filsum","municipality":{"key":"03457008","name":"Filsum","type":"Kreisangehörige_Gemeinde"},"district":{"key":"03457","name":"Leer","type":"Landkreis"},"federalState":{"key":"03","name":"Niedersachsen"}},{"name":"Reithmoorweg","postalCode":"26849","locality":"Filsum","municipality":{"key":"03457008","name":"Filsum","type":"Kreisangehörige_Gemeinde"},"district":{"key":"03457","name":"Leer","type":"Landkreis"},"federalState":{"key":"03","name":"Niedersachsen"}},{"name":"Rosenstr.","postalCode":"26849","locality":"Filsum","municipality":{"key":"03457008","name":"Filsum","type":"Kreisangehörige_Gemeinde"},"district":{"key":"03457","name":"Leer","type":"Landkreis"},"federalState":{"key":"03","name":"Niedersachsen"}},{"name":"Scharpness","postalCode":"26849","locality":"Filsum","municipality":{"key":"03457008","name":"Filsum","type":"Kreisangehörige_Gemeinde"},"district":{"key":"03457","name":"Leer","type":"Landkreis"},"federalState":{"key":"03","name":"Niedersachsen"}},{"name":"Schledestr.","postalCode":"26849","locality":"Filsum","municipality":{"key":"03457008","name":"Filsum","type":"Kreisangehörige_Gemeinde"},"district":{"key":"03457","name":"Leer","type":"Landkreis"},"federalState":{"key":"03","name":"Niedersachsen"}},{"name":"Schulstr.","postalCode":"26849","locality":"Filsum","municipality":{"key":"03457008","name":"Filsum","type":"Kreisangehörige_Gemeinde"},"district":{"key":"03457","name":"Leer","type":"Landkreis"},"federalState":{"key":"03","name":"Niedersachsen"}},{"name":"Sonnentaustr.","postalCode":"26849","locality":"Filsum","municipality":{"key":"03457008","name":"Filsum","type":"Kreisangehörige_Gemeinde"},"district":{"key":"03457","name":"Leer","type":"Landkreis"},"federalState":{"key":"03","name":"Niedersachsen"}},{"name":"Steinende","postalCode":"26849","locality":"Filsum","municipality":{"key":"03457008","name":"Filsum","type":"Kreisangehörige_Gemeinde"},"district":{"key":"03457","name":"Leer","type":"Landkreis"},"federalState":{"key":"03","name":"Niedersachsen"}},{"name":"Steinklippen","postalCode":"26849","locality":"Filsum","municipality":{"key":"03457008","name":"Filsum","type":"Kreisangehörige_Gemeinde"},"district":{"key":"03457","name":"Leer","type":"Landkreis"},"federalState":{"key":"03","name":"Niedersachsen"}},{"name":"Tannenweg","postalCode":"26849","locality":"Filsum","municipality":{"key":"03457008","name":"Filsum","type":"Kreisangehörige_Gemeinde"},"district":{"key":"03457","name":"Leer","type":"Landkreis"},"federalState":{"key":"03","name":"Niedersachsen"}},{"name":"Tilkenweg","postalCode":"26849","locality":"Filsum","municipality":{"key":"03457008","name":"Filsum","type":"Kreisangehörige_Gemeinde"},"district":{"key":"03457","name":"Leer","type":"Landkreis"},"federalState":{"key":"03","name":"Niedersachsen"}},{"name":"Unter den Eichen","postalCode":"26849","locality":"Filsum","municipality":{"key":"03457008","name":"Filsum","type":"Kreisangehörige_Gemeinde"},"district":{"key":"03457","name":"Leer","type":"Landkreis"},"federalState":{"key":"03","name":"Niedersachsen"}},{"name":"Unterm Moor","postalCode":"26849","locality":"Filsum","municipality":{"key":"03457008","name":"Filsum","type":"Kreisangehörige_Gemeinde"},"district":{"key":"03457","name":"Leer","type":"Landkreis"},"federalState":{"key":"03","name":"Niedersachsen"}},{"name":"Unterster Weg","postalCode":"26849","locality":"Filsum","municipality":{"key":"03457008","name":"Filsum","type":"Kreisangehörige_Gemeinde"},"district":{"key":"03457","name":"Leer","type":"Landkreis"},"federalState":{"key":"03","name":"Niedersachsen"}},{"name":"Verbindungsweg","postalCode":"26849","locality":"Filsum","municipality":{"key":"03457008","name":"Filsum","type":"Kreisangehörige_Gemeinde"},"district":{"key":"03457","name":"Leer","type":"Landkreis"},"federalState":{"key":"03","name":"Niedersachsen"}},{"name":"Wallring","postalCode":"26849","locality":"Filsum","municipality":{"key":"03457008","name":"Filsum","type":"Kreisangehörige_Gemeinde"},"district":{"key":"03457","name":"Leer","type":"Landkreis"},"federalState":{"key":"03","name":"Niedersachsen"}},{"name":"Weidenweg","postalCode":"26849","locality":"Filsum","municipality":{"key":"03457008","name":"Filsum","type":"Kreisangehörige_Gemeinde"},"district":{"key":"03457","name":"Leer","type":"Landkreis"},"federalState":{"key":"03","name":"Niedersachsen"}},{"name":"Wergenweg","postalCode":"26849","locality":"Filsum","municipality":{"key":"03457008","name":"Filsum","type":"Kreisangehörige_Gemeinde"},"district":{"key":"03457","name":"Leer","type":"Landkreis"},"federalState":{"key":"03","name":"Niedersachsen"}},{"name":"Westerende","postalCode":"26849","locality":"Filsum","municipality":{"key":"03457008","name":"Filsum","type":"Kreisangehörige_Gemeinde"},"district":{"key":"03457","name":"Leer","type":"Landkreis"},"federalState":{"key":"03","name":"Niedersachsen"}},{"name":"Westernweg","postalCode":"26849","locality":"Filsum","municipality":{"key":"03457008","name":"Filsum","type":"Kreisangehörige_Gemeinde"},"district":{"key":"03457","name":"Leer","type":"Landkreis"},"federalState":{"key":"03","name":"Niedersachsen"}},{"name":"Weydamm","postalCode":"26849","locality":"Filsum","municipality":{"key":"03457008","name":"Filsum","type":"Kreisangehörige_Gemeinde"},"district":{"key":"03457","name":"Leer","type":"Landkreis"},"federalState":{"key":"03","name":"Niedersachsen"}},{"name":"Wieke Nord","postalCode":"26849","locality":"Filsum","municipality":{"key":"03457008","name":"Filsum","type":"Kreisangehörige_Gemeinde"},"district":{"key":"03457","name":"Leer","type":"Landkreis"},"federalState":{"key":"03","name":"Niedersachsen"}},{"name":"Windbarger Weg","postalCode":"26849","locality":"Filsum","municipality":{"key":"03457008","name":"Filsum","type":"Kreisangehörige_Gemeinde"},"district":{"key":"03457","name":"Leer","type":"Landkreis"},"federalState":{"key":"03","name":"Niedersachsen"}},{"name":"Wittenmoorweg","postalCode":"26849","locality":"Filsum","municipality":{"key":"03457008","name":"Filsum","type":"Kreisangehörige_Gemeinde"},"district":{"key":"03457","name":"Leer","type":"Landkreis"},"federalState":{"key":"03","name":"Niedersachsen"}},{"name":"Zeppelinstr.","postalCode":"26789","locality":"Leer","municipality":{"key":"03457013","name":"Leer (Ostfriesland), Stadt","type":"Stadt"},"district":{"key":"03457","name":"Leer","type":"Landkreis"},"federalState":{"key":"03","name":"Niedersachsen"}},{"name":"Ziegeleistr.","postalCode":"26789","locality":"Leer","municipality":{"key":"03457013","name":"Leer (Ostfriesland), Stadt","type":"Stadt"},"district":{"key":"03457","name":"Leer","type":"Landkreis"},"federalState":{"key":"03","name":"Niedersachsen"}},{"name":"Zoostr.","postalCode":"26789","locality":"Leer","municipality":{"key":"03457013","name":"Leer (Ostfriesland), Stadt","type":"Stadt"},"district":{"key":"03457","name":"Leer","type":"Landkreis"},"federalState":{"key":"03","name":"Niedersachsen"}},{"name":"Zum Hammrich","postalCode":"26789","locality":"Leer","municipality":{"key":"03457013","name":"Leer (Ostfriesland), Stadt","type":"Stadt"},"district":{"key":"03457","name":"Leer","type":"Landkreis"},"federalState":{"key":"03","name":"Niedersachsen"}},{"name":"Zum Voßberg","postalCode":"26789","locality":"Leer","municipality":{"key":"03457013","name":"Leer (Ostfriesland), Stadt","type":"Stadt"},"district":{"key":"03457","name":"Leer","type":"Landkreis"},"federalState":{"key":"03","name":"Niedersachsen"}},{"name":"Zur Koppel","postalCode":"26789","locality":"Leer","municipality":{"key":"03457013","name":"Leer (Ostfriesland), Stadt","type":"Stadt"},"district":{"key":"03457","name":"Leer","type":"Landkreis"},"federalState":{"key":"03","name":"Niedersachsen"}},]