[{"name":"Adolf-Kolping-Str.","postalCode":"32339","locality":"Espelkamp","municipality":{"key":"05770008","name":"Espelkamp, Stadt","type":"Stadt"},"district":{"key":"05770","name":"Minden-Lübbecke","type":"Kreis"},"federalState":{"key":"05","name":"Nordrhein-Westfalen"}},{"name":"Agathe-Stille-Str.","postalCode":"32339","locality":"Espelkamp","municipality":{"key":"05770008","name":"Espelkamp, Stadt","type":"Stadt"},"district":{"key":"05770","name":"Minden-Lübbecke","type":"Kreis"},"federalState":{"key":"05","name":"Nordrhein-Westfalen"}},{"name":"Ahornweg","postalCode":"32339","locality":"Espelkamp","municipality":{"key":"05770008","name":"Espelkamp, Stadt","type":"Stadt"},"district":{"key":"05770","name":"Minden-Lübbecke","type":"Kreis"},"federalState":{"key":"05","name":"Nordrhein-Westfalen"}},{"name":"Akazienweg","postalCode":"32339","locality":"Espelkamp","municipality":{"key":"05770008","name":"Espelkamp, Stadt","type":"Stadt"},"district":{"key":"05770","name":"Minden-Lübbecke","type":"Kreis"},"federalState":{"key":"05","name":"Nordrhein-Westfalen"}},{"name":"Alhardstr.","postalCode":"32339","locality":"Espelkamp","municipality":{"key":"05770008","name":"Espelkamp, Stadt","type":"Stadt"},"district":{"key":"05770","name":"Minden-Lübbecke","type":"Kreis"},"federalState":{"key":"05","name":"Nordrhein-Westfalen"}},{"name":"Allensteiner Weg","postalCode":"32339","locality":"Espelkamp","municipality":{"key":"05770008","name":"Espelkamp, Stadt","type":"Stadt"},"district":{"key":"05770","name":"Minden-Lübbecke","type":"Kreis"},"federalState":{"key":"05","name":"Nordrhein-Westfalen"}},{"name":"Alsweder Landstr.","postalCode":"32339","locality":"Espelkamp","municipality":{"key":"05770008","name":"Espelkamp, Stadt","type":"Stadt"},"district":{"key":"05770","name":"Minden-Lübbecke","type":"Kreis"},"federalState":{"key":"05","name":"Nordrhein-Westfalen"}},{"name":"Alte Mühle","postalCode":"32339","locality":"Espelkamp","municipality":{"key":"05770008","name":"Espelkamp, Stadt","type":"Stadt"},"district":{"key":"05770","name":"Minden-Lübbecke","type":"Kreis"},"federalState":{"key":"05","name":"Nordrhein-Westfalen"}},{"name":"Alter Moorweg","postalCode":"32339","locality":"Espelkamp","municipality":{"key":"05770008","name":"Espelkamp, Stadt","type":"Stadt"},"district":{"key":"05770","name":"Minden-Lübbecke","type":"Kreis"},"federalState":{"key":"05","name":"Nordrhein-Westfalen"}},{"name":"Alte Schulstr.","postalCode":"32339","locality":"Espelkamp","municipality":{"key":"05770008","name":"Espelkamp, Stadt","type":"Stadt"},"district":{"key":"05770","name":"Minden-Lübbecke","type":"Kreis"},"federalState":{"key":"05","name":"Nordrhein-Westfalen"}},{"name":"Alte Waldstr.","postalCode":"32339","locality":"Espelkamp","municipality":{"key":"05770008","name":"Espelkamp, Stadt","type":"Stadt"},"district":{"key":"05770","name":"Minden-Lübbecke","type":"Kreis"},"federalState":{"key":"05","name":"Nordrhein-Westfalen"}},{"name":"Alte Zwetschenstr.","postalCode":"32339","locality":"Espelkamp","municipality":{"key":"05770008","name":"Espelkamp, Stadt","type":"Stadt"},"district":{"key":"05770","name":"Minden-Lübbecke","type":"Kreis"},"federalState":{"key":"05","name":"Nordrhein-Westfalen"}},{"name":"Am Bahnhof","postalCode":"32339","locality":"Espelkamp","municipality":{"key":"05770008","name":"Espelkamp, Stadt","type":"Stadt"},"district":{"key":"05770","name":"Minden-Lübbecke","type":"Kreis"},"federalState":{"key":"05","name":"Nordrhein-Westfalen"}},{"name":"Am Birkenhof","postalCode":"32339","locality":"Espelkamp","municipality":{"key":"05770008","name":"Espelkamp, Stadt","type":"Stadt"},"district":{"key":"05770","name":"Minden-Lübbecke","type":"Kreis"},"federalState":{"key":"05","name":"Nordrhein-Westfalen"}},{"name":"Am Buchhügel","postalCode":"32339","locality":"Espelkamp","municipality":{"key":"05770008","name":"Espelkamp, Stadt","type":"Stadt"},"district":{"key":"05770","name":"Minden-Lübbecke","type":"Kreis"},"federalState":{"key":"05","name":"Nordrhein-Westfalen"}},{"name":"Am Friedebrink","postalCode":"32339","locality":"Espelkamp","municipality":{"key":"05770008","name":"Espelkamp, Stadt","type":"Stadt"},"district":{"key":"05770","name":"Minden-Lübbecke","type":"Kreis"},"federalState":{"key":"05","name":"Nordrhein-Westfalen"}},{"name":"Am Grünen Kranze","postalCode":"32339","locality":"Espelkamp","municipality":{"key":"05770008","name":"Espelkamp, Stadt","type":"Stadt"},"district":{"key":"05770","name":"Minden-Lübbecke","type":"Kreis"},"federalState":{"key":"05","name":"Nordrhein-Westfalen"}},{"name":"Am Hügel","postalCode":"32339","locality":"Espelkamp","municipality":{"key":"05770008","name":"Espelkamp, Stadt","type":"Stadt"},"district":{"key":"05770","name":"Minden-Lübbecke","type":"Kreis"},"federalState":{"key":"05","name":"Nordrhein-Westfalen"}},{"name":"Am Loh","postalCode":"32339","locality":"Espelkamp","municipality":{"key":"05770008","name":"Espelkamp, Stadt","type":"Stadt"},"district":{"key":"05770","name":"Minden-Lübbecke","type":"Kreis"},"federalState":{"key":"05","name":"Nordrhein-Westfalen"}},{"name":"Am Mindener Wald","postalCode":"32339","locality":"Espelkamp","municipality":{"key":"05770008","name":"Espelkamp, Stadt","type":"Stadt"},"district":{"key":"05770","name":"Minden-Lübbecke","type":"Kreis"},"federalState":{"key":"05","name":"Nordrhein-Westfalen"}},{"name":"Amselweg","postalCode":"32339","locality":"Espelkamp","municipality":{"key":"05770008","name":"Espelkamp, Stadt","type":"Stadt"},"district":{"key":"05770","name":"Minden-Lübbecke","type":"Kreis"},"federalState":{"key":"05","name":"Nordrhein-Westfalen"}},{"name":"Am Waldbach","postalCode":"32339","locality":"Espelkamp","municipality":{"key":"05770008","name":"Espelkamp, Stadt","type":"Stadt"},"district":{"key":"05770","name":"Minden-Lübbecke","type":"Kreis"},"federalState":{"key":"05","name":"Nordrhein-Westfalen"}},{"name":"Angerburger Weg","postalCode":"32339","locality":"Espelkamp","municipality":{"key":"05770008","name":"Espelkamp, Stadt","type":"Stadt"},"district":{"key":"05770","name":"Minden-Lübbecke","type":"Kreis"},"federalState":{"key":"05","name":"Nordrhein-Westfalen"}},{"name":"Angermünder Weg","postalCode":"32339","locality":"Espelkamp","municipality":{"key":"05770008","name":"Espelkamp, Stadt","type":"Stadt"},"district":{"key":"05770","name":"Minden-Lübbecke","type":"Kreis"},"federalState":{"key":"05","name":"Nordrhein-Westfalen"}},{"name":"Apfelweg","postalCode":"32339","locality":"Espelkamp","municipality":{"key":"05770008","name":"Espelkamp, Stadt","type":"Stadt"},"district":{"key":"05770","name":"Minden-Lübbecke","type":"Kreis"},"federalState":{"key":"05","name":"Nordrhein-Westfalen"}},{"name":"Asternweg","postalCode":"32339","locality":"Espelkamp","municipality":{"key":"05770008","name":"Espelkamp, Stadt","type":"Stadt"},"district":{"key":"05770","name":"Minden-Lübbecke","type":"Kreis"},"federalState":{"key":"05","name":"Nordrhein-Westfalen"}},{"name":"Auf dem Richtepatt","postalCode":"32339","locality":"Espelkamp","municipality":{"key":"05770008","name":"Espelkamp, Stadt","type":"Stadt"},"district":{"key":"05770","name":"Minden-Lübbecke","type":"Kreis"},"federalState":{"key":"05","name":"Nordrhein-Westfalen"}},{"name":"Auf der Heide","postalCode":"32339","locality":"Espelkamp","municipality":{"key":"05770008","name":"Espelkamp, Stadt","type":"Stadt"},"district":{"key":"05770","name":"Minden-Lübbecke","type":"Kreis"},"federalState":{"key":"05","name":"Nordrhein-Westfalen"}},{"name":"August-Skirde-Weg","postalCode":"32339","locality":"Espelkamp","municipality":{"key":"05770008","name":"Espelkamp, Stadt","type":"Stadt"},"district":{"key":"05770","name":"Minden-Lübbecke","type":"Kreis"},"federalState":{"key":"05","name":"Nordrhein-Westfalen"}},{"name":"Aussiger Str.","postalCode":"32339","locality":"Espelkamp","municipality":{"key":"05770008","name":"Espelkamp, Stadt","type":"Stadt"},"district":{"key":"05770","name":"Minden-Lübbecke","type":"Kreis"},"federalState":{"key":"05","name":"Nordrhein-Westfalen"}},{"name":"Azaleenring","postalCode":"32339","locality":"Espelkamp","municipality":{"key":"05770008","name":"Espelkamp, Stadt","type":"Stadt"},"district":{"key":"05770","name":"Minden-Lübbecke","type":"Kreis"},"federalState":{"key":"05","name":"Nordrhein-Westfalen"}},{"name":"Bachstr.","postalCode":"32339","locality":"Espelkamp","municipality":{"key":"05770008","name":"Espelkamp, Stadt","type":"Stadt"},"district":{"key":"05770","name":"Minden-Lübbecke","type":"Kreis"},"federalState":{"key":"05","name":"Nordrhein-Westfalen"}},{"name":"Bahnstr.","postalCode":"32339","locality":"Espelkamp","municipality":{"key":"05770008","name":"Espelkamp, Stadt","type":"Stadt"},"district":{"key":"05770","name":"Minden-Lübbecke","type":"Kreis"},"federalState":{"key":"05","name":"Nordrhein-Westfalen"}},{"name":"Baltenweg","postalCode":"32339","locality":"Espelkamp","municipality":{"key":"05770008","name":"Espelkamp, Stadt","type":"Stadt"},"district":{"key":"05770","name":"Minden-Lübbecke","type":"Kreis"},"federalState":{"key":"05","name":"Nordrhein-Westfalen"}},{"name":"Bartensteiner Weg","postalCode":"32339","locality":"Espelkamp","municipality":{"key":"05770008","name":"Espelkamp, Stadt","type":"Stadt"},"district":{"key":"05770","name":"Minden-Lübbecke","type":"Kreis"},"federalState":{"key":"05","name":"Nordrhein-Westfalen"}},{"name":"Bauschlingenweg","postalCode":"32339","locality":"Espelkamp","municipality":{"key":"05770008","name":"Espelkamp, Stadt","type":"Stadt"},"district":{"key":"05770","name":"Minden-Lübbecke","type":"Kreis"},"federalState":{"key":"05","name":"Nordrhein-Westfalen"}},{"name":"Berliner Ring","postalCode":"32339","locality":"Espelkamp","municipality":{"key":"05770008","name":"Espelkamp, Stadt","type":"Stadt"},"district":{"key":"05770","name":"Minden-Lübbecke","type":"Kreis"},"federalState":{"key":"05","name":"Nordrhein-Westfalen"}},{"name":"Beuthener Str.","postalCode":"32339","locality":"Espelkamp","municipality":{"key":"05770008","name":"Espelkamp, Stadt","type":"Stadt"},"district":{"key":"05770","name":"Minden-Lübbecke","type":"Kreis"},"federalState":{"key":"05","name":"Nordrhein-Westfalen"}},{"name":"Birger-Forell-Str.","postalCode":"32339","locality":"Espelkamp","municipality":{"key":"05770008","name":"Espelkamp, Stadt","type":"Stadt"},"district":{"key":"05770","name":"Minden-Lübbecke","type":"Kreis"},"federalState":{"key":"05","name":"Nordrhein-Westfalen"}},{"name":"Birkenbruchweg","postalCode":"32339","locality":"Espelkamp","municipality":{"key":"05770008","name":"Espelkamp, Stadt","type":"Stadt"},"district":{"key":"05770","name":"Minden-Lübbecke","type":"Kreis"},"federalState":{"key":"05","name":"Nordrhein-Westfalen"}},{"name":"Birkenweg","postalCode":"32339","locality":"Espelkamp","municipality":{"key":"05770008","name":"Espelkamp, Stadt","type":"Stadt"},"district":{"key":"05770","name":"Minden-Lübbecke","type":"Kreis"},"federalState":{"key":"05","name":"Nordrhein-Westfalen"}},{"name":"Bischof-Hermann-Kunst-Platz","postalCode":"32339","locality":"Espelkamp","municipality":{"key":"05770008","name":"Espelkamp, Stadt","type":"Stadt"},"district":{"key":"05770","name":"Minden-Lübbecke","type":"Kreis"},"federalState":{"key":"05","name":"Nordrhein-Westfalen"}},{"name":"Blasheimer Str.","postalCode":"32339","locality":"Espelkamp","municipality":{"key":"05770008","name":"Espelkamp, Stadt","type":"Stadt"},"district":{"key":"05770","name":"Minden-Lübbecke","type":"Kreis"},"federalState":{"key":"05","name":"Nordrhein-Westfalen"}},{"name":"Blumenstr.","postalCode":"32339","locality":"Espelkamp","municipality":{"key":"05770008","name":"Espelkamp, Stadt","type":"Stadt"},"district":{"key":"05770","name":"Minden-Lübbecke","type":"Kreis"},"federalState":{"key":"05","name":"Nordrhein-Westfalen"}},{"name":"Brandenburger Ring","postalCode":"32339","locality":"Espelkamp","municipality":{"key":"05770008","name":"Espelkamp, Stadt","type":"Stadt"},"district":{"key":"05770","name":"Minden-Lübbecke","type":"Kreis"},"federalState":{"key":"05","name":"Nordrhein-Westfalen"}},{"name":"Brandheide","postalCode":"32339","locality":"Espelkamp","municipality":{"key":"05770008","name":"Espelkamp, Stadt","type":"Stadt"},"district":{"key":"05770","name":"Minden-Lübbecke","type":"Kreis"},"federalState":{"key":"05","name":"Nordrhein-Westfalen"}},{"name":"Bremer Str.","postalCode":"32339","locality":"Espelkamp","municipality":{"key":"05770008","name":"Espelkamp, Stadt","type":"Stadt"},"district":{"key":"05770","name":"Minden-Lübbecke","type":"Kreis"},"federalState":{"key":"05","name":"Nordrhein-Westfalen"}},{"name":"Breslauer Str.","postalCode":"32339","locality":"Espelkamp","municipality":{"key":"05770008","name":"Espelkamp, Stadt","type":"Stadt"},"district":{"key":"05770","name":"Minden-Lübbecke","type":"Kreis"},"federalState":{"key":"05","name":"Nordrhein-Westfalen"}},{"name":"Brinker Feld","postalCode":"32339","locality":"Espelkamp","municipality":{"key":"05770008","name":"Espelkamp, Stadt","type":"Stadt"},"district":{"key":"05770","name":"Minden-Lübbecke","type":"Kreis"},"federalState":{"key":"05","name":"Nordrhein-Westfalen"}},{"name":"Bromberger Weg","postalCode":"32339","locality":"Espelkamp","municipality":{"key":"05770008","name":"Espelkamp, Stadt","type":"Stadt"},"district":{"key":"05770","name":"Minden-Lübbecke","type":"Kreis"},"federalState":{"key":"05","name":"Nordrhein-Westfalen"}},{"name":"Brückenstr.","postalCode":"32339","locality":"Espelkamp","municipality":{"key":"05770008","name":"Espelkamp, Stadt","type":"Stadt"},"district":{"key":"05770","name":"Minden-Lübbecke","type":"Kreis"},"federalState":{"key":"05","name":"Nordrhein-Westfalen"}},{"name":"Buchenweg","postalCode":"32339","locality":"Espelkamp","municipality":{"key":"05770008","name":"Espelkamp, Stadt","type":"Stadt"},"district":{"key":"05770","name":"Minden-Lübbecke","type":"Kreis"},"federalState":{"key":"05","name":"Nordrhein-Westfalen"}},{"name":"Bussardweg","postalCode":"32339","locality":"Espelkamp","municipality":{"key":"05770008","name":"Espelkamp, Stadt","type":"Stadt"},"district":{"key":"05770","name":"Minden-Lübbecke","type":"Kreis"},"federalState":{"key":"05","name":"Nordrhein-Westfalen"}},{"name":"Büttinghauser Feldweg","postalCode":"32339","locality":"Espelkamp","municipality":{"key":"05770008","name":"Espelkamp, Stadt","type":"Stadt"},"district":{"key":"05770","name":"Minden-Lübbecke","type":"Kreis"},"federalState":{"key":"05","name":"Nordrhein-Westfalen"}},{"name":"Chemnitzer Weg","postalCode":"32339","locality":"Espelkamp","municipality":{"key":"05770008","name":"Espelkamp, Stadt","type":"Stadt"},"district":{"key":"05770","name":"Minden-Lübbecke","type":"Kreis"},"federalState":{"key":"05","name":"Nordrhein-Westfalen"}},{"name":"Desteler Str.","postalCode":"32339","locality":"Espelkamp","municipality":{"key":"05770008","name":"Espelkamp, Stadt","type":"Stadt"},"district":{"key":"05770","name":"Minden-Lübbecke","type":"Kreis"},"federalState":{"key":"05","name":"Nordrhein-Westfalen"}},{"name":"Diekerorter Str.","postalCode":"32339","locality":"Espelkamp","municipality":{"key":"05770008","name":"Espelkamp, Stadt","type":"Stadt"},"district":{"key":"05770","name":"Minden-Lübbecke","type":"Kreis"},"federalState":{"key":"05","name":"Nordrhein-Westfalen"}},{"name":"Diekwiesenweg","postalCode":"32339","locality":"Espelkamp","municipality":{"key":"05770008","name":"Espelkamp, Stadt","type":"Stadt"},"district":{"key":"05770","name":"Minden-Lübbecke","type":"Kreis"},"federalState":{"key":"05","name":"Nordrhein-Westfalen"}},{"name":"Diepenauer Str.","postalCode":"32339","locality":"Espelkamp","municipality":{"key":"05770008","name":"Espelkamp, Stadt","type":"Stadt"},"district":{"key":"05770","name":"Minden-Lübbecke","type":"Kreis"},"federalState":{"key":"05","name":"Nordrhein-Westfalen"}},{"name":"Dresdner Str.","postalCode":"32339","locality":"Espelkamp","municipality":{"key":"05770008","name":"Espelkamp, Stadt","type":"Stadt"},"district":{"key":"05770","name":"Minden-Lübbecke","type":"Kreis"},"federalState":{"key":"05","name":"Nordrhein-Westfalen"}},{"name":"Driangelweg","postalCode":"32339","locality":"Espelkamp","municipality":{"key":"05770008","name":"Espelkamp, Stadt","type":"Stadt"},"district":{"key":"05770","name":"Minden-Lübbecke","type":"Kreis"},"federalState":{"key":"05","name":"Nordrhein-Westfalen"}},{"name":"Dr.-Max-Ilgner-Str.","postalCode":"32339","locality":"Espelkamp","municipality":{"key":"05770008","name":"Espelkamp, Stadt","type":"Stadt"},"district":{"key":"05770","name":"Minden-Lübbecke","type":"Kreis"},"federalState":{"key":"05","name":"Nordrhein-Westfalen"}},{"name":"Drosselsteg","postalCode":"32339","locality":"Espelkamp","municipality":{"key":"05770008","name":"Espelkamp, Stadt","type":"Stadt"},"district":{"key":"05770","name":"Minden-Lübbecke","type":"Kreis"},"federalState":{"key":"05","name":"Nordrhein-Westfalen"}},{"name":"Eibenring","postalCode":"32339","locality":"Espelkamp","municipality":{"key":"05770008","name":"Espelkamp, Stadt","type":"Stadt"},"district":{"key":"05770","name":"Minden-Lübbecke","type":"Kreis"},"federalState":{"key":"05","name":"Nordrhein-Westfalen"}},{"name":"Eichendorffstr.","postalCode":"32339","locality":"Espelkamp","municipality":{"key":"05770008","name":"Espelkamp, Stadt","type":"Stadt"},"district":{"key":"05770","name":"Minden-Lübbecke","type":"Kreis"},"federalState":{"key":"05","name":"Nordrhein-Westfalen"}},{"name":"Eichenweg","postalCode":"32339","locality":"Espelkamp","municipality":{"key":"05770008","name":"Espelkamp, Stadt","type":"Stadt"},"district":{"key":"05770","name":"Minden-Lübbecke","type":"Kreis"},"federalState":{"key":"05","name":"Nordrhein-Westfalen"}},{"name":"Elbinger Weg","postalCode":"32339","locality":"Espelkamp","municipality":{"key":"05770008","name":"Espelkamp, Stadt","type":"Stadt"},"district":{"key":"05770","name":"Minden-Lübbecke","type":"Kreis"},"federalState":{"key":"05","name":"Nordrhein-Westfalen"}},{"name":"Ellerburger Allee","postalCode":"32339","locality":"Espelkamp","municipality":{"key":"05770008","name":"Espelkamp, Stadt","type":"Stadt"},"district":{"key":"05770","name":"Minden-Lübbecke","type":"Kreis"},"federalState":{"key":"05","name":"Nordrhein-Westfalen"}},{"name":"Elsa-Brändström-Str.","postalCode":"32339","locality":"Espelkamp","municipality":{"key":"05770008","name":"Espelkamp, Stadt","type":"Stadt"},"district":{"key":"05770","name":"Minden-Lübbecke","type":"Kreis"},"federalState":{"key":"05","name":"Nordrhein-Westfalen"}},{"name":"Elsterbruchweg","postalCode":"32339","locality":"Espelkamp","municipality":{"key":"05770008","name":"Espelkamp, Stadt","type":"Stadt"},"district":{"key":"05770","name":"Minden-Lübbecke","type":"Kreis"},"federalState":{"key":"05","name":"Nordrhein-Westfalen"}},{"name":"Elsterkampstr.","postalCode":"32339","locality":"Espelkamp","municipality":{"key":"05770008","name":"Espelkamp, Stadt","type":"Stadt"},"district":{"key":"05770","name":"Minden-Lübbecke","type":"Kreis"},"federalState":{"key":"05","name":"Nordrhein-Westfalen"}},{"name":"Englischer Garten","postalCode":"32339","locality":"Espelkamp","municipality":{"key":"05770008","name":"Espelkamp, Stadt","type":"Stadt"},"district":{"key":"05770","name":"Minden-Lübbecke","type":"Kreis"},"federalState":{"key":"05","name":"Nordrhein-Westfalen"}},{"name":"Erfmeyerstr.","postalCode":"32339","locality":"Espelkamp","municipality":{"key":"05770008","name":"Espelkamp, Stadt","type":"Stadt"},"district":{"key":"05770","name":"Minden-Lübbecke","type":"Kreis"},"federalState":{"key":"05","name":"Nordrhein-Westfalen"}},{"name":"Erfurter Weg","postalCode":"32339","locality":"Espelkamp","municipality":{"key":"05770008","name":"Espelkamp, Stadt","type":"Stadt"},"district":{"key":"05770","name":"Minden-Lübbecke","type":"Kreis"},"federalState":{"key":"05","name":"Nordrhein-Westfalen"}},{"name":"Erlenriede","postalCode":"32339","locality":"Espelkamp","municipality":{"key":"05770008","name":"Espelkamp, Stadt","type":"Stadt"},"district":{"key":"05770","name":"Minden-Lübbecke","type":"Kreis"},"federalState":{"key":"05","name":"Nordrhein-Westfalen"}},{"name":"Eschenweg","postalCode":"32339","locality":"Espelkamp","municipality":{"key":"05770008","name":"Espelkamp, Stadt","type":"Stadt"},"district":{"key":"05770","name":"Minden-Lübbecke","type":"Kreis"},"federalState":{"key":"05","name":"Nordrhein-Westfalen"}},{"name":"Espenweg","postalCode":"32339","locality":"Espelkamp","municipality":{"key":"05770008","name":"Espelkamp, Stadt","type":"Stadt"},"district":{"key":"05770","name":"Minden-Lübbecke","type":"Kreis"},"federalState":{"key":"05","name":"Nordrhein-Westfalen"}},{"name":"Eugen-Gerstenmaier-Str.","postalCode":"32339","locality":"Espelkamp","municipality":{"key":"05770008","name":"Espelkamp, Stadt","type":"Stadt"},"district":{"key":"05770","name":"Minden-Lübbecke","type":"Kreis"},"federalState":{"key":"05","name":"Nordrhein-Westfalen"}},{"name":"Fabbenstedter Str.","postalCode":"32339","locality":"Espelkamp","municipality":{"key":"05770008","name":"Espelkamp, Stadt","type":"Stadt"},"district":{"key":"05770","name":"Minden-Lübbecke","type":"Kreis"},"federalState":{"key":"05","name":"Nordrhein-Westfalen"}},{"name":"Fahrensbruch","postalCode":"32339","locality":"Espelkamp","municipality":{"key":"05770008","name":"Espelkamp, Stadt","type":"Stadt"},"district":{"key":"05770","name":"Minden-Lübbecke","type":"Kreis"},"federalState":{"key":"05","name":"Nordrhein-Westfalen"}},{"name":"Falkenweg","postalCode":"32339","locality":"Espelkamp","municipality":{"key":"05770008","name":"Espelkamp, Stadt","type":"Stadt"},"district":{"key":"05770","name":"Minden-Lübbecke","type":"Kreis"},"federalState":{"key":"05","name":"Nordrhein-Westfalen"}},{"name":"Fangfelder Weg","postalCode":"32339","locality":"Espelkamp","municipality":{"key":"05770008","name":"Espelkamp, Stadt","type":"Stadt"},"district":{"key":"05770","name":"Minden-Lübbecke","type":"Kreis"},"federalState":{"key":"05","name":"Nordrhein-Westfalen"}},{"name":"Fasanenweg","postalCode":"32339","locality":"Espelkamp","municipality":{"key":"05770008","name":"Espelkamp, Stadt","type":"Stadt"},"district":{"key":"05770","name":"Minden-Lübbecke","type":"Kreis"},"federalState":{"key":"05","name":"Nordrhein-Westfalen"}},{"name":"Fichtenweg","postalCode":"32339","locality":"Espelkamp","municipality":{"key":"05770008","name":"Espelkamp, Stadt","type":"Stadt"},"district":{"key":"05770","name":"Minden-Lübbecke","type":"Kreis"},"federalState":{"key":"05","name":"Nordrhein-Westfalen"}},{"name":"Fingersbrinkweg","postalCode":"32339","locality":"Espelkamp","municipality":{"key":"05770008","name":"Espelkamp, Stadt","type":"Stadt"},"district":{"key":"05770","name":"Minden-Lübbecke","type":"Kreis"},"federalState":{"key":"05","name":"Nordrhein-Westfalen"}},{"name":"Finkenweg","postalCode":"32339","locality":"Espelkamp","municipality":{"key":"05770008","name":"Espelkamp, Stadt","type":"Stadt"},"district":{"key":"05770","name":"Minden-Lübbecke","type":"Kreis"},"federalState":{"key":"05","name":"Nordrhein-Westfalen"}},{"name":"Flachsriede","postalCode":"32339","locality":"Espelkamp","municipality":{"key":"05770008","name":"Espelkamp, Stadt","type":"Stadt"},"district":{"key":"05770","name":"Minden-Lübbecke","type":"Kreis"},"federalState":{"key":"05","name":"Nordrhein-Westfalen"}},{"name":"Fleggestr.","postalCode":"32339","locality":"Espelkamp","municipality":{"key":"05770008","name":"Espelkamp, Stadt","type":"Stadt"},"district":{"key":"05770","name":"Minden-Lübbecke","type":"Kreis"},"federalState":{"key":"05","name":"Nordrhein-Westfalen"}},{"name":"Fliederring","postalCode":"32339","locality":"Espelkamp","municipality":{"key":"05770008","name":"Espelkamp, Stadt","type":"Stadt"},"district":{"key":"05770","name":"Minden-Lübbecke","type":"Kreis"},"federalState":{"key":"05","name":"Nordrhein-Westfalen"}},{"name":"Föhrenweg","postalCode":"32339","locality":"Espelkamp","municipality":{"key":"05770008","name":"Espelkamp, Stadt","type":"Stadt"},"district":{"key":"05770","name":"Minden-Lübbecke","type":"Kreis"},"federalState":{"key":"05","name":"Nordrhein-Westfalen"}},{"name":"Fontaneweg","postalCode":"32339","locality":"Espelkamp","municipality":{"key":"05770008","name":"Espelkamp, Stadt","type":"Stadt"},"district":{"key":"05770","name":"Minden-Lübbecke","type":"Kreis"},"federalState":{"key":"05","name":"Nordrhein-Westfalen"}},{"name":"Franzensbader Str.","postalCode":"32339","locality":"Espelkamp","municipality":{"key":"05770008","name":"Espelkamp, Stadt","type":"Stadt"},"district":{"key":"05770","name":"Minden-Lübbecke","type":"Kreis"},"federalState":{"key":"05","name":"Nordrhein-Westfalen"}},{"name":"Friedeberger Weg","postalCode":"32339","locality":"Espelkamp","municipality":{"key":"05770008","name":"Espelkamp, Stadt","type":"Stadt"},"district":{"key":"05770","name":"Minden-Lübbecke","type":"Kreis"},"federalState":{"key":"05","name":"Nordrhein-Westfalen"}},{"name":"Friedebrinkstr.","postalCode":"32339","locality":"Espelkamp","municipality":{"key":"05770008","name":"Espelkamp, Stadt","type":"Stadt"},"district":{"key":"05770","name":"Minden-Lübbecke","type":"Kreis"},"federalState":{"key":"05","name":"Nordrhein-Westfalen"}},{"name":"Fritz-Helmut-Allee","postalCode":"32339","locality":"Espelkamp","municipality":{"key":"05770008","name":"Espelkamp, Stadt","type":"Stadt"},"district":{"key":"05770","name":"Minden-Lübbecke","type":"Kreis"},"federalState":{"key":"05","name":"Nordrhein-Westfalen"}},{"name":"Fritz-Souchon-Str.","postalCode":"32339","locality":"Espelkamp","municipality":{"key":"05770008","name":"Espelkamp, Stadt","type":"Stadt"},"district":{"key":"05770","name":"Minden-Lübbecke","type":"Kreis"},"federalState":{"key":"05","name":"Nordrhein-Westfalen"}},{"name":"Frotheimer Weg","postalCode":"32339","locality":"Espelkamp","municipality":{"key":"05770008","name":"Espelkamp, Stadt","type":"Stadt"},"district":{"key":"05770","name":"Minden-Lübbecke","type":"Kreis"},"federalState":{"key":"05","name":"Nordrhein-Westfalen"}},{"name":"Fuchsweg","postalCode":"32339","locality":"Espelkamp","municipality":{"key":"05770008","name":"Espelkamp, Stadt","type":"Stadt"},"district":{"key":"05770","name":"Minden-Lübbecke","type":"Kreis"},"federalState":{"key":"05","name":"Nordrhein-Westfalen"}},{"name":"Gabelhorst","postalCode":"32339","locality":"Espelkamp","municipality":{"key":"05770008","name":"Espelkamp, Stadt","type":"Stadt"},"district":{"key":"05770","name":"Minden-Lübbecke","type":"Kreis"},"federalState":{"key":"05","name":"Nordrhein-Westfalen"}},{"name":"Gardestr.","postalCode":"32339","locality":"Espelkamp","municipality":{"key":"05770008","name":"Espelkamp, Stadt","type":"Stadt"},"district":{"key":"05770","name":"Minden-Lübbecke","type":"Kreis"},"federalState":{"key":"05","name":"Nordrhein-Westfalen"}},{"name":"Gehlenbecker Str.","postalCode":"32339","locality":"Espelkamp","municipality":{"key":"05770008","name":"Espelkamp, Stadt","type":"Stadt"},"district":{"key":"05770","name":"Minden-Lübbecke","type":"Kreis"},"federalState":{"key":"05","name":"Nordrhein-Westfalen"}},{"name":"Gemeindehausstr.","postalCode":"32339","locality":"Espelkamp","municipality":{"key":"05770008","name":"Espelkamp, Stadt","type":"Stadt"},"district":{"key":"05770","name":"Minden-Lübbecke","type":"Kreis"},"federalState":{"key":"05","name":"Nordrhein-Westfalen"}},{"name":"Gerhard-Wetzel-Str.","postalCode":"32339","locality":"Espelkamp","municipality":{"key":"05770008","name":"Espelkamp, Stadt","type":"Stadt"},"district":{"key":"05770","name":"Minden-Lübbecke","type":"Kreis"},"federalState":{"key":"05","name":"Nordrhein-Westfalen"}},{"name":"Geschwister-Scholl-Str.","postalCode":"32339","locality":"Espelkamp","municipality":{"key":"05770008","name":"Espelkamp, Stadt","type":"Stadt"},"district":{"key":"05770","name":"Minden-Lübbecke","type":"Kreis"},"federalState":{"key":"05","name":"Nordrhein-Westfalen"}},{"name":"Gestringer Str.","postalCode":"32339","locality":"Espelkamp","municipality":{"key":"05770008","name":"Espelkamp, Stadt","type":"Stadt"},"district":{"key":"05770","name":"Minden-Lübbecke","type":"Kreis"},"federalState":{"key":"05","name":"Nordrhein-Westfalen"}},{"name":"Ginsterkamp","postalCode":"32339","locality":"Espelkamp","municipality":{"key":"05770008","name":"Espelkamp, Stadt","type":"Stadt"},"district":{"key":"05770","name":"Minden-Lübbecke","type":"Kreis"},"federalState":{"key":"05","name":"Nordrhein-Westfalen"}},{"name":"Ginsterstr.","postalCode":"32339","locality":"Espelkamp","municipality":{"key":"05770008","name":"Espelkamp, Stadt","type":"Stadt"},"district":{"key":"05770","name":"Minden-Lübbecke","type":"Kreis"},"federalState":{"key":"05","name":"Nordrhein-Westfalen"}},{"name":"Glaskampstr.","postalCode":"32339","locality":"Espelkamp","municipality":{"key":"05770008","name":"Espelkamp, Stadt","type":"Stadt"},"district":{"key":"05770","name":"Minden-Lübbecke","type":"Kreis"},"federalState":{"key":"05","name":"Nordrhein-Westfalen"}},{"name":"Glatzer Garten","postalCode":"32339","locality":"Espelkamp","municipality":{"key":"05770008","name":"Espelkamp, Stadt","type":"Stadt"},"district":{"key":"05770","name":"Minden-Lübbecke","type":"Kreis"},"federalState":{"key":"05","name":"Nordrhein-Westfalen"}},{"name":"Glatzer Weg","postalCode":"32339","locality":"Espelkamp","municipality":{"key":"05770008","name":"Espelkamp, Stadt","type":"Stadt"},"district":{"key":"05770","name":"Minden-Lübbecke","type":"Kreis"},"federalState":{"key":"05","name":"Nordrhein-Westfalen"}},{"name":"Goldflegge","postalCode":"32339","locality":"Espelkamp","municipality":{"key":"05770008","name":"Espelkamp, Stadt","type":"Stadt"},"district":{"key":"05770","name":"Minden-Lübbecke","type":"Kreis"},"federalState":{"key":"05","name":"Nordrhein-Westfalen"}},{"name":"Görlitzer Str.","postalCode":"32339","locality":"Espelkamp","municipality":{"key":"05770008","name":"Espelkamp, Stadt","type":"Stadt"},"district":{"key":"05770","name":"Minden-Lübbecke","type":"Kreis"},"federalState":{"key":"05","name":"Nordrhein-Westfalen"}},{"name":"Graudenzer Weg","postalCode":"32339","locality":"Espelkamp","municipality":{"key":"05770008","name":"Espelkamp, Stadt","type":"Stadt"},"district":{"key":"05770","name":"Minden-Lübbecke","type":"Kreis"},"federalState":{"key":"05","name":"Nordrhein-Westfalen"}},{"name":"Greifswalder Str.","postalCode":"32339","locality":"Espelkamp","municipality":{"key":"05770008","name":"Espelkamp, Stadt","type":"Stadt"},"district":{"key":"05770","name":"Minden-Lübbecke","type":"Kreis"},"federalState":{"key":"05","name":"Nordrhein-Westfalen"}},{"name":"Großer Brandweg","postalCode":"32339","locality":"Espelkamp","municipality":{"key":"05770008","name":"Espelkamp, Stadt","type":"Stadt"},"district":{"key":"05770","name":"Minden-Lübbecke","type":"Kreis"},"federalState":{"key":"05","name":"Nordrhein-Westfalen"}},{"name":"Grüner Weg","postalCode":"32339","locality":"Espelkamp","municipality":{"key":"05770008","name":"Espelkamp, Stadt","type":"Stadt"},"district":{"key":"05770","name":"Minden-Lübbecke","type":"Kreis"},"federalState":{"key":"05","name":"Nordrhein-Westfalen"}},{"name":"Gubener Str.","postalCode":"32339","locality":"Espelkamp","municipality":{"key":"05770008","name":"Espelkamp, Stadt","type":"Stadt"},"district":{"key":"05770","name":"Minden-Lübbecke","type":"Kreis"},"federalState":{"key":"05","name":"Nordrhein-Westfalen"}},{"name":"Habelschwerdter Hof","postalCode":"32339","locality":"Espelkamp","municipality":{"key":"05770008","name":"Espelkamp, Stadt","type":"Stadt"},"district":{"key":"05770","name":"Minden-Lübbecke","type":"Kreis"},"federalState":{"key":"05","name":"Nordrhein-Westfalen"}},{"name":"Haferkampstr.","postalCode":"32339","locality":"Espelkamp","municipality":{"key":"05770008","name":"Espelkamp, Stadt","type":"Stadt"},"district":{"key":"05770","name":"Minden-Lübbecke","type":"Kreis"},"federalState":{"key":"05","name":"Nordrhein-Westfalen"}},{"name":"Hagenriede","postalCode":"32339","locality":"Espelkamp","municipality":{"key":"05770008","name":"Espelkamp, Stadt","type":"Stadt"},"district":{"key":"05770","name":"Minden-Lübbecke","type":"Kreis"},"federalState":{"key":"05","name":"Nordrhein-Westfalen"}},{"name":"Hartweg","postalCode":"32339","locality":"Espelkamp","municipality":{"key":"05770008","name":"Espelkamp, Stadt","type":"Stadt"},"district":{"key":"05770","name":"Minden-Lübbecke","type":"Kreis"},"federalState":{"key":"05","name":"Nordrhein-Westfalen"}},{"name":"Haselweg","postalCode":"32339","locality":"Espelkamp","municipality":{"key":"05770008","name":"Espelkamp, Stadt","type":"Stadt"},"district":{"key":"05770","name":"Minden-Lübbecke","type":"Kreis"},"federalState":{"key":"05","name":"Nordrhein-Westfalen"}},{"name":"Hauptstr.","postalCode":"32339","locality":"Espelkamp","municipality":{"key":"05770008","name":"Espelkamp, Stadt","type":"Stadt"},"district":{"key":"05770","name":"Minden-Lübbecke","type":"Kreis"},"federalState":{"key":"05","name":"Nordrhein-Westfalen"}},{"name":"Hedrichsdorf","postalCode":"32339","locality":"Espelkamp","municipality":{"key":"05770008","name":"Espelkamp, Stadt","type":"Stadt"},"district":{"key":"05770","name":"Minden-Lübbecke","type":"Kreis"},"federalState":{"key":"05","name":"Nordrhein-Westfalen"}},{"name":"Heidbruchweg","postalCode":"32339","locality":"Espelkamp","municipality":{"key":"05770008","name":"Espelkamp, Stadt","type":"Stadt"},"district":{"key":"05770","name":"Minden-Lübbecke","type":"Kreis"},"federalState":{"key":"05","name":"Nordrhein-Westfalen"}},{"name":"Heideweg","postalCode":"32339","locality":"Espelkamp","municipality":{"key":"05770008","name":"Espelkamp, Stadt","type":"Stadt"},"district":{"key":"05770","name":"Minden-Lübbecke","type":"Kreis"},"federalState":{"key":"05","name":"Nordrhein-Westfalen"}},{"name":"Heidhügelweg","postalCode":"32339","locality":"Espelkamp","municipality":{"key":"05770008","name":"Espelkamp, Stadt","type":"Stadt"},"district":{"key":"05770","name":"Minden-Lübbecke","type":"Kreis"},"federalState":{"key":"05","name":"Nordrhein-Westfalen"}},{"name":"Heinrichstr.","postalCode":"32339","locality":"Espelkamp","municipality":{"key":"05770008","name":"Espelkamp, Stadt","type":"Stadt"},"district":{"key":"05770","name":"Minden-Lübbecke","type":"Kreis"},"federalState":{"key":"05","name":"Nordrhein-Westfalen"}},{"name":"Henri-Dunant-Str.","postalCode":"32339","locality":"Espelkamp","municipality":{"key":"05770008","name":"Espelkamp, Stadt","type":"Stadt"},"district":{"key":"05770","name":"Minden-Lübbecke","type":"Kreis"},"federalState":{"key":"05","name":"Nordrhein-Westfalen"}},{"name":"Herforder Str.","postalCode":"32339","locality":"Espelkamp","municipality":{"key":"05770008","name":"Espelkamp, Stadt","type":"Stadt"},"district":{"key":"05770","name":"Minden-Lübbecke","type":"Kreis"},"federalState":{"key":"05","name":"Nordrhein-Westfalen"}},{"name":"Heuerhofstr.","postalCode":"32339","locality":"Espelkamp","municipality":{"key":"05770008","name":"Espelkamp, Stadt","type":"Stadt"},"district":{"key":"05770","name":"Minden-Lübbecke","type":"Kreis"},"federalState":{"key":"05","name":"Nordrhein-Westfalen"}},{"name":"Hinter dem Holz","postalCode":"32339","locality":"Espelkamp","municipality":{"key":"05770008","name":"Espelkamp, Stadt","type":"Stadt"},"district":{"key":"05770","name":"Minden-Lübbecke","type":"Kreis"},"federalState":{"key":"05","name":"Nordrhein-Westfalen"}},{"name":"Hinter den Hörsten","postalCode":"32339","locality":"Espelkamp","municipality":{"key":"05770008","name":"Espelkamp, Stadt","type":"Stadt"},"district":{"key":"05770","name":"Minden-Lübbecke","type":"Kreis"},"federalState":{"key":"05","name":"Nordrhein-Westfalen"}},{"name":"Hirschberger Weg","postalCode":"32339","locality":"Espelkamp","municipality":{"key":"05770008","name":"Espelkamp, Stadt","type":"Stadt"},"district":{"key":"05770","name":"Minden-Lübbecke","type":"Kreis"},"federalState":{"key":"05","name":"Nordrhein-Westfalen"}},{"name":"Höfenweg","postalCode":"32339","locality":"Espelkamp","municipality":{"key":"05770008","name":"Espelkamp, Stadt","type":"Stadt"},"district":{"key":"05770","name":"Minden-Lübbecke","type":"Kreis"},"federalState":{"key":"05","name":"Nordrhein-Westfalen"}},{"name":"Hohe Flegge","postalCode":"32339","locality":"Espelkamp","municipality":{"key":"05770008","name":"Espelkamp, Stadt","type":"Stadt"},"district":{"key":"05770","name":"Minden-Lübbecke","type":"Kreis"},"federalState":{"key":"05","name":"Nordrhein-Westfalen"}},{"name":"Hohensteiner Str.","postalCode":"32339","locality":"Espelkamp","municipality":{"key":"05770008","name":"Espelkamp, Stadt","type":"Stadt"},"district":{"key":"05770","name":"Minden-Lübbecke","type":"Kreis"},"federalState":{"key":"05","name":"Nordrhein-Westfalen"}},{"name":"Holunderweg","postalCode":"32339","locality":"Espelkamp","municipality":{"key":"05770008","name":"Espelkamp, Stadt","type":"Stadt"},"district":{"key":"05770","name":"Minden-Lübbecke","type":"Kreis"},"federalState":{"key":"05","name":"Nordrhein-Westfalen"}},{"name":"Hügelstr.","postalCode":"32339","locality":"Espelkamp","municipality":{"key":"05770008","name":"Espelkamp, Stadt","type":"Stadt"},"district":{"key":"05770","name":"Minden-Lübbecke","type":"Kreis"},"federalState":{"key":"05","name":"Nordrhein-Westfalen"}},{"name":"Humboldtweg","postalCode":"32339","locality":"Espelkamp","municipality":{"key":"05770008","name":"Espelkamp, Stadt","type":"Stadt"},"district":{"key":"05770","name":"Minden-Lübbecke","type":"Kreis"},"federalState":{"key":"05","name":"Nordrhein-Westfalen"}},{"name":"Hüttenheider Weg","postalCode":"32339","locality":"Espelkamp","municipality":{"key":"05770008","name":"Espelkamp, Stadt","type":"Stadt"},"district":{"key":"05770","name":"Minden-Lübbecke","type":"Kreis"},"federalState":{"key":"05","name":"Nordrhein-Westfalen"}},{"name":"Im Anger","postalCode":"32339","locality":"Espelkamp","municipality":{"key":"05770008","name":"Espelkamp, Stadt","type":"Stadt"},"district":{"key":"05770","name":"Minden-Lübbecke","type":"Kreis"},"federalState":{"key":"05","name":"Nordrhein-Westfalen"}},{"name":"Im Ginsterfeld","postalCode":"32339","locality":"Espelkamp","municipality":{"key":"05770008","name":"Espelkamp, Stadt","type":"Stadt"},"district":{"key":"05770","name":"Minden-Lübbecke","type":"Kreis"},"federalState":{"key":"05","name":"Nordrhein-Westfalen"}},{"name":"Im Knick","postalCode":"32339","locality":"Espelkamp","municipality":{"key":"05770008","name":"Espelkamp, Stadt","type":"Stadt"},"district":{"key":"05770","name":"Minden-Lübbecke","type":"Kreis"},"federalState":{"key":"05","name":"Nordrhein-Westfalen"}},{"name":"Im Schanzen","postalCode":"32339","locality":"Espelkamp","municipality":{"key":"05770008","name":"Espelkamp, Stadt","type":"Stadt"},"district":{"key":"05770","name":"Minden-Lübbecke","type":"Kreis"},"federalState":{"key":"05","name":"Nordrhein-Westfalen"}},{"name":"Im Strange","postalCode":"32339","locality":"Espelkamp","municipality":{"key":"05770008","name":"Espelkamp, Stadt","type":"Stadt"},"district":{"key":"05770","name":"Minden-Lübbecke","type":"Kreis"},"federalState":{"key":"05","name":"Nordrhein-Westfalen"}},{"name":"Im Walde","postalCode":"32339","locality":"Espelkamp","municipality":{"key":"05770008","name":"Espelkamp, Stadt","type":"Stadt"},"district":{"key":"05770","name":"Minden-Lübbecke","type":"Kreis"},"federalState":{"key":"05","name":"Nordrhein-Westfalen"}},{"name":"Im Weidengrund","postalCode":"32339","locality":"Espelkamp","municipality":{"key":"05770008","name":"Espelkamp, Stadt","type":"Stadt"},"district":{"key":"05770","name":"Minden-Lübbecke","type":"Kreis"},"federalState":{"key":"05","name":"Nordrhein-Westfalen"}},{"name":"Im Westerwinkel","postalCode":"32339","locality":"Espelkamp","municipality":{"key":"05770008","name":"Espelkamp, Stadt","type":"Stadt"},"district":{"key":"05770","name":"Minden-Lübbecke","type":"Kreis"},"federalState":{"key":"05","name":"Nordrhein-Westfalen"}},{"name":"In den Riehen","postalCode":"32339","locality":"Espelkamp","municipality":{"key":"05770008","name":"Espelkamp, Stadt","type":"Stadt"},"district":{"key":"05770","name":"Minden-Lübbecke","type":"Kreis"},"federalState":{"key":"05","name":"Nordrhein-Westfalen"}},{"name":"In der Schnat","postalCode":"32339","locality":"Espelkamp","municipality":{"key":"05770008","name":"Espelkamp, Stadt","type":"Stadt"},"district":{"key":"05770","name":"Minden-Lübbecke","type":"Kreis"},"federalState":{"key":"05","name":"Nordrhein-Westfalen"}},{"name":"Insterburger Str.","postalCode":"32339","locality":"Espelkamp","municipality":{"key":"05770008","name":"Espelkamp, Stadt","type":"Stadt"},"district":{"key":"05770","name":"Minden-Lübbecke","type":"Kreis"},"federalState":{"key":"05","name":"Nordrhein-Westfalen"}},{"name":"Isenstedter Str.","postalCode":"32339","locality":"Espelkamp","municipality":{"key":"05770008","name":"Espelkamp, Stadt","type":"Stadt"},"district":{"key":"05770","name":"Minden-Lübbecke","type":"Kreis"},"federalState":{"key":"05","name":"Nordrhein-Westfalen"}},{"name":"Jasminweg","postalCode":"32339","locality":"Espelkamp","municipality":{"key":"05770008","name":"Espelkamp, Stadt","type":"Stadt"},"district":{"key":"05770","name":"Minden-Lübbecke","type":"Kreis"},"federalState":{"key":"05","name":"Nordrhein-Westfalen"}},{"name":"Jenaer Weg","postalCode":"32339","locality":"Espelkamp","municipality":{"key":"05770008","name":"Espelkamp, Stadt","type":"Stadt"},"district":{"key":"05770","name":"Minden-Lübbecke","type":"Kreis"},"federalState":{"key":"05","name":"Nordrhein-Westfalen"}},{"name":"John-Gingerich-Str.","postalCode":"32339","locality":"Espelkamp","municipality":{"key":"05770008","name":"Espelkamp, Stadt","type":"Stadt"},"district":{"key":"05770","name":"Minden-Lübbecke","type":"Kreis"},"federalState":{"key":"05","name":"Nordrhein-Westfalen"}},{"name":"Kantstr.","postalCode":"32339","locality":"Espelkamp","municipality":{"key":"05770008","name":"Espelkamp, Stadt","type":"Stadt"},"district":{"key":"05770","name":"Minden-Lübbecke","type":"Kreis"},"federalState":{"key":"05","name":"Nordrhein-Westfalen"}},{"name":"Karl-Arnold-Str.","postalCode":"32339","locality":"Espelkamp","municipality":{"key":"05770008","name":"Espelkamp, Stadt","type":"Stadt"},"district":{"key":"05770","name":"Minden-Lübbecke","type":"Kreis"},"federalState":{"key":"05","name":"Nordrhein-Westfalen"}},{"name":"Karlsbader Str.","postalCode":"32339","locality":"Espelkamp","municipality":{"key":"05770008","name":"Espelkamp, Stadt","type":"Stadt"},"district":{"key":"05770","name":"Minden-Lübbecke","type":"Kreis"},"federalState":{"key":"05","name":"Nordrhein-Westfalen"}},{"name":"Kastanienweg","postalCode":"32339","locality":"Espelkamp","municipality":{"key":"05770008","name":"Espelkamp, Stadt","type":"Stadt"},"district":{"key":"05770","name":"Minden-Lübbecke","type":"Kreis"},"federalState":{"key":"05","name":"Nordrhein-Westfalen"}},{"name":"Kempsweg","postalCode":"32339","locality":"Espelkamp","municipality":{"key":"05770008","name":"Espelkamp, Stadt","type":"Stadt"},"district":{"key":"05770","name":"Minden-Lübbecke","type":"Kreis"},"federalState":{"key":"05","name":"Nordrhein-Westfalen"}},{"name":"Kiefernweg","postalCode":"32339","locality":"Espelkamp","municipality":{"key":"05770008","name":"Espelkamp, Stadt","type":"Stadt"},"district":{"key":"05770","name":"Minden-Lübbecke","type":"Kreis"},"federalState":{"key":"05","name":"Nordrhein-Westfalen"}},{"name":"Kirchstr.","postalCode":"32339","locality":"Espelkamp","municipality":{"key":"05770008","name":"Espelkamp, Stadt","type":"Stadt"},"district":{"key":"05770","name":"Minden-Lübbecke","type":"Kreis"},"federalState":{"key":"05","name":"Nordrhein-Westfalen"}},{"name":"Kirschweg","postalCode":"32339","locality":"Espelkamp","municipality":{"key":"05770008","name":"Espelkamp, Stadt","type":"Stadt"},"district":{"key":"05770","name":"Minden-Lübbecke","type":"Kreis"},"federalState":{"key":"05","name":"Nordrhein-Westfalen"}},{"name":"Kleiweg","postalCode":"32339","locality":"Espelkamp","municipality":{"key":"05770008","name":"Espelkamp, Stadt","type":"Stadt"},"district":{"key":"05770","name":"Minden-Lübbecke","type":"Kreis"},"federalState":{"key":"05","name":"Nordrhein-Westfalen"}},{"name":"Kniestr.","postalCode":"32339","locality":"Espelkamp","municipality":{"key":"05770008","name":"Espelkamp, Stadt","type":"Stadt"},"district":{"key":"05770","name":"Minden-Lübbecke","type":"Kreis"},"federalState":{"key":"05","name":"Nordrhein-Westfalen"}},{"name":"Kolberger Str.","postalCode":"32339","locality":"Espelkamp","municipality":{"key":"05770008","name":"Espelkamp, Stadt","type":"Stadt"},"district":{"key":"05770","name":"Minden-Lübbecke","type":"Kreis"},"federalState":{"key":"05","name":"Nordrhein-Westfalen"}},{"name":"Konsum-Witte-Str.","postalCode":"32339","locality":"Espelkamp","municipality":{"key":"05770008","name":"Espelkamp, Stadt","type":"Stadt"},"district":{"key":"05770","name":"Minden-Lübbecke","type":"Kreis"},"federalState":{"key":"05","name":"Nordrhein-Westfalen"}},{"name":"Kösterstr.","postalCode":"32339","locality":"Espelkamp","municipality":{"key":"05770008","name":"Espelkamp, Stadt","type":"Stadt"},"district":{"key":"05770","name":"Minden-Lübbecke","type":"Kreis"},"federalState":{"key":"05","name":"Nordrhein-Westfalen"}},{"name":"Krämerstr.","postalCode":"32339","locality":"Espelkamp","municipality":{"key":"05770008","name":"Espelkamp, Stadt","type":"Stadt"},"district":{"key":"05770","name":"Minden-Lübbecke","type":"Kreis"},"federalState":{"key":"05","name":"Nordrhein-Westfalen"}},{"name":"Kreuzkampstr.","postalCode":"32339","locality":"Espelkamp","municipality":{"key":"05770008","name":"Espelkamp, Stadt","type":"Stadt"},"district":{"key":"05770","name":"Minden-Lübbecke","type":"Kreis"},"federalState":{"key":"05","name":"Nordrhein-Westfalen"}},{"name":"Kronenring","postalCode":"32339","locality":"Espelkamp","municipality":{"key":"05770008","name":"Espelkamp, Stadt","type":"Stadt"},"district":{"key":"05770","name":"Minden-Lübbecke","type":"Kreis"},"federalState":{"key":"05","name":"Nordrhein-Westfalen"}},{"name":"Krummbruchsweg","postalCode":"32339","locality":"Espelkamp","municipality":{"key":"05770008","name":"Espelkamp, Stadt","type":"Stadt"},"district":{"key":"05770","name":"Minden-Lübbecke","type":"Kreis"},"federalState":{"key":"05","name":"Nordrhein-Westfalen"}},{"name":"Kurze Flegge","postalCode":"32339","locality":"Espelkamp","municipality":{"key":"05770008","name":"Espelkamp, Stadt","type":"Stadt"},"district":{"key":"05770","name":"Minden-Lübbecke","type":"Kreis"},"federalState":{"key":"05","name":"Nordrhein-Westfalen"}},{"name":"Kurzenhülsen","postalCode":"32339","locality":"Espelkamp","municipality":{"key":"05770008","name":"Espelkamp, Stadt","type":"Stadt"},"district":{"key":"05770","name":"Minden-Lübbecke","type":"Kreis"},"federalState":{"key":"05","name":"Nordrhein-Westfalen"}},{"name":"Lange Horst","postalCode":"32339","locality":"Espelkamp","municipality":{"key":"05770008","name":"Espelkamp, Stadt","type":"Stadt"},"district":{"key":"05770","name":"Minden-Lübbecke","type":"Kreis"},"federalState":{"key":"05","name":"Nordrhein-Westfalen"}},{"name":"Langenkampstr.","postalCode":"32339","locality":"Espelkamp","municipality":{"key":"05770008","name":"Espelkamp, Stadt","type":"Stadt"},"district":{"key":"05770","name":"Minden-Lübbecke","type":"Kreis"},"federalState":{"key":"05","name":"Nordrhein-Westfalen"}},{"name":"Laubenweg","postalCode":"32339","locality":"Espelkamp","municipality":{"key":"05770008","name":"Espelkamp, Stadt","type":"Stadt"},"district":{"key":"05770","name":"Minden-Lübbecke","type":"Kreis"},"federalState":{"key":"05","name":"Nordrhein-Westfalen"}},{"name":"Lauenburger Str.","postalCode":"32339","locality":"Espelkamp","municipality":{"key":"05770008","name":"Espelkamp, Stadt","type":"Stadt"},"district":{"key":"05770","name":"Minden-Lübbecke","type":"Kreis"},"federalState":{"key":"05","name":"Nordrhein-Westfalen"}},{"name":"Lausitzer Str.","postalCode":"32339","locality":"Espelkamp","municipality":{"key":"05770008","name":"Espelkamp, Stadt","type":"Stadt"},"district":{"key":"05770","name":"Minden-Lübbecke","type":"Kreis"},"federalState":{"key":"05","name":"Nordrhein-Westfalen"}},{"name":"Lehmkuhle","postalCode":"32339","locality":"Espelkamp","municipality":{"key":"05770008","name":"Espelkamp, Stadt","type":"Stadt"},"district":{"key":"05770","name":"Minden-Lübbecke","type":"Kreis"},"federalState":{"key":"05","name":"Nordrhein-Westfalen"}},{"name":"Leipziger Str.","postalCode":"32339","locality":"Espelkamp","municipality":{"key":"05770008","name":"Espelkamp, Stadt","type":"Stadt"},"district":{"key":"05770","name":"Minden-Lübbecke","type":"Kreis"},"federalState":{"key":"05","name":"Nordrhein-Westfalen"}},{"name":"Lessingstr.","postalCode":"32339","locality":"Espelkamp","municipality":{"key":"05770008","name":"Espelkamp, Stadt","type":"Stadt"},"district":{"key":"05770","name":"Minden-Lübbecke","type":"Kreis"},"federalState":{"key":"05","name":"Nordrhein-Westfalen"}},{"name":"Leverner Str.","postalCode":"32339","locality":"Espelkamp","municipality":{"key":"05770008","name":"Espelkamp, Stadt","type":"Stadt"},"district":{"key":"05770","name":"Minden-Lübbecke","type":"Kreis"},"federalState":{"key":"05","name":"Nordrhein-Westfalen"}},{"name":"Liegnitzer Weg","postalCode":"32339","locality":"Espelkamp","municipality":{"key":"05770008","name":"Espelkamp, Stadt","type":"Stadt"},"district":{"key":"05770","name":"Minden-Lübbecke","type":"Kreis"},"federalState":{"key":"05","name":"Nordrhein-Westfalen"}},{"name":"Lindenhof","postalCode":"32339","locality":"Espelkamp","municipality":{"key":"05770008","name":"Espelkamp, Stadt","type":"Stadt"},"district":{"key":"05770","name":"Minden-Lübbecke","type":"Kreis"},"federalState":{"key":"05","name":"Nordrhein-Westfalen"}},{"name":"Lohhorststr.","postalCode":"32339","locality":"Espelkamp","municipality":{"key":"05770008","name":"Espelkamp, Stadt","type":"Stadt"},"district":{"key":"05770","name":"Minden-Lübbecke","type":"Kreis"},"federalState":{"key":"05","name":"Nordrhein-Westfalen"}},{"name":"Lückenstr.","postalCode":"32339","locality":"Espelkamp","municipality":{"key":"05770008","name":"Espelkamp, Stadt","type":"Stadt"},"district":{"key":"05770","name":"Minden-Lübbecke","type":"Kreis"},"federalState":{"key":"05","name":"Nordrhein-Westfalen"}},{"name":"Ludwig-Richter-Weg","postalCode":"32339","locality":"Espelkamp","municipality":{"key":"05770008","name":"Espelkamp, Stadt","type":"Stadt"},"district":{"key":"05770","name":"Minden-Lübbecke","type":"Kreis"},"federalState":{"key":"05","name":"Nordrhein-Westfalen"}},{"name":"Ludwig-Steil-Hof","postalCode":"32339","locality":"Espelkamp","municipality":{"key":"05770008","name":"Espelkamp, Stadt","type":"Stadt"},"district":{"key":"05770","name":"Minden-Lübbecke","type":"Kreis"},"federalState":{"key":"05","name":"Nordrhein-Westfalen"}},{"name":"Ludwig-Steil-Str.","postalCode":"32339","locality":"Espelkamp","municipality":{"key":"05770008","name":"Espelkamp, Stadt","type":"Stadt"},"district":{"key":"05770","name":"Minden-Lübbecke","type":"Kreis"},"federalState":{"key":"05","name":"Nordrhein-Westfalen"}},{"name":"Marienbader Str.","postalCode":"32339","locality":"Espelkamp","municipality":{"key":"05770008","name":"Espelkamp, Stadt","type":"Stadt"},"district":{"key":"05770","name":"Minden-Lübbecke","type":"Kreis"},"federalState":{"key":"05","name":"Nordrhein-Westfalen"}},{"name":"Marienburger Str.","postalCode":"32339","locality":"Espelkamp","municipality":{"key":"05770008","name":"Espelkamp, Stadt","type":"Stadt"},"district":{"key":"05770","name":"Minden-Lübbecke","type":"Kreis"},"federalState":{"key":"05","name":"Nordrhein-Westfalen"}},{"name":"Marienwerder Str.","postalCode":"32339","locality":"Espelkamp","municipality":{"key":"05770008","name":"Espelkamp, Stadt","type":"Stadt"},"district":{"key":"05770","name":"Minden-Lübbecke","type":"Kreis"},"federalState":{"key":"05","name":"Nordrhein-Westfalen"}},{"name":"Martin-Luther-Str.","postalCode":"32339","locality":"Espelkamp","municipality":{"key":"05770008","name":"Espelkamp, Stadt","type":"Stadt"},"district":{"key":"05770","name":"Minden-Lübbecke","type":"Kreis"},"federalState":{"key":"05","name":"Nordrhein-Westfalen"}},{"name":"Masurenweg","postalCode":"32339","locality":"Espelkamp","municipality":{"key":"05770008","name":"Espelkamp, Stadt","type":"Stadt"},"district":{"key":"05770","name":"Minden-Lübbecke","type":"Kreis"},"federalState":{"key":"05","name":"Nordrhein-Westfalen"}},{"name":"Meisenweg","postalCode":"32339","locality":"Espelkamp","municipality":{"key":"05770008","name":"Espelkamp, Stadt","type":"Stadt"},"district":{"key":"05770","name":"Minden-Lübbecke","type":"Kreis"},"federalState":{"key":"05","name":"Nordrhein-Westfalen"}},{"name":"Memeler Str.","postalCode":"32339","locality":"Espelkamp","municipality":{"key":"05770008","name":"Espelkamp, Stadt","type":"Stadt"},"district":{"key":"05770","name":"Minden-Lübbecke","type":"Kreis"},"federalState":{"key":"05","name":"Nordrhein-Westfalen"}},{"name":"Merkur-Allee","postalCode":"32339","locality":"Espelkamp","municipality":{"key":"05770008","name":"Espelkamp, Stadt","type":"Stadt"},"district":{"key":"05770","name":"Minden-Lübbecke","type":"Kreis"},"federalState":{"key":"05","name":"Nordrhein-Westfalen"}},{"name":"Mindener Str.","postalCode":"32339","locality":"Espelkamp","municipality":{"key":"05770008","name":"Espelkamp, Stadt","type":"Stadt"},"district":{"key":"05770","name":"Minden-Lübbecke","type":"Kreis"},"federalState":{"key":"05","name":"Nordrhein-Westfalen"}},{"name":"Mittelflegge","postalCode":"32339","locality":"Espelkamp","municipality":{"key":"05770008","name":"Espelkamp, Stadt","type":"Stadt"},"district":{"key":"05770","name":"Minden-Lübbecke","type":"Kreis"},"federalState":{"key":"05","name":"Nordrhein-Westfalen"}},{"name":"Mittelgang","postalCode":"32339","locality":"Espelkamp","municipality":{"key":"05770008","name":"Espelkamp, Stadt","type":"Stadt"},"district":{"key":"05770","name":"Minden-Lübbecke","type":"Kreis"},"federalState":{"key":"05","name":"Nordrhein-Westfalen"}},{"name":"Mozartstr.","postalCode":"32339","locality":"Espelkamp","municipality":{"key":"05770008","name":"Espelkamp, Stadt","type":"Stadt"},"district":{"key":"05770","name":"Minden-Lübbecke","type":"Kreis"},"federalState":{"key":"05","name":"Nordrhein-Westfalen"}},{"name":"Nagelbachstr.","postalCode":"32339","locality":"Espelkamp","municipality":{"key":"05770008","name":"Espelkamp, Stadt","type":"Stadt"},"district":{"key":"05770","name":"Minden-Lübbecke","type":"Kreis"},"federalState":{"key":"05","name":"Nordrhein-Westfalen"}},{"name":"Neidenburger Weg","postalCode":"32339","locality":"Espelkamp","municipality":{"key":"05770008","name":"Espelkamp, Stadt","type":"Stadt"},"district":{"key":"05770","name":"Minden-Lübbecke","type":"Kreis"},"federalState":{"key":"05","name":"Nordrhein-Westfalen"}},{"name":"Neißer Str.","postalCode":"32339","locality":"Espelkamp","municipality":{"key":"05770008","name":"Espelkamp, Stadt","type":"Stadt"},"district":{"key":"05770","name":"Minden-Lübbecke","type":"Kreis"},"federalState":{"key":"05","name":"Nordrhein-Westfalen"}},{"name":"Neue Schulstr.","postalCode":"32339","locality":"Espelkamp","municipality":{"key":"05770008","name":"Espelkamp, Stadt","type":"Stadt"},"district":{"key":"05770","name":"Minden-Lübbecke","type":"Kreis"},"federalState":{"key":"05","name":"Nordrhein-Westfalen"}},{"name":"Neues Feld","postalCode":"32339","locality":"Espelkamp","municipality":{"key":"05770008","name":"Espelkamp, Stadt","type":"Stadt"},"district":{"key":"05770","name":"Minden-Lübbecke","type":"Kreis"},"federalState":{"key":"05","name":"Nordrhein-Westfalen"}},{"name":"Neustadtstr.","postalCode":"32339","locality":"Espelkamp","municipality":{"key":"05770008","name":"Espelkamp, Stadt","type":"Stadt"},"district":{"key":"05770","name":"Minden-Lübbecke","type":"Kreis"},"federalState":{"key":"05","name":"Nordrhein-Westfalen"}},{"name":"Niederflegge","postalCode":"32339","locality":"Espelkamp","municipality":{"key":"05770008","name":"Espelkamp, Stadt","type":"Stadt"},"district":{"key":"05770","name":"Minden-Lübbecke","type":"Kreis"},"federalState":{"key":"05","name":"Nordrhein-Westfalen"}},{"name":"Nordwinkel","postalCode":"32339","locality":"Espelkamp","municipality":{"key":"05770008","name":"Espelkamp, Stadt","type":"Stadt"},"district":{"key":"05770","name":"Minden-Lübbecke","type":"Kreis"},"federalState":{"key":"05","name":"Nordrhein-Westfalen"}},{"name":"Oppenweher Str.","postalCode":"32339","locality":"Espelkamp","municipality":{"key":"05770008","name":"Espelkamp, Stadt","type":"Stadt"},"district":{"key":"05770","name":"Minden-Lübbecke","type":"Kreis"},"federalState":{"key":"05","name":"Nordrhein-Westfalen"}},{"name":"Osnabrücker Str.","postalCode":"32339","locality":"Espelkamp","municipality":{"key":"05770008","name":"Espelkamp, Stadt","type":"Stadt"},"district":{"key":"05770","name":"Minden-Lübbecke","type":"Kreis"},"federalState":{"key":"05","name":"Nordrhein-Westfalen"}},{"name":"Osterheider Str.","postalCode":"32339","locality":"Espelkamp","municipality":{"key":"05770008","name":"Espelkamp, Stadt","type":"Stadt"},"district":{"key":"05770","name":"Minden-Lübbecke","type":"Kreis"},"federalState":{"key":"05","name":"Nordrhein-Westfalen"}},{"name":"Osterwald","postalCode":"32339","locality":"Espelkamp","municipality":{"key":"05770008","name":"Espelkamp, Stadt","type":"Stadt"},"district":{"key":"05770","name":"Minden-Lübbecke","type":"Kreis"},"federalState":{"key":"05","name":"Nordrhein-Westfalen"}},{"name":"Ostlandstr.","postalCode":"32339","locality":"Espelkamp","municipality":{"key":"05770008","name":"Espelkamp, Stadt","type":"Stadt"},"district":{"key":"05770","name":"Minden-Lübbecke","type":"Kreis"},"federalState":{"key":"05","name":"Nordrhein-Westfalen"}},{"name":"Ostwinkel","postalCode":"32339","locality":"Espelkamp","municipality":{"key":"05770008","name":"Espelkamp, Stadt","type":"Stadt"},"district":{"key":"05770","name":"Minden-Lübbecke","type":"Kreis"},"federalState":{"key":"05","name":"Nordrhein-Westfalen"}},{"name":"Ottostr.","postalCode":"32339","locality":"Espelkamp","municipality":{"key":"05770008","name":"Espelkamp, Stadt","type":"Stadt"},"district":{"key":"05770","name":"Minden-Lübbecke","type":"Kreis"},"federalState":{"key":"05","name":"Nordrhein-Westfalen"}},{"name":"Philipp-Melanchthon-Str.","postalCode":"32339","locality":"Espelkamp","municipality":{"key":"05770008","name":"Espelkamp, Stadt","type":"Stadt"},"district":{"key":"05770","name":"Minden-Lübbecke","type":"Kreis"},"federalState":{"key":"05","name":"Nordrhein-Westfalen"}},{"name":"Platanenring","postalCode":"32339","locality":"Espelkamp","municipality":{"key":"05770008","name":"Espelkamp, Stadt","type":"Stadt"},"district":{"key":"05770","name":"Minden-Lübbecke","type":"Kreis"},"federalState":{"key":"05","name":"Nordrhein-Westfalen"}},{"name":"Platz am Ehrenmal","postalCode":"32339","locality":"Espelkamp","municipality":{"key":"05770008","name":"Espelkamp, Stadt","type":"Stadt"},"district":{"key":"05770","name":"Minden-Lübbecke","type":"Kreis"},"federalState":{"key":"05","name":"Nordrhein-Westfalen"}},{"name":"Polziner Weg","postalCode":"32339","locality":"Espelkamp","municipality":{"key":"05770008","name":"Espelkamp, Stadt","type":"Stadt"},"district":{"key":"05770","name":"Minden-Lübbecke","type":"Kreis"},"federalState":{"key":"05","name":"Nordrhein-Westfalen"}},{"name":"Posener Weg","postalCode":"32339","locality":"Espelkamp","municipality":{"key":"05770008","name":"Espelkamp, Stadt","type":"Stadt"},"district":{"key":"05770","name":"Minden-Lübbecke","type":"Kreis"},"federalState":{"key":"05","name":"Nordrhein-Westfalen"}},{"name":"Poststr.","postalCode":"32339","locality":"Espelkamp","municipality":{"key":"05770008","name":"Espelkamp, Stadt","type":"Stadt"},"district":{"key":"05770","name":"Minden-Lübbecke","type":"Kreis"},"federalState":{"key":"05","name":"Nordrhein-Westfalen"}},{"name":"Potsdamer Str.","postalCode":"32339","locality":"Espelkamp","municipality":{"key":"05770008","name":"Espelkamp, Stadt","type":"Stadt"},"district":{"key":"05770","name":"Minden-Lübbecke","type":"Kreis"},"federalState":{"key":"05","name":"Nordrhein-Westfalen"}},{"name":"Prenzlauer Weg","postalCode":"32339","locality":"Espelkamp","municipality":{"key":"05770008","name":"Espelkamp, Stadt","type":"Stadt"},"district":{"key":"05770","name":"Minden-Lübbecke","type":"Kreis"},"federalState":{"key":"05","name":"Nordrhein-Westfalen"}},{"name":"Preußeneck","postalCode":"32339","locality":"Espelkamp","municipality":{"key":"05770008","name":"Espelkamp, Stadt","type":"Stadt"},"district":{"key":"05770","name":"Minden-Lübbecke","type":"Kreis"},"federalState":{"key":"05","name":"Nordrhein-Westfalen"}},{"name":"Pyritzer Str.","postalCode":"32339","locality":"Espelkamp","municipality":{"key":"05770008","name":"Espelkamp, Stadt","type":"Stadt"},"district":{"key":"05770","name":"Minden-Lübbecke","type":"Kreis"},"federalState":{"key":"05","name":"Nordrhein-Westfalen"}},{"name":"Rahdener Str.","postalCode":"32339","locality":"Espelkamp","municipality":{"key":"05770008","name":"Espelkamp, Stadt","type":"Stadt"},"district":{"key":"05770","name":"Minden-Lübbecke","type":"Kreis"},"federalState":{"key":"05","name":"Nordrhein-Westfalen"}},{"name":"Raiffeisenstr.","postalCode":"32339","locality":"Espelkamp","municipality":{"key":"05770008","name":"Espelkamp, Stadt","type":"Stadt"},"district":{"key":"05770","name":"Minden-Lübbecke","type":"Kreis"},"federalState":{"key":"05","name":"Nordrhein-Westfalen"}},{"name":"Reginastr.","postalCode":"32339","locality":"Espelkamp","municipality":{"key":"05770008","name":"Espelkamp, Stadt","type":"Stadt"},"district":{"key":"05770","name":"Minden-Lübbecke","type":"Kreis"},"federalState":{"key":"05","name":"Nordrhein-Westfalen"}},{"name":"Reichenbacher Hof","postalCode":"32339","locality":"Espelkamp","municipality":{"key":"05770008","name":"Espelkamp, Stadt","type":"Stadt"},"district":{"key":"05770","name":"Minden-Lübbecke","type":"Kreis"},"federalState":{"key":"05","name":"Nordrhein-Westfalen"}},{"name":"Ringstr.","postalCode":"32339","locality":"Espelkamp","municipality":{"key":"05770008","name":"Espelkamp, Stadt","type":"Stadt"},"district":{"key":"05770","name":"Minden-Lübbecke","type":"Kreis"},"federalState":{"key":"05","name":"Nordrhein-Westfalen"}},{"name":"Rosengarten","postalCode":"32339","locality":"Espelkamp","municipality":{"key":"05770008","name":"Espelkamp, Stadt","type":"Stadt"},"district":{"key":"05770","name":"Minden-Lübbecke","type":"Kreis"},"federalState":{"key":"05","name":"Nordrhein-Westfalen"}},{"name":"Rotdornstr.","postalCode":"32339","locality":"Espelkamp","municipality":{"key":"05770008","name":"Espelkamp, Stadt","type":"Stadt"},"district":{"key":"05770","name":"Minden-Lübbecke","type":"Kreis"},"federalState":{"key":"05","name":"Nordrhein-Westfalen"}},{"name":"Röthenstr.","postalCode":"32339","locality":"Espelkamp","municipality":{"key":"05770008","name":"Espelkamp, Stadt","type":"Stadt"},"district":{"key":"05770","name":"Minden-Lübbecke","type":"Kreis"},"federalState":{"key":"05","name":"Nordrhein-Westfalen"}},{"name":"Rügenstr.","postalCode":"32339","locality":"Espelkamp","municipality":{"key":"05770008","name":"Espelkamp, Stadt","type":"Stadt"},"district":{"key":"05770","name":"Minden-Lübbecke","type":"Kreis"},"federalState":{"key":"05","name":"Nordrhein-Westfalen"}},{"name":"Rundstr.","postalCode":"32339","locality":"Espelkamp","municipality":{"key":"05770008","name":"Espelkamp, Stadt","type":"Stadt"},"district":{"key":"05770","name":"Minden-Lübbecke","type":"Kreis"},"federalState":{"key":"05","name":"Nordrhein-Westfalen"}},{"name":"Rundwanderweg Schloss Benkausen","postalCode":"32339","locality":"Espelkamp","municipality":{"key":"05770008","name":"Espelkamp, Stadt","type":"Stadt"},"district":{"key":"05770","name":"Minden-Lübbecke","type":"Kreis"},"federalState":{"key":"05","name":"Nordrhein-Westfalen"}},{"name":"Samlandweg","postalCode":"32339","locality":"Espelkamp","municipality":{"key":"05770008","name":"Espelkamp, Stadt","type":"Stadt"},"district":{"key":"05770","name":"Minden-Lübbecke","type":"Kreis"},"federalState":{"key":"05","name":"Nordrhein-Westfalen"}},{"name":"Schierholt","postalCode":"32339","locality":"Espelkamp","municipality":{"key":"05770008","name":"Espelkamp, Stadt","type":"Stadt"},"district":{"key":"05770","name":"Minden-Lübbecke","type":"Kreis"},"federalState":{"key":"05","name":"Nordrhein-Westfalen"}},{"name":"Schillerstr.","postalCode":"32339","locality":"Espelkamp","municipality":{"key":"05770008","name":"Espelkamp, Stadt","type":"Stadt"},"district":{"key":"05770","name":"Minden-Lübbecke","type":"Kreis"},"federalState":{"key":"05","name":"Nordrhein-Westfalen"}},{"name":"Schlehenweg","postalCode":"32339","locality":"Espelkamp","municipality":{"key":"05770008","name":"Espelkamp, Stadt","type":"Stadt"},"district":{"key":"05770","name":"Minden-Lübbecke","type":"Kreis"},"federalState":{"key":"05","name":"Nordrhein-Westfalen"}},{"name":"Schlosspark","postalCode":"32339","locality":"Espelkamp","municipality":{"key":"05770008","name":"Espelkamp, Stadt","type":"Stadt"},"district":{"key":"05770","name":"Minden-Lübbecke","type":"Kreis"},"federalState":{"key":"05","name":"Nordrhein-Westfalen"}},{"name":"Schnellenstr.","postalCode":"32339","locality":"Espelkamp","municipality":{"key":"05770008","name":"Espelkamp, Stadt","type":"Stadt"},"district":{"key":"05770","name":"Minden-Lübbecke","type":"Kreis"},"federalState":{"key":"05","name":"Nordrhein-Westfalen"}},{"name":"Schnepfenbruchweg","postalCode":"32339","locality":"Espelkamp","municipality":{"key":"05770008","name":"Espelkamp, Stadt","type":"Stadt"},"district":{"key":"05770","name":"Minden-Lübbecke","type":"Kreis"},"federalState":{"key":"05","name":"Nordrhein-Westfalen"}},{"name":"Schulbrinkstr.","postalCode":"32339","locality":"Espelkamp","municipality":{"key":"05770008","name":"Espelkamp, Stadt","type":"Stadt"},"district":{"key":"05770","name":"Minden-Lübbecke","type":"Kreis"},"federalState":{"key":"05","name":"Nordrhein-Westfalen"}},{"name":"Schüsselbruch","postalCode":"32339","locality":"Espelkamp","municipality":{"key":"05770008","name":"Espelkamp, Stadt","type":"Stadt"},"district":{"key":"05770","name":"Minden-Lübbecke","type":"Kreis"},"federalState":{"key":"05","name":"Nordrhein-Westfalen"}},{"name":"Schützenstr.","postalCode":"32339","locality":"Espelkamp","municipality":{"key":"05770008","name":"Espelkamp, Stadt","type":"Stadt"},"district":{"key":"05770","name":"Minden-Lübbecke","type":"Kreis"},"federalState":{"key":"05","name":"Nordrhein-Westfalen"}},{"name":"Schwarzer Weg","postalCode":"32339","locality":"Espelkamp","municipality":{"key":"05770008","name":"Espelkamp, Stadt","type":"Stadt"},"district":{"key":"05770","name":"Minden-Lübbecke","type":"Kreis"},"federalState":{"key":"05","name":"Nordrhein-Westfalen"}},{"name":"Schweidnitzer Weg","postalCode":"32339","locality":"Espelkamp","municipality":{"key":"05770008","name":"Espelkamp, Stadt","type":"Stadt"},"district":{"key":"05770","name":"Minden-Lübbecke","type":"Kreis"},"federalState":{"key":"05","name":"Nordrhein-Westfalen"}},{"name":"Schweriner Str.","postalCode":"32339","locality":"Espelkamp","municipality":{"key":"05770008","name":"Espelkamp, Stadt","type":"Stadt"},"district":{"key":"05770","name":"Minden-Lübbecke","type":"Kreis"},"federalState":{"key":"05","name":"Nordrhein-Westfalen"}},{"name":"Siebenweg","postalCode":"32339","locality":"Espelkamp","municipality":{"key":"05770008","name":"Espelkamp, Stadt","type":"Stadt"},"district":{"key":"05770","name":"Minden-Lübbecke","type":"Kreis"},"federalState":{"key":"05","name":"Nordrhein-Westfalen"}},{"name":"Siedlerstr.","postalCode":"32339","locality":"Espelkamp","municipality":{"key":"05770008","name":"Espelkamp, Stadt","type":"Stadt"},"district":{"key":"05770","name":"Minden-Lübbecke","type":"Kreis"},"federalState":{"key":"05","name":"Nordrhein-Westfalen"}},{"name":"Sonnenweg","postalCode":"32339","locality":"Espelkamp","municipality":{"key":"05770008","name":"Espelkamp, Stadt","type":"Stadt"},"district":{"key":"05770","name":"Minden-Lübbecke","type":"Kreis"},"federalState":{"key":"05","name":"Nordrhein-Westfalen"}},{"name":"Spechtstr.","postalCode":"32339","locality":"Espelkamp","municipality":{"key":"05770008","name":"Espelkamp, Stadt","type":"Stadt"},"district":{"key":"05770","name":"Minden-Lübbecke","type":"Kreis"},"federalState":{"key":"05","name":"Nordrhein-Westfalen"}},{"name":"Sperberweg","postalCode":"32339","locality":"Espelkamp","municipality":{"key":"05770008","name":"Espelkamp, Stadt","type":"Stadt"},"district":{"key":"05770","name":"Minden-Lübbecke","type":"Kreis"},"federalState":{"key":"05","name":"Nordrhein-Westfalen"}},{"name":"Spielstr.","postalCode":"32339","locality":"Espelkamp","municipality":{"key":"05770008","name":"Espelkamp, Stadt","type":"Stadt"},"district":{"key":"05770","name":"Minden-Lübbecke","type":"Kreis"},"federalState":{"key":"05","name":"Nordrhein-Westfalen"}},{"name":"Sportplatzstr.","postalCode":"32339","locality":"Espelkamp","municipality":{"key":"05770008","name":"Espelkamp, Stadt","type":"Stadt"},"district":{"key":"05770","name":"Minden-Lübbecke","type":"Kreis"},"federalState":{"key":"05","name":"Nordrhein-Westfalen"}},{"name":"Stadtbrunnenplatz","postalCode":"32339","locality":"Espelkamp","municipality":{"key":"05770008","name":"Espelkamp, Stadt","type":"Stadt"},"district":{"key":"05770","name":"Minden-Lübbecke","type":"Kreis"},"federalState":{"key":"05","name":"Nordrhein-Westfalen"}},{"name":"Stadtweg","postalCode":"32339","locality":"Espelkamp","municipality":{"key":"05770008","name":"Espelkamp, Stadt","type":"Stadt"},"district":{"key":"05770","name":"Minden-Lübbecke","type":"Kreis"},"federalState":{"key":"05","name":"Nordrhein-Westfalen"}},{"name":"Stargarder Str.","postalCode":"32339","locality":"Espelkamp","municipality":{"key":"05770008","name":"Espelkamp, Stadt","type":"Stadt"},"district":{"key":"05770","name":"Minden-Lübbecke","type":"Kreis"},"federalState":{"key":"05","name":"Nordrhein-Westfalen"}},{"name":"Steinweg","postalCode":"32339","locality":"Espelkamp","municipality":{"key":"05770008","name":"Espelkamp, Stadt","type":"Stadt"},"district":{"key":"05770","name":"Minden-Lübbecke","type":"Kreis"},"federalState":{"key":"05","name":"Nordrhein-Westfalen"}},{"name":"Stellerieger Str.","postalCode":"32339","locality":"Espelkamp","municipality":{"key":"05770008","name":"Espelkamp, Stadt","type":"Stadt"},"district":{"key":"05770","name":"Minden-Lübbecke","type":"Kreis"},"federalState":{"key":"05","name":"Nordrhein-Westfalen"}},{"name":"Sternenweg","postalCode":"32339","locality":"Espelkamp","municipality":{"key":"05770008","name":"Espelkamp, Stadt","type":"Stadt"},"district":{"key":"05770","name":"Minden-Lübbecke","type":"Kreis"},"federalState":{"key":"05","name":"Nordrhein-Westfalen"}},{"name":"Stettiner Str.","postalCode":"32339","locality":"Espelkamp","municipality":{"key":"05770008","name":"Espelkamp, Stadt","type":"Stadt"},"district":{"key":"05770","name":"Minden-Lübbecke","type":"Kreis"},"federalState":{"key":"05","name":"Nordrhein-Westfalen"}},{"name":"Stolper Weg","postalCode":"32339","locality":"Espelkamp","municipality":{"key":"05770008","name":"Espelkamp, Stadt","type":"Stadt"},"district":{"key":"05770","name":"Minden-Lübbecke","type":"Kreis"},"federalState":{"key":"05","name":"Nordrhein-Westfalen"}},{"name":"Stralsunder Str.","postalCode":"32339","locality":"Espelkamp","municipality":{"key":"05770008","name":"Espelkamp, Stadt","type":"Stadt"},"district":{"key":"05770","name":"Minden-Lübbecke","type":"Kreis"},"federalState":{"key":"05","name":"Nordrhein-Westfalen"}},{"name":"Tannenbergplatz","postalCode":"32339","locality":"Espelkamp","municipality":{"key":"05770008","name":"Espelkamp, Stadt","type":"Stadt"},"district":{"key":"05770","name":"Minden-Lübbecke","type":"Kreis"},"federalState":{"key":"05","name":"Nordrhein-Westfalen"}},{"name":"Thorner Weg","postalCode":"32339","locality":"Espelkamp","municipality":{"key":"05770008","name":"Espelkamp, Stadt","type":"Stadt"},"district":{"key":"05770","name":"Minden-Lübbecke","type":"Kreis"},"federalState":{"key":"05","name":"Nordrhein-Westfalen"}},{"name":"Tilsiter Weg","postalCode":"32339","locality":"Espelkamp","municipality":{"key":"05770008","name":"Espelkamp, Stadt","type":"Stadt"},"district":{"key":"05770","name":"Minden-Lübbecke","type":"Kreis"},"federalState":{"key":"05","name":"Nordrhein-Westfalen"}},{"name":"Tonnenheider Str.","postalCode":"32339","locality":"Espelkamp","municipality":{"key":"05770008","name":"Espelkamp, Stadt","type":"Stadt"},"district":{"key":"05770","name":"Minden-Lübbecke","type":"Kreis"},"federalState":{"key":"05","name":"Nordrhein-Westfalen"}},{"name":"Torgelower Weg","postalCode":"32339","locality":"Espelkamp","municipality":{"key":"05770008","name":"Espelkamp, Stadt","type":"Stadt"},"district":{"key":"05770","name":"Minden-Lübbecke","type":"Kreis"},"federalState":{"key":"05","name":"Nordrhein-Westfalen"}},{"name":"Trakehner Str.","postalCode":"32339","locality":"Espelkamp","municipality":{"key":"05770008","name":"Espelkamp, Stadt","type":"Stadt"},"district":{"key":"05770","name":"Minden-Lübbecke","type":"Kreis"},"federalState":{"key":"05","name":"Nordrhein-Westfalen"}},{"name":"Tulpenweg","postalCode":"32339","locality":"Espelkamp","municipality":{"key":"05770008","name":"Espelkamp, Stadt","type":"Stadt"},"district":{"key":"05770","name":"Minden-Lübbecke","type":"Kreis"},"federalState":{"key":"05","name":"Nordrhein-Westfalen"}},{"name":"Twiehauser Str.","postalCode":"32339","locality":"Espelkamp","municipality":{"key":"05770008","name":"Espelkamp, Stadt","type":"Stadt"},"district":{"key":"05770","name":"Minden-Lübbecke","type":"Kreis"},"federalState":{"key":"05","name":"Nordrhein-Westfalen"}},{"name":"Ulmenweg","postalCode":"32339","locality":"Espelkamp","municipality":{"key":"05770008","name":"Espelkamp, Stadt","type":"Stadt"},"district":{"key":"05770","name":"Minden-Lübbecke","type":"Kreis"},"federalState":{"key":"05","name":"Nordrhein-Westfalen"}},{"name":"Uwestr.","postalCode":"32339","locality":"Espelkamp","municipality":{"key":"05770008","name":"Espelkamp, Stadt","type":"Stadt"},"district":{"key":"05770","name":"Minden-Lübbecke","type":"Kreis"},"federalState":{"key":"05","name":"Nordrhein-Westfalen"}},{"name":"Vehlager Str.","postalCode":"32339","locality":"Espelkamp","municipality":{"key":"05770008","name":"Espelkamp, Stadt","type":"Stadt"},"district":{"key":"05770","name":"Minden-Lübbecke","type":"Kreis"},"federalState":{"key":"05","name":"Nordrhein-Westfalen"}},{"name":"Voßackerweg","postalCode":"32339","locality":"Espelkamp","municipality":{"key":"05770008","name":"Espelkamp, Stadt","type":"Stadt"},"district":{"key":"05770","name":"Minden-Lübbecke","type":"Kreis"},"federalState":{"key":"05","name":"Nordrhein-Westfalen"}},{"name":"Wacholderweg","postalCode":"32339","locality":"Espelkamp","municipality":{"key":"05770008","name":"Espelkamp, Stadt","type":"Stadt"},"district":{"key":"05770","name":"Minden-Lübbecke","type":"Kreis"},"federalState":{"key":"05","name":"Nordrhein-Westfalen"}},{"name":"Waldenburger Hof","postalCode":"32339","locality":"Espelkamp","municipality":{"key":"05770008","name":"Espelkamp, Stadt","type":"Stadt"},"district":{"key":"05770","name":"Minden-Lübbecke","type":"Kreis"},"federalState":{"key":"05","name":"Nordrhein-Westfalen"}},{"name":"Waldweg","postalCode":"32339","locality":"Espelkamp","municipality":{"key":"05770008","name":"Espelkamp, Stadt","type":"Stadt"},"district":{"key":"05770","name":"Minden-Lübbecke","type":"Kreis"},"federalState":{"key":"05","name":"Nordrhein-Westfalen"}},{"name":"Walnussweg","postalCode":"32339","locality":"Espelkamp","municipality":{"key":"05770008","name":"Espelkamp, Stadt","type":"Stadt"},"district":{"key":"05770","name":"Minden-Lübbecke","type":"Kreis"},"federalState":{"key":"05","name":"Nordrhein-Westfalen"}},{"name":"Weichselgasse","postalCode":"32339","locality":"Espelkamp","municipality":{"key":"05770008","name":"Espelkamp, Stadt","type":"Stadt"},"district":{"key":"05770","name":"Minden-Lübbecke","type":"Kreis"},"federalState":{"key":"05","name":"Nordrhein-Westfalen"}},{"name":"Weidensiek","postalCode":"32339","locality":"Espelkamp","municipality":{"key":"05770008","name":"Espelkamp, Stadt","type":"Stadt"},"district":{"key":"05770","name":"Minden-Lübbecke","type":"Kreis"},"federalState":{"key":"05","name":"Nordrhein-Westfalen"}},{"name":"Weimarer Weg","postalCode":"32339","locality":"Espelkamp","municipality":{"key":"05770008","name":"Espelkamp, Stadt","type":"Stadt"},"district":{"key":"05770","name":"Minden-Lübbecke","type":"Kreis"},"federalState":{"key":"05","name":"Nordrhein-Westfalen"}},{"name":"Weißdornstr.","postalCode":"32339","locality":"Espelkamp","municipality":{"key":"05770008","name":"Espelkamp, Stadt","type":"Stadt"},"district":{"key":"05770","name":"Minden-Lübbecke","type":"Kreis"},"federalState":{"key":"05","name":"Nordrhein-Westfalen"}},{"name":"Wellenbruchsweg","postalCode":"32339","locality":"Espelkamp","municipality":{"key":"05770008","name":"Espelkamp, Stadt","type":"Stadt"},"district":{"key":"05770","name":"Minden-Lübbecke","type":"Kreis"},"federalState":{"key":"05","name":"Nordrhein-Westfalen"}},{"name":"Wollriede","postalCode":"32339","locality":"Espelkamp","municipality":{"key":"05770008","name":"Espelkamp, Stadt","type":"Stadt"},"district":{"key":"05770","name":"Minden-Lübbecke","type":"Kreis"},"federalState":{"key":"05","name":"Nordrhein-Westfalen"}},{"name":"Zedernweg","postalCode":"32339","locality":"Espelkamp","municipality":{"key":"05770008","name":"Espelkamp, Stadt","type":"Stadt"},"district":{"key":"05770","name":"Minden-Lübbecke","type":"Kreis"},"federalState":{"key":"05","name":"Nordrhein-Westfalen"}},{"name":"Zum Kleihügel","postalCode":"32339","locality":"Espelkamp","municipality":{"key":"05770008","name":"Espelkamp, Stadt","type":"Stadt"},"district":{"key":"05770","name":"Minden-Lübbecke","type":"Kreis"},"federalState":{"key":"05","name":"Nordrhein-Westfalen"}},{"name":"Zum Staatsforst","postalCode":"32339","locality":"Espelkamp","municipality":{"key":"05770008","name":"Espelkamp, Stadt","type":"Stadt"},"district":{"key":"05770","name":"Minden-Lübbecke","type":"Kreis"},"federalState":{"key":"05","name":"Nordrhein-Westfalen"}},{"name":"Zur Ratzenburg","postalCode":"32339","locality":"Espelkamp","municipality":{"key":"05770008","name":"Espelkamp, Stadt","type":"Stadt"},"district":{"key":"05770","name":"Minden-Lübbecke","type":"Kreis"},"federalState":{"key":"05","name":"Nordrhein-Westfalen"}},{"name":"Zwetschenstr.","postalCode":"32339","locality":"Espelkamp","municipality":{"key":"05770008","name":"Espelkamp, Stadt","type":"Stadt"},"district":{"key":"05770","name":"Minden-Lübbecke","type":"Kreis"},"federalState":{"key":"05","name":"Nordrhein-Westfalen"}},]