[{"name":"Ahornstr.","postalCode":"84549","locality":"Engelsberg","municipality":{"key":"09189115","name":"Engelsberg","type":"Kreisangehörige_Gemeinde"},"district":{"key":"09189","name":"Traunstein","type":"Landkreis"},"federalState":{"key":"09","name":"Bayern"}},{"name":"Aicher","postalCode":"84549","locality":"Engelsberg","municipality":{"key":"09189115","name":"Engelsberg","type":"Kreisangehörige_Gemeinde"},"district":{"key":"09189","name":"Traunstein","type":"Landkreis"},"federalState":{"key":"09","name":"Bayern"}},{"name":"Aigl","postalCode":"84549","locality":"Engelsberg","municipality":{"key":"09189115","name":"Engelsberg","type":"Kreisangehörige_Gemeinde"},"district":{"key":"09189","name":"Traunstein","type":"Landkreis"},"federalState":{"key":"09","name":"Bayern"}},{"name":"Altöttinger Str.","postalCode":"84549","locality":"Engelsberg","municipality":{"key":"09189115","name":"Engelsberg","type":"Kreisangehörige_Gemeinde"},"district":{"key":"09189","name":"Traunstein","type":"Landkreis"},"federalState":{"key":"09","name":"Bayern"}},{"name":"Am alten Kirchenweg","postalCode":"84549","locality":"Engelsberg","municipality":{"key":"09189115","name":"Engelsberg","type":"Kreisangehörige_Gemeinde"},"district":{"key":"09189","name":"Traunstein","type":"Landkreis"},"federalState":{"key":"09","name":"Bayern"}},{"name":"Am Bahndamm","postalCode":"84549","locality":"Engelsberg","municipality":{"key":"09189115","name":"Engelsberg","type":"Kreisangehörige_Gemeinde"},"district":{"key":"09189","name":"Traunstein","type":"Landkreis"},"federalState":{"key":"09","name":"Bayern"}},{"name":"Am Dobl","postalCode":"84549","locality":"Engelsberg","municipality":{"key":"09189115","name":"Engelsberg","type":"Kreisangehörige_Gemeinde"},"district":{"key":"09189","name":"Traunstein","type":"Landkreis"},"federalState":{"key":"09","name":"Bayern"}},{"name":"Am Haringer Berg","postalCode":"84549","locality":"Engelsberg","municipality":{"key":"09189115","name":"Engelsberg","type":"Kreisangehörige_Gemeinde"},"district":{"key":"09189","name":"Traunstein","type":"Landkreis"},"federalState":{"key":"09","name":"Bayern"}},{"name":"Am Krümpel","postalCode":"84549","locality":"Engelsberg","municipality":{"key":"09189115","name":"Engelsberg","type":"Kreisangehörige_Gemeinde"},"district":{"key":"09189","name":"Traunstein","type":"Landkreis"},"federalState":{"key":"09","name":"Bayern"}},{"name":"Andreasstr.","postalCode":"84549","locality":"Engelsberg","municipality":{"key":"09189115","name":"Engelsberg","type":"Kreisangehörige_Gemeinde"},"district":{"key":"09189","name":"Traunstein","type":"Landkreis"},"federalState":{"key":"09","name":"Bayern"}},{"name":"Babingerstr.","postalCode":"84549","locality":"Engelsberg","municipality":{"key":"09189115","name":"Engelsberg","type":"Kreisangehörige_Gemeinde"},"district":{"key":"09189","name":"Traunstein","type":"Landkreis"},"federalState":{"key":"09","name":"Bayern"}},{"name":"Bankl","postalCode":"84549","locality":"Engelsberg","municipality":{"key":"09189115","name":"Engelsberg","type":"Kreisangehörige_Gemeinde"},"district":{"key":"09189","name":"Traunstein","type":"Landkreis"},"federalState":{"key":"09","name":"Bayern"}},{"name":"Birkenstr.","postalCode":"84549","locality":"Engelsberg","municipality":{"key":"09189115","name":"Engelsberg","type":"Kreisangehörige_Gemeinde"},"district":{"key":"09189","name":"Traunstein","type":"Landkreis"},"federalState":{"key":"09","name":"Bayern"}},{"name":"Bischof-Goebl-Str.","postalCode":"84549","locality":"Engelsberg","municipality":{"key":"09189115","name":"Engelsberg","type":"Kreisangehörige_Gemeinde"},"district":{"key":"09189","name":"Traunstein","type":"Landkreis"},"federalState":{"key":"09","name":"Bayern"}},{"name":"Blumenstr.","postalCode":"84549","locality":"Engelsberg","municipality":{"key":"09189115","name":"Engelsberg","type":"Kreisangehörige_Gemeinde"},"district":{"key":"09189","name":"Traunstein","type":"Landkreis"},"federalState":{"key":"09","name":"Bayern"}},{"name":"Chiemseestr.","postalCode":"83278","locality":"Traunstein","municipality":{"key":"09189155","name":"Traunstein, GKSt","type":"Große_Kreisstadt"},"district":{"key":"09189","name":"Traunstein","type":"Landkreis"},"federalState":{"key":"09","name":"Bayern"}},{"name":"Crailsheimstr.","postalCode":"83278","locality":"Traunstein","municipality":{"key":"09189155","name":"Traunstein, GKSt","type":"Große_Kreisstadt"},"district":{"key":"09189","name":"Traunstein","type":"Landkreis"},"federalState":{"key":"09","name":"Bayern"}},{"name":"Doblstr.","postalCode":"84549","locality":"Engelsberg","municipality":{"key":"09189115","name":"Engelsberg","type":"Kreisangehörige_Gemeinde"},"district":{"key":"09189","name":"Traunstein","type":"Landkreis"},"federalState":{"key":"09","name":"Bayern"}},{"name":"Dr.-Dietz Str.","postalCode":"84549","locality":"Engelsberg","municipality":{"key":"09189115","name":"Engelsberg","type":"Kreisangehörige_Gemeinde"},"district":{"key":"09189","name":"Traunstein","type":"Landkreis"},"federalState":{"key":"09","name":"Bayern"}},{"name":"Eiting","postalCode":"84549","locality":"Engelsberg","municipality":{"key":"09189115","name":"Engelsberg","type":"Kreisangehörige_Gemeinde"},"district":{"key":"09189","name":"Traunstein","type":"Landkreis"},"federalState":{"key":"09","name":"Bayern"}},{"name":"Emertshamer Str.","postalCode":"84549","locality":"Engelsberg","municipality":{"key":"09189115","name":"Engelsberg","type":"Kreisangehörige_Gemeinde"},"district":{"key":"09189","name":"Traunstein","type":"Landkreis"},"federalState":{"key":"09","name":"Bayern"}},{"name":"Feichten","postalCode":"84549","locality":"Engelsberg","municipality":{"key":"09189115","name":"Engelsberg","type":"Kreisangehörige_Gemeinde"},"district":{"key":"09189","name":"Traunstein","type":"Landkreis"},"federalState":{"key":"09","name":"Bayern"}},{"name":"Fichtenstr.","postalCode":"84549","locality":"Engelsberg","municipality":{"key":"09189115","name":"Engelsberg","type":"Kreisangehörige_Gemeinde"},"district":{"key":"09189","name":"Traunstein","type":"Landkreis"},"federalState":{"key":"09","name":"Bayern"}},{"name":"Forsting","postalCode":"84549","locality":"Engelsberg","municipality":{"key":"09189115","name":"Engelsberg","type":"Kreisangehörige_Gemeinde"},"district":{"key":"09189","name":"Traunstein","type":"Landkreis"},"federalState":{"key":"09","name":"Bayern"}},{"name":"Gailhausen","postalCode":"84549","locality":"Engelsberg","municipality":{"key":"09189115","name":"Engelsberg","type":"Kreisangehörige_Gemeinde"},"district":{"key":"09189","name":"Traunstein","type":"Landkreis"},"federalState":{"key":"09","name":"Bayern"}},{"name":"Garchinger Str.","postalCode":"84549","locality":"Engelsberg","municipality":{"key":"09189115","name":"Engelsberg","type":"Kreisangehörige_Gemeinde"},"district":{"key":"09189","name":"Traunstein","type":"Landkreis"},"federalState":{"key":"09","name":"Bayern"}},{"name":"Gartenstr.","postalCode":"84549","locality":"Engelsberg","municipality":{"key":"09189115","name":"Engelsberg","type":"Kreisangehörige_Gemeinde"},"district":{"key":"09189","name":"Traunstein","type":"Landkreis"},"federalState":{"key":"09","name":"Bayern"}},{"name":"Gewerbering","postalCode":"84549","locality":"Engelsberg","municipality":{"key":"09189115","name":"Engelsberg","type":"Kreisangehörige_Gemeinde"},"district":{"key":"09189","name":"Traunstein","type":"Landkreis"},"federalState":{"key":"09","name":"Bayern"}},{"name":"Gießmühler Str.","postalCode":"84549","locality":"Engelsberg","municipality":{"key":"09189115","name":"Engelsberg","type":"Kreisangehörige_Gemeinde"},"district":{"key":"09189","name":"Traunstein","type":"Landkreis"},"federalState":{"key":"09","name":"Bayern"}},{"name":"Gloneck","postalCode":"84549","locality":"Engelsberg","municipality":{"key":"09189115","name":"Engelsberg","type":"Kreisangehörige_Gemeinde"},"district":{"key":"09189","name":"Traunstein","type":"Landkreis"},"federalState":{"key":"09","name":"Bayern"}},{"name":"Hafing","postalCode":"84549","locality":"Engelsberg","municipality":{"key":"09189115","name":"Engelsberg","type":"Kreisangehörige_Gemeinde"},"district":{"key":"09189","name":"Traunstein","type":"Landkreis"},"federalState":{"key":"09","name":"Bayern"}},{"name":"Illerstr.","postalCode":"83278","locality":"Traunstein","municipality":{"key":"09189155","name":"Traunstein, GKSt","type":"Große_Kreisstadt"},"district":{"key":"09189","name":"Traunstein","type":"Landkreis"},"federalState":{"key":"09","name":"Bayern"}},{"name":"Innstr.","postalCode":"83278","locality":"Traunstein","municipality":{"key":"09189155","name":"Traunstein, GKSt","type":"Große_Kreisstadt"},"district":{"key":"09189","name":"Traunstein","type":"Landkreis"},"federalState":{"key":"09","name":"Bayern"}},{"name":"Irlach","postalCode":"83278","locality":"Traunstein","municipality":{"key":"09189155","name":"Traunstein, GKSt","type":"Große_Kreisstadt"},"district":{"key":"09189","name":"Traunstein","type":"Landkreis"},"federalState":{"key":"09","name":"Bayern"}},{"name":"Irlbergstr.","postalCode":"83278","locality":"Traunstein","municipality":{"key":"09189155","name":"Traunstein, GKSt","type":"Große_Kreisstadt"},"district":{"key":"09189","name":"Traunstein","type":"Landkreis"},"federalState":{"key":"09","name":"Bayern"}},{"name":"Isarstr.","postalCode":"83278","locality":"Traunstein","municipality":{"key":"09189155","name":"Traunstein, GKSt","type":"Große_Kreisstadt"},"district":{"key":"09189","name":"Traunstein","type":"Landkreis"},"federalState":{"key":"09","name":"Bayern"}},{"name":"Jägerweg","postalCode":"84549","locality":"Engelsberg","municipality":{"key":"09189115","name":"Engelsberg","type":"Kreisangehörige_Gemeinde"},"district":{"key":"09189","name":"Traunstein","type":"Landkreis"},"federalState":{"key":"09","name":"Bayern"}},{"name":"Kraiburger Str.","postalCode":"84549","locality":"Engelsberg","municipality":{"key":"09189115","name":"Engelsberg","type":"Kreisangehörige_Gemeinde"},"district":{"key":"09189","name":"Traunstein","type":"Landkreis"},"federalState":{"key":"09","name":"Bayern"}},{"name":"Lagerhausstr.","postalCode":"84549","locality":"Engelsberg","municipality":{"key":"09189115","name":"Engelsberg","type":"Kreisangehörige_Gemeinde"},"district":{"key":"09189","name":"Traunstein","type":"Landkreis"},"federalState":{"key":"09","name":"Bayern"}},{"name":"Lenzenweg","postalCode":"84549","locality":"Engelsberg","municipality":{"key":"09189115","name":"Engelsberg","type":"Kreisangehörige_Gemeinde"},"district":{"key":"09189","name":"Traunstein","type":"Landkreis"},"federalState":{"key":"09","name":"Bayern"}},{"name":"Lindach","postalCode":"84549","locality":"Engelsberg","municipality":{"key":"09189115","name":"Engelsberg","type":"Kreisangehörige_Gemeinde"},"district":{"key":"09189","name":"Traunstein","type":"Landkreis"},"federalState":{"key":"09","name":"Bayern"}},{"name":"Lindenstr.","postalCode":"84549","locality":"Engelsberg","municipality":{"key":"09189115","name":"Engelsberg","type":"Kreisangehörige_Gemeinde"},"district":{"key":"09189","name":"Traunstein","type":"Landkreis"},"federalState":{"key":"09","name":"Bayern"}},{"name":"Losbichl","postalCode":"84549","locality":"Engelsberg","municipality":{"key":"09189115","name":"Engelsberg","type":"Kreisangehörige_Gemeinde"},"district":{"key":"09189","name":"Traunstein","type":"Landkreis"},"federalState":{"key":"09","name":"Bayern"}},{"name":"Ludwig-Thoma-Str.","postalCode":"84549","locality":"Engelsberg","municipality":{"key":"09189115","name":"Engelsberg","type":"Kreisangehörige_Gemeinde"},"district":{"key":"09189","name":"Traunstein","type":"Landkreis"},"federalState":{"key":"09","name":"Bayern"}},{"name":"Maderlechnerstr.","postalCode":"84549","locality":"Engelsberg","municipality":{"key":"09189115","name":"Engelsberg","type":"Kreisangehörige_Gemeinde"},"district":{"key":"09189","name":"Traunstein","type":"Landkreis"},"federalState":{"key":"09","name":"Bayern"}},{"name":"Mitterweg","postalCode":"84549","locality":"Engelsberg","municipality":{"key":"09189115","name":"Engelsberg","type":"Kreisangehörige_Gemeinde"},"district":{"key":"09189","name":"Traunstein","type":"Landkreis"},"federalState":{"key":"09","name":"Bayern"}},{"name":"Mühldorfer Str.","postalCode":"84549","locality":"Engelsberg","municipality":{"key":"09189115","name":"Engelsberg","type":"Kreisangehörige_Gemeinde"},"district":{"key":"09189","name":"Traunstein","type":"Landkreis"},"federalState":{"key":"09","name":"Bayern"}},{"name":"Neuhäusl","postalCode":"84549","locality":"Engelsberg","municipality":{"key":"09189115","name":"Engelsberg","type":"Kreisangehörige_Gemeinde"},"district":{"key":"09189","name":"Traunstein","type":"Landkreis"},"federalState":{"key":"09","name":"Bayern"}},{"name":"Niederlehen","postalCode":"84549","locality":"Engelsberg","municipality":{"key":"09189115","name":"Engelsberg","type":"Kreisangehörige_Gemeinde"},"district":{"key":"09189","name":"Traunstein","type":"Landkreis"},"federalState":{"key":"09","name":"Bayern"}},{"name":"Notburgastr.","postalCode":"84549","locality":"Engelsberg","municipality":{"key":"09189115","name":"Engelsberg","type":"Kreisangehörige_Gemeinde"},"district":{"key":"09189","name":"Traunstein","type":"Landkreis"},"federalState":{"key":"09","name":"Bayern"}},{"name":"Oberharrer","postalCode":"84549","locality":"Engelsberg","municipality":{"key":"09189115","name":"Engelsberg","type":"Kreisangehörige_Gemeinde"},"district":{"key":"09189","name":"Traunstein","type":"Landkreis"},"federalState":{"key":"09","name":"Bayern"}},{"name":"Oberlehen","postalCode":"84549","locality":"Engelsberg","municipality":{"key":"09189115","name":"Engelsberg","type":"Kreisangehörige_Gemeinde"},"district":{"key":"09189","name":"Traunstein","type":"Landkreis"},"federalState":{"key":"09","name":"Bayern"}},{"name":"Ohni","postalCode":"84549","locality":"Engelsberg","municipality":{"key":"09189115","name":"Engelsberg","type":"Kreisangehörige_Gemeinde"},"district":{"key":"09189","name":"Traunstein","type":"Landkreis"},"federalState":{"key":"09","name":"Bayern"}},{"name":"Osenstätten","postalCode":"84549","locality":"Engelsberg","municipality":{"key":"09189115","name":"Engelsberg","type":"Kreisangehörige_Gemeinde"},"district":{"key":"09189","name":"Traunstein","type":"Landkreis"},"federalState":{"key":"09","name":"Bayern"}},{"name":"Osterholzstr.","postalCode":"84549","locality":"Engelsberg","municipality":{"key":"09189115","name":"Engelsberg","type":"Kreisangehörige_Gemeinde"},"district":{"key":"09189","name":"Traunstein","type":"Landkreis"},"federalState":{"key":"09","name":"Bayern"}},{"name":"Ottenthal","postalCode":"84549","locality":"Engelsberg","municipality":{"key":"09189115","name":"Engelsberg","type":"Kreisangehörige_Gemeinde"},"district":{"key":"09189","name":"Traunstein","type":"Landkreis"},"federalState":{"key":"09","name":"Bayern"}},{"name":"Pfarrer-Gschoßmann-Str.","postalCode":"84549","locality":"Engelsberg","municipality":{"key":"09189115","name":"Engelsberg","type":"Kreisangehörige_Gemeinde"},"district":{"key":"09189","name":"Traunstein","type":"Landkreis"},"federalState":{"key":"09","name":"Bayern"}},{"name":"Pfarrer-Reiser-Str.","postalCode":"84549","locality":"Engelsberg","municipality":{"key":"09189115","name":"Engelsberg","type":"Kreisangehörige_Gemeinde"},"district":{"key":"09189","name":"Traunstein","type":"Landkreis"},"federalState":{"key":"09","name":"Bayern"}},{"name":"Pfarrweg","postalCode":"84549","locality":"Engelsberg","municipality":{"key":"09189115","name":"Engelsberg","type":"Kreisangehörige_Gemeinde"},"district":{"key":"09189","name":"Traunstein","type":"Landkreis"},"federalState":{"key":"09","name":"Bayern"}},{"name":"Pichler","postalCode":"84549","locality":"Engelsberg","municipality":{"key":"09189115","name":"Engelsberg","type":"Kreisangehörige_Gemeinde"},"district":{"key":"09189","name":"Traunstein","type":"Landkreis"},"federalState":{"key":"09","name":"Bayern"}},{"name":"Raiffeisenplatz","postalCode":"84549","locality":"Engelsberg","municipality":{"key":"09189115","name":"Engelsberg","type":"Kreisangehörige_Gemeinde"},"district":{"key":"09189","name":"Traunstein","type":"Landkreis"},"federalState":{"key":"09","name":"Bayern"}},{"name":"Reit","postalCode":"84549","locality":"Engelsberg","municipality":{"key":"09189115","name":"Engelsberg","type":"Kreisangehörige_Gemeinde"},"district":{"key":"09189","name":"Traunstein","type":"Landkreis"},"federalState":{"key":"09","name":"Bayern"}},{"name":"Rosenweg","postalCode":"84549","locality":"Engelsberg","municipality":{"key":"09189115","name":"Engelsberg","type":"Kreisangehörige_Gemeinde"},"district":{"key":"09189","name":"Traunstein","type":"Landkreis"},"federalState":{"key":"09","name":"Bayern"}},{"name":"Schabing","postalCode":"84549","locality":"Engelsberg","municipality":{"key":"09189115","name":"Engelsberg","type":"Kreisangehörige_Gemeinde"},"district":{"key":"09189","name":"Traunstein","type":"Landkreis"},"federalState":{"key":"09","name":"Bayern"}},{"name":"Schulstr.","postalCode":"84549","locality":"Engelsberg","municipality":{"key":"09189115","name":"Engelsberg","type":"Kreisangehörige_Gemeinde"},"district":{"key":"09189","name":"Traunstein","type":"Landkreis"},"federalState":{"key":"09","name":"Bayern"}},{"name":"Simon-Irschl-Str.","postalCode":"84549","locality":"Engelsberg","municipality":{"key":"09189115","name":"Engelsberg","type":"Kreisangehörige_Gemeinde"},"district":{"key":"09189","name":"Traunstein","type":"Landkreis"},"federalState":{"key":"09","name":"Bayern"}},{"name":"Sonnenstr.","postalCode":"84549","locality":"Engelsberg","municipality":{"key":"09189115","name":"Engelsberg","type":"Kreisangehörige_Gemeinde"},"district":{"key":"09189","name":"Traunstein","type":"Landkreis"},"federalState":{"key":"09","name":"Bayern"}},{"name":"Stangenbergstr.","postalCode":"84549","locality":"Engelsberg","municipality":{"key":"09189115","name":"Engelsberg","type":"Kreisangehörige_Gemeinde"},"district":{"key":"09189","name":"Traunstein","type":"Landkreis"},"federalState":{"key":"09","name":"Bayern"}},{"name":"Streitner","postalCode":"84549","locality":"Engelsberg","municipality":{"key":"09189115","name":"Engelsberg","type":"Kreisangehörige_Gemeinde"},"district":{"key":"09189","name":"Traunstein","type":"Landkreis"},"federalState":{"key":"09","name":"Bayern"}},{"name":"Trost","postalCode":"84549","locality":"Engelsberg","municipality":{"key":"09189115","name":"Engelsberg","type":"Kreisangehörige_Gemeinde"},"district":{"key":"09189","name":"Traunstein","type":"Landkreis"},"federalState":{"key":"09","name":"Bayern"}},{"name":"Trostberger Str.","postalCode":"84549","locality":"Engelsberg","municipality":{"key":"09189115","name":"Engelsberg","type":"Kreisangehörige_Gemeinde"},"district":{"key":"09189","name":"Traunstein","type":"Landkreis"},"federalState":{"key":"09","name":"Bayern"}},{"name":"Tulpenweg","postalCode":"84549","locality":"Engelsberg","municipality":{"key":"09189115","name":"Engelsberg","type":"Kreisangehörige_Gemeinde"},"district":{"key":"09189","name":"Traunstein","type":"Landkreis"},"federalState":{"key":"09","name":"Bayern"}},{"name":"Tunzenstr.","postalCode":"84549","locality":"Engelsberg","municipality":{"key":"09189115","name":"Engelsberg","type":"Kreisangehörige_Gemeinde"},"district":{"key":"09189","name":"Traunstein","type":"Landkreis"},"federalState":{"key":"09","name":"Bayern"}},{"name":"Turnstr.","postalCode":"84549","locality":"Engelsberg","municipality":{"key":"09189115","name":"Engelsberg","type":"Kreisangehörige_Gemeinde"},"district":{"key":"09189","name":"Traunstein","type":"Landkreis"},"federalState":{"key":"09","name":"Bayern"}},{"name":"Uhlandstr.","postalCode":"83278","locality":"Traunstein","municipality":{"key":"09189155","name":"Traunstein, GKSt","type":"Große_Kreisstadt"},"district":{"key":"09189","name":"Traunstein","type":"Landkreis"},"federalState":{"key":"09","name":"Bayern"}},{"name":"Unternbergstr.","postalCode":"83278","locality":"Traunstein","municipality":{"key":"09189155","name":"Traunstein, GKSt","type":"Große_Kreisstadt"},"district":{"key":"09189","name":"Traunstein","type":"Landkreis"},"federalState":{"key":"09","name":"Bayern"}},{"name":"Vogleck","postalCode":"84549","locality":"Engelsberg","municipality":{"key":"09189115","name":"Engelsberg","type":"Kreisangehörige_Gemeinde"},"district":{"key":"09189","name":"Traunstein","type":"Landkreis"},"federalState":{"key":"09","name":"Bayern"}},{"name":"Waldhub","postalCode":"84549","locality":"Engelsberg","municipality":{"key":"09189115","name":"Engelsberg","type":"Kreisangehörige_Gemeinde"},"district":{"key":"09189","name":"Traunstein","type":"Landkreis"},"federalState":{"key":"09","name":"Bayern"}},{"name":"Waldstr.","postalCode":"84549","locality":"Engelsberg","municipality":{"key":"09189115","name":"Engelsberg","type":"Kreisangehörige_Gemeinde"},"district":{"key":"09189","name":"Traunstein","type":"Landkreis"},"federalState":{"key":"09","name":"Bayern"}},{"name":"Wallner","postalCode":"84549","locality":"Engelsberg","municipality":{"key":"09189115","name":"Engelsberg","type":"Kreisangehörige_Gemeinde"},"district":{"key":"09189","name":"Traunstein","type":"Landkreis"},"federalState":{"key":"09","name":"Bayern"}},{"name":"Weichslehen","postalCode":"84549","locality":"Engelsberg","municipality":{"key":"09189115","name":"Engelsberg","type":"Kreisangehörige_Gemeinde"},"district":{"key":"09189","name":"Traunstein","type":"Landkreis"},"federalState":{"key":"09","name":"Bayern"}},{"name":"Wiesenweg","postalCode":"84549","locality":"Engelsberg","municipality":{"key":"09189115","name":"Engelsberg","type":"Kreisangehörige_Gemeinde"},"district":{"key":"09189","name":"Traunstein","type":"Landkreis"},"federalState":{"key":"09","name":"Bayern"}},{"name":"Wollmannstetten","postalCode":"84549","locality":"Engelsberg","municipality":{"key":"09189115","name":"Engelsberg","type":"Kreisangehörige_Gemeinde"},"district":{"key":"09189","name":"Traunstein","type":"Landkreis"},"federalState":{"key":"09","name":"Bayern"}},{"name":"Zeppelinstr.","postalCode":"83278","locality":"Traunstein","municipality":{"key":"09189155","name":"Traunstein, GKSt","type":"Große_Kreisstadt"},"district":{"key":"09189","name":"Traunstein","type":"Landkreis"},"federalState":{"key":"09","name":"Bayern"}},{"name":"Zirnbergerstr.","postalCode":"83278","locality":"Traunstein","municipality":{"key":"09189155","name":"Traunstein, GKSt","type":"Große_Kreisstadt"},"district":{"key":"09189","name":"Traunstein","type":"Landkreis"},"federalState":{"key":"09","name":"Bayern"}},{"name":"Zwieselstr.","postalCode":"83278","locality":"Traunstein","municipality":{"key":"09189155","name":"Traunstein, GKSt","type":"Große_Kreisstadt"},"district":{"key":"09189","name":"Traunstein","type":"Landkreis"},"federalState":{"key":"09","name":"Bayern"}},{"name":"Äußere Rosenheimer Str.","postalCode":"83278","locality":"Traunstein","municipality":{"key":"09189155","name":"Traunstein, GKSt","type":"Große_Kreisstadt"},"district":{"key":"09189","name":"Traunstein","type":"Landkreis"},"federalState":{"key":"09","name":"Bayern"}},{"name":"Öttinger Gasse","postalCode":"83278","locality":"Traunstein","municipality":{"key":"09189155","name":"Traunstein, GKSt","type":"Große_Kreisstadt"},"district":{"key":"09189","name":"Traunstein","type":"Landkreis"},"federalState":{"key":"09","name":"Bayern"}},]