[{"key":"10013792","name":"Aebi","postalCode":"3454","locality":"Sumiswald","commune":{"key":"957","name":"Sumiswald","shortName":"Sumiswald"},"district":{"key":"245","name":"Verwaltungskreis Emmental"},"canton":{"key":"2","code":"BE","name":"Bern / Berne"},"status":"Real"},{"key":"10014120","name":"Archgässli","postalCode":"3454","locality":"Sumiswald","commune":{"key":"957","name":"Sumiswald","shortName":"Sumiswald"},"district":{"key":"245","name":"Verwaltungskreis Emmental"},"canton":{"key":"2","code":"BE","name":"Bern / Berne"},"status":"Real"},{"key":"10240700","name":"Bahnhofstrasse","postalCode":"3454","locality":"Sumiswald","commune":{"key":"957","name":"Sumiswald","shortName":"Sumiswald"},"district":{"key":"245","name":"Verwaltungskreis Emmental"},"canton":{"key":"2","code":"BE","name":"Bern / Berne"},"status":"Real"},{"key":"10061746","name":"Bärgli","postalCode":"3454","locality":"Sumiswald","commune":{"key":"957","name":"Sumiswald","shortName":"Sumiswald"},"district":{"key":"245","name":"Verwaltungskreis Emmental"},"canton":{"key":"2","code":"BE","name":"Bern / Berne"},"status":"Real"},{"key":"10080380","name":"Bifangstrasse","postalCode":"3454","locality":"Sumiswald","commune":{"key":"957","name":"Sumiswald","shortName":"Sumiswald"},"district":{"key":"245","name":"Verwaltungskreis Emmental"},"canton":{"key":"2","code":"BE","name":"Bern / Berne"},"status":"Real"},{"key":"10014122","name":"Brand","postalCode":"3454","locality":"Sumiswald","commune":{"key":"957","name":"Sumiswald","shortName":"Sumiswald"},"district":{"key":"245","name":"Verwaltungskreis Emmental"},"canton":{"key":"2","code":"BE","name":"Bern / Berne"},"status":"Real"},{"key":"10109342","name":"Breitenmattweg","postalCode":"3454","locality":"Sumiswald","commune":{"key":"957","name":"Sumiswald","shortName":"Sumiswald"},"district":{"key":"245","name":"Verwaltungskreis Emmental"},"canton":{"key":"2","code":"BE","name":"Bern / Berne"},"status":"Real"},{"key":"10061745","name":"Breitenweg","postalCode":"3454","locality":"Sumiswald","commune":{"key":"957","name":"Sumiswald","shortName":"Sumiswald"},"district":{"key":"245","name":"Verwaltungskreis Emmental"},"canton":{"key":"2","code":"BE","name":"Bern / Berne"},"status":"Real"},{"key":"10014123","name":"Brunnenhüsli","postalCode":"3454","locality":"Sumiswald","commune":{"key":"957","name":"Sumiswald","shortName":"Sumiswald"},"district":{"key":"245","name":"Verwaltungskreis Emmental"},"canton":{"key":"2","code":"BE","name":"Bern / Berne"},"status":"Real"},{"key":"10180106","name":"Buchholz","postalCode":"3454","locality":"Sumiswald","commune":{"key":"957","name":"Sumiswald","shortName":"Sumiswald"},"district":{"key":"245","name":"Verwaltungskreis Emmental"},"canton":{"key":"2","code":"BE","name":"Bern / Berne"},"status":"Real"},{"key":"10158722","name":"Buchholz-Schattseite","postalCode":"3454","locality":"Sumiswald","commune":{"key":"957","name":"Sumiswald","shortName":"Sumiswald"},"district":{"key":"245","name":"Verwaltungskreis Emmental"},"canton":{"key":"2","code":"BE","name":"Bern / Berne"},"status":"Real"},{"key":"10014124","name":"Burghof","postalCode":"3454","locality":"Sumiswald","commune":{"key":"957","name":"Sumiswald","shortName":"Sumiswald"},"district":{"key":"245","name":"Verwaltungskreis Emmental"},"canton":{"key":"2","code":"BE","name":"Bern / Berne"},"status":"Real"},{"key":"10058506","name":"Burghofberg","postalCode":"3454","locality":"Sumiswald","commune":{"key":"957","name":"Sumiswald","shortName":"Sumiswald"},"district":{"key":"245","name":"Verwaltungskreis Emmental"},"canton":{"key":"2","code":"BE","name":"Bern / Berne"},"status":"Real"},{"key":"10080381","name":"Bützen","postalCode":"3454","locality":"Sumiswald","commune":{"key":"957","name":"Sumiswald","shortName":"Sumiswald"},"district":{"key":"245","name":"Verwaltungskreis Emmental"},"canton":{"key":"2","code":"BE","name":"Bern / Berne"},"status":"Real"},{"key":"10189634","name":"Dorfgasse","postalCode":"3454","locality":"Sumiswald","commune":{"key":"957","name":"Sumiswald","shortName":"Sumiswald"},"district":{"key":"245","name":"Verwaltungskreis Emmental"},"canton":{"key":"2","code":"BE","name":"Bern / Berne"},"status":"Real"},{"key":"10218495","name":"Ei","postalCode":"3454","locality":"Sumiswald","commune":{"key":"957","name":"Sumiswald","shortName":"Sumiswald"},"district":{"key":"245","name":"Verwaltungskreis Emmental"},"canton":{"key":"2","code":"BE","name":"Bern / Berne"},"status":"Real"},{"key":"10014125","name":"Eiberg","postalCode":"3454","locality":"Sumiswald","commune":{"key":"957","name":"Sumiswald","shortName":"Sumiswald"},"district":{"key":"245","name":"Verwaltungskreis Emmental"},"canton":{"key":"2","code":"BE","name":"Bern / Berne"},"status":"Real"},{"key":"10058507","name":"Eibergli","postalCode":"3454","locality":"Sumiswald","commune":{"key":"957","name":"Sumiswald","shortName":"Sumiswald"},"district":{"key":"245","name":"Verwaltungskreis Emmental"},"canton":{"key":"2","code":"BE","name":"Bern / Berne"},"status":"Real"},{"key":"10066162","name":"Eichholzstrasse","postalCode":"3454","locality":"Sumiswald","commune":{"key":"957","name":"Sumiswald","shortName":"Sumiswald"},"district":{"key":"245","name":"Verwaltungskreis Emmental"},"canton":{"key":"2","code":"BE","name":"Bern / Berne"},"status":"Real"},{"key":"10128457","name":"Engelberg","postalCode":"3454","locality":"Sumiswald","commune":{"key":"957","name":"Sumiswald","shortName":"Sumiswald"},"district":{"key":"245","name":"Verwaltungskreis Emmental"},"canton":{"key":"2","code":"BE","name":"Bern / Berne"},"status":"Real"},{"key":"10014126","name":"Engelbergstrasse","postalCode":"3454","locality":"Sumiswald","commune":{"key":"957","name":"Sumiswald","shortName":"Sumiswald"},"district":{"key":"245","name":"Verwaltungskreis Emmental"},"canton":{"key":"2","code":"BE","name":"Bern / Berne"},"status":"Real"},{"key":"10014127","name":"Erlenhof","postalCode":"3454","locality":"Sumiswald","commune":{"key":"957","name":"Sumiswald","shortName":"Sumiswald"},"district":{"key":"245","name":"Verwaltungskreis Emmental"},"canton":{"key":"2","code":"BE","name":"Bern / Berne"},"status":"Real"},{"key":"10180107","name":"Eymattweg","postalCode":"3454","locality":"Sumiswald","commune":{"key":"957","name":"Sumiswald","shortName":"Sumiswald"},"district":{"key":"245","name":"Verwaltungskreis Emmental"},"canton":{"key":"2","code":"BE","name":"Bern / Berne"},"status":"Real"},{"key":"10080382","name":"Eystrasse","postalCode":"3454","locality":"Sumiswald","commune":{"key":"957","name":"Sumiswald","shortName":"Sumiswald"},"district":{"key":"245","name":"Verwaltungskreis Emmental"},"canton":{"key":"2","code":"BE","name":"Bern / Berne"},"status":"Real"},{"key":"10188958","name":"Feld","postalCode":"3454","locality":"Sumiswald","commune":{"key":"957","name":"Sumiswald","shortName":"Sumiswald"},"district":{"key":"245","name":"Verwaltungskreis Emmental"},"canton":{"key":"2","code":"BE","name":"Bern / Berne"},"status":"Real"},{"key":"10146826","name":"Feldstrasse","postalCode":"3454","locality":"Sumiswald","commune":{"key":"957","name":"Sumiswald","shortName":"Sumiswald"},"district":{"key":"245","name":"Verwaltungskreis Emmental"},"canton":{"key":"2","code":"BE","name":"Bern / Berne"},"status":"Real"},{"key":"10058508","name":"Fischer","postalCode":"3454","locality":"Sumiswald","commune":{"key":"957","name":"Sumiswald","shortName":"Sumiswald"},"district":{"key":"245","name":"Verwaltungskreis Emmental"},"canton":{"key":"2","code":"BE","name":"Bern / Berne"},"status":"Real"},{"key":"10014128","name":"Flüh","postalCode":"3454","locality":"Sumiswald","commune":{"key":"957","name":"Sumiswald","shortName":"Sumiswald"},"district":{"key":"245","name":"Verwaltungskreis Emmental"},"canton":{"key":"2","code":"BE","name":"Bern / Berne"},"status":"Real"},{"key":"10110128","name":"Fuchsloch","postalCode":"3454","locality":"Sumiswald","commune":{"key":"957","name":"Sumiswald","shortName":"Sumiswald"},"district":{"key":"245","name":"Verwaltungskreis Emmental"},"canton":{"key":"2","code":"BE","name":"Bern / Berne"},"status":"Real"},{"key":"10066164","name":"Gammenthal","postalCode":"3454","locality":"Sumiswald","commune":{"key":"957","name":"Sumiswald","shortName":"Sumiswald"},"district":{"key":"245","name":"Verwaltungskreis Emmental"},"canton":{"key":"2","code":"BE","name":"Bern / Berne"},"status":"Real"},{"key":"10058509","name":"Gammenthalloch","postalCode":"3454","locality":"Sumiswald","commune":{"key":"957","name":"Sumiswald","shortName":"Sumiswald"},"district":{"key":"245","name":"Verwaltungskreis Emmental"},"canton":{"key":"2","code":"BE","name":"Bern / Berne"},"status":"Real"},{"key":"10014129","name":"Griesbach","postalCode":"3454","locality":"Sumiswald","commune":{"key":"957","name":"Sumiswald","shortName":"Sumiswald"},"district":{"key":"245","name":"Verwaltungskreis Emmental"},"canton":{"key":"2","code":"BE","name":"Bern / Berne"},"status":"Real"},{"key":"10080383","name":"Griesbachmatten","postalCode":"3454","locality":"Sumiswald","commune":{"key":"957","name":"Sumiswald","shortName":"Sumiswald"},"district":{"key":"245","name":"Verwaltungskreis Emmental"},"canton":{"key":"2","code":"BE","name":"Bern / Berne"},"status":"Real"},{"key":"10014130","name":"Griesbachmoos","postalCode":"3454","locality":"Sumiswald","commune":{"key":"957","name":"Sumiswald","shortName":"Sumiswald"},"district":{"key":"245","name":"Verwaltungskreis Emmental"},"canton":{"key":"2","code":"BE","name":"Bern / Berne"},"status":"Real"},{"key":"10066166","name":"Grossacker","postalCode":"3454","locality":"Sumiswald","commune":{"key":"957","name":"Sumiswald","shortName":"Sumiswald"},"district":{"key":"245","name":"Verwaltungskreis Emmental"},"canton":{"key":"2","code":"BE","name":"Bern / Berne"},"status":"Real"},{"key":"10058510","name":"Grosshaus","postalCode":"3454","locality":"Sumiswald","commune":{"key":"957","name":"Sumiswald","shortName":"Sumiswald"},"district":{"key":"245","name":"Verwaltungskreis Emmental"},"canton":{"key":"2","code":"BE","name":"Bern / Berne"},"status":"Real"},{"key":"10014131","name":"Grub","postalCode":"3454","locality":"Sumiswald","commune":{"key":"957","name":"Sumiswald","shortName":"Sumiswald"},"district":{"key":"245","name":"Verwaltungskreis Emmental"},"canton":{"key":"2","code":"BE","name":"Bern / Berne"},"status":"Real"},{"key":"10125038","name":"Grunbirrenlehn","postalCode":"3454","locality":"Sumiswald","commune":{"key":"957","name":"Sumiswald","shortName":"Sumiswald"},"district":{"key":"245","name":"Verwaltungskreis Emmental"},"canton":{"key":"2","code":"BE","name":"Bern / Berne"},"status":"Real"},{"key":"10103593","name":"Gürmsch","postalCode":"3454","locality":"Sumiswald","commune":{"key":"957","name":"Sumiswald","shortName":"Sumiswald"},"district":{"key":"245","name":"Verwaltungskreis Emmental"},"canton":{"key":"2","code":"BE","name":"Bern / Berne"},"status":"Real"},{"key":"10180108","name":"Gürmschhubel","postalCode":"3454","locality":"Sumiswald","commune":{"key":"957","name":"Sumiswald","shortName":"Sumiswald"},"district":{"key":"245","name":"Verwaltungskreis Emmental"},"canton":{"key":"2","code":"BE","name":"Bern / Berne"},"status":"Real"},{"key":"10123004","name":"Habermehler","postalCode":"3454","locality":"Sumiswald","commune":{"key":"957","name":"Sumiswald","shortName":"Sumiswald"},"district":{"key":"245","name":"Verwaltungskreis Emmental"},"canton":{"key":"2","code":"BE","name":"Bern / Berne"},"status":"Real"},{"key":"10080384","name":"Habermehlerweg","postalCode":"3454","locality":"Sumiswald","commune":{"key":"957","name":"Sumiswald","shortName":"Sumiswald"},"district":{"key":"245","name":"Verwaltungskreis Emmental"},"canton":{"key":"2","code":"BE","name":"Bern / Berne"},"status":"Real"},{"key":"10122237","name":"Haldenstrasse","postalCode":"3454","locality":"Sumiswald","commune":{"key":"957","name":"Sumiswald","shortName":"Sumiswald"},"district":{"key":"245","name":"Verwaltungskreis Emmental"},"canton":{"key":"2","code":"BE","name":"Bern / Berne"},"status":"Real"},{"key":"10014135","name":"Hänselberg","postalCode":"3454","locality":"Sumiswald","commune":{"key":"957","name":"Sumiswald","shortName":"Sumiswald"},"district":{"key":"245","name":"Verwaltungskreis Emmental"},"canton":{"key":"2","code":"BE","name":"Bern / Berne"},"status":"Real"},{"key":"10014136","name":"Hänslishaus","postalCode":"3454","locality":"Sumiswald","commune":{"key":"957","name":"Sumiswald","shortName":"Sumiswald"},"district":{"key":"245","name":"Verwaltungskreis Emmental"},"canton":{"key":"2","code":"BE","name":"Bern / Berne"},"status":"Real"},{"key":"10152472","name":"Haselacker","postalCode":"3454","locality":"Sumiswald","commune":{"key":"957","name":"Sumiswald","shortName":"Sumiswald"},"district":{"key":"245","name":"Verwaltungskreis Emmental"},"canton":{"key":"2","code":"BE","name":"Bern / Berne"},"status":"Real"},{"key":"10014132","name":"Haslenbach","postalCode":"3454","locality":"Sumiswald","commune":{"key":"957","name":"Sumiswald","shortName":"Sumiswald"},"district":{"key":"245","name":"Verwaltungskreis Emmental"},"canton":{"key":"2","code":"BE","name":"Bern / Berne"},"status":"Real"},{"key":"10189635","name":"Hausmattstrasse","postalCode":"3454","locality":"Sumiswald","commune":{"key":"957","name":"Sumiswald","shortName":"Sumiswald"},"district":{"key":"245","name":"Verwaltungskreis Emmental"},"canton":{"key":"2","code":"BE","name":"Bern / Berne"},"status":"Real"},{"key":"10013810","name":"Hegenlehn","postalCode":"3454","locality":"Sumiswald","commune":{"key":"957","name":"Sumiswald","shortName":"Sumiswald"},"district":{"key":"245","name":"Verwaltungskreis Emmental"},"canton":{"key":"2","code":"BE","name":"Bern / Berne"},"status":"Real"},{"key":"10014133","name":"Hertenholz","postalCode":"3454","locality":"Sumiswald","commune":{"key":"957","name":"Sumiswald","shortName":"Sumiswald"},"district":{"key":"245","name":"Verwaltungskreis Emmental"},"canton":{"key":"2","code":"BE","name":"Bern / Berne"},"status":"Real"},{"key":"10080385","name":"Hinter Kneubühl","postalCode":"3454","locality":"Sumiswald","commune":{"key":"957","name":"Sumiswald","shortName":"Sumiswald"},"district":{"key":"245","name":"Verwaltungskreis Emmental"},"canton":{"key":"2","code":"BE","name":"Bern / Berne"},"status":"Real"},{"key":"10058511","name":"Hinter Schönenthül","postalCode":"3454","locality":"Sumiswald","commune":{"key":"957","name":"Sumiswald","shortName":"Sumiswald"},"district":{"key":"245","name":"Verwaltungskreis Emmental"},"canton":{"key":"2","code":"BE","name":"Bern / Berne"},"status":"Real"},{"key":"10013793","name":"Hof","postalCode":"3454","locality":"Sumiswald","commune":{"key":"957","name":"Sumiswald","shortName":"Sumiswald"},"district":{"key":"245","name":"Verwaltungskreis Emmental"},"canton":{"key":"2","code":"BE","name":"Bern / Berne"},"status":"Real"},{"key":"10066171","name":"Hofackerstrasse","postalCode":"3454","locality":"Sumiswald","commune":{"key":"957","name":"Sumiswald","shortName":"Sumiswald"},"district":{"key":"245","name":"Verwaltungskreis Emmental"},"canton":{"key":"2","code":"BE","name":"Bern / Berne"},"status":"Real"},{"key":"10013794","name":"Hofgraben","postalCode":"3454","locality":"Sumiswald","commune":{"key":"957","name":"Sumiswald","shortName":"Sumiswald"},"district":{"key":"245","name":"Verwaltungskreis Emmental"},"canton":{"key":"2","code":"BE","name":"Bern / Berne"},"status":"Real"},{"key":"10118179","name":"Hohlegg","postalCode":"3454","locality":"Sumiswald","commune":{"key":"957","name":"Sumiswald","shortName":"Sumiswald"},"district":{"key":"245","name":"Verwaltungskreis Emmental"},"canton":{"key":"2","code":"BE","name":"Bern / Berne"},"status":"Real"},{"key":"10014137","name":"Hübeli","postalCode":"3454","locality":"Sumiswald","commune":{"key":"957","name":"Sumiswald","shortName":"Sumiswald"},"district":{"key":"245","name":"Verwaltungskreis Emmental"},"canton":{"key":"2","code":"BE","name":"Bern / Berne"},"status":"Real"},{"key":"10014134","name":"Huttli","postalCode":"3454","locality":"Sumiswald","commune":{"key":"957","name":"Sumiswald","shortName":"Sumiswald"},"district":{"key":"245","name":"Verwaltungskreis Emmental"},"canton":{"key":"2","code":"BE","name":"Bern / Berne"},"status":"Real"},{"key":"10080386","name":"Kirchgasse","postalCode":"3454","locality":"Sumiswald","commune":{"key":"957","name":"Sumiswald","shortName":"Sumiswald"},"district":{"key":"245","name":"Verwaltungskreis Emmental"},"canton":{"key":"2","code":"BE","name":"Bern / Berne"},"status":"Real"},{"key":"10108400","name":"Kirchstalden","postalCode":"3454","locality":"Sumiswald","commune":{"key":"957","name":"Sumiswald","shortName":"Sumiswald"},"district":{"key":"245","name":"Verwaltungskreis Emmental"},"canton":{"key":"2","code":"BE","name":"Bern / Berne"},"status":"Real"},{"key":"10058512","name":"Kleinegg","postalCode":"3454","locality":"Sumiswald","commune":{"key":"957","name":"Sumiswald","shortName":"Sumiswald"},"district":{"key":"245","name":"Verwaltungskreis Emmental"},"canton":{"key":"2","code":"BE","name":"Bern / Berne"},"status":"Real"},{"key":"10110129","name":"Kleineggmatten","postalCode":"3454","locality":"Sumiswald","commune":{"key":"957","name":"Sumiswald","shortName":"Sumiswald"},"district":{"key":"245","name":"Verwaltungskreis Emmental"},"canton":{"key":"2","code":"BE","name":"Bern / Berne"},"status":"Real"},{"key":"10180109","name":"Knubel","postalCode":"3454","locality":"Sumiswald","commune":{"key":"957","name":"Sumiswald","shortName":"Sumiswald"},"district":{"key":"245","name":"Verwaltungskreis Emmental"},"canton":{"key":"2","code":"BE","name":"Bern / Berne"},"status":"Real"},{"key":"10080387","name":"Krampfenlehn","postalCode":"3454","locality":"Sumiswald","commune":{"key":"957","name":"Sumiswald","shortName":"Sumiswald"},"district":{"key":"245","name":"Verwaltungskreis Emmental"},"canton":{"key":"2","code":"BE","name":"Bern / Berne"},"status":"Real"},{"key":"10123171","name":"Kreuzgässli","postalCode":"3454","locality":"Sumiswald","commune":{"key":"957","name":"Sumiswald","shortName":"Sumiswald"},"district":{"key":"245","name":"Verwaltungskreis Emmental"},"canton":{"key":"2","code":"BE","name":"Bern / Berne"},"status":"Real"},{"key":"10188952","name":"Kurzenfluh","postalCode":"3454","locality":"Sumiswald","commune":{"key":"957","name":"Sumiswald","shortName":"Sumiswald"},"district":{"key":"245","name":"Verwaltungskreis Emmental"},"canton":{"key":"2","code":"BE","name":"Bern / Berne"},"status":"Real"},{"key":"10014140","name":"Länggässli","postalCode":"3454","locality":"Sumiswald","commune":{"key":"957","name":"Sumiswald","shortName":"Sumiswald"},"district":{"key":"245","name":"Verwaltungskreis Emmental"},"canton":{"key":"2","code":"BE","name":"Bern / Berne"},"status":"Real"},{"key":"10217378","name":"Lauelen","postalCode":"3454","locality":"Sumiswald","commune":{"key":"957","name":"Sumiswald","shortName":"Sumiswald"},"district":{"key":"245","name":"Verwaltungskreis Emmental"},"canton":{"key":"2","code":"BE","name":"Bern / Berne"},"status":"Real"},{"key":"10242946","name":"Laueli","postalCode":"3454","locality":"Sumiswald","commune":{"key":"957","name":"Sumiswald","shortName":"Sumiswald"},"district":{"key":"245","name":"Verwaltungskreis Emmental"},"canton":{"key":"2","code":"BE","name":"Bern / Berne"},"status":"Real"},{"key":"10014138","name":"Lerchenberg","postalCode":"3454","locality":"Sumiswald","commune":{"key":"957","name":"Sumiswald","shortName":"Sumiswald"},"district":{"key":"245","name":"Verwaltungskreis Emmental"},"canton":{"key":"2","code":"BE","name":"Bern / Berne"},"status":"Real"},{"key":"10014139","name":"Lerchhäusli","postalCode":"3454","locality":"Sumiswald","commune":{"key":"957","name":"Sumiswald","shortName":"Sumiswald"},"district":{"key":"245","name":"Verwaltungskreis Emmental"},"canton":{"key":"2","code":"BE","name":"Bern / Berne"},"status":"Real"},{"key":"10058513","name":"Lienzer","postalCode":"3454","locality":"Sumiswald","commune":{"key":"957","name":"Sumiswald","shortName":"Sumiswald"},"district":{"key":"245","name":"Verwaltungskreis Emmental"},"canton":{"key":"2","code":"BE","name":"Bern / Berne"},"status":"Real"},{"key":"10170754","name":"Lienzerweidli","postalCode":"3454","locality":"Sumiswald","commune":{"key":"957","name":"Sumiswald","shortName":"Sumiswald"},"district":{"key":"245","name":"Verwaltungskreis Emmental"},"canton":{"key":"2","code":"BE","name":"Bern / Berne"},"status":"Real"},{"key":"10013509","name":"Löhli","postalCode":"3454","locality":"Sumiswald","commune":{"key":"957","name":"Sumiswald","shortName":"Sumiswald"},"district":{"key":"245","name":"Verwaltungskreis Emmental"},"canton":{"key":"2","code":"BE","name":"Bern / Berne"},"status":"Real"},{"key":"10066179","name":"Lütoldstrasse","postalCode":"3454","locality":"Sumiswald","commune":{"key":"957","name":"Sumiswald","shortName":"Sumiswald"},"district":{"key":"245","name":"Verwaltungskreis Emmental"},"canton":{"key":"2","code":"BE","name":"Bern / Berne"},"status":"Real"},{"key":"10080388","name":"Maiacker","postalCode":"3454","locality":"Sumiswald","commune":{"key":"957","name":"Sumiswald","shortName":"Sumiswald"},"district":{"key":"245","name":"Verwaltungskreis Emmental"},"canton":{"key":"2","code":"BE","name":"Bern / Berne"},"status":"Real"},{"key":"10013510","name":"Marktgasse","postalCode":"3454","locality":"Sumiswald","commune":{"key":"957","name":"Sumiswald","shortName":"Sumiswald"},"district":{"key":"245","name":"Verwaltungskreis Emmental"},"canton":{"key":"2","code":"BE","name":"Bern / Berne"},"status":"Real"},{"key":"10058514","name":"Mattenberg","postalCode":"3454","locality":"Sumiswald","commune":{"key":"957","name":"Sumiswald","shortName":"Sumiswald"},"district":{"key":"245","name":"Verwaltungskreis Emmental"},"canton":{"key":"2","code":"BE","name":"Bern / Berne"},"status":"Real"},{"key":"10180110","name":"Mattenneuhaus","postalCode":"3454","locality":"Sumiswald","commune":{"key":"957","name":"Sumiswald","shortName":"Sumiswald"},"district":{"key":"245","name":"Verwaltungskreis Emmental"},"canton":{"key":"2","code":"BE","name":"Bern / Berne"},"status":"Real"},{"key":"10013511","name":"Mattenweid","postalCode":"3454","locality":"Sumiswald","commune":{"key":"957","name":"Sumiswald","shortName":"Sumiswald"},"district":{"key":"245","name":"Verwaltungskreis Emmental"},"canton":{"key":"2","code":"BE","name":"Bern / Berne"},"status":"Real"},{"key":"10067316","name":"Mattstall","postalCode":"3454","locality":"Sumiswald","commune":{"key":"957","name":"Sumiswald","shortName":"Sumiswald"},"district":{"key":"245","name":"Verwaltungskreis Emmental"},"canton":{"key":"2","code":"BE","name":"Bern / Berne"},"status":"Real"},{"key":"10080389","name":"Mauer","postalCode":"3454","locality":"Sumiswald","commune":{"key":"957","name":"Sumiswald","shortName":"Sumiswald"},"district":{"key":"245","name":"Verwaltungskreis Emmental"},"canton":{"key":"2","code":"BE","name":"Bern / Berne"},"status":"Real"},{"key":"10187198","name":"Mauerberg","postalCode":"3454","locality":"Sumiswald","commune":{"key":"957","name":"Sumiswald","shortName":"Sumiswald"},"district":{"key":"245","name":"Verwaltungskreis Emmental"},"canton":{"key":"2","code":"BE","name":"Bern / Berne"},"status":"Real"},{"key":"10013512","name":"Meier","postalCode":"3454","locality":"Sumiswald","commune":{"key":"957","name":"Sumiswald","shortName":"Sumiswald"},"district":{"key":"245","name":"Verwaltungskreis Emmental"},"canton":{"key":"2","code":"BE","name":"Bern / Berne"},"status":"Real"},{"key":"10189636","name":"Musterplatz","postalCode":"3454","locality":"Sumiswald","commune":{"key":"957","name":"Sumiswald","shortName":"Sumiswald"},"district":{"key":"245","name":"Verwaltungskreis Emmental"},"canton":{"key":"2","code":"BE","name":"Bern / Berne"},"status":"Real"},{"key":"10061736","name":"Neuegg","postalCode":"3454","locality":"Sumiswald","commune":{"key":"957","name":"Sumiswald","shortName":"Sumiswald"},"district":{"key":"245","name":"Verwaltungskreis Emmental"},"canton":{"key":"2","code":"BE","name":"Bern / Berne"},"status":"Real"},{"key":"10110127","name":"Neuegglehn","postalCode":"3454","locality":"Sumiswald","commune":{"key":"957","name":"Sumiswald","shortName":"Sumiswald"},"district":{"key":"245","name":"Verwaltungskreis Emmental"},"canton":{"key":"2","code":"BE","name":"Bern / Berne"},"status":"Real"},{"key":"10080379","name":"Neueggweid","postalCode":"3454","locality":"Sumiswald","commune":{"key":"957","name":"Sumiswald","shortName":"Sumiswald"},"district":{"key":"245","name":"Verwaltungskreis Emmental"},"canton":{"key":"2","code":"BE","name":"Bern / Berne"},"status":"Real"},{"key":"10080390","name":"Neufeldstrasse","postalCode":"3454","locality":"Sumiswald","commune":{"key":"957","name":"Sumiswald","shortName":"Sumiswald"},"district":{"key":"245","name":"Verwaltungskreis Emmental"},"canton":{"key":"2","code":"BE","name":"Bern / Berne"},"status":"Real"},{"key":"10013513","name":"Neuhausgässli","postalCode":"3454","locality":"Sumiswald","commune":{"key":"957","name":"Sumiswald","shortName":"Sumiswald"},"district":{"key":"245","name":"Verwaltungskreis Emmental"},"canton":{"key":"2","code":"BE","name":"Bern / Berne"},"status":"Real"},{"key":"10082105","name":"Neuholz","postalCode":"3454","locality":"Sumiswald","commune":{"key":"957","name":"Sumiswald","shortName":"Sumiswald"},"district":{"key":"245","name":"Verwaltungskreis Emmental"},"canton":{"key":"2","code":"BE","name":"Bern / Berne"},"status":"Real"},{"key":"10013514","name":"Neuweg","postalCode":"3454","locality":"Sumiswald","commune":{"key":"957","name":"Sumiswald","shortName":"Sumiswald"},"district":{"key":"245","name":"Verwaltungskreis Emmental"},"canton":{"key":"2","code":"BE","name":"Bern / Berne"},"status":"Real"},{"key":"10067317","name":"Ober Baumen","postalCode":"3454","locality":"Sumiswald","commune":{"key":"957","name":"Sumiswald","shortName":"Sumiswald"},"district":{"key":"245","name":"Verwaltungskreis Emmental"},"canton":{"key":"2","code":"BE","name":"Bern / Berne"},"status":"Real"},{"key":"10080391","name":"Ober Engelberg","postalCode":"3454","locality":"Sumiswald","commune":{"key":"957","name":"Sumiswald","shortName":"Sumiswald"},"district":{"key":"245","name":"Verwaltungskreis Emmental"},"canton":{"key":"2","code":"BE","name":"Bern / Berne"},"status":"Real"},{"key":"10067321","name":"Oberes Löhli","postalCode":"3454","locality":"Sumiswald","commune":{"key":"957","name":"Sumiswald","shortName":"Sumiswald"},"district":{"key":"245","name":"Verwaltungskreis Emmental"},"canton":{"key":"2","code":"BE","name":"Bern / Berne"},"status":"Real"},{"key":"10013517","name":"Obere Wassermatt","postalCode":"3454","locality":"Sumiswald","commune":{"key":"957","name":"Sumiswald","shortName":"Sumiswald"},"district":{"key":"245","name":"Verwaltungskreis Emmental"},"canton":{"key":"2","code":"BE","name":"Bern / Berne"},"status":"Real"},{"key":"10108403","name":"Ober Gammenthal","postalCode":"3454","locality":"Sumiswald","commune":{"key":"957","name":"Sumiswald","shortName":"Sumiswald"},"district":{"key":"245","name":"Verwaltungskreis Emmental"},"canton":{"key":"2","code":"BE","name":"Bern / Berne"},"status":"Real"},{"key":"10013515","name":"Ober Haslenbach","postalCode":"3454","locality":"Sumiswald","commune":{"key":"957","name":"Sumiswald","shortName":"Sumiswald"},"district":{"key":"245","name":"Verwaltungskreis Emmental"},"canton":{"key":"2","code":"BE","name":"Bern / Berne"},"status":"Real"},{"key":"10110130","name":"Ober Hegen","postalCode":"3454","locality":"Sumiswald","commune":{"key":"957","name":"Sumiswald","shortName":"Sumiswald"},"district":{"key":"245","name":"Verwaltungskreis Emmental"},"canton":{"key":"2","code":"BE","name":"Bern / Berne"},"status":"Real"},{"key":"10058498","name":"Oberholz","postalCode":"3454","locality":"Sumiswald","commune":{"key":"957","name":"Sumiswald","shortName":"Sumiswald"},"district":{"key":"245","name":"Verwaltungskreis Emmental"},"canton":{"key":"2","code":"BE","name":"Bern / Berne"},"status":"Real"},{"key":"10013516","name":"Ober Kneubühl","postalCode":"3454","locality":"Sumiswald","commune":{"key":"957","name":"Sumiswald","shortName":"Sumiswald"},"district":{"key":"245","name":"Verwaltungskreis Emmental"},"canton":{"key":"2","code":"BE","name":"Bern / Berne"},"status":"Real"},{"key":"10116456","name":"Ober Stauden","postalCode":"3454","locality":"Sumiswald","commune":{"key":"957","name":"Sumiswald","shortName":"Sumiswald"},"district":{"key":"245","name":"Verwaltungskreis Emmental"},"canton":{"key":"2","code":"BE","name":"Bern / Berne"},"status":"Real"},{"key":"10080392","name":"Ober Steg","postalCode":"3454","locality":"Sumiswald","commune":{"key":"957","name":"Sumiswald","shortName":"Sumiswald"},"district":{"key":"245","name":"Verwaltungskreis Emmental"},"canton":{"key":"2","code":"BE","name":"Bern / Berne"},"status":"Real"},{"key":"10013795","name":"Oete","postalCode":"3454","locality":"Sumiswald","commune":{"key":"957","name":"Sumiswald","shortName":"Sumiswald"},"district":{"key":"245","name":"Verwaltungskreis Emmental"},"canton":{"key":"2","code":"BE","name":"Bern / Berne"},"status":"Real"},{"key":"10180111","name":"Pfarrgässli","postalCode":"3454","locality":"Sumiswald","commune":{"key":"957","name":"Sumiswald","shortName":"Sumiswald"},"district":{"key":"245","name":"Verwaltungskreis Emmental"},"canton":{"key":"2","code":"BE","name":"Bern / Berne"},"status":"Real"},{"key":"10013519","name":"Riedboden","postalCode":"3454","locality":"Sumiswald","commune":{"key":"957","name":"Sumiswald","shortName":"Sumiswald"},"district":{"key":"245","name":"Verwaltungskreis Emmental"},"canton":{"key":"2","code":"BE","name":"Bern / Berne"},"status":"Real"},{"key":"10080393","name":"Riedbodenberg","postalCode":"3454","locality":"Sumiswald","commune":{"key":"957","name":"Sumiswald","shortName":"Sumiswald"},"district":{"key":"245","name":"Verwaltungskreis Emmental"},"canton":{"key":"2","code":"BE","name":"Bern / Berne"},"status":"Real"},{"key":"10123172","name":"Rossboden","postalCode":"3454","locality":"Sumiswald","commune":{"key":"957","name":"Sumiswald","shortName":"Sumiswald"},"district":{"key":"245","name":"Verwaltungskreis Emmental"},"canton":{"key":"2","code":"BE","name":"Bern / Berne"},"status":"Real"},{"key":"10080394","name":"Sädel","postalCode":"3454","locality":"Sumiswald","commune":{"key":"957","name":"Sumiswald","shortName":"Sumiswald"},"district":{"key":"245","name":"Verwaltungskreis Emmental"},"canton":{"key":"2","code":"BE","name":"Bern / Berne"},"status":"Real"},{"key":"10013520","name":"Salbühl","postalCode":"3454","locality":"Sumiswald","commune":{"key":"957","name":"Sumiswald","shortName":"Sumiswald"},"district":{"key":"245","name":"Verwaltungskreis Emmental"},"canton":{"key":"2","code":"BE","name":"Bern / Berne"},"status":"Real"},{"key":"10125039","name":"Salbühlhüsli","postalCode":"3454","locality":"Sumiswald","commune":{"key":"957","name":"Sumiswald","shortName":"Sumiswald"},"district":{"key":"245","name":"Verwaltungskreis Emmental"},"canton":{"key":"2","code":"BE","name":"Bern / Berne"},"status":"Real"},{"key":"10013521","name":"Schabenlehn","postalCode":"3454","locality":"Sumiswald","commune":{"key":"957","name":"Sumiswald","shortName":"Sumiswald"},"district":{"key":"245","name":"Verwaltungskreis Emmental"},"canton":{"key":"2","code":"BE","name":"Bern / Berne"},"status":"Real"},{"key":"10218470","name":"Schaufelbühlegg","postalCode":"3454","locality":"Sumiswald","commune":{"key":"957","name":"Sumiswald","shortName":"Sumiswald"},"district":{"key":"245","name":"Verwaltungskreis Emmental"},"canton":{"key":"2","code":"BE","name":"Bern / Berne"},"status":"Real"},{"key":"10128458","name":"Scherlenbach","postalCode":"3454","locality":"Sumiswald","commune":{"key":"957","name":"Sumiswald","shortName":"Sumiswald"},"district":{"key":"245","name":"Verwaltungskreis Emmental"},"canton":{"key":"2","code":"BE","name":"Bern / Berne"},"status":"Real"},{"key":"10067324","name":"Scheueracker","postalCode":"3454","locality":"Sumiswald","commune":{"key":"957","name":"Sumiswald","shortName":"Sumiswald"},"district":{"key":"245","name":"Verwaltungskreis Emmental"},"canton":{"key":"2","code":"BE","name":"Bern / Berne"},"status":"Real"},{"key":"10013518","name":"Schloss","postalCode":"3454","locality":"Sumiswald","commune":{"key":"957","name":"Sumiswald","shortName":"Sumiswald"},"district":{"key":"245","name":"Verwaltungskreis Emmental"},"canton":{"key":"2","code":"BE","name":"Bern / Berne"},"status":"Real"},{"key":"10218584","name":"Schlossschür","postalCode":"3454","locality":"Sumiswald","commune":{"key":"957","name":"Sumiswald","shortName":"Sumiswald"},"district":{"key":"245","name":"Verwaltungskreis Emmental"},"canton":{"key":"2","code":"BE","name":"Bern / Berne"},"status":"Real"},{"key":"10180112","name":"Schonegg","postalCode":"3454","locality":"Sumiswald","commune":{"key":"957","name":"Sumiswald","shortName":"Sumiswald"},"district":{"key":"245","name":"Verwaltungskreis Emmental"},"canton":{"key":"2","code":"BE","name":"Bern / Berne"},"status":"Real"},{"key":"10186153","name":"Schoneggried","postalCode":"3454","locality":"Sumiswald","commune":{"key":"957","name":"Sumiswald","shortName":"Sumiswald"},"district":{"key":"245","name":"Verwaltungskreis Emmental"},"canton":{"key":"2","code":"BE","name":"Bern / Berne"},"status":"Real"},{"key":"10013522","name":"Schoneggstrasse","postalCode":"3454","locality":"Sumiswald","commune":{"key":"957","name":"Sumiswald","shortName":"Sumiswald"},"district":{"key":"245","name":"Verwaltungskreis Emmental"},"canton":{"key":"2","code":"BE","name":"Bern / Berne"},"status":"Real"},{"key":"10103589","name":"Schönenbuchen","postalCode":"3454","locality":"Sumiswald","commune":{"key":"957","name":"Sumiswald","shortName":"Sumiswald"},"district":{"key":"245","name":"Verwaltungskreis Emmental"},"canton":{"key":"2","code":"BE","name":"Bern / Berne"},"status":"Real"},{"key":"10067326","name":"Senggen","postalCode":"3454","locality":"Sumiswald","commune":{"key":"957","name":"Sumiswald","shortName":"Sumiswald"},"district":{"key":"245","name":"Verwaltungskreis Emmental"},"canton":{"key":"2","code":"BE","name":"Bern / Berne"},"status":"Real"},{"key":"10061717","name":"Sonnseite","postalCode":"3454","locality":"Sumiswald","commune":{"key":"957","name":"Sumiswald","shortName":"Sumiswald"},"district":{"key":"245","name":"Verwaltungskreis Emmental"},"canton":{"key":"2","code":"BE","name":"Bern / Berne"},"status":"Real"},{"key":"10013523","name":"Spitalstrasse","postalCode":"3454","locality":"Sumiswald","commune":{"key":"957","name":"Sumiswald","shortName":"Sumiswald"},"district":{"key":"245","name":"Verwaltungskreis Emmental"},"canton":{"key":"2","code":"BE","name":"Bern / Berne"},"status":"Real"},{"key":"10187197","name":"Steinerhaus","postalCode":"3454","locality":"Sumiswald","commune":{"key":"957","name":"Sumiswald","shortName":"Sumiswald"},"district":{"key":"245","name":"Verwaltungskreis Emmental"},"canton":{"key":"2","code":"BE","name":"Bern / Berne"},"status":"Real"},{"key":"10242786","name":"Steinweid","postalCode":"3454","locality":"Sumiswald","commune":{"key":"957","name":"Sumiswald","shortName":"Sumiswald"},"district":{"key":"245","name":"Verwaltungskreis Emmental"},"canton":{"key":"2","code":"BE","name":"Bern / Berne"},"status":"Real"},{"key":"10067329","name":"Sumpf","postalCode":"3454","locality":"Sumiswald","commune":{"key":"957","name":"Sumiswald","shortName":"Sumiswald"},"district":{"key":"245","name":"Verwaltungskreis Emmental"},"canton":{"key":"2","code":"BE","name":"Bern / Berne"},"status":"Real"},{"key":"10067331","name":"Tannenneuhaus","postalCode":"3454","locality":"Sumiswald","commune":{"key":"957","name":"Sumiswald","shortName":"Sumiswald"},"district":{"key":"245","name":"Verwaltungskreis Emmental"},"canton":{"key":"2","code":"BE","name":"Bern / Berne"},"status":"Real"},{"key":"10013524","name":"Teussenhaus","postalCode":"3454","locality":"Sumiswald","commune":{"key":"957","name":"Sumiswald","shortName":"Sumiswald"},"district":{"key":"245","name":"Verwaltungskreis Emmental"},"canton":{"key":"2","code":"BE","name":"Bern / Berne"},"status":"Real"},{"key":"10080395","name":"Teussenhohle","postalCode":"3454","locality":"Sumiswald","commune":{"key":"957","name":"Sumiswald","shortName":"Sumiswald"},"district":{"key":"245","name":"Verwaltungskreis Emmental"},"canton":{"key":"2","code":"BE","name":"Bern / Berne"},"status":"Real"},{"key":"10013525","name":"Teussenmattweg","postalCode":"3454","locality":"Sumiswald","commune":{"key":"957","name":"Sumiswald","shortName":"Sumiswald"},"district":{"key":"245","name":"Verwaltungskreis Emmental"},"canton":{"key":"2","code":"BE","name":"Bern / Berne"},"status":"Real"},{"key":"10067332","name":"Teussenrain","postalCode":"3454","locality":"Sumiswald","commune":{"key":"957","name":"Sumiswald","shortName":"Sumiswald"},"district":{"key":"245","name":"Verwaltungskreis Emmental"},"canton":{"key":"2","code":"BE","name":"Bern / Berne"},"status":"Real"},{"key":"10189637","name":"Turm","postalCode":"3454","locality":"Sumiswald","commune":{"key":"957","name":"Sumiswald","shortName":"Sumiswald"},"district":{"key":"245","name":"Verwaltungskreis Emmental"},"canton":{"key":"2","code":"BE","name":"Bern / Berne"},"status":"Real"},{"key":"10013526","name":"Turnhallenstrasse","postalCode":"3454","locality":"Sumiswald","commune":{"key":"957","name":"Sumiswald","shortName":"Sumiswald"},"district":{"key":"245","name":"Verwaltungskreis Emmental"},"canton":{"key":"2","code":"BE","name":"Bern / Berne"},"status":"Real"},{"key":"10067334","name":"Unter Baumen","postalCode":"3454","locality":"Sumiswald","commune":{"key":"957","name":"Sumiswald","shortName":"Sumiswald"},"district":{"key":"245","name":"Verwaltungskreis Emmental"},"canton":{"key":"2","code":"BE","name":"Bern / Berne"},"status":"Real"},{"key":"10067337","name":"Untere Wassermatt","postalCode":"3454","locality":"Sumiswald","commune":{"key":"957","name":"Sumiswald","shortName":"Sumiswald"},"district":{"key":"245","name":"Verwaltungskreis Emmental"},"canton":{"key":"2","code":"BE","name":"Bern / Berne"},"status":"Real"},{"key":"10080396","name":"Unter Hegen","postalCode":"3454","locality":"Sumiswald","commune":{"key":"957","name":"Sumiswald","shortName":"Sumiswald"},"district":{"key":"245","name":"Verwaltungskreis Emmental"},"canton":{"key":"2","code":"BE","name":"Bern / Berne"},"status":"Real"},{"key":"10180113","name":"Unter Kneubühl","postalCode":"3454","locality":"Sumiswald","commune":{"key":"957","name":"Sumiswald","shortName":"Sumiswald"},"district":{"key":"245","name":"Verwaltungskreis Emmental"},"canton":{"key":"2","code":"BE","name":"Bern / Berne"},"status":"Real"},{"key":"10067336","name":"Unter Schabenlehn","postalCode":"3454","locality":"Sumiswald","commune":{"key":"957","name":"Sumiswald","shortName":"Sumiswald"},"district":{"key":"245","name":"Verwaltungskreis Emmental"},"canton":{"key":"2","code":"BE","name":"Bern / Berne"},"status":"Real"},{"key":"10013527","name":"Unter Stalden","postalCode":"3454","locality":"Sumiswald","commune":{"key":"957","name":"Sumiswald","shortName":"Sumiswald"},"district":{"key":"245","name":"Verwaltungskreis Emmental"},"canton":{"key":"2","code":"BE","name":"Bern / Berne"},"status":"Real"},{"key":"10080397","name":"Unter Stauden","postalCode":"3454","locality":"Sumiswald","commune":{"key":"957","name":"Sumiswald","shortName":"Sumiswald"},"district":{"key":"245","name":"Verwaltungskreis Emmental"},"canton":{"key":"2","code":"BE","name":"Bern / Berne"},"status":"Real"},{"key":"10013528","name":"Unter Steg","postalCode":"3454","locality":"Sumiswald","commune":{"key":"957","name":"Sumiswald","shortName":"Sumiswald"},"district":{"key":"245","name":"Verwaltungskreis Emmental"},"canton":{"key":"2","code":"BE","name":"Bern / Berne"},"status":"Real"},{"key":"10013529","name":"Unter Wyken","postalCode":"3454","locality":"Sumiswald","commune":{"key":"957","name":"Sumiswald","shortName":"Sumiswald"},"district":{"key":"245","name":"Verwaltungskreis Emmental"},"canton":{"key":"2","code":"BE","name":"Bern / Berne"},"status":"Real"},{"key":"10058515","name":"Vorder Kneubühl","postalCode":"3454","locality":"Sumiswald","commune":{"key":"957","name":"Sumiswald","shortName":"Sumiswald"},"district":{"key":"245","name":"Verwaltungskreis Emmental"},"canton":{"key":"2","code":"BE","name":"Bern / Berne"},"status":"Real"},{"key":"10080398","name":"Vorder Schönenthül","postalCode":"3454","locality":"Sumiswald","commune":{"key":"957","name":"Sumiswald","shortName":"Sumiswald"},"district":{"key":"245","name":"Verwaltungskreis Emmental"},"canton":{"key":"2","code":"BE","name":"Bern / Berne"},"status":"Real"},{"key":"10013530","name":"Weid","postalCode":"3454","locality":"Sumiswald","commune":{"key":"957","name":"Sumiswald","shortName":"Sumiswald"},"district":{"key":"245","name":"Verwaltungskreis Emmental"},"canton":{"key":"2","code":"BE","name":"Bern / Berne"},"status":"Real"},{"key":"10103595","name":"Weidli","postalCode":"3454","locality":"Sumiswald","commune":{"key":"957","name":"Sumiswald","shortName":"Sumiswald"},"district":{"key":"245","name":"Verwaltungskreis Emmental"},"canton":{"key":"2","code":"BE","name":"Bern / Berne"},"status":"Real"},{"key":"10013531","name":"Weiersmatt","postalCode":"3454","locality":"Sumiswald","commune":{"key":"957","name":"Sumiswald","shortName":"Sumiswald"},"district":{"key":"245","name":"Verwaltungskreis Emmental"},"canton":{"key":"2","code":"BE","name":"Bern / Berne"},"status":"Real"},{"key":"10110132","name":"Wydachen","postalCode":"3454","locality":"Sumiswald","commune":{"key":"957","name":"Sumiswald","shortName":"Sumiswald"},"district":{"key":"245","name":"Verwaltungskreis Emmental"},"canton":{"key":"2","code":"BE","name":"Bern / Berne"},"status":"Real"},{"key":"10191454","name":"Wydithub","postalCode":"3454","locality":"Sumiswald","commune":{"key":"957","name":"Sumiswald","shortName":"Sumiswald"},"district":{"key":"245","name":"Verwaltungskreis Emmental"},"canton":{"key":"2","code":"BE","name":"Bern / Berne"},"status":"Real"},{"key":"10013532","name":"Wyken-Neuhaus","postalCode":"3454","locality":"Sumiswald","commune":{"key":"957","name":"Sumiswald","shortName":"Sumiswald"},"district":{"key":"245","name":"Verwaltungskreis Emmental"},"canton":{"key":"2","code":"BE","name":"Bern / Berne"},"status":"Real"},{"key":"10067341","name":"Wyler","postalCode":"3454","locality":"Sumiswald","commune":{"key":"957","name":"Sumiswald","shortName":"Sumiswald"},"district":{"key":"245","name":"Verwaltungskreis Emmental"},"canton":{"key":"2","code":"BE","name":"Bern / Berne"},"status":"Real"},{"key":"10058516","name":"Zelg","postalCode":"3454","locality":"Sumiswald","commune":{"key":"957","name":"Sumiswald","shortName":"Sumiswald"},"district":{"key":"245","name":"Verwaltungskreis Emmental"},"canton":{"key":"2","code":"BE","name":"Bern / Berne"},"status":"Real"},{"key":"10067342","name":"Zelghüsli","postalCode":"3454","locality":"Sumiswald","commune":{"key":"957","name":"Sumiswald","shortName":"Sumiswald"},"district":{"key":"245","name":"Verwaltungskreis Emmental"},"canton":{"key":"2","code":"BE","name":"Bern / Berne"},"status":"Real"},{"key":"10180114","name":"Zimmer","postalCode":"3454","locality":"Sumiswald","commune":{"key":"957","name":"Sumiswald","shortName":"Sumiswald"},"district":{"key":"245","name":"Verwaltungskreis Emmental"},"canton":{"key":"2","code":"BE","name":"Bern / Berne"},"status":"Real"},]