[{"name":"Aarstr.","postalCode":"35756","locality":"Mittenaar","municipality":{"key":"06532017","name":"Mittenaar","type":"Kreisangehörige_Gemeinde"},"district":{"key":"06532","name":"Lahn-Dill-Kreis","type":"Landkreis"},"federalState":{"key":"06","name":"Hessen"}},{"name":"Albert-Schweitzer-Weg","postalCode":"35756","locality":"Mittenaar","municipality":{"key":"06532017","name":"Mittenaar","type":"Kreisangehörige_Gemeinde"},"district":{"key":"06532","name":"Lahn-Dill-Kreis","type":"Landkreis"},"federalState":{"key":"06","name":"Hessen"}},{"name":"Alstedstr.","postalCode":"35756","locality":"Mittenaar","municipality":{"key":"06532017","name":"Mittenaar","type":"Kreisangehörige_Gemeinde"},"district":{"key":"06532","name":"Lahn-Dill-Kreis","type":"Landkreis"},"federalState":{"key":"06","name":"Hessen"}},{"name":"Alt-Seiferweg","postalCode":"35756","locality":"Mittenaar","municipality":{"key":"06532017","name":"Mittenaar","type":"Kreisangehörige_Gemeinde"},"district":{"key":"06532","name":"Lahn-Dill-Kreis","type":"Landkreis"},"federalState":{"key":"06","name":"Hessen"}},{"name":"Am Bornacker","postalCode":"35756","locality":"Mittenaar","municipality":{"key":"06532017","name":"Mittenaar","type":"Kreisangehörige_Gemeinde"},"district":{"key":"06532","name":"Lahn-Dill-Kreis","type":"Landkreis"},"federalState":{"key":"06","name":"Hessen"}},{"name":"Am Gettenbach","postalCode":"35756","locality":"Mittenaar","municipality":{"key":"06532017","name":"Mittenaar","type":"Kreisangehörige_Gemeinde"},"district":{"key":"06532","name":"Lahn-Dill-Kreis","type":"Landkreis"},"federalState":{"key":"06","name":"Hessen"}},{"name":"Am Heiligen Haus","postalCode":"35756","locality":"Mittenaar","municipality":{"key":"06532017","name":"Mittenaar","type":"Kreisangehörige_Gemeinde"},"district":{"key":"06532","name":"Lahn-Dill-Kreis","type":"Landkreis"},"federalState":{"key":"06","name":"Hessen"}},{"name":"Am Kaßberg","postalCode":"35756","locality":"Mittenaar","municipality":{"key":"06532017","name":"Mittenaar","type":"Kreisangehörige_Gemeinde"},"district":{"key":"06532","name":"Lahn-Dill-Kreis","type":"Landkreis"},"federalState":{"key":"06","name":"Hessen"}},{"name":"Am Köppel","postalCode":"35756","locality":"Mittenaar","municipality":{"key":"06532017","name":"Mittenaar","type":"Kreisangehörige_Gemeinde"},"district":{"key":"06532","name":"Lahn-Dill-Kreis","type":"Landkreis"},"federalState":{"key":"06","name":"Hessen"}},{"name":"Am Krummen Acker","postalCode":"35756","locality":"Mittenaar","municipality":{"key":"06532017","name":"Mittenaar","type":"Kreisangehörige_Gemeinde"},"district":{"key":"06532","name":"Lahn-Dill-Kreis","type":"Landkreis"},"federalState":{"key":"06","name":"Hessen"}},{"name":"Am Mosgesberg","postalCode":"35756","locality":"Mittenaar","municipality":{"key":"06532017","name":"Mittenaar","type":"Kreisangehörige_Gemeinde"},"district":{"key":"06532","name":"Lahn-Dill-Kreis","type":"Landkreis"},"federalState":{"key":"06","name":"Hessen"}},{"name":"Am Rennacker","postalCode":"35756","locality":"Mittenaar","municipality":{"key":"06532017","name":"Mittenaar","type":"Kreisangehörige_Gemeinde"},"district":{"key":"06532","name":"Lahn-Dill-Kreis","type":"Landkreis"},"federalState":{"key":"06","name":"Hessen"}},{"name":"Am Rosenboden","postalCode":"35756","locality":"Mittenaar","municipality":{"key":"06532017","name":"Mittenaar","type":"Kreisangehörige_Gemeinde"},"district":{"key":"06532","name":"Lahn-Dill-Kreis","type":"Landkreis"},"federalState":{"key":"06","name":"Hessen"}},{"name":"Am Scheidt","postalCode":"35756","locality":"Mittenaar","municipality":{"key":"06532017","name":"Mittenaar","type":"Kreisangehörige_Gemeinde"},"district":{"key":"06532","name":"Lahn-Dill-Kreis","type":"Landkreis"},"federalState":{"key":"06","name":"Hessen"}},{"name":"Am Seifen","postalCode":"35756","locality":"Mittenaar","municipality":{"key":"06532017","name":"Mittenaar","type":"Kreisangehörige_Gemeinde"},"district":{"key":"06532","name":"Lahn-Dill-Kreis","type":"Landkreis"},"federalState":{"key":"06","name":"Hessen"}},{"name":"Amselweg","postalCode":"35756","locality":"Mittenaar","municipality":{"key":"06532017","name":"Mittenaar","type":"Kreisangehörige_Gemeinde"},"district":{"key":"06532","name":"Lahn-Dill-Kreis","type":"Landkreis"},"federalState":{"key":"06","name":"Hessen"}},{"name":"Am Taubenrain","postalCode":"35756","locality":"Mittenaar","municipality":{"key":"06532017","name":"Mittenaar","type":"Kreisangehörige_Gemeinde"},"district":{"key":"06532","name":"Lahn-Dill-Kreis","type":"Landkreis"},"federalState":{"key":"06","name":"Hessen"}},{"name":"Am Weinberg","postalCode":"35756","locality":"Mittenaar","municipality":{"key":"06532017","name":"Mittenaar","type":"Kreisangehörige_Gemeinde"},"district":{"key":"06532","name":"Lahn-Dill-Kreis","type":"Landkreis"},"federalState":{"key":"06","name":"Hessen"}},{"name":"Am Wiesacker","postalCode":"35756","locality":"Mittenaar","municipality":{"key":"06532017","name":"Mittenaar","type":"Kreisangehörige_Gemeinde"},"district":{"key":"06532","name":"Lahn-Dill-Kreis","type":"Landkreis"},"federalState":{"key":"06","name":"Hessen"}},{"name":"Am Wißberg","postalCode":"35756","locality":"Mittenaar","municipality":{"key":"06532017","name":"Mittenaar","type":"Kreisangehörige_Gemeinde"},"district":{"key":"06532","name":"Lahn-Dill-Kreis","type":"Landkreis"},"federalState":{"key":"06","name":"Hessen"}},{"name":"An der B 255","postalCode":"35756","locality":"Mittenaar","municipality":{"key":"06532017","name":"Mittenaar","type":"Kreisangehörige_Gemeinde"},"district":{"key":"06532","name":"Lahn-Dill-Kreis","type":"Landkreis"},"federalState":{"key":"06","name":"Hessen"}},{"name":"Auf Böhms Garten","postalCode":"35756","locality":"Mittenaar","municipality":{"key":"06532017","name":"Mittenaar","type":"Kreisangehörige_Gemeinde"},"district":{"key":"06532","name":"Lahn-Dill-Kreis","type":"Landkreis"},"federalState":{"key":"06","name":"Hessen"}},{"name":"Auf den Haaren","postalCode":"35756","locality":"Mittenaar","municipality":{"key":"06532017","name":"Mittenaar","type":"Kreisangehörige_Gemeinde"},"district":{"key":"06532","name":"Lahn-Dill-Kreis","type":"Landkreis"},"federalState":{"key":"06","name":"Hessen"}},{"name":"Auf der Füll","postalCode":"35756","locality":"Mittenaar","municipality":{"key":"06532017","name":"Mittenaar","type":"Kreisangehörige_Gemeinde"},"district":{"key":"06532","name":"Lahn-Dill-Kreis","type":"Landkreis"},"federalState":{"key":"06","name":"Hessen"}},{"name":"Auf der Gieß","postalCode":"35756","locality":"Mittenaar","municipality":{"key":"06532017","name":"Mittenaar","type":"Kreisangehörige_Gemeinde"},"district":{"key":"06532","name":"Lahn-Dill-Kreis","type":"Landkreis"},"federalState":{"key":"06","name":"Hessen"}},{"name":"Auf der Grabenbach","postalCode":"35756","locality":"Mittenaar","municipality":{"key":"06532017","name":"Mittenaar","type":"Kreisangehörige_Gemeinde"},"district":{"key":"06532","name":"Lahn-Dill-Kreis","type":"Landkreis"},"federalState":{"key":"06","name":"Hessen"}},{"name":"Auf der Hohl","postalCode":"35756","locality":"Mittenaar","municipality":{"key":"06532017","name":"Mittenaar","type":"Kreisangehörige_Gemeinde"},"district":{"key":"06532","name":"Lahn-Dill-Kreis","type":"Landkreis"},"federalState":{"key":"06","name":"Hessen"}},{"name":"Auf der Roll","postalCode":"35756","locality":"Mittenaar","municipality":{"key":"06532017","name":"Mittenaar","type":"Kreisangehörige_Gemeinde"},"district":{"key":"06532","name":"Lahn-Dill-Kreis","type":"Landkreis"},"federalState":{"key":"06","name":"Hessen"}},{"name":"Backhausweg","postalCode":"35756","locality":"Mittenaar","municipality":{"key":"06532017","name":"Mittenaar","type":"Kreisangehörige_Gemeinde"},"district":{"key":"06532","name":"Lahn-Dill-Kreis","type":"Landkreis"},"federalState":{"key":"06","name":"Hessen"}},{"name":"Bahnhofstr.","postalCode":"35756","locality":"Mittenaar","municipality":{"key":"06532017","name":"Mittenaar","type":"Kreisangehörige_Gemeinde"},"district":{"key":"06532","name":"Lahn-Dill-Kreis","type":"Landkreis"},"federalState":{"key":"06","name":"Hessen"}},{"name":"Bergstr.","postalCode":"35756","locality":"Mittenaar","municipality":{"key":"06532017","name":"Mittenaar","type":"Kreisangehörige_Gemeinde"},"district":{"key":"06532","name":"Lahn-Dill-Kreis","type":"Landkreis"},"federalState":{"key":"06","name":"Hessen"}},{"name":"Berliner Str.","postalCode":"35756","locality":"Mittenaar","municipality":{"key":"06532017","name":"Mittenaar","type":"Kreisangehörige_Gemeinde"},"district":{"key":"06532","name":"Lahn-Dill-Kreis","type":"Landkreis"},"federalState":{"key":"06","name":"Hessen"}},{"name":"Bicker Weg","postalCode":"35756","locality":"Mittenaar","municipality":{"key":"06532017","name":"Mittenaar","type":"Kreisangehörige_Gemeinde"},"district":{"key":"06532","name":"Lahn-Dill-Kreis","type":"Landkreis"},"federalState":{"key":"06","name":"Hessen"}},{"name":"Birkenstr.","postalCode":"35756","locality":"Mittenaar","municipality":{"key":"06532017","name":"Mittenaar","type":"Kreisangehörige_Gemeinde"},"district":{"key":"06532","name":"Lahn-Dill-Kreis","type":"Landkreis"},"federalState":{"key":"06","name":"Hessen"}},{"name":"Brunnenstr.","postalCode":"35756","locality":"Mittenaar","municipality":{"key":"06532017","name":"Mittenaar","type":"Kreisangehörige_Gemeinde"},"district":{"key":"06532","name":"Lahn-Dill-Kreis","type":"Landkreis"},"federalState":{"key":"06","name":"Hessen"}},{"name":"Bürgerhausstr.","postalCode":"35756","locality":"Mittenaar","municipality":{"key":"06532017","name":"Mittenaar","type":"Kreisangehörige_Gemeinde"},"district":{"key":"06532","name":"Lahn-Dill-Kreis","type":"Landkreis"},"federalState":{"key":"06","name":"Hessen"}},{"name":"Burggasse","postalCode":"35756","locality":"Mittenaar","municipality":{"key":"06532017","name":"Mittenaar","type":"Kreisangehörige_Gemeinde"},"district":{"key":"06532","name":"Lahn-Dill-Kreis","type":"Landkreis"},"federalState":{"key":"06","name":"Hessen"}},{"name":"Burggraben","postalCode":"35756","locality":"Mittenaar","municipality":{"key":"06532017","name":"Mittenaar","type":"Kreisangehörige_Gemeinde"},"district":{"key":"06532","name":"Lahn-Dill-Kreis","type":"Landkreis"},"federalState":{"key":"06","name":"Hessen"}},{"name":"Christgreubchen","postalCode":"35756","locality":"Mittenaar","municipality":{"key":"06532017","name":"Mittenaar","type":"Kreisangehörige_Gemeinde"},"district":{"key":"06532","name":"Lahn-Dill-Kreis","type":"Landkreis"},"federalState":{"key":"06","name":"Hessen"}},{"name":"Dernbacher Str.","postalCode":"35756","locality":"Mittenaar","municipality":{"key":"06532017","name":"Mittenaar","type":"Kreisangehörige_Gemeinde"},"district":{"key":"06532","name":"Lahn-Dill-Kreis","type":"Landkreis"},"federalState":{"key":"06","name":"Hessen"}},{"name":"Dresdener Str.","postalCode":"35756","locality":"Mittenaar","municipality":{"key":"06532017","name":"Mittenaar","type":"Kreisangehörige_Gemeinde"},"district":{"key":"06532","name":"Lahn-Dill-Kreis","type":"Landkreis"},"federalState":{"key":"06","name":"Hessen"}},{"name":"Einbachstr.","postalCode":"35756","locality":"Mittenaar","municipality":{"key":"06532017","name":"Mittenaar","type":"Kreisangehörige_Gemeinde"},"district":{"key":"06532","name":"Lahn-Dill-Kreis","type":"Landkreis"},"federalState":{"key":"06","name":"Hessen"}},{"name":"Emmausweg","postalCode":"35756","locality":"Mittenaar","municipality":{"key":"06532017","name":"Mittenaar","type":"Kreisangehörige_Gemeinde"},"district":{"key":"06532","name":"Lahn-Dill-Kreis","type":"Landkreis"},"federalState":{"key":"06","name":"Hessen"}},{"name":"Finkenweg","postalCode":"35756","locality":"Mittenaar","municipality":{"key":"06532017","name":"Mittenaar","type":"Kreisangehörige_Gemeinde"},"district":{"key":"06532","name":"Lahn-Dill-Kreis","type":"Landkreis"},"federalState":{"key":"06","name":"Hessen"}},{"name":"Fleckenbühler Weg","postalCode":"35756","locality":"Mittenaar","municipality":{"key":"06532017","name":"Mittenaar","type":"Kreisangehörige_Gemeinde"},"district":{"key":"06532","name":"Lahn-Dill-Kreis","type":"Landkreis"},"federalState":{"key":"06","name":"Hessen"}},{"name":"Forsthausstr.","postalCode":"35756","locality":"Mittenaar","municipality":{"key":"06532017","name":"Mittenaar","type":"Kreisangehörige_Gemeinde"},"district":{"key":"06532","name":"Lahn-Dill-Kreis","type":"Landkreis"},"federalState":{"key":"06","name":"Hessen"}},{"name":"Freiherr-vom-Stein-Str.","postalCode":"35756","locality":"Mittenaar","municipality":{"key":"06532017","name":"Mittenaar","type":"Kreisangehörige_Gemeinde"},"district":{"key":"06532","name":"Lahn-Dill-Kreis","type":"Landkreis"},"federalState":{"key":"06","name":"Hessen"}},{"name":"Gartenstr.","postalCode":"35756","locality":"Mittenaar","municipality":{"key":"06532017","name":"Mittenaar","type":"Kreisangehörige_Gemeinde"},"district":{"key":"06532","name":"Lahn-Dill-Kreis","type":"Landkreis"},"federalState":{"key":"06","name":"Hessen"}},{"name":"Gernsbach","postalCode":"35756","locality":"Mittenaar","municipality":{"key":"06532017","name":"Mittenaar","type":"Kreisangehörige_Gemeinde"},"district":{"key":"06532","name":"Lahn-Dill-Kreis","type":"Landkreis"},"federalState":{"key":"06","name":"Hessen"}},{"name":"Gewerbeparkring","postalCode":"35756","locality":"Mittenaar","municipality":{"key":"06532017","name":"Mittenaar","type":"Kreisangehörige_Gemeinde"},"district":{"key":"06532","name":"Lahn-Dill-Kreis","type":"Landkreis"},"federalState":{"key":"06","name":"Hessen"}},{"name":"Gewerbeparkstr.","postalCode":"35756","locality":"Mittenaar","municipality":{"key":"06532017","name":"Mittenaar","type":"Kreisangehörige_Gemeinde"},"district":{"key":"06532","name":"Lahn-Dill-Kreis","type":"Landkreis"},"federalState":{"key":"06","name":"Hessen"}},{"name":"Goethestr.","postalCode":"35756","locality":"Mittenaar","municipality":{"key":"06532017","name":"Mittenaar","type":"Kreisangehörige_Gemeinde"},"district":{"key":"06532","name":"Lahn-Dill-Kreis","type":"Landkreis"},"federalState":{"key":"06","name":"Hessen"}},{"name":"Hainstr.","postalCode":"35756","locality":"Mittenaar","municipality":{"key":"06532017","name":"Mittenaar","type":"Kreisangehörige_Gemeinde"},"district":{"key":"06532","name":"Lahn-Dill-Kreis","type":"Landkreis"},"federalState":{"key":"06","name":"Hessen"}},{"name":"Hauptstr.","postalCode":"35756","locality":"Mittenaar","municipality":{"key":"06532017","name":"Mittenaar","type":"Kreisangehörige_Gemeinde"},"district":{"key":"06532","name":"Lahn-Dill-Kreis","type":"Landkreis"},"federalState":{"key":"06","name":"Hessen"}},{"name":"Herborner Str.","postalCode":"35756","locality":"Mittenaar","municipality":{"key":"06532017","name":"Mittenaar","type":"Kreisangehörige_Gemeinde"},"district":{"key":"06532","name":"Lahn-Dill-Kreis","type":"Landkreis"},"federalState":{"key":"06","name":"Hessen"}},{"name":"Herrenhof","postalCode":"35756","locality":"Mittenaar","municipality":{"key":"06532017","name":"Mittenaar","type":"Kreisangehörige_Gemeinde"},"district":{"key":"06532","name":"Lahn-Dill-Kreis","type":"Landkreis"},"federalState":{"key":"06","name":"Hessen"}},{"name":"Hindenburgstr.","postalCode":"35756","locality":"Mittenaar","municipality":{"key":"06532017","name":"Mittenaar","type":"Kreisangehörige_Gemeinde"},"district":{"key":"06532","name":"Lahn-Dill-Kreis","type":"Landkreis"},"federalState":{"key":"06","name":"Hessen"}},{"name":"Hochstadt","postalCode":"35756","locality":"Mittenaar","municipality":{"key":"06532017","name":"Mittenaar","type":"Kreisangehörige_Gemeinde"},"district":{"key":"06532","name":"Lahn-Dill-Kreis","type":"Landkreis"},"federalState":{"key":"06","name":"Hessen"}},{"name":"Hofgartenstr.","postalCode":"35756","locality":"Mittenaar","municipality":{"key":"06532017","name":"Mittenaar","type":"Kreisangehörige_Gemeinde"},"district":{"key":"06532","name":"Lahn-Dill-Kreis","type":"Landkreis"},"federalState":{"key":"06","name":"Hessen"}},{"name":"Hohler Weg","postalCode":"35756","locality":"Mittenaar","municipality":{"key":"06532017","name":"Mittenaar","type":"Kreisangehörige_Gemeinde"},"district":{"key":"06532","name":"Lahn-Dill-Kreis","type":"Landkreis"},"federalState":{"key":"06","name":"Hessen"}},{"name":"Im Ammelsbach","postalCode":"35756","locality":"Mittenaar","municipality":{"key":"06532017","name":"Mittenaar","type":"Kreisangehörige_Gemeinde"},"district":{"key":"06532","name":"Lahn-Dill-Kreis","type":"Landkreis"},"federalState":{"key":"06","name":"Hessen"}},{"name":"Im Gießhof","postalCode":"35756","locality":"Mittenaar","municipality":{"key":"06532017","name":"Mittenaar","type":"Kreisangehörige_Gemeinde"},"district":{"key":"06532","name":"Lahn-Dill-Kreis","type":"Landkreis"},"federalState":{"key":"06","name":"Hessen"}},{"name":"Im Hof","postalCode":"35756","locality":"Mittenaar","municipality":{"key":"06532017","name":"Mittenaar","type":"Kreisangehörige_Gemeinde"},"district":{"key":"06532","name":"Lahn-Dill-Kreis","type":"Landkreis"},"federalState":{"key":"06","name":"Hessen"}},{"name":"Im Hohenstahl","postalCode":"35756","locality":"Mittenaar","municipality":{"key":"06532017","name":"Mittenaar","type":"Kreisangehörige_Gemeinde"},"district":{"key":"06532","name":"Lahn-Dill-Kreis","type":"Landkreis"},"federalState":{"key":"06","name":"Hessen"}},{"name":"Im Kalten Born","postalCode":"35756","locality":"Mittenaar","municipality":{"key":"06532017","name":"Mittenaar","type":"Kreisangehörige_Gemeinde"},"district":{"key":"06532","name":"Lahn-Dill-Kreis","type":"Landkreis"},"federalState":{"key":"06","name":"Hessen"}},{"name":"Im Weberling","postalCode":"35756","locality":"Mittenaar","municipality":{"key":"06532017","name":"Mittenaar","type":"Kreisangehörige_Gemeinde"},"district":{"key":"06532","name":"Lahn-Dill-Kreis","type":"Landkreis"},"federalState":{"key":"06","name":"Hessen"}},{"name":"Im Weyer","postalCode":"35756","locality":"Mittenaar","municipality":{"key":"06532017","name":"Mittenaar","type":"Kreisangehörige_Gemeinde"},"district":{"key":"06532","name":"Lahn-Dill-Kreis","type":"Landkreis"},"federalState":{"key":"06","name":"Hessen"}},{"name":"In den Höfen","postalCode":"35756","locality":"Mittenaar","municipality":{"key":"06532017","name":"Mittenaar","type":"Kreisangehörige_Gemeinde"},"district":{"key":"06532","name":"Lahn-Dill-Kreis","type":"Landkreis"},"federalState":{"key":"06","name":"Hessen"}},{"name":"In den Lärchen","postalCode":"35756","locality":"Mittenaar","municipality":{"key":"06532017","name":"Mittenaar","type":"Kreisangehörige_Gemeinde"},"district":{"key":"06532","name":"Lahn-Dill-Kreis","type":"Landkreis"},"federalState":{"key":"06","name":"Hessen"}},{"name":"In der Eck","postalCode":"35756","locality":"Mittenaar","municipality":{"key":"06532017","name":"Mittenaar","type":"Kreisangehörige_Gemeinde"},"district":{"key":"06532","name":"Lahn-Dill-Kreis","type":"Landkreis"},"federalState":{"key":"06","name":"Hessen"}},{"name":"In der Gasse","postalCode":"35756","locality":"Mittenaar","municipality":{"key":"06532017","name":"Mittenaar","type":"Kreisangehörige_Gemeinde"},"district":{"key":"06532","name":"Lahn-Dill-Kreis","type":"Landkreis"},"federalState":{"key":"06","name":"Hessen"}},{"name":"Industriestr.","postalCode":"35756","locality":"Mittenaar","municipality":{"key":"06532017","name":"Mittenaar","type":"Kreisangehörige_Gemeinde"},"district":{"key":"06532","name":"Lahn-Dill-Kreis","type":"Landkreis"},"federalState":{"key":"06","name":"Hessen"}},{"name":"In Heunbächeln","postalCode":"35756","locality":"Mittenaar","municipality":{"key":"06532017","name":"Mittenaar","type":"Kreisangehörige_Gemeinde"},"district":{"key":"06532","name":"Lahn-Dill-Kreis","type":"Landkreis"},"federalState":{"key":"06","name":"Hessen"}},{"name":"Jahnstr.","postalCode":"35756","locality":"Mittenaar","municipality":{"key":"06532017","name":"Mittenaar","type":"Kreisangehörige_Gemeinde"},"district":{"key":"06532","name":"Lahn-Dill-Kreis","type":"Landkreis"},"federalState":{"key":"06","name":"Hessen"}},{"name":"Kirchberg","postalCode":"35756","locality":"Mittenaar","municipality":{"key":"06532017","name":"Mittenaar","type":"Kreisangehörige_Gemeinde"},"district":{"key":"06532","name":"Lahn-Dill-Kreis","type":"Landkreis"},"federalState":{"key":"06","name":"Hessen"}},{"name":"Kirchweg","postalCode":"35756","locality":"Mittenaar","municipality":{"key":"06532017","name":"Mittenaar","type":"Kreisangehörige_Gemeinde"},"district":{"key":"06532","name":"Lahn-Dill-Kreis","type":"Landkreis"},"federalState":{"key":"06","name":"Hessen"}},{"name":"Koblenzer Str.","postalCode":"35756","locality":"Mittenaar","municipality":{"key":"06532017","name":"Mittenaar","type":"Kreisangehörige_Gemeinde"},"district":{"key":"06532","name":"Lahn-Dill-Kreis","type":"Landkreis"},"federalState":{"key":"06","name":"Hessen"}},{"name":"Kreuzweide","postalCode":"35756","locality":"Mittenaar","municipality":{"key":"06532017","name":"Mittenaar","type":"Kreisangehörige_Gemeinde"},"district":{"key":"06532","name":"Lahn-Dill-Kreis","type":"Landkreis"},"federalState":{"key":"06","name":"Hessen"}},{"name":"Langwiese","postalCode":"35756","locality":"Mittenaar","municipality":{"key":"06532017","name":"Mittenaar","type":"Kreisangehörige_Gemeinde"},"district":{"key":"06532","name":"Lahn-Dill-Kreis","type":"Landkreis"},"federalState":{"key":"06","name":"Hessen"}},{"name":"Leipziger Str.","postalCode":"35756","locality":"Mittenaar","municipality":{"key":"06532017","name":"Mittenaar","type":"Kreisangehörige_Gemeinde"},"district":{"key":"06532","name":"Lahn-Dill-Kreis","type":"Landkreis"},"federalState":{"key":"06","name":"Hessen"}},{"name":"Lindenweg","postalCode":"35756","locality":"Mittenaar","municipality":{"key":"06532017","name":"Mittenaar","type":"Kreisangehörige_Gemeinde"},"district":{"key":"06532","name":"Lahn-Dill-Kreis","type":"Landkreis"},"federalState":{"key":"06","name":"Hessen"}},{"name":"Lubergstr.","postalCode":"35756","locality":"Mittenaar","municipality":{"key":"06532017","name":"Mittenaar","type":"Kreisangehörige_Gemeinde"},"district":{"key":"06532","name":"Lahn-Dill-Kreis","type":"Landkreis"},"federalState":{"key":"06","name":"Hessen"}},{"name":"Marburger Str.","postalCode":"35756","locality":"Mittenaar","municipality":{"key":"06532017","name":"Mittenaar","type":"Kreisangehörige_Gemeinde"},"district":{"key":"06532","name":"Lahn-Dill-Kreis","type":"Landkreis"},"federalState":{"key":"06","name":"Hessen"}},{"name":"Mittlere Feldstr.","postalCode":"35756","locality":"Mittenaar","municipality":{"key":"06532017","name":"Mittenaar","type":"Kreisangehörige_Gemeinde"},"district":{"key":"06532","name":"Lahn-Dill-Kreis","type":"Landkreis"},"federalState":{"key":"06","name":"Hessen"}},{"name":"Mozartstr.","postalCode":"35756","locality":"Mittenaar","municipality":{"key":"06532017","name":"Mittenaar","type":"Kreisangehörige_Gemeinde"},"district":{"key":"06532","name":"Lahn-Dill-Kreis","type":"Landkreis"},"federalState":{"key":"06","name":"Hessen"}},{"name":"Neue Str.","postalCode":"35756","locality":"Mittenaar","municipality":{"key":"06532017","name":"Mittenaar","type":"Kreisangehörige_Gemeinde"},"district":{"key":"06532","name":"Lahn-Dill-Kreis","type":"Landkreis"},"federalState":{"key":"06","name":"Hessen"}},{"name":"Ober den Wiesen","postalCode":"35756","locality":"Mittenaar","municipality":{"key":"06532017","name":"Mittenaar","type":"Kreisangehörige_Gemeinde"},"district":{"key":"06532","name":"Lahn-Dill-Kreis","type":"Landkreis"},"federalState":{"key":"06","name":"Hessen"}},{"name":"Oranienstr.","postalCode":"35756","locality":"Mittenaar","municipality":{"key":"06532017","name":"Mittenaar","type":"Kreisangehörige_Gemeinde"},"district":{"key":"06532","name":"Lahn-Dill-Kreis","type":"Landkreis"},"federalState":{"key":"06","name":"Hessen"}},{"name":"Platanenweg","postalCode":"35756","locality":"Mittenaar","municipality":{"key":"06532017","name":"Mittenaar","type":"Kreisangehörige_Gemeinde"},"district":{"key":"06532","name":"Lahn-Dill-Kreis","type":"Landkreis"},"federalState":{"key":"06","name":"Hessen"}},{"name":"Richelsberg","postalCode":"35756","locality":"Mittenaar","municipality":{"key":"06532017","name":"Mittenaar","type":"Kreisangehörige_Gemeinde"},"district":{"key":"06532","name":"Lahn-Dill-Kreis","type":"Landkreis"},"federalState":{"key":"06","name":"Hessen"}},{"name":"Ringstr.","postalCode":"35756","locality":"Mittenaar","municipality":{"key":"06532017","name":"Mittenaar","type":"Kreisangehörige_Gemeinde"},"district":{"key":"06532","name":"Lahn-Dill-Kreis","type":"Landkreis"},"federalState":{"key":"06","name":"Hessen"}},{"name":"Schillerstr.","postalCode":"35756","locality":"Mittenaar","municipality":{"key":"06532017","name":"Mittenaar","type":"Kreisangehörige_Gemeinde"},"district":{"key":"06532","name":"Lahn-Dill-Kreis","type":"Landkreis"},"federalState":{"key":"06","name":"Hessen"}},{"name":"Schönblick","postalCode":"35756","locality":"Mittenaar","municipality":{"key":"06532017","name":"Mittenaar","type":"Kreisangehörige_Gemeinde"},"district":{"key":"06532","name":"Lahn-Dill-Kreis","type":"Landkreis"},"federalState":{"key":"06","name":"Hessen"}},{"name":"Schulstr.","postalCode":"35756","locality":"Mittenaar","municipality":{"key":"06532017","name":"Mittenaar","type":"Kreisangehörige_Gemeinde"},"district":{"key":"06532","name":"Lahn-Dill-Kreis","type":"Landkreis"},"federalState":{"key":"06","name":"Hessen"}},{"name":"Seelbacher Str.","postalCode":"35756","locality":"Mittenaar","municipality":{"key":"06532017","name":"Mittenaar","type":"Kreisangehörige_Gemeinde"},"district":{"key":"06532","name":"Lahn-Dill-Kreis","type":"Landkreis"},"federalState":{"key":"06","name":"Hessen"}},{"name":"Seiferweg","postalCode":"35756","locality":"Mittenaar","municipality":{"key":"06532017","name":"Mittenaar","type":"Kreisangehörige_Gemeinde"},"district":{"key":"06532","name":"Lahn-Dill-Kreis","type":"Landkreis"},"federalState":{"key":"06","name":"Hessen"}},{"name":"Sinner Str.","postalCode":"35756","locality":"Mittenaar","municipality":{"key":"06532017","name":"Mittenaar","type":"Kreisangehörige_Gemeinde"},"district":{"key":"06532","name":"Lahn-Dill-Kreis","type":"Landkreis"},"federalState":{"key":"06","name":"Hessen"}},{"name":"Sonnenweg","postalCode":"35756","locality":"Mittenaar","municipality":{"key":"06532017","name":"Mittenaar","type":"Kreisangehörige_Gemeinde"},"district":{"key":"06532","name":"Lahn-Dill-Kreis","type":"Landkreis"},"federalState":{"key":"06","name":"Hessen"}},{"name":"Talblick","postalCode":"35756","locality":"Mittenaar","municipality":{"key":"06532017","name":"Mittenaar","type":"Kreisangehörige_Gemeinde"},"district":{"key":"06532","name":"Lahn-Dill-Kreis","type":"Landkreis"},"federalState":{"key":"06","name":"Hessen"}},{"name":"Tannenweg","postalCode":"35756","locality":"Mittenaar","municipality":{"key":"06532017","name":"Mittenaar","type":"Kreisangehörige_Gemeinde"},"district":{"key":"06532","name":"Lahn-Dill-Kreis","type":"Landkreis"},"federalState":{"key":"06","name":"Hessen"}},{"name":"Ungersborn","postalCode":"35756","locality":"Mittenaar","municipality":{"key":"06532017","name":"Mittenaar","type":"Kreisangehörige_Gemeinde"},"district":{"key":"06532","name":"Lahn-Dill-Kreis","type":"Landkreis"},"federalState":{"key":"06","name":"Hessen"}},{"name":"Untere Feldstr.","postalCode":"35756","locality":"Mittenaar","municipality":{"key":"06532017","name":"Mittenaar","type":"Kreisangehörige_Gemeinde"},"district":{"key":"06532","name":"Lahn-Dill-Kreis","type":"Landkreis"},"federalState":{"key":"06","name":"Hessen"}},{"name":"Untermühlweg","postalCode":"35756","locality":"Mittenaar","municipality":{"key":"06532017","name":"Mittenaar","type":"Kreisangehörige_Gemeinde"},"district":{"key":"06532","name":"Lahn-Dill-Kreis","type":"Landkreis"},"federalState":{"key":"06","name":"Hessen"}},{"name":"Vor den Eichen","postalCode":"35756","locality":"Mittenaar","municipality":{"key":"06532017","name":"Mittenaar","type":"Kreisangehörige_Gemeinde"},"district":{"key":"06532","name":"Lahn-Dill-Kreis","type":"Landkreis"},"federalState":{"key":"06","name":"Hessen"}},{"name":"Vor der Ley","postalCode":"35756","locality":"Mittenaar","municipality":{"key":"06532017","name":"Mittenaar","type":"Kreisangehörige_Gemeinde"},"district":{"key":"06532","name":"Lahn-Dill-Kreis","type":"Landkreis"},"federalState":{"key":"06","name":"Hessen"}},{"name":"Waldstr.","postalCode":"35756","locality":"Mittenaar","municipality":{"key":"06532017","name":"Mittenaar","type":"Kreisangehörige_Gemeinde"},"district":{"key":"06532","name":"Lahn-Dill-Kreis","type":"Landkreis"},"federalState":{"key":"06","name":"Hessen"}},{"name":"Weiherbachstr.","postalCode":"35756","locality":"Mittenaar","municipality":{"key":"06532017","name":"Mittenaar","type":"Kreisangehörige_Gemeinde"},"district":{"key":"06532","name":"Lahn-Dill-Kreis","type":"Landkreis"},"federalState":{"key":"06","name":"Hessen"}},{"name":"Wetzlarer Str.","postalCode":"35756","locality":"Mittenaar","municipality":{"key":"06532017","name":"Mittenaar","type":"Kreisangehörige_Gemeinde"},"district":{"key":"06532","name":"Lahn-Dill-Kreis","type":"Landkreis"},"federalState":{"key":"06","name":"Hessen"}},{"name":"Wiesenstr.","postalCode":"35756","locality":"Mittenaar","municipality":{"key":"06532017","name":"Mittenaar","type":"Kreisangehörige_Gemeinde"},"district":{"key":"06532","name":"Lahn-Dill-Kreis","type":"Landkreis"},"federalState":{"key":"06","name":"Hessen"}},{"name":"Wörbelbergstr.","postalCode":"35756","locality":"Mittenaar","municipality":{"key":"06532017","name":"Mittenaar","type":"Kreisangehörige_Gemeinde"},"district":{"key":"06532","name":"Lahn-Dill-Kreis","type":"Landkreis"},"federalState":{"key":"06","name":"Hessen"}},{"name":"Zum Weißen Stein","postalCode":"35756","locality":"Mittenaar","municipality":{"key":"06532017","name":"Mittenaar","type":"Kreisangehörige_Gemeinde"},"district":{"key":"06532","name":"Lahn-Dill-Kreis","type":"Landkreis"},"federalState":{"key":"06","name":"Hessen"}},{"name":"Zur Hohl","postalCode":"35756","locality":"Mittenaar","municipality":{"key":"06532017","name":"Mittenaar","type":"Kreisangehörige_Gemeinde"},"district":{"key":"06532","name":"Lahn-Dill-Kreis","type":"Landkreis"},"federalState":{"key":"06","name":"Hessen"}},]