[{"key":"10097255","name":"Aeulistrasse","postalCode":"8570","locality":"Weinfelden","commune":{"key":"4946","name":"Weinfelden","shortName":"Weinfelden"},"district":{"key":"2015","name":"Bezirk Weinfelden"},"canton":{"key":"20","code":"TG","name":"Thurgau"},"status":"Real"},{"key":"10188973","name":"Alfred-Huggenberger-Strasse","postalCode":"8570","locality":"Weinfelden","commune":{"key":"4946","name":"Weinfelden","shortName":"Weinfelden"},"district":{"key":"2015","name":"Bezirk Weinfelden"},"canton":{"key":"20","code":"TG","name":"Thurgau"},"status":"Real"},{"key":"10043010","name":"Allenbergweg","postalCode":"8570","locality":"Weinfelden","commune":{"key":"4946","name":"Weinfelden","shortName":"Weinfelden"},"district":{"key":"2015","name":"Bezirk Weinfelden"},"canton":{"key":"20","code":"TG","name":"Thurgau"},"status":"Real"},{"key":"10177934","name":"Alp","postalCode":"8570","locality":"Weinfelden","commune":{"key":"4946","name":"Weinfelden","shortName":"Weinfelden"},"district":{"key":"2015","name":"Bezirk Weinfelden"},"canton":{"key":"20","code":"TG","name":"Thurgau"},"status":"Real"},{"key":"10043011","name":"Alpsteinstrasse","postalCode":"8570","locality":"Weinfelden","commune":{"key":"4946","name":"Weinfelden","shortName":"Weinfelden"},"district":{"key":"2015","name":"Bezirk Weinfelden"},"canton":{"key":"20","code":"TG","name":"Thurgau"},"status":"Real"},{"key":"10097256","name":"Amriswilerstrasse","postalCode":"8570","locality":"Weinfelden","commune":{"key":"4946","name":"Weinfelden","shortName":"Weinfelden"},"district":{"key":"2015","name":"Bezirk Weinfelden"},"canton":{"key":"20","code":"TG","name":"Thurgau"},"status":"Real"},{"key":"10043012","name":"Amselweg","postalCode":"8570","locality":"Weinfelden","commune":{"key":"4946","name":"Weinfelden","shortName":"Weinfelden"},"district":{"key":"2015","name":"Bezirk Weinfelden"},"canton":{"key":"20","code":"TG","name":"Thurgau"},"status":"Real"},{"key":"10152854","name":"Aspistrasse","postalCode":"8570","locality":"Weinfelden","commune":{"key":"4946","name":"Weinfelden","shortName":"Weinfelden"},"district":{"key":"2015","name":"Bezirk Weinfelden"},"canton":{"key":"20","code":"TG","name":"Thurgau"},"status":"Real"},{"key":"10177924","name":"Austrasse","postalCode":"8570","locality":"Weinfelden","commune":{"key":"4946","name":"Weinfelden","shortName":"Weinfelden"},"district":{"key":"2015","name":"Bezirk Weinfelden"},"canton":{"key":"20","code":"TG","name":"Thurgau"},"status":"Real"},{"key":"10097254","name":"Bachtobelstrasse","postalCode":"8570","locality":"Weinfelden","commune":{"key":"4946","name":"Weinfelden","shortName":"Weinfelden"},"district":{"key":"2015","name":"Bezirk Weinfelden"},"canton":{"key":"20","code":"TG","name":"Thurgau"},"status":"Real"},{"key":"10043013","name":"Badstubenweg","postalCode":"8570","locality":"Weinfelden","commune":{"key":"4946","name":"Weinfelden","shortName":"Weinfelden"},"district":{"key":"2015","name":"Bezirk Weinfelden"},"canton":{"key":"20","code":"TG","name":"Thurgau"},"status":"Real"},{"key":"10043014","name":"Bahnhofstrasse","postalCode":"8570","locality":"Weinfelden","commune":{"key":"4946","name":"Weinfelden","shortName":"Weinfelden"},"district":{"key":"2015","name":"Bezirk Weinfelden"},"canton":{"key":"20","code":"TG","name":"Thurgau"},"status":"Real"},{"key":"10215354","name":"Bahnweg","postalCode":"8570","locality":"Weinfelden","commune":{"key":"4946","name":"Weinfelden","shortName":"Weinfelden"},"district":{"key":"2015","name":"Bezirk Weinfelden"},"canton":{"key":"20","code":"TG","name":"Thurgau"},"status":"Real"},{"key":"10136185","name":"Bankplatz","postalCode":"8570","locality":"Weinfelden","commune":{"key":"4946","name":"Weinfelden","shortName":"Weinfelden"},"district":{"key":"2015","name":"Bezirk Weinfelden"},"canton":{"key":"20","code":"TG","name":"Thurgau"},"status":"Real"},{"key":"10097257","name":"Bankstrasse","postalCode":"8570","locality":"Weinfelden","commune":{"key":"4946","name":"Weinfelden","shortName":"Weinfelden"},"district":{"key":"2015","name":"Bezirk Weinfelden"},"canton":{"key":"20","code":"TG","name":"Thurgau"},"status":"Real"},{"key":"10110036","name":"Bannaustrasse","postalCode":"8570","locality":"Weinfelden","commune":{"key":"4946","name":"Weinfelden","shortName":"Weinfelden"},"district":{"key":"2015","name":"Bezirk Weinfelden"},"canton":{"key":"20","code":"TG","name":"Thurgau"},"status":"Real"},{"key":"10159485","name":"Bergerstrasse","postalCode":"8570","locality":"Weinfelden","commune":{"key":"4946","name":"Weinfelden","shortName":"Weinfelden"},"district":{"key":"2015","name":"Bezirk Weinfelden"},"canton":{"key":"20","code":"TG","name":"Thurgau"},"status":"Real"},{"key":"10063722","name":"Bettelbrünneliweg","postalCode":"8570","locality":"Weinfelden","commune":{"key":"4946","name":"Weinfelden","shortName":"Weinfelden"},"district":{"key":"2015","name":"Bezirk Weinfelden"},"canton":{"key":"20","code":"TG","name":"Thurgau"},"status":"Real"},{"key":"10043015","name":"Bienenstrasse","postalCode":"8570","locality":"Weinfelden","commune":{"key":"4946","name":"Weinfelden","shortName":"Weinfelden"},"district":{"key":"2015","name":"Bezirk Weinfelden"},"canton":{"key":"20","code":"TG","name":"Thurgau"},"status":"Real"},{"key":"10092658","name":"Bleichestrasse","postalCode":"8570","locality":"Weinfelden","commune":{"key":"4946","name":"Weinfelden","shortName":"Weinfelden"},"district":{"key":"2015","name":"Bezirk Weinfelden"},"canton":{"key":"20","code":"TG","name":"Thurgau"},"status":"Real"},{"key":"10150864","name":"Bodenfeldstrasse","postalCode":"8570","locality":"Weinfelden","commune":{"key":"4946","name":"Weinfelden","shortName":"Weinfelden"},"district":{"key":"2015","name":"Bezirk Weinfelden"},"canton":{"key":"20","code":"TG","name":"Thurgau"},"status":"Real"},{"key":"10043008","name":"Boltshauserstrasse","postalCode":"8570","locality":"Weinfelden","commune":{"key":"4946","name":"Weinfelden","shortName":"Weinfelden"},"district":{"key":"2015","name":"Bezirk Weinfelden"},"canton":{"key":"20","code":"TG","name":"Thurgau"},"status":"Real"},{"key":"10043016","name":"Brauereistrasse","postalCode":"8570","locality":"Weinfelden","commune":{"key":"4946","name":"Weinfelden","shortName":"Weinfelden"},"district":{"key":"2015","name":"Bezirk Weinfelden"},"canton":{"key":"20","code":"TG","name":"Thurgau"},"status":"Real"},{"key":"10204828","name":"Breitenstrasse","postalCode":"8570","locality":"Weinfelden","commune":{"key":"4946","name":"Weinfelden","shortName":"Weinfelden"},"district":{"key":"2015","name":"Bezirk Weinfelden"},"canton":{"key":"20","code":"TG","name":"Thurgau"},"status":"Real"},{"key":"10201803","name":"Breitwide","postalCode":"8570","locality":"Weinfelden","commune":{"key":"4946","name":"Weinfelden","shortName":"Weinfelden"},"district":{"key":"2015","name":"Bezirk Weinfelden"},"canton":{"key":"20","code":"TG","name":"Thurgau"},"status":"Real"},{"key":"10200988","name":"Brugge","postalCode":"8570","locality":"Weinfelden","commune":{"key":"4946","name":"Weinfelden","shortName":"Weinfelden"},"district":{"key":"2015","name":"Bezirk Weinfelden"},"canton":{"key":"20","code":"TG","name":"Thurgau"},"status":"Real"},{"key":"10043017","name":"Bründlerbergstrasse","postalCode":"8570","locality":"Weinfelden","commune":{"key":"4946","name":"Weinfelden","shortName":"Weinfelden"},"district":{"key":"2015","name":"Bezirk Weinfelden"},"canton":{"key":"20","code":"TG","name":"Thurgau"},"status":"Real"},{"key":"10159586","name":"Brunnenwiesenstrasse","postalCode":"8570","locality":"Weinfelden","commune":{"key":"4946","name":"Weinfelden","shortName":"Weinfelden"},"district":{"key":"2015","name":"Bezirk Weinfelden"},"canton":{"key":"20","code":"TG","name":"Thurgau"},"status":"Real"},{"key":"10043018","name":"Bürglenstrasse","postalCode":"8570","locality":"Weinfelden","commune":{"key":"4946","name":"Weinfelden","shortName":"Weinfelden"},"district":{"key":"2015","name":"Bezirk Weinfelden"},"canton":{"key":"20","code":"TG","name":"Thurgau"},"status":"Real"},{"key":"10092659","name":"Burgstrasse","postalCode":"8570","locality":"Weinfelden","commune":{"key":"4946","name":"Weinfelden","shortName":"Weinfelden"},"district":{"key":"2015","name":"Bezirk Weinfelden"},"canton":{"key":"20","code":"TG","name":"Thurgau"},"status":"Real"},{"key":"10102938","name":"Burgweg","postalCode":"8570","locality":"Weinfelden","commune":{"key":"4946","name":"Weinfelden","shortName":"Weinfelden"},"district":{"key":"2015","name":"Bezirk Weinfelden"},"canton":{"key":"20","code":"TG","name":"Thurgau"},"status":"Real"},{"key":"10177925","name":"Burgwiesenstrasse","postalCode":"8570","locality":"Weinfelden","commune":{"key":"4946","name":"Weinfelden","shortName":"Weinfelden"},"district":{"key":"2015","name":"Bezirk Weinfelden"},"canton":{"key":"20","code":"TG","name":"Thurgau"},"status":"Real"},{"key":"10237891","name":"Bussnangerweg","postalCode":"8570","locality":"Weinfelden","commune":{"key":"4946","name":"Weinfelden","shortName":"Weinfelden"},"district":{"key":"2015","name":"Bezirk Weinfelden"},"canton":{"key":"20","code":"TG","name":"Thurgau"},"status":"Real"},{"key":"10092660","name":"Dahlienweg","postalCode":"8570","locality":"Weinfelden","commune":{"key":"4946","name":"Weinfelden","shortName":"Weinfelden"},"district":{"key":"2015","name":"Bezirk Weinfelden"},"canton":{"key":"20","code":"TG","name":"Thurgau"},"status":"Real"},{"key":"10195856","name":"Dammstrasse","postalCode":"8570","locality":"Weinfelden","commune":{"key":"4946","name":"Weinfelden","shortName":"Weinfelden"},"district":{"key":"2015","name":"Bezirk Weinfelden"},"canton":{"key":"20","code":"TG","name":"Thurgau"},"status":"Real"},{"key":"10063723","name":"Deucherstrasse","postalCode":"8570","locality":"Weinfelden","commune":{"key":"4946","name":"Weinfelden","shortName":"Weinfelden"},"district":{"key":"2015","name":"Bezirk Weinfelden"},"canton":{"key":"20","code":"TG","name":"Thurgau"},"status":"Real"},{"key":"10043019","name":"Distelstrasse","postalCode":"8570","locality":"Weinfelden","commune":{"key":"4946","name":"Weinfelden","shortName":"Weinfelden"},"district":{"key":"2015","name":"Bezirk Weinfelden"},"canton":{"key":"20","code":"TG","name":"Thurgau"},"status":"Real"},{"key":"10057996","name":"Dorfstrasse","postalCode":"8570","locality":"Weinfelden","commune":{"key":"4946","name":"Weinfelden","shortName":"Weinfelden"},"district":{"key":"2015","name":"Bezirk Weinfelden"},"canton":{"key":"20","code":"TG","name":"Thurgau"},"status":"Real"},{"key":"10169075","name":"Drosselweg","postalCode":"8570","locality":"Weinfelden","commune":{"key":"4946","name":"Weinfelden","shortName":"Weinfelden"},"district":{"key":"2015","name":"Bezirk Weinfelden"},"canton":{"key":"20","code":"TG","name":"Thurgau"},"status":"Real"},{"key":"10043020","name":"Dufourstrasse","postalCode":"8570","locality":"Weinfelden","commune":{"key":"4946","name":"Weinfelden","shortName":"Weinfelden"},"district":{"key":"2015","name":"Bezirk Weinfelden"},"canton":{"key":"20","code":"TG","name":"Thurgau"},"status":"Real"},{"key":"10092661","name":"Dunantstrasse","postalCode":"8570","locality":"Weinfelden","commune":{"key":"4946","name":"Weinfelden","shortName":"Weinfelden"},"district":{"key":"2015","name":"Bezirk Weinfelden"},"canton":{"key":"20","code":"TG","name":"Thurgau"},"status":"Real"},{"key":"10043021","name":"Egelseestrasse","postalCode":"8570","locality":"Weinfelden","commune":{"key":"4946","name":"Weinfelden","shortName":"Weinfelden"},"district":{"key":"2015","name":"Bezirk Weinfelden"},"canton":{"key":"20","code":"TG","name":"Thurgau"},"status":"Real"},{"key":"10043022","name":"Eierlenstrasse","postalCode":"8570","locality":"Weinfelden","commune":{"key":"4946","name":"Weinfelden","shortName":"Weinfelden"},"district":{"key":"2015","name":"Bezirk Weinfelden"},"canton":{"key":"20","code":"TG","name":"Thurgau"},"status":"Real"},{"key":"10172307","name":"Einfangstrasse","postalCode":"8570","locality":"Weinfelden","commune":{"key":"4946","name":"Weinfelden","shortName":"Weinfelden"},"district":{"key":"2015","name":"Bezirk Weinfelden"},"canton":{"key":"20","code":"TG","name":"Thurgau"},"status":"Real"},{"key":"10237892","name":"Elblingweg","postalCode":"8570","locality":"Weinfelden","commune":{"key":"4946","name":"Weinfelden","shortName":"Weinfelden"},"district":{"key":"2015","name":"Bezirk Weinfelden"},"canton":{"key":"20","code":"TG","name":"Thurgau"},"status":"Real"},{"key":"10195570","name":"Enggässliweg","postalCode":"8570","locality":"Weinfelden","commune":{"key":"4946","name":"Weinfelden","shortName":"Weinfelden"},"district":{"key":"2015","name":"Bezirk Weinfelden"},"canton":{"key":"20","code":"TG","name":"Thurgau"},"status":"Real"},{"key":"10237893","name":"Exerzierplatz","postalCode":"8570","locality":"Weinfelden","commune":{"key":"4946","name":"Weinfelden","shortName":"Weinfelden"},"district":{"key":"2015","name":"Bezirk Weinfelden"},"canton":{"key":"20","code":"TG","name":"Thurgau"},"status":"Real"},{"key":"10215357","name":"Fabrikstrasse","postalCode":"8570","locality":"Weinfelden","commune":{"key":"4946","name":"Weinfelden","shortName":"Weinfelden"},"district":{"key":"2015","name":"Bezirk Weinfelden"},"canton":{"key":"20","code":"TG","name":"Thurgau"},"status":"Real"},{"key":"10127771","name":"Falkenstrasse","postalCode":"8570","locality":"Weinfelden","commune":{"key":"4946","name":"Weinfelden","shortName":"Weinfelden"},"district":{"key":"2015","name":"Bezirk Weinfelden"},"canton":{"key":"20","code":"TG","name":"Thurgau"},"status":"Real"},{"key":"10092662","name":"Fallenwiesenstrasse","postalCode":"8570","locality":"Weinfelden","commune":{"key":"4946","name":"Weinfelden","shortName":"Weinfelden"},"district":{"key":"2015","name":"Bezirk Weinfelden"},"canton":{"key":"20","code":"TG","name":"Thurgau"},"status":"Real"},{"key":"10043023","name":"Feldhofstrasse","postalCode":"8570","locality":"Weinfelden","commune":{"key":"4946","name":"Weinfelden","shortName":"Weinfelden"},"district":{"key":"2015","name":"Bezirk Weinfelden"},"canton":{"key":"20","code":"TG","name":"Thurgau"},"status":"Real"},{"key":"10043024","name":"Felsenstrasse","postalCode":"8570","locality":"Weinfelden","commune":{"key":"4946","name":"Weinfelden","shortName":"Weinfelden"},"district":{"key":"2015","name":"Bezirk Weinfelden"},"canton":{"key":"20","code":"TG","name":"Thurgau"},"status":"Real"},{"key":"10177926","name":"Feststrasse","postalCode":"8570","locality":"Weinfelden","commune":{"key":"4946","name":"Weinfelden","shortName":"Weinfelden"},"district":{"key":"2015","name":"Bezirk Weinfelden"},"canton":{"key":"20","code":"TG","name":"Thurgau"},"status":"Real"},{"key":"10063724","name":"Fichtenstrasse","postalCode":"8570","locality":"Weinfelden","commune":{"key":"4946","name":"Weinfelden","shortName":"Weinfelden"},"district":{"key":"2015","name":"Bezirk Weinfelden"},"canton":{"key":"20","code":"TG","name":"Thurgau"},"status":"Real"},{"key":"10092663","name":"Florastrasse","postalCode":"8570","locality":"Weinfelden","commune":{"key":"4946","name":"Weinfelden","shortName":"Weinfelden"},"district":{"key":"2015","name":"Bezirk Weinfelden"},"canton":{"key":"20","code":"TG","name":"Thurgau"},"status":"Real"},{"key":"10194425","name":"Fohlenweide","postalCode":"8570","locality":"Weinfelden","commune":{"key":"4946","name":"Weinfelden","shortName":"Weinfelden"},"district":{"key":"2015","name":"Bezirk Weinfelden"},"canton":{"key":"20","code":"TG","name":"Thurgau"},"status":"Real"},{"key":"10043025","name":"Fohlenweidweg","postalCode":"8570","locality":"Weinfelden","commune":{"key":"4946","name":"Weinfelden","shortName":"Weinfelden"},"district":{"key":"2015","name":"Bezirk Weinfelden"},"canton":{"key":"20","code":"TG","name":"Thurgau"},"status":"Real"},{"key":"10196808","name":"Franziskus-Weg","postalCode":"8570","locality":"Weinfelden","commune":{"key":"4946","name":"Weinfelden","shortName":"Weinfelden"},"district":{"key":"2015","name":"Bezirk Weinfelden"},"canton":{"key":"20","code":"TG","name":"Thurgau"},"status":"Real"},{"key":"10043026","name":"Frauenfelderstrasse","postalCode":"8570","locality":"Weinfelden","commune":{"key":"4946","name":"Weinfelden","shortName":"Weinfelden"},"district":{"key":"2015","name":"Bezirk Weinfelden"},"canton":{"key":"20","code":"TG","name":"Thurgau"},"status":"Real"},{"key":"10043027","name":"Freiestrasse","postalCode":"8570","locality":"Weinfelden","commune":{"key":"4946","name":"Weinfelden","shortName":"Weinfelden"},"district":{"key":"2015","name":"Bezirk Weinfelden"},"canton":{"key":"20","code":"TG","name":"Thurgau"},"status":"Real"},{"key":"10063725","name":"Freudigerweg","postalCode":"8570","locality":"Weinfelden","commune":{"key":"4946","name":"Weinfelden","shortName":"Weinfelden"},"district":{"key":"2015","name":"Bezirk Weinfelden"},"canton":{"key":"20","code":"TG","name":"Thurgau"},"status":"Real"},{"key":"10122966","name":"Friedhofstrasse","postalCode":"8570","locality":"Weinfelden","commune":{"key":"4946","name":"Weinfelden","shortName":"Weinfelden"},"district":{"key":"2015","name":"Bezirk Weinfelden"},"canton":{"key":"20","code":"TG","name":"Thurgau"},"status":"Real"},{"key":"10063726","name":"Gäbrisstrasse","postalCode":"8570","locality":"Weinfelden","commune":{"key":"4946","name":"Weinfelden","shortName":"Weinfelden"},"district":{"key":"2015","name":"Bezirk Weinfelden"},"canton":{"key":"20","code":"TG","name":"Thurgau"},"status":"Real"},{"key":"10048962","name":"Gartenstrasse","postalCode":"8570","locality":"Weinfelden","commune":{"key":"4946","name":"Weinfelden","shortName":"Weinfelden"},"district":{"key":"2015","name":"Bezirk Weinfelden"},"canton":{"key":"20","code":"TG","name":"Thurgau"},"status":"Real"},{"key":"10215361","name":"Gartewegli","postalCode":"8570","locality":"Weinfelden","commune":{"key":"4946","name":"Weinfelden","shortName":"Weinfelden"},"district":{"key":"2015","name":"Bezirk Weinfelden"},"canton":{"key":"20","code":"TG","name":"Thurgau"},"status":"Real"},{"key":"10116521","name":"Gässliweg","postalCode":"8570","locality":"Weinfelden","commune":{"key":"4946","name":"Weinfelden","shortName":"Weinfelden"},"district":{"key":"2015","name":"Bezirk Weinfelden"},"canton":{"key":"20","code":"TG","name":"Thurgau"},"status":"Real"},{"key":"10092664","name":"Gaswerkstrasse","postalCode":"8570","locality":"Weinfelden","commune":{"key":"4946","name":"Weinfelden","shortName":"Weinfelden"},"district":{"key":"2015","name":"Bezirk Weinfelden"},"canton":{"key":"20","code":"TG","name":"Thurgau"},"status":"Real"},{"key":"10201819","name":"Geere","postalCode":"8570","locality":"Weinfelden","commune":{"key":"4946","name":"Weinfelden","shortName":"Weinfelden"},"district":{"key":"2015","name":"Bezirk Weinfelden"},"canton":{"key":"20","code":"TG","name":"Thurgau"},"status":"Real"},{"key":"10043028","name":"Gerbergässli","postalCode":"8570","locality":"Weinfelden","commune":{"key":"4946","name":"Weinfelden","shortName":"Weinfelden"},"district":{"key":"2015","name":"Bezirk Weinfelden"},"canton":{"key":"20","code":"TG","name":"Thurgau"},"status":"Real"},{"key":"10043029","name":"Giessenweg","postalCode":"8570","locality":"Weinfelden","commune":{"key":"4946","name":"Weinfelden","shortName":"Weinfelden"},"district":{"key":"2015","name":"Bezirk Weinfelden"},"canton":{"key":"20","code":"TG","name":"Thurgau"},"status":"Real"},{"key":"10048963","name":"Gontershofenstrasse","postalCode":"8570","locality":"Weinfelden","commune":{"key":"4946","name":"Weinfelden","shortName":"Weinfelden"},"district":{"key":"2015","name":"Bezirk Weinfelden"},"canton":{"key":"20","code":"TG","name":"Thurgau"},"status":"Real"},{"key":"10195519","name":"Groosswise","postalCode":"8570","locality":"Weinfelden","commune":{"key":"4946","name":"Weinfelden","shortName":"Weinfelden"},"district":{"key":"2015","name":"Bezirk Weinfelden"},"canton":{"key":"20","code":"TG","name":"Thurgau"},"status":"Real"},{"key":"10043030","name":"Guisanstrasse","postalCode":"8570","locality":"Weinfelden","commune":{"key":"4946","name":"Weinfelden","shortName":"Weinfelden"},"district":{"key":"2015","name":"Bezirk Weinfelden"},"canton":{"key":"20","code":"TG","name":"Thurgau"},"status":"Real"},{"key":"10048964","name":"Hagholzstrasse","postalCode":"8570","locality":"Weinfelden","commune":{"key":"4946","name":"Weinfelden","shortName":"Weinfelden"},"district":{"key":"2015","name":"Bezirk Weinfelden"},"canton":{"key":"20","code":"TG","name":"Thurgau"},"status":"Real"},{"key":"10092665","name":"Hardstrasse","postalCode":"8570","locality":"Weinfelden","commune":{"key":"4946","name":"Weinfelden","shortName":"Weinfelden"},"district":{"key":"2015","name":"Bezirk Weinfelden"},"canton":{"key":"20","code":"TG","name":"Thurgau"},"status":"Real"},{"key":"10043033","name":"Härigstrasse","postalCode":"8570","locality":"Weinfelden","commune":{"key":"4946","name":"Weinfelden","shortName":"Weinfelden"},"district":{"key":"2015","name":"Bezirk Weinfelden"},"canton":{"key":"20","code":"TG","name":"Thurgau"},"status":"Real"},{"key":"10195571","name":"Hau","postalCode":"8570","locality":"Weinfelden","commune":{"key":"4946","name":"Weinfelden","shortName":"Weinfelden"},"district":{"key":"2015","name":"Bezirk Weinfelden"},"canton":{"key":"20","code":"TG","name":"Thurgau"},"status":"Real"},{"key":"10177927","name":"Haustrasse","postalCode":"8570","locality":"Weinfelden","commune":{"key":"4946","name":"Weinfelden","shortName":"Weinfelden"},"district":{"key":"2015","name":"Bezirk Weinfelden"},"canton":{"key":"20","code":"TG","name":"Thurgau"},"status":"Real"},{"key":"10048965","name":"Heimstrasse","postalCode":"8570","locality":"Weinfelden","commune":{"key":"4946","name":"Weinfelden","shortName":"Weinfelden"},"district":{"key":"2015","name":"Bezirk Weinfelden"},"canton":{"key":"20","code":"TG","name":"Thurgau"},"status":"Real"},{"key":"10043031","name":"Hermannstrasse","postalCode":"8570","locality":"Weinfelden","commune":{"key":"4946","name":"Weinfelden","shortName":"Weinfelden"},"district":{"key":"2015","name":"Bezirk Weinfelden"},"canton":{"key":"20","code":"TG","name":"Thurgau"},"status":"Real"},{"key":"10147696","name":"Himmelreich","postalCode":"8570","locality":"Weinfelden","commune":{"key":"4946","name":"Weinfelden","shortName":"Weinfelden"},"district":{"key":"2015","name":"Bezirk Weinfelden"},"canton":{"key":"20","code":"TG","name":"Thurgau"},"status":"Real"},{"key":"10063727","name":"Himmenreichstrasse","postalCode":"8570","locality":"Weinfelden","commune":{"key":"4946","name":"Weinfelden","shortName":"Weinfelden"},"district":{"key":"2015","name":"Bezirk Weinfelden"},"canton":{"key":"20","code":"TG","name":"Thurgau"},"status":"Real"},{"key":"10190674","name":"Hofackerstrasse","postalCode":"8570","locality":"Weinfelden","commune":{"key":"4946","name":"Weinfelden","shortName":"Weinfelden"},"district":{"key":"2015","name":"Bezirk Weinfelden"},"canton":{"key":"20","code":"TG","name":"Thurgau"},"status":"Real"},{"key":"10096926","name":"Höggershard","postalCode":"8570","locality":"Weinfelden","commune":{"key":"4946","name":"Weinfelden","shortName":"Weinfelden"},"district":{"key":"2015","name":"Bezirk Weinfelden"},"canton":{"key":"20","code":"TG","name":"Thurgau"},"status":"Real"},{"key":"10121341","name":"Hohlweg","postalCode":"8570","locality":"Weinfelden","commune":{"key":"4946","name":"Weinfelden","shortName":"Weinfelden"},"district":{"key":"2015","name":"Bezirk Weinfelden"},"canton":{"key":"20","code":"TG","name":"Thurgau"},"status":"Real"},{"key":"10043032","name":"Holderenweg","postalCode":"8570","locality":"Weinfelden","commune":{"key":"4946","name":"Weinfelden","shortName":"Weinfelden"},"district":{"key":"2015","name":"Bezirk Weinfelden"},"canton":{"key":"20","code":"TG","name":"Thurgau"},"status":"Real"},{"key":"10186566","name":"Hubgasse","postalCode":"8570","locality":"Weinfelden","commune":{"key":"4946","name":"Weinfelden","shortName":"Weinfelden"},"district":{"key":"2015","name":"Bezirk Weinfelden"},"canton":{"key":"20","code":"TG","name":"Thurgau"},"status":"Real"},{"key":"10043034","name":"Ifangweg","postalCode":"8570","locality":"Weinfelden","commune":{"key":"4946","name":"Weinfelden","shortName":"Weinfelden"},"district":{"key":"2015","name":"Bezirk Weinfelden"},"canton":{"key":"20","code":"TG","name":"Thurgau"},"status":"Real"},{"key":"10180153","name":"Im Mötteli","postalCode":"8570","locality":"Weinfelden","commune":{"key":"4946","name":"Weinfelden","shortName":"Weinfelden"},"district":{"key":"2015","name":"Bezirk Weinfelden"},"canton":{"key":"20","code":"TG","name":"Thurgau"},"status":"Real"},{"key":"10153455","name":"Im Roos","postalCode":"8570","locality":"Weinfelden","commune":{"key":"4946","name":"Weinfelden","shortName":"Weinfelden"},"district":{"key":"2015","name":"Bezirk Weinfelden"},"canton":{"key":"20","code":"TG","name":"Thurgau"},"status":"Real"},{"key":"10134514","name":"Im Schachen","postalCode":"8570","locality":"Weinfelden","commune":{"key":"4946","name":"Weinfelden","shortName":"Weinfelden"},"district":{"key":"2015","name":"Bezirk Weinfelden"},"canton":{"key":"20","code":"TG","name":"Thurgau"},"status":"Real"},{"key":"10043035","name":"Im Sefi","postalCode":"8570","locality":"Weinfelden","commune":{"key":"4946","name":"Weinfelden","shortName":"Weinfelden"},"district":{"key":"2015","name":"Bezirk Weinfelden"},"canton":{"key":"20","code":"TG","name":"Thurgau"},"status":"Real"},{"key":"10063728","name":"Im Sonnenwinkel","postalCode":"8570","locality":"Weinfelden","commune":{"key":"4946","name":"Weinfelden","shortName":"Weinfelden"},"district":{"key":"2015","name":"Bezirk Weinfelden"},"canton":{"key":"20","code":"TG","name":"Thurgau"},"status":"Real"},{"key":"10092666","name":"Im Thurland","postalCode":"8570","locality":"Weinfelden","commune":{"key":"4946","name":"Weinfelden","shortName":"Weinfelden"},"district":{"key":"2015","name":"Bezirk Weinfelden"},"canton":{"key":"20","code":"TG","name":"Thurgau"},"status":"Real"},{"key":"10048966","name":"Industriestrasse","postalCode":"8570","locality":"Weinfelden","commune":{"key":"4946","name":"Weinfelden","shortName":"Weinfelden"},"district":{"key":"2015","name":"Bezirk Weinfelden"},"canton":{"key":"20","code":"TG","name":"Thurgau"},"status":"Real"},{"key":"10248183","name":"Johanna-Meyerhans-Strasse","postalCode":"8570","locality":"Weinfelden","commune":{"key":"4946","name":"Weinfelden","shortName":"Weinfelden"},"district":{"key":"2015","name":"Bezirk Weinfelden"},"canton":{"key":"20","code":"TG","name":"Thurgau"},"status":"Real"},{"key":"10043036","name":"Kamorstrasse","postalCode":"8570","locality":"Weinfelden","commune":{"key":"4946","name":"Weinfelden","shortName":"Weinfelden"},"district":{"key":"2015","name":"Bezirk Weinfelden"},"canton":{"key":"20","code":"TG","name":"Thurgau"},"status":"Real"},{"key":"10215365","name":"Kanalstrasse","postalCode":"8570","locality":"Weinfelden","commune":{"key":"4946","name":"Weinfelden","shortName":"Weinfelden"},"district":{"key":"2015","name":"Bezirk Weinfelden"},"canton":{"key":"20","code":"TG","name":"Thurgau"},"status":"Real"},{"key":"10177928","name":"Kappelerweg","postalCode":"8570","locality":"Weinfelden","commune":{"key":"4946","name":"Weinfelden","shortName":"Weinfelden"},"district":{"key":"2015","name":"Bezirk Weinfelden"},"canton":{"key":"20","code":"TG","name":"Thurgau"},"status":"Real"},{"key":"10092667","name":"Kirchgasse","postalCode":"8570","locality":"Weinfelden","commune":{"key":"4946","name":"Weinfelden","shortName":"Weinfelden"},"district":{"key":"2015","name":"Bezirk Weinfelden"},"canton":{"key":"20","code":"TG","name":"Thurgau"},"status":"Real"},{"key":"10048967","name":"Kleestrasse","postalCode":"8570","locality":"Weinfelden","commune":{"key":"4946","name":"Weinfelden","shortName":"Weinfelden"},"district":{"key":"2015","name":"Bezirk Weinfelden"},"canton":{"key":"20","code":"TG","name":"Thurgau"},"status":"Real"},{"key":"10063729","name":"Kleiberstrasse","postalCode":"8570","locality":"Weinfelden","commune":{"key":"4946","name":"Weinfelden","shortName":"Weinfelden"},"district":{"key":"2015","name":"Bezirk Weinfelden"},"canton":{"key":"20","code":"TG","name":"Thurgau"},"status":"Real"},{"key":"10215369","name":"Konstanzerstrasse","postalCode":"8570","locality":"Weinfelden","commune":{"key":"4946","name":"Weinfelden","shortName":"Weinfelden"},"district":{"key":"2015","name":"Bezirk Weinfelden"},"canton":{"key":"20","code":"TG","name":"Thurgau"},"status":"Real"},{"key":"10043037","name":"Kreuzlingerstrasse","postalCode":"8570","locality":"Weinfelden","commune":{"key":"4946","name":"Weinfelden","shortName":"Weinfelden"},"district":{"key":"2015","name":"Bezirk Weinfelden"},"canton":{"key":"20","code":"TG","name":"Thurgau"},"status":"Real"},{"key":"10237894","name":"Krollenwiesstrasse","postalCode":"8570","locality":"Weinfelden","commune":{"key":"4946","name":"Weinfelden","shortName":"Weinfelden"},"district":{"key":"2015","name":"Bezirk Weinfelden"},"canton":{"key":"20","code":"TG","name":"Thurgau"},"status":"Real"},{"key":"10101890","name":"Lagerstrasse","postalCode":"8570","locality":"Weinfelden","commune":{"key":"4946","name":"Weinfelden","shortName":"Weinfelden"},"district":{"key":"2015","name":"Bezirk Weinfelden"},"canton":{"key":"20","code":"TG","name":"Thurgau"},"status":"Real"},{"key":"10043038","name":"Langwiesenstrasse","postalCode":"8570","locality":"Weinfelden","commune":{"key":"4946","name":"Weinfelden","shortName":"Weinfelden"},"district":{"key":"2015","name":"Bezirk Weinfelden"},"canton":{"key":"20","code":"TG","name":"Thurgau"},"status":"Real"},{"key":"10201820","name":"Laulig","postalCode":"8570","locality":"Weinfelden","commune":{"key":"4946","name":"Weinfelden","shortName":"Weinfelden"},"district":{"key":"2015","name":"Bezirk Weinfelden"},"canton":{"key":"20","code":"TG","name":"Thurgau"},"status":"Real"},{"key":"10092668","name":"Lauligstrasse","postalCode":"8570","locality":"Weinfelden","commune":{"key":"4946","name":"Weinfelden","shortName":"Weinfelden"},"district":{"key":"2015","name":"Bezirk Weinfelden"},"canton":{"key":"20","code":"TG","name":"Thurgau"},"status":"Real"},{"key":"10049994","name":"Lerchenstrasse","postalCode":"8570","locality":"Weinfelden","commune":{"key":"4946","name":"Weinfelden","shortName":"Weinfelden"},"district":{"key":"2015","name":"Bezirk Weinfelden"},"canton":{"key":"20","code":"TG","name":"Thurgau"},"status":"Real"},{"key":"10044071","name":"Letzitobelstrasse","postalCode":"8570","locality":"Weinfelden","commune":{"key":"4946","name":"Weinfelden","shortName":"Weinfelden"},"district":{"key":"2015","name":"Bezirk Weinfelden"},"canton":{"key":"20","code":"TG","name":"Thurgau"},"status":"Real"},{"key":"10063730","name":"Letziweg","postalCode":"8570","locality":"Weinfelden","commune":{"key":"4946","name":"Weinfelden","shortName":"Weinfelden"},"district":{"key":"2015","name":"Bezirk Weinfelden"},"canton":{"key":"20","code":"TG","name":"Thurgau"},"status":"Real"},{"key":"10148032","name":"Leue","postalCode":"8570","locality":"Weinfelden","commune":{"key":"4946","name":"Weinfelden","shortName":"Weinfelden"},"district":{"key":"2015","name":"Bezirk Weinfelden"},"canton":{"key":"20","code":"TG","name":"Thurgau"},"status":"Real"},{"key":"10198168","name":"Leuestrasse","postalCode":"8570","locality":"Weinfelden","commune":{"key":"4946","name":"Weinfelden","shortName":"Weinfelden"},"district":{"key":"2015","name":"Bezirk Weinfelden"},"canton":{"key":"20","code":"TG","name":"Thurgau"},"status":"Real"},{"key":"10044072","name":"Leueweg","postalCode":"8570","locality":"Weinfelden","commune":{"key":"4946","name":"Weinfelden","shortName":"Weinfelden"},"district":{"key":"2015","name":"Bezirk Weinfelden"},"canton":{"key":"20","code":"TG","name":"Thurgau"},"status":"Real"},{"key":"10215372","name":"Lilienweg","postalCode":"8570","locality":"Weinfelden","commune":{"key":"4946","name":"Weinfelden","shortName":"Weinfelden"},"district":{"key":"2015","name":"Bezirk Weinfelden"},"canton":{"key":"20","code":"TG","name":"Thurgau"},"status":"Real"},{"key":"10115997","name":"Lindenstrasse","postalCode":"8570","locality":"Weinfelden","commune":{"key":"4946","name":"Weinfelden","shortName":"Weinfelden"},"district":{"key":"2015","name":"Bezirk Weinfelden"},"canton":{"key":"20","code":"TG","name":"Thurgau"},"status":"Real"},{"key":"10115196","name":"Magdenaustrasse","postalCode":"8570","locality":"Weinfelden","commune":{"key":"4946","name":"Weinfelden","shortName":"Weinfelden"},"district":{"key":"2015","name":"Bezirk Weinfelden"},"canton":{"key":"20","code":"TG","name":"Thurgau"},"status":"Real"},{"key":"10110037","name":"Maienrainstrasse","postalCode":"8570","locality":"Weinfelden","commune":{"key":"4946","name":"Weinfelden","shortName":"Weinfelden"},"district":{"key":"2015","name":"Bezirk Weinfelden"},"canton":{"key":"20","code":"TG","name":"Thurgau"},"status":"Real"},{"key":"10144833","name":"Malvenstrasse","postalCode":"8570","locality":"Weinfelden","commune":{"key":"4946","name":"Weinfelden","shortName":"Weinfelden"},"district":{"key":"2015","name":"Bezirk Weinfelden"},"canton":{"key":"20","code":"TG","name":"Thurgau"},"status":"Real"},{"key":"10104977","name":"Marktplatz","postalCode":"8570","locality":"Weinfelden","commune":{"key":"4946","name":"Weinfelden","shortName":"Weinfelden"},"district":{"key":"2015","name":"Bezirk Weinfelden"},"canton":{"key":"20","code":"TG","name":"Thurgau"},"status":"Real"},{"key":"10116522","name":"Marktstrasse","postalCode":"8570","locality":"Weinfelden","commune":{"key":"4946","name":"Weinfelden","shortName":"Weinfelden"},"district":{"key":"2015","name":"Bezirk Weinfelden"},"canton":{"key":"20","code":"TG","name":"Thurgau"},"status":"Real"},{"key":"10049995","name":"Meisenstrasse","postalCode":"8570","locality":"Weinfelden","commune":{"key":"4946","name":"Weinfelden","shortName":"Weinfelden"},"district":{"key":"2015","name":"Bezirk Weinfelden"},"canton":{"key":"20","code":"TG","name":"Thurgau"},"status":"Real"},{"key":"10195521","name":"Mittleri Wiide","postalCode":"8570","locality":"Weinfelden","commune":{"key":"4946","name":"Weinfelden","shortName":"Weinfelden"},"district":{"key":"2015","name":"Bezirk Weinfelden"},"canton":{"key":"20","code":"TG","name":"Thurgau"},"status":"Real"},{"key":"10069896","name":"Mohnstrasse","postalCode":"8570","locality":"Weinfelden","commune":{"key":"4946","name":"Weinfelden","shortName":"Weinfelden"},"district":{"key":"2015","name":"Bezirk Weinfelden"},"canton":{"key":"20","code":"TG","name":"Thurgau"},"status":"Real"},{"key":"10202196","name":"Muggenwinkelstrasse","postalCode":"8570","locality":"Weinfelden","commune":{"key":"4946","name":"Weinfelden","shortName":"Weinfelden"},"district":{"key":"2015","name":"Bezirk Weinfelden"},"canton":{"key":"20","code":"TG","name":"Thurgau"},"status":"Real"},{"key":"10044073","name":"Mühlebachstrasse","postalCode":"8570","locality":"Weinfelden","commune":{"key":"4946","name":"Weinfelden","shortName":"Weinfelden"},"district":{"key":"2015","name":"Bezirk Weinfelden"},"canton":{"key":"20","code":"TG","name":"Thurgau"},"status":"Real"},{"key":"10241754","name":"Mühle im Hard","postalCode":"8570","locality":"Weinfelden","commune":{"key":"4946","name":"Weinfelden","shortName":"Weinfelden"},"district":{"key":"2015","name":"Bezirk Weinfelden"},"canton":{"key":"20","code":"TG","name":"Thurgau"},"status":"Real"},{"key":"10092669","name":"Mühlfangstrasse","postalCode":"8570","locality":"Weinfelden","commune":{"key":"4946","name":"Weinfelden","shortName":"Weinfelden"},"district":{"key":"2015","name":"Bezirk Weinfelden"},"canton":{"key":"20","code":"TG","name":"Thurgau"},"status":"Real"},{"key":"10101891","name":"Nelkenstrasse","postalCode":"8570","locality":"Weinfelden","commune":{"key":"4946","name":"Weinfelden","shortName":"Weinfelden"},"district":{"key":"2015","name":"Bezirk Weinfelden"},"canton":{"key":"20","code":"TG","name":"Thurgau"},"status":"Real"},{"key":"10044074","name":"Neugutstrasse","postalCode":"8570","locality":"Weinfelden","commune":{"key":"4946","name":"Weinfelden","shortName":"Weinfelden"},"district":{"key":"2015","name":"Bezirk Weinfelden"},"canton":{"key":"20","code":"TG","name":"Thurgau"},"status":"Real"},{"key":"10069897","name":"Neuhausweg","postalCode":"8570","locality":"Weinfelden","commune":{"key":"4946","name":"Weinfelden","shortName":"Weinfelden"},"district":{"key":"2015","name":"Bezirk Weinfelden"},"canton":{"key":"20","code":"TG","name":"Thurgau"},"status":"Real"},{"key":"10049996","name":"Nollenstrasse","postalCode":"8570","locality":"Weinfelden","commune":{"key":"4946","name":"Weinfelden","shortName":"Weinfelden"},"district":{"key":"2015","name":"Bezirk Weinfelden"},"canton":{"key":"20","code":"TG","name":"Thurgau"},"status":"Real"},{"key":"10205174","name":"Nordstrasse","postalCode":"8570","locality":"Weinfelden","commune":{"key":"4946","name":"Weinfelden","shortName":"Weinfelden"},"district":{"key":"2015","name":"Bezirk Weinfelden"},"canton":{"key":"20","code":"TG","name":"Thurgau"},"status":"Real"},{"key":"10196411","name":"Oberdorfstrasse","postalCode":"8570","locality":"Weinfelden","commune":{"key":"4946","name":"Weinfelden","shortName":"Weinfelden"},"district":{"key":"2015","name":"Bezirk Weinfelden"},"canton":{"key":"20","code":"TG","name":"Thurgau"},"status":"Real"},{"key":"10092670","name":"Obere Bühlstrasse","postalCode":"8570","locality":"Weinfelden","commune":{"key":"4946","name":"Weinfelden","shortName":"Weinfelden"},"district":{"key":"2015","name":"Bezirk Weinfelden"},"canton":{"key":"20","code":"TG","name":"Thurgau"},"status":"Real"},{"key":"10044075","name":"Obere Hardstrasse","postalCode":"8570","locality":"Weinfelden","commune":{"key":"4946","name":"Weinfelden","shortName":"Weinfelden"},"district":{"key":"2015","name":"Bezirk Weinfelden"},"canton":{"key":"20","code":"TG","name":"Thurgau"},"status":"Real"},{"key":"10049997","name":"Obere Weinbergstrasse","postalCode":"8570","locality":"Weinfelden","commune":{"key":"4946","name":"Weinfelden","shortName":"Weinfelden"},"district":{"key":"2015","name":"Bezirk Weinfelden"},"canton":{"key":"20","code":"TG","name":"Thurgau"},"status":"Real"},{"key":"10159587","name":"Oberfeldstrasse","postalCode":"8570","locality":"Weinfelden","commune":{"key":"4946","name":"Weinfelden","shortName":"Weinfelden"},"district":{"key":"2015","name":"Bezirk Weinfelden"},"canton":{"key":"20","code":"TG","name":"Thurgau"},"status":"Real"},{"key":"10044076","name":"Oststrasse","postalCode":"8570","locality":"Weinfelden","commune":{"key":"4946","name":"Weinfelden","shortName":"Weinfelden"},"district":{"key":"2015","name":"Bezirk Weinfelden"},"canton":{"key":"20","code":"TG","name":"Thurgau"},"status":"Real"},{"key":"10059382","name":"Ottenberg","postalCode":"8570","locality":"Weinfelden","commune":{"key":"4946","name":"Weinfelden","shortName":"Weinfelden"},"district":{"key":"2015","name":"Bezirk Weinfelden"},"canton":{"key":"20","code":"TG","name":"Thurgau"},"status":"Real"},{"key":"10162566","name":"Ottenbergstrasse","postalCode":"8570","locality":"Weinfelden","commune":{"key":"4946","name":"Weinfelden","shortName":"Weinfelden"},"district":{"key":"2015","name":"Bezirk Weinfelden"},"canton":{"key":"20","code":"TG","name":"Thurgau"},"status":"Real"},{"key":"10044077","name":"Paul-Reinhart-Strasse","postalCode":"8570","locality":"Weinfelden","commune":{"key":"4946","name":"Weinfelden","shortName":"Weinfelden"},"district":{"key":"2015","name":"Bezirk Weinfelden"},"canton":{"key":"20","code":"TG","name":"Thurgau"},"status":"Real"},{"key":"10069898","name":"Pelikanstrasse","postalCode":"8570","locality":"Weinfelden","commune":{"key":"4946","name":"Weinfelden","shortName":"Weinfelden"},"district":{"key":"2015","name":"Bezirk Weinfelden"},"canton":{"key":"20","code":"TG","name":"Thurgau"},"status":"Real"},{"key":"10092671","name":"Pestalozzistrasse","postalCode":"8570","locality":"Weinfelden","commune":{"key":"4946","name":"Weinfelden","shortName":"Weinfelden"},"district":{"key":"2015","name":"Bezirk Weinfelden"},"canton":{"key":"20","code":"TG","name":"Thurgau"},"status":"Real"},{"key":"10248184","name":"Peter-Stamm-Weg","postalCode":"8570","locality":"Weinfelden","commune":{"key":"4946","name":"Weinfelden","shortName":"Weinfelden"},"district":{"key":"2015","name":"Bezirk Weinfelden"},"canton":{"key":"20","code":"TG","name":"Thurgau"},"status":"Real"},{"key":"10200989","name":"Pfadägger","postalCode":"8570","locality":"Weinfelden","commune":{"key":"4946","name":"Weinfelden","shortName":"Weinfelden"},"district":{"key":"2015","name":"Bezirk Weinfelden"},"canton":{"key":"20","code":"TG","name":"Thurgau"},"status":"Real"},{"key":"10049998","name":"Rainweg","postalCode":"8570","locality":"Weinfelden","commune":{"key":"4946","name":"Weinfelden","shortName":"Weinfelden"},"district":{"key":"2015","name":"Bezirk Weinfelden"},"canton":{"key":"20","code":"TG","name":"Thurgau"},"status":"Real"},{"key":"10044078","name":"Rathausstrasse","postalCode":"8570","locality":"Weinfelden","commune":{"key":"4946","name":"Weinfelden","shortName":"Weinfelden"},"district":{"key":"2015","name":"Bezirk Weinfelden"},"canton":{"key":"20","code":"TG","name":"Thurgau"},"status":"Real"},{"key":"10049999","name":"Rathofstrasse","postalCode":"8570","locality":"Weinfelden","commune":{"key":"4946","name":"Weinfelden","shortName":"Weinfelden"},"district":{"key":"2015","name":"Bezirk Weinfelden"},"canton":{"key":"20","code":"TG","name":"Thurgau"},"status":"Real"},{"key":"10177930","name":"Rebenstrasse","postalCode":"8570","locality":"Weinfelden","commune":{"key":"4946","name":"Weinfelden","shortName":"Weinfelden"},"district":{"key":"2015","name":"Bezirk Weinfelden"},"canton":{"key":"20","code":"TG","name":"Thurgau"},"status":"Real"},{"key":"10151705","name":"Rebenweg","postalCode":"8570","locality":"Weinfelden","commune":{"key":"4946","name":"Weinfelden","shortName":"Weinfelden"},"district":{"key":"2015","name":"Bezirk Weinfelden"},"canton":{"key":"20","code":"TG","name":"Thurgau"},"status":"Real"},{"key":"10237895","name":"Rieslingweg","postalCode":"8570","locality":"Weinfelden","commune":{"key":"4946","name":"Weinfelden","shortName":"Weinfelden"},"district":{"key":"2015","name":"Bezirk Weinfelden"},"canton":{"key":"20","code":"TG","name":"Thurgau"},"status":"Real"},{"key":"10044079","name":"Ringstrasse","postalCode":"8570","locality":"Weinfelden","commune":{"key":"4946","name":"Weinfelden","shortName":"Weinfelden"},"district":{"key":"2015","name":"Bezirk Weinfelden"},"canton":{"key":"20","code":"TG","name":"Thurgau"},"status":"Real"},{"key":"10195572","name":"Rohrwiesenstrasse","postalCode":"8570","locality":"Weinfelden","commune":{"key":"4946","name":"Weinfelden","shortName":"Weinfelden"},"district":{"key":"2015","name":"Bezirk Weinfelden"},"canton":{"key":"20","code":"TG","name":"Thurgau"},"status":"Real"},{"key":"10069899","name":"Rosenstrasse","postalCode":"8570","locality":"Weinfelden","commune":{"key":"4946","name":"Weinfelden","shortName":"Weinfelden"},"district":{"key":"2015","name":"Bezirk Weinfelden"},"canton":{"key":"20","code":"TG","name":"Thurgau"},"status":"Real"},{"key":"10201821","name":"Rüssinger","postalCode":"8570","locality":"Weinfelden","commune":{"key":"4946","name":"Weinfelden","shortName":"Weinfelden"},"district":{"key":"2015","name":"Bezirk Weinfelden"},"canton":{"key":"20","code":"TG","name":"Thurgau"},"status":"Real"},{"key":"10044080","name":"Rüteliholzstrasse","postalCode":"8570","locality":"Weinfelden","commune":{"key":"4946","name":"Weinfelden","shortName":"Weinfelden"},"district":{"key":"2015","name":"Bezirk Weinfelden"},"canton":{"key":"20","code":"TG","name":"Thurgau"},"status":"Real"},{"key":"10202197","name":"Rüüteli","postalCode":"8570","locality":"Weinfelden","commune":{"key":"4946","name":"Weinfelden","shortName":"Weinfelden"},"district":{"key":"2015","name":"Bezirk Weinfelden"},"canton":{"key":"20","code":"TG","name":"Thurgau"},"status":"Real"},{"key":"10136570","name":"Salbeistrasse","postalCode":"8570","locality":"Weinfelden","commune":{"key":"4946","name":"Weinfelden","shortName":"Weinfelden"},"district":{"key":"2015","name":"Bezirk Weinfelden"},"canton":{"key":"20","code":"TG","name":"Thurgau"},"status":"Real"},{"key":"10200990","name":"Sange","postalCode":"8570","locality":"Weinfelden","commune":{"key":"4946","name":"Weinfelden","shortName":"Weinfelden"},"district":{"key":"2015","name":"Bezirk Weinfelden"},"canton":{"key":"20","code":"TG","name":"Thurgau"},"status":"Real"},{"key":"10044081","name":"Sangenstrasse","postalCode":"8570","locality":"Weinfelden","commune":{"key":"4946","name":"Weinfelden","shortName":"Weinfelden"},"district":{"key":"2015","name":"Bezirk Weinfelden"},"canton":{"key":"20","code":"TG","name":"Thurgau"},"status":"Real"},{"key":"10044090","name":"Säntisstrasse","postalCode":"8570","locality":"Weinfelden","commune":{"key":"4946","name":"Weinfelden","shortName":"Weinfelden"},"district":{"key":"2015","name":"Bezirk Weinfelden"},"canton":{"key":"20","code":"TG","name":"Thurgau"},"status":"Real"},{"key":"10069900","name":"Schachenstrasse","postalCode":"8570","locality":"Weinfelden","commune":{"key":"4946","name":"Weinfelden","shortName":"Weinfelden"},"district":{"key":"2015","name":"Bezirk Weinfelden"},"canton":{"key":"20","code":"TG","name":"Thurgau"},"status":"Real"},{"key":"10215375","name":"Schäflerstrasse","postalCode":"8570","locality":"Weinfelden","commune":{"key":"4946","name":"Weinfelden","shortName":"Weinfelden"},"district":{"key":"2015","name":"Bezirk Weinfelden"},"canton":{"key":"20","code":"TG","name":"Thurgau"},"status":"Real"},{"key":"10177931","name":"Scherbenhofweg","postalCode":"8570","locality":"Weinfelden","commune":{"key":"4946","name":"Weinfelden","shortName":"Weinfelden"},"district":{"key":"2015","name":"Bezirk Weinfelden"},"canton":{"key":"20","code":"TG","name":"Thurgau"},"status":"Real"},{"key":"10237896","name":"Schlechtenmühle","postalCode":"8570","locality":"Weinfelden","commune":{"key":"4946","name":"Weinfelden","shortName":"Weinfelden"},"district":{"key":"2015","name":"Bezirk Weinfelden"},"canton":{"key":"20","code":"TG","name":"Thurgau"},"status":"Real"},{"key":"10205830","name":"Schlechtenmühlestrasse","postalCode":"8570","locality":"Weinfelden","commune":{"key":"4946","name":"Weinfelden","shortName":"Weinfelden"},"district":{"key":"2015","name":"Bezirk Weinfelden"},"canton":{"key":"20","code":"TG","name":"Thurgau"},"status":"Real"},{"key":"10096995","name":"Schlipfenbergstrasse","postalCode":"8570","locality":"Weinfelden","commune":{"key":"4946","name":"Weinfelden","shortName":"Weinfelden"},"district":{"key":"2015","name":"Bezirk Weinfelden"},"canton":{"key":"20","code":"TG","name":"Thurgau"},"status":"Real"},{"key":"10044082","name":"Schloss","postalCode":"8570","locality":"Weinfelden","commune":{"key":"4946","name":"Weinfelden","shortName":"Weinfelden"},"district":{"key":"2015","name":"Bezirk Weinfelden"},"canton":{"key":"20","code":"TG","name":"Thurgau"},"status":"Real"},{"key":"10044083","name":"Schlossgasse","postalCode":"8570","locality":"Weinfelden","commune":{"key":"4946","name":"Weinfelden","shortName":"Weinfelden"},"district":{"key":"2015","name":"Bezirk Weinfelden"},"canton":{"key":"20","code":"TG","name":"Thurgau"},"status":"Real"},{"key":"10069901","name":"Schlosshaldenstrasse","postalCode":"8570","locality":"Weinfelden","commune":{"key":"4946","name":"Weinfelden","shortName":"Weinfelden"},"district":{"key":"2015","name":"Bezirk Weinfelden"},"canton":{"key":"20","code":"TG","name":"Thurgau"},"status":"Real"},{"key":"10162567","name":"Schlurhalde","postalCode":"8570","locality":"Weinfelden","commune":{"key":"4946","name":"Weinfelden","shortName":"Weinfelden"},"district":{"key":"2015","name":"Bezirk Weinfelden"},"canton":{"key":"20","code":"TG","name":"Thurgau"},"status":"Real"},{"key":"10044084","name":"Schmidstrasse","postalCode":"8570","locality":"Weinfelden","commune":{"key":"4946","name":"Weinfelden","shortName":"Weinfelden"},"district":{"key":"2015","name":"Bezirk Weinfelden"},"canton":{"key":"20","code":"TG","name":"Thurgau"},"status":"Real"},{"key":"10096996","name":"Schnellerstrasse","postalCode":"8570","locality":"Weinfelden","commune":{"key":"4946","name":"Weinfelden","shortName":"Weinfelden"},"district":{"key":"2015","name":"Bezirk Weinfelden"},"canton":{"key":"20","code":"TG","name":"Thurgau"},"status":"Real"},{"key":"10110038","name":"Schulstrasse","postalCode":"8570","locality":"Weinfelden","commune":{"key":"4946","name":"Weinfelden","shortName":"Weinfelden"},"district":{"key":"2015","name":"Bezirk Weinfelden"},"canton":{"key":"20","code":"TG","name":"Thurgau"},"status":"Real"},{"key":"10190675","name":"Schützenstrasse","postalCode":"8570","locality":"Weinfelden","commune":{"key":"4946","name":"Weinfelden","shortName":"Weinfelden"},"district":{"key":"2015","name":"Bezirk Weinfelden"},"canton":{"key":"20","code":"TG","name":"Thurgau"},"status":"Real"},{"key":"10044085","name":"Schwalbenweg","postalCode":"8570","locality":"Weinfelden","commune":{"key":"4946","name":"Weinfelden","shortName":"Weinfelden"},"district":{"key":"2015","name":"Bezirk Weinfelden"},"canton":{"key":"20","code":"TG","name":"Thurgau"},"status":"Real"},{"key":"10044086","name":"Schwärzeweg","postalCode":"8570","locality":"Weinfelden","commune":{"key":"4946","name":"Weinfelden","shortName":"Weinfelden"},"district":{"key":"2015","name":"Bezirk Weinfelden"},"canton":{"key":"20","code":"TG","name":"Thurgau"},"status":"Real"},{"key":"10202677","name":"Schwarzweiertobel","postalCode":"8570","locality":"Weinfelden","commune":{"key":"4946","name":"Weinfelden","shortName":"Weinfelden"},"district":{"key":"2015","name":"Bezirk Weinfelden"},"canton":{"key":"20","code":"TG","name":"Thurgau"},"status":"Real"},{"key":"10237897","name":"Sefistrasse","postalCode":"8570","locality":"Weinfelden","commune":{"key":"4946","name":"Weinfelden","shortName":"Weinfelden"},"district":{"key":"2015","name":"Bezirk Weinfelden"},"canton":{"key":"20","code":"TG","name":"Thurgau"},"status":"Real"},{"key":"10069902","name":"Silvanerstrasse","postalCode":"8570","locality":"Weinfelden","commune":{"key":"4946","name":"Weinfelden","shortName":"Weinfelden"},"district":{"key":"2015","name":"Bezirk Weinfelden"},"canton":{"key":"20","code":"TG","name":"Thurgau"},"status":"Real"},{"key":"10150863","name":"Sonnenbergweg","postalCode":"8570","locality":"Weinfelden","commune":{"key":"4946","name":"Weinfelden","shortName":"Weinfelden"},"district":{"key":"2015","name":"Bezirk Weinfelden"},"canton":{"key":"20","code":"TG","name":"Thurgau"},"status":"Real"},{"key":"10044087","name":"Sonnenbühlstrasse","postalCode":"8570","locality":"Weinfelden","commune":{"key":"4946","name":"Weinfelden","shortName":"Weinfelden"},"district":{"key":"2015","name":"Bezirk Weinfelden"},"canton":{"key":"20","code":"TG","name":"Thurgau"},"status":"Real"},{"key":"10177932","name":"Sonnenhaldenstrasse","postalCode":"8570","locality":"Weinfelden","commune":{"key":"4946","name":"Weinfelden","shortName":"Weinfelden"},"district":{"key":"2015","name":"Bezirk Weinfelden"},"canton":{"key":"20","code":"TG","name":"Thurgau"},"status":"Real"},{"key":"10152110","name":"Sonnenhofstrasse","postalCode":"8570","locality":"Weinfelden","commune":{"key":"4946","name":"Weinfelden","shortName":"Weinfelden"},"district":{"key":"2015","name":"Bezirk Weinfelden"},"canton":{"key":"20","code":"TG","name":"Thurgau"},"status":"Real"},{"key":"10096997","name":"Sonnenstrasse","postalCode":"8570","locality":"Weinfelden","commune":{"key":"4946","name":"Weinfelden","shortName":"Weinfelden"},"district":{"key":"2015","name":"Bezirk Weinfelden"},"canton":{"key":"20","code":"TG","name":"Thurgau"},"status":"Real"},{"key":"10044088","name":"Steinachstrasse","postalCode":"8570","locality":"Weinfelden","commune":{"key":"4946","name":"Weinfelden","shortName":"Weinfelden"},"district":{"key":"2015","name":"Bezirk Weinfelden"},"canton":{"key":"20","code":"TG","name":"Thurgau"},"status":"Real"},{"key":"10069903","name":"Stelzenhof","postalCode":"8570","locality":"Weinfelden","commune":{"key":"4946","name":"Weinfelden","shortName":"Weinfelden"},"district":{"key":"2015","name":"Bezirk Weinfelden"},"canton":{"key":"20","code":"TG","name":"Thurgau"},"status":"Real"},{"key":"10164240","name":"Stelzenhofstrasse","postalCode":"8570","locality":"Weinfelden","commune":{"key":"4946","name":"Weinfelden","shortName":"Weinfelden"},"district":{"key":"2015","name":"Bezirk Weinfelden"},"canton":{"key":"20","code":"TG","name":"Thurgau"},"status":"Real"},{"key":"10044089","name":"Storchenstrasse","postalCode":"8570","locality":"Weinfelden","commune":{"key":"4946","name":"Weinfelden","shortName":"Weinfelden"},"district":{"key":"2015","name":"Bezirk Weinfelden"},"canton":{"key":"20","code":"TG","name":"Thurgau"},"status":"Real"},{"key":"10096998","name":"Straussbergstrasse","postalCode":"8570","locality":"Weinfelden","commune":{"key":"4946","name":"Weinfelden","shortName":"Weinfelden"},"district":{"key":"2015","name":"Bezirk Weinfelden"},"canton":{"key":"20","code":"TG","name":"Thurgau"},"status":"Real"},{"key":"10069904","name":"Südstrasse","postalCode":"8570","locality":"Weinfelden","commune":{"key":"4946","name":"Weinfelden","shortName":"Weinfelden"},"district":{"key":"2015","name":"Bezirk Weinfelden"},"canton":{"key":"20","code":"TG","name":"Thurgau"},"status":"Real"},{"key":"10044094","name":"Tälligstrasse","postalCode":"8570","locality":"Weinfelden","commune":{"key":"4946","name":"Weinfelden","shortName":"Weinfelden"},"district":{"key":"2015","name":"Bezirk Weinfelden"},"canton":{"key":"20","code":"TG","name":"Thurgau"},"status":"Real"},{"key":"10044091","name":"Tannenwiesenstrasse","postalCode":"8570","locality":"Weinfelden","commune":{"key":"4946","name":"Weinfelden","shortName":"Weinfelden"},"district":{"key":"2015","name":"Bezirk Weinfelden"},"canton":{"key":"20","code":"TG","name":"Thurgau"},"status":"Real"},{"key":"10195573","name":"Tätsch","postalCode":"8570","locality":"Weinfelden","commune":{"key":"4946","name":"Weinfelden","shortName":"Weinfelden"},"district":{"key":"2015","name":"Bezirk Weinfelden"},"canton":{"key":"20","code":"TG","name":"Thurgau"},"status":"Real"},{"key":"10044092","name":"Tellstrasse","postalCode":"8570","locality":"Weinfelden","commune":{"key":"4946","name":"Weinfelden","shortName":"Weinfelden"},"district":{"key":"2015","name":"Bezirk Weinfelden"},"canton":{"key":"20","code":"TG","name":"Thurgau"},"status":"Real"},{"key":"10077728","name":"Thomas-Bornhauser-Strasse","postalCode":"8570","locality":"Weinfelden","commune":{"key":"4946","name":"Weinfelden","shortName":"Weinfelden"},"district":{"key":"2015","name":"Bezirk Weinfelden"},"canton":{"key":"20","code":"TG","name":"Thurgau"},"status":"Real"},{"key":"10096999","name":"Thurbergstrasse","postalCode":"8570","locality":"Weinfelden","commune":{"key":"4946","name":"Weinfelden","shortName":"Weinfelden"},"district":{"key":"2015","name":"Bezirk Weinfelden"},"canton":{"key":"20","code":"TG","name":"Thurgau"},"status":"Real"},{"key":"10069905","name":"Thurfeldstrasse","postalCode":"8570","locality":"Weinfelden","commune":{"key":"4946","name":"Weinfelden","shortName":"Weinfelden"},"district":{"key":"2015","name":"Bezirk Weinfelden"},"canton":{"key":"20","code":"TG","name":"Thurgau"},"status":"Real"},{"key":"10139527","name":"Thurvorland","postalCode":"8570","locality":"Weinfelden","commune":{"key":"4946","name":"Weinfelden","shortName":"Weinfelden"},"district":{"key":"2015","name":"Bezirk Weinfelden"},"canton":{"key":"20","code":"TG","name":"Thurgau"},"status":"Real"},{"key":"10044093","name":"Thurwiesenstrasse","postalCode":"8570","locality":"Weinfelden","commune":{"key":"4946","name":"Weinfelden","shortName":"Weinfelden"},"district":{"key":"2015","name":"Bezirk Weinfelden"},"canton":{"key":"20","code":"TG","name":"Thurgau"},"status":"Real"},{"key":"10201822","name":"Tuurbrugg","postalCode":"8570","locality":"Weinfelden","commune":{"key":"4946","name":"Weinfelden","shortName":"Weinfelden"},"district":{"key":"2015","name":"Bezirk Weinfelden"},"canton":{"key":"20","code":"TG","name":"Thurgau"},"status":"Real"},{"key":"10119084","name":"Underau","postalCode":"8570","locality":"Weinfelden","commune":{"key":"4946","name":"Weinfelden","shortName":"Weinfelden"},"district":{"key":"2015","name":"Bezirk Weinfelden"},"canton":{"key":"20","code":"TG","name":"Thurgau"},"status":"Real"},{"key":"10202198","name":"Undere Chlägge","postalCode":"8570","locality":"Weinfelden","commune":{"key":"4946","name":"Weinfelden","shortName":"Weinfelden"},"district":{"key":"2015","name":"Bezirk Weinfelden"},"canton":{"key":"20","code":"TG","name":"Thurgau"},"status":"Real"},{"key":"10195574","name":"Underi Wiide","postalCode":"8570","locality":"Weinfelden","commune":{"key":"4946","name":"Weinfelden","shortName":"Weinfelden"},"district":{"key":"2015","name":"Bezirk Weinfelden"},"canton":{"key":"20","code":"TG","name":"Thurgau"},"status":"Real"},{"key":"10097000","name":"Untere Bühlstrasse","postalCode":"8570","locality":"Weinfelden","commune":{"key":"4946","name":"Weinfelden","shortName":"Weinfelden"},"district":{"key":"2015","name":"Bezirk Weinfelden"},"canton":{"key":"20","code":"TG","name":"Thurgau"},"status":"Real"},{"key":"10044095","name":"Untere Weinbergstrasse","postalCode":"8570","locality":"Weinfelden","commune":{"key":"4946","name":"Weinfelden","shortName":"Weinfelden"},"district":{"key":"2015","name":"Bezirk Weinfelden"},"canton":{"key":"20","code":"TG","name":"Thurgau"},"status":"Real"},{"key":"10110487","name":"Unterhard","postalCode":"8570","locality":"Weinfelden","commune":{"key":"4946","name":"Weinfelden","shortName":"Weinfelden"},"district":{"key":"2015","name":"Bezirk Weinfelden"},"canton":{"key":"20","code":"TG","name":"Thurgau"},"status":"Real"},{"key":"10044096","name":"Unterthurenstrasse","postalCode":"8570","locality":"Weinfelden","commune":{"key":"4946","name":"Weinfelden","shortName":"Weinfelden"},"district":{"key":"2015","name":"Bezirk Weinfelden"},"canton":{"key":"20","code":"TG","name":"Thurgau"},"status":"Real"},{"key":"10069906","name":"Vogelsangstrasse","postalCode":"8570","locality":"Weinfelden","commune":{"key":"4946","name":"Weinfelden","shortName":"Weinfelden"},"district":{"key":"2015","name":"Bezirk Weinfelden"},"canton":{"key":"20","code":"TG","name":"Thurgau"},"status":"Real"},{"key":"10200991","name":"Vorderbachtobel","postalCode":"8570","locality":"Weinfelden","commune":{"key":"4946","name":"Weinfelden","shortName":"Weinfelden"},"district":{"key":"2015","name":"Bezirk Weinfelden"},"canton":{"key":"20","code":"TG","name":"Thurgau"},"status":"Real"},{"key":"10201823","name":"Vorderi Räbe","postalCode":"8570","locality":"Weinfelden","commune":{"key":"4946","name":"Weinfelden","shortName":"Weinfelden"},"district":{"key":"2015","name":"Bezirk Weinfelden"},"canton":{"key":"20","code":"TG","name":"Thurgau"},"status":"Real"},{"key":"10177933","name":"Wachtelweg","postalCode":"8570","locality":"Weinfelden","commune":{"key":"4946","name":"Weinfelden","shortName":"Weinfelden"},"district":{"key":"2015","name":"Bezirk Weinfelden"},"canton":{"key":"20","code":"TG","name":"Thurgau"},"status":"Real"},{"key":"10043009","name":"Waidliweg","postalCode":"8570","locality":"Weinfelden","commune":{"key":"4946","name":"Weinfelden","shortName":"Weinfelden"},"district":{"key":"2015","name":"Bezirk Weinfelden"},"canton":{"key":"20","code":"TG","name":"Thurgau"},"status":"Real"},{"key":"10044097","name":"Walkestrasse","postalCode":"8570","locality":"Weinfelden","commune":{"key":"4946","name":"Weinfelden","shortName":"Weinfelden"},"district":{"key":"2015","name":"Bezirk Weinfelden"},"canton":{"key":"20","code":"TG","name":"Thurgau"},"status":"Real"},{"key":"10237898","name":"Wartweg","postalCode":"8570","locality":"Weinfelden","commune":{"key":"4946","name":"Weinfelden","shortName":"Weinfelden"},"district":{"key":"2015","name":"Bezirk Weinfelden"},"canton":{"key":"20","code":"TG","name":"Thurgau"},"status":"Real"},{"key":"10115998","name":"Weerstein","postalCode":"8570","locality":"Weinfelden","commune":{"key":"4946","name":"Weinfelden","shortName":"Weinfelden"},"district":{"key":"2015","name":"Bezirk Weinfelden"},"canton":{"key":"20","code":"TG","name":"Thurgau"},"status":"Real"},{"key":"10164284","name":"Wehrstrasse","postalCode":"8570","locality":"Weinfelden","commune":{"key":"4946","name":"Weinfelden","shortName":"Weinfelden"},"district":{"key":"2015","name":"Bezirk Weinfelden"},"canton":{"key":"20","code":"TG","name":"Thurgau"},"status":"Real"},{"key":"10202199","name":"Weierschwiler Bürgerholz","postalCode":"8570","locality":"Weinfelden","commune":{"key":"4946","name":"Weinfelden","shortName":"Weinfelden"},"district":{"key":"2015","name":"Bezirk Weinfelden"},"canton":{"key":"20","code":"TG","name":"Thurgau"},"status":"Real"},{"key":"10195575","name":"Weierste","postalCode":"8570","locality":"Weinfelden","commune":{"key":"4946","name":"Weinfelden","shortName":"Weinfelden"},"district":{"key":"2015","name":"Bezirk Weinfelden"},"canton":{"key":"20","code":"TG","name":"Thurgau"},"status":"Real"},{"key":"10136571","name":"Weiherweg","postalCode":"8570","locality":"Weinfelden","commune":{"key":"4946","name":"Weinfelden","shortName":"Weinfelden"},"district":{"key":"2015","name":"Bezirk Weinfelden"},"canton":{"key":"20","code":"TG","name":"Thurgau"},"status":"Real"},{"key":"10110039","name":"Weststrasse","postalCode":"8570","locality":"Weinfelden","commune":{"key":"4946","name":"Weinfelden","shortName":"Weinfelden"},"district":{"key":"2015","name":"Bezirk Weinfelden"},"canton":{"key":"20","code":"TG","name":"Thurgau"},"status":"Real"},{"key":"10097001","name":"Wiesenstrasse","postalCode":"8570","locality":"Weinfelden","commune":{"key":"4946","name":"Weinfelden","shortName":"Weinfelden"},"district":{"key":"2015","name":"Bezirk Weinfelden"},"canton":{"key":"20","code":"TG","name":"Thurgau"},"status":"Real"},{"key":"10069907","name":"Wiesentalweg","postalCode":"8570","locality":"Weinfelden","commune":{"key":"4946","name":"Weinfelden","shortName":"Weinfelden"},"district":{"key":"2015","name":"Bezirk Weinfelden"},"canton":{"key":"20","code":"TG","name":"Thurgau"},"status":"Real"},{"key":"10127772","name":"Wilerstrasse","postalCode":"8570","locality":"Weinfelden","commune":{"key":"4946","name":"Weinfelden","shortName":"Weinfelden"},"district":{"key":"2015","name":"Bezirk Weinfelden"},"canton":{"key":"20","code":"TG","name":"Thurgau"},"status":"Real"},{"key":"10044098","name":"Wingertstrasse","postalCode":"8570","locality":"Weinfelden","commune":{"key":"4946","name":"Weinfelden","shortName":"Weinfelden"},"district":{"key":"2015","name":"Bezirk Weinfelden"},"canton":{"key":"20","code":"TG","name":"Thurgau"},"status":"Real"},{"key":"10044099","name":"Winkelgässli","postalCode":"8570","locality":"Weinfelden","commune":{"key":"4946","name":"Weinfelden","shortName":"Weinfelden"},"district":{"key":"2015","name":"Bezirk Weinfelden"},"canton":{"key":"20","code":"TG","name":"Thurgau"},"status":"Real"},{"key":"10097002","name":"Wuhräckerstrasse","postalCode":"8570","locality":"Weinfelden","commune":{"key":"4946","name":"Weinfelden","shortName":"Weinfelden"},"district":{"key":"2015","name":"Bezirk Weinfelden"},"canton":{"key":"20","code":"TG","name":"Thurgau"},"status":"Real"},{"key":"10201824","name":"Zälgli","postalCode":"8570","locality":"Weinfelden","commune":{"key":"4946","name":"Weinfelden","shortName":"Weinfelden"},"district":{"key":"2015","name":"Bezirk Weinfelden"},"canton":{"key":"20","code":"TG","name":"Thurgau"},"status":"Real"},{"key":"10116523","name":"Zelglistrasse","postalCode":"8570","locality":"Weinfelden","commune":{"key":"4946","name":"Weinfelden","shortName":"Weinfelden"},"district":{"key":"2015","name":"Bezirk Weinfelden"},"canton":{"key":"20","code":"TG","name":"Thurgau"},"status":"Real"},{"key":"10044100","name":"Zeltweg","postalCode":"8570","locality":"Weinfelden","commune":{"key":"4946","name":"Weinfelden","shortName":"Weinfelden"},"district":{"key":"2015","name":"Bezirk Weinfelden"},"canton":{"key":"20","code":"TG","name":"Thurgau"},"status":"Real"},{"key":"10206338","name":"Ziegelhofweg","postalCode":"8570","locality":"Weinfelden","commune":{"key":"4946","name":"Weinfelden","shortName":"Weinfelden"},"district":{"key":"2015","name":"Bezirk Weinfelden"},"canton":{"key":"20","code":"TG","name":"Thurgau"},"status":"Real"},{"key":"10208856","name":"Zweigstrasse","postalCode":"8570","locality":"Weinfelden","commune":{"key":"4946","name":"Weinfelden","shortName":"Weinfelden"},"district":{"key":"2015","name":"Bezirk Weinfelden"},"canton":{"key":"20","code":"TG","name":"Thurgau"},"status":"Real"},{"key":"10202176","name":"Ägelsee","postalCode":"8570","locality":"Weinfelden","commune":{"key":"4946","name":"Weinfelden","shortName":"Weinfelden"},"district":{"key":"2015","name":"Bezirk Weinfelden"},"canton":{"key":"20","code":"TG","name":"Thurgau"},"status":"Real"},{"key":"10196190","name":"Ärgete","postalCode":"8570","locality":"Weinfelden","commune":{"key":"4946","name":"Weinfelden","shortName":"Weinfelden"},"district":{"key":"2015","name":"Bezirk Weinfelden"},"canton":{"key":"20","code":"TG","name":"Thurgau"},"status":"Real"},]