[{"name":"Alte Augustusburger Str.","postalCode":"09573","locality":"Leubsdorf","municipality":{"key":"14522320","name":"Leubsdorf","type":"Kreisangehörige_Gemeinde"},"district":{"key":"14522","name":"Mittelsachsen","type":"Landkreis"},"federalState":{"key":"14","name":"Sachsen"}},{"name":"Alte Dorfstr.","postalCode":"09573","locality":"Leubsdorf","municipality":{"key":"14522320","name":"Leubsdorf","type":"Kreisangehörige_Gemeinde"},"district":{"key":"14522","name":"Mittelsachsen","type":"Landkreis"},"federalState":{"key":"14","name":"Sachsen"}},{"name":"Alte Gahlenzer Str.","postalCode":"09573","locality":"Leubsdorf","municipality":{"key":"14522320","name":"Leubsdorf","type":"Kreisangehörige_Gemeinde"},"district":{"key":"14522","name":"Mittelsachsen","type":"Landkreis"},"federalState":{"key":"14","name":"Sachsen"}},{"name":"Alter Fabrikweg","postalCode":"09573","locality":"Leubsdorf","municipality":{"key":"14522320","name":"Leubsdorf","type":"Kreisangehörige_Gemeinde"},"district":{"key":"14522","name":"Mittelsachsen","type":"Landkreis"},"federalState":{"key":"14","name":"Sachsen"}},{"name":"Alter Friedhof","postalCode":"53547","locality":"Leubsdorf","municipality":{"key":"07138037","name":"Leubsdorf","type":"Kreisangehörige_Gemeinde"},"district":{"key":"07138","name":"Neuwied","type":"Landkreis"},"federalState":{"key":"07","name":"Rheinland-Pfalz"}},{"name":"Am Gasthof","postalCode":"09573","locality":"Leubsdorf","municipality":{"key":"14522320","name":"Leubsdorf","type":"Kreisangehörige_Gemeinde"},"district":{"key":"14522","name":"Mittelsachsen","type":"Landkreis"},"federalState":{"key":"14","name":"Sachsen"}},{"name":"Am Nordhang","postalCode":"09573","locality":"Leubsdorf","municipality":{"key":"14522320","name":"Leubsdorf","type":"Kreisangehörige_Gemeinde"},"district":{"key":"14522","name":"Mittelsachsen","type":"Landkreis"},"federalState":{"key":"14","name":"Sachsen"}},{"name":"Am Südhang","postalCode":"09573","locality":"Leubsdorf","municipality":{"key":"14522320","name":"Leubsdorf","type":"Kreisangehörige_Gemeinde"},"district":{"key":"14522","name":"Mittelsachsen","type":"Landkreis"},"federalState":{"key":"14","name":"Sachsen"}},{"name":"Am Wasserwerk","postalCode":"09573","locality":"Leubsdorf","municipality":{"key":"14522320","name":"Leubsdorf","type":"Kreisangehörige_Gemeinde"},"district":{"key":"14522","name":"Mittelsachsen","type":"Landkreis"},"federalState":{"key":"14","name":"Sachsen"}},{"name":"An der Koppe","postalCode":"53547","locality":"Leubsdorf","municipality":{"key":"07138037","name":"Leubsdorf","type":"Kreisangehörige_Gemeinde"},"district":{"key":"07138","name":"Neuwied","type":"Landkreis"},"federalState":{"key":"07","name":"Rheinland-Pfalz"}},{"name":"Anton-Schneider-Str.","postalCode":"53547","locality":"Leubsdorf","municipality":{"key":"07138037","name":"Leubsdorf","type":"Kreisangehörige_Gemeinde"},"district":{"key":"07138","name":"Neuwied","type":"Landkreis"},"federalState":{"key":"07","name":"Rheinland-Pfalz"}},{"name":"Ariendorfer Weg","postalCode":"53547","locality":"Leubsdorf","municipality":{"key":"07138037","name":"Leubsdorf","type":"Kreisangehörige_Gemeinde"},"district":{"key":"07138","name":"Neuwied","type":"Landkreis"},"federalState":{"key":"07","name":"Rheinland-Pfalz"}},{"name":"Auf dem Kreuzberg","postalCode":"53547","locality":"Leubsdorf","municipality":{"key":"07138037","name":"Leubsdorf","type":"Kreisangehörige_Gemeinde"},"district":{"key":"07138","name":"Neuwied","type":"Landkreis"},"federalState":{"key":"07","name":"Rheinland-Pfalz"}},{"name":"Auf der Heide","postalCode":"53547","locality":"Leubsdorf","municipality":{"key":"07138037","name":"Leubsdorf","type":"Kreisangehörige_Gemeinde"},"district":{"key":"07138","name":"Neuwied","type":"Landkreis"},"federalState":{"key":"07","name":"Rheinland-Pfalz"}},{"name":"Auf der Kehr","postalCode":"53547","locality":"Leubsdorf","municipality":{"key":"07138037","name":"Leubsdorf","type":"Kreisangehörige_Gemeinde"},"district":{"key":"07138","name":"Neuwied","type":"Landkreis"},"federalState":{"key":"07","name":"Rheinland-Pfalz"}},{"name":"August-Bebel-Str.","postalCode":"09573","locality":"Leubsdorf","municipality":{"key":"14522320","name":"Leubsdorf","type":"Kreisangehörige_Gemeinde"},"district":{"key":"14522","name":"Mittelsachsen","type":"Landkreis"},"federalState":{"key":"14","name":"Sachsen"}},{"name":"Augustusburger Str.","postalCode":"09573","locality":"Leubsdorf","municipality":{"key":"14522320","name":"Leubsdorf","type":"Kreisangehörige_Gemeinde"},"district":{"key":"14522","name":"Mittelsachsen","type":"Landkreis"},"federalState":{"key":"14","name":"Sachsen"}},{"name":"Bachgasse","postalCode":"09573","locality":"Leubsdorf","municipality":{"key":"14522320","name":"Leubsdorf","type":"Kreisangehörige_Gemeinde"},"district":{"key":"14522","name":"Mittelsachsen","type":"Landkreis"},"federalState":{"key":"14","name":"Sachsen"}},{"name":"Bachstr.","postalCode":"53547","locality":"Leubsdorf","municipality":{"key":"07138037","name":"Leubsdorf","type":"Kreisangehörige_Gemeinde"},"district":{"key":"07138","name":"Neuwied","type":"Landkreis"},"federalState":{"key":"07","name":"Rheinland-Pfalz"}},{"name":"Bahnhofstr.","postalCode":"09573","locality":"Leubsdorf","municipality":{"key":"14522320","name":"Leubsdorf","type":"Kreisangehörige_Gemeinde"},"district":{"key":"14522","name":"Mittelsachsen","type":"Landkreis"},"federalState":{"key":"14","name":"Sachsen"}},{"name":"Birkenweg","postalCode":"09573","locality":"Leubsdorf","municipality":{"key":"14522320","name":"Leubsdorf","type":"Kreisangehörige_Gemeinde"},"district":{"key":"14522","name":"Mittelsachsen","type":"Landkreis"},"federalState":{"key":"14","name":"Sachsen"}},{"name":"Borstendorfer Str.","postalCode":"09573","locality":"Leubsdorf","municipality":{"key":"14522320","name":"Leubsdorf","type":"Kreisangehörige_Gemeinde"},"district":{"key":"14522","name":"Mittelsachsen","type":"Landkreis"},"federalState":{"key":"14","name":"Sachsen"}},{"name":"Butterflügel","postalCode":"09573","locality":"Leubsdorf","municipality":{"key":"14522320","name":"Leubsdorf","type":"Kreisangehörige_Gemeinde"},"district":{"key":"14522","name":"Mittelsachsen","type":"Landkreis"},"federalState":{"key":"14","name":"Sachsen"}},{"name":"Dorfstr.","postalCode":"09573","locality":"Leubsdorf","municipality":{"key":"14522320","name":"Leubsdorf","type":"Kreisangehörige_Gemeinde"},"district":{"key":"14522","name":"Mittelsachsen","type":"Landkreis"},"federalState":{"key":"14","name":"Sachsen"}},{"name":"ehem. Schmalspurbahn Hetzdorf–Eppendorf–Großwaltersdorf","postalCode":"09573","locality":"Leubsdorf","municipality":{"key":"14522320","name":"Leubsdorf","type":"Kreisangehörige_Gemeinde"},"district":{"key":"14522","name":"Mittelsachsen","type":"Landkreis"},"federalState":{"key":"14","name":"Sachsen"}},{"name":"Enge Gasse","postalCode":"09573","locality":"Leubsdorf","municipality":{"key":"14522320","name":"Leubsdorf","type":"Kreisangehörige_Gemeinde"},"district":{"key":"14522","name":"Mittelsachsen","type":"Landkreis"},"federalState":{"key":"14","name":"Sachsen"}},{"name":"Faber-Str.","postalCode":"53547","locality":"Leubsdorf","municipality":{"key":"07138037","name":"Leubsdorf","type":"Kreisangehörige_Gemeinde"},"district":{"key":"07138","name":"Neuwied","type":"Landkreis"},"federalState":{"key":"07","name":"Rheinland-Pfalz"}},{"name":"Fabrikweg","postalCode":"09573","locality":"Leubsdorf","municipality":{"key":"14522320","name":"Leubsdorf","type":"Kreisangehörige_Gemeinde"},"district":{"key":"14522","name":"Mittelsachsen","type":"Landkreis"},"federalState":{"key":"14","name":"Sachsen"}},{"name":"Feldweg","postalCode":"09573","locality":"Leubsdorf","municipality":{"key":"14522320","name":"Leubsdorf","type":"Kreisangehörige_Gemeinde"},"district":{"key":"14522","name":"Mittelsachsen","type":"Landkreis"},"federalState":{"key":"14","name":"Sachsen"}},{"name":"Flöhatalradweg","postalCode":"09573","locality":"Leubsdorf","municipality":{"key":"14522320","name":"Leubsdorf","type":"Kreisangehörige_Gemeinde"},"district":{"key":"14522","name":"Mittelsachsen","type":"Landkreis"},"federalState":{"key":"14","name":"Sachsen"}},{"name":"Fürstenweg","postalCode":"09573","locality":"Leubsdorf","municipality":{"key":"14522320","name":"Leubsdorf","type":"Kreisangehörige_Gemeinde"},"district":{"key":"14522","name":"Mittelsachsen","type":"Landkreis"},"federalState":{"key":"14","name":"Sachsen"}},{"name":"Gahlenzer Str.","postalCode":"09573","locality":"Leubsdorf","municipality":{"key":"14522320","name":"Leubsdorf","type":"Kreisangehörige_Gemeinde"},"district":{"key":"14522","name":"Mittelsachsen","type":"Landkreis"},"federalState":{"key":"14","name":"Sachsen"}},{"name":"Gartenstr.","postalCode":"09573","locality":"Leubsdorf","municipality":{"key":"14522320","name":"Leubsdorf","type":"Kreisangehörige_Gemeinde"},"district":{"key":"14522","name":"Mittelsachsen","type":"Landkreis"},"federalState":{"key":"14","name":"Sachsen"}},{"name":"Gartenstr.","postalCode":"53547","locality":"Leubsdorf","municipality":{"key":"07138037","name":"Leubsdorf","type":"Kreisangehörige_Gemeinde"},"district":{"key":"07138","name":"Neuwied","type":"Landkreis"},"federalState":{"key":"07","name":"Rheinland-Pfalz"}},{"name":"Gartenweg","postalCode":"09573","locality":"Leubsdorf","municipality":{"key":"14522320","name":"Leubsdorf","type":"Kreisangehörige_Gemeinde"},"district":{"key":"14522","name":"Mittelsachsen","type":"Landkreis"},"federalState":{"key":"14","name":"Sachsen"}},{"name":"Grünhainichener Str.","postalCode":"09573","locality":"Leubsdorf","municipality":{"key":"14522320","name":"Leubsdorf","type":"Kreisangehörige_Gemeinde"},"district":{"key":"14522","name":"Mittelsachsen","type":"Landkreis"},"federalState":{"key":"14","name":"Sachsen"}},{"name":"Gutsweg","postalCode":"09573","locality":"Leubsdorf","municipality":{"key":"14522320","name":"Leubsdorf","type":"Kreisangehörige_Gemeinde"},"district":{"key":"14522","name":"Mittelsachsen","type":"Landkreis"},"federalState":{"key":"14","name":"Sachsen"}},{"name":"Hammerleubsdorfer Str.","postalCode":"09573","locality":"Leubsdorf","municipality":{"key":"14522320","name":"Leubsdorf","type":"Kreisangehörige_Gemeinde"},"district":{"key":"14522","name":"Mittelsachsen","type":"Landkreis"},"federalState":{"key":"14","name":"Sachsen"}},{"name":"Harthweg","postalCode":"09573","locality":"Leubsdorf","municipality":{"key":"14522320","name":"Leubsdorf","type":"Kreisangehörige_Gemeinde"},"district":{"key":"14522","name":"Mittelsachsen","type":"Landkreis"},"federalState":{"key":"14","name":"Sachsen"}},{"name":"Hauptstr.","postalCode":"09573","locality":"Leubsdorf","municipality":{"key":"14522320","name":"Leubsdorf","type":"Kreisangehörige_Gemeinde"},"district":{"key":"14522","name":"Mittelsachsen","type":"Landkreis"},"federalState":{"key":"14","name":"Sachsen"}},{"name":"Hauptstr.","postalCode":"53547","locality":"Leubsdorf","municipality":{"key":"07138037","name":"Leubsdorf","type":"Kreisangehörige_Gemeinde"},"district":{"key":"07138","name":"Neuwied","type":"Landkreis"},"federalState":{"key":"07","name":"Rheinland-Pfalz"}},{"name":"Heimstr.","postalCode":"09573","locality":"Leubsdorf","municipality":{"key":"14522320","name":"Leubsdorf","type":"Kreisangehörige_Gemeinde"},"district":{"key":"14522","name":"Mittelsachsen","type":"Landkreis"},"federalState":{"key":"14","name":"Sachsen"}},{"name":"Hohenfichtener Str.","postalCode":"09573","locality":"Leubsdorf","municipality":{"key":"14522320","name":"Leubsdorf","type":"Kreisangehörige_Gemeinde"},"district":{"key":"14522","name":"Mittelsachsen","type":"Landkreis"},"federalState":{"key":"14","name":"Sachsen"}},{"name":"Höllmühle","postalCode":"09573","locality":"Leubsdorf","municipality":{"key":"14522320","name":"Leubsdorf","type":"Kreisangehörige_Gemeinde"},"district":{"key":"14522","name":"Mittelsachsen","type":"Landkreis"},"federalState":{"key":"14","name":"Sachsen"}},{"name":"Im Aliter","postalCode":"53562","locality":"Leubsdorf","municipality":{"key":"07138037","name":"Leubsdorf","type":"Kreisangehörige_Gemeinde"},"district":{"key":"07138","name":"Neuwied","type":"Landkreis"},"federalState":{"key":"07","name":"Rheinland-Pfalz"}},{"name":"Im Alten Hahn","postalCode":"53547","locality":"Leubsdorf","municipality":{"key":"07138037","name":"Leubsdorf","type":"Kreisangehörige_Gemeinde"},"district":{"key":"07138","name":"Neuwied","type":"Landkreis"},"federalState":{"key":"07","name":"Rheinland-Pfalz"}},{"name":"Im Boden","postalCode":"53547","locality":"Leubsdorf","municipality":{"key":"07138037","name":"Leubsdorf","type":"Kreisangehörige_Gemeinde"},"district":{"key":"07138","name":"Neuwied","type":"Landkreis"},"federalState":{"key":"07","name":"Rheinland-Pfalz"}},{"name":"Im Bruchgraben","postalCode":"53547","locality":"Leubsdorf","municipality":{"key":"07138037","name":"Leubsdorf","type":"Kreisangehörige_Gemeinde"},"district":{"key":"07138","name":"Neuwied","type":"Landkreis"},"federalState":{"key":"07","name":"Rheinland-Pfalz"}},{"name":"Im Eisel","postalCode":"53547","locality":"Leubsdorf","municipality":{"key":"07138037","name":"Leubsdorf","type":"Kreisangehörige_Gemeinde"},"district":{"key":"07138","name":"Neuwied","type":"Landkreis"},"federalState":{"key":"07","name":"Rheinland-Pfalz"}},{"name":"Im Leierling","postalCode":"53547","locality":"Leubsdorf","municipality":{"key":"07138037","name":"Leubsdorf","type":"Kreisangehörige_Gemeinde"},"district":{"key":"07138","name":"Neuwied","type":"Landkreis"},"federalState":{"key":"07","name":"Rheinland-Pfalz"}},{"name":"Im Mühlenberg","postalCode":"53547","locality":"Leubsdorf","municipality":{"key":"07138037","name":"Leubsdorf","type":"Kreisangehörige_Gemeinde"},"district":{"key":"07138","name":"Neuwied","type":"Landkreis"},"federalState":{"key":"07","name":"Rheinland-Pfalz"}},{"name":"Im Plenzer","postalCode":"53547","locality":"Leubsdorf","municipality":{"key":"07138037","name":"Leubsdorf","type":"Kreisangehörige_Gemeinde"},"district":{"key":"07138","name":"Neuwied","type":"Landkreis"},"federalState":{"key":"07","name":"Rheinland-Pfalz"}},{"name":"Im Sandbüchel","postalCode":"53547","locality":"Leubsdorf","municipality":{"key":"07138037","name":"Leubsdorf","type":"Kreisangehörige_Gemeinde"},"district":{"key":"07138","name":"Neuwied","type":"Landkreis"},"federalState":{"key":"07","name":"Rheinland-Pfalz"}},{"name":"Im Sayen","postalCode":"53547","locality":"Leubsdorf","municipality":{"key":"07138037","name":"Leubsdorf","type":"Kreisangehörige_Gemeinde"},"district":{"key":"07138","name":"Neuwied","type":"Landkreis"},"federalState":{"key":"07","name":"Rheinland-Pfalz"}},{"name":"Im Wiesengrund","postalCode":"53562","locality":"Leubsdorf","municipality":{"key":"07138037","name":"Leubsdorf","type":"Kreisangehörige_Gemeinde"},"district":{"key":"07138","name":"Neuwied","type":"Landkreis"},"federalState":{"key":"07","name":"Rheinland-Pfalz"}},{"name":"In der Hohl","postalCode":"53547","locality":"Leubsdorf","municipality":{"key":"07138037","name":"Leubsdorf","type":"Kreisangehörige_Gemeinde"},"district":{"key":"07138","name":"Neuwied","type":"Landkreis"},"federalState":{"key":"07","name":"Rheinland-Pfalz"}},{"name":"In der Oberau","postalCode":"53547","locality":"Leubsdorf","municipality":{"key":"07138037","name":"Leubsdorf","type":"Kreisangehörige_Gemeinde"},"district":{"key":"07138","name":"Neuwied","type":"Landkreis"},"federalState":{"key":"07","name":"Rheinland-Pfalz"}},{"name":"Kammweg","postalCode":"09573","locality":"Leubsdorf","municipality":{"key":"14522320","name":"Leubsdorf","type":"Kreisangehörige_Gemeinde"},"district":{"key":"14522","name":"Mittelsachsen","type":"Landkreis"},"federalState":{"key":"14","name":"Sachsen"}},{"name":"Kapellenstr.","postalCode":"53562","locality":"Leubsdorf","municipality":{"key":"07138037","name":"Leubsdorf","type":"Kreisangehörige_Gemeinde"},"district":{"key":"07138","name":"Neuwied","type":"Landkreis"},"federalState":{"key":"07","name":"Rheinland-Pfalz"}},{"name":"Kirchsteig","postalCode":"09573","locality":"Leubsdorf","municipality":{"key":"14522320","name":"Leubsdorf","type":"Kreisangehörige_Gemeinde"},"district":{"key":"14522","name":"Mittelsachsen","type":"Landkreis"},"federalState":{"key":"14","name":"Sachsen"}},{"name":"Kirchstr.","postalCode":"53547","locality":"Leubsdorf","municipality":{"key":"07138037","name":"Leubsdorf","type":"Kreisangehörige_Gemeinde"},"district":{"key":"07138","name":"Neuwied","type":"Landkreis"},"federalState":{"key":"07","name":"Rheinland-Pfalz"}},{"name":"Kirchweg","postalCode":"09573","locality":"Leubsdorf","municipality":{"key":"14522320","name":"Leubsdorf","type":"Kreisangehörige_Gemeinde"},"district":{"key":"14522","name":"Mittelsachsen","type":"Landkreis"},"federalState":{"key":"14","name":"Sachsen"}},{"name":"Klötzerweg","postalCode":"09573","locality":"Leubsdorf","municipality":{"key":"14522320","name":"Leubsdorf","type":"Kreisangehörige_Gemeinde"},"district":{"key":"14522","name":"Mittelsachsen","type":"Landkreis"},"federalState":{"key":"14","name":"Sachsen"}},{"name":"Kreuzstr.","postalCode":"53547","locality":"Leubsdorf","municipality":{"key":"07138037","name":"Leubsdorf","type":"Kreisangehörige_Gemeinde"},"district":{"key":"07138","name":"Neuwied","type":"Landkreis"},"federalState":{"key":"07","name":"Rheinland-Pfalz"}},{"name":"Krumscheid","postalCode":"53547","locality":"Leubsdorf","municipality":{"key":"07138037","name":"Leubsdorf","type":"Kreisangehörige_Gemeinde"},"district":{"key":"07138","name":"Neuwied","type":"Landkreis"},"federalState":{"key":"07","name":"Rheinland-Pfalz"}},{"name":"Leubsdorfer Str.","postalCode":"09573","locality":"Leubsdorf","municipality":{"key":"14522320","name":"Leubsdorf","type":"Kreisangehörige_Gemeinde"},"district":{"key":"14522","name":"Mittelsachsen","type":"Landkreis"},"federalState":{"key":"14","name":"Sachsen"}},{"name":"Lindnerweg","postalCode":"09573","locality":"Leubsdorf","municipality":{"key":"14522320","name":"Leubsdorf","type":"Kreisangehörige_Gemeinde"},"district":{"key":"14522","name":"Mittelsachsen","type":"Landkreis"},"federalState":{"key":"14","name":"Sachsen"}},{"name":"Linzer Weg","postalCode":"53547","locality":"Leubsdorf","municipality":{"key":"07138037","name":"Leubsdorf","type":"Kreisangehörige_Gemeinde"},"district":{"key":"07138","name":"Neuwied","type":"Landkreis"},"federalState":{"key":"07","name":"Rheinland-Pfalz"}},{"name":"Loheweg","postalCode":"09573","locality":"Leubsdorf","municipality":{"key":"14522320","name":"Leubsdorf","type":"Kreisangehörige_Gemeinde"},"district":{"key":"14522","name":"Mittelsachsen","type":"Landkreis"},"federalState":{"key":"14","name":"Sachsen"}},{"name":"Lößnitztaler Weg","postalCode":"09573","locality":"Leubsdorf","municipality":{"key":"14522320","name":"Leubsdorf","type":"Kreisangehörige_Gemeinde"},"district":{"key":"14522","name":"Mittelsachsen","type":"Landkreis"},"federalState":{"key":"14","name":"Sachsen"}},{"name":"LPG-Weg","postalCode":"09573","locality":"Leubsdorf","municipality":{"key":"14522320","name":"Leubsdorf","type":"Kreisangehörige_Gemeinde"},"district":{"key":"14522","name":"Mittelsachsen","type":"Landkreis"},"federalState":{"key":"14","name":"Sachsen"}},{"name":"Marbacher Str.","postalCode":"09573","locality":"Leubsdorf","municipality":{"key":"14522320","name":"Leubsdorf","type":"Kreisangehörige_Gemeinde"},"district":{"key":"14522","name":"Mittelsachsen","type":"Landkreis"},"federalState":{"key":"14","name":"Sachsen"}},{"name":"Metzdorfer Str.","postalCode":"09573","locality":"Leubsdorf","municipality":{"key":"14522320","name":"Leubsdorf","type":"Kreisangehörige_Gemeinde"},"district":{"key":"14522","name":"Mittelsachsen","type":"Landkreis"},"federalState":{"key":"14","name":"Sachsen"}},{"name":"Neue Siedlung","postalCode":"09573","locality":"Leubsdorf","municipality":{"key":"14522320","name":"Leubsdorf","type":"Kreisangehörige_Gemeinde"},"district":{"key":"14522","name":"Mittelsachsen","type":"Landkreis"},"federalState":{"key":"14","name":"Sachsen"}},{"name":"Nurda-Park","postalCode":"53562","locality":"Leubsdorf","municipality":{"key":"07138037","name":"Leubsdorf","type":"Kreisangehörige_Gemeinde"},"district":{"key":"07138","name":"Neuwied","type":"Landkreis"},"federalState":{"key":"07","name":"Rheinland-Pfalz"}},{"name":"Oberschar","postalCode":"09573","locality":"Leubsdorf","municipality":{"key":"14522320","name":"Leubsdorf","type":"Kreisangehörige_Gemeinde"},"district":{"key":"14522","name":"Mittelsachsen","type":"Landkreis"},"federalState":{"key":"14","name":"Sachsen"}},{"name":"Parkettweg","postalCode":"09573","locality":"Leubsdorf","municipality":{"key":"14522320","name":"Leubsdorf","type":"Kreisangehörige_Gemeinde"},"district":{"key":"14522","name":"Mittelsachsen","type":"Landkreis"},"federalState":{"key":"14","name":"Sachsen"}},{"name":"Parkweg","postalCode":"09573","locality":"Leubsdorf","municipality":{"key":"14522320","name":"Leubsdorf","type":"Kreisangehörige_Gemeinde"},"district":{"key":"14522","name":"Mittelsachsen","type":"Landkreis"},"federalState":{"key":"14","name":"Sachsen"}},{"name":"Pfarrgasse","postalCode":"09573","locality":"Leubsdorf","municipality":{"key":"14522320","name":"Leubsdorf","type":"Kreisangehörige_Gemeinde"},"district":{"key":"14522","name":"Mittelsachsen","type":"Landkreis"},"federalState":{"key":"14","name":"Sachsen"}},{"name":"Quellgasse","postalCode":"09573","locality":"Leubsdorf","municipality":{"key":"14522320","name":"Leubsdorf","type":"Kreisangehörige_Gemeinde"},"district":{"key":"14522","name":"Mittelsachsen","type":"Landkreis"},"federalState":{"key":"14","name":"Sachsen"}},{"name":"Querweg","postalCode":"09573","locality":"Leubsdorf","municipality":{"key":"14522320","name":"Leubsdorf","type":"Kreisangehörige_Gemeinde"},"district":{"key":"14522","name":"Mittelsachsen","type":"Landkreis"},"federalState":{"key":"14","name":"Sachsen"}},{"name":"Rheintalstr.","postalCode":"53547","locality":"Leubsdorf","municipality":{"key":"07138037","name":"Leubsdorf","type":"Kreisangehörige_Gemeinde"},"district":{"key":"07138","name":"Neuwied","type":"Landkreis"},"federalState":{"key":"07","name":"Rheinland-Pfalz"}},{"name":"Ringstr.","postalCode":"09573","locality":"Leubsdorf","municipality":{"key":"14522320","name":"Leubsdorf","type":"Kreisangehörige_Gemeinde"},"district":{"key":"14522","name":"Mittelsachsen","type":"Landkreis"},"federalState":{"key":"14","name":"Sachsen"}},{"name":"Rosenweg","postalCode":"09573","locality":"Leubsdorf","municipality":{"key":"14522320","name":"Leubsdorf","type":"Kreisangehörige_Gemeinde"},"district":{"key":"14522","name":"Mittelsachsen","type":"Landkreis"},"federalState":{"key":"14","name":"Sachsen"}},{"name":"Rothe-Kreuz","postalCode":"53562","locality":"Leubsdorf","municipality":{"key":"07138037","name":"Leubsdorf","type":"Kreisangehörige_Gemeinde"},"district":{"key":"07138","name":"Neuwied","type":"Landkreis"},"federalState":{"key":"07","name":"Rheinland-Pfalz"}},{"name":"Salzleckenweg","postalCode":"09573","locality":"Leubsdorf","municipality":{"key":"14522320","name":"Leubsdorf","type":"Kreisangehörige_Gemeinde"},"district":{"key":"14522","name":"Mittelsachsen","type":"Landkreis"},"federalState":{"key":"14","name":"Sachsen"}},{"name":"Saubachweg","postalCode":"09573","locality":"Leubsdorf","municipality":{"key":"14522320","name":"Leubsdorf","type":"Kreisangehörige_Gemeinde"},"district":{"key":"14522","name":"Mittelsachsen","type":"Landkreis"},"federalState":{"key":"14","name":"Sachsen"}},{"name":"Schellenberger Str.","postalCode":"09573","locality":"Leubsdorf","municipality":{"key":"14522320","name":"Leubsdorf","type":"Kreisangehörige_Gemeinde"},"district":{"key":"14522","name":"Mittelsachsen","type":"Landkreis"},"federalState":{"key":"14","name":"Sachsen"}},{"name":"Schulgasse","postalCode":"09573","locality":"Leubsdorf","municipality":{"key":"14522320","name":"Leubsdorf","type":"Kreisangehörige_Gemeinde"},"district":{"key":"14522","name":"Mittelsachsen","type":"Landkreis"},"federalState":{"key":"14","name":"Sachsen"}},{"name":"Schwarzbergstr.","postalCode":"53547","locality":"Leubsdorf","municipality":{"key":"07138037","name":"Leubsdorf","type":"Kreisangehörige_Gemeinde"},"district":{"key":"07138","name":"Neuwied","type":"Landkreis"},"federalState":{"key":"07","name":"Rheinland-Pfalz"}},{"name":"Schwarzenbergstr.","postalCode":"53547","locality":"Leubsdorf","municipality":{"key":"07138037","name":"Leubsdorf","type":"Kreisangehörige_Gemeinde"},"district":{"key":"07138","name":"Neuwied","type":"Landkreis"},"federalState":{"key":"07","name":"Rheinland-Pfalz"}},{"name":"Seilergasse","postalCode":"09573","locality":"Leubsdorf","municipality":{"key":"14522320","name":"Leubsdorf","type":"Kreisangehörige_Gemeinde"},"district":{"key":"14522","name":"Mittelsachsen","type":"Landkreis"},"federalState":{"key":"14","name":"Sachsen"}},{"name":"Siedlung","postalCode":"09573","locality":"Leubsdorf","municipality":{"key":"14522320","name":"Leubsdorf","type":"Kreisangehörige_Gemeinde"},"district":{"key":"14522","name":"Mittelsachsen","type":"Landkreis"},"federalState":{"key":"14","name":"Sachsen"}},{"name":"Sonnenweg","postalCode":"53547","locality":"Leubsdorf","municipality":{"key":"07138037","name":"Leubsdorf","type":"Kreisangehörige_Gemeinde"},"district":{"key":"07138","name":"Neuwied","type":"Landkreis"},"federalState":{"key":"07","name":"Rheinland-Pfalz"}},{"name":"Stilles Tal","postalCode":"09573","locality":"Leubsdorf","municipality":{"key":"14522320","name":"Leubsdorf","type":"Kreisangehörige_Gemeinde"},"district":{"key":"14522","name":"Mittelsachsen","type":"Landkreis"},"federalState":{"key":"14","name":"Sachsen"}},{"name":"Str. zur Lohe","postalCode":"09573","locality":"Leubsdorf","municipality":{"key":"14522320","name":"Leubsdorf","type":"Kreisangehörige_Gemeinde"},"district":{"key":"14522","name":"Mittelsachsen","type":"Landkreis"},"federalState":{"key":"14","name":"Sachsen"}},{"name":"Talstr.","postalCode":"09573","locality":"Leubsdorf","municipality":{"key":"14522320","name":"Leubsdorf","type":"Kreisangehörige_Gemeinde"},"district":{"key":"14522","name":"Mittelsachsen","type":"Landkreis"},"federalState":{"key":"14","name":"Sachsen"}},{"name":"Trinksweg","postalCode":"09573","locality":"Leubsdorf","municipality":{"key":"14522320","name":"Leubsdorf","type":"Kreisangehörige_Gemeinde"},"district":{"key":"14522","name":"Mittelsachsen","type":"Landkreis"},"federalState":{"key":"14","name":"Sachsen"}},{"name":"Viebigweg","postalCode":"09573","locality":"Leubsdorf","municipality":{"key":"14522320","name":"Leubsdorf","type":"Kreisangehörige_Gemeinde"},"district":{"key":"14522","name":"Mittelsachsen","type":"Landkreis"},"federalState":{"key":"14","name":"Sachsen"}},{"name":"Waldhaus","postalCode":"09573","locality":"Leubsdorf","municipality":{"key":"14522320","name":"Leubsdorf","type":"Kreisangehörige_Gemeinde"},"district":{"key":"14522","name":"Mittelsachsen","type":"Landkreis"},"federalState":{"key":"14","name":"Sachsen"}},{"name":"Wendeplatz","postalCode":"09573","locality":"Leubsdorf","municipality":{"key":"14522320","name":"Leubsdorf","type":"Kreisangehörige_Gemeinde"},"district":{"key":"14522","name":"Mittelsachsen","type":"Landkreis"},"federalState":{"key":"14","name":"Sachsen"}},{"name":"Zehntgasse","postalCode":"53547","locality":"Leubsdorf","municipality":{"key":"07138037","name":"Leubsdorf","type":"Kreisangehörige_Gemeinde"},"district":{"key":"07138","name":"Neuwied","type":"Landkreis"},"federalState":{"key":"07","name":"Rheinland-Pfalz"}},{"name":"Ziegelei","postalCode":"09573","locality":"Leubsdorf","municipality":{"key":"14522320","name":"Leubsdorf","type":"Kreisangehörige_Gemeinde"},"district":{"key":"14522","name":"Mittelsachsen","type":"Landkreis"},"federalState":{"key":"14","name":"Sachsen"}},{"name":"Zum Sportplatz","postalCode":"09573","locality":"Leubsdorf","municipality":{"key":"14522320","name":"Leubsdorf","type":"Kreisangehörige_Gemeinde"},"district":{"key":"14522","name":"Mittelsachsen","type":"Landkreis"},"federalState":{"key":"14","name":"Sachsen"}},{"name":"Zur Alten Dorfstr.","postalCode":"09573","locality":"Leubsdorf","municipality":{"key":"14522320","name":"Leubsdorf","type":"Kreisangehörige_Gemeinde"},"district":{"key":"14522","name":"Mittelsachsen","type":"Landkreis"},"federalState":{"key":"14","name":"Sachsen"}},{"name":"Zur Schloßmühle","postalCode":"09573","locality":"Leubsdorf","municipality":{"key":"14522320","name":"Leubsdorf","type":"Kreisangehörige_Gemeinde"},"district":{"key":"14522","name":"Mittelsachsen","type":"Landkreis"},"federalState":{"key":"14","name":"Sachsen"}},]