[{"name":"Ahornring","postalCode":"04828","locality":"Bennewitz","municipality":{"key":"14729030","name":"Bennewitz","type":"Kreisangehörige_Gemeinde"},"district":{"key":"14729","name":"Leipzig","type":"Landkreis"},"federalState":{"key":"14","name":"Sachsen"}},{"name":"Albert-Kuntz-Str.","postalCode":"04828","locality":"Bennewitz","municipality":{"key":"14729030","name":"Bennewitz","type":"Kreisangehörige_Gemeinde"},"district":{"key":"14729","name":"Leipzig","type":"Landkreis"},"federalState":{"key":"14","name":"Sachsen"}},{"name":"A-Linie","postalCode":"04828","locality":"Bennewitz","municipality":{"key":"14729030","name":"Bennewitz","type":"Kreisangehörige_Gemeinde"},"district":{"key":"14729","name":"Leipzig","type":"Landkreis"},"federalState":{"key":"14","name":"Sachsen"}},{"name":"Altenbacher Str.","postalCode":"04828","locality":"Bennewitz","municipality":{"key":"14729030","name":"Bennewitz","type":"Kreisangehörige_Gemeinde"},"district":{"key":"14729","name":"Leipzig","type":"Landkreis"},"federalState":{"key":"14","name":"Sachsen"}},{"name":"Altenhainer Str.","postalCode":"04828","locality":"Bennewitz","municipality":{"key":"14729030","name":"Bennewitz","type":"Kreisangehörige_Gemeinde"},"district":{"key":"14729","name":"Leipzig","type":"Landkreis"},"federalState":{"key":"14","name":"Sachsen"}},{"name":"Am Anger","postalCode":"04828","locality":"Bennewitz","municipality":{"key":"14729030","name":"Bennewitz","type":"Kreisangehörige_Gemeinde"},"district":{"key":"14729","name":"Leipzig","type":"Landkreis"},"federalState":{"key":"14","name":"Sachsen"}},{"name":"Am Badeteich","postalCode":"04828","locality":"Bennewitz","municipality":{"key":"14729030","name":"Bennewitz","type":"Kreisangehörige_Gemeinde"},"district":{"key":"14729","name":"Leipzig","type":"Landkreis"},"federalState":{"key":"14","name":"Sachsen"}},{"name":"Am Berg","postalCode":"04828","locality":"Bennewitz","municipality":{"key":"14729030","name":"Bennewitz","type":"Kreisangehörige_Gemeinde"},"district":{"key":"14729","name":"Leipzig","type":"Landkreis"},"federalState":{"key":"14","name":"Sachsen"}},{"name":"Am Birkengarten","postalCode":"04828","locality":"Bennewitz","municipality":{"key":"14729030","name":"Bennewitz","type":"Kreisangehörige_Gemeinde"},"district":{"key":"14729","name":"Leipzig","type":"Landkreis"},"federalState":{"key":"14","name":"Sachsen"}},{"name":"Am Dreieck","postalCode":"04828","locality":"Bennewitz","municipality":{"key":"14729030","name":"Bennewitz","type":"Kreisangehörige_Gemeinde"},"district":{"key":"14729","name":"Leipzig","type":"Landkreis"},"federalState":{"key":"14","name":"Sachsen"}},{"name":"Am Eichberg","postalCode":"04828","locality":"Bennewitz","municipality":{"key":"14729030","name":"Bennewitz","type":"Kreisangehörige_Gemeinde"},"district":{"key":"14729","name":"Leipzig","type":"Landkreis"},"federalState":{"key":"14","name":"Sachsen"}},{"name":"Am Heller","postalCode":"04828","locality":"Bennewitz","municipality":{"key":"14729030","name":"Bennewitz","type":"Kreisangehörige_Gemeinde"},"district":{"key":"14729","name":"Leipzig","type":"Landkreis"},"federalState":{"key":"14","name":"Sachsen"}},{"name":"Am Kirschberg","postalCode":"04828","locality":"Bennewitz","municipality":{"key":"14729030","name":"Bennewitz","type":"Kreisangehörige_Gemeinde"},"district":{"key":"14729","name":"Leipzig","type":"Landkreis"},"federalState":{"key":"14","name":"Sachsen"}},{"name":"Am Schwarzwasser","postalCode":"04828","locality":"Bennewitz","municipality":{"key":"14729030","name":"Bennewitz","type":"Kreisangehörige_Gemeinde"},"district":{"key":"14729","name":"Leipzig","type":"Landkreis"},"federalState":{"key":"14","name":"Sachsen"}},{"name":"Am Sportplatz","postalCode":"04828","locality":"Bennewitz","municipality":{"key":"14729030","name":"Bennewitz","type":"Kreisangehörige_Gemeinde"},"district":{"key":"14729","name":"Leipzig","type":"Landkreis"},"federalState":{"key":"14","name":"Sachsen"}},{"name":"Am Steinbruch","postalCode":"04828","locality":"Bennewitz","municipality":{"key":"14729030","name":"Bennewitz","type":"Kreisangehörige_Gemeinde"},"district":{"key":"14729","name":"Leipzig","type":"Landkreis"},"federalState":{"key":"14","name":"Sachsen"}},{"name":"Am Teich","postalCode":"04828","locality":"Bennewitz","municipality":{"key":"14729030","name":"Bennewitz","type":"Kreisangehörige_Gemeinde"},"district":{"key":"14729","name":"Leipzig","type":"Landkreis"},"federalState":{"key":"14","name":"Sachsen"}},{"name":"Am Walde","postalCode":"04828","locality":"Bennewitz","municipality":{"key":"14729030","name":"Bennewitz","type":"Kreisangehörige_Gemeinde"},"district":{"key":"14729","name":"Leipzig","type":"Landkreis"},"federalState":{"key":"14","name":"Sachsen"}},{"name":"An der Hahnewiese","postalCode":"04828","locality":"Bennewitz","municipality":{"key":"14729030","name":"Bennewitz","type":"Kreisangehörige_Gemeinde"},"district":{"key":"14729","name":"Leipzig","type":"Landkreis"},"federalState":{"key":"14","name":"Sachsen"}},{"name":"An der Mulde","postalCode":"04828","locality":"Bennewitz","municipality":{"key":"14729030","name":"Bennewitz","type":"Kreisangehörige_Gemeinde"},"district":{"key":"14729","name":"Leipzig","type":"Landkreis"},"federalState":{"key":"14","name":"Sachsen"}},{"name":"An der Schule","postalCode":"04828","locality":"Bennewitz","municipality":{"key":"14729030","name":"Bennewitz","type":"Kreisangehörige_Gemeinde"},"district":{"key":"14729","name":"Leipzig","type":"Landkreis"},"federalState":{"key":"14","name":"Sachsen"}},{"name":"An der Technik","postalCode":"04828","locality":"Bennewitz","municipality":{"key":"14729030","name":"Bennewitz","type":"Kreisangehörige_Gemeinde"},"district":{"key":"14729","name":"Leipzig","type":"Landkreis"},"federalState":{"key":"14","name":"Sachsen"}},{"name":"An der Teeplantage","postalCode":"04828","locality":"Bennewitz","municipality":{"key":"14729030","name":"Bennewitz","type":"Kreisangehörige_Gemeinde"},"district":{"key":"14729","name":"Leipzig","type":"Landkreis"},"federalState":{"key":"14","name":"Sachsen"}},{"name":"Auf dem Wiesenberg","postalCode":"04828","locality":"Bennewitz","municipality":{"key":"14729030","name":"Bennewitz","type":"Kreisangehörige_Gemeinde"},"district":{"key":"14729","name":"Leipzig","type":"Landkreis"},"federalState":{"key":"14","name":"Sachsen"}},{"name":"Bacher Weg","postalCode":"04828","locality":"Bennewitz","municipality":{"key":"14729030","name":"Bennewitz","type":"Kreisangehörige_Gemeinde"},"district":{"key":"14729","name":"Leipzig","type":"Landkreis"},"federalState":{"key":"14","name":"Sachsen"}},{"name":"Bahnhofstr.","postalCode":"04828","locality":"Bennewitz","municipality":{"key":"14729030","name":"Bennewitz","type":"Kreisangehörige_Gemeinde"},"district":{"key":"14729","name":"Leipzig","type":"Landkreis"},"federalState":{"key":"14","name":"Sachsen"}},{"name":"Bergstr.","postalCode":"04828","locality":"Bennewitz","municipality":{"key":"14729030","name":"Bennewitz","type":"Kreisangehörige_Gemeinde"},"district":{"key":"14729","name":"Leipzig","type":"Landkreis"},"federalState":{"key":"14","name":"Sachsen"}},{"name":"Brandiser Str.","postalCode":"04828","locality":"Bennewitz","municipality":{"key":"14729030","name":"Bennewitz","type":"Kreisangehörige_Gemeinde"},"district":{"key":"14729","name":"Leipzig","type":"Landkreis"},"federalState":{"key":"14","name":"Sachsen"}},{"name":"Brunnengasse","postalCode":"04828","locality":"Bennewitz","municipality":{"key":"14729030","name":"Bennewitz","type":"Kreisangehörige_Gemeinde"},"district":{"key":"14729","name":"Leipzig","type":"Landkreis"},"federalState":{"key":"14","name":"Sachsen"}},{"name":"Buchenweg","postalCode":"04828","locality":"Bennewitz","municipality":{"key":"14729030","name":"Bennewitz","type":"Kreisangehörige_Gemeinde"},"district":{"key":"14729","name":"Leipzig","type":"Landkreis"},"federalState":{"key":"14","name":"Sachsen"}},{"name":"Cäcilienstr.","postalCode":"04317","locality":"Leipzig","municipality":{"key":"14713000","name":"Leipzig, Stadt","type":"Kreisfreie_Stadt"},"district":{"key":"14713","name":"Leipzig, Stadt","type":"Kreisfreie_Stadt"},"federalState":{"key":"14","name":"Sachsen"}},{"name":"Calaustr.","postalCode":"04229","locality":"Leipzig","municipality":{"key":"14713000","name":"Leipzig, Stadt","type":"Kreisfreie_Stadt"},"district":{"key":"14713","name":"Leipzig, Stadt","type":"Kreisfreie_Stadt"},"federalState":{"key":"14","name":"Sachsen"}},{"name":"Calderónweg","postalCode":"04289","locality":"Leipzig","municipality":{"key":"14713000","name":"Leipzig, Stadt","type":"Kreisfreie_Stadt"},"district":{"key":"14713","name":"Leipzig, Stadt","type":"Kreisfreie_Stadt"},"federalState":{"key":"14","name":"Sachsen"}},{"name":"Calvisiusstr.","postalCode":"04177","locality":"Leipzig","municipality":{"key":"14713000","name":"Leipzig, Stadt","type":"Kreisfreie_Stadt"},"district":{"key":"14713","name":"Leipzig, Stadt","type":"Kreisfreie_Stadt"},"federalState":{"key":"14","name":"Sachsen"}},{"name":"Campestr.","postalCode":"04229","locality":"Leipzig","municipality":{"key":"14713000","name":"Leipzig, Stadt","type":"Kreisfreie_Stadt"},"district":{"key":"14713","name":"Leipzig, Stadt","type":"Kreisfreie_Stadt"},"federalState":{"key":"14","name":"Sachsen"}},{"name":"Cannaweg","postalCode":"04318","locality":"Leipzig","municipality":{"key":"14713000","name":"Leipzig, Stadt","type":"Kreisfreie_Stadt"},"district":{"key":"14713","name":"Leipzig, Stadt","type":"Kreisfreie_Stadt"},"federalState":{"key":"14","name":"Sachsen"}},{"name":"Carlebachstr.","postalCode":"04357","locality":"Leipzig","municipality":{"key":"14713000","name":"Leipzig, Stadt","type":"Kreisfreie_Stadt"},"district":{"key":"14713","name":"Leipzig, Stadt","type":"Kreisfreie_Stadt"},"federalState":{"key":"14","name":"Sachsen"}},{"name":"Carl-Hinné-Str.","postalCode":"04178","locality":"Leipzig","municipality":{"key":"14713000","name":"Leipzig, Stadt","type":"Kreisfreie_Stadt"},"district":{"key":"14713","name":"Leipzig, Stadt","type":"Kreisfreie_Stadt"},"federalState":{"key":"14","name":"Sachsen"}},{"name":"Carl-Maria-von-Weber-Str.","postalCode":"04109","locality":"Leipzig","municipality":{"key":"14713000","name":"Leipzig, Stadt","type":"Kreisfreie_Stadt"},"district":{"key":"14713","name":"Leipzig, Stadt","type":"Kreisfreie_Stadt"},"federalState":{"key":"14","name":"Sachsen"}},{"name":"Carl-Meyer-Str.","postalCode":"04178","locality":"Leipzig","municipality":{"key":"14713000","name":"Leipzig, Stadt","type":"Kreisfreie_Stadt"},"district":{"key":"14713","name":"Leipzig, Stadt","type":"Kreisfreie_Stadt"},"federalState":{"key":"14","name":"Sachsen"}},{"name":"Carl-Munde-Str.","postalCode":"04288","locality":"Leipzig","municipality":{"key":"14713000","name":"Leipzig, Stadt","type":"Kreisfreie_Stadt"},"district":{"key":"14713","name":"Leipzig, Stadt","type":"Kreisfreie_Stadt"},"federalState":{"key":"14","name":"Sachsen"}},{"name":"Carl-Weichelt-Str.","postalCode":"04249","locality":"Leipzig","municipality":{"key":"14713000","name":"Leipzig, Stadt","type":"Kreisfreie_Stadt"},"district":{"key":"14713","name":"Leipzig, Stadt","type":"Kreisfreie_Stadt"},"federalState":{"key":"14","name":"Sachsen"}},{"name":"Carpzovstr.","postalCode":"04317","locality":"Leipzig","municipality":{"key":"14713000","name":"Leipzig, Stadt","type":"Kreisfreie_Stadt"},"district":{"key":"14713","name":"Leipzig, Stadt","type":"Kreisfreie_Stadt"},"federalState":{"key":"14","name":"Sachsen"}},{"name":"Carusbrücke","postalCode":"04109","locality":"Leipzig","municipality":{"key":"14713000","name":"Leipzig, Stadt","type":"Kreisfreie_Stadt"},"district":{"key":"14713","name":"Leipzig, Stadt","type":"Kreisfreie_Stadt"},"federalState":{"key":"14","name":"Sachsen"}},{"name":"Cervantesweg","postalCode":"04289","locality":"Leipzig","municipality":{"key":"14713000","name":"Leipzig, Stadt","type":"Kreisfreie_Stadt"},"district":{"key":"14713","name":"Leipzig, Stadt","type":"Kreisfreie_Stadt"},"federalState":{"key":"14","name":"Sachsen"}},{"name":"Cézanneweg","postalCode":"04289","locality":"Leipzig","municipality":{"key":"14713000","name":"Leipzig, Stadt","type":"Kreisfreie_Stadt"},"district":{"key":"14713","name":"Leipzig, Stadt","type":"Kreisfreie_Stadt"},"federalState":{"key":"14","name":"Sachsen"}},{"name":"Charlottenstr.","postalCode":"04317","locality":"Leipzig","municipality":{"key":"14713000","name":"Leipzig, Stadt","type":"Kreisfreie_Stadt"},"district":{"key":"14713","name":"Leipzig, Stadt","type":"Kreisfreie_Stadt"},"federalState":{"key":"14","name":"Sachsen"}},{"name":"Charlottenweg","postalCode":"04159","locality":"Leipzig","municipality":{"key":"14713000","name":"Leipzig, Stadt","type":"Kreisfreie_Stadt"},"district":{"key":"14713","name":"Leipzig, Stadt","type":"Kreisfreie_Stadt"},"federalState":{"key":"14","name":"Sachsen"}},{"name":"Chemnitzer Str.","postalCode":"04289","locality":"Leipzig","municipality":{"key":"14713000","name":"Leipzig, Stadt","type":"Kreisfreie_Stadt"},"district":{"key":"14713","name":"Leipzig, Stadt","type":"Kreisfreie_Stadt"},"federalState":{"key":"14","name":"Sachsen"}},{"name":"Cheruskerstr.","postalCode":"04299","locality":"Leipzig","municipality":{"key":"14713000","name":"Leipzig, Stadt","type":"Kreisfreie_Stadt"},"district":{"key":"14713","name":"Leipzig, Stadt","type":"Kreisfreie_Stadt"},"federalState":{"key":"14","name":"Sachsen"}},{"name":"Chopinstr.","postalCode":"04103","locality":"Leipzig","municipality":{"key":"14713000","name":"Leipzig, Stadt","type":"Kreisfreie_Stadt"},"district":{"key":"14713","name":"Leipzig, Stadt","type":"Kreisfreie_Stadt"},"federalState":{"key":"14","name":"Sachsen"}},{"name":"Christian-Ferkel-Str.","postalCode":"04159","locality":"Leipzig","municipality":{"key":"14713000","name":"Leipzig, Stadt","type":"Kreisfreie_Stadt"},"district":{"key":"14713","name":"Leipzig, Stadt","type":"Kreisfreie_Stadt"},"federalState":{"key":"14","name":"Sachsen"}},{"name":"Christian-Grunert-Str.","postalCode":"04288","locality":"Leipzig","municipality":{"key":"14713000","name":"Leipzig, Stadt","type":"Kreisfreie_Stadt"},"district":{"key":"14713","name":"Leipzig, Stadt","type":"Kreisfreie_Stadt"},"federalState":{"key":"14","name":"Sachsen"}},{"name":"Christian-Schmid-Str.","postalCode":"04319","locality":"Leipzig","municipality":{"key":"14713000","name":"Leipzig, Stadt","type":"Kreisfreie_Stadt"},"district":{"key":"14713","name":"Leipzig, Stadt","type":"Kreisfreie_Stadt"},"federalState":{"key":"14","name":"Sachsen"}},{"name":"Christianstr.","postalCode":"04105","locality":"Leipzig","municipality":{"key":"14713000","name":"Leipzig, Stadt","type":"Kreisfreie_Stadt"},"district":{"key":"14713","name":"Leipzig, Stadt","type":"Kreisfreie_Stadt"},"federalState":{"key":"14","name":"Sachsen"}},{"name":"Christian-Wille-Weg","postalCode":"04316","locality":"Leipzig","municipality":{"key":"14713000","name":"Leipzig, Stadt","type":"Kreisfreie_Stadt"},"district":{"key":"14713","name":"Leipzig, Stadt","type":"Kreisfreie_Stadt"},"federalState":{"key":"14","name":"Sachsen"}},{"name":"Christoph-Probst-Str.","postalCode":"04159","locality":"Leipzig","municipality":{"key":"14713000","name":"Leipzig, Stadt","type":"Kreisfreie_Stadt"},"district":{"key":"14713","name":"Leipzig, Stadt","type":"Kreisfreie_Stadt"},"federalState":{"key":"14","name":"Sachsen"}},{"name":"Christoph-Schubert-Str.","postalCode":"04158","locality":"Leipzig","municipality":{"key":"14713000","name":"Leipzig, Stadt","type":"Kreisfreie_Stadt"},"district":{"key":"14713","name":"Leipzig, Stadt","type":"Kreisfreie_Stadt"},"federalState":{"key":"14","name":"Sachsen"}},{"name":"Chrysanthemenweg","postalCode":"04318","locality":"Leipzig","municipality":{"key":"14713000","name":"Leipzig, Stadt","type":"Kreisfreie_Stadt"},"district":{"key":"14713","name":"Leipzig, Stadt","type":"Kreisfreie_Stadt"},"federalState":{"key":"14","name":"Sachsen"}},{"name":"Cichoriusstr.","postalCode":"04318","locality":"Leipzig","municipality":{"key":"14713000","name":"Leipzig, Stadt","type":"Kreisfreie_Stadt"},"district":{"key":"14713","name":"Leipzig, Stadt","type":"Kreisfreie_Stadt"},"federalState":{"key":"14","name":"Sachsen"}},{"name":"Clara-Wieck-Str.","postalCode":"04347","locality":"Leipzig","municipality":{"key":"14713000","name":"Leipzig, Stadt","type":"Kreisfreie_Stadt"},"district":{"key":"14713","name":"Leipzig, Stadt","type":"Kreisfreie_Stadt"},"federalState":{"key":"14","name":"Sachsen"}},{"name":"Clara-Zetkin-Str.","postalCode":"04178","locality":"Leipzig","municipality":{"key":"14713000","name":"Leipzig, Stadt","type":"Kreisfreie_Stadt"},"district":{"key":"14713","name":"Leipzig, Stadt","type":"Kreisfreie_Stadt"},"federalState":{"key":"14","name":"Sachsen"}},{"name":"Claudiusstr.","postalCode":"04157","locality":"Leipzig","municipality":{"key":"14713000","name":"Leipzig, Stadt","type":"Kreisfreie_Stadt"},"district":{"key":"14713","name":"Leipzig, Stadt","type":"Kreisfreie_Stadt"},"federalState":{"key":"14","name":"Sachsen"}},{"name":"Clausewitzstr.","postalCode":"04159","locality":"Leipzig","municipality":{"key":"14713000","name":"Leipzig, Stadt","type":"Kreisfreie_Stadt"},"district":{"key":"14713","name":"Leipzig, Stadt","type":"Kreisfreie_Stadt"},"federalState":{"key":"14","name":"Sachsen"}},{"name":"Claußbruchstr.","postalCode":"04159","locality":"Leipzig","municipality":{"key":"14713000","name":"Leipzig, Stadt","type":"Kreisfreie_Stadt"},"district":{"key":"14713","name":"Leipzig, Stadt","type":"Kreisfreie_Stadt"},"federalState":{"key":"14","name":"Sachsen"}},{"name":"Clemens-Thieme-Str.","postalCode":"04288","locality":"Leipzig","municipality":{"key":"14713000","name":"Leipzig, Stadt","type":"Kreisfreie_Stadt"},"district":{"key":"14713","name":"Leipzig, Stadt","type":"Kreisfreie_Stadt"},"federalState":{"key":"14","name":"Sachsen"}},{"name":"Cletzener Weg","postalCode":"04129","locality":"Leipzig","municipality":{"key":"14713000","name":"Leipzig, Stadt","type":"Kreisfreie_Stadt"},"district":{"key":"14713","name":"Leipzig, Stadt","type":"Kreisfreie_Stadt"},"federalState":{"key":"14","name":"Sachsen"}},{"name":"Cleudner Str.","postalCode":"04349","locality":"Leipzig","municipality":{"key":"14713000","name":"Leipzig, Stadt","type":"Kreisfreie_Stadt"},"district":{"key":"14713","name":"Leipzig, Stadt","type":"Kreisfreie_Stadt"},"federalState":{"key":"14","name":"Sachsen"}},{"name":"Coblenzer Str.","postalCode":"04109","locality":"Leipzig","municipality":{"key":"14713000","name":"Leipzig, Stadt","type":"Kreisfreie_Stadt"},"district":{"key":"14713","name":"Leipzig, Stadt","type":"Kreisfreie_Stadt"},"federalState":{"key":"14","name":"Sachsen"}},{"name":"Cocciusstr.","postalCode":"04249","locality":"Leipzig","municipality":{"key":"14713000","name":"Leipzig, Stadt","type":"Kreisfreie_Stadt"},"district":{"key":"14713","name":"Leipzig, Stadt","type":"Kreisfreie_Stadt"},"federalState":{"key":"14","name":"Sachsen"}},{"name":"Cohnheimstr.","postalCode":"04289","locality":"Leipzig","municipality":{"key":"14713000","name":"Leipzig, Stadt","type":"Kreisfreie_Stadt"},"district":{"key":"14713","name":"Leipzig, Stadt","type":"Kreisfreie_Stadt"},"federalState":{"key":"14","name":"Sachsen"}},{"name":"Colberger Weg","postalCode":"04207","locality":"Leipzig","municipality":{"key":"14713000","name":"Leipzig, Stadt","type":"Kreisfreie_Stadt"},"district":{"key":"14713","name":"Leipzig, Stadt","type":"Kreisfreie_Stadt"},"federalState":{"key":"14","name":"Sachsen"}},{"name":"Colmbergsiedlung","postalCode":"04288","locality":"Leipzig","municipality":{"key":"14713000","name":"Leipzig, Stadt","type":"Kreisfreie_Stadt"},"district":{"key":"14713","name":"Leipzig, Stadt","type":"Kreisfreie_Stadt"},"federalState":{"key":"14","name":"Sachsen"}},{"name":"Colmblick","postalCode":"04288","locality":"Leipzig","municipality":{"key":"14713000","name":"Leipzig, Stadt","type":"Kreisfreie_Stadt"},"district":{"key":"14713","name":"Leipzig, Stadt","type":"Kreisfreie_Stadt"},"federalState":{"key":"14","name":"Sachsen"}},{"name":"Comeniusstr.","postalCode":"04315","locality":"Leipzig","municipality":{"key":"14713000","name":"Leipzig, Stadt","type":"Kreisfreie_Stadt"},"district":{"key":"14713","name":"Leipzig, Stadt","type":"Kreisfreie_Stadt"},"federalState":{"key":"14","name":"Sachsen"}},{"name":"Connewitzer Str.","postalCode":"04289","locality":"Leipzig","municipality":{"key":"14713000","name":"Leipzig, Stadt","type":"Kreisfreie_Stadt"},"district":{"key":"14713","name":"Leipzig, Stadt","type":"Kreisfreie_Stadt"},"federalState":{"key":"14","name":"Sachsen"}},{"name":"Coppiplatz","postalCode":"04157","locality":"Leipzig","municipality":{"key":"14713000","name":"Leipzig, Stadt","type":"Kreisfreie_Stadt"},"district":{"key":"14713","name":"Leipzig, Stadt","type":"Kreisfreie_Stadt"},"federalState":{"key":"14","name":"Sachsen"}},{"name":"Coppistr.","postalCode":"04129","locality":"Leipzig","municipality":{"key":"14713000","name":"Leipzig, Stadt","type":"Kreisfreie_Stadt"},"district":{"key":"14713","name":"Leipzig, Stadt","type":"Kreisfreie_Stadt"},"federalState":{"key":"14","name":"Sachsen"}},{"name":"Coppistr.","postalCode":"04157","locality":"Leipzig","municipality":{"key":"14713000","name":"Leipzig, Stadt","type":"Kreisfreie_Stadt"},"district":{"key":"14713","name":"Leipzig, Stadt","type":"Kreisfreie_Stadt"},"federalState":{"key":"14","name":"Sachsen"}},{"name":"Corinthstr.","postalCode":"04157","locality":"Leipzig","municipality":{"key":"14713000","name":"Leipzig, Stadt","type":"Kreisfreie_Stadt"},"district":{"key":"14713","name":"Leipzig, Stadt","type":"Kreisfreie_Stadt"},"federalState":{"key":"14","name":"Sachsen"}},{"name":"Dachsweg","postalCode":"04828","locality":"Bennewitz","municipality":{"key":"14729030","name":"Bennewitz","type":"Kreisangehörige_Gemeinde"},"district":{"key":"14729","name":"Leipzig","type":"Landkreis"},"federalState":{"key":"14","name":"Sachsen"}},{"name":"Deubener Str.","postalCode":"04828","locality":"Bennewitz","municipality":{"key":"14729030","name":"Bennewitz","type":"Kreisangehörige_Gemeinde"},"district":{"key":"14729","name":"Leipzig","type":"Landkreis"},"federalState":{"key":"14","name":"Sachsen"}},{"name":"Domholzweg","postalCode":"04828","locality":"Bennewitz","municipality":{"key":"14729030","name":"Bennewitz","type":"Kreisangehörige_Gemeinde"},"district":{"key":"14729","name":"Leipzig","type":"Landkreis"},"federalState":{"key":"14","name":"Sachsen"}},{"name":"Dorfstr.","postalCode":"04828","locality":"Bennewitz","municipality":{"key":"14729030","name":"Bennewitz","type":"Kreisangehörige_Gemeinde"},"district":{"key":"14729","name":"Leipzig","type":"Landkreis"},"federalState":{"key":"14","name":"Sachsen"}},{"name":"Ernst-Thälmann-Str.","postalCode":"04828","locality":"Bennewitz","municipality":{"key":"14729030","name":"Bennewitz","type":"Kreisangehörige_Gemeinde"},"district":{"key":"14729","name":"Leipzig","type":"Landkreis"},"federalState":{"key":"14","name":"Sachsen"}},{"name":"Eschenring","postalCode":"04828","locality":"Bennewitz","municipality":{"key":"14729030","name":"Bennewitz","type":"Kreisangehörige_Gemeinde"},"district":{"key":"14729","name":"Leipzig","type":"Landkreis"},"federalState":{"key":"14","name":"Sachsen"}},{"name":"Fabrikweg","postalCode":"04828","locality":"Bennewitz","municipality":{"key":"14729030","name":"Bennewitz","type":"Kreisangehörige_Gemeinde"},"district":{"key":"14729","name":"Leipzig","type":"Landkreis"},"federalState":{"key":"14","name":"Sachsen"}},{"name":"Fährstr.","postalCode":"04828","locality":"Bennewitz","municipality":{"key":"14729030","name":"Bennewitz","type":"Kreisangehörige_Gemeinde"},"district":{"key":"14729","name":"Leipzig","type":"Landkreis"},"federalState":{"key":"14","name":"Sachsen"}},{"name":"Feldweg","postalCode":"04828","locality":"Bennewitz","municipality":{"key":"14729030","name":"Bennewitz","type":"Kreisangehörige_Gemeinde"},"district":{"key":"14729","name":"Leipzig","type":"Landkreis"},"federalState":{"key":"14","name":"Sachsen"}},{"name":"Finkenweg","postalCode":"04828","locality":"Bennewitz","municipality":{"key":"14729030","name":"Bennewitz","type":"Kreisangehörige_Gemeinde"},"district":{"key":"14729","name":"Leipzig","type":"Landkreis"},"federalState":{"key":"14","name":"Sachsen"}},{"name":"Fliederweg","postalCode":"04828","locality":"Bennewitz","municipality":{"key":"14729030","name":"Bennewitz","type":"Kreisangehörige_Gemeinde"},"district":{"key":"14729","name":"Leipzig","type":"Landkreis"},"federalState":{"key":"14","name":"Sachsen"}},{"name":"Forstgarten-Linie","postalCode":"04828","locality":"Bennewitz","municipality":{"key":"14729030","name":"Bennewitz","type":"Kreisangehörige_Gemeinde"},"district":{"key":"14729","name":"Leipzig","type":"Landkreis"},"federalState":{"key":"14","name":"Sachsen"}},{"name":"Forstweg","postalCode":"04828","locality":"Bennewitz","municipality":{"key":"14729030","name":"Bennewitz","type":"Kreisangehörige_Gemeinde"},"district":{"key":"14729","name":"Leipzig","type":"Landkreis"},"federalState":{"key":"14","name":"Sachsen"}},{"name":"Fuchsweg","postalCode":"04828","locality":"Bennewitz","municipality":{"key":"14729030","name":"Bennewitz","type":"Kreisangehörige_Gemeinde"},"district":{"key":"14729","name":"Leipzig","type":"Landkreis"},"federalState":{"key":"14","name":"Sachsen"}},{"name":"Gartenstr.","postalCode":"04828","locality":"Bennewitz","municipality":{"key":"14729030","name":"Bennewitz","type":"Kreisangehörige_Gemeinde"},"district":{"key":"14729","name":"Leipzig","type":"Landkreis"},"federalState":{"key":"14","name":"Sachsen"}},{"name":"Gartenweg","postalCode":"04828","locality":"Bennewitz","municipality":{"key":"14729030","name":"Bennewitz","type":"Kreisangehörige_Gemeinde"},"district":{"key":"14729","name":"Leipzig","type":"Landkreis"},"federalState":{"key":"14","name":"Sachsen"}},{"name":"Gottfried-Kolditz-Weg","postalCode":"04828","locality":"Bennewitz","municipality":{"key":"14729030","name":"Bennewitz","type":"Kreisangehörige_Gemeinde"},"district":{"key":"14729","name":"Leipzig","type":"Landkreis"},"federalState":{"key":"14","name":"Sachsen"}},{"name":"Grimmaische Str.","postalCode":"04828","locality":"Bennewitz","municipality":{"key":"14729030","name":"Bennewitz","type":"Kreisangehörige_Gemeinde"},"district":{"key":"14729","name":"Leipzig","type":"Landkreis"},"federalState":{"key":"14","name":"Sachsen"}},{"name":"Grubnitzer Dorfstr.","postalCode":"04828","locality":"Bennewitz","municipality":{"key":"14729030","name":"Bennewitz","type":"Kreisangehörige_Gemeinde"},"district":{"key":"14729","name":"Leipzig","type":"Landkreis"},"federalState":{"key":"14","name":"Sachsen"}},{"name":"Hasenweg","postalCode":"04828","locality":"Bennewitz","municipality":{"key":"14729030","name":"Bennewitz","type":"Kreisangehörige_Gemeinde"},"district":{"key":"14729","name":"Leipzig","type":"Landkreis"},"federalState":{"key":"14","name":"Sachsen"}},{"name":"Hauptstr.","postalCode":"04828","locality":"Bennewitz","municipality":{"key":"14729030","name":"Bennewitz","type":"Kreisangehörige_Gemeinde"},"district":{"key":"14729","name":"Leipzig","type":"Landkreis"},"federalState":{"key":"14","name":"Sachsen"}},{"name":"Hochwasserschutzdeich","postalCode":"04828","locality":"Bennewitz","municipality":{"key":"14729030","name":"Bennewitz","type":"Kreisangehörige_Gemeinde"},"district":{"key":"14729","name":"Leipzig","type":"Landkreis"},"federalState":{"key":"14","name":"Sachsen"}},{"name":"Idastr.","postalCode":"04315","locality":"Leipzig","municipality":{"key":"14713000","name":"Leipzig, Stadt","type":"Kreisfreie_Stadt"},"district":{"key":"14713","name":"Leipzig, Stadt","type":"Kreisfreie_Stadt"},"federalState":{"key":"14","name":"Sachsen"}},{"name":"Idunweg","postalCode":"04349","locality":"Leipzig","municipality":{"key":"14713000","name":"Leipzig, Stadt","type":"Kreisfreie_Stadt"},"district":{"key":"14713","name":"Leipzig, Stadt","type":"Kreisfreie_Stadt"},"federalState":{"key":"14","name":"Sachsen"}},{"name":"Igelstr.","postalCode":"04329","locality":"Leipzig","municipality":{"key":"14713000","name":"Leipzig, Stadt","type":"Kreisfreie_Stadt"},"district":{"key":"14713","name":"Leipzig, Stadt","type":"Kreisfreie_Stadt"},"federalState":{"key":"14","name":"Sachsen"}},{"name":"Igelweg","postalCode":"04279","locality":"Leipzig","municipality":{"key":"14713000","name":"Leipzig, Stadt","type":"Kreisfreie_Stadt"},"district":{"key":"14713","name":"Leipzig, Stadt","type":"Kreisfreie_Stadt"},"federalState":{"key":"14","name":"Sachsen"}},{"name":"Igelweg","postalCode":"04316","locality":"Leipzig","municipality":{"key":"14713000","name":"Leipzig, Stadt","type":"Kreisfreie_Stadt"},"district":{"key":"14713","name":"Leipzig, Stadt","type":"Kreisfreie_Stadt"},"federalState":{"key":"14","name":"Sachsen"}},{"name":"Ihmelsstr.","postalCode":"04315","locality":"Leipzig","municipality":{"key":"14713000","name":"Leipzig, Stadt","type":"Kreisfreie_Stadt"},"district":{"key":"14713","name":"Leipzig, Stadt","type":"Kreisfreie_Stadt"},"federalState":{"key":"14","name":"Sachsen"}},{"name":"Ilmenauer Weg","postalCode":"04205","locality":"Leipzig","municipality":{"key":"14713000","name":"Leipzig, Stadt","type":"Kreisfreie_Stadt"},"district":{"key":"14713","name":"Leipzig, Stadt","type":"Kreisfreie_Stadt"},"federalState":{"key":"14","name":"Sachsen"}},{"name":"Ilse-Decho-Weg","postalCode":"04319","locality":"Leipzig","municipality":{"key":"14713000","name":"Leipzig, Stadt","type":"Kreisfreie_Stadt"},"district":{"key":"14713","name":"Leipzig, Stadt","type":"Kreisfreie_Stadt"},"federalState":{"key":"14","name":"Sachsen"}},{"name":"Iltispfad","postalCode":"04249","locality":"Leipzig","municipality":{"key":"14713000","name":"Leipzig, Stadt","type":"Kreisfreie_Stadt"},"district":{"key":"14713","name":"Leipzig, Stadt","type":"Kreisfreie_Stadt"},"federalState":{"key":"14","name":"Sachsen"}},{"name":"Im Birkengrund","postalCode":"04288","locality":"Leipzig","municipality":{"key":"14713000","name":"Leipzig, Stadt","type":"Kreisfreie_Stadt"},"district":{"key":"14713","name":"Leipzig, Stadt","type":"Kreisfreie_Stadt"},"federalState":{"key":"14","name":"Sachsen"}},{"name":"Im Blumengrund","postalCode":"04319","locality":"Leipzig","municipality":{"key":"14713000","name":"Leipzig, Stadt","type":"Kreisfreie_Stadt"},"district":{"key":"14713","name":"Leipzig, Stadt","type":"Kreisfreie_Stadt"},"federalState":{"key":"14","name":"Sachsen"}},{"name":"Im Dölitzer Holz","postalCode":"04279","locality":"Leipzig","municipality":{"key":"14713000","name":"Leipzig, Stadt","type":"Kreisfreie_Stadt"},"district":{"key":"14713","name":"Leipzig, Stadt","type":"Kreisfreie_Stadt"},"federalState":{"key":"14","name":"Sachsen"}},{"name":"Im Limburgerpark","postalCode":"04279","locality":"Leipzig","municipality":{"key":"14713000","name":"Leipzig, Stadt","type":"Kreisfreie_Stadt"},"district":{"key":"14713","name":"Leipzig, Stadt","type":"Kreisfreie_Stadt"},"federalState":{"key":"14","name":"Sachsen"}},{"name":"Im Lindengrund","postalCode":"04288","locality":"Leipzig","municipality":{"key":"14713000","name":"Leipzig, Stadt","type":"Kreisfreie_Stadt"},"district":{"key":"14713","name":"Leipzig, Stadt","type":"Kreisfreie_Stadt"},"federalState":{"key":"14","name":"Sachsen"}},{"name":"Immenstr.","postalCode":"04249","locality":"Leipzig","municipality":{"key":"14713000","name":"Leipzig, Stadt","type":"Kreisfreie_Stadt"},"district":{"key":"14713","name":"Leipzig, Stadt","type":"Kreisfreie_Stadt"},"federalState":{"key":"14","name":"Sachsen"}},{"name":"Immischweg","postalCode":"04279","locality":"Leipzig","municipality":{"key":"14713000","name":"Leipzig, Stadt","type":"Kreisfreie_Stadt"},"district":{"key":"14713","name":"Leipzig, Stadt","type":"Kreisfreie_Stadt"},"federalState":{"key":"14","name":"Sachsen"}},{"name":"Im Tannengrund","postalCode":"04288","locality":"Leipzig","municipality":{"key":"14713000","name":"Leipzig, Stadt","type":"Kreisfreie_Stadt"},"district":{"key":"14713","name":"Leipzig, Stadt","type":"Kreisfreie_Stadt"},"federalState":{"key":"14","name":"Sachsen"}},{"name":"Im Weidengrund","postalCode":"04288","locality":"Leipzig","municipality":{"key":"14713000","name":"Leipzig, Stadt","type":"Kreisfreie_Stadt"},"district":{"key":"14713","name":"Leipzig, Stadt","type":"Kreisfreie_Stadt"},"federalState":{"key":"14","name":"Sachsen"}},{"name":"Im Winkel","postalCode":"04178","locality":"Leipzig","municipality":{"key":"14713000","name":"Leipzig, Stadt","type":"Kreisfreie_Stadt"},"district":{"key":"14713","name":"Leipzig, Stadt","type":"Kreisfreie_Stadt"},"federalState":{"key":"14","name":"Sachsen"}},{"name":"Im Zipfel","postalCode":"04159","locality":"Leipzig","municipality":{"key":"14713000","name":"Leipzig, Stadt","type":"Kreisfreie_Stadt"},"district":{"key":"14713","name":"Leipzig, Stadt","type":"Kreisfreie_Stadt"},"federalState":{"key":"14","name":"Sachsen"}},{"name":"Industriestr.","postalCode":"04229","locality":"Leipzig","municipality":{"key":"14713000","name":"Leipzig, Stadt","type":"Kreisfreie_Stadt"},"district":{"key":"14713","name":"Leipzig, Stadt","type":"Kreisfreie_Stadt"},"federalState":{"key":"14","name":"Sachsen"}},{"name":"Ingwerweg","postalCode":"04158","locality":"Leipzig","municipality":{"key":"14713000","name":"Leipzig, Stadt","type":"Kreisfreie_Stadt"},"district":{"key":"14713","name":"Leipzig, Stadt","type":"Kreisfreie_Stadt"},"federalState":{"key":"14","name":"Sachsen"}},{"name":"Innenring","postalCode":"04158","locality":"Leipzig","municipality":{"key":"14713000","name":"Leipzig, Stadt","type":"Kreisfreie_Stadt"},"district":{"key":"14713","name":"Leipzig, Stadt","type":"Kreisfreie_Stadt"},"federalState":{"key":"14","name":"Sachsen"}},{"name":"Inselstr.","postalCode":"04103","locality":"Leipzig","municipality":{"key":"14713000","name":"Leipzig, Stadt","type":"Kreisfreie_Stadt"},"district":{"key":"14713","name":"Leipzig, Stadt","type":"Kreisfreie_Stadt"},"federalState":{"key":"14","name":"Sachsen"}},{"name":"Irisweg","postalCode":"04157","locality":"Leipzig","municipality":{"key":"14713000","name":"Leipzig, Stadt","type":"Kreisfreie_Stadt"},"district":{"key":"14713","name":"Leipzig, Stadt","type":"Kreisfreie_Stadt"},"federalState":{"key":"14","name":"Sachsen"}},{"name":"Italiaanderstr.","postalCode":"04349","locality":"Leipzig","municipality":{"key":"14713000","name":"Leipzig, Stadt","type":"Kreisfreie_Stadt"},"district":{"key":"14713","name":"Leipzig, Stadt","type":"Kreisfreie_Stadt"},"federalState":{"key":"14","name":"Sachsen"}},{"name":"Jack-London-Weg","postalCode":"04289","locality":"Leipzig","municipality":{"key":"14713000","name":"Leipzig, Stadt","type":"Kreisfreie_Stadt"},"district":{"key":"14713","name":"Leipzig, Stadt","type":"Kreisfreie_Stadt"},"federalState":{"key":"14","name":"Sachsen"}},{"name":"Jacobstr.","postalCode":"04105","locality":"Leipzig","municipality":{"key":"14713000","name":"Leipzig, Stadt","type":"Kreisfreie_Stadt"},"district":{"key":"14713","name":"Leipzig, Stadt","type":"Kreisfreie_Stadt"},"federalState":{"key":"14","name":"Sachsen"}},{"name":"Jadassohnstr.","postalCode":"04179","locality":"Leipzig","municipality":{"key":"14713000","name":"Leipzig, Stadt","type":"Kreisfreie_Stadt"},"district":{"key":"14713","name":"Leipzig, Stadt","type":"Kreisfreie_Stadt"},"federalState":{"key":"14","name":"Sachsen"}},{"name":"Jadebogen","postalCode":"04319","locality":"Leipzig","municipality":{"key":"14713000","name":"Leipzig, Stadt","type":"Kreisfreie_Stadt"},"district":{"key":"14713","name":"Leipzig, Stadt","type":"Kreisfreie_Stadt"},"federalState":{"key":"14","name":"Sachsen"}},{"name":"Jägerhofpassage","postalCode":"04109","locality":"Leipzig","municipality":{"key":"14713000","name":"Leipzig, Stadt","type":"Kreisfreie_Stadt"},"district":{"key":"14713","name":"Leipzig, Stadt","type":"Kreisfreie_Stadt"},"federalState":{"key":"14","name":"Sachsen"}},{"name":"Jägerstr.","postalCode":"04157","locality":"Leipzig","municipality":{"key":"14713000","name":"Leipzig, Stadt","type":"Kreisfreie_Stadt"},"district":{"key":"14713","name":"Leipzig, Stadt","type":"Kreisfreie_Stadt"},"federalState":{"key":"14","name":"Sachsen"}},{"name":"Jahnallee","postalCode":"04109","locality":"Leipzig","municipality":{"key":"14713000","name":"Leipzig, Stadt","type":"Kreisfreie_Stadt"},"district":{"key":"14713","name":"Leipzig, Stadt","type":"Kreisfreie_Stadt"},"federalState":{"key":"14","name":"Sachsen"}},{"name":"Jahnallee","postalCode":"04177","locality":"Leipzig","municipality":{"key":"14713000","name":"Leipzig, Stadt","type":"Kreisfreie_Stadt"},"district":{"key":"14713","name":"Leipzig, Stadt","type":"Kreisfreie_Stadt"},"federalState":{"key":"14","name":"Sachsen"}},{"name":"Jahnstr.","postalCode":"04288","locality":"Leipzig","municipality":{"key":"14713000","name":"Leipzig, Stadt","type":"Kreisfreie_Stadt"},"district":{"key":"14713","name":"Leipzig, Stadt","type":"Kreisfreie_Stadt"},"federalState":{"key":"14","name":"Sachsen"}},{"name":"Jahnweg","postalCode":"04319","locality":"Leipzig","municipality":{"key":"14713000","name":"Leipzig, Stadt","type":"Kreisfreie_Stadt"},"district":{"key":"14713","name":"Leipzig, Stadt","type":"Kreisfreie_Stadt"},"federalState":{"key":"14","name":"Sachsen"}},{"name":"Jahrtausendfeld","postalCode":"04177","locality":"Leipzig","municipality":{"key":"14713000","name":"Leipzig, Stadt","type":"Kreisfreie_Stadt"},"district":{"key":"14713","name":"Leipzig, Stadt","type":"Kreisfreie_Stadt"},"federalState":{"key":"14","name":"Sachsen"}},{"name":"Jakobiwinkel","postalCode":"04178","locality":"Leipzig","municipality":{"key":"14713000","name":"Leipzig, Stadt","type":"Kreisfreie_Stadt"},"district":{"key":"14713","name":"Leipzig, Stadt","type":"Kreisfreie_Stadt"},"federalState":{"key":"14","name":"Sachsen"}},{"name":"Jasminweg","postalCode":"04318","locality":"Leipzig","municipality":{"key":"14713000","name":"Leipzig, Stadt","type":"Kreisfreie_Stadt"},"district":{"key":"14713","name":"Leipzig, Stadt","type":"Kreisfreie_Stadt"},"federalState":{"key":"14","name":"Sachsen"}},{"name":"Jaspisstr.","postalCode":"04319","locality":"Leipzig","municipality":{"key":"14713000","name":"Leipzig, Stadt","type":"Kreisfreie_Stadt"},"district":{"key":"14713","name":"Leipzig, Stadt","type":"Kreisfreie_Stadt"},"federalState":{"key":"14","name":"Sachsen"}},{"name":"J.-C.-Hinrichs-Str.","postalCode":"04315","locality":"Leipzig","municipality":{"key":"14713000","name":"Leipzig, Stadt","type":"Kreisfreie_Stadt"},"district":{"key":"14713","name":"Leipzig, Stadt","type":"Kreisfreie_Stadt"},"federalState":{"key":"14","name":"Sachsen"}},{"name":"Joachim-Gottschalk-Weg","postalCode":"04289","locality":"Leipzig","municipality":{"key":"14713000","name":"Leipzig, Stadt","type":"Kreisfreie_Stadt"},"district":{"key":"14713","name":"Leipzig, Stadt","type":"Kreisfreie_Stadt"},"federalState":{"key":"14","name":"Sachsen"}},{"name":"Jöcherstr.","postalCode":"04318","locality":"Leipzig","municipality":{"key":"14713000","name":"Leipzig, Stadt","type":"Kreisfreie_Stadt"},"district":{"key":"14713","name":"Leipzig, Stadt","type":"Kreisfreie_Stadt"},"federalState":{"key":"14","name":"Sachsen"}},{"name":"Johann-Adolf-Str.","postalCode":"04279","locality":"Leipzig","municipality":{"key":"14713000","name":"Leipzig, Stadt","type":"Kreisfreie_Stadt"},"district":{"key":"14713","name":"Leipzig, Stadt","type":"Kreisfreie_Stadt"},"federalState":{"key":"14","name":"Sachsen"}},{"name":"Johannastr.","postalCode":"04279","locality":"Leipzig","municipality":{"key":"14713000","name":"Leipzig, Stadt","type":"Kreisfreie_Stadt"},"district":{"key":"14713","name":"Leipzig, Stadt","type":"Kreisfreie_Stadt"},"federalState":{"key":"14","name":"Sachsen"}},{"name":"Johannes-Kärner-Str.","postalCode":"04328","locality":"Leipzig","municipality":{"key":"14713000","name":"Leipzig, Stadt","type":"Kreisfreie_Stadt"},"district":{"key":"14713","name":"Leipzig, Stadt","type":"Kreisfreie_Stadt"},"federalState":{"key":"14","name":"Sachsen"}},{"name":"Johannes-R.-Becher-Str.","postalCode":"04279","locality":"Leipzig","municipality":{"key":"14713000","name":"Leipzig, Stadt","type":"Kreisfreie_Stadt"},"district":{"key":"14713","name":"Leipzig, Stadt","type":"Kreisfreie_Stadt"},"federalState":{"key":"14","name":"Sachsen"}},{"name":"Johannes-Weyrauch-Platz","postalCode":"04178","locality":"Leipzig","municipality":{"key":"14713000","name":"Leipzig, Stadt","type":"Kreisfreie_Stadt"},"district":{"key":"14713","name":"Leipzig, Stadt","type":"Kreisfreie_Stadt"},"federalState":{"key":"14","name":"Sachsen"}},{"name":"Johannisallee","postalCode":"04103","locality":"Leipzig","municipality":{"key":"14713000","name":"Leipzig, Stadt","type":"Kreisfreie_Stadt"},"district":{"key":"14713","name":"Leipzig, Stadt","type":"Kreisfreie_Stadt"},"federalState":{"key":"14","name":"Sachsen"}},{"name":"Johannisallee","postalCode":"04317","locality":"Leipzig","municipality":{"key":"14713000","name":"Leipzig, Stadt","type":"Kreisfreie_Stadt"},"district":{"key":"14713","name":"Leipzig, Stadt","type":"Kreisfreie_Stadt"},"federalState":{"key":"14","name":"Sachsen"}},{"name":"Johannisgasse","postalCode":"04103","locality":"Leipzig","municipality":{"key":"14713000","name":"Leipzig, Stadt","type":"Kreisfreie_Stadt"},"district":{"key":"14713","name":"Leipzig, Stadt","type":"Kreisfreie_Stadt"},"federalState":{"key":"14","name":"Sachsen"}},{"name":"Johannishöhe","postalCode":"04279","locality":"Leipzig","municipality":{"key":"14713000","name":"Leipzig, Stadt","type":"Kreisfreie_Stadt"},"district":{"key":"14713","name":"Leipzig, Stadt","type":"Kreisfreie_Stadt"},"federalState":{"key":"14","name":"Sachsen"}},{"name":"Johannisplatz","postalCode":"04103","locality":"Leipzig","municipality":{"key":"14713000","name":"Leipzig, Stadt","type":"Kreisfreie_Stadt"},"district":{"key":"14713","name":"Leipzig, Stadt","type":"Kreisfreie_Stadt"},"federalState":{"key":"14","name":"Sachsen"}},{"name":"Johann-Jakob-Weber-Platz","postalCode":"04299","locality":"Leipzig","municipality":{"key":"14713000","name":"Leipzig, Stadt","type":"Kreisfreie_Stadt"},"district":{"key":"14713","name":"Leipzig, Stadt","type":"Kreisfreie_Stadt"},"federalState":{"key":"14","name":"Sachsen"}},{"name":"Johnsonweg","postalCode":"04289","locality":"Leipzig","municipality":{"key":"14713000","name":"Leipzig, Stadt","type":"Kreisfreie_Stadt"},"district":{"key":"14713","name":"Leipzig, Stadt","type":"Kreisfreie_Stadt"},"federalState":{"key":"14","name":"Sachsen"}},{"name":"Jöhstädter Str.","postalCode":"04349","locality":"Leipzig","municipality":{"key":"14713000","name":"Leipzig, Stadt","type":"Kreisfreie_Stadt"},"district":{"key":"14713","name":"Leipzig, Stadt","type":"Kreisfreie_Stadt"},"federalState":{"key":"14","name":"Sachsen"}},{"name":"Jonasstr.","postalCode":"04315","locality":"Leipzig","municipality":{"key":"14713000","name":"Leipzig, Stadt","type":"Kreisfreie_Stadt"},"district":{"key":"14713","name":"Leipzig, Stadt","type":"Kreisfreie_Stadt"},"federalState":{"key":"14","name":"Sachsen"}},{"name":"Jonsdorfer Str.","postalCode":"04207","locality":"Leipzig","municipality":{"key":"14713000","name":"Leipzig, Stadt","type":"Kreisfreie_Stadt"},"district":{"key":"14713","name":"Leipzig, Stadt","type":"Kreisfreie_Stadt"},"federalState":{"key":"14","name":"Sachsen"}},{"name":"Jordanstr.","postalCode":"04177","locality":"Leipzig","municipality":{"key":"14713000","name":"Leipzig, Stadt","type":"Kreisfreie_Stadt"},"district":{"key":"14713","name":"Leipzig, Stadt","type":"Kreisfreie_Stadt"},"federalState":{"key":"14","name":"Sachsen"}},{"name":"Jörgen-Schmidtchen-Weg","postalCode":"04157","locality":"Leipzig","municipality":{"key":"14713000","name":"Leipzig, Stadt","type":"Kreisfreie_Stadt"},"district":{"key":"14713","name":"Leipzig, Stadt","type":"Kreisfreie_Stadt"},"federalState":{"key":"14","name":"Sachsen"}},{"name":"Josephinenstr.","postalCode":"04317","locality":"Leipzig","municipality":{"key":"14713000","name":"Leipzig, Stadt","type":"Kreisfreie_Stadt"},"district":{"key":"14713","name":"Leipzig, Stadt","type":"Kreisfreie_Stadt"},"federalState":{"key":"14","name":"Sachsen"}},{"name":"Josephstr.","postalCode":"04177","locality":"Leipzig","municipality":{"key":"14713000","name":"Leipzig, Stadt","type":"Kreisfreie_Stadt"},"district":{"key":"14713","name":"Leipzig, Stadt","type":"Kreisfreie_Stadt"},"federalState":{"key":"14","name":"Sachsen"}},{"name":"Jouleweg","postalCode":"04299","locality":"Leipzig","municipality":{"key":"14713000","name":"Leipzig, Stadt","type":"Kreisfreie_Stadt"},"district":{"key":"14713","name":"Leipzig, Stadt","type":"Kreisfreie_Stadt"},"federalState":{"key":"14","name":"Sachsen"}},{"name":"Judith-Auer-Str.","postalCode":"04317","locality":"Leipzig","municipality":{"key":"14713000","name":"Leipzig, Stadt","type":"Kreisfreie_Stadt"},"district":{"key":"14713","name":"Leipzig, Stadt","type":"Kreisfreie_Stadt"},"federalState":{"key":"14","name":"Sachsen"}},{"name":"Juister Weg","postalCode":"04157","locality":"Leipzig","municipality":{"key":"14713000","name":"Leipzig, Stadt","type":"Kreisfreie_Stadt"},"district":{"key":"14713","name":"Leipzig, Stadt","type":"Kreisfreie_Stadt"},"federalState":{"key":"14","name":"Sachsen"}},{"name":"Julian-Marchlewski-Str.","postalCode":"04347","locality":"Leipzig","municipality":{"key":"14713000","name":"Leipzig, Stadt","type":"Kreisfreie_Stadt"},"district":{"key":"14713","name":"Leipzig, Stadt","type":"Kreisfreie_Stadt"},"federalState":{"key":"14","name":"Sachsen"}},{"name":"Julius-Krause-Str.","postalCode":"04318","locality":"Leipzig","municipality":{"key":"14713000","name":"Leipzig, Stadt","type":"Kreisfreie_Stadt"},"district":{"key":"14713","name":"Leipzig, Stadt","type":"Kreisfreie_Stadt"},"federalState":{"key":"14","name":"Sachsen"}},{"name":"Juliusstr.","postalCode":"04315","locality":"Leipzig","municipality":{"key":"14713000","name":"Leipzig, Stadt","type":"Kreisfreie_Stadt"},"district":{"key":"14713","name":"Leipzig, Stadt","type":"Kreisfreie_Stadt"},"federalState":{"key":"14","name":"Sachsen"}},{"name":"Jungfernstiege","postalCode":"04159","locality":"Leipzig","municipality":{"key":"14713000","name":"Leipzig, Stadt","type":"Kreisfreie_Stadt"},"district":{"key":"14713","name":"Leipzig, Stadt","type":"Kreisfreie_Stadt"},"federalState":{"key":"14","name":"Sachsen"}},{"name":"Junghanßstr.","postalCode":"04179","locality":"Leipzig","municipality":{"key":"14713000","name":"Leipzig, Stadt","type":"Kreisfreie_Stadt"},"district":{"key":"14713","name":"Leipzig, Stadt","type":"Kreisfreie_Stadt"},"federalState":{"key":"14","name":"Sachsen"}},{"name":"Jupiterstr.","postalCode":"04205","locality":"Leipzig","municipality":{"key":"14713000","name":"Leipzig, Stadt","type":"Kreisfreie_Stadt"},"district":{"key":"14713","name":"Leipzig, Stadt","type":"Kreisfreie_Stadt"},"federalState":{"key":"14","name":"Sachsen"}},{"name":"Jupp-Müller-Str.","postalCode":"04159","locality":"Leipzig","municipality":{"key":"14713000","name":"Leipzig, Stadt","type":"Kreisfreie_Stadt"},"district":{"key":"14713","name":"Leipzig, Stadt","type":"Kreisfreie_Stadt"},"federalState":{"key":"14","name":"Sachsen"}},{"name":"Juridicum-Passage","postalCode":"04109","locality":"Leipzig","municipality":{"key":"14713000","name":"Leipzig, Stadt","type":"Kreisfreie_Stadt"},"district":{"key":"14713","name":"Leipzig, Stadt","type":"Kreisfreie_Stadt"},"federalState":{"key":"14","name":"Sachsen"}},{"name":"Jutta-Hipp-Weg","postalCode":"04289","locality":"Leipzig","municipality":{"key":"14713000","name":"Leipzig, Stadt","type":"Kreisfreie_Stadt"},"district":{"key":"14713","name":"Leipzig, Stadt","type":"Kreisfreie_Stadt"},"federalState":{"key":"14","name":"Sachsen"}},{"name":"Karlsallee","postalCode":"04828","locality":"Bennewitz","municipality":{"key":"14729030","name":"Bennewitz","type":"Kreisangehörige_Gemeinde"},"district":{"key":"14729","name":"Leipzig","type":"Landkreis"},"federalState":{"key":"14","name":"Sachsen"}},{"name":"Kiebitzweg","postalCode":"04828","locality":"Bennewitz","municipality":{"key":"14729030","name":"Bennewitz","type":"Kreisangehörige_Gemeinde"},"district":{"key":"14729","name":"Leipzig","type":"Landkreis"},"federalState":{"key":"14","name":"Sachsen"}},{"name":"Kirchgasse","postalCode":"04828","locality":"Bennewitz","municipality":{"key":"14729030","name":"Bennewitz","type":"Kreisangehörige_Gemeinde"},"district":{"key":"14729","name":"Leipzig","type":"Landkreis"},"federalState":{"key":"14","name":"Sachsen"}},{"name":"Kirchplatz","postalCode":"04828","locality":"Bennewitz","municipality":{"key":"14729030","name":"Bennewitz","type":"Kreisangehörige_Gemeinde"},"district":{"key":"14729","name":"Leipzig","type":"Landkreis"},"federalState":{"key":"14","name":"Sachsen"}},{"name":"Kleiner Ahornweg","postalCode":"04828","locality":"Bennewitz","municipality":{"key":"14729030","name":"Bennewitz","type":"Kreisangehörige_Gemeinde"},"district":{"key":"14729","name":"Leipzig","type":"Landkreis"},"federalState":{"key":"14","name":"Sachsen"}},{"name":"Kleiner Buchenweg","postalCode":"04828","locality":"Bennewitz","municipality":{"key":"14729030","name":"Bennewitz","type":"Kreisangehörige_Gemeinde"},"district":{"key":"14729","name":"Leipzig","type":"Landkreis"},"federalState":{"key":"14","name":"Sachsen"}},{"name":"Kleiner Eschenweg","postalCode":"04828","locality":"Bennewitz","municipality":{"key":"14729030","name":"Bennewitz","type":"Kreisangehörige_Gemeinde"},"district":{"key":"14729","name":"Leipzig","type":"Landkreis"},"federalState":{"key":"14","name":"Sachsen"}},{"name":"Kurzer Weg","postalCode":"04828","locality":"Bennewitz","municipality":{"key":"14729030","name":"Bennewitz","type":"Kreisangehörige_Gemeinde"},"district":{"key":"14729","name":"Leipzig","type":"Landkreis"},"federalState":{"key":"14","name":"Sachsen"}},{"name":"Kurze Str.","postalCode":"04828","locality":"Bennewitz","municipality":{"key":"14729030","name":"Bennewitz","type":"Kreisangehörige_Gemeinde"},"district":{"key":"14729","name":"Leipzig","type":"Landkreis"},"federalState":{"key":"14","name":"Sachsen"}},{"name":"Leipziger Str.","postalCode":"04828","locality":"Bennewitz","municipality":{"key":"14729030","name":"Bennewitz","type":"Kreisangehörige_Gemeinde"},"district":{"key":"14729","name":"Leipzig","type":"Landkreis"},"federalState":{"key":"14","name":"Sachsen"}},{"name":"Lerchenweg","postalCode":"04828","locality":"Bennewitz","municipality":{"key":"14729030","name":"Bennewitz","type":"Kreisangehörige_Gemeinde"},"district":{"key":"14729","name":"Leipzig","type":"Landkreis"},"federalState":{"key":"14","name":"Sachsen"}},{"name":"Leulitzer Str.","postalCode":"04828","locality":"Bennewitz","municipality":{"key":"14729030","name":"Bennewitz","type":"Kreisangehörige_Gemeinde"},"district":{"key":"14729","name":"Leipzig","type":"Landkreis"},"federalState":{"key":"14","name":"Sachsen"}},{"name":"Lindenstr.","postalCode":"04828","locality":"Bennewitz","municipality":{"key":"14729030","name":"Bennewitz","type":"Kreisangehörige_Gemeinde"},"district":{"key":"14729","name":"Leipzig","type":"Landkreis"},"federalState":{"key":"14","name":"Sachsen"}},{"name":"Marcel-Proust-Weg","postalCode":"04828","locality":"Bennewitz","municipality":{"key":"14729030","name":"Bennewitz","type":"Kreisangehörige_Gemeinde"},"district":{"key":"14729","name":"Leipzig","type":"Landkreis"},"federalState":{"key":"14","name":"Sachsen"}},{"name":"Mittelstr.","postalCode":"04828","locality":"Bennewitz","municipality":{"key":"14729030","name":"Bennewitz","type":"Kreisangehörige_Gemeinde"},"district":{"key":"14729","name":"Leipzig","type":"Landkreis"},"federalState":{"key":"14","name":"Sachsen"}},{"name":"Mittelweg","postalCode":"04828","locality":"Bennewitz","municipality":{"key":"14729030","name":"Bennewitz","type":"Kreisangehörige_Gemeinde"},"district":{"key":"14729","name":"Leipzig","type":"Landkreis"},"federalState":{"key":"14","name":"Sachsen"}},{"name":"Mühlenweg","postalCode":"04828","locality":"Bennewitz","municipality":{"key":"14729030","name":"Bennewitz","type":"Kreisangehörige_Gemeinde"},"district":{"key":"14729","name":"Leipzig","type":"Landkreis"},"federalState":{"key":"14","name":"Sachsen"}},{"name":"Muldenblick","postalCode":"04828","locality":"Bennewitz","municipality":{"key":"14729030","name":"Bennewitz","type":"Kreisangehörige_Gemeinde"},"district":{"key":"14729","name":"Leipzig","type":"Landkreis"},"federalState":{"key":"14","name":"Sachsen"}},{"name":"Muldengasse","postalCode":"04828","locality":"Bennewitz","municipality":{"key":"14729030","name":"Bennewitz","type":"Kreisangehörige_Gemeinde"},"district":{"key":"14729","name":"Leipzig","type":"Landkreis"},"federalState":{"key":"14","name":"Sachsen"}},{"name":"Muldentalweg","postalCode":"04828","locality":"Bennewitz","municipality":{"key":"14729030","name":"Bennewitz","type":"Kreisangehörige_Gemeinde"},"district":{"key":"14729","name":"Leipzig","type":"Landkreis"},"federalState":{"key":"14","name":"Sachsen"}},{"name":"Muldenweg","postalCode":"04828","locality":"Bennewitz","municipality":{"key":"14729030","name":"Bennewitz","type":"Kreisangehörige_Gemeinde"},"district":{"key":"14729","name":"Leipzig","type":"Landkreis"},"federalState":{"key":"14","name":"Sachsen"}},{"name":"Neue Linie","postalCode":"04828","locality":"Bennewitz","municipality":{"key":"14729030","name":"Bennewitz","type":"Kreisangehörige_Gemeinde"},"district":{"key":"14729","name":"Leipzig","type":"Landkreis"},"federalState":{"key":"14","name":"Sachsen"}},{"name":"Ottendorfer Weg","postalCode":"04828","locality":"Bennewitz","municipality":{"key":"14729030","name":"Bennewitz","type":"Kreisangehörige_Gemeinde"},"district":{"key":"14729","name":"Leipzig","type":"Landkreis"},"federalState":{"key":"14","name":"Sachsen"}},{"name":"Parkstr.","postalCode":"04828","locality":"Bennewitz","municipality":{"key":"14729030","name":"Bennewitz","type":"Kreisangehörige_Gemeinde"},"district":{"key":"14729","name":"Leipzig","type":"Landkreis"},"federalState":{"key":"14","name":"Sachsen"}},{"name":"Pausitzer Str.","postalCode":"04828","locality":"Bennewitz","municipality":{"key":"14729030","name":"Bennewitz","type":"Kreisangehörige_Gemeinde"},"district":{"key":"14729","name":"Leipzig","type":"Landkreis"},"federalState":{"key":"14","name":"Sachsen"}},{"name":"Planitzweg","postalCode":"04828","locality":"Bennewitz","municipality":{"key":"14729030","name":"Bennewitz","type":"Kreisangehörige_Gemeinde"},"district":{"key":"14729","name":"Leipzig","type":"Landkreis"},"federalState":{"key":"14","name":"Sachsen"}},{"name":"Polenzer Str.","postalCode":"04828","locality":"Bennewitz","municipality":{"key":"14729030","name":"Bennewitz","type":"Kreisangehörige_Gemeinde"},"district":{"key":"14729","name":"Leipzig","type":"Landkreis"},"federalState":{"key":"14","name":"Sachsen"}},{"name":"Püchauer Str.","postalCode":"04828","locality":"Bennewitz","municipality":{"key":"14729030","name":"Bennewitz","type":"Kreisangehörige_Gemeinde"},"district":{"key":"14729","name":"Leipzig","type":"Landkreis"},"federalState":{"key":"14","name":"Sachsen"}},{"name":"Quergasse","postalCode":"04828","locality":"Bennewitz","municipality":{"key":"14729030","name":"Bennewitz","type":"Kreisangehörige_Gemeinde"},"district":{"key":"14729","name":"Leipzig","type":"Landkreis"},"federalState":{"key":"14","name":"Sachsen"}},{"name":"Querstr.","postalCode":"04828","locality":"Bennewitz","municipality":{"key":"14729030","name":"Bennewitz","type":"Kreisangehörige_Gemeinde"},"district":{"key":"14729","name":"Leipzig","type":"Landkreis"},"federalState":{"key":"14","name":"Sachsen"}},{"name":"Reiherweg","postalCode":"04828","locality":"Bennewitz","municipality":{"key":"14729030","name":"Bennewitz","type":"Kreisangehörige_Gemeinde"},"district":{"key":"14729","name":"Leipzig","type":"Landkreis"},"federalState":{"key":"14","name":"Sachsen"}},{"name":"Richard-Hinneburg-Str.","postalCode":"04828","locality":"Bennewitz","municipality":{"key":"14729030","name":"Bennewitz","type":"Kreisangehörige_Gemeinde"},"district":{"key":"14729","name":"Leipzig","type":"Landkreis"},"federalState":{"key":"14","name":"Sachsen"}},{"name":"Ringstr.","postalCode":"04828","locality":"Bennewitz","municipality":{"key":"14729030","name":"Bennewitz","type":"Kreisangehörige_Gemeinde"},"district":{"key":"14729","name":"Leipzig","type":"Landkreis"},"federalState":{"key":"14","name":"Sachsen"}},{"name":"Rudolf-Breitscheid-Str.","postalCode":"04828","locality":"Bennewitz","municipality":{"key":"14729030","name":"Bennewitz","type":"Kreisangehörige_Gemeinde"},"district":{"key":"14729","name":"Leipzig","type":"Landkreis"},"federalState":{"key":"14","name":"Sachsen"}},{"name":"Salzstr.","postalCode":"04828","locality":"Bennewitz","municipality":{"key":"14729030","name":"Bennewitz","type":"Kreisangehörige_Gemeinde"},"district":{"key":"14729","name":"Leipzig","type":"Landkreis"},"federalState":{"key":"14","name":"Sachsen"}},{"name":"Schmölener Str.","postalCode":"04828","locality":"Bennewitz","municipality":{"key":"14729030","name":"Bennewitz","type":"Kreisangehörige_Gemeinde"},"district":{"key":"14729","name":"Leipzig","type":"Landkreis"},"federalState":{"key":"14","name":"Sachsen"}},{"name":"Schulstr.","postalCode":"04828","locality":"Bennewitz","municipality":{"key":"14729030","name":"Bennewitz","type":"Kreisangehörige_Gemeinde"},"district":{"key":"14729","name":"Leipzig","type":"Landkreis"},"federalState":{"key":"14","name":"Sachsen"}},{"name":"Schwarzer Weg","postalCode":"04828","locality":"Bennewitz","municipality":{"key":"14729030","name":"Bennewitz","type":"Kreisangehörige_Gemeinde"},"district":{"key":"14729","name":"Leipzig","type":"Landkreis"},"federalState":{"key":"14","name":"Sachsen"}},{"name":"Seitenstr.","postalCode":"04828","locality":"Bennewitz","municipality":{"key":"14729030","name":"Bennewitz","type":"Kreisangehörige_Gemeinde"},"district":{"key":"14729","name":"Leipzig","type":"Landkreis"},"federalState":{"key":"14","name":"Sachsen"}},{"name":"Siedlerweg","postalCode":"04828","locality":"Bennewitz","municipality":{"key":"14729030","name":"Bennewitz","type":"Kreisangehörige_Gemeinde"},"district":{"key":"14729","name":"Leipzig","type":"Landkreis"},"federalState":{"key":"14","name":"Sachsen"}},{"name":"Str. der Einheit","postalCode":"04828","locality":"Bennewitz","municipality":{"key":"14729030","name":"Bennewitz","type":"Kreisangehörige_Gemeinde"},"district":{"key":"14729","name":"Leipzig","type":"Landkreis"},"federalState":{"key":"14","name":"Sachsen"}},{"name":"Teichgasse","postalCode":"04828","locality":"Bennewitz","municipality":{"key":"14729030","name":"Bennewitz","type":"Kreisangehörige_Gemeinde"},"district":{"key":"14729","name":"Leipzig","type":"Landkreis"},"federalState":{"key":"14","name":"Sachsen"}},{"name":"Teichstr.","postalCode":"04828","locality":"Bennewitz","municipality":{"key":"14729030","name":"Bennewitz","type":"Kreisangehörige_Gemeinde"},"district":{"key":"14729","name":"Leipzig","type":"Landkreis"},"federalState":{"key":"14","name":"Sachsen"}},{"name":"Teichweg","postalCode":"04828","locality":"Bennewitz","municipality":{"key":"14729030","name":"Bennewitz","type":"Kreisangehörige_Gemeinde"},"district":{"key":"14729","name":"Leipzig","type":"Landkreis"},"federalState":{"key":"14","name":"Sachsen"}},{"name":"Uferstr.","postalCode":"04105","locality":"Leipzig","municipality":{"key":"14713000","name":"Leipzig, Stadt","type":"Kreisfreie_Stadt"},"district":{"key":"14713","name":"Leipzig, Stadt","type":"Kreisfreie_Stadt"},"federalState":{"key":"14","name":"Sachsen"}},{"name":"Ugiwinkel","postalCode":"04289","locality":"Leipzig","municipality":{"key":"14713000","name":"Leipzig, Stadt","type":"Kreisfreie_Stadt"},"district":{"key":"14713","name":"Leipzig, Stadt","type":"Kreisfreie_Stadt"},"federalState":{"key":"14","name":"Sachsen"}},{"name":"Uhlandstr.","postalCode":"04177","locality":"Leipzig","municipality":{"key":"14713000","name":"Leipzig, Stadt","type":"Kreisfreie_Stadt"},"district":{"key":"14713","name":"Leipzig, Stadt","type":"Kreisfreie_Stadt"},"federalState":{"key":"14","name":"Sachsen"}},{"name":"Uhlandweg","postalCode":"04316","locality":"Leipzig","municipality":{"key":"14713000","name":"Leipzig, Stadt","type":"Kreisfreie_Stadt"},"district":{"key":"14713","name":"Leipzig, Stadt","type":"Kreisfreie_Stadt"},"federalState":{"key":"14","name":"Sachsen"}},{"name":"Uhrigstr.","postalCode":"04159","locality":"Leipzig","municipality":{"key":"14713000","name":"Leipzig, Stadt","type":"Kreisfreie_Stadt"},"district":{"key":"14713","name":"Leipzig, Stadt","type":"Kreisfreie_Stadt"},"federalState":{"key":"14","name":"Sachsen"}},{"name":"Uhuweg","postalCode":"04155","locality":"Leipzig","municipality":{"key":"14713000","name":"Leipzig, Stadt","type":"Kreisfreie_Stadt"},"district":{"key":"14713","name":"Leipzig, Stadt","type":"Kreisfreie_Stadt"},"federalState":{"key":"14","name":"Sachsen"}},{"name":"Uhuweg","postalCode":"04318","locality":"Leipzig","municipality":{"key":"14713000","name":"Leipzig, Stadt","type":"Kreisfreie_Stadt"},"district":{"key":"14713","name":"Leipzig, Stadt","type":"Kreisfreie_Stadt"},"federalState":{"key":"14","name":"Sachsen"}},{"name":"Ulmenweg","postalCode":"04316","locality":"Leipzig","municipality":{"key":"14713000","name":"Leipzig, Stadt","type":"Kreisfreie_Stadt"},"district":{"key":"14713","name":"Leipzig, Stadt","type":"Kreisfreie_Stadt"},"federalState":{"key":"14","name":"Sachsen"}},{"name":"Ulmer Str.","postalCode":"04209","locality":"Leipzig","municipality":{"key":"14713000","name":"Leipzig, Stadt","type":"Kreisfreie_Stadt"},"district":{"key":"14713","name":"Leipzig, Stadt","type":"Kreisfreie_Stadt"},"federalState":{"key":"14","name":"Sachsen"}},{"name":"Ulrichstr.","postalCode":"04155","locality":"Leipzig","municipality":{"key":"14713000","name":"Leipzig, Stadt","type":"Kreisfreie_Stadt"},"district":{"key":"14713","name":"Leipzig, Stadt","type":"Kreisfreie_Stadt"},"federalState":{"key":"14","name":"Sachsen"}},{"name":"Undinenweg","postalCode":"04277","locality":"Leipzig","municipality":{"key":"14713000","name":"Leipzig, Stadt","type":"Kreisfreie_Stadt"},"district":{"key":"14713","name":"Leipzig, Stadt","type":"Kreisfreie_Stadt"},"federalState":{"key":"14","name":"Sachsen"}},{"name":"Ungerstr.","postalCode":"04318","locality":"Leipzig","municipality":{"key":"14713000","name":"Leipzig, Stadt","type":"Kreisfreie_Stadt"},"district":{"key":"14713","name":"Leipzig, Stadt","type":"Kreisfreie_Stadt"},"federalState":{"key":"14","name":"Sachsen"}},{"name":"Universitätsstr.","postalCode":"04109","locality":"Leipzig","municipality":{"key":"14713000","name":"Leipzig, Stadt","type":"Kreisfreie_Stadt"},"district":{"key":"14713","name":"Leipzig, Stadt","type":"Kreisfreie_Stadt"},"federalState":{"key":"14","name":"Sachsen"}},{"name":"Untere Eichstädtstr.","postalCode":"04299","locality":"Leipzig","municipality":{"key":"14713000","name":"Leipzig, Stadt","type":"Kreisfreie_Stadt"},"district":{"key":"14713","name":"Leipzig, Stadt","type":"Kreisfreie_Stadt"},"federalState":{"key":"14","name":"Sachsen"}},{"name":"Untere Mühlenstr.","postalCode":"04178","locality":"Leipzig","municipality":{"key":"14713000","name":"Leipzig, Stadt","type":"Kreisfreie_Stadt"},"district":{"key":"14713","name":"Leipzig, Stadt","type":"Kreisfreie_Stadt"},"federalState":{"key":"14","name":"Sachsen"}},{"name":"Untere Nordstr.","postalCode":"04288","locality":"Leipzig","municipality":{"key":"14713000","name":"Leipzig, Stadt","type":"Kreisfreie_Stadt"},"district":{"key":"14713","name":"Leipzig, Stadt","type":"Kreisfreie_Stadt"},"federalState":{"key":"14","name":"Sachsen"}},{"name":"Unterer Sandweg","postalCode":"04158","locality":"Leipzig","municipality":{"key":"14713000","name":"Leipzig, Stadt","type":"Kreisfreie_Stadt"},"district":{"key":"14713","name":"Leipzig, Stadt","type":"Kreisfreie_Stadt"},"federalState":{"key":"14","name":"Sachsen"}},{"name":"Unterführung","postalCode":"04159","locality":"Leipzig","municipality":{"key":"14713000","name":"Leipzig, Stadt","type":"Kreisfreie_Stadt"},"district":{"key":"14713","name":"Leipzig, Stadt","type":"Kreisfreie_Stadt"},"federalState":{"key":"14","name":"Sachsen"}},{"name":"Uranusstr.","postalCode":"04205","locality":"Leipzig","municipality":{"key":"14713000","name":"Leipzig, Stadt","type":"Kreisfreie_Stadt"},"district":{"key":"14713","name":"Leipzig, Stadt","type":"Kreisfreie_Stadt"},"federalState":{"key":"14","name":"Sachsen"}},{"name":"Ursula-Götze-Str.","postalCode":"04349","locality":"Leipzig","municipality":{"key":"14713000","name":"Leipzig, Stadt","type":"Kreisfreie_Stadt"},"district":{"key":"14713","name":"Leipzig, Stadt","type":"Kreisfreie_Stadt"},"federalState":{"key":"14","name":"Sachsen"}},{"name":"Usedomer Str.","postalCode":"04159","locality":"Leipzig","municipality":{"key":"14713000","name":"Leipzig, Stadt","type":"Kreisfreie_Stadt"},"district":{"key":"14713","name":"Leipzig, Stadt","type":"Kreisfreie_Stadt"},"federalState":{"key":"14","name":"Sachsen"}},{"name":"Václav-Neumann-Str.","postalCode":"04299","locality":"Leipzig","municipality":{"key":"14713000","name":"Leipzig, Stadt","type":"Kreisfreie_Stadt"},"district":{"key":"14713","name":"Leipzig, Stadt","type":"Kreisfreie_Stadt"},"federalState":{"key":"14","name":"Sachsen"}},{"name":"Vater-Jahn-Str.","postalCode":"04158","locality":"Leipzig","municipality":{"key":"14713000","name":"Leipzig, Stadt","type":"Kreisfreie_Stadt"},"district":{"key":"14713","name":"Leipzig, Stadt","type":"Kreisfreie_Stadt"},"federalState":{"key":"14","name":"Sachsen"}},{"name":"Veilchenweg","postalCode":"04155","locality":"Leipzig","municipality":{"key":"14713000","name":"Leipzig, Stadt","type":"Kreisfreie_Stadt"},"district":{"key":"14713","name":"Leipzig, Stadt","type":"Kreisfreie_Stadt"},"federalState":{"key":"14","name":"Sachsen"}},{"name":"Veilchenweg","postalCode":"04157","locality":"Leipzig","municipality":{"key":"14713000","name":"Leipzig, Stadt","type":"Kreisfreie_Stadt"},"district":{"key":"14713","name":"Leipzig, Stadt","type":"Kreisfreie_Stadt"},"federalState":{"key":"14","name":"Sachsen"}},{"name":"Veilchenweg","postalCode":"04205","locality":"Leipzig","municipality":{"key":"14713000","name":"Leipzig, Stadt","type":"Kreisfreie_Stadt"},"district":{"key":"14713","name":"Leipzig, Stadt","type":"Kreisfreie_Stadt"},"federalState":{"key":"14","name":"Sachsen"}},{"name":"Veilchenweg","postalCode":"04275","locality":"Leipzig","municipality":{"key":"14713000","name":"Leipzig, Stadt","type":"Kreisfreie_Stadt"},"district":{"key":"14713","name":"Leipzig, Stadt","type":"Kreisfreie_Stadt"},"federalState":{"key":"14","name":"Sachsen"}},{"name":"Veilchenweg","postalCode":"04299","locality":"Leipzig","municipality":{"key":"14713000","name":"Leipzig, Stadt","type":"Kreisfreie_Stadt"},"district":{"key":"14713","name":"Leipzig, Stadt","type":"Kreisfreie_Stadt"},"federalState":{"key":"14","name":"Sachsen"}},{"name":"Veilchenweg","postalCode":"04318","locality":"Leipzig","municipality":{"key":"14713000","name":"Leipzig, Stadt","type":"Kreisfreie_Stadt"},"district":{"key":"14713","name":"Leipzig, Stadt","type":"Kreisfreie_Stadt"},"federalState":{"key":"14","name":"Sachsen"}},{"name":"Verdistr.","postalCode":"04319","locality":"Leipzig","municipality":{"key":"14713000","name":"Leipzig, Stadt","type":"Kreisfreie_Stadt"},"district":{"key":"14713","name":"Leipzig, Stadt","type":"Kreisfreie_Stadt"},"federalState":{"key":"14","name":"Sachsen"}},{"name":"Verlängerte Max-Liebermann-Str.","postalCode":"04159","locality":"Leipzig","municipality":{"key":"14713000","name":"Leipzig, Stadt","type":"Kreisfreie_Stadt"},"district":{"key":"14713","name":"Leipzig, Stadt","type":"Kreisfreie_Stadt"},"federalState":{"key":"14","name":"Sachsen"}},{"name":"Verlängerte Schwedenstr.","postalCode":"04158","locality":"Leipzig","municipality":{"key":"14713000","name":"Leipzig, Stadt","type":"Kreisfreie_Stadt"},"district":{"key":"14713","name":"Leipzig, Stadt","type":"Kreisfreie_Stadt"},"federalState":{"key":"14","name":"Sachsen"}},{"name":"Verlängerte Wilhelmstr.","postalCode":"04158","locality":"Leipzig","municipality":{"key":"14713000","name":"Leipzig, Stadt","type":"Kreisfreie_Stadt"},"district":{"key":"14713","name":"Leipzig, Stadt","type":"Kreisfreie_Stadt"},"federalState":{"key":"14","name":"Sachsen"}},{"name":"Vetters Hof","postalCode":"04109","locality":"Leipzig","municipality":{"key":"14713000","name":"Leipzig, Stadt","type":"Kreisfreie_Stadt"},"district":{"key":"14713","name":"Leipzig, Stadt","type":"Kreisfreie_Stadt"},"federalState":{"key":"14","name":"Sachsen"}},{"name":"Viaduktweg","postalCode":"04158","locality":"Leipzig","municipality":{"key":"14713000","name":"Leipzig, Stadt","type":"Kreisfreie_Stadt"},"district":{"key":"14713","name":"Leipzig, Stadt","type":"Kreisfreie_Stadt"},"federalState":{"key":"14","name":"Sachsen"}},{"name":"Vierackerwiesen","postalCode":"04179","locality":"Leipzig","municipality":{"key":"14713000","name":"Leipzig, Stadt","type":"Kreisfreie_Stadt"},"district":{"key":"14713","name":"Leipzig, Stadt","type":"Kreisfreie_Stadt"},"federalState":{"key":"14","name":"Sachsen"}},{"name":"Viertelsweg","postalCode":"04157","locality":"Leipzig","municipality":{"key":"14713000","name":"Leipzig, Stadt","type":"Kreisfreie_Stadt"},"district":{"key":"14713","name":"Leipzig, Stadt","type":"Kreisfreie_Stadt"},"federalState":{"key":"14","name":"Sachsen"}},{"name":"Vierzehn-Bäume-Weg","postalCode":"04357","locality":"Leipzig","municipality":{"key":"14713000","name":"Leipzig, Stadt","type":"Kreisfreie_Stadt"},"district":{"key":"14713","name":"Leipzig, Stadt","type":"Kreisfreie_Stadt"},"federalState":{"key":"14","name":"Sachsen"}},{"name":"Viktoriastr.","postalCode":"04317","locality":"Leipzig","municipality":{"key":"14713000","name":"Leipzig, Stadt","type":"Kreisfreie_Stadt"},"district":{"key":"14713","name":"Leipzig, Stadt","type":"Kreisfreie_Stadt"},"federalState":{"key":"14","name":"Sachsen"}},{"name":"Virchowstr.","postalCode":"04157","locality":"Leipzig","municipality":{"key":"14713000","name":"Leipzig, Stadt","type":"Kreisfreie_Stadt"},"district":{"key":"14713","name":"Leipzig, Stadt","type":"Kreisfreie_Stadt"},"federalState":{"key":"14","name":"Sachsen"}},{"name":"Vivaldistr.","postalCode":"04319","locality":"Leipzig","municipality":{"key":"14713000","name":"Leipzig, Stadt","type":"Kreisfreie_Stadt"},"district":{"key":"14713","name":"Leipzig, Stadt","type":"Kreisfreie_Stadt"},"federalState":{"key":"14","name":"Sachsen"}},{"name":"Vlamenstr.","postalCode":"04159","locality":"Leipzig","municipality":{"key":"14713000","name":"Leipzig, Stadt","type":"Kreisfreie_Stadt"},"district":{"key":"14713","name":"Leipzig, Stadt","type":"Kreisfreie_Stadt"},"federalState":{"key":"14","name":"Sachsen"}},{"name":"Voigtstr.","postalCode":"04179","locality":"Leipzig","municipality":{"key":"14713000","name":"Leipzig, Stadt","type":"Kreisfreie_Stadt"},"district":{"key":"14713","name":"Leipzig, Stadt","type":"Kreisfreie_Stadt"},"federalState":{"key":"14","name":"Sachsen"}},{"name":"Volbedingstr.","postalCode":"04347","locality":"Leipzig","municipality":{"key":"14713000","name":"Leipzig, Stadt","type":"Kreisfreie_Stadt"},"district":{"key":"14713","name":"Leipzig, Stadt","type":"Kreisfreie_Stadt"},"federalState":{"key":"14","name":"Sachsen"}},{"name":"Volbedingstr.","postalCode":"04357","locality":"Leipzig","municipality":{"key":"14713000","name":"Leipzig, Stadt","type":"Kreisfreie_Stadt"},"district":{"key":"14713","name":"Leipzig, Stadt","type":"Kreisfreie_Stadt"},"federalState":{"key":"14","name":"Sachsen"}},{"name":"Volckmarstr.","postalCode":"04317","locality":"Leipzig","municipality":{"key":"14713000","name":"Leipzig, Stadt","type":"Kreisfreie_Stadt"},"district":{"key":"14713","name":"Leipzig, Stadt","type":"Kreisfreie_Stadt"},"federalState":{"key":"14","name":"Sachsen"}},{"name":"Volksgartenstr.","postalCode":"04347","locality":"Leipzig","municipality":{"key":"14713000","name":"Leipzig, Stadt","type":"Kreisfreie_Stadt"},"district":{"key":"14713","name":"Leipzig, Stadt","type":"Kreisfreie_Stadt"},"federalState":{"key":"14","name":"Sachsen"}},{"name":"Vollhardtstr.","postalCode":"04279","locality":"Leipzig","municipality":{"key":"14713000","name":"Leipzig, Stadt","type":"Kreisfreie_Stadt"},"district":{"key":"14713","name":"Leipzig, Stadt","type":"Kreisfreie_Stadt"},"federalState":{"key":"14","name":"Sachsen"}},{"name":"Voltairestr.","postalCode":"04159","locality":"Leipzig","municipality":{"key":"14713000","name":"Leipzig, Stadt","type":"Kreisfreie_Stadt"},"district":{"key":"14713","name":"Leipzig, Stadt","type":"Kreisfreie_Stadt"},"federalState":{"key":"14","name":"Sachsen"}},{"name":"Voltaweg","postalCode":"04299","locality":"Leipzig","municipality":{"key":"14713000","name":"Leipzig, Stadt","type":"Kreisfreie_Stadt"},"district":{"key":"14713","name":"Leipzig, Stadt","type":"Kreisfreie_Stadt"},"federalState":{"key":"14","name":"Sachsen"}},{"name":"Vor dem Hospitaltore","postalCode":"04103","locality":"Leipzig","municipality":{"key":"14713000","name":"Leipzig, Stadt","type":"Kreisfreie_Stadt"},"district":{"key":"14713","name":"Leipzig, Stadt","type":"Kreisfreie_Stadt"},"federalState":{"key":"14","name":"Sachsen"}},{"name":"Vordere Schlobachstr.","postalCode":"04178","locality":"Leipzig","municipality":{"key":"14713000","name":"Leipzig, Stadt","type":"Kreisfreie_Stadt"},"district":{"key":"14713","name":"Leipzig, Stadt","type":"Kreisfreie_Stadt"},"federalState":{"key":"14","name":"Sachsen"}},{"name":"Waldsiedlung","postalCode":"04828","locality":"Bennewitz","municipality":{"key":"14729030","name":"Bennewitz","type":"Kreisangehörige_Gemeinde"},"district":{"key":"14729","name":"Leipzig","type":"Landkreis"},"federalState":{"key":"14","name":"Sachsen"}},{"name":"Waldstr.","postalCode":"04828","locality":"Bennewitz","municipality":{"key":"14729030","name":"Bennewitz","type":"Kreisangehörige_Gemeinde"},"district":{"key":"14729","name":"Leipzig","type":"Landkreis"},"federalState":{"key":"14","name":"Sachsen"}},{"name":"Waldwinkel","postalCode":"04828","locality":"Bennewitz","municipality":{"key":"14729030","name":"Bennewitz","type":"Kreisangehörige_Gemeinde"},"district":{"key":"14729","name":"Leipzig","type":"Landkreis"},"federalState":{"key":"14","name":"Sachsen"}},{"name":"Wiesenweg","postalCode":"04828","locality":"Bennewitz","municipality":{"key":"14729030","name":"Bennewitz","type":"Kreisangehörige_Gemeinde"},"district":{"key":"14729","name":"Leipzig","type":"Landkreis"},"federalState":{"key":"14","name":"Sachsen"}},{"name":"Wohnpark","postalCode":"04828","locality":"Bennewitz","municipality":{"key":"14729030","name":"Bennewitz","type":"Kreisangehörige_Gemeinde"},"district":{"key":"14729","name":"Leipzig","type":"Landkreis"},"federalState":{"key":"14","name":"Sachsen"}},{"name":"Wurzener Str.","postalCode":"04828","locality":"Bennewitz","municipality":{"key":"14729030","name":"Bennewitz","type":"Kreisangehörige_Gemeinde"},"district":{"key":"14729","name":"Leipzig","type":"Landkreis"},"federalState":{"key":"14","name":"Sachsen"}},{"name":"Yorck-Diebitsch-Str.","postalCode":"04178","locality":"Leipzig","municipality":{"key":"14713000","name":"Leipzig, Stadt","type":"Kreisfreie_Stadt"},"district":{"key":"14713","name":"Leipzig, Stadt","type":"Kreisfreie_Stadt"},"federalState":{"key":"14","name":"Sachsen"}},{"name":"Yorckstr.","postalCode":"04159","locality":"Leipzig","municipality":{"key":"14713000","name":"Leipzig, Stadt","type":"Kreisfreie_Stadt"},"district":{"key":"14713","name":"Leipzig, Stadt","type":"Kreisfreie_Stadt"},"federalState":{"key":"14","name":"Sachsen"}},{"name":"Yuccaweg","postalCode":"04155","locality":"Leipzig","municipality":{"key":"14713000","name":"Leipzig, Stadt","type":"Kreisfreie_Stadt"},"district":{"key":"14713","name":"Leipzig, Stadt","type":"Kreisfreie_Stadt"},"federalState":{"key":"14","name":"Sachsen"}},{"name":"Zum Planitzwald","postalCode":"04828","locality":"Bennewitz","municipality":{"key":"14729030","name":"Bennewitz","type":"Kreisangehörige_Gemeinde"},"district":{"key":"14729","name":"Leipzig","type":"Landkreis"},"federalState":{"key":"14","name":"Sachsen"}},{"name":"Äußere Auenblickstr.","postalCode":"04159","locality":"Leipzig","municipality":{"key":"14713000","name":"Leipzig, Stadt","type":"Kreisfreie_Stadt"},"district":{"key":"14713","name":"Leipzig, Stadt","type":"Kreisfreie_Stadt"},"federalState":{"key":"14","name":"Sachsen"}},{"name":"Äußere Friedrich-Naumann-Str.","postalCode":"04158","locality":"Leipzig","municipality":{"key":"14713000","name":"Leipzig, Stadt","type":"Kreisfreie_Stadt"},"district":{"key":"14713","name":"Leipzig, Stadt","type":"Kreisfreie_Stadt"},"federalState":{"key":"14","name":"Sachsen"}},{"name":"Äußere Mühlenstr.","postalCode":"04159","locality":"Leipzig","municipality":{"key":"14713000","name":"Leipzig, Stadt","type":"Kreisfreie_Stadt"},"district":{"key":"14713","name":"Leipzig, Stadt","type":"Kreisfreie_Stadt"},"federalState":{"key":"14","name":"Sachsen"}},{"name":"Äußere Raustr.","postalCode":"04158","locality":"Leipzig","municipality":{"key":"14713000","name":"Leipzig, Stadt","type":"Kreisfreie_Stadt"},"district":{"key":"14713","name":"Leipzig, Stadt","type":"Kreisfreie_Stadt"},"federalState":{"key":"14","name":"Sachsen"}},{"name":"Äußerer Zeisigweg","postalCode":"04158","locality":"Leipzig","municipality":{"key":"14713000","name":"Leipzig, Stadt","type":"Kreisfreie_Stadt"},"district":{"key":"14713","name":"Leipzig, Stadt","type":"Kreisfreie_Stadt"},"federalState":{"key":"14","name":"Sachsen"}},{"name":"Ölhafenstr.","postalCode":"04159","locality":"Leipzig","municipality":{"key":"14713000","name":"Leipzig, Stadt","type":"Kreisfreie_Stadt"},"district":{"key":"14713","name":"Leipzig, Stadt","type":"Kreisfreie_Stadt"},"federalState":{"key":"14","name":"Sachsen"}},{"name":"Österreicherweg","postalCode":"04289","locality":"Leipzig","municipality":{"key":"14713000","name":"Leipzig, Stadt","type":"Kreisfreie_Stadt"},"district":{"key":"14713","name":"Leipzig, Stadt","type":"Kreisfreie_Stadt"},"federalState":{"key":"14","name":"Sachsen"}},]