[{"name":"Ahrensfelde","postalCode":"23847","locality":"Westerau","municipality":{"key":"01062083","name":"Westerau","type":"Kreisangehörige_Gemeinde"},"district":{"key":"01062","name":"Stormarn","type":"Kreis"},"federalState":{"key":"01","name":"Schleswig-Holstein"}},{"name":"Birkhorst","postalCode":"23847","locality":"Westerau","municipality":{"key":"01062083","name":"Westerau","type":"Kreisangehörige_Gemeinde"},"district":{"key":"01062","name":"Stormarn","type":"Kreis"},"federalState":{"key":"01","name":"Schleswig-Holstein"}},{"name":"Dorfstr.","postalCode":"23847","locality":"Westerau","municipality":{"key":"01062083","name":"Westerau","type":"Kreisangehörige_Gemeinde"},"district":{"key":"01062","name":"Stormarn","type":"Kreis"},"federalState":{"key":"01","name":"Schleswig-Holstein"}},{"name":"Eichkamp","postalCode":"23847","locality":"Westerau","municipality":{"key":"01062083","name":"Westerau","type":"Kreisangehörige_Gemeinde"},"district":{"key":"01062","name":"Stormarn","type":"Kreis"},"federalState":{"key":"01","name":"Schleswig-Holstein"}},{"name":"Kamp","postalCode":"23847","locality":"Westerau","municipality":{"key":"01062083","name":"Westerau","type":"Kreisangehörige_Gemeinde"},"district":{"key":"01062","name":"Stormarn","type":"Kreis"},"federalState":{"key":"01","name":"Schleswig-Holstein"}},{"name":"Neue Str.","postalCode":"23847","locality":"Westerau","municipality":{"key":"01062083","name":"Westerau","type":"Kreisangehörige_Gemeinde"},"district":{"key":"01062","name":"Stormarn","type":"Kreis"},"federalState":{"key":"01","name":"Schleswig-Holstein"}},{"name":"Ratzeburger Str.","postalCode":"23847","locality":"Westerau","municipality":{"key":"01062083","name":"Westerau","type":"Kreisangehörige_Gemeinde"},"district":{"key":"01062","name":"Stormarn","type":"Kreis"},"federalState":{"key":"01","name":"Schleswig-Holstein"}},{"name":"Scharberg","postalCode":"23847","locality":"Westerau","municipality":{"key":"01062083","name":"Westerau","type":"Kreisangehörige_Gemeinde"},"district":{"key":"01062","name":"Stormarn","type":"Kreis"},"federalState":{"key":"01","name":"Schleswig-Holstein"}},{"name":"Schmiedeweg","postalCode":"23847","locality":"Westerau","municipality":{"key":"01062083","name":"Westerau","type":"Kreisangehörige_Gemeinde"},"district":{"key":"01062","name":"Stormarn","type":"Kreis"},"federalState":{"key":"01","name":"Schleswig-Holstein"}},{"name":"Schulstr.","postalCode":"23847","locality":"Westerau","municipality":{"key":"01062083","name":"Westerau","type":"Kreisangehörige_Gemeinde"},"district":{"key":"01062","name":"Stormarn","type":"Kreis"},"federalState":{"key":"01","name":"Schleswig-Holstein"}},{"name":"Söhrenweg","postalCode":"23847","locality":"Westerau","municipality":{"key":"01062083","name":"Westerau","type":"Kreisangehörige_Gemeinde"},"district":{"key":"01062","name":"Stormarn","type":"Kreis"},"federalState":{"key":"01","name":"Schleswig-Holstein"}},{"name":"Trenthorst","postalCode":"23847","locality":"Westerau","municipality":{"key":"01062083","name":"Westerau","type":"Kreisangehörige_Gemeinde"},"district":{"key":"01062","name":"Stormarn","type":"Kreis"},"federalState":{"key":"01","name":"Schleswig-Holstein"}},{"name":"Westerauer Str.","postalCode":"23847","locality":"Westerau","municipality":{"key":"01062083","name":"Westerau","type":"Kreisangehörige_Gemeinde"},"district":{"key":"01062","name":"Stormarn","type":"Kreis"},"federalState":{"key":"01","name":"Schleswig-Holstein"}},{"name":"Wulmenau","postalCode":"23847","locality":"Westerau","municipality":{"key":"01062083","name":"Westerau","type":"Kreisangehörige_Gemeinde"},"district":{"key":"01062","name":"Stormarn","type":"Kreis"},"federalState":{"key":"01","name":"Schleswig-Holstein"}},]