[{"name":"Agaer Str.","postalCode":"06712","locality":"Gutenborn","municipality":{"key":"15084207","name":"Gutenborn","type":"Kreisangehörige_Gemeinde"},"district":{"key":"15084","name":"Burgenlandkreis","type":"Landkreis"},"federalState":{"key":"15","name":"Sachsen-Anhalt"}},{"name":"Allee","postalCode":"06712","locality":"Gutenborn","municipality":{"key":"15084207","name":"Gutenborn","type":"Kreisangehörige_Gemeinde"},"district":{"key":"15084","name":"Burgenlandkreis","type":"Landkreis"},"federalState":{"key":"15","name":"Sachsen-Anhalt"}},{"name":"Am Anger","postalCode":"06712","locality":"Gutenborn","municipality":{"key":"15084207","name":"Gutenborn","type":"Kreisangehörige_Gemeinde"},"district":{"key":"15084","name":"Burgenlandkreis","type":"Landkreis"},"federalState":{"key":"15","name":"Sachsen-Anhalt"}},{"name":"Am Dorfteich","postalCode":"06712","locality":"Gutenborn","municipality":{"key":"15084207","name":"Gutenborn","type":"Kreisangehörige_Gemeinde"},"district":{"key":"15084","name":"Burgenlandkreis","type":"Landkreis"},"federalState":{"key":"15","name":"Sachsen-Anhalt"}},{"name":"Am Friedhof","postalCode":"06712","locality":"Gutenborn","municipality":{"key":"15084207","name":"Gutenborn","type":"Kreisangehörige_Gemeinde"},"district":{"key":"15084","name":"Burgenlandkreis","type":"Landkreis"},"federalState":{"key":"15","name":"Sachsen-Anhalt"}},{"name":"Am Schloßhof","postalCode":"06712","locality":"Gutenborn","municipality":{"key":"15084207","name":"Gutenborn","type":"Kreisangehörige_Gemeinde"},"district":{"key":"15084","name":"Burgenlandkreis","type":"Landkreis"},"federalState":{"key":"15","name":"Sachsen-Anhalt"}},{"name":"Am Sportplatz","postalCode":"06712","locality":"Gutenborn","municipality":{"key":"15084207","name":"Gutenborn","type":"Kreisangehörige_Gemeinde"},"district":{"key":"15084","name":"Burgenlandkreis","type":"Landkreis"},"federalState":{"key":"15","name":"Sachsen-Anhalt"}},{"name":"Am Wald","postalCode":"06712","locality":"Gutenborn","municipality":{"key":"15084207","name":"Gutenborn","type":"Kreisangehörige_Gemeinde"},"district":{"key":"15084","name":"Burgenlandkreis","type":"Landkreis"},"federalState":{"key":"15","name":"Sachsen-Anhalt"}},{"name":"Am Wasserturm","postalCode":"06712","locality":"Gutenborn","municipality":{"key":"15084207","name":"Gutenborn","type":"Kreisangehörige_Gemeinde"},"district":{"key":"15084","name":"Burgenlandkreis","type":"Landkreis"},"federalState":{"key":"15","name":"Sachsen-Anhalt"}},{"name":"Bäckergasse","postalCode":"06712","locality":"Gutenborn","municipality":{"key":"15084207","name":"Gutenborn","type":"Kreisangehörige_Gemeinde"},"district":{"key":"15084","name":"Burgenlandkreis","type":"Landkreis"},"federalState":{"key":"15","name":"Sachsen-Anhalt"}},{"name":"Bergweg","postalCode":"06712","locality":"Gutenborn","municipality":{"key":"15084207","name":"Gutenborn","type":"Kreisangehörige_Gemeinde"},"district":{"key":"15084","name":"Burgenlandkreis","type":"Landkreis"},"federalState":{"key":"15","name":"Sachsen-Anhalt"}},{"name":"Besenstr.","postalCode":"06712","locality":"Gutenborn","municipality":{"key":"15084207","name":"Gutenborn","type":"Kreisangehörige_Gemeinde"},"district":{"key":"15084","name":"Burgenlandkreis","type":"Landkreis"},"federalState":{"key":"15","name":"Sachsen-Anhalt"}},{"name":"Birkenweg","postalCode":"06712","locality":"Gutenborn","municipality":{"key":"15084207","name":"Gutenborn","type":"Kreisangehörige_Gemeinde"},"district":{"key":"15084","name":"Burgenlandkreis","type":"Landkreis"},"federalState":{"key":"15","name":"Sachsen-Anhalt"}},{"name":"Damm","postalCode":"06712","locality":"Gutenborn","municipality":{"key":"15084207","name":"Gutenborn","type":"Kreisangehörige_Gemeinde"},"district":{"key":"15084","name":"Burgenlandkreis","type":"Landkreis"},"federalState":{"key":"15","name":"Sachsen-Anhalt"}},{"name":"Dorfstr.","postalCode":"06712","locality":"Gutenborn","municipality":{"key":"15084207","name":"Gutenborn","type":"Kreisangehörige_Gemeinde"},"district":{"key":"15084","name":"Burgenlandkreis","type":"Landkreis"},"federalState":{"key":"15","name":"Sachsen-Anhalt"}},{"name":"Droßdorfer Str.","postalCode":"06712","locality":"Gutenborn","municipality":{"key":"15084207","name":"Gutenborn","type":"Kreisangehörige_Gemeinde"},"district":{"key":"15084","name":"Burgenlandkreis","type":"Landkreis"},"federalState":{"key":"15","name":"Sachsen-Anhalt"}},{"name":"Forststr.","postalCode":"06712","locality":"Gutenborn","municipality":{"key":"15084207","name":"Gutenborn","type":"Kreisangehörige_Gemeinde"},"district":{"key":"15084","name":"Burgenlandkreis","type":"Landkreis"},"federalState":{"key":"15","name":"Sachsen-Anhalt"}},{"name":"Frauenhainer Hauptstr.","postalCode":"06712","locality":"Gutenborn","municipality":{"key":"15084207","name":"Gutenborn","type":"Kreisangehörige_Gemeinde"},"district":{"key":"15084","name":"Burgenlandkreis","type":"Landkreis"},"federalState":{"key":"15","name":"Sachsen-Anhalt"}},{"name":"Friedensstr.","postalCode":"06712","locality":"Gutenborn","municipality":{"key":"15084207","name":"Gutenborn","type":"Kreisangehörige_Gemeinde"},"district":{"key":"15084","name":"Burgenlandkreis","type":"Landkreis"},"federalState":{"key":"15","name":"Sachsen-Anhalt"}},{"name":"Furt","postalCode":"06712","locality":"Gutenborn","municipality":{"key":"15084207","name":"Gutenborn","type":"Kreisangehörige_Gemeinde"},"district":{"key":"15084","name":"Burgenlandkreis","type":"Landkreis"},"federalState":{"key":"15","name":"Sachsen-Anhalt"}},{"name":"Gartenweg","postalCode":"06712","locality":"Gutenborn","municipality":{"key":"15084207","name":"Gutenborn","type":"Kreisangehörige_Gemeinde"},"district":{"key":"15084","name":"Burgenlandkreis","type":"Landkreis"},"federalState":{"key":"15","name":"Sachsen-Anhalt"}},{"name":"Gasse","postalCode":"06712","locality":"Gutenborn","municipality":{"key":"15084207","name":"Gutenborn","type":"Kreisangehörige_Gemeinde"},"district":{"key":"15084","name":"Burgenlandkreis","type":"Landkreis"},"federalState":{"key":"15","name":"Sachsen-Anhalt"}},{"name":"Geopfad","postalCode":"06712","locality":"Gutenborn","municipality":{"key":"15084207","name":"Gutenborn","type":"Kreisangehörige_Gemeinde"},"district":{"key":"15084","name":"Burgenlandkreis","type":"Landkreis"},"federalState":{"key":"15","name":"Sachsen-Anhalt"}},{"name":"Geraer Str.","postalCode":"06712","locality":"Gutenborn","municipality":{"key":"15084207","name":"Gutenborn","type":"Kreisangehörige_Gemeinde"},"district":{"key":"15084","name":"Burgenlandkreis","type":"Landkreis"},"federalState":{"key":"15","name":"Sachsen-Anhalt"}},{"name":"Gewerbegebiet","postalCode":"06712","locality":"Gutenborn","municipality":{"key":"15084207","name":"Gutenborn","type":"Kreisangehörige_Gemeinde"},"district":{"key":"15084","name":"Burgenlandkreis","type":"Landkreis"},"federalState":{"key":"15","name":"Sachsen-Anhalt"}},{"name":"Giebelroth","postalCode":"06712","locality":"Gutenborn","municipality":{"key":"15084207","name":"Gutenborn","type":"Kreisangehörige_Gemeinde"},"district":{"key":"15084","name":"Burgenlandkreis","type":"Landkreis"},"federalState":{"key":"15","name":"Sachsen-Anhalt"}},{"name":"Golben","postalCode":"06712","locality":"Gutenborn","municipality":{"key":"15084207","name":"Gutenborn","type":"Kreisangehörige_Gemeinde"},"district":{"key":"15084","name":"Burgenlandkreis","type":"Landkreis"},"federalState":{"key":"15","name":"Sachsen-Anhalt"}},{"name":"Großosidaer Str.","postalCode":"06712","locality":"Gutenborn","municipality":{"key":"15084207","name":"Gutenborn","type":"Kreisangehörige_Gemeinde"},"district":{"key":"15084","name":"Burgenlandkreis","type":"Landkreis"},"federalState":{"key":"15","name":"Sachsen-Anhalt"}},{"name":"Hauptstr.","postalCode":"06712","locality":"Gutenborn","municipality":{"key":"15084207","name":"Gutenborn","type":"Kreisangehörige_Gemeinde"},"district":{"key":"15084","name":"Burgenlandkreis","type":"Landkreis"},"federalState":{"key":"15","name":"Sachsen-Anhalt"}},{"name":"Heuckewalder Siedlung","postalCode":"06712","locality":"Gutenborn","municipality":{"key":"15084207","name":"Gutenborn","type":"Kreisangehörige_Gemeinde"},"district":{"key":"15084","name":"Burgenlandkreis","type":"Landkreis"},"federalState":{"key":"15","name":"Sachsen-Anhalt"}},{"name":"Heuckewalder Str.","postalCode":"06712","locality":"Gutenborn","municipality":{"key":"15084207","name":"Gutenborn","type":"Kreisangehörige_Gemeinde"},"district":{"key":"15084","name":"Burgenlandkreis","type":"Landkreis"},"federalState":{"key":"15","name":"Sachsen-Anhalt"}},{"name":"Im Winkel","postalCode":"06712","locality":"Gutenborn","municipality":{"key":"15084207","name":"Gutenborn","type":"Kreisangehörige_Gemeinde"},"district":{"key":"15084","name":"Burgenlandkreis","type":"Landkreis"},"federalState":{"key":"15","name":"Sachsen-Anhalt"}},{"name":"Johann-Gottlob-Rössler-Str.","postalCode":"06712","locality":"Gutenborn","municipality":{"key":"15084207","name":"Gutenborn","type":"Kreisangehörige_Gemeinde"},"district":{"key":"15084","name":"Burgenlandkreis","type":"Landkreis"},"federalState":{"key":"15","name":"Sachsen-Anhalt"}},{"name":"Kleiner Weg","postalCode":"06712","locality":"Gutenborn","municipality":{"key":"15084207","name":"Gutenborn","type":"Kreisangehörige_Gemeinde"},"district":{"key":"15084","name":"Burgenlandkreis","type":"Landkreis"},"federalState":{"key":"15","name":"Sachsen-Anhalt"}},{"name":"Kleinpörthener Weg","postalCode":"06712","locality":"Gutenborn","municipality":{"key":"15084207","name":"Gutenborn","type":"Kreisangehörige_Gemeinde"},"district":{"key":"15084","name":"Burgenlandkreis","type":"Landkreis"},"federalState":{"key":"15","name":"Sachsen-Anhalt"}},{"name":"Kuhndorfer Dorfstr.","postalCode":"06712","locality":"Gutenborn","municipality":{"key":"15084207","name":"Gutenborn","type":"Kreisangehörige_Gemeinde"},"district":{"key":"15084","name":"Burgenlandkreis","type":"Landkreis"},"federalState":{"key":"15","name":"Sachsen-Anhalt"}},{"name":"Kuhndorfer Str.","postalCode":"06712","locality":"Gutenborn","municipality":{"key":"15084207","name":"Gutenborn","type":"Kreisangehörige_Gemeinde"},"district":{"key":"15084","name":"Burgenlandkreis","type":"Landkreis"},"federalState":{"key":"15","name":"Sachsen-Anhalt"}},{"name":"Kuhndorfer Teichweg","postalCode":"06712","locality":"Gutenborn","municipality":{"key":"15084207","name":"Gutenborn","type":"Kreisangehörige_Gemeinde"},"district":{"key":"15084","name":"Burgenlandkreis","type":"Landkreis"},"federalState":{"key":"15","name":"Sachsen-Anhalt"}},{"name":"Kuhndorfer Weg","postalCode":"06712","locality":"Gutenborn","municipality":{"key":"15084207","name":"Gutenborn","type":"Kreisangehörige_Gemeinde"},"district":{"key":"15084","name":"Burgenlandkreis","type":"Landkreis"},"federalState":{"key":"15","name":"Sachsen-Anhalt"}},{"name":"Kuhndorftal","postalCode":"06712","locality":"Gutenborn","municipality":{"key":"15084207","name":"Gutenborn","type":"Kreisangehörige_Gemeinde"},"district":{"key":"15084","name":"Burgenlandkreis","type":"Landkreis"},"federalState":{"key":"15","name":"Sachsen-Anhalt"}},{"name":"Lonziger Hauptstr.","postalCode":"06712","locality":"Gutenborn","municipality":{"key":"15084207","name":"Gutenborn","type":"Kreisangehörige_Gemeinde"},"district":{"key":"15084","name":"Burgenlandkreis","type":"Landkreis"},"federalState":{"key":"15","name":"Sachsen-Anhalt"}},{"name":"Märzenbecherweg","postalCode":"06712","locality":"Gutenborn","municipality":{"key":"15084207","name":"Gutenborn","type":"Kreisangehörige_Gemeinde"},"district":{"key":"15084","name":"Burgenlandkreis","type":"Landkreis"},"federalState":{"key":"15","name":"Sachsen-Anhalt"}},{"name":"Mittelstr.","postalCode":"06712","locality":"Gutenborn","municipality":{"key":"15084207","name":"Gutenborn","type":"Kreisangehörige_Gemeinde"},"district":{"key":"15084","name":"Burgenlandkreis","type":"Landkreis"},"federalState":{"key":"15","name":"Sachsen-Anhalt"}},{"name":"Mühlenstr.","postalCode":"06712","locality":"Gutenborn","municipality":{"key":"15084207","name":"Gutenborn","type":"Kreisangehörige_Gemeinde"},"district":{"key":"15084","name":"Burgenlandkreis","type":"Landkreis"},"federalState":{"key":"15","name":"Sachsen-Anhalt"}},{"name":"Mühlweg","postalCode":"06712","locality":"Gutenborn","municipality":{"key":"15084207","name":"Gutenborn","type":"Kreisangehörige_Gemeinde"},"district":{"key":"15084","name":"Burgenlandkreis","type":"Landkreis"},"federalState":{"key":"15","name":"Sachsen-Anhalt"}},{"name":"Nedisser Weg","postalCode":"06712","locality":"Gutenborn","municipality":{"key":"15084207","name":"Gutenborn","type":"Kreisangehörige_Gemeinde"},"district":{"key":"15084","name":"Burgenlandkreis","type":"Landkreis"},"federalState":{"key":"15","name":"Sachsen-Anhalt"}},{"name":"Ossiger Str.","postalCode":"06712","locality":"Gutenborn","municipality":{"key":"15084207","name":"Gutenborn","type":"Kreisangehörige_Gemeinde"},"district":{"key":"15084","name":"Burgenlandkreis","type":"Landkreis"},"federalState":{"key":"15","name":"Sachsen-Anhalt"}},{"name":"Pölziger Str.","postalCode":"06712","locality":"Gutenborn","municipality":{"key":"15084207","name":"Gutenborn","type":"Kreisangehörige_Gemeinde"},"district":{"key":"15084","name":"Burgenlandkreis","type":"Landkreis"},"federalState":{"key":"15","name":"Sachsen-Anhalt"}},{"name":"Reihe","postalCode":"06712","locality":"Gutenborn","municipality":{"key":"15084207","name":"Gutenborn","type":"Kreisangehörige_Gemeinde"},"district":{"key":"15084","name":"Burgenlandkreis","type":"Landkreis"},"federalState":{"key":"15","name":"Sachsen-Anhalt"}},{"name":"Rippichaer Dorfstr.","postalCode":"06712","locality":"Gutenborn","municipality":{"key":"15084207","name":"Gutenborn","type":"Kreisangehörige_Gemeinde"},"district":{"key":"15084","name":"Burgenlandkreis","type":"Landkreis"},"federalState":{"key":"15","name":"Sachsen-Anhalt"}},{"name":"Röden","postalCode":"06712","locality":"Gutenborn","municipality":{"key":"15084207","name":"Gutenborn","type":"Kreisangehörige_Gemeinde"},"district":{"key":"15084","name":"Burgenlandkreis","type":"Landkreis"},"federalState":{"key":"15","name":"Sachsen-Anhalt"}},{"name":"Schmale Str.","postalCode":"06712","locality":"Gutenborn","municipality":{"key":"15084207","name":"Gutenborn","type":"Kreisangehörige_Gemeinde"},"district":{"key":"15084","name":"Burgenlandkreis","type":"Landkreis"},"federalState":{"key":"15","name":"Sachsen-Anhalt"}},{"name":"Schneidemühlenstr.","postalCode":"06712","locality":"Gutenborn","municipality":{"key":"15084207","name":"Gutenborn","type":"Kreisangehörige_Gemeinde"},"district":{"key":"15084","name":"Burgenlandkreis","type":"Landkreis"},"federalState":{"key":"15","name":"Sachsen-Anhalt"}},{"name":"Schneidergasse","postalCode":"06712","locality":"Gutenborn","municipality":{"key":"15084207","name":"Gutenborn","type":"Kreisangehörige_Gemeinde"},"district":{"key":"15084","name":"Burgenlandkreis","type":"Landkreis"},"federalState":{"key":"15","name":"Sachsen-Anhalt"}},{"name":"Schulberg","postalCode":"06712","locality":"Gutenborn","municipality":{"key":"15084207","name":"Gutenborn","type":"Kreisangehörige_Gemeinde"},"district":{"key":"15084","name":"Burgenlandkreis","type":"Landkreis"},"federalState":{"key":"15","name":"Sachsen-Anhalt"}},{"name":"Schulstr.","postalCode":"06712","locality":"Gutenborn","municipality":{"key":"15084207","name":"Gutenborn","type":"Kreisangehörige_Gemeinde"},"district":{"key":"15084","name":"Burgenlandkreis","type":"Landkreis"},"federalState":{"key":"15","name":"Sachsen-Anhalt"}},{"name":"Schulweg","postalCode":"06712","locality":"Gutenborn","municipality":{"key":"15084207","name":"Gutenborn","type":"Kreisangehörige_Gemeinde"},"district":{"key":"15084","name":"Burgenlandkreis","type":"Landkreis"},"federalState":{"key":"15","name":"Sachsen-Anhalt"}},{"name":"Siedlung","postalCode":"06712","locality":"Gutenborn","municipality":{"key":"15084207","name":"Gutenborn","type":"Kreisangehörige_Gemeinde"},"district":{"key":"15084","name":"Burgenlandkreis","type":"Landkreis"},"federalState":{"key":"15","name":"Sachsen-Anhalt"}},{"name":"Sonnenhöhe","postalCode":"06712","locality":"Gutenborn","municipality":{"key":"15084207","name":"Gutenborn","type":"Kreisangehörige_Gemeinde"},"district":{"key":"15084","name":"Burgenlandkreis","type":"Landkreis"},"federalState":{"key":"15","name":"Sachsen-Anhalt"}},{"name":"Teichweg","postalCode":"06712","locality":"Gutenborn","municipality":{"key":"15084207","name":"Gutenborn","type":"Kreisangehörige_Gemeinde"},"district":{"key":"15084","name":"Burgenlandkreis","type":"Landkreis"},"federalState":{"key":"15","name":"Sachsen-Anhalt"}},{"name":"Weg","postalCode":"06712","locality":"Gutenborn","municipality":{"key":"15084207","name":"Gutenborn","type":"Kreisangehörige_Gemeinde"},"district":{"key":"15084","name":"Burgenlandkreis","type":"Landkreis"},"federalState":{"key":"15","name":"Sachsen-Anhalt"}},{"name":"Zeitzer Str.","postalCode":"06712","locality":"Gutenborn","municipality":{"key":"15084207","name":"Gutenborn","type":"Kreisangehörige_Gemeinde"},"district":{"key":"15084","name":"Burgenlandkreis","type":"Landkreis"},"federalState":{"key":"15","name":"Sachsen-Anhalt"}},{"name":"Zetzschdorf","postalCode":"06712","locality":"Gutenborn","municipality":{"key":"15084207","name":"Gutenborn","type":"Kreisangehörige_Gemeinde"},"district":{"key":"15084","name":"Burgenlandkreis","type":"Landkreis"},"federalState":{"key":"15","name":"Sachsen-Anhalt"}},{"name":"Ziegelscheunenweg","postalCode":"06712","locality":"Gutenborn","municipality":{"key":"15084207","name":"Gutenborn","type":"Kreisangehörige_Gemeinde"},"district":{"key":"15084","name":"Burgenlandkreis","type":"Landkreis"},"federalState":{"key":"15","name":"Sachsen-Anhalt"}},]