[{"name":"Abt-Berno-Str.","postalCode":"78479","locality":"Reichenau","municipality":{"key":"08335066","name":"Reichenau","type":"Kreisangehörige_Gemeinde"},"district":{"key":"08335","name":"Konstanz","type":"Landkreis"},"federalState":{"key":"08","name":"Baden-Württemberg"}},{"name":"Abt-Hatto-Str.","postalCode":"78479","locality":"Reichenau","municipality":{"key":"08335066","name":"Reichenau","type":"Kreisangehörige_Gemeinde"},"district":{"key":"08335","name":"Konstanz","type":"Landkreis"},"federalState":{"key":"08","name":"Baden-Württemberg"}},{"name":"Adalbertstr.","postalCode":"78479","locality":"Reichenau","municipality":{"key":"08335066","name":"Reichenau","type":"Kreisangehörige_Gemeinde"},"district":{"key":"08335","name":"Konstanz","type":"Landkreis"},"federalState":{"key":"08","name":"Baden-Württemberg"}},{"name":"Allenwinden","postalCode":"78479","locality":"Reichenau","municipality":{"key":"08335066","name":"Reichenau","type":"Kreisangehörige_Gemeinde"},"district":{"key":"08335","name":"Konstanz","type":"Landkreis"},"federalState":{"key":"08","name":"Baden-Württemberg"}},{"name":"Alm","postalCode":"94089","locality":"Neureichenau","municipality":{"key":"09272136","name":"Neureichenau","type":"Kreisangehörige_Gemeinde"},"district":{"key":"09272","name":"Freyung-Grafenau","type":"Landkreis"},"federalState":{"key":"09","name":"Bayern"}},{"name":"Alte Dippoldiswalder Str.","postalCode":"01762","locality":"Hartmannsdorf-Reichenau","municipality":{"key":"14628150","name":"Hartmannsdorf-Reichenau","type":"Kreisangehörige_Gemeinde"},"district":{"key":"14628","name":"Sächsische Schweiz-Osterzgebirge","type":"Landkreis"},"federalState":{"key":"14","name":"Sachsen"}},{"name":"Alte Poststr.","postalCode":"01762","locality":"Hartmannsdorf-Reichenau","municipality":{"key":"14628150","name":"Hartmannsdorf-Reichenau","type":"Kreisangehörige_Gemeinde"},"district":{"key":"14628","name":"Sächsische Schweiz-Osterzgebirge","type":"Landkreis"},"federalState":{"key":"14","name":"Sachsen"}},{"name":"Alte Weberei","postalCode":"78479","locality":"Reichenau","municipality":{"key":"08335066","name":"Reichenau","type":"Kreisangehörige_Gemeinde"},"district":{"key":"08335","name":"Konstanz","type":"Landkreis"},"federalState":{"key":"08","name":"Baden-Württemberg"}},{"name":"Am Dachsberg","postalCode":"78479","locality":"Reichenau","municipality":{"key":"08335066","name":"Reichenau","type":"Kreisangehörige_Gemeinde"},"district":{"key":"08335","name":"Konstanz","type":"Landkreis"},"federalState":{"key":"08","name":"Baden-Württemberg"}},{"name":"Am Herrlebühl","postalCode":"78479","locality":"Reichenau","municipality":{"key":"08335066","name":"Reichenau","type":"Kreisangehörige_Gemeinde"},"district":{"key":"08335","name":"Konstanz","type":"Landkreis"},"federalState":{"key":"08","name":"Baden-Württemberg"}},{"name":"Am Kindergarten","postalCode":"01762","locality":"Hartmannsdorf-Reichenau","municipality":{"key":"14628150","name":"Hartmannsdorf-Reichenau","type":"Kreisangehörige_Gemeinde"},"district":{"key":"14628","name":"Sächsische Schweiz-Osterzgebirge","type":"Landkreis"},"federalState":{"key":"14","name":"Sachsen"}},{"name":"Am Liegbach","postalCode":"94089","locality":"Neureichenau","municipality":{"key":"09272136","name":"Neureichenau","type":"Kreisangehörige_Gemeinde"},"district":{"key":"09272","name":"Freyung-Grafenau","type":"Landkreis"},"federalState":{"key":"09","name":"Bayern"}},{"name":"Am Mixtenhölzle","postalCode":"78479","locality":"Reichenau","municipality":{"key":"08335066","name":"Reichenau","type":"Kreisangehörige_Gemeinde"},"district":{"key":"08335","name":"Konstanz","type":"Landkreis"},"federalState":{"key":"08","name":"Baden-Württemberg"}},{"name":"Am Pfaffenmoos","postalCode":"78479","locality":"Reichenau","municipality":{"key":"08335066","name":"Reichenau","type":"Kreisangehörige_Gemeinde"},"district":{"key":"08335","name":"Konstanz","type":"Landkreis"},"federalState":{"key":"08","name":"Baden-Württemberg"}},{"name":"Amtssteig","postalCode":"01762","locality":"Hartmannsdorf-Reichenau","municipality":{"key":"14628150","name":"Hartmannsdorf-Reichenau","type":"Kreisangehörige_Gemeinde"},"district":{"key":"14628","name":"Sächsische Schweiz-Osterzgebirge","type":"Landkreis"},"federalState":{"key":"14","name":"Sachsen"}},{"name":"Am Vögelisberg","postalCode":"78479","locality":"Reichenau","municipality":{"key":"08335066","name":"Reichenau","type":"Kreisangehörige_Gemeinde"},"district":{"key":"08335","name":"Konstanz","type":"Landkreis"},"federalState":{"key":"08","name":"Baden-Württemberg"}},{"name":"Am Wollmatinger Ried","postalCode":"78479","locality":"Reichenau","municipality":{"key":"08335066","name":"Reichenau","type":"Kreisangehörige_Gemeinde"},"district":{"key":"08335","name":"Konstanz","type":"Landkreis"},"federalState":{"key":"08","name":"Baden-Württemberg"}},{"name":"An der Schiffslände","postalCode":"78479","locality":"Reichenau","municipality":{"key":"08335066","name":"Reichenau","type":"Kreisangehörige_Gemeinde"},"district":{"key":"08335","name":"Konstanz","type":"Landkreis"},"federalState":{"key":"08","name":"Baden-Württemberg"}},{"name":"Arenenbergweg","postalCode":"78479","locality":"Reichenau","municipality":{"key":"08335066","name":"Reichenau","type":"Kreisangehörige_Gemeinde"},"district":{"key":"08335","name":"Konstanz","type":"Landkreis"},"federalState":{"key":"08","name":"Baden-Württemberg"}},{"name":"Auf der Haide","postalCode":"78479","locality":"Reichenau","municipality":{"key":"08335066","name":"Reichenau","type":"Kreisangehörige_Gemeinde"},"district":{"key":"08335","name":"Konstanz","type":"Landkreis"},"federalState":{"key":"08","name":"Baden-Württemberg"}},{"name":"Bahnhofstr.","postalCode":"94089","locality":"Neureichenau","municipality":{"key":"09272136","name":"Neureichenau","type":"Kreisangehörige_Gemeinde"},"district":{"key":"09272","name":"Freyung-Grafenau","type":"Landkreis"},"federalState":{"key":"09","name":"Bayern"}},{"name":"Berggässle","postalCode":"78479","locality":"Reichenau","municipality":{"key":"08335066","name":"Reichenau","type":"Kreisangehörige_Gemeinde"},"district":{"key":"08335","name":"Konstanz","type":"Landkreis"},"federalState":{"key":"08","name":"Baden-Württemberg"}},{"name":"Binderberg","postalCode":"94089","locality":"Neureichenau","municipality":{"key":"09272136","name":"Neureichenau","type":"Kreisangehörige_Gemeinde"},"district":{"key":"09272","name":"Freyung-Grafenau","type":"Landkreis"},"federalState":{"key":"09","name":"Bayern"}},{"name":"Birkenweg","postalCode":"78479","locality":"Reichenau","municipality":{"key":"08335066","name":"Reichenau","type":"Kreisangehörige_Gemeinde"},"district":{"key":"08335","name":"Konstanz","type":"Landkreis"},"federalState":{"key":"08","name":"Baden-Württemberg"}},{"name":"Bradlengasse","postalCode":"78479","locality":"Reichenau","municipality":{"key":"08335066","name":"Reichenau","type":"Kreisangehörige_Gemeinde"},"district":{"key":"08335","name":"Konstanz","type":"Landkreis"},"federalState":{"key":"08","name":"Baden-Württemberg"}},{"name":"Branntweinhäuser","postalCode":"94089","locality":"Neureichenau","municipality":{"key":"09272136","name":"Neureichenau","type":"Kreisangehörige_Gemeinde"},"district":{"key":"09272","name":"Freyung-Grafenau","type":"Landkreis"},"federalState":{"key":"09","name":"Bayern"}},{"name":"Buchbrünnleweg","postalCode":"78479","locality":"Reichenau","municipality":{"key":"08335066","name":"Reichenau","type":"Kreisangehörige_Gemeinde"},"district":{"key":"08335","name":"Konstanz","type":"Landkreis"},"federalState":{"key":"08","name":"Baden-Württemberg"}},{"name":"Burgstr.","postalCode":"78479","locality":"Reichenau","municipality":{"key":"08335066","name":"Reichenau","type":"Kreisangehörige_Gemeinde"},"district":{"key":"08335","name":"Konstanz","type":"Landkreis"},"federalState":{"key":"08","name":"Baden-Württemberg"}},{"name":"Carl-Benz-Str.","postalCode":"78467","locality":"Konstanz","municipality":{"key":"08335043","name":"Konstanz, Universitätsstadt","type":"Große_Kreisstadt"},"district":{"key":"08335","name":"Konstanz","type":"Landkreis"},"federalState":{"key":"08","name":"Baden-Württemberg"}},{"name":"Cherisy-Str.","postalCode":"78467","locality":"Konstanz","municipality":{"key":"08335043","name":"Konstanz, Universitätsstadt","type":"Große_Kreisstadt"},"district":{"key":"08335","name":"Konstanz","type":"Landkreis"},"federalState":{"key":"08","name":"Baden-Württemberg"}},{"name":"Christoph-Daniel-Schenck-Str.","postalCode":"78464","locality":"Konstanz","municipality":{"key":"08335043","name":"Konstanz, Universitätsstadt","type":"Große_Kreisstadt"},"district":{"key":"08335","name":"Konstanz","type":"Landkreis"},"federalState":{"key":"08","name":"Baden-Württemberg"}},{"name":"Clara-Schumann-Str.","postalCode":"78464","locality":"Konstanz","municipality":{"key":"08335043","name":"Konstanz, Universitätsstadt","type":"Große_Kreisstadt"},"district":{"key":"08335","name":"Konstanz","type":"Landkreis"},"federalState":{"key":"08","name":"Baden-Württemberg"}},{"name":"Claude-Dornier-Str.","postalCode":"78467","locality":"Konstanz","municipality":{"key":"08335043","name":"Konstanz, Universitätsstadt","type":"Große_Kreisstadt"},"district":{"key":"08335","name":"Konstanz","type":"Landkreis"},"federalState":{"key":"08","name":"Baden-Württemberg"}},{"name":"Conrad-Gröber-Str.","postalCode":"78464","locality":"Konstanz","municipality":{"key":"08335043","name":"Konstanz, Universitätsstadt","type":"Große_Kreisstadt"},"district":{"key":"08335","name":"Konstanz","type":"Landkreis"},"federalState":{"key":"08","name":"Baden-Württemberg"}},{"name":"Conradin-Kreutzer-Str.","postalCode":"78467","locality":"Konstanz","municipality":{"key":"08335043","name":"Konstanz, Universitätsstadt","type":"Große_Kreisstadt"},"district":{"key":"08335","name":"Konstanz","type":"Landkreis"},"federalState":{"key":"08","name":"Baden-Württemberg"}},{"name":"Dorfplatz","postalCode":"94089","locality":"Neureichenau","municipality":{"key":"09272136","name":"Neureichenau","type":"Kreisangehörige_Gemeinde"},"district":{"key":"09272","name":"Freyung-Grafenau","type":"Landkreis"},"federalState":{"key":"09","name":"Bayern"}},{"name":"Dorfstr.","postalCode":"94089","locality":"Neureichenau","municipality":{"key":"09272136","name":"Neureichenau","type":"Kreisangehörige_Gemeinde"},"district":{"key":"09272","name":"Freyung-Grafenau","type":"Landkreis"},"federalState":{"key":"09","name":"Bayern"}},{"name":"Dreisesselstr.","postalCode":"94089","locality":"Neureichenau","municipality":{"key":"09272136","name":"Neureichenau","type":"Kreisangehörige_Gemeinde"},"district":{"key":"09272","name":"Freyung-Grafenau","type":"Landkreis"},"federalState":{"key":"09","name":"Bayern"}},{"name":"Dr.-Karl-Flesch-Str.","postalCode":"78479","locality":"Reichenau","municipality":{"key":"08335066","name":"Reichenau","type":"Kreisangehörige_Gemeinde"},"district":{"key":"08335","name":"Konstanz","type":"Landkreis"},"federalState":{"key":"08","name":"Baden-Württemberg"}},{"name":"Eginostr.","postalCode":"78479","locality":"Reichenau","municipality":{"key":"08335066","name":"Reichenau","type":"Kreisangehörige_Gemeinde"},"district":{"key":"08335","name":"Konstanz","type":"Landkreis"},"federalState":{"key":"08","name":"Baden-Württemberg"}},{"name":"Eichenweg","postalCode":"78479","locality":"Reichenau","municipality":{"key":"08335066","name":"Reichenau","type":"Kreisangehörige_Gemeinde"},"district":{"key":"08335","name":"Konstanz","type":"Landkreis"},"federalState":{"key":"08","name":"Baden-Württemberg"}},{"name":"Ergat","postalCode":"78479","locality":"Reichenau","municipality":{"key":"08335066","name":"Reichenau","type":"Kreisangehörige_Gemeinde"},"district":{"key":"08335","name":"Konstanz","type":"Landkreis"},"federalState":{"key":"08","name":"Baden-Württemberg"}},{"name":"Erlenweg","postalCode":"78479","locality":"Reichenau","municipality":{"key":"08335066","name":"Reichenau","type":"Kreisangehörige_Gemeinde"},"district":{"key":"08335","name":"Konstanz","type":"Landkreis"},"federalState":{"key":"08","name":"Baden-Württemberg"}},{"name":"Ermatinger Weg","postalCode":"78479","locality":"Reichenau","municipality":{"key":"08335066","name":"Reichenau","type":"Kreisangehörige_Gemeinde"},"district":{"key":"08335","name":"Konstanz","type":"Landkreis"},"federalState":{"key":"08","name":"Baden-Württemberg"}},{"name":"Eschenweg","postalCode":"78479","locality":"Reichenau","municipality":{"key":"08335066","name":"Reichenau","type":"Kreisangehörige_Gemeinde"},"district":{"key":"08335","name":"Konstanz","type":"Landkreis"},"federalState":{"key":"08","name":"Baden-Württemberg"}},{"name":"Fährenhorn","postalCode":"78479","locality":"Reichenau","municipality":{"key":"08335066","name":"Reichenau","type":"Kreisangehörige_Gemeinde"},"district":{"key":"08335","name":"Konstanz","type":"Landkreis"},"federalState":{"key":"08","name":"Baden-Württemberg"}},{"name":"Felchenweg","postalCode":"78479","locality":"Reichenau","municipality":{"key":"08335066","name":"Reichenau","type":"Kreisangehörige_Gemeinde"},"district":{"key":"08335","name":"Konstanz","type":"Landkreis"},"federalState":{"key":"08","name":"Baden-Württemberg"}},{"name":"Feursteinstr.","postalCode":"78479","locality":"Reichenau","municipality":{"key":"08335066","name":"Reichenau","type":"Kreisangehörige_Gemeinde"},"district":{"key":"08335","name":"Konstanz","type":"Landkreis"},"federalState":{"key":"08","name":"Baden-Württemberg"}},{"name":"Firmianstr.","postalCode":"94089","locality":"Neureichenau","municipality":{"key":"09272136","name":"Neureichenau","type":"Kreisangehörige_Gemeinde"},"district":{"key":"09272","name":"Freyung-Grafenau","type":"Landkreis"},"federalState":{"key":"09","name":"Bayern"}},{"name":"Fischergasse","postalCode":"78479","locality":"Reichenau","municipality":{"key":"08335066","name":"Reichenau","type":"Kreisangehörige_Gemeinde"},"district":{"key":"08335","name":"Konstanz","type":"Landkreis"},"federalState":{"key":"08","name":"Baden-Württemberg"}},{"name":"Fohrenbühl","postalCode":"78479","locality":"Reichenau","municipality":{"key":"08335066","name":"Reichenau","type":"Kreisangehörige_Gemeinde"},"district":{"key":"08335","name":"Konstanz","type":"Landkreis"},"federalState":{"key":"08","name":"Baden-Württemberg"}},{"name":"Forellenweg","postalCode":"78479","locality":"Reichenau","municipality":{"key":"08335066","name":"Reichenau","type":"Kreisangehörige_Gemeinde"},"district":{"key":"08335","name":"Konstanz","type":"Landkreis"},"federalState":{"key":"08","name":"Baden-Württemberg"}},{"name":"Franzlsteig","postalCode":"94089","locality":"Neureichenau","municipality":{"key":"09272136","name":"Neureichenau","type":"Kreisangehörige_Gemeinde"},"district":{"key":"09272","name":"Freyung-Grafenau","type":"Landkreis"},"federalState":{"key":"09","name":"Bayern"}},{"name":"Freiherr-von-Hundbiß-Str.","postalCode":"78479","locality":"Reichenau","municipality":{"key":"08335066","name":"Reichenau","type":"Kreisangehörige_Gemeinde"},"district":{"key":"08335","name":"Konstanz","type":"Landkreis"},"federalState":{"key":"08","name":"Baden-Württemberg"}},{"name":"Galgenacker","postalCode":"78479","locality":"Reichenau","municipality":{"key":"08335066","name":"Reichenau","type":"Kreisangehörige_Gemeinde"},"district":{"key":"08335","name":"Konstanz","type":"Landkreis"},"federalState":{"key":"08","name":"Baden-Württemberg"}},{"name":"Gallus-Oheim-Weg","postalCode":"78479","locality":"Reichenau","municipality":{"key":"08335066","name":"Reichenau","type":"Kreisangehörige_Gemeinde"},"district":{"key":"08335","name":"Konstanz","type":"Landkreis"},"federalState":{"key":"08","name":"Baden-Württemberg"}},{"name":"Gassenweg","postalCode":"94089","locality":"Neureichenau","municipality":{"key":"09272136","name":"Neureichenau","type":"Kreisangehörige_Gemeinde"},"district":{"key":"09272","name":"Freyung-Grafenau","type":"Landkreis"},"federalState":{"key":"09","name":"Bayern"}},{"name":"Gewerbestr.","postalCode":"78479","locality":"Reichenau","municipality":{"key":"08335066","name":"Reichenau","type":"Kreisangehörige_Gemeinde"},"district":{"key":"08335","name":"Konstanz","type":"Landkreis"},"federalState":{"key":"08","name":"Baden-Württemberg"}},{"name":"Gimmlitztal","postalCode":"01762","locality":"Hartmannsdorf-Reichenau","municipality":{"key":"14628150","name":"Hartmannsdorf-Reichenau","type":"Kreisangehörige_Gemeinde"},"district":{"key":"14628","name":"Sächsische Schweiz-Osterzgebirge","type":"Landkreis"},"federalState":{"key":"14","name":"Sachsen"}},{"name":"Gnadenseeweg","postalCode":"78479","locality":"Reichenau","municipality":{"key":"08335066","name":"Reichenau","type":"Kreisangehörige_Gemeinde"},"district":{"key":"08335","name":"Konstanz","type":"Landkreis"},"federalState":{"key":"08","name":"Baden-Württemberg"}},{"name":"Goldbachstr.","postalCode":"94089","locality":"Neureichenau","municipality":{"key":"09272136","name":"Neureichenau","type":"Kreisangehörige_Gemeinde"},"district":{"key":"09272","name":"Freyung-Grafenau","type":"Landkreis"},"federalState":{"key":"09","name":"Bayern"}},{"name":"Goldsteig / Themenwanderweg","postalCode":"94089","locality":"Neureichenau","municipality":{"key":"09272136","name":"Neureichenau","type":"Kreisangehörige_Gemeinde"},"district":{"key":"09272","name":"Freyung-Grafenau","type":"Landkreis"},"federalState":{"key":"09","name":"Bayern"}},{"name":"Göttlzug","postalCode":"94089","locality":"Neureichenau","municipality":{"key":"09272136","name":"Neureichenau","type":"Kreisangehörige_Gemeinde"},"district":{"key":"09272","name":"Freyung-Grafenau","type":"Landkreis"},"federalState":{"key":"09","name":"Bayern"}},{"name":"Häfelishofstr.","postalCode":"78479","locality":"Reichenau","municipality":{"key":"08335066","name":"Reichenau","type":"Kreisangehörige_Gemeinde"},"district":{"key":"08335","name":"Konstanz","type":"Landkreis"},"federalState":{"key":"08","name":"Baden-Württemberg"}},{"name":"Haitostr.","postalCode":"78479","locality":"Reichenau","municipality":{"key":"08335066","name":"Reichenau","type":"Kreisangehörige_Gemeinde"},"district":{"key":"08335","name":"Konstanz","type":"Landkreis"},"federalState":{"key":"08","name":"Baden-Württemberg"}},{"name":"Hängerstufenweg","postalCode":"94089","locality":"Neureichenau","municipality":{"key":"09272136","name":"Neureichenau","type":"Kreisangehörige_Gemeinde"},"district":{"key":"09272","name":"Freyung-Grafenau","type":"Landkreis"},"federalState":{"key":"09","name":"Bayern"}},{"name":"Hasenhof","postalCode":"78479","locality":"Reichenau","municipality":{"key":"08335066","name":"Reichenau","type":"Kreisangehörige_Gemeinde"},"district":{"key":"08335","name":"Konstanz","type":"Landkreis"},"federalState":{"key":"08","name":"Baden-Württemberg"}},{"name":"Hauerwiese","postalCode":"94089","locality":"Neureichenau","municipality":{"key":"09272136","name":"Neureichenau","type":"Kreisangehörige_Gemeinde"},"district":{"key":"09272","name":"Freyung-Grafenau","type":"Landkreis"},"federalState":{"key":"09","name":"Bayern"}},{"name":"Hauptstr.","postalCode":"01762","locality":"Hartmannsdorf-Reichenau","municipality":{"key":"14628150","name":"Hartmannsdorf-Reichenau","type":"Kreisangehörige_Gemeinde"},"district":{"key":"14628","name":"Sächsische Schweiz-Osterzgebirge","type":"Landkreis"},"federalState":{"key":"14","name":"Sachsen"}},{"name":"Hauptstr.","postalCode":"94089","locality":"Neureichenau","municipality":{"key":"09272136","name":"Neureichenau","type":"Kreisangehörige_Gemeinde"},"district":{"key":"09272","name":"Freyung-Grafenau","type":"Landkreis"},"federalState":{"key":"09","name":"Bayern"}},{"name":"Hechtweg","postalCode":"78479","locality":"Reichenau","municipality":{"key":"08335066","name":"Reichenau","type":"Kreisangehörige_Gemeinde"},"district":{"key":"08335","name":"Konstanz","type":"Landkreis"},"federalState":{"key":"08","name":"Baden-Württemberg"}},{"name":"Hegaublick","postalCode":"78479","locality":"Reichenau","municipality":{"key":"08335066","name":"Reichenau","type":"Kreisangehörige_Gemeinde"},"district":{"key":"08335","name":"Konstanz","type":"Landkreis"},"federalState":{"key":"08","name":"Baden-Württemberg"}},{"name":"Hennersdorfer Str.","postalCode":"01762","locality":"Hartmannsdorf-Reichenau","municipality":{"key":"14628150","name":"Hartmannsdorf-Reichenau","type":"Kreisangehörige_Gemeinde"},"district":{"key":"14628","name":"Sächsische Schweiz-Osterzgebirge","type":"Landkreis"},"federalState":{"key":"14","name":"Sachsen"}},{"name":"Hermannus-Contractus-Str.","postalCode":"78479","locality":"Reichenau","municipality":{"key":"08335066","name":"Reichenau","type":"Kreisangehörige_Gemeinde"},"district":{"key":"08335","name":"Konstanz","type":"Landkreis"},"federalState":{"key":"08","name":"Baden-Württemberg"}},{"name":"Hinterfreundorf","postalCode":"94089","locality":"Neureichenau","municipality":{"key":"09272136","name":"Neureichenau","type":"Kreisangehörige_Gemeinde"},"district":{"key":"09272","name":"Freyung-Grafenau","type":"Landkreis"},"federalState":{"key":"09","name":"Bayern"}},{"name":"Hirschengasse","postalCode":"78479","locality":"Reichenau","municipality":{"key":"08335066","name":"Reichenau","type":"Kreisangehörige_Gemeinde"},"district":{"key":"08335","name":"Konstanz","type":"Landkreis"},"federalState":{"key":"08","name":"Baden-Württemberg"}},{"name":"Hochfeld","postalCode":"94089","locality":"Neureichenau","municipality":{"key":"09272136","name":"Neureichenau","type":"Kreisangehörige_Gemeinde"},"district":{"key":"09272","name":"Freyung-Grafenau","type":"Landkreis"},"federalState":{"key":"09","name":"Bayern"}},{"name":"Hochstr.","postalCode":"94089","locality":"Neureichenau","municipality":{"key":"09272136","name":"Neureichenau","type":"Kreisangehörige_Gemeinde"},"district":{"key":"09272","name":"Freyung-Grafenau","type":"Landkreis"},"federalState":{"key":"09","name":"Bayern"}},{"name":"Hochwart","postalCode":"78479","locality":"Reichenau","municipality":{"key":"08335066","name":"Reichenau","type":"Kreisangehörige_Gemeinde"},"district":{"key":"08335","name":"Konstanz","type":"Landkreis"},"federalState":{"key":"08","name":"Baden-Württemberg"}},{"name":"Hochwartstr.","postalCode":"78479","locality":"Reichenau","municipality":{"key":"08335066","name":"Reichenau","type":"Kreisangehörige_Gemeinde"},"district":{"key":"08335","name":"Konstanz","type":"Landkreis"},"federalState":{"key":"08","name":"Baden-Württemberg"}},{"name":"Höriweg","postalCode":"78479","locality":"Reichenau","municipality":{"key":"08335066","name":"Reichenau","type":"Kreisangehörige_Gemeinde"},"district":{"key":"08335","name":"Konstanz","type":"Landkreis"},"federalState":{"key":"08","name":"Baden-Württemberg"}},{"name":"Illenauweg","postalCode":"78479","locality":"Reichenau","municipality":{"key":"08335066","name":"Reichenau","type":"Kreisangehörige_Gemeinde"},"district":{"key":"08335","name":"Konstanz","type":"Landkreis"},"federalState":{"key":"08","name":"Baden-Württemberg"}},{"name":"Im Estlikofer","postalCode":"78479","locality":"Reichenau","municipality":{"key":"08335066","name":"Reichenau","type":"Kreisangehörige_Gemeinde"},"district":{"key":"08335","name":"Konstanz","type":"Landkreis"},"federalState":{"key":"08","name":"Baden-Württemberg"}},{"name":"Im Genslehorn","postalCode":"78479","locality":"Reichenau","municipality":{"key":"08335066","name":"Reichenau","type":"Kreisangehörige_Gemeinde"},"district":{"key":"08335","name":"Konstanz","type":"Landkreis"},"federalState":{"key":"08","name":"Baden-Württemberg"}},{"name":"Im Hörnle","postalCode":"78479","locality":"Reichenau","municipality":{"key":"08335066","name":"Reichenau","type":"Kreisangehörige_Gemeinde"},"district":{"key":"08335","name":"Konstanz","type":"Landkreis"},"federalState":{"key":"08","name":"Baden-Württemberg"}},{"name":"Im Palmenetter","postalCode":"78479","locality":"Reichenau","municipality":{"key":"08335066","name":"Reichenau","type":"Kreisangehörige_Gemeinde"},"district":{"key":"08335","name":"Konstanz","type":"Landkreis"},"federalState":{"key":"08","name":"Baden-Württemberg"}},{"name":"Im Rasthof","postalCode":"78479","locality":"Reichenau","municipality":{"key":"08335066","name":"Reichenau","type":"Kreisangehörige_Gemeinde"},"district":{"key":"08335","name":"Konstanz","type":"Landkreis"},"federalState":{"key":"08","name":"Baden-Württemberg"}},{"name":"Im Spitz","postalCode":"78479","locality":"Reichenau","municipality":{"key":"08335066","name":"Reichenau","type":"Kreisangehörige_Gemeinde"},"district":{"key":"08335","name":"Konstanz","type":"Landkreis"},"federalState":{"key":"08","name":"Baden-Württemberg"}},{"name":"Im St. Gotthard","postalCode":"78479","locality":"Reichenau","municipality":{"key":"08335066","name":"Reichenau","type":"Kreisangehörige_Gemeinde"},"district":{"key":"08335","name":"Konstanz","type":"Landkreis"},"federalState":{"key":"08","name":"Baden-Württemberg"}},{"name":"Im Streichen","postalCode":"78479","locality":"Reichenau","municipality":{"key":"08335066","name":"Reichenau","type":"Kreisangehörige_Gemeinde"},"district":{"key":"08335","name":"Konstanz","type":"Landkreis"},"federalState":{"key":"08","name":"Baden-Württemberg"}},{"name":"Im Weiler","postalCode":"78479","locality":"Reichenau","municipality":{"key":"08335066","name":"Reichenau","type":"Kreisangehörige_Gemeinde"},"district":{"key":"08335","name":"Konstanz","type":"Landkreis"},"federalState":{"key":"08","name":"Baden-Württemberg"}},{"name":"Im Winkel","postalCode":"78479","locality":"Reichenau","municipality":{"key":"08335066","name":"Reichenau","type":"Kreisangehörige_Gemeinde"},"district":{"key":"08335","name":"Konstanz","type":"Landkreis"},"federalState":{"key":"08","name":"Baden-Württemberg"}},{"name":"In der Abtswiese","postalCode":"78479","locality":"Reichenau","municipality":{"key":"08335066","name":"Reichenau","type":"Kreisangehörige_Gemeinde"},"district":{"key":"08335","name":"Konstanz","type":"Landkreis"},"federalState":{"key":"08","name":"Baden-Württemberg"}},{"name":"Inselblick","postalCode":"78479","locality":"Reichenau","municipality":{"key":"08335066","name":"Reichenau","type":"Kreisangehörige_Gemeinde"},"district":{"key":"08335","name":"Konstanz","type":"Landkreis"},"federalState":{"key":"08","name":"Baden-Württemberg"}},{"name":"Jandelsbrunner Str.","postalCode":"94089","locality":"Neureichenau","municipality":{"key":"09272136","name":"Neureichenau","type":"Kreisangehörige_Gemeinde"},"district":{"key":"09272","name":"Freyung-Grafenau","type":"Landkreis"},"federalState":{"key":"09","name":"Bayern"}},{"name":"Kammweg","postalCode":"01762","locality":"Hartmannsdorf-Reichenau","municipality":{"key":"14628150","name":"Hartmannsdorf-Reichenau","type":"Kreisangehörige_Gemeinde"},"district":{"key":"14628","name":"Sächsische Schweiz-Osterzgebirge","type":"Landkreis"},"federalState":{"key":"14","name":"Sachsen"}},{"name":"Kapellenstr.","postalCode":"94089","locality":"Neureichenau","municipality":{"key":"09272136","name":"Neureichenau","type":"Kreisangehörige_Gemeinde"},"district":{"key":"09272","name":"Freyung-Grafenau","type":"Landkreis"},"federalState":{"key":"09","name":"Bayern"}},{"name":"Karl-Beck-Str.","postalCode":"78479","locality":"Reichenau","municipality":{"key":"08335066","name":"Reichenau","type":"Kreisangehörige_Gemeinde"},"district":{"key":"08335","name":"Konstanz","type":"Landkreis"},"federalState":{"key":"08","name":"Baden-Württemberg"}},{"name":"Kindlebildkreisel","postalCode":"78479","locality":"Reichenau","municipality":{"key":"08335066","name":"Reichenau","type":"Kreisangehörige_Gemeinde"},"district":{"key":"08335","name":"Konstanz","type":"Landkreis"},"federalState":{"key":"08","name":"Baden-Württemberg"}},{"name":"Kindlebildstr.","postalCode":"78479","locality":"Reichenau","municipality":{"key":"08335066","name":"Reichenau","type":"Kreisangehörige_Gemeinde"},"district":{"key":"08335","name":"Konstanz","type":"Landkreis"},"federalState":{"key":"08","name":"Baden-Württemberg"}},{"name":"Kirchweg","postalCode":"01762","locality":"Hartmannsdorf-Reichenau","municipality":{"key":"14628150","name":"Hartmannsdorf-Reichenau","type":"Kreisangehörige_Gemeinde"},"district":{"key":"14628","name":"Sächsische Schweiz-Osterzgebirge","type":"Landkreis"},"federalState":{"key":"14","name":"Sachsen"}},{"name":"Klafferstraß","postalCode":"94089","locality":"Neureichenau","municipality":{"key":"09272136","name":"Neureichenau","type":"Kreisangehörige_Gemeinde"},"district":{"key":"09272","name":"Freyung-Grafenau","type":"Landkreis"},"federalState":{"key":"09","name":"Bayern"}},{"name":"Klausenweg","postalCode":"94089","locality":"Neureichenau","municipality":{"key":"09272136","name":"Neureichenau","type":"Kreisangehörige_Gemeinde"},"district":{"key":"09272","name":"Freyung-Grafenau","type":"Landkreis"},"federalState":{"key":"09","name":"Bayern"}},{"name":"Königsegg","postalCode":"78479","locality":"Reichenau","municipality":{"key":"08335066","name":"Reichenau","type":"Kreisangehörige_Gemeinde"},"district":{"key":"08335","name":"Konstanz","type":"Landkreis"},"federalState":{"key":"08","name":"Baden-Württemberg"}},{"name":"Konrad-Weichelt-Wanderweg","postalCode":"01762","locality":"Hartmannsdorf-Reichenau","municipality":{"key":"14628150","name":"Hartmannsdorf-Reichenau","type":"Kreisangehörige_Gemeinde"},"district":{"key":"14628","name":"Sächsische Schweiz-Osterzgebirge","type":"Landkreis"},"federalState":{"key":"14","name":"Sachsen"}},{"name":"Kornblumenweg","postalCode":"78479","locality":"Reichenau","municipality":{"key":"08335066","name":"Reichenau","type":"Kreisangehörige_Gemeinde"},"district":{"key":"08335","name":"Konstanz","type":"Landkreis"},"federalState":{"key":"08","name":"Baden-Württemberg"}},{"name":"Kretzerweg","postalCode":"78479","locality":"Reichenau","municipality":{"key":"08335066","name":"Reichenau","type":"Kreisangehörige_Gemeinde"},"district":{"key":"08335","name":"Konstanz","type":"Landkreis"},"federalState":{"key":"08","name":"Baden-Württemberg"}},{"name":"Lackenhäuser","postalCode":"94089","locality":"Neureichenau","municipality":{"key":"09272136","name":"Neureichenau","type":"Kreisangehörige_Gemeinde"},"district":{"key":"09272","name":"Freyung-Grafenau","type":"Landkreis"},"federalState":{"key":"09","name":"Bayern"}},{"name":"Landgasse","postalCode":"78479","locality":"Reichenau","municipality":{"key":"08335066","name":"Reichenau","type":"Kreisangehörige_Gemeinde"},"district":{"key":"08335","name":"Konstanz","type":"Landkreis"},"federalState":{"key":"08","name":"Baden-Württemberg"}},{"name":"Langbruck","postalCode":"94089","locality":"Neureichenau","municipality":{"key":"09272136","name":"Neureichenau","type":"Kreisangehörige_Gemeinde"},"district":{"key":"09272","name":"Freyung-Grafenau","type":"Landkreis"},"federalState":{"key":"09","name":"Bayern"}},{"name":"Leopold-Oster-Weg","postalCode":"78479","locality":"Reichenau","municipality":{"key":"08335066","name":"Reichenau","type":"Kreisangehörige_Gemeinde"},"district":{"key":"08335","name":"Konstanz","type":"Landkreis"},"federalState":{"key":"08","name":"Baden-Württemberg"}},{"name":"Lilly-Braumann-Honsell-Weg","postalCode":"78479","locality":"Reichenau","municipality":{"key":"08335066","name":"Reichenau","type":"Kreisangehörige_Gemeinde"},"district":{"key":"08335","name":"Konstanz","type":"Landkreis"},"federalState":{"key":"08","name":"Baden-Württemberg"}},{"name":"Lindenallee","postalCode":"78479","locality":"Reichenau","municipality":{"key":"08335066","name":"Reichenau","type":"Kreisangehörige_Gemeinde"},"district":{"key":"08335","name":"Konstanz","type":"Landkreis"},"federalState":{"key":"08","name":"Baden-Württemberg"}},{"name":"Markusstr.","postalCode":"78479","locality":"Reichenau","municipality":{"key":"08335066","name":"Reichenau","type":"Kreisangehörige_Gemeinde"},"district":{"key":"08335","name":"Konstanz","type":"Landkreis"},"federalState":{"key":"08","name":"Baden-Württemberg"}},{"name":"Maurershorn","postalCode":"78479","locality":"Reichenau","municipality":{"key":"08335066","name":"Reichenau","type":"Kreisangehörige_Gemeinde"},"district":{"key":"08335","name":"Konstanz","type":"Landkreis"},"federalState":{"key":"08","name":"Baden-Württemberg"}},{"name":"Maximilian-Thumm-Weg","postalCode":"78479","locality":"Reichenau","municipality":{"key":"08335066","name":"Reichenau","type":"Kreisangehörige_Gemeinde"},"district":{"key":"08335","name":"Konstanz","type":"Landkreis"},"federalState":{"key":"08","name":"Baden-Württemberg"}},{"name":"Meinradstr.","postalCode":"78479","locality":"Reichenau","municipality":{"key":"08335066","name":"Reichenau","type":"Kreisangehörige_Gemeinde"},"district":{"key":"08335","name":"Konstanz","type":"Landkreis"},"federalState":{"key":"08","name":"Baden-Württemberg"}},{"name":"Melcherleshorn","postalCode":"78479","locality":"Reichenau","municipality":{"key":"08335066","name":"Reichenau","type":"Kreisangehörige_Gemeinde"},"district":{"key":"08335","name":"Konstanz","type":"Landkreis"},"federalState":{"key":"08","name":"Baden-Württemberg"}},{"name":"Merzengasse","postalCode":"78479","locality":"Reichenau","municipality":{"key":"08335066","name":"Reichenau","type":"Kreisangehörige_Gemeinde"},"district":{"key":"08335","name":"Konstanz","type":"Landkreis"},"federalState":{"key":"08","name":"Baden-Württemberg"}},{"name":"Mittelzeller Str.","postalCode":"78479","locality":"Reichenau","municipality":{"key":"08335066","name":"Reichenau","type":"Kreisangehörige_Gemeinde"},"district":{"key":"08335","name":"Konstanz","type":"Landkreis"},"federalState":{"key":"08","name":"Baden-Württemberg"}},{"name":"Moosweg","postalCode":"78479","locality":"Reichenau","municipality":{"key":"08335066","name":"Reichenau","type":"Kreisangehörige_Gemeinde"},"district":{"key":"08335","name":"Konstanz","type":"Landkreis"},"federalState":{"key":"08","name":"Baden-Württemberg"}},{"name":"Mühlberg","postalCode":"94089","locality":"Neureichenau","municipality":{"key":"09272136","name":"Neureichenau","type":"Kreisangehörige_Gemeinde"},"district":{"key":"09272","name":"Freyung-Grafenau","type":"Landkreis"},"federalState":{"key":"09","name":"Bayern"}},{"name":"Niederzeller Str.","postalCode":"78479","locality":"Reichenau","municipality":{"key":"08335066","name":"Reichenau","type":"Kreisangehörige_Gemeinde"},"district":{"key":"08335","name":"Konstanz","type":"Landkreis"},"federalState":{"key":"08","name":"Baden-Württemberg"}},{"name":"Obere Dorfstr.","postalCode":"01762","locality":"Hartmannsdorf-Reichenau","municipality":{"key":"14628150","name":"Hartmannsdorf-Reichenau","type":"Kreisangehörige_Gemeinde"},"district":{"key":"14628","name":"Sächsische Schweiz-Osterzgebirge","type":"Landkreis"},"federalState":{"key":"14","name":"Sachsen"}},{"name":"Obere Ergat","postalCode":"78479","locality":"Reichenau","municipality":{"key":"08335066","name":"Reichenau","type":"Kreisangehörige_Gemeinde"},"district":{"key":"08335","name":"Konstanz","type":"Landkreis"},"federalState":{"key":"08","name":"Baden-Württemberg"}},{"name":"Obere Rheinstr.","postalCode":"78479","locality":"Reichenau","municipality":{"key":"08335066","name":"Reichenau","type":"Kreisangehörige_Gemeinde"},"district":{"key":"08335","name":"Konstanz","type":"Landkreis"},"federalState":{"key":"08","name":"Baden-Württemberg"}},{"name":"Oberzeller Str.","postalCode":"78479","locality":"Reichenau","municipality":{"key":"08335066","name":"Reichenau","type":"Kreisangehörige_Gemeinde"},"district":{"key":"08335","name":"Konstanz","type":"Landkreis"},"federalState":{"key":"08","name":"Baden-Württemberg"}},{"name":"Pirminstr.","postalCode":"78479","locality":"Reichenau","municipality":{"key":"08335066","name":"Reichenau","type":"Kreisangehörige_Gemeinde"},"district":{"key":"08335","name":"Konstanz","type":"Landkreis"},"federalState":{"key":"08","name":"Baden-Württemberg"}},{"name":"Poststeig","postalCode":"01762","locality":"Hartmannsdorf-Reichenau","municipality":{"key":"14628150","name":"Hartmannsdorf-Reichenau","type":"Kreisangehörige_Gemeinde"},"district":{"key":"14628","name":"Sächsische Schweiz-Osterzgebirge","type":"Landkreis"},"federalState":{"key":"14","name":"Sachsen"}},{"name":"Rauhofweg","postalCode":"78479","locality":"Reichenau","municipality":{"key":"08335066","name":"Reichenau","type":"Kreisangehörige_Gemeinde"},"district":{"key":"08335","name":"Konstanz","type":"Landkreis"},"federalState":{"key":"08","name":"Baden-Württemberg"}},{"name":"Reichenauer Str.","postalCode":"94089","locality":"Neureichenau","municipality":{"key":"09272136","name":"Neureichenau","type":"Kreisangehörige_Gemeinde"},"district":{"key":"09272","name":"Freyung-Grafenau","type":"Landkreis"},"federalState":{"key":"09","name":"Bayern"}},{"name":"Reitsteig","postalCode":"01762","locality":"Hartmannsdorf-Reichenau","municipality":{"key":"14628150","name":"Hartmannsdorf-Reichenau","type":"Kreisangehörige_Gemeinde"},"district":{"key":"14628","name":"Sächsische Schweiz-Osterzgebirge","type":"Landkreis"},"federalState":{"key":"14","name":"Sachsen"}},{"name":"Reutegasse","postalCode":"78479","locality":"Reichenau","municipality":{"key":"08335066","name":"Reichenau","type":"Kreisangehörige_Gemeinde"},"district":{"key":"08335","name":"Konstanz","type":"Landkreis"},"federalState":{"key":"08","name":"Baden-Württemberg"}},{"name":"Riedelsbach","postalCode":"94089","locality":"Neureichenau","municipality":{"key":"09272136","name":"Neureichenau","type":"Kreisangehörige_Gemeinde"},"district":{"key":"09272","name":"Freyung-Grafenau","type":"Landkreis"},"federalState":{"key":"09","name":"Bayern"}},{"name":"Riedstr.","postalCode":"78479","locality":"Reichenau","municipality":{"key":"08335066","name":"Reichenau","type":"Kreisangehörige_Gemeinde"},"district":{"key":"08335","name":"Konstanz","type":"Landkreis"},"federalState":{"key":"08","name":"Baden-Württemberg"}},{"name":"Rosendornweg","postalCode":"78479","locality":"Reichenau","municipality":{"key":"08335066","name":"Reichenau","type":"Kreisangehörige_Gemeinde"},"district":{"key":"08335","name":"Konstanz","type":"Landkreis"},"federalState":{"key":"08","name":"Baden-Württemberg"}},{"name":"Röthenbacher Str.","postalCode":"01762","locality":"Hartmannsdorf-Reichenau","municipality":{"key":"14628150","name":"Hartmannsdorf-Reichenau","type":"Kreisangehörige_Gemeinde"},"district":{"key":"14628","name":"Sächsische Schweiz-Osterzgebirge","type":"Landkreis"},"federalState":{"key":"14","name":"Sachsen"}},{"name":"Salensteinweg","postalCode":"78479","locality":"Reichenau","municipality":{"key":"08335066","name":"Reichenau","type":"Kreisangehörige_Gemeinde"},"district":{"key":"08335","name":"Konstanz","type":"Landkreis"},"federalState":{"key":"08","name":"Baden-Württemberg"}},{"name":"Salzleckenweg","postalCode":"01762","locality":"Hartmannsdorf-Reichenau","municipality":{"key":"14628150","name":"Hartmannsdorf-Reichenau","type":"Kreisangehörige_Gemeinde"},"district":{"key":"14628","name":"Sächsische Schweiz-Osterzgebirge","type":"Landkreis"},"federalState":{"key":"14","name":"Sachsen"}},{"name":"Schimmelbach","postalCode":"94089","locality":"Neureichenau","municipality":{"key":"09272136","name":"Neureichenau","type":"Kreisangehörige_Gemeinde"},"district":{"key":"09272","name":"Freyung-Grafenau","type":"Landkreis"},"federalState":{"key":"09","name":"Bayern"}},{"name":"Schloßstr.","postalCode":"78479","locality":"Reichenau","municipality":{"key":"08335066","name":"Reichenau","type":"Kreisangehörige_Gemeinde"},"district":{"key":"08335","name":"Konstanz","type":"Landkreis"},"federalState":{"key":"08","name":"Baden-Württemberg"}},{"name":"Schulstr.","postalCode":"78479","locality":"Reichenau","municipality":{"key":"08335066","name":"Reichenau","type":"Kreisangehörige_Gemeinde"},"district":{"key":"08335","name":"Konstanz","type":"Landkreis"},"federalState":{"key":"08","name":"Baden-Württemberg"}},{"name":"Schulstr.","postalCode":"94089","locality":"Neureichenau","municipality":{"key":"09272136","name":"Neureichenau","type":"Kreisangehörige_Gemeinde"},"district":{"key":"09272","name":"Freyung-Grafenau","type":"Landkreis"},"federalState":{"key":"09","name":"Bayern"}},{"name":"Schwerdt-Weg","postalCode":"01762","locality":"Hartmannsdorf-Reichenau","municipality":{"key":"14628150","name":"Hartmannsdorf-Reichenau","type":"Kreisangehörige_Gemeinde"},"district":{"key":"14628","name":"Sächsische Schweiz-Osterzgebirge","type":"Landkreis"},"federalState":{"key":"14","name":"Sachsen"}},{"name":"Schwertweg","postalCode":"01762","locality":"Hartmannsdorf-Reichenau","municipality":{"key":"14628150","name":"Hartmannsdorf-Reichenau","type":"Kreisangehörige_Gemeinde"},"district":{"key":"14628","name":"Sächsische Schweiz-Osterzgebirge","type":"Landkreis"},"federalState":{"key":"14","name":"Sachsen"}},{"name":"Schwyzerweg","postalCode":"78479","locality":"Reichenau","municipality":{"key":"08335066","name":"Reichenau","type":"Kreisangehörige_Gemeinde"},"district":{"key":"08335","name":"Konstanz","type":"Landkreis"},"federalState":{"key":"08","name":"Baden-Württemberg"}},{"name":"Seestr.","postalCode":"78479","locality":"Reichenau","municipality":{"key":"08335066","name":"Reichenau","type":"Kreisangehörige_Gemeinde"},"district":{"key":"08335","name":"Konstanz","type":"Landkreis"},"federalState":{"key":"08","name":"Baden-Württemberg"}},{"name":"Setzeweg","postalCode":"78479","locality":"Reichenau","municipality":{"key":"08335066","name":"Reichenau","type":"Kreisangehörige_Gemeinde"},"district":{"key":"08335","name":"Konstanz","type":"Landkreis"},"federalState":{"key":"08","name":"Baden-Württemberg"}},{"name":"Siebengüterweg","postalCode":"01762","locality":"Hartmannsdorf-Reichenau","municipality":{"key":"14628150","name":"Hartmannsdorf-Reichenau","type":"Kreisangehörige_Gemeinde"},"district":{"key":"14628","name":"Sächsische Schweiz-Osterzgebirge","type":"Landkreis"},"federalState":{"key":"14","name":"Sachsen"}},{"name":"Sonnenblumenweg","postalCode":"78479","locality":"Reichenau","municipality":{"key":"08335066","name":"Reichenau","type":"Kreisangehörige_Gemeinde"},"district":{"key":"08335","name":"Konstanz","type":"Landkreis"},"federalState":{"key":"08","name":"Baden-Württemberg"}},{"name":"Sonnwendberg","postalCode":"94089","locality":"Neureichenau","municipality":{"key":"09272136","name":"Neureichenau","type":"Kreisangehörige_Gemeinde"},"district":{"key":"09272","name":"Freyung-Grafenau","type":"Landkreis"},"federalState":{"key":"09","name":"Bayern"}},{"name":"Spechtweg","postalCode":"78479","locality":"Reichenau","municipality":{"key":"08335066","name":"Reichenau","type":"Kreisangehörige_Gemeinde"},"district":{"key":"08335","name":"Konstanz","type":"Landkreis"},"federalState":{"key":"08","name":"Baden-Württemberg"}},{"name":"Spiegelberg","postalCode":"78479","locality":"Reichenau","municipality":{"key":"08335066","name":"Reichenau","type":"Kreisangehörige_Gemeinde"},"district":{"key":"08335","name":"Konstanz","type":"Landkreis"},"federalState":{"key":"08","name":"Baden-Württemberg"}},{"name":"Spitzgasse","postalCode":"78479","locality":"Reichenau","municipality":{"key":"08335066","name":"Reichenau","type":"Kreisangehörige_Gemeinde"},"district":{"key":"08335","name":"Konstanz","type":"Landkreis"},"federalState":{"key":"08","name":"Baden-Württemberg"}},{"name":"Stedigasse","postalCode":"78479","locality":"Reichenau","municipality":{"key":"08335066","name":"Reichenau","type":"Kreisangehörige_Gemeinde"},"district":{"key":"08335","name":"Konstanz","type":"Landkreis"},"federalState":{"key":"08","name":"Baden-Württemberg"}},{"name":"St.-Georg-Str.","postalCode":"78479","locality":"Reichenau","municipality":{"key":"08335066","name":"Reichenau","type":"Kreisangehörige_Gemeinde"},"district":{"key":"08335","name":"Konstanz","type":"Landkreis"},"federalState":{"key":"08","name":"Baden-Württemberg"}},{"name":"Stiegelengasse","postalCode":"78479","locality":"Reichenau","municipality":{"key":"08335066","name":"Reichenau","type":"Kreisangehörige_Gemeinde"},"district":{"key":"08335","name":"Konstanz","type":"Landkreis"},"federalState":{"key":"08","name":"Baden-Württemberg"}},{"name":"Strandbadstr.","postalCode":"78479","locality":"Reichenau","municipality":{"key":"08335066","name":"Reichenau","type":"Kreisangehörige_Gemeinde"},"district":{"key":"08335","name":"Konstanz","type":"Landkreis"},"federalState":{"key":"08","name":"Baden-Württemberg"}},{"name":"Tannenweg","postalCode":"78479","locality":"Reichenau","municipality":{"key":"08335066","name":"Reichenau","type":"Kreisangehörige_Gemeinde"},"district":{"key":"08335","name":"Konstanz","type":"Landkreis"},"federalState":{"key":"08","name":"Baden-Württemberg"}},{"name":"Tellerhofweg","postalCode":"78479","locality":"Reichenau","municipality":{"key":"08335066","name":"Reichenau","type":"Kreisangehörige_Gemeinde"},"district":{"key":"08335","name":"Konstanz","type":"Landkreis"},"federalState":{"key":"08","name":"Baden-Württemberg"}},{"name":"Thurgauer Weg","postalCode":"78479","locality":"Reichenau","municipality":{"key":"08335066","name":"Reichenau","type":"Kreisangehörige_Gemeinde"},"district":{"key":"08335","name":"Konstanz","type":"Landkreis"},"federalState":{"key":"08","name":"Baden-Württemberg"}},{"name":"Tunnel Waldsiedlung","postalCode":"78479","locality":"Reichenau","municipality":{"key":"08335066","name":"Reichenau","type":"Kreisangehörige_Gemeinde"},"district":{"key":"08335","name":"Konstanz","type":"Landkreis"},"federalState":{"key":"08","name":"Baden-Württemberg"}},{"name":"Uferweg","postalCode":"78479","locality":"Reichenau","municipality":{"key":"08335066","name":"Reichenau","type":"Kreisangehörige_Gemeinde"},"district":{"key":"08335","name":"Konstanz","type":"Landkreis"},"federalState":{"key":"08","name":"Baden-Württemberg"}},{"name":"Untere Dorfstr.","postalCode":"01762","locality":"Hartmannsdorf-Reichenau","municipality":{"key":"14628150","name":"Hartmannsdorf-Reichenau","type":"Kreisangehörige_Gemeinde"},"district":{"key":"14628","name":"Sächsische Schweiz-Osterzgebirge","type":"Landkreis"},"federalState":{"key":"14","name":"Sachsen"}},{"name":"Untere Rheinstr.","postalCode":"78479","locality":"Reichenau","municipality":{"key":"08335066","name":"Reichenau","type":"Kreisangehörige_Gemeinde"},"district":{"key":"08335","name":"Konstanz","type":"Landkreis"},"federalState":{"key":"08","name":"Baden-Württemberg"}},{"name":"Unterseestr.","postalCode":"78479","locality":"Reichenau","municipality":{"key":"08335066","name":"Reichenau","type":"Kreisangehörige_Gemeinde"},"district":{"key":"08335","name":"Konstanz","type":"Landkreis"},"federalState":{"key":"08","name":"Baden-Württemberg"}},{"name":"Vorderer Hombergweg","postalCode":"78479","locality":"Reichenau","municipality":{"key":"08335066","name":"Reichenau","type":"Kreisangehörige_Gemeinde"},"district":{"key":"08335","name":"Konstanz","type":"Landkreis"},"federalState":{"key":"08","name":"Baden-Württemberg"}},{"name":"Weißeritztalstr.","postalCode":"01762","locality":"Hartmannsdorf-Reichenau","municipality":{"key":"14628150","name":"Hartmannsdorf-Reichenau","type":"Kreisangehörige_Gemeinde"},"district":{"key":"14628","name":"Sächsische Schweiz-Osterzgebirge","type":"Landkreis"},"federalState":{"key":"14","name":"Sachsen"}},{"name":"Wittigowostr.","postalCode":"78479","locality":"Reichenau","municipality":{"key":"08335066","name":"Reichenau","type":"Kreisangehörige_Gemeinde"},"district":{"key":"08335","name":"Konstanz","type":"Landkreis"},"federalState":{"key":"08","name":"Baden-Württemberg"}},{"name":"Zanderweg","postalCode":"78479","locality":"Reichenau","municipality":{"key":"08335066","name":"Reichenau","type":"Kreisangehörige_Gemeinde"},"district":{"key":"08335","name":"Konstanz","type":"Landkreis"},"federalState":{"key":"08","name":"Baden-Württemberg"}},{"name":"Zelleleweg","postalCode":"78479","locality":"Reichenau","municipality":{"key":"08335066","name":"Reichenau","type":"Kreisangehörige_Gemeinde"},"district":{"key":"08335","name":"Konstanz","type":"Landkreis"},"federalState":{"key":"08","name":"Baden-Württemberg"}},{"name":"Zum Sandseele","postalCode":"78479","locality":"Reichenau","municipality":{"key":"08335066","name":"Reichenau","type":"Kreisangehörige_Gemeinde"},"district":{"key":"08335","name":"Konstanz","type":"Landkreis"},"federalState":{"key":"08","name":"Baden-Württemberg"}},{"name":"Zum Schatthütle","postalCode":"78479","locality":"Reichenau","municipality":{"key":"08335066","name":"Reichenau","type":"Kreisangehörige_Gemeinde"},"district":{"key":"08335","name":"Konstanz","type":"Landkreis"},"federalState":{"key":"08","name":"Baden-Württemberg"}},{"name":"Zur Säge","postalCode":"78479","locality":"Reichenau","municipality":{"key":"08335066","name":"Reichenau","type":"Kreisangehörige_Gemeinde"},"district":{"key":"08335","name":"Konstanz","type":"Landkreis"},"federalState":{"key":"08","name":"Baden-Württemberg"}},{"name":"Überlinger Str.","postalCode":"78464","locality":"Konstanz","municipality":{"key":"08335043","name":"Konstanz, Universitätsstadt","type":"Große_Kreisstadt"},"district":{"key":"08335","name":"Konstanz","type":"Landkreis"},"federalState":{"key":"08","name":"Baden-Württemberg"}},]