[{"name":"Alte Str.","postalCode":"97618","locality":"Heustreu","municipality":{"key":"09673133","name":"Heustreu","type":"Kreisangehörige_Gemeinde"},"district":{"key":"09673","name":"Rhön-Grabfeld","type":"Landkreis"},"federalState":{"key":"09","name":"Bayern"}},{"name":"Am Bahnhof","postalCode":"97618","locality":"Heustreu","municipality":{"key":"09673133","name":"Heustreu","type":"Kreisangehörige_Gemeinde"},"district":{"key":"09673","name":"Rhön-Grabfeld","type":"Landkreis"},"federalState":{"key":"09","name":"Bayern"}},{"name":"Am Blendlein","postalCode":"97618","locality":"Heustreu","municipality":{"key":"09673133","name":"Heustreu","type":"Kreisangehörige_Gemeinde"},"district":{"key":"09673","name":"Rhön-Grabfeld","type":"Landkreis"},"federalState":{"key":"09","name":"Bayern"}},{"name":"Am Hohnberg","postalCode":"97618","locality":"Heustreu","municipality":{"key":"09673133","name":"Heustreu","type":"Kreisangehörige_Gemeinde"},"district":{"key":"09673","name":"Rhön-Grabfeld","type":"Landkreis"},"federalState":{"key":"09","name":"Bayern"}},{"name":"Am Michaelsberg","postalCode":"97618","locality":"Heustreu","municipality":{"key":"09673133","name":"Heustreu","type":"Kreisangehörige_Gemeinde"},"district":{"key":"09673","name":"Rhön-Grabfeld","type":"Landkreis"},"federalState":{"key":"09","name":"Bayern"}},{"name":"Am Rhönblick","postalCode":"97618","locality":"Heustreu","municipality":{"key":"09673133","name":"Heustreu","type":"Kreisangehörige_Gemeinde"},"district":{"key":"09673","name":"Rhön-Grabfeld","type":"Landkreis"},"federalState":{"key":"09","name":"Bayern"}},{"name":"Am Salzbrunnen","postalCode":"97618","locality":"Heustreu","municipality":{"key":"09673133","name":"Heustreu","type":"Kreisangehörige_Gemeinde"},"district":{"key":"09673","name":"Rhön-Grabfeld","type":"Landkreis"},"federalState":{"key":"09","name":"Bayern"}},{"name":"Am Schäferig","postalCode":"97618","locality":"Heustreu","municipality":{"key":"09673133","name":"Heustreu","type":"Kreisangehörige_Gemeinde"},"district":{"key":"09673","name":"Rhön-Grabfeld","type":"Landkreis"},"federalState":{"key":"09","name":"Bayern"}},{"name":"Am Schmalwasser","postalCode":"97618","locality":"Heustreu","municipality":{"key":"09673133","name":"Heustreu","type":"Kreisangehörige_Gemeinde"},"district":{"key":"09673","name":"Rhön-Grabfeld","type":"Landkreis"},"federalState":{"key":"09","name":"Bayern"}},{"name":"Am Tannig","postalCode":"97618","locality":"Heustreu","municipality":{"key":"09673133","name":"Heustreu","type":"Kreisangehörige_Gemeinde"},"district":{"key":"09673","name":"Rhön-Grabfeld","type":"Landkreis"},"federalState":{"key":"09","name":"Bayern"}},{"name":"Bahnweg","postalCode":"97618","locality":"Heustreu","municipality":{"key":"09673133","name":"Heustreu","type":"Kreisangehörige_Gemeinde"},"district":{"key":"09673","name":"Rhön-Grabfeld","type":"Landkreis"},"federalState":{"key":"09","name":"Bayern"}},{"name":"Berghof","postalCode":"97618","locality":"Heustreu","municipality":{"key":"09673133","name":"Heustreu","type":"Kreisangehörige_Gemeinde"},"district":{"key":"09673","name":"Rhön-Grabfeld","type":"Landkreis"},"federalState":{"key":"09","name":"Bayern"}},{"name":"Bergweg","postalCode":"97618","locality":"Heustreu","municipality":{"key":"09673133","name":"Heustreu","type":"Kreisangehörige_Gemeinde"},"district":{"key":"09673","name":"Rhön-Grabfeld","type":"Landkreis"},"federalState":{"key":"09","name":"Bayern"}},{"name":"Brückenstr.","postalCode":"97618","locality":"Heustreu","municipality":{"key":"09673133","name":"Heustreu","type":"Kreisangehörige_Gemeinde"},"district":{"key":"09673","name":"Rhön-Grabfeld","type":"Landkreis"},"federalState":{"key":"09","name":"Bayern"}},{"name":"Brunnengasse","postalCode":"97618","locality":"Heustreu","municipality":{"key":"09673133","name":"Heustreu","type":"Kreisangehörige_Gemeinde"},"district":{"key":"09673","name":"Rhön-Grabfeld","type":"Landkreis"},"federalState":{"key":"09","name":"Bayern"}},{"name":"Bühlgasse","postalCode":"97618","locality":"Heustreu","municipality":{"key":"09673133","name":"Heustreu","type":"Kreisangehörige_Gemeinde"},"district":{"key":"09673","name":"Rhön-Grabfeld","type":"Landkreis"},"federalState":{"key":"09","name":"Bayern"}},{"name":"Bühlstr.","postalCode":"97618","locality":"Heustreu","municipality":{"key":"09673133","name":"Heustreu","type":"Kreisangehörige_Gemeinde"},"district":{"key":"09673","name":"Rhön-Grabfeld","type":"Landkreis"},"federalState":{"key":"09","name":"Bayern"}},{"name":"Friedhofsweg","postalCode":"97618","locality":"Heustreu","municipality":{"key":"09673133","name":"Heustreu","type":"Kreisangehörige_Gemeinde"},"district":{"key":"09673","name":"Rhön-Grabfeld","type":"Landkreis"},"federalState":{"key":"09","name":"Bayern"}},{"name":"Friedrichsgasse","postalCode":"97618","locality":"Heustreu","municipality":{"key":"09673133","name":"Heustreu","type":"Kreisangehörige_Gemeinde"},"district":{"key":"09673","name":"Rhön-Grabfeld","type":"Landkreis"},"federalState":{"key":"09","name":"Bayern"}},{"name":"Frühlingstr.","postalCode":"97618","locality":"Heustreu","municipality":{"key":"09673133","name":"Heustreu","type":"Kreisangehörige_Gemeinde"},"district":{"key":"09673","name":"Rhön-Grabfeld","type":"Landkreis"},"federalState":{"key":"09","name":"Bayern"}},{"name":"Häuserichweg","postalCode":"97618","locality":"Heustreu","municipality":{"key":"09673133","name":"Heustreu","type":"Kreisangehörige_Gemeinde"},"district":{"key":"09673","name":"Rhön-Grabfeld","type":"Landkreis"},"federalState":{"key":"09","name":"Bayern"}},{"name":"Kellergasse","postalCode":"97618","locality":"Heustreu","municipality":{"key":"09673133","name":"Heustreu","type":"Kreisangehörige_Gemeinde"},"district":{"key":"09673","name":"Rhön-Grabfeld","type":"Landkreis"},"federalState":{"key":"09","name":"Bayern"}},{"name":"Kirchgartenweg","postalCode":"97618","locality":"Heustreu","municipality":{"key":"09673133","name":"Heustreu","type":"Kreisangehörige_Gemeinde"},"district":{"key":"09673","name":"Rhön-Grabfeld","type":"Landkreis"},"federalState":{"key":"09","name":"Bayern"}},{"name":"Krumme Gasse","postalCode":"97618","locality":"Heustreu","municipality":{"key":"09673133","name":"Heustreu","type":"Kreisangehörige_Gemeinde"},"district":{"key":"09673","name":"Rhön-Grabfeld","type":"Landkreis"},"federalState":{"key":"09","name":"Bayern"}},{"name":"Mozartstr.","postalCode":"97618","locality":"Heustreu","municipality":{"key":"09673133","name":"Heustreu","type":"Kreisangehörige_Gemeinde"},"district":{"key":"09673","name":"Rhön-Grabfeld","type":"Landkreis"},"federalState":{"key":"09","name":"Bayern"}},{"name":"Mühlstr.","postalCode":"97618","locality":"Heustreu","municipality":{"key":"09673133","name":"Heustreu","type":"Kreisangehörige_Gemeinde"},"district":{"key":"09673","name":"Rhön-Grabfeld","type":"Landkreis"},"federalState":{"key":"09","name":"Bayern"}},{"name":"Oberes Blendlein","postalCode":"97618","locality":"Heustreu","municipality":{"key":"09673133","name":"Heustreu","type":"Kreisangehörige_Gemeinde"},"district":{"key":"09673","name":"Rhön-Grabfeld","type":"Landkreis"},"federalState":{"key":"09","name":"Bayern"}},{"name":"Oberes Tannig","postalCode":"97618","locality":"Heustreu","municipality":{"key":"09673133","name":"Heustreu","type":"Kreisangehörige_Gemeinde"},"district":{"key":"09673","name":"Rhön-Grabfeld","type":"Landkreis"},"federalState":{"key":"09","name":"Bayern"}},{"name":"Poststr.","postalCode":"97618","locality":"Heustreu","municipality":{"key":"09673133","name":"Heustreu","type":"Kreisangehörige_Gemeinde"},"district":{"key":"09673","name":"Rhön-Grabfeld","type":"Landkreis"},"federalState":{"key":"09","name":"Bayern"}},{"name":"Röthenstr.","postalCode":"97618","locality":"Heustreu","municipality":{"key":"09673133","name":"Heustreu","type":"Kreisangehörige_Gemeinde"},"district":{"key":"09673","name":"Rhön-Grabfeld","type":"Landkreis"},"federalState":{"key":"09","name":"Bayern"}},{"name":"Saaleblick","postalCode":"97618","locality":"Heustreu","municipality":{"key":"09673133","name":"Heustreu","type":"Kreisangehörige_Gemeinde"},"district":{"key":"09673","name":"Rhön-Grabfeld","type":"Landkreis"},"federalState":{"key":"09","name":"Bayern"}},{"name":"Schulstr.","postalCode":"97618","locality":"Heustreu","municipality":{"key":"09673133","name":"Heustreu","type":"Kreisangehörige_Gemeinde"},"district":{"key":"09673","name":"Rhön-Grabfeld","type":"Landkreis"},"federalState":{"key":"09","name":"Bayern"}},{"name":"Schulweg","postalCode":"97618","locality":"Heustreu","municipality":{"key":"09673133","name":"Heustreu","type":"Kreisangehörige_Gemeinde"},"district":{"key":"09673","name":"Rhön-Grabfeld","type":"Landkreis"},"federalState":{"key":"09","name":"Bayern"}},{"name":"Sonnenstr.","postalCode":"97618","locality":"Heustreu","municipality":{"key":"09673133","name":"Heustreu","type":"Kreisangehörige_Gemeinde"},"district":{"key":"09673","name":"Rhön-Grabfeld","type":"Landkreis"},"federalState":{"key":"09","name":"Bayern"}},{"name":"Streutalblick","postalCode":"97618","locality":"Heustreu","municipality":{"key":"09673133","name":"Heustreu","type":"Kreisangehörige_Gemeinde"},"district":{"key":"09673","name":"Rhön-Grabfeld","type":"Landkreis"},"federalState":{"key":"09","name":"Bayern"}},{"name":"Talstr.","postalCode":"97618","locality":"Heustreu","municipality":{"key":"09673133","name":"Heustreu","type":"Kreisangehörige_Gemeinde"},"district":{"key":"09673","name":"Rhön-Grabfeld","type":"Landkreis"},"federalState":{"key":"09","name":"Bayern"}},{"name":"Torstr.","postalCode":"97618","locality":"Heustreu","municipality":{"key":"09673133","name":"Heustreu","type":"Kreisangehörige_Gemeinde"},"district":{"key":"09673","name":"Rhön-Grabfeld","type":"Landkreis"},"federalState":{"key":"09","name":"Bayern"}},{"name":"Totengässchen","postalCode":"97618","locality":"Heustreu","municipality":{"key":"09673133","name":"Heustreu","type":"Kreisangehörige_Gemeinde"},"district":{"key":"09673","name":"Rhön-Grabfeld","type":"Landkreis"},"federalState":{"key":"09","name":"Bayern"}},{"name":"Trail","postalCode":"97618","locality":"Heustreu","municipality":{"key":"09673133","name":"Heustreu","type":"Kreisangehörige_Gemeinde"},"district":{"key":"09673","name":"Rhön-Grabfeld","type":"Landkreis"},"federalState":{"key":"09","name":"Bayern"}},{"name":"Veitstr.","postalCode":"97618","locality":"Heustreu","municipality":{"key":"09673133","name":"Heustreu","type":"Kreisangehörige_Gemeinde"},"district":{"key":"09673","name":"Rhön-Grabfeld","type":"Landkreis"},"federalState":{"key":"09","name":"Bayern"}},{"name":"Vorstr.","postalCode":"97618","locality":"Heustreu","municipality":{"key":"09673133","name":"Heustreu","type":"Kreisangehörige_Gemeinde"},"district":{"key":"09673","name":"Rhön-Grabfeld","type":"Landkreis"},"federalState":{"key":"09","name":"Bayern"}},{"name":"Waldstr.","postalCode":"97618","locality":"Heustreu","municipality":{"key":"09673133","name":"Heustreu","type":"Kreisangehörige_Gemeinde"},"district":{"key":"09673","name":"Rhön-Grabfeld","type":"Landkreis"},"federalState":{"key":"09","name":"Bayern"}},{"name":"Wehrgasse","postalCode":"97618","locality":"Heustreu","municipality":{"key":"09673133","name":"Heustreu","type":"Kreisangehörige_Gemeinde"},"district":{"key":"09673","name":"Rhön-Grabfeld","type":"Landkreis"},"federalState":{"key":"09","name":"Bayern"}},{"name":"Wettergasse","postalCode":"97618","locality":"Heustreu","municipality":{"key":"09673133","name":"Heustreu","type":"Kreisangehörige_Gemeinde"},"district":{"key":"09673","name":"Rhön-Grabfeld","type":"Landkreis"},"federalState":{"key":"09","name":"Bayern"}},{"name":"Wetterstr.","postalCode":"97618","locality":"Heustreu","municipality":{"key":"09673133","name":"Heustreu","type":"Kreisangehörige_Gemeinde"},"district":{"key":"09673","name":"Rhön-Grabfeld","type":"Landkreis"},"federalState":{"key":"09","name":"Bayern"}},{"name":"Wiesenmühlweg","postalCode":"97618","locality":"Heustreu","municipality":{"key":"09673133","name":"Heustreu","type":"Kreisangehörige_Gemeinde"},"district":{"key":"09673","name":"Rhön-Grabfeld","type":"Landkreis"},"federalState":{"key":"09","name":"Bayern"}},{"name":"Winterleite","postalCode":"97618","locality":"Heustreu","municipality":{"key":"09673133","name":"Heustreu","type":"Kreisangehörige_Gemeinde"},"district":{"key":"09673","name":"Rhön-Grabfeld","type":"Landkreis"},"federalState":{"key":"09","name":"Bayern"}},{"name":"Zehntgässchen","postalCode":"97618","locality":"Heustreu","municipality":{"key":"09673133","name":"Heustreu","type":"Kreisangehörige_Gemeinde"},"district":{"key":"09673","name":"Rhön-Grabfeld","type":"Landkreis"},"federalState":{"key":"09","name":"Bayern"}},]