[{"name":"Alte Brückenstr.","postalCode":"97286","locality":"Winterhausen","municipality":{"key":"09679206","name":"Winterhausen, M","type":"Markt"},"district":{"key":"09679","name":"Würzburg","type":"Landkreis"},"federalState":{"key":"09","name":"Bayern"}},{"name":"Alte Steige","postalCode":"97286","locality":"Winterhausen","municipality":{"key":"09679206","name":"Winterhausen, M","type":"Markt"},"district":{"key":"09679","name":"Würzburg","type":"Landkreis"},"federalState":{"key":"09","name":"Bayern"}},{"name":"Am Hohlweg","postalCode":"97286","locality":"Winterhausen","municipality":{"key":"09679206","name":"Winterhausen, M","type":"Markt"},"district":{"key":"09679","name":"Würzburg","type":"Landkreis"},"federalState":{"key":"09","name":"Bayern"}},{"name":"Am Stiegel","postalCode":"97286","locality":"Winterhausen","municipality":{"key":"09679206","name":"Winterhausen, M","type":"Markt"},"district":{"key":"09679","name":"Würzburg","type":"Landkreis"},"federalState":{"key":"09","name":"Bayern"}},{"name":"Am Walch","postalCode":"97286","locality":"Winterhausen","municipality":{"key":"09679206","name":"Winterhausen, M","type":"Markt"},"district":{"key":"09679","name":"Würzburg","type":"Landkreis"},"federalState":{"key":"09","name":"Bayern"}},{"name":"An der Läng","postalCode":"97286","locality":"Winterhausen","municipality":{"key":"09679206","name":"Winterhausen, M","type":"Markt"},"district":{"key":"09679","name":"Würzburg","type":"Landkreis"},"federalState":{"key":"09","name":"Bayern"}},{"name":"Bahnberg","postalCode":"97286","locality":"Winterhausen","municipality":{"key":"09679206","name":"Winterhausen, M","type":"Markt"},"district":{"key":"09679","name":"Würzburg","type":"Landkreis"},"federalState":{"key":"09","name":"Bayern"}},{"name":"Bierkeller","postalCode":"97286","locality":"Winterhausen","municipality":{"key":"09679206","name":"Winterhausen, M","type":"Markt"},"district":{"key":"09679","name":"Würzburg","type":"Landkreis"},"federalState":{"key":"09","name":"Bayern"}},{"name":"Brückenrain","postalCode":"97286","locality":"Winterhausen","municipality":{"key":"09679206","name":"Winterhausen, M","type":"Markt"},"district":{"key":"09679","name":"Würzburg","type":"Landkreis"},"federalState":{"key":"09","name":"Bayern"}},{"name":"Bucksweg","postalCode":"97286","locality":"Winterhausen","municipality":{"key":"09679206","name":"Winterhausen, M","type":"Markt"},"district":{"key":"09679","name":"Würzburg","type":"Landkreis"},"federalState":{"key":"09","name":"Bayern"}},{"name":"Carl-Orff-Str.","postalCode":"97076","locality":"Würzburg","municipality":{"key":"09663000","name":"Würzburg","type":"Kreisfreie_Stadt"},"district":{"key":"09663","name":"Würzburg","type":"Kreisfreie_Stadt"},"federalState":{"key":"09","name":"Bayern"}},{"name":"Christlsteige","postalCode":"97074","locality":"Würzburg","municipality":{"key":"09663000","name":"Würzburg","type":"Kreisfreie_Stadt"},"district":{"key":"09663","name":"Würzburg","type":"Kreisfreie_Stadt"},"federalState":{"key":"09","name":"Bayern"}},{"name":"Christoph-Mayer-Weg","postalCode":"97082","locality":"Würzburg","municipality":{"key":"09663000","name":"Würzburg","type":"Kreisfreie_Stadt"},"district":{"key":"09663","name":"Würzburg","type":"Kreisfreie_Stadt"},"federalState":{"key":"09","name":"Bayern"}},{"name":"Conradisteg","postalCode":"97072","locality":"Würzburg","municipality":{"key":"09663000","name":"Würzburg","type":"Kreisfreie_Stadt"},"district":{"key":"09663","name":"Würzburg","type":"Kreisfreie_Stadt"},"federalState":{"key":"09","name":"Bayern"}},{"name":"Conradistr.","postalCode":"97072","locality":"Würzburg","municipality":{"key":"09663000","name":"Würzburg","type":"Kreisfreie_Stadt"},"district":{"key":"09663","name":"Würzburg","type":"Kreisfreie_Stadt"},"federalState":{"key":"09","name":"Bayern"}},{"name":"Crevennastr.","postalCode":"97072","locality":"Würzburg","municipality":{"key":"09663000","name":"Würzburg","type":"Kreisfreie_Stadt"},"district":{"key":"09663","name":"Würzburg","type":"Kreisfreie_Stadt"},"federalState":{"key":"09","name":"Bayern"}},{"name":"Cronthalstr.","postalCode":"97074","locality":"Würzburg","municipality":{"key":"09663000","name":"Würzburg","type":"Kreisfreie_Stadt"},"district":{"key":"09663","name":"Würzburg","type":"Kreisfreie_Stadt"},"federalState":{"key":"09","name":"Bayern"}},{"name":"Dözel","postalCode":"97286","locality":"Winterhausen","municipality":{"key":"09679206","name":"Winterhausen, M","type":"Markt"},"district":{"key":"09679","name":"Würzburg","type":"Landkreis"},"federalState":{"key":"09","name":"Bayern"}},{"name":"Ebertsklinge","postalCode":"97074","locality":"Würzburg","municipality":{"key":"09663000","name":"Würzburg","type":"Kreisfreie_Stadt"},"district":{"key":"09663","name":"Würzburg","type":"Kreisfreie_Stadt"},"federalState":{"key":"09","name":"Bayern"}},{"name":"Ebracher Gasse","postalCode":"97070","locality":"Würzburg","municipality":{"key":"09663000","name":"Würzburg","type":"Kreisfreie_Stadt"},"district":{"key":"09663","name":"Würzburg","type":"Kreisfreie_Stadt"},"federalState":{"key":"09","name":"Bayern"}},{"name":"Echter-Galerie","postalCode":"97070","locality":"Würzburg","municipality":{"key":"09663000","name":"Würzburg","type":"Kreisfreie_Stadt"},"district":{"key":"09663","name":"Würzburg","type":"Kreisfreie_Stadt"},"federalState":{"key":"09","name":"Bayern"}},{"name":"Eckleinsweg","postalCode":"97084","locality":"Würzburg","municipality":{"key":"09663000","name":"Würzburg","type":"Kreisfreie_Stadt"},"district":{"key":"09663","name":"Würzburg","type":"Kreisfreie_Stadt"},"federalState":{"key":"09","name":"Bayern"}},{"name":"Edelstr.","postalCode":"97074","locality":"Würzburg","municipality":{"key":"09663000","name":"Würzburg","type":"Kreisfreie_Stadt"},"district":{"key":"09663","name":"Würzburg","type":"Kreisfreie_Stadt"},"federalState":{"key":"09","name":"Bayern"}},{"name":"Edith-Stein-Str.","postalCode":"97084","locality":"Würzburg","municipality":{"key":"09663000","name":"Würzburg","type":"Kreisfreie_Stadt"},"district":{"key":"09663","name":"Würzburg","type":"Kreisfreie_Stadt"},"federalState":{"key":"09","name":"Bayern"}},{"name":"Eduard-Buchner-Str.","postalCode":"97080","locality":"Würzburg","municipality":{"key":"09663000","name":"Würzburg","type":"Kreisfreie_Stadt"},"district":{"key":"09663","name":"Würzburg","type":"Kreisfreie_Stadt"},"federalState":{"key":"09","name":"Bayern"}},{"name":"Egloffsteinstr.","postalCode":"97072","locality":"Würzburg","municipality":{"key":"09663000","name":"Würzburg","type":"Kreisfreie_Stadt"},"district":{"key":"09663","name":"Würzburg","type":"Kreisfreie_Stadt"},"federalState":{"key":"09","name":"Bayern"}},{"name":"Eibelstadter Weg","postalCode":"97084","locality":"Würzburg","municipality":{"key":"09663000","name":"Würzburg","type":"Kreisfreie_Stadt"},"district":{"key":"09663","name":"Würzburg","type":"Kreisfreie_Stadt"},"federalState":{"key":"09","name":"Bayern"}},{"name":"Eibenweg","postalCode":"97084","locality":"Würzburg","municipality":{"key":"09663000","name":"Würzburg","type":"Kreisfreie_Stadt"},"district":{"key":"09663","name":"Würzburg","type":"Kreisfreie_Stadt"},"federalState":{"key":"09","name":"Bayern"}},{"name":"Eichendorffstr.","postalCode":"97072","locality":"Würzburg","municipality":{"key":"09663000","name":"Würzburg","type":"Kreisfreie_Stadt"},"district":{"key":"09663","name":"Würzburg","type":"Kreisfreie_Stadt"},"federalState":{"key":"09","name":"Bayern"}},{"name":"Eichenweg","postalCode":"97084","locality":"Würzburg","municipality":{"key":"09663000","name":"Würzburg","type":"Kreisfreie_Stadt"},"district":{"key":"09663","name":"Würzburg","type":"Kreisfreie_Stadt"},"federalState":{"key":"09","name":"Bayern"}},{"name":"Eichstr.","postalCode":"97070","locality":"Würzburg","municipality":{"key":"09663000","name":"Würzburg","type":"Kreisfreie_Stadt"},"district":{"key":"09663","name":"Würzburg","type":"Kreisfreie_Stadt"},"federalState":{"key":"09","name":"Bayern"}},{"name":"Eisenbahnstr.","postalCode":"97084","locality":"Würzburg","municipality":{"key":"09663000","name":"Würzburg","type":"Kreisfreie_Stadt"},"district":{"key":"09663","name":"Würzburg","type":"Kreisfreie_Stadt"},"federalState":{"key":"09","name":"Bayern"}},{"name":"Eiseneckstr.","postalCode":"97082","locality":"Würzburg","municipality":{"key":"09663000","name":"Würzburg","type":"Kreisfreie_Stadt"},"district":{"key":"09663","name":"Würzburg","type":"Kreisfreie_Stadt"},"federalState":{"key":"09","name":"Bayern"}},{"name":"Eisenhoferstr.","postalCode":"97074","locality":"Würzburg","municipality":{"key":"09663000","name":"Würzburg","type":"Kreisfreie_Stadt"},"district":{"key":"09663","name":"Würzburg","type":"Kreisfreie_Stadt"},"federalState":{"key":"09","name":"Bayern"}},{"name":"Eisenmannstr.","postalCode":"97074","locality":"Würzburg","municipality":{"key":"09663000","name":"Würzburg","type":"Kreisfreie_Stadt"},"district":{"key":"09663","name":"Würzburg","type":"Kreisfreie_Stadt"},"federalState":{"key":"09","name":"Bayern"}},{"name":"Elefantengasse","postalCode":"97070","locality":"Würzburg","municipality":{"key":"09663000","name":"Würzburg","type":"Kreisfreie_Stadt"},"district":{"key":"09663","name":"Würzburg","type":"Kreisfreie_Stadt"},"federalState":{"key":"09","name":"Bayern"}},{"name":"Elferweg","postalCode":"97076","locality":"Würzburg","municipality":{"key":"09663000","name":"Würzburg","type":"Kreisfreie_Stadt"},"district":{"key":"09663","name":"Würzburg","type":"Kreisfreie_Stadt"},"federalState":{"key":"09","name":"Bayern"}},{"name":"Elisabeth-Ehlers-Anlage","postalCode":"97084","locality":"Würzburg","municipality":{"key":"09663000","name":"Würzburg","type":"Kreisfreie_Stadt"},"district":{"key":"09663","name":"Würzburg","type":"Kreisfreie_Stadt"},"federalState":{"key":"09","name":"Bayern"}},{"name":"Elisabeth-Scheuring-Str.","postalCode":"97074","locality":"Würzburg","municipality":{"key":"09663000","name":"Würzburg","type":"Kreisfreie_Stadt"},"district":{"key":"09663","name":"Würzburg","type":"Kreisfreie_Stadt"},"federalState":{"key":"09","name":"Bayern"}},{"name":"Ellernweg","postalCode":"97080","locality":"Würzburg","municipality":{"key":"09663000","name":"Würzburg","type":"Kreisfreie_Stadt"},"district":{"key":"09663","name":"Würzburg","type":"Kreisfreie_Stadt"},"federalState":{"key":"09","name":"Bayern"}},{"name":"Elstergasse","postalCode":"97082","locality":"Würzburg","municipality":{"key":"09663000","name":"Würzburg","type":"Kreisfreie_Stadt"},"district":{"key":"09663","name":"Würzburg","type":"Kreisfreie_Stadt"},"federalState":{"key":"09","name":"Bayern"}},{"name":"Emy-Roeder-Str.","postalCode":"97074","locality":"Würzburg","municipality":{"key":"09663000","name":"Würzburg","type":"Kreisfreie_Stadt"},"district":{"key":"09663","name":"Würzburg","type":"Kreisfreie_Stadt"},"federalState":{"key":"09","name":"Bayern"}},{"name":"Engelsweg","postalCode":"97084","locality":"Würzburg","municipality":{"key":"09663000","name":"Würzburg","type":"Kreisfreie_Stadt"},"district":{"key":"09663","name":"Würzburg","type":"Kreisfreie_Stadt"},"federalState":{"key":"09","name":"Bayern"}},{"name":"Enzelinstr.","postalCode":"97080","locality":"Würzburg","municipality":{"key":"09663000","name":"Würzburg","type":"Kreisfreie_Stadt"},"district":{"key":"09663","name":"Würzburg","type":"Kreisfreie_Stadt"},"federalState":{"key":"09","name":"Bayern"}},{"name":"Ephesusweg","postalCode":"97084","locality":"Würzburg","municipality":{"key":"09663000","name":"Würzburg","type":"Kreisfreie_Stadt"},"district":{"key":"09663","name":"Würzburg","type":"Kreisfreie_Stadt"},"federalState":{"key":"09","name":"Bayern"}},{"name":"Erbshausener Str.","postalCode":"97262","locality":"Hausen b. Würzburg","municipality":{"key":"09679143","name":"Hausen b.Würzburg","type":"Kreisangehörige_Gemeinde"},"district":{"key":"09679","name":"Würzburg","type":"Landkreis"},"federalState":{"key":"09","name":"Bayern"}},{"name":"Erlenweg","postalCode":"97076","locality":"Würzburg","municipality":{"key":"09663000","name":"Würzburg","type":"Kreisfreie_Stadt"},"district":{"key":"09663","name":"Würzburg","type":"Kreisfreie_Stadt"},"federalState":{"key":"09","name":"Bayern"}},{"name":"Ernst-Reuter-Platz","postalCode":"97080","locality":"Würzburg","municipality":{"key":"09663000","name":"Würzburg","type":"Kreisfreie_Stadt"},"district":{"key":"09663","name":"Würzburg","type":"Kreisfreie_Stadt"},"federalState":{"key":"09","name":"Bayern"}},{"name":"Ernst-Reuter-Str.","postalCode":"97080","locality":"Würzburg","municipality":{"key":"09663000","name":"Würzburg","type":"Kreisfreie_Stadt"},"district":{"key":"09663","name":"Würzburg","type":"Kreisfreie_Stadt"},"federalState":{"key":"09","name":"Bayern"}},{"name":"Ernst-Winter-Weg","postalCode":"97084","locality":"Würzburg","municipality":{"key":"09663000","name":"Würzburg","type":"Kreisfreie_Stadt"},"district":{"key":"09663","name":"Würzburg","type":"Kreisfreie_Stadt"},"federalState":{"key":"09","name":"Bayern"}},{"name":"Erste Felsengasse","postalCode":"97082","locality":"Würzburg","municipality":{"key":"09663000","name":"Würzburg","type":"Kreisfreie_Stadt"},"district":{"key":"09663","name":"Würzburg","type":"Kreisfreie_Stadt"},"federalState":{"key":"09","name":"Bayern"}},{"name":"Erster Siedlungsweg","postalCode":"97082","locality":"Würzburg","municipality":{"key":"09663000","name":"Würzburg","type":"Kreisfreie_Stadt"},"district":{"key":"09663","name":"Würzburg","type":"Kreisfreie_Stadt"},"federalState":{"key":"09","name":"Bayern"}},{"name":"Erthalstr.","postalCode":"97074","locality":"Würzburg","municipality":{"key":"09663000","name":"Würzburg","type":"Kreisfreie_Stadt"},"district":{"key":"09663","name":"Würzburg","type":"Kreisfreie_Stadt"},"federalState":{"key":"09","name":"Bayern"}},{"name":"Eschenweg","postalCode":"97084","locality":"Würzburg","municipality":{"key":"09663000","name":"Würzburg","type":"Kreisfreie_Stadt"},"district":{"key":"09663","name":"Würzburg","type":"Kreisfreie_Stadt"},"federalState":{"key":"09","name":"Bayern"}},{"name":"Essiggarten","postalCode":"97076","locality":"Würzburg","municipality":{"key":"09663000","name":"Würzburg","type":"Kreisfreie_Stadt"},"district":{"key":"09663","name":"Würzburg","type":"Kreisfreie_Stadt"},"federalState":{"key":"09","name":"Bayern"}},{"name":"Essigkrug","postalCode":"97078","locality":"Würzburg","municipality":{"key":"09663000","name":"Würzburg","type":"Kreisfreie_Stadt"},"district":{"key":"09663","name":"Würzburg","type":"Kreisfreie_Stadt"},"federalState":{"key":"09","name":"Bayern"}},{"name":"Estenfelder Str.","postalCode":"97078","locality":"Würzburg","municipality":{"key":"09663000","name":"Würzburg","type":"Kreisfreie_Stadt"},"district":{"key":"09663","name":"Würzburg","type":"Kreisfreie_Stadt"},"federalState":{"key":"09","name":"Bayern"}},{"name":"Eulensteige","postalCode":"97082","locality":"Würzburg","municipality":{"key":"09663000","name":"Würzburg","type":"Kreisfreie_Stadt"},"district":{"key":"09663","name":"Würzburg","type":"Kreisfreie_Stadt"},"federalState":{"key":"09","name":"Bayern"}},{"name":"Europastern","postalCode":"97076","locality":"Würzburg","municipality":{"key":"09663000","name":"Würzburg","type":"Kreisfreie_Stadt"},"district":{"key":"09663","name":"Würzburg","type":"Kreisfreie_Stadt"},"federalState":{"key":"09","name":"Bayern"}},{"name":"Europastern","postalCode":"97080","locality":"Würzburg","municipality":{"key":"09663000","name":"Würzburg","type":"Kreisfreie_Stadt"},"district":{"key":"09663","name":"Würzburg","type":"Kreisfreie_Stadt"},"federalState":{"key":"09","name":"Bayern"}},{"name":"Evodiusstr.","postalCode":"97262","locality":"Hausen b. Würzburg","municipality":{"key":"09679143","name":"Hausen b.Würzburg","type":"Kreisangehörige_Gemeinde"},"district":{"key":"09679","name":"Würzburg","type":"Landkreis"},"federalState":{"key":"09","name":"Bayern"}},{"name":"Fährweg","postalCode":"97286","locality":"Winterhausen","municipality":{"key":"09679206","name":"Winterhausen, M","type":"Markt"},"district":{"key":"09679","name":"Würzburg","type":"Landkreis"},"federalState":{"key":"09","name":"Bayern"}},{"name":"Fuchsstadter Str.","postalCode":"97286","locality":"Winterhausen","municipality":{"key":"09679206","name":"Winterhausen, M","type":"Markt"},"district":{"key":"09679","name":"Würzburg","type":"Landkreis"},"federalState":{"key":"09","name":"Bayern"}},{"name":"Gänglein","postalCode":"97286","locality":"Winterhausen","municipality":{"key":"09679206","name":"Winterhausen, M","type":"Markt"},"district":{"key":"09679","name":"Würzburg","type":"Landkreis"},"federalState":{"key":"09","name":"Bayern"}},{"name":"Goßmannsdorfer Str.","postalCode":"97286","locality":"Winterhausen","municipality":{"key":"09679206","name":"Winterhausen, M","type":"Markt"},"district":{"key":"09679","name":"Würzburg","type":"Landkreis"},"federalState":{"key":"09","name":"Bayern"}},{"name":"Häckergasse","postalCode":"97286","locality":"Winterhausen","municipality":{"key":"09679206","name":"Winterhausen, M","type":"Markt"},"district":{"key":"09679","name":"Würzburg","type":"Landkreis"},"federalState":{"key":"09","name":"Bayern"}},{"name":"Hauptstr.","postalCode":"97286","locality":"Winterhausen","municipality":{"key":"09679206","name":"Winterhausen, M","type":"Markt"},"district":{"key":"09679","name":"Würzburg","type":"Landkreis"},"federalState":{"key":"09","name":"Bayern"}},{"name":"Heidingsfelder Str.","postalCode":"97286","locality":"Winterhausen","municipality":{"key":"09679206","name":"Winterhausen, M","type":"Markt"},"district":{"key":"09679","name":"Würzburg","type":"Landkreis"},"federalState":{"key":"09","name":"Bayern"}},{"name":"Heigern","postalCode":"97286","locality":"Winterhausen","municipality":{"key":"09679206","name":"Winterhausen, M","type":"Markt"},"district":{"key":"09679","name":"Würzburg","type":"Landkreis"},"federalState":{"key":"09","name":"Bayern"}},{"name":"Hintere Gasse","postalCode":"97286","locality":"Winterhausen","municipality":{"key":"09679206","name":"Winterhausen, M","type":"Markt"},"district":{"key":"09679","name":"Würzburg","type":"Landkreis"},"federalState":{"key":"09","name":"Bayern"}},{"name":"Hirtenweg","postalCode":"97286","locality":"Winterhausen","municipality":{"key":"09679206","name":"Winterhausen, M","type":"Markt"},"district":{"key":"09679","name":"Würzburg","type":"Landkreis"},"federalState":{"key":"09","name":"Bayern"}},{"name":"Ilse-Totzke-Str.","postalCode":"97074","locality":"Würzburg","municipality":{"key":"09663000","name":"Würzburg","type":"Kreisfreie_Stadt"},"district":{"key":"09663","name":"Würzburg","type":"Kreisfreie_Stadt"},"federalState":{"key":"09","name":"Bayern"}},{"name":"Im Grund","postalCode":"97080","locality":"Würzburg","municipality":{"key":"09663000","name":"Würzburg","type":"Kreisfreie_Stadt"},"district":{"key":"09663","name":"Würzburg","type":"Kreisfreie_Stadt"},"federalState":{"key":"09","name":"Bayern"}},{"name":"Im Hirschlein","postalCode":"97080","locality":"Würzburg","municipality":{"key":"09663000","name":"Würzburg","type":"Kreisfreie_Stadt"},"district":{"key":"09663","name":"Würzburg","type":"Kreisfreie_Stadt"},"federalState":{"key":"09","name":"Bayern"}},{"name":"In der Seibertsklinge","postalCode":"97084","locality":"Würzburg","municipality":{"key":"09663000","name":"Würzburg","type":"Kreisfreie_Stadt"},"district":{"key":"09663","name":"Würzburg","type":"Kreisfreie_Stadt"},"federalState":{"key":"09","name":"Bayern"}},{"name":"Industriestr.","postalCode":"97076","locality":"Würzburg","municipality":{"key":"09663000","name":"Würzburg","type":"Kreisfreie_Stadt"},"district":{"key":"09663","name":"Würzburg","type":"Kreisfreie_Stadt"},"federalState":{"key":"09","name":"Bayern"}},{"name":"Ingolstadter Hof","postalCode":"97070","locality":"Würzburg","municipality":{"key":"09663000","name":"Würzburg","type":"Kreisfreie_Stadt"},"district":{"key":"09663","name":"Würzburg","type":"Kreisfreie_Stadt"},"federalState":{"key":"09","name":"Bayern"}},{"name":"Innere Aumühlstr.","postalCode":"97076","locality":"Würzburg","municipality":{"key":"09663000","name":"Würzburg","type":"Kreisfreie_Stadt"},"district":{"key":"09663","name":"Würzburg","type":"Kreisfreie_Stadt"},"federalState":{"key":"09","name":"Bayern"}},{"name":"Innerer Graben","postalCode":"97070","locality":"Würzburg","municipality":{"key":"09663000","name":"Würzburg","type":"Kreisfreie_Stadt"},"district":{"key":"09663","name":"Würzburg","type":"Kreisfreie_Stadt"},"federalState":{"key":"09","name":"Bayern"}},{"name":"Jägerruh","postalCode":"97076","locality":"Würzburg","municipality":{"key":"09663000","name":"Würzburg","type":"Kreisfreie_Stadt"},"district":{"key":"09663","name":"Würzburg","type":"Kreisfreie_Stadt"},"federalState":{"key":"09","name":"Bayern"}},{"name":"Jägerstr.","postalCode":"97082","locality":"Würzburg","municipality":{"key":"09663000","name":"Würzburg","type":"Kreisfreie_Stadt"},"district":{"key":"09663","name":"Würzburg","type":"Kreisfreie_Stadt"},"federalState":{"key":"09","name":"Bayern"}},{"name":"Jahnstr.","postalCode":"97076","locality":"Würzburg","municipality":{"key":"09663000","name":"Würzburg","type":"Kreisfreie_Stadt"},"district":{"key":"09663","name":"Würzburg","type":"Kreisfreie_Stadt"},"federalState":{"key":"09","name":"Bayern"}},{"name":"Jahnstr.","postalCode":"97262","locality":"Hausen b. Würzburg","municipality":{"key":"09679143","name":"Hausen b.Würzburg","type":"Kreisangehörige_Gemeinde"},"district":{"key":"09679","name":"Würzburg","type":"Landkreis"},"federalState":{"key":"09","name":"Bayern"}},{"name":"Jakob-Riedinger-Str.","postalCode":"97074","locality":"Würzburg","municipality":{"key":"09663000","name":"Würzburg","type":"Kreisfreie_Stadt"},"district":{"key":"09663","name":"Würzburg","type":"Kreisfreie_Stadt"},"federalState":{"key":"09","name":"Bayern"}},{"name":"Jakob-Stößel-Str.","postalCode":"97262","locality":"Hausen b. Würzburg","municipality":{"key":"09679143","name":"Hausen b.Würzburg","type":"Kreisangehörige_Gemeinde"},"district":{"key":"09679","name":"Würzburg","type":"Landkreis"},"federalState":{"key":"09","name":"Bayern"}},{"name":"Japanischer Garten","postalCode":"97070","locality":"Würzburg","municipality":{"key":"09663000","name":"Würzburg","type":"Kreisfreie_Stadt"},"district":{"key":"09663","name":"Würzburg","type":"Kreisfreie_Stadt"},"federalState":{"key":"09","name":"Bayern"}},{"name":"Jehuda-Amichai-Str.","postalCode":"97070","locality":"Würzburg","municipality":{"key":"09663000","name":"Würzburg","type":"Kreisfreie_Stadt"},"district":{"key":"09663","name":"Würzburg","type":"Kreisfreie_Stadt"},"federalState":{"key":"09","name":"Bayern"}},{"name":"Johannes-Kepler-Str.","postalCode":"97074","locality":"Würzburg","municipality":{"key":"09663000","name":"Würzburg","type":"Kreisfreie_Stadt"},"district":{"key":"09663","name":"Würzburg","type":"Kreisfreie_Stadt"},"federalState":{"key":"09","name":"Bayern"}},{"name":"Johann-Herrmann-Str.","postalCode":"97078","locality":"Würzburg","municipality":{"key":"09663000","name":"Würzburg","type":"Kreisfreie_Stadt"},"district":{"key":"09663","name":"Würzburg","type":"Kreisfreie_Stadt"},"federalState":{"key":"09","name":"Bayern"}},{"name":"Johanniterweg","postalCode":"97076","locality":"Würzburg","municipality":{"key":"09663000","name":"Würzburg","type":"Kreisfreie_Stadt"},"district":{"key":"09663","name":"Würzburg","type":"Kreisfreie_Stadt"},"federalState":{"key":"09","name":"Bayern"}},{"name":"Johann-Josef-Strobel-Str.","postalCode":"97262","locality":"Hausen b. Würzburg","municipality":{"key":"09679143","name":"Hausen b.Würzburg","type":"Kreisangehörige_Gemeinde"},"district":{"key":"09679","name":"Würzburg","type":"Landkreis"},"federalState":{"key":"09","name":"Bayern"}},{"name":"Johann-Salomon-Str.","postalCode":"97080","locality":"Würzburg","municipality":{"key":"09663000","name":"Würzburg","type":"Kreisfreie_Stadt"},"district":{"key":"09663","name":"Würzburg","type":"Kreisfreie_Stadt"},"federalState":{"key":"09","name":"Bayern"}},{"name":"Josefplatz","postalCode":"97080","locality":"Würzburg","municipality":{"key":"09663000","name":"Würzburg","type":"Kreisfreie_Stadt"},"district":{"key":"09663","name":"Würzburg","type":"Kreisfreie_Stadt"},"federalState":{"key":"09","name":"Bayern"}},{"name":"Josef-Schneider-Str.","postalCode":"97080","locality":"Würzburg","municipality":{"key":"09663000","name":"Würzburg","type":"Kreisfreie_Stadt"},"district":{"key":"09663","name":"Würzburg","type":"Kreisfreie_Stadt"},"federalState":{"key":"09","name":"Bayern"}},{"name":"Josef-Stangl-Platz","postalCode":"97070","locality":"Würzburg","municipality":{"key":"09663000","name":"Würzburg","type":"Kreisfreie_Stadt"},"district":{"key":"09663","name":"Würzburg","type":"Kreisfreie_Stadt"},"federalState":{"key":"09","name":"Bayern"}},{"name":"Josefstr.","postalCode":"97080","locality":"Würzburg","municipality":{"key":"09663000","name":"Würzburg","type":"Kreisfreie_Stadt"},"district":{"key":"09663","name":"Würzburg","type":"Kreisfreie_Stadt"},"federalState":{"key":"09","name":"Bayern"}},{"name":"Joseph-Seitz-Str.","postalCode":"97076","locality":"Würzburg","municipality":{"key":"09663000","name":"Würzburg","type":"Kreisfreie_Stadt"},"district":{"key":"09663","name":"Würzburg","type":"Kreisfreie_Stadt"},"federalState":{"key":"09","name":"Bayern"}},{"name":"Judenbühlweg","postalCode":"97082","locality":"Würzburg","municipality":{"key":"09663000","name":"Würzburg","type":"Kreisfreie_Stadt"},"district":{"key":"09663","name":"Würzburg","type":"Kreisfreie_Stadt"},"federalState":{"key":"09","name":"Bayern"}},{"name":"Judenplan","postalCode":"97084","locality":"Würzburg","municipality":{"key":"09663000","name":"Würzburg","type":"Kreisfreie_Stadt"},"district":{"key":"09663","name":"Würzburg","type":"Kreisfreie_Stadt"},"federalState":{"key":"09","name":"Bayern"}},{"name":"Julius-Becher-Weg","postalCode":"97082","locality":"Würzburg","municipality":{"key":"09663000","name":"Würzburg","type":"Kreisfreie_Stadt"},"district":{"key":"09663","name":"Würzburg","type":"Kreisfreie_Stadt"},"federalState":{"key":"09","name":"Bayern"}},{"name":"Julius-Echter-Str.","postalCode":"97084","locality":"Würzburg","municipality":{"key":"09663000","name":"Würzburg","type":"Kreisfreie_Stadt"},"district":{"key":"09663","name":"Würzburg","type":"Kreisfreie_Stadt"},"federalState":{"key":"09","name":"Bayern"}},{"name":"Juliuspromenade","postalCode":"97070","locality":"Würzburg","municipality":{"key":"09663000","name":"Würzburg","type":"Kreisfreie_Stadt"},"district":{"key":"09663","name":"Würzburg","type":"Kreisfreie_Stadt"},"federalState":{"key":"09","name":"Bayern"}},{"name":"Julius-von-Sachs-Platz","postalCode":"97082","locality":"Würzburg","municipality":{"key":"09663000","name":"Würzburg","type":"Kreisfreie_Stadt"},"district":{"key":"09663","name":"Würzburg","type":"Kreisfreie_Stadt"},"federalState":{"key":"09","name":"Bayern"}},{"name":"Kirchberg","postalCode":"97286","locality":"Winterhausen","municipality":{"key":"09679206","name":"Winterhausen, M","type":"Markt"},"district":{"key":"09679","name":"Würzburg","type":"Landkreis"},"federalState":{"key":"09","name":"Bayern"}},{"name":"Kirchgasse","postalCode":"97286","locality":"Winterhausen","municipality":{"key":"09679206","name":"Winterhausen, M","type":"Markt"},"district":{"key":"09679","name":"Würzburg","type":"Landkreis"},"federalState":{"key":"09","name":"Bayern"}},{"name":"Lange Gasse","postalCode":"97286","locality":"Winterhausen","municipality":{"key":"09679206","name":"Winterhausen, M","type":"Markt"},"district":{"key":"09679","name":"Würzburg","type":"Landkreis"},"federalState":{"key":"09","name":"Bayern"}},{"name":"Leitenweg","postalCode":"97286","locality":"Winterhausen","municipality":{"key":"09679206","name":"Winterhausen, M","type":"Markt"},"district":{"key":"09679","name":"Würzburg","type":"Landkreis"},"federalState":{"key":"09","name":"Bayern"}},{"name":"Maingasse","postalCode":"97286","locality":"Winterhausen","municipality":{"key":"09679206","name":"Winterhausen, M","type":"Markt"},"district":{"key":"09679","name":"Würzburg","type":"Landkreis"},"federalState":{"key":"09","name":"Bayern"}},{"name":"Mauritiusplatz","postalCode":"97286","locality":"Winterhausen","municipality":{"key":"09679206","name":"Winterhausen, M","type":"Markt"},"district":{"key":"09679","name":"Würzburg","type":"Landkreis"},"federalState":{"key":"09","name":"Bayern"}},{"name":"Mittlere Gasse","postalCode":"97286","locality":"Winterhausen","municipality":{"key":"09679206","name":"Winterhausen, M","type":"Markt"},"district":{"key":"09679","name":"Würzburg","type":"Landkreis"},"federalState":{"key":"09","name":"Bayern"}},{"name":"NA","postalCode":"97076","locality":"Würzburg","municipality":{"key":"09663000","name":"Würzburg","type":"Kreisfreie_Stadt"},"district":{"key":"09663","name":"Würzburg","type":"Kreisfreie_Stadt"},"federalState":{"key":"09","name":"Bayern"}},{"name":"Nachtigallenweg","postalCode":"97074","locality":"Würzburg","municipality":{"key":"09663000","name":"Würzburg","type":"Kreisfreie_Stadt"},"district":{"key":"09663","name":"Würzburg","type":"Kreisfreie_Stadt"},"federalState":{"key":"09","name":"Bayern"}},{"name":"Nautiland","postalCode":"97082","locality":"Würzburg","municipality":{"key":"09663000","name":"Würzburg","type":"Kreisfreie_Stadt"},"district":{"key":"09663","name":"Würzburg","type":"Kreisfreie_Stadt"},"federalState":{"key":"09","name":"Bayern"}},{"name":"Neidertstr.","postalCode":"97082","locality":"Würzburg","municipality":{"key":"09663000","name":"Würzburg","type":"Kreisfreie_Stadt"},"district":{"key":"09663","name":"Würzburg","type":"Kreisfreie_Stadt"},"federalState":{"key":"09","name":"Bayern"}},{"name":"Nelkenweg","postalCode":"97084","locality":"Würzburg","municipality":{"key":"09663000","name":"Würzburg","type":"Kreisfreie_Stadt"},"district":{"key":"09663","name":"Würzburg","type":"Kreisfreie_Stadt"},"federalState":{"key":"09","name":"Bayern"}},{"name":"Neubaustr.","postalCode":"97070","locality":"Würzburg","municipality":{"key":"09663000","name":"Würzburg","type":"Kreisfreie_Stadt"},"district":{"key":"09663","name":"Würzburg","type":"Kreisfreie_Stadt"},"federalState":{"key":"09","name":"Bayern"}},{"name":"Neubergstr.","postalCode":"97072","locality":"Würzburg","municipality":{"key":"09663000","name":"Würzburg","type":"Kreisfreie_Stadt"},"district":{"key":"09663","name":"Würzburg","type":"Kreisfreie_Stadt"},"federalState":{"key":"09","name":"Bayern"}},{"name":"Neuenbrunnerweg","postalCode":"97080","locality":"Würzburg","municipality":{"key":"09663000","name":"Würzburg","type":"Kreisfreie_Stadt"},"district":{"key":"09663","name":"Würzburg","type":"Kreisfreie_Stadt"},"federalState":{"key":"09","name":"Bayern"}},{"name":"Neumann-Passage","postalCode":"97070","locality":"Würzburg","municipality":{"key":"09663000","name":"Würzburg","type":"Kreisfreie_Stadt"},"district":{"key":"09663","name":"Würzburg","type":"Kreisfreie_Stadt"},"federalState":{"key":"09","name":"Bayern"}},{"name":"Neunerplatz","postalCode":"97082","locality":"Würzburg","municipality":{"key":"09663000","name":"Würzburg","type":"Kreisfreie_Stadt"},"district":{"key":"09663","name":"Würzburg","type":"Kreisfreie_Stadt"},"federalState":{"key":"09","name":"Bayern"}},{"name":"Neutorstr.","postalCode":"97070","locality":"Würzburg","municipality":{"key":"09663000","name":"Würzburg","type":"Kreisfreie_Stadt"},"district":{"key":"09663","name":"Würzburg","type":"Kreisfreie_Stadt"},"federalState":{"key":"09","name":"Bayern"}},{"name":"Neutorwiese","postalCode":"97082","locality":"Würzburg","municipality":{"key":"09663000","name":"Würzburg","type":"Kreisfreie_Stadt"},"district":{"key":"09663","name":"Würzburg","type":"Kreisfreie_Stadt"},"federalState":{"key":"09","name":"Bayern"}},{"name":"Neydeckgasse","postalCode":"97082","locality":"Würzburg","municipality":{"key":"09663000","name":"Würzburg","type":"Kreisfreie_Stadt"},"district":{"key":"09663","name":"Würzburg","type":"Kreisfreie_Stadt"},"federalState":{"key":"09","name":"Bayern"}},{"name":"Nikolaus-Fey-Str.","postalCode":"97084","locality":"Würzburg","municipality":{"key":"09663000","name":"Würzburg","type":"Kreisfreie_Stadt"},"district":{"key":"09663","name":"Würzburg","type":"Kreisfreie_Stadt"},"federalState":{"key":"09","name":"Bayern"}},{"name":"Nikolaus-Neeb-Str.","postalCode":"97262","locality":"Hausen b. Würzburg","municipality":{"key":"09679143","name":"Hausen b.Würzburg","type":"Kreisangehörige_Gemeinde"},"district":{"key":"09679","name":"Würzburg","type":"Landkreis"},"federalState":{"key":"09","name":"Bayern"}},{"name":"Nikolausstr.","postalCode":"97082","locality":"Würzburg","municipality":{"key":"09663000","name":"Würzburg","type":"Kreisfreie_Stadt"},"district":{"key":"09663","name":"Würzburg","type":"Kreisfreie_Stadt"},"federalState":{"key":"09","name":"Bayern"}},{"name":"Nopitschstr.","postalCode":"97074","locality":"Würzburg","municipality":{"key":"09663000","name":"Würzburg","type":"Kreisfreie_Stadt"},"district":{"key":"09663","name":"Würzburg","type":"Kreisfreie_Stadt"},"federalState":{"key":"09","name":"Bayern"}},{"name":"Norbert-Glanzberg-Str.","postalCode":"97074","locality":"Würzburg","municipality":{"key":"09663000","name":"Würzburg","type":"Kreisfreie_Stadt"},"district":{"key":"09663","name":"Würzburg","type":"Kreisfreie_Stadt"},"federalState":{"key":"09","name":"Bayern"}},{"name":"Nördliche Hafenstr.","postalCode":"97080","locality":"Würzburg","municipality":{"key":"09663000","name":"Würzburg","type":"Kreisfreie_Stadt"},"district":{"key":"09663","name":"Würzburg","type":"Kreisfreie_Stadt"},"federalState":{"key":"09","name":"Bayern"}},{"name":"Nordtangente","postalCode":"97080","locality":"Würzburg","municipality":{"key":"09663000","name":"Würzburg","type":"Kreisfreie_Stadt"},"district":{"key":"09663","name":"Würzburg","type":"Kreisfreie_Stadt"},"federalState":{"key":"09","name":"Bayern"}},{"name":"Nürnberger Str.","postalCode":"97076","locality":"Würzburg","municipality":{"key":"09663000","name":"Würzburg","type":"Kreisfreie_Stadt"},"district":{"key":"09663","name":"Würzburg","type":"Kreisfreie_Stadt"},"federalState":{"key":"09","name":"Bayern"}},{"name":"Nußbaumweg","postalCode":"97084","locality":"Würzburg","municipality":{"key":"09663000","name":"Würzburg","type":"Kreisfreie_Stadt"},"district":{"key":"09663","name":"Würzburg","type":"Kreisfreie_Stadt"},"federalState":{"key":"09","name":"Bayern"}},{"name":"Obere Hofstatt","postalCode":"97286","locality":"Winterhausen","municipality":{"key":"09679206","name":"Winterhausen, M","type":"Markt"},"district":{"key":"09679","name":"Würzburg","type":"Landkreis"},"federalState":{"key":"09","name":"Bayern"}},{"name":"Oberer Wiesenweg","postalCode":"97286","locality":"Winterhausen","municipality":{"key":"09679206","name":"Winterhausen, M","type":"Markt"},"district":{"key":"09679","name":"Würzburg","type":"Landkreis"},"federalState":{"key":"09","name":"Bayern"}},{"name":"Pacotistr.","postalCode":"97076","locality":"Würzburg","municipality":{"key":"09663000","name":"Würzburg","type":"Kreisfreie_Stadt"},"district":{"key":"09663","name":"Würzburg","type":"Kreisfreie_Stadt"},"federalState":{"key":"09","name":"Bayern"}},{"name":"Paradeisstr.","postalCode":"97262","locality":"Hausen b. Würzburg","municipality":{"key":"09679143","name":"Hausen b.Würzburg","type":"Kreisangehörige_Gemeinde"},"district":{"key":"09679","name":"Würzburg","type":"Landkreis"},"federalState":{"key":"09","name":"Bayern"}},{"name":"Pariser Str.","postalCode":"97084","locality":"Würzburg","municipality":{"key":"09663000","name":"Würzburg","type":"Kreisfreie_Stadt"},"district":{"key":"09663","name":"Würzburg","type":"Kreisfreie_Stadt"},"federalState":{"key":"09","name":"Bayern"}},{"name":"Parsevalstr.","postalCode":"97074","locality":"Würzburg","municipality":{"key":"09663000","name":"Würzburg","type":"Kreisfreie_Stadt"},"district":{"key":"09663","name":"Würzburg","type":"Kreisfreie_Stadt"},"federalState":{"key":"09","name":"Bayern"}},{"name":"Pergamonweg","postalCode":"97084","locality":"Würzburg","municipality":{"key":"09663000","name":"Würzburg","type":"Kreisfreie_Stadt"},"district":{"key":"09663","name":"Würzburg","type":"Kreisfreie_Stadt"},"federalState":{"key":"09","name":"Bayern"}},{"name":"Pestalozzistr.","postalCode":"97080","locality":"Würzburg","municipality":{"key":"09663000","name":"Würzburg","type":"Kreisfreie_Stadt"},"district":{"key":"09663","name":"Würzburg","type":"Kreisfreie_Stadt"},"federalState":{"key":"09","name":"Bayern"}},{"name":"Peter-Haupt-Str.","postalCode":"97080","locality":"Würzburg","municipality":{"key":"09663000","name":"Würzburg","type":"Kreisfreie_Stadt"},"district":{"key":"09663","name":"Würzburg","type":"Kreisfreie_Stadt"},"federalState":{"key":"09","name":"Bayern"}},{"name":"Peterpfarrgasse","postalCode":"97070","locality":"Würzburg","municipality":{"key":"09663000","name":"Würzburg","type":"Kreisfreie_Stadt"},"district":{"key":"09663","name":"Würzburg","type":"Kreisfreie_Stadt"},"federalState":{"key":"09","name":"Bayern"}},{"name":"Peterplatz","postalCode":"97070","locality":"Würzburg","municipality":{"key":"09663000","name":"Würzburg","type":"Kreisfreie_Stadt"},"district":{"key":"09663","name":"Würzburg","type":"Kreisfreie_Stadt"},"federalState":{"key":"09","name":"Bayern"}},{"name":"Peter-Schneider-Str.","postalCode":"97074","locality":"Würzburg","municipality":{"key":"09663000","name":"Würzburg","type":"Kreisfreie_Stadt"},"district":{"key":"09663","name":"Würzburg","type":"Kreisfreie_Stadt"},"federalState":{"key":"09","name":"Bayern"}},{"name":"Peterstr.","postalCode":"97070","locality":"Würzburg","municipality":{"key":"09663000","name":"Würzburg","type":"Kreisfreie_Stadt"},"district":{"key":"09663","name":"Würzburg","type":"Kreisfreie_Stadt"},"federalState":{"key":"09","name":"Bayern"}},{"name":"Peter-Wagner-Str.","postalCode":"97080","locality":"Würzburg","municipality":{"key":"09663000","name":"Würzburg","type":"Kreisfreie_Stadt"},"district":{"key":"09663","name":"Würzburg","type":"Kreisfreie_Stadt"},"federalState":{"key":"09","name":"Bayern"}},{"name":"Pfaffenbergweg","postalCode":"97080","locality":"Würzburg","municipality":{"key":"09663000","name":"Würzburg","type":"Kreisfreie_Stadt"},"district":{"key":"09663","name":"Würzburg","type":"Kreisfreie_Stadt"},"federalState":{"key":"09","name":"Bayern"}},{"name":"Pfalzstr.","postalCode":"97078","locality":"Würzburg","municipality":{"key":"09663000","name":"Würzburg","type":"Kreisfreie_Stadt"},"district":{"key":"09663","name":"Würzburg","type":"Kreisfreie_Stadt"},"federalState":{"key":"09","name":"Bayern"}},{"name":"Pfarrer-Paul-Nützel-Str.","postalCode":"97082","locality":"Würzburg","municipality":{"key":"09663000","name":"Würzburg","type":"Kreisfreie_Stadt"},"district":{"key":"09663","name":"Würzburg","type":"Kreisfreie_Stadt"},"federalState":{"key":"09","name":"Bayern"}},{"name":"Pfauengasse","postalCode":"97070","locality":"Würzburg","municipality":{"key":"09663000","name":"Würzburg","type":"Kreisfreie_Stadt"},"district":{"key":"09663","name":"Würzburg","type":"Kreisfreie_Stadt"},"federalState":{"key":"09","name":"Bayern"}},{"name":"Philipp-Fasel-Str.","postalCode":"97076","locality":"Würzburg","municipality":{"key":"09663000","name":"Würzburg","type":"Kreisfreie_Stadt"},"district":{"key":"09663","name":"Würzburg","type":"Kreisfreie_Stadt"},"federalState":{"key":"09","name":"Bayern"}},{"name":"Pickelstr.","postalCode":"97080","locality":"Würzburg","municipality":{"key":"09663000","name":"Würzburg","type":"Kreisfreie_Stadt"},"district":{"key":"09663","name":"Würzburg","type":"Kreisfreie_Stadt"},"federalState":{"key":"09","name":"Bayern"}},{"name":"Pilziggrundstr.","postalCode":"97076","locality":"Würzburg","municipality":{"key":"09663000","name":"Würzburg","type":"Kreisfreie_Stadt"},"district":{"key":"09663","name":"Würzburg","type":"Kreisfreie_Stadt"},"federalState":{"key":"09","name":"Bayern"}},{"name":"Place de Caen","postalCode":"97084","locality":"Würzburg","municipality":{"key":"09663000","name":"Würzburg","type":"Kreisfreie_Stadt"},"district":{"key":"09663","name":"Würzburg","type":"Kreisfreie_Stadt"},"federalState":{"key":"09","name":"Bayern"}},{"name":"Planstr. Nord 14","postalCode":"97074","locality":"Würzburg","municipality":{"key":"09663000","name":"Würzburg","type":"Kreisfreie_Stadt"},"district":{"key":"09663","name":"Würzburg","type":"Kreisfreie_Stadt"},"federalState":{"key":"09","name":"Bayern"}},{"name":"Planstr. Nord 15","postalCode":"97074","locality":"Würzburg","municipality":{"key":"09663000","name":"Würzburg","type":"Kreisfreie_Stadt"},"district":{"key":"09663","name":"Würzburg","type":"Kreisfreie_Stadt"},"federalState":{"key":"09","name":"Bayern"}},{"name":"Planstr. Nord 17","postalCode":"97074","locality":"Würzburg","municipality":{"key":"09663000","name":"Würzburg","type":"Kreisfreie_Stadt"},"district":{"key":"09663","name":"Würzburg","type":"Kreisfreie_Stadt"},"federalState":{"key":"09","name":"Bayern"}},{"name":"Planstr. Nord 18","postalCode":"97074","locality":"Würzburg","municipality":{"key":"09663000","name":"Würzburg","type":"Kreisfreie_Stadt"},"district":{"key":"09663","name":"Würzburg","type":"Kreisfreie_Stadt"},"federalState":{"key":"09","name":"Bayern"}},{"name":"Planstr. Nord 19","postalCode":"97074","locality":"Würzburg","municipality":{"key":"09663000","name":"Würzburg","type":"Kreisfreie_Stadt"},"district":{"key":"09663","name":"Würzburg","type":"Kreisfreie_Stadt"},"federalState":{"key":"09","name":"Bayern"}},{"name":"Planstr. Nord 20","postalCode":"97074","locality":"Würzburg","municipality":{"key":"09663000","name":"Würzburg","type":"Kreisfreie_Stadt"},"district":{"key":"09663","name":"Würzburg","type":"Kreisfreie_Stadt"},"federalState":{"key":"09","name":"Bayern"}},{"name":"Planstr. Nord 21","postalCode":"97074","locality":"Würzburg","municipality":{"key":"09663000","name":"Würzburg","type":"Kreisfreie_Stadt"},"district":{"key":"09663","name":"Würzburg","type":"Kreisfreie_Stadt"},"federalState":{"key":"09","name":"Bayern"}},{"name":"Planstr. Nord 22","postalCode":"97074","locality":"Würzburg","municipality":{"key":"09663000","name":"Würzburg","type":"Kreisfreie_Stadt"},"district":{"key":"09663","name":"Würzburg","type":"Kreisfreie_Stadt"},"federalState":{"key":"09","name":"Bayern"}},{"name":"Planstr. Nord 23","postalCode":"97074","locality":"Würzburg","municipality":{"key":"09663000","name":"Würzburg","type":"Kreisfreie_Stadt"},"district":{"key":"09663","name":"Würzburg","type":"Kreisfreie_Stadt"},"federalState":{"key":"09","name":"Bayern"}},{"name":"Planstr. Nord 24","postalCode":"97074","locality":"Würzburg","municipality":{"key":"09663000","name":"Würzburg","type":"Kreisfreie_Stadt"},"district":{"key":"09663","name":"Würzburg","type":"Kreisfreie_Stadt"},"federalState":{"key":"09","name":"Bayern"}},{"name":"Planstr. Nord 25","postalCode":"97074","locality":"Würzburg","municipality":{"key":"09663000","name":"Würzburg","type":"Kreisfreie_Stadt"},"district":{"key":"09663","name":"Würzburg","type":"Kreisfreie_Stadt"},"federalState":{"key":"09","name":"Bayern"}},{"name":"Planstr. Nord 26","postalCode":"97074","locality":"Würzburg","municipality":{"key":"09663000","name":"Würzburg","type":"Kreisfreie_Stadt"},"district":{"key":"09663","name":"Würzburg","type":"Kreisfreie_Stadt"},"federalState":{"key":"09","name":"Bayern"}},{"name":"Platenstr.","postalCode":"97072","locality":"Würzburg","municipality":{"key":"09663000","name":"Würzburg","type":"Kreisfreie_Stadt"},"district":{"key":"09663","name":"Würzburg","type":"Kreisfreie_Stadt"},"federalState":{"key":"09","name":"Bayern"}},{"name":"Plattnerstr.","postalCode":"97070","locality":"Würzburg","municipality":{"key":"09663000","name":"Würzburg","type":"Kreisfreie_Stadt"},"district":{"key":"09663","name":"Würzburg","type":"Kreisfreie_Stadt"},"federalState":{"key":"09","name":"Bayern"}},{"name":"Platz der Brieftauben","postalCode":"97082","locality":"Würzburg","municipality":{"key":"09663000","name":"Würzburg","type":"Kreisfreie_Stadt"},"district":{"key":"09663","name":"Würzburg","type":"Kreisfreie_Stadt"},"federalState":{"key":"09","name":"Bayern"}},{"name":"Platz der Fischerzunft","postalCode":"97082","locality":"Würzburg","municipality":{"key":"09663000","name":"Würzburg","type":"Kreisfreie_Stadt"},"district":{"key":"09663","name":"Würzburg","type":"Kreisfreie_Stadt"},"federalState":{"key":"09","name":"Bayern"}},{"name":"Pleichachgrund","postalCode":"97078","locality":"Würzburg","municipality":{"key":"09663000","name":"Würzburg","type":"Kreisfreie_Stadt"},"district":{"key":"09663","name":"Würzburg","type":"Kreisfreie_Stadt"},"federalState":{"key":"09","name":"Bayern"}},{"name":"Pleicherkirchgasse","postalCode":"97070","locality":"Würzburg","municipality":{"key":"09663000","name":"Würzburg","type":"Kreisfreie_Stadt"},"district":{"key":"09663","name":"Würzburg","type":"Kreisfreie_Stadt"},"federalState":{"key":"09","name":"Bayern"}},{"name":"Pleicher Passage","postalCode":"97070","locality":"Würzburg","municipality":{"key":"09663000","name":"Würzburg","type":"Kreisfreie_Stadt"},"district":{"key":"09663","name":"Würzburg","type":"Kreisfreie_Stadt"},"federalState":{"key":"09","name":"Bayern"}},{"name":"Pleicherpfarrgasse","postalCode":"97070","locality":"Würzburg","municipality":{"key":"09663000","name":"Würzburg","type":"Kreisfreie_Stadt"},"district":{"key":"09663","name":"Würzburg","type":"Kreisfreie_Stadt"},"federalState":{"key":"09","name":"Bayern"}},{"name":"Pleicherschulgasse","postalCode":"97070","locality":"Würzburg","municipality":{"key":"09663000","name":"Würzburg","type":"Kreisfreie_Stadt"},"district":{"key":"09663","name":"Würzburg","type":"Kreisfreie_Stadt"},"federalState":{"key":"09","name":"Bayern"}},{"name":"Pleichertorstr.","postalCode":"97070","locality":"Würzburg","municipality":{"key":"09663000","name":"Würzburg","type":"Kreisfreie_Stadt"},"district":{"key":"09663","name":"Würzburg","type":"Kreisfreie_Stadt"},"federalState":{"key":"09","name":"Bayern"}},{"name":"Pleicherwall","postalCode":"97070","locality":"Würzburg","municipality":{"key":"09663000","name":"Würzburg","type":"Kreisfreie_Stadt"},"district":{"key":"09663","name":"Würzburg","type":"Kreisfreie_Stadt"},"federalState":{"key":"09","name":"Bayern"}},{"name":"Pommergasse","postalCode":"97070","locality":"Würzburg","municipality":{"key":"09663000","name":"Würzburg","type":"Kreisfreie_Stadt"},"district":{"key":"09663","name":"Würzburg","type":"Kreisfreie_Stadt"},"federalState":{"key":"09","name":"Bayern"}},{"name":"Poppspfad","postalCode":"97074","locality":"Würzburg","municipality":{"key":"09663000","name":"Würzburg","type":"Kreisfreie_Stadt"},"district":{"key":"09663","name":"Würzburg","type":"Kreisfreie_Stadt"},"federalState":{"key":"09","name":"Bayern"}},{"name":"Prager Ring","postalCode":"97084","locality":"Würzburg","municipality":{"key":"09663000","name":"Würzburg","type":"Kreisfreie_Stadt"},"district":{"key":"09663","name":"Würzburg","type":"Kreisfreie_Stadt"},"federalState":{"key":"09","name":"Bayern"}},{"name":"Prof.-Heribert-Braun-Weg","postalCode":"97078","locality":"Würzburg","municipality":{"key":"09663000","name":"Würzburg","type":"Kreisfreie_Stadt"},"district":{"key":"09663","name":"Würzburg","type":"Kreisfreie_Stadt"},"federalState":{"key":"09","name":"Bayern"}},{"name":"Prymstr.","postalCode":"97070","locality":"Würzburg","municipality":{"key":"09663000","name":"Würzburg","type":"Kreisfreie_Stadt"},"district":{"key":"09663","name":"Würzburg","type":"Kreisfreie_Stadt"},"federalState":{"key":"09","name":"Bayern"}},{"name":"Rathausplatz","postalCode":"97286","locality":"Winterhausen","municipality":{"key":"09679206","name":"Winterhausen, M","type":"Markt"},"district":{"key":"09679","name":"Würzburg","type":"Landkreis"},"federalState":{"key":"09","name":"Bayern"}},{"name":"Rosenweg","postalCode":"97286","locality":"Winterhausen","municipality":{"key":"09679206","name":"Winterhausen, M","type":"Markt"},"district":{"key":"09679","name":"Würzburg","type":"Landkreis"},"federalState":{"key":"09","name":"Bayern"}},{"name":"Scheinsberg","postalCode":"97286","locality":"Winterhausen","municipality":{"key":"09679206","name":"Winterhausen, M","type":"Markt"},"district":{"key":"09679","name":"Würzburg","type":"Landkreis"},"federalState":{"key":"09","name":"Bayern"}},{"name":"Schönleite","postalCode":"97286","locality":"Winterhausen","municipality":{"key":"09679206","name":"Winterhausen, M","type":"Markt"},"district":{"key":"09679","name":"Würzburg","type":"Landkreis"},"federalState":{"key":"09","name":"Bayern"}},{"name":"Schützenweg","postalCode":"97286","locality":"Winterhausen","municipality":{"key":"09679206","name":"Winterhausen, M","type":"Markt"},"district":{"key":"09679","name":"Würzburg","type":"Landkreis"},"federalState":{"key":"09","name":"Bayern"}},{"name":"Sportplatzweg","postalCode":"97286","locality":"Winterhausen","municipality":{"key":"09679206","name":"Winterhausen, M","type":"Markt"},"district":{"key":"09679","name":"Würzburg","type":"Landkreis"},"federalState":{"key":"09","name":"Bayern"}},{"name":"Talavera","postalCode":"97082","locality":"Würzburg","municipality":{"key":"09663000","name":"Würzburg","type":"Kreisfreie_Stadt"},"district":{"key":"09663","name":"Würzburg","type":"Kreisfreie_Stadt"},"federalState":{"key":"09","name":"Bayern"}},{"name":"Talweg","postalCode":"97076","locality":"Würzburg","municipality":{"key":"09663000","name":"Würzburg","type":"Kreisfreie_Stadt"},"district":{"key":"09663","name":"Würzburg","type":"Kreisfreie_Stadt"},"federalState":{"key":"09","name":"Bayern"}},{"name":"Tannenweg","postalCode":"97084","locality":"Würzburg","municipality":{"key":"09663000","name":"Würzburg","type":"Kreisfreie_Stadt"},"district":{"key":"09663","name":"Würzburg","type":"Kreisfreie_Stadt"},"federalState":{"key":"09","name":"Bayern"}},{"name":"Tannenweg","postalCode":"97262","locality":"Hausen b. Würzburg","municipality":{"key":"09679143","name":"Hausen b.Würzburg","type":"Kreisangehörige_Gemeinde"},"district":{"key":"09679","name":"Würzburg","type":"Landkreis"},"federalState":{"key":"09","name":"Bayern"}},{"name":"Taschenäckerweg","postalCode":"97084","locality":"Würzburg","municipality":{"key":"09663000","name":"Würzburg","type":"Kreisfreie_Stadt"},"district":{"key":"09663","name":"Würzburg","type":"Kreisfreie_Stadt"},"federalState":{"key":"09","name":"Bayern"}},{"name":"Taschenpfad","postalCode":"97076","locality":"Würzburg","municipality":{"key":"09663000","name":"Würzburg","type":"Kreisfreie_Stadt"},"district":{"key":"09663","name":"Würzburg","type":"Kreisfreie_Stadt"},"federalState":{"key":"09","name":"Bayern"}},{"name":"Tellsteige","postalCode":"97082","locality":"Würzburg","municipality":{"key":"09663000","name":"Würzburg","type":"Kreisfreie_Stadt"},"district":{"key":"09663","name":"Würzburg","type":"Kreisfreie_Stadt"},"federalState":{"key":"09","name":"Bayern"}},{"name":"Textorstr.","postalCode":"97070","locality":"Würzburg","municipality":{"key":"09663000","name":"Würzburg","type":"Kreisfreie_Stadt"},"district":{"key":"09663","name":"Würzburg","type":"Kreisfreie_Stadt"},"federalState":{"key":"09","name":"Bayern"}},{"name":"Theaterstr.","postalCode":"97070","locality":"Würzburg","municipality":{"key":"09663000","name":"Würzburg","type":"Kreisfreie_Stadt"},"district":{"key":"09663","name":"Würzburg","type":"Kreisfreie_Stadt"},"federalState":{"key":"09","name":"Bayern"}},{"name":"Thebenweg","postalCode":"97084","locality":"Würzburg","municipality":{"key":"09663000","name":"Würzburg","type":"Kreisfreie_Stadt"},"district":{"key":"09663","name":"Würzburg","type":"Kreisfreie_Stadt"},"federalState":{"key":"09","name":"Bayern"}},{"name":"Theodor-Heuss-Damm","postalCode":"97072","locality":"Würzburg","municipality":{"key":"09663000","name":"Würzburg","type":"Kreisfreie_Stadt"},"district":{"key":"09663","name":"Würzburg","type":"Kreisfreie_Stadt"},"federalState":{"key":"09","name":"Bayern"}},{"name":"Theodor-Körner-Str.","postalCode":"97072","locality":"Würzburg","municipality":{"key":"09663000","name":"Würzburg","type":"Kreisfreie_Stadt"},"district":{"key":"09663","name":"Würzburg","type":"Kreisfreie_Stadt"},"federalState":{"key":"09","name":"Bayern"}},{"name":"Theresienstr.","postalCode":"97070","locality":"Würzburg","municipality":{"key":"09663000","name":"Würzburg","type":"Kreisfreie_Stadt"},"district":{"key":"09663","name":"Würzburg","type":"Kreisfreie_Stadt"},"federalState":{"key":"09","name":"Bayern"}},{"name":"Thüringerstr.","postalCode":"97078","locality":"Würzburg","municipality":{"key":"09663000","name":"Würzburg","type":"Kreisfreie_Stadt"},"district":{"key":"09663","name":"Würzburg","type":"Kreisfreie_Stadt"},"federalState":{"key":"09","name":"Bayern"}},{"name":"Tiefe Gasse","postalCode":"97084","locality":"Würzburg","municipality":{"key":"09663000","name":"Würzburg","type":"Kreisfreie_Stadt"},"district":{"key":"09663","name":"Würzburg","type":"Kreisfreie_Stadt"},"federalState":{"key":"09","name":"Bayern"}},{"name":"Tiefe Gasse","postalCode":"97262","locality":"Hausen b. Würzburg","municipality":{"key":"09679143","name":"Hausen b.Würzburg","type":"Kreisangehörige_Gemeinde"},"district":{"key":"09679","name":"Würzburg","type":"Landkreis"},"federalState":{"key":"09","name":"Bayern"}},{"name":"Tiefkai","postalCode":"97070","locality":"Würzburg","municipality":{"key":"09663000","name":"Würzburg","type":"Kreisfreie_Stadt"},"district":{"key":"09663","name":"Würzburg","type":"Kreisfreie_Stadt"},"federalState":{"key":"09","name":"Bayern"}},{"name":"Tiepolostr.","postalCode":"97070","locality":"Würzburg","municipality":{"key":"09663000","name":"Würzburg","type":"Kreisfreie_Stadt"},"district":{"key":"09663","name":"Würzburg","type":"Kreisfreie_Stadt"},"federalState":{"key":"09","name":"Bayern"}},{"name":"Tilsiter Str.","postalCode":"97072","locality":"Würzburg","municipality":{"key":"09663000","name":"Würzburg","type":"Kreisfreie_Stadt"},"district":{"key":"09663","name":"Würzburg","type":"Kreisfreie_Stadt"},"federalState":{"key":"09","name":"Bayern"}},{"name":"Tokiostr.","postalCode":"97084","locality":"Würzburg","municipality":{"key":"09663000","name":"Würzburg","type":"Kreisfreie_Stadt"},"district":{"key":"09663","name":"Würzburg","type":"Kreisfreie_Stadt"},"federalState":{"key":"09","name":"Bayern"}},{"name":"Toräckerweg","postalCode":"97084","locality":"Würzburg","municipality":{"key":"09663000","name":"Würzburg","type":"Kreisfreie_Stadt"},"district":{"key":"09663","name":"Würzburg","type":"Kreisfreie_Stadt"},"federalState":{"key":"09","name":"Bayern"}},{"name":"Traubengasse","postalCode":"97072","locality":"Würzburg","municipality":{"key":"09663000","name":"Würzburg","type":"Kreisfreie_Stadt"},"district":{"key":"09663","name":"Würzburg","type":"Kreisfreie_Stadt"},"federalState":{"key":"09","name":"Bayern"}},{"name":"Trautenauer Str.","postalCode":"97074","locality":"Würzburg","municipality":{"key":"09663000","name":"Würzburg","type":"Kreisfreie_Stadt"},"district":{"key":"09663","name":"Würzburg","type":"Kreisfreie_Stadt"},"federalState":{"key":"09","name":"Bayern"}},{"name":"Triebweg","postalCode":"97262","locality":"Hausen b. Würzburg","municipality":{"key":"09679143","name":"Hausen b.Würzburg","type":"Kreisangehörige_Gemeinde"},"district":{"key":"09679","name":"Würzburg","type":"Landkreis"},"federalState":{"key":"09","name":"Bayern"}},{"name":"Trojaweg","postalCode":"97084","locality":"Würzburg","municipality":{"key":"09663000","name":"Würzburg","type":"Kreisfreie_Stadt"},"district":{"key":"09663","name":"Würzburg","type":"Kreisfreie_Stadt"},"federalState":{"key":"09","name":"Bayern"}},{"name":"Tröltschstr.","postalCode":"97072","locality":"Würzburg","municipality":{"key":"09663000","name":"Würzburg","type":"Kreisfreie_Stadt"},"district":{"key":"09663","name":"Würzburg","type":"Kreisfreie_Stadt"},"federalState":{"key":"09","name":"Bayern"}},{"name":"Tulpenstr.","postalCode":"97084","locality":"Würzburg","municipality":{"key":"09663000","name":"Würzburg","type":"Kreisfreie_Stadt"},"district":{"key":"09663","name":"Würzburg","type":"Kreisfreie_Stadt"},"federalState":{"key":"09","name":"Bayern"}},{"name":"Turmgasse","postalCode":"97070","locality":"Würzburg","municipality":{"key":"09663000","name":"Würzburg","type":"Kreisfreie_Stadt"},"district":{"key":"09663","name":"Würzburg","type":"Kreisfreie_Stadt"},"federalState":{"key":"09","name":"Bayern"}},{"name":"Untere Hofstatt","postalCode":"97286","locality":"Winterhausen","municipality":{"key":"09679206","name":"Winterhausen, M","type":"Markt"},"district":{"key":"09679","name":"Würzburg","type":"Landkreis"},"federalState":{"key":"09","name":"Bayern"}},{"name":"Uptalweg","postalCode":"97286","locality":"Winterhausen","municipality":{"key":"09679206","name":"Winterhausen, M","type":"Markt"},"district":{"key":"09679","name":"Würzburg","type":"Landkreis"},"federalState":{"key":"09","name":"Bayern"}},{"name":"Valentin-Becker-Str.","postalCode":"97072","locality":"Würzburg","municipality":{"key":"09663000","name":"Würzburg","type":"Kreisfreie_Stadt"},"district":{"key":"09663","name":"Würzburg","type":"Kreisfreie_Stadt"},"federalState":{"key":"09","name":"Bayern"}},{"name":"Veitshöchheimer Str.","postalCode":"97070","locality":"Würzburg","municipality":{"key":"09663000","name":"Würzburg","type":"Kreisfreie_Stadt"},"district":{"key":"09663","name":"Würzburg","type":"Kreisfreie_Stadt"},"federalState":{"key":"09","name":"Bayern"}},{"name":"Veitshöchheimer Str.","postalCode":"97080","locality":"Würzburg","municipality":{"key":"09663000","name":"Würzburg","type":"Kreisfreie_Stadt"},"district":{"key":"09663","name":"Würzburg","type":"Kreisfreie_Stadt"},"federalState":{"key":"09","name":"Bayern"}},{"name":"Versbacher Landstr.","postalCode":"97078","locality":"Würzburg","municipality":{"key":"09663000","name":"Würzburg","type":"Kreisfreie_Stadt"},"district":{"key":"09663","name":"Würzburg","type":"Kreisfreie_Stadt"},"federalState":{"key":"09","name":"Bayern"}},{"name":"Versbacher Röthe","postalCode":"97078","locality":"Würzburg","municipality":{"key":"09663000","name":"Würzburg","type":"Kreisfreie_Stadt"},"district":{"key":"09663","name":"Würzburg","type":"Kreisfreie_Stadt"},"federalState":{"key":"09","name":"Bayern"}},{"name":"Versbacher Str.","postalCode":"97078","locality":"Würzburg","municipality":{"key":"09663000","name":"Würzburg","type":"Kreisfreie_Stadt"},"district":{"key":"09663","name":"Würzburg","type":"Kreisfreie_Stadt"},"federalState":{"key":"09","name":"Bayern"}},{"name":"Vierwindenweg","postalCode":"97078","locality":"Würzburg","municipality":{"key":"09663000","name":"Würzburg","type":"Kreisfreie_Stadt"},"district":{"key":"09663","name":"Würzburg","type":"Kreisfreie_Stadt"},"federalState":{"key":"09","name":"Bayern"}},{"name":"Villengarten","postalCode":"97082","locality":"Würzburg","municipality":{"key":"09663000","name":"Würzburg","type":"Kreisfreie_Stadt"},"district":{"key":"09663","name":"Würzburg","type":"Kreisfreie_Stadt"},"federalState":{"key":"09","name":"Bayern"}},{"name":"Virchowstr.","postalCode":"97072","locality":"Würzburg","municipality":{"key":"09663000","name":"Würzburg","type":"Kreisfreie_Stadt"},"district":{"key":"09663","name":"Würzburg","type":"Kreisfreie_Stadt"},"federalState":{"key":"09","name":"Bayern"}},{"name":"Vogelsangweg","postalCode":"97076","locality":"Würzburg","municipality":{"key":"09663000","name":"Würzburg","type":"Kreisfreie_Stadt"},"district":{"key":"09663","name":"Würzburg","type":"Kreisfreie_Stadt"},"federalState":{"key":"09","name":"Bayern"}},{"name":"Voglerstr.","postalCode":"97074","locality":"Würzburg","municipality":{"key":"09663000","name":"Würzburg","type":"Kreisfreie_Stadt"},"district":{"key":"09663","name":"Würzburg","type":"Kreisfreie_Stadt"},"federalState":{"key":"09","name":"Bayern"}},{"name":"Von-Luxburg-Str.","postalCode":"97074","locality":"Würzburg","municipality":{"key":"09663000","name":"Würzburg","type":"Kreisfreie_Stadt"},"district":{"key":"09663","name":"Würzburg","type":"Kreisfreie_Stadt"},"federalState":{"key":"09","name":"Bayern"}},{"name":"Von-Mieg-Str.","postalCode":"97082","locality":"Würzburg","municipality":{"key":"09663000","name":"Würzburg","type":"Kreisfreie_Stadt"},"district":{"key":"09663","name":"Würzburg","type":"Kreisfreie_Stadt"},"federalState":{"key":"09","name":"Bayern"}},{"name":"Werrweg","postalCode":"97286","locality":"Winterhausen","municipality":{"key":"09679206","name":"Winterhausen, M","type":"Markt"},"district":{"key":"09679","name":"Würzburg","type":"Landkreis"},"federalState":{"key":"09","name":"Bayern"}},{"name":"Wiesenweg","postalCode":"97286","locality":"Winterhausen","municipality":{"key":"09679206","name":"Winterhausen, M","type":"Markt"},"district":{"key":"09679","name":"Würzburg","type":"Landkreis"},"federalState":{"key":"09","name":"Bayern"}},{"name":"Winterhäuser Str.","postalCode":"97286","locality":"Winterhausen","municipality":{"key":"09679206","name":"Winterhausen, M","type":"Markt"},"district":{"key":"09679","name":"Würzburg","type":"Landkreis"},"federalState":{"key":"09","name":"Bayern"}},{"name":"Ysenburgstr.","postalCode":"97082","locality":"Würzburg","municipality":{"key":"09663000","name":"Würzburg","type":"Kreisfreie_Stadt"},"district":{"key":"09663","name":"Würzburg","type":"Kreisfreie_Stadt"},"federalState":{"key":"09","name":"Bayern"}},{"name":"Y-Spange","postalCode":"97084","locality":"Würzburg","municipality":{"key":"09663000","name":"Würzburg","type":"Kreisfreie_Stadt"},"district":{"key":"09663","name":"Würzburg","type":"Kreisfreie_Stadt"},"federalState":{"key":"09","name":"Bayern"}},{"name":"Zehntgasse","postalCode":"97084","locality":"Würzburg","municipality":{"key":"09663000","name":"Würzburg","type":"Kreisfreie_Stadt"},"district":{"key":"09663","name":"Würzburg","type":"Kreisfreie_Stadt"},"federalState":{"key":"09","name":"Bayern"}},{"name":"Zehnthofstr.","postalCode":"97080","locality":"Würzburg","municipality":{"key":"09663000","name":"Würzburg","type":"Kreisfreie_Stadt"},"district":{"key":"09663","name":"Würzburg","type":"Kreisfreie_Stadt"},"federalState":{"key":"09","name":"Bayern"}},{"name":"Zellerauer Marktplatz","postalCode":"97082","locality":"Würzburg","municipality":{"key":"09663000","name":"Würzburg","type":"Kreisfreie_Stadt"},"district":{"key":"09663","name":"Würzburg","type":"Kreisfreie_Stadt"},"federalState":{"key":"09","name":"Bayern"}},{"name":"Zeller Str.","postalCode":"97082","locality":"Würzburg","municipality":{"key":"09663000","name":"Würzburg","type":"Kreisfreie_Stadt"},"district":{"key":"09663","name":"Würzburg","type":"Kreisfreie_Stadt"},"federalState":{"key":"09","name":"Bayern"}},{"name":"Zeppelinstr.","postalCode":"97074","locality":"Würzburg","municipality":{"key":"09663000","name":"Würzburg","type":"Kreisfreie_Stadt"},"district":{"key":"09663","name":"Würzburg","type":"Kreisfreie_Stadt"},"federalState":{"key":"09","name":"Bayern"}},{"name":"Ziegelaustr.","postalCode":"97080","locality":"Würzburg","municipality":{"key":"09663000","name":"Würzburg","type":"Kreisfreie_Stadt"},"district":{"key":"09663","name":"Würzburg","type":"Kreisfreie_Stadt"},"federalState":{"key":"09","name":"Bayern"}},{"name":"Ziegelhütte","postalCode":"97080","locality":"Würzburg","municipality":{"key":"09663000","name":"Würzburg","type":"Kreisfreie_Stadt"},"district":{"key":"09663","name":"Würzburg","type":"Kreisfreie_Stadt"},"federalState":{"key":"09","name":"Bayern"}},{"name":"Zindelgasse","postalCode":"97084","locality":"Würzburg","municipality":{"key":"09663000","name":"Würzburg","type":"Kreisfreie_Stadt"},"district":{"key":"09663","name":"Würzburg","type":"Kreisfreie_Stadt"},"federalState":{"key":"09","name":"Bayern"}},{"name":"Zinkhof","postalCode":"97070","locality":"Würzburg","municipality":{"key":"09663000","name":"Würzburg","type":"Kreisfreie_Stadt"},"district":{"key":"09663","name":"Würzburg","type":"Kreisfreie_Stadt"},"federalState":{"key":"09","name":"Bayern"}},{"name":"Zinklesweg","postalCode":"97078","locality":"Würzburg","municipality":{"key":"09663000","name":"Würzburg","type":"Kreisfreie_Stadt"},"district":{"key":"09663","name":"Würzburg","type":"Kreisfreie_Stadt"},"federalState":{"key":"09","name":"Bayern"}},{"name":"Zobelweg","postalCode":"97084","locality":"Würzburg","municipality":{"key":"09663000","name":"Würzburg","type":"Kreisfreie_Stadt"},"district":{"key":"09663","name":"Würzburg","type":"Kreisfreie_Stadt"},"federalState":{"key":"09","name":"Bayern"}},{"name":"Zugang: Marktgarage","postalCode":"97070","locality":"Würzburg","municipality":{"key":"09663000","name":"Würzburg","type":"Kreisfreie_Stadt"},"district":{"key":"09663","name":"Würzburg","type":"Kreisfreie_Stadt"},"federalState":{"key":"09","name":"Bayern"}},{"name":"Zülbsgasse","postalCode":"97084","locality":"Würzburg","municipality":{"key":"09663000","name":"Würzburg","type":"Kreisfreie_Stadt"},"district":{"key":"09663","name":"Würzburg","type":"Kreisfreie_Stadt"},"federalState":{"key":"09","name":"Bayern"}},{"name":"Zum Himmelreich","postalCode":"97084","locality":"Würzburg","municipality":{"key":"09663000","name":"Würzburg","type":"Kreisfreie_Stadt"},"district":{"key":"09663","name":"Würzburg","type":"Kreisfreie_Stadt"},"federalState":{"key":"09","name":"Bayern"}},{"name":"Zum Scheibental","postalCode":"97076","locality":"Würzburg","municipality":{"key":"09663000","name":"Würzburg","type":"Kreisfreie_Stadt"},"district":{"key":"09663","name":"Würzburg","type":"Kreisfreie_Stadt"},"federalState":{"key":"09","name":"Bayern"}},{"name":"Zum Sportplatz","postalCode":"97080","locality":"Würzburg","municipality":{"key":"09663000","name":"Würzburg","type":"Kreisfreie_Stadt"},"district":{"key":"09663","name":"Würzburg","type":"Kreisfreie_Stadt"},"federalState":{"key":"09","name":"Bayern"}},{"name":"Zum Storchenbrünnlein","postalCode":"97084","locality":"Würzburg","municipality":{"key":"09663000","name":"Würzburg","type":"Kreisfreie_Stadt"},"district":{"key":"09663","name":"Würzburg","type":"Kreisfreie_Stadt"},"federalState":{"key":"09","name":"Bayern"}},{"name":"Zum Tännig","postalCode":"97078","locality":"Würzburg","municipality":{"key":"09663000","name":"Würzburg","type":"Kreisfreie_Stadt"},"district":{"key":"09663","name":"Würzburg","type":"Kreisfreie_Stadt"},"federalState":{"key":"09","name":"Bayern"}},{"name":"Zu-Rhein-Str.","postalCode":"97074","locality":"Würzburg","municipality":{"key":"09663000","name":"Würzburg","type":"Kreisfreie_Stadt"},"district":{"key":"09663","name":"Würzburg","type":"Kreisfreie_Stadt"},"federalState":{"key":"09","name":"Bayern"}},{"name":"Zürnstr.","postalCode":"97074","locality":"Würzburg","municipality":{"key":"09663000","name":"Würzburg","type":"Kreisfreie_Stadt"},"district":{"key":"09663","name":"Würzburg","type":"Kreisfreie_Stadt"},"federalState":{"key":"09","name":"Bayern"}},{"name":"zur schönen Aussicht","postalCode":"97082","locality":"Würzburg","municipality":{"key":"09663000","name":"Würzburg","type":"Kreisfreie_Stadt"},"district":{"key":"09663","name":"Würzburg","type":"Kreisfreie_Stadt"},"federalState":{"key":"09","name":"Bayern"}},{"name":"Zur Würzburger Mehle","postalCode":"97084","locality":"Würzburg","municipality":{"key":"09663000","name":"Würzburg","type":"Kreisfreie_Stadt"},"district":{"key":"09663","name":"Würzburg","type":"Kreisfreie_Stadt"},"federalState":{"key":"09","name":"Bayern"}},{"name":"Zweierweg","postalCode":"97074","locality":"Würzburg","municipality":{"key":"09663000","name":"Würzburg","type":"Kreisfreie_Stadt"},"district":{"key":"09663","name":"Würzburg","type":"Kreisfreie_Stadt"},"federalState":{"key":"09","name":"Bayern"}},{"name":"Zweite Felsengasse","postalCode":"97082","locality":"Würzburg","municipality":{"key":"09663000","name":"Würzburg","type":"Kreisfreie_Stadt"},"district":{"key":"09663","name":"Würzburg","type":"Kreisfreie_Stadt"},"federalState":{"key":"09","name":"Bayern"}},{"name":"Zweiter Siedlungsweg","postalCode":"97082","locality":"Würzburg","municipality":{"key":"09663000","name":"Würzburg","type":"Kreisfreie_Stadt"},"district":{"key":"09663","name":"Würzburg","type":"Kreisfreie_Stadt"},"federalState":{"key":"09","name":"Bayern"}},{"name":"Zwerchgraben","postalCode":"97074","locality":"Würzburg","municipality":{"key":"09663000","name":"Würzburg","type":"Kreisfreie_Stadt"},"district":{"key":"09663","name":"Würzburg","type":"Kreisfreie_Stadt"},"federalState":{"key":"09","name":"Bayern"}},{"name":"Zwinger","postalCode":"97070","locality":"Würzburg","municipality":{"key":"09663000","name":"Würzburg","type":"Kreisfreie_Stadt"},"district":{"key":"09663","name":"Würzburg","type":"Kreisfreie_Stadt"},"federalState":{"key":"09","name":"Bayern"}},{"name":"Äußere Gasse","postalCode":"97286","locality":"Winterhausen","municipality":{"key":"09679206","name":"Winterhausen, M","type":"Markt"},"district":{"key":"09679","name":"Würzburg","type":"Landkreis"},"federalState":{"key":"09","name":"Bayern"}},{"name":"Öhlberg","postalCode":"97080","locality":"Würzburg","municipality":{"key":"09663000","name":"Würzburg","type":"Kreisfreie_Stadt"},"district":{"key":"09663","name":"Würzburg","type":"Kreisfreie_Stadt"},"federalState":{"key":"09","name":"Bayern"}},]