[{"key":"10125842","name":"Aesplistrasse","postalCode":"4562","locality":"Biberist","commune":{"key":"2513","name":"Biberist","shortName":"Biberist"},"district":{"key":"1106","name":"Bezirk Wasseramt"},"canton":{"key":"11","code":"SO","name":"Solothurn"},"status":"Real"},{"key":"10214716","name":"Alte Bernstrasse","postalCode":"4562","locality":"Biberist","commune":{"key":"2513","name":"Biberist","shortName":"Biberist"},"district":{"key":"1106","name":"Bezirk Wasseramt"},"canton":{"key":"11","code":"SO","name":"Solothurn"},"status":"Real"},{"key":"10089773","name":"Alte Derendingenstrasse","postalCode":"4562","locality":"Biberist","commune":{"key":"2513","name":"Biberist","shortName":"Biberist"},"district":{"key":"1106","name":"Bezirk Wasseramt"},"canton":{"key":"11","code":"SO","name":"Solothurn"},"status":"Real"},{"key":"10188260","name":"Alte Gerlafingenstrasse","postalCode":"4562","locality":"Biberist","commune":{"key":"2513","name":"Biberist","shortName":"Biberist"},"district":{"key":"1106","name":"Bezirk Wasseramt"},"canton":{"key":"11","code":"SO","name":"Solothurn"},"status":"Real"},{"key":"10055511","name":"Altisbergstrasse","postalCode":"4562","locality":"Biberist","commune":{"key":"2513","name":"Biberist","shortName":"Biberist"},"district":{"key":"1106","name":"Bezirk Wasseramt"},"canton":{"key":"11","code":"SO","name":"Solothurn"},"status":"Real"},{"key":"10214720","name":"Altisbergwald","postalCode":"4562","locality":"Biberist","commune":{"key":"2513","name":"Biberist","shortName":"Biberist"},"district":{"key":"1106","name":"Bezirk Wasseramt"},"canton":{"key":"11","code":"SO","name":"Solothurn"},"status":"Real"},{"key":"10023342","name":"Altismattstrasse","postalCode":"4562","locality":"Biberist","commune":{"key":"2513","name":"Biberist","shortName":"Biberist"},"district":{"key":"1106","name":"Bezirk Wasseramt"},"canton":{"key":"11","code":"SO","name":"Solothurn"},"status":"Real"},{"key":"10023343","name":"Amselweg","postalCode":"4562","locality":"Biberist","commune":{"key":"2513","name":"Biberist","shortName":"Biberist"},"district":{"key":"1106","name":"Bezirk Wasseramt"},"canton":{"key":"11","code":"SO","name":"Solothurn"},"status":"Real"},{"key":"10214724","name":"Asternweg","postalCode":"4562","locality":"Biberist","commune":{"key":"2513","name":"Biberist","shortName":"Biberist"},"district":{"key":"1106","name":"Bezirk Wasseramt"},"canton":{"key":"11","code":"SO","name":"Solothurn"},"status":"Real"},{"key":"10186212","name":"Asylweg","postalCode":"4562","locality":"Biberist","commune":{"key":"2513","name":"Biberist","shortName":"Biberist"},"district":{"key":"1106","name":"Bezirk Wasseramt"},"canton":{"key":"11","code":"SO","name":"Solothurn"},"status":"Real"},{"key":"10242662","name":"Autobahn A5","postalCode":"4562","locality":"Biberist","commune":{"key":"2513","name":"Biberist","shortName":"Biberist"},"district":{"key":"1106","name":"Bezirk Wasseramt"},"canton":{"key":"11","code":"SO","name":"Solothurn"},"status":"Real"},{"key":"10190054","name":"Bachmattweg","postalCode":"4562","locality":"Biberist","commune":{"key":"2513","name":"Biberist","shortName":"Biberist"},"district":{"key":"1106","name":"Bezirk Wasseramt"},"canton":{"key":"11","code":"SO","name":"Solothurn"},"status":"Real"},{"key":"10023344","name":"Bachstrasse","postalCode":"4562","locality":"Biberist","commune":{"key":"2513","name":"Biberist","shortName":"Biberist"},"district":{"key":"1106","name":"Bezirk Wasseramt"},"canton":{"key":"11","code":"SO","name":"Solothurn"},"status":"Real"},{"key":"10023345","name":"Bahnhofstrasse","postalCode":"4562","locality":"Biberist","commune":{"key":"2513","name":"Biberist","shortName":"Biberist"},"district":{"key":"1106","name":"Bezirk Wasseramt"},"canton":{"key":"11","code":"SO","name":"Solothurn"},"status":"Real"},{"key":"10197661","name":"Bahnweg","postalCode":"4562","locality":"Biberist","commune":{"key":"2513","name":"Biberist","shortName":"Biberist"},"district":{"key":"1106","name":"Bezirk Wasseramt"},"canton":{"key":"11","code":"SO","name":"Solothurn"},"status":"Real"},{"key":"10055512","name":"Balmbergstrasse","postalCode":"4562","locality":"Biberist","commune":{"key":"2513","name":"Biberist","shortName":"Biberist"},"district":{"key":"1106","name":"Bezirk Wasseramt"},"canton":{"key":"11","code":"SO","name":"Solothurn"},"status":"Real"},{"key":"10090821","name":"Bernstrasse","postalCode":"4562","locality":"Biberist","commune":{"key":"2513","name":"Biberist","shortName":"Biberist"},"district":{"key":"1106","name":"Bezirk Wasseramt"},"canton":{"key":"11","code":"SO","name":"Solothurn"},"status":"Real"},{"key":"10182856","name":"Biberweg","postalCode":"4562","locality":"Biberist","commune":{"key":"2513","name":"Biberist","shortName":"Biberist"},"district":{"key":"1106","name":"Bezirk Wasseramt"},"canton":{"key":"11","code":"SO","name":"Solothurn"},"status":"Real"},{"key":"10055513","name":"Birkenweg","postalCode":"4562","locality":"Biberist","commune":{"key":"2513","name":"Biberist","shortName":"Biberist"},"district":{"key":"1106","name":"Bezirk Wasseramt"},"canton":{"key":"11","code":"SO","name":"Solothurn"},"status":"Real"},{"key":"10023346","name":"Bleichemattstrasse","postalCode":"4562","locality":"Biberist","commune":{"key":"2513","name":"Biberist","shortName":"Biberist"},"district":{"key":"1106","name":"Bezirk Wasseramt"},"canton":{"key":"11","code":"SO","name":"Solothurn"},"status":"Real"},{"key":"10236062","name":"Bleichenbergstrasse","postalCode":"4562","locality":"Biberist","commune":{"key":"2513","name":"Biberist","shortName":"Biberist"},"district":{"key":"1106","name":"Bezirk Wasseramt"},"canton":{"key":"11","code":"SO","name":"Solothurn"},"status":"Real"},{"key":"10091805","name":"Blümlisalpstrasse","postalCode":"4562","locality":"Biberist","commune":{"key":"2513","name":"Biberist","shortName":"Biberist"},"district":{"key":"1106","name":"Bezirk Wasseramt"},"canton":{"key":"11","code":"SO","name":"Solothurn"},"status":"Real"},{"key":"10066352","name":"Bromeggstrasse","postalCode":"4562","locality":"Biberist","commune":{"key":"2513","name":"Biberist","shortName":"Biberist"},"district":{"key":"1106","name":"Bezirk Wasseramt"},"canton":{"key":"11","code":"SO","name":"Solothurn"},"status":"Real"},{"key":"10214728","name":"Bucheggstrasse","postalCode":"4562","locality":"Biberist","commune":{"key":"2513","name":"Biberist","shortName":"Biberist"},"district":{"key":"1106","name":"Bezirk Wasseramt"},"canton":{"key":"11","code":"SO","name":"Solothurn"},"status":"Real"},{"key":"10109908","name":"Buchenstrasse","postalCode":"4562","locality":"Biberist","commune":{"key":"2513","name":"Biberist","shortName":"Biberist"},"district":{"key":"1106","name":"Bezirk Wasseramt"},"canton":{"key":"11","code":"SO","name":"Solothurn"},"status":"Real"},{"key":"10089770","name":"Buchrainstrasse","postalCode":"4562","locality":"Biberist","commune":{"key":"2513","name":"Biberist","shortName":"Biberist"},"district":{"key":"1106","name":"Bezirk Wasseramt"},"canton":{"key":"11","code":"SO","name":"Solothurn"},"status":"Real"},{"key":"10055514","name":"Burgunderstrasse","postalCode":"4562","locality":"Biberist","commune":{"key":"2513","name":"Biberist","shortName":"Biberist"},"district":{"key":"1106","name":"Bezirk Wasseramt"},"canton":{"key":"11","code":"SO","name":"Solothurn"},"status":"Real"},{"key":"10023347","name":"Chilchackerstrasse","postalCode":"4562","locality":"Biberist","commune":{"key":"2513","name":"Biberist","shortName":"Biberist"},"district":{"key":"1106","name":"Bezirk Wasseramt"},"canton":{"key":"11","code":"SO","name":"Solothurn"},"status":"Real"},{"key":"10090823","name":"Chrüzackerstrasse","postalCode":"4562","locality":"Biberist","commune":{"key":"2513","name":"Biberist","shortName":"Biberist"},"district":{"key":"1106","name":"Bezirk Wasseramt"},"canton":{"key":"11","code":"SO","name":"Solothurn"},"status":"Real"},{"key":"10055515","name":"Dahlienweg","postalCode":"4562","locality":"Biberist","commune":{"key":"2513","name":"Biberist","shortName":"Biberist"},"district":{"key":"1106","name":"Bezirk Wasseramt"},"canton":{"key":"11","code":"SO","name":"Solothurn"},"status":"Real"},{"key":"10175378","name":"Dammstrasse","postalCode":"4562","locality":"Biberist","commune":{"key":"2513","name":"Biberist","shortName":"Biberist"},"district":{"key":"1106","name":"Bezirk Wasseramt"},"canton":{"key":"11","code":"SO","name":"Solothurn"},"status":"Real"},{"key":"10023348","name":"Derendingenstrasse","postalCode":"4562","locality":"Biberist","commune":{"key":"2513","name":"Biberist","shortName":"Biberist"},"district":{"key":"1106","name":"Bezirk Wasseramt"},"canton":{"key":"11","code":"SO","name":"Solothurn"},"status":"Real"},{"key":"10055516","name":"Dilitschweg","postalCode":"4562","locality":"Biberist","commune":{"key":"2513","name":"Biberist","shortName":"Biberist"},"district":{"key":"1106","name":"Bezirk Wasseramt"},"canton":{"key":"11","code":"SO","name":"Solothurn"},"status":"Real"},{"key":"10158274","name":"Drosselweg","postalCode":"4562","locality":"Biberist","commune":{"key":"2513","name":"Biberist","shortName":"Biberist"},"district":{"key":"1106","name":"Bezirk Wasseramt"},"canton":{"key":"11","code":"SO","name":"Solothurn"},"status":"Real"},{"key":"10214732","name":"Dubenmoos","postalCode":"4562","locality":"Biberist","commune":{"key":"2513","name":"Biberist","shortName":"Biberist"},"district":{"key":"1106","name":"Bezirk Wasseramt"},"canton":{"key":"11","code":"SO","name":"Solothurn"},"status":"Real"},{"key":"10090824","name":"Dufourstrasse","postalCode":"4562","locality":"Biberist","commune":{"key":"2513","name":"Biberist","shortName":"Biberist"},"district":{"key":"1106","name":"Bezirk Wasseramt"},"canton":{"key":"11","code":"SO","name":"Solothurn"},"status":"Real"},{"key":"10066353","name":"Egelmoosweg","postalCode":"4562","locality":"Biberist","commune":{"key":"2513","name":"Biberist","shortName":"Biberist"},"district":{"key":"1106","name":"Bezirk Wasseramt"},"canton":{"key":"11","code":"SO","name":"Solothurn"},"status":"Real"},{"key":"10128093","name":"Eichmattweg","postalCode":"4562","locality":"Biberist","commune":{"key":"2513","name":"Biberist","shortName":"Biberist"},"district":{"key":"1106","name":"Bezirk Wasseramt"},"canton":{"key":"11","code":"SO","name":"Solothurn"},"status":"Real"},{"key":"10055517","name":"Eigerstrasse","postalCode":"4562","locality":"Biberist","commune":{"key":"2513","name":"Biberist","shortName":"Biberist"},"district":{"key":"1106","name":"Bezirk Wasseramt"},"canton":{"key":"11","code":"SO","name":"Solothurn"},"status":"Real"},{"key":"10023349","name":"Emmestrasse","postalCode":"4562","locality":"Biberist","commune":{"key":"2513","name":"Biberist","shortName":"Biberist"},"district":{"key":"1106","name":"Bezirk Wasseramt"},"canton":{"key":"11","code":"SO","name":"Solothurn"},"status":"Real"},{"key":"10130035","name":"Engestrasse","postalCode":"4562","locality":"Biberist","commune":{"key":"2513","name":"Biberist","shortName":"Biberist"},"district":{"key":"1106","name":"Bezirk Wasseramt"},"canton":{"key":"11","code":"SO","name":"Solothurn"},"status":"Real"},{"key":"10091806","name":"Erlenweg","postalCode":"4562","locality":"Biberist","commune":{"key":"2513","name":"Biberist","shortName":"Biberist"},"district":{"key":"1106","name":"Bezirk Wasseramt"},"canton":{"key":"11","code":"SO","name":"Solothurn"},"status":"Real"},{"key":"10115103","name":"Eschenweg","postalCode":"4562","locality":"Biberist","commune":{"key":"2513","name":"Biberist","shortName":"Biberist"},"district":{"key":"1106","name":"Bezirk Wasseramt"},"canton":{"key":"11","code":"SO","name":"Solothurn"},"status":"Real"},{"key":"10066354","name":"Fabrikstrasse","postalCode":"4562","locality":"Biberist","commune":{"key":"2513","name":"Biberist","shortName":"Biberist"},"district":{"key":"1106","name":"Bezirk Wasseramt"},"canton":{"key":"11","code":"SO","name":"Solothurn"},"status":"Real"},{"key":"10023353","name":"Fällimoosstrasse","postalCode":"4562","locality":"Biberist","commune":{"key":"2513","name":"Biberist","shortName":"Biberist"},"district":{"key":"1106","name":"Bezirk Wasseramt"},"canton":{"key":"11","code":"SO","name":"Solothurn"},"status":"Real"},{"key":"10090825","name":"Fiderholzstrasse","postalCode":"4562","locality":"Biberist","commune":{"key":"2513","name":"Biberist","shortName":"Biberist"},"district":{"key":"1106","name":"Bezirk Wasseramt"},"canton":{"key":"11","code":"SO","name":"Solothurn"},"status":"Real"},{"key":"10023350","name":"Fliederweg","postalCode":"4562","locality":"Biberist","commune":{"key":"2513","name":"Biberist","shortName":"Biberist"},"district":{"key":"1106","name":"Bezirk Wasseramt"},"canton":{"key":"11","code":"SO","name":"Solothurn"},"status":"Real"},{"key":"10023352","name":"Forellenweg","postalCode":"4562","locality":"Biberist","commune":{"key":"2513","name":"Biberist","shortName":"Biberist"},"district":{"key":"1106","name":"Bezirk Wasseramt"},"canton":{"key":"11","code":"SO","name":"Solothurn"},"status":"Real"},{"key":"10066355","name":"Fritz-Käser-Strasse","postalCode":"4562","locality":"Biberist","commune":{"key":"2513","name":"Biberist","shortName":"Biberist"},"district":{"key":"1106","name":"Bezirk Wasseramt"},"canton":{"key":"11","code":"SO","name":"Solothurn"},"status":"Real"},{"key":"10023354","name":"Gartenstrasse","postalCode":"4562","locality":"Biberist","commune":{"key":"2513","name":"Biberist","shortName":"Biberist"},"district":{"key":"1106","name":"Bezirk Wasseramt"},"canton":{"key":"11","code":"SO","name":"Solothurn"},"status":"Real"},{"key":"10023355","name":"Gerlafingenstrasse","postalCode":"4562","locality":"Biberist","commune":{"key":"2513","name":"Biberist","shortName":"Biberist"},"district":{"key":"1106","name":"Bezirk Wasseramt"},"canton":{"key":"11","code":"SO","name":"Solothurn"},"status":"Real"},{"key":"10131625","name":"Gewerbestrasse","postalCode":"4562","locality":"Biberist","commune":{"key":"2513","name":"Biberist","shortName":"Biberist"},"district":{"key":"1106","name":"Bezirk Wasseramt"},"canton":{"key":"11","code":"SO","name":"Solothurn"},"status":"Real"},{"key":"10090826","name":"Girizstrasse","postalCode":"4562","locality":"Biberist","commune":{"key":"2513","name":"Biberist","shortName":"Biberist"},"district":{"key":"1106","name":"Bezirk Wasseramt"},"canton":{"key":"11","code":"SO","name":"Solothurn"},"status":"Real"},{"key":"10153665","name":"Glockenweg","postalCode":"4562","locality":"Biberist","commune":{"key":"2513","name":"Biberist","shortName":"Biberist"},"district":{"key":"1106","name":"Bezirk Wasseramt"},"canton":{"key":"11","code":"SO","name":"Solothurn"},"status":"Real"},{"key":"10186213","name":"Gottfried-Keller-Strasse","postalCode":"4562","locality":"Biberist","commune":{"key":"2513","name":"Biberist","shortName":"Biberist"},"district":{"key":"1106","name":"Bezirk Wasseramt"},"canton":{"key":"11","code":"SO","name":"Solothurn"},"status":"Real"},{"key":"10066356","name":"Gotthelfstrasse","postalCode":"4562","locality":"Biberist","commune":{"key":"2513","name":"Biberist","shortName":"Biberist"},"district":{"key":"1106","name":"Bezirk Wasseramt"},"canton":{"key":"11","code":"SO","name":"Solothurn"},"status":"Real"},{"key":"10090827","name":"Grüngenstrasse","postalCode":"4562","locality":"Biberist","commune":{"key":"2513","name":"Biberist","shortName":"Biberist"},"district":{"key":"1106","name":"Bezirk Wasseramt"},"canton":{"key":"11","code":"SO","name":"Solothurn"},"status":"Real"},{"key":"10023356","name":"Grüttstrasse","postalCode":"4562","locality":"Biberist","commune":{"key":"2513","name":"Biberist","shortName":"Biberist"},"district":{"key":"1106","name":"Bezirk Wasseramt"},"canton":{"key":"11","code":"SO","name":"Solothurn"},"status":"Real"},{"key":"10214736","name":"Gustav-Eisenmann-Platz","postalCode":"4562","locality":"Biberist","commune":{"key":"2513","name":"Biberist","shortName":"Biberist"},"district":{"key":"1106","name":"Bezirk Wasseramt"},"canton":{"key":"11","code":"SO","name":"Solothurn"},"status":"Real"},{"key":"10109909","name":"Gutenbergstrasse","postalCode":"4562","locality":"Biberist","commune":{"key":"2513","name":"Biberist","shortName":"Biberist"},"district":{"key":"1106","name":"Bezirk Wasseramt"},"canton":{"key":"11","code":"SO","name":"Solothurn"},"status":"Real"},{"key":"10023357","name":"Hagartenstrasse","postalCode":"4562","locality":"Biberist","commune":{"key":"2513","name":"Biberist","shortName":"Biberist"},"district":{"key":"1106","name":"Bezirk Wasseramt"},"canton":{"key":"11","code":"SO","name":"Solothurn"},"status":"Real"},{"key":"10214740","name":"Hangweg","postalCode":"4562","locality":"Biberist","commune":{"key":"2513","name":"Biberist","shortName":"Biberist"},"district":{"key":"1106","name":"Bezirk Wasseramt"},"canton":{"key":"11","code":"SO","name":"Solothurn"},"status":"Real"},{"key":"10066357","name":"Haselweg","postalCode":"4562","locality":"Biberist","commune":{"key":"2513","name":"Biberist","shortName":"Biberist"},"district":{"key":"1106","name":"Bezirk Wasseramt"},"canton":{"key":"11","code":"SO","name":"Solothurn"},"status":"Real"},{"key":"10023360","name":"Häslimattstrasse","postalCode":"4562","locality":"Biberist","commune":{"key":"2513","name":"Biberist","shortName":"Biberist"},"district":{"key":"1106","name":"Bezirk Wasseramt"},"canton":{"key":"11","code":"SO","name":"Solothurn"},"status":"Real"},{"key":"10090828","name":"Hauptstrasse","postalCode":"4562","locality":"Biberist","commune":{"key":"2513","name":"Biberist","shortName":"Biberist"},"district":{"key":"1106","name":"Bezirk Wasseramt"},"canton":{"key":"11","code":"SO","name":"Solothurn"},"status":"Real"},{"key":"10144956","name":"Hechtring","postalCode":"4562","locality":"Biberist","commune":{"key":"2513","name":"Biberist","shortName":"Biberist"},"district":{"key":"1106","name":"Bezirk Wasseramt"},"canton":{"key":"11","code":"SO","name":"Solothurn"},"status":"Real"},{"key":"10175379","name":"Herrenweg","postalCode":"4562","locality":"Biberist","commune":{"key":"2513","name":"Biberist","shortName":"Biberist"},"district":{"key":"1106","name":"Bezirk Wasseramt"},"canton":{"key":"11","code":"SO","name":"Solothurn"},"status":"Real"},{"key":"10023358","name":"Hodlerstrasse","postalCode":"4562","locality":"Biberist","commune":{"key":"2513","name":"Biberist","shortName":"Biberist"},"district":{"key":"1106","name":"Bezirk Wasseramt"},"canton":{"key":"11","code":"SO","name":"Solothurn"},"status":"Real"},{"key":"10023359","name":"Hofweg","postalCode":"4562","locality":"Biberist","commune":{"key":"2513","name":"Biberist","shortName":"Biberist"},"district":{"key":"1106","name":"Bezirk Wasseramt"},"canton":{"key":"11","code":"SO","name":"Solothurn"},"status":"Real"},{"key":"10023361","name":"Höhenweg","postalCode":"4562","locality":"Biberist","commune":{"key":"2513","name":"Biberist","shortName":"Biberist"},"district":{"key":"1106","name":"Bezirk Wasseramt"},"canton":{"key":"11","code":"SO","name":"Solothurn"},"status":"Real"},{"key":"10066358","name":"Holzackerstrasse","postalCode":"4562","locality":"Biberist","commune":{"key":"2513","name":"Biberist","shortName":"Biberist"},"district":{"key":"1106","name":"Bezirk Wasseramt"},"canton":{"key":"11","code":"SO","name":"Solothurn"},"status":"Real"},{"key":"10090829","name":"Hortensienweg","postalCode":"4562","locality":"Biberist","commune":{"key":"2513","name":"Biberist","shortName":"Biberist"},"district":{"key":"1106","name":"Bezirk Wasseramt"},"canton":{"key":"11","code":"SO","name":"Solothurn"},"status":"Real"},{"key":"10090830","name":"Industriestrasse","postalCode":"4562","locality":"Biberist","commune":{"key":"2513","name":"Biberist","shortName":"Biberist"},"district":{"key":"1106","name":"Bezirk Wasseramt"},"canton":{"key":"11","code":"SO","name":"Solothurn"},"status":"Real"},{"key":"10182857","name":"Jungfraustrasse","postalCode":"4562","locality":"Biberist","commune":{"key":"2513","name":"Biberist","shortName":"Biberist"},"district":{"key":"1106","name":"Bezirk Wasseramt"},"canton":{"key":"11","code":"SO","name":"Solothurn"},"status":"Real"},{"key":"10214748","name":"Junkholzstrasse","postalCode":"4562","locality":"Biberist","commune":{"key":"2513","name":"Biberist","shortName":"Biberist"},"district":{"key":"1106","name":"Bezirk Wasseramt"},"canton":{"key":"11","code":"SO","name":"Solothurn"},"status":"Real"},{"key":"10023362","name":"Jurastrasse","postalCode":"4562","locality":"Biberist","commune":{"key":"2513","name":"Biberist","shortName":"Biberist"},"district":{"key":"1106","name":"Bezirk Wasseramt"},"canton":{"key":"11","code":"SO","name":"Solothurn"},"status":"Real"},{"key":"10023363","name":"Kaiserstrasse","postalCode":"4562","locality":"Biberist","commune":{"key":"2513","name":"Biberist","shortName":"Biberist"},"district":{"key":"1106","name":"Bezirk Wasseramt"},"canton":{"key":"11","code":"SO","name":"Solothurn"},"status":"Real"},{"key":"10128094","name":"Kamelienweg","postalCode":"4562","locality":"Biberist","commune":{"key":"2513","name":"Biberist","shortName":"Biberist"},"district":{"key":"1106","name":"Bezirk Wasseramt"},"canton":{"key":"11","code":"SO","name":"Solothurn"},"status":"Real"},{"key":"10023364","name":"Kanalweg","postalCode":"4562","locality":"Biberist","commune":{"key":"2513","name":"Biberist","shortName":"Biberist"},"district":{"key":"1106","name":"Bezirk Wasseramt"},"canton":{"key":"11","code":"SO","name":"Solothurn"},"status":"Real"},{"key":"10090831","name":"Kastanienweg","postalCode":"4562","locality":"Biberist","commune":{"key":"2513","name":"Biberist","shortName":"Biberist"},"district":{"key":"1106","name":"Bezirk Wasseramt"},"canton":{"key":"11","code":"SO","name":"Solothurn"},"status":"Real"},{"key":"10023365","name":"Kirchweg","postalCode":"4562","locality":"Biberist","commune":{"key":"2513","name":"Biberist","shortName":"Biberist"},"district":{"key":"1106","name":"Bezirk Wasseramt"},"canton":{"key":"11","code":"SO","name":"Solothurn"},"status":"Real"},{"key":"10124069","name":"Kirschackerstrasse","postalCode":"4562","locality":"Biberist","commune":{"key":"2513","name":"Biberist","shortName":"Biberist"},"district":{"key":"1106","name":"Bezirk Wasseramt"},"canton":{"key":"11","code":"SO","name":"Solothurn"},"status":"Real"},{"key":"10023366","name":"Kreuzfeldweg","postalCode":"4562","locality":"Biberist","commune":{"key":"2513","name":"Biberist","shortName":"Biberist"},"district":{"key":"1106","name":"Bezirk Wasseramt"},"canton":{"key":"11","code":"SO","name":"Solothurn"},"status":"Real"},{"key":"10175380","name":"Kürzestrasse","postalCode":"4562","locality":"Biberist","commune":{"key":"2513","name":"Biberist","shortName":"Biberist"},"district":{"key":"1106","name":"Bezirk Wasseramt"},"canton":{"key":"11","code":"SO","name":"Solothurn"},"status":"Real"},{"key":"10023367","name":"Längackerstrasse","postalCode":"4562","locality":"Biberist","commune":{"key":"2513","name":"Biberist","shortName":"Biberist"},"district":{"key":"1106","name":"Bezirk Wasseramt"},"canton":{"key":"11","code":"SO","name":"Solothurn"},"status":"Real"},{"key":"10089771","name":"Lerchenfeldstrasse","postalCode":"4562","locality":"Biberist","commune":{"key":"2513","name":"Biberist","shortName":"Biberist"},"district":{"key":"1106","name":"Bezirk Wasseramt"},"canton":{"key":"11","code":"SO","name":"Solothurn"},"status":"Real"},{"key":"10090832","name":"Leutholdstrasse","postalCode":"4562","locality":"Biberist","commune":{"key":"2513","name":"Biberist","shortName":"Biberist"},"district":{"key":"1106","name":"Bezirk Wasseramt"},"canton":{"key":"11","code":"SO","name":"Solothurn"},"status":"Real"},{"key":"10186214","name":"Lindenweg","postalCode":"4562","locality":"Biberist","commune":{"key":"2513","name":"Biberist","shortName":"Biberist"},"district":{"key":"1106","name":"Bezirk Wasseramt"},"canton":{"key":"11","code":"SO","name":"Solothurn"},"status":"Real"},{"key":"10090833","name":"Mönchweg","postalCode":"4562","locality":"Biberist","commune":{"key":"2513","name":"Biberist","shortName":"Biberist"},"district":{"key":"1106","name":"Bezirk Wasseramt"},"canton":{"key":"11","code":"SO","name":"Solothurn"},"status":"Real"},{"key":"10066361","name":"Moosstrasse","postalCode":"4562","locality":"Biberist","commune":{"key":"2513","name":"Biberist","shortName":"Biberist"},"district":{"key":"1106","name":"Bezirk Wasseramt"},"canton":{"key":"11","code":"SO","name":"Solothurn"},"status":"Real"},{"key":"10023369","name":"Mühlemattstrasse","postalCode":"4562","locality":"Biberist","commune":{"key":"2513","name":"Biberist","shortName":"Biberist"},"district":{"key":"1106","name":"Bezirk Wasseramt"},"canton":{"key":"11","code":"SO","name":"Solothurn"},"status":"Real"},{"key":"10109910","name":"Mühleweg","postalCode":"4562","locality":"Biberist","commune":{"key":"2513","name":"Biberist","shortName":"Biberist"},"district":{"key":"1106","name":"Bezirk Wasseramt"},"canton":{"key":"11","code":"SO","name":"Solothurn"},"status":"Real"},{"key":"10023368","name":"Murtenackerweg","postalCode":"4562","locality":"Biberist","commune":{"key":"2513","name":"Biberist","shortName":"Biberist"},"district":{"key":"1106","name":"Bezirk Wasseramt"},"canton":{"key":"11","code":"SO","name":"Solothurn"},"status":"Real"},{"key":"10066362","name":"Narzissenweg","postalCode":"4562","locality":"Biberist","commune":{"key":"2513","name":"Biberist","shortName":"Biberist"},"district":{"key":"1106","name":"Bezirk Wasseramt"},"canton":{"key":"11","code":"SO","name":"Solothurn"},"status":"Real"},{"key":"10090834","name":"Nelkenstrasse","postalCode":"4562","locality":"Biberist","commune":{"key":"2513","name":"Biberist","shortName":"Biberist"},"district":{"key":"1106","name":"Bezirk Wasseramt"},"canton":{"key":"11","code":"SO","name":"Solothurn"},"status":"Real"},{"key":"10023370","name":"Neumattstrasse","postalCode":"4562","locality":"Biberist","commune":{"key":"2513","name":"Biberist","shortName":"Biberist"},"district":{"key":"1106","name":"Bezirk Wasseramt"},"canton":{"key":"11","code":"SO","name":"Solothurn"},"status":"Real"},{"key":"10023371","name":"Neuquartierstrasse","postalCode":"4562","locality":"Biberist","commune":{"key":"2513","name":"Biberist","shortName":"Biberist"},"district":{"key":"1106","name":"Bezirk Wasseramt"},"canton":{"key":"11","code":"SO","name":"Solothurn"},"status":"Real"},{"key":"10090835","name":"Niesenstrasse","postalCode":"4562","locality":"Biberist","commune":{"key":"2513","name":"Biberist","shortName":"Biberist"},"district":{"key":"1106","name":"Bezirk Wasseramt"},"canton":{"key":"11","code":"SO","name":"Solothurn"},"status":"Real"},{"key":"10055518","name":"Nordweg","postalCode":"4562","locality":"Biberist","commune":{"key":"2513","name":"Biberist","shortName":"Biberist"},"district":{"key":"1106","name":"Bezirk Wasseramt"},"canton":{"key":"11","code":"SO","name":"Solothurn"},"status":"Real"},{"key":"10214753","name":"Oberwald","postalCode":"4562","locality":"Biberist","commune":{"key":"2513","name":"Biberist","shortName":"Biberist"},"district":{"key":"1106","name":"Bezirk Wasseramt"},"canton":{"key":"11","code":"SO","name":"Solothurn"},"status":"Real"},{"key":"10187766","name":"Pestalozzistrasse","postalCode":"4562","locality":"Biberist","commune":{"key":"2513","name":"Biberist","shortName":"Biberist"},"district":{"key":"1106","name":"Bezirk Wasseramt"},"canton":{"key":"11","code":"SO","name":"Solothurn"},"status":"Real"},{"key":"10055519","name":"Pfarrer-Schmidlin-Weg","postalCode":"4562","locality":"Biberist","commune":{"key":"2513","name":"Biberist","shortName":"Biberist"},"district":{"key":"1106","name":"Bezirk Wasseramt"},"canton":{"key":"11","code":"SO","name":"Solothurn"},"status":"Real"},{"key":"10023373","name":"Poststrasse","postalCode":"4562","locality":"Biberist","commune":{"key":"2513","name":"Biberist","shortName":"Biberist"},"district":{"key":"1106","name":"Bezirk Wasseramt"},"canton":{"key":"11","code":"SO","name":"Solothurn"},"status":"Real"},{"key":"10186215","name":"Rainackerstrasse","postalCode":"4562","locality":"Biberist","commune":{"key":"2513","name":"Biberist","shortName":"Biberist"},"district":{"key":"1106","name":"Bezirk Wasseramt"},"canton":{"key":"11","code":"SO","name":"Solothurn"},"status":"Real"},{"key":"10090836","name":"Rankenweg","postalCode":"4562","locality":"Biberist","commune":{"key":"2513","name":"Biberist","shortName":"Biberist"},"district":{"key":"1106","name":"Bezirk Wasseramt"},"canton":{"key":"11","code":"SO","name":"Solothurn"},"status":"Real"},{"key":"10023374","name":"Reiherweg","postalCode":"4562","locality":"Biberist","commune":{"key":"2513","name":"Biberist","shortName":"Biberist"},"district":{"key":"1106","name":"Bezirk Wasseramt"},"canton":{"key":"11","code":"SO","name":"Solothurn"},"status":"Real"},{"key":"10055520","name":"Ribimattweg","postalCode":"4562","locality":"Biberist","commune":{"key":"2513","name":"Biberist","shortName":"Biberist"},"district":{"key":"1106","name":"Bezirk Wasseramt"},"canton":{"key":"11","code":"SO","name":"Solothurn"},"status":"Real"},{"key":"10023375","name":"Ringstrasse","postalCode":"4562","locality":"Biberist","commune":{"key":"2513","name":"Biberist","shortName":"Biberist"},"district":{"key":"1106","name":"Bezirk Wasseramt"},"canton":{"key":"11","code":"SO","name":"Solothurn"},"status":"Real"},{"key":"10066363","name":"Rosenstrasse","postalCode":"4562","locality":"Biberist","commune":{"key":"2513","name":"Biberist","shortName":"Biberist"},"district":{"key":"1106","name":"Bezirk Wasseramt"},"canton":{"key":"11","code":"SO","name":"Solothurn"},"status":"Real"},{"key":"10091807","name":"Röteliweg","postalCode":"4562","locality":"Biberist","commune":{"key":"2513","name":"Biberist","shortName":"Biberist"},"district":{"key":"1106","name":"Bezirk Wasseramt"},"canton":{"key":"11","code":"SO","name":"Solothurn"},"status":"Real"},{"key":"10023376","name":"Rötistrasse","postalCode":"4562","locality":"Biberist","commune":{"key":"2513","name":"Biberist","shortName":"Biberist"},"district":{"key":"1106","name":"Bezirk Wasseramt"},"canton":{"key":"11","code":"SO","name":"Solothurn"},"status":"Real"},{"key":"10090837","name":"Rütiackerstrasse","postalCode":"4562","locality":"Biberist","commune":{"key":"2513","name":"Biberist","shortName":"Biberist"},"district":{"key":"1106","name":"Bezirk Wasseramt"},"canton":{"key":"11","code":"SO","name":"Solothurn"},"status":"Real"},{"key":"10175381","name":"Schachenrain","postalCode":"4562","locality":"Biberist","commune":{"key":"2513","name":"Biberist","shortName":"Biberist"},"district":{"key":"1106","name":"Bezirk Wasseramt"},"canton":{"key":"11","code":"SO","name":"Solothurn"},"status":"Real"},{"key":"10066364","name":"Schachenstrasse","postalCode":"4562","locality":"Biberist","commune":{"key":"2513","name":"Biberist","shortName":"Biberist"},"district":{"key":"1106","name":"Bezirk Wasseramt"},"canton":{"key":"11","code":"SO","name":"Solothurn"},"status":"Real"},{"key":"10055521","name":"Schlehdornweg","postalCode":"4562","locality":"Biberist","commune":{"key":"2513","name":"Biberist","shortName":"Biberist"},"district":{"key":"1106","name":"Bezirk Wasseramt"},"canton":{"key":"11","code":"SO","name":"Solothurn"},"status":"Real"},{"key":"10191243","name":"Schmiedenmattstrasse","postalCode":"4562","locality":"Biberist","commune":{"key":"2513","name":"Biberist","shortName":"Biberist"},"district":{"key":"1106","name":"Bezirk Wasseramt"},"canton":{"key":"11","code":"SO","name":"Solothurn"},"status":"Real"},{"key":"10055522","name":"Schönenwaldstrasse","postalCode":"4562","locality":"Biberist","commune":{"key":"2513","name":"Biberist","shortName":"Biberist"},"district":{"key":"1106","name":"Bezirk Wasseramt"},"canton":{"key":"11","code":"SO","name":"Solothurn"},"status":"Real"},{"key":"10023377","name":"Schulweg","postalCode":"4562","locality":"Biberist","commune":{"key":"2513","name":"Biberist","shortName":"Biberist"},"district":{"key":"1106","name":"Bezirk Wasseramt"},"canton":{"key":"11","code":"SO","name":"Solothurn"},"status":"Real"},{"key":"10023378","name":"Schützenweg","postalCode":"4562","locality":"Biberist","commune":{"key":"2513","name":"Biberist","shortName":"Biberist"},"district":{"key":"1106","name":"Bezirk Wasseramt"},"canton":{"key":"11","code":"SO","name":"Solothurn"},"status":"Real"},{"key":"10214756","name":"Schwarzweg","postalCode":"4562","locality":"Biberist","commune":{"key":"2513","name":"Biberist","shortName":"Biberist"},"district":{"key":"1106","name":"Bezirk Wasseramt"},"canton":{"key":"11","code":"SO","name":"Solothurn"},"status":"Real"},{"key":"10109911","name":"Seebächleinstrasse","postalCode":"4562","locality":"Biberist","commune":{"key":"2513","name":"Biberist","shortName":"Biberist"},"district":{"key":"1106","name":"Bezirk Wasseramt"},"canton":{"key":"11","code":"SO","name":"Solothurn"},"status":"Real"},{"key":"10090838","name":"Solothurnstrasse","postalCode":"4562","locality":"Biberist","commune":{"key":"2513","name":"Biberist","shortName":"Biberist"},"district":{"key":"1106","name":"Bezirk Wasseramt"},"canton":{"key":"11","code":"SO","name":"Solothurn"},"status":"Real"},{"key":"10091808","name":"Sonnenrainstrasse","postalCode":"4562","locality":"Biberist","commune":{"key":"2513","name":"Biberist","shortName":"Biberist"},"district":{"key":"1106","name":"Bezirk Wasseramt"},"canton":{"key":"11","code":"SO","name":"Solothurn"},"status":"Real"},{"key":"10066365","name":"Sportweg","postalCode":"4562","locality":"Biberist","commune":{"key":"2513","name":"Biberist","shortName":"Biberist"},"district":{"key":"1106","name":"Bezirk Wasseramt"},"canton":{"key":"11","code":"SO","name":"Solothurn"},"status":"Real"},{"key":"10024503","name":"Stallbergstrasse","postalCode":"4562","locality":"Biberist","commune":{"key":"2513","name":"Biberist","shortName":"Biberist"},"district":{"key":"1106","name":"Bezirk Wasseramt"},"canton":{"key":"11","code":"SO","name":"Solothurn"},"status":"Real"},{"key":"10175679","name":"Stapfackerweg","postalCode":"4562","locality":"Biberist","commune":{"key":"2513","name":"Biberist","shortName":"Biberist"},"district":{"key":"1106","name":"Bezirk Wasseramt"},"canton":{"key":"11","code":"SO","name":"Solothurn"},"status":"Real"},{"key":"10024504","name":"Stegmattstrasse","postalCode":"4562","locality":"Biberist","commune":{"key":"2513","name":"Biberist","shortName":"Biberist"},"district":{"key":"1106","name":"Bezirk Wasseramt"},"canton":{"key":"11","code":"SO","name":"Solothurn"},"status":"Real"},{"key":"10066366","name":"Stockhornweg","postalCode":"4562","locality":"Biberist","commune":{"key":"2513","name":"Biberist","shortName":"Biberist"},"district":{"key":"1106","name":"Bezirk Wasseramt"},"canton":{"key":"11","code":"SO","name":"Solothurn"},"status":"Real"},{"key":"10023379","name":"St. Ursenweg","postalCode":"4562","locality":"Biberist","commune":{"key":"2513","name":"Biberist","shortName":"Biberist"},"district":{"key":"1106","name":"Bezirk Wasseramt"},"canton":{"key":"11","code":"SO","name":"Solothurn"},"status":"Real"},{"key":"10128095","name":"Talackerstrasse","postalCode":"4562","locality":"Biberist","commune":{"key":"2513","name":"Biberist","shortName":"Biberist"},"district":{"key":"1106","name":"Bezirk Wasseramt"},"canton":{"key":"11","code":"SO","name":"Solothurn"},"status":"Real"},{"key":"10214760","name":"Taubenmoosweg","postalCode":"4562","locality":"Biberist","commune":{"key":"2513","name":"Biberist","shortName":"Biberist"},"district":{"key":"1106","name":"Bezirk Wasseramt"},"canton":{"key":"11","code":"SO","name":"Solothurn"},"status":"Real"},{"key":"10023351","name":"Teilmattstrasse","postalCode":"4562","locality":"Biberist","commune":{"key":"2513","name":"Biberist","shortName":"Biberist"},"district":{"key":"1106","name":"Bezirk Wasseramt"},"canton":{"key":"11","code":"SO","name":"Solothurn"},"status":"Real"},{"key":"10055523","name":"Tulpenweg","postalCode":"4562","locality":"Biberist","commune":{"key":"2513","name":"Biberist","shortName":"Biberist"},"district":{"key":"1106","name":"Bezirk Wasseramt"},"canton":{"key":"11","code":"SO","name":"Solothurn"},"status":"Real"},{"key":"10024505","name":"Ulmenweg","postalCode":"4562","locality":"Biberist","commune":{"key":"2513","name":"Biberist","shortName":"Biberist"},"district":{"key":"1106","name":"Bezirk Wasseramt"},"canton":{"key":"11","code":"SO","name":"Solothurn"},"status":"Real"},{"key":"10214764","name":"Unter Altisberg","postalCode":"4562","locality":"Biberist","commune":{"key":"2513","name":"Biberist","shortName":"Biberist"},"district":{"key":"1106","name":"Bezirk Wasseramt"},"canton":{"key":"11","code":"SO","name":"Solothurn"},"status":"Real"},{"key":"10090839","name":"Unterbiberiststrasse","postalCode":"4562","locality":"Biberist","commune":{"key":"2513","name":"Biberist","shortName":"Biberist"},"district":{"key":"1106","name":"Bezirk Wasseramt"},"canton":{"key":"11","code":"SO","name":"Solothurn"},"status":"Real"},{"key":"10106775","name":"Veilchenweg","postalCode":"4562","locality":"Biberist","commune":{"key":"2513","name":"Biberist","shortName":"Biberist"},"district":{"key":"1106","name":"Bezirk Wasseramt"},"canton":{"key":"11","code":"SO","name":"Solothurn"},"status":"Real"},{"key":"10186216","name":"Vörtliackerweg","postalCode":"4562","locality":"Biberist","commune":{"key":"2513","name":"Biberist","shortName":"Biberist"},"district":{"key":"1106","name":"Bezirk Wasseramt"},"canton":{"key":"11","code":"SO","name":"Solothurn"},"status":"Real"},{"key":"10024506","name":"Waldstrasse","postalCode":"4562","locality":"Biberist","commune":{"key":"2513","name":"Biberist","shortName":"Biberist"},"district":{"key":"1106","name":"Bezirk Wasseramt"},"canton":{"key":"11","code":"SO","name":"Solothurn"},"status":"Real"},{"key":"10024507","name":"Weidenweg","postalCode":"4562","locality":"Biberist","commune":{"key":"2513","name":"Biberist","shortName":"Biberist"},"district":{"key":"1106","name":"Bezirk Wasseramt"},"canton":{"key":"11","code":"SO","name":"Solothurn"},"status":"Real"},{"key":"10214768","name":"Weiherweg","postalCode":"4562","locality":"Biberist","commune":{"key":"2513","name":"Biberist","shortName":"Biberist"},"district":{"key":"1106","name":"Bezirk Wasseramt"},"canton":{"key":"11","code":"SO","name":"Solothurn"},"status":"Real"},{"key":"10091115","name":"Weissensteinstrasse","postalCode":"4562","locality":"Biberist","commune":{"key":"2513","name":"Biberist","shortName":"Biberist"},"district":{"key":"1106","name":"Bezirk Wasseramt"},"canton":{"key":"11","code":"SO","name":"Solothurn"},"status":"Real"},{"key":"10091809","name":"Werkhofstrasse","postalCode":"4562","locality":"Biberist","commune":{"key":"2513","name":"Biberist","shortName":"Biberist"},"district":{"key":"1106","name":"Bezirk Wasseramt"},"canton":{"key":"11","code":"SO","name":"Solothurn"},"status":"Real"},{"key":"10214500","name":"Werkstrasse","postalCode":"4562","locality":"Biberist","commune":{"key":"2513","name":"Biberist","shortName":"Biberist"},"district":{"key":"1106","name":"Bezirk Wasseramt"},"canton":{"key":"11","code":"SO","name":"Solothurn"},"status":"Real"},{"key":"10024508","name":"Zelglistrasse","postalCode":"4562","locality":"Biberist","commune":{"key":"2513","name":"Biberist","shortName":"Biberist"},"district":{"key":"1106","name":"Bezirk Wasseramt"},"canton":{"key":"11","code":"SO","name":"Solothurn"},"status":"Real"},{"key":"10212087","name":"Zentrumweg","postalCode":"4562","locality":"Biberist","commune":{"key":"2513","name":"Biberist","shortName":"Biberist"},"district":{"key":"1106","name":"Bezirk Wasseramt"},"canton":{"key":"11","code":"SO","name":"Solothurn"},"status":"Real"},{"key":"10024509","name":"Zwingliweg","postalCode":"4562","locality":"Biberist","commune":{"key":"2513","name":"Biberist","shortName":"Biberist"},"district":{"key":"1106","name":"Bezirk Wasseramt"},"canton":{"key":"11","code":"SO","name":"Solothurn"},"status":"Real"},]