[{"name":"Am Asang","postalCode":"83623","locality":"Dietramszell","municipality":{"key":"09173118","name":"Dietramszell","type":"Kreisangehörige_Gemeinde"},"district":{"key":"09173","name":"Bad Tölz-Wolfratshausen","type":"Landkreis"},"federalState":{"key":"09","name":"Bayern"}},{"name":"Am Bichl","postalCode":"83623","locality":"Dietramszell","municipality":{"key":"09173118","name":"Dietramszell","type":"Kreisangehörige_Gemeinde"},"district":{"key":"09173","name":"Bad Tölz-Wolfratshausen","type":"Landkreis"},"federalState":{"key":"09","name":"Bayern"}},{"name":"Am Burgstall","postalCode":"83623","locality":"Dietramszell","municipality":{"key":"09173118","name":"Dietramszell","type":"Kreisangehörige_Gemeinde"},"district":{"key":"09173","name":"Bad Tölz-Wolfratshausen","type":"Landkreis"},"federalState":{"key":"09","name":"Bayern"}},{"name":"Am Dorfbach","postalCode":"83623","locality":"Dietramszell","municipality":{"key":"09173118","name":"Dietramszell","type":"Kreisangehörige_Gemeinde"},"district":{"key":"09173","name":"Bad Tölz-Wolfratshausen","type":"Landkreis"},"federalState":{"key":"09","name":"Bayern"}},{"name":"Am Gasteig","postalCode":"83623","locality":"Dietramszell","municipality":{"key":"09173118","name":"Dietramszell","type":"Kreisangehörige_Gemeinde"},"district":{"key":"09173","name":"Bad Tölz-Wolfratshausen","type":"Landkreis"},"federalState":{"key":"09","name":"Bayern"}},{"name":"Am Holz","postalCode":"83623","locality":"Dietramszell","municipality":{"key":"09173118","name":"Dietramszell","type":"Kreisangehörige_Gemeinde"},"district":{"key":"09173","name":"Bad Tölz-Wolfratshausen","type":"Landkreis"},"federalState":{"key":"09","name":"Bayern"}},{"name":"Am Kreuzfeld","postalCode":"83623","locality":"Dietramszell","municipality":{"key":"09173118","name":"Dietramszell","type":"Kreisangehörige_Gemeinde"},"district":{"key":"09173","name":"Bad Tölz-Wolfratshausen","type":"Landkreis"},"federalState":{"key":"09","name":"Bayern"}},{"name":"Am Maureranger","postalCode":"83623","locality":"Dietramszell","municipality":{"key":"09173118","name":"Dietramszell","type":"Kreisangehörige_Gemeinde"},"district":{"key":"09173","name":"Bad Tölz-Wolfratshausen","type":"Landkreis"},"federalState":{"key":"09","name":"Bayern"}},{"name":"Am Moosfeld","postalCode":"83623","locality":"Dietramszell","municipality":{"key":"09173118","name":"Dietramszell","type":"Kreisangehörige_Gemeinde"},"district":{"key":"09173","name":"Bad Tölz-Wolfratshausen","type":"Landkreis"},"federalState":{"key":"09","name":"Bayern"}},{"name":"Am Ranhart","postalCode":"83623","locality":"Dietramszell","municipality":{"key":"09173118","name":"Dietramszell","type":"Kreisangehörige_Gemeinde"},"district":{"key":"09173","name":"Bad Tölz-Wolfratshausen","type":"Landkreis"},"federalState":{"key":"09","name":"Bayern"}},{"name":"Am Richteranger","postalCode":"83623","locality":"Dietramszell","municipality":{"key":"09173118","name":"Dietramszell","type":"Kreisangehörige_Gemeinde"},"district":{"key":"09173","name":"Bad Tölz-Wolfratshausen","type":"Landkreis"},"federalState":{"key":"09","name":"Bayern"}},{"name":"Am Schmiedberg","postalCode":"83623","locality":"Dietramszell","municipality":{"key":"09173118","name":"Dietramszell","type":"Kreisangehörige_Gemeinde"},"district":{"key":"09173","name":"Bad Tölz-Wolfratshausen","type":"Landkreis"},"federalState":{"key":"09","name":"Bayern"}},{"name":"Am Schwaiganger","postalCode":"83623","locality":"Dietramszell","municipality":{"key":"09173118","name":"Dietramszell","type":"Kreisangehörige_Gemeinde"},"district":{"key":"09173","name":"Bad Tölz-Wolfratshausen","type":"Landkreis"},"federalState":{"key":"09","name":"Bayern"}},{"name":"Am Weiherfeld","postalCode":"83623","locality":"Dietramszell","municipality":{"key":"09173118","name":"Dietramszell","type":"Kreisangehörige_Gemeinde"},"district":{"key":"09173","name":"Bad Tölz-Wolfratshausen","type":"Landkreis"},"federalState":{"key":"09","name":"Bayern"}},{"name":"Argeter Weg","postalCode":"83623","locality":"Dietramszell","municipality":{"key":"09173118","name":"Dietramszell","type":"Kreisangehörige_Gemeinde"},"district":{"key":"09173","name":"Bad Tölz-Wolfratshausen","type":"Landkreis"},"federalState":{"key":"09","name":"Bayern"}},{"name":"Auenstr.","postalCode":"83623","locality":"Dietramszell","municipality":{"key":"09173118","name":"Dietramszell","type":"Kreisangehörige_Gemeinde"},"district":{"key":"09173","name":"Bad Tölz-Wolfratshausen","type":"Landkreis"},"federalState":{"key":"09","name":"Bayern"}},{"name":"Badermelcherweg","postalCode":"83623","locality":"Dietramszell","municipality":{"key":"09173118","name":"Dietramszell","type":"Kreisangehörige_Gemeinde"},"district":{"key":"09173","name":"Bad Tölz-Wolfratshausen","type":"Landkreis"},"federalState":{"key":"09","name":"Bayern"}},{"name":"Baiernrainer Weg","postalCode":"83623","locality":"Dietramszell","municipality":{"key":"09173118","name":"Dietramszell","type":"Kreisangehörige_Gemeinde"},"district":{"key":"09173","name":"Bad Tölz-Wolfratshausen","type":"Landkreis"},"federalState":{"key":"09","name":"Bayern"}},{"name":"Bairawieser Str.","postalCode":"83623","locality":"Dietramszell","municipality":{"key":"09173118","name":"Dietramszell","type":"Kreisangehörige_Gemeinde"},"district":{"key":"09173","name":"Bad Tölz-Wolfratshausen","type":"Landkreis"},"federalState":{"key":"09","name":"Bayern"}},{"name":"Berg","postalCode":"83623","locality":"Dietramszell","municipality":{"key":"09173118","name":"Dietramszell","type":"Kreisangehörige_Gemeinde"},"district":{"key":"09173","name":"Bad Tölz-Wolfratshausen","type":"Landkreis"},"federalState":{"key":"09","name":"Bayern"}},{"name":"Berger Weg","postalCode":"83623","locality":"Dietramszell","municipality":{"key":"09173118","name":"Dietramszell","type":"Kreisangehörige_Gemeinde"},"district":{"key":"09173","name":"Bad Tölz-Wolfratshausen","type":"Landkreis"},"federalState":{"key":"09","name":"Bayern"}},{"name":"Bierhäuslweg","postalCode":"83623","locality":"Dietramszell","municipality":{"key":"09173118","name":"Dietramszell","type":"Kreisangehörige_Gemeinde"},"district":{"key":"09173","name":"Bad Tölz-Wolfratshausen","type":"Landkreis"},"federalState":{"key":"09","name":"Bayern"}},{"name":"Birkenweg","postalCode":"83623","locality":"Dietramszell","municipality":{"key":"09173118","name":"Dietramszell","type":"Kreisangehörige_Gemeinde"},"district":{"key":"09173","name":"Bad Tölz-Wolfratshausen","type":"Landkreis"},"federalState":{"key":"09","name":"Bayern"}},{"name":"Birschlingweg","postalCode":"83623","locality":"Dietramszell","municipality":{"key":"09173118","name":"Dietramszell","type":"Kreisangehörige_Gemeinde"},"district":{"key":"09173","name":"Bad Tölz-Wolfratshausen","type":"Landkreis"},"federalState":{"key":"09","name":"Bayern"}},{"name":"Brandlweg","postalCode":"83623","locality":"Dietramszell","municipality":{"key":"09173118","name":"Dietramszell","type":"Kreisangehörige_Gemeinde"},"district":{"key":"09173","name":"Bad Tölz-Wolfratshausen","type":"Landkreis"},"federalState":{"key":"09","name":"Bayern"}},{"name":"Breitenweg","postalCode":"83623","locality":"Dietramszell","municipality":{"key":"09173118","name":"Dietramszell","type":"Kreisangehörige_Gemeinde"},"district":{"key":"09173","name":"Bad Tölz-Wolfratshausen","type":"Landkreis"},"federalState":{"key":"09","name":"Bayern"}},{"name":"Bruckweg","postalCode":"83623","locality":"Dietramszell","municipality":{"key":"09173118","name":"Dietramszell","type":"Kreisangehörige_Gemeinde"},"district":{"key":"09173","name":"Bad Tölz-Wolfratshausen","type":"Landkreis"},"federalState":{"key":"09","name":"Bayern"}},{"name":"Bühlweg","postalCode":"83623","locality":"Dietramszell","municipality":{"key":"09173118","name":"Dietramszell","type":"Kreisangehörige_Gemeinde"},"district":{"key":"09173","name":"Bad Tölz-Wolfratshausen","type":"Landkreis"},"federalState":{"key":"09","name":"Bayern"}},{"name":"Dietenhausen","postalCode":"83623","locality":"Dietramszell","municipality":{"key":"09173118","name":"Dietramszell","type":"Kreisangehörige_Gemeinde"},"district":{"key":"09173","name":"Bad Tölz-Wolfratshausen","type":"Landkreis"},"federalState":{"key":"09","name":"Bayern"}},{"name":"Dietenhauser Str.","postalCode":"83623","locality":"Dietramszell","municipality":{"key":"09173118","name":"Dietramszell","type":"Kreisangehörige_Gemeinde"},"district":{"key":"09173","name":"Bad Tölz-Wolfratshausen","type":"Landkreis"},"federalState":{"key":"09","name":"Bayern"}},{"name":"Dietramszeller Str.","postalCode":"83623","locality":"Dietramszell","municipality":{"key":"09173118","name":"Dietramszell","type":"Kreisangehörige_Gemeinde"},"district":{"key":"09173","name":"Bad Tölz-Wolfratshausen","type":"Landkreis"},"federalState":{"key":"09","name":"Bayern"}},{"name":"Dorfstr.","postalCode":"83623","locality":"Dietramszell","municipality":{"key":"09173118","name":"Dietramszell","type":"Kreisangehörige_Gemeinde"},"district":{"key":"09173","name":"Bad Tölz-Wolfratshausen","type":"Landkreis"},"federalState":{"key":"09","name":"Bayern"}},{"name":"Eglinger Str.","postalCode":"83623","locality":"Dietramszell","municipality":{"key":"09173118","name":"Dietramszell","type":"Kreisangehörige_Gemeinde"},"district":{"key":"09173","name":"Bad Tölz-Wolfratshausen","type":"Landkreis"},"federalState":{"key":"09","name":"Bayern"}},{"name":"Eichenweg","postalCode":"83623","locality":"Dietramszell","municipality":{"key":"09173118","name":"Dietramszell","type":"Kreisangehörige_Gemeinde"},"district":{"key":"09173","name":"Bad Tölz-Wolfratshausen","type":"Landkreis"},"federalState":{"key":"09","name":"Bayern"}},{"name":"Einöd","postalCode":"83623","locality":"Dietramszell","municipality":{"key":"09173118","name":"Dietramszell","type":"Kreisangehörige_Gemeinde"},"district":{"key":"09173","name":"Bad Tölz-Wolfratshausen","type":"Landkreis"},"federalState":{"key":"09","name":"Bayern"}},{"name":"Emmerkofen","postalCode":"83623","locality":"Dietramszell","municipality":{"key":"09173118","name":"Dietramszell","type":"Kreisangehörige_Gemeinde"},"district":{"key":"09173","name":"Bad Tölz-Wolfratshausen","type":"Landkreis"},"federalState":{"key":"09","name":"Bayern"}},{"name":"Endlhauser Str.","postalCode":"83623","locality":"Dietramszell","municipality":{"key":"09173118","name":"Dietramszell","type":"Kreisangehörige_Gemeinde"},"district":{"key":"09173","name":"Bad Tölz-Wolfratshausen","type":"Landkreis"},"federalState":{"key":"09","name":"Bayern"}},{"name":"Feldstr.","postalCode":"83623","locality":"Dietramszell","municipality":{"key":"09173118","name":"Dietramszell","type":"Kreisangehörige_Gemeinde"},"district":{"key":"09173","name":"Bad Tölz-Wolfratshausen","type":"Landkreis"},"federalState":{"key":"09","name":"Bayern"}},{"name":"Fichtenstr.","postalCode":"83623","locality":"Dietramszell","municipality":{"key":"09173118","name":"Dietramszell","type":"Kreisangehörige_Gemeinde"},"district":{"key":"09173","name":"Bad Tölz-Wolfratshausen","type":"Landkreis"},"federalState":{"key":"09","name":"Bayern"}},{"name":"Föggenbeuern","postalCode":"83623","locality":"Dietramszell","municipality":{"key":"09173118","name":"Dietramszell","type":"Kreisangehörige_Gemeinde"},"district":{"key":"09173","name":"Bad Tölz-Wolfratshausen","type":"Landkreis"},"federalState":{"key":"09","name":"Bayern"}},{"name":"Fraßhauser Str.","postalCode":"83623","locality":"Dietramszell","municipality":{"key":"09173118","name":"Dietramszell","type":"Kreisangehörige_Gemeinde"},"district":{"key":"09173","name":"Bad Tölz-Wolfratshausen","type":"Landkreis"},"federalState":{"key":"09","name":"Bayern"}},{"name":"Gartenstr.","postalCode":"83623","locality":"Dietramszell","municipality":{"key":"09173118","name":"Dietramszell","type":"Kreisangehörige_Gemeinde"},"district":{"key":"09173","name":"Bad Tölz-Wolfratshausen","type":"Landkreis"},"federalState":{"key":"09","name":"Bayern"}},{"name":"Gastwies","postalCode":"83623","locality":"Dietramszell","municipality":{"key":"09173118","name":"Dietramszell","type":"Kreisangehörige_Gemeinde"},"district":{"key":"09173","name":"Bad Tölz-Wolfratshausen","type":"Landkreis"},"federalState":{"key":"09","name":"Bayern"}},{"name":"Haarstr.","postalCode":"83623","locality":"Dietramszell","municipality":{"key":"09173118","name":"Dietramszell","type":"Kreisangehörige_Gemeinde"},"district":{"key":"09173","name":"Bad Tölz-Wolfratshausen","type":"Landkreis"},"federalState":{"key":"09","name":"Bayern"}},{"name":"Hauptstr.","postalCode":"83623","locality":"Dietramszell","municipality":{"key":"09173118","name":"Dietramszell","type":"Kreisangehörige_Gemeinde"},"district":{"key":"09173","name":"Bad Tölz-Wolfratshausen","type":"Landkreis"},"federalState":{"key":"09","name":"Bayern"}},{"name":"Hechenberger Weg","postalCode":"83623","locality":"Dietramszell","municipality":{"key":"09173118","name":"Dietramszell","type":"Kreisangehörige_Gemeinde"},"district":{"key":"09173","name":"Bad Tölz-Wolfratshausen","type":"Landkreis"},"federalState":{"key":"09","name":"Bayern"}},{"name":"Herderweg","postalCode":"83623","locality":"Dietramszell","municipality":{"key":"09173118","name":"Dietramszell","type":"Kreisangehörige_Gemeinde"},"district":{"key":"09173","name":"Bad Tölz-Wolfratshausen","type":"Landkreis"},"federalState":{"key":"09","name":"Bayern"}},{"name":"Hochfeldweg","postalCode":"83623","locality":"Dietramszell","municipality":{"key":"09173118","name":"Dietramszell","type":"Kreisangehörige_Gemeinde"},"district":{"key":"09173","name":"Bad Tölz-Wolfratshausen","type":"Landkreis"},"federalState":{"key":"09","name":"Bayern"}},{"name":"Hochlandstr.","postalCode":"83623","locality":"Dietramszell","municipality":{"key":"09173118","name":"Dietramszell","type":"Kreisangehörige_Gemeinde"},"district":{"key":"09173","name":"Bad Tölz-Wolfratshausen","type":"Landkreis"},"federalState":{"key":"09","name":"Bayern"}},{"name":"Hölching","postalCode":"83623","locality":"Dietramszell","municipality":{"key":"09173118","name":"Dietramszell","type":"Kreisangehörige_Gemeinde"},"district":{"key":"09173","name":"Bad Tölz-Wolfratshausen","type":"Landkreis"},"federalState":{"key":"09","name":"Bayern"}},{"name":"Hölchinger Weg","postalCode":"83623","locality":"Dietramszell","municipality":{"key":"09173118","name":"Dietramszell","type":"Kreisangehörige_Gemeinde"},"district":{"key":"09173","name":"Bad Tölz-Wolfratshausen","type":"Landkreis"},"federalState":{"key":"09","name":"Bayern"}},{"name":"Hubergasse","postalCode":"83623","locality":"Dietramszell","municipality":{"key":"09173118","name":"Dietramszell","type":"Kreisangehörige_Gemeinde"},"district":{"key":"09173","name":"Bad Tölz-Wolfratshausen","type":"Landkreis"},"federalState":{"key":"09","name":"Bayern"}},{"name":"Humbach","postalCode":"83623","locality":"Dietramszell","municipality":{"key":"09173118","name":"Dietramszell","type":"Kreisangehörige_Gemeinde"},"district":{"key":"09173","name":"Bad Tölz-Wolfratshausen","type":"Landkreis"},"federalState":{"key":"09","name":"Bayern"}},{"name":"Humbacher Str.","postalCode":"83623","locality":"Dietramszell","municipality":{"key":"09173118","name":"Dietramszell","type":"Kreisangehörige_Gemeinde"},"district":{"key":"09173","name":"Bad Tölz-Wolfratshausen","type":"Landkreis"},"federalState":{"key":"09","name":"Bayern"}},{"name":"In der Ail","postalCode":"83623","locality":"Dietramszell","municipality":{"key":"09173118","name":"Dietramszell","type":"Kreisangehörige_Gemeinde"},"district":{"key":"09173","name":"Bad Tölz-Wolfratshausen","type":"Landkreis"},"federalState":{"key":"09","name":"Bayern"}},{"name":"Isarstr.","postalCode":"83623","locality":"Dietramszell","municipality":{"key":"09173118","name":"Dietramszell","type":"Kreisangehörige_Gemeinde"},"district":{"key":"09173","name":"Bad Tölz-Wolfratshausen","type":"Landkreis"},"federalState":{"key":"09","name":"Bayern"}},{"name":"Jasberg","postalCode":"83623","locality":"Dietramszell","municipality":{"key":"09173118","name":"Dietramszell","type":"Kreisangehörige_Gemeinde"},"district":{"key":"09173","name":"Bad Tölz-Wolfratshausen","type":"Landkreis"},"federalState":{"key":"09","name":"Bayern"}},{"name":"Jasberger Weg","postalCode":"83623","locality":"Dietramszell","municipality":{"key":"09173118","name":"Dietramszell","type":"Kreisangehörige_Gemeinde"},"district":{"key":"09173","name":"Bad Tölz-Wolfratshausen","type":"Landkreis"},"federalState":{"key":"09","name":"Bayern"}},{"name":"Kanzlerweg","postalCode":"83623","locality":"Dietramszell","municipality":{"key":"09173118","name":"Dietramszell","type":"Kreisangehörige_Gemeinde"},"district":{"key":"09173","name":"Bad Tölz-Wolfratshausen","type":"Landkreis"},"federalState":{"key":"09","name":"Bayern"}},{"name":"Kindergartenweg","postalCode":"83623","locality":"Dietramszell","municipality":{"key":"09173118","name":"Dietramszell","type":"Kreisangehörige_Gemeinde"},"district":{"key":"09173","name":"Bad Tölz-Wolfratshausen","type":"Landkreis"},"federalState":{"key":"09","name":"Bayern"}},{"name":"Kirchplatz","postalCode":"83623","locality":"Dietramszell","municipality":{"key":"09173118","name":"Dietramszell","type":"Kreisangehörige_Gemeinde"},"district":{"key":"09173","name":"Bad Tölz-Wolfratshausen","type":"Landkreis"},"federalState":{"key":"09","name":"Bayern"}},{"name":"Kirchweg","postalCode":"83623","locality":"Dietramszell","municipality":{"key":"09173118","name":"Dietramszell","type":"Kreisangehörige_Gemeinde"},"district":{"key":"09173","name":"Bad Tölz-Wolfratshausen","type":"Landkreis"},"federalState":{"key":"09","name":"Bayern"}},{"name":"Kleeweg","postalCode":"83623","locality":"Dietramszell","municipality":{"key":"09173118","name":"Dietramszell","type":"Kreisangehörige_Gemeinde"},"district":{"key":"09173","name":"Bad Tölz-Wolfratshausen","type":"Landkreis"},"federalState":{"key":"09","name":"Bayern"}},{"name":"Klessingstr.","postalCode":"83623","locality":"Dietramszell","municipality":{"key":"09173118","name":"Dietramszell","type":"Kreisangehörige_Gemeinde"},"district":{"key":"09173","name":"Bad Tölz-Wolfratshausen","type":"Landkreis"},"federalState":{"key":"09","name":"Bayern"}},{"name":"Klosterplatz","postalCode":"83623","locality":"Dietramszell","municipality":{"key":"09173118","name":"Dietramszell","type":"Kreisangehörige_Gemeinde"},"district":{"key":"09173","name":"Bad Tölz-Wolfratshausen","type":"Landkreis"},"federalState":{"key":"09","name":"Bayern"}},{"name":"Kolomanweg","postalCode":"83623","locality":"Dietramszell","municipality":{"key":"09173118","name":"Dietramszell","type":"Kreisangehörige_Gemeinde"},"district":{"key":"09173","name":"Bad Tölz-Wolfratshausen","type":"Landkreis"},"federalState":{"key":"09","name":"Bayern"}},{"name":"Kreuzbichlweg","postalCode":"83623","locality":"Dietramszell","municipality":{"key":"09173118","name":"Dietramszell","type":"Kreisangehörige_Gemeinde"},"district":{"key":"09173","name":"Bad Tölz-Wolfratshausen","type":"Landkreis"},"federalState":{"key":"09","name":"Bayern"}},{"name":"Kronmühlstr.","postalCode":"83623","locality":"Dietramszell","municipality":{"key":"09173118","name":"Dietramszell","type":"Kreisangehörige_Gemeinde"},"district":{"key":"09173","name":"Bad Tölz-Wolfratshausen","type":"Landkreis"},"federalState":{"key":"09","name":"Bayern"}},{"name":"Lehrer-Vogl-Weg","postalCode":"83623","locality":"Dietramszell","municipality":{"key":"09173118","name":"Dietramszell","type":"Kreisangehörige_Gemeinde"},"district":{"key":"09173","name":"Bad Tölz-Wolfratshausen","type":"Landkreis"},"federalState":{"key":"09","name":"Bayern"}},{"name":"Leismühl","postalCode":"83623","locality":"Dietramszell","municipality":{"key":"09173118","name":"Dietramszell","type":"Kreisangehörige_Gemeinde"},"district":{"key":"09173","name":"Bad Tölz-Wolfratshausen","type":"Landkreis"},"federalState":{"key":"09","name":"Bayern"}},{"name":"Lindener Str.","postalCode":"83623","locality":"Dietramszell","municipality":{"key":"09173118","name":"Dietramszell","type":"Kreisangehörige_Gemeinde"},"district":{"key":"09173","name":"Bad Tölz-Wolfratshausen","type":"Landkreis"},"federalState":{"key":"09","name":"Bayern"}},{"name":"Lindenweg","postalCode":"83623","locality":"Dietramszell","municipality":{"key":"09173118","name":"Dietramszell","type":"Kreisangehörige_Gemeinde"},"district":{"key":"09173","name":"Bad Tölz-Wolfratshausen","type":"Landkreis"},"federalState":{"key":"09","name":"Bayern"}},{"name":"Lochener Str.","postalCode":"83623","locality":"Dietramszell","municipality":{"key":"09173118","name":"Dietramszell","type":"Kreisangehörige_Gemeinde"},"district":{"key":"09173","name":"Bad Tölz-Wolfratshausen","type":"Landkreis"},"federalState":{"key":"09","name":"Bayern"}},{"name":"Mühlgasse","postalCode":"83623","locality":"Dietramszell","municipality":{"key":"09173118","name":"Dietramszell","type":"Kreisangehörige_Gemeinde"},"district":{"key":"09173","name":"Bad Tölz-Wolfratshausen","type":"Landkreis"},"federalState":{"key":"09","name":"Bayern"}},{"name":"Münchner Str.","postalCode":"83623","locality":"Dietramszell","municipality":{"key":"09173118","name":"Dietramszell","type":"Kreisangehörige_Gemeinde"},"district":{"key":"09173","name":"Bad Tölz-Wolfratshausen","type":"Landkreis"},"federalState":{"key":"09","name":"Bayern"}},{"name":"Niederreuth","postalCode":"83623","locality":"Dietramszell","municipality":{"key":"09173118","name":"Dietramszell","type":"Kreisangehörige_Gemeinde"},"district":{"key":"09173","name":"Bad Tölz-Wolfratshausen","type":"Landkreis"},"federalState":{"key":"09","name":"Bayern"}},{"name":"Nordhofstr.","postalCode":"83623","locality":"Dietramszell","municipality":{"key":"09173118","name":"Dietramszell","type":"Kreisangehörige_Gemeinde"},"district":{"key":"09173","name":"Bad Tölz-Wolfratshausen","type":"Landkreis"},"federalState":{"key":"09","name":"Bayern"}},{"name":"Ostener Feldweg","postalCode":"83623","locality":"Dietramszell","municipality":{"key":"09173118","name":"Dietramszell","type":"Kreisangehörige_Gemeinde"},"district":{"key":"09173","name":"Bad Tölz-Wolfratshausen","type":"Landkreis"},"federalState":{"key":"09","name":"Bayern"}},{"name":"Ostener Str.","postalCode":"83623","locality":"Dietramszell","municipality":{"key":"09173118","name":"Dietramszell","type":"Kreisangehörige_Gemeinde"},"district":{"key":"09173","name":"Bad Tölz-Wolfratshausen","type":"Landkreis"},"federalState":{"key":"09","name":"Bayern"}},{"name":"Otterfinger Str.","postalCode":"83623","locality":"Dietramszell","municipality":{"key":"09173118","name":"Dietramszell","type":"Kreisangehörige_Gemeinde"},"district":{"key":"09173","name":"Bad Tölz-Wolfratshausen","type":"Landkreis"},"federalState":{"key":"09","name":"Bayern"}},{"name":"Palnkamer Weg","postalCode":"83623","locality":"Dietramszell","municipality":{"key":"09173118","name":"Dietramszell","type":"Kreisangehörige_Gemeinde"},"district":{"key":"09173","name":"Bad Tölz-Wolfratshausen","type":"Landkreis"},"federalState":{"key":"09","name":"Bayern"}},{"name":"Pfarrer-Zintl-Weg","postalCode":"83623","locality":"Dietramszell","municipality":{"key":"09173118","name":"Dietramszell","type":"Kreisangehörige_Gemeinde"},"district":{"key":"09173","name":"Bad Tölz-Wolfratshausen","type":"Landkreis"},"federalState":{"key":"09","name":"Bayern"}},{"name":"Raiffeisenplatz","postalCode":"83623","locality":"Dietramszell","municipality":{"key":"09173118","name":"Dietramszell","type":"Kreisangehörige_Gemeinde"},"district":{"key":"09173","name":"Bad Tölz-Wolfratshausen","type":"Landkreis"},"federalState":{"key":"09","name":"Bayern"}},{"name":"Reuth","postalCode":"83623","locality":"Dietramszell","municipality":{"key":"09173118","name":"Dietramszell","type":"Kreisangehörige_Gemeinde"},"district":{"key":"09173","name":"Bad Tölz-Wolfratshausen","type":"Landkreis"},"federalState":{"key":"09","name":"Bayern"}},{"name":"Rieder Str.","postalCode":"83623","locality":"Dietramszell","municipality":{"key":"09173118","name":"Dietramszell","type":"Kreisangehörige_Gemeinde"},"district":{"key":"09173","name":"Bad Tölz-Wolfratshausen","type":"Landkreis"},"federalState":{"key":"09","name":"Bayern"}},{"name":"Schlickenrieder Str.","postalCode":"83623","locality":"Dietramszell","municipality":{"key":"09173118","name":"Dietramszell","type":"Kreisangehörige_Gemeinde"},"district":{"key":"09173","name":"Bad Tölz-Wolfratshausen","type":"Landkreis"},"federalState":{"key":"09","name":"Bayern"}},{"name":"Schloßstr.","postalCode":"83623","locality":"Dietramszell","municipality":{"key":"09173118","name":"Dietramszell","type":"Kreisangehörige_Gemeinde"},"district":{"key":"09173","name":"Bad Tölz-Wolfratshausen","type":"Landkreis"},"federalState":{"key":"09","name":"Bayern"}},{"name":"Schmiedgasse","postalCode":"83623","locality":"Dietramszell","municipality":{"key":"09173118","name":"Dietramszell","type":"Kreisangehörige_Gemeinde"},"district":{"key":"09173","name":"Bad Tölz-Wolfratshausen","type":"Landkreis"},"federalState":{"key":"09","name":"Bayern"}},{"name":"Sonnenlängstr.","postalCode":"83623","locality":"Dietramszell","municipality":{"key":"09173118","name":"Dietramszell","type":"Kreisangehörige_Gemeinde"},"district":{"key":"09173","name":"Bad Tölz-Wolfratshausen","type":"Landkreis"},"federalState":{"key":"09","name":"Bayern"}},{"name":"Steingauer Str.","postalCode":"83623","locality":"Dietramszell","municipality":{"key":"09173118","name":"Dietramszell","type":"Kreisangehörige_Gemeinde"},"district":{"key":"09173","name":"Bad Tölz-Wolfratshausen","type":"Landkreis"},"federalState":{"key":"09","name":"Bayern"}},{"name":"Stockacher Weg","postalCode":"83623","locality":"Dietramszell","municipality":{"key":"09173118","name":"Dietramszell","type":"Kreisangehörige_Gemeinde"},"district":{"key":"09173","name":"Bad Tölz-Wolfratshausen","type":"Landkreis"},"federalState":{"key":"09","name":"Bayern"}},{"name":"Tattenkofen","postalCode":"83623","locality":"Dietramszell","municipality":{"key":"09173118","name":"Dietramszell","type":"Kreisangehörige_Gemeinde"},"district":{"key":"09173","name":"Bad Tölz-Wolfratshausen","type":"Landkreis"},"federalState":{"key":"09","name":"Bayern"}},{"name":"Tattenkofener Str.","postalCode":"83623","locality":"Dietramszell","municipality":{"key":"09173118","name":"Dietramszell","type":"Kreisangehörige_Gemeinde"},"district":{"key":"09173","name":"Bad Tölz-Wolfratshausen","type":"Landkreis"},"federalState":{"key":"09","name":"Bayern"}},{"name":"Thalham","postalCode":"83623","locality":"Dietramszell","municipality":{"key":"09173118","name":"Dietramszell","type":"Kreisangehörige_Gemeinde"},"district":{"key":"09173","name":"Bad Tölz-Wolfratshausen","type":"Landkreis"},"federalState":{"key":"09","name":"Bayern"}},{"name":"Thankirchen","postalCode":"83623","locality":"Dietramszell","municipality":{"key":"09173118","name":"Dietramszell","type":"Kreisangehörige_Gemeinde"},"district":{"key":"09173","name":"Bad Tölz-Wolfratshausen","type":"Landkreis"},"federalState":{"key":"09","name":"Bayern"}},{"name":"Tölzer Str.","postalCode":"83623","locality":"Dietramszell","municipality":{"key":"09173118","name":"Dietramszell","type":"Kreisangehörige_Gemeinde"},"district":{"key":"09173","name":"Bad Tölz-Wolfratshausen","type":"Landkreis"},"federalState":{"key":"09","name":"Bayern"}},{"name":"Waldstr.","postalCode":"83623","locality":"Dietramszell","municipality":{"key":"09173118","name":"Dietramszell","type":"Kreisangehörige_Gemeinde"},"district":{"key":"09173","name":"Bad Tölz-Wolfratshausen","type":"Landkreis"},"federalState":{"key":"09","name":"Bayern"}},{"name":"Weihermühle","postalCode":"83623","locality":"Dietramszell","municipality":{"key":"09173118","name":"Dietramszell","type":"Kreisangehörige_Gemeinde"},"district":{"key":"09173","name":"Bad Tölz-Wolfratshausen","type":"Landkreis"},"federalState":{"key":"09","name":"Bayern"}},{"name":"Weiherweg","postalCode":"83623","locality":"Dietramszell","municipality":{"key":"09173118","name":"Dietramszell","type":"Kreisangehörige_Gemeinde"},"district":{"key":"09173","name":"Bad Tölz-Wolfratshausen","type":"Landkreis"},"federalState":{"key":"09","name":"Bayern"}},{"name":"Werner-Gebhardt-Weg","postalCode":"83623","locality":"Dietramszell","municipality":{"key":"09173118","name":"Dietramszell","type":"Kreisangehörige_Gemeinde"},"district":{"key":"09173","name":"Bad Tölz-Wolfratshausen","type":"Landkreis"},"federalState":{"key":"09","name":"Bayern"}},{"name":"Wettlkamer Str.","postalCode":"83623","locality":"Dietramszell","municipality":{"key":"09173118","name":"Dietramszell","type":"Kreisangehörige_Gemeinde"},"district":{"key":"09173","name":"Bad Tölz-Wolfratshausen","type":"Landkreis"},"federalState":{"key":"09","name":"Bayern"}},{"name":"Wolfratshauser Str.","postalCode":"83623","locality":"Dietramszell","municipality":{"key":"09173118","name":"Dietramszell","type":"Kreisangehörige_Gemeinde"},"district":{"key":"09173","name":"Bad Tölz-Wolfratshausen","type":"Landkreis"},"federalState":{"key":"09","name":"Bayern"}},{"name":"Ziegelstadelweg","postalCode":"83623","locality":"Dietramszell","municipality":{"key":"09173118","name":"Dietramszell","type":"Kreisangehörige_Gemeinde"},"district":{"key":"09173","name":"Bad Tölz-Wolfratshausen","type":"Landkreis"},"federalState":{"key":"09","name":"Bayern"}},{"name":"Zum Kögl","postalCode":"83623","locality":"Dietramszell","municipality":{"key":"09173118","name":"Dietramszell","type":"Kreisangehörige_Gemeinde"},"district":{"key":"09173","name":"Bad Tölz-Wolfratshausen","type":"Landkreis"},"federalState":{"key":"09","name":"Bayern"}},]