[{"name":"Allrottweg","postalCode":"49448","locality":"Brockum","municipality":{"key":"03251009","name":"Brockum","type":"Kreisangehörige_Gemeinde"},"district":{"key":"03251","name":"Diepholz","type":"Landkreis"},"federalState":{"key":"03","name":"Niedersachsen"}},{"name":"Alte Mühle","postalCode":"49448","locality":"Brockum","municipality":{"key":"03251009","name":"Brockum","type":"Kreisangehörige_Gemeinde"},"district":{"key":"03251","name":"Diepholz","type":"Landkreis"},"federalState":{"key":"03","name":"Niedersachsen"}},{"name":"Alter Markt","postalCode":"49448","locality":"Brockum","municipality":{"key":"03251009","name":"Brockum","type":"Kreisangehörige_Gemeinde"},"district":{"key":"03251","name":"Diepholz","type":"Landkreis"},"federalState":{"key":"03","name":"Niedersachsen"}},{"name":"Alter Teich","postalCode":"49448","locality":"Brockum","municipality":{"key":"03251009","name":"Brockum","type":"Kreisangehörige_Gemeinde"},"district":{"key":"03251","name":"Diepholz","type":"Landkreis"},"federalState":{"key":"03","name":"Niedersachsen"}},{"name":"Am Aalteich","postalCode":"49448","locality":"Brockum","municipality":{"key":"03251009","name":"Brockum","type":"Kreisangehörige_Gemeinde"},"district":{"key":"03251","name":"Diepholz","type":"Landkreis"},"federalState":{"key":"03","name":"Niedersachsen"}},{"name":"Am Backhaus","postalCode":"49448","locality":"Brockum","municipality":{"key":"03251009","name":"Brockum","type":"Kreisangehörige_Gemeinde"},"district":{"key":"03251","name":"Diepholz","type":"Landkreis"},"federalState":{"key":"03","name":"Niedersachsen"}},{"name":"Am Busche","postalCode":"49448","locality":"Brockum","municipality":{"key":"03251009","name":"Brockum","type":"Kreisangehörige_Gemeinde"},"district":{"key":"03251","name":"Diepholz","type":"Landkreis"},"federalState":{"key":"03","name":"Niedersachsen"}},{"name":"Am Sandort","postalCode":"49448","locality":"Brockum","municipality":{"key":"03251009","name":"Brockum","type":"Kreisangehörige_Gemeinde"},"district":{"key":"03251","name":"Diepholz","type":"Landkreis"},"federalState":{"key":"03","name":"Niedersachsen"}},{"name":"An der Esse","postalCode":"49448","locality":"Brockum","municipality":{"key":"03251009","name":"Brockum","type":"Kreisangehörige_Gemeinde"},"district":{"key":"03251","name":"Diepholz","type":"Landkreis"},"federalState":{"key":"03","name":"Niedersachsen"}},{"name":"Antonstr.","postalCode":"49448","locality":"Brockum","municipality":{"key":"03251009","name":"Brockum","type":"Kreisangehörige_Gemeinde"},"district":{"key":"03251","name":"Diepholz","type":"Landkreis"},"federalState":{"key":"03","name":"Niedersachsen"}},{"name":"Auf dem Kämpen","postalCode":"49448","locality":"Brockum","municipality":{"key":"03251009","name":"Brockum","type":"Kreisangehörige_Gemeinde"},"district":{"key":"03251","name":"Diepholz","type":"Landkreis"},"federalState":{"key":"03","name":"Niedersachsen"}},{"name":"Auf den Bröken","postalCode":"49448","locality":"Brockum","municipality":{"key":"03251009","name":"Brockum","type":"Kreisangehörige_Gemeinde"},"district":{"key":"03251","name":"Diepholz","type":"Landkreis"},"federalState":{"key":"03","name":"Niedersachsen"}},{"name":"Bockauer Weg","postalCode":"49448","locality":"Brockum","municipality":{"key":"03251009","name":"Brockum","type":"Kreisangehörige_Gemeinde"},"district":{"key":"03251","name":"Diepholz","type":"Landkreis"},"federalState":{"key":"03","name":"Niedersachsen"}},{"name":"Bruchdamm","postalCode":"49448","locality":"Brockum","municipality":{"key":"03251009","name":"Brockum","type":"Kreisangehörige_Gemeinde"},"district":{"key":"03251","name":"Diepholz","type":"Landkreis"},"federalState":{"key":"03","name":"Niedersachsen"}},{"name":"Buschweg","postalCode":"49448","locality":"Brockum","municipality":{"key":"03251009","name":"Brockum","type":"Kreisangehörige_Gemeinde"},"district":{"key":"03251","name":"Diepholz","type":"Landkreis"},"federalState":{"key":"03","name":"Niedersachsen"}},{"name":"Butzendorfer Weg","postalCode":"49448","locality":"Brockum","municipality":{"key":"03251009","name":"Brockum","type":"Kreisangehörige_Gemeinde"},"district":{"key":"03251","name":"Diepholz","type":"Landkreis"},"federalState":{"key":"03","name":"Niedersachsen"}},{"name":"Carl-Friedrich-Müller-Str.","postalCode":"49356","locality":"Diepholz","municipality":{"key":"03251012","name":"Diepholz, Stadt","type":"Stadt"},"district":{"key":"03251","name":"Diepholz","type":"Landkreis"},"federalState":{"key":"03","name":"Niedersachsen"}},{"name":"Carl-Orff-Weg","postalCode":"49356","locality":"Diepholz","municipality":{"key":"03251012","name":"Diepholz, Stadt","type":"Stadt"},"district":{"key":"03251","name":"Diepholz","type":"Landkreis"},"federalState":{"key":"03","name":"Niedersachsen"}},{"name":"Clara-Schumann-Weg","postalCode":"49356","locality":"Diepholz","municipality":{"key":"03251012","name":"Diepholz, Stadt","type":"Stadt"},"district":{"key":"03251","name":"Diepholz","type":"Landkreis"},"federalState":{"key":"03","name":"Niedersachsen"}},{"name":"Dauhorster Weg","postalCode":"49448","locality":"Brockum","municipality":{"key":"03251009","name":"Brockum","type":"Kreisangehörige_Gemeinde"},"district":{"key":"03251","name":"Diepholz","type":"Landkreis"},"federalState":{"key":"03","name":"Niedersachsen"}},{"name":"Dehnweg","postalCode":"49448","locality":"Brockum","municipality":{"key":"03251009","name":"Brockum","type":"Kreisangehörige_Gemeinde"},"district":{"key":"03251","name":"Diepholz","type":"Landkreis"},"federalState":{"key":"03","name":"Niedersachsen"}},{"name":"Dönkenweg","postalCode":"49448","locality":"Brockum","municipality":{"key":"03251009","name":"Brockum","type":"Kreisangehörige_Gemeinde"},"district":{"key":"03251","name":"Diepholz","type":"Landkreis"},"federalState":{"key":"03","name":"Niedersachsen"}},{"name":"Eichenweg","postalCode":"49356","locality":"Diepholz","municipality":{"key":"03251012","name":"Diepholz, Stadt","type":"Stadt"},"district":{"key":"03251","name":"Diepholz","type":"Landkreis"},"federalState":{"key":"03","name":"Niedersachsen"}},{"name":"Elbeweg","postalCode":"49356","locality":"Diepholz","municipality":{"key":"03251012","name":"Diepholz, Stadt","type":"Stadt"},"district":{"key":"03251","name":"Diepholz","type":"Landkreis"},"federalState":{"key":"03","name":"Niedersachsen"}},{"name":"Enge Str.","postalCode":"49356","locality":"Diepholz","municipality":{"key":"03251012","name":"Diepholz, Stadt","type":"Stadt"},"district":{"key":"03251","name":"Diepholz","type":"Landkreis"},"federalState":{"key":"03","name":"Niedersachsen"}},{"name":"Erlenweg","postalCode":"49356","locality":"Diepholz","municipality":{"key":"03251012","name":"Diepholz, Stadt","type":"Stadt"},"district":{"key":"03251","name":"Diepholz","type":"Landkreis"},"federalState":{"key":"03","name":"Niedersachsen"}},{"name":"Eschenweg","postalCode":"49356","locality":"Diepholz","municipality":{"key":"03251012","name":"Diepholz, Stadt","type":"Stadt"},"district":{"key":"03251","name":"Diepholz","type":"Landkreis"},"federalState":{"key":"03","name":"Niedersachsen"}},{"name":"Eschfeldstr.","postalCode":"49356","locality":"Diepholz","municipality":{"key":"03251012","name":"Diepholz, Stadt","type":"Stadt"},"district":{"key":"03251","name":"Diepholz","type":"Landkreis"},"federalState":{"key":"03","name":"Niedersachsen"}},{"name":"Eschholt","postalCode":"49356","locality":"Diepholz","municipality":{"key":"03251012","name":"Diepholz, Stadt","type":"Stadt"},"district":{"key":"03251","name":"Diepholz","type":"Landkreis"},"federalState":{"key":"03","name":"Niedersachsen"}},{"name":"Eselweg","postalCode":"49356","locality":"Diepholz","municipality":{"key":"03251012","name":"Diepholz, Stadt","type":"Stadt"},"district":{"key":"03251","name":"Diepholz","type":"Landkreis"},"federalState":{"key":"03","name":"Niedersachsen"}},{"name":"Espeloge","postalCode":"49356","locality":"Diepholz","municipality":{"key":"03251012","name":"Diepholz, Stadt","type":"Stadt"},"district":{"key":"03251","name":"Diepholz","type":"Landkreis"},"federalState":{"key":"03","name":"Niedersachsen"}},{"name":"Eßmannskamp","postalCode":"49356","locality":"Diepholz","municipality":{"key":"03251012","name":"Diepholz, Stadt","type":"Stadt"},"district":{"key":"03251","name":"Diepholz","type":"Landkreis"},"federalState":{"key":"03","name":"Niedersachsen"}},{"name":"Eva-Str.","postalCode":"49356","locality":"Diepholz","municipality":{"key":"03251012","name":"Diepholz, Stadt","type":"Stadt"},"district":{"key":"03251","name":"Diepholz","type":"Landkreis"},"federalState":{"key":"03","name":"Niedersachsen"}},{"name":"Faberstr.","postalCode":"49448","locality":"Brockum","municipality":{"key":"03251009","name":"Brockum","type":"Kreisangehörige_Gemeinde"},"district":{"key":"03251","name":"Diepholz","type":"Landkreis"},"federalState":{"key":"03","name":"Niedersachsen"}},{"name":"Fasanenweg","postalCode":"49448","locality":"Brockum","municipality":{"key":"03251009","name":"Brockum","type":"Kreisangehörige_Gemeinde"},"district":{"key":"03251","name":"Diepholz","type":"Landkreis"},"federalState":{"key":"03","name":"Niedersachsen"}},{"name":"Finkenweg","postalCode":"49448","locality":"Brockum","municipality":{"key":"03251009","name":"Brockum","type":"Kreisangehörige_Gemeinde"},"district":{"key":"03251","name":"Diepholz","type":"Landkreis"},"federalState":{"key":"03","name":"Niedersachsen"}},{"name":"Flachsweg","postalCode":"49448","locality":"Brockum","municipality":{"key":"03251009","name":"Brockum","type":"Kreisangehörige_Gemeinde"},"district":{"key":"03251","name":"Diepholz","type":"Landkreis"},"federalState":{"key":"03","name":"Niedersachsen"}},{"name":"Fladderstr.","postalCode":"49448","locality":"Brockum","municipality":{"key":"03251009","name":"Brockum","type":"Kreisangehörige_Gemeinde"},"district":{"key":"03251","name":"Diepholz","type":"Landkreis"},"federalState":{"key":"03","name":"Niedersachsen"}},{"name":"Friedelstr.","postalCode":"49448","locality":"Brockum","municipality":{"key":"03251009","name":"Brockum","type":"Kreisangehörige_Gemeinde"},"district":{"key":"03251","name":"Diepholz","type":"Landkreis"},"federalState":{"key":"03","name":"Niedersachsen"}},{"name":"Friedrich-Lohmeyer-Str.","postalCode":"49448","locality":"Brockum","municipality":{"key":"03251009","name":"Brockum","type":"Kreisangehörige_Gemeinde"},"district":{"key":"03251","name":"Diepholz","type":"Landkreis"},"federalState":{"key":"03","name":"Niedersachsen"}},{"name":"Friedrichstr.","postalCode":"49448","locality":"Brockum","municipality":{"key":"03251009","name":"Brockum","type":"Kreisangehörige_Gemeinde"},"district":{"key":"03251","name":"Diepholz","type":"Landkreis"},"federalState":{"key":"03","name":"Niedersachsen"}},{"name":"Fuhrenweg","postalCode":"49448","locality":"Brockum","municipality":{"key":"03251009","name":"Brockum","type":"Kreisangehörige_Gemeinde"},"district":{"key":"03251","name":"Diepholz","type":"Landkreis"},"federalState":{"key":"03","name":"Niedersachsen"}},{"name":"Griechoweg","postalCode":"49448","locality":"Brockum","municipality":{"key":"03251009","name":"Brockum","type":"Kreisangehörige_Gemeinde"},"district":{"key":"03251","name":"Diepholz","type":"Landkreis"},"federalState":{"key":"03","name":"Niedersachsen"}},{"name":"Haldemer Weg","postalCode":"49448","locality":"Brockum","municipality":{"key":"03251009","name":"Brockum","type":"Kreisangehörige_Gemeinde"},"district":{"key":"03251","name":"Diepholz","type":"Landkreis"},"federalState":{"key":"03","name":"Niedersachsen"}},{"name":"Hasenweg","postalCode":"49448","locality":"Brockum","municipality":{"key":"03251009","name":"Brockum","type":"Kreisangehörige_Gemeinde"},"district":{"key":"03251","name":"Diepholz","type":"Landkreis"},"federalState":{"key":"03","name":"Niedersachsen"}},{"name":"Heideweg","postalCode":"49448","locality":"Brockum","municipality":{"key":"03251009","name":"Brockum","type":"Kreisangehörige_Gemeinde"},"district":{"key":"03251","name":"Diepholz","type":"Landkreis"},"federalState":{"key":"03","name":"Niedersachsen"}},{"name":"Heidplacken","postalCode":"49448","locality":"Brockum","municipality":{"key":"03251009","name":"Brockum","type":"Kreisangehörige_Gemeinde"},"district":{"key":"03251","name":"Diepholz","type":"Landkreis"},"federalState":{"key":"03","name":"Niedersachsen"}},{"name":"Heinrichstr.","postalCode":"49448","locality":"Brockum","municipality":{"key":"03251009","name":"Brockum","type":"Kreisangehörige_Gemeinde"},"district":{"key":"03251","name":"Diepholz","type":"Landkreis"},"federalState":{"key":"03","name":"Niedersachsen"}},{"name":"Heuerweg","postalCode":"49448","locality":"Brockum","municipality":{"key":"03251009","name":"Brockum","type":"Kreisangehörige_Gemeinde"},"district":{"key":"03251","name":"Diepholz","type":"Landkreis"},"federalState":{"key":"03","name":"Niedersachsen"}},{"name":"Hinter der Sette","postalCode":"49448","locality":"Brockum","municipality":{"key":"03251009","name":"Brockum","type":"Kreisangehörige_Gemeinde"},"district":{"key":"03251","name":"Diepholz","type":"Landkreis"},"federalState":{"key":"03","name":"Niedersachsen"}},{"name":"Hinterm Damm","postalCode":"49448","locality":"Brockum","municipality":{"key":"03251009","name":"Brockum","type":"Kreisangehörige_Gemeinde"},"district":{"key":"03251","name":"Diepholz","type":"Landkreis"},"federalState":{"key":"03","name":"Niedersachsen"}},{"name":"Hinterm Friedhof","postalCode":"49448","locality":"Brockum","municipality":{"key":"03251009","name":"Brockum","type":"Kreisangehörige_Gemeinde"},"district":{"key":"03251","name":"Diepholz","type":"Landkreis"},"federalState":{"key":"03","name":"Niedersachsen"}},{"name":"Hörster Weg","postalCode":"49448","locality":"Brockum","municipality":{"key":"03251009","name":"Brockum","type":"Kreisangehörige_Gemeinde"},"district":{"key":"03251","name":"Diepholz","type":"Landkreis"},"federalState":{"key":"03","name":"Niedersachsen"}},{"name":"Im Weißen Sande","postalCode":"49448","locality":"Brockum","municipality":{"key":"03251009","name":"Brockum","type":"Kreisangehörige_Gemeinde"},"district":{"key":"03251","name":"Diepholz","type":"Landkreis"},"federalState":{"key":"03","name":"Niedersachsen"}},{"name":"Im Wiesenbruch","postalCode":"49448","locality":"Brockum","municipality":{"key":"03251009","name":"Brockum","type":"Kreisangehörige_Gemeinde"},"district":{"key":"03251","name":"Diepholz","type":"Landkreis"},"federalState":{"key":"03","name":"Niedersachsen"}},{"name":"Jahnstr.","postalCode":"49356","locality":"Diepholz","municipality":{"key":"03251012","name":"Diepholz, Stadt","type":"Stadt"},"district":{"key":"03251","name":"Diepholz","type":"Landkreis"},"federalState":{"key":"03","name":"Niedersachsen"}},{"name":"Johannstr.","postalCode":"49356","locality":"Diepholz","municipality":{"key":"03251012","name":"Diepholz, Stadt","type":"Stadt"},"district":{"key":"03251","name":"Diepholz","type":"Landkreis"},"federalState":{"key":"03","name":"Niedersachsen"}},{"name":"Julius-Leber-Str.","postalCode":"49356","locality":"Diepholz","municipality":{"key":"03251012","name":"Diepholz, Stadt","type":"Stadt"},"district":{"key":"03251","name":"Diepholz","type":"Landkreis"},"federalState":{"key":"03","name":"Niedersachsen"}},{"name":"Karpfenstr.","postalCode":"49448","locality":"Brockum","municipality":{"key":"03251009","name":"Brockum","type":"Kreisangehörige_Gemeinde"},"district":{"key":"03251","name":"Diepholz","type":"Landkreis"},"federalState":{"key":"03","name":"Niedersachsen"}},{"name":"Kieldamm","postalCode":"49448","locality":"Brockum","municipality":{"key":"03251009","name":"Brockum","type":"Kreisangehörige_Gemeinde"},"district":{"key":"03251","name":"Diepholz","type":"Landkreis"},"federalState":{"key":"03","name":"Niedersachsen"}},{"name":"Kirchstr.","postalCode":"49448","locality":"Brockum","municipality":{"key":"03251009","name":"Brockum","type":"Kreisangehörige_Gemeinde"},"district":{"key":"03251","name":"Diepholz","type":"Landkreis"},"federalState":{"key":"03","name":"Niedersachsen"}},{"name":"Kirchwiesenweg","postalCode":"49448","locality":"Brockum","municipality":{"key":"03251009","name":"Brockum","type":"Kreisangehörige_Gemeinde"},"district":{"key":"03251","name":"Diepholz","type":"Landkreis"},"federalState":{"key":"03","name":"Niedersachsen"}},{"name":"Kleiweg","postalCode":"49448","locality":"Brockum","municipality":{"key":"03251009","name":"Brockum","type":"Kreisangehörige_Gemeinde"},"district":{"key":"03251","name":"Diepholz","type":"Landkreis"},"federalState":{"key":"03","name":"Niedersachsen"}},{"name":"Lohneweg","postalCode":"49448","locality":"Brockum","municipality":{"key":"03251009","name":"Brockum","type":"Kreisangehörige_Gemeinde"},"district":{"key":"03251","name":"Diepholz","type":"Landkreis"},"federalState":{"key":"03","name":"Niedersachsen"}},{"name":"Marienstr.","postalCode":"49448","locality":"Brockum","municipality":{"key":"03251009","name":"Brockum","type":"Kreisangehörige_Gemeinde"},"district":{"key":"03251","name":"Diepholz","type":"Landkreis"},"federalState":{"key":"03","name":"Niedersachsen"}},{"name":"Marktplatz","postalCode":"49448","locality":"Brockum","municipality":{"key":"03251009","name":"Brockum","type":"Kreisangehörige_Gemeinde"},"district":{"key":"03251","name":"Diepholz","type":"Landkreis"},"federalState":{"key":"03","name":"Niedersachsen"}},{"name":"Mecklinger Str.","postalCode":"49448","locality":"Brockum","municipality":{"key":"03251009","name":"Brockum","type":"Kreisangehörige_Gemeinde"},"district":{"key":"03251","name":"Diepholz","type":"Landkreis"},"federalState":{"key":"03","name":"Niedersachsen"}},{"name":"Moorweg","postalCode":"49448","locality":"Brockum","municipality":{"key":"03251009","name":"Brockum","type":"Kreisangehörige_Gemeinde"},"district":{"key":"03251","name":"Diepholz","type":"Landkreis"},"federalState":{"key":"03","name":"Niedersachsen"}},{"name":"Neenstatt","postalCode":"49356","locality":"Diepholz","municipality":{"key":"03251012","name":"Diepholz, Stadt","type":"Stadt"},"district":{"key":"03251","name":"Diepholz","type":"Landkreis"},"federalState":{"key":"03","name":"Niedersachsen"}},{"name":"Neißeweg","postalCode":"49356","locality":"Diepholz","municipality":{"key":"03251012","name":"Diepholz, Stadt","type":"Stadt"},"district":{"key":"03251","name":"Diepholz","type":"Landkreis"},"federalState":{"key":"03","name":"Niedersachsen"}},{"name":"Neuer Moordamm","postalCode":"49356","locality":"Diepholz","municipality":{"key":"03251012","name":"Diepholz, Stadt","type":"Stadt"},"district":{"key":"03251","name":"Diepholz","type":"Landkreis"},"federalState":{"key":"03","name":"Niedersachsen"}},{"name":"Niedersachsenstr.","postalCode":"49356","locality":"Diepholz","municipality":{"key":"03251012","name":"Diepholz, Stadt","type":"Stadt"},"district":{"key":"03251","name":"Diepholz","type":"Landkreis"},"federalState":{"key":"03","name":"Niedersachsen"}},{"name":"Nutloer Weg","postalCode":"49356","locality":"Diepholz","municipality":{"key":"03251012","name":"Diepholz, Stadt","type":"Stadt"},"district":{"key":"03251","name":"Diepholz","type":"Landkreis"},"federalState":{"key":"03","name":"Niedersachsen"}},{"name":"Oppendorfer Str.","postalCode":"49448","locality":"Brockum","municipality":{"key":"03251009","name":"Brockum","type":"Kreisangehörige_Gemeinde"},"district":{"key":"03251","name":"Diepholz","type":"Landkreis"},"federalState":{"key":"03","name":"Niedersachsen"}},{"name":"Osterweg","postalCode":"49448","locality":"Brockum","municipality":{"key":"03251009","name":"Brockum","type":"Kreisangehörige_Gemeinde"},"district":{"key":"03251","name":"Diepholz","type":"Landkreis"},"federalState":{"key":"03","name":"Niedersachsen"}},{"name":"Pissingweg","postalCode":"49448","locality":"Brockum","municipality":{"key":"03251009","name":"Brockum","type":"Kreisangehörige_Gemeinde"},"district":{"key":"03251","name":"Diepholz","type":"Landkreis"},"federalState":{"key":"03","name":"Niedersachsen"}},{"name":"Plaggenstr.","postalCode":"49448","locality":"Brockum","municipality":{"key":"03251009","name":"Brockum","type":"Kreisangehörige_Gemeinde"},"district":{"key":"03251","name":"Diepholz","type":"Landkreis"},"federalState":{"key":"03","name":"Niedersachsen"}},{"name":"Quelleweg","postalCode":"49356","locality":"Diepholz","municipality":{"key":"03251012","name":"Diepholz, Stadt","type":"Stadt"},"district":{"key":"03251","name":"Diepholz","type":"Landkreis"},"federalState":{"key":"03","name":"Niedersachsen"}},{"name":"Rahdener Str.","postalCode":"49448","locality":"Brockum","municipality":{"key":"03251009","name":"Brockum","type":"Kreisangehörige_Gemeinde"},"district":{"key":"03251","name":"Diepholz","type":"Landkreis"},"federalState":{"key":"03","name":"Niedersachsen"}},{"name":"Ringweg","postalCode":"49448","locality":"Brockum","municipality":{"key":"03251009","name":"Brockum","type":"Kreisangehörige_Gemeinde"},"district":{"key":"03251","name":"Diepholz","type":"Landkreis"},"federalState":{"key":"03","name":"Niedersachsen"}},{"name":"Rolingweg","postalCode":"49448","locality":"Brockum","municipality":{"key":"03251009","name":"Brockum","type":"Kreisangehörige_Gemeinde"},"district":{"key":"03251","name":"Diepholz","type":"Landkreis"},"federalState":{"key":"03","name":"Niedersachsen"}},{"name":"Rosaweg","postalCode":"49448","locality":"Brockum","municipality":{"key":"03251009","name":"Brockum","type":"Kreisangehörige_Gemeinde"},"district":{"key":"03251","name":"Diepholz","type":"Landkreis"},"federalState":{"key":"03","name":"Niedersachsen"}},{"name":"Rötekuhle","postalCode":"49448","locality":"Brockum","municipality":{"key":"03251009","name":"Brockum","type":"Kreisangehörige_Gemeinde"},"district":{"key":"03251","name":"Diepholz","type":"Landkreis"},"federalState":{"key":"03","name":"Niedersachsen"}},{"name":"Rundwanderweg I","postalCode":"49448","locality":"Brockum","municipality":{"key":"03251009","name":"Brockum","type":"Kreisangehörige_Gemeinde"},"district":{"key":"03251","name":"Diepholz","type":"Landkreis"},"federalState":{"key":"03","name":"Niedersachsen"}},{"name":"Schmaler Weg","postalCode":"49448","locality":"Brockum","municipality":{"key":"03251009","name":"Brockum","type":"Kreisangehörige_Gemeinde"},"district":{"key":"03251","name":"Diepholz","type":"Landkreis"},"federalState":{"key":"03","name":"Niedersachsen"}},{"name":"Schulstr.","postalCode":"49448","locality":"Brockum","municipality":{"key":"03251009","name":"Brockum","type":"Kreisangehörige_Gemeinde"},"district":{"key":"03251","name":"Diepholz","type":"Landkreis"},"federalState":{"key":"03","name":"Niedersachsen"}},{"name":"Settweg","postalCode":"49448","locality":"Brockum","municipality":{"key":"03251009","name":"Brockum","type":"Kreisangehörige_Gemeinde"},"district":{"key":"03251","name":"Diepholz","type":"Landkreis"},"federalState":{"key":"03","name":"Niedersachsen"}},{"name":"Sonnenstr.","postalCode":"49448","locality":"Brockum","municipality":{"key":"03251009","name":"Brockum","type":"Kreisangehörige_Gemeinde"},"district":{"key":"03251","name":"Diepholz","type":"Landkreis"},"federalState":{"key":"03","name":"Niedersachsen"}},{"name":"Sophienstr.","postalCode":"49448","locality":"Brockum","municipality":{"key":"03251009","name":"Brockum","type":"Kreisangehörige_Gemeinde"},"district":{"key":"03251","name":"Diepholz","type":"Landkreis"},"federalState":{"key":"03","name":"Niedersachsen"}},{"name":"Steiler Weg","postalCode":"49448","locality":"Brockum","municipality":{"key":"03251009","name":"Brockum","type":"Kreisangehörige_Gemeinde"},"district":{"key":"03251","name":"Diepholz","type":"Landkreis"},"federalState":{"key":"03","name":"Niedersachsen"}},{"name":"Steinweg","postalCode":"49448","locality":"Brockum","municipality":{"key":"03251009","name":"Brockum","type":"Kreisangehörige_Gemeinde"},"district":{"key":"03251","name":"Diepholz","type":"Landkreis"},"federalState":{"key":"03","name":"Niedersachsen"}},{"name":"Tannenweg","postalCode":"49448","locality":"Brockum","municipality":{"key":"03251009","name":"Brockum","type":"Kreisangehörige_Gemeinde"},"district":{"key":"03251","name":"Diepholz","type":"Landkreis"},"federalState":{"key":"03","name":"Niedersachsen"}},{"name":"Teichstr.","postalCode":"49448","locality":"Brockum","municipality":{"key":"03251009","name":"Brockum","type":"Kreisangehörige_Gemeinde"},"district":{"key":"03251","name":"Diepholz","type":"Landkreis"},"federalState":{"key":"03","name":"Niedersachsen"}},{"name":"Udet-Str.","postalCode":"49356","locality":"Diepholz","municipality":{"key":"03251012","name":"Diepholz, Stadt","type":"Stadt"},"district":{"key":"03251","name":"Diepholz","type":"Landkreis"},"federalState":{"key":"03","name":"Niedersachsen"}},{"name":"Unstrutweg","postalCode":"49356","locality":"Diepholz","municipality":{"key":"03251012","name":"Diepholz, Stadt","type":"Stadt"},"district":{"key":"03251","name":"Diepholz","type":"Landkreis"},"federalState":{"key":"03","name":"Niedersachsen"}},{"name":"Unter den Eichen","postalCode":"49356","locality":"Diepholz","municipality":{"key":"03251012","name":"Diepholz, Stadt","type":"Stadt"},"district":{"key":"03251","name":"Diepholz","type":"Landkreis"},"federalState":{"key":"03","name":"Niedersachsen"}},{"name":"Vogelweg","postalCode":"49448","locality":"Brockum","municipality":{"key":"03251009","name":"Brockum","type":"Kreisangehörige_Gemeinde"},"district":{"key":"03251","name":"Diepholz","type":"Landkreis"},"federalState":{"key":"03","name":"Niedersachsen"}},{"name":"Wandsweg","postalCode":"49448","locality":"Brockum","municipality":{"key":"03251009","name":"Brockum","type":"Kreisangehörige_Gemeinde"},"district":{"key":"03251","name":"Diepholz","type":"Landkreis"},"federalState":{"key":"03","name":"Niedersachsen"}},{"name":"Wilhelmstr.","postalCode":"49448","locality":"Brockum","municipality":{"key":"03251009","name":"Brockum","type":"Kreisangehörige_Gemeinde"},"district":{"key":"03251","name":"Diepholz","type":"Landkreis"},"federalState":{"key":"03","name":"Niedersachsen"}},{"name":"Zur Sette","postalCode":"49448","locality":"Brockum","municipality":{"key":"03251009","name":"Brockum","type":"Kreisangehörige_Gemeinde"},"district":{"key":"03251","name":"Diepholz","type":"Landkreis"},"federalState":{"key":"03","name":"Niedersachsen"}},]