[{"key":"10102632","name":"Aescherenstrasse","postalCode":"4917","locality":"Melchnau","commune":{"key":"333","name":"Melchnau","shortName":"Melchnau"},"district":{"key":"244","name":"Verwaltungskreis Oberaargau"},"canton":{"key":"2","code":"BE","name":"Bern / Berne"},"status":"Real"},{"key":"10062299","name":"Ahornweg","postalCode":"4917","locality":"Melchnau","commune":{"key":"333","name":"Melchnau","shortName":"Melchnau"},"district":{"key":"244","name":"Verwaltungskreis Oberaargau"},"canton":{"key":"2","code":"BE","name":"Bern / Berne"},"status":"Real"},{"key":"10109377","name":"Alte Festistrasse","postalCode":"4917","locality":"Melchnau","commune":{"key":"333","name":"Melchnau","shortName":"Melchnau"},"district":{"key":"244","name":"Verwaltungskreis Oberaargau"},"canton":{"key":"2","code":"BE","name":"Bern / Berne"},"status":"Real"},{"key":"10115060","name":"Alte Gjuchstrasse","postalCode":"4917","locality":"Melchnau","commune":{"key":"333","name":"Melchnau","shortName":"Melchnau"},"district":{"key":"244","name":"Verwaltungskreis Oberaargau"},"canton":{"key":"2","code":"BE","name":"Bern / Berne"},"status":"Real"},{"key":"10056080","name":"Amselweg","postalCode":"4917","locality":"Melchnau","commune":{"key":"333","name":"Melchnau","shortName":"Melchnau"},"district":{"key":"244","name":"Verwaltungskreis Oberaargau"},"canton":{"key":"2","code":"BE","name":"Bern / Berne"},"status":"Real"},{"key":"10219096","name":"Babeliplatz","postalCode":"4917","locality":"Melchnau","commune":{"key":"333","name":"Melchnau","shortName":"Melchnau"},"district":{"key":"244","name":"Verwaltungskreis Oberaargau"},"canton":{"key":"2","code":"BE","name":"Bern / Berne"},"status":"Real"},{"key":"10083511","name":"Baumgartenstrasse","postalCode":"4917","locality":"Melchnau","commune":{"key":"333","name":"Melchnau","shortName":"Melchnau"},"district":{"key":"244","name":"Verwaltungskreis Oberaargau"},"canton":{"key":"2","code":"BE","name":"Bern / Berne"},"status":"Real"},{"key":"10056081","name":"Berghofstrasse","postalCode":"4917","locality":"Melchnau","commune":{"key":"333","name":"Melchnau","shortName":"Melchnau"},"district":{"key":"244","name":"Verwaltungskreis Oberaargau"},"canton":{"key":"2","code":"BE","name":"Bern / Berne"},"status":"Real"},{"key":"10179917","name":"Bigler","postalCode":"4917","locality":"Busswil b. Melchnau","commune":{"key":"325","name":"Busswil bei Melchnau","shortName":"Busswil bei Melchnau"},"district":{"key":"244","name":"Verwaltungskreis Oberaargau"},"canton":{"key":"2","code":"BE","name":"Bern / Berne"},"status":"Real"},{"key":"10009520","name":"Birkenweg","postalCode":"4917","locality":"Melchnau","commune":{"key":"333","name":"Melchnau","shortName":"Melchnau"},"district":{"key":"244","name":"Verwaltungskreis Oberaargau"},"canton":{"key":"2","code":"BE","name":"Bern / Berne"},"status":"Real"},{"key":"10191616","name":"Birlihof","postalCode":"4917","locality":"Busswil b. Melchnau","commune":{"key":"325","name":"Busswil bei Melchnau","shortName":"Busswil bei Melchnau"},"district":{"key":"244","name":"Verwaltungskreis Oberaargau"},"canton":{"key":"2","code":"BE","name":"Bern / Berne"},"status":"Real"},{"key":"10009521","name":"Birlihof","postalCode":"4917","locality":"Melchnau","commune":{"key":"333","name":"Melchnau","shortName":"Melchnau"},"district":{"key":"244","name":"Verwaltungskreis Oberaargau"},"canton":{"key":"2","code":"BE","name":"Bern / Berne"},"status":"Real"},{"key":"10219100","name":"Blegimatt","postalCode":"4917","locality":"Melchnau","commune":{"key":"333","name":"Melchnau","shortName":"Melchnau"},"district":{"key":"244","name":"Verwaltungskreis Oberaargau"},"canton":{"key":"2","code":"BE","name":"Bern / Berne"},"status":"Real"},{"key":"10191618","name":"Blenggen","postalCode":"4917","locality":"Melchnau","commune":{"key":"333","name":"Melchnau","shortName":"Melchnau"},"district":{"key":"244","name":"Verwaltungskreis Oberaargau"},"canton":{"key":"2","code":"BE","name":"Bern / Berne"},"status":"Real"},{"key":"10083512","name":"Blenggendörfli","postalCode":"4917","locality":"Melchnau","commune":{"key":"333","name":"Melchnau","shortName":"Melchnau"},"district":{"key":"244","name":"Verwaltungskreis Oberaargau"},"canton":{"key":"2","code":"BE","name":"Bern / Berne"},"status":"Real"},{"key":"10062300","name":"Bodmen","postalCode":"4917","locality":"Melchnau","commune":{"key":"333","name":"Melchnau","shortName":"Melchnau"},"district":{"key":"244","name":"Verwaltungskreis Oberaargau"},"canton":{"key":"2","code":"BE","name":"Bern / Berne"},"status":"Real"},{"key":"10178143","name":"Bodmengasse","postalCode":"4917","locality":"Melchnau","commune":{"key":"333","name":"Melchnau","shortName":"Melchnau"},"district":{"key":"244","name":"Verwaltungskreis Oberaargau"},"canton":{"key":"2","code":"BE","name":"Bern / Berne"},"status":"Real"},{"key":"10117094","name":"Bölzligstrasse","postalCode":"4917","locality":"Melchnau","commune":{"key":"333","name":"Melchnau","shortName":"Melchnau"},"district":{"key":"244","name":"Verwaltungskreis Oberaargau"},"canton":{"key":"2","code":"BE","name":"Bern / Berne"},"status":"Real"},{"key":"10009419","name":"Breitacker","postalCode":"4917","locality":"Busswil b. Melchnau","commune":{"key":"325","name":"Busswil bei Melchnau","shortName":"Busswil bei Melchnau"},"district":{"key":"244","name":"Verwaltungskreis Oberaargau"},"canton":{"key":"2","code":"BE","name":"Bern / Berne"},"status":"Real"},{"key":"10085098","name":"Breiten","postalCode":"4917","locality":"Busswil b. Melchnau","commune":{"key":"325","name":"Busswil bei Melchnau","shortName":"Busswil bei Melchnau"},"district":{"key":"244","name":"Verwaltungskreis Oberaargau"},"canton":{"key":"2","code":"BE","name":"Bern / Berne"},"status":"Real"},{"key":"10009420","name":"Buchhalde","postalCode":"4917","locality":"Busswil b. Melchnau","commune":{"key":"325","name":"Busswil bei Melchnau","shortName":"Busswil bei Melchnau"},"district":{"key":"244","name":"Verwaltungskreis Oberaargau"},"canton":{"key":"2","code":"BE","name":"Bern / Berne"},"status":"Real"},{"key":"10004695","name":"Bünterainstrasse","postalCode":"4917","locality":"Melchnau","commune":{"key":"333","name":"Melchnau","shortName":"Melchnau"},"district":{"key":"244","name":"Verwaltungskreis Oberaargau"},"canton":{"key":"2","code":"BE","name":"Bern / Berne"},"status":"Real"},{"key":"10009522","name":"Burgerweg","postalCode":"4917","locality":"Melchnau","commune":{"key":"333","name":"Melchnau","shortName":"Melchnau"},"district":{"key":"244","name":"Verwaltungskreis Oberaargau"},"canton":{"key":"2","code":"BE","name":"Bern / Berne"},"status":"Real"},{"key":"10083513","name":"Busswilstrasse","postalCode":"4917","locality":"Melchnau","commune":{"key":"333","name":"Melchnau","shortName":"Melchnau"},"district":{"key":"244","name":"Verwaltungskreis Oberaargau"},"canton":{"key":"2","code":"BE","name":"Bern / Berne"},"status":"Real"},{"key":"10118073","name":"Bützberg","postalCode":"4917","locality":"Busswil b. Melchnau","commune":{"key":"325","name":"Busswil bei Melchnau","shortName":"Busswil bei Melchnau"},"district":{"key":"244","name":"Verwaltungskreis Oberaargau"},"canton":{"key":"2","code":"BE","name":"Bern / Berne"},"status":"Real"},{"key":"10004696","name":"Bützbergweg","postalCode":"4917","locality":"Melchnau","commune":{"key":"333","name":"Melchnau","shortName":"Melchnau"},"district":{"key":"244","name":"Verwaltungskreis Oberaargau"},"canton":{"key":"2","code":"BE","name":"Bern / Berne"},"status":"Real"},{"key":"10219105","name":"Chalberweidli","postalCode":"4917","locality":"Melchnau","commune":{"key":"333","name":"Melchnau","shortName":"Melchnau"},"district":{"key":"244","name":"Verwaltungskreis Oberaargau"},"canton":{"key":"2","code":"BE","name":"Bern / Berne"},"status":"Real"},{"key":"10083514","name":"Chlyrotstrasse","postalCode":"4917","locality":"Melchnau","commune":{"key":"333","name":"Melchnau","shortName":"Melchnau"},"district":{"key":"244","name":"Verwaltungskreis Oberaargau"},"canton":{"key":"2","code":"BE","name":"Bern / Berne"},"status":"Real"},{"key":"10004697","name":"Dählenweg","postalCode":"4917","locality":"Melchnau","commune":{"key":"333","name":"Melchnau","shortName":"Melchnau"},"district":{"key":"244","name":"Verwaltungskreis Oberaargau"},"canton":{"key":"2","code":"BE","name":"Bern / Berne"},"status":"Real"},{"key":"10177038","name":"Dörfli","postalCode":"4917","locality":"Busswil b. Melchnau","commune":{"key":"325","name":"Busswil bei Melchnau","shortName":"Busswil bei Melchnau"},"district":{"key":"244","name":"Verwaltungskreis Oberaargau"},"canton":{"key":"2","code":"BE","name":"Bern / Berne"},"status":"Real"},{"key":"10188552","name":"Dorfstrasse","postalCode":"4917","locality":"Melchnau","commune":{"key":"333","name":"Melchnau","shortName":"Melchnau"},"district":{"key":"244","name":"Verwaltungskreis Oberaargau"},"canton":{"key":"2","code":"BE","name":"Bern / Berne"},"status":"Real"},{"key":"10062565","name":"Druckerloch","postalCode":"4917","locality":"Busswil b. Melchnau","commune":{"key":"325","name":"Busswil bei Melchnau","shortName":"Busswil bei Melchnau"},"district":{"key":"244","name":"Verwaltungskreis Oberaargau"},"canton":{"key":"2","code":"BE","name":"Bern / Berne"},"status":"Real"},{"key":"10004698","name":"Eichenweg","postalCode":"4917","locality":"Melchnau","commune":{"key":"333","name":"Melchnau","shortName":"Melchnau"},"district":{"key":"244","name":"Verwaltungskreis Oberaargau"},"canton":{"key":"2","code":"BE","name":"Bern / Berne"},"status":"Real"},{"key":"10219109","name":"Ellbogefeld","postalCode":"4917","locality":"Melchnau","commune":{"key":"333","name":"Melchnau","shortName":"Melchnau"},"district":{"key":"244","name":"Verwaltungskreis Oberaargau"},"canton":{"key":"2","code":"BE","name":"Bern / Berne"},"status":"Real"},{"key":"10219114","name":"Erlematt","postalCode":"4917","locality":"Melchnau","commune":{"key":"333","name":"Melchnau","shortName":"Melchnau"},"district":{"key":"244","name":"Verwaltungskreis Oberaargau"},"canton":{"key":"2","code":"BE","name":"Bern / Berne"},"status":"Real"},{"key":"10004699","name":"Erlenweg","postalCode":"4917","locality":"Melchnau","commune":{"key":"333","name":"Melchnau","shortName":"Melchnau"},"district":{"key":"244","name":"Verwaltungskreis Oberaargau"},"canton":{"key":"2","code":"BE","name":"Bern / Berne"},"status":"Real"},{"key":"10004700","name":"Fabrikstrasse","postalCode":"4917","locality":"Melchnau","commune":{"key":"333","name":"Melchnau","shortName":"Melchnau"},"district":{"key":"244","name":"Verwaltungskreis Oberaargau"},"canton":{"key":"2","code":"BE","name":"Bern / Berne"},"status":"Real"},{"key":"10083515","name":"Fäilimoos","postalCode":"4917","locality":"Melchnau","commune":{"key":"333","name":"Melchnau","shortName":"Melchnau"},"district":{"key":"244","name":"Verwaltungskreis Oberaargau"},"canton":{"key":"2","code":"BE","name":"Bern / Berne"},"status":"Real"},{"key":"10218876","name":"Fälliwald","postalCode":"4917","locality":"Busswil b. Melchnau","commune":{"key":"325","name":"Busswil bei Melchnau","shortName":"Busswil bei Melchnau"},"district":{"key":"244","name":"Verwaltungskreis Oberaargau"},"canton":{"key":"2","code":"BE","name":"Bern / Berne"},"status":"Real"},{"key":"10062301","name":"Feldstrasse","postalCode":"4917","locality":"Melchnau","commune":{"key":"333","name":"Melchnau","shortName":"Melchnau"},"district":{"key":"244","name":"Verwaltungskreis Oberaargau"},"canton":{"key":"2","code":"BE","name":"Bern / Berne"},"status":"Real"},{"key":"10178409","name":"Festistrasse","postalCode":"4917","locality":"Melchnau","commune":{"key":"333","name":"Melchnau","shortName":"Melchnau"},"district":{"key":"244","name":"Verwaltungskreis Oberaargau"},"canton":{"key":"2","code":"BE","name":"Bern / Berne"},"status":"Real"},{"key":"10004714","name":"Fischbächli","postalCode":"4917","locality":"Melchnau","commune":{"key":"333","name":"Melchnau","shortName":"Melchnau"},"district":{"key":"244","name":"Verwaltungskreis Oberaargau"},"canton":{"key":"2","code":"BE","name":"Bern / Berne"},"status":"Real"},{"key":"10056773","name":"Gerbe","postalCode":"4917","locality":"Busswil b. Melchnau","commune":{"key":"325","name":"Busswil bei Melchnau","shortName":"Busswil bei Melchnau"},"district":{"key":"244","name":"Verwaltungskreis Oberaargau"},"canton":{"key":"2","code":"BE","name":"Bern / Berne"},"status":"Real"},{"key":"10004712","name":"Gibel","postalCode":"4917","locality":"Melchnau","commune":{"key":"333","name":"Melchnau","shortName":"Melchnau"},"district":{"key":"244","name":"Verwaltungskreis Oberaargau"},"canton":{"key":"2","code":"BE","name":"Bern / Berne"},"status":"Real"},{"key":"10009421","name":"Gjuch","postalCode":"4917","locality":"Busswil b. Melchnau","commune":{"key":"325","name":"Busswil bei Melchnau","shortName":"Busswil bei Melchnau"},"district":{"key":"244","name":"Verwaltungskreis Oberaargau"},"canton":{"key":"2","code":"BE","name":"Bern / Berne"},"status":"Real"},{"key":"10122773","name":"Grosszälgweg","postalCode":"4917","locality":"Melchnau","commune":{"key":"333","name":"Melchnau","shortName":"Melchnau"},"district":{"key":"244","name":"Verwaltungskreis Oberaargau"},"canton":{"key":"2","code":"BE","name":"Bern / Berne"},"status":"Real"},{"key":"10009422","name":"Guger","postalCode":"4917","locality":"Busswil b. Melchnau","commune":{"key":"325","name":"Busswil bei Melchnau","shortName":"Busswil bei Melchnau"},"district":{"key":"244","name":"Verwaltungskreis Oberaargau"},"canton":{"key":"2","code":"BE","name":"Bern / Berne"},"status":"Real"},{"key":"10219118","name":"Guger-Schattsite","postalCode":"4917","locality":"Melchnau","commune":{"key":"333","name":"Melchnau","shortName":"Melchnau"},"district":{"key":"244","name":"Verwaltungskreis Oberaargau"},"canton":{"key":"2","code":"BE","name":"Bern / Berne"},"status":"Real"},{"key":"10057800","name":"Gugerstrasse","postalCode":"4917","locality":"Busswil b. Melchnau","commune":{"key":"325","name":"Busswil bei Melchnau","shortName":"Busswil bei Melchnau"},"district":{"key":"244","name":"Verwaltungskreis Oberaargau"},"canton":{"key":"2","code":"BE","name":"Bern / Berne"},"status":"Real"},{"key":"10209726","name":"Habermatt","postalCode":"4917","locality":"Melchnau","commune":{"key":"333","name":"Melchnau","shortName":"Melchnau"},"district":{"key":"244","name":"Verwaltungskreis Oberaargau"},"canton":{"key":"2","code":"BE","name":"Bern / Berne"},"status":"Real"},{"key":"10004702","name":"Hägistrasse","postalCode":"4917","locality":"Melchnau","commune":{"key":"333","name":"Melchnau","shortName":"Melchnau"},"district":{"key":"244","name":"Verwaltungskreis Oberaargau"},"canton":{"key":"2","code":"BE","name":"Bern / Berne"},"status":"Real"},{"key":"10004703","name":"Häisiwil","postalCode":"4917","locality":"Melchnau","commune":{"key":"333","name":"Melchnau","shortName":"Melchnau"},"district":{"key":"244","name":"Verwaltungskreis Oberaargau"},"canton":{"key":"2","code":"BE","name":"Bern / Berne"},"status":"Real"},{"key":"10004701","name":"Hausackerweg","postalCode":"4917","locality":"Melchnau","commune":{"key":"333","name":"Melchnau","shortName":"Melchnau"},"district":{"key":"244","name":"Verwaltungskreis Oberaargau"},"canton":{"key":"2","code":"BE","name":"Bern / Berne"},"status":"Real"},{"key":"10219122","name":"Heinihubel","postalCode":"4917","locality":"Melchnau","commune":{"key":"333","name":"Melchnau","shortName":"Melchnau"},"district":{"key":"244","name":"Verwaltungskreis Oberaargau"},"canton":{"key":"2","code":"BE","name":"Bern / Berne"},"status":"Real"},{"key":"10219126","name":"Hindere Näbetsbergwald","postalCode":"4917","locality":"Melchnau","commune":{"key":"333","name":"Melchnau","shortName":"Melchnau"},"district":{"key":"244","name":"Verwaltungskreis Oberaargau"},"canton":{"key":"2","code":"BE","name":"Bern / Berne"},"status":"Real"},{"key":"10083516","name":"Hintere Blenggen","postalCode":"4917","locality":"Melchnau","commune":{"key":"333","name":"Melchnau","shortName":"Melchnau"},"district":{"key":"244","name":"Verwaltungskreis Oberaargau"},"canton":{"key":"2","code":"BE","name":"Bern / Berne"},"status":"Real"},{"key":"10009423","name":"Hof","postalCode":"4917","locality":"Busswil b. Melchnau","commune":{"key":"325","name":"Busswil bei Melchnau","shortName":"Busswil bei Melchnau"},"district":{"key":"244","name":"Verwaltungskreis Oberaargau"},"canton":{"key":"2","code":"BE","name":"Bern / Berne"},"status":"Real"},{"key":"10104216","name":"Höhenweg","postalCode":"4917","locality":"Melchnau","commune":{"key":"333","name":"Melchnau","shortName":"Melchnau"},"district":{"key":"244","name":"Verwaltungskreis Oberaargau"},"canton":{"key":"2","code":"BE","name":"Bern / Berne"},"status":"Real"},{"key":"10085099","name":"Holen","postalCode":"4917","locality":"Busswil b. Melchnau","commune":{"key":"325","name":"Busswil bei Melchnau","shortName":"Busswil bei Melchnau"},"district":{"key":"244","name":"Verwaltungskreis Oberaargau"},"canton":{"key":"2","code":"BE","name":"Bern / Berne"},"status":"Real"},{"key":"10219130","name":"Horbe","postalCode":"4917","locality":"Melchnau","commune":{"key":"333","name":"Melchnau","shortName":"Melchnau"},"district":{"key":"244","name":"Verwaltungskreis Oberaargau"},"canton":{"key":"2","code":"BE","name":"Bern / Berne"},"status":"Real"},{"key":"10115061","name":"Hüsligasse","postalCode":"4917","locality":"Melchnau","commune":{"key":"333","name":"Melchnau","shortName":"Melchnau"},"district":{"key":"244","name":"Verwaltungskreis Oberaargau"},"canton":{"key":"2","code":"BE","name":"Bern / Berne"},"status":"Real"},{"key":"10219134","name":"Igetal","postalCode":"4917","locality":"Melchnau","commune":{"key":"333","name":"Melchnau","shortName":"Melchnau"},"district":{"key":"244","name":"Verwaltungskreis Oberaargau"},"canton":{"key":"2","code":"BE","name":"Bern / Berne"},"status":"Real"},{"key":"10219139","name":"Im Gjuch","postalCode":"4917","locality":"Melchnau","commune":{"key":"333","name":"Melchnau","shortName":"Melchnau"},"district":{"key":"244","name":"Verwaltungskreis Oberaargau"},"canton":{"key":"2","code":"BE","name":"Bern / Berne"},"status":"Real"},{"key":"10083517","name":"Ischerhubel","postalCode":"4917","locality":"Melchnau","commune":{"key":"333","name":"Melchnau","shortName":"Melchnau"},"district":{"key":"244","name":"Verwaltungskreis Oberaargau"},"canton":{"key":"2","code":"BE","name":"Bern / Berne"},"status":"Real"},{"key":"10004705","name":"Käsereistrasse","postalCode":"4917","locality":"Melchnau","commune":{"key":"333","name":"Melchnau","shortName":"Melchnau"},"district":{"key":"244","name":"Verwaltungskreis Oberaargau"},"canton":{"key":"2","code":"BE","name":"Bern / Berne"},"status":"Real"},{"key":"10004704","name":"Kirchfeldstrasse","postalCode":"4917","locality":"Melchnau","commune":{"key":"333","name":"Melchnau","shortName":"Melchnau"},"district":{"key":"244","name":"Verwaltungskreis Oberaargau"},"canton":{"key":"2","code":"BE","name":"Bern / Berne"},"status":"Real"},{"key":"10062302","name":"Laupern","postalCode":"4917","locality":"Melchnau","commune":{"key":"333","name":"Melchnau","shortName":"Melchnau"},"district":{"key":"244","name":"Verwaltungskreis Oberaargau"},"canton":{"key":"2","code":"BE","name":"Bern / Berne"},"status":"Real"},{"key":"10219142","name":"Leiterlimatt","postalCode":"4917","locality":"Melchnau","commune":{"key":"333","name":"Melchnau","shortName":"Melchnau"},"district":{"key":"244","name":"Verwaltungskreis Oberaargau"},"canton":{"key":"2","code":"BE","name":"Bern / Berne"},"status":"Real"},{"key":"10083518","name":"Lerchenweg","postalCode":"4917","locality":"Melchnau","commune":{"key":"333","name":"Melchnau","shortName":"Melchnau"},"district":{"key":"244","name":"Verwaltungskreis Oberaargau"},"canton":{"key":"2","code":"BE","name":"Bern / Berne"},"status":"Real"},{"key":"10178410","name":"Lochackerweg","postalCode":"4917","locality":"Melchnau","commune":{"key":"333","name":"Melchnau","shortName":"Melchnau"},"district":{"key":"244","name":"Verwaltungskreis Oberaargau"},"canton":{"key":"2","code":"BE","name":"Bern / Berne"},"status":"Real"},{"key":"10062303","name":"Madiswilstrasse","postalCode":"4917","locality":"Melchnau","commune":{"key":"333","name":"Melchnau","shortName":"Melchnau"},"district":{"key":"244","name":"Verwaltungskreis Oberaargau"},"canton":{"key":"2","code":"BE","name":"Bern / Berne"},"status":"Real"},{"key":"10004706","name":"Maiackerweg","postalCode":"4917","locality":"Melchnau","commune":{"key":"333","name":"Melchnau","shortName":"Melchnau"},"district":{"key":"244","name":"Verwaltungskreis Oberaargau"},"canton":{"key":"2","code":"BE","name":"Bern / Berne"},"status":"Real"},{"key":"10115062","name":"Matten","postalCode":"4917","locality":"Melchnau","commune":{"key":"333","name":"Melchnau","shortName":"Melchnau"},"district":{"key":"244","name":"Verwaltungskreis Oberaargau"},"canton":{"key":"2","code":"BE","name":"Bern / Berne"},"status":"Real"},{"key":"10113303","name":"Moosacker","postalCode":"4917","locality":"Melchnau","commune":{"key":"333","name":"Melchnau","shortName":"Melchnau"},"district":{"key":"244","name":"Verwaltungskreis Oberaargau"},"canton":{"key":"2","code":"BE","name":"Bern / Berne"},"status":"Real"},{"key":"10083519","name":"Moosackerstrasse","postalCode":"4917","locality":"Melchnau","commune":{"key":"333","name":"Melchnau","shortName":"Melchnau"},"district":{"key":"244","name":"Verwaltungskreis Oberaargau"},"canton":{"key":"2","code":"BE","name":"Bern / Berne"},"status":"Real"},{"key":"10110499","name":"Möösliweg","postalCode":"4917","locality":"Melchnau","commune":{"key":"333","name":"Melchnau","shortName":"Melchnau"},"district":{"key":"244","name":"Verwaltungskreis Oberaargau"},"canton":{"key":"2","code":"BE","name":"Bern / Berne"},"status":"Real"},{"key":"10219145","name":"Neuholz","postalCode":"4917","locality":"Melchnau","commune":{"key":"333","name":"Melchnau","shortName":"Melchnau"},"district":{"key":"244","name":"Verwaltungskreis Oberaargau"},"canton":{"key":"2","code":"BE","name":"Bern / Berne"},"status":"Real"},{"key":"10062304","name":"Neustrasse","postalCode":"4917","locality":"Melchnau","commune":{"key":"333","name":"Melchnau","shortName":"Melchnau"},"district":{"key":"244","name":"Verwaltungskreis Oberaargau"},"canton":{"key":"2","code":"BE","name":"Bern / Berne"},"status":"Real"},{"key":"10004707","name":"Oberer Waldbachweg","postalCode":"4917","locality":"Melchnau","commune":{"key":"333","name":"Melchnau","shortName":"Melchnau"},"district":{"key":"244","name":"Verwaltungskreis Oberaargau"},"canton":{"key":"2","code":"BE","name":"Bern / Berne"},"status":"Real"},{"key":"10004708","name":"Oeliweg","postalCode":"4917","locality":"Melchnau","commune":{"key":"333","name":"Melchnau","shortName":"Melchnau"},"district":{"key":"244","name":"Verwaltungskreis Oberaargau"},"canton":{"key":"2","code":"BE","name":"Bern / Berne"},"status":"Real"},{"key":"10060388","name":"Platz","postalCode":"4917","locality":"Busswil b. Melchnau","commune":{"key":"325","name":"Busswil bei Melchnau","shortName":"Busswil bei Melchnau"},"district":{"key":"244","name":"Verwaltungskreis Oberaargau"},"canton":{"key":"2","code":"BE","name":"Bern / Berne"},"status":"Real"},{"key":"10083520","name":"Reisiswilstrasse","postalCode":"4917","locality":"Melchnau","commune":{"key":"333","name":"Melchnau","shortName":"Melchnau"},"district":{"key":"244","name":"Verwaltungskreis Oberaargau"},"canton":{"key":"2","code":"BE","name":"Bern / Berne"},"status":"Real"},{"key":"10220137","name":"Riedmatt","postalCode":"4917","locality":"Melchnau","commune":{"key":"333","name":"Melchnau","shortName":"Melchnau"},"district":{"key":"244","name":"Verwaltungskreis Oberaargau"},"canton":{"key":"2","code":"BE","name":"Bern / Berne"},"status":"Real"},{"key":"10194745","name":"Rosenweg","postalCode":"4917","locality":"Melchnau","commune":{"key":"333","name":"Melchnau","shortName":"Melchnau"},"district":{"key":"244","name":"Verwaltungskreis Oberaargau"},"canton":{"key":"2","code":"BE","name":"Bern / Berne"},"status":"Real"},{"key":"10220141","name":"Rossmatt","postalCode":"4917","locality":"Melchnau","commune":{"key":"333","name":"Melchnau","shortName":"Melchnau"},"district":{"key":"244","name":"Verwaltungskreis Oberaargau"},"canton":{"key":"2","code":"BE","name":"Bern / Berne"},"status":"Real"},{"key":"10220145","name":"Rotmatte","postalCode":"4917","locality":"Melchnau","commune":{"key":"333","name":"Melchnau","shortName":"Melchnau"},"district":{"key":"244","name":"Verwaltungskreis Oberaargau"},"canton":{"key":"2","code":"BE","name":"Bern / Berne"},"status":"Real"},{"key":"10085100","name":"Rüdelmatt","postalCode":"4917","locality":"Busswil b. Melchnau","commune":{"key":"325","name":"Busswil bei Melchnau","shortName":"Busswil bei Melchnau"},"district":{"key":"244","name":"Verwaltungskreis Oberaargau"},"canton":{"key":"2","code":"BE","name":"Bern / Berne"},"status":"Real"},{"key":"10004709","name":"Sagiweg","postalCode":"4917","locality":"Melchnau","commune":{"key":"333","name":"Melchnau","shortName":"Melchnau"},"district":{"key":"244","name":"Verwaltungskreis Oberaargau"},"canton":{"key":"2","code":"BE","name":"Bern / Berne"},"status":"Real"},{"key":"10104028","name":"Schattloch","postalCode":"4917","locality":"Busswil b. Melchnau","commune":{"key":"325","name":"Busswil bei Melchnau","shortName":"Busswil bei Melchnau"},"district":{"key":"244","name":"Verwaltungskreis Oberaargau"},"canton":{"key":"2","code":"BE","name":"Bern / Berne"},"status":"Real"},{"key":"10220149","name":"Schiltacher","postalCode":"4917","locality":"Melchnau","commune":{"key":"333","name":"Melchnau","shortName":"Melchnau"},"district":{"key":"244","name":"Verwaltungskreis Oberaargau"},"canton":{"key":"2","code":"BE","name":"Bern / Berne"},"status":"Real"},{"key":"10104217","name":"Schiltackerstrasse","postalCode":"4917","locality":"Melchnau","commune":{"key":"333","name":"Melchnau","shortName":"Melchnau"},"district":{"key":"244","name":"Verwaltungskreis Oberaargau"},"canton":{"key":"2","code":"BE","name":"Bern / Berne"},"status":"Real"},{"key":"10220153","name":"Schlossberg","postalCode":"4917","locality":"Melchnau","commune":{"key":"333","name":"Melchnau","shortName":"Melchnau"},"district":{"key":"244","name":"Verwaltungskreis Oberaargau"},"canton":{"key":"2","code":"BE","name":"Bern / Berne"},"status":"Real"},{"key":"10197169","name":"Schmittenhubel","postalCode":"4917","locality":"Melchnau","commune":{"key":"333","name":"Melchnau","shortName":"Melchnau"},"district":{"key":"244","name":"Verwaltungskreis Oberaargau"},"canton":{"key":"2","code":"BE","name":"Bern / Berne"},"status":"Real"},{"key":"10004710","name":"Schmittenhubelstrasse","postalCode":"4917","locality":"Melchnau","commune":{"key":"333","name":"Melchnau","shortName":"Melchnau"},"district":{"key":"244","name":"Verwaltungskreis Oberaargau"},"canton":{"key":"2","code":"BE","name":"Bern / Berne"},"status":"Real"},{"key":"10220157","name":"Schwych","postalCode":"4917","locality":"Melchnau","commune":{"key":"333","name":"Melchnau","shortName":"Melchnau"},"district":{"key":"244","name":"Verwaltungskreis Oberaargau"},"canton":{"key":"2","code":"BE","name":"Bern / Berne"},"status":"Real"},{"key":"10056787","name":"Sonnenrain","postalCode":"4917","locality":"Melchnau","commune":{"key":"333","name":"Melchnau","shortName":"Melchnau"},"district":{"key":"244","name":"Verwaltungskreis Oberaargau"},"canton":{"key":"2","code":"BE","name":"Bern / Berne"},"status":"Real"},{"key":"10083521","name":"Sonnhaldenstrasse","postalCode":"4917","locality":"Melchnau","commune":{"key":"333","name":"Melchnau","shortName":"Melchnau"},"district":{"key":"244","name":"Verwaltungskreis Oberaargau"},"canton":{"key":"2","code":"BE","name":"Bern / Berne"},"status":"Real"},{"key":"10083522","name":"Staldacker","postalCode":"4917","locality":"Melchnau","commune":{"key":"333","name":"Melchnau","shortName":"Melchnau"},"district":{"key":"244","name":"Verwaltungskreis Oberaargau"},"canton":{"key":"2","code":"BE","name":"Bern / Berne"},"status":"Real"},{"key":"10004711","name":"Stämpfligasse","postalCode":"4917","locality":"Melchnau","commune":{"key":"333","name":"Melchnau","shortName":"Melchnau"},"district":{"key":"244","name":"Verwaltungskreis Oberaargau"},"canton":{"key":"2","code":"BE","name":"Bern / Berne"},"status":"Real"},{"key":"10220161","name":"Steinigfeld","postalCode":"4917","locality":"Melchnau","commune":{"key":"333","name":"Melchnau","shortName":"Melchnau"},"district":{"key":"244","name":"Verwaltungskreis Oberaargau"},"canton":{"key":"2","code":"BE","name":"Bern / Berne"},"status":"Real"},{"key":"10178411","name":"Unterer Waldbachweg","postalCode":"4917","locality":"Melchnau","commune":{"key":"333","name":"Melchnau","shortName":"Melchnau"},"district":{"key":"244","name":"Verwaltungskreis Oberaargau"},"canton":{"key":"2","code":"BE","name":"Bern / Berne"},"status":"Real"},{"key":"10062305","name":"Vordere Blenggen","postalCode":"4917","locality":"Melchnau","commune":{"key":"333","name":"Melchnau","shortName":"Melchnau"},"district":{"key":"244","name":"Verwaltungskreis Oberaargau"},"canton":{"key":"2","code":"BE","name":"Bern / Berne"},"status":"Real"},{"key":"10004713","name":"Widen","postalCode":"4917","locality":"Melchnau","commune":{"key":"333","name":"Melchnau","shortName":"Melchnau"},"district":{"key":"244","name":"Verwaltungskreis Oberaargau"},"canton":{"key":"2","code":"BE","name":"Bern / Berne"},"status":"Real"},{"key":"10220165","name":"Winterhalde","postalCode":"4917","locality":"Melchnau","commune":{"key":"333","name":"Melchnau","shortName":"Melchnau"},"district":{"key":"244","name":"Verwaltungskreis Oberaargau"},"canton":{"key":"2","code":"BE","name":"Bern / Berne"},"status":"Real"},{"key":"10154989","name":"Zälgweg","postalCode":"4917","locality":"Melchnau","commune":{"key":"333","name":"Melchnau","shortName":"Melchnau"},"district":{"key":"244","name":"Verwaltungskreis Oberaargau"},"canton":{"key":"2","code":"BE","name":"Bern / Berne"},"status":"Real"},]