[{"name":"Albisheimer Str.","postalCode":"67308","locality":"Einselthum","municipality":{"key":"07333018","name":"Einselthum","type":"Kreisangehörige_Gemeinde"},"district":{"key":"07333","name":"Donnersbergkreis","type":"Landkreis"},"federalState":{"key":"07","name":"Rheinland-Pfalz"}},{"name":"Alzeyer Weg","postalCode":"67308","locality":"Einselthum","municipality":{"key":"07333018","name":"Einselthum","type":"Kreisangehörige_Gemeinde"},"district":{"key":"07333","name":"Donnersbergkreis","type":"Landkreis"},"federalState":{"key":"07","name":"Rheinland-Pfalz"}},{"name":"Am Mühlbach","postalCode":"67308","locality":"Einselthum","municipality":{"key":"07333018","name":"Einselthum","type":"Kreisangehörige_Gemeinde"},"district":{"key":"07333","name":"Donnersbergkreis","type":"Landkreis"},"federalState":{"key":"07","name":"Rheinland-Pfalz"}},{"name":"Am Pfingstbrunnen","postalCode":"67308","locality":"Einselthum","municipality":{"key":"07333018","name":"Einselthum","type":"Kreisangehörige_Gemeinde"},"district":{"key":"07333","name":"Donnersbergkreis","type":"Landkreis"},"federalState":{"key":"07","name":"Rheinland-Pfalz"}},{"name":"Am Vogelsgesang","postalCode":"67308","locality":"Einselthum","municipality":{"key":"07333018","name":"Einselthum","type":"Kreisangehörige_Gemeinde"},"district":{"key":"07333","name":"Donnersbergkreis","type":"Landkreis"},"federalState":{"key":"07","name":"Rheinland-Pfalz"}},{"name":"Appolsheimer Str.","postalCode":"67308","locality":"Einselthum","municipality":{"key":"07333018","name":"Einselthum","type":"Kreisangehörige_Gemeinde"},"district":{"key":"07333","name":"Donnersbergkreis","type":"Landkreis"},"federalState":{"key":"07","name":"Rheinland-Pfalz"}},{"name":"Bergstr.","postalCode":"67308","locality":"Einselthum","municipality":{"key":"07333018","name":"Einselthum","type":"Kreisangehörige_Gemeinde"},"district":{"key":"07333","name":"Donnersbergkreis","type":"Landkreis"},"federalState":{"key":"07","name":"Rheinland-Pfalz"}},{"name":"Burgstr.","postalCode":"67308","locality":"Einselthum","municipality":{"key":"07333018","name":"Einselthum","type":"Kreisangehörige_Gemeinde"},"district":{"key":"07333","name":"Donnersbergkreis","type":"Landkreis"},"federalState":{"key":"07","name":"Rheinland-Pfalz"}},{"name":"Gundheimer Weg","postalCode":"67308","locality":"Einselthum","municipality":{"key":"07333018","name":"Einselthum","type":"Kreisangehörige_Gemeinde"},"district":{"key":"07333","name":"Donnersbergkreis","type":"Landkreis"},"federalState":{"key":"07","name":"Rheinland-Pfalz"}},{"name":"Hauptstr.","postalCode":"67308","locality":"Einselthum","municipality":{"key":"07333018","name":"Einselthum","type":"Kreisangehörige_Gemeinde"},"district":{"key":"07333","name":"Donnersbergkreis","type":"Landkreis"},"federalState":{"key":"07","name":"Rheinland-Pfalz"}},{"name":"Heckelchesweg","postalCode":"67308","locality":"Einselthum","municipality":{"key":"07333018","name":"Einselthum","type":"Kreisangehörige_Gemeinde"},"district":{"key":"07333","name":"Donnersbergkreis","type":"Landkreis"},"federalState":{"key":"07","name":"Rheinland-Pfalz"}},{"name":"Hochgewannweg","postalCode":"67308","locality":"Einselthum","municipality":{"key":"07333018","name":"Einselthum","type":"Kreisangehörige_Gemeinde"},"district":{"key":"07333","name":"Donnersbergkreis","type":"Landkreis"},"federalState":{"key":"07","name":"Rheinland-Pfalz"}},{"name":"Holzstr.","postalCode":"67308","locality":"Einselthum","municipality":{"key":"07333018","name":"Einselthum","type":"Kreisangehörige_Gemeinde"},"district":{"key":"07333","name":"Donnersbergkreis","type":"Landkreis"},"federalState":{"key":"07","name":"Rheinland-Pfalz"}},{"name":"Holzweg","postalCode":"67308","locality":"Einselthum","municipality":{"key":"07333018","name":"Einselthum","type":"Kreisangehörige_Gemeinde"},"district":{"key":"07333","name":"Donnersbergkreis","type":"Landkreis"},"federalState":{"key":"07","name":"Rheinland-Pfalz"}},{"name":"Hüttenweg","postalCode":"67308","locality":"Einselthum","municipality":{"key":"07333018","name":"Einselthum","type":"Kreisangehörige_Gemeinde"},"district":{"key":"07333","name":"Donnersbergkreis","type":"Landkreis"},"federalState":{"key":"07","name":"Rheinland-Pfalz"}},{"name":"Im Schönnagel","postalCode":"67308","locality":"Einselthum","municipality":{"key":"07333018","name":"Einselthum","type":"Kreisangehörige_Gemeinde"},"district":{"key":"07333","name":"Donnersbergkreis","type":"Landkreis"},"federalState":{"key":"07","name":"Rheinland-Pfalz"}},{"name":"In den Kästenwiesen","postalCode":"67308","locality":"Einselthum","municipality":{"key":"07333018","name":"Einselthum","type":"Kreisangehörige_Gemeinde"},"district":{"key":"07333","name":"Donnersbergkreis","type":"Landkreis"},"federalState":{"key":"07","name":"Rheinland-Pfalz"}},{"name":"In den Nächstwiesen","postalCode":"67308","locality":"Einselthum","municipality":{"key":"07333018","name":"Einselthum","type":"Kreisangehörige_Gemeinde"},"district":{"key":"07333","name":"Donnersbergkreis","type":"Landkreis"},"federalState":{"key":"07","name":"Rheinland-Pfalz"}},{"name":"Jakob-Scheller-Str.","postalCode":"67308","locality":"Einselthum","municipality":{"key":"07333018","name":"Einselthum","type":"Kreisangehörige_Gemeinde"},"district":{"key":"07333","name":"Donnersbergkreis","type":"Landkreis"},"federalState":{"key":"07","name":"Rheinland-Pfalz"}},{"name":"Kappesgewannweg","postalCode":"67308","locality":"Einselthum","municipality":{"key":"07333018","name":"Einselthum","type":"Kreisangehörige_Gemeinde"},"district":{"key":"07333","name":"Donnersbergkreis","type":"Landkreis"},"federalState":{"key":"07","name":"Rheinland-Pfalz"}},{"name":"Kastanienallee","postalCode":"67308","locality":"Einselthum","municipality":{"key":"07333018","name":"Einselthum","type":"Kreisangehörige_Gemeinde"},"district":{"key":"07333","name":"Donnersbergkreis","type":"Landkreis"},"federalState":{"key":"07","name":"Rheinland-Pfalz"}},{"name":"Kirchstr.","postalCode":"67308","locality":"Einselthum","municipality":{"key":"07333018","name":"Einselthum","type":"Kreisangehörige_Gemeinde"},"district":{"key":"07333","name":"Donnersbergkreis","type":"Landkreis"},"federalState":{"key":"07","name":"Rheinland-Pfalz"}},{"name":"Lahräckerstr.","postalCode":"67308","locality":"Einselthum","municipality":{"key":"07333018","name":"Einselthum","type":"Kreisangehörige_Gemeinde"},"district":{"key":"07333","name":"Donnersbergkreis","type":"Landkreis"},"federalState":{"key":"07","name":"Rheinland-Pfalz"}},{"name":"Schlittweg","postalCode":"67308","locality":"Einselthum","municipality":{"key":"07333018","name":"Einselthum","type":"Kreisangehörige_Gemeinde"},"district":{"key":"07333","name":"Donnersbergkreis","type":"Landkreis"},"federalState":{"key":"07","name":"Rheinland-Pfalz"}},{"name":"Schulstr.","postalCode":"67308","locality":"Einselthum","municipality":{"key":"07333018","name":"Einselthum","type":"Kreisangehörige_Gemeinde"},"district":{"key":"07333","name":"Donnersbergkreis","type":"Landkreis"},"federalState":{"key":"07","name":"Rheinland-Pfalz"}},{"name":"Stetter Weg","postalCode":"67308","locality":"Einselthum","municipality":{"key":"07333018","name":"Einselthum","type":"Kreisangehörige_Gemeinde"},"district":{"key":"07333","name":"Donnersbergkreis","type":"Landkreis"},"federalState":{"key":"07","name":"Rheinland-Pfalz"}},{"name":"Wasserweg","postalCode":"67308","locality":"Einselthum","municipality":{"key":"07333018","name":"Einselthum","type":"Kreisangehörige_Gemeinde"},"district":{"key":"07333","name":"Donnersbergkreis","type":"Landkreis"},"federalState":{"key":"07","name":"Rheinland-Pfalz"}},{"name":"Wetzelstr.","postalCode":"67308","locality":"Einselthum","municipality":{"key":"07333018","name":"Einselthum","type":"Kreisangehörige_Gemeinde"},"district":{"key":"07333","name":"Donnersbergkreis","type":"Landkreis"},"federalState":{"key":"07","name":"Rheinland-Pfalz"}},{"name":"Wiesenstr.","postalCode":"67308","locality":"Einselthum","municipality":{"key":"07333018","name":"Einselthum","type":"Kreisangehörige_Gemeinde"},"district":{"key":"07333","name":"Donnersbergkreis","type":"Landkreis"},"federalState":{"key":"07","name":"Rheinland-Pfalz"}},]