[{"name":"Bahnhofstr.","postalCode":"21493","locality":"Möhnsen","municipality":{"key":"01053089","name":"Möhnsen","type":"Kreisangehörige_Gemeinde"},"district":{"key":"01053","name":"Herzogtum Lauenburg","type":"Kreis"},"federalState":{"key":"01","name":"Schleswig-Holstein"}},{"name":"Kampsweg","postalCode":"21493","locality":"Möhnsen","municipality":{"key":"01053089","name":"Möhnsen","type":"Kreisangehörige_Gemeinde"},"district":{"key":"01053","name":"Herzogtum Lauenburg","type":"Kreis"},"federalState":{"key":"01","name":"Schleswig-Holstein"}},{"name":"Kastanienallee","postalCode":"21493","locality":"Möhnsen","municipality":{"key":"01053089","name":"Möhnsen","type":"Kreisangehörige_Gemeinde"},"district":{"key":"01053","name":"Herzogtum Lauenburg","type":"Kreis"},"federalState":{"key":"01","name":"Schleswig-Holstein"}},{"name":"Kätner Kamp","postalCode":"21493","locality":"Möhnsen","municipality":{"key":"01053089","name":"Möhnsen","type":"Kreisangehörige_Gemeinde"},"district":{"key":"01053","name":"Herzogtum Lauenburg","type":"Kreis"},"federalState":{"key":"01","name":"Schleswig-Holstein"}},{"name":"Lankener Weg","postalCode":"21493","locality":"Möhnsen","municipality":{"key":"01053089","name":"Möhnsen","type":"Kreisangehörige_Gemeinde"},"district":{"key":"01053","name":"Herzogtum Lauenburg","type":"Kreis"},"federalState":{"key":"01","name":"Schleswig-Holstein"}},{"name":"Ringstr.","postalCode":"21493","locality":"Möhnsen","municipality":{"key":"01053089","name":"Möhnsen","type":"Kreisangehörige_Gemeinde"},"district":{"key":"01053","name":"Herzogtum Lauenburg","type":"Kreis"},"federalState":{"key":"01","name":"Schleswig-Holstein"}},{"name":"Sachsenwaldstr.","postalCode":"21493","locality":"Möhnsen","municipality":{"key":"01053089","name":"Möhnsen","type":"Kreisangehörige_Gemeinde"},"district":{"key":"01053","name":"Herzogtum Lauenburg","type":"Kreis"},"federalState":{"key":"01","name":"Schleswig-Holstein"}},{"name":"Schulstr.","postalCode":"21493","locality":"Möhnsen","municipality":{"key":"01053089","name":"Möhnsen","type":"Kreisangehörige_Gemeinde"},"district":{"key":"01053","name":"Herzogtum Lauenburg","type":"Kreis"},"federalState":{"key":"01","name":"Schleswig-Holstein"}},{"name":"Schwarzenbeker Str.","postalCode":"21493","locality":"Möhnsen","municipality":{"key":"01053089","name":"Möhnsen","type":"Kreisangehörige_Gemeinde"},"district":{"key":"01053","name":"Herzogtum Lauenburg","type":"Kreis"},"federalState":{"key":"01","name":"Schleswig-Holstein"}},{"name":"Siedenberg","postalCode":"21493","locality":"Möhnsen","municipality":{"key":"01053089","name":"Möhnsen","type":"Kreisangehörige_Gemeinde"},"district":{"key":"01053","name":"Herzogtum Lauenburg","type":"Kreis"},"federalState":{"key":"01","name":"Schleswig-Holstein"}},{"name":"Steinkamp","postalCode":"21493","locality":"Möhnsen","municipality":{"key":"01053089","name":"Möhnsen","type":"Kreisangehörige_Gemeinde"},"district":{"key":"01053","name":"Herzogtum Lauenburg","type":"Kreis"},"federalState":{"key":"01","name":"Schleswig-Holstein"}},{"name":"Steinriede","postalCode":"21493","locality":"Möhnsen","municipality":{"key":"01053089","name":"Möhnsen","type":"Kreisangehörige_Gemeinde"},"district":{"key":"01053","name":"Herzogtum Lauenburg","type":"Kreis"},"federalState":{"key":"01","name":"Schleswig-Holstein"}},]