[{"name":"Am Berg","postalCode":"95683","locality":"Ebnath","municipality":{"key":"09377115","name":"Ebnath","type":"Kreisangehörige_Gemeinde"},"district":{"key":"09377","name":"Tirschenreuth","type":"Landkreis"},"federalState":{"key":"09","name":"Bayern"}},{"name":"Am Oestelberg","postalCode":"95683","locality":"Ebnath","municipality":{"key":"09377115","name":"Ebnath","type":"Kreisangehörige_Gemeinde"},"district":{"key":"09377","name":"Tirschenreuth","type":"Landkreis"},"federalState":{"key":"09","name":"Bayern"}},{"name":"An der Point","postalCode":"95683","locality":"Ebnath","municipality":{"key":"09377115","name":"Ebnath","type":"Kreisangehörige_Gemeinde"},"district":{"key":"09377","name":"Tirschenreuth","type":"Landkreis"},"federalState":{"key":"09","name":"Bayern"}},{"name":"Bahnhofstr.","postalCode":"95683","locality":"Ebnath","municipality":{"key":"09377115","name":"Ebnath","type":"Kreisangehörige_Gemeinde"},"district":{"key":"09377","name":"Tirschenreuth","type":"Landkreis"},"federalState":{"key":"09","name":"Bayern"}},{"name":"Blumenstr.","postalCode":"95683","locality":"Ebnath","municipality":{"key":"09377115","name":"Ebnath","type":"Kreisangehörige_Gemeinde"},"district":{"key":"09377","name":"Tirschenreuth","type":"Landkreis"},"federalState":{"key":"09","name":"Bayern"}},{"name":"Brander Str.","postalCode":"95683","locality":"Ebnath","municipality":{"key":"09377115","name":"Ebnath","type":"Kreisangehörige_Gemeinde"},"district":{"key":"09377","name":"Tirschenreuth","type":"Landkreis"},"federalState":{"key":"09","name":"Bayern"}},{"name":"Burgweg","postalCode":"95683","locality":"Ebnath","municipality":{"key":"09377115","name":"Ebnath","type":"Kreisangehörige_Gemeinde"},"district":{"key":"09377","name":"Tirschenreuth","type":"Landkreis"},"federalState":{"key":"09","name":"Bayern"}},{"name":"Dahlienweg","postalCode":"95643","locality":"Tirschenreuth","municipality":{"key":"09377154","name":"Tirschenreuth, St","type":"Stadt"},"district":{"key":"09377","name":"Tirschenreuth","type":"Landkreis"},"federalState":{"key":"09","name":"Bayern"}},{"name":"Dammstr.","postalCode":"95643","locality":"Tirschenreuth","municipality":{"key":"09377154","name":"Tirschenreuth, St","type":"Stadt"},"district":{"key":"09377","name":"Tirschenreuth","type":"Landkreis"},"federalState":{"key":"09","name":"Bayern"}},{"name":"Deschplatz","postalCode":"95643","locality":"Tirschenreuth","municipality":{"key":"09377154","name":"Tirschenreuth, St","type":"Stadt"},"district":{"key":"09377","name":"Tirschenreuth","type":"Landkreis"},"federalState":{"key":"09","name":"Bayern"}},{"name":"Dorfweg","postalCode":"95643","locality":"Tirschenreuth","municipality":{"key":"09377154","name":"Tirschenreuth, St","type":"Stadt"},"district":{"key":"09377","name":"Tirschenreuth","type":"Landkreis"},"federalState":{"key":"09","name":"Bayern"}},{"name":"Dr.-Dobereiner-Weg","postalCode":"95643","locality":"Tirschenreuth","municipality":{"key":"09377154","name":"Tirschenreuth, St","type":"Stadt"},"district":{"key":"09377","name":"Tirschenreuth","type":"Landkreis"},"federalState":{"key":"09","name":"Bayern"}},{"name":"Dr.-Hauer-Weg","postalCode":"95643","locality":"Tirschenreuth","municipality":{"key":"09377154","name":"Tirschenreuth, St","type":"Stadt"},"district":{"key":"09377","name":"Tirschenreuth","type":"Landkreis"},"federalState":{"key":"09","name":"Bayern"}},{"name":"Dr.-Karl-Forster-Str.","postalCode":"95643","locality":"Tirschenreuth","municipality":{"key":"09377154","name":"Tirschenreuth, St","type":"Stadt"},"district":{"key":"09377","name":"Tirschenreuth","type":"Landkreis"},"federalState":{"key":"09","name":"Bayern"}},{"name":"Dr.-Üblacker-Weg","postalCode":"95643","locality":"Tirschenreuth","municipality":{"key":"09377154","name":"Tirschenreuth, St","type":"Stadt"},"district":{"key":"09377","name":"Tirschenreuth","type":"Landkreis"},"federalState":{"key":"09","name":"Bayern"}},{"name":"Egerstr.","postalCode":"95643","locality":"Tirschenreuth","municipality":{"key":"09377154","name":"Tirschenreuth, St","type":"Stadt"},"district":{"key":"09377","name":"Tirschenreuth","type":"Landkreis"},"federalState":{"key":"09","name":"Bayern"}},{"name":"Eichenweg","postalCode":"95643","locality":"Tirschenreuth","municipality":{"key":"09377154","name":"Tirschenreuth, St","type":"Stadt"},"district":{"key":"09377","name":"Tirschenreuth","type":"Landkreis"},"federalState":{"key":"09","name":"Bayern"}},{"name":"Einsteinstr.","postalCode":"95643","locality":"Tirschenreuth","municipality":{"key":"09377154","name":"Tirschenreuth, St","type":"Stadt"},"district":{"key":"09377","name":"Tirschenreuth","type":"Landkreis"},"federalState":{"key":"09","name":"Bayern"}},{"name":"Elisabethstr.","postalCode":"95643","locality":"Tirschenreuth","municipality":{"key":"09377154","name":"Tirschenreuth, St","type":"Stadt"},"district":{"key":"09377","name":"Tirschenreuth","type":"Landkreis"},"federalState":{"key":"09","name":"Bayern"}},{"name":"Elsa-Brandström-Str.","postalCode":"95643","locality":"Tirschenreuth","municipality":{"key":"09377154","name":"Tirschenreuth, St","type":"Stadt"},"district":{"key":"09377","name":"Tirschenreuth","type":"Landkreis"},"federalState":{"key":"09","name":"Bayern"}},{"name":"FGV-Platz \"Zur Zolltafel\"","postalCode":"95683","locality":"Ebnath","municipality":{"key":"09377115","name":"Ebnath","type":"Kreisangehörige_Gemeinde"},"district":{"key":"09377","name":"Tirschenreuth","type":"Landkreis"},"federalState":{"key":"09","name":"Bayern"}},{"name":"Gartenstr.","postalCode":"95683","locality":"Ebnath","municipality":{"key":"09377115","name":"Ebnath","type":"Kreisangehörige_Gemeinde"},"district":{"key":"09377","name":"Tirschenreuth","type":"Landkreis"},"federalState":{"key":"09","name":"Bayern"}},{"name":"Gregnitzweg","postalCode":"95683","locality":"Ebnath","municipality":{"key":"09377115","name":"Ebnath","type":"Kreisangehörige_Gemeinde"},"district":{"key":"09377","name":"Tirschenreuth","type":"Landkreis"},"federalState":{"key":"09","name":"Bayern"}},{"name":"Grünlas","postalCode":"95683","locality":"Ebnath","municipality":{"key":"09377115","name":"Ebnath","type":"Kreisangehörige_Gemeinde"},"district":{"key":"09377","name":"Tirschenreuth","type":"Landkreis"},"federalState":{"key":"09","name":"Bayern"}},{"name":"Hammerweg","postalCode":"95683","locality":"Ebnath","municipality":{"key":"09377115","name":"Ebnath","type":"Kreisangehörige_Gemeinde"},"district":{"key":"09377","name":"Tirschenreuth","type":"Landkreis"},"federalState":{"key":"09","name":"Bayern"}},{"name":"Hermannsreuth","postalCode":"95683","locality":"Ebnath","municipality":{"key":"09377115","name":"Ebnath","type":"Kreisangehörige_Gemeinde"},"district":{"key":"09377","name":"Tirschenreuth","type":"Landkreis"},"federalState":{"key":"09","name":"Bayern"}},{"name":"Hofweiherweg","postalCode":"95683","locality":"Ebnath","municipality":{"key":"09377115","name":"Ebnath","type":"Kreisangehörige_Gemeinde"},"district":{"key":"09377","name":"Tirschenreuth","type":"Landkreis"},"federalState":{"key":"09","name":"Bayern"}},{"name":"Hölzlashofer Weg","postalCode":"95683","locality":"Ebnath","municipality":{"key":"09377115","name":"Ebnath","type":"Kreisangehörige_Gemeinde"},"district":{"key":"09377","name":"Tirschenreuth","type":"Landkreis"},"federalState":{"key":"09","name":"Bayern"}},{"name":"Hözlashof","postalCode":"95683","locality":"Ebnath","municipality":{"key":"09377115","name":"Ebnath","type":"Kreisangehörige_Gemeinde"},"district":{"key":"09377","name":"Tirschenreuth","type":"Landkreis"},"federalState":{"key":"09","name":"Bayern"}},{"name":"Im Lehen","postalCode":"95643","locality":"Tirschenreuth","municipality":{"key":"09377154","name":"Tirschenreuth, St","type":"Stadt"},"district":{"key":"09377","name":"Tirschenreuth","type":"Landkreis"},"federalState":{"key":"09","name":"Bayern"}},{"name":"Jägerstr.","postalCode":"95643","locality":"Tirschenreuth","municipality":{"key":"09377154","name":"Tirschenreuth, St","type":"Stadt"},"district":{"key":"09377","name":"Tirschenreuth","type":"Landkreis"},"federalState":{"key":"09","name":"Bayern"}},{"name":"Jahnstr.","postalCode":"95643","locality":"Tirschenreuth","municipality":{"key":"09377154","name":"Tirschenreuth, St","type":"Stadt"},"district":{"key":"09377","name":"Tirschenreuth","type":"Landkreis"},"federalState":{"key":"09","name":"Bayern"}},{"name":"Johann-Brunner-Str.","postalCode":"95643","locality":"Tirschenreuth","municipality":{"key":"09377154","name":"Tirschenreuth, St","type":"Stadt"},"district":{"key":"09377","name":"Tirschenreuth","type":"Landkreis"},"federalState":{"key":"09","name":"Bayern"}},{"name":"Johannisstr.","postalCode":"95643","locality":"Tirschenreuth","municipality":{"key":"09377154","name":"Tirschenreuth, St","type":"Stadt"},"district":{"key":"09377","name":"Tirschenreuth","type":"Landkreis"},"federalState":{"key":"09","name":"Bayern"}},{"name":"Johann-Keiner-Weg","postalCode":"95643","locality":"Tirschenreuth","municipality":{"key":"09377154","name":"Tirschenreuth, St","type":"Stadt"},"district":{"key":"09377","name":"Tirschenreuth","type":"Landkreis"},"federalState":{"key":"09","name":"Bayern"}},{"name":"Kalvarienbergweg","postalCode":"95683","locality":"Ebnath","municipality":{"key":"09377115","name":"Ebnath","type":"Kreisangehörige_Gemeinde"},"district":{"key":"09377","name":"Tirschenreuth","type":"Landkreis"},"federalState":{"key":"09","name":"Bayern"}},{"name":"Kemnather Str.","postalCode":"95683","locality":"Ebnath","municipality":{"key":"09377115","name":"Ebnath","type":"Kreisangehörige_Gemeinde"},"district":{"key":"09377","name":"Tirschenreuth","type":"Landkreis"},"federalState":{"key":"09","name":"Bayern"}},{"name":"Kirchweg","postalCode":"95683","locality":"Ebnath","municipality":{"key":"09377115","name":"Ebnath","type":"Kreisangehörige_Gemeinde"},"district":{"key":"09377","name":"Tirschenreuth","type":"Landkreis"},"federalState":{"key":"09","name":"Bayern"}},{"name":"Kösseinestr.","postalCode":"95683","locality":"Ebnath","municipality":{"key":"09377115","name":"Ebnath","type":"Kreisangehörige_Gemeinde"},"district":{"key":"09377","name":"Tirschenreuth","type":"Landkreis"},"federalState":{"key":"09","name":"Bayern"}},{"name":"Lärchenweg","postalCode":"95683","locality":"Ebnath","municipality":{"key":"09377115","name":"Ebnath","type":"Kreisangehörige_Gemeinde"},"district":{"key":"09377","name":"Tirschenreuth","type":"Landkreis"},"federalState":{"key":"09","name":"Bayern"}},{"name":"Marktplatz","postalCode":"95683","locality":"Ebnath","municipality":{"key":"09377115","name":"Ebnath","type":"Kreisangehörige_Gemeinde"},"district":{"key":"09377","name":"Tirschenreuth","type":"Landkreis"},"federalState":{"key":"09","name":"Bayern"}},{"name":"Naabweg","postalCode":"95683","locality":"Ebnath","municipality":{"key":"09377115","name":"Ebnath","type":"Kreisangehörige_Gemeinde"},"district":{"key":"09377","name":"Tirschenreuth","type":"Landkreis"},"federalState":{"key":"09","name":"Bayern"}},{"name":"Naturbad Selingau","postalCode":"95683","locality":"Ebnath","municipality":{"key":"09377115","name":"Ebnath","type":"Kreisangehörige_Gemeinde"},"district":{"key":"09377","name":"Tirschenreuth","type":"Landkreis"},"federalState":{"key":"09","name":"Bayern"}},{"name":"Neubau","postalCode":"95683","locality":"Ebnath","municipality":{"key":"09377115","name":"Ebnath","type":"Kreisangehörige_Gemeinde"},"district":{"key":"09377","name":"Tirschenreuth","type":"Landkreis"},"federalState":{"key":"09","name":"Bayern"}},{"name":"Neusorger Str.","postalCode":"95683","locality":"Ebnath","municipality":{"key":"09377115","name":"Ebnath","type":"Kreisangehörige_Gemeinde"},"district":{"key":"09377","name":"Tirschenreuth","type":"Landkreis"},"federalState":{"key":"09","name":"Bayern"}},{"name":"Otto-Hahn-Str.","postalCode":"95643","locality":"Tirschenreuth","municipality":{"key":"09377154","name":"Tirschenreuth, St","type":"Stadt"},"district":{"key":"09377","name":"Tirschenreuth","type":"Landkreis"},"federalState":{"key":"09","name":"Bayern"}},{"name":"Pater-Rupert-Mayer-Weg","postalCode":"95643","locality":"Tirschenreuth","municipality":{"key":"09377154","name":"Tirschenreuth, St","type":"Stadt"},"district":{"key":"09377","name":"Tirschenreuth","type":"Landkreis"},"federalState":{"key":"09","name":"Bayern"}},{"name":"Paul-Straub-Str.","postalCode":"95643","locality":"Tirschenreuth","municipality":{"key":"09377154","name":"Tirschenreuth, St","type":"Stadt"},"district":{"key":"09377","name":"Tirschenreuth","type":"Landkreis"},"federalState":{"key":"09","name":"Bayern"}},{"name":"Paulusbrunner Weg","postalCode":"95643","locality":"Tirschenreuth","municipality":{"key":"09377154","name":"Tirschenreuth, St","type":"Stadt"},"district":{"key":"09377","name":"Tirschenreuth","type":"Landkreis"},"federalState":{"key":"09","name":"Bayern"}},{"name":"Peterangerstr.","postalCode":"95643","locality":"Tirschenreuth","municipality":{"key":"09377154","name":"Tirschenreuth, St","type":"Stadt"},"district":{"key":"09377","name":"Tirschenreuth","type":"Landkreis"},"federalState":{"key":"09","name":"Bayern"}},{"name":"Pilmersreuth a.d. Str.","postalCode":"95643","locality":"Tirschenreuth","municipality":{"key":"09377154","name":"Tirschenreuth, St","type":"Stadt"},"district":{"key":"09377","name":"Tirschenreuth","type":"Landkreis"},"federalState":{"key":"09","name":"Bayern"}},{"name":"Pilmersreuther Str.","postalCode":"95643","locality":"Tirschenreuth","municipality":{"key":"09377154","name":"Tirschenreuth, St","type":"Stadt"},"district":{"key":"09377","name":"Tirschenreuth","type":"Landkreis"},"federalState":{"key":"09","name":"Bayern"}},{"name":"Planer Str.","postalCode":"95643","locality":"Tirschenreuth","municipality":{"key":"09377154","name":"Tirschenreuth, St","type":"Stadt"},"district":{"key":"09377","name":"Tirschenreuth","type":"Landkreis"},"federalState":{"key":"09","name":"Bayern"}},{"name":"Planetenweg","postalCode":"95643","locality":"Tirschenreuth","municipality":{"key":"09377154","name":"Tirschenreuth, St","type":"Stadt"},"district":{"key":"09377","name":"Tirschenreuth","type":"Landkreis"},"federalState":{"key":"09","name":"Bayern"}},{"name":"Platz am See","postalCode":"95643","locality":"Tirschenreuth","municipality":{"key":"09377154","name":"Tirschenreuth, St","type":"Stadt"},"district":{"key":"09377","name":"Tirschenreuth","type":"Landkreis"},"federalState":{"key":"09","name":"Bayern"}},{"name":"Platz la Ville du Bois","postalCode":"95643","locality":"Tirschenreuth","municipality":{"key":"09377154","name":"Tirschenreuth, St","type":"Stadt"},"district":{"key":"09377","name":"Tirschenreuth","type":"Landkreis"},"federalState":{"key":"09","name":"Bayern"}},{"name":"Pleierstr.","postalCode":"95643","locality":"Tirschenreuth","municipality":{"key":"09377154","name":"Tirschenreuth, St","type":"Stadt"},"district":{"key":"09377","name":"Tirschenreuth","type":"Landkreis"},"federalState":{"key":"09","name":"Bayern"}},{"name":"Pointweg","postalCode":"95643","locality":"Tirschenreuth","municipality":{"key":"09377154","name":"Tirschenreuth, St","type":"Stadt"},"district":{"key":"09377","name":"Tirschenreuth","type":"Landkreis"},"federalState":{"key":"09","name":"Bayern"}},{"name":"Porzellinerstr.","postalCode":"95643","locality":"Tirschenreuth","municipality":{"key":"09377154","name":"Tirschenreuth, St","type":"Stadt"},"district":{"key":"09377","name":"Tirschenreuth","type":"Landkreis"},"federalState":{"key":"09","name":"Bayern"}},{"name":"Ringstr.","postalCode":"95683","locality":"Ebnath","municipality":{"key":"09377115","name":"Ebnath","type":"Kreisangehörige_Gemeinde"},"district":{"key":"09377","name":"Tirschenreuth","type":"Landkreis"},"federalState":{"key":"09","name":"Bayern"}},{"name":"Schloßstr.","postalCode":"95683","locality":"Ebnath","municipality":{"key":"09377115","name":"Ebnath","type":"Kreisangehörige_Gemeinde"},"district":{"key":"09377","name":"Tirschenreuth","type":"Landkreis"},"federalState":{"key":"09","name":"Bayern"}},{"name":"Schulstr.","postalCode":"95683","locality":"Ebnath","municipality":{"key":"09377115","name":"Ebnath","type":"Kreisangehörige_Gemeinde"},"district":{"key":"09377","name":"Tirschenreuth","type":"Landkreis"},"federalState":{"key":"09","name":"Bayern"}},{"name":"Schwarzenreuther Str.","postalCode":"95683","locality":"Ebnath","municipality":{"key":"09377115","name":"Ebnath","type":"Kreisangehörige_Gemeinde"},"district":{"key":"09377","name":"Tirschenreuth","type":"Landkreis"},"federalState":{"key":"09","name":"Bayern"}},{"name":"Sonnenstr.","postalCode":"95683","locality":"Ebnath","municipality":{"key":"09377115","name":"Ebnath","type":"Kreisangehörige_Gemeinde"},"district":{"key":"09377","name":"Tirschenreuth","type":"Landkreis"},"federalState":{"key":"09","name":"Bayern"}},{"name":"Tachauer Str.","postalCode":"95643","locality":"Tirschenreuth","municipality":{"key":"09377154","name":"Tirschenreuth, St","type":"Stadt"},"district":{"key":"09377","name":"Tirschenreuth","type":"Landkreis"},"federalState":{"key":"09","name":"Bayern"}},{"name":"Theresienstr.","postalCode":"95643","locality":"Tirschenreuth","municipality":{"key":"09377154","name":"Tirschenreuth, St","type":"Stadt"},"district":{"key":"09377","name":"Tirschenreuth","type":"Landkreis"},"federalState":{"key":"09","name":"Bayern"}},{"name":"Tillystr.","postalCode":"95643","locality":"Tirschenreuth","municipality":{"key":"09377154","name":"Tirschenreuth, St","type":"Stadt"},"district":{"key":"09377","name":"Tirschenreuth","type":"Landkreis"},"federalState":{"key":"09","name":"Bayern"}},{"name":"Tirschenreuther Str.","postalCode":"95643","locality":"Tirschenreuth","municipality":{"key":"09377154","name":"Tirschenreuth, St","type":"Stadt"},"district":{"key":"09377","name":"Tirschenreuth","type":"Landkreis"},"federalState":{"key":"09","name":"Bayern"}},{"name":"Tuchmacherstr.","postalCode":"95643","locality":"Tirschenreuth","municipality":{"key":"09377154","name":"Tirschenreuth, St","type":"Stadt"},"district":{"key":"09377","name":"Tirschenreuth","type":"Landkreis"},"federalState":{"key":"09","name":"Bayern"}},{"name":"Tulpenweg","postalCode":"95643","locality":"Tirschenreuth","municipality":{"key":"09377154","name":"Tirschenreuth, St","type":"Stadt"},"district":{"key":"09377","name":"Tirschenreuth","type":"Landkreis"},"federalState":{"key":"09","name":"Bayern"}},{"name":"Unnaplatz","postalCode":"95643","locality":"Tirschenreuth","municipality":{"key":"09377154","name":"Tirschenreuth, St","type":"Stadt"},"district":{"key":"09377","name":"Tirschenreuth","type":"Landkreis"},"federalState":{"key":"09","name":"Bayern"}},{"name":"Urbanstr.","postalCode":"95643","locality":"Tirschenreuth","municipality":{"key":"09377154","name":"Tirschenreuth, St","type":"Stadt"},"district":{"key":"09377","name":"Tirschenreuth","type":"Landkreis"},"federalState":{"key":"09","name":"Bayern"}},{"name":"Vierhöf","postalCode":"95683","locality":"Ebnath","municipality":{"key":"09377115","name":"Ebnath","type":"Kreisangehörige_Gemeinde"},"district":{"key":"09377","name":"Tirschenreuth","type":"Landkreis"},"federalState":{"key":"09","name":"Bayern"}},{"name":"Witzlasreuther Weg","postalCode":"95683","locality":"Ebnath","municipality":{"key":"09377115","name":"Ebnath","type":"Kreisangehörige_Gemeinde"},"district":{"key":"09377","name":"Tirschenreuth","type":"Landkreis"},"federalState":{"key":"09","name":"Bayern"}},{"name":"Zeckenberg","postalCode":"95683","locality":"Ebnath","municipality":{"key":"09377115","name":"Ebnath","type":"Kreisangehörige_Gemeinde"},"district":{"key":"09377","name":"Tirschenreuth","type":"Landkreis"},"federalState":{"key":"09","name":"Bayern"}},{"name":"Äußere Regensburger Str.","postalCode":"95643","locality":"Tirschenreuth","municipality":{"key":"09377154","name":"Tirschenreuth, St","type":"Stadt"},"district":{"key":"09377","name":"Tirschenreuth","type":"Landkreis"},"federalState":{"key":"09","name":"Bayern"}},{"name":"Überdamm","postalCode":"95683","locality":"Ebnath","municipality":{"key":"09377115","name":"Ebnath","type":"Kreisangehörige_Gemeinde"},"district":{"key":"09377","name":"Tirschenreuth","type":"Landkreis"},"federalState":{"key":"09","name":"Bayern"}},]