[{"name":"Adalbert-Stifter-Str.","postalCode":"89257","locality":"Illertissen","municipality":{"key":"09775129","name":"Illertissen, St","type":"Stadt"},"district":{"key":"09775","name":"Neu-Ulm","type":"Landkreis"},"federalState":{"key":"09","name":"Bayern"}},{"name":"Adele-Hartmann-Str.","postalCode":"89257","locality":"Illertissen","municipality":{"key":"09775129","name":"Illertissen, St","type":"Stadt"},"district":{"key":"09775","name":"Neu-Ulm","type":"Landkreis"},"federalState":{"key":"09","name":"Bayern"}},{"name":"Adlerstr.","postalCode":"89257","locality":"Illertissen","municipality":{"key":"09775129","name":"Illertissen, St","type":"Stadt"},"district":{"key":"09775","name":"Neu-Ulm","type":"Landkreis"},"federalState":{"key":"09","name":"Bayern"}},{"name":"Adlusstr.","postalCode":"89257","locality":"Illertissen","municipality":{"key":"09775129","name":"Illertissen, St","type":"Stadt"},"district":{"key":"09775","name":"Neu-Ulm","type":"Landkreis"},"federalState":{"key":"09","name":"Bayern"}},{"name":"Adolf-Kempter-Str.","postalCode":"89257","locality":"Illertissen","municipality":{"key":"09775129","name":"Illertissen, St","type":"Stadt"},"district":{"key":"09775","name":"Neu-Ulm","type":"Landkreis"},"federalState":{"key":"09","name":"Bayern"}},{"name":"Adolf-Kolping-Str.","postalCode":"89257","locality":"Illertissen","municipality":{"key":"09775129","name":"Illertissen, St","type":"Stadt"},"district":{"key":"09775","name":"Neu-Ulm","type":"Landkreis"},"federalState":{"key":"09","name":"Bayern"}},{"name":"Ahornweg","postalCode":"89257","locality":"Illertissen","municipality":{"key":"09775129","name":"Illertissen, St","type":"Stadt"},"district":{"key":"09775","name":"Neu-Ulm","type":"Landkreis"},"federalState":{"key":"09","name":"Bayern"}},{"name":"Albert-Schweitzer-Str.","postalCode":"89257","locality":"Illertissen","municipality":{"key":"09775129","name":"Illertissen, St","type":"Stadt"},"district":{"key":"09775","name":"Neu-Ulm","type":"Landkreis"},"federalState":{"key":"09","name":"Bayern"}},{"name":"Albrecht-Dürer-Str.","postalCode":"89257","locality":"Illertissen","municipality":{"key":"09775129","name":"Illertissen, St","type":"Stadt"},"district":{"key":"09775","name":"Neu-Ulm","type":"Landkreis"},"federalState":{"key":"09","name":"Bayern"}},{"name":"Allgäuer Str.","postalCode":"89257","locality":"Illertissen","municipality":{"key":"09775129","name":"Illertissen, St","type":"Stadt"},"district":{"key":"09775","name":"Neu-Ulm","type":"Landkreis"},"federalState":{"key":"09","name":"Bayern"}},{"name":"Alpenweg","postalCode":"89257","locality":"Illertissen","municipality":{"key":"09775129","name":"Illertissen, St","type":"Stadt"},"district":{"key":"09775","name":"Neu-Ulm","type":"Landkreis"},"federalState":{"key":"09","name":"Bayern"}},{"name":"Am Anger","postalCode":"89257","locality":"Illertissen","municipality":{"key":"09775129","name":"Illertissen, St","type":"Stadt"},"district":{"key":"09775","name":"Neu-Ulm","type":"Landkreis"},"federalState":{"key":"09","name":"Bayern"}},{"name":"Am Fuchsberg","postalCode":"89257","locality":"Illertissen","municipality":{"key":"09775129","name":"Illertissen, St","type":"Stadt"},"district":{"key":"09775","name":"Neu-Ulm","type":"Landkreis"},"federalState":{"key":"09","name":"Bayern"}},{"name":"Am Kellerberg","postalCode":"89257","locality":"Illertissen","municipality":{"key":"09775129","name":"Illertissen, St","type":"Stadt"},"district":{"key":"09775","name":"Neu-Ulm","type":"Landkreis"},"federalState":{"key":"09","name":"Bayern"}},{"name":"Am Lichtacker","postalCode":"89257","locality":"Illertissen","municipality":{"key":"09775129","name":"Illertissen, St","type":"Stadt"},"district":{"key":"09775","name":"Neu-Ulm","type":"Landkreis"},"federalState":{"key":"09","name":"Bayern"}},{"name":"Am Marienplatz","postalCode":"89257","locality":"Illertissen","municipality":{"key":"09775129","name":"Illertissen, St","type":"Stadt"},"district":{"key":"09775","name":"Neu-Ulm","type":"Landkreis"},"federalState":{"key":"09","name":"Bayern"}},{"name":"Am Märtelbrunnen","postalCode":"89257","locality":"Illertissen","municipality":{"key":"09775129","name":"Illertissen, St","type":"Stadt"},"district":{"key":"09775","name":"Neu-Ulm","type":"Landkreis"},"federalState":{"key":"09","name":"Bayern"}},{"name":"Ammerweg","postalCode":"89257","locality":"Illertissen","municipality":{"key":"09775129","name":"Illertissen, St","type":"Stadt"},"district":{"key":"09775","name":"Neu-Ulm","type":"Landkreis"},"federalState":{"key":"09","name":"Bayern"}},{"name":"Am Mühlbach","postalCode":"89257","locality":"Illertissen","municipality":{"key":"09775129","name":"Illertissen, St","type":"Stadt"},"district":{"key":"09775","name":"Neu-Ulm","type":"Landkreis"},"federalState":{"key":"09","name":"Bayern"}},{"name":"Am Neubach","postalCode":"89257","locality":"Illertissen","municipality":{"key":"09775129","name":"Illertissen, St","type":"Stadt"},"district":{"key":"09775","name":"Neu-Ulm","type":"Landkreis"},"federalState":{"key":"09","name":"Bayern"}},{"name":"Am Pfarrzentrum","postalCode":"89257","locality":"Illertissen","municipality":{"key":"09775129","name":"Illertissen, St","type":"Stadt"},"district":{"key":"09775","name":"Neu-Ulm","type":"Landkreis"},"federalState":{"key":"09","name":"Bayern"}},{"name":"Am Reichshof","postalCode":"89257","locality":"Illertissen","municipality":{"key":"09775129","name":"Illertissen, St","type":"Stadt"},"district":{"key":"09775","name":"Neu-Ulm","type":"Landkreis"},"federalState":{"key":"09","name":"Bayern"}},{"name":"Am Sailers Hölzle","postalCode":"89257","locality":"Illertissen","municipality":{"key":"09775129","name":"Illertissen, St","type":"Stadt"},"district":{"key":"09775","name":"Neu-Ulm","type":"Landkreis"},"federalState":{"key":"09","name":"Bayern"}},{"name":"Amselweg","postalCode":"89257","locality":"Illertissen","municipality":{"key":"09775129","name":"Illertissen, St","type":"Stadt"},"district":{"key":"09775","name":"Neu-Ulm","type":"Landkreis"},"federalState":{"key":"09","name":"Bayern"}},{"name":"Am Sportplatz","postalCode":"89257","locality":"Illertissen","municipality":{"key":"09775129","name":"Illertissen, St","type":"Stadt"},"district":{"key":"09775","name":"Neu-Ulm","type":"Landkreis"},"federalState":{"key":"09","name":"Bayern"}},{"name":"Am Weiher","postalCode":"89257","locality":"Illertissen","municipality":{"key":"09775129","name":"Illertissen, St","type":"Stadt"},"district":{"key":"09775","name":"Neu-Ulm","type":"Landkreis"},"federalState":{"key":"09","name":"Bayern"}},{"name":"An der Linde","postalCode":"89257","locality":"Illertissen","municipality":{"key":"09775129","name":"Illertissen, St","type":"Stadt"},"district":{"key":"09775","name":"Neu-Ulm","type":"Landkreis"},"federalState":{"key":"09","name":"Bayern"}},{"name":"Anton-Kanz-Str.","postalCode":"89257","locality":"Illertissen","municipality":{"key":"09775129","name":"Illertissen, St","type":"Stadt"},"district":{"key":"09775","name":"Neu-Ulm","type":"Landkreis"},"federalState":{"key":"09","name":"Bayern"}},{"name":"Apothekerstr.","postalCode":"89257","locality":"Illertissen","municipality":{"key":"09775129","name":"Illertissen, St","type":"Stadt"},"district":{"key":"09775","name":"Neu-Ulm","type":"Landkreis"},"federalState":{"key":"09","name":"Bayern"}},{"name":"Asternstr.","postalCode":"89257","locality":"Illertissen","municipality":{"key":"09775129","name":"Illertissen, St","type":"Stadt"},"district":{"key":"09775","name":"Neu-Ulm","type":"Landkreis"},"federalState":{"key":"09","name":"Bayern"}},{"name":"Astrid-Lindgren-Weg","postalCode":"89257","locality":"Illertissen","municipality":{"key":"09775129","name":"Illertissen, St","type":"Stadt"},"district":{"key":"09775","name":"Neu-Ulm","type":"Landkreis"},"federalState":{"key":"09","name":"Bayern"}},{"name":"Auer Str.","postalCode":"89257","locality":"Illertissen","municipality":{"key":"09775129","name":"Illertissen, St","type":"Stadt"},"district":{"key":"09775","name":"Neu-Ulm","type":"Landkreis"},"federalState":{"key":"09","name":"Bayern"}},{"name":"Auf der Point","postalCode":"89257","locality":"Illertissen","municipality":{"key":"09775129","name":"Illertissen, St","type":"Stadt"},"district":{"key":"09775","name":"Neu-Ulm","type":"Landkreis"},"federalState":{"key":"09","name":"Bayern"}},{"name":"Auf der Spöck","postalCode":"89257","locality":"Illertissen","municipality":{"key":"09775129","name":"Illertissen, St","type":"Stadt"},"district":{"key":"09775","name":"Neu-Ulm","type":"Landkreis"},"federalState":{"key":"09","name":"Bayern"}},{"name":"Auslaufwerkstr.","postalCode":"89257","locality":"Illertissen","municipality":{"key":"09775129","name":"Illertissen, St","type":"Stadt"},"district":{"key":"09775","name":"Neu-Ulm","type":"Landkreis"},"federalState":{"key":"09","name":"Bayern"}},{"name":"Bahnhofstr.","postalCode":"89257","locality":"Illertissen","municipality":{"key":"09775129","name":"Illertissen, St","type":"Stadt"},"district":{"key":"09775","name":"Neu-Ulm","type":"Landkreis"},"federalState":{"key":"09","name":"Bayern"}},{"name":"Bayernstr.","postalCode":"89257","locality":"Illertissen","municipality":{"key":"09775129","name":"Illertissen, St","type":"Stadt"},"district":{"key":"09775","name":"Neu-Ulm","type":"Landkreis"},"federalState":{"key":"09","name":"Bayern"}},{"name":"Beethovenstr.","postalCode":"89257","locality":"Illertissen","municipality":{"key":"09775129","name":"Illertissen, St","type":"Stadt"},"district":{"key":"09775","name":"Neu-Ulm","type":"Landkreis"},"federalState":{"key":"09","name":"Bayern"}},{"name":"Behringstr.","postalCode":"89257","locality":"Illertissen","municipality":{"key":"09775129","name":"Illertissen, St","type":"Stadt"},"district":{"key":"09775","name":"Neu-Ulm","type":"Landkreis"},"federalState":{"key":"09","name":"Bayern"}},{"name":"Bei der Kurzen Breite","postalCode":"89257","locality":"Illertissen","municipality":{"key":"09775129","name":"Illertissen, St","type":"Stadt"},"district":{"key":"09775","name":"Neu-Ulm","type":"Landkreis"},"federalState":{"key":"09","name":"Bayern"}},{"name":"Bellenberger Str.","postalCode":"89257","locality":"Illertissen","municipality":{"key":"09775129","name":"Illertissen, St","type":"Stadt"},"district":{"key":"09775","name":"Neu-Ulm","type":"Landkreis"},"federalState":{"key":"09","name":"Bayern"}},{"name":"Bergblick","postalCode":"89257","locality":"Illertissen","municipality":{"key":"09775129","name":"Illertissen, St","type":"Stadt"},"district":{"key":"09775","name":"Neu-Ulm","type":"Landkreis"},"federalState":{"key":"09","name":"Bayern"}},{"name":"Bergenstettener Str.","postalCode":"89257","locality":"Illertissen","municipality":{"key":"09775129","name":"Illertissen, St","type":"Stadt"},"district":{"key":"09775","name":"Neu-Ulm","type":"Landkreis"},"federalState":{"key":"09","name":"Bayern"}},{"name":"Berliner Allee","postalCode":"89257","locality":"Illertissen","municipality":{"key":"09775129","name":"Illertissen, St","type":"Stadt"},"district":{"key":"09775","name":"Neu-Ulm","type":"Landkreis"},"federalState":{"key":"09","name":"Bayern"}},{"name":"Bienenweg","postalCode":"89257","locality":"Illertissen","municipality":{"key":"09775129","name":"Illertissen, St","type":"Stadt"},"district":{"key":"09775","name":"Neu-Ulm","type":"Landkreis"},"federalState":{"key":"09","name":"Bayern"}},{"name":"Binsengrabenweg","postalCode":"89257","locality":"Illertissen","municipality":{"key":"09775129","name":"Illertissen, St","type":"Stadt"},"district":{"key":"09775","name":"Neu-Ulm","type":"Landkreis"},"federalState":{"key":"09","name":"Bayern"}},{"name":"Birkenstr.","postalCode":"89257","locality":"Illertissen","municipality":{"key":"09775129","name":"Illertissen, St","type":"Stadt"},"district":{"key":"09775","name":"Neu-Ulm","type":"Landkreis"},"federalState":{"key":"09","name":"Bayern"}},{"name":"Blumenstr.","postalCode":"89257","locality":"Illertissen","municipality":{"key":"09775129","name":"Illertissen, St","type":"Stadt"},"district":{"key":"09775","name":"Neu-Ulm","type":"Landkreis"},"federalState":{"key":"09","name":"Bayern"}},{"name":"Blütenweg","postalCode":"89257","locality":"Illertissen","municipality":{"key":"09775129","name":"Illertissen, St","type":"Stadt"},"district":{"key":"09775","name":"Neu-Ulm","type":"Landkreis"},"federalState":{"key":"09","name":"Bayern"}},{"name":"Brahmsstr.","postalCode":"89257","locality":"Illertissen","municipality":{"key":"09775129","name":"Illertissen, St","type":"Stadt"},"district":{"key":"09775","name":"Neu-Ulm","type":"Landkreis"},"federalState":{"key":"09","name":"Bayern"}},{"name":"Brandenburger Str.","postalCode":"89257","locality":"Illertissen","municipality":{"key":"09775129","name":"Illertissen, St","type":"Stadt"},"district":{"key":"09775","name":"Neu-Ulm","type":"Landkreis"},"federalState":{"key":"09","name":"Bayern"}},{"name":"Bräuhausstr.","postalCode":"89257","locality":"Illertissen","municipality":{"key":"09775129","name":"Illertissen, St","type":"Stadt"},"district":{"key":"09775","name":"Neu-Ulm","type":"Landkreis"},"federalState":{"key":"09","name":"Bayern"}},{"name":"Brucknerstr.","postalCode":"89257","locality":"Illertissen","municipality":{"key":"09775129","name":"Illertissen, St","type":"Stadt"},"district":{"key":"09775","name":"Neu-Ulm","type":"Landkreis"},"federalState":{"key":"09","name":"Bayern"}},{"name":"Brunnenstr.","postalCode":"89257","locality":"Illertissen","municipality":{"key":"09775129","name":"Illertissen, St","type":"Stadt"},"district":{"key":"09775","name":"Neu-Ulm","type":"Landkreis"},"federalState":{"key":"09","name":"Bayern"}},{"name":"Buchenweg","postalCode":"89257","locality":"Illertissen","municipality":{"key":"09775129","name":"Illertissen, St","type":"Stadt"},"district":{"key":"09775","name":"Neu-Ulm","type":"Landkreis"},"federalState":{"key":"09","name":"Bayern"}},{"name":"Bürgermeister-Kolb-Ring","postalCode":"89257","locality":"Illertissen","municipality":{"key":"09775129","name":"Illertissen, St","type":"Stadt"},"district":{"key":"09775","name":"Neu-Ulm","type":"Landkreis"},"federalState":{"key":"09","name":"Bayern"}},{"name":"Bürgermeister-Wanner-Str.","postalCode":"89257","locality":"Illertissen","municipality":{"key":"09775129","name":"Illertissen, St","type":"Stadt"},"district":{"key":"09775","name":"Neu-Ulm","type":"Landkreis"},"federalState":{"key":"09","name":"Bayern"}},{"name":"Bürgermeister-Weikmann-Ring","postalCode":"89257","locality":"Illertissen","municipality":{"key":"09775129","name":"Illertissen, St","type":"Stadt"},"district":{"key":"09775","name":"Neu-Ulm","type":"Landkreis"},"federalState":{"key":"09","name":"Bayern"}},{"name":"Burrenweg","postalCode":"89257","locality":"Illertissen","municipality":{"key":"09775129","name":"Illertissen, St","type":"Stadt"},"district":{"key":"09775","name":"Neu-Ulm","type":"Landkreis"},"federalState":{"key":"09","name":"Bayern"}},{"name":"Bürststr.","postalCode":"89257","locality":"Illertissen","municipality":{"key":"09775129","name":"Illertissen, St","type":"Stadt"},"district":{"key":"09775","name":"Neu-Ulm","type":"Landkreis"},"federalState":{"key":"09","name":"Bayern"}},{"name":"Carl-Friedrich-Benz-Str.","postalCode":"89257","locality":"Illertissen","municipality":{"key":"09775129","name":"Illertissen, St","type":"Stadt"},"district":{"key":"09775","name":"Neu-Ulm","type":"Landkreis"},"federalState":{"key":"09","name":"Bayern"}},{"name":"Carl-Orff-Str.","postalCode":"89257","locality":"Illertissen","municipality":{"key":"09775129","name":"Illertissen, St","type":"Stadt"},"district":{"key":"09775","name":"Neu-Ulm","type":"Landkreis"},"federalState":{"key":"09","name":"Bayern"}},{"name":"Carnac-Platz","postalCode":"89257","locality":"Illertissen","municipality":{"key":"09775129","name":"Illertissen, St","type":"Stadt"},"district":{"key":"09775","name":"Neu-Ulm","type":"Landkreis"},"federalState":{"key":"09","name":"Bayern"}},{"name":"Caroline-Kempter-Weg","postalCode":"89257","locality":"Illertissen","municipality":{"key":"09775129","name":"Illertissen, St","type":"Stadt"},"district":{"key":"09775","name":"Neu-Ulm","type":"Landkreis"},"federalState":{"key":"09","name":"Bayern"}},{"name":"Christoph-Rodt-Str.","postalCode":"89257","locality":"Illertissen","municipality":{"key":"09775129","name":"Illertissen, St","type":"Stadt"},"district":{"key":"09775","name":"Neu-Ulm","type":"Landkreis"},"federalState":{"key":"09","name":"Bayern"}},{"name":"Dahlienweg","postalCode":"89257","locality":"Illertissen","municipality":{"key":"09775129","name":"Illertissen, St","type":"Stadt"},"district":{"key":"09775","name":"Neu-Ulm","type":"Landkreis"},"federalState":{"key":"09","name":"Bayern"}},{"name":"Dietenheimer Str.","postalCode":"89257","locality":"Illertissen","municipality":{"key":"09775129","name":"Illertissen, St","type":"Stadt"},"district":{"key":"09775","name":"Neu-Ulm","type":"Landkreis"},"federalState":{"key":"09","name":"Bayern"}},{"name":"Doktor-Matt-Str.","postalCode":"89257","locality":"Illertissen","municipality":{"key":"09775129","name":"Illertissen, St","type":"Stadt"},"district":{"key":"09775","name":"Neu-Ulm","type":"Landkreis"},"federalState":{"key":"09","name":"Bayern"}},{"name":"Doktor-Otto-Bohl-Str.","postalCode":"89257","locality":"Illertissen","municipality":{"key":"09775129","name":"Illertissen, St","type":"Stadt"},"district":{"key":"09775","name":"Neu-Ulm","type":"Landkreis"},"federalState":{"key":"09","name":"Bayern"}},{"name":"Dompfaffweg","postalCode":"89257","locality":"Illertissen","municipality":{"key":"09775129","name":"Illertissen, St","type":"Stadt"},"district":{"key":"09775","name":"Neu-Ulm","type":"Landkreis"},"federalState":{"key":"09","name":"Bayern"}},{"name":"Dorfstr.","postalCode":"89257","locality":"Illertissen","municipality":{"key":"09775129","name":"Illertissen, St","type":"Stadt"},"district":{"key":"09775","name":"Neu-Ulm","type":"Landkreis"},"federalState":{"key":"09","name":"Bayern"}},{"name":"Drosselbartweg","postalCode":"89257","locality":"Illertissen","municipality":{"key":"09775129","name":"Illertissen, St","type":"Stadt"},"district":{"key":"09775","name":"Neu-Ulm","type":"Landkreis"},"federalState":{"key":"09","name":"Bayern"}},{"name":"Drosselweg","postalCode":"89257","locality":"Illertissen","municipality":{"key":"09775129","name":"Illertissen, St","type":"Stadt"},"district":{"key":"09775","name":"Neu-Ulm","type":"Landkreis"},"federalState":{"key":"09","name":"Bayern"}},{"name":"Edelstettenstr.","postalCode":"89257","locality":"Illertissen","municipality":{"key":"09775129","name":"Illertissen, St","type":"Stadt"},"district":{"key":"09775","name":"Neu-Ulm","type":"Landkreis"},"federalState":{"key":"09","name":"Bayern"}},{"name":"Egerlandstr.","postalCode":"89257","locality":"Illertissen","municipality":{"key":"09775129","name":"Illertissen, St","type":"Stadt"},"district":{"key":"09775","name":"Neu-Ulm","type":"Landkreis"},"federalState":{"key":"09","name":"Bayern"}},{"name":"Eichendorffstr.","postalCode":"89257","locality":"Illertissen","municipality":{"key":"09775129","name":"Illertissen, St","type":"Stadt"},"district":{"key":"09775","name":"Neu-Ulm","type":"Landkreis"},"federalState":{"key":"09","name":"Bayern"}},{"name":"Eichenweg","postalCode":"89257","locality":"Illertissen","municipality":{"key":"09775129","name":"Illertissen, St","type":"Stadt"},"district":{"key":"09775","name":"Neu-Ulm","type":"Landkreis"},"federalState":{"key":"09","name":"Bayern"}},{"name":"Eichhornweg","postalCode":"89257","locality":"Illertissen","municipality":{"key":"09775129","name":"Illertissen, St","type":"Stadt"},"district":{"key":"09775","name":"Neu-Ulm","type":"Landkreis"},"federalState":{"key":"09","name":"Bayern"}},{"name":"Einsteinring","postalCode":"89257","locality":"Illertissen","municipality":{"key":"09775129","name":"Illertissen, St","type":"Stadt"},"district":{"key":"09775","name":"Neu-Ulm","type":"Landkreis"},"federalState":{"key":"09","name":"Bayern"}},{"name":"Elbogenerstr.","postalCode":"89257","locality":"Illertissen","municipality":{"key":"09775129","name":"Illertissen, St","type":"Stadt"},"district":{"key":"09775","name":"Neu-Ulm","type":"Landkreis"},"federalState":{"key":"09","name":"Bayern"}},{"name":"Eldernweg","postalCode":"89257","locality":"Illertissen","municipality":{"key":"09775129","name":"Illertissen, St","type":"Stadt"},"district":{"key":"09775","name":"Neu-Ulm","type":"Landkreis"},"federalState":{"key":"09","name":"Bayern"}},{"name":"Elsa-Brandström-Str.","postalCode":"89257","locality":"Illertissen","municipality":{"key":"09775129","name":"Illertissen, St","type":"Stadt"},"district":{"key":"09775","name":"Neu-Ulm","type":"Landkreis"},"federalState":{"key":"09","name":"Bayern"}},{"name":"Emershofener Str.","postalCode":"89257","locality":"Illertissen","municipality":{"key":"09775129","name":"Illertissen, St","type":"Stadt"},"district":{"key":"09775","name":"Neu-Ulm","type":"Landkreis"},"federalState":{"key":"09","name":"Bayern"}},{"name":"Emilienweg","postalCode":"89257","locality":"Illertissen","municipality":{"key":"09775129","name":"Illertissen, St","type":"Stadt"},"district":{"key":"09775","name":"Neu-Ulm","type":"Landkreis"},"federalState":{"key":"09","name":"Bayern"}},{"name":"Erlenweg","postalCode":"89257","locality":"Illertissen","municipality":{"key":"09775129","name":"Illertissen, St","type":"Stadt"},"district":{"key":"09775","name":"Neu-Ulm","type":"Landkreis"},"federalState":{"key":"09","name":"Bayern"}},{"name":"Eschachweg","postalCode":"89257","locality":"Illertissen","municipality":{"key":"09775129","name":"Illertissen, St","type":"Stadt"},"district":{"key":"09775","name":"Neu-Ulm","type":"Landkreis"},"federalState":{"key":"09","name":"Bayern"}},{"name":"Eschenweg","postalCode":"89257","locality":"Illertissen","municipality":{"key":"09775129","name":"Illertissen, St","type":"Stadt"},"district":{"key":"09775","name":"Neu-Ulm","type":"Landkreis"},"federalState":{"key":"09","name":"Bayern"}},{"name":"Fabrikweg","postalCode":"89257","locality":"Illertissen","municipality":{"key":"09775129","name":"Illertissen, St","type":"Stadt"},"district":{"key":"09775","name":"Neu-Ulm","type":"Landkreis"},"federalState":{"key":"09","name":"Bayern"}},{"name":"Falkenweg","postalCode":"89257","locality":"Illertissen","municipality":{"key":"09775129","name":"Illertissen, St","type":"Stadt"},"district":{"key":"09775","name":"Neu-Ulm","type":"Landkreis"},"federalState":{"key":"09","name":"Bayern"}},{"name":"Färberstr.","postalCode":"89257","locality":"Illertissen","municipality":{"key":"09775129","name":"Illertissen, St","type":"Stadt"},"district":{"key":"09775","name":"Neu-Ulm","type":"Landkreis"},"federalState":{"key":"09","name":"Bayern"}},{"name":"Fasanenweg","postalCode":"89257","locality":"Illertissen","municipality":{"key":"09775129","name":"Illertissen, St","type":"Stadt"},"district":{"key":"09775","name":"Neu-Ulm","type":"Landkreis"},"federalState":{"key":"09","name":"Bayern"}},{"name":"Fichtenweg","postalCode":"89257","locality":"Illertissen","municipality":{"key":"09775129","name":"Illertissen, St","type":"Stadt"},"district":{"key":"09775","name":"Neu-Ulm","type":"Landkreis"},"federalState":{"key":"09","name":"Bayern"}},{"name":"Finkenweg","postalCode":"89257","locality":"Illertissen","municipality":{"key":"09775129","name":"Illertissen, St","type":"Stadt"},"district":{"key":"09775","name":"Neu-Ulm","type":"Landkreis"},"federalState":{"key":"09","name":"Bayern"}},{"name":"Fliederweg","postalCode":"89257","locality":"Illertissen","municipality":{"key":"09775129","name":"Illertissen, St","type":"Stadt"},"district":{"key":"09775","name":"Neu-Ulm","type":"Landkreis"},"federalState":{"key":"09","name":"Bayern"}},{"name":"Flurweg","postalCode":"89257","locality":"Illertissen","municipality":{"key":"09775129","name":"Illertissen, St","type":"Stadt"},"district":{"key":"09775","name":"Neu-Ulm","type":"Landkreis"},"federalState":{"key":"09","name":"Bayern"}},{"name":"Föhrenweg","postalCode":"89257","locality":"Illertissen","municipality":{"key":"09775129","name":"Illertissen, St","type":"Stadt"},"district":{"key":"09775","name":"Neu-Ulm","type":"Landkreis"},"federalState":{"key":"09","name":"Bayern"}},{"name":"Frankenstr.","postalCode":"89257","locality":"Illertissen","municipality":{"key":"09775129","name":"Illertissen, St","type":"Stadt"},"district":{"key":"09775","name":"Neu-Ulm","type":"Landkreis"},"federalState":{"key":"09","name":"Bayern"}},{"name":"Franz-Eugen-Huber-Str.","postalCode":"89257","locality":"Illertissen","municipality":{"key":"09775129","name":"Illertissen, St","type":"Stadt"},"district":{"key":"09775","name":"Neu-Ulm","type":"Landkreis"},"federalState":{"key":"09","name":"Bayern"}},{"name":"Franz-Mang-Str.","postalCode":"89257","locality":"Illertissen","municipality":{"key":"09775129","name":"Illertissen, St","type":"Stadt"},"district":{"key":"09775","name":"Neu-Ulm","type":"Landkreis"},"federalState":{"key":"09","name":"Bayern"}},{"name":"Franz-Ranz-Str.","postalCode":"89257","locality":"Illertissen","municipality":{"key":"09775129","name":"Illertissen, St","type":"Stadt"},"district":{"key":"09775","name":"Neu-Ulm","type":"Landkreis"},"federalState":{"key":"09","name":"Bayern"}},{"name":"Friedenstr.","postalCode":"89257","locality":"Illertissen","municipality":{"key":"09775129","name":"Illertissen, St","type":"Stadt"},"district":{"key":"09775","name":"Neu-Ulm","type":"Landkreis"},"federalState":{"key":"09","name":"Bayern"}},{"name":"Friedhofstr.","postalCode":"89257","locality":"Illertissen","municipality":{"key":"09775129","name":"Illertissen, St","type":"Stadt"},"district":{"key":"09775","name":"Neu-Ulm","type":"Landkreis"},"federalState":{"key":"09","name":"Bayern"}},{"name":"Friedrich-Ebert-Str.","postalCode":"89257","locality":"Illertissen","municipality":{"key":"09775129","name":"Illertissen, St","type":"Stadt"},"district":{"key":"09775","name":"Neu-Ulm","type":"Landkreis"},"federalState":{"key":"09","name":"Bayern"}},{"name":"Friedrich-List-Str.","postalCode":"89257","locality":"Illertissen","municipality":{"key":"09775129","name":"Illertissen, St","type":"Stadt"},"district":{"key":"09775","name":"Neu-Ulm","type":"Landkreis"},"federalState":{"key":"09","name":"Bayern"}},{"name":"Friedrich-Silcher-Str.","postalCode":"89257","locality":"Illertissen","municipality":{"key":"09775129","name":"Illertissen, St","type":"Stadt"},"district":{"key":"09775","name":"Neu-Ulm","type":"Landkreis"},"federalState":{"key":"09","name":"Bayern"}},{"name":"Frühjahrsstr.","postalCode":"89257","locality":"Illertissen","municipality":{"key":"09775129","name":"Illertissen, St","type":"Stadt"},"district":{"key":"09775","name":"Neu-Ulm","type":"Landkreis"},"federalState":{"key":"09","name":"Bayern"}},{"name":"Frühlingsstr.","postalCode":"89257","locality":"Illertissen","municipality":{"key":"09775129","name":"Illertissen, St","type":"Stadt"},"district":{"key":"09775","name":"Neu-Ulm","type":"Landkreis"},"federalState":{"key":"09","name":"Bayern"}},{"name":"Fuggerweg","postalCode":"89257","locality":"Illertissen","municipality":{"key":"09775129","name":"Illertissen, St","type":"Stadt"},"district":{"key":"09775","name":"Neu-Ulm","type":"Landkreis"},"federalState":{"key":"09","name":"Bayern"}},{"name":"Ganghofer Str.","postalCode":"89257","locality":"Illertissen","municipality":{"key":"09775129","name":"Illertissen, St","type":"Stadt"},"district":{"key":"09775","name":"Neu-Ulm","type":"Landkreis"},"federalState":{"key":"09","name":"Bayern"}},{"name":"Gannertshofener Str.","postalCode":"89257","locality":"Illertissen","municipality":{"key":"09775129","name":"Illertissen, St","type":"Stadt"},"district":{"key":"09775","name":"Neu-Ulm","type":"Landkreis"},"federalState":{"key":"09","name":"Bayern"}},{"name":"Gartenstr.","postalCode":"89257","locality":"Illertissen","municipality":{"key":"09775129","name":"Illertissen, St","type":"Stadt"},"district":{"key":"09775","name":"Neu-Ulm","type":"Landkreis"},"federalState":{"key":"09","name":"Bayern"}},{"name":"Gerhart-Hauptmann-Str.","postalCode":"89257","locality":"Illertissen","municipality":{"key":"09775129","name":"Illertissen, St","type":"Stadt"},"district":{"key":"09775","name":"Neu-Ulm","type":"Landkreis"},"federalState":{"key":"09","name":"Bayern"}},{"name":"Gimpelweg","postalCode":"89257","locality":"Illertissen","municipality":{"key":"09775129","name":"Illertissen, St","type":"Stadt"},"district":{"key":"09775","name":"Neu-Ulm","type":"Landkreis"},"federalState":{"key":"09","name":"Bayern"}},{"name":"Goethestr.","postalCode":"89257","locality":"Illertissen","municipality":{"key":"09775129","name":"Illertissen, St","type":"Stadt"},"district":{"key":"09775","name":"Neu-Ulm","type":"Landkreis"},"federalState":{"key":"09","name":"Bayern"}},{"name":"Gottlieb-Daimler-Str.","postalCode":"89257","locality":"Illertissen","municipality":{"key":"09775129","name":"Illertissen, St","type":"Stadt"},"district":{"key":"09775","name":"Neu-Ulm","type":"Landkreis"},"federalState":{"key":"09","name":"Bayern"}},{"name":"Graf-Kirchberg-Str.","postalCode":"89257","locality":"Illertissen","municipality":{"key":"09775129","name":"Illertissen, St","type":"Stadt"},"district":{"key":"09775","name":"Neu-Ulm","type":"Landkreis"},"federalState":{"key":"09","name":"Bayern"}},{"name":"Grüntenweg","postalCode":"89257","locality":"Illertissen","municipality":{"key":"09775129","name":"Illertissen, St","type":"Stadt"},"district":{"key":"09775","name":"Neu-Ulm","type":"Landkreis"},"federalState":{"key":"09","name":"Bayern"}},{"name":"Gruppweg","postalCode":"89257","locality":"Illertissen","municipality":{"key":"09775129","name":"Illertissen, St","type":"Stadt"},"district":{"key":"09775","name":"Neu-Ulm","type":"Landkreis"},"federalState":{"key":"09","name":"Bayern"}},{"name":"Gustav-Heinemann-Str.","postalCode":"89257","locality":"Illertissen","municipality":{"key":"09775129","name":"Illertissen, St","type":"Stadt"},"district":{"key":"09775","name":"Neu-Ulm","type":"Landkreis"},"federalState":{"key":"09","name":"Bayern"}},{"name":"Gustav-Stresemann-Str.","postalCode":"89257","locality":"Illertissen","municipality":{"key":"09775129","name":"Illertissen, St","type":"Stadt"},"district":{"key":"09775","name":"Neu-Ulm","type":"Landkreis"},"federalState":{"key":"09","name":"Bayern"}},{"name":"Gutenbergstr.","postalCode":"89257","locality":"Illertissen","municipality":{"key":"09775129","name":"Illertissen, St","type":"Stadt"},"district":{"key":"09775","name":"Neu-Ulm","type":"Landkreis"},"federalState":{"key":"09","name":"Bayern"}},{"name":"Hafnerweg","postalCode":"89257","locality":"Illertissen","municipality":{"key":"09775129","name":"Illertissen, St","type":"Stadt"},"district":{"key":"09775","name":"Neu-Ulm","type":"Landkreis"},"federalState":{"key":"09","name":"Bayern"}},{"name":"Haldenweg","postalCode":"89257","locality":"Illertissen","municipality":{"key":"09775129","name":"Illertissen, St","type":"Stadt"},"district":{"key":"09775","name":"Neu-Ulm","type":"Landkreis"},"federalState":{"key":"09","name":"Bayern"}},{"name":"Hans-Holbein-Str.","postalCode":"89257","locality":"Illertissen","municipality":{"key":"09775129","name":"Illertissen, St","type":"Stadt"},"district":{"key":"09775","name":"Neu-Ulm","type":"Landkreis"},"federalState":{"key":"09","name":"Bayern"}},{"name":"Hans-Nägele-Str.","postalCode":"89257","locality":"Illertissen","municipality":{"key":"09775129","name":"Illertissen, St","type":"Stadt"},"district":{"key":"09775","name":"Neu-Ulm","type":"Landkreis"},"federalState":{"key":"09","name":"Bayern"}},{"name":"Hardtweg","postalCode":"89257","locality":"Illertissen","municipality":{"key":"09775129","name":"Illertissen, St","type":"Stadt"},"district":{"key":"09775","name":"Neu-Ulm","type":"Landkreis"},"federalState":{"key":"09","name":"Bayern"}},{"name":"Hasenkoppel","postalCode":"89257","locality":"Illertissen","municipality":{"key":"09775129","name":"Illertissen, St","type":"Stadt"},"district":{"key":"09775","name":"Neu-Ulm","type":"Landkreis"},"federalState":{"key":"09","name":"Bayern"}},{"name":"Hauptstr.","postalCode":"89257","locality":"Illertissen","municipality":{"key":"09775129","name":"Illertissen, St","type":"Stadt"},"district":{"key":"09775","name":"Neu-Ulm","type":"Landkreis"},"federalState":{"key":"09","name":"Bayern"}},{"name":"Haydnstr.","postalCode":"89257","locality":"Illertissen","municipality":{"key":"09775129","name":"Illertissen, St","type":"Stadt"},"district":{"key":"09775","name":"Neu-Ulm","type":"Landkreis"},"federalState":{"key":"09","name":"Bayern"}},{"name":"Heideweg","postalCode":"89257","locality":"Illertissen","municipality":{"key":"09775129","name":"Illertissen, St","type":"Stadt"},"district":{"key":"09775","name":"Neu-Ulm","type":"Landkreis"},"federalState":{"key":"09","name":"Bayern"}},{"name":"Heiner-Jaumann-Str.","postalCode":"89257","locality":"Illertissen","municipality":{"key":"09775129","name":"Illertissen, St","type":"Stadt"},"district":{"key":"09775","name":"Neu-Ulm","type":"Landkreis"},"federalState":{"key":"09","name":"Bayern"}},{"name":"Heinrich-Heine-Str.","postalCode":"89257","locality":"Illertissen","municipality":{"key":"09775129","name":"Illertissen, St","type":"Stadt"},"district":{"key":"09775","name":"Neu-Ulm","type":"Landkreis"},"federalState":{"key":"09","name":"Bayern"}},{"name":"Heinrich-Mack-Str.","postalCode":"89257","locality":"Illertissen","municipality":{"key":"09775129","name":"Illertissen, St","type":"Stadt"},"district":{"key":"09775","name":"Neu-Ulm","type":"Landkreis"},"federalState":{"key":"09","name":"Bayern"}},{"name":"Herbststr.","postalCode":"89257","locality":"Illertissen","municipality":{"key":"09775129","name":"Illertissen, St","type":"Stadt"},"district":{"key":"09775","name":"Neu-Ulm","type":"Landkreis"},"federalState":{"key":"09","name":"Bayern"}},{"name":"Hermann-Köhl-Str.","postalCode":"89257","locality":"Illertissen","municipality":{"key":"09775129","name":"Illertissen, St","type":"Stadt"},"district":{"key":"09775","name":"Neu-Ulm","type":"Landkreis"},"federalState":{"key":"09","name":"Bayern"}},{"name":"Hermann-Schramm-Str.","postalCode":"89257","locality":"Illertissen","municipality":{"key":"09775129","name":"Illertissen, St","type":"Stadt"},"district":{"key":"09775","name":"Neu-Ulm","type":"Landkreis"},"federalState":{"key":"09","name":"Bayern"}},{"name":"Herrenstettener Weg","postalCode":"89257","locality":"Illertissen","municipality":{"key":"09775129","name":"Illertissen, St","type":"Stadt"},"district":{"key":"09775","name":"Neu-Ulm","type":"Landkreis"},"federalState":{"key":"09","name":"Bayern"}},{"name":"Hildegart-von-Bingen-Weg","postalCode":"89257","locality":"Illertissen","municipality":{"key":"09775129","name":"Illertissen, St","type":"Stadt"},"district":{"key":"09775","name":"Neu-Ulm","type":"Landkreis"},"federalState":{"key":"09","name":"Bayern"}},{"name":"Hinter den Gärten","postalCode":"89257","locality":"Illertissen","municipality":{"key":"09775129","name":"Illertissen, St","type":"Stadt"},"district":{"key":"09775","name":"Neu-Ulm","type":"Landkreis"},"federalState":{"key":"09","name":"Bayern"}},{"name":"Hirtenweg","postalCode":"89257","locality":"Illertissen","municipality":{"key":"09775129","name":"Illertissen, St","type":"Stadt"},"district":{"key":"09775","name":"Neu-Ulm","type":"Landkreis"},"federalState":{"key":"09","name":"Bayern"}},{"name":"Höfatsweg","postalCode":"89257","locality":"Illertissen","municipality":{"key":"09775129","name":"Illertissen, St","type":"Stadt"},"district":{"key":"09775","name":"Neu-Ulm","type":"Landkreis"},"federalState":{"key":"09","name":"Bayern"}},{"name":"Höhenweg","postalCode":"89257","locality":"Illertissen","municipality":{"key":"09775129","name":"Illertissen, St","type":"Stadt"},"district":{"key":"09775","name":"Neu-Ulm","type":"Landkreis"},"federalState":{"key":"09","name":"Bayern"}},{"name":"Holzstr.","postalCode":"89257","locality":"Illertissen","municipality":{"key":"09775129","name":"Illertissen, St","type":"Stadt"},"district":{"key":"09775","name":"Neu-Ulm","type":"Landkreis"},"federalState":{"key":"09","name":"Bayern"}},{"name":"Illertal","postalCode":"89257","locality":"Illertissen","municipality":{"key":"09775129","name":"Illertissen, St","type":"Stadt"},"district":{"key":"09775","name":"Neu-Ulm","type":"Landkreis"},"federalState":{"key":"09","name":"Bayern"}},{"name":"Illertissener Str.","postalCode":"89257","locality":"Illertissen","municipality":{"key":"09775129","name":"Illertissen, St","type":"Stadt"},"district":{"key":"09775","name":"Neu-Ulm","type":"Landkreis"},"federalState":{"key":"09","name":"Bayern"}},{"name":"Illertisser Str.","postalCode":"89257","locality":"Illertissen","municipality":{"key":"09775129","name":"Illertissen, St","type":"Stadt"},"district":{"key":"09775","name":"Neu-Ulm","type":"Landkreis"},"federalState":{"key":"09","name":"Bayern"}},{"name":"Illerweg","postalCode":"89257","locality":"Illertissen","municipality":{"key":"09775129","name":"Illertissen, St","type":"Stadt"},"district":{"key":"09775","name":"Neu-Ulm","type":"Landkreis"},"federalState":{"key":"09","name":"Bayern"}},{"name":"Im Brühl","postalCode":"89257","locality":"Illertissen","municipality":{"key":"09775129","name":"Illertissen, St","type":"Stadt"},"district":{"key":"09775","name":"Neu-Ulm","type":"Landkreis"},"federalState":{"key":"09","name":"Bayern"}},{"name":"Im Gängele","postalCode":"89257","locality":"Illertissen","municipality":{"key":"09775129","name":"Illertissen, St","type":"Stadt"},"district":{"key":"09775","name":"Neu-Ulm","type":"Landkreis"},"federalState":{"key":"09","name":"Bayern"}},{"name":"Im Höhlet","postalCode":"89257","locality":"Illertissen","municipality":{"key":"09775129","name":"Illertissen, St","type":"Stadt"},"district":{"key":"09775","name":"Neu-Ulm","type":"Landkreis"},"federalState":{"key":"09","name":"Bayern"}},{"name":"Im Krautgarten","postalCode":"89257","locality":"Illertissen","municipality":{"key":"09775129","name":"Illertissen, St","type":"Stadt"},"district":{"key":"09775","name":"Neu-Ulm","type":"Landkreis"},"federalState":{"key":"09","name":"Bayern"}},{"name":"Im Oberfeld","postalCode":"89257","locality":"Illertissen","municipality":{"key":"09775129","name":"Illertissen, St","type":"Stadt"},"district":{"key":"09775","name":"Neu-Ulm","type":"Landkreis"},"federalState":{"key":"09","name":"Bayern"}},{"name":"Im Ried","postalCode":"89257","locality":"Illertissen","municipality":{"key":"09775129","name":"Illertissen, St","type":"Stadt"},"district":{"key":"09775","name":"Neu-Ulm","type":"Landkreis"},"federalState":{"key":"09","name":"Bayern"}},{"name":"Im Tal","postalCode":"89257","locality":"Illertissen","municipality":{"key":"09775129","name":"Illertissen, St","type":"Stadt"},"district":{"key":"09775","name":"Neu-Ulm","type":"Landkreis"},"federalState":{"key":"09","name":"Bayern"}},{"name":"Im Wiesengrund","postalCode":"89257","locality":"Illertissen","municipality":{"key":"09775129","name":"Illertissen, St","type":"Stadt"},"district":{"key":"09775","name":"Neu-Ulm","type":"Landkreis"},"federalState":{"key":"09","name":"Bayern"}},{"name":"Jahnstr.","postalCode":"89257","locality":"Illertissen","municipality":{"key":"09775129","name":"Illertissen, St","type":"Stadt"},"district":{"key":"09775","name":"Neu-Ulm","type":"Landkreis"},"federalState":{"key":"09","name":"Bayern"}},{"name":"Jedesheimerkirchenweg","postalCode":"89257","locality":"Illertissen","municipality":{"key":"09775129","name":"Illertissen, St","type":"Stadt"},"district":{"key":"09775","name":"Neu-Ulm","type":"Landkreis"},"federalState":{"key":"09","name":"Bayern"}},{"name":"Jedesheimer Weg","postalCode":"89257","locality":"Illertissen","municipality":{"key":"09775129","name":"Illertissen, St","type":"Stadt"},"district":{"key":"09775","name":"Neu-Ulm","type":"Landkreis"},"federalState":{"key":"09","name":"Bayern"}},{"name":"Johann Biber-Brücke","postalCode":"89257","locality":"Illertissen","municipality":{"key":"09775129","name":"Illertissen, St","type":"Stadt"},"district":{"key":"09775","name":"Neu-Ulm","type":"Landkreis"},"federalState":{"key":"09","name":"Bayern"}},{"name":"Johann-Kolb-Str.","postalCode":"89257","locality":"Illertissen","municipality":{"key":"09775129","name":"Illertissen, St","type":"Stadt"},"district":{"key":"09775","name":"Neu-Ulm","type":"Landkreis"},"federalState":{"key":"09","name":"Bayern"}},{"name":"Johann-Wanner-Str.","postalCode":"89257","locality":"Illertissen","municipality":{"key":"09775129","name":"Illertissen, St","type":"Stadt"},"district":{"key":"09775","name":"Neu-Ulm","type":"Landkreis"},"federalState":{"key":"09","name":"Bayern"}},{"name":"Josef-Breitruck-Str.","postalCode":"89257","locality":"Illertissen","municipality":{"key":"09775129","name":"Illertissen, St","type":"Stadt"},"district":{"key":"09775","name":"Neu-Ulm","type":"Landkreis"},"federalState":{"key":"09","name":"Bayern"}},{"name":"Josef-Christa-Str.","postalCode":"89257","locality":"Illertissen","municipality":{"key":"09775129","name":"Illertissen, St","type":"Stadt"},"district":{"key":"09775","name":"Neu-Ulm","type":"Landkreis"},"federalState":{"key":"09","name":"Bayern"}},{"name":"Josef-Eichner-Str.","postalCode":"89257","locality":"Illertissen","municipality":{"key":"09775129","name":"Illertissen, St","type":"Stadt"},"district":{"key":"09775","name":"Neu-Ulm","type":"Landkreis"},"federalState":{"key":"09","name":"Bayern"}},{"name":"Josef-Forster-Str.","postalCode":"89257","locality":"Illertissen","municipality":{"key":"09775129","name":"Illertissen, St","type":"Stadt"},"district":{"key":"09775","name":"Neu-Ulm","type":"Landkreis"},"federalState":{"key":"09","name":"Bayern"}},{"name":"Josef-Höß-Str.","postalCode":"89257","locality":"Illertissen","municipality":{"key":"09775129","name":"Illertissen, St","type":"Stadt"},"district":{"key":"09775","name":"Neu-Ulm","type":"Landkreis"},"federalState":{"key":"09","name":"Bayern"}},{"name":"Josef-Lumper-Str.","postalCode":"89257","locality":"Illertissen","municipality":{"key":"09775129","name":"Illertissen, St","type":"Stadt"},"district":{"key":"09775","name":"Neu-Ulm","type":"Landkreis"},"federalState":{"key":"09","name":"Bayern"}},{"name":"Josef-Ost-Str.","postalCode":"89257","locality":"Illertissen","municipality":{"key":"09775129","name":"Illertissen, St","type":"Stadt"},"district":{"key":"09775","name":"Neu-Ulm","type":"Landkreis"},"federalState":{"key":"09","name":"Bayern"}},{"name":"Josef-Rimmele-Str.","postalCode":"89257","locality":"Illertissen","municipality":{"key":"09775129","name":"Illertissen, St","type":"Stadt"},"district":{"key":"09775","name":"Neu-Ulm","type":"Landkreis"},"federalState":{"key":"09","name":"Bayern"}},{"name":"Julius-Marchetti-Str.","postalCode":"89257","locality":"Illertissen","municipality":{"key":"09775129","name":"Illertissen, St","type":"Stadt"},"district":{"key":"09775","name":"Neu-Ulm","type":"Landkreis"},"federalState":{"key":"09","name":"Bayern"}},{"name":"Karl-Jegg-Str.","postalCode":"89257","locality":"Illertissen","municipality":{"key":"09775129","name":"Illertissen, St","type":"Stadt"},"district":{"key":"09775","name":"Neu-Ulm","type":"Landkreis"},"federalState":{"key":"09","name":"Bayern"}},{"name":"Karlsbader Str.","postalCode":"89257","locality":"Illertissen","municipality":{"key":"09775129","name":"Illertissen, St","type":"Stadt"},"district":{"key":"09775","name":"Neu-Ulm","type":"Landkreis"},"federalState":{"key":"09","name":"Bayern"}},{"name":"Karl-Zindl-Str.","postalCode":"89257","locality":"Illertissen","municipality":{"key":"09775129","name":"Illertissen, St","type":"Stadt"},"district":{"key":"09775","name":"Neu-Ulm","type":"Landkreis"},"federalState":{"key":"09","name":"Bayern"}},{"name":"Katharinenweg","postalCode":"89257","locality":"Illertissen","municipality":{"key":"09775129","name":"Illertissen, St","type":"Stadt"},"district":{"key":"09775","name":"Neu-Ulm","type":"Landkreis"},"federalState":{"key":"09","name":"Bayern"}},{"name":"Keplerstr.","postalCode":"89257","locality":"Illertissen","municipality":{"key":"09775129","name":"Illertissen, St","type":"Stadt"},"district":{"key":"09775","name":"Neu-Ulm","type":"Landkreis"},"federalState":{"key":"09","name":"Bayern"}},{"name":"Kiefernweg","postalCode":"89257","locality":"Illertissen","municipality":{"key":"09775129","name":"Illertissen, St","type":"Stadt"},"district":{"key":"09775","name":"Neu-Ulm","type":"Landkreis"},"federalState":{"key":"09","name":"Bayern"}},{"name":"Kirchenmähder","postalCode":"89257","locality":"Illertissen","municipality":{"key":"09775129","name":"Illertissen, St","type":"Stadt"},"district":{"key":"09775","name":"Neu-Ulm","type":"Landkreis"},"federalState":{"key":"09","name":"Bayern"}},{"name":"Kirchenstr.","postalCode":"89257","locality":"Illertissen","municipality":{"key":"09775129","name":"Illertissen, St","type":"Stadt"},"district":{"key":"09775","name":"Neu-Ulm","type":"Landkreis"},"federalState":{"key":"09","name":"Bayern"}},{"name":"Kneippweg","postalCode":"89257","locality":"Illertissen","municipality":{"key":"09775129","name":"Illertissen, St","type":"Stadt"},"district":{"key":"09775","name":"Neu-Ulm","type":"Landkreis"},"federalState":{"key":"09","name":"Bayern"}},{"name":"Komotauer Str.","postalCode":"89257","locality":"Illertissen","municipality":{"key":"09775129","name":"Illertissen, St","type":"Stadt"},"district":{"key":"09775","name":"Neu-Ulm","type":"Landkreis"},"federalState":{"key":"09","name":"Bayern"}},{"name":"Krankenhausstr.","postalCode":"89257","locality":"Illertissen","municipality":{"key":"09775129","name":"Illertissen, St","type":"Stadt"},"district":{"key":"09775","name":"Neu-Ulm","type":"Landkreis"},"federalState":{"key":"09","name":"Bayern"}},{"name":"Krautweg","postalCode":"89257","locality":"Illertissen","municipality":{"key":"09775129","name":"Illertissen, St","type":"Stadt"},"district":{"key":"09775","name":"Neu-Ulm","type":"Landkreis"},"federalState":{"key":"09","name":"Bayern"}},{"name":"Lange Str.","postalCode":"89257","locality":"Illertissen","municipality":{"key":"09775129","name":"Illertissen, St","type":"Stadt"},"district":{"key":"09775","name":"Neu-Ulm","type":"Landkreis"},"federalState":{"key":"09","name":"Bayern"}},{"name":"Lavendelweg","postalCode":"89257","locality":"Illertissen","municipality":{"key":"09775129","name":"Illertissen, St","type":"Stadt"},"district":{"key":"09775","name":"Neu-Ulm","type":"Landkreis"},"federalState":{"key":"09","name":"Bayern"}},{"name":"Leharstr.","postalCode":"89257","locality":"Illertissen","municipality":{"key":"09775129","name":"Illertissen, St","type":"Stadt"},"district":{"key":"09775","name":"Neu-Ulm","type":"Landkreis"},"federalState":{"key":"09","name":"Bayern"}},{"name":"Lehenstr.","postalCode":"89257","locality":"Illertissen","municipality":{"key":"09775129","name":"Illertissen, St","type":"Stadt"},"district":{"key":"09775","name":"Neu-Ulm","type":"Landkreis"},"federalState":{"key":"09","name":"Bayern"}},{"name":"Lehrer-Schwald-Str.","postalCode":"89257","locality":"Illertissen","municipality":{"key":"09775129","name":"Illertissen, St","type":"Stadt"},"district":{"key":"09775","name":"Neu-Ulm","type":"Landkreis"},"federalState":{"key":"09","name":"Bayern"}},{"name":"Lerchenstr.","postalCode":"89257","locality":"Illertissen","municipality":{"key":"09775129","name":"Illertissen, St","type":"Stadt"},"district":{"key":"09775","name":"Neu-Ulm","type":"Landkreis"},"federalState":{"key":"09","name":"Bayern"}},{"name":"Lessingstr.","postalCode":"89257","locality":"Illertissen","municipality":{"key":"09775129","name":"Illertissen, St","type":"Stadt"},"district":{"key":"09775","name":"Neu-Ulm","type":"Landkreis"},"federalState":{"key":"09","name":"Bayern"}},{"name":"Liebigstr.","postalCode":"89257","locality":"Illertissen","municipality":{"key":"09775129","name":"Illertissen, St","type":"Stadt"},"district":{"key":"09775","name":"Neu-Ulm","type":"Landkreis"},"federalState":{"key":"09","name":"Bayern"}},{"name":"Lindenbergweg","postalCode":"89257","locality":"Illertissen","municipality":{"key":"09775129","name":"Illertissen, St","type":"Stadt"},"district":{"key":"09775","name":"Neu-Ulm","type":"Landkreis"},"federalState":{"key":"09","name":"Bayern"}},{"name":"Lindenstr.","postalCode":"89257","locality":"Illertissen","municipality":{"key":"09775129","name":"Illertissen, St","type":"Stadt"},"district":{"key":"09775","name":"Neu-Ulm","type":"Landkreis"},"federalState":{"key":"09","name":"Bayern"}},{"name":"Lorenz-Klotz-Str.","postalCode":"89257","locality":"Illertissen","municipality":{"key":"09775129","name":"Illertissen, St","type":"Stadt"},"district":{"key":"09775","name":"Neu-Ulm","type":"Landkreis"},"federalState":{"key":"09","name":"Bayern"}},{"name":"Ludwig-Thoma-Str.","postalCode":"89257","locality":"Illertissen","municipality":{"key":"09775129","name":"Illertissen, St","type":"Stadt"},"district":{"key":"09775","name":"Neu-Ulm","type":"Landkreis"},"federalState":{"key":"09","name":"Bayern"}},{"name":"Marktplatz","postalCode":"89257","locality":"Illertissen","municipality":{"key":"09775129","name":"Illertissen, St","type":"Stadt"},"district":{"key":"09775","name":"Neu-Ulm","type":"Landkreis"},"federalState":{"key":"09","name":"Bayern"}},{"name":"Marteröschle","postalCode":"89257","locality":"Illertissen","municipality":{"key":"09775129","name":"Illertissen, St","type":"Stadt"},"district":{"key":"09775","name":"Neu-Ulm","type":"Landkreis"},"federalState":{"key":"09","name":"Bayern"}},{"name":"Martin-Kuen-Weg","postalCode":"89257","locality":"Illertissen","municipality":{"key":"09775129","name":"Illertissen, St","type":"Stadt"},"district":{"key":"09775","name":"Neu-Ulm","type":"Landkreis"},"federalState":{"key":"09","name":"Bayern"}},{"name":"Martin-Luther-Str.","postalCode":"89257","locality":"Illertissen","municipality":{"key":"09775129","name":"Illertissen, St","type":"Stadt"},"district":{"key":"09775","name":"Neu-Ulm","type":"Landkreis"},"federalState":{"key":"09","name":"Bayern"}},{"name":"Martinsplatz","postalCode":"89257","locality":"Illertissen","municipality":{"key":"09775129","name":"Illertissen, St","type":"Stadt"},"district":{"key":"09775","name":"Neu-Ulm","type":"Landkreis"},"federalState":{"key":"09","name":"Bayern"}},{"name":"Max-Eyth-Str.","postalCode":"89257","locality":"Illertissen","municipality":{"key":"09775129","name":"Illertissen, St","type":"Stadt"},"district":{"key":"09775","name":"Neu-Ulm","type":"Landkreis"},"federalState":{"key":"09","name":"Bayern"}},{"name":"Max-Planck-Str.","postalCode":"89257","locality":"Illertissen","municipality":{"key":"09775129","name":"Illertissen, St","type":"Stadt"},"district":{"key":"09775","name":"Neu-Ulm","type":"Landkreis"},"federalState":{"key":"09","name":"Bayern"}},{"name":"Meisenweg","postalCode":"89257","locality":"Illertissen","municipality":{"key":"09775129","name":"Illertissen, St","type":"Stadt"},"district":{"key":"09775","name":"Neu-Ulm","type":"Landkreis"},"federalState":{"key":"09","name":"Bayern"}},{"name":"Memminger Str.","postalCode":"89257","locality":"Illertissen","municipality":{"key":"09775129","name":"Illertissen, St","type":"Stadt"},"district":{"key":"09775","name":"Neu-Ulm","type":"Landkreis"},"federalState":{"key":"09","name":"Bayern"}},{"name":"Mendelssohnstr.","postalCode":"89257","locality":"Illertissen","municipality":{"key":"09775129","name":"Illertissen, St","type":"Stadt"},"district":{"key":"09775","name":"Neu-Ulm","type":"Landkreis"},"federalState":{"key":"09","name":"Bayern"}},{"name":"Merlinweg","postalCode":"89257","locality":"Illertissen","municipality":{"key":"09775129","name":"Illertissen, St","type":"Stadt"},"district":{"key":"09775","name":"Neu-Ulm","type":"Landkreis"},"federalState":{"key":"09","name":"Bayern"}},{"name":"Michl-Streit-Platz","postalCode":"89257","locality":"Illertissen","municipality":{"key":"09775129","name":"Illertissen, St","type":"Stadt"},"district":{"key":"09775","name":"Neu-Ulm","type":"Landkreis"},"federalState":{"key":"09","name":"Bayern"}},{"name":"Mitterfeld","postalCode":"89257","locality":"Illertissen","municipality":{"key":"09775129","name":"Illertissen, St","type":"Stadt"},"district":{"key":"09775","name":"Neu-Ulm","type":"Landkreis"},"federalState":{"key":"09","name":"Bayern"}},{"name":"Mörikestr.","postalCode":"89257","locality":"Illertissen","municipality":{"key":"09775129","name":"Illertissen, St","type":"Stadt"},"district":{"key":"09775","name":"Neu-Ulm","type":"Landkreis"},"federalState":{"key":"09","name":"Bayern"}},{"name":"Mösleweg","postalCode":"89257","locality":"Illertissen","municipality":{"key":"09775129","name":"Illertissen, St","type":"Stadt"},"district":{"key":"09775","name":"Neu-Ulm","type":"Landkreis"},"federalState":{"key":"09","name":"Bayern"}},{"name":"Mozartstr.","postalCode":"89257","locality":"Illertissen","municipality":{"key":"09775129","name":"Illertissen, St","type":"Stadt"},"district":{"key":"09775","name":"Neu-Ulm","type":"Landkreis"},"federalState":{"key":"09","name":"Bayern"}},{"name":"Mühlholzstr.","postalCode":"89257","locality":"Illertissen","municipality":{"key":"09775129","name":"Illertissen, St","type":"Stadt"},"district":{"key":"09775","name":"Neu-Ulm","type":"Landkreis"},"federalState":{"key":"09","name":"Bayern"}},{"name":"Mühlweg","postalCode":"89257","locality":"Illertissen","municipality":{"key":"09775129","name":"Illertissen, St","type":"Stadt"},"district":{"key":"09775","name":"Neu-Ulm","type":"Landkreis"},"federalState":{"key":"09","name":"Bayern"}},{"name":"Nachtweide","postalCode":"89257","locality":"Illertissen","municipality":{"key":"09775129","name":"Illertissen, St","type":"Stadt"},"district":{"key":"09775","name":"Neu-Ulm","type":"Landkreis"},"federalState":{"key":"09","name":"Bayern"}},{"name":"Nebelhornweg","postalCode":"89257","locality":"Illertissen","municipality":{"key":"09775129","name":"Illertissen, St","type":"Stadt"},"district":{"key":"09775","name":"Neu-Ulm","type":"Landkreis"},"federalState":{"key":"09","name":"Bayern"}},{"name":"Nelkenstr.","postalCode":"89257","locality":"Illertissen","municipality":{"key":"09775129","name":"Illertissen, St","type":"Stadt"},"district":{"key":"09775","name":"Neu-Ulm","type":"Landkreis"},"federalState":{"key":"09","name":"Bayern"}},{"name":"Neuer Weg","postalCode":"89257","locality":"Illertissen","municipality":{"key":"09775129","name":"Illertissen, St","type":"Stadt"},"district":{"key":"09775","name":"Neu-Ulm","type":"Landkreis"},"federalState":{"key":"09","name":"Bayern"}},{"name":"Nikolaus-Otto-Str.","postalCode":"89257","locality":"Illertissen","municipality":{"key":"09775129","name":"Illertissen, St","type":"Stadt"},"district":{"key":"09775","name":"Neu-Ulm","type":"Landkreis"},"federalState":{"key":"09","name":"Bayern"}},{"name":"Nordtangente","postalCode":"89257","locality":"Illertissen","municipality":{"key":"09775129","name":"Illertissen, St","type":"Stadt"},"district":{"key":"09775","name":"Neu-Ulm","type":"Landkreis"},"federalState":{"key":"09","name":"Bayern"}},{"name":"Obenhausener Str.","postalCode":"89257","locality":"Illertissen","municipality":{"key":"09775129","name":"Illertissen, St","type":"Stadt"},"district":{"key":"09775","name":"Neu-Ulm","type":"Landkreis"},"federalState":{"key":"09","name":"Bayern"}},{"name":"Oberer Graben","postalCode":"89257","locality":"Illertissen","municipality":{"key":"09775129","name":"Illertissen, St","type":"Stadt"},"district":{"key":"09775","name":"Neu-Ulm","type":"Landkreis"},"federalState":{"key":"09","name":"Bayern"}},{"name":"Opfingerstr.","postalCode":"89257","locality":"Illertissen","municipality":{"key":"09775129","name":"Illertissen, St","type":"Stadt"},"district":{"key":"09775","name":"Neu-Ulm","type":"Landkreis"},"federalState":{"key":"09","name":"Bayern"}},{"name":"Otto-Lampart-Str.","postalCode":"89257","locality":"Illertissen","municipality":{"key":"09775129","name":"Illertissen, St","type":"Stadt"},"district":{"key":"09775","name":"Neu-Ulm","type":"Landkreis"},"federalState":{"key":"09","name":"Bayern"}},{"name":"Pacellistr.","postalCode":"89257","locality":"Illertissen","municipality":{"key":"09775129","name":"Illertissen, St","type":"Stadt"},"district":{"key":"09775","name":"Neu-Ulm","type":"Landkreis"},"federalState":{"key":"09","name":"Bayern"}},{"name":"Paradiesweg","postalCode":"89257","locality":"Illertissen","municipality":{"key":"09775129","name":"Illertissen, St","type":"Stadt"},"district":{"key":"09775","name":"Neu-Ulm","type":"Landkreis"},"federalState":{"key":"09","name":"Bayern"}},{"name":"Pater-Rupert-Mayer-Str.","postalCode":"89257","locality":"Illertissen","municipality":{"key":"09775129","name":"Illertissen, St","type":"Stadt"},"district":{"key":"09775","name":"Neu-Ulm","type":"Landkreis"},"federalState":{"key":"09","name":"Bayern"}},{"name":"Pestalozzistr.","postalCode":"89257","locality":"Illertissen","municipality":{"key":"09775129","name":"Illertissen, St","type":"Stadt"},"district":{"key":"09775","name":"Neu-Ulm","type":"Landkreis"},"federalState":{"key":"09","name":"Bayern"}},{"name":"Peter-Dörfler-Str.","postalCode":"89257","locality":"Illertissen","municipality":{"key":"09775129","name":"Illertissen, St","type":"Stadt"},"district":{"key":"09775","name":"Neu-Ulm","type":"Landkreis"},"federalState":{"key":"09","name":"Bayern"}},{"name":"Peter-Rosegger-Str.","postalCode":"89257","locality":"Illertissen","municipality":{"key":"09775129","name":"Illertissen, St","type":"Stadt"},"district":{"key":"09775","name":"Neu-Ulm","type":"Landkreis"},"federalState":{"key":"09","name":"Bayern"}},{"name":"Pettenkoferstr.","postalCode":"89257","locality":"Illertissen","municipality":{"key":"09775129","name":"Illertissen, St","type":"Stadt"},"district":{"key":"09775","name":"Neu-Ulm","type":"Landkreis"},"federalState":{"key":"09","name":"Bayern"}},{"name":"Pfarrer-Hops-Str.","postalCode":"89257","locality":"Illertissen","municipality":{"key":"09775129","name":"Illertissen, St","type":"Stadt"},"district":{"key":"09775","name":"Neu-Ulm","type":"Landkreis"},"federalState":{"key":"09","name":"Bayern"}},{"name":"Pfarrer-Steiner-Str.","postalCode":"89257","locality":"Illertissen","municipality":{"key":"09775129","name":"Illertissen, St","type":"Stadt"},"district":{"key":"09775","name":"Neu-Ulm","type":"Landkreis"},"federalState":{"key":"09","name":"Bayern"}},{"name":"Pirolweg","postalCode":"89257","locality":"Illertissen","municipality":{"key":"09775129","name":"Illertissen, St","type":"Stadt"},"district":{"key":"09775","name":"Neu-Ulm","type":"Landkreis"},"federalState":{"key":"09","name":"Bayern"}},{"name":"Poststr.","postalCode":"89257","locality":"Illertissen","municipality":{"key":"09775129","name":"Illertissen, St","type":"Stadt"},"district":{"key":"09775","name":"Neu-Ulm","type":"Landkreis"},"federalState":{"key":"09","name":"Bayern"}},{"name":"Raiffeisenstr.","postalCode":"89257","locality":"Illertissen","municipality":{"key":"09775129","name":"Illertissen, St","type":"Stadt"},"district":{"key":"09775","name":"Neu-Ulm","type":"Landkreis"},"federalState":{"key":"09","name":"Bayern"}},{"name":"Regine-Hildebrandt-Str.","postalCode":"89257","locality":"Illertissen","municipality":{"key":"09775129","name":"Illertissen, St","type":"Stadt"},"district":{"key":"09775","name":"Neu-Ulm","type":"Landkreis"},"federalState":{"key":"09","name":"Bayern"}},{"name":"Reichenberger Str.","postalCode":"89257","locality":"Illertissen","municipality":{"key":"09775129","name":"Illertissen, St","type":"Stadt"},"district":{"key":"09775","name":"Neu-Ulm","type":"Landkreis"},"federalState":{"key":"09","name":"Bayern"}},{"name":"Remigius-Vollmann-Str.","postalCode":"89257","locality":"Illertissen","municipality":{"key":"09775129","name":"Illertissen, St","type":"Stadt"},"district":{"key":"09775","name":"Neu-Ulm","type":"Landkreis"},"federalState":{"key":"09","name":"Bayern"}},{"name":"Richard-Wagner-Str.","postalCode":"89257","locality":"Illertissen","municipality":{"key":"09775129","name":"Illertissen, St","type":"Stadt"},"district":{"key":"09775","name":"Neu-Ulm","type":"Landkreis"},"federalState":{"key":"09","name":"Bayern"}},{"name":"Riedhofstr.","postalCode":"89257","locality":"Illertissen","municipality":{"key":"09775129","name":"Illertissen, St","type":"Stadt"},"district":{"key":"09775","name":"Neu-Ulm","type":"Landkreis"},"federalState":{"key":"09","name":"Bayern"}},{"name":"Rilkestr.","postalCode":"89257","locality":"Illertissen","municipality":{"key":"09775129","name":"Illertissen, St","type":"Stadt"},"district":{"key":"09775","name":"Neu-Ulm","type":"Landkreis"},"federalState":{"key":"09","name":"Bayern"}},{"name":"Rittlerweg","postalCode":"89257","locality":"Illertissen","municipality":{"key":"09775129","name":"Illertissen, St","type":"Stadt"},"district":{"key":"09775","name":"Neu-Ulm","type":"Landkreis"},"federalState":{"key":"09","name":"Bayern"}},{"name":"Robert-Koch-Str.","postalCode":"89257","locality":"Illertissen","municipality":{"key":"09775129","name":"Illertissen, St","type":"Stadt"},"district":{"key":"09775","name":"Neu-Ulm","type":"Landkreis"},"federalState":{"key":"09","name":"Bayern"}},{"name":"Röntgenstr.","postalCode":"89257","locality":"Illertissen","municipality":{"key":"09775129","name":"Illertissen, St","type":"Stadt"},"district":{"key":"09775","name":"Neu-Ulm","type":"Landkreis"},"federalState":{"key":"09","name":"Bayern"}},{"name":"Rosengäßchen","postalCode":"89257","locality":"Illertissen","municipality":{"key":"09775129","name":"Illertissen, St","type":"Stadt"},"district":{"key":"09775","name":"Neu-Ulm","type":"Landkreis"},"federalState":{"key":"09","name":"Bayern"}},{"name":"Rosenstr.","postalCode":"89257","locality":"Illertissen","municipality":{"key":"09775129","name":"Illertissen, St","type":"Stadt"},"district":{"key":"09775","name":"Neu-Ulm","type":"Landkreis"},"federalState":{"key":"09","name":"Bayern"}},{"name":"Rothtalring","postalCode":"89257","locality":"Illertissen","municipality":{"key":"09775129","name":"Illertissen, St","type":"Stadt"},"district":{"key":"09775","name":"Neu-Ulm","type":"Landkreis"},"federalState":{"key":"09","name":"Bayern"}},{"name":"Rudolf-Diesel-Str.","postalCode":"89257","locality":"Illertissen","municipality":{"key":"09775129","name":"Illertissen, St","type":"Stadt"},"district":{"key":"09775","name":"Neu-Ulm","type":"Landkreis"},"federalState":{"key":"09","name":"Bayern"}},{"name":"Rudolf-Kurz-Str.","postalCode":"89257","locality":"Illertissen","municipality":{"key":"09775129","name":"Illertissen, St","type":"Stadt"},"district":{"key":"09775","name":"Neu-Ulm","type":"Landkreis"},"federalState":{"key":"09","name":"Bayern"}},{"name":"Sauerbruchstr.","postalCode":"89257","locality":"Illertissen","municipality":{"key":"09775129","name":"Illertissen, St","type":"Stadt"},"district":{"key":"09775","name":"Neu-Ulm","type":"Landkreis"},"federalState":{"key":"09","name":"Bayern"}},{"name":"Saumweg","postalCode":"89257","locality":"Illertissen","municipality":{"key":"09775129","name":"Illertissen, St","type":"Stadt"},"district":{"key":"09775","name":"Neu-Ulm","type":"Landkreis"},"federalState":{"key":"09","name":"Bayern"}},{"name":"Schilfweg","postalCode":"89257","locality":"Illertissen","municipality":{"key":"09775129","name":"Illertissen, St","type":"Stadt"},"district":{"key":"09775","name":"Neu-Ulm","type":"Landkreis"},"federalState":{"key":"09","name":"Bayern"}},{"name":"Schillerberg","postalCode":"89257","locality":"Illertissen","municipality":{"key":"09775129","name":"Illertissen, St","type":"Stadt"},"district":{"key":"09775","name":"Neu-Ulm","type":"Landkreis"},"federalState":{"key":"09","name":"Bayern"}},{"name":"Schillerstr.","postalCode":"89257","locality":"Illertissen","municipality":{"key":"09775129","name":"Illertissen, St","type":"Stadt"},"district":{"key":"09775","name":"Neu-Ulm","type":"Landkreis"},"federalState":{"key":"09","name":"Bayern"}},{"name":"Schloßallee","postalCode":"89257","locality":"Illertissen","municipality":{"key":"09775129","name":"Illertissen, St","type":"Stadt"},"district":{"key":"09775","name":"Neu-Ulm","type":"Landkreis"},"federalState":{"key":"09","name":"Bayern"}},{"name":"Schönauweg","postalCode":"89257","locality":"Illertissen","municipality":{"key":"09775129","name":"Illertissen, St","type":"Stadt"},"district":{"key":"09775","name":"Neu-Ulm","type":"Landkreis"},"federalState":{"key":"09","name":"Bayern"}},{"name":"Schönblick","postalCode":"89257","locality":"Illertissen","municipality":{"key":"09775129","name":"Illertissen, St","type":"Stadt"},"district":{"key":"09775","name":"Neu-Ulm","type":"Landkreis"},"federalState":{"key":"09","name":"Bayern"}},{"name":"Schubertstr.","postalCode":"89257","locality":"Illertissen","municipality":{"key":"09775129","name":"Illertissen, St","type":"Stadt"},"district":{"key":"09775","name":"Neu-Ulm","type":"Landkreis"},"federalState":{"key":"09","name":"Bayern"}},{"name":"Schulstr.","postalCode":"89257","locality":"Illertissen","municipality":{"key":"09775129","name":"Illertissen, St","type":"Stadt"},"district":{"key":"09775","name":"Neu-Ulm","type":"Landkreis"},"federalState":{"key":"09","name":"Bayern"}},{"name":"Schützenstr.","postalCode":"89257","locality":"Illertissen","municipality":{"key":"09775129","name":"Illertissen, St","type":"Stadt"},"district":{"key":"09775","name":"Neu-Ulm","type":"Landkreis"},"federalState":{"key":"09","name":"Bayern"}},{"name":"Schwabenstr.","postalCode":"89257","locality":"Illertissen","municipality":{"key":"09775129","name":"Illertissen, St","type":"Stadt"},"district":{"key":"09775","name":"Neu-Ulm","type":"Landkreis"},"federalState":{"key":"09","name":"Bayern"}},{"name":"Schwalbenweg","postalCode":"89257","locality":"Illertissen","municipality":{"key":"09775129","name":"Illertissen, St","type":"Stadt"},"district":{"key":"09775","name":"Neu-Ulm","type":"Landkreis"},"federalState":{"key":"09","name":"Bayern"}},{"name":"Schwarzenbergweg","postalCode":"89257","locality":"Illertissen","municipality":{"key":"09775129","name":"Illertissen, St","type":"Stadt"},"district":{"key":"09775","name":"Neu-Ulm","type":"Landkreis"},"federalState":{"key":"09","name":"Bayern"}},{"name":"Schwärzlegraben","postalCode":"89257","locality":"Illertissen","municipality":{"key":"09775129","name":"Illertissen, St","type":"Stadt"},"district":{"key":"09775","name":"Neu-Ulm","type":"Landkreis"},"federalState":{"key":"09","name":"Bayern"}},{"name":"Seilerweg","postalCode":"89257","locality":"Illertissen","municipality":{"key":"09775129","name":"Illertissen, St","type":"Stadt"},"district":{"key":"09775","name":"Neu-Ulm","type":"Landkreis"},"federalState":{"key":"09","name":"Bayern"}},{"name":"Siedlerweg","postalCode":"89257","locality":"Illertissen","municipality":{"key":"09775129","name":"Illertissen, St","type":"Stadt"},"district":{"key":"09775","name":"Neu-Ulm","type":"Landkreis"},"federalState":{"key":"09","name":"Bayern"}},{"name":"Siedlung","postalCode":"89257","locality":"Illertissen","municipality":{"key":"09775129","name":"Illertissen, St","type":"Stadt"},"district":{"key":"09775","name":"Neu-Ulm","type":"Landkreis"},"federalState":{"key":"09","name":"Bayern"}},{"name":"Siegfried-Ott-Str.","postalCode":"89257","locality":"Illertissen","municipality":{"key":"09775129","name":"Illertissen, St","type":"Stadt"},"district":{"key":"09775","name":"Neu-Ulm","type":"Landkreis"},"federalState":{"key":"09","name":"Bayern"}},{"name":"Siemensstr.","postalCode":"89257","locality":"Illertissen","municipality":{"key":"09775129","name":"Illertissen, St","type":"Stadt"},"district":{"key":"09775","name":"Neu-Ulm","type":"Landkreis"},"federalState":{"key":"09","name":"Bayern"}},{"name":"Silbersteig","postalCode":"89257","locality":"Illertissen","municipality":{"key":"09775129","name":"Illertissen, St","type":"Stadt"},"district":{"key":"09775","name":"Neu-Ulm","type":"Landkreis"},"federalState":{"key":"09","name":"Bayern"}},{"name":"Sommerstr.","postalCode":"89257","locality":"Illertissen","municipality":{"key":"09775129","name":"Illertissen, St","type":"Stadt"},"district":{"key":"09775","name":"Neu-Ulm","type":"Landkreis"},"federalState":{"key":"09","name":"Bayern"}},{"name":"Sonnenstr.","postalCode":"89257","locality":"Illertissen","municipality":{"key":"09775129","name":"Illertissen, St","type":"Stadt"},"district":{"key":"09775","name":"Neu-Ulm","type":"Landkreis"},"federalState":{"key":"09","name":"Bayern"}},{"name":"Sperberweg","postalCode":"89257","locality":"Illertissen","municipality":{"key":"09775129","name":"Illertissen, St","type":"Stadt"},"district":{"key":"09775","name":"Neu-Ulm","type":"Landkreis"},"federalState":{"key":"09","name":"Bayern"}},{"name":"Spielplatz","postalCode":"89257","locality":"Illertissen","municipality":{"key":"09775129","name":"Illertissen, St","type":"Stadt"},"district":{"key":"09775","name":"Neu-Ulm","type":"Landkreis"},"federalState":{"key":"09","name":"Bayern"}},{"name":"Spitalstr.","postalCode":"89257","locality":"Illertissen","municipality":{"key":"09775129","name":"Illertissen, St","type":"Stadt"},"district":{"key":"09775","name":"Neu-Ulm","type":"Landkreis"},"federalState":{"key":"09","name":"Bayern"}},{"name":"St.-Antonius-Gasse","postalCode":"89257","locality":"Illertissen","municipality":{"key":"09775129","name":"Illertissen, St","type":"Stadt"},"district":{"key":"09775","name":"Neu-Ulm","type":"Landkreis"},"federalState":{"key":"09","name":"Bayern"}},{"name":"Starenweg","postalCode":"89257","locality":"Illertissen","municipality":{"key":"09775129","name":"Illertissen, St","type":"Stadt"},"district":{"key":"09775","name":"Neu-Ulm","type":"Landkreis"},"federalState":{"key":"09","name":"Bayern"}},{"name":"Stauffenbergstr.","postalCode":"89257","locality":"Illertissen","municipality":{"key":"09775129","name":"Illertissen, St","type":"Stadt"},"district":{"key":"09775","name":"Neu-Ulm","type":"Landkreis"},"federalState":{"key":"09","name":"Bayern"}},{"name":"Stelleweg","postalCode":"89257","locality":"Illertissen","municipality":{"key":"09775129","name":"Illertissen, St","type":"Stadt"},"district":{"key":"09775","name":"Neu-Ulm","type":"Landkreis"},"federalState":{"key":"09","name":"Bayern"}},{"name":"Sternenweg","postalCode":"89257","locality":"Illertissen","municipality":{"key":"09775129","name":"Illertissen, St","type":"Stadt"},"district":{"key":"09775","name":"Neu-Ulm","type":"Landkreis"},"federalState":{"key":"09","name":"Bayern"}},{"name":"St.-Leonhard-Gasse","postalCode":"89257","locality":"Illertissen","municipality":{"key":"09775129","name":"Illertissen, St","type":"Stadt"},"district":{"key":"09775","name":"Neu-Ulm","type":"Landkreis"},"federalState":{"key":"09","name":"Bayern"}},{"name":"St.-Meinrad-Str.","postalCode":"89257","locality":"Illertissen","municipality":{"key":"09775129","name":"Illertissen, St","type":"Stadt"},"district":{"key":"09775","name":"Neu-Ulm","type":"Landkreis"},"federalState":{"key":"09","name":"Bayern"}},{"name":"Stockäcker","postalCode":"89257","locality":"Illertissen","municipality":{"key":"09775129","name":"Illertissen, St","type":"Stadt"},"district":{"key":"09775","name":"Neu-Ulm","type":"Landkreis"},"federalState":{"key":"09","name":"Bayern"}},{"name":"Storchenweg","postalCode":"89257","locality":"Illertissen","municipality":{"key":"09775129","name":"Illertissen, St","type":"Stadt"},"district":{"key":"09775","name":"Neu-Ulm","type":"Landkreis"},"federalState":{"key":"09","name":"Bayern"}},{"name":"St.-Stefan-Str.","postalCode":"89257","locality":"Illertissen","municipality":{"key":"09775129","name":"Illertissen, St","type":"Stadt"},"district":{"key":"09775","name":"Neu-Ulm","type":"Landkreis"},"federalState":{"key":"09","name":"Bayern"}},{"name":"Stuibenweg","postalCode":"89257","locality":"Illertissen","municipality":{"key":"09775129","name":"Illertissen, St","type":"Stadt"},"district":{"key":"09775","name":"Neu-Ulm","type":"Landkreis"},"federalState":{"key":"09","name":"Bayern"}},{"name":"Südliche Halde","postalCode":"89257","locality":"Illertissen","municipality":{"key":"09775129","name":"Illertissen, St","type":"Stadt"},"district":{"key":"09775","name":"Neu-Ulm","type":"Landkreis"},"federalState":{"key":"09","name":"Bayern"}},{"name":"Täfinger Weg","postalCode":"89257","locality":"Illertissen","municipality":{"key":"09775129","name":"Illertissen, St","type":"Stadt"},"district":{"key":"09775","name":"Neu-Ulm","type":"Landkreis"},"federalState":{"key":"09","name":"Bayern"}},{"name":"Tannenbühlweg","postalCode":"89257","locality":"Illertissen","municipality":{"key":"09775129","name":"Illertissen, St","type":"Stadt"},"district":{"key":"09775","name":"Neu-Ulm","type":"Landkreis"},"federalState":{"key":"09","name":"Bayern"}},{"name":"Tannenweg","postalCode":"89257","locality":"Illertissen","municipality":{"key":"09775129","name":"Illertissen, St","type":"Stadt"},"district":{"key":"09775","name":"Neu-Ulm","type":"Landkreis"},"federalState":{"key":"09","name":"Bayern"}},{"name":"Theodor-Heuss-Str.","postalCode":"89257","locality":"Illertissen","municipality":{"key":"09775129","name":"Illertissen, St","type":"Stadt"},"district":{"key":"09775","name":"Neu-Ulm","type":"Landkreis"},"federalState":{"key":"09","name":"Bayern"}},{"name":"Thomas-Mann-Str.","postalCode":"89257","locality":"Illertissen","municipality":{"key":"09775129","name":"Illertissen, St","type":"Stadt"},"district":{"key":"09775","name":"Neu-Ulm","type":"Landkreis"},"federalState":{"key":"09","name":"Bayern"}},{"name":"Tiefenbacher Weg","postalCode":"89257","locality":"Illertissen","municipality":{"key":"09775129","name":"Illertissen, St","type":"Stadt"},"district":{"key":"09775","name":"Neu-Ulm","type":"Landkreis"},"federalState":{"key":"09","name":"Bayern"}},{"name":"Troppauer Str.","postalCode":"89257","locality":"Illertissen","municipality":{"key":"09775129","name":"Illertissen, St","type":"Stadt"},"district":{"key":"09775","name":"Neu-Ulm","type":"Landkreis"},"federalState":{"key":"09","name":"Bayern"}},{"name":"Tulpenweg","postalCode":"89257","locality":"Illertissen","municipality":{"key":"09775129","name":"Illertissen, St","type":"Stadt"},"district":{"key":"09775","name":"Neu-Ulm","type":"Landkreis"},"federalState":{"key":"09","name":"Bayern"}},{"name":"Uhlandstr.","postalCode":"89257","locality":"Illertissen","municipality":{"key":"09775129","name":"Illertissen, St","type":"Stadt"},"district":{"key":"09775","name":"Neu-Ulm","type":"Landkreis"},"federalState":{"key":"09","name":"Bayern"}},{"name":"Ulmer Str.","postalCode":"89257","locality":"Illertissen","municipality":{"key":"09775129","name":"Illertissen, St","type":"Stadt"},"district":{"key":"09775","name":"Neu-Ulm","type":"Landkreis"},"federalState":{"key":"09","name":"Bayern"}},{"name":"Ulrichstr.","postalCode":"89257","locality":"Illertissen","municipality":{"key":"09775129","name":"Illertissen, St","type":"Stadt"},"district":{"key":"09775","name":"Neu-Ulm","type":"Landkreis"},"federalState":{"key":"09","name":"Bayern"}},{"name":"Unterer Graben","postalCode":"89257","locality":"Illertissen","municipality":{"key":"09775129","name":"Illertissen, St","type":"Stadt"},"district":{"key":"09775","name":"Neu-Ulm","type":"Landkreis"},"federalState":{"key":"09","name":"Bayern"}},{"name":"Unterrother Str.","postalCode":"89257","locality":"Illertissen","municipality":{"key":"09775129","name":"Illertissen, St","type":"Stadt"},"district":{"key":"09775","name":"Neu-Ulm","type":"Landkreis"},"federalState":{"key":"09","name":"Bayern"}},{"name":"Veilchenweg","postalCode":"89257","locality":"Illertissen","municipality":{"key":"09775129","name":"Illertissen, St","type":"Stadt"},"district":{"key":"09775","name":"Neu-Ulm","type":"Landkreis"},"federalState":{"key":"09","name":"Bayern"}},{"name":"Verdistr.","postalCode":"89257","locality":"Illertissen","municipality":{"key":"09775129","name":"Illertissen, St","type":"Stadt"},"district":{"key":"09775","name":"Neu-Ulm","type":"Landkreis"},"federalState":{"key":"09","name":"Bayern"}},{"name":"Vöhlinstr.","postalCode":"89257","locality":"Illertissen","municipality":{"key":"09775129","name":"Illertissen, St","type":"Stadt"},"district":{"key":"09775","name":"Neu-Ulm","type":"Landkreis"},"federalState":{"key":"09","name":"Bayern"}},{"name":"Vöhringer Str.","postalCode":"89257","locality":"Illertissen","municipality":{"key":"09775129","name":"Illertissen, St","type":"Stadt"},"district":{"key":"09775","name":"Neu-Ulm","type":"Landkreis"},"federalState":{"key":"09","name":"Bayern"}},{"name":"Von-Kleist-Str.","postalCode":"89257","locality":"Illertissen","municipality":{"key":"09775129","name":"Illertissen, St","type":"Stadt"},"district":{"key":"09775","name":"Neu-Ulm","type":"Landkreis"},"federalState":{"key":"09","name":"Bayern"}},{"name":"Waldhornweg","postalCode":"89257","locality":"Illertissen","municipality":{"key":"09775129","name":"Illertissen, St","type":"Stadt"},"district":{"key":"09775","name":"Neu-Ulm","type":"Landkreis"},"federalState":{"key":"09","name":"Bayern"}},{"name":"Waldweg","postalCode":"89257","locality":"Illertissen","municipality":{"key":"09775129","name":"Illertissen, St","type":"Stadt"},"district":{"key":"09775","name":"Neu-Ulm","type":"Landkreis"},"federalState":{"key":"09","name":"Bayern"}},{"name":"Wallstr.","postalCode":"89257","locality":"Illertissen","municipality":{"key":"09775129","name":"Illertissen, St","type":"Stadt"},"district":{"key":"09775","name":"Neu-Ulm","type":"Landkreis"},"federalState":{"key":"09","name":"Bayern"}},{"name":"Weideweg","postalCode":"89257","locality":"Illertissen","municipality":{"key":"09775129","name":"Illertissen, St","type":"Stadt"},"district":{"key":"09775","name":"Neu-Ulm","type":"Landkreis"},"federalState":{"key":"09","name":"Bayern"}},{"name":"Weiherstr.","postalCode":"89257","locality":"Illertissen","municipality":{"key":"09775129","name":"Illertissen, St","type":"Stadt"},"district":{"key":"09775","name":"Neu-Ulm","type":"Landkreis"},"federalState":{"key":"09","name":"Bayern"}},{"name":"Weinstr.","postalCode":"89257","locality":"Illertissen","municipality":{"key":"09775129","name":"Illertissen, St","type":"Stadt"},"district":{"key":"09775","name":"Neu-Ulm","type":"Landkreis"},"federalState":{"key":"09","name":"Bayern"}},{"name":"Werkstr.","postalCode":"89257","locality":"Illertissen","municipality":{"key":"09775129","name":"Illertissen, St","type":"Stadt"},"district":{"key":"09775","name":"Neu-Ulm","type":"Landkreis"},"federalState":{"key":"09","name":"Bayern"}},{"name":"Weststr.","postalCode":"89257","locality":"Illertissen","municipality":{"key":"09775129","name":"Illertissen, St","type":"Stadt"},"district":{"key":"09775","name":"Neu-Ulm","type":"Landkreis"},"federalState":{"key":"09","name":"Bayern"}},{"name":"Wilhelm-Busch-Ring","postalCode":"89257","locality":"Illertissen","municipality":{"key":"09775129","name":"Illertissen, St","type":"Stadt"},"district":{"key":"09775","name":"Neu-Ulm","type":"Landkreis"},"federalState":{"key":"09","name":"Bayern"}},{"name":"Wilhelm-Maybach-Weg","postalCode":"89257","locality":"Illertissen","municipality":{"key":"09775129","name":"Illertissen, St","type":"Stadt"},"district":{"key":"09775","name":"Neu-Ulm","type":"Landkreis"},"federalState":{"key":"09","name":"Bayern"}},{"name":"Wilhelm-Walker-Str.","postalCode":"89257","locality":"Illertissen","municipality":{"key":"09775129","name":"Illertissen, St","type":"Stadt"},"district":{"key":"09775","name":"Neu-Ulm","type":"Landkreis"},"federalState":{"key":"09","name":"Bayern"}},{"name":"Winterstr.","postalCode":"89257","locality":"Illertissen","municipality":{"key":"09775129","name":"Illertissen, St","type":"Stadt"},"district":{"key":"09775","name":"Neu-Ulm","type":"Landkreis"},"federalState":{"key":"09","name":"Bayern"}},{"name":"Xaver-Persch-Weg","postalCode":"89257","locality":"Illertissen","municipality":{"key":"09775129","name":"Illertissen, St","type":"Stadt"},"district":{"key":"09775","name":"Neu-Ulm","type":"Landkreis"},"federalState":{"key":"09","name":"Bayern"}},{"name":"Xaver-Rahn-Str.","postalCode":"89257","locality":"Illertissen","municipality":{"key":"09775129","name":"Illertissen, St","type":"Stadt"},"district":{"key":"09775","name":"Neu-Ulm","type":"Landkreis"},"federalState":{"key":"09","name":"Bayern"}},{"name":"Zaunkönigweg","postalCode":"89257","locality":"Illertissen","municipality":{"key":"09775129","name":"Illertissen, St","type":"Stadt"},"district":{"key":"09775","name":"Neu-Ulm","type":"Landkreis"},"federalState":{"key":"09","name":"Bayern"}},{"name":"Zeisigweg","postalCode":"89257","locality":"Illertissen","municipality":{"key":"09775129","name":"Illertissen, St","type":"Stadt"},"district":{"key":"09775","name":"Neu-Ulm","type":"Landkreis"},"federalState":{"key":"09","name":"Bayern"}},{"name":"Zeppelinstr.","postalCode":"89257","locality":"Illertissen","municipality":{"key":"09775129","name":"Illertissen, St","type":"Stadt"},"district":{"key":"09775","name":"Neu-Ulm","type":"Landkreis"},"federalState":{"key":"09","name":"Bayern"}},{"name":"Ziegelweg","postalCode":"89257","locality":"Illertissen","municipality":{"key":"09775129","name":"Illertissen, St","type":"Stadt"},"district":{"key":"09775","name":"Neu-Ulm","type":"Landkreis"},"federalState":{"key":"09","name":"Bayern"}},{"name":"Ziegenweide","postalCode":"89257","locality":"Illertissen","municipality":{"key":"09775129","name":"Illertissen, St","type":"Stadt"},"district":{"key":"09775","name":"Neu-Ulm","type":"Landkreis"},"federalState":{"key":"09","name":"Bayern"}},{"name":"Zimmerweg","postalCode":"89257","locality":"Illertissen","municipality":{"key":"09775129","name":"Illertissen, St","type":"Stadt"},"district":{"key":"09775","name":"Neu-Ulm","type":"Landkreis"},"federalState":{"key":"09","name":"Bayern"}},{"name":"Zum Bildstöckle","postalCode":"89257","locality":"Illertissen","municipality":{"key":"09775129","name":"Illertissen, St","type":"Stadt"},"district":{"key":"09775","name":"Neu-Ulm","type":"Landkreis"},"federalState":{"key":"09","name":"Bayern"}},{"name":"Zum Funken","postalCode":"89257","locality":"Illertissen","municipality":{"key":"09775129","name":"Illertissen, St","type":"Stadt"},"district":{"key":"09775","name":"Neu-Ulm","type":"Landkreis"},"federalState":{"key":"09","name":"Bayern"}},{"name":"Zum Grund","postalCode":"89257","locality":"Illertissen","municipality":{"key":"09775129","name":"Illertissen, St","type":"Stadt"},"district":{"key":"09775","name":"Neu-Ulm","type":"Landkreis"},"federalState":{"key":"09","name":"Bayern"}},{"name":"Zum Moosacker","postalCode":"89257","locality":"Illertissen","municipality":{"key":"09775129","name":"Illertissen, St","type":"Stadt"},"district":{"key":"09775","name":"Neu-Ulm","type":"Landkreis"},"federalState":{"key":"09","name":"Bayern"}},{"name":"Zum Mühlhölzle","postalCode":"89257","locality":"Illertissen","municipality":{"key":"09775129","name":"Illertissen, St","type":"Stadt"},"district":{"key":"09775","name":"Neu-Ulm","type":"Landkreis"},"federalState":{"key":"09","name":"Bayern"}},{"name":"Zur Eintracht","postalCode":"89257","locality":"Illertissen","municipality":{"key":"09775129","name":"Illertissen, St","type":"Stadt"},"district":{"key":"09775","name":"Neu-Ulm","type":"Landkreis"},"federalState":{"key":"09","name":"Bayern"}},{"name":"Zur Siede","postalCode":"89257","locality":"Illertissen","municipality":{"key":"09775129","name":"Illertissen, St","type":"Stadt"},"district":{"key":"09775","name":"Neu-Ulm","type":"Landkreis"},"federalState":{"key":"09","name":"Bayern"}},{"name":"Ölmühlweg","postalCode":"89257","locality":"Illertissen","municipality":{"key":"09775129","name":"Illertissen, St","type":"Stadt"},"district":{"key":"09775","name":"Neu-Ulm","type":"Landkreis"},"federalState":{"key":"09","name":"Bayern"}},]