[{"name":"Am Hasenwinkel","postalCode":"17449","locality":"Trassenheide","municipality":{"key":"13075133","name":"Trassenheide, Ostseebad","type":"Kreisangehörige_Gemeinde"},"district":{"key":"13075","name":"Vorpommern-Greifswald","type":"Landkreis"},"federalState":{"key":"13","name":"Mecklenburg-Vorpommern"}},{"name":"Am Walde","postalCode":"17449","locality":"Trassenheide","municipality":{"key":"13075133","name":"Trassenheide, Ostseebad","type":"Kreisangehörige_Gemeinde"},"district":{"key":"13075","name":"Vorpommern-Greifswald","type":"Landkreis"},"federalState":{"key":"13","name":"Mecklenburg-Vorpommern"}},{"name":"Ausbau","postalCode":"17449","locality":"Trassenheide","municipality":{"key":"13075133","name":"Trassenheide, Ostseebad","type":"Kreisangehörige_Gemeinde"},"district":{"key":"13075","name":"Vorpommern-Greifswald","type":"Landkreis"},"federalState":{"key":"13","name":"Mecklenburg-Vorpommern"}},{"name":"Bahnhofstr.","postalCode":"17449","locality":"Trassenheide","municipality":{"key":"13075133","name":"Trassenheide, Ostseebad","type":"Kreisangehörige_Gemeinde"},"district":{"key":"13075","name":"Vorpommern-Greifswald","type":"Landkreis"},"federalState":{"key":"13","name":"Mecklenburg-Vorpommern"}},{"name":"Birkenhainring","postalCode":"17449","locality":"Trassenheide","municipality":{"key":"13075133","name":"Trassenheide, Ostseebad","type":"Kreisangehörige_Gemeinde"},"district":{"key":"13075","name":"Vorpommern-Greifswald","type":"Landkreis"},"federalState":{"key":"13","name":"Mecklenburg-Vorpommern"}},{"name":"Birkenweg","postalCode":"17449","locality":"Trassenheide","municipality":{"key":"13075133","name":"Trassenheide, Ostseebad","type":"Kreisangehörige_Gemeinde"},"district":{"key":"13075","name":"Vorpommern-Greifswald","type":"Landkreis"},"federalState":{"key":"13","name":"Mecklenburg-Vorpommern"}},{"name":"Dünenstr.","postalCode":"17449","locality":"Trassenheide","municipality":{"key":"13075133","name":"Trassenheide, Ostseebad","type":"Kreisangehörige_Gemeinde"},"district":{"key":"13075","name":"Vorpommern-Greifswald","type":"Landkreis"},"federalState":{"key":"13","name":"Mecklenburg-Vorpommern"}},{"name":"Fliederweg","postalCode":"17449","locality":"Trassenheide","municipality":{"key":"13075133","name":"Trassenheide, Ostseebad","type":"Kreisangehörige_Gemeinde"},"district":{"key":"13075","name":"Vorpommern-Greifswald","type":"Landkreis"},"federalState":{"key":"13","name":"Mecklenburg-Vorpommern"}},{"name":"Försterei","postalCode":"17449","locality":"Trassenheide","municipality":{"key":"13075133","name":"Trassenheide, Ostseebad","type":"Kreisangehörige_Gemeinde"},"district":{"key":"13075","name":"Vorpommern-Greifswald","type":"Landkreis"},"federalState":{"key":"13","name":"Mecklenburg-Vorpommern"}},{"name":"Forststr.","postalCode":"17449","locality":"Trassenheide","municipality":{"key":"13075133","name":"Trassenheide, Ostseebad","type":"Kreisangehörige_Gemeinde"},"district":{"key":"13075","name":"Vorpommern-Greifswald","type":"Landkreis"},"federalState":{"key":"13","name":"Mecklenburg-Vorpommern"}},{"name":"Kampstr.","postalCode":"17449","locality":"Trassenheide","municipality":{"key":"13075133","name":"Trassenheide, Ostseebad","type":"Kreisangehörige_Gemeinde"},"district":{"key":"13075","name":"Vorpommern-Greifswald","type":"Landkreis"},"federalState":{"key":"13","name":"Mecklenburg-Vorpommern"}},{"name":"Kiefernweg","postalCode":"17449","locality":"Trassenheide","municipality":{"key":"13075133","name":"Trassenheide, Ostseebad","type":"Kreisangehörige_Gemeinde"},"district":{"key":"13075","name":"Vorpommern-Greifswald","type":"Landkreis"},"federalState":{"key":"13","name":"Mecklenburg-Vorpommern"}},{"name":"Laubenpark","postalCode":"17449","locality":"Trassenheide","municipality":{"key":"13075133","name":"Trassenheide, Ostseebad","type":"Kreisangehörige_Gemeinde"},"district":{"key":"13075","name":"Vorpommern-Greifswald","type":"Landkreis"},"federalState":{"key":"13","name":"Mecklenburg-Vorpommern"}},{"name":"Mäusepfad","postalCode":"17449","locality":"Trassenheide","municipality":{"key":"13075133","name":"Trassenheide, Ostseebad","type":"Kreisangehörige_Gemeinde"},"district":{"key":"13075","name":"Vorpommern-Greifswald","type":"Landkreis"},"federalState":{"key":"13","name":"Mecklenburg-Vorpommern"}},{"name":"Mittelweg","postalCode":"17449","locality":"Trassenheide","municipality":{"key":"13075133","name":"Trassenheide, Ostseebad","type":"Kreisangehörige_Gemeinde"},"district":{"key":"13075","name":"Vorpommern-Greifswald","type":"Landkreis"},"federalState":{"key":"13","name":"Mecklenburg-Vorpommern"}},{"name":"Mölschower Weg","postalCode":"17449","locality":"Trassenheide","municipality":{"key":"13075133","name":"Trassenheide, Ostseebad","type":"Kreisangehörige_Gemeinde"},"district":{"key":"13075","name":"Vorpommern-Greifswald","type":"Landkreis"},"federalState":{"key":"13","name":"Mecklenburg-Vorpommern"}},{"name":"Mühlenweg","postalCode":"17449","locality":"Trassenheide","municipality":{"key":"13075133","name":"Trassenheide, Ostseebad","type":"Kreisangehörige_Gemeinde"},"district":{"key":"13075","name":"Vorpommern-Greifswald","type":"Landkreis"},"federalState":{"key":"13","name":"Mecklenburg-Vorpommern"}},{"name":"Spielplatzweg","postalCode":"17449","locality":"Trassenheide","municipality":{"key":"13075133","name":"Trassenheide, Ostseebad","type":"Kreisangehörige_Gemeinde"},"district":{"key":"13075","name":"Vorpommern-Greifswald","type":"Landkreis"},"federalState":{"key":"13","name":"Mecklenburg-Vorpommern"}},{"name":"Strandstr.","postalCode":"17449","locality":"Trassenheide","municipality":{"key":"13075133","name":"Trassenheide, Ostseebad","type":"Kreisangehörige_Gemeinde"},"district":{"key":"13075","name":"Vorpommern-Greifswald","type":"Landkreis"},"federalState":{"key":"13","name":"Mecklenburg-Vorpommern"}},{"name":"Teichweg","postalCode":"17449","locality":"Trassenheide","municipality":{"key":"13075133","name":"Trassenheide, Ostseebad","type":"Kreisangehörige_Gemeinde"},"district":{"key":"13075","name":"Vorpommern-Greifswald","type":"Landkreis"},"federalState":{"key":"13","name":"Mecklenburg-Vorpommern"}},{"name":"Trassenheider Str.","postalCode":"17449","locality":"Trassenheide","municipality":{"key":"13075133","name":"Trassenheide, Ostseebad","type":"Kreisangehörige_Gemeinde"},"district":{"key":"13075","name":"Vorpommern-Greifswald","type":"Landkreis"},"federalState":{"key":"13","name":"Mecklenburg-Vorpommern"}},{"name":"Zeltplatzstr.","postalCode":"17449","locality":"Trassenheide","municipality":{"key":"13075133","name":"Trassenheide, Ostseebad","type":"Kreisangehörige_Gemeinde"},"district":{"key":"13075","name":"Vorpommern-Greifswald","type":"Landkreis"},"federalState":{"key":"13","name":"Mecklenburg-Vorpommern"}},]