[{"name":"Am Bahnhof","postalCode":"14715","locality":"Havelaue","municipality":{"key":"12063134","name":"Havelaue","type":"Kreisangehörige_Gemeinde"},"district":{"key":"12063","name":"Havelland","type":"Landkreis"},"federalState":{"key":"12","name":"Brandenburg"}},{"name":"Am Deich","postalCode":"14715","locality":"Havelaue","municipality":{"key":"12063134","name":"Havelaue","type":"Kreisangehörige_Gemeinde"},"district":{"key":"12063","name":"Havelland","type":"Landkreis"},"federalState":{"key":"12","name":"Brandenburg"}},{"name":"Am Feld","postalCode":"14715","locality":"Havelaue","municipality":{"key":"12063134","name":"Havelaue","type":"Kreisangehörige_Gemeinde"},"district":{"key":"12063","name":"Havelland","type":"Landkreis"},"federalState":{"key":"12","name":"Brandenburg"}},{"name":"Am Havelweg","postalCode":"14715","locality":"Havelaue","municipality":{"key":"12063134","name":"Havelaue","type":"Kreisangehörige_Gemeinde"},"district":{"key":"12063","name":"Havelland","type":"Landkreis"},"federalState":{"key":"12","name":"Brandenburg"}},{"name":"Am See","postalCode":"14715","locality":"Havelaue","municipality":{"key":"12063134","name":"Havelaue","type":"Kreisangehörige_Gemeinde"},"district":{"key":"12063","name":"Havelland","type":"Landkreis"},"federalState":{"key":"12","name":"Brandenburg"}},{"name":"Am Wald","postalCode":"14715","locality":"Havelaue","municipality":{"key":"12063134","name":"Havelaue","type":"Kreisangehörige_Gemeinde"},"district":{"key":"12063","name":"Havelland","type":"Landkreis"},"federalState":{"key":"12","name":"Brandenburg"}},{"name":"Backofenberg","postalCode":"14715","locality":"Havelaue","municipality":{"key":"12063134","name":"Havelaue","type":"Kreisangehörige_Gemeinde"},"district":{"key":"12063","name":"Havelland","type":"Landkreis"},"federalState":{"key":"12","name":"Brandenburg"}},{"name":"Bungalowsiedlung","postalCode":"14715","locality":"Havelaue","municipality":{"key":"12063134","name":"Havelaue","type":"Kreisangehörige_Gemeinde"},"district":{"key":"12063","name":"Havelland","type":"Landkreis"},"federalState":{"key":"12","name":"Brandenburg"}},{"name":"Deich","postalCode":"14715","locality":"Havelaue","municipality":{"key":"12063134","name":"Havelaue","type":"Kreisangehörige_Gemeinde"},"district":{"key":"12063","name":"Havelland","type":"Landkreis"},"federalState":{"key":"12","name":"Brandenburg"}},{"name":"Dorfstr.","postalCode":"14715","locality":"Havelaue","municipality":{"key":"12063134","name":"Havelaue","type":"Kreisangehörige_Gemeinde"},"district":{"key":"12063","name":"Havelland","type":"Landkreis"},"federalState":{"key":"12","name":"Brandenburg"}},{"name":"Gartenstr.","postalCode":"14715","locality":"Havelaue","municipality":{"key":"12063134","name":"Havelaue","type":"Kreisangehörige_Gemeinde"},"district":{"key":"12063","name":"Havelland","type":"Landkreis"},"federalState":{"key":"12","name":"Brandenburg"}},{"name":"Großdorf","postalCode":"14715","locality":"Havelaue","municipality":{"key":"12063134","name":"Havelaue","type":"Kreisangehörige_Gemeinde"},"district":{"key":"12063","name":"Havelland","type":"Landkreis"},"federalState":{"key":"12","name":"Brandenburg"}},{"name":"Gülper Hauptstr.","postalCode":"14715","locality":"Havelaue","municipality":{"key":"12063134","name":"Havelaue","type":"Kreisangehörige_Gemeinde"},"district":{"key":"12063","name":"Havelland","type":"Landkreis"},"federalState":{"key":"12","name":"Brandenburg"}},{"name":"Hauptstr.","postalCode":"14715","locality":"Havelaue","municipality":{"key":"12063134","name":"Havelaue","type":"Kreisangehörige_Gemeinde"},"district":{"key":"12063","name":"Havelland","type":"Landkreis"},"federalState":{"key":"12","name":"Brandenburg"}},{"name":"Havellandbrücke","postalCode":"14715","locality":"Havelaue","municipality":{"key":"12063134","name":"Havelaue","type":"Kreisangehörige_Gemeinde"},"district":{"key":"12063","name":"Havelland","type":"Landkreis"},"federalState":{"key":"12","name":"Brandenburg"}},{"name":"Hintere Dorfstr.","postalCode":"14715","locality":"Havelaue","municipality":{"key":"12063134","name":"Havelaue","type":"Kreisangehörige_Gemeinde"},"district":{"key":"12063","name":"Havelland","type":"Landkreis"},"federalState":{"key":"12","name":"Brandenburg"}},{"name":"Hohenwinkel","postalCode":"14715","locality":"Havelaue","municipality":{"key":"12063134","name":"Havelaue","type":"Kreisangehörige_Gemeinde"},"district":{"key":"12063","name":"Havelland","type":"Landkreis"},"federalState":{"key":"12","name":"Brandenburg"}},{"name":"Kirchplatz","postalCode":"14715","locality":"Havelaue","municipality":{"key":"12063134","name":"Havelaue","type":"Kreisangehörige_Gemeinde"},"district":{"key":"12063","name":"Havelland","type":"Landkreis"},"federalState":{"key":"12","name":"Brandenburg"}},{"name":"Kleindorf","postalCode":"14715","locality":"Havelaue","municipality":{"key":"12063134","name":"Havelaue","type":"Kreisangehörige_Gemeinde"},"district":{"key":"12063","name":"Havelland","type":"Landkreis"},"federalState":{"key":"12","name":"Brandenburg"}},{"name":"Kreuzbergweg","postalCode":"14715","locality":"Havelaue","municipality":{"key":"12063134","name":"Havelaue","type":"Kreisangehörige_Gemeinde"},"district":{"key":"12063","name":"Havelland","type":"Landkreis"},"federalState":{"key":"12","name":"Brandenburg"}},{"name":"Mittelstr.","postalCode":"14715","locality":"Havelaue","municipality":{"key":"12063134","name":"Havelaue","type":"Kreisangehörige_Gemeinde"},"district":{"key":"12063","name":"Havelland","type":"Landkreis"},"federalState":{"key":"12","name":"Brandenburg"}},{"name":"Pareyer Dorfstr.","postalCode":"14715","locality":"Havelaue","municipality":{"key":"12063134","name":"Havelaue","type":"Kreisangehörige_Gemeinde"},"district":{"key":"12063","name":"Havelland","type":"Landkreis"},"federalState":{"key":"12","name":"Brandenburg"}},{"name":"Pareyer Str.","postalCode":"14715","locality":"Havelaue","municipality":{"key":"12063134","name":"Havelaue","type":"Kreisangehörige_Gemeinde"},"district":{"key":"12063","name":"Havelland","type":"Landkreis"},"federalState":{"key":"12","name":"Brandenburg"}},{"name":"Prietzener Dorfstr.","postalCode":"14715","locality":"Havelaue","municipality":{"key":"12063134","name":"Havelaue","type":"Kreisangehörige_Gemeinde"},"district":{"key":"12063","name":"Havelland","type":"Landkreis"},"federalState":{"key":"12","name":"Brandenburg"}},{"name":"Prietzener Str.","postalCode":"14715","locality":"Havelaue","municipality":{"key":"12063134","name":"Havelaue","type":"Kreisangehörige_Gemeinde"},"district":{"key":"12063","name":"Havelland","type":"Landkreis"},"federalState":{"key":"12","name":"Brandenburg"}},{"name":"Rhinower Str.","postalCode":"14715","locality":"Havelaue","municipality":{"key":"12063134","name":"Havelaue","type":"Kreisangehörige_Gemeinde"},"district":{"key":"12063","name":"Havelland","type":"Landkreis"},"federalState":{"key":"12","name":"Brandenburg"}},{"name":"Schwalbenweg","postalCode":"14715","locality":"Havelaue","municipality":{"key":"12063134","name":"Havelaue","type":"Kreisangehörige_Gemeinde"},"district":{"key":"12063","name":"Havelland","type":"Landkreis"},"federalState":{"key":"12","name":"Brandenburg"}},{"name":"Seitenbeutel","postalCode":"14715","locality":"Havelaue","municipality":{"key":"12063134","name":"Havelaue","type":"Kreisangehörige_Gemeinde"},"district":{"key":"12063","name":"Havelland","type":"Landkreis"},"federalState":{"key":"12","name":"Brandenburg"}},{"name":"Spaatzer Hauptstr.","postalCode":"14715","locality":"Havelaue","municipality":{"key":"12063134","name":"Havelaue","type":"Kreisangehörige_Gemeinde"},"district":{"key":"12063","name":"Havelland","type":"Landkreis"},"federalState":{"key":"12","name":"Brandenburg"}},{"name":"Str. am Neubau","postalCode":"14715","locality":"Havelaue","municipality":{"key":"12063134","name":"Havelaue","type":"Kreisangehörige_Gemeinde"},"district":{"key":"12063","name":"Havelland","type":"Landkreis"},"federalState":{"key":"12","name":"Brandenburg"}},{"name":"Ziegenstr.","postalCode":"14715","locality":"Havelaue","municipality":{"key":"12063134","name":"Havelaue","type":"Kreisangehörige_Gemeinde"},"district":{"key":"12063","name":"Havelland","type":"Landkreis"},"federalState":{"key":"12","name":"Brandenburg"}},]