[{"name":"Ahornweg","postalCode":"79364","locality":"Malterdingen","municipality":{"key":"08316024","name":"Malterdingen","type":"Kreisangehörige_Gemeinde"},"district":{"key":"08316","name":"Emmendingen","type":"Landkreis"},"federalState":{"key":"08","name":"Baden-Württemberg"}},{"name":"Alterhauweg","postalCode":"79364","locality":"Malterdingen","municipality":{"key":"08316024","name":"Malterdingen","type":"Kreisangehörige_Gemeinde"},"district":{"key":"08316","name":"Emmendingen","type":"Landkreis"},"federalState":{"key":"08","name":"Baden-Württemberg"}},{"name":"Alte Str.","postalCode":"79364","locality":"Malterdingen","municipality":{"key":"08316024","name":"Malterdingen","type":"Kreisangehörige_Gemeinde"},"district":{"key":"08316","name":"Emmendingen","type":"Landkreis"},"federalState":{"key":"08","name":"Baden-Württemberg"}},{"name":"Am Bienenberg","postalCode":"79364","locality":"Malterdingen","municipality":{"key":"08316024","name":"Malterdingen","type":"Kreisangehörige_Gemeinde"},"district":{"key":"08316","name":"Emmendingen","type":"Landkreis"},"federalState":{"key":"08","name":"Baden-Württemberg"}},{"name":"Am Boll","postalCode":"79364","locality":"Malterdingen","municipality":{"key":"08316024","name":"Malterdingen","type":"Kreisangehörige_Gemeinde"},"district":{"key":"08316","name":"Emmendingen","type":"Landkreis"},"federalState":{"key":"08","name":"Baden-Württemberg"}},{"name":"Am Katzengraben","postalCode":"79364","locality":"Malterdingen","municipality":{"key":"08316024","name":"Malterdingen","type":"Kreisangehörige_Gemeinde"},"district":{"key":"08316","name":"Emmendingen","type":"Landkreis"},"federalState":{"key":"08","name":"Baden-Württemberg"}},{"name":"Am Saiberg","postalCode":"79364","locality":"Malterdingen","municipality":{"key":"08316024","name":"Malterdingen","type":"Kreisangehörige_Gemeinde"},"district":{"key":"08316","name":"Emmendingen","type":"Landkreis"},"federalState":{"key":"08","name":"Baden-Württemberg"}},{"name":"Am Spielplatz","postalCode":"79364","locality":"Malterdingen","municipality":{"key":"08316024","name":"Malterdingen","type":"Kreisangehörige_Gemeinde"},"district":{"key":"08316","name":"Emmendingen","type":"Landkreis"},"federalState":{"key":"08","name":"Baden-Württemberg"}},{"name":"Am Sportplatz","postalCode":"79364","locality":"Malterdingen","municipality":{"key":"08316024","name":"Malterdingen","type":"Kreisangehörige_Gemeinde"},"district":{"key":"08316","name":"Emmendingen","type":"Landkreis"},"federalState":{"key":"08","name":"Baden-Württemberg"}},{"name":"An der Hegi","postalCode":"79364","locality":"Malterdingen","municipality":{"key":"08316024","name":"Malterdingen","type":"Kreisangehörige_Gemeinde"},"district":{"key":"08316","name":"Emmendingen","type":"Landkreis"},"federalState":{"key":"08","name":"Baden-Württemberg"}},{"name":"Asternweg","postalCode":"79364","locality":"Malterdingen","municipality":{"key":"08316024","name":"Malterdingen","type":"Kreisangehörige_Gemeinde"},"district":{"key":"08316","name":"Emmendingen","type":"Landkreis"},"federalState":{"key":"08","name":"Baden-Württemberg"}},{"name":"Autal","postalCode":"79364","locality":"Malterdingen","municipality":{"key":"08316024","name":"Malterdingen","type":"Kreisangehörige_Gemeinde"},"district":{"key":"08316","name":"Emmendingen","type":"Landkreis"},"federalState":{"key":"08","name":"Baden-Württemberg"}},{"name":"Bachweg","postalCode":"79364","locality":"Malterdingen","municipality":{"key":"08316024","name":"Malterdingen","type":"Kreisangehörige_Gemeinde"},"district":{"key":"08316","name":"Emmendingen","type":"Landkreis"},"federalState":{"key":"08","name":"Baden-Württemberg"}},{"name":"Birkenweg","postalCode":"79364","locality":"Malterdingen","municipality":{"key":"08316024","name":"Malterdingen","type":"Kreisangehörige_Gemeinde"},"district":{"key":"08316","name":"Emmendingen","type":"Landkreis"},"federalState":{"key":"08","name":"Baden-Württemberg"}},{"name":"Bombacher Str.","postalCode":"79364","locality":"Malterdingen","municipality":{"key":"08316024","name":"Malterdingen","type":"Kreisangehörige_Gemeinde"},"district":{"key":"08316","name":"Emmendingen","type":"Landkreis"},"federalState":{"key":"08","name":"Baden-Württemberg"}},{"name":"Buchenweg","postalCode":"79364","locality":"Malterdingen","municipality":{"key":"08316024","name":"Malterdingen","type":"Kreisangehörige_Gemeinde"},"district":{"key":"08316","name":"Emmendingen","type":"Landkreis"},"federalState":{"key":"08","name":"Baden-Württemberg"}},{"name":"Carl-Helbing-Str.","postalCode":"79312","locality":"Emmendingen","municipality":{"key":"08316011","name":"Emmendingen, Stadt","type":"Große_Kreisstadt"},"district":{"key":"08316","name":"Emmendingen","type":"Landkreis"},"federalState":{"key":"08","name":"Baden-Württemberg"}},{"name":"Carl-Orff-Weg","postalCode":"79312","locality":"Emmendingen","municipality":{"key":"08316011","name":"Emmendingen, Stadt","type":"Große_Kreisstadt"},"district":{"key":"08316","name":"Emmendingen","type":"Landkreis"},"federalState":{"key":"08","name":"Baden-Württemberg"}},{"name":"Carl-Ringwald-Str.","postalCode":"79312","locality":"Emmendingen","municipality":{"key":"08316011","name":"Emmendingen, Stadt","type":"Große_Kreisstadt"},"district":{"key":"08316","name":"Emmendingen","type":"Landkreis"},"federalState":{"key":"08","name":"Baden-Württemberg"}},{"name":"Christian-Herbst-Str.","postalCode":"79312","locality":"Emmendingen","municipality":{"key":"08316011","name":"Emmendingen, Stadt","type":"Große_Kreisstadt"},"district":{"key":"08316","name":"Emmendingen","type":"Landkreis"},"federalState":{"key":"08","name":"Baden-Württemberg"}},{"name":"Christian-Kiefer-Weg","postalCode":"79312","locality":"Emmendingen","municipality":{"key":"08316011","name":"Emmendingen, Stadt","type":"Große_Kreisstadt"},"district":{"key":"08316","name":"Emmendingen","type":"Landkreis"},"federalState":{"key":"08","name":"Baden-Württemberg"}},{"name":"Cornelia-Passage","postalCode":"79312","locality":"Emmendingen","municipality":{"key":"08316011","name":"Emmendingen, Stadt","type":"Große_Kreisstadt"},"district":{"key":"08316","name":"Emmendingen","type":"Landkreis"},"federalState":{"key":"08","name":"Baden-Württemberg"}},{"name":"Dahlienweg","postalCode":"79364","locality":"Malterdingen","municipality":{"key":"08316024","name":"Malterdingen","type":"Kreisangehörige_Gemeinde"},"district":{"key":"08316","name":"Emmendingen","type":"Landkreis"},"federalState":{"key":"08","name":"Baden-Württemberg"}},{"name":"Eichenweg","postalCode":"79364","locality":"Malterdingen","municipality":{"key":"08316024","name":"Malterdingen","type":"Kreisangehörige_Gemeinde"},"district":{"key":"08316","name":"Emmendingen","type":"Landkreis"},"federalState":{"key":"08","name":"Baden-Württemberg"}},{"name":"Elzstr.","postalCode":"79364","locality":"Malterdingen","municipality":{"key":"08316024","name":"Malterdingen","type":"Kreisangehörige_Gemeinde"},"district":{"key":"08316","name":"Emmendingen","type":"Landkreis"},"federalState":{"key":"08","name":"Baden-Württemberg"}},{"name":"Emsentalweg","postalCode":"79364","locality":"Malterdingen","municipality":{"key":"08316024","name":"Malterdingen","type":"Kreisangehörige_Gemeinde"},"district":{"key":"08316","name":"Emmendingen","type":"Landkreis"},"federalState":{"key":"08","name":"Baden-Württemberg"}},{"name":"Erdenlöcherweg","postalCode":"79364","locality":"Malterdingen","municipality":{"key":"08316024","name":"Malterdingen","type":"Kreisangehörige_Gemeinde"},"district":{"key":"08316","name":"Emmendingen","type":"Landkreis"},"federalState":{"key":"08","name":"Baden-Württemberg"}},{"name":"Erlenlochweg","postalCode":"79364","locality":"Malterdingen","municipality":{"key":"08316024","name":"Malterdingen","type":"Kreisangehörige_Gemeinde"},"district":{"key":"08316","name":"Emmendingen","type":"Landkreis"},"federalState":{"key":"08","name":"Baden-Württemberg"}},{"name":"Ernst-Hirzel-Str.","postalCode":"79364","locality":"Malterdingen","municipality":{"key":"08316024","name":"Malterdingen","type":"Kreisangehörige_Gemeinde"},"district":{"key":"08316","name":"Emmendingen","type":"Landkreis"},"federalState":{"key":"08","name":"Baden-Württemberg"}},{"name":"Fahnengasse","postalCode":"79364","locality":"Malterdingen","municipality":{"key":"08316024","name":"Malterdingen","type":"Kreisangehörige_Gemeinde"},"district":{"key":"08316","name":"Emmendingen","type":"Landkreis"},"federalState":{"key":"08","name":"Baden-Württemberg"}},{"name":"Fahrental","postalCode":"79364","locality":"Malterdingen","municipality":{"key":"08316024","name":"Malterdingen","type":"Kreisangehörige_Gemeinde"},"district":{"key":"08316","name":"Emmendingen","type":"Landkreis"},"federalState":{"key":"08","name":"Baden-Württemberg"}},{"name":"Fernecker Tal","postalCode":"79364","locality":"Malterdingen","municipality":{"key":"08316024","name":"Malterdingen","type":"Kreisangehörige_Gemeinde"},"district":{"key":"08316","name":"Emmendingen","type":"Landkreis"},"federalState":{"key":"08","name":"Baden-Württemberg"}},{"name":"Fischergasse","postalCode":"79364","locality":"Malterdingen","municipality":{"key":"08316024","name":"Malterdingen","type":"Kreisangehörige_Gemeinde"},"district":{"key":"08316","name":"Emmendingen","type":"Landkreis"},"federalState":{"key":"08","name":"Baden-Württemberg"}},{"name":"Forsterlohweg","postalCode":"79364","locality":"Malterdingen","municipality":{"key":"08316024","name":"Malterdingen","type":"Kreisangehörige_Gemeinde"},"district":{"key":"08316","name":"Emmendingen","type":"Landkreis"},"federalState":{"key":"08","name":"Baden-Württemberg"}},{"name":"Freiämter Str.","postalCode":"79364","locality":"Malterdingen","municipality":{"key":"08316024","name":"Malterdingen","type":"Kreisangehörige_Gemeinde"},"district":{"key":"08316","name":"Emmendingen","type":"Landkreis"},"federalState":{"key":"08","name":"Baden-Württemberg"}},{"name":"Gartenstr.","postalCode":"79364","locality":"Malterdingen","municipality":{"key":"08316024","name":"Malterdingen","type":"Kreisangehörige_Gemeinde"},"district":{"key":"08316","name":"Emmendingen","type":"Landkreis"},"federalState":{"key":"08","name":"Baden-Württemberg"}},{"name":"Gewerbestr.","postalCode":"79364","locality":"Malterdingen","municipality":{"key":"08316024","name":"Malterdingen","type":"Kreisangehörige_Gemeinde"},"district":{"key":"08316","name":"Emmendingen","type":"Landkreis"},"federalState":{"key":"08","name":"Baden-Württemberg"}},{"name":"Grünwinkelweg","postalCode":"79364","locality":"Malterdingen","municipality":{"key":"08316024","name":"Malterdingen","type":"Kreisangehörige_Gemeinde"},"district":{"key":"08316","name":"Emmendingen","type":"Landkreis"},"federalState":{"key":"08","name":"Baden-Württemberg"}},{"name":"Haldenweg","postalCode":"79364","locality":"Malterdingen","municipality":{"key":"08316024","name":"Malterdingen","type":"Kreisangehörige_Gemeinde"},"district":{"key":"08316","name":"Emmendingen","type":"Landkreis"},"federalState":{"key":"08","name":"Baden-Württemberg"}},{"name":"Hasenbankweg","postalCode":"79364","locality":"Malterdingen","municipality":{"key":"08316024","name":"Malterdingen","type":"Kreisangehörige_Gemeinde"},"district":{"key":"08316","name":"Emmendingen","type":"Landkreis"},"federalState":{"key":"08","name":"Baden-Württemberg"}},{"name":"Hauptstr.","postalCode":"79364","locality":"Malterdingen","municipality":{"key":"08316024","name":"Malterdingen","type":"Kreisangehörige_Gemeinde"},"district":{"key":"08316","name":"Emmendingen","type":"Landkreis"},"federalState":{"key":"08","name":"Baden-Württemberg"}},{"name":"Hebelstr.","postalCode":"79364","locality":"Malterdingen","municipality":{"key":"08316024","name":"Malterdingen","type":"Kreisangehörige_Gemeinde"},"district":{"key":"08316","name":"Emmendingen","type":"Landkreis"},"federalState":{"key":"08","name":"Baden-Württemberg"}},{"name":"Hecklinger Str.","postalCode":"79364","locality":"Malterdingen","municipality":{"key":"08316024","name":"Malterdingen","type":"Kreisangehörige_Gemeinde"},"district":{"key":"08316","name":"Emmendingen","type":"Landkreis"},"federalState":{"key":"08","name":"Baden-Württemberg"}},{"name":"Hecklingerweg","postalCode":"79364","locality":"Malterdingen","municipality":{"key":"08316024","name":"Malterdingen","type":"Kreisangehörige_Gemeinde"},"district":{"key":"08316","name":"Emmendingen","type":"Landkreis"},"federalState":{"key":"08","name":"Baden-Württemberg"}},{"name":"Heimbacher Weg","postalCode":"79364","locality":"Malterdingen","municipality":{"key":"08316024","name":"Malterdingen","type":"Kreisangehörige_Gemeinde"},"district":{"key":"08316","name":"Emmendingen","type":"Landkreis"},"federalState":{"key":"08","name":"Baden-Württemberg"}},{"name":"Im Allmend","postalCode":"79364","locality":"Malterdingen","municipality":{"key":"08316024","name":"Malterdingen","type":"Kreisangehörige_Gemeinde"},"district":{"key":"08316","name":"Emmendingen","type":"Landkreis"},"federalState":{"key":"08","name":"Baden-Württemberg"}},{"name":"Im Kleb","postalCode":"79364","locality":"Malterdingen","municipality":{"key":"08316024","name":"Malterdingen","type":"Kreisangehörige_Gemeinde"},"district":{"key":"08316","name":"Emmendingen","type":"Landkreis"},"federalState":{"key":"08","name":"Baden-Württemberg"}},{"name":"Im Kreuzfeld","postalCode":"79364","locality":"Malterdingen","municipality":{"key":"08316024","name":"Malterdingen","type":"Kreisangehörige_Gemeinde"},"district":{"key":"08316","name":"Emmendingen","type":"Landkreis"},"federalState":{"key":"08","name":"Baden-Württemberg"}},{"name":"Im Ried","postalCode":"79364","locality":"Malterdingen","municipality":{"key":"08316024","name":"Malterdingen","type":"Kreisangehörige_Gemeinde"},"district":{"key":"08316","name":"Emmendingen","type":"Landkreis"},"federalState":{"key":"08","name":"Baden-Württemberg"}},{"name":"Im Schwabental","postalCode":"79364","locality":"Malterdingen","municipality":{"key":"08316024","name":"Malterdingen","type":"Kreisangehörige_Gemeinde"},"district":{"key":"08316","name":"Emmendingen","type":"Landkreis"},"federalState":{"key":"08","name":"Baden-Württemberg"}},{"name":"Im Specken","postalCode":"79364","locality":"Malterdingen","municipality":{"key":"08316024","name":"Malterdingen","type":"Kreisangehörige_Gemeinde"},"district":{"key":"08316","name":"Emmendingen","type":"Landkreis"},"federalState":{"key":"08","name":"Baden-Württemberg"}},{"name":"Im Spötzinger","postalCode":"79364","locality":"Malterdingen","municipality":{"key":"08316024","name":"Malterdingen","type":"Kreisangehörige_Gemeinde"},"district":{"key":"08316","name":"Emmendingen","type":"Landkreis"},"federalState":{"key":"08","name":"Baden-Württemberg"}},{"name":"Jacobi-Weg","postalCode":"79312","locality":"Emmendingen","municipality":{"key":"08316011","name":"Emmendingen, Stadt","type":"Große_Kreisstadt"},"district":{"key":"08316","name":"Emmendingen","type":"Landkreis"},"federalState":{"key":"08","name":"Baden-Württemberg"}},{"name":"Jahnstr.","postalCode":"79312","locality":"Emmendingen","municipality":{"key":"08316011","name":"Emmendingen, Stadt","type":"Große_Kreisstadt"},"district":{"key":"08316","name":"Emmendingen","type":"Landkreis"},"federalState":{"key":"08","name":"Baden-Württemberg"}},{"name":"J.-M.-Scheffelt-Str.","postalCode":"79312","locality":"Emmendingen","municipality":{"key":"08316011","name":"Emmendingen, Stadt","type":"Große_Kreisstadt"},"district":{"key":"08316","name":"Emmendingen","type":"Landkreis"},"federalState":{"key":"08","name":"Baden-Württemberg"}},{"name":"Johann-Georg-Rieß-Weg","postalCode":"79312","locality":"Emmendingen","municipality":{"key":"08316011","name":"Emmendingen, Stadt","type":"Große_Kreisstadt"},"district":{"key":"08316","name":"Emmendingen","type":"Landkreis"},"federalState":{"key":"08","name":"Baden-Württemberg"}},{"name":"Johann-Philipp-Sonntag-Str.","postalCode":"79312","locality":"Emmendingen","municipality":{"key":"08316011","name":"Emmendingen, Stadt","type":"Große_Kreisstadt"},"district":{"key":"08316","name":"Emmendingen","type":"Landkreis"},"federalState":{"key":"08","name":"Baden-Württemberg"}},{"name":"Johann-Zenlin-Weg","postalCode":"79312","locality":"Emmendingen","municipality":{"key":"08316011","name":"Emmendingen, Stadt","type":"Große_Kreisstadt"},"district":{"key":"08316","name":"Emmendingen","type":"Landkreis"},"federalState":{"key":"08","name":"Baden-Württemberg"}},{"name":"Jörg-Erb-Weg","postalCode":"79312","locality":"Emmendingen","municipality":{"key":"08316011","name":"Emmendingen, Stadt","type":"Große_Kreisstadt"},"district":{"key":"08316","name":"Emmendingen","type":"Landkreis"},"federalState":{"key":"08","name":"Baden-Württemberg"}},{"name":"Kähnerlochweg","postalCode":"79364","locality":"Malterdingen","municipality":{"key":"08316024","name":"Malterdingen","type":"Kreisangehörige_Gemeinde"},"district":{"key":"08316","name":"Emmendingen","type":"Landkreis"},"federalState":{"key":"08","name":"Baden-Württemberg"}},{"name":"Kirchgässli","postalCode":"79364","locality":"Malterdingen","municipality":{"key":"08316024","name":"Malterdingen","type":"Kreisangehörige_Gemeinde"},"district":{"key":"08316","name":"Emmendingen","type":"Landkreis"},"federalState":{"key":"08","name":"Baden-Württemberg"}},{"name":"Kittelgasse","postalCode":"79364","locality":"Malterdingen","municipality":{"key":"08316024","name":"Malterdingen","type":"Kreisangehörige_Gemeinde"},"district":{"key":"08316","name":"Emmendingen","type":"Landkreis"},"federalState":{"key":"08","name":"Baden-Württemberg"}},{"name":"Kochgasse","postalCode":"79364","locality":"Malterdingen","municipality":{"key":"08316024","name":"Malterdingen","type":"Kreisangehörige_Gemeinde"},"district":{"key":"08316","name":"Emmendingen","type":"Landkreis"},"federalState":{"key":"08","name":"Baden-Württemberg"}},{"name":"Kohlhüttenweg","postalCode":"79364","locality":"Malterdingen","municipality":{"key":"08316024","name":"Malterdingen","type":"Kreisangehörige_Gemeinde"},"district":{"key":"08316","name":"Emmendingen","type":"Landkreis"},"federalState":{"key":"08","name":"Baden-Württemberg"}},{"name":"Köndringer Str.","postalCode":"79364","locality":"Malterdingen","municipality":{"key":"08316024","name":"Malterdingen","type":"Kreisangehörige_Gemeinde"},"district":{"key":"08316","name":"Emmendingen","type":"Landkreis"},"federalState":{"key":"08","name":"Baden-Württemberg"}},{"name":"Köpfleweg","postalCode":"79364","locality":"Malterdingen","municipality":{"key":"08316024","name":"Malterdingen","type":"Kreisangehörige_Gemeinde"},"district":{"key":"08316","name":"Emmendingen","type":"Landkreis"},"federalState":{"key":"08","name":"Baden-Württemberg"}},{"name":"Künzlisbergweg","postalCode":"79364","locality":"Malterdingen","municipality":{"key":"08316024","name":"Malterdingen","type":"Kreisangehörige_Gemeinde"},"district":{"key":"08316","name":"Emmendingen","type":"Landkreis"},"federalState":{"key":"08","name":"Baden-Württemberg"}},{"name":"Landecker Weg","postalCode":"79364","locality":"Malterdingen","municipality":{"key":"08316024","name":"Malterdingen","type":"Kreisangehörige_Gemeinde"},"district":{"key":"08316","name":"Emmendingen","type":"Landkreis"},"federalState":{"key":"08","name":"Baden-Württemberg"}},{"name":"Langhof","postalCode":"79364","locality":"Malterdingen","municipality":{"key":"08316024","name":"Malterdingen","type":"Kreisangehörige_Gemeinde"},"district":{"key":"08316","name":"Emmendingen","type":"Landkreis"},"federalState":{"key":"08","name":"Baden-Württemberg"}},{"name":"Langleidweg","postalCode":"79364","locality":"Malterdingen","municipality":{"key":"08316024","name":"Malterdingen","type":"Kreisangehörige_Gemeinde"},"district":{"key":"08316","name":"Emmendingen","type":"Landkreis"},"federalState":{"key":"08","name":"Baden-Württemberg"}},{"name":"Lehkinzig","postalCode":"79364","locality":"Malterdingen","municipality":{"key":"08316024","name":"Malterdingen","type":"Kreisangehörige_Gemeinde"},"district":{"key":"08316","name":"Emmendingen","type":"Landkreis"},"federalState":{"key":"08","name":"Baden-Württemberg"}},{"name":"Leimtalweg","postalCode":"79364","locality":"Malterdingen","municipality":{"key":"08316024","name":"Malterdingen","type":"Kreisangehörige_Gemeinde"},"district":{"key":"08316","name":"Emmendingen","type":"Landkreis"},"federalState":{"key":"08","name":"Baden-Württemberg"}},{"name":"Lindenweg","postalCode":"79364","locality":"Malterdingen","municipality":{"key":"08316024","name":"Malterdingen","type":"Kreisangehörige_Gemeinde"},"district":{"key":"08316","name":"Emmendingen","type":"Landkreis"},"federalState":{"key":"08","name":"Baden-Württemberg"}},{"name":"Markgrafenhalde","postalCode":"79364","locality":"Malterdingen","municipality":{"key":"08316024","name":"Malterdingen","type":"Kreisangehörige_Gemeinde"},"district":{"key":"08316","name":"Emmendingen","type":"Landkreis"},"federalState":{"key":"08","name":"Baden-Württemberg"}},{"name":"Nelkenweg","postalCode":"79364","locality":"Malterdingen","municipality":{"key":"08316024","name":"Malterdingen","type":"Kreisangehörige_Gemeinde"},"district":{"key":"08316","name":"Emmendingen","type":"Landkreis"},"federalState":{"key":"08","name":"Baden-Württemberg"}},{"name":"Oberer Künzlisbergweg","postalCode":"79364","locality":"Malterdingen","municipality":{"key":"08316024","name":"Malterdingen","type":"Kreisangehörige_Gemeinde"},"district":{"key":"08316","name":"Emmendingen","type":"Landkreis"},"federalState":{"key":"08","name":"Baden-Württemberg"}},{"name":"Oberer Spitzwaldweg","postalCode":"79364","locality":"Malterdingen","municipality":{"key":"08316024","name":"Malterdingen","type":"Kreisangehörige_Gemeinde"},"district":{"key":"08316","name":"Emmendingen","type":"Landkreis"},"federalState":{"key":"08","name":"Baden-Württemberg"}},{"name":"Oberer Wannengrabenweg","postalCode":"79364","locality":"Malterdingen","municipality":{"key":"08316024","name":"Malterdingen","type":"Kreisangehörige_Gemeinde"},"district":{"key":"08316","name":"Emmendingen","type":"Landkreis"},"federalState":{"key":"08","name":"Baden-Württemberg"}},{"name":"Peterhof","postalCode":"79364","locality":"Malterdingen","municipality":{"key":"08316024","name":"Malterdingen","type":"Kreisangehörige_Gemeinde"},"district":{"key":"08316","name":"Emmendingen","type":"Landkreis"},"federalState":{"key":"08","name":"Baden-Württemberg"}},{"name":"Pfaffenwaldweg","postalCode":"79364","locality":"Malterdingen","municipality":{"key":"08316024","name":"Malterdingen","type":"Kreisangehörige_Gemeinde"},"district":{"key":"08316","name":"Emmendingen","type":"Landkreis"},"federalState":{"key":"08","name":"Baden-Württemberg"}},{"name":"Pfannenstielweg","postalCode":"79364","locality":"Malterdingen","municipality":{"key":"08316024","name":"Malterdingen","type":"Kreisangehörige_Gemeinde"},"district":{"key":"08316","name":"Emmendingen","type":"Landkreis"},"federalState":{"key":"08","name":"Baden-Württemberg"}},{"name":"Quellenweg","postalCode":"79312","locality":"Emmendingen","municipality":{"key":"08316011","name":"Emmendingen, Stadt","type":"Große_Kreisstadt"},"district":{"key":"08316","name":"Emmendingen","type":"Landkreis"},"federalState":{"key":"08","name":"Baden-Württemberg"}},{"name":"Querstr.","postalCode":"79312","locality":"Emmendingen","municipality":{"key":"08316011","name":"Emmendingen, Stadt","type":"Große_Kreisstadt"},"district":{"key":"08316","name":"Emmendingen","type":"Landkreis"},"federalState":{"key":"08","name":"Baden-Württemberg"}},{"name":"Ribolinshaldenweg","postalCode":"79364","locality":"Malterdingen","municipality":{"key":"08316024","name":"Malterdingen","type":"Kreisangehörige_Gemeinde"},"district":{"key":"08316","name":"Emmendingen","type":"Landkreis"},"federalState":{"key":"08","name":"Baden-Württemberg"}},{"name":"Riedhofstr.","postalCode":"79364","locality":"Malterdingen","municipality":{"key":"08316024","name":"Malterdingen","type":"Kreisangehörige_Gemeinde"},"district":{"key":"08316","name":"Emmendingen","type":"Landkreis"},"federalState":{"key":"08","name":"Baden-Württemberg"}},{"name":"Riegeler Str.","postalCode":"79364","locality":"Malterdingen","municipality":{"key":"08316024","name":"Malterdingen","type":"Kreisangehörige_Gemeinde"},"district":{"key":"08316","name":"Emmendingen","type":"Landkreis"},"federalState":{"key":"08","name":"Baden-Württemberg"}},{"name":"Rotenbuckweg","postalCode":"79364","locality":"Malterdingen","municipality":{"key":"08316024","name":"Malterdingen","type":"Kreisangehörige_Gemeinde"},"district":{"key":"08316","name":"Emmendingen","type":"Landkreis"},"federalState":{"key":"08","name":"Baden-Württemberg"}},{"name":"Rotlaubweg","postalCode":"79364","locality":"Malterdingen","municipality":{"key":"08316024","name":"Malterdingen","type":"Kreisangehörige_Gemeinde"},"district":{"key":"08316","name":"Emmendingen","type":"Landkreis"},"federalState":{"key":"08","name":"Baden-Württemberg"}},{"name":"Schlüpfingerhofweg","postalCode":"79364","locality":"Malterdingen","municipality":{"key":"08316024","name":"Malterdingen","type":"Kreisangehörige_Gemeinde"},"district":{"key":"08316","name":"Emmendingen","type":"Landkreis"},"federalState":{"key":"08","name":"Baden-Württemberg"}},{"name":"Schmiedstr.","postalCode":"79364","locality":"Malterdingen","municipality":{"key":"08316024","name":"Malterdingen","type":"Kreisangehörige_Gemeinde"},"district":{"key":"08316","name":"Emmendingen","type":"Landkreis"},"federalState":{"key":"08","name":"Baden-Württemberg"}},{"name":"Schulstr.","postalCode":"79364","locality":"Malterdingen","municipality":{"key":"08316024","name":"Malterdingen","type":"Kreisangehörige_Gemeinde"},"district":{"key":"08316","name":"Emmendingen","type":"Landkreis"},"federalState":{"key":"08","name":"Baden-Württemberg"}},{"name":"Schwabentalkinzig","postalCode":"79364","locality":"Malterdingen","municipality":{"key":"08316024","name":"Malterdingen","type":"Kreisangehörige_Gemeinde"},"district":{"key":"08316","name":"Emmendingen","type":"Landkreis"},"federalState":{"key":"08","name":"Baden-Württemberg"}},{"name":"Seilerkinzig","postalCode":"79364","locality":"Malterdingen","municipality":{"key":"08316024","name":"Malterdingen","type":"Kreisangehörige_Gemeinde"},"district":{"key":"08316","name":"Emmendingen","type":"Landkreis"},"federalState":{"key":"08","name":"Baden-Württemberg"}},{"name":"Stöckstr.","postalCode":"79364","locality":"Malterdingen","municipality":{"key":"08316024","name":"Malterdingen","type":"Kreisangehörige_Gemeinde"},"district":{"key":"08316","name":"Emmendingen","type":"Landkreis"},"federalState":{"key":"08","name":"Baden-Württemberg"}},{"name":"Suppengasse","postalCode":"79364","locality":"Malterdingen","municipality":{"key":"08316024","name":"Malterdingen","type":"Kreisangehörige_Gemeinde"},"district":{"key":"08316","name":"Emmendingen","type":"Landkreis"},"federalState":{"key":"08","name":"Baden-Württemberg"}},{"name":"Talmweg","postalCode":"79364","locality":"Malterdingen","municipality":{"key":"08316024","name":"Malterdingen","type":"Kreisangehörige_Gemeinde"},"district":{"key":"08316","name":"Emmendingen","type":"Landkreis"},"federalState":{"key":"08","name":"Baden-Württemberg"}},{"name":"Tulpenweg","postalCode":"79364","locality":"Malterdingen","municipality":{"key":"08316024","name":"Malterdingen","type":"Kreisangehörige_Gemeinde"},"district":{"key":"08316","name":"Emmendingen","type":"Landkreis"},"federalState":{"key":"08","name":"Baden-Württemberg"}},{"name":"Unterer Wolfentalweg","postalCode":"79364","locality":"Malterdingen","municipality":{"key":"08316024","name":"Malterdingen","type":"Kreisangehörige_Gemeinde"},"district":{"key":"08316","name":"Emmendingen","type":"Landkreis"},"federalState":{"key":"08","name":"Baden-Württemberg"}},{"name":"Unterwald","postalCode":"79364","locality":"Malterdingen","municipality":{"key":"08316024","name":"Malterdingen","type":"Kreisangehörige_Gemeinde"},"district":{"key":"08316","name":"Emmendingen","type":"Landkreis"},"federalState":{"key":"08","name":"Baden-Württemberg"}},{"name":"Vierburgenweg","postalCode":"79364","locality":"Malterdingen","municipality":{"key":"08316024","name":"Malterdingen","type":"Kreisangehörige_Gemeinde"},"district":{"key":"08316","name":"Emmendingen","type":"Landkreis"},"federalState":{"key":"08","name":"Baden-Württemberg"}},{"name":"Vogtweg","postalCode":"79364","locality":"Malterdingen","municipality":{"key":"08316024","name":"Malterdingen","type":"Kreisangehörige_Gemeinde"},"district":{"key":"08316","name":"Emmendingen","type":"Landkreis"},"federalState":{"key":"08","name":"Baden-Württemberg"}},{"name":"Wannengraben","postalCode":"79364","locality":"Malterdingen","municipality":{"key":"08316024","name":"Malterdingen","type":"Kreisangehörige_Gemeinde"},"district":{"key":"08316","name":"Emmendingen","type":"Landkreis"},"federalState":{"key":"08","name":"Baden-Württemberg"}},{"name":"Wiedenwaldweg","postalCode":"79364","locality":"Malterdingen","municipality":{"key":"08316024","name":"Malterdingen","type":"Kreisangehörige_Gemeinde"},"district":{"key":"08316","name":"Emmendingen","type":"Landkreis"},"federalState":{"key":"08","name":"Baden-Württemberg"}},{"name":"Wiesenstr.","postalCode":"79364","locality":"Malterdingen","municipality":{"key":"08316024","name":"Malterdingen","type":"Kreisangehörige_Gemeinde"},"district":{"key":"08316","name":"Emmendingen","type":"Landkreis"},"federalState":{"key":"08","name":"Baden-Württemberg"}},{"name":"Winklerweg","postalCode":"79364","locality":"Malterdingen","municipality":{"key":"08316024","name":"Malterdingen","type":"Kreisangehörige_Gemeinde"},"district":{"key":"08316","name":"Emmendingen","type":"Landkreis"},"federalState":{"key":"08","name":"Baden-Württemberg"}},{"name":"Wolfentalweg","postalCode":"79364","locality":"Malterdingen","municipality":{"key":"08316024","name":"Malterdingen","type":"Kreisangehörige_Gemeinde"},"district":{"key":"08316","name":"Emmendingen","type":"Landkreis"},"federalState":{"key":"08","name":"Baden-Württemberg"}},{"name":"Wuhrmatten","postalCode":"79364","locality":"Malterdingen","municipality":{"key":"08316024","name":"Malterdingen","type":"Kreisangehörige_Gemeinde"},"district":{"key":"08316","name":"Emmendingen","type":"Landkreis"},"federalState":{"key":"08","name":"Baden-Württemberg"}},{"name":"Zehnthof","postalCode":"79364","locality":"Malterdingen","municipality":{"key":"08316024","name":"Malterdingen","type":"Kreisangehörige_Gemeinde"},"district":{"key":"08316","name":"Emmendingen","type":"Landkreis"},"federalState":{"key":"08","name":"Baden-Württemberg"}},{"name":"Zur Adelgrube","postalCode":"79364","locality":"Malterdingen","municipality":{"key":"08316024","name":"Malterdingen","type":"Kreisangehörige_Gemeinde"},"district":{"key":"08316","name":"Emmendingen","type":"Landkreis"},"federalState":{"key":"08","name":"Baden-Württemberg"}},{"name":"Über der Elz","postalCode":"79312","locality":"Emmendingen","municipality":{"key":"08316011","name":"Emmendingen, Stadt","type":"Große_Kreisstadt"},"district":{"key":"08316","name":"Emmendingen","type":"Landkreis"},"federalState":{"key":"08","name":"Baden-Württemberg"}},]