[{"name":"Albert-Funk-Siedlung","postalCode":"08132","locality":"Mülsen","municipality":{"key":"14524200","name":"Mülsen","type":"Kreisangehörige_Gemeinde"},"district":{"key":"14524","name":"Zwickau","type":"Landkreis"},"federalState":{"key":"14","name":"Sachsen"}},{"name":"Alte Dorfstr.","postalCode":"08132","locality":"Mülsen","municipality":{"key":"14524200","name":"Mülsen","type":"Kreisangehörige_Gemeinde"},"district":{"key":"14524","name":"Zwickau","type":"Landkreis"},"federalState":{"key":"14","name":"Sachsen"}},{"name":"Alter Bahndamm","postalCode":"08132","locality":"Mülsen","municipality":{"key":"14524200","name":"Mülsen","type":"Kreisangehörige_Gemeinde"},"district":{"key":"14524","name":"Zwickau","type":"Landkreis"},"federalState":{"key":"14","name":"Sachsen"}},{"name":"Alte Schulstr.","postalCode":"08132","locality":"Mülsen","municipality":{"key":"14524200","name":"Mülsen","type":"Kreisangehörige_Gemeinde"},"district":{"key":"14524","name":"Zwickau","type":"Landkreis"},"federalState":{"key":"14","name":"Sachsen"}},{"name":"Alte Siedlung","postalCode":"08132","locality":"Mülsen","municipality":{"key":"14524200","name":"Mülsen","type":"Kreisangehörige_Gemeinde"},"district":{"key":"14524","name":"Zwickau","type":"Landkreis"},"federalState":{"key":"14","name":"Sachsen"}},{"name":"Am Bahndamm","postalCode":"08132","locality":"Mülsen","municipality":{"key":"14524200","name":"Mülsen","type":"Kreisangehörige_Gemeinde"},"district":{"key":"14524","name":"Zwickau","type":"Landkreis"},"federalState":{"key":"14","name":"Sachsen"}},{"name":"Am Brandberg","postalCode":"08132","locality":"Mülsen","municipality":{"key":"14524200","name":"Mülsen","type":"Kreisangehörige_Gemeinde"},"district":{"key":"14524","name":"Zwickau","type":"Landkreis"},"federalState":{"key":"14","name":"Sachsen"}},{"name":"Am Feuerwehrhaus","postalCode":"08132","locality":"Mülsen","municipality":{"key":"14524200","name":"Mülsen","type":"Kreisangehörige_Gemeinde"},"district":{"key":"14524","name":"Zwickau","type":"Landkreis"},"federalState":{"key":"14","name":"Sachsen"}},{"name":"Am Grubenberg","postalCode":"08132","locality":"Mülsen","municipality":{"key":"14524200","name":"Mülsen","type":"Kreisangehörige_Gemeinde"},"district":{"key":"14524","name":"Zwickau","type":"Landkreis"},"federalState":{"key":"14","name":"Sachsen"}},{"name":"Am Gutshof","postalCode":"08132","locality":"Mülsen","municipality":{"key":"14524200","name":"Mülsen","type":"Kreisangehörige_Gemeinde"},"district":{"key":"14524","name":"Zwickau","type":"Landkreis"},"federalState":{"key":"14","name":"Sachsen"}},{"name":"Am Hang","postalCode":"08132","locality":"Mülsen","municipality":{"key":"14524200","name":"Mülsen","type":"Kreisangehörige_Gemeinde"},"district":{"key":"14524","name":"Zwickau","type":"Landkreis"},"federalState":{"key":"14","name":"Sachsen"}},{"name":"Am Hausteich","postalCode":"08132","locality":"Mülsen","municipality":{"key":"14524200","name":"Mülsen","type":"Kreisangehörige_Gemeinde"},"district":{"key":"14524","name":"Zwickau","type":"Landkreis"},"federalState":{"key":"14","name":"Sachsen"}},{"name":"Am Leithenberg","postalCode":"08132","locality":"Mülsen","municipality":{"key":"14524200","name":"Mülsen","type":"Kreisangehörige_Gemeinde"},"district":{"key":"14524","name":"Zwickau","type":"Landkreis"},"federalState":{"key":"14","name":"Sachsen"}},{"name":"Am Rathaus","postalCode":"08132","locality":"Mülsen","municipality":{"key":"14524200","name":"Mülsen","type":"Kreisangehörige_Gemeinde"},"district":{"key":"14524","name":"Zwickau","type":"Landkreis"},"federalState":{"key":"14","name":"Sachsen"}},{"name":"Am Ring","postalCode":"08132","locality":"Mülsen","municipality":{"key":"14524200","name":"Mülsen","type":"Kreisangehörige_Gemeinde"},"district":{"key":"14524","name":"Zwickau","type":"Landkreis"},"federalState":{"key":"14","name":"Sachsen"}},{"name":"Am Schlosspark","postalCode":"08132","locality":"Mülsen","municipality":{"key":"14524200","name":"Mülsen","type":"Kreisangehörige_Gemeinde"},"district":{"key":"14524","name":"Zwickau","type":"Landkreis"},"federalState":{"key":"14","name":"Sachsen"}},{"name":"Am Schrebergarten","postalCode":"08132","locality":"Mülsen","municipality":{"key":"14524200","name":"Mülsen","type":"Kreisangehörige_Gemeinde"},"district":{"key":"14524","name":"Zwickau","type":"Landkreis"},"federalState":{"key":"14","name":"Sachsen"}},{"name":"Am Sportplatz","postalCode":"08132","locality":"Mülsen","municipality":{"key":"14524200","name":"Mülsen","type":"Kreisangehörige_Gemeinde"},"district":{"key":"14524","name":"Zwickau","type":"Landkreis"},"federalState":{"key":"14","name":"Sachsen"}},{"name":"Am Sportzentrum","postalCode":"08132","locality":"Mülsen","municipality":{"key":"14524200","name":"Mülsen","type":"Kreisangehörige_Gemeinde"},"district":{"key":"14524","name":"Zwickau","type":"Landkreis"},"federalState":{"key":"14","name":"Sachsen"}},{"name":"Am Tempel","postalCode":"08132","locality":"Mülsen","municipality":{"key":"14524200","name":"Mülsen","type":"Kreisangehörige_Gemeinde"},"district":{"key":"14524","name":"Zwickau","type":"Landkreis"},"federalState":{"key":"14","name":"Sachsen"}},{"name":"Am Turnplatz","postalCode":"08132","locality":"Mülsen","municipality":{"key":"14524200","name":"Mülsen","type":"Kreisangehörige_Gemeinde"},"district":{"key":"14524","name":"Zwickau","type":"Landkreis"},"federalState":{"key":"14","name":"Sachsen"}},{"name":"An der Alten Brauerei","postalCode":"08132","locality":"Mülsen","municipality":{"key":"14524200","name":"Mülsen","type":"Kreisangehörige_Gemeinde"},"district":{"key":"14524","name":"Zwickau","type":"Landkreis"},"federalState":{"key":"14","name":"Sachsen"}},{"name":"An der Festscheune","postalCode":"08132","locality":"Mülsen","municipality":{"key":"14524200","name":"Mülsen","type":"Kreisangehörige_Gemeinde"},"district":{"key":"14524","name":"Zwickau","type":"Landkreis"},"federalState":{"key":"14","name":"Sachsen"}},{"name":"An der Kirche","postalCode":"08132","locality":"Mülsen","municipality":{"key":"14524200","name":"Mülsen","type":"Kreisangehörige_Gemeinde"},"district":{"key":"14524","name":"Zwickau","type":"Landkreis"},"federalState":{"key":"14","name":"Sachsen"}},{"name":"An der Linde","postalCode":"08132","locality":"Mülsen","municipality":{"key":"14524200","name":"Mülsen","type":"Kreisangehörige_Gemeinde"},"district":{"key":"14524","name":"Zwickau","type":"Landkreis"},"federalState":{"key":"14","name":"Sachsen"}},{"name":"Anger","postalCode":"08132","locality":"Mülsen","municipality":{"key":"14524200","name":"Mülsen","type":"Kreisangehörige_Gemeinde"},"district":{"key":"14524","name":"Zwickau","type":"Landkreis"},"federalState":{"key":"14","name":"Sachsen"}},{"name":"Auerbacher Str.","postalCode":"08132","locality":"Mülsen","municipality":{"key":"14524200","name":"Mülsen","type":"Kreisangehörige_Gemeinde"},"district":{"key":"14524","name":"Zwickau","type":"Landkreis"},"federalState":{"key":"14","name":"Sachsen"}},{"name":"August-Bebel-Str.","postalCode":"08132","locality":"Mülsen","municipality":{"key":"14524200","name":"Mülsen","type":"Kreisangehörige_Gemeinde"},"district":{"key":"14524","name":"Zwickau","type":"Landkreis"},"federalState":{"key":"14","name":"Sachsen"}},{"name":"Außenring","postalCode":"08132","locality":"Mülsen","municipality":{"key":"14524200","name":"Mülsen","type":"Kreisangehörige_Gemeinde"},"district":{"key":"14524","name":"Zwickau","type":"Landkreis"},"federalState":{"key":"14","name":"Sachsen"}},{"name":"Bachgasse","postalCode":"08132","locality":"Mülsen","municipality":{"key":"14524200","name":"Mülsen","type":"Kreisangehörige_Gemeinde"},"district":{"key":"14524","name":"Zwickau","type":"Landkreis"},"federalState":{"key":"14","name":"Sachsen"}},{"name":"Baumschulenweg","postalCode":"08132","locality":"Mülsen","municipality":{"key":"14524200","name":"Mülsen","type":"Kreisangehörige_Gemeinde"},"district":{"key":"14524","name":"Zwickau","type":"Landkreis"},"federalState":{"key":"14","name":"Sachsen"}},{"name":"Bergstr.","postalCode":"08132","locality":"Mülsen","municipality":{"key":"14524200","name":"Mülsen","type":"Kreisangehörige_Gemeinde"},"district":{"key":"14524","name":"Zwickau","type":"Landkreis"},"federalState":{"key":"14","name":"Sachsen"}},{"name":"Berthelsdorfer Str.","postalCode":"08132","locality":"Mülsen","municipality":{"key":"14524200","name":"Mülsen","type":"Kreisangehörige_Gemeinde"},"district":{"key":"14524","name":"Zwickau","type":"Landkreis"},"federalState":{"key":"14","name":"Sachsen"}},{"name":"Blumenweg","postalCode":"08132","locality":"Mülsen","municipality":{"key":"14524200","name":"Mülsen","type":"Kreisangehörige_Gemeinde"},"district":{"key":"14524","name":"Zwickau","type":"Landkreis"},"federalState":{"key":"14","name":"Sachsen"}},{"name":"Brauereiweg","postalCode":"08132","locality":"Mülsen","municipality":{"key":"14524200","name":"Mülsen","type":"Kreisangehörige_Gemeinde"},"district":{"key":"14524","name":"Zwickau","type":"Landkreis"},"federalState":{"key":"14","name":"Sachsen"}},{"name":"Brückenstr.","postalCode":"08132","locality":"Mülsen","municipality":{"key":"14524200","name":"Mülsen","type":"Kreisangehörige_Gemeinde"},"district":{"key":"14524","name":"Zwickau","type":"Landkreis"},"federalState":{"key":"14","name":"Sachsen"}},{"name":"Brunnergasse","postalCode":"08132","locality":"Mülsen","municipality":{"key":"14524200","name":"Mülsen","type":"Kreisangehörige_Gemeinde"},"district":{"key":"14524","name":"Zwickau","type":"Landkreis"},"federalState":{"key":"14","name":"Sachsen"}},{"name":"Burgstr.","postalCode":"08132","locality":"Mülsen","municipality":{"key":"14524200","name":"Mülsen","type":"Kreisangehörige_Gemeinde"},"district":{"key":"14524","name":"Zwickau","type":"Landkreis"},"federalState":{"key":"14","name":"Sachsen"}},{"name":"Crossener Str.","postalCode":"08132","locality":"Mülsen","municipality":{"key":"14524200","name":"Mülsen","type":"Kreisangehörige_Gemeinde"},"district":{"key":"14524","name":"Zwickau","type":"Landkreis"},"federalState":{"key":"14","name":"Sachsen"}},{"name":"Dresdner Str.","postalCode":"08132","locality":"Mülsen","municipality":{"key":"14524200","name":"Mülsen","type":"Kreisangehörige_Gemeinde"},"district":{"key":"14524","name":"Zwickau","type":"Landkreis"},"federalState":{"key":"14","name":"Sachsen"}},{"name":"Ernst-Schneller-Str.","postalCode":"08132","locality":"Mülsen","municipality":{"key":"14524200","name":"Mülsen","type":"Kreisangehörige_Gemeinde"},"district":{"key":"14524","name":"Zwickau","type":"Landkreis"},"federalState":{"key":"14","name":"Sachsen"}},{"name":"Feldstr.","postalCode":"08132","locality":"Mülsen","municipality":{"key":"14524200","name":"Mülsen","type":"Kreisangehörige_Gemeinde"},"district":{"key":"14524","name":"Zwickau","type":"Landkreis"},"federalState":{"key":"14","name":"Sachsen"}},{"name":"Feldweg nach Stangendorf","postalCode":"08132","locality":"Mülsen","municipality":{"key":"14524200","name":"Mülsen","type":"Kreisangehörige_Gemeinde"},"district":{"key":"14524","name":"Zwickau","type":"Landkreis"},"federalState":{"key":"14","name":"Sachsen"}},{"name":"Finkenweg","postalCode":"08132","locality":"Mülsen","municipality":{"key":"14524200","name":"Mülsen","type":"Kreisangehörige_Gemeinde"},"district":{"key":"14524","name":"Zwickau","type":"Landkreis"},"federalState":{"key":"14","name":"Sachsen"}},{"name":"Flurstr.","postalCode":"08132","locality":"Mülsen","municipality":{"key":"14524200","name":"Mülsen","type":"Kreisangehörige_Gemeinde"},"district":{"key":"14524","name":"Zwickau","type":"Landkreis"},"federalState":{"key":"14","name":"Sachsen"}},{"name":"Forsthaus","postalCode":"08132","locality":"Mülsen","municipality":{"key":"14524200","name":"Mülsen","type":"Kreisangehörige_Gemeinde"},"district":{"key":"14524","name":"Zwickau","type":"Landkreis"},"federalState":{"key":"14","name":"Sachsen"}},{"name":"Friedhofsweg","postalCode":"08132","locality":"Mülsen","municipality":{"key":"14524200","name":"Mülsen","type":"Kreisangehörige_Gemeinde"},"district":{"key":"14524","name":"Zwickau","type":"Landkreis"},"federalState":{"key":"14","name":"Sachsen"}},{"name":"Fürstenstr.","postalCode":"08132","locality":"Mülsen","municipality":{"key":"14524200","name":"Mülsen","type":"Kreisangehörige_Gemeinde"},"district":{"key":"14524","name":"Zwickau","type":"Landkreis"},"federalState":{"key":"14","name":"Sachsen"}},{"name":"Gartenstr.","postalCode":"08132","locality":"Mülsen","municipality":{"key":"14524200","name":"Mülsen","type":"Kreisangehörige_Gemeinde"},"district":{"key":"14524","name":"Zwickau","type":"Landkreis"},"federalState":{"key":"14","name":"Sachsen"}},{"name":"Gartenweg","postalCode":"08132","locality":"Mülsen","municipality":{"key":"14524200","name":"Mülsen","type":"Kreisangehörige_Gemeinde"},"district":{"key":"14524","name":"Zwickau","type":"Landkreis"},"federalState":{"key":"14","name":"Sachsen"}},{"name":"Gärtnerweg","postalCode":"08132","locality":"Mülsen","municipality":{"key":"14524200","name":"Mülsen","type":"Kreisangehörige_Gemeinde"},"district":{"key":"14524","name":"Zwickau","type":"Landkreis"},"federalState":{"key":"14","name":"Sachsen"}},{"name":"Gasse","postalCode":"08132","locality":"Mülsen","municipality":{"key":"14524200","name":"Mülsen","type":"Kreisangehörige_Gemeinde"},"district":{"key":"14524","name":"Zwickau","type":"Landkreis"},"federalState":{"key":"14","name":"Sachsen"}},{"name":"Geheimnisvoller Weg","postalCode":"08132","locality":"Mülsen","municipality":{"key":"14524200","name":"Mülsen","type":"Kreisangehörige_Gemeinde"},"district":{"key":"14524","name":"Zwickau","type":"Landkreis"},"federalState":{"key":"14","name":"Sachsen"}},{"name":"Gewerbegebiet Lippoldsruh","postalCode":"08132","locality":"Mülsen","municipality":{"key":"14524200","name":"Mülsen","type":"Kreisangehörige_Gemeinde"},"district":{"key":"14524","name":"Zwickau","type":"Landkreis"},"federalState":{"key":"14","name":"Sachsen"}},{"name":"Gottlieb-Thümmler-Weg","postalCode":"08132","locality":"Mülsen","municipality":{"key":"14524200","name":"Mülsen","type":"Kreisangehörige_Gemeinde"},"district":{"key":"14524","name":"Zwickau","type":"Landkreis"},"federalState":{"key":"14","name":"Sachsen"}},{"name":"Grenzweg","postalCode":"08132","locality":"Mülsen","municipality":{"key":"14524200","name":"Mülsen","type":"Kreisangehörige_Gemeinde"},"district":{"key":"14524","name":"Zwickau","type":"Landkreis"},"federalState":{"key":"14","name":"Sachsen"}},{"name":"Grüne Aue","postalCode":"08132","locality":"Mülsen","municipality":{"key":"14524200","name":"Mülsen","type":"Kreisangehörige_Gemeinde"},"district":{"key":"14524","name":"Zwickau","type":"Landkreis"},"federalState":{"key":"14","name":"Sachsen"}},{"name":"Heinrichsorter Str.","postalCode":"08132","locality":"Mülsen","municipality":{"key":"14524200","name":"Mülsen","type":"Kreisangehörige_Gemeinde"},"district":{"key":"14524","name":"Zwickau","type":"Landkreis"},"federalState":{"key":"14","name":"Sachsen"}},{"name":"Herbergeweg","postalCode":"08132","locality":"Mülsen","municipality":{"key":"14524200","name":"Mülsen","type":"Kreisangehörige_Gemeinde"},"district":{"key":"14524","name":"Zwickau","type":"Landkreis"},"federalState":{"key":"14","name":"Sachsen"}},{"name":"Herbert-Heft-Str.","postalCode":"08132","locality":"Mülsen","municipality":{"key":"14524200","name":"Mülsen","type":"Kreisangehörige_Gemeinde"},"district":{"key":"14524","name":"Zwickau","type":"Landkreis"},"federalState":{"key":"14","name":"Sachsen"}},{"name":"Industrierandstr.","postalCode":"08060","locality":"Zwickau","municipality":{"key":"14524330","name":"Zwickau, Stadt","type":"Stadt"},"district":{"key":"14524","name":"Zwickau","type":"Landkreis"},"federalState":{"key":"14","name":"Sachsen"}},{"name":"Innere Schneeberger Str.","postalCode":"08056","locality":"Zwickau","municipality":{"key":"14524330","name":"Zwickau, Stadt","type":"Stadt"},"district":{"key":"14524","name":"Zwickau","type":"Landkreis"},"federalState":{"key":"14","name":"Sachsen"}},{"name":"Innere Zwickauer Str.","postalCode":"08056","locality":"Zwickau","municipality":{"key":"14524330","name":"Zwickau, Stadt","type":"Stadt"},"district":{"key":"14524","name":"Zwickau","type":"Landkreis"},"federalState":{"key":"14","name":"Sachsen"}},{"name":"Innere Zwickauer Str.","postalCode":"08062","locality":"Zwickau","municipality":{"key":"14524330","name":"Zwickau, Stadt","type":"Stadt"},"district":{"key":"14524","name":"Zwickau","type":"Landkreis"},"federalState":{"key":"14","name":"Sachsen"}},{"name":"Innere Zwickauer Str.","postalCode":"08064","locality":"Zwickau","municipality":{"key":"14524330","name":"Zwickau, Stadt","type":"Stadt"},"district":{"key":"14524","name":"Zwickau","type":"Landkreis"},"federalState":{"key":"14","name":"Sachsen"}},{"name":"Jacobusstr.","postalCode":"08132","locality":"Mülsen","municipality":{"key":"14524200","name":"Mülsen","type":"Kreisangehörige_Gemeinde"},"district":{"key":"14524","name":"Zwickau","type":"Landkreis"},"federalState":{"key":"14","name":"Sachsen"}},{"name":"Johann-Jacob-Schramm-Str.","postalCode":"08132","locality":"Mülsen","municipality":{"key":"14524200","name":"Mülsen","type":"Kreisangehörige_Gemeinde"},"district":{"key":"14524","name":"Zwickau","type":"Landkreis"},"federalState":{"key":"14","name":"Sachsen"}},{"name":"Kirchsteig","postalCode":"08132","locality":"Mülsen","municipality":{"key":"14524200","name":"Mülsen","type":"Kreisangehörige_Gemeinde"},"district":{"key":"14524","name":"Zwickau","type":"Landkreis"},"federalState":{"key":"14","name":"Sachsen"}},{"name":"Kleine Gasse","postalCode":"08132","locality":"Mülsen","municipality":{"key":"14524200","name":"Mülsen","type":"Kreisangehörige_Gemeinde"},"district":{"key":"14524","name":"Zwickau","type":"Landkreis"},"federalState":{"key":"14","name":"Sachsen"}},{"name":"Klingeweg","postalCode":"08132","locality":"Mülsen","municipality":{"key":"14524200","name":"Mülsen","type":"Kreisangehörige_Gemeinde"},"district":{"key":"14524","name":"Zwickau","type":"Landkreis"},"federalState":{"key":"14","name":"Sachsen"}},{"name":"Lange Wand","postalCode":"08132","locality":"Mülsen","municipality":{"key":"14524200","name":"Mülsen","type":"Kreisangehörige_Gemeinde"},"district":{"key":"14524","name":"Zwickau","type":"Landkreis"},"federalState":{"key":"14","name":"Sachsen"}},{"name":"Lerchenweg","postalCode":"08132","locality":"Mülsen","municipality":{"key":"14524200","name":"Mülsen","type":"Kreisangehörige_Gemeinde"},"district":{"key":"14524","name":"Zwickau","type":"Landkreis"},"federalState":{"key":"14","name":"Sachsen"}},{"name":"Lichtensteiner Str.","postalCode":"08132","locality":"Mülsen","municipality":{"key":"14524200","name":"Mülsen","type":"Kreisangehörige_Gemeinde"},"district":{"key":"14524","name":"Zwickau","type":"Landkreis"},"federalState":{"key":"14","name":"Sachsen"}},{"name":"Lindengasse","postalCode":"08132","locality":"Mülsen","municipality":{"key":"14524200","name":"Mülsen","type":"Kreisangehörige_Gemeinde"},"district":{"key":"14524","name":"Zwickau","type":"Landkreis"},"federalState":{"key":"14","name":"Sachsen"}},{"name":"Lindenstr.","postalCode":"08132","locality":"Mülsen","municipality":{"key":"14524200","name":"Mülsen","type":"Kreisangehörige_Gemeinde"},"district":{"key":"14524","name":"Zwickau","type":"Landkreis"},"federalState":{"key":"14","name":"Sachsen"}},{"name":"Lindenweg","postalCode":"08132","locality":"Mülsen","municipality":{"key":"14524200","name":"Mülsen","type":"Kreisangehörige_Gemeinde"},"district":{"key":"14524","name":"Zwickau","type":"Landkreis"},"federalState":{"key":"14","name":"Sachsen"}},{"name":"Lippoldsruh","postalCode":"08132","locality":"Mülsen","municipality":{"key":"14524200","name":"Mülsen","type":"Kreisangehörige_Gemeinde"},"district":{"key":"14524","name":"Zwickau","type":"Landkreis"},"federalState":{"key":"14","name":"Sachsen"}},{"name":"Ludwig-Jahn-Str.","postalCode":"08132","locality":"Mülsen","municipality":{"key":"14524200","name":"Mülsen","type":"Kreisangehörige_Gemeinde"},"district":{"key":"14524","name":"Zwickau","type":"Landkreis"},"federalState":{"key":"14","name":"Sachsen"}},{"name":"Marienauer Str.","postalCode":"08132","locality":"Mülsen","municipality":{"key":"14524200","name":"Mülsen","type":"Kreisangehörige_Gemeinde"},"district":{"key":"14524","name":"Zwickau","type":"Landkreis"},"federalState":{"key":"14","name":"Sachsen"}},{"name":"Marktsteig","postalCode":"08132","locality":"Mülsen","municipality":{"key":"14524200","name":"Mülsen","type":"Kreisangehörige_Gemeinde"},"district":{"key":"14524","name":"Zwickau","type":"Landkreis"},"federalState":{"key":"14","name":"Sachsen"}},{"name":"Max-Sachse-Str.","postalCode":"08132","locality":"Mülsen","municipality":{"key":"14524200","name":"Mülsen","type":"Kreisangehörige_Gemeinde"},"district":{"key":"14524","name":"Zwickau","type":"Landkreis"},"federalState":{"key":"14","name":"Sachsen"}},{"name":"Mittelstr.","postalCode":"08132","locality":"Mülsen","municipality":{"key":"14524200","name":"Mülsen","type":"Kreisangehörige_Gemeinde"},"district":{"key":"14524","name":"Zwickau","type":"Landkreis"},"federalState":{"key":"14","name":"Sachsen"}},{"name":"Mühlenstr.","postalCode":"08132","locality":"Mülsen","municipality":{"key":"14524200","name":"Mülsen","type":"Kreisangehörige_Gemeinde"},"district":{"key":"14524","name":"Zwickau","type":"Landkreis"},"federalState":{"key":"14","name":"Sachsen"}},{"name":"Mülsener Str.","postalCode":"08132","locality":"Mülsen","municipality":{"key":"14524200","name":"Mülsen","type":"Kreisangehörige_Gemeinde"},"district":{"key":"14524","name":"Zwickau","type":"Landkreis"},"federalState":{"key":"14","name":"Sachsen"}},{"name":"Neuer Weg","postalCode":"08132","locality":"Mülsen","municipality":{"key":"14524200","name":"Mülsen","type":"Kreisangehörige_Gemeinde"},"district":{"key":"14524","name":"Zwickau","type":"Landkreis"},"federalState":{"key":"14","name":"Sachsen"}},{"name":"Neue Siedlung","postalCode":"08132","locality":"Mülsen","municipality":{"key":"14524200","name":"Mülsen","type":"Kreisangehörige_Gemeinde"},"district":{"key":"14524","name":"Zwickau","type":"Landkreis"},"federalState":{"key":"14","name":"Sachsen"}},{"name":"Neuschönburger Str.","postalCode":"08132","locality":"Mülsen","municipality":{"key":"14524200","name":"Mülsen","type":"Kreisangehörige_Gemeinde"},"district":{"key":"14524","name":"Zwickau","type":"Landkreis"},"federalState":{"key":"14","name":"Sachsen"}},{"name":"Niclaser Steig","postalCode":"08132","locality":"Mülsen","municipality":{"key":"14524200","name":"Mülsen","type":"Kreisangehörige_Gemeinde"},"district":{"key":"14524","name":"Zwickau","type":"Landkreis"},"federalState":{"key":"14","name":"Sachsen"}},{"name":"Niedermülsener Hauptstr.","postalCode":"08132","locality":"Mülsen","municipality":{"key":"14524200","name":"Mülsen","type":"Kreisangehörige_Gemeinde"},"district":{"key":"14524","name":"Zwickau","type":"Landkreis"},"federalState":{"key":"14","name":"Sachsen"}},{"name":"Oberdorf","postalCode":"08132","locality":"Mülsen","municipality":{"key":"14524200","name":"Mülsen","type":"Kreisangehörige_Gemeinde"},"district":{"key":"14524","name":"Zwickau","type":"Landkreis"},"federalState":{"key":"14","name":"Sachsen"}},{"name":"Obere Zwickauer Str.","postalCode":"08132","locality":"Mülsen","municipality":{"key":"14524200","name":"Mülsen","type":"Kreisangehörige_Gemeinde"},"district":{"key":"14524","name":"Zwickau","type":"Landkreis"},"federalState":{"key":"14","name":"Sachsen"}},{"name":"Oelsnitzer Steig","postalCode":"08132","locality":"Mülsen","municipality":{"key":"14524200","name":"Mülsen","type":"Kreisangehörige_Gemeinde"},"district":{"key":"14524","name":"Zwickau","type":"Landkreis"},"federalState":{"key":"14","name":"Sachsen"}},{"name":"Ortmannsdorfer Steig","postalCode":"08132","locality":"Mülsen","municipality":{"key":"14524200","name":"Mülsen","type":"Kreisangehörige_Gemeinde"},"district":{"key":"14524","name":"Zwickau","type":"Landkreis"},"federalState":{"key":"14","name":"Sachsen"}},{"name":"Ortmannsdorfer Str.","postalCode":"08132","locality":"Mülsen","municipality":{"key":"14524200","name":"Mülsen","type":"Kreisangehörige_Gemeinde"},"district":{"key":"14524","name":"Zwickau","type":"Landkreis"},"federalState":{"key":"14","name":"Sachsen"}},{"name":"Otto-Boessneck-Str.","postalCode":"08132","locality":"Mülsen","municipality":{"key":"14524200","name":"Mülsen","type":"Kreisangehörige_Gemeinde"},"district":{"key":"14524","name":"Zwickau","type":"Landkreis"},"federalState":{"key":"14","name":"Sachsen"}},{"name":"Otto-Buchwitz-Str.","postalCode":"08132","locality":"Mülsen","municipality":{"key":"14524200","name":"Mülsen","type":"Kreisangehörige_Gemeinde"},"district":{"key":"14524","name":"Zwickau","type":"Landkreis"},"federalState":{"key":"14","name":"Sachsen"}},{"name":"Platz des Friedens","postalCode":"08132","locality":"Mülsen","municipality":{"key":"14524200","name":"Mülsen","type":"Kreisangehörige_Gemeinde"},"district":{"key":"14524","name":"Zwickau","type":"Landkreis"},"federalState":{"key":"14","name":"Sachsen"}},{"name":"Poststr.","postalCode":"08132","locality":"Mülsen","municipality":{"key":"14524200","name":"Mülsen","type":"Kreisangehörige_Gemeinde"},"district":{"key":"14524","name":"Zwickau","type":"Landkreis"},"federalState":{"key":"14","name":"Sachsen"}},{"name":"Quergasse","postalCode":"08058","locality":"Zwickau","municipality":{"key":"14524330","name":"Zwickau, Stadt","type":"Stadt"},"district":{"key":"14524","name":"Zwickau","type":"Landkreis"},"federalState":{"key":"14","name":"Sachsen"}},{"name":"Querstr.","postalCode":"08056","locality":"Zwickau","municipality":{"key":"14524330","name":"Zwickau, Stadt","type":"Stadt"},"district":{"key":"14524","name":"Zwickau","type":"Landkreis"},"federalState":{"key":"14","name":"Sachsen"}},{"name":"Querweg","postalCode":"08064","locality":"Zwickau","municipality":{"key":"14524330","name":"Zwickau, Stadt","type":"Stadt"},"district":{"key":"14524","name":"Zwickau","type":"Landkreis"},"federalState":{"key":"14","name":"Sachsen"}},{"name":"Rathausweg","postalCode":"08132","locality":"Mülsen","municipality":{"key":"14524200","name":"Mülsen","type":"Kreisangehörige_Gemeinde"},"district":{"key":"14524","name":"Zwickau","type":"Landkreis"},"federalState":{"key":"14","name":"Sachsen"}},{"name":"Reinsdorfer Str.","postalCode":"08132","locality":"Mülsen","municipality":{"key":"14524200","name":"Mülsen","type":"Kreisangehörige_Gemeinde"},"district":{"key":"14524","name":"Zwickau","type":"Landkreis"},"federalState":{"key":"14","name":"Sachsen"}},{"name":"Ringstr.","postalCode":"08132","locality":"Mülsen","municipality":{"key":"14524200","name":"Mülsen","type":"Kreisangehörige_Gemeinde"},"district":{"key":"14524","name":"Zwickau","type":"Landkreis"},"federalState":{"key":"14","name":"Sachsen"}},{"name":"Rümpfweg","postalCode":"08132","locality":"Mülsen","municipality":{"key":"14524200","name":"Mülsen","type":"Kreisangehörige_Gemeinde"},"district":{"key":"14524","name":"Zwickau","type":"Landkreis"},"federalState":{"key":"14","name":"Sachsen"}},{"name":"Sankt Jacober Hauptstr.","postalCode":"08132","locality":"Mülsen","municipality":{"key":"14524200","name":"Mülsen","type":"Kreisangehörige_Gemeinde"},"district":{"key":"14524","name":"Zwickau","type":"Landkreis"},"federalState":{"key":"14","name":"Sachsen"}},{"name":"Sankt Jacober Nebenstr.","postalCode":"08132","locality":"Mülsen","municipality":{"key":"14524200","name":"Mülsen","type":"Kreisangehörige_Gemeinde"},"district":{"key":"14524","name":"Zwickau","type":"Landkreis"},"federalState":{"key":"14","name":"Sachsen"}},{"name":"Sankt Michelner Hauptstr.","postalCode":"08132","locality":"Mülsen","municipality":{"key":"14524200","name":"Mülsen","type":"Kreisangehörige_Gemeinde"},"district":{"key":"14524","name":"Zwickau","type":"Landkreis"},"federalState":{"key":"14","name":"Sachsen"}},{"name":"Sankt Michelner Nebenstr.","postalCode":"08132","locality":"Mülsen","municipality":{"key":"14524200","name":"Mülsen","type":"Kreisangehörige_Gemeinde"},"district":{"key":"14524","name":"Zwickau","type":"Landkreis"},"federalState":{"key":"14","name":"Sachsen"}},{"name":"Schachtstr.","postalCode":"08132","locality":"Mülsen","municipality":{"key":"14524200","name":"Mülsen","type":"Kreisangehörige_Gemeinde"},"district":{"key":"14524","name":"Zwickau","type":"Landkreis"},"federalState":{"key":"14","name":"Sachsen"}},{"name":"Schneeberger Str.","postalCode":"08132","locality":"Mülsen","municipality":{"key":"14524200","name":"Mülsen","type":"Kreisangehörige_Gemeinde"},"district":{"key":"14524","name":"Zwickau","type":"Landkreis"},"federalState":{"key":"14","name":"Sachsen"}},{"name":"Schneppendorfer Str.","postalCode":"08132","locality":"Mülsen","municipality":{"key":"14524200","name":"Mülsen","type":"Kreisangehörige_Gemeinde"},"district":{"key":"14524","name":"Zwickau","type":"Landkreis"},"federalState":{"key":"14","name":"Sachsen"}},{"name":"Schnitzerweg","postalCode":"08132","locality":"Mülsen","municipality":{"key":"14524200","name":"Mülsen","type":"Kreisangehörige_Gemeinde"},"district":{"key":"14524","name":"Zwickau","type":"Landkreis"},"federalState":{"key":"14","name":"Sachsen"}},{"name":"Schulstr.","postalCode":"08132","locality":"Mülsen","municipality":{"key":"14524200","name":"Mülsen","type":"Kreisangehörige_Gemeinde"},"district":{"key":"14524","name":"Zwickau","type":"Landkreis"},"federalState":{"key":"14","name":"Sachsen"}},{"name":"Schulweg","postalCode":"08132","locality":"Mülsen","municipality":{"key":"14524200","name":"Mülsen","type":"Kreisangehörige_Gemeinde"},"district":{"key":"14524","name":"Zwickau","type":"Landkreis"},"federalState":{"key":"14","name":"Sachsen"}},{"name":"Siedlungsweg","postalCode":"08132","locality":"Mülsen","municipality":{"key":"14524200","name":"Mülsen","type":"Kreisangehörige_Gemeinde"},"district":{"key":"14524","name":"Zwickau","type":"Landkreis"},"federalState":{"key":"14","name":"Sachsen"}},{"name":"Sonnenweg","postalCode":"08132","locality":"Mülsen","municipality":{"key":"14524200","name":"Mülsen","type":"Kreisangehörige_Gemeinde"},"district":{"key":"14524","name":"Zwickau","type":"Landkreis"},"federalState":{"key":"14","name":"Sachsen"}},{"name":"Sportplatz","postalCode":"08132","locality":"Mülsen","municipality":{"key":"14524200","name":"Mülsen","type":"Kreisangehörige_Gemeinde"},"district":{"key":"14524","name":"Zwickau","type":"Landkreis"},"federalState":{"key":"14","name":"Sachsen"}},{"name":"Stangendorfer Hauptstr.","postalCode":"08132","locality":"Mülsen","municipality":{"key":"14524200","name":"Mülsen","type":"Kreisangehörige_Gemeinde"},"district":{"key":"14524","name":"Zwickau","type":"Landkreis"},"federalState":{"key":"14","name":"Sachsen"}},{"name":"St. Egidiener Str.","postalCode":"08132","locality":"Mülsen","municipality":{"key":"14524200","name":"Mülsen","type":"Kreisangehörige_Gemeinde"},"district":{"key":"14524","name":"Zwickau","type":"Landkreis"},"federalState":{"key":"14","name":"Sachsen"}},{"name":"St. Jacober Hauptstr.","postalCode":"08132","locality":"Mülsen","municipality":{"key":"14524200","name":"Mülsen","type":"Kreisangehörige_Gemeinde"},"district":{"key":"14524","name":"Zwickau","type":"Landkreis"},"federalState":{"key":"14","name":"Sachsen"}},{"name":"St. Jacober Nebenstr.","postalCode":"08132","locality":"Mülsen","municipality":{"key":"14524200","name":"Mülsen","type":"Kreisangehörige_Gemeinde"},"district":{"key":"14524","name":"Zwickau","type":"Landkreis"},"federalState":{"key":"14","name":"Sachsen"}},{"name":"St. Michelner Hauptstr.","postalCode":"08132","locality":"Mülsen","municipality":{"key":"14524200","name":"Mülsen","type":"Kreisangehörige_Gemeinde"},"district":{"key":"14524","name":"Zwickau","type":"Landkreis"},"federalState":{"key":"14","name":"Sachsen"}},{"name":"St. Michelner Nebenstr.","postalCode":"08132","locality":"Mülsen","municipality":{"key":"14524200","name":"Mülsen","type":"Kreisangehörige_Gemeinde"},"district":{"key":"14524","name":"Zwickau","type":"Landkreis"},"federalState":{"key":"14","name":"Sachsen"}},{"name":"St. Niclaser Hauptstr.","postalCode":"08132","locality":"Mülsen","municipality":{"key":"14524200","name":"Mülsen","type":"Kreisangehörige_Gemeinde"},"district":{"key":"14524","name":"Zwickau","type":"Landkreis"},"federalState":{"key":"14","name":"Sachsen"}},{"name":"Teichaue","postalCode":"08132","locality":"Mülsen","municipality":{"key":"14524200","name":"Mülsen","type":"Kreisangehörige_Gemeinde"},"district":{"key":"14524","name":"Zwickau","type":"Landkreis"},"federalState":{"key":"14","name":"Sachsen"}},{"name":"Teichstr.","postalCode":"08132","locality":"Mülsen","municipality":{"key":"14524200","name":"Mülsen","type":"Kreisangehörige_Gemeinde"},"district":{"key":"14524","name":"Zwickau","type":"Landkreis"},"federalState":{"key":"14","name":"Sachsen"}},{"name":"Thurmer Hauptstr.","postalCode":"08132","locality":"Mülsen","municipality":{"key":"14524200","name":"Mülsen","type":"Kreisangehörige_Gemeinde"},"district":{"key":"14524","name":"Zwickau","type":"Landkreis"},"federalState":{"key":"14","name":"Sachsen"}},{"name":"Thurmer Nebenstr.","postalCode":"08132","locality":"Mülsen","municipality":{"key":"14524200","name":"Mülsen","type":"Kreisangehörige_Gemeinde"},"district":{"key":"14524","name":"Zwickau","type":"Landkreis"},"federalState":{"key":"14","name":"Sachsen"}},{"name":"Thurmer Str.","postalCode":"08132","locality":"Mülsen","municipality":{"key":"14524200","name":"Mülsen","type":"Kreisangehörige_Gemeinde"},"district":{"key":"14524","name":"Zwickau","type":"Landkreis"},"federalState":{"key":"14","name":"Sachsen"}},{"name":"Turnhallenweg","postalCode":"08132","locality":"Mülsen","municipality":{"key":"14524200","name":"Mülsen","type":"Kreisangehörige_Gemeinde"},"district":{"key":"14524","name":"Zwickau","type":"Landkreis"},"federalState":{"key":"14","name":"Sachsen"}},{"name":"Uferstr.","postalCode":"08132","locality":"Mülsen","municipality":{"key":"14524200","name":"Mülsen","type":"Kreisangehörige_Gemeinde"},"district":{"key":"14524","name":"Zwickau","type":"Landkreis"},"federalState":{"key":"14","name":"Sachsen"}},{"name":"Vettermannstr.","postalCode":"08132","locality":"Mülsen","municipality":{"key":"14524200","name":"Mülsen","type":"Kreisangehörige_Gemeinde"},"district":{"key":"14524","name":"Zwickau","type":"Landkreis"},"federalState":{"key":"14","name":"Sachsen"}},{"name":"Voigtlaidener Str.","postalCode":"08132","locality":"Mülsen","municipality":{"key":"14524200","name":"Mülsen","type":"Kreisangehörige_Gemeinde"},"district":{"key":"14524","name":"Zwickau","type":"Landkreis"},"federalState":{"key":"14","name":"Sachsen"}},{"name":"Waldeck","postalCode":"08132","locality":"Mülsen","municipality":{"key":"14524200","name":"Mülsen","type":"Kreisangehörige_Gemeinde"},"district":{"key":"14524","name":"Zwickau","type":"Landkreis"},"federalState":{"key":"14","name":"Sachsen"}},{"name":"Waldsiedlung","postalCode":"08132","locality":"Mülsen","municipality":{"key":"14524200","name":"Mülsen","type":"Kreisangehörige_Gemeinde"},"district":{"key":"14524","name":"Zwickau","type":"Landkreis"},"federalState":{"key":"14","name":"Sachsen"}},{"name":"Waldstr.","postalCode":"08132","locality":"Mülsen","municipality":{"key":"14524200","name":"Mülsen","type":"Kreisangehörige_Gemeinde"},"district":{"key":"14524","name":"Zwickau","type":"Landkreis"},"federalState":{"key":"14","name":"Sachsen"}},{"name":"Wasserberg","postalCode":"08132","locality":"Mülsen","municipality":{"key":"14524200","name":"Mülsen","type":"Kreisangehörige_Gemeinde"},"district":{"key":"14524","name":"Zwickau","type":"Landkreis"},"federalState":{"key":"14","name":"Sachsen"}},{"name":"Weberberg","postalCode":"08132","locality":"Mülsen","municipality":{"key":"14524200","name":"Mülsen","type":"Kreisangehörige_Gemeinde"},"district":{"key":"14524","name":"Zwickau","type":"Landkreis"},"federalState":{"key":"14","name":"Sachsen"}},{"name":"Webergasse","postalCode":"08132","locality":"Mülsen","municipality":{"key":"14524200","name":"Mülsen","type":"Kreisangehörige_Gemeinde"},"district":{"key":"14524","name":"Zwickau","type":"Landkreis"},"federalState":{"key":"14","name":"Sachsen"}},{"name":"Weg zum Wilhelmsgrund","postalCode":"08132","locality":"Mülsen","municipality":{"key":"14524200","name":"Mülsen","type":"Kreisangehörige_Gemeinde"},"district":{"key":"14524","name":"Zwickau","type":"Landkreis"},"federalState":{"key":"14","name":"Sachsen"}},{"name":"Weideweg","postalCode":"08132","locality":"Mülsen","municipality":{"key":"14524200","name":"Mülsen","type":"Kreisangehörige_Gemeinde"},"district":{"key":"14524","name":"Zwickau","type":"Landkreis"},"federalState":{"key":"14","name":"Sachsen"}},{"name":"Wiesenweg","postalCode":"08132","locality":"Mülsen","municipality":{"key":"14524200","name":"Mülsen","type":"Kreisangehörige_Gemeinde"},"district":{"key":"14524","name":"Zwickau","type":"Landkreis"},"federalState":{"key":"14","name":"Sachsen"}},{"name":"Wildenfelser Str.","postalCode":"08132","locality":"Mülsen","municipality":{"key":"14524200","name":"Mülsen","type":"Kreisangehörige_Gemeinde"},"district":{"key":"14524","name":"Zwickau","type":"Landkreis"},"federalState":{"key":"14","name":"Sachsen"}},{"name":"Wulmer Hauptstr.","postalCode":"08132","locality":"Mülsen","municipality":{"key":"14524200","name":"Mülsen","type":"Kreisangehörige_Gemeinde"},"district":{"key":"14524","name":"Zwickau","type":"Landkreis"},"federalState":{"key":"14","name":"Sachsen"}},{"name":"Zennerberg","postalCode":"08132","locality":"Mülsen","municipality":{"key":"14524200","name":"Mülsen","type":"Kreisangehörige_Gemeinde"},"district":{"key":"14524","name":"Zwickau","type":"Landkreis"},"federalState":{"key":"14","name":"Sachsen"}},{"name":"Zennerbrücke","postalCode":"08132","locality":"Mülsen","municipality":{"key":"14524200","name":"Mülsen","type":"Kreisangehörige_Gemeinde"},"district":{"key":"14524","name":"Zwickau","type":"Landkreis"},"federalState":{"key":"14","name":"Sachsen"}},{"name":"Zum Graurock","postalCode":"08132","locality":"Mülsen","municipality":{"key":"14524200","name":"Mülsen","type":"Kreisangehörige_Gemeinde"},"district":{"key":"14524","name":"Zwickau","type":"Landkreis"},"federalState":{"key":"14","name":"Sachsen"}},{"name":"Zum Vorwerk","postalCode":"08132","locality":"Mülsen","municipality":{"key":"14524200","name":"Mülsen","type":"Kreisangehörige_Gemeinde"},"district":{"key":"14524","name":"Zwickau","type":"Landkreis"},"federalState":{"key":"14","name":"Sachsen"}},{"name":"zur Juchhöh","postalCode":"08132","locality":"Mülsen","municipality":{"key":"14524200","name":"Mülsen","type":"Kreisangehörige_Gemeinde"},"district":{"key":"14524","name":"Zwickau","type":"Landkreis"},"federalState":{"key":"14","name":"Sachsen"}},{"name":"Zwickauer Str.","postalCode":"08132","locality":"Mülsen","municipality":{"key":"14524200","name":"Mülsen","type":"Kreisangehörige_Gemeinde"},"district":{"key":"14524","name":"Zwickau","type":"Landkreis"},"federalState":{"key":"14","name":"Sachsen"}},{"name":"Äußere Dresdner Str.","postalCode":"08066","locality":"Zwickau","municipality":{"key":"14524330","name":"Zwickau, Stadt","type":"Stadt"},"district":{"key":"14524","name":"Zwickau","type":"Landkreis"},"federalState":{"key":"14","name":"Sachsen"}},{"name":"Äußere Schneeberger Str.","postalCode":"08056","locality":"Zwickau","municipality":{"key":"14524330","name":"Zwickau, Stadt","type":"Stadt"},"district":{"key":"14524","name":"Zwickau","type":"Landkreis"},"federalState":{"key":"14","name":"Sachsen"}},{"name":"Äußere Zwickauer Str.","postalCode":"08064","locality":"Zwickau","municipality":{"key":"14524330","name":"Zwickau, Stadt","type":"Stadt"},"district":{"key":"14524","name":"Zwickau","type":"Landkreis"},"federalState":{"key":"14","name":"Sachsen"}},]