[{"name":"Aitzendorfer Str.","postalCode":"09306","locality":"Seelitz","municipality":{"key":"14522530","name":"Seelitz","type":"Kreisangehörige_Gemeinde"},"district":{"key":"14522","name":"Mittelsachsen","type":"Landkreis"},"federalState":{"key":"14","name":"Sachsen"}},{"name":"Alte Hauptstr.","postalCode":"09306","locality":"Seelitz","municipality":{"key":"14522530","name":"Seelitz","type":"Kreisangehörige_Gemeinde"},"district":{"key":"14522","name":"Mittelsachsen","type":"Landkreis"},"federalState":{"key":"14","name":"Sachsen"}},{"name":"Am Berg","postalCode":"09306","locality":"Seelitz","municipality":{"key":"14522530","name":"Seelitz","type":"Kreisangehörige_Gemeinde"},"district":{"key":"14522","name":"Mittelsachsen","type":"Landkreis"},"federalState":{"key":"14","name":"Sachsen"}},{"name":"Am Hain","postalCode":"09306","locality":"Seelitz","municipality":{"key":"14522530","name":"Seelitz","type":"Kreisangehörige_Gemeinde"},"district":{"key":"14522","name":"Mittelsachsen","type":"Landkreis"},"federalState":{"key":"14","name":"Sachsen"}},{"name":"Am Ring","postalCode":"09306","locality":"Seelitz","municipality":{"key":"14522530","name":"Seelitz","type":"Kreisangehörige_Gemeinde"},"district":{"key":"14522","name":"Mittelsachsen","type":"Landkreis"},"federalState":{"key":"14","name":"Sachsen"}},{"name":"An der Winterschänke","postalCode":"09306","locality":"Seelitz","municipality":{"key":"14522530","name":"Seelitz","type":"Kreisangehörige_Gemeinde"},"district":{"key":"14522","name":"Mittelsachsen","type":"Landkreis"},"federalState":{"key":"14","name":"Sachsen"}},{"name":"Auenstr.","postalCode":"09306","locality":"Seelitz","municipality":{"key":"14522530","name":"Seelitz","type":"Kreisangehörige_Gemeinde"},"district":{"key":"14522","name":"Mittelsachsen","type":"Landkreis"},"federalState":{"key":"14","name":"Sachsen"}},{"name":"Bahnhofstr.","postalCode":"09306","locality":"Seelitz","municipality":{"key":"14522530","name":"Seelitz","type":"Kreisangehörige_Gemeinde"},"district":{"key":"14522","name":"Mittelsachsen","type":"Landkreis"},"federalState":{"key":"14","name":"Sachsen"}},{"name":"Bergstr.","postalCode":"09306","locality":"Seelitz","municipality":{"key":"14522530","name":"Seelitz","type":"Kreisangehörige_Gemeinde"},"district":{"key":"14522","name":"Mittelsachsen","type":"Landkreis"},"federalState":{"key":"14","name":"Sachsen"}},{"name":"Bernsdorfer Str.","postalCode":"09306","locality":"Seelitz","municipality":{"key":"14522530","name":"Seelitz","type":"Kreisangehörige_Gemeinde"},"district":{"key":"14522","name":"Mittelsachsen","type":"Landkreis"},"federalState":{"key":"14","name":"Sachsen"}},{"name":"Bieserner Str.","postalCode":"09306","locality":"Seelitz","municipality":{"key":"14522530","name":"Seelitz","type":"Kreisangehörige_Gemeinde"},"district":{"key":"14522","name":"Mittelsachsen","type":"Landkreis"},"federalState":{"key":"14","name":"Sachsen"}},{"name":"Chemnitzer Str.","postalCode":"09306","locality":"Seelitz","municipality":{"key":"14522530","name":"Seelitz","type":"Kreisangehörige_Gemeinde"},"district":{"key":"14522","name":"Mittelsachsen","type":"Landkreis"},"federalState":{"key":"14","name":"Sachsen"}},{"name":"Dorfstr.","postalCode":"09306","locality":"Seelitz","municipality":{"key":"14522530","name":"Seelitz","type":"Kreisangehörige_Gemeinde"},"district":{"key":"14522","name":"Mittelsachsen","type":"Landkreis"},"federalState":{"key":"14","name":"Sachsen"}},{"name":"Fischheimer Str.","postalCode":"09306","locality":"Seelitz","municipality":{"key":"14522530","name":"Seelitz","type":"Kreisangehörige_Gemeinde"},"district":{"key":"14522","name":"Mittelsachsen","type":"Landkreis"},"federalState":{"key":"14","name":"Sachsen"}},{"name":"Gartenstr.","postalCode":"09306","locality":"Seelitz","municipality":{"key":"14522530","name":"Seelitz","type":"Kreisangehörige_Gemeinde"},"district":{"key":"14522","name":"Mittelsachsen","type":"Landkreis"},"federalState":{"key":"14","name":"Sachsen"}},{"name":"Geringswalder Str.","postalCode":"09306","locality":"Seelitz","municipality":{"key":"14522530","name":"Seelitz","type":"Kreisangehörige_Gemeinde"},"district":{"key":"14522","name":"Mittelsachsen","type":"Landkreis"},"federalState":{"key":"14","name":"Sachsen"}},{"name":"Gröbschützer Str.","postalCode":"09306","locality":"Seelitz","municipality":{"key":"14522530","name":"Seelitz","type":"Kreisangehörige_Gemeinde"},"district":{"key":"14522","name":"Mittelsachsen","type":"Landkreis"},"federalState":{"key":"14","name":"Sachsen"}},{"name":"Großstädtener Weg","postalCode":"09306","locality":"Seelitz","municipality":{"key":"14522530","name":"Seelitz","type":"Kreisangehörige_Gemeinde"},"district":{"key":"14522","name":"Mittelsachsen","type":"Landkreis"},"federalState":{"key":"14","name":"Sachsen"}},{"name":"Hauptstr.","postalCode":"09306","locality":"Seelitz","municipality":{"key":"14522530","name":"Seelitz","type":"Kreisangehörige_Gemeinde"},"district":{"key":"14522","name":"Mittelsachsen","type":"Landkreis"},"federalState":{"key":"14","name":"Sachsen"}},{"name":"Hohlweg","postalCode":"09306","locality":"Seelitz","municipality":{"key":"14522530","name":"Seelitz","type":"Kreisangehörige_Gemeinde"},"district":{"key":"14522","name":"Mittelsachsen","type":"Landkreis"},"federalState":{"key":"14","name":"Sachsen"}},{"name":"Kleinstädtener Weg","postalCode":"09306","locality":"Seelitz","municipality":{"key":"14522530","name":"Seelitz","type":"Kreisangehörige_Gemeinde"},"district":{"key":"14522","name":"Mittelsachsen","type":"Landkreis"},"federalState":{"key":"14","name":"Sachsen"}},{"name":"Kolkauer Str.","postalCode":"09306","locality":"Seelitz","municipality":{"key":"14522530","name":"Seelitz","type":"Kreisangehörige_Gemeinde"},"district":{"key":"14522","name":"Mittelsachsen","type":"Landkreis"},"federalState":{"key":"14","name":"Sachsen"}},{"name":"Kötterner Weg","postalCode":"09306","locality":"Seelitz","municipality":{"key":"14522530","name":"Seelitz","type":"Kreisangehörige_Gemeinde"},"district":{"key":"14522","name":"Mittelsachsen","type":"Landkreis"},"federalState":{"key":"14","name":"Sachsen"}},{"name":"Markt","postalCode":"09306","locality":"Seelitz","municipality":{"key":"14522530","name":"Seelitz","type":"Kreisangehörige_Gemeinde"},"district":{"key":"14522","name":"Mittelsachsen","type":"Landkreis"},"federalState":{"key":"14","name":"Sachsen"}},{"name":"Milkauer Str.","postalCode":"09306","locality":"Seelitz","municipality":{"key":"14522530","name":"Seelitz","type":"Kreisangehörige_Gemeinde"},"district":{"key":"14522","name":"Mittelsachsen","type":"Landkreis"},"federalState":{"key":"14","name":"Sachsen"}},{"name":"Mittelweg","postalCode":"09306","locality":"Seelitz","municipality":{"key":"14522530","name":"Seelitz","type":"Kreisangehörige_Gemeinde"},"district":{"key":"14522","name":"Mittelsachsen","type":"Landkreis"},"federalState":{"key":"14","name":"Sachsen"}},{"name":"Mittlere Dorfstr.","postalCode":"09306","locality":"Seelitz","municipality":{"key":"14522530","name":"Seelitz","type":"Kreisangehörige_Gemeinde"},"district":{"key":"14522","name":"Mittelsachsen","type":"Landkreis"},"federalState":{"key":"14","name":"Sachsen"}},{"name":"Mittweidaer Str.","postalCode":"09306","locality":"Seelitz","municipality":{"key":"14522530","name":"Seelitz","type":"Kreisangehörige_Gemeinde"},"district":{"key":"14522","name":"Mittelsachsen","type":"Landkreis"},"federalState":{"key":"14","name":"Sachsen"}},{"name":"Mühlental","postalCode":"09306","locality":"Seelitz","municipality":{"key":"14522530","name":"Seelitz","type":"Kreisangehörige_Gemeinde"},"district":{"key":"14522","name":"Mittelsachsen","type":"Landkreis"},"federalState":{"key":"14","name":"Sachsen"}},{"name":"Naundorfer Str.","postalCode":"09306","locality":"Seelitz","municipality":{"key":"14522530","name":"Seelitz","type":"Kreisangehörige_Gemeinde"},"district":{"key":"14522","name":"Mittelsachsen","type":"Landkreis"},"federalState":{"key":"14","name":"Sachsen"}},{"name":"Obere Dorfstr.","postalCode":"09306","locality":"Seelitz","municipality":{"key":"14522530","name":"Seelitz","type":"Kreisangehörige_Gemeinde"},"district":{"key":"14522","name":"Mittelsachsen","type":"Landkreis"},"federalState":{"key":"14","name":"Sachsen"}},{"name":"Rochlitzer Str.","postalCode":"09306","locality":"Seelitz","municipality":{"key":"14522530","name":"Seelitz","type":"Kreisangehörige_Gemeinde"},"district":{"key":"14522","name":"Mittelsachsen","type":"Landkreis"},"federalState":{"key":"14","name":"Sachsen"}},{"name":"Rochlitzer Weg","postalCode":"09306","locality":"Seelitz","municipality":{"key":"14522530","name":"Seelitz","type":"Kreisangehörige_Gemeinde"},"district":{"key":"14522","name":"Mittelsachsen","type":"Landkreis"},"federalState":{"key":"14","name":"Sachsen"}},{"name":"Schaukelsteg","postalCode":"09306","locality":"Seelitz","municipality":{"key":"14522530","name":"Seelitz","type":"Kreisangehörige_Gemeinde"},"district":{"key":"14522","name":"Mittelsachsen","type":"Landkreis"},"federalState":{"key":"14","name":"Sachsen"}},{"name":"Schulstr.","postalCode":"09306","locality":"Seelitz","municipality":{"key":"14522530","name":"Seelitz","type":"Kreisangehörige_Gemeinde"},"district":{"key":"14522","name":"Mittelsachsen","type":"Landkreis"},"federalState":{"key":"14","name":"Sachsen"}},{"name":"Seebitzschener Str.","postalCode":"09306","locality":"Seelitz","municipality":{"key":"14522530","name":"Seelitz","type":"Kreisangehörige_Gemeinde"},"district":{"key":"14522","name":"Mittelsachsen","type":"Landkreis"},"federalState":{"key":"14","name":"Sachsen"}},{"name":"Sieben Brüder","postalCode":"09306","locality":"Seelitz","municipality":{"key":"14522530","name":"Seelitz","type":"Kreisangehörige_Gemeinde"},"district":{"key":"14522","name":"Mittelsachsen","type":"Landkreis"},"federalState":{"key":"14","name":"Sachsen"}},{"name":"Siedlerweg","postalCode":"09306","locality":"Seelitz","municipality":{"key":"14522530","name":"Seelitz","type":"Kreisangehörige_Gemeinde"},"district":{"key":"14522","name":"Mittelsachsen","type":"Landkreis"},"federalState":{"key":"14","name":"Sachsen"}},{"name":"Siedlung","postalCode":"09306","locality":"Seelitz","municipality":{"key":"14522530","name":"Seelitz","type":"Kreisangehörige_Gemeinde"},"district":{"key":"14522","name":"Mittelsachsen","type":"Landkreis"},"federalState":{"key":"14","name":"Sachsen"}},{"name":"Sörnziger Str.","postalCode":"09306","locality":"Seelitz","municipality":{"key":"14522530","name":"Seelitz","type":"Kreisangehörige_Gemeinde"},"district":{"key":"14522","name":"Mittelsachsen","type":"Landkreis"},"federalState":{"key":"14","name":"Sachsen"}},{"name":"Teichstr.","postalCode":"09306","locality":"Seelitz","municipality":{"key":"14522530","name":"Seelitz","type":"Kreisangehörige_Gemeinde"},"district":{"key":"14522","name":"Mittelsachsen","type":"Landkreis"},"federalState":{"key":"14","name":"Sachsen"}},{"name":"Untere Dorfstr.","postalCode":"09306","locality":"Seelitz","municipality":{"key":"14522530","name":"Seelitz","type":"Kreisangehörige_Gemeinde"},"district":{"key":"14522","name":"Mittelsachsen","type":"Landkreis"},"federalState":{"key":"14","name":"Sachsen"}},{"name":"Waldheimer Str.","postalCode":"09306","locality":"Seelitz","municipality":{"key":"14522530","name":"Seelitz","type":"Kreisangehörige_Gemeinde"},"district":{"key":"14522","name":"Mittelsachsen","type":"Landkreis"},"federalState":{"key":"14","name":"Sachsen"}},{"name":"Zettlitzer Str.","postalCode":"09306","locality":"Seelitz","municipality":{"key":"14522530","name":"Seelitz","type":"Kreisangehörige_Gemeinde"},"district":{"key":"14522","name":"Mittelsachsen","type":"Landkreis"},"federalState":{"key":"14","name":"Sachsen"}},{"name":"Zöllnitzer Str.","postalCode":"09306","locality":"Seelitz","municipality":{"key":"14522530","name":"Seelitz","type":"Kreisangehörige_Gemeinde"},"district":{"key":"14522","name":"Mittelsachsen","type":"Landkreis"},"federalState":{"key":"14","name":"Sachsen"}},{"name":"Zschaagwitzer Str.","postalCode":"09306","locality":"Seelitz","municipality":{"key":"14522530","name":"Seelitz","type":"Kreisangehörige_Gemeinde"},"district":{"key":"14522","name":"Mittelsachsen","type":"Landkreis"},"federalState":{"key":"14","name":"Sachsen"}},{"name":"Zschoppelshainer Str.","postalCode":"09306","locality":"Seelitz","municipality":{"key":"14522530","name":"Seelitz","type":"Kreisangehörige_Gemeinde"},"district":{"key":"14522","name":"Mittelsachsen","type":"Landkreis"},"federalState":{"key":"14","name":"Sachsen"}},]