[{"name":"Adolf-Weber-Str.","postalCode":"74864","locality":"Fahrenbach","municipality":{"key":"08225024","name":"Fahrenbach","type":"Kreisangehörige_Gemeinde"},"district":{"key":"08225","name":"Neckar-Odenwald-Kreis","type":"Landkreis"},"federalState":{"key":"08","name":"Baden-Württemberg"}},{"name":"Ahornstr.","postalCode":"74864","locality":"Fahrenbach","municipality":{"key":"08225024","name":"Fahrenbach","type":"Kreisangehörige_Gemeinde"},"district":{"key":"08225","name":"Neckar-Odenwald-Kreis","type":"Landkreis"},"federalState":{"key":"08","name":"Baden-Württemberg"}},{"name":"Akazienstr.","postalCode":"74864","locality":"Fahrenbach","municipality":{"key":"08225024","name":"Fahrenbach","type":"Kreisangehörige_Gemeinde"},"district":{"key":"08225","name":"Neckar-Odenwald-Kreis","type":"Landkreis"},"federalState":{"key":"08","name":"Baden-Württemberg"}},{"name":"Alte Mühle","postalCode":"74864","locality":"Fahrenbach","municipality":{"key":"08225024","name":"Fahrenbach","type":"Kreisangehörige_Gemeinde"},"district":{"key":"08225","name":"Neckar-Odenwald-Kreis","type":"Landkreis"},"federalState":{"key":"08","name":"Baden-Württemberg"}},{"name":"Am Berg","postalCode":"74864","locality":"Fahrenbach","municipality":{"key":"08225024","name":"Fahrenbach","type":"Kreisangehörige_Gemeinde"},"district":{"key":"08225","name":"Neckar-Odenwald-Kreis","type":"Landkreis"},"federalState":{"key":"08","name":"Baden-Württemberg"}},{"name":"Am Bildstock","postalCode":"74864","locality":"Fahrenbach","municipality":{"key":"08225024","name":"Fahrenbach","type":"Kreisangehörige_Gemeinde"},"district":{"key":"08225","name":"Neckar-Odenwald-Kreis","type":"Landkreis"},"federalState":{"key":"08","name":"Baden-Württemberg"}},{"name":"Am Grabenacker","postalCode":"74864","locality":"Fahrenbach","municipality":{"key":"08225024","name":"Fahrenbach","type":"Kreisangehörige_Gemeinde"},"district":{"key":"08225","name":"Neckar-Odenwald-Kreis","type":"Landkreis"},"federalState":{"key":"08","name":"Baden-Württemberg"}},{"name":"Am Mühlberg","postalCode":"74864","locality":"Fahrenbach","municipality":{"key":"08225024","name":"Fahrenbach","type":"Kreisangehörige_Gemeinde"},"district":{"key":"08225","name":"Neckar-Odenwald-Kreis","type":"Landkreis"},"federalState":{"key":"08","name":"Baden-Württemberg"}},{"name":"Ampereweg","postalCode":"74864","locality":"Fahrenbach","municipality":{"key":"08225024","name":"Fahrenbach","type":"Kreisangehörige_Gemeinde"},"district":{"key":"08225","name":"Neckar-Odenwald-Kreis","type":"Landkreis"},"federalState":{"key":"08","name":"Baden-Württemberg"}},{"name":"Am Sägewerk","postalCode":"74864","locality":"Fahrenbach","municipality":{"key":"08225024","name":"Fahrenbach","type":"Kreisangehörige_Gemeinde"},"district":{"key":"08225","name":"Neckar-Odenwald-Kreis","type":"Landkreis"},"federalState":{"key":"08","name":"Baden-Württemberg"}},{"name":"Am Sportgelände","postalCode":"74864","locality":"Fahrenbach","municipality":{"key":"08225024","name":"Fahrenbach","type":"Kreisangehörige_Gemeinde"},"district":{"key":"08225","name":"Neckar-Odenwald-Kreis","type":"Landkreis"},"federalState":{"key":"08","name":"Baden-Württemberg"}},{"name":"Am Sportplatz","postalCode":"74864","locality":"Fahrenbach","municipality":{"key":"08225024","name":"Fahrenbach","type":"Kreisangehörige_Gemeinde"},"district":{"key":"08225","name":"Neckar-Odenwald-Kreis","type":"Landkreis"},"federalState":{"key":"08","name":"Baden-Württemberg"}},{"name":"Am Steigenwäldchen","postalCode":"74864","locality":"Fahrenbach","municipality":{"key":"08225024","name":"Fahrenbach","type":"Kreisangehörige_Gemeinde"},"district":{"key":"08225","name":"Neckar-Odenwald-Kreis","type":"Landkreis"},"federalState":{"key":"08","name":"Baden-Württemberg"}},{"name":"Am Weidenbusch","postalCode":"74864","locality":"Fahrenbach","municipality":{"key":"08225024","name":"Fahrenbach","type":"Kreisangehörige_Gemeinde"},"district":{"key":"08225","name":"Neckar-Odenwald-Kreis","type":"Landkreis"},"federalState":{"key":"08","name":"Baden-Württemberg"}},{"name":"An der Schmiede","postalCode":"74864","locality":"Fahrenbach","municipality":{"key":"08225024","name":"Fahrenbach","type":"Kreisangehörige_Gemeinde"},"district":{"key":"08225","name":"Neckar-Odenwald-Kreis","type":"Landkreis"},"federalState":{"key":"08","name":"Baden-Württemberg"}},{"name":"An der Wanderbahn","postalCode":"74864","locality":"Fahrenbach","municipality":{"key":"08225024","name":"Fahrenbach","type":"Kreisangehörige_Gemeinde"},"district":{"key":"08225","name":"Neckar-Odenwald-Kreis","type":"Landkreis"},"federalState":{"key":"08","name":"Baden-Württemberg"}},{"name":"Bäckerspfad","postalCode":"74864","locality":"Fahrenbach","municipality":{"key":"08225024","name":"Fahrenbach","type":"Kreisangehörige_Gemeinde"},"district":{"key":"08225","name":"Neckar-Odenwald-Kreis","type":"Landkreis"},"federalState":{"key":"08","name":"Baden-Württemberg"}},{"name":"Badischer Hof","postalCode":"74864","locality":"Fahrenbach","municipality":{"key":"08225024","name":"Fahrenbach","type":"Kreisangehörige_Gemeinde"},"district":{"key":"08225","name":"Neckar-Odenwald-Kreis","type":"Landkreis"},"federalState":{"key":"08","name":"Baden-Württemberg"}},{"name":"Bahnhofstr.","postalCode":"74864","locality":"Fahrenbach","municipality":{"key":"08225024","name":"Fahrenbach","type":"Kreisangehörige_Gemeinde"},"district":{"key":"08225","name":"Neckar-Odenwald-Kreis","type":"Landkreis"},"federalState":{"key":"08","name":"Baden-Württemberg"}},{"name":"Baumeselweg","postalCode":"74864","locality":"Fahrenbach","municipality":{"key":"08225024","name":"Fahrenbach","type":"Kreisangehörige_Gemeinde"},"district":{"key":"08225","name":"Neckar-Odenwald-Kreis","type":"Landkreis"},"federalState":{"key":"08","name":"Baden-Württemberg"}},{"name":"Birkenstr.","postalCode":"74864","locality":"Fahrenbach","municipality":{"key":"08225024","name":"Fahrenbach","type":"Kreisangehörige_Gemeinde"},"district":{"key":"08225","name":"Neckar-Odenwald-Kreis","type":"Landkreis"},"federalState":{"key":"08","name":"Baden-Württemberg"}},{"name":"Brühlstr.","postalCode":"74864","locality":"Fahrenbach","municipality":{"key":"08225024","name":"Fahrenbach","type":"Kreisangehörige_Gemeinde"},"district":{"key":"08225","name":"Neckar-Odenwald-Kreis","type":"Landkreis"},"federalState":{"key":"08","name":"Baden-Württemberg"}},{"name":"Buchweg","postalCode":"74864","locality":"Fahrenbach","municipality":{"key":"08225024","name":"Fahrenbach","type":"Kreisangehörige_Gemeinde"},"district":{"key":"08225","name":"Neckar-Odenwald-Kreis","type":"Landkreis"},"federalState":{"key":"08","name":"Baden-Württemberg"}},{"name":"Dorfwiese","postalCode":"74864","locality":"Fahrenbach","municipality":{"key":"08225024","name":"Fahrenbach","type":"Kreisangehörige_Gemeinde"},"district":{"key":"08225","name":"Neckar-Odenwald-Kreis","type":"Landkreis"},"federalState":{"key":"08","name":"Baden-Württemberg"}},{"name":"Eichbronnenweg","postalCode":"74864","locality":"Fahrenbach","municipality":{"key":"08225024","name":"Fahrenbach","type":"Kreisangehörige_Gemeinde"},"district":{"key":"08225","name":"Neckar-Odenwald-Kreis","type":"Landkreis"},"federalState":{"key":"08","name":"Baden-Württemberg"}},{"name":"Eichenstr.","postalCode":"74864","locality":"Fahrenbach","municipality":{"key":"08225024","name":"Fahrenbach","type":"Kreisangehörige_Gemeinde"},"district":{"key":"08225","name":"Neckar-Odenwald-Kreis","type":"Landkreis"},"federalState":{"key":"08","name":"Baden-Württemberg"}},{"name":"Erlenstr.","postalCode":"74864","locality":"Fahrenbach","municipality":{"key":"08225024","name":"Fahrenbach","type":"Kreisangehörige_Gemeinde"},"district":{"key":"08225","name":"Neckar-Odenwald-Kreis","type":"Landkreis"},"federalState":{"key":"08","name":"Baden-Württemberg"}},{"name":"Felsenweg","postalCode":"74864","locality":"Fahrenbach","municipality":{"key":"08225024","name":"Fahrenbach","type":"Kreisangehörige_Gemeinde"},"district":{"key":"08225","name":"Neckar-Odenwald-Kreis","type":"Landkreis"},"federalState":{"key":"08","name":"Baden-Württemberg"}},{"name":"Fliederstr.","postalCode":"74864","locality":"Fahrenbach","municipality":{"key":"08225024","name":"Fahrenbach","type":"Kreisangehörige_Gemeinde"},"district":{"key":"08225","name":"Neckar-Odenwald-Kreis","type":"Landkreis"},"federalState":{"key":"08","name":"Baden-Württemberg"}},{"name":"Fritz-Wilhelm-Weg","postalCode":"74864","locality":"Fahrenbach","municipality":{"key":"08225024","name":"Fahrenbach","type":"Kreisangehörige_Gemeinde"},"district":{"key":"08225","name":"Neckar-Odenwald-Kreis","type":"Landkreis"},"federalState":{"key":"08","name":"Baden-Württemberg"}},{"name":"Gartenstr.","postalCode":"74864","locality":"Fahrenbach","municipality":{"key":"08225024","name":"Fahrenbach","type":"Kreisangehörige_Gemeinde"},"district":{"key":"08225","name":"Neckar-Odenwald-Kreis","type":"Landkreis"},"federalState":{"key":"08","name":"Baden-Württemberg"}},{"name":"Grenzweg","postalCode":"74864","locality":"Fahrenbach","municipality":{"key":"08225024","name":"Fahrenbach","type":"Kreisangehörige_Gemeinde"},"district":{"key":"08225","name":"Neckar-Odenwald-Kreis","type":"Landkreis"},"federalState":{"key":"08","name":"Baden-Württemberg"}},{"name":"Gründlich","postalCode":"74864","locality":"Fahrenbach","municipality":{"key":"08225024","name":"Fahrenbach","type":"Kreisangehörige_Gemeinde"},"district":{"key":"08225","name":"Neckar-Odenwald-Kreis","type":"Landkreis"},"federalState":{"key":"08","name":"Baden-Württemberg"}},{"name":"Hauptstr.","postalCode":"74864","locality":"Fahrenbach","municipality":{"key":"08225024","name":"Fahrenbach","type":"Kreisangehörige_Gemeinde"},"district":{"key":"08225","name":"Neckar-Odenwald-Kreis","type":"Landkreis"},"federalState":{"key":"08","name":"Baden-Württemberg"}},{"name":"Hofklinge","postalCode":"74864","locality":"Fahrenbach","municipality":{"key":"08225024","name":"Fahrenbach","type":"Kreisangehörige_Gemeinde"},"district":{"key":"08225","name":"Neckar-Odenwald-Kreis","type":"Landkreis"},"federalState":{"key":"08","name":"Baden-Württemberg"}},{"name":"Höhenstr.","postalCode":"74864","locality":"Fahrenbach","municipality":{"key":"08225024","name":"Fahrenbach","type":"Kreisangehörige_Gemeinde"},"district":{"key":"08225","name":"Neckar-Odenwald-Kreis","type":"Landkreis"},"federalState":{"key":"08","name":"Baden-Württemberg"}},{"name":"Im Feldbrunnen","postalCode":"74864","locality":"Fahrenbach","municipality":{"key":"08225024","name":"Fahrenbach","type":"Kreisangehörige_Gemeinde"},"district":{"key":"08225","name":"Neckar-Odenwald-Kreis","type":"Landkreis"},"federalState":{"key":"08","name":"Baden-Württemberg"}},{"name":"K3","postalCode":"74864","locality":"Fahrenbach","municipality":{"key":"08225024","name":"Fahrenbach","type":"Kreisangehörige_Gemeinde"},"district":{"key":"08225","name":"Neckar-Odenwald-Kreis","type":"Landkreis"},"federalState":{"key":"08","name":"Baden-Württemberg"}},{"name":"Kanalweg","postalCode":"74864","locality":"Fahrenbach","municipality":{"key":"08225024","name":"Fahrenbach","type":"Kreisangehörige_Gemeinde"},"district":{"key":"08225","name":"Neckar-Odenwald-Kreis","type":"Landkreis"},"federalState":{"key":"08","name":"Baden-Württemberg"}},{"name":"Kirchenstr.","postalCode":"74864","locality":"Fahrenbach","municipality":{"key":"08225024","name":"Fahrenbach","type":"Kreisangehörige_Gemeinde"},"district":{"key":"08225","name":"Neckar-Odenwald-Kreis","type":"Landkreis"},"federalState":{"key":"08","name":"Baden-Württemberg"}},{"name":"Klingenweg","postalCode":"74864","locality":"Fahrenbach","municipality":{"key":"08225024","name":"Fahrenbach","type":"Kreisangehörige_Gemeinde"},"district":{"key":"08225","name":"Neckar-Odenwald-Kreis","type":"Landkreis"},"federalState":{"key":"08","name":"Baden-Württemberg"}},{"name":"Krumbacher Str.","postalCode":"74864","locality":"Fahrenbach","municipality":{"key":"08225024","name":"Fahrenbach","type":"Kreisangehörige_Gemeinde"},"district":{"key":"08225","name":"Neckar-Odenwald-Kreis","type":"Landkreis"},"federalState":{"key":"08","name":"Baden-Württemberg"}},{"name":"Langer Weg","postalCode":"74864","locality":"Fahrenbach","municipality":{"key":"08225024","name":"Fahrenbach","type":"Kreisangehörige_Gemeinde"},"district":{"key":"08225","name":"Neckar-Odenwald-Kreis","type":"Landkreis"},"federalState":{"key":"08","name":"Baden-Württemberg"}},{"name":"Lärchenstr.","postalCode":"74864","locality":"Fahrenbach","municipality":{"key":"08225024","name":"Fahrenbach","type":"Kreisangehörige_Gemeinde"},"district":{"key":"08225","name":"Neckar-Odenwald-Kreis","type":"Landkreis"},"federalState":{"key":"08","name":"Baden-Württemberg"}},{"name":"Lieselotteweg","postalCode":"74864","locality":"Fahrenbach","municipality":{"key":"08225024","name":"Fahrenbach","type":"Kreisangehörige_Gemeinde"},"district":{"key":"08225","name":"Neckar-Odenwald-Kreis","type":"Landkreis"},"federalState":{"key":"08","name":"Baden-Württemberg"}},{"name":"Limbacher Weg","postalCode":"74864","locality":"Fahrenbach","municipality":{"key":"08225024","name":"Fahrenbach","type":"Kreisangehörige_Gemeinde"},"district":{"key":"08225","name":"Neckar-Odenwald-Kreis","type":"Landkreis"},"federalState":{"key":"08","name":"Baden-Württemberg"}},{"name":"Lindenstr.","postalCode":"74864","locality":"Fahrenbach","municipality":{"key":"08225024","name":"Fahrenbach","type":"Kreisangehörige_Gemeinde"},"district":{"key":"08225","name":"Neckar-Odenwald-Kreis","type":"Landkreis"},"federalState":{"key":"08","name":"Baden-Württemberg"}},{"name":"Lohrbacher Str.","postalCode":"74864","locality":"Fahrenbach","municipality":{"key":"08225024","name":"Fahrenbach","type":"Kreisangehörige_Gemeinde"},"district":{"key":"08225","name":"Neckar-Odenwald-Kreis","type":"Landkreis"},"federalState":{"key":"08","name":"Baden-Württemberg"}},{"name":"Meisenweg","postalCode":"74864","locality":"Fahrenbach","municipality":{"key":"08225024","name":"Fahrenbach","type":"Kreisangehörige_Gemeinde"},"district":{"key":"08225","name":"Neckar-Odenwald-Kreis","type":"Landkreis"},"federalState":{"key":"08","name":"Baden-Württemberg"}},{"name":"mittlerer Buchweg","postalCode":"74864","locality":"Fahrenbach","municipality":{"key":"08225024","name":"Fahrenbach","type":"Kreisangehörige_Gemeinde"},"district":{"key":"08225","name":"Neckar-Odenwald-Kreis","type":"Landkreis"},"federalState":{"key":"08","name":"Baden-Württemberg"}},{"name":"Mosbacher Weg","postalCode":"74864","locality":"Fahrenbach","municipality":{"key":"08225024","name":"Fahrenbach","type":"Kreisangehörige_Gemeinde"},"district":{"key":"08225","name":"Neckar-Odenwald-Kreis","type":"Landkreis"},"federalState":{"key":"08","name":"Baden-Württemberg"}},{"name":"Muckentaler Str.","postalCode":"74864","locality":"Fahrenbach","municipality":{"key":"08225024","name":"Fahrenbach","type":"Kreisangehörige_Gemeinde"},"district":{"key":"08225","name":"Neckar-Odenwald-Kreis","type":"Landkreis"},"federalState":{"key":"08","name":"Baden-Württemberg"}},{"name":"Mühlenweg","postalCode":"74864","locality":"Fahrenbach","municipality":{"key":"08225024","name":"Fahrenbach","type":"Kreisangehörige_Gemeinde"},"district":{"key":"08225","name":"Neckar-Odenwald-Kreis","type":"Landkreis"},"federalState":{"key":"08","name":"Baden-Württemberg"}},{"name":"Mühlwald","postalCode":"74864","locality":"Fahrenbach","municipality":{"key":"08225024","name":"Fahrenbach","type":"Kreisangehörige_Gemeinde"},"district":{"key":"08225","name":"Neckar-Odenwald-Kreis","type":"Landkreis"},"federalState":{"key":"08","name":"Baden-Württemberg"}},{"name":"Ostring","postalCode":"74864","locality":"Fahrenbach","municipality":{"key":"08225024","name":"Fahrenbach","type":"Kreisangehörige_Gemeinde"},"district":{"key":"08225","name":"Neckar-Odenwald-Kreis","type":"Landkreis"},"federalState":{"key":"08","name":"Baden-Württemberg"}},{"name":"Quellenweg","postalCode":"74864","locality":"Fahrenbach","municipality":{"key":"08225024","name":"Fahrenbach","type":"Kreisangehörige_Gemeinde"},"district":{"key":"08225","name":"Neckar-Odenwald-Kreis","type":"Landkreis"},"federalState":{"key":"08","name":"Baden-Württemberg"}},{"name":"Rainhang","postalCode":"74864","locality":"Fahrenbach","municipality":{"key":"08225024","name":"Fahrenbach","type":"Kreisangehörige_Gemeinde"},"district":{"key":"08225","name":"Neckar-Odenwald-Kreis","type":"Landkreis"},"federalState":{"key":"08","name":"Baden-Württemberg"}},{"name":"Rainstr.","postalCode":"74864","locality":"Fahrenbach","municipality":{"key":"08225024","name":"Fahrenbach","type":"Kreisangehörige_Gemeinde"},"district":{"key":"08225","name":"Neckar-Odenwald-Kreis","type":"Landkreis"},"federalState":{"key":"08","name":"Baden-Württemberg"}},{"name":"Rathausstr.","postalCode":"74864","locality":"Fahrenbach","municipality":{"key":"08225024","name":"Fahrenbach","type":"Kreisangehörige_Gemeinde"},"district":{"key":"08225","name":"Neckar-Odenwald-Kreis","type":"Landkreis"},"federalState":{"key":"08","name":"Baden-Württemberg"}},{"name":"Reiterpfad","postalCode":"74864","locality":"Fahrenbach","municipality":{"key":"08225024","name":"Fahrenbach","type":"Kreisangehörige_Gemeinde"},"district":{"key":"08225","name":"Neckar-Odenwald-Kreis","type":"Landkreis"},"federalState":{"key":"08","name":"Baden-Württemberg"}},{"name":"Ringstr.","postalCode":"74864","locality":"Fahrenbach","municipality":{"key":"08225024","name":"Fahrenbach","type":"Kreisangehörige_Gemeinde"},"district":{"key":"08225","name":"Neckar-Odenwald-Kreis","type":"Landkreis"},"federalState":{"key":"08","name":"Baden-Württemberg"}},{"name":"Rödern","postalCode":"74864","locality":"Fahrenbach","municipality":{"key":"08225024","name":"Fahrenbach","type":"Kreisangehörige_Gemeinde"},"district":{"key":"08225","name":"Neckar-Odenwald-Kreis","type":"Landkreis"},"federalState":{"key":"08","name":"Baden-Württemberg"}},{"name":"Römerstr.","postalCode":"74864","locality":"Fahrenbach","municipality":{"key":"08225024","name":"Fahrenbach","type":"Kreisangehörige_Gemeinde"},"district":{"key":"08225","name":"Neckar-Odenwald-Kreis","type":"Landkreis"},"federalState":{"key":"08","name":"Baden-Württemberg"}},{"name":"Rosenstr.","postalCode":"74864","locality":"Fahrenbach","municipality":{"key":"08225024","name":"Fahrenbach","type":"Kreisangehörige_Gemeinde"},"district":{"key":"08225","name":"Neckar-Odenwald-Kreis","type":"Landkreis"},"federalState":{"key":"08","name":"Baden-Württemberg"}},{"name":"Schlehenweg","postalCode":"74864","locality":"Fahrenbach","municipality":{"key":"08225024","name":"Fahrenbach","type":"Kreisangehörige_Gemeinde"},"district":{"key":"08225","name":"Neckar-Odenwald-Kreis","type":"Landkreis"},"federalState":{"key":"08","name":"Baden-Württemberg"}},{"name":"Schulstr.","postalCode":"74864","locality":"Fahrenbach","municipality":{"key":"08225024","name":"Fahrenbach","type":"Kreisangehörige_Gemeinde"},"district":{"key":"08225","name":"Neckar-Odenwald-Kreis","type":"Landkreis"},"federalState":{"key":"08","name":"Baden-Württemberg"}},{"name":"Seedammweg","postalCode":"74864","locality":"Fahrenbach","municipality":{"key":"08225024","name":"Fahrenbach","type":"Kreisangehörige_Gemeinde"},"district":{"key":"08225","name":"Neckar-Odenwald-Kreis","type":"Landkreis"},"federalState":{"key":"08","name":"Baden-Württemberg"}},{"name":"Seeweg","postalCode":"74864","locality":"Fahrenbach","municipality":{"key":"08225024","name":"Fahrenbach","type":"Kreisangehörige_Gemeinde"},"district":{"key":"08225","name":"Neckar-Odenwald-Kreis","type":"Landkreis"},"federalState":{"key":"08","name":"Baden-Württemberg"}},{"name":"Strümpfelbrunner Weg","postalCode":"74864","locality":"Fahrenbach","municipality":{"key":"08225024","name":"Fahrenbach","type":"Kreisangehörige_Gemeinde"},"district":{"key":"08225","name":"Neckar-Odenwald-Kreis","type":"Landkreis"},"federalState":{"key":"08","name":"Baden-Württemberg"}},{"name":"Talstr.","postalCode":"74864","locality":"Fahrenbach","municipality":{"key":"08225024","name":"Fahrenbach","type":"Kreisangehörige_Gemeinde"},"district":{"key":"08225","name":"Neckar-Odenwald-Kreis","type":"Landkreis"},"federalState":{"key":"08","name":"Baden-Württemberg"}},{"name":"Talweg","postalCode":"74864","locality":"Fahrenbach","municipality":{"key":"08225024","name":"Fahrenbach","type":"Kreisangehörige_Gemeinde"},"district":{"key":"08225","name":"Neckar-Odenwald-Kreis","type":"Landkreis"},"federalState":{"key":"08","name":"Baden-Württemberg"}},{"name":"Tannenstr.","postalCode":"74864","locality":"Fahrenbach","municipality":{"key":"08225024","name":"Fahrenbach","type":"Kreisangehörige_Gemeinde"},"district":{"key":"08225","name":"Neckar-Odenwald-Kreis","type":"Landkreis"},"federalState":{"key":"08","name":"Baden-Württemberg"}},{"name":"Wagenschwender Str.","postalCode":"74864","locality":"Fahrenbach","municipality":{"key":"08225024","name":"Fahrenbach","type":"Kreisangehörige_Gemeinde"},"district":{"key":"08225","name":"Neckar-Odenwald-Kreis","type":"Landkreis"},"federalState":{"key":"08","name":"Baden-Württemberg"}},{"name":"Waldstr.","postalCode":"74864","locality":"Fahrenbach","municipality":{"key":"08225024","name":"Fahrenbach","type":"Kreisangehörige_Gemeinde"},"district":{"key":"08225","name":"Neckar-Odenwald-Kreis","type":"Landkreis"},"federalState":{"key":"08","name":"Baden-Württemberg"}},{"name":"Wandelgewann","postalCode":"74864","locality":"Fahrenbach","municipality":{"key":"08225024","name":"Fahrenbach","type":"Kreisangehörige_Gemeinde"},"district":{"key":"08225","name":"Neckar-Odenwald-Kreis","type":"Landkreis"},"federalState":{"key":"08","name":"Baden-Württemberg"}},{"name":"Wanderbahn","postalCode":"74864","locality":"Fahrenbach","municipality":{"key":"08225024","name":"Fahrenbach","type":"Kreisangehörige_Gemeinde"},"district":{"key":"08225","name":"Neckar-Odenwald-Kreis","type":"Landkreis"},"federalState":{"key":"08","name":"Baden-Württemberg"}},{"name":"Wiesenstr.","postalCode":"74864","locality":"Fahrenbach","municipality":{"key":"08225024","name":"Fahrenbach","type":"Kreisangehörige_Gemeinde"},"district":{"key":"08225","name":"Neckar-Odenwald-Kreis","type":"Landkreis"},"federalState":{"key":"08","name":"Baden-Württemberg"}},{"name":"Zimmerecke","postalCode":"74864","locality":"Fahrenbach","municipality":{"key":"08225024","name":"Fahrenbach","type":"Kreisangehörige_Gemeinde"},"district":{"key":"08225","name":"Neckar-Odenwald-Kreis","type":"Landkreis"},"federalState":{"key":"08","name":"Baden-Württemberg"}},{"name":"Zum Rundblick","postalCode":"74864","locality":"Fahrenbach","municipality":{"key":"08225024","name":"Fahrenbach","type":"Kreisangehörige_Gemeinde"},"district":{"key":"08225","name":"Neckar-Odenwald-Kreis","type":"Landkreis"},"federalState":{"key":"08","name":"Baden-Württemberg"}},{"name":"Ölmühlweg","postalCode":"74864","locality":"Fahrenbach","municipality":{"key":"08225024","name":"Fahrenbach","type":"Kreisangehörige_Gemeinde"},"district":{"key":"08225","name":"Neckar-Odenwald-Kreis","type":"Landkreis"},"federalState":{"key":"08","name":"Baden-Württemberg"}},]