[{"name":"Adolf-Guckes-Weg","postalCode":"65817","locality":"Eppstein","municipality":{"key":"06436002","name":"Eppstein, Stadt","type":"Stadt"},"district":{"key":"06436","name":"Main-Taunus-Kreis","type":"Landkreis"},"federalState":{"key":"06","name":"Hessen"}},{"name":"Albert-Schweitzer-Str.","postalCode":"65817","locality":"Eppstein","municipality":{"key":"06436002","name":"Eppstein, Stadt","type":"Stadt"},"district":{"key":"06436","name":"Main-Taunus-Kreis","type":"Landkreis"},"federalState":{"key":"06","name":"Hessen"}},{"name":"Altangarten","postalCode":"65817","locality":"Eppstein","municipality":{"key":"06436002","name":"Eppstein, Stadt","type":"Stadt"},"district":{"key":"06436","name":"Main-Taunus-Kreis","type":"Landkreis"},"federalState":{"key":"06","name":"Hessen"}},{"name":"Alte Fischbacher Chaussee","postalCode":"65817","locality":"Eppstein","municipality":{"key":"06436002","name":"Eppstein, Stadt","type":"Stadt"},"district":{"key":"06436","name":"Main-Taunus-Kreis","type":"Landkreis"},"federalState":{"key":"06","name":"Hessen"}},{"name":"Alter Fischbacher Weg","postalCode":"65817","locality":"Eppstein","municipality":{"key":"06436002","name":"Eppstein, Stadt","type":"Stadt"},"district":{"key":"06436","name":"Main-Taunus-Kreis","type":"Landkreis"},"federalState":{"key":"06","name":"Hessen"}},{"name":"Alter Weg","postalCode":"65817","locality":"Eppstein","municipality":{"key":"06436002","name":"Eppstein, Stadt","type":"Stadt"},"district":{"key":"06436","name":"Main-Taunus-Kreis","type":"Landkreis"},"federalState":{"key":"06","name":"Hessen"}},{"name":"Alter Wellbachweg","postalCode":"65817","locality":"Eppstein","municipality":{"key":"06436002","name":"Eppstein, Stadt","type":"Stadt"},"district":{"key":"06436","name":"Main-Taunus-Kreis","type":"Landkreis"},"federalState":{"key":"06","name":"Hessen"}},{"name":"Alte Schulstr.","postalCode":"65817","locality":"Eppstein","municipality":{"key":"06436002","name":"Eppstein, Stadt","type":"Stadt"},"district":{"key":"06436","name":"Main-Taunus-Kreis","type":"Landkreis"},"federalState":{"key":"06","name":"Hessen"}},{"name":"Alte Str.","postalCode":"65817","locality":"Eppstein","municipality":{"key":"06436002","name":"Eppstein, Stadt","type":"Stadt"},"district":{"key":"06436","name":"Main-Taunus-Kreis","type":"Landkreis"},"federalState":{"key":"06","name":"Hessen"}},{"name":"Altkönigblick","postalCode":"65817","locality":"Eppstein","municipality":{"key":"06436002","name":"Eppstein, Stadt","type":"Stadt"},"district":{"key":"06436","name":"Main-Taunus-Kreis","type":"Landkreis"},"federalState":{"key":"06","name":"Hessen"}},{"name":"Altkönigstr.","postalCode":"65817","locality":"Eppstein","municipality":{"key":"06436002","name":"Eppstein, Stadt","type":"Stadt"},"district":{"key":"06436","name":"Main-Taunus-Kreis","type":"Landkreis"},"federalState":{"key":"06","name":"Hessen"}},{"name":"Am Borbig","postalCode":"65817","locality":"Eppstein","municipality":{"key":"06436002","name":"Eppstein, Stadt","type":"Stadt"},"district":{"key":"06436","name":"Main-Taunus-Kreis","type":"Landkreis"},"federalState":{"key":"06","name":"Hessen"}},{"name":"Am Bornwald","postalCode":"65817","locality":"Eppstein","municipality":{"key":"06436002","name":"Eppstein, Stadt","type":"Stadt"},"district":{"key":"06436","name":"Main-Taunus-Kreis","type":"Landkreis"},"federalState":{"key":"06","name":"Hessen"}},{"name":"Am Brühl","postalCode":"65817","locality":"Eppstein","municipality":{"key":"06436002","name":"Eppstein, Stadt","type":"Stadt"},"district":{"key":"06436","name":"Main-Taunus-Kreis","type":"Landkreis"},"federalState":{"key":"06","name":"Hessen"}},{"name":"Am Bündelberg","postalCode":"65817","locality":"Eppstein","municipality":{"key":"06436002","name":"Eppstein, Stadt","type":"Stadt"},"district":{"key":"06436","name":"Main-Taunus-Kreis","type":"Landkreis"},"federalState":{"key":"06","name":"Hessen"}},{"name":"Am Dattenbach","postalCode":"65817","locality":"Eppstein","municipality":{"key":"06436002","name":"Eppstein, Stadt","type":"Stadt"},"district":{"key":"06436","name":"Main-Taunus-Kreis","type":"Landkreis"},"federalState":{"key":"06","name":"Hessen"}},{"name":"Am Dornbusch","postalCode":"65817","locality":"Eppstein","municipality":{"key":"06436002","name":"Eppstein, Stadt","type":"Stadt"},"district":{"key":"06436","name":"Main-Taunus-Kreis","type":"Landkreis"},"federalState":{"key":"06","name":"Hessen"}},{"name":"Am Eschenhang","postalCode":"65817","locality":"Eppstein","municipality":{"key":"06436002","name":"Eppstein, Stadt","type":"Stadt"},"district":{"key":"06436","name":"Main-Taunus-Kreis","type":"Landkreis"},"federalState":{"key":"06","name":"Hessen"}},{"name":"Am Forsthaus","postalCode":"65817","locality":"Eppstein","municipality":{"key":"06436002","name":"Eppstein, Stadt","type":"Stadt"},"district":{"key":"06436","name":"Main-Taunus-Kreis","type":"Landkreis"},"federalState":{"key":"06","name":"Hessen"}},{"name":"Am Hain","postalCode":"65817","locality":"Eppstein","municipality":{"key":"06436002","name":"Eppstein, Stadt","type":"Stadt"},"district":{"key":"06436","name":"Main-Taunus-Kreis","type":"Landkreis"},"federalState":{"key":"06","name":"Hessen"}},{"name":"Am Heiligenwald","postalCode":"65817","locality":"Eppstein","municipality":{"key":"06436002","name":"Eppstein, Stadt","type":"Stadt"},"district":{"key":"06436","name":"Main-Taunus-Kreis","type":"Landkreis"},"federalState":{"key":"06","name":"Hessen"}},{"name":"Am Heinzberg","postalCode":"65817","locality":"Eppstein","municipality":{"key":"06436002","name":"Eppstein, Stadt","type":"Stadt"},"district":{"key":"06436","name":"Main-Taunus-Kreis","type":"Landkreis"},"federalState":{"key":"06","name":"Hessen"}},{"name":"Am Herrngarten","postalCode":"65817","locality":"Eppstein","municipality":{"key":"06436002","name":"Eppstein, Stadt","type":"Stadt"},"district":{"key":"06436","name":"Main-Taunus-Kreis","type":"Landkreis"},"federalState":{"key":"06","name":"Hessen"}},{"name":"Am Herzhain","postalCode":"65817","locality":"Eppstein","municipality":{"key":"06436002","name":"Eppstein, Stadt","type":"Stadt"},"district":{"key":"06436","name":"Main-Taunus-Kreis","type":"Landkreis"},"federalState":{"key":"06","name":"Hessen"}},{"name":"Am Hirtengraben","postalCode":"65817","locality":"Eppstein","municipality":{"key":"06436002","name":"Eppstein, Stadt","type":"Stadt"},"district":{"key":"06436","name":"Main-Taunus-Kreis","type":"Landkreis"},"federalState":{"key":"06","name":"Hessen"}},{"name":"Am Holderbusch","postalCode":"65817","locality":"Eppstein","municipality":{"key":"06436002","name":"Eppstein, Stadt","type":"Stadt"},"district":{"key":"06436","name":"Main-Taunus-Kreis","type":"Landkreis"},"federalState":{"key":"06","name":"Hessen"}},{"name":"Am Honigbaum","postalCode":"65817","locality":"Eppstein","municipality":{"key":"06436002","name":"Eppstein, Stadt","type":"Stadt"},"district":{"key":"06436","name":"Main-Taunus-Kreis","type":"Landkreis"},"federalState":{"key":"06","name":"Hessen"}},{"name":"Am Hopfenstück","postalCode":"65817","locality":"Eppstein","municipality":{"key":"06436002","name":"Eppstein, Stadt","type":"Stadt"},"district":{"key":"06436","name":"Main-Taunus-Kreis","type":"Landkreis"},"federalState":{"key":"06","name":"Hessen"}},{"name":"Am Josbach","postalCode":"65817","locality":"Eppstein","municipality":{"key":"06436002","name":"Eppstein, Stadt","type":"Stadt"},"district":{"key":"06436","name":"Main-Taunus-Kreis","type":"Landkreis"},"federalState":{"key":"06","name":"Hessen"}},{"name":"Am Kamm","postalCode":"65817","locality":"Eppstein","municipality":{"key":"06436002","name":"Eppstein, Stadt","type":"Stadt"},"district":{"key":"06436","name":"Main-Taunus-Kreis","type":"Landkreis"},"federalState":{"key":"06","name":"Hessen"}},{"name":"Am Kiefernhang","postalCode":"65817","locality":"Eppstein","municipality":{"key":"06436002","name":"Eppstein, Stadt","type":"Stadt"},"district":{"key":"06436","name":"Main-Taunus-Kreis","type":"Landkreis"},"federalState":{"key":"06","name":"Hessen"}},{"name":"Am Königsbachtal","postalCode":"65817","locality":"Eppstein","municipality":{"key":"06436002","name":"Eppstein, Stadt","type":"Stadt"},"district":{"key":"06436","name":"Main-Taunus-Kreis","type":"Landkreis"},"federalState":{"key":"06","name":"Hessen"}},{"name":"Am Königsberg","postalCode":"65817","locality":"Eppstein","municipality":{"key":"06436002","name":"Eppstein, Stadt","type":"Stadt"},"district":{"key":"06436","name":"Main-Taunus-Kreis","type":"Landkreis"},"federalState":{"key":"06","name":"Hessen"}},{"name":"Am Lindenhof","postalCode":"65817","locality":"Eppstein","municipality":{"key":"06436002","name":"Eppstein, Stadt","type":"Stadt"},"district":{"key":"06436","name":"Main-Taunus-Kreis","type":"Landkreis"},"federalState":{"key":"06","name":"Hessen"}},{"name":"Am Quarzitbruch","postalCode":"65817","locality":"Eppstein","municipality":{"key":"06436002","name":"Eppstein, Stadt","type":"Stadt"},"district":{"key":"06436","name":"Main-Taunus-Kreis","type":"Landkreis"},"federalState":{"key":"06","name":"Hessen"}},{"name":"Am Schwarzbach","postalCode":"65817","locality":"Eppstein","municipality":{"key":"06436002","name":"Eppstein, Stadt","type":"Stadt"},"district":{"key":"06436","name":"Main-Taunus-Kreis","type":"Landkreis"},"federalState":{"key":"06","name":"Hessen"}},{"name":"Am Stadtbahnhof","postalCode":"65817","locality":"Eppstein","municipality":{"key":"06436002","name":"Eppstein, Stadt","type":"Stadt"},"district":{"key":"06436","name":"Main-Taunus-Kreis","type":"Landkreis"},"federalState":{"key":"06","name":"Hessen"}},{"name":"Am Steinberg","postalCode":"65817","locality":"Eppstein","municipality":{"key":"06436002","name":"Eppstein, Stadt","type":"Stadt"},"district":{"key":"06436","name":"Main-Taunus-Kreis","type":"Landkreis"},"federalState":{"key":"06","name":"Hessen"}},{"name":"Am Vogelgesang","postalCode":"65817","locality":"Eppstein","municipality":{"key":"06436002","name":"Eppstein, Stadt","type":"Stadt"},"district":{"key":"06436","name":"Main-Taunus-Kreis","type":"Landkreis"},"federalState":{"key":"06","name":"Hessen"}},{"name":"Am Wasserbaum","postalCode":"65817","locality":"Eppstein","municipality":{"key":"06436002","name":"Eppstein, Stadt","type":"Stadt"},"district":{"key":"06436","name":"Main-Taunus-Kreis","type":"Landkreis"},"federalState":{"key":"06","name":"Hessen"}},{"name":"Am Weidenbusch","postalCode":"65817","locality":"Eppstein","municipality":{"key":"06436002","name":"Eppstein, Stadt","type":"Stadt"},"district":{"key":"06436","name":"Main-Taunus-Kreis","type":"Landkreis"},"federalState":{"key":"06","name":"Hessen"}},{"name":"Am Wellgarten","postalCode":"65817","locality":"Eppstein","municipality":{"key":"06436002","name":"Eppstein, Stadt","type":"Stadt"},"district":{"key":"06436","name":"Main-Taunus-Kreis","type":"Landkreis"},"federalState":{"key":"06","name":"Hessen"}},{"name":"Am Woogberg","postalCode":"65817","locality":"Eppstein","municipality":{"key":"06436002","name":"Eppstein, Stadt","type":"Stadt"},"district":{"key":"06436","name":"Main-Taunus-Kreis","type":"Landkreis"},"federalState":{"key":"06","name":"Hessen"}},{"name":"Am Wörbes","postalCode":"65817","locality":"Eppstein","municipality":{"key":"06436002","name":"Eppstein, Stadt","type":"Stadt"},"district":{"key":"06436","name":"Main-Taunus-Kreis","type":"Landkreis"},"federalState":{"key":"06","name":"Hessen"}},{"name":"An den Kirchenäckern","postalCode":"65817","locality":"Eppstein","municipality":{"key":"06436002","name":"Eppstein, Stadt","type":"Stadt"},"district":{"key":"06436","name":"Main-Taunus-Kreis","type":"Landkreis"},"federalState":{"key":"06","name":"Hessen"}},{"name":"An den Lärchen","postalCode":"65817","locality":"Eppstein","municipality":{"key":"06436002","name":"Eppstein, Stadt","type":"Stadt"},"district":{"key":"06436","name":"Main-Taunus-Kreis","type":"Landkreis"},"federalState":{"key":"06","name":"Hessen"}},{"name":"An der Embsmühle","postalCode":"65817","locality":"Eppstein","municipality":{"key":"06436002","name":"Eppstein, Stadt","type":"Stadt"},"district":{"key":"06436","name":"Main-Taunus-Kreis","type":"Landkreis"},"federalState":{"key":"06","name":"Hessen"}},{"name":"An der Guldenmühle","postalCode":"65817","locality":"Eppstein","municipality":{"key":"06436002","name":"Eppstein, Stadt","type":"Stadt"},"district":{"key":"06436","name":"Main-Taunus-Kreis","type":"Landkreis"},"federalState":{"key":"06","name":"Hessen"}},{"name":"An der Hohl","postalCode":"65817","locality":"Eppstein","municipality":{"key":"06436002","name":"Eppstein, Stadt","type":"Stadt"},"district":{"key":"06436","name":"Main-Taunus-Kreis","type":"Landkreis"},"federalState":{"key":"06","name":"Hessen"}},{"name":"An der Mohrsmühle","postalCode":"65817","locality":"Eppstein","municipality":{"key":"06436002","name":"Eppstein, Stadt","type":"Stadt"},"district":{"key":"06436","name":"Main-Taunus-Kreis","type":"Landkreis"},"federalState":{"key":"06","name":"Hessen"}},{"name":"Bahnstr.","postalCode":"65817","locality":"Eppstein","municipality":{"key":"06436002","name":"Eppstein, Stadt","type":"Stadt"},"district":{"key":"06436","name":"Main-Taunus-Kreis","type":"Landkreis"},"federalState":{"key":"06","name":"Hessen"}},{"name":"Baumgarten","postalCode":"65817","locality":"Eppstein","municipality":{"key":"06436002","name":"Eppstein, Stadt","type":"Stadt"},"district":{"key":"06436","name":"Main-Taunus-Kreis","type":"Landkreis"},"federalState":{"key":"06","name":"Hessen"}},{"name":"Bergmann-Michel-Weg","postalCode":"65817","locality":"Eppstein","municipality":{"key":"06436002","name":"Eppstein, Stadt","type":"Stadt"},"district":{"key":"06436","name":"Main-Taunus-Kreis","type":"Landkreis"},"federalState":{"key":"06","name":"Hessen"}},{"name":"Bergstr.","postalCode":"65817","locality":"Eppstein","municipality":{"key":"06436002","name":"Eppstein, Stadt","type":"Stadt"},"district":{"key":"06436","name":"Main-Taunus-Kreis","type":"Landkreis"},"federalState":{"key":"06","name":"Hessen"}},{"name":"Bezirksstr.","postalCode":"65817","locality":"Eppstein","municipality":{"key":"06436002","name":"Eppstein, Stadt","type":"Stadt"},"district":{"key":"06436","name":"Main-Taunus-Kreis","type":"Landkreis"},"federalState":{"key":"06","name":"Hessen"}},{"name":"Birkenweg","postalCode":"65817","locality":"Eppstein","municipality":{"key":"06436002","name":"Eppstein, Stadt","type":"Stadt"},"district":{"key":"06436","name":"Main-Taunus-Kreis","type":"Landkreis"},"federalState":{"key":"06","name":"Hessen"}},{"name":"Borngasse","postalCode":"65817","locality":"Eppstein","municipality":{"key":"06436002","name":"Eppstein, Stadt","type":"Stadt"},"district":{"key":"06436","name":"Main-Taunus-Kreis","type":"Landkreis"},"federalState":{"key":"06","name":"Hessen"}},{"name":"Bornstr.","postalCode":"65817","locality":"Eppstein","municipality":{"key":"06436002","name":"Eppstein, Stadt","type":"Stadt"},"district":{"key":"06436","name":"Main-Taunus-Kreis","type":"Landkreis"},"federalState":{"key":"06","name":"Hessen"}},{"name":"Buchenweg","postalCode":"65817","locality":"Eppstein","municipality":{"key":"06436002","name":"Eppstein, Stadt","type":"Stadt"},"district":{"key":"06436","name":"Main-Taunus-Kreis","type":"Landkreis"},"federalState":{"key":"06","name":"Hessen"}},{"name":"Burgstr.","postalCode":"65817","locality":"Eppstein","municipality":{"key":"06436002","name":"Eppstein, Stadt","type":"Stadt"},"district":{"key":"06436","name":"Main-Taunus-Kreis","type":"Landkreis"},"federalState":{"key":"06","name":"Hessen"}},{"name":"Burkhardweg","postalCode":"65817","locality":"Eppstein","municipality":{"key":"06436002","name":"Eppstein, Stadt","type":"Stadt"},"district":{"key":"06436","name":"Main-Taunus-Kreis","type":"Landkreis"},"federalState":{"key":"06","name":"Hessen"}},{"name":"Butznickelweg","postalCode":"65817","locality":"Eppstein","municipality":{"key":"06436002","name":"Eppstein, Stadt","type":"Stadt"},"district":{"key":"06436","name":"Main-Taunus-Kreis","type":"Landkreis"},"federalState":{"key":"06","name":"Hessen"}},{"name":"Cuntzstr.","postalCode":"65817","locality":"Eppstein","municipality":{"key":"06436002","name":"Eppstein, Stadt","type":"Stadt"},"district":{"key":"06436","name":"Main-Taunus-Kreis","type":"Landkreis"},"federalState":{"key":"06","name":"Hessen"}},{"name":"Dattenbachstr.","postalCode":"65817","locality":"Eppstein","municipality":{"key":"06436002","name":"Eppstein, Stadt","type":"Stadt"},"district":{"key":"06436","name":"Main-Taunus-Kreis","type":"Landkreis"},"federalState":{"key":"06","name":"Hessen"}},{"name":"Dietrich-Bonhoeffer-Weg","postalCode":"65817","locality":"Eppstein","municipality":{"key":"06436002","name":"Eppstein, Stadt","type":"Stadt"},"district":{"key":"06436","name":"Main-Taunus-Kreis","type":"Landkreis"},"federalState":{"key":"06","name":"Hessen"}},{"name":"Eberlestr.","postalCode":"65817","locality":"Eppstein","municipality":{"key":"06436002","name":"Eppstein, Stadt","type":"Stadt"},"district":{"key":"06436","name":"Main-Taunus-Kreis","type":"Landkreis"},"federalState":{"key":"06","name":"Hessen"}},{"name":"Ehlhaltentrail","postalCode":"65817","locality":"Eppstein","municipality":{"key":"06436002","name":"Eppstein, Stadt","type":"Stadt"},"district":{"key":"06436","name":"Main-Taunus-Kreis","type":"Landkreis"},"federalState":{"key":"06","name":"Hessen"}},{"name":"Eichenweg","postalCode":"65817","locality":"Eppstein","municipality":{"key":"06436002","name":"Eppstein, Stadt","type":"Stadt"},"district":{"key":"06436","name":"Main-Taunus-Kreis","type":"Landkreis"},"federalState":{"key":"06","name":"Hessen"}},{"name":"Eppenhainer Str.","postalCode":"65817","locality":"Eppstein","municipality":{"key":"06436002","name":"Eppstein, Stadt","type":"Stadt"},"district":{"key":"06436","name":"Main-Taunus-Kreis","type":"Landkreis"},"federalState":{"key":"06","name":"Hessen"}},{"name":"Eppenhainer Weg","postalCode":"65817","locality":"Eppstein","municipality":{"key":"06436002","name":"Eppstein, Stadt","type":"Stadt"},"district":{"key":"06436","name":"Main-Taunus-Kreis","type":"Landkreis"},"federalState":{"key":"06","name":"Hessen"}},{"name":"Eppsteiner Str.","postalCode":"65817","locality":"Eppstein","municipality":{"key":"06436002","name":"Eppstein, Stadt","type":"Stadt"},"district":{"key":"06436","name":"Main-Taunus-Kreis","type":"Landkreis"},"federalState":{"key":"06","name":"Hessen"}},{"name":"Feldbergblick","postalCode":"65817","locality":"Eppstein","municipality":{"key":"06436002","name":"Eppstein, Stadt","type":"Stadt"},"district":{"key":"06436","name":"Main-Taunus-Kreis","type":"Landkreis"},"federalState":{"key":"06","name":"Hessen"}},{"name":"Feldbergstr.","postalCode":"65817","locality":"Eppstein","municipality":{"key":"06436002","name":"Eppstein, Stadt","type":"Stadt"},"district":{"key":"06436","name":"Main-Taunus-Kreis","type":"Landkreis"},"federalState":{"key":"06","name":"Hessen"}},{"name":"Fischbacher Str.","postalCode":"65817","locality":"Eppstein","municipality":{"key":"06436002","name":"Eppstein, Stadt","type":"Stadt"},"district":{"key":"06436","name":"Main-Taunus-Kreis","type":"Landkreis"},"federalState":{"key":"06","name":"Hessen"}},{"name":"Forsthausweg","postalCode":"65817","locality":"Eppstein","municipality":{"key":"06436002","name":"Eppstein, Stadt","type":"Stadt"},"district":{"key":"06436","name":"Main-Taunus-Kreis","type":"Landkreis"},"federalState":{"key":"06","name":"Hessen"}},{"name":"Forstwiese","postalCode":"65817","locality":"Eppstein","municipality":{"key":"06436002","name":"Eppstein, Stadt","type":"Stadt"},"district":{"key":"06436","name":"Main-Taunus-Kreis","type":"Landkreis"},"federalState":{"key":"06","name":"Hessen"}},{"name":"Frankfurter Str.","postalCode":"65817","locality":"Eppstein","municipality":{"key":"06436002","name":"Eppstein, Stadt","type":"Stadt"},"district":{"key":"06436","name":"Main-Taunus-Kreis","type":"Landkreis"},"federalState":{"key":"06","name":"Hessen"}},{"name":"Freiherr-vom-Stein-Str.","postalCode":"65817","locality":"Eppstein","municipality":{"key":"06436002","name":"Eppstein, Stadt","type":"Stadt"},"district":{"key":"06436","name":"Main-Taunus-Kreis","type":"Landkreis"},"federalState":{"key":"06","name":"Hessen"}},{"name":"Freiherr-von-Ickstatt-Str.","postalCode":"65817","locality":"Eppstein","municipality":{"key":"06436002","name":"Eppstein, Stadt","type":"Stadt"},"district":{"key":"06436","name":"Main-Taunus-Kreis","type":"Landkreis"},"federalState":{"key":"06","name":"Hessen"}},{"name":"Friedrich-Ebert-Str.","postalCode":"65817","locality":"Eppstein","municipality":{"key":"06436002","name":"Eppstein, Stadt","type":"Stadt"},"district":{"key":"06436","name":"Main-Taunus-Kreis","type":"Landkreis"},"federalState":{"key":"06","name":"Hessen"}},{"name":"Friedrichstr.","postalCode":"65817","locality":"Eppstein","municipality":{"key":"06436002","name":"Eppstein, Stadt","type":"Stadt"},"district":{"key":"06436","name":"Main-Taunus-Kreis","type":"Landkreis"},"federalState":{"key":"06","name":"Hessen"}},{"name":"Gartenstr.","postalCode":"65817","locality":"Eppstein","municipality":{"key":"06436002","name":"Eppstein, Stadt","type":"Stadt"},"district":{"key":"06436","name":"Main-Taunus-Kreis","type":"Landkreis"},"federalState":{"key":"06","name":"Hessen"}},{"name":"Gimbacher Str.","postalCode":"65817","locality":"Eppstein","municipality":{"key":"06436002","name":"Eppstein, Stadt","type":"Stadt"},"district":{"key":"06436","name":"Main-Taunus-Kreis","type":"Landkreis"},"federalState":{"key":"06","name":"Hessen"}},{"name":"Ginsterweg","postalCode":"65817","locality":"Eppstein","municipality":{"key":"06436002","name":"Eppstein, Stadt","type":"Stadt"},"district":{"key":"06436","name":"Main-Taunus-Kreis","type":"Landkreis"},"federalState":{"key":"06","name":"Hessen"}},{"name":"Goethestr.","postalCode":"65817","locality":"Eppstein","municipality":{"key":"06436002","name":"Eppstein, Stadt","type":"Stadt"},"district":{"key":"06436","name":"Main-Taunus-Kreis","type":"Landkreis"},"federalState":{"key":"06","name":"Hessen"}},{"name":"Goldbachstr.","postalCode":"65817","locality":"Eppstein","municipality":{"key":"06436002","name":"Eppstein, Stadt","type":"Stadt"},"district":{"key":"06436","name":"Main-Taunus-Kreis","type":"Landkreis"},"federalState":{"key":"06","name":"Hessen"}},{"name":"Grabenstr.","postalCode":"65817","locality":"Eppstein","municipality":{"key":"06436002","name":"Eppstein, Stadt","type":"Stadt"},"district":{"key":"06436","name":"Main-Taunus-Kreis","type":"Landkreis"},"federalState":{"key":"06","name":"Hessen"}},{"name":"Gräfliche Str.","postalCode":"65817","locality":"Eppstein","municipality":{"key":"06436002","name":"Eppstein, Stadt","type":"Stadt"},"district":{"key":"06436","name":"Main-Taunus-Kreis","type":"Landkreis"},"federalState":{"key":"06","name":"Hessen"}},{"name":"Hainbuchenstr.","postalCode":"65817","locality":"Eppstein","municipality":{"key":"06436002","name":"Eppstein, Stadt","type":"Stadt"},"district":{"key":"06436","name":"Main-Taunus-Kreis","type":"Landkreis"},"federalState":{"key":"06","name":"Hessen"}},{"name":"Hainkopfstr.","postalCode":"65817","locality":"Eppstein","municipality":{"key":"06436002","name":"Eppstein, Stadt","type":"Stadt"},"district":{"key":"06436","name":"Main-Taunus-Kreis","type":"Landkreis"},"federalState":{"key":"06","name":"Hessen"}},{"name":"Hainweg","postalCode":"65817","locality":"Eppstein","municipality":{"key":"06436002","name":"Eppstein, Stadt","type":"Stadt"},"district":{"key":"06436","name":"Main-Taunus-Kreis","type":"Landkreis"},"federalState":{"key":"06","name":"Hessen"}},{"name":"Haselberg","postalCode":"65817","locality":"Eppstein","municipality":{"key":"06436002","name":"Eppstein, Stadt","type":"Stadt"},"district":{"key":"06436","name":"Main-Taunus-Kreis","type":"Landkreis"},"federalState":{"key":"06","name":"Hessen"}},{"name":"Hasenborn","postalCode":"65817","locality":"Eppstein","municipality":{"key":"06436002","name":"Eppstein, Stadt","type":"Stadt"},"district":{"key":"06436","name":"Main-Taunus-Kreis","type":"Landkreis"},"federalState":{"key":"06","name":"Hessen"}},{"name":"Hauptstr.","postalCode":"65817","locality":"Eppstein","municipality":{"key":"06436002","name":"Eppstein, Stadt","type":"Stadt"},"district":{"key":"06436","name":"Main-Taunus-Kreis","type":"Landkreis"},"federalState":{"key":"06","name":"Hessen"}},{"name":"Hebelstr.","postalCode":"65817","locality":"Eppstein","municipality":{"key":"06436002","name":"Eppstein, Stadt","type":"Stadt"},"district":{"key":"06436","name":"Main-Taunus-Kreis","type":"Landkreis"},"federalState":{"key":"06","name":"Hessen"}},{"name":"Heinrich-Anton-Ickstadt-Anlage","postalCode":"65817","locality":"Eppstein","municipality":{"key":"06436002","name":"Eppstein, Stadt","type":"Stadt"},"district":{"key":"06436","name":"Main-Taunus-Kreis","type":"Landkreis"},"federalState":{"key":"06","name":"Hessen"}},{"name":"Heinrich-Heine-Str.","postalCode":"65817","locality":"Eppstein","municipality":{"key":"06436002","name":"Eppstein, Stadt","type":"Stadt"},"district":{"key":"06436","name":"Main-Taunus-Kreis","type":"Landkreis"},"federalState":{"key":"06","name":"Hessen"}},{"name":"Hellmersgarten","postalCode":"65817","locality":"Eppstein","municipality":{"key":"06436002","name":"Eppstein, Stadt","type":"Stadt"},"district":{"key":"06436","name":"Main-Taunus-Kreis","type":"Landkreis"},"federalState":{"key":"06","name":"Hessen"}},{"name":"Herdewies","postalCode":"65817","locality":"Eppstein","municipality":{"key":"06436002","name":"Eppstein, Stadt","type":"Stadt"},"district":{"key":"06436","name":"Main-Taunus-Kreis","type":"Landkreis"},"federalState":{"key":"06","name":"Hessen"}},{"name":"Hessenring","postalCode":"65817","locality":"Eppstein","municipality":{"key":"06436002","name":"Eppstein, Stadt","type":"Stadt"},"district":{"key":"06436","name":"Main-Taunus-Kreis","type":"Landkreis"},"federalState":{"key":"06","name":"Hessen"}},{"name":"Hintergasse","postalCode":"65817","locality":"Eppstein","municipality":{"key":"06436002","name":"Eppstein, Stadt","type":"Stadt"},"district":{"key":"06436","name":"Main-Taunus-Kreis","type":"Landkreis"},"federalState":{"key":"06","name":"Hessen"}},{"name":"Hollergewann","postalCode":"65817","locality":"Eppstein","municipality":{"key":"06436002","name":"Eppstein, Stadt","type":"Stadt"},"district":{"key":"06436","name":"Main-Taunus-Kreis","type":"Landkreis"},"federalState":{"key":"06","name":"Hessen"}},{"name":"Holunderweg","postalCode":"65817","locality":"Eppstein","municipality":{"key":"06436002","name":"Eppstein, Stadt","type":"Stadt"},"district":{"key":"06436","name":"Main-Taunus-Kreis","type":"Landkreis"},"federalState":{"key":"06","name":"Hessen"}},{"name":"Im Birkenhain","postalCode":"65817","locality":"Eppstein","municipality":{"key":"06436002","name":"Eppstein, Stadt","type":"Stadt"},"district":{"key":"06436","name":"Main-Taunus-Kreis","type":"Landkreis"},"federalState":{"key":"06","name":"Hessen"}},{"name":"Im Hirtengarten","postalCode":"65817","locality":"Eppstein","municipality":{"key":"06436002","name":"Eppstein, Stadt","type":"Stadt"},"district":{"key":"06436","name":"Main-Taunus-Kreis","type":"Landkreis"},"federalState":{"key":"06","name":"Hessen"}},{"name":"Im Kirschgarten","postalCode":"65817","locality":"Eppstein","municipality":{"key":"06436002","name":"Eppstein, Stadt","type":"Stadt"},"district":{"key":"06436","name":"Main-Taunus-Kreis","type":"Landkreis"},"federalState":{"key":"06","name":"Hessen"}},{"name":"Im Rehwinkel","postalCode":"65817","locality":"Eppstein","municipality":{"key":"06436002","name":"Eppstein, Stadt","type":"Stadt"},"district":{"key":"06436","name":"Main-Taunus-Kreis","type":"Landkreis"},"federalState":{"key":"06","name":"Hessen"}},{"name":"In den Amtmannswiesen","postalCode":"65817","locality":"Eppstein","municipality":{"key":"06436002","name":"Eppstein, Stadt","type":"Stadt"},"district":{"key":"06436","name":"Main-Taunus-Kreis","type":"Landkreis"},"federalState":{"key":"06","name":"Hessen"}},{"name":"In der Müllerwies","postalCode":"65817","locality":"Eppstein","municipality":{"key":"06436002","name":"Eppstein, Stadt","type":"Stadt"},"district":{"key":"06436","name":"Main-Taunus-Kreis","type":"Landkreis"},"federalState":{"key":"06","name":"Hessen"}},{"name":"In der Reiterhohl","postalCode":"65817","locality":"Eppstein","municipality":{"key":"06436002","name":"Eppstein, Stadt","type":"Stadt"},"district":{"key":"06436","name":"Main-Taunus-Kreis","type":"Landkreis"},"federalState":{"key":"06","name":"Hessen"}},{"name":"In der Steinbach","postalCode":"65817","locality":"Eppstein","municipality":{"key":"06436002","name":"Eppstein, Stadt","type":"Stadt"},"district":{"key":"06436","name":"Main-Taunus-Kreis","type":"Landkreis"},"federalState":{"key":"06","name":"Hessen"}},{"name":"Jahnstr.","postalCode":"65817","locality":"Eppstein","municipality":{"key":"06436002","name":"Eppstein, Stadt","type":"Stadt"},"district":{"key":"06436","name":"Main-Taunus-Kreis","type":"Landkreis"},"federalState":{"key":"06","name":"Hessen"}},{"name":"Kantstr.","postalCode":"65817","locality":"Eppstein","municipality":{"key":"06436002","name":"Eppstein, Stadt","type":"Stadt"},"district":{"key":"06436","name":"Main-Taunus-Kreis","type":"Landkreis"},"federalState":{"key":"06","name":"Hessen"}},{"name":"Kirchenpfad","postalCode":"65817","locality":"Eppstein","municipality":{"key":"06436002","name":"Eppstein, Stadt","type":"Stadt"},"district":{"key":"06436","name":"Main-Taunus-Kreis","type":"Landkreis"},"federalState":{"key":"06","name":"Hessen"}},{"name":"Kirchgasse","postalCode":"65817","locality":"Eppstein","municipality":{"key":"06436002","name":"Eppstein, Stadt","type":"Stadt"},"district":{"key":"06436","name":"Main-Taunus-Kreis","type":"Landkreis"},"federalState":{"key":"06","name":"Hessen"}},{"name":"Kirchhofsgewann","postalCode":"65817","locality":"Eppstein","municipality":{"key":"06436002","name":"Eppstein, Stadt","type":"Stadt"},"district":{"key":"06436","name":"Main-Taunus-Kreis","type":"Landkreis"},"federalState":{"key":"06","name":"Hessen"}},{"name":"Kirchstr.","postalCode":"65817","locality":"Eppstein","municipality":{"key":"06436002","name":"Eppstein, Stadt","type":"Stadt"},"district":{"key":"06436","name":"Main-Taunus-Kreis","type":"Landkreis"},"federalState":{"key":"06","name":"Hessen"}},{"name":"Kohlgrube","postalCode":"65817","locality":"Eppstein","municipality":{"key":"06436002","name":"Eppstein, Stadt","type":"Stadt"},"district":{"key":"06436","name":"Main-Taunus-Kreis","type":"Landkreis"},"federalState":{"key":"06","name":"Hessen"}},{"name":"Königsteiner Str.","postalCode":"65817","locality":"Eppstein","municipality":{"key":"06436002","name":"Eppstein, Stadt","type":"Stadt"},"district":{"key":"06436","name":"Main-Taunus-Kreis","type":"Landkreis"},"federalState":{"key":"06","name":"Hessen"}},{"name":"Kramerweg","postalCode":"65817","locality":"Eppstein","municipality":{"key":"06436002","name":"Eppstein, Stadt","type":"Stadt"},"district":{"key":"06436","name":"Main-Taunus-Kreis","type":"Landkreis"},"federalState":{"key":"06","name":"Hessen"}},{"name":"Kreuzheck","postalCode":"65817","locality":"Eppstein","municipality":{"key":"06436002","name":"Eppstein, Stadt","type":"Stadt"},"district":{"key":"06436","name":"Main-Taunus-Kreis","type":"Landkreis"},"federalState":{"key":"06","name":"Hessen"}},{"name":"Kurfürstenstr.","postalCode":"65817","locality":"Eppstein","municipality":{"key":"06436002","name":"Eppstein, Stadt","type":"Stadt"},"district":{"key":"06436","name":"Main-Taunus-Kreis","type":"Landkreis"},"federalState":{"key":"06","name":"Hessen"}},{"name":"Kurmainzer Str.","postalCode":"65817","locality":"Eppstein","municipality":{"key":"06436002","name":"Eppstein, Stadt","type":"Stadt"},"district":{"key":"06436","name":"Main-Taunus-Kreis","type":"Landkreis"},"federalState":{"key":"06","name":"Hessen"}},{"name":"Langenhainer Str.","postalCode":"65817","locality":"Eppstein","municipality":{"key":"06436002","name":"Eppstein, Stadt","type":"Stadt"},"district":{"key":"06436","name":"Main-Taunus-Kreis","type":"Landkreis"},"federalState":{"key":"06","name":"Hessen"}},{"name":"Langstr.","postalCode":"65817","locality":"Eppstein","municipality":{"key":"06436002","name":"Eppstein, Stadt","type":"Stadt"},"district":{"key":"06436","name":"Main-Taunus-Kreis","type":"Landkreis"},"federalState":{"key":"06","name":"Hessen"}},{"name":"Lenzhahner Weg","postalCode":"65817","locality":"Eppstein","municipality":{"key":"06436002","name":"Eppstein, Stadt","type":"Stadt"},"district":{"key":"06436","name":"Main-Taunus-Kreis","type":"Landkreis"},"federalState":{"key":"06","name":"Hessen"}},{"name":"Lessingstr.","postalCode":"65817","locality":"Eppstein","municipality":{"key":"06436002","name":"Eppstein, Stadt","type":"Stadt"},"district":{"key":"06436","name":"Main-Taunus-Kreis","type":"Landkreis"},"federalState":{"key":"06","name":"Hessen"}},{"name":"Lindenkopfstr.","postalCode":"65817","locality":"Eppstein","municipality":{"key":"06436002","name":"Eppstein, Stadt","type":"Stadt"},"district":{"key":"06436","name":"Main-Taunus-Kreis","type":"Landkreis"},"federalState":{"key":"06","name":"Hessen"}},{"name":"Lindenweg","postalCode":"65817","locality":"Eppstein","municipality":{"key":"06436002","name":"Eppstein, Stadt","type":"Stadt"},"district":{"key":"06436","name":"Main-Taunus-Kreis","type":"Landkreis"},"federalState":{"key":"06","name":"Hessen"}},{"name":"Lorsbacher Str.","postalCode":"65817","locality":"Eppstein","municipality":{"key":"06436002","name":"Eppstein, Stadt","type":"Stadt"},"district":{"key":"06436","name":"Main-Taunus-Kreis","type":"Landkreis"},"federalState":{"key":"06","name":"Hessen"}},{"name":"Masurenweg","postalCode":"65817","locality":"Eppstein","municipality":{"key":"06436002","name":"Eppstein, Stadt","type":"Stadt"},"district":{"key":"06436","name":"Main-Taunus-Kreis","type":"Landkreis"},"federalState":{"key":"06","name":"Hessen"}},{"name":"Mendelssohnstr.","postalCode":"65817","locality":"Eppstein","municipality":{"key":"06436002","name":"Eppstein, Stadt","type":"Stadt"},"district":{"key":"06436","name":"Main-Taunus-Kreis","type":"Landkreis"},"federalState":{"key":"06","name":"Hessen"}},{"name":"Mittlerer Heinzbergweg","postalCode":"65817","locality":"Eppstein","municipality":{"key":"06436002","name":"Eppstein, Stadt","type":"Stadt"},"district":{"key":"06436","name":"Main-Taunus-Kreis","type":"Landkreis"},"federalState":{"key":"06","name":"Hessen"}},{"name":"Mohrsmühle","postalCode":"65817","locality":"Eppstein","municipality":{"key":"06436002","name":"Eppstein, Stadt","type":"Stadt"},"district":{"key":"06436","name":"Main-Taunus-Kreis","type":"Landkreis"},"federalState":{"key":"06","name":"Hessen"}},{"name":"Mühlweg","postalCode":"65817","locality":"Eppstein","municipality":{"key":"06436002","name":"Eppstein, Stadt","type":"Stadt"},"district":{"key":"06436","name":"Main-Taunus-Kreis","type":"Landkreis"},"federalState":{"key":"06","name":"Hessen"}},{"name":"Münsterer Weg","postalCode":"65817","locality":"Eppstein","municipality":{"key":"06436002","name":"Eppstein, Stadt","type":"Stadt"},"district":{"key":"06436","name":"Main-Taunus-Kreis","type":"Landkreis"},"federalState":{"key":"06","name":"Hessen"}},{"name":"Nassauer Str.","postalCode":"65817","locality":"Eppstein","municipality":{"key":"06436002","name":"Eppstein, Stadt","type":"Stadt"},"district":{"key":"06436","name":"Main-Taunus-Kreis","type":"Landkreis"},"federalState":{"key":"06","name":"Hessen"}},{"name":"Nauroder Str.","postalCode":"65817","locality":"Eppstein","municipality":{"key":"06436002","name":"Eppstein, Stadt","type":"Stadt"},"district":{"key":"06436","name":"Main-Taunus-Kreis","type":"Landkreis"},"federalState":{"key":"06","name":"Hessen"}},{"name":"Neugasse","postalCode":"65817","locality":"Eppstein","municipality":{"key":"06436002","name":"Eppstein, Stadt","type":"Stadt"},"district":{"key":"06436","name":"Main-Taunus-Kreis","type":"Landkreis"},"federalState":{"key":"06","name":"Hessen"}},{"name":"Niederjosbacher Str.","postalCode":"65817","locality":"Eppstein","municipality":{"key":"06436002","name":"Eppstein, Stadt","type":"Stadt"},"district":{"key":"06436","name":"Main-Taunus-Kreis","type":"Landkreis"},"federalState":{"key":"06","name":"Hessen"}},{"name":"Nonnenwaldstr.","postalCode":"65817","locality":"Eppstein","municipality":{"key":"06436002","name":"Eppstein, Stadt","type":"Stadt"},"district":{"key":"06436","name":"Main-Taunus-Kreis","type":"Landkreis"},"federalState":{"key":"06","name":"Hessen"}},{"name":"Ober dem Staufenweg","postalCode":"65817","locality":"Eppstein","municipality":{"key":"06436002","name":"Eppstein, Stadt","type":"Stadt"},"district":{"key":"06436","name":"Main-Taunus-Kreis","type":"Landkreis"},"federalState":{"key":"06","name":"Hessen"}},{"name":"Ober den Eisenkauten","postalCode":"65817","locality":"Eppstein","municipality":{"key":"06436002","name":"Eppstein, Stadt","type":"Stadt"},"district":{"key":"06436","name":"Main-Taunus-Kreis","type":"Landkreis"},"federalState":{"key":"06","name":"Hessen"}},{"name":"Oberer Lindenweg","postalCode":"65817","locality":"Eppstein","municipality":{"key":"06436002","name":"Eppstein, Stadt","type":"Stadt"},"district":{"key":"06436","name":"Main-Taunus-Kreis","type":"Landkreis"},"federalState":{"key":"06","name":"Hessen"}},{"name":"Obergasse","postalCode":"65817","locality":"Eppstein","municipality":{"key":"06436002","name":"Eppstein, Stadt","type":"Stadt"},"district":{"key":"06436","name":"Main-Taunus-Kreis","type":"Landkreis"},"federalState":{"key":"06","name":"Hessen"}},{"name":"Oranienstr.","postalCode":"65817","locality":"Eppstein","municipality":{"key":"06436002","name":"Eppstein, Stadt","type":"Stadt"},"district":{"key":"06436","name":"Main-Taunus-Kreis","type":"Landkreis"},"federalState":{"key":"06","name":"Hessen"}},{"name":"Parkanlage Altenzentrum Bündelberg","postalCode":"65817","locality":"Eppstein","municipality":{"key":"06436002","name":"Eppstein, Stadt","type":"Stadt"},"district":{"key":"06436","name":"Main-Taunus-Kreis","type":"Landkreis"},"federalState":{"key":"06","name":"Hessen"}},{"name":"Pfarrer-Reuter-Str.","postalCode":"65817","locality":"Eppstein","municipality":{"key":"06436002","name":"Eppstein, Stadt","type":"Stadt"},"district":{"key":"06436","name":"Main-Taunus-Kreis","type":"Landkreis"},"federalState":{"key":"06","name":"Hessen"}},{"name":"Pommernring","postalCode":"65817","locality":"Eppstein","municipality":{"key":"06436002","name":"Eppstein, Stadt","type":"Stadt"},"district":{"key":"06436","name":"Main-Taunus-Kreis","type":"Landkreis"},"federalState":{"key":"06","name":"Hessen"}},{"name":"Poststr.","postalCode":"65817","locality":"Eppstein","municipality":{"key":"06436002","name":"Eppstein, Stadt","type":"Stadt"},"district":{"key":"06436","name":"Main-Taunus-Kreis","type":"Landkreis"},"federalState":{"key":"06","name":"Hessen"}},{"name":"Prinzengraben","postalCode":"65817","locality":"Eppstein","municipality":{"key":"06436002","name":"Eppstein, Stadt","type":"Stadt"},"district":{"key":"06436","name":"Main-Taunus-Kreis","type":"Landkreis"},"federalState":{"key":"06","name":"Hessen"}},{"name":"Robert-Koch-Str.","postalCode":"65817","locality":"Eppstein","municipality":{"key":"06436002","name":"Eppstein, Stadt","type":"Stadt"},"district":{"key":"06436","name":"Main-Taunus-Kreis","type":"Landkreis"},"federalState":{"key":"06","name":"Hessen"}},{"name":"Rödelbergweg","postalCode":"65817","locality":"Eppstein","municipality":{"key":"06436002","name":"Eppstein, Stadt","type":"Stadt"},"district":{"key":"06436","name":"Main-Taunus-Kreis","type":"Landkreis"},"federalState":{"key":"06","name":"Hessen"}},{"name":"Rossertblick","postalCode":"65817","locality":"Eppstein","municipality":{"key":"06436002","name":"Eppstein, Stadt","type":"Stadt"},"district":{"key":"06436","name":"Main-Taunus-Kreis","type":"Landkreis"},"federalState":{"key":"06","name":"Hessen"}},{"name":"Rossertstr.","postalCode":"65817","locality":"Eppstein","municipality":{"key":"06436002","name":"Eppstein, Stadt","type":"Stadt"},"district":{"key":"06436","name":"Main-Taunus-Kreis","type":"Landkreis"},"federalState":{"key":"06","name":"Hessen"}},{"name":"Rossertweg","postalCode":"65817","locality":"Eppstein","municipality":{"key":"06436002","name":"Eppstein, Stadt","type":"Stadt"},"district":{"key":"06436","name":"Main-Taunus-Kreis","type":"Landkreis"},"federalState":{"key":"06","name":"Hessen"}},{"name":"Sachsenring","postalCode":"65817","locality":"Eppstein","municipality":{"key":"06436002","name":"Eppstein, Stadt","type":"Stadt"},"district":{"key":"06436","name":"Main-Taunus-Kreis","type":"Landkreis"},"federalState":{"key":"06","name":"Hessen"}},{"name":"Sachsweg","postalCode":"65817","locality":"Eppstein","municipality":{"key":"06436002","name":"Eppstein, Stadt","type":"Stadt"},"district":{"key":"06436","name":"Main-Taunus-Kreis","type":"Landkreis"},"federalState":{"key":"06","name":"Hessen"}},{"name":"Schäfergasse","postalCode":"65817","locality":"Eppstein","municipality":{"key":"06436002","name":"Eppstein, Stadt","type":"Stadt"},"district":{"key":"06436","name":"Main-Taunus-Kreis","type":"Landkreis"},"federalState":{"key":"06","name":"Hessen"}},{"name":"Schillerstr.","postalCode":"65817","locality":"Eppstein","municipality":{"key":"06436002","name":"Eppstein, Stadt","type":"Stadt"},"district":{"key":"06436","name":"Main-Taunus-Kreis","type":"Landkreis"},"federalState":{"key":"06","name":"Hessen"}},{"name":"Schloßborner Str.","postalCode":"65817","locality":"Eppstein","municipality":{"key":"06436002","name":"Eppstein, Stadt","type":"Stadt"},"district":{"key":"06436","name":"Main-Taunus-Kreis","type":"Landkreis"},"federalState":{"key":"06","name":"Hessen"}},{"name":"Schulstr.","postalCode":"65817","locality":"Eppstein","municipality":{"key":"06436002","name":"Eppstein, Stadt","type":"Stadt"},"district":{"key":"06436","name":"Main-Taunus-Kreis","type":"Landkreis"},"federalState":{"key":"06","name":"Hessen"}},{"name":"Schützenstr.","postalCode":"65817","locality":"Eppstein","municipality":{"key":"06436002","name":"Eppstein, Stadt","type":"Stadt"},"district":{"key":"06436","name":"Main-Taunus-Kreis","type":"Landkreis"},"federalState":{"key":"06","name":"Hessen"}},{"name":"Silberbachstr.","postalCode":"65817","locality":"Eppstein","municipality":{"key":"06436002","name":"Eppstein, Stadt","type":"Stadt"},"district":{"key":"06436","name":"Main-Taunus-Kreis","type":"Landkreis"},"federalState":{"key":"06","name":"Hessen"}},{"name":"Staufenblick","postalCode":"65817","locality":"Eppstein","municipality":{"key":"06436002","name":"Eppstein, Stadt","type":"Stadt"},"district":{"key":"06436","name":"Main-Taunus-Kreis","type":"Landkreis"},"federalState":{"key":"06","name":"Hessen"}},{"name":"Staufenstr.","postalCode":"65817","locality":"Eppstein","municipality":{"key":"06436002","name":"Eppstein, Stadt","type":"Stadt"},"district":{"key":"06436","name":"Main-Taunus-Kreis","type":"Landkreis"},"federalState":{"key":"06","name":"Hessen"}},{"name":"Steinweg","postalCode":"65817","locality":"Eppstein","municipality":{"key":"06436002","name":"Eppstein, Stadt","type":"Stadt"},"district":{"key":"06436","name":"Main-Taunus-Kreis","type":"Landkreis"},"federalState":{"key":"06","name":"Hessen"}},{"name":"Steinwiesenweg","postalCode":"65817","locality":"Eppstein","municipality":{"key":"06436002","name":"Eppstein, Stadt","type":"Stadt"},"district":{"key":"06436","name":"Main-Taunus-Kreis","type":"Landkreis"},"federalState":{"key":"06","name":"Hessen"}},{"name":"Stolbergstr.","postalCode":"65817","locality":"Eppstein","municipality":{"key":"06436002","name":"Eppstein, Stadt","type":"Stadt"},"district":{"key":"06436","name":"Main-Taunus-Kreis","type":"Landkreis"},"federalState":{"key":"06","name":"Hessen"}},{"name":"Talblick","postalCode":"65817","locality":"Eppstein","municipality":{"key":"06436002","name":"Eppstein, Stadt","type":"Stadt"},"district":{"key":"06436","name":"Main-Taunus-Kreis","type":"Landkreis"},"federalState":{"key":"06","name":"Hessen"}},{"name":"Taunusblick","postalCode":"65817","locality":"Eppstein","municipality":{"key":"06436002","name":"Eppstein, Stadt","type":"Stadt"},"district":{"key":"06436","name":"Main-Taunus-Kreis","type":"Landkreis"},"federalState":{"key":"06","name":"Hessen"}},{"name":"Taunusstr.","postalCode":"65817","locality":"Eppstein","municipality":{"key":"06436002","name":"Eppstein, Stadt","type":"Stadt"},"district":{"key":"06436","name":"Main-Taunus-Kreis","type":"Landkreis"},"federalState":{"key":"06","name":"Hessen"}},{"name":"Tiefer Weg","postalCode":"65817","locality":"Eppstein","municipality":{"key":"06436002","name":"Eppstein, Stadt","type":"Stadt"},"district":{"key":"06436","name":"Main-Taunus-Kreis","type":"Landkreis"},"federalState":{"key":"06","name":"Hessen"}},{"name":"Unter den Buchen","postalCode":"65817","locality":"Eppstein","municipality":{"key":"06436002","name":"Eppstein, Stadt","type":"Stadt"},"district":{"key":"06436","name":"Main-Taunus-Kreis","type":"Landkreis"},"federalState":{"key":"06","name":"Hessen"}},{"name":"Unter den Ulmen","postalCode":"65817","locality":"Eppstein","municipality":{"key":"06436002","name":"Eppstein, Stadt","type":"Stadt"},"district":{"key":"06436","name":"Main-Taunus-Kreis","type":"Landkreis"},"federalState":{"key":"06","name":"Hessen"}},{"name":"Untergasse","postalCode":"65817","locality":"Eppstein","municipality":{"key":"06436002","name":"Eppstein, Stadt","type":"Stadt"},"district":{"key":"06436","name":"Main-Taunus-Kreis","type":"Landkreis"},"federalState":{"key":"06","name":"Hessen"}},{"name":"Valterweg","postalCode":"65817","locality":"Eppstein","municipality":{"key":"06436002","name":"Eppstein, Stadt","type":"Stadt"},"district":{"key":"06436","name":"Main-Taunus-Kreis","type":"Landkreis"},"federalState":{"key":"06","name":"Hessen"}},{"name":"Vor dem Thor","postalCode":"65817","locality":"Eppstein","municipality":{"key":"06436002","name":"Eppstein, Stadt","type":"Stadt"},"district":{"key":"06436","name":"Main-Taunus-Kreis","type":"Landkreis"},"federalState":{"key":"06","name":"Hessen"}},{"name":"Waldallee","postalCode":"65817","locality":"Eppstein","municipality":{"key":"06436002","name":"Eppstein, Stadt","type":"Stadt"},"district":{"key":"06436","name":"Main-Taunus-Kreis","type":"Landkreis"},"federalState":{"key":"06","name":"Hessen"}},{"name":"Waldstr.","postalCode":"65817","locality":"Eppstein","municipality":{"key":"06436002","name":"Eppstein, Stadt","type":"Stadt"},"district":{"key":"06436","name":"Main-Taunus-Kreis","type":"Landkreis"},"federalState":{"key":"06","name":"Hessen"}},{"name":"Weingasse","postalCode":"65817","locality":"Eppstein","municipality":{"key":"06436002","name":"Eppstein, Stadt","type":"Stadt"},"district":{"key":"06436","name":"Main-Taunus-Kreis","type":"Landkreis"},"federalState":{"key":"06","name":"Hessen"}},{"name":"Wernerplatz","postalCode":"65817","locality":"Eppstein","municipality":{"key":"06436002","name":"Eppstein, Stadt","type":"Stadt"},"district":{"key":"06436","name":"Main-Taunus-Kreis","type":"Landkreis"},"federalState":{"key":"06","name":"Hessen"}},{"name":"Wiesbadener Str.","postalCode":"65817","locality":"Eppstein","municipality":{"key":"06436002","name":"Eppstein, Stadt","type":"Stadt"},"district":{"key":"06436","name":"Main-Taunus-Kreis","type":"Landkreis"},"federalState":{"key":"06","name":"Hessen"}},{"name":"Wiesenstr.","postalCode":"65817","locality":"Eppstein","municipality":{"key":"06436002","name":"Eppstein, Stadt","type":"Stadt"},"district":{"key":"06436","name":"Main-Taunus-Kreis","type":"Landkreis"},"federalState":{"key":"06","name":"Hessen"}},{"name":"Wilhelm-Reuter-Str.","postalCode":"65817","locality":"Eppstein","municipality":{"key":"06436002","name":"Eppstein, Stadt","type":"Stadt"},"district":{"key":"06436","name":"Main-Taunus-Kreis","type":"Landkreis"},"federalState":{"key":"06","name":"Hessen"}},{"name":"Wooganlage","postalCode":"65817","locality":"Eppstein","municipality":{"key":"06436002","name":"Eppstein, Stadt","type":"Stadt"},"district":{"key":"06436","name":"Main-Taunus-Kreis","type":"Landkreis"},"federalState":{"key":"06","name":"Hessen"}},{"name":"Wörbesgarten","postalCode":"65817","locality":"Eppstein","municipality":{"key":"06436002","name":"Eppstein, Stadt","type":"Stadt"},"district":{"key":"06436","name":"Main-Taunus-Kreis","type":"Landkreis"},"federalState":{"key":"06","name":"Hessen"}},{"name":"Zeilring","postalCode":"65817","locality":"Eppstein","municipality":{"key":"06436002","name":"Eppstein, Stadt","type":"Stadt"},"district":{"key":"06436","name":"Main-Taunus-Kreis","type":"Landkreis"},"federalState":{"key":"06","name":"Hessen"}},{"name":"Zum Blauen Stein","postalCode":"65817","locality":"Eppstein","municipality":{"key":"06436002","name":"Eppstein, Stadt","type":"Stadt"},"district":{"key":"06436","name":"Main-Taunus-Kreis","type":"Landkreis"},"federalState":{"key":"06","name":"Hessen"}},{"name":"Zum Kohlwaldfeld","postalCode":"65817","locality":"Eppstein","municipality":{"key":"06436002","name":"Eppstein, Stadt","type":"Stadt"},"district":{"key":"06436","name":"Main-Taunus-Kreis","type":"Landkreis"},"federalState":{"key":"06","name":"Hessen"}},{"name":"Zum Zimmerplatz","postalCode":"65817","locality":"Eppstein","municipality":{"key":"06436002","name":"Eppstein, Stadt","type":"Stadt"},"district":{"key":"06436","name":"Main-Taunus-Kreis","type":"Landkreis"},"federalState":{"key":"06","name":"Hessen"}},{"name":"Zur Alten Schmiede","postalCode":"65817","locality":"Eppstein","municipality":{"key":"06436002","name":"Eppstein, Stadt","type":"Stadt"},"district":{"key":"06436","name":"Main-Taunus-Kreis","type":"Landkreis"},"federalState":{"key":"06","name":"Hessen"}},{"name":"Zur Bergstr.","postalCode":"65817","locality":"Eppstein","municipality":{"key":"06436002","name":"Eppstein, Stadt","type":"Stadt"},"district":{"key":"06436","name":"Main-Taunus-Kreis","type":"Landkreis"},"federalState":{"key":"06","name":"Hessen"}},]