[{"name":"Am Rasen","postalCode":"37318","locality":"Lindewerra","municipality":{"key":"16061066","name":"Lindewerra","type":"Kreisangehörige_Gemeinde"},"district":{"key":"16061","name":"Eichsfeld","type":"Landkreis"},"federalState":{"key":"16","name":"Thüringen"}},{"name":"Bahnhofstr.","postalCode":"99976","locality":"Südeichsfeld","municipality":{"key":"16064074","name":"Südeichsfeld","type":"Kreisangehörige_Gemeinde"},"district":{"key":"16064","name":"Unstrut-Hainich-Kreis","type":"Landkreis"},"federalState":{"key":"16","name":"Thüringen"}},{"name":"Bahnhofstr.","postalCode":"99988","locality":"Südeichsfeld","municipality":{"key":"16064074","name":"Südeichsfeld","type":"Kreisangehörige_Gemeinde"},"district":{"key":"16064","name":"Unstrut-Hainich-Kreis","type":"Landkreis"},"federalState":{"key":"16","name":"Thüringen"}},{"name":"Bahnhofsweg","postalCode":"99988","locality":"Südeichsfeld","municipality":{"key":"16064074","name":"Südeichsfeld","type":"Kreisangehörige_Gemeinde"},"district":{"key":"16064","name":"Unstrut-Hainich-Kreis","type":"Landkreis"},"federalState":{"key":"16","name":"Thüringen"}},{"name":"Bei der Kirche","postalCode":"99988","locality":"Südeichsfeld","municipality":{"key":"16064074","name":"Südeichsfeld","type":"Kreisangehörige_Gemeinde"},"district":{"key":"16064","name":"Unstrut-Hainich-Kreis","type":"Landkreis"},"federalState":{"key":"16","name":"Thüringen"}},{"name":"Bergstr.","postalCode":"99976","locality":"Südeichsfeld","municipality":{"key":"16064074","name":"Südeichsfeld","type":"Kreisangehörige_Gemeinde"},"district":{"key":"16064","name":"Unstrut-Hainich-Kreis","type":"Landkreis"},"federalState":{"key":"16","name":"Thüringen"}},{"name":"Bergstr.","postalCode":"99988","locality":"Südeichsfeld","municipality":{"key":"16064074","name":"Südeichsfeld","type":"Kreisangehörige_Gemeinde"},"district":{"key":"16064","name":"Unstrut-Hainich-Kreis","type":"Landkreis"},"federalState":{"key":"16","name":"Thüringen"}},{"name":"Birkenstr.","postalCode":"99988","locality":"Südeichsfeld","municipality":{"key":"16064074","name":"Südeichsfeld","type":"Kreisangehörige_Gemeinde"},"district":{"key":"16064","name":"Unstrut-Hainich-Kreis","type":"Landkreis"},"federalState":{"key":"16","name":"Thüringen"}},{"name":"Bischofstein","postalCode":"99976","locality":"Südeichsfeld","municipality":{"key":"16064074","name":"Südeichsfeld","type":"Kreisangehörige_Gemeinde"},"district":{"key":"16064","name":"Unstrut-Hainich-Kreis","type":"Landkreis"},"federalState":{"key":"16","name":"Thüringen"}},{"name":"Blankental","postalCode":"99976","locality":"Südeichsfeld","municipality":{"key":"16064074","name":"Südeichsfeld","type":"Kreisangehörige_Gemeinde"},"district":{"key":"16064","name":"Unstrut-Hainich-Kreis","type":"Landkreis"},"federalState":{"key":"16","name":"Thüringen"}},{"name":"Bornberg","postalCode":"99988","locality":"Südeichsfeld","municipality":{"key":"16064074","name":"Südeichsfeld","type":"Kreisangehörige_Gemeinde"},"district":{"key":"16064","name":"Unstrut-Hainich-Kreis","type":"Landkreis"},"federalState":{"key":"16","name":"Thüringen"}},{"name":"Braugasse","postalCode":"99988","locality":"Südeichsfeld","municipality":{"key":"16064074","name":"Südeichsfeld","type":"Kreisangehörige_Gemeinde"},"district":{"key":"16064","name":"Unstrut-Hainich-Kreis","type":"Landkreis"},"federalState":{"key":"16","name":"Thüringen"}},{"name":"Brückenstr.","postalCode":"99988","locality":"Südeichsfeld","municipality":{"key":"16064074","name":"Südeichsfeld","type":"Kreisangehörige_Gemeinde"},"district":{"key":"16064","name":"Unstrut-Hainich-Kreis","type":"Landkreis"},"federalState":{"key":"16","name":"Thüringen"}},{"name":"Brüderstr.","postalCode":"99988","locality":"Südeichsfeld","municipality":{"key":"16064074","name":"Südeichsfeld","type":"Kreisangehörige_Gemeinde"},"district":{"key":"16064","name":"Unstrut-Hainich-Kreis","type":"Landkreis"},"federalState":{"key":"16","name":"Thüringen"}},{"name":"Brunkelstr.","postalCode":"99988","locality":"Südeichsfeld","municipality":{"key":"16064074","name":"Südeichsfeld","type":"Kreisangehörige_Gemeinde"},"district":{"key":"16064","name":"Unstrut-Hainich-Kreis","type":"Landkreis"},"federalState":{"key":"16","name":"Thüringen"}},{"name":"Buchenweg","postalCode":"99988","locality":"Südeichsfeld","municipality":{"key":"16064074","name":"Südeichsfeld","type":"Kreisangehörige_Gemeinde"},"district":{"key":"16064","name":"Unstrut-Hainich-Kreis","type":"Landkreis"},"federalState":{"key":"16","name":"Thüringen"}},{"name":"Burgstr.","postalCode":"99976","locality":"Südeichsfeld","municipality":{"key":"16064074","name":"Südeichsfeld","type":"Kreisangehörige_Gemeinde"},"district":{"key":"16064","name":"Unstrut-Hainich-Kreis","type":"Landkreis"},"federalState":{"key":"16","name":"Thüringen"}},{"name":"Dorfstr.","postalCode":"37318","locality":"Lindewerra","municipality":{"key":"16061066","name":"Lindewerra","type":"Kreisangehörige_Gemeinde"},"district":{"key":"16061","name":"Eichsfeld","type":"Landkreis"},"federalState":{"key":"16","name":"Thüringen"}},{"name":"Effelder Weg","postalCode":"99976","locality":"Südeichsfeld","municipality":{"key":"16064074","name":"Südeichsfeld","type":"Kreisangehörige_Gemeinde"},"district":{"key":"16064","name":"Unstrut-Hainich-Kreis","type":"Landkreis"},"federalState":{"key":"16","name":"Thüringen"}},{"name":"Eichsfelder Str.","postalCode":"99988","locality":"Südeichsfeld","municipality":{"key":"16064074","name":"Südeichsfeld","type":"Kreisangehörige_Gemeinde"},"district":{"key":"16064","name":"Unstrut-Hainich-Kreis","type":"Landkreis"},"federalState":{"key":"16","name":"Thüringen"}},{"name":"Eichtal","postalCode":"99988","locality":"Südeichsfeld","municipality":{"key":"16064074","name":"Südeichsfeld","type":"Kreisangehörige_Gemeinde"},"district":{"key":"16064","name":"Unstrut-Hainich-Kreis","type":"Landkreis"},"federalState":{"key":"16","name":"Thüringen"}},{"name":"Eisenacher Str.","postalCode":"99988","locality":"Südeichsfeld","municipality":{"key":"16064074","name":"Südeichsfeld","type":"Kreisangehörige_Gemeinde"},"district":{"key":"16064","name":"Unstrut-Hainich-Kreis","type":"Landkreis"},"federalState":{"key":"16","name":"Thüringen"}},{"name":"Friedensstr.","postalCode":"37318","locality":"Lindewerra","municipality":{"key":"16061066","name":"Lindewerra","type":"Kreisangehörige_Gemeinde"},"district":{"key":"16061","name":"Eichsfeld","type":"Landkreis"},"federalState":{"key":"16","name":"Thüringen"}},{"name":"Gaibergweg","postalCode":"99976","locality":"Südeichsfeld","municipality":{"key":"16064074","name":"Südeichsfeld","type":"Kreisangehörige_Gemeinde"},"district":{"key":"16064","name":"Unstrut-Hainich-Kreis","type":"Landkreis"},"federalState":{"key":"16","name":"Thüringen"}},{"name":"Gartenstr.","postalCode":"99976","locality":"Südeichsfeld","municipality":{"key":"16064074","name":"Südeichsfeld","type":"Kreisangehörige_Gemeinde"},"district":{"key":"16064","name":"Unstrut-Hainich-Kreis","type":"Landkreis"},"federalState":{"key":"16","name":"Thüringen"}},{"name":"Gartenstr.","postalCode":"99988","locality":"Südeichsfeld","municipality":{"key":"16064074","name":"Südeichsfeld","type":"Kreisangehörige_Gemeinde"},"district":{"key":"16064","name":"Unstrut-Hainich-Kreis","type":"Landkreis"},"federalState":{"key":"16","name":"Thüringen"}},{"name":"Gäßchen","postalCode":"99988","locality":"Südeichsfeld","municipality":{"key":"16064074","name":"Südeichsfeld","type":"Kreisangehörige_Gemeinde"},"district":{"key":"16064","name":"Unstrut-Hainich-Kreis","type":"Landkreis"},"federalState":{"key":"16","name":"Thüringen"}},{"name":"Goethestr.","postalCode":"99988","locality":"Südeichsfeld","municipality":{"key":"16064074","name":"Südeichsfeld","type":"Kreisangehörige_Gemeinde"},"district":{"key":"16064","name":"Unstrut-Hainich-Kreis","type":"Landkreis"},"federalState":{"key":"16","name":"Thüringen"}},{"name":"Goldgasse","postalCode":"99976","locality":"Südeichsfeld","municipality":{"key":"16064074","name":"Südeichsfeld","type":"Kreisangehörige_Gemeinde"},"district":{"key":"16064","name":"Unstrut-Hainich-Kreis","type":"Landkreis"},"federalState":{"key":"16","name":"Thüringen"}},{"name":"Grenzstr.","postalCode":"99988","locality":"Südeichsfeld","municipality":{"key":"16064074","name":"Südeichsfeld","type":"Kreisangehörige_Gemeinde"},"district":{"key":"16064","name":"Unstrut-Hainich-Kreis","type":"Landkreis"},"federalState":{"key":"16","name":"Thüringen"}},{"name":"Grünstr.","postalCode":"99988","locality":"Südeichsfeld","municipality":{"key":"16064074","name":"Südeichsfeld","type":"Kreisangehörige_Gemeinde"},"district":{"key":"16064","name":"Unstrut-Hainich-Kreis","type":"Landkreis"},"federalState":{"key":"16","name":"Thüringen"}},{"name":"Hagengasse","postalCode":"99988","locality":"Südeichsfeld","municipality":{"key":"16064074","name":"Südeichsfeld","type":"Kreisangehörige_Gemeinde"},"district":{"key":"16064","name":"Unstrut-Hainich-Kreis","type":"Landkreis"},"federalState":{"key":"16","name":"Thüringen"}},{"name":"Hauptstr.","postalCode":"99976","locality":"Südeichsfeld","municipality":{"key":"16064074","name":"Südeichsfeld","type":"Kreisangehörige_Gemeinde"},"district":{"key":"16064","name":"Unstrut-Hainich-Kreis","type":"Landkreis"},"federalState":{"key":"16","name":"Thüringen"}},{"name":"Hauptstr.","postalCode":"99988","locality":"Südeichsfeld","municipality":{"key":"16064074","name":"Südeichsfeld","type":"Kreisangehörige_Gemeinde"},"district":{"key":"16064","name":"Unstrut-Hainich-Kreis","type":"Landkreis"},"federalState":{"key":"16","name":"Thüringen"}},{"name":"Heinemannstr.","postalCode":"99988","locality":"Südeichsfeld","municipality":{"key":"16064074","name":"Südeichsfeld","type":"Kreisangehörige_Gemeinde"},"district":{"key":"16064","name":"Unstrut-Hainich-Kreis","type":"Landkreis"},"federalState":{"key":"16","name":"Thüringen"}},{"name":"Heinrich-Heine-Str.","postalCode":"99988","locality":"Südeichsfeld","municipality":{"key":"16064074","name":"Südeichsfeld","type":"Kreisangehörige_Gemeinde"},"district":{"key":"16064","name":"Unstrut-Hainich-Kreis","type":"Landkreis"},"federalState":{"key":"16","name":"Thüringen"}},{"name":"Hermann-Löns-Str.","postalCode":"99988","locality":"Südeichsfeld","municipality":{"key":"16064074","name":"Südeichsfeld","type":"Kreisangehörige_Gemeinde"},"district":{"key":"16064","name":"Unstrut-Hainich-Kreis","type":"Landkreis"},"federalState":{"key":"16","name":"Thüringen"}},{"name":"Herrengasse","postalCode":"99976","locality":"Südeichsfeld","municipality":{"key":"16064074","name":"Südeichsfeld","type":"Kreisangehörige_Gemeinde"},"district":{"key":"16064","name":"Unstrut-Hainich-Kreis","type":"Landkreis"},"federalState":{"key":"16","name":"Thüringen"}},{"name":"Herrenstr.","postalCode":"99988","locality":"Südeichsfeld","municipality":{"key":"16064074","name":"Südeichsfeld","type":"Kreisangehörige_Gemeinde"},"district":{"key":"16064","name":"Unstrut-Hainich-Kreis","type":"Landkreis"},"federalState":{"key":"16","name":"Thüringen"}},{"name":"Herzrain","postalCode":"99988","locality":"Südeichsfeld","municipality":{"key":"16064074","name":"Südeichsfeld","type":"Kreisangehörige_Gemeinde"},"district":{"key":"16064","name":"Unstrut-Hainich-Kreis","type":"Landkreis"},"federalState":{"key":"16","name":"Thüringen"}},{"name":"Hinter den Höfen","postalCode":"99988","locality":"Südeichsfeld","municipality":{"key":"16064074","name":"Südeichsfeld","type":"Kreisangehörige_Gemeinde"},"district":{"key":"16064","name":"Unstrut-Hainich-Kreis","type":"Landkreis"},"federalState":{"key":"16","name":"Thüringen"}},{"name":"Hintergasse","postalCode":"99988","locality":"Südeichsfeld","municipality":{"key":"16064074","name":"Südeichsfeld","type":"Kreisangehörige_Gemeinde"},"district":{"key":"16064","name":"Unstrut-Hainich-Kreis","type":"Landkreis"},"federalState":{"key":"16","name":"Thüringen"}},{"name":"Hinterm Schloß","postalCode":"99988","locality":"Südeichsfeld","municipality":{"key":"16064074","name":"Südeichsfeld","type":"Kreisangehörige_Gemeinde"},"district":{"key":"16064","name":"Unstrut-Hainich-Kreis","type":"Landkreis"},"federalState":{"key":"16","name":"Thüringen"}},{"name":"Hohlweg","postalCode":"99988","locality":"Südeichsfeld","municipality":{"key":"16064074","name":"Südeichsfeld","type":"Kreisangehörige_Gemeinde"},"district":{"key":"16064","name":"Unstrut-Hainich-Kreis","type":"Landkreis"},"federalState":{"key":"16","name":"Thüringen"}},{"name":"Im Grunde","postalCode":"99988","locality":"Südeichsfeld","municipality":{"key":"16064074","name":"Südeichsfeld","type":"Kreisangehörige_Gemeinde"},"district":{"key":"16064","name":"Unstrut-Hainich-Kreis","type":"Landkreis"},"federalState":{"key":"16","name":"Thüringen"}},{"name":"Im Gut","postalCode":"99988","locality":"Südeichsfeld","municipality":{"key":"16064074","name":"Südeichsfeld","type":"Kreisangehörige_Gemeinde"},"district":{"key":"16064","name":"Unstrut-Hainich-Kreis","type":"Landkreis"},"federalState":{"key":"16","name":"Thüringen"}},{"name":"Im Kessel","postalCode":"99988","locality":"Südeichsfeld","municipality":{"key":"16064074","name":"Südeichsfeld","type":"Kreisangehörige_Gemeinde"},"district":{"key":"16064","name":"Unstrut-Hainich-Kreis","type":"Landkreis"},"federalState":{"key":"16","name":"Thüringen"}},{"name":"Im Neuen Hof","postalCode":"99988","locality":"Südeichsfeld","municipality":{"key":"16064074","name":"Südeichsfeld","type":"Kreisangehörige_Gemeinde"},"district":{"key":"16064","name":"Unstrut-Hainich-Kreis","type":"Landkreis"},"federalState":{"key":"16","name":"Thüringen"}},{"name":"Jägerstr.","postalCode":"99988","locality":"Südeichsfeld","municipality":{"key":"16064074","name":"Südeichsfeld","type":"Kreisangehörige_Gemeinde"},"district":{"key":"16064","name":"Unstrut-Hainich-Kreis","type":"Landkreis"},"federalState":{"key":"16","name":"Thüringen"}},{"name":"Johannesstr.","postalCode":"99988","locality":"Südeichsfeld","municipality":{"key":"16064074","name":"Südeichsfeld","type":"Kreisangehörige_Gemeinde"},"district":{"key":"16064","name":"Unstrut-Hainich-Kreis","type":"Landkreis"},"federalState":{"key":"16","name":"Thüringen"}},{"name":"Kirchstr.","postalCode":"37318","locality":"Lindewerra","municipality":{"key":"16061066","name":"Lindewerra","type":"Kreisangehörige_Gemeinde"},"district":{"key":"16061","name":"Eichsfeld","type":"Landkreis"},"federalState":{"key":"16","name":"Thüringen"}},{"name":"Kolonnenweg","postalCode":"37318","locality":"Lindewerra","municipality":{"key":"16061066","name":"Lindewerra","type":"Kreisangehörige_Gemeinde"},"district":{"key":"16061","name":"Eichsfeld","type":"Landkreis"},"federalState":{"key":"16","name":"Thüringen"}},{"name":"Ludwig-Wagner-Str.","postalCode":"37318","locality":"Lindewerra","municipality":{"key":"16061066","name":"Lindewerra","type":"Kreisangehörige_Gemeinde"},"district":{"key":"16061","name":"Eichsfeld","type":"Landkreis"},"federalState":{"key":"16","name":"Thüringen"}},{"name":"Mittelgasse","postalCode":"37318","locality":"Lindewerra","municipality":{"key":"16061066","name":"Lindewerra","type":"Kreisangehörige_Gemeinde"},"district":{"key":"16061","name":"Eichsfeld","type":"Landkreis"},"federalState":{"key":"16","name":"Thüringen"}},{"name":"Neuenkirchener Str.","postalCode":"99988","locality":"Südeichsfeld","municipality":{"key":"16064074","name":"Südeichsfeld","type":"Kreisangehörige_Gemeinde"},"district":{"key":"16064","name":"Unstrut-Hainich-Kreis","type":"Landkreis"},"federalState":{"key":"16","name":"Thüringen"}},{"name":"Neue Str.","postalCode":"99976","locality":"Südeichsfeld","municipality":{"key":"16064074","name":"Südeichsfeld","type":"Kreisangehörige_Gemeinde"},"district":{"key":"16064","name":"Unstrut-Hainich-Kreis","type":"Landkreis"},"federalState":{"key":"16","name":"Thüringen"}},{"name":"Neue Str.","postalCode":"99988","locality":"Südeichsfeld","municipality":{"key":"16064074","name":"Südeichsfeld","type":"Kreisangehörige_Gemeinde"},"district":{"key":"16064","name":"Unstrut-Hainich-Kreis","type":"Landkreis"},"federalState":{"key":"16","name":"Thüringen"}},{"name":"Obergasse","postalCode":"99988","locality":"Südeichsfeld","municipality":{"key":"16064074","name":"Südeichsfeld","type":"Kreisangehörige_Gemeinde"},"district":{"key":"16064","name":"Unstrut-Hainich-Kreis","type":"Landkreis"},"federalState":{"key":"16","name":"Thüringen"}},{"name":"Oberstr.","postalCode":"99988","locality":"Südeichsfeld","municipality":{"key":"16064074","name":"Südeichsfeld","type":"Kreisangehörige_Gemeinde"},"district":{"key":"16064","name":"Unstrut-Hainich-Kreis","type":"Landkreis"},"federalState":{"key":"16","name":"Thüringen"}},{"name":"Rasen","postalCode":"99976","locality":"Südeichsfeld","municipality":{"key":"16064074","name":"Südeichsfeld","type":"Kreisangehörige_Gemeinde"},"district":{"key":"16064","name":"Unstrut-Hainich-Kreis","type":"Landkreis"},"federalState":{"key":"16","name":"Thüringen"}},{"name":"Riedstr.","postalCode":"99988","locality":"Südeichsfeld","municipality":{"key":"16064074","name":"Südeichsfeld","type":"Kreisangehörige_Gemeinde"},"district":{"key":"16064","name":"Unstrut-Hainich-Kreis","type":"Landkreis"},"federalState":{"key":"16","name":"Thüringen"}},{"name":"Rosengarten","postalCode":"99988","locality":"Südeichsfeld","municipality":{"key":"16064074","name":"Südeichsfeld","type":"Kreisangehörige_Gemeinde"},"district":{"key":"16064","name":"Unstrut-Hainich-Kreis","type":"Landkreis"},"federalState":{"key":"16","name":"Thüringen"}},{"name":"Rosenstr.","postalCode":"99988","locality":"Südeichsfeld","municipality":{"key":"16064074","name":"Südeichsfeld","type":"Kreisangehörige_Gemeinde"},"district":{"key":"16064","name":"Unstrut-Hainich-Kreis","type":"Landkreis"},"federalState":{"key":"16","name":"Thüringen"}},{"name":"Str. zur Einheit","postalCode":"37318","locality":"Lindewerra","municipality":{"key":"16061066","name":"Lindewerra","type":"Kreisangehörige_Gemeinde"},"district":{"key":"16061","name":"Eichsfeld","type":"Landkreis"},"federalState":{"key":"16","name":"Thüringen"}},{"name":"Thonstr.","postalCode":"99988","locality":"Südeichsfeld","municipality":{"key":"16064074","name":"Südeichsfeld","type":"Kreisangehörige_Gemeinde"},"district":{"key":"16064","name":"Unstrut-Hainich-Kreis","type":"Landkreis"},"federalState":{"key":"16","name":"Thüringen"}},{"name":"Tränkefeld","postalCode":"99988","locality":"Südeichsfeld","municipality":{"key":"16064074","name":"Südeichsfeld","type":"Kreisangehörige_Gemeinde"},"district":{"key":"16064","name":"Unstrut-Hainich-Kreis","type":"Landkreis"},"federalState":{"key":"16","name":"Thüringen"}},{"name":"Trecksbrücke","postalCode":"99976","locality":"Südeichsfeld","municipality":{"key":"16064074","name":"Südeichsfeld","type":"Kreisangehörige_Gemeinde"},"district":{"key":"16064","name":"Unstrut-Hainich-Kreis","type":"Landkreis"},"federalState":{"key":"16","name":"Thüringen"}},{"name":"Treffurter Str.","postalCode":"99988","locality":"Südeichsfeld","municipality":{"key":"16064074","name":"Südeichsfeld","type":"Kreisangehörige_Gemeinde"},"district":{"key":"16064","name":"Unstrut-Hainich-Kreis","type":"Landkreis"},"federalState":{"key":"16","name":"Thüringen"}},{"name":"Unter dem Hanstein","postalCode":"99976","locality":"Südeichsfeld","municipality":{"key":"16064074","name":"Südeichsfeld","type":"Kreisangehörige_Gemeinde"},"district":{"key":"16064","name":"Unstrut-Hainich-Kreis","type":"Landkreis"},"federalState":{"key":"16","name":"Thüringen"}},{"name":"Unterm Kirchberg","postalCode":"99976","locality":"Südeichsfeld","municipality":{"key":"16064074","name":"Südeichsfeld","type":"Kreisangehörige_Gemeinde"},"district":{"key":"16064","name":"Unstrut-Hainich-Kreis","type":"Landkreis"},"federalState":{"key":"16","name":"Thüringen"}},{"name":"Unterm Lichten","postalCode":"99988","locality":"Südeichsfeld","municipality":{"key":"16064074","name":"Südeichsfeld","type":"Kreisangehörige_Gemeinde"},"district":{"key":"16064","name":"Unstrut-Hainich-Kreis","type":"Landkreis"},"federalState":{"key":"16","name":"Thüringen"}},{"name":"Unterm Mühlberg","postalCode":"99988","locality":"Südeichsfeld","municipality":{"key":"16064074","name":"Südeichsfeld","type":"Kreisangehörige_Gemeinde"},"district":{"key":"16064","name":"Unstrut-Hainich-Kreis","type":"Landkreis"},"federalState":{"key":"16","name":"Thüringen"}},{"name":"Untermühle","postalCode":"99976","locality":"Südeichsfeld","municipality":{"key":"16064074","name":"Südeichsfeld","type":"Kreisangehörige_Gemeinde"},"district":{"key":"16064","name":"Unstrut-Hainich-Kreis","type":"Landkreis"},"federalState":{"key":"16","name":"Thüringen"}},{"name":"Vor dem Kreuztal","postalCode":"99988","locality":"Südeichsfeld","municipality":{"key":"16064074","name":"Südeichsfeld","type":"Kreisangehörige_Gemeinde"},"district":{"key":"16064","name":"Unstrut-Hainich-Kreis","type":"Landkreis"},"federalState":{"key":"16","name":"Thüringen"}},{"name":"Weg","postalCode":"99976","locality":"Südeichsfeld","municipality":{"key":"16064074","name":"Südeichsfeld","type":"Kreisangehörige_Gemeinde"},"district":{"key":"16064","name":"Unstrut-Hainich-Kreis","type":"Landkreis"},"federalState":{"key":"16","name":"Thüringen"}},{"name":"Weinbergstr.","postalCode":"99988","locality":"Südeichsfeld","municipality":{"key":"16064074","name":"Südeichsfeld","type":"Kreisangehörige_Gemeinde"},"district":{"key":"16064","name":"Unstrut-Hainich-Kreis","type":"Landkreis"},"federalState":{"key":"16","name":"Thüringen"}},{"name":"Wendehäuser Str.","postalCode":"99988","locality":"Südeichsfeld","municipality":{"key":"16064074","name":"Südeichsfeld","type":"Kreisangehörige_Gemeinde"},"district":{"key":"16064","name":"Unstrut-Hainich-Kreis","type":"Landkreis"},"federalState":{"key":"16","name":"Thüringen"}},{"name":"Wiesengrund","postalCode":"99988","locality":"Südeichsfeld","municipality":{"key":"16064074","name":"Südeichsfeld","type":"Kreisangehörige_Gemeinde"},"district":{"key":"16064","name":"Unstrut-Hainich-Kreis","type":"Landkreis"},"federalState":{"key":"16","name":"Thüringen"}},{"name":"Wiesenweg","postalCode":"99988","locality":"Südeichsfeld","municipality":{"key":"16064074","name":"Südeichsfeld","type":"Kreisangehörige_Gemeinde"},"district":{"key":"16064","name":"Unstrut-Hainich-Kreis","type":"Landkreis"},"federalState":{"key":"16","name":"Thüringen"}},{"name":"Wilhelmstr.","postalCode":"99988","locality":"Südeichsfeld","municipality":{"key":"16064074","name":"Südeichsfeld","type":"Kreisangehörige_Gemeinde"},"district":{"key":"16064","name":"Unstrut-Hainich-Kreis","type":"Landkreis"},"federalState":{"key":"16","name":"Thüringen"}},{"name":"Ziehborn","postalCode":"99976","locality":"Südeichsfeld","municipality":{"key":"16064074","name":"Südeichsfeld","type":"Kreisangehörige_Gemeinde"},"district":{"key":"16064","name":"Unstrut-Hainich-Kreis","type":"Landkreis"},"federalState":{"key":"16","name":"Thüringen"}},{"name":"Zittelstr.","postalCode":"99988","locality":"Südeichsfeld","municipality":{"key":"16064074","name":"Südeichsfeld","type":"Kreisangehörige_Gemeinde"},"district":{"key":"16064","name":"Unstrut-Hainich-Kreis","type":"Landkreis"},"federalState":{"key":"16","name":"Thüringen"}},{"name":"Zollgasse","postalCode":"99988","locality":"Südeichsfeld","municipality":{"key":"16064074","name":"Südeichsfeld","type":"Kreisangehörige_Gemeinde"},"district":{"key":"16064","name":"Unstrut-Hainich-Kreis","type":"Landkreis"},"federalState":{"key":"16","name":"Thüringen"}},{"name":"Zum Steinacker","postalCode":"99988","locality":"Südeichsfeld","municipality":{"key":"16064074","name":"Südeichsfeld","type":"Kreisangehörige_Gemeinde"},"district":{"key":"16064","name":"Unstrut-Hainich-Kreis","type":"Landkreis"},"federalState":{"key":"16","name":"Thüringen"}},{"name":"Zum Vogelsang","postalCode":"99988","locality":"Südeichsfeld","municipality":{"key":"16064074","name":"Südeichsfeld","type":"Kreisangehörige_Gemeinde"},"district":{"key":"16064","name":"Unstrut-Hainich-Kreis","type":"Landkreis"},"federalState":{"key":"16","name":"Thüringen"}},{"name":"Zur Salztrift","postalCode":"99988","locality":"Südeichsfeld","municipality":{"key":"16064074","name":"Südeichsfeld","type":"Kreisangehörige_Gemeinde"},"district":{"key":"16064","name":"Unstrut-Hainich-Kreis","type":"Landkreis"},"federalState":{"key":"16","name":"Thüringen"}},]