[{"name":"Adelsbergstr.","postalCode":"97346","locality":"Iphofen","municipality":{"key":"09675139","name":"Iphofen, St","type":"Stadt"},"district":{"key":"09675","name":"Kitzingen","type":"Landkreis"},"federalState":{"key":"09","name":"Bayern"}},{"name":"Alte Reichsstr.","postalCode":"97346","locality":"Iphofen","municipality":{"key":"09675139","name":"Iphofen, St","type":"Stadt"},"district":{"key":"09675","name":"Kitzingen","type":"Landkreis"},"federalState":{"key":"09","name":"Bayern"}},{"name":"Altmannshäuser Str.","postalCode":"97346","locality":"Iphofen","municipality":{"key":"09675139","name":"Iphofen, St","type":"Stadt"},"district":{"key":"09675","name":"Kitzingen","type":"Landkreis"},"federalState":{"key":"09","name":"Bayern"}},{"name":"Am Burgweg","postalCode":"97346","locality":"Iphofen","municipality":{"key":"09675139","name":"Iphofen, St","type":"Stadt"},"district":{"key":"09675","name":"Kitzingen","type":"Landkreis"},"federalState":{"key":"09","name":"Bayern"}},{"name":"Am Dorfbach","postalCode":"97346","locality":"Iphofen","municipality":{"key":"09675139","name":"Iphofen, St","type":"Stadt"},"district":{"key":"09675","name":"Kitzingen","type":"Landkreis"},"federalState":{"key":"09","name":"Bayern"}},{"name":"Am Hasenbuck","postalCode":"97346","locality":"Iphofen","municipality":{"key":"09675139","name":"Iphofen, St","type":"Stadt"},"district":{"key":"09675","name":"Kitzingen","type":"Landkreis"},"federalState":{"key":"09","name":"Bayern"}},{"name":"Am Henkelsee","postalCode":"97346","locality":"Iphofen","municipality":{"key":"09675139","name":"Iphofen, St","type":"Stadt"},"district":{"key":"09675","name":"Kitzingen","type":"Landkreis"},"federalState":{"key":"09","name":"Bayern"}},{"name":"Am Hohlbügelsteig","postalCode":"97346","locality":"Iphofen","municipality":{"key":"09675139","name":"Iphofen, St","type":"Stadt"},"district":{"key":"09675","name":"Kitzingen","type":"Landkreis"},"federalState":{"key":"09","name":"Bayern"}},{"name":"Am Hündlein","postalCode":"97346","locality":"Iphofen","municipality":{"key":"09675139","name":"Iphofen, St","type":"Stadt"},"district":{"key":"09675","name":"Kitzingen","type":"Landkreis"},"federalState":{"key":"09","name":"Bayern"}},{"name":"Am Kirchbach","postalCode":"97346","locality":"Iphofen","municipality":{"key":"09675139","name":"Iphofen, St","type":"Stadt"},"district":{"key":"09675","name":"Kitzingen","type":"Landkreis"},"federalState":{"key":"09","name":"Bayern"}},{"name":"Am Kirchplatz","postalCode":"97346","locality":"Iphofen","municipality":{"key":"09675139","name":"Iphofen, St","type":"Stadt"},"district":{"key":"09675","name":"Kitzingen","type":"Landkreis"},"federalState":{"key":"09","name":"Bayern"}},{"name":"Am Landturm","postalCode":"97346","locality":"Iphofen","municipality":{"key":"09675139","name":"Iphofen, St","type":"Stadt"},"district":{"key":"09675","name":"Kitzingen","type":"Landkreis"},"federalState":{"key":"09","name":"Bayern"}},{"name":"Am Lehmen","postalCode":"97346","locality":"Iphofen","municipality":{"key":"09675139","name":"Iphofen, St","type":"Stadt"},"district":{"key":"09675","name":"Kitzingen","type":"Landkreis"},"federalState":{"key":"09","name":"Bayern"}},{"name":"Am Lindenbuck","postalCode":"97346","locality":"Iphofen","municipality":{"key":"09675139","name":"Iphofen, St","type":"Stadt"},"district":{"key":"09675","name":"Kitzingen","type":"Landkreis"},"federalState":{"key":"09","name":"Bayern"}},{"name":"Am Schafhofgraben","postalCode":"97346","locality":"Iphofen","municipality":{"key":"09675139","name":"Iphofen, St","type":"Stadt"},"district":{"key":"09675","name":"Kitzingen","type":"Landkreis"},"federalState":{"key":"09","name":"Bayern"}},{"name":"Am Spieß","postalCode":"97346","locality":"Iphofen","municipality":{"key":"09675139","name":"Iphofen, St","type":"Stadt"},"district":{"key":"09675","name":"Kitzingen","type":"Landkreis"},"federalState":{"key":"09","name":"Bayern"}},{"name":"Am Stadtgraben West","postalCode":"97346","locality":"Iphofen","municipality":{"key":"09675139","name":"Iphofen, St","type":"Stadt"},"district":{"key":"09675","name":"Kitzingen","type":"Landkreis"},"federalState":{"key":"09","name":"Bayern"}},{"name":"An der Bahn","postalCode":"97346","locality":"Iphofen","municipality":{"key":"09675139","name":"Iphofen, St","type":"Stadt"},"district":{"key":"09675","name":"Kitzingen","type":"Landkreis"},"federalState":{"key":"09","name":"Bayern"}},{"name":"An der Kirchenburg","postalCode":"97346","locality":"Iphofen","municipality":{"key":"09675139","name":"Iphofen, St","type":"Stadt"},"district":{"key":"09675","name":"Kitzingen","type":"Landkreis"},"federalState":{"key":"09","name":"Bayern"}},{"name":"Anton-Sabel-Str.","postalCode":"97346","locality":"Iphofen","municipality":{"key":"09675139","name":"Iphofen, St","type":"Stadt"},"district":{"key":"09675","name":"Kitzingen","type":"Landkreis"},"federalState":{"key":"09","name":"Bayern"}},{"name":"Bachgasse","postalCode":"97346","locality":"Iphofen","municipality":{"key":"09675139","name":"Iphofen, St","type":"Stadt"},"district":{"key":"09675","name":"Kitzingen","type":"Landkreis"},"federalState":{"key":"09","name":"Bayern"}},{"name":"Bahnhofstr.","postalCode":"97346","locality":"Iphofen","municipality":{"key":"09675139","name":"Iphofen, St","type":"Stadt"},"district":{"key":"09675","name":"Kitzingen","type":"Landkreis"},"federalState":{"key":"09","name":"Bayern"}},{"name":"Birklinger Str.","postalCode":"97346","locality":"Iphofen","municipality":{"key":"09675139","name":"Iphofen, St","type":"Stadt"},"district":{"key":"09675","name":"Kitzingen","type":"Landkreis"},"federalState":{"key":"09","name":"Bayern"}},{"name":"Boverystr.","postalCode":"97346","locality":"Iphofen","municipality":{"key":"09675139","name":"Iphofen, St","type":"Stadt"},"district":{"key":"09675","name":"Kitzingen","type":"Landkreis"},"federalState":{"key":"09","name":"Bayern"}},{"name":"Breitbachstr.","postalCode":"97346","locality":"Iphofen","municipality":{"key":"09675139","name":"Iphofen, St","type":"Stadt"},"district":{"key":"09675","name":"Kitzingen","type":"Landkreis"},"federalState":{"key":"09","name":"Bayern"}},{"name":"Breite Gasse","postalCode":"97346","locality":"Iphofen","municipality":{"key":"09675139","name":"Iphofen, St","type":"Stadt"},"district":{"key":"09675","name":"Kitzingen","type":"Landkreis"},"federalState":{"key":"09","name":"Bayern"}},{"name":"Buchenweg","postalCode":"97346","locality":"Iphofen","municipality":{"key":"09675139","name":"Iphofen, St","type":"Stadt"},"district":{"key":"09675","name":"Kitzingen","type":"Landkreis"},"federalState":{"key":"09","name":"Bayern"}},{"name":"Casteller Str.","postalCode":"97346","locality":"Iphofen","municipality":{"key":"09675139","name":"Iphofen, St","type":"Stadt"},"district":{"key":"09675","name":"Kitzingen","type":"Landkreis"},"federalState":{"key":"09","name":"Bayern"}},{"name":"Dorfleite","postalCode":"97346","locality":"Iphofen","municipality":{"key":"09675139","name":"Iphofen, St","type":"Stadt"},"district":{"key":"09675","name":"Kitzingen","type":"Landkreis"},"federalState":{"key":"09","name":"Bayern"}},{"name":"Dorfstr.","postalCode":"97346","locality":"Iphofen","municipality":{"key":"09675139","name":"Iphofen, St","type":"Stadt"},"district":{"key":"09675","name":"Kitzingen","type":"Landkreis"},"federalState":{"key":"09","name":"Bayern"}},{"name":"Dornheimer Str.","postalCode":"97346","locality":"Iphofen","municipality":{"key":"09675139","name":"Iphofen, St","type":"Stadt"},"district":{"key":"09675","name":"Kitzingen","type":"Landkreis"},"federalState":{"key":"09","name":"Bayern"}},{"name":"Dr.-Fritz-Sturm-Str.","postalCode":"97346","locality":"Iphofen","municipality":{"key":"09675139","name":"Iphofen, St","type":"Stadt"},"district":{"key":"09675","name":"Kitzingen","type":"Landkreis"},"federalState":{"key":"09","name":"Bayern"}},{"name":"Dr.-Karlheinz-Spielmann-Str.","postalCode":"97346","locality":"Iphofen","municipality":{"key":"09675139","name":"Iphofen, St","type":"Stadt"},"district":{"key":"09675","name":"Kitzingen","type":"Landkreis"},"federalState":{"key":"09","name":"Bayern"}},{"name":"Dr.-Ruppert-Schneider-Str.","postalCode":"97346","locality":"Iphofen","municipality":{"key":"09675139","name":"Iphofen, St","type":"Stadt"},"district":{"key":"09675","name":"Kitzingen","type":"Landkreis"},"federalState":{"key":"09","name":"Bayern"}},{"name":"Einersheimer Str.","postalCode":"97346","locality":"Iphofen","municipality":{"key":"09675139","name":"Iphofen, St","type":"Stadt"},"district":{"key":"09675","name":"Kitzingen","type":"Landkreis"},"federalState":{"key":"09","name":"Bayern"}},{"name":"Feldstr.","postalCode":"97346","locality":"Iphofen","municipality":{"key":"09675139","name":"Iphofen, St","type":"Stadt"},"district":{"key":"09675","name":"Kitzingen","type":"Landkreis"},"federalState":{"key":"09","name":"Bayern"}},{"name":"Flurweg","postalCode":"97346","locality":"Iphofen","municipality":{"key":"09675139","name":"Iphofen, St","type":"Stadt"},"district":{"key":"09675","name":"Kitzingen","type":"Landkreis"},"federalState":{"key":"09","name":"Bayern"}},{"name":"Frankenbergstr.","postalCode":"97346","locality":"Iphofen","municipality":{"key":"09675139","name":"Iphofen, St","type":"Stadt"},"district":{"key":"09675","name":"Kitzingen","type":"Landkreis"},"federalState":{"key":"09","name":"Bayern"}},{"name":"Friedhofstr.","postalCode":"97346","locality":"Iphofen","municipality":{"key":"09675139","name":"Iphofen, St","type":"Stadt"},"district":{"key":"09675","name":"Kitzingen","type":"Landkreis"},"federalState":{"key":"09","name":"Bayern"}},{"name":"Friedhofsweg","postalCode":"97346","locality":"Iphofen","municipality":{"key":"09675139","name":"Iphofen, St","type":"Stadt"},"district":{"key":"09675","name":"Kitzingen","type":"Landkreis"},"federalState":{"key":"09","name":"Bayern"}},{"name":"Geiersbergstr.","postalCode":"97346","locality":"Iphofen","municipality":{"key":"09675139","name":"Iphofen, St","type":"Stadt"},"district":{"key":"09675","name":"Kitzingen","type":"Landkreis"},"federalState":{"key":"09","name":"Bayern"}},{"name":"Geräthengasse","postalCode":"97346","locality":"Iphofen","municipality":{"key":"09675139","name":"Iphofen, St","type":"Stadt"},"district":{"key":"09675","name":"Kitzingen","type":"Landkreis"},"federalState":{"key":"09","name":"Bayern"}},{"name":"Hahnsbrunnenweg","postalCode":"97346","locality":"Iphofen","municipality":{"key":"09675139","name":"Iphofen, St","type":"Stadt"},"district":{"key":"09675","name":"Kitzingen","type":"Landkreis"},"federalState":{"key":"09","name":"Bayern"}},{"name":"Hainleite","postalCode":"97346","locality":"Iphofen","municipality":{"key":"09675139","name":"Iphofen, St","type":"Stadt"},"district":{"key":"09675","name":"Kitzingen","type":"Landkreis"},"federalState":{"key":"09","name":"Bayern"}},{"name":"Hauptstr.","postalCode":"97346","locality":"Iphofen","municipality":{"key":"09675139","name":"Iphofen, St","type":"Stadt"},"district":{"key":"09675","name":"Kitzingen","type":"Landkreis"},"federalState":{"key":"09","name":"Bayern"}},{"name":"Hellmitzheim","postalCode":"97346","locality":"Iphofen","municipality":{"key":"09675139","name":"Iphofen, St","type":"Stadt"},"district":{"key":"09675","name":"Kitzingen","type":"Landkreis"},"federalState":{"key":"09","name":"Bayern"}},{"name":"Hellmitzheimer Str.","postalCode":"97346","locality":"Iphofen","municipality":{"key":"09675139","name":"Iphofen, St","type":"Stadt"},"district":{"key":"09675","name":"Kitzingen","type":"Landkreis"},"federalState":{"key":"09","name":"Bayern"}},{"name":"Helmboldstr.","postalCode":"97346","locality":"Iphofen","municipality":{"key":"09675139","name":"Iphofen, St","type":"Stadt"},"district":{"key":"09675","name":"Kitzingen","type":"Landkreis"},"federalState":{"key":"09","name":"Bayern"}},{"name":"Holzgasse","postalCode":"97346","locality":"Iphofen","municipality":{"key":"09675139","name":"Iphofen, St","type":"Stadt"},"district":{"key":"09675","name":"Kitzingen","type":"Landkreis"},"federalState":{"key":"09","name":"Bayern"}},{"name":"Hüttenheimer Str.","postalCode":"97346","locality":"Iphofen","municipality":{"key":"09675139","name":"Iphofen, St","type":"Stadt"},"district":{"key":"09675","name":"Kitzingen","type":"Landkreis"},"federalState":{"key":"09","name":"Bayern"}},{"name":"Im Haag","postalCode":"97346","locality":"Iphofen","municipality":{"key":"09675139","name":"Iphofen, St","type":"Stadt"},"district":{"key":"09675","name":"Kitzingen","type":"Landkreis"},"federalState":{"key":"09","name":"Bayern"}},{"name":"In den Weinbergen","postalCode":"97346","locality":"Iphofen","municipality":{"key":"09675139","name":"Iphofen, St","type":"Stadt"},"district":{"key":"09675","name":"Kitzingen","type":"Landkreis"},"federalState":{"key":"09","name":"Bayern"}},{"name":"Iphöfer Str.","postalCode":"97346","locality":"Iphofen","municipality":{"key":"09675139","name":"Iphofen, St","type":"Stadt"},"district":{"key":"09675","name":"Kitzingen","type":"Landkreis"},"federalState":{"key":"09","name":"Bayern"}},{"name":"Josef-Greising-Str.","postalCode":"97346","locality":"Iphofen","municipality":{"key":"09675139","name":"Iphofen, St","type":"Stadt"},"district":{"key":"09675","name":"Kitzingen","type":"Landkreis"},"federalState":{"key":"09","name":"Bayern"}},{"name":"Julius-Echter-Platz","postalCode":"97346","locality":"Iphofen","municipality":{"key":"09675139","name":"Iphofen, St","type":"Stadt"},"district":{"key":"09675","name":"Kitzingen","type":"Landkreis"},"federalState":{"key":"09","name":"Bayern"}},{"name":"Kaiserstr.","postalCode":"97346","locality":"Iphofen","municipality":{"key":"09675139","name":"Iphofen, St","type":"Stadt"},"district":{"key":"09675","name":"Kitzingen","type":"Landkreis"},"federalState":{"key":"09","name":"Bayern"}},{"name":"Kalbweg","postalCode":"97346","locality":"Iphofen","municipality":{"key":"09675139","name":"Iphofen, St","type":"Stadt"},"district":{"key":"09675","name":"Kitzingen","type":"Landkreis"},"federalState":{"key":"09","name":"Bayern"}},{"name":"Karl-Knauf-Str.","postalCode":"97346","locality":"Iphofen","municipality":{"key":"09675139","name":"Iphofen, St","type":"Stadt"},"district":{"key":"09675","name":"Kitzingen","type":"Landkreis"},"federalState":{"key":"09","name":"Bayern"}},{"name":"Kirchgasse","postalCode":"97346","locality":"Iphofen","municipality":{"key":"09675139","name":"Iphofen, St","type":"Stadt"},"district":{"key":"09675","name":"Kitzingen","type":"Landkreis"},"federalState":{"key":"09","name":"Bayern"}},{"name":"Kirchplatz","postalCode":"97346","locality":"Iphofen","municipality":{"key":"09675139","name":"Iphofen, St","type":"Stadt"},"district":{"key":"09675","name":"Kitzingen","type":"Landkreis"},"federalState":{"key":"09","name":"Bayern"}},{"name":"Kirchstr.","postalCode":"97346","locality":"Iphofen","municipality":{"key":"09675139","name":"Iphofen, St","type":"Stadt"},"district":{"key":"09675","name":"Kitzingen","type":"Landkreis"},"federalState":{"key":"09","name":"Bayern"}},{"name":"Klostergasse","postalCode":"97346","locality":"Iphofen","municipality":{"key":"09675139","name":"Iphofen, St","type":"Stadt"},"district":{"key":"09675","name":"Kitzingen","type":"Landkreis"},"federalState":{"key":"09","name":"Bayern"}},{"name":"Krassolzheimer Str.","postalCode":"97346","locality":"Iphofen","municipality":{"key":"09675139","name":"Iphofen, St","type":"Stadt"},"district":{"key":"09675","name":"Kitzingen","type":"Landkreis"},"federalState":{"key":"09","name":"Bayern"}},{"name":"Lange Gasse","postalCode":"97346","locality":"Iphofen","municipality":{"key":"09675139","name":"Iphofen, St","type":"Stadt"},"district":{"key":"09675","name":"Kitzingen","type":"Landkreis"},"federalState":{"key":"09","name":"Bayern"}},{"name":"Ludwigstr.","postalCode":"97346","locality":"Iphofen","municipality":{"key":"09675139","name":"Iphofen, St","type":"Stadt"},"district":{"key":"09675","name":"Kitzingen","type":"Landkreis"},"federalState":{"key":"09","name":"Bayern"}},{"name":"Manegoldstr.","postalCode":"97346","locality":"Iphofen","municipality":{"key":"09675139","name":"Iphofen, St","type":"Stadt"},"district":{"key":"09675","name":"Kitzingen","type":"Landkreis"},"federalState":{"key":"09","name":"Bayern"}},{"name":"Marktplatz","postalCode":"97346","locality":"Iphofen","municipality":{"key":"09675139","name":"Iphofen, St","type":"Stadt"},"district":{"key":"09675","name":"Kitzingen","type":"Landkreis"},"federalState":{"key":"09","name":"Bayern"}},{"name":"Maxstr.","postalCode":"97346","locality":"Iphofen","municipality":{"key":"09675139","name":"Iphofen, St","type":"Stadt"},"district":{"key":"09675","name":"Kitzingen","type":"Landkreis"},"federalState":{"key":"09","name":"Bayern"}},{"name":"Mittelgasse","postalCode":"97346","locality":"Iphofen","municipality":{"key":"09675139","name":"Iphofen, St","type":"Stadt"},"district":{"key":"09675","name":"Kitzingen","type":"Landkreis"},"federalState":{"key":"09","name":"Bayern"}},{"name":"Mittlere Gräbengasse","postalCode":"97346","locality":"Iphofen","municipality":{"key":"09675139","name":"Iphofen, St","type":"Stadt"},"district":{"key":"09675","name":"Kitzingen","type":"Landkreis"},"federalState":{"key":"09","name":"Bayern"}},{"name":"Mönchsondheimer Str.","postalCode":"97346","locality":"Iphofen","municipality":{"key":"09675139","name":"Iphofen, St","type":"Stadt"},"district":{"key":"09675","name":"Kitzingen","type":"Landkreis"},"federalState":{"key":"09","name":"Bayern"}},{"name":"Moorseebachweg","postalCode":"97346","locality":"Iphofen","municipality":{"key":"09675139","name":"Iphofen, St","type":"Stadt"},"district":{"key":"09675","name":"Kitzingen","type":"Landkreis"},"federalState":{"key":"09","name":"Bayern"}},{"name":"Mühlenweg","postalCode":"97346","locality":"Iphofen","municipality":{"key":"09675139","name":"Iphofen, St","type":"Stadt"},"district":{"key":"09675","name":"Kitzingen","type":"Landkreis"},"federalState":{"key":"09","name":"Bayern"}},{"name":"Neubergstr.","postalCode":"97346","locality":"Iphofen","municipality":{"key":"09675139","name":"Iphofen, St","type":"Stadt"},"district":{"key":"09675","name":"Kitzingen","type":"Landkreis"},"federalState":{"key":"09","name":"Bayern"}},{"name":"Obere Bergstr.","postalCode":"97346","locality":"Iphofen","municipality":{"key":"09675139","name":"Iphofen, St","type":"Stadt"},"district":{"key":"09675","name":"Kitzingen","type":"Landkreis"},"federalState":{"key":"09","name":"Bayern"}},{"name":"Obere Gasse","postalCode":"97346","locality":"Iphofen","municipality":{"key":"09675139","name":"Iphofen, St","type":"Stadt"},"district":{"key":"09675","name":"Kitzingen","type":"Landkreis"},"federalState":{"key":"09","name":"Bayern"}},{"name":"Obere Gräbengasse","postalCode":"97346","locality":"Iphofen","municipality":{"key":"09675139","name":"Iphofen, St","type":"Stadt"},"district":{"key":"09675","name":"Kitzingen","type":"Landkreis"},"federalState":{"key":"09","name":"Bayern"}},{"name":"Obstlehrpfad Nenzenheim","postalCode":"97346","locality":"Iphofen","municipality":{"key":"09675139","name":"Iphofen, St","type":"Stadt"},"district":{"key":"09675","name":"Kitzingen","type":"Landkreis"},"federalState":{"key":"09","name":"Bayern"}},{"name":"Pfaffensteig","postalCode":"97346","locality":"Iphofen","municipality":{"key":"09675139","name":"Iphofen, St","type":"Stadt"},"district":{"key":"09675","name":"Kitzingen","type":"Landkreis"},"federalState":{"key":"09","name":"Bayern"}},{"name":"Pfarrgasse","postalCode":"97346","locality":"Iphofen","municipality":{"key":"09675139","name":"Iphofen, St","type":"Stadt"},"district":{"key":"09675","name":"Kitzingen","type":"Landkreis"},"federalState":{"key":"09","name":"Bayern"}},{"name":"Poststr.","postalCode":"97346","locality":"Iphofen","municipality":{"key":"09675139","name":"Iphofen, St","type":"Stadt"},"district":{"key":"09675","name":"Kitzingen","type":"Landkreis"},"federalState":{"key":"09","name":"Bayern"}},{"name":"Rechenberg","postalCode":"97346","locality":"Iphofen","municipality":{"key":"09675139","name":"Iphofen, St","type":"Stadt"},"district":{"key":"09675","name":"Kitzingen","type":"Landkreis"},"federalState":{"key":"09","name":"Bayern"}},{"name":"Ringsbühlweg","postalCode":"97346","locality":"Iphofen","municipality":{"key":"09675139","name":"Iphofen, St","type":"Stadt"},"district":{"key":"09675","name":"Kitzingen","type":"Landkreis"},"federalState":{"key":"09","name":"Bayern"}},{"name":"Ringstr.","postalCode":"97346","locality":"Iphofen","municipality":{"key":"09675139","name":"Iphofen, St","type":"Stadt"},"district":{"key":"09675","name":"Kitzingen","type":"Landkreis"},"federalState":{"key":"09","name":"Bayern"}},{"name":"Rödelseer Str.","postalCode":"97346","locality":"Iphofen","municipality":{"key":"09675139","name":"Iphofen, St","type":"Stadt"},"district":{"key":"09675","name":"Kitzingen","type":"Landkreis"},"federalState":{"key":"09","name":"Bayern"}},{"name":"Rödelseer Tor","postalCode":"97346","locality":"Iphofen","municipality":{"key":"09675139","name":"Iphofen, St","type":"Stadt"},"district":{"key":"09675","name":"Kitzingen","type":"Landkreis"},"federalState":{"key":"09","name":"Bayern"}},{"name":"Schlesienstr.","postalCode":"97346","locality":"Iphofen","municipality":{"key":"09675139","name":"Iphofen, St","type":"Stadt"},"district":{"key":"09675","name":"Kitzingen","type":"Landkreis"},"federalState":{"key":"09","name":"Bayern"}},{"name":"Schulstr.","postalCode":"97346","locality":"Iphofen","municipality":{"key":"09675139","name":"Iphofen, St","type":"Stadt"},"district":{"key":"09675","name":"Kitzingen","type":"Landkreis"},"federalState":{"key":"09","name":"Bayern"}},{"name":"Schützenstr.","postalCode":"97346","locality":"Iphofen","municipality":{"key":"09675139","name":"Iphofen, St","type":"Stadt"},"district":{"key":"09675","name":"Kitzingen","type":"Landkreis"},"federalState":{"key":"09","name":"Bayern"}},{"name":"Schwanbergweg","postalCode":"97346","locality":"Iphofen","municipality":{"key":"09675139","name":"Iphofen, St","type":"Stadt"},"district":{"key":"09675","name":"Kitzingen","type":"Landkreis"},"federalState":{"key":"09","name":"Bayern"}},{"name":"Sportplatzstr.","postalCode":"97346","locality":"Iphofen","municipality":{"key":"09675139","name":"Iphofen, St","type":"Stadt"},"district":{"key":"09675","name":"Kitzingen","type":"Landkreis"},"federalState":{"key":"09","name":"Bayern"}},{"name":"Steinbruchweg","postalCode":"97346","locality":"Iphofen","municipality":{"key":"09675139","name":"Iphofen, St","type":"Stadt"},"district":{"key":"09675","name":"Kitzingen","type":"Landkreis"},"federalState":{"key":"09","name":"Bayern"}},{"name":"Steinbühlweg","postalCode":"97346","locality":"Iphofen","municipality":{"key":"09675139","name":"Iphofen, St","type":"Stadt"},"district":{"key":"09675","name":"Kitzingen","type":"Landkreis"},"federalState":{"key":"09","name":"Bayern"}},{"name":"Sudetenstr.","postalCode":"97346","locality":"Iphofen","municipality":{"key":"09675139","name":"Iphofen, St","type":"Stadt"},"district":{"key":"09675","name":"Kitzingen","type":"Landkreis"},"federalState":{"key":"09","name":"Bayern"}},{"name":"Talstr.","postalCode":"97318","locality":"Kitzingen","municipality":{"key":"09675141","name":"Kitzingen, GKSt","type":"Große_Kreisstadt"},"district":{"key":"09675","name":"Kitzingen","type":"Landkreis"},"federalState":{"key":"09","name":"Bayern"}},{"name":"Tannenbergstr.","postalCode":"97318","locality":"Kitzingen","municipality":{"key":"09675141","name":"Kitzingen, GKSt","type":"Große_Kreisstadt"},"district":{"key":"09675","name":"Kitzingen","type":"Landkreis"},"federalState":{"key":"09","name":"Bayern"}},{"name":"Tännigstr.","postalCode":"97318","locality":"Kitzingen","municipality":{"key":"09675141","name":"Kitzingen, GKSt","type":"Große_Kreisstadt"},"district":{"key":"09675","name":"Kitzingen","type":"Landkreis"},"federalState":{"key":"09","name":"Bayern"}},{"name":"Texasweg","postalCode":"97318","locality":"Kitzingen","municipality":{"key":"09675141","name":"Kitzingen, GKSt","type":"Große_Kreisstadt"},"district":{"key":"09675","name":"Kitzingen","type":"Landkreis"},"federalState":{"key":"09","name":"Bayern"}},{"name":"Thomas-Ehemann-Str.","postalCode":"97318","locality":"Kitzingen","municipality":{"key":"09675141","name":"Kitzingen, GKSt","type":"Große_Kreisstadt"},"district":{"key":"09675","name":"Kitzingen","type":"Landkreis"},"federalState":{"key":"09","name":"Bayern"}},{"name":"Thüringer Str.","postalCode":"97318","locality":"Kitzingen","municipality":{"key":"09675141","name":"Kitzingen, GKSt","type":"Große_Kreisstadt"},"district":{"key":"09675","name":"Kitzingen","type":"Landkreis"},"federalState":{"key":"09","name":"Bayern"}},{"name":"Tilsiter Str.","postalCode":"97318","locality":"Kitzingen","municipality":{"key":"09675141","name":"Kitzingen, GKSt","type":"Große_Kreisstadt"},"district":{"key":"09675","name":"Kitzingen","type":"Landkreis"},"federalState":{"key":"09","name":"Bayern"}},{"name":"Untere Bergstr.","postalCode":"97346","locality":"Iphofen","municipality":{"key":"09675139","name":"Iphofen, St","type":"Stadt"},"district":{"key":"09675","name":"Kitzingen","type":"Landkreis"},"federalState":{"key":"09","name":"Bayern"}},{"name":"Untere Gräbengasse","postalCode":"97346","locality":"Iphofen","municipality":{"key":"09675139","name":"Iphofen, St","type":"Stadt"},"district":{"key":"09675","name":"Kitzingen","type":"Landkreis"},"federalState":{"key":"09","name":"Bayern"}},{"name":"Valentin-Arnold-Str.","postalCode":"97346","locality":"Iphofen","municipality":{"key":"09675139","name":"Iphofen, St","type":"Stadt"},"district":{"key":"09675","name":"Kitzingen","type":"Landkreis"},"federalState":{"key":"09","name":"Bayern"}},{"name":"Vogtsmühlenweg","postalCode":"97346","locality":"Iphofen","municipality":{"key":"09675139","name":"Iphofen, St","type":"Stadt"},"district":{"key":"09675","name":"Kitzingen","type":"Landkreis"},"federalState":{"key":"09","name":"Bayern"}},{"name":"Von-Wenkheim-Str.","postalCode":"97346","locality":"Iphofen","municipality":{"key":"09675139","name":"Iphofen, St","type":"Stadt"},"district":{"key":"09675","name":"Kitzingen","type":"Landkreis"},"federalState":{"key":"09","name":"Bayern"}},{"name":"Weg zur Kalb","postalCode":"97346","locality":"Iphofen","municipality":{"key":"09675139","name":"Iphofen, St","type":"Stadt"},"district":{"key":"09675","name":"Kitzingen","type":"Landkreis"},"federalState":{"key":"09","name":"Bayern"}},{"name":"Weinbergstr.","postalCode":"97346","locality":"Iphofen","municipality":{"key":"09675139","name":"Iphofen, St","type":"Stadt"},"district":{"key":"09675","name":"Kitzingen","type":"Landkreis"},"federalState":{"key":"09","name":"Bayern"}},{"name":"Wertholzplatz","postalCode":"97346","locality":"Iphofen","municipality":{"key":"09675139","name":"Iphofen, St","type":"Stadt"},"district":{"key":"09675","name":"Kitzingen","type":"Landkreis"},"federalState":{"key":"09","name":"Bayern"}},{"name":"Willanzheimer Str.","postalCode":"97346","locality":"Iphofen","municipality":{"key":"09675139","name":"Iphofen, St","type":"Stadt"},"district":{"key":"09675","name":"Kitzingen","type":"Landkreis"},"federalState":{"key":"09","name":"Bayern"}},{"name":"Zum Gipfel","postalCode":"97346","locality":"Iphofen","municipality":{"key":"09675139","name":"Iphofen, St","type":"Stadt"},"district":{"key":"09675","name":"Kitzingen","type":"Landkreis"},"federalState":{"key":"09","name":"Bayern"}},{"name":"Äußere Sulzfelder Str.","postalCode":"97318","locality":"Kitzingen","municipality":{"key":"09675141","name":"Kitzingen, GKSt","type":"Große_Kreisstadt"},"district":{"key":"09675","name":"Kitzingen","type":"Landkreis"},"federalState":{"key":"09","name":"Bayern"}},{"name":"Ödersgasse","postalCode":"97318","locality":"Kitzingen","municipality":{"key":"09675141","name":"Kitzingen, GKSt","type":"Große_Kreisstadt"},"district":{"key":"09675","name":"Kitzingen","type":"Landkreis"},"federalState":{"key":"09","name":"Bayern"}},]