[{"name":"Auf der Rinne","postalCode":"37359","locality":"Großbartloff","municipality":{"key":"16061041","name":"Großbartloff","type":"Kreisangehörige_Gemeinde"},"district":{"key":"16061","name":"Eichsfeld","type":"Landkreis"},"federalState":{"key":"16","name":"Thüringen"}},{"name":"Bahnhofstr.","postalCode":"37359","locality":"Großbartloff","municipality":{"key":"16061041","name":"Großbartloff","type":"Kreisangehörige_Gemeinde"},"district":{"key":"16061","name":"Eichsfeld","type":"Landkreis"},"federalState":{"key":"16","name":"Thüringen"}},{"name":"Druckergasse","postalCode":"37359","locality":"Großbartloff","municipality":{"key":"16061041","name":"Großbartloff","type":"Kreisangehörige_Gemeinde"},"district":{"key":"16061","name":"Eichsfeld","type":"Landkreis"},"federalState":{"key":"16","name":"Thüringen"}},{"name":"Effelder Weg","postalCode":"99976","locality":"Südeichsfeld","municipality":{"key":"16064074","name":"Südeichsfeld","type":"Kreisangehörige_Gemeinde"},"district":{"key":"16064","name":"Unstrut-Hainich-Kreis","type":"Landkreis"},"federalState":{"key":"16","name":"Thüringen"}},{"name":"Eichsfelder Str.","postalCode":"99988","locality":"Südeichsfeld","municipality":{"key":"16064074","name":"Südeichsfeld","type":"Kreisangehörige_Gemeinde"},"district":{"key":"16064","name":"Unstrut-Hainich-Kreis","type":"Landkreis"},"federalState":{"key":"16","name":"Thüringen"}},{"name":"Eichtal","postalCode":"99988","locality":"Südeichsfeld","municipality":{"key":"16064074","name":"Südeichsfeld","type":"Kreisangehörige_Gemeinde"},"district":{"key":"16064","name":"Unstrut-Hainich-Kreis","type":"Landkreis"},"federalState":{"key":"16","name":"Thüringen"}},{"name":"Eisenacher Str.","postalCode":"99988","locality":"Südeichsfeld","municipality":{"key":"16064074","name":"Südeichsfeld","type":"Kreisangehörige_Gemeinde"},"district":{"key":"16064","name":"Unstrut-Hainich-Kreis","type":"Landkreis"},"federalState":{"key":"16","name":"Thüringen"}},{"name":"Färbergasse","postalCode":"37359","locality":"Großbartloff","municipality":{"key":"16061041","name":"Großbartloff","type":"Kreisangehörige_Gemeinde"},"district":{"key":"16061","name":"Eichsfeld","type":"Landkreis"},"federalState":{"key":"16","name":"Thüringen"}},{"name":"Friedensstr.","postalCode":"37359","locality":"Großbartloff","municipality":{"key":"16061041","name":"Großbartloff","type":"Kreisangehörige_Gemeinde"},"district":{"key":"16061","name":"Eichsfeld","type":"Landkreis"},"federalState":{"key":"16","name":"Thüringen"}},{"name":"Grimmgasse","postalCode":"37359","locality":"Großbartloff","municipality":{"key":"16061041","name":"Großbartloff","type":"Kreisangehörige_Gemeinde"},"district":{"key":"16061","name":"Eichsfeld","type":"Landkreis"},"federalState":{"key":"16","name":"Thüringen"}},{"name":"Hauptstr.","postalCode":"37359","locality":"Großbartloff","municipality":{"key":"16061041","name":"Großbartloff","type":"Kreisangehörige_Gemeinde"},"district":{"key":"16061","name":"Eichsfeld","type":"Landkreis"},"federalState":{"key":"16","name":"Thüringen"}},{"name":"Herztorstr.","postalCode":"37359","locality":"Großbartloff","municipality":{"key":"16061041","name":"Großbartloff","type":"Kreisangehörige_Gemeinde"},"district":{"key":"16061","name":"Eichsfeld","type":"Landkreis"},"federalState":{"key":"16","name":"Thüringen"}},{"name":"In der Aue","postalCode":"37359","locality":"Großbartloff","municipality":{"key":"16061041","name":"Großbartloff","type":"Kreisangehörige_Gemeinde"},"district":{"key":"16061","name":"Eichsfeld","type":"Landkreis"},"federalState":{"key":"16","name":"Thüringen"}},{"name":"In der Biege","postalCode":"37359","locality":"Großbartloff","municipality":{"key":"16061041","name":"Großbartloff","type":"Kreisangehörige_Gemeinde"},"district":{"key":"16061","name":"Eichsfeld","type":"Landkreis"},"federalState":{"key":"16","name":"Thüringen"}},{"name":"Jägerstr.","postalCode":"99988","locality":"Südeichsfeld","municipality":{"key":"16064074","name":"Südeichsfeld","type":"Kreisangehörige_Gemeinde"},"district":{"key":"16064","name":"Unstrut-Hainich-Kreis","type":"Landkreis"},"federalState":{"key":"16","name":"Thüringen"}},{"name":"Johannesstr.","postalCode":"99988","locality":"Südeichsfeld","municipality":{"key":"16064074","name":"Südeichsfeld","type":"Kreisangehörige_Gemeinde"},"district":{"key":"16064","name":"Unstrut-Hainich-Kreis","type":"Landkreis"},"federalState":{"key":"16","name":"Thüringen"}},{"name":"Kirchgasse","postalCode":"37359","locality":"Großbartloff","municipality":{"key":"16061041","name":"Großbartloff","type":"Kreisangehörige_Gemeinde"},"district":{"key":"16061","name":"Eichsfeld","type":"Landkreis"},"federalState":{"key":"16","name":"Thüringen"}},{"name":"Klusbergstr.","postalCode":"37359","locality":"Großbartloff","municipality":{"key":"16061041","name":"Großbartloff","type":"Kreisangehörige_Gemeinde"},"district":{"key":"16061","name":"Eichsfeld","type":"Landkreis"},"federalState":{"key":"16","name":"Thüringen"}},{"name":"Kummerberg","postalCode":"37359","locality":"Großbartloff","municipality":{"key":"16061041","name":"Großbartloff","type":"Kreisangehörige_Gemeinde"},"district":{"key":"16061","name":"Eichsfeld","type":"Landkreis"},"federalState":{"key":"16","name":"Thüringen"}},{"name":"Kummerbergstr.","postalCode":"37359","locality":"Großbartloff","municipality":{"key":"16061041","name":"Großbartloff","type":"Kreisangehörige_Gemeinde"},"district":{"key":"16061","name":"Eichsfeld","type":"Landkreis"},"federalState":{"key":"16","name":"Thüringen"}},{"name":"Kurze Gasse","postalCode":"37359","locality":"Großbartloff","municipality":{"key":"16061041","name":"Großbartloff","type":"Kreisangehörige_Gemeinde"},"district":{"key":"16061","name":"Eichsfeld","type":"Landkreis"},"federalState":{"key":"16","name":"Thüringen"}},{"name":"Lange Linie","postalCode":"37359","locality":"Großbartloff","municipality":{"key":"16061041","name":"Großbartloff","type":"Kreisangehörige_Gemeinde"},"district":{"key":"16061","name":"Eichsfeld","type":"Landkreis"},"federalState":{"key":"16","name":"Thüringen"}},{"name":"Mühlgasse","postalCode":"37359","locality":"Großbartloff","municipality":{"key":"16061041","name":"Großbartloff","type":"Kreisangehörige_Gemeinde"},"district":{"key":"16061","name":"Eichsfeld","type":"Landkreis"},"federalState":{"key":"16","name":"Thüringen"}},{"name":"Neuenkirchener Str.","postalCode":"99988","locality":"Südeichsfeld","municipality":{"key":"16064074","name":"Südeichsfeld","type":"Kreisangehörige_Gemeinde"},"district":{"key":"16064","name":"Unstrut-Hainich-Kreis","type":"Landkreis"},"federalState":{"key":"16","name":"Thüringen"}},{"name":"Neue Str.","postalCode":"99976","locality":"Südeichsfeld","municipality":{"key":"16064074","name":"Südeichsfeld","type":"Kreisangehörige_Gemeinde"},"district":{"key":"16064","name":"Unstrut-Hainich-Kreis","type":"Landkreis"},"federalState":{"key":"16","name":"Thüringen"}},{"name":"Neue Str.","postalCode":"99988","locality":"Südeichsfeld","municipality":{"key":"16064074","name":"Südeichsfeld","type":"Kreisangehörige_Gemeinde"},"district":{"key":"16064","name":"Unstrut-Hainich-Kreis","type":"Landkreis"},"federalState":{"key":"16","name":"Thüringen"}},{"name":"Obergasse","postalCode":"99988","locality":"Südeichsfeld","municipality":{"key":"16064074","name":"Südeichsfeld","type":"Kreisangehörige_Gemeinde"},"district":{"key":"16064","name":"Unstrut-Hainich-Kreis","type":"Landkreis"},"federalState":{"key":"16","name":"Thüringen"}},{"name":"Oberstr.","postalCode":"99988","locality":"Südeichsfeld","municipality":{"key":"16064074","name":"Südeichsfeld","type":"Kreisangehörige_Gemeinde"},"district":{"key":"16064","name":"Unstrut-Hainich-Kreis","type":"Landkreis"},"federalState":{"key":"16","name":"Thüringen"}},{"name":"Rasen","postalCode":"99976","locality":"Südeichsfeld","municipality":{"key":"16064074","name":"Südeichsfeld","type":"Kreisangehörige_Gemeinde"},"district":{"key":"16064","name":"Unstrut-Hainich-Kreis","type":"Landkreis"},"federalState":{"key":"16","name":"Thüringen"}},{"name":"Riedstr.","postalCode":"99988","locality":"Südeichsfeld","municipality":{"key":"16064074","name":"Südeichsfeld","type":"Kreisangehörige_Gemeinde"},"district":{"key":"16064","name":"Unstrut-Hainich-Kreis","type":"Landkreis"},"federalState":{"key":"16","name":"Thüringen"}},{"name":"Rosengarten","postalCode":"99988","locality":"Südeichsfeld","municipality":{"key":"16064074","name":"Südeichsfeld","type":"Kreisangehörige_Gemeinde"},"district":{"key":"16064","name":"Unstrut-Hainich-Kreis","type":"Landkreis"},"federalState":{"key":"16","name":"Thüringen"}},{"name":"Rosenstr.","postalCode":"99988","locality":"Südeichsfeld","municipality":{"key":"16064074","name":"Südeichsfeld","type":"Kreisangehörige_Gemeinde"},"district":{"key":"16064","name":"Unstrut-Hainich-Kreis","type":"Landkreis"},"federalState":{"key":"16","name":"Thüringen"}},{"name":"Schulstr.","postalCode":"37359","locality":"Großbartloff","municipality":{"key":"16061041","name":"Großbartloff","type":"Kreisangehörige_Gemeinde"},"district":{"key":"16061","name":"Eichsfeld","type":"Landkreis"},"federalState":{"key":"16","name":"Thüringen"}},{"name":"Schwarzer Weg","postalCode":"37359","locality":"Großbartloff","municipality":{"key":"16061041","name":"Großbartloff","type":"Kreisangehörige_Gemeinde"},"district":{"key":"16061","name":"Eichsfeld","type":"Landkreis"},"federalState":{"key":"16","name":"Thüringen"}},{"name":"Triftstr.","postalCode":"37359","locality":"Großbartloff","municipality":{"key":"16061041","name":"Großbartloff","type":"Kreisangehörige_Gemeinde"},"district":{"key":"16061","name":"Eichsfeld","type":"Landkreis"},"federalState":{"key":"16","name":"Thüringen"}},{"name":"Unter dem Hanstein","postalCode":"99976","locality":"Südeichsfeld","municipality":{"key":"16064074","name":"Südeichsfeld","type":"Kreisangehörige_Gemeinde"},"district":{"key":"16064","name":"Unstrut-Hainich-Kreis","type":"Landkreis"},"federalState":{"key":"16","name":"Thüringen"}},{"name":"Unterm Kirchberg","postalCode":"99976","locality":"Südeichsfeld","municipality":{"key":"16064074","name":"Südeichsfeld","type":"Kreisangehörige_Gemeinde"},"district":{"key":"16064","name":"Unstrut-Hainich-Kreis","type":"Landkreis"},"federalState":{"key":"16","name":"Thüringen"}},{"name":"Unterm Lichten","postalCode":"99988","locality":"Südeichsfeld","municipality":{"key":"16064074","name":"Südeichsfeld","type":"Kreisangehörige_Gemeinde"},"district":{"key":"16064","name":"Unstrut-Hainich-Kreis","type":"Landkreis"},"federalState":{"key":"16","name":"Thüringen"}},{"name":"Unterm Mühlberg","postalCode":"99988","locality":"Südeichsfeld","municipality":{"key":"16064074","name":"Südeichsfeld","type":"Kreisangehörige_Gemeinde"},"district":{"key":"16064","name":"Unstrut-Hainich-Kreis","type":"Landkreis"},"federalState":{"key":"16","name":"Thüringen"}},{"name":"Untermühle","postalCode":"99976","locality":"Südeichsfeld","municipality":{"key":"16064074","name":"Südeichsfeld","type":"Kreisangehörige_Gemeinde"},"district":{"key":"16064","name":"Unstrut-Hainich-Kreis","type":"Landkreis"},"federalState":{"key":"16","name":"Thüringen"}},{"name":"Vor dem Tore","postalCode":"37359","locality":"Großbartloff","municipality":{"key":"16061041","name":"Großbartloff","type":"Kreisangehörige_Gemeinde"},"district":{"key":"16061","name":"Eichsfeld","type":"Landkreis"},"federalState":{"key":"16","name":"Thüringen"}},{"name":"Weg","postalCode":"99976","locality":"Südeichsfeld","municipality":{"key":"16064074","name":"Südeichsfeld","type":"Kreisangehörige_Gemeinde"},"district":{"key":"16064","name":"Unstrut-Hainich-Kreis","type":"Landkreis"},"federalState":{"key":"16","name":"Thüringen"}},{"name":"Weinbergstr.","postalCode":"99988","locality":"Südeichsfeld","municipality":{"key":"16064074","name":"Südeichsfeld","type":"Kreisangehörige_Gemeinde"},"district":{"key":"16064","name":"Unstrut-Hainich-Kreis","type":"Landkreis"},"federalState":{"key":"16","name":"Thüringen"}},{"name":"Wendehäuser Str.","postalCode":"99988","locality":"Südeichsfeld","municipality":{"key":"16064074","name":"Südeichsfeld","type":"Kreisangehörige_Gemeinde"},"district":{"key":"16064","name":"Unstrut-Hainich-Kreis","type":"Landkreis"},"federalState":{"key":"16","name":"Thüringen"}},{"name":"Wiesengrund","postalCode":"99988","locality":"Südeichsfeld","municipality":{"key":"16064074","name":"Südeichsfeld","type":"Kreisangehörige_Gemeinde"},"district":{"key":"16064","name":"Unstrut-Hainich-Kreis","type":"Landkreis"},"federalState":{"key":"16","name":"Thüringen"}},{"name":"Wiesenweg","postalCode":"99988","locality":"Südeichsfeld","municipality":{"key":"16064074","name":"Südeichsfeld","type":"Kreisangehörige_Gemeinde"},"district":{"key":"16064","name":"Unstrut-Hainich-Kreis","type":"Landkreis"},"federalState":{"key":"16","name":"Thüringen"}},{"name":"Wilhelmstr.","postalCode":"99988","locality":"Südeichsfeld","municipality":{"key":"16064074","name":"Südeichsfeld","type":"Kreisangehörige_Gemeinde"},"district":{"key":"16064","name":"Unstrut-Hainich-Kreis","type":"Landkreis"},"federalState":{"key":"16","name":"Thüringen"}},{"name":"Zum Aschenbühl","postalCode":"37359","locality":"Großbartloff","municipality":{"key":"16061041","name":"Großbartloff","type":"Kreisangehörige_Gemeinde"},"district":{"key":"16061","name":"Eichsfeld","type":"Landkreis"},"federalState":{"key":"16","name":"Thüringen"}},]