[{"name":"Ahornweg","postalCode":"66981","locality":"Münchweiler an der Rodalb","municipality":{"key":"07340032","name":"Münchweiler an der Rodalb","type":"Kreisangehörige_Gemeinde"},"district":{"key":"07340","name":"Südwestpfalz","type":"Landkreis"},"federalState":{"key":"07","name":"Rheinland-Pfalz"}},{"name":"Am Fußpfad","postalCode":"66981","locality":"Münchweiler an der Rodalb","municipality":{"key":"07340032","name":"Münchweiler an der Rodalb","type":"Kreisangehörige_Gemeinde"},"district":{"key":"07340","name":"Südwestpfalz","type":"Landkreis"},"federalState":{"key":"07","name":"Rheinland-Pfalz"}},{"name":"Am Herdpfad","postalCode":"66981","locality":"Münchweiler an der Rodalb","municipality":{"key":"07340032","name":"Münchweiler an der Rodalb","type":"Kreisangehörige_Gemeinde"},"district":{"key":"07340","name":"Südwestpfalz","type":"Landkreis"},"federalState":{"key":"07","name":"Rheinland-Pfalz"}},{"name":"Am Husarenhübel","postalCode":"66981","locality":"Münchweiler an der Rodalb","municipality":{"key":"07340032","name":"Münchweiler an der Rodalb","type":"Kreisangehörige_Gemeinde"},"district":{"key":"07340","name":"Südwestpfalz","type":"Landkreis"},"federalState":{"key":"07","name":"Rheinland-Pfalz"}},{"name":"Am Sölchen","postalCode":"66981","locality":"Münchweiler an der Rodalb","municipality":{"key":"07340032","name":"Münchweiler an der Rodalb","type":"Kreisangehörige_Gemeinde"},"district":{"key":"07340","name":"Südwestpfalz","type":"Landkreis"},"federalState":{"key":"07","name":"Rheinland-Pfalz"}},{"name":"Am Starkenbrunnen","postalCode":"66955","locality":"Münchweiler an der Rodalb","municipality":{"key":"07340032","name":"Münchweiler an der Rodalb","type":"Kreisangehörige_Gemeinde"},"district":{"key":"07340","name":"Südwestpfalz","type":"Landkreis"},"federalState":{"key":"07","name":"Rheinland-Pfalz"}},{"name":"Auf der Kurzel","postalCode":"66981","locality":"Münchweiler an der Rodalb","municipality":{"key":"07340032","name":"Münchweiler an der Rodalb","type":"Kreisangehörige_Gemeinde"},"district":{"key":"07340","name":"Südwestpfalz","type":"Landkreis"},"federalState":{"key":"07","name":"Rheinland-Pfalz"}},{"name":"Bahnhofstr.","postalCode":"66981","locality":"Münchweiler an der Rodalb","municipality":{"key":"07340032","name":"Münchweiler an der Rodalb","type":"Kreisangehörige_Gemeinde"},"district":{"key":"07340","name":"Südwestpfalz","type":"Landkreis"},"federalState":{"key":"07","name":"Rheinland-Pfalz"}},{"name":"Berliner Str.","postalCode":"66981","locality":"Münchweiler an der Rodalb","municipality":{"key":"07340032","name":"Münchweiler an der Rodalb","type":"Kreisangehörige_Gemeinde"},"district":{"key":"07340","name":"Südwestpfalz","type":"Landkreis"},"federalState":{"key":"07","name":"Rheinland-Pfalz"}},{"name":"Bernhardstr.","postalCode":"66981","locality":"Münchweiler an der Rodalb","municipality":{"key":"07340032","name":"Münchweiler an der Rodalb","type":"Kreisangehörige_Gemeinde"},"district":{"key":"07340","name":"Südwestpfalz","type":"Landkreis"},"federalState":{"key":"07","name":"Rheinland-Pfalz"}},{"name":"Birkenweg","postalCode":"66981","locality":"Münchweiler an der Rodalb","municipality":{"key":"07340032","name":"Münchweiler an der Rodalb","type":"Kreisangehörige_Gemeinde"},"district":{"key":"07340","name":"Südwestpfalz","type":"Landkreis"},"federalState":{"key":"07","name":"Rheinland-Pfalz"}},{"name":"Bischof-Emanuel-Ring","postalCode":"66981","locality":"Münchweiler an der Rodalb","municipality":{"key":"07340032","name":"Münchweiler an der Rodalb","type":"Kreisangehörige_Gemeinde"},"district":{"key":"07340","name":"Südwestpfalz","type":"Landkreis"},"federalState":{"key":"07","name":"Rheinland-Pfalz"}},{"name":"Bogenstr.","postalCode":"66981","locality":"Münchweiler an der Rodalb","municipality":{"key":"07340032","name":"Münchweiler an der Rodalb","type":"Kreisangehörige_Gemeinde"},"district":{"key":"07340","name":"Südwestpfalz","type":"Landkreis"},"federalState":{"key":"07","name":"Rheinland-Pfalz"}},{"name":"Buchenweg","postalCode":"66981","locality":"Münchweiler an der Rodalb","municipality":{"key":"07340032","name":"Münchweiler an der Rodalb","type":"Kreisangehörige_Gemeinde"},"district":{"key":"07340","name":"Südwestpfalz","type":"Landkreis"},"federalState":{"key":"07","name":"Rheinland-Pfalz"}},{"name":"Eichendorffstr.","postalCode":"66981","locality":"Münchweiler an der Rodalb","municipality":{"key":"07340032","name":"Münchweiler an der Rodalb","type":"Kreisangehörige_Gemeinde"},"district":{"key":"07340","name":"Südwestpfalz","type":"Landkreis"},"federalState":{"key":"07","name":"Rheinland-Pfalz"}},{"name":"Eichenweg","postalCode":"66981","locality":"Münchweiler an der Rodalb","municipality":{"key":"07340032","name":"Münchweiler an der Rodalb","type":"Kreisangehörige_Gemeinde"},"district":{"key":"07340","name":"Südwestpfalz","type":"Landkreis"},"federalState":{"key":"07","name":"Rheinland-Pfalz"}},{"name":"Elisabethstr.","postalCode":"66981","locality":"Münchweiler an der Rodalb","municipality":{"key":"07340032","name":"Münchweiler an der Rodalb","type":"Kreisangehörige_Gemeinde"},"district":{"key":"07340","name":"Südwestpfalz","type":"Landkreis"},"federalState":{"key":"07","name":"Rheinland-Pfalz"}},{"name":"Erlenweg","postalCode":"66981","locality":"Münchweiler an der Rodalb","municipality":{"key":"07340032","name":"Münchweiler an der Rodalb","type":"Kreisangehörige_Gemeinde"},"district":{"key":"07340","name":"Südwestpfalz","type":"Landkreis"},"federalState":{"key":"07","name":"Rheinland-Pfalz"}},{"name":"Fabrikstr.","postalCode":"66981","locality":"Münchweiler an der Rodalb","municipality":{"key":"07340032","name":"Münchweiler an der Rodalb","type":"Kreisangehörige_Gemeinde"},"district":{"key":"07340","name":"Südwestpfalz","type":"Landkreis"},"federalState":{"key":"07","name":"Rheinland-Pfalz"}},{"name":"Feldstr.","postalCode":"66981","locality":"Münchweiler an der Rodalb","municipality":{"key":"07340032","name":"Münchweiler an der Rodalb","type":"Kreisangehörige_Gemeinde"},"district":{"key":"07340","name":"Südwestpfalz","type":"Landkreis"},"federalState":{"key":"07","name":"Rheinland-Pfalz"}},{"name":"Friedensweg","postalCode":"66981","locality":"Münchweiler an der Rodalb","municipality":{"key":"07340032","name":"Münchweiler an der Rodalb","type":"Kreisangehörige_Gemeinde"},"district":{"key":"07340","name":"Südwestpfalz","type":"Landkreis"},"federalState":{"key":"07","name":"Rheinland-Pfalz"}},{"name":"Friedhofstr.","postalCode":"66981","locality":"Münchweiler an der Rodalb","municipality":{"key":"07340032","name":"Münchweiler an der Rodalb","type":"Kreisangehörige_Gemeinde"},"district":{"key":"07340","name":"Südwestpfalz","type":"Landkreis"},"federalState":{"key":"07","name":"Rheinland-Pfalz"}},{"name":"Fritz-Claus-Str.","postalCode":"66981","locality":"Münchweiler an der Rodalb","municipality":{"key":"07340032","name":"Münchweiler an der Rodalb","type":"Kreisangehörige_Gemeinde"},"district":{"key":"07340","name":"Südwestpfalz","type":"Landkreis"},"federalState":{"key":"07","name":"Rheinland-Pfalz"}},{"name":"Goethestr.","postalCode":"66981","locality":"Münchweiler an der Rodalb","municipality":{"key":"07340032","name":"Münchweiler an der Rodalb","type":"Kreisangehörige_Gemeinde"},"district":{"key":"07340","name":"Südwestpfalz","type":"Landkreis"},"federalState":{"key":"07","name":"Rheinland-Pfalz"}},{"name":"Gräfensteiner Str.","postalCode":"66981","locality":"Münchweiler an der Rodalb","municipality":{"key":"07340032","name":"Münchweiler an der Rodalb","type":"Kreisangehörige_Gemeinde"},"district":{"key":"07340","name":"Südwestpfalz","type":"Landkreis"},"federalState":{"key":"07","name":"Rheinland-Pfalz"}},{"name":"Grün Gelb","postalCode":"66981","locality":"Münchweiler an der Rodalb","municipality":{"key":"07340032","name":"Münchweiler an der Rodalb","type":"Kreisangehörige_Gemeinde"},"district":{"key":"07340","name":"Südwestpfalz","type":"Landkreis"},"federalState":{"key":"07","name":"Rheinland-Pfalz"}},{"name":"Hanauer Str.","postalCode":"66981","locality":"Münchweiler an der Rodalb","municipality":{"key":"07340032","name":"Münchweiler an der Rodalb","type":"Kreisangehörige_Gemeinde"},"district":{"key":"07340","name":"Südwestpfalz","type":"Landkreis"},"federalState":{"key":"07","name":"Rheinland-Pfalz"}},{"name":"Hauptstr.","postalCode":"66981","locality":"Münchweiler an der Rodalb","municipality":{"key":"07340032","name":"Münchweiler an der Rodalb","type":"Kreisangehörige_Gemeinde"},"district":{"key":"07340","name":"Südwestpfalz","type":"Landkreis"},"federalState":{"key":"07","name":"Rheinland-Pfalz"}},{"name":"Höhstr.","postalCode":"66981","locality":"Münchweiler an der Rodalb","municipality":{"key":"07340032","name":"Münchweiler an der Rodalb","type":"Kreisangehörige_Gemeinde"},"district":{"key":"07340","name":"Südwestpfalz","type":"Landkreis"},"federalState":{"key":"07","name":"Rheinland-Pfalz"}},{"name":"Im Geierspiel","postalCode":"66981","locality":"Münchweiler an der Rodalb","municipality":{"key":"07340032","name":"Münchweiler an der Rodalb","type":"Kreisangehörige_Gemeinde"},"district":{"key":"07340","name":"Südwestpfalz","type":"Landkreis"},"federalState":{"key":"07","name":"Rheinland-Pfalz"}},{"name":"Im Hinterfeld","postalCode":"66981","locality":"Münchweiler an der Rodalb","municipality":{"key":"07340032","name":"Münchweiler an der Rodalb","type":"Kreisangehörige_Gemeinde"},"district":{"key":"07340","name":"Südwestpfalz","type":"Landkreis"},"federalState":{"key":"07","name":"Rheinland-Pfalz"}},{"name":"In den Rödern","postalCode":"66981","locality":"Münchweiler an der Rodalb","municipality":{"key":"07340032","name":"Münchweiler an der Rodalb","type":"Kreisangehörige_Gemeinde"},"district":{"key":"07340","name":"Südwestpfalz","type":"Landkreis"},"federalState":{"key":"07","name":"Rheinland-Pfalz"}},{"name":"In der Finsterdelle","postalCode":"66981","locality":"Münchweiler an der Rodalb","municipality":{"key":"07340032","name":"Münchweiler an der Rodalb","type":"Kreisangehörige_Gemeinde"},"district":{"key":"07340","name":"Südwestpfalz","type":"Landkreis"},"federalState":{"key":"07","name":"Rheinland-Pfalz"}},{"name":"Industriestr.","postalCode":"66981","locality":"Münchweiler an der Rodalb","municipality":{"key":"07340032","name":"Münchweiler an der Rodalb","type":"Kreisangehörige_Gemeinde"},"district":{"key":"07340","name":"Südwestpfalz","type":"Landkreis"},"federalState":{"key":"07","name":"Rheinland-Pfalz"}},{"name":"Jahnstr.","postalCode":"66981","locality":"Münchweiler an der Rodalb","municipality":{"key":"07340032","name":"Münchweiler an der Rodalb","type":"Kreisangehörige_Gemeinde"},"district":{"key":"07340","name":"Südwestpfalz","type":"Landkreis"},"federalState":{"key":"07","name":"Rheinland-Pfalz"}},{"name":"Kardinal-Wendel-Str.","postalCode":"66981","locality":"Münchweiler an der Rodalb","municipality":{"key":"07340032","name":"Münchweiler an der Rodalb","type":"Kreisangehörige_Gemeinde"},"district":{"key":"07340","name":"Südwestpfalz","type":"Landkreis"},"federalState":{"key":"07","name":"Rheinland-Pfalz"}},{"name":"Kastanienweg","postalCode":"66981","locality":"Münchweiler an der Rodalb","municipality":{"key":"07340032","name":"Münchweiler an der Rodalb","type":"Kreisangehörige_Gemeinde"},"district":{"key":"07340","name":"Südwestpfalz","type":"Landkreis"},"federalState":{"key":"07","name":"Rheinland-Pfalz"}},{"name":"Kienholzpfad","postalCode":"66981","locality":"Münchweiler an der Rodalb","municipality":{"key":"07340032","name":"Münchweiler an der Rodalb","type":"Kreisangehörige_Gemeinde"},"district":{"key":"07340","name":"Südwestpfalz","type":"Landkreis"},"federalState":{"key":"07","name":"Rheinland-Pfalz"}},{"name":"Kirchgasse","postalCode":"66981","locality":"Münchweiler an der Rodalb","municipality":{"key":"07340032","name":"Münchweiler an der Rodalb","type":"Kreisangehörige_Gemeinde"},"district":{"key":"07340","name":"Südwestpfalz","type":"Landkreis"},"federalState":{"key":"07","name":"Rheinland-Pfalz"}},{"name":"Kolpingstr.","postalCode":"66981","locality":"Münchweiler an der Rodalb","municipality":{"key":"07340032","name":"Münchweiler an der Rodalb","type":"Kreisangehörige_Gemeinde"},"district":{"key":"07340","name":"Südwestpfalz","type":"Landkreis"},"federalState":{"key":"07","name":"Rheinland-Pfalz"}},{"name":"Königsberger Str.","postalCode":"66981","locality":"Münchweiler an der Rodalb","municipality":{"key":"07340032","name":"Münchweiler an der Rodalb","type":"Kreisangehörige_Gemeinde"},"district":{"key":"07340","name":"Südwestpfalz","type":"Landkreis"},"federalState":{"key":"07","name":"Rheinland-Pfalz"}},{"name":"Konrad-Adenauer-Ring","postalCode":"66981","locality":"Münchweiler an der Rodalb","municipality":{"key":"07340032","name":"Münchweiler an der Rodalb","type":"Kreisangehörige_Gemeinde"},"district":{"key":"07340","name":"Südwestpfalz","type":"Landkreis"},"federalState":{"key":"07","name":"Rheinland-Pfalz"}},{"name":"Kreuzberg","postalCode":"66981","locality":"Münchweiler an der Rodalb","municipality":{"key":"07340032","name":"Münchweiler an der Rodalb","type":"Kreisangehörige_Gemeinde"},"district":{"key":"07340","name":"Südwestpfalz","type":"Landkreis"},"federalState":{"key":"07","name":"Rheinland-Pfalz"}},{"name":"Kurpfalzstr.","postalCode":"66981","locality":"Münchweiler an der Rodalb","municipality":{"key":"07340032","name":"Münchweiler an der Rodalb","type":"Kreisangehörige_Gemeinde"},"district":{"key":"07340","name":"Südwestpfalz","type":"Landkreis"},"federalState":{"key":"07","name":"Rheinland-Pfalz"}},{"name":"Langenbergstr.","postalCode":"66981","locality":"Münchweiler an der Rodalb","municipality":{"key":"07340032","name":"Münchweiler an der Rodalb","type":"Kreisangehörige_Gemeinde"},"district":{"key":"07340","name":"Südwestpfalz","type":"Landkreis"},"federalState":{"key":"07","name":"Rheinland-Pfalz"}},{"name":"Lazarettstr.","postalCode":"66981","locality":"Münchweiler an der Rodalb","municipality":{"key":"07340032","name":"Münchweiler an der Rodalb","type":"Kreisangehörige_Gemeinde"},"district":{"key":"07340","name":"Südwestpfalz","type":"Landkreis"},"federalState":{"key":"07","name":"Rheinland-Pfalz"}},{"name":"Luisenstr.","postalCode":"66981","locality":"Münchweiler an der Rodalb","municipality":{"key":"07340032","name":"Münchweiler an der Rodalb","type":"Kreisangehörige_Gemeinde"},"district":{"key":"07340","name":"Südwestpfalz","type":"Landkreis"},"federalState":{"key":"07","name":"Rheinland-Pfalz"}},{"name":"Luitpoldplatz","postalCode":"66981","locality":"Münchweiler an der Rodalb","municipality":{"key":"07340032","name":"Münchweiler an der Rodalb","type":"Kreisangehörige_Gemeinde"},"district":{"key":"07340","name":"Südwestpfalz","type":"Landkreis"},"federalState":{"key":"07","name":"Rheinland-Pfalz"}},{"name":"Marienstr.","postalCode":"66981","locality":"Münchweiler an der Rodalb","municipality":{"key":"07340032","name":"Münchweiler an der Rodalb","type":"Kreisangehörige_Gemeinde"},"district":{"key":"07340","name":"Südwestpfalz","type":"Landkreis"},"federalState":{"key":"07","name":"Rheinland-Pfalz"}},{"name":"Markgrafenstr.","postalCode":"66981","locality":"Münchweiler an der Rodalb","municipality":{"key":"07340032","name":"Münchweiler an der Rodalb","type":"Kreisangehörige_Gemeinde"},"district":{"key":"07340","name":"Südwestpfalz","type":"Landkreis"},"federalState":{"key":"07","name":"Rheinland-Pfalz"}},{"name":"Marx-Wadle-Str.","postalCode":"66981","locality":"Münchweiler an der Rodalb","municipality":{"key":"07340032","name":"Münchweiler an der Rodalb","type":"Kreisangehörige_Gemeinde"},"district":{"key":"07340","name":"Südwestpfalz","type":"Landkreis"},"federalState":{"key":"07","name":"Rheinland-Pfalz"}},{"name":"Mühlstr.","postalCode":"66981","locality":"Münchweiler an der Rodalb","municipality":{"key":"07340032","name":"Münchweiler an der Rodalb","type":"Kreisangehörige_Gemeinde"},"district":{"key":"07340","name":"Südwestpfalz","type":"Landkreis"},"federalState":{"key":"07","name":"Rheinland-Pfalz"}},{"name":"Pfarrer-Körber-Str.","postalCode":"66981","locality":"Münchweiler an der Rodalb","municipality":{"key":"07340032","name":"Münchweiler an der Rodalb","type":"Kreisangehörige_Gemeinde"},"district":{"key":"07340","name":"Südwestpfalz","type":"Landkreis"},"federalState":{"key":"07","name":"Rheinland-Pfalz"}},{"name":"Pirmasenser Str.","postalCode":"66981","locality":"Münchweiler an der Rodalb","municipality":{"key":"07340032","name":"Münchweiler an der Rodalb","type":"Kreisangehörige_Gemeinde"},"district":{"key":"07340","name":"Südwestpfalz","type":"Landkreis"},"federalState":{"key":"07","name":"Rheinland-Pfalz"}},{"name":"Pirminiusstr.","postalCode":"66981","locality":"Münchweiler an der Rodalb","municipality":{"key":"07340032","name":"Münchweiler an der Rodalb","type":"Kreisangehörige_Gemeinde"},"district":{"key":"07340","name":"Südwestpfalz","type":"Landkreis"},"federalState":{"key":"07","name":"Rheinland-Pfalz"}},{"name":"Prinzregentenstr.","postalCode":"66981","locality":"Münchweiler an der Rodalb","municipality":{"key":"07340032","name":"Münchweiler an der Rodalb","type":"Kreisangehörige_Gemeinde"},"district":{"key":"07340","name":"Südwestpfalz","type":"Landkreis"},"federalState":{"key":"07","name":"Rheinland-Pfalz"}},{"name":"Riegelbrunnerhof","postalCode":"66981","locality":"Münchweiler an der Rodalb","municipality":{"key":"07340032","name":"Münchweiler an der Rodalb","type":"Kreisangehörige_Gemeinde"},"district":{"key":"07340","name":"Südwestpfalz","type":"Landkreis"},"federalState":{"key":"07","name":"Rheinland-Pfalz"}},{"name":"Römerstr.","postalCode":"66981","locality":"Münchweiler an der Rodalb","municipality":{"key":"07340032","name":"Münchweiler an der Rodalb","type":"Kreisangehörige_Gemeinde"},"district":{"key":"07340","name":"Südwestpfalz","type":"Landkreis"},"federalState":{"key":"07","name":"Rheinland-Pfalz"}},{"name":"Rotensteiner Str.","postalCode":"66981","locality":"Münchweiler an der Rodalb","municipality":{"key":"07340032","name":"Münchweiler an der Rodalb","type":"Kreisangehörige_Gemeinde"},"district":{"key":"07340","name":"Südwestpfalz","type":"Landkreis"},"federalState":{"key":"07","name":"Rheinland-Pfalz"}},{"name":"Schillerstr.","postalCode":"66981","locality":"Münchweiler an der Rodalb","municipality":{"key":"07340032","name":"Münchweiler an der Rodalb","type":"Kreisangehörige_Gemeinde"},"district":{"key":"07340","name":"Südwestpfalz","type":"Landkreis"},"federalState":{"key":"07","name":"Rheinland-Pfalz"}},{"name":"Schlaugasse","postalCode":"66981","locality":"Münchweiler an der Rodalb","municipality":{"key":"07340032","name":"Münchweiler an der Rodalb","type":"Kreisangehörige_Gemeinde"},"district":{"key":"07340","name":"Südwestpfalz","type":"Landkreis"},"federalState":{"key":"07","name":"Rheinland-Pfalz"}},{"name":"Schulstr.","postalCode":"66981","locality":"Münchweiler an der Rodalb","municipality":{"key":"07340032","name":"Münchweiler an der Rodalb","type":"Kreisangehörige_Gemeinde"},"district":{"key":"07340","name":"Südwestpfalz","type":"Landkreis"},"federalState":{"key":"07","name":"Rheinland-Pfalz"}},{"name":"Sonnenstr.","postalCode":"66981","locality":"Münchweiler an der Rodalb","municipality":{"key":"07340032","name":"Münchweiler an der Rodalb","type":"Kreisangehörige_Gemeinde"},"district":{"key":"07340","name":"Südwestpfalz","type":"Landkreis"},"federalState":{"key":"07","name":"Rheinland-Pfalz"}},{"name":"Tiroler Str.","postalCode":"66981","locality":"Münchweiler an der Rodalb","municipality":{"key":"07340032","name":"Münchweiler an der Rodalb","type":"Kreisangehörige_Gemeinde"},"district":{"key":"07340","name":"Südwestpfalz","type":"Landkreis"},"federalState":{"key":"07","name":"Rheinland-Pfalz"}},{"name":"Tunnelstr.","postalCode":"66981","locality":"Münchweiler an der Rodalb","municipality":{"key":"07340032","name":"Münchweiler an der Rodalb","type":"Kreisangehörige_Gemeinde"},"district":{"key":"07340","name":"Südwestpfalz","type":"Landkreis"},"federalState":{"key":"07","name":"Rheinland-Pfalz"}},{"name":"Uhlandstr.","postalCode":"66981","locality":"Münchweiler an der Rodalb","municipality":{"key":"07340032","name":"Münchweiler an der Rodalb","type":"Kreisangehörige_Gemeinde"},"district":{"key":"07340","name":"Südwestpfalz","type":"Landkreis"},"federalState":{"key":"07","name":"Rheinland-Pfalz"}},{"name":"Waldstr.","postalCode":"66981","locality":"Münchweiler an der Rodalb","municipality":{"key":"07340032","name":"Münchweiler an der Rodalb","type":"Kreisangehörige_Gemeinde"},"district":{"key":"07340","name":"Südwestpfalz","type":"Landkreis"},"federalState":{"key":"07","name":"Rheinland-Pfalz"}},]