[{"name":"Albertshauser Str.","postalCode":"97234","locality":"Reichenberg","municipality":{"key":"09679176","name":"Reichenberg, M","type":"Markt"},"district":{"key":"09679","name":"Würzburg","type":"Landkreis"},"federalState":{"key":"09","name":"Bayern"}},{"name":"Alte Schulstr.","postalCode":"97234","locality":"Reichenberg","municipality":{"key":"09679176","name":"Reichenberg, M","type":"Markt"},"district":{"key":"09679","name":"Würzburg","type":"Landkreis"},"federalState":{"key":"09","name":"Bayern"}},{"name":"Alte Str.","postalCode":"37249","locality":"Neu-Eichenberg","municipality":{"key":"06636009","name":"Neu-Eichenberg","type":"Kreisangehörige_Gemeinde"},"district":{"key":"06636","name":"Werra-Meißner-Kreis","type":"Landkreis"},"federalState":{"key":"06","name":"Hessen"}},{"name":"Am Bach","postalCode":"37249","locality":"Neu-Eichenberg","municipality":{"key":"06636009","name":"Neu-Eichenberg","type":"Kreisangehörige_Gemeinde"},"district":{"key":"06636","name":"Werra-Meißner-Kreis","type":"Landkreis"},"federalState":{"key":"06","name":"Hessen"}},{"name":"Am Birkenhain","postalCode":"37249","locality":"Neu-Eichenberg","municipality":{"key":"06636009","name":"Neu-Eichenberg","type":"Kreisangehörige_Gemeinde"},"district":{"key":"06636","name":"Werra-Meißner-Kreis","type":"Landkreis"},"federalState":{"key":"06","name":"Hessen"}},{"name":"Am Feldberg","postalCode":"37249","locality":"Neu-Eichenberg","municipality":{"key":"06636009","name":"Neu-Eichenberg","type":"Kreisangehörige_Gemeinde"},"district":{"key":"06636","name":"Werra-Meißner-Kreis","type":"Landkreis"},"federalState":{"key":"06","name":"Hessen"}},{"name":"Am Feller","postalCode":"97234","locality":"Reichenberg","municipality":{"key":"09679176","name":"Reichenberg, M","type":"Markt"},"district":{"key":"09679","name":"Würzburg","type":"Landkreis"},"federalState":{"key":"09","name":"Bayern"}},{"name":"Am Haag","postalCode":"97234","locality":"Reichenberg","municipality":{"key":"09679176","name":"Reichenberg, M","type":"Markt"},"district":{"key":"09679","name":"Würzburg","type":"Landkreis"},"federalState":{"key":"09","name":"Bayern"}},{"name":"Am Höchberg","postalCode":"97234","locality":"Reichenberg","municipality":{"key":"09679176","name":"Reichenberg, M","type":"Markt"},"district":{"key":"09679","name":"Würzburg","type":"Landkreis"},"federalState":{"key":"09","name":"Bayern"}},{"name":"Am Kirchberg","postalCode":"97234","locality":"Reichenberg","municipality":{"key":"09679176","name":"Reichenberg, M","type":"Markt"},"district":{"key":"09679","name":"Würzburg","type":"Landkreis"},"federalState":{"key":"09","name":"Bayern"}},{"name":"Am Kirchlein","postalCode":"97234","locality":"Reichenberg","municipality":{"key":"09679176","name":"Reichenberg, M","type":"Markt"},"district":{"key":"09679","name":"Würzburg","type":"Landkreis"},"federalState":{"key":"09","name":"Bayern"}},{"name":"Am Lerchenberg","postalCode":"97234","locality":"Reichenberg","municipality":{"key":"09679176","name":"Reichenberg, M","type":"Markt"},"district":{"key":"09679","name":"Würzburg","type":"Landkreis"},"federalState":{"key":"09","name":"Bayern"}},{"name":"Am Maßbach","postalCode":"97234","locality":"Reichenberg","municipality":{"key":"09679176","name":"Reichenberg, M","type":"Markt"},"district":{"key":"09679","name":"Würzburg","type":"Landkreis"},"federalState":{"key":"09","name":"Bayern"}},{"name":"Am Platz","postalCode":"37249","locality":"Neu-Eichenberg","municipality":{"key":"06636009","name":"Neu-Eichenberg","type":"Kreisangehörige_Gemeinde"},"district":{"key":"06636","name":"Werra-Meißner-Kreis","type":"Landkreis"},"federalState":{"key":"06","name":"Hessen"}},{"name":"Am Sand","postalCode":"97234","locality":"Reichenberg","municipality":{"key":"09679176","name":"Reichenberg, M","type":"Markt"},"district":{"key":"09679","name":"Würzburg","type":"Landkreis"},"federalState":{"key":"09","name":"Bayern"}},{"name":"Am Seegraben","postalCode":"97234","locality":"Reichenberg","municipality":{"key":"09679176","name":"Reichenberg, M","type":"Markt"},"district":{"key":"09679","name":"Würzburg","type":"Landkreis"},"federalState":{"key":"09","name":"Bayern"}},{"name":"Am Spielberg","postalCode":"97234","locality":"Reichenberg","municipality":{"key":"09679176","name":"Reichenberg, M","type":"Markt"},"district":{"key":"09679","name":"Würzburg","type":"Landkreis"},"federalState":{"key":"09","name":"Bayern"}},{"name":"Am Sportplatz","postalCode":"37249","locality":"Neu-Eichenberg","municipality":{"key":"06636009","name":"Neu-Eichenberg","type":"Kreisangehörige_Gemeinde"},"district":{"key":"06636","name":"Werra-Meißner-Kreis","type":"Landkreis"},"federalState":{"key":"06","name":"Hessen"}},{"name":"Am Steinbruch","postalCode":"97234","locality":"Reichenberg","municipality":{"key":"09679176","name":"Reichenberg, M","type":"Markt"},"district":{"key":"09679","name":"Würzburg","type":"Landkreis"},"federalState":{"key":"09","name":"Bayern"}},{"name":"Am Trieb","postalCode":"97234","locality":"Reichenberg","municipality":{"key":"09679176","name":"Reichenberg, M","type":"Markt"},"district":{"key":"09679","name":"Würzburg","type":"Landkreis"},"federalState":{"key":"09","name":"Bayern"}},{"name":"Amtsfeld","postalCode":"56357","locality":"Reichenberg","municipality":{"key":"07141114","name":"Reichenberg","type":"Kreisangehörige_Gemeinde"},"district":{"key":"07141","name":"Rhein-Lahn-Kreis","type":"Landkreis"},"federalState":{"key":"07","name":"Rheinland-Pfalz"}},{"name":"Am Türleinspfad","postalCode":"97234","locality":"Reichenberg","municipality":{"key":"09679176","name":"Reichenberg, M","type":"Markt"},"district":{"key":"09679","name":"Würzburg","type":"Landkreis"},"federalState":{"key":"09","name":"Bayern"}},{"name":"Am Vogelhof","postalCode":"37249","locality":"Neu-Eichenberg","municipality":{"key":"06636009","name":"Neu-Eichenberg","type":"Kreisangehörige_Gemeinde"},"district":{"key":"06636","name":"Werra-Meißner-Kreis","type":"Landkreis"},"federalState":{"key":"06","name":"Hessen"}},{"name":"Am Wasserturm","postalCode":"37249","locality":"Neu-Eichenberg","municipality":{"key":"06636009","name":"Neu-Eichenberg","type":"Kreisangehörige_Gemeinde"},"district":{"key":"06636","name":"Werra-Meißner-Kreis","type":"Landkreis"},"federalState":{"key":"06","name":"Hessen"}},{"name":"Am Wengert","postalCode":"97234","locality":"Reichenberg","municipality":{"key":"09679176","name":"Reichenberg, M","type":"Markt"},"district":{"key":"09679","name":"Würzburg","type":"Landkreis"},"federalState":{"key":"09","name":"Bayern"}},{"name":"An der Bundesbahn","postalCode":"97234","locality":"Reichenberg","municipality":{"key":"09679176","name":"Reichenberg, M","type":"Markt"},"district":{"key":"09679","name":"Würzburg","type":"Landkreis"},"federalState":{"key":"09","name":"Bayern"}},{"name":"An der Kirche","postalCode":"37249","locality":"Neu-Eichenberg","municipality":{"key":"06636009","name":"Neu-Eichenberg","type":"Kreisangehörige_Gemeinde"},"district":{"key":"06636","name":"Werra-Meißner-Kreis","type":"Landkreis"},"federalState":{"key":"06","name":"Hessen"}},{"name":"Atomgasse","postalCode":"97234","locality":"Reichenberg","municipality":{"key":"09679176","name":"Reichenberg, M","type":"Markt"},"district":{"key":"09679","name":"Würzburg","type":"Landkreis"},"federalState":{"key":"09","name":"Bayern"}},{"name":"Auf dem Berg","postalCode":"56357","locality":"Reichenberg","municipality":{"key":"07141114","name":"Reichenberg","type":"Kreisangehörige_Gemeinde"},"district":{"key":"07141","name":"Rhein-Lahn-Kreis","type":"Landkreis"},"federalState":{"key":"07","name":"Rheinland-Pfalz"}},{"name":"Auf der Eiche","postalCode":"37249","locality":"Neu-Eichenberg","municipality":{"key":"06636009","name":"Neu-Eichenberg","type":"Kreisangehörige_Gemeinde"},"district":{"key":"06636","name":"Werra-Meißner-Kreis","type":"Landkreis"},"federalState":{"key":"06","name":"Hessen"}},{"name":"Bachgasse","postalCode":"97234","locality":"Reichenberg","municipality":{"key":"09679176","name":"Reichenberg, M","type":"Markt"},"district":{"key":"09679","name":"Würzburg","type":"Landkreis"},"federalState":{"key":"09","name":"Bayern"}},{"name":"Bachstr.","postalCode":"37249","locality":"Neu-Eichenberg","municipality":{"key":"06636009","name":"Neu-Eichenberg","type":"Kreisangehörige_Gemeinde"},"district":{"key":"06636","name":"Werra-Meißner-Kreis","type":"Landkreis"},"federalState":{"key":"06","name":"Hessen"}},{"name":"Bäckergasse","postalCode":"37249","locality":"Neu-Eichenberg","municipality":{"key":"06636009","name":"Neu-Eichenberg","type":"Kreisangehörige_Gemeinde"},"district":{"key":"06636","name":"Werra-Meißner-Kreis","type":"Landkreis"},"federalState":{"key":"06","name":"Hessen"}},{"name":"Bäckergasse","postalCode":"97234","locality":"Reichenberg","municipality":{"key":"09679176","name":"Reichenberg, M","type":"Markt"},"district":{"key":"09679","name":"Würzburg","type":"Landkreis"},"federalState":{"key":"09","name":"Bayern"}},{"name":"Badstr.","postalCode":"97234","locality":"Reichenberg","municipality":{"key":"09679176","name":"Reichenberg, M","type":"Markt"},"district":{"key":"09679","name":"Würzburg","type":"Landkreis"},"federalState":{"key":"09","name":"Bayern"}},{"name":"Bahnhofstr.","postalCode":"37249","locality":"Neu-Eichenberg","municipality":{"key":"06636009","name":"Neu-Eichenberg","type":"Kreisangehörige_Gemeinde"},"district":{"key":"06636","name":"Werra-Meißner-Kreis","type":"Landkreis"},"federalState":{"key":"06","name":"Hessen"}},{"name":"Bahnhofstr.","postalCode":"97234","locality":"Reichenberg","municipality":{"key":"09679176","name":"Reichenberg, M","type":"Markt"},"district":{"key":"09679","name":"Würzburg","type":"Landkreis"},"federalState":{"key":"09","name":"Bayern"}},{"name":"Bahnhofsweg","postalCode":"37249","locality":"Neu-Eichenberg","municipality":{"key":"06636009","name":"Neu-Eichenberg","type":"Kreisangehörige_Gemeinde"},"district":{"key":"06636","name":"Werra-Meißner-Kreis","type":"Landkreis"},"federalState":{"key":"06","name":"Hessen"}},{"name":"Bergstr.","postalCode":"37249","locality":"Neu-Eichenberg","municipality":{"key":"06636009","name":"Neu-Eichenberg","type":"Kreisangehörige_Gemeinde"},"district":{"key":"06636","name":"Werra-Meißner-Kreis","type":"Landkreis"},"federalState":{"key":"06","name":"Hessen"}},{"name":"Bergstr.","postalCode":"97234","locality":"Reichenberg","municipality":{"key":"09679176","name":"Reichenberg, M","type":"Markt"},"district":{"key":"09679","name":"Würzburg","type":"Landkreis"},"federalState":{"key":"09","name":"Bayern"}},{"name":"Berlepscher Str.","postalCode":"37249","locality":"Neu-Eichenberg","municipality":{"key":"06636009","name":"Neu-Eichenberg","type":"Kreisangehörige_Gemeinde"},"district":{"key":"06636","name":"Werra-Meißner-Kreis","type":"Landkreis"},"federalState":{"key":"06","name":"Hessen"}},{"name":"Birkenweg","postalCode":"37249","locality":"Neu-Eichenberg","municipality":{"key":"06636009","name":"Neu-Eichenberg","type":"Kreisangehörige_Gemeinde"},"district":{"key":"06636","name":"Werra-Meißner-Kreis","type":"Landkreis"},"federalState":{"key":"06","name":"Hessen"}},{"name":"Birkenweg","postalCode":"97234","locality":"Reichenberg","municipality":{"key":"09679176","name":"Reichenberg, M","type":"Markt"},"district":{"key":"09679","name":"Würzburg","type":"Landkreis"},"federalState":{"key":"09","name":"Bayern"}},{"name":"Bogengasse","postalCode":"37249","locality":"Neu-Eichenberg","municipality":{"key":"06636009","name":"Neu-Eichenberg","type":"Kreisangehörige_Gemeinde"},"district":{"key":"06636","name":"Werra-Meißner-Kreis","type":"Landkreis"},"federalState":{"key":"06","name":"Hessen"}},{"name":"Bracke","postalCode":"97234","locality":"Reichenberg","municipality":{"key":"09679176","name":"Reichenberg, M","type":"Markt"},"district":{"key":"09679","name":"Würzburg","type":"Landkreis"},"federalState":{"key":"09","name":"Bayern"}},{"name":"Brauereistr.","postalCode":"97234","locality":"Reichenberg","municipality":{"key":"09679176","name":"Reichenberg, M","type":"Markt"},"district":{"key":"09679","name":"Würzburg","type":"Landkreis"},"federalState":{"key":"09","name":"Bayern"}},{"name":"Brunnenstube","postalCode":"97234","locality":"Reichenberg","municipality":{"key":"09679176","name":"Reichenberg, M","type":"Markt"},"district":{"key":"09679","name":"Würzburg","type":"Landkreis"},"federalState":{"key":"09","name":"Bayern"}},{"name":"Burgweg","postalCode":"56357","locality":"Reichenberg","municipality":{"key":"07141114","name":"Reichenberg","type":"Kreisangehörige_Gemeinde"},"district":{"key":"07141","name":"Rhein-Lahn-Kreis","type":"Landkreis"},"federalState":{"key":"07","name":"Rheinland-Pfalz"}},{"name":"Clara-Zetkin-Str.","postalCode":"98646","locality":"Hildburghausen","municipality":{"key":"16069024","name":"Hildburghausen, Stadt","type":"Stadt"},"district":{"key":"16069","name":"Hildburghausen","type":"Landkreis"},"federalState":{"key":"16","name":"Thüringen"}},{"name":"Coburger Str.","postalCode":"98646","locality":"Hildburghausen","municipality":{"key":"16069024","name":"Hildburghausen, Stadt","type":"Stadt"},"district":{"key":"16069","name":"Hildburghausen","type":"Landkreis"},"federalState":{"key":"16","name":"Thüringen"}},{"name":"Domäne","postalCode":"37249","locality":"Neu-Eichenberg","municipality":{"key":"06636009","name":"Neu-Eichenberg","type":"Kreisangehörige_Gemeinde"},"district":{"key":"06636","name":"Werra-Meißner-Kreis","type":"Landkreis"},"federalState":{"key":"06","name":"Hessen"}},{"name":"Dorfstr.","postalCode":"07768","locality":"Eichenberg","municipality":{"key":"16074016","name":"Eichenberg","type":"Kreisangehörige_Gemeinde"},"district":{"key":"16074","name":"Saale-Holzland-Kreis","type":"Landkreis"},"federalState":{"key":"16","name":"Thüringen"}},{"name":"Dorfstr.","postalCode":"97234","locality":"Reichenberg","municipality":{"key":"09679176","name":"Reichenberg, M","type":"Markt"},"district":{"key":"09679","name":"Würzburg","type":"Landkreis"},"federalState":{"key":"09","name":"Bayern"}},{"name":"Dorfstr.","postalCode":"98553","locality":"Eichenberg","municipality":{"key":"16069011","name":"Eichenberg","type":"Kreisangehörige_Gemeinde"},"district":{"key":"16069","name":"Hildburghausen","type":"Landkreis"},"federalState":{"key":"16","name":"Thüringen"}},{"name":"Dr.-Dahl-Str.","postalCode":"97234","locality":"Reichenberg","municipality":{"key":"09679176","name":"Reichenberg, M","type":"Markt"},"district":{"key":"09679","name":"Würzburg","type":"Landkreis"},"federalState":{"key":"09","name":"Bayern"}},{"name":"Eibelstadter Weg","postalCode":"97234","locality":"Reichenberg","municipality":{"key":"09679176","name":"Reichenberg, M","type":"Markt"},"district":{"key":"09679","name":"Würzburg","type":"Landkreis"},"federalState":{"key":"09","name":"Bayern"}},{"name":"Eichsfelder Str.","postalCode":"37249","locality":"Neu-Eichenberg","municipality":{"key":"06636009","name":"Neu-Eichenberg","type":"Kreisangehörige_Gemeinde"},"district":{"key":"06636","name":"Werra-Meißner-Kreis","type":"Landkreis"},"federalState":{"key":"06","name":"Hessen"}},{"name":"Elkershäuser Str.","postalCode":"37249","locality":"Neu-Eichenberg","municipality":{"key":"06636009","name":"Neu-Eichenberg","type":"Kreisangehörige_Gemeinde"},"district":{"key":"06636","name":"Werra-Meißner-Kreis","type":"Landkreis"},"federalState":{"key":"06","name":"Hessen"}},{"name":"Enge Gasse","postalCode":"37249","locality":"Neu-Eichenberg","municipality":{"key":"06636009","name":"Neu-Eichenberg","type":"Kreisangehörige_Gemeinde"},"district":{"key":"06636","name":"Werra-Meißner-Kreis","type":"Landkreis"},"federalState":{"key":"06","name":"Hessen"}},{"name":"Erlengrund","postalCode":"97234","locality":"Reichenberg","municipality":{"key":"09679176","name":"Reichenberg, M","type":"Markt"},"district":{"key":"09679","name":"Würzburg","type":"Landkreis"},"federalState":{"key":"09","name":"Bayern"}},{"name":"Feldbergring","postalCode":"37249","locality":"Neu-Eichenberg","municipality":{"key":"06636009","name":"Neu-Eichenberg","type":"Kreisangehörige_Gemeinde"},"district":{"key":"06636","name":"Werra-Meißner-Kreis","type":"Landkreis"},"federalState":{"key":"06","name":"Hessen"}},{"name":"Feldbergweg","postalCode":"37249","locality":"Neu-Eichenberg","municipality":{"key":"06636009","name":"Neu-Eichenberg","type":"Kreisangehörige_Gemeinde"},"district":{"key":"06636","name":"Werra-Meißner-Kreis","type":"Landkreis"},"federalState":{"key":"06","name":"Hessen"}},{"name":"Fischfang","postalCode":"97234","locality":"Reichenberg","municipality":{"key":"09679176","name":"Reichenberg, M","type":"Markt"},"district":{"key":"09679","name":"Würzburg","type":"Landkreis"},"federalState":{"key":"09","name":"Bayern"}},{"name":"Fliederweg","postalCode":"37249","locality":"Neu-Eichenberg","municipality":{"key":"06636009","name":"Neu-Eichenberg","type":"Kreisangehörige_Gemeinde"},"district":{"key":"06636","name":"Werra-Meißner-Kreis","type":"Landkreis"},"federalState":{"key":"06","name":"Hessen"}},{"name":"Forstweg","postalCode":"37249","locality":"Neu-Eichenberg","municipality":{"key":"06636009","name":"Neu-Eichenberg","type":"Kreisangehörige_Gemeinde"},"district":{"key":"06636","name":"Werra-Meißner-Kreis","type":"Landkreis"},"federalState":{"key":"06","name":"Hessen"}},{"name":"Friedhofstr.","postalCode":"97234","locality":"Reichenberg","municipality":{"key":"09679176","name":"Reichenberg, M","type":"Markt"},"district":{"key":"09679","name":"Würzburg","type":"Landkreis"},"federalState":{"key":"09","name":"Bayern"}},{"name":"Friedhofsweg","postalCode":"37249","locality":"Neu-Eichenberg","municipality":{"key":"06636009","name":"Neu-Eichenberg","type":"Kreisangehörige_Gemeinde"},"district":{"key":"06636","name":"Werra-Meißner-Kreis","type":"Landkreis"},"federalState":{"key":"06","name":"Hessen"}},{"name":"Friedländer Str.","postalCode":"37249","locality":"Neu-Eichenberg","municipality":{"key":"06636009","name":"Neu-Eichenberg","type":"Kreisangehörige_Gemeinde"},"district":{"key":"06636","name":"Werra-Meißner-Kreis","type":"Landkreis"},"federalState":{"key":"06","name":"Hessen"}},{"name":"Fuchsstadter Hardte","postalCode":"97234","locality":"Reichenberg","municipality":{"key":"09679176","name":"Reichenberg, M","type":"Markt"},"district":{"key":"09679","name":"Würzburg","type":"Landkreis"},"federalState":{"key":"09","name":"Bayern"}},{"name":"Fuchsstadter Str.","postalCode":"97234","locality":"Reichenberg","municipality":{"key":"09679176","name":"Reichenberg, M","type":"Markt"},"district":{"key":"09679","name":"Würzburg","type":"Landkreis"},"federalState":{"key":"09","name":"Bayern"}},{"name":"Gartenstr.","postalCode":"97234","locality":"Reichenberg","municipality":{"key":"09679176","name":"Reichenberg, M","type":"Markt"},"district":{"key":"09679","name":"Würzburg","type":"Landkreis"},"federalState":{"key":"09","name":"Bayern"}},{"name":"Geroldshauser Str.","postalCode":"97234","locality":"Reichenberg","municipality":{"key":"09679176","name":"Reichenberg, M","type":"Markt"},"district":{"key":"09679","name":"Würzburg","type":"Landkreis"},"federalState":{"key":"09","name":"Bayern"}},{"name":"Geyerschloss","postalCode":"97234","locality":"Reichenberg","municipality":{"key":"09679176","name":"Reichenberg, M","type":"Markt"},"district":{"key":"09679","name":"Würzburg","type":"Landkreis"},"federalState":{"key":"09","name":"Bayern"}},{"name":"Giebelstadter Weg","postalCode":"97234","locality":"Reichenberg","municipality":{"key":"09679176","name":"Reichenberg, M","type":"Markt"},"district":{"key":"09679","name":"Würzburg","type":"Landkreis"},"federalState":{"key":"09","name":"Bayern"}},{"name":"Grüner Weg","postalCode":"37249","locality":"Neu-Eichenberg","municipality":{"key":"06636009","name":"Neu-Eichenberg","type":"Kreisangehörige_Gemeinde"},"district":{"key":"06636","name":"Werra-Meißner-Kreis","type":"Landkreis"},"federalState":{"key":"06","name":"Hessen"}},{"name":"Guttenberger Grund","postalCode":"97234","locality":"Reichenberg","municipality":{"key":"09679176","name":"Reichenberg, M","type":"Markt"},"district":{"key":"09679","name":"Würzburg","type":"Landkreis"},"federalState":{"key":"09","name":"Bayern"}},{"name":"Guttenberger Str.","postalCode":"97234","locality":"Reichenberg","municipality":{"key":"09679176","name":"Reichenberg, M","type":"Markt"},"district":{"key":"09679","name":"Würzburg","type":"Landkreis"},"federalState":{"key":"09","name":"Bayern"}},{"name":"Hagenweg","postalCode":"37249","locality":"Neu-Eichenberg","municipality":{"key":"06636009","name":"Neu-Eichenberg","type":"Kreisangehörige_Gemeinde"},"district":{"key":"06636","name":"Werra-Meißner-Kreis","type":"Landkreis"},"federalState":{"key":"06","name":"Hessen"}},{"name":"Hasensprung","postalCode":"37249","locality":"Neu-Eichenberg","municipality":{"key":"06636009","name":"Neu-Eichenberg","type":"Kreisangehörige_Gemeinde"},"district":{"key":"06636","name":"Werra-Meißner-Kreis","type":"Landkreis"},"federalState":{"key":"06","name":"Hessen"}},{"name":"Hattenhauser Str.","postalCode":"97234","locality":"Reichenberg","municipality":{"key":"09679176","name":"Reichenberg, M","type":"Markt"},"district":{"key":"09679","name":"Würzburg","type":"Landkreis"},"federalState":{"key":"09","name":"Bayern"}},{"name":"Hauptstr.","postalCode":"97234","locality":"Reichenberg","municipality":{"key":"09679176","name":"Reichenberg, M","type":"Markt"},"district":{"key":"09679","name":"Würzburg","type":"Landkreis"},"federalState":{"key":"09","name":"Bayern"}},{"name":"Heideweg","postalCode":"37249","locality":"Neu-Eichenberg","municipality":{"key":"06636009","name":"Neu-Eichenberg","type":"Kreisangehörige_Gemeinde"},"district":{"key":"06636","name":"Werra-Meißner-Kreis","type":"Landkreis"},"federalState":{"key":"06","name":"Hessen"}},{"name":"Heidingsfelder Str.","postalCode":"97234","locality":"Reichenberg","municipality":{"key":"09679176","name":"Reichenberg, M","type":"Markt"},"district":{"key":"09679","name":"Würzburg","type":"Landkreis"},"federalState":{"key":"09","name":"Bayern"}},{"name":"Hermannröder Str.","postalCode":"37249","locality":"Neu-Eichenberg","municipality":{"key":"06636009","name":"Neu-Eichenberg","type":"Kreisangehörige_Gemeinde"},"district":{"key":"06636","name":"Werra-Meißner-Kreis","type":"Landkreis"},"federalState":{"key":"06","name":"Hessen"}},{"name":"Herrngasse","postalCode":"97234","locality":"Reichenberg","municipality":{"key":"09679176","name":"Reichenberg, M","type":"Markt"},"district":{"key":"09679","name":"Würzburg","type":"Landkreis"},"federalState":{"key":"09","name":"Bayern"}},{"name":"Hessenstr. (Römerstr.)","postalCode":"56357","locality":"Reichenberg","municipality":{"key":"07141114","name":"Reichenberg","type":"Kreisangehörige_Gemeinde"},"district":{"key":"07141","name":"Rhein-Lahn-Kreis","type":"Landkreis"},"federalState":{"key":"07","name":"Rheinland-Pfalz"}},{"name":"Hohe Str.","postalCode":"07768","locality":"Eichenberg","municipality":{"key":"16074016","name":"Eichenberg","type":"Kreisangehörige_Gemeinde"},"district":{"key":"16074","name":"Saale-Holzland-Kreis","type":"Landkreis"},"federalState":{"key":"16","name":"Thüringen"}},{"name":"Hühnerberg","postalCode":"97234","locality":"Reichenberg","municipality":{"key":"09679176","name":"Reichenberg, M","type":"Markt"},"district":{"key":"09679","name":"Würzburg","type":"Landkreis"},"federalState":{"key":"09","name":"Bayern"}},{"name":"Im Kleinen Feld","postalCode":"37249","locality":"Neu-Eichenberg","municipality":{"key":"06636009","name":"Neu-Eichenberg","type":"Kreisangehörige_Gemeinde"},"district":{"key":"06636","name":"Werra-Meißner-Kreis","type":"Landkreis"},"federalState":{"key":"06","name":"Hessen"}},{"name":"Im Oberdorf","postalCode":"97234","locality":"Reichenberg","municipality":{"key":"09679176","name":"Reichenberg, M","type":"Markt"},"district":{"key":"09679","name":"Würzburg","type":"Landkreis"},"federalState":{"key":"09","name":"Bayern"}},{"name":"Im Postgarten","postalCode":"97234","locality":"Reichenberg","municipality":{"key":"09679176","name":"Reichenberg, M","type":"Markt"},"district":{"key":"09679","name":"Würzburg","type":"Landkreis"},"federalState":{"key":"09","name":"Bayern"}},{"name":"Im Winkel","postalCode":"37249","locality":"Neu-Eichenberg","municipality":{"key":"06636009","name":"Neu-Eichenberg","type":"Kreisangehörige_Gemeinde"},"district":{"key":"06636","name":"Werra-Meißner-Kreis","type":"Landkreis"},"federalState":{"key":"06","name":"Hessen"}},{"name":"Johann-Sebastian-Bach-Platz","postalCode":"98646","locality":"Hildburghausen","municipality":{"key":"16069024","name":"Hildburghausen, Stadt","type":"Stadt"},"district":{"key":"16069","name":"Hildburghausen","type":"Landkreis"},"federalState":{"key":"16","name":"Thüringen"}},{"name":"Johann-Sebastian-Bach-Str.","postalCode":"98646","locality":"Hildburghausen","municipality":{"key":"16069024","name":"Hildburghausen, Stadt","type":"Stadt"},"district":{"key":"16069","name":"Hildburghausen","type":"Landkreis"},"federalState":{"key":"16","name":"Thüringen"}},{"name":"Joseph-Meyer-Str.","postalCode":"98646","locality":"Hildburghausen","municipality":{"key":"16069024","name":"Hildburghausen, Stadt","type":"Stadt"},"district":{"key":"16069","name":"Hildburghausen","type":"Landkreis"},"federalState":{"key":"16","name":"Thüringen"}},{"name":"Kammweg","postalCode":"37249","locality":"Neu-Eichenberg","municipality":{"key":"06636009","name":"Neu-Eichenberg","type":"Kreisangehörige_Gemeinde"},"district":{"key":"06636","name":"Werra-Meißner-Kreis","type":"Landkreis"},"federalState":{"key":"06","name":"Hessen"}},{"name":"Karlsbrunnenstr.","postalCode":"37249","locality":"Neu-Eichenberg","municipality":{"key":"06636009","name":"Neu-Eichenberg","type":"Kreisangehörige_Gemeinde"},"district":{"key":"06636","name":"Werra-Meißner-Kreis","type":"Landkreis"},"federalState":{"key":"06","name":"Hessen"}},{"name":"Kirchenstr.","postalCode":"97234","locality":"Reichenberg","municipality":{"key":"09679176","name":"Reichenberg, M","type":"Markt"},"district":{"key":"09679","name":"Würzburg","type":"Landkreis"},"federalState":{"key":"09","name":"Bayern"}},{"name":"Kirchenweg","postalCode":"37249","locality":"Neu-Eichenberg","municipality":{"key":"06636009","name":"Neu-Eichenberg","type":"Kreisangehörige_Gemeinde"},"district":{"key":"06636","name":"Werra-Meißner-Kreis","type":"Landkreis"},"federalState":{"key":"06","name":"Hessen"}},{"name":"Kirchgasse","postalCode":"97234","locality":"Reichenberg","municipality":{"key":"09679176","name":"Reichenberg, M","type":"Markt"},"district":{"key":"09679","name":"Würzburg","type":"Landkreis"},"federalState":{"key":"09","name":"Bayern"}},{"name":"Kirchplatz","postalCode":"37249","locality":"Neu-Eichenberg","municipality":{"key":"06636009","name":"Neu-Eichenberg","type":"Kreisangehörige_Gemeinde"},"district":{"key":"06636","name":"Werra-Meißner-Kreis","type":"Landkreis"},"federalState":{"key":"06","name":"Hessen"}},{"name":"Kirchstr.","postalCode":"37249","locality":"Neu-Eichenberg","municipality":{"key":"06636009","name":"Neu-Eichenberg","type":"Kreisangehörige_Gemeinde"},"district":{"key":"06636","name":"Werra-Meißner-Kreis","type":"Landkreis"},"federalState":{"key":"06","name":"Hessen"}},{"name":"Kleine Trift","postalCode":"37249","locality":"Neu-Eichenberg","municipality":{"key":"06636009","name":"Neu-Eichenberg","type":"Kreisangehörige_Gemeinde"},"district":{"key":"06636","name":"Werra-Meißner-Kreis","type":"Landkreis"},"federalState":{"key":"06","name":"Hessen"}},{"name":"Kohlenstr.","postalCode":"37249","locality":"Neu-Eichenberg","municipality":{"key":"06636009","name":"Neu-Eichenberg","type":"Kreisangehörige_Gemeinde"},"district":{"key":"06636","name":"Werra-Meißner-Kreis","type":"Landkreis"},"federalState":{"key":"06","name":"Hessen"}},{"name":"Koppelweg","postalCode":"37249","locality":"Neu-Eichenberg","municipality":{"key":"06636009","name":"Neu-Eichenberg","type":"Kreisangehörige_Gemeinde"},"district":{"key":"06636","name":"Werra-Meißner-Kreis","type":"Landkreis"},"federalState":{"key":"06","name":"Hessen"}},{"name":"Kurze Str.","postalCode":"37249","locality":"Neu-Eichenberg","municipality":{"key":"06636009","name":"Neu-Eichenberg","type":"Kreisangehörige_Gemeinde"},"district":{"key":"06636","name":"Werra-Meißner-Kreis","type":"Landkreis"},"federalState":{"key":"06","name":"Hessen"}},{"name":"Ladestr.","postalCode":"37249","locality":"Neu-Eichenberg","municipality":{"key":"06636009","name":"Neu-Eichenberg","type":"Kreisangehörige_Gemeinde"},"district":{"key":"06636","name":"Werra-Meißner-Kreis","type":"Landkreis"},"federalState":{"key":"06","name":"Hessen"}},{"name":"Lange Str.","postalCode":"37249","locality":"Neu-Eichenberg","municipality":{"key":"06636009","name":"Neu-Eichenberg","type":"Kreisangehörige_Gemeinde"},"district":{"key":"06636","name":"Werra-Meißner-Kreis","type":"Landkreis"},"federalState":{"key":"06","name":"Hessen"}},{"name":"Lehmgrubenweg","postalCode":"97234","locality":"Reichenberg","municipality":{"key":"09679176","name":"Reichenberg, M","type":"Markt"},"district":{"key":"09679","name":"Würzburg","type":"Landkreis"},"federalState":{"key":"09","name":"Bayern"}},{"name":"Lerchentalstr.","postalCode":"97234","locality":"Reichenberg","municipality":{"key":"09679176","name":"Reichenberg, M","type":"Markt"},"district":{"key":"09679","name":"Würzburg","type":"Landkreis"},"federalState":{"key":"09","name":"Bayern"}},{"name":"Lindenstr.","postalCode":"97234","locality":"Reichenberg","municipality":{"key":"09679176","name":"Reichenberg, M","type":"Markt"},"district":{"key":"09679","name":"Würzburg","type":"Landkreis"},"federalState":{"key":"09","name":"Bayern"}},{"name":"Lindflurer Str.","postalCode":"97234","locality":"Reichenberg","municipality":{"key":"09679176","name":"Reichenberg, M","type":"Markt"},"district":{"key":"09679","name":"Würzburg","type":"Landkreis"},"federalState":{"key":"09","name":"Bayern"}},{"name":"Lindflurer Weg","postalCode":"97234","locality":"Reichenberg","municipality":{"key":"09679176","name":"Reichenberg, M","type":"Markt"},"district":{"key":"09679","name":"Würzburg","type":"Landkreis"},"federalState":{"key":"09","name":"Bayern"}},{"name":"Marktplatz","postalCode":"97234","locality":"Reichenberg","municipality":{"key":"09679176","name":"Reichenberg, M","type":"Markt"},"district":{"key":"09679","name":"Würzburg","type":"Landkreis"},"federalState":{"key":"09","name":"Bayern"}},{"name":"Meierbreite","postalCode":"37249","locality":"Neu-Eichenberg","municipality":{"key":"06636009","name":"Neu-Eichenberg","type":"Kreisangehörige_Gemeinde"},"district":{"key":"06636","name":"Werra-Meißner-Kreis","type":"Landkreis"},"federalState":{"key":"06","name":"Hessen"}},{"name":"Meierhöfe","postalCode":"37249","locality":"Neu-Eichenberg","municipality":{"key":"06636009","name":"Neu-Eichenberg","type":"Kreisangehörige_Gemeinde"},"district":{"key":"06636","name":"Werra-Meißner-Kreis","type":"Landkreis"},"federalState":{"key":"06","name":"Hessen"}},{"name":"Mittelweg","postalCode":"37249","locality":"Neu-Eichenberg","municipality":{"key":"06636009","name":"Neu-Eichenberg","type":"Kreisangehörige_Gemeinde"},"district":{"key":"06636","name":"Werra-Meißner-Kreis","type":"Landkreis"},"federalState":{"key":"06","name":"Hessen"}},{"name":"Mollenfelder Str.","postalCode":"37249","locality":"Neu-Eichenberg","municipality":{"key":"06636009","name":"Neu-Eichenberg","type":"Kreisangehörige_Gemeinde"},"district":{"key":"06636","name":"Werra-Meißner-Kreis","type":"Landkreis"},"federalState":{"key":"06","name":"Hessen"}},{"name":"Nelkenweg","postalCode":"37249","locality":"Neu-Eichenberg","municipality":{"key":"06636009","name":"Neu-Eichenberg","type":"Kreisangehörige_Gemeinde"},"district":{"key":"06636","name":"Werra-Meißner-Kreis","type":"Landkreis"},"federalState":{"key":"06","name":"Hessen"}},{"name":"Neuenröder Str.","postalCode":"37249","locality":"Neu-Eichenberg","municipality":{"key":"06636009","name":"Neu-Eichenberg","type":"Kreisangehörige_Gemeinde"},"district":{"key":"06636","name":"Werra-Meißner-Kreis","type":"Landkreis"},"federalState":{"key":"06","name":"Hessen"}},{"name":"Oberdorf","postalCode":"97234","locality":"Reichenberg","municipality":{"key":"09679176","name":"Reichenberg, M","type":"Markt"},"district":{"key":"09679","name":"Würzburg","type":"Landkreis"},"federalState":{"key":"09","name":"Bayern"}},{"name":"Oberer Geisberg","postalCode":"97234","locality":"Reichenberg","municipality":{"key":"09679176","name":"Reichenberg, M","type":"Markt"},"district":{"key":"09679","name":"Würzburg","type":"Landkreis"},"federalState":{"key":"09","name":"Bayern"}},{"name":"Oberer Weinberg","postalCode":"97234","locality":"Reichenberg","municipality":{"key":"09679176","name":"Reichenberg, M","type":"Markt"},"district":{"key":"09679","name":"Würzburg","type":"Landkreis"},"federalState":{"key":"09","name":"Bayern"}},{"name":"Obertal","postalCode":"56357","locality":"Reichenberg","municipality":{"key":"07141114","name":"Reichenberg","type":"Kreisangehörige_Gemeinde"},"district":{"key":"07141","name":"Rhein-Lahn-Kreis","type":"Landkreis"},"federalState":{"key":"07","name":"Rheinland-Pfalz"}},{"name":"Parkweg","postalCode":"37249","locality":"Neu-Eichenberg","municipality":{"key":"06636009","name":"Neu-Eichenberg","type":"Kreisangehörige_Gemeinde"},"district":{"key":"06636","name":"Werra-Meißner-Kreis","type":"Landkreis"},"federalState":{"key":"06","name":"Hessen"}},{"name":"Raiffeisenstr.","postalCode":"37249","locality":"Neu-Eichenberg","municipality":{"key":"06636009","name":"Neu-Eichenberg","type":"Kreisangehörige_Gemeinde"},"district":{"key":"06636","name":"Werra-Meißner-Kreis","type":"Landkreis"},"federalState":{"key":"06","name":"Hessen"}},{"name":"Reichenberger Str.","postalCode":"97234","locality":"Reichenberg","municipality":{"key":"09679176","name":"Reichenberg, M","type":"Markt"},"district":{"key":"09679","name":"Würzburg","type":"Landkreis"},"federalState":{"key":"09","name":"Bayern"}},{"name":"Reutersgasse","postalCode":"97234","locality":"Reichenberg","municipality":{"key":"09679176","name":"Reichenberg, M","type":"Markt"},"district":{"key":"09679","name":"Würzburg","type":"Landkreis"},"federalState":{"key":"09","name":"Bayern"}},{"name":"Ringstr.","postalCode":"37249","locality":"Neu-Eichenberg","municipality":{"key":"06636009","name":"Neu-Eichenberg","type":"Kreisangehörige_Gemeinde"},"district":{"key":"06636","name":"Werra-Meißner-Kreis","type":"Landkreis"},"federalState":{"key":"06","name":"Hessen"}},{"name":"Ringstr.","postalCode":"97234","locality":"Reichenberg","municipality":{"key":"09679176","name":"Reichenberg, M","type":"Markt"},"district":{"key":"09679","name":"Würzburg","type":"Landkreis"},"federalState":{"key":"09","name":"Bayern"}},{"name":"Rischenweg","postalCode":"37249","locality":"Neu-Eichenberg","municipality":{"key":"06636009","name":"Neu-Eichenberg","type":"Kreisangehörige_Gemeinde"},"district":{"key":"06636","name":"Werra-Meißner-Kreis","type":"Landkreis"},"federalState":{"key":"06","name":"Hessen"}},{"name":"Rosengasse","postalCode":"97234","locality":"Reichenberg","municipality":{"key":"09679176","name":"Reichenberg, M","type":"Markt"},"district":{"key":"09679","name":"Würzburg","type":"Landkreis"},"federalState":{"key":"09","name":"Bayern"}},{"name":"Rosenwinkel","postalCode":"37249","locality":"Neu-Eichenberg","municipality":{"key":"06636009","name":"Neu-Eichenberg","type":"Kreisangehörige_Gemeinde"},"district":{"key":"06636","name":"Werra-Meißner-Kreis","type":"Landkreis"},"federalState":{"key":"06","name":"Hessen"}},{"name":"Rottenbaurer Weg","postalCode":"97234","locality":"Reichenberg","municipality":{"key":"09679176","name":"Reichenberg, M","type":"Markt"},"district":{"key":"09679","name":"Würzburg","type":"Landkreis"},"federalState":{"key":"09","name":"Bayern"}},{"name":"Sandweg","postalCode":"37249","locality":"Neu-Eichenberg","municipality":{"key":"06636009","name":"Neu-Eichenberg","type":"Kreisangehörige_Gemeinde"},"district":{"key":"06636","name":"Werra-Meißner-Kreis","type":"Landkreis"},"federalState":{"key":"06","name":"Hessen"}},{"name":"Schafhofweg","postalCode":"97234","locality":"Reichenberg","municipality":{"key":"09679176","name":"Reichenberg, M","type":"Markt"},"district":{"key":"09679","name":"Würzburg","type":"Landkreis"},"federalState":{"key":"09","name":"Bayern"}},{"name":"Schellenberg","postalCode":"97234","locality":"Reichenberg","municipality":{"key":"09679176","name":"Reichenberg, M","type":"Markt"},"district":{"key":"09679","name":"Würzburg","type":"Landkreis"},"federalState":{"key":"09","name":"Bayern"}},{"name":"Schleifweg","postalCode":"97234","locality":"Reichenberg","municipality":{"key":"09679176","name":"Reichenberg, M","type":"Markt"},"district":{"key":"09679","name":"Würzburg","type":"Landkreis"},"federalState":{"key":"09","name":"Bayern"}},{"name":"Schmiedegasse","postalCode":"37249","locality":"Neu-Eichenberg","municipality":{"key":"06636009","name":"Neu-Eichenberg","type":"Kreisangehörige_Gemeinde"},"district":{"key":"06636","name":"Werra-Meißner-Kreis","type":"Landkreis"},"federalState":{"key":"06","name":"Hessen"}},{"name":"Schulstr.","postalCode":"37249","locality":"Neu-Eichenberg","municipality":{"key":"06636009","name":"Neu-Eichenberg","type":"Kreisangehörige_Gemeinde"},"district":{"key":"06636","name":"Werra-Meißner-Kreis","type":"Landkreis"},"federalState":{"key":"06","name":"Hessen"}},{"name":"Schulweg","postalCode":"37249","locality":"Neu-Eichenberg","municipality":{"key":"06636009","name":"Neu-Eichenberg","type":"Kreisangehörige_Gemeinde"},"district":{"key":"06636","name":"Werra-Meißner-Kreis","type":"Landkreis"},"federalState":{"key":"06","name":"Hessen"}},{"name":"Schulweg","postalCode":"97234","locality":"Reichenberg","municipality":{"key":"09679176","name":"Reichenberg, M","type":"Markt"},"district":{"key":"09679","name":"Würzburg","type":"Landkreis"},"federalState":{"key":"09","name":"Bayern"}},{"name":"Schustergasse","postalCode":"97234","locality":"Reichenberg","municipality":{"key":"09679176","name":"Reichenberg, M","type":"Markt"},"district":{"key":"09679","name":"Würzburg","type":"Landkreis"},"federalState":{"key":"09","name":"Bayern"}},{"name":"Seegartenweg","postalCode":"97234","locality":"Reichenberg","municipality":{"key":"09679176","name":"Reichenberg, M","type":"Markt"},"district":{"key":"09679","name":"Würzburg","type":"Landkreis"},"federalState":{"key":"09","name":"Bayern"}},{"name":"Seeweg","postalCode":"97234","locality":"Reichenberg","municipality":{"key":"09679176","name":"Reichenberg, M","type":"Markt"},"district":{"key":"09679","name":"Würzburg","type":"Landkreis"},"federalState":{"key":"09","name":"Bayern"}},{"name":"Siedlung","postalCode":"37249","locality":"Neu-Eichenberg","municipality":{"key":"06636009","name":"Neu-Eichenberg","type":"Kreisangehörige_Gemeinde"},"district":{"key":"06636","name":"Werra-Meißner-Kreis","type":"Landkreis"},"federalState":{"key":"06","name":"Hessen"}},{"name":"Siedlungsweg","postalCode":"97234","locality":"Reichenberg","municipality":{"key":"09679176","name":"Reichenberg, M","type":"Markt"},"district":{"key":"09679","name":"Würzburg","type":"Landkreis"},"federalState":{"key":"09","name":"Bayern"}},{"name":"Sommerweg","postalCode":"37249","locality":"Neu-Eichenberg","municipality":{"key":"06636009","name":"Neu-Eichenberg","type":"Kreisangehörige_Gemeinde"},"district":{"key":"06636","name":"Werra-Meißner-Kreis","type":"Landkreis"},"federalState":{"key":"06","name":"Hessen"}},{"name":"Sonnenrain","postalCode":"97234","locality":"Reichenberg","municipality":{"key":"09679176","name":"Reichenberg, M","type":"Markt"},"district":{"key":"09679","name":"Würzburg","type":"Landkreis"},"federalState":{"key":"09","name":"Bayern"}},{"name":"Steige","postalCode":"97234","locality":"Reichenberg","municipality":{"key":"09679176","name":"Reichenberg, M","type":"Markt"},"district":{"key":"09679","name":"Würzburg","type":"Landkreis"},"federalState":{"key":"09","name":"Bayern"}},{"name":"Steingasse","postalCode":"37249","locality":"Neu-Eichenberg","municipality":{"key":"06636009","name":"Neu-Eichenberg","type":"Kreisangehörige_Gemeinde"},"district":{"key":"06636","name":"Werra-Meißner-Kreis","type":"Landkreis"},"federalState":{"key":"06","name":"Hessen"}},{"name":"Tiefe Gasse","postalCode":"97234","locality":"Reichenberg","municipality":{"key":"09679176","name":"Reichenberg, M","type":"Markt"},"district":{"key":"09679","name":"Würzburg","type":"Landkreis"},"federalState":{"key":"09","name":"Bayern"}},{"name":"Tonweg","postalCode":"37249","locality":"Neu-Eichenberg","municipality":{"key":"06636009","name":"Neu-Eichenberg","type":"Kreisangehörige_Gemeinde"},"district":{"key":"06636","name":"Werra-Meißner-Kreis","type":"Landkreis"},"federalState":{"key":"06","name":"Hessen"}},{"name":"Torweg","postalCode":"97234","locality":"Reichenberg","municipality":{"key":"09679176","name":"Reichenberg, M","type":"Markt"},"district":{"key":"09679","name":"Würzburg","type":"Landkreis"},"federalState":{"key":"09","name":"Bayern"}},{"name":"Tulpenstr.","postalCode":"97234","locality":"Reichenberg","municipality":{"key":"09679176","name":"Reichenberg, M","type":"Markt"},"district":{"key":"09679","name":"Würzburg","type":"Landkreis"},"federalState":{"key":"09","name":"Bayern"}},{"name":"Tulpenweg","postalCode":"37249","locality":"Neu-Eichenberg","municipality":{"key":"06636009","name":"Neu-Eichenberg","type":"Kreisangehörige_Gemeinde"},"district":{"key":"06636","name":"Werra-Meißner-Kreis","type":"Landkreis"},"federalState":{"key":"06","name":"Hessen"}},{"name":"Uengershauser Str.","postalCode":"97234","locality":"Reichenberg","municipality":{"key":"09679176","name":"Reichenberg, M","type":"Markt"},"district":{"key":"09679","name":"Würzburg","type":"Landkreis"},"federalState":{"key":"09","name":"Bayern"}},{"name":"Unter den Weiden","postalCode":"37249","locality":"Neu-Eichenberg","municipality":{"key":"06636009","name":"Neu-Eichenberg","type":"Kreisangehörige_Gemeinde"},"district":{"key":"06636","name":"Werra-Meißner-Kreis","type":"Landkreis"},"federalState":{"key":"06","name":"Hessen"}},{"name":"Unterer Weinberg","postalCode":"97234","locality":"Reichenberg","municipality":{"key":"09679176","name":"Reichenberg, M","type":"Markt"},"district":{"key":"09679","name":"Würzburg","type":"Landkreis"},"federalState":{"key":"09","name":"Bayern"}},{"name":"Untertal","postalCode":"56357","locality":"Reichenberg","municipality":{"key":"07141114","name":"Reichenberg","type":"Kreisangehörige_Gemeinde"},"district":{"key":"07141","name":"Rhein-Lahn-Kreis","type":"Landkreis"},"federalState":{"key":"07","name":"Rheinland-Pfalz"}},{"name":"Vogelsteig","postalCode":"37249","locality":"Neu-Eichenberg","municipality":{"key":"06636009","name":"Neu-Eichenberg","type":"Kreisangehörige_Gemeinde"},"district":{"key":"06636","name":"Werra-Meißner-Kreis","type":"Landkreis"},"federalState":{"key":"06","name":"Hessen"}},{"name":"Vor den Rosen","postalCode":"37249","locality":"Neu-Eichenberg","municipality":{"key":"06636009","name":"Neu-Eichenberg","type":"Kreisangehörige_Gemeinde"},"district":{"key":"06636","name":"Werra-Meißner-Kreis","type":"Landkreis"},"federalState":{"key":"06","name":"Hessen"}},{"name":"Weichselstr.","postalCode":"97234","locality":"Reichenberg","municipality":{"key":"09679176","name":"Reichenberg, M","type":"Markt"},"district":{"key":"09679","name":"Würzburg","type":"Landkreis"},"federalState":{"key":"09","name":"Bayern"}},{"name":"Wiesenweg","postalCode":"97234","locality":"Reichenberg","municipality":{"key":"09679176","name":"Reichenberg, M","type":"Markt"},"district":{"key":"09679","name":"Würzburg","type":"Landkreis"},"federalState":{"key":"09","name":"Bayern"}},{"name":"Winkelgasse","postalCode":"37249","locality":"Neu-Eichenberg","municipality":{"key":"06636009","name":"Neu-Eichenberg","type":"Kreisangehörige_Gemeinde"},"district":{"key":"06636","name":"Werra-Meißner-Kreis","type":"Landkreis"},"federalState":{"key":"06","name":"Hessen"}},{"name":"Winterhauser Str.","postalCode":"97234","locality":"Reichenberg","municipality":{"key":"09679176","name":"Reichenberg, M","type":"Markt"},"district":{"key":"09679","name":"Würzburg","type":"Landkreis"},"federalState":{"key":"09","name":"Bayern"}},{"name":"Wirtsgasse","postalCode":"97234","locality":"Reichenberg","municipality":{"key":"09679176","name":"Reichenberg, M","type":"Markt"},"district":{"key":"09679","name":"Würzburg","type":"Landkreis"},"federalState":{"key":"09","name":"Bayern"}},{"name":"Wolffskeelplatz","postalCode":"97234","locality":"Reichenberg","municipality":{"key":"09679176","name":"Reichenberg, M","type":"Markt"},"district":{"key":"09679","name":"Würzburg","type":"Landkreis"},"federalState":{"key":"09","name":"Bayern"}},{"name":"Würzburger Str.","postalCode":"97234","locality":"Reichenberg","municipality":{"key":"09679176","name":"Reichenberg, M","type":"Markt"},"district":{"key":"09679","name":"Würzburg","type":"Landkreis"},"federalState":{"key":"09","name":"Bayern"}},{"name":"Ziegelstr.","postalCode":"37249","locality":"Neu-Eichenberg","municipality":{"key":"06636009","name":"Neu-Eichenberg","type":"Kreisangehörige_Gemeinde"},"district":{"key":"06636","name":"Werra-Meißner-Kreis","type":"Landkreis"},"federalState":{"key":"06","name":"Hessen"}},{"name":"Zum Mainzer Rad","postalCode":"37249","locality":"Neu-Eichenberg","municipality":{"key":"06636009","name":"Neu-Eichenberg","type":"Kreisangehörige_Gemeinde"},"district":{"key":"06636","name":"Werra-Meißner-Kreis","type":"Landkreis"},"federalState":{"key":"06","name":"Hessen"}},]