[{"name":"Am Brink","postalCode":"16818","locality":"Temnitzquell","municipality":{"key":"12068425","name":"Temnitzquell","type":"Kreisangehörige_Gemeinde"},"district":{"key":"12068","name":"Ostprignitz-Ruppin","type":"Landkreis"},"federalState":{"key":"12","name":"Brandenburg"}},{"name":"Am Horning","postalCode":"16818","locality":"Temnitzquell","municipality":{"key":"12068425","name":"Temnitzquell","type":"Kreisangehörige_Gemeinde"},"district":{"key":"12068","name":"Ostprignitz-Ruppin","type":"Landkreis"},"federalState":{"key":"12","name":"Brandenburg"}},{"name":"Am Kirchplatz","postalCode":"16818","locality":"Temnitzquell","municipality":{"key":"12068425","name":"Temnitzquell","type":"Kreisangehörige_Gemeinde"},"district":{"key":"12068","name":"Ostprignitz-Ruppin","type":"Landkreis"},"federalState":{"key":"12","name":"Brandenburg"}},{"name":"An der Steege","postalCode":"16818","locality":"Temnitzquell","municipality":{"key":"12068425","name":"Temnitzquell","type":"Kreisangehörige_Gemeinde"},"district":{"key":"12068","name":"Ostprignitz-Ruppin","type":"Landkreis"},"federalState":{"key":"12","name":"Brandenburg"}},{"name":"Darsikow","postalCode":"16818","locality":"Temnitzquell","municipality":{"key":"12068425","name":"Temnitzquell","type":"Kreisangehörige_Gemeinde"},"district":{"key":"12068","name":"Ostprignitz-Ruppin","type":"Landkreis"},"federalState":{"key":"12","name":"Brandenburg"}},{"name":"Dorfstr.","postalCode":"16818","locality":"Temnitzquell","municipality":{"key":"12068425","name":"Temnitzquell","type":"Kreisangehörige_Gemeinde"},"district":{"key":"12068","name":"Ostprignitz-Ruppin","type":"Landkreis"},"federalState":{"key":"12","name":"Brandenburg"}},{"name":"Knüppeldamm","postalCode":"16818","locality":"Temnitzquell","municipality":{"key":"12068425","name":"Temnitzquell","type":"Kreisangehörige_Gemeinde"},"district":{"key":"12068","name":"Ostprignitz-Ruppin","type":"Landkreis"},"federalState":{"key":"12","name":"Brandenburg"}},{"name":"L18","postalCode":"16818","locality":"Temnitzquell","municipality":{"key":"12068425","name":"Temnitzquell","type":"Kreisangehörige_Gemeinde"},"district":{"key":"12068","name":"Ostprignitz-Ruppin","type":"Landkreis"},"federalState":{"key":"12","name":"Brandenburg"}},{"name":"Mittelweg","postalCode":"16818","locality":"Temnitzquell","municipality":{"key":"12068425","name":"Temnitzquell","type":"Kreisangehörige_Gemeinde"},"district":{"key":"12068","name":"Ostprignitz-Ruppin","type":"Landkreis"},"federalState":{"key":"12","name":"Brandenburg"}},{"name":"Mühlenstr.","postalCode":"16818","locality":"Temnitzquell","municipality":{"key":"12068425","name":"Temnitzquell","type":"Kreisangehörige_Gemeinde"},"district":{"key":"12068","name":"Ostprignitz-Ruppin","type":"Landkreis"},"federalState":{"key":"12","name":"Brandenburg"}},{"name":"Neuruppiner Str.","postalCode":"16818","locality":"Temnitzquell","municipality":{"key":"12068425","name":"Temnitzquell","type":"Kreisangehörige_Gemeinde"},"district":{"key":"12068","name":"Ostprignitz-Ruppin","type":"Landkreis"},"federalState":{"key":"12","name":"Brandenburg"}},{"name":"Rägeliner Str.","postalCode":"16818","locality":"Temnitzquell","municipality":{"key":"12068425","name":"Temnitzquell","type":"Kreisangehörige_Gemeinde"},"district":{"key":"12068","name":"Ostprignitz-Ruppin","type":"Landkreis"},"federalState":{"key":"12","name":"Brandenburg"}},{"name":"Siedlung","postalCode":"16818","locality":"Temnitzquell","municipality":{"key":"12068425","name":"Temnitzquell","type":"Kreisangehörige_Gemeinde"},"district":{"key":"12068","name":"Ostprignitz-Ruppin","type":"Landkreis"},"federalState":{"key":"12","name":"Brandenburg"}},{"name":"Str. nach Neuruppin","postalCode":"16818","locality":"Temnitzquell","municipality":{"key":"12068425","name":"Temnitzquell","type":"Kreisangehörige_Gemeinde"},"district":{"key":"12068","name":"Ostprignitz-Ruppin","type":"Landkreis"},"federalState":{"key":"12","name":"Brandenburg"}},{"name":"Str. nach Rägelin","postalCode":"16818","locality":"Temnitzquell","municipality":{"key":"12068425","name":"Temnitzquell","type":"Kreisangehörige_Gemeinde"},"district":{"key":"12068","name":"Ostprignitz-Ruppin","type":"Landkreis"},"federalState":{"key":"12","name":"Brandenburg"}},{"name":"Str. nach Walsleben","postalCode":"16818","locality":"Temnitzquell","municipality":{"key":"12068425","name":"Temnitzquell","type":"Kreisangehörige_Gemeinde"},"district":{"key":"12068","name":"Ostprignitz-Ruppin","type":"Landkreis"},"federalState":{"key":"12","name":"Brandenburg"}},{"name":"Str. zum Rinderkombinat","postalCode":"16818","locality":"Temnitzquell","municipality":{"key":"12068425","name":"Temnitzquell","type":"Kreisangehörige_Gemeinde"},"district":{"key":"12068","name":"Ostprignitz-Ruppin","type":"Landkreis"},"federalState":{"key":"12","name":"Brandenburg"}},{"name":"Tannfried","postalCode":"16818","locality":"Temnitzquell","municipality":{"key":"12068425","name":"Temnitzquell","type":"Kreisangehörige_Gemeinde"},"district":{"key":"12068","name":"Ostprignitz-Ruppin","type":"Landkreis"},"federalState":{"key":"12","name":"Brandenburg"}},]