[{"name":"Am Raumberg","postalCode":"55592","locality":"Raumbach","municipality":{"key":"07133081","name":"Raumbach","type":"Kreisangehörige_Gemeinde"},"district":{"key":"07133","name":"Bad Kreuznach","type":"Landkreis"},"federalState":{"key":"07","name":"Rheinland-Pfalz"}},{"name":"Am Schwalbennest","postalCode":"55592","locality":"Raumbach","municipality":{"key":"07133081","name":"Raumbach","type":"Kreisangehörige_Gemeinde"},"district":{"key":"07133","name":"Bad Kreuznach","type":"Landkreis"},"federalState":{"key":"07","name":"Rheinland-Pfalz"}},{"name":"Bachstr.","postalCode":"55592","locality":"Raumbach","municipality":{"key":"07133081","name":"Raumbach","type":"Kreisangehörige_Gemeinde"},"district":{"key":"07133","name":"Bad Kreuznach","type":"Landkreis"},"federalState":{"key":"07","name":"Rheinland-Pfalz"}},{"name":"Bergstr.","postalCode":"55592","locality":"Raumbach","municipality":{"key":"07133081","name":"Raumbach","type":"Kreisangehörige_Gemeinde"},"district":{"key":"07133","name":"Bad Kreuznach","type":"Landkreis"},"federalState":{"key":"07","name":"Rheinland-Pfalz"}},{"name":"Carl-Schurz-Str.","postalCode":"55543","locality":"Bad Kreuznach","municipality":{"key":"07133006","name":"Bad Kreuznach, Stadt","type":"Stadt"},"district":{"key":"07133","name":"Bad Kreuznach","type":"Landkreis"},"federalState":{"key":"07","name":"Rheinland-Pfalz"}},{"name":"Carl-Spitzweg-Str.","postalCode":"55543","locality":"Bad Kreuznach","municipality":{"key":"07133006","name":"Bad Kreuznach, Stadt","type":"Stadt"},"district":{"key":"07133","name":"Bad Kreuznach","type":"Landkreis"},"federalState":{"key":"07","name":"Rheinland-Pfalz"}},{"name":"Carl-Zeiss-Str.","postalCode":"55543","locality":"Bad Kreuznach","municipality":{"key":"07133006","name":"Bad Kreuznach, Stadt","type":"Stadt"},"district":{"key":"07133","name":"Bad Kreuznach","type":"Landkreis"},"federalState":{"key":"07","name":"Rheinland-Pfalz"}},{"name":"Carmerstr.","postalCode":"55543","locality":"Bad Kreuznach","municipality":{"key":"07133006","name":"Bad Kreuznach, Stadt","type":"Stadt"},"district":{"key":"07133","name":"Bad Kreuznach","type":"Landkreis"},"federalState":{"key":"07","name":"Rheinland-Pfalz"}},{"name":"Cauerstr.","postalCode":"55543","locality":"Bad Kreuznach","municipality":{"key":"07133006","name":"Bad Kreuznach, Stadt","type":"Stadt"},"district":{"key":"07133","name":"Bad Kreuznach","type":"Landkreis"},"federalState":{"key":"07","name":"Rheinland-Pfalz"}},{"name":"Cecilienhöhe","postalCode":"55543","locality":"Bad Kreuznach","municipality":{"key":"07133006","name":"Bad Kreuznach, Stadt","type":"Stadt"},"district":{"key":"07133","name":"Bad Kreuznach","type":"Landkreis"},"federalState":{"key":"07","name":"Rheinland-Pfalz"}},{"name":"Charles-de-Gaulle-Str.","postalCode":"55543","locality":"Bad Kreuznach","municipality":{"key":"07133006","name":"Bad Kreuznach, Stadt","type":"Stadt"},"district":{"key":"07133","name":"Bad Kreuznach","type":"Landkreis"},"federalState":{"key":"07","name":"Rheinland-Pfalz"}},{"name":"Charles-de-Gaulle-Str.","postalCode":"55545","locality":"Bad Kreuznach","municipality":{"key":"07133006","name":"Bad Kreuznach, Stadt","type":"Stadt"},"district":{"key":"07133","name":"Bad Kreuznach","type":"Landkreis"},"federalState":{"key":"07","name":"Rheinland-Pfalz"}},{"name":"Corneliusstr.","postalCode":"55545","locality":"Bad Kreuznach","municipality":{"key":"07133006","name":"Bad Kreuznach, Stadt","type":"Stadt"},"district":{"key":"07133","name":"Bad Kreuznach","type":"Landkreis"},"federalState":{"key":"07","name":"Rheinland-Pfalz"}},{"name":"Deslocher Weg","postalCode":"55592","locality":"Raumbach","municipality":{"key":"07133081","name":"Raumbach","type":"Kreisangehörige_Gemeinde"},"district":{"key":"07133","name":"Bad Kreuznach","type":"Landkreis"},"federalState":{"key":"07","name":"Rheinland-Pfalz"}},{"name":"Entengasse","postalCode":"55592","locality":"Raumbach","municipality":{"key":"07133081","name":"Raumbach","type":"Kreisangehörige_Gemeinde"},"district":{"key":"07133","name":"Bad Kreuznach","type":"Landkreis"},"federalState":{"key":"07","name":"Rheinland-Pfalz"}},{"name":"Falkensteinstr.","postalCode":"55545","locality":"Bad Kreuznach","municipality":{"key":"07133006","name":"Bad Kreuznach, Stadt","type":"Stadt"},"district":{"key":"07133","name":"Bad Kreuznach","type":"Landkreis"},"federalState":{"key":"07","name":"Rheinland-Pfalz"}},{"name":"Falkenweg","postalCode":"55583","locality":"Bad Kreuznach","municipality":{"key":"07133006","name":"Bad Kreuznach, Stadt","type":"Stadt"},"district":{"key":"07133","name":"Bad Kreuznach","type":"Landkreis"},"federalState":{"key":"07","name":"Rheinland-Pfalz"}},{"name":"Felix-Wankel-Str.","postalCode":"55545","locality":"Bad Kreuznach","municipality":{"key":"07133006","name":"Bad Kreuznach, Stadt","type":"Stadt"},"district":{"key":"07133","name":"Bad Kreuznach","type":"Landkreis"},"federalState":{"key":"07","name":"Rheinland-Pfalz"}},{"name":"Ferdinand-Porsche-Str.","postalCode":"55543","locality":"Bad Kreuznach","municipality":{"key":"07133006","name":"Bad Kreuznach, Stadt","type":"Stadt"},"district":{"key":"07133","name":"Bad Kreuznach","type":"Landkreis"},"federalState":{"key":"07","name":"Rheinland-Pfalz"}},{"name":"Finkenweg","postalCode":"55583","locality":"Bad Kreuznach","municipality":{"key":"07133006","name":"Bad Kreuznach, Stadt","type":"Stadt"},"district":{"key":"07133","name":"Bad Kreuznach","type":"Landkreis"},"federalState":{"key":"07","name":"Rheinland-Pfalz"}},{"name":"Fischergasse","postalCode":"55545","locality":"Bad Kreuznach","municipality":{"key":"07133006","name":"Bad Kreuznach, Stadt","type":"Stadt"},"district":{"key":"07133","name":"Bad Kreuznach","type":"Landkreis"},"federalState":{"key":"07","name":"Rheinland-Pfalz"}},{"name":"Fischerplatz","postalCode":"55545","locality":"Bad Kreuznach","municipality":{"key":"07133006","name":"Bad Kreuznach, Stadt","type":"Stadt"},"district":{"key":"07133","name":"Bad Kreuznach","type":"Landkreis"},"federalState":{"key":"07","name":"Rheinland-Pfalz"}},{"name":"Fontanestr.","postalCode":"55543","locality":"Bad Kreuznach","municipality":{"key":"07133006","name":"Bad Kreuznach, Stadt","type":"Stadt"},"district":{"key":"07133","name":"Bad Kreuznach","type":"Landkreis"},"federalState":{"key":"07","name":"Rheinland-Pfalz"}},{"name":"Forsthausweg","postalCode":"55543","locality":"Bad Kreuznach","municipality":{"key":"07133006","name":"Bad Kreuznach, Stadt","type":"Stadt"},"district":{"key":"07133","name":"Bad Kreuznach","type":"Landkreis"},"federalState":{"key":"07","name":"Rheinland-Pfalz"}},{"name":"Forstmeister-Gräff-Str.","postalCode":"55543","locality":"Bad Kreuznach","municipality":{"key":"07133006","name":"Bad Kreuznach, Stadt","type":"Stadt"},"district":{"key":"07133","name":"Bad Kreuznach","type":"Landkreis"},"federalState":{"key":"07","name":"Rheinland-Pfalz"}},{"name":"Frankenstr.","postalCode":"55545","locality":"Bad Kreuznach","municipality":{"key":"07133006","name":"Bad Kreuznach, Stadt","type":"Stadt"},"district":{"key":"07133","name":"Bad Kreuznach","type":"Landkreis"},"federalState":{"key":"07","name":"Rheinland-Pfalz"}},{"name":"Frankfurter Str.","postalCode":"55545","locality":"Bad Kreuznach","municipality":{"key":"07133006","name":"Bad Kreuznach, Stadt","type":"Stadt"},"district":{"key":"07133","name":"Bad Kreuznach","type":"Landkreis"},"federalState":{"key":"07","name":"Rheinland-Pfalz"}},{"name":"Franz-Eichenauer-Str.","postalCode":"55543","locality":"Bad Kreuznach","municipality":{"key":"07133006","name":"Bad Kreuznach, Stadt","type":"Stadt"},"district":{"key":"07133","name":"Bad Kreuznach","type":"Landkreis"},"federalState":{"key":"07","name":"Rheinland-Pfalz"}},{"name":"Franziska-Puricelli-Str.","postalCode":"55543","locality":"Bad Kreuznach","municipality":{"key":"07133006","name":"Bad Kreuznach, Stadt","type":"Stadt"},"district":{"key":"07133","name":"Bad Kreuznach","type":"Landkreis"},"federalState":{"key":"07","name":"Rheinland-Pfalz"}},{"name":"Franz-Marc-Str.","postalCode":"55543","locality":"Bad Kreuznach","municipality":{"key":"07133006","name":"Bad Kreuznach, Stadt","type":"Stadt"},"district":{"key":"07133","name":"Bad Kreuznach","type":"Landkreis"},"federalState":{"key":"07","name":"Rheinland-Pfalz"}},{"name":"Franz-Schubert-Str.","postalCode":"55583","locality":"Bad Kreuznach","municipality":{"key":"07133006","name":"Bad Kreuznach, Stadt","type":"Stadt"},"district":{"key":"07133","name":"Bad Kreuznach","type":"Landkreis"},"federalState":{"key":"07","name":"Rheinland-Pfalz"}},{"name":"Franz-von-Sickingen-Str.","postalCode":"55583","locality":"Bad Kreuznach","municipality":{"key":"07133006","name":"Bad Kreuznach, Stadt","type":"Stadt"},"district":{"key":"07133","name":"Bad Kreuznach","type":"Landkreis"},"federalState":{"key":"07","name":"Rheinland-Pfalz"}},{"name":"Freiherr-vom-Stein-Str.","postalCode":"55543","locality":"Bad Kreuznach","municipality":{"key":"07133006","name":"Bad Kreuznach, Stadt","type":"Stadt"},"district":{"key":"07133","name":"Bad Kreuznach","type":"Landkreis"},"federalState":{"key":"07","name":"Rheinland-Pfalz"}},{"name":"Frenzenberg","postalCode":"55545","locality":"Bad Kreuznach","municipality":{"key":"07133006","name":"Bad Kreuznach, Stadt","type":"Stadt"},"district":{"key":"07133","name":"Bad Kreuznach","type":"Landkreis"},"federalState":{"key":"07","name":"Rheinland-Pfalz"}},{"name":"Friedensbrücke","postalCode":"55583","locality":"Bad Kreuznach","municipality":{"key":"07133006","name":"Bad Kreuznach, Stadt","type":"Stadt"},"district":{"key":"07133","name":"Bad Kreuznach","type":"Landkreis"},"federalState":{"key":"07","name":"Rheinland-Pfalz"}},{"name":"Friedensstr.","postalCode":"55583","locality":"Bad Kreuznach","municipality":{"key":"07133006","name":"Bad Kreuznach, Stadt","type":"Stadt"},"district":{"key":"07133","name":"Bad Kreuznach","type":"Landkreis"},"federalState":{"key":"07","name":"Rheinland-Pfalz"}},{"name":"Friedhofsweg","postalCode":"55545","locality":"Bad Kreuznach","municipality":{"key":"07133006","name":"Bad Kreuznach, Stadt","type":"Stadt"},"district":{"key":"07133","name":"Bad Kreuznach","type":"Landkreis"},"federalState":{"key":"07","name":"Rheinland-Pfalz"}},{"name":"Friedrichstr.","postalCode":"55543","locality":"Bad Kreuznach","municipality":{"key":"07133006","name":"Bad Kreuznach, Stadt","type":"Stadt"},"district":{"key":"07133","name":"Bad Kreuznach","type":"Landkreis"},"federalState":{"key":"07","name":"Rheinland-Pfalz"}},{"name":"Füllscheuer","postalCode":"55543","locality":"Bad Kreuznach","municipality":{"key":"07133006","name":"Bad Kreuznach, Stadt","type":"Stadt"},"district":{"key":"07133","name":"Bad Kreuznach","type":"Landkreis"},"federalState":{"key":"07","name":"Rheinland-Pfalz"}},{"name":"Gabelsberger Str.","postalCode":"55543","locality":"Bad Kreuznach","municipality":{"key":"07133006","name":"Bad Kreuznach, Stadt","type":"Stadt"},"district":{"key":"07133","name":"Bad Kreuznach","type":"Landkreis"},"federalState":{"key":"07","name":"Rheinland-Pfalz"}},{"name":"Gartenbrunnenstr.","postalCode":"55543","locality":"Bad Kreuznach","municipality":{"key":"07133006","name":"Bad Kreuznach, Stadt","type":"Stadt"},"district":{"key":"07133","name":"Bad Kreuznach","type":"Landkreis"},"federalState":{"key":"07","name":"Rheinland-Pfalz"}},{"name":"Gartenbrunnenweg","postalCode":"55543","locality":"Bad Kreuznach","municipality":{"key":"07133006","name":"Bad Kreuznach, Stadt","type":"Stadt"},"district":{"key":"07133","name":"Bad Kreuznach","type":"Landkreis"},"federalState":{"key":"07","name":"Rheinland-Pfalz"}},{"name":"Gartenstr.","postalCode":"55583","locality":"Bad Kreuznach","municipality":{"key":"07133006","name":"Bad Kreuznach, Stadt","type":"Stadt"},"district":{"key":"07133","name":"Bad Kreuznach","type":"Landkreis"},"federalState":{"key":"07","name":"Rheinland-Pfalz"}},{"name":"Gartenweg","postalCode":"55583","locality":"Bad Kreuznach","municipality":{"key":"07133006","name":"Bad Kreuznach, Stadt","type":"Stadt"},"district":{"key":"07133","name":"Bad Kreuznach","type":"Landkreis"},"federalState":{"key":"07","name":"Rheinland-Pfalz"}},{"name":"Gebrüder-Baruch-Str.","postalCode":"55543","locality":"Bad Kreuznach","municipality":{"key":"07133006","name":"Bad Kreuznach, Stadt","type":"Stadt"},"district":{"key":"07133","name":"Bad Kreuznach","type":"Landkreis"},"federalState":{"key":"07","name":"Rheinland-Pfalz"}},{"name":"Geibstr.","postalCode":"55545","locality":"Bad Kreuznach","municipality":{"key":"07133006","name":"Bad Kreuznach, Stadt","type":"Stadt"},"district":{"key":"07133","name":"Bad Kreuznach","type":"Landkreis"},"federalState":{"key":"07","name":"Rheinland-Pfalz"}},{"name":"Geißenbrücke","postalCode":"55543","locality":"Bad Kreuznach","municipality":{"key":"07133006","name":"Bad Kreuznach, Stadt","type":"Stadt"},"district":{"key":"07133","name":"Bad Kreuznach","type":"Landkreis"},"federalState":{"key":"07","name":"Rheinland-Pfalz"}},{"name":"Gelbsternweg","postalCode":"55543","locality":"Bad Kreuznach","municipality":{"key":"07133006","name":"Bad Kreuznach, Stadt","type":"Stadt"},"district":{"key":"07133","name":"Bad Kreuznach","type":"Landkreis"},"federalState":{"key":"07","name":"Rheinland-Pfalz"}},{"name":"Genheimer Str.","postalCode":"55545","locality":"Bad Kreuznach","municipality":{"key":"07133006","name":"Bad Kreuznach, Stadt","type":"Stadt"},"district":{"key":"07133","name":"Bad Kreuznach","type":"Landkreis"},"federalState":{"key":"07","name":"Rheinland-Pfalz"}},{"name":"Gensinger Str.","postalCode":"55543","locality":"Bad Kreuznach","municipality":{"key":"07133006","name":"Bad Kreuznach, Stadt","type":"Stadt"},"district":{"key":"07133","name":"Bad Kreuznach","type":"Landkreis"},"federalState":{"key":"07","name":"Rheinland-Pfalz"}},{"name":"George-Gershwin-Str.","postalCode":"55543","locality":"Bad Kreuznach","municipality":{"key":"07133006","name":"Bad Kreuznach, Stadt","type":"Stadt"},"district":{"key":"07133","name":"Bad Kreuznach","type":"Landkreis"},"federalState":{"key":"07","name":"Rheinland-Pfalz"}},{"name":"George-Marshall-Str.","postalCode":"55543","locality":"Bad Kreuznach","municipality":{"key":"07133006","name":"Bad Kreuznach, Stadt","type":"Stadt"},"district":{"key":"07133","name":"Bad Kreuznach","type":"Landkreis"},"federalState":{"key":"07","name":"Rheinland-Pfalz"}},{"name":"Gerbergasse","postalCode":"55545","locality":"Bad Kreuznach","municipality":{"key":"07133006","name":"Bad Kreuznach, Stadt","type":"Stadt"},"district":{"key":"07133","name":"Bad Kreuznach","type":"Landkreis"},"federalState":{"key":"07","name":"Rheinland-Pfalz"}},{"name":"Glashütter Weg","postalCode":"55543","locality":"Bad Kreuznach","municipality":{"key":"07133006","name":"Bad Kreuznach, Stadt","type":"Stadt"},"district":{"key":"07133","name":"Bad Kreuznach","type":"Landkreis"},"federalState":{"key":"07","name":"Rheinland-Pfalz"}},{"name":"Gleiwitzer Str.","postalCode":"55543","locality":"Bad Kreuznach","municipality":{"key":"07133006","name":"Bad Kreuznach, Stadt","type":"Stadt"},"district":{"key":"07133","name":"Bad Kreuznach","type":"Landkreis"},"federalState":{"key":"07","name":"Rheinland-Pfalz"}},{"name":"Glockengasse","postalCode":"55545","locality":"Bad Kreuznach","municipality":{"key":"07133006","name":"Bad Kreuznach, Stadt","type":"Stadt"},"district":{"key":"07133","name":"Bad Kreuznach","type":"Landkreis"},"federalState":{"key":"07","name":"Rheinland-Pfalz"}},{"name":"Gluckstr.","postalCode":"55543","locality":"Bad Kreuznach","municipality":{"key":"07133006","name":"Bad Kreuznach, Stadt","type":"Stadt"},"district":{"key":"07133","name":"Bad Kreuznach","type":"Landkreis"},"federalState":{"key":"07","name":"Rheinland-Pfalz"}},{"name":"Göbenstr.","postalCode":"55543","locality":"Bad Kreuznach","municipality":{"key":"07133006","name":"Bad Kreuznach, Stadt","type":"Stadt"},"district":{"key":"07133","name":"Bad Kreuznach","type":"Landkreis"},"federalState":{"key":"07","name":"Rheinland-Pfalz"}},{"name":"Goethestr.","postalCode":"55543","locality":"Bad Kreuznach","municipality":{"key":"07133006","name":"Bad Kreuznach, Stadt","type":"Stadt"},"district":{"key":"07133","name":"Bad Kreuznach","type":"Landkreis"},"federalState":{"key":"07","name":"Rheinland-Pfalz"}},{"name":"Görlitzer Str.","postalCode":"55543","locality":"Bad Kreuznach","municipality":{"key":"07133006","name":"Bad Kreuznach, Stadt","type":"Stadt"},"district":{"key":"07133","name":"Bad Kreuznach","type":"Landkreis"},"federalState":{"key":"07","name":"Rheinland-Pfalz"}},{"name":"Görzstr.","postalCode":"55545","locality":"Bad Kreuznach","municipality":{"key":"07133006","name":"Bad Kreuznach, Stadt","type":"Stadt"},"district":{"key":"07133","name":"Bad Kreuznach","type":"Landkreis"},"federalState":{"key":"07","name":"Rheinland-Pfalz"}},{"name":"Gotenstr.","postalCode":"55545","locality":"Bad Kreuznach","municipality":{"key":"07133006","name":"Bad Kreuznach, Stadt","type":"Stadt"},"district":{"key":"07133","name":"Bad Kreuznach","type":"Landkreis"},"federalState":{"key":"07","name":"Rheinland-Pfalz"}},{"name":"Götzenfelsstr.","postalCode":"55583","locality":"Bad Kreuznach","municipality":{"key":"07133006","name":"Bad Kreuznach, Stadt","type":"Stadt"},"district":{"key":"07133","name":"Bad Kreuznach","type":"Landkreis"},"federalState":{"key":"07","name":"Rheinland-Pfalz"}},{"name":"Graf-Siegfried-Str.","postalCode":"55543","locality":"Bad Kreuznach","municipality":{"key":"07133006","name":"Bad Kreuznach, Stadt","type":"Stadt"},"district":{"key":"07133","name":"Bad Kreuznach","type":"Landkreis"},"federalState":{"key":"07","name":"Rheinland-Pfalz"}},{"name":"Grete-Schickedanz-Str.","postalCode":"55545","locality":"Bad Kreuznach","municipality":{"key":"07133006","name":"Bad Kreuznach, Stadt","type":"Stadt"},"district":{"key":"07133","name":"Bad Kreuznach","type":"Landkreis"},"federalState":{"key":"07","name":"Rheinland-Pfalz"}},{"name":"Grundweg","postalCode":"55545","locality":"Bad Kreuznach","municipality":{"key":"07133006","name":"Bad Kreuznach, Stadt","type":"Stadt"},"district":{"key":"07133","name":"Bad Kreuznach","type":"Landkreis"},"federalState":{"key":"07","name":"Rheinland-Pfalz"}},{"name":"Guldentaler Weg","postalCode":"55545","locality":"Bad Kreuznach","municipality":{"key":"07133006","name":"Bad Kreuznach, Stadt","type":"Stadt"},"district":{"key":"07133","name":"Bad Kreuznach","type":"Landkreis"},"federalState":{"key":"07","name":"Rheinland-Pfalz"}},{"name":"Gustav-Pfarrius-Str.","postalCode":"55543","locality":"Bad Kreuznach","municipality":{"key":"07133006","name":"Bad Kreuznach, Stadt","type":"Stadt"},"district":{"key":"07133","name":"Bad Kreuznach","type":"Landkreis"},"federalState":{"key":"07","name":"Rheinland-Pfalz"}},{"name":"Gutenberger Str.","postalCode":"55545","locality":"Bad Kreuznach","municipality":{"key":"07133006","name":"Bad Kreuznach, Stadt","type":"Stadt"},"district":{"key":"07133","name":"Bad Kreuznach","type":"Landkreis"},"federalState":{"key":"07","name":"Rheinland-Pfalz"}},{"name":"Güterbahnhofstr.","postalCode":"55545","locality":"Bad Kreuznach","municipality":{"key":"07133006","name":"Bad Kreuznach, Stadt","type":"Stadt"},"district":{"key":"07133","name":"Bad Kreuznach","type":"Landkreis"},"federalState":{"key":"07","name":"Rheinland-Pfalz"}},{"name":"Gutlay","postalCode":"55545","locality":"Bad Kreuznach","municipality":{"key":"07133006","name":"Bad Kreuznach, Stadt","type":"Stadt"},"district":{"key":"07133","name":"Bad Kreuznach","type":"Landkreis"},"federalState":{"key":"07","name":"Rheinland-Pfalz"}},{"name":"Gymnasialstr.","postalCode":"55543","locality":"Bad Kreuznach","municipality":{"key":"07133006","name":"Bad Kreuznach, Stadt","type":"Stadt"},"district":{"key":"07133","name":"Bad Kreuznach","type":"Landkreis"},"federalState":{"key":"07","name":"Rheinland-Pfalz"}},{"name":"Hauptstr.","postalCode":"55592","locality":"Raumbach","municipality":{"key":"07133081","name":"Raumbach","type":"Kreisangehörige_Gemeinde"},"district":{"key":"07133","name":"Bad Kreuznach","type":"Landkreis"},"federalState":{"key":"07","name":"Rheinland-Pfalz"}},{"name":"Im Eck","postalCode":"55592","locality":"Raumbach","municipality":{"key":"07133081","name":"Raumbach","type":"Kreisangehörige_Gemeinde"},"district":{"key":"07133","name":"Bad Kreuznach","type":"Landkreis"},"federalState":{"key":"07","name":"Rheinland-Pfalz"}},{"name":"Jahnstr.","postalCode":"55583","locality":"Bad Kreuznach","municipality":{"key":"07133006","name":"Bad Kreuznach, Stadt","type":"Stadt"},"district":{"key":"07133","name":"Bad Kreuznach","type":"Landkreis"},"federalState":{"key":"07","name":"Rheinland-Pfalz"}},{"name":"Jahrmarktsbrücke","postalCode":"55543","locality":"Bad Kreuznach","municipality":{"key":"07133006","name":"Bad Kreuznach, Stadt","type":"Stadt"},"district":{"key":"07133","name":"Bad Kreuznach","type":"Landkreis"},"federalState":{"key":"07","name":"Rheinland-Pfalz"}},{"name":"Jahrmarktsbrücke","postalCode":"55545","locality":"Bad Kreuznach","municipality":{"key":"07133006","name":"Bad Kreuznach, Stadt","type":"Stadt"},"district":{"key":"07133","name":"Bad Kreuznach","type":"Landkreis"},"federalState":{"key":"07","name":"Rheinland-Pfalz"}},{"name":"Jean-Winckler-Str.","postalCode":"55543","locality":"Bad Kreuznach","municipality":{"key":"07133006","name":"Bad Kreuznach, Stadt","type":"Stadt"},"district":{"key":"07133","name":"Bad Kreuznach","type":"Landkreis"},"federalState":{"key":"07","name":"Rheinland-Pfalz"}},{"name":"Johannes-Kaup-Str.","postalCode":"55543","locality":"Bad Kreuznach","municipality":{"key":"07133006","name":"Bad Kreuznach, Stadt","type":"Stadt"},"district":{"key":"07133","name":"Bad Kreuznach","type":"Landkreis"},"federalState":{"key":"07","name":"Rheinland-Pfalz"}},{"name":"Johannisstr.","postalCode":"55545","locality":"Bad Kreuznach","municipality":{"key":"07133006","name":"Bad Kreuznach, Stadt","type":"Stadt"},"district":{"key":"07133","name":"Bad Kreuznach","type":"Landkreis"},"federalState":{"key":"07","name":"Rheinland-Pfalz"}},{"name":"Johann-Sebastian-Bach-Str.","postalCode":"55543","locality":"Bad Kreuznach","municipality":{"key":"07133006","name":"Bad Kreuznach, Stadt","type":"Stadt"},"district":{"key":"07133","name":"Bad Kreuznach","type":"Landkreis"},"federalState":{"key":"07","name":"Rheinland-Pfalz"}},{"name":"John-F.-Kennedy-Str.","postalCode":"55543","locality":"Bad Kreuznach","municipality":{"key":"07133006","name":"Bad Kreuznach, Stadt","type":"Stadt"},"district":{"key":"07133","name":"Bad Kreuznach","type":"Landkreis"},"federalState":{"key":"07","name":"Rheinland-Pfalz"}},{"name":"Johrmarktsbrick","postalCode":"55543","locality":"Bad Kreuznach","municipality":{"key":"07133006","name":"Bad Kreuznach, Stadt","type":"Stadt"},"district":{"key":"07133","name":"Bad Kreuznach","type":"Landkreis"},"federalState":{"key":"07","name":"Rheinland-Pfalz"}},{"name":"Josef-Förster-Str.","postalCode":"55545","locality":"Bad Kreuznach","municipality":{"key":"07133006","name":"Bad Kreuznach, Stadt","type":"Stadt"},"district":{"key":"07133","name":"Bad Kreuznach","type":"Landkreis"},"federalState":{"key":"07","name":"Rheinland-Pfalz"}},{"name":"Josef-Schneider-Str.","postalCode":"55543","locality":"Bad Kreuznach","municipality":{"key":"07133006","name":"Bad Kreuznach, Stadt","type":"Stadt"},"district":{"key":"07133","name":"Bad Kreuznach","type":"Landkreis"},"federalState":{"key":"07","name":"Rheinland-Pfalz"}},{"name":"Jungstr.","postalCode":"55543","locality":"Bad Kreuznach","municipality":{"key":"07133006","name":"Bad Kreuznach, Stadt","type":"Stadt"},"district":{"key":"07133","name":"Bad Kreuznach","type":"Landkreis"},"federalState":{"key":"07","name":"Rheinland-Pfalz"}},{"name":"Junkerstr.","postalCode":"55545","locality":"Bad Kreuznach","municipality":{"key":"07133006","name":"Bad Kreuznach, Stadt","type":"Stadt"},"district":{"key":"07133","name":"Bad Kreuznach","type":"Landkreis"},"federalState":{"key":"07","name":"Rheinland-Pfalz"}},{"name":"Jupiterstr.","postalCode":"55545","locality":"Bad Kreuznach","municipality":{"key":"07133006","name":"Bad Kreuznach, Stadt","type":"Stadt"},"district":{"key":"07133","name":"Bad Kreuznach","type":"Landkreis"},"federalState":{"key":"07","name":"Rheinland-Pfalz"}},{"name":"Kirchstr.","postalCode":"55592","locality":"Raumbach","municipality":{"key":"07133081","name":"Raumbach","type":"Kreisangehörige_Gemeinde"},"district":{"key":"07133","name":"Bad Kreuznach","type":"Landkreis"},"federalState":{"key":"07","name":"Rheinland-Pfalz"}},{"name":"Lämmergasse","postalCode":"55545","locality":"Bad Kreuznach","municipality":{"key":"07133006","name":"Bad Kreuznach, Stadt","type":"Stadt"},"district":{"key":"07133","name":"Bad Kreuznach","type":"Landkreis"},"federalState":{"key":"07","name":"Rheinland-Pfalz"}},{"name":"Landfuhrbrücke","postalCode":"55543","locality":"Bad Kreuznach","municipality":{"key":"07133006","name":"Bad Kreuznach, Stadt","type":"Stadt"},"district":{"key":"07133","name":"Bad Kreuznach","type":"Landkreis"},"federalState":{"key":"07","name":"Rheinland-Pfalz"}},{"name":"Langenlonsheimer Str.","postalCode":"55545","locality":"Bad Kreuznach","municipality":{"key":"07133006","name":"Bad Kreuznach, Stadt","type":"Stadt"},"district":{"key":"07133","name":"Bad Kreuznach","type":"Landkreis"},"federalState":{"key":"07","name":"Rheinland-Pfalz"}},{"name":"Langobardenstr.","postalCode":"55545","locality":"Bad Kreuznach","municipality":{"key":"07133006","name":"Bad Kreuznach, Stadt","type":"Stadt"},"district":{"key":"07133","name":"Bad Kreuznach","type":"Landkreis"},"federalState":{"key":"07","name":"Rheinland-Pfalz"}},{"name":"Laurentiusstr.","postalCode":"55545","locality":"Bad Kreuznach","municipality":{"key":"07133006","name":"Bad Kreuznach, Stadt","type":"Stadt"},"district":{"key":"07133","name":"Bad Kreuznach","type":"Landkreis"},"federalState":{"key":"07","name":"Rheinland-Pfalz"}},{"name":"Ledderhoser Weg","postalCode":"55543","locality":"Bad Kreuznach","municipality":{"key":"07133006","name":"Bad Kreuznach, Stadt","type":"Stadt"},"district":{"key":"07133","name":"Bad Kreuznach","type":"Landkreis"},"federalState":{"key":"07","name":"Rheinland-Pfalz"}},{"name":"Lenbachweg","postalCode":"55543","locality":"Bad Kreuznach","municipality":{"key":"07133006","name":"Bad Kreuznach, Stadt","type":"Stadt"},"district":{"key":"07133","name":"Bad Kreuznach","type":"Landkreis"},"federalState":{"key":"07","name":"Rheinland-Pfalz"}},{"name":"Lessingstr.","postalCode":"55543","locality":"Bad Kreuznach","municipality":{"key":"07133006","name":"Bad Kreuznach, Stadt","type":"Stadt"},"district":{"key":"07133","name":"Bad Kreuznach","type":"Landkreis"},"federalState":{"key":"07","name":"Rheinland-Pfalz"}},{"name":"Letzter Galgenberger Weg","postalCode":"55543","locality":"Bad Kreuznach","municipality":{"key":"07133006","name":"Bad Kreuznach, Stadt","type":"Stadt"},"district":{"key":"07133","name":"Bad Kreuznach","type":"Landkreis"},"federalState":{"key":"07","name":"Rheinland-Pfalz"}},{"name":"Liegnitzer Str.","postalCode":"55543","locality":"Bad Kreuznach","municipality":{"key":"07133006","name":"Bad Kreuznach, Stadt","type":"Stadt"},"district":{"key":"07133","name":"Bad Kreuznach","type":"Landkreis"},"federalState":{"key":"07","name":"Rheinland-Pfalz"}},{"name":"Lina-Hilger-Str.","postalCode":"55543","locality":"Bad Kreuznach","municipality":{"key":"07133006","name":"Bad Kreuznach, Stadt","type":"Stadt"},"district":{"key":"07133","name":"Bad Kreuznach","type":"Landkreis"},"federalState":{"key":"07","name":"Rheinland-Pfalz"}},{"name":"Lindelstr.","postalCode":"55545","locality":"Bad Kreuznach","municipality":{"key":"07133006","name":"Bad Kreuznach, Stadt","type":"Stadt"},"district":{"key":"07133","name":"Bad Kreuznach","type":"Landkreis"},"federalState":{"key":"07","name":"Rheinland-Pfalz"}},{"name":"Lindenallee","postalCode":"55583","locality":"Bad Kreuznach","municipality":{"key":"07133006","name":"Bad Kreuznach, Stadt","type":"Stadt"},"district":{"key":"07133","name":"Bad Kreuznach","type":"Landkreis"},"federalState":{"key":"07","name":"Rheinland-Pfalz"}},{"name":"Lisztstr.","postalCode":"55543","locality":"Bad Kreuznach","municipality":{"key":"07133006","name":"Bad Kreuznach, Stadt","type":"Stadt"},"district":{"key":"07133","name":"Bad Kreuznach","type":"Landkreis"},"federalState":{"key":"07","name":"Rheinland-Pfalz"}},{"name":"Lohrer Hof","postalCode":"55545","locality":"Bad Kreuznach","municipality":{"key":"07133006","name":"Bad Kreuznach, Stadt","type":"Stadt"},"district":{"key":"07133","name":"Bad Kreuznach","type":"Landkreis"},"federalState":{"key":"07","name":"Rheinland-Pfalz"}},{"name":"Lohrer Mühle","postalCode":"55545","locality":"Bad Kreuznach","municipality":{"key":"07133006","name":"Bad Kreuznach, Stadt","type":"Stadt"},"district":{"key":"07133","name":"Bad Kreuznach","type":"Landkreis"},"federalState":{"key":"07","name":"Rheinland-Pfalz"}},{"name":"Lucas-Cranach-Str.","postalCode":"55543","locality":"Bad Kreuznach","municipality":{"key":"07133006","name":"Bad Kreuznach, Stadt","type":"Stadt"},"district":{"key":"07133","name":"Bad Kreuznach","type":"Landkreis"},"federalState":{"key":"07","name":"Rheinland-Pfalz"}},{"name":"Ludwig-Kientzler-Str.","postalCode":"55543","locality":"Bad Kreuznach","municipality":{"key":"07133006","name":"Bad Kreuznach, Stadt","type":"Stadt"},"district":{"key":"07133","name":"Bad Kreuznach","type":"Landkreis"},"federalState":{"key":"07","name":"Rheinland-Pfalz"}},{"name":"Luisenstr.","postalCode":"55583","locality":"Bad Kreuznach","municipality":{"key":"07133006","name":"Bad Kreuznach, Stadt","type":"Stadt"},"district":{"key":"07133","name":"Bad Kreuznach","type":"Landkreis"},"federalState":{"key":"07","name":"Rheinland-Pfalz"}},{"name":"Magister-Faust-Gasse","postalCode":"55545","locality":"Bad Kreuznach","municipality":{"key":"07133006","name":"Bad Kreuznach, Stadt","type":"Stadt"},"district":{"key":"07133","name":"Bad Kreuznach","type":"Landkreis"},"federalState":{"key":"07","name":"Rheinland-Pfalz"}},{"name":"Mainzer Str.","postalCode":"55545","locality":"Bad Kreuznach","municipality":{"key":"07133006","name":"Bad Kreuznach, Stadt","type":"Stadt"},"district":{"key":"07133","name":"Bad Kreuznach","type":"Landkreis"},"federalState":{"key":"07","name":"Rheinland-Pfalz"}},{"name":"Maler-Faber-Str.","postalCode":"55545","locality":"Bad Kreuznach","municipality":{"key":"07133006","name":"Bad Kreuznach, Stadt","type":"Stadt"},"district":{"key":"07133","name":"Bad Kreuznach","type":"Landkreis"},"federalState":{"key":"07","name":"Rheinland-Pfalz"}},{"name":"Maler-Müller-Str.","postalCode":"55545","locality":"Bad Kreuznach","municipality":{"key":"07133006","name":"Bad Kreuznach, Stadt","type":"Stadt"},"district":{"key":"07133","name":"Bad Kreuznach","type":"Landkreis"},"federalState":{"key":"07","name":"Rheinland-Pfalz"}},{"name":"Mannheimer Str.","postalCode":"55543","locality":"Bad Kreuznach","municipality":{"key":"07133006","name":"Bad Kreuznach, Stadt","type":"Stadt"},"district":{"key":"07133","name":"Bad Kreuznach","type":"Landkreis"},"federalState":{"key":"07","name":"Rheinland-Pfalz"}},{"name":"Mannheimer Str.","postalCode":"55545","locality":"Bad Kreuznach","municipality":{"key":"07133006","name":"Bad Kreuznach, Stadt","type":"Stadt"},"district":{"key":"07133","name":"Bad Kreuznach","type":"Landkreis"},"federalState":{"key":"07","name":"Rheinland-Pfalz"}},{"name":"Manteuffelstr.","postalCode":"55543","locality":"Bad Kreuznach","municipality":{"key":"07133006","name":"Bad Kreuznach, Stadt","type":"Stadt"},"district":{"key":"07133","name":"Bad Kreuznach","type":"Landkreis"},"federalState":{"key":"07","name":"Rheinland-Pfalz"}},{"name":"Märchenhain","postalCode":"55583","locality":"Bad Kreuznach","municipality":{"key":"07133006","name":"Bad Kreuznach, Stadt","type":"Stadt"},"district":{"key":"07133","name":"Bad Kreuznach","type":"Landkreis"},"federalState":{"key":"07","name":"Rheinland-Pfalz"}},{"name":"Margot-Pottlitzer-Strauß-Str.","postalCode":"55543","locality":"Bad Kreuznach","municipality":{"key":"07133006","name":"Bad Kreuznach, Stadt","type":"Stadt"},"district":{"key":"07133","name":"Bad Kreuznach","type":"Landkreis"},"federalState":{"key":"07","name":"Rheinland-Pfalz"}},{"name":"Marienburger Str.","postalCode":"55543","locality":"Bad Kreuznach","municipality":{"key":"07133006","name":"Bad Kreuznach, Stadt","type":"Stadt"},"district":{"key":"07133","name":"Bad Kreuznach","type":"Landkreis"},"federalState":{"key":"07","name":"Rheinland-Pfalz"}},{"name":"Märkische Str.","postalCode":"55543","locality":"Bad Kreuznach","municipality":{"key":"07133006","name":"Bad Kreuznach, Stadt","type":"Stadt"},"district":{"key":"07133","name":"Bad Kreuznach","type":"Landkreis"},"federalState":{"key":"07","name":"Rheinland-Pfalz"}},{"name":"Marktstr.","postalCode":"55545","locality":"Bad Kreuznach","municipality":{"key":"07133006","name":"Bad Kreuznach, Stadt","type":"Stadt"},"district":{"key":"07133","name":"Bad Kreuznach","type":"Landkreis"},"federalState":{"key":"07","name":"Rheinland-Pfalz"}},{"name":"Martinsblick","postalCode":"55545","locality":"Bad Kreuznach","municipality":{"key":"07133006","name":"Bad Kreuznach, Stadt","type":"Stadt"},"district":{"key":"07133","name":"Bad Kreuznach","type":"Landkreis"},"federalState":{"key":"07","name":"Rheinland-Pfalz"}},{"name":"Mathildenstr.","postalCode":"55543","locality":"Bad Kreuznach","municipality":{"key":"07133006","name":"Bad Kreuznach, Stadt","type":"Stadt"},"district":{"key":"07133","name":"Bad Kreuznach","type":"Landkreis"},"federalState":{"key":"07","name":"Rheinland-Pfalz"}},{"name":"Matthias-Grünewald-Str.","postalCode":"55543","locality":"Bad Kreuznach","municipality":{"key":"07133006","name":"Bad Kreuznach, Stadt","type":"Stadt"},"district":{"key":"07133","name":"Bad Kreuznach","type":"Landkreis"},"federalState":{"key":"07","name":"Rheinland-Pfalz"}},{"name":"Max-Ernst-Str.","postalCode":"55543","locality":"Bad Kreuznach","municipality":{"key":"07133006","name":"Bad Kreuznach, Stadt","type":"Stadt"},"district":{"key":"07133","name":"Bad Kreuznach","type":"Landkreis"},"federalState":{"key":"07","name":"Rheinland-Pfalz"}},{"name":"Maximus-Urbanus-Str.","postalCode":"55545","locality":"Bad Kreuznach","municipality":{"key":"07133006","name":"Bad Kreuznach, Stadt","type":"Stadt"},"district":{"key":"07133","name":"Bad Kreuznach","type":"Landkreis"},"federalState":{"key":"07","name":"Rheinland-Pfalz"}},{"name":"Max-Liebermann-Str.","postalCode":"55543","locality":"Bad Kreuznach","municipality":{"key":"07133006","name":"Bad Kreuznach, Stadt","type":"Stadt"},"district":{"key":"07133","name":"Bad Kreuznach","type":"Landkreis"},"federalState":{"key":"07","name":"Rheinland-Pfalz"}},{"name":"Max-Planck-Str.","postalCode":"55545","locality":"Bad Kreuznach","municipality":{"key":"07133006","name":"Bad Kreuznach, Stadt","type":"Stadt"},"district":{"key":"07133","name":"Bad Kreuznach","type":"Landkreis"},"federalState":{"key":"07","name":"Rheinland-Pfalz"}},{"name":"Max-Slevogt-Str.","postalCode":"55543","locality":"Bad Kreuznach","municipality":{"key":"07133006","name":"Bad Kreuznach, Stadt","type":"Stadt"},"district":{"key":"07133","name":"Bad Kreuznach","type":"Landkreis"},"federalState":{"key":"07","name":"Rheinland-Pfalz"}},{"name":"Memeler Str.","postalCode":"55543","locality":"Bad Kreuznach","municipality":{"key":"07133006","name":"Bad Kreuznach, Stadt","type":"Stadt"},"district":{"key":"07133","name":"Bad Kreuznach","type":"Landkreis"},"federalState":{"key":"07","name":"Rheinland-Pfalz"}},{"name":"Merowingerstr.","postalCode":"55545","locality":"Bad Kreuznach","municipality":{"key":"07133006","name":"Bad Kreuznach, Stadt","type":"Stadt"},"district":{"key":"07133","name":"Bad Kreuznach","type":"Landkreis"},"federalState":{"key":"07","name":"Rheinland-Pfalz"}},{"name":"Metzgergasse","postalCode":"55545","locality":"Bad Kreuznach","municipality":{"key":"07133006","name":"Bad Kreuznach, Stadt","type":"Stadt"},"district":{"key":"07133","name":"Bad Kreuznach","type":"Landkreis"},"federalState":{"key":"07","name":"Rheinland-Pfalz"}},{"name":"Michel-Mort-Gasse","postalCode":"55545","locality":"Bad Kreuznach","municipality":{"key":"07133006","name":"Bad Kreuznach, Stadt","type":"Stadt"},"district":{"key":"07133","name":"Bad Kreuznach","type":"Landkreis"},"federalState":{"key":"07","name":"Rheinland-Pfalz"}},{"name":"Milchgasse","postalCode":"55545","locality":"Bad Kreuznach","municipality":{"key":"07133006","name":"Bad Kreuznach, Stadt","type":"Stadt"},"district":{"key":"07133","name":"Bad Kreuznach","type":"Landkreis"},"federalState":{"key":"07","name":"Rheinland-Pfalz"}},{"name":"Mittlerer Flurweg","postalCode":"55543","locality":"Bad Kreuznach","municipality":{"key":"07133006","name":"Bad Kreuznach, Stadt","type":"Stadt"},"district":{"key":"07133","name":"Bad Kreuznach","type":"Landkreis"},"federalState":{"key":"07","name":"Rheinland-Pfalz"}},{"name":"Mittlerer Galgenberger Weg","postalCode":"55543","locality":"Bad Kreuznach","municipality":{"key":"07133006","name":"Bad Kreuznach, Stadt","type":"Stadt"},"district":{"key":"07133","name":"Bad Kreuznach","type":"Landkreis"},"federalState":{"key":"07","name":"Rheinland-Pfalz"}},{"name":"Möbusstr.","postalCode":"55543","locality":"Bad Kreuznach","municipality":{"key":"07133006","name":"Bad Kreuznach, Stadt","type":"Stadt"},"district":{"key":"07133","name":"Bad Kreuznach","type":"Landkreis"},"federalState":{"key":"07","name":"Rheinland-Pfalz"}},{"name":"Moltkestr.","postalCode":"55543","locality":"Bad Kreuznach","municipality":{"key":"07133006","name":"Bad Kreuznach, Stadt","type":"Stadt"},"district":{"key":"07133","name":"Bad Kreuznach","type":"Landkreis"},"federalState":{"key":"07","name":"Rheinland-Pfalz"}},{"name":"Mönchberg","postalCode":"55545","locality":"Bad Kreuznach","municipality":{"key":"07133006","name":"Bad Kreuznach, Stadt","type":"Stadt"},"district":{"key":"07133","name":"Bad Kreuznach","type":"Landkreis"},"federalState":{"key":"07","name":"Rheinland-Pfalz"}},{"name":"Mönchstr.","postalCode":"55545","locality":"Bad Kreuznach","municipality":{"key":"07133006","name":"Bad Kreuznach, Stadt","type":"Stadt"},"district":{"key":"07133","name":"Bad Kreuznach","type":"Landkreis"},"federalState":{"key":"07","name":"Rheinland-Pfalz"}},{"name":"Mörikestr.","postalCode":"55543","locality":"Bad Kreuznach","municipality":{"key":"07133006","name":"Bad Kreuznach, Stadt","type":"Stadt"},"district":{"key":"07133","name":"Bad Kreuznach","type":"Landkreis"},"federalState":{"key":"07","name":"Rheinland-Pfalz"}},{"name":"Mozartstr.","postalCode":"55543","locality":"Bad Kreuznach","municipality":{"key":"07133006","name":"Bad Kreuznach, Stadt","type":"Stadt"},"district":{"key":"07133","name":"Bad Kreuznach","type":"Landkreis"},"federalState":{"key":"07","name":"Rheinland-Pfalz"}},{"name":"Mozartstr.","postalCode":"55583","locality":"Bad Kreuznach","municipality":{"key":"07133006","name":"Bad Kreuznach, Stadt","type":"Stadt"},"district":{"key":"07133","name":"Bad Kreuznach","type":"Landkreis"},"federalState":{"key":"07","name":"Rheinland-Pfalz"}},{"name":"Mühlenstr.","postalCode":"55543","locality":"Bad Kreuznach","municipality":{"key":"07133006","name":"Bad Kreuznach, Stadt","type":"Stadt"},"district":{"key":"07133","name":"Bad Kreuznach","type":"Landkreis"},"federalState":{"key":"07","name":"Rheinland-Pfalz"}},{"name":"Mühlweg","postalCode":"55545","locality":"Bad Kreuznach","municipality":{"key":"07133006","name":"Bad Kreuznach, Stadt","type":"Stadt"},"district":{"key":"07133","name":"Bad Kreuznach","type":"Landkreis"},"federalState":{"key":"07","name":"Rheinland-Pfalz"}},{"name":"Müller-Thurgauweg","postalCode":"55583","locality":"Bad Kreuznach","municipality":{"key":"07133006","name":"Bad Kreuznach, Stadt","type":"Stadt"},"district":{"key":"07133","name":"Bad Kreuznach","type":"Landkreis"},"federalState":{"key":"07","name":"Rheinland-Pfalz"}},{"name":"Neuer Weg","postalCode":"55592","locality":"Raumbach","municipality":{"key":"07133081","name":"Raumbach","type":"Kreisangehörige_Gemeinde"},"district":{"key":"07133","name":"Bad Kreuznach","type":"Landkreis"},"federalState":{"key":"07","name":"Rheinland-Pfalz"}},{"name":"Oberbürgermeister-Buß-Str.","postalCode":"55543","locality":"Bad Kreuznach","municipality":{"key":"07133006","name":"Bad Kreuznach, Stadt","type":"Stadt"},"district":{"key":"07133","name":"Bad Kreuznach","type":"Landkreis"},"federalState":{"key":"07","name":"Rheinland-Pfalz"}},{"name":"Obere Flotz","postalCode":"55543","locality":"Bad Kreuznach","municipality":{"key":"07133006","name":"Bad Kreuznach, Stadt","type":"Stadt"},"district":{"key":"07133","name":"Bad Kreuznach","type":"Landkreis"},"federalState":{"key":"07","name":"Rheinland-Pfalz"}},{"name":"Obere Gartenstr.","postalCode":"55545","locality":"Bad Kreuznach","municipality":{"key":"07133006","name":"Bad Kreuznach, Stadt","type":"Stadt"},"district":{"key":"07133","name":"Bad Kreuznach","type":"Landkreis"},"federalState":{"key":"07","name":"Rheinland-Pfalz"}},{"name":"Oberer Monauweg","postalCode":"55543","locality":"Bad Kreuznach","municipality":{"key":"07133006","name":"Bad Kreuznach, Stadt","type":"Stadt"},"district":{"key":"07133","name":"Bad Kreuznach","type":"Landkreis"},"federalState":{"key":"07","name":"Rheinland-Pfalz"}},{"name":"Oberer Mühlweg","postalCode":"55545","locality":"Bad Kreuznach","municipality":{"key":"07133006","name":"Bad Kreuznach, Stadt","type":"Stadt"},"district":{"key":"07133","name":"Bad Kreuznach","type":"Landkreis"},"federalState":{"key":"07","name":"Rheinland-Pfalz"}},{"name":"Oceanus-Str.","postalCode":"55545","locality":"Bad Kreuznach","municipality":{"key":"07133006","name":"Bad Kreuznach, Stadt","type":"Stadt"},"district":{"key":"07133","name":"Bad Kreuznach","type":"Landkreis"},"federalState":{"key":"07","name":"Rheinland-Pfalz"}},{"name":"Oligsberg","postalCode":"55543","locality":"Bad Kreuznach","municipality":{"key":"07133006","name":"Bad Kreuznach, Stadt","type":"Stadt"},"district":{"key":"07133","name":"Bad Kreuznach","type":"Landkreis"},"federalState":{"key":"07","name":"Rheinland-Pfalz"}},{"name":"Oranienpark","postalCode":"55543","locality":"Bad Kreuznach","municipality":{"key":"07133006","name":"Bad Kreuznach, Stadt","type":"Stadt"},"district":{"key":"07133","name":"Bad Kreuznach","type":"Landkreis"},"federalState":{"key":"07","name":"Rheinland-Pfalz"}},{"name":"Oranienstr.","postalCode":"55543","locality":"Bad Kreuznach","municipality":{"key":"07133006","name":"Bad Kreuznach, Stadt","type":"Stadt"},"district":{"key":"07133","name":"Bad Kreuznach","type":"Landkreis"},"federalState":{"key":"07","name":"Rheinland-Pfalz"}},{"name":"Orffstr.","postalCode":"55543","locality":"Bad Kreuznach","municipality":{"key":"07133006","name":"Bad Kreuznach, Stadt","type":"Stadt"},"district":{"key":"07133","name":"Bad Kreuznach","type":"Landkreis"},"federalState":{"key":"07","name":"Rheinland-Pfalz"}},{"name":"Ortegaweg","postalCode":"55543","locality":"Bad Kreuznach","municipality":{"key":"07133006","name":"Bad Kreuznach, Stadt","type":"Stadt"},"district":{"key":"07133","name":"Bad Kreuznach","type":"Landkreis"},"federalState":{"key":"07","name":"Rheinland-Pfalz"}},{"name":"Otto-Hersing-Str.","postalCode":"55545","locality":"Bad Kreuznach","municipality":{"key":"07133006","name":"Bad Kreuznach, Stadt","type":"Stadt"},"district":{"key":"07133","name":"Bad Kreuznach","type":"Landkreis"},"federalState":{"key":"07","name":"Rheinland-Pfalz"}},{"name":"Otto-Meffert-Str.","postalCode":"55543","locality":"Bad Kreuznach","municipality":{"key":"07133006","name":"Bad Kreuznach, Stadt","type":"Stadt"},"district":{"key":"07133","name":"Bad Kreuznach","type":"Landkreis"},"federalState":{"key":"07","name":"Rheinland-Pfalz"}},{"name":"Pappelweg","postalCode":"55543","locality":"Bad Kreuznach","municipality":{"key":"07133006","name":"Bad Kreuznach, Stadt","type":"Stadt"},"district":{"key":"07133","name":"Bad Kreuznach","type":"Landkreis"},"federalState":{"key":"07","name":"Rheinland-Pfalz"}},{"name":"Park der Sinne","postalCode":"55543","locality":"Bad Kreuznach","municipality":{"key":"07133006","name":"Bad Kreuznach, Stadt","type":"Stadt"},"district":{"key":"07133","name":"Bad Kreuznach","type":"Landkreis"},"federalState":{"key":"07","name":"Rheinland-Pfalz"}},{"name":"Parkstr.","postalCode":"55545","locality":"Bad Kreuznach","municipality":{"key":"07133006","name":"Bad Kreuznach, Stadt","type":"Stadt"},"district":{"key":"07133","name":"Bad Kreuznach","type":"Landkreis"},"federalState":{"key":"07","name":"Rheinland-Pfalz"}},{"name":"Paul-Barberot-Str.","postalCode":"55543","locality":"Bad Kreuznach","municipality":{"key":"07133006","name":"Bad Kreuznach, Stadt","type":"Stadt"},"district":{"key":"07133","name":"Bad Kreuznach","type":"Landkreis"},"federalState":{"key":"07","name":"Rheinland-Pfalz"}},{"name":"Paul-Hindemith-Str.","postalCode":"55543","locality":"Bad Kreuznach","municipality":{"key":"07133006","name":"Bad Kreuznach, Stadt","type":"Stadt"},"district":{"key":"07133","name":"Bad Kreuznach","type":"Landkreis"},"federalState":{"key":"07","name":"Rheinland-Pfalz"}},{"name":"Paul-Klee-Str.","postalCode":"55543","locality":"Bad Kreuznach","municipality":{"key":"07133006","name":"Bad Kreuznach, Stadt","type":"Stadt"},"district":{"key":"07133","name":"Bad Kreuznach","type":"Landkreis"},"federalState":{"key":"07","name":"Rheinland-Pfalz"}},{"name":"Paul Schneider Weg","postalCode":"55545","locality":"Bad Kreuznach","municipality":{"key":"07133006","name":"Bad Kreuznach, Stadt","type":"Stadt"},"district":{"key":"07133","name":"Bad Kreuznach","type":"Landkreis"},"federalState":{"key":"07","name":"Rheinland-Pfalz"}},{"name":"Pestalozzistr.","postalCode":"55543","locality":"Bad Kreuznach","municipality":{"key":"07133006","name":"Bad Kreuznach, Stadt","type":"Stadt"},"district":{"key":"07133","name":"Bad Kreuznach","type":"Landkreis"},"federalState":{"key":"07","name":"Rheinland-Pfalz"}},{"name":"Peter-Fink-Str.","postalCode":"55543","locality":"Bad Kreuznach","municipality":{"key":"07133006","name":"Bad Kreuznach, Stadt","type":"Stadt"},"district":{"key":"07133","name":"Bad Kreuznach","type":"Landkreis"},"federalState":{"key":"07","name":"Rheinland-Pfalz"}},{"name":"Petersgasse","postalCode":"55545","locality":"Bad Kreuznach","municipality":{"key":"07133006","name":"Bad Kreuznach, Stadt","type":"Stadt"},"district":{"key":"07133","name":"Bad Kreuznach","type":"Landkreis"},"federalState":{"key":"07","name":"Rheinland-Pfalz"}},{"name":"Pfalzsprung","postalCode":"55543","locality":"Bad Kreuznach","municipality":{"key":"07133006","name":"Bad Kreuznach, Stadt","type":"Stadt"},"district":{"key":"07133","name":"Bad Kreuznach","type":"Landkreis"},"federalState":{"key":"07","name":"Rheinland-Pfalz"}},{"name":"Pfalzstr.","postalCode":"55543","locality":"Bad Kreuznach","municipality":{"key":"07133006","name":"Bad Kreuznach, Stadt","type":"Stadt"},"district":{"key":"07133","name":"Bad Kreuznach","type":"Landkreis"},"federalState":{"key":"07","name":"Rheinland-Pfalz"}},{"name":"Pfalzstr.","postalCode":"55583","locality":"Bad Kreuznach","municipality":{"key":"07133006","name":"Bad Kreuznach, Stadt","type":"Stadt"},"district":{"key":"07133","name":"Bad Kreuznach","type":"Landkreis"},"federalState":{"key":"07","name":"Rheinland-Pfalz"}},{"name":"Pfarrer-Dr.-Nagel-Weg","postalCode":"55583","locality":"Bad Kreuznach","municipality":{"key":"07133006","name":"Bad Kreuznach, Stadt","type":"Stadt"},"district":{"key":"07133","name":"Bad Kreuznach","type":"Landkreis"},"federalState":{"key":"07","name":"Rheinland-Pfalz"}},{"name":"Pfarrer-Zimmermann-Weg","postalCode":"55583","locality":"Bad Kreuznach","municipality":{"key":"07133006","name":"Bad Kreuznach, Stadt","type":"Stadt"},"district":{"key":"07133","name":"Bad Kreuznach","type":"Landkreis"},"federalState":{"key":"07","name":"Rheinland-Pfalz"}},{"name":"Pfarrgarten","postalCode":"55545","locality":"Bad Kreuznach","municipality":{"key":"07133006","name":"Bad Kreuznach, Stadt","type":"Stadt"},"district":{"key":"07133","name":"Bad Kreuznach","type":"Landkreis"},"federalState":{"key":"07","name":"Rheinland-Pfalz"}},{"name":"Pfingstwiese","postalCode":"55545","locality":"Bad Kreuznach","municipality":{"key":"07133006","name":"Bad Kreuznach, Stadt","type":"Stadt"},"district":{"key":"07133","name":"Bad Kreuznach","type":"Landkreis"},"federalState":{"key":"07","name":"Rheinland-Pfalz"}},{"name":"Pfitznerstr.","postalCode":"55543","locality":"Bad Kreuznach","municipality":{"key":"07133006","name":"Bad Kreuznach, Stadt","type":"Stadt"},"district":{"key":"07133","name":"Bad Kreuznach","type":"Landkreis"},"federalState":{"key":"07","name":"Rheinland-Pfalz"}},{"name":"Philippstr.","postalCode":"55543","locality":"Bad Kreuznach","municipality":{"key":"07133006","name":"Bad Kreuznach, Stadt","type":"Stadt"},"district":{"key":"07133","name":"Bad Kreuznach","type":"Landkreis"},"federalState":{"key":"07","name":"Rheinland-Pfalz"}},{"name":"Planiger Str.","postalCode":"55543","locality":"Bad Kreuznach","municipality":{"key":"07133006","name":"Bad Kreuznach, Stadt","type":"Stadt"},"district":{"key":"07133","name":"Bad Kreuznach","type":"Landkreis"},"federalState":{"key":"07","name":"Rheinland-Pfalz"}},{"name":"Platz der ehemaligen Synagoge","postalCode":"55543","locality":"Bad Kreuznach","municipality":{"key":"07133006","name":"Bad Kreuznach, Stadt","type":"Stadt"},"district":{"key":"07133","name":"Bad Kreuznach","type":"Landkreis"},"federalState":{"key":"07","name":"Rheinland-Pfalz"}},{"name":"Pommernstr.","postalCode":"55545","locality":"Bad Kreuznach","municipality":{"key":"07133006","name":"Bad Kreuznach, Stadt","type":"Stadt"},"district":{"key":"07133","name":"Bad Kreuznach","type":"Landkreis"},"federalState":{"key":"07","name":"Rheinland-Pfalz"}},{"name":"Portugieserweg","postalCode":"55583","locality":"Bad Kreuznach","municipality":{"key":"07133006","name":"Bad Kreuznach, Stadt","type":"Stadt"},"district":{"key":"07133","name":"Bad Kreuznach","type":"Landkreis"},"federalState":{"key":"07","name":"Rheinland-Pfalz"}},{"name":"Poststr.","postalCode":"55545","locality":"Bad Kreuznach","municipality":{"key":"07133006","name":"Bad Kreuznach, Stadt","type":"Stadt"},"district":{"key":"07133","name":"Bad Kreuznach","type":"Landkreis"},"federalState":{"key":"07","name":"Rheinland-Pfalz"}},{"name":"Potsdamer Str.","postalCode":"55543","locality":"Bad Kreuznach","municipality":{"key":"07133006","name":"Bad Kreuznach, Stadt","type":"Stadt"},"district":{"key":"07133","name":"Bad Kreuznach","type":"Landkreis"},"federalState":{"key":"07","name":"Rheinland-Pfalz"}},{"name":"Potthoffstr.","postalCode":"55545","locality":"Bad Kreuznach","municipality":{"key":"07133006","name":"Bad Kreuznach, Stadt","type":"Stadt"},"district":{"key":"07133","name":"Bad Kreuznach","type":"Landkreis"},"federalState":{"key":"07","name":"Rheinland-Pfalz"}},{"name":"Pouilly-Brücke","postalCode":"55583","locality":"Bad Kreuznach","municipality":{"key":"07133006","name":"Bad Kreuznach, Stadt","type":"Stadt"},"district":{"key":"07133","name":"Bad Kreuznach","type":"Landkreis"},"federalState":{"key":"07","name":"Rheinland-Pfalz"}},{"name":"Prinz-Friedrich-Karl-Str.","postalCode":"55543","locality":"Bad Kreuznach","municipality":{"key":"07133006","name":"Bad Kreuznach, Stadt","type":"Stadt"},"district":{"key":"07133","name":"Bad Kreuznach","type":"Landkreis"},"federalState":{"key":"07","name":"Rheinland-Pfalz"}},{"name":"Raiffeisenstr.","postalCode":"55592","locality":"Raumbach","municipality":{"key":"07133081","name":"Raumbach","type":"Kreisangehörige_Gemeinde"},"district":{"key":"07133","name":"Bad Kreuznach","type":"Landkreis"},"federalState":{"key":"07","name":"Rheinland-Pfalz"}},{"name":"Saarstr.","postalCode":"55583","locality":"Bad Kreuznach","municipality":{"key":"07133006","name":"Bad Kreuznach, Stadt","type":"Stadt"},"district":{"key":"07133","name":"Bad Kreuznach","type":"Landkreis"},"federalState":{"key":"07","name":"Rheinland-Pfalz"}},{"name":"Salierstr.","postalCode":"55545","locality":"Bad Kreuznach","municipality":{"key":"07133006","name":"Bad Kreuznach, Stadt","type":"Stadt"},"district":{"key":"07133","name":"Bad Kreuznach","type":"Landkreis"},"federalState":{"key":"07","name":"Rheinland-Pfalz"}},{"name":"Salinenblick","postalCode":"55543","locality":"Bad Kreuznach","municipality":{"key":"07133006","name":"Bad Kreuznach, Stadt","type":"Stadt"},"district":{"key":"07133","name":"Bad Kreuznach","type":"Landkreis"},"federalState":{"key":"07","name":"Rheinland-Pfalz"}},{"name":"Salinenplatz","postalCode":"55543","locality":"Bad Kreuznach","municipality":{"key":"07133006","name":"Bad Kreuznach, Stadt","type":"Stadt"},"district":{"key":"07133","name":"Bad Kreuznach","type":"Landkreis"},"federalState":{"key":"07","name":"Rheinland-Pfalz"}},{"name":"Salinenstr.","postalCode":"55543","locality":"Bad Kreuznach","municipality":{"key":"07133006","name":"Bad Kreuznach, Stadt","type":"Stadt"},"district":{"key":"07133","name":"Bad Kreuznach","type":"Landkreis"},"federalState":{"key":"07","name":"Rheinland-Pfalz"}},{"name":"Saline Theodorshalle","postalCode":"55543","locality":"Bad Kreuznach","municipality":{"key":"07133006","name":"Bad Kreuznach, Stadt","type":"Stadt"},"district":{"key":"07133","name":"Bad Kreuznach","type":"Landkreis"},"federalState":{"key":"07","name":"Rheinland-Pfalz"}},{"name":"Sandweg","postalCode":"55543","locality":"Bad Kreuznach","municipality":{"key":"07133006","name":"Bad Kreuznach, Stadt","type":"Stadt"},"district":{"key":"07133","name":"Bad Kreuznach","type":"Landkreis"},"federalState":{"key":"07","name":"Rheinland-Pfalz"}},{"name":"Schäferstr.","postalCode":"55583","locality":"Bad Kreuznach","municipality":{"key":"07133006","name":"Bad Kreuznach, Stadt","type":"Stadt"},"district":{"key":"07133","name":"Bad Kreuznach","type":"Landkreis"},"federalState":{"key":"07","name":"Rheinland-Pfalz"}},{"name":"Schar","postalCode":"55545","locality":"Bad Kreuznach","municipality":{"key":"07133006","name":"Bad Kreuznach, Stadt","type":"Stadt"},"district":{"key":"07133","name":"Bad Kreuznach","type":"Landkreis"},"federalState":{"key":"07","name":"Rheinland-Pfalz"}},{"name":"Scheunenplatz","postalCode":"55545","locality":"Bad Kreuznach","municipality":{"key":"07133006","name":"Bad Kreuznach, Stadt","type":"Stadt"},"district":{"key":"07133","name":"Bad Kreuznach","type":"Landkreis"},"federalState":{"key":"07","name":"Rheinland-Pfalz"}},{"name":"Scheurebenweg","postalCode":"55583","locality":"Bad Kreuznach","municipality":{"key":"07133006","name":"Bad Kreuznach, Stadt","type":"Stadt"},"district":{"key":"07133","name":"Bad Kreuznach","type":"Landkreis"},"federalState":{"key":"07","name":"Rheinland-Pfalz"}},{"name":"Schillerstr.","postalCode":"55545","locality":"Bad Kreuznach","municipality":{"key":"07133006","name":"Bad Kreuznach, Stadt","type":"Stadt"},"district":{"key":"07133","name":"Bad Kreuznach","type":"Landkreis"},"federalState":{"key":"07","name":"Rheinland-Pfalz"}},{"name":"Schlarpshecke","postalCode":"55543","locality":"Bad Kreuznach","municipality":{"key":"07133006","name":"Bad Kreuznach, Stadt","type":"Stadt"},"district":{"key":"07133","name":"Bad Kreuznach","type":"Landkreis"},"federalState":{"key":"07","name":"Rheinland-Pfalz"}},{"name":"Schlesienstr.","postalCode":"55545","locality":"Bad Kreuznach","municipality":{"key":"07133006","name":"Bad Kreuznach, Stadt","type":"Stadt"},"district":{"key":"07133","name":"Bad Kreuznach","type":"Landkreis"},"federalState":{"key":"07","name":"Rheinland-Pfalz"}},{"name":"Schloßgartenstr.","postalCode":"55583","locality":"Bad Kreuznach","municipality":{"key":"07133006","name":"Bad Kreuznach, Stadt","type":"Stadt"},"district":{"key":"07133","name":"Bad Kreuznach","type":"Landkreis"},"federalState":{"key":"07","name":"Rheinland-Pfalz"}},{"name":"Schlosspark","postalCode":"55545","locality":"Bad Kreuznach","municipality":{"key":"07133006","name":"Bad Kreuznach, Stadt","type":"Stadt"},"district":{"key":"07133","name":"Bad Kreuznach","type":"Landkreis"},"federalState":{"key":"07","name":"Rheinland-Pfalz"}},{"name":"Schloßplatz","postalCode":"55543","locality":"Bad Kreuznach","municipality":{"key":"07133006","name":"Bad Kreuznach, Stadt","type":"Stadt"},"district":{"key":"07133","name":"Bad Kreuznach","type":"Landkreis"},"federalState":{"key":"07","name":"Rheinland-Pfalz"}},{"name":"Schloßstr.","postalCode":"55543","locality":"Bad Kreuznach","municipality":{"key":"07133006","name":"Bad Kreuznach, Stadt","type":"Stadt"},"district":{"key":"07133","name":"Bad Kreuznach","type":"Landkreis"},"federalState":{"key":"07","name":"Rheinland-Pfalz"}},{"name":"Schmiedgasse","postalCode":"55545","locality":"Bad Kreuznach","municipality":{"key":"07133006","name":"Bad Kreuznach, Stadt","type":"Stadt"},"district":{"key":"07133","name":"Bad Kreuznach","type":"Landkreis"},"federalState":{"key":"07","name":"Rheinland-Pfalz"}},{"name":"Schneegans-Str.","postalCode":"55543","locality":"Bad Kreuznach","municipality":{"key":"07133006","name":"Bad Kreuznach, Stadt","type":"Stadt"},"district":{"key":"07133","name":"Bad Kreuznach","type":"Landkreis"},"federalState":{"key":"07","name":"Rheinland-Pfalz"}},{"name":"Schnuckenack-Reinhardt-Str.","postalCode":"55543","locality":"Bad Kreuznach","municipality":{"key":"07133006","name":"Bad Kreuznach, Stadt","type":"Stadt"},"district":{"key":"07133","name":"Bad Kreuznach","type":"Landkreis"},"federalState":{"key":"07","name":"Rheinland-Pfalz"}},{"name":"Schöffenstr.","postalCode":"55543","locality":"Bad Kreuznach","municipality":{"key":"07133006","name":"Bad Kreuznach, Stadt","type":"Stadt"},"district":{"key":"07133","name":"Bad Kreuznach","type":"Landkreis"},"federalState":{"key":"07","name":"Rheinland-Pfalz"}},{"name":"Schöne Aussicht","postalCode":"55545","locality":"Bad Kreuznach","municipality":{"key":"07133006","name":"Bad Kreuznach, Stadt","type":"Stadt"},"district":{"key":"07133","name":"Bad Kreuznach","type":"Landkreis"},"federalState":{"key":"07","name":"Rheinland-Pfalz"}},{"name":"Schöne Aussicht","postalCode":"55583","locality":"Bad Kreuznach","municipality":{"key":"07133006","name":"Bad Kreuznach, Stadt","type":"Stadt"},"district":{"key":"07133","name":"Bad Kreuznach","type":"Landkreis"},"federalState":{"key":"07","name":"Rheinland-Pfalz"}},{"name":"Schubertstr.","postalCode":"55543","locality":"Bad Kreuznach","municipality":{"key":"07133006","name":"Bad Kreuznach, Stadt","type":"Stadt"},"district":{"key":"07133","name":"Bad Kreuznach","type":"Landkreis"},"federalState":{"key":"07","name":"Rheinland-Pfalz"}},{"name":"Schuhgasse","postalCode":"55545","locality":"Bad Kreuznach","municipality":{"key":"07133006","name":"Bad Kreuznach, Stadt","type":"Stadt"},"district":{"key":"07133","name":"Bad Kreuznach","type":"Landkreis"},"federalState":{"key":"07","name":"Rheinland-Pfalz"}},{"name":"Schumannstr.","postalCode":"55543","locality":"Bad Kreuznach","municipality":{"key":"07133006","name":"Bad Kreuznach, Stadt","type":"Stadt"},"district":{"key":"07133","name":"Bad Kreuznach","type":"Landkreis"},"federalState":{"key":"07","name":"Rheinland-Pfalz"}},{"name":"Schweppenhausener Str.","postalCode":"55545","locality":"Bad Kreuznach","municipality":{"key":"07133006","name":"Bad Kreuznach, Stadt","type":"Stadt"},"district":{"key":"07133","name":"Bad Kreuznach","type":"Landkreis"},"federalState":{"key":"07","name":"Rheinland-Pfalz"}},{"name":"Seeber Flur","postalCode":"55545","locality":"Bad Kreuznach","municipality":{"key":"07133006","name":"Bad Kreuznach, Stadt","type":"Stadt"},"district":{"key":"07133","name":"Bad Kreuznach","type":"Landkreis"},"federalState":{"key":"07","name":"Rheinland-Pfalz"}},{"name":"Segelfalterweg","postalCode":"55543","locality":"Bad Kreuznach","municipality":{"key":"07133006","name":"Bad Kreuznach, Stadt","type":"Stadt"},"district":{"key":"07133","name":"Bad Kreuznach","type":"Landkreis"},"federalState":{"key":"07","name":"Rheinland-Pfalz"}},{"name":"Seitzstr.","postalCode":"55543","locality":"Bad Kreuznach","municipality":{"key":"07133006","name":"Bad Kreuznach, Stadt","type":"Stadt"},"district":{"key":"07133","name":"Bad Kreuznach","type":"Landkreis"},"federalState":{"key":"07","name":"Rheinland-Pfalz"}},{"name":"Siemensstr.","postalCode":"55543","locality":"Bad Kreuznach","municipality":{"key":"07133006","name":"Bad Kreuznach, Stadt","type":"Stadt"},"district":{"key":"07133","name":"Bad Kreuznach","type":"Landkreis"},"federalState":{"key":"07","name":"Rheinland-Pfalz"}},{"name":"Sigismundstr.","postalCode":"55543","locality":"Bad Kreuznach","municipality":{"key":"07133006","name":"Bad Kreuznach, Stadt","type":"Stadt"},"district":{"key":"07133","name":"Bad Kreuznach","type":"Landkreis"},"federalState":{"key":"07","name":"Rheinland-Pfalz"}},{"name":"Silonia-Str.","postalCode":"55545","locality":"Bad Kreuznach","municipality":{"key":"07133006","name":"Bad Kreuznach, Stadt","type":"Stadt"},"district":{"key":"07133","name":"Bad Kreuznach","type":"Landkreis"},"federalState":{"key":"07","name":"Rheinland-Pfalz"}},{"name":"Silvanerweg","postalCode":"55583","locality":"Bad Kreuznach","municipality":{"key":"07133006","name":"Bad Kreuznach, Stadt","type":"Stadt"},"district":{"key":"07133","name":"Bad Kreuznach","type":"Landkreis"},"federalState":{"key":"07","name":"Rheinland-Pfalz"}},{"name":"Simsa-Str.","postalCode":"55543","locality":"Bad Kreuznach","municipality":{"key":"07133006","name":"Bad Kreuznach, Stadt","type":"Stadt"},"district":{"key":"07133","name":"Bad Kreuznach","type":"Landkreis"},"federalState":{"key":"07","name":"Rheinland-Pfalz"}},{"name":"Sonnenberg","postalCode":"55545","locality":"Bad Kreuznach","municipality":{"key":"07133006","name":"Bad Kreuznach, Stadt","type":"Stadt"},"district":{"key":"07133","name":"Bad Kreuznach","type":"Landkreis"},"federalState":{"key":"07","name":"Rheinland-Pfalz"}},{"name":"Soonblick","postalCode":"55543","locality":"Bad Kreuznach","municipality":{"key":"07133006","name":"Bad Kreuznach, Stadt","type":"Stadt"},"district":{"key":"07133","name":"Bad Kreuznach","type":"Landkreis"},"federalState":{"key":"07","name":"Rheinland-Pfalz"}},{"name":"Sophie Sondhelm Weg","postalCode":"55543","locality":"Bad Kreuznach","municipality":{"key":"07133006","name":"Bad Kreuznach, Stadt","type":"Stadt"},"district":{"key":"07133","name":"Bad Kreuznach","type":"Landkreis"},"federalState":{"key":"07","name":"Rheinland-Pfalz"}},{"name":"Spätburgunderweg","postalCode":"55543","locality":"Bad Kreuznach","municipality":{"key":"07133006","name":"Bad Kreuznach, Stadt","type":"Stadt"},"district":{"key":"07133","name":"Bad Kreuznach","type":"Landkreis"},"federalState":{"key":"07","name":"Rheinland-Pfalz"}},{"name":"Speckerbrücke","postalCode":"55583","locality":"Bad Kreuznach","municipality":{"key":"07133006","name":"Bad Kreuznach, Stadt","type":"Stadt"},"district":{"key":"07133","name":"Bad Kreuznach","type":"Landkreis"},"federalState":{"key":"07","name":"Rheinland-Pfalz"}},{"name":"Sponheimer Str.","postalCode":"55543","locality":"Bad Kreuznach","municipality":{"key":"07133006","name":"Bad Kreuznach, Stadt","type":"Stadt"},"district":{"key":"07133","name":"Bad Kreuznach","type":"Landkreis"},"federalState":{"key":"07","name":"Rheinland-Pfalz"}},{"name":"Starenweg","postalCode":"55583","locality":"Bad Kreuznach","municipality":{"key":"07133006","name":"Bad Kreuznach, Stadt","type":"Stadt"},"district":{"key":"07133","name":"Bad Kreuznach","type":"Landkreis"},"federalState":{"key":"07","name":"Rheinland-Pfalz"}},{"name":"Steige","postalCode":"55545","locality":"Bad Kreuznach","municipality":{"key":"07133006","name":"Bad Kreuznach, Stadt","type":"Stadt"},"district":{"key":"07133","name":"Bad Kreuznach","type":"Landkreis"},"federalState":{"key":"07","name":"Rheinland-Pfalz"}},{"name":"Steinkaut","postalCode":"55543","locality":"Bad Kreuznach","municipality":{"key":"07133006","name":"Bad Kreuznach, Stadt","type":"Stadt"},"district":{"key":"07133","name":"Bad Kreuznach","type":"Landkreis"},"federalState":{"key":"07","name":"Rheinland-Pfalz"}},{"name":"Steinkauzweg","postalCode":"55543","locality":"Bad Kreuznach","municipality":{"key":"07133006","name":"Bad Kreuznach, Stadt","type":"Stadt"},"district":{"key":"07133","name":"Bad Kreuznach","type":"Landkreis"},"federalState":{"key":"07","name":"Rheinland-Pfalz"}},{"name":"Steinweg","postalCode":"55545","locality":"Bad Kreuznach","municipality":{"key":"07133006","name":"Bad Kreuznach, Stadt","type":"Stadt"},"district":{"key":"07133","name":"Bad Kreuznach","type":"Landkreis"},"federalState":{"key":"07","name":"Rheinland-Pfalz"}},{"name":"Stettiner Str.","postalCode":"55543","locality":"Bad Kreuznach","municipality":{"key":"07133006","name":"Bad Kreuznach, Stadt","type":"Stadt"},"district":{"key":"07133","name":"Bad Kreuznach","type":"Landkreis"},"federalState":{"key":"07","name":"Rheinland-Pfalz"}},{"name":"Steubenstr.","postalCode":"55543","locality":"Bad Kreuznach","municipality":{"key":"07133006","name":"Bad Kreuznach, Stadt","type":"Stadt"},"district":{"key":"07133","name":"Bad Kreuznach","type":"Landkreis"},"federalState":{"key":"07","name":"Rheinland-Pfalz"}},{"name":"St.-Gordianus-Str.","postalCode":"55545","locality":"Bad Kreuznach","municipality":{"key":"07133006","name":"Bad Kreuznach, Stadt","type":"Stadt"},"district":{"key":"07133","name":"Bad Kreuznach","type":"Landkreis"},"federalState":{"key":"07","name":"Rheinland-Pfalz"}},{"name":"Talstr.","postalCode":"55545","locality":"Bad Kreuznach","municipality":{"key":"07133006","name":"Bad Kreuznach, Stadt","type":"Stadt"},"district":{"key":"07133","name":"Bad Kreuznach","type":"Landkreis"},"federalState":{"key":"07","name":"Rheinland-Pfalz"}},{"name":"Tannenwäldchen","postalCode":"55543","locality":"Bad Kreuznach","municipality":{"key":"07133006","name":"Bad Kreuznach, Stadt","type":"Stadt"},"district":{"key":"07133","name":"Bad Kreuznach","type":"Landkreis"},"federalState":{"key":"07","name":"Rheinland-Pfalz"}},{"name":"Tannenweg","postalCode":"55545","locality":"Bad Kreuznach","municipality":{"key":"07133006","name":"Bad Kreuznach, Stadt","type":"Stadt"},"district":{"key":"07133","name":"Bad Kreuznach","type":"Landkreis"},"federalState":{"key":"07","name":"Rheinland-Pfalz"}},{"name":"Teutonenstr.","postalCode":"55545","locality":"Bad Kreuznach","municipality":{"key":"07133006","name":"Bad Kreuznach, Stadt","type":"Stadt"},"district":{"key":"07133","name":"Bad Kreuznach","type":"Landkreis"},"federalState":{"key":"07","name":"Rheinland-Pfalz"}},{"name":"Thorner Str.","postalCode":"55543","locality":"Bad Kreuznach","municipality":{"key":"07133006","name":"Bad Kreuznach, Stadt","type":"Stadt"},"district":{"key":"07133","name":"Bad Kreuznach","type":"Landkreis"},"federalState":{"key":"07","name":"Rheinland-Pfalz"}},{"name":"Tilgesbrunnenstr.","postalCode":"55543","locality":"Bad Kreuznach","municipality":{"key":"07133006","name":"Bad Kreuznach, Stadt","type":"Stadt"},"district":{"key":"07133","name":"Bad Kreuznach","type":"Landkreis"},"federalState":{"key":"07","name":"Rheinland-Pfalz"}},{"name":"Tilgesbrunner Weg","postalCode":"55543","locality":"Bad Kreuznach","municipality":{"key":"07133006","name":"Bad Kreuznach, Stadt","type":"Stadt"},"district":{"key":"07133","name":"Bad Kreuznach","type":"Landkreis"},"federalState":{"key":"07","name":"Rheinland-Pfalz"}},{"name":"Tilsiter Str.","postalCode":"55543","locality":"Bad Kreuznach","municipality":{"key":"07133006","name":"Bad Kreuznach, Stadt","type":"Stadt"},"district":{"key":"07133","name":"Bad Kreuznach","type":"Landkreis"},"federalState":{"key":"07","name":"Rheinland-Pfalz"}},{"name":"Töpferstr.","postalCode":"55543","locality":"Bad Kreuznach","municipality":{"key":"07133006","name":"Bad Kreuznach, Stadt","type":"Stadt"},"district":{"key":"07133","name":"Bad Kreuznach","type":"Landkreis"},"federalState":{"key":"07","name":"Rheinland-Pfalz"}},{"name":"Traminerstr.","postalCode":"55543","locality":"Bad Kreuznach","municipality":{"key":"07133006","name":"Bad Kreuznach, Stadt","type":"Stadt"},"district":{"key":"07133","name":"Bad Kreuznach","type":"Landkreis"},"federalState":{"key":"07","name":"Rheinland-Pfalz"}},{"name":"Traubenstr.","postalCode":"55543","locality":"Bad Kreuznach","municipality":{"key":"07133006","name":"Bad Kreuznach, Stadt","type":"Stadt"},"district":{"key":"07133","name":"Bad Kreuznach","type":"Landkreis"},"federalState":{"key":"07","name":"Rheinland-Pfalz"}},{"name":"Triftstr.","postalCode":"55583","locality":"Bad Kreuznach","municipality":{"key":"07133006","name":"Bad Kreuznach, Stadt","type":"Stadt"},"district":{"key":"07133","name":"Bad Kreuznach","type":"Landkreis"},"federalState":{"key":"07","name":"Rheinland-Pfalz"}},{"name":"Turmstr.","postalCode":"55583","locality":"Bad Kreuznach","municipality":{"key":"07133006","name":"Bad Kreuznach, Stadt","type":"Stadt"},"district":{"key":"07133","name":"Bad Kreuznach","type":"Landkreis"},"federalState":{"key":"07","name":"Rheinland-Pfalz"}},{"name":"Untere Bergstr.","postalCode":"55592","locality":"Raumbach","municipality":{"key":"07133081","name":"Raumbach","type":"Kreisangehörige_Gemeinde"},"district":{"key":"07133","name":"Bad Kreuznach","type":"Landkreis"},"federalState":{"key":"07","name":"Rheinland-Pfalz"}},{"name":"Van-Recum-Str.","postalCode":"55545","locality":"Bad Kreuznach","municipality":{"key":"07133006","name":"Bad Kreuznach, Stadt","type":"Stadt"},"district":{"key":"07133","name":"Bad Kreuznach","type":"Landkreis"},"federalState":{"key":"07","name":"Rheinland-Pfalz"}},{"name":"Victorinusstr.","postalCode":"55545","locality":"Bad Kreuznach","municipality":{"key":"07133006","name":"Bad Kreuznach, Stadt","type":"Stadt"},"district":{"key":"07133","name":"Bad Kreuznach","type":"Landkreis"},"federalState":{"key":"07","name":"Rheinland-Pfalz"}},{"name":"Viktoriastr.","postalCode":"55543","locality":"Bad Kreuznach","municipality":{"key":"07133006","name":"Bad Kreuznach, Stadt","type":"Stadt"},"district":{"key":"07133","name":"Bad Kreuznach","type":"Landkreis"},"federalState":{"key":"07","name":"Rheinland-Pfalz"}},{"name":"Vordere Grabenstr.","postalCode":"55545","locality":"Bad Kreuznach","municipality":{"key":"07133006","name":"Bad Kreuznach, Stadt","type":"Stadt"},"district":{"key":"07133","name":"Bad Kreuznach","type":"Landkreis"},"federalState":{"key":"07","name":"Rheinland-Pfalz"}},{"name":"Wiesenweg","postalCode":"55592","locality":"Raumbach","municipality":{"key":"07133081","name":"Raumbach","type":"Kreisangehörige_Gemeinde"},"district":{"key":"07133","name":"Bad Kreuznach","type":"Landkreis"},"federalState":{"key":"07","name":"Rheinland-Pfalz"}},{"name":"Zur schönen Aussicht","postalCode":"55592","locality":"Raumbach","municipality":{"key":"07133081","name":"Raumbach","type":"Kreisangehörige_Gemeinde"},"district":{"key":"07133","name":"Bad Kreuznach","type":"Landkreis"},"federalState":{"key":"07","name":"Rheinland-Pfalz"}},{"name":"Zur Weiherwiese","postalCode":"55592","locality":"Raumbach","municipality":{"key":"07133081","name":"Raumbach","type":"Kreisangehörige_Gemeinde"},"district":{"key":"07133","name":"Bad Kreuznach","type":"Landkreis"},"federalState":{"key":"07","name":"Rheinland-Pfalz"}},]