[{"name":"Ahornweg","postalCode":"85111","locality":"Adelschlag","municipality":{"key":"09176111","name":"Adelschlag","type":"Kreisangehörige_Gemeinde"},"district":{"key":"09176","name":"Eichstätt","type":"Landkreis"},"federalState":{"key":"09","name":"Bayern"}},{"name":"Am Anger","postalCode":"85111","locality":"Adelschlag","municipality":{"key":"09176111","name":"Adelschlag","type":"Kreisangehörige_Gemeinde"},"district":{"key":"09176","name":"Eichstätt","type":"Landkreis"},"federalState":{"key":"09","name":"Bayern"}},{"name":"Am Bleichgarten","postalCode":"85111","locality":"Adelschlag","municipality":{"key":"09176111","name":"Adelschlag","type":"Kreisangehörige_Gemeinde"},"district":{"key":"09176","name":"Eichstätt","type":"Landkreis"},"federalState":{"key":"09","name":"Bayern"}},{"name":"Am Bründl","postalCode":"85111","locality":"Adelschlag","municipality":{"key":"09176111","name":"Adelschlag","type":"Kreisangehörige_Gemeinde"},"district":{"key":"09176","name":"Eichstätt","type":"Landkreis"},"federalState":{"key":"09","name":"Bayern"}},{"name":"Am Dorfplatz","postalCode":"85111","locality":"Adelschlag","municipality":{"key":"09176111","name":"Adelschlag","type":"Kreisangehörige_Gemeinde"},"district":{"key":"09176","name":"Eichstätt","type":"Landkreis"},"federalState":{"key":"09","name":"Bayern"}},{"name":"Am Gießgraben","postalCode":"85111","locality":"Adelschlag","municipality":{"key":"09176111","name":"Adelschlag","type":"Kreisangehörige_Gemeinde"},"district":{"key":"09176","name":"Eichstätt","type":"Landkreis"},"federalState":{"key":"09","name":"Bayern"}},{"name":"Am Graben","postalCode":"85111","locality":"Adelschlag","municipality":{"key":"09176111","name":"Adelschlag","type":"Kreisangehörige_Gemeinde"},"district":{"key":"09176","name":"Eichstätt","type":"Landkreis"},"federalState":{"key":"09","name":"Bayern"}},{"name":"Am Hang","postalCode":"85111","locality":"Adelschlag","municipality":{"key":"09176111","name":"Adelschlag","type":"Kreisangehörige_Gemeinde"},"district":{"key":"09176","name":"Eichstätt","type":"Landkreis"},"federalState":{"key":"09","name":"Bayern"}},{"name":"Am Hasenbergl","postalCode":"85111","locality":"Adelschlag","municipality":{"key":"09176111","name":"Adelschlag","type":"Kreisangehörige_Gemeinde"},"district":{"key":"09176","name":"Eichstätt","type":"Landkreis"},"federalState":{"key":"09","name":"Bayern"}},{"name":"Am Hirtenbuck","postalCode":"85111","locality":"Adelschlag","municipality":{"key":"09176111","name":"Adelschlag","type":"Kreisangehörige_Gemeinde"},"district":{"key":"09176","name":"Eichstätt","type":"Landkreis"},"federalState":{"key":"09","name":"Bayern"}},{"name":"Am Kreuzacker","postalCode":"85111","locality":"Adelschlag","municipality":{"key":"09176111","name":"Adelschlag","type":"Kreisangehörige_Gemeinde"},"district":{"key":"09176","name":"Eichstätt","type":"Landkreis"},"federalState":{"key":"09","name":"Bayern"}},{"name":"Am Lerchenhang","postalCode":"85111","locality":"Adelschlag","municipality":{"key":"09176111","name":"Adelschlag","type":"Kreisangehörige_Gemeinde"},"district":{"key":"09176","name":"Eichstätt","type":"Landkreis"},"federalState":{"key":"09","name":"Bayern"}},{"name":"Amselweg","postalCode":"85111","locality":"Adelschlag","municipality":{"key":"09176111","name":"Adelschlag","type":"Kreisangehörige_Gemeinde"},"district":{"key":"09176","name":"Eichstätt","type":"Landkreis"},"federalState":{"key":"09","name":"Bayern"}},{"name":"Am Sportplatz","postalCode":"85111","locality":"Adelschlag","municipality":{"key":"09176111","name":"Adelschlag","type":"Kreisangehörige_Gemeinde"},"district":{"key":"09176","name":"Eichstätt","type":"Landkreis"},"federalState":{"key":"09","name":"Bayern"}},{"name":"Am Wasserwerk","postalCode":"85111","locality":"Adelschlag","municipality":{"key":"09176111","name":"Adelschlag","type":"Kreisangehörige_Gemeinde"},"district":{"key":"09176","name":"Eichstätt","type":"Landkreis"},"federalState":{"key":"09","name":"Bayern"}},{"name":"Am Weiher","postalCode":"85111","locality":"Adelschlag","municipality":{"key":"09176111","name":"Adelschlag","type":"Kreisangehörige_Gemeinde"},"district":{"key":"09176","name":"Eichstätt","type":"Landkreis"},"federalState":{"key":"09","name":"Bayern"}},{"name":"Am Wiesenrain","postalCode":"85111","locality":"Adelschlag","municipality":{"key":"09176111","name":"Adelschlag","type":"Kreisangehörige_Gemeinde"},"district":{"key":"09176","name":"Eichstätt","type":"Landkreis"},"federalState":{"key":"09","name":"Bayern"}},{"name":"Angerweg","postalCode":"85111","locality":"Adelschlag","municipality":{"key":"09176111","name":"Adelschlag","type":"Kreisangehörige_Gemeinde"},"district":{"key":"09176","name":"Eichstätt","type":"Landkreis"},"federalState":{"key":"09","name":"Bayern"}},{"name":"Auhang","postalCode":"85111","locality":"Adelschlag","municipality":{"key":"09176111","name":"Adelschlag","type":"Kreisangehörige_Gemeinde"},"district":{"key":"09176","name":"Eichstätt","type":"Landkreis"},"federalState":{"key":"09","name":"Bayern"}},{"name":"Austr.","postalCode":"85111","locality":"Adelschlag","municipality":{"key":"09176111","name":"Adelschlag","type":"Kreisangehörige_Gemeinde"},"district":{"key":"09176","name":"Eichstätt","type":"Landkreis"},"federalState":{"key":"09","name":"Bayern"}},{"name":"Auweg","postalCode":"85111","locality":"Adelschlag","municipality":{"key":"09176111","name":"Adelschlag","type":"Kreisangehörige_Gemeinde"},"district":{"key":"09176","name":"Eichstätt","type":"Landkreis"},"federalState":{"key":"09","name":"Bayern"}},{"name":"Bahnhofstr.","postalCode":"85111","locality":"Adelschlag","municipality":{"key":"09176111","name":"Adelschlag","type":"Kreisangehörige_Gemeinde"},"district":{"key":"09176","name":"Eichstätt","type":"Landkreis"},"federalState":{"key":"09","name":"Bayern"}},{"name":"Biesenharder Str.","postalCode":"85111","locality":"Adelschlag","municipality":{"key":"09176111","name":"Adelschlag","type":"Kreisangehörige_Gemeinde"},"district":{"key":"09176","name":"Eichstätt","type":"Landkreis"},"federalState":{"key":"09","name":"Bayern"}},{"name":"Birkenweg","postalCode":"85111","locality":"Adelschlag","municipality":{"key":"09176111","name":"Adelschlag","type":"Kreisangehörige_Gemeinde"},"district":{"key":"09176","name":"Eichstätt","type":"Landkreis"},"federalState":{"key":"09","name":"Bayern"}},{"name":"Borkenweg","postalCode":"85111","locality":"Adelschlag","municipality":{"key":"09176111","name":"Adelschlag","type":"Kreisangehörige_Gemeinde"},"district":{"key":"09176","name":"Eichstätt","type":"Landkreis"},"federalState":{"key":"09","name":"Bayern"}},{"name":"Brunnenweg","postalCode":"85111","locality":"Adelschlag","municipality":{"key":"09176111","name":"Adelschlag","type":"Kreisangehörige_Gemeinde"},"district":{"key":"09176","name":"Eichstätt","type":"Landkreis"},"federalState":{"key":"09","name":"Bayern"}},{"name":"Buchenweg","postalCode":"85111","locality":"Adelschlag","municipality":{"key":"09176111","name":"Adelschlag","type":"Kreisangehörige_Gemeinde"},"district":{"key":"09176","name":"Eichstätt","type":"Landkreis"},"federalState":{"key":"09","name":"Bayern"}},{"name":"Buxheimer Weg","postalCode":"85111","locality":"Adelschlag","municipality":{"key":"09176111","name":"Adelschlag","type":"Kreisangehörige_Gemeinde"},"district":{"key":"09176","name":"Eichstätt","type":"Landkreis"},"federalState":{"key":"09","name":"Bayern"}},{"name":"Castellweg","postalCode":"85072","locality":"Eichstätt","municipality":{"key":"09176123","name":"Eichstätt, GKSt","type":"Große_Kreisstadt"},"district":{"key":"09176","name":"Eichstätt","type":"Landkreis"},"federalState":{"key":"09","name":"Bayern"}},{"name":"Christian-Wink-Str.","postalCode":"85072","locality":"Eichstätt","municipality":{"key":"09176123","name":"Eichstätt, GKSt","type":"Große_Kreisstadt"},"district":{"key":"09176","name":"Eichstätt","type":"Landkreis"},"federalState":{"key":"09","name":"Bayern"}},{"name":"Christoph-Willibald-Gluck-Weg","postalCode":"85072","locality":"Eichstätt","municipality":{"key":"09176123","name":"Eichstätt, GKSt","type":"Große_Kreisstadt"},"district":{"key":"09176","name":"Eichstätt","type":"Landkreis"},"federalState":{"key":"09","name":"Bayern"}},{"name":"Clara-Staiger-Str.","postalCode":"85072","locality":"Eichstätt","municipality":{"key":"09176123","name":"Eichstätt, GKSt","type":"Große_Kreisstadt"},"district":{"key":"09176","name":"Eichstätt","type":"Landkreis"},"federalState":{"key":"09","name":"Bayern"}},{"name":"Dörrweg","postalCode":"85111","locality":"Adelschlag","municipality":{"key":"09176111","name":"Adelschlag","type":"Kreisangehörige_Gemeinde"},"district":{"key":"09176","name":"Eichstätt","type":"Landkreis"},"federalState":{"key":"09","name":"Bayern"}},{"name":"Eichstätter Str.","postalCode":"85111","locality":"Adelschlag","municipality":{"key":"09176111","name":"Adelschlag","type":"Kreisangehörige_Gemeinde"},"district":{"key":"09176","name":"Eichstätt","type":"Landkreis"},"federalState":{"key":"09","name":"Bayern"}},{"name":"Eichstätter Weg","postalCode":"85111","locality":"Adelschlag","municipality":{"key":"09176111","name":"Adelschlag","type":"Kreisangehörige_Gemeinde"},"district":{"key":"09176","name":"Eichstätt","type":"Landkreis"},"federalState":{"key":"09","name":"Bayern"}},{"name":"Flußweg","postalCode":"85111","locality":"Adelschlag","municipality":{"key":"09176111","name":"Adelschlag","type":"Kreisangehörige_Gemeinde"},"district":{"key":"09176","name":"Eichstätt","type":"Landkreis"},"federalState":{"key":"09","name":"Bayern"}},{"name":"Försterweg","postalCode":"85111","locality":"Adelschlag","municipality":{"key":"09176111","name":"Adelschlag","type":"Kreisangehörige_Gemeinde"},"district":{"key":"09176","name":"Eichstätt","type":"Landkreis"},"federalState":{"key":"09","name":"Bayern"}},{"name":"Frühlingstr.","postalCode":"85111","locality":"Adelschlag","municipality":{"key":"09176111","name":"Adelschlag","type":"Kreisangehörige_Gemeinde"},"district":{"key":"09176","name":"Eichstätt","type":"Landkreis"},"federalState":{"key":"09","name":"Bayern"}},{"name":"Gartenweg","postalCode":"85111","locality":"Adelschlag","municipality":{"key":"09176111","name":"Adelschlag","type":"Kreisangehörige_Gemeinde"},"district":{"key":"09176","name":"Eichstätt","type":"Landkreis"},"federalState":{"key":"09","name":"Bayern"}},{"name":"Gewendewiesen","postalCode":"85111","locality":"Adelschlag","municipality":{"key":"09176111","name":"Adelschlag","type":"Kreisangehörige_Gemeinde"},"district":{"key":"09176","name":"Eichstätt","type":"Landkreis"},"federalState":{"key":"09","name":"Bayern"}},{"name":"Hauptstr.","postalCode":"85111","locality":"Adelschlag","municipality":{"key":"09176111","name":"Adelschlag","type":"Kreisangehörige_Gemeinde"},"district":{"key":"09176","name":"Eichstätt","type":"Landkreis"},"federalState":{"key":"09","name":"Bayern"}},{"name":"Hellerberg Str.","postalCode":"85111","locality":"Adelschlag","municipality":{"key":"09176111","name":"Adelschlag","type":"Kreisangehörige_Gemeinde"},"district":{"key":"09176","name":"Eichstätt","type":"Landkreis"},"federalState":{"key":"09","name":"Bayern"}},{"name":"Hofstetter Weg","postalCode":"85111","locality":"Adelschlag","municipality":{"key":"09176111","name":"Adelschlag","type":"Kreisangehörige_Gemeinde"},"district":{"key":"09176","name":"Eichstätt","type":"Landkreis"},"federalState":{"key":"09","name":"Bayern"}},{"name":"Im Hardt","postalCode":"85111","locality":"Adelschlag","municipality":{"key":"09176111","name":"Adelschlag","type":"Kreisangehörige_Gemeinde"},"district":{"key":"09176","name":"Eichstätt","type":"Landkreis"},"federalState":{"key":"09","name":"Bayern"}},{"name":"Ingolstädter Str.","postalCode":"85111","locality":"Adelschlag","municipality":{"key":"09176111","name":"Adelschlag","type":"Kreisangehörige_Gemeinde"},"district":{"key":"09176","name":"Eichstätt","type":"Landkreis"},"federalState":{"key":"09","name":"Bayern"}},{"name":"Josefinenweg","postalCode":"85111","locality":"Adelschlag","municipality":{"key":"09176111","name":"Adelschlag","type":"Kreisangehörige_Gemeinde"},"district":{"key":"09176","name":"Eichstätt","type":"Landkreis"},"federalState":{"key":"09","name":"Bayern"}},{"name":"Jurastr.","postalCode":"85111","locality":"Adelschlag","municipality":{"key":"09176111","name":"Adelschlag","type":"Kreisangehörige_Gemeinde"},"district":{"key":"09176","name":"Eichstätt","type":"Landkreis"},"federalState":{"key":"09","name":"Bayern"}},{"name":"Kapellenweg","postalCode":"85111","locality":"Adelschlag","municipality":{"key":"09176111","name":"Adelschlag","type":"Kreisangehörige_Gemeinde"},"district":{"key":"09176","name":"Eichstätt","type":"Landkreis"},"federalState":{"key":"09","name":"Bayern"}},{"name":"Kastanienweg","postalCode":"85111","locality":"Adelschlag","municipality":{"key":"09176111","name":"Adelschlag","type":"Kreisangehörige_Gemeinde"},"district":{"key":"09176","name":"Eichstätt","type":"Landkreis"},"federalState":{"key":"09","name":"Bayern"}},{"name":"Katharinenweg","postalCode":"85111","locality":"Adelschlag","municipality":{"key":"09176111","name":"Adelschlag","type":"Kreisangehörige_Gemeinde"},"district":{"key":"09176","name":"Eichstätt","type":"Landkreis"},"federalState":{"key":"09","name":"Bayern"}},{"name":"Keltenstr.","postalCode":"85111","locality":"Adelschlag","municipality":{"key":"09176111","name":"Adelschlag","type":"Kreisangehörige_Gemeinde"},"district":{"key":"09176","name":"Eichstätt","type":"Landkreis"},"federalState":{"key":"09","name":"Bayern"}},{"name":"Kirchenbug","postalCode":"85111","locality":"Adelschlag","municipality":{"key":"09176111","name":"Adelschlag","type":"Kreisangehörige_Gemeinde"},"district":{"key":"09176","name":"Eichstätt","type":"Landkreis"},"federalState":{"key":"09","name":"Bayern"}},{"name":"Kirchenstr.","postalCode":"85111","locality":"Adelschlag","municipality":{"key":"09176111","name":"Adelschlag","type":"Kreisangehörige_Gemeinde"},"district":{"key":"09176","name":"Eichstätt","type":"Landkreis"},"federalState":{"key":"09","name":"Bayern"}},{"name":"Kirchstr.","postalCode":"85111","locality":"Adelschlag","municipality":{"key":"09176111","name":"Adelschlag","type":"Kreisangehörige_Gemeinde"},"district":{"key":"09176","name":"Eichstätt","type":"Landkreis"},"federalState":{"key":"09","name":"Bayern"}},{"name":"Lindenstr.","postalCode":"85111","locality":"Adelschlag","municipality":{"key":"09176111","name":"Adelschlag","type":"Kreisangehörige_Gemeinde"},"district":{"key":"09176","name":"Eichstätt","type":"Landkreis"},"federalState":{"key":"09","name":"Bayern"}},{"name":"Michaelstr.","postalCode":"85111","locality":"Adelschlag","municipality":{"key":"09176111","name":"Adelschlag","type":"Kreisangehörige_Gemeinde"},"district":{"key":"09176","name":"Eichstätt","type":"Landkreis"},"federalState":{"key":"09","name":"Bayern"}},{"name":"Mühlweg","postalCode":"85111","locality":"Adelschlag","municipality":{"key":"09176111","name":"Adelschlag","type":"Kreisangehörige_Gemeinde"},"district":{"key":"09176","name":"Eichstätt","type":"Landkreis"},"federalState":{"key":"09","name":"Bayern"}},{"name":"Notre-Dame-Weg","postalCode":"85072","locality":"Eichstätt","municipality":{"key":"09176123","name":"Eichstätt, GKSt","type":"Große_Kreisstadt"},"district":{"key":"09176","name":"Eichstätt","type":"Landkreis"},"federalState":{"key":"09","name":"Bayern"}},{"name":"Ochsenfelder Str.","postalCode":"85072","locality":"Eichstätt","municipality":{"key":"09176123","name":"Eichstätt, GKSt","type":"Große_Kreisstadt"},"district":{"key":"09176","name":"Eichstätt","type":"Landkreis"},"federalState":{"key":"09","name":"Bayern"}},{"name":"Oettingenstr.","postalCode":"85072","locality":"Eichstätt","municipality":{"key":"09176123","name":"Eichstätt, GKSt","type":"Große_Kreisstadt"},"district":{"key":"09176","name":"Eichstätt","type":"Landkreis"},"federalState":{"key":"09","name":"Bayern"}},{"name":"Osramweg","postalCode":"85072","locality":"Eichstätt","municipality":{"key":"09176123","name":"Eichstätt, GKSt","type":"Große_Kreisstadt"},"district":{"key":"09176","name":"Eichstätt","type":"Landkreis"},"federalState":{"key":"09","name":"Bayern"}},{"name":"Pfarrgasse","postalCode":"85111","locality":"Adelschlag","municipality":{"key":"09176111","name":"Adelschlag","type":"Kreisangehörige_Gemeinde"},"district":{"key":"09176","name":"Eichstätt","type":"Landkreis"},"federalState":{"key":"09","name":"Bayern"}},{"name":"Prielhofer Weg","postalCode":"85111","locality":"Adelschlag","municipality":{"key":"09176111","name":"Adelschlag","type":"Kreisangehörige_Gemeinde"},"district":{"key":"09176","name":"Eichstätt","type":"Landkreis"},"federalState":{"key":"09","name":"Bayern"}},{"name":"Römerstr.","postalCode":"85111","locality":"Adelschlag","municipality":{"key":"09176111","name":"Adelschlag","type":"Kreisangehörige_Gemeinde"},"district":{"key":"09176","name":"Eichstätt","type":"Landkreis"},"federalState":{"key":"09","name":"Bayern"}},{"name":"Römerweg","postalCode":"85111","locality":"Adelschlag","municipality":{"key":"09176111","name":"Adelschlag","type":"Kreisangehörige_Gemeinde"},"district":{"key":"09176","name":"Eichstätt","type":"Landkreis"},"federalState":{"key":"09","name":"Bayern"}},{"name":"Saumweg","postalCode":"85111","locality":"Adelschlag","municipality":{"key":"09176111","name":"Adelschlag","type":"Kreisangehörige_Gemeinde"},"district":{"key":"09176","name":"Eichstätt","type":"Landkreis"},"federalState":{"key":"09","name":"Bayern"}},{"name":"Schulweg","postalCode":"85111","locality":"Adelschlag","municipality":{"key":"09176111","name":"Adelschlag","type":"Kreisangehörige_Gemeinde"},"district":{"key":"09176","name":"Eichstätt","type":"Landkreis"},"federalState":{"key":"09","name":"Bayern"}},{"name":"Siedlung Weißenkirchen","postalCode":"85111","locality":"Adelschlag","municipality":{"key":"09176111","name":"Adelschlag","type":"Kreisangehörige_Gemeinde"},"district":{"key":"09176","name":"Eichstätt","type":"Landkreis"},"federalState":{"key":"09","name":"Bayern"}},{"name":"Sonnenhang","postalCode":"85111","locality":"Adelschlag","municipality":{"key":"09176111","name":"Adelschlag","type":"Kreisangehörige_Gemeinde"},"district":{"key":"09176","name":"Eichstätt","type":"Landkreis"},"federalState":{"key":"09","name":"Bayern"}},{"name":"Sonnenleite","postalCode":"85111","locality":"Adelschlag","municipality":{"key":"09176111","name":"Adelschlag","type":"Kreisangehörige_Gemeinde"},"district":{"key":"09176","name":"Eichstätt","type":"Landkreis"},"federalState":{"key":"09","name":"Bayern"}},{"name":"Sonnenstr.","postalCode":"85111","locality":"Adelschlag","municipality":{"key":"09176111","name":"Adelschlag","type":"Kreisangehörige_Gemeinde"},"district":{"key":"09176","name":"Eichstätt","type":"Landkreis"},"federalState":{"key":"09","name":"Bayern"}},{"name":"Sonnenweg","postalCode":"85111","locality":"Adelschlag","municipality":{"key":"09176111","name":"Adelschlag","type":"Kreisangehörige_Gemeinde"},"district":{"key":"09176","name":"Eichstätt","type":"Landkreis"},"federalState":{"key":"09","name":"Bayern"}},{"name":"Stadtweg","postalCode":"85111","locality":"Adelschlag","municipality":{"key":"09176111","name":"Adelschlag","type":"Kreisangehörige_Gemeinde"},"district":{"key":"09176","name":"Eichstätt","type":"Landkreis"},"federalState":{"key":"09","name":"Bayern"}},{"name":"Traubengäßchen","postalCode":"85072","locality":"Eichstätt","municipality":{"key":"09176123","name":"Eichstätt, GKSt","type":"Große_Kreisstadt"},"district":{"key":"09176","name":"Eichstätt","type":"Landkreis"},"federalState":{"key":"09","name":"Bayern"}},{"name":"Turmgasse","postalCode":"85072","locality":"Eichstätt","municipality":{"key":"09176123","name":"Eichstätt, GKSt","type":"Große_Kreisstadt"},"district":{"key":"09176","name":"Eichstätt","type":"Landkreis"},"federalState":{"key":"09","name":"Bayern"}},{"name":"Untere Bahnhofstr.","postalCode":"85111","locality":"Adelschlag","municipality":{"key":"09176111","name":"Adelschlag","type":"Kreisangehörige_Gemeinde"},"district":{"key":"09176","name":"Eichstätt","type":"Landkreis"},"federalState":{"key":"09","name":"Bayern"}},{"name":"Unterer See","postalCode":"85111","locality":"Adelschlag","municipality":{"key":"09176111","name":"Adelschlag","type":"Kreisangehörige_Gemeinde"},"district":{"key":"09176","name":"Eichstätt","type":"Landkreis"},"federalState":{"key":"09","name":"Bayern"}},{"name":"Vorderer Grund","postalCode":"85111","locality":"Adelschlag","municipality":{"key":"09176111","name":"Adelschlag","type":"Kreisangehörige_Gemeinde"},"district":{"key":"09176","name":"Eichstätt","type":"Landkreis"},"federalState":{"key":"09","name":"Bayern"}},{"name":"Walburgiweg","postalCode":"85111","locality":"Adelschlag","municipality":{"key":"09176111","name":"Adelschlag","type":"Kreisangehörige_Gemeinde"},"district":{"key":"09176","name":"Eichstätt","type":"Landkreis"},"federalState":{"key":"09","name":"Bayern"}},{"name":"Webergasse","postalCode":"85111","locality":"Adelschlag","municipality":{"key":"09176111","name":"Adelschlag","type":"Kreisangehörige_Gemeinde"},"district":{"key":"09176","name":"Eichstätt","type":"Landkreis"},"federalState":{"key":"09","name":"Bayern"}},{"name":"Wiesenstriegel","postalCode":"85111","locality":"Adelschlag","municipality":{"key":"09176111","name":"Adelschlag","type":"Kreisangehörige_Gemeinde"},"district":{"key":"09176","name":"Eichstätt","type":"Landkreis"},"federalState":{"key":"09","name":"Bayern"}},{"name":"Wiesenweg","postalCode":"85111","locality":"Adelschlag","municipality":{"key":"09176111","name":"Adelschlag","type":"Kreisangehörige_Gemeinde"},"district":{"key":"09176","name":"Eichstätt","type":"Landkreis"},"federalState":{"key":"09","name":"Bayern"}},{"name":"Wittenfelder Str.","postalCode":"85111","locality":"Adelschlag","municipality":{"key":"09176111","name":"Adelschlag","type":"Kreisangehörige_Gemeinde"},"district":{"key":"09176","name":"Eichstätt","type":"Landkreis"},"federalState":{"key":"09","name":"Bayern"}},{"name":"Wittmeßstr.","postalCode":"85111","locality":"Adelschlag","municipality":{"key":"09176111","name":"Adelschlag","type":"Kreisangehörige_Gemeinde"},"district":{"key":"09176","name":"Eichstätt","type":"Landkreis"},"federalState":{"key":"09","name":"Bayern"}},{"name":"Ziegeleiweg","postalCode":"85111","locality":"Adelschlag","municipality":{"key":"09176111","name":"Adelschlag","type":"Kreisangehörige_Gemeinde"},"district":{"key":"09176","name":"Eichstätt","type":"Landkreis"},"federalState":{"key":"09","name":"Bayern"}},{"name":"Zieglerstr.","postalCode":"85111","locality":"Adelschlag","municipality":{"key":"09176111","name":"Adelschlag","type":"Kreisangehörige_Gemeinde"},"district":{"key":"09176","name":"Eichstätt","type":"Landkreis"},"federalState":{"key":"09","name":"Bayern"}},{"name":"Zur Allee","postalCode":"85111","locality":"Adelschlag","municipality":{"key":"09176111","name":"Adelschlag","type":"Kreisangehörige_Gemeinde"},"district":{"key":"09176","name":"Eichstätt","type":"Landkreis"},"federalState":{"key":"09","name":"Bayern"}},]