[{"name":"Am Ahrbach","postalCode":"56412","locality":"Ruppach-Goldhausen","municipality":{"key":"07143065","name":"Ruppach-Goldhausen","type":"Kreisangehörige_Gemeinde"},"district":{"key":"07143","name":"Westerwaldkreis","type":"Landkreis"},"federalState":{"key":"07","name":"Rheinland-Pfalz"}},{"name":"Am Rupberg","postalCode":"56412","locality":"Ruppach-Goldhausen","municipality":{"key":"07143065","name":"Ruppach-Goldhausen","type":"Kreisangehörige_Gemeinde"},"district":{"key":"07143","name":"Westerwaldkreis","type":"Landkreis"},"federalState":{"key":"07","name":"Rheinland-Pfalz"}},{"name":"Auf dem Flurzaun","postalCode":"56412","locality":"Ruppach-Goldhausen","municipality":{"key":"07143065","name":"Ruppach-Goldhausen","type":"Kreisangehörige_Gemeinde"},"district":{"key":"07143","name":"Westerwaldkreis","type":"Landkreis"},"federalState":{"key":"07","name":"Rheinland-Pfalz"}},{"name":"Bahnhofstr.","postalCode":"56412","locality":"Ruppach-Goldhausen","municipality":{"key":"07143065","name":"Ruppach-Goldhausen","type":"Kreisangehörige_Gemeinde"},"district":{"key":"07143","name":"Westerwaldkreis","type":"Landkreis"},"federalState":{"key":"07","name":"Rheinland-Pfalz"}},{"name":"Bergstr.","postalCode":"56412","locality":"Ruppach-Goldhausen","municipality":{"key":"07143065","name":"Ruppach-Goldhausen","type":"Kreisangehörige_Gemeinde"},"district":{"key":"07143","name":"Westerwaldkreis","type":"Landkreis"},"federalState":{"key":"07","name":"Rheinland-Pfalz"}},{"name":"Bodener Weg","postalCode":"56412","locality":"Ruppach-Goldhausen","municipality":{"key":"07143065","name":"Ruppach-Goldhausen","type":"Kreisangehörige_Gemeinde"},"district":{"key":"07143","name":"Westerwaldkreis","type":"Landkreis"},"federalState":{"key":"07","name":"Rheinland-Pfalz"}},{"name":"Brunnenstr.","postalCode":"56412","locality":"Ruppach-Goldhausen","municipality":{"key":"07143065","name":"Ruppach-Goldhausen","type":"Kreisangehörige_Gemeinde"},"district":{"key":"07143","name":"Westerwaldkreis","type":"Landkreis"},"federalState":{"key":"07","name":"Rheinland-Pfalz"}},{"name":"Dammstr.","postalCode":"56412","locality":"Ruppach-Goldhausen","municipality":{"key":"07143065","name":"Ruppach-Goldhausen","type":"Kreisangehörige_Gemeinde"},"district":{"key":"07143","name":"Westerwaldkreis","type":"Landkreis"},"federalState":{"key":"07","name":"Rheinland-Pfalz"}},{"name":"Gartenstr.","postalCode":"56412","locality":"Ruppach-Goldhausen","municipality":{"key":"07143065","name":"Ruppach-Goldhausen","type":"Kreisangehörige_Gemeinde"},"district":{"key":"07143","name":"Westerwaldkreis","type":"Landkreis"},"federalState":{"key":"07","name":"Rheinland-Pfalz"}},{"name":"Hauptstr.","postalCode":"56412","locality":"Ruppach-Goldhausen","municipality":{"key":"07143065","name":"Ruppach-Goldhausen","type":"Kreisangehörige_Gemeinde"},"district":{"key":"07143","name":"Westerwaldkreis","type":"Landkreis"},"federalState":{"key":"07","name":"Rheinland-Pfalz"}},{"name":"Hofstr.","postalCode":"56412","locality":"Ruppach-Goldhausen","municipality":{"key":"07143065","name":"Ruppach-Goldhausen","type":"Kreisangehörige_Gemeinde"},"district":{"key":"07143","name":"Westerwaldkreis","type":"Landkreis"},"federalState":{"key":"07","name":"Rheinland-Pfalz"}},{"name":"Im Wassergraben","postalCode":"56412","locality":"Ruppach-Goldhausen","municipality":{"key":"07143065","name":"Ruppach-Goldhausen","type":"Kreisangehörige_Gemeinde"},"district":{"key":"07143","name":"Westerwaldkreis","type":"Landkreis"},"federalState":{"key":"07","name":"Rheinland-Pfalz"}},{"name":"In den Appelstücker","postalCode":"56412","locality":"Ruppach-Goldhausen","municipality":{"key":"07143065","name":"Ruppach-Goldhausen","type":"Kreisangehörige_Gemeinde"},"district":{"key":"07143","name":"Westerwaldkreis","type":"Landkreis"},"federalState":{"key":"07","name":"Rheinland-Pfalz"}},{"name":"In der Windling","postalCode":"56412","locality":"Ruppach-Goldhausen","municipality":{"key":"07143065","name":"Ruppach-Goldhausen","type":"Kreisangehörige_Gemeinde"},"district":{"key":"07143","name":"Westerwaldkreis","type":"Landkreis"},"federalState":{"key":"07","name":"Rheinland-Pfalz"}},{"name":"Kirchweg","postalCode":"56412","locality":"Ruppach-Goldhausen","municipality":{"key":"07143065","name":"Ruppach-Goldhausen","type":"Kreisangehörige_Gemeinde"},"district":{"key":"07143","name":"Westerwaldkreis","type":"Landkreis"},"federalState":{"key":"07","name":"Rheinland-Pfalz"}},{"name":"Mühlenweg","postalCode":"56412","locality":"Ruppach-Goldhausen","municipality":{"key":"07143065","name":"Ruppach-Goldhausen","type":"Kreisangehörige_Gemeinde"},"district":{"key":"07143","name":"Westerwaldkreis","type":"Landkreis"},"federalState":{"key":"07","name":"Rheinland-Pfalz"}},{"name":"Nordstr.","postalCode":"56412","locality":"Ruppach-Goldhausen","municipality":{"key":"07143065","name":"Ruppach-Goldhausen","type":"Kreisangehörige_Gemeinde"},"district":{"key":"07143","name":"Westerwaldkreis","type":"Landkreis"},"federalState":{"key":"07","name":"Rheinland-Pfalz"}},{"name":"Rheinstr.","postalCode":"56412","locality":"Ruppach-Goldhausen","municipality":{"key":"07143065","name":"Ruppach-Goldhausen","type":"Kreisangehörige_Gemeinde"},"district":{"key":"07143","name":"Westerwaldkreis","type":"Landkreis"},"federalState":{"key":"07","name":"Rheinland-Pfalz"}},{"name":"Schäfergasse","postalCode":"56412","locality":"Ruppach-Goldhausen","municipality":{"key":"07143065","name":"Ruppach-Goldhausen","type":"Kreisangehörige_Gemeinde"},"district":{"key":"07143","name":"Westerwaldkreis","type":"Landkreis"},"federalState":{"key":"07","name":"Rheinland-Pfalz"}},{"name":"Schulstr.","postalCode":"56412","locality":"Ruppach-Goldhausen","municipality":{"key":"07143065","name":"Ruppach-Goldhausen","type":"Kreisangehörige_Gemeinde"},"district":{"key":"07143","name":"Westerwaldkreis","type":"Landkreis"},"federalState":{"key":"07","name":"Rheinland-Pfalz"}},{"name":"St. Barbara-Str.","postalCode":"56412","locality":"Ruppach-Goldhausen","municipality":{"key":"07143065","name":"Ruppach-Goldhausen","type":"Kreisangehörige_Gemeinde"},"district":{"key":"07143","name":"Westerwaldkreis","type":"Landkreis"},"federalState":{"key":"07","name":"Rheinland-Pfalz"}},{"name":"Steineckstr.","postalCode":"56412","locality":"Ruppach-Goldhausen","municipality":{"key":"07143065","name":"Ruppach-Goldhausen","type":"Kreisangehörige_Gemeinde"},"district":{"key":"07143","name":"Westerwaldkreis","type":"Landkreis"},"federalState":{"key":"07","name":"Rheinland-Pfalz"}},{"name":"Südring","postalCode":"56412","locality":"Ruppach-Goldhausen","municipality":{"key":"07143065","name":"Ruppach-Goldhausen","type":"Kreisangehörige_Gemeinde"},"district":{"key":"07143","name":"Westerwaldkreis","type":"Landkreis"},"federalState":{"key":"07","name":"Rheinland-Pfalz"}},{"name":"Westerwaldstr.","postalCode":"56412","locality":"Ruppach-Goldhausen","municipality":{"key":"07143065","name":"Ruppach-Goldhausen","type":"Kreisangehörige_Gemeinde"},"district":{"key":"07143","name":"Westerwaldkreis","type":"Landkreis"},"federalState":{"key":"07","name":"Rheinland-Pfalz"}},{"name":"Weststr.","postalCode":"56412","locality":"Ruppach-Goldhausen","municipality":{"key":"07143065","name":"Ruppach-Goldhausen","type":"Kreisangehörige_Gemeinde"},"district":{"key":"07143","name":"Westerwaldkreis","type":"Landkreis"},"federalState":{"key":"07","name":"Rheinland-Pfalz"}},{"name":"Zum Sportplatz","postalCode":"56412","locality":"Ruppach-Goldhausen","municipality":{"key":"07143065","name":"Ruppach-Goldhausen","type":"Kreisangehörige_Gemeinde"},"district":{"key":"07143","name":"Westerwaldkreis","type":"Landkreis"},"federalState":{"key":"07","name":"Rheinland-Pfalz"}},]