[{"name":"Ahornweg","postalCode":"15528","locality":"Spreenhagen","municipality":{"key":"12067469","name":"Spreenhagen","type":"Kreisangehörige_Gemeinde"},"district":{"key":"12067","name":"Oder-Spree","type":"Landkreis"},"federalState":{"key":"12","name":"Brandenburg"}},{"name":"Alte Dorfstr.","postalCode":"15528","locality":"Spreenhagen","municipality":{"key":"12067469","name":"Spreenhagen","type":"Kreisangehörige_Gemeinde"},"district":{"key":"12067","name":"Oder-Spree","type":"Landkreis"},"federalState":{"key":"12","name":"Brandenburg"}},{"name":"Alte Poststr.","postalCode":"15528","locality":"Spreenhagen","municipality":{"key":"12067469","name":"Spreenhagen","type":"Kreisangehörige_Gemeinde"},"district":{"key":"12067","name":"Oder-Spree","type":"Landkreis"},"federalState":{"key":"12","name":"Brandenburg"}},{"name":"Alter Postweg","postalCode":"15528","locality":"Spreenhagen","municipality":{"key":"12067469","name":"Spreenhagen","type":"Kreisangehörige_Gemeinde"},"district":{"key":"12067","name":"Oder-Spree","type":"Landkreis"},"federalState":{"key":"12","name":"Brandenburg"}},{"name":"Alt Hartmannsdorfer Str.","postalCode":"15528","locality":"Spreenhagen","municipality":{"key":"12067469","name":"Spreenhagen","type":"Kreisangehörige_Gemeinde"},"district":{"key":"12067","name":"Oder-Spree","type":"Landkreis"},"federalState":{"key":"12","name":"Brandenburg"}},{"name":"Am Denkmal","postalCode":"15528","locality":"Spreenhagen","municipality":{"key":"12067469","name":"Spreenhagen","type":"Kreisangehörige_Gemeinde"},"district":{"key":"12067","name":"Oder-Spree","type":"Landkreis"},"federalState":{"key":"12","name":"Brandenburg"}},{"name":"Am Hasensprung","postalCode":"15528","locality":"Spreenhagen","municipality":{"key":"12067469","name":"Spreenhagen","type":"Kreisangehörige_Gemeinde"},"district":{"key":"12067","name":"Oder-Spree","type":"Landkreis"},"federalState":{"key":"12","name":"Brandenburg"}},{"name":"Am Kanal","postalCode":"15528","locality":"Spreenhagen","municipality":{"key":"12067469","name":"Spreenhagen","type":"Kreisangehörige_Gemeinde"},"district":{"key":"12067","name":"Oder-Spree","type":"Landkreis"},"federalState":{"key":"12","name":"Brandenburg"}},{"name":"Am Lebbiner See","postalCode":"15528","locality":"Spreenhagen","municipality":{"key":"12067469","name":"Spreenhagen","type":"Kreisangehörige_Gemeinde"},"district":{"key":"12067","name":"Oder-Spree","type":"Landkreis"},"federalState":{"key":"12","name":"Brandenburg"}},{"name":"Artur-Becker-Ring","postalCode":"15528","locality":"Spreenhagen","municipality":{"key":"12067469","name":"Spreenhagen","type":"Kreisangehörige_Gemeinde"},"district":{"key":"12067","name":"Oder-Spree","type":"Landkreis"},"federalState":{"key":"12","name":"Brandenburg"}},{"name":"Auf der Halbinsel","postalCode":"15528","locality":"Spreenhagen","municipality":{"key":"12067469","name":"Spreenhagen","type":"Kreisangehörige_Gemeinde"},"district":{"key":"12067","name":"Oder-Spree","type":"Landkreis"},"federalState":{"key":"12","name":"Brandenburg"}},{"name":"Bärenbrücke","postalCode":"15528","locality":"Spreenhagen","municipality":{"key":"12067469","name":"Spreenhagen","type":"Kreisangehörige_Gemeinde"},"district":{"key":"12067","name":"Oder-Spree","type":"Landkreis"},"federalState":{"key":"12","name":"Brandenburg"}},{"name":"Birkenweg","postalCode":"15528","locality":"Spreenhagen","municipality":{"key":"12067469","name":"Spreenhagen","type":"Kreisangehörige_Gemeinde"},"district":{"key":"12067","name":"Oder-Spree","type":"Landkreis"},"federalState":{"key":"12","name":"Brandenburg"}},{"name":"Braunsdorfer Chaussee","postalCode":"15528","locality":"Spreenhagen","municipality":{"key":"12067469","name":"Spreenhagen","type":"Kreisangehörige_Gemeinde"},"district":{"key":"12067","name":"Oder-Spree","type":"Landkreis"},"federalState":{"key":"12","name":"Brandenburg"}},{"name":"Briesenluch","postalCode":"15528","locality":"Spreenhagen","municipality":{"key":"12067469","name":"Spreenhagen","type":"Kreisangehörige_Gemeinde"},"district":{"key":"12067","name":"Oder-Spree","type":"Landkreis"},"federalState":{"key":"12","name":"Brandenburg"}},{"name":"Chausseestr.","postalCode":"15528","locality":"Spreenhagen","municipality":{"key":"12067469","name":"Spreenhagen","type":"Kreisangehörige_Gemeinde"},"district":{"key":"12067","name":"Oder-Spree","type":"Landkreis"},"federalState":{"key":"12","name":"Brandenburg"}},{"name":"Dannenreicher Gestell","postalCode":"15528","locality":"Spreenhagen","municipality":{"key":"12067469","name":"Spreenhagen","type":"Kreisangehörige_Gemeinde"},"district":{"key":"12067","name":"Oder-Spree","type":"Landkreis"},"federalState":{"key":"12","name":"Brandenburg"}},{"name":"Dohnenstieg","postalCode":"15528","locality":"Spreenhagen","municipality":{"key":"12067469","name":"Spreenhagen","type":"Kreisangehörige_Gemeinde"},"district":{"key":"12067","name":"Oder-Spree","type":"Landkreis"},"federalState":{"key":"12","name":"Brandenburg"}},{"name":"Dorfstr.","postalCode":"15528","locality":"Spreenhagen","municipality":{"key":"12067469","name":"Spreenhagen","type":"Kreisangehörige_Gemeinde"},"district":{"key":"12067","name":"Oder-Spree","type":"Landkreis"},"federalState":{"key":"12","name":"Brandenburg"}},{"name":"Drosselweg","postalCode":"15528","locality":"Spreenhagen","municipality":{"key":"12067469","name":"Spreenhagen","type":"Kreisangehörige_Gemeinde"},"district":{"key":"12067","name":"Oder-Spree","type":"Landkreis"},"federalState":{"key":"12","name":"Brandenburg"}},{"name":"ehem. K 6753","postalCode":"15528","locality":"Spreenhagen","municipality":{"key":"12067469","name":"Spreenhagen","type":"Kreisangehörige_Gemeinde"},"district":{"key":"12067","name":"Oder-Spree","type":"Landkreis"},"federalState":{"key":"12","name":"Brandenburg"}},{"name":"Feldweg","postalCode":"15528","locality":"Spreenhagen","municipality":{"key":"12067469","name":"Spreenhagen","type":"Kreisangehörige_Gemeinde"},"district":{"key":"12067","name":"Oder-Spree","type":"Landkreis"},"federalState":{"key":"12","name":"Brandenburg"}},{"name":"Fichtenwall","postalCode":"15528","locality":"Spreenhagen","municipality":{"key":"12067469","name":"Spreenhagen","type":"Kreisangehörige_Gemeinde"},"district":{"key":"12067","name":"Oder-Spree","type":"Landkreis"},"federalState":{"key":"12","name":"Brandenburg"}},{"name":"Försterei Dickdamm","postalCode":"15528","locality":"Spreenhagen","municipality":{"key":"12067469","name":"Spreenhagen","type":"Kreisangehörige_Gemeinde"},"district":{"key":"12067","name":"Oder-Spree","type":"Landkreis"},"federalState":{"key":"12","name":"Brandenburg"}},{"name":"Friedersdorfer Chaussee","postalCode":"15528","locality":"Spreenhagen","municipality":{"key":"12067469","name":"Spreenhagen","type":"Kreisangehörige_Gemeinde"},"district":{"key":"12067","name":"Oder-Spree","type":"Landkreis"},"federalState":{"key":"12","name":"Brandenburg"}},{"name":"Friedersdorfer Str.","postalCode":"15528","locality":"Spreenhagen","municipality":{"key":"12067469","name":"Spreenhagen","type":"Kreisangehörige_Gemeinde"},"district":{"key":"12067","name":"Oder-Spree","type":"Landkreis"},"federalState":{"key":"12","name":"Brandenburg"}},{"name":"Friedersdorfer Weg","postalCode":"15528","locality":"Spreenhagen","municipality":{"key":"12067469","name":"Spreenhagen","type":"Kreisangehörige_Gemeinde"},"district":{"key":"12067","name":"Oder-Spree","type":"Landkreis"},"federalState":{"key":"12","name":"Brandenburg"}},{"name":"Friedhofstr.","postalCode":"15528","locality":"Spreenhagen","municipality":{"key":"12067469","name":"Spreenhagen","type":"Kreisangehörige_Gemeinde"},"district":{"key":"12067","name":"Oder-Spree","type":"Landkreis"},"federalState":{"key":"12","name":"Brandenburg"}},{"name":"Fürstenwalder Str.","postalCode":"15528","locality":"Spreenhagen","municipality":{"key":"12067469","name":"Spreenhagen","type":"Kreisangehörige_Gemeinde"},"district":{"key":"12067","name":"Oder-Spree","type":"Landkreis"},"federalState":{"key":"12","name":"Brandenburg"}},{"name":"Glockenturmgestell","postalCode":"15528","locality":"Spreenhagen","municipality":{"key":"12067469","name":"Spreenhagen","type":"Kreisangehörige_Gemeinde"},"district":{"key":"12067","name":"Oder-Spree","type":"Landkreis"},"federalState":{"key":"12","name":"Brandenburg"}},{"name":"Göllmitz","postalCode":"15528","locality":"Spreenhagen","municipality":{"key":"12067469","name":"Spreenhagen","type":"Kreisangehörige_Gemeinde"},"district":{"key":"12067","name":"Oder-Spree","type":"Landkreis"},"federalState":{"key":"12","name":"Brandenburg"}},{"name":"Grenzweg","postalCode":"15528","locality":"Spreenhagen","municipality":{"key":"12067469","name":"Spreenhagen","type":"Kreisangehörige_Gemeinde"},"district":{"key":"12067","name":"Oder-Spree","type":"Landkreis"},"federalState":{"key":"12","name":"Brandenburg"}},{"name":"Hafersteig","postalCode":"15528","locality":"Spreenhagen","municipality":{"key":"12067469","name":"Spreenhagen","type":"Kreisangehörige_Gemeinde"},"district":{"key":"12067","name":"Oder-Spree","type":"Landkreis"},"federalState":{"key":"12","name":"Brandenburg"}},{"name":"Hartmannsdorfer Chaussee","postalCode":"15528","locality":"Spreenhagen","municipality":{"key":"12067469","name":"Spreenhagen","type":"Kreisangehörige_Gemeinde"},"district":{"key":"12067","name":"Oder-Spree","type":"Landkreis"},"federalState":{"key":"12","name":"Brandenburg"}},{"name":"Hauptstr.","postalCode":"15528","locality":"Spreenhagen","municipality":{"key":"12067469","name":"Spreenhagen","type":"Kreisangehörige_Gemeinde"},"district":{"key":"12067","name":"Oder-Spree","type":"Landkreis"},"federalState":{"key":"12","name":"Brandenburg"}},{"name":"Haus am See","postalCode":"15528","locality":"Spreenhagen","municipality":{"key":"12067469","name":"Spreenhagen","type":"Kreisangehörige_Gemeinde"},"district":{"key":"12067","name":"Oder-Spree","type":"Landkreis"},"federalState":{"key":"12","name":"Brandenburg"}},{"name":"Heugestell","postalCode":"15528","locality":"Spreenhagen","municipality":{"key":"12067469","name":"Spreenhagen","type":"Kreisangehörige_Gemeinde"},"district":{"key":"12067","name":"Oder-Spree","type":"Landkreis"},"federalState":{"key":"12","name":"Brandenburg"}},{"name":"Hirschsprung","postalCode":"15528","locality":"Spreenhagen","municipality":{"key":"12067469","name":"Spreenhagen","type":"Kreisangehörige_Gemeinde"},"district":{"key":"12067","name":"Oder-Spree","type":"Landkreis"},"federalState":{"key":"12","name":"Brandenburg"}},{"name":"Hirsegarten","postalCode":"15528","locality":"Spreenhagen","municipality":{"key":"12067469","name":"Spreenhagen","type":"Kreisangehörige_Gemeinde"},"district":{"key":"12067","name":"Oder-Spree","type":"Landkreis"},"federalState":{"key":"12","name":"Brandenburg"}},{"name":"Kablower Gestell","postalCode":"15528","locality":"Spreenhagen","municipality":{"key":"12067469","name":"Spreenhagen","type":"Kreisangehörige_Gemeinde"},"district":{"key":"12067","name":"Oder-Spree","type":"Landkreis"},"federalState":{"key":"12","name":"Brandenburg"}},{"name":"Kanalstr.","postalCode":"15528","locality":"Spreenhagen","municipality":{"key":"12067469","name":"Spreenhagen","type":"Kreisangehörige_Gemeinde"},"district":{"key":"12067","name":"Oder-Spree","type":"Landkreis"},"federalState":{"key":"12","name":"Brandenburg"}},{"name":"Kanalweg","postalCode":"15528","locality":"Spreenhagen","municipality":{"key":"12067469","name":"Spreenhagen","type":"Kreisangehörige_Gemeinde"},"district":{"key":"12067","name":"Oder-Spree","type":"Landkreis"},"federalState":{"key":"12","name":"Brandenburg"}},{"name":"Kiefernweg","postalCode":"15528","locality":"Spreenhagen","municipality":{"key":"12067469","name":"Spreenhagen","type":"Kreisangehörige_Gemeinde"},"district":{"key":"12067","name":"Oder-Spree","type":"Landkreis"},"federalState":{"key":"12","name":"Brandenburg"}},{"name":"Kirchengestell","postalCode":"15528","locality":"Spreenhagen","municipality":{"key":"12067469","name":"Spreenhagen","type":"Kreisangehörige_Gemeinde"},"district":{"key":"12067","name":"Oder-Spree","type":"Landkreis"},"federalState":{"key":"12","name":"Brandenburg"}},{"name":"Kirchhofen","postalCode":"15528","locality":"Spreenhagen","municipality":{"key":"12067469","name":"Spreenhagen","type":"Kreisangehörige_Gemeinde"},"district":{"key":"12067","name":"Oder-Spree","type":"Landkreis"},"federalState":{"key":"12","name":"Brandenburg"}},{"name":"Kirchhofener Str.","postalCode":"15528","locality":"Spreenhagen","municipality":{"key":"12067469","name":"Spreenhagen","type":"Kreisangehörige_Gemeinde"},"district":{"key":"12067","name":"Oder-Spree","type":"Landkreis"},"federalState":{"key":"12","name":"Brandenburg"}},{"name":"Kirchplatz","postalCode":"15528","locality":"Spreenhagen","municipality":{"key":"12067469","name":"Spreenhagen","type":"Kreisangehörige_Gemeinde"},"district":{"key":"12067","name":"Oder-Spree","type":"Landkreis"},"federalState":{"key":"12","name":"Brandenburg"}},{"name":"Kreuzgestell","postalCode":"15528","locality":"Spreenhagen","municipality":{"key":"12067469","name":"Spreenhagen","type":"Kreisangehörige_Gemeinde"},"district":{"key":"12067","name":"Oder-Spree","type":"Landkreis"},"federalState":{"key":"12","name":"Brandenburg"}},{"name":"Kronprinzengestell","postalCode":"15528","locality":"Spreenhagen","municipality":{"key":"12067469","name":"Spreenhagen","type":"Kreisangehörige_Gemeinde"},"district":{"key":"12067","name":"Oder-Spree","type":"Landkreis"},"federalState":{"key":"12","name":"Brandenburg"}},{"name":"Küchengestell","postalCode":"15528","locality":"Spreenhagen","municipality":{"key":"12067469","name":"Spreenhagen","type":"Kreisangehörige_Gemeinde"},"district":{"key":"12067","name":"Oder-Spree","type":"Landkreis"},"federalState":{"key":"12","name":"Brandenburg"}},{"name":"Kummerallee","postalCode":"15528","locality":"Spreenhagen","municipality":{"key":"12067469","name":"Spreenhagen","type":"Kreisangehörige_Gemeinde"},"district":{"key":"12067","name":"Oder-Spree","type":"Landkreis"},"federalState":{"key":"12","name":"Brandenburg"}},{"name":"Langendamm","postalCode":"15528","locality":"Spreenhagen","municipality":{"key":"12067469","name":"Spreenhagen","type":"Kreisangehörige_Gemeinde"},"district":{"key":"12067","name":"Oder-Spree","type":"Landkreis"},"federalState":{"key":"12","name":"Brandenburg"}},{"name":"Lange Str.","postalCode":"15528","locality":"Spreenhagen","municipality":{"key":"12067469","name":"Spreenhagen","type":"Kreisangehörige_Gemeinde"},"district":{"key":"12067","name":"Oder-Spree","type":"Landkreis"},"federalState":{"key":"12","name":"Brandenburg"}},{"name":"Latzwall","postalCode":"15528","locality":"Spreenhagen","municipality":{"key":"12067469","name":"Spreenhagen","type":"Kreisangehörige_Gemeinde"},"district":{"key":"12067","name":"Oder-Spree","type":"Landkreis"},"federalState":{"key":"12","name":"Brandenburg"}},{"name":"Lebbin","postalCode":"15528","locality":"Spreenhagen","municipality":{"key":"12067469","name":"Spreenhagen","type":"Kreisangehörige_Gemeinde"},"district":{"key":"12067","name":"Oder-Spree","type":"Landkreis"},"federalState":{"key":"12","name":"Brandenburg"}},{"name":"Lebbiner Str.","postalCode":"15528","locality":"Spreenhagen","municipality":{"key":"12067469","name":"Spreenhagen","type":"Kreisangehörige_Gemeinde"},"district":{"key":"12067","name":"Oder-Spree","type":"Landkreis"},"federalState":{"key":"12","name":"Brandenburg"}},{"name":"Lindenallee","postalCode":"15528","locality":"Spreenhagen","municipality":{"key":"12067469","name":"Spreenhagen","type":"Kreisangehörige_Gemeinde"},"district":{"key":"12067","name":"Oder-Spree","type":"Landkreis"},"federalState":{"key":"12","name":"Brandenburg"}},{"name":"Lindenring","postalCode":"15528","locality":"Spreenhagen","municipality":{"key":"12067469","name":"Spreenhagen","type":"Kreisangehörige_Gemeinde"},"district":{"key":"12067","name":"Oder-Spree","type":"Landkreis"},"federalState":{"key":"12","name":"Brandenburg"}},{"name":"Ludergestell","postalCode":"15528","locality":"Spreenhagen","municipality":{"key":"12067469","name":"Spreenhagen","type":"Kreisangehörige_Gemeinde"},"district":{"key":"12067","name":"Oder-Spree","type":"Landkreis"},"federalState":{"key":"12","name":"Brandenburg"}},{"name":"Markgrafenstr.","postalCode":"15528","locality":"Spreenhagen","municipality":{"key":"12067469","name":"Spreenhagen","type":"Kreisangehörige_Gemeinde"},"district":{"key":"12067","name":"Oder-Spree","type":"Landkreis"},"federalState":{"key":"12","name":"Brandenburg"}},{"name":"Markgrafpiesker Str.","postalCode":"15528","locality":"Spreenhagen","municipality":{"key":"12067469","name":"Spreenhagen","type":"Kreisangehörige_Gemeinde"},"district":{"key":"12067","name":"Oder-Spree","type":"Landkreis"},"federalState":{"key":"12","name":"Brandenburg"}},{"name":"Mittelstr.","postalCode":"15528","locality":"Spreenhagen","municipality":{"key":"12067469","name":"Spreenhagen","type":"Kreisangehörige_Gemeinde"},"district":{"key":"12067","name":"Oder-Spree","type":"Landkreis"},"federalState":{"key":"12","name":"Brandenburg"}},{"name":"Neue Kanalstr.","postalCode":"15528","locality":"Spreenhagen","municipality":{"key":"12067469","name":"Spreenhagen","type":"Kreisangehörige_Gemeinde"},"district":{"key":"12067","name":"Oder-Spree","type":"Landkreis"},"federalState":{"key":"12","name":"Brandenburg"}},{"name":"Neues Gestell","postalCode":"15528","locality":"Spreenhagen","municipality":{"key":"12067469","name":"Spreenhagen","type":"Kreisangehörige_Gemeinde"},"district":{"key":"12067","name":"Oder-Spree","type":"Landkreis"},"federalState":{"key":"12","name":"Brandenburg"}},{"name":"Neu Hartmannsdorfer Str.","postalCode":"15528","locality":"Spreenhagen","municipality":{"key":"12067469","name":"Spreenhagen","type":"Kreisangehörige_Gemeinde"},"district":{"key":"12067","name":"Oder-Spree","type":"Landkreis"},"federalState":{"key":"12","name":"Brandenburg"}},{"name":"Neu Waltersdorf","postalCode":"15528","locality":"Spreenhagen","municipality":{"key":"12067469","name":"Spreenhagen","type":"Kreisangehörige_Gemeinde"},"district":{"key":"12067","name":"Oder-Spree","type":"Landkreis"},"federalState":{"key":"12","name":"Brandenburg"}},{"name":"Rauener Str.","postalCode":"15528","locality":"Spreenhagen","municipality":{"key":"12067469","name":"Spreenhagen","type":"Kreisangehörige_Gemeinde"},"district":{"key":"12067","name":"Oder-Spree","type":"Landkreis"},"federalState":{"key":"12","name":"Brandenburg"}},{"name":"Rotkehlchenweg","postalCode":"15528","locality":"Spreenhagen","municipality":{"key":"12067469","name":"Spreenhagen","type":"Kreisangehörige_Gemeinde"},"district":{"key":"12067","name":"Oder-Spree","type":"Landkreis"},"federalState":{"key":"12","name":"Brandenburg"}},{"name":"Schellhorstgestell","postalCode":"15528","locality":"Spreenhagen","municipality":{"key":"12067469","name":"Spreenhagen","type":"Kreisangehörige_Gemeinde"},"district":{"key":"12067","name":"Oder-Spree","type":"Landkreis"},"federalState":{"key":"12","name":"Brandenburg"}},{"name":"Schulstr.","postalCode":"15528","locality":"Spreenhagen","municipality":{"key":"12067469","name":"Spreenhagen","type":"Kreisangehörige_Gemeinde"},"district":{"key":"12067","name":"Oder-Spree","type":"Landkreis"},"federalState":{"key":"12","name":"Brandenburg"}},{"name":"Seestr.","postalCode":"15528","locality":"Spreenhagen","municipality":{"key":"12067469","name":"Spreenhagen","type":"Kreisangehörige_Gemeinde"},"district":{"key":"12067","name":"Oder-Spree","type":"Landkreis"},"federalState":{"key":"12","name":"Brandenburg"}},{"name":"Siedlerstr.","postalCode":"15528","locality":"Spreenhagen","municipality":{"key":"12067469","name":"Spreenhagen","type":"Kreisangehörige_Gemeinde"},"district":{"key":"12067","name":"Oder-Spree","type":"Landkreis"},"federalState":{"key":"12","name":"Brandenburg"}},{"name":"Siedlerweg","postalCode":"15528","locality":"Spreenhagen","municipality":{"key":"12067469","name":"Spreenhagen","type":"Kreisangehörige_Gemeinde"},"district":{"key":"12067","name":"Oder-Spree","type":"Landkreis"},"federalState":{"key":"12","name":"Brandenburg"}},{"name":"Siedlung","postalCode":"15528","locality":"Spreenhagen","municipality":{"key":"12067469","name":"Spreenhagen","type":"Kreisangehörige_Gemeinde"},"district":{"key":"12067","name":"Oder-Spree","type":"Landkreis"},"federalState":{"key":"12","name":"Brandenburg"}},{"name":"Skaby","postalCode":"15528","locality":"Spreenhagen","municipality":{"key":"12067469","name":"Spreenhagen","type":"Kreisangehörige_Gemeinde"},"district":{"key":"12067","name":"Oder-Spree","type":"Landkreis"},"federalState":{"key":"12","name":"Brandenburg"}},{"name":"Spreenhagener Chaussee","postalCode":"15528","locality":"Spreenhagen","municipality":{"key":"12067469","name":"Spreenhagen","type":"Kreisangehörige_Gemeinde"},"district":{"key":"12067","name":"Oder-Spree","type":"Landkreis"},"federalState":{"key":"12","name":"Brandenburg"}},{"name":"Spreenhagener Str.","postalCode":"15528","locality":"Spreenhagen","municipality":{"key":"12067469","name":"Spreenhagen","type":"Kreisangehörige_Gemeinde"},"district":{"key":"12067","name":"Oder-Spree","type":"Landkreis"},"federalState":{"key":"12","name":"Brandenburg"}},{"name":"Steinfurt","postalCode":"15528","locality":"Spreenhagen","municipality":{"key":"12067469","name":"Spreenhagen","type":"Kreisangehörige_Gemeinde"},"district":{"key":"12067","name":"Oder-Spree","type":"Landkreis"},"federalState":{"key":"12","name":"Brandenburg"}},{"name":"Storkower Str.","postalCode":"15528","locality":"Spreenhagen","municipality":{"key":"12067469","name":"Spreenhagen","type":"Kreisangehörige_Gemeinde"},"district":{"key":"12067","name":"Oder-Spree","type":"Landkreis"},"federalState":{"key":"12","name":"Brandenburg"}},{"name":"Triftgestell","postalCode":"15528","locality":"Spreenhagen","municipality":{"key":"12067469","name":"Spreenhagen","type":"Kreisangehörige_Gemeinde"},"district":{"key":"12067","name":"Oder-Spree","type":"Landkreis"},"federalState":{"key":"12","name":"Brandenburg"}},{"name":"Wacholdergestell","postalCode":"15528","locality":"Spreenhagen","municipality":{"key":"12067469","name":"Spreenhagen","type":"Kreisangehörige_Gemeinde"},"district":{"key":"12067","name":"Oder-Spree","type":"Landkreis"},"federalState":{"key":"12","name":"Brandenburg"}},{"name":"Waldweg","postalCode":"15528","locality":"Spreenhagen","municipality":{"key":"12067469","name":"Spreenhagen","type":"Kreisangehörige_Gemeinde"},"district":{"key":"12067","name":"Oder-Spree","type":"Landkreis"},"federalState":{"key":"12","name":"Brandenburg"}},{"name":"Wallweg","postalCode":"15528","locality":"Spreenhagen","municipality":{"key":"12067469","name":"Spreenhagen","type":"Kreisangehörige_Gemeinde"},"district":{"key":"12067","name":"Oder-Spree","type":"Landkreis"},"federalState":{"key":"12","name":"Brandenburg"}},{"name":"Winkel","postalCode":"15528","locality":"Spreenhagen","municipality":{"key":"12067469","name":"Spreenhagen","type":"Kreisangehörige_Gemeinde"},"district":{"key":"12067","name":"Oder-Spree","type":"Landkreis"},"federalState":{"key":"12","name":"Brandenburg"}},{"name":"Wulschener Str.","postalCode":"15528","locality":"Spreenhagen","municipality":{"key":"12067469","name":"Spreenhagen","type":"Kreisangehörige_Gemeinde"},"district":{"key":"12067","name":"Oder-Spree","type":"Landkreis"},"federalState":{"key":"12","name":"Brandenburg"}},{"name":"Zettelberggestell","postalCode":"15528","locality":"Spreenhagen","municipality":{"key":"12067469","name":"Spreenhagen","type":"Kreisangehörige_Gemeinde"},"district":{"key":"12067","name":"Oder-Spree","type":"Landkreis"},"federalState":{"key":"12","name":"Brandenburg"}},{"name":"Zum Kanal","postalCode":"15528","locality":"Spreenhagen","municipality":{"key":"12067469","name":"Spreenhagen","type":"Kreisangehörige_Gemeinde"},"district":{"key":"12067","name":"Oder-Spree","type":"Landkreis"},"federalState":{"key":"12","name":"Brandenburg"}},]