[{"name":"Adalbert-Stifter-Str.","postalCode":"85521","locality":"Ottobrunn","municipality":{"key":"09184136","name":"Ottobrunn","type":"Kreisangehörige_Gemeinde"},"district":{"key":"09184","name":"München","type":"Landkreis"},"federalState":{"key":"09","name":"Bayern"}},{"name":"Akazienweg","postalCode":"85521","locality":"Ottobrunn","municipality":{"key":"09184136","name":"Ottobrunn","type":"Kreisangehörige_Gemeinde"},"district":{"key":"09184","name":"München","type":"Landkreis"},"federalState":{"key":"09","name":"Bayern"}},{"name":"Albert-Schweitzer-Str.","postalCode":"85521","locality":"Ottobrunn","municipality":{"key":"09184136","name":"Ottobrunn","type":"Kreisangehörige_Gemeinde"},"district":{"key":"09184","name":"München","type":"Landkreis"},"federalState":{"key":"09","name":"Bayern"}},{"name":"Albrecht-Dürer-Str.","postalCode":"85521","locality":"Ottobrunn","municipality":{"key":"09184136","name":"Ottobrunn","type":"Kreisangehörige_Gemeinde"},"district":{"key":"09184","name":"München","type":"Landkreis"},"federalState":{"key":"09","name":"Bayern"}},{"name":"Almenrauschstr.","postalCode":"85521","locality":"Ottobrunn","municipality":{"key":"09184136","name":"Ottobrunn","type":"Kreisangehörige_Gemeinde"},"district":{"key":"09184","name":"München","type":"Landkreis"},"federalState":{"key":"09","name":"Bayern"}},{"name":"Alpenrosenstr.","postalCode":"85521","locality":"Ottobrunn","municipality":{"key":"09184136","name":"Ottobrunn","type":"Kreisangehörige_Gemeinde"},"district":{"key":"09184","name":"München","type":"Landkreis"},"federalState":{"key":"09","name":"Bayern"}},{"name":"Alte Landstr.","postalCode":"85521","locality":"Ottobrunn","municipality":{"key":"09184136","name":"Ottobrunn","type":"Kreisangehörige_Gemeinde"},"district":{"key":"09184","name":"München","type":"Landkreis"},"federalState":{"key":"09","name":"Bayern"}},{"name":"Am Bogen","postalCode":"85521","locality":"Ottobrunn","municipality":{"key":"09184136","name":"Ottobrunn","type":"Kreisangehörige_Gemeinde"},"district":{"key":"09184","name":"München","type":"Landkreis"},"federalState":{"key":"09","name":"Bayern"}},{"name":"Amperweg","postalCode":"85521","locality":"Ottobrunn","municipality":{"key":"09184136","name":"Ottobrunn","type":"Kreisangehörige_Gemeinde"},"district":{"key":"09184","name":"München","type":"Landkreis"},"federalState":{"key":"09","name":"Bayern"}},{"name":"Amselweg","postalCode":"85521","locality":"Ottobrunn","municipality":{"key":"09184136","name":"Ottobrunn","type":"Kreisangehörige_Gemeinde"},"district":{"key":"09184","name":"München","type":"Landkreis"},"federalState":{"key":"09","name":"Bayern"}},{"name":"An der Ottosäule","postalCode":"85521","locality":"Ottobrunn","municipality":{"key":"09184136","name":"Ottobrunn","type":"Kreisangehörige_Gemeinde"},"district":{"key":"09184","name":"München","type":"Landkreis"},"federalState":{"key":"09","name":"Bayern"}},{"name":"An der Westumgehung","postalCode":"85521","locality":"Ottobrunn","municipality":{"key":"09184136","name":"Ottobrunn","type":"Kreisangehörige_Gemeinde"},"district":{"key":"09184","name":"München","type":"Landkreis"},"federalState":{"key":"09","name":"Bayern"}},{"name":"Anton-Günther-Str.","postalCode":"85521","locality":"Ottobrunn","municipality":{"key":"09184136","name":"Ottobrunn","type":"Kreisangehörige_Gemeinde"},"district":{"key":"09184","name":"München","type":"Landkreis"},"federalState":{"key":"09","name":"Bayern"}},{"name":"Anzengruberstr.","postalCode":"85521","locality":"Ottobrunn","municipality":{"key":"09184136","name":"Ottobrunn","type":"Kreisangehörige_Gemeinde"},"district":{"key":"09184","name":"München","type":"Landkreis"},"federalState":{"key":"09","name":"Bayern"}},{"name":"Aurikelstr.","postalCode":"85521","locality":"Ottobrunn","municipality":{"key":"09184136","name":"Ottobrunn","type":"Kreisangehörige_Gemeinde"},"district":{"key":"09184","name":"München","type":"Landkreis"},"federalState":{"key":"09","name":"Bayern"}},{"name":"Aventinusweg","postalCode":"85521","locality":"Ottobrunn","municipality":{"key":"09184136","name":"Ottobrunn","type":"Kreisangehörige_Gemeinde"},"district":{"key":"09184","name":"München","type":"Landkreis"},"federalState":{"key":"09","name":"Bayern"}},{"name":"Bahnhofstr.","postalCode":"85521","locality":"Ottobrunn","municipality":{"key":"09184136","name":"Ottobrunn","type":"Kreisangehörige_Gemeinde"},"district":{"key":"09184","name":"München","type":"Landkreis"},"federalState":{"key":"09","name":"Bayern"}},{"name":"Beethovenstr.","postalCode":"85521","locality":"Ottobrunn","municipality":{"key":"09184136","name":"Ottobrunn","type":"Kreisangehörige_Gemeinde"},"district":{"key":"09184","name":"München","type":"Landkreis"},"federalState":{"key":"09","name":"Bayern"}},{"name":"Beiserstr.","postalCode":"85521","locality":"Ottobrunn","municipality":{"key":"09184136","name":"Ottobrunn","type":"Kreisangehörige_Gemeinde"},"district":{"key":"09184","name":"München","type":"Landkreis"},"federalState":{"key":"09","name":"Bayern"}},{"name":"Bergstr.","postalCode":"85521","locality":"Ottobrunn","municipality":{"key":"09184136","name":"Ottobrunn","type":"Kreisangehörige_Gemeinde"},"district":{"key":"09184","name":"München","type":"Landkreis"},"federalState":{"key":"09","name":"Bayern"}},{"name":"Billy-Bermanseder-Weg","postalCode":"85521","locality":"Ottobrunn","municipality":{"key":"09184136","name":"Ottobrunn","type":"Kreisangehörige_Gemeinde"},"district":{"key":"09184","name":"München","type":"Landkreis"},"federalState":{"key":"09","name":"Bayern"}},{"name":"Bozener Str.","postalCode":"85521","locality":"Ottobrunn","municipality":{"key":"09184136","name":"Ottobrunn","type":"Kreisangehörige_Gemeinde"},"district":{"key":"09184","name":"München","type":"Landkreis"},"federalState":{"key":"09","name":"Bayern"}},{"name":"Brennerstr.","postalCode":"85521","locality":"Ottobrunn","municipality":{"key":"09184136","name":"Ottobrunn","type":"Kreisangehörige_Gemeinde"},"district":{"key":"09184","name":"München","type":"Landkreis"},"federalState":{"key":"09","name":"Bayern"}},{"name":"Brucknerstr.","postalCode":"85521","locality":"Ottobrunn","municipality":{"key":"09184136","name":"Ottobrunn","type":"Kreisangehörige_Gemeinde"},"district":{"key":"09184","name":"München","type":"Landkreis"},"federalState":{"key":"09","name":"Bayern"}},{"name":"Buchenstr.","postalCode":"85521","locality":"Ottobrunn","municipality":{"key":"09184136","name":"Ottobrunn","type":"Kreisangehörige_Gemeinde"},"district":{"key":"09184","name":"München","type":"Landkreis"},"federalState":{"key":"09","name":"Bayern"}},{"name":"Bunsenweg","postalCode":"85521","locality":"Ottobrunn","municipality":{"key":"09184136","name":"Ottobrunn","type":"Kreisangehörige_Gemeinde"},"district":{"key":"09184","name":"München","type":"Landkreis"},"federalState":{"key":"09","name":"Bayern"}},{"name":"Bürgermeister-Wild-Str.","postalCode":"85521","locality":"Ottobrunn","municipality":{"key":"09184136","name":"Ottobrunn","type":"Kreisangehörige_Gemeinde"},"district":{"key":"09184","name":"München","type":"Landkreis"},"federalState":{"key":"09","name":"Bayern"}},{"name":"Burgmaierstr.","postalCode":"85521","locality":"Ottobrunn","municipality":{"key":"09184136","name":"Ottobrunn","type":"Kreisangehörige_Gemeinde"},"district":{"key":"09184","name":"München","type":"Landkreis"},"federalState":{"key":"09","name":"Bayern"}},{"name":"Caroline-Herschel-Str.","postalCode":"85521","locality":"Ottobrunn","municipality":{"key":"09184136","name":"Ottobrunn","type":"Kreisangehörige_Gemeinde"},"district":{"key":"09184","name":"München","type":"Landkreis"},"federalState":{"key":"09","name":"Bayern"}},{"name":"Clemens-Schöps-Str.","postalCode":"85521","locality":"Ottobrunn","municipality":{"key":"09184136","name":"Ottobrunn","type":"Kreisangehörige_Gemeinde"},"district":{"key":"09184","name":"München","type":"Landkreis"},"federalState":{"key":"09","name":"Bayern"}},{"name":"Cramer-Klett-Str.","postalCode":"85521","locality":"Ottobrunn","municipality":{"key":"09184136","name":"Ottobrunn","type":"Kreisangehörige_Gemeinde"},"district":{"key":"09184","name":"München","type":"Landkreis"},"federalState":{"key":"09","name":"Bayern"}},{"name":"Defreggerstr.","postalCode":"85521","locality":"Ottobrunn","municipality":{"key":"09184136","name":"Ottobrunn","type":"Kreisangehörige_Gemeinde"},"district":{"key":"09184","name":"München","type":"Landkreis"},"federalState":{"key":"09","name":"Bayern"}},{"name":"Dianastr.","postalCode":"85521","locality":"Ottobrunn","municipality":{"key":"09184136","name":"Ottobrunn","type":"Kreisangehörige_Gemeinde"},"district":{"key":"09184","name":"München","type":"Landkreis"},"federalState":{"key":"09","name":"Bayern"}},{"name":"Dr.-Klaus-Kopfermann-Weg","postalCode":"85521","locality":"Ottobrunn","municipality":{"key":"09184136","name":"Ottobrunn","type":"Kreisangehörige_Gemeinde"},"district":{"key":"09184","name":"München","type":"Landkreis"},"federalState":{"key":"09","name":"Bayern"}},{"name":"Drosselstr.","postalCode":"85521","locality":"Ottobrunn","municipality":{"key":"09184136","name":"Ottobrunn","type":"Kreisangehörige_Gemeinde"},"district":{"key":"09184","name":"München","type":"Landkreis"},"federalState":{"key":"09","name":"Bayern"}},{"name":"Dr.-Otto-Bößner-Weg","postalCode":"85521","locality":"Ottobrunn","municipality":{"key":"09184136","name":"Ottobrunn","type":"Kreisangehörige_Gemeinde"},"district":{"key":"09184","name":"München","type":"Landkreis"},"federalState":{"key":"09","name":"Bayern"}},{"name":"Dunantstr.","postalCode":"85521","locality":"Ottobrunn","municipality":{"key":"09184136","name":"Ottobrunn","type":"Kreisangehörige_Gemeinde"},"district":{"key":"09184","name":"München","type":"Landkreis"},"federalState":{"key":"09","name":"Bayern"}},{"name":"Edelweißstr.","postalCode":"85521","locality":"Ottobrunn","municipality":{"key":"09184136","name":"Ottobrunn","type":"Kreisangehörige_Gemeinde"},"district":{"key":"09184","name":"München","type":"Landkreis"},"federalState":{"key":"09","name":"Bayern"}},{"name":"Eduard-Klas-Weg","postalCode":"85521","locality":"Ottobrunn","municipality":{"key":"09184136","name":"Ottobrunn","type":"Kreisangehörige_Gemeinde"},"district":{"key":"09184","name":"München","type":"Landkreis"},"federalState":{"key":"09","name":"Bayern"}},{"name":"Egerweg","postalCode":"85521","locality":"Ottobrunn","municipality":{"key":"09184136","name":"Ottobrunn","type":"Kreisangehörige_Gemeinde"},"district":{"key":"09184","name":"München","type":"Landkreis"},"federalState":{"key":"09","name":"Bayern"}},{"name":"Eibenstr.","postalCode":"85521","locality":"Ottobrunn","municipality":{"key":"09184136","name":"Ottobrunn","type":"Kreisangehörige_Gemeinde"},"district":{"key":"09184","name":"München","type":"Landkreis"},"federalState":{"key":"09","name":"Bayern"}},{"name":"Eichendorffstr.","postalCode":"85521","locality":"Ottobrunn","municipality":{"key":"09184136","name":"Ottobrunn","type":"Kreisangehörige_Gemeinde"},"district":{"key":"09184","name":"München","type":"Landkreis"},"federalState":{"key":"09","name":"Bayern"}},{"name":"Einsteinstr.","postalCode":"85521","locality":"Ottobrunn","municipality":{"key":"09184136","name":"Ottobrunn","type":"Kreisangehörige_Gemeinde"},"district":{"key":"09184","name":"München","type":"Landkreis"},"federalState":{"key":"09","name":"Bayern"}},{"name":"Elbeweg","postalCode":"85521","locality":"Ottobrunn","municipality":{"key":"09184136","name":"Ottobrunn","type":"Kreisangehörige_Gemeinde"},"district":{"key":"09184","name":"München","type":"Landkreis"},"federalState":{"key":"09","name":"Bayern"}},{"name":"Enzianstr.","postalCode":"85521","locality":"Ottobrunn","municipality":{"key":"09184136","name":"Ottobrunn","type":"Kreisangehörige_Gemeinde"},"district":{"key":"09184","name":"München","type":"Landkreis"},"federalState":{"key":"09","name":"Bayern"}},{"name":"Erlenstr.","postalCode":"85521","locality":"Ottobrunn","municipality":{"key":"09184136","name":"Ottobrunn","type":"Kreisangehörige_Gemeinde"},"district":{"key":"09184","name":"München","type":"Landkreis"},"federalState":{"key":"09","name":"Bayern"}},{"name":"Eschenweg","postalCode":"85521","locality":"Ottobrunn","municipality":{"key":"09184136","name":"Ottobrunn","type":"Kreisangehörige_Gemeinde"},"district":{"key":"09184","name":"München","type":"Landkreis"},"federalState":{"key":"09","name":"Bayern"}},{"name":"Etschweg","postalCode":"85521","locality":"Ottobrunn","municipality":{"key":"09184136","name":"Ottobrunn","type":"Kreisangehörige_Gemeinde"},"district":{"key":"09184","name":"München","type":"Landkreis"},"federalState":{"key":"09","name":"Bayern"}},{"name":"Eulenweg","postalCode":"85521","locality":"Ottobrunn","municipality":{"key":"09184136","name":"Ottobrunn","type":"Kreisangehörige_Gemeinde"},"district":{"key":"09184","name":"München","type":"Landkreis"},"federalState":{"key":"09","name":"Bayern"}},{"name":"Falkenstr.","postalCode":"85521","locality":"Ottobrunn","municipality":{"key":"09184136","name":"Ottobrunn","type":"Kreisangehörige_Gemeinde"},"district":{"key":"09184","name":"München","type":"Landkreis"},"federalState":{"key":"09","name":"Bayern"}},{"name":"Farnweg","postalCode":"85521","locality":"Ottobrunn","municipality":{"key":"09184136","name":"Ottobrunn","type":"Kreisangehörige_Gemeinde"},"district":{"key":"09184","name":"München","type":"Landkreis"},"federalState":{"key":"09","name":"Bayern"}},{"name":"Feldstr.","postalCode":"85521","locality":"Ottobrunn","municipality":{"key":"09184136","name":"Ottobrunn","type":"Kreisangehörige_Gemeinde"},"district":{"key":"09184","name":"München","type":"Landkreis"},"federalState":{"key":"09","name":"Bayern"}},{"name":"Fennbergweg","postalCode":"85521","locality":"Ottobrunn","municipality":{"key":"09184136","name":"Ottobrunn","type":"Kreisangehörige_Gemeinde"},"district":{"key":"09184","name":"München","type":"Landkreis"},"federalState":{"key":"09","name":"Bayern"}},{"name":"Finkenstr.","postalCode":"85521","locality":"Ottobrunn","municipality":{"key":"09184136","name":"Ottobrunn","type":"Kreisangehörige_Gemeinde"},"district":{"key":"09184","name":"München","type":"Landkreis"},"federalState":{"key":"09","name":"Bayern"}},{"name":"Fliederweg","postalCode":"85521","locality":"Ottobrunn","municipality":{"key":"09184136","name":"Ottobrunn","type":"Kreisangehörige_Gemeinde"},"district":{"key":"09184","name":"München","type":"Landkreis"},"federalState":{"key":"09","name":"Bayern"}},{"name":"Franz-Liszt-Str.","postalCode":"85521","locality":"Ottobrunn","municipality":{"key":"09184136","name":"Ottobrunn","type":"Kreisangehörige_Gemeinde"},"district":{"key":"09184","name":"München","type":"Landkreis"},"federalState":{"key":"09","name":"Bayern"}},{"name":"Friedenstr.","postalCode":"85521","locality":"Ottobrunn","municipality":{"key":"09184136","name":"Ottobrunn","type":"Kreisangehörige_Gemeinde"},"district":{"key":"09184","name":"München","type":"Landkreis"},"federalState":{"key":"09","name":"Bayern"}},{"name":"Friedrich-Ebert-Platz","postalCode":"85521","locality":"Ottobrunn","municipality":{"key":"09184136","name":"Ottobrunn","type":"Kreisangehörige_Gemeinde"},"district":{"key":"09184","name":"München","type":"Landkreis"},"federalState":{"key":"09","name":"Bayern"}},{"name":"Friedrich-Ebert-Str.","postalCode":"85521","locality":"Ottobrunn","municipality":{"key":"09184136","name":"Ottobrunn","type":"Kreisangehörige_Gemeinde"},"district":{"key":"09184","name":"München","type":"Landkreis"},"federalState":{"key":"09","name":"Bayern"}},{"name":"Friedrich-Rückert-Str.","postalCode":"85521","locality":"Ottobrunn","municipality":{"key":"09184136","name":"Ottobrunn","type":"Kreisangehörige_Gemeinde"},"district":{"key":"09184","name":"München","type":"Landkreis"},"federalState":{"key":"09","name":"Bayern"}},{"name":"Ganghoferstr.","postalCode":"85521","locality":"Ottobrunn","municipality":{"key":"09184136","name":"Ottobrunn","type":"Kreisangehörige_Gemeinde"},"district":{"key":"09184","name":"München","type":"Landkreis"},"federalState":{"key":"09","name":"Bayern"}},{"name":"Gartenstr.","postalCode":"85521","locality":"Ottobrunn","municipality":{"key":"09184136","name":"Ottobrunn","type":"Kreisangehörige_Gemeinde"},"district":{"key":"09184","name":"München","type":"Landkreis"},"federalState":{"key":"09","name":"Bayern"}},{"name":"Georginenstr.","postalCode":"85521","locality":"Ottobrunn","municipality":{"key":"09184136","name":"Ottobrunn","type":"Kreisangehörige_Gemeinde"},"district":{"key":"09184","name":"München","type":"Landkreis"},"federalState":{"key":"09","name":"Bayern"}},{"name":"Ginsterweg","postalCode":"85521","locality":"Ottobrunn","municipality":{"key":"09184136","name":"Ottobrunn","type":"Kreisangehörige_Gemeinde"},"district":{"key":"09184","name":"München","type":"Landkreis"},"federalState":{"key":"09","name":"Bayern"}},{"name":"Goethestr.","postalCode":"85521","locality":"Ottobrunn","municipality":{"key":"09184136","name":"Ottobrunn","type":"Kreisangehörige_Gemeinde"},"district":{"key":"09184","name":"München","type":"Landkreis"},"federalState":{"key":"09","name":"Bayern"}},{"name":"Gottfried-Keller-Str.","postalCode":"85521","locality":"Ottobrunn","municipality":{"key":"09184136","name":"Ottobrunn","type":"Kreisangehörige_Gemeinde"},"district":{"key":"09184","name":"München","type":"Landkreis"},"federalState":{"key":"09","name":"Bayern"}},{"name":"Grasmückenstr.","postalCode":"85521","locality":"Ottobrunn","municipality":{"key":"09184136","name":"Ottobrunn","type":"Kreisangehörige_Gemeinde"},"district":{"key":"09184","name":"München","type":"Landkreis"},"federalState":{"key":"09","name":"Bayern"}},{"name":"Grasweg","postalCode":"85521","locality":"Ottobrunn","municipality":{"key":"09184136","name":"Ottobrunn","type":"Kreisangehörige_Gemeinde"},"district":{"key":"09184","name":"München","type":"Landkreis"},"federalState":{"key":"09","name":"Bayern"}},{"name":"Grillparzerstr.","postalCode":"85521","locality":"Ottobrunn","municipality":{"key":"09184136","name":"Ottobrunn","type":"Kreisangehörige_Gemeinde"},"district":{"key":"09184","name":"München","type":"Landkreis"},"federalState":{"key":"09","name":"Bayern"}},{"name":"Gustav-Freytag-Str.","postalCode":"85521","locality":"Ottobrunn","municipality":{"key":"09184136","name":"Ottobrunn","type":"Kreisangehörige_Gemeinde"},"district":{"key":"09184","name":"München","type":"Landkreis"},"federalState":{"key":"09","name":"Bayern"}},{"name":"Gutenbergstr.","postalCode":"85521","locality":"Ottobrunn","municipality":{"key":"09184136","name":"Ottobrunn","type":"Kreisangehörige_Gemeinde"},"district":{"key":"09184","name":"München","type":"Landkreis"},"federalState":{"key":"09","name":"Bayern"}},{"name":"Habichtweg","postalCode":"85521","locality":"Ottobrunn","municipality":{"key":"09184136","name":"Ottobrunn","type":"Kreisangehörige_Gemeinde"},"district":{"key":"09184","name":"München","type":"Landkreis"},"federalState":{"key":"09","name":"Bayern"}},{"name":"Haidgraben","postalCode":"85521","locality":"Ottobrunn","municipality":{"key":"09184136","name":"Ottobrunn","type":"Kreisangehörige_Gemeinde"},"district":{"key":"09184","name":"München","type":"Landkreis"},"federalState":{"key":"09","name":"Bayern"}},{"name":"Haidgrabenweg","postalCode":"85521","locality":"Ottobrunn","municipality":{"key":"09184136","name":"Ottobrunn","type":"Kreisangehörige_Gemeinde"},"district":{"key":"09184","name":"München","type":"Landkreis"},"federalState":{"key":"09","name":"Bayern"}},{"name":"Händelstr.","postalCode":"85521","locality":"Ottobrunn","municipality":{"key":"09184136","name":"Ottobrunn","type":"Kreisangehörige_Gemeinde"},"district":{"key":"09184","name":"München","type":"Landkreis"},"federalState":{"key":"09","name":"Bayern"}},{"name":"Hans-Kress-Str.","postalCode":"85521","locality":"Ottobrunn","municipality":{"key":"09184136","name":"Ottobrunn","type":"Kreisangehörige_Gemeinde"},"district":{"key":"09184","name":"München","type":"Landkreis"},"federalState":{"key":"09","name":"Bayern"}},{"name":"Hans-Sachs-Str.","postalCode":"85521","locality":"Ottobrunn","municipality":{"key":"09184136","name":"Ottobrunn","type":"Kreisangehörige_Gemeinde"},"district":{"key":"09184","name":"München","type":"Landkreis"},"federalState":{"key":"09","name":"Bayern"}},{"name":"Hans-Watzlik-Str.","postalCode":"85521","locality":"Ottobrunn","municipality":{"key":"09184136","name":"Ottobrunn","type":"Kreisangehörige_Gemeinde"},"district":{"key":"09184","name":"München","type":"Landkreis"},"federalState":{"key":"09","name":"Bayern"}},{"name":"Haselweg","postalCode":"85521","locality":"Ottobrunn","municipality":{"key":"09184136","name":"Ottobrunn","type":"Kreisangehörige_Gemeinde"},"district":{"key":"09184","name":"München","type":"Landkreis"},"federalState":{"key":"09","name":"Bayern"}},{"name":"Haydnstr.","postalCode":"85521","locality":"Ottobrunn","municipality":{"key":"09184136","name":"Ottobrunn","type":"Kreisangehörige_Gemeinde"},"district":{"key":"09184","name":"München","type":"Landkreis"},"federalState":{"key":"09","name":"Bayern"}},{"name":"Hermann-Löns-Str.","postalCode":"85521","locality":"Ottobrunn","municipality":{"key":"09184136","name":"Ottobrunn","type":"Kreisangehörige_Gemeinde"},"district":{"key":"09184","name":"München","type":"Landkreis"},"federalState":{"key":"09","name":"Bayern"}},{"name":"Hirtenstr.","postalCode":"85521","locality":"Ottobrunn","municipality":{"key":"09184136","name":"Ottobrunn","type":"Kreisangehörige_Gemeinde"},"district":{"key":"09184","name":"München","type":"Landkreis"},"federalState":{"key":"09","name":"Bayern"}},{"name":"Hochackerstr.","postalCode":"85521","locality":"Ottobrunn","municipality":{"key":"09184136","name":"Ottobrunn","type":"Kreisangehörige_Gemeinde"},"district":{"key":"09184","name":"München","type":"Landkreis"},"federalState":{"key":"09","name":"Bayern"}},{"name":"Hohenbrunner Str.","postalCode":"85521","locality":"Ottobrunn","municipality":{"key":"09184136","name":"Ottobrunn","type":"Kreisangehörige_Gemeinde"},"district":{"key":"09184","name":"München","type":"Landkreis"},"federalState":{"key":"09","name":"Bayern"}},{"name":"Holunderweg","postalCode":"85521","locality":"Ottobrunn","municipality":{"key":"09184136","name":"Ottobrunn","type":"Kreisangehörige_Gemeinde"},"district":{"key":"09184","name":"München","type":"Landkreis"},"federalState":{"key":"09","name":"Bayern"}},{"name":"Hubertusstr.","postalCode":"85521","locality":"Ottobrunn","municipality":{"key":"09184136","name":"Ottobrunn","type":"Kreisangehörige_Gemeinde"},"district":{"key":"09184","name":"München","type":"Landkreis"},"federalState":{"key":"09","name":"Bayern"}},{"name":"Innweg","postalCode":"85521","locality":"Ottobrunn","municipality":{"key":"09184136","name":"Ottobrunn","type":"Kreisangehörige_Gemeinde"},"district":{"key":"09184","name":"München","type":"Landkreis"},"federalState":{"key":"09","name":"Bayern"}},{"name":"Isarweg","postalCode":"85521","locality":"Ottobrunn","municipality":{"key":"09184136","name":"Ottobrunn","type":"Kreisangehörige_Gemeinde"},"district":{"key":"09184","name":"München","type":"Landkreis"},"federalState":{"key":"09","name":"Bayern"}},{"name":"Jagdstr.","postalCode":"85521","locality":"Ottobrunn","municipality":{"key":"09184136","name":"Ottobrunn","type":"Kreisangehörige_Gemeinde"},"district":{"key":"09184","name":"München","type":"Landkreis"},"federalState":{"key":"09","name":"Bayern"}},{"name":"Jahnstr.","postalCode":"85521","locality":"Ottobrunn","municipality":{"key":"09184136","name":"Ottobrunn","type":"Kreisangehörige_Gemeinde"},"district":{"key":"09184","name":"München","type":"Landkreis"},"federalState":{"key":"09","name":"Bayern"}},{"name":"Johann-Sebastian-Bach-Str.","postalCode":"85521","locality":"Ottobrunn","municipality":{"key":"09184136","name":"Ottobrunn","type":"Kreisangehörige_Gemeinde"},"district":{"key":"09184","name":"München","type":"Landkreis"},"federalState":{"key":"09","name":"Bayern"}},{"name":"Johann-Strauß-Str.","postalCode":"85521","locality":"Ottobrunn","municipality":{"key":"09184136","name":"Ottobrunn","type":"Kreisangehörige_Gemeinde"},"district":{"key":"09184","name":"München","type":"Landkreis"},"federalState":{"key":"09","name":"Bayern"}},{"name":"Josef-Seliger-Str.","postalCode":"85521","locality":"Ottobrunn","municipality":{"key":"09184136","name":"Ottobrunn","type":"Kreisangehörige_Gemeinde"},"district":{"key":"09184","name":"München","type":"Landkreis"},"federalState":{"key":"09","name":"Bayern"}},{"name":"Kaiserstr.","postalCode":"85521","locality":"Ottobrunn","municipality":{"key":"09184136","name":"Ottobrunn","type":"Kreisangehörige_Gemeinde"},"district":{"key":"09184","name":"München","type":"Landkreis"},"federalState":{"key":"09","name":"Bayern"}},{"name":"Kantstr.","postalCode":"85521","locality":"Ottobrunn","municipality":{"key":"09184136","name":"Ottobrunn","type":"Kreisangehörige_Gemeinde"},"district":{"key":"09184","name":"München","type":"Landkreis"},"federalState":{"key":"09","name":"Bayern"}},{"name":"Karl-Birzer-Str.","postalCode":"85521","locality":"Ottobrunn","municipality":{"key":"09184136","name":"Ottobrunn","type":"Kreisangehörige_Gemeinde"},"district":{"key":"09184","name":"München","type":"Landkreis"},"federalState":{"key":"09","name":"Bayern"}},{"name":"Karl-Mager-Weg","postalCode":"85521","locality":"Ottobrunn","municipality":{"key":"09184136","name":"Ottobrunn","type":"Kreisangehörige_Gemeinde"},"district":{"key":"09184","name":"München","type":"Landkreis"},"federalState":{"key":"09","name":"Bayern"}},{"name":"Karl-Stieler-Str.","postalCode":"85521","locality":"Ottobrunn","municipality":{"key":"09184136","name":"Ottobrunn","type":"Kreisangehörige_Gemeinde"},"district":{"key":"09184","name":"München","type":"Landkreis"},"federalState":{"key":"09","name":"Bayern"}},{"name":"Kastanienweg","postalCode":"85521","locality":"Ottobrunn","municipality":{"key":"09184136","name":"Ottobrunn","type":"Kreisangehörige_Gemeinde"},"district":{"key":"09184","name":"München","type":"Landkreis"},"federalState":{"key":"09","name":"Bayern"}},{"name":"Käthe-Kollwitz-Weg","postalCode":"85521","locality":"Ottobrunn","municipality":{"key":"09184136","name":"Ottobrunn","type":"Kreisangehörige_Gemeinde"},"district":{"key":"09184","name":"München","type":"Landkreis"},"federalState":{"key":"09","name":"Bayern"}},{"name":"Kiefernweg","postalCode":"85521","locality":"Ottobrunn","municipality":{"key":"09184136","name":"Ottobrunn","type":"Kreisangehörige_Gemeinde"},"district":{"key":"09184","name":"München","type":"Landkreis"},"federalState":{"key":"09","name":"Bayern"}},{"name":"Kleiststr.","postalCode":"85521","locality":"Ottobrunn","municipality":{"key":"09184136","name":"Ottobrunn","type":"Kreisangehörige_Gemeinde"},"district":{"key":"09184","name":"München","type":"Landkreis"},"federalState":{"key":"09","name":"Bayern"}},{"name":"Kobellweg","postalCode":"85521","locality":"Ottobrunn","municipality":{"key":"09184136","name":"Ottobrunn","type":"Kreisangehörige_Gemeinde"},"district":{"key":"09184","name":"München","type":"Landkreis"},"federalState":{"key":"09","name":"Bayern"}},{"name":"Kreckeweg","postalCode":"85521","locality":"Ottobrunn","municipality":{"key":"09184136","name":"Ottobrunn","type":"Kreisangehörige_Gemeinde"},"district":{"key":"09184","name":"München","type":"Landkreis"},"federalState":{"key":"09","name":"Bayern"}},{"name":"Kufsteiner Str.","postalCode":"85521","locality":"Ottobrunn","municipality":{"key":"09184136","name":"Ottobrunn","type":"Kreisangehörige_Gemeinde"},"district":{"key":"09184","name":"München","type":"Landkreis"},"federalState":{"key":"09","name":"Bayern"}},{"name":"Latschenweg","postalCode":"85521","locality":"Ottobrunn","municipality":{"key":"09184136","name":"Ottobrunn","type":"Kreisangehörige_Gemeinde"},"district":{"key":"09184","name":"München","type":"Landkreis"},"federalState":{"key":"09","name":"Bayern"}},{"name":"Laurinweg","postalCode":"85521","locality":"Ottobrunn","municipality":{"key":"09184136","name":"Ottobrunn","type":"Kreisangehörige_Gemeinde"},"district":{"key":"09184","name":"München","type":"Landkreis"},"federalState":{"key":"09","name":"Bayern"}},{"name":"Leitzachweg","postalCode":"85521","locality":"Ottobrunn","municipality":{"key":"09184136","name":"Ottobrunn","type":"Kreisangehörige_Gemeinde"},"district":{"key":"09184","name":"München","type":"Landkreis"},"federalState":{"key":"09","name":"Bayern"}},{"name":"Lena-Christ-Str.","postalCode":"85521","locality":"Ottobrunn","municipality":{"key":"09184136","name":"Ottobrunn","type":"Kreisangehörige_Gemeinde"},"district":{"key":"09184","name":"München","type":"Landkreis"},"federalState":{"key":"09","name":"Bayern"}},{"name":"Lenbachallee","postalCode":"85521","locality":"Ottobrunn","municipality":{"key":"09184136","name":"Ottobrunn","type":"Kreisangehörige_Gemeinde"},"district":{"key":"09184","name":"München","type":"Landkreis"},"federalState":{"key":"09","name":"Bayern"}},{"name":"Lersnerstr.","postalCode":"85521","locality":"Ottobrunn","municipality":{"key":"09184136","name":"Ottobrunn","type":"Kreisangehörige_Gemeinde"},"district":{"key":"09184","name":"München","type":"Landkreis"},"federalState":{"key":"09","name":"Bayern"}},{"name":"Liebigweg","postalCode":"85521","locality":"Ottobrunn","municipality":{"key":"09184136","name":"Ottobrunn","type":"Kreisangehörige_Gemeinde"},"district":{"key":"09184","name":"München","type":"Landkreis"},"federalState":{"key":"09","name":"Bayern"}},{"name":"Lindenstr.","postalCode":"85521","locality":"Ottobrunn","municipality":{"key":"09184136","name":"Ottobrunn","type":"Kreisangehörige_Gemeinde"},"district":{"key":"09184","name":"München","type":"Landkreis"},"federalState":{"key":"09","name":"Bayern"}},{"name":"Lise-Meitner-Str.","postalCode":"85521","locality":"Ottobrunn","municipality":{"key":"09184136","name":"Ottobrunn","type":"Kreisangehörige_Gemeinde"},"district":{"key":"09184","name":"München","type":"Landkreis"},"federalState":{"key":"09","name":"Bayern"}},{"name":"Ludwig-Thoma-Str.","postalCode":"85521","locality":"Ottobrunn","municipality":{"key":"09184136","name":"Ottobrunn","type":"Kreisangehörige_Gemeinde"},"district":{"key":"09184","name":"München","type":"Landkreis"},"federalState":{"key":"09","name":"Bayern"}},{"name":"Mangfallweg","postalCode":"85521","locality":"Ottobrunn","municipality":{"key":"09184136","name":"Ottobrunn","type":"Kreisangehörige_Gemeinde"},"district":{"key":"09184","name":"München","type":"Landkreis"},"federalState":{"key":"09","name":"Bayern"}},{"name":"Margreider Platz","postalCode":"85521","locality":"Ottobrunn","municipality":{"key":"09184136","name":"Ottobrunn","type":"Kreisangehörige_Gemeinde"},"district":{"key":"09184","name":"München","type":"Landkreis"},"federalState":{"key":"09","name":"Bayern"}},{"name":"Maria-Schreiner-Weg","postalCode":"85521","locality":"Ottobrunn","municipality":{"key":"09184136","name":"Ottobrunn","type":"Kreisangehörige_Gemeinde"},"district":{"key":"09184","name":"München","type":"Landkreis"},"federalState":{"key":"09","name":"Bayern"}},{"name":"Martin-Auer-Str.","postalCode":"85521","locality":"Ottobrunn","municipality":{"key":"09184136","name":"Ottobrunn","type":"Kreisangehörige_Gemeinde"},"district":{"key":"09184","name":"München","type":"Landkreis"},"federalState":{"key":"09","name":"Bayern"}},{"name":"Masurenweg","postalCode":"85521","locality":"Ottobrunn","municipality":{"key":"09184136","name":"Ottobrunn","type":"Kreisangehörige_Gemeinde"},"district":{"key":"09184","name":"München","type":"Landkreis"},"federalState":{"key":"09","name":"Bayern"}},{"name":"Max-Reger-Str.","postalCode":"85521","locality":"Ottobrunn","municipality":{"key":"09184136","name":"Ottobrunn","type":"Kreisangehörige_Gemeinde"},"district":{"key":"09184","name":"München","type":"Landkreis"},"federalState":{"key":"09","name":"Bayern"}},{"name":"Meisenstr.","postalCode":"85521","locality":"Ottobrunn","municipality":{"key":"09184136","name":"Ottobrunn","type":"Kreisangehörige_Gemeinde"},"district":{"key":"09184","name":"München","type":"Landkreis"},"federalState":{"key":"09","name":"Bayern"}},{"name":"Memelweg","postalCode":"85521","locality":"Ottobrunn","municipality":{"key":"09184136","name":"Ottobrunn","type":"Kreisangehörige_Gemeinde"},"district":{"key":"09184","name":"München","type":"Landkreis"},"federalState":{"key":"09","name":"Bayern"}},{"name":"Meraner Str.","postalCode":"85521","locality":"Ottobrunn","municipality":{"key":"09184136","name":"Ottobrunn","type":"Kreisangehörige_Gemeinde"},"district":{"key":"09184","name":"München","type":"Landkreis"},"federalState":{"key":"09","name":"Bayern"}},{"name":"Mozartstr.","postalCode":"85521","locality":"Ottobrunn","municipality":{"key":"09184136","name":"Ottobrunn","type":"Kreisangehörige_Gemeinde"},"district":{"key":"09184","name":"München","type":"Landkreis"},"federalState":{"key":"09","name":"Bayern"}},{"name":"Naupliaallee","postalCode":"85521","locality":"Ottobrunn","municipality":{"key":"09184136","name":"Ottobrunn","type":"Kreisangehörige_Gemeinde"},"district":{"key":"09184","name":"München","type":"Landkreis"},"federalState":{"key":"09","name":"Bayern"}},{"name":"Neißeweg","postalCode":"85521","locality":"Ottobrunn","municipality":{"key":"09184136","name":"Ottobrunn","type":"Kreisangehörige_Gemeinde"},"district":{"key":"09184","name":"München","type":"Landkreis"},"federalState":{"key":"09","name":"Bayern"}},{"name":"Nimrodstr.","postalCode":"85521","locality":"Ottobrunn","municipality":{"key":"09184136","name":"Ottobrunn","type":"Kreisangehörige_Gemeinde"},"district":{"key":"09184","name":"München","type":"Landkreis"},"federalState":{"key":"09","name":"Bayern"}},{"name":"Nußbaumweg","postalCode":"85521","locality":"Ottobrunn","municipality":{"key":"09184136","name":"Ottobrunn","type":"Kreisangehörige_Gemeinde"},"district":{"key":"09184","name":"München","type":"Landkreis"},"federalState":{"key":"09","name":"Bayern"}},{"name":"Oderweg","postalCode":"85521","locality":"Ottobrunn","municipality":{"key":"09184136","name":"Ottobrunn","type":"Kreisangehörige_Gemeinde"},"district":{"key":"09184","name":"München","type":"Landkreis"},"federalState":{"key":"09","name":"Bayern"}},{"name":"Osserweg","postalCode":"85521","locality":"Ottobrunn","municipality":{"key":"09184136","name":"Ottobrunn","type":"Kreisangehörige_Gemeinde"},"district":{"key":"09184","name":"München","type":"Landkreis"},"federalState":{"key":"09","name":"Bayern"}},{"name":"Ostpreußenstr.","postalCode":"85521","locality":"Ottobrunn","municipality":{"key":"09184136","name":"Ottobrunn","type":"Kreisangehörige_Gemeinde"},"district":{"key":"09184","name":"München","type":"Landkreis"},"federalState":{"key":"09","name":"Bayern"}},{"name":"Ottostr.","postalCode":"85521","locality":"Ottobrunn","municipality":{"key":"09184136","name":"Ottobrunn","type":"Kreisangehörige_Gemeinde"},"district":{"key":"09184","name":"München","type":"Landkreis"},"federalState":{"key":"09","name":"Bayern"}},{"name":"Pestalozzistr.","postalCode":"85521","locality":"Ottobrunn","municipality":{"key":"09184136","name":"Ottobrunn","type":"Kreisangehörige_Gemeinde"},"district":{"key":"09184","name":"München","type":"Landkreis"},"federalState":{"key":"09","name":"Bayern"}},{"name":"Pettenkoferweg","postalCode":"85521","locality":"Ottobrunn","municipality":{"key":"09184136","name":"Ottobrunn","type":"Kreisangehörige_Gemeinde"},"district":{"key":"09184","name":"München","type":"Landkreis"},"federalState":{"key":"09","name":"Bayern"}},{"name":"Pommernstr.","postalCode":"85521","locality":"Ottobrunn","municipality":{"key":"09184136","name":"Ottobrunn","type":"Kreisangehörige_Gemeinde"},"district":{"key":"09184","name":"München","type":"Landkreis"},"federalState":{"key":"09","name":"Bayern"}},{"name":"Prinz-Otto-Str.","postalCode":"85521","locality":"Ottobrunn","municipality":{"key":"09184136","name":"Ottobrunn","type":"Kreisangehörige_Gemeinde"},"district":{"key":"09184","name":"München","type":"Landkreis"},"federalState":{"key":"09","name":"Bayern"}},{"name":"Professor-Messerschmitt-Str.","postalCode":"85521","locality":"Ottobrunn","municipality":{"key":"09184136","name":"Ottobrunn","type":"Kreisangehörige_Gemeinde"},"district":{"key":"09184","name":"München","type":"Landkreis"},"federalState":{"key":"09","name":"Bayern"}},{"name":"Promenadestr.","postalCode":"85521","locality":"Ottobrunn","municipality":{"key":"09184136","name":"Ottobrunn","type":"Kreisangehörige_Gemeinde"},"district":{"key":"09184","name":"München","type":"Landkreis"},"federalState":{"key":"09","name":"Bayern"}},{"name":"Putzbrunner Str.","postalCode":"85521","locality":"Ottobrunn","municipality":{"key":"09184136","name":"Ottobrunn","type":"Kreisangehörige_Gemeinde"},"district":{"key":"09184","name":"München","type":"Landkreis"},"federalState":{"key":"09","name":"Bayern"}},{"name":"Quagliostr.","postalCode":"81543","locality":"München","municipality":{"key":"09162000","name":"München, Landeshauptstadt","type":"Kreisfreie_Stadt"},"district":{"key":"09162","name":"München, Landeshauptstadt","type":"Kreisfreie_Stadt"},"federalState":{"key":"09","name":"Bayern"}},{"name":"Quedlinburger Str.","postalCode":"80992","locality":"München","municipality":{"key":"09162000","name":"München, Landeshauptstadt","type":"Kreisfreie_Stadt"},"district":{"key":"09162","name":"München, Landeshauptstadt","type":"Kreisfreie_Stadt"},"federalState":{"key":"09","name":"Bayern"}},{"name":"Quellweg","postalCode":"85551","locality":"Kirchheim bei München","municipality":{"key":"09184131","name":"Kirchheim b.München","type":"Kreisangehörige_Gemeinde"},"district":{"key":"09184","name":"München","type":"Landkreis"},"federalState":{"key":"09","name":"Bayern"}},{"name":"Queristr.","postalCode":"80689","locality":"München","municipality":{"key":"09162000","name":"München, Landeshauptstadt","type":"Kreisfreie_Stadt"},"district":{"key":"09162","name":"München, Landeshauptstadt","type":"Kreisfreie_Stadt"},"federalState":{"key":"09","name":"Bayern"}},{"name":"Querstr.","postalCode":"07589","locality":"Münchenbernsdorf","municipality":{"key":"16076049","name":"Münchenbernsdorf, Stadt","type":"Stadt"},"district":{"key":"16076","name":"Greiz","type":"Landkreis"},"federalState":{"key":"16","name":"Thüringen"}},{"name":"Quiddestr.","postalCode":"81735","locality":"München","municipality":{"key":"09162000","name":"München, Landeshauptstadt","type":"Kreisfreie_Stadt"},"district":{"key":"09162","name":"München, Landeshauptstadt","type":"Kreisfreie_Stadt"},"federalState":{"key":"09","name":"Bayern"}},{"name":"Quiddestr.","postalCode":"81737","locality":"München","municipality":{"key":"09162000","name":"München, Landeshauptstadt","type":"Kreisfreie_Stadt"},"district":{"key":"09162","name":"München, Landeshauptstadt","type":"Kreisfreie_Stadt"},"federalState":{"key":"09","name":"Bayern"}},{"name":"Rabenweg","postalCode":"85521","locality":"Ottobrunn","municipality":{"key":"09184136","name":"Ottobrunn","type":"Kreisangehörige_Gemeinde"},"district":{"key":"09184","name":"München","type":"Landkreis"},"federalState":{"key":"09","name":"Bayern"}},{"name":"Ranhazweg","postalCode":"85521","locality":"Ottobrunn","municipality":{"key":"09184136","name":"Ottobrunn","type":"Kreisangehörige_Gemeinde"},"district":{"key":"09184","name":"München","type":"Landkreis"},"federalState":{"key":"09","name":"Bayern"}},{"name":"Rathausstr.","postalCode":"85521","locality":"Ottobrunn","municipality":{"key":"09184136","name":"Ottobrunn","type":"Kreisangehörige_Gemeinde"},"district":{"key":"09184","name":"München","type":"Landkreis"},"federalState":{"key":"09","name":"Bayern"}},{"name":"Rembrandtstr.","postalCode":"85521","locality":"Ottobrunn","municipality":{"key":"09184136","name":"Ottobrunn","type":"Kreisangehörige_Gemeinde"},"district":{"key":"09184","name":"München","type":"Landkreis"},"federalState":{"key":"09","name":"Bayern"}},{"name":"Resselweg","postalCode":"85521","locality":"Ottobrunn","municipality":{"key":"09184136","name":"Ottobrunn","type":"Kreisangehörige_Gemeinde"},"district":{"key":"09184","name":"München","type":"Landkreis"},"federalState":{"key":"09","name":"Bayern"}},{"name":"Richard-Wagner-Str.","postalCode":"85521","locality":"Ottobrunn","municipality":{"key":"09184136","name":"Ottobrunn","type":"Kreisangehörige_Gemeinde"},"district":{"key":"09184","name":"München","type":"Landkreis"},"federalState":{"key":"09","name":"Bayern"}},{"name":"Riemenschneiderstr.","postalCode":"85521","locality":"Ottobrunn","municipality":{"key":"09184136","name":"Ottobrunn","type":"Kreisangehörige_Gemeinde"},"district":{"key":"09184","name":"München","type":"Landkreis"},"federalState":{"key":"09","name":"Bayern"}},{"name":"Robert-Koch-Str.","postalCode":"85521","locality":"Ottobrunn","municipality":{"key":"09184136","name":"Ottobrunn","type":"Kreisangehörige_Gemeinde"},"district":{"key":"09184","name":"München","type":"Landkreis"},"federalState":{"key":"09","name":"Bayern"}},{"name":"Röntgenstr.","postalCode":"85521","locality":"Ottobrunn","municipality":{"key":"09184136","name":"Ottobrunn","type":"Kreisangehörige_Gemeinde"},"district":{"key":"09184","name":"München","type":"Landkreis"},"federalState":{"key":"09","name":"Bayern"}},{"name":"Roseggerstr.","postalCode":"85521","locality":"Ottobrunn","municipality":{"key":"09184136","name":"Ottobrunn","type":"Kreisangehörige_Gemeinde"},"district":{"key":"09184","name":"München","type":"Landkreis"},"federalState":{"key":"09","name":"Bayern"}},{"name":"Rosenheimer Landstr.","postalCode":"85521","locality":"Ottobrunn","municipality":{"key":"09184136","name":"Ottobrunn","type":"Kreisangehörige_Gemeinde"},"district":{"key":"09184","name":"München","type":"Landkreis"},"federalState":{"key":"09","name":"Bayern"}},{"name":"Rotdornweg","postalCode":"85521","locality":"Ottobrunn","municipality":{"key":"09184136","name":"Ottobrunn","type":"Kreisangehörige_Gemeinde"},"district":{"key":"09184","name":"München","type":"Landkreis"},"federalState":{"key":"09","name":"Bayern"}},{"name":"Rotkehlchenweg","postalCode":"85521","locality":"Ottobrunn","municipality":{"key":"09184136","name":"Ottobrunn","type":"Kreisangehörige_Gemeinde"},"district":{"key":"09184","name":"München","type":"Landkreis"},"federalState":{"key":"09","name":"Bayern"}},{"name":"Rubensstr.","postalCode":"85521","locality":"Ottobrunn","municipality":{"key":"09184136","name":"Ottobrunn","type":"Kreisangehörige_Gemeinde"},"district":{"key":"09184","name":"München","type":"Landkreis"},"federalState":{"key":"09","name":"Bayern"}},{"name":"Sauerbruchweg","postalCode":"85521","locality":"Ottobrunn","municipality":{"key":"09184136","name":"Ottobrunn","type":"Kreisangehörige_Gemeinde"},"district":{"key":"09184","name":"München","type":"Landkreis"},"federalState":{"key":"09","name":"Bayern"}},{"name":"Schillerstr.","postalCode":"85521","locality":"Ottobrunn","municipality":{"key":"09184136","name":"Ottobrunn","type":"Kreisangehörige_Gemeinde"},"district":{"key":"09184","name":"München","type":"Landkreis"},"federalState":{"key":"09","name":"Bayern"}},{"name":"Schlernweg","postalCode":"85521","locality":"Ottobrunn","municipality":{"key":"09184136","name":"Ottobrunn","type":"Kreisangehörige_Gemeinde"},"district":{"key":"09184","name":"München","type":"Landkreis"},"federalState":{"key":"09","name":"Bayern"}},{"name":"Schützenstr.","postalCode":"85521","locality":"Ottobrunn","municipality":{"key":"09184136","name":"Ottobrunn","type":"Kreisangehörige_Gemeinde"},"district":{"key":"09184","name":"München","type":"Landkreis"},"federalState":{"key":"09","name":"Bayern"}},{"name":"Schwalbenstr.","postalCode":"85521","locality":"Ottobrunn","municipality":{"key":"09184136","name":"Ottobrunn","type":"Kreisangehörige_Gemeinde"},"district":{"key":"09184","name":"München","type":"Landkreis"},"federalState":{"key":"09","name":"Bayern"}},{"name":"Sebastian-Pöttinger-Weg","postalCode":"85521","locality":"Ottobrunn","municipality":{"key":"09184136","name":"Ottobrunn","type":"Kreisangehörige_Gemeinde"},"district":{"key":"09184","name":"München","type":"Landkreis"},"federalState":{"key":"09","name":"Bayern"}},{"name":"Seebauerstr.","postalCode":"85521","locality":"Ottobrunn","municipality":{"key":"09184136","name":"Ottobrunn","type":"Kreisangehörige_Gemeinde"},"district":{"key":"09184","name":"München","type":"Landkreis"},"federalState":{"key":"09","name":"Bayern"}},{"name":"Spitzwegstr.","postalCode":"85521","locality":"Ottobrunn","municipality":{"key":"09184136","name":"Ottobrunn","type":"Kreisangehörige_Gemeinde"},"district":{"key":"09184","name":"München","type":"Landkreis"},"federalState":{"key":"09","name":"Bayern"}},{"name":"Starenweg","postalCode":"85521","locality":"Ottobrunn","municipality":{"key":"09184136","name":"Ottobrunn","type":"Kreisangehörige_Gemeinde"},"district":{"key":"09184","name":"München","type":"Landkreis"},"federalState":{"key":"09","name":"Bayern"}},{"name":"Sudetenstr.","postalCode":"85521","locality":"Ottobrunn","municipality":{"key":"09184136","name":"Ottobrunn","type":"Kreisangehörige_Gemeinde"},"district":{"key":"09184","name":"München","type":"Landkreis"},"federalState":{"key":"09","name":"Bayern"}},{"name":"Theodor-Körner-Str.","postalCode":"85521","locality":"Ottobrunn","municipality":{"key":"09184136","name":"Ottobrunn","type":"Kreisangehörige_Gemeinde"},"district":{"key":"09184","name":"München","type":"Landkreis"},"federalState":{"key":"09","name":"Bayern"}},{"name":"Uhlandstr.","postalCode":"85521","locality":"Ottobrunn","municipality":{"key":"09184136","name":"Ottobrunn","type":"Kreisangehörige_Gemeinde"},"district":{"key":"09184","name":"München","type":"Landkreis"},"federalState":{"key":"09","name":"Bayern"}},{"name":"Ulmenstr.","postalCode":"85521","locality":"Ottobrunn","municipality":{"key":"09184136","name":"Ottobrunn","type":"Kreisangehörige_Gemeinde"},"district":{"key":"09184","name":"München","type":"Landkreis"},"federalState":{"key":"09","name":"Bayern"}},{"name":"Unterhachinger Str.","postalCode":"85521","locality":"Ottobrunn","municipality":{"key":"09184136","name":"Ottobrunn","type":"Kreisangehörige_Gemeinde"},"district":{"key":"09184","name":"München","type":"Landkreis"},"federalState":{"key":"09","name":"Bayern"}},{"name":"Valierweg","postalCode":"85521","locality":"Ottobrunn","municipality":{"key":"09184136","name":"Ottobrunn","type":"Kreisangehörige_Gemeinde"},"district":{"key":"09184","name":"München","type":"Landkreis"},"federalState":{"key":"09","name":"Bayern"}},{"name":"Virchowstr.","postalCode":"85521","locality":"Ottobrunn","municipality":{"key":"09184136","name":"Ottobrunn","type":"Kreisangehörige_Gemeinde"},"district":{"key":"09184","name":"München","type":"Landkreis"},"federalState":{"key":"09","name":"Bayern"}},{"name":"Von-Gluck-Str.","postalCode":"85521","locality":"Ottobrunn","municipality":{"key":"09184136","name":"Ottobrunn","type":"Kreisangehörige_Gemeinde"},"district":{"key":"09184","name":"München","type":"Landkreis"},"federalState":{"key":"09","name":"Bayern"}},{"name":"Wacholderweg","postalCode":"85521","locality":"Ottobrunn","municipality":{"key":"09184136","name":"Ottobrunn","type":"Kreisangehörige_Gemeinde"},"district":{"key":"09184","name":"München","type":"Landkreis"},"federalState":{"key":"09","name":"Bayern"}},{"name":"Waldparkstr.","postalCode":"85521","locality":"Ottobrunn","municipality":{"key":"09184136","name":"Ottobrunn","type":"Kreisangehörige_Gemeinde"},"district":{"key":"09184","name":"München","type":"Landkreis"},"federalState":{"key":"09","name":"Bayern"}},{"name":"Waldstr.","postalCode":"85521","locality":"Ottobrunn","municipality":{"key":"09184136","name":"Ottobrunn","type":"Kreisangehörige_Gemeinde"},"district":{"key":"09184","name":"München","type":"Landkreis"},"federalState":{"key":"09","name":"Bayern"}},{"name":"Wilhelm-Busch-Str.","postalCode":"85521","locality":"Ottobrunn","municipality":{"key":"09184136","name":"Ottobrunn","type":"Kreisangehörige_Gemeinde"},"district":{"key":"09184","name":"München","type":"Landkreis"},"federalState":{"key":"09","name":"Bayern"}},{"name":"Würmweg","postalCode":"85521","locality":"Ottobrunn","municipality":{"key":"09184136","name":"Ottobrunn","type":"Kreisangehörige_Gemeinde"},"district":{"key":"09184","name":"München","type":"Landkreis"},"federalState":{"key":"09","name":"Bayern"}},{"name":"Xaver-Weismor-Str.","postalCode":"81829","locality":"München","municipality":{"key":"09162000","name":"München, Landeshauptstadt","type":"Kreisfreie_Stadt"},"district":{"key":"09162","name":"München, Landeshauptstadt","type":"Kreisfreie_Stadt"},"federalState":{"key":"09","name":"Bayern"}},{"name":"Yorckstr.","postalCode":"80637","locality":"München","municipality":{"key":"09162000","name":"München, Landeshauptstadt","type":"Kreisfreie_Stadt"},"district":{"key":"09162","name":"München, Landeshauptstadt","type":"Kreisfreie_Stadt"},"federalState":{"key":"09","name":"Bayern"}},{"name":"Ysenburgstr.","postalCode":"80634","locality":"München","municipality":{"key":"09162000","name":"München, Landeshauptstadt","type":"Kreisfreie_Stadt"},"district":{"key":"09162","name":"München, Landeshauptstadt","type":"Kreisfreie_Stadt"},"federalState":{"key":"09","name":"Bayern"}},{"name":"Zaunkönigstr.","postalCode":"85521","locality":"Ottobrunn","municipality":{"key":"09184136","name":"Ottobrunn","type":"Kreisangehörige_Gemeinde"},"district":{"key":"09184","name":"München","type":"Landkreis"},"federalState":{"key":"09","name":"Bayern"}},{"name":"Zeisigstr.","postalCode":"85521","locality":"Ottobrunn","municipality":{"key":"09184136","name":"Ottobrunn","type":"Kreisangehörige_Gemeinde"},"district":{"key":"09184","name":"München","type":"Landkreis"},"federalState":{"key":"09","name":"Bayern"}},{"name":"Öcklweg","postalCode":"81369","locality":"München","municipality":{"key":"09162000","name":"München, Landeshauptstadt","type":"Kreisfreie_Stadt"},"district":{"key":"09162","name":"München, Landeshauptstadt","type":"Kreisfreie_Stadt"},"federalState":{"key":"09","name":"Bayern"}},{"name":"Öffentliche Grünanlage am Horst-Salzmann-Weg","postalCode":"81825","locality":"München","municipality":{"key":"09162000","name":"München, Landeshauptstadt","type":"Kreisfreie_Stadt"},"district":{"key":"09162","name":"München, Landeshauptstadt","type":"Kreisfreie_Stadt"},"federalState":{"key":"09","name":"Bayern"}},{"name":"Öffentliche Grünfläche Hochäckerstr.","postalCode":"81737","locality":"München","municipality":{"key":"09162000","name":"München, Landeshauptstadt","type":"Kreisfreie_Stadt"},"district":{"key":"09162","name":"München, Landeshauptstadt","type":"Kreisfreie_Stadt"},"federalState":{"key":"09","name":"Bayern"}},{"name":"Öffentlicher Garten am Kriegsarchiv","postalCode":"80636","locality":"München","municipality":{"key":"09162000","name":"München, Landeshauptstadt","type":"Kreisfreie_Stadt"},"district":{"key":"09162","name":"München, Landeshauptstadt","type":"Kreisfreie_Stadt"},"federalState":{"key":"09","name":"Bayern"}},{"name":"Ölbergstr.","postalCode":"93449","locality":"Waldmünchen","municipality":{"key":"09372171","name":"Waldmünchen, St","type":"Stadt"},"district":{"key":"09372","name":"Cham","type":"Landkreis"},"federalState":{"key":"09","name":"Bayern"}},{"name":"Ölbergweg","postalCode":"93449","locality":"Waldmünchen","municipality":{"key":"09372171","name":"Waldmünchen, St","type":"Stadt"},"district":{"key":"09372","name":"Cham","type":"Landkreis"},"federalState":{"key":"09","name":"Bayern"}},{"name":"Ötschmannweg","postalCode":"81369","locality":"München","municipality":{"key":"09162000","name":"München, Landeshauptstadt","type":"Kreisfreie_Stadt"},"district":{"key":"09162","name":"München, Landeshauptstadt","type":"Kreisfreie_Stadt"},"federalState":{"key":"09","name":"Bayern"}},{"name":"Öttlmairstr.","postalCode":"81737","locality":"München","municipality":{"key":"09162000","name":"München, Landeshauptstadt","type":"Kreisfreie_Stadt"},"district":{"key":"09162","name":"München, Landeshauptstadt","type":"Kreisfreie_Stadt"},"federalState":{"key":"09","name":"Bayern"}},{"name":"Über der Klause","postalCode":"81545","locality":"München","municipality":{"key":"09162000","name":"München, Landeshauptstadt","type":"Kreisfreie_Stadt"},"district":{"key":"09162","name":"München, Landeshauptstadt","type":"Kreisfreie_Stadt"},"federalState":{"key":"09","name":"Bayern"}},{"name":"Überlinger Weg","postalCode":"81243","locality":"München","municipality":{"key":"09162000","name":"München, Landeshauptstadt","type":"Kreisfreie_Stadt"},"district":{"key":"09162","name":"München, Landeshauptstadt","type":"Kreisfreie_Stadt"},"federalState":{"key":"09","name":"Bayern"}},{"name":"Überreiterstr.","postalCode":"81247","locality":"München","municipality":{"key":"09162000","name":"München, Landeshauptstadt","type":"Kreisfreie_Stadt"},"district":{"key":"09162","name":"München, Landeshauptstadt","type":"Kreisfreie_Stadt"},"federalState":{"key":"09","name":"Bayern"}},{"name":"Überreiterweg","postalCode":"85748","locality":"Garching bei München","municipality":{"key":"09184119","name":"Garching b.München, St","type":"Stadt"},"district":{"key":"09184","name":"München","type":"Landkreis"},"federalState":{"key":"09","name":"Bayern"}},{"name":"Überrheinerstr.","postalCode":"85551","locality":"Kirchheim bei München","municipality":{"key":"09184131","name":"Kirchheim b.München","type":"Kreisangehörige_Gemeinde"},"district":{"key":"09184","name":"München","type":"Landkreis"},"federalState":{"key":"09","name":"Bayern"}},{"name":"Überseeplatz","postalCode":"81825","locality":"München","municipality":{"key":"09162000","name":"München, Landeshauptstadt","type":"Kreisfreie_Stadt"},"district":{"key":"09162","name":"München, Landeshauptstadt","type":"Kreisfreie_Stadt"},"federalState":{"key":"09","name":"Bayern"}},]