[{"name":"Allee","postalCode":"09579","locality":"Grünhainichen","municipality":{"key":"14521270","name":"Grünhainichen","type":"Kreisangehörige_Gemeinde"},"district":{"key":"14521","name":"Erzgebirgskreis","type":"Landkreis"},"federalState":{"key":"14","name":"Sachsen"}},{"name":"Alte Dorfstr.","postalCode":"09579","locality":"Grünhainichen","municipality":{"key":"14521270","name":"Grünhainichen","type":"Kreisangehörige_Gemeinde"},"district":{"key":"14521","name":"Erzgebirgskreis","type":"Landkreis"},"federalState":{"key":"14","name":"Sachsen"}},{"name":"Alte Leitstr.","postalCode":"09579","locality":"Grünhainichen","municipality":{"key":"14521270","name":"Grünhainichen","type":"Kreisangehörige_Gemeinde"},"district":{"key":"14521","name":"Erzgebirgskreis","type":"Landkreis"},"federalState":{"key":"14","name":"Sachsen"}},{"name":"Am Berg","postalCode":"09579","locality":"Grünhainichen","municipality":{"key":"14521270","name":"Grünhainichen","type":"Kreisangehörige_Gemeinde"},"district":{"key":"14521","name":"Erzgebirgskreis","type":"Landkreis"},"federalState":{"key":"14","name":"Sachsen"}},{"name":"Am Feldrain","postalCode":"09579","locality":"Grünhainichen","municipality":{"key":"14521270","name":"Grünhainichen","type":"Kreisangehörige_Gemeinde"},"district":{"key":"14521","name":"Erzgebirgskreis","type":"Landkreis"},"federalState":{"key":"14","name":"Sachsen"}},{"name":"Am Kinderheim","postalCode":"09579","locality":"Grünhainichen","municipality":{"key":"14521270","name":"Grünhainichen","type":"Kreisangehörige_Gemeinde"},"district":{"key":"14521","name":"Erzgebirgskreis","type":"Landkreis"},"federalState":{"key":"14","name":"Sachsen"}},{"name":"Am Kleesberg","postalCode":"09579","locality":"Grünhainichen","municipality":{"key":"14521270","name":"Grünhainichen","type":"Kreisangehörige_Gemeinde"},"district":{"key":"14521","name":"Erzgebirgskreis","type":"Landkreis"},"federalState":{"key":"14","name":"Sachsen"}},{"name":"Am Scheffelsberg","postalCode":"09579","locality":"Grünhainichen","municipality":{"key":"14521270","name":"Grünhainichen","type":"Kreisangehörige_Gemeinde"},"district":{"key":"14521","name":"Erzgebirgskreis","type":"Landkreis"},"federalState":{"key":"14","name":"Sachsen"}},{"name":"Am Schrebergarten","postalCode":"09579","locality":"Grünhainichen","municipality":{"key":"14521270","name":"Grünhainichen","type":"Kreisangehörige_Gemeinde"},"district":{"key":"14521","name":"Erzgebirgskreis","type":"Landkreis"},"federalState":{"key":"14","name":"Sachsen"}},{"name":"Am Sportplatz","postalCode":"09579","locality":"Grünhainichen","municipality":{"key":"14521270","name":"Grünhainichen","type":"Kreisangehörige_Gemeinde"},"district":{"key":"14521","name":"Erzgebirgskreis","type":"Landkreis"},"federalState":{"key":"14","name":"Sachsen"}},{"name":"Am Südhang","postalCode":"09579","locality":"Grünhainichen","municipality":{"key":"14521270","name":"Grünhainichen","type":"Kreisangehörige_Gemeinde"},"district":{"key":"14521","name":"Erzgebirgskreis","type":"Landkreis"},"federalState":{"key":"14","name":"Sachsen"}},{"name":"Am Waldrand","postalCode":"09579","locality":"Grünhainichen","municipality":{"key":"14521270","name":"Grünhainichen","type":"Kreisangehörige_Gemeinde"},"district":{"key":"14521","name":"Erzgebirgskreis","type":"Landkreis"},"federalState":{"key":"14","name":"Sachsen"}},{"name":"Am Wasserwerk","postalCode":"09579","locality":"Grünhainichen","municipality":{"key":"14521270","name":"Grünhainichen","type":"Kreisangehörige_Gemeinde"},"district":{"key":"14521","name":"Erzgebirgskreis","type":"Landkreis"},"federalState":{"key":"14","name":"Sachsen"}},{"name":"An der Kirche","postalCode":"09579","locality":"Grünhainichen","municipality":{"key":"14521270","name":"Grünhainichen","type":"Kreisangehörige_Gemeinde"},"district":{"key":"14521","name":"Erzgebirgskreis","type":"Landkreis"},"federalState":{"key":"14","name":"Sachsen"}},{"name":"August-Bebel-Str.","postalCode":"09579","locality":"Grünhainichen","municipality":{"key":"14521270","name":"Grünhainichen","type":"Kreisangehörige_Gemeinde"},"district":{"key":"14521","name":"Erzgebirgskreis","type":"Landkreis"},"federalState":{"key":"14","name":"Sachsen"}},{"name":"Augustusburger Str.","postalCode":"09579","locality":"Grünhainichen","municipality":{"key":"14521270","name":"Grünhainichen","type":"Kreisangehörige_Gemeinde"},"district":{"key":"14521","name":"Erzgebirgskreis","type":"Landkreis"},"federalState":{"key":"14","name":"Sachsen"}},{"name":"Börnichener Str.","postalCode":"09579","locality":"Grünhainichen","municipality":{"key":"14521270","name":"Grünhainichen","type":"Kreisangehörige_Gemeinde"},"district":{"key":"14521","name":"Erzgebirgskreis","type":"Landkreis"},"federalState":{"key":"14","name":"Sachsen"}},{"name":"Buchenweg","postalCode":"09579","locality":"Grünhainichen","municipality":{"key":"14521270","name":"Grünhainichen","type":"Kreisangehörige_Gemeinde"},"district":{"key":"14521","name":"Erzgebirgskreis","type":"Landkreis"},"federalState":{"key":"14","name":"Sachsen"}},{"name":"Chemnitzer Str.","postalCode":"09579","locality":"Grünhainichen","municipality":{"key":"14521270","name":"Grünhainichen","type":"Kreisangehörige_Gemeinde"},"district":{"key":"14521","name":"Erzgebirgskreis","type":"Landkreis"},"federalState":{"key":"14","name":"Sachsen"}},{"name":"Dorfbachweg","postalCode":"09579","locality":"Grünhainichen","municipality":{"key":"14521270","name":"Grünhainichen","type":"Kreisangehörige_Gemeinde"},"district":{"key":"14521","name":"Erzgebirgskreis","type":"Landkreis"},"federalState":{"key":"14","name":"Sachsen"}},{"name":"Dorfstr.","postalCode":"09579","locality":"Grünhainichen","municipality":{"key":"14521270","name":"Grünhainichen","type":"Kreisangehörige_Gemeinde"},"district":{"key":"14521","name":"Erzgebirgskreis","type":"Landkreis"},"federalState":{"key":"14","name":"Sachsen"}},{"name":"Dürrebergweg","postalCode":"09579","locality":"Grünhainichen","municipality":{"key":"14521270","name":"Grünhainichen","type":"Kreisangehörige_Gemeinde"},"district":{"key":"14521","name":"Erzgebirgskreis","type":"Landkreis"},"federalState":{"key":"14","name":"Sachsen"}},{"name":"Ehemaliger Park Waldkirchen","postalCode":"09579","locality":"Grünhainichen","municipality":{"key":"14521270","name":"Grünhainichen","type":"Kreisangehörige_Gemeinde"},"district":{"key":"14521","name":"Erzgebirgskreis","type":"Landkreis"},"federalState":{"key":"14","name":"Sachsen"}},{"name":"Eichenweg","postalCode":"09579","locality":"Grünhainichen","municipality":{"key":"14521270","name":"Grünhainichen","type":"Kreisangehörige_Gemeinde"},"district":{"key":"14521","name":"Erzgebirgskreis","type":"Landkreis"},"federalState":{"key":"14","name":"Sachsen"}},{"name":"Eisenstr.","postalCode":"09579","locality":"Grünhainichen","municipality":{"key":"14521270","name":"Grünhainichen","type":"Kreisangehörige_Gemeinde"},"district":{"key":"14521","name":"Erzgebirgskreis","type":"Landkreis"},"federalState":{"key":"14","name":"Sachsen"}},{"name":"Eppendorfer Str.","postalCode":"09579","locality":"Grünhainichen","municipality":{"key":"14521270","name":"Grünhainichen","type":"Kreisangehörige_Gemeinde"},"district":{"key":"14521","name":"Erzgebirgskreis","type":"Landkreis"},"federalState":{"key":"14","name":"Sachsen"}},{"name":"Fabrikstr.","postalCode":"09579","locality":"Grünhainichen","municipality":{"key":"14521270","name":"Grünhainichen","type":"Kreisangehörige_Gemeinde"},"district":{"key":"14521","name":"Erzgebirgskreis","type":"Landkreis"},"federalState":{"key":"14","name":"Sachsen"}},{"name":"Fabrikweg","postalCode":"09579","locality":"Grünhainichen","municipality":{"key":"14521270","name":"Grünhainichen","type":"Kreisangehörige_Gemeinde"},"district":{"key":"14521","name":"Erzgebirgskreis","type":"Landkreis"},"federalState":{"key":"14","name":"Sachsen"}},{"name":"Felbergasse","postalCode":"09579","locality":"Grünhainichen","municipality":{"key":"14521270","name":"Grünhainichen","type":"Kreisangehörige_Gemeinde"},"district":{"key":"14521","name":"Erzgebirgskreis","type":"Landkreis"},"federalState":{"key":"14","name":"Sachsen"}},{"name":"Flöhatalstr.","postalCode":"09579","locality":"Grünhainichen","municipality":{"key":"14521270","name":"Grünhainichen","type":"Kreisangehörige_Gemeinde"},"district":{"key":"14521","name":"Erzgebirgskreis","type":"Landkreis"},"federalState":{"key":"14","name":"Sachsen"}},{"name":"Floßmühle","postalCode":"09579","locality":"Grünhainichen","municipality":{"key":"14521270","name":"Grünhainichen","type":"Kreisangehörige_Gemeinde"},"district":{"key":"14521","name":"Erzgebirgskreis","type":"Landkreis"},"federalState":{"key":"14","name":"Sachsen"}},{"name":"Floßmühler Str.","postalCode":"09579","locality":"Grünhainichen","municipality":{"key":"14521270","name":"Grünhainichen","type":"Kreisangehörige_Gemeinde"},"district":{"key":"14521","name":"Erzgebirgskreis","type":"Landkreis"},"federalState":{"key":"14","name":"Sachsen"}},{"name":"Flügel 2","postalCode":"09579","locality":"Grünhainichen","municipality":{"key":"14521270","name":"Grünhainichen","type":"Kreisangehörige_Gemeinde"},"district":{"key":"14521","name":"Erzgebirgskreis","type":"Landkreis"},"federalState":{"key":"14","name":"Sachsen"}},{"name":"Flügel 3","postalCode":"09579","locality":"Grünhainichen","municipality":{"key":"14521270","name":"Grünhainichen","type":"Kreisangehörige_Gemeinde"},"district":{"key":"14521","name":"Erzgebirgskreis","type":"Landkreis"},"federalState":{"key":"14","name":"Sachsen"}},{"name":"Flügel D","postalCode":"09579","locality":"Grünhainichen","municipality":{"key":"14521270","name":"Grünhainichen","type":"Kreisangehörige_Gemeinde"},"district":{"key":"14521","name":"Erzgebirgskreis","type":"Landkreis"},"federalState":{"key":"14","name":"Sachsen"}},{"name":"Flügelweg 2","postalCode":"09579","locality":"Grünhainichen","municipality":{"key":"14521270","name":"Grünhainichen","type":"Kreisangehörige_Gemeinde"},"district":{"key":"14521","name":"Erzgebirgskreis","type":"Landkreis"},"federalState":{"key":"14","name":"Sachsen"}},{"name":"Flügelweg 3","postalCode":"09579","locality":"Grünhainichen","municipality":{"key":"14521270","name":"Grünhainichen","type":"Kreisangehörige_Gemeinde"},"district":{"key":"14521","name":"Erzgebirgskreis","type":"Landkreis"},"federalState":{"key":"14","name":"Sachsen"}},{"name":"Försterbauerweg","postalCode":"09579","locality":"Grünhainichen","municipality":{"key":"14521270","name":"Grünhainichen","type":"Kreisangehörige_Gemeinde"},"district":{"key":"14521","name":"Erzgebirgskreis","type":"Landkreis"},"federalState":{"key":"14","name":"Sachsen"}},{"name":"Gartenstr.","postalCode":"09579","locality":"Grünhainichen","municipality":{"key":"14521270","name":"Grünhainichen","type":"Kreisangehörige_Gemeinde"},"district":{"key":"14521","name":"Erzgebirgskreis","type":"Landkreis"},"federalState":{"key":"14","name":"Sachsen"}},{"name":"Gerichtsstr.","postalCode":"09579","locality":"Grünhainichen","municipality":{"key":"14521270","name":"Grünhainichen","type":"Kreisangehörige_Gemeinde"},"district":{"key":"14521","name":"Erzgebirgskreis","type":"Landkreis"},"federalState":{"key":"14","name":"Sachsen"}},{"name":"Grete-Wendt-Str.","postalCode":"09579","locality":"Grünhainichen","municipality":{"key":"14521270","name":"Grünhainichen","type":"Kreisangehörige_Gemeinde"},"district":{"key":"14521","name":"Erzgebirgskreis","type":"Landkreis"},"federalState":{"key":"14","name":"Sachsen"}},{"name":"Grüner Wald","postalCode":"09573","locality":"Grünhainichen","municipality":{"key":"14521270","name":"Grünhainichen","type":"Kreisangehörige_Gemeinde"},"district":{"key":"14521","name":"Erzgebirgskreis","type":"Landkreis"},"federalState":{"key":"14","name":"Sachsen"}},{"name":"Hangweg","postalCode":"09579","locality":"Grünhainichen","municipality":{"key":"14521270","name":"Grünhainichen","type":"Kreisangehörige_Gemeinde"},"district":{"key":"14521","name":"Erzgebirgskreis","type":"Landkreis"},"federalState":{"key":"14","name":"Sachsen"}},{"name":"Hauptstr.","postalCode":"09579","locality":"Grünhainichen","municipality":{"key":"14521270","name":"Grünhainichen","type":"Kreisangehörige_Gemeinde"},"district":{"key":"14521","name":"Erzgebirgskreis","type":"Landkreis"},"federalState":{"key":"14","name":"Sachsen"}},{"name":"Heuweg","postalCode":"09579","locality":"Grünhainichen","municipality":{"key":"14521270","name":"Grünhainichen","type":"Kreisangehörige_Gemeinde"},"district":{"key":"14521","name":"Erzgebirgskreis","type":"Landkreis"},"federalState":{"key":"14","name":"Sachsen"}},{"name":"Hoher Weg","postalCode":"09579","locality":"Grünhainichen","municipality":{"key":"14521270","name":"Grünhainichen","type":"Kreisangehörige_Gemeinde"},"district":{"key":"14521","name":"Erzgebirgskreis","type":"Landkreis"},"federalState":{"key":"14","name":"Sachsen"}},{"name":"Hohe Str.","postalCode":"09579","locality":"Grünhainichen","municipality":{"key":"14521270","name":"Grünhainichen","type":"Kreisangehörige_Gemeinde"},"district":{"key":"14521","name":"Erzgebirgskreis","type":"Landkreis"},"federalState":{"key":"14","name":"Sachsen"}},{"name":"Jägersteig","postalCode":"09579","locality":"Grünhainichen","municipality":{"key":"14521270","name":"Grünhainichen","type":"Kreisangehörige_Gemeinde"},"district":{"key":"14521","name":"Erzgebirgskreis","type":"Landkreis"},"federalState":{"key":"14","name":"Sachsen"}},{"name":"Kirchstr.","postalCode":"09579","locality":"Grünhainichen","municipality":{"key":"14521270","name":"Grünhainichen","type":"Kreisangehörige_Gemeinde"},"district":{"key":"14521","name":"Erzgebirgskreis","type":"Landkreis"},"federalState":{"key":"14","name":"Sachsen"}},{"name":"Kirchweg","postalCode":"09579","locality":"Grünhainichen","municipality":{"key":"14521270","name":"Grünhainichen","type":"Kreisangehörige_Gemeinde"},"district":{"key":"14521","name":"Erzgebirgskreis","type":"Landkreis"},"federalState":{"key":"14","name":"Sachsen"}},{"name":"Kleesbergstr.","postalCode":"09579","locality":"Grünhainichen","municipality":{"key":"14521270","name":"Grünhainichen","type":"Kreisangehörige_Gemeinde"},"district":{"key":"14521","name":"Erzgebirgskreis","type":"Landkreis"},"federalState":{"key":"14","name":"Sachsen"}},{"name":"Krumhermersdorfer Str.","postalCode":"09579","locality":"Grünhainichen","municipality":{"key":"14521270","name":"Grünhainichen","type":"Kreisangehörige_Gemeinde"},"district":{"key":"14521","name":"Erzgebirgskreis","type":"Landkreis"},"federalState":{"key":"14","name":"Sachsen"}},{"name":"Kühler Morgen","postalCode":"09579","locality":"Grünhainichen","municipality":{"key":"14521270","name":"Grünhainichen","type":"Kreisangehörige_Gemeinde"},"district":{"key":"14521","name":"Erzgebirgskreis","type":"Landkreis"},"federalState":{"key":"14","name":"Sachsen"}},{"name":"Langer Flügel","postalCode":"09579","locality":"Grünhainichen","municipality":{"key":"14521270","name":"Grünhainichen","type":"Kreisangehörige_Gemeinde"},"district":{"key":"14521","name":"Erzgebirgskreis","type":"Landkreis"},"federalState":{"key":"14","name":"Sachsen"}},{"name":"Lengefelder Str.","postalCode":"09579","locality":"Grünhainichen","municipality":{"key":"14521270","name":"Grünhainichen","type":"Kreisangehörige_Gemeinde"},"district":{"key":"14521","name":"Erzgebirgskreis","type":"Landkreis"},"federalState":{"key":"14","name":"Sachsen"}},{"name":"Leubsdorfer Str.","postalCode":"09579","locality":"Grünhainichen","municipality":{"key":"14521270","name":"Grünhainichen","type":"Kreisangehörige_Gemeinde"},"district":{"key":"14521","name":"Erzgebirgskreis","type":"Landkreis"},"federalState":{"key":"14","name":"Sachsen"}},{"name":"Lippersdorfer Str.","postalCode":"09579","locality":"Grünhainichen","municipality":{"key":"14521270","name":"Grünhainichen","type":"Kreisangehörige_Gemeinde"},"district":{"key":"14521","name":"Erzgebirgskreis","type":"Landkreis"},"federalState":{"key":"14","name":"Sachsen"}},{"name":"Marbacher Str.","postalCode":"09579","locality":"Grünhainichen","municipality":{"key":"14521270","name":"Grünhainichen","type":"Kreisangehörige_Gemeinde"},"district":{"key":"14521","name":"Erzgebirgskreis","type":"Landkreis"},"federalState":{"key":"14","name":"Sachsen"}},{"name":"Mühlenplatz","postalCode":"09579","locality":"Grünhainichen","municipality":{"key":"14521270","name":"Grünhainichen","type":"Kreisangehörige_Gemeinde"},"district":{"key":"14521","name":"Erzgebirgskreis","type":"Landkreis"},"federalState":{"key":"14","name":"Sachsen"}},{"name":"Mühlenstr.","postalCode":"09579","locality":"Grünhainichen","municipality":{"key":"14521270","name":"Grünhainichen","type":"Kreisangehörige_Gemeinde"},"district":{"key":"14521","name":"Erzgebirgskreis","type":"Landkreis"},"federalState":{"key":"14","name":"Sachsen"}},{"name":"Mühlholzweg","postalCode":"09579","locality":"Grünhainichen","municipality":{"key":"14521270","name":"Grünhainichen","type":"Kreisangehörige_Gemeinde"},"district":{"key":"14521","name":"Erzgebirgskreis","type":"Landkreis"},"federalState":{"key":"14","name":"Sachsen"}},{"name":"Nordhang","postalCode":"09579","locality":"Grünhainichen","municipality":{"key":"14521270","name":"Grünhainichen","type":"Kreisangehörige_Gemeinde"},"district":{"key":"14521","name":"Erzgebirgskreis","type":"Landkreis"},"federalState":{"key":"14","name":"Sachsen"}},{"name":"Nordstr.","postalCode":"09579","locality":"Grünhainichen","municipality":{"key":"14521270","name":"Grünhainichen","type":"Kreisangehörige_Gemeinde"},"district":{"key":"14521","name":"Erzgebirgskreis","type":"Landkreis"},"federalState":{"key":"14","name":"Sachsen"}},{"name":"Obergutstr.","postalCode":"09579","locality":"Grünhainichen","municipality":{"key":"14521270","name":"Grünhainichen","type":"Kreisangehörige_Gemeinde"},"district":{"key":"14521","name":"Erzgebirgskreis","type":"Landkreis"},"federalState":{"key":"14","name":"Sachsen"}},{"name":"Oelmühlenweg","postalCode":"09579","locality":"Grünhainichen","municipality":{"key":"14521270","name":"Grünhainichen","type":"Kreisangehörige_Gemeinde"},"district":{"key":"14521","name":"Erzgebirgskreis","type":"Landkreis"},"federalState":{"key":"14","name":"Sachsen"}},{"name":"Oswald-Wagner-Str.","postalCode":"09579","locality":"Grünhainichen","municipality":{"key":"14521270","name":"Grünhainichen","type":"Kreisangehörige_Gemeinde"},"district":{"key":"14521","name":"Erzgebirgskreis","type":"Landkreis"},"federalState":{"key":"14","name":"Sachsen"}},{"name":"Pfarrweg","postalCode":"09579","locality":"Grünhainichen","municipality":{"key":"14521270","name":"Grünhainichen","type":"Kreisangehörige_Gemeinde"},"district":{"key":"14521","name":"Erzgebirgskreis","type":"Landkreis"},"federalState":{"key":"14","name":"Sachsen"}},{"name":"Querstr.","postalCode":"09579","locality":"Grünhainichen","municipality":{"key":"14521270","name":"Grünhainichen","type":"Kreisangehörige_Gemeinde"},"district":{"key":"14521","name":"Erzgebirgskreis","type":"Landkreis"},"federalState":{"key":"14","name":"Sachsen"}},{"name":"Rathausweg","postalCode":"09579","locality":"Grünhainichen","municipality":{"key":"14521270","name":"Grünhainichen","type":"Kreisangehörige_Gemeinde"},"district":{"key":"14521","name":"Erzgebirgskreis","type":"Landkreis"},"federalState":{"key":"14","name":"Sachsen"}},{"name":"Ringweg","postalCode":"09579","locality":"Grünhainichen","municipality":{"key":"14521270","name":"Grünhainichen","type":"Kreisangehörige_Gemeinde"},"district":{"key":"14521","name":"Erzgebirgskreis","type":"Landkreis"},"federalState":{"key":"14","name":"Sachsen"}},{"name":"Röthenbachweg","postalCode":"09579","locality":"Grünhainichen","municipality":{"key":"14521270","name":"Grünhainichen","type":"Kreisangehörige_Gemeinde"},"district":{"key":"14521","name":"Erzgebirgskreis","type":"Landkreis"},"federalState":{"key":"14","name":"Sachsen"}},{"name":"Schaukelbrücke","postalCode":"09579","locality":"Grünhainichen","municipality":{"key":"14521270","name":"Grünhainichen","type":"Kreisangehörige_Gemeinde"},"district":{"key":"14521","name":"Erzgebirgskreis","type":"Landkreis"},"federalState":{"key":"14","name":"Sachsen"}},{"name":"Schippanweg","postalCode":"09579","locality":"Grünhainichen","municipality":{"key":"14521270","name":"Grünhainichen","type":"Kreisangehörige_Gemeinde"},"district":{"key":"14521","name":"Erzgebirgskreis","type":"Landkreis"},"federalState":{"key":"14","name":"Sachsen"}},{"name":"Schmalweg","postalCode":"09579","locality":"Grünhainichen","municipality":{"key":"14521270","name":"Grünhainichen","type":"Kreisangehörige_Gemeinde"},"district":{"key":"14521","name":"Erzgebirgskreis","type":"Landkreis"},"federalState":{"key":"14","name":"Sachsen"}},{"name":"Schulplatz","postalCode":"09579","locality":"Grünhainichen","municipality":{"key":"14521270","name":"Grünhainichen","type":"Kreisangehörige_Gemeinde"},"district":{"key":"14521","name":"Erzgebirgskreis","type":"Landkreis"},"federalState":{"key":"14","name":"Sachsen"}},{"name":"Seitenweg","postalCode":"09579","locality":"Grünhainichen","municipality":{"key":"14521270","name":"Grünhainichen","type":"Kreisangehörige_Gemeinde"},"district":{"key":"14521","name":"Erzgebirgskreis","type":"Landkreis"},"federalState":{"key":"14","name":"Sachsen"}},{"name":"Siedlung","postalCode":"09579","locality":"Grünhainichen","municipality":{"key":"14521270","name":"Grünhainichen","type":"Kreisangehörige_Gemeinde"},"district":{"key":"14521","name":"Erzgebirgskreis","type":"Landkreis"},"federalState":{"key":"14","name":"Sachsen"}},{"name":"Siedlungsweg","postalCode":"09579","locality":"Grünhainichen","municipality":{"key":"14521270","name":"Grünhainichen","type":"Kreisangehörige_Gemeinde"},"district":{"key":"14521","name":"Erzgebirgskreis","type":"Landkreis"},"federalState":{"key":"14","name":"Sachsen"}},{"name":"Sitzplatz am Denkmal","postalCode":"09579","locality":"Grünhainichen","municipality":{"key":"14521270","name":"Grünhainichen","type":"Kreisangehörige_Gemeinde"},"district":{"key":"14521","name":"Erzgebirgskreis","type":"Landkreis"},"federalState":{"key":"14","name":"Sachsen"}},{"name":"Stein","postalCode":"09579","locality":"Grünhainichen","municipality":{"key":"14521270","name":"Grünhainichen","type":"Kreisangehörige_Gemeinde"},"district":{"key":"14521","name":"Erzgebirgskreis","type":"Landkreis"},"federalState":{"key":"14","name":"Sachsen"}},{"name":"St. Georg Park","postalCode":"09579","locality":"Grünhainichen","municipality":{"key":"14521270","name":"Grünhainichen","type":"Kreisangehörige_Gemeinde"},"district":{"key":"14521","name":"Erzgebirgskreis","type":"Landkreis"},"federalState":{"key":"14","name":"Sachsen"}},{"name":"Teichstr.","postalCode":"09579","locality":"Grünhainichen","municipality":{"key":"14521270","name":"Grünhainichen","type":"Kreisangehörige_Gemeinde"},"district":{"key":"14521","name":"Erzgebirgskreis","type":"Landkreis"},"federalState":{"key":"14","name":"Sachsen"}},{"name":"Vogelberg","postalCode":"09579","locality":"Grünhainichen","municipality":{"key":"14521270","name":"Grünhainichen","type":"Kreisangehörige_Gemeinde"},"district":{"key":"14521","name":"Erzgebirgskreis","type":"Landkreis"},"federalState":{"key":"14","name":"Sachsen"}},{"name":"Vogelherdweg","postalCode":"09579","locality":"Grünhainichen","municipality":{"key":"14521270","name":"Grünhainichen","type":"Kreisangehörige_Gemeinde"},"district":{"key":"14521","name":"Erzgebirgskreis","type":"Landkreis"},"federalState":{"key":"14","name":"Sachsen"}},{"name":"Vogelsteig","postalCode":"09579","locality":"Grünhainichen","municipality":{"key":"14521270","name":"Grünhainichen","type":"Kreisangehörige_Gemeinde"},"district":{"key":"14521","name":"Erzgebirgskreis","type":"Landkreis"},"federalState":{"key":"14","name":"Sachsen"}},{"name":"Waldkirchener Str.","postalCode":"09579","locality":"Grünhainichen","municipality":{"key":"14521270","name":"Grünhainichen","type":"Kreisangehörige_Gemeinde"},"district":{"key":"14521","name":"Erzgebirgskreis","type":"Landkreis"},"federalState":{"key":"14","name":"Sachsen"}},{"name":"Waldstr.","postalCode":"09579","locality":"Grünhainichen","municipality":{"key":"14521270","name":"Grünhainichen","type":"Kreisangehörige_Gemeinde"},"district":{"key":"14521","name":"Erzgebirgskreis","type":"Landkreis"},"federalState":{"key":"14","name":"Sachsen"}},{"name":"Weststr.","postalCode":"09579","locality":"Grünhainichen","municipality":{"key":"14521270","name":"Grünhainichen","type":"Kreisangehörige_Gemeinde"},"district":{"key":"14521","name":"Erzgebirgskreis","type":"Landkreis"},"federalState":{"key":"14","name":"Sachsen"}},{"name":"Wiesenweg","postalCode":"09579","locality":"Grünhainichen","municipality":{"key":"14521270","name":"Grünhainichen","type":"Kreisangehörige_Gemeinde"},"district":{"key":"14521","name":"Erzgebirgskreis","type":"Landkreis"},"federalState":{"key":"14","name":"Sachsen"}},{"name":"Zschopenthal","postalCode":"09579","locality":"Grünhainichen","municipality":{"key":"14521270","name":"Grünhainichen","type":"Kreisangehörige_Gemeinde"},"district":{"key":"14521","name":"Erzgebirgskreis","type":"Landkreis"},"federalState":{"key":"14","name":"Sachsen"}},{"name":"Zur Vogelwiese","postalCode":"09579","locality":"Grünhainichen","municipality":{"key":"14521270","name":"Grünhainichen","type":"Kreisangehörige_Gemeinde"},"district":{"key":"14521","name":"Erzgebirgskreis","type":"Landkreis"},"federalState":{"key":"14","name":"Sachsen"}},]