[{"name":"Adolf-August-Str.","postalCode":"16244","locality":"Schorfheide","municipality":{"key":"12060198","name":"Schorfheide","type":"Kreisangehörige_Gemeinde"},"district":{"key":"12060","name":"Barnim","type":"Landkreis"},"federalState":{"key":"12","name":"Brandenburg"}},{"name":"Ahornallee","postalCode":"16244","locality":"Schorfheide","municipality":{"key":"12060198","name":"Schorfheide","type":"Kreisangehörige_Gemeinde"},"district":{"key":"12060","name":"Barnim","type":"Landkreis"},"federalState":{"key":"12","name":"Brandenburg"}},{"name":"Ahornstr.","postalCode":"16244","locality":"Schorfheide","municipality":{"key":"12060198","name":"Schorfheide","type":"Kreisangehörige_Gemeinde"},"district":{"key":"12060","name":"Barnim","type":"Landkreis"},"federalState":{"key":"12","name":"Brandenburg"}},{"name":"Alte Joachimsthaler Str.","postalCode":"16244","locality":"Schorfheide","municipality":{"key":"12060198","name":"Schorfheide","type":"Kreisangehörige_Gemeinde"},"district":{"key":"12060","name":"Barnim","type":"Landkreis"},"federalState":{"key":"12","name":"Brandenburg"}},{"name":"Alte Mühle","postalCode":"16244","locality":"Schorfheide","municipality":{"key":"12060198","name":"Schorfheide","type":"Kreisangehörige_Gemeinde"},"district":{"key":"12060","name":"Barnim","type":"Landkreis"},"federalState":{"key":"12","name":"Brandenburg"}},{"name":"Altenhofer Dorfstr.","postalCode":"16244","locality":"Schorfheide","municipality":{"key":"12060198","name":"Schorfheide","type":"Kreisangehörige_Gemeinde"},"district":{"key":"12060","name":"Barnim","type":"Landkreis"},"federalState":{"key":"12","name":"Brandenburg"}},{"name":"Altenhofer Waldstr.","postalCode":"16244","locality":"Schorfheide","municipality":{"key":"12060198","name":"Schorfheide","type":"Kreisangehörige_Gemeinde"},"district":{"key":"12060","name":"Barnim","type":"Landkreis"},"federalState":{"key":"12","name":"Brandenburg"}},{"name":"Altenhofer Weg","postalCode":"16244","locality":"Schorfheide","municipality":{"key":"12060198","name":"Schorfheide","type":"Kreisangehörige_Gemeinde"},"district":{"key":"12060","name":"Barnim","type":"Landkreis"},"federalState":{"key":"12","name":"Brandenburg"}},{"name":"Alte Schulstr.","postalCode":"16244","locality":"Schorfheide","municipality":{"key":"12060198","name":"Schorfheide","type":"Kreisangehörige_Gemeinde"},"district":{"key":"12060","name":"Barnim","type":"Landkreis"},"federalState":{"key":"12","name":"Brandenburg"}},{"name":"Alte Triftstr.","postalCode":"16244","locality":"Schorfheide","municipality":{"key":"12060198","name":"Schorfheide","type":"Kreisangehörige_Gemeinde"},"district":{"key":"12060","name":"Barnim","type":"Landkreis"},"federalState":{"key":"12","name":"Brandenburg"}},{"name":"Am alten Bahnhof","postalCode":"16244","locality":"Schorfheide","municipality":{"key":"12060198","name":"Schorfheide","type":"Kreisangehörige_Gemeinde"},"district":{"key":"12060","name":"Barnim","type":"Landkreis"},"federalState":{"key":"12","name":"Brandenburg"}},{"name":"Am Bahnhof","postalCode":"16244","locality":"Schorfheide","municipality":{"key":"12060198","name":"Schorfheide","type":"Kreisangehörige_Gemeinde"},"district":{"key":"12060","name":"Barnim","type":"Landkreis"},"federalState":{"key":"12","name":"Brandenburg"}},{"name":"Am Graben","postalCode":"16244","locality":"Schorfheide","municipality":{"key":"12060198","name":"Schorfheide","type":"Kreisangehörige_Gemeinde"},"district":{"key":"12060","name":"Barnim","type":"Landkreis"},"federalState":{"key":"12","name":"Brandenburg"}},{"name":"Am Großen Buckowsee","postalCode":"16244","locality":"Schorfheide","municipality":{"key":"12060198","name":"Schorfheide","type":"Kreisangehörige_Gemeinde"},"district":{"key":"12060","name":"Barnim","type":"Landkreis"},"federalState":{"key":"12","name":"Brandenburg"}},{"name":"Am Heideufer","postalCode":"16244","locality":"Schorfheide","municipality":{"key":"12060198","name":"Schorfheide","type":"Kreisangehörige_Gemeinde"},"district":{"key":"12060","name":"Barnim","type":"Landkreis"},"federalState":{"key":"12","name":"Brandenburg"}},{"name":"Am Kiefernweg","postalCode":"16244","locality":"Schorfheide","municipality":{"key":"12060198","name":"Schorfheide","type":"Kreisangehörige_Gemeinde"},"district":{"key":"12060","name":"Barnim","type":"Landkreis"},"federalState":{"key":"12","name":"Brandenburg"}},{"name":"Am Kleinen Buckowsee","postalCode":"16244","locality":"Schorfheide","municipality":{"key":"12060198","name":"Schorfheide","type":"Kreisangehörige_Gemeinde"},"district":{"key":"12060","name":"Barnim","type":"Landkreis"},"federalState":{"key":"12","name":"Brandenburg"}},{"name":"Am Moospfuhl","postalCode":"16244","locality":"Schorfheide","municipality":{"key":"12060198","name":"Schorfheide","type":"Kreisangehörige_Gemeinde"},"district":{"key":"12060","name":"Barnim","type":"Landkreis"},"federalState":{"key":"12","name":"Brandenburg"}},{"name":"Am See","postalCode":"16244","locality":"Schorfheide","municipality":{"key":"12060198","name":"Schorfheide","type":"Kreisangehörige_Gemeinde"},"district":{"key":"12060","name":"Barnim","type":"Landkreis"},"federalState":{"key":"12","name":"Brandenburg"}},{"name":"Amselweg","postalCode":"16244","locality":"Schorfheide","municipality":{"key":"12060198","name":"Schorfheide","type":"Kreisangehörige_Gemeinde"},"district":{"key":"12060","name":"Barnim","type":"Landkreis"},"federalState":{"key":"12","name":"Brandenburg"}},{"name":"Am Sportplatz","postalCode":"16244","locality":"Schorfheide","municipality":{"key":"12060198","name":"Schorfheide","type":"Kreisangehörige_Gemeinde"},"district":{"key":"12060","name":"Barnim","type":"Landkreis"},"federalState":{"key":"12","name":"Brandenburg"}},{"name":"Am Süßen Winkel","postalCode":"16244","locality":"Schorfheide","municipality":{"key":"12060198","name":"Schorfheide","type":"Kreisangehörige_Gemeinde"},"district":{"key":"12060","name":"Barnim","type":"Landkreis"},"federalState":{"key":"12","name":"Brandenburg"}},{"name":"Am Treidelsteg","postalCode":"16244","locality":"Schorfheide","municipality":{"key":"12060198","name":"Schorfheide","type":"Kreisangehörige_Gemeinde"},"district":{"key":"12060","name":"Barnim","type":"Landkreis"},"federalState":{"key":"12","name":"Brandenburg"}},{"name":"Am Üdersee","postalCode":"16244","locality":"Schorfheide","municipality":{"key":"12060198","name":"Schorfheide","type":"Kreisangehörige_Gemeinde"},"district":{"key":"12060","name":"Barnim","type":"Landkreis"},"federalState":{"key":"12","name":"Brandenburg"}},{"name":"Am Werbellinkanal","postalCode":"16244","locality":"Schorfheide","municipality":{"key":"12060198","name":"Schorfheide","type":"Kreisangehörige_Gemeinde"},"district":{"key":"12060","name":"Barnim","type":"Landkreis"},"federalState":{"key":"12","name":"Brandenburg"}},{"name":"An den Tongruben","postalCode":"16244","locality":"Schorfheide","municipality":{"key":"12060198","name":"Schorfheide","type":"Kreisangehörige_Gemeinde"},"district":{"key":"12060","name":"Barnim","type":"Landkreis"},"federalState":{"key":"12","name":"Brandenburg"}},{"name":"An der Ablage","postalCode":"16244","locality":"Schorfheide","municipality":{"key":"12060198","name":"Schorfheide","type":"Kreisangehörige_Gemeinde"},"district":{"key":"12060","name":"Barnim","type":"Landkreis"},"federalState":{"key":"12","name":"Brandenburg"}},{"name":"An der B 167","postalCode":"16244","locality":"Schorfheide","municipality":{"key":"12060198","name":"Schorfheide","type":"Kreisangehörige_Gemeinde"},"district":{"key":"12060","name":"Barnim","type":"Landkreis"},"federalState":{"key":"12","name":"Brandenburg"}},{"name":"An der Schleuse","postalCode":"16244","locality":"Schorfheide","municipality":{"key":"12060198","name":"Schorfheide","type":"Kreisangehörige_Gemeinde"},"district":{"key":"12060","name":"Barnim","type":"Landkreis"},"federalState":{"key":"12","name":"Brandenburg"}},{"name":"Anna-Karbe-Weg","postalCode":"16244","locality":"Schorfheide","municipality":{"key":"12060198","name":"Schorfheide","type":"Kreisangehörige_Gemeinde"},"district":{"key":"12060","name":"Barnim","type":"Landkreis"},"federalState":{"key":"12","name":"Brandenburg"}},{"name":"Apfelallee","postalCode":"16244","locality":"Schorfheide","municipality":{"key":"12060198","name":"Schorfheide","type":"Kreisangehörige_Gemeinde"},"district":{"key":"12060","name":"Barnim","type":"Landkreis"},"federalState":{"key":"12","name":"Brandenburg"}},{"name":"Ausbau","postalCode":"16244","locality":"Schorfheide","municipality":{"key":"12060198","name":"Schorfheide","type":"Kreisangehörige_Gemeinde"},"district":{"key":"12060","name":"Barnim","type":"Landkreis"},"federalState":{"key":"12","name":"Brandenburg"}},{"name":"Bachstr.","postalCode":"16244","locality":"Schorfheide","municipality":{"key":"12060198","name":"Schorfheide","type":"Kreisangehörige_Gemeinde"},"district":{"key":"12060","name":"Barnim","type":"Landkreis"},"federalState":{"key":"12","name":"Brandenburg"}},{"name":"Bahnhofstr.","postalCode":"16244","locality":"Schorfheide","municipality":{"key":"12060198","name":"Schorfheide","type":"Kreisangehörige_Gemeinde"},"district":{"key":"12060","name":"Barnim","type":"Landkreis"},"federalState":{"key":"12","name":"Brandenburg"}},{"name":"Bauernstr.","postalCode":"16244","locality":"Schorfheide","municipality":{"key":"12060198","name":"Schorfheide","type":"Kreisangehörige_Gemeinde"},"district":{"key":"12060","name":"Barnim","type":"Landkreis"},"federalState":{"key":"12","name":"Brandenburg"}},{"name":"Beethovenstr.","postalCode":"16244","locality":"Schorfheide","municipality":{"key":"12060198","name":"Schorfheide","type":"Kreisangehörige_Gemeinde"},"district":{"key":"12060","name":"Barnim","type":"Landkreis"},"federalState":{"key":"12","name":"Brandenburg"}},{"name":"Bei den Buchen","postalCode":"16244","locality":"Schorfheide","municipality":{"key":"12060198","name":"Schorfheide","type":"Kreisangehörige_Gemeinde"},"district":{"key":"12060","name":"Barnim","type":"Landkreis"},"federalState":{"key":"12","name":"Brandenburg"}},{"name":"Bergstr.","postalCode":"16244","locality":"Schorfheide","municipality":{"key":"12060198","name":"Schorfheide","type":"Kreisangehörige_Gemeinde"},"district":{"key":"12060","name":"Barnim","type":"Landkreis"},"federalState":{"key":"12","name":"Brandenburg"}},{"name":"Berliner Str.","postalCode":"16244","locality":"Schorfheide","municipality":{"key":"12060198","name":"Schorfheide","type":"Kreisangehörige_Gemeinde"},"district":{"key":"12060","name":"Barnim","type":"Landkreis"},"federalState":{"key":"12","name":"Brandenburg"}},{"name":"Besters Fließ Ost","postalCode":"16244","locality":"Schorfheide","municipality":{"key":"12060198","name":"Schorfheide","type":"Kreisangehörige_Gemeinde"},"district":{"key":"12060","name":"Barnim","type":"Landkreis"},"federalState":{"key":"12","name":"Brandenburg"}},{"name":"Biesenthaler Str.","postalCode":"16244","locality":"Schorfheide","municipality":{"key":"12060198","name":"Schorfheide","type":"Kreisangehörige_Gemeinde"},"district":{"key":"12060","name":"Barnim","type":"Landkreis"},"federalState":{"key":"12","name":"Brandenburg"}},{"name":"Birkenallee","postalCode":"16244","locality":"Schorfheide","municipality":{"key":"12060198","name":"Schorfheide","type":"Kreisangehörige_Gemeinde"},"district":{"key":"12060","name":"Barnim","type":"Landkreis"},"federalState":{"key":"12","name":"Brandenburg"}},{"name":"Birkenweg","postalCode":"16244","locality":"Schorfheide","municipality":{"key":"12060198","name":"Schorfheide","type":"Kreisangehörige_Gemeinde"},"district":{"key":"12060","name":"Barnim","type":"Landkreis"},"federalState":{"key":"12","name":"Brandenburg"}},{"name":"Blütenberg","postalCode":"16244","locality":"Schorfheide","municipality":{"key":"12060198","name":"Schorfheide","type":"Kreisangehörige_Gemeinde"},"district":{"key":"12060","name":"Barnim","type":"Landkreis"},"federalState":{"key":"12","name":"Brandenburg"}},{"name":"Britzer Str.","postalCode":"16244","locality":"Schorfheide","municipality":{"key":"12060198","name":"Schorfheide","type":"Kreisangehörige_Gemeinde"},"district":{"key":"12060","name":"Barnim","type":"Landkreis"},"federalState":{"key":"12","name":"Brandenburg"}},{"name":"Brückenstr.","postalCode":"16244","locality":"Schorfheide","municipality":{"key":"12060198","name":"Schorfheide","type":"Kreisangehörige_Gemeinde"},"district":{"key":"12060","name":"Barnim","type":"Landkreis"},"federalState":{"key":"12","name":"Brandenburg"}},{"name":"Buchfinkenweg","postalCode":"16244","locality":"Schorfheide","municipality":{"key":"12060198","name":"Schorfheide","type":"Kreisangehörige_Gemeinde"},"district":{"key":"12060","name":"Barnim","type":"Landkreis"},"federalState":{"key":"12","name":"Brandenburg"}},{"name":"Buckow","postalCode":"16244","locality":"Schorfheide","municipality":{"key":"12060198","name":"Schorfheide","type":"Kreisangehörige_Gemeinde"},"district":{"key":"12060","name":"Barnim","type":"Landkreis"},"federalState":{"key":"12","name":"Brandenburg"}},{"name":"Conradshöhe","postalCode":"16244","locality":"Schorfheide","municipality":{"key":"12060198","name":"Schorfheide","type":"Kreisangehörige_Gemeinde"},"district":{"key":"12060","name":"Barnim","type":"Landkreis"},"federalState":{"key":"12","name":"Brandenburg"}},{"name":"Dachsweg","postalCode":"16244","locality":"Schorfheide","municipality":{"key":"12060198","name":"Schorfheide","type":"Kreisangehörige_Gemeinde"},"district":{"key":"12060","name":"Barnim","type":"Landkreis"},"federalState":{"key":"12","name":"Brandenburg"}},{"name":"Döllner Str.","postalCode":"16244","locality":"Schorfheide","municipality":{"key":"12060198","name":"Schorfheide","type":"Kreisangehörige_Gemeinde"},"district":{"key":"12060","name":"Barnim","type":"Landkreis"},"federalState":{"key":"12","name":"Brandenburg"}},{"name":"Dompfaffenweg","postalCode":"16244","locality":"Schorfheide","municipality":{"key":"12060198","name":"Schorfheide","type":"Kreisangehörige_Gemeinde"},"district":{"key":"12060","name":"Barnim","type":"Landkreis"},"federalState":{"key":"12","name":"Brandenburg"}},{"name":"Dorfstr.","postalCode":"16244","locality":"Schorfheide","municipality":{"key":"12060198","name":"Schorfheide","type":"Kreisangehörige_Gemeinde"},"district":{"key":"12060","name":"Barnim","type":"Landkreis"},"federalState":{"key":"12","name":"Brandenburg"}},{"name":"Drosselweg","postalCode":"16244","locality":"Schorfheide","municipality":{"key":"12060198","name":"Schorfheide","type":"Kreisangehörige_Gemeinde"},"district":{"key":"12060","name":"Barnim","type":"Landkreis"},"federalState":{"key":"12","name":"Brandenburg"}},{"name":"Eberswalder Allee","postalCode":"16244","locality":"Schorfheide","municipality":{"key":"12060198","name":"Schorfheide","type":"Kreisangehörige_Gemeinde"},"district":{"key":"12060","name":"Barnim","type":"Landkreis"},"federalState":{"key":"12","name":"Brandenburg"}},{"name":"Eberswalder Chaussee","postalCode":"16244","locality":"Schorfheide","municipality":{"key":"12060198","name":"Schorfheide","type":"Kreisangehörige_Gemeinde"},"district":{"key":"12060","name":"Barnim","type":"Landkreis"},"federalState":{"key":"12","name":"Brandenburg"}},{"name":"Eberswalder Str.","postalCode":"16244","locality":"Schorfheide","municipality":{"key":"12060198","name":"Schorfheide","type":"Kreisangehörige_Gemeinde"},"district":{"key":"12060","name":"Barnim","type":"Landkreis"},"federalState":{"key":"12","name":"Brandenburg"}},{"name":"Eichhorster Chaussee","postalCode":"16244","locality":"Schorfheide","municipality":{"key":"12060198","name":"Schorfheide","type":"Kreisangehörige_Gemeinde"},"district":{"key":"12060","name":"Barnim","type":"Landkreis"},"federalState":{"key":"12","name":"Brandenburg"}},{"name":"Eichhorster Mittelstr.","postalCode":"16244","locality":"Schorfheide","municipality":{"key":"12060198","name":"Schorfheide","type":"Kreisangehörige_Gemeinde"},"district":{"key":"12060","name":"Barnim","type":"Landkreis"},"federalState":{"key":"12","name":"Brandenburg"}},{"name":"Eichhorster Weg","postalCode":"16244","locality":"Schorfheide","municipality":{"key":"12060198","name":"Schorfheide","type":"Kreisangehörige_Gemeinde"},"district":{"key":"12060","name":"Barnim","type":"Landkreis"},"federalState":{"key":"12","name":"Brandenburg"}},{"name":"Elsterweg","postalCode":"16244","locality":"Schorfheide","municipality":{"key":"12060198","name":"Schorfheide","type":"Kreisangehörige_Gemeinde"},"district":{"key":"12060","name":"Barnim","type":"Landkreis"},"federalState":{"key":"12","name":"Brandenburg"}},{"name":"Ernst-Thälmann-Str.","postalCode":"16244","locality":"Schorfheide","municipality":{"key":"12060198","name":"Schorfheide","type":"Kreisangehörige_Gemeinde"},"district":{"key":"12060","name":"Barnim","type":"Landkreis"},"federalState":{"key":"12","name":"Brandenburg"}},{"name":"Erzbergerplatz","postalCode":"16244","locality":"Schorfheide","municipality":{"key":"12060198","name":"Schorfheide","type":"Kreisangehörige_Gemeinde"},"district":{"key":"12060","name":"Barnim","type":"Landkreis"},"federalState":{"key":"12","name":"Brandenburg"}},{"name":"Eschenweg","postalCode":"16244","locality":"Schorfheide","municipality":{"key":"12060198","name":"Schorfheide","type":"Kreisangehörige_Gemeinde"},"district":{"key":"12060","name":"Barnim","type":"Landkreis"},"federalState":{"key":"12","name":"Brandenburg"}},{"name":"Feldstr.","postalCode":"16244","locality":"Schorfheide","municipality":{"key":"12060198","name":"Schorfheide","type":"Kreisangehörige_Gemeinde"},"district":{"key":"12060","name":"Barnim","type":"Landkreis"},"federalState":{"key":"12","name":"Brandenburg"}},{"name":"Feldweg","postalCode":"16244","locality":"Schorfheide","municipality":{"key":"12060198","name":"Schorfheide","type":"Kreisangehörige_Gemeinde"},"district":{"key":"12060","name":"Barnim","type":"Landkreis"},"federalState":{"key":"12","name":"Brandenburg"}},{"name":"Finowfurter Ring","postalCode":"16244","locality":"Schorfheide","municipality":{"key":"12060198","name":"Schorfheide","type":"Kreisangehörige_Gemeinde"},"district":{"key":"12060","name":"Barnim","type":"Landkreis"},"federalState":{"key":"12","name":"Brandenburg"}},{"name":"Flößerstr.","postalCode":"16244","locality":"Schorfheide","municipality":{"key":"12060198","name":"Schorfheide","type":"Kreisangehörige_Gemeinde"},"district":{"key":"12060","name":"Barnim","type":"Landkreis"},"federalState":{"key":"12","name":"Brandenburg"}},{"name":"Flur 8 - 1151","postalCode":"16244","locality":"Schorfheide","municipality":{"key":"12060198","name":"Schorfheide","type":"Kreisangehörige_Gemeinde"},"district":{"key":"12060","name":"Barnim","type":"Landkreis"},"federalState":{"key":"12","name":"Brandenburg"}},{"name":"Forstsiedlung","postalCode":"16244","locality":"Schorfheide","municipality":{"key":"12060198","name":"Schorfheide","type":"Kreisangehörige_Gemeinde"},"district":{"key":"12060","name":"Barnim","type":"Landkreis"},"federalState":{"key":"12","name":"Brandenburg"}},{"name":"Friedenstr.","postalCode":"16244","locality":"Schorfheide","municipality":{"key":"12060198","name":"Schorfheide","type":"Kreisangehörige_Gemeinde"},"district":{"key":"12060","name":"Barnim","type":"Landkreis"},"federalState":{"key":"12","name":"Brandenburg"}},{"name":"Fuchsberg","postalCode":"16244","locality":"Schorfheide","municipality":{"key":"12060198","name":"Schorfheide","type":"Kreisangehörige_Gemeinde"},"district":{"key":"12060","name":"Barnim","type":"Landkreis"},"federalState":{"key":"12","name":"Brandenburg"}},{"name":"Futtergestell","postalCode":"16244","locality":"Schorfheide","municipality":{"key":"12060198","name":"Schorfheide","type":"Kreisangehörige_Gemeinde"},"district":{"key":"12060","name":"Barnim","type":"Landkreis"},"federalState":{"key":"12","name":"Brandenburg"}},{"name":"Galgenberg","postalCode":"16244","locality":"Schorfheide","municipality":{"key":"12060198","name":"Schorfheide","type":"Kreisangehörige_Gemeinde"},"district":{"key":"12060","name":"Barnim","type":"Landkreis"},"federalState":{"key":"12","name":"Brandenburg"}},{"name":"Gartenstr.","postalCode":"16244","locality":"Schorfheide","municipality":{"key":"12060198","name":"Schorfheide","type":"Kreisangehörige_Gemeinde"},"district":{"key":"12060","name":"Barnim","type":"Landkreis"},"federalState":{"key":"12","name":"Brandenburg"}},{"name":"Gartenweg","postalCode":"16244","locality":"Schorfheide","municipality":{"key":"12060198","name":"Schorfheide","type":"Kreisangehörige_Gemeinde"},"district":{"key":"12060","name":"Barnim","type":"Landkreis"},"federalState":{"key":"12","name":"Brandenburg"}},{"name":"Glasowgestell","postalCode":"16244","locality":"Schorfheide","municipality":{"key":"12060198","name":"Schorfheide","type":"Kreisangehörige_Gemeinde"},"district":{"key":"12060","name":"Barnim","type":"Landkreis"},"federalState":{"key":"12","name":"Brandenburg"}},{"name":"Golzower Weg","postalCode":"16244","locality":"Schorfheide","municipality":{"key":"12060198","name":"Schorfheide","type":"Kreisangehörige_Gemeinde"},"district":{"key":"12060","name":"Barnim","type":"Landkreis"},"federalState":{"key":"12","name":"Brandenburg"}},{"name":"Grahsee","postalCode":"16244","locality":"Schorfheide","municipality":{"key":"12060198","name":"Schorfheide","type":"Kreisangehörige_Gemeinde"},"district":{"key":"12060","name":"Barnim","type":"Landkreis"},"federalState":{"key":"12","name":"Brandenburg"}},{"name":"Grünlingsweg","postalCode":"16244","locality":"Schorfheide","municipality":{"key":"12060198","name":"Schorfheide","type":"Kreisangehörige_Gemeinde"},"district":{"key":"12060","name":"Barnim","type":"Landkreis"},"federalState":{"key":"12","name":"Brandenburg"}},{"name":"Hammer Chaussee","postalCode":"16244","locality":"Schorfheide","municipality":{"key":"12060198","name":"Schorfheide","type":"Kreisangehörige_Gemeinde"},"district":{"key":"12060","name":"Barnim","type":"Landkreis"},"federalState":{"key":"12","name":"Brandenburg"}},{"name":"Händelstr.","postalCode":"16244","locality":"Schorfheide","municipality":{"key":"12060198","name":"Schorfheide","type":"Kreisangehörige_Gemeinde"},"district":{"key":"12060","name":"Barnim","type":"Landkreis"},"federalState":{"key":"12","name":"Brandenburg"}},{"name":"Hauptstr.","postalCode":"16244","locality":"Schorfheide","municipality":{"key":"12060198","name":"Schorfheide","type":"Kreisangehörige_Gemeinde"},"district":{"key":"12060","name":"Barnim","type":"Landkreis"},"federalState":{"key":"12","name":"Brandenburg"}},{"name":"Haydnstr.","postalCode":"16244","locality":"Schorfheide","municipality":{"key":"12060198","name":"Schorfheide","type":"Kreisangehörige_Gemeinde"},"district":{"key":"12060","name":"Barnim","type":"Landkreis"},"federalState":{"key":"12","name":"Brandenburg"}},{"name":"Hirschweg","postalCode":"16244","locality":"Schorfheide","municipality":{"key":"12060198","name":"Schorfheide","type":"Kreisangehörige_Gemeinde"},"district":{"key":"12060","name":"Barnim","type":"Landkreis"},"federalState":{"key":"12","name":"Brandenburg"}},{"name":"Hochstr.","postalCode":"16244","locality":"Schorfheide","municipality":{"key":"12060198","name":"Schorfheide","type":"Kreisangehörige_Gemeinde"},"district":{"key":"12060","name":"Barnim","type":"Landkreis"},"federalState":{"key":"12","name":"Brandenburg"}},{"name":"Hopps-Steig","postalCode":"16244","locality":"Schorfheide","municipality":{"key":"12060198","name":"Schorfheide","type":"Kreisangehörige_Gemeinde"},"district":{"key":"12060","name":"Barnim","type":"Landkreis"},"federalState":{"key":"12","name":"Brandenburg"}},{"name":"Hordengestell","postalCode":"16244","locality":"Schorfheide","municipality":{"key":"12060198","name":"Schorfheide","type":"Kreisangehörige_Gemeinde"},"district":{"key":"12060","name":"Barnim","type":"Landkreis"},"federalState":{"key":"12","name":"Brandenburg"}},{"name":"Hubertusmühle","postalCode":"16244","locality":"Schorfheide","municipality":{"key":"12060198","name":"Schorfheide","type":"Kreisangehörige_Gemeinde"},"district":{"key":"12060","name":"Barnim","type":"Landkreis"},"federalState":{"key":"12","name":"Brandenburg"}},{"name":"Hubertusweg","postalCode":"16244","locality":"Schorfheide","municipality":{"key":"12060198","name":"Schorfheide","type":"Kreisangehörige_Gemeinde"},"district":{"key":"12060","name":"Barnim","type":"Landkreis"},"federalState":{"key":"12","name":"Brandenburg"}},{"name":"Hufenweg","postalCode":"16244","locality":"Schorfheide","municipality":{"key":"12060198","name":"Schorfheide","type":"Kreisangehörige_Gemeinde"},"district":{"key":"12060","name":"Barnim","type":"Landkreis"},"federalState":{"key":"12","name":"Brandenburg"}},{"name":"Im Schulzenplan","postalCode":"16244","locality":"Schorfheide","municipality":{"key":"12060198","name":"Schorfheide","type":"Kreisangehörige_Gemeinde"},"district":{"key":"12060","name":"Barnim","type":"Landkreis"},"federalState":{"key":"12","name":"Brandenburg"}},{"name":"In den Sandstücken","postalCode":"16244","locality":"Schorfheide","municipality":{"key":"12060198","name":"Schorfheide","type":"Kreisangehörige_Gemeinde"},"district":{"key":"12060","name":"Barnim","type":"Landkreis"},"federalState":{"key":"12","name":"Brandenburg"}},{"name":"Industrieweg","postalCode":"16244","locality":"Schorfheide","municipality":{"key":"12060198","name":"Schorfheide","type":"Kreisangehörige_Gemeinde"},"district":{"key":"12060","name":"Barnim","type":"Landkreis"},"federalState":{"key":"12","name":"Brandenburg"}},{"name":"Joachimsthaler Chaussee","postalCode":"16244","locality":"Schorfheide","municipality":{"key":"12060198","name":"Schorfheide","type":"Kreisangehörige_Gemeinde"},"district":{"key":"12060","name":"Barnim","type":"Landkreis"},"federalState":{"key":"12","name":"Brandenburg"}},{"name":"Joachimsthaler Str.","postalCode":"16244","locality":"Schorfheide","municipality":{"key":"12060198","name":"Schorfheide","type":"Kreisangehörige_Gemeinde"},"district":{"key":"12060","name":"Barnim","type":"Landkreis"},"federalState":{"key":"12","name":"Brandenburg"}},{"name":"Joachimsthaler Weg","postalCode":"16244","locality":"Schorfheide","municipality":{"key":"12060198","name":"Schorfheide","type":"Kreisangehörige_Gemeinde"},"district":{"key":"12060","name":"Barnim","type":"Landkreis"},"federalState":{"key":"12","name":"Brandenburg"}},{"name":"Kaisergestell","postalCode":"16244","locality":"Schorfheide","municipality":{"key":"12060198","name":"Schorfheide","type":"Kreisangehörige_Gemeinde"},"district":{"key":"12060","name":"Barnim","type":"Landkreis"},"federalState":{"key":"12","name":"Brandenburg"}},{"name":"Kanalstr.","postalCode":"16244","locality":"Schorfheide","municipality":{"key":"12060198","name":"Schorfheide","type":"Kreisangehörige_Gemeinde"},"district":{"key":"12060","name":"Barnim","type":"Landkreis"},"federalState":{"key":"12","name":"Brandenburg"}},{"name":"Kannegießer Str.","postalCode":"16244","locality":"Schorfheide","municipality":{"key":"12060198","name":"Schorfheide","type":"Kreisangehörige_Gemeinde"},"district":{"key":"12060","name":"Barnim","type":"Landkreis"},"federalState":{"key":"12","name":"Brandenburg"}},{"name":"KAP-Str.","postalCode":"16244","locality":"Schorfheide","municipality":{"key":"12060198","name":"Schorfheide","type":"Kreisangehörige_Gemeinde"},"district":{"key":"12060","name":"Barnim","type":"Landkreis"},"federalState":{"key":"12","name":"Brandenburg"}},{"name":"Karl-Liebknecht-Str.","postalCode":"16244","locality":"Schorfheide","municipality":{"key":"12060198","name":"Schorfheide","type":"Kreisangehörige_Gemeinde"},"district":{"key":"12060","name":"Barnim","type":"Landkreis"},"federalState":{"key":"12","name":"Brandenburg"}},{"name":"Karlshöhe","postalCode":"16244","locality":"Schorfheide","municipality":{"key":"12060198","name":"Schorfheide","type":"Kreisangehörige_Gemeinde"},"district":{"key":"12060","name":"Barnim","type":"Landkreis"},"federalState":{"key":"12","name":"Brandenburg"}},{"name":"Kastanienallee","postalCode":"16244","locality":"Schorfheide","municipality":{"key":"12060198","name":"Schorfheide","type":"Kreisangehörige_Gemeinde"},"district":{"key":"12060","name":"Barnim","type":"Landkreis"},"federalState":{"key":"12","name":"Brandenburg"}},{"name":"Kastanienweg","postalCode":"16244","locality":"Schorfheide","municipality":{"key":"12060198","name":"Schorfheide","type":"Kreisangehörige_Gemeinde"},"district":{"key":"12060","name":"Barnim","type":"Landkreis"},"federalState":{"key":"12","name":"Brandenburg"}},{"name":"Kiebitzgasse","postalCode":"16244","locality":"Schorfheide","municipality":{"key":"12060198","name":"Schorfheide","type":"Kreisangehörige_Gemeinde"},"district":{"key":"12060","name":"Barnim","type":"Landkreis"},"federalState":{"key":"12","name":"Brandenburg"}},{"name":"Kieferneck","postalCode":"16244","locality":"Schorfheide","municipality":{"key":"12060198","name":"Schorfheide","type":"Kreisangehörige_Gemeinde"},"district":{"key":"12060","name":"Barnim","type":"Landkreis"},"federalState":{"key":"12","name":"Brandenburg"}},{"name":"Kiefernweg","postalCode":"16244","locality":"Schorfheide","municipality":{"key":"12060198","name":"Schorfheide","type":"Kreisangehörige_Gemeinde"},"district":{"key":"12060","name":"Barnim","type":"Landkreis"},"federalState":{"key":"12","name":"Brandenburg"}},{"name":"Kirchgasse","postalCode":"16244","locality":"Schorfheide","municipality":{"key":"12060198","name":"Schorfheide","type":"Kreisangehörige_Gemeinde"},"district":{"key":"12060","name":"Barnim","type":"Landkreis"},"federalState":{"key":"12","name":"Brandenburg"}},{"name":"Kirschenallee","postalCode":"16244","locality":"Schorfheide","municipality":{"key":"12060198","name":"Schorfheide","type":"Kreisangehörige_Gemeinde"},"district":{"key":"12060","name":"Barnim","type":"Landkreis"},"federalState":{"key":"12","name":"Brandenburg"}},{"name":"Klandorfer Bergstr.","postalCode":"16244","locality":"Schorfheide","municipality":{"key":"12060198","name":"Schorfheide","type":"Kreisangehörige_Gemeinde"},"district":{"key":"12060","name":"Barnim","type":"Landkreis"},"federalState":{"key":"12","name":"Brandenburg"}},{"name":"Kleine Gasse","postalCode":"16244","locality":"Schorfheide","municipality":{"key":"12060198","name":"Schorfheide","type":"Kreisangehörige_Gemeinde"},"district":{"key":"12060","name":"Barnim","type":"Landkreis"},"federalState":{"key":"12","name":"Brandenburg"}},{"name":"Königsgrund","postalCode":"16244","locality":"Schorfheide","municipality":{"key":"12060198","name":"Schorfheide","type":"Kreisangehörige_Gemeinde"},"district":{"key":"12060","name":"Barnim","type":"Landkreis"},"federalState":{"key":"12","name":"Brandenburg"}},{"name":"Koppelweg","postalCode":"16244","locality":"Schorfheide","municipality":{"key":"12060198","name":"Schorfheide","type":"Kreisangehörige_Gemeinde"},"district":{"key":"12060","name":"Barnim","type":"Landkreis"},"federalState":{"key":"12","name":"Brandenburg"}},{"name":"Krumme Str.","postalCode":"16244","locality":"Schorfheide","municipality":{"key":"12060198","name":"Schorfheide","type":"Kreisangehörige_Gemeinde"},"district":{"key":"12060","name":"Barnim","type":"Landkreis"},"federalState":{"key":"12","name":"Brandenburg"}},{"name":"Kurzer Weg","postalCode":"16244","locality":"Schorfheide","municipality":{"key":"12060198","name":"Schorfheide","type":"Kreisangehörige_Gemeinde"},"district":{"key":"12060","name":"Barnim","type":"Landkreis"},"federalState":{"key":"12","name":"Brandenburg"}},{"name":"Kurze Str.","postalCode":"16244","locality":"Schorfheide","municipality":{"key":"12060198","name":"Schorfheide","type":"Kreisangehörige_Gemeinde"},"district":{"key":"12060","name":"Barnim","type":"Landkreis"},"federalState":{"key":"12","name":"Brandenburg"}},{"name":"Langer Grund","postalCode":"16244","locality":"Schorfheide","municipality":{"key":"12060198","name":"Schorfheide","type":"Kreisangehörige_Gemeinde"},"district":{"key":"12060","name":"Barnim","type":"Landkreis"},"federalState":{"key":"12","name":"Brandenburg"}},{"name":"Lehnschulzenstr.","postalCode":"16244","locality":"Schorfheide","municipality":{"key":"12060198","name":"Schorfheide","type":"Kreisangehörige_Gemeinde"},"district":{"key":"12060","name":"Barnim","type":"Landkreis"},"federalState":{"key":"12","name":"Brandenburg"}},{"name":"Lerchenweg","postalCode":"16244","locality":"Schorfheide","municipality":{"key":"12060198","name":"Schorfheide","type":"Kreisangehörige_Gemeinde"},"district":{"key":"12060","name":"Barnim","type":"Landkreis"},"federalState":{"key":"12","name":"Brandenburg"}},{"name":"Lichterfelder Str.","postalCode":"16244","locality":"Schorfheide","municipality":{"key":"12060198","name":"Schorfheide","type":"Kreisangehörige_Gemeinde"},"district":{"key":"12060","name":"Barnim","type":"Landkreis"},"federalState":{"key":"12","name":"Brandenburg"}},{"name":"Lichterfelder Waldstr.","postalCode":"16244","locality":"Schorfheide","municipality":{"key":"12060198","name":"Schorfheide","type":"Kreisangehörige_Gemeinde"},"district":{"key":"12060","name":"Barnim","type":"Landkreis"},"federalState":{"key":"12","name":"Brandenburg"}},{"name":"Lichterfelder Weg","postalCode":"16244","locality":"Schorfheide","municipality":{"key":"12060198","name":"Schorfheide","type":"Kreisangehörige_Gemeinde"},"district":{"key":"12060","name":"Barnim","type":"Landkreis"},"federalState":{"key":"12","name":"Brandenburg"}},{"name":"Lichterfelder Weidenweg","postalCode":"16244","locality":"Schorfheide","municipality":{"key":"12060198","name":"Schorfheide","type":"Kreisangehörige_Gemeinde"},"district":{"key":"12060","name":"Barnim","type":"Landkreis"},"federalState":{"key":"12","name":"Brandenburg"}},{"name":"Liebenthaler Weg","postalCode":"16244","locality":"Schorfheide","municipality":{"key":"12060198","name":"Schorfheide","type":"Kreisangehörige_Gemeinde"},"district":{"key":"12060","name":"Barnim","type":"Landkreis"},"federalState":{"key":"12","name":"Brandenburg"}},{"name":"Liebenwalder Str.","postalCode":"16244","locality":"Schorfheide","municipality":{"key":"12060198","name":"Schorfheide","type":"Kreisangehörige_Gemeinde"},"district":{"key":"12060","name":"Barnim","type":"Landkreis"},"federalState":{"key":"12","name":"Brandenburg"}},{"name":"Lindenplatz","postalCode":"16244","locality":"Schorfheide","municipality":{"key":"12060198","name":"Schorfheide","type":"Kreisangehörige_Gemeinde"},"district":{"key":"12060","name":"Barnim","type":"Landkreis"},"federalState":{"key":"12","name":"Brandenburg"}},{"name":"Lindenstr.","postalCode":"16244","locality":"Schorfheide","municipality":{"key":"12060198","name":"Schorfheide","type":"Kreisangehörige_Gemeinde"},"district":{"key":"12060","name":"Barnim","type":"Landkreis"},"federalState":{"key":"12","name":"Brandenburg"}},{"name":"Luckenwaldstr.","postalCode":"16244","locality":"Schorfheide","municipality":{"key":"12060198","name":"Schorfheide","type":"Kreisangehörige_Gemeinde"},"district":{"key":"12060","name":"Barnim","type":"Landkreis"},"federalState":{"key":"12","name":"Brandenburg"}},{"name":"Magistrale","postalCode":"16244","locality":"Schorfheide","municipality":{"key":"12060198","name":"Schorfheide","type":"Kreisangehörige_Gemeinde"},"district":{"key":"12060","name":"Barnim","type":"Landkreis"},"federalState":{"key":"12","name":"Brandenburg"}},{"name":"Marienwerderstr.","postalCode":"16244","locality":"Schorfheide","municipality":{"key":"12060198","name":"Schorfheide","type":"Kreisangehörige_Gemeinde"},"district":{"key":"12060","name":"Barnim","type":"Landkreis"},"federalState":{"key":"12","name":"Brandenburg"}},{"name":"Marienwerderweg","postalCode":"16244","locality":"Schorfheide","municipality":{"key":"12060198","name":"Schorfheide","type":"Kreisangehörige_Gemeinde"},"district":{"key":"12060","name":"Barnim","type":"Landkreis"},"federalState":{"key":"12","name":"Brandenburg"}},{"name":"Maulbeerweg","postalCode":"16244","locality":"Schorfheide","municipality":{"key":"12060198","name":"Schorfheide","type":"Kreisangehörige_Gemeinde"},"district":{"key":"12060","name":"Barnim","type":"Landkreis"},"federalState":{"key":"12","name":"Brandenburg"}},{"name":"Meisenring","postalCode":"16244","locality":"Schorfheide","municipality":{"key":"12060198","name":"Schorfheide","type":"Kreisangehörige_Gemeinde"},"district":{"key":"12060","name":"Barnim","type":"Landkreis"},"federalState":{"key":"12","name":"Brandenburg"}},{"name":"Melchower Ring","postalCode":"16244","locality":"Schorfheide","municipality":{"key":"12060198","name":"Schorfheide","type":"Kreisangehörige_Gemeinde"},"district":{"key":"12060","name":"Barnim","type":"Landkreis"},"federalState":{"key":"12","name":"Brandenburg"}},{"name":"Melchower Str.","postalCode":"16244","locality":"Schorfheide","municipality":{"key":"12060198","name":"Schorfheide","type":"Kreisangehörige_Gemeinde"},"district":{"key":"12060","name":"Barnim","type":"Landkreis"},"federalState":{"key":"12","name":"Brandenburg"}},{"name":"Messingwerkstr.","postalCode":"16244","locality":"Schorfheide","municipality":{"key":"12060198","name":"Schorfheide","type":"Kreisangehörige_Gemeinde"},"district":{"key":"12060","name":"Barnim","type":"Landkreis"},"federalState":{"key":"12","name":"Brandenburg"}},{"name":"Mittelstr.","postalCode":"16244","locality":"Schorfheide","municipality":{"key":"12060198","name":"Schorfheide","type":"Kreisangehörige_Gemeinde"},"district":{"key":"12060","name":"Barnim","type":"Landkreis"},"federalState":{"key":"12","name":"Brandenburg"}},{"name":"Moospfuhl","postalCode":"16244","locality":"Schorfheide","municipality":{"key":"12060198","name":"Schorfheide","type":"Kreisangehörige_Gemeinde"},"district":{"key":"12060","name":"Barnim","type":"Landkreis"},"federalState":{"key":"12","name":"Brandenburg"}},{"name":"Mozartstr.","postalCode":"16244","locality":"Schorfheide","municipality":{"key":"12060198","name":"Schorfheide","type":"Kreisangehörige_Gemeinde"},"district":{"key":"12060","name":"Barnim","type":"Landkreis"},"federalState":{"key":"12","name":"Brandenburg"}},{"name":"Mühlenstr.","postalCode":"16244","locality":"Schorfheide","municipality":{"key":"12060198","name":"Schorfheide","type":"Kreisangehörige_Gemeinde"},"district":{"key":"12060","name":"Barnim","type":"Landkreis"},"federalState":{"key":"12","name":"Brandenburg"}},{"name":"Mühlenweg","postalCode":"16244","locality":"Schorfheide","municipality":{"key":"12060198","name":"Schorfheide","type":"Kreisangehörige_Gemeinde"},"district":{"key":"12060","name":"Barnim","type":"Landkreis"},"federalState":{"key":"12","name":"Brandenburg"}},{"name":"Müllerland","postalCode":"16244","locality":"Schorfheide","municipality":{"key":"12060198","name":"Schorfheide","type":"Kreisangehörige_Gemeinde"},"district":{"key":"12060","name":"Barnim","type":"Landkreis"},"federalState":{"key":"12","name":"Brandenburg"}},{"name":"Museumsstr.","postalCode":"16244","locality":"Schorfheide","municipality":{"key":"12060198","name":"Schorfheide","type":"Kreisangehörige_Gemeinde"},"district":{"key":"12060","name":"Barnim","type":"Landkreis"},"federalState":{"key":"12","name":"Brandenburg"}},{"name":"Nachtigallenweg","postalCode":"16244","locality":"Schorfheide","municipality":{"key":"12060198","name":"Schorfheide","type":"Kreisangehörige_Gemeinde"},"district":{"key":"12060","name":"Barnim","type":"Landkreis"},"federalState":{"key":"12","name":"Brandenburg"}},{"name":"Oderberger Str.","postalCode":"16244","locality":"Schorfheide","municipality":{"key":"12060198","name":"Schorfheide","type":"Kreisangehörige_Gemeinde"},"district":{"key":"12060","name":"Barnim","type":"Landkreis"},"federalState":{"key":"12","name":"Brandenburg"}},{"name":"Papiermühlenweg","postalCode":"16244","locality":"Schorfheide","municipality":{"key":"12060198","name":"Schorfheide","type":"Kreisangehörige_Gemeinde"},"district":{"key":"12060","name":"Barnim","type":"Landkreis"},"federalState":{"key":"12","name":"Brandenburg"}},{"name":"Parkstr.","postalCode":"16244","locality":"Schorfheide","municipality":{"key":"12060198","name":"Schorfheide","type":"Kreisangehörige_Gemeinde"},"district":{"key":"12060","name":"Barnim","type":"Landkreis"},"federalState":{"key":"12","name":"Brandenburg"}},{"name":"Pehlmann-Ring","postalCode":"16244","locality":"Schorfheide","municipality":{"key":"12060198","name":"Schorfheide","type":"Kreisangehörige_Gemeinde"},"district":{"key":"12060","name":"Barnim","type":"Landkreis"},"federalState":{"key":"12","name":"Brandenburg"}},{"name":"Prenzlauer Str.","postalCode":"16244","locality":"Schorfheide","municipality":{"key":"12060198","name":"Schorfheide","type":"Kreisangehörige_Gemeinde"},"district":{"key":"12060","name":"Barnim","type":"Landkreis"},"federalState":{"key":"12","name":"Brandenburg"}},{"name":"Priesterweg","postalCode":"16244","locality":"Schorfheide","municipality":{"key":"12060198","name":"Schorfheide","type":"Kreisangehörige_Gemeinde"},"district":{"key":"12060","name":"Barnim","type":"Landkreis"},"federalState":{"key":"12","name":"Brandenburg"}},{"name":"Promenade","postalCode":"16244","locality":"Schorfheide","municipality":{"key":"12060198","name":"Schorfheide","type":"Kreisangehörige_Gemeinde"},"district":{"key":"12060","name":"Barnim","type":"Landkreis"},"federalState":{"key":"12","name":"Brandenburg"}},{"name":"Prötze","postalCode":"16559","locality":"Schorfheide","municipality":{"key":"12060198","name":"Schorfheide","type":"Kreisangehörige_Gemeinde"},"district":{"key":"12060","name":"Barnim","type":"Landkreis"},"federalState":{"key":"12","name":"Brandenburg"}},{"name":"Prötzeweg","postalCode":"16559","locality":"Schorfheide","municipality":{"key":"12060198","name":"Schorfheide","type":"Kreisangehörige_Gemeinde"},"district":{"key":"12060","name":"Barnim","type":"Landkreis"},"federalState":{"key":"12","name":"Brandenburg"}},{"name":"Querweg","postalCode":"16244","locality":"Schorfheide","municipality":{"key":"12060198","name":"Schorfheide","type":"Kreisangehörige_Gemeinde"},"district":{"key":"12060","name":"Barnim","type":"Landkreis"},"federalState":{"key":"12","name":"Brandenburg"}},{"name":"Raupenfraßgestell","postalCode":"16244","locality":"Schorfheide","municipality":{"key":"12060198","name":"Schorfheide","type":"Kreisangehörige_Gemeinde"},"district":{"key":"12060","name":"Barnim","type":"Landkreis"},"federalState":{"key":"12","name":"Brandenburg"}},{"name":"Rehweg","postalCode":"16244","locality":"Schorfheide","municipality":{"key":"12060198","name":"Schorfheide","type":"Kreisangehörige_Gemeinde"},"district":{"key":"12060","name":"Barnim","type":"Landkreis"},"federalState":{"key":"12","name":"Brandenburg"}},{"name":"Rehwinkel","postalCode":"16244","locality":"Schorfheide","municipality":{"key":"12060198","name":"Schorfheide","type":"Kreisangehörige_Gemeinde"},"district":{"key":"12060","name":"Barnim","type":"Landkreis"},"federalState":{"key":"12","name":"Brandenburg"}},{"name":"Rosenbeck","postalCode":"16244","locality":"Schorfheide","municipality":{"key":"12060198","name":"Schorfheide","type":"Kreisangehörige_Gemeinde"},"district":{"key":"12060","name":"Barnim","type":"Landkreis"},"federalState":{"key":"12","name":"Brandenburg"}},{"name":"Rosenbecker Schleuse","postalCode":"16244","locality":"Schorfheide","municipality":{"key":"12060198","name":"Schorfheide","type":"Kreisangehörige_Gemeinde"},"district":{"key":"12060","name":"Barnim","type":"Landkreis"},"federalState":{"key":"12","name":"Brandenburg"}},{"name":"Rosenbecker Str.","postalCode":"16244","locality":"Schorfheide","municipality":{"key":"12060198","name":"Schorfheide","type":"Kreisangehörige_Gemeinde"},"district":{"key":"12060","name":"Barnim","type":"Landkreis"},"federalState":{"key":"12","name":"Brandenburg"}},{"name":"Rosenbecker Weg","postalCode":"16244","locality":"Schorfheide","municipality":{"key":"12060198","name":"Schorfheide","type":"Kreisangehörige_Gemeinde"},"district":{"key":"12060","name":"Barnim","type":"Landkreis"},"federalState":{"key":"12","name":"Brandenburg"}},{"name":"Rosenweg","postalCode":"16244","locality":"Schorfheide","municipality":{"key":"12060198","name":"Schorfheide","type":"Kreisangehörige_Gemeinde"},"district":{"key":"12060","name":"Barnim","type":"Landkreis"},"federalState":{"key":"12","name":"Brandenburg"}},{"name":"Rotkehlchenweg","postalCode":"16244","locality":"Schorfheide","municipality":{"key":"12060198","name":"Schorfheide","type":"Kreisangehörige_Gemeinde"},"district":{"key":"12060","name":"Barnim","type":"Landkreis"},"federalState":{"key":"12","name":"Brandenburg"}},{"name":"Sägebarthstr.","postalCode":"16244","locality":"Schorfheide","municipality":{"key":"12060198","name":"Schorfheide","type":"Kreisangehörige_Gemeinde"},"district":{"key":"12060","name":"Barnim","type":"Landkreis"},"federalState":{"key":"12","name":"Brandenburg"}},{"name":"Scheunenweg","postalCode":"16244","locality":"Schorfheide","municipality":{"key":"12060198","name":"Schorfheide","type":"Kreisangehörige_Gemeinde"},"district":{"key":"12060","name":"Barnim","type":"Landkreis"},"federalState":{"key":"12","name":"Brandenburg"}},{"name":"Schloßgutsiedlung","postalCode":"16244","locality":"Schorfheide","municipality":{"key":"12060198","name":"Schorfheide","type":"Kreisangehörige_Gemeinde"},"district":{"key":"12060","name":"Barnim","type":"Landkreis"},"federalState":{"key":"12","name":"Brandenburg"}},{"name":"Schlosspark","postalCode":"16244","locality":"Schorfheide","municipality":{"key":"12060198","name":"Schorfheide","type":"Kreisangehörige_Gemeinde"},"district":{"key":"12060","name":"Barnim","type":"Landkreis"},"federalState":{"key":"12","name":"Brandenburg"}},{"name":"Schloßstr.","postalCode":"16244","locality":"Schorfheide","municipality":{"key":"12060198","name":"Schorfheide","type":"Kreisangehörige_Gemeinde"},"district":{"key":"12060","name":"Barnim","type":"Landkreis"},"federalState":{"key":"12","name":"Brandenburg"}},{"name":"Schlossvorplatz","postalCode":"16244","locality":"Schorfheide","municipality":{"key":"12060198","name":"Schorfheide","type":"Kreisangehörige_Gemeinde"},"district":{"key":"12060","name":"Barnim","type":"Landkreis"},"federalState":{"key":"12","name":"Brandenburg"}},{"name":"Schlufter Hauptstr.","postalCode":"16244","locality":"Schorfheide","municipality":{"key":"12060198","name":"Schorfheide","type":"Kreisangehörige_Gemeinde"},"district":{"key":"12060","name":"Barnim","type":"Landkreis"},"federalState":{"key":"12","name":"Brandenburg"}},{"name":"Schlufter Str.","postalCode":"16244","locality":"Schorfheide","municipality":{"key":"12060198","name":"Schorfheide","type":"Kreisangehörige_Gemeinde"},"district":{"key":"12060","name":"Barnim","type":"Landkreis"},"federalState":{"key":"12","name":"Brandenburg"}},{"name":"Schöpfurter Ring","postalCode":"16244","locality":"Schorfheide","municipality":{"key":"12060198","name":"Schorfheide","type":"Kreisangehörige_Gemeinde"},"district":{"key":"12060","name":"Barnim","type":"Landkreis"},"federalState":{"key":"12","name":"Brandenburg"}},{"name":"Schulstr.","postalCode":"16244","locality":"Schorfheide","municipality":{"key":"12060198","name":"Schorfheide","type":"Kreisangehörige_Gemeinde"},"district":{"key":"12060","name":"Barnim","type":"Landkreis"},"federalState":{"key":"12","name":"Brandenburg"}},{"name":"Schwarze Bahn","postalCode":"16244","locality":"Schorfheide","municipality":{"key":"12060198","name":"Schorfheide","type":"Kreisangehörige_Gemeinde"},"district":{"key":"12060","name":"Barnim","type":"Landkreis"},"federalState":{"key":"12","name":"Brandenburg"}},{"name":"Spechthausener Str.","postalCode":"16244","locality":"Schorfheide","municipality":{"key":"12060198","name":"Schorfheide","type":"Kreisangehörige_Gemeinde"},"district":{"key":"12060","name":"Barnim","type":"Landkreis"},"federalState":{"key":"12","name":"Brandenburg"}},{"name":"Sperbergasse","postalCode":"16244","locality":"Schorfheide","municipality":{"key":"12060198","name":"Schorfheide","type":"Kreisangehörige_Gemeinde"},"district":{"key":"12060","name":"Barnim","type":"Landkreis"},"federalState":{"key":"12","name":"Brandenburg"}},{"name":"Sperlingsau","postalCode":"16244","locality":"Schorfheide","municipality":{"key":"12060198","name":"Schorfheide","type":"Kreisangehörige_Gemeinde"},"district":{"key":"12060","name":"Barnim","type":"Landkreis"},"federalState":{"key":"12","name":"Brandenburg"}},{"name":"Sperlingsgasse","postalCode":"16244","locality":"Schorfheide","municipality":{"key":"12060198","name":"Schorfheide","type":"Kreisangehörige_Gemeinde"},"district":{"key":"12060","name":"Barnim","type":"Landkreis"},"federalState":{"key":"12","name":"Brandenburg"}},{"name":"Steindamm","postalCode":"16244","locality":"Schorfheide","municipality":{"key":"12060198","name":"Schorfheide","type":"Kreisangehörige_Gemeinde"},"district":{"key":"12060","name":"Barnim","type":"Landkreis"},"federalState":{"key":"12","name":"Brandenburg"}},{"name":"Steinfurter Allee","postalCode":"16244","locality":"Schorfheide","municipality":{"key":"12060198","name":"Schorfheide","type":"Kreisangehörige_Gemeinde"},"district":{"key":"12060","name":"Barnim","type":"Landkreis"},"federalState":{"key":"12","name":"Brandenburg"}},{"name":"Steinfurter Ring","postalCode":"16244","locality":"Schorfheide","municipality":{"key":"12060198","name":"Schorfheide","type":"Kreisangehörige_Gemeinde"},"district":{"key":"12060","name":"Barnim","type":"Landkreis"},"federalState":{"key":"12","name":"Brandenburg"}},{"name":"Steinfurter Str.","postalCode":"16244","locality":"Schorfheide","municipality":{"key":"12060198","name":"Schorfheide","type":"Kreisangehörige_Gemeinde"},"district":{"key":"12060","name":"Barnim","type":"Landkreis"},"federalState":{"key":"12","name":"Brandenburg"}},{"name":"Stieglitzsteig","postalCode":"16244","locality":"Schorfheide","municipality":{"key":"12060198","name":"Schorfheide","type":"Kreisangehörige_Gemeinde"},"district":{"key":"12060","name":"Barnim","type":"Landkreis"},"federalState":{"key":"12","name":"Brandenburg"}},{"name":"Str. zur Schorfheide","postalCode":"16244","locality":"Schorfheide","municipality":{"key":"12060198","name":"Schorfheide","type":"Kreisangehörige_Gemeinde"},"district":{"key":"12060","name":"Barnim","type":"Landkreis"},"federalState":{"key":"12","name":"Brandenburg"}},{"name":"Telefongestell","postalCode":"16244","locality":"Schorfheide","municipality":{"key":"12060198","name":"Schorfheide","type":"Kreisangehörige_Gemeinde"},"district":{"key":"12060","name":"Barnim","type":"Landkreis"},"federalState":{"key":"12","name":"Brandenburg"}},{"name":"Trämmersee","postalCode":"16244","locality":"Schorfheide","municipality":{"key":"12060198","name":"Schorfheide","type":"Kreisangehörige_Gemeinde"},"district":{"key":"12060","name":"Barnim","type":"Landkreis"},"federalState":{"key":"12","name":"Brandenburg"}},{"name":"Triftstr.","postalCode":"16244","locality":"Schorfheide","municipality":{"key":"12060198","name":"Schorfheide","type":"Kreisangehörige_Gemeinde"},"district":{"key":"12060","name":"Barnim","type":"Landkreis"},"federalState":{"key":"12","name":"Brandenburg"}},{"name":"Uferstr.","postalCode":"16244","locality":"Schorfheide","municipality":{"key":"12060198","name":"Schorfheide","type":"Kreisangehörige_Gemeinde"},"district":{"key":"12060","name":"Barnim","type":"Landkreis"},"federalState":{"key":"12","name":"Brandenburg"}},{"name":"Uhlenhof","postalCode":"16244","locality":"Schorfheide","municipality":{"key":"12060198","name":"Schorfheide","type":"Kreisangehörige_Gemeinde"},"district":{"key":"12060","name":"Barnim","type":"Landkreis"},"federalState":{"key":"12","name":"Brandenburg"}},{"name":"Unter den Buchen","postalCode":"16244","locality":"Schorfheide","municipality":{"key":"12060198","name":"Schorfheide","type":"Kreisangehörige_Gemeinde"},"district":{"key":"12060","name":"Barnim","type":"Landkreis"},"federalState":{"key":"12","name":"Brandenburg"}},{"name":"Unter den Linden","postalCode":"16244","locality":"Schorfheide","municipality":{"key":"12060198","name":"Schorfheide","type":"Kreisangehörige_Gemeinde"},"district":{"key":"12060","name":"Barnim","type":"Landkreis"},"federalState":{"key":"12","name":"Brandenburg"}},{"name":"VKSK An der Fundgrube","postalCode":"16244","locality":"Schorfheide","municipality":{"key":"12060198","name":"Schorfheide","type":"Kreisangehörige_Gemeinde"},"district":{"key":"12060","name":"Barnim","type":"Landkreis"},"federalState":{"key":"12","name":"Brandenburg"}},{"name":"Wachtelsteig","postalCode":"16244","locality":"Schorfheide","municipality":{"key":"12060198","name":"Schorfheide","type":"Kreisangehörige_Gemeinde"},"district":{"key":"12060","name":"Barnim","type":"Landkreis"},"federalState":{"key":"12","name":"Brandenburg"}},{"name":"Wagnerstr.","postalCode":"16244","locality":"Schorfheide","municipality":{"key":"12060198","name":"Schorfheide","type":"Kreisangehörige_Gemeinde"},"district":{"key":"12060","name":"Barnim","type":"Landkreis"},"federalState":{"key":"12","name":"Brandenburg"}},{"name":"Waldstr.","postalCode":"16244","locality":"Schorfheide","municipality":{"key":"12060198","name":"Schorfheide","type":"Kreisangehörige_Gemeinde"},"district":{"key":"12060","name":"Barnim","type":"Landkreis"},"federalState":{"key":"12","name":"Brandenburg"}},{"name":"Walter-Krumbach-Weg","postalCode":"16244","locality":"Schorfheide","municipality":{"key":"12060198","name":"Schorfheide","type":"Kreisangehörige_Gemeinde"},"district":{"key":"12060","name":"Barnim","type":"Landkreis"},"federalState":{"key":"12","name":"Brandenburg"}},{"name":"Walzwerkstr.","postalCode":"16244","locality":"Schorfheide","municipality":{"key":"12060198","name":"Schorfheide","type":"Kreisangehörige_Gemeinde"},"district":{"key":"12060","name":"Barnim","type":"Landkreis"},"federalState":{"key":"12","name":"Brandenburg"}},{"name":"Wassertorbrücke","postalCode":"16244","locality":"Schorfheide","municipality":{"key":"12060198","name":"Schorfheide","type":"Kreisangehörige_Gemeinde"},"district":{"key":"12060","name":"Barnim","type":"Landkreis"},"federalState":{"key":"12","name":"Brandenburg"}},{"name":"Weidenweg","postalCode":"16244","locality":"Schorfheide","municipality":{"key":"12060198","name":"Schorfheide","type":"Kreisangehörige_Gemeinde"},"district":{"key":"12060","name":"Barnim","type":"Landkreis"},"federalState":{"key":"12","name":"Brandenburg"}},{"name":"Werbelliner Dorfstr.","postalCode":"16244","locality":"Schorfheide","municipality":{"key":"12060198","name":"Schorfheide","type":"Kreisangehörige_Gemeinde"},"district":{"key":"12060","name":"Barnim","type":"Landkreis"},"federalState":{"key":"12","name":"Brandenburg"}},{"name":"Werbelliner Str.","postalCode":"16244","locality":"Schorfheide","municipality":{"key":"12060198","name":"Schorfheide","type":"Kreisangehörige_Gemeinde"},"district":{"key":"12060","name":"Barnim","type":"Landkreis"},"federalState":{"key":"12","name":"Brandenburg"}},{"name":"Wiesengrund","postalCode":"16244","locality":"Schorfheide","municipality":{"key":"12060198","name":"Schorfheide","type":"Kreisangehörige_Gemeinde"},"district":{"key":"12060","name":"Barnim","type":"Landkreis"},"federalState":{"key":"12","name":"Brandenburg"}},{"name":"Wiesenstr.","postalCode":"16244","locality":"Schorfheide","municipality":{"key":"12060198","name":"Schorfheide","type":"Kreisangehörige_Gemeinde"},"district":{"key":"12060","name":"Barnim","type":"Landkreis"},"federalState":{"key":"12","name":"Brandenburg"}},{"name":"Wiesenweg","postalCode":"16244","locality":"Schorfheide","municipality":{"key":"12060198","name":"Schorfheide","type":"Kreisangehörige_Gemeinde"},"district":{"key":"12060","name":"Barnim","type":"Landkreis"},"federalState":{"key":"12","name":"Brandenburg"}},{"name":"Wildau","postalCode":"16244","locality":"Schorfheide","municipality":{"key":"12060198","name":"Schorfheide","type":"Kreisangehörige_Gemeinde"},"district":{"key":"12060","name":"Barnim","type":"Landkreis"},"federalState":{"key":"12","name":"Brandenburg"}},{"name":"Zeisigsteg","postalCode":"16244","locality":"Schorfheide","municipality":{"key":"12060198","name":"Schorfheide","type":"Kreisangehörige_Gemeinde"},"district":{"key":"12060","name":"Barnim","type":"Landkreis"},"federalState":{"key":"12","name":"Brandenburg"}},{"name":"Zum Jugendheim","postalCode":"16244","locality":"Schorfheide","municipality":{"key":"12060198","name":"Schorfheide","type":"Kreisangehörige_Gemeinde"},"district":{"key":"12060","name":"Barnim","type":"Landkreis"},"federalState":{"key":"12","name":"Brandenburg"}},{"name":"Zum Krugacker","postalCode":"16244","locality":"Schorfheide","municipality":{"key":"12060198","name":"Schorfheide","type":"Kreisangehörige_Gemeinde"},"district":{"key":"12060","name":"Barnim","type":"Landkreis"},"federalState":{"key":"12","name":"Brandenburg"}},{"name":"Zum Sportplatz","postalCode":"16244","locality":"Schorfheide","municipality":{"key":"12060198","name":"Schorfheide","type":"Kreisangehörige_Gemeinde"},"district":{"key":"12060","name":"Barnim","type":"Landkreis"},"federalState":{"key":"12","name":"Brandenburg"}},{"name":"Üderheide","postalCode":"16244","locality":"Schorfheide","municipality":{"key":"12060198","name":"Schorfheide","type":"Kreisangehörige_Gemeinde"},"district":{"key":"12060","name":"Barnim","type":"Landkreis"},"federalState":{"key":"12","name":"Brandenburg"}},{"name":"Üdersee Nord","postalCode":"16244","locality":"Schorfheide","municipality":{"key":"12060198","name":"Schorfheide","type":"Kreisangehörige_Gemeinde"},"district":{"key":"12060","name":"Barnim","type":"Landkreis"},"federalState":{"key":"12","name":"Brandenburg"}},{"name":"Üdersee Süd","postalCode":"16244","locality":"Schorfheide","municipality":{"key":"12060198","name":"Schorfheide","type":"Kreisangehörige_Gemeinde"},"district":{"key":"12060","name":"Barnim","type":"Landkreis"},"federalState":{"key":"12","name":"Brandenburg"}},]