[{"key":"10102587","name":"Avenue de Saint-Paul","postalCode":"1223","locality":"Cologny","commune":{"key":"6617","name":"Cologny","shortName":"Cologny"},"district":{"key":"2500","name":"Canton de Genève"},"canton":{"key":"25","code":"GE","name":"Genève"},"status":"Real"},{"key":"10047967","name":"Avenue des Cavaliers","postalCode":"1223","locality":"Cologny","commune":{"key":"6617","name":"Cologny","shortName":"Cologny"},"district":{"key":"2500","name":"Canton de Genève"},"canton":{"key":"25","code":"GE","name":"Genève"},"status":"Real"},{"key":"10178017","name":"Chemin BOISSIER","postalCode":"1223","locality":"Cologny","commune":{"key":"6617","name":"Cologny","shortName":"Cologny"},"district":{"key":"2500","name":"Canton de Genève"},"canton":{"key":"25","code":"GE","name":"Genève"},"status":"Real"},{"key":"10083774","name":"Chemin BROT","postalCode":"1223","locality":"Cologny","commune":{"key":"6617","name":"Cologny","shortName":"Cologny"},"district":{"key":"2500","name":"Canton de Genève"},"canton":{"key":"25","code":"GE","name":"Genève"},"status":"Real"},{"key":"10121284","name":"Chemin BYRON","postalCode":"1223","locality":"Cologny","commune":{"key":"6617","name":"Cologny","shortName":"Cologny"},"district":{"key":"2500","name":"Canton de Genève"},"canton":{"key":"25","code":"GE","name":"Genève"},"status":"Real"},{"key":"10177265","name":"Chemin CHENEVIÈRE-MUNIER","postalCode":"1223","locality":"Cologny","commune":{"key":"6617","name":"Cologny","shortName":"Cologny"},"district":{"key":"2500","name":"Canton de Genève"},"canton":{"key":"25","code":"GE","name":"Genève"},"status":"Real"},{"key":"10102589","name":"Chemin David-MUNIER","postalCode":"1223","locality":"Cologny","commune":{"key":"6617","name":"Cologny","shortName":"Cologny"},"district":{"key":"2500","name":"Canton de Genève"},"canton":{"key":"25","code":"GE","name":"Genève"},"status":"Real"},{"key":"10102590","name":"Chemin de Bellefontaine","postalCode":"1223","locality":"Cologny","commune":{"key":"6617","name":"Cologny","shortName":"Cologny"},"district":{"key":"2500","name":"Canton de Genève"},"canton":{"key":"25","code":"GE","name":"Genève"},"status":"Real"},{"key":"10048053","name":"Chemin de Bonnevaux","postalCode":"1223","locality":"Cologny","commune":{"key":"6617","name":"Cologny","shortName":"Cologny"},"district":{"key":"2500","name":"Canton de Genève"},"canton":{"key":"25","code":"GE","name":"Genève"},"status":"Real"},{"key":"10049064","name":"Chemin de Coudrée","postalCode":"1223","locality":"Cologny","commune":{"key":"6617","name":"Cologny","shortName":"Cologny"},"district":{"key":"2500","name":"Canton de Genève"},"canton":{"key":"25","code":"GE","name":"Genève"},"status":"Real"},{"key":"10106222","name":"Chemin de Grange-Canal","postalCode":"1223","locality":"Cologny","commune":{"key":"6617","name":"Cologny","shortName":"Cologny"},"district":{"key":"2500","name":"Canton de Genève"},"canton":{"key":"25","code":"GE","name":"Genève"},"status":"Real"},{"key":"10049066","name":"Chemin de la Fraidieu","postalCode":"1223","locality":"Cologny","commune":{"key":"6617","name":"Cologny","shortName":"Cologny"},"district":{"key":"2500","name":"Canton de Genève"},"canton":{"key":"25","code":"GE","name":"Genève"},"status":"Real"},{"key":"10049067","name":"Chemin de la Gradelle","postalCode":"1223","locality":"Cologny","commune":{"key":"6617","name":"Cologny","shortName":"Cologny"},"district":{"key":"2500","name":"Canton de Genève"},"canton":{"key":"25","code":"GE","name":"Genève"},"status":"Real"},{"key":"10083776","name":"Chemin de la Haute-Belotte","postalCode":"1223","locality":"Cologny","commune":{"key":"6617","name":"Cologny","shortName":"Cologny"},"district":{"key":"2500","name":"Canton de Genève"},"canton":{"key":"25","code":"GE","name":"Genève"},"status":"Real"},{"key":"10102592","name":"Chemin de la Mairie","postalCode":"1223","locality":"Cologny","commune":{"key":"6617","name":"Cologny","shortName":"Cologny"},"district":{"key":"2500","name":"Canton de Genève"},"canton":{"key":"25","code":"GE","name":"Genève"},"status":"Real"},{"key":"10049068","name":"Chemin de la Perrière","postalCode":"1223","locality":"Cologny","commune":{"key":"6617","name":"Cologny","shortName":"Cologny"},"district":{"key":"2500","name":"Canton de Genève"},"canton":{"key":"25","code":"GE","name":"Genève"},"status":"Real"},{"key":"10049069","name":"Chemin de la Prévôté","postalCode":"1223","locality":"Cologny","commune":{"key":"6617","name":"Cologny","shortName":"Cologny"},"district":{"key":"2500","name":"Canton de Genève"},"canton":{"key":"25","code":"GE","name":"Genève"},"status":"Real"},{"key":"10051201","name":"Chemin de la Rippaz","postalCode":"1223","locality":"Cologny","commune":{"key":"6617","name":"Cologny","shortName":"Cologny"},"district":{"key":"2500","name":"Canton de Genève"},"canton":{"key":"25","code":"GE","name":"Genève"},"status":"Real"},{"key":"10192051","name":"Chemin de la Tour-Carrée","postalCode":"1223","locality":"Cologny","commune":{"key":"6617","name":"Cologny","shortName":"Cologny"},"district":{"key":"2500","name":"Canton de Genève"},"canton":{"key":"25","code":"GE","name":"Genève"},"status":"Real"},{"key":"10178018","name":"Chemin de la Tulette","postalCode":"1223","locality":"Cologny","commune":{"key":"6617","name":"Cologny","shortName":"Cologny"},"district":{"key":"2500","name":"Canton de Genève"},"canton":{"key":"25","code":"GE","name":"Genève"},"status":"Real"},{"key":"10075152","name":"Chemin de l'Ermitage-de-la-Belotte","postalCode":"1223","locality":"Cologny","commune":{"key":"6617","name":"Cologny","shortName":"Cologny"},"district":{"key":"2500","name":"Canton de Genève"},"canton":{"key":"25","code":"GE","name":"Genève"},"status":"Real"},{"key":"10049065","name":"Chemin de Planta","postalCode":"1223","locality":"Cologny","commune":{"key":"6617","name":"Cologny","shortName":"Cologny"},"district":{"key":"2500","name":"Canton de Genève"},"canton":{"key":"25","code":"GE","name":"Genève"},"status":"Real"},{"key":"10041420","name":"Chemin de Plonjon","postalCode":"1223","locality":"Cologny","commune":{"key":"6617","name":"Cologny","shortName":"Cologny"},"district":{"key":"2500","name":"Canton de Genève"},"canton":{"key":"25","code":"GE","name":"Genève"},"status":"Real"},{"key":"10102591","name":"Chemin de Ruth","postalCode":"1223","locality":"Cologny","commune":{"key":"6617","name":"Cologny","shortName":"Cologny"},"district":{"key":"2500","name":"Canton de Genève"},"canton":{"key":"25","code":"GE","name":"Genève"},"status":"Real"},{"key":"10222258","name":"Chemin des Amoureux","postalCode":"1223","locality":"Cologny","commune":{"key":"6617","name":"Cologny","shortName":"Cologny"},"district":{"key":"2500","name":"Canton de Genève"},"canton":{"key":"25","code":"GE","name":"Genève"},"status":"Real"},{"key":"10047976","name":"Chemin des Buclines","postalCode":"1223","locality":"Cologny","commune":{"key":"6617","name":"Cologny","shortName":"Cologny"},"district":{"key":"2500","name":"Canton de Genève"},"canton":{"key":"25","code":"GE","name":"Genève"},"status":"Real"},{"key":"10102593","name":"Chemin des Falquets","postalCode":"1223","locality":"Cologny","commune":{"key":"6617","name":"Cologny","shortName":"Cologny"},"district":{"key":"2500","name":"Canton de Genève"},"canton":{"key":"25","code":"GE","name":"Genève"},"status":"Real"},{"key":"10083777","name":"Chemin des Fourches","postalCode":"1223","locality":"Cologny","commune":{"key":"6617","name":"Cologny","shortName":"Cologny"},"district":{"key":"2500","name":"Canton de Genève"},"canton":{"key":"25","code":"GE","name":"Genève"},"status":"Real"},{"key":"10049071","name":"Chemin des Fours","postalCode":"1223","locality":"Cologny","commune":{"key":"6617","name":"Cologny","shortName":"Cologny"},"district":{"key":"2500","name":"Canton de Genève"},"canton":{"key":"25","code":"GE","name":"Genève"},"status":"Real"},{"key":"10222262","name":"Chemin des Grallets","postalCode":"1223","locality":"Cologny","commune":{"key":"6617","name":"Cologny","shortName":"Cologny"},"district":{"key":"2500","name":"Canton de Genève"},"canton":{"key":"25","code":"GE","name":"Genève"},"status":"Real"},{"key":"10103101","name":"Chemin des Hauts-Crêts","postalCode":"1223","locality":"Cologny","commune":{"key":"6617","name":"Cologny","shortName":"Cologny"},"district":{"key":"2500","name":"Canton de Genève"},"canton":{"key":"25","code":"GE","name":"Genève"},"status":"Real"},{"key":"10048048","name":"Chemin des Pêcheurs","postalCode":"1223","locality":"Cologny","commune":{"key":"6617","name":"Cologny","shortName":"Cologny"},"district":{"key":"2500","name":"Canton de Genève"},"canton":{"key":"25","code":"GE","name":"Genève"},"status":"Real"},{"key":"10075156","name":"Chemin des Prés-de-la-Gradelle","postalCode":"1223","locality":"Cologny","commune":{"key":"6617","name":"Cologny","shortName":"Cologny"},"district":{"key":"2500","name":"Canton de Genève"},"canton":{"key":"25","code":"GE","name":"Genève"},"status":"Real"},{"key":"10106220","name":"Chemin des Princes","postalCode":"1223","locality":"Cologny","commune":{"key":"6617","name":"Cologny","shortName":"Cologny"},"district":{"key":"2500","name":"Canton de Genève"},"canton":{"key":"25","code":"GE","name":"Genève"},"status":"Real"},{"key":"10102594","name":"Chemin des Ruelles","postalCode":"1223","locality":"Cologny","commune":{"key":"6617","name":"Cologny","shortName":"Cologny"},"district":{"key":"2500","name":"Canton de Genève"},"canton":{"key":"25","code":"GE","name":"Genève"},"status":"Real"},{"key":"10048051","name":"Chemin DIODATI","postalCode":"1223","locality":"Cologny","commune":{"key":"6617","name":"Cologny","shortName":"Cologny"},"district":{"key":"2500","name":"Canton de Genève"},"canton":{"key":"25","code":"GE","name":"Genève"},"status":"Real"},{"key":"10059527","name":"Chemin du Connétable","postalCode":"1223","locality":"Cologny","commune":{"key":"6617","name":"Cologny","shortName":"Cologny"},"district":{"key":"2500","name":"Canton de Genève"},"canton":{"key":"25","code":"GE","name":"Genève"},"status":"Real"},{"key":"10083778","name":"Chemin du Coq-d'Inde","postalCode":"1223","locality":"Cologny","commune":{"key":"6617","name":"Cologny","shortName":"Cologny"},"district":{"key":"2500","name":"Canton de Genève"},"canton":{"key":"25","code":"GE","name":"Genève"},"status":"Real"},{"key":"10222264","name":"Chemin du Domaine-PATRY","postalCode":"1223","locality":"Cologny","commune":{"key":"6617","name":"Cologny","shortName":"Cologny"},"district":{"key":"2500","name":"Canton de Genève"},"canton":{"key":"25","code":"GE","name":"Genève"},"status":"Real"},{"key":"10049072","name":"Chemin du Jerlon","postalCode":"1223","locality":"Cologny","commune":{"key":"6617","name":"Cologny","shortName":"Cologny"},"district":{"key":"2500","name":"Canton de Genève"},"canton":{"key":"25","code":"GE","name":"Genève"},"status":"Real"},{"key":"10048049","name":"Chemin du Joran","postalCode":"1223","locality":"Cologny","commune":{"key":"6617","name":"Cologny","shortName":"Cologny"},"district":{"key":"2500","name":"Canton de Genève"},"canton":{"key":"25","code":"GE","name":"Genève"},"status":"Real"},{"key":"10049073","name":"Chemin du Môlan","postalCode":"1223","locality":"Cologny","commune":{"key":"6617","name":"Cologny","shortName":"Cologny"},"district":{"key":"2500","name":"Canton de Genève"},"canton":{"key":"25","code":"GE","name":"Genève"},"status":"Real"},{"key":"10102595","name":"Chemin du Nant-d'Argent","postalCode":"1223","locality":"Cologny","commune":{"key":"6617","name":"Cologny","shortName":"Cologny"},"district":{"key":"2500","name":"Canton de Genève"},"canton":{"key":"25","code":"GE","name":"Genève"},"status":"Real"},{"key":"10059528","name":"Chemin du Parc-de-Montalègre","postalCode":"1223","locality":"Cologny","commune":{"key":"6617","name":"Cologny","shortName":"Cologny"},"district":{"key":"2500","name":"Canton de Genève"},"canton":{"key":"25","code":"GE","name":"Genève"},"status":"Real"},{"key":"10048044","name":"Chemin du Port-Noir","postalCode":"1223","locality":"Cologny","commune":{"key":"6617","name":"Cologny","shortName":"Cologny"},"district":{"key":"2500","name":"Canton de Genève"},"canton":{"key":"25","code":"GE","name":"Genève"},"status":"Real"},{"key":"10047979","name":"Chemin du Pré-du-Couvent","postalCode":"1223","locality":"Cologny","commune":{"key":"6617","name":"Cologny","shortName":"Cologny"},"district":{"key":"2500","name":"Canton de Genève"},"canton":{"key":"25","code":"GE","name":"Genève"},"status":"Real"},{"key":"10083779","name":"Chemin du Pré-Langard","postalCode":"1223","locality":"Cologny","commune":{"key":"6617","name":"Cologny","shortName":"Cologny"},"district":{"key":"2500","name":"Canton de Genève"},"canton":{"key":"25","code":"GE","name":"Genève"},"status":"Real"},{"key":"10243169","name":"Chemin du Pré-Picot","postalCode":"1223","locality":"Cologny","commune":{"key":"6617","name":"Cologny","shortName":"Cologny"},"district":{"key":"2500","name":"Canton de Genève"},"canton":{"key":"25","code":"GE","name":"Genève"},"status":"Real"},{"key":"10115966","name":"Chemin du Righi","postalCode":"1223","locality":"Cologny","commune":{"key":"6617","name":"Cologny","shortName":"Cologny"},"district":{"key":"2500","name":"Canton de Genève"},"canton":{"key":"25","code":"GE","name":"Genève"},"status":"Real"},{"key":"10049074","name":"Chemin du Séchard","postalCode":"1223","locality":"Cologny","commune":{"key":"6617","name":"Cologny","shortName":"Cologny"},"district":{"key":"2500","name":"Canton de Genève"},"canton":{"key":"25","code":"GE","name":"Genève"},"status":"Real"},{"key":"10049075","name":"Chemin du Tirage","postalCode":"1223","locality":"Cologny","commune":{"key":"6617","name":"Cologny","shortName":"Cologny"},"district":{"key":"2500","name":"Canton de Genève"},"canton":{"key":"25","code":"GE","name":"Genève"},"status":"Real"},{"key":"10059529","name":"Chemin du Vent-Blanc","postalCode":"1223","locality":"Cologny","commune":{"key":"6617","name":"Cologny","shortName":"Cologny"},"district":{"key":"2500","name":"Canton de Genève"},"canton":{"key":"25","code":"GE","name":"Genève"},"status":"Real"},{"key":"10222277","name":"Esplanade ALINGHI","postalCode":"1223","locality":"Cologny","commune":{"key":"6617","name":"Cologny","shortName":"Cologny"},"district":{"key":"2500","name":"Canton de Genève"},"canton":{"key":"25","code":"GE","name":"Genève"},"status":"Real"},{"key":"10222281","name":"Passage des Secrets","postalCode":"1223","locality":"Cologny","commune":{"key":"6617","name":"Cologny","shortName":"Cologny"},"district":{"key":"2500","name":"Canton de Genève"},"canton":{"key":"25","code":"GE","name":"Genève"},"status":"Real"},{"key":"10048045","name":"Place de Traînant","postalCode":"1223","locality":"Cologny","commune":{"key":"6617","name":"Cologny","shortName":"Cologny"},"district":{"key":"2500","name":"Canton de Genève"},"canton":{"key":"25","code":"GE","name":"Genève"},"status":"Real"},{"key":"10058370","name":"Place du Manoir","postalCode":"1223","locality":"Cologny","commune":{"key":"6617","name":"Cologny","shortName":"Cologny"},"district":{"key":"2500","name":"Canton de Genève"},"canton":{"key":"25","code":"GE","name":"Genève"},"status":"Real"},{"key":"10049076","name":"Place Pierre-GAUTIER","postalCode":"1223","locality":"Cologny","commune":{"key":"6617","name":"Cologny","shortName":"Cologny"},"district":{"key":"2500","name":"Canton de Genève"},"canton":{"key":"25","code":"GE","name":"Genève"},"status":"Real"},{"key":"10083780","name":"Plateau de Frontenex","postalCode":"1223","locality":"Cologny","commune":{"key":"6617","name":"Cologny","shortName":"Cologny"},"district":{"key":"2500","name":"Canton de Genève"},"canton":{"key":"25","code":"GE","name":"Genève"},"status":"Real"},{"key":"10102597","name":"Quai de Cologny","postalCode":"1223","locality":"Cologny","commune":{"key":"6617","name":"Cologny","shortName":"Cologny"},"district":{"key":"2500","name":"Canton de Genève"},"canton":{"key":"25","code":"GE","name":"Genève"},"status":"Real"},{"key":"10222116","name":"Quai Gustave-ADOR","postalCode":"1223","locality":"Cologny","commune":{"key":"6617","name":"Cologny","shortName":"Cologny"},"district":{"key":"2500","name":"Canton de Genève"},"canton":{"key":"25","code":"GE","name":"Genève"},"status":"Real"},{"key":"10049077","name":"Rampe de Cologny","postalCode":"1223","locality":"Cologny","commune":{"key":"6617","name":"Cologny","shortName":"Cologny"},"district":{"key":"2500","name":"Canton de Genève"},"canton":{"key":"25","code":"GE","name":"Genève"},"status":"Real"},{"key":"10083781","name":"Route de La-Capite","postalCode":"1223","locality":"Cologny","commune":{"key":"6617","name":"Cologny","shortName":"Cologny"},"district":{"key":"2500","name":"Canton de Genève"},"canton":{"key":"25","code":"GE","name":"Genève"},"status":"Real"},{"key":"10048050","name":"Route de Thonon","postalCode":"1223","locality":"Cologny","commune":{"key":"6617","name":"Cologny","shortName":"Cologny"},"district":{"key":"2500","name":"Canton de Genève"},"canton":{"key":"25","code":"GE","name":"Genève"},"status":"Real"},{"key":"10102598","name":"Route de Vandoeuvres","postalCode":"1223","locality":"Cologny","commune":{"key":"6617","name":"Cologny","shortName":"Cologny"},"district":{"key":"2500","name":"Canton de Genève"},"canton":{"key":"25","code":"GE","name":"Genève"},"status":"Real"},{"key":"10049078","name":"Route Martin-BODMER","postalCode":"1223","locality":"Cologny","commune":{"key":"6617","name":"Cologny","shortName":"Cologny"},"district":{"key":"2500","name":"Canton de Genève"},"canton":{"key":"25","code":"GE","name":"Genève"},"status":"Real"},]