[{"name":"Ahornweg","postalCode":"89197","locality":"Weidenstetten","municipality":{"key":"08425130","name":"Weidenstetten","type":"Kreisangehörige_Gemeinde"},"district":{"key":"08425","name":"Alb-Donau-Kreis","type":"Landkreis"},"federalState":{"key":"08","name":"Baden-Württemberg"}},{"name":"Altheimer Str.","postalCode":"89197","locality":"Weidenstetten","municipality":{"key":"08425130","name":"Weidenstetten","type":"Kreisangehörige_Gemeinde"},"district":{"key":"08425","name":"Alb-Donau-Kreis","type":"Landkreis"},"federalState":{"key":"08","name":"Baden-Württemberg"}},{"name":"Am Friedhof","postalCode":"89197","locality":"Weidenstetten","municipality":{"key":"08425130","name":"Weidenstetten","type":"Kreisangehörige_Gemeinde"},"district":{"key":"08425","name":"Alb-Donau-Kreis","type":"Landkreis"},"federalState":{"key":"08","name":"Baden-Württemberg"}},{"name":"Am Katzensteig","postalCode":"89197","locality":"Weidenstetten","municipality":{"key":"08425130","name":"Weidenstetten","type":"Kreisangehörige_Gemeinde"},"district":{"key":"08425","name":"Alb-Donau-Kreis","type":"Landkreis"},"federalState":{"key":"08","name":"Baden-Württemberg"}},{"name":"Am Weiher","postalCode":"89197","locality":"Weidenstetten","municipality":{"key":"08425130","name":"Weidenstetten","type":"Kreisangehörige_Gemeinde"},"district":{"key":"08425","name":"Alb-Donau-Kreis","type":"Landkreis"},"federalState":{"key":"08","name":"Baden-Württemberg"}},{"name":"Birkenweg","postalCode":"89197","locality":"Weidenstetten","municipality":{"key":"08425130","name":"Weidenstetten","type":"Kreisangehörige_Gemeinde"},"district":{"key":"08425","name":"Alb-Donau-Kreis","type":"Landkreis"},"federalState":{"key":"08","name":"Baden-Württemberg"}},{"name":"Bockäckerweg","postalCode":"89197","locality":"Weidenstetten","municipality":{"key":"08425130","name":"Weidenstetten","type":"Kreisangehörige_Gemeinde"},"district":{"key":"08425","name":"Alb-Donau-Kreis","type":"Landkreis"},"federalState":{"key":"08","name":"Baden-Württemberg"}},{"name":"Boschweg","postalCode":"89197","locality":"Weidenstetten","municipality":{"key":"08425130","name":"Weidenstetten","type":"Kreisangehörige_Gemeinde"},"district":{"key":"08425","name":"Alb-Donau-Kreis","type":"Landkreis"},"federalState":{"key":"08","name":"Baden-Württemberg"}},{"name":"Brunnengasse","postalCode":"89197","locality":"Weidenstetten","municipality":{"key":"08425130","name":"Weidenstetten","type":"Kreisangehörige_Gemeinde"},"district":{"key":"08425","name":"Alb-Donau-Kreis","type":"Landkreis"},"federalState":{"key":"08","name":"Baden-Württemberg"}},{"name":"Buchenweg","postalCode":"89197","locality":"Weidenstetten","municipality":{"key":"08425130","name":"Weidenstetten","type":"Kreisangehörige_Gemeinde"},"district":{"key":"08425","name":"Alb-Donau-Kreis","type":"Landkreis"},"federalState":{"key":"08","name":"Baden-Württemberg"}},{"name":"Dorfplatz","postalCode":"89197","locality":"Weidenstetten","municipality":{"key":"08425130","name":"Weidenstetten","type":"Kreisangehörige_Gemeinde"},"district":{"key":"08425","name":"Alb-Donau-Kreis","type":"Landkreis"},"federalState":{"key":"08","name":"Baden-Württemberg"}},{"name":"Dorfwiesen","postalCode":"89197","locality":"Weidenstetten","municipality":{"key":"08425130","name":"Weidenstetten","type":"Kreisangehörige_Gemeinde"},"district":{"key":"08425","name":"Alb-Donau-Kreis","type":"Landkreis"},"federalState":{"key":"08","name":"Baden-Württemberg"}},{"name":"Eichenweg","postalCode":"89197","locality":"Weidenstetten","municipality":{"key":"08425130","name":"Weidenstetten","type":"Kreisangehörige_Gemeinde"},"district":{"key":"08425","name":"Alb-Donau-Kreis","type":"Landkreis"},"federalState":{"key":"08","name":"Baden-Württemberg"}},{"name":"Eschwendeweg","postalCode":"89197","locality":"Weidenstetten","municipality":{"key":"08425130","name":"Weidenstetten","type":"Kreisangehörige_Gemeinde"},"district":{"key":"08425","name":"Alb-Donau-Kreis","type":"Landkreis"},"federalState":{"key":"08","name":"Baden-Württemberg"}},{"name":"Gartenstr.","postalCode":"89197","locality":"Weidenstetten","municipality":{"key":"08425130","name":"Weidenstetten","type":"Kreisangehörige_Gemeinde"},"district":{"key":"08425","name":"Alb-Donau-Kreis","type":"Landkreis"},"federalState":{"key":"08","name":"Baden-Württemberg"}},{"name":"Geislinger Str.","postalCode":"89197","locality":"Weidenstetten","municipality":{"key":"08425130","name":"Weidenstetten","type":"Kreisangehörige_Gemeinde"},"district":{"key":"08425","name":"Alb-Donau-Kreis","type":"Landkreis"},"federalState":{"key":"08","name":"Baden-Württemberg"}},{"name":"Gernäckerweg","postalCode":"89197","locality":"Weidenstetten","municipality":{"key":"08425130","name":"Weidenstetten","type":"Kreisangehörige_Gemeinde"},"district":{"key":"08425","name":"Alb-Donau-Kreis","type":"Landkreis"},"federalState":{"key":"08","name":"Baden-Württemberg"}},{"name":"Hieronymus-Emser-Weg","postalCode":"89197","locality":"Weidenstetten","municipality":{"key":"08425130","name":"Weidenstetten","type":"Kreisangehörige_Gemeinde"},"district":{"key":"08425","name":"Alb-Donau-Kreis","type":"Landkreis"},"federalState":{"key":"08","name":"Baden-Württemberg"}},{"name":"Hinter den Gärten","postalCode":"89197","locality":"Weidenstetten","municipality":{"key":"08425130","name":"Weidenstetten","type":"Kreisangehörige_Gemeinde"},"district":{"key":"08425","name":"Alb-Donau-Kreis","type":"Landkreis"},"federalState":{"key":"08","name":"Baden-Württemberg"}},{"name":"Hirschgasse","postalCode":"89197","locality":"Weidenstetten","municipality":{"key":"08425130","name":"Weidenstetten","type":"Kreisangehörige_Gemeinde"},"district":{"key":"08425","name":"Alb-Donau-Kreis","type":"Landkreis"},"federalState":{"key":"08","name":"Baden-Württemberg"}},{"name":"Hummelweg","postalCode":"89197","locality":"Weidenstetten","municipality":{"key":"08425130","name":"Weidenstetten","type":"Kreisangehörige_Gemeinde"},"district":{"key":"08425","name":"Alb-Donau-Kreis","type":"Landkreis"},"federalState":{"key":"08","name":"Baden-Württemberg"}},{"name":"Industrieweg","postalCode":"89197","locality":"Weidenstetten","municipality":{"key":"08425130","name":"Weidenstetten","type":"Kreisangehörige_Gemeinde"},"district":{"key":"08425","name":"Alb-Donau-Kreis","type":"Landkreis"},"federalState":{"key":"08","name":"Baden-Württemberg"}},{"name":"Johannes-Brenz-Weg","postalCode":"89197","locality":"Weidenstetten","municipality":{"key":"08425130","name":"Weidenstetten","type":"Kreisangehörige_Gemeinde"},"district":{"key":"08425","name":"Alb-Donau-Kreis","type":"Landkreis"},"federalState":{"key":"08","name":"Baden-Württemberg"}},{"name":"Kapellenweg","postalCode":"89197","locality":"Weidenstetten","municipality":{"key":"08425130","name":"Weidenstetten","type":"Kreisangehörige_Gemeinde"},"district":{"key":"08425","name":"Alb-Donau-Kreis","type":"Landkreis"},"federalState":{"key":"08","name":"Baden-Württemberg"}},{"name":"Lammgasse","postalCode":"89197","locality":"Weidenstetten","municipality":{"key":"08425130","name":"Weidenstetten","type":"Kreisangehörige_Gemeinde"},"district":{"key":"08425","name":"Alb-Donau-Kreis","type":"Landkreis"},"federalState":{"key":"08","name":"Baden-Württemberg"}},{"name":"Lerchenweg","postalCode":"89197","locality":"Weidenstetten","municipality":{"key":"08425130","name":"Weidenstetten","type":"Kreisangehörige_Gemeinde"},"district":{"key":"08425","name":"Alb-Donau-Kreis","type":"Landkreis"},"federalState":{"key":"08","name":"Baden-Württemberg"}},{"name":"Lindenweg","postalCode":"89197","locality":"Weidenstetten","municipality":{"key":"08425130","name":"Weidenstetten","type":"Kreisangehörige_Gemeinde"},"district":{"key":"08425","name":"Alb-Donau-Kreis","type":"Landkreis"},"federalState":{"key":"08","name":"Baden-Württemberg"}},{"name":"Martin-Luther-Weg","postalCode":"89197","locality":"Weidenstetten","municipality":{"key":"08425130","name":"Weidenstetten","type":"Kreisangehörige_Gemeinde"},"district":{"key":"08425","name":"Alb-Donau-Kreis","type":"Landkreis"},"federalState":{"key":"08","name":"Baden-Württemberg"}},{"name":"Mastenweg","postalCode":"89197","locality":"Weidenstetten","municipality":{"key":"08425130","name":"Weidenstetten","type":"Kreisangehörige_Gemeinde"},"district":{"key":"08425","name":"Alb-Donau-Kreis","type":"Landkreis"},"federalState":{"key":"08","name":"Baden-Württemberg"}},{"name":"Mayerweg","postalCode":"89197","locality":"Weidenstetten","municipality":{"key":"08425130","name":"Weidenstetten","type":"Kreisangehörige_Gemeinde"},"district":{"key":"08425","name":"Alb-Donau-Kreis","type":"Landkreis"},"federalState":{"key":"08","name":"Baden-Württemberg"}},{"name":"Mitteleschle","postalCode":"89197","locality":"Weidenstetten","municipality":{"key":"08425130","name":"Weidenstetten","type":"Kreisangehörige_Gemeinde"},"district":{"key":"08425","name":"Alb-Donau-Kreis","type":"Landkreis"},"federalState":{"key":"08","name":"Baden-Württemberg"}},{"name":"Neenstetter Str.","postalCode":"89197","locality":"Weidenstetten","municipality":{"key":"08425130","name":"Weidenstetten","type":"Kreisangehörige_Gemeinde"},"district":{"key":"08425","name":"Alb-Donau-Kreis","type":"Landkreis"},"federalState":{"key":"08","name":"Baden-Württemberg"}},{"name":"Postweg","postalCode":"89197","locality":"Weidenstetten","municipality":{"key":"08425130","name":"Weidenstetten","type":"Kreisangehörige_Gemeinde"},"district":{"key":"08425","name":"Alb-Donau-Kreis","type":"Landkreis"},"federalState":{"key":"08","name":"Baden-Württemberg"}},{"name":"Ringweg","postalCode":"89197","locality":"Weidenstetten","municipality":{"key":"08425130","name":"Weidenstetten","type":"Kreisangehörige_Gemeinde"},"district":{"key":"08425","name":"Alb-Donau-Kreis","type":"Landkreis"},"federalState":{"key":"08","name":"Baden-Württemberg"}},{"name":"Salzgäßle","postalCode":"89197","locality":"Weidenstetten","municipality":{"key":"08425130","name":"Weidenstetten","type":"Kreisangehörige_Gemeinde"},"district":{"key":"08425","name":"Alb-Donau-Kreis","type":"Landkreis"},"federalState":{"key":"08","name":"Baden-Württemberg"}},{"name":"Siedlungsweg","postalCode":"89197","locality":"Weidenstetten","municipality":{"key":"08425130","name":"Weidenstetten","type":"Kreisangehörige_Gemeinde"},"district":{"key":"08425","name":"Alb-Donau-Kreis","type":"Landkreis"},"federalState":{"key":"08","name":"Baden-Württemberg"}},{"name":"Talweg","postalCode":"89197","locality":"Weidenstetten","municipality":{"key":"08425130","name":"Weidenstetten","type":"Kreisangehörige_Gemeinde"},"district":{"key":"08425","name":"Alb-Donau-Kreis","type":"Landkreis"},"federalState":{"key":"08","name":"Baden-Württemberg"}},{"name":"Trutteltäle","postalCode":"89197","locality":"Weidenstetten","municipality":{"key":"08425130","name":"Weidenstetten","type":"Kreisangehörige_Gemeinde"},"district":{"key":"08425","name":"Alb-Donau-Kreis","type":"Landkreis"},"federalState":{"key":"08","name":"Baden-Württemberg"}},{"name":"Ulmer Str.","postalCode":"89197","locality":"Weidenstetten","municipality":{"key":"08425130","name":"Weidenstetten","type":"Kreisangehörige_Gemeinde"},"district":{"key":"08425","name":"Alb-Donau-Kreis","type":"Landkreis"},"federalState":{"key":"08","name":"Baden-Württemberg"}},{"name":"Weidenweg","postalCode":"89197","locality":"Weidenstetten","municipality":{"key":"08425130","name":"Weidenstetten","type":"Kreisangehörige_Gemeinde"},"district":{"key":"08425","name":"Alb-Donau-Kreis","type":"Landkreis"},"federalState":{"key":"08","name":"Baden-Württemberg"}},{"name":"Weilerstr.","postalCode":"89197","locality":"Weidenstetten","municipality":{"key":"08425130","name":"Weidenstetten","type":"Kreisangehörige_Gemeinde"},"district":{"key":"08425","name":"Alb-Donau-Kreis","type":"Landkreis"},"federalState":{"key":"08","name":"Baden-Württemberg"}},{"name":"Ölgasse","postalCode":"89197","locality":"Weidenstetten","municipality":{"key":"08425130","name":"Weidenstetten","type":"Kreisangehörige_Gemeinde"},"district":{"key":"08425","name":"Alb-Donau-Kreis","type":"Landkreis"},"federalState":{"key":"08","name":"Baden-Württemberg"}},]