[{"name":"Am Birnbaum","postalCode":"85135","locality":"Titting","municipality":{"key":"09176164","name":"Titting, M","type":"Markt"},"district":{"key":"09176","name":"Eichstätt","type":"Landkreis"},"federalState":{"key":"09","name":"Bayern"}},{"name":"Am Blaubrunnen","postalCode":"85135","locality":"Titting","municipality":{"key":"09176164","name":"Titting, M","type":"Markt"},"district":{"key":"09176","name":"Eichstätt","type":"Landkreis"},"federalState":{"key":"09","name":"Bayern"}},{"name":"Am Galgenberg","postalCode":"85135","locality":"Titting","municipality":{"key":"09176164","name":"Titting, M","type":"Markt"},"district":{"key":"09176","name":"Eichstätt","type":"Landkreis"},"federalState":{"key":"09","name":"Bayern"}},{"name":"Am Kirchberg","postalCode":"85135","locality":"Titting","municipality":{"key":"09176164","name":"Titting, M","type":"Markt"},"district":{"key":"09176","name":"Eichstätt","type":"Landkreis"},"federalState":{"key":"09","name":"Bayern"}},{"name":"Am Klingel","postalCode":"85135","locality":"Titting","municipality":{"key":"09176164","name":"Titting, M","type":"Markt"},"district":{"key":"09176","name":"Eichstätt","type":"Landkreis"},"federalState":{"key":"09","name":"Bayern"}},{"name":"Am Kreuzberg","postalCode":"85135","locality":"Titting","municipality":{"key":"09176164","name":"Titting, M","type":"Markt"},"district":{"key":"09176","name":"Eichstätt","type":"Landkreis"},"federalState":{"key":"09","name":"Bayern"}},{"name":"Am Lechfeld","postalCode":"85135","locality":"Titting","municipality":{"key":"09176164","name":"Titting, M","type":"Markt"},"district":{"key":"09176","name":"Eichstätt","type":"Landkreis"},"federalState":{"key":"09","name":"Bayern"}},{"name":"Am Römerturm","postalCode":"85135","locality":"Titting","municipality":{"key":"09176164","name":"Titting, M","type":"Markt"},"district":{"key":"09176","name":"Eichstätt","type":"Landkreis"},"federalState":{"key":"09","name":"Bayern"}},{"name":"Am Stock","postalCode":"85135","locality":"Titting","municipality":{"key":"09176164","name":"Titting, M","type":"Markt"},"district":{"key":"09176","name":"Eichstätt","type":"Landkreis"},"federalState":{"key":"09","name":"Bayern"}},{"name":"Anlauterweg","postalCode":"85135","locality":"Titting","municipality":{"key":"09176164","name":"Titting, M","type":"Markt"},"district":{"key":"09176","name":"Eichstätt","type":"Landkreis"},"federalState":{"key":"09","name":"Bayern"}},{"name":"Antonistr.","postalCode":"85135","locality":"Titting","municipality":{"key":"09176164","name":"Titting, M","type":"Markt"},"district":{"key":"09176","name":"Eichstätt","type":"Landkreis"},"federalState":{"key":"09","name":"Bayern"}},{"name":"Bechtaler Str.","postalCode":"85135","locality":"Titting","municipality":{"key":"09176164","name":"Titting, M","type":"Markt"},"district":{"key":"09176","name":"Eichstätt","type":"Landkreis"},"federalState":{"key":"09","name":"Bayern"}},{"name":"Birkenweg","postalCode":"85135","locality":"Titting","municipality":{"key":"09176164","name":"Titting, M","type":"Markt"},"district":{"key":"09176","name":"Eichstätt","type":"Landkreis"},"federalState":{"key":"09","name":"Bayern"}},{"name":"Brunnenstr.","postalCode":"85135","locality":"Titting","municipality":{"key":"09176164","name":"Titting, M","type":"Markt"},"district":{"key":"09176","name":"Eichstätt","type":"Landkreis"},"federalState":{"key":"09","name":"Bayern"}},{"name":"Bucher Str.","postalCode":"85135","locality":"Titting","municipality":{"key":"09176164","name":"Titting, M","type":"Markt"},"district":{"key":"09176","name":"Eichstätt","type":"Landkreis"},"federalState":{"key":"09","name":"Bayern"}},{"name":"Burgstr.","postalCode":"85135","locality":"Titting","municipality":{"key":"09176164","name":"Titting, M","type":"Markt"},"district":{"key":"09176","name":"Eichstätt","type":"Landkreis"},"federalState":{"key":"09","name":"Bayern"}},{"name":"Castellweg","postalCode":"85072","locality":"Eichstätt","municipality":{"key":"09176123","name":"Eichstätt, GKSt","type":"Große_Kreisstadt"},"district":{"key":"09176","name":"Eichstätt","type":"Landkreis"},"federalState":{"key":"09","name":"Bayern"}},{"name":"Christian-Wink-Str.","postalCode":"85072","locality":"Eichstätt","municipality":{"key":"09176123","name":"Eichstätt, GKSt","type":"Große_Kreisstadt"},"district":{"key":"09176","name":"Eichstätt","type":"Landkreis"},"federalState":{"key":"09","name":"Bayern"}},{"name":"Christoph-Willibald-Gluck-Weg","postalCode":"85072","locality":"Eichstätt","municipality":{"key":"09176123","name":"Eichstätt, GKSt","type":"Große_Kreisstadt"},"district":{"key":"09176","name":"Eichstätt","type":"Landkreis"},"federalState":{"key":"09","name":"Bayern"}},{"name":"Clara-Staiger-Str.","postalCode":"85072","locality":"Eichstätt","municipality":{"key":"09176123","name":"Eichstätt, GKSt","type":"Große_Kreisstadt"},"district":{"key":"09176","name":"Eichstätt","type":"Landkreis"},"federalState":{"key":"09","name":"Bayern"}},{"name":"Distelweg","postalCode":"85135","locality":"Titting","municipality":{"key":"09176164","name":"Titting, M","type":"Markt"},"district":{"key":"09176","name":"Eichstätt","type":"Landkreis"},"federalState":{"key":"09","name":"Bayern"}},{"name":"Dorfstr.","postalCode":"85135","locality":"Titting","municipality":{"key":"09176164","name":"Titting, M","type":"Markt"},"district":{"key":"09176","name":"Eichstätt","type":"Landkreis"},"federalState":{"key":"09","name":"Bayern"}},{"name":"Dr.-Kurz-Platz","postalCode":"85135","locality":"Titting","municipality":{"key":"09176164","name":"Titting, M","type":"Markt"},"district":{"key":"09176","name":"Eichstätt","type":"Landkreis"},"federalState":{"key":"09","name":"Bayern"}},{"name":"Drosselweg","postalCode":"85135","locality":"Titting","municipality":{"key":"09176164","name":"Titting, M","type":"Markt"},"district":{"key":"09176","name":"Eichstätt","type":"Landkreis"},"federalState":{"key":"09","name":"Bayern"}},{"name":"Egtal","postalCode":"85135","locality":"Titting","municipality":{"key":"09176164","name":"Titting, M","type":"Markt"},"district":{"key":"09176","name":"Eichstätt","type":"Landkreis"},"federalState":{"key":"09","name":"Bayern"}},{"name":"Eichstätter Str.","postalCode":"85135","locality":"Titting","municipality":{"key":"09176164","name":"Titting, M","type":"Markt"},"district":{"key":"09176","name":"Eichstätt","type":"Landkreis"},"federalState":{"key":"09","name":"Bayern"}},{"name":"Emsinger Str.","postalCode":"85135","locality":"Titting","municipality":{"key":"09176164","name":"Titting, M","type":"Markt"},"district":{"key":"09176","name":"Eichstätt","type":"Landkreis"},"federalState":{"key":"09","name":"Bayern"}},{"name":"Figurenweg","postalCode":"85072","locality":"Eichstätt","municipality":{"key":"09176123","name":"Eichstätt, GKSt","type":"Große_Kreisstadt"},"district":{"key":"09176","name":"Eichstätt","type":"Landkreis"},"federalState":{"key":"09","name":"Bayern"}},{"name":"Fischerbuck","postalCode":"85072","locality":"Eichstätt","municipality":{"key":"09176123","name":"Eichstätt, GKSt","type":"Große_Kreisstadt"},"district":{"key":"09176","name":"Eichstätt","type":"Landkreis"},"federalState":{"key":"09","name":"Bayern"}},{"name":"Fischergasse","postalCode":"85072","locality":"Eichstätt","municipality":{"key":"09176123","name":"Eichstätt, GKSt","type":"Große_Kreisstadt"},"district":{"key":"09176","name":"Eichstätt","type":"Landkreis"},"federalState":{"key":"09","name":"Bayern"}},{"name":"Fossilienweg","postalCode":"85072","locality":"Eichstätt","municipality":{"key":"09176123","name":"Eichstätt, GKSt","type":"Große_Kreisstadt"},"district":{"key":"09176","name":"Eichstätt","type":"Landkreis"},"federalState":{"key":"09","name":"Bayern"}},{"name":"Franz-Liszt-Str.","postalCode":"85072","locality":"Eichstätt","municipality":{"key":"09176123","name":"Eichstätt, GKSt","type":"Große_Kreisstadt"},"district":{"key":"09176","name":"Eichstätt","type":"Landkreis"},"federalState":{"key":"09","name":"Bayern"}},{"name":"Frauenberg","postalCode":"85072","locality":"Eichstätt","municipality":{"key":"09176123","name":"Eichstätt, GKSt","type":"Große_Kreisstadt"},"district":{"key":"09176","name":"Eichstätt","type":"Landkreis"},"federalState":{"key":"09","name":"Bayern"}},{"name":"Freiwasser","postalCode":"85072","locality":"Eichstätt","municipality":{"key":"09176123","name":"Eichstätt, GKSt","type":"Große_Kreisstadt"},"district":{"key":"09176","name":"Eichstätt","type":"Landkreis"},"federalState":{"key":"09","name":"Bayern"}},{"name":"Friedhofgasse","postalCode":"85072","locality":"Eichstätt","municipality":{"key":"09176123","name":"Eichstätt, GKSt","type":"Große_Kreisstadt"},"district":{"key":"09176","name":"Eichstätt","type":"Landkreis"},"federalState":{"key":"09","name":"Bayern"}},{"name":"Fuchsbräugasse","postalCode":"85072","locality":"Eichstätt","municipality":{"key":"09176123","name":"Eichstätt, GKSt","type":"Große_Kreisstadt"},"district":{"key":"09176","name":"Eichstätt","type":"Landkreis"},"federalState":{"key":"09","name":"Bayern"}},{"name":"Gartenweg","postalCode":"85135","locality":"Titting","municipality":{"key":"09176164","name":"Titting, M","type":"Markt"},"district":{"key":"09176","name":"Eichstätt","type":"Landkreis"},"federalState":{"key":"09","name":"Bayern"}},{"name":"Grenzweg","postalCode":"85135","locality":"Titting","municipality":{"key":"09176164","name":"Titting, M","type":"Markt"},"district":{"key":"09176","name":"Eichstätt","type":"Landkreis"},"federalState":{"key":"09","name":"Bayern"}},{"name":"Hainmühle","postalCode":"85135","locality":"Titting","municipality":{"key":"09176164","name":"Titting, M","type":"Markt"},"district":{"key":"09176","name":"Eichstätt","type":"Landkreis"},"federalState":{"key":"09","name":"Bayern"}},{"name":"Hauptstr.","postalCode":"85135","locality":"Titting","municipality":{"key":"09176164","name":"Titting, M","type":"Markt"},"district":{"key":"09176","name":"Eichstätt","type":"Landkreis"},"federalState":{"key":"09","name":"Bayern"}},{"name":"Hegelohe","postalCode":"85135","locality":"Titting","municipality":{"key":"09176164","name":"Titting, M","type":"Markt"},"district":{"key":"09176","name":"Eichstätt","type":"Landkreis"},"federalState":{"key":"09","name":"Bayern"}},{"name":"Herrenstr.","postalCode":"85135","locality":"Titting","municipality":{"key":"09176164","name":"Titting, M","type":"Markt"},"district":{"key":"09176","name":"Eichstätt","type":"Landkreis"},"federalState":{"key":"09","name":"Bayern"}},{"name":"Hofackerweg","postalCode":"85135","locality":"Titting","municipality":{"key":"09176164","name":"Titting, M","type":"Markt"},"district":{"key":"09176","name":"Eichstätt","type":"Landkreis"},"federalState":{"key":"09","name":"Bayern"}},{"name":"Hopfgarten","postalCode":"85135","locality":"Titting","municipality":{"key":"09176164","name":"Titting, M","type":"Markt"},"district":{"key":"09176","name":"Eichstätt","type":"Landkreis"},"federalState":{"key":"09","name":"Bayern"}},{"name":"Ignaz-Pickl-Weg","postalCode":"85072","locality":"Eichstätt","municipality":{"key":"09176123","name":"Eichstätt, GKSt","type":"Große_Kreisstadt"},"district":{"key":"09176","name":"Eichstätt","type":"Landkreis"},"federalState":{"key":"09","name":"Bayern"}},{"name":"Industriestr.","postalCode":"85072","locality":"Eichstätt","municipality":{"key":"09176123","name":"Eichstätt, GKSt","type":"Große_Kreisstadt"},"district":{"key":"09176","name":"Eichstätt","type":"Landkreis"},"federalState":{"key":"09","name":"Bayern"}},{"name":"Ingolstädter Str.","postalCode":"85072","locality":"Eichstätt","municipality":{"key":"09176123","name":"Eichstätt, GKSt","type":"Große_Kreisstadt"},"district":{"key":"09176","name":"Eichstätt","type":"Landkreis"},"federalState":{"key":"09","name":"Bayern"}},{"name":"Innere Freiwasserstr.","postalCode":"85072","locality":"Eichstätt","municipality":{"key":"09176123","name":"Eichstätt, GKSt","type":"Große_Kreisstadt"},"district":{"key":"09176","name":"Eichstätt","type":"Landkreis"},"federalState":{"key":"09","name":"Bayern"}},{"name":"Johannesstr.","postalCode":"85135","locality":"Titting","municipality":{"key":"09176164","name":"Titting, M","type":"Markt"},"district":{"key":"09176","name":"Eichstätt","type":"Landkreis"},"federalState":{"key":"09","name":"Bayern"}},{"name":"Jurastr.","postalCode":"85135","locality":"Titting","municipality":{"key":"09176164","name":"Titting, M","type":"Markt"},"district":{"key":"09176","name":"Eichstätt","type":"Landkreis"},"federalState":{"key":"09","name":"Bayern"}},{"name":"Kehrweg","postalCode":"85135","locality":"Titting","municipality":{"key":"09176164","name":"Titting, M","type":"Markt"},"district":{"key":"09176","name":"Eichstätt","type":"Landkreis"},"federalState":{"key":"09","name":"Bayern"}},{"name":"Kesselwasen","postalCode":"85135","locality":"Titting","municipality":{"key":"09176164","name":"Titting, M","type":"Markt"},"district":{"key":"09176","name":"Eichstätt","type":"Landkreis"},"federalState":{"key":"09","name":"Bayern"}},{"name":"Kiefernring","postalCode":"85135","locality":"Titting","municipality":{"key":"09176164","name":"Titting, M","type":"Markt"},"district":{"key":"09176","name":"Eichstätt","type":"Landkreis"},"federalState":{"key":"09","name":"Bayern"}},{"name":"Kirchweg","postalCode":"85135","locality":"Titting","municipality":{"key":"09176164","name":"Titting, M","type":"Markt"},"district":{"key":"09176","name":"Eichstätt","type":"Landkreis"},"federalState":{"key":"09","name":"Bayern"}},{"name":"Limesstr.","postalCode":"85135","locality":"Titting","municipality":{"key":"09176164","name":"Titting, M","type":"Markt"},"district":{"key":"09176","name":"Eichstätt","type":"Landkreis"},"federalState":{"key":"09","name":"Bayern"}},{"name":"Lindenweg","postalCode":"85135","locality":"Titting","municipality":{"key":"09176164","name":"Titting, M","type":"Markt"},"district":{"key":"09176","name":"Eichstätt","type":"Landkreis"},"federalState":{"key":"09","name":"Bayern"}},{"name":"Mantlacher Str.","postalCode":"85135","locality":"Titting","municipality":{"key":"09176164","name":"Titting, M","type":"Markt"},"district":{"key":"09176","name":"Eichstätt","type":"Landkreis"},"federalState":{"key":"09","name":"Bayern"}},{"name":"Marktplatz","postalCode":"85135","locality":"Titting","municipality":{"key":"09176164","name":"Titting, M","type":"Markt"},"district":{"key":"09176","name":"Eichstätt","type":"Landkreis"},"federalState":{"key":"09","name":"Bayern"}},{"name":"Marktstr.","postalCode":"85135","locality":"Titting","municipality":{"key":"09176164","name":"Titting, M","type":"Markt"},"district":{"key":"09176","name":"Eichstätt","type":"Landkreis"},"federalState":{"key":"09","name":"Bayern"}},{"name":"Martinsgasse","postalCode":"85135","locality":"Titting","municipality":{"key":"09176164","name":"Titting, M","type":"Markt"},"district":{"key":"09176","name":"Eichstätt","type":"Landkreis"},"federalState":{"key":"09","name":"Bayern"}},{"name":"Morsbacher Str.","postalCode":"85135","locality":"Titting","municipality":{"key":"09176164","name":"Titting, M","type":"Markt"},"district":{"key":"09176","name":"Eichstätt","type":"Landkreis"},"federalState":{"key":"09","name":"Bayern"}},{"name":"Mühlweg","postalCode":"85135","locality":"Titting","municipality":{"key":"09176164","name":"Titting, M","type":"Markt"},"district":{"key":"09176","name":"Eichstätt","type":"Landkreis"},"federalState":{"key":"09","name":"Bayern"}},{"name":"Neuer Weg","postalCode":"85135","locality":"Titting","municipality":{"key":"09176164","name":"Titting, M","type":"Markt"},"district":{"key":"09176","name":"Eichstätt","type":"Landkreis"},"federalState":{"key":"09","name":"Bayern"}},{"name":"Ortsstr.","postalCode":"85135","locality":"Titting","municipality":{"key":"09176164","name":"Titting, M","type":"Markt"},"district":{"key":"09176","name":"Eichstätt","type":"Landkreis"},"federalState":{"key":"09","name":"Bayern"}},{"name":"Passionsweg","postalCode":"85135","locality":"Titting","municipality":{"key":"09176164","name":"Titting, M","type":"Markt"},"district":{"key":"09176","name":"Eichstätt","type":"Landkreis"},"federalState":{"key":"09","name":"Bayern"}},{"name":"Pfahlweg","postalCode":"85135","locality":"Titting","municipality":{"key":"09176164","name":"Titting, M","type":"Markt"},"district":{"key":"09176","name":"Eichstätt","type":"Landkreis"},"federalState":{"key":"09","name":"Bayern"}},{"name":"Planweg","postalCode":"85135","locality":"Titting","municipality":{"key":"09176164","name":"Titting, M","type":"Markt"},"district":{"key":"09176","name":"Eichstätt","type":"Landkreis"},"federalState":{"key":"09","name":"Bayern"}},{"name":"Rathausplatz","postalCode":"85135","locality":"Titting","municipality":{"key":"09176164","name":"Titting, M","type":"Markt"},"district":{"key":"09176","name":"Eichstätt","type":"Landkreis"},"federalState":{"key":"09","name":"Bayern"}},{"name":"Reindlweg","postalCode":"85135","locality":"Titting","municipality":{"key":"09176164","name":"Titting, M","type":"Markt"},"district":{"key":"09176","name":"Eichstätt","type":"Landkreis"},"federalState":{"key":"09","name":"Bayern"}},{"name":"Schlehenring","postalCode":"85135","locality":"Titting","municipality":{"key":"09176164","name":"Titting, M","type":"Markt"},"district":{"key":"09176","name":"Eichstätt","type":"Landkreis"},"federalState":{"key":"09","name":"Bayern"}},{"name":"Schloßstr.","postalCode":"85135","locality":"Titting","municipality":{"key":"09176164","name":"Titting, M","type":"Markt"},"district":{"key":"09176","name":"Eichstätt","type":"Landkreis"},"federalState":{"key":"09","name":"Bayern"}},{"name":"Schulstr.","postalCode":"85135","locality":"Titting","municipality":{"key":"09176164","name":"Titting, M","type":"Markt"},"district":{"key":"09176","name":"Eichstätt","type":"Landkreis"},"federalState":{"key":"09","name":"Bayern"}},{"name":"Sonnenleite","postalCode":"85135","locality":"Titting","municipality":{"key":"09176164","name":"Titting, M","type":"Markt"},"district":{"key":"09176","name":"Eichstätt","type":"Landkreis"},"federalState":{"key":"09","name":"Bayern"}},{"name":"Steinnelkenweg","postalCode":"85135","locality":"Titting","municipality":{"key":"09176164","name":"Titting, M","type":"Markt"},"district":{"key":"09176","name":"Eichstätt","type":"Landkreis"},"federalState":{"key":"09","name":"Bayern"}},{"name":"Traubengäßchen","postalCode":"85072","locality":"Eichstätt","municipality":{"key":"09176123","name":"Eichstätt, GKSt","type":"Große_Kreisstadt"},"district":{"key":"09176","name":"Eichstätt","type":"Landkreis"},"federalState":{"key":"09","name":"Bayern"}},{"name":"Turmgasse","postalCode":"85072","locality":"Eichstätt","municipality":{"key":"09176123","name":"Eichstätt, GKSt","type":"Große_Kreisstadt"},"district":{"key":"09176","name":"Eichstätt","type":"Landkreis"},"federalState":{"key":"09","name":"Bayern"}},{"name":"Ulrichsteig","postalCode":"85072","locality":"Eichstätt","municipality":{"key":"09176123","name":"Eichstätt, GKSt","type":"Große_Kreisstadt"},"district":{"key":"09176","name":"Eichstätt","type":"Landkreis"},"federalState":{"key":"09","name":"Bayern"}},{"name":"Umleitung zur Westenstr.","postalCode":"85072","locality":"Eichstätt","municipality":{"key":"09176123","name":"Eichstätt, GKSt","type":"Große_Kreisstadt"},"district":{"key":"09176","name":"Eichstätt","type":"Landkreis"},"federalState":{"key":"09","name":"Bayern"}},{"name":"Universitätsallee","postalCode":"85072","locality":"Eichstätt","municipality":{"key":"09176123","name":"Eichstätt, GKSt","type":"Große_Kreisstadt"},"district":{"key":"09176","name":"Eichstätt","type":"Landkreis"},"federalState":{"key":"09","name":"Bayern"}},{"name":"Untere Au","postalCode":"85072","locality":"Eichstätt","municipality":{"key":"09176123","name":"Eichstätt, GKSt","type":"Große_Kreisstadt"},"district":{"key":"09176","name":"Eichstätt","type":"Landkreis"},"federalState":{"key":"09","name":"Bayern"}},{"name":"Urvogelweg","postalCode":"85072","locality":"Eichstätt","municipality":{"key":"09176123","name":"Eichstätt, GKSt","type":"Große_Kreisstadt"},"district":{"key":"09176","name":"Eichstätt","type":"Landkreis"},"federalState":{"key":"09","name":"Bayern"}},{"name":"Wacholderstr.","postalCode":"85135","locality":"Titting","municipality":{"key":"09176164","name":"Titting, M","type":"Markt"},"district":{"key":"09176","name":"Eichstätt","type":"Landkreis"},"federalState":{"key":"09","name":"Bayern"}},{"name":"Waldweg","postalCode":"85135","locality":"Titting","municipality":{"key":"09176164","name":"Titting, M","type":"Markt"},"district":{"key":"09176","name":"Eichstätt","type":"Landkreis"},"federalState":{"key":"09","name":"Bayern"}},{"name":"Wiesenweg","postalCode":"85135","locality":"Titting","municipality":{"key":"09176164","name":"Titting, M","type":"Markt"},"district":{"key":"09176","name":"Eichstätt","type":"Landkreis"},"federalState":{"key":"09","name":"Bayern"}},{"name":"Ziegelweg","postalCode":"85135","locality":"Titting","municipality":{"key":"09176164","name":"Titting, M","type":"Markt"},"district":{"key":"09176","name":"Eichstätt","type":"Landkreis"},"federalState":{"key":"09","name":"Bayern"}},]