[{"name":"Adalbert-Stifter-Str.","postalCode":"97688","locality":"Bad Kissingen","municipality":{"key":"09672114","name":"Bad Kissingen, GKSt","type":"Große_Kreisstadt"},"district":{"key":"09672","name":"Bad Kissingen","type":"Landkreis"},"federalState":{"key":"09","name":"Bayern"}},{"name":"Adelheitstr.","postalCode":"97688","locality":"Bad Kissingen","municipality":{"key":"09672114","name":"Bad Kissingen, GKSt","type":"Große_Kreisstadt"},"district":{"key":"09672","name":"Bad Kissingen","type":"Landkreis"},"federalState":{"key":"09","name":"Bayern"}},{"name":"Ahornstr.","postalCode":"86438","locality":"Kissing","municipality":{"key":"09771142","name":"Kissing","type":"Kreisangehörige_Gemeinde"},"district":{"key":"09771","name":"Aichach-Friedberg","type":"Landkreis"},"federalState":{"key":"09","name":"Bayern"}},{"name":"Ahornstr.","postalCode":"97688","locality":"Bad Kissingen","municipality":{"key":"09672114","name":"Bad Kissingen, GKSt","type":"Große_Kreisstadt"},"district":{"key":"09672","name":"Bad Kissingen","type":"Landkreis"},"federalState":{"key":"09","name":"Bayern"}},{"name":"Akazienstr.","postalCode":"86438","locality":"Kissing","municipality":{"key":"09771142","name":"Kissing","type":"Kreisangehörige_Gemeinde"},"district":{"key":"09771","name":"Aichach-Friedberg","type":"Landkreis"},"federalState":{"key":"09","name":"Bayern"}},{"name":"Akazienweg","postalCode":"97688","locality":"Bad Kissingen","municipality":{"key":"09672114","name":"Bad Kissingen, GKSt","type":"Große_Kreisstadt"},"district":{"key":"09672","name":"Bad Kissingen","type":"Landkreis"},"federalState":{"key":"09","name":"Bayern"}},{"name":"Albert-Einstein-Str.","postalCode":"86438","locality":"Kissing","municipality":{"key":"09771142","name":"Kissing","type":"Kreisangehörige_Gemeinde"},"district":{"key":"09771","name":"Aichach-Friedberg","type":"Landkreis"},"federalState":{"key":"09","name":"Bayern"}},{"name":"Albert-Schweitzer-Str.","postalCode":"86438","locality":"Kissing","municipality":{"key":"09771142","name":"Kissing","type":"Kreisangehörige_Gemeinde"},"district":{"key":"09771","name":"Aichach-Friedberg","type":"Landkreis"},"federalState":{"key":"09","name":"Bayern"}},{"name":"Albertshausener Str.","postalCode":"97688","locality":"Bad Kissingen","municipality":{"key":"09672114","name":"Bad Kissingen, GKSt","type":"Große_Kreisstadt"},"district":{"key":"09672","name":"Bad Kissingen","type":"Landkreis"},"federalState":{"key":"09","name":"Bayern"}},{"name":"Albrecht-Dürer-Str.","postalCode":"97688","locality":"Bad Kissingen","municipality":{"key":"09672114","name":"Bad Kissingen, GKSt","type":"Große_Kreisstadt"},"district":{"key":"09672","name":"Bad Kissingen","type":"Landkreis"},"federalState":{"key":"09","name":"Bayern"}},{"name":"Alemannenring","postalCode":"86438","locality":"Kissing","municipality":{"key":"09771142","name":"Kissing","type":"Kreisangehörige_Gemeinde"},"district":{"key":"09771","name":"Aichach-Friedberg","type":"Landkreis"},"federalState":{"key":"09","name":"Bayern"}},{"name":"Alpspitzweg","postalCode":"86438","locality":"Kissing","municipality":{"key":"09771142","name":"Kissing","type":"Kreisangehörige_Gemeinde"},"district":{"key":"09771","name":"Aichach-Friedberg","type":"Landkreis"},"federalState":{"key":"09","name":"Bayern"}},{"name":"Alte Bahnhofstr.","postalCode":"97688","locality":"Bad Kissingen","municipality":{"key":"09672114","name":"Bad Kissingen, GKSt","type":"Große_Kreisstadt"},"district":{"key":"09672","name":"Bad Kissingen","type":"Landkreis"},"federalState":{"key":"09","name":"Bayern"}},{"name":"Alte Kissinger Str.","postalCode":"97688","locality":"Bad Kissingen","municipality":{"key":"09672114","name":"Bad Kissingen, GKSt","type":"Große_Kreisstadt"},"district":{"key":"09672","name":"Bad Kissingen","type":"Landkreis"},"federalState":{"key":"09","name":"Bayern"}},{"name":"Altenbergweg","postalCode":"97688","locality":"Bad Kissingen","municipality":{"key":"09672114","name":"Bad Kissingen, GKSt","type":"Große_Kreisstadt"},"district":{"key":"09672","name":"Bad Kissingen","type":"Landkreis"},"federalState":{"key":"09","name":"Bayern"}},{"name":"Alter Dorfring","postalCode":"97688","locality":"Bad Kissingen","municipality":{"key":"09672114","name":"Bad Kissingen, GKSt","type":"Große_Kreisstadt"},"district":{"key":"09672","name":"Bad Kissingen","type":"Landkreis"},"federalState":{"key":"09","name":"Bayern"}},{"name":"Althausstr.","postalCode":"97688","locality":"Bad Kissingen","municipality":{"key":"09672114","name":"Bad Kissingen, GKSt","type":"Große_Kreisstadt"},"district":{"key":"09672","name":"Bad Kissingen","type":"Landkreis"},"federalState":{"key":"09","name":"Bayern"}},{"name":"Am Alten Sportplatz","postalCode":"86438","locality":"Kissing","municipality":{"key":"09771142","name":"Kissing","type":"Kreisangehörige_Gemeinde"},"district":{"key":"09771","name":"Aichach-Friedberg","type":"Landkreis"},"federalState":{"key":"09","name":"Bayern"}},{"name":"Am Anger","postalCode":"86438","locality":"Kissing","municipality":{"key":"09771142","name":"Kissing","type":"Kreisangehörige_Gemeinde"},"district":{"key":"09771","name":"Aichach-Friedberg","type":"Landkreis"},"federalState":{"key":"09","name":"Bayern"}},{"name":"Am Berg","postalCode":"97688","locality":"Bad Kissingen","municipality":{"key":"09672114","name":"Bad Kissingen, GKSt","type":"Große_Kreisstadt"},"district":{"key":"09672","name":"Bad Kissingen","type":"Landkreis"},"federalState":{"key":"09","name":"Bayern"}},{"name":"Am Geheg","postalCode":"97688","locality":"Bad Kissingen","municipality":{"key":"09672114","name":"Bad Kissingen, GKSt","type":"Große_Kreisstadt"},"district":{"key":"09672","name":"Bad Kissingen","type":"Landkreis"},"federalState":{"key":"09","name":"Bayern"}},{"name":"Am Gollheimer","postalCode":"97688","locality":"Bad Kissingen","municipality":{"key":"09672114","name":"Bad Kissingen, GKSt","type":"Große_Kreisstadt"},"district":{"key":"09672","name":"Bad Kissingen","type":"Landkreis"},"federalState":{"key":"09","name":"Bayern"}},{"name":"Am Grundlehn","postalCode":"97688","locality":"Bad Kissingen","municipality":{"key":"09672114","name":"Bad Kissingen, GKSt","type":"Große_Kreisstadt"},"district":{"key":"09672","name":"Bad Kissingen","type":"Landkreis"},"federalState":{"key":"09","name":"Bayern"}},{"name":"Am Hegholz","postalCode":"97688","locality":"Bad Kissingen","municipality":{"key":"09672114","name":"Bad Kissingen, GKSt","type":"Große_Kreisstadt"},"district":{"key":"09672","name":"Bad Kissingen","type":"Landkreis"},"federalState":{"key":"09","name":"Bayern"}},{"name":"Am Kirchhang","postalCode":"97688","locality":"Bad Kissingen","municipality":{"key":"09672114","name":"Bad Kissingen, GKSt","type":"Große_Kreisstadt"},"district":{"key":"09672","name":"Bad Kissingen","type":"Landkreis"},"federalState":{"key":"09","name":"Bayern"}},{"name":"Am Kreuz","postalCode":"97688","locality":"Bad Kissingen","municipality":{"key":"09672114","name":"Bad Kissingen, GKSt","type":"Große_Kreisstadt"},"district":{"key":"09672","name":"Bad Kissingen","type":"Landkreis"},"federalState":{"key":"09","name":"Bayern"}},{"name":"Am Kurgarten","postalCode":"97688","locality":"Bad Kissingen","municipality":{"key":"09672114","name":"Bad Kissingen, GKSt","type":"Große_Kreisstadt"},"district":{"key":"09672","name":"Bad Kissingen","type":"Landkreis"},"federalState":{"key":"09","name":"Bayern"}},{"name":"Am Rodweg","postalCode":"97688","locality":"Bad Kissingen","municipality":{"key":"09672114","name":"Bad Kissingen, GKSt","type":"Große_Kreisstadt"},"district":{"key":"09672","name":"Bad Kissingen","type":"Landkreis"},"federalState":{"key":"09","name":"Bayern"}},{"name":"Am Schießplatz","postalCode":"97688","locality":"Bad Kissingen","municipality":{"key":"09672114","name":"Bad Kissingen, GKSt","type":"Große_Kreisstadt"},"district":{"key":"09672","name":"Bad Kissingen","type":"Landkreis"},"federalState":{"key":"09","name":"Bayern"}},{"name":"Am Schloßberg","postalCode":"97688","locality":"Bad Kissingen","municipality":{"key":"09672114","name":"Bad Kissingen, GKSt","type":"Große_Kreisstadt"},"district":{"key":"09672","name":"Bad Kissingen","type":"Landkreis"},"federalState":{"key":"09","name":"Bayern"}},{"name":"Am Schönborn","postalCode":"97688","locality":"Bad Kissingen","municipality":{"key":"09672114","name":"Bad Kissingen, GKSt","type":"Große_Kreisstadt"},"district":{"key":"09672","name":"Bad Kissingen","type":"Landkreis"},"federalState":{"key":"09","name":"Bayern"}},{"name":"Am Seehof","postalCode":"97688","locality":"Bad Kissingen","municipality":{"key":"09672114","name":"Bad Kissingen, GKSt","type":"Große_Kreisstadt"},"district":{"key":"09672","name":"Bad Kissingen","type":"Landkreis"},"federalState":{"key":"09","name":"Bayern"}},{"name":"Am Seidenschwanz","postalCode":"97688","locality":"Bad Kissingen","municipality":{"key":"09672114","name":"Bad Kissingen, GKSt","type":"Große_Kreisstadt"},"district":{"key":"09672","name":"Bad Kissingen","type":"Landkreis"},"federalState":{"key":"09","name":"Bayern"}},{"name":"Amselweg","postalCode":"86438","locality":"Kissing","municipality":{"key":"09771142","name":"Kissing","type":"Kreisangehörige_Gemeinde"},"district":{"key":"09771","name":"Aichach-Friedberg","type":"Landkreis"},"federalState":{"key":"09","name":"Bayern"}},{"name":"Amselweg","postalCode":"97688","locality":"Bad Kissingen","municipality":{"key":"09672114","name":"Bad Kissingen, GKSt","type":"Große_Kreisstadt"},"district":{"key":"09672","name":"Bad Kissingen","type":"Landkreis"},"federalState":{"key":"09","name":"Bayern"}},{"name":"Am Silberpark","postalCode":"86438","locality":"Kissing","municipality":{"key":"09771142","name":"Kissing","type":"Kreisangehörige_Gemeinde"},"district":{"key":"09771","name":"Aichach-Friedberg","type":"Landkreis"},"federalState":{"key":"09","name":"Bayern"}},{"name":"Am Steig","postalCode":"97688","locality":"Bad Kissingen","municipality":{"key":"09672114","name":"Bad Kissingen, GKSt","type":"Große_Kreisstadt"},"district":{"key":"09672","name":"Bad Kissingen","type":"Landkreis"},"federalState":{"key":"09","name":"Bayern"}},{"name":"Am Steingraben","postalCode":"97688","locality":"Bad Kissingen","municipality":{"key":"09672114","name":"Bad Kissingen, GKSt","type":"Große_Kreisstadt"},"district":{"key":"09672","name":"Bad Kissingen","type":"Landkreis"},"federalState":{"key":"09","name":"Bayern"}},{"name":"Am Steinhof","postalCode":"97688","locality":"Bad Kissingen","municipality":{"key":"09672114","name":"Bad Kissingen, GKSt","type":"Große_Kreisstadt"},"district":{"key":"09672","name":"Bad Kissingen","type":"Landkreis"},"federalState":{"key":"09","name":"Bayern"}},{"name":"Am Theresienbrunnen","postalCode":"97688","locality":"Bad Kissingen","municipality":{"key":"09672114","name":"Bad Kissingen, GKSt","type":"Große_Kreisstadt"},"district":{"key":"09672","name":"Bad Kissingen","type":"Landkreis"},"federalState":{"key":"09","name":"Bayern"}},{"name":"Am Zückberg","postalCode":"97688","locality":"Bad Kissingen","municipality":{"key":"09672114","name":"Bad Kissingen, GKSt","type":"Große_Kreisstadt"},"district":{"key":"09672","name":"Bad Kissingen","type":"Landkreis"},"federalState":{"key":"09","name":"Bayern"}},{"name":"An der Stichel","postalCode":"97688","locality":"Bad Kissingen","municipality":{"key":"09672114","name":"Bad Kissingen, GKSt","type":"Große_Kreisstadt"},"district":{"key":"09672","name":"Bad Kissingen","type":"Landkreis"},"federalState":{"key":"09","name":"Bayern"}},{"name":"An der Winterleite","postalCode":"97688","locality":"Bad Kissingen","municipality":{"key":"09672114","name":"Bad Kissingen, GKSt","type":"Große_Kreisstadt"},"district":{"key":"09672","name":"Bad Kissingen","type":"Landkreis"},"federalState":{"key":"09","name":"Bayern"}},{"name":"An der Ziegelei","postalCode":"97688","locality":"Bad Kissingen","municipality":{"key":"09672114","name":"Bad Kissingen, GKSt","type":"Große_Kreisstadt"},"district":{"key":"09672","name":"Bad Kissingen","type":"Landkreis"},"federalState":{"key":"09","name":"Bayern"}},{"name":"Andreasstr.","postalCode":"97688","locality":"Bad Kissingen","municipality":{"key":"09672114","name":"Bad Kissingen, GKSt","type":"Große_Kreisstadt"},"district":{"key":"09672","name":"Bad Kissingen","type":"Landkreis"},"federalState":{"key":"09","name":"Bayern"}},{"name":"Annette-Kolb-Str.","postalCode":"86438","locality":"Kissing","municipality":{"key":"09771142","name":"Kissing","type":"Kreisangehörige_Gemeinde"},"district":{"key":"09771","name":"Aichach-Friedberg","type":"Landkreis"},"federalState":{"key":"09","name":"Bayern"}},{"name":"Anton-Bruckner-Str.","postalCode":"97688","locality":"Bad Kissingen","municipality":{"key":"09672114","name":"Bad Kissingen, GKSt","type":"Große_Kreisstadt"},"district":{"key":"09672","name":"Bad Kissingen","type":"Landkreis"},"federalState":{"key":"09","name":"Bayern"}},{"name":"Arkadensteg","postalCode":"97688","locality":"Bad Kissingen","municipality":{"key":"09672114","name":"Bad Kissingen, GKSt","type":"Große_Kreisstadt"},"district":{"key":"09672","name":"Bad Kissingen","type":"Landkreis"},"federalState":{"key":"09","name":"Bayern"}},{"name":"Arnshäuser Str.","postalCode":"97688","locality":"Bad Kissingen","municipality":{"key":"09672114","name":"Bad Kissingen, GKSt","type":"Große_Kreisstadt"},"district":{"key":"09672","name":"Bad Kissingen","type":"Landkreis"},"federalState":{"key":"09","name":"Bayern"}},{"name":"Aschacher Weg","postalCode":"97688","locality":"Bad Kissingen","municipality":{"key":"09672114","name":"Bad Kissingen, GKSt","type":"Große_Kreisstadt"},"district":{"key":"09672","name":"Bad Kissingen","type":"Landkreis"},"federalState":{"key":"09","name":"Bayern"}},{"name":"Bachäckerstr.","postalCode":"97688","locality":"Bad Kissingen","municipality":{"key":"09672114","name":"Bad Kissingen, GKSt","type":"Große_Kreisstadt"},"district":{"key":"09672","name":"Bad Kissingen","type":"Landkreis"},"federalState":{"key":"09","name":"Bayern"}},{"name":"Bachernstr.","postalCode":"86438","locality":"Kissing","municipality":{"key":"09771142","name":"Kissing","type":"Kreisangehörige_Gemeinde"},"district":{"key":"09771","name":"Aichach-Friedberg","type":"Landkreis"},"federalState":{"key":"09","name":"Bayern"}},{"name":"Bachgasse","postalCode":"86438","locality":"Kissing","municipality":{"key":"09771142","name":"Kissing","type":"Kreisangehörige_Gemeinde"},"district":{"key":"09771","name":"Aichach-Friedberg","type":"Landkreis"},"federalState":{"key":"09","name":"Bayern"}},{"name":"Bachstr.","postalCode":"97688","locality":"Bad Kissingen","municipality":{"key":"09672114","name":"Bad Kissingen, GKSt","type":"Große_Kreisstadt"},"district":{"key":"09672","name":"Bad Kissingen","type":"Landkreis"},"federalState":{"key":"09","name":"Bayern"}},{"name":"Badangerstr.","postalCode":"86438","locality":"Kissing","municipality":{"key":"09771142","name":"Kissing","type":"Kreisangehörige_Gemeinde"},"district":{"key":"09771","name":"Aichach-Friedberg","type":"Landkreis"},"federalState":{"key":"09","name":"Bayern"}},{"name":"Bahngässchen","postalCode":"86438","locality":"Kissing","municipality":{"key":"09771142","name":"Kissing","type":"Kreisangehörige_Gemeinde"},"district":{"key":"09771","name":"Aichach-Friedberg","type":"Landkreis"},"federalState":{"key":"09","name":"Bayern"}},{"name":"Bahnhofsallee","postalCode":"86438","locality":"Kissing","municipality":{"key":"09771142","name":"Kissing","type":"Kreisangehörige_Gemeinde"},"district":{"key":"09771","name":"Aichach-Friedberg","type":"Landkreis"},"federalState":{"key":"09","name":"Bayern"}},{"name":"Bahnhofstr.","postalCode":"86438","locality":"Kissing","municipality":{"key":"09771142","name":"Kissing","type":"Kreisangehörige_Gemeinde"},"district":{"key":"09771","name":"Aichach-Friedberg","type":"Landkreis"},"federalState":{"key":"09","name":"Bayern"}},{"name":"Bahnhofstr.","postalCode":"97688","locality":"Bad Kissingen","municipality":{"key":"09672114","name":"Bad Kissingen, GKSt","type":"Große_Kreisstadt"},"district":{"key":"09672","name":"Bad Kissingen","type":"Landkreis"},"federalState":{"key":"09","name":"Bayern"}},{"name":"Bajuwarenring","postalCode":"86438","locality":"Kissing","municipality":{"key":"09771142","name":"Kissing","type":"Kreisangehörige_Gemeinde"},"district":{"key":"09771","name":"Aichach-Friedberg","type":"Landkreis"},"federalState":{"key":"09","name":"Bayern"}},{"name":"Ballingstr.","postalCode":"97688","locality":"Bad Kissingen","municipality":{"key":"09672114","name":"Bad Kissingen, GKSt","type":"Große_Kreisstadt"},"district":{"key":"09672","name":"Bad Kissingen","type":"Landkreis"},"federalState":{"key":"09","name":"Bayern"}},{"name":"Balthasar-Neumann-Promenade","postalCode":"97688","locality":"Bad Kissingen","municipality":{"key":"09672114","name":"Bad Kissingen, GKSt","type":"Große_Kreisstadt"},"district":{"key":"09672","name":"Bad Kissingen","type":"Landkreis"},"federalState":{"key":"09","name":"Bayern"}},{"name":"Balthasar-Schmitt-Str.","postalCode":"97688","locality":"Bad Kissingen","municipality":{"key":"09672114","name":"Bad Kissingen, GKSt","type":"Große_Kreisstadt"},"district":{"key":"09672","name":"Bad Kissingen","type":"Landkreis"},"federalState":{"key":"09","name":"Bayern"}},{"name":"Banatstr.","postalCode":"86438","locality":"Kissing","municipality":{"key":"09771142","name":"Kissing","type":"Kreisangehörige_Gemeinde"},"district":{"key":"09771","name":"Aichach-Friedberg","type":"Landkreis"},"federalState":{"key":"09","name":"Bayern"}},{"name":"Baptist-Hoffmann-Str.","postalCode":"97688","locality":"Bad Kissingen","municipality":{"key":"09672114","name":"Bad Kissingen, GKSt","type":"Große_Kreisstadt"},"district":{"key":"09672","name":"Bad Kissingen","type":"Landkreis"},"federalState":{"key":"09","name":"Bayern"}},{"name":"Beatrixstr.","postalCode":"97688","locality":"Bad Kissingen","municipality":{"key":"09672114","name":"Bad Kissingen, GKSt","type":"Große_Kreisstadt"},"district":{"key":"09672","name":"Bad Kissingen","type":"Landkreis"},"federalState":{"key":"09","name":"Bayern"}},{"name":"Beethovenstr.","postalCode":"86438","locality":"Kissing","municipality":{"key":"09771142","name":"Kissing","type":"Kreisangehörige_Gemeinde"},"district":{"key":"09771","name":"Aichach-Friedberg","type":"Landkreis"},"federalState":{"key":"09","name":"Bayern"}},{"name":"Beethovenstr.","postalCode":"97688","locality":"Bad Kissingen","municipality":{"key":"09672114","name":"Bad Kissingen, GKSt","type":"Große_Kreisstadt"},"district":{"key":"09672","name":"Bad Kissingen","type":"Landkreis"},"federalState":{"key":"09","name":"Bayern"}},{"name":"Bergmannstr.","postalCode":"97688","locality":"Bad Kissingen","municipality":{"key":"09672114","name":"Bad Kissingen, GKSt","type":"Große_Kreisstadt"},"district":{"key":"09672","name":"Bad Kissingen","type":"Landkreis"},"federalState":{"key":"09","name":"Bayern"}},{"name":"Bergstr.","postalCode":"97688","locality":"Bad Kissingen","municipality":{"key":"09672114","name":"Bad Kissingen, GKSt","type":"Große_Kreisstadt"},"district":{"key":"09672","name":"Bad Kissingen","type":"Landkreis"},"federalState":{"key":"09","name":"Bayern"}},{"name":"Bibrastr.","postalCode":"97688","locality":"Bad Kissingen","municipality":{"key":"09672114","name":"Bad Kissingen, GKSt","type":"Große_Kreisstadt"},"district":{"key":"09672","name":"Bad Kissingen","type":"Landkreis"},"federalState":{"key":"09","name":"Bayern"}},{"name":"Bindweg","postalCode":"97688","locality":"Bad Kissingen","municipality":{"key":"09672114","name":"Bad Kissingen, GKSt","type":"Große_Kreisstadt"},"district":{"key":"09672","name":"Bad Kissingen","type":"Landkreis"},"federalState":{"key":"09","name":"Bayern"}},{"name":"Birkenstr.","postalCode":"86438","locality":"Kissing","municipality":{"key":"09771142","name":"Kissing","type":"Kreisangehörige_Gemeinde"},"district":{"key":"09771","name":"Aichach-Friedberg","type":"Landkreis"},"federalState":{"key":"09","name":"Bayern"}},{"name":"Birkenweg","postalCode":"97688","locality":"Bad Kissingen","municipality":{"key":"09672114","name":"Bad Kissingen, GKSt","type":"Große_Kreisstadt"},"district":{"key":"09672","name":"Bad Kissingen","type":"Landkreis"},"federalState":{"key":"09","name":"Bayern"}},{"name":"Bischwindenstr.","postalCode":"97688","locality":"Bad Kissingen","municipality":{"key":"09672114","name":"Bad Kissingen, GKSt","type":"Große_Kreisstadt"},"district":{"key":"09672","name":"Bad Kissingen","type":"Landkreis"},"federalState":{"key":"09","name":"Bayern"}},{"name":"Bismarckstr.","postalCode":"97688","locality":"Bad Kissingen","municipality":{"key":"09672114","name":"Bad Kissingen, GKSt","type":"Große_Kreisstadt"},"district":{"key":"09672","name":"Bad Kissingen","type":"Landkreis"},"federalState":{"key":"09","name":"Bayern"}},{"name":"Blankenäcker","postalCode":"97688","locality":"Bad Kissingen","municipality":{"key":"09672114","name":"Bad Kissingen, GKSt","type":"Große_Kreisstadt"},"district":{"key":"09672","name":"Bad Kissingen","type":"Landkreis"},"federalState":{"key":"09","name":"Bayern"}},{"name":"Bleichwiesen","postalCode":"97688","locality":"Bad Kissingen","municipality":{"key":"09672114","name":"Bad Kissingen, GKSt","type":"Große_Kreisstadt"},"district":{"key":"09672","name":"Bad Kissingen","type":"Landkreis"},"federalState":{"key":"09","name":"Bayern"}},{"name":"Blumenstr.","postalCode":"86438","locality":"Kissing","municipality":{"key":"09771142","name":"Kissing","type":"Kreisangehörige_Gemeinde"},"district":{"key":"09771","name":"Aichach-Friedberg","type":"Landkreis"},"federalState":{"key":"09","name":"Bayern"}},{"name":"Blumenstr.","postalCode":"97688","locality":"Bad Kissingen","municipality":{"key":"09672114","name":"Bad Kissingen, GKSt","type":"Große_Kreisstadt"},"district":{"key":"09672","name":"Bad Kissingen","type":"Landkreis"},"federalState":{"key":"09","name":"Bayern"}},{"name":"Boxbergerstr.","postalCode":"97688","locality":"Bad Kissingen","municipality":{"key":"09672114","name":"Bad Kissingen, GKSt","type":"Große_Kreisstadt"},"district":{"key":"09672","name":"Bad Kissingen","type":"Landkreis"},"federalState":{"key":"09","name":"Bayern"}},{"name":"Brandenburger Weg","postalCode":"86438","locality":"Kissing","municipality":{"key":"09771142","name":"Kissing","type":"Kreisangehörige_Gemeinde"},"district":{"key":"09771","name":"Aichach-Friedberg","type":"Landkreis"},"federalState":{"key":"09","name":"Bayern"}},{"name":"Brechbrücke","postalCode":"97688","locality":"Bad Kissingen","municipality":{"key":"09672114","name":"Bad Kissingen, GKSt","type":"Große_Kreisstadt"},"district":{"key":"09672","name":"Bad Kissingen","type":"Landkreis"},"federalState":{"key":"09","name":"Bayern"}},{"name":"Breslauer Str.","postalCode":"86438","locality":"Kissing","municipality":{"key":"09771142","name":"Kissing","type":"Kreisangehörige_Gemeinde"},"district":{"key":"09771","name":"Aichach-Friedberg","type":"Landkreis"},"federalState":{"key":"09","name":"Bayern"}},{"name":"Breslauer Str.","postalCode":"97688","locality":"Bad Kissingen","municipality":{"key":"09672114","name":"Bad Kissingen, GKSt","type":"Große_Kreisstadt"},"district":{"key":"09672","name":"Bad Kissingen","type":"Landkreis"},"federalState":{"key":"09","name":"Bayern"}},{"name":"Brückenstr.","postalCode":"97688","locality":"Bad Kissingen","municipality":{"key":"09672114","name":"Bad Kissingen, GKSt","type":"Große_Kreisstadt"},"district":{"key":"09672","name":"Bad Kissingen","type":"Landkreis"},"federalState":{"key":"09","name":"Bayern"}},{"name":"Büchelstr.","postalCode":"86438","locality":"Kissing","municipality":{"key":"09771142","name":"Kissing","type":"Kreisangehörige_Gemeinde"},"district":{"key":"09771","name":"Aichach-Friedberg","type":"Landkreis"},"federalState":{"key":"09","name":"Bayern"}},{"name":"Buchenlandstr.","postalCode":"86438","locality":"Kissing","municipality":{"key":"09771142","name":"Kissing","type":"Kreisangehörige_Gemeinde"},"district":{"key":"09771","name":"Aichach-Friedberg","type":"Landkreis"},"federalState":{"key":"09","name":"Bayern"}},{"name":"Buchenstr.","postalCode":"86438","locality":"Kissing","municipality":{"key":"09771142","name":"Kissing","type":"Kreisangehörige_Gemeinde"},"district":{"key":"09771","name":"Aichach-Friedberg","type":"Landkreis"},"federalState":{"key":"09","name":"Bayern"}},{"name":"Buchenweg","postalCode":"97688","locality":"Bad Kissingen","municipality":{"key":"09672114","name":"Bad Kissingen, GKSt","type":"Große_Kreisstadt"},"district":{"key":"09672","name":"Bad Kissingen","type":"Landkreis"},"federalState":{"key":"09","name":"Bayern"}},{"name":"Burgblick","postalCode":"97688","locality":"Bad Kissingen","municipality":{"key":"09672114","name":"Bad Kissingen, GKSt","type":"Große_Kreisstadt"},"district":{"key":"09672","name":"Bad Kissingen","type":"Landkreis"},"federalState":{"key":"09","name":"Bayern"}},{"name":"Bürgermeister-Wohlmuth-Str.","postalCode":"86438","locality":"Kissing","municipality":{"key":"09771142","name":"Kissing","type":"Kreisangehörige_Gemeinde"},"district":{"key":"09771","name":"Aichach-Friedberg","type":"Landkreis"},"federalState":{"key":"09","name":"Bayern"}},{"name":"Burgstallweg","postalCode":"86438","locality":"Kissing","municipality":{"key":"09771142","name":"Kissing","type":"Kreisangehörige_Gemeinde"},"district":{"key":"09771","name":"Aichach-Friedberg","type":"Landkreis"},"federalState":{"key":"09","name":"Bayern"}},{"name":"Burgstr.","postalCode":"97688","locality":"Bad Kissingen","municipality":{"key":"09672114","name":"Bad Kissingen, GKSt","type":"Große_Kreisstadt"},"district":{"key":"09672","name":"Bad Kissingen","type":"Landkreis"},"federalState":{"key":"09","name":"Bayern"}},{"name":"Burkardusstr.","postalCode":"97688","locality":"Bad Kissingen","municipality":{"key":"09672114","name":"Bad Kissingen, GKSt","type":"Große_Kreisstadt"},"district":{"key":"09672","name":"Bad Kissingen","type":"Landkreis"},"federalState":{"key":"09","name":"Bayern"}},{"name":"Carl-Diem-Str.","postalCode":"97688","locality":"Bad Kissingen","municipality":{"key":"09672114","name":"Bad Kissingen, GKSt","type":"Große_Kreisstadt"},"district":{"key":"09672","name":"Bad Kissingen","type":"Landkreis"},"federalState":{"key":"09","name":"Bayern"}},{"name":"Chakrenweg","postalCode":"97688","locality":"Bad Kissingen","municipality":{"key":"09672114","name":"Bad Kissingen, GKSt","type":"Große_Kreisstadt"},"district":{"key":"09672","name":"Bad Kissingen","type":"Landkreis"},"federalState":{"key":"09","name":"Bayern"}},{"name":"Clara-Schumann-Str.","postalCode":"86438","locality":"Kissing","municipality":{"key":"09771142","name":"Kissing","type":"Kreisangehörige_Gemeinde"},"district":{"key":"09771","name":"Aichach-Friedberg","type":"Landkreis"},"federalState":{"key":"09","name":"Bayern"}},{"name":"Columbiastr.","postalCode":"97688","locality":"Bad Kissingen","municipality":{"key":"09672114","name":"Bad Kissingen, GKSt","type":"Große_Kreisstadt"},"district":{"key":"09672","name":"Bad Kissingen","type":"Landkreis"},"federalState":{"key":"09","name":"Bayern"}},{"name":"Cyrill-Kistler-Weg","postalCode":"97688","locality":"Bad Kissingen","municipality":{"key":"09672114","name":"Bad Kissingen, GKSt","type":"Große_Kreisstadt"},"district":{"key":"09672","name":"Bad Kissingen","type":"Landkreis"},"federalState":{"key":"09","name":"Bayern"}},{"name":"Dahlienstr.","postalCode":"97688","locality":"Bad Kissingen","municipality":{"key":"09672114","name":"Bad Kissingen, GKSt","type":"Große_Kreisstadt"},"district":{"key":"09672","name":"Bad Kissingen","type":"Landkreis"},"federalState":{"key":"09","name":"Bayern"}},{"name":"Dammstr.","postalCode":"97688","locality":"Bad Kissingen","municipality":{"key":"09672114","name":"Bad Kissingen, GKSt","type":"Große_Kreisstadt"},"district":{"key":"09672","name":"Bad Kissingen","type":"Landkreis"},"federalState":{"key":"09","name":"Bayern"}},{"name":"Danziger Str.","postalCode":"97688","locality":"Bad Kissingen","municipality":{"key":"09672114","name":"Bad Kissingen, GKSt","type":"Große_Kreisstadt"},"district":{"key":"09672","name":"Bad Kissingen","type":"Landkreis"},"federalState":{"key":"09","name":"Bayern"}},{"name":"Dapperstr.","postalCode":"97688","locality":"Bad Kissingen","municipality":{"key":"09672114","name":"Bad Kissingen, GKSt","type":"Große_Kreisstadt"},"district":{"key":"09672","name":"Bad Kissingen","type":"Landkreis"},"federalState":{"key":"09","name":"Bayern"}},{"name":"Datzenbrunnenstr.","postalCode":"97688","locality":"Bad Kissingen","municipality":{"key":"09672114","name":"Bad Kissingen, GKSt","type":"Große_Kreisstadt"},"district":{"key":"09672","name":"Bad Kissingen","type":"Landkreis"},"federalState":{"key":"09","name":"Bayern"}},{"name":"Dicker Busch","postalCode":"97688","locality":"Bad Kissingen","municipality":{"key":"09672114","name":"Bad Kissingen, GKSt","type":"Große_Kreisstadt"},"district":{"key":"09672","name":"Bad Kissingen","type":"Landkreis"},"federalState":{"key":"09","name":"Bayern"}},{"name":"Dientzenhoferstr.","postalCode":"97688","locality":"Bad Kissingen","municipality":{"key":"09672114","name":"Bad Kissingen, GKSt","type":"Große_Kreisstadt"},"district":{"key":"09672","name":"Bad Kissingen","type":"Landkreis"},"federalState":{"key":"09","name":"Bayern"}},{"name":"Dionysiusstr.","postalCode":"97688","locality":"Bad Kissingen","municipality":{"key":"09672114","name":"Bad Kissingen, GKSt","type":"Große_Kreisstadt"},"district":{"key":"09672","name":"Bad Kissingen","type":"Landkreis"},"federalState":{"key":"09","name":"Bayern"}},{"name":"Doktor-Georg-Heim-Str.","postalCode":"97688","locality":"Bad Kissingen","municipality":{"key":"09672114","name":"Bad Kissingen, GKSt","type":"Große_Kreisstadt"},"district":{"key":"09672","name":"Bad Kissingen","type":"Landkreis"},"federalState":{"key":"09","name":"Bayern"}},{"name":"Donauschwabenstr.","postalCode":"86438","locality":"Kissing","municipality":{"key":"09771142","name":"Kissing","type":"Kreisangehörige_Gemeinde"},"district":{"key":"09771","name":"Aichach-Friedberg","type":"Landkreis"},"federalState":{"key":"09","name":"Bayern"}},{"name":"Dresdner Str.","postalCode":"97688","locality":"Bad Kissingen","municipality":{"key":"09672114","name":"Bad Kissingen, GKSt","type":"Große_Kreisstadt"},"district":{"key":"09672","name":"Bad Kissingen","type":"Landkreis"},"federalState":{"key":"09","name":"Bayern"}},{"name":"Drosselweg","postalCode":"86438","locality":"Kissing","municipality":{"key":"09771142","name":"Kissing","type":"Kreisangehörige_Gemeinde"},"district":{"key":"09771","name":"Aichach-Friedberg","type":"Landkreis"},"federalState":{"key":"09","name":"Bayern"}},{"name":"Dummentaler Weg","postalCode":"97688","locality":"Bad Kissingen","municipality":{"key":"09672114","name":"Bad Kissingen, GKSt","type":"Große_Kreisstadt"},"district":{"key":"09672","name":"Bad Kissingen","type":"Landkreis"},"federalState":{"key":"09","name":"Bayern"}},{"name":"Edith-Stein-Str.","postalCode":"86438","locality":"Kissing","municipality":{"key":"09771142","name":"Kissing","type":"Kreisangehörige_Gemeinde"},"district":{"key":"09771","name":"Aichach-Friedberg","type":"Landkreis"},"federalState":{"key":"09","name":"Bayern"}},{"name":"Egerlandstr.","postalCode":"97688","locality":"Bad Kissingen","municipality":{"key":"09672114","name":"Bad Kissingen, GKSt","type":"Große_Kreisstadt"},"district":{"key":"09672","name":"Bad Kissingen","type":"Landkreis"},"federalState":{"key":"09","name":"Bayern"}},{"name":"Ehgartenstr.","postalCode":"86438","locality":"Kissing","municipality":{"key":"09771142","name":"Kissing","type":"Kreisangehörige_Gemeinde"},"district":{"key":"09771","name":"Aichach-Friedberg","type":"Landkreis"},"federalState":{"key":"09","name":"Bayern"}},{"name":"Eichelberg","postalCode":"97688","locality":"Bad Kissingen","municipality":{"key":"09672114","name":"Bad Kissingen, GKSt","type":"Große_Kreisstadt"},"district":{"key":"09672","name":"Bad Kissingen","type":"Landkreis"},"federalState":{"key":"09","name":"Bayern"}},{"name":"Eichendorffstr.","postalCode":"97688","locality":"Bad Kissingen","municipality":{"key":"09672114","name":"Bad Kissingen, GKSt","type":"Große_Kreisstadt"},"district":{"key":"09672","name":"Bad Kissingen","type":"Landkreis"},"federalState":{"key":"09","name":"Bayern"}},{"name":"Eichenstr.","postalCode":"86438","locality":"Kissing","municipality":{"key":"09771142","name":"Kissing","type":"Kreisangehörige_Gemeinde"},"district":{"key":"09771","name":"Aichach-Friedberg","type":"Landkreis"},"federalState":{"key":"09","name":"Bayern"}},{"name":"Eichenstr.","postalCode":"97688","locality":"Bad Kissingen","municipality":{"key":"09672114","name":"Bad Kissingen, GKSt","type":"Große_Kreisstadt"},"district":{"key":"09672","name":"Bad Kissingen","type":"Landkreis"},"federalState":{"key":"09","name":"Bayern"}},{"name":"Eichweidweg","postalCode":"86438","locality":"Kissing","municipality":{"key":"09771142","name":"Kissing","type":"Kreisangehörige_Gemeinde"},"district":{"key":"09771","name":"Aichach-Friedberg","type":"Landkreis"},"federalState":{"key":"09","name":"Bayern"}},{"name":"Einsteinstr.","postalCode":"97688","locality":"Bad Kissingen","municipality":{"key":"09672114","name":"Bad Kissingen, GKSt","type":"Große_Kreisstadt"},"district":{"key":"09672","name":"Bad Kissingen","type":"Landkreis"},"federalState":{"key":"09","name":"Bayern"}},{"name":"Elisabethstr.","postalCode":"97688","locality":"Bad Kissingen","municipality":{"key":"09672114","name":"Bad Kissingen, GKSt","type":"Große_Kreisstadt"},"district":{"key":"09672","name":"Bad Kissingen","type":"Landkreis"},"federalState":{"key":"09","name":"Bayern"}},{"name":"Emmerichstr.","postalCode":"97688","locality":"Bad Kissingen","municipality":{"key":"09672114","name":"Bad Kissingen, GKSt","type":"Große_Kreisstadt"},"district":{"key":"09672","name":"Bad Kissingen","type":"Landkreis"},"federalState":{"key":"09","name":"Bayern"}},{"name":"Enge Gasse","postalCode":"97688","locality":"Bad Kissingen","municipality":{"key":"09672114","name":"Bad Kissingen, GKSt","type":"Große_Kreisstadt"},"district":{"key":"09672","name":"Bad Kissingen","type":"Landkreis"},"federalState":{"key":"09","name":"Bayern"}},{"name":"Erhardstr.","postalCode":"97688","locality":"Bad Kissingen","municipality":{"key":"09672114","name":"Bad Kissingen, GKSt","type":"Große_Kreisstadt"},"district":{"key":"09672","name":"Bad Kissingen","type":"Landkreis"},"federalState":{"key":"09","name":"Bayern"}},{"name":"Erlenstr.","postalCode":"86438","locality":"Kissing","municipality":{"key":"09771142","name":"Kissing","type":"Kreisangehörige_Gemeinde"},"district":{"key":"09771","name":"Aichach-Friedberg","type":"Landkreis"},"federalState":{"key":"09","name":"Bayern"}},{"name":"Erlenweg","postalCode":"97688","locality":"Bad Kissingen","municipality":{"key":"09672114","name":"Bad Kissingen, GKSt","type":"Große_Kreisstadt"},"district":{"key":"09672","name":"Bad Kissingen","type":"Landkreis"},"federalState":{"key":"09","name":"Bayern"}},{"name":"Eschenstr.","postalCode":"86438","locality":"Kissing","municipality":{"key":"09771142","name":"Kissing","type":"Kreisangehörige_Gemeinde"},"district":{"key":"09771","name":"Aichach-Friedberg","type":"Landkreis"},"federalState":{"key":"09","name":"Bayern"}},{"name":"Eschenstr.","postalCode":"97688","locality":"Bad Kissingen","municipality":{"key":"09672114","name":"Bad Kissingen, GKSt","type":"Große_Kreisstadt"},"district":{"key":"09672","name":"Bad Kissingen","type":"Landkreis"},"federalState":{"key":"09","name":"Bayern"}},{"name":"Esperanto Platz","postalCode":"97688","locality":"Bad Kissingen","municipality":{"key":"09672114","name":"Bad Kissingen, GKSt","type":"Große_Kreisstadt"},"district":{"key":"09672","name":"Bad Kissingen","type":"Landkreis"},"federalState":{"key":"09","name":"Bayern"}},{"name":"Euerdorfer Str.","postalCode":"97688","locality":"Bad Kissingen","municipality":{"key":"09672114","name":"Bad Kissingen, GKSt","type":"Große_Kreisstadt"},"district":{"key":"09672","name":"Bad Kissingen","type":"Landkreis"},"federalState":{"key":"09","name":"Bayern"}},{"name":"Fasanenring","postalCode":"97688","locality":"Bad Kissingen","municipality":{"key":"09672114","name":"Bad Kissingen, GKSt","type":"Große_Kreisstadt"},"district":{"key":"09672","name":"Bad Kissingen","type":"Landkreis"},"federalState":{"key":"09","name":"Bayern"}},{"name":"Feldstr.","postalCode":"86438","locality":"Kissing","municipality":{"key":"09771142","name":"Kissing","type":"Kreisangehörige_Gemeinde"},"district":{"key":"09771","name":"Aichach-Friedberg","type":"Landkreis"},"federalState":{"key":"09","name":"Bayern"}},{"name":"Feldstr.","postalCode":"97688","locality":"Bad Kissingen","municipality":{"key":"09672114","name":"Bad Kissingen, GKSt","type":"Große_Kreisstadt"},"district":{"key":"09672","name":"Bad Kissingen","type":"Landkreis"},"federalState":{"key":"09","name":"Bayern"}},{"name":"Fichtenstr.","postalCode":"86438","locality":"Kissing","municipality":{"key":"09771142","name":"Kissing","type":"Kreisangehörige_Gemeinde"},"district":{"key":"09771","name":"Aichach-Friedberg","type":"Landkreis"},"federalState":{"key":"09","name":"Bayern"}},{"name":"Finkenweg","postalCode":"86438","locality":"Kissing","municipality":{"key":"09771142","name":"Kissing","type":"Kreisangehörige_Gemeinde"},"district":{"key":"09771","name":"Aichach-Friedberg","type":"Landkreis"},"federalState":{"key":"09","name":"Bayern"}},{"name":"Finsterbergstr.","postalCode":"97688","locality":"Bad Kissingen","municipality":{"key":"09672114","name":"Bad Kissingen, GKSt","type":"Große_Kreisstadt"},"district":{"key":"09672","name":"Bad Kissingen","type":"Landkreis"},"federalState":{"key":"09","name":"Bayern"}},{"name":"Flemingstr.","postalCode":"97688","locality":"Bad Kissingen","municipality":{"key":"09672114","name":"Bad Kissingen, GKSt","type":"Große_Kreisstadt"},"district":{"key":"09672","name":"Bad Kissingen","type":"Landkreis"},"federalState":{"key":"09","name":"Bayern"}},{"name":"Fliederstr.","postalCode":"86438","locality":"Kissing","municipality":{"key":"09771142","name":"Kissing","type":"Kreisangehörige_Gemeinde"},"district":{"key":"09771","name":"Aichach-Friedberg","type":"Landkreis"},"federalState":{"key":"09","name":"Bayern"}},{"name":"Flühgasse","postalCode":"97688","locality":"Bad Kissingen","municipality":{"key":"09672114","name":"Bad Kissingen, GKSt","type":"Große_Kreisstadt"},"district":{"key":"09672","name":"Bad Kissingen","type":"Landkreis"},"federalState":{"key":"09","name":"Bayern"}},{"name":"Flurstr.","postalCode":"86438","locality":"Kissing","municipality":{"key":"09771142","name":"Kissing","type":"Kreisangehörige_Gemeinde"},"district":{"key":"09771","name":"Aichach-Friedberg","type":"Landkreis"},"federalState":{"key":"09","name":"Bayern"}},{"name":"Flurstr.","postalCode":"97688","locality":"Bad Kissingen","municipality":{"key":"09672114","name":"Bad Kissingen, GKSt","type":"Große_Kreisstadt"},"district":{"key":"09672","name":"Bad Kissingen","type":"Landkreis"},"federalState":{"key":"09","name":"Bayern"}},{"name":"Föhrenstr.","postalCode":"97688","locality":"Bad Kissingen","municipality":{"key":"09672114","name":"Bad Kissingen, GKSt","type":"Große_Kreisstadt"},"district":{"key":"09672","name":"Bad Kissingen","type":"Landkreis"},"federalState":{"key":"09","name":"Bayern"}},{"name":"Forellengasse","postalCode":"97688","locality":"Bad Kissingen","municipality":{"key":"09672114","name":"Bad Kissingen, GKSt","type":"Große_Kreisstadt"},"district":{"key":"09672","name":"Bad Kissingen","type":"Landkreis"},"federalState":{"key":"09","name":"Bayern"}},{"name":"Frankenstr.","postalCode":"97688","locality":"Bad Kissingen","municipality":{"key":"09672114","name":"Bad Kissingen, GKSt","type":"Große_Kreisstadt"},"district":{"key":"09672","name":"Bad Kissingen","type":"Landkreis"},"federalState":{"key":"09","name":"Bayern"}},{"name":"Frankenweg","postalCode":"86438","locality":"Kissing","municipality":{"key":"09771142","name":"Kissing","type":"Kreisangehörige_Gemeinde"},"district":{"key":"09771","name":"Aichach-Friedberg","type":"Landkreis"},"federalState":{"key":"09","name":"Bayern"}},{"name":"Franz-Schubert-Str.","postalCode":"97688","locality":"Bad Kissingen","municipality":{"key":"09672114","name":"Bad Kissingen, GKSt","type":"Große_Kreisstadt"},"district":{"key":"09672","name":"Bad Kissingen","type":"Landkreis"},"federalState":{"key":"09","name":"Bayern"}},{"name":"Frauenrodestr.","postalCode":"97688","locality":"Bad Kissingen","municipality":{"key":"09672114","name":"Bad Kissingen, GKSt","type":"Große_Kreisstadt"},"district":{"key":"09672","name":"Bad Kissingen","type":"Landkreis"},"federalState":{"key":"09","name":"Bayern"}},{"name":"Friedberger Str.","postalCode":"86438","locality":"Kissing","municipality":{"key":"09771142","name":"Kissing","type":"Kreisangehörige_Gemeinde"},"district":{"key":"09771","name":"Aichach-Friedberg","type":"Landkreis"},"federalState":{"key":"09","name":"Bayern"}},{"name":"Friedensstr.","postalCode":"86438","locality":"Kissing","municipality":{"key":"09771142","name":"Kissing","type":"Kreisangehörige_Gemeinde"},"district":{"key":"09771","name":"Aichach-Friedberg","type":"Landkreis"},"federalState":{"key":"09","name":"Bayern"}},{"name":"Friedenstr.","postalCode":"97688","locality":"Bad Kissingen","municipality":{"key":"09672114","name":"Bad Kissingen, GKSt","type":"Große_Kreisstadt"},"district":{"key":"09672","name":"Bad Kissingen","type":"Landkreis"},"federalState":{"key":"09","name":"Bayern"}},{"name":"Fried-Heuler-Str.","postalCode":"97688","locality":"Bad Kissingen","municipality":{"key":"09672114","name":"Bad Kissingen, GKSt","type":"Große_Kreisstadt"},"district":{"key":"09672","name":"Bad Kissingen","type":"Landkreis"},"federalState":{"key":"09","name":"Bayern"}},{"name":"Friedhofsweg","postalCode":"97688","locality":"Bad Kissingen","municipality":{"key":"09672114","name":"Bad Kissingen, GKSt","type":"Große_Kreisstadt"},"district":{"key":"09672","name":"Bad Kissingen","type":"Landkreis"},"federalState":{"key":"09","name":"Bayern"}},{"name":"Friedhofweg","postalCode":"86438","locality":"Kissing","municipality":{"key":"09771142","name":"Kissing","type":"Kreisangehörige_Gemeinde"},"district":{"key":"09771","name":"Aichach-Friedberg","type":"Landkreis"},"federalState":{"key":"09","name":"Bayern"}},{"name":"Friedrich-List-Str.","postalCode":"97688","locality":"Bad Kissingen","municipality":{"key":"09672114","name":"Bad Kissingen, GKSt","type":"Große_Kreisstadt"},"district":{"key":"09672","name":"Bad Kissingen","type":"Landkreis"},"federalState":{"key":"09","name":"Bayern"}},{"name":"Friedrich-Rückert-Str.","postalCode":"97688","locality":"Bad Kissingen","municipality":{"key":"09672114","name":"Bad Kissingen, GKSt","type":"Große_Kreisstadt"},"district":{"key":"09672","name":"Bad Kissingen","type":"Landkreis"},"federalState":{"key":"09","name":"Bayern"}},{"name":"Friedrich-von-Gärtner-Str.","postalCode":"97688","locality":"Bad Kissingen","municipality":{"key":"09672114","name":"Bad Kissingen, GKSt","type":"Große_Kreisstadt"},"district":{"key":"09672","name":"Bad Kissingen","type":"Landkreis"},"federalState":{"key":"09","name":"Bayern"}},{"name":"Frühlingstr.","postalCode":"86438","locality":"Kissing","municipality":{"key":"09771142","name":"Kissing","type":"Kreisangehörige_Gemeinde"},"district":{"key":"09771","name":"Aichach-Friedberg","type":"Landkreis"},"federalState":{"key":"09","name":"Bayern"}},{"name":"Frühlingstr.","postalCode":"97688","locality":"Bad Kissingen","municipality":{"key":"09672114","name":"Bad Kissingen, GKSt","type":"Große_Kreisstadt"},"district":{"key":"09672","name":"Bad Kissingen","type":"Landkreis"},"federalState":{"key":"09","name":"Bayern"}},{"name":"Fuchsmühlweg","postalCode":"97688","locality":"Bad Kissingen","municipality":{"key":"09672114","name":"Bad Kissingen, GKSt","type":"Große_Kreisstadt"},"district":{"key":"09672","name":"Bad Kissingen","type":"Landkreis"},"federalState":{"key":"09","name":"Bayern"}},{"name":"Fuhrmannstr.","postalCode":"97688","locality":"Bad Kissingen","municipality":{"key":"09672114","name":"Bad Kissingen, GKSt","type":"Große_Kreisstadt"},"district":{"key":"09672","name":"Bad Kissingen","type":"Landkreis"},"federalState":{"key":"09","name":"Bayern"}},{"name":"Füssener Weg","postalCode":"86438","locality":"Kissing","municipality":{"key":"09771142","name":"Kissing","type":"Kreisangehörige_Gemeinde"},"district":{"key":"09771","name":"Aichach-Friedberg","type":"Landkreis"},"federalState":{"key":"09","name":"Bayern"}},{"name":"Gabriele-Münter-Str.","postalCode":"86438","locality":"Kissing","municipality":{"key":"09771142","name":"Kissing","type":"Kreisangehörige_Gemeinde"},"district":{"key":"09771","name":"Aichach-Friedberg","type":"Landkreis"},"federalState":{"key":"09","name":"Bayern"}},{"name":"Garitzer Str.","postalCode":"97688","locality":"Bad Kissingen","municipality":{"key":"09672114","name":"Bad Kissingen, GKSt","type":"Große_Kreisstadt"},"district":{"key":"09672","name":"Bad Kissingen","type":"Landkreis"},"federalState":{"key":"09","name":"Bayern"}},{"name":"Garmischer Allee","postalCode":"86438","locality":"Kissing","municipality":{"key":"09771142","name":"Kissing","type":"Kreisangehörige_Gemeinde"},"district":{"key":"09771","name":"Aichach-Friedberg","type":"Landkreis"},"federalState":{"key":"09","name":"Bayern"}},{"name":"Gartenstr.","postalCode":"86438","locality":"Kissing","municipality":{"key":"09771142","name":"Kissing","type":"Kreisangehörige_Gemeinde"},"district":{"key":"09771","name":"Aichach-Friedberg","type":"Landkreis"},"federalState":{"key":"09","name":"Bayern"}},{"name":"Gartenstr.","postalCode":"97688","locality":"Bad Kissingen","municipality":{"key":"09672114","name":"Bad Kissingen, GKSt","type":"Große_Kreisstadt"},"district":{"key":"09672","name":"Bad Kissingen","type":"Landkreis"},"federalState":{"key":"09","name":"Bayern"}},{"name":"Gebrüder-Frisch-Str.","postalCode":"86438","locality":"Kissing","municipality":{"key":"09771142","name":"Kissing","type":"Kreisangehörige_Gemeinde"},"district":{"key":"09771","name":"Aichach-Friedberg","type":"Landkreis"},"federalState":{"key":"09","name":"Bayern"}},{"name":"Gerhart-Hauptmann-Str.","postalCode":"86438","locality":"Kissing","municipality":{"key":"09771142","name":"Kissing","type":"Kreisangehörige_Gemeinde"},"district":{"key":"09771","name":"Aichach-Friedberg","type":"Landkreis"},"federalState":{"key":"09","name":"Bayern"}},{"name":"Germanenstr.","postalCode":"86438","locality":"Kissing","municipality":{"key":"09771142","name":"Kissing","type":"Kreisangehörige_Gemeinde"},"district":{"key":"09771","name":"Aichach-Friedberg","type":"Landkreis"},"federalState":{"key":"09","name":"Bayern"}},{"name":"Geschwister-Scholl-Platz","postalCode":"97688","locality":"Bad Kissingen","municipality":{"key":"09672114","name":"Bad Kissingen, GKSt","type":"Große_Kreisstadt"},"district":{"key":"09672","name":"Bad Kissingen","type":"Landkreis"},"federalState":{"key":"09","name":"Bayern"}},{"name":"Gewerbering","postalCode":"86438","locality":"Kissing","municipality":{"key":"09771142","name":"Kissing","type":"Kreisangehörige_Gemeinde"},"district":{"key":"09771","name":"Aichach-Friedberg","type":"Landkreis"},"federalState":{"key":"09","name":"Bayern"}},{"name":"Glochstr.","postalCode":"86438","locality":"Kissing","municipality":{"key":"09771142","name":"Kissing","type":"Kreisangehörige_Gemeinde"},"district":{"key":"09771","name":"Aichach-Friedberg","type":"Landkreis"},"federalState":{"key":"09","name":"Bayern"}},{"name":"Goethestr.","postalCode":"97688","locality":"Bad Kissingen","municipality":{"key":"09672114","name":"Bad Kissingen, GKSt","type":"Große_Kreisstadt"},"district":{"key":"09672","name":"Bad Kissingen","type":"Landkreis"},"federalState":{"key":"09","name":"Bayern"}},{"name":"Goldbachstr.","postalCode":"97688","locality":"Bad Kissingen","municipality":{"key":"09672114","name":"Bad Kissingen, GKSt","type":"Große_Kreisstadt"},"district":{"key":"09672","name":"Bad Kissingen","type":"Landkreis"},"federalState":{"key":"09","name":"Bayern"}},{"name":"Gössleswiesen","postalCode":"97688","locality":"Bad Kissingen","municipality":{"key":"09672114","name":"Bad Kissingen, GKSt","type":"Große_Kreisstadt"},"district":{"key":"09672","name":"Bad Kissingen","type":"Landkreis"},"federalState":{"key":"09","name":"Bayern"}},{"name":"Gotenweg","postalCode":"86438","locality":"Kissing","municipality":{"key":"09771142","name":"Kissing","type":"Kreisangehörige_Gemeinde"},"district":{"key":"09771","name":"Aichach-Friedberg","type":"Landkreis"},"federalState":{"key":"09","name":"Bayern"}},{"name":"Götzenmühlweg","postalCode":"97688","locality":"Bad Kissingen","municipality":{"key":"09672114","name":"Bad Kissingen, GKSt","type":"Große_Kreisstadt"},"district":{"key":"09672","name":"Bad Kissingen","type":"Landkreis"},"federalState":{"key":"09","name":"Bayern"}},{"name":"Grüntenstr.","postalCode":"86438","locality":"Kissing","municipality":{"key":"09771142","name":"Kissing","type":"Kreisangehörige_Gemeinde"},"district":{"key":"09771","name":"Aichach-Friedberg","type":"Landkreis"},"federalState":{"key":"09","name":"Bayern"}},{"name":"Grünzweigstr.","postalCode":"86438","locality":"Kissing","municipality":{"key":"09771142","name":"Kissing","type":"Kreisangehörige_Gemeinde"},"district":{"key":"09771","name":"Aichach-Friedberg","type":"Landkreis"},"federalState":{"key":"09","name":"Bayern"}},{"name":"Gunzenleestr.","postalCode":"86438","locality":"Kissing","municipality":{"key":"09771142","name":"Kissing","type":"Kreisangehörige_Gemeinde"},"district":{"key":"09771","name":"Aichach-Friedberg","type":"Landkreis"},"federalState":{"key":"09","name":"Bayern"}},{"name":"Güßgraben","postalCode":"97688","locality":"Bad Kissingen","municipality":{"key":"09672114","name":"Bad Kissingen, GKSt","type":"Große_Kreisstadt"},"district":{"key":"09672","name":"Bad Kissingen","type":"Landkreis"},"federalState":{"key":"09","name":"Bayern"}},{"name":"Gutenbergstr.","postalCode":"97688","locality":"Bad Kissingen","municipality":{"key":"09672114","name":"Bad Kissingen, GKSt","type":"Große_Kreisstadt"},"district":{"key":"09672","name":"Bad Kissingen","type":"Landkreis"},"federalState":{"key":"09","name":"Bayern"}},{"name":"Haarder Weg","postalCode":"97688","locality":"Bad Kissingen","municipality":{"key":"09672114","name":"Bad Kissingen, GKSt","type":"Große_Kreisstadt"},"district":{"key":"09672","name":"Bad Kissingen","type":"Landkreis"},"federalState":{"key":"09","name":"Bayern"}},{"name":"Händelstr.","postalCode":"97688","locality":"Bad Kissingen","municipality":{"key":"09672114","name":"Bad Kissingen, GKSt","type":"Große_Kreisstadt"},"district":{"key":"09672","name":"Bad Kissingen","type":"Landkreis"},"federalState":{"key":"09","name":"Bayern"}},{"name":"Hangstr.","postalCode":"97688","locality":"Bad Kissingen","municipality":{"key":"09672114","name":"Bad Kissingen, GKSt","type":"Große_Kreisstadt"},"district":{"key":"09672","name":"Bad Kissingen","type":"Landkreis"},"federalState":{"key":"09","name":"Bayern"}},{"name":"Hans-Sachs-Str.","postalCode":"97688","locality":"Bad Kissingen","municipality":{"key":"09672114","name":"Bad Kissingen, GKSt","type":"Große_Kreisstadt"},"district":{"key":"09672","name":"Bad Kissingen","type":"Landkreis"},"federalState":{"key":"09","name":"Bayern"}},{"name":"Hardgraben","postalCode":"97688","locality":"Bad Kissingen","municipality":{"key":"09672114","name":"Bad Kissingen, GKSt","type":"Große_Kreisstadt"},"district":{"key":"09672","name":"Bad Kissingen","type":"Landkreis"},"federalState":{"key":"09","name":"Bayern"}},{"name":"Hardweg","postalCode":"97688","locality":"Bad Kissingen","municipality":{"key":"09672114","name":"Bad Kissingen, GKSt","type":"Große_Kreisstadt"},"district":{"key":"09672","name":"Bad Kissingen","type":"Landkreis"},"federalState":{"key":"09","name":"Bayern"}},{"name":"Hartmannstr.","postalCode":"97688","locality":"Bad Kissingen","municipality":{"key":"09672114","name":"Bad Kissingen, GKSt","type":"Große_Kreisstadt"},"district":{"key":"09672","name":"Bad Kissingen","type":"Landkreis"},"federalState":{"key":"09","name":"Bayern"}},{"name":"Hauptstr.","postalCode":"86438","locality":"Kissing","municipality":{"key":"09771142","name":"Kissing","type":"Kreisangehörige_Gemeinde"},"district":{"key":"09771","name":"Aichach-Friedberg","type":"Landkreis"},"federalState":{"key":"09","name":"Bayern"}},{"name":"Hausener Str.","postalCode":"97688","locality":"Bad Kissingen","municipality":{"key":"09672114","name":"Bad Kissingen, GKSt","type":"Große_Kreisstadt"},"district":{"key":"09672","name":"Bad Kissingen","type":"Landkreis"},"federalState":{"key":"09","name":"Bayern"}},{"name":"Häuserschlag","postalCode":"97688","locality":"Bad Kissingen","municipality":{"key":"09672114","name":"Bad Kissingen, GKSt","type":"Große_Kreisstadt"},"district":{"key":"09672","name":"Bad Kissingen","type":"Landkreis"},"federalState":{"key":"09","name":"Bayern"}},{"name":"Haydnstr.","postalCode":"86438","locality":"Kissing","municipality":{"key":"09771142","name":"Kissing","type":"Kreisangehörige_Gemeinde"},"district":{"key":"09771","name":"Aichach-Friedberg","type":"Landkreis"},"federalState":{"key":"09","name":"Bayern"}},{"name":"Heideneller","postalCode":"97688","locality":"Bad Kissingen","municipality":{"key":"09672114","name":"Bad Kissingen, GKSt","type":"Große_Kreisstadt"},"district":{"key":"09672","name":"Bad Kissingen","type":"Landkreis"},"federalState":{"key":"09","name":"Bayern"}},{"name":"Heiligenfelder Allee","postalCode":"97688","locality":"Bad Kissingen","municipality":{"key":"09672114","name":"Bad Kissingen, GKSt","type":"Große_Kreisstadt"},"district":{"key":"09672","name":"Bad Kissingen","type":"Landkreis"},"federalState":{"key":"09","name":"Bayern"}},{"name":"Heinrich-Hack-Weg","postalCode":"97688","locality":"Bad Kissingen","municipality":{"key":"09672114","name":"Bad Kissingen, GKSt","type":"Große_Kreisstadt"},"district":{"key":"09672","name":"Bad Kissingen","type":"Landkreis"},"federalState":{"key":"09","name":"Bayern"}},{"name":"Heinrich-Heine-Str.","postalCode":"97688","locality":"Bad Kissingen","municipality":{"key":"09672114","name":"Bad Kissingen, GKSt","type":"Große_Kreisstadt"},"district":{"key":"09672","name":"Bad Kissingen","type":"Landkreis"},"federalState":{"key":"09","name":"Bayern"}},{"name":"Heinrich-von-Kleist-Str.","postalCode":"97688","locality":"Bad Kissingen","municipality":{"key":"09672114","name":"Bad Kissingen, GKSt","type":"Große_Kreisstadt"},"district":{"key":"09672","name":"Bad Kissingen","type":"Landkreis"},"federalState":{"key":"09","name":"Bayern"}},{"name":"Hemmerichstr.","postalCode":"97688","locality":"Bad Kissingen","municipality":{"key":"09672114","name":"Bad Kissingen, GKSt","type":"Große_Kreisstadt"},"district":{"key":"09672","name":"Bad Kissingen","type":"Landkreis"},"federalState":{"key":"09","name":"Bayern"}},{"name":"Herderstr.","postalCode":"86438","locality":"Kissing","municipality":{"key":"09771142","name":"Kissing","type":"Kreisangehörige_Gemeinde"},"district":{"key":"09771","name":"Aichach-Friedberg","type":"Landkreis"},"federalState":{"key":"09","name":"Bayern"}},{"name":"Hintere Gasse","postalCode":"97688","locality":"Bad Kissingen","municipality":{"key":"09672114","name":"Bad Kissingen, GKSt","type":"Große_Kreisstadt"},"district":{"key":"09672","name":"Bad Kissingen","type":"Landkreis"},"federalState":{"key":"09","name":"Bayern"}},{"name":"Hochbergstr.","postalCode":"97688","locality":"Bad Kissingen","municipality":{"key":"09672114","name":"Bad Kissingen, GKSt","type":"Große_Kreisstadt"},"district":{"key":"09672","name":"Bad Kissingen","type":"Landkreis"},"federalState":{"key":"09","name":"Bayern"}},{"name":"Hochstr.","postalCode":"86438","locality":"Kissing","municipality":{"key":"09771142","name":"Kissing","type":"Kreisangehörige_Gemeinde"},"district":{"key":"09771","name":"Aichach-Friedberg","type":"Landkreis"},"federalState":{"key":"09","name":"Bayern"}},{"name":"Höhenstr.","postalCode":"97688","locality":"Bad Kissingen","municipality":{"key":"09672114","name":"Bad Kissingen, GKSt","type":"Große_Kreisstadt"},"district":{"key":"09672","name":"Bad Kissingen","type":"Landkreis"},"federalState":{"key":"09","name":"Bayern"}},{"name":"Hohe Str.","postalCode":"97688","locality":"Bad Kissingen","municipality":{"key":"09672114","name":"Bad Kissingen, GKSt","type":"Große_Kreisstadt"},"district":{"key":"09672","name":"Bad Kissingen","type":"Landkreis"},"federalState":{"key":"09","name":"Bayern"}},{"name":"Hohmannstr.","postalCode":"97688","locality":"Bad Kissingen","municipality":{"key":"09672114","name":"Bad Kissingen, GKSt","type":"Große_Kreisstadt"},"district":{"key":"09672","name":"Bad Kissingen","type":"Landkreis"},"federalState":{"key":"09","name":"Bayern"}},{"name":"Höllweg","postalCode":"97688","locality":"Bad Kissingen","municipality":{"key":"09672114","name":"Bad Kissingen, GKSt","type":"Große_Kreisstadt"},"district":{"key":"09672","name":"Bad Kissingen","type":"Landkreis"},"federalState":{"key":"09","name":"Bayern"}},{"name":"Holzweg","postalCode":"97688","locality":"Bad Kissingen","municipality":{"key":"09672114","name":"Bad Kissingen, GKSt","type":"Große_Kreisstadt"},"district":{"key":"09672","name":"Bad Kissingen","type":"Landkreis"},"federalState":{"key":"09","name":"Bayern"}},{"name":"Honigäcker","postalCode":"97688","locality":"Bad Kissingen","municipality":{"key":"09672114","name":"Bad Kissingen, GKSt","type":"Große_Kreisstadt"},"district":{"key":"09672","name":"Bad Kissingen","type":"Landkreis"},"federalState":{"key":"09","name":"Bayern"}},{"name":"Hörmannsberger Str.","postalCode":"86438","locality":"Kissing","municipality":{"key":"09771142","name":"Kissing","type":"Kreisangehörige_Gemeinde"},"district":{"key":"09771","name":"Aichach-Friedberg","type":"Landkreis"},"federalState":{"key":"09","name":"Bayern"}},{"name":"Hunnenring","postalCode":"86438","locality":"Kissing","municipality":{"key":"09771142","name":"Kissing","type":"Kreisangehörige_Gemeinde"},"district":{"key":"09771","name":"Aichach-Friedberg","type":"Landkreis"},"federalState":{"key":"09","name":"Bayern"}},{"name":"Ignatius-Taschner-Str.","postalCode":"97688","locality":"Bad Kissingen","municipality":{"key":"09672114","name":"Bad Kissingen, GKSt","type":"Große_Kreisstadt"},"district":{"key":"09672","name":"Bad Kissingen","type":"Landkreis"},"federalState":{"key":"09","name":"Bayern"}},{"name":"Im Beiberich","postalCode":"97688","locality":"Bad Kissingen","municipality":{"key":"09672114","name":"Bad Kissingen, GKSt","type":"Große_Kreisstadt"},"district":{"key":"09672","name":"Bad Kissingen","type":"Landkreis"},"federalState":{"key":"09","name":"Bayern"}},{"name":"Im Brühl","postalCode":"97688","locality":"Bad Kissingen","municipality":{"key":"09672114","name":"Bad Kissingen, GKSt","type":"Große_Kreisstadt"},"district":{"key":"09672","name":"Bad Kissingen","type":"Landkreis"},"federalState":{"key":"09","name":"Bayern"}},{"name":"Im Krautgarten","postalCode":"97688","locality":"Bad Kissingen","municipality":{"key":"09672114","name":"Bad Kissingen, GKSt","type":"Große_Kreisstadt"},"district":{"key":"09672","name":"Bad Kissingen","type":"Landkreis"},"federalState":{"key":"09","name":"Bayern"}},{"name":"Im Pförtlein","postalCode":"97688","locality":"Bad Kissingen","municipality":{"key":"09672114","name":"Bad Kissingen, GKSt","type":"Große_Kreisstadt"},"district":{"key":"09672","name":"Bad Kissingen","type":"Landkreis"},"federalState":{"key":"09","name":"Bayern"}},{"name":"Im Premes","postalCode":"97688","locality":"Bad Kissingen","municipality":{"key":"09672114","name":"Bad Kissingen, GKSt","type":"Große_Kreisstadt"},"district":{"key":"09672","name":"Bad Kissingen","type":"Landkreis"},"federalState":{"key":"09","name":"Bayern"}},{"name":"Im Röder","postalCode":"97688","locality":"Bad Kissingen","municipality":{"key":"09672114","name":"Bad Kissingen, GKSt","type":"Große_Kreisstadt"},"district":{"key":"09672","name":"Bad Kissingen","type":"Landkreis"},"federalState":{"key":"09","name":"Bayern"}},{"name":"Im Roth","postalCode":"97688","locality":"Bad Kissingen","municipality":{"key":"09672114","name":"Bad Kissingen, GKSt","type":"Große_Kreisstadt"},"district":{"key":"09672","name":"Bad Kissingen","type":"Landkreis"},"federalState":{"key":"09","name":"Bayern"}},{"name":"Im Steinbusch","postalCode":"97688","locality":"Bad Kissingen","municipality":{"key":"09672114","name":"Bad Kissingen, GKSt","type":"Große_Kreisstadt"},"district":{"key":"09672","name":"Bad Kissingen","type":"Landkreis"},"federalState":{"key":"09","name":"Bayern"}},{"name":"Im Tiefrödlein","postalCode":"97688","locality":"Bad Kissingen","municipality":{"key":"09672114","name":"Bad Kissingen, GKSt","type":"Große_Kreisstadt"},"district":{"key":"09672","name":"Bad Kissingen","type":"Landkreis"},"federalState":{"key":"09","name":"Bayern"}},{"name":"In den Höfen","postalCode":"97688","locality":"Bad Kissingen","municipality":{"key":"09672114","name":"Bad Kissingen, GKSt","type":"Große_Kreisstadt"},"district":{"key":"09672","name":"Bad Kissingen","type":"Landkreis"},"federalState":{"key":"09","name":"Bayern"}},{"name":"In der Au","postalCode":"97688","locality":"Bad Kissingen","municipality":{"key":"09672114","name":"Bad Kissingen, GKSt","type":"Große_Kreisstadt"},"district":{"key":"09672","name":"Bad Kissingen","type":"Landkreis"},"federalState":{"key":"09","name":"Bayern"}},{"name":"Industriestr.","postalCode":"86438","locality":"Kissing","municipality":{"key":"09771142","name":"Kissing","type":"Kreisangehörige_Gemeinde"},"district":{"key":"09771","name":"Aichach-Friedberg","type":"Landkreis"},"federalState":{"key":"09","name":"Bayern"}},{"name":"Iringstr.","postalCode":"97688","locality":"Bad Kissingen","municipality":{"key":"09672114","name":"Bad Kissingen, GKSt","type":"Große_Kreisstadt"},"district":{"key":"09672","name":"Bad Kissingen","type":"Landkreis"},"federalState":{"key":"09","name":"Bayern"}},{"name":"Jägerstr.","postalCode":"97688","locality":"Bad Kissingen","municipality":{"key":"09672114","name":"Bad Kissingen, GKSt","type":"Große_Kreisstadt"},"district":{"key":"09672","name":"Bad Kissingen","type":"Landkreis"},"federalState":{"key":"09","name":"Bayern"}},{"name":"Jahnstr.","postalCode":"97688","locality":"Bad Kissingen","municipality":{"key":"09672114","name":"Bad Kissingen, GKSt","type":"Große_Kreisstadt"},"district":{"key":"09672","name":"Bad Kissingen","type":"Landkreis"},"federalState":{"key":"09","name":"Bayern"}},{"name":"Jean-Paul-Str.","postalCode":"97688","locality":"Bad Kissingen","municipality":{"key":"09672114","name":"Bad Kissingen, GKSt","type":"Große_Kreisstadt"},"district":{"key":"09672","name":"Bad Kissingen","type":"Landkreis"},"federalState":{"key":"09","name":"Bayern"}},{"name":"Johannes-Brahms-Str.","postalCode":"97688","locality":"Bad Kissingen","municipality":{"key":"09672114","name":"Bad Kissingen, GKSt","type":"Große_Kreisstadt"},"district":{"key":"09672","name":"Bad Kissingen","type":"Landkreis"},"federalState":{"key":"09","name":"Bayern"}},{"name":"Johannisstr.","postalCode":"97688","locality":"Bad Kissingen","municipality":{"key":"09672114","name":"Bad Kissingen, GKSt","type":"Große_Kreisstadt"},"district":{"key":"09672","name":"Bad Kissingen","type":"Landkreis"},"federalState":{"key":"09","name":"Bayern"}},{"name":"Johann-Peter-Heinlein-Str.","postalCode":"97688","locality":"Bad Kissingen","municipality":{"key":"09672114","name":"Bad Kissingen, GKSt","type":"Große_Kreisstadt"},"district":{"key":"09672","name":"Bad Kissingen","type":"Landkreis"},"federalState":{"key":"09","name":"Bayern"}},{"name":"Johann-Phillipp-Geigel-Str.","postalCode":"97688","locality":"Bad Kissingen","municipality":{"key":"09672114","name":"Bad Kissingen, GKSt","type":"Große_Kreisstadt"},"district":{"key":"09672","name":"Bad Kissingen","type":"Landkreis"},"federalState":{"key":"09","name":"Bayern"}},{"name":"Joseph-Haydn-Str.","postalCode":"97688","locality":"Bad Kissingen","municipality":{"key":"09672114","name":"Bad Kissingen, GKSt","type":"Große_Kreisstadt"},"district":{"key":"09672","name":"Bad Kissingen","type":"Landkreis"},"federalState":{"key":"09","name":"Bayern"}},{"name":"Julius-Echter-Str.","postalCode":"97688","locality":"Bad Kissingen","municipality":{"key":"09672114","name":"Bad Kissingen, GKSt","type":"Große_Kreisstadt"},"district":{"key":"09672","name":"Bad Kissingen","type":"Landkreis"},"federalState":{"key":"09","name":"Bayern"}},{"name":"Kantstr.","postalCode":"97688","locality":"Bad Kissingen","municipality":{"key":"09672114","name":"Bad Kissingen, GKSt","type":"Große_Kreisstadt"},"district":{"key":"09672","name":"Bad Kissingen","type":"Landkreis"},"federalState":{"key":"09","name":"Bayern"}},{"name":"Kapellenpfad","postalCode":"97688","locality":"Bad Kissingen","municipality":{"key":"09672114","name":"Bad Kissingen, GKSt","type":"Große_Kreisstadt"},"district":{"key":"09672","name":"Bad Kissingen","type":"Landkreis"},"federalState":{"key":"09","name":"Bayern"}},{"name":"Kapellenstr.","postalCode":"97688","locality":"Bad Kissingen","municipality":{"key":"09672114","name":"Bad Kissingen, GKSt","type":"Große_Kreisstadt"},"district":{"key":"09672","name":"Bad Kissingen","type":"Landkreis"},"federalState":{"key":"09","name":"Bayern"}},{"name":"Kardinal-Döpfner-Str.","postalCode":"97688","locality":"Bad Kissingen","municipality":{"key":"09672114","name":"Bad Kissingen, GKSt","type":"Große_Kreisstadt"},"district":{"key":"09672","name":"Bad Kissingen","type":"Landkreis"},"federalState":{"key":"09","name":"Bayern"}},{"name":"Karl-Kreuzer-Weg","postalCode":"86438","locality":"Kissing","municipality":{"key":"09771142","name":"Kissing","type":"Kreisangehörige_Gemeinde"},"district":{"key":"09771","name":"Aichach-Friedberg","type":"Landkreis"},"federalState":{"key":"09","name":"Bayern"}},{"name":"Karl-Pfister-Str.","postalCode":"97688","locality":"Bad Kissingen","municipality":{"key":"09672114","name":"Bad Kissingen, GKSt","type":"Große_Kreisstadt"},"district":{"key":"09672","name":"Bad Kissingen","type":"Landkreis"},"federalState":{"key":"09","name":"Bayern"}},{"name":"Karl-Renninger-Str.","postalCode":"97688","locality":"Bad Kissingen","municipality":{"key":"09672114","name":"Bad Kissingen, GKSt","type":"Große_Kreisstadt"},"district":{"key":"09672","name":"Bad Kissingen","type":"Landkreis"},"federalState":{"key":"09","name":"Bayern"}},{"name":"Karlsbader Str.","postalCode":"86438","locality":"Kissing","municipality":{"key":"09771142","name":"Kissing","type":"Kreisangehörige_Gemeinde"},"district":{"key":"09771","name":"Aichach-Friedberg","type":"Landkreis"},"federalState":{"key":"09","name":"Bayern"}},{"name":"Karl-Straub-Weg","postalCode":"97688","locality":"Bad Kissingen","municipality":{"key":"09672114","name":"Bad Kissingen, GKSt","type":"Große_Kreisstadt"},"district":{"key":"09672","name":"Bad Kissingen","type":"Landkreis"},"federalState":{"key":"09","name":"Bayern"}},{"name":"Karl-Streit-Str.","postalCode":"97688","locality":"Bad Kissingen","municipality":{"key":"09672114","name":"Bad Kissingen, GKSt","type":"Große_Kreisstadt"},"district":{"key":"09672","name":"Bad Kissingen","type":"Landkreis"},"federalState":{"key":"09","name":"Bayern"}},{"name":"Karwendelweg","postalCode":"86438","locality":"Kissing","municipality":{"key":"09771142","name":"Kissing","type":"Kreisangehörige_Gemeinde"},"district":{"key":"09771","name":"Aichach-Friedberg","type":"Landkreis"},"federalState":{"key":"09","name":"Bayern"}},{"name":"Kasernenstr.","postalCode":"97688","locality":"Bad Kissingen","municipality":{"key":"09672114","name":"Bad Kissingen, GKSt","type":"Große_Kreisstadt"},"district":{"key":"09672","name":"Bad Kissingen","type":"Landkreis"},"federalState":{"key":"09","name":"Bayern"}},{"name":"Kastanienstr.","postalCode":"97688","locality":"Bad Kissingen","municipality":{"key":"09672114","name":"Bad Kissingen, GKSt","type":"Große_Kreisstadt"},"district":{"key":"09672","name":"Bad Kissingen","type":"Landkreis"},"federalState":{"key":"09","name":"Bayern"}},{"name":"Keltenstr.","postalCode":"86438","locality":"Kissing","municipality":{"key":"09771142","name":"Kissing","type":"Kreisangehörige_Gemeinde"},"district":{"key":"09771","name":"Aichach-Friedberg","type":"Landkreis"},"federalState":{"key":"09","name":"Bayern"}},{"name":"Kemptener Weg","postalCode":"86438","locality":"Kissing","municipality":{"key":"09771142","name":"Kissing","type":"Kreisangehörige_Gemeinde"},"district":{"key":"09771","name":"Aichach-Friedberg","type":"Landkreis"},"federalState":{"key":"09","name":"Bayern"}},{"name":"Kiefernstr.","postalCode":"97688","locality":"Bad Kissingen","municipality":{"key":"09672114","name":"Bad Kissingen, GKSt","type":"Große_Kreisstadt"},"district":{"key":"09672","name":"Bad Kissingen","type":"Landkreis"},"federalState":{"key":"09","name":"Bayern"}},{"name":"Kiesweg","postalCode":"86438","locality":"Kissing","municipality":{"key":"09771142","name":"Kissing","type":"Kreisangehörige_Gemeinde"},"district":{"key":"09771","name":"Aichach-Friedberg","type":"Landkreis"},"federalState":{"key":"09","name":"Bayern"}},{"name":"Kirchberg","postalCode":"86438","locality":"Kissing","municipality":{"key":"09771142","name":"Kissing","type":"Kreisangehörige_Gemeinde"},"district":{"key":"09771","name":"Aichach-Friedberg","type":"Landkreis"},"federalState":{"key":"09","name":"Bayern"}},{"name":"Kirchbergstr.","postalCode":"97688","locality":"Bad Kissingen","municipality":{"key":"09672114","name":"Bad Kissingen, GKSt","type":"Große_Kreisstadt"},"district":{"key":"09672","name":"Bad Kissingen","type":"Landkreis"},"federalState":{"key":"09","name":"Bayern"}},{"name":"Kirchstr.","postalCode":"86438","locality":"Kissing","municipality":{"key":"09771142","name":"Kissing","type":"Kreisangehörige_Gemeinde"},"district":{"key":"09771","name":"Aichach-Friedberg","type":"Landkreis"},"federalState":{"key":"09","name":"Bayern"}},{"name":"Kissing Bahnhof","postalCode":"86438","locality":"Kissing","municipality":{"key":"09771142","name":"Kissing","type":"Kreisangehörige_Gemeinde"},"district":{"key":"09771","name":"Aichach-Friedberg","type":"Landkreis"},"federalState":{"key":"09","name":"Bayern"}},{"name":"Kissinger Str.","postalCode":"97688","locality":"Bad Kissingen","municipality":{"key":"09672114","name":"Bad Kissingen, GKSt","type":"Große_Kreisstadt"},"district":{"key":"09672","name":"Bad Kissingen","type":"Landkreis"},"federalState":{"key":"09","name":"Bayern"}},{"name":"Kleinbracher Str.","postalCode":"97688","locality":"Bad Kissingen","municipality":{"key":"09672114","name":"Bad Kissingen, GKSt","type":"Große_Kreisstadt"},"district":{"key":"09672","name":"Bad Kissingen","type":"Landkreis"},"federalState":{"key":"09","name":"Bayern"}},{"name":"Klinikstr.","postalCode":"97688","locality":"Bad Kissingen","municipality":{"key":"09672114","name":"Bad Kissingen, GKSt","type":"Große_Kreisstadt"},"district":{"key":"09672","name":"Bad Kissingen","type":"Landkreis"},"federalState":{"key":"09","name":"Bayern"}},{"name":"Klosterweg","postalCode":"97688","locality":"Bad Kissingen","municipality":{"key":"09672114","name":"Bad Kissingen, GKSt","type":"Große_Kreisstadt"},"district":{"key":"09672","name":"Bad Kissingen","type":"Landkreis"},"federalState":{"key":"09","name":"Bayern"}},{"name":"Kochelseestr.","postalCode":"86438","locality":"Kissing","municipality":{"key":"09771142","name":"Kissing","type":"Kreisangehörige_Gemeinde"},"district":{"key":"09771","name":"Aichach-Friedberg","type":"Landkreis"},"federalState":{"key":"09","name":"Bayern"}},{"name":"Kolpingstr.","postalCode":"97688","locality":"Bad Kissingen","municipality":{"key":"09672114","name":"Bad Kissingen, GKSt","type":"Große_Kreisstadt"},"district":{"key":"09672","name":"Bad Kissingen","type":"Landkreis"},"federalState":{"key":"09","name":"Bayern"}},{"name":"Königsberger Str.","postalCode":"86438","locality":"Kissing","municipality":{"key":"09771142","name":"Kissing","type":"Kreisangehörige_Gemeinde"},"district":{"key":"09771","name":"Aichach-Friedberg","type":"Landkreis"},"federalState":{"key":"09","name":"Bayern"}},{"name":"Königsberger Str.","postalCode":"97688","locality":"Bad Kissingen","municipality":{"key":"09672114","name":"Bad Kissingen, GKSt","type":"Große_Kreisstadt"},"district":{"key":"09672","name":"Bad Kissingen","type":"Landkreis"},"federalState":{"key":"09","name":"Bayern"}},{"name":"Kornstr.","postalCode":"86438","locality":"Kissing","municipality":{"key":"09771142","name":"Kissing","type":"Kreisangehörige_Gemeinde"},"district":{"key":"09771","name":"Aichach-Friedberg","type":"Landkreis"},"federalState":{"key":"09","name":"Bayern"}},{"name":"Kornweg","postalCode":"97688","locality":"Bad Kissingen","municipality":{"key":"09672114","name":"Bad Kissingen, GKSt","type":"Große_Kreisstadt"},"district":{"key":"09672","name":"Bad Kissingen","type":"Landkreis"},"federalState":{"key":"09","name":"Bayern"}},{"name":"Krautgartenweg","postalCode":"86438","locality":"Kissing","municipality":{"key":"09771142","name":"Kissing","type":"Kreisangehörige_Gemeinde"},"district":{"key":"09771","name":"Aichach-Friedberg","type":"Landkreis"},"federalState":{"key":"09","name":"Bayern"}},{"name":"Kreuzbergstr.","postalCode":"97688","locality":"Bad Kissingen","municipality":{"key":"09672114","name":"Bad Kissingen, GKSt","type":"Große_Kreisstadt"},"district":{"key":"09672","name":"Bad Kissingen","type":"Landkreis"},"federalState":{"key":"09","name":"Bayern"}},{"name":"Kreuzweg","postalCode":"86438","locality":"Kissing","municipality":{"key":"09771142","name":"Kissing","type":"Kreisangehörige_Gemeinde"},"district":{"key":"09771","name":"Aichach-Friedberg","type":"Landkreis"},"federalState":{"key":"09","name":"Bayern"}},{"name":"Kreuzweg","postalCode":"97688","locality":"Bad Kissingen","municipality":{"key":"09672114","name":"Bad Kissingen, GKSt","type":"Große_Kreisstadt"},"district":{"key":"09672","name":"Bad Kissingen","type":"Landkreis"},"federalState":{"key":"09","name":"Bayern"}},{"name":"Krumbachsberg","postalCode":"97688","locality":"Bad Kissingen","municipality":{"key":"09672114","name":"Bad Kissingen, GKSt","type":"Große_Kreisstadt"},"district":{"key":"09672","name":"Bad Kissingen","type":"Landkreis"},"federalState":{"key":"09","name":"Bayern"}},{"name":"Kurgarten","postalCode":"97688","locality":"Bad Kissingen","municipality":{"key":"09672114","name":"Bad Kissingen, GKSt","type":"Große_Kreisstadt"},"district":{"key":"09672","name":"Bad Kissingen","type":"Landkreis"},"federalState":{"key":"09","name":"Bayern"}},{"name":"Kurhausstr.","postalCode":"97688","locality":"Bad Kissingen","municipality":{"key":"09672114","name":"Bad Kissingen, GKSt","type":"Große_Kreisstadt"},"district":{"key":"09672","name":"Bad Kissingen","type":"Landkreis"},"federalState":{"key":"09","name":"Bayern"}},{"name":"Landwehrstr.","postalCode":"97688","locality":"Bad Kissingen","municipality":{"key":"09672114","name":"Bad Kissingen, GKSt","type":"Große_Kreisstadt"},"district":{"key":"09672","name":"Bad Kissingen","type":"Landkreis"},"federalState":{"key":"09","name":"Bayern"}},{"name":"Lange Elle","postalCode":"86438","locality":"Kissing","municipality":{"key":"09771142","name":"Kissing","type":"Kreisangehörige_Gemeinde"},"district":{"key":"09771","name":"Aichach-Friedberg","type":"Landkreis"},"federalState":{"key":"09","name":"Bayern"}},{"name":"Lärchenweg","postalCode":"97688","locality":"Bad Kissingen","municipality":{"key":"09672114","name":"Bad Kissingen, GKSt","type":"Große_Kreisstadt"},"district":{"key":"09672","name":"Bad Kissingen","type":"Landkreis"},"federalState":{"key":"09","name":"Bayern"}},{"name":"Lechauenstr.","postalCode":"86438","locality":"Kissing","municipality":{"key":"09771142","name":"Kissing","type":"Kreisangehörige_Gemeinde"},"district":{"key":"09771","name":"Aichach-Friedberg","type":"Landkreis"},"federalState":{"key":"09","name":"Bayern"}},{"name":"Lechfeldstr.","postalCode":"86438","locality":"Kissing","municipality":{"key":"09771142","name":"Kissing","type":"Kreisangehörige_Gemeinde"},"district":{"key":"09771","name":"Aichach-Friedberg","type":"Landkreis"},"federalState":{"key":"09","name":"Bayern"}},{"name":"Lehmgrube","postalCode":"97688","locality":"Bad Kissingen","municipality":{"key":"09672114","name":"Bad Kissingen, GKSt","type":"Große_Kreisstadt"},"district":{"key":"09672","name":"Bad Kissingen","type":"Landkreis"},"federalState":{"key":"09","name":"Bayern"}},{"name":"Leibnizstr.","postalCode":"97688","locality":"Bad Kissingen","municipality":{"key":"09672114","name":"Bad Kissingen, GKSt","type":"Große_Kreisstadt"},"district":{"key":"09672","name":"Bad Kissingen","type":"Landkreis"},"federalState":{"key":"09","name":"Bayern"}},{"name":"Leitenweg","postalCode":"86438","locality":"Kissing","municipality":{"key":"09771142","name":"Kissing","type":"Kreisangehörige_Gemeinde"},"district":{"key":"09771","name":"Aichach-Friedberg","type":"Landkreis"},"federalState":{"key":"09","name":"Bayern"}},{"name":"Lenbachstr.","postalCode":"97688","locality":"Bad Kissingen","municipality":{"key":"09672114","name":"Bad Kissingen, GKSt","type":"Große_Kreisstadt"},"district":{"key":"09672","name":"Bad Kissingen","type":"Landkreis"},"federalState":{"key":"09","name":"Bayern"}},{"name":"Lerchstr.","postalCode":"86438","locality":"Kissing","municipality":{"key":"09771142","name":"Kissing","type":"Kreisangehörige_Gemeinde"},"district":{"key":"09771","name":"Aichach-Friedberg","type":"Landkreis"},"federalState":{"key":"09","name":"Bayern"}},{"name":"Lessingstr.","postalCode":"86438","locality":"Kissing","municipality":{"key":"09771142","name":"Kissing","type":"Kreisangehörige_Gemeinde"},"district":{"key":"09771","name":"Aichach-Friedberg","type":"Landkreis"},"federalState":{"key":"09","name":"Bayern"}},{"name":"Lessingstr.","postalCode":"97688","locality":"Bad Kissingen","municipality":{"key":"09672114","name":"Bad Kissingen, GKSt","type":"Große_Kreisstadt"},"district":{"key":"09672","name":"Bad Kissingen","type":"Landkreis"},"federalState":{"key":"09","name":"Bayern"}},{"name":"Liebfrauensee","postalCode":"97688","locality":"Bad Kissingen","municipality":{"key":"09672114","name":"Bad Kissingen, GKSt","type":"Große_Kreisstadt"},"district":{"key":"09672","name":"Bad Kissingen","type":"Landkreis"},"federalState":{"key":"09","name":"Bayern"}},{"name":"Liebigstr.","postalCode":"97688","locality":"Bad Kissingen","municipality":{"key":"09672114","name":"Bad Kissingen, GKSt","type":"Große_Kreisstadt"},"district":{"key":"09672","name":"Bad Kissingen","type":"Landkreis"},"federalState":{"key":"09","name":"Bayern"}},{"name":"Liegewiese","postalCode":"97688","locality":"Bad Kissingen","municipality":{"key":"09672114","name":"Bad Kissingen, GKSt","type":"Große_Kreisstadt"},"district":{"key":"09672","name":"Bad Kissingen","type":"Landkreis"},"federalState":{"key":"09","name":"Bayern"}},{"name":"Lilienstr.","postalCode":"86438","locality":"Kissing","municipality":{"key":"09771142","name":"Kissing","type":"Kreisangehörige_Gemeinde"},"district":{"key":"09771","name":"Aichach-Friedberg","type":"Landkreis"},"federalState":{"key":"09","name":"Bayern"}},{"name":"Lilienstr.","postalCode":"97688","locality":"Bad Kissingen","municipality":{"key":"09672114","name":"Bad Kissingen, GKSt","type":"Große_Kreisstadt"},"district":{"key":"09672","name":"Bad Kissingen","type":"Landkreis"},"federalState":{"key":"09","name":"Bayern"}},{"name":"Lina-Schonder-Weg","postalCode":"97688","locality":"Bad Kissingen","municipality":{"key":"09672114","name":"Bad Kissingen, GKSt","type":"Große_Kreisstadt"},"district":{"key":"09672","name":"Bad Kissingen","type":"Landkreis"},"federalState":{"key":"09","name":"Bayern"}},{"name":"Lindenstr.","postalCode":"86438","locality":"Kissing","municipality":{"key":"09771142","name":"Kissing","type":"Kreisangehörige_Gemeinde"},"district":{"key":"09771","name":"Aichach-Friedberg","type":"Landkreis"},"federalState":{"key":"09","name":"Bayern"}},{"name":"Lindenstr.","postalCode":"97688","locality":"Bad Kissingen","municipality":{"key":"09672114","name":"Bad Kissingen, GKSt","type":"Große_Kreisstadt"},"district":{"key":"09672","name":"Bad Kissingen","type":"Landkreis"},"federalState":{"key":"09","name":"Bayern"}},{"name":"Lindesmühl Passage","postalCode":"97688","locality":"Bad Kissingen","municipality":{"key":"09672114","name":"Bad Kissingen, GKSt","type":"Große_Kreisstadt"},"district":{"key":"09672","name":"Bad Kissingen","type":"Landkreis"},"federalState":{"key":"09","name":"Bayern"}},{"name":"Lindesmühlpromenade","postalCode":"97688","locality":"Bad Kissingen","municipality":{"key":"09672114","name":"Bad Kissingen, GKSt","type":"Große_Kreisstadt"},"district":{"key":"09672","name":"Bad Kissingen","type":"Landkreis"},"federalState":{"key":"09","name":"Bayern"}},{"name":"Lindesmühlsteg","postalCode":"97688","locality":"Bad Kissingen","municipality":{"key":"09672114","name":"Bad Kissingen, GKSt","type":"Große_Kreisstadt"},"district":{"key":"09672","name":"Bad Kissingen","type":"Landkreis"},"federalState":{"key":"09","name":"Bayern"}},{"name":"Linsenrain","postalCode":"97688","locality":"Bad Kissingen","municipality":{"key":"09672114","name":"Bad Kissingen, GKSt","type":"Große_Kreisstadt"},"district":{"key":"09672","name":"Bad Kissingen","type":"Landkreis"},"federalState":{"key":"09","name":"Bayern"}},{"name":"Littmannstr.","postalCode":"97688","locality":"Bad Kissingen","municipality":{"key":"09672114","name":"Bad Kissingen, GKSt","type":"Große_Kreisstadt"},"district":{"key":"09672","name":"Bad Kissingen","type":"Landkreis"},"federalState":{"key":"09","name":"Bayern"}},{"name":"Lohgasse","postalCode":"86438","locality":"Kissing","municipality":{"key":"09771142","name":"Kissing","type":"Kreisangehörige_Gemeinde"},"district":{"key":"09771","name":"Aichach-Friedberg","type":"Landkreis"},"federalState":{"key":"09","name":"Bayern"}},{"name":"Löhlein","postalCode":"97688","locality":"Bad Kissingen","municipality":{"key":"09672114","name":"Bad Kissingen, GKSt","type":"Große_Kreisstadt"},"district":{"key":"09672","name":"Bad Kissingen","type":"Landkreis"},"federalState":{"key":"09","name":"Bayern"}},{"name":"Lollbachgasse","postalCode":"97688","locality":"Bad Kissingen","municipality":{"key":"09672114","name":"Bad Kissingen, GKSt","type":"Große_Kreisstadt"},"district":{"key":"09672","name":"Bad Kissingen","type":"Landkreis"},"federalState":{"key":"09","name":"Bayern"}},{"name":"Lönsweg","postalCode":"97688","locality":"Bad Kissingen","municipality":{"key":"09672114","name":"Bad Kissingen, GKSt","type":"Große_Kreisstadt"},"district":{"key":"09672","name":"Bad Kissingen","type":"Landkreis"},"federalState":{"key":"09","name":"Bayern"}},{"name":"Ludwig-Licha-Weg","postalCode":"97688","locality":"Bad Kissingen","municipality":{"key":"09672114","name":"Bad Kissingen, GKSt","type":"Große_Kreisstadt"},"district":{"key":"09672","name":"Bad Kissingen","type":"Landkreis"},"federalState":{"key":"09","name":"Bayern"}},{"name":"Ludwigstr.","postalCode":"97688","locality":"Bad Kissingen","municipality":{"key":"09672114","name":"Bad Kissingen, GKSt","type":"Große_Kreisstadt"},"district":{"key":"09672","name":"Bad Kissingen","type":"Landkreis"},"federalState":{"key":"09","name":"Bayern"}},{"name":"Ludwigturm KG","postalCode":"97688","locality":"Bad Kissingen","municipality":{"key":"09672114","name":"Bad Kissingen, GKSt","type":"Große_Kreisstadt"},"district":{"key":"09672","name":"Bad Kissingen","type":"Landkreis"},"federalState":{"key":"09","name":"Bayern"}},{"name":"Luitpoldpark","postalCode":"97688","locality":"Bad Kissingen","municipality":{"key":"09672114","name":"Bad Kissingen, GKSt","type":"Große_Kreisstadt"},"district":{"key":"09672","name":"Bad Kissingen","type":"Landkreis"},"federalState":{"key":"09","name":"Bayern"}},{"name":"Luitpoldsteg","postalCode":"97688","locality":"Bad Kissingen","municipality":{"key":"09672114","name":"Bad Kissingen, GKSt","type":"Große_Kreisstadt"},"district":{"key":"09672","name":"Bad Kissingen","type":"Landkreis"},"federalState":{"key":"09","name":"Bayern"}},{"name":"Männerholz","postalCode":"97688","locality":"Bad Kissingen","municipality":{"key":"09672114","name":"Bad Kissingen, GKSt","type":"Große_Kreisstadt"},"district":{"key":"09672","name":"Bad Kissingen","type":"Landkreis"},"federalState":{"key":"09","name":"Bayern"}},{"name":"Marbachweg","postalCode":"97688","locality":"Bad Kissingen","municipality":{"key":"09672114","name":"Bad Kissingen, GKSt","type":"Große_Kreisstadt"},"district":{"key":"09672","name":"Bad Kissingen","type":"Landkreis"},"federalState":{"key":"09","name":"Bayern"}},{"name":"Maria-Stern-Str.","postalCode":"97688","locality":"Bad Kissingen","municipality":{"key":"09672114","name":"Bad Kissingen, GKSt","type":"Große_Kreisstadt"},"district":{"key":"09672","name":"Bad Kissingen","type":"Landkreis"},"federalState":{"key":"09","name":"Bayern"}},{"name":"Maria-Ward-Weg","postalCode":"97688","locality":"Bad Kissingen","municipality":{"key":"09672114","name":"Bad Kissingen, GKSt","type":"Große_Kreisstadt"},"district":{"key":"09672","name":"Bad Kissingen","type":"Landkreis"},"federalState":{"key":"09","name":"Bayern"}},{"name":"Marie-Juchacz-Str.","postalCode":"86438","locality":"Kissing","municipality":{"key":"09771142","name":"Kissing","type":"Kreisangehörige_Gemeinde"},"district":{"key":"09771","name":"Aichach-Friedberg","type":"Landkreis"},"federalState":{"key":"09","name":"Bayern"}},{"name":"Marienplatz","postalCode":"97688","locality":"Bad Kissingen","municipality":{"key":"09672114","name":"Bad Kissingen, GKSt","type":"Große_Kreisstadt"},"district":{"key":"09672","name":"Bad Kissingen","type":"Landkreis"},"federalState":{"key":"09","name":"Bayern"}},{"name":"Marienweg","postalCode":"97688","locality":"Bad Kissingen","municipality":{"key":"09672114","name":"Bad Kissingen, GKSt","type":"Große_Kreisstadt"},"district":{"key":"09672","name":"Bad Kissingen","type":"Landkreis"},"federalState":{"key":"09","name":"Bayern"}},{"name":"Martin-Luther-Str.","postalCode":"97688","locality":"Bad Kissingen","municipality":{"key":"09672114","name":"Bad Kissingen, GKSt","type":"Große_Kreisstadt"},"district":{"key":"09672","name":"Bad Kissingen","type":"Landkreis"},"federalState":{"key":"09","name":"Bayern"}},{"name":"Massaplatz","postalCode":"97688","locality":"Bad Kissingen","municipality":{"key":"09672114","name":"Bad Kissingen, GKSt","type":"Große_Kreisstadt"},"district":{"key":"09672","name":"Bad Kissingen","type":"Landkreis"},"federalState":{"key":"09","name":"Bayern"}},{"name":"Max-Planck-Str.","postalCode":"86438","locality":"Kissing","municipality":{"key":"09771142","name":"Kissing","type":"Kreisangehörige_Gemeinde"},"district":{"key":"09771","name":"Aichach-Friedberg","type":"Landkreis"},"federalState":{"key":"09","name":"Bayern"}},{"name":"Max-Planck-Weg","postalCode":"97688","locality":"Bad Kissingen","municipality":{"key":"09672114","name":"Bad Kissingen, GKSt","type":"Große_Kreisstadt"},"district":{"key":"09672","name":"Bad Kissingen","type":"Landkreis"},"federalState":{"key":"09","name":"Bayern"}},{"name":"Max-Reger-Str.","postalCode":"97688","locality":"Bad Kissingen","municipality":{"key":"09672114","name":"Bad Kissingen, GKSt","type":"Große_Kreisstadt"},"district":{"key":"09672","name":"Bad Kissingen","type":"Landkreis"},"federalState":{"key":"09","name":"Bayern"}},{"name":"Maxstr.","postalCode":"97688","locality":"Bad Kissingen","municipality":{"key":"09672114","name":"Bad Kissingen, GKSt","type":"Große_Kreisstadt"},"district":{"key":"09672","name":"Bad Kissingen","type":"Landkreis"},"federalState":{"key":"09","name":"Bayern"}},{"name":"Mecklenburger Weg","postalCode":"86438","locality":"Kissing","municipality":{"key":"09771142","name":"Kissing","type":"Kreisangehörige_Gemeinde"},"district":{"key":"09771","name":"Aichach-Friedberg","type":"Landkreis"},"federalState":{"key":"09","name":"Bayern"}},{"name":"Meisenweg","postalCode":"86438","locality":"Kissing","municipality":{"key":"09771142","name":"Kissing","type":"Kreisangehörige_Gemeinde"},"district":{"key":"09771","name":"Aichach-Friedberg","type":"Landkreis"},"federalState":{"key":"09","name":"Bayern"}},{"name":"Menzel-Steg","postalCode":"97688","locality":"Bad Kissingen","municipality":{"key":"09672114","name":"Bad Kissingen, GKSt","type":"Große_Kreisstadt"},"district":{"key":"09672","name":"Bad Kissingen","type":"Landkreis"},"federalState":{"key":"09","name":"Bayern"}},{"name":"Menzelstr.","postalCode":"97688","locality":"Bad Kissingen","municipality":{"key":"09672114","name":"Bad Kissingen, GKSt","type":"Große_Kreisstadt"},"district":{"key":"09672","name":"Bad Kissingen","type":"Landkreis"},"federalState":{"key":"09","name":"Bayern"}},{"name":"Mergenthauer Weg","postalCode":"86438","locality":"Kissing","municipality":{"key":"09771142","name":"Kissing","type":"Kreisangehörige_Gemeinde"},"district":{"key":"09771","name":"Aichach-Friedberg","type":"Landkreis"},"federalState":{"key":"09","name":"Bayern"}},{"name":"Meringer Str.","postalCode":"86438","locality":"Kissing","municipality":{"key":"09771142","name":"Kissing","type":"Kreisangehörige_Gemeinde"},"district":{"key":"09771","name":"Aichach-Friedberg","type":"Landkreis"},"federalState":{"key":"09","name":"Bayern"}},{"name":"Minnesängerstr.","postalCode":"97688","locality":"Bad Kissingen","municipality":{"key":"09672114","name":"Bad Kissingen, GKSt","type":"Große_Kreisstadt"},"district":{"key":"09672","name":"Bad Kissingen","type":"Landkreis"},"federalState":{"key":"09","name":"Bayern"}},{"name":"Mittlerer Kulturweg","postalCode":"86438","locality":"Kissing","municipality":{"key":"09771142","name":"Kissing","type":"Kreisangehörige_Gemeinde"},"district":{"key":"09771","name":"Aichach-Friedberg","type":"Landkreis"},"federalState":{"key":"09","name":"Bayern"}},{"name":"Mittlerer Weg","postalCode":"86438","locality":"Kissing","municipality":{"key":"09771142","name":"Kissing","type":"Kreisangehörige_Gemeinde"},"district":{"key":"09771","name":"Aichach-Friedberg","type":"Landkreis"},"federalState":{"key":"09","name":"Bayern"}},{"name":"Mittlerer Weg","postalCode":"97688","locality":"Bad Kissingen","municipality":{"key":"09672114","name":"Bad Kissingen, GKSt","type":"Große_Kreisstadt"},"district":{"key":"09672","name":"Bad Kissingen","type":"Landkreis"},"federalState":{"key":"09","name":"Bayern"}},{"name":"Mohnstr.","postalCode":"86438","locality":"Kissing","municipality":{"key":"09771142","name":"Kissing","type":"Kreisangehörige_Gemeinde"},"district":{"key":"09771","name":"Aichach-Friedberg","type":"Landkreis"},"federalState":{"key":"09","name":"Bayern"}},{"name":"Moosstr.","postalCode":"97688","locality":"Bad Kissingen","municipality":{"key":"09672114","name":"Bad Kissingen, GKSt","type":"Große_Kreisstadt"},"district":{"key":"09672","name":"Bad Kissingen","type":"Landkreis"},"federalState":{"key":"09","name":"Bayern"}},{"name":"Mozartallee","postalCode":"86438","locality":"Kissing","municipality":{"key":"09771142","name":"Kissing","type":"Kreisangehörige_Gemeinde"},"district":{"key":"09771","name":"Aichach-Friedberg","type":"Landkreis"},"federalState":{"key":"09","name":"Bayern"}},{"name":"Mozartstr.","postalCode":"97688","locality":"Bad Kissingen","municipality":{"key":"09672114","name":"Bad Kissingen, GKSt","type":"Große_Kreisstadt"},"district":{"key":"09672","name":"Bad Kissingen","type":"Landkreis"},"federalState":{"key":"09","name":"Bayern"}},{"name":"MTB","postalCode":"97688","locality":"Bad Kissingen","municipality":{"key":"09672114","name":"Bad Kissingen, GKSt","type":"Große_Kreisstadt"},"district":{"key":"09672","name":"Bad Kissingen","type":"Landkreis"},"federalState":{"key":"09","name":"Bayern"}},{"name":"Mühlberg","postalCode":"97688","locality":"Bad Kissingen","municipality":{"key":"09672114","name":"Bad Kissingen, GKSt","type":"Große_Kreisstadt"},"district":{"key":"09672","name":"Bad Kissingen","type":"Landkreis"},"federalState":{"key":"09","name":"Bayern"}},{"name":"Müllersgasse","postalCode":"97688","locality":"Bad Kissingen","municipality":{"key":"09672114","name":"Bad Kissingen, GKSt","type":"Große_Kreisstadt"},"district":{"key":"09672","name":"Bad Kissingen","type":"Landkreis"},"federalState":{"key":"09","name":"Bayern"}},{"name":"Münchner Str.","postalCode":"86438","locality":"Kissing","municipality":{"key":"09771142","name":"Kissing","type":"Kreisangehörige_Gemeinde"},"district":{"key":"09771","name":"Aichach-Friedberg","type":"Landkreis"},"federalState":{"key":"09","name":"Bayern"}},{"name":"Münchner Str.","postalCode":"97688","locality":"Bad Kissingen","municipality":{"key":"09672114","name":"Bad Kissingen, GKSt","type":"Große_Kreisstadt"},"district":{"key":"09672","name":"Bad Kissingen","type":"Landkreis"},"federalState":{"key":"09","name":"Bayern"}},{"name":"Münnerstädter Str.","postalCode":"97688","locality":"Bad Kissingen","municipality":{"key":"09672114","name":"Bad Kissingen, GKSt","type":"Große_Kreisstadt"},"district":{"key":"09672","name":"Bad Kissingen","type":"Landkreis"},"federalState":{"key":"09","name":"Bayern"}},{"name":"Münzweg","postalCode":"97688","locality":"Bad Kissingen","municipality":{"key":"09672114","name":"Bad Kissingen, GKSt","type":"Große_Kreisstadt"},"district":{"key":"09672","name":"Bad Kissingen","type":"Landkreis"},"federalState":{"key":"09","name":"Bayern"}},{"name":"Nelkenstr.","postalCode":"86438","locality":"Kissing","municipality":{"key":"09771142","name":"Kissing","type":"Kreisangehörige_Gemeinde"},"district":{"key":"09771","name":"Aichach-Friedberg","type":"Landkreis"},"federalState":{"key":"09","name":"Bayern"}},{"name":"Nepomukgasse","postalCode":"97688","locality":"Bad Kissingen","municipality":{"key":"09672114","name":"Bad Kissingen, GKSt","type":"Große_Kreisstadt"},"district":{"key":"09672","name":"Bad Kissingen","type":"Landkreis"},"federalState":{"key":"09","name":"Bayern"}},{"name":"Neulandstr.","postalCode":"97688","locality":"Bad Kissingen","municipality":{"key":"09672114","name":"Bad Kissingen, GKSt","type":"Große_Kreisstadt"},"district":{"key":"09672","name":"Bad Kissingen","type":"Landkreis"},"federalState":{"key":"09","name":"Bayern"}},{"name":"Nikolaus-Fey-Str.","postalCode":"97688","locality":"Bad Kissingen","municipality":{"key":"09672114","name":"Bad Kissingen, GKSt","type":"Große_Kreisstadt"},"district":{"key":"09672","name":"Bad Kissingen","type":"Landkreis"},"federalState":{"key":"09","name":"Bayern"}},{"name":"Nordring","postalCode":"97688","locality":"Bad Kissingen","municipality":{"key":"09672114","name":"Bad Kissingen, GKSt","type":"Große_Kreisstadt"},"district":{"key":"09672","name":"Bad Kissingen","type":"Landkreis"},"federalState":{"key":"09","name":"Bayern"}},{"name":"Nüdlinger Str.","postalCode":"97688","locality":"Bad Kissingen","municipality":{"key":"09672114","name":"Bad Kissingen, GKSt","type":"Große_Kreisstadt"},"district":{"key":"09672","name":"Bad Kissingen","type":"Landkreis"},"federalState":{"key":"09","name":"Bayern"}},{"name":"Oberer Mühlweg","postalCode":"97688","locality":"Bad Kissingen","municipality":{"key":"09672114","name":"Bad Kissingen, GKSt","type":"Große_Kreisstadt"},"district":{"key":"09672","name":"Bad Kissingen","type":"Landkreis"},"federalState":{"key":"09","name":"Bayern"}},{"name":"Oberer Steinberg","postalCode":"97688","locality":"Bad Kissingen","municipality":{"key":"09672114","name":"Bad Kissingen, GKSt","type":"Große_Kreisstadt"},"district":{"key":"09672","name":"Bad Kissingen","type":"Landkreis"},"federalState":{"key":"09","name":"Bayern"}},{"name":"Oberer Weg","postalCode":"97688","locality":"Bad Kissingen","municipality":{"key":"09672114","name":"Bad Kissingen, GKSt","type":"Große_Kreisstadt"},"district":{"key":"09672","name":"Bad Kissingen","type":"Landkreis"},"federalState":{"key":"09","name":"Bayern"}},{"name":"Oberer Zollweg","postalCode":"97688","locality":"Bad Kissingen","municipality":{"key":"09672114","name":"Bad Kissingen, GKSt","type":"Große_Kreisstadt"},"district":{"key":"09672","name":"Bad Kissingen","type":"Landkreis"},"federalState":{"key":"09","name":"Bayern"}},{"name":"Obere Saline","postalCode":"97688","locality":"Bad Kissingen","municipality":{"key":"09672114","name":"Bad Kissingen, GKSt","type":"Große_Kreisstadt"},"district":{"key":"09672","name":"Bad Kissingen","type":"Landkreis"},"federalState":{"key":"09","name":"Bayern"}},{"name":"Oberländer Str.","postalCode":"86438","locality":"Kissing","municipality":{"key":"09771142","name":"Kissing","type":"Kreisangehörige_Gemeinde"},"district":{"key":"09771","name":"Aichach-Friedberg","type":"Landkreis"},"federalState":{"key":"09","name":"Bayern"}},{"name":"Ohmstr.","postalCode":"97688","locality":"Bad Kissingen","municipality":{"key":"09672114","name":"Bad Kissingen, GKSt","type":"Große_Kreisstadt"},"district":{"key":"09672","name":"Bad Kissingen","type":"Landkreis"},"federalState":{"key":"09","name":"Bayern"}},{"name":"Oskar-von-Miller-Str.","postalCode":"97688","locality":"Bad Kissingen","municipality":{"key":"09672114","name":"Bad Kissingen, GKSt","type":"Große_Kreisstadt"},"district":{"key":"09672","name":"Bad Kissingen","type":"Landkreis"},"federalState":{"key":"09","name":"Bayern"}},{"name":"Osterbergweg","postalCode":"97688","locality":"Bad Kissingen","municipality":{"key":"09672114","name":"Bad Kissingen, GKSt","type":"Große_Kreisstadt"},"district":{"key":"09672","name":"Bad Kissingen","type":"Landkreis"},"federalState":{"key":"09","name":"Bayern"}},{"name":"Osterkreuzweg","postalCode":"86438","locality":"Kissing","municipality":{"key":"09771142","name":"Kissing","type":"Kreisangehörige_Gemeinde"},"district":{"key":"09771","name":"Aichach-Friedberg","type":"Landkreis"},"federalState":{"key":"09","name":"Bayern"}},{"name":"Ostring","postalCode":"97688","locality":"Bad Kissingen","municipality":{"key":"09672114","name":"Bad Kissingen, GKSt","type":"Große_Kreisstadt"},"district":{"key":"09672","name":"Bad Kissingen","type":"Landkreis"},"federalState":{"key":"09","name":"Bayern"}},{"name":"Ottmaringer Str.","postalCode":"86438","locality":"Kissing","municipality":{"key":"09771142","name":"Kissing","type":"Kreisangehörige_Gemeinde"},"district":{"key":"09771","name":"Aichach-Friedberg","type":"Landkreis"},"federalState":{"key":"09","name":"Bayern"}},{"name":"Otto-Hahn-Str.","postalCode":"97688","locality":"Bad Kissingen","municipality":{"key":"09672114","name":"Bad Kissingen, GKSt","type":"Große_Kreisstadt"},"district":{"key":"09672","name":"Bad Kissingen","type":"Landkreis"},"federalState":{"key":"09","name":"Bayern"}},{"name":"Ottostr.","postalCode":"97688","locality":"Bad Kissingen","municipality":{"key":"09672114","name":"Bad Kissingen, GKSt","type":"Große_Kreisstadt"},"district":{"key":"09672","name":"Bad Kissingen","type":"Landkreis"},"federalState":{"key":"09","name":"Bayern"}},{"name":"Paarfeldstr.","postalCode":"86438","locality":"Kissing","municipality":{"key":"09771142","name":"Kissing","type":"Kreisangehörige_Gemeinde"},"district":{"key":"09771","name":"Aichach-Friedberg","type":"Landkreis"},"federalState":{"key":"09","name":"Bayern"}},{"name":"Paargasse","postalCode":"86438","locality":"Kissing","municipality":{"key":"09771142","name":"Kissing","type":"Kreisangehörige_Gemeinde"},"district":{"key":"09771","name":"Aichach-Friedberg","type":"Landkreis"},"federalState":{"key":"09","name":"Bayern"}},{"name":"Parkstr.","postalCode":"97688","locality":"Bad Kissingen","municipality":{"key":"09672114","name":"Bad Kissingen, GKSt","type":"Große_Kreisstadt"},"district":{"key":"09672","name":"Bad Kissingen","type":"Landkreis"},"federalState":{"key":"09","name":"Bayern"}},{"name":"Pater Reinisch Weg","postalCode":"97688","locality":"Bad Kissingen","municipality":{"key":"09672114","name":"Bad Kissingen, GKSt","type":"Große_Kreisstadt"},"district":{"key":"09672","name":"Bad Kissingen","type":"Landkreis"},"federalState":{"key":"09","name":"Bayern"}},{"name":"Paul-Haertl-Str.","postalCode":"97688","locality":"Bad Kissingen","municipality":{"key":"09672114","name":"Bad Kissingen, GKSt","type":"Große_Kreisstadt"},"district":{"key":"09672","name":"Bad Kissingen","type":"Landkreis"},"federalState":{"key":"09","name":"Bayern"}},{"name":"Pestalozzistr.","postalCode":"86438","locality":"Kissing","municipality":{"key":"09771142","name":"Kissing","type":"Kreisangehörige_Gemeinde"},"district":{"key":"09771","name":"Aichach-Friedberg","type":"Landkreis"},"federalState":{"key":"09","name":"Bayern"}},{"name":"Pestalozzistr.","postalCode":"97688","locality":"Bad Kissingen","municipality":{"key":"09672114","name":"Bad Kissingen, GKSt","type":"Große_Kreisstadt"},"district":{"key":"09672","name":"Bad Kissingen","type":"Landkreis"},"federalState":{"key":"09","name":"Bayern"}},{"name":"Peter-Heil-Str.","postalCode":"97688","locality":"Bad Kissingen","municipality":{"key":"09672114","name":"Bad Kissingen, GKSt","type":"Große_Kreisstadt"},"district":{"key":"09672","name":"Bad Kissingen","type":"Landkreis"},"federalState":{"key":"09","name":"Bayern"}},{"name":"Peter-Henlein-Str.","postalCode":"97688","locality":"Bad Kissingen","municipality":{"key":"09672114","name":"Bad Kissingen, GKSt","type":"Große_Kreisstadt"},"district":{"key":"09672","name":"Bad Kissingen","type":"Landkreis"},"federalState":{"key":"09","name":"Bayern"}},{"name":"Peterhofstr.","postalCode":"86438","locality":"Kissing","municipality":{"key":"09771142","name":"Kissing","type":"Kreisangehörige_Gemeinde"},"district":{"key":"09771","name":"Aichach-Friedberg","type":"Landkreis"},"federalState":{"key":"09","name":"Bayern"}},{"name":"Petersberg","postalCode":"86438","locality":"Kissing","municipality":{"key":"09771142","name":"Kissing","type":"Kreisangehörige_Gemeinde"},"district":{"key":"09771","name":"Aichach-Friedberg","type":"Landkreis"},"federalState":{"key":"09","name":"Bayern"}},{"name":"Pettenkoferstr.","postalCode":"97688","locality":"Bad Kissingen","municipality":{"key":"09672114","name":"Bad Kissingen, GKSt","type":"Große_Kreisstadt"},"district":{"key":"09672","name":"Bad Kissingen","type":"Landkreis"},"federalState":{"key":"09","name":"Bayern"}},{"name":"Pfaffstr.","postalCode":"97688","locality":"Bad Kissingen","municipality":{"key":"09672114","name":"Bad Kissingen, GKSt","type":"Große_Kreisstadt"},"district":{"key":"09672","name":"Bad Kissingen","type":"Landkreis"},"federalState":{"key":"09","name":"Bayern"}},{"name":"Pfalzstr.","postalCode":"97688","locality":"Bad Kissingen","municipality":{"key":"09672114","name":"Bad Kissingen, GKSt","type":"Große_Kreisstadt"},"district":{"key":"09672","name":"Bad Kissingen","type":"Landkreis"},"federalState":{"key":"09","name":"Bayern"}},{"name":"Pfarrer-Bleymann-Gasse","postalCode":"97688","locality":"Bad Kissingen","municipality":{"key":"09672114","name":"Bad Kissingen, GKSt","type":"Große_Kreisstadt"},"district":{"key":"09672","name":"Bad Kissingen","type":"Landkreis"},"federalState":{"key":"09","name":"Bayern"}},{"name":"Pfarrer-Wüst-Weg","postalCode":"97688","locality":"Bad Kissingen","municipality":{"key":"09672114","name":"Bad Kissingen, GKSt","type":"Große_Kreisstadt"},"district":{"key":"09672","name":"Bad Kissingen","type":"Landkreis"},"federalState":{"key":"09","name":"Bayern"}},{"name":"Pfarrgasse","postalCode":"97688","locality":"Bad Kissingen","municipality":{"key":"09672114","name":"Bad Kissingen, GKSt","type":"Große_Kreisstadt"},"district":{"key":"09672","name":"Bad Kissingen","type":"Landkreis"},"federalState":{"key":"09","name":"Bayern"}},{"name":"Pfarrhofgasse","postalCode":"97688","locality":"Bad Kissingen","municipality":{"key":"09672114","name":"Bad Kissingen, GKSt","type":"Große_Kreisstadt"},"district":{"key":"09672","name":"Bad Kissingen","type":"Landkreis"},"federalState":{"key":"09","name":"Bayern"}},{"name":"Pollweinstr.","postalCode":"97688","locality":"Bad Kissingen","municipality":{"key":"09672114","name":"Bad Kissingen, GKSt","type":"Große_Kreisstadt"},"district":{"key":"09672","name":"Bad Kissingen","type":"Landkreis"},"federalState":{"key":"09","name":"Bayern"}},{"name":"Poppenrother Höhe","postalCode":"97688","locality":"Bad Kissingen","municipality":{"key":"09672114","name":"Bad Kissingen, GKSt","type":"Große_Kreisstadt"},"district":{"key":"09672","name":"Bad Kissingen","type":"Landkreis"},"federalState":{"key":"09","name":"Bayern"}},{"name":"Poppenrother Str.","postalCode":"97688","locality":"Bad Kissingen","municipality":{"key":"09672114","name":"Bad Kissingen, GKSt","type":"Große_Kreisstadt"},"district":{"key":"09672","name":"Bad Kissingen","type":"Landkreis"},"federalState":{"key":"09","name":"Bayern"}},{"name":"Postweg","postalCode":"97688","locality":"Bad Kissingen","municipality":{"key":"09672114","name":"Bad Kissingen, GKSt","type":"Große_Kreisstadt"},"district":{"key":"09672","name":"Bad Kissingen","type":"Landkreis"},"federalState":{"key":"09","name":"Bayern"}},{"name":"Prälat-Roth-Str.","postalCode":"97688","locality":"Bad Kissingen","municipality":{"key":"09672114","name":"Bad Kissingen, GKSt","type":"Große_Kreisstadt"},"district":{"key":"09672","name":"Bad Kissingen","type":"Landkreis"},"federalState":{"key":"09","name":"Bayern"}},{"name":"Preußensteg","postalCode":"97688","locality":"Bad Kissingen","municipality":{"key":"09672114","name":"Bad Kissingen, GKSt","type":"Große_Kreisstadt"},"district":{"key":"09672","name":"Bad Kissingen","type":"Landkreis"},"federalState":{"key":"09","name":"Bayern"}},{"name":"Prinzengraben","postalCode":"97688","locality":"Bad Kissingen","municipality":{"key":"09672114","name":"Bad Kissingen, GKSt","type":"Große_Kreisstadt"},"district":{"key":"09672","name":"Bad Kissingen","type":"Landkreis"},"federalState":{"key":"09","name":"Bayern"}},{"name":"Prinzregentenstr.","postalCode":"97688","locality":"Bad Kissingen","municipality":{"key":"09672114","name":"Bad Kissingen, GKSt","type":"Große_Kreisstadt"},"district":{"key":"09672","name":"Bad Kissingen","type":"Landkreis"},"federalState":{"key":"09","name":"Bayern"}},{"name":"Promenadestr.","postalCode":"97688","locality":"Bad Kissingen","municipality":{"key":"09672114","name":"Bad Kissingen, GKSt","type":"Große_Kreisstadt"},"district":{"key":"09672","name":"Bad Kissingen","type":"Landkreis"},"federalState":{"key":"09","name":"Bayern"}},{"name":"Quellengasse","postalCode":"97688","locality":"Bad Kissingen","municipality":{"key":"09672114","name":"Bad Kissingen, GKSt","type":"Große_Kreisstadt"},"district":{"key":"09672","name":"Bad Kissingen","type":"Landkreis"},"federalState":{"key":"09","name":"Bayern"}},{"name":"Raiffeisenstr.","postalCode":"97688","locality":"Bad Kissingen","municipality":{"key":"09672114","name":"Bad Kissingen, GKSt","type":"Große_Kreisstadt"},"district":{"key":"09672","name":"Bad Kissingen","type":"Landkreis"},"federalState":{"key":"09","name":"Bayern"}},{"name":"Rasenweg","postalCode":"97688","locality":"Bad Kissingen","municipality":{"key":"09672114","name":"Bad Kissingen, GKSt","type":"Große_Kreisstadt"},"district":{"key":"09672","name":"Bad Kissingen","type":"Landkreis"},"federalState":{"key":"09","name":"Bayern"}},{"name":"Ratsgasse","postalCode":"97688","locality":"Bad Kissingen","municipality":{"key":"09672114","name":"Bad Kissingen, GKSt","type":"Große_Kreisstadt"},"district":{"key":"09672","name":"Bad Kissingen","type":"Landkreis"},"federalState":{"key":"09","name":"Bayern"}},{"name":"Reichenberger Str.","postalCode":"86438","locality":"Kissing","municipality":{"key":"09771142","name":"Kissing","type":"Kreisangehörige_Gemeinde"},"district":{"key":"09771","name":"Aichach-Friedberg","type":"Landkreis"},"federalState":{"key":"09","name":"Bayern"}},{"name":"Reithausplatz","postalCode":"97688","locality":"Bad Kissingen","municipality":{"key":"09672114","name":"Bad Kissingen, GKSt","type":"Große_Kreisstadt"},"district":{"key":"09672","name":"Bad Kissingen","type":"Landkreis"},"federalState":{"key":"09","name":"Bayern"}},{"name":"Reithausstr.","postalCode":"97688","locality":"Bad Kissingen","municipality":{"key":"09672114","name":"Bad Kissingen, GKSt","type":"Große_Kreisstadt"},"district":{"key":"09672","name":"Bad Kissingen","type":"Landkreis"},"federalState":{"key":"09","name":"Bayern"}},{"name":"Rheinlandstr.","postalCode":"97688","locality":"Bad Kissingen","municipality":{"key":"09672114","name":"Bad Kissingen, GKSt","type":"Große_Kreisstadt"},"district":{"key":"09672","name":"Bad Kissingen","type":"Landkreis"},"federalState":{"key":"09","name":"Bayern"}},{"name":"Rhönstr.","postalCode":"97688","locality":"Bad Kissingen","municipality":{"key":"09672114","name":"Bad Kissingen, GKSt","type":"Große_Kreisstadt"},"district":{"key":"09672","name":"Bad Kissingen","type":"Landkreis"},"federalState":{"key":"09","name":"Bayern"}},{"name":"Ricarda-Huch-Str.","postalCode":"86438","locality":"Kissing","municipality":{"key":"09771142","name":"Kissing","type":"Kreisangehörige_Gemeinde"},"district":{"key":"09771","name":"Aichach-Friedberg","type":"Landkreis"},"federalState":{"key":"09","name":"Bayern"}},{"name":"Richard-Strauß-Str.","postalCode":"97688","locality":"Bad Kissingen","municipality":{"key":"09672114","name":"Bad Kissingen, GKSt","type":"Große_Kreisstadt"},"district":{"key":"09672","name":"Bad Kissingen","type":"Landkreis"},"federalState":{"key":"09","name":"Bayern"}},{"name":"Richard-Wagner-Str.","postalCode":"97688","locality":"Bad Kissingen","municipality":{"key":"09672114","name":"Bad Kissingen, GKSt","type":"Große_Kreisstadt"},"district":{"key":"09672","name":"Bad Kissingen","type":"Landkreis"},"federalState":{"key":"09","name":"Bayern"}},{"name":"Rilkeweg","postalCode":"97688","locality":"Bad Kissingen","municipality":{"key":"09672114","name":"Bad Kissingen, GKSt","type":"Große_Kreisstadt"},"district":{"key":"09672","name":"Bad Kissingen","type":"Landkreis"},"federalState":{"key":"09","name":"Bayern"}},{"name":"Ringstr.","postalCode":"86438","locality":"Kissing","municipality":{"key":"09771142","name":"Kissing","type":"Kreisangehörige_Gemeinde"},"district":{"key":"09771","name":"Aichach-Friedberg","type":"Landkreis"},"federalState":{"key":"09","name":"Bayern"}},{"name":"Rinnerfeldstr.","postalCode":"97688","locality":"Bad Kissingen","municipality":{"key":"09672114","name":"Bad Kissingen, GKSt","type":"Große_Kreisstadt"},"district":{"key":"09672","name":"Bad Kissingen","type":"Landkreis"},"federalState":{"key":"09","name":"Bayern"}},{"name":"Ritterstr.","postalCode":"97688","locality":"Bad Kissingen","municipality":{"key":"09672114","name":"Bad Kissingen, GKSt","type":"Große_Kreisstadt"},"district":{"key":"09672","name":"Bad Kissingen","type":"Landkreis"},"federalState":{"key":"09","name":"Bayern"}},{"name":"Robert-Koch-Str.","postalCode":"97688","locality":"Bad Kissingen","municipality":{"key":"09672114","name":"Bad Kissingen, GKSt","type":"Große_Kreisstadt"},"district":{"key":"09672","name":"Bad Kissingen","type":"Landkreis"},"federalState":{"key":"09","name":"Bayern"}},{"name":"Robinienweg","postalCode":"86438","locality":"Kissing","municipality":{"key":"09771142","name":"Kissing","type":"Kreisangehörige_Gemeinde"},"district":{"key":"09771","name":"Aichach-Friedberg","type":"Landkreis"},"federalState":{"key":"09","name":"Bayern"}},{"name":"Rodenbergweg","postalCode":"97688","locality":"Bad Kissingen","municipality":{"key":"09672114","name":"Bad Kissingen, GKSt","type":"Große_Kreisstadt"},"district":{"key":"09672","name":"Bad Kissingen","type":"Landkreis"},"federalState":{"key":"09","name":"Bayern"}},{"name":"Rohdewaldstr.","postalCode":"97688","locality":"Bad Kissingen","municipality":{"key":"09672114","name":"Bad Kissingen, GKSt","type":"Große_Kreisstadt"},"district":{"key":"09672","name":"Bad Kissingen","type":"Landkreis"},"federalState":{"key":"09","name":"Bayern"}},{"name":"Römerstr.","postalCode":"86438","locality":"Kissing","municipality":{"key":"09771142","name":"Kissing","type":"Kreisangehörige_Gemeinde"},"district":{"key":"09771","name":"Aichach-Friedberg","type":"Landkreis"},"federalState":{"key":"09","name":"Bayern"}},{"name":"Röntgenstr.","postalCode":"97688","locality":"Bad Kissingen","municipality":{"key":"09672114","name":"Bad Kissingen, GKSt","type":"Große_Kreisstadt"},"district":{"key":"09672","name":"Bad Kissingen","type":"Landkreis"},"federalState":{"key":"09","name":"Bayern"}},{"name":"Rosenäcker","postalCode":"97688","locality":"Bad Kissingen","municipality":{"key":"09672114","name":"Bad Kissingen, GKSt","type":"Große_Kreisstadt"},"district":{"key":"09672","name":"Bad Kissingen","type":"Landkreis"},"federalState":{"key":"09","name":"Bayern"}},{"name":"Rosengarten","postalCode":"97688","locality":"Bad Kissingen","municipality":{"key":"09672114","name":"Bad Kissingen, GKSt","type":"Große_Kreisstadt"},"district":{"key":"09672","name":"Bad Kissingen","type":"Landkreis"},"federalState":{"key":"09","name":"Bayern"}},{"name":"Rosenstr.","postalCode":"86438","locality":"Kissing","municipality":{"key":"09771142","name":"Kissing","type":"Kreisangehörige_Gemeinde"},"district":{"key":"09771","name":"Aichach-Friedberg","type":"Landkreis"},"federalState":{"key":"09","name":"Bayern"}},{"name":"Rosenstr.","postalCode":"97688","locality":"Bad Kissingen","municipality":{"key":"09672114","name":"Bad Kissingen, GKSt","type":"Große_Kreisstadt"},"district":{"key":"09672","name":"Bad Kissingen","type":"Landkreis"},"federalState":{"key":"09","name":"Bayern"}},{"name":"Ruhstr.","postalCode":"97688","locality":"Bad Kissingen","municipality":{"key":"09672114","name":"Bad Kissingen, GKSt","type":"Große_Kreisstadt"},"district":{"key":"09672","name":"Bad Kissingen","type":"Landkreis"},"federalState":{"key":"09","name":"Bayern"}},{"name":"Sachsener Weg","postalCode":"86438","locality":"Kissing","municipality":{"key":"09771142","name":"Kissing","type":"Kreisangehörige_Gemeinde"},"district":{"key":"09771","name":"Aichach-Friedberg","type":"Landkreis"},"federalState":{"key":"09","name":"Bayern"}},{"name":"Sackgasse","postalCode":"86438","locality":"Kissing","municipality":{"key":"09771142","name":"Kissing","type":"Kreisangehörige_Gemeinde"},"district":{"key":"09771","name":"Aichach-Friedberg","type":"Landkreis"},"federalState":{"key":"09","name":"Bayern"}},{"name":"Salinenpromenade","postalCode":"97688","locality":"Bad Kissingen","municipality":{"key":"09672114","name":"Bad Kissingen, GKSt","type":"Große_Kreisstadt"},"district":{"key":"09672","name":"Bad Kissingen","type":"Landkreis"},"federalState":{"key":"09","name":"Bayern"}},{"name":"Salinensteg","postalCode":"97688","locality":"Bad Kissingen","municipality":{"key":"09672114","name":"Bad Kissingen, GKSt","type":"Große_Kreisstadt"},"district":{"key":"09672","name":"Bad Kissingen","type":"Landkreis"},"federalState":{"key":"09","name":"Bayern"}},{"name":"Salinenstr.","postalCode":"97688","locality":"Bad Kissingen","municipality":{"key":"09672114","name":"Bad Kissingen, GKSt","type":"Große_Kreisstadt"},"district":{"key":"09672","name":"Bad Kissingen","type":"Landkreis"},"federalState":{"key":"09","name":"Bayern"}},{"name":"Sanderweg","postalCode":"97688","locality":"Bad Kissingen","municipality":{"key":"09672114","name":"Bad Kissingen, GKSt","type":"Große_Kreisstadt"},"district":{"key":"09672","name":"Bad Kissingen","type":"Landkreis"},"federalState":{"key":"09","name":"Bayern"}},{"name":"Sankt-Bernhard-Platz","postalCode":"86438","locality":"Kissing","municipality":{"key":"09771142","name":"Kissing","type":"Kreisangehörige_Gemeinde"},"district":{"key":"09771","name":"Aichach-Friedberg","type":"Landkreis"},"federalState":{"key":"09","name":"Bayern"}},{"name":"Sankt-Bernhard-Str.","postalCode":"86438","locality":"Kissing","municipality":{"key":"09771142","name":"Kissing","type":"Kreisangehörige_Gemeinde"},"district":{"key":"09771","name":"Aichach-Friedberg","type":"Landkreis"},"federalState":{"key":"09","name":"Bayern"}},{"name":"Sankt-Bruno-Str.","postalCode":"97688","locality":"Bad Kissingen","municipality":{"key":"09672114","name":"Bad Kissingen, GKSt","type":"Große_Kreisstadt"},"district":{"key":"09672","name":"Bad Kissingen","type":"Landkreis"},"federalState":{"key":"09","name":"Bayern"}},{"name":"Sankt-Laurentius-Str.","postalCode":"97688","locality":"Bad Kissingen","municipality":{"key":"09672114","name":"Bad Kissingen, GKSt","type":"Große_Kreisstadt"},"district":{"key":"09672","name":"Bad Kissingen","type":"Landkreis"},"federalState":{"key":"09","name":"Bayern"}},{"name":"Sankt-Sebastian-Str.","postalCode":"97688","locality":"Bad Kissingen","municipality":{"key":"09672114","name":"Bad Kissingen, GKSt","type":"Große_Kreisstadt"},"district":{"key":"09672","name":"Bad Kissingen","type":"Landkreis"},"federalState":{"key":"09","name":"Bayern"}},{"name":"Sankt-Ulrich-Str.","postalCode":"97688","locality":"Bad Kissingen","municipality":{"key":"09672114","name":"Bad Kissingen, GKSt","type":"Große_Kreisstadt"},"district":{"key":"09672","name":"Bad Kissingen","type":"Landkreis"},"federalState":{"key":"09","name":"Bayern"}},{"name":"Sauerbreystr.","postalCode":"97688","locality":"Bad Kissingen","municipality":{"key":"09672114","name":"Bad Kissingen, GKSt","type":"Große_Kreisstadt"},"district":{"key":"09672","name":"Bad Kissingen","type":"Landkreis"},"federalState":{"key":"09","name":"Bayern"}},{"name":"Säulingweg","postalCode":"86438","locality":"Kissing","municipality":{"key":"09771142","name":"Kissing","type":"Kreisangehörige_Gemeinde"},"district":{"key":"09771","name":"Aichach-Friedberg","type":"Landkreis"},"federalState":{"key":"09","name":"Bayern"}},{"name":"Schafgasse","postalCode":"97688","locality":"Bad Kissingen","municipality":{"key":"09672114","name":"Bad Kissingen, GKSt","type":"Große_Kreisstadt"},"district":{"key":"09672","name":"Bad Kissingen","type":"Landkreis"},"federalState":{"key":"09","name":"Bayern"}},{"name":"Scheffelstr.","postalCode":"97688","locality":"Bad Kissingen","municipality":{"key":"09672114","name":"Bad Kissingen, GKSt","type":"Große_Kreisstadt"},"district":{"key":"09672","name":"Bad Kissingen","type":"Landkreis"},"federalState":{"key":"09","name":"Bayern"}},{"name":"Schillerstr.","postalCode":"97688","locality":"Bad Kissingen","municipality":{"key":"09672114","name":"Bad Kissingen, GKSt","type":"Große_Kreisstadt"},"district":{"key":"09672","name":"Bad Kissingen","type":"Landkreis"},"federalState":{"key":"09","name":"Bayern"}},{"name":"Schindgraben","postalCode":"97688","locality":"Bad Kissingen","municipality":{"key":"09672114","name":"Bad Kissingen, GKSt","type":"Große_Kreisstadt"},"district":{"key":"09672","name":"Bad Kissingen","type":"Landkreis"},"federalState":{"key":"09","name":"Bayern"}},{"name":"Schlesierstr.","postalCode":"86438","locality":"Kissing","municipality":{"key":"09771142","name":"Kissing","type":"Kreisangehörige_Gemeinde"},"district":{"key":"09771","name":"Aichach-Friedberg","type":"Landkreis"},"federalState":{"key":"09","name":"Bayern"}},{"name":"Schlesierstr.","postalCode":"97688","locality":"Bad Kissingen","municipality":{"key":"09672114","name":"Bad Kissingen, GKSt","type":"Große_Kreisstadt"},"district":{"key":"09672","name":"Bad Kissingen","type":"Landkreis"},"federalState":{"key":"09","name":"Bayern"}},{"name":"Schloßstr.","postalCode":"86438","locality":"Kissing","municipality":{"key":"09771142","name":"Kissing","type":"Kreisangehörige_Gemeinde"},"district":{"key":"09771","name":"Aichach-Friedberg","type":"Landkreis"},"federalState":{"key":"09","name":"Bayern"}},{"name":"Schloßstr.","postalCode":"97688","locality":"Bad Kissingen","municipality":{"key":"09672114","name":"Bad Kissingen, GKSt","type":"Große_Kreisstadt"},"district":{"key":"09672","name":"Bad Kissingen","type":"Landkreis"},"federalState":{"key":"09","name":"Bayern"}},{"name":"Schönbornstr.","postalCode":"97688","locality":"Bad Kissingen","municipality":{"key":"09672114","name":"Bad Kissingen, GKSt","type":"Große_Kreisstadt"},"district":{"key":"09672","name":"Bad Kissingen","type":"Landkreis"},"federalState":{"key":"09","name":"Bayern"}},{"name":"Schönhauser Weg","postalCode":"86438","locality":"Kissing","municipality":{"key":"09771142","name":"Kissing","type":"Kreisangehörige_Gemeinde"},"district":{"key":"09771","name":"Aichach-Friedberg","type":"Landkreis"},"federalState":{"key":"09","name":"Bayern"}},{"name":"Schulgasse","postalCode":"97688","locality":"Bad Kissingen","municipality":{"key":"09672114","name":"Bad Kissingen, GKSt","type":"Große_Kreisstadt"},"district":{"key":"09672","name":"Bad Kissingen","type":"Landkreis"},"federalState":{"key":"09","name":"Bayern"}},{"name":"Schulstr.","postalCode":"86438","locality":"Kissing","municipality":{"key":"09771142","name":"Kissing","type":"Kreisangehörige_Gemeinde"},"district":{"key":"09771","name":"Aichach-Friedberg","type":"Landkreis"},"federalState":{"key":"09","name":"Bayern"}},{"name":"Schurzstr.","postalCode":"97688","locality":"Bad Kissingen","municipality":{"key":"09672114","name":"Bad Kissingen, GKSt","type":"Große_Kreisstadt"},"district":{"key":"09672","name":"Bad Kissingen","type":"Landkreis"},"federalState":{"key":"09","name":"Bayern"}},{"name":"Schützenstr.","postalCode":"97688","locality":"Bad Kissingen","municipality":{"key":"09672114","name":"Bad Kissingen, GKSt","type":"Große_Kreisstadt"},"district":{"key":"09672","name":"Bad Kissingen","type":"Landkreis"},"federalState":{"key":"09","name":"Bayern"}},{"name":"Schwabenstr.","postalCode":"86438","locality":"Kissing","municipality":{"key":"09771142","name":"Kissing","type":"Kreisangehörige_Gemeinde"},"district":{"key":"09771","name":"Aichach-Friedberg","type":"Landkreis"},"federalState":{"key":"09","name":"Bayern"}},{"name":"Schweinfurter Str.","postalCode":"97688","locality":"Bad Kissingen","municipality":{"key":"09672114","name":"Bad Kissingen, GKSt","type":"Große_Kreisstadt"},"district":{"key":"09672","name":"Bad Kissingen","type":"Landkreis"},"federalState":{"key":"09","name":"Bayern"}},{"name":"Schwester-Cölestine-Weg","postalCode":"97688","locality":"Bad Kissingen","municipality":{"key":"09672114","name":"Bad Kissingen, GKSt","type":"Große_Kreisstadt"},"district":{"key":"09672","name":"Bad Kissingen","type":"Landkreis"},"federalState":{"key":"09","name":"Bayern"}},{"name":"Seehofstr.","postalCode":"97688","locality":"Bad Kissingen","municipality":{"key":"09672114","name":"Bad Kissingen, GKSt","type":"Große_Kreisstadt"},"district":{"key":"09672","name":"Bad Kissingen","type":"Landkreis"},"federalState":{"key":"09","name":"Bayern"}},{"name":"Seestr.","postalCode":"97688","locality":"Bad Kissingen","municipality":{"key":"09672114","name":"Bad Kissingen, GKSt","type":"Große_Kreisstadt"},"district":{"key":"09672","name":"Bad Kissingen","type":"Landkreis"},"federalState":{"key":"09","name":"Bayern"}},{"name":"Seinsheimweg","postalCode":"97688","locality":"Bad Kissingen","municipality":{"key":"09672114","name":"Bad Kissingen, GKSt","type":"Große_Kreisstadt"},"district":{"key":"09672","name":"Bad Kissingen","type":"Landkreis"},"federalState":{"key":"09","name":"Bayern"}},{"name":"Seubertsrasen","postalCode":"97688","locality":"Bad Kissingen","municipality":{"key":"09672114","name":"Bad Kissingen, GKSt","type":"Große_Kreisstadt"},"district":{"key":"09672","name":"Bad Kissingen","type":"Landkreis"},"federalState":{"key":"09","name":"Bayern"}},{"name":"Siebenbürgenstr.","postalCode":"86438","locality":"Kissing","municipality":{"key":"09771142","name":"Kissing","type":"Kreisangehörige_Gemeinde"},"district":{"key":"09771","name":"Aichach-Friedberg","type":"Landkreis"},"federalState":{"key":"09","name":"Bayern"}},{"name":"Sieboldstr.","postalCode":"97688","locality":"Bad Kissingen","municipality":{"key":"09672114","name":"Bad Kissingen, GKSt","type":"Große_Kreisstadt"},"district":{"key":"09672","name":"Bad Kissingen","type":"Landkreis"},"federalState":{"key":"09","name":"Bayern"}},{"name":"Siedlungsstr.","postalCode":"86438","locality":"Kissing","municipality":{"key":"09771142","name":"Kissing","type":"Kreisangehörige_Gemeinde"},"district":{"key":"09771","name":"Aichach-Friedberg","type":"Landkreis"},"federalState":{"key":"09","name":"Bayern"}},{"name":"Sinnbergpromenade","postalCode":"97688","locality":"Bad Kissingen","municipality":{"key":"09672114","name":"Bad Kissingen, GKSt","type":"Große_Kreisstadt"},"district":{"key":"09672","name":"Bad Kissingen","type":"Landkreis"},"federalState":{"key":"09","name":"Bayern"}},{"name":"Sonnenstr.","postalCode":"97688","locality":"Bad Kissingen","municipality":{"key":"09672114","name":"Bad Kissingen, GKSt","type":"Große_Kreisstadt"},"district":{"key":"09672","name":"Bad Kissingen","type":"Landkreis"},"federalState":{"key":"09","name":"Bayern"}},{"name":"Sophie-Scholl-Str.","postalCode":"86438","locality":"Kissing","municipality":{"key":"09771142","name":"Kissing","type":"Kreisangehörige_Gemeinde"},"district":{"key":"09771","name":"Aichach-Friedberg","type":"Landkreis"},"federalState":{"key":"09","name":"Bayern"}},{"name":"Spargasse","postalCode":"97688","locality":"Bad Kissingen","municipality":{"key":"09672114","name":"Bad Kissingen, GKSt","type":"Große_Kreisstadt"},"district":{"key":"09672","name":"Bad Kissingen","type":"Landkreis"},"federalState":{"key":"09","name":"Bayern"}},{"name":"Spessartstr.","postalCode":"97688","locality":"Bad Kissingen","municipality":{"key":"09672114","name":"Bad Kissingen, GKSt","type":"Große_Kreisstadt"},"district":{"key":"09672","name":"Bad Kissingen","type":"Landkreis"},"federalState":{"key":"09","name":"Bayern"}},{"name":"Spitalgasse","postalCode":"97688","locality":"Bad Kissingen","municipality":{"key":"09672114","name":"Bad Kissingen, GKSt","type":"Große_Kreisstadt"},"district":{"key":"09672","name":"Bad Kissingen","type":"Landkreis"},"federalState":{"key":"09","name":"Bayern"}},{"name":"Staffelseestr.","postalCode":"86438","locality":"Kissing","municipality":{"key":"09771142","name":"Kissing","type":"Kreisangehörige_Gemeinde"},"district":{"key":"09771","name":"Aichach-Friedberg","type":"Landkreis"},"federalState":{"key":"09","name":"Bayern"}},{"name":"Stationsbergstr.","postalCode":"97688","locality":"Bad Kissingen","municipality":{"key":"09672114","name":"Bad Kissingen, GKSt","type":"Große_Kreisstadt"},"district":{"key":"09672","name":"Bad Kissingen","type":"Landkreis"},"federalState":{"key":"09","name":"Bayern"}},{"name":"Stefan-Brand-Str.","postalCode":"97688","locality":"Bad Kissingen","municipality":{"key":"09672114","name":"Bad Kissingen, GKSt","type":"Große_Kreisstadt"},"district":{"key":"09672","name":"Bad Kissingen","type":"Landkreis"},"federalState":{"key":"09","name":"Bayern"}},{"name":"Stefansgasse","postalCode":"86438","locality":"Kissing","municipality":{"key":"09771142","name":"Kissing","type":"Kreisangehörige_Gemeinde"},"district":{"key":"09771","name":"Aichach-Friedberg","type":"Landkreis"},"federalState":{"key":"09","name":"Bayern"}},{"name":"Stegfeld","postalCode":"97688","locality":"Bad Kissingen","municipality":{"key":"09672114","name":"Bad Kissingen, GKSt","type":"Große_Kreisstadt"},"district":{"key":"09672","name":"Bad Kissingen","type":"Landkreis"},"federalState":{"key":"09","name":"Bayern"}},{"name":"Steigerwaldstr.","postalCode":"97688","locality":"Bad Kissingen","municipality":{"key":"09672114","name":"Bad Kissingen, GKSt","type":"Große_Kreisstadt"},"district":{"key":"09672","name":"Bad Kissingen","type":"Landkreis"},"federalState":{"key":"09","name":"Bayern"}},{"name":"Talstr.","postalCode":"97688","locality":"Bad Kissingen","municipality":{"key":"09672114","name":"Bad Kissingen, GKSt","type":"Große_Kreisstadt"},"district":{"key":"09672","name":"Bad Kissingen","type":"Landkreis"},"federalState":{"key":"09","name":"Bayern"}},{"name":"Talweg","postalCode":"86438","locality":"Kissing","municipality":{"key":"09771142","name":"Kissing","type":"Kreisangehörige_Gemeinde"},"district":{"key":"09771","name":"Aichach-Friedberg","type":"Landkreis"},"federalState":{"key":"09","name":"Bayern"}},{"name":"Tannenstr.","postalCode":"86438","locality":"Kissing","municipality":{"key":"09771142","name":"Kissing","type":"Kreisangehörige_Gemeinde"},"district":{"key":"09771","name":"Aichach-Friedberg","type":"Landkreis"},"federalState":{"key":"09","name":"Bayern"}},{"name":"Tannenweg","postalCode":"97688","locality":"Bad Kissingen","municipality":{"key":"09672114","name":"Bad Kissingen, GKSt","type":"Große_Kreisstadt"},"district":{"key":"09672","name":"Bad Kissingen","type":"Landkreis"},"federalState":{"key":"09","name":"Bayern"}},{"name":"Tegernseestr.","postalCode":"86438","locality":"Kissing","municipality":{"key":"09771142","name":"Kissing","type":"Kreisangehörige_Gemeinde"},"district":{"key":"09771","name":"Aichach-Friedberg","type":"Landkreis"},"federalState":{"key":"09","name":"Bayern"}},{"name":"Theobald-von-Fuchs-Str.","postalCode":"97688","locality":"Bad Kissingen","municipality":{"key":"09672114","name":"Bad Kissingen, GKSt","type":"Große_Kreisstadt"},"district":{"key":"09672","name":"Bad Kissingen","type":"Landkreis"},"federalState":{"key":"09","name":"Bayern"}},{"name":"Theodor-Fontane-Str.","postalCode":"97688","locality":"Bad Kissingen","municipality":{"key":"09672114","name":"Bad Kissingen, GKSt","type":"Große_Kreisstadt"},"district":{"key":"09672","name":"Bad Kissingen","type":"Landkreis"},"federalState":{"key":"09","name":"Bayern"}},{"name":"Thomas-Mann-Str.","postalCode":"86438","locality":"Kissing","municipality":{"key":"09771142","name":"Kissing","type":"Kreisangehörige_Gemeinde"},"district":{"key":"09771","name":"Aichach-Friedberg","type":"Landkreis"},"federalState":{"key":"09","name":"Bayern"}},{"name":"Thüringer Weg","postalCode":"86438","locality":"Kissing","municipality":{"key":"09771142","name":"Kissing","type":"Kreisangehörige_Gemeinde"},"district":{"key":"09771","name":"Aichach-Friedberg","type":"Landkreis"},"federalState":{"key":"09","name":"Bayern"}},{"name":"Tiergartenstr.","postalCode":"97688","locality":"Bad Kissingen","municipality":{"key":"09672114","name":"Bad Kissingen, GKSt","type":"Große_Kreisstadt"},"district":{"key":"09672","name":"Bad Kissingen","type":"Landkreis"},"federalState":{"key":"09","name":"Bayern"}},{"name":"Tilman-Riemenschneider-Str.","postalCode":"97688","locality":"Bad Kissingen","municipality":{"key":"09672114","name":"Bad Kissingen, GKSt","type":"Große_Kreisstadt"},"district":{"key":"09672","name":"Bad Kissingen","type":"Landkreis"},"federalState":{"key":"09","name":"Bayern"}},{"name":"Tränkgasse","postalCode":"97688","locality":"Bad Kissingen","municipality":{"key":"09672114","name":"Bad Kissingen, GKSt","type":"Große_Kreisstadt"},"district":{"key":"09672","name":"Bad Kissingen","type":"Landkreis"},"federalState":{"key":"09","name":"Bayern"}},{"name":"Trathstr.","postalCode":"86438","locality":"Kissing","municipality":{"key":"09771142","name":"Kissing","type":"Kreisangehörige_Gemeinde"},"district":{"key":"09771","name":"Aichach-Friedberg","type":"Landkreis"},"federalState":{"key":"09","name":"Bayern"}},{"name":"Tulpenstr.","postalCode":"86438","locality":"Kissing","municipality":{"key":"09771142","name":"Kissing","type":"Kreisangehörige_Gemeinde"},"district":{"key":"09771","name":"Aichach-Friedberg","type":"Landkreis"},"federalState":{"key":"09","name":"Bayern"}},{"name":"Turmgasse","postalCode":"97688","locality":"Bad Kissingen","municipality":{"key":"09672114","name":"Bad Kissingen, GKSt","type":"Große_Kreisstadt"},"district":{"key":"09672","name":"Bad Kissingen","type":"Landkreis"},"federalState":{"key":"09","name":"Bayern"}},{"name":"Ulmenstr.","postalCode":"97688","locality":"Bad Kissingen","municipality":{"key":"09672114","name":"Bad Kissingen, GKSt","type":"Große_Kreisstadt"},"district":{"key":"09672","name":"Bad Kissingen","type":"Landkreis"},"federalState":{"key":"09","name":"Bayern"}},{"name":"Unterer Steinberg","postalCode":"97688","locality":"Bad Kissingen","municipality":{"key":"09672114","name":"Bad Kissingen, GKSt","type":"Große_Kreisstadt"},"district":{"key":"09672","name":"Bad Kissingen","type":"Landkreis"},"federalState":{"key":"09","name":"Bayern"}},{"name":"Unterer Zollweg","postalCode":"97688","locality":"Bad Kissingen","municipality":{"key":"09672114","name":"Bad Kissingen, GKSt","type":"Große_Kreisstadt"},"district":{"key":"09672","name":"Bad Kissingen","type":"Landkreis"},"federalState":{"key":"09","name":"Bayern"}},{"name":"Untere Saline","postalCode":"97688","locality":"Bad Kissingen","municipality":{"key":"09672114","name":"Bad Kissingen, GKSt","type":"Große_Kreisstadt"},"district":{"key":"09672","name":"Bad Kissingen","type":"Landkreis"},"federalState":{"key":"09","name":"Bayern"}},{"name":"Untere Wendelinusstr.","postalCode":"97688","locality":"Bad Kissingen","municipality":{"key":"09672114","name":"Bad Kissingen, GKSt","type":"Große_Kreisstadt"},"district":{"key":"09672","name":"Bad Kissingen","type":"Landkreis"},"federalState":{"key":"09","name":"Bayern"}},{"name":"Valentin-Becker-Str.","postalCode":"97688","locality":"Bad Kissingen","municipality":{"key":"09672114","name":"Bad Kissingen, GKSt","type":"Große_Kreisstadt"},"district":{"key":"09672","name":"Bad Kissingen","type":"Landkreis"},"federalState":{"key":"09","name":"Bayern"}},{"name":"Valentin-Rathgeber-Str.","postalCode":"97688","locality":"Bad Kissingen","municipality":{"key":"09672114","name":"Bad Kissingen, GKSt","type":"Große_Kreisstadt"},"district":{"key":"09672","name":"Bad Kissingen","type":"Landkreis"},"federalState":{"key":"09","name":"Bayern"}},{"name":"VdK-Str.","postalCode":"86438","locality":"Kissing","municipality":{"key":"09771142","name":"Kissing","type":"Kreisangehörige_Gemeinde"},"district":{"key":"09771","name":"Aichach-Friedberg","type":"Landkreis"},"federalState":{"key":"09","name":"Bayern"}},{"name":"Veilchenstr.","postalCode":"86438","locality":"Kissing","municipality":{"key":"09771142","name":"Kissing","type":"Kreisangehörige_Gemeinde"},"district":{"key":"09771","name":"Aichach-Friedberg","type":"Landkreis"},"federalState":{"key":"09","name":"Bayern"}},{"name":"Veit-Stoss-Str.","postalCode":"97688","locality":"Bad Kissingen","municipality":{"key":"09672114","name":"Bad Kissingen, GKSt","type":"Große_Kreisstadt"},"district":{"key":"09672","name":"Bad Kissingen","type":"Landkreis"},"federalState":{"key":"09","name":"Bayern"}},{"name":"Verdistr.","postalCode":"86438","locality":"Kissing","municipality":{"key":"09771142","name":"Kissing","type":"Kreisangehörige_Gemeinde"},"district":{"key":"09771","name":"Aichach-Friedberg","type":"Landkreis"},"federalState":{"key":"09","name":"Bayern"}},{"name":"Vernonstr.","postalCode":"97688","locality":"Bad Kissingen","municipality":{"key":"09672114","name":"Bad Kissingen, GKSt","type":"Große_Kreisstadt"},"district":{"key":"09672","name":"Bad Kissingen","type":"Landkreis"},"federalState":{"key":"09","name":"Bayern"}},{"name":"Von-der-Tann-Str.","postalCode":"97688","locality":"Bad Kissingen","municipality":{"key":"09672114","name":"Bad Kissingen, GKSt","type":"Große_Kreisstadt"},"district":{"key":"09672","name":"Bad Kissingen","type":"Landkreis"},"federalState":{"key":"09","name":"Bayern"}},{"name":"Von-Henneberg-Str.","postalCode":"97688","locality":"Bad Kissingen","municipality":{"key":"09672114","name":"Bad Kissingen, GKSt","type":"Große_Kreisstadt"},"district":{"key":"09672","name":"Bad Kissingen","type":"Landkreis"},"federalState":{"key":"09","name":"Bayern"}},{"name":"Von-Hessing-Str.","postalCode":"97688","locality":"Bad Kissingen","municipality":{"key":"09672114","name":"Bad Kissingen, GKSt","type":"Große_Kreisstadt"},"district":{"key":"09672","name":"Bad Kissingen","type":"Landkreis"},"federalState":{"key":"09","name":"Bayern"}},{"name":"Von-Humboldt-Str.","postalCode":"97688","locality":"Bad Kissingen","municipality":{"key":"09672114","name":"Bad Kissingen, GKSt","type":"Große_Kreisstadt"},"district":{"key":"09672","name":"Bad Kissingen","type":"Landkreis"},"federalState":{"key":"09","name":"Bayern"}},{"name":"Von-Lobdeburg-Str.","postalCode":"97688","locality":"Bad Kissingen","municipality":{"key":"09672114","name":"Bad Kissingen, GKSt","type":"Große_Kreisstadt"},"district":{"key":"09672","name":"Bad Kissingen","type":"Landkreis"},"federalState":{"key":"09","name":"Bayern"}},{"name":"Walchenseestr.","postalCode":"86438","locality":"Kissing","municipality":{"key":"09771142","name":"Kissing","type":"Kreisangehörige_Gemeinde"},"district":{"key":"09771","name":"Aichach-Friedberg","type":"Landkreis"},"federalState":{"key":"09","name":"Bayern"}},{"name":"Waldstr.","postalCode":"97688","locality":"Bad Kissingen","municipality":{"key":"09672114","name":"Bad Kissingen, GKSt","type":"Große_Kreisstadt"},"district":{"key":"09672","name":"Bad Kissingen","type":"Landkreis"},"federalState":{"key":"09","name":"Bayern"}},{"name":"Waldweg","postalCode":"86438","locality":"Kissing","municipality":{"key":"09771142","name":"Kissing","type":"Kreisangehörige_Gemeinde"},"district":{"key":"09771","name":"Aichach-Friedberg","type":"Landkreis"},"federalState":{"key":"09","name":"Bayern"}},{"name":"Wankelstr.","postalCode":"97688","locality":"Bad Kissingen","municipality":{"key":"09672114","name":"Bad Kissingen, GKSt","type":"Große_Kreisstadt"},"district":{"key":"09672","name":"Bad Kissingen","type":"Landkreis"},"federalState":{"key":"09","name":"Bayern"}},{"name":"Watzmannweg","postalCode":"86438","locality":"Kissing","municipality":{"key":"09771142","name":"Kissing","type":"Kreisangehörige_Gemeinde"},"district":{"key":"09771","name":"Aichach-Friedberg","type":"Landkreis"},"federalState":{"key":"09","name":"Bayern"}},{"name":"Weg der Besinnung","postalCode":"97688","locality":"Bad Kissingen","municipality":{"key":"09672114","name":"Bad Kissingen, GKSt","type":"Große_Kreisstadt"},"district":{"key":"09672","name":"Bad Kissingen","type":"Landkreis"},"federalState":{"key":"09","name":"Bayern"}},{"name":"Weg des Wassers","postalCode":"97688","locality":"Bad Kissingen","municipality":{"key":"09672114","name":"Bad Kissingen, GKSt","type":"Große_Kreisstadt"},"district":{"key":"09672","name":"Bad Kissingen","type":"Landkreis"},"federalState":{"key":"09","name":"Bayern"}},{"name":"Weinbergweg","postalCode":"97688","locality":"Bad Kissingen","municipality":{"key":"09672114","name":"Bad Kissingen, GKSt","type":"Große_Kreisstadt"},"district":{"key":"09672","name":"Bad Kissingen","type":"Landkreis"},"federalState":{"key":"09","name":"Bayern"}},{"name":"Weizenäcker","postalCode":"97688","locality":"Bad Kissingen","municipality":{"key":"09672114","name":"Bad Kissingen, GKSt","type":"Große_Kreisstadt"},"district":{"key":"09672","name":"Bad Kissingen","type":"Landkreis"},"federalState":{"key":"09","name":"Bayern"}},{"name":"Wendelin-Dietz-Weg","postalCode":"97688","locality":"Bad Kissingen","municipality":{"key":"09672114","name":"Bad Kissingen, GKSt","type":"Große_Kreisstadt"},"district":{"key":"09672","name":"Bad Kissingen","type":"Landkreis"},"federalState":{"key":"09","name":"Bayern"}},{"name":"Wendelinusstr.","postalCode":"97688","locality":"Bad Kissingen","municipality":{"key":"09672114","name":"Bad Kissingen, GKSt","type":"Große_Kreisstadt"},"district":{"key":"09672","name":"Bad Kissingen","type":"Landkreis"},"federalState":{"key":"09","name":"Bayern"}},{"name":"Wendelsteinweg","postalCode":"86438","locality":"Kissing","municipality":{"key":"09771142","name":"Kissing","type":"Kreisangehörige_Gemeinde"},"district":{"key":"09771","name":"Aichach-Friedberg","type":"Landkreis"},"federalState":{"key":"09","name":"Bayern"}},{"name":"Werkstr.","postalCode":"86438","locality":"Kissing","municipality":{"key":"09771142","name":"Kissing","type":"Kreisangehörige_Gemeinde"},"district":{"key":"09771","name":"Aichach-Friedberg","type":"Landkreis"},"federalState":{"key":"09","name":"Bayern"}},{"name":"Westendstr.","postalCode":"97688","locality":"Bad Kissingen","municipality":{"key":"09672114","name":"Bad Kissingen, GKSt","type":"Große_Kreisstadt"},"district":{"key":"09672","name":"Bad Kissingen","type":"Landkreis"},"federalState":{"key":"09","name":"Bayern"}},{"name":"Westring","postalCode":"97688","locality":"Bad Kissingen","municipality":{"key":"09672114","name":"Bad Kissingen, GKSt","type":"Große_Kreisstadt"},"district":{"key":"09672","name":"Bad Kissingen","type":"Landkreis"},"federalState":{"key":"09","name":"Bayern"}},{"name":"Wielandstr.","postalCode":"86438","locality":"Kissing","municipality":{"key":"09771142","name":"Kissing","type":"Kreisangehörige_Gemeinde"},"district":{"key":"09771","name":"Aichach-Friedberg","type":"Landkreis"},"federalState":{"key":"09","name":"Bayern"}},{"name":"Wiesenstr.","postalCode":"86438","locality":"Kissing","municipality":{"key":"09771142","name":"Kissing","type":"Kreisangehörige_Gemeinde"},"district":{"key":"09771","name":"Aichach-Friedberg","type":"Landkreis"},"federalState":{"key":"09","name":"Bayern"}},{"name":"Wiesenweg","postalCode":"97688","locality":"Bad Kissingen","municipality":{"key":"09672114","name":"Bad Kissingen, GKSt","type":"Große_Kreisstadt"},"district":{"key":"09672","name":"Bad Kissingen","type":"Landkreis"},"federalState":{"key":"09","name":"Bayern"}},{"name":"Wiesweg","postalCode":"86438","locality":"Kissing","municipality":{"key":"09771142","name":"Kissing","type":"Kreisangehörige_Gemeinde"},"district":{"key":"09771","name":"Aichach-Friedberg","type":"Landkreis"},"federalState":{"key":"09","name":"Bayern"}},{"name":"Wildrosenpromenade","postalCode":"97688","locality":"Bad Kissingen","municipality":{"key":"09672114","name":"Bad Kissingen, GKSt","type":"Große_Kreisstadt"},"district":{"key":"09672","name":"Bad Kissingen","type":"Landkreis"},"federalState":{"key":"09","name":"Bayern"}},{"name":"Windheimer Weg","postalCode":"97688","locality":"Bad Kissingen","municipality":{"key":"09672114","name":"Bad Kissingen, GKSt","type":"Große_Kreisstadt"},"district":{"key":"09672","name":"Bad Kissingen","type":"Landkreis"},"federalState":{"key":"09","name":"Bayern"}},{"name":"Winkelser Str.","postalCode":"97688","locality":"Bad Kissingen","municipality":{"key":"09672114","name":"Bad Kissingen, GKSt","type":"Große_Kreisstadt"},"district":{"key":"09672","name":"Bad Kissingen","type":"Landkreis"},"federalState":{"key":"09","name":"Bayern"}},{"name":"Wittelsbacher Weg","postalCode":"97688","locality":"Bad Kissingen","municipality":{"key":"09672114","name":"Bad Kissingen, GKSt","type":"Große_Kreisstadt"},"district":{"key":"09672","name":"Bad Kissingen","type":"Landkreis"},"federalState":{"key":"09","name":"Bayern"}},{"name":"Würzburger Str.","postalCode":"97688","locality":"Bad Kissingen","municipality":{"key":"09672114","name":"Bad Kissingen, GKSt","type":"Große_Kreisstadt"},"district":{"key":"09672","name":"Bad Kissingen","type":"Landkreis"},"federalState":{"key":"09","name":"Bayern"}},{"name":"Ysenburgstr.","postalCode":"97688","locality":"Bad Kissingen","municipality":{"key":"09672114","name":"Bad Kissingen, GKSt","type":"Große_Kreisstadt"},"district":{"key":"09672","name":"Bad Kissingen","type":"Landkreis"},"federalState":{"key":"09","name":"Bayern"}},{"name":"Zedernstr.","postalCode":"86438","locality":"Kissing","municipality":{"key":"09771142","name":"Kissing","type":"Kreisangehörige_Gemeinde"},"district":{"key":"09771","name":"Aichach-Friedberg","type":"Landkreis"},"federalState":{"key":"09","name":"Bayern"}},{"name":"Ziegelweg","postalCode":"97688","locality":"Bad Kissingen","municipality":{"key":"09672114","name":"Bad Kissingen, GKSt","type":"Große_Kreisstadt"},"district":{"key":"09672","name":"Bad Kissingen","type":"Landkreis"},"federalState":{"key":"09","name":"Bayern"}},{"name":"Zimmermannsstr.","postalCode":"97688","locality":"Bad Kissingen","municipality":{"key":"09672114","name":"Bad Kissingen, GKSt","type":"Große_Kreisstadt"},"district":{"key":"09672","name":"Bad Kissingen","type":"Landkreis"},"federalState":{"key":"09","name":"Bayern"}},{"name":"Zollerstr.","postalCode":"97688","locality":"Bad Kissingen","municipality":{"key":"09672114","name":"Bad Kissingen, GKSt","type":"Große_Kreisstadt"},"district":{"key":"09672","name":"Bad Kissingen","type":"Landkreis"},"federalState":{"key":"09","name":"Bayern"}},{"name":"Zugspitzstr.","postalCode":"86438","locality":"Kissing","municipality":{"key":"09771142","name":"Kissing","type":"Kreisangehörige_Gemeinde"},"district":{"key":"09771","name":"Aichach-Friedberg","type":"Landkreis"},"federalState":{"key":"09","name":"Bayern"}},{"name":"Zwingergasse","postalCode":"97688","locality":"Bad Kissingen","municipality":{"key":"09672114","name":"Bad Kissingen, GKSt","type":"Große_Kreisstadt"},"district":{"key":"09672","name":"Bad Kissingen","type":"Landkreis"},"federalState":{"key":"09","name":"Bayern"}},]