[{"name":"Alte Dorfstr.","postalCode":"21726","locality":"Heinbockel","municipality":{"key":"03359024","name":"Heinbockel","type":"Kreisangehörige_Gemeinde"},"district":{"key":"03359","name":"Stade","type":"Landkreis"},"federalState":{"key":"03","name":"Niedersachsen"}},{"name":"Am Sportplatz","postalCode":"21726","locality":"Heinbockel","municipality":{"key":"03359024","name":"Heinbockel","type":"Kreisangehörige_Gemeinde"},"district":{"key":"03359","name":"Stade","type":"Landkreis"},"federalState":{"key":"03","name":"Niedersachsen"}},{"name":"Am Wall","postalCode":"21726","locality":"Heinbockel","municipality":{"key":"03359024","name":"Heinbockel","type":"Kreisangehörige_Gemeinde"},"district":{"key":"03359","name":"Stade","type":"Landkreis"},"federalState":{"key":"03","name":"Niedersachsen"}},{"name":"An der Bundesstr.","postalCode":"21726","locality":"Heinbockel","municipality":{"key":"03359024","name":"Heinbockel","type":"Kreisangehörige_Gemeinde"},"district":{"key":"03359","name":"Stade","type":"Landkreis"},"federalState":{"key":"03","name":"Niedersachsen"}},{"name":"Birkenweg","postalCode":"21726","locality":"Heinbockel","municipality":{"key":"03359024","name":"Heinbockel","type":"Kreisangehörige_Gemeinde"},"district":{"key":"03359","name":"Stade","type":"Landkreis"},"federalState":{"key":"03","name":"Niedersachsen"}},{"name":"Brambusch","postalCode":"21726","locality":"Heinbockel","municipality":{"key":"03359024","name":"Heinbockel","type":"Kreisangehörige_Gemeinde"},"district":{"key":"03359","name":"Stade","type":"Landkreis"},"federalState":{"key":"03","name":"Niedersachsen"}},{"name":"Buchenkamp","postalCode":"21726","locality":"Heinbockel","municipality":{"key":"03359024","name":"Heinbockel","type":"Kreisangehörige_Gemeinde"},"district":{"key":"03359","name":"Stade","type":"Landkreis"},"federalState":{"key":"03","name":"Niedersachsen"}},{"name":"Camper Str.","postalCode":"21680","locality":"Stade","municipality":{"key":"03359038","name":"Stade, Hansestadt","type":"Stadt"},"district":{"key":"03359","name":"Stade","type":"Landkreis"},"federalState":{"key":"03","name":"Niedersachsen"}},{"name":"Carl-Benz-Str.","postalCode":"21684","locality":"Stade","municipality":{"key":"03359038","name":"Stade, Hansestadt","type":"Stadt"},"district":{"key":"03359","name":"Stade","type":"Landkreis"},"federalState":{"key":"03","name":"Niedersachsen"}},{"name":"Carl-Diercke-Park","postalCode":"21682","locality":"Stade","municipality":{"key":"03359038","name":"Stade, Hansestadt","type":"Stadt"},"district":{"key":"03359","name":"Stade","type":"Landkreis"},"federalState":{"key":"03","name":"Niedersachsen"}},{"name":"Carl-Goerdeler-Weg","postalCode":"21684","locality":"Stade","municipality":{"key":"03359038","name":"Stade, Hansestadt","type":"Stadt"},"district":{"key":"03359","name":"Stade","type":"Landkreis"},"federalState":{"key":"03","name":"Niedersachsen"}},{"name":"Carl-von-Ossietzky-Weg","postalCode":"21684","locality":"Stade","municipality":{"key":"03359038","name":"Stade, Hansestadt","type":"Stadt"},"district":{"key":"03359","name":"Stade","type":"Landkreis"},"federalState":{"key":"03","name":"Niedersachsen"}},{"name":"Casmannstr.","postalCode":"21680","locality":"Stade","municipality":{"key":"03359038","name":"Stade, Hansestadt","type":"Stadt"},"district":{"key":"03359","name":"Stade","type":"Landkreis"},"federalState":{"key":"03","name":"Niedersachsen"}},{"name":"Celler Str.","postalCode":"21680","locality":"Stade","municipality":{"key":"03359038","name":"Stade, Hansestadt","type":"Stadt"},"district":{"key":"03359","name":"Stade","type":"Landkreis"},"federalState":{"key":"03","name":"Niedersachsen"}},{"name":"Chaukenstr.","postalCode":"21680","locality":"Stade","municipality":{"key":"03359038","name":"Stade, Hansestadt","type":"Stadt"},"district":{"key":"03359","name":"Stade","type":"Landkreis"},"federalState":{"key":"03","name":"Niedersachsen"}},{"name":"Cheruskerweg","postalCode":"21680","locality":"Stade","municipality":{"key":"03359038","name":"Stade, Hansestadt","type":"Stadt"},"district":{"key":"03359","name":"Stade","type":"Landkreis"},"federalState":{"key":"03","name":"Niedersachsen"}},{"name":"Christian-Reichert-Str.","postalCode":"55271","locality":"Stadecken-Elsheim","municipality":{"key":"07339057","name":"Stadecken-Elsheim","type":"Kreisangehörige_Gemeinde"},"district":{"key":"07339","name":"Mainz-Bingen","type":"Landkreis"},"federalState":{"key":"07","name":"Rheinland-Pfalz"}},{"name":"Christophorusweg","postalCode":"21683","locality":"Stade","municipality":{"key":"03359038","name":"Stade, Hansestadt","type":"Stadt"},"district":{"key":"03359","name":"Stade","type":"Landkreis"},"federalState":{"key":"03","name":"Niedersachsen"}},{"name":"Clara-Schumannstr.","postalCode":"55271","locality":"Stadecken-Elsheim","municipality":{"key":"07339057","name":"Stadecken-Elsheim","type":"Kreisangehörige_Gemeinde"},"district":{"key":"07339","name":"Mainz-Bingen","type":"Landkreis"},"federalState":{"key":"07","name":"Rheinland-Pfalz"}},{"name":"Claus-von-Stauffenberg-Weg","postalCode":"21684","locality":"Stade","municipality":{"key":"03359038","name":"Stade, Hansestadt","type":"Stadt"},"district":{"key":"03359","name":"Stade","type":"Landkreis"},"federalState":{"key":"03","name":"Niedersachsen"}},{"name":"Cosmae-Kirchhof","postalCode":"21682","locality":"Stade","municipality":{"key":"03359038","name":"Stade, Hansestadt","type":"Stadt"},"district":{"key":"03359","name":"Stade","type":"Landkreis"},"federalState":{"key":"03","name":"Niedersachsen"}},{"name":"Cranzer Str.","postalCode":"21680","locality":"Stade","municipality":{"key":"03359038","name":"Stade, Hansestadt","type":"Stadt"},"district":{"key":"03359","name":"Stade","type":"Landkreis"},"federalState":{"key":"03","name":"Niedersachsen"}},{"name":"Dorfstr.","postalCode":"21726","locality":"Heinbockel","municipality":{"key":"03359024","name":"Heinbockel","type":"Kreisangehörige_Gemeinde"},"district":{"key":"03359","name":"Stade","type":"Landkreis"},"federalState":{"key":"03","name":"Niedersachsen"}},{"name":"Düdenbütteler Str.","postalCode":"21726","locality":"Heinbockel","municipality":{"key":"03359024","name":"Heinbockel","type":"Kreisangehörige_Gemeinde"},"district":{"key":"03359","name":"Stade","type":"Landkreis"},"federalState":{"key":"03","name":"Niedersachsen"}},{"name":"Eichenhüll","postalCode":"96187","locality":"Stadelhofen","municipality":{"key":"09471189","name":"Stadelhofen","type":"Kreisangehörige_Gemeinde"},"district":{"key":"09471","name":"Bamberg","type":"Landkreis"},"federalState":{"key":"09","name":"Bayern"}},{"name":"Eichenstr.","postalCode":"21684","locality":"Stade","municipality":{"key":"03359038","name":"Stade, Hansestadt","type":"Stadt"},"district":{"key":"03359","name":"Stade","type":"Landkreis"},"federalState":{"key":"03","name":"Niedersachsen"}},{"name":"Eisenbahnstr.","postalCode":"21680","locality":"Stade","municipality":{"key":"03359038","name":"Stade, Hansestadt","type":"Stadt"},"district":{"key":"03359","name":"Stade","type":"Landkreis"},"federalState":{"key":"03","name":"Niedersachsen"}},{"name":"Elbinger Str.","postalCode":"21680","locality":"Stade","municipality":{"key":"03359038","name":"Stade, Hansestadt","type":"Stadt"},"district":{"key":"03359","name":"Stade","type":"Landkreis"},"federalState":{"key":"03","name":"Niedersachsen"}},{"name":"Elbstr.","postalCode":"21683","locality":"Stade","municipality":{"key":"03359038","name":"Stade, Hansestadt","type":"Stadt"},"district":{"key":"03359","name":"Stade","type":"Landkreis"},"federalState":{"key":"03","name":"Niedersachsen"}},{"name":"Elsternstr.","postalCode":"21683","locality":"Stade","municipality":{"key":"03359038","name":"Stade, Hansestadt","type":"Stadt"},"district":{"key":"03359","name":"Stade","type":"Landkreis"},"federalState":{"key":"03","name":"Niedersachsen"}},{"name":"Entenstieg","postalCode":"21682","locality":"Stade","municipality":{"key":"03359038","name":"Stade, Hansestadt","type":"Stadt"},"district":{"key":"03359","name":"Stade","type":"Landkreis"},"federalState":{"key":"03","name":"Niedersachsen"}},{"name":"Erich-Kästner-Weg","postalCode":"21684","locality":"Stade","municipality":{"key":"03359038","name":"Stade, Hansestadt","type":"Stadt"},"district":{"key":"03359","name":"Stade","type":"Landkreis"},"federalState":{"key":"03","name":"Niedersachsen"}},{"name":"Erlengrund","postalCode":"21684","locality":"Stade","municipality":{"key":"03359038","name":"Stade, Hansestadt","type":"Stadt"},"district":{"key":"03359","name":"Stade","type":"Landkreis"},"federalState":{"key":"03","name":"Niedersachsen"}},{"name":"Erlenweg","postalCode":"21683","locality":"Stade","municipality":{"key":"03359038","name":"Stade, Hansestadt","type":"Stadt"},"district":{"key":"03359","name":"Stade","type":"Landkreis"},"federalState":{"key":"03","name":"Niedersachsen"}},{"name":"Ernst-August-Str.","postalCode":"21683","locality":"Stade","municipality":{"key":"03359038","name":"Stade, Hansestadt","type":"Stadt"},"district":{"key":"03359","name":"Stade","type":"Landkreis"},"federalState":{"key":"03","name":"Niedersachsen"}},{"name":"Ernstweg","postalCode":"21684","locality":"Stade","municipality":{"key":"03359038","name":"Stade, Hansestadt","type":"Stadt"},"district":{"key":"03359","name":"Stade","type":"Landkreis"},"federalState":{"key":"03","name":"Niedersachsen"}},{"name":"Essenheimer Str.","postalCode":"55271","locality":"Stadecken-Elsheim","municipality":{"key":"07339057","name":"Stadecken-Elsheim","type":"Kreisangehörige_Gemeinde"},"district":{"key":"07339","name":"Mainz-Bingen","type":"Landkreis"},"federalState":{"key":"07","name":"Rheinland-Pfalz"}},{"name":"Estebrügger Str.","postalCode":"21680","locality":"Stade","municipality":{"key":"03359038","name":"Stade, Hansestadt","type":"Stadt"},"district":{"key":"03359","name":"Stade","type":"Landkreis"},"federalState":{"key":"03","name":"Niedersachsen"}},{"name":"Eulenweg","postalCode":"21684","locality":"Stade","municipality":{"key":"03359038","name":"Stade, Hansestadt","type":"Stadt"},"district":{"key":"03359","name":"Stade","type":"Landkreis"},"federalState":{"key":"03","name":"Niedersachsen"}},{"name":"Feldstr.","postalCode":"21726","locality":"Heinbockel","municipality":{"key":"03359024","name":"Heinbockel","type":"Kreisangehörige_Gemeinde"},"district":{"key":"03359","name":"Stade","type":"Landkreis"},"federalState":{"key":"03","name":"Niedersachsen"}},{"name":"Fuhrenkampsweg","postalCode":"21726","locality":"Heinbockel","municipality":{"key":"03359024","name":"Heinbockel","type":"Kreisangehörige_Gemeinde"},"district":{"key":"03359","name":"Stade","type":"Landkreis"},"federalState":{"key":"03","name":"Niedersachsen"}},{"name":"Große Str.","postalCode":"21726","locality":"Heinbockel","municipality":{"key":"03359024","name":"Heinbockel","type":"Kreisangehörige_Gemeinde"},"district":{"key":"03359","name":"Stade","type":"Landkreis"},"federalState":{"key":"03","name":"Niedersachsen"}},{"name":"Hagenaher Str.","postalCode":"21726","locality":"Heinbockel","municipality":{"key":"03359024","name":"Heinbockel","type":"Kreisangehörige_Gemeinde"},"district":{"key":"03359","name":"Stade","type":"Landkreis"},"federalState":{"key":"03","name":"Niedersachsen"}},{"name":"Himmelpfortener Weg","postalCode":"21726","locality":"Heinbockel","municipality":{"key":"03359024","name":"Heinbockel","type":"Kreisangehörige_Gemeinde"},"district":{"key":"03359","name":"Stade","type":"Landkreis"},"federalState":{"key":"03","name":"Niedersachsen"}},{"name":"Hinter den Eichen","postalCode":"21726","locality":"Heinbockel","municipality":{"key":"03359024","name":"Heinbockel","type":"Kreisangehörige_Gemeinde"},"district":{"key":"03359","name":"Stade","type":"Landkreis"},"federalState":{"key":"03","name":"Niedersachsen"}},{"name":"Hinter den Höfen","postalCode":"21726","locality":"Heinbockel","municipality":{"key":"03359024","name":"Heinbockel","type":"Kreisangehörige_Gemeinde"},"district":{"key":"03359","name":"Stade","type":"Landkreis"},"federalState":{"key":"03","name":"Niedersachsen"}},{"name":"Im Buschberge","postalCode":"21726","locality":"Heinbockel","municipality":{"key":"03359024","name":"Heinbockel","type":"Kreisangehörige_Gemeinde"},"district":{"key":"03359","name":"Stade","type":"Landkreis"},"federalState":{"key":"03","name":"Niedersachsen"}},{"name":"Im Dorfe","postalCode":"21726","locality":"Heinbockel","municipality":{"key":"03359024","name":"Heinbockel","type":"Kreisangehörige_Gemeinde"},"district":{"key":"03359","name":"Stade","type":"Landkreis"},"federalState":{"key":"03","name":"Niedersachsen"}},{"name":"Im Vieh","postalCode":"21726","locality":"Heinbockel","municipality":{"key":"03359024","name":"Heinbockel","type":"Kreisangehörige_Gemeinde"},"district":{"key":"03359","name":"Stade","type":"Landkreis"},"federalState":{"key":"03","name":"Niedersachsen"}},{"name":"Jahnstr.","postalCode":"21680","locality":"Stade","municipality":{"key":"03359038","name":"Stade, Hansestadt","type":"Stadt"},"district":{"key":"03359","name":"Stade","type":"Landkreis"},"federalState":{"key":"03","name":"Niedersachsen"}},{"name":"Jobelmannstr.","postalCode":"21680","locality":"Stade","municipality":{"key":"03359038","name":"Stade, Hansestadt","type":"Stadt"},"district":{"key":"03359","name":"Stade","type":"Landkreis"},"federalState":{"key":"03","name":"Niedersachsen"}},{"name":"Johannisburger Str.","postalCode":"21680","locality":"Stade","municipality":{"key":"03359038","name":"Stade, Hansestadt","type":"Stadt"},"district":{"key":"03359","name":"Stade","type":"Landkreis"},"federalState":{"key":"03","name":"Niedersachsen"}},{"name":"Johannisstr.","postalCode":"21682","locality":"Stade","municipality":{"key":"03359038","name":"Stade, Hansestadt","type":"Stadt"},"district":{"key":"03359","name":"Stade","type":"Landkreis"},"federalState":{"key":"03","name":"Niedersachsen"}},{"name":"Jorker Str.","postalCode":"21680","locality":"Stade","municipality":{"key":"03359038","name":"Stade, Hansestadt","type":"Stadt"},"district":{"key":"03359","name":"Stade","type":"Landkreis"},"federalState":{"key":"03","name":"Niedersachsen"}},{"name":"Julius-Leber-Weg","postalCode":"21684","locality":"Stade","municipality":{"key":"03359038","name":"Stade, Hansestadt","type":"Stadt"},"district":{"key":"03359","name":"Stade","type":"Landkreis"},"federalState":{"key":"03","name":"Niedersachsen"}},{"name":"Justus-Delbrück-Weg","postalCode":"21684","locality":"Stade","municipality":{"key":"03359038","name":"Stade, Hansestadt","type":"Stadt"},"district":{"key":"03359","name":"Stade","type":"Landkreis"},"federalState":{"key":"03","name":"Niedersachsen"}},{"name":"Kakener Weg","postalCode":"21726","locality":"Heinbockel","municipality":{"key":"03359024","name":"Heinbockel","type":"Kreisangehörige_Gemeinde"},"district":{"key":"03359","name":"Stade","type":"Landkreis"},"federalState":{"key":"03","name":"Niedersachsen"}},{"name":"Kirchweg","postalCode":"21726","locality":"Heinbockel","municipality":{"key":"03359024","name":"Heinbockel","type":"Kreisangehörige_Gemeinde"},"district":{"key":"03359","name":"Stade","type":"Landkreis"},"federalState":{"key":"03","name":"Niedersachsen"}},{"name":"Kleine Str.","postalCode":"21726","locality":"Heinbockel","municipality":{"key":"03359024","name":"Heinbockel","type":"Kreisangehörige_Gemeinde"},"district":{"key":"03359","name":"Stade","type":"Landkreis"},"federalState":{"key":"03","name":"Niedersachsen"}},{"name":"Kötnerende","postalCode":"21726","locality":"Heinbockel","municipality":{"key":"03359024","name":"Heinbockel","type":"Kreisangehörige_Gemeinde"},"district":{"key":"03359","name":"Stade","type":"Landkreis"},"federalState":{"key":"03","name":"Niedersachsen"}},{"name":"Krügerfeld","postalCode":"21726","locality":"Heinbockel","municipality":{"key":"03359024","name":"Heinbockel","type":"Kreisangehörige_Gemeinde"},"district":{"key":"03359","name":"Stade","type":"Landkreis"},"federalState":{"key":"03","name":"Niedersachsen"}},{"name":"Lämmertwiete","postalCode":"21682","locality":"Stade","municipality":{"key":"03359038","name":"Stade, Hansestadt","type":"Stadt"},"district":{"key":"03359","name":"Stade","type":"Landkreis"},"federalState":{"key":"03","name":"Niedersachsen"}},{"name":"Landernweg","postalCode":"21683","locality":"Stade","municipality":{"key":"03359038","name":"Stade, Hansestadt","type":"Stadt"},"district":{"key":"03359","name":"Stade","type":"Landkreis"},"federalState":{"key":"03","name":"Niedersachsen"}},{"name":"Landsberger Weg","postalCode":"21684","locality":"Stade","municipality":{"key":"03359038","name":"Stade, Hansestadt","type":"Stadt"},"district":{"key":"03359","name":"Stade","type":"Landkreis"},"federalState":{"key":"03","name":"Niedersachsen"}},{"name":"Lange Reihe","postalCode":"21680","locality":"Stade","municipality":{"key":"03359038","name":"Stade, Hansestadt","type":"Stadt"},"district":{"key":"03359","name":"Stade","type":"Landkreis"},"federalState":{"key":"03","name":"Niedersachsen"}},{"name":"Lange Twiete","postalCode":"21682","locality":"Stade","municipality":{"key":"03359038","name":"Stade, Hansestadt","type":"Stadt"},"district":{"key":"03359","name":"Stade","type":"Landkreis"},"federalState":{"key":"03","name":"Niedersachsen"}},{"name":"Langgasse","postalCode":"55271","locality":"Stadecken-Elsheim","municipality":{"key":"07339057","name":"Stadecken-Elsheim","type":"Kreisangehörige_Gemeinde"},"district":{"key":"07339","name":"Mainz-Bingen","type":"Landkreis"},"federalState":{"key":"07","name":"Rheinland-Pfalz"}},{"name":"Langobardenstr.","postalCode":"21680","locality":"Stade","municipality":{"key":"03359038","name":"Stade, Hansestadt","type":"Stadt"},"district":{"key":"03359","name":"Stade","type":"Landkreis"},"federalState":{"key":"03","name":"Niedersachsen"}},{"name":"Längs der Heide","postalCode":"21680","locality":"Stade","municipality":{"key":"03359038","name":"Stade, Hansestadt","type":"Stadt"},"district":{"key":"03359","name":"Stade","type":"Landkreis"},"federalState":{"key":"03","name":"Niedersachsen"}},{"name":"Leinenstieg","postalCode":"21684","locality":"Stade","municipality":{"key":"03359038","name":"Stade, Hansestadt","type":"Stadt"},"district":{"key":"03359","name":"Stade","type":"Landkreis"},"federalState":{"key":"03","name":"Niedersachsen"}},{"name":"Lemmermannweg","postalCode":"21684","locality":"Stade","municipality":{"key":"03359038","name":"Stade, Hansestadt","type":"Stadt"},"district":{"key":"03359","name":"Stade","type":"Landkreis"},"federalState":{"key":"03","name":"Niedersachsen"}},{"name":"Lerchensang","postalCode":"55271","locality":"Stadecken-Elsheim","municipality":{"key":"07339057","name":"Stadecken-Elsheim","type":"Kreisangehörige_Gemeinde"},"district":{"key":"07339","name":"Mainz-Bingen","type":"Landkreis"},"federalState":{"key":"07","name":"Rheinland-Pfalz"}},{"name":"Lerchenweg","postalCode":"21682","locality":"Stade","municipality":{"key":"03359038","name":"Stade, Hansestadt","type":"Stadt"},"district":{"key":"03359","name":"Stade","type":"Landkreis"},"federalState":{"key":"03","name":"Niedersachsen"}},{"name":"Libellenweg","postalCode":"21683","locality":"Stade","municipality":{"key":"03359038","name":"Stade, Hansestadt","type":"Stadt"},"district":{"key":"03359","name":"Stade","type":"Landkreis"},"federalState":{"key":"03","name":"Niedersachsen"}},{"name":"Liegnitzer Str.","postalCode":"21680","locality":"Stade","municipality":{"key":"03359038","name":"Stade, Hansestadt","type":"Stadt"},"district":{"key":"03359","name":"Stade","type":"Landkreis"},"federalState":{"key":"03","name":"Niedersachsen"}},{"name":"Lilienstr.","postalCode":"21682","locality":"Stade","municipality":{"key":"03359038","name":"Stade, Hansestadt","type":"Stadt"},"district":{"key":"03359","name":"Stade","type":"Landkreis"},"federalState":{"key":"03","name":"Niedersachsen"}},{"name":"Lilienthalstr.","postalCode":"21680","locality":"Stade","municipality":{"key":"03359038","name":"Stade, Hansestadt","type":"Stadt"},"district":{"key":"03359","name":"Stade","type":"Landkreis"},"federalState":{"key":"03","name":"Niedersachsen"}},{"name":"Lindenstr.","postalCode":"21684","locality":"Stade","municipality":{"key":"03359038","name":"Stade, Hansestadt","type":"Stadt"},"district":{"key":"03359","name":"Stade","type":"Landkreis"},"federalState":{"key":"03","name":"Niedersachsen"}},{"name":"Lindenstr.","postalCode":"55271","locality":"Stadecken-Elsheim","municipality":{"key":"07339057","name":"Stadecken-Elsheim","type":"Kreisangehörige_Gemeinde"},"district":{"key":"07339","name":"Mainz-Bingen","type":"Landkreis"},"federalState":{"key":"07","name":"Rheinland-Pfalz"}},{"name":"Linzer Str.","postalCode":"21680","locality":"Stade","municipality":{"key":"03359038","name":"Stade, Hansestadt","type":"Stadt"},"district":{"key":"03359","name":"Stade","type":"Landkreis"},"federalState":{"key":"03","name":"Niedersachsen"}},{"name":"Loger Weg","postalCode":"21684","locality":"Stade","municipality":{"key":"03359038","name":"Stade, Hansestadt","type":"Stadt"},"district":{"key":"03359","name":"Stade","type":"Landkreis"},"federalState":{"key":"03","name":"Niedersachsen"}},{"name":"Loger Weide","postalCode":"21684","locality":"Stade","municipality":{"key":"03359038","name":"Stade, Hansestadt","type":"Stadt"},"district":{"key":"03359","name":"Stade","type":"Landkreis"},"federalState":{"key":"03","name":"Niedersachsen"}},{"name":"Lönsweg","postalCode":"21680","locality":"Stade","municipality":{"key":"03359038","name":"Stade, Hansestadt","type":"Stadt"},"district":{"key":"03359","name":"Stade","type":"Landkreis"},"federalState":{"key":"03","name":"Niedersachsen"}},{"name":"Ludwig-Juergens-Weg","postalCode":"21682","locality":"Stade","municipality":{"key":"03359038","name":"Stade, Hansestadt","type":"Stadt"},"district":{"key":"03359","name":"Stade","type":"Landkreis"},"federalState":{"key":"03","name":"Niedersachsen"}},{"name":"Lüneburger Str.","postalCode":"21680","locality":"Stade","municipality":{"key":"03359038","name":"Stade, Hansestadt","type":"Stadt"},"district":{"key":"03359","name":"Stade","type":"Landkreis"},"federalState":{"key":"03","name":"Niedersachsen"}},{"name":"Lünenweg","postalCode":"21682","locality":"Stade","municipality":{"key":"03359038","name":"Stade, Hansestadt","type":"Stadt"},"district":{"key":"03359","name":"Stade","type":"Landkreis"},"federalState":{"key":"03","name":"Niedersachsen"}},{"name":"Lupinenkamp","postalCode":"21680","locality":"Stade","municipality":{"key":"03359038","name":"Stade, Hansestadt","type":"Stadt"},"district":{"key":"03359","name":"Stade","type":"Landkreis"},"federalState":{"key":"03","name":"Niedersachsen"}},{"name":"Lütter Weg","postalCode":"21680","locality":"Stade","municipality":{"key":"03359038","name":"Stade, Hansestadt","type":"Stadt"},"district":{"key":"03359","name":"Stade","type":"Landkreis"},"federalState":{"key":"03","name":"Niedersachsen"}},{"name":"Lycker Str.","postalCode":"21680","locality":"Stade","municipality":{"key":"03359038","name":"Stade, Hansestadt","type":"Stadt"},"district":{"key":"03359","name":"Stade","type":"Landkreis"},"federalState":{"key":"03","name":"Niedersachsen"}},{"name":"Mittelkamp","postalCode":"21726","locality":"Heinbockel","municipality":{"key":"03359024","name":"Heinbockel","type":"Kreisangehörige_Gemeinde"},"district":{"key":"03359","name":"Stade","type":"Landkreis"},"federalState":{"key":"03","name":"Niedersachsen"}},{"name":"Neuer Kamp","postalCode":"21726","locality":"Heinbockel","municipality":{"key":"03359024","name":"Heinbockel","type":"Kreisangehörige_Gemeinde"},"district":{"key":"03359","name":"Stade","type":"Landkreis"},"federalState":{"key":"03","name":"Niedersachsen"}},{"name":"Oberer Kamp","postalCode":"21726","locality":"Heinbockel","municipality":{"key":"03359024","name":"Heinbockel","type":"Kreisangehörige_Gemeinde"},"district":{"key":"03359","name":"Stade","type":"Landkreis"},"federalState":{"key":"03","name":"Niedersachsen"}},{"name":"Pappelstieg","postalCode":"21683","locality":"Stade","municipality":{"key":"03359038","name":"Stade, Hansestadt","type":"Stadt"},"district":{"key":"03359","name":"Stade","type":"Landkreis"},"federalState":{"key":"03","name":"Niedersachsen"}},{"name":"Parkstr.","postalCode":"21682","locality":"Stade","municipality":{"key":"03359038","name":"Stade, Hansestadt","type":"Stadt"},"district":{"key":"03359","name":"Stade","type":"Landkreis"},"federalState":{"key":"03","name":"Niedersachsen"}},{"name":"Parkweg","postalCode":"21682","locality":"Stade","municipality":{"key":"03359038","name":"Stade, Hansestadt","type":"Stadt"},"district":{"key":"03359","name":"Stade","type":"Landkreis"},"federalState":{"key":"03","name":"Niedersachsen"}},{"name":"Paul-Kannapke-Weg","postalCode":"21684","locality":"Stade","municipality":{"key":"03359038","name":"Stade, Hansestadt","type":"Stadt"},"district":{"key":"03359","name":"Stade","type":"Landkreis"},"federalState":{"key":"03","name":"Niedersachsen"}},{"name":"Peerkoppel","postalCode":"21683","locality":"Stade","municipality":{"key":"03359038","name":"Stade, Hansestadt","type":"Stadt"},"district":{"key":"03359","name":"Stade","type":"Landkreis"},"federalState":{"key":"03","name":"Niedersachsen"}},{"name":"Pferdestr.","postalCode":"21682","locality":"Stade","municipality":{"key":"03359038","name":"Stade, Hansestadt","type":"Stadt"},"district":{"key":"03359","name":"Stade","type":"Landkreis"},"federalState":{"key":"03","name":"Niedersachsen"}},{"name":"Pflückerweg","postalCode":"21684","locality":"Stade","municipality":{"key":"03359038","name":"Stade, Hansestadt","type":"Stadt"},"district":{"key":"03359","name":"Stade","type":"Landkreis"},"federalState":{"key":"03","name":"Niedersachsen"}},{"name":"Pillauer Str.","postalCode":"21680","locality":"Stade","municipality":{"key":"03359038","name":"Stade, Hansestadt","type":"Stadt"},"district":{"key":"03359","name":"Stade","type":"Landkreis"},"federalState":{"key":"03","name":"Niedersachsen"}},{"name":"Pommernstr.","postalCode":"21680","locality":"Stade","municipality":{"key":"03359038","name":"Stade, Hansestadt","type":"Stadt"},"district":{"key":"03359","name":"Stade","type":"Landkreis"},"federalState":{"key":"03","name":"Niedersachsen"}},{"name":"Portstr.","postalCode":"55271","locality":"Stadecken-Elsheim","municipality":{"key":"07339057","name":"Stadecken-Elsheim","type":"Kreisangehörige_Gemeinde"},"district":{"key":"07339","name":"Mainz-Bingen","type":"Landkreis"},"federalState":{"key":"07","name":"Rheinland-Pfalz"}},{"name":"Poststr.","postalCode":"21682","locality":"Stade","municipality":{"key":"03359038","name":"Stade, Hansestadt","type":"Stadt"},"district":{"key":"03359","name":"Stade","type":"Landkreis"},"federalState":{"key":"03","name":"Niedersachsen"}},{"name":"Pottwärder","postalCode":"21682","locality":"Stade","municipality":{"key":"03359038","name":"Stade, Hansestadt","type":"Stadt"},"district":{"key":"03359","name":"Stade","type":"Landkreis"},"federalState":{"key":"03","name":"Niedersachsen"}},{"name":"Priorsgarten","postalCode":"21680","locality":"Stade","municipality":{"key":"03359038","name":"Stade, Hansestadt","type":"Stadt"},"district":{"key":"03359","name":"Stade","type":"Landkreis"},"federalState":{"key":"03","name":"Niedersachsen"}},{"name":"Pulverweg","postalCode":"21682","locality":"Stade","municipality":{"key":"03359038","name":"Stade, Hansestadt","type":"Stadt"},"district":{"key":"03359","name":"Stade","type":"Landkreis"},"federalState":{"key":"03","name":"Niedersachsen"}},{"name":"Querweg","postalCode":"21726","locality":"Heinbockel","municipality":{"key":"03359024","name":"Heinbockel","type":"Kreisangehörige_Gemeinde"},"district":{"key":"03359","name":"Stade","type":"Landkreis"},"federalState":{"key":"03","name":"Niedersachsen"}},{"name":"Raiffeisenstr.","postalCode":"55271","locality":"Stadecken-Elsheim","municipality":{"key":"07339057","name":"Stadecken-Elsheim","type":"Kreisangehörige_Gemeinde"},"district":{"key":"07339","name":"Mainz-Bingen","type":"Landkreis"},"federalState":{"key":"07","name":"Rheinland-Pfalz"}},{"name":"Rainfarnweg","postalCode":"21680","locality":"Stade","municipality":{"key":"03359038","name":"Stade, Hansestadt","type":"Stadt"},"district":{"key":"03359","name":"Stade","type":"Landkreis"},"federalState":{"key":"03","name":"Niedersachsen"}},{"name":"Rebhuhnstr.","postalCode":"21683","locality":"Stade","municipality":{"key":"03359038","name":"Stade, Hansestadt","type":"Stadt"},"district":{"key":"03359","name":"Stade","type":"Landkreis"},"federalState":{"key":"03","name":"Niedersachsen"}},{"name":"Reeperbahn","postalCode":"21682","locality":"Stade","municipality":{"key":"03359038","name":"Stade, Hansestadt","type":"Stadt"},"district":{"key":"03359","name":"Stade","type":"Landkreis"},"federalState":{"key":"03","name":"Niedersachsen"}},{"name":"Rehwiese","postalCode":"21682","locality":"Stade","municipality":{"key":"03359038","name":"Stade, Hansestadt","type":"Stadt"},"district":{"key":"03359","name":"Stade","type":"Landkreis"},"federalState":{"key":"03","name":"Niedersachsen"}},{"name":"Reiner-Lange-Str.","postalCode":"21680","locality":"Stade","municipality":{"key":"03359038","name":"Stade, Hansestadt","type":"Stadt"},"district":{"key":"03359","name":"Stade","type":"Landkreis"},"federalState":{"key":"03","name":"Niedersachsen"}},{"name":"Richeyweg","postalCode":"21682","locality":"Stade","municipality":{"key":"03359038","name":"Stade, Hansestadt","type":"Stadt"},"district":{"key":"03359","name":"Stade","type":"Landkreis"},"federalState":{"key":"03","name":"Niedersachsen"}},{"name":"Rieslingstr.","postalCode":"55271","locality":"Stadecken-Elsheim","municipality":{"key":"07339057","name":"Stadecken-Elsheim","type":"Kreisangehörige_Gemeinde"},"district":{"key":"07339","name":"Mainz-Bingen","type":"Landkreis"},"federalState":{"key":"07","name":"Rheinland-Pfalz"}},{"name":"Ringelnatzweg","postalCode":"21684","locality":"Stade","municipality":{"key":"03359038","name":"Stade, Hansestadt","type":"Stadt"},"district":{"key":"03359","name":"Stade","type":"Landkreis"},"federalState":{"key":"03","name":"Niedersachsen"}},{"name":"Ritterstr.","postalCode":"21682","locality":"Stade","municipality":{"key":"03359038","name":"Stade, Hansestadt","type":"Stadt"},"district":{"key":"03359","name":"Stade","type":"Landkreis"},"federalState":{"key":"03","name":"Niedersachsen"}},{"name":"Roggenkamp","postalCode":"21680","locality":"Stade","municipality":{"key":"03359038","name":"Stade, Hansestadt","type":"Stadt"},"district":{"key":"03359","name":"Stade","type":"Landkreis"},"federalState":{"key":"03","name":"Niedersachsen"}},{"name":"Röhrweg","postalCode":"21683","locality":"Stade","municipality":{"key":"03359038","name":"Stade, Hansestadt","type":"Stadt"},"district":{"key":"03359","name":"Stade","type":"Landkreis"},"federalState":{"key":"03","name":"Niedersachsen"}},{"name":"Römerstr.","postalCode":"21680","locality":"Stade","municipality":{"key":"03359038","name":"Stade, Hansestadt","type":"Stadt"},"district":{"key":"03359","name":"Stade","type":"Landkreis"},"federalState":{"key":"03","name":"Niedersachsen"}},{"name":"Rönnebyweg","postalCode":"21682","locality":"Stade","municipality":{"key":"03359038","name":"Stade, Hansestadt","type":"Stadt"},"district":{"key":"03359","name":"Stade","type":"Landkreis"},"federalState":{"key":"03","name":"Niedersachsen"}},{"name":"Rosenstr.","postalCode":"21682","locality":"Stade","municipality":{"key":"03359038","name":"Stade, Hansestadt","type":"Stadt"},"district":{"key":"03359","name":"Stade","type":"Landkreis"},"federalState":{"key":"03","name":"Niedersachsen"}},{"name":"Rothstr.","postalCode":"21680","locality":"Stade","municipality":{"key":"03359038","name":"Stade, Hansestadt","type":"Stadt"},"district":{"key":"03359","name":"Stade","type":"Landkreis"},"federalState":{"key":"03","name":"Niedersachsen"}},{"name":"Rübenkamp","postalCode":"21680","locality":"Stade","municipality":{"key":"03359038","name":"Stade, Hansestadt","type":"Stadt"},"district":{"key":"03359","name":"Stade","type":"Landkreis"},"federalState":{"key":"03","name":"Niedersachsen"}},{"name":"Rudolf-Diesel-Str.","postalCode":"21684","locality":"Stade","municipality":{"key":"03359038","name":"Stade, Hansestadt","type":"Stadt"},"district":{"key":"03359","name":"Stade","type":"Landkreis"},"federalState":{"key":"03","name":"Niedersachsen"}},{"name":"Rudolf-Kinau-Weg","postalCode":"21684","locality":"Stade","municipality":{"key":"03359038","name":"Stade, Hansestadt","type":"Stadt"},"district":{"key":"03359","name":"Stade","type":"Landkreis"},"federalState":{"key":"03","name":"Niedersachsen"}},{"name":"Rupt Sur Moselle Str.","postalCode":"55271","locality":"Stadecken-Elsheim","municipality":{"key":"07339057","name":"Stadecken-Elsheim","type":"Kreisangehörige_Gemeinde"},"district":{"key":"07339","name":"Mainz-Bingen","type":"Landkreis"},"federalState":{"key":"07","name":"Rheinland-Pfalz"}},{"name":"Seemoorweg","postalCode":"21726","locality":"Heinbockel","municipality":{"key":"03359024","name":"Heinbockel","type":"Kreisangehörige_Gemeinde"},"district":{"key":"03359","name":"Stade","type":"Landkreis"},"federalState":{"key":"03","name":"Niedersachsen"}},{"name":"Sunder Str.","postalCode":"21726","locality":"Heinbockel","municipality":{"key":"03359024","name":"Heinbockel","type":"Kreisangehörige_Gemeinde"},"district":{"key":"03359","name":"Stade","type":"Landkreis"},"federalState":{"key":"03","name":"Niedersachsen"}},{"name":"Trift","postalCode":"21726","locality":"Heinbockel","municipality":{"key":"03359024","name":"Heinbockel","type":"Kreisangehörige_Gemeinde"},"district":{"key":"03359","name":"Stade","type":"Landkreis"},"federalState":{"key":"03","name":"Niedersachsen"}},{"name":"Unterer Kamp","postalCode":"21726","locality":"Heinbockel","municipality":{"key":"03359024","name":"Heinbockel","type":"Kreisangehörige_Gemeinde"},"district":{"key":"03359","name":"Stade","type":"Landkreis"},"federalState":{"key":"03","name":"Niedersachsen"}},{"name":"Verdener Weg","postalCode":"21683","locality":"Stade","municipality":{"key":"03359038","name":"Stade, Hansestadt","type":"Stadt"},"district":{"key":"03359","name":"Stade","type":"Landkreis"},"federalState":{"key":"03","name":"Niedersachsen"}},{"name":"Vergißmeinnicht","postalCode":"21682","locality":"Stade","municipality":{"key":"03359038","name":"Stade, Hansestadt","type":"Stadt"},"district":{"key":"03359","name":"Stade","type":"Landkreis"},"federalState":{"key":"03","name":"Niedersachsen"}},{"name":"Vfl Stade","postalCode":"21684","locality":"Stade","municipality":{"key":"03359038","name":"Stade, Hansestadt","type":"Stadt"},"district":{"key":"03359","name":"Stade","type":"Landkreis"},"federalState":{"key":"03","name":"Niedersachsen"}},{"name":"Vincent-Luebeck-Str.","postalCode":"21682","locality":"Stade","municipality":{"key":"03359038","name":"Stade, Hansestadt","type":"Stadt"},"district":{"key":"03359","name":"Stade","type":"Landkreis"},"federalState":{"key":"03","name":"Niedersachsen"}},{"name":"Visbyweg","postalCode":"21682","locality":"Stade","municipality":{"key":"03359038","name":"Stade, Hansestadt","type":"Stadt"},"district":{"key":"03359","name":"Stade","type":"Landkreis"},"federalState":{"key":"03","name":"Niedersachsen"}},{"name":"Vogelsang","postalCode":"21682","locality":"Stade","municipality":{"key":"03359038","name":"Stade, Hansestadt","type":"Stadt"},"district":{"key":"03359","name":"Stade","type":"Landkreis"},"federalState":{"key":"03","name":"Niedersachsen"}},{"name":"Vor dem Kamp","postalCode":"21680","locality":"Stade","municipality":{"key":"03359038","name":"Stade, Hansestadt","type":"Stadt"},"district":{"key":"03359","name":"Stade","type":"Landkreis"},"federalState":{"key":"03","name":"Niedersachsen"}},{"name":"Vor dem Rüsch","postalCode":"21680","locality":"Stade","municipality":{"key":"03359038","name":"Stade, Hansestadt","type":"Stadt"},"district":{"key":"03359","name":"Stade","type":"Landkreis"},"federalState":{"key":"03","name":"Niedersachsen"}},{"name":"Vor den Höfen","postalCode":"21683","locality":"Stade","municipality":{"key":"03359038","name":"Stade, Hansestadt","type":"Stadt"},"district":{"key":"03359","name":"Stade","type":"Landkreis"},"federalState":{"key":"03","name":"Niedersachsen"}},{"name":"Vor der Weide","postalCode":"21683","locality":"Stade","municipality":{"key":"03359038","name":"Stade, Hansestadt","type":"Stadt"},"district":{"key":"03359","name":"Stade","type":"Landkreis"},"federalState":{"key":"03","name":"Niedersachsen"}},{"name":"Vör de Weid","postalCode":"21684","locality":"Stade","municipality":{"key":"03359038","name":"Stade, Hansestadt","type":"Stadt"},"district":{"key":"03359","name":"Stade","type":"Landkreis"},"federalState":{"key":"03","name":"Niedersachsen"}},{"name":"Vorwerkstr.","postalCode":"21680","locality":"Stade","municipality":{"key":"03359038","name":"Stade, Hansestadt","type":"Stadt"},"district":{"key":"03359","name":"Stade","type":"Landkreis"},"federalState":{"key":"03","name":"Niedersachsen"}},{"name":"Voßkuhl","postalCode":"21682","locality":"Stade","municipality":{"key":"03359038","name":"Stade, Hansestadt","type":"Stadt"},"district":{"key":"03359","name":"Stade","type":"Landkreis"},"federalState":{"key":"03","name":"Niedersachsen"}},{"name":"Wiesenring","postalCode":"21726","locality":"Heinbockel","municipality":{"key":"03359024","name":"Heinbockel","type":"Kreisangehörige_Gemeinde"},"district":{"key":"03359","name":"Stade","type":"Landkreis"},"federalState":{"key":"03","name":"Niedersachsen"}},{"name":"Wiesenweg","postalCode":"21726","locality":"Heinbockel","municipality":{"key":"03359024","name":"Heinbockel","type":"Kreisangehörige_Gemeinde"},"district":{"key":"03359","name":"Stade","type":"Landkreis"},"federalState":{"key":"03","name":"Niedersachsen"}},{"name":"Willah","postalCode":"21726","locality":"Heinbockel","municipality":{"key":"03359024","name":"Heinbockel","type":"Kreisangehörige_Gemeinde"},"district":{"key":"03359","name":"Stade","type":"Landkreis"},"federalState":{"key":"03","name":"Niedersachsen"}},{"name":"Ystadweg","postalCode":"21682","locality":"Stade","municipality":{"key":"03359038","name":"Stade, Hansestadt","type":"Stadt"},"district":{"key":"03359","name":"Stade","type":"Landkreis"},"federalState":{"key":"03","name":"Niedersachsen"}},{"name":"Zehnthofstr.","postalCode":"55271","locality":"Stadecken-Elsheim","municipality":{"key":"07339057","name":"Stadecken-Elsheim","type":"Kreisangehörige_Gemeinde"},"district":{"key":"07339","name":"Mainz-Bingen","type":"Landkreis"},"federalState":{"key":"07","name":"Rheinland-Pfalz"}},{"name":"Zeisigweg","postalCode":"21682","locality":"Stade","municipality":{"key":"03359038","name":"Stade, Hansestadt","type":"Stadt"},"district":{"key":"03359","name":"Stade","type":"Landkreis"},"federalState":{"key":"03","name":"Niedersachsen"}},{"name":"Zeppelinstr.","postalCode":"21680","locality":"Stade","municipality":{"key":"03359038","name":"Stade, Hansestadt","type":"Stadt"},"district":{"key":"03359","name":"Stade","type":"Landkreis"},"federalState":{"key":"03","name":"Niedersachsen"}},{"name":"Zum Lichtenberg","postalCode":"21684","locality":"Stade","municipality":{"key":"03359038","name":"Stade, Hansestadt","type":"Stadt"},"district":{"key":"03359","name":"Stade","type":"Landkreis"},"federalState":{"key":"03","name":"Niedersachsen"}},{"name":"Zum Pulverberg","postalCode":"21682","locality":"Stade","municipality":{"key":"03359038","name":"Stade, Hansestadt","type":"Stadt"},"district":{"key":"03359","name":"Stade","type":"Landkreis"},"federalState":{"key":"03","name":"Niedersachsen"}},{"name":"Zum Schwingetal","postalCode":"21680","locality":"Stade","municipality":{"key":"03359038","name":"Stade, Hansestadt","type":"Stadt"},"district":{"key":"03359","name":"Stade","type":"Landkreis"},"federalState":{"key":"03","name":"Niedersachsen"}},{"name":"Zum Wiesenland","postalCode":"21682","locality":"Stade","municipality":{"key":"03359038","name":"Stade, Hansestadt","type":"Stadt"},"district":{"key":"03359","name":"Stade","type":"Landkreis"},"federalState":{"key":"03","name":"Niedersachsen"}},{"name":"Zur Mühle","postalCode":"21684","locality":"Stade","municipality":{"key":"03359038","name":"Stade, Hansestadt","type":"Stadt"},"district":{"key":"03359","name":"Stade","type":"Landkreis"},"federalState":{"key":"03","name":"Niedersachsen"}},{"name":"Zwerggasse","postalCode":"55271","locality":"Stadecken-Elsheim","municipality":{"key":"07339057","name":"Stadecken-Elsheim","type":"Kreisangehörige_Gemeinde"},"district":{"key":"07339","name":"Mainz-Bingen","type":"Landkreis"},"federalState":{"key":"07","name":"Rheinland-Pfalz"}},{"name":"Überschuß","postalCode":"21726","locality":"Heinbockel","municipality":{"key":"03359024","name":"Heinbockel","type":"Kreisangehörige_Gemeinde"},"district":{"key":"03359","name":"Stade","type":"Landkreis"},"federalState":{"key":"03","name":"Niedersachsen"}},]