[{"name":"Am Felsenbusch","postalCode":"67744","locality":"Seelen","municipality":{"key":"07333203","name":"Seelen","type":"Kreisangehörige_Gemeinde"},"district":{"key":"07333","name":"Donnersbergkreis","type":"Landkreis"},"federalState":{"key":"07","name":"Rheinland-Pfalz"}},{"name":"Am Teich","postalCode":"67744","locality":"Seelen","municipality":{"key":"07333203","name":"Seelen","type":"Kreisangehörige_Gemeinde"},"district":{"key":"07333","name":"Donnersbergkreis","type":"Landkreis"},"federalState":{"key":"07","name":"Rheinland-Pfalz"}},{"name":"Buchenbergstr.","postalCode":"67744","locality":"Seelen","municipality":{"key":"07333203","name":"Seelen","type":"Kreisangehörige_Gemeinde"},"district":{"key":"07333","name":"Donnersbergkreis","type":"Landkreis"},"federalState":{"key":"07","name":"Rheinland-Pfalz"}},{"name":"Felsstr.","postalCode":"67744","locality":"Seelen","municipality":{"key":"07333203","name":"Seelen","type":"Kreisangehörige_Gemeinde"},"district":{"key":"07333","name":"Donnersbergkreis","type":"Landkreis"},"federalState":{"key":"07","name":"Rheinland-Pfalz"}},{"name":"Hauptstr.","postalCode":"67744","locality":"Seelen","municipality":{"key":"07333203","name":"Seelen","type":"Kreisangehörige_Gemeinde"},"district":{"key":"07333","name":"Donnersbergkreis","type":"Landkreis"},"federalState":{"key":"07","name":"Rheinland-Pfalz"}},{"name":"Kessler Acker","postalCode":"67744","locality":"Seelen","municipality":{"key":"07333203","name":"Seelen","type":"Kreisangehörige_Gemeinde"},"district":{"key":"07333","name":"Donnersbergkreis","type":"Landkreis"},"federalState":{"key":"07","name":"Rheinland-Pfalz"}},{"name":"Kindergartenstr.","postalCode":"67744","locality":"Seelen","municipality":{"key":"07333203","name":"Seelen","type":"Kreisangehörige_Gemeinde"},"district":{"key":"07333","name":"Donnersbergkreis","type":"Landkreis"},"federalState":{"key":"07","name":"Rheinland-Pfalz"}},{"name":"Zur Hörst","postalCode":"67744","locality":"Seelen","municipality":{"key":"07333203","name":"Seelen","type":"Kreisangehörige_Gemeinde"},"district":{"key":"07333","name":"Donnersbergkreis","type":"Landkreis"},"federalState":{"key":"07","name":"Rheinland-Pfalz"}},]