[{"key":"10143416","name":"Chemin de Botonnet","postalCode":"1070","locality":"Puidoux","commune":{"key":"5607","name":"Puidoux","shortName":"Puidoux"},"district":{"key":"2226","name":"District de Lavaux-Oron"},"canton":{"key":"22","code":"VD","name":"Vaud"},"status":"Real"},{"key":"10035848","name":"Chemin de Cremont","postalCode":"1070","locality":"Puidoux","commune":{"key":"5607","name":"Puidoux","shortName":"Puidoux"},"district":{"key":"2226","name":"District de Lavaux-Oron"},"canton":{"key":"22","code":"VD","name":"Vaud"},"status":"Real"},{"key":"10147717","name":"Chemin de Drugex","postalCode":"1070","locality":"Puidoux","commune":{"key":"5607","name":"Puidoux","shortName":"Puidoux"},"district":{"key":"2226","name":"District de Lavaux-Oron"},"canton":{"key":"22","code":"VD","name":"Vaud"},"status":"Real"},{"key":"10134223","name":"Chemin de Fény","postalCode":"1070","locality":"Puidoux","commune":{"key":"5607","name":"Puidoux","shortName":"Puidoux"},"district":{"key":"2226","name":"District de Lavaux-Oron"},"canton":{"key":"22","code":"VD","name":"Vaud"},"status":"Real"},{"key":"10143420","name":"Chemin de Granges","postalCode":"1070","locality":"Puidoux","commune":{"key":"5607","name":"Puidoux","shortName":"Puidoux"},"district":{"key":"2226","name":"District de Lavaux-Oron"},"canton":{"key":"22","code":"VD","name":"Vaud"},"status":"Real"},{"key":"10149812","name":"Chemin de la Buritaz","postalCode":"1070","locality":"Puidoux","commune":{"key":"5607","name":"Puidoux","shortName":"Puidoux"},"district":{"key":"2226","name":"District de Lavaux-Oron"},"canton":{"key":"22","code":"VD","name":"Vaud"},"status":"Real"},{"key":"10068722","name":"Chemin de la Chapelle","postalCode":"1070","locality":"Puidoux","commune":{"key":"5607","name":"Puidoux","shortName":"Puidoux"},"district":{"key":"2226","name":"District de Lavaux-Oron"},"canton":{"key":"22","code":"VD","name":"Vaud"},"status":"Real"},{"key":"10143418","name":"Chemin de la Combaz-Teysaz","postalCode":"1070","locality":"Puidoux","commune":{"key":"5607","name":"Puidoux","shortName":"Puidoux"},"district":{"key":"2226","name":"District de Lavaux-Oron"},"canton":{"key":"22","code":"VD","name":"Vaud"},"status":"Real"},{"key":"10144106","name":"Chemin de la Corbessière","postalCode":"1070","locality":"Puidoux","commune":{"key":"5607","name":"Puidoux","shortName":"Puidoux"},"district":{"key":"2226","name":"District de Lavaux-Oron"},"canton":{"key":"22","code":"VD","name":"Vaud"},"status":"Real"},{"key":"10040613","name":"Chemin de la Croix","postalCode":"1070","locality":"Puidoux","commune":{"key":"5607","name":"Puidoux","shortName":"Puidoux"},"district":{"key":"2226","name":"District de Lavaux-Oron"},"canton":{"key":"22","code":"VD","name":"Vaud"},"status":"Real"},{"key":"10153518","name":"Chemin de la Crosse","postalCode":"1070","locality":"Puidoux","commune":{"key":"5607","name":"Puidoux","shortName":"Puidoux"},"district":{"key":"2226","name":"District de Lavaux-Oron"},"canton":{"key":"22","code":"VD","name":"Vaud"},"status":"Real"},{"key":"10148011","name":"Chemin de la Damaz","postalCode":"1070","locality":"Puidoux","commune":{"key":"5607","name":"Puidoux","shortName":"Puidoux"},"district":{"key":"2226","name":"District de Lavaux-Oron"},"canton":{"key":"22","code":"VD","name":"Vaud"},"status":"Real"},{"key":"10144107","name":"Chemin de la Dame","postalCode":"1070","locality":"Puidoux","commune":{"key":"5607","name":"Puidoux","shortName":"Puidoux"},"district":{"key":"2226","name":"District de Lavaux-Oron"},"canton":{"key":"22","code":"VD","name":"Vaud"},"status":"Real"},{"key":"10035847","name":"Chemin de la Daucrettaz","postalCode":"1070","locality":"Puidoux","commune":{"key":"5607","name":"Puidoux","shortName":"Puidoux"},"district":{"key":"2226","name":"District de Lavaux-Oron"},"canton":{"key":"22","code":"VD","name":"Vaud"},"status":"Real"},{"key":"10134703","name":"Chemin de la Fourmi","postalCode":"1070","locality":"Puidoux","commune":{"key":"5607","name":"Puidoux","shortName":"Puidoux"},"district":{"key":"2226","name":"District de Lavaux-Oron"},"canton":{"key":"22","code":"VD","name":"Vaud"},"status":"Real"},{"key":"10149816","name":"Chemin de la Lôche-Dessus","postalCode":"1070","locality":"Puidoux","commune":{"key":"5607","name":"Puidoux","shortName":"Puidoux"},"district":{"key":"2226","name":"District de Lavaux-Oron"},"canton":{"key":"22","code":"VD","name":"Vaud"},"status":"Real"},{"key":"10142474","name":"Chemin de la Michoude","postalCode":"1070","locality":"Puidoux","commune":{"key":"5607","name":"Puidoux","shortName":"Puidoux"},"district":{"key":"2226","name":"District de Lavaux-Oron"},"canton":{"key":"22","code":"VD","name":"Vaud"},"status":"Real"},{"key":"10134224","name":"Chemin de la Miliquettaz","postalCode":"1070","locality":"Puidoux","commune":{"key":"5607","name":"Puidoux","shortName":"Puidoux"},"district":{"key":"2226","name":"District de Lavaux-Oron"},"canton":{"key":"22","code":"VD","name":"Vaud"},"status":"Real"},{"key":"10143424","name":"Chemin de la Nachonnaz","postalCode":"1070","locality":"Puidoux","commune":{"key":"5607","name":"Puidoux","shortName":"Puidoux"},"district":{"key":"2226","name":"District de Lavaux-Oron"},"canton":{"key":"22","code":"VD","name":"Vaud"},"status":"Real"},{"key":"10151962","name":"Chemin de la Pésottaz","postalCode":"1070","locality":"Puidoux","commune":{"key":"5607","name":"Puidoux","shortName":"Puidoux"},"district":{"key":"2226","name":"District de Lavaux-Oron"},"canton":{"key":"22","code":"VD","name":"Vaud"},"status":"Real"},{"key":"10168111","name":"Chemin de la Porte de Bret","postalCode":"1070","locality":"Puidoux","commune":{"key":"5607","name":"Puidoux","shortName":"Puidoux"},"district":{"key":"2226","name":"District de Lavaux-Oron"},"canton":{"key":"22","code":"VD","name":"Vaud"},"status":"Real"},{"key":"10148012","name":"Chemin de la Simonaz","postalCode":"1070","locality":"Puidoux","commune":{"key":"5607","name":"Puidoux","shortName":"Puidoux"},"district":{"key":"2226","name":"District de Lavaux-Oron"},"canton":{"key":"22","code":"VD","name":"Vaud"},"status":"Real"},{"key":"10147715","name":"Chemin de la Tour de Marsens","postalCode":"1070","locality":"Puidoux","commune":{"key":"5607","name":"Puidoux","shortName":"Puidoux"},"district":{"key":"2226","name":"District de Lavaux-Oron"},"canton":{"key":"22","code":"VD","name":"Vaud"},"status":"Real"},{"key":"10134225","name":"Chemin de la Vergnaulaz","postalCode":"1070","locality":"Puidoux","commune":{"key":"5607","name":"Puidoux","shortName":"Puidoux"},"district":{"key":"2226","name":"District de Lavaux-Oron"},"canton":{"key":"22","code":"VD","name":"Vaud"},"status":"Real"},{"key":"10153519","name":"Chemin de la Vulpillière","postalCode":"1070","locality":"Puidoux","commune":{"key":"5607","name":"Puidoux","shortName":"Puidoux"},"district":{"key":"2226","name":"District de Lavaux-Oron"},"canton":{"key":"22","code":"VD","name":"Vaud"},"status":"Real"},{"key":"10143421","name":"Chemin de Longchamp","postalCode":"1070","locality":"Puidoux","commune":{"key":"5607","name":"Puidoux","shortName":"Puidoux"},"district":{"key":"2226","name":"District de Lavaux-Oron"},"canton":{"key":"22","code":"VD","name":"Vaud"},"status":"Real"},{"key":"10134226","name":"Chemin de Longive","postalCode":"1070","locality":"Puidoux","commune":{"key":"5607","name":"Puidoux","shortName":"Puidoux"},"district":{"key":"2226","name":"District de Lavaux-Oron"},"canton":{"key":"22","code":"VD","name":"Vaud"},"status":"Real"},{"key":"10149817","name":"Chemin de Paully","postalCode":"1070","locality":"Puidoux","commune":{"key":"5607","name":"Puidoux","shortName":"Puidoux"},"district":{"key":"2226","name":"District de Lavaux-Oron"},"canton":{"key":"22","code":"VD","name":"Vaud"},"status":"Real"},{"key":"10168112","name":"Chemin de Pierre-Vieille","postalCode":"1070","locality":"Puidoux","commune":{"key":"5607","name":"Puidoux","shortName":"Puidoux"},"district":{"key":"2226","name":"District de Lavaux-Oron"},"canton":{"key":"22","code":"VD","name":"Vaud"},"status":"Real"},{"key":"10134721","name":"Chemin de Praz-Constant","postalCode":"1070","locality":"Puidoux","commune":{"key":"5607","name":"Puidoux","shortName":"Puidoux"},"district":{"key":"2226","name":"District de Lavaux-Oron"},"canton":{"key":"22","code":"VD","name":"Vaud"},"status":"Real"},{"key":"10149818","name":"Chemin de Praz-Pourri","postalCode":"1070","locality":"Puidoux","commune":{"key":"5607","name":"Puidoux","shortName":"Puidoux"},"district":{"key":"2226","name":"District de Lavaux-Oron"},"canton":{"key":"22","code":"VD","name":"Vaud"},"status":"Real"},{"key":"10169067","name":"Chemin de Publoz","postalCode":"1070","locality":"Puidoux","commune":{"key":"5607","name":"Puidoux","shortName":"Puidoux"},"district":{"key":"2226","name":"District de Lavaux-Oron"},"canton":{"key":"22","code":"VD","name":"Vaud"},"status":"Real"},{"key":"10143417","name":"Chemin des Carboles","postalCode":"1070","locality":"Puidoux","commune":{"key":"5607","name":"Puidoux","shortName":"Puidoux"},"district":{"key":"2226","name":"District de Lavaux-Oron"},"canton":{"key":"22","code":"VD","name":"Vaud"},"status":"Real"},{"key":"10149819","name":"Chemin des Chaux","postalCode":"1070","locality":"Puidoux","commune":{"key":"5607","name":"Puidoux","shortName":"Puidoux"},"district":{"key":"2226","name":"District de Lavaux-Oron"},"canton":{"key":"22","code":"VD","name":"Vaud"},"status":"Real"},{"key":"10058847","name":"Chemin des Condémines","postalCode":"1070","locality":"Puidoux","commune":{"key":"5607","name":"Puidoux","shortName":"Puidoux"},"district":{"key":"2226","name":"District de Lavaux-Oron"},"canton":{"key":"22","code":"VD","name":"Vaud"},"status":"Real"},{"key":"10142536","name":"Chemin des Crêts de Publoz","postalCode":"1070","locality":"Puidoux","commune":{"key":"5607","name":"Puidoux","shortName":"Puidoux"},"district":{"key":"2226","name":"District de Lavaux-Oron"},"canton":{"key":"22","code":"VD","name":"Vaud"},"status":"Real"},{"key":"10143419","name":"Chemin des Envers","postalCode":"1070","locality":"Puidoux","commune":{"key":"5607","name":"Puidoux","shortName":"Puidoux"},"district":{"key":"2226","name":"District de Lavaux-Oron"},"canton":{"key":"22","code":"VD","name":"Vaud"},"status":"Real"},{"key":"10205971","name":"Chemin des Grands Crus Dézaley","postalCode":"1070","locality":"Puidoux","commune":{"key":"5607","name":"Puidoux","shortName":"Puidoux"},"district":{"key":"2226","name":"District de Lavaux-Oron"},"canton":{"key":"22","code":"VD","name":"Vaud"},"status":"Real"},{"key":"10143422","name":"Chemin des Moilles","postalCode":"1070","locality":"Puidoux","commune":{"key":"5607","name":"Puidoux","shortName":"Puidoux"},"district":{"key":"2226","name":"District de Lavaux-Oron"},"canton":{"key":"22","code":"VD","name":"Vaud"},"status":"Real"},{"key":"10151958","name":"Chemin des Murailles","postalCode":"1070","locality":"Puidoux","commune":{"key":"5607","name":"Puidoux","shortName":"Puidoux"},"district":{"key":"2226","name":"District de Lavaux-Oron"},"canton":{"key":"22","code":"VD","name":"Vaud"},"status":"Real"},{"key":"10035864","name":"Chemin des Plantaz","postalCode":"1070","locality":"Puidoux","commune":{"key":"5607","name":"Puidoux","shortName":"Puidoux"},"district":{"key":"2226","name":"District de Lavaux-Oron"},"canton":{"key":"22","code":"VD","name":"Vaud"},"status":"Real"},{"key":"10141303","name":"Chemin des Usillons","postalCode":"1070","locality":"Puidoux","commune":{"key":"5607","name":"Puidoux","shortName":"Puidoux"},"district":{"key":"2226","name":"District de Lavaux-Oron"},"canton":{"key":"22","code":"VD","name":"Vaud"},"status":"Real"},{"key":"10101823","name":"Chemin de Tagnire","postalCode":"1070","locality":"Puidoux","commune":{"key":"5607","name":"Puidoux","shortName":"Puidoux"},"district":{"key":"2226","name":"District de Lavaux-Oron"},"canton":{"key":"22","code":"VD","name":"Vaud"},"status":"Real"},{"key":"10102090","name":"Chemin de Vers-chez-les-Conne","postalCode":"1070","locality":"Puidoux","commune":{"key":"5607","name":"Puidoux","shortName":"Puidoux"},"district":{"key":"2226","name":"District de Lavaux-Oron"},"canton":{"key":"22","code":"VD","name":"Vaud"},"status":"Real"},{"key":"10149312","name":"Chemin du Bois Jaccoud","postalCode":"1070","locality":"Puidoux","commune":{"key":"5607","name":"Puidoux","shortName":"Puidoux"},"district":{"key":"2226","name":"District de Lavaux-Oron"},"canton":{"key":"22","code":"VD","name":"Vaud"},"status":"Real"},{"key":"10102091","name":"Chemin du Daillard","postalCode":"1070","locality":"Puidoux","commune":{"key":"5607","name":"Puidoux","shortName":"Puidoux"},"district":{"key":"2226","name":"District de Lavaux-Oron"},"canton":{"key":"22","code":"VD","name":"Vaud"},"status":"Real"},{"key":"10035873","name":"Chemin du Dézaley","postalCode":"1070","locality":"Puidoux","commune":{"key":"5607","name":"Puidoux","shortName":"Puidoux"},"district":{"key":"2226","name":"District de Lavaux-Oron"},"canton":{"key":"22","code":"VD","name":"Vaud"},"status":"Real"},{"key":"10149821","name":"Chemin du Lac de Bret","postalCode":"1070","locality":"Puidoux","commune":{"key":"5607","name":"Puidoux","shortName":"Puidoux"},"district":{"key":"2226","name":"District de Lavaux-Oron"},"canton":{"key":"22","code":"VD","name":"Vaud"},"status":"Real"},{"key":"10141304","name":"Chemin du Mont","postalCode":"1070","locality":"Puidoux","commune":{"key":"5607","name":"Puidoux","shortName":"Puidoux"},"district":{"key":"2226","name":"District de Lavaux-Oron"},"canton":{"key":"22","code":"VD","name":"Vaud"},"status":"Real"},{"key":"10155950","name":"Chemin du Montchervet","postalCode":"1070","locality":"Puidoux","commune":{"key":"5607","name":"Puidoux","shortName":"Puidoux"},"district":{"key":"2226","name":"District de Lavaux-Oron"},"canton":{"key":"22","code":"VD","name":"Vaud"},"status":"Real"},{"key":"10246448","name":"En Cremont","postalCode":"1070","locality":"Puidoux","commune":{"key":"5607","name":"Puidoux","shortName":"Puidoux"},"district":{"key":"2226","name":"District de Lavaux-Oron"},"canton":{"key":"22","code":"VD","name":"Vaud"},"status":"Real"},{"key":"10035849","name":"Es Ruppes","postalCode":"1070","locality":"Puidoux","commune":{"key":"5607","name":"Puidoux","shortName":"Puidoux"},"district":{"key":"2226","name":"District de Lavaux-Oron"},"canton":{"key":"22","code":"VD","name":"Vaud"},"status":"Real"},{"key":"10062992","name":"Route de Chardonne","postalCode":"1070","locality":"Puidoux","commune":{"key":"5607","name":"Puidoux","shortName":"Puidoux"},"district":{"key":"2226","name":"District de Lavaux-Oron"},"canton":{"key":"22","code":"VD","name":"Vaud"},"status":"Real"},{"key":"10188657","name":"Route de Cremières","postalCode":"1070","locality":"Puidoux","commune":{"key":"5607","name":"Puidoux","shortName":"Puidoux"},"district":{"key":"2226","name":"District de Lavaux-Oron"},"canton":{"key":"22","code":"VD","name":"Vaud"},"status":"Real"},{"key":"10149824","name":"Route de Forel","postalCode":"1070","locality":"Puidoux","commune":{"key":"5607","name":"Puidoux","shortName":"Puidoux"},"district":{"key":"2226","name":"District de Lavaux-Oron"},"canton":{"key":"22","code":"VD","name":"Vaud"},"status":"Real"},{"key":"10149825","name":"Route de la Barnum","postalCode":"1070","locality":"Puidoux","commune":{"key":"5607","name":"Puidoux","shortName":"Puidoux"},"district":{"key":"2226","name":"District de Lavaux-Oron"},"canton":{"key":"22","code":"VD","name":"Vaud"},"status":"Real"},{"key":"10035871","name":"Route de la Corniche","postalCode":"1070","locality":"Puidoux","commune":{"key":"5607","name":"Puidoux","shortName":"Puidoux"},"district":{"key":"2226","name":"District de Lavaux-Oron"},"canton":{"key":"22","code":"VD","name":"Vaud"},"status":"Real"},{"key":"10035860","name":"Route de la Gare","postalCode":"1070","locality":"Puidoux","commune":{"key":"5607","name":"Puidoux","shortName":"Puidoux"},"district":{"key":"2226","name":"District de Lavaux-Oron"},"canton":{"key":"22","code":"VD","name":"Vaud"},"status":"Real"},{"key":"10057058","name":"Route de la Léchaire","postalCode":"1070","locality":"Puidoux","commune":{"key":"5607","name":"Puidoux","shortName":"Puidoux"},"district":{"key":"2226","name":"District de Lavaux-Oron"},"canton":{"key":"22","code":"VD","name":"Vaud"},"status":"Real"},{"key":"10062987","name":"Route de la Tronche","postalCode":"1070","locality":"Puidoux","commune":{"key":"5607","name":"Puidoux","shortName":"Puidoux"},"district":{"key":"2226","name":"District de Lavaux-Oron"},"canton":{"key":"22","code":"VD","name":"Vaud"},"status":"Real"},{"key":"10126297","name":"Route de la Z.I. du Verney","postalCode":"1070","locality":"Puidoux","commune":{"key":"5607","name":"Puidoux","shortName":"Puidoux"},"district":{"key":"2226","name":"District de Lavaux-Oron"},"canton":{"key":"22","code":"VD","name":"Vaud"},"status":"Real"},{"key":"10160512","name":"Route de Sous-la-Ville","postalCode":"1070","locality":"Puidoux","commune":{"key":"5607","name":"Puidoux","shortName":"Puidoux"},"district":{"key":"2226","name":"District de Lavaux-Oron"},"canton":{"key":"22","code":"VD","name":"Vaud"},"status":"Real"},{"key":"10035872","name":"Route des Thioleyres","postalCode":"1070","locality":"Puidoux","commune":{"key":"5607","name":"Puidoux","shortName":"Puidoux"},"district":{"key":"2226","name":"District de Lavaux-Oron"},"canton":{"key":"22","code":"VD","name":"Vaud"},"status":"Real"},{"key":"10035861","name":"Route du Flonzaley","postalCode":"1070","locality":"Puidoux","commune":{"key":"5607","name":"Puidoux","shortName":"Puidoux"},"district":{"key":"2226","name":"District de Lavaux-Oron"},"canton":{"key":"22","code":"VD","name":"Vaud"},"status":"Real"},{"key":"10127025","name":"Route du Lac","postalCode":"1070","locality":"Puidoux","commune":{"key":"5607","name":"Puidoux","shortName":"Puidoux"},"district":{"key":"2226","name":"District de Lavaux-Oron"},"canton":{"key":"22","code":"VD","name":"Vaud"},"status":"Real"},{"key":"10188656","name":"Route du Vergnolet","postalCode":"1070","locality":"Puidoux","commune":{"key":"5607","name":"Puidoux","shortName":"Puidoux"},"district":{"key":"2226","name":"District de Lavaux-Oron"},"canton":{"key":"22","code":"VD","name":"Vaud"},"status":"Real"},{"key":"10102085","name":"Route du Verney","postalCode":"1070","locality":"Puidoux","commune":{"key":"5607","name":"Puidoux","shortName":"Puidoux"},"district":{"key":"2226","name":"District de Lavaux-Oron"},"canton":{"key":"22","code":"VD","name":"Vaud"},"status":"Real"},{"key":"10101824","name":"Route du Village","postalCode":"1070","locality":"Puidoux","commune":{"key":"5607","name":"Puidoux","shortName":"Puidoux"},"district":{"key":"2226","name":"District de Lavaux-Oron"},"canton":{"key":"22","code":"VD","name":"Vaud"},"status":"Real"},{"key":"10126886","name":"Route Z.I. La Vulpillière","postalCode":"1070","locality":"Puidoux","commune":{"key":"5607","name":"Puidoux","shortName":"Puidoux"},"district":{"key":"2226","name":"District de Lavaux-Oron"},"canton":{"key":"22","code":"VD","name":"Vaud"},"status":"Real"},]