[{"name":"Abt-Veit-Höser-Platz","postalCode":"95469","locality":"Speichersdorf","municipality":{"key":"09472190","name":"Speichersdorf","type":"Kreisangehörige_Gemeinde"},"district":{"key":"09472","name":"Bayreuth","type":"Landkreis"},"federalState":{"key":"09","name":"Bayern"}},{"name":"Albrecht-Dürer-Str.","postalCode":"95469","locality":"Speichersdorf","municipality":{"key":"09472190","name":"Speichersdorf","type":"Kreisangehörige_Gemeinde"},"district":{"key":"09472","name":"Bayreuth","type":"Landkreis"},"federalState":{"key":"09","name":"Bayern"}},{"name":"Altburgstr.","postalCode":"54597","locality":"Hersdorf","municipality":{"key":"07232332","name":"Hersdorf","type":"Kreisangehörige_Gemeinde"},"district":{"key":"07232","name":"Eifelkreis Bitburg-Prüm","type":"Landkreis"},"federalState":{"key":"07","name":"Rheinland-Pfalz"}},{"name":"Altburgtal","postalCode":"54597","locality":"Hersdorf","municipality":{"key":"07232332","name":"Hersdorf","type":"Kreisangehörige_Gemeinde"},"district":{"key":"07232","name":"Eifelkreis Bitburg-Prüm","type":"Landkreis"},"federalState":{"key":"07","name":"Rheinland-Pfalz"}},{"name":"Alter Weg","postalCode":"54597","locality":"Hersdorf","municipality":{"key":"07232332","name":"Hersdorf","type":"Kreisangehörige_Gemeinde"},"district":{"key":"07232","name":"Eifelkreis Bitburg-Prüm","type":"Landkreis"},"federalState":{"key":"07","name":"Rheinland-Pfalz"}},{"name":"Am Gieresberg","postalCode":"54597","locality":"Hersdorf","municipality":{"key":"07232332","name":"Hersdorf","type":"Kreisangehörige_Gemeinde"},"district":{"key":"07232","name":"Eifelkreis Bitburg-Prüm","type":"Landkreis"},"federalState":{"key":"07","name":"Rheinland-Pfalz"}},{"name":"Am Hohlweg","postalCode":"54597","locality":"Hersdorf","municipality":{"key":"07232332","name":"Hersdorf","type":"Kreisangehörige_Gemeinde"},"district":{"key":"07232","name":"Eifelkreis Bitburg-Prüm","type":"Landkreis"},"federalState":{"key":"07","name":"Rheinland-Pfalz"}},{"name":"Am Pi","postalCode":"54597","locality":"Hersdorf","municipality":{"key":"07232332","name":"Hersdorf","type":"Kreisangehörige_Gemeinde"},"district":{"key":"07232","name":"Eifelkreis Bitburg-Prüm","type":"Landkreis"},"federalState":{"key":"07","name":"Rheinland-Pfalz"}},{"name":"An den Mehlbäumen","postalCode":"54597","locality":"Hersdorf","municipality":{"key":"07232332","name":"Hersdorf","type":"Kreisangehörige_Gemeinde"},"district":{"key":"07232","name":"Eifelkreis Bitburg-Prüm","type":"Landkreis"},"federalState":{"key":"07","name":"Rheinland-Pfalz"}},{"name":"An der Kirche","postalCode":"54597","locality":"Hersdorf","municipality":{"key":"07232332","name":"Hersdorf","type":"Kreisangehörige_Gemeinde"},"district":{"key":"07232","name":"Eifelkreis Bitburg-Prüm","type":"Landkreis"},"federalState":{"key":"07","name":"Rheinland-Pfalz"}},{"name":"Aubachstr.","postalCode":"95469","locality":"Speichersdorf","municipality":{"key":"09472190","name":"Speichersdorf","type":"Kreisangehörige_Gemeinde"},"district":{"key":"09472","name":"Bayreuth","type":"Landkreis"},"federalState":{"key":"09","name":"Bayern"}},{"name":"Bahnhofstr.","postalCode":"95469","locality":"Speichersdorf","municipality":{"key":"09472190","name":"Speichersdorf","type":"Kreisangehörige_Gemeinde"},"district":{"key":"09472","name":"Bayreuth","type":"Landkreis"},"federalState":{"key":"09","name":"Bayern"}},{"name":"Banater Weg","postalCode":"95469","locality":"Speichersdorf","municipality":{"key":"09472190","name":"Speichersdorf","type":"Kreisangehörige_Gemeinde"},"district":{"key":"09472","name":"Bayreuth","type":"Landkreis"},"federalState":{"key":"09","name":"Bayern"}},{"name":"Bayreuther Str.","postalCode":"95469","locality":"Speichersdorf","municipality":{"key":"09472190","name":"Speichersdorf","type":"Kreisangehörige_Gemeinde"},"district":{"key":"09472","name":"Bayreuth","type":"Landkreis"},"federalState":{"key":"09","name":"Bayern"}},{"name":"Birkenweg","postalCode":"95469","locality":"Speichersdorf","municipality":{"key":"09472190","name":"Speichersdorf","type":"Kreisangehörige_Gemeinde"},"district":{"key":"09472","name":"Bayreuth","type":"Landkreis"},"federalState":{"key":"09","name":"Bayern"}},{"name":"Bonhoefferring","postalCode":"95469","locality":"Speichersdorf","municipality":{"key":"09472190","name":"Speichersdorf","type":"Kreisangehörige_Gemeinde"},"district":{"key":"09472","name":"Bayreuth","type":"Landkreis"},"federalState":{"key":"09","name":"Bayern"}},{"name":"Brahmsstr.","postalCode":"95469","locality":"Speichersdorf","municipality":{"key":"09472190","name":"Speichersdorf","type":"Kreisangehörige_Gemeinde"},"district":{"key":"09472","name":"Bayreuth","type":"Landkreis"},"federalState":{"key":"09","name":"Bayern"}},{"name":"Breslauer Str.","postalCode":"95469","locality":"Speichersdorf","municipality":{"key":"09472190","name":"Speichersdorf","type":"Kreisangehörige_Gemeinde"},"district":{"key":"09472","name":"Bayreuth","type":"Landkreis"},"federalState":{"key":"09","name":"Bayern"}},{"name":"Buchenstr.","postalCode":"95469","locality":"Speichersdorf","municipality":{"key":"09472190","name":"Speichersdorf","type":"Kreisangehörige_Gemeinde"},"district":{"key":"09472","name":"Bayreuth","type":"Landkreis"},"federalState":{"key":"09","name":"Bayern"}},{"name":"Bürgermeister-Scherm-Str.","postalCode":"95469","locality":"Speichersdorf","municipality":{"key":"09472190","name":"Speichersdorf","type":"Kreisangehörige_Gemeinde"},"district":{"key":"09472","name":"Bayreuth","type":"Landkreis"},"federalState":{"key":"09","name":"Bayern"}},{"name":"Clara-Schumann-Str.","postalCode":"95469","locality":"Speichersdorf","municipality":{"key":"09472190","name":"Speichersdorf","type":"Kreisangehörige_Gemeinde"},"district":{"key":"09472","name":"Bayreuth","type":"Landkreis"},"federalState":{"key":"09","name":"Bayern"}},{"name":"Creußener Str.","postalCode":"95469","locality":"Speichersdorf","municipality":{"key":"09472190","name":"Speichersdorf","type":"Kreisangehörige_Gemeinde"},"district":{"key":"09472","name":"Bayreuth","type":"Landkreis"},"federalState":{"key":"09","name":"Bayern"}},{"name":"Danziger Str.","postalCode":"95469","locality":"Speichersdorf","municipality":{"key":"09472190","name":"Speichersdorf","type":"Kreisangehörige_Gemeinde"},"district":{"key":"09472","name":"Bayreuth","type":"Landkreis"},"federalState":{"key":"09","name":"Bayern"}},{"name":"Dorfstr.","postalCode":"54597","locality":"Hersdorf","municipality":{"key":"07232332","name":"Hersdorf","type":"Kreisangehörige_Gemeinde"},"district":{"key":"07232","name":"Eifelkreis Bitburg-Prüm","type":"Landkreis"},"federalState":{"key":"07","name":"Rheinland-Pfalz"}},{"name":"Dresdner Str.","postalCode":"95469","locality":"Speichersdorf","municipality":{"key":"09472190","name":"Speichersdorf","type":"Kreisangehörige_Gemeinde"},"district":{"key":"09472","name":"Bayreuth","type":"Landkreis"},"federalState":{"key":"09","name":"Bayern"}},{"name":"Egerer Str.","postalCode":"95469","locality":"Speichersdorf","municipality":{"key":"09472190","name":"Speichersdorf","type":"Kreisangehörige_Gemeinde"},"district":{"key":"09472","name":"Bayreuth","type":"Landkreis"},"federalState":{"key":"09","name":"Bayern"}},{"name":"Eichenring","postalCode":"95469","locality":"Speichersdorf","municipality":{"key":"09472190","name":"Speichersdorf","type":"Kreisangehörige_Gemeinde"},"district":{"key":"09472","name":"Bayreuth","type":"Landkreis"},"federalState":{"key":"09","name":"Bayern"}},{"name":"Erfurter Str.","postalCode":"95469","locality":"Speichersdorf","municipality":{"key":"09472190","name":"Speichersdorf","type":"Kreisangehörige_Gemeinde"},"district":{"key":"09472","name":"Bayreuth","type":"Landkreis"},"federalState":{"key":"09","name":"Bayern"}},{"name":"Espenweg","postalCode":"95469","locality":"Speichersdorf","municipality":{"key":"09472190","name":"Speichersdorf","type":"Kreisangehörige_Gemeinde"},"district":{"key":"09472","name":"Bayreuth","type":"Landkreis"},"federalState":{"key":"09","name":"Bayern"}},{"name":"Falkenauer Str.","postalCode":"95469","locality":"Speichersdorf","municipality":{"key":"09472190","name":"Speichersdorf","type":"Kreisangehörige_Gemeinde"},"district":{"key":"09472","name":"Bayreuth","type":"Landkreis"},"federalState":{"key":"09","name":"Bayern"}},{"name":"Franzensbader Str.","postalCode":"95469","locality":"Speichersdorf","municipality":{"key":"09472190","name":"Speichersdorf","type":"Kreisangehörige_Gemeinde"},"district":{"key":"09472","name":"Bayreuth","type":"Landkreis"},"federalState":{"key":"09","name":"Bayern"}},{"name":"Friedhofstr.","postalCode":"95469","locality":"Speichersdorf","municipality":{"key":"09472190","name":"Speichersdorf","type":"Kreisangehörige_Gemeinde"},"district":{"key":"09472","name":"Bayreuth","type":"Landkreis"},"federalState":{"key":"09","name":"Bayern"}},{"name":"Ganghoferstr.","postalCode":"95469","locality":"Speichersdorf","municipality":{"key":"09472190","name":"Speichersdorf","type":"Kreisangehörige_Gemeinde"},"district":{"key":"09472","name":"Bayreuth","type":"Landkreis"},"federalState":{"key":"09","name":"Bayern"}},{"name":"Gartenstr.","postalCode":"95469","locality":"Speichersdorf","municipality":{"key":"09472190","name":"Speichersdorf","type":"Kreisangehörige_Gemeinde"},"district":{"key":"09472","name":"Bayreuth","type":"Landkreis"},"federalState":{"key":"09","name":"Bayern"}},{"name":"Geschwister-Scholl-Str.","postalCode":"95469","locality":"Speichersdorf","municipality":{"key":"09472190","name":"Speichersdorf","type":"Kreisangehörige_Gemeinde"},"district":{"key":"09472","name":"Bayreuth","type":"Landkreis"},"federalState":{"key":"09","name":"Bayern"}},{"name":"Goethestr.","postalCode":"95469","locality":"Speichersdorf","municipality":{"key":"09472190","name":"Speichersdorf","type":"Kreisangehörige_Gemeinde"},"district":{"key":"09472","name":"Bayreuth","type":"Landkreis"},"federalState":{"key":"09","name":"Bayern"}},{"name":"Graserstr.","postalCode":"95469","locality":"Speichersdorf","municipality":{"key":"09472190","name":"Speichersdorf","type":"Kreisangehörige_Gemeinde"},"district":{"key":"09472","name":"Bayreuth","type":"Landkreis"},"federalState":{"key":"09","name":"Bayern"}},{"name":"Haidenaab","postalCode":"95469","locality":"Speichersdorf","municipality":{"key":"09472190","name":"Speichersdorf","type":"Kreisangehörige_Gemeinde"},"district":{"key":"09472","name":"Bayreuth","type":"Landkreis"},"federalState":{"key":"09","name":"Bayern"}},{"name":"Händelstr.","postalCode":"95469","locality":"Speichersdorf","municipality":{"key":"09472190","name":"Speichersdorf","type":"Kreisangehörige_Gemeinde"},"district":{"key":"09472","name":"Bayreuth","type":"Landkreis"},"federalState":{"key":"09","name":"Bayern"}},{"name":"Hauptstr.","postalCode":"54597","locality":"Hersdorf","municipality":{"key":"07232332","name":"Hersdorf","type":"Kreisangehörige_Gemeinde"},"district":{"key":"07232","name":"Eifelkreis Bitburg-Prüm","type":"Landkreis"},"federalState":{"key":"07","name":"Rheinland-Pfalz"}},{"name":"Hauptstr.","postalCode":"95469","locality":"Speichersdorf","municipality":{"key":"09472190","name":"Speichersdorf","type":"Kreisangehörige_Gemeinde"},"district":{"key":"09472","name":"Bayreuth","type":"Landkreis"},"federalState":{"key":"09","name":"Bayern"}},{"name":"Haydnstr.","postalCode":"95469","locality":"Speichersdorf","municipality":{"key":"09472190","name":"Speichersdorf","type":"Kreisangehörige_Gemeinde"},"district":{"key":"09472","name":"Bayreuth","type":"Landkreis"},"federalState":{"key":"09","name":"Bayern"}},{"name":"Hildegard-von-Bingen-Str.","postalCode":"95469","locality":"Speichersdorf","municipality":{"key":"09472190","name":"Speichersdorf","type":"Kreisangehörige_Gemeinde"},"district":{"key":"09472","name":"Bayreuth","type":"Landkreis"},"federalState":{"key":"09","name":"Bayern"}},{"name":"Hopfengarten","postalCode":"95469","locality":"Speichersdorf","municipality":{"key":"09472190","name":"Speichersdorf","type":"Kreisangehörige_Gemeinde"},"district":{"key":"09472","name":"Bayreuth","type":"Landkreis"},"federalState":{"key":"09","name":"Bayern"}},{"name":"Im Haag","postalCode":"54597","locality":"Hersdorf","municipality":{"key":"07232332","name":"Hersdorf","type":"Kreisangehörige_Gemeinde"},"district":{"key":"07232","name":"Eifelkreis Bitburg-Prüm","type":"Landkreis"},"federalState":{"key":"07","name":"Rheinland-Pfalz"}},{"name":"Industriestr.","postalCode":"95469","locality":"Speichersdorf","municipality":{"key":"09472190","name":"Speichersdorf","type":"Kreisangehörige_Gemeinde"},"district":{"key":"09472","name":"Bayreuth","type":"Landkreis"},"federalState":{"key":"09","name":"Bayern"}},{"name":"Jahnstr.","postalCode":"95469","locality":"Speichersdorf","municipality":{"key":"09472190","name":"Speichersdorf","type":"Kreisangehörige_Gemeinde"},"district":{"key":"09472","name":"Bayreuth","type":"Landkreis"},"federalState":{"key":"09","name":"Bayern"}},{"name":"Jakobsknopp","postalCode":"54597","locality":"Hersdorf","municipality":{"key":"07232332","name":"Hersdorf","type":"Kreisangehörige_Gemeinde"},"district":{"key":"07232","name":"Eifelkreis Bitburg-Prüm","type":"Landkreis"},"federalState":{"key":"07","name":"Rheinland-Pfalz"}},{"name":"Jean-Paul-Str.","postalCode":"95469","locality":"Speichersdorf","municipality":{"key":"09472190","name":"Speichersdorf","type":"Kreisangehörige_Gemeinde"},"district":{"key":"09472","name":"Bayreuth","type":"Landkreis"},"federalState":{"key":"09","name":"Bayern"}},{"name":"Kantstr.","postalCode":"95469","locality":"Speichersdorf","municipality":{"key":"09472190","name":"Speichersdorf","type":"Kreisangehörige_Gemeinde"},"district":{"key":"09472","name":"Bayreuth","type":"Landkreis"},"federalState":{"key":"09","name":"Bayern"}},{"name":"Kapellenstr.","postalCode":"54597","locality":"Hersdorf","municipality":{"key":"07232332","name":"Hersdorf","type":"Kreisangehörige_Gemeinde"},"district":{"key":"07232","name":"Eifelkreis Bitburg-Prüm","type":"Landkreis"},"federalState":{"key":"07","name":"Rheinland-Pfalz"}},{"name":"Karlsbader Str.","postalCode":"95469","locality":"Speichersdorf","municipality":{"key":"09472190","name":"Speichersdorf","type":"Kreisangehörige_Gemeinde"},"district":{"key":"09472","name":"Bayreuth","type":"Landkreis"},"federalState":{"key":"09","name":"Bayern"}},{"name":"Kemnather Str.","postalCode":"95469","locality":"Speichersdorf","municipality":{"key":"09472190","name":"Speichersdorf","type":"Kreisangehörige_Gemeinde"},"district":{"key":"09472","name":"Bayreuth","type":"Landkreis"},"federalState":{"key":"09","name":"Bayern"}},{"name":"Kiefernweg","postalCode":"95469","locality":"Speichersdorf","municipality":{"key":"09472190","name":"Speichersdorf","type":"Kreisangehörige_Gemeinde"},"district":{"key":"09472","name":"Bayreuth","type":"Landkreis"},"federalState":{"key":"09","name":"Bayern"}},{"name":"Kirchenlaibacher Weg","postalCode":"95469","locality":"Speichersdorf","municipality":{"key":"09472190","name":"Speichersdorf","type":"Kreisangehörige_Gemeinde"},"district":{"key":"09472","name":"Bayreuth","type":"Landkreis"},"federalState":{"key":"09","name":"Bayern"}},{"name":"Kirchplatz","postalCode":"95469","locality":"Speichersdorf","municipality":{"key":"09472190","name":"Speichersdorf","type":"Kreisangehörige_Gemeinde"},"district":{"key":"09472","name":"Bayreuth","type":"Landkreis"},"federalState":{"key":"09","name":"Bayern"}},{"name":"Kirchsteig","postalCode":"95469","locality":"Speichersdorf","municipality":{"key":"09472190","name":"Speichersdorf","type":"Kreisangehörige_Gemeinde"},"district":{"key":"09472","name":"Bayreuth","type":"Landkreis"},"federalState":{"key":"09","name":"Bayern"}},{"name":"Kirchweg","postalCode":"95469","locality":"Speichersdorf","municipality":{"key":"09472190","name":"Speichersdorf","type":"Kreisangehörige_Gemeinde"},"district":{"key":"09472","name":"Bayreuth","type":"Landkreis"},"federalState":{"key":"09","name":"Bayern"}},{"name":"Kneippstr.","postalCode":"95469","locality":"Speichersdorf","municipality":{"key":"09472190","name":"Speichersdorf","type":"Kreisangehörige_Gemeinde"},"district":{"key":"09472","name":"Bayreuth","type":"Landkreis"},"federalState":{"key":"09","name":"Bayern"}},{"name":"Kolpingstr.","postalCode":"95469","locality":"Speichersdorf","municipality":{"key":"09472190","name":"Speichersdorf","type":"Kreisangehörige_Gemeinde"},"district":{"key":"09472","name":"Bayreuth","type":"Landkreis"},"federalState":{"key":"09","name":"Bayern"}},{"name":"Königsberger Str.","postalCode":"95469","locality":"Speichersdorf","municipality":{"key":"09472190","name":"Speichersdorf","type":"Kreisangehörige_Gemeinde"},"district":{"key":"09472","name":"Bayreuth","type":"Landkreis"},"federalState":{"key":"09","name":"Bayern"}},{"name":"Kreuzstr.","postalCode":"95469","locality":"Speichersdorf","municipality":{"key":"09472190","name":"Speichersdorf","type":"Kreisangehörige_Gemeinde"},"district":{"key":"09472","name":"Bayreuth","type":"Landkreis"},"federalState":{"key":"09","name":"Bayern"}},{"name":"Laibacher Weg","postalCode":"95469","locality":"Speichersdorf","municipality":{"key":"09472190","name":"Speichersdorf","type":"Kreisangehörige_Gemeinde"},"district":{"key":"09472","name":"Bayreuth","type":"Landkreis"},"federalState":{"key":"09","name":"Bayern"}},{"name":"Lainbachstr.","postalCode":"95469","locality":"Speichersdorf","municipality":{"key":"09472190","name":"Speichersdorf","type":"Kreisangehörige_Gemeinde"},"district":{"key":"09472","name":"Bayreuth","type":"Landkreis"},"federalState":{"key":"09","name":"Bayern"}},{"name":"Leipziger Str.","postalCode":"95469","locality":"Speichersdorf","municipality":{"key":"09472190","name":"Speichersdorf","type":"Kreisangehörige_Gemeinde"},"district":{"key":"09472","name":"Bayreuth","type":"Landkreis"},"federalState":{"key":"09","name":"Bayern"}},{"name":"Lerchenstr.","postalCode":"95469","locality":"Speichersdorf","municipality":{"key":"09472190","name":"Speichersdorf","type":"Kreisangehörige_Gemeinde"},"district":{"key":"09472","name":"Bayreuth","type":"Landkreis"},"federalState":{"key":"09","name":"Bayern"}},{"name":"Lisztstr.","postalCode":"95469","locality":"Speichersdorf","municipality":{"key":"09472190","name":"Speichersdorf","type":"Kreisangehörige_Gemeinde"},"district":{"key":"09472","name":"Bayreuth","type":"Landkreis"},"federalState":{"key":"09","name":"Bayern"}},{"name":"Lönsweg","postalCode":"95469","locality":"Speichersdorf","municipality":{"key":"09472190","name":"Speichersdorf","type":"Kreisangehörige_Gemeinde"},"district":{"key":"09472","name":"Bayreuth","type":"Landkreis"},"federalState":{"key":"09","name":"Bayern"}},{"name":"Ludwig-Thoma-Str.","postalCode":"95469","locality":"Speichersdorf","municipality":{"key":"09472190","name":"Speichersdorf","type":"Kreisangehörige_Gemeinde"},"district":{"key":"09472","name":"Bayreuth","type":"Landkreis"},"federalState":{"key":"09","name":"Bayern"}},{"name":"Manfred-Strößenreuter-Str.","postalCode":"95469","locality":"Speichersdorf","municipality":{"key":"09472190","name":"Speichersdorf","type":"Kreisangehörige_Gemeinde"},"district":{"key":"09472","name":"Bayreuth","type":"Landkreis"},"federalState":{"key":"09","name":"Bayern"}},{"name":"Marienbader Str.","postalCode":"95469","locality":"Speichersdorf","municipality":{"key":"09472190","name":"Speichersdorf","type":"Kreisangehörige_Gemeinde"},"district":{"key":"09472","name":"Bayreuth","type":"Landkreis"},"federalState":{"key":"09","name":"Bayern"}},{"name":"Martin-Luther-Str.","postalCode":"95469","locality":"Speichersdorf","municipality":{"key":"09472190","name":"Speichersdorf","type":"Kreisangehörige_Gemeinde"},"district":{"key":"09472","name":"Bayreuth","type":"Landkreis"},"federalState":{"key":"09","name":"Bayern"}},{"name":"Max-Reger-Str.","postalCode":"95469","locality":"Speichersdorf","municipality":{"key":"09472190","name":"Speichersdorf","type":"Kreisangehörige_Gemeinde"},"district":{"key":"09472","name":"Bayreuth","type":"Landkreis"},"federalState":{"key":"09","name":"Bayern"}},{"name":"Mozartstr.","postalCode":"95469","locality":"Speichersdorf","municipality":{"key":"09472190","name":"Speichersdorf","type":"Kreisangehörige_Gemeinde"},"district":{"key":"09472","name":"Bayreuth","type":"Landkreis"},"federalState":{"key":"09","name":"Bayern"}},{"name":"Neurödstr.","postalCode":"54597","locality":"Hersdorf","municipality":{"key":"07232332","name":"Hersdorf","type":"Kreisangehörige_Gemeinde"},"district":{"key":"07232","name":"Eifelkreis Bitburg-Prüm","type":"Landkreis"},"federalState":{"key":"07","name":"Rheinland-Pfalz"}},{"name":"Neustädter Str.","postalCode":"95469","locality":"Speichersdorf","municipality":{"key":"09472190","name":"Speichersdorf","type":"Kreisangehörige_Gemeinde"},"district":{"key":"09472","name":"Bayreuth","type":"Landkreis"},"federalState":{"key":"09","name":"Bayern"}},{"name":"Nobelstr.","postalCode":"95469","locality":"Speichersdorf","municipality":{"key":"09472190","name":"Speichersdorf","type":"Kreisangehörige_Gemeinde"},"district":{"key":"09472","name":"Bayreuth","type":"Landkreis"},"federalState":{"key":"09","name":"Bayern"}},{"name":"Oberer Markt","postalCode":"95469","locality":"Speichersdorf","municipality":{"key":"09472190","name":"Speichersdorf","type":"Kreisangehörige_Gemeinde"},"district":{"key":"09472","name":"Bayreuth","type":"Landkreis"},"federalState":{"key":"09","name":"Bayern"}},{"name":"Pilsener Str.","postalCode":"95469","locality":"Speichersdorf","municipality":{"key":"09472190","name":"Speichersdorf","type":"Kreisangehörige_Gemeinde"},"district":{"key":"09472","name":"Bayreuth","type":"Landkreis"},"federalState":{"key":"09","name":"Bayern"}},{"name":"Pointstr.","postalCode":"95469","locality":"Speichersdorf","municipality":{"key":"09472190","name":"Speichersdorf","type":"Kreisangehörige_Gemeinde"},"district":{"key":"09472","name":"Bayreuth","type":"Landkreis"},"federalState":{"key":"09","name":"Bayern"}},{"name":"Rathausplatz","postalCode":"95469","locality":"Speichersdorf","municipality":{"key":"09472190","name":"Speichersdorf","type":"Kreisangehörige_Gemeinde"},"district":{"key":"09472","name":"Bayreuth","type":"Landkreis"},"federalState":{"key":"09","name":"Bayern"}},{"name":"Richard-Wagner-Str.","postalCode":"95469","locality":"Speichersdorf","municipality":{"key":"09472190","name":"Speichersdorf","type":"Kreisangehörige_Gemeinde"},"district":{"key":"09472","name":"Bayreuth","type":"Landkreis"},"federalState":{"key":"09","name":"Bayern"}},{"name":"Ringstr.","postalCode":"95469","locality":"Speichersdorf","municipality":{"key":"09472190","name":"Speichersdorf","type":"Kreisangehörige_Gemeinde"},"district":{"key":"09472","name":"Bayreuth","type":"Landkreis"},"federalState":{"key":"09","name":"Bayern"}},{"name":"Röntgenstr.","postalCode":"95469","locality":"Speichersdorf","municipality":{"key":"09472190","name":"Speichersdorf","type":"Kreisangehörige_Gemeinde"},"district":{"key":"09472","name":"Bayreuth","type":"Landkreis"},"federalState":{"key":"09","name":"Bayern"}},{"name":"Rosenstr.","postalCode":"95469","locality":"Speichersdorf","municipality":{"key":"09472190","name":"Speichersdorf","type":"Kreisangehörige_Gemeinde"},"district":{"key":"09472","name":"Bayreuth","type":"Landkreis"},"federalState":{"key":"09","name":"Bayern"}},{"name":"Scheunenstr.","postalCode":"95469","locality":"Speichersdorf","municipality":{"key":"09472190","name":"Speichersdorf","type":"Kreisangehörige_Gemeinde"},"district":{"key":"09472","name":"Bayreuth","type":"Landkreis"},"federalState":{"key":"09","name":"Bayern"}},{"name":"Schillerstr.","postalCode":"95469","locality":"Speichersdorf","municipality":{"key":"09472190","name":"Speichersdorf","type":"Kreisangehörige_Gemeinde"},"district":{"key":"09472","name":"Bayreuth","type":"Landkreis"},"federalState":{"key":"09","name":"Bayern"}},{"name":"Schlesienstr.","postalCode":"95469","locality":"Speichersdorf","municipality":{"key":"09472190","name":"Speichersdorf","type":"Kreisangehörige_Gemeinde"},"district":{"key":"09472","name":"Bayreuth","type":"Landkreis"},"federalState":{"key":"09","name":"Bayern"}},{"name":"Schönecker Schweiz","postalCode":"54597","locality":"Hersdorf","municipality":{"key":"07232332","name":"Hersdorf","type":"Kreisangehörige_Gemeinde"},"district":{"key":"07232","name":"Eifelkreis Bitburg-Prüm","type":"Landkreis"},"federalState":{"key":"07","name":"Rheinland-Pfalz"}},{"name":"Schulstr.","postalCode":"54597","locality":"Hersdorf","municipality":{"key":"07232332","name":"Hersdorf","type":"Kreisangehörige_Gemeinde"},"district":{"key":"07232","name":"Eifelkreis Bitburg-Prüm","type":"Landkreis"},"federalState":{"key":"07","name":"Rheinland-Pfalz"}},{"name":"Schulstr.","postalCode":"95469","locality":"Speichersdorf","municipality":{"key":"09472190","name":"Speichersdorf","type":"Kreisangehörige_Gemeinde"},"district":{"key":"09472","name":"Bayreuth","type":"Landkreis"},"federalState":{"key":"09","name":"Bayern"}},{"name":"Seestr.","postalCode":"95469","locality":"Speichersdorf","municipality":{"key":"09472190","name":"Speichersdorf","type":"Kreisangehörige_Gemeinde"},"district":{"key":"09472","name":"Bayreuth","type":"Landkreis"},"federalState":{"key":"09","name":"Bayern"}},{"name":"Selbitzer Weg","postalCode":"95469","locality":"Speichersdorf","municipality":{"key":"09472190","name":"Speichersdorf","type":"Kreisangehörige_Gemeinde"},"district":{"key":"09472","name":"Bayreuth","type":"Landkreis"},"federalState":{"key":"09","name":"Bayern"}},{"name":"St.-Ägidius-Str.","postalCode":"95469","locality":"Speichersdorf","municipality":{"key":"09472190","name":"Speichersdorf","type":"Kreisangehörige_Gemeinde"},"district":{"key":"09472","name":"Bayreuth","type":"Landkreis"},"federalState":{"key":"09","name":"Bayern"}},{"name":"Stettiner Str.","postalCode":"95469","locality":"Speichersdorf","municipality":{"key":"09472190","name":"Speichersdorf","type":"Kreisangehörige_Gemeinde"},"district":{"key":"09472","name":"Bayreuth","type":"Landkreis"},"federalState":{"key":"09","name":"Bayern"}},{"name":"Sudetenstr.","postalCode":"95469","locality":"Speichersdorf","municipality":{"key":"09472190","name":"Speichersdorf","type":"Kreisangehörige_Gemeinde"},"district":{"key":"09472","name":"Bayreuth","type":"Landkreis"},"federalState":{"key":"09","name":"Bayern"}},{"name":"Tannenweg","postalCode":"95469","locality":"Speichersdorf","municipality":{"key":"09472190","name":"Speichersdorf","type":"Kreisangehörige_Gemeinde"},"district":{"key":"09472","name":"Bayreuth","type":"Landkreis"},"federalState":{"key":"09","name":"Bayern"}},{"name":"Unterer Markt","postalCode":"95469","locality":"Speichersdorf","municipality":{"key":"09472190","name":"Speichersdorf","type":"Kreisangehörige_Gemeinde"},"district":{"key":"09472","name":"Bayreuth","type":"Landkreis"},"federalState":{"key":"09","name":"Bayern"}},{"name":"Weidener Str.","postalCode":"95469","locality":"Speichersdorf","municipality":{"key":"09472190","name":"Speichersdorf","type":"Kreisangehörige_Gemeinde"},"district":{"key":"09472","name":"Bayreuth","type":"Landkreis"},"federalState":{"key":"09","name":"Bayern"}},{"name":"Wilhelm-Neumeyer-Str.","postalCode":"95469","locality":"Speichersdorf","municipality":{"key":"09472190","name":"Speichersdorf","type":"Kreisangehörige_Gemeinde"},"district":{"key":"09472","name":"Bayreuth","type":"Landkreis"},"federalState":{"key":"09","name":"Bayern"}},{"name":"Wirbenz","postalCode":"95469","locality":"Speichersdorf","municipality":{"key":"09472190","name":"Speichersdorf","type":"Kreisangehörige_Gemeinde"},"district":{"key":"09472","name":"Bayreuth","type":"Landkreis"},"federalState":{"key":"09","name":"Bayern"}},{"name":"Zum Brunnen","postalCode":"54597","locality":"Hersdorf","municipality":{"key":"07232332","name":"Hersdorf","type":"Kreisangehörige_Gemeinde"},"district":{"key":"07232","name":"Eifelkreis Bitburg-Prüm","type":"Landkreis"},"federalState":{"key":"07","name":"Rheinland-Pfalz"}},]