[{"name":"Achtern Barg","postalCode":"24811","locality":"Brekendorf","municipality":{"key":"01058030","name":"Brekendorf","type":"Kreisangehörige_Gemeinde"},"district":{"key":"01058","name":"Rendsburg-Eckernförde","type":"Kreis"},"federalState":{"key":"01","name":"Schleswig-Holstein"}},{"name":"Alter Bahndamm","postalCode":"24811","locality":"Brekendorf","municipality":{"key":"01058030","name":"Brekendorf","type":"Kreisangehörige_Gemeinde"},"district":{"key":"01058","name":"Rendsburg-Eckernförde","type":"Kreis"},"federalState":{"key":"01","name":"Schleswig-Holstein"}},{"name":"Am Hang","postalCode":"24811","locality":"Brekendorf","municipality":{"key":"01058030","name":"Brekendorf","type":"Kreisangehörige_Gemeinde"},"district":{"key":"01058","name":"Rendsburg-Eckernförde","type":"Kreis"},"federalState":{"key":"01","name":"Schleswig-Holstein"}},{"name":"Bargkoppel","postalCode":"24811","locality":"Brekendorf","municipality":{"key":"01058030","name":"Brekendorf","type":"Kreisangehörige_Gemeinde"},"district":{"key":"01058","name":"Rendsburg-Eckernförde","type":"Kreis"},"federalState":{"key":"01","name":"Schleswig-Holstein"}},{"name":"Brekendorfer Moor","postalCode":"24811","locality":"Brekendorf","municipality":{"key":"01058030","name":"Brekendorf","type":"Kreisangehörige_Gemeinde"},"district":{"key":"01058","name":"Rendsburg-Eckernförde","type":"Kreis"},"federalState":{"key":"01","name":"Schleswig-Holstein"}},{"name":"Dorfstr.","postalCode":"24811","locality":"Brekendorf","municipality":{"key":"01058030","name":"Brekendorf","type":"Kreisangehörige_Gemeinde"},"district":{"key":"01058","name":"Rendsburg-Eckernförde","type":"Kreis"},"federalState":{"key":"01","name":"Schleswig-Holstein"}},{"name":"Fleckebyer Landstr.","postalCode":"24811","locality":"Brekendorf","municipality":{"key":"01058030","name":"Brekendorf","type":"Kreisangehörige_Gemeinde"},"district":{"key":"01058","name":"Rendsburg-Eckernförde","type":"Kreis"},"federalState":{"key":"01","name":"Schleswig-Holstein"}},{"name":"Forsthaus","postalCode":"24811","locality":"Brekendorf","municipality":{"key":"01058030","name":"Brekendorf","type":"Kreisangehörige_Gemeinde"},"district":{"key":"01058","name":"Rendsburg-Eckernförde","type":"Kreis"},"federalState":{"key":"01","name":"Schleswig-Holstein"}},{"name":"Fuchskuhle","postalCode":"24811","locality":"Brekendorf","municipality":{"key":"01058030","name":"Brekendorf","type":"Kreisangehörige_Gemeinde"},"district":{"key":"01058","name":"Rendsburg-Eckernförde","type":"Kreis"},"federalState":{"key":"01","name":"Schleswig-Holstein"}},{"name":"Goldkuhl","postalCode":"24811","locality":"Brekendorf","municipality":{"key":"01058030","name":"Brekendorf","type":"Kreisangehörige_Gemeinde"},"district":{"key":"01058","name":"Rendsburg-Eckernförde","type":"Kreis"},"federalState":{"key":"01","name":"Schleswig-Holstein"}},{"name":"Hammer","postalCode":"24811","locality":"Brekendorf","municipality":{"key":"01058030","name":"Brekendorf","type":"Kreisangehörige_Gemeinde"},"district":{"key":"01058","name":"Rendsburg-Eckernförde","type":"Kreis"},"federalState":{"key":"01","name":"Schleswig-Holstein"}},{"name":"Hans-Claus-Schnack-Weg","postalCode":"24811","locality":"Brekendorf","municipality":{"key":"01058030","name":"Brekendorf","type":"Kreisangehörige_Gemeinde"},"district":{"key":"01058","name":"Rendsburg-Eckernförde","type":"Kreis"},"federalState":{"key":"01","name":"Schleswig-Holstein"}},{"name":"Holzhof","postalCode":"24811","locality":"Brekendorf","municipality":{"key":"01058030","name":"Brekendorf","type":"Kreisangehörige_Gemeinde"},"district":{"key":"01058","name":"Rendsburg-Eckernförde","type":"Kreis"},"federalState":{"key":"01","name":"Schleswig-Holstein"}},{"name":"Im Winkel","postalCode":"24811","locality":"Brekendorf","municipality":{"key":"01058030","name":"Brekendorf","type":"Kreisangehörige_Gemeinde"},"district":{"key":"01058","name":"Rendsburg-Eckernförde","type":"Kreis"},"federalState":{"key":"01","name":"Schleswig-Holstein"}},{"name":"In de Eck","postalCode":"24811","locality":"Brekendorf","municipality":{"key":"01058030","name":"Brekendorf","type":"Kreisangehörige_Gemeinde"},"district":{"key":"01058","name":"Rendsburg-Eckernförde","type":"Kreis"},"federalState":{"key":"01","name":"Schleswig-Holstein"}},{"name":"In de Wischen","postalCode":"24811","locality":"Brekendorf","municipality":{"key":"01058030","name":"Brekendorf","type":"Kreisangehörige_Gemeinde"},"district":{"key":"01058","name":"Rendsburg-Eckernförde","type":"Kreis"},"federalState":{"key":"01","name":"Schleswig-Holstein"}},{"name":"Kammberg","postalCode":"24811","locality":"Brekendorf","municipality":{"key":"01058030","name":"Brekendorf","type":"Kreisangehörige_Gemeinde"},"district":{"key":"01058","name":"Rendsburg-Eckernförde","type":"Kreis"},"federalState":{"key":"01","name":"Schleswig-Holstein"}},{"name":"Katdiecksgang","postalCode":"24811","locality":"Brekendorf","municipality":{"key":"01058030","name":"Brekendorf","type":"Kreisangehörige_Gemeinde"},"district":{"key":"01058","name":"Rendsburg-Eckernförde","type":"Kreis"},"federalState":{"key":"01","name":"Schleswig-Holstein"}},{"name":"Kindelberg","postalCode":"24811","locality":"Brekendorf","municipality":{"key":"01058030","name":"Brekendorf","type":"Kreisangehörige_Gemeinde"},"district":{"key":"01058","name":"Rendsburg-Eckernförde","type":"Kreis"},"federalState":{"key":"01","name":"Schleswig-Holstein"}},{"name":"Lehmberg","postalCode":"24811","locality":"Brekendorf","municipality":{"key":"01058030","name":"Brekendorf","type":"Kreisangehörige_Gemeinde"},"district":{"key":"01058","name":"Rendsburg-Eckernförde","type":"Kreis"},"federalState":{"key":"01","name":"Schleswig-Holstein"}},{"name":"Lehmberger Weg","postalCode":"24811","locality":"Brekendorf","municipality":{"key":"01058030","name":"Brekendorf","type":"Kreisangehörige_Gemeinde"},"district":{"key":"01058","name":"Rendsburg-Eckernförde","type":"Kreis"},"federalState":{"key":"01","name":"Schleswig-Holstein"}},{"name":"Mühlenweg","postalCode":"24811","locality":"Brekendorf","municipality":{"key":"01058030","name":"Brekendorf","type":"Kreisangehörige_Gemeinde"},"district":{"key":"01058","name":"Rendsburg-Eckernförde","type":"Kreis"},"federalState":{"key":"01","name":"Schleswig-Holstein"}},{"name":"Op de Barg","postalCode":"24811","locality":"Brekendorf","municipality":{"key":"01058030","name":"Brekendorf","type":"Kreisangehörige_Gemeinde"},"district":{"key":"01058","name":"Rendsburg-Eckernförde","type":"Kreis"},"federalState":{"key":"01","name":"Schleswig-Holstein"}},{"name":"Rendsburger Landstr.","postalCode":"24811","locality":"Brekendorf","municipality":{"key":"01058030","name":"Brekendorf","type":"Kreisangehörige_Gemeinde"},"district":{"key":"01058","name":"Rendsburg-Eckernförde","type":"Kreis"},"federalState":{"key":"01","name":"Schleswig-Holstein"}},{"name":"Rosenberg","postalCode":"24811","locality":"Brekendorf","municipality":{"key":"01058030","name":"Brekendorf","type":"Kreisangehörige_Gemeinde"},"district":{"key":"01058","name":"Rendsburg-Eckernförde","type":"Kreis"},"federalState":{"key":"01","name":"Schleswig-Holstein"}},{"name":"Schleswiger Landstr.","postalCode":"24811","locality":"Brekendorf","municipality":{"key":"01058030","name":"Brekendorf","type":"Kreisangehörige_Gemeinde"},"district":{"key":"01058","name":"Rendsburg-Eckernförde","type":"Kreis"},"federalState":{"key":"01","name":"Schleswig-Holstein"}},{"name":"Soldatenredder","postalCode":"24811","locality":"Brekendorf","municipality":{"key":"01058030","name":"Brekendorf","type":"Kreisangehörige_Gemeinde"},"district":{"key":"01058","name":"Rendsburg-Eckernförde","type":"Kreis"},"federalState":{"key":"01","name":"Schleswig-Holstein"}},{"name":"Tehtenbarg","postalCode":"24811","locality":"Brekendorf","municipality":{"key":"01058030","name":"Brekendorf","type":"Kreisangehörige_Gemeinde"},"district":{"key":"01058","name":"Rendsburg-Eckernförde","type":"Kreis"},"federalState":{"key":"01","name":"Schleswig-Holstein"}},{"name":"Tirol","postalCode":"24811","locality":"Brekendorf","municipality":{"key":"01058030","name":"Brekendorf","type":"Kreisangehörige_Gemeinde"},"district":{"key":"01058","name":"Rendsburg-Eckernförde","type":"Kreis"},"federalState":{"key":"01","name":"Schleswig-Holstein"}},{"name":"Wichelweg","postalCode":"24811","locality":"Brekendorf","municipality":{"key":"01058030","name":"Brekendorf","type":"Kreisangehörige_Gemeinde"},"district":{"key":"01058","name":"Rendsburg-Eckernförde","type":"Kreis"},"federalState":{"key":"01","name":"Schleswig-Holstein"}},]