[{"name":"20","postalCode":"01737","locality":"Tharandt","municipality":{"key":"14628400","name":"Tharandt, Stadt","type":"Stadt"},"district":{"key":"14628","name":"Sächsische Schweiz-Osterzgebirge","type":"Landkreis"},"federalState":{"key":"14","name":"Sachsen"}},{"name":"25","postalCode":"01737","locality":"Tharandt","municipality":{"key":"14628400","name":"Tharandt, Stadt","type":"Stadt"},"district":{"key":"14628","name":"Sächsische Schweiz-Osterzgebirge","type":"Landkreis"},"federalState":{"key":"14","name":"Sachsen"}},{"name":"Abenteuerpfad","postalCode":"01737","locality":"Tharandt","municipality":{"key":"14628400","name":"Tharandt, Stadt","type":"Stadt"},"district":{"key":"14628","name":"Sächsische Schweiz-Osterzgebirge","type":"Landkreis"},"federalState":{"key":"14","name":"Sachsen"}},{"name":"A-Flügel","postalCode":"01737","locality":"Tharandt","municipality":{"key":"14628400","name":"Tharandt, Stadt","type":"Stadt"},"district":{"key":"14628","name":"Sächsische Schweiz-Osterzgebirge","type":"Landkreis"},"federalState":{"key":"14","name":"Sachsen"}},{"name":"Am Bergschlößchen","postalCode":"01737","locality":"Tharandt","municipality":{"key":"14628400","name":"Tharandt, Stadt","type":"Stadt"},"district":{"key":"14628","name":"Sächsische Schweiz-Osterzgebirge","type":"Landkreis"},"federalState":{"key":"14","name":"Sachsen"}},{"name":"Am Hartheberg","postalCode":"01737","locality":"Tharandt","municipality":{"key":"14628400","name":"Tharandt, Stadt","type":"Stadt"},"district":{"key":"14628","name":"Sächsische Schweiz-Osterzgebirge","type":"Landkreis"},"federalState":{"key":"14","name":"Sachsen"}},{"name":"Am Hetzbach","postalCode":"01737","locality":"Tharandt","municipality":{"key":"14628400","name":"Tharandt, Stadt","type":"Stadt"},"district":{"key":"14628","name":"Sächsische Schweiz-Osterzgebirge","type":"Landkreis"},"federalState":{"key":"14","name":"Sachsen"}},{"name":"Am Kindergarten","postalCode":"01737","locality":"Tharandt","municipality":{"key":"14628400","name":"Tharandt, Stadt","type":"Stadt"},"district":{"key":"14628","name":"Sächsische Schweiz-Osterzgebirge","type":"Landkreis"},"federalState":{"key":"14","name":"Sachsen"}},{"name":"Am Kurplatz","postalCode":"01737","locality":"Tharandt","municipality":{"key":"14628400","name":"Tharandt, Stadt","type":"Stadt"},"district":{"key":"14628","name":"Sächsische Schweiz-Osterzgebirge","type":"Landkreis"},"federalState":{"key":"14","name":"Sachsen"}},{"name":"Am Landberg","postalCode":"01737","locality":"Tharandt","municipality":{"key":"14628400","name":"Tharandt, Stadt","type":"Stadt"},"district":{"key":"14628","name":"Sächsische Schweiz-Osterzgebirge","type":"Landkreis"},"federalState":{"key":"14","name":"Sachsen"}},{"name":"Am Markt","postalCode":"01737","locality":"Tharandt","municipality":{"key":"14628400","name":"Tharandt, Stadt","type":"Stadt"},"district":{"key":"14628","name":"Sächsische Schweiz-Osterzgebirge","type":"Landkreis"},"federalState":{"key":"14","name":"Sachsen"}},{"name":"Am Mühlgraben","postalCode":"01737","locality":"Tharandt","municipality":{"key":"14628400","name":"Tharandt, Stadt","type":"Stadt"},"district":{"key":"14628","name":"Sächsische Schweiz-Osterzgebirge","type":"Landkreis"},"federalState":{"key":"14","name":"Sachsen"}},{"name":"Am Oberen Bach","postalCode":"01737","locality":"Tharandt","municipality":{"key":"14628400","name":"Tharandt, Stadt","type":"Stadt"},"district":{"key":"14628","name":"Sächsische Schweiz-Osterzgebirge","type":"Landkreis"},"federalState":{"key":"14","name":"Sachsen"}},{"name":"Am Rehpark","postalCode":"01737","locality":"Tharandt","municipality":{"key":"14628400","name":"Tharandt, Stadt","type":"Stadt"},"district":{"key":"14628","name":"Sächsische Schweiz-Osterzgebirge","type":"Landkreis"},"federalState":{"key":"14","name":"Sachsen"}},{"name":"Am Schmiedersgraben","postalCode":"01737","locality":"Tharandt","municipality":{"key":"14628400","name":"Tharandt, Stadt","type":"Stadt"},"district":{"key":"14628","name":"Sächsische Schweiz-Osterzgebirge","type":"Landkreis"},"federalState":{"key":"14","name":"Sachsen"}},{"name":"Am Spritzenhaus","postalCode":"01737","locality":"Tharandt","municipality":{"key":"14628400","name":"Tharandt, Stadt","type":"Stadt"},"district":{"key":"14628","name":"Sächsische Schweiz-Osterzgebirge","type":"Landkreis"},"federalState":{"key":"14","name":"Sachsen"}},{"name":"Am Steinbruch","postalCode":"01737","locality":"Tharandt","municipality":{"key":"14628400","name":"Tharandt, Stadt","type":"Stadt"},"district":{"key":"14628","name":"Sächsische Schweiz-Osterzgebirge","type":"Landkreis"},"federalState":{"key":"14","name":"Sachsen"}},{"name":"Am Tankholzplatz","postalCode":"01737","locality":"Tharandt","municipality":{"key":"14628400","name":"Tharandt, Stadt","type":"Stadt"},"district":{"key":"14628","name":"Sächsische Schweiz-Osterzgebirge","type":"Landkreis"},"federalState":{"key":"14","name":"Sachsen"}},{"name":"Am Tharandter Wald","postalCode":"01737","locality":"Tharandt","municipality":{"key":"14628400","name":"Tharandt, Stadt","type":"Stadt"},"district":{"key":"14628","name":"Sächsische Schweiz-Osterzgebirge","type":"Landkreis"},"federalState":{"key":"14","name":"Sachsen"}},{"name":"Amtsgasse","postalCode":"01737","locality":"Tharandt","municipality":{"key":"14628400","name":"Tharandt, Stadt","type":"Stadt"},"district":{"key":"14628","name":"Sächsische Schweiz-Osterzgebirge","type":"Landkreis"},"federalState":{"key":"14","name":"Sachsen"}},{"name":"Am Waldrand","postalCode":"01737","locality":"Tharandt","municipality":{"key":"14628400","name":"Tharandt, Stadt","type":"Stadt"},"district":{"key":"14628","name":"Sächsische Schweiz-Osterzgebirge","type":"Landkreis"},"federalState":{"key":"14","name":"Sachsen"}},{"name":"Am Wiesenrain","postalCode":"01737","locality":"Tharandt","municipality":{"key":"14628400","name":"Tharandt, Stadt","type":"Stadt"},"district":{"key":"14628","name":"Sächsische Schweiz-Osterzgebirge","type":"Landkreis"},"federalState":{"key":"14","name":"Sachsen"}},{"name":"An der Kastanie","postalCode":"01737","locality":"Tharandt","municipality":{"key":"14628400","name":"Tharandt, Stadt","type":"Stadt"},"district":{"key":"14628","name":"Sächsische Schweiz-Osterzgebirge","type":"Landkreis"},"federalState":{"key":"14","name":"Sachsen"}},{"name":"An der Schmiede","postalCode":"01737","locality":"Tharandt","municipality":{"key":"14628400","name":"Tharandt, Stadt","type":"Stadt"},"district":{"key":"14628","name":"Sächsische Schweiz-Osterzgebirge","type":"Landkreis"},"federalState":{"key":"14","name":"Sachsen"}},{"name":"An der Siedlung","postalCode":"01737","locality":"Tharandt","municipality":{"key":"14628400","name":"Tharandt, Stadt","type":"Stadt"},"district":{"key":"14628","name":"Sächsische Schweiz-Osterzgebirge","type":"Landkreis"},"federalState":{"key":"14","name":"Sachsen"}},{"name":"Auf der Bismarckhöhe","postalCode":"01737","locality":"Tharandt","municipality":{"key":"14628400","name":"Tharandt, Stadt","type":"Stadt"},"district":{"key":"14628","name":"Sächsische Schweiz-Osterzgebirge","type":"Landkreis"},"federalState":{"key":"14","name":"Sachsen"}},{"name":"Bäckergasse","postalCode":"01737","locality":"Tharandt","municipality":{"key":"14628400","name":"Tharandt, Stadt","type":"Stadt"},"district":{"key":"14628","name":"Sächsische Schweiz-Osterzgebirge","type":"Landkreis"},"federalState":{"key":"14","name":"Sachsen"}},{"name":"Basaltweg","postalCode":"01737","locality":"Tharandt","municipality":{"key":"14628400","name":"Tharandt, Stadt","type":"Stadt"},"district":{"key":"14628","name":"Sächsische Schweiz-Osterzgebirge","type":"Landkreis"},"federalState":{"key":"14","name":"Sachsen"}},{"name":"Bauernweg","postalCode":"01737","locality":"Tharandt","municipality":{"key":"14628400","name":"Tharandt, Stadt","type":"Stadt"},"district":{"key":"14628","name":"Sächsische Schweiz-Osterzgebirge","type":"Landkreis"},"federalState":{"key":"14","name":"Sachsen"}},{"name":"Bellmanns Flügel","postalCode":"01737","locality":"Tharandt","municipality":{"key":"14628400","name":"Tharandt, Stadt","type":"Stadt"},"district":{"key":"14628","name":"Sächsische Schweiz-Osterzgebirge","type":"Landkreis"},"federalState":{"key":"14","name":"Sachsen"}},{"name":"Bergstr.","postalCode":"01737","locality":"Tharandt","municipality":{"key":"14628400","name":"Tharandt, Stadt","type":"Stadt"},"district":{"key":"14628","name":"Sächsische Schweiz-Osterzgebirge","type":"Landkreis"},"federalState":{"key":"14","name":"Sachsen"}},{"name":"B-Flügel","postalCode":"01737","locality":"Tharandt","municipality":{"key":"14628400","name":"Tharandt, Stadt","type":"Stadt"},"district":{"key":"14628","name":"Sächsische Schweiz-Osterzgebirge","type":"Landkreis"},"federalState":{"key":"14","name":"Sachsen"}},{"name":"Birkenweg","postalCode":"01737","locality":"Tharandt","municipality":{"key":"14628400","name":"Tharandt, Stadt","type":"Stadt"},"district":{"key":"14628","name":"Sächsische Schweiz-Osterzgebirge","type":"Landkreis"},"federalState":{"key":"14","name":"Sachsen"}},{"name":"Bohlenweg","postalCode":"01737","locality":"Tharandt","municipality":{"key":"14628400","name":"Tharandt, Stadt","type":"Stadt"},"district":{"key":"14628","name":"Sächsische Schweiz-Osterzgebirge","type":"Landkreis"},"federalState":{"key":"14","name":"Sachsen"}},{"name":"Borschelweg","postalCode":"01737","locality":"Tharandt","municipality":{"key":"14628400","name":"Tharandt, Stadt","type":"Stadt"},"district":{"key":"14628","name":"Sächsische Schweiz-Osterzgebirge","type":"Landkreis"},"federalState":{"key":"14","name":"Sachsen"}},{"name":"Brandweg","postalCode":"01737","locality":"Tharandt","municipality":{"key":"14628400","name":"Tharandt, Stadt","type":"Stadt"},"district":{"key":"14628","name":"Sächsische Schweiz-Osterzgebirge","type":"Landkreis"},"federalState":{"key":"14","name":"Sachsen"}},{"name":"Breiter Grund","postalCode":"01737","locality":"Tharandt","municipality":{"key":"14628400","name":"Tharandt, Stadt","type":"Stadt"},"district":{"key":"14628","name":"Sächsische Schweiz-Osterzgebirge","type":"Landkreis"},"federalState":{"key":"14","name":"Sachsen"}},{"name":"Buchackerweg","postalCode":"01737","locality":"Tharandt","municipality":{"key":"14628400","name":"Tharandt, Stadt","type":"Stadt"},"district":{"key":"14628","name":"Sächsische Schweiz-Osterzgebirge","type":"Landkreis"},"federalState":{"key":"14","name":"Sachsen"}},{"name":"Buchenweg","postalCode":"01737","locality":"Tharandt","municipality":{"key":"14628400","name":"Tharandt, Stadt","type":"Stadt"},"district":{"key":"14628","name":"Sächsische Schweiz-Osterzgebirge","type":"Landkreis"},"federalState":{"key":"14","name":"Sachsen"}},{"name":"Buchweg","postalCode":"01737","locality":"Tharandt","municipality":{"key":"14628400","name":"Tharandt, Stadt","type":"Stadt"},"district":{"key":"14628","name":"Sächsische Schweiz-Osterzgebirge","type":"Landkreis"},"federalState":{"key":"14","name":"Sachsen"}},{"name":"C-Flügel","postalCode":"01737","locality":"Tharandt","municipality":{"key":"14628400","name":"Tharandt, Stadt","type":"Stadt"},"district":{"key":"14628","name":"Sächsische Schweiz-Osterzgebirge","type":"Landkreis"},"federalState":{"key":"14","name":"Sachsen"}},{"name":"Colmnitzer Weg","postalCode":"01737","locality":"Tharandt","municipality":{"key":"14628400","name":"Tharandt, Stadt","type":"Stadt"},"district":{"key":"14628","name":"Sächsische Schweiz-Osterzgebirge","type":"Landkreis"},"federalState":{"key":"14","name":"Sachsen"}},{"name":"Cottaer Weg","postalCode":"01737","locality":"Tharandt","municipality":{"key":"14628400","name":"Tharandt, Stadt","type":"Stadt"},"district":{"key":"14628","name":"Sächsische Schweiz-Osterzgebirge","type":"Landkreis"},"federalState":{"key":"14","name":"Sachsen"}},{"name":"Daschkewitsch-Weg","postalCode":"01737","locality":"Tharandt","municipality":{"key":"14628400","name":"Tharandt, Stadt","type":"Stadt"},"district":{"key":"14628","name":"Sächsische Schweiz-Osterzgebirge","type":"Landkreis"},"federalState":{"key":"14","name":"Sachsen"}},{"name":"Dorfhainer Str.","postalCode":"01737","locality":"Tharandt","municipality":{"key":"14628400","name":"Tharandt, Stadt","type":"Stadt"},"district":{"key":"14628","name":"Sächsische Schweiz-Osterzgebirge","type":"Landkreis"},"federalState":{"key":"14","name":"Sachsen"}},{"name":"Dorfhainer Weg","postalCode":"01737","locality":"Tharandt","municipality":{"key":"14628400","name":"Tharandt, Stadt","type":"Stadt"},"district":{"key":"14628","name":"Sächsische Schweiz-Osterzgebirge","type":"Landkreis"},"federalState":{"key":"14","name":"Sachsen"}},{"name":"Dorfstr.","postalCode":"01737","locality":"Tharandt","municipality":{"key":"14628400","name":"Tharandt, Stadt","type":"Stadt"},"district":{"key":"14628","name":"Sächsische Schweiz-Osterzgebirge","type":"Landkreis"},"federalState":{"key":"14","name":"Sachsen"}},{"name":"Dresdner Str.","postalCode":"01737","locality":"Tharandt","municipality":{"key":"14628400","name":"Tharandt, Stadt","type":"Stadt"},"district":{"key":"14628","name":"Sächsische Schweiz-Osterzgebirge","type":"Landkreis"},"federalState":{"key":"14","name":"Sachsen"}},{"name":"E-Flügel","postalCode":"01737","locality":"Tharandt","municipality":{"key":"14628400","name":"Tharandt, Stadt","type":"Stadt"},"district":{"key":"14628","name":"Sächsische Schweiz-Osterzgebirge","type":"Landkreis"},"federalState":{"key":"14","name":"Sachsen"}},{"name":"ehem. Schmalspurbahn Klingenberg-Colmnitz–Oberdittmannsdorf","postalCode":"01737","locality":"Tharandt","municipality":{"key":"14628400","name":"Tharandt, Stadt","type":"Stadt"},"district":{"key":"14628","name":"Sächsische Schweiz-Osterzgebirge","type":"Landkreis"},"federalState":{"key":"14","name":"Sachsen"}},{"name":"Erbgerichtsgasse","postalCode":"01737","locality":"Tharandt","municipality":{"key":"14628400","name":"Tharandt, Stadt","type":"Stadt"},"district":{"key":"14628","name":"Sächsische Schweiz-Osterzgebirge","type":"Landkreis"},"federalState":{"key":"14","name":"Sachsen"}},{"name":"F - Flügel","postalCode":"01737","locality":"Tharandt","municipality":{"key":"14628400","name":"Tharandt, Stadt","type":"Stadt"},"district":{"key":"14628","name":"Sächsische Schweiz-Osterzgebirge","type":"Landkreis"},"federalState":{"key":"14","name":"Sachsen"}},{"name":"F-Flügel","postalCode":"01737","locality":"Tharandt","municipality":{"key":"14628400","name":"Tharandt, Stadt","type":"Stadt"},"district":{"key":"14628","name":"Sächsische Schweiz-Osterzgebirge","type":"Landkreis"},"federalState":{"key":"14","name":"Sachsen"}},{"name":"Flößerpfad","postalCode":"01737","locality":"Tharandt","municipality":{"key":"14628400","name":"Tharandt, Stadt","type":"Stadt"},"district":{"key":"14628","name":"Sächsische Schweiz-Osterzgebirge","type":"Landkreis"},"federalState":{"key":"14","name":"Sachsen"}},{"name":"Floßweg","postalCode":"01737","locality":"Tharandt","municipality":{"key":"14628400","name":"Tharandt, Stadt","type":"Stadt"},"district":{"key":"14628","name":"Sächsische Schweiz-Osterzgebirge","type":"Landkreis"},"federalState":{"key":"14","name":"Sachsen"}},{"name":"Forstbotanischer Garten Tharandt","postalCode":"01737","locality":"Tharandt","municipality":{"key":"14628400","name":"Tharandt, Stadt","type":"Stadt"},"district":{"key":"14628","name":"Sächsische Schweiz-Osterzgebirge","type":"Landkreis"},"federalState":{"key":"14","name":"Sachsen"}},{"name":"Forstweg","postalCode":"09633","locality":"Tharandt","municipality":{"key":"14628400","name":"Tharandt, Stadt","type":"Stadt"},"district":{"key":"14628","name":"Sächsische Schweiz-Osterzgebirge","type":"Landkreis"},"federalState":{"key":"14","name":"Sachsen"}},{"name":"Frauensteiner Str.","postalCode":"01737","locality":"Tharandt","municipality":{"key":"14628400","name":"Tharandt, Stadt","type":"Stadt"},"district":{"key":"14628","name":"Sächsische Schweiz-Osterzgebirge","type":"Landkreis"},"federalState":{"key":"14","name":"Sachsen"}},{"name":"Freiberger Str.","postalCode":"01737","locality":"Tharandt","municipality":{"key":"14628400","name":"Tharandt, Stadt","type":"Stadt"},"district":{"key":"14628","name":"Sächsische Schweiz-Osterzgebirge","type":"Landkreis"},"federalState":{"key":"14","name":"Sachsen"}},{"name":"Freitaler Str.","postalCode":"01737","locality":"Tharandt","municipality":{"key":"14628400","name":"Tharandt, Stadt","type":"Stadt"},"district":{"key":"14628","name":"Sächsische Schweiz-Osterzgebirge","type":"Landkreis"},"federalState":{"key":"14","name":"Sachsen"}},{"name":"Friedrich-Schiller-Str.","postalCode":"01737","locality":"Tharandt","municipality":{"key":"14628400","name":"Tharandt, Stadt","type":"Stadt"},"district":{"key":"14628","name":"Sächsische Schweiz-Osterzgebirge","type":"Landkreis"},"federalState":{"key":"14","name":"Sachsen"}},{"name":"Fuchsschneise","postalCode":"01737","locality":"Tharandt","municipality":{"key":"14628400","name":"Tharandt, Stadt","type":"Stadt"},"district":{"key":"14628","name":"Sächsische Schweiz-Osterzgebirge","type":"Landkreis"},"federalState":{"key":"14","name":"Sachsen"}},{"name":"Fürstengasse","postalCode":"01737","locality":"Tharandt","municipality":{"key":"14628400","name":"Tharandt, Stadt","type":"Stadt"},"district":{"key":"14628","name":"Sächsische Schweiz-Osterzgebirge","type":"Landkreis"},"federalState":{"key":"14","name":"Sachsen"}},{"name":"Fürstenweg","postalCode":"01737","locality":"Tharandt","municipality":{"key":"14628400","name":"Tharandt, Stadt","type":"Stadt"},"district":{"key":"14628","name":"Sächsische Schweiz-Osterzgebirge","type":"Landkreis"},"federalState":{"key":"14","name":"Sachsen"}},{"name":"Gartenstr.","postalCode":"01737","locality":"Tharandt","municipality":{"key":"14628400","name":"Tharandt, Stadt","type":"Stadt"},"district":{"key":"14628","name":"Sächsische Schweiz-Osterzgebirge","type":"Landkreis"},"federalState":{"key":"14","name":"Sachsen"}},{"name":"Gehegenwiesenweg","postalCode":"01737","locality":"Tharandt","municipality":{"key":"14628400","name":"Tharandt, Stadt","type":"Stadt"},"district":{"key":"14628","name":"Sächsische Schweiz-Osterzgebirge","type":"Landkreis"},"federalState":{"key":"14","name":"Sachsen"}},{"name":"G-Flügel","postalCode":"01737","locality":"Tharandt","municipality":{"key":"14628400","name":"Tharandt, Stadt","type":"Stadt"},"district":{"key":"14628","name":"Sächsische Schweiz-Osterzgebirge","type":"Landkreis"},"federalState":{"key":"14","name":"Sachsen"}},{"name":"Glasergrundweg","postalCode":"01737","locality":"Tharandt","municipality":{"key":"14628400","name":"Tharandt, Stadt","type":"Stadt"},"district":{"key":"14628","name":"Sächsische Schweiz-Osterzgebirge","type":"Landkreis"},"federalState":{"key":"14","name":"Sachsen"}},{"name":"Glückswiese","postalCode":"01737","locality":"Tharandt","municipality":{"key":"14628400","name":"Tharandt, Stadt","type":"Stadt"},"district":{"key":"14628","name":"Sächsische Schweiz-Osterzgebirge","type":"Landkreis"},"federalState":{"key":"14","name":"Sachsen"}},{"name":"Goldrändchen","postalCode":"01737","locality":"Tharandt","municipality":{"key":"14628400","name":"Tharandt, Stadt","type":"Stadt"},"district":{"key":"14628","name":"Sächsische Schweiz-Osterzgebirge","type":"Landkreis"},"federalState":{"key":"14","name":"Sachsen"}},{"name":"Gottschaldweg","postalCode":"01737","locality":"Tharandt","municipality":{"key":"14628400","name":"Tharandt, Stadt","type":"Stadt"},"district":{"key":"14628","name":"Sächsische Schweiz-Osterzgebirge","type":"Landkreis"},"federalState":{"key":"14","name":"Sachsen"}},{"name":"Grillenburger Weg","postalCode":"01737","locality":"Tharandt","municipality":{"key":"14628400","name":"Tharandt, Stadt","type":"Stadt"},"district":{"key":"14628","name":"Sächsische Schweiz-Osterzgebirge","type":"Landkreis"},"federalState":{"key":"14","name":"Sachsen"}},{"name":"Großopitzer Weg","postalCode":"01737","locality":"Tharandt","municipality":{"key":"14628400","name":"Tharandt, Stadt","type":"Stadt"},"district":{"key":"14628","name":"Sächsische Schweiz-Osterzgebirge","type":"Landkreis"},"federalState":{"key":"14","name":"Sachsen"}},{"name":"Grundbachtal","postalCode":"01737","locality":"Tharandt","municipality":{"key":"14628400","name":"Tharandt, Stadt","type":"Stadt"},"district":{"key":"14628","name":"Sächsische Schweiz-Osterzgebirge","type":"Landkreis"},"federalState":{"key":"14","name":"Sachsen"}},{"name":"Grunder Weg","postalCode":"01737","locality":"Tharandt","municipality":{"key":"14628400","name":"Tharandt, Stadt","type":"Stadt"},"district":{"key":"14628","name":"Sächsische Schweiz-Osterzgebirge","type":"Landkreis"},"federalState":{"key":"14","name":"Sachsen"}},{"name":"Hainsberger Str.","postalCode":"01737","locality":"Tharandt","municipality":{"key":"14628400","name":"Tharandt, Stadt","type":"Stadt"},"district":{"key":"14628","name":"Sächsische Schweiz-Osterzgebirge","type":"Landkreis"},"federalState":{"key":"14","name":"Sachsen"}},{"name":"Harthaer Flügel","postalCode":"01737","locality":"Tharandt","municipality":{"key":"14628400","name":"Tharandt, Stadt","type":"Stadt"},"district":{"key":"14628","name":"Sächsische Schweiz-Osterzgebirge","type":"Landkreis"},"federalState":{"key":"14","name":"Sachsen"}},{"name":"Harthaer Weg","postalCode":"01737","locality":"Tharandt","municipality":{"key":"14628400","name":"Tharandt, Stadt","type":"Stadt"},"district":{"key":"14628","name":"Sächsische Schweiz-Osterzgebirge","type":"Landkreis"},"federalState":{"key":"14","name":"Sachsen"}},{"name":"Hasensteig","postalCode":"01737","locality":"Tharandt","municipality":{"key":"14628400","name":"Tharandt, Stadt","type":"Stadt"},"district":{"key":"14628","name":"Sächsische Schweiz-Osterzgebirge","type":"Landkreis"},"federalState":{"key":"14","name":"Sachsen"}},{"name":"Hauptstr.","postalCode":"01737","locality":"Tharandt","municipality":{"key":"14628400","name":"Tharandt, Stadt","type":"Stadt"},"district":{"key":"14628","name":"Sächsische Schweiz-Osterzgebirge","type":"Landkreis"},"federalState":{"key":"14","name":"Sachsen"}},{"name":"Heinrich-Cotta-Str.","postalCode":"01737","locality":"Tharandt","municipality":{"key":"14628400","name":"Tharandt, Stadt","type":"Stadt"},"district":{"key":"14628","name":"Sächsische Schweiz-Osterzgebirge","type":"Landkreis"},"federalState":{"key":"14","name":"Sachsen"}},{"name":"Herzogswalder Str.","postalCode":"01737","locality":"Tharandt","municipality":{"key":"14628400","name":"Tharandt, Stadt","type":"Stadt"},"district":{"key":"14628","name":"Sächsische Schweiz-Osterzgebirge","type":"Landkreis"},"federalState":{"key":"14","name":"Sachsen"}},{"name":"H-Flügel","postalCode":"01737","locality":"Tharandt","municipality":{"key":"14628400","name":"Tharandt, Stadt","type":"Stadt"},"district":{"key":"14628","name":"Sächsische Schweiz-Osterzgebirge","type":"Landkreis"},"federalState":{"key":"14","name":"Sachsen"}},{"name":"Hirschstange","postalCode":"01737","locality":"Tharandt","municipality":{"key":"14628400","name":"Tharandt, Stadt","type":"Stadt"},"district":{"key":"14628","name":"Sächsische Schweiz-Osterzgebirge","type":"Landkreis"},"federalState":{"key":"14","name":"Sachsen"}},{"name":"Hirschsteig","postalCode":"01737","locality":"Tharandt","municipality":{"key":"14628400","name":"Tharandt, Stadt","type":"Stadt"},"district":{"key":"14628","name":"Sächsische Schweiz-Osterzgebirge","type":"Landkreis"},"federalState":{"key":"14","name":"Sachsen"}},{"name":"Hohe Str.","postalCode":"01737","locality":"Tharandt","municipality":{"key":"14628400","name":"Tharandt, Stadt","type":"Stadt"},"district":{"key":"14628","name":"Sächsische Schweiz-Osterzgebirge","type":"Landkreis"},"federalState":{"key":"14","name":"Sachsen"}},{"name":"Jagdweg","postalCode":"01737","locality":"Tharandt","municipality":{"key":"14628400","name":"Tharandt, Stadt","type":"Stadt"},"district":{"key":"14628","name":"Sächsische Schweiz-Osterzgebirge","type":"Landkreis"},"federalState":{"key":"14","name":"Sachsen"}},{"name":"Jägerhorn","postalCode":"01737","locality":"Tharandt","municipality":{"key":"14628400","name":"Tharandt, Stadt","type":"Stadt"},"district":{"key":"14628","name":"Sächsische Schweiz-Osterzgebirge","type":"Landkreis"},"federalState":{"key":"14","name":"Sachsen"}},{"name":"Jägersteig","postalCode":"01737","locality":"Tharandt","municipality":{"key":"14628400","name":"Tharandt, Stadt","type":"Stadt"},"district":{"key":"14628","name":"Sächsische Schweiz-Osterzgebirge","type":"Landkreis"},"federalState":{"key":"14","name":"Sachsen"}},{"name":"Judeichweg","postalCode":"01737","locality":"Tharandt","municipality":{"key":"14628400","name":"Tharandt, Stadt","type":"Stadt"},"district":{"key":"14628","name":"Sächsische Schweiz-Osterzgebirge","type":"Landkreis"},"federalState":{"key":"14","name":"Sachsen"}},{"name":"Kannenhenkelweg","postalCode":"01737","locality":"Tharandt","municipality":{"key":"14628400","name":"Tharandt, Stadt","type":"Stadt"},"district":{"key":"14628","name":"Sächsische Schweiz-Osterzgebirge","type":"Landkreis"},"federalState":{"key":"14","name":"Sachsen"}},{"name":"Katzentreppenweg","postalCode":"01737","locality":"Tharandt","municipality":{"key":"14628400","name":"Tharandt, Stadt","type":"Stadt"},"district":{"key":"14628","name":"Sächsische Schweiz-Osterzgebirge","type":"Landkreis"},"federalState":{"key":"14","name":"Sachsen"}},{"name":"Kirchsteig","postalCode":"01737","locality":"Tharandt","municipality":{"key":"14628400","name":"Tharandt, Stadt","type":"Stadt"},"district":{"key":"14628","name":"Sächsische Schweiz-Osterzgebirge","type":"Landkreis"},"federalState":{"key":"14","name":"Sachsen"}},{"name":"Kirchweg","postalCode":"01737","locality":"Tharandt","municipality":{"key":"14628400","name":"Tharandt, Stadt","type":"Stadt"},"district":{"key":"14628","name":"Sächsische Schweiz-Osterzgebirge","type":"Landkreis"},"federalState":{"key":"14","name":"Sachsen"}},{"name":"Kirschberg","postalCode":"01737","locality":"Tharandt","municipality":{"key":"14628400","name":"Tharandt, Stadt","type":"Stadt"},"district":{"key":"14628","name":"Sächsische Schweiz-Osterzgebirge","type":"Landkreis"},"federalState":{"key":"14","name":"Sachsen"}},{"name":"Kleinopitzer Weg","postalCode":"01737","locality":"Tharandt","municipality":{"key":"14628400","name":"Tharandt, Stadt","type":"Stadt"},"district":{"key":"14628","name":"Sächsische Schweiz-Osterzgebirge","type":"Landkreis"},"federalState":{"key":"14","name":"Sachsen"}},{"name":"Klingerweg","postalCode":"01737","locality":"Tharandt","municipality":{"key":"14628400","name":"Tharandt, Stadt","type":"Stadt"},"district":{"key":"14628","name":"Sächsische Schweiz-Osterzgebirge","type":"Landkreis"},"federalState":{"key":"14","name":"Sachsen"}},{"name":"Kneipp-Gesundheitsanlage","postalCode":"01737","locality":"Tharandt","municipality":{"key":"14628400","name":"Tharandt, Stadt","type":"Stadt"},"district":{"key":"14628","name":"Sächsische Schweiz-Osterzgebirge","type":"Landkreis"},"federalState":{"key":"14","name":"Sachsen"}},{"name":"Komiteeflügel","postalCode":"01737","locality":"Tharandt","municipality":{"key":"14628400","name":"Tharandt, Stadt","type":"Stadt"},"district":{"key":"14628","name":"Sächsische Schweiz-Osterzgebirge","type":"Landkreis"},"federalState":{"key":"14","name":"Sachsen"}},{"name":"Kreuzvier","postalCode":"01737","locality":"Tharandt","municipality":{"key":"14628400","name":"Tharandt, Stadt","type":"Stadt"},"district":{"key":"14628","name":"Sächsische Schweiz-Osterzgebirge","type":"Landkreis"},"federalState":{"key":"14","name":"Sachsen"}},{"name":"Kroatenweg","postalCode":"01737","locality":"Tharandt","municipality":{"key":"14628400","name":"Tharandt, Stadt","type":"Stadt"},"district":{"key":"14628","name":"Sächsische Schweiz-Osterzgebirge","type":"Landkreis"},"federalState":{"key":"14","name":"Sachsen"}},{"name":"Kuckuck","postalCode":"01737","locality":"Tharandt","municipality":{"key":"14628400","name":"Tharandt, Stadt","type":"Stadt"},"district":{"key":"14628","name":"Sächsische Schweiz-Osterzgebirge","type":"Landkreis"},"federalState":{"key":"14","name":"Sachsen"}},{"name":"Landbergstr.","postalCode":"01737","locality":"Tharandt","municipality":{"key":"14628400","name":"Tharandt, Stadt","type":"Stadt"},"district":{"key":"14628","name":"Sächsische Schweiz-Osterzgebirge","type":"Landkreis"},"federalState":{"key":"14","name":"Sachsen"}},{"name":"Landbergweg","postalCode":"01737","locality":"Tharandt","municipality":{"key":"14628400","name":"Tharandt, Stadt","type":"Stadt"},"district":{"key":"14628","name":"Sächsische Schweiz-Osterzgebirge","type":"Landkreis"},"federalState":{"key":"14","name":"Sachsen"}},{"name":"Langer Weg","postalCode":"01737","locality":"Tharandt","municipality":{"key":"14628400","name":"Tharandt, Stadt","type":"Stadt"},"district":{"key":"14628","name":"Sächsische Schweiz-Osterzgebirge","type":"Landkreis"},"federalState":{"key":"14","name":"Sachsen"}},{"name":"Lehmgrubenweg","postalCode":"01737","locality":"Tharandt","municipality":{"key":"14628400","name":"Tharandt, Stadt","type":"Stadt"},"district":{"key":"14628","name":"Sächsische Schweiz-Osterzgebirge","type":"Landkreis"},"federalState":{"key":"14","name":"Sachsen"}},{"name":"Lindenhofstr.","postalCode":"01737","locality":"Tharandt","municipality":{"key":"14628400","name":"Tharandt, Stadt","type":"Stadt"},"district":{"key":"14628","name":"Sächsische Schweiz-Osterzgebirge","type":"Landkreis"},"federalState":{"key":"14","name":"Sachsen"}},{"name":"Lindenweg","postalCode":"01737","locality":"Tharandt","municipality":{"key":"14628400","name":"Tharandt, Stadt","type":"Stadt"},"district":{"key":"14628","name":"Sächsische Schweiz-Osterzgebirge","type":"Landkreis"},"federalState":{"key":"14","name":"Sachsen"}},{"name":"Markgrafenweg","postalCode":"01737","locality":"Tharandt","municipality":{"key":"14628400","name":"Tharandt, Stadt","type":"Stadt"},"district":{"key":"14628","name":"Sächsische Schweiz-Osterzgebirge","type":"Landkreis"},"federalState":{"key":"14","name":"Sachsen"}},{"name":"Mauerhammer","postalCode":"01737","locality":"Tharandt","municipality":{"key":"14628400","name":"Tharandt, Stadt","type":"Stadt"},"district":{"key":"14628","name":"Sächsische Schweiz-Osterzgebirge","type":"Landkreis"},"federalState":{"key":"14","name":"Sachsen"}},{"name":"Mühlweg","postalCode":"01737","locality":"Tharandt","municipality":{"key":"14628400","name":"Tharandt, Stadt","type":"Stadt"},"district":{"key":"14628","name":"Sächsische Schweiz-Osterzgebirge","type":"Landkreis"},"federalState":{"key":"14","name":"Sachsen"}},{"name":"Neue Str.","postalCode":"01737","locality":"Tharandt","municipality":{"key":"14628400","name":"Tharandt, Stadt","type":"Stadt"},"district":{"key":"14628","name":"Sächsische Schweiz-Osterzgebirge","type":"Landkreis"},"federalState":{"key":"14","name":"Sachsen"}},{"name":"Nieder Sandweg","postalCode":"01737","locality":"Tharandt","municipality":{"key":"14628400","name":"Tharandt, Stadt","type":"Stadt"},"district":{"key":"14628","name":"Sächsische Schweiz-Osterzgebirge","type":"Landkreis"},"federalState":{"key":"14","name":"Sachsen"}},{"name":"Oberer Sandweg","postalCode":"01737","locality":"Tharandt","municipality":{"key":"14628400","name":"Tharandt, Stadt","type":"Stadt"},"district":{"key":"14628","name":"Sächsische Schweiz-Osterzgebirge","type":"Landkreis"},"federalState":{"key":"14","name":"Sachsen"}},{"name":"Opitzer Weg","postalCode":"01737","locality":"Tharandt","municipality":{"key":"14628400","name":"Tharandt, Stadt","type":"Stadt"},"district":{"key":"14628","name":"Sächsische Schweiz-Osterzgebirge","type":"Landkreis"},"federalState":{"key":"14","name":"Sachsen"}},{"name":"Parkstr.","postalCode":"01737","locality":"Tharandt","municipality":{"key":"14628400","name":"Tharandt, Stadt","type":"Stadt"},"district":{"key":"14628","name":"Sächsische Schweiz-Osterzgebirge","type":"Landkreis"},"federalState":{"key":"14","name":"Sachsen"}},{"name":"Pfarrgasse","postalCode":"01737","locality":"Tharandt","municipality":{"key":"14628400","name":"Tharandt, Stadt","type":"Stadt"},"district":{"key":"14628","name":"Sächsische Schweiz-Osterzgebirge","type":"Landkreis"},"federalState":{"key":"14","name":"Sachsen"}},{"name":"Pienner Str.","postalCode":"01737","locality":"Tharandt","municipality":{"key":"14628400","name":"Tharandt, Stadt","type":"Stadt"},"district":{"key":"14628","name":"Sächsische Schweiz-Osterzgebirge","type":"Landkreis"},"federalState":{"key":"14","name":"Sachsen"}},{"name":"Pohrsdorfer Rand","postalCode":"01737","locality":"Tharandt","municipality":{"key":"14628400","name":"Tharandt, Stadt","type":"Stadt"},"district":{"key":"14628","name":"Sächsische Schweiz-Osterzgebirge","type":"Landkreis"},"federalState":{"key":"14","name":"Sachsen"}},{"name":"Porphyrweg","postalCode":"01737","locality":"Tharandt","municipality":{"key":"14628400","name":"Tharandt, Stadt","type":"Stadt"},"district":{"key":"14628","name":"Sächsische Schweiz-Osterzgebirge","type":"Landkreis"},"federalState":{"key":"14","name":"Sachsen"}},{"name":"Rehder-Weg","postalCode":"01737","locality":"Tharandt","municipality":{"key":"14628400","name":"Tharandt, Stadt","type":"Stadt"},"district":{"key":"14628","name":"Sächsische Schweiz-Osterzgebirge","type":"Landkreis"},"federalState":{"key":"14","name":"Sachsen"}},{"name":"Rehsteig","postalCode":"01737","locality":"Tharandt","municipality":{"key":"14628400","name":"Tharandt, Stadt","type":"Stadt"},"district":{"key":"14628","name":"Sächsische Schweiz-Osterzgebirge","type":"Landkreis"},"federalState":{"key":"14","name":"Sachsen"}},{"name":"Rodelandweg","postalCode":"01737","locality":"Tharandt","municipality":{"key":"14628400","name":"Tharandt, Stadt","type":"Stadt"},"district":{"key":"14628","name":"Sächsische Schweiz-Osterzgebirge","type":"Landkreis"},"federalState":{"key":"14","name":"Sachsen"}},{"name":"Rosenweg","postalCode":"01737","locality":"Tharandt","municipality":{"key":"14628400","name":"Tharandt, Stadt","type":"Stadt"},"district":{"key":"14628","name":"Sächsische Schweiz-Osterzgebirge","type":"Landkreis"},"federalState":{"key":"14","name":"Sachsen"}},{"name":"Roßmäßlerstr.","postalCode":"01737","locality":"Tharandt","municipality":{"key":"14628400","name":"Tharandt, Stadt","type":"Stadt"},"district":{"key":"14628","name":"Sächsische Schweiz-Osterzgebirge","type":"Landkreis"},"federalState":{"key":"14","name":"Sachsen"}},{"name":"Ruppertweg","postalCode":"01737","locality":"Tharandt","municipality":{"key":"14628400","name":"Tharandt, Stadt","type":"Stadt"},"district":{"key":"14628","name":"Sächsische Schweiz-Osterzgebirge","type":"Landkreis"},"federalState":{"key":"14","name":"Sachsen"}},{"name":"Sachs-Weg","postalCode":"01737","locality":"Tharandt","municipality":{"key":"14628400","name":"Tharandt, Stadt","type":"Stadt"},"district":{"key":"14628","name":"Sächsische Schweiz-Osterzgebirge","type":"Landkreis"},"federalState":{"key":"14","name":"Sachsen"}},{"name":"Salzstr.","postalCode":"01737","locality":"Tharandt","municipality":{"key":"14628400","name":"Tharandt, Stadt","type":"Stadt"},"district":{"key":"14628","name":"Sächsische Schweiz-Osterzgebirge","type":"Landkreis"},"federalState":{"key":"14","name":"Sachsen"}},{"name":"Sausteig","postalCode":"01737","locality":"Tharandt","municipality":{"key":"14628400","name":"Tharandt, Stadt","type":"Stadt"},"district":{"key":"14628","name":"Sächsische Schweiz-Osterzgebirge","type":"Landkreis"},"federalState":{"key":"14","name":"Sachsen"}},{"name":"S-Berg","postalCode":"01737","locality":"Tharandt","municipality":{"key":"14628400","name":"Tharandt, Stadt","type":"Stadt"},"district":{"key":"14628","name":"Sächsische Schweiz-Osterzgebirge","type":"Landkreis"},"federalState":{"key":"14","name":"Sachsen"}},{"name":"Schenkenweg","postalCode":"01737","locality":"Tharandt","municipality":{"key":"14628400","name":"Tharandt, Stadt","type":"Stadt"},"district":{"key":"14628","name":"Sächsische Schweiz-Osterzgebirge","type":"Landkreis"},"federalState":{"key":"14","name":"Sachsen"}},{"name":"Schillerstr.","postalCode":"01737","locality":"Tharandt","municipality":{"key":"14628400","name":"Tharandt, Stadt","type":"Stadt"},"district":{"key":"14628","name":"Sächsische Schweiz-Osterzgebirge","type":"Landkreis"},"federalState":{"key":"14","name":"Sachsen"}},{"name":"Schlossteichrunde","postalCode":"01737","locality":"Tharandt","municipality":{"key":"14628400","name":"Tharandt, Stadt","type":"Stadt"},"district":{"key":"14628","name":"Sächsische Schweiz-Osterzgebirge","type":"Landkreis"},"federalState":{"key":"14","name":"Sachsen"}},{"name":"Schneise 10","postalCode":"01737","locality":"Tharandt","municipality":{"key":"14628400","name":"Tharandt, Stadt","type":"Stadt"},"district":{"key":"14628","name":"Sächsische Schweiz-Osterzgebirge","type":"Landkreis"},"federalState":{"key":"14","name":"Sachsen"}},{"name":"Schneise 11","postalCode":"01737","locality":"Tharandt","municipality":{"key":"14628400","name":"Tharandt, Stadt","type":"Stadt"},"district":{"key":"14628","name":"Sächsische Schweiz-Osterzgebirge","type":"Landkreis"},"federalState":{"key":"14","name":"Sachsen"}},{"name":"Schneise 12","postalCode":"01737","locality":"Tharandt","municipality":{"key":"14628400","name":"Tharandt, Stadt","type":"Stadt"},"district":{"key":"14628","name":"Sächsische Schweiz-Osterzgebirge","type":"Landkreis"},"federalState":{"key":"14","name":"Sachsen"}},{"name":"Schneise 13","postalCode":"01737","locality":"Tharandt","municipality":{"key":"14628400","name":"Tharandt, Stadt","type":"Stadt"},"district":{"key":"14628","name":"Sächsische Schweiz-Osterzgebirge","type":"Landkreis"},"federalState":{"key":"14","name":"Sachsen"}},{"name":"Schneise 14","postalCode":"01737","locality":"Tharandt","municipality":{"key":"14628400","name":"Tharandt, Stadt","type":"Stadt"},"district":{"key":"14628","name":"Sächsische Schweiz-Osterzgebirge","type":"Landkreis"},"federalState":{"key":"14","name":"Sachsen"}},{"name":"Schneise 15","postalCode":"01737","locality":"Tharandt","municipality":{"key":"14628400","name":"Tharandt, Stadt","type":"Stadt"},"district":{"key":"14628","name":"Sächsische Schweiz-Osterzgebirge","type":"Landkreis"},"federalState":{"key":"14","name":"Sachsen"}},{"name":"Schneise 16","postalCode":"01737","locality":"Tharandt","municipality":{"key":"14628400","name":"Tharandt, Stadt","type":"Stadt"},"district":{"key":"14628","name":"Sächsische Schweiz-Osterzgebirge","type":"Landkreis"},"federalState":{"key":"14","name":"Sachsen"}},{"name":"Schneise 17","postalCode":"01737","locality":"Tharandt","municipality":{"key":"14628400","name":"Tharandt, Stadt","type":"Stadt"},"district":{"key":"14628","name":"Sächsische Schweiz-Osterzgebirge","type":"Landkreis"},"federalState":{"key":"14","name":"Sachsen"}},{"name":"Schneise 18","postalCode":"01737","locality":"Tharandt","municipality":{"key":"14628400","name":"Tharandt, Stadt","type":"Stadt"},"district":{"key":"14628","name":"Sächsische Schweiz-Osterzgebirge","type":"Landkreis"},"federalState":{"key":"14","name":"Sachsen"}},{"name":"Schneise 19","postalCode":"01737","locality":"Tharandt","municipality":{"key":"14628400","name":"Tharandt, Stadt","type":"Stadt"},"district":{"key":"14628","name":"Sächsische Schweiz-Osterzgebirge","type":"Landkreis"},"federalState":{"key":"14","name":"Sachsen"}},{"name":"Schneise 20","postalCode":"01737","locality":"Tharandt","municipality":{"key":"14628400","name":"Tharandt, Stadt","type":"Stadt"},"district":{"key":"14628","name":"Sächsische Schweiz-Osterzgebirge","type":"Landkreis"},"federalState":{"key":"14","name":"Sachsen"}},{"name":"Schneise 21","postalCode":"01737","locality":"Tharandt","municipality":{"key":"14628400","name":"Tharandt, Stadt","type":"Stadt"},"district":{"key":"14628","name":"Sächsische Schweiz-Osterzgebirge","type":"Landkreis"},"federalState":{"key":"14","name":"Sachsen"}},{"name":"Schneise 22","postalCode":"01737","locality":"Tharandt","municipality":{"key":"14628400","name":"Tharandt, Stadt","type":"Stadt"},"district":{"key":"14628","name":"Sächsische Schweiz-Osterzgebirge","type":"Landkreis"},"federalState":{"key":"14","name":"Sachsen"}},{"name":"Schneise 23","postalCode":"01737","locality":"Tharandt","municipality":{"key":"14628400","name":"Tharandt, Stadt","type":"Stadt"},"district":{"key":"14628","name":"Sächsische Schweiz-Osterzgebirge","type":"Landkreis"},"federalState":{"key":"14","name":"Sachsen"}},{"name":"Schneise 4","postalCode":"01737","locality":"Tharandt","municipality":{"key":"14628400","name":"Tharandt, Stadt","type":"Stadt"},"district":{"key":"14628","name":"Sächsische Schweiz-Osterzgebirge","type":"Landkreis"},"federalState":{"key":"14","name":"Sachsen"}},{"name":"Schneise 6","postalCode":"01737","locality":"Tharandt","municipality":{"key":"14628400","name":"Tharandt, Stadt","type":"Stadt"},"district":{"key":"14628","name":"Sächsische Schweiz-Osterzgebirge","type":"Landkreis"},"federalState":{"key":"14","name":"Sachsen"}},{"name":"Schneise 7","postalCode":"01737","locality":"Tharandt","municipality":{"key":"14628400","name":"Tharandt, Stadt","type":"Stadt"},"district":{"key":"14628","name":"Sächsische Schweiz-Osterzgebirge","type":"Landkreis"},"federalState":{"key":"14","name":"Sachsen"}},{"name":"Schneise 8","postalCode":"01737","locality":"Tharandt","municipality":{"key":"14628400","name":"Tharandt, Stadt","type":"Stadt"},"district":{"key":"14628","name":"Sächsische Schweiz-Osterzgebirge","type":"Landkreis"},"federalState":{"key":"14","name":"Sachsen"}},{"name":"Schneise 9","postalCode":"01737","locality":"Tharandt","municipality":{"key":"14628400","name":"Tharandt, Stadt","type":"Stadt"},"district":{"key":"14628","name":"Sächsische Schweiz-Osterzgebirge","type":"Landkreis"},"federalState":{"key":"14","name":"Sachsen"}},{"name":"Schulberg","postalCode":"01737","locality":"Tharandt","municipality":{"key":"14628400","name":"Tharandt, Stadt","type":"Stadt"},"district":{"key":"14628","name":"Sächsische Schweiz-Osterzgebirge","type":"Landkreis"},"federalState":{"key":"14","name":"Sachsen"}},{"name":"Schwarze Str.","postalCode":"01737","locality":"Tharandt","municipality":{"key":"14628400","name":"Tharandt, Stadt","type":"Stadt"},"district":{"key":"14628","name":"Sächsische Schweiz-Osterzgebirge","type":"Landkreis"},"federalState":{"key":"14","name":"Sachsen"}},{"name":"Seerentalweg","postalCode":"01737","locality":"Tharandt","municipality":{"key":"14628400","name":"Tharandt, Stadt","type":"Stadt"},"district":{"key":"14628","name":"Sächsische Schweiz-Osterzgebirge","type":"Landkreis"},"federalState":{"key":"14","name":"Sachsen"}},{"name":"Seerenteichstr.","postalCode":"01737","locality":"Tharandt","municipality":{"key":"14628400","name":"Tharandt, Stadt","type":"Stadt"},"district":{"key":"14628","name":"Sächsische Schweiz-Osterzgebirge","type":"Landkreis"},"federalState":{"key":"14","name":"Sachsen"}},{"name":"Siedlerweg","postalCode":"01737","locality":"Tharandt","municipality":{"key":"14628400","name":"Tharandt, Stadt","type":"Stadt"},"district":{"key":"14628","name":"Sächsische Schweiz-Osterzgebirge","type":"Landkreis"},"federalState":{"key":"14","name":"Sachsen"}},{"name":"Siedlung","postalCode":"01737","locality":"Tharandt","municipality":{"key":"14628400","name":"Tharandt, Stadt","type":"Stadt"},"district":{"key":"14628","name":"Sächsische Schweiz-Osterzgebirge","type":"Landkreis"},"federalState":{"key":"14","name":"Sachsen"}},{"name":"Sonnenlehne","postalCode":"01737","locality":"Tharandt","municipality":{"key":"14628400","name":"Tharandt, Stadt","type":"Stadt"},"district":{"key":"14628","name":"Sächsische Schweiz-Osterzgebirge","type":"Landkreis"},"federalState":{"key":"14","name":"Sachsen"}},{"name":"Spechtshausener Str.","postalCode":"01737","locality":"Tharandt","municipality":{"key":"14628400","name":"Tharandt, Stadt","type":"Stadt"},"district":{"key":"14628","name":"Sächsische Schweiz-Osterzgebirge","type":"Landkreis"},"federalState":{"key":"14","name":"Sachsen"}},{"name":"Stallweg","postalCode":"01737","locality":"Tharandt","municipality":{"key":"14628400","name":"Tharandt, Stadt","type":"Stadt"},"district":{"key":"14628","name":"Sächsische Schweiz-Osterzgebirge","type":"Landkreis"},"federalState":{"key":"14","name":"Sachsen"}},{"name":"Talmühlenstr.","postalCode":"01737","locality":"Tharandt","municipality":{"key":"14628400","name":"Tharandt, Stadt","type":"Stadt"},"district":{"key":"14628","name":"Sächsische Schweiz-Osterzgebirge","type":"Landkreis"},"federalState":{"key":"14","name":"Sachsen"}},{"name":"Talstr.","postalCode":"01737","locality":"Tharandt","municipality":{"key":"14628400","name":"Tharandt, Stadt","type":"Stadt"},"district":{"key":"14628","name":"Sächsische Schweiz-Osterzgebirge","type":"Landkreis"},"federalState":{"key":"14","name":"Sachsen"}},{"name":"Tharandter Str.","postalCode":"01737","locality":"Tharandt","municipality":{"key":"14628400","name":"Tharandt, Stadt","type":"Stadt"},"district":{"key":"14628","name":"Sächsische Schweiz-Osterzgebirge","type":"Landkreis"},"federalState":{"key":"14","name":"Sachsen"}},{"name":"Tiefer Grund","postalCode":"01737","locality":"Tharandt","municipality":{"key":"14628400","name":"Tharandt, Stadt","type":"Stadt"},"district":{"key":"14628","name":"Sächsische Schweiz-Osterzgebirge","type":"Landkreis"},"federalState":{"key":"14","name":"Sachsen"}},{"name":"Triebenbachweg","postalCode":"01737","locality":"Tharandt","municipality":{"key":"14628400","name":"Tharandt, Stadt","type":"Stadt"},"district":{"key":"14628","name":"Sächsische Schweiz-Osterzgebirge","type":"Landkreis"},"federalState":{"key":"14","name":"Sachsen"}},{"name":"Triebischstr.","postalCode":"01737","locality":"Tharandt","municipality":{"key":"14628400","name":"Tharandt, Stadt","type":"Stadt"},"district":{"key":"14628","name":"Sächsische Schweiz-Osterzgebirge","type":"Landkreis"},"federalState":{"key":"14","name":"Sachsen"}},{"name":"Triebischweg","postalCode":"01737","locality":"Tharandt","municipality":{"key":"14628400","name":"Tharandt, Stadt","type":"Stadt"},"district":{"key":"14628","name":"Sächsische Schweiz-Osterzgebirge","type":"Landkreis"},"federalState":{"key":"14","name":"Sachsen"}},{"name":"Waldblick","postalCode":"01737","locality":"Tharandt","municipality":{"key":"14628400","name":"Tharandt, Stadt","type":"Stadt"},"district":{"key":"14628","name":"Sächsische Schweiz-Osterzgebirge","type":"Landkreis"},"federalState":{"key":"14","name":"Sachsen"}},{"name":"Waldhäuser","postalCode":"01737","locality":"Tharandt","municipality":{"key":"14628400","name":"Tharandt, Stadt","type":"Stadt"},"district":{"key":"14628","name":"Sächsische Schweiz-Osterzgebirge","type":"Landkreis"},"federalState":{"key":"14","name":"Sachsen"}},{"name":"Waldhäuserweg","postalCode":"01737","locality":"Tharandt","municipality":{"key":"14628400","name":"Tharandt, Stadt","type":"Stadt"},"district":{"key":"14628","name":"Sächsische Schweiz-Osterzgebirge","type":"Landkreis"},"federalState":{"key":"14","name":"Sachsen"}},{"name":"Waldleitenweg","postalCode":"01737","locality":"Tharandt","municipality":{"key":"14628400","name":"Tharandt, Stadt","type":"Stadt"},"district":{"key":"14628","name":"Sächsische Schweiz-Osterzgebirge","type":"Landkreis"},"federalState":{"key":"14","name":"Sachsen"}},{"name":"Waldstr.","postalCode":"01737","locality":"Tharandt","municipality":{"key":"14628400","name":"Tharandt, Stadt","type":"Stadt"},"district":{"key":"14628","name":"Sächsische Schweiz-Osterzgebirge","type":"Landkreis"},"federalState":{"key":"14","name":"Sachsen"}},{"name":"Warnsdorfer Flügel","postalCode":"01737","locality":"Tharandt","municipality":{"key":"14628400","name":"Tharandt, Stadt","type":"Stadt"},"district":{"key":"14628","name":"Sächsische Schweiz-Osterzgebirge","type":"Landkreis"},"federalState":{"key":"14","name":"Sachsen"}},{"name":"Warnsdorfer Weg","postalCode":"01737","locality":"Tharandt","municipality":{"key":"14628400","name":"Tharandt, Stadt","type":"Stadt"},"district":{"key":"14628","name":"Sächsische Schweiz-Osterzgebirge","type":"Landkreis"},"federalState":{"key":"14","name":"Sachsen"}},{"name":"Weißiger Höhe","postalCode":"01737","locality":"Tharandt","municipality":{"key":"14628400","name":"Tharandt, Stadt","type":"Stadt"},"district":{"key":"14628","name":"Sächsische Schweiz-Osterzgebirge","type":"Landkreis"},"federalState":{"key":"14","name":"Sachsen"}},{"name":"Wernersbachweg","postalCode":"01737","locality":"Tharandt","municipality":{"key":"14628400","name":"Tharandt, Stadt","type":"Stadt"},"district":{"key":"14628","name":"Sächsische Schweiz-Osterzgebirge","type":"Landkreis"},"federalState":{"key":"14","name":"Sachsen"}},{"name":"Wiesenweg","postalCode":"01737","locality":"Tharandt","municipality":{"key":"14628400","name":"Tharandt, Stadt","type":"Stadt"},"district":{"key":"14628","name":"Sächsische Schweiz-Osterzgebirge","type":"Landkreis"},"federalState":{"key":"14","name":"Sachsen"}},{"name":"Wilhelmweg","postalCode":"01737","locality":"Tharandt","municipality":{"key":"14628400","name":"Tharandt, Stadt","type":"Stadt"},"district":{"key":"14628","name":"Sächsische Schweiz-Osterzgebirge","type":"Landkreis"},"federalState":{"key":"14","name":"Sachsen"}},{"name":"Wilsdruffer Str.","postalCode":"01737","locality":"Tharandt","municipality":{"key":"14628400","name":"Tharandt, Stadt","type":"Stadt"},"district":{"key":"14628","name":"Sächsische Schweiz-Osterzgebirge","type":"Landkreis"},"federalState":{"key":"14","name":"Sachsen"}},{"name":"Windmühlenstr.","postalCode":"01737","locality":"Tharandt","municipality":{"key":"14628400","name":"Tharandt, Stadt","type":"Stadt"},"district":{"key":"14628","name":"Sächsische Schweiz-Osterzgebirge","type":"Landkreis"},"federalState":{"key":"14","name":"Sachsen"}},{"name":"Winkelweg","postalCode":"01737","locality":"Tharandt","municipality":{"key":"14628400","name":"Tharandt, Stadt","type":"Stadt"},"district":{"key":"14628","name":"Sächsische Schweiz-Osterzgebirge","type":"Landkreis"},"federalState":{"key":"14","name":"Sachsen"}},{"name":"X-Tellenweg","postalCode":"01737","locality":"Tharandt","municipality":{"key":"14628400","name":"Tharandt, Stadt","type":"Stadt"},"district":{"key":"14628","name":"Sächsische Schweiz-Osterzgebirge","type":"Landkreis"},"federalState":{"key":"14","name":"Sachsen"}},{"name":"Zeisigweg","postalCode":"01737","locality":"Tharandt","municipality":{"key":"14628400","name":"Tharandt, Stadt","type":"Stadt"},"district":{"key":"14628","name":"Sächsische Schweiz-Osterzgebirge","type":"Landkreis"},"federalState":{"key":"14","name":"Sachsen"}},{"name":"Zum Specht","postalCode":"01737","locality":"Tharandt","municipality":{"key":"14628400","name":"Tharandt, Stadt","type":"Stadt"},"district":{"key":"14628","name":"Sächsische Schweiz-Osterzgebirge","type":"Landkreis"},"federalState":{"key":"14","name":"Sachsen"}},{"name":"Zur Aue","postalCode":"01737","locality":"Tharandt","municipality":{"key":"14628400","name":"Tharandt, Stadt","type":"Stadt"},"district":{"key":"14628","name":"Sächsische Schweiz-Osterzgebirge","type":"Landkreis"},"federalState":{"key":"14","name":"Sachsen"}},]