[{"name":"Achalmstr.","postalCode":"73268","locality":"Erkenbrechtsweiler","municipality":{"key":"08116018","name":"Erkenbrechtsweiler","type":"Kreisangehörige_Gemeinde"},"district":{"key":"08116","name":"Esslingen","type":"Landkreis"},"federalState":{"key":"08","name":"Baden-Württemberg"}},{"name":"Allewind","postalCode":"73268","locality":"Erkenbrechtsweiler","municipality":{"key":"08116018","name":"Erkenbrechtsweiler","type":"Kreisangehörige_Gemeinde"},"district":{"key":"08116","name":"Esslingen","type":"Landkreis"},"federalState":{"key":"08","name":"Baden-Württemberg"}},{"name":"Ammerweg","postalCode":"73268","locality":"Erkenbrechtsweiler","municipality":{"key":"08116018","name":"Erkenbrechtsweiler","type":"Kreisangehörige_Gemeinde"},"district":{"key":"08116","name":"Esslingen","type":"Landkreis"},"federalState":{"key":"08","name":"Baden-Württemberg"}},{"name":"Astropfad","postalCode":"73268","locality":"Erkenbrechtsweiler","municipality":{"key":"08116018","name":"Erkenbrechtsweiler","type":"Kreisangehörige_Gemeinde"},"district":{"key":"08116","name":"Esslingen","type":"Landkreis"},"federalState":{"key":"08","name":"Baden-Württemberg"}},{"name":"Berghauweg","postalCode":"73268","locality":"Erkenbrechtsweiler","municipality":{"key":"08116018","name":"Erkenbrechtsweiler","type":"Kreisangehörige_Gemeinde"},"district":{"key":"08116","name":"Esslingen","type":"Landkreis"},"federalState":{"key":"08","name":"Baden-Württemberg"}},{"name":"Bergstr.","postalCode":"73268","locality":"Erkenbrechtsweiler","municipality":{"key":"08116018","name":"Erkenbrechtsweiler","type":"Kreisangehörige_Gemeinde"},"district":{"key":"08116","name":"Esslingen","type":"Landkreis"},"federalState":{"key":"08","name":"Baden-Württemberg"}},{"name":"Betzenjörgfelsweg","postalCode":"73268","locality":"Erkenbrechtsweiler","municipality":{"key":"08116018","name":"Erkenbrechtsweiler","type":"Kreisangehörige_Gemeinde"},"district":{"key":"08116","name":"Esslingen","type":"Landkreis"},"federalState":{"key":"08","name":"Baden-Württemberg"}},{"name":"Brunnsteig","postalCode":"73268","locality":"Erkenbrechtsweiler","municipality":{"key":"08116018","name":"Erkenbrechtsweiler","type":"Kreisangehörige_Gemeinde"},"district":{"key":"08116","name":"Esslingen","type":"Landkreis"},"federalState":{"key":"08","name":"Baden-Württemberg"}},{"name":"Bühl","postalCode":"73268","locality":"Erkenbrechtsweiler","municipality":{"key":"08116018","name":"Erkenbrechtsweiler","type":"Kreisangehörige_Gemeinde"},"district":{"key":"08116","name":"Esslingen","type":"Landkreis"},"federalState":{"key":"08","name":"Baden-Württemberg"}},{"name":"Burgweg","postalCode":"73268","locality":"Erkenbrechtsweiler","municipality":{"key":"08116018","name":"Erkenbrechtsweiler","type":"Kreisangehörige_Gemeinde"},"district":{"key":"08116","name":"Esslingen","type":"Landkreis"},"federalState":{"key":"08","name":"Baden-Württemberg"}},{"name":"Camererweg","postalCode":"73732","locality":"Esslingen am Neckar","municipality":{"key":"08116019","name":"Esslingen am Neckar, Stadt","type":"Große_Kreisstadt"},"district":{"key":"08116","name":"Esslingen","type":"Landkreis"},"federalState":{"key":"08","name":"Baden-Württemberg"}},{"name":"Cannstatter Str.","postalCode":"73733","locality":"Esslingen am Neckar","municipality":{"key":"08116019","name":"Esslingen am Neckar, Stadt","type":"Große_Kreisstadt"},"district":{"key":"08116","name":"Esslingen","type":"Landkreis"},"federalState":{"key":"08","name":"Baden-Württemberg"}},{"name":"Champagnestr.","postalCode":"73734","locality":"Esslingen am Neckar","municipality":{"key":"08116019","name":"Esslingen am Neckar, Stadt","type":"Große_Kreisstadt"},"district":{"key":"08116","name":"Esslingen","type":"Landkreis"},"federalState":{"key":"08","name":"Baden-Württemberg"}},{"name":"Charlottenplatz","postalCode":"73728","locality":"Esslingen am Neckar","municipality":{"key":"08116019","name":"Esslingen am Neckar, Stadt","type":"Große_Kreisstadt"},"district":{"key":"08116","name":"Esslingen","type":"Landkreis"},"federalState":{"key":"08","name":"Baden-Württemberg"}},{"name":"Christian-Fink-Str.","postalCode":"73732","locality":"Esslingen am Neckar","municipality":{"key":"08116019","name":"Esslingen am Neckar, Stadt","type":"Große_Kreisstadt"},"district":{"key":"08116","name":"Esslingen","type":"Landkreis"},"federalState":{"key":"08","name":"Baden-Württemberg"}},{"name":"Christian-Knayer-Str.","postalCode":"73734","locality":"Esslingen am Neckar","municipality":{"key":"08116019","name":"Esslingen am Neckar, Stadt","type":"Große_Kreisstadt"},"district":{"key":"08116","name":"Esslingen","type":"Landkreis"},"federalState":{"key":"08","name":"Baden-Württemberg"}},{"name":"Christophstr.","postalCode":"73734","locality":"Esslingen am Neckar","municipality":{"key":"08116019","name":"Esslingen am Neckar, Stadt","type":"Große_Kreisstadt"},"district":{"key":"08116","name":"Esslingen","type":"Landkreis"},"federalState":{"key":"08","name":"Baden-Württemberg"}},{"name":"Daimlerstr.","postalCode":"73268","locality":"Erkenbrechtsweiler","municipality":{"key":"08116018","name":"Erkenbrechtsweiler","type":"Kreisangehörige_Gemeinde"},"district":{"key":"08116","name":"Esslingen","type":"Landkreis"},"federalState":{"key":"08","name":"Baden-Württemberg"}},{"name":"Eberhard-Bauer-Str.","postalCode":"73734","locality":"Esslingen am Neckar","municipality":{"key":"08116019","name":"Esslingen am Neckar, Stadt","type":"Große_Kreisstadt"},"district":{"key":"08116","name":"Esslingen","type":"Landkreis"},"federalState":{"key":"08","name":"Baden-Württemberg"}},{"name":"Ebershaldenstr.","postalCode":"73728","locality":"Esslingen am Neckar","municipality":{"key":"08116019","name":"Esslingen am Neckar, Stadt","type":"Große_Kreisstadt"},"district":{"key":"08116","name":"Esslingen","type":"Landkreis"},"federalState":{"key":"08","name":"Baden-Württemberg"}},{"name":"Eberspächerstr.","postalCode":"73730","locality":"Esslingen am Neckar","municipality":{"key":"08116019","name":"Esslingen am Neckar, Stadt","type":"Große_Kreisstadt"},"district":{"key":"08116","name":"Esslingen","type":"Landkreis"},"federalState":{"key":"08","name":"Baden-Württemberg"}},{"name":"Eckenerstr.","postalCode":"73730","locality":"Esslingen am Neckar","municipality":{"key":"08116019","name":"Esslingen am Neckar, Stadt","type":"Große_Kreisstadt"},"district":{"key":"08116","name":"Esslingen","type":"Landkreis"},"federalState":{"key":"08","name":"Baden-Württemberg"}},{"name":"Eglisweg","postalCode":"73733","locality":"Esslingen am Neckar","municipality":{"key":"08116019","name":"Esslingen am Neckar, Stadt","type":"Große_Kreisstadt"},"district":{"key":"08116","name":"Esslingen","type":"Landkreis"},"federalState":{"key":"08","name":"Baden-Württemberg"}},{"name":"Ehnisgasse","postalCode":"73728","locality":"Esslingen am Neckar","municipality":{"key":"08116019","name":"Esslingen am Neckar, Stadt","type":"Große_Kreisstadt"},"district":{"key":"08116","name":"Esslingen","type":"Landkreis"},"federalState":{"key":"08","name":"Baden-Württemberg"}},{"name":"Eibenweg","postalCode":"73732","locality":"Esslingen am Neckar","municipality":{"key":"08116019","name":"Esslingen am Neckar, Stadt","type":"Große_Kreisstadt"},"district":{"key":"08116","name":"Esslingen","type":"Landkreis"},"federalState":{"key":"08","name":"Baden-Württemberg"}},{"name":"Eichendorffstr.","postalCode":"73734","locality":"Esslingen am Neckar","municipality":{"key":"08116019","name":"Esslingen am Neckar, Stadt","type":"Große_Kreisstadt"},"district":{"key":"08116","name":"Esslingen","type":"Landkreis"},"federalState":{"key":"08","name":"Baden-Württemberg"}},{"name":"Eichenweg","postalCode":"73732","locality":"Esslingen am Neckar","municipality":{"key":"08116019","name":"Esslingen am Neckar, Stadt","type":"Große_Kreisstadt"},"district":{"key":"08116","name":"Esslingen","type":"Landkreis"},"federalState":{"key":"08","name":"Baden-Württemberg"}},{"name":"Einödstr.","postalCode":"73733","locality":"Esslingen am Neckar","municipality":{"key":"08116019","name":"Esslingen am Neckar, Stadt","type":"Große_Kreisstadt"},"district":{"key":"08116","name":"Esslingen","type":"Landkreis"},"federalState":{"key":"08","name":"Baden-Württemberg"}},{"name":"Einsteinstr.","postalCode":"73730","locality":"Esslingen am Neckar","municipality":{"key":"08116019","name":"Esslingen am Neckar, Stadt","type":"Große_Kreisstadt"},"district":{"key":"08116","name":"Esslingen","type":"Landkreis"},"federalState":{"key":"08","name":"Baden-Württemberg"}},{"name":"Eisenbahnstr.","postalCode":"73730","locality":"Esslingen am Neckar","municipality":{"key":"08116019","name":"Esslingen am Neckar, Stadt","type":"Große_Kreisstadt"},"district":{"key":"08116","name":"Esslingen","type":"Landkreis"},"federalState":{"key":"08","name":"Baden-Württemberg"}},{"name":"Elsterweg","postalCode":"73730","locality":"Esslingen am Neckar","municipality":{"key":"08116019","name":"Esslingen am Neckar, Stadt","type":"Große_Kreisstadt"},"district":{"key":"08116","name":"Esslingen","type":"Landkreis"},"federalState":{"key":"08","name":"Baden-Württemberg"}},{"name":"Emil-Fraas-Weg","postalCode":"73730","locality":"Esslingen am Neckar","municipality":{"key":"08116019","name":"Esslingen am Neckar, Stadt","type":"Große_Kreisstadt"},"district":{"key":"08116","name":"Esslingen","type":"Landkreis"},"federalState":{"key":"08","name":"Baden-Württemberg"}},{"name":"Emil-Kessler-Str.","postalCode":"73733","locality":"Esslingen am Neckar","municipality":{"key":"08116019","name":"Esslingen am Neckar, Stadt","type":"Große_Kreisstadt"},"district":{"key":"08116","name":"Esslingen","type":"Landkreis"},"federalState":{"key":"08","name":"Baden-Württemberg"}},{"name":"Ensingerweg","postalCode":"73728","locality":"Esslingen am Neckar","municipality":{"key":"08116019","name":"Esslingen am Neckar, Stadt","type":"Große_Kreisstadt"},"district":{"key":"08116","name":"Esslingen","type":"Landkreis"},"federalState":{"key":"08","name":"Baden-Württemberg"}},{"name":"Ensingerweg","postalCode":"73733","locality":"Esslingen am Neckar","municipality":{"key":"08116019","name":"Esslingen am Neckar, Stadt","type":"Große_Kreisstadt"},"district":{"key":"08116","name":"Esslingen","type":"Landkreis"},"federalState":{"key":"08","name":"Baden-Württemberg"}},{"name":"Entengrabenstr.","postalCode":"73728","locality":"Esslingen am Neckar","municipality":{"key":"08116019","name":"Esslingen am Neckar, Stadt","type":"Große_Kreisstadt"},"district":{"key":"08116","name":"Esslingen","type":"Landkreis"},"federalState":{"key":"08","name":"Baden-Württemberg"}},{"name":"Erbachstr.","postalCode":"73734","locality":"Esslingen am Neckar","municipality":{"key":"08116019","name":"Esslingen am Neckar, Stadt","type":"Große_Kreisstadt"},"district":{"key":"08116","name":"Esslingen","type":"Landkreis"},"federalState":{"key":"08","name":"Baden-Württemberg"}},{"name":"Erich-Kenner-Platz","postalCode":"73730","locality":"Esslingen am Neckar","municipality":{"key":"08116019","name":"Esslingen am Neckar, Stadt","type":"Große_Kreisstadt"},"district":{"key":"08116","name":"Esslingen","type":"Landkreis"},"federalState":{"key":"08","name":"Baden-Württemberg"}},{"name":"Erikaweg","postalCode":"73734","locality":"Esslingen am Neckar","municipality":{"key":"08116019","name":"Esslingen am Neckar, Stadt","type":"Große_Kreisstadt"},"district":{"key":"08116","name":"Esslingen","type":"Landkreis"},"federalState":{"key":"08","name":"Baden-Württemberg"}},{"name":"Erlenbrunnenweg","postalCode":"73730","locality":"Esslingen am Neckar","municipality":{"key":"08116019","name":"Esslingen am Neckar, Stadt","type":"Große_Kreisstadt"},"district":{"key":"08116","name":"Esslingen","type":"Landkreis"},"federalState":{"key":"08","name":"Baden-Württemberg"}},{"name":"Erlenhau","postalCode":"73730","locality":"Esslingen am Neckar","municipality":{"key":"08116019","name":"Esslingen am Neckar, Stadt","type":"Große_Kreisstadt"},"district":{"key":"08116","name":"Esslingen","type":"Landkreis"},"federalState":{"key":"08","name":"Baden-Württemberg"}},{"name":"Erlenweg","postalCode":"73733","locality":"Esslingen am Neckar","municipality":{"key":"08116019","name":"Esslingen am Neckar, Stadt","type":"Große_Kreisstadt"},"district":{"key":"08116","name":"Esslingen","type":"Landkreis"},"federalState":{"key":"08","name":"Baden-Württemberg"}},{"name":"Ermsweg","postalCode":"73734","locality":"Esslingen am Neckar","municipality":{"key":"08116019","name":"Esslingen am Neckar, Stadt","type":"Große_Kreisstadt"},"district":{"key":"08116","name":"Esslingen","type":"Landkreis"},"federalState":{"key":"08","name":"Baden-Württemberg"}},{"name":"Eschbacher Weg","postalCode":"73734","locality":"Esslingen am Neckar","municipality":{"key":"08116019","name":"Esslingen am Neckar, Stadt","type":"Große_Kreisstadt"},"district":{"key":"08116","name":"Esslingen","type":"Landkreis"},"federalState":{"key":"08","name":"Baden-Württemberg"}},{"name":"Eschbuchweg","postalCode":"73734","locality":"Esslingen am Neckar","municipality":{"key":"08116019","name":"Esslingen am Neckar, Stadt","type":"Große_Kreisstadt"},"district":{"key":"08116","name":"Esslingen","type":"Landkreis"},"federalState":{"key":"08","name":"Baden-Württemberg"}},{"name":"Eschenweg","postalCode":"73728","locality":"Esslingen am Neckar","municipality":{"key":"08116019","name":"Esslingen am Neckar, Stadt","type":"Große_Kreisstadt"},"district":{"key":"08116","name":"Esslingen","type":"Landkreis"},"federalState":{"key":"08","name":"Baden-Württemberg"}},{"name":"Eselsweg","postalCode":"73732","locality":"Esslingen am Neckar","municipality":{"key":"08116019","name":"Esslingen am Neckar, Stadt","type":"Große_Kreisstadt"},"district":{"key":"08116","name":"Esslingen","type":"Landkreis"},"federalState":{"key":"08","name":"Baden-Württemberg"}},{"name":"Esslinger Str.","postalCode":"73730","locality":"Esslingen am Neckar","municipality":{"key":"08116019","name":"Esslingen am Neckar, Stadt","type":"Große_Kreisstadt"},"district":{"key":"08116","name":"Esslingen","type":"Landkreis"},"federalState":{"key":"08","name":"Baden-Württemberg"}},{"name":"Esslinger Str.","postalCode":"73732","locality":"Esslingen am Neckar","municipality":{"key":"08116019","name":"Esslingen am Neckar, Stadt","type":"Große_Kreisstadt"},"district":{"key":"08116","name":"Esslingen","type":"Landkreis"},"federalState":{"key":"08","name":"Baden-Württemberg"}},{"name":"Esslinger Str.","postalCode":"73734","locality":"Esslingen am Neckar","municipality":{"key":"08116019","name":"Esslingen am Neckar, Stadt","type":"Große_Kreisstadt"},"district":{"key":"08116","name":"Esslingen","type":"Landkreis"},"federalState":{"key":"08","name":"Baden-Württemberg"}},{"name":"Eugen-Bolz-Str.","postalCode":"73732","locality":"Esslingen am Neckar","municipality":{"key":"08116019","name":"Esslingen am Neckar, Stadt","type":"Große_Kreisstadt"},"district":{"key":"08116","name":"Esslingen","type":"Landkreis"},"federalState":{"key":"08","name":"Baden-Württemberg"}},{"name":"Eugenie-von-Soden-Str.","postalCode":"73728","locality":"Esslingen am Neckar","municipality":{"key":"08116019","name":"Esslingen am Neckar, Stadt","type":"Große_Kreisstadt"},"district":{"key":"08116","name":"Esslingen","type":"Landkreis"},"federalState":{"key":"08","name":"Baden-Württemberg"}},{"name":"Eulenweg","postalCode":"73730","locality":"Esslingen am Neckar","municipality":{"key":"08116019","name":"Esslingen am Neckar, Stadt","type":"Große_Kreisstadt"},"district":{"key":"08116","name":"Esslingen","type":"Landkreis"},"federalState":{"key":"08","name":"Baden-Württemberg"}},{"name":"Friedrich-Römer-Str.","postalCode":"73268","locality":"Erkenbrechtsweiler","municipality":{"key":"08116018","name":"Erkenbrechtsweiler","type":"Kreisangehörige_Gemeinde"},"district":{"key":"08116","name":"Esslingen","type":"Landkreis"},"federalState":{"key":"08","name":"Baden-Württemberg"}},{"name":"Gartenstr.","postalCode":"73268","locality":"Erkenbrechtsweiler","municipality":{"key":"08116018","name":"Erkenbrechtsweiler","type":"Kreisangehörige_Gemeinde"},"district":{"key":"08116","name":"Esslingen","type":"Landkreis"},"federalState":{"key":"08","name":"Baden-Württemberg"}},{"name":"Goethestr.","postalCode":"73268","locality":"Erkenbrechtsweiler","municipality":{"key":"08116018","name":"Erkenbrechtsweiler","type":"Kreisangehörige_Gemeinde"},"district":{"key":"08116","name":"Esslingen","type":"Landkreis"},"federalState":{"key":"08","name":"Baden-Württemberg"}},{"name":"Grabenstetter Str.","postalCode":"73268","locality":"Erkenbrechtsweiler","municipality":{"key":"08116018","name":"Erkenbrechtsweiler","type":"Kreisangehörige_Gemeinde"},"district":{"key":"08116","name":"Esslingen","type":"Landkreis"},"federalState":{"key":"08","name":"Baden-Württemberg"}},{"name":"Grunddickeweg","postalCode":"73268","locality":"Erkenbrechtsweiler","municipality":{"key":"08116018","name":"Erkenbrechtsweiler","type":"Kreisangehörige_Gemeinde"},"district":{"key":"08116","name":"Esslingen","type":"Landkreis"},"federalState":{"key":"08","name":"Baden-Württemberg"}},{"name":"Halsenhauweg","postalCode":"73268","locality":"Erkenbrechtsweiler","municipality":{"key":"08116018","name":"Erkenbrechtsweiler","type":"Kreisangehörige_Gemeinde"},"district":{"key":"08116","name":"Esslingen","type":"Landkreis"},"federalState":{"key":"08","name":"Baden-Württemberg"}},{"name":"Hardtwald","postalCode":"73268","locality":"Erkenbrechtsweiler","municipality":{"key":"08116018","name":"Erkenbrechtsweiler","type":"Kreisangehörige_Gemeinde"},"district":{"key":"08116","name":"Esslingen","type":"Landkreis"},"federalState":{"key":"08","name":"Baden-Württemberg"}},{"name":"Hardtwaldweg","postalCode":"73268","locality":"Erkenbrechtsweiler","municipality":{"key":"08116018","name":"Erkenbrechtsweiler","type":"Kreisangehörige_Gemeinde"},"district":{"key":"08116","name":"Esslingen","type":"Landkreis"},"federalState":{"key":"08","name":"Baden-Württemberg"}},{"name":"Hartbühl","postalCode":"73268","locality":"Erkenbrechtsweiler","municipality":{"key":"08116018","name":"Erkenbrechtsweiler","type":"Kreisangehörige_Gemeinde"},"district":{"key":"08116","name":"Esslingen","type":"Landkreis"},"federalState":{"key":"08","name":"Baden-Württemberg"}},{"name":"Hörnleshauweg","postalCode":"73268","locality":"Erkenbrechtsweiler","municipality":{"key":"08116018","name":"Erkenbrechtsweiler","type":"Kreisangehörige_Gemeinde"},"district":{"key":"08116","name":"Esslingen","type":"Landkreis"},"federalState":{"key":"08","name":"Baden-Württemberg"}},{"name":"Im Hof","postalCode":"73268","locality":"Erkenbrechtsweiler","municipality":{"key":"08116018","name":"Erkenbrechtsweiler","type":"Kreisangehörige_Gemeinde"},"district":{"key":"08116","name":"Esslingen","type":"Landkreis"},"federalState":{"key":"08","name":"Baden-Württemberg"}},{"name":"Im Höfle","postalCode":"73268","locality":"Erkenbrechtsweiler","municipality":{"key":"08116018","name":"Erkenbrechtsweiler","type":"Kreisangehörige_Gemeinde"},"district":{"key":"08116","name":"Esslingen","type":"Landkreis"},"federalState":{"key":"08","name":"Baden-Württemberg"}},{"name":"Jahnstr.","postalCode":"73268","locality":"Erkenbrechtsweiler","municipality":{"key":"08116018","name":"Erkenbrechtsweiler","type":"Kreisangehörige_Gemeinde"},"district":{"key":"08116","name":"Esslingen","type":"Landkreis"},"federalState":{"key":"08","name":"Baden-Württemberg"}},{"name":"Jusiweg","postalCode":"73268","locality":"Erkenbrechtsweiler","municipality":{"key":"08116018","name":"Erkenbrechtsweiler","type":"Kreisangehörige_Gemeinde"},"district":{"key":"08116","name":"Esslingen","type":"Landkreis"},"federalState":{"key":"08","name":"Baden-Württemberg"}},{"name":"Kammfelsweg","postalCode":"73268","locality":"Erkenbrechtsweiler","municipality":{"key":"08116018","name":"Erkenbrechtsweiler","type":"Kreisangehörige_Gemeinde"},"district":{"key":"08116","name":"Esslingen","type":"Landkreis"},"federalState":{"key":"08","name":"Baden-Württemberg"}},{"name":"Käsbaumweg","postalCode":"73268","locality":"Erkenbrechtsweiler","municipality":{"key":"08116018","name":"Erkenbrechtsweiler","type":"Kreisangehörige_Gemeinde"},"district":{"key":"08116","name":"Esslingen","type":"Landkreis"},"federalState":{"key":"08","name":"Baden-Württemberg"}},{"name":"Kegelplatz","postalCode":"73268","locality":"Erkenbrechtsweiler","municipality":{"key":"08116018","name":"Erkenbrechtsweiler","type":"Kreisangehörige_Gemeinde"},"district":{"key":"08116","name":"Esslingen","type":"Landkreis"},"federalState":{"key":"08","name":"Baden-Württemberg"}},{"name":"Kirchheimer Str.","postalCode":"73268","locality":"Erkenbrechtsweiler","municipality":{"key":"08116018","name":"Erkenbrechtsweiler","type":"Kreisangehörige_Gemeinde"},"district":{"key":"08116","name":"Esslingen","type":"Landkreis"},"federalState":{"key":"08","name":"Baden-Württemberg"}},{"name":"Kirchstr.","postalCode":"73268","locality":"Erkenbrechtsweiler","municipality":{"key":"08116018","name":"Erkenbrechtsweiler","type":"Kreisangehörige_Gemeinde"},"district":{"key":"08116","name":"Esslingen","type":"Landkreis"},"federalState":{"key":"08","name":"Baden-Württemberg"}},{"name":"Kohlhauweg","postalCode":"73268","locality":"Erkenbrechtsweiler","municipality":{"key":"08116018","name":"Erkenbrechtsweiler","type":"Kreisangehörige_Gemeinde"},"district":{"key":"08116","name":"Esslingen","type":"Landkreis"},"federalState":{"key":"08","name":"Baden-Württemberg"}},{"name":"Kreuzwegle","postalCode":"73268","locality":"Erkenbrechtsweiler","municipality":{"key":"08116018","name":"Erkenbrechtsweiler","type":"Kreisangehörige_Gemeinde"},"district":{"key":"08116","name":"Esslingen","type":"Landkreis"},"federalState":{"key":"08","name":"Baden-Württemberg"}},{"name":"Leimwasen","postalCode":"73268","locality":"Erkenbrechtsweiler","municipality":{"key":"08116018","name":"Erkenbrechtsweiler","type":"Kreisangehörige_Gemeinde"},"district":{"key":"08116","name":"Esslingen","type":"Landkreis"},"federalState":{"key":"08","name":"Baden-Württemberg"}},{"name":"Lichtensteinweg","postalCode":"73268","locality":"Erkenbrechtsweiler","municipality":{"key":"08116018","name":"Erkenbrechtsweiler","type":"Kreisangehörige_Gemeinde"},"district":{"key":"08116","name":"Esslingen","type":"Landkreis"},"federalState":{"key":"08","name":"Baden-Württemberg"}},{"name":"Lindenweg","postalCode":"73268","locality":"Erkenbrechtsweiler","municipality":{"key":"08116018","name":"Erkenbrechtsweiler","type":"Kreisangehörige_Gemeinde"},"district":{"key":"08116","name":"Esslingen","type":"Landkreis"},"federalState":{"key":"08","name":"Baden-Württemberg"}},{"name":"Mähdleshauweg","postalCode":"73268","locality":"Erkenbrechtsweiler","municipality":{"key":"08116018","name":"Erkenbrechtsweiler","type":"Kreisangehörige_Gemeinde"},"district":{"key":"08116","name":"Esslingen","type":"Landkreis"},"federalState":{"key":"08","name":"Baden-Württemberg"}},{"name":"Marienstr.","postalCode":"73268","locality":"Erkenbrechtsweiler","municipality":{"key":"08116018","name":"Erkenbrechtsweiler","type":"Kreisangehörige_Gemeinde"},"district":{"key":"08116","name":"Esslingen","type":"Landkreis"},"federalState":{"key":"08","name":"Baden-Württemberg"}},{"name":"Max-Eyth-Str.","postalCode":"73268","locality":"Erkenbrechtsweiler","municipality":{"key":"08116018","name":"Erkenbrechtsweiler","type":"Kreisangehörige_Gemeinde"},"district":{"key":"08116","name":"Esslingen","type":"Landkreis"},"federalState":{"key":"08","name":"Baden-Württemberg"}},{"name":"Milanstr.","postalCode":"73268","locality":"Erkenbrechtsweiler","municipality":{"key":"08116018","name":"Erkenbrechtsweiler","type":"Kreisangehörige_Gemeinde"},"district":{"key":"08116","name":"Esslingen","type":"Landkreis"},"federalState":{"key":"08","name":"Baden-Württemberg"}},{"name":"Mörikestr.","postalCode":"73268","locality":"Erkenbrechtsweiler","municipality":{"key":"08116018","name":"Erkenbrechtsweiler","type":"Kreisangehörige_Gemeinde"},"district":{"key":"08116","name":"Esslingen","type":"Landkreis"},"federalState":{"key":"08","name":"Baden-Württemberg"}},{"name":"Nansenweg","postalCode":"73730","locality":"Esslingen am Neckar","municipality":{"key":"08116019","name":"Esslingen am Neckar, Stadt","type":"Große_Kreisstadt"},"district":{"key":"08116","name":"Esslingen","type":"Landkreis"},"federalState":{"key":"08","name":"Baden-Württemberg"}},{"name":"Narzissenweg","postalCode":"73730","locality":"Esslingen am Neckar","municipality":{"key":"08116019","name":"Esslingen am Neckar, Stadt","type":"Große_Kreisstadt"},"district":{"key":"08116","name":"Esslingen","type":"Landkreis"},"federalState":{"key":"08","name":"Baden-Württemberg"}},{"name":"Neckarhaldenweg","postalCode":"73728","locality":"Esslingen am Neckar","municipality":{"key":"08116019","name":"Esslingen am Neckar, Stadt","type":"Große_Kreisstadt"},"district":{"key":"08116","name":"Esslingen","type":"Landkreis"},"federalState":{"key":"08","name":"Baden-Württemberg"}},{"name":"Neckarhaldenweg","postalCode":"73730","locality":"Esslingen am Neckar","municipality":{"key":"08116019","name":"Esslingen am Neckar, Stadt","type":"Große_Kreisstadt"},"district":{"key":"08116","name":"Esslingen","type":"Landkreis"},"federalState":{"key":"08","name":"Baden-Württemberg"}},{"name":"Neckarhaldenweg","postalCode":"73734","locality":"Esslingen am Neckar","municipality":{"key":"08116019","name":"Esslingen am Neckar, Stadt","type":"Große_Kreisstadt"},"district":{"key":"08116","name":"Esslingen","type":"Landkreis"},"federalState":{"key":"08","name":"Baden-Württemberg"}},{"name":"Neckarsteg","postalCode":"73733","locality":"Esslingen am Neckar","municipality":{"key":"08116019","name":"Esslingen am Neckar, Stadt","type":"Große_Kreisstadt"},"district":{"key":"08116","name":"Esslingen","type":"Landkreis"},"federalState":{"key":"08","name":"Baden-Württemberg"}},{"name":"Neckarstr.","postalCode":"73728","locality":"Esslingen am Neckar","municipality":{"key":"08116019","name":"Esslingen am Neckar, Stadt","type":"Große_Kreisstadt"},"district":{"key":"08116","name":"Esslingen","type":"Landkreis"},"federalState":{"key":"08","name":"Baden-Württemberg"}},{"name":"Nelkenweg","postalCode":"73730","locality":"Esslingen am Neckar","municipality":{"key":"08116019","name":"Esslingen am Neckar, Stadt","type":"Große_Kreisstadt"},"district":{"key":"08116","name":"Esslingen","type":"Landkreis"},"federalState":{"key":"08","name":"Baden-Württemberg"}},{"name":"Nellinger Str.","postalCode":"73734","locality":"Esslingen am Neckar","municipality":{"key":"08116019","name":"Esslingen am Neckar, Stadt","type":"Große_Kreisstadt"},"district":{"key":"08116","name":"Esslingen","type":"Landkreis"},"federalState":{"key":"08","name":"Baden-Württemberg"}},{"name":"Neuer Stettener Weg","postalCode":"73730","locality":"Esslingen am Neckar","municipality":{"key":"08116019","name":"Esslingen am Neckar, Stadt","type":"Große_Kreisstadt"},"district":{"key":"08116","name":"Esslingen","type":"Landkreis"},"federalState":{"key":"08","name":"Baden-Württemberg"}},{"name":"Neuer Stettener Weg","postalCode":"73732","locality":"Esslingen am Neckar","municipality":{"key":"08116019","name":"Esslingen am Neckar, Stadt","type":"Große_Kreisstadt"},"district":{"key":"08116","name":"Esslingen","type":"Landkreis"},"federalState":{"key":"08","name":"Baden-Württemberg"}},{"name":"Neue Str.","postalCode":"73732","locality":"Esslingen am Neckar","municipality":{"key":"08116019","name":"Esslingen am Neckar, Stadt","type":"Große_Kreisstadt"},"district":{"key":"08116","name":"Esslingen","type":"Landkreis"},"federalState":{"key":"08","name":"Baden-Württemberg"}},{"name":"Neuffenstr.","postalCode":"73734","locality":"Esslingen am Neckar","municipality":{"key":"08116019","name":"Esslingen am Neckar, Stadt","type":"Große_Kreisstadt"},"district":{"key":"08116","name":"Esslingen","type":"Landkreis"},"federalState":{"key":"08","name":"Baden-Württemberg"}},{"name":"Nonnengiebelweg","postalCode":"73734","locality":"Esslingen am Neckar","municipality":{"key":"08116019","name":"Esslingen am Neckar, Stadt","type":"Große_Kreisstadt"},"district":{"key":"08116","name":"Esslingen","type":"Landkreis"},"federalState":{"key":"08","name":"Baden-Württemberg"}},{"name":"Nonnenklinge","postalCode":"73732","locality":"Esslingen am Neckar","municipality":{"key":"08116019","name":"Esslingen am Neckar, Stadt","type":"Große_Kreisstadt"},"district":{"key":"08116","name":"Esslingen","type":"Landkreis"},"federalState":{"key":"08","name":"Baden-Württemberg"}},{"name":"Ob der Halde","postalCode":"73268","locality":"Erkenbrechtsweiler","municipality":{"key":"08116018","name":"Erkenbrechtsweiler","type":"Kreisangehörige_Gemeinde"},"district":{"key":"08116","name":"Esslingen","type":"Landkreis"},"federalState":{"key":"08","name":"Baden-Württemberg"}},{"name":"Obere Str.","postalCode":"73268","locality":"Erkenbrechtsweiler","municipality":{"key":"08116018","name":"Erkenbrechtsweiler","type":"Kreisangehörige_Gemeinde"},"district":{"key":"08116","name":"Esslingen","type":"Landkreis"},"federalState":{"key":"08","name":"Baden-Württemberg"}},{"name":"Pfählerweg","postalCode":"73268","locality":"Erkenbrechtsweiler","municipality":{"key":"08116018","name":"Erkenbrechtsweiler","type":"Kreisangehörige_Gemeinde"},"district":{"key":"08116","name":"Esslingen","type":"Landkreis"},"federalState":{"key":"08","name":"Baden-Württemberg"}},{"name":"Quittenweg","postalCode":"73733","locality":"Esslingen am Neckar","municipality":{"key":"08116019","name":"Esslingen am Neckar, Stadt","type":"Große_Kreisstadt"},"district":{"key":"08116","name":"Esslingen","type":"Landkreis"},"federalState":{"key":"08","name":"Baden-Württemberg"}},{"name":"Rechbergstr.","postalCode":"73268","locality":"Erkenbrechtsweiler","municipality":{"key":"08116018","name":"Erkenbrechtsweiler","type":"Kreisangehörige_Gemeinde"},"district":{"key":"08116","name":"Esslingen","type":"Landkreis"},"federalState":{"key":"08","name":"Baden-Württemberg"}},{"name":"Reußensteinstr.","postalCode":"73268","locality":"Erkenbrechtsweiler","municipality":{"key":"08116018","name":"Erkenbrechtsweiler","type":"Kreisangehörige_Gemeinde"},"district":{"key":"08116","name":"Esslingen","type":"Landkreis"},"federalState":{"key":"08","name":"Baden-Württemberg"}},{"name":"Robert-Kempel-Str.","postalCode":"73268","locality":"Erkenbrechtsweiler","municipality":{"key":"08116018","name":"Erkenbrechtsweiler","type":"Kreisangehörige_Gemeinde"},"district":{"key":"08116","name":"Esslingen","type":"Landkreis"},"federalState":{"key":"08","name":"Baden-Württemberg"}},{"name":"Rotenbergstr.","postalCode":"73268","locality":"Erkenbrechtsweiler","municipality":{"key":"08116018","name":"Erkenbrechtsweiler","type":"Kreisangehörige_Gemeinde"},"district":{"key":"08116","name":"Esslingen","type":"Landkreis"},"federalState":{"key":"08","name":"Baden-Württemberg"}},{"name":"Roter-Stein-Weg","postalCode":"73268","locality":"Erkenbrechtsweiler","municipality":{"key":"08116018","name":"Erkenbrechtsweiler","type":"Kreisangehörige_Gemeinde"},"district":{"key":"08116","name":"Esslingen","type":"Landkreis"},"federalState":{"key":"08","name":"Baden-Württemberg"}},{"name":"Sandwaldweg","postalCode":"73268","locality":"Erkenbrechtsweiler","municipality":{"key":"08116018","name":"Erkenbrechtsweiler","type":"Kreisangehörige_Gemeinde"},"district":{"key":"08116","name":"Esslingen","type":"Landkreis"},"federalState":{"key":"08","name":"Baden-Württemberg"}},{"name":"Schillerstr.","postalCode":"73268","locality":"Erkenbrechtsweiler","municipality":{"key":"08116018","name":"Erkenbrechtsweiler","type":"Kreisangehörige_Gemeinde"},"district":{"key":"08116","name":"Esslingen","type":"Landkreis"},"federalState":{"key":"08","name":"Baden-Württemberg"}},{"name":"Schloßstr.","postalCode":"73268","locality":"Erkenbrechtsweiler","municipality":{"key":"08116018","name":"Erkenbrechtsweiler","type":"Kreisangehörige_Gemeinde"},"district":{"key":"08116","name":"Esslingen","type":"Landkreis"},"federalState":{"key":"08","name":"Baden-Württemberg"}},{"name":"Silcherstr.","postalCode":"73268","locality":"Erkenbrechtsweiler","municipality":{"key":"08116018","name":"Erkenbrechtsweiler","type":"Kreisangehörige_Gemeinde"},"district":{"key":"08116","name":"Esslingen","type":"Landkreis"},"federalState":{"key":"08","name":"Baden-Württemberg"}},{"name":"Staufenstr.","postalCode":"73268","locality":"Erkenbrechtsweiler","municipality":{"key":"08116018","name":"Erkenbrechtsweiler","type":"Kreisangehörige_Gemeinde"},"district":{"key":"08116","name":"Esslingen","type":"Landkreis"},"federalState":{"key":"08","name":"Baden-Württemberg"}},{"name":"Sulzburgstr.","postalCode":"73268","locality":"Erkenbrechtsweiler","municipality":{"key":"08116018","name":"Erkenbrechtsweiler","type":"Kreisangehörige_Gemeinde"},"district":{"key":"08116","name":"Esslingen","type":"Landkreis"},"federalState":{"key":"08","name":"Baden-Württemberg"}},{"name":"Tannenwaldweg","postalCode":"73268","locality":"Erkenbrechtsweiler","municipality":{"key":"08116018","name":"Erkenbrechtsweiler","type":"Kreisangehörige_Gemeinde"},"district":{"key":"08116","name":"Esslingen","type":"Landkreis"},"federalState":{"key":"08","name":"Baden-Württemberg"}},{"name":"Teckstr.","postalCode":"73268","locality":"Erkenbrechtsweiler","municipality":{"key":"08116018","name":"Erkenbrechtsweiler","type":"Kreisangehörige_Gemeinde"},"district":{"key":"08116","name":"Esslingen","type":"Landkreis"},"federalState":{"key":"08","name":"Baden-Württemberg"}},{"name":"Uhlandstr.","postalCode":"73268","locality":"Erkenbrechtsweiler","municipality":{"key":"08116018","name":"Erkenbrechtsweiler","type":"Kreisangehörige_Gemeinde"},"district":{"key":"08116","name":"Esslingen","type":"Landkreis"},"federalState":{"key":"08","name":"Baden-Württemberg"}},{"name":"Untere Str.","postalCode":"73268","locality":"Erkenbrechtsweiler","municipality":{"key":"08116018","name":"Erkenbrechtsweiler","type":"Kreisangehörige_Gemeinde"},"district":{"key":"08116","name":"Esslingen","type":"Landkreis"},"federalState":{"key":"08","name":"Baden-Württemberg"}},{"name":"Uracher Str.","postalCode":"73268","locality":"Erkenbrechtsweiler","municipality":{"key":"08116018","name":"Erkenbrechtsweiler","type":"Kreisangehörige_Gemeinde"},"district":{"key":"08116","name":"Esslingen","type":"Landkreis"},"federalState":{"key":"08","name":"Baden-Württemberg"}},{"name":"Veilchenweg","postalCode":"73730","locality":"Esslingen am Neckar","municipality":{"key":"08116019","name":"Esslingen am Neckar, Stadt","type":"Große_Kreisstadt"},"district":{"key":"08116","name":"Esslingen","type":"Landkreis"},"federalState":{"key":"08","name":"Baden-Württemberg"}},{"name":"Viehgasse","postalCode":"73733","locality":"Esslingen am Neckar","municipality":{"key":"08116019","name":"Esslingen am Neckar, Stadt","type":"Große_Kreisstadt"},"district":{"key":"08116","name":"Esslingen","type":"Landkreis"},"federalState":{"key":"08","name":"Baden-Württemberg"}},{"name":"Vogelsangbrücke","postalCode":"73728","locality":"Esslingen am Neckar","municipality":{"key":"08116019","name":"Esslingen am Neckar, Stadt","type":"Große_Kreisstadt"},"district":{"key":"08116","name":"Esslingen","type":"Landkreis"},"federalState":{"key":"08","name":"Baden-Württemberg"}},{"name":"Vogelsangbrücke","postalCode":"73734","locality":"Esslingen am Neckar","municipality":{"key":"08116019","name":"Esslingen am Neckar, Stadt","type":"Große_Kreisstadt"},"district":{"key":"08116","name":"Esslingen","type":"Landkreis"},"federalState":{"key":"08","name":"Baden-Württemberg"}},{"name":"Vogelsangstr.","postalCode":"73728","locality":"Esslingen am Neckar","municipality":{"key":"08116019","name":"Esslingen am Neckar, Stadt","type":"Große_Kreisstadt"},"district":{"key":"08116","name":"Esslingen","type":"Landkreis"},"federalState":{"key":"08","name":"Baden-Württemberg"}},{"name":"Volker-Boehringer-Weg","postalCode":"73732","locality":"Esslingen am Neckar","municipality":{"key":"08116019","name":"Esslingen am Neckar, Stadt","type":"Große_Kreisstadt"},"district":{"key":"08116","name":"Esslingen","type":"Landkreis"},"federalState":{"key":"08","name":"Baden-Württemberg"}},{"name":"Weileräckerstr.","postalCode":"73268","locality":"Erkenbrechtsweiler","municipality":{"key":"08116018","name":"Erkenbrechtsweiler","type":"Kreisangehörige_Gemeinde"},"district":{"key":"08116","name":"Esslingen","type":"Landkreis"},"federalState":{"key":"08","name":"Baden-Württemberg"}},{"name":"Weiler Weg","postalCode":"73268","locality":"Erkenbrechtsweiler","municipality":{"key":"08116018","name":"Erkenbrechtsweiler","type":"Kreisangehörige_Gemeinde"},"district":{"key":"08116","name":"Esslingen","type":"Landkreis"},"federalState":{"key":"08","name":"Baden-Württemberg"}},{"name":"Zapfenäckerstr.","postalCode":"73268","locality":"Erkenbrechtsweiler","municipality":{"key":"08116018","name":"Erkenbrechtsweiler","type":"Kreisangehörige_Gemeinde"},"district":{"key":"08116","name":"Esslingen","type":"Landkreis"},"federalState":{"key":"08","name":"Baden-Württemberg"}},{"name":"Ziegelstr.","postalCode":"73268","locality":"Erkenbrechtsweiler","municipality":{"key":"08116018","name":"Erkenbrechtsweiler","type":"Kreisangehörige_Gemeinde"},"district":{"key":"08116","name":"Esslingen","type":"Landkreis"},"federalState":{"key":"08","name":"Baden-Württemberg"}},{"name":"Zollernstr.","postalCode":"73268","locality":"Erkenbrechtsweiler","municipality":{"key":"08116018","name":"Erkenbrechtsweiler","type":"Kreisangehörige_Gemeinde"},"district":{"key":"08116","name":"Esslingen","type":"Landkreis"},"federalState":{"key":"08","name":"Baden-Württemberg"}},]