[{"name":"Abteigasse","postalCode":"63916","locality":"Amorbach","municipality":{"key":"09676112","name":"Amorbach, St","type":"Stadt"},"district":{"key":"09676","name":"Miltenberg","type":"Landkreis"},"federalState":{"key":"09","name":"Bayern"}},{"name":"Ahornweg","postalCode":"54497","locality":"Morbach","municipality":{"key":"07231502","name":"Morbach","type":"Kreisangehörige_Gemeinde"},"district":{"key":"07231","name":"Bernkastel-Wittlich","type":"Landkreis"},"federalState":{"key":"07","name":"Rheinland-Pfalz"}},{"name":"Alte Poststr.","postalCode":"54497","locality":"Morbach","municipality":{"key":"07231502","name":"Morbach","type":"Kreisangehörige_Gemeinde"},"district":{"key":"07231","name":"Bernkastel-Wittlich","type":"Landkreis"},"federalState":{"key":"07","name":"Rheinland-Pfalz"}},{"name":"Alte Römerstr.","postalCode":"54497","locality":"Morbach","municipality":{"key":"07231502","name":"Morbach","type":"Kreisangehörige_Gemeinde"},"district":{"key":"07231","name":"Bernkastel-Wittlich","type":"Landkreis"},"federalState":{"key":"07","name":"Rheinland-Pfalz"}},{"name":"Alter Postweg","postalCode":"63916","locality":"Amorbach","municipality":{"key":"09676112","name":"Amorbach, St","type":"Stadt"},"district":{"key":"09676","name":"Miltenberg","type":"Landkreis"},"federalState":{"key":"09","name":"Bayern"}},{"name":"Alte Steige","postalCode":"63916","locality":"Amorbach","municipality":{"key":"09676112","name":"Amorbach, St","type":"Stadt"},"district":{"key":"09676","name":"Miltenberg","type":"Landkreis"},"federalState":{"key":"09","name":"Bayern"}},{"name":"Am Bach","postalCode":"54497","locality":"Morbach","municipality":{"key":"07231502","name":"Morbach","type":"Kreisangehörige_Gemeinde"},"district":{"key":"07231","name":"Bernkastel-Wittlich","type":"Landkreis"},"federalState":{"key":"07","name":"Rheinland-Pfalz"}},{"name":"Am Backhaus","postalCode":"54497","locality":"Morbach","municipality":{"key":"07231502","name":"Morbach","type":"Kreisangehörige_Gemeinde"},"district":{"key":"07231","name":"Bernkastel-Wittlich","type":"Landkreis"},"federalState":{"key":"07","name":"Rheinland-Pfalz"}},{"name":"Am Bahnhof","postalCode":"63916","locality":"Amorbach","municipality":{"key":"09676112","name":"Amorbach, St","type":"Stadt"},"district":{"key":"09676","name":"Miltenberg","type":"Landkreis"},"federalState":{"key":"09","name":"Bayern"}},{"name":"Am Bildchen","postalCode":"54497","locality":"Morbach","municipality":{"key":"07231502","name":"Morbach","type":"Kreisangehörige_Gemeinde"},"district":{"key":"07231","name":"Bernkastel-Wittlich","type":"Landkreis"},"federalState":{"key":"07","name":"Rheinland-Pfalz"}},{"name":"Am Börnchen","postalCode":"54497","locality":"Morbach","municipality":{"key":"07231502","name":"Morbach","type":"Kreisangehörige_Gemeinde"},"district":{"key":"07231","name":"Bernkastel-Wittlich","type":"Landkreis"},"federalState":{"key":"07","name":"Rheinland-Pfalz"}},{"name":"Am Bruchbach","postalCode":"54497","locality":"Morbach","municipality":{"key":"07231502","name":"Morbach","type":"Kreisangehörige_Gemeinde"},"district":{"key":"07231","name":"Bernkastel-Wittlich","type":"Landkreis"},"federalState":{"key":"07","name":"Rheinland-Pfalz"}},{"name":"Am Brühlbach","postalCode":"54497","locality":"Morbach","municipality":{"key":"07231502","name":"Morbach","type":"Kreisangehörige_Gemeinde"},"district":{"key":"07231","name":"Bernkastel-Wittlich","type":"Landkreis"},"federalState":{"key":"07","name":"Rheinland-Pfalz"}},{"name":"Am Bungertspfad","postalCode":"54497","locality":"Morbach","municipality":{"key":"07231502","name":"Morbach","type":"Kreisangehörige_Gemeinde"},"district":{"key":"07231","name":"Bernkastel-Wittlich","type":"Landkreis"},"federalState":{"key":"07","name":"Rheinland-Pfalz"}},{"name":"Am Danteswald","postalCode":"54497","locality":"Morbach","municipality":{"key":"07231502","name":"Morbach","type":"Kreisangehörige_Gemeinde"},"district":{"key":"07231","name":"Bernkastel-Wittlich","type":"Landkreis"},"federalState":{"key":"07","name":"Rheinland-Pfalz"}},{"name":"Am Dhronbach","postalCode":"54497","locality":"Morbach","municipality":{"key":"07231502","name":"Morbach","type":"Kreisangehörige_Gemeinde"},"district":{"key":"07231","name":"Bernkastel-Wittlich","type":"Landkreis"},"federalState":{"key":"07","name":"Rheinland-Pfalz"}},{"name":"Am Dreschplatz","postalCode":"54497","locality":"Morbach","municipality":{"key":"07231502","name":"Morbach","type":"Kreisangehörige_Gemeinde"},"district":{"key":"07231","name":"Bernkastel-Wittlich","type":"Landkreis"},"federalState":{"key":"07","name":"Rheinland-Pfalz"}},{"name":"Am Großen Herrgott","postalCode":"54497","locality":"Morbach","municipality":{"key":"07231502","name":"Morbach","type":"Kreisangehörige_Gemeinde"},"district":{"key":"07231","name":"Bernkastel-Wittlich","type":"Landkreis"},"federalState":{"key":"07","name":"Rheinland-Pfalz"}},{"name":"Am grundlosen Brunnen","postalCode":"63916","locality":"Amorbach","municipality":{"key":"09676112","name":"Amorbach, St","type":"Stadt"},"district":{"key":"09676","name":"Miltenberg","type":"Landkreis"},"federalState":{"key":"09","name":"Bayern"}},{"name":"Am Kirschbaum","postalCode":"54497","locality":"Morbach","municipality":{"key":"07231502","name":"Morbach","type":"Kreisangehörige_Gemeinde"},"district":{"key":"07231","name":"Bernkastel-Wittlich","type":"Landkreis"},"federalState":{"key":"07","name":"Rheinland-Pfalz"}},{"name":"Am Klettbach","postalCode":"54497","locality":"Morbach","municipality":{"key":"07231502","name":"Morbach","type":"Kreisangehörige_Gemeinde"},"district":{"key":"07231","name":"Bernkastel-Wittlich","type":"Landkreis"},"federalState":{"key":"07","name":"Rheinland-Pfalz"}},{"name":"Am Klingbach","postalCode":"54497","locality":"Morbach","municipality":{"key":"07231502","name":"Morbach","type":"Kreisangehörige_Gemeinde"},"district":{"key":"07231","name":"Bernkastel-Wittlich","type":"Landkreis"},"federalState":{"key":"07","name":"Rheinland-Pfalz"}},{"name":"Am Nauberg","postalCode":"54497","locality":"Morbach","municipality":{"key":"07231502","name":"Morbach","type":"Kreisangehörige_Gemeinde"},"district":{"key":"07231","name":"Bernkastel-Wittlich","type":"Landkreis"},"federalState":{"key":"07","name":"Rheinland-Pfalz"}},{"name":"Amorsbrunner Str.","postalCode":"63916","locality":"Amorbach","municipality":{"key":"09676112","name":"Amorbach, St","type":"Stadt"},"district":{"key":"09676","name":"Miltenberg","type":"Landkreis"},"federalState":{"key":"09","name":"Bayern"}},{"name":"Am Ring","postalCode":"54497","locality":"Morbach","municipality":{"key":"07231502","name":"Morbach","type":"Kreisangehörige_Gemeinde"},"district":{"key":"07231","name":"Bernkastel-Wittlich","type":"Landkreis"},"federalState":{"key":"07","name":"Rheinland-Pfalz"}},{"name":"Amselweg","postalCode":"54497","locality":"Morbach","municipality":{"key":"07231502","name":"Morbach","type":"Kreisangehörige_Gemeinde"},"district":{"key":"07231","name":"Bernkastel-Wittlich","type":"Landkreis"},"federalState":{"key":"07","name":"Rheinland-Pfalz"}},{"name":"Am Sonnenberg","postalCode":"54497","locality":"Morbach","municipality":{"key":"07231502","name":"Morbach","type":"Kreisangehörige_Gemeinde"},"district":{"key":"07231","name":"Bernkastel-Wittlich","type":"Landkreis"},"federalState":{"key":"07","name":"Rheinland-Pfalz"}},{"name":"Am Weißdorn","postalCode":"54497","locality":"Morbach","municipality":{"key":"07231502","name":"Morbach","type":"Kreisangehörige_Gemeinde"},"district":{"key":"07231","name":"Bernkastel-Wittlich","type":"Landkreis"},"federalState":{"key":"07","name":"Rheinland-Pfalz"}},{"name":"Am Weißenstein","postalCode":"54497","locality":"Morbach","municipality":{"key":"07231502","name":"Morbach","type":"Kreisangehörige_Gemeinde"},"district":{"key":"07231","name":"Bernkastel-Wittlich","type":"Landkreis"},"federalState":{"key":"07","name":"Rheinland-Pfalz"}},{"name":"An der Anwand","postalCode":"54497","locality":"Morbach","municipality":{"key":"07231502","name":"Morbach","type":"Kreisangehörige_Gemeinde"},"district":{"key":"07231","name":"Bernkastel-Wittlich","type":"Landkreis"},"federalState":{"key":"07","name":"Rheinland-Pfalz"}},{"name":"An der Harz","postalCode":"54497","locality":"Morbach","municipality":{"key":"07231502","name":"Morbach","type":"Kreisangehörige_Gemeinde"},"district":{"key":"07231","name":"Bernkastel-Wittlich","type":"Landkreis"},"federalState":{"key":"07","name":"Rheinland-Pfalz"}},{"name":"An der Kniebreche","postalCode":"63916","locality":"Amorbach","municipality":{"key":"09676112","name":"Amorbach, St","type":"Stadt"},"district":{"key":"09676","name":"Miltenberg","type":"Landkreis"},"federalState":{"key":"09","name":"Bayern"}},{"name":"Antoniusstr.","postalCode":"54497","locality":"Morbach","municipality":{"key":"07231502","name":"Morbach","type":"Kreisangehörige_Gemeinde"},"district":{"key":"07231","name":"Bernkastel-Wittlich","type":"Landkreis"},"federalState":{"key":"07","name":"Rheinland-Pfalz"}},{"name":"Apfelallee","postalCode":"63916","locality":"Amorbach","municipality":{"key":"09676112","name":"Amorbach, St","type":"Stadt"},"district":{"key":"09676","name":"Miltenberg","type":"Landkreis"},"federalState":{"key":"09","name":"Bayern"}},{"name":"Auf Backes","postalCode":"54497","locality":"Morbach","municipality":{"key":"07231502","name":"Morbach","type":"Kreisangehörige_Gemeinde"},"district":{"key":"07231","name":"Bernkastel-Wittlich","type":"Landkreis"},"federalState":{"key":"07","name":"Rheinland-Pfalz"}},{"name":"Auf Brüchelhöh","postalCode":"54497","locality":"Morbach","municipality":{"key":"07231502","name":"Morbach","type":"Kreisangehörige_Gemeinde"},"district":{"key":"07231","name":"Bernkastel-Wittlich","type":"Landkreis"},"federalState":{"key":"07","name":"Rheinland-Pfalz"}},{"name":"Auf dem Hügel","postalCode":"54497","locality":"Morbach","municipality":{"key":"07231502","name":"Morbach","type":"Kreisangehörige_Gemeinde"},"district":{"key":"07231","name":"Bernkastel-Wittlich","type":"Landkreis"},"federalState":{"key":"07","name":"Rheinland-Pfalz"}},{"name":"Auf dem Lauborn","postalCode":"54497","locality":"Morbach","municipality":{"key":"07231502","name":"Morbach","type":"Kreisangehörige_Gemeinde"},"district":{"key":"07231","name":"Bernkastel-Wittlich","type":"Landkreis"},"federalState":{"key":"07","name":"Rheinland-Pfalz"}},{"name":"Auf dem Sand","postalCode":"54497","locality":"Morbach","municipality":{"key":"07231502","name":"Morbach","type":"Kreisangehörige_Gemeinde"},"district":{"key":"07231","name":"Bernkastel-Wittlich","type":"Landkreis"},"federalState":{"key":"07","name":"Rheinland-Pfalz"}},{"name":"Auf dem Stiwäldchen","postalCode":"54497","locality":"Morbach","municipality":{"key":"07231502","name":"Morbach","type":"Kreisangehörige_Gemeinde"},"district":{"key":"07231","name":"Bernkastel-Wittlich","type":"Landkreis"},"federalState":{"key":"07","name":"Rheinland-Pfalz"}},{"name":"Auf der Acht","postalCode":"54497","locality":"Morbach","municipality":{"key":"07231502","name":"Morbach","type":"Kreisangehörige_Gemeinde"},"district":{"key":"07231","name":"Bernkastel-Wittlich","type":"Landkreis"},"federalState":{"key":"07","name":"Rheinland-Pfalz"}},{"name":"Auf der Heide","postalCode":"54497","locality":"Morbach","municipality":{"key":"07231502","name":"Morbach","type":"Kreisangehörige_Gemeinde"},"district":{"key":"07231","name":"Bernkastel-Wittlich","type":"Landkreis"},"federalState":{"key":"07","name":"Rheinland-Pfalz"}},{"name":"Auf der Hohldreff","postalCode":"54497","locality":"Morbach","municipality":{"key":"07231502","name":"Morbach","type":"Kreisangehörige_Gemeinde"},"district":{"key":"07231","name":"Bernkastel-Wittlich","type":"Landkreis"},"federalState":{"key":"07","name":"Rheinland-Pfalz"}},{"name":"Auf der Huhf","postalCode":"54497","locality":"Morbach","municipality":{"key":"07231502","name":"Morbach","type":"Kreisangehörige_Gemeinde"},"district":{"key":"07231","name":"Bernkastel-Wittlich","type":"Landkreis"},"federalState":{"key":"07","name":"Rheinland-Pfalz"}},{"name":"Auf der Insel","postalCode":"54497","locality":"Morbach","municipality":{"key":"07231502","name":"Morbach","type":"Kreisangehörige_Gemeinde"},"district":{"key":"07231","name":"Bernkastel-Wittlich","type":"Landkreis"},"federalState":{"key":"07","name":"Rheinland-Pfalz"}},{"name":"Auf der Porth","postalCode":"54497","locality":"Morbach","municipality":{"key":"07231502","name":"Morbach","type":"Kreisangehörige_Gemeinde"},"district":{"key":"07231","name":"Bernkastel-Wittlich","type":"Landkreis"},"federalState":{"key":"07","name":"Rheinland-Pfalz"}},{"name":"Auf der Sapp","postalCode":"54497","locality":"Morbach","municipality":{"key":"07231502","name":"Morbach","type":"Kreisangehörige_Gemeinde"},"district":{"key":"07231","name":"Bernkastel-Wittlich","type":"Landkreis"},"federalState":{"key":"07","name":"Rheinland-Pfalz"}},{"name":"Auf der Weide","postalCode":"54497","locality":"Morbach","municipality":{"key":"07231502","name":"Morbach","type":"Kreisangehörige_Gemeinde"},"district":{"key":"07231","name":"Bernkastel-Wittlich","type":"Landkreis"},"federalState":{"key":"07","name":"Rheinland-Pfalz"}},{"name":"Auf Kollmannstriesch","postalCode":"54497","locality":"Morbach","municipality":{"key":"07231502","name":"Morbach","type":"Kreisangehörige_Gemeinde"},"district":{"key":"07231","name":"Bernkastel-Wittlich","type":"Landkreis"},"federalState":{"key":"07","name":"Rheinland-Pfalz"}},{"name":"Aufm Driesch","postalCode":"54497","locality":"Morbach","municipality":{"key":"07231502","name":"Morbach","type":"Kreisangehörige_Gemeinde"},"district":{"key":"07231","name":"Bernkastel-Wittlich","type":"Landkreis"},"federalState":{"key":"07","name":"Rheinland-Pfalz"}},{"name":"Backes-Pit-Weg","postalCode":"54497","locality":"Morbach","municipality":{"key":"07231502","name":"Morbach","type":"Kreisangehörige_Gemeinde"},"district":{"key":"07231","name":"Bernkastel-Wittlich","type":"Landkreis"},"federalState":{"key":"07","name":"Rheinland-Pfalz"}},{"name":"Bädersweg","postalCode":"63916","locality":"Amorbach","municipality":{"key":"09676112","name":"Amorbach, St","type":"Stadt"},"district":{"key":"09676","name":"Miltenberg","type":"Landkreis"},"federalState":{"key":"09","name":"Bayern"}},{"name":"Bahnhofstr.","postalCode":"54497","locality":"Morbach","municipality":{"key":"07231502","name":"Morbach","type":"Kreisangehörige_Gemeinde"},"district":{"key":"07231","name":"Bernkastel-Wittlich","type":"Landkreis"},"federalState":{"key":"07","name":"Rheinland-Pfalz"}},{"name":"Bahnhofstr.","postalCode":"63916","locality":"Amorbach","municipality":{"key":"09676112","name":"Amorbach, St","type":"Stadt"},"district":{"key":"09676","name":"Miltenberg","type":"Landkreis"},"federalState":{"key":"09","name":"Bayern"}},{"name":"Bahnhofsweg","postalCode":"54497","locality":"Morbach","municipality":{"key":"07231502","name":"Morbach","type":"Kreisangehörige_Gemeinde"},"district":{"key":"07231","name":"Bernkastel-Wittlich","type":"Landkreis"},"federalState":{"key":"07","name":"Rheinland-Pfalz"}},{"name":"Balduinstr.","postalCode":"54497","locality":"Morbach","municipality":{"key":"07231502","name":"Morbach","type":"Kreisangehörige_Gemeinde"},"district":{"key":"07231","name":"Bernkastel-Wittlich","type":"Landkreis"},"federalState":{"key":"07","name":"Rheinland-Pfalz"}},{"name":"Bauhofstr.","postalCode":"63916","locality":"Amorbach","municipality":{"key":"09676112","name":"Amorbach, St","type":"Stadt"},"district":{"key":"09676","name":"Miltenberg","type":"Landkreis"},"federalState":{"key":"09","name":"Bayern"}},{"name":"Beethovenweg","postalCode":"54497","locality":"Morbach","municipality":{"key":"07231502","name":"Morbach","type":"Kreisangehörige_Gemeinde"},"district":{"key":"07231","name":"Bernkastel-Wittlich","type":"Landkreis"},"federalState":{"key":"07","name":"Rheinland-Pfalz"}},{"name":"Beim Redelborn","postalCode":"54497","locality":"Morbach","municipality":{"key":"07231502","name":"Morbach","type":"Kreisangehörige_Gemeinde"},"district":{"key":"07231","name":"Bernkastel-Wittlich","type":"Landkreis"},"federalState":{"key":"07","name":"Rheinland-Pfalz"}},{"name":"Belginumstr.","postalCode":"54497","locality":"Morbach","municipality":{"key":"07231502","name":"Morbach","type":"Kreisangehörige_Gemeinde"},"district":{"key":"07231","name":"Bernkastel-Wittlich","type":"Landkreis"},"federalState":{"key":"07","name":"Rheinland-Pfalz"}},{"name":"Benneweg","postalCode":"54497","locality":"Morbach","municipality":{"key":"07231502","name":"Morbach","type":"Kreisangehörige_Gemeinde"},"district":{"key":"07231","name":"Bernkastel-Wittlich","type":"Landkreis"},"federalState":{"key":"07","name":"Rheinland-Pfalz"}},{"name":"Bergstr.","postalCode":"54497","locality":"Morbach","municipality":{"key":"07231502","name":"Morbach","type":"Kreisangehörige_Gemeinde"},"district":{"key":"07231","name":"Bernkastel-Wittlich","type":"Landkreis"},"federalState":{"key":"07","name":"Rheinland-Pfalz"}},{"name":"Bergweg","postalCode":"54497","locality":"Morbach","municipality":{"key":"07231502","name":"Morbach","type":"Kreisangehörige_Gemeinde"},"district":{"key":"07231","name":"Bernkastel-Wittlich","type":"Landkreis"},"federalState":{"key":"07","name":"Rheinland-Pfalz"}},{"name":"Bergweg","postalCode":"63916","locality":"Amorbach","municipality":{"key":"09676112","name":"Amorbach, St","type":"Stadt"},"district":{"key":"09676","name":"Miltenberg","type":"Landkreis"},"federalState":{"key":"09","name":"Bayern"}},{"name":"Berliner Str.","postalCode":"63916","locality":"Amorbach","municipality":{"key":"09676112","name":"Amorbach, St","type":"Stadt"},"district":{"key":"09676","name":"Miltenberg","type":"Landkreis"},"federalState":{"key":"09","name":"Bayern"}},{"name":"Bernkasteler Str.","postalCode":"54497","locality":"Morbach","municipality":{"key":"07231502","name":"Morbach","type":"Kreisangehörige_Gemeinde"},"district":{"key":"07231","name":"Bernkastel-Wittlich","type":"Landkreis"},"federalState":{"key":"07","name":"Rheinland-Pfalz"}},{"name":"Beuchener Str.","postalCode":"63916","locality":"Amorbach","municipality":{"key":"09676112","name":"Amorbach, St","type":"Stadt"},"district":{"key":"09676","name":"Miltenberg","type":"Landkreis"},"federalState":{"key":"09","name":"Bayern"}},{"name":"Biergasse","postalCode":"54497","locality":"Morbach","municipality":{"key":"07231502","name":"Morbach","type":"Kreisangehörige_Gemeinde"},"district":{"key":"07231","name":"Bernkastel-Wittlich","type":"Landkreis"},"federalState":{"key":"07","name":"Rheinland-Pfalz"}},{"name":"Birkenfelder Str.","postalCode":"54497","locality":"Morbach","municipality":{"key":"07231502","name":"Morbach","type":"Kreisangehörige_Gemeinde"},"district":{"key":"07231","name":"Bernkastel-Wittlich","type":"Landkreis"},"federalState":{"key":"07","name":"Rheinland-Pfalz"}},{"name":"Birkenweg","postalCode":"54497","locality":"Morbach","municipality":{"key":"07231502","name":"Morbach","type":"Kreisangehörige_Gemeinde"},"district":{"key":"07231","name":"Bernkastel-Wittlich","type":"Landkreis"},"federalState":{"key":"07","name":"Rheinland-Pfalz"}},{"name":"Bischofsdhroner Str.","postalCode":"54497","locality":"Morbach","municipality":{"key":"07231502","name":"Morbach","type":"Kreisangehörige_Gemeinde"},"district":{"key":"07231","name":"Bernkastel-Wittlich","type":"Landkreis"},"federalState":{"key":"07","name":"Rheinland-Pfalz"}},{"name":"Blasiusstr.","postalCode":"54497","locality":"Morbach","municipality":{"key":"07231502","name":"Morbach","type":"Kreisangehörige_Gemeinde"},"district":{"key":"07231","name":"Bernkastel-Wittlich","type":"Landkreis"},"federalState":{"key":"07","name":"Rheinland-Pfalz"}},{"name":"Blumenstr.","postalCode":"54497","locality":"Morbach","municipality":{"key":"07231502","name":"Morbach","type":"Kreisangehörige_Gemeinde"},"district":{"key":"07231","name":"Bernkastel-Wittlich","type":"Landkreis"},"federalState":{"key":"07","name":"Rheinland-Pfalz"}},{"name":"Bohrwiese","postalCode":"54497","locality":"Morbach","municipality":{"key":"07231502","name":"Morbach","type":"Kreisangehörige_Gemeinde"},"district":{"key":"07231","name":"Bernkastel-Wittlich","type":"Landkreis"},"federalState":{"key":"07","name":"Rheinland-Pfalz"}},{"name":"Borbitzweg","postalCode":"54497","locality":"Morbach","municipality":{"key":"07231502","name":"Morbach","type":"Kreisangehörige_Gemeinde"},"district":{"key":"07231","name":"Bernkastel-Wittlich","type":"Landkreis"},"federalState":{"key":"07","name":"Rheinland-Pfalz"}},{"name":"Borgasse","postalCode":"54497","locality":"Morbach","municipality":{"key":"07231502","name":"Morbach","type":"Kreisangehörige_Gemeinde"},"district":{"key":"07231","name":"Bernkastel-Wittlich","type":"Landkreis"},"federalState":{"key":"07","name":"Rheinland-Pfalz"}},{"name":"Bornweg","postalCode":"54497","locality":"Morbach","municipality":{"key":"07231502","name":"Morbach","type":"Kreisangehörige_Gemeinde"},"district":{"key":"07231","name":"Bernkastel-Wittlich","type":"Landkreis"},"federalState":{"key":"07","name":"Rheinland-Pfalz"}},{"name":"Boxbrunner Str.","postalCode":"63916","locality":"Amorbach","municipality":{"key":"09676112","name":"Amorbach, St","type":"Stadt"},"district":{"key":"09676","name":"Miltenberg","type":"Landkreis"},"federalState":{"key":"09","name":"Bayern"}},{"name":"Brahmsstr.","postalCode":"54497","locality":"Morbach","municipality":{"key":"07231502","name":"Morbach","type":"Kreisangehörige_Gemeinde"},"district":{"key":"07231","name":"Bernkastel-Wittlich","type":"Landkreis"},"federalState":{"key":"07","name":"Rheinland-Pfalz"}},{"name":"Breitensteiner Weg","postalCode":"63916","locality":"Amorbach","municipality":{"key":"09676112","name":"Amorbach, St","type":"Stadt"},"district":{"key":"09676","name":"Miltenberg","type":"Landkreis"},"federalState":{"key":"09","name":"Bayern"}},{"name":"Breiters Kreuz","postalCode":"54497","locality":"Morbach","municipality":{"key":"07231502","name":"Morbach","type":"Kreisangehörige_Gemeinde"},"district":{"key":"07231","name":"Bernkastel-Wittlich","type":"Landkreis"},"federalState":{"key":"07","name":"Rheinland-Pfalz"}},{"name":"Breitwiese","postalCode":"54497","locality":"Morbach","municipality":{"key":"07231502","name":"Morbach","type":"Kreisangehörige_Gemeinde"},"district":{"key":"07231","name":"Bernkastel-Wittlich","type":"Landkreis"},"federalState":{"key":"07","name":"Rheinland-Pfalz"}},{"name":"Bremerwiese","postalCode":"54497","locality":"Morbach","municipality":{"key":"07231502","name":"Morbach","type":"Kreisangehörige_Gemeinde"},"district":{"key":"07231","name":"Bernkastel-Wittlich","type":"Landkreis"},"federalState":{"key":"07","name":"Rheinland-Pfalz"}},{"name":"Breslauer Str.","postalCode":"63916","locality":"Amorbach","municipality":{"key":"09676112","name":"Amorbach, St","type":"Stadt"},"district":{"key":"09676","name":"Miltenberg","type":"Landkreis"},"federalState":{"key":"09","name":"Bayern"}},{"name":"Brüchelweg","postalCode":"54497","locality":"Morbach","municipality":{"key":"07231502","name":"Morbach","type":"Kreisangehörige_Gemeinde"},"district":{"key":"07231","name":"Bernkastel-Wittlich","type":"Landkreis"},"federalState":{"key":"07","name":"Rheinland-Pfalz"}},{"name":"Brückergasse","postalCode":"54497","locality":"Morbach","municipality":{"key":"07231502","name":"Morbach","type":"Kreisangehörige_Gemeinde"},"district":{"key":"07231","name":"Bernkastel-Wittlich","type":"Landkreis"},"federalState":{"key":"07","name":"Rheinland-Pfalz"}},{"name":"Brunnenstr.","postalCode":"54497","locality":"Morbach","municipality":{"key":"07231502","name":"Morbach","type":"Kreisangehörige_Gemeinde"},"district":{"key":"07231","name":"Bernkastel-Wittlich","type":"Landkreis"},"federalState":{"key":"07","name":"Rheinland-Pfalz"}},{"name":"Bubenweg","postalCode":"63916","locality":"Amorbach","municipality":{"key":"09676112","name":"Amorbach, St","type":"Stadt"},"district":{"key":"09676","name":"Miltenberg","type":"Landkreis"},"federalState":{"key":"09","name":"Bayern"}},{"name":"Buchenkopf","postalCode":"54497","locality":"Morbach","municipality":{"key":"07231502","name":"Morbach","type":"Kreisangehörige_Gemeinde"},"district":{"key":"07231","name":"Bernkastel-Wittlich","type":"Landkreis"},"federalState":{"key":"07","name":"Rheinland-Pfalz"}},{"name":"Buchenweg","postalCode":"54497","locality":"Morbach","municipality":{"key":"07231502","name":"Morbach","type":"Kreisangehörige_Gemeinde"},"district":{"key":"07231","name":"Bernkastel-Wittlich","type":"Landkreis"},"federalState":{"key":"07","name":"Rheinland-Pfalz"}},{"name":"Bungert","postalCode":"54497","locality":"Morbach","municipality":{"key":"07231502","name":"Morbach","type":"Kreisangehörige_Gemeinde"},"district":{"key":"07231","name":"Bernkastel-Wittlich","type":"Landkreis"},"federalState":{"key":"07","name":"Rheinland-Pfalz"}},{"name":"Burgstr.","postalCode":"54497","locality":"Morbach","municipality":{"key":"07231502","name":"Morbach","type":"Kreisangehörige_Gemeinde"},"district":{"key":"07231","name":"Bernkastel-Wittlich","type":"Landkreis"},"federalState":{"key":"07","name":"Rheinland-Pfalz"}},{"name":"Danziger Str.","postalCode":"63916","locality":"Amorbach","municipality":{"key":"09676112","name":"Amorbach, St","type":"Stadt"},"district":{"key":"09676","name":"Miltenberg","type":"Landkreis"},"federalState":{"key":"09","name":"Bayern"}},{"name":"Debonstr.","postalCode":"63916","locality":"Amorbach","municipality":{"key":"09676112","name":"Amorbach, St","type":"Stadt"},"district":{"key":"09676","name":"Miltenberg","type":"Landkreis"},"federalState":{"key":"09","name":"Bayern"}},{"name":"Deckerdorf","postalCode":"54497","locality":"Morbach","municipality":{"key":"07231502","name":"Morbach","type":"Kreisangehörige_Gemeinde"},"district":{"key":"07231","name":"Bernkastel-Wittlich","type":"Landkreis"},"federalState":{"key":"07","name":"Rheinland-Pfalz"}},{"name":"Dhrontalstr.","postalCode":"54497","locality":"Morbach","municipality":{"key":"07231502","name":"Morbach","type":"Kreisangehörige_Gemeinde"},"district":{"key":"07231","name":"Bernkastel-Wittlich","type":"Landkreis"},"federalState":{"key":"07","name":"Rheinland-Pfalz"}},{"name":"Dionysiusweg","postalCode":"54497","locality":"Morbach","municipality":{"key":"07231502","name":"Morbach","type":"Kreisangehörige_Gemeinde"},"district":{"key":"07231","name":"Bernkastel-Wittlich","type":"Landkreis"},"federalState":{"key":"07","name":"Rheinland-Pfalz"}},{"name":"Dorfstr.","postalCode":"54497","locality":"Morbach","municipality":{"key":"07231502","name":"Morbach","type":"Kreisangehörige_Gemeinde"},"district":{"key":"07231","name":"Bernkastel-Wittlich","type":"Landkreis"},"federalState":{"key":"07","name":"Rheinland-Pfalz"}},{"name":"Dörrwieser Weg","postalCode":"54497","locality":"Morbach","municipality":{"key":"07231502","name":"Morbach","type":"Kreisangehörige_Gemeinde"},"district":{"key":"07231","name":"Bernkastel-Wittlich","type":"Landkreis"},"federalState":{"key":"07","name":"Rheinland-Pfalz"}},{"name":"Dresdener Str.","postalCode":"63916","locality":"Amorbach","municipality":{"key":"09676112","name":"Amorbach, St","type":"Stadt"},"district":{"key":"09676","name":"Miltenberg","type":"Landkreis"},"federalState":{"key":"09","name":"Bayern"}},{"name":"Dr.-F.A.-Freundt-Str.","postalCode":"63916","locality":"Amorbach","municipality":{"key":"09676112","name":"Amorbach, St","type":"Stadt"},"district":{"key":"09676","name":"Miltenberg","type":"Landkreis"},"federalState":{"key":"09","name":"Bayern"}},{"name":"Düsseldorfer Ring","postalCode":"63916","locality":"Amorbach","municipality":{"key":"09676112","name":"Amorbach, St","type":"Stadt"},"district":{"key":"09676","name":"Miltenberg","type":"Landkreis"},"federalState":{"key":"09","name":"Bayern"}},{"name":"Eckweg","postalCode":"63916","locality":"Amorbach","municipality":{"key":"09676112","name":"Amorbach, St","type":"Stadt"},"district":{"key":"09676","name":"Miltenberg","type":"Landkreis"},"federalState":{"key":"09","name":"Bayern"}},{"name":"Edenbruch","postalCode":"54497","locality":"Morbach","municipality":{"key":"07231502","name":"Morbach","type":"Kreisangehörige_Gemeinde"},"district":{"key":"07231","name":"Bernkastel-Wittlich","type":"Landkreis"},"federalState":{"key":"07","name":"Rheinland-Pfalz"}},{"name":"Ehrental","postalCode":"54497","locality":"Morbach","municipality":{"key":"07231502","name":"Morbach","type":"Kreisangehörige_Gemeinde"},"district":{"key":"07231","name":"Bernkastel-Wittlich","type":"Landkreis"},"federalState":{"key":"07","name":"Rheinland-Pfalz"}},{"name":"Eichenweg","postalCode":"63916","locality":"Amorbach","municipality":{"key":"09676112","name":"Amorbach, St","type":"Stadt"},"district":{"key":"09676","name":"Miltenberg","type":"Landkreis"},"federalState":{"key":"09","name":"Bayern"}},{"name":"Elzerather Str.","postalCode":"54497","locality":"Morbach","municipality":{"key":"07231502","name":"Morbach","type":"Kreisangehörige_Gemeinde"},"district":{"key":"07231","name":"Bernkastel-Wittlich","type":"Landkreis"},"federalState":{"key":"07","name":"Rheinland-Pfalz"}},{"name":"Emigshöhenweg","postalCode":"63916","locality":"Amorbach","municipality":{"key":"09676112","name":"Amorbach, St","type":"Stadt"},"district":{"key":"09676","name":"Miltenberg","type":"Landkreis"},"federalState":{"key":"09","name":"Bayern"}},{"name":"Erbachstr.","postalCode":"54497","locality":"Morbach","municipality":{"key":"07231502","name":"Morbach","type":"Kreisangehörige_Gemeinde"},"district":{"key":"07231","name":"Bernkastel-Wittlich","type":"Landkreis"},"federalState":{"key":"07","name":"Rheinland-Pfalz"}},{"name":"Erfurter Str.","postalCode":"63916","locality":"Amorbach","municipality":{"key":"09676112","name":"Amorbach, St","type":"Stadt"},"district":{"key":"09676","name":"Miltenberg","type":"Landkreis"},"federalState":{"key":"09","name":"Bayern"}},{"name":"Eselspfad","postalCode":"63916","locality":"Amorbach","municipality":{"key":"09676112","name":"Amorbach, St","type":"Stadt"},"district":{"key":"09676","name":"Miltenberg","type":"Landkreis"},"federalState":{"key":"09","name":"Bayern"}},{"name":"Eulengasse","postalCode":"54497","locality":"Morbach","municipality":{"key":"07231502","name":"Morbach","type":"Kreisangehörige_Gemeinde"},"district":{"key":"07231","name":"Bernkastel-Wittlich","type":"Landkreis"},"federalState":{"key":"07","name":"Rheinland-Pfalz"}},{"name":"Feldstr.","postalCode":"54497","locality":"Morbach","municipality":{"key":"07231502","name":"Morbach","type":"Kreisangehörige_Gemeinde"},"district":{"key":"07231","name":"Bernkastel-Wittlich","type":"Landkreis"},"federalState":{"key":"07","name":"Rheinland-Pfalz"}},{"name":"Fichtenweg","postalCode":"54497","locality":"Morbach","municipality":{"key":"07231502","name":"Morbach","type":"Kreisangehörige_Gemeinde"},"district":{"key":"07231","name":"Bernkastel-Wittlich","type":"Landkreis"},"federalState":{"key":"07","name":"Rheinland-Pfalz"}},{"name":"Fingerweg","postalCode":"63916","locality":"Amorbach","municipality":{"key":"09676112","name":"Amorbach, St","type":"Stadt"},"district":{"key":"09676","name":"Miltenberg","type":"Landkreis"},"federalState":{"key":"09","name":"Bayern"}},{"name":"Finkenweg","postalCode":"54497","locality":"Morbach","municipality":{"key":"07231502","name":"Morbach","type":"Kreisangehörige_Gemeinde"},"district":{"key":"07231","name":"Bernkastel-Wittlich","type":"Landkreis"},"federalState":{"key":"07","name":"Rheinland-Pfalz"}},{"name":"Fischergasse","postalCode":"63916","locality":"Amorbach","municipality":{"key":"09676112","name":"Amorbach, St","type":"Stadt"},"district":{"key":"09676","name":"Miltenberg","type":"Landkreis"},"federalState":{"key":"09","name":"Bayern"}},{"name":"Flurstr.","postalCode":"54497","locality":"Morbach","municipality":{"key":"07231502","name":"Morbach","type":"Kreisangehörige_Gemeinde"},"district":{"key":"07231","name":"Bernkastel-Wittlich","type":"Landkreis"},"federalState":{"key":"07","name":"Rheinland-Pfalz"}},{"name":"Franzosen Weg","postalCode":"54497","locality":"Morbach","municipality":{"key":"07231502","name":"Morbach","type":"Kreisangehörige_Gemeinde"},"district":{"key":"07231","name":"Bernkastel-Wittlich","type":"Landkreis"},"federalState":{"key":"07","name":"Rheinland-Pfalz"}},{"name":"Freihof","postalCode":"63916","locality":"Amorbach","municipality":{"key":"09676112","name":"Amorbach, St","type":"Stadt"},"district":{"key":"09676","name":"Miltenberg","type":"Landkreis"},"federalState":{"key":"09","name":"Bayern"}},{"name":"Friedensweg","postalCode":"63916","locality":"Amorbach","municipality":{"key":"09676112","name":"Amorbach, St","type":"Stadt"},"district":{"key":"09676","name":"Miltenberg","type":"Landkreis"},"federalState":{"key":"09","name":"Bayern"}},{"name":"Friedhof Str.","postalCode":"63916","locality":"Amorbach","municipality":{"key":"09676112","name":"Amorbach, St","type":"Stadt"},"district":{"key":"09676","name":"Miltenberg","type":"Landkreis"},"federalState":{"key":"09","name":"Bayern"}},{"name":"Friedhofsweg","postalCode":"54497","locality":"Morbach","municipality":{"key":"07231502","name":"Morbach","type":"Kreisangehörige_Gemeinde"},"district":{"key":"07231","name":"Bernkastel-Wittlich","type":"Landkreis"},"federalState":{"key":"07","name":"Rheinland-Pfalz"}},{"name":"Gaischberg","postalCode":"54497","locality":"Morbach","municipality":{"key":"07231502","name":"Morbach","type":"Kreisangehörige_Gemeinde"},"district":{"key":"07231","name":"Bernkastel-Wittlich","type":"Landkreis"},"federalState":{"key":"07","name":"Rheinland-Pfalz"}},{"name":"Gartenstr.","postalCode":"54497","locality":"Morbach","municipality":{"key":"07231502","name":"Morbach","type":"Kreisangehörige_Gemeinde"},"district":{"key":"07231","name":"Bernkastel-Wittlich","type":"Landkreis"},"federalState":{"key":"07","name":"Rheinland-Pfalz"}},{"name":"Gasleitungsweg","postalCode":"63916","locality":"Amorbach","municipality":{"key":"09676112","name":"Amorbach, St","type":"Stadt"},"district":{"key":"09676","name":"Miltenberg","type":"Landkreis"},"federalState":{"key":"09","name":"Bayern"}},{"name":"Gebelwies","postalCode":"54497","locality":"Morbach","municipality":{"key":"07231502","name":"Morbach","type":"Kreisangehörige_Gemeinde"},"district":{"key":"07231","name":"Bernkastel-Wittlich","type":"Landkreis"},"federalState":{"key":"07","name":"Rheinland-Pfalz"}},{"name":"Geisgraben","postalCode":"63916","locality":"Amorbach","municipality":{"key":"09676112","name":"Amorbach, St","type":"Stadt"},"district":{"key":"09676","name":"Miltenberg","type":"Landkreis"},"federalState":{"key":"09","name":"Bayern"}},{"name":"Georg-Stang Ring","postalCode":"63916","locality":"Amorbach","municipality":{"key":"09676112","name":"Amorbach, St","type":"Stadt"},"district":{"key":"09676","name":"Miltenberg","type":"Landkreis"},"federalState":{"key":"09","name":"Bayern"}},{"name":"Gerberstr.","postalCode":"54497","locality":"Morbach","municipality":{"key":"07231502","name":"Morbach","type":"Kreisangehörige_Gemeinde"},"district":{"key":"07231","name":"Bernkastel-Wittlich","type":"Landkreis"},"federalState":{"key":"07","name":"Rheinland-Pfalz"}},{"name":"Gerberweg","postalCode":"54497","locality":"Morbach","municipality":{"key":"07231502","name":"Morbach","type":"Kreisangehörige_Gemeinde"},"district":{"key":"07231","name":"Bernkastel-Wittlich","type":"Landkreis"},"federalState":{"key":"07","name":"Rheinland-Pfalz"}},{"name":"Gitzenflur","postalCode":"54497","locality":"Morbach","municipality":{"key":"07231502","name":"Morbach","type":"Kreisangehörige_Gemeinde"},"district":{"key":"07231","name":"Bernkastel-Wittlich","type":"Landkreis"},"federalState":{"key":"07","name":"Rheinland-Pfalz"}},{"name":"Gornhausener Weg","postalCode":"54497","locality":"Morbach","municipality":{"key":"07231502","name":"Morbach","type":"Kreisangehörige_Gemeinde"},"district":{"key":"07231","name":"Bernkastel-Wittlich","type":"Landkreis"},"federalState":{"key":"07","name":"Rheinland-Pfalz"}},{"name":"Gotterflur","postalCode":"54497","locality":"Morbach","municipality":{"key":"07231502","name":"Morbach","type":"Kreisangehörige_Gemeinde"},"district":{"key":"07231","name":"Bernkastel-Wittlich","type":"Landkreis"},"federalState":{"key":"07","name":"Rheinland-Pfalz"}},{"name":"Gottersdorfer Weg","postalCode":"63916","locality":"Amorbach","municipality":{"key":"09676112","name":"Amorbach, St","type":"Stadt"},"district":{"key":"09676","name":"Miltenberg","type":"Landkreis"},"federalState":{"key":"09","name":"Bayern"}},{"name":"Gotthardsweg","postalCode":"63916","locality":"Amorbach","municipality":{"key":"09676112","name":"Amorbach, St","type":"Stadt"},"district":{"key":"09676","name":"Miltenberg","type":"Landkreis"},"federalState":{"key":"09","name":"Bayern"}},{"name":"Götzenfeld","postalCode":"54497","locality":"Morbach","municipality":{"key":"07231502","name":"Morbach","type":"Kreisangehörige_Gemeinde"},"district":{"key":"07231","name":"Bernkastel-Wittlich","type":"Landkreis"},"federalState":{"key":"07","name":"Rheinland-Pfalz"}},{"name":"Graacher Weg","postalCode":"54497","locality":"Morbach","municipality":{"key":"07231502","name":"Morbach","type":"Kreisangehörige_Gemeinde"},"district":{"key":"07231","name":"Bernkastel-Wittlich","type":"Landkreis"},"federalState":{"key":"07","name":"Rheinland-Pfalz"}},{"name":"Großwiese","postalCode":"54497","locality":"Morbach","municipality":{"key":"07231502","name":"Morbach","type":"Kreisangehörige_Gemeinde"},"district":{"key":"07231","name":"Bernkastel-Wittlich","type":"Landkreis"},"federalState":{"key":"07","name":"Rheinland-Pfalz"}},{"name":"Gutenthaler Weg","postalCode":"54497","locality":"Morbach","municipality":{"key":"07231502","name":"Morbach","type":"Kreisangehörige_Gemeinde"},"district":{"key":"07231","name":"Bernkastel-Wittlich","type":"Landkreis"},"federalState":{"key":"07","name":"Rheinland-Pfalz"}},{"name":"Haager Str.","postalCode":"54497","locality":"Morbach","municipality":{"key":"07231502","name":"Morbach","type":"Kreisangehörige_Gemeinde"},"district":{"key":"07231","name":"Bernkastel-Wittlich","type":"Landkreis"},"federalState":{"key":"07","name":"Rheinland-Pfalz"}},{"name":"Haardtkopfstr.","postalCode":"54497","locality":"Morbach","municipality":{"key":"07231502","name":"Morbach","type":"Kreisangehörige_Gemeinde"},"district":{"key":"07231","name":"Bernkastel-Wittlich","type":"Landkreis"},"federalState":{"key":"07","name":"Rheinland-Pfalz"}},{"name":"Hafergasse","postalCode":"54497","locality":"Morbach","municipality":{"key":"07231502","name":"Morbach","type":"Kreisangehörige_Gemeinde"},"district":{"key":"07231","name":"Bernkastel-Wittlich","type":"Landkreis"},"federalState":{"key":"07","name":"Rheinland-Pfalz"}},{"name":"Hagedornstr.","postalCode":"54497","locality":"Morbach","municipality":{"key":"07231502","name":"Morbach","type":"Kreisangehörige_Gemeinde"},"district":{"key":"07231","name":"Bernkastel-Wittlich","type":"Landkreis"},"federalState":{"key":"07","name":"Rheinland-Pfalz"}},{"name":"Hans-Jung-Weg","postalCode":"54497","locality":"Morbach","municipality":{"key":"07231502","name":"Morbach","type":"Kreisangehörige_Gemeinde"},"district":{"key":"07231","name":"Bernkastel-Wittlich","type":"Landkreis"},"federalState":{"key":"07","name":"Rheinland-Pfalz"}},{"name":"Hauptstr.","postalCode":"54497","locality":"Morbach","municipality":{"key":"07231502","name":"Morbach","type":"Kreisangehörige_Gemeinde"},"district":{"key":"07231","name":"Bernkastel-Wittlich","type":"Landkreis"},"federalState":{"key":"07","name":"Rheinland-Pfalz"}},{"name":"Hebegasse","postalCode":"54497","locality":"Morbach","municipality":{"key":"07231502","name":"Morbach","type":"Kreisangehörige_Gemeinde"},"district":{"key":"07231","name":"Bernkastel-Wittlich","type":"Landkreis"},"federalState":{"key":"07","name":"Rheinland-Pfalz"}},{"name":"Hegberger Hof","postalCode":"54497","locality":"Morbach","municipality":{"key":"07231502","name":"Morbach","type":"Kreisangehörige_Gemeinde"},"district":{"key":"07231","name":"Bernkastel-Wittlich","type":"Landkreis"},"federalState":{"key":"07","name":"Rheinland-Pfalz"}},{"name":"Heideweg","postalCode":"54497","locality":"Morbach","municipality":{"key":"07231502","name":"Morbach","type":"Kreisangehörige_Gemeinde"},"district":{"key":"07231","name":"Bernkastel-Wittlich","type":"Landkreis"},"federalState":{"key":"07","name":"Rheinland-Pfalz"}},{"name":"Heimberger Str.","postalCode":"63916","locality":"Amorbach","municipality":{"key":"09676112","name":"Amorbach, St","type":"Stadt"},"district":{"key":"09676","name":"Miltenberg","type":"Landkreis"},"federalState":{"key":"09","name":"Bayern"}},{"name":"Heinrich-Albert Str.","postalCode":"63916","locality":"Amorbach","municipality":{"key":"09676112","name":"Amorbach, St","type":"Stadt"},"district":{"key":"09676","name":"Miltenberg","type":"Landkreis"},"federalState":{"key":"09","name":"Bayern"}},{"name":"Hermann-Löns-Weg","postalCode":"54497","locality":"Morbach","municipality":{"key":"07231502","name":"Morbach","type":"Kreisangehörige_Gemeinde"},"district":{"key":"07231","name":"Bernkastel-Wittlich","type":"Landkreis"},"federalState":{"key":"07","name":"Rheinland-Pfalz"}},{"name":"Herzenweg","postalCode":"63916","locality":"Amorbach","municipality":{"key":"09676112","name":"Amorbach, St","type":"Stadt"},"district":{"key":"09676","name":"Miltenberg","type":"Landkreis"},"federalState":{"key":"09","name":"Bayern"}},{"name":"Herzogin von Kent Str.","postalCode":"63916","locality":"Amorbach","municipality":{"key":"09676112","name":"Amorbach, St","type":"Stadt"},"district":{"key":"09676","name":"Miltenberg","type":"Landkreis"},"federalState":{"key":"09","name":"Bayern"}},{"name":"Heuweg","postalCode":"54497","locality":"Morbach","municipality":{"key":"07231502","name":"Morbach","type":"Kreisangehörige_Gemeinde"},"district":{"key":"07231","name":"Bernkastel-Wittlich","type":"Landkreis"},"federalState":{"key":"07","name":"Rheinland-Pfalz"}},{"name":"Himbrichweg","postalCode":"54497","locality":"Morbach","municipality":{"key":"07231502","name":"Morbach","type":"Kreisangehörige_Gemeinde"},"district":{"key":"07231","name":"Bernkastel-Wittlich","type":"Landkreis"},"federalState":{"key":"07","name":"Rheinland-Pfalz"}},{"name":"Hinterbachtal","postalCode":"54497","locality":"Morbach","municipality":{"key":"07231502","name":"Morbach","type":"Kreisangehörige_Gemeinde"},"district":{"key":"07231","name":"Bernkastel-Wittlich","type":"Landkreis"},"federalState":{"key":"07","name":"Rheinland-Pfalz"}},{"name":"Hinter den Zäunen","postalCode":"54497","locality":"Morbach","municipality":{"key":"07231502","name":"Morbach","type":"Kreisangehörige_Gemeinde"},"district":{"key":"07231","name":"Bernkastel-Wittlich","type":"Landkreis"},"federalState":{"key":"07","name":"Rheinland-Pfalz"}},{"name":"Hinter der Kirch","postalCode":"54497","locality":"Morbach","municipality":{"key":"07231502","name":"Morbach","type":"Kreisangehörige_Gemeinde"},"district":{"key":"07231","name":"Bernkastel-Wittlich","type":"Landkreis"},"federalState":{"key":"07","name":"Rheinland-Pfalz"}},{"name":"Hintere Gasse","postalCode":"63916","locality":"Amorbach","municipality":{"key":"09676112","name":"Amorbach, St","type":"Stadt"},"district":{"key":"09676","name":"Miltenberg","type":"Landkreis"},"federalState":{"key":"09","name":"Bayern"}},{"name":"Hinterm Born","postalCode":"54497","locality":"Morbach","municipality":{"key":"07231502","name":"Morbach","type":"Kreisangehörige_Gemeinde"},"district":{"key":"07231","name":"Bernkastel-Wittlich","type":"Landkreis"},"federalState":{"key":"07","name":"Rheinland-Pfalz"}},{"name":"Hinterm Graben","postalCode":"54497","locality":"Morbach","municipality":{"key":"07231502","name":"Morbach","type":"Kreisangehörige_Gemeinde"},"district":{"key":"07231","name":"Bernkastel-Wittlich","type":"Landkreis"},"federalState":{"key":"07","name":"Rheinland-Pfalz"}},{"name":"Hinterm Rathaus","postalCode":"54497","locality":"Morbach","municipality":{"key":"07231502","name":"Morbach","type":"Kreisangehörige_Gemeinde"},"district":{"key":"07231","name":"Bernkastel-Wittlich","type":"Landkreis"},"federalState":{"key":"07","name":"Rheinland-Pfalz"}},{"name":"Hinter St. Cuno","postalCode":"54497","locality":"Morbach","municipality":{"key":"07231502","name":"Morbach","type":"Kreisangehörige_Gemeinde"},"district":{"key":"07231","name":"Bernkastel-Wittlich","type":"Landkreis"},"federalState":{"key":"07","name":"Rheinland-Pfalz"}},{"name":"Hirtenwies","postalCode":"54497","locality":"Morbach","municipality":{"key":"07231502","name":"Morbach","type":"Kreisangehörige_Gemeinde"},"district":{"key":"07231","name":"Bernkastel-Wittlich","type":"Landkreis"},"federalState":{"key":"07","name":"Rheinland-Pfalz"}},{"name":"Hochscheider Gasse","postalCode":"54497","locality":"Morbach","municipality":{"key":"07231502","name":"Morbach","type":"Kreisangehörige_Gemeinde"},"district":{"key":"07231","name":"Bernkastel-Wittlich","type":"Landkreis"},"federalState":{"key":"07","name":"Rheinland-Pfalz"}},{"name":"Hochstr.","postalCode":"54497","locality":"Morbach","municipality":{"key":"07231502","name":"Morbach","type":"Kreisangehörige_Gemeinde"},"district":{"key":"07231","name":"Bernkastel-Wittlich","type":"Landkreis"},"federalState":{"key":"07","name":"Rheinland-Pfalz"}},{"name":"Hochwaldblick","postalCode":"54497","locality":"Morbach","municipality":{"key":"07231502","name":"Morbach","type":"Kreisangehörige_Gemeinde"},"district":{"key":"07231","name":"Bernkastel-Wittlich","type":"Landkreis"},"federalState":{"key":"07","name":"Rheinland-Pfalz"}},{"name":"Hochwaldstr.","postalCode":"54497","locality":"Morbach","municipality":{"key":"07231502","name":"Morbach","type":"Kreisangehörige_Gemeinde"},"district":{"key":"07231","name":"Bernkastel-Wittlich","type":"Landkreis"},"federalState":{"key":"07","name":"Rheinland-Pfalz"}},{"name":"Hoffmannweg","postalCode":"63916","locality":"Amorbach","municipality":{"key":"09676112","name":"Amorbach, St","type":"Stadt"},"district":{"key":"09676","name":"Miltenberg","type":"Landkreis"},"federalState":{"key":"09","name":"Bayern"}},{"name":"Höhbergweg","postalCode":"63916","locality":"Amorbach","municipality":{"key":"09676112","name":"Amorbach, St","type":"Stadt"},"district":{"key":"09676","name":"Miltenberg","type":"Landkreis"},"federalState":{"key":"09","name":"Bayern"}},{"name":"Höhenweg","postalCode":"54497","locality":"Morbach","municipality":{"key":"07231502","name":"Morbach","type":"Kreisangehörige_Gemeinde"},"district":{"key":"07231","name":"Bernkastel-Wittlich","type":"Landkreis"},"federalState":{"key":"07","name":"Rheinland-Pfalz"}},{"name":"Hohlweg","postalCode":"54497","locality":"Morbach","municipality":{"key":"07231502","name":"Morbach","type":"Kreisangehörige_Gemeinde"},"district":{"key":"07231","name":"Bernkastel-Wittlich","type":"Landkreis"},"federalState":{"key":"07","name":"Rheinland-Pfalz"}},{"name":"Hundheimer Weg","postalCode":"54497","locality":"Morbach","municipality":{"key":"07231502","name":"Morbach","type":"Kreisangehörige_Gemeinde"},"district":{"key":"07231","name":"Bernkastel-Wittlich","type":"Landkreis"},"federalState":{"key":"07","name":"Rheinland-Pfalz"}},{"name":"Hundsgarten","postalCode":"54497","locality":"Morbach","municipality":{"key":"07231502","name":"Morbach","type":"Kreisangehörige_Gemeinde"},"district":{"key":"07231","name":"Bernkastel-Wittlich","type":"Landkreis"},"federalState":{"key":"07","name":"Rheinland-Pfalz"}},{"name":"Hundsgäßchen","postalCode":"63916","locality":"Amorbach","municipality":{"key":"09676112","name":"Amorbach, St","type":"Stadt"},"district":{"key":"09676","name":"Miltenberg","type":"Landkreis"},"federalState":{"key":"09","name":"Bayern"}},{"name":"Hunsrückhöhenstr.","postalCode":"54497","locality":"Morbach","municipality":{"key":"07231502","name":"Morbach","type":"Kreisangehörige_Gemeinde"},"district":{"key":"07231","name":"Bernkastel-Wittlich","type":"Landkreis"},"federalState":{"key":"07","name":"Rheinland-Pfalz"}},{"name":"Idarwaldstr.","postalCode":"54497","locality":"Morbach","municipality":{"key":"07231502","name":"Morbach","type":"Kreisangehörige_Gemeinde"},"district":{"key":"07231","name":"Bernkastel-Wittlich","type":"Landkreis"},"federalState":{"key":"07","name":"Rheinland-Pfalz"}},{"name":"Im Acker","postalCode":"54497","locality":"Morbach","municipality":{"key":"07231502","name":"Morbach","type":"Kreisangehörige_Gemeinde"},"district":{"key":"07231","name":"Bernkastel-Wittlich","type":"Landkreis"},"federalState":{"key":"07","name":"Rheinland-Pfalz"}},{"name":"Im Anspann","postalCode":"54497","locality":"Morbach","municipality":{"key":"07231502","name":"Morbach","type":"Kreisangehörige_Gemeinde"},"district":{"key":"07231","name":"Bernkastel-Wittlich","type":"Landkreis"},"federalState":{"key":"07","name":"Rheinland-Pfalz"}},{"name":"Im Brühl","postalCode":"54497","locality":"Morbach","municipality":{"key":"07231502","name":"Morbach","type":"Kreisangehörige_Gemeinde"},"district":{"key":"07231","name":"Bernkastel-Wittlich","type":"Landkreis"},"federalState":{"key":"07","name":"Rheinland-Pfalz"}},{"name":"Im Buß","postalCode":"54497","locality":"Morbach","municipality":{"key":"07231502","name":"Morbach","type":"Kreisangehörige_Gemeinde"},"district":{"key":"07231","name":"Bernkastel-Wittlich","type":"Landkreis"},"federalState":{"key":"07","name":"Rheinland-Pfalz"}},{"name":"Im Ecken","postalCode":"54497","locality":"Morbach","municipality":{"key":"07231502","name":"Morbach","type":"Kreisangehörige_Gemeinde"},"district":{"key":"07231","name":"Bernkastel-Wittlich","type":"Landkreis"},"federalState":{"key":"07","name":"Rheinland-Pfalz"}},{"name":"Im Ehrlein","postalCode":"63916","locality":"Amorbach","municipality":{"key":"09676112","name":"Amorbach, St","type":"Stadt"},"district":{"key":"09676","name":"Miltenberg","type":"Landkreis"},"federalState":{"key":"09","name":"Bayern"}},{"name":"Im Gartenfeld","postalCode":"54497","locality":"Morbach","municipality":{"key":"07231502","name":"Morbach","type":"Kreisangehörige_Gemeinde"},"district":{"key":"07231","name":"Bernkastel-Wittlich","type":"Landkreis"},"federalState":{"key":"07","name":"Rheinland-Pfalz"}},{"name":"Im Gässchen","postalCode":"54497","locality":"Morbach","municipality":{"key":"07231502","name":"Morbach","type":"Kreisangehörige_Gemeinde"},"district":{"key":"07231","name":"Bernkastel-Wittlich","type":"Landkreis"},"federalState":{"key":"07","name":"Rheinland-Pfalz"}},{"name":"Im Hernisch","postalCode":"54497","locality":"Morbach","municipality":{"key":"07231502","name":"Morbach","type":"Kreisangehörige_Gemeinde"},"district":{"key":"07231","name":"Bernkastel-Wittlich","type":"Landkreis"},"federalState":{"key":"07","name":"Rheinland-Pfalz"}},{"name":"Im Hof","postalCode":"54497","locality":"Morbach","municipality":{"key":"07231502","name":"Morbach","type":"Kreisangehörige_Gemeinde"},"district":{"key":"07231","name":"Bernkastel-Wittlich","type":"Landkreis"},"federalState":{"key":"07","name":"Rheinland-Pfalz"}},{"name":"Im Iser","postalCode":"54497","locality":"Morbach","municipality":{"key":"07231502","name":"Morbach","type":"Kreisangehörige_Gemeinde"},"district":{"key":"07231","name":"Bernkastel-Wittlich","type":"Landkreis"},"federalState":{"key":"07","name":"Rheinland-Pfalz"}},{"name":"Im Krummenacker","postalCode":"54497","locality":"Morbach","municipality":{"key":"07231502","name":"Morbach","type":"Kreisangehörige_Gemeinde"},"district":{"key":"07231","name":"Bernkastel-Wittlich","type":"Landkreis"},"federalState":{"key":"07","name":"Rheinland-Pfalz"}},{"name":"Im Moosbruch","postalCode":"54497","locality":"Morbach","municipality":{"key":"07231502","name":"Morbach","type":"Kreisangehörige_Gemeinde"},"district":{"key":"07231","name":"Bernkastel-Wittlich","type":"Landkreis"},"federalState":{"key":"07","name":"Rheinland-Pfalz"}},{"name":"Im Oldenburg","postalCode":"54497","locality":"Morbach","municipality":{"key":"07231502","name":"Morbach","type":"Kreisangehörige_Gemeinde"},"district":{"key":"07231","name":"Bernkastel-Wittlich","type":"Landkreis"},"federalState":{"key":"07","name":"Rheinland-Pfalz"}},{"name":"Im Schollenfeld","postalCode":"54497","locality":"Morbach","municipality":{"key":"07231502","name":"Morbach","type":"Kreisangehörige_Gemeinde"},"district":{"key":"07231","name":"Bernkastel-Wittlich","type":"Landkreis"},"federalState":{"key":"07","name":"Rheinland-Pfalz"}},{"name":"Im Tempel","postalCode":"54497","locality":"Morbach","municipality":{"key":"07231502","name":"Morbach","type":"Kreisangehörige_Gemeinde"},"district":{"key":"07231","name":"Bernkastel-Wittlich","type":"Landkreis"},"federalState":{"key":"07","name":"Rheinland-Pfalz"}},{"name":"Im Wiesengrund","postalCode":"54497","locality":"Morbach","municipality":{"key":"07231502","name":"Morbach","type":"Kreisangehörige_Gemeinde"},"district":{"key":"07231","name":"Bernkastel-Wittlich","type":"Landkreis"},"federalState":{"key":"07","name":"Rheinland-Pfalz"}},{"name":"In den Hofäckern","postalCode":"63916","locality":"Amorbach","municipality":{"key":"09676112","name":"Amorbach, St","type":"Stadt"},"district":{"key":"09676","name":"Miltenberg","type":"Landkreis"},"federalState":{"key":"09","name":"Bayern"}},{"name":"In den Redeln","postalCode":"54497","locality":"Morbach","municipality":{"key":"07231502","name":"Morbach","type":"Kreisangehörige_Gemeinde"},"district":{"key":"07231","name":"Bernkastel-Wittlich","type":"Landkreis"},"federalState":{"key":"07","name":"Rheinland-Pfalz"}},{"name":"In den Turmwiesen","postalCode":"54497","locality":"Morbach","municipality":{"key":"07231502","name":"Morbach","type":"Kreisangehörige_Gemeinde"},"district":{"key":"07231","name":"Bernkastel-Wittlich","type":"Landkreis"},"federalState":{"key":"07","name":"Rheinland-Pfalz"}},{"name":"In den Weizenäckern","postalCode":"63916","locality":"Amorbach","municipality":{"key":"09676112","name":"Amorbach, St","type":"Stadt"},"district":{"key":"09676","name":"Miltenberg","type":"Landkreis"},"federalState":{"key":"09","name":"Bayern"}},{"name":"In der Brück","postalCode":"54497","locality":"Morbach","municipality":{"key":"07231502","name":"Morbach","type":"Kreisangehörige_Gemeinde"},"district":{"key":"07231","name":"Bernkastel-Wittlich","type":"Landkreis"},"federalState":{"key":"07","name":"Rheinland-Pfalz"}},{"name":"In der Domp","postalCode":"54497","locality":"Morbach","municipality":{"key":"07231502","name":"Morbach","type":"Kreisangehörige_Gemeinde"},"district":{"key":"07231","name":"Bernkastel-Wittlich","type":"Landkreis"},"federalState":{"key":"07","name":"Rheinland-Pfalz"}},{"name":"In der Door","postalCode":"54497","locality":"Morbach","municipality":{"key":"07231502","name":"Morbach","type":"Kreisangehörige_Gemeinde"},"district":{"key":"07231","name":"Bernkastel-Wittlich","type":"Landkreis"},"federalState":{"key":"07","name":"Rheinland-Pfalz"}},{"name":"In der Fahrt","postalCode":"54497","locality":"Morbach","municipality":{"key":"07231502","name":"Morbach","type":"Kreisangehörige_Gemeinde"},"district":{"key":"07231","name":"Bernkastel-Wittlich","type":"Landkreis"},"federalState":{"key":"07","name":"Rheinland-Pfalz"}},{"name":"In der Gass","postalCode":"54497","locality":"Morbach","municipality":{"key":"07231502","name":"Morbach","type":"Kreisangehörige_Gemeinde"},"district":{"key":"07231","name":"Bernkastel-Wittlich","type":"Landkreis"},"federalState":{"key":"07","name":"Rheinland-Pfalz"}},{"name":"In der Geisch","postalCode":"54497","locality":"Morbach","municipality":{"key":"07231502","name":"Morbach","type":"Kreisangehörige_Gemeinde"},"district":{"key":"07231","name":"Bernkastel-Wittlich","type":"Landkreis"},"federalState":{"key":"07","name":"Rheinland-Pfalz"}},{"name":"In der Grub","postalCode":"54497","locality":"Morbach","municipality":{"key":"07231502","name":"Morbach","type":"Kreisangehörige_Gemeinde"},"district":{"key":"07231","name":"Bernkastel-Wittlich","type":"Landkreis"},"federalState":{"key":"07","name":"Rheinland-Pfalz"}},{"name":"In der Lauwiese","postalCode":"54497","locality":"Morbach","municipality":{"key":"07231502","name":"Morbach","type":"Kreisangehörige_Gemeinde"},"district":{"key":"07231","name":"Bernkastel-Wittlich","type":"Landkreis"},"federalState":{"key":"07","name":"Rheinland-Pfalz"}},{"name":"In der Macherwiese","postalCode":"54497","locality":"Morbach","municipality":{"key":"07231502","name":"Morbach","type":"Kreisangehörige_Gemeinde"},"district":{"key":"07231","name":"Bernkastel-Wittlich","type":"Landkreis"},"federalState":{"key":"07","name":"Rheinland-Pfalz"}},{"name":"In der Noh","postalCode":"54497","locality":"Morbach","municipality":{"key":"07231502","name":"Morbach","type":"Kreisangehörige_Gemeinde"},"district":{"key":"07231","name":"Bernkastel-Wittlich","type":"Landkreis"},"federalState":{"key":"07","name":"Rheinland-Pfalz"}},{"name":"In der Steig","postalCode":"54497","locality":"Morbach","municipality":{"key":"07231502","name":"Morbach","type":"Kreisangehörige_Gemeinde"},"district":{"key":"07231","name":"Bernkastel-Wittlich","type":"Landkreis"},"federalState":{"key":"07","name":"Rheinland-Pfalz"}},{"name":"In der Strut","postalCode":"54497","locality":"Morbach","municipality":{"key":"07231502","name":"Morbach","type":"Kreisangehörige_Gemeinde"},"district":{"key":"07231","name":"Bernkastel-Wittlich","type":"Landkreis"},"federalState":{"key":"07","name":"Rheinland-Pfalz"}},{"name":"In der Tieftrift","postalCode":"54497","locality":"Morbach","municipality":{"key":"07231502","name":"Morbach","type":"Kreisangehörige_Gemeinde"},"district":{"key":"07231","name":"Bernkastel-Wittlich","type":"Landkreis"},"federalState":{"key":"07","name":"Rheinland-Pfalz"}},{"name":"In der Träf","postalCode":"54497","locality":"Morbach","municipality":{"key":"07231502","name":"Morbach","type":"Kreisangehörige_Gemeinde"},"district":{"key":"07231","name":"Bernkastel-Wittlich","type":"Landkreis"},"federalState":{"key":"07","name":"Rheinland-Pfalz"}},{"name":"Industriestr.","postalCode":"54497","locality":"Morbach","municipality":{"key":"07231502","name":"Morbach","type":"Kreisangehörige_Gemeinde"},"district":{"key":"07231","name":"Bernkastel-Wittlich","type":"Landkreis"},"federalState":{"key":"07","name":"Rheinland-Pfalz"}},{"name":"Jahnstr.","postalCode":"54497","locality":"Morbach","municipality":{"key":"07231502","name":"Morbach","type":"Kreisangehörige_Gemeinde"},"district":{"key":"07231","name":"Bernkastel-Wittlich","type":"Landkreis"},"federalState":{"key":"07","name":"Rheinland-Pfalz"}},{"name":"Johannisturm Str.","postalCode":"63916","locality":"Amorbach","municipality":{"key":"09676112","name":"Amorbach, St","type":"Stadt"},"district":{"key":"09676","name":"Miltenberg","type":"Landkreis"},"federalState":{"key":"09","name":"Bayern"}},{"name":"Jugendherbergstr.","postalCode":"54497","locality":"Morbach","municipality":{"key":"07231502","name":"Morbach","type":"Kreisangehörige_Gemeinde"},"district":{"key":"07231","name":"Bernkastel-Wittlich","type":"Landkreis"},"federalState":{"key":"07","name":"Rheinland-Pfalz"}},{"name":"Kahlebuckelweg","postalCode":"63916","locality":"Amorbach","municipality":{"key":"09676112","name":"Amorbach, St","type":"Stadt"},"district":{"key":"09676","name":"Miltenberg","type":"Landkreis"},"federalState":{"key":"09","name":"Bayern"}},{"name":"Kalte Gasse","postalCode":"63916","locality":"Amorbach","municipality":{"key":"09676112","name":"Amorbach, St","type":"Stadt"},"district":{"key":"09676","name":"Miltenberg","type":"Landkreis"},"federalState":{"key":"09","name":"Bayern"}},{"name":"Kapellenweg","postalCode":"54497","locality":"Morbach","municipality":{"key":"07231502","name":"Morbach","type":"Kreisangehörige_Gemeinde"},"district":{"key":"07231","name":"Bernkastel-Wittlich","type":"Landkreis"},"federalState":{"key":"07","name":"Rheinland-Pfalz"}},{"name":"Karlsbader Str.","postalCode":"63916","locality":"Amorbach","municipality":{"key":"09676112","name":"Amorbach, St","type":"Stadt"},"district":{"key":"09676","name":"Miltenberg","type":"Landkreis"},"federalState":{"key":"09","name":"Bayern"}},{"name":"Kastanienweg","postalCode":"54497","locality":"Morbach","municipality":{"key":"07231502","name":"Morbach","type":"Kreisangehörige_Gemeinde"},"district":{"key":"07231","name":"Bernkastel-Wittlich","type":"Landkreis"},"federalState":{"key":"07","name":"Rheinland-Pfalz"}},{"name":"Kastanienweg","postalCode":"63916","locality":"Amorbach","municipality":{"key":"09676112","name":"Amorbach, St","type":"Stadt"},"district":{"key":"09676","name":"Miltenberg","type":"Landkreis"},"federalState":{"key":"09","name":"Bayern"}},{"name":"Kathrinches Weg","postalCode":"54497","locality":"Morbach","municipality":{"key":"07231502","name":"Morbach","type":"Kreisangehörige_Gemeinde"},"district":{"key":"07231","name":"Bernkastel-Wittlich","type":"Landkreis"},"federalState":{"key":"07","name":"Rheinland-Pfalz"}},{"name":"Kehlbergweg","postalCode":"63916","locality":"Amorbach","municipality":{"key":"09676112","name":"Amorbach, St","type":"Stadt"},"district":{"key":"09676","name":"Miltenberg","type":"Landkreis"},"federalState":{"key":"09","name":"Bayern"}},{"name":"Kellereigasse","postalCode":"63916","locality":"Amorbach","municipality":{"key":"09676112","name":"Amorbach, St","type":"Stadt"},"district":{"key":"09676","name":"Miltenberg","type":"Landkreis"},"federalState":{"key":"09","name":"Bayern"}},{"name":"Keltenstr.","postalCode":"54497","locality":"Morbach","municipality":{"key":"07231502","name":"Morbach","type":"Kreisangehörige_Gemeinde"},"district":{"key":"07231","name":"Bernkastel-Wittlich","type":"Landkreis"},"federalState":{"key":"07","name":"Rheinland-Pfalz"}},{"name":"Kippchesweg","postalCode":"54497","locality":"Morbach","municipality":{"key":"07231502","name":"Morbach","type":"Kreisangehörige_Gemeinde"},"district":{"key":"07231","name":"Bernkastel-Wittlich","type":"Landkreis"},"federalState":{"key":"07","name":"Rheinland-Pfalz"}},{"name":"Kirchplatz","postalCode":"63916","locality":"Amorbach","municipality":{"key":"09676112","name":"Amorbach, St","type":"Stadt"},"district":{"key":"09676","name":"Miltenberg","type":"Landkreis"},"federalState":{"key":"09","name":"Bayern"}},{"name":"Kirchstr.","postalCode":"54497","locality":"Morbach","municipality":{"key":"07231502","name":"Morbach","type":"Kreisangehörige_Gemeinde"},"district":{"key":"07231","name":"Bernkastel-Wittlich","type":"Landkreis"},"federalState":{"key":"07","name":"Rheinland-Pfalz"}},{"name":"Kirchwiese","postalCode":"54497","locality":"Morbach","municipality":{"key":"07231502","name":"Morbach","type":"Kreisangehörige_Gemeinde"},"district":{"key":"07231","name":"Bernkastel-Wittlich","type":"Landkreis"},"federalState":{"key":"07","name":"Rheinland-Pfalz"}},{"name":"Kirchzeller Str.","postalCode":"63916","locality":"Amorbach","municipality":{"key":"09676112","name":"Amorbach, St","type":"Stadt"},"district":{"key":"09676","name":"Miltenberg","type":"Landkreis"},"federalState":{"key":"09","name":"Bayern"}},{"name":"Kleeweg","postalCode":"54497","locality":"Morbach","municipality":{"key":"07231502","name":"Morbach","type":"Kreisangehörige_Gemeinde"},"district":{"key":"07231","name":"Bernkastel-Wittlich","type":"Landkreis"},"federalState":{"key":"07","name":"Rheinland-Pfalz"}},{"name":"Kleinicher Weg","postalCode":"54497","locality":"Morbach","municipality":{"key":"07231502","name":"Morbach","type":"Kreisangehörige_Gemeinde"},"district":{"key":"07231","name":"Bernkastel-Wittlich","type":"Landkreis"},"federalState":{"key":"07","name":"Rheinland-Pfalz"}},{"name":"Klostersteige","postalCode":"63916","locality":"Amorbach","municipality":{"key":"09676112","name":"Amorbach, St","type":"Stadt"},"district":{"key":"09676","name":"Miltenberg","type":"Landkreis"},"federalState":{"key":"09","name":"Bayern"}},{"name":"Klosterweg","postalCode":"54497","locality":"Morbach","municipality":{"key":"07231502","name":"Morbach","type":"Kreisangehörige_Gemeinde"},"district":{"key":"07231","name":"Bernkastel-Wittlich","type":"Landkreis"},"federalState":{"key":"07","name":"Rheinland-Pfalz"}},{"name":"Kommener Weg","postalCode":"54497","locality":"Morbach","municipality":{"key":"07231502","name":"Morbach","type":"Kreisangehörige_Gemeinde"},"district":{"key":"07231","name":"Bernkastel-Wittlich","type":"Landkreis"},"federalState":{"key":"07","name":"Rheinland-Pfalz"}},{"name":"Königsberger Str.","postalCode":"63916","locality":"Amorbach","municipality":{"key":"09676112","name":"Amorbach, St","type":"Stadt"},"district":{"key":"09676","name":"Miltenberg","type":"Landkreis"},"federalState":{"key":"09","name":"Bayern"}},{"name":"Kornblumenweg","postalCode":"54497","locality":"Morbach","municipality":{"key":"07231502","name":"Morbach","type":"Kreisangehörige_Gemeinde"},"district":{"key":"07231","name":"Bernkastel-Wittlich","type":"Landkreis"},"federalState":{"key":"07","name":"Rheinland-Pfalz"}},{"name":"Kreuzweg","postalCode":"54497","locality":"Morbach","municipality":{"key":"07231502","name":"Morbach","type":"Kreisangehörige_Gemeinde"},"district":{"key":"07231","name":"Bernkastel-Wittlich","type":"Landkreis"},"federalState":{"key":"07","name":"Rheinland-Pfalz"}},{"name":"Kunibertstr.","postalCode":"54497","locality":"Morbach","municipality":{"key":"07231502","name":"Morbach","type":"Kreisangehörige_Gemeinde"},"district":{"key":"07231","name":"Bernkastel-Wittlich","type":"Landkreis"},"federalState":{"key":"07","name":"Rheinland-Pfalz"}},{"name":"Kutscherweg","postalCode":"54497","locality":"Morbach","municipality":{"key":"07231502","name":"Morbach","type":"Kreisangehörige_Gemeinde"},"district":{"key":"07231","name":"Bernkastel-Wittlich","type":"Landkreis"},"federalState":{"key":"07","name":"Rheinland-Pfalz"}},{"name":"Landesweg","postalCode":"54497","locality":"Morbach","municipality":{"key":"07231502","name":"Morbach","type":"Kreisangehörige_Gemeinde"},"district":{"key":"07231","name":"Bernkastel-Wittlich","type":"Landkreis"},"federalState":{"key":"07","name":"Rheinland-Pfalz"}},{"name":"Langwiese","postalCode":"54497","locality":"Morbach","municipality":{"key":"07231502","name":"Morbach","type":"Kreisangehörige_Gemeinde"},"district":{"key":"07231","name":"Bernkastel-Wittlich","type":"Landkreis"},"federalState":{"key":"07","name":"Rheinland-Pfalz"}},{"name":"Laurentiusstr.","postalCode":"54497","locality":"Morbach","municipality":{"key":"07231502","name":"Morbach","type":"Kreisangehörige_Gemeinde"},"district":{"key":"07231","name":"Bernkastel-Wittlich","type":"Landkreis"},"federalState":{"key":"07","name":"Rheinland-Pfalz"}},{"name":"Leipziger Str.","postalCode":"63916","locality":"Amorbach","municipality":{"key":"09676112","name":"Amorbach, St","type":"Stadt"},"district":{"key":"09676","name":"Miltenberg","type":"Landkreis"},"federalState":{"key":"09","name":"Bayern"}},{"name":"Leisberg","postalCode":"54497","locality":"Morbach","municipality":{"key":"07231502","name":"Morbach","type":"Kreisangehörige_Gemeinde"},"district":{"key":"07231","name":"Bernkastel-Wittlich","type":"Landkreis"},"federalState":{"key":"07","name":"Rheinland-Pfalz"}},{"name":"Lerchenweg","postalCode":"54497","locality":"Morbach","municipality":{"key":"07231502","name":"Morbach","type":"Kreisangehörige_Gemeinde"},"district":{"key":"07231","name":"Bernkastel-Wittlich","type":"Landkreis"},"federalState":{"key":"07","name":"Rheinland-Pfalz"}},{"name":"Lessingstr.","postalCode":"54497","locality":"Morbach","municipality":{"key":"07231502","name":"Morbach","type":"Kreisangehörige_Gemeinde"},"district":{"key":"07231","name":"Bernkastel-Wittlich","type":"Landkreis"},"federalState":{"key":"07","name":"Rheinland-Pfalz"}},{"name":"Lindchesfeld","postalCode":"54497","locality":"Morbach","municipality":{"key":"07231502","name":"Morbach","type":"Kreisangehörige_Gemeinde"},"district":{"key":"07231","name":"Bernkastel-Wittlich","type":"Landkreis"},"federalState":{"key":"07","name":"Rheinland-Pfalz"}},{"name":"Lindenweg","postalCode":"54497","locality":"Morbach","municipality":{"key":"07231502","name":"Morbach","type":"Kreisangehörige_Gemeinde"},"district":{"key":"07231","name":"Bernkastel-Wittlich","type":"Landkreis"},"federalState":{"key":"07","name":"Rheinland-Pfalz"}},{"name":"Linienweg","postalCode":"63916","locality":"Amorbach","municipality":{"key":"09676112","name":"Amorbach, St","type":"Stadt"},"district":{"key":"09676","name":"Miltenberg","type":"Landkreis"},"federalState":{"key":"09","name":"Bayern"}},{"name":"Löhrstr.","postalCode":"63916","locality":"Amorbach","municipality":{"key":"09676112","name":"Amorbach, St","type":"Stadt"},"district":{"key":"09676","name":"Miltenberg","type":"Landkreis"},"federalState":{"key":"09","name":"Bayern"}},{"name":"Longkamper Weg","postalCode":"54497","locality":"Morbach","municipality":{"key":"07231502","name":"Morbach","type":"Kreisangehörige_Gemeinde"},"district":{"key":"07231","name":"Bernkastel-Wittlich","type":"Landkreis"},"federalState":{"key":"07","name":"Rheinland-Pfalz"}},{"name":"Marktplatz","postalCode":"63916","locality":"Amorbach","municipality":{"key":"09676112","name":"Amorbach, St","type":"Stadt"},"district":{"key":"09676","name":"Miltenberg","type":"Landkreis"},"federalState":{"key":"09","name":"Bayern"}},{"name":"Max-Planck Str.","postalCode":"63916","locality":"Amorbach","municipality":{"key":"09676112","name":"Amorbach, St","type":"Stadt"},"district":{"key":"09676","name":"Miltenberg","type":"Landkreis"},"federalState":{"key":"09","name":"Bayern"}},{"name":"Merscheider Str.","postalCode":"54497","locality":"Morbach","municipality":{"key":"07231502","name":"Morbach","type":"Kreisangehörige_Gemeinde"},"district":{"key":"07231","name":"Bernkastel-Wittlich","type":"Landkreis"},"federalState":{"key":"07","name":"Rheinland-Pfalz"}},{"name":"MIL8","postalCode":"63916","locality":"Amorbach","municipality":{"key":"09676112","name":"Amorbach, St","type":"Stadt"},"district":{"key":"09676","name":"Miltenberg","type":"Landkreis"},"federalState":{"key":"09","name":"Bayern"}},{"name":"Miltenberger Str.","postalCode":"63916","locality":"Amorbach","municipality":{"key":"09676112","name":"Amorbach, St","type":"Stadt"},"district":{"key":"09676","name":"Miltenberg","type":"Landkreis"},"federalState":{"key":"09","name":"Bayern"}},{"name":"Mittelweg","postalCode":"63916","locality":"Amorbach","municipality":{"key":"09676112","name":"Amorbach, St","type":"Stadt"},"district":{"key":"09676","name":"Miltenberg","type":"Landkreis"},"federalState":{"key":"09","name":"Bayern"}},{"name":"Molkereiweg","postalCode":"54497","locality":"Morbach","municipality":{"key":"07231502","name":"Morbach","type":"Kreisangehörige_Gemeinde"},"district":{"key":"07231","name":"Bernkastel-Wittlich","type":"Landkreis"},"federalState":{"key":"07","name":"Rheinland-Pfalz"}},{"name":"Monzelfelder Weg","postalCode":"54497","locality":"Morbach","municipality":{"key":"07231502","name":"Morbach","type":"Kreisangehörige_Gemeinde"},"district":{"key":"07231","name":"Bernkastel-Wittlich","type":"Landkreis"},"federalState":{"key":"07","name":"Rheinland-Pfalz"}},{"name":"Morbacher Str.","postalCode":"54497","locality":"Morbach","municipality":{"key":"07231502","name":"Morbach","type":"Kreisangehörige_Gemeinde"},"district":{"key":"07231","name":"Bernkastel-Wittlich","type":"Landkreis"},"federalState":{"key":"07","name":"Rheinland-Pfalz"}},{"name":"Mozartstr.","postalCode":"54497","locality":"Morbach","municipality":{"key":"07231502","name":"Morbach","type":"Kreisangehörige_Gemeinde"},"district":{"key":"07231","name":"Bernkastel-Wittlich","type":"Landkreis"},"federalState":{"key":"07","name":"Rheinland-Pfalz"}},{"name":"MTB Trail","postalCode":"54497","locality":"Morbach","municipality":{"key":"07231502","name":"Morbach","type":"Kreisangehörige_Gemeinde"},"district":{"key":"07231","name":"Bernkastel-Wittlich","type":"Landkreis"},"federalState":{"key":"07","name":"Rheinland-Pfalz"}},{"name":"Mühlentalweg","postalCode":"54497","locality":"Morbach","municipality":{"key":"07231502","name":"Morbach","type":"Kreisangehörige_Gemeinde"},"district":{"key":"07231","name":"Bernkastel-Wittlich","type":"Landkreis"},"federalState":{"key":"07","name":"Rheinland-Pfalz"}},{"name":"Mühlenweg","postalCode":"54497","locality":"Morbach","municipality":{"key":"07231502","name":"Morbach","type":"Kreisangehörige_Gemeinde"},"district":{"key":"07231","name":"Bernkastel-Wittlich","type":"Landkreis"},"federalState":{"key":"07","name":"Rheinland-Pfalz"}},{"name":"Mühlrain","postalCode":"63916","locality":"Amorbach","municipality":{"key":"09676112","name":"Amorbach, St","type":"Stadt"},"district":{"key":"09676","name":"Miltenberg","type":"Landkreis"},"federalState":{"key":"09","name":"Bayern"}},{"name":"Neudorf","postalCode":"63916","locality":"Amorbach","municipality":{"key":"09676112","name":"Amorbach, St","type":"Stadt"},"district":{"key":"09676","name":"Miltenberg","type":"Landkreis"},"federalState":{"key":"09","name":"Bayern"}},{"name":"Neudorfer Str.","postalCode":"63916","locality":"Amorbach","municipality":{"key":"09676112","name":"Amorbach, St","type":"Stadt"},"district":{"key":"09676","name":"Miltenberg","type":"Landkreis"},"federalState":{"key":"09","name":"Bayern"}},{"name":"Neustr.","postalCode":"54497","locality":"Morbach","municipality":{"key":"07231502","name":"Morbach","type":"Kreisangehörige_Gemeinde"},"district":{"key":"07231","name":"Bernkastel-Wittlich","type":"Landkreis"},"federalState":{"key":"07","name":"Rheinland-Pfalz"}},{"name":"Oberdorf","postalCode":"54497","locality":"Morbach","municipality":{"key":"07231502","name":"Morbach","type":"Kreisangehörige_Gemeinde"},"district":{"key":"07231","name":"Bernkastel-Wittlich","type":"Landkreis"},"federalState":{"key":"07","name":"Rheinland-Pfalz"}},{"name":"Oberer Bungert","postalCode":"54497","locality":"Morbach","municipality":{"key":"07231502","name":"Morbach","type":"Kreisangehörige_Gemeinde"},"district":{"key":"07231","name":"Bernkastel-Wittlich","type":"Landkreis"},"federalState":{"key":"07","name":"Rheinland-Pfalz"}},{"name":"Oberer Leisberg","postalCode":"54497","locality":"Morbach","municipality":{"key":"07231502","name":"Morbach","type":"Kreisangehörige_Gemeinde"},"district":{"key":"07231","name":"Bernkastel-Wittlich","type":"Landkreis"},"federalState":{"key":"07","name":"Rheinland-Pfalz"}},{"name":"Oligswiese","postalCode":"54497","locality":"Morbach","municipality":{"key":"07231502","name":"Morbach","type":"Kreisangehörige_Gemeinde"},"district":{"key":"07231","name":"Bernkastel-Wittlich","type":"Landkreis"},"federalState":{"key":"07","name":"Rheinland-Pfalz"}},{"name":"Palmenweg","postalCode":"63916","locality":"Amorbach","municipality":{"key":"09676112","name":"Amorbach, St","type":"Stadt"},"district":{"key":"09676","name":"Miltenberg","type":"Landkreis"},"federalState":{"key":"09","name":"Bayern"}},{"name":"Panoramastr.","postalCode":"63916","locality":"Amorbach","municipality":{"key":"09676112","name":"Amorbach, St","type":"Stadt"},"district":{"key":"09676","name":"Miltenberg","type":"Landkreis"},"federalState":{"key":"09","name":"Bayern"}},{"name":"Panoramaweg","postalCode":"54497","locality":"Morbach","municipality":{"key":"07231502","name":"Morbach","type":"Kreisangehörige_Gemeinde"},"district":{"key":"07231","name":"Bernkastel-Wittlich","type":"Landkreis"},"federalState":{"key":"07","name":"Rheinland-Pfalz"}},{"name":"Paulinusstr.","postalCode":"54497","locality":"Morbach","municipality":{"key":"07231502","name":"Morbach","type":"Kreisangehörige_Gemeinde"},"district":{"key":"07231","name":"Bernkastel-Wittlich","type":"Landkreis"},"federalState":{"key":"07","name":"Rheinland-Pfalz"}},{"name":"Peter-von-Wederath-Weg","postalCode":"54497","locality":"Morbach","municipality":{"key":"07231502","name":"Morbach","type":"Kreisangehörige_Gemeinde"},"district":{"key":"07231","name":"Bernkastel-Wittlich","type":"Landkreis"},"federalState":{"key":"07","name":"Rheinland-Pfalz"}},{"name":"Petrusstr.","postalCode":"54497","locality":"Morbach","municipality":{"key":"07231502","name":"Morbach","type":"Kreisangehörige_Gemeinde"},"district":{"key":"07231","name":"Bernkastel-Wittlich","type":"Landkreis"},"federalState":{"key":"07","name":"Rheinland-Pfalz"}},{"name":"Pfarrgasse","postalCode":"54497","locality":"Morbach","municipality":{"key":"07231502","name":"Morbach","type":"Kreisangehörige_Gemeinde"},"district":{"key":"07231","name":"Bernkastel-Wittlich","type":"Landkreis"},"federalState":{"key":"07","name":"Rheinland-Pfalz"}},{"name":"Philosophenweg","postalCode":"63916","locality":"Amorbach","municipality":{"key":"09676112","name":"Amorbach, St","type":"Stadt"},"district":{"key":"09676","name":"Miltenberg","type":"Landkreis"},"federalState":{"key":"09","name":"Bayern"}},{"name":"Prälat-Gräf-Str.","postalCode":"54497","locality":"Morbach","municipality":{"key":"07231502","name":"Morbach","type":"Kreisangehörige_Gemeinde"},"district":{"key":"07231","name":"Bernkastel-Wittlich","type":"Landkreis"},"federalState":{"key":"07","name":"Rheinland-Pfalz"}},{"name":"Raiffeisenstr.","postalCode":"54497","locality":"Morbach","municipality":{"key":"07231502","name":"Morbach","type":"Kreisangehörige_Gemeinde"},"district":{"key":"07231","name":"Bernkastel-Wittlich","type":"Landkreis"},"federalState":{"key":"07","name":"Rheinland-Pfalz"}},{"name":"Rapperather Str.","postalCode":"54497","locality":"Morbach","municipality":{"key":"07231502","name":"Morbach","type":"Kreisangehörige_Gemeinde"},"district":{"key":"07231","name":"Bernkastel-Wittlich","type":"Landkreis"},"federalState":{"key":"07","name":"Rheinland-Pfalz"}},{"name":"Reichartshausen","postalCode":"63916","locality":"Amorbach","municipality":{"key":"09676112","name":"Amorbach, St","type":"Stadt"},"district":{"key":"09676","name":"Miltenberg","type":"Landkreis"},"federalState":{"key":"09","name":"Bayern"}},{"name":"Reitergasse","postalCode":"54497","locality":"Morbach","municipality":{"key":"07231502","name":"Morbach","type":"Kreisangehörige_Gemeinde"},"district":{"key":"07231","name":"Bernkastel-Wittlich","type":"Landkreis"},"federalState":{"key":"07","name":"Rheinland-Pfalz"}},{"name":"Richterstr.","postalCode":"63916","locality":"Amorbach","municipality":{"key":"09676112","name":"Amorbach, St","type":"Stadt"},"district":{"key":"09676","name":"Miltenberg","type":"Landkreis"},"federalState":{"key":"09","name":"Bayern"}},{"name":"Riedenburg","postalCode":"54497","locality":"Morbach","municipality":{"key":"07231502","name":"Morbach","type":"Kreisangehörige_Gemeinde"},"district":{"key":"07231","name":"Bernkastel-Wittlich","type":"Landkreis"},"federalState":{"key":"07","name":"Rheinland-Pfalz"}},{"name":"Rifflerweg","postalCode":"63916","locality":"Amorbach","municipality":{"key":"09676112","name":"Amorbach, St","type":"Stadt"},"district":{"key":"09676","name":"Miltenberg","type":"Landkreis"},"federalState":{"key":"09","name":"Bayern"}},{"name":"Ringstr.","postalCode":"54497","locality":"Morbach","municipality":{"key":"07231502","name":"Morbach","type":"Kreisangehörige_Gemeinde"},"district":{"key":"07231","name":"Bernkastel-Wittlich","type":"Landkreis"},"federalState":{"key":"07","name":"Rheinland-Pfalz"}},{"name":"Rochusstr.","postalCode":"54497","locality":"Morbach","municipality":{"key":"07231502","name":"Morbach","type":"Kreisangehörige_Gemeinde"},"district":{"key":"07231","name":"Bernkastel-Wittlich","type":"Landkreis"},"federalState":{"key":"07","name":"Rheinland-Pfalz"}},{"name":"Römerstr.","postalCode":"54497","locality":"Morbach","municipality":{"key":"07231502","name":"Morbach","type":"Kreisangehörige_Gemeinde"},"district":{"key":"07231","name":"Bernkastel-Wittlich","type":"Landkreis"},"federalState":{"key":"07","name":"Rheinland-Pfalz"}},{"name":"Rosengarten","postalCode":"54497","locality":"Morbach","municipality":{"key":"07231502","name":"Morbach","type":"Kreisangehörige_Gemeinde"},"district":{"key":"07231","name":"Bernkastel-Wittlich","type":"Landkreis"},"federalState":{"key":"07","name":"Rheinland-Pfalz"}},{"name":"Roter Weg","postalCode":"54497","locality":"Morbach","municipality":{"key":"07231502","name":"Morbach","type":"Kreisangehörige_Gemeinde"},"district":{"key":"07231","name":"Bernkastel-Wittlich","type":"Landkreis"},"federalState":{"key":"07","name":"Rheinland-Pfalz"}},{"name":"Rundweg","postalCode":"63916","locality":"Amorbach","municipality":{"key":"09676112","name":"Amorbach, St","type":"Stadt"},"district":{"key":"09676","name":"Miltenberg","type":"Landkreis"},"federalState":{"key":"09","name":"Bayern"}},{"name":"Saarstr.","postalCode":"54497","locality":"Morbach","municipality":{"key":"07231502","name":"Morbach","type":"Kreisangehörige_Gemeinde"},"district":{"key":"07231","name":"Bernkastel-Wittlich","type":"Landkreis"},"federalState":{"key":"07","name":"Rheinland-Pfalz"}},{"name":"Salweide","postalCode":"54497","locality":"Morbach","municipality":{"key":"07231502","name":"Morbach","type":"Kreisangehörige_Gemeinde"},"district":{"key":"07231","name":"Bernkastel-Wittlich","type":"Landkreis"},"federalState":{"key":"07","name":"Rheinland-Pfalz"}},{"name":"Sandgasse","postalCode":"63916","locality":"Amorbach","municipality":{"key":"09676112","name":"Amorbach, St","type":"Stadt"},"district":{"key":"09676","name":"Miltenberg","type":"Landkreis"},"federalState":{"key":"09","name":"Bayern"}},{"name":"Sattelweg","postalCode":"63916","locality":"Amorbach","municipality":{"key":"09676112","name":"Amorbach, St","type":"Stadt"},"district":{"key":"09676","name":"Miltenberg","type":"Landkreis"},"federalState":{"key":"09","name":"Bayern"}},{"name":"Schenkgasse","postalCode":"63916","locality":"Amorbach","municipality":{"key":"09676112","name":"Amorbach, St","type":"Stadt"},"district":{"key":"09676","name":"Miltenberg","type":"Landkreis"},"federalState":{"key":"09","name":"Bayern"}},{"name":"Schloßplatz","postalCode":"63916","locality":"Amorbach","municipality":{"key":"09676112","name":"Amorbach, St","type":"Stadt"},"district":{"key":"09676","name":"Miltenberg","type":"Landkreis"},"federalState":{"key":"09","name":"Bayern"}},{"name":"Schmausemühle","postalCode":"54497","locality":"Morbach","municipality":{"key":"07231502","name":"Morbach","type":"Kreisangehörige_Gemeinde"},"district":{"key":"07231","name":"Bernkastel-Wittlich","type":"Landkreis"},"federalState":{"key":"07","name":"Rheinland-Pfalz"}},{"name":"Schmiedegasse","postalCode":"54497","locality":"Morbach","municipality":{"key":"07231502","name":"Morbach","type":"Kreisangehörige_Gemeinde"},"district":{"key":"07231","name":"Bernkastel-Wittlich","type":"Landkreis"},"federalState":{"key":"07","name":"Rheinland-Pfalz"}},{"name":"Schmiedsgasse","postalCode":"63916","locality":"Amorbach","municipality":{"key":"09676112","name":"Amorbach, St","type":"Stadt"},"district":{"key":"09676","name":"Miltenberg","type":"Landkreis"},"federalState":{"key":"09","name":"Bayern"}},{"name":"Schneeberger Str.","postalCode":"63916","locality":"Amorbach","municipality":{"key":"09676112","name":"Amorbach, St","type":"Stadt"},"district":{"key":"09676","name":"Miltenberg","type":"Landkreis"},"federalState":{"key":"09","name":"Bayern"}},{"name":"Schülerwiese","postalCode":"54497","locality":"Morbach","municipality":{"key":"07231502","name":"Morbach","type":"Kreisangehörige_Gemeinde"},"district":{"key":"07231","name":"Bernkastel-Wittlich","type":"Landkreis"},"federalState":{"key":"07","name":"Rheinland-Pfalz"}},{"name":"Schulgässchen","postalCode":"54497","locality":"Morbach","municipality":{"key":"07231502","name":"Morbach","type":"Kreisangehörige_Gemeinde"},"district":{"key":"07231","name":"Bernkastel-Wittlich","type":"Landkreis"},"federalState":{"key":"07","name":"Rheinland-Pfalz"}},{"name":"Schulstr.","postalCode":"54497","locality":"Morbach","municipality":{"key":"07231502","name":"Morbach","type":"Kreisangehörige_Gemeinde"},"district":{"key":"07231","name":"Bernkastel-Wittlich","type":"Landkreis"},"federalState":{"key":"07","name":"Rheinland-Pfalz"}},{"name":"Schüttstr.","postalCode":"63916","locality":"Amorbach","municipality":{"key":"09676112","name":"Amorbach, St","type":"Stadt"},"district":{"key":"09676","name":"Miltenberg","type":"Landkreis"},"federalState":{"key":"09","name":"Bayern"}},{"name":"Schützenweg","postalCode":"54497","locality":"Morbach","municipality":{"key":"07231502","name":"Morbach","type":"Kreisangehörige_Gemeinde"},"district":{"key":"07231","name":"Bernkastel-Wittlich","type":"Landkreis"},"federalState":{"key":"07","name":"Rheinland-Pfalz"}},{"name":"Seegarten","postalCode":"63916","locality":"Amorbach","municipality":{"key":"09676112","name":"Amorbach, St","type":"Stadt"},"district":{"key":"09676","name":"Miltenberg","type":"Landkreis"},"federalState":{"key":"09","name":"Bayern"}},{"name":"Senderblick","postalCode":"54497","locality":"Morbach","municipality":{"key":"07231502","name":"Morbach","type":"Kreisangehörige_Gemeinde"},"district":{"key":"07231","name":"Bernkastel-Wittlich","type":"Landkreis"},"federalState":{"key":"07","name":"Rheinland-Pfalz"}},{"name":"Sonnenstr.","postalCode":"54497","locality":"Morbach","municipality":{"key":"07231502","name":"Morbach","type":"Kreisangehörige_Gemeinde"},"district":{"key":"07231","name":"Bernkastel-Wittlich","type":"Landkreis"},"federalState":{"key":"07","name":"Rheinland-Pfalz"}},{"name":"St. Cuno","postalCode":"54497","locality":"Morbach","municipality":{"key":"07231502","name":"Morbach","type":"Kreisangehörige_Gemeinde"},"district":{"key":"07231","name":"Bernkastel-Wittlich","type":"Landkreis"},"federalState":{"key":"07","name":"Rheinland-Pfalz"}},{"name":"Stefan-Andres-Str.","postalCode":"54497","locality":"Morbach","municipality":{"key":"07231502","name":"Morbach","type":"Kreisangehörige_Gemeinde"},"district":{"key":"07231","name":"Bernkastel-Wittlich","type":"Landkreis"},"federalState":{"key":"07","name":"Rheinland-Pfalz"}},{"name":"Steinacker","postalCode":"54497","locality":"Morbach","municipality":{"key":"07231502","name":"Morbach","type":"Kreisangehörige_Gemeinde"},"district":{"key":"07231","name":"Bernkastel-Wittlich","type":"Landkreis"},"federalState":{"key":"07","name":"Rheinland-Pfalz"}},{"name":"Steinbruchweg","postalCode":"63916","locality":"Amorbach","municipality":{"key":"09676112","name":"Amorbach, St","type":"Stadt"},"district":{"key":"09676","name":"Miltenberg","type":"Landkreis"},"federalState":{"key":"09","name":"Bayern"}},{"name":"Steinerne Gasse","postalCode":"63916","locality":"Amorbach","municipality":{"key":"09676112","name":"Amorbach, St","type":"Stadt"},"district":{"key":"09676","name":"Miltenberg","type":"Landkreis"},"federalState":{"key":"09","name":"Bayern"}},{"name":"Steineweg","postalCode":"54497","locality":"Morbach","municipality":{"key":"07231502","name":"Morbach","type":"Kreisangehörige_Gemeinde"},"district":{"key":"07231","name":"Bernkastel-Wittlich","type":"Landkreis"},"federalState":{"key":"07","name":"Rheinland-Pfalz"}},{"name":"St.-Florian-Str.","postalCode":"54497","locality":"Morbach","municipality":{"key":"07231502","name":"Morbach","type":"Kreisangehörige_Gemeinde"},"district":{"key":"07231","name":"Bernkastel-Wittlich","type":"Landkreis"},"federalState":{"key":"07","name":"Rheinland-Pfalz"}},{"name":"St.-Georg-Weg","postalCode":"54497","locality":"Morbach","municipality":{"key":"07231502","name":"Morbach","type":"Kreisangehörige_Gemeinde"},"district":{"key":"07231","name":"Bernkastel-Wittlich","type":"Landkreis"},"federalState":{"key":"07","name":"Rheinland-Pfalz"}},{"name":"Striegelsbungert","postalCode":"54497","locality":"Morbach","municipality":{"key":"07231502","name":"Morbach","type":"Kreisangehörige_Gemeinde"},"district":{"key":"07231","name":"Bernkastel-Wittlich","type":"Landkreis"},"federalState":{"key":"07","name":"Rheinland-Pfalz"}},{"name":"Sudeten Str.","postalCode":"63916","locality":"Amorbach","municipality":{"key":"09676112","name":"Amorbach, St","type":"Stadt"},"district":{"key":"09676","name":"Miltenberg","type":"Landkreis"},"federalState":{"key":"09","name":"Bayern"}},{"name":"Talblick","postalCode":"54497","locality":"Morbach","municipality":{"key":"07231502","name":"Morbach","type":"Kreisangehörige_Gemeinde"},"district":{"key":"07231","name":"Bernkastel-Wittlich","type":"Landkreis"},"federalState":{"key":"07","name":"Rheinland-Pfalz"}},{"name":"Talgraben","postalCode":"63916","locality":"Amorbach","municipality":{"key":"09676112","name":"Amorbach, St","type":"Stadt"},"district":{"key":"09676","name":"Miltenberg","type":"Landkreis"},"federalState":{"key":"09","name":"Bayern"}},{"name":"Talweg","postalCode":"54497","locality":"Morbach","municipality":{"key":"07231502","name":"Morbach","type":"Kreisangehörige_Gemeinde"},"district":{"key":"07231","name":"Bernkastel-Wittlich","type":"Landkreis"},"federalState":{"key":"07","name":"Rheinland-Pfalz"}},{"name":"Talweg","postalCode":"63916","locality":"Amorbach","municipality":{"key":"09676112","name":"Amorbach, St","type":"Stadt"},"district":{"key":"09676","name":"Miltenberg","type":"Landkreis"},"federalState":{"key":"09","name":"Bayern"}},{"name":"Tannenweg","postalCode":"54497","locality":"Morbach","municipality":{"key":"07231502","name":"Morbach","type":"Kreisangehörige_Gemeinde"},"district":{"key":"07231","name":"Bernkastel-Wittlich","type":"Landkreis"},"federalState":{"key":"07","name":"Rheinland-Pfalz"}},{"name":"Tiefer Weg","postalCode":"63916","locality":"Amorbach","municipality":{"key":"09676112","name":"Amorbach, St","type":"Stadt"},"district":{"key":"09676","name":"Miltenberg","type":"Landkreis"},"federalState":{"key":"09","name":"Bayern"}},{"name":"Trarbacher Weg","postalCode":"54497","locality":"Morbach","municipality":{"key":"07231502","name":"Morbach","type":"Kreisangehörige_Gemeinde"},"district":{"key":"07231","name":"Bernkastel-Wittlich","type":"Landkreis"},"federalState":{"key":"07","name":"Rheinland-Pfalz"}},{"name":"Ulmenweg","postalCode":"54497","locality":"Morbach","municipality":{"key":"07231502","name":"Morbach","type":"Kreisangehörige_Gemeinde"},"district":{"key":"07231","name":"Bernkastel-Wittlich","type":"Landkreis"},"federalState":{"key":"07","name":"Rheinland-Pfalz"}},{"name":"Unter der Bilz","postalCode":"54497","locality":"Morbach","municipality":{"key":"07231502","name":"Morbach","type":"Kreisangehörige_Gemeinde"},"district":{"key":"07231","name":"Bernkastel-Wittlich","type":"Landkreis"},"federalState":{"key":"07","name":"Rheinland-Pfalz"}},{"name":"Unterer Markt","postalCode":"54497","locality":"Morbach","municipality":{"key":"07231502","name":"Morbach","type":"Kreisangehörige_Gemeinde"},"district":{"key":"07231","name":"Bernkastel-Wittlich","type":"Landkreis"},"federalState":{"key":"07","name":"Rheinland-Pfalz"}},{"name":"Unterm Klopp","postalCode":"54497","locality":"Morbach","municipality":{"key":"07231502","name":"Morbach","type":"Kreisangehörige_Gemeinde"},"district":{"key":"07231","name":"Bernkastel-Wittlich","type":"Landkreis"},"federalState":{"key":"07","name":"Rheinland-Pfalz"}},{"name":"Unterm Spielplatz","postalCode":"54497","locality":"Morbach","municipality":{"key":"07231502","name":"Morbach","type":"Kreisangehörige_Gemeinde"},"district":{"key":"07231","name":"Bernkastel-Wittlich","type":"Landkreis"},"federalState":{"key":"07","name":"Rheinland-Pfalz"}},{"name":"Valeriusstr.","postalCode":"54497","locality":"Morbach","municipality":{"key":"07231502","name":"Morbach","type":"Kreisangehörige_Gemeinde"},"district":{"key":"07231","name":"Bernkastel-Wittlich","type":"Landkreis"},"federalState":{"key":"07","name":"Rheinland-Pfalz"}},{"name":"Von-Gesner-Str.","postalCode":"54497","locality":"Morbach","municipality":{"key":"07231502","name":"Morbach","type":"Kreisangehörige_Gemeinde"},"district":{"key":"07231","name":"Bernkastel-Wittlich","type":"Landkreis"},"federalState":{"key":"07","name":"Rheinland-Pfalz"}},{"name":"Von-Ostein Allee","postalCode":"63916","locality":"Amorbach","municipality":{"key":"09676112","name":"Amorbach, St","type":"Stadt"},"district":{"key":"09676","name":"Miltenberg","type":"Landkreis"},"federalState":{"key":"09","name":"Bayern"}},{"name":"Von Stein Str.","postalCode":"63916","locality":"Amorbach","municipality":{"key":"09676112","name":"Amorbach, St","type":"Stadt"},"district":{"key":"09676","name":"Miltenberg","type":"Landkreis"},"federalState":{"key":"09","name":"Bayern"}},{"name":"Vor Dreifallen","postalCode":"54497","locality":"Morbach","municipality":{"key":"07231502","name":"Morbach","type":"Kreisangehörige_Gemeinde"},"district":{"key":"07231","name":"Bernkastel-Wittlich","type":"Landkreis"},"federalState":{"key":"07","name":"Rheinland-Pfalz"}},{"name":"Waldweg","postalCode":"54497","locality":"Morbach","municipality":{"key":"07231502","name":"Morbach","type":"Kreisangehörige_Gemeinde"},"district":{"key":"07231","name":"Bernkastel-Wittlich","type":"Landkreis"},"federalState":{"key":"07","name":"Rheinland-Pfalz"}},{"name":"Walholzer Weg","postalCode":"54497","locality":"Morbach","municipality":{"key":"07231502","name":"Morbach","type":"Kreisangehörige_Gemeinde"},"district":{"key":"07231","name":"Bernkastel-Wittlich","type":"Landkreis"},"federalState":{"key":"07","name":"Rheinland-Pfalz"}},{"name":"Wasumsweg","postalCode":"63916","locality":"Amorbach","municipality":{"key":"09676112","name":"Amorbach, St","type":"Stadt"},"district":{"key":"09676","name":"Miltenberg","type":"Landkreis"},"federalState":{"key":"09","name":"Bayern"}},{"name":"Wederather Weg","postalCode":"54497","locality":"Morbach","municipality":{"key":"07231502","name":"Morbach","type":"Kreisangehörige_Gemeinde"},"district":{"key":"07231","name":"Bernkastel-Wittlich","type":"Landkreis"},"federalState":{"key":"07","name":"Rheinland-Pfalz"}},{"name":"Weilbacher Str.","postalCode":"63916","locality":"Amorbach","municipality":{"key":"09676112","name":"Amorbach, St","type":"Stadt"},"district":{"key":"09676","name":"Miltenberg","type":"Landkreis"},"federalState":{"key":"09","name":"Bayern"}},{"name":"Weimarer Str.","postalCode":"63916","locality":"Amorbach","municipality":{"key":"09676112","name":"Amorbach, St","type":"Stadt"},"district":{"key":"09676","name":"Miltenberg","type":"Landkreis"},"federalState":{"key":"09","name":"Bayern"}},{"name":"Weiperath","postalCode":"54497","locality":"Morbach","municipality":{"key":"07231502","name":"Morbach","type":"Kreisangehörige_Gemeinde"},"district":{"key":"07231","name":"Bernkastel-Wittlich","type":"Landkreis"},"federalState":{"key":"07","name":"Rheinland-Pfalz"}},{"name":"Wendalinusgasse","postalCode":"54497","locality":"Morbach","municipality":{"key":"07231502","name":"Morbach","type":"Kreisangehörige_Gemeinde"},"district":{"key":"07231","name":"Bernkastel-Wittlich","type":"Landkreis"},"federalState":{"key":"07","name":"Rheinland-Pfalz"}},{"name":"Wendelinusstr.","postalCode":"54497","locality":"Morbach","municipality":{"key":"07231502","name":"Morbach","type":"Kreisangehörige_Gemeinde"},"district":{"key":"07231","name":"Bernkastel-Wittlich","type":"Landkreis"},"federalState":{"key":"07","name":"Rheinland-Pfalz"}},{"name":"Weschbach","postalCode":"54497","locality":"Morbach","municipality":{"key":"07231502","name":"Morbach","type":"Kreisangehörige_Gemeinde"},"district":{"key":"07231","name":"Bernkastel-Wittlich","type":"Landkreis"},"federalState":{"key":"07","name":"Rheinland-Pfalz"}},{"name":"Windstr.","postalCode":"54497","locality":"Morbach","municipality":{"key":"07231502","name":"Morbach","type":"Kreisangehörige_Gemeinde"},"district":{"key":"07231","name":"Bernkastel-Wittlich","type":"Landkreis"},"federalState":{"key":"07","name":"Rheinland-Pfalz"}},{"name":"WolframvVon-Eschenbach Str.","postalCode":"63916","locality":"Amorbach","municipality":{"key":"09676112","name":"Amorbach, St","type":"Stadt"},"district":{"key":"09676","name":"Miltenberg","type":"Landkreis"},"federalState":{"key":"09","name":"Bayern"}},{"name":"Wolkmannstr.","postalCode":"63916","locality":"Amorbach","municipality":{"key":"09676112","name":"Amorbach, St","type":"Stadt"},"district":{"key":"09676","name":"Miltenberg","type":"Landkreis"},"federalState":{"key":"09","name":"Bayern"}},{"name":"Würdtweinstr.","postalCode":"63916","locality":"Amorbach","municipality":{"key":"09676112","name":"Amorbach, St","type":"Stadt"},"district":{"key":"09676","name":"Miltenberg","type":"Landkreis"},"federalState":{"key":"09","name":"Bayern"}},{"name":"Zedernweg","postalCode":"54497","locality":"Morbach","municipality":{"key":"07231502","name":"Morbach","type":"Kreisangehörige_Gemeinde"},"district":{"key":"07231","name":"Bernkastel-Wittlich","type":"Landkreis"},"federalState":{"key":"07","name":"Rheinland-Pfalz"}},{"name":"Zuckerhügel","postalCode":"54497","locality":"Morbach","municipality":{"key":"07231502","name":"Morbach","type":"Kreisangehörige_Gemeinde"},"district":{"key":"07231","name":"Bernkastel-Wittlich","type":"Landkreis"},"federalState":{"key":"07","name":"Rheinland-Pfalz"}},{"name":"Zu den Gärten","postalCode":"54497","locality":"Morbach","municipality":{"key":"07231502","name":"Morbach","type":"Kreisangehörige_Gemeinde"},"district":{"key":"07231","name":"Bernkastel-Wittlich","type":"Landkreis"},"federalState":{"key":"07","name":"Rheinland-Pfalz"}},{"name":"Zu den Wacken","postalCode":"54497","locality":"Morbach","municipality":{"key":"07231502","name":"Morbach","type":"Kreisangehörige_Gemeinde"},"district":{"key":"07231","name":"Bernkastel-Wittlich","type":"Landkreis"},"federalState":{"key":"07","name":"Rheinland-Pfalz"}},{"name":"Zum Camping","postalCode":"54497","locality":"Morbach","municipality":{"key":"07231502","name":"Morbach","type":"Kreisangehörige_Gemeinde"},"district":{"key":"07231","name":"Bernkastel-Wittlich","type":"Landkreis"},"federalState":{"key":"07","name":"Rheinland-Pfalz"}},{"name":"Zum Dhrontal","postalCode":"54497","locality":"Morbach","municipality":{"key":"07231502","name":"Morbach","type":"Kreisangehörige_Gemeinde"},"district":{"key":"07231","name":"Bernkastel-Wittlich","type":"Landkreis"},"federalState":{"key":"07","name":"Rheinland-Pfalz"}},{"name":"Zum Dickesloch","postalCode":"54497","locality":"Morbach","municipality":{"key":"07231502","name":"Morbach","type":"Kreisangehörige_Gemeinde"},"district":{"key":"07231","name":"Bernkastel-Wittlich","type":"Landkreis"},"federalState":{"key":"07","name":"Rheinland-Pfalz"}},{"name":"Zum Fallgarten","postalCode":"54497","locality":"Morbach","municipality":{"key":"07231502","name":"Morbach","type":"Kreisangehörige_Gemeinde"},"district":{"key":"07231","name":"Bernkastel-Wittlich","type":"Landkreis"},"federalState":{"key":"07","name":"Rheinland-Pfalz"}},{"name":"Zum Hasbach","postalCode":"54497","locality":"Morbach","municipality":{"key":"07231502","name":"Morbach","type":"Kreisangehörige_Gemeinde"},"district":{"key":"07231","name":"Bernkastel-Wittlich","type":"Landkreis"},"federalState":{"key":"07","name":"Rheinland-Pfalz"}},{"name":"Zum Hegberg","postalCode":"54497","locality":"Morbach","municipality":{"key":"07231502","name":"Morbach","type":"Kreisangehörige_Gemeinde"},"district":{"key":"07231","name":"Bernkastel-Wittlich","type":"Landkreis"},"federalState":{"key":"07","name":"Rheinland-Pfalz"}},{"name":"Zum Höchst","postalCode":"54497","locality":"Morbach","municipality":{"key":"07231502","name":"Morbach","type":"Kreisangehörige_Gemeinde"},"district":{"key":"07231","name":"Bernkastel-Wittlich","type":"Landkreis"},"federalState":{"key":"07","name":"Rheinland-Pfalz"}},{"name":"Zum Kaisergarten","postalCode":"54497","locality":"Morbach","municipality":{"key":"07231502","name":"Morbach","type":"Kreisangehörige_Gemeinde"},"district":{"key":"07231","name":"Bernkastel-Wittlich","type":"Landkreis"},"federalState":{"key":"07","name":"Rheinland-Pfalz"}},{"name":"Zum Kapellchen","postalCode":"54497","locality":"Morbach","municipality":{"key":"07231502","name":"Morbach","type":"Kreisangehörige_Gemeinde"},"district":{"key":"07231","name":"Bernkastel-Wittlich","type":"Landkreis"},"federalState":{"key":"07","name":"Rheinland-Pfalz"}},{"name":"Zum Kendele","postalCode":"54497","locality":"Morbach","municipality":{"key":"07231502","name":"Morbach","type":"Kreisangehörige_Gemeinde"},"district":{"key":"07231","name":"Bernkastel-Wittlich","type":"Landkreis"},"federalState":{"key":"07","name":"Rheinland-Pfalz"}},{"name":"Zum Kleppchen","postalCode":"54497","locality":"Morbach","municipality":{"key":"07231502","name":"Morbach","type":"Kreisangehörige_Gemeinde"},"district":{"key":"07231","name":"Bernkastel-Wittlich","type":"Landkreis"},"federalState":{"key":"07","name":"Rheinland-Pfalz"}},{"name":"Zum Krummfuhr","postalCode":"54497","locality":"Morbach","municipality":{"key":"07231502","name":"Morbach","type":"Kreisangehörige_Gemeinde"},"district":{"key":"07231","name":"Bernkastel-Wittlich","type":"Landkreis"},"federalState":{"key":"07","name":"Rheinland-Pfalz"}},{"name":"Zum Mühlenteich","postalCode":"54497","locality":"Morbach","municipality":{"key":"07231502","name":"Morbach","type":"Kreisangehörige_Gemeinde"},"district":{"key":"07231","name":"Bernkastel-Wittlich","type":"Landkreis"},"federalState":{"key":"07","name":"Rheinland-Pfalz"}},{"name":"Zum Pickenrech","postalCode":"54497","locality":"Morbach","municipality":{"key":"07231502","name":"Morbach","type":"Kreisangehörige_Gemeinde"},"district":{"key":"07231","name":"Bernkastel-Wittlich","type":"Landkreis"},"federalState":{"key":"07","name":"Rheinland-Pfalz"}},{"name":"Zum Schackberg","postalCode":"54497","locality":"Morbach","municipality":{"key":"07231502","name":"Morbach","type":"Kreisangehörige_Gemeinde"},"district":{"key":"07231","name":"Bernkastel-Wittlich","type":"Landkreis"},"federalState":{"key":"07","name":"Rheinland-Pfalz"}},{"name":"Zum Schulgarten","postalCode":"54497","locality":"Morbach","municipality":{"key":"07231502","name":"Morbach","type":"Kreisangehörige_Gemeinde"},"district":{"key":"07231","name":"Bernkastel-Wittlich","type":"Landkreis"},"federalState":{"key":"07","name":"Rheinland-Pfalz"}},{"name":"Zum Soden","postalCode":"54497","locality":"Morbach","municipality":{"key":"07231502","name":"Morbach","type":"Kreisangehörige_Gemeinde"},"district":{"key":"07231","name":"Bernkastel-Wittlich","type":"Landkreis"},"federalState":{"key":"07","name":"Rheinland-Pfalz"}},{"name":"Zum Sportplatz","postalCode":"54497","locality":"Morbach","municipality":{"key":"07231502","name":"Morbach","type":"Kreisangehörige_Gemeinde"},"district":{"key":"07231","name":"Bernkastel-Wittlich","type":"Landkreis"},"federalState":{"key":"07","name":"Rheinland-Pfalz"}},{"name":"Zum Steimerich","postalCode":"54497","locality":"Morbach","municipality":{"key":"07231502","name":"Morbach","type":"Kreisangehörige_Gemeinde"},"district":{"key":"07231","name":"Bernkastel-Wittlich","type":"Landkreis"},"federalState":{"key":"07","name":"Rheinland-Pfalz"}},{"name":"Zum Strütchen","postalCode":"54497","locality":"Morbach","municipality":{"key":"07231502","name":"Morbach","type":"Kreisangehörige_Gemeinde"},"district":{"key":"07231","name":"Bernkastel-Wittlich","type":"Landkreis"},"federalState":{"key":"07","name":"Rheinland-Pfalz"}},{"name":"Zum Waldbach","postalCode":"54497","locality":"Morbach","municipality":{"key":"07231502","name":"Morbach","type":"Kreisangehörige_Gemeinde"},"district":{"key":"07231","name":"Bernkastel-Wittlich","type":"Landkreis"},"federalState":{"key":"07","name":"Rheinland-Pfalz"}},{"name":"Zum Wäldchen","postalCode":"54497","locality":"Morbach","municipality":{"key":"07231502","name":"Morbach","type":"Kreisangehörige_Gemeinde"},"district":{"key":"07231","name":"Bernkastel-Wittlich","type":"Landkreis"},"federalState":{"key":"07","name":"Rheinland-Pfalz"}},{"name":"Zum Wasen","postalCode":"54497","locality":"Morbach","municipality":{"key":"07231502","name":"Morbach","type":"Kreisangehörige_Gemeinde"},"district":{"key":"07231","name":"Bernkastel-Wittlich","type":"Landkreis"},"federalState":{"key":"07","name":"Rheinland-Pfalz"}},{"name":"Zum Weiher","postalCode":"54497","locality":"Morbach","municipality":{"key":"07231502","name":"Morbach","type":"Kreisangehörige_Gemeinde"},"district":{"key":"07231","name":"Bernkastel-Wittlich","type":"Landkreis"},"federalState":{"key":"07","name":"Rheinland-Pfalz"}},{"name":"Zum Wendehammer","postalCode":"54497","locality":"Morbach","municipality":{"key":"07231502","name":"Morbach","type":"Kreisangehörige_Gemeinde"},"district":{"key":"07231","name":"Bernkastel-Wittlich","type":"Landkreis"},"federalState":{"key":"07","name":"Rheinland-Pfalz"}},{"name":"Zur alten Mühle","postalCode":"54497","locality":"Morbach","municipality":{"key":"07231502","name":"Morbach","type":"Kreisangehörige_Gemeinde"},"district":{"key":"07231","name":"Bernkastel-Wittlich","type":"Landkreis"},"federalState":{"key":"07","name":"Rheinland-Pfalz"}},{"name":"Zur Baldenau","postalCode":"54497","locality":"Morbach","municipality":{"key":"07231502","name":"Morbach","type":"Kreisangehörige_Gemeinde"},"district":{"key":"07231","name":"Bernkastel-Wittlich","type":"Landkreis"},"federalState":{"key":"07","name":"Rheinland-Pfalz"}},{"name":"Zur Flürchen","postalCode":"54497","locality":"Morbach","municipality":{"key":"07231502","name":"Morbach","type":"Kreisangehörige_Gemeinde"},"district":{"key":"07231","name":"Bernkastel-Wittlich","type":"Landkreis"},"federalState":{"key":"07","name":"Rheinland-Pfalz"}},{"name":"Zur Hochgerichtsheide","postalCode":"54497","locality":"Morbach","municipality":{"key":"07231502","name":"Morbach","type":"Kreisangehörige_Gemeinde"},"district":{"key":"07231","name":"Bernkastel-Wittlich","type":"Landkreis"},"federalState":{"key":"07","name":"Rheinland-Pfalz"}},{"name":"Zur Hohscheid","postalCode":"54497","locality":"Morbach","municipality":{"key":"07231502","name":"Morbach","type":"Kreisangehörige_Gemeinde"},"district":{"key":"07231","name":"Bernkastel-Wittlich","type":"Landkreis"},"federalState":{"key":"07","name":"Rheinland-Pfalz"}},{"name":"Zur Keltenrast","postalCode":"54497","locality":"Morbach","municipality":{"key":"07231502","name":"Morbach","type":"Kreisangehörige_Gemeinde"},"district":{"key":"07231","name":"Bernkastel-Wittlich","type":"Landkreis"},"federalState":{"key":"07","name":"Rheinland-Pfalz"}},{"name":"Zur Kordel","postalCode":"54497","locality":"Morbach","municipality":{"key":"07231502","name":"Morbach","type":"Kreisangehörige_Gemeinde"},"district":{"key":"07231","name":"Bernkastel-Wittlich","type":"Landkreis"},"federalState":{"key":"07","name":"Rheinland-Pfalz"}},{"name":"Zur Lay","postalCode":"54497","locality":"Morbach","municipality":{"key":"07231502","name":"Morbach","type":"Kreisangehörige_Gemeinde"},"district":{"key":"07231","name":"Bernkastel-Wittlich","type":"Landkreis"},"federalState":{"key":"07","name":"Rheinland-Pfalz"}},{"name":"Zur Rau","postalCode":"54497","locality":"Morbach","municipality":{"key":"07231502","name":"Morbach","type":"Kreisangehörige_Gemeinde"},"district":{"key":"07231","name":"Bernkastel-Wittlich","type":"Landkreis"},"federalState":{"key":"07","name":"Rheinland-Pfalz"}},{"name":"Zur Schorr","postalCode":"54497","locality":"Morbach","municipality":{"key":"07231502","name":"Morbach","type":"Kreisangehörige_Gemeinde"},"district":{"key":"07231","name":"Bernkastel-Wittlich","type":"Landkreis"},"federalState":{"key":"07","name":"Rheinland-Pfalz"}},{"name":"Zur Sonne","postalCode":"54497","locality":"Morbach","municipality":{"key":"07231502","name":"Morbach","type":"Kreisangehörige_Gemeinde"},"district":{"key":"07231","name":"Bernkastel-Wittlich","type":"Landkreis"},"federalState":{"key":"07","name":"Rheinland-Pfalz"}},{"name":"Zur Träf","postalCode":"54497","locality":"Morbach","municipality":{"key":"07231502","name":"Morbach","type":"Kreisangehörige_Gemeinde"},"district":{"key":"07231","name":"Bernkastel-Wittlich","type":"Landkreis"},"federalState":{"key":"07","name":"Rheinland-Pfalz"}},]