[{"key":"10129997","name":"Contrada Busi","postalCode":"6816","locality":"Bissone","commune":{"key":"5154","name":"Bissone","shortName":"Bissone"},"district":{"key":"2105","name":"Distretto di Lugano"},"canton":{"key":"21","code":"TI","name":"Ticino"},"status":"Real"},{"key":"10129998","name":"Contrada Gaggini","postalCode":"6816","locality":"Bissone","commune":{"key":"5154","name":"Bissone","shortName":"Bissone"},"district":{"key":"2105","name":"Distretto di Lugano"},"canton":{"key":"21","code":"TI","name":"Ticino"},"status":"Real"},{"key":"10129999","name":"Contrada Garovaglio","postalCode":"6816","locality":"Bissone","commune":{"key":"5154","name":"Bissone","shortName":"Bissone"},"district":{"key":"2105","name":"Distretto di Lugano"},"canton":{"key":"21","code":"TI","name":"Ticino"},"status":"Real"},{"key":"10130000","name":"Contrada Maderni","postalCode":"6816","locality":"Bissone","commune":{"key":"5154","name":"Bissone","shortName":"Bissone"},"district":{"key":"2105","name":"Distretto di Lugano"},"canton":{"key":"21","code":"TI","name":"Ticino"},"status":"Real"},{"key":"10130001","name":"Contrada Mazzetti","postalCode":"6816","locality":"Bissone","commune":{"key":"5154","name":"Bissone","shortName":"Bissone"},"district":{"key":"2105","name":"Distretto di Lugano"},"canton":{"key":"21","code":"TI","name":"Ticino"},"status":"Real"},{"key":"10130002","name":"Contrada Paolo Veronese","postalCode":"6816","locality":"Bissone","commune":{"key":"5154","name":"Bissone","shortName":"Bissone"},"district":{"key":"2105","name":"Distretto di Lugano"},"canton":{"key":"21","code":"TI","name":"Ticino"},"status":"Real"},{"key":"10130003","name":"Contrada Somaini","postalCode":"6816","locality":"Bissone","commune":{"key":"5154","name":"Bissone","shortName":"Bissone"},"district":{"key":"2105","name":"Distretto di Lugano"},"canton":{"key":"21","code":"TI","name":"Ticino"},"status":"Real"},{"key":"10130004","name":"Contrada Tencalla","postalCode":"6816","locality":"Bissone","commune":{"key":"5154","name":"Bissone","shortName":"Bissone"},"district":{"key":"2105","name":"Distretto di Lugano"},"canton":{"key":"21","code":"TI","name":"Ticino"},"status":"Real"},{"key":"10130005","name":"Gradinata al Fontanino","postalCode":"6816","locality":"Bissone","commune":{"key":"5154","name":"Bissone","shortName":"Bissone"},"district":{"key":"2105","name":"Distretto di Lugano"},"canton":{"key":"21","code":"TI","name":"Ticino"},"status":"Real"},{"key":"10130006","name":"Gradinata Ova Drizza","postalCode":"6816","locality":"Bissone","commune":{"key":"5154","name":"Bissone","shortName":"Bissone"},"district":{"key":"2105","name":"Distretto di Lugano"},"canton":{"key":"21","code":"TI","name":"Ticino"},"status":"Real"},{"key":"10130007","name":"Gradinata San Giuseppe","postalCode":"6816","locality":"Bissone","commune":{"key":"5154","name":"Bissone","shortName":"Bissone"},"district":{"key":"2105","name":"Distretto di Lugano"},"canton":{"key":"21","code":"TI","name":"Ticino"},"status":"Real"},{"key":"10130008","name":"Piazza Francesco Borromini","postalCode":"6816","locality":"Bissone","commune":{"key":"5154","name":"Bissone","shortName":"Bissone"},"district":{"key":"2105","name":"Distretto di Lugano"},"canton":{"key":"21","code":"TI","name":"Ticino"},"status":"Real"},{"key":"10130009","name":"Piazza Franco Zorzi","postalCode":"6816","locality":"Bissone","commune":{"key":"5154","name":"Bissone","shortName":"Bissone"},"district":{"key":"2105","name":"Distretto di Lugano"},"canton":{"key":"21","code":"TI","name":"Ticino"},"status":"Real"},{"key":"10130286","name":"Via ai Ronchi","postalCode":"6816","locality":"Bissone","commune":{"key":"5154","name":"Bissone","shortName":"Bissone"},"district":{"key":"2105","name":"Distretto di Lugano"},"canton":{"key":"21","code":"TI","name":"Ticino"},"status":"Real"},{"key":"10130287","name":"Via Arogno","postalCode":"6816","locality":"Bissone","commune":{"key":"5154","name":"Bissone","shortName":"Bissone"},"district":{"key":"2105","name":"Distretto di Lugano"},"canton":{"key":"21","code":"TI","name":"Ticino"},"status":"Real"},{"key":"10130288","name":"Via Campione","postalCode":"6816","locality":"Bissone","commune":{"key":"5154","name":"Bissone","shortName":"Bissone"},"district":{"key":"2105","name":"Distretto di Lugano"},"canton":{"key":"21","code":"TI","name":"Ticino"},"status":"Real"},{"key":"10130289","name":"Via Collina","postalCode":"6816","locality":"Bissone","commune":{"key":"5154","name":"Bissone","shortName":"Bissone"},"district":{"key":"2105","name":"Distretto di Lugano"},"canton":{"key":"21","code":"TI","name":"Ticino"},"status":"Real"},{"key":"10130290","name":"Via Maroggia","postalCode":"6816","locality":"Bissone","commune":{"key":"5154","name":"Bissone","shortName":"Bissone"},"district":{"key":"2105","name":"Distretto di Lugano"},"canton":{"key":"21","code":"TI","name":"Ticino"},"status":"Real"},{"key":"10130291","name":"Via Peraa","postalCode":"6816","locality":"Bissone","commune":{"key":"5154","name":"Bissone","shortName":"Bissone"},"district":{"key":"2105","name":"Distretto di Lugano"},"canton":{"key":"21","code":"TI","name":"Ticino"},"status":"Real"},{"key":"10130292","name":"Via San Nicolao","postalCode":"6816","locality":"Bissone","commune":{"key":"5154","name":"Bissone","shortName":"Bissone"},"district":{"key":"2105","name":"Distretto di Lugano"},"canton":{"key":"21","code":"TI","name":"Ticino"},"status":"Real"},{"key":"10130293","name":"Via Tre Sassi","postalCode":"6816","locality":"Bissone","commune":{"key":"5154","name":"Bissone","shortName":"Bissone"},"district":{"key":"2105","name":"Distretto di Lugano"},"canton":{"key":"21","code":"TI","name":"Ticino"},"status":"Real"},{"key":"10130294","name":"Vicolo Maderno","postalCode":"6816","locality":"Bissone","commune":{"key":"5154","name":"Bissone","shortName":"Bissone"},"district":{"key":"2105","name":"Distretto di Lugano"},"canton":{"key":"21","code":"TI","name":"Ticino"},"status":"Real"},]