[{"name":"Altes Torfredder","postalCode":"23863","locality":"Nienwohld","municipality":{"key":"01062051","name":"Nienwohld","type":"Kreisangehörige_Gemeinde"},"district":{"key":"01062","name":"Stormarn","type":"Kreis"},"federalState":{"key":"01","name":"Schleswig-Holstein"}},{"name":"Dorfstr.","postalCode":"23863","locality":"Nienwohld","municipality":{"key":"01062051","name":"Nienwohld","type":"Kreisangehörige_Gemeinde"},"district":{"key":"01062","name":"Stormarn","type":"Kreis"},"federalState":{"key":"01","name":"Schleswig-Holstein"}},{"name":"Honbrook","postalCode":"23863","locality":"Nienwohld","municipality":{"key":"01062051","name":"Nienwohld","type":"Kreisangehörige_Gemeinde"},"district":{"key":"01062","name":"Stormarn","type":"Kreis"},"federalState":{"key":"01","name":"Schleswig-Holstein"}},{"name":"Moorweg","postalCode":"23863","locality":"Nienwohld","municipality":{"key":"01062051","name":"Nienwohld","type":"Kreisangehörige_Gemeinde"},"district":{"key":"01062","name":"Stormarn","type":"Kreis"},"federalState":{"key":"01","name":"Schleswig-Holstein"}},{"name":"Nienwohlder Str.","postalCode":"23863","locality":"Nienwohld","municipality":{"key":"01062051","name":"Nienwohld","type":"Kreisangehörige_Gemeinde"},"district":{"key":"01062","name":"Stormarn","type":"Kreis"},"federalState":{"key":"01","name":"Schleswig-Holstein"}},{"name":"Rögen","postalCode":"23863","locality":"Nienwohld","municipality":{"key":"01062051","name":"Nienwohld","type":"Kreisangehörige_Gemeinde"},"district":{"key":"01062","name":"Stormarn","type":"Kreis"},"federalState":{"key":"01","name":"Schleswig-Holstein"}},{"name":"Schulstr.","postalCode":"23863","locality":"Nienwohld","municipality":{"key":"01062051","name":"Nienwohld","type":"Kreisangehörige_Gemeinde"},"district":{"key":"01062","name":"Stormarn","type":"Kreis"},"federalState":{"key":"01","name":"Schleswig-Holstein"}},{"name":"Siedlung","postalCode":"23863","locality":"Nienwohld","municipality":{"key":"01062051","name":"Nienwohld","type":"Kreisangehörige_Gemeinde"},"district":{"key":"01062","name":"Stormarn","type":"Kreis"},"federalState":{"key":"01","name":"Schleswig-Holstein"}},{"name":"Trift","postalCode":"23863","locality":"Nienwohld","municipality":{"key":"01062051","name":"Nienwohld","type":"Kreisangehörige_Gemeinde"},"district":{"key":"01062","name":"Stormarn","type":"Kreis"},"federalState":{"key":"01","name":"Schleswig-Holstein"}},{"name":"Wiesenweg","postalCode":"23863","locality":"Nienwohld","municipality":{"key":"01062051","name":"Nienwohld","type":"Kreisangehörige_Gemeinde"},"district":{"key":"01062","name":"Stormarn","type":"Kreis"},"federalState":{"key":"01","name":"Schleswig-Holstein"}},]