[{"name":"Alsenzstr.","postalCode":"67808","locality":"Schweisweiler","municipality":{"key":"07333069","name":"Schweisweiler","type":"Kreisangehörige_Gemeinde"},"district":{"key":"07333","name":"Donnersbergkreis","type":"Landkreis"},"federalState":{"key":"07","name":"Rheinland-Pfalz"}},{"name":"Am Schinnkopp","postalCode":"67808","locality":"Schweisweiler","municipality":{"key":"07333069","name":"Schweisweiler","type":"Kreisangehörige_Gemeinde"},"district":{"key":"07333","name":"Donnersbergkreis","type":"Landkreis"},"federalState":{"key":"07","name":"Rheinland-Pfalz"}},{"name":"Am Wintersberg","postalCode":"67808","locality":"Schweisweiler","municipality":{"key":"07333069","name":"Schweisweiler","type":"Kreisangehörige_Gemeinde"},"district":{"key":"07333","name":"Donnersbergkreis","type":"Landkreis"},"federalState":{"key":"07","name":"Rheinland-Pfalz"}},{"name":"Am Zeilgraben","postalCode":"67808","locality":"Schweisweiler","municipality":{"key":"07333069","name":"Schweisweiler","type":"Kreisangehörige_Gemeinde"},"district":{"key":"07333","name":"Donnersbergkreis","type":"Landkreis"},"federalState":{"key":"07","name":"Rheinland-Pfalz"}},{"name":"Damm","postalCode":"67808","locality":"Schweisweiler","municipality":{"key":"07333069","name":"Schweisweiler","type":"Kreisangehörige_Gemeinde"},"district":{"key":"07333","name":"Donnersbergkreis","type":"Landkreis"},"federalState":{"key":"07","name":"Rheinland-Pfalz"}},{"name":"Hinnergass","postalCode":"67808","locality":"Schweisweiler","municipality":{"key":"07333069","name":"Schweisweiler","type":"Kreisangehörige_Gemeinde"},"district":{"key":"07333","name":"Donnersbergkreis","type":"Landkreis"},"federalState":{"key":"07","name":"Rheinland-Pfalz"}},{"name":"Hofstr.","postalCode":"67808","locality":"Schweisweiler","municipality":{"key":"07333069","name":"Schweisweiler","type":"Kreisangehörige_Gemeinde"},"district":{"key":"07333","name":"Donnersbergkreis","type":"Landkreis"},"federalState":{"key":"07","name":"Rheinland-Pfalz"}},{"name":"Kirchstr.","postalCode":"67808","locality":"Schweisweiler","municipality":{"key":"07333069","name":"Schweisweiler","type":"Kreisangehörige_Gemeinde"},"district":{"key":"07333","name":"Donnersbergkreis","type":"Landkreis"},"federalState":{"key":"07","name":"Rheinland-Pfalz"}},{"name":"L 392","postalCode":"67722","locality":"Schweisweiler","municipality":{"key":"07333069","name":"Schweisweiler","type":"Kreisangehörige_Gemeinde"},"district":{"key":"07333","name":"Donnersbergkreis","type":"Landkreis"},"federalState":{"key":"07","name":"Rheinland-Pfalz"}},{"name":"Ortsstr.","postalCode":"67808","locality":"Schweisweiler","municipality":{"key":"07333069","name":"Schweisweiler","type":"Kreisangehörige_Gemeinde"},"district":{"key":"07333","name":"Donnersbergkreis","type":"Landkreis"},"federalState":{"key":"07","name":"Rheinland-Pfalz"}},]