[{"name":"Ahornstr.","postalCode":"17358","locality":"Torgelow","municipality":{"key":"13075131","name":"Torgelow, Stadt","type":"Stadt"},"district":{"key":"13075","name":"Vorpommern-Greifswald","type":"Landkreis"},"federalState":{"key":"13","name":"Mecklenburg-Vorpommern"}},{"name":"Albert-Einstein-Str.","postalCode":"17358","locality":"Torgelow","municipality":{"key":"13075131","name":"Torgelow, Stadt","type":"Stadt"},"district":{"key":"13075","name":"Vorpommern-Greifswald","type":"Landkreis"},"federalState":{"key":"13","name":"Mecklenburg-Vorpommern"}},{"name":"Alte Panzerstr.","postalCode":"17358","locality":"Torgelow","municipality":{"key":"13075131","name":"Torgelow, Stadt","type":"Stadt"},"district":{"key":"13075","name":"Vorpommern-Greifswald","type":"Landkreis"},"federalState":{"key":"13","name":"Mecklenburg-Vorpommern"}},{"name":"Am Schützenwald","postalCode":"17358","locality":"Torgelow","municipality":{"key":"13075131","name":"Torgelow, Stadt","type":"Stadt"},"district":{"key":"13075","name":"Vorpommern-Greifswald","type":"Landkreis"},"federalState":{"key":"13","name":"Mecklenburg-Vorpommern"}},{"name":"Am Seeufer","postalCode":"17192","locality":"Torgelow am See","municipality":{"key":"13071144","name":"Torgelow am See","type":"Kreisangehörige_Gemeinde"},"district":{"key":"13071","name":"Mecklenburgische Seenplatte","type":"Landkreis"},"federalState":{"key":"13","name":"Mecklenburg-Vorpommern"}},{"name":"Am Tanger","postalCode":"17358","locality":"Torgelow","municipality":{"key":"13075131","name":"Torgelow, Stadt","type":"Stadt"},"district":{"key":"13075","name":"Vorpommern-Greifswald","type":"Landkreis"},"federalState":{"key":"13","name":"Mecklenburg-Vorpommern"}},{"name":"Am Ueckerbogen","postalCode":"17358","locality":"Torgelow","municipality":{"key":"13075131","name":"Torgelow, Stadt","type":"Stadt"},"district":{"key":"13075","name":"Vorpommern-Greifswald","type":"Landkreis"},"federalState":{"key":"13","name":"Mecklenburg-Vorpommern"}},{"name":"An der Pfarrei","postalCode":"17358","locality":"Torgelow","municipality":{"key":"13075131","name":"Torgelow, Stadt","type":"Stadt"},"district":{"key":"13075","name":"Vorpommern-Greifswald","type":"Landkreis"},"federalState":{"key":"13","name":"Mecklenburg-Vorpommern"}},{"name":"Anklamer Str.","postalCode":"17358","locality":"Torgelow","municipality":{"key":"13075131","name":"Torgelow, Stadt","type":"Stadt"},"district":{"key":"13075","name":"Vorpommern-Greifswald","type":"Landkreis"},"federalState":{"key":"13","name":"Mecklenburg-Vorpommern"}},{"name":"Ascherslebener Weg","postalCode":"17358","locality":"Torgelow","municipality":{"key":"13075131","name":"Torgelow, Stadt","type":"Stadt"},"district":{"key":"13075","name":"Vorpommern-Greifswald","type":"Landkreis"},"federalState":{"key":"13","name":"Mecklenburg-Vorpommern"}},{"name":"August-Bebel-Str.","postalCode":"17358","locality":"Torgelow","municipality":{"key":"13075131","name":"Torgelow, Stadt","type":"Stadt"},"district":{"key":"13075","name":"Vorpommern-Greifswald","type":"Landkreis"},"federalState":{"key":"13","name":"Mecklenburg-Vorpommern"}},{"name":"B192","postalCode":"17192","locality":"Torgelow am See","municipality":{"key":"13071144","name":"Torgelow am See","type":"Kreisangehörige_Gemeinde"},"district":{"key":"13071","name":"Mecklenburgische Seenplatte","type":"Landkreis"},"federalState":{"key":"13","name":"Mecklenburg-Vorpommern"}},{"name":"Backofenstr.","postalCode":"17192","locality":"Torgelow am See","municipality":{"key":"13071144","name":"Torgelow am See","type":"Kreisangehörige_Gemeinde"},"district":{"key":"13071","name":"Mecklenburgische Seenplatte","type":"Landkreis"},"federalState":{"key":"13","name":"Mecklenburg-Vorpommern"}},{"name":"Bahnhofstr.","postalCode":"17358","locality":"Torgelow","municipality":{"key":"13075131","name":"Torgelow, Stadt","type":"Stadt"},"district":{"key":"13075","name":"Vorpommern-Greifswald","type":"Landkreis"},"federalState":{"key":"13","name":"Mecklenburg-Vorpommern"}},{"name":"Beethovenstr.","postalCode":"17358","locality":"Torgelow","municipality":{"key":"13075131","name":"Torgelow, Stadt","type":"Stadt"},"district":{"key":"13075","name":"Vorpommern-Greifswald","type":"Landkreis"},"federalState":{"key":"13","name":"Mecklenburg-Vorpommern"}},{"name":"Blumenthaler Str.","postalCode":"17358","locality":"Torgelow","municipality":{"key":"13075131","name":"Torgelow, Stadt","type":"Stadt"},"district":{"key":"13075","name":"Vorpommern-Greifswald","type":"Landkreis"},"federalState":{"key":"13","name":"Mecklenburg-Vorpommern"}},{"name":"Blumenthaler Str. Ausbau","postalCode":"17358","locality":"Torgelow","municipality":{"key":"13075131","name":"Torgelow, Stadt","type":"Stadt"},"district":{"key":"13075","name":"Vorpommern-Greifswald","type":"Landkreis"},"federalState":{"key":"13","name":"Mecklenburg-Vorpommern"}},{"name":"Borkenstr.","postalCode":"17358","locality":"Torgelow","municipality":{"key":"13075131","name":"Torgelow, Stadt","type":"Stadt"},"district":{"key":"13075","name":"Vorpommern-Greifswald","type":"Landkreis"},"federalState":{"key":"13","name":"Mecklenburg-Vorpommern"}},{"name":"Brahmsstr.","postalCode":"17358","locality":"Torgelow","municipality":{"key":"13075131","name":"Torgelow, Stadt","type":"Stadt"},"district":{"key":"13075","name":"Vorpommern-Greifswald","type":"Landkreis"},"federalState":{"key":"13","name":"Mecklenburg-Vorpommern"}},{"name":"Breite Str.","postalCode":"17358","locality":"Torgelow","municipality":{"key":"13075131","name":"Torgelow, Stadt","type":"Stadt"},"district":{"key":"13075","name":"Vorpommern-Greifswald","type":"Landkreis"},"federalState":{"key":"13","name":"Mecklenburg-Vorpommern"}},{"name":"Buchenstr.","postalCode":"17358","locality":"Torgelow","municipality":{"key":"13075131","name":"Torgelow, Stadt","type":"Stadt"},"district":{"key":"13075","name":"Vorpommern-Greifswald","type":"Landkreis"},"federalState":{"key":"13","name":"Mecklenburg-Vorpommern"}},{"name":"Büdnerstr.","postalCode":"17358","locality":"Torgelow","municipality":{"key":"13075131","name":"Torgelow, Stadt","type":"Stadt"},"district":{"key":"13075","name":"Vorpommern-Greifswald","type":"Landkreis"},"federalState":{"key":"13","name":"Mecklenburg-Vorpommern"}},{"name":"Chopinstr.","postalCode":"17358","locality":"Torgelow","municipality":{"key":"13075131","name":"Torgelow, Stadt","type":"Stadt"},"district":{"key":"13075","name":"Vorpommern-Greifswald","type":"Landkreis"},"federalState":{"key":"13","name":"Mecklenburg-Vorpommern"}},{"name":"Dorfstr.","postalCode":"17192","locality":"Torgelow am See","municipality":{"key":"13071144","name":"Torgelow am See","type":"Kreisangehörige_Gemeinde"},"district":{"key":"13071","name":"Mecklenburgische Seenplatte","type":"Landkreis"},"federalState":{"key":"13","name":"Mecklenburg-Vorpommern"}},{"name":"Dornberginsel","postalCode":"17358","locality":"Torgelow","municipality":{"key":"13075131","name":"Torgelow, Stadt","type":"Stadt"},"district":{"key":"13075","name":"Vorpommern-Greifswald","type":"Landkreis"},"federalState":{"key":"13","name":"Mecklenburg-Vorpommern"}},{"name":"Dornbergstr.","postalCode":"17358","locality":"Torgelow","municipality":{"key":"13075131","name":"Torgelow, Stadt","type":"Stadt"},"district":{"key":"13075","name":"Vorpommern-Greifswald","type":"Landkreis"},"federalState":{"key":"13","name":"Mecklenburg-Vorpommern"}},{"name":"Dr.-Salvador-Allende-Siedlung","postalCode":"17358","locality":"Torgelow","municipality":{"key":"13075131","name":"Torgelow, Stadt","type":"Stadt"},"district":{"key":"13075","name":"Vorpommern-Greifswald","type":"Landkreis"},"federalState":{"key":"13","name":"Mecklenburg-Vorpommern"}},{"name":"Eggesiner Str.","postalCode":"17358","locality":"Torgelow","municipality":{"key":"13075131","name":"Torgelow, Stadt","type":"Stadt"},"district":{"key":"13075","name":"Vorpommern-Greifswald","type":"Landkreis"},"federalState":{"key":"13","name":"Mecklenburg-Vorpommern"}},{"name":"Eichenallee","postalCode":"17192","locality":"Torgelow am See","municipality":{"key":"13071144","name":"Torgelow am See","type":"Kreisangehörige_Gemeinde"},"district":{"key":"13071","name":"Mecklenburgische Seenplatte","type":"Landkreis"},"federalState":{"key":"13","name":"Mecklenburg-Vorpommern"}},{"name":"Erlenweg","postalCode":"17358","locality":"Torgelow","municipality":{"key":"13075131","name":"Torgelow, Stadt","type":"Stadt"},"district":{"key":"13075","name":"Vorpommern-Greifswald","type":"Landkreis"},"federalState":{"key":"13","name":"Mecklenburg-Vorpommern"}},{"name":"Ernst-Thälmann-Str.","postalCode":"17358","locality":"Torgelow","municipality":{"key":"13075131","name":"Torgelow, Stadt","type":"Stadt"},"district":{"key":"13075","name":"Vorpommern-Greifswald","type":"Landkreis"},"federalState":{"key":"13","name":"Mecklenburg-Vorpommern"}},{"name":"Eschenweg","postalCode":"17358","locality":"Torgelow","municipality":{"key":"13075131","name":"Torgelow, Stadt","type":"Stadt"},"district":{"key":"13075","name":"Vorpommern-Greifswald","type":"Landkreis"},"federalState":{"key":"13","name":"Mecklenburg-Vorpommern"}},{"name":"Espelkamper Str.","postalCode":"17358","locality":"Torgelow","municipality":{"key":"13075131","name":"Torgelow, Stadt","type":"Stadt"},"district":{"key":"13075","name":"Vorpommern-Greifswald","type":"Landkreis"},"federalState":{"key":"13","name":"Mecklenburg-Vorpommern"}},{"name":"Fabrikstr.","postalCode":"17358","locality":"Torgelow","municipality":{"key":"13075131","name":"Torgelow, Stadt","type":"Stadt"},"district":{"key":"13075","name":"Vorpommern-Greifswald","type":"Landkreis"},"federalState":{"key":"13","name":"Mecklenburg-Vorpommern"}},{"name":"Ferdinandstr.","postalCode":"17358","locality":"Torgelow","municipality":{"key":"13075131","name":"Torgelow, Stadt","type":"Stadt"},"district":{"key":"13075","name":"Vorpommern-Greifswald","type":"Landkreis"},"federalState":{"key":"13","name":"Mecklenburg-Vorpommern"}},{"name":"Fichtenstr.","postalCode":"17358","locality":"Torgelow","municipality":{"key":"13075131","name":"Torgelow, Stadt","type":"Stadt"},"district":{"key":"13075","name":"Vorpommern-Greifswald","type":"Landkreis"},"federalState":{"key":"13","name":"Mecklenburg-Vorpommern"}},{"name":"Forsthausstr.","postalCode":"17358","locality":"Torgelow","municipality":{"key":"13075131","name":"Torgelow, Stadt","type":"Stadt"},"district":{"key":"13075","name":"Vorpommern-Greifswald","type":"Landkreis"},"federalState":{"key":"13","name":"Mecklenburg-Vorpommern"}},{"name":"Franz-Liszt-Str.","postalCode":"17358","locality":"Torgelow","municipality":{"key":"13075131","name":"Torgelow, Stadt","type":"Stadt"},"district":{"key":"13075","name":"Vorpommern-Greifswald","type":"Landkreis"},"federalState":{"key":"13","name":"Mecklenburg-Vorpommern"}},{"name":"Franz-Schubert-Str.","postalCode":"17358","locality":"Torgelow","municipality":{"key":"13075131","name":"Torgelow, Stadt","type":"Stadt"},"district":{"key":"13075","name":"Vorpommern-Greifswald","type":"Landkreis"},"federalState":{"key":"13","name":"Mecklenburg-Vorpommern"}},{"name":"Friedenstr.","postalCode":"17358","locality":"Torgelow","municipality":{"key":"13075131","name":"Torgelow, Stadt","type":"Stadt"},"district":{"key":"13075","name":"Vorpommern-Greifswald","type":"Landkreis"},"federalState":{"key":"13","name":"Mecklenburg-Vorpommern"}},{"name":"Friedrich-Händel-Str.","postalCode":"17358","locality":"Torgelow","municipality":{"key":"13075131","name":"Torgelow, Stadt","type":"Stadt"},"district":{"key":"13075","name":"Vorpommern-Greifswald","type":"Landkreis"},"federalState":{"key":"13","name":"Mecklenburg-Vorpommern"}},{"name":"Friedrichstr.","postalCode":"17358","locality":"Torgelow","municipality":{"key":"13075131","name":"Torgelow, Stadt","type":"Stadt"},"district":{"key":"13075","name":"Vorpommern-Greifswald","type":"Landkreis"},"federalState":{"key":"13","name":"Mecklenburg-Vorpommern"}},{"name":"Fritz-Reuter-Str.","postalCode":"17358","locality":"Torgelow","municipality":{"key":"13075131","name":"Torgelow, Stadt","type":"Stadt"},"district":{"key":"13075","name":"Vorpommern-Greifswald","type":"Landkreis"},"federalState":{"key":"13","name":"Mecklenburg-Vorpommern"}},{"name":"Gartenstr.","postalCode":"17358","locality":"Torgelow","municipality":{"key":"13075131","name":"Torgelow, Stadt","type":"Stadt"},"district":{"key":"13075","name":"Vorpommern-Greifswald","type":"Landkreis"},"federalState":{"key":"13","name":"Mecklenburg-Vorpommern"}},{"name":"Geschwister-Scholl-Str.","postalCode":"17358","locality":"Torgelow","municipality":{"key":"13075131","name":"Torgelow, Stadt","type":"Stadt"},"district":{"key":"13075","name":"Vorpommern-Greifswald","type":"Landkreis"},"federalState":{"key":"13","name":"Mecklenburg-Vorpommern"}},{"name":"Goethestr.","postalCode":"17358","locality":"Torgelow","municipality":{"key":"13075131","name":"Torgelow, Stadt","type":"Stadt"},"district":{"key":"13075","name":"Vorpommern-Greifswald","type":"Landkreis"},"federalState":{"key":"13","name":"Mecklenburg-Vorpommern"}},{"name":"Greifenstr.","postalCode":"17358","locality":"Torgelow","municipality":{"key":"13075131","name":"Torgelow, Stadt","type":"Stadt"},"district":{"key":"13075","name":"Vorpommern-Greifswald","type":"Landkreis"},"federalState":{"key":"13","name":"Mecklenburg-Vorpommern"}},{"name":"Gustav-Mahler-Str.","postalCode":"17358","locality":"Torgelow","municipality":{"key":"13075131","name":"Torgelow, Stadt","type":"Stadt"},"district":{"key":"13075","name":"Vorpommern-Greifswald","type":"Landkreis"},"federalState":{"key":"13","name":"Mecklenburg-Vorpommern"}},{"name":"Hauptstr.","postalCode":"17358","locality":"Torgelow","municipality":{"key":"13075131","name":"Torgelow, Stadt","type":"Stadt"},"district":{"key":"13075","name":"Vorpommern-Greifswald","type":"Landkreis"},"federalState":{"key":"13","name":"Mecklenburg-Vorpommern"}},{"name":"Heidestr.","postalCode":"17358","locality":"Torgelow","municipality":{"key":"13075131","name":"Torgelow, Stadt","type":"Stadt"},"district":{"key":"13075","name":"Vorpommern-Greifswald","type":"Landkreis"},"federalState":{"key":"13","name":"Mecklenburg-Vorpommern"}},{"name":"Heinrich-Hertz-Str.","postalCode":"17358","locality":"Torgelow","municipality":{"key":"13075131","name":"Torgelow, Stadt","type":"Stadt"},"district":{"key":"13075","name":"Vorpommern-Greifswald","type":"Landkreis"},"federalState":{"key":"13","name":"Mecklenburg-Vorpommern"}},{"name":"Heinrichsruh","postalCode":"17358","locality":"Torgelow","municipality":{"key":"13075131","name":"Torgelow, Stadt","type":"Stadt"},"district":{"key":"13075","name":"Vorpommern-Greifswald","type":"Landkreis"},"federalState":{"key":"13","name":"Mecklenburg-Vorpommern"}},{"name":"Herrnkamp","postalCode":"17358","locality":"Torgelow","municipality":{"key":"13075131","name":"Torgelow, Stadt","type":"Stadt"},"district":{"key":"13075","name":"Vorpommern-Greifswald","type":"Landkreis"},"federalState":{"key":"13","name":"Mecklenburg-Vorpommern"}},{"name":"Hofstr.","postalCode":"17192","locality":"Torgelow am See","municipality":{"key":"13071144","name":"Torgelow am See","type":"Kreisangehörige_Gemeinde"},"district":{"key":"13071","name":"Mecklenburgische Seenplatte","type":"Landkreis"},"federalState":{"key":"13","name":"Mecklenburg-Vorpommern"}},{"name":"Holländerei","postalCode":"17358","locality":"Torgelow","municipality":{"key":"13075131","name":"Torgelow, Stadt","type":"Stadt"},"district":{"key":"13075","name":"Vorpommern-Greifswald","type":"Landkreis"},"federalState":{"key":"13","name":"Mecklenburg-Vorpommern"}},{"name":"Hüttenwerkplatz","postalCode":"17358","locality":"Torgelow","municipality":{"key":"13075131","name":"Torgelow, Stadt","type":"Stadt"},"district":{"key":"13075","name":"Vorpommern-Greifswald","type":"Landkreis"},"federalState":{"key":"13","name":"Mecklenburg-Vorpommern"}},{"name":"Hüttenwerkstr.","postalCode":"17358","locality":"Torgelow","municipality":{"key":"13075131","name":"Torgelow, Stadt","type":"Stadt"},"district":{"key":"13075","name":"Vorpommern-Greifswald","type":"Landkreis"},"federalState":{"key":"13","name":"Mecklenburg-Vorpommern"}},{"name":"Im Marzenbruch","postalCode":"17358","locality":"Torgelow","municipality":{"key":"13075131","name":"Torgelow, Stadt","type":"Stadt"},"district":{"key":"13075","name":"Vorpommern-Greifswald","type":"Landkreis"},"federalState":{"key":"13","name":"Mecklenburg-Vorpommern"}},{"name":"Jatznicker Str.","postalCode":"17358","locality":"Torgelow","municipality":{"key":"13075131","name":"Torgelow, Stadt","type":"Stadt"},"district":{"key":"13075","name":"Vorpommern-Greifswald","type":"Landkreis"},"federalState":{"key":"13","name":"Mecklenburg-Vorpommern"}},{"name":"Karlsfelder Str.","postalCode":"17358","locality":"Torgelow","municipality":{"key":"13075131","name":"Torgelow, Stadt","type":"Stadt"},"district":{"key":"13075","name":"Vorpommern-Greifswald","type":"Landkreis"},"federalState":{"key":"13","name":"Mecklenburg-Vorpommern"}},{"name":"Kastanienallee","postalCode":"17358","locality":"Torgelow","municipality":{"key":"13075131","name":"Torgelow, Stadt","type":"Stadt"},"district":{"key":"13075","name":"Vorpommern-Greifswald","type":"Landkreis"},"federalState":{"key":"13","name":"Mecklenburg-Vorpommern"}},{"name":"Keplerstr.","postalCode":"17358","locality":"Torgelow","municipality":{"key":"13075131","name":"Torgelow, Stadt","type":"Stadt"},"district":{"key":"13075","name":"Vorpommern-Greifswald","type":"Landkreis"},"federalState":{"key":"13","name":"Mecklenburg-Vorpommern"}},{"name":"Kiefernstr.","postalCode":"17358","locality":"Torgelow","municipality":{"key":"13075131","name":"Torgelow, Stadt","type":"Stadt"},"district":{"key":"13075","name":"Vorpommern-Greifswald","type":"Landkreis"},"federalState":{"key":"13","name":"Mecklenburg-Vorpommern"}},{"name":"Königstr.","postalCode":"17358","locality":"Torgelow","municipality":{"key":"13075131","name":"Torgelow, Stadt","type":"Stadt"},"district":{"key":"13075","name":"Vorpommern-Greifswald","type":"Landkreis"},"federalState":{"key":"13","name":"Mecklenburg-Vorpommern"}},{"name":"Kopernikusstr.","postalCode":"17358","locality":"Torgelow","municipality":{"key":"13075131","name":"Torgelow, Stadt","type":"Stadt"},"district":{"key":"13075","name":"Vorpommern-Greifswald","type":"Landkreis"},"federalState":{"key":"13","name":"Mecklenburg-Vorpommern"}},{"name":"Kurze Str.","postalCode":"17358","locality":"Torgelow","municipality":{"key":"13075131","name":"Torgelow, Stadt","type":"Stadt"},"district":{"key":"13075","name":"Vorpommern-Greifswald","type":"Landkreis"},"federalState":{"key":"13","name":"Mecklenburg-Vorpommern"}},{"name":"Küstergang","postalCode":"17358","locality":"Torgelow","municipality":{"key":"13075131","name":"Torgelow, Stadt","type":"Stadt"},"district":{"key":"13075","name":"Vorpommern-Greifswald","type":"Landkreis"},"federalState":{"key":"13","name":"Mecklenburg-Vorpommern"}},{"name":"Ladestr. Drögeheide","postalCode":"17358","locality":"Torgelow","municipality":{"key":"13075131","name":"Torgelow, Stadt","type":"Stadt"},"district":{"key":"13075","name":"Vorpommern-Greifswald","type":"Landkreis"},"federalState":{"key":"13","name":"Mecklenburg-Vorpommern"}},{"name":"Langer Kamp","postalCode":"17358","locality":"Torgelow","municipality":{"key":"13075131","name":"Torgelow, Stadt","type":"Stadt"},"district":{"key":"13075","name":"Vorpommern-Greifswald","type":"Landkreis"},"federalState":{"key":"13","name":"Mecklenburg-Vorpommern"}},{"name":"Lehrpfad / Rundwanderweg","postalCode":"17358","locality":"Torgelow","municipality":{"key":"13075131","name":"Torgelow, Stadt","type":"Stadt"},"district":{"key":"13075","name":"Vorpommern-Greifswald","type":"Landkreis"},"federalState":{"key":"13","name":"Mecklenburg-Vorpommern"}},{"name":"Lindenallee","postalCode":"17192","locality":"Torgelow am See","municipality":{"key":"13071144","name":"Torgelow am See","type":"Kreisangehörige_Gemeinde"},"district":{"key":"13071","name":"Mecklenburgische Seenplatte","type":"Landkreis"},"federalState":{"key":"13","name":"Mecklenburg-Vorpommern"}},{"name":"Lindenstr.","postalCode":"17358","locality":"Torgelow","municipality":{"key":"13075131","name":"Torgelow, Stadt","type":"Stadt"},"district":{"key":"13075","name":"Vorpommern-Greifswald","type":"Landkreis"},"federalState":{"key":"13","name":"Mecklenburg-Vorpommern"}},{"name":"Marzenbruchstr.","postalCode":"17358","locality":"Torgelow","municipality":{"key":"13075131","name":"Torgelow, Stadt","type":"Stadt"},"district":{"key":"13075","name":"Vorpommern-Greifswald","type":"Landkreis"},"federalState":{"key":"13","name":"Mecklenburg-Vorpommern"}},{"name":"Max-Planck-Str.","postalCode":"17358","locality":"Torgelow","municipality":{"key":"13075131","name":"Torgelow, Stadt","type":"Stadt"},"district":{"key":"13075","name":"Vorpommern-Greifswald","type":"Landkreis"},"federalState":{"key":"13","name":"Mecklenburg-Vorpommern"}},{"name":"Mittelstr.","postalCode":"17358","locality":"Torgelow","municipality":{"key":"13075131","name":"Torgelow, Stadt","type":"Stadt"},"district":{"key":"13075","name":"Vorpommern-Greifswald","type":"Landkreis"},"federalState":{"key":"13","name":"Mecklenburg-Vorpommern"}},{"name":"Mozartstr.","postalCode":"17358","locality":"Torgelow","municipality":{"key":"13075131","name":"Torgelow, Stadt","type":"Stadt"},"district":{"key":"13075","name":"Vorpommern-Greifswald","type":"Landkreis"},"federalState":{"key":"13","name":"Mecklenburg-Vorpommern"}},{"name":"Müggenburg","postalCode":"17358","locality":"Torgelow","municipality":{"key":"13075131","name":"Torgelow, Stadt","type":"Stadt"},"district":{"key":"13075","name":"Vorpommern-Greifswald","type":"Landkreis"},"federalState":{"key":"13","name":"Mecklenburg-Vorpommern"}},{"name":"Nelkenstr.","postalCode":"17358","locality":"Torgelow","municipality":{"key":"13075131","name":"Torgelow, Stadt","type":"Stadt"},"district":{"key":"13075","name":"Vorpommern-Greifswald","type":"Landkreis"},"federalState":{"key":"13","name":"Mecklenburg-Vorpommern"}},{"name":"Neumühler Str.","postalCode":"17358","locality":"Torgelow","municipality":{"key":"13075131","name":"Torgelow, Stadt","type":"Stadt"},"district":{"key":"13075","name":"Vorpommern-Greifswald","type":"Landkreis"},"federalState":{"key":"13","name":"Mecklenburg-Vorpommern"}},{"name":"Otto-Bruchwitz-Str.","postalCode":"17358","locality":"Torgelow","municipality":{"key":"13075131","name":"Torgelow, Stadt","type":"Stadt"},"district":{"key":"13075","name":"Vorpommern-Greifswald","type":"Landkreis"},"federalState":{"key":"13","name":"Mecklenburg-Vorpommern"}},{"name":"Pappelstr.","postalCode":"17358","locality":"Torgelow","municipality":{"key":"13075131","name":"Torgelow, Stadt","type":"Stadt"},"district":{"key":"13075","name":"Vorpommern-Greifswald","type":"Landkreis"},"federalState":{"key":"13","name":"Mecklenburg-Vorpommern"}},{"name":"Pasewalker Chaussee","postalCode":"17358","locality":"Torgelow","municipality":{"key":"13075131","name":"Torgelow, Stadt","type":"Stadt"},"district":{"key":"13075","name":"Vorpommern-Greifswald","type":"Landkreis"},"federalState":{"key":"13","name":"Mecklenburg-Vorpommern"}},{"name":"Pasewalker Str.","postalCode":"17358","locality":"Torgelow","municipality":{"key":"13075131","name":"Torgelow, Stadt","type":"Stadt"},"district":{"key":"13075","name":"Vorpommern-Greifswald","type":"Landkreis"},"federalState":{"key":"13","name":"Mecklenburg-Vorpommern"}},{"name":"Peckwischreihe","postalCode":"17358","locality":"Torgelow","municipality":{"key":"13075131","name":"Torgelow, Stadt","type":"Stadt"},"district":{"key":"13075","name":"Vorpommern-Greifswald","type":"Landkreis"},"federalState":{"key":"13","name":"Mecklenburg-Vorpommern"}},{"name":"Pestalozzistr.","postalCode":"17358","locality":"Torgelow","municipality":{"key":"13075131","name":"Torgelow, Stadt","type":"Stadt"},"district":{"key":"13075","name":"Vorpommern-Greifswald","type":"Landkreis"},"federalState":{"key":"13","name":"Mecklenburg-Vorpommern"}},{"name":"Pfarreibrücke","postalCode":"17358","locality":"Torgelow","municipality":{"key":"13075131","name":"Torgelow, Stadt","type":"Stadt"},"district":{"key":"13075","name":"Vorpommern-Greifswald","type":"Landkreis"},"federalState":{"key":"13","name":"Mecklenburg-Vorpommern"}},{"name":"Pommersche Str.","postalCode":"17358","locality":"Torgelow","municipality":{"key":"13075131","name":"Torgelow, Stadt","type":"Stadt"},"district":{"key":"13075","name":"Vorpommern-Greifswald","type":"Landkreis"},"federalState":{"key":"13","name":"Mecklenburg-Vorpommern"}},{"name":"Richard-Wagner-Str.","postalCode":"17358","locality":"Torgelow","municipality":{"key":"13075131","name":"Torgelow, Stadt","type":"Stadt"},"district":{"key":"13075","name":"Vorpommern-Greifswald","type":"Landkreis"},"federalState":{"key":"13","name":"Mecklenburg-Vorpommern"}},{"name":"Robert-Bosch-Str.","postalCode":"17358","locality":"Torgelow","municipality":{"key":"13075131","name":"Torgelow, Stadt","type":"Stadt"},"district":{"key":"13075","name":"Vorpommern-Greifswald","type":"Landkreis"},"federalState":{"key":"13","name":"Mecklenburg-Vorpommern"}},{"name":"Robert-Schumann-Str.","postalCode":"17358","locality":"Torgelow","municipality":{"key":"13075131","name":"Torgelow, Stadt","type":"Stadt"},"district":{"key":"13075","name":"Vorpommern-Greifswald","type":"Landkreis"},"federalState":{"key":"13","name":"Mecklenburg-Vorpommern"}},{"name":"Rudolf-Diesel-Str.","postalCode":"17358","locality":"Torgelow","municipality":{"key":"13075131","name":"Torgelow, Stadt","type":"Stadt"},"district":{"key":"13075","name":"Vorpommern-Greifswald","type":"Landkreis"},"federalState":{"key":"13","name":"Mecklenburg-Vorpommern"}},{"name":"Schleusenstr.","postalCode":"17358","locality":"Torgelow","municipality":{"key":"13075131","name":"Torgelow, Stadt","type":"Stadt"},"district":{"key":"13075","name":"Vorpommern-Greifswald","type":"Landkreis"},"federalState":{"key":"13","name":"Mecklenburg-Vorpommern"}},{"name":"Schmachthagen","postalCode":"17192","locality":"Torgelow am See","municipality":{"key":"13071144","name":"Torgelow am See","type":"Kreisangehörige_Gemeinde"},"district":{"key":"13071","name":"Mecklenburgische Seenplatte","type":"Landkreis"},"federalState":{"key":"13","name":"Mecklenburg-Vorpommern"}},{"name":"Siedlung am Sportplatz","postalCode":"17358","locality":"Torgelow","municipality":{"key":"13075131","name":"Torgelow, Stadt","type":"Stadt"},"district":{"key":"13075","name":"Vorpommern-Greifswald","type":"Landkreis"},"federalState":{"key":"13","name":"Mecklenburg-Vorpommern"}},{"name":"Siemensstr.","postalCode":"17358","locality":"Torgelow","municipality":{"key":"13075131","name":"Torgelow, Stadt","type":"Stadt"},"district":{"key":"13075","name":"Vorpommern-Greifswald","type":"Landkreis"},"federalState":{"key":"13","name":"Mecklenburg-Vorpommern"}},{"name":"Spartakussiedlung","postalCode":"17358","locality":"Torgelow","municipality":{"key":"13075131","name":"Torgelow, Stadt","type":"Stadt"},"district":{"key":"13075","name":"Vorpommern-Greifswald","type":"Landkreis"},"federalState":{"key":"13","name":"Mecklenburg-Vorpommern"}},{"name":"Spönerweg","postalCode":"17358","locality":"Torgelow","municipality":{"key":"13075131","name":"Torgelow, Stadt","type":"Stadt"},"district":{"key":"13075","name":"Vorpommern-Greifswald","type":"Landkreis"},"federalState":{"key":"13","name":"Mecklenburg-Vorpommern"}},{"name":"Str. der Freundschaft","postalCode":"17358","locality":"Torgelow","municipality":{"key":"13075131","name":"Torgelow, Stadt","type":"Stadt"},"district":{"key":"13075","name":"Vorpommern-Greifswald","type":"Landkreis"},"federalState":{"key":"13","name":"Mecklenburg-Vorpommern"}},{"name":"Str. der Solidarität","postalCode":"17358","locality":"Torgelow","municipality":{"key":"13075131","name":"Torgelow, Stadt","type":"Stadt"},"district":{"key":"13075","name":"Vorpommern-Greifswald","type":"Landkreis"},"federalState":{"key":"13","name":"Mecklenburg-Vorpommern"}},{"name":"Stubbenkamp","postalCode":"17358","locality":"Torgelow","municipality":{"key":"13075131","name":"Torgelow, Stadt","type":"Stadt"},"district":{"key":"13075","name":"Vorpommern-Greifswald","type":"Landkreis"},"federalState":{"key":"13","name":"Mecklenburg-Vorpommern"}},{"name":"Tangersiedlung","postalCode":"17358","locality":"Torgelow","municipality":{"key":"13075131","name":"Torgelow, Stadt","type":"Stadt"},"district":{"key":"13075","name":"Vorpommern-Greifswald","type":"Landkreis"},"federalState":{"key":"13","name":"Mecklenburg-Vorpommern"}},{"name":"Tannenstr.","postalCode":"17358","locality":"Torgelow","municipality":{"key":"13075131","name":"Torgelow, Stadt","type":"Stadt"},"district":{"key":"13075","name":"Vorpommern-Greifswald","type":"Landkreis"},"federalState":{"key":"13","name":"Mecklenburg-Vorpommern"}},{"name":"Teerofen-Rain","postalCode":"17358","locality":"Torgelow","municipality":{"key":"13075131","name":"Torgelow, Stadt","type":"Stadt"},"district":{"key":"13075","name":"Vorpommern-Greifswald","type":"Landkreis"},"federalState":{"key":"13","name":"Mecklenburg-Vorpommern"}},{"name":"Telemannstr.","postalCode":"17358","locality":"Torgelow","municipality":{"key":"13075131","name":"Torgelow, Stadt","type":"Stadt"},"district":{"key":"13075","name":"Vorpommern-Greifswald","type":"Landkreis"},"federalState":{"key":"13","name":"Mecklenburg-Vorpommern"}},{"name":"Tschaikowskistr.","postalCode":"17358","locality":"Torgelow","municipality":{"key":"13075131","name":"Torgelow, Stadt","type":"Stadt"},"district":{"key":"13075","name":"Vorpommern-Greifswald","type":"Landkreis"},"federalState":{"key":"13","name":"Mecklenburg-Vorpommern"}},{"name":"Tulpenstr.","postalCode":"17358","locality":"Torgelow","municipality":{"key":"13075131","name":"Torgelow, Stadt","type":"Stadt"},"district":{"key":"13075","name":"Vorpommern-Greifswald","type":"Landkreis"},"federalState":{"key":"13","name":"Mecklenburg-Vorpommern"}},{"name":"Ueckermünder Str.","postalCode":"17358","locality":"Torgelow","municipality":{"key":"13075131","name":"Torgelow, Stadt","type":"Stadt"},"district":{"key":"13075","name":"Vorpommern-Greifswald","type":"Landkreis"},"federalState":{"key":"13","name":"Mecklenburg-Vorpommern"}},{"name":"Ueckerstr.","postalCode":"17358","locality":"Torgelow","municipality":{"key":"13075131","name":"Torgelow, Stadt","type":"Stadt"},"district":{"key":"13075","name":"Vorpommern-Greifswald","type":"Landkreis"},"federalState":{"key":"13","name":"Mecklenburg-Vorpommern"}},{"name":"Ukranenstr.","postalCode":"17358","locality":"Torgelow","municipality":{"key":"13075131","name":"Torgelow, Stadt","type":"Stadt"},"district":{"key":"13075","name":"Vorpommern-Greifswald","type":"Landkreis"},"federalState":{"key":"13","name":"Mecklenburg-Vorpommern"}},{"name":"Verbindungsstr.","postalCode":"17358","locality":"Torgelow","municipality":{"key":"13075131","name":"Torgelow, Stadt","type":"Stadt"},"district":{"key":"13075","name":"Vorpommern-Greifswald","type":"Landkreis"},"federalState":{"key":"13","name":"Mecklenburg-Vorpommern"}},{"name":"Waldsiedlung","postalCode":"17358","locality":"Torgelow","municipality":{"key":"13075131","name":"Torgelow, Stadt","type":"Stadt"},"district":{"key":"13075","name":"Vorpommern-Greifswald","type":"Landkreis"},"federalState":{"key":"13","name":"Mecklenburg-Vorpommern"}},{"name":"Waldstr.","postalCode":"17358","locality":"Torgelow","municipality":{"key":"13075131","name":"Torgelow, Stadt","type":"Stadt"},"district":{"key":"13075","name":"Vorpommern-Greifswald","type":"Landkreis"},"federalState":{"key":"13","name":"Mecklenburg-Vorpommern"}},{"name":"Waldweg","postalCode":"17358","locality":"Torgelow","municipality":{"key":"13075131","name":"Torgelow, Stadt","type":"Stadt"},"district":{"key":"13075","name":"Vorpommern-Greifswald","type":"Landkreis"},"federalState":{"key":"13","name":"Mecklenburg-Vorpommern"}},{"name":"weg5","postalCode":"17192","locality":"Torgelow am See","municipality":{"key":"13071144","name":"Torgelow am See","type":"Kreisangehörige_Gemeinde"},"district":{"key":"13071","name":"Mecklenburgische Seenplatte","type":"Landkreis"},"federalState":{"key":"13","name":"Mecklenburg-Vorpommern"}},{"name":"weg6","postalCode":"17192","locality":"Torgelow am See","municipality":{"key":"13071144","name":"Torgelow am See","type":"Kreisangehörige_Gemeinde"},"district":{"key":"13071","name":"Mecklenburgische Seenplatte","type":"Landkreis"},"federalState":{"key":"13","name":"Mecklenburg-Vorpommern"}},{"name":"Wiesengasse","postalCode":"17358","locality":"Torgelow","municipality":{"key":"13075131","name":"Torgelow, Stadt","type":"Stadt"},"district":{"key":"13075","name":"Vorpommern-Greifswald","type":"Landkreis"},"federalState":{"key":"13","name":"Mecklenburg-Vorpommern"}},{"name":"Wiesenstr.","postalCode":"17358","locality":"Torgelow","municipality":{"key":"13075131","name":"Torgelow, Stadt","type":"Stadt"},"district":{"key":"13075","name":"Vorpommern-Greifswald","type":"Landkreis"},"federalState":{"key":"13","name":"Mecklenburg-Vorpommern"}},{"name":"Wilhelmstr.","postalCode":"17358","locality":"Torgelow","municipality":{"key":"13075131","name":"Torgelow, Stadt","type":"Stadt"},"district":{"key":"13075","name":"Vorpommern-Greifswald","type":"Landkreis"},"federalState":{"key":"13","name":"Mecklenburg-Vorpommern"}},]