[{"name":"Am Kirschenrain","postalCode":"97513","locality":"Michelau i.Steigerwald","municipality":{"key":"09678157","name":"Michelau i.Steigerwald","type":"Kreisangehörige_Gemeinde"},"district":{"key":"09678","name":"Schweinfurt","type":"Landkreis"},"federalState":{"key":"09","name":"Bayern"}},{"name":"Am Krautfeld","postalCode":"97513","locality":"Michelau i.Steigerwald","municipality":{"key":"09678157","name":"Michelau i.Steigerwald","type":"Kreisangehörige_Gemeinde"},"district":{"key":"09678","name":"Schweinfurt","type":"Landkreis"},"federalState":{"key":"09","name":"Bayern"}},{"name":"Am Mahlholz","postalCode":"97513","locality":"Michelau i.Steigerwald","municipality":{"key":"09678157","name":"Michelau i.Steigerwald","type":"Kreisangehörige_Gemeinde"},"district":{"key":"09678","name":"Schweinfurt","type":"Landkreis"},"federalState":{"key":"09","name":"Bayern"}},{"name":"Am Mühlbach","postalCode":"97513","locality":"Michelau i.Steigerwald","municipality":{"key":"09678157","name":"Michelau i.Steigerwald","type":"Kreisangehörige_Gemeinde"},"district":{"key":"09678","name":"Schweinfurt","type":"Landkreis"},"federalState":{"key":"09","name":"Bayern"}},{"name":"Am Schloßfeld","postalCode":"97513","locality":"Michelau i.Steigerwald","municipality":{"key":"09678157","name":"Michelau i.Steigerwald","type":"Kreisangehörige_Gemeinde"},"district":{"key":"09678","name":"Schweinfurt","type":"Landkreis"},"federalState":{"key":"09","name":"Bayern"}},{"name":"Am Sonnenwinkel","postalCode":"97513","locality":"Michelau i.Steigerwald","municipality":{"key":"09678157","name":"Michelau i.Steigerwald","type":"Kreisangehörige_Gemeinde"},"district":{"key":"09678","name":"Schweinfurt","type":"Landkreis"},"federalState":{"key":"09","name":"Bayern"}},{"name":"An der Steige","postalCode":"97513","locality":"Michelau i.Steigerwald","municipality":{"key":"09678157","name":"Michelau i.Steigerwald","type":"Kreisangehörige_Gemeinde"},"district":{"key":"09678","name":"Schweinfurt","type":"Landkreis"},"federalState":{"key":"09","name":"Bayern"}},{"name":"Balthasar-Neumann-Str.","postalCode":"97513","locality":"Michelau i.Steigerwald","municipality":{"key":"09678157","name":"Michelau i.Steigerwald","type":"Kreisangehörige_Gemeinde"},"district":{"key":"09678","name":"Schweinfurt","type":"Landkreis"},"federalState":{"key":"09","name":"Bayern"}},{"name":"Bergstr.","postalCode":"97513","locality":"Michelau i.Steigerwald","municipality":{"key":"09678157","name":"Michelau i.Steigerwald","type":"Kreisangehörige_Gemeinde"},"district":{"key":"09678","name":"Schweinfurt","type":"Landkreis"},"federalState":{"key":"09","name":"Bayern"}},{"name":"Bgm.-Sepp-Böhm-Str.","postalCode":"97513","locality":"Michelau i.Steigerwald","municipality":{"key":"09678157","name":"Michelau i.Steigerwald","type":"Kreisangehörige_Gemeinde"},"district":{"key":"09678","name":"Schweinfurt","type":"Landkreis"},"federalState":{"key":"09","name":"Bayern"}},{"name":"Bischwinder Str.","postalCode":"97513","locality":"Michelau i.Steigerwald","municipality":{"key":"09678157","name":"Michelau i.Steigerwald","type":"Kreisangehörige_Gemeinde"},"district":{"key":"09678","name":"Schweinfurt","type":"Landkreis"},"federalState":{"key":"09","name":"Bayern"}},{"name":"Carl-Orff-Str.","postalCode":"97421","locality":"Schweinfurt","municipality":{"key":"09662000","name":"Schweinfurt","type":"Kreisfreie_Stadt"},"district":{"key":"09662","name":"Schweinfurt","type":"Kreisfreie_Stadt"},"federalState":{"key":"09","name":"Bayern"}},{"name":"Carl-Spitzweg-Str.","postalCode":"97422","locality":"Schweinfurt","municipality":{"key":"09662000","name":"Schweinfurt","type":"Kreisfreie_Stadt"},"district":{"key":"09662","name":"Schweinfurt","type":"Kreisfreie_Stadt"},"federalState":{"key":"09","name":"Bayern"}},{"name":"Celtesstr.","postalCode":"97422","locality":"Schweinfurt","municipality":{"key":"09662000","name":"Schweinfurt","type":"Kreisfreie_Stadt"},"district":{"key":"09662","name":"Schweinfurt","type":"Kreisfreie_Stadt"},"federalState":{"key":"09","name":"Bayern"}},{"name":"Châteaudun-Park","postalCode":"97421","locality":"Schweinfurt","municipality":{"key":"09662000","name":"Schweinfurt","type":"Kreisfreie_Stadt"},"district":{"key":"09662","name":"Schweinfurt","type":"Kreisfreie_Stadt"},"federalState":{"key":"09","name":"Bayern"}},{"name":"Christoph-Krebs-Str.","postalCode":"97422","locality":"Schweinfurt","municipality":{"key":"09662000","name":"Schweinfurt","type":"Kreisfreie_Stadt"},"district":{"key":"09662","name":"Schweinfurt","type":"Kreisfreie_Stadt"},"federalState":{"key":"09","name":"Bayern"}},{"name":"Coloradostr.","postalCode":"97424","locality":"Schweinfurt","municipality":{"key":"09662000","name":"Schweinfurt","type":"Kreisfreie_Stadt"},"district":{"key":"09662","name":"Schweinfurt","type":"Kreisfreie_Stadt"},"federalState":{"key":"09","name":"Bayern"}},{"name":"Cramerstr.","postalCode":"97421","locality":"Schweinfurt","municipality":{"key":"09662000","name":"Schweinfurt","type":"Kreisfreie_Stadt"},"district":{"key":"09662","name":"Schweinfurt","type":"Kreisfreie_Stadt"},"federalState":{"key":"09","name":"Bayern"}},{"name":"Cuspinianstr.","postalCode":"97422","locality":"Schweinfurt","municipality":{"key":"09662000","name":"Schweinfurt","type":"Kreisfreie_Stadt"},"district":{"key":"09662","name":"Schweinfurt","type":"Kreisfreie_Stadt"},"federalState":{"key":"09","name":"Bayern"}},{"name":"Dorfäcker","postalCode":"97513","locality":"Michelau i.Steigerwald","municipality":{"key":"09678157","name":"Michelau i.Steigerwald","type":"Kreisangehörige_Gemeinde"},"district":{"key":"09678","name":"Schweinfurt","type":"Landkreis"},"federalState":{"key":"09","name":"Bayern"}},{"name":"Ebracher Weg","postalCode":"97513","locality":"Michelau i.Steigerwald","municipality":{"key":"09678157","name":"Michelau i.Steigerwald","type":"Kreisangehörige_Gemeinde"},"district":{"key":"09678","name":"Schweinfurt","type":"Landkreis"},"federalState":{"key":"09","name":"Bayern"}},{"name":"Falkenbergstr.","postalCode":"97513","locality":"Michelau i.Steigerwald","municipality":{"key":"09678157","name":"Michelau i.Steigerwald","type":"Kreisangehörige_Gemeinde"},"district":{"key":"09678","name":"Schweinfurt","type":"Landkreis"},"federalState":{"key":"09","name":"Bayern"}},{"name":"Gartenstr.","postalCode":"97513","locality":"Michelau i.Steigerwald","municipality":{"key":"09678157","name":"Michelau i.Steigerwald","type":"Kreisangehörige_Gemeinde"},"district":{"key":"09678","name":"Schweinfurt","type":"Landkreis"},"federalState":{"key":"09","name":"Bayern"}},{"name":"Hauptstr.","postalCode":"97513","locality":"Michelau i.Steigerwald","municipality":{"key":"09678157","name":"Michelau i.Steigerwald","type":"Kreisangehörige_Gemeinde"},"district":{"key":"09678","name":"Schweinfurt","type":"Landkreis"},"federalState":{"key":"09","name":"Bayern"}},{"name":"Hausäcker","postalCode":"97513","locality":"Michelau i.Steigerwald","municipality":{"key":"09678157","name":"Michelau i.Steigerwald","type":"Kreisangehörige_Gemeinde"},"district":{"key":"09678","name":"Schweinfurt","type":"Landkreis"},"federalState":{"key":"09","name":"Bayern"}},{"name":"Haussteige","postalCode":"97513","locality":"Michelau i.Steigerwald","municipality":{"key":"09678157","name":"Michelau i.Steigerwald","type":"Kreisangehörige_Gemeinde"},"district":{"key":"09678","name":"Schweinfurt","type":"Landkreis"},"federalState":{"key":"09","name":"Bayern"}},{"name":"Ignaz-Schön-Str.","postalCode":"97421","locality":"Schweinfurt","municipality":{"key":"09662000","name":"Schweinfurt","type":"Kreisfreie_Stadt"},"district":{"key":"09662","name":"Schweinfurt","type":"Kreisfreie_Stadt"},"federalState":{"key":"09","name":"Bayern"}},{"name":"Ilmenbergstr.","postalCode":"97422","locality":"Schweinfurt","municipality":{"key":"09662000","name":"Schweinfurt","type":"Kreisfreie_Stadt"},"district":{"key":"09662","name":"Schweinfurt","type":"Kreisfreie_Stadt"},"federalState":{"key":"09","name":"Bayern"}},{"name":"Im Grund","postalCode":"97422","locality":"Schweinfurt","municipality":{"key":"09662000","name":"Schweinfurt","type":"Kreisfreie_Stadt"},"district":{"key":"09662","name":"Schweinfurt","type":"Kreisfreie_Stadt"},"federalState":{"key":"09","name":"Bayern"}},{"name":"Im II. Wehr","postalCode":"97424","locality":"Schweinfurt","municipality":{"key":"09662000","name":"Schweinfurt","type":"Kreisfreie_Stadt"},"district":{"key":"09662","name":"Schweinfurt","type":"Kreisfreie_Stadt"},"federalState":{"key":"09","name":"Bayern"}},{"name":"Im I. Wehr","postalCode":"97424","locality":"Schweinfurt","municipality":{"key":"09662000","name":"Schweinfurt","type":"Kreisfreie_Stadt"},"district":{"key":"09662","name":"Schweinfurt","type":"Kreisfreie_Stadt"},"federalState":{"key":"09","name":"Bayern"}},{"name":"Im Steinach","postalCode":"97424","locality":"Schweinfurt","municipality":{"key":"09662000","name":"Schweinfurt","type":"Kreisfreie_Stadt"},"district":{"key":"09662","name":"Schweinfurt","type":"Kreisfreie_Stadt"},"federalState":{"key":"09","name":"Bayern"}},{"name":"Ina-Seidel-Str.","postalCode":"97422","locality":"Schweinfurt","municipality":{"key":"09662000","name":"Schweinfurt","type":"Kreisfreie_Stadt"},"district":{"key":"09662","name":"Schweinfurt","type":"Kreisfreie_Stadt"},"federalState":{"key":"09","name":"Bayern"}},{"name":"In den Maingärten","postalCode":"97422","locality":"Schweinfurt","municipality":{"key":"09662000","name":"Schweinfurt","type":"Kreisfreie_Stadt"},"district":{"key":"09662","name":"Schweinfurt","type":"Kreisfreie_Stadt"},"federalState":{"key":"09","name":"Bayern"}},{"name":"Isi-Huber-Str.","postalCode":"97424","locality":"Schweinfurt","municipality":{"key":"09662000","name":"Schweinfurt","type":"Kreisfreie_Stadt"},"district":{"key":"09662","name":"Schweinfurt","type":"Kreisfreie_Stadt"},"federalState":{"key":"09","name":"Bayern"}},{"name":"Jägergasse","postalCode":"97513","locality":"Michelau i.Steigerwald","municipality":{"key":"09678157","name":"Michelau i.Steigerwald","type":"Kreisangehörige_Gemeinde"},"district":{"key":"09678","name":"Schweinfurt","type":"Landkreis"},"federalState":{"key":"09","name":"Bayern"}},{"name":"Kirchgasse","postalCode":"97513","locality":"Michelau i.Steigerwald","municipality":{"key":"09678157","name":"Michelau i.Steigerwald","type":"Kreisangehörige_Gemeinde"},"district":{"key":"09678","name":"Schweinfurt","type":"Landkreis"},"federalState":{"key":"09","name":"Bayern"}},{"name":"Kirchplatz","postalCode":"97513","locality":"Michelau i.Steigerwald","municipality":{"key":"09678157","name":"Michelau i.Steigerwald","type":"Kreisangehörige_Gemeinde"},"district":{"key":"09678","name":"Schweinfurt","type":"Landkreis"},"federalState":{"key":"09","name":"Bayern"}},{"name":"Lindenweg","postalCode":"97513","locality":"Michelau i.Steigerwald","municipality":{"key":"09678157","name":"Michelau i.Steigerwald","type":"Kreisangehörige_Gemeinde"},"district":{"key":"09678","name":"Schweinfurt","type":"Landkreis"},"federalState":{"key":"09","name":"Bayern"}},{"name":"Michelauer Str.","postalCode":"97513","locality":"Michelau i.Steigerwald","municipality":{"key":"09678157","name":"Michelau i.Steigerwald","type":"Kreisangehörige_Gemeinde"},"district":{"key":"09678","name":"Schweinfurt","type":"Landkreis"},"federalState":{"key":"09","name":"Bayern"}},{"name":"Mittlerer Hasenknuck","postalCode":"97513","locality":"Michelau i.Steigerwald","municipality":{"key":"09678157","name":"Michelau i.Steigerwald","type":"Kreisangehörige_Gemeinde"},"district":{"key":"09678","name":"Schweinfurt","type":"Landkreis"},"federalState":{"key":"09","name":"Bayern"}},{"name":"Neuer Weg","postalCode":"97513","locality":"Michelau i.Steigerwald","municipality":{"key":"09678157","name":"Michelau i.Steigerwald","type":"Kreisangehörige_Gemeinde"},"district":{"key":"09678","name":"Schweinfurt","type":"Landkreis"},"federalState":{"key":"09","name":"Bayern"}},{"name":"Oberdorf","postalCode":"97513","locality":"Michelau i.Steigerwald","municipality":{"key":"09678157","name":"Michelau i.Steigerwald","type":"Kreisangehörige_Gemeinde"},"district":{"key":"09678","name":"Schweinfurt","type":"Landkreis"},"federalState":{"key":"09","name":"Bayern"}},{"name":"Oberer Hasenknuck","postalCode":"97513","locality":"Michelau i.Steigerwald","municipality":{"key":"09678157","name":"Michelau i.Steigerwald","type":"Kreisangehörige_Gemeinde"},"district":{"key":"09678","name":"Schweinfurt","type":"Landkreis"},"federalState":{"key":"09","name":"Bayern"}},{"name":"Oberer Taubenherd","postalCode":"97513","locality":"Michelau i.Steigerwald","municipality":{"key":"09678157","name":"Michelau i.Steigerwald","type":"Kreisangehörige_Gemeinde"},"district":{"key":"09678","name":"Schweinfurt","type":"Landkreis"},"federalState":{"key":"09","name":"Bayern"}},{"name":"Paul-Gerhardt-Str.","postalCode":"97421","locality":"Schweinfurt","municipality":{"key":"09662000","name":"Schweinfurt","type":"Kreisfreie_Stadt"},"district":{"key":"09662","name":"Schweinfurt","type":"Kreisfreie_Stadt"},"federalState":{"key":"09","name":"Bayern"}},{"name":"Paul-Gerhardt-Str.","postalCode":"97424","locality":"Schweinfurt","municipality":{"key":"09662000","name":"Schweinfurt","type":"Kreisfreie_Stadt"},"district":{"key":"09662","name":"Schweinfurt","type":"Kreisfreie_Stadt"},"federalState":{"key":"09","name":"Bayern"}},{"name":"Paul-Klee-Str.","postalCode":"97422","locality":"Schweinfurt","municipality":{"key":"09662000","name":"Schweinfurt","type":"Kreisfreie_Stadt"},"district":{"key":"09662","name":"Schweinfurt","type":"Kreisfreie_Stadt"},"federalState":{"key":"09","name":"Bayern"}},{"name":"Paul-Rosa-Str.","postalCode":"97422","locality":"Schweinfurt","municipality":{"key":"09662000","name":"Schweinfurt","type":"Kreisfreie_Stadt"},"district":{"key":"09662","name":"Schweinfurt","type":"Kreisfreie_Stadt"},"federalState":{"key":"09","name":"Bayern"}},{"name":"Paul-Rummert-Ring","postalCode":"97421","locality":"Schweinfurt","municipality":{"key":"09662000","name":"Schweinfurt","type":"Kreisfreie_Stadt"},"district":{"key":"09662","name":"Schweinfurt","type":"Kreisfreie_Stadt"},"federalState":{"key":"09","name":"Bayern"}},{"name":"Pestalozzistr.","postalCode":"97421","locality":"Schweinfurt","municipality":{"key":"09662000","name":"Schweinfurt","type":"Kreisfreie_Stadt"},"district":{"key":"09662","name":"Schweinfurt","type":"Kreisfreie_Stadt"},"federalState":{"key":"09","name":"Bayern"}},{"name":"Peter-Krammer-Str.","postalCode":"97424","locality":"Schweinfurt","municipality":{"key":"09662000","name":"Schweinfurt","type":"Kreisfreie_Stadt"},"district":{"key":"09662","name":"Schweinfurt","type":"Kreisfreie_Stadt"},"federalState":{"key":"09","name":"Bayern"}},{"name":"Pfarrgasse","postalCode":"97424","locality":"Schweinfurt","municipality":{"key":"09662000","name":"Schweinfurt","type":"Kreisfreie_Stadt"},"district":{"key":"09662","name":"Schweinfurt","type":"Kreisfreie_Stadt"},"federalState":{"key":"09","name":"Bayern"}},{"name":"Pfarrgraben","postalCode":"97424","locality":"Schweinfurt","municipality":{"key":"09662000","name":"Schweinfurt","type":"Kreisfreie_Stadt"},"district":{"key":"09662","name":"Schweinfurt","type":"Kreisfreie_Stadt"},"federalState":{"key":"09","name":"Bayern"}},{"name":"Pfister-Park","postalCode":"97424","locality":"Schweinfurt","municipality":{"key":"09662000","name":"Schweinfurt","type":"Kreisfreie_Stadt"},"district":{"key":"09662","name":"Schweinfurt","type":"Kreisfreie_Stadt"},"federalState":{"key":"09","name":"Bayern"}},{"name":"Pfisterplatz","postalCode":"97424","locality":"Schweinfurt","municipality":{"key":"09662000","name":"Schweinfurt","type":"Kreisfreie_Stadt"},"district":{"key":"09662","name":"Schweinfurt","type":"Kreisfreie_Stadt"},"federalState":{"key":"09","name":"Bayern"}},{"name":"Philosophengang","postalCode":"97421","locality":"Schweinfurt","municipality":{"key":"09662000","name":"Schweinfurt","type":"Kreisfreie_Stadt"},"district":{"key":"09662","name":"Schweinfurt","type":"Kreisfreie_Stadt"},"federalState":{"key":"09","name":"Bayern"}},{"name":"Pirolweg","postalCode":"97422","locality":"Schweinfurt","municipality":{"key":"09662000","name":"Schweinfurt","type":"Kreisfreie_Stadt"},"district":{"key":"09662","name":"Schweinfurt","type":"Kreisfreie_Stadt"},"federalState":{"key":"09","name":"Bayern"}},{"name":"Quellenweg","postalCode":"97422","locality":"Schweinfurt","municipality":{"key":"09662000","name":"Schweinfurt","type":"Kreisfreie_Stadt"},"district":{"key":"09662","name":"Schweinfurt","type":"Kreisfreie_Stadt"},"federalState":{"key":"09","name":"Bayern"}},{"name":"Raßdörferstr.","postalCode":"97422","locality":"Schweinfurt","municipality":{"key":"09662000","name":"Schweinfurt","type":"Kreisfreie_Stadt"},"district":{"key":"09662","name":"Schweinfurt","type":"Kreisfreie_Stadt"},"federalState":{"key":"09","name":"Bayern"}},{"name":"Ratiborstr.","postalCode":"97424","locality":"Schweinfurt","municipality":{"key":"09662000","name":"Schweinfurt","type":"Kreisfreie_Stadt"},"district":{"key":"09662","name":"Schweinfurt","type":"Kreisfreie_Stadt"},"federalState":{"key":"09","name":"Bayern"}},{"name":"Reesbergstr.","postalCode":"97422","locality":"Schweinfurt","municipality":{"key":"09662000","name":"Schweinfurt","type":"Kreisfreie_Stadt"},"district":{"key":"09662","name":"Schweinfurt","type":"Kreisfreie_Stadt"},"federalState":{"key":"09","name":"Bayern"}},{"name":"Regnitzweg","postalCode":"97422","locality":"Schweinfurt","municipality":{"key":"09662000","name":"Schweinfurt","type":"Kreisfreie_Stadt"},"district":{"key":"09662","name":"Schweinfurt","type":"Kreisfreie_Stadt"},"federalState":{"key":"09","name":"Bayern"}},{"name":"Rhönstr.","postalCode":"97422","locality":"Schweinfurt","municipality":{"key":"09662000","name":"Schweinfurt","type":"Kreisfreie_Stadt"},"district":{"key":"09662","name":"Schweinfurt","type":"Kreisfreie_Stadt"},"federalState":{"key":"09","name":"Bayern"}},{"name":"Rhönstr.","postalCode":"97424","locality":"Schweinfurt","municipality":{"key":"09662000","name":"Schweinfurt","type":"Kreisfreie_Stadt"},"district":{"key":"09662","name":"Schweinfurt","type":"Kreisfreie_Stadt"},"federalState":{"key":"09","name":"Bayern"}},{"name":"Richard-Strauß-Str.","postalCode":"97421","locality":"Schweinfurt","municipality":{"key":"09662000","name":"Schweinfurt","type":"Kreisfreie_Stadt"},"district":{"key":"09662","name":"Schweinfurt","type":"Kreisfreie_Stadt"},"federalState":{"key":"09","name":"Bayern"}},{"name":"Richard-Wagner-Str.","postalCode":"97421","locality":"Schweinfurt","municipality":{"key":"09662000","name":"Schweinfurt","type":"Kreisfreie_Stadt"},"district":{"key":"09662","name":"Schweinfurt","type":"Kreisfreie_Stadt"},"federalState":{"key":"09","name":"Bayern"}},{"name":"Riedbachweg","postalCode":"97422","locality":"Schweinfurt","municipality":{"key":"09662000","name":"Schweinfurt","type":"Kreisfreie_Stadt"},"district":{"key":"09662","name":"Schweinfurt","type":"Kreisfreie_Stadt"},"federalState":{"key":"09","name":"Bayern"}},{"name":"Rittergasse","postalCode":"97421","locality":"Schweinfurt","municipality":{"key":"09662000","name":"Schweinfurt","type":"Kreisfreie_Stadt"},"district":{"key":"09662","name":"Schweinfurt","type":"Kreisfreie_Stadt"},"federalState":{"key":"09","name":"Bayern"}},{"name":"Robert-Koch-Str.","postalCode":"97422","locality":"Schweinfurt","municipality":{"key":"09662000","name":"Schweinfurt","type":"Kreisfreie_Stadt"},"district":{"key":"09662","name":"Schweinfurt","type":"Kreisfreie_Stadt"},"federalState":{"key":"09","name":"Bayern"}},{"name":"Rodachweg","postalCode":"97422","locality":"Schweinfurt","municipality":{"key":"09662000","name":"Schweinfurt","type":"Kreisfreie_Stadt"},"district":{"key":"09662","name":"Schweinfurt","type":"Kreisfreie_Stadt"},"federalState":{"key":"09","name":"Bayern"}},{"name":"Roseggerstr.","postalCode":"97422","locality":"Schweinfurt","municipality":{"key":"09662000","name":"Schweinfurt","type":"Kreisfreie_Stadt"},"district":{"key":"09662","name":"Schweinfurt","type":"Kreisfreie_Stadt"},"federalState":{"key":"09","name":"Bayern"}},{"name":"Rosengasse","postalCode":"97421","locality":"Schweinfurt","municipality":{"key":"09662000","name":"Schweinfurt","type":"Kreisfreie_Stadt"},"district":{"key":"09662","name":"Schweinfurt","type":"Kreisfreie_Stadt"},"federalState":{"key":"09","name":"Bayern"}},{"name":"Roßbrunnstr.","postalCode":"97421","locality":"Schweinfurt","municipality":{"key":"09662000","name":"Schweinfurt","type":"Kreisfreie_Stadt"},"district":{"key":"09662","name":"Schweinfurt","type":"Kreisfreie_Stadt"},"federalState":{"key":"09","name":"Bayern"}},{"name":"Rotkehlchenweg","postalCode":"97422","locality":"Schweinfurt","municipality":{"key":"09662000","name":"Schweinfurt","type":"Kreisfreie_Stadt"},"district":{"key":"09662","name":"Schweinfurt","type":"Kreisfreie_Stadt"},"federalState":{"key":"09","name":"Bayern"}},{"name":"Rückertstr.","postalCode":"97421","locality":"Schweinfurt","municipality":{"key":"09662000","name":"Schweinfurt","type":"Kreisfreie_Stadt"},"district":{"key":"09662","name":"Schweinfurt","type":"Kreisfreie_Stadt"},"federalState":{"key":"09","name":"Bayern"}},{"name":"Rudolf-Diesel-Str.","postalCode":"97424","locality":"Schweinfurt","municipality":{"key":"09662000","name":"Schweinfurt","type":"Kreisfreie_Stadt"},"district":{"key":"09662","name":"Schweinfurt","type":"Kreisfreie_Stadt"},"federalState":{"key":"09","name":"Bayern"}},{"name":"Rudolfstr.","postalCode":"97421","locality":"Schweinfurt","municipality":{"key":"09662000","name":"Schweinfurt","type":"Kreisfreie_Stadt"},"district":{"key":"09662","name":"Schweinfurt","type":"Kreisfreie_Stadt"},"federalState":{"key":"09","name":"Bayern"}},{"name":"Rüfferstr.","postalCode":"97421","locality":"Schweinfurt","municipality":{"key":"09662000","name":"Schweinfurt","type":"Kreisfreie_Stadt"},"district":{"key":"09662","name":"Schweinfurt","type":"Kreisfreie_Stadt"},"federalState":{"key":"09","name":"Bayern"}},{"name":"Rusterberg","postalCode":"97421","locality":"Schweinfurt","municipality":{"key":"09662000","name":"Schweinfurt","type":"Kreisfreie_Stadt"},"district":{"key":"09662","name":"Schweinfurt","type":"Kreisfreie_Stadt"},"federalState":{"key":"09","name":"Bayern"}},{"name":"Schlossweg","postalCode":"97513","locality":"Michelau i.Steigerwald","municipality":{"key":"09678157","name":"Michelau i.Steigerwald","type":"Kreisangehörige_Gemeinde"},"district":{"key":"09678","name":"Schweinfurt","type":"Landkreis"},"federalState":{"key":"09","name":"Bayern"}},{"name":"Seeweg","postalCode":"97513","locality":"Michelau i.Steigerwald","municipality":{"key":"09678157","name":"Michelau i.Steigerwald","type":"Kreisangehörige_Gemeinde"},"district":{"key":"09678","name":"Schweinfurt","type":"Landkreis"},"federalState":{"key":"09","name":"Bayern"}},{"name":"Spitalgrund","postalCode":"97513","locality":"Michelau i.Steigerwald","municipality":{"key":"09678157","name":"Michelau i.Steigerwald","type":"Kreisangehörige_Gemeinde"},"district":{"key":"09678","name":"Schweinfurt","type":"Landkreis"},"federalState":{"key":"09","name":"Bayern"}},{"name":"Steigerwaldstr.","postalCode":"97513","locality":"Michelau i.Steigerwald","municipality":{"key":"09678157","name":"Michelau i.Steigerwald","type":"Kreisangehörige_Gemeinde"},"district":{"key":"09678","name":"Schweinfurt","type":"Landkreis"},"federalState":{"key":"09","name":"Bayern"}},{"name":"Sudrachshöhe","postalCode":"97513","locality":"Michelau i.Steigerwald","municipality":{"key":"09678157","name":"Michelau i.Steigerwald","type":"Kreisangehörige_Gemeinde"},"district":{"key":"09678","name":"Schweinfurt","type":"Landkreis"},"federalState":{"key":"09","name":"Bayern"}},{"name":"Tannenweg","postalCode":"97422","locality":"Schweinfurt","municipality":{"key":"09662000","name":"Schweinfurt","type":"Kreisfreie_Stadt"},"district":{"key":"09662","name":"Schweinfurt","type":"Kreisfreie_Stadt"},"federalState":{"key":"09","name":"Bayern"}},{"name":"Tauberweg","postalCode":"97422","locality":"Schweinfurt","municipality":{"key":"09662000","name":"Schweinfurt","type":"Kreisfreie_Stadt"},"district":{"key":"09662","name":"Schweinfurt","type":"Kreisfreie_Stadt"},"federalState":{"key":"09","name":"Bayern"}},{"name":"Teilberg","postalCode":"97422","locality":"Schweinfurt","municipality":{"key":"09662000","name":"Schweinfurt","type":"Kreisfreie_Stadt"},"district":{"key":"09662","name":"Schweinfurt","type":"Kreisfreie_Stadt"},"federalState":{"key":"09","name":"Bayern"}},{"name":"Texasstr.","postalCode":"97424","locality":"Schweinfurt","municipality":{"key":"09662000","name":"Schweinfurt","type":"Kreisfreie_Stadt"},"district":{"key":"09662","name":"Schweinfurt","type":"Kreisfreie_Stadt"},"federalState":{"key":"09","name":"Bayern"}},{"name":"Theodor-Fischer-Platz","postalCode":"97421","locality":"Schweinfurt","municipality":{"key":"09662000","name":"Schweinfurt","type":"Kreisfreie_Stadt"},"district":{"key":"09662","name":"Schweinfurt","type":"Kreisfreie_Stadt"},"federalState":{"key":"09","name":"Bayern"}},{"name":"Theodor-Heuss-Str.","postalCode":"97422","locality":"Schweinfurt","municipality":{"key":"09662000","name":"Schweinfurt","type":"Kreisfreie_Stadt"},"district":{"key":"09662","name":"Schweinfurt","type":"Kreisfreie_Stadt"},"federalState":{"key":"09","name":"Bayern"}},{"name":"Theresienstr.","postalCode":"97421","locality":"Schweinfurt","municipality":{"key":"09662000","name":"Schweinfurt","type":"Kreisfreie_Stadt"},"district":{"key":"09662","name":"Schweinfurt","type":"Kreisfreie_Stadt"},"federalState":{"key":"09","name":"Bayern"}},{"name":"Theuerbrünnleinsweg","postalCode":"97422","locality":"Schweinfurt","municipality":{"key":"09662000","name":"Schweinfurt","type":"Kreisfreie_Stadt"},"district":{"key":"09662","name":"Schweinfurt","type":"Kreisfreie_Stadt"},"federalState":{"key":"09","name":"Bayern"}},{"name":"Thomas-Mann-Str.","postalCode":"97422","locality":"Schweinfurt","municipality":{"key":"09662000","name":"Schweinfurt","type":"Kreisfreie_Stadt"},"district":{"key":"09662","name":"Schweinfurt","type":"Kreisfreie_Stadt"},"federalState":{"key":"09","name":"Bayern"}},{"name":"Thomas-Mann-Str.","postalCode":"97424","locality":"Schweinfurt","municipality":{"key":"09662000","name":"Schweinfurt","type":"Kreisfreie_Stadt"},"district":{"key":"09662","name":"Schweinfurt","type":"Kreisfreie_Stadt"},"federalState":{"key":"09","name":"Bayern"}},{"name":"Thulbaweg","postalCode":"97422","locality":"Schweinfurt","municipality":{"key":"09662000","name":"Schweinfurt","type":"Kreisfreie_Stadt"},"district":{"key":"09662","name":"Schweinfurt","type":"Kreisfreie_Stadt"},"federalState":{"key":"09","name":"Bayern"}},{"name":"Tilman-Riemenschneider-Str.","postalCode":"97422","locality":"Schweinfurt","municipality":{"key":"09662000","name":"Schweinfurt","type":"Kreisfreie_Stadt"},"district":{"key":"09662","name":"Schweinfurt","type":"Kreisfreie_Stadt"},"federalState":{"key":"09","name":"Bayern"}},{"name":"Tilsitstr.","postalCode":"97424","locality":"Schweinfurt","municipality":{"key":"09662000","name":"Schweinfurt","type":"Kreisfreie_Stadt"},"district":{"key":"09662","name":"Schweinfurt","type":"Kreisfreie_Stadt"},"federalState":{"key":"09","name":"Bayern"}},{"name":"Turnierweg","postalCode":"97422","locality":"Schweinfurt","municipality":{"key":"09662000","name":"Schweinfurt","type":"Kreisfreie_Stadt"},"district":{"key":"09662","name":"Schweinfurt","type":"Kreisfreie_Stadt"},"federalState":{"key":"09","name":"Bayern"}},{"name":"Unterer Hasenknuck","postalCode":"97513","locality":"Michelau i.Steigerwald","municipality":{"key":"09678157","name":"Michelau i.Steigerwald","type":"Kreisangehörige_Gemeinde"},"district":{"key":"09678","name":"Schweinfurt","type":"Landkreis"},"federalState":{"key":"09","name":"Bayern"}},{"name":"Unterer Taubenherd","postalCode":"97513","locality":"Michelau i.Steigerwald","municipality":{"key":"09678157","name":"Michelau i.Steigerwald","type":"Kreisangehörige_Gemeinde"},"district":{"key":"09678","name":"Schweinfurt","type":"Landkreis"},"federalState":{"key":"09","name":"Bayern"}},{"name":"Vollburgstr.","postalCode":"97513","locality":"Michelau i.Steigerwald","municipality":{"key":"09678157","name":"Michelau i.Steigerwald","type":"Kreisangehörige_Gemeinde"},"district":{"key":"09678","name":"Schweinfurt","type":"Landkreis"},"federalState":{"key":"09","name":"Bayern"}},{"name":"Waldblick","postalCode":"97513","locality":"Michelau i.Steigerwald","municipality":{"key":"09678157","name":"Michelau i.Steigerwald","type":"Kreisangehörige_Gemeinde"},"district":{"key":"09678","name":"Schweinfurt","type":"Landkreis"},"federalState":{"key":"09","name":"Bayern"}},{"name":"Weinsteig","postalCode":"97513","locality":"Michelau i.Steigerwald","municipality":{"key":"09678157","name":"Michelau i.Steigerwald","type":"Kreisangehörige_Gemeinde"},"district":{"key":"09678","name":"Schweinfurt","type":"Landkreis"},"federalState":{"key":"09","name":"Bayern"}},{"name":"Wirtsgasse","postalCode":"97513","locality":"Michelau i.Steigerwald","municipality":{"key":"09678157","name":"Michelau i.Steigerwald","type":"Kreisangehörige_Gemeinde"},"district":{"key":"09678","name":"Schweinfurt","type":"Landkreis"},"federalState":{"key":"09","name":"Bayern"}},{"name":"Zabelsteinstr.","postalCode":"97513","locality":"Michelau i.Steigerwald","municipality":{"key":"09678157","name":"Michelau i.Steigerwald","type":"Kreisangehörige_Gemeinde"},"district":{"key":"09678","name":"Schweinfurt","type":"Landkreis"},"federalState":{"key":"09","name":"Bayern"}},{"name":"Zinsergasse","postalCode":"97513","locality":"Michelau i.Steigerwald","municipality":{"key":"09678157","name":"Michelau i.Steigerwald","type":"Kreisangehörige_Gemeinde"},"district":{"key":"09678","name":"Schweinfurt","type":"Landkreis"},"federalState":{"key":"09","name":"Bayern"}},{"name":"Zur Haudersmühle","postalCode":"97513","locality":"Michelau i.Steigerwald","municipality":{"key":"09678157","name":"Michelau i.Steigerwald","type":"Kreisangehörige_Gemeinde"},"district":{"key":"09678","name":"Schweinfurt","type":"Landkreis"},"federalState":{"key":"09","name":"Bayern"}},{"name":"Zwerchstückweg","postalCode":"97513","locality":"Michelau i.Steigerwald","municipality":{"key":"09678157","name":"Michelau i.Steigerwald","type":"Kreisangehörige_Gemeinde"},"district":{"key":"09678","name":"Schweinfurt","type":"Landkreis"},"federalState":{"key":"09","name":"Bayern"}},]