[{"name":"Abt-Corbinian-Str.","postalCode":"94526","locality":"Metten","municipality":{"key":"09271132","name":"Metten, M","type":"Markt"},"district":{"key":"09271","name":"Deggendorf","type":"Landkreis"},"federalState":{"key":"09","name":"Bayern"}},{"name":"Abteistr.","postalCode":"94526","locality":"Metten","municipality":{"key":"09271132","name":"Metten, M","type":"Markt"},"district":{"key":"09271","name":"Deggendorf","type":"Landkreis"},"federalState":{"key":"09","name":"Bayern"}},{"name":"Abt-Willibald-Str.","postalCode":"94526","locality":"Metten","municipality":{"key":"09271132","name":"Metten, M","type":"Markt"},"district":{"key":"09271","name":"Deggendorf","type":"Landkreis"},"federalState":{"key":"09","name":"Bayern"}},{"name":"Adalbert-Stifter-Str.","postalCode":"94526","locality":"Metten","municipality":{"key":"09271132","name":"Metten, M","type":"Markt"},"district":{"key":"09271","name":"Deggendorf","type":"Landkreis"},"federalState":{"key":"09","name":"Bayern"}},{"name":"Ahornring","postalCode":"84562","locality":"Mettenheim","municipality":{"key":"09183127","name":"Mettenheim","type":"Kreisangehörige_Gemeinde"},"district":{"key":"09183","name":"Mühldorf a.Inn","type":"Landkreis"},"federalState":{"key":"09","name":"Bayern"}},{"name":"Alsbach","postalCode":"54675","locality":"Mettendorf","municipality":{"key":"07232080","name":"Mettendorf","type":"Kreisangehörige_Gemeinde"},"district":{"key":"07232","name":"Eifelkreis Bitburg-Prüm","type":"Landkreis"},"federalState":{"key":"07","name":"Rheinland-Pfalz"}},{"name":"Alzstr.","postalCode":"84562","locality":"Mettenheim","municipality":{"key":"09183127","name":"Mettenheim","type":"Kreisangehörige_Gemeinde"},"district":{"key":"09183","name":"Mühldorf a.Inn","type":"Landkreis"},"federalState":{"key":"09","name":"Bayern"}},{"name":"Amand-Bielmeier-Str.","postalCode":"94526","locality":"Metten","municipality":{"key":"09271132","name":"Metten, M","type":"Markt"},"district":{"key":"09271","name":"Deggendorf","type":"Landkreis"},"federalState":{"key":"09","name":"Bayern"}},{"name":"Am Goldbach","postalCode":"67582","locality":"Mettenheim","municipality":{"key":"07331045","name":"Mettenheim","type":"Kreisangehörige_Gemeinde"},"district":{"key":"07331","name":"Alzey-Worms","type":"Landkreis"},"federalState":{"key":"07","name":"Rheinland-Pfalz"}},{"name":"Am Gutshof","postalCode":"67582","locality":"Mettenheim","municipality":{"key":"07331045","name":"Mettenheim","type":"Kreisangehörige_Gemeinde"},"district":{"key":"07331","name":"Alzey-Worms","type":"Landkreis"},"federalState":{"key":"07","name":"Rheinland-Pfalz"}},{"name":"Am Herrngarten","postalCode":"67582","locality":"Mettenheim","municipality":{"key":"07331045","name":"Mettenheim","type":"Kreisangehörige_Gemeinde"},"district":{"key":"07331","name":"Alzey-Worms","type":"Landkreis"},"federalState":{"key":"07","name":"Rheinland-Pfalz"}},{"name":"Am Kellerberg","postalCode":"94526","locality":"Metten","municipality":{"key":"09271132","name":"Metten, M","type":"Markt"},"district":{"key":"09271","name":"Deggendorf","type":"Landkreis"},"federalState":{"key":"09","name":"Bayern"}},{"name":"Am Klosterweiher","postalCode":"94526","locality":"Metten","municipality":{"key":"09271132","name":"Metten, M","type":"Markt"},"district":{"key":"09271","name":"Deggendorf","type":"Landkreis"},"federalState":{"key":"09","name":"Bayern"}},{"name":"Am Kraner","postalCode":"94526","locality":"Metten","municipality":{"key":"09271132","name":"Metten, M","type":"Markt"},"district":{"key":"09271","name":"Deggendorf","type":"Landkreis"},"federalState":{"key":"09","name":"Bayern"}},{"name":"Am Küchengarten","postalCode":"67582","locality":"Mettenheim","municipality":{"key":"07331045","name":"Mettenheim","type":"Kreisangehörige_Gemeinde"},"district":{"key":"07331","name":"Alzey-Worms","type":"Landkreis"},"federalState":{"key":"07","name":"Rheinland-Pfalz"}},{"name":"Am Michelsberg","postalCode":"67582","locality":"Mettenheim","municipality":{"key":"07331045","name":"Mettenheim","type":"Kreisangehörige_Gemeinde"},"district":{"key":"07331","name":"Alzey-Worms","type":"Landkreis"},"federalState":{"key":"07","name":"Rheinland-Pfalz"}},{"name":"Ampfinger Str.","postalCode":"84562","locality":"Mettenheim","municipality":{"key":"09183127","name":"Mettenheim","type":"Kreisangehörige_Gemeinde"},"district":{"key":"09183","name":"Mühldorf a.Inn","type":"Landkreis"},"federalState":{"key":"09","name":"Bayern"}},{"name":"Am Römer","postalCode":"67582","locality":"Mettenheim","municipality":{"key":"07331045","name":"Mettenheim","type":"Kreisangehörige_Gemeinde"},"district":{"key":"07331","name":"Alzey-Worms","type":"Landkreis"},"federalState":{"key":"07","name":"Rheinland-Pfalz"}},{"name":"Am Sandhügel","postalCode":"94526","locality":"Metten","municipality":{"key":"09271132","name":"Metten, M","type":"Markt"},"district":{"key":"09271","name":"Deggendorf","type":"Landkreis"},"federalState":{"key":"09","name":"Bayern"}},{"name":"Am Sickerberg","postalCode":"94526","locality":"Metten","municipality":{"key":"09271132","name":"Metten, M","type":"Markt"},"district":{"key":"09271","name":"Deggendorf","type":"Landkreis"},"federalState":{"key":"09","name":"Bayern"}},{"name":"Am Sportplatz","postalCode":"84562","locality":"Mettenheim","municipality":{"key":"09183127","name":"Mettenheim","type":"Kreisangehörige_Gemeinde"},"district":{"key":"09183","name":"Mühldorf a.Inn","type":"Landkreis"},"federalState":{"key":"09","name":"Bayern"}},{"name":"An der Auer Str.","postalCode":"84562","locality":"Mettenheim","municipality":{"key":"09183127","name":"Mettenheim","type":"Kreisangehörige_Gemeinde"},"district":{"key":"09183","name":"Mühldorf a.Inn","type":"Landkreis"},"federalState":{"key":"09","name":"Bayern"}},{"name":"Anemonenweg","postalCode":"84562","locality":"Mettenheim","municipality":{"key":"09183127","name":"Mettenheim","type":"Kreisangehörige_Gemeinde"},"district":{"key":"09183","name":"Mühldorf a.Inn","type":"Landkreis"},"federalState":{"key":"09","name":"Bayern"}},{"name":"Anton-Gilch-Str.","postalCode":"94526","locality":"Metten","municipality":{"key":"09271132","name":"Metten, M","type":"Markt"},"district":{"key":"09271","name":"Deggendorf","type":"Landkreis"},"federalState":{"key":"09","name":"Bayern"}},{"name":"Asterbacherweg","postalCode":"54675","locality":"Mettendorf","municipality":{"key":"07232080","name":"Mettendorf","type":"Kreisangehörige_Gemeinde"},"district":{"key":"07232","name":"Eifelkreis Bitburg-Prüm","type":"Landkreis"},"federalState":{"key":"07","name":"Rheinland-Pfalz"}},{"name":"Asternweg","postalCode":"84562","locality":"Mettenheim","municipality":{"key":"09183127","name":"Mettenheim","type":"Kreisangehörige_Gemeinde"},"district":{"key":"09183","name":"Mühldorf a.Inn","type":"Landkreis"},"federalState":{"key":"09","name":"Bayern"}},{"name":"Auf der Lehmkaul","postalCode":"54675","locality":"Mettendorf","municipality":{"key":"07232080","name":"Mettendorf","type":"Kreisangehörige_Gemeinde"},"district":{"key":"07232","name":"Eifelkreis Bitburg-Prüm","type":"Landkreis"},"federalState":{"key":"07","name":"Rheinland-Pfalz"}},{"name":"Außerhalb","postalCode":"67582","locality":"Mettenheim","municipality":{"key":"07331045","name":"Mettenheim","type":"Kreisangehörige_Gemeinde"},"district":{"key":"07331","name":"Alzey-Worms","type":"Landkreis"},"federalState":{"key":"07","name":"Rheinland-Pfalz"}},{"name":"Backhausgasse","postalCode":"67582","locality":"Mettenheim","municipality":{"key":"07331045","name":"Mettenheim","type":"Kreisangehörige_Gemeinde"},"district":{"key":"07331","name":"Alzey-Worms","type":"Landkreis"},"federalState":{"key":"07","name":"Rheinland-Pfalz"}},{"name":"Bahnhofstr.","postalCode":"67582","locality":"Mettenheim","municipality":{"key":"07331045","name":"Mettenheim","type":"Kreisangehörige_Gemeinde"},"district":{"key":"07331","name":"Alzey-Worms","type":"Landkreis"},"federalState":{"key":"07","name":"Rheinland-Pfalz"}},{"name":"Bahnhofstr.","postalCode":"94526","locality":"Metten","municipality":{"key":"09271132","name":"Metten, M","type":"Markt"},"district":{"key":"09271","name":"Deggendorf","type":"Landkreis"},"federalState":{"key":"09","name":"Bayern"}},{"name":"Bahnstr.","postalCode":"84562","locality":"Mettenheim","municipality":{"key":"09183127","name":"Mettenheim","type":"Kreisangehörige_Gemeinde"},"district":{"key":"09183","name":"Mühldorf a.Inn","type":"Landkreis"},"federalState":{"key":"09","name":"Bayern"}},{"name":"Berger Weg","postalCode":"94526","locality":"Metten","municipality":{"key":"09271132","name":"Metten, M","type":"Markt"},"district":{"key":"09271","name":"Deggendorf","type":"Landkreis"},"federalState":{"key":"09","name":"Bayern"}},{"name":"Berliner Str.","postalCode":"67582","locality":"Mettenheim","municipality":{"key":"07331045","name":"Mettenheim","type":"Kreisangehörige_Gemeinde"},"district":{"key":"07331","name":"Alzey-Worms","type":"Landkreis"},"federalState":{"key":"07","name":"Rheinland-Pfalz"}},{"name":"Betzenweg","postalCode":"54675","locality":"Mettendorf","municipality":{"key":"07232080","name":"Mettendorf","type":"Kreisangehörige_Gemeinde"},"district":{"key":"07232","name":"Eifelkreis Bitburg-Prüm","type":"Landkreis"},"federalState":{"key":"07","name":"Rheinland-Pfalz"}},{"name":"Blumenstr.","postalCode":"94526","locality":"Metten","municipality":{"key":"09271132","name":"Metten, M","type":"Markt"},"district":{"key":"09271","name":"Deggendorf","type":"Landkreis"},"federalState":{"key":"09","name":"Bayern"}},{"name":"Bonhoefferstr.","postalCode":"94526","locality":"Metten","municipality":{"key":"09271132","name":"Metten, M","type":"Markt"},"district":{"key":"09271","name":"Deggendorf","type":"Landkreis"},"federalState":{"key":"09","name":"Bayern"}},{"name":"Braungarten","postalCode":"94526","locality":"Metten","municipality":{"key":"09271132","name":"Metten, M","type":"Markt"},"district":{"key":"09271","name":"Deggendorf","type":"Landkreis"},"federalState":{"key":"09","name":"Bayern"}},{"name":"Breitenloh","postalCode":"84562","locality":"Mettenheim","municipality":{"key":"09183127","name":"Mettenheim","type":"Kreisangehörige_Gemeinde"},"district":{"key":"09183","name":"Mühldorf a.Inn","type":"Landkreis"},"federalState":{"key":"09","name":"Bayern"}},{"name":"Breslauer Str.","postalCode":"67582","locality":"Mettenheim","municipality":{"key":"07331045","name":"Mettenheim","type":"Kreisangehörige_Gemeinde"},"district":{"key":"07331","name":"Alzey-Worms","type":"Landkreis"},"federalState":{"key":"07","name":"Rheinland-Pfalz"}},{"name":"Breslauer Str.","postalCode":"94526","locality":"Metten","municipality":{"key":"09271132","name":"Metten, M","type":"Markt"},"district":{"key":"09271","name":"Deggendorf","type":"Landkreis"},"federalState":{"key":"09","name":"Bayern"}},{"name":"Brunnengang","postalCode":"67582","locality":"Mettenheim","municipality":{"key":"07331045","name":"Mettenheim","type":"Kreisangehörige_Gemeinde"},"district":{"key":"07331","name":"Alzey-Worms","type":"Landkreis"},"federalState":{"key":"07","name":"Rheinland-Pfalz"}},{"name":"Buchenstr.","postalCode":"84562","locality":"Mettenheim","municipality":{"key":"09183127","name":"Mettenheim","type":"Kreisangehörige_Gemeinde"},"district":{"key":"09183","name":"Mühldorf a.Inn","type":"Landkreis"},"federalState":{"key":"09","name":"Bayern"}},{"name":"Casimirring","postalCode":"67582","locality":"Mettenheim","municipality":{"key":"07331045","name":"Mettenheim","type":"Kreisangehörige_Gemeinde"},"district":{"key":"07331","name":"Alzey-Worms","type":"Landkreis"},"federalState":{"key":"07","name":"Rheinland-Pfalz"}},{"name":"Dahlienweg","postalCode":"84562","locality":"Mettenheim","municipality":{"key":"09183127","name":"Mettenheim","type":"Kreisangehörige_Gemeinde"},"district":{"key":"09183","name":"Mühldorf a.Inn","type":"Landkreis"},"federalState":{"key":"09","name":"Bayern"}},{"name":"Danziger Str.","postalCode":"67582","locality":"Mettenheim","municipality":{"key":"07331045","name":"Mettenheim","type":"Kreisangehörige_Gemeinde"},"district":{"key":"07331","name":"Alzey-Worms","type":"Landkreis"},"federalState":{"key":"07","name":"Rheinland-Pfalz"}},{"name":"Deggendorfer Str.","postalCode":"94526","locality":"Metten","municipality":{"key":"09271132","name":"Metten, M","type":"Markt"},"district":{"key":"09271","name":"Deggendorf","type":"Landkreis"},"federalState":{"key":"09","name":"Bayern"}},{"name":"Donaustr.","postalCode":"94526","locality":"Metten","municipality":{"key":"09271132","name":"Metten, M","type":"Markt"},"district":{"key":"09271","name":"Deggendorf","type":"Landkreis"},"federalState":{"key":"09","name":"Bayern"}},{"name":"Dorfgraben","postalCode":"67582","locality":"Mettenheim","municipality":{"key":"07331045","name":"Mettenheim","type":"Kreisangehörige_Gemeinde"},"district":{"key":"07331","name":"Alzey-Worms","type":"Landkreis"},"federalState":{"key":"07","name":"Rheinland-Pfalz"}},{"name":"Dr.-Hayler-Weg","postalCode":"94526","locality":"Metten","municipality":{"key":"09271132","name":"Metten, M","type":"Markt"},"district":{"key":"09271","name":"Deggendorf","type":"Landkreis"},"federalState":{"key":"09","name":"Bayern"}},{"name":"Edelweissstr.","postalCode":"94526","locality":"Metten","municipality":{"key":"09271132","name":"Metten, M","type":"Markt"},"district":{"key":"09271","name":"Deggendorf","type":"Landkreis"},"federalState":{"key":"09","name":"Bayern"}},{"name":"Egger Str.","postalCode":"94526","locality":"Metten","municipality":{"key":"09271132","name":"Metten, M","type":"Markt"},"district":{"key":"09271","name":"Deggendorf","type":"Landkreis"},"federalState":{"key":"09","name":"Bayern"}},{"name":"Eichenhainstr.","postalCode":"94526","locality":"Metten","municipality":{"key":"09271132","name":"Metten, M","type":"Markt"},"district":{"key":"09271","name":"Deggendorf","type":"Landkreis"},"federalState":{"key":"09","name":"Bayern"}},{"name":"Eichenring","postalCode":"84562","locality":"Mettenheim","municipality":{"key":"09183127","name":"Mettenheim","type":"Kreisangehörige_Gemeinde"},"district":{"key":"09183","name":"Mühldorf a.Inn","type":"Landkreis"},"federalState":{"key":"09","name":"Bayern"}},{"name":"Enzianstr.","postalCode":"84562","locality":"Mettenheim","municipality":{"key":"09183127","name":"Mettenheim","type":"Kreisangehörige_Gemeinde"},"district":{"key":"09183","name":"Mühldorf a.Inn","type":"Landkreis"},"federalState":{"key":"09","name":"Bayern"}},{"name":"Enztalstr.","postalCode":"54675","locality":"Mettendorf","municipality":{"key":"07232080","name":"Mettendorf","type":"Kreisangehörige_Gemeinde"},"district":{"key":"07232","name":"Eifelkreis Bitburg-Prüm","type":"Landkreis"},"federalState":{"key":"07","name":"Rheinland-Pfalz"}},{"name":"Erlenweg","postalCode":"84562","locality":"Mettenheim","municipality":{"key":"09183127","name":"Mettenheim","type":"Kreisangehörige_Gemeinde"},"district":{"key":"09183","name":"Mühldorf a.Inn","type":"Landkreis"},"federalState":{"key":"09","name":"Bayern"}},{"name":"Eschenweg","postalCode":"84562","locality":"Mettenheim","municipality":{"key":"09183127","name":"Mettenheim","type":"Kreisangehörige_Gemeinde"},"district":{"key":"09183","name":"Mühldorf a.Inn","type":"Landkreis"},"federalState":{"key":"09","name":"Bayern"}},{"name":"Fausenburg","postalCode":"54675","locality":"Mettendorf","municipality":{"key":"07232080","name":"Mettendorf","type":"Kreisangehörige_Gemeinde"},"district":{"key":"07232","name":"Eifelkreis Bitburg-Prüm","type":"Landkreis"},"federalState":{"key":"07","name":"Rheinland-Pfalz"}},{"name":"Fichtenring","postalCode":"84562","locality":"Mettenheim","municipality":{"key":"09183127","name":"Mettenheim","type":"Kreisangehörige_Gemeinde"},"district":{"key":"09183","name":"Mühldorf a.Inn","type":"Landkreis"},"federalState":{"key":"09","name":"Bayern"}},{"name":"Fischergang","postalCode":"67582","locality":"Mettenheim","municipality":{"key":"07331045","name":"Mettenheim","type":"Kreisangehörige_Gemeinde"},"district":{"key":"07331","name":"Alzey-Worms","type":"Landkreis"},"federalState":{"key":"07","name":"Rheinland-Pfalz"}},{"name":"Franz-Böhm-Str.","postalCode":"94526","locality":"Metten","municipality":{"key":"09271132","name":"Metten, M","type":"Markt"},"district":{"key":"09271","name":"Deggendorf","type":"Landkreis"},"federalState":{"key":"09","name":"Bayern"}},{"name":"Franz-Schosser-Str.","postalCode":"94526","locality":"Metten","municipality":{"key":"09271132","name":"Metten, M","type":"Markt"},"district":{"key":"09271","name":"Deggendorf","type":"Landkreis"},"federalState":{"key":"09","name":"Bayern"}},{"name":"Franz-Stettmeier-Str.","postalCode":"94526","locality":"Metten","municipality":{"key":"09271132","name":"Metten, M","type":"Markt"},"district":{"key":"09271","name":"Deggendorf","type":"Landkreis"},"federalState":{"key":"09","name":"Bayern"}},{"name":"Frauenwiese","postalCode":"94526","locality":"Metten","municipality":{"key":"09271132","name":"Metten, M","type":"Markt"},"district":{"key":"09271","name":"Deggendorf","type":"Landkreis"},"federalState":{"key":"09","name":"Bayern"}},{"name":"Friedhofstr.","postalCode":"94526","locality":"Metten","municipality":{"key":"09271132","name":"Metten, M","type":"Markt"},"district":{"key":"09271","name":"Deggendorf","type":"Landkreis"},"federalState":{"key":"09","name":"Bayern"}},{"name":"Friedlandstr.","postalCode":"94526","locality":"Metten","municipality":{"key":"09271132","name":"Metten, M","type":"Markt"},"district":{"key":"09271","name":"Deggendorf","type":"Landkreis"},"federalState":{"key":"09","name":"Bayern"}},{"name":"Frühlingstr.","postalCode":"94526","locality":"Metten","municipality":{"key":"09271132","name":"Metten, M","type":"Markt"},"district":{"key":"09271","name":"Deggendorf","type":"Landkreis"},"federalState":{"key":"09","name":"Bayern"}},{"name":"Gamelbertstr.","postalCode":"94526","locality":"Metten","municipality":{"key":"09271132","name":"Metten, M","type":"Markt"},"district":{"key":"09271","name":"Deggendorf","type":"Landkreis"},"federalState":{"key":"09","name":"Bayern"}},{"name":"Gartenpfad","postalCode":"67582","locality":"Mettenheim","municipality":{"key":"07331045","name":"Mettenheim","type":"Kreisangehörige_Gemeinde"},"district":{"key":"07331","name":"Alzey-Worms","type":"Landkreis"},"federalState":{"key":"07","name":"Rheinland-Pfalz"}},{"name":"Gartenstr.","postalCode":"54675","locality":"Mettendorf","municipality":{"key":"07232080","name":"Mettendorf","type":"Kreisangehörige_Gemeinde"},"district":{"key":"07232","name":"Eifelkreis Bitburg-Prüm","type":"Landkreis"},"federalState":{"key":"07","name":"Rheinland-Pfalz"}},{"name":"Gartenstr.","postalCode":"67582","locality":"Mettenheim","municipality":{"key":"07331045","name":"Mettenheim","type":"Kreisangehörige_Gemeinde"},"district":{"key":"07331","name":"Alzey-Worms","type":"Landkreis"},"federalState":{"key":"07","name":"Rheinland-Pfalz"}},{"name":"Gartenstr.","postalCode":"94526","locality":"Metten","municipality":{"key":"09271132","name":"Metten, M","type":"Markt"},"district":{"key":"09271","name":"Deggendorf","type":"Landkreis"},"federalState":{"key":"09","name":"Bayern"}},{"name":"Gartenweg","postalCode":"84562","locality":"Mettenheim","municipality":{"key":"09183127","name":"Mettenheim","type":"Kreisangehörige_Gemeinde"},"district":{"key":"09183","name":"Mühldorf a.Inn","type":"Landkreis"},"federalState":{"key":"09","name":"Bayern"}},{"name":"Geranienstr.","postalCode":"84562","locality":"Mettenheim","municipality":{"key":"09183127","name":"Mettenheim","type":"Kreisangehörige_Gemeinde"},"district":{"key":"09183","name":"Mühldorf a.Inn","type":"Landkreis"},"federalState":{"key":"09","name":"Bayern"}},{"name":"Gewerbegebiet","postalCode":"54675","locality":"Mettendorf","municipality":{"key":"07232080","name":"Mettendorf","type":"Kreisangehörige_Gemeinde"},"district":{"key":"07232","name":"Eifelkreis Bitburg-Prüm","type":"Landkreis"},"federalState":{"key":"07","name":"Rheinland-Pfalz"}},{"name":"Gewerbestr.","postalCode":"84562","locality":"Mettenheim","municipality":{"key":"09183127","name":"Mettenheim","type":"Kreisangehörige_Gemeinde"},"district":{"key":"09183","name":"Mühldorf a.Inn","type":"Landkreis"},"federalState":{"key":"09","name":"Bayern"}},{"name":"Gladiolenstr.","postalCode":"84562","locality":"Mettenheim","municipality":{"key":"09183127","name":"Mettenheim","type":"Kreisangehörige_Gemeinde"},"district":{"key":"09183","name":"Mühldorf a.Inn","type":"Landkreis"},"federalState":{"key":"09","name":"Bayern"}},{"name":"Goethestr.","postalCode":"67582","locality":"Mettenheim","municipality":{"key":"07331045","name":"Mettenheim","type":"Kreisangehörige_Gemeinde"},"district":{"key":"07331","name":"Alzey-Worms","type":"Landkreis"},"federalState":{"key":"07","name":"Rheinland-Pfalz"}},{"name":"Goldachstr.","postalCode":"84562","locality":"Mettenheim","municipality":{"key":"09183127","name":"Mettenheim","type":"Kreisangehörige_Gemeinde"},"district":{"key":"09183","name":"Mühldorf a.Inn","type":"Landkreis"},"federalState":{"key":"09","name":"Bayern"}},{"name":"Gumattenkirchen","postalCode":"84562","locality":"Mettenheim","municipality":{"key":"09183127","name":"Mettenheim","type":"Kreisangehörige_Gemeinde"},"district":{"key":"09183","name":"Mühldorf a.Inn","type":"Landkreis"},"federalState":{"key":"09","name":"Bayern"}},{"name":"Harthausen","postalCode":"84562","locality":"Mettenheim","municipality":{"key":"09183127","name":"Mettenheim","type":"Kreisangehörige_Gemeinde"},"district":{"key":"09183","name":"Mühldorf a.Inn","type":"Landkreis"},"federalState":{"key":"09","name":"Bayern"}},{"name":"Hauptstr.","postalCode":"54675","locality":"Mettendorf","municipality":{"key":"07232080","name":"Mettendorf","type":"Kreisangehörige_Gemeinde"},"district":{"key":"07232","name":"Eifelkreis Bitburg-Prüm","type":"Landkreis"},"federalState":{"key":"07","name":"Rheinland-Pfalz"}},{"name":"Hauptstr.","postalCode":"67582","locality":"Mettenheim","municipality":{"key":"07331045","name":"Mettenheim","type":"Kreisangehörige_Gemeinde"},"district":{"key":"07331","name":"Alzey-Worms","type":"Landkreis"},"federalState":{"key":"07","name":"Rheinland-Pfalz"}},{"name":"Hauptstr.","postalCode":"94526","locality":"Metten","municipality":{"key":"09271132","name":"Metten, M","type":"Markt"},"district":{"key":"09271","name":"Deggendorf","type":"Landkreis"},"federalState":{"key":"09","name":"Bayern"}},{"name":"Heiglbergsiedlung","postalCode":"94526","locality":"Metten","municipality":{"key":"09271132","name":"Metten, M","type":"Markt"},"district":{"key":"09271","name":"Deggendorf","type":"Landkreis"},"federalState":{"key":"09","name":"Bayern"}},{"name":"Hesslocher Hohl","postalCode":"67582","locality":"Mettenheim","municipality":{"key":"07331045","name":"Mettenheim","type":"Kreisangehörige_Gemeinde"},"district":{"key":"07331","name":"Alzey-Worms","type":"Landkreis"},"federalState":{"key":"07","name":"Rheinland-Pfalz"}},{"name":"Hintergasse","postalCode":"67582","locality":"Mettenheim","municipality":{"key":"07331045","name":"Mettenheim","type":"Kreisangehörige_Gemeinde"},"district":{"key":"07331","name":"Alzey-Worms","type":"Landkreis"},"federalState":{"key":"07","name":"Rheinland-Pfalz"}},{"name":"Hochwiese","postalCode":"94526","locality":"Metten","municipality":{"key":"09271132","name":"Metten, M","type":"Markt"},"district":{"key":"09271","name":"Deggendorf","type":"Landkreis"},"federalState":{"key":"09","name":"Bayern"}},{"name":"Ida-Eid-Str.","postalCode":"94526","locality":"Metten","municipality":{"key":"09271132","name":"Metten, M","type":"Markt"},"district":{"key":"09271","name":"Deggendorf","type":"Landkreis"},"federalState":{"key":"09","name":"Bayern"}},{"name":"Im Brückenpesch","postalCode":"54675","locality":"Mettendorf","municipality":{"key":"07232080","name":"Mettendorf","type":"Kreisangehörige_Gemeinde"},"district":{"key":"07232","name":"Eifelkreis Bitburg-Prüm","type":"Landkreis"},"federalState":{"key":"07","name":"Rheinland-Pfalz"}},{"name":"Im Bungert","postalCode":"54675","locality":"Mettendorf","municipality":{"key":"07232080","name":"Mettendorf","type":"Kreisangehörige_Gemeinde"},"district":{"key":"07232","name":"Eifelkreis Bitburg-Prüm","type":"Landkreis"},"federalState":{"key":"07","name":"Rheinland-Pfalz"}},{"name":"Im Entenbusch","postalCode":"67582","locality":"Mettenheim","municipality":{"key":"07331045","name":"Mettenheim","type":"Kreisangehörige_Gemeinde"},"district":{"key":"07331","name":"Alzey-Worms","type":"Landkreis"},"federalState":{"key":"07","name":"Rheinland-Pfalz"}},{"name":"Im Fronhof","postalCode":"54675","locality":"Mettendorf","municipality":{"key":"07232080","name":"Mettendorf","type":"Kreisangehörige_Gemeinde"},"district":{"key":"07232","name":"Eifelkreis Bitburg-Prüm","type":"Landkreis"},"federalState":{"key":"07","name":"Rheinland-Pfalz"}},{"name":"Im Holland","postalCode":"54675","locality":"Mettendorf","municipality":{"key":"07232080","name":"Mettendorf","type":"Kreisangehörige_Gemeinde"},"district":{"key":"07232","name":"Eifelkreis Bitburg-Prüm","type":"Landkreis"},"federalState":{"key":"07","name":"Rheinland-Pfalz"}},{"name":"Im Kiemen","postalCode":"54675","locality":"Mettendorf","municipality":{"key":"07232080","name":"Mettendorf","type":"Kreisangehörige_Gemeinde"},"district":{"key":"07232","name":"Eifelkreis Bitburg-Prüm","type":"Landkreis"},"federalState":{"key":"07","name":"Rheinland-Pfalz"}},{"name":"Im Riedel","postalCode":"54675","locality":"Mettendorf","municipality":{"key":"07232080","name":"Mettendorf","type":"Kreisangehörige_Gemeinde"},"district":{"key":"07232","name":"Eifelkreis Bitburg-Prüm","type":"Landkreis"},"federalState":{"key":"07","name":"Rheinland-Pfalz"}},{"name":"Im Sack","postalCode":"67582","locality":"Mettenheim","municipality":{"key":"07331045","name":"Mettenheim","type":"Kreisangehörige_Gemeinde"},"district":{"key":"07331","name":"Alzey-Worms","type":"Landkreis"},"federalState":{"key":"07","name":"Rheinland-Pfalz"}},{"name":"Im Steinborn","postalCode":"54675","locality":"Mettendorf","municipality":{"key":"07232080","name":"Mettendorf","type":"Kreisangehörige_Gemeinde"},"district":{"key":"07232","name":"Eifelkreis Bitburg-Prüm","type":"Landkreis"},"federalState":{"key":"07","name":"Rheinland-Pfalz"}},{"name":"Im Weidig","postalCode":"54675","locality":"Mettendorf","municipality":{"key":"07232080","name":"Mettendorf","type":"Kreisangehörige_Gemeinde"},"district":{"key":"07232","name":"Eifelkreis Bitburg-Prüm","type":"Landkreis"},"federalState":{"key":"07","name":"Rheinland-Pfalz"}},{"name":"In den Weingärten","postalCode":"67582","locality":"Mettenheim","municipality":{"key":"07331045","name":"Mettenheim","type":"Kreisangehörige_Gemeinde"},"district":{"key":"07331","name":"Alzey-Worms","type":"Landkreis"},"federalState":{"key":"07","name":"Rheinland-Pfalz"}},{"name":"Innstr.","postalCode":"84562","locality":"Mettenheim","municipality":{"key":"09183127","name":"Mettenheim","type":"Kreisangehörige_Gemeinde"},"district":{"key":"09183","name":"Mühldorf a.Inn","type":"Landkreis"},"federalState":{"key":"09","name":"Bayern"}},{"name":"Irmgard-Preymann-Str.","postalCode":"94526","locality":"Metten","municipality":{"key":"09271132","name":"Metten, M","type":"Markt"},"district":{"key":"09271","name":"Deggendorf","type":"Landkreis"},"federalState":{"key":"09","name":"Bayern"}},{"name":"Isarstr.","postalCode":"84562","locality":"Mettenheim","municipality":{"key":"09183127","name":"Mettenheim","type":"Kreisangehörige_Gemeinde"},"district":{"key":"09183","name":"Mühldorf a.Inn","type":"Landkreis"},"federalState":{"key":"09","name":"Bayern"}},{"name":"Isenstr.","postalCode":"84562","locality":"Mettenheim","municipality":{"key":"09183127","name":"Mettenheim","type":"Kreisangehörige_Gemeinde"},"district":{"key":"09183","name":"Mühldorf a.Inn","type":"Landkreis"},"federalState":{"key":"09","name":"Bayern"}},{"name":"Jahnstr.","postalCode":"67582","locality":"Mettenheim","municipality":{"key":"07331045","name":"Mettenheim","type":"Kreisangehörige_Gemeinde"},"district":{"key":"07331","name":"Alzey-Worms","type":"Landkreis"},"federalState":{"key":"07","name":"Rheinland-Pfalz"}},{"name":"Jahnstr.","postalCode":"94526","locality":"Metten","municipality":{"key":"09271132","name":"Metten, M","type":"Markt"},"district":{"key":"09271","name":"Deggendorf","type":"Landkreis"},"federalState":{"key":"09","name":"Bayern"}},{"name":"Josef-Schlicht-Str.","postalCode":"94526","locality":"Metten","municipality":{"key":"09271132","name":"Metten, M","type":"Markt"},"district":{"key":"09271","name":"Deggendorf","type":"Landkreis"},"federalState":{"key":"09","name":"Bayern"}},{"name":"Joseph - Artmeier - Str.","postalCode":"94526","locality":"Metten","municipality":{"key":"09271132","name":"Metten, M","type":"Markt"},"district":{"key":"09271","name":"Deggendorf","type":"Landkreis"},"federalState":{"key":"09","name":"Bayern"}},{"name":"Kaiser-Heinrich-Str.","postalCode":"94526","locality":"Metten","municipality":{"key":"09271132","name":"Metten, M","type":"Markt"},"district":{"key":"09271","name":"Deggendorf","type":"Landkreis"},"federalState":{"key":"09","name":"Bayern"}},{"name":"Kaiser-Karl-Str.","postalCode":"94526","locality":"Metten","municipality":{"key":"09271132","name":"Metten, M","type":"Markt"},"district":{"key":"09271","name":"Deggendorf","type":"Landkreis"},"federalState":{"key":"09","name":"Bayern"}},{"name":"Kapellenstr.","postalCode":"54675","locality":"Mettendorf","municipality":{"key":"07232080","name":"Mettendorf","type":"Kreisangehörige_Gemeinde"},"district":{"key":"07232","name":"Eifelkreis Bitburg-Prüm","type":"Landkreis"},"federalState":{"key":"07","name":"Rheinland-Pfalz"}},{"name":"Karl-Kufner-Str.","postalCode":"94526","locality":"Metten","municipality":{"key":"09271132","name":"Metten, M","type":"Markt"},"district":{"key":"09271","name":"Deggendorf","type":"Landkreis"},"federalState":{"key":"09","name":"Bayern"}},{"name":"Karl-Moser-Str.","postalCode":"94526","locality":"Metten","municipality":{"key":"09271132","name":"Metten, M","type":"Markt"},"district":{"key":"09271","name":"Deggendorf","type":"Landkreis"},"federalState":{"key":"09","name":"Bayern"}},{"name":"Kellerweg","postalCode":"67582","locality":"Mettenheim","municipality":{"key":"07331045","name":"Mettenheim","type":"Kreisangehörige_Gemeinde"},"district":{"key":"07331","name":"Alzey-Worms","type":"Landkreis"},"federalState":{"key":"07","name":"Rheinland-Pfalz"}},{"name":"Kiefernweg","postalCode":"84562","locality":"Mettenheim","municipality":{"key":"09183127","name":"Mettenheim","type":"Kreisangehörige_Gemeinde"},"district":{"key":"09183","name":"Mühldorf a.Inn","type":"Landkreis"},"federalState":{"key":"09","name":"Bayern"}},{"name":"Kirchenplatz","postalCode":"84562","locality":"Mettenheim","municipality":{"key":"09183127","name":"Mettenheim","type":"Kreisangehörige_Gemeinde"},"district":{"key":"09183","name":"Mühldorf a.Inn","type":"Landkreis"},"federalState":{"key":"09","name":"Bayern"}},{"name":"Kirchgasse","postalCode":"67582","locality":"Mettenheim","municipality":{"key":"07331045","name":"Mettenheim","type":"Kreisangehörige_Gemeinde"},"district":{"key":"07331","name":"Alzey-Worms","type":"Landkreis"},"federalState":{"key":"07","name":"Rheinland-Pfalz"}},{"name":"Kirchplatz","postalCode":"94526","locality":"Metten","municipality":{"key":"09271132","name":"Metten, M","type":"Markt"},"district":{"key":"09271","name":"Deggendorf","type":"Landkreis"},"federalState":{"key":"09","name":"Bayern"}},{"name":"Kirchweg","postalCode":"84562","locality":"Mettenheim","municipality":{"key":"09183127","name":"Mettenheim","type":"Kreisangehörige_Gemeinde"},"district":{"key":"09183","name":"Mühldorf a.Inn","type":"Landkreis"},"federalState":{"key":"09","name":"Bayern"}},{"name":"Kleiststr.","postalCode":"67582","locality":"Mettenheim","municipality":{"key":"07331045","name":"Mettenheim","type":"Kreisangehörige_Gemeinde"},"district":{"key":"07331","name":"Alzey-Worms","type":"Landkreis"},"federalState":{"key":"07","name":"Rheinland-Pfalz"}},{"name":"Klosterstr.","postalCode":"84562","locality":"Mettenheim","municipality":{"key":"09183127","name":"Mettenheim","type":"Kreisangehörige_Gemeinde"},"district":{"key":"09183","name":"Mühldorf a.Inn","type":"Landkreis"},"federalState":{"key":"09","name":"Bayern"}},{"name":"Königsberger Str.","postalCode":"67582","locality":"Mettenheim","municipality":{"key":"07331045","name":"Mettenheim","type":"Kreisangehörige_Gemeinde"},"district":{"key":"07331","name":"Alzey-Worms","type":"Landkreis"},"federalState":{"key":"07","name":"Rheinland-Pfalz"}},{"name":"Kraiburger Str.","postalCode":"84562","locality":"Mettenheim","municipality":{"key":"09183127","name":"Mettenheim","type":"Kreisangehörige_Gemeinde"},"district":{"key":"09183","name":"Mühldorf a.Inn","type":"Landkreis"},"federalState":{"key":"09","name":"Bayern"}},{"name":"Kramerstr.","postalCode":"84562","locality":"Mettenheim","municipality":{"key":"09183127","name":"Mettenheim","type":"Kreisangehörige_Gemeinde"},"district":{"key":"09183","name":"Mühldorf a.Inn","type":"Landkreis"},"federalState":{"key":"09","name":"Bayern"}},{"name":"Krankenhausstr.","postalCode":"94526","locality":"Metten","municipality":{"key":"09271132","name":"Metten, M","type":"Markt"},"district":{"key":"09271","name":"Deggendorf","type":"Landkreis"},"federalState":{"key":"09","name":"Bayern"}},{"name":"Kreuzhohl","postalCode":"67582","locality":"Mettenheim","municipality":{"key":"07331045","name":"Mettenheim","type":"Kreisangehörige_Gemeinde"},"district":{"key":"07331","name":"Alzey-Worms","type":"Landkreis"},"federalState":{"key":"07","name":"Rheinland-Pfalz"}},{"name":"Lärchenring","postalCode":"84562","locality":"Mettenheim","municipality":{"key":"09183127","name":"Mettenheim","type":"Kreisangehörige_Gemeinde"},"district":{"key":"09183","name":"Mühldorf a.Inn","type":"Landkreis"},"federalState":{"key":"09","name":"Bayern"}},{"name":"Lechstr.","postalCode":"84562","locality":"Mettenheim","municipality":{"key":"09183127","name":"Mettenheim","type":"Kreisangehörige_Gemeinde"},"district":{"key":"09183","name":"Mühldorf a.Inn","type":"Landkreis"},"federalState":{"key":"09","name":"Bayern"}},{"name":"Lehmberg","postalCode":"94526","locality":"Metten","municipality":{"key":"09271132","name":"Metten, M","type":"Markt"},"district":{"key":"09271","name":"Deggendorf","type":"Landkreis"},"federalState":{"key":"09","name":"Bayern"}},{"name":"Lehmberger Str.","postalCode":"94526","locality":"Metten","municipality":{"key":"09271132","name":"Metten, M","type":"Markt"},"district":{"key":"09271","name":"Deggendorf","type":"Landkreis"},"federalState":{"key":"09","name":"Bayern"}},{"name":"Leitenweg","postalCode":"94526","locality":"Metten","municipality":{"key":"09271132","name":"Metten, M","type":"Markt"},"district":{"key":"09271","name":"Deggendorf","type":"Landkreis"},"federalState":{"key":"09","name":"Bayern"}},{"name":"Lilienstr.","postalCode":"84562","locality":"Mettenheim","municipality":{"key":"09183127","name":"Mettenheim","type":"Kreisangehörige_Gemeinde"},"district":{"key":"09183","name":"Mühldorf a.Inn","type":"Landkreis"},"federalState":{"key":"09","name":"Bayern"}},{"name":"Luciusgasse","postalCode":"67582","locality":"Mettenheim","municipality":{"key":"07331045","name":"Mettenheim","type":"Kreisangehörige_Gemeinde"},"district":{"key":"07331","name":"Alzey-Worms","type":"Landkreis"},"federalState":{"key":"07","name":"Rheinland-Pfalz"}},{"name":"Ludwig-der-Bayer-Str.","postalCode":"84562","locality":"Mettenheim","municipality":{"key":"09183127","name":"Mettenheim","type":"Kreisangehörige_Gemeinde"},"district":{"key":"09183","name":"Mühldorf a.Inn","type":"Landkreis"},"federalState":{"key":"09","name":"Bayern"}},{"name":"Ludwig-Heigl-Str.","postalCode":"94526","locality":"Metten","municipality":{"key":"09271132","name":"Metten, M","type":"Markt"},"district":{"key":"09271","name":"Deggendorf","type":"Landkreis"},"federalState":{"key":"09","name":"Bayern"}},{"name":"Ludwig-Uhland-Str.","postalCode":"67582","locality":"Mettenheim","municipality":{"key":"07331045","name":"Mettenheim","type":"Kreisangehörige_Gemeinde"},"district":{"key":"07331","name":"Alzey-Worms","type":"Landkreis"},"federalState":{"key":"07","name":"Rheinland-Pfalz"}},{"name":"Luxemburger Str.","postalCode":"54675","locality":"Mettendorf","municipality":{"key":"07232080","name":"Mettendorf","type":"Kreisangehörige_Gemeinde"},"district":{"key":"07232","name":"Eifelkreis Bitburg-Prüm","type":"Landkreis"},"federalState":{"key":"07","name":"Rheinland-Pfalz"}},{"name":"Magnolienweg","postalCode":"84562","locality":"Mettenheim","municipality":{"key":"09183127","name":"Mettenheim","type":"Kreisangehörige_Gemeinde"},"district":{"key":"09183","name":"Mühldorf a.Inn","type":"Landkreis"},"federalState":{"key":"09","name":"Bayern"}},{"name":"Malvenweg","postalCode":"84562","locality":"Mettenheim","municipality":{"key":"09183127","name":"Mettenheim","type":"Kreisangehörige_Gemeinde"},"district":{"key":"09183","name":"Mühldorf a.Inn","type":"Landkreis"},"federalState":{"key":"09","name":"Bayern"}},{"name":"Margeritenstr.","postalCode":"84562","locality":"Mettenheim","municipality":{"key":"09183127","name":"Mettenheim","type":"Kreisangehörige_Gemeinde"},"district":{"key":"09183","name":"Mühldorf a.Inn","type":"Landkreis"},"federalState":{"key":"09","name":"Bayern"}},{"name":"Marktplatz","postalCode":"94526","locality":"Metten","municipality":{"key":"09271132","name":"Metten, M","type":"Markt"},"district":{"key":"09271","name":"Deggendorf","type":"Landkreis"},"federalState":{"key":"09","name":"Bayern"}},{"name":"Maurus-Dietl-Str.","postalCode":"94526","locality":"Metten","municipality":{"key":"09271132","name":"Metten, M","type":"Markt"},"district":{"key":"09271","name":"Deggendorf","type":"Landkreis"},"federalState":{"key":"09","name":"Bayern"}},{"name":"Meteriker Str.","postalCode":"54675","locality":"Mettendorf","municipality":{"key":"07232080","name":"Mettendorf","type":"Kreisangehörige_Gemeinde"},"district":{"key":"07232","name":"Eifelkreis Bitburg-Prüm","type":"Landkreis"},"federalState":{"key":"07","name":"Rheinland-Pfalz"}},{"name":"Mettener Str.","postalCode":"94526","locality":"Metten","municipality":{"key":"09271132","name":"Metten, M","type":"Markt"},"district":{"key":"09271","name":"Deggendorf","type":"Landkreis"},"federalState":{"key":"09","name":"Bayern"}},{"name":"Michelsberger Hohl","postalCode":"67582","locality":"Mettenheim","municipality":{"key":"07331045","name":"Mettenheim","type":"Kreisangehörige_Gemeinde"},"district":{"key":"07331","name":"Alzey-Worms","type":"Landkreis"},"federalState":{"key":"07","name":"Rheinland-Pfalz"}},{"name":"Mittelberger Hohl","postalCode":"67582","locality":"Mettenheim","municipality":{"key":"07331045","name":"Mettenheim","type":"Kreisangehörige_Gemeinde"},"district":{"key":"07331","name":"Alzey-Worms","type":"Landkreis"},"federalState":{"key":"07","name":"Rheinland-Pfalz"}},{"name":"Mittelgasse","postalCode":"67582","locality":"Mettenheim","municipality":{"key":"07331045","name":"Mettenheim","type":"Kreisangehörige_Gemeinde"},"district":{"key":"07331","name":"Alzey-Worms","type":"Landkreis"},"federalState":{"key":"07","name":"Rheinland-Pfalz"}},{"name":"Mitterfeldstr.","postalCode":"94526","locality":"Metten","municipality":{"key":"09271132","name":"Metten, M","type":"Markt"},"district":{"key":"09271","name":"Deggendorf","type":"Landkreis"},"federalState":{"key":"09","name":"Bayern"}},{"name":"Moosgasse","postalCode":"94526","locality":"Metten","municipality":{"key":"09271132","name":"Metten, M","type":"Markt"},"district":{"key":"09271","name":"Deggendorf","type":"Landkreis"},"federalState":{"key":"09","name":"Bayern"}},{"name":"Mößlinger Str.","postalCode":"84562","locality":"Mettenheim","municipality":{"key":"09183127","name":"Mettenheim","type":"Kreisangehörige_Gemeinde"},"district":{"key":"09183","name":"Mühldorf a.Inn","type":"Landkreis"},"federalState":{"key":"09","name":"Bayern"}},{"name":"Mozartstr.","postalCode":"84562","locality":"Mettenheim","municipality":{"key":"09183127","name":"Mettenheim","type":"Kreisangehörige_Gemeinde"},"district":{"key":"09183","name":"Mühldorf a.Inn","type":"Landkreis"},"federalState":{"key":"09","name":"Bayern"}},{"name":"Münchener Str.","postalCode":"84562","locality":"Mettenheim","municipality":{"key":"09183127","name":"Mettenheim","type":"Kreisangehörige_Gemeinde"},"district":{"key":"09183","name":"Mühldorf a.Inn","type":"Landkreis"},"federalState":{"key":"09","name":"Bayern"}},{"name":"Narzissenstr.","postalCode":"84562","locality":"Mettenheim","municipality":{"key":"09183127","name":"Mettenheim","type":"Kreisangehörige_Gemeinde"},"district":{"key":"09183","name":"Mühldorf a.Inn","type":"Landkreis"},"federalState":{"key":"09","name":"Bayern"}},{"name":"Nelkenstr.","postalCode":"84562","locality":"Mettenheim","municipality":{"key":"09183127","name":"Mettenheim","type":"Kreisangehörige_Gemeinde"},"district":{"key":"09183","name":"Mühldorf a.Inn","type":"Landkreis"},"federalState":{"key":"09","name":"Bayern"}},{"name":"Neugasse","postalCode":"67582","locality":"Mettenheim","municipality":{"key":"07331045","name":"Mettenheim","type":"Kreisangehörige_Gemeinde"},"district":{"key":"07331","name":"Alzey-Worms","type":"Landkreis"},"federalState":{"key":"07","name":"Rheinland-Pfalz"}},{"name":"Niehler Str.","postalCode":"54675","locality":"Mettendorf","municipality":{"key":"07232080","name":"Mettendorf","type":"Kreisangehörige_Gemeinde"},"district":{"key":"07232","name":"Eifelkreis Bitburg-Prüm","type":"Landkreis"},"federalState":{"key":"07","name":"Rheinland-Pfalz"}},{"name":"Ostergasse","postalCode":"94526","locality":"Metten","municipality":{"key":"09271132","name":"Metten, M","type":"Markt"},"district":{"key":"09271","name":"Deggendorf","type":"Landkreis"},"federalState":{"key":"09","name":"Bayern"}},{"name":"Otto-Ebner-Str.","postalCode":"94526","locality":"Metten","municipality":{"key":"09271132","name":"Metten, M","type":"Markt"},"district":{"key":"09271","name":"Deggendorf","type":"Landkreis"},"federalState":{"key":"09","name":"Bayern"}},{"name":"Pfarrweg","postalCode":"67582","locality":"Mettenheim","municipality":{"key":"07331045","name":"Mettenheim","type":"Kreisangehörige_Gemeinde"},"district":{"key":"07331","name":"Alzey-Worms","type":"Landkreis"},"federalState":{"key":"07","name":"Rheinland-Pfalz"}},{"name":"Quellenweg","postalCode":"94469","locality":"Deggendorf","municipality":{"key":"09271119","name":"Deggendorf, GKSt","type":"Große_Kreisstadt"},"district":{"key":"09271","name":"Deggendorf","type":"Landkreis"},"federalState":{"key":"09","name":"Bayern"}},{"name":"Riedfeld","postalCode":"94526","locality":"Metten","municipality":{"key":"09271132","name":"Metten, M","type":"Markt"},"district":{"key":"09271","name":"Deggendorf","type":"Landkreis"},"federalState":{"key":"09","name":"Bayern"}},{"name":"Riedfeldstr.","postalCode":"94526","locality":"Metten","municipality":{"key":"09271132","name":"Metten, M","type":"Markt"},"district":{"key":"09271","name":"Deggendorf","type":"Landkreis"},"federalState":{"key":"09","name":"Bayern"}},{"name":"Rindberger Str.","postalCode":"94526","locality":"Metten","municipality":{"key":"09271132","name":"Metten, M","type":"Markt"},"district":{"key":"09271","name":"Deggendorf","type":"Landkreis"},"federalState":{"key":"09","name":"Bayern"}},{"name":"Röhrbrunnenstr.","postalCode":"67582","locality":"Mettenheim","municipality":{"key":"07331045","name":"Mettenheim","type":"Kreisangehörige_Gemeinde"},"district":{"key":"07331","name":"Alzey-Worms","type":"Landkreis"},"federalState":{"key":"07","name":"Rheinland-Pfalz"}},{"name":"Römerstr.","postalCode":"84562","locality":"Mettenheim","municipality":{"key":"09183127","name":"Mettenheim","type":"Kreisangehörige_Gemeinde"},"district":{"key":"09183","name":"Mühldorf a.Inn","type":"Landkreis"},"federalState":{"key":"09","name":"Bayern"}},{"name":"Rosenstr.","postalCode":"84562","locality":"Mettenheim","municipality":{"key":"09183127","name":"Mettenheim","type":"Kreisangehörige_Gemeinde"},"district":{"key":"09183","name":"Mühldorf a.Inn","type":"Landkreis"},"federalState":{"key":"09","name":"Bayern"}},{"name":"Rosenstr.","postalCode":"94526","locality":"Metten","municipality":{"key":"09271132","name":"Metten, M","type":"Markt"},"district":{"key":"09271","name":"Deggendorf","type":"Landkreis"},"federalState":{"key":"09","name":"Bayern"}},{"name":"Rossatzer Str.","postalCode":"94526","locality":"Metten","municipality":{"key":"09271132","name":"Metten, M","type":"Markt"},"district":{"key":"09271","name":"Deggendorf","type":"Landkreis"},"federalState":{"key":"09","name":"Bayern"}},{"name":"Rottstr.","postalCode":"84562","locality":"Mettenheim","municipality":{"key":"09183127","name":"Mettenheim","type":"Kreisangehörige_Gemeinde"},"district":{"key":"09183","name":"Mühldorf a.Inn","type":"Landkreis"},"federalState":{"key":"09","name":"Bayern"}},{"name":"Salzachstr.","postalCode":"84562","locality":"Mettenheim","municipality":{"key":"09183127","name":"Mettenheim","type":"Kreisangehörige_Gemeinde"},"district":{"key":"09183","name":"Mühldorf a.Inn","type":"Landkreis"},"federalState":{"key":"09","name":"Bayern"}},{"name":"Sauhohl","postalCode":"67582","locality":"Mettenheim","municipality":{"key":"07331045","name":"Mettenheim","type":"Kreisangehörige_Gemeinde"},"district":{"key":"07331","name":"Alzey-Worms","type":"Landkreis"},"federalState":{"key":"07","name":"Rheinland-Pfalz"}},{"name":"Schalterbach","postalCode":"94526","locality":"Metten","municipality":{"key":"09271132","name":"Metten, M","type":"Markt"},"district":{"key":"09271","name":"Deggendorf","type":"Landkreis"},"federalState":{"key":"09","name":"Bayern"}},{"name":"Scheuerer Str.","postalCode":"94526","locality":"Metten","municipality":{"key":"09271132","name":"Metten, M","type":"Markt"},"district":{"key":"09271","name":"Deggendorf","type":"Landkreis"},"federalState":{"key":"09","name":"Bayern"}},{"name":"Schillerstr.","postalCode":"67582","locality":"Mettenheim","municipality":{"key":"07331045","name":"Mettenheim","type":"Kreisangehörige_Gemeinde"},"district":{"key":"07331","name":"Alzey-Worms","type":"Landkreis"},"federalState":{"key":"07","name":"Rheinland-Pfalz"}},{"name":"Schillerstr.","postalCode":"84562","locality":"Mettenheim","municipality":{"key":"09183127","name":"Mettenheim","type":"Kreisangehörige_Gemeinde"},"district":{"key":"09183","name":"Mühldorf a.Inn","type":"Landkreis"},"federalState":{"key":"09","name":"Bayern"}},{"name":"Schlossbergring","postalCode":"67582","locality":"Mettenheim","municipality":{"key":"07331045","name":"Mettenheim","type":"Kreisangehörige_Gemeinde"},"district":{"key":"07331","name":"Alzey-Worms","type":"Landkreis"},"federalState":{"key":"07","name":"Rheinland-Pfalz"}},{"name":"Schluchtenpfad","postalCode":"54675","locality":"Mettendorf","municipality":{"key":"07232080","name":"Mettendorf","type":"Kreisangehörige_Gemeinde"},"district":{"key":"07232","name":"Eifelkreis Bitburg-Prüm","type":"Landkreis"},"federalState":{"key":"07","name":"Rheinland-Pfalz"}},{"name":"Schulstr.","postalCode":"54675","locality":"Mettendorf","municipality":{"key":"07232080","name":"Mettendorf","type":"Kreisangehörige_Gemeinde"},"district":{"key":"07232","name":"Eifelkreis Bitburg-Prüm","type":"Landkreis"},"federalState":{"key":"07","name":"Rheinland-Pfalz"}},{"name":"Schulstr.","postalCode":"67582","locality":"Mettenheim","municipality":{"key":"07331045","name":"Mettenheim","type":"Kreisangehörige_Gemeinde"},"district":{"key":"07331","name":"Alzey-Worms","type":"Landkreis"},"federalState":{"key":"07","name":"Rheinland-Pfalz"}},{"name":"Schulstr.","postalCode":"84562","locality":"Mettenheim","municipality":{"key":"09183127","name":"Mettenheim","type":"Kreisangehörige_Gemeinde"},"district":{"key":"09183","name":"Mühldorf a.Inn","type":"Landkreis"},"federalState":{"key":"09","name":"Bayern"}},{"name":"Schweppermannstr.","postalCode":"84562","locality":"Mettenheim","municipality":{"key":"09183127","name":"Mettenheim","type":"Kreisangehörige_Gemeinde"},"district":{"key":"09183","name":"Mühldorf a.Inn","type":"Landkreis"},"federalState":{"key":"09","name":"Bayern"}},{"name":"Siegfried-Huber-Str.","postalCode":"94526","locality":"Metten","municipality":{"key":"09271132","name":"Metten, M","type":"Markt"},"district":{"key":"09271","name":"Deggendorf","type":"Landkreis"},"federalState":{"key":"09","name":"Bayern"}},{"name":"Sonnenstr.","postalCode":"84562","locality":"Mettenheim","municipality":{"key":"09183127","name":"Mettenheim","type":"Kreisangehörige_Gemeinde"},"district":{"key":"09183","name":"Mühldorf a.Inn","type":"Landkreis"},"federalState":{"key":"09","name":"Bayern"}},{"name":"Steinsweg","postalCode":"67582","locality":"Mettenheim","municipality":{"key":"07331045","name":"Mettenheim","type":"Kreisangehörige_Gemeinde"},"district":{"key":"07331","name":"Alzey-Worms","type":"Landkreis"},"federalState":{"key":"07","name":"Rheinland-Pfalz"}},{"name":"Stettiner Str.","postalCode":"67582","locality":"Mettenheim","municipality":{"key":"07331045","name":"Mettenheim","type":"Kreisangehörige_Gemeinde"},"district":{"key":"07331","name":"Alzey-Worms","type":"Landkreis"},"federalState":{"key":"07","name":"Rheinland-Pfalz"}},{"name":"St.-Michael-Str.","postalCode":"84562","locality":"Mettenheim","municipality":{"key":"09183127","name":"Mettenheim","type":"Kreisangehörige_Gemeinde"},"district":{"key":"09183","name":"Mühldorf a.Inn","type":"Landkreis"},"federalState":{"key":"09","name":"Bayern"}},{"name":"Str.rweg","postalCode":"94526","locality":"Metten","municipality":{"key":"09271132","name":"Metten, M","type":"Markt"},"district":{"key":"09271","name":"Deggendorf","type":"Landkreis"},"federalState":{"key":"09","name":"Bayern"}},{"name":"St.-Rupertus-Str.","postalCode":"84562","locality":"Mettenheim","municipality":{"key":"09183127","name":"Mettenheim","type":"Kreisangehörige_Gemeinde"},"district":{"key":"09183","name":"Mühldorf a.Inn","type":"Landkreis"},"federalState":{"key":"09","name":"Bayern"}},{"name":"Sudetenstr.","postalCode":"84562","locality":"Mettenheim","municipality":{"key":"09183127","name":"Mettenheim","type":"Kreisangehörige_Gemeinde"},"district":{"key":"09183","name":"Mühldorf a.Inn","type":"Landkreis"},"federalState":{"key":"09","name":"Bayern"}},{"name":"Tulpenstr.","postalCode":"84562","locality":"Mettenheim","municipality":{"key":"09183127","name":"Mettenheim","type":"Kreisangehörige_Gemeinde"},"district":{"key":"09183","name":"Mühldorf a.Inn","type":"Landkreis"},"federalState":{"key":"09","name":"Bayern"}},{"name":"Tulpenstr.","postalCode":"94526","locality":"Metten","municipality":{"key":"09271132","name":"Metten, M","type":"Markt"},"district":{"key":"09271","name":"Deggendorf","type":"Landkreis"},"federalState":{"key":"09","name":"Bayern"}},{"name":"Ulmenweg","postalCode":"84562","locality":"Mettenheim","municipality":{"key":"09183127","name":"Mettenheim","type":"Kreisangehörige_Gemeinde"},"district":{"key":"09183","name":"Mühldorf a.Inn","type":"Landkreis"},"federalState":{"key":"09","name":"Bayern"}},{"name":"Unterriedstr.","postalCode":"94526","locality":"Metten","municipality":{"key":"09271132","name":"Metten, M","type":"Markt"},"district":{"key":"09271","name":"Deggendorf","type":"Landkreis"},"federalState":{"key":"09","name":"Bayern"}},{"name":"Uttostr.","postalCode":"94526","locality":"Metten","municipality":{"key":"09271132","name":"Metten, M","type":"Markt"},"district":{"key":"09271","name":"Deggendorf","type":"Landkreis"},"federalState":{"key":"09","name":"Bayern"}},{"name":"Veilchenstr.","postalCode":"94526","locality":"Metten","municipality":{"key":"09271132","name":"Metten, M","type":"Markt"},"district":{"key":"09271","name":"Deggendorf","type":"Landkreis"},"federalState":{"key":"09","name":"Bayern"}},{"name":"Veilchenweg","postalCode":"84562","locality":"Mettenheim","municipality":{"key":"09183127","name":"Mettenheim","type":"Kreisangehörige_Gemeinde"},"district":{"key":"09183","name":"Mühldorf a.Inn","type":"Landkreis"},"federalState":{"key":"09","name":"Bayern"}},{"name":"Vilsstr.","postalCode":"84562","locality":"Mettenheim","municipality":{"key":"09183127","name":"Mettenheim","type":"Kreisangehörige_Gemeinde"},"district":{"key":"09183","name":"Mühldorf a.Inn","type":"Landkreis"},"federalState":{"key":"09","name":"Bayern"}},{"name":"Wagnerring","postalCode":"84562","locality":"Mettenheim","municipality":{"key":"09183127","name":"Mettenheim","type":"Kreisangehörige_Gemeinde"},"district":{"key":"09183","name":"Mühldorf a.Inn","type":"Landkreis"},"federalState":{"key":"09","name":"Bayern"}},{"name":"Waldstr.","postalCode":"84562","locality":"Mettenheim","municipality":{"key":"09183127","name":"Mettenheim","type":"Kreisangehörige_Gemeinde"},"district":{"key":"09183","name":"Mühldorf a.Inn","type":"Landkreis"},"federalState":{"key":"09","name":"Bayern"}},{"name":"Waldstr.","postalCode":"94526","locality":"Metten","municipality":{"key":"09271132","name":"Metten, M","type":"Markt"},"district":{"key":"09271","name":"Deggendorf","type":"Landkreis"},"federalState":{"key":"09","name":"Bayern"}},{"name":"Wiesenweg","postalCode":"67582","locality":"Mettenheim","municipality":{"key":"07331045","name":"Mettenheim","type":"Kreisangehörige_Gemeinde"},"district":{"key":"07331","name":"Alzey-Worms","type":"Landkreis"},"federalState":{"key":"07","name":"Rheinland-Pfalz"}},{"name":"Wiesenweg","postalCode":"94526","locality":"Metten","municipality":{"key":"09271132","name":"Metten, M","type":"Markt"},"district":{"key":"09271","name":"Deggendorf","type":"Landkreis"},"federalState":{"key":"09","name":"Bayern"}},{"name":"Wilhelm-Fink-Str.","postalCode":"94526","locality":"Metten","municipality":{"key":"09271132","name":"Metten, M","type":"Markt"},"district":{"key":"09271","name":"Deggendorf","type":"Landkreis"},"federalState":{"key":"09","name":"Bayern"}},{"name":"Wimpassing","postalCode":"94526","locality":"Metten","municipality":{"key":"09271132","name":"Metten, M","type":"Markt"},"district":{"key":"09271","name":"Deggendorf","type":"Landkreis"},"federalState":{"key":"09","name":"Bayern"}},{"name":"Xaver-Friedl-Str.","postalCode":"94469","locality":"Deggendorf","municipality":{"key":"09271119","name":"Deggendorf, GKSt","type":"Große_Kreisstadt"},"district":{"key":"09271","name":"Deggendorf","type":"Landkreis"},"federalState":{"key":"09","name":"Bayern"}},{"name":"Zangberger Str.","postalCode":"84562","locality":"Mettenheim","municipality":{"key":"09183127","name":"Mettenheim","type":"Kreisangehörige_Gemeinde"},"district":{"key":"09183","name":"Mühldorf a.Inn","type":"Landkreis"},"federalState":{"key":"09","name":"Bayern"}},{"name":"Ölschlagweg","postalCode":"94469","locality":"Deggendorf","municipality":{"key":"09271119","name":"Deggendorf, GKSt","type":"Große_Kreisstadt"},"district":{"key":"09271","name":"Deggendorf","type":"Landkreis"},"federalState":{"key":"09","name":"Bayern"}},{"name":"Östlicher Stadtgraben","postalCode":"94469","locality":"Deggendorf","municipality":{"key":"09271119","name":"Deggendorf, GKSt","type":"Große_Kreisstadt"},"district":{"key":"09271","name":"Deggendorf","type":"Landkreis"},"federalState":{"key":"09","name":"Bayern"}},{"name":"Östliche Zwingergasse","postalCode":"94469","locality":"Deggendorf","municipality":{"key":"09271119","name":"Deggendorf, GKSt","type":"Große_Kreisstadt"},"district":{"key":"09271","name":"Deggendorf","type":"Landkreis"},"federalState":{"key":"09","name":"Bayern"}},]