[{"name":"Ahornweg","postalCode":"58579","locality":"Schalksmühle","municipality":{"key":"05962056","name":"Schalksmühle","type":"Kreisangehörige_Gemeinde"},"district":{"key":"05962","name":"Märkischer Kreis","type":"Kreis"},"federalState":{"key":"05","name":"Nordrhein-Westfalen"}},{"name":"Albringwerde","postalCode":"58579","locality":"Schalksmühle","municipality":{"key":"05962056","name":"Schalksmühle","type":"Kreisangehörige_Gemeinde"},"district":{"key":"05962","name":"Märkischer Kreis","type":"Kreis"},"federalState":{"key":"05","name":"Nordrhein-Westfalen"}},{"name":"Alte Hülscheider Str.","postalCode":"58579","locality":"Schalksmühle","municipality":{"key":"05962056","name":"Schalksmühle","type":"Kreisangehörige_Gemeinde"},"district":{"key":"05962","name":"Märkischer Kreis","type":"Kreis"},"federalState":{"key":"05","name":"Nordrhein-Westfalen"}},{"name":"Altenhülscheid","postalCode":"58579","locality":"Schalksmühle","municipality":{"key":"05962056","name":"Schalksmühle","type":"Kreisangehörige_Gemeinde"},"district":{"key":"05962","name":"Märkischer Kreis","type":"Kreis"},"federalState":{"key":"05","name":"Nordrhein-Westfalen"}},{"name":"Am Bahnhof","postalCode":"58579","locality":"Schalksmühle","municipality":{"key":"05962056","name":"Schalksmühle","type":"Kreisangehörige_Gemeinde"},"district":{"key":"05962","name":"Märkischer Kreis","type":"Kreis"},"federalState":{"key":"05","name":"Nordrhein-Westfalen"}},{"name":"Am Golfplatz","postalCode":"58579","locality":"Schalksmühle","municipality":{"key":"05962056","name":"Schalksmühle","type":"Kreisangehörige_Gemeinde"},"district":{"key":"05962","name":"Märkischer Kreis","type":"Kreis"},"federalState":{"key":"05","name":"Nordrhein-Westfalen"}},{"name":"Am Hang","postalCode":"58579","locality":"Schalksmühle","municipality":{"key":"05962056","name":"Schalksmühle","type":"Kreisangehörige_Gemeinde"},"district":{"key":"05962","name":"Märkischer Kreis","type":"Kreis"},"federalState":{"key":"05","name":"Nordrhein-Westfalen"}},{"name":"Am Hohlweg","postalCode":"58579","locality":"Schalksmühle","municipality":{"key":"05962056","name":"Schalksmühle","type":"Kreisangehörige_Gemeinde"},"district":{"key":"05962","name":"Märkischer Kreis","type":"Kreis"},"federalState":{"key":"05","name":"Nordrhein-Westfalen"}},{"name":"Am Kamp","postalCode":"58579","locality":"Schalksmühle","municipality":{"key":"05962056","name":"Schalksmühle","type":"Kreisangehörige_Gemeinde"},"district":{"key":"05962","name":"Märkischer Kreis","type":"Kreis"},"federalState":{"key":"05","name":"Nordrhein-Westfalen"}},{"name":"Am Langenohl","postalCode":"58579","locality":"Schalksmühle","municipality":{"key":"05962056","name":"Schalksmühle","type":"Kreisangehörige_Gemeinde"},"district":{"key":"05962","name":"Märkischer Kreis","type":"Kreis"},"federalState":{"key":"05","name":"Nordrhein-Westfalen"}},{"name":"Am Linscheider Berg","postalCode":"58579","locality":"Schalksmühle","municipality":{"key":"05962056","name":"Schalksmühle","type":"Kreisangehörige_Gemeinde"},"district":{"key":"05962","name":"Märkischer Kreis","type":"Kreis"},"federalState":{"key":"05","name":"Nordrhein-Westfalen"}},{"name":"Am Mathagen","postalCode":"58579","locality":"Schalksmühle","municipality":{"key":"05962056","name":"Schalksmühle","type":"Kreisangehörige_Gemeinde"},"district":{"key":"05962","name":"Märkischer Kreis","type":"Kreis"},"federalState":{"key":"05","name":"Nordrhein-Westfalen"}},{"name":"Am Neuenhaus","postalCode":"58579","locality":"Schalksmühle","municipality":{"key":"05962056","name":"Schalksmühle","type":"Kreisangehörige_Gemeinde"},"district":{"key":"05962","name":"Märkischer Kreis","type":"Kreis"},"federalState":{"key":"05","name":"Nordrhein-Westfalen"}},{"name":"Am Nocken","postalCode":"58579","locality":"Schalksmühle","municipality":{"key":"05962056","name":"Schalksmühle","type":"Kreisangehörige_Gemeinde"},"district":{"key":"05962","name":"Märkischer Kreis","type":"Kreis"},"federalState":{"key":"05","name":"Nordrhein-Westfalen"}},{"name":"Amphop","postalCode":"58579","locality":"Schalksmühle","municipality":{"key":"05962056","name":"Schalksmühle","type":"Kreisangehörige_Gemeinde"},"district":{"key":"05962","name":"Märkischer Kreis","type":"Kreis"},"federalState":{"key":"05","name":"Nordrhein-Westfalen"}},{"name":"Amphoper Str.","postalCode":"58579","locality":"Schalksmühle","municipality":{"key":"05962056","name":"Schalksmühle","type":"Kreisangehörige_Gemeinde"},"district":{"key":"05962","name":"Märkischer Kreis","type":"Kreis"},"federalState":{"key":"05","name":"Nordrhein-Westfalen"}},{"name":"Am Rauhen Stück","postalCode":"58579","locality":"Schalksmühle","municipality":{"key":"05962056","name":"Schalksmühle","type":"Kreisangehörige_Gemeinde"},"district":{"key":"05962","name":"Märkischer Kreis","type":"Kreis"},"federalState":{"key":"05","name":"Nordrhein-Westfalen"}},{"name":"Am Roggenhagen","postalCode":"58579","locality":"Schalksmühle","municipality":{"key":"05962056","name":"Schalksmühle","type":"Kreisangehörige_Gemeinde"},"district":{"key":"05962","name":"Märkischer Kreis","type":"Kreis"},"federalState":{"key":"05","name":"Nordrhein-Westfalen"}},{"name":"Am Sundern","postalCode":"58579","locality":"Schalksmühle","municipality":{"key":"05962056","name":"Schalksmühle","type":"Kreisangehörige_Gemeinde"},"district":{"key":"05962","name":"Märkischer Kreis","type":"Kreis"},"federalState":{"key":"05","name":"Nordrhein-Westfalen"}},{"name":"Asenbach","postalCode":"58579","locality":"Schalksmühle","municipality":{"key":"05962056","name":"Schalksmühle","type":"Kreisangehörige_Gemeinde"},"district":{"key":"05962","name":"Märkischer Kreis","type":"Kreis"},"federalState":{"key":"05","name":"Nordrhein-Westfalen"}},{"name":"Asternweg","postalCode":"58579","locality":"Schalksmühle","municipality":{"key":"05962056","name":"Schalksmühle","type":"Kreisangehörige_Gemeinde"},"district":{"key":"05962","name":"Märkischer Kreis","type":"Kreis"},"federalState":{"key":"05","name":"Nordrhein-Westfalen"}},{"name":"Auf dem Brauck","postalCode":"58579","locality":"Schalksmühle","municipality":{"key":"05962056","name":"Schalksmühle","type":"Kreisangehörige_Gemeinde"},"district":{"key":"05962","name":"Märkischer Kreis","type":"Kreis"},"federalState":{"key":"05","name":"Nordrhein-Westfalen"}},{"name":"Auf dem Ent","postalCode":"58579","locality":"Schalksmühle","municipality":{"key":"05962056","name":"Schalksmühle","type":"Kreisangehörige_Gemeinde"},"district":{"key":"05962","name":"Märkischer Kreis","type":"Kreis"},"federalState":{"key":"05","name":"Nordrhein-Westfalen"}},{"name":"Auf dem Gartenstück","postalCode":"58579","locality":"Schalksmühle","municipality":{"key":"05962056","name":"Schalksmühle","type":"Kreisangehörige_Gemeinde"},"district":{"key":"05962","name":"Märkischer Kreis","type":"Kreis"},"federalState":{"key":"05","name":"Nordrhein-Westfalen"}},{"name":"Bachstr.","postalCode":"58579","locality":"Schalksmühle","municipality":{"key":"05962056","name":"Schalksmühle","type":"Kreisangehörige_Gemeinde"},"district":{"key":"05962","name":"Märkischer Kreis","type":"Kreis"},"federalState":{"key":"05","name":"Nordrhein-Westfalen"}},{"name":"Bahnhofstr.","postalCode":"58579","locality":"Schalksmühle","municipality":{"key":"05962056","name":"Schalksmühle","type":"Kreisangehörige_Gemeinde"},"district":{"key":"05962","name":"Märkischer Kreis","type":"Kreis"},"federalState":{"key":"05","name":"Nordrhein-Westfalen"}},{"name":"Bergstr.","postalCode":"58579","locality":"Schalksmühle","municipality":{"key":"05962056","name":"Schalksmühle","type":"Kreisangehörige_Gemeinde"},"district":{"key":"05962","name":"Märkischer Kreis","type":"Kreis"},"federalState":{"key":"05","name":"Nordrhein-Westfalen"}},{"name":"Berkey","postalCode":"58579","locality":"Schalksmühle","municipality":{"key":"05962056","name":"Schalksmühle","type":"Kreisangehörige_Gemeinde"},"district":{"key":"05962","name":"Märkischer Kreis","type":"Kreis"},"federalState":{"key":"05","name":"Nordrhein-Westfalen"}},{"name":"Birkenweg","postalCode":"58579","locality":"Schalksmühle","municipality":{"key":"05962056","name":"Schalksmühle","type":"Kreisangehörige_Gemeinde"},"district":{"key":"05962","name":"Märkischer Kreis","type":"Kreis"},"federalState":{"key":"05","name":"Nordrhein-Westfalen"}},{"name":"Brenscheider Mühle","postalCode":"58579","locality":"Schalksmühle","municipality":{"key":"05962056","name":"Schalksmühle","type":"Kreisangehörige_Gemeinde"},"district":{"key":"05962","name":"Märkischer Kreis","type":"Kreis"},"federalState":{"key":"05","name":"Nordrhein-Westfalen"}},{"name":"Brinkerhof","postalCode":"58579","locality":"Schalksmühle","municipality":{"key":"05962056","name":"Schalksmühle","type":"Kreisangehörige_Gemeinde"},"district":{"key":"05962","name":"Märkischer Kreis","type":"Kreis"},"federalState":{"key":"05","name":"Nordrhein-Westfalen"}},{"name":"Brucher Weg","postalCode":"58579","locality":"Schalksmühle","municipality":{"key":"05962056","name":"Schalksmühle","type":"Kreisangehörige_Gemeinde"},"district":{"key":"05962","name":"Märkischer Kreis","type":"Kreis"},"federalState":{"key":"05","name":"Nordrhein-Westfalen"}},{"name":"Buchholz","postalCode":"58579","locality":"Schalksmühle","municipality":{"key":"05962056","name":"Schalksmühle","type":"Kreisangehörige_Gemeinde"},"district":{"key":"05962","name":"Märkischer Kreis","type":"Kreis"},"federalState":{"key":"05","name":"Nordrhein-Westfalen"}},{"name":"Bussardweg","postalCode":"58579","locality":"Schalksmühle","municipality":{"key":"05962056","name":"Schalksmühle","type":"Kreisangehörige_Gemeinde"},"district":{"key":"05962","name":"Märkischer Kreis","type":"Kreis"},"federalState":{"key":"05","name":"Nordrhein-Westfalen"}},{"name":"Claudiusstr.","postalCode":"58579","locality":"Schalksmühle","municipality":{"key":"05962056","name":"Schalksmühle","type":"Kreisangehörige_Gemeinde"},"district":{"key":"05962","name":"Märkischer Kreis","type":"Kreis"},"federalState":{"key":"05","name":"Nordrhein-Westfalen"}},{"name":"Dahlhausen","postalCode":"58579","locality":"Schalksmühle","municipality":{"key":"05962056","name":"Schalksmühle","type":"Kreisangehörige_Gemeinde"},"district":{"key":"05962","name":"Märkischer Kreis","type":"Kreis"},"federalState":{"key":"05","name":"Nordrhein-Westfalen"}},{"name":"Dahlhauser Kopf","postalCode":"58579","locality":"Schalksmühle","municipality":{"key":"05962056","name":"Schalksmühle","type":"Kreisangehörige_Gemeinde"},"district":{"key":"05962","name":"Märkischer Kreis","type":"Kreis"},"federalState":{"key":"05","name":"Nordrhein-Westfalen"}},{"name":"Dahlienstr.","postalCode":"58579","locality":"Schalksmühle","municipality":{"key":"05962056","name":"Schalksmühle","type":"Kreisangehörige_Gemeinde"},"district":{"key":"05962","name":"Märkischer Kreis","type":"Kreis"},"federalState":{"key":"05","name":"Nordrhein-Westfalen"}},{"name":"Eichendorffstr.","postalCode":"58579","locality":"Schalksmühle","municipality":{"key":"05962056","name":"Schalksmühle","type":"Kreisangehörige_Gemeinde"},"district":{"key":"05962","name":"Märkischer Kreis","type":"Kreis"},"federalState":{"key":"05","name":"Nordrhein-Westfalen"}},{"name":"Eichenwald","postalCode":"58579","locality":"Schalksmühle","municipality":{"key":"05962056","name":"Schalksmühle","type":"Kreisangehörige_Gemeinde"},"district":{"key":"05962","name":"Märkischer Kreis","type":"Kreis"},"federalState":{"key":"05","name":"Nordrhein-Westfalen"}},{"name":"Eschenweg","postalCode":"58579","locality":"Schalksmühle","municipality":{"key":"05962056","name":"Schalksmühle","type":"Kreisangehörige_Gemeinde"},"district":{"key":"05962","name":"Märkischer Kreis","type":"Kreis"},"federalState":{"key":"05","name":"Nordrhein-Westfalen"}},{"name":"Everinghausen","postalCode":"58579","locality":"Schalksmühle","municipality":{"key":"05962056","name":"Schalksmühle","type":"Kreisangehörige_Gemeinde"},"district":{"key":"05962","name":"Märkischer Kreis","type":"Kreis"},"federalState":{"key":"05","name":"Nordrhein-Westfalen"}},{"name":"Falkenweg","postalCode":"58579","locality":"Schalksmühle","municipality":{"key":"05962056","name":"Schalksmühle","type":"Kreisangehörige_Gemeinde"},"district":{"key":"05962","name":"Märkischer Kreis","type":"Kreis"},"federalState":{"key":"05","name":"Nordrhein-Westfalen"}},{"name":"Flaßkamp","postalCode":"58579","locality":"Schalksmühle","municipality":{"key":"05962056","name":"Schalksmühle","type":"Kreisangehörige_Gemeinde"},"district":{"key":"05962","name":"Märkischer Kreis","type":"Kreis"},"federalState":{"key":"05","name":"Nordrhein-Westfalen"}},{"name":"Friedhofstr.","postalCode":"58579","locality":"Schalksmühle","municipality":{"key":"05962056","name":"Schalksmühle","type":"Kreisangehörige_Gemeinde"},"district":{"key":"05962","name":"Märkischer Kreis","type":"Kreis"},"federalState":{"key":"05","name":"Nordrhein-Westfalen"}},{"name":"Gartenstr.","postalCode":"58579","locality":"Schalksmühle","municipality":{"key":"05962056","name":"Schalksmühle","type":"Kreisangehörige_Gemeinde"},"district":{"key":"05962","name":"Märkischer Kreis","type":"Kreis"},"federalState":{"key":"05","name":"Nordrhein-Westfalen"}},{"name":"Gelstern","postalCode":"58579","locality":"Schalksmühle","municipality":{"key":"05962056","name":"Schalksmühle","type":"Kreisangehörige_Gemeinde"},"district":{"key":"05962","name":"Märkischer Kreis","type":"Kreis"},"federalState":{"key":"05","name":"Nordrhein-Westfalen"}},{"name":"Gewerbering","postalCode":"58579","locality":"Schalksmühle","municipality":{"key":"05962056","name":"Schalksmühle","type":"Kreisangehörige_Gemeinde"},"district":{"key":"05962","name":"Märkischer Kreis","type":"Kreis"},"federalState":{"key":"05","name":"Nordrhein-Westfalen"}},{"name":"Gielster Stück","postalCode":"58579","locality":"Schalksmühle","municipality":{"key":"05962056","name":"Schalksmühle","type":"Kreisangehörige_Gemeinde"},"district":{"key":"05962","name":"Märkischer Kreis","type":"Kreis"},"federalState":{"key":"05","name":"Nordrhein-Westfalen"}},{"name":"Glörpark","postalCode":"58579","locality":"Schalksmühle","municipality":{"key":"05962056","name":"Schalksmühle","type":"Kreisangehörige_Gemeinde"},"district":{"key":"05962","name":"Märkischer Kreis","type":"Kreis"},"federalState":{"key":"05","name":"Nordrhein-Westfalen"}},{"name":"Glörstr.","postalCode":"58579","locality":"Schalksmühle","municipality":{"key":"05962056","name":"Schalksmühle","type":"Kreisangehörige_Gemeinde"},"district":{"key":"05962","name":"Märkischer Kreis","type":"Kreis"},"federalState":{"key":"05","name":"Nordrhein-Westfalen"}},{"name":"Grabenstr.","postalCode":"58579","locality":"Schalksmühle","municipality":{"key":"05962056","name":"Schalksmühle","type":"Kreisangehörige_Gemeinde"},"district":{"key":"05962","name":"Märkischer Kreis","type":"Kreis"},"federalState":{"key":"05","name":"Nordrhein-Westfalen"}},{"name":"Grünstr.","postalCode":"58579","locality":"Schalksmühle","municipality":{"key":"05962056","name":"Schalksmühle","type":"Kreisangehörige_Gemeinde"},"district":{"key":"05962","name":"Märkischer Kreis","type":"Kreis"},"federalState":{"key":"05","name":"Nordrhein-Westfalen"}},{"name":"Halverscheiderohl","postalCode":"58579","locality":"Schalksmühle","municipality":{"key":"05962056","name":"Schalksmühle","type":"Kreisangehörige_Gemeinde"},"district":{"key":"05962","name":"Märkischer Kreis","type":"Kreis"},"federalState":{"key":"05","name":"Nordrhein-Westfalen"}},{"name":"Hälverstr.","postalCode":"58579","locality":"Schalksmühle","municipality":{"key":"05962056","name":"Schalksmühle","type":"Kreisangehörige_Gemeinde"},"district":{"key":"05962","name":"Märkischer Kreis","type":"Kreis"},"federalState":{"key":"05","name":"Nordrhein-Westfalen"}},{"name":"Harrenscheid","postalCode":"58579","locality":"Schalksmühle","municipality":{"key":"05962056","name":"Schalksmühle","type":"Kreisangehörige_Gemeinde"},"district":{"key":"05962","name":"Märkischer Kreis","type":"Kreis"},"federalState":{"key":"05","name":"Nordrhein-Westfalen"}},{"name":"Haue","postalCode":"58579","locality":"Schalksmühle","municipality":{"key":"05962056","name":"Schalksmühle","type":"Kreisangehörige_Gemeinde"},"district":{"key":"05962","name":"Märkischer Kreis","type":"Kreis"},"federalState":{"key":"05","name":"Nordrhein-Westfalen"}},{"name":"Heckenweg","postalCode":"58579","locality":"Schalksmühle","municipality":{"key":"05962056","name":"Schalksmühle","type":"Kreisangehörige_Gemeinde"},"district":{"key":"05962","name":"Märkischer Kreis","type":"Kreis"},"federalState":{"key":"05","name":"Nordrhein-Westfalen"}},{"name":"Heedfeld","postalCode":"58579","locality":"Schalksmühle","municipality":{"key":"05962056","name":"Schalksmühle","type":"Kreisangehörige_Gemeinde"},"district":{"key":"05962","name":"Märkischer Kreis","type":"Kreis"},"federalState":{"key":"05","name":"Nordrhein-Westfalen"}},{"name":"Heedfelder Str.","postalCode":"58579","locality":"Schalksmühle","municipality":{"key":"05962056","name":"Schalksmühle","type":"Kreisangehörige_Gemeinde"},"district":{"key":"05962","name":"Märkischer Kreis","type":"Kreis"},"federalState":{"key":"05","name":"Nordrhein-Westfalen"}},{"name":"Hellhof","postalCode":"58579","locality":"Schalksmühle","municipality":{"key":"05962056","name":"Schalksmühle","type":"Kreisangehörige_Gemeinde"},"district":{"key":"05962","name":"Märkischer Kreis","type":"Kreis"},"federalState":{"key":"05","name":"Nordrhein-Westfalen"}},{"name":"Herbecke","postalCode":"58579","locality":"Schalksmühle","municipality":{"key":"05962056","name":"Schalksmühle","type":"Kreisangehörige_Gemeinde"},"district":{"key":"05962","name":"Märkischer Kreis","type":"Kreis"},"federalState":{"key":"05","name":"Nordrhein-Westfalen"}},{"name":"Hochstr.","postalCode":"58579","locality":"Schalksmühle","municipality":{"key":"05962056","name":"Schalksmühle","type":"Kreisangehörige_Gemeinde"},"district":{"key":"05962","name":"Märkischer Kreis","type":"Kreis"},"federalState":{"key":"05","name":"Nordrhein-Westfalen"}},{"name":"Holthausen","postalCode":"58579","locality":"Schalksmühle","municipality":{"key":"05962056","name":"Schalksmühle","type":"Kreisangehörige_Gemeinde"},"district":{"key":"05962","name":"Märkischer Kreis","type":"Kreis"},"federalState":{"key":"05","name":"Nordrhein-Westfalen"}},{"name":"Hülscheid","postalCode":"58579","locality":"Schalksmühle","municipality":{"key":"05962056","name":"Schalksmühle","type":"Kreisangehörige_Gemeinde"},"district":{"key":"05962","name":"Märkischer Kreis","type":"Kreis"},"federalState":{"key":"05","name":"Nordrhein-Westfalen"}},{"name":"Hülscheider Str.","postalCode":"58579","locality":"Schalksmühle","municipality":{"key":"05962056","name":"Schalksmühle","type":"Kreisangehörige_Gemeinde"},"district":{"key":"05962","name":"Märkischer Kreis","type":"Kreis"},"federalState":{"key":"05","name":"Nordrhein-Westfalen"}},{"name":"Hüsmecker Weg","postalCode":"58579","locality":"Schalksmühle","municipality":{"key":"05962056","name":"Schalksmühle","type":"Kreisangehörige_Gemeinde"},"district":{"key":"05962","name":"Märkischer Kreis","type":"Kreis"},"federalState":{"key":"05","name":"Nordrhein-Westfalen"}},{"name":"Huxhardt","postalCode":"58579","locality":"Schalksmühle","municipality":{"key":"05962056","name":"Schalksmühle","type":"Kreisangehörige_Gemeinde"},"district":{"key":"05962","name":"Märkischer Kreis","type":"Kreis"},"federalState":{"key":"05","name":"Nordrhein-Westfalen"}},{"name":"Im Dahl","postalCode":"58579","locality":"Schalksmühle","municipality":{"key":"05962056","name":"Schalksmühle","type":"Kreisangehörige_Gemeinde"},"district":{"key":"05962","name":"Märkischer Kreis","type":"Kreis"},"federalState":{"key":"05","name":"Nordrhein-Westfalen"}},{"name":"Im Eichholz","postalCode":"58579","locality":"Schalksmühle","municipality":{"key":"05962056","name":"Schalksmühle","type":"Kreisangehörige_Gemeinde"},"district":{"key":"05962","name":"Märkischer Kreis","type":"Kreis"},"federalState":{"key":"05","name":"Nordrhein-Westfalen"}},{"name":"Im Gewerbepark","postalCode":"58579","locality":"Schalksmühle","municipality":{"key":"05962056","name":"Schalksmühle","type":"Kreisangehörige_Gemeinde"},"district":{"key":"05962","name":"Märkischer Kreis","type":"Kreis"},"federalState":{"key":"05","name":"Nordrhein-Westfalen"}},{"name":"Im Schlah","postalCode":"58579","locality":"Schalksmühle","municipality":{"key":"05962056","name":"Schalksmühle","type":"Kreisangehörige_Gemeinde"},"district":{"key":"05962","name":"Märkischer Kreis","type":"Kreis"},"federalState":{"key":"05","name":"Nordrhein-Westfalen"}},{"name":"Im Winkel","postalCode":"58579","locality":"Schalksmühle","municipality":{"key":"05962056","name":"Schalksmühle","type":"Kreisangehörige_Gemeinde"},"district":{"key":"05962","name":"Märkischer Kreis","type":"Kreis"},"federalState":{"key":"05","name":"Nordrhein-Westfalen"}},{"name":"In der Lieth","postalCode":"58579","locality":"Schalksmühle","municipality":{"key":"05962056","name":"Schalksmühle","type":"Kreisangehörige_Gemeinde"},"district":{"key":"05962","name":"Märkischer Kreis","type":"Kreis"},"federalState":{"key":"05","name":"Nordrhein-Westfalen"}},{"name":"Jägerstr.","postalCode":"58579","locality":"Schalksmühle","municipality":{"key":"05962056","name":"Schalksmühle","type":"Kreisangehörige_Gemeinde"},"district":{"key":"05962","name":"Märkischer Kreis","type":"Kreis"},"federalState":{"key":"05","name":"Nordrhein-Westfalen"}},{"name":"Jahnstr.","postalCode":"58579","locality":"Schalksmühle","municipality":{"key":"05962056","name":"Schalksmühle","type":"Kreisangehörige_Gemeinde"},"district":{"key":"05962","name":"Märkischer Kreis","type":"Kreis"},"federalState":{"key":"05","name":"Nordrhein-Westfalen"}},{"name":"Kiefernweg","postalCode":"58579","locality":"Schalksmühle","municipality":{"key":"05962056","name":"Schalksmühle","type":"Kreisangehörige_Gemeinde"},"district":{"key":"05962","name":"Märkischer Kreis","type":"Kreis"},"federalState":{"key":"05","name":"Nordrhein-Westfalen"}},{"name":"Kirchstr.","postalCode":"58579","locality":"Schalksmühle","municipality":{"key":"05962056","name":"Schalksmühle","type":"Kreisangehörige_Gemeinde"},"district":{"key":"05962","name":"Märkischer Kreis","type":"Kreis"},"federalState":{"key":"05","name":"Nordrhein-Westfalen"}},{"name":"Klagebach","postalCode":"58579","locality":"Schalksmühle","municipality":{"key":"05962056","name":"Schalksmühle","type":"Kreisangehörige_Gemeinde"},"district":{"key":"05962","name":"Märkischer Kreis","type":"Kreis"},"federalState":{"key":"05","name":"Nordrhein-Westfalen"}},{"name":"Kuhlenhagen","postalCode":"58579","locality":"Schalksmühle","municipality":{"key":"05962056","name":"Schalksmühle","type":"Kreisangehörige_Gemeinde"},"district":{"key":"05962","name":"Märkischer Kreis","type":"Kreis"},"federalState":{"key":"05","name":"Nordrhein-Westfalen"}},{"name":"Kuhlenkeppig","postalCode":"58579","locality":"Schalksmühle","municipality":{"key":"05962056","name":"Schalksmühle","type":"Kreisangehörige_Gemeinde"},"district":{"key":"05962","name":"Märkischer Kreis","type":"Kreis"},"federalState":{"key":"05","name":"Nordrhein-Westfalen"}},{"name":"Langenstück","postalCode":"58579","locality":"Schalksmühle","municipality":{"key":"05962056","name":"Schalksmühle","type":"Kreisangehörige_Gemeinde"},"district":{"key":"05962","name":"Märkischer Kreis","type":"Kreis"},"federalState":{"key":"05","name":"Nordrhein-Westfalen"}},{"name":"Lauenscheid","postalCode":"58579","locality":"Schalksmühle","municipality":{"key":"05962056","name":"Schalksmühle","type":"Kreisangehörige_Gemeinde"},"district":{"key":"05962","name":"Märkischer Kreis","type":"Kreis"},"federalState":{"key":"05","name":"Nordrhein-Westfalen"}},{"name":"Lauenscheidermühle","postalCode":"58579","locality":"Schalksmühle","municipality":{"key":"05962056","name":"Schalksmühle","type":"Kreisangehörige_Gemeinde"},"district":{"key":"05962","name":"Märkischer Kreis","type":"Kreis"},"federalState":{"key":"05","name":"Nordrhein-Westfalen"}},{"name":"Lilienweg","postalCode":"58579","locality":"Schalksmühle","municipality":{"key":"05962056","name":"Schalksmühle","type":"Kreisangehörige_Gemeinde"},"district":{"key":"05962","name":"Märkischer Kreis","type":"Kreis"},"federalState":{"key":"05","name":"Nordrhein-Westfalen"}},{"name":"Linscheiderbecke","postalCode":"58579","locality":"Schalksmühle","municipality":{"key":"05962056","name":"Schalksmühle","type":"Kreisangehörige_Gemeinde"},"district":{"key":"05962","name":"Märkischer Kreis","type":"Kreis"},"federalState":{"key":"05","name":"Nordrhein-Westfalen"}},{"name":"Linscheider Str.","postalCode":"58579","locality":"Schalksmühle","municipality":{"key":"05962056","name":"Schalksmühle","type":"Kreisangehörige_Gemeinde"},"district":{"key":"05962","name":"Märkischer Kreis","type":"Kreis"},"federalState":{"key":"05","name":"Nordrhein-Westfalen"}},{"name":"Löh","postalCode":"58579","locality":"Schalksmühle","municipality":{"key":"05962056","name":"Schalksmühle","type":"Kreisangehörige_Gemeinde"},"district":{"key":"05962","name":"Märkischer Kreis","type":"Kreis"},"federalState":{"key":"05","name":"Nordrhein-Westfalen"}},{"name":"Löher Weg","postalCode":"58579","locality":"Schalksmühle","municipality":{"key":"05962056","name":"Schalksmühle","type":"Kreisangehörige_Gemeinde"},"district":{"key":"05962","name":"Märkischer Kreis","type":"Kreis"},"federalState":{"key":"05","name":"Nordrhein-Westfalen"}},{"name":"Mollsiepen","postalCode":"58579","locality":"Schalksmühle","municipality":{"key":"05962056","name":"Schalksmühle","type":"Kreisangehörige_Gemeinde"},"district":{"key":"05962","name":"Märkischer Kreis","type":"Kreis"},"federalState":{"key":"05","name":"Nordrhein-Westfalen"}},{"name":"Möskensiepen","postalCode":"58579","locality":"Schalksmühle","municipality":{"key":"05962056","name":"Schalksmühle","type":"Kreisangehörige_Gemeinde"},"district":{"key":"05962","name":"Märkischer Kreis","type":"Kreis"},"federalState":{"key":"05","name":"Nordrhein-Westfalen"}},{"name":"Muhle","postalCode":"58579","locality":"Schalksmühle","municipality":{"key":"05962056","name":"Schalksmühle","type":"Kreisangehörige_Gemeinde"},"district":{"key":"05962","name":"Märkischer Kreis","type":"Kreis"},"federalState":{"key":"05","name":"Nordrhein-Westfalen"}},{"name":"Mühlenstr.","postalCode":"58579","locality":"Schalksmühle","municipality":{"key":"05962056","name":"Schalksmühle","type":"Kreisangehörige_Gemeinde"},"district":{"key":"05962","name":"Märkischer Kreis","type":"Kreis"},"federalState":{"key":"05","name":"Nordrhein-Westfalen"}},{"name":"Mühlenweg","postalCode":"58579","locality":"Schalksmühle","municipality":{"key":"05962056","name":"Schalksmühle","type":"Kreisangehörige_Gemeinde"},"district":{"key":"05962","name":"Märkischer Kreis","type":"Kreis"},"federalState":{"key":"05","name":"Nordrhein-Westfalen"}},{"name":"Muhlerhagen","postalCode":"58579","locality":"Schalksmühle","municipality":{"key":"05962056","name":"Schalksmühle","type":"Kreisangehörige_Gemeinde"},"district":{"key":"05962","name":"Märkischer Kreis","type":"Kreis"},"federalState":{"key":"05","name":"Nordrhein-Westfalen"}},{"name":"Nieder-Wippekühl","postalCode":"58579","locality":"Schalksmühle","municipality":{"key":"05962056","name":"Schalksmühle","type":"Kreisangehörige_Gemeinde"},"district":{"key":"05962","name":"Märkischer Kreis","type":"Kreis"},"federalState":{"key":"05","name":"Nordrhein-Westfalen"}},{"name":"Nölkenweg","postalCode":"58579","locality":"Schalksmühle","municipality":{"key":"05962056","name":"Schalksmühle","type":"Kreisangehörige_Gemeinde"},"district":{"key":"05962","name":"Märkischer Kreis","type":"Kreis"},"federalState":{"key":"05","name":"Nordrhein-Westfalen"}},{"name":"Ober-Reeswinkel","postalCode":"58579","locality":"Schalksmühle","municipality":{"key":"05962056","name":"Schalksmühle","type":"Kreisangehörige_Gemeinde"},"district":{"key":"05962","name":"Märkischer Kreis","type":"Kreis"},"federalState":{"key":"05","name":"Nordrhein-Westfalen"}},{"name":"Philippstr.","postalCode":"58579","locality":"Schalksmühle","municipality":{"key":"05962056","name":"Schalksmühle","type":"Kreisangehörige_Gemeinde"},"district":{"key":"05962","name":"Märkischer Kreis","type":"Kreis"},"federalState":{"key":"05","name":"Nordrhein-Westfalen"}},{"name":"Privatweg Golfclub Gelstern","postalCode":"58579","locality":"Schalksmühle","municipality":{"key":"05962056","name":"Schalksmühle","type":"Kreisangehörige_Gemeinde"},"district":{"key":"05962","name":"Märkischer Kreis","type":"Kreis"},"federalState":{"key":"05","name":"Nordrhein-Westfalen"}},{"name":"Pulvermühle","postalCode":"58579","locality":"Schalksmühle","municipality":{"key":"05962056","name":"Schalksmühle","type":"Kreisangehörige_Gemeinde"},"district":{"key":"05962","name":"Märkischer Kreis","type":"Kreis"},"federalState":{"key":"05","name":"Nordrhein-Westfalen"}},{"name":"Ramsloh","postalCode":"58579","locality":"Schalksmühle","municipality":{"key":"05962056","name":"Schalksmühle","type":"Kreisangehörige_Gemeinde"},"district":{"key":"05962","name":"Märkischer Kreis","type":"Kreis"},"federalState":{"key":"05","name":"Nordrhein-Westfalen"}},{"name":"Ramsloher Wäldchen","postalCode":"58579","locality":"Schalksmühle","municipality":{"key":"05962056","name":"Schalksmühle","type":"Kreisangehörige_Gemeinde"},"district":{"key":"05962","name":"Märkischer Kreis","type":"Kreis"},"federalState":{"key":"05","name":"Nordrhein-Westfalen"}},{"name":"Rathausplatz","postalCode":"58579","locality":"Schalksmühle","municipality":{"key":"05962056","name":"Schalksmühle","type":"Kreisangehörige_Gemeinde"},"district":{"key":"05962","name":"Märkischer Kreis","type":"Kreis"},"federalState":{"key":"05","name":"Nordrhein-Westfalen"}},{"name":"Rölvede","postalCode":"58579","locality":"Schalksmühle","municipality":{"key":"05962056","name":"Schalksmühle","type":"Kreisangehörige_Gemeinde"},"district":{"key":"05962","name":"Märkischer Kreis","type":"Kreis"},"federalState":{"key":"05","name":"Nordrhein-Westfalen"}},{"name":"Rölvedermühle","postalCode":"58579","locality":"Schalksmühle","municipality":{"key":"05962056","name":"Schalksmühle","type":"Kreisangehörige_Gemeinde"},"district":{"key":"05962","name":"Märkischer Kreis","type":"Kreis"},"federalState":{"key":"05","name":"Nordrhein-Westfalen"}},{"name":"Rosenhagen","postalCode":"58579","locality":"Schalksmühle","municipality":{"key":"05962056","name":"Schalksmühle","type":"Kreisangehörige_Gemeinde"},"district":{"key":"05962","name":"Märkischer Kreis","type":"Kreis"},"federalState":{"key":"05","name":"Nordrhein-Westfalen"}},{"name":"Rosenweg","postalCode":"58579","locality":"Schalksmühle","municipality":{"key":"05962056","name":"Schalksmühle","type":"Kreisangehörige_Gemeinde"},"district":{"key":"05962","name":"Märkischer Kreis","type":"Kreis"},"federalState":{"key":"05","name":"Nordrhein-Westfalen"}},{"name":"Rotmilanweg","postalCode":"58579","locality":"Schalksmühle","municipality":{"key":"05962056","name":"Schalksmühle","type":"Kreisangehörige_Gemeinde"},"district":{"key":"05962","name":"Märkischer Kreis","type":"Kreis"},"federalState":{"key":"05","name":"Nordrhein-Westfalen"}},{"name":"Rotthausen","postalCode":"58579","locality":"Schalksmühle","municipality":{"key":"05962056","name":"Schalksmühle","type":"Kreisangehörige_Gemeinde"},"district":{"key":"05962","name":"Märkischer Kreis","type":"Kreis"},"federalState":{"key":"05","name":"Nordrhein-Westfalen"}},{"name":"Saurenkamp","postalCode":"58579","locality":"Schalksmühle","municipality":{"key":"05962056","name":"Schalksmühle","type":"Kreisangehörige_Gemeinde"},"district":{"key":"05962","name":"Märkischer Kreis","type":"Kreis"},"federalState":{"key":"05","name":"Nordrhein-Westfalen"}},{"name":"Schlöten","postalCode":"58579","locality":"Schalksmühle","municipality":{"key":"05962056","name":"Schalksmühle","type":"Kreisangehörige_Gemeinde"},"district":{"key":"05962","name":"Märkischer Kreis","type":"Kreis"},"federalState":{"key":"05","name":"Nordrhein-Westfalen"}},{"name":"Schnurrenweg","postalCode":"58579","locality":"Schalksmühle","municipality":{"key":"05962056","name":"Schalksmühle","type":"Kreisangehörige_Gemeinde"},"district":{"key":"05962","name":"Märkischer Kreis","type":"Kreis"},"federalState":{"key":"05","name":"Nordrhein-Westfalen"}},{"name":"Schulstr.","postalCode":"58579","locality":"Schalksmühle","municipality":{"key":"05962056","name":"Schalksmühle","type":"Kreisangehörige_Gemeinde"},"district":{"key":"05962","name":"Märkischer Kreis","type":"Kreis"},"federalState":{"key":"05","name":"Nordrhein-Westfalen"}},{"name":"Schützenplatz Heedfeld","postalCode":"58579","locality":"Schalksmühle","municipality":{"key":"05962056","name":"Schalksmühle","type":"Kreisangehörige_Gemeinde"},"district":{"key":"05962","name":"Märkischer Kreis","type":"Kreis"},"federalState":{"key":"05","name":"Nordrhein-Westfalen"}},{"name":"Sperberweg","postalCode":"58579","locality":"Schalksmühle","municipality":{"key":"05962056","name":"Schalksmühle","type":"Kreisangehörige_Gemeinde"},"district":{"key":"05962","name":"Märkischer Kreis","type":"Kreis"},"federalState":{"key":"05","name":"Nordrhein-Westfalen"}},{"name":"Spormecke","postalCode":"58579","locality":"Schalksmühle","municipality":{"key":"05962056","name":"Schalksmühle","type":"Kreisangehörige_Gemeinde"},"district":{"key":"05962","name":"Märkischer Kreis","type":"Kreis"},"federalState":{"key":"05","name":"Nordrhein-Westfalen"}},{"name":"Stallhaus","postalCode":"58579","locality":"Schalksmühle","municipality":{"key":"05962056","name":"Schalksmühle","type":"Kreisangehörige_Gemeinde"},"district":{"key":"05962","name":"Märkischer Kreis","type":"Kreis"},"federalState":{"key":"05","name":"Nordrhein-Westfalen"}},{"name":"Steinkauzweg","postalCode":"58579","locality":"Schalksmühle","municipality":{"key":"05962056","name":"Schalksmühle","type":"Kreisangehörige_Gemeinde"},"district":{"key":"05962","name":"Märkischer Kreis","type":"Kreis"},"federalState":{"key":"05","name":"Nordrhein-Westfalen"}},{"name":"Sterbecke","postalCode":"58579","locality":"Schalksmühle","municipality":{"key":"05962056","name":"Schalksmühle","type":"Kreisangehörige_Gemeinde"},"district":{"key":"05962","name":"Märkischer Kreis","type":"Kreis"},"federalState":{"key":"05","name":"Nordrhein-Westfalen"}},{"name":"Sterbecker Str.","postalCode":"58579","locality":"Schalksmühle","municipality":{"key":"05962056","name":"Schalksmühle","type":"Kreisangehörige_Gemeinde"},"district":{"key":"05962","name":"Märkischer Kreis","type":"Kreis"},"federalState":{"key":"05","name":"Nordrhein-Westfalen"}},{"name":"Strücken","postalCode":"58579","locality":"Schalksmühle","municipality":{"key":"05962056","name":"Schalksmühle","type":"Kreisangehörige_Gemeinde"},"district":{"key":"05962","name":"Märkischer Kreis","type":"Kreis"},"federalState":{"key":"05","name":"Nordrhein-Westfalen"}},{"name":"Tulpenstr.","postalCode":"58579","locality":"Schalksmühle","municipality":{"key":"05962056","name":"Schalksmühle","type":"Kreisangehörige_Gemeinde"},"district":{"key":"05962","name":"Märkischer Kreis","type":"Kreis"},"federalState":{"key":"05","name":"Nordrhein-Westfalen"}},{"name":"Unterm Eichholz","postalCode":"58579","locality":"Schalksmühle","municipality":{"key":"05962056","name":"Schalksmühle","type":"Kreisangehörige_Gemeinde"},"district":{"key":"05962","name":"Märkischer Kreis","type":"Kreis"},"federalState":{"key":"05","name":"Nordrhein-Westfalen"}},{"name":"Unterm Ried","postalCode":"58579","locality":"Schalksmühle","municipality":{"key":"05962056","name":"Schalksmühle","type":"Kreisangehörige_Gemeinde"},"district":{"key":"05962","name":"Märkischer Kreis","type":"Kreis"},"federalState":{"key":"05","name":"Nordrhein-Westfalen"}},{"name":"Viktoriastr.","postalCode":"58579","locality":"Schalksmühle","municipality":{"key":"05962056","name":"Schalksmühle","type":"Kreisangehörige_Gemeinde"},"district":{"key":"05962","name":"Märkischer Kreis","type":"Kreis"},"federalState":{"key":"05","name":"Nordrhein-Westfalen"}},{"name":"Volmestr.","postalCode":"58579","locality":"Schalksmühle","municipality":{"key":"05962056","name":"Schalksmühle","type":"Kreisangehörige_Gemeinde"},"district":{"key":"05962","name":"Märkischer Kreis","type":"Kreis"},"federalState":{"key":"05","name":"Nordrhein-Westfalen"}},{"name":"Waldesruh","postalCode":"58579","locality":"Schalksmühle","municipality":{"key":"05962056","name":"Schalksmühle","type":"Kreisangehörige_Gemeinde"},"district":{"key":"05962","name":"Märkischer Kreis","type":"Kreis"},"federalState":{"key":"05","name":"Nordrhein-Westfalen"}},{"name":"Waldfrieden","postalCode":"58579","locality":"Schalksmühle","municipality":{"key":"05962056","name":"Schalksmühle","type":"Kreisangehörige_Gemeinde"},"district":{"key":"05962","name":"Märkischer Kreis","type":"Kreis"},"federalState":{"key":"05","name":"Nordrhein-Westfalen"}},{"name":"Waldkauzweg","postalCode":"58579","locality":"Schalksmühle","municipality":{"key":"05962056","name":"Schalksmühle","type":"Kreisangehörige_Gemeinde"},"district":{"key":"05962","name":"Märkischer Kreis","type":"Kreis"},"federalState":{"key":"05","name":"Nordrhein-Westfalen"}},{"name":"Waldweg","postalCode":"58579","locality":"Schalksmühle","municipality":{"key":"05962056","name":"Schalksmühle","type":"Kreisangehörige_Gemeinde"},"district":{"key":"05962","name":"Märkischer Kreis","type":"Kreis"},"federalState":{"key":"05","name":"Nordrhein-Westfalen"}},{"name":"Weidenstr.","postalCode":"58579","locality":"Schalksmühle","municipality":{"key":"05962056","name":"Schalksmühle","type":"Kreisangehörige_Gemeinde"},"district":{"key":"05962","name":"Märkischer Kreis","type":"Kreis"},"federalState":{"key":"05","name":"Nordrhein-Westfalen"}},{"name":"Westhöhe","postalCode":"58579","locality":"Schalksmühle","municipality":{"key":"05962056","name":"Schalksmühle","type":"Kreisangehörige_Gemeinde"},"district":{"key":"05962","name":"Märkischer Kreis","type":"Kreis"},"federalState":{"key":"05","name":"Nordrhein-Westfalen"}},{"name":"Wielsiepen","postalCode":"58579","locality":"Schalksmühle","municipality":{"key":"05962056","name":"Schalksmühle","type":"Kreisangehörige_Gemeinde"},"district":{"key":"05962","name":"Märkischer Kreis","type":"Kreis"},"federalState":{"key":"05","name":"Nordrhein-Westfalen"}},{"name":"Wiesenstr.","postalCode":"58579","locality":"Schalksmühle","municipality":{"key":"05962056","name":"Schalksmühle","type":"Kreisangehörige_Gemeinde"},"district":{"key":"05962","name":"Märkischer Kreis","type":"Kreis"},"federalState":{"key":"05","name":"Nordrhein-Westfalen"}},{"name":"Wiesenweg","postalCode":"58579","locality":"Schalksmühle","municipality":{"key":"05962056","name":"Schalksmühle","type":"Kreisangehörige_Gemeinde"},"district":{"key":"05962","name":"Märkischer Kreis","type":"Kreis"},"federalState":{"key":"05","name":"Nordrhein-Westfalen"}},{"name":"Wildgehege Mesekendahl","postalCode":"58579","locality":"Schalksmühle","municipality":{"key":"05962056","name":"Schalksmühle","type":"Kreisangehörige_Gemeinde"},"district":{"key":"05962","name":"Märkischer Kreis","type":"Kreis"},"federalState":{"key":"05","name":"Nordrhein-Westfalen"}},{"name":"Winkeln","postalCode":"58579","locality":"Schalksmühle","municipality":{"key":"05962056","name":"Schalksmühle","type":"Kreisangehörige_Gemeinde"},"district":{"key":"05962","name":"Märkischer Kreis","type":"Kreis"},"federalState":{"key":"05","name":"Nordrhein-Westfalen"}},{"name":"Winklerheide","postalCode":"58579","locality":"Schalksmühle","municipality":{"key":"05962056","name":"Schalksmühle","type":"Kreisangehörige_Gemeinde"},"district":{"key":"05962","name":"Märkischer Kreis","type":"Kreis"},"federalState":{"key":"05","name":"Nordrhein-Westfalen"}},{"name":"Wippekühl","postalCode":"58579","locality":"Schalksmühle","municipality":{"key":"05962056","name":"Schalksmühle","type":"Kreisangehörige_Gemeinde"},"district":{"key":"05962","name":"Märkischer Kreis","type":"Kreis"},"federalState":{"key":"05","name":"Nordrhein-Westfalen"}},{"name":"Worth","postalCode":"58579","locality":"Schalksmühle","municipality":{"key":"05962056","name":"Schalksmühle","type":"Kreisangehörige_Gemeinde"},"district":{"key":"05962","name":"Märkischer Kreis","type":"Kreis"},"federalState":{"key":"05","name":"Nordrhein-Westfalen"}},{"name":"Worthstr.","postalCode":"58579","locality":"Schalksmühle","municipality":{"key":"05962056","name":"Schalksmühle","type":"Kreisangehörige_Gemeinde"},"district":{"key":"05962","name":"Märkischer Kreis","type":"Kreis"},"federalState":{"key":"05","name":"Nordrhein-Westfalen"}},]