[{"name":"Alsfelder Str.","postalCode":"36320","locality":"Kirtorf","municipality":{"key":"06535010","name":"Kirtorf, Stadt","type":"Stadt"},"district":{"key":"06535","name":"Vogelsbergkreis","type":"Landkreis"},"federalState":{"key":"06","name":"Hessen"}},{"name":"Alsfelder Tor","postalCode":"36320","locality":"Kirtorf","municipality":{"key":"06535010","name":"Kirtorf, Stadt","type":"Stadt"},"district":{"key":"06535","name":"Vogelsbergkreis","type":"Landkreis"},"federalState":{"key":"06","name":"Hessen"}},{"name":"Alsfelder Weg","postalCode":"36320","locality":"Kirtorf","municipality":{"key":"06535010","name":"Kirtorf, Stadt","type":"Stadt"},"district":{"key":"06535","name":"Vogelsbergkreis","type":"Landkreis"},"federalState":{"key":"06","name":"Hessen"}},{"name":"Am Bodenacker","postalCode":"36320","locality":"Kirtorf","municipality":{"key":"06535010","name":"Kirtorf, Stadt","type":"Stadt"},"district":{"key":"06535","name":"Vogelsbergkreis","type":"Landkreis"},"federalState":{"key":"06","name":"Hessen"}},{"name":"Am Driesch","postalCode":"36320","locality":"Kirtorf","municipality":{"key":"06535010","name":"Kirtorf, Stadt","type":"Stadt"},"district":{"key":"06535","name":"Vogelsbergkreis","type":"Landkreis"},"federalState":{"key":"06","name":"Hessen"}},{"name":"Am Forsthof","postalCode":"36320","locality":"Kirtorf","municipality":{"key":"06535010","name":"Kirtorf, Stadt","type":"Stadt"},"district":{"key":"06535","name":"Vogelsbergkreis","type":"Landkreis"},"federalState":{"key":"06","name":"Hessen"}},{"name":"Am Grättengarten","postalCode":"36320","locality":"Kirtorf","municipality":{"key":"06535010","name":"Kirtorf, Stadt","type":"Stadt"},"district":{"key":"06535","name":"Vogelsbergkreis","type":"Landkreis"},"federalState":{"key":"06","name":"Hessen"}},{"name":"Am Gronacker","postalCode":"36320","locality":"Kirtorf","municipality":{"key":"06535010","name":"Kirtorf, Stadt","type":"Stadt"},"district":{"key":"06535","name":"Vogelsbergkreis","type":"Landkreis"},"federalState":{"key":"06","name":"Hessen"}},{"name":"Am Hahnenkräher","postalCode":"36320","locality":"Kirtorf","municipality":{"key":"06535010","name":"Kirtorf, Stadt","type":"Stadt"},"district":{"key":"06535","name":"Vogelsbergkreis","type":"Landkreis"},"federalState":{"key":"06","name":"Hessen"}},{"name":"Am Hain","postalCode":"36320","locality":"Kirtorf","municipality":{"key":"06535010","name":"Kirtorf, Stadt","type":"Stadt"},"district":{"key":"06535","name":"Vogelsbergkreis","type":"Landkreis"},"federalState":{"key":"06","name":"Hessen"}},{"name":"Am Hohen Rain","postalCode":"36320","locality":"Kirtorf","municipality":{"key":"06535010","name":"Kirtorf, Stadt","type":"Stadt"},"district":{"key":"06535","name":"Vogelsbergkreis","type":"Landkreis"},"federalState":{"key":"06","name":"Hessen"}},{"name":"Am Kaplaneiberg","postalCode":"36320","locality":"Kirtorf","municipality":{"key":"06535010","name":"Kirtorf, Stadt","type":"Stadt"},"district":{"key":"06535","name":"Vogelsbergkreis","type":"Landkreis"},"federalState":{"key":"06","name":"Hessen"}},{"name":"Am Kirtorferbergsweg","postalCode":"36320","locality":"Kirtorf","municipality":{"key":"06535010","name":"Kirtorf, Stadt","type":"Stadt"},"district":{"key":"06535","name":"Vogelsbergkreis","type":"Landkreis"},"federalState":{"key":"06","name":"Hessen"}},{"name":"Am Lustgarten","postalCode":"36320","locality":"Kirtorf","municipality":{"key":"06535010","name":"Kirtorf, Stadt","type":"Stadt"},"district":{"key":"06535","name":"Vogelsbergkreis","type":"Landkreis"},"federalState":{"key":"06","name":"Hessen"}},{"name":"Am Mühlberg","postalCode":"36320","locality":"Kirtorf","municipality":{"key":"06535010","name":"Kirtorf, Stadt","type":"Stadt"},"district":{"key":"06535","name":"Vogelsbergkreis","type":"Landkreis"},"federalState":{"key":"06","name":"Hessen"}},{"name":"Am Mühlbusch","postalCode":"36320","locality":"Kirtorf","municipality":{"key":"06535010","name":"Kirtorf, Stadt","type":"Stadt"},"district":{"key":"06535","name":"Vogelsbergkreis","type":"Landkreis"},"federalState":{"key":"06","name":"Hessen"}},{"name":"Am Rasengarten","postalCode":"36320","locality":"Kirtorf","municipality":{"key":"06535010","name":"Kirtorf, Stadt","type":"Stadt"},"district":{"key":"06535","name":"Vogelsbergkreis","type":"Landkreis"},"federalState":{"key":"06","name":"Hessen"}},{"name":"Am Schloßgarten","postalCode":"36320","locality":"Kirtorf","municipality":{"key":"06535010","name":"Kirtorf, Stadt","type":"Stadt"},"district":{"key":"06535","name":"Vogelsbergkreis","type":"Landkreis"},"federalState":{"key":"06","name":"Hessen"}},{"name":"Am Steinböhl","postalCode":"36320","locality":"Kirtorf","municipality":{"key":"06535010","name":"Kirtorf, Stadt","type":"Stadt"},"district":{"key":"06535","name":"Vogelsbergkreis","type":"Landkreis"},"federalState":{"key":"06","name":"Hessen"}},{"name":"Am Steines","postalCode":"36320","locality":"Kirtorf","municipality":{"key":"06535010","name":"Kirtorf, Stadt","type":"Stadt"},"district":{"key":"06535","name":"Vogelsbergkreis","type":"Landkreis"},"federalState":{"key":"06","name":"Hessen"}},{"name":"Am Teichgarten","postalCode":"36320","locality":"Kirtorf","municipality":{"key":"06535010","name":"Kirtorf, Stadt","type":"Stadt"},"district":{"key":"06535","name":"Vogelsbergkreis","type":"Landkreis"},"federalState":{"key":"06","name":"Hessen"}},{"name":"Angenröder Str.","postalCode":"36320","locality":"Kirtorf","municipality":{"key":"06535010","name":"Kirtorf, Stadt","type":"Stadt"},"district":{"key":"06535","name":"Vogelsbergkreis","type":"Landkreis"},"federalState":{"key":"06","name":"Hessen"}},{"name":"Arnshainer Weg","postalCode":"36320","locality":"Kirtorf","municipality":{"key":"06535010","name":"Kirtorf, Stadt","type":"Stadt"},"district":{"key":"06535","name":"Vogelsbergkreis","type":"Landkreis"},"federalState":{"key":"06","name":"Hessen"}},{"name":"Asterweg","postalCode":"36320","locality":"Kirtorf","municipality":{"key":"06535010","name":"Kirtorf, Stadt","type":"Stadt"},"district":{"key":"06535","name":"Vogelsbergkreis","type":"Landkreis"},"federalState":{"key":"06","name":"Hessen"}},{"name":"Auf dem Wieshof","postalCode":"36320","locality":"Kirtorf","municipality":{"key":"06535010","name":"Kirtorf, Stadt","type":"Stadt"},"district":{"key":"06535","name":"Vogelsbergkreis","type":"Landkreis"},"federalState":{"key":"06","name":"Hessen"}},{"name":"Auf der Beune","postalCode":"36320","locality":"Kirtorf","municipality":{"key":"06535010","name":"Kirtorf, Stadt","type":"Stadt"},"district":{"key":"06535","name":"Vogelsbergkreis","type":"Landkreis"},"federalState":{"key":"06","name":"Hessen"}},{"name":"Auf der Dreispitz","postalCode":"36320","locality":"Kirtorf","municipality":{"key":"06535010","name":"Kirtorf, Stadt","type":"Stadt"},"district":{"key":"06535","name":"Vogelsbergkreis","type":"Landkreis"},"federalState":{"key":"06","name":"Hessen"}},{"name":"Austr.","postalCode":"36320","locality":"Kirtorf","municipality":{"key":"06535010","name":"Kirtorf, Stadt","type":"Stadt"},"district":{"key":"06535","name":"Vogelsbergkreis","type":"Landkreis"},"federalState":{"key":"06","name":"Hessen"}},{"name":"Bergstr.","postalCode":"36320","locality":"Kirtorf","municipality":{"key":"06535010","name":"Kirtorf, Stadt","type":"Stadt"},"district":{"key":"06535","name":"Vogelsbergkreis","type":"Landkreis"},"federalState":{"key":"06","name":"Hessen"}},{"name":"Bernsburger Weg","postalCode":"36320","locality":"Kirtorf","municipality":{"key":"06535010","name":"Kirtorf, Stadt","type":"Stadt"},"district":{"key":"06535","name":"Vogelsbergkreis","type":"Landkreis"},"federalState":{"key":"06","name":"Hessen"}},{"name":"Betzenfeld","postalCode":"36320","locality":"Kirtorf","municipality":{"key":"06535010","name":"Kirtorf, Stadt","type":"Stadt"},"district":{"key":"06535","name":"Vogelsbergkreis","type":"Landkreis"},"federalState":{"key":"06","name":"Hessen"}},{"name":"Borngasse","postalCode":"36320","locality":"Kirtorf","municipality":{"key":"06535010","name":"Kirtorf, Stadt","type":"Stadt"},"district":{"key":"06535","name":"Vogelsbergkreis","type":"Landkreis"},"federalState":{"key":"06","name":"Hessen"}},{"name":"Bornrain","postalCode":"36320","locality":"Kirtorf","municipality":{"key":"06535010","name":"Kirtorf, Stadt","type":"Stadt"},"district":{"key":"06535","name":"Vogelsbergkreis","type":"Landkreis"},"federalState":{"key":"06","name":"Hessen"}},{"name":"Bornsweg","postalCode":"36320","locality":"Kirtorf","municipality":{"key":"06535010","name":"Kirtorf, Stadt","type":"Stadt"},"district":{"key":"06535","name":"Vogelsbergkreis","type":"Landkreis"},"federalState":{"key":"06","name":"Hessen"}},{"name":"Braugasse","postalCode":"36320","locality":"Kirtorf","municipality":{"key":"06535010","name":"Kirtorf, Stadt","type":"Stadt"},"district":{"key":"06535","name":"Vogelsbergkreis","type":"Landkreis"},"federalState":{"key":"06","name":"Hessen"}},{"name":"Buchenweg","postalCode":"36320","locality":"Kirtorf","municipality":{"key":"06535010","name":"Kirtorf, Stadt","type":"Stadt"},"district":{"key":"06535","name":"Vogelsbergkreis","type":"Landkreis"},"federalState":{"key":"06","name":"Hessen"}},{"name":"Buschhorn","postalCode":"36320","locality":"Kirtorf","municipality":{"key":"06535010","name":"Kirtorf, Stadt","type":"Stadt"},"district":{"key":"06535","name":"Vogelsbergkreis","type":"Landkreis"},"federalState":{"key":"06","name":"Hessen"}},{"name":"Dammesweg","postalCode":"36320","locality":"Kirtorf","municipality":{"key":"06535010","name":"Kirtorf, Stadt","type":"Stadt"},"district":{"key":"06535","name":"Vogelsbergkreis","type":"Landkreis"},"federalState":{"key":"06","name":"Hessen"}},{"name":"Diebachsweg","postalCode":"36320","locality":"Kirtorf","municipality":{"key":"06535010","name":"Kirtorf, Stadt","type":"Stadt"},"district":{"key":"06535","name":"Vogelsbergkreis","type":"Landkreis"},"federalState":{"key":"06","name":"Hessen"}},{"name":"Dr.-Weidig-Str.","postalCode":"36320","locality":"Kirtorf","municipality":{"key":"06535010","name":"Kirtorf, Stadt","type":"Stadt"},"district":{"key":"06535","name":"Vogelsbergkreis","type":"Landkreis"},"federalState":{"key":"06","name":"Hessen"}},{"name":"Ehringshäuser Str.","postalCode":"36320","locality":"Kirtorf","municipality":{"key":"06535010","name":"Kirtorf, Stadt","type":"Stadt"},"district":{"key":"06535","name":"Vogelsbergkreis","type":"Landkreis"},"federalState":{"key":"06","name":"Hessen"}},{"name":"Erbenhäuser Weg","postalCode":"36320","locality":"Kirtorf","municipality":{"key":"06535010","name":"Kirtorf, Stadt","type":"Stadt"},"district":{"key":"06535","name":"Vogelsbergkreis","type":"Landkreis"},"federalState":{"key":"06","name":"Hessen"}},{"name":"Feldstr.","postalCode":"36320","locality":"Kirtorf","municipality":{"key":"06535010","name":"Kirtorf, Stadt","type":"Stadt"},"district":{"key":"06535","name":"Vogelsbergkreis","type":"Landkreis"},"federalState":{"key":"06","name":"Hessen"}},{"name":"Friedhofstr.","postalCode":"36320","locality":"Kirtorf","municipality":{"key":"06535010","name":"Kirtorf, Stadt","type":"Stadt"},"district":{"key":"06535","name":"Vogelsbergkreis","type":"Landkreis"},"federalState":{"key":"06","name":"Hessen"}},{"name":"Fußgängersteg","postalCode":"36320","locality":"Kirtorf","municipality":{"key":"06535010","name":"Kirtorf, Stadt","type":"Stadt"},"district":{"key":"06535","name":"Vogelsbergkreis","type":"Landkreis"},"federalState":{"key":"06","name":"Hessen"}},{"name":"Gartenstr.","postalCode":"36320","locality":"Kirtorf","municipality":{"key":"06535010","name":"Kirtorf, Stadt","type":"Stadt"},"district":{"key":"06535","name":"Vogelsbergkreis","type":"Landkreis"},"federalState":{"key":"06","name":"Hessen"}},{"name":"Gartenweg","postalCode":"36320","locality":"Kirtorf","municipality":{"key":"06535010","name":"Kirtorf, Stadt","type":"Stadt"},"district":{"key":"06535","name":"Vogelsbergkreis","type":"Landkreis"},"federalState":{"key":"06","name":"Hessen"}},{"name":"Gemündener Str.","postalCode":"36320","locality":"Kirtorf","municipality":{"key":"06535010","name":"Kirtorf, Stadt","type":"Stadt"},"district":{"key":"06535","name":"Vogelsbergkreis","type":"Landkreis"},"federalState":{"key":"06","name":"Hessen"}},{"name":"Graben","postalCode":"36320","locality":"Kirtorf","municipality":{"key":"06535010","name":"Kirtorf, Stadt","type":"Stadt"},"district":{"key":"06535","name":"Vogelsbergkreis","type":"Landkreis"},"federalState":{"key":"06","name":"Hessen"}},{"name":"Grüner Weg","postalCode":"36320","locality":"Kirtorf","municipality":{"key":"06535010","name":"Kirtorf, Stadt","type":"Stadt"},"district":{"key":"06535","name":"Vogelsbergkreis","type":"Landkreis"},"federalState":{"key":"06","name":"Hessen"}},{"name":"Hauptstr.","postalCode":"36320","locality":"Kirtorf","municipality":{"key":"06535010","name":"Kirtorf, Stadt","type":"Stadt"},"district":{"key":"06535","name":"Vogelsbergkreis","type":"Landkreis"},"federalState":{"key":"06","name":"Hessen"}},{"name":"Heimertshäuser Str.","postalCode":"36320","locality":"Kirtorf","municipality":{"key":"06535010","name":"Kirtorf, Stadt","type":"Stadt"},"district":{"key":"06535","name":"Vogelsbergkreis","type":"Landkreis"},"federalState":{"key":"06","name":"Hessen"}},{"name":"Heimsteiner Weg","postalCode":"36320","locality":"Kirtorf","municipality":{"key":"06535010","name":"Kirtorf, Stadt","type":"Stadt"},"district":{"key":"06535","name":"Vogelsbergkreis","type":"Landkreis"},"federalState":{"key":"06","name":"Hessen"}},{"name":"Hersfelder Str.","postalCode":"36320","locality":"Kirtorf","municipality":{"key":"06535010","name":"Kirtorf, Stadt","type":"Stadt"},"district":{"key":"06535","name":"Vogelsbergkreis","type":"Landkreis"},"federalState":{"key":"06","name":"Hessen"}},{"name":"Hinter den Zäunen","postalCode":"36320","locality":"Kirtorf","municipality":{"key":"06535010","name":"Kirtorf, Stadt","type":"Stadt"},"district":{"key":"06535","name":"Vogelsbergkreis","type":"Landkreis"},"federalState":{"key":"06","name":"Hessen"}},{"name":"Hintergasse","postalCode":"36320","locality":"Kirtorf","municipality":{"key":"06535010","name":"Kirtorf, Stadt","type":"Stadt"},"district":{"key":"06535","name":"Vogelsbergkreis","type":"Landkreis"},"federalState":{"key":"06","name":"Hessen"}},{"name":"Hirschberg","postalCode":"36320","locality":"Kirtorf","municipality":{"key":"06535010","name":"Kirtorf, Stadt","type":"Stadt"},"district":{"key":"06535","name":"Vogelsbergkreis","type":"Landkreis"},"federalState":{"key":"06","name":"Hessen"}},{"name":"Hochstr.","postalCode":"36320","locality":"Kirtorf","municipality":{"key":"06535010","name":"Kirtorf, Stadt","type":"Stadt"},"district":{"key":"06535","name":"Vogelsbergkreis","type":"Landkreis"},"federalState":{"key":"06","name":"Hessen"}},{"name":"Hofacker","postalCode":"36320","locality":"Kirtorf","municipality":{"key":"06535010","name":"Kirtorf, Stadt","type":"Stadt"},"district":{"key":"06535","name":"Vogelsbergkreis","type":"Landkreis"},"federalState":{"key":"06","name":"Hessen"}},{"name":"Hutweg","postalCode":"36320","locality":"Kirtorf","municipality":{"key":"06535010","name":"Kirtorf, Stadt","type":"Stadt"},"district":{"key":"06535","name":"Vogelsbergkreis","type":"Landkreis"},"federalState":{"key":"06","name":"Hessen"}},{"name":"Im Bonnfeld","postalCode":"36320","locality":"Kirtorf","municipality":{"key":"06535010","name":"Kirtorf, Stadt","type":"Stadt"},"district":{"key":"06535","name":"Vogelsbergkreis","type":"Landkreis"},"federalState":{"key":"06","name":"Hessen"}},{"name":"Im Eichenfeld","postalCode":"36320","locality":"Kirtorf","municipality":{"key":"06535010","name":"Kirtorf, Stadt","type":"Stadt"},"district":{"key":"06535","name":"Vogelsbergkreis","type":"Landkreis"},"federalState":{"key":"06","name":"Hessen"}},{"name":"Im Eisenberg","postalCode":"36320","locality":"Kirtorf","municipality":{"key":"06535010","name":"Kirtorf, Stadt","type":"Stadt"},"district":{"key":"06535","name":"Vogelsbergkreis","type":"Landkreis"},"federalState":{"key":"06","name":"Hessen"}},{"name":"In den Bonngärten","postalCode":"36320","locality":"Kirtorf","municipality":{"key":"06535010","name":"Kirtorf, Stadt","type":"Stadt"},"district":{"key":"06535","name":"Vogelsbergkreis","type":"Landkreis"},"federalState":{"key":"06","name":"Hessen"}},{"name":"In den Fünfbeeten","postalCode":"36320","locality":"Kirtorf","municipality":{"key":"06535010","name":"Kirtorf, Stadt","type":"Stadt"},"district":{"key":"06535","name":"Vogelsbergkreis","type":"Landkreis"},"federalState":{"key":"06","name":"Hessen"}},{"name":"Jahnstr.","postalCode":"36320","locality":"Kirtorf","municipality":{"key":"06535010","name":"Kirtorf, Stadt","type":"Stadt"},"district":{"key":"06535","name":"Vogelsbergkreis","type":"Landkreis"},"federalState":{"key":"06","name":"Hessen"}},{"name":"Kasseler Str.","postalCode":"36320","locality":"Kirtorf","municipality":{"key":"06535010","name":"Kirtorf, Stadt","type":"Stadt"},"district":{"key":"06535","name":"Vogelsbergkreis","type":"Landkreis"},"federalState":{"key":"06","name":"Hessen"}},{"name":"Kirchberg","postalCode":"36320","locality":"Kirtorf","municipality":{"key":"06535010","name":"Kirtorf, Stadt","type":"Stadt"},"district":{"key":"06535","name":"Vogelsbergkreis","type":"Landkreis"},"federalState":{"key":"06","name":"Hessen"}},{"name":"Kirchenstumpfschneise","postalCode":"36320","locality":"Kirtorf","municipality":{"key":"06535010","name":"Kirtorf, Stadt","type":"Stadt"},"district":{"key":"06535","name":"Vogelsbergkreis","type":"Landkreis"},"federalState":{"key":"06","name":"Hessen"}},{"name":"Kirchenweg","postalCode":"36320","locality":"Kirtorf","municipality":{"key":"06535010","name":"Kirtorf, Stadt","type":"Stadt"},"district":{"key":"06535","name":"Vogelsbergkreis","type":"Landkreis"},"federalState":{"key":"06","name":"Hessen"}},{"name":"Kirchgasse","postalCode":"36320","locality":"Kirtorf","municipality":{"key":"06535010","name":"Kirtorf, Stadt","type":"Stadt"},"district":{"key":"06535","name":"Vogelsbergkreis","type":"Landkreis"},"federalState":{"key":"06","name":"Hessen"}},{"name":"Kirchstr.","postalCode":"36320","locality":"Kirtorf","municipality":{"key":"06535010","name":"Kirtorf, Stadt","type":"Stadt"},"district":{"key":"06535","name":"Vogelsbergkreis","type":"Landkreis"},"federalState":{"key":"06","name":"Hessen"}},{"name":"Kirschbrücke","postalCode":"36320","locality":"Kirtorf","municipality":{"key":"06535010","name":"Kirtorf, Stadt","type":"Stadt"},"district":{"key":"06535","name":"Vogelsbergkreis","type":"Landkreis"},"federalState":{"key":"06","name":"Hessen"}},{"name":"Kirtorfer Str.","postalCode":"36320","locality":"Kirtorf","municipality":{"key":"06535010","name":"Kirtorf, Stadt","type":"Stadt"},"district":{"key":"06535","name":"Vogelsbergkreis","type":"Landkreis"},"federalState":{"key":"06","name":"Hessen"}},{"name":"Kirtorfer Weg","postalCode":"36320","locality":"Kirtorf","municipality":{"key":"06535010","name":"Kirtorf, Stadt","type":"Stadt"},"district":{"key":"06535","name":"Vogelsbergkreis","type":"Landkreis"},"federalState":{"key":"06","name":"Hessen"}},{"name":"Kohlweg","postalCode":"36320","locality":"Kirtorf","municipality":{"key":"06535010","name":"Kirtorf, Stadt","type":"Stadt"},"district":{"key":"06535","name":"Vogelsbergkreis","type":"Landkreis"},"federalState":{"key":"06","name":"Hessen"}},{"name":"Lampertweg","postalCode":"36320","locality":"Kirtorf","municipality":{"key":"06535010","name":"Kirtorf, Stadt","type":"Stadt"},"district":{"key":"06535","name":"Vogelsbergkreis","type":"Landkreis"},"federalState":{"key":"06","name":"Hessen"}},{"name":"Landwehrstr.","postalCode":"36320","locality":"Kirtorf","municipality":{"key":"06535010","name":"Kirtorf, Stadt","type":"Stadt"},"district":{"key":"06535","name":"Vogelsbergkreis","type":"Landkreis"},"federalState":{"key":"06","name":"Hessen"}},{"name":"Langgasse","postalCode":"36320","locality":"Kirtorf","municipality":{"key":"06535010","name":"Kirtorf, Stadt","type":"Stadt"},"district":{"key":"06535","name":"Vogelsbergkreis","type":"Landkreis"},"federalState":{"key":"06","name":"Hessen"}},{"name":"Lehrbacher Weg","postalCode":"36320","locality":"Kirtorf","municipality":{"key":"06535010","name":"Kirtorf, Stadt","type":"Stadt"},"district":{"key":"06535","name":"Vogelsbergkreis","type":"Landkreis"},"federalState":{"key":"06","name":"Hessen"}},{"name":"Liedweg","postalCode":"36320","locality":"Kirtorf","municipality":{"key":"06535010","name":"Kirtorf, Stadt","type":"Stadt"},"district":{"key":"06535","name":"Vogelsbergkreis","type":"Landkreis"},"federalState":{"key":"06","name":"Hessen"}},{"name":"Lindenweg","postalCode":"36320","locality":"Kirtorf","municipality":{"key":"06535010","name":"Kirtorf, Stadt","type":"Stadt"},"district":{"key":"06535","name":"Vogelsbergkreis","type":"Landkreis"},"federalState":{"key":"06","name":"Hessen"}},{"name":"Marburger Str.","postalCode":"36320","locality":"Kirtorf","municipality":{"key":"06535010","name":"Kirtorf, Stadt","type":"Stadt"},"district":{"key":"06535","name":"Vogelsbergkreis","type":"Landkreis"},"federalState":{"key":"06","name":"Hessen"}},{"name":"Mühlgässchen","postalCode":"36320","locality":"Kirtorf","municipality":{"key":"06535010","name":"Kirtorf, Stadt","type":"Stadt"},"district":{"key":"06535","name":"Vogelsbergkreis","type":"Landkreis"},"federalState":{"key":"06","name":"Hessen"}},{"name":"Nellenburgweg","postalCode":"36320","locality":"Kirtorf","municipality":{"key":"06535010","name":"Kirtorf, Stadt","type":"Stadt"},"district":{"key":"06535","name":"Vogelsbergkreis","type":"Landkreis"},"federalState":{"key":"06","name":"Hessen"}},{"name":"Neustädter Str.","postalCode":"36320","locality":"Kirtorf","municipality":{"key":"06535010","name":"Kirtorf, Stadt","type":"Stadt"},"district":{"key":"06535","name":"Vogelsbergkreis","type":"Landkreis"},"federalState":{"key":"06","name":"Hessen"}},{"name":"Neustädter Tor","postalCode":"36320","locality":"Kirtorf","municipality":{"key":"06535010","name":"Kirtorf, Stadt","type":"Stadt"},"district":{"key":"06535","name":"Vogelsbergkreis","type":"Landkreis"},"federalState":{"key":"06","name":"Hessen"}},{"name":"Neustädter Weg","postalCode":"36320","locality":"Kirtorf","municipality":{"key":"06535010","name":"Kirtorf, Stadt","type":"Stadt"},"district":{"key":"06535","name":"Vogelsbergkreis","type":"Landkreis"},"federalState":{"key":"06","name":"Hessen"}},{"name":"Obergasse","postalCode":"36320","locality":"Kirtorf","municipality":{"key":"06535010","name":"Kirtorf, Stadt","type":"Stadt"},"district":{"key":"06535","name":"Vogelsbergkreis","type":"Landkreis"},"federalState":{"key":"06","name":"Hessen"}},{"name":"Ober-Gleener Str.","postalCode":"36320","locality":"Kirtorf","municipality":{"key":"06535010","name":"Kirtorf, Stadt","type":"Stadt"},"district":{"key":"06535","name":"Vogelsbergkreis","type":"Landkreis"},"federalState":{"key":"06","name":"Hessen"}},{"name":"Oberster Hofacker","postalCode":"36320","locality":"Kirtorf","municipality":{"key":"06535010","name":"Kirtorf, Stadt","type":"Stadt"},"district":{"key":"06535","name":"Vogelsbergkreis","type":"Landkreis"},"federalState":{"key":"06","name":"Hessen"}},{"name":"Otterbornweg","postalCode":"36320","locality":"Kirtorf","municipality":{"key":"06535010","name":"Kirtorf, Stadt","type":"Stadt"},"district":{"key":"06535","name":"Vogelsbergkreis","type":"Landkreis"},"federalState":{"key":"06","name":"Hessen"}},{"name":"Pfarrweg","postalCode":"36320","locality":"Kirtorf","municipality":{"key":"06535010","name":"Kirtorf, Stadt","type":"Stadt"},"district":{"key":"06535","name":"Vogelsbergkreis","type":"Landkreis"},"federalState":{"key":"06","name":"Hessen"}},{"name":"Poststr.","postalCode":"36320","locality":"Kirtorf","municipality":{"key":"06535010","name":"Kirtorf, Stadt","type":"Stadt"},"district":{"key":"06535","name":"Vogelsbergkreis","type":"Landkreis"},"federalState":{"key":"06","name":"Hessen"}},{"name":"Rabenbornsweg","postalCode":"36320","locality":"Kirtorf","municipality":{"key":"06535010","name":"Kirtorf, Stadt","type":"Stadt"},"district":{"key":"06535","name":"Vogelsbergkreis","type":"Landkreis"},"federalState":{"key":"06","name":"Hessen"}},{"name":"Raiffeisenstr.","postalCode":"36320","locality":"Kirtorf","municipality":{"key":"06535010","name":"Kirtorf, Stadt","type":"Stadt"},"district":{"key":"06535","name":"Vogelsbergkreis","type":"Landkreis"},"federalState":{"key":"06","name":"Hessen"}},{"name":"Rotebergsweg","postalCode":"36320","locality":"Kirtorf","municipality":{"key":"06535010","name":"Kirtorf, Stadt","type":"Stadt"},"district":{"key":"06535","name":"Vogelsbergkreis","type":"Landkreis"},"federalState":{"key":"06","name":"Hessen"}},{"name":"Ruhlkircher Str.","postalCode":"36320","locality":"Kirtorf","municipality":{"key":"06535010","name":"Kirtorf, Stadt","type":"Stadt"},"district":{"key":"06535","name":"Vogelsbergkreis","type":"Landkreis"},"federalState":{"key":"06","name":"Hessen"}},{"name":"Sand","postalCode":"36320","locality":"Kirtorf","municipality":{"key":"06535010","name":"Kirtorf, Stadt","type":"Stadt"},"district":{"key":"06535","name":"Vogelsbergkreis","type":"Landkreis"},"federalState":{"key":"06","name":"Hessen"}},{"name":"Schulgasse","postalCode":"36320","locality":"Kirtorf","municipality":{"key":"06535010","name":"Kirtorf, Stadt","type":"Stadt"},"district":{"key":"06535","name":"Vogelsbergkreis","type":"Landkreis"},"federalState":{"key":"06","name":"Hessen"}},{"name":"Schulstr.","postalCode":"36320","locality":"Kirtorf","municipality":{"key":"06535010","name":"Kirtorf, Stadt","type":"Stadt"},"district":{"key":"06535","name":"Vogelsbergkreis","type":"Landkreis"},"federalState":{"key":"06","name":"Hessen"}},{"name":"Schulweg","postalCode":"36320","locality":"Kirtorf","municipality":{"key":"06535010","name":"Kirtorf, Stadt","type":"Stadt"},"district":{"key":"06535","name":"Vogelsbergkreis","type":"Landkreis"},"federalState":{"key":"06","name":"Hessen"}},{"name":"Talstr.","postalCode":"36320","locality":"Kirtorf","municipality":{"key":"06535010","name":"Kirtorf, Stadt","type":"Stadt"},"district":{"key":"06535","name":"Vogelsbergkreis","type":"Landkreis"},"federalState":{"key":"06","name":"Hessen"}},{"name":"Tiefenweg","postalCode":"36320","locality":"Kirtorf","municipality":{"key":"06535010","name":"Kirtorf, Stadt","type":"Stadt"},"district":{"key":"06535","name":"Vogelsbergkreis","type":"Landkreis"},"federalState":{"key":"06","name":"Hessen"}},{"name":"Unterer Heselweg","postalCode":"36320","locality":"Kirtorf","municipality":{"key":"06535010","name":"Kirtorf, Stadt","type":"Stadt"},"district":{"key":"06535","name":"Vogelsbergkreis","type":"Landkreis"},"federalState":{"key":"06","name":"Hessen"}},{"name":"Untergasse","postalCode":"36320","locality":"Kirtorf","municipality":{"key":"06535010","name":"Kirtorf, Stadt","type":"Stadt"},"district":{"key":"06535","name":"Vogelsbergkreis","type":"Landkreis"},"federalState":{"key":"06","name":"Hessen"}},{"name":"Wahlener Str.","postalCode":"36320","locality":"Kirtorf","municipality":{"key":"06535010","name":"Kirtorf, Stadt","type":"Stadt"},"district":{"key":"06535","name":"Vogelsbergkreis","type":"Landkreis"},"federalState":{"key":"06","name":"Hessen"}},{"name":"Wahler Weg","postalCode":"36320","locality":"Kirtorf","municipality":{"key":"06535010","name":"Kirtorf, Stadt","type":"Stadt"},"district":{"key":"06535","name":"Vogelsbergkreis","type":"Landkreis"},"federalState":{"key":"06","name":"Hessen"}},{"name":"Wiesenweg","postalCode":"36320","locality":"Kirtorf","municipality":{"key":"06535010","name":"Kirtorf, Stadt","type":"Stadt"},"district":{"key":"06535","name":"Vogelsbergkreis","type":"Landkreis"},"federalState":{"key":"06","name":"Hessen"}},{"name":"Zeller Grund","postalCode":"36320","locality":"Kirtorf","municipality":{"key":"06535010","name":"Kirtorf, Stadt","type":"Stadt"},"district":{"key":"06535","name":"Vogelsbergkreis","type":"Landkreis"},"federalState":{"key":"06","name":"Hessen"}},{"name":"Zeller Str.","postalCode":"36320","locality":"Kirtorf","municipality":{"key":"06535010","name":"Kirtorf, Stadt","type":"Stadt"},"district":{"key":"06535","name":"Vogelsbergkreis","type":"Landkreis"},"federalState":{"key":"06","name":"Hessen"}},{"name":"Zollhausstr.","postalCode":"36320","locality":"Kirtorf","municipality":{"key":"06535010","name":"Kirtorf, Stadt","type":"Stadt"},"district":{"key":"06535","name":"Vogelsbergkreis","type":"Landkreis"},"federalState":{"key":"06","name":"Hessen"}},{"name":"Zum Talblick","postalCode":"36320","locality":"Kirtorf","municipality":{"key":"06535010","name":"Kirtorf, Stadt","type":"Stadt"},"district":{"key":"06535","name":"Vogelsbergkreis","type":"Landkreis"},"federalState":{"key":"06","name":"Hessen"}},]