[{"key":"10012548","name":"Ahornweg","postalCode":"6232","locality":"Geuensee","commune":{"key":"1085","name":"Geuensee","shortName":"Geuensee"},"district":{"key":"314","name":"Wahlkreis Sursee"},"canton":{"key":"3","code":"LU","name":"Luzern"},"status":"Real"},{"key":"10114852","name":"Allmendhof","postalCode":"6232","locality":"Geuensee","commune":{"key":"1085","name":"Geuensee","shortName":"Geuensee"},"district":{"key":"314","name":"Wahlkreis Sursee"},"canton":{"key":"3","code":"LU","name":"Luzern"},"status":"Real"},{"key":"10012549","name":"Allmendweg","postalCode":"6232","locality":"Geuensee","commune":{"key":"1085","name":"Geuensee","shortName":"Geuensee"},"district":{"key":"314","name":"Wahlkreis Sursee"},"canton":{"key":"3","code":"LU","name":"Luzern"},"status":"Real"},{"key":"10177420","name":"Am Bach","postalCode":"6232","locality":"Geuensee","commune":{"key":"1085","name":"Geuensee","shortName":"Geuensee"},"district":{"key":"314","name":"Wahlkreis Sursee"},"canton":{"key":"3","code":"LU","name":"Luzern"},"status":"Real"},{"key":"10187277","name":"Bahnhofplatz","postalCode":"6232","locality":"Geuensee","commune":{"key":"1085","name":"Geuensee","shortName":"Geuensee"},"district":{"key":"314","name":"Wahlkreis Sursee"},"canton":{"key":"3","code":"LU","name":"Luzern"},"status":"Real"},{"key":"10012550","name":"Baumgarten","postalCode":"6232","locality":"Geuensee","commune":{"key":"1085","name":"Geuensee","shortName":"Geuensee"},"district":{"key":"314","name":"Wahlkreis Sursee"},"canton":{"key":"3","code":"LU","name":"Luzern"},"status":"Real"},{"key":"10084278","name":"Berg","postalCode":"6232","locality":"Geuensee","commune":{"key":"1085","name":"Geuensee","shortName":"Geuensee"},"district":{"key":"314","name":"Wahlkreis Sursee"},"canton":{"key":"3","code":"LU","name":"Luzern"},"status":"Real"},{"key":"10109930","name":"Birkenweg","postalCode":"6232","locality":"Geuensee","commune":{"key":"1085","name":"Geuensee","shortName":"Geuensee"},"district":{"key":"314","name":"Wahlkreis Sursee"},"canton":{"key":"3","code":"LU","name":"Luzern"},"status":"Real"},{"key":"10053435","name":"Bodenmatthof","postalCode":"6232","locality":"Geuensee","commune":{"key":"1085","name":"Geuensee","shortName":"Geuensee"},"district":{"key":"314","name":"Wahlkreis Sursee"},"canton":{"key":"3","code":"LU","name":"Luzern"},"status":"Real"},{"key":"10012551","name":"Bodenmattstrasse","postalCode":"6232","locality":"Geuensee","commune":{"key":"1085","name":"Geuensee","shortName":"Geuensee"},"district":{"key":"314","name":"Wahlkreis Sursee"},"canton":{"key":"3","code":"LU","name":"Luzern"},"status":"Real"},{"key":"10062949","name":"Bruggacher","postalCode":"6232","locality":"Geuensee","commune":{"key":"1085","name":"Geuensee","shortName":"Geuensee"},"district":{"key":"314","name":"Wahlkreis Sursee"},"canton":{"key":"3","code":"LU","name":"Luzern"},"status":"Real"},{"key":"10084279","name":"Büntenstrasse","postalCode":"6232","locality":"Geuensee","commune":{"key":"1085","name":"Geuensee","shortName":"Geuensee"},"district":{"key":"314","name":"Wahlkreis Sursee"},"canton":{"key":"3","code":"LU","name":"Luzern"},"status":"Real"},{"key":"10006010","name":"Büntenweg","postalCode":"6232","locality":"Geuensee","commune":{"key":"1085","name":"Geuensee","shortName":"Geuensee"},"district":{"key":"314","name":"Wahlkreis Sursee"},"canton":{"key":"3","code":"LU","name":"Luzern"},"status":"Real"},{"key":"10006011","name":"Chäppelimatt","postalCode":"6232","locality":"Geuensee","commune":{"key":"1085","name":"Geuensee","shortName":"Geuensee"},"district":{"key":"314","name":"Wahlkreis Sursee"},"canton":{"key":"3","code":"LU","name":"Luzern"},"status":"Real"},{"key":"10137986","name":"Chäppelimattweg","postalCode":"6232","locality":"Geuensee","commune":{"key":"1085","name":"Geuensee","shortName":"Geuensee"},"district":{"key":"314","name":"Wahlkreis Sursee"},"canton":{"key":"3","code":"LU","name":"Luzern"},"status":"Real"},{"key":"10101549","name":"Dorfbachweg","postalCode":"6232","locality":"Geuensee","commune":{"key":"1085","name":"Geuensee","shortName":"Geuensee"},"district":{"key":"314","name":"Wahlkreis Sursee"},"canton":{"key":"3","code":"LU","name":"Luzern"},"status":"Real"},{"key":"10165606","name":"Dörfli","postalCode":"6232","locality":"Geuensee","commune":{"key":"1085","name":"Geuensee","shortName":"Geuensee"},"district":{"key":"314","name":"Wahlkreis Sursee"},"canton":{"key":"3","code":"LU","name":"Luzern"},"status":"Real"},{"key":"10186658","name":"Dörnliacherstrasse","postalCode":"6232","locality":"Geuensee","commune":{"key":"1085","name":"Geuensee","shortName":"Geuensee"},"district":{"key":"314","name":"Wahlkreis Sursee"},"canton":{"key":"3","code":"LU","name":"Luzern"},"status":"Real"},{"key":"10203203","name":"Eggenrainstrasse","postalCode":"6232","locality":"Geuensee","commune":{"key":"1085","name":"Geuensee","shortName":"Geuensee"},"district":{"key":"314","name":"Wahlkreis Sursee"},"canton":{"key":"3","code":"LU","name":"Luzern"},"status":"Real"},{"key":"10006012","name":"Eggstrasse","postalCode":"6232","locality":"Geuensee","commune":{"key":"1085","name":"Geuensee","shortName":"Geuensee"},"district":{"key":"314","name":"Wahlkreis Sursee"},"canton":{"key":"3","code":"LU","name":"Luzern"},"status":"Real"},{"key":"10189379","name":"Eishofmatt","postalCode":"6232","locality":"Geuensee","commune":{"key":"1085","name":"Geuensee","shortName":"Geuensee"},"district":{"key":"314","name":"Wahlkreis Sursee"},"canton":{"key":"3","code":"LU","name":"Luzern"},"status":"Real"},{"key":"10129411","name":"Eishofrain","postalCode":"6232","locality":"Geuensee","commune":{"key":"1085","name":"Geuensee","shortName":"Geuensee"},"district":{"key":"314","name":"Wahlkreis Sursee"},"canton":{"key":"3","code":"LU","name":"Luzern"},"status":"Real"},{"key":"10097502","name":"Eschenhof","postalCode":"6232","locality":"Geuensee","commune":{"key":"1085","name":"Geuensee","shortName":"Geuensee"},"district":{"key":"314","name":"Wahlkreis Sursee"},"canton":{"key":"3","code":"LU","name":"Luzern"},"status":"Real"},{"key":"10117293","name":"Feldmatt","postalCode":"6232","locality":"Geuensee","commune":{"key":"1085","name":"Geuensee","shortName":"Geuensee"},"district":{"key":"314","name":"Wahlkreis Sursee"},"canton":{"key":"3","code":"LU","name":"Luzern"},"status":"Real"},{"key":"10144663","name":"Feldstrasse","postalCode":"6232","locality":"Geuensee","commune":{"key":"1085","name":"Geuensee","shortName":"Geuensee"},"district":{"key":"314","name":"Wahlkreis Sursee"},"canton":{"key":"3","code":"LU","name":"Luzern"},"status":"Real"},{"key":"10006013","name":"Flavioweg","postalCode":"6232","locality":"Geuensee","commune":{"key":"1085","name":"Geuensee","shortName":"Geuensee"},"district":{"key":"314","name":"Wahlkreis Sursee"},"canton":{"key":"3","code":"LU","name":"Luzern"},"status":"Real"},{"key":"10084280","name":"Gartenweg","postalCode":"6232","locality":"Geuensee","commune":{"key":"1085","name":"Geuensee","shortName":"Geuensee"},"district":{"key":"314","name":"Wahlkreis Sursee"},"canton":{"key":"3","code":"LU","name":"Luzern"},"status":"Real"},{"key":"10062951","name":"Grünaurain","postalCode":"6232","locality":"Geuensee","commune":{"key":"1085","name":"Geuensee","shortName":"Geuensee"},"district":{"key":"314","name":"Wahlkreis Sursee"},"canton":{"key":"3","code":"LU","name":"Luzern"},"status":"Real"},{"key":"10006014","name":"Grünaustrasse","postalCode":"6232","locality":"Geuensee","commune":{"key":"1085","name":"Geuensee","shortName":"Geuensee"},"district":{"key":"314","name":"Wahlkreis Sursee"},"canton":{"key":"3","code":"LU","name":"Luzern"},"status":"Real"},{"key":"10006015","name":"Grünauweg","postalCode":"6232","locality":"Geuensee","commune":{"key":"1085","name":"Geuensee","shortName":"Geuensee"},"district":{"key":"314","name":"Wahlkreis Sursee"},"canton":{"key":"3","code":"LU","name":"Luzern"},"status":"Real"},{"key":"10053436","name":"Haldenhof","postalCode":"6232","locality":"Geuensee","commune":{"key":"1085","name":"Geuensee","shortName":"Geuensee"},"district":{"key":"314","name":"Wahlkreis Sursee"},"canton":{"key":"3","code":"LU","name":"Luzern"},"status":"Real"},{"key":"10177422","name":"Haldenweg","postalCode":"6232","locality":"Geuensee","commune":{"key":"1085","name":"Geuensee","shortName":"Geuensee"},"district":{"key":"314","name":"Wahlkreis Sursee"},"canton":{"key":"3","code":"LU","name":"Luzern"},"status":"Real"},{"key":"10006018","name":"Händschemoos","postalCode":"6232","locality":"Geuensee","commune":{"key":"1085","name":"Geuensee","shortName":"Geuensee"},"district":{"key":"314","name":"Wahlkreis Sursee"},"canton":{"key":"3","code":"LU","name":"Luzern"},"status":"Real"},{"key":"10084281","name":"Heugärtenhalde","postalCode":"6232","locality":"Geuensee","commune":{"key":"1085","name":"Geuensee","shortName":"Geuensee"},"district":{"key":"314","name":"Wahlkreis Sursee"},"canton":{"key":"3","code":"LU","name":"Luzern"},"status":"Real"},{"key":"10006016","name":"Heugärtenrain","postalCode":"6232","locality":"Geuensee","commune":{"key":"1085","name":"Geuensee","shortName":"Geuensee"},"district":{"key":"314","name":"Wahlkreis Sursee"},"canton":{"key":"3","code":"LU","name":"Luzern"},"status":"Real"},{"key":"10109931","name":"Heugärtenstrasse","postalCode":"6232","locality":"Geuensee","commune":{"key":"1085","name":"Geuensee","shortName":"Geuensee"},"district":{"key":"314","name":"Wahlkreis Sursee"},"canton":{"key":"3","code":"LU","name":"Luzern"},"status":"Real"},{"key":"10062952","name":"Heugärtenweg","postalCode":"6232","locality":"Geuensee","commune":{"key":"1085","name":"Geuensee","shortName":"Geuensee"},"district":{"key":"314","name":"Wahlkreis Sursee"},"canton":{"key":"3","code":"LU","name":"Luzern"},"status":"Real"},{"key":"10084282","name":"Hinterdorfstrasse","postalCode":"6232","locality":"Geuensee","commune":{"key":"1085","name":"Geuensee","shortName":"Geuensee"},"district":{"key":"314","name":"Wahlkreis Sursee"},"canton":{"key":"3","code":"LU","name":"Luzern"},"status":"Real"},{"key":"10194057","name":"Hinterfeldstrasse","postalCode":"6232","locality":"Geuensee","commune":{"key":"1085","name":"Geuensee","shortName":"Geuensee"},"district":{"key":"314","name":"Wahlkreis Sursee"},"canton":{"key":"3","code":"LU","name":"Luzern"},"status":"Real"},{"key":"10203202","name":"Hintermoosstrasse","postalCode":"6232","locality":"Geuensee","commune":{"key":"1085","name":"Geuensee","shortName":"Geuensee"},"district":{"key":"314","name":"Wahlkreis Sursee"},"canton":{"key":"3","code":"LU","name":"Luzern"},"status":"Real"},{"key":"10155895","name":"Höchweidwald","postalCode":"6232","locality":"Geuensee","commune":{"key":"1085","name":"Geuensee","shortName":"Geuensee"},"district":{"key":"314","name":"Wahlkreis Sursee"},"canton":{"key":"3","code":"LU","name":"Luzern"},"status":"Real"},{"key":"10203200","name":"Hole","postalCode":"6232","locality":"Geuensee","commune":{"key":"1085","name":"Geuensee","shortName":"Geuensee"},"district":{"key":"314","name":"Wahlkreis Sursee"},"canton":{"key":"3","code":"LU","name":"Luzern"},"status":"Real"},{"key":"10133787","name":"Hottegibelhöhe","postalCode":"6232","locality":"Geuensee","commune":{"key":"1085","name":"Geuensee","shortName":"Geuensee"},"district":{"key":"314","name":"Wahlkreis Sursee"},"canton":{"key":"3","code":"LU","name":"Luzern"},"status":"Real"},{"key":"10134402","name":"Hottegibelstrasse","postalCode":"6232","locality":"Geuensee","commune":{"key":"1085","name":"Geuensee","shortName":"Geuensee"},"district":{"key":"314","name":"Wahlkreis Sursee"},"canton":{"key":"3","code":"LU","name":"Luzern"},"status":"Real"},{"key":"10203194","name":"Hunzikerstrasse","postalCode":"6232","locality":"Geuensee","commune":{"key":"1085","name":"Geuensee","shortName":"Geuensee"},"district":{"key":"314","name":"Wahlkreis Sursee"},"canton":{"key":"3","code":"LU","name":"Luzern"},"status":"Real"},{"key":"10006017","name":"Hunzikon","postalCode":"6232","locality":"Geuensee","commune":{"key":"1085","name":"Geuensee","shortName":"Geuensee"},"district":{"key":"314","name":"Wahlkreis Sursee"},"canton":{"key":"3","code":"LU","name":"Luzern"},"status":"Real"},{"key":"10212410","name":"Hunzikon-Diegistal-Strasse","postalCode":"6232","locality":"Geuensee","commune":{"key":"1085","name":"Geuensee","shortName":"Geuensee"},"district":{"key":"314","name":"Wahlkreis Sursee"},"canton":{"key":"3","code":"LU","name":"Luzern"},"status":"Real"},{"key":"10006019","name":"Kantonsstrasse","postalCode":"6232","locality":"Geuensee","commune":{"key":"1085","name":"Geuensee","shortName":"Geuensee"},"district":{"key":"314","name":"Wahlkreis Sursee"},"canton":{"key":"3","code":"LU","name":"Luzern"},"status":"Real"},{"key":"10062953","name":"Kehrhalde","postalCode":"6232","locality":"Geuensee","commune":{"key":"1085","name":"Geuensee","shortName":"Geuensee"},"district":{"key":"314","name":"Wahlkreis Sursee"},"canton":{"key":"3","code":"LU","name":"Luzern"},"status":"Real"},{"key":"10203195","name":"Kehrhaldestrasse","postalCode":"6232","locality":"Geuensee","commune":{"key":"1085","name":"Geuensee","shortName":"Geuensee"},"district":{"key":"314","name":"Wahlkreis Sursee"},"canton":{"key":"3","code":"LU","name":"Luzern"},"status":"Real"},{"key":"10084283","name":"Kirchenrain","postalCode":"6232","locality":"Geuensee","commune":{"key":"1085","name":"Geuensee","shortName":"Geuensee"},"district":{"key":"314","name":"Wahlkreis Sursee"},"canton":{"key":"3","code":"LU","name":"Luzern"},"status":"Real"},{"key":"10006020","name":"Kirchenstrasse","postalCode":"6232","locality":"Geuensee","commune":{"key":"1085","name":"Geuensee","shortName":"Geuensee"},"district":{"key":"314","name":"Wahlkreis Sursee"},"canton":{"key":"3","code":"LU","name":"Luzern"},"status":"Real"},{"key":"10189380","name":"Kirchenweg","postalCode":"6232","locality":"Geuensee","commune":{"key":"1085","name":"Geuensee","shortName":"Geuensee"},"district":{"key":"314","name":"Wahlkreis Sursee"},"canton":{"key":"3","code":"LU","name":"Luzern"},"status":"Real"},{"key":"10053717","name":"Kreienmatt","postalCode":"6232","locality":"Geuensee","commune":{"key":"1085","name":"Geuensee","shortName":"Geuensee"},"district":{"key":"314","name":"Wahlkreis Sursee"},"canton":{"key":"3","code":"LU","name":"Luzern"},"status":"Real"},{"key":"10177423","name":"Krumbach","postalCode":"6232","locality":"Geuensee","commune":{"key":"1085","name":"Geuensee","shortName":"Geuensee"},"district":{"key":"314","name":"Wahlkreis Sursee"},"canton":{"key":"3","code":"LU","name":"Luzern"},"status":"Real"},{"key":"10104391","name":"Krumbacherstrasse","postalCode":"6232","locality":"Geuensee","commune":{"key":"1085","name":"Geuensee","shortName":"Geuensee"},"district":{"key":"314","name":"Wahlkreis Sursee"},"canton":{"key":"3","code":"LU","name":"Luzern"},"status":"Real"},{"key":"10130911","name":"Letziweg","postalCode":"6232","locality":"Geuensee","commune":{"key":"1085","name":"Geuensee","shortName":"Geuensee"},"district":{"key":"314","name":"Wahlkreis Sursee"},"canton":{"key":"3","code":"LU","name":"Luzern"},"status":"Real"},{"key":"10211120","name":"Mitteldorf","postalCode":"6232","locality":"Geuensee","commune":{"key":"1085","name":"Geuensee","shortName":"Geuensee"},"district":{"key":"314","name":"Wahlkreis Sursee"},"canton":{"key":"3","code":"LU","name":"Luzern"},"status":"Real"},{"key":"10006021","name":"Mitteldorfstrasse","postalCode":"6232","locality":"Geuensee","commune":{"key":"1085","name":"Geuensee","shortName":"Geuensee"},"district":{"key":"314","name":"Wahlkreis Sursee"},"canton":{"key":"3","code":"LU","name":"Luzern"},"status":"Real"},{"key":"10006022","name":"Mooshüsli","postalCode":"6232","locality":"Geuensee","commune":{"key":"1085","name":"Geuensee","shortName":"Geuensee"},"district":{"key":"314","name":"Wahlkreis Sursee"},"canton":{"key":"3","code":"LU","name":"Luzern"},"status":"Real"},{"key":"10137988","name":"Mooshüslistrasse","postalCode":"6232","locality":"Geuensee","commune":{"key":"1085","name":"Geuensee","shortName":"Geuensee"},"district":{"key":"314","name":"Wahlkreis Sursee"},"canton":{"key":"3","code":"LU","name":"Luzern"},"status":"Real"},{"key":"10137989","name":"Moosstrasse","postalCode":"6232","locality":"Geuensee","commune":{"key":"1085","name":"Geuensee","shortName":"Geuensee"},"district":{"key":"314","name":"Wahlkreis Sursee"},"canton":{"key":"3","code":"LU","name":"Luzern"},"status":"Real"},{"key":"10084284","name":"Mühle","postalCode":"6232","locality":"Geuensee","commune":{"key":"1085","name":"Geuensee","shortName":"Geuensee"},"district":{"key":"314","name":"Wahlkreis Sursee"},"canton":{"key":"3","code":"LU","name":"Luzern"},"status":"Real"},{"key":"10006023","name":"Oberdorfstrasse","postalCode":"6232","locality":"Geuensee","commune":{"key":"1085","name":"Geuensee","shortName":"Geuensee"},"district":{"key":"314","name":"Wahlkreis Sursee"},"canton":{"key":"3","code":"LU","name":"Luzern"},"status":"Real"},{"key":"10160998","name":"Obere Chäppelimatt","postalCode":"6232","locality":"Geuensee","commune":{"key":"1085","name":"Geuensee","shortName":"Geuensee"},"district":{"key":"314","name":"Wahlkreis Sursee"},"canton":{"key":"3","code":"LU","name":"Luzern"},"status":"Real"},{"key":"10062954","name":"Pilatusblick","postalCode":"6232","locality":"Geuensee","commune":{"key":"1085","name":"Geuensee","shortName":"Geuensee"},"district":{"key":"314","name":"Wahlkreis Sursee"},"canton":{"key":"3","code":"LU","name":"Luzern"},"status":"Real"},{"key":"10006024","name":"Postmatte","postalCode":"6232","locality":"Geuensee","commune":{"key":"1085","name":"Geuensee","shortName":"Geuensee"},"district":{"key":"314","name":"Wahlkreis Sursee"},"canton":{"key":"3","code":"LU","name":"Luzern"},"status":"Real"},{"key":"10187469","name":"Reginapark","postalCode":"6232","locality":"Geuensee","commune":{"key":"1085","name":"Geuensee","shortName":"Geuensee"},"district":{"key":"314","name":"Wahlkreis Sursee"},"canton":{"key":"3","code":"LU","name":"Luzern"},"status":"Real"},{"key":"10162498","name":"Riedmatte","postalCode":"6232","locality":"Geuensee","commune":{"key":"1085","name":"Geuensee","shortName":"Geuensee"},"district":{"key":"314","name":"Wahlkreis Sursee"},"canton":{"key":"3","code":"LU","name":"Luzern"},"status":"Real"},{"key":"10084285","name":"Risistrasse","postalCode":"6232","locality":"Geuensee","commune":{"key":"1085","name":"Geuensee","shortName":"Geuensee"},"district":{"key":"314","name":"Wahlkreis Sursee"},"canton":{"key":"3","code":"LU","name":"Luzern"},"status":"Real"},{"key":"10062955","name":"Rosenweg","postalCode":"6232","locality":"Geuensee","commune":{"key":"1085","name":"Geuensee","shortName":"Geuensee"},"district":{"key":"314","name":"Wahlkreis Sursee"},"canton":{"key":"3","code":"LU","name":"Luzern"},"status":"Real"},{"key":"10203196","name":"Rütistrasse","postalCode":"6232","locality":"Geuensee","commune":{"key":"1085","name":"Geuensee","shortName":"Geuensee"},"district":{"key":"314","name":"Wahlkreis Sursee"},"canton":{"key":"3","code":"LU","name":"Luzern"},"status":"Real"},{"key":"10153895","name":"Schäracher","postalCode":"6232","locality":"Geuensee","commune":{"key":"1085","name":"Geuensee","shortName":"Geuensee"},"district":{"key":"314","name":"Wahlkreis Sursee"},"canton":{"key":"3","code":"LU","name":"Luzern"},"status":"Real"},{"key":"10192486","name":"Schäracherweg","postalCode":"6232","locality":"Geuensee","commune":{"key":"1085","name":"Geuensee","shortName":"Geuensee"},"district":{"key":"314","name":"Wahlkreis Sursee"},"canton":{"key":"3","code":"LU","name":"Luzern"},"status":"Real"},{"key":"10187165","name":"Schaubernstrasse","postalCode":"6232","locality":"Geuensee","commune":{"key":"1085","name":"Geuensee","shortName":"Geuensee"},"district":{"key":"314","name":"Wahlkreis Sursee"},"canton":{"key":"3","code":"LU","name":"Luzern"},"status":"Real"},{"key":"10006025","name":"Schulhausstrasse","postalCode":"6232","locality":"Geuensee","commune":{"key":"1085","name":"Geuensee","shortName":"Geuensee"},"district":{"key":"314","name":"Wahlkreis Sursee"},"canton":{"key":"3","code":"LU","name":"Luzern"},"status":"Real"},{"key":"10178500","name":"Sonnenhof","postalCode":"6232","locality":"Geuensee","commune":{"key":"1085","name":"Geuensee","shortName":"Geuensee"},"district":{"key":"314","name":"Wahlkreis Sursee"},"canton":{"key":"3","code":"LU","name":"Luzern"},"status":"Real"},{"key":"10113328","name":"Sonnhalde","postalCode":"6232","locality":"Geuensee","commune":{"key":"1085","name":"Geuensee","shortName":"Geuensee"},"district":{"key":"314","name":"Wahlkreis Sursee"},"canton":{"key":"3","code":"LU","name":"Luzern"},"status":"Real"},{"key":"10258537","name":"Sonnrain","postalCode":"6232","locality":"Geuensee","commune":{"key":"1085","name":"Geuensee","shortName":"Geuensee"},"district":{"key":"314","name":"Wahlkreis Sursee"},"canton":{"key":"3","code":"LU","name":"Luzern"},"status":"Planned"},{"key":"10159416","name":"Stationsweg","postalCode":"6232","locality":"Geuensee","commune":{"key":"1085","name":"Geuensee","shortName":"Geuensee"},"district":{"key":"314","name":"Wahlkreis Sursee"},"canton":{"key":"3","code":"LU","name":"Luzern"},"status":"Real"},{"key":"10150571","name":"Steinacherrain","postalCode":"6232","locality":"Geuensee","commune":{"key":"1085","name":"Geuensee","shortName":"Geuensee"},"district":{"key":"314","name":"Wahlkreis Sursee"},"canton":{"key":"3","code":"LU","name":"Luzern"},"status":"Real"},{"key":"10120209","name":"Steinacherstrasse","postalCode":"6232","locality":"Geuensee","commune":{"key":"1085","name":"Geuensee","shortName":"Geuensee"},"district":{"key":"314","name":"Wahlkreis Sursee"},"canton":{"key":"3","code":"LU","name":"Luzern"},"status":"Real"},{"key":"10203197","name":"Stockacherstrasse","postalCode":"6232","locality":"Geuensee","commune":{"key":"1085","name":"Geuensee","shortName":"Geuensee"},"district":{"key":"314","name":"Wahlkreis Sursee"},"canton":{"key":"3","code":"LU","name":"Luzern"},"status":"Real"},{"key":"10187278","name":"Strassacker","postalCode":"6232","locality":"Geuensee","commune":{"key":"1085","name":"Geuensee","shortName":"Geuensee"},"district":{"key":"314","name":"Wahlkreis Sursee"},"canton":{"key":"3","code":"LU","name":"Luzern"},"status":"Real"},{"key":"10203198","name":"Surenweg","postalCode":"6232","locality":"Geuensee","commune":{"key":"1085","name":"Geuensee","shortName":"Geuensee"},"district":{"key":"314","name":"Wahlkreis Sursee"},"canton":{"key":"3","code":"LU","name":"Luzern"},"status":"Real"},{"key":"10006026","name":"Unterdorfstrasse","postalCode":"6232","locality":"Geuensee","commune":{"key":"1085","name":"Geuensee","shortName":"Geuensee"},"district":{"key":"314","name":"Wahlkreis Sursee"},"canton":{"key":"3","code":"LU","name":"Luzern"},"status":"Real"},{"key":"10053718","name":"Unterhunzikon","postalCode":"6232","locality":"Geuensee","commune":{"key":"1085","name":"Geuensee","shortName":"Geuensee"},"district":{"key":"314","name":"Wahlkreis Sursee"},"canton":{"key":"3","code":"LU","name":"Luzern"},"status":"Real"},{"key":"10203199","name":"Wäldlistrasse","postalCode":"6232","locality":"Geuensee","commune":{"key":"1085","name":"Geuensee","shortName":"Geuensee"},"district":{"key":"314","name":"Wahlkreis Sursee"},"canton":{"key":"3","code":"LU","name":"Luzern"},"status":"Real"},{"key":"10006028","name":"Weiherhof","postalCode":"6232","locality":"Geuensee","commune":{"key":"1085","name":"Geuensee","shortName":"Geuensee"},"district":{"key":"314","name":"Wahlkreis Sursee"},"canton":{"key":"3","code":"LU","name":"Luzern"},"status":"Real"},{"key":"10152358","name":"Welschenbreit","postalCode":"6232","locality":"Geuensee","commune":{"key":"1085","name":"Geuensee","shortName":"Geuensee"},"district":{"key":"314","name":"Wahlkreis Sursee"},"canton":{"key":"3","code":"LU","name":"Luzern"},"status":"Real"},{"key":"10097503","name":"Wiesengrund","postalCode":"6232","locality":"Geuensee","commune":{"key":"1085","name":"Geuensee","shortName":"Geuensee"},"district":{"key":"314","name":"Wahlkreis Sursee"},"canton":{"key":"3","code":"LU","name":"Luzern"},"status":"Real"},{"key":"10084286","name":"Wybärgli","postalCode":"6232","locality":"Geuensee","commune":{"key":"1085","name":"Geuensee","shortName":"Geuensee"},"district":{"key":"314","name":"Wahlkreis Sursee"},"canton":{"key":"3","code":"LU","name":"Luzern"},"status":"Real"},{"key":"10052634","name":"Wybärgstrasse","postalCode":"6232","locality":"Geuensee","commune":{"key":"1085","name":"Geuensee","shortName":"Geuensee"},"district":{"key":"314","name":"Wahlkreis Sursee"},"canton":{"key":"3","code":"LU","name":"Luzern"},"status":"Real"},{"key":"10062956","name":"Wybärgweg","postalCode":"6232","locality":"Geuensee","commune":{"key":"1085","name":"Geuensee","shortName":"Geuensee"},"district":{"key":"314","name":"Wahlkreis Sursee"},"canton":{"key":"3","code":"LU","name":"Luzern"},"status":"Real"},{"key":"10155569","name":"Zeckenweg","postalCode":"6232","locality":"Geuensee","commune":{"key":"1085","name":"Geuensee","shortName":"Geuensee"},"district":{"key":"314","name":"Wahlkreis Sursee"},"canton":{"key":"3","code":"LU","name":"Luzern"},"status":"Real"},{"key":"10203204","name":"Zollbachstrasse","postalCode":"6232","locality":"Geuensee","commune":{"key":"1085","name":"Geuensee","shortName":"Geuensee"},"district":{"key":"314","name":"Wahlkreis Sursee"},"canton":{"key":"3","code":"LU","name":"Luzern"},"status":"Real"},{"key":"10203201","name":"Zopfenbergstrasse","postalCode":"6232","locality":"Geuensee","commune":{"key":"1085","name":"Geuensee","shortName":"Geuensee"},"district":{"key":"314","name":"Wahlkreis Sursee"},"canton":{"key":"3","code":"LU","name":"Luzern"},"status":"Real"},]