[{"name":"Alte Str.","postalCode":"01904","locality":"Neukirch/Lausitz","municipality":{"key":"14625380","name":"Neukirch/Lausitz","type":"Kreisangehörige_Gemeinde"},"district":{"key":"14625","name":"Bautzen","type":"Landkreis"},"federalState":{"key":"14","name":"Sachsen"}},{"name":"Am Ostbahnhof","postalCode":"01904","locality":"Neukirch/Lausitz","municipality":{"key":"14625380","name":"Neukirch/Lausitz","type":"Kreisangehörige_Gemeinde"},"district":{"key":"14625","name":"Bautzen","type":"Landkreis"},"federalState":{"key":"14","name":"Sachsen"}},{"name":"Am Schossigstift","postalCode":"01904","locality":"Neukirch/Lausitz","municipality":{"key":"14625380","name":"Neukirch/Lausitz","type":"Kreisangehörige_Gemeinde"},"district":{"key":"14625","name":"Bautzen","type":"Landkreis"},"federalState":{"key":"14","name":"Sachsen"}},{"name":"An der Feuerwache","postalCode":"01904","locality":"Neukirch/Lausitz","municipality":{"key":"14625380","name":"Neukirch/Lausitz","type":"Kreisangehörige_Gemeinde"},"district":{"key":"14625","name":"Bautzen","type":"Landkreis"},"federalState":{"key":"14","name":"Sachsen"}},{"name":"An der Wehrbrücke","postalCode":"01904","locality":"Neukirch/Lausitz","municipality":{"key":"14625380","name":"Neukirch/Lausitz","type":"Kreisangehörige_Gemeinde"},"district":{"key":"14625","name":"Bautzen","type":"Landkreis"},"federalState":{"key":"14","name":"Sachsen"}},{"name":"August-Bebel-Str.","postalCode":"01904","locality":"Neukirch/Lausitz","municipality":{"key":"14625380","name":"Neukirch/Lausitz","type":"Kreisangehörige_Gemeinde"},"district":{"key":"14625","name":"Bautzen","type":"Landkreis"},"federalState":{"key":"14","name":"Sachsen"}},{"name":"Bahnhofstr.","postalCode":"01904","locality":"Neukirch/Lausitz","municipality":{"key":"14625380","name":"Neukirch/Lausitz","type":"Kreisangehörige_Gemeinde"},"district":{"key":"14625","name":"Bautzen","type":"Landkreis"},"federalState":{"key":"14","name":"Sachsen"}},{"name":"Baumschulenweg","postalCode":"01904","locality":"Neukirch/Lausitz","municipality":{"key":"14625380","name":"Neukirch/Lausitz","type":"Kreisangehörige_Gemeinde"},"district":{"key":"14625","name":"Bautzen","type":"Landkreis"},"federalState":{"key":"14","name":"Sachsen"}},{"name":"Bautzener Str.","postalCode":"01904","locality":"Neukirch/Lausitz","municipality":{"key":"14625380","name":"Neukirch/Lausitz","type":"Kreisangehörige_Gemeinde"},"district":{"key":"14625","name":"Bautzen","type":"Landkreis"},"federalState":{"key":"14","name":"Sachsen"}},{"name":"Bergstieg","postalCode":"01904","locality":"Neukirch/Lausitz","municipality":{"key":"14625380","name":"Neukirch/Lausitz","type":"Kreisangehörige_Gemeinde"},"district":{"key":"14625","name":"Bautzen","type":"Landkreis"},"federalState":{"key":"14","name":"Sachsen"}},{"name":"Bergstr.","postalCode":"01904","locality":"Neukirch/Lausitz","municipality":{"key":"14625380","name":"Neukirch/Lausitz","type":"Kreisangehörige_Gemeinde"},"district":{"key":"14625","name":"Bautzen","type":"Landkreis"},"federalState":{"key":"14","name":"Sachsen"}},{"name":"Bönnigheimer Ring","postalCode":"01904","locality":"Neukirch/Lausitz","municipality":{"key":"14625380","name":"Neukirch/Lausitz","type":"Kreisangehörige_Gemeinde"},"district":{"key":"14625","name":"Bautzen","type":"Landkreis"},"federalState":{"key":"14","name":"Sachsen"}},{"name":"Bruno-Stiebitz-Str.","postalCode":"01904","locality":"Neukirch/Lausitz","municipality":{"key":"14625380","name":"Neukirch/Lausitz","type":"Kreisangehörige_Gemeinde"},"district":{"key":"14625","name":"Bautzen","type":"Landkreis"},"federalState":{"key":"14","name":"Sachsen"}},{"name":"Buchenweg","postalCode":"01904","locality":"Neukirch/Lausitz","municipality":{"key":"14625380","name":"Neukirch/Lausitz","type":"Kreisangehörige_Gemeinde"},"district":{"key":"14625","name":"Bautzen","type":"Landkreis"},"federalState":{"key":"14","name":"Sachsen"}},{"name":"Butterberg","postalCode":"01904","locality":"Neukirch/Lausitz","municipality":{"key":"14625380","name":"Neukirch/Lausitz","type":"Kreisangehörige_Gemeinde"},"district":{"key":"14625","name":"Bautzen","type":"Landkreis"},"federalState":{"key":"14","name":"Sachsen"}},{"name":"Clara-Zetkin-Str.","postalCode":"02625","locality":"Bautzen","municipality":{"key":"14625020","name":"Bautzen / Budyšin, Stadt","type":"Stadt"},"district":{"key":"14625","name":"Bautzen","type":"Landkreis"},"federalState":{"key":"14","name":"Sachsen"}},{"name":"Czornebohstr.","postalCode":"02625","locality":"Bautzen","municipality":{"key":"14625020","name":"Bautzen / Budyšin, Stadt","type":"Stadt"},"district":{"key":"14625","name":"Bautzen","type":"Landkreis"},"federalState":{"key":"14","name":"Sachsen"}},{"name":"Dammweg","postalCode":"01904","locality":"Neukirch/Lausitz","municipality":{"key":"14625380","name":"Neukirch/Lausitz","type":"Kreisangehörige_Gemeinde"},"district":{"key":"14625","name":"Bautzen","type":"Landkreis"},"federalState":{"key":"14","name":"Sachsen"}},{"name":"Diebsteig","postalCode":"01904","locality":"Neukirch/Lausitz","municipality":{"key":"14625380","name":"Neukirch/Lausitz","type":"Kreisangehörige_Gemeinde"},"district":{"key":"14625","name":"Bautzen","type":"Landkreis"},"federalState":{"key":"14","name":"Sachsen"}},{"name":"Dorfweg","postalCode":"01904","locality":"Neukirch/Lausitz","municipality":{"key":"14625380","name":"Neukirch/Lausitz","type":"Kreisangehörige_Gemeinde"},"district":{"key":"14625","name":"Bautzen","type":"Landkreis"},"federalState":{"key":"14","name":"Sachsen"}},{"name":"Dresdener Str.","postalCode":"01904","locality":"Neukirch/Lausitz","municipality":{"key":"14625380","name":"Neukirch/Lausitz","type":"Kreisangehörige_Gemeinde"},"district":{"key":"14625","name":"Bautzen","type":"Landkreis"},"federalState":{"key":"14","name":"Sachsen"}},{"name":"Erbgerichtstr.","postalCode":"01904","locality":"Neukirch/Lausitz","municipality":{"key":"14625380","name":"Neukirch/Lausitz","type":"Kreisangehörige_Gemeinde"},"district":{"key":"14625","name":"Bautzen","type":"Landkreis"},"federalState":{"key":"14","name":"Sachsen"}},{"name":"Ernst-Thälmann-Str.","postalCode":"01904","locality":"Neukirch/Lausitz","municipality":{"key":"14625380","name":"Neukirch/Lausitz","type":"Kreisangehörige_Gemeinde"},"district":{"key":"14625","name":"Bautzen","type":"Landkreis"},"federalState":{"key":"14","name":"Sachsen"}},{"name":"Fabrikstr.","postalCode":"01904","locality":"Neukirch/Lausitz","municipality":{"key":"14625380","name":"Neukirch/Lausitz","type":"Kreisangehörige_Gemeinde"},"district":{"key":"14625","name":"Bautzen","type":"Landkreis"},"federalState":{"key":"14","name":"Sachsen"}},{"name":"Feldweg","postalCode":"01904","locality":"Neukirch/Lausitz","municipality":{"key":"14625380","name":"Neukirch/Lausitz","type":"Kreisangehörige_Gemeinde"},"district":{"key":"14625","name":"Bautzen","type":"Landkreis"},"federalState":{"key":"14","name":"Sachsen"}},{"name":"Forstweg","postalCode":"01904","locality":"Neukirch/Lausitz","municipality":{"key":"14625380","name":"Neukirch/Lausitz","type":"Kreisangehörige_Gemeinde"},"district":{"key":"14625","name":"Bautzen","type":"Landkreis"},"federalState":{"key":"14","name":"Sachsen"}},{"name":"Freihufenweg","postalCode":"01904","locality":"Neukirch/Lausitz","municipality":{"key":"14625380","name":"Neukirch/Lausitz","type":"Kreisangehörige_Gemeinde"},"district":{"key":"14625","name":"Bautzen","type":"Landkreis"},"federalState":{"key":"14","name":"Sachsen"}},{"name":"Gaußiger Weg","postalCode":"01904","locality":"Neukirch/Lausitz","municipality":{"key":"14625380","name":"Neukirch/Lausitz","type":"Kreisangehörige_Gemeinde"},"district":{"key":"14625","name":"Bautzen","type":"Landkreis"},"federalState":{"key":"14","name":"Sachsen"}},{"name":"Georgenbadstr.","postalCode":"01904","locality":"Neukirch/Lausitz","municipality":{"key":"14625380","name":"Neukirch/Lausitz","type":"Kreisangehörige_Gemeinde"},"district":{"key":"14625","name":"Bautzen","type":"Landkreis"},"federalState":{"key":"14","name":"Sachsen"}},{"name":"Gickelsberg","postalCode":"01904","locality":"Neukirch/Lausitz","municipality":{"key":"14625380","name":"Neukirch/Lausitz","type":"Kreisangehörige_Gemeinde"},"district":{"key":"14625","name":"Bautzen","type":"Landkreis"},"federalState":{"key":"14","name":"Sachsen"}},{"name":"Gießhübelweg","postalCode":"01904","locality":"Neukirch/Lausitz","municipality":{"key":"14625380","name":"Neukirch/Lausitz","type":"Kreisangehörige_Gemeinde"},"district":{"key":"14625","name":"Bautzen","type":"Landkreis"},"federalState":{"key":"14","name":"Sachsen"}},{"name":"Grünweg","postalCode":"01904","locality":"Neukirch/Lausitz","municipality":{"key":"14625380","name":"Neukirch/Lausitz","type":"Kreisangehörige_Gemeinde"},"district":{"key":"14625","name":"Bautzen","type":"Landkreis"},"federalState":{"key":"14","name":"Sachsen"}},{"name":"Harthstr.","postalCode":"01904","locality":"Neukirch/Lausitz","municipality":{"key":"14625380","name":"Neukirch/Lausitz","type":"Kreisangehörige_Gemeinde"},"district":{"key":"14625","name":"Bautzen","type":"Landkreis"},"federalState":{"key":"14","name":"Sachsen"}},{"name":"Hauptstr.","postalCode":"01904","locality":"Neukirch/Lausitz","municipality":{"key":"14625380","name":"Neukirch/Lausitz","type":"Kreisangehörige_Gemeinde"},"district":{"key":"14625","name":"Bautzen","type":"Landkreis"},"federalState":{"key":"14","name":"Sachsen"}},{"name":"Hohe Str.","postalCode":"01904","locality":"Neukirch/Lausitz","municipality":{"key":"14625380","name":"Neukirch/Lausitz","type":"Kreisangehörige_Gemeinde"},"district":{"key":"14625","name":"Bautzen","type":"Landkreis"},"federalState":{"key":"14","name":"Sachsen"}},{"name":"Innere Lauenstr.","postalCode":"02625","locality":"Bautzen","municipality":{"key":"14625020","name":"Bautzen / Budyšin, Stadt","type":"Stadt"},"district":{"key":"14625","name":"Bautzen","type":"Landkreis"},"federalState":{"key":"14","name":"Sachsen"}},{"name":"Jagdweg","postalCode":"02625","locality":"Bautzen","municipality":{"key":"14625020","name":"Bautzen / Budyšin, Stadt","type":"Stadt"},"district":{"key":"14625","name":"Bautzen","type":"Landkreis"},"federalState":{"key":"14","name":"Sachsen"}},{"name":"Jägerstr.","postalCode":"02625","locality":"Bautzen","municipality":{"key":"14625020","name":"Bautzen / Budyšin, Stadt","type":"Stadt"},"district":{"key":"14625","name":"Bautzen","type":"Landkreis"},"federalState":{"key":"14","name":"Sachsen"}},{"name":"Jahnstr.","postalCode":"02625","locality":"Bautzen","municipality":{"key":"14625020","name":"Bautzen / Budyšin, Stadt","type":"Stadt"},"district":{"key":"14625","name":"Bautzen","type":"Landkreis"},"federalState":{"key":"14","name":"Sachsen"}},{"name":"Jan-Skala-Str.","postalCode":"02625","locality":"Bautzen","municipality":{"key":"14625020","name":"Bautzen / Budyšin, Stadt","type":"Stadt"},"district":{"key":"14625","name":"Bautzen","type":"Landkreis"},"federalState":{"key":"14","name":"Sachsen"}},{"name":"Johannes-Kepler-Str.","postalCode":"02625","locality":"Bautzen","municipality":{"key":"14625020","name":"Bautzen / Budyšin, Stadt","type":"Stadt"},"district":{"key":"14625","name":"Bautzen","type":"Landkreis"},"federalState":{"key":"14","name":"Sachsen"}},{"name":"Johannes-R.-Becher-Str.","postalCode":"02625","locality":"Bautzen","municipality":{"key":"14625020","name":"Bautzen / Budyšin, Stadt","type":"Stadt"},"district":{"key":"14625","name":"Bautzen","type":"Landkreis"},"federalState":{"key":"14","name":"Sachsen"}},{"name":"Johann-Sebastian-Bach-Str.","postalCode":"02625","locality":"Bautzen","municipality":{"key":"14625020","name":"Bautzen / Budyšin, Stadt","type":"Stadt"},"district":{"key":"14625","name":"Bautzen","type":"Landkreis"},"federalState":{"key":"14","name":"Sachsen"}},{"name":"Jordantalbrücke","postalCode":"02625","locality":"Bautzen","municipality":{"key":"14625020","name":"Bautzen / Budyšin, Stadt","type":"Stadt"},"district":{"key":"14625","name":"Bautzen","type":"Landkreis"},"federalState":{"key":"14","name":"Sachsen"}},{"name":"Juri-Gagarin-Str.","postalCode":"02625","locality":"Bautzen","municipality":{"key":"14625020","name":"Bautzen / Budyšin, Stadt","type":"Stadt"},"district":{"key":"14625","name":"Bautzen","type":"Landkreis"},"federalState":{"key":"14","name":"Sachsen"}},{"name":"Karl-Berger-Str.","postalCode":"01904","locality":"Neukirch/Lausitz","municipality":{"key":"14625380","name":"Neukirch/Lausitz","type":"Kreisangehörige_Gemeinde"},"district":{"key":"14625","name":"Bautzen","type":"Landkreis"},"federalState":{"key":"14","name":"Sachsen"}},{"name":"Karl-Marx-Str.","postalCode":"01904","locality":"Neukirch/Lausitz","municipality":{"key":"14625380","name":"Neukirch/Lausitz","type":"Kreisangehörige_Gemeinde"},"district":{"key":"14625","name":"Bautzen","type":"Landkreis"},"federalState":{"key":"14","name":"Sachsen"}},{"name":"Karl-Weikert-Str.","postalCode":"01904","locality":"Neukirch/Lausitz","municipality":{"key":"14625380","name":"Neukirch/Lausitz","type":"Kreisangehörige_Gemeinde"},"district":{"key":"14625","name":"Bautzen","type":"Landkreis"},"federalState":{"key":"14","name":"Sachsen"}},{"name":"Kirschallee","postalCode":"01904","locality":"Neukirch/Lausitz","municipality":{"key":"14625380","name":"Neukirch/Lausitz","type":"Kreisangehörige_Gemeinde"},"district":{"key":"14625","name":"Bautzen","type":"Landkreis"},"federalState":{"key":"14","name":"Sachsen"}},{"name":"Leibingerstr.","postalCode":"01904","locality":"Neukirch/Lausitz","municipality":{"key":"14625380","name":"Neukirch/Lausitz","type":"Kreisangehörige_Gemeinde"},"district":{"key":"14625","name":"Bautzen","type":"Landkreis"},"federalState":{"key":"14","name":"Sachsen"}},{"name":"Lessingstr.","postalCode":"01904","locality":"Neukirch/Lausitz","municipality":{"key":"14625380","name":"Neukirch/Lausitz","type":"Kreisangehörige_Gemeinde"},"district":{"key":"14625","name":"Bautzen","type":"Landkreis"},"federalState":{"key":"14","name":"Sachsen"}},{"name":"Lindenallee","postalCode":"01904","locality":"Neukirch/Lausitz","municipality":{"key":"14625380","name":"Neukirch/Lausitz","type":"Kreisangehörige_Gemeinde"},"district":{"key":"14625","name":"Bautzen","type":"Landkreis"},"federalState":{"key":"14","name":"Sachsen"}},{"name":"Lindensiedlung","postalCode":"01904","locality":"Neukirch/Lausitz","municipality":{"key":"14625380","name":"Neukirch/Lausitz","type":"Kreisangehörige_Gemeinde"},"district":{"key":"14625","name":"Bautzen","type":"Landkreis"},"federalState":{"key":"14","name":"Sachsen"}},{"name":"Lindenweg","postalCode":"01904","locality":"Neukirch/Lausitz","municipality":{"key":"14625380","name":"Neukirch/Lausitz","type":"Kreisangehörige_Gemeinde"},"district":{"key":"14625","name":"Bautzen","type":"Landkreis"},"federalState":{"key":"14","name":"Sachsen"}},{"name":"Loipe um den Valtenberg","postalCode":"01904","locality":"Neukirch/Lausitz","municipality":{"key":"14625380","name":"Neukirch/Lausitz","type":"Kreisangehörige_Gemeinde"},"district":{"key":"14625","name":"Bautzen","type":"Landkreis"},"federalState":{"key":"14","name":"Sachsen"}},{"name":"Mittelstr.","postalCode":"01904","locality":"Neukirch/Lausitz","municipality":{"key":"14625380","name":"Neukirch/Lausitz","type":"Kreisangehörige_Gemeinde"},"district":{"key":"14625","name":"Bautzen","type":"Landkreis"},"federalState":{"key":"14","name":"Sachsen"}},{"name":"Moritzweg","postalCode":"01904","locality":"Neukirch/Lausitz","municipality":{"key":"14625380","name":"Neukirch/Lausitz","type":"Kreisangehörige_Gemeinde"},"district":{"key":"14625","name":"Bautzen","type":"Landkreis"},"federalState":{"key":"14","name":"Sachsen"}},{"name":"Moserweg","postalCode":"01904","locality":"Neukirch/Lausitz","municipality":{"key":"14625380","name":"Neukirch/Lausitz","type":"Kreisangehörige_Gemeinde"},"district":{"key":"14625","name":"Bautzen","type":"Landkreis"},"federalState":{"key":"14","name":"Sachsen"}},{"name":"Mühlgutstr.","postalCode":"01904","locality":"Neukirch/Lausitz","municipality":{"key":"14625380","name":"Neukirch/Lausitz","type":"Kreisangehörige_Gemeinde"},"district":{"key":"14625","name":"Bautzen","type":"Landkreis"},"federalState":{"key":"14","name":"Sachsen"}},{"name":"Naundorfer Str.","postalCode":"01904","locality":"Neukirch/Lausitz","municipality":{"key":"14625380","name":"Neukirch/Lausitz","type":"Kreisangehörige_Gemeinde"},"district":{"key":"14625","name":"Bautzen","type":"Landkreis"},"federalState":{"key":"14","name":"Sachsen"}},{"name":"Nördlicher Kammweg","postalCode":"01904","locality":"Neukirch/Lausitz","municipality":{"key":"14625380","name":"Neukirch/Lausitz","type":"Kreisangehörige_Gemeinde"},"district":{"key":"14625","name":"Bautzen","type":"Landkreis"},"federalState":{"key":"14","name":"Sachsen"}},{"name":"Oberer Horizontalweg","postalCode":"01904","locality":"Neukirch/Lausitz","municipality":{"key":"14625380","name":"Neukirch/Lausitz","type":"Kreisangehörige_Gemeinde"},"district":{"key":"14625","name":"Bautzen","type":"Landkreis"},"federalState":{"key":"14","name":"Sachsen"}},{"name":"Oststr.","postalCode":"01904","locality":"Neukirch/Lausitz","municipality":{"key":"14625380","name":"Neukirch/Lausitz","type":"Kreisangehörige_Gemeinde"},"district":{"key":"14625","name":"Bautzen","type":"Landkreis"},"federalState":{"key":"14","name":"Sachsen"}},{"name":"Otto-Buchwitz-Ring","postalCode":"01904","locality":"Neukirch/Lausitz","municipality":{"key":"14625380","name":"Neukirch/Lausitz","type":"Kreisangehörige_Gemeinde"},"district":{"key":"14625","name":"Bautzen","type":"Landkreis"},"federalState":{"key":"14","name":"Sachsen"}},{"name":"Parkstr.","postalCode":"01904","locality":"Neukirch/Lausitz","municipality":{"key":"14625380","name":"Neukirch/Lausitz","type":"Kreisangehörige_Gemeinde"},"district":{"key":"14625","name":"Bautzen","type":"Landkreis"},"federalState":{"key":"14","name":"Sachsen"}},{"name":"Peterstr.","postalCode":"01904","locality":"Neukirch/Lausitz","municipality":{"key":"14625380","name":"Neukirch/Lausitz","type":"Kreisangehörige_Gemeinde"},"district":{"key":"14625","name":"Bautzen","type":"Landkreis"},"federalState":{"key":"14","name":"Sachsen"}},{"name":"Pfarrgasse","postalCode":"01904","locality":"Neukirch/Lausitz","municipality":{"key":"14625380","name":"Neukirch/Lausitz","type":"Kreisangehörige_Gemeinde"},"district":{"key":"14625","name":"Bautzen","type":"Landkreis"},"federalState":{"key":"14","name":"Sachsen"}},{"name":"Poststr.","postalCode":"01904","locality":"Neukirch/Lausitz","municipality":{"key":"14625380","name":"Neukirch/Lausitz","type":"Kreisangehörige_Gemeinde"},"district":{"key":"14625","name":"Bautzen","type":"Landkreis"},"federalState":{"key":"14","name":"Sachsen"}},{"name":"Quergasse","postalCode":"01904","locality":"Neukirch/Lausitz","municipality":{"key":"14625380","name":"Neukirch/Lausitz","type":"Kreisangehörige_Gemeinde"},"district":{"key":"14625","name":"Bautzen","type":"Landkreis"},"federalState":{"key":"14","name":"Sachsen"}},{"name":"Richterhäuser","postalCode":"01904","locality":"Neukirch/Lausitz","municipality":{"key":"14625380","name":"Neukirch/Lausitz","type":"Kreisangehörige_Gemeinde"},"district":{"key":"14625","name":"Bautzen","type":"Landkreis"},"federalState":{"key":"14","name":"Sachsen"}},{"name":"Ringenhainer Weg","postalCode":"01904","locality":"Neukirch/Lausitz","municipality":{"key":"14625380","name":"Neukirch/Lausitz","type":"Kreisangehörige_Gemeinde"},"district":{"key":"14625","name":"Bautzen","type":"Landkreis"},"federalState":{"key":"14","name":"Sachsen"}},{"name":"Rupprechthäuser","postalCode":"01904","locality":"Neukirch/Lausitz","municipality":{"key":"14625380","name":"Neukirch/Lausitz","type":"Kreisangehörige_Gemeinde"},"district":{"key":"14625","name":"Bautzen","type":"Landkreis"},"federalState":{"key":"14","name":"Sachsen"}},{"name":"Sandweg","postalCode":"01904","locality":"Neukirch/Lausitz","municipality":{"key":"14625380","name":"Neukirch/Lausitz","type":"Kreisangehörige_Gemeinde"},"district":{"key":"14625","name":"Bautzen","type":"Landkreis"},"federalState":{"key":"14","name":"Sachsen"}},{"name":"Schenkenweg","postalCode":"01904","locality":"Neukirch/Lausitz","municipality":{"key":"14625380","name":"Neukirch/Lausitz","type":"Kreisangehörige_Gemeinde"},"district":{"key":"14625","name":"Bautzen","type":"Landkreis"},"federalState":{"key":"14","name":"Sachsen"}},{"name":"Schlippe","postalCode":"01904","locality":"Neukirch/Lausitz","municipality":{"key":"14625380","name":"Neukirch/Lausitz","type":"Kreisangehörige_Gemeinde"},"district":{"key":"14625","name":"Bautzen","type":"Landkreis"},"federalState":{"key":"14","name":"Sachsen"}},{"name":"Schulstr.","postalCode":"01904","locality":"Neukirch/Lausitz","municipality":{"key":"14625380","name":"Neukirch/Lausitz","type":"Kreisangehörige_Gemeinde"},"district":{"key":"14625","name":"Bautzen","type":"Landkreis"},"federalState":{"key":"14","name":"Sachsen"}},{"name":"Schwedenwinkel","postalCode":"01904","locality":"Neukirch/Lausitz","municipality":{"key":"14625380","name":"Neukirch/Lausitz","type":"Kreisangehörige_Gemeinde"},"district":{"key":"14625","name":"Bautzen","type":"Landkreis"},"federalState":{"key":"14","name":"Sachsen"}},{"name":"Steinhübelhäuser","postalCode":"01904","locality":"Neukirch/Lausitz","municipality":{"key":"14625380","name":"Neukirch/Lausitz","type":"Kreisangehörige_Gemeinde"},"district":{"key":"14625","name":"Bautzen","type":"Landkreis"},"federalState":{"key":"14","name":"Sachsen"}},{"name":"Steinhübelstr.","postalCode":"01904","locality":"Neukirch/Lausitz","municipality":{"key":"14625380","name":"Neukirch/Lausitz","type":"Kreisangehörige_Gemeinde"},"district":{"key":"14625","name":"Bautzen","type":"Landkreis"},"federalState":{"key":"14","name":"Sachsen"}},{"name":"Steinweg","postalCode":"01904","locality":"Neukirch/Lausitz","municipality":{"key":"14625380","name":"Neukirch/Lausitz","type":"Kreisangehörige_Gemeinde"},"district":{"key":"14625","name":"Bautzen","type":"Landkreis"},"federalState":{"key":"14","name":"Sachsen"}},{"name":"Südstr.","postalCode":"01904","locality":"Neukirch/Lausitz","municipality":{"key":"14625380","name":"Neukirch/Lausitz","type":"Kreisangehörige_Gemeinde"},"district":{"key":"14625","name":"Bautzen","type":"Landkreis"},"federalState":{"key":"14","name":"Sachsen"}},{"name":"Talweg","postalCode":"01904","locality":"Neukirch/Lausitz","municipality":{"key":"14625380","name":"Neukirch/Lausitz","type":"Kreisangehörige_Gemeinde"},"district":{"key":"14625","name":"Bautzen","type":"Landkreis"},"federalState":{"key":"14","name":"Sachsen"}},{"name":"Tröbigauer Str.","postalCode":"01904","locality":"Neukirch/Lausitz","municipality":{"key":"14625380","name":"Neukirch/Lausitz","type":"Kreisangehörige_Gemeinde"},"district":{"key":"14625","name":"Bautzen","type":"Landkreis"},"federalState":{"key":"14","name":"Sachsen"}},{"name":"Unterer Horizontalweg","postalCode":"01904","locality":"Neukirch/Lausitz","municipality":{"key":"14625380","name":"Neukirch/Lausitz","type":"Kreisangehörige_Gemeinde"},"district":{"key":"14625","name":"Bautzen","type":"Landkreis"},"federalState":{"key":"14","name":"Sachsen"}},{"name":"Valtenbergweg","postalCode":"01904","locality":"Neukirch/Lausitz","municipality":{"key":"14625380","name":"Neukirch/Lausitz","type":"Kreisangehörige_Gemeinde"},"district":{"key":"14625","name":"Bautzen","type":"Landkreis"},"federalState":{"key":"14","name":"Sachsen"}},{"name":"Valtentalstr.","postalCode":"01904","locality":"Neukirch/Lausitz","municipality":{"key":"14625380","name":"Neukirch/Lausitz","type":"Kreisangehörige_Gemeinde"},"district":{"key":"14625","name":"Bautzen","type":"Landkreis"},"federalState":{"key":"14","name":"Sachsen"}},{"name":"Waldsiedlung","postalCode":"01904","locality":"Neukirch/Lausitz","municipality":{"key":"14625380","name":"Neukirch/Lausitz","type":"Kreisangehörige_Gemeinde"},"district":{"key":"14625","name":"Bautzen","type":"Landkreis"},"federalState":{"key":"14","name":"Sachsen"}},{"name":"Waldweg","postalCode":"01904","locality":"Neukirch/Lausitz","municipality":{"key":"14625380","name":"Neukirch/Lausitz","type":"Kreisangehörige_Gemeinde"},"district":{"key":"14625","name":"Bautzen","type":"Landkreis"},"federalState":{"key":"14","name":"Sachsen"}},{"name":"Walter-Pfützner-Str.","postalCode":"01904","locality":"Neukirch/Lausitz","municipality":{"key":"14625380","name":"Neukirch/Lausitz","type":"Kreisangehörige_Gemeinde"},"district":{"key":"14625","name":"Bautzen","type":"Landkreis"},"federalState":{"key":"14","name":"Sachsen"}},{"name":"Weifaer Weg","postalCode":"01904","locality":"Neukirch/Lausitz","municipality":{"key":"14625380","name":"Neukirch/Lausitz","type":"Kreisangehörige_Gemeinde"},"district":{"key":"14625","name":"Bautzen","type":"Landkreis"},"federalState":{"key":"14","name":"Sachsen"}},{"name":"Weikertgasse","postalCode":"01904","locality":"Neukirch/Lausitz","municipality":{"key":"14625380","name":"Neukirch/Lausitz","type":"Kreisangehörige_Gemeinde"},"district":{"key":"14625","name":"Bautzen","type":"Landkreis"},"federalState":{"key":"14","name":"Sachsen"}},{"name":"Weststr.","postalCode":"01904","locality":"Neukirch/Lausitz","municipality":{"key":"14625380","name":"Neukirch/Lausitz","type":"Kreisangehörige_Gemeinde"},"district":{"key":"14625","name":"Bautzen","type":"Landkreis"},"federalState":{"key":"14","name":"Sachsen"}},{"name":"Wiesenstr.","postalCode":"01904","locality":"Neukirch/Lausitz","municipality":{"key":"14625380","name":"Neukirch/Lausitz","type":"Kreisangehörige_Gemeinde"},"district":{"key":"14625","name":"Bautzen","type":"Landkreis"},"federalState":{"key":"14","name":"Sachsen"}},{"name":"Wilthener Str.","postalCode":"01904","locality":"Neukirch/Lausitz","municipality":{"key":"14625380","name":"Neukirch/Lausitz","type":"Kreisangehörige_Gemeinde"},"district":{"key":"14625","name":"Bautzen","type":"Landkreis"},"federalState":{"key":"14","name":"Sachsen"}},{"name":"Yorckstr.","postalCode":"02625","locality":"Bautzen","municipality":{"key":"14625020","name":"Bautzen / Budyšin, Stadt","type":"Stadt"},"district":{"key":"14625","name":"Bautzen","type":"Landkreis"},"federalState":{"key":"14","name":"Sachsen"}},{"name":"Ziegelweg","postalCode":"01904","locality":"Neukirch/Lausitz","municipality":{"key":"14625380","name":"Neukirch/Lausitz","type":"Kreisangehörige_Gemeinde"},"district":{"key":"14625","name":"Bautzen","type":"Landkreis"},"federalState":{"key":"14","name":"Sachsen"}},{"name":"Zittauer Str.","postalCode":"01904","locality":"Neukirch/Lausitz","municipality":{"key":"14625380","name":"Neukirch/Lausitz","type":"Kreisangehörige_Gemeinde"},"district":{"key":"14625","name":"Bautzen","type":"Landkreis"},"federalState":{"key":"14","name":"Sachsen"}},{"name":"Äußere Lauenstr.","postalCode":"02625","locality":"Bautzen","municipality":{"key":"14625020","name":"Bautzen / Budyšin, Stadt","type":"Stadt"},"district":{"key":"14625","name":"Bautzen","type":"Landkreis"},"federalState":{"key":"14","name":"Sachsen"}},]