[{"name":"Abwandten","postalCode":"94428","locality":"Eichendorf","municipality":{"key":"09279113","name":"Eichendorf, M","type":"Markt"},"district":{"key":"09279","name":"Dingolfing-Landau","type":"Landkreis"},"federalState":{"key":"09","name":"Bayern"}},{"name":"Adlerstr.","postalCode":"94428","locality":"Eichendorf","municipality":{"key":"09279113","name":"Eichendorf, M","type":"Markt"},"district":{"key":"09279","name":"Dingolfing-Landau","type":"Landkreis"},"federalState":{"key":"09","name":"Bayern"}},{"name":"Alte Poststr.","postalCode":"94428","locality":"Eichendorf","municipality":{"key":"09279113","name":"Eichendorf, M","type":"Markt"},"district":{"key":"09279","name":"Dingolfing-Landau","type":"Landkreis"},"federalState":{"key":"09","name":"Bayern"}},{"name":"Am Bahndamm","postalCode":"94428","locality":"Eichendorf","municipality":{"key":"09279113","name":"Eichendorf, M","type":"Markt"},"district":{"key":"09279","name":"Dingolfing-Landau","type":"Landkreis"},"federalState":{"key":"09","name":"Bayern"}},{"name":"Am Baierlhof","postalCode":"94428","locality":"Eichendorf","municipality":{"key":"09279113","name":"Eichendorf, M","type":"Markt"},"district":{"key":"09279","name":"Dingolfing-Landau","type":"Landkreis"},"federalState":{"key":"09","name":"Bayern"}},{"name":"Am Graben","postalCode":"94428","locality":"Eichendorf","municipality":{"key":"09279113","name":"Eichendorf, M","type":"Markt"},"district":{"key":"09279","name":"Dingolfing-Landau","type":"Landkreis"},"federalState":{"key":"09","name":"Bayern"}},{"name":"Am Hohen Bogen","postalCode":"94428","locality":"Eichendorf","municipality":{"key":"09279113","name":"Eichendorf, M","type":"Markt"},"district":{"key":"09279","name":"Dingolfing-Landau","type":"Landkreis"},"federalState":{"key":"09","name":"Bayern"}},{"name":"Amselstr.","postalCode":"94428","locality":"Eichendorf","municipality":{"key":"09279113","name":"Eichendorf, M","type":"Markt"},"district":{"key":"09279","name":"Dingolfing-Landau","type":"Landkreis"},"federalState":{"key":"09","name":"Bayern"}},{"name":"Angergasse","postalCode":"94428","locality":"Eichendorf","municipality":{"key":"09279113","name":"Eichendorf, M","type":"Markt"},"district":{"key":"09279","name":"Dingolfing-Landau","type":"Landkreis"},"federalState":{"key":"09","name":"Bayern"}},{"name":"Anna-Tattenberger-Str.","postalCode":"94428","locality":"Eichendorf","municipality":{"key":"09279113","name":"Eichendorf, M","type":"Markt"},"district":{"key":"09279","name":"Dingolfing-Landau","type":"Landkreis"},"federalState":{"key":"09","name":"Bayern"}},{"name":"Antonsruh","postalCode":"94428","locality":"Eichendorf","municipality":{"key":"09279113","name":"Eichendorf, M","type":"Markt"},"district":{"key":"09279","name":"Dingolfing-Landau","type":"Landkreis"},"federalState":{"key":"09","name":"Bayern"}},{"name":"Arberstr.","postalCode":"94428","locality":"Eichendorf","municipality":{"key":"09279113","name":"Eichendorf, M","type":"Markt"},"district":{"key":"09279","name":"Dingolfing-Landau","type":"Landkreis"},"federalState":{"key":"09","name":"Bayern"}},{"name":"Arnstorfer Str.","postalCode":"94428","locality":"Eichendorf","municipality":{"key":"09279113","name":"Eichendorf, M","type":"Markt"},"district":{"key":"09279","name":"Dingolfing-Landau","type":"Landkreis"},"federalState":{"key":"09","name":"Bayern"}},{"name":"Asbach","postalCode":"94428","locality":"Eichendorf","municipality":{"key":"09279113","name":"Eichendorf, M","type":"Markt"},"district":{"key":"09279","name":"Dingolfing-Landau","type":"Landkreis"},"federalState":{"key":"09","name":"Bayern"}},{"name":"Asbacher Weg","postalCode":"94428","locality":"Eichendorf","municipality":{"key":"09279113","name":"Eichendorf, M","type":"Markt"},"district":{"key":"09279","name":"Dingolfing-Landau","type":"Landkreis"},"federalState":{"key":"09","name":"Bayern"}},{"name":"Auenweg","postalCode":"94428","locality":"Eichendorf","municipality":{"key":"09279113","name":"Eichendorf, M","type":"Markt"},"district":{"key":"09279","name":"Dingolfing-Landau","type":"Landkreis"},"federalState":{"key":"09","name":"Bayern"}},{"name":"Auerhahnstr.","postalCode":"94428","locality":"Eichendorf","municipality":{"key":"09279113","name":"Eichendorf, M","type":"Markt"},"district":{"key":"09279","name":"Dingolfing-Landau","type":"Landkreis"},"federalState":{"key":"09","name":"Bayern"}},{"name":"Bachstr.","postalCode":"94428","locality":"Eichendorf","municipality":{"key":"09279113","name":"Eichendorf, M","type":"Markt"},"district":{"key":"09279","name":"Dingolfing-Landau","type":"Landkreis"},"federalState":{"key":"09","name":"Bayern"}},{"name":"Bachweg","postalCode":"94428","locality":"Eichendorf","municipality":{"key":"09279113","name":"Eichendorf, M","type":"Markt"},"district":{"key":"09279","name":"Dingolfing-Landau","type":"Landkreis"},"federalState":{"key":"09","name":"Bayern"}},{"name":"Badersdorf","postalCode":"94428","locality":"Eichendorf","municipality":{"key":"09279113","name":"Eichendorf, M","type":"Markt"},"district":{"key":"09279","name":"Dingolfing-Landau","type":"Landkreis"},"federalState":{"key":"09","name":"Bayern"}},{"name":"Bahnanlage","postalCode":"94428","locality":"Eichendorf","municipality":{"key":"09279113","name":"Eichendorf, M","type":"Markt"},"district":{"key":"09279","name":"Dingolfing-Landau","type":"Landkreis"},"federalState":{"key":"09","name":"Bayern"}},{"name":"Beethovenstr.","postalCode":"94428","locality":"Eichendorf","municipality":{"key":"09279113","name":"Eichendorf, M","type":"Markt"},"district":{"key":"09279","name":"Dingolfing-Landau","type":"Landkreis"},"federalState":{"key":"09","name":"Bayern"}},{"name":"Bergacker","postalCode":"94428","locality":"Eichendorf","municipality":{"key":"09279113","name":"Eichendorf, M","type":"Markt"},"district":{"key":"09279","name":"Dingolfing-Landau","type":"Landkreis"},"federalState":{"key":"09","name":"Bayern"}},{"name":"Bergstr.","postalCode":"94428","locality":"Eichendorf","municipality":{"key":"09279113","name":"Eichendorf, M","type":"Markt"},"district":{"key":"09279","name":"Dingolfing-Landau","type":"Landkreis"},"federalState":{"key":"09","name":"Bayern"}},{"name":"Berg-Waldstr.","postalCode":"94428","locality":"Eichendorf","municipality":{"key":"09279113","name":"Eichendorf, M","type":"Markt"},"district":{"key":"09279","name":"Dingolfing-Landau","type":"Landkreis"},"federalState":{"key":"09","name":"Bayern"}},{"name":"Besel","postalCode":"94428","locality":"Eichendorf","municipality":{"key":"09279113","name":"Eichendorf, M","type":"Markt"},"district":{"key":"09279","name":"Dingolfing-Landau","type":"Landkreis"},"federalState":{"key":"09","name":"Bayern"}},{"name":"Birkenstr.","postalCode":"94428","locality":"Eichendorf","municipality":{"key":"09279113","name":"Eichendorf, M","type":"Markt"},"district":{"key":"09279","name":"Dingolfing-Landau","type":"Landkreis"},"federalState":{"key":"09","name":"Bayern"}},{"name":"Birkhahnstr.","postalCode":"94428","locality":"Eichendorf","municipality":{"key":"09279113","name":"Eichendorf, M","type":"Markt"},"district":{"key":"09279","name":"Dingolfing-Landau","type":"Landkreis"},"federalState":{"key":"09","name":"Bayern"}},{"name":"Brunnenstr.","postalCode":"94428","locality":"Eichendorf","municipality":{"key":"09279113","name":"Eichendorf, M","type":"Markt"},"district":{"key":"09279","name":"Dingolfing-Landau","type":"Landkreis"},"federalState":{"key":"09","name":"Bayern"}},{"name":"Burgaustr.","postalCode":"94428","locality":"Eichendorf","municipality":{"key":"09279113","name":"Eichendorf, M","type":"Markt"},"district":{"key":"09279","name":"Dingolfing-Landau","type":"Landkreis"},"federalState":{"key":"09","name":"Bayern"}},{"name":"Burgfriedenstr.","postalCode":"94428","locality":"Eichendorf","municipality":{"key":"09279113","name":"Eichendorf, M","type":"Markt"},"district":{"key":"09279","name":"Dingolfing-Landau","type":"Landkreis"},"federalState":{"key":"09","name":"Bayern"}},{"name":"Burggrabenstr.","postalCode":"94428","locality":"Eichendorf","municipality":{"key":"09279113","name":"Eichendorf, M","type":"Markt"},"district":{"key":"09279","name":"Dingolfing-Landau","type":"Landkreis"},"federalState":{"key":"09","name":"Bayern"}},{"name":"Burggrafenstr.","postalCode":"94428","locality":"Eichendorf","municipality":{"key":"09279113","name":"Eichendorf, M","type":"Markt"},"district":{"key":"09279","name":"Dingolfing-Landau","type":"Landkreis"},"federalState":{"key":"09","name":"Bayern"}},{"name":"Burglehenstr.","postalCode":"94428","locality":"Eichendorf","municipality":{"key":"09279113","name":"Eichendorf, M","type":"Markt"},"district":{"key":"09279","name":"Dingolfing-Landau","type":"Landkreis"},"federalState":{"key":"09","name":"Bayern"}},{"name":"Burgstr.","postalCode":"94428","locality":"Eichendorf","municipality":{"key":"09279113","name":"Eichendorf, M","type":"Markt"},"district":{"key":"09279","name":"Dingolfing-Landau","type":"Landkreis"},"federalState":{"key":"09","name":"Bayern"}},{"name":"Carossastr.","postalCode":"94428","locality":"Eichendorf","municipality":{"key":"09279113","name":"Eichendorf, M","type":"Markt"},"district":{"key":"09279","name":"Dingolfing-Landau","type":"Landkreis"},"federalState":{"key":"09","name":"Bayern"}},{"name":"Dornach","postalCode":"94428","locality":"Eichendorf","municipality":{"key":"09279113","name":"Eichendorf, M","type":"Markt"},"district":{"key":"09279","name":"Dingolfing-Landau","type":"Landkreis"},"federalState":{"key":"09","name":"Bayern"}},{"name":"Drosselstr.","postalCode":"94428","locality":"Eichendorf","municipality":{"key":"09279113","name":"Eichendorf, M","type":"Markt"},"district":{"key":"09279","name":"Dingolfing-Landau","type":"Landkreis"},"federalState":{"key":"09","name":"Bayern"}},{"name":"Ecklreit","postalCode":"94428","locality":"Eichendorf","municipality":{"key":"09279113","name":"Eichendorf, M","type":"Markt"},"district":{"key":"09279","name":"Dingolfing-Landau","type":"Landkreis"},"federalState":{"key":"09","name":"Bayern"}},{"name":"Edengrub","postalCode":"94428","locality":"Eichendorf","municipality":{"key":"09279113","name":"Eichendorf, M","type":"Markt"},"district":{"key":"09279","name":"Dingolfing-Landau","type":"Landkreis"},"federalState":{"key":"09","name":"Bayern"}},{"name":"Eggendorf","postalCode":"94428","locality":"Eichendorf","municipality":{"key":"09279113","name":"Eichendorf, M","type":"Markt"},"district":{"key":"09279","name":"Dingolfing-Landau","type":"Landkreis"},"federalState":{"key":"09","name":"Bayern"}},{"name":"Eichenberg","postalCode":"94428","locality":"Eichendorf","municipality":{"key":"09279113","name":"Eichendorf, M","type":"Markt"},"district":{"key":"09279","name":"Dingolfing-Landau","type":"Landkreis"},"federalState":{"key":"09","name":"Bayern"}},{"name":"Eichendorfer Str.","postalCode":"94428","locality":"Eichendorf","municipality":{"key":"09279113","name":"Eichendorf, M","type":"Markt"},"district":{"key":"09279","name":"Dingolfing-Landau","type":"Landkreis"},"federalState":{"key":"09","name":"Bayern"}},{"name":"Eichet","postalCode":"94428","locality":"Eichendorf","municipality":{"key":"09279113","name":"Eichendorf, M","type":"Markt"},"district":{"key":"09279","name":"Dingolfing-Landau","type":"Landkreis"},"federalState":{"key":"09","name":"Bayern"}},{"name":"Einstorf","postalCode":"94428","locality":"Eichendorf","municipality":{"key":"09279113","name":"Eichendorf, M","type":"Markt"},"district":{"key":"09279","name":"Dingolfing-Landau","type":"Landkreis"},"federalState":{"key":"09","name":"Bayern"}},{"name":"Enzerweis","postalCode":"94428","locality":"Eichendorf","municipality":{"key":"09279113","name":"Eichendorf, M","type":"Markt"},"district":{"key":"09279","name":"Dingolfing-Landau","type":"Landkreis"},"federalState":{"key":"09","name":"Bayern"}},{"name":"Erlenstr.","postalCode":"94428","locality":"Eichendorf","municipality":{"key":"09279113","name":"Eichendorf, M","type":"Markt"},"district":{"key":"09279","name":"Dingolfing-Landau","type":"Landkreis"},"federalState":{"key":"09","name":"Bayern"}},{"name":"Falkenweg","postalCode":"94428","locality":"Eichendorf","municipality":{"key":"09279113","name":"Eichendorf, M","type":"Markt"},"district":{"key":"09279","name":"Dingolfing-Landau","type":"Landkreis"},"federalState":{"key":"09","name":"Bayern"}},{"name":"Fasanenstr.","postalCode":"94428","locality":"Eichendorf","municipality":{"key":"09279113","name":"Eichendorf, M","type":"Markt"},"district":{"key":"09279","name":"Dingolfing-Landau","type":"Landkreis"},"federalState":{"key":"09","name":"Bayern"}},{"name":"Feldöd","postalCode":"94428","locality":"Eichendorf","municipality":{"key":"09279113","name":"Eichendorf, M","type":"Markt"},"district":{"key":"09279","name":"Dingolfing-Landau","type":"Landkreis"},"federalState":{"key":"09","name":"Bayern"}},{"name":"Finkenweg","postalCode":"94428","locality":"Eichendorf","municipality":{"key":"09279113","name":"Eichendorf, M","type":"Markt"},"district":{"key":"09279","name":"Dingolfing-Landau","type":"Landkreis"},"federalState":{"key":"09","name":"Bayern"}},{"name":"Flurstr.","postalCode":"94428","locality":"Eichendorf","municipality":{"key":"09279113","name":"Eichendorf, M","type":"Markt"},"district":{"key":"09279","name":"Dingolfing-Landau","type":"Landkreis"},"federalState":{"key":"09","name":"Bayern"}},{"name":"Forellenweg","postalCode":"94428","locality":"Eichendorf","municipality":{"key":"09279113","name":"Eichendorf, M","type":"Markt"},"district":{"key":"09279","name":"Dingolfing-Landau","type":"Landkreis"},"federalState":{"key":"09","name":"Bayern"}},{"name":"Fränkingstr.","postalCode":"94428","locality":"Eichendorf","municipality":{"key":"09279113","name":"Eichendorf, M","type":"Markt"},"district":{"key":"09279","name":"Dingolfing-Landau","type":"Landkreis"},"federalState":{"key":"09","name":"Bayern"}},{"name":"Frauenholz","postalCode":"94428","locality":"Eichendorf","municipality":{"key":"09279113","name":"Eichendorf, M","type":"Markt"},"district":{"key":"09279","name":"Dingolfing-Landau","type":"Landkreis"},"federalState":{"key":"09","name":"Bayern"}},{"name":"Frühlingsweg","postalCode":"94428","locality":"Eichendorf","municipality":{"key":"09279113","name":"Eichendorf, M","type":"Markt"},"district":{"key":"09279","name":"Dingolfing-Landau","type":"Landkreis"},"federalState":{"key":"09","name":"Bayern"}},{"name":"Gartenweg","postalCode":"94428","locality":"Eichendorf","municipality":{"key":"09279113","name":"Eichendorf, M","type":"Markt"},"district":{"key":"09279","name":"Dingolfing-Landau","type":"Landkreis"},"federalState":{"key":"09","name":"Bayern"}},{"name":"Gärtnerstr.","postalCode":"94428","locality":"Eichendorf","municipality":{"key":"09279113","name":"Eichendorf, M","type":"Markt"},"district":{"key":"09279","name":"Dingolfing-Landau","type":"Landkreis"},"federalState":{"key":"09","name":"Bayern"}},{"name":"Geißberg","postalCode":"94428","locality":"Eichendorf","municipality":{"key":"09279113","name":"Eichendorf, M","type":"Markt"},"district":{"key":"09279","name":"Dingolfing-Landau","type":"Landkreis"},"federalState":{"key":"09","name":"Bayern"}},{"name":"Gewerbepark","postalCode":"94428","locality":"Eichendorf","municipality":{"key":"09279113","name":"Eichendorf, M","type":"Markt"},"district":{"key":"09279","name":"Dingolfing-Landau","type":"Landkreis"},"federalState":{"key":"09","name":"Bayern"}},{"name":"Gneidingerhart","postalCode":"94428","locality":"Eichendorf","municipality":{"key":"09279113","name":"Eichendorf, M","type":"Markt"},"district":{"key":"09279","name":"Dingolfing-Landau","type":"Landkreis"},"federalState":{"key":"09","name":"Bayern"}},{"name":"Goethestr.","postalCode":"94428","locality":"Eichendorf","municipality":{"key":"09279113","name":"Eichendorf, M","type":"Markt"},"district":{"key":"09279","name":"Dingolfing-Landau","type":"Landkreis"},"federalState":{"key":"09","name":"Bayern"}},{"name":"Graf-Arco-Str.","postalCode":"94428","locality":"Eichendorf","municipality":{"key":"09279113","name":"Eichendorf, M","type":"Markt"},"district":{"key":"09279","name":"Dingolfing-Landau","type":"Landkreis"},"federalState":{"key":"09","name":"Bayern"}},{"name":"Greinöd","postalCode":"94428","locality":"Eichendorf","municipality":{"key":"09279113","name":"Eichendorf, M","type":"Markt"},"district":{"key":"09279","name":"Dingolfing-Landau","type":"Landkreis"},"federalState":{"key":"09","name":"Bayern"}},{"name":"Gschaid","postalCode":"94428","locality":"Eichendorf","municipality":{"key":"09279113","name":"Eichendorf, M","type":"Markt"},"district":{"key":"09279","name":"Dingolfing-Landau","type":"Landkreis"},"federalState":{"key":"09","name":"Bayern"}},{"name":"Habichtstr.","postalCode":"94428","locality":"Eichendorf","municipality":{"key":"09279113","name":"Eichendorf, M","type":"Markt"},"district":{"key":"09279","name":"Dingolfing-Landau","type":"Landkreis"},"federalState":{"key":"09","name":"Bayern"}},{"name":"Haid","postalCode":"94428","locality":"Eichendorf","municipality":{"key":"09279113","name":"Eichendorf, M","type":"Markt"},"district":{"key":"09279","name":"Dingolfing-Landau","type":"Landkreis"},"federalState":{"key":"09","name":"Bayern"}},{"name":"Hartkirchen","postalCode":"94428","locality":"Eichendorf","municipality":{"key":"09279113","name":"Eichendorf, M","type":"Markt"},"district":{"key":"09279","name":"Dingolfing-Landau","type":"Landkreis"},"federalState":{"key":"09","name":"Bayern"}},{"name":"Haufenöd","postalCode":"94428","locality":"Eichendorf","municipality":{"key":"09279113","name":"Eichendorf, M","type":"Markt"},"district":{"key":"09279","name":"Dingolfing-Landau","type":"Landkreis"},"federalState":{"key":"09","name":"Bayern"}},{"name":"Haunersdorfer Str.","postalCode":"94428","locality":"Eichendorf","municipality":{"key":"09279113","name":"Eichendorf, M","type":"Markt"},"district":{"key":"09279","name":"Dingolfing-Landau","type":"Landkreis"},"federalState":{"key":"09","name":"Bayern"}},{"name":"Hauptstr.","postalCode":"94428","locality":"Eichendorf","municipality":{"key":"09279113","name":"Eichendorf, M","type":"Markt"},"district":{"key":"09279","name":"Dingolfing-Landau","type":"Landkreis"},"federalState":{"key":"09","name":"Bayern"}},{"name":"Hinteranger","postalCode":"94428","locality":"Eichendorf","municipality":{"key":"09279113","name":"Eichendorf, M","type":"Markt"},"district":{"key":"09279","name":"Dingolfing-Landau","type":"Landkreis"},"federalState":{"key":"09","name":"Bayern"}},{"name":"Hirtenweg","postalCode":"94428","locality":"Eichendorf","municipality":{"key":"09279113","name":"Eichendorf, M","type":"Markt"},"district":{"key":"09279","name":"Dingolfing-Landau","type":"Landkreis"},"federalState":{"key":"09","name":"Bayern"}},{"name":"Hochstr.","postalCode":"94428","locality":"Eichendorf","municipality":{"key":"09279113","name":"Eichendorf, M","type":"Markt"},"district":{"key":"09279","name":"Dingolfing-Landau","type":"Landkreis"},"federalState":{"key":"09","name":"Bayern"}},{"name":"Hochweg","postalCode":"94428","locality":"Eichendorf","municipality":{"key":"09279113","name":"Eichendorf, M","type":"Markt"},"district":{"key":"09279","name":"Dingolfing-Landau","type":"Landkreis"},"federalState":{"key":"09","name":"Bayern"}},{"name":"Holzmann","postalCode":"94428","locality":"Eichendorf","municipality":{"key":"09279113","name":"Eichendorf, M","type":"Markt"},"district":{"key":"09279","name":"Dingolfing-Landau","type":"Landkreis"},"federalState":{"key":"09","name":"Bayern"}},{"name":"Hörmannsdorf","postalCode":"94428","locality":"Eichendorf","municipality":{"key":"09279113","name":"Eichendorf, M","type":"Markt"},"district":{"key":"09279","name":"Dingolfing-Landau","type":"Landkreis"},"federalState":{"key":"09","name":"Bayern"}},{"name":"Indersbach","postalCode":"94428","locality":"Eichendorf","municipality":{"key":"09279113","name":"Eichendorf, M","type":"Markt"},"district":{"key":"09279","name":"Dingolfing-Landau","type":"Landkreis"},"federalState":{"key":"09","name":"Bayern"}},{"name":"Indersbacher Str.","postalCode":"94428","locality":"Eichendorf","municipality":{"key":"09279113","name":"Eichendorf, M","type":"Markt"},"district":{"key":"09279","name":"Dingolfing-Landau","type":"Landkreis"},"federalState":{"key":"09","name":"Bayern"}},{"name":"Industriestr.","postalCode":"94428","locality":"Eichendorf","municipality":{"key":"09279113","name":"Eichendorf, M","type":"Markt"},"district":{"key":"09279","name":"Dingolfing-Landau","type":"Landkreis"},"federalState":{"key":"09","name":"Bayern"}},{"name":"Jahrstorf","postalCode":"94428","locality":"Eichendorf","municipality":{"key":"09279113","name":"Eichendorf, M","type":"Markt"},"district":{"key":"09279","name":"Dingolfing-Landau","type":"Landkreis"},"federalState":{"key":"09","name":"Bayern"}},{"name":"Jetzeneck","postalCode":"94428","locality":"Eichendorf","municipality":{"key":"09279113","name":"Eichendorf, M","type":"Markt"},"district":{"key":"09279","name":"Dingolfing-Landau","type":"Landkreis"},"federalState":{"key":"09","name":"Bayern"}},{"name":"Joseph-von-Eichendorff-Str.","postalCode":"94428","locality":"Eichendorf","municipality":{"key":"09279113","name":"Eichendorf, M","type":"Markt"},"district":{"key":"09279","name":"Dingolfing-Landau","type":"Landkreis"},"federalState":{"key":"09","name":"Bayern"}},{"name":"Kanzlöder Weg","postalCode":"94428","locality":"Eichendorf","municipality":{"key":"09279113","name":"Eichendorf, M","type":"Markt"},"district":{"key":"09279","name":"Dingolfing-Landau","type":"Landkreis"},"federalState":{"key":"09","name":"Bayern"}},{"name":"Kapellenstr.","postalCode":"94428","locality":"Eichendorf","municipality":{"key":"09279113","name":"Eichendorf, M","type":"Markt"},"district":{"key":"09279","name":"Dingolfing-Landau","type":"Landkreis"},"federalState":{"key":"09","name":"Bayern"}},{"name":"Knottenöd","postalCode":"94428","locality":"Eichendorf","municipality":{"key":"09279113","name":"Eichendorf, M","type":"Markt"},"district":{"key":"09279","name":"Dingolfing-Landau","type":"Landkreis"},"federalState":{"key":"09","name":"Bayern"}},{"name":"Kreuzacker","postalCode":"94428","locality":"Eichendorf","municipality":{"key":"09279113","name":"Eichendorf, M","type":"Markt"},"district":{"key":"09279","name":"Dingolfing-Landau","type":"Landkreis"},"federalState":{"key":"09","name":"Bayern"}},{"name":"Kröhstorf","postalCode":"94428","locality":"Eichendorf","municipality":{"key":"09279113","name":"Eichendorf, M","type":"Markt"},"district":{"key":"09279","name":"Dingolfing-Landau","type":"Landkreis"},"federalState":{"key":"09","name":"Bayern"}},{"name":"Kuföd","postalCode":"94428","locality":"Eichendorf","municipality":{"key":"09279113","name":"Eichendorf, M","type":"Markt"},"district":{"key":"09279","name":"Dingolfing-Landau","type":"Landkreis"},"federalState":{"key":"09","name":"Bayern"}},{"name":"Landauer Str.","postalCode":"94428","locality":"Eichendorf","municipality":{"key":"09279113","name":"Eichendorf, M","type":"Markt"},"district":{"key":"09279","name":"Dingolfing-Landau","type":"Landkreis"},"federalState":{"key":"09","name":"Bayern"}},{"name":"Lappersdorf","postalCode":"94428","locality":"Eichendorf","municipality":{"key":"09279113","name":"Eichendorf, M","type":"Markt"},"district":{"key":"09279","name":"Dingolfing-Landau","type":"Landkreis"},"federalState":{"key":"09","name":"Bayern"}},{"name":"Lerchenstr.","postalCode":"94428","locality":"Eichendorf","municipality":{"key":"09279113","name":"Eichendorf, M","type":"Markt"},"district":{"key":"09279","name":"Dingolfing-Landau","type":"Landkreis"},"federalState":{"key":"09","name":"Bayern"}},{"name":"Lindenstr.","postalCode":"94428","locality":"Eichendorf","municipality":{"key":"09279113","name":"Eichendorf, M","type":"Markt"},"district":{"key":"09279","name":"Dingolfing-Landau","type":"Landkreis"},"federalState":{"key":"09","name":"Bayern"}},{"name":"Marienweg","postalCode":"94428","locality":"Eichendorf","municipality":{"key":"09279113","name":"Eichendorf, M","type":"Markt"},"district":{"key":"09279","name":"Dingolfing-Landau","type":"Landkreis"},"federalState":{"key":"09","name":"Bayern"}},{"name":"Marktplatz","postalCode":"94428","locality":"Eichendorf","municipality":{"key":"09279113","name":"Eichendorf, M","type":"Markt"},"district":{"key":"09279","name":"Dingolfing-Landau","type":"Landkreis"},"federalState":{"key":"09","name":"Bayern"}},{"name":"Metzgerstr.","postalCode":"94428","locality":"Eichendorf","municipality":{"key":"09279113","name":"Eichendorf, M","type":"Markt"},"district":{"key":"09279","name":"Dingolfing-Landau","type":"Landkreis"},"federalState":{"key":"09","name":"Bayern"}},{"name":"Mozartstr.","postalCode":"94428","locality":"Eichendorf","municipality":{"key":"09279113","name":"Eichendorf, M","type":"Markt"},"district":{"key":"09279","name":"Dingolfing-Landau","type":"Landkreis"},"federalState":{"key":"09","name":"Bayern"}},{"name":"Mühlstr.","postalCode":"94428","locality":"Eichendorf","municipality":{"key":"09279113","name":"Eichendorf, M","type":"Markt"},"district":{"key":"09279","name":"Dingolfing-Landau","type":"Landkreis"},"federalState":{"key":"09","name":"Bayern"}},{"name":"Nelkenweg","postalCode":"94428","locality":"Eichendorf","municipality":{"key":"09279113","name":"Eichendorf, M","type":"Markt"},"district":{"key":"09279","name":"Dingolfing-Landau","type":"Landkreis"},"federalState":{"key":"09","name":"Bayern"}},{"name":"Neuölling","postalCode":"94428","locality":"Eichendorf","municipality":{"key":"09279113","name":"Eichendorf, M","type":"Markt"},"district":{"key":"09279","name":"Dingolfing-Landau","type":"Landkreis"},"federalState":{"key":"09","name":"Bayern"}},{"name":"Oberanger","postalCode":"94428","locality":"Eichendorf","municipality":{"key":"09279113","name":"Eichendorf, M","type":"Markt"},"district":{"key":"09279","name":"Dingolfing-Landau","type":"Landkreis"},"federalState":{"key":"09","name":"Bayern"}},{"name":"Osserweg","postalCode":"94428","locality":"Eichendorf","municipality":{"key":"09279113","name":"Eichendorf, M","type":"Markt"},"district":{"key":"09279","name":"Dingolfing-Landau","type":"Landkreis"},"federalState":{"key":"09","name":"Bayern"}},{"name":"Ostergasse","postalCode":"94428","locality":"Eichendorf","municipality":{"key":"09279113","name":"Eichendorf, M","type":"Markt"},"district":{"key":"09279","name":"Dingolfing-Landau","type":"Landkreis"},"federalState":{"key":"09","name":"Bayern"}},{"name":"Panzerberg","postalCode":"94428","locality":"Eichendorf","municipality":{"key":"09279113","name":"Eichendorf, M","type":"Markt"},"district":{"key":"09279","name":"Dingolfing-Landau","type":"Landkreis"},"federalState":{"key":"09","name":"Bayern"}},{"name":"Paßhausen","postalCode":"94428","locality":"Eichendorf","municipality":{"key":"09279113","name":"Eichendorf, M","type":"Markt"},"district":{"key":"09279","name":"Dingolfing-Landau","type":"Landkreis"},"federalState":{"key":"09","name":"Bayern"}},{"name":"Perbinger Str.","postalCode":"94428","locality":"Eichendorf","municipality":{"key":"09279113","name":"Eichendorf, M","type":"Markt"},"district":{"key":"09279","name":"Dingolfing-Landau","type":"Landkreis"},"federalState":{"key":"09","name":"Bayern"}},{"name":"Perlöd","postalCode":"94428","locality":"Eichendorf","municipality":{"key":"09279113","name":"Eichendorf, M","type":"Markt"},"district":{"key":"09279","name":"Dingolfing-Landau","type":"Landkreis"},"federalState":{"key":"09","name":"Bayern"}},{"name":"Pfarrgasse","postalCode":"94428","locality":"Eichendorf","municipality":{"key":"09279113","name":"Eichendorf, M","type":"Markt"},"district":{"key":"09279","name":"Dingolfing-Landau","type":"Landkreis"},"federalState":{"key":"09","name":"Bayern"}},{"name":"Pfarrkirchener Str.","postalCode":"94428","locality":"Eichendorf","municipality":{"key":"09279113","name":"Eichendorf, M","type":"Markt"},"district":{"key":"09279","name":"Dingolfing-Landau","type":"Landkreis"},"federalState":{"key":"09","name":"Bayern"}},{"name":"Pfauenweg","postalCode":"94428","locality":"Eichendorf","municipality":{"key":"09279113","name":"Eichendorf, M","type":"Markt"},"district":{"key":"09279","name":"Dingolfing-Landau","type":"Landkreis"},"federalState":{"key":"09","name":"Bayern"}},{"name":"Pitzling","postalCode":"94428","locality":"Eichendorf","municipality":{"key":"09279113","name":"Eichendorf, M","type":"Markt"},"district":{"key":"09279","name":"Dingolfing-Landau","type":"Landkreis"},"federalState":{"key":"09","name":"Bayern"}},{"name":"Plattlinger Str.","postalCode":"94428","locality":"Eichendorf","municipality":{"key":"09279113","name":"Eichendorf, M","type":"Markt"},"district":{"key":"09279","name":"Dingolfing-Landau","type":"Landkreis"},"federalState":{"key":"09","name":"Bayern"}},{"name":"Pöcking","postalCode":"94428","locality":"Eichendorf","municipality":{"key":"09279113","name":"Eichendorf, M","type":"Markt"},"district":{"key":"09279","name":"Dingolfing-Landau","type":"Landkreis"},"federalState":{"key":"09","name":"Bayern"}},{"name":"Prunn","postalCode":"94428","locality":"Eichendorf","municipality":{"key":"09279113","name":"Eichendorf, M","type":"Markt"},"district":{"key":"09279","name":"Dingolfing-Landau","type":"Landkreis"},"federalState":{"key":"09","name":"Bayern"}},{"name":"Rannersberg","postalCode":"94428","locality":"Eichendorf","municipality":{"key":"09279113","name":"Eichendorf, M","type":"Markt"},"district":{"key":"09279","name":"Dingolfing-Landau","type":"Landkreis"},"federalState":{"key":"09","name":"Bayern"}},{"name":"Rebhuhnstr.","postalCode":"94428","locality":"Eichendorf","municipality":{"key":"09279113","name":"Eichendorf, M","type":"Markt"},"district":{"key":"09279","name":"Dingolfing-Landau","type":"Landkreis"},"federalState":{"key":"09","name":"Bayern"}},{"name":"Reichersdorfer Str.","postalCode":"94428","locality":"Eichendorf","municipality":{"key":"09279113","name":"Eichendorf, M","type":"Markt"},"district":{"key":"09279","name":"Dingolfing-Landau","type":"Landkreis"},"federalState":{"key":"09","name":"Bayern"}},{"name":"Reichstorf","postalCode":"94428","locality":"Eichendorf","municipality":{"key":"09279113","name":"Eichendorf, M","type":"Markt"},"district":{"key":"09279","name":"Dingolfing-Landau","type":"Landkreis"},"federalState":{"key":"09","name":"Bayern"}},{"name":"Reisach","postalCode":"94428","locality":"Eichendorf","municipality":{"key":"09279113","name":"Eichendorf, M","type":"Markt"},"district":{"key":"09279","name":"Dingolfing-Landau","type":"Landkreis"},"federalState":{"key":"09","name":"Bayern"}},{"name":"Rengersdorf","postalCode":"94428","locality":"Eichendorf","municipality":{"key":"09279113","name":"Eichendorf, M","type":"Markt"},"district":{"key":"09279","name":"Dingolfing-Landau","type":"Landkreis"},"federalState":{"key":"09","name":"Bayern"}},{"name":"Reuth","postalCode":"94428","locality":"Eichendorf","municipality":{"key":"09279113","name":"Eichendorf, M","type":"Markt"},"district":{"key":"09279","name":"Dingolfing-Landau","type":"Landkreis"},"federalState":{"key":"09","name":"Bayern"}},{"name":"Ringstr.","postalCode":"94428","locality":"Eichendorf","municipality":{"key":"09279113","name":"Eichendorf, M","type":"Markt"},"district":{"key":"09279","name":"Dingolfing-Landau","type":"Landkreis"},"federalState":{"key":"09","name":"Bayern"}},{"name":"Rohrbach","postalCode":"94428","locality":"Eichendorf","municipality":{"key":"09279113","name":"Eichendorf, M","type":"Markt"},"district":{"key":"09279","name":"Dingolfing-Landau","type":"Landkreis"},"federalState":{"key":"09","name":"Bayern"}},{"name":"Rohrbacher Weg","postalCode":"94428","locality":"Eichendorf","municipality":{"key":"09279113","name":"Eichendorf, M","type":"Markt"},"district":{"key":"09279","name":"Dingolfing-Landau","type":"Landkreis"},"federalState":{"key":"09","name":"Bayern"}},{"name":"Rosenweg","postalCode":"94428","locality":"Eichendorf","municipality":{"key":"09279113","name":"Eichendorf, M","type":"Markt"},"district":{"key":"09279","name":"Dingolfing-Landau","type":"Landkreis"},"federalState":{"key":"09","name":"Bayern"}},{"name":"Ruselweg","postalCode":"94428","locality":"Eichendorf","municipality":{"key":"09279113","name":"Eichendorf, M","type":"Markt"},"district":{"key":"09279","name":"Dingolfing-Landau","type":"Landkreis"},"federalState":{"key":"09","name":"Bayern"}},{"name":"Salzberg","postalCode":"94428","locality":"Eichendorf","municipality":{"key":"09279113","name":"Eichendorf, M","type":"Markt"},"district":{"key":"09279","name":"Dingolfing-Landau","type":"Landkreis"},"federalState":{"key":"09","name":"Bayern"}},{"name":"Schillerstr.","postalCode":"94428","locality":"Eichendorf","municipality":{"key":"09279113","name":"Eichendorf, M","type":"Markt"},"district":{"key":"09279","name":"Dingolfing-Landau","type":"Landkreis"},"federalState":{"key":"09","name":"Bayern"}},{"name":"Schloßallee","postalCode":"94428","locality":"Eichendorf","municipality":{"key":"09279113","name":"Eichendorf, M","type":"Markt"},"district":{"key":"09279","name":"Dingolfing-Landau","type":"Landkreis"},"federalState":{"key":"09","name":"Bayern"}},{"name":"Schmiedstr.","postalCode":"94428","locality":"Eichendorf","municipality":{"key":"09279113","name":"Eichendorf, M","type":"Markt"},"district":{"key":"09279","name":"Dingolfing-Landau","type":"Landkreis"},"federalState":{"key":"09","name":"Bayern"}},{"name":"Schneiderweg","postalCode":"94428","locality":"Eichendorf","municipality":{"key":"09279113","name":"Eichendorf, M","type":"Markt"},"district":{"key":"09279","name":"Dingolfing-Landau","type":"Landkreis"},"federalState":{"key":"09","name":"Bayern"}},{"name":"Schreinersiedlung","postalCode":"94428","locality":"Eichendorf","municipality":{"key":"09279113","name":"Eichendorf, M","type":"Markt"},"district":{"key":"09279","name":"Dingolfing-Landau","type":"Landkreis"},"federalState":{"key":"09","name":"Bayern"}},{"name":"Schreinerstr.","postalCode":"94428","locality":"Eichendorf","municipality":{"key":"09279113","name":"Eichendorf, M","type":"Markt"},"district":{"key":"09279","name":"Dingolfing-Landau","type":"Landkreis"},"federalState":{"key":"09","name":"Bayern"}},{"name":"Schulstr.","postalCode":"94428","locality":"Eichendorf","municipality":{"key":"09279113","name":"Eichendorf, M","type":"Markt"},"district":{"key":"09279","name":"Dingolfing-Landau","type":"Landkreis"},"federalState":{"key":"09","name":"Bayern"}},{"name":"Schusterstr.","postalCode":"94428","locality":"Eichendorf","municipality":{"key":"09279113","name":"Eichendorf, M","type":"Markt"},"district":{"key":"09279","name":"Dingolfing-Landau","type":"Landkreis"},"federalState":{"key":"09","name":"Bayern"}},{"name":"Schwalbenweg","postalCode":"94428","locality":"Eichendorf","municipality":{"key":"09279113","name":"Eichendorf, M","type":"Markt"},"district":{"key":"09279","name":"Dingolfing-Landau","type":"Landkreis"},"federalState":{"key":"09","name":"Bayern"}},{"name":"Sichenöd","postalCode":"94428","locality":"Eichendorf","municipality":{"key":"09279113","name":"Eichendorf, M","type":"Markt"},"district":{"key":"09279","name":"Dingolfing-Landau","type":"Landkreis"},"federalState":{"key":"09","name":"Bayern"}},{"name":"Silbersberg","postalCode":"94428","locality":"Eichendorf","municipality":{"key":"09279113","name":"Eichendorf, M","type":"Markt"},"district":{"key":"09279","name":"Dingolfing-Landau","type":"Landkreis"},"federalState":{"key":"09","name":"Bayern"}},{"name":"Spielberg","postalCode":"94428","locality":"Eichendorf","municipality":{"key":"09279113","name":"Eichendorf, M","type":"Markt"},"district":{"key":"09279","name":"Dingolfing-Landau","type":"Landkreis"},"federalState":{"key":"09","name":"Bayern"}},{"name":"Steinberg","postalCode":"94428","locality":"Eichendorf","municipality":{"key":"09279113","name":"Eichendorf, M","type":"Markt"},"district":{"key":"09279","name":"Dingolfing-Landau","type":"Landkreis"},"federalState":{"key":"09","name":"Bayern"}},{"name":"St.-Martins-Weg","postalCode":"94428","locality":"Eichendorf","municipality":{"key":"09279113","name":"Eichendorf, M","type":"Markt"},"district":{"key":"09279","name":"Dingolfing-Landau","type":"Landkreis"},"federalState":{"key":"09","name":"Bayern"}},{"name":"St.-Nikolaus-Str.","postalCode":"94428","locality":"Eichendorf","municipality":{"key":"09279113","name":"Eichendorf, M","type":"Markt"},"district":{"key":"09279","name":"Dingolfing-Landau","type":"Landkreis"},"federalState":{"key":"09","name":"Bayern"}},{"name":"Tannenstr.","postalCode":"94428","locality":"Eichendorf","municipality":{"key":"09279113","name":"Eichendorf, M","type":"Markt"},"district":{"key":"09279","name":"Dingolfing-Landau","type":"Landkreis"},"federalState":{"key":"09","name":"Bayern"}},{"name":"Taubenweg","postalCode":"94428","locality":"Eichendorf","municipality":{"key":"09279113","name":"Eichendorf, M","type":"Markt"},"district":{"key":"09279","name":"Dingolfing-Landau","type":"Landkreis"},"federalState":{"key":"09","name":"Bayern"}},{"name":"Thomasbach","postalCode":"94428","locality":"Eichendorf","municipality":{"key":"09279113","name":"Eichendorf, M","type":"Markt"},"district":{"key":"09279","name":"Dingolfing-Landau","type":"Landkreis"},"federalState":{"key":"09","name":"Bayern"}},{"name":"Tulpenweg","postalCode":"94428","locality":"Eichendorf","municipality":{"key":"09279113","name":"Eichendorf, M","type":"Markt"},"district":{"key":"09279","name":"Dingolfing-Landau","type":"Landkreis"},"federalState":{"key":"09","name":"Bayern"}},{"name":"Uferweg","postalCode":"94428","locality":"Eichendorf","municipality":{"key":"09279113","name":"Eichendorf, M","type":"Markt"},"district":{"key":"09279","name":"Dingolfing-Landau","type":"Landkreis"},"federalState":{"key":"09","name":"Bayern"}},{"name":"Unteranger","postalCode":"94428","locality":"Eichendorf","municipality":{"key":"09279113","name":"Eichendorf, M","type":"Markt"},"district":{"key":"09279","name":"Dingolfing-Landau","type":"Landkreis"},"federalState":{"key":"09","name":"Bayern"}},{"name":"Vilshofener Str.","postalCode":"94428","locality":"Eichendorf","municipality":{"key":"09279113","name":"Eichendorf, M","type":"Markt"},"district":{"key":"09279","name":"Dingolfing-Landau","type":"Landkreis"},"federalState":{"key":"09","name":"Bayern"}},{"name":"Voglau","postalCode":"94428","locality":"Eichendorf","municipality":{"key":"09279113","name":"Eichendorf, M","type":"Markt"},"district":{"key":"09279","name":"Dingolfing-Landau","type":"Landkreis"},"federalState":{"key":"09","name":"Bayern"}},{"name":"Waldweg","postalCode":"94428","locality":"Eichendorf","municipality":{"key":"09279113","name":"Eichendorf, M","type":"Markt"},"district":{"key":"09279","name":"Dingolfing-Landau","type":"Landkreis"},"federalState":{"key":"09","name":"Bayern"}},{"name":"Wannersdorf","postalCode":"94428","locality":"Eichendorf","municipality":{"key":"09279113","name":"Eichendorf, M","type":"Markt"},"district":{"key":"09279","name":"Dingolfing-Landau","type":"Landkreis"},"federalState":{"key":"09","name":"Bayern"}},{"name":"Wannersdorfer Str.","postalCode":"94428","locality":"Eichendorf","municipality":{"key":"09279113","name":"Eichendorf, M","type":"Markt"},"district":{"key":"09279","name":"Dingolfing-Landau","type":"Landkreis"},"federalState":{"key":"09","name":"Bayern"}},{"name":"Wauckstr.","postalCode":"94428","locality":"Eichendorf","municipality":{"key":"09279113","name":"Eichendorf, M","type":"Markt"},"district":{"key":"09279","name":"Dingolfing-Landau","type":"Landkreis"},"federalState":{"key":"09","name":"Bayern"}},{"name":"Wegnagl","postalCode":"94428","locality":"Eichendorf","municipality":{"key":"09279113","name":"Eichendorf, M","type":"Markt"},"district":{"key":"09279","name":"Dingolfing-Landau","type":"Landkreis"},"federalState":{"key":"09","name":"Bayern"}},{"name":"Wiesenweg","postalCode":"94428","locality":"Eichendorf","municipality":{"key":"09279113","name":"Eichendorf, M","type":"Markt"},"district":{"key":"09279","name":"Dingolfing-Landau","type":"Landkreis"},"federalState":{"key":"09","name":"Bayern"}},{"name":"Wildeneck","postalCode":"94428","locality":"Eichendorf","municipality":{"key":"09279113","name":"Eichendorf, M","type":"Markt"},"district":{"key":"09279","name":"Dingolfing-Landau","type":"Landkreis"},"federalState":{"key":"09","name":"Bayern"}},{"name":"Wirtsgasse","postalCode":"94428","locality":"Eichendorf","municipality":{"key":"09279113","name":"Eichendorf, M","type":"Markt"},"district":{"key":"09279","name":"Dingolfing-Landau","type":"Landkreis"},"federalState":{"key":"09","name":"Bayern"}},{"name":"Wisselsdorf","postalCode":"94428","locality":"Eichendorf","municipality":{"key":"09279113","name":"Eichendorf, M","type":"Markt"},"district":{"key":"09279","name":"Dingolfing-Landau","type":"Landkreis"},"federalState":{"key":"09","name":"Bayern"}},{"name":"Wisselsdorfer Str.","postalCode":"94428","locality":"Eichendorf","municipality":{"key":"09279113","name":"Eichendorf, M","type":"Markt"},"district":{"key":"09279","name":"Dingolfing-Landau","type":"Landkreis"},"federalState":{"key":"09","name":"Bayern"}},{"name":"Wochenweis","postalCode":"94428","locality":"Eichendorf","municipality":{"key":"09279113","name":"Eichendorf, M","type":"Markt"},"district":{"key":"09279","name":"Dingolfing-Landau","type":"Landkreis"},"federalState":{"key":"09","name":"Bayern"}},{"name":"Zeisigstr.","postalCode":"94428","locality":"Eichendorf","municipality":{"key":"09279113","name":"Eichendorf, M","type":"Markt"},"district":{"key":"09279","name":"Dingolfing-Landau","type":"Landkreis"},"federalState":{"key":"09","name":"Bayern"}},{"name":"Zeitlstadt","postalCode":"94428","locality":"Eichendorf","municipality":{"key":"09279113","name":"Eichendorf, M","type":"Markt"},"district":{"key":"09279","name":"Dingolfing-Landau","type":"Landkreis"},"federalState":{"key":"09","name":"Bayern"}},{"name":"Zum Anger","postalCode":"94428","locality":"Eichendorf","municipality":{"key":"09279113","name":"Eichendorf, M","type":"Markt"},"district":{"key":"09279","name":"Dingolfing-Landau","type":"Landkreis"},"federalState":{"key":"09","name":"Bayern"}},{"name":"Zur Mühle","postalCode":"94428","locality":"Eichendorf","municipality":{"key":"09279113","name":"Eichendorf, M","type":"Markt"},"district":{"key":"09279","name":"Dingolfing-Landau","type":"Landkreis"},"federalState":{"key":"09","name":"Bayern"}},]