[{"key":"10096725","name":"Avenue de Condémine","postalCode":"1135","locality":"Denens","commune":{"key":"5631","name":"Denens","shortName":"Denens"},"district":{"key":"2227","name":"District de Morges"},"canton":{"key":"22","code":"VD","name":"Vaud"},"status":"Real"},{"key":"10035687","name":"Chemin de Chapallaz","postalCode":"1135","locality":"Denens","commune":{"key":"5631","name":"Denens","shortName":"Denens"},"district":{"key":"2227","name":"District de Morges"},"canton":{"key":"22","code":"VD","name":"Vaud"},"status":"Real"},{"key":"10035688","name":"Chemin de Chatagny","postalCode":"1135","locality":"Denens","commune":{"key":"5631","name":"Denens","shortName":"Denens"},"district":{"key":"2227","name":"District de Morges"},"canton":{"key":"22","code":"VD","name":"Vaud"},"status":"Real"},{"key":"10096726","name":"Chemin de Ropre","postalCode":"1135","locality":"Denens","commune":{"key":"5631","name":"Denens","shortName":"Denens"},"district":{"key":"2227","name":"District de Morges"},"canton":{"key":"22","code":"VD","name":"Vaud"},"status":"Real"},{"key":"10196555","name":"Chemin des Cerisiers","postalCode":"1135","locality":"Denens","commune":{"key":"5631","name":"Denens","shortName":"Denens"},"district":{"key":"2227","name":"District de Morges"},"canton":{"key":"22","code":"VD","name":"Vaud"},"status":"Real"},{"key":"10068924","name":"Chemin des Chênes","postalCode":"1135","locality":"Denens","commune":{"key":"5631","name":"Denens","shortName":"Denens"},"district":{"key":"2227","name":"District de Morges"},"canton":{"key":"22","code":"VD","name":"Vaud"},"status":"Real"},{"key":"10140140","name":"Chemin des Fatourettes","postalCode":"1135","locality":"Denens","commune":{"key":"5631","name":"Denens","shortName":"Denens"},"district":{"key":"2227","name":"District de Morges"},"canton":{"key":"22","code":"VD","name":"Vaud"},"status":"Real"},{"key":"10035693","name":"Chemin des Granges","postalCode":"1135","locality":"Denens","commune":{"key":"5631","name":"Denens","shortName":"Denens"},"district":{"key":"2227","name":"District de Morges"},"canton":{"key":"22","code":"VD","name":"Vaud"},"status":"Real"},{"key":"10176869","name":"Chemin des Monneyres","postalCode":"1135","locality":"Denens","commune":{"key":"5631","name":"Denens","shortName":"Denens"},"district":{"key":"2227","name":"District de Morges"},"canton":{"key":"22","code":"VD","name":"Vaud"},"status":"Real"},{"key":"10096727","name":"Chemin des Poiriers","postalCode":"1135","locality":"Denens","commune":{"key":"5631","name":"Denens","shortName":"Denens"},"district":{"key":"2227","name":"District de Morges"},"canton":{"key":"22","code":"VD","name":"Vaud"},"status":"Real"},{"key":"10196041","name":"Chemin des Pruniers","postalCode":"1135","locality":"Denens","commune":{"key":"5631","name":"Denens","shortName":"Denens"},"district":{"key":"2227","name":"District de Morges"},"canton":{"key":"22","code":"VD","name":"Vaud"},"status":"Real"},{"key":"10035689","name":"Chemin des Raies","postalCode":"1135","locality":"Denens","commune":{"key":"5631","name":"Denens","shortName":"Denens"},"district":{"key":"2227","name":"District de Morges"},"canton":{"key":"22","code":"VD","name":"Vaud"},"status":"Real"},{"key":"10059602","name":"Chemin des Saugettes","postalCode":"1135","locality":"Denens","commune":{"key":"5631","name":"Denens","shortName":"Denens"},"district":{"key":"2227","name":"District de Morges"},"canton":{"key":"22","code":"VD","name":"Vaud"},"status":"Real"},{"key":"10196042","name":"Chemin des Vignes","postalCode":"1135","locality":"Denens","commune":{"key":"5631","name":"Denens","shortName":"Denens"},"district":{"key":"2227","name":"District de Morges"},"canton":{"key":"22","code":"VD","name":"Vaud"},"status":"Real"},{"key":"10035690","name":"Chemin du Bonderet","postalCode":"1135","locality":"Denens","commune":{"key":"5631","name":"Denens","shortName":"Denens"},"district":{"key":"2227","name":"District de Morges"},"canton":{"key":"22","code":"VD","name":"Vaud"},"status":"Real"},{"key":"10035686","name":"Chemin du Bugnon","postalCode":"1135","locality":"Denens","commune":{"key":"5631","name":"Denens","shortName":"Denens"},"district":{"key":"2227","name":"District de Morges"},"canton":{"key":"22","code":"VD","name":"Vaud"},"status":"Real"},{"key":"10035691","name":"Chemin du Jura","postalCode":"1135","locality":"Denens","commune":{"key":"5631","name":"Denens","shortName":"Denens"},"district":{"key":"2227","name":"District de Morges"},"canton":{"key":"22","code":"VD","name":"Vaud"},"status":"Real"},{"key":"10154176","name":"Chemin du Léman","postalCode":"1135","locality":"Denens","commune":{"key":"5631","name":"Denens","shortName":"Denens"},"district":{"key":"2227","name":"District de Morges"},"canton":{"key":"22","code":"VD","name":"Vaud"},"status":"Real"},{"key":"10196040","name":"Chemin Prairie du Bugnon","postalCode":"1135","locality":"Denens","commune":{"key":"5631","name":"Denens","shortName":"Denens"},"district":{"key":"2227","name":"District de Morges"},"canton":{"key":"22","code":"VD","name":"Vaud"},"status":"Real"},{"key":"10211527","name":"Clos des Cigognes","postalCode":"1135","locality":"Denens","commune":{"key":"5631","name":"Denens","shortName":"Denens"},"district":{"key":"2227","name":"District de Morges"},"canton":{"key":"22","code":"VD","name":"Vaud"},"status":"Real"},{"key":"10136472","name":"Les Vergers du Château","postalCode":"1135","locality":"Denens","commune":{"key":"5631","name":"Denens","shortName":"Denens"},"district":{"key":"2227","name":"District de Morges"},"canton":{"key":"22","code":"VD","name":"Vaud"},"status":"Real"},{"key":"10035694","name":"Route Cantonale","postalCode":"1135","locality":"Denens","commune":{"key":"5631","name":"Denens","shortName":"Denens"},"district":{"key":"2227","name":"District de Morges"},"canton":{"key":"22","code":"VD","name":"Vaud"},"status":"Real"},{"key":"10096729","name":"Route des Cigognes","postalCode":"1135","locality":"Denens","commune":{"key":"5631","name":"Denens","shortName":"Denens"},"district":{"key":"2227","name":"District de Morges"},"canton":{"key":"22","code":"VD","name":"Vaud"},"status":"Real"},{"key":"10176870","name":"Route du Ministre","postalCode":"1135","locality":"Denens","commune":{"key":"5631","name":"Denens","shortName":"Denens"},"district":{"key":"2227","name":"District de Morges"},"canton":{"key":"22","code":"VD","name":"Vaud"},"status":"Real"},{"key":"10068925","name":"Rue de la Cité","postalCode":"1135","locality":"Denens","commune":{"key":"5631","name":"Denens","shortName":"Denens"},"district":{"key":"2227","name":"District de Morges"},"canton":{"key":"22","code":"VD","name":"Vaud"},"status":"Real"},{"key":"10035696","name":"Rue de la Jalousie","postalCode":"1135","locality":"Denens","commune":{"key":"5631","name":"Denens","shortName":"Denens"},"district":{"key":"2227","name":"District de Morges"},"canton":{"key":"22","code":"VD","name":"Vaud"},"status":"Real"},{"key":"10096730","name":"Rue du Chauchy","postalCode":"1135","locality":"Denens","commune":{"key":"5631","name":"Denens","shortName":"Denens"},"district":{"key":"2227","name":"District de Morges"},"canton":{"key":"22","code":"VD","name":"Vaud"},"status":"Real"},{"key":"10035697","name":"Ruelle du Château","postalCode":"1135","locality":"Denens","commune":{"key":"5631","name":"Denens","shortName":"Denens"},"district":{"key":"2227","name":"District de Morges"},"canton":{"key":"22","code":"VD","name":"Vaud"},"status":"Real"},{"key":"10035695","name":"Ru Michel","postalCode":"1135","locality":"Denens","commune":{"key":"5631","name":"Denens","shortName":"Denens"},"district":{"key":"2227","name":"District de Morges"},"canton":{"key":"22","code":"VD","name":"Vaud"},"status":"Real"},]