[{"name":"Achtern Hoff","postalCode":"21274","locality":"Undeloh","municipality":{"key":"03353036","name":"Undeloh","type":"Kreisangehörige_Gemeinde"},"district":{"key":"03353","name":"Harburg","type":"Landkreis"},"federalState":{"key":"03","name":"Niedersachsen"}},{"name":"Am Brink","postalCode":"21274","locality":"Undeloh","municipality":{"key":"03353036","name":"Undeloh","type":"Kreisangehörige_Gemeinde"},"district":{"key":"03353","name":"Harburg","type":"Landkreis"},"federalState":{"key":"03","name":"Niedersachsen"}},{"name":"Am Höllenhoff","postalCode":"21274","locality":"Undeloh","municipality":{"key":"03353036","name":"Undeloh","type":"Kreisangehörige_Gemeinde"},"district":{"key":"03353","name":"Harburg","type":"Landkreis"},"federalState":{"key":"03","name":"Niedersachsen"}},{"name":"Am Teich","postalCode":"21274","locality":"Undeloh","municipality":{"key":"03353036","name":"Undeloh","type":"Kreisangehörige_Gemeinde"},"district":{"key":"03353","name":"Harburg","type":"Landkreis"},"federalState":{"key":"03","name":"Niedersachsen"}},{"name":"Buhrkamp","postalCode":"21274","locality":"Undeloh","municipality":{"key":"03353036","name":"Undeloh","type":"Kreisangehörige_Gemeinde"},"district":{"key":"03353","name":"Harburg","type":"Landkreis"},"federalState":{"key":"03","name":"Niedersachsen"}},{"name":"Donauwörther Str.","postalCode":"86655","locality":"Harburg (Schwaben)","municipality":{"key":"09779155","name":"Harburg (Schwaben), St","type":"Stadt"},"district":{"key":"09779","name":"Donau-Ries","type":"Landkreis"},"federalState":{"key":"09","name":"Bayern"}},{"name":"Dorfstr.","postalCode":"86655","locality":"Harburg (Schwaben)","municipality":{"key":"09779155","name":"Harburg (Schwaben), St","type":"Stadt"},"district":{"key":"09779","name":"Donau-Ries","type":"Landkreis"},"federalState":{"key":"09","name":"Bayern"}},{"name":"Dürrgasse","postalCode":"86655","locality":"Harburg (Schwaben)","municipality":{"key":"09779155","name":"Harburg (Schwaben), St","type":"Stadt"},"district":{"key":"09779","name":"Donau-Ries","type":"Landkreis"},"federalState":{"key":"09","name":"Bayern"}},{"name":"Egelseestr.","postalCode":"86655","locality":"Harburg (Schwaben)","municipality":{"key":"09779155","name":"Harburg (Schwaben), St","type":"Stadt"},"district":{"key":"09779","name":"Donau-Ries","type":"Landkreis"},"federalState":{"key":"09","name":"Bayern"}},{"name":"Eichendorffstr.","postalCode":"86655","locality":"Harburg (Schwaben)","municipality":{"key":"09779155","name":"Harburg (Schwaben), St","type":"Stadt"},"district":{"key":"09779","name":"Donau-Ries","type":"Landkreis"},"federalState":{"key":"09","name":"Bayern"}},{"name":"Eichenstr.","postalCode":"86655","locality":"Harburg (Schwaben)","municipality":{"key":"09779155","name":"Harburg (Schwaben), St","type":"Stadt"},"district":{"key":"09779","name":"Donau-Ries","type":"Landkreis"},"federalState":{"key":"09","name":"Bayern"}},{"name":"Erich-M.-Müller-Str.","postalCode":"86655","locality":"Harburg (Schwaben)","municipality":{"key":"09779155","name":"Harburg (Schwaben), St","type":"Stadt"},"district":{"key":"09779","name":"Donau-Ries","type":"Landkreis"},"federalState":{"key":"09","name":"Bayern"}},{"name":"Eschenlohrstr.","postalCode":"86655","locality":"Harburg (Schwaben)","municipality":{"key":"09779155","name":"Harburg (Schwaben), St","type":"Stadt"},"district":{"key":"09779","name":"Donau-Ries","type":"Landkreis"},"federalState":{"key":"09","name":"Bayern"}},{"name":"Espenstr.","postalCode":"86655","locality":"Harburg (Schwaben)","municipality":{"key":"09779155","name":"Harburg (Schwaben), St","type":"Stadt"},"district":{"key":"09779","name":"Donau-Ries","type":"Landkreis"},"federalState":{"key":"09","name":"Bayern"}},{"name":"Fünf Buchen","postalCode":"21274","locality":"Undeloh","municipality":{"key":"03353036","name":"Undeloh","type":"Kreisangehörige_Gemeinde"},"district":{"key":"03353","name":"Harburg","type":"Landkreis"},"federalState":{"key":"03","name":"Niedersachsen"}},{"name":"Gartenstr.","postalCode":"86655","locality":"Harburg (Schwaben)","municipality":{"key":"09779155","name":"Harburg (Schwaben), St","type":"Stadt"},"district":{"key":"09779","name":"Donau-Ries","type":"Landkreis"},"federalState":{"key":"09","name":"Bayern"}},{"name":"Gässle","postalCode":"86655","locality":"Harburg (Schwaben)","municipality":{"key":"09779155","name":"Harburg (Schwaben), St","type":"Stadt"},"district":{"key":"09779","name":"Donau-Ries","type":"Landkreis"},"federalState":{"key":"09","name":"Bayern"}},{"name":"Georgenstr.","postalCode":"86655","locality":"Harburg (Schwaben)","municipality":{"key":"09779155","name":"Harburg (Schwaben), St","type":"Stadt"},"district":{"key":"09779","name":"Donau-Ries","type":"Landkreis"},"federalState":{"key":"09","name":"Bayern"}},{"name":"Georg-Karg-Weg","postalCode":"86655","locality":"Harburg (Schwaben)","municipality":{"key":"09779155","name":"Harburg (Schwaben), St","type":"Stadt"},"district":{"key":"09779","name":"Donau-Ries","type":"Landkreis"},"federalState":{"key":"09","name":"Bayern"}},{"name":"Goethestr.","postalCode":"86655","locality":"Harburg (Schwaben)","municipality":{"key":"09779155","name":"Harburg (Schwaben), St","type":"Stadt"},"district":{"key":"09779","name":"Donau-Ries","type":"Landkreis"},"federalState":{"key":"09","name":"Bayern"}},{"name":"Grasstr.","postalCode":"86655","locality":"Harburg (Schwaben)","municipality":{"key":"09779155","name":"Harburg (Schwaben), St","type":"Stadt"},"district":{"key":"09779","name":"Donau-Ries","type":"Landkreis"},"federalState":{"key":"09","name":"Bayern"}},{"name":"Griesweg","postalCode":"86655","locality":"Harburg (Schwaben)","municipality":{"key":"09779155","name":"Harburg (Schwaben), St","type":"Stadt"},"district":{"key":"09779","name":"Donau-Ries","type":"Landkreis"},"federalState":{"key":"09","name":"Bayern"}},{"name":"Guigenweg","postalCode":"86655","locality":"Harburg (Schwaben)","municipality":{"key":"09779155","name":"Harburg (Schwaben), St","type":"Stadt"},"district":{"key":"09779","name":"Donau-Ries","type":"Landkreis"},"federalState":{"key":"09","name":"Bayern"}},{"name":"Gunzenheimer Str.","postalCode":"86655","locality":"Harburg (Schwaben)","municipality":{"key":"09779155","name":"Harburg (Schwaben), St","type":"Stadt"},"district":{"key":"09779","name":"Donau-Ries","type":"Landkreis"},"federalState":{"key":"09","name":"Bayern"}},{"name":"Heimbucher Str.","postalCode":"21274","locality":"Undeloh","municipality":{"key":"03353036","name":"Undeloh","type":"Kreisangehörige_Gemeinde"},"district":{"key":"03353","name":"Harburg","type":"Landkreis"},"federalState":{"key":"03","name":"Niedersachsen"}},{"name":"Im Söhlen","postalCode":"21274","locality":"Undeloh","municipality":{"key":"03353036","name":"Undeloh","type":"Kreisangehörige_Gemeinde"},"district":{"key":"03353","name":"Harburg","type":"Landkreis"},"federalState":{"key":"03","name":"Niedersachsen"}},{"name":"Judengasse","postalCode":"86655","locality":"Harburg (Schwaben)","municipality":{"key":"09779155","name":"Harburg (Schwaben), St","type":"Stadt"},"district":{"key":"09779","name":"Donau-Ries","type":"Landkreis"},"federalState":{"key":"09","name":"Bayern"}},{"name":"Jurastr.","postalCode":"86655","locality":"Harburg (Schwaben)","municipality":{"key":"09779155","name":"Harburg (Schwaben), St","type":"Stadt"},"district":{"key":"09779","name":"Donau-Ries","type":"Landkreis"},"federalState":{"key":"09","name":"Bayern"}},{"name":"Kerkstieg","postalCode":"21274","locality":"Undeloh","municipality":{"key":"03353036","name":"Undeloh","type":"Kreisangehörige_Gemeinde"},"district":{"key":"03353","name":"Harburg","type":"Landkreis"},"federalState":{"key":"03","name":"Niedersachsen"}},{"name":"Lehmkuhle","postalCode":"21274","locality":"Undeloh","municipality":{"key":"03353036","name":"Undeloh","type":"Kreisangehörige_Gemeinde"},"district":{"key":"03353","name":"Harburg","type":"Landkreis"},"federalState":{"key":"03","name":"Niedersachsen"}},{"name":"Meningen","postalCode":"21274","locality":"Undeloh","municipality":{"key":"03353036","name":"Undeloh","type":"Kreisangehörige_Gemeinde"},"district":{"key":"03353","name":"Harburg","type":"Landkreis"},"federalState":{"key":"03","name":"Niedersachsen"}},{"name":"Meninger Weg","postalCode":"21274","locality":"Undeloh","municipality":{"key":"03353036","name":"Undeloh","type":"Kreisangehörige_Gemeinde"},"district":{"key":"03353","name":"Harburg","type":"Landkreis"},"federalState":{"key":"03","name":"Niedersachsen"}},{"name":"Neunstücken","postalCode":"21274","locality":"Undeloh","municipality":{"key":"03353036","name":"Undeloh","type":"Kreisangehörige_Gemeinde"},"district":{"key":"03353","name":"Harburg","type":"Landkreis"},"federalState":{"key":"03","name":"Niedersachsen"}},{"name":"Osterdiecksfeld","postalCode":"21274","locality":"Undeloh","municipality":{"key":"03353036","name":"Undeloh","type":"Kreisangehörige_Gemeinde"},"district":{"key":"03353","name":"Harburg","type":"Landkreis"},"federalState":{"key":"03","name":"Niedersachsen"}},{"name":"Pastorenweg","postalCode":"21274","locality":"Undeloh","municipality":{"key":"03353036","name":"Undeloh","type":"Kreisangehörige_Gemeinde"},"district":{"key":"03353","name":"Harburg","type":"Landkreis"},"federalState":{"key":"03","name":"Niedersachsen"}},{"name":"Radenbachweg","postalCode":"21274","locality":"Undeloh","municipality":{"key":"03353036","name":"Undeloh","type":"Kreisangehörige_Gemeinde"},"district":{"key":"03353","name":"Harburg","type":"Landkreis"},"federalState":{"key":"03","name":"Niedersachsen"}},{"name":"Radweg Ollsen-Undeloh","postalCode":"21274","locality":"Undeloh","municipality":{"key":"03353036","name":"Undeloh","type":"Kreisangehörige_Gemeinde"},"district":{"key":"03353","name":"Harburg","type":"Landkreis"},"federalState":{"key":"03","name":"Niedersachsen"}},{"name":"Stiller Weg","postalCode":"21274","locality":"Undeloh","municipality":{"key":"03353036","name":"Undeloh","type":"Kreisangehörige_Gemeinde"},"district":{"key":"03353","name":"Harburg","type":"Landkreis"},"federalState":{"key":"03","name":"Niedersachsen"}},{"name":"Stiller Winkel","postalCode":"21274","locality":"Undeloh","municipality":{"key":"03353036","name":"Undeloh","type":"Kreisangehörige_Gemeinde"},"district":{"key":"03353","name":"Harburg","type":"Landkreis"},"federalState":{"key":"03","name":"Niedersachsen"}},{"name":"Thonhof","postalCode":"21274","locality":"Undeloh","municipality":{"key":"03353036","name":"Undeloh","type":"Kreisangehörige_Gemeinde"},"district":{"key":"03353","name":"Harburg","type":"Landkreis"},"federalState":{"key":"03","name":"Niedersachsen"}},{"name":"Uhlandstr.","postalCode":"86655","locality":"Harburg (Schwaben)","municipality":{"key":"09779155","name":"Harburg (Schwaben), St","type":"Stadt"},"district":{"key":"09779","name":"Donau-Ries","type":"Landkreis"},"federalState":{"key":"09","name":"Bayern"}},{"name":"Untere Breige","postalCode":"86655","locality":"Harburg (Schwaben)","municipality":{"key":"09779155","name":"Harburg (Schwaben), St","type":"Stadt"},"district":{"key":"09779","name":"Donau-Ries","type":"Landkreis"},"federalState":{"key":"09","name":"Bayern"}},{"name":"Unterer Leitenberg","postalCode":"86655","locality":"Harburg (Schwaben)","municipality":{"key":"09779155","name":"Harburg (Schwaben), St","type":"Stadt"},"district":{"key":"09779","name":"Donau-Ries","type":"Landkreis"},"federalState":{"key":"09","name":"Bayern"}},{"name":"Untere Wiedenäcker","postalCode":"86655","locality":"Harburg (Schwaben)","municipality":{"key":"09779155","name":"Harburg (Schwaben), St","type":"Stadt"},"district":{"key":"09779","name":"Donau-Ries","type":"Landkreis"},"federalState":{"key":"09","name":"Bayern"}},{"name":"Waidmannsruh","postalCode":"21274","locality":"Undeloh","municipality":{"key":"03353036","name":"Undeloh","type":"Kreisangehörige_Gemeinde"},"district":{"key":"03353","name":"Harburg","type":"Landkreis"},"federalState":{"key":"03","name":"Niedersachsen"}},{"name":"Weseler Dorfstr.","postalCode":"21274","locality":"Undeloh","municipality":{"key":"03353036","name":"Undeloh","type":"Kreisangehörige_Gemeinde"},"district":{"key":"03353","name":"Harburg","type":"Landkreis"},"federalState":{"key":"03","name":"Niedersachsen"}},{"name":"Weseler Heide","postalCode":"21274","locality":"Undeloh","municipality":{"key":"03353036","name":"Undeloh","type":"Kreisangehörige_Gemeinde"},"district":{"key":"03353","name":"Harburg","type":"Landkreis"},"federalState":{"key":"03","name":"Niedersachsen"}},{"name":"Westerheide","postalCode":"21274","locality":"Undeloh","municipality":{"key":"03353036","name":"Undeloh","type":"Kreisangehörige_Gemeinde"},"district":{"key":"03353","name":"Harburg","type":"Landkreis"},"federalState":{"key":"03","name":"Niedersachsen"}},{"name":"Wilseder Str.","postalCode":"21274","locality":"Undeloh","municipality":{"key":"03353036","name":"Undeloh","type":"Kreisangehörige_Gemeinde"},"district":{"key":"03353","name":"Harburg","type":"Landkreis"},"federalState":{"key":"03","name":"Niedersachsen"}},{"name":"Witten Barg","postalCode":"21274","locality":"Undeloh","municipality":{"key":"03353036","name":"Undeloh","type":"Kreisangehörige_Gemeinde"},"district":{"key":"03353","name":"Harburg","type":"Landkreis"},"federalState":{"key":"03","name":"Niedersachsen"}},{"name":"Zum Loh","postalCode":"21274","locality":"Undeloh","municipality":{"key":"03353036","name":"Undeloh","type":"Kreisangehörige_Gemeinde"},"district":{"key":"03353","name":"Harburg","type":"Landkreis"},"federalState":{"key":"03","name":"Niedersachsen"}},{"name":"Zum Weselbach","postalCode":"21274","locality":"Undeloh","municipality":{"key":"03353036","name":"Undeloh","type":"Kreisangehörige_Gemeinde"},"district":{"key":"03353","name":"Harburg","type":"Landkreis"},"federalState":{"key":"03","name":"Niedersachsen"}},{"name":"Zur Dorfeiche","postalCode":"21274","locality":"Undeloh","municipality":{"key":"03353036","name":"Undeloh","type":"Kreisangehörige_Gemeinde"},"district":{"key":"03353","name":"Harburg","type":"Landkreis"},"federalState":{"key":"03","name":"Niedersachsen"}},]