[{"name":"Ahornweg","postalCode":"74248","locality":"Ellhofen","municipality":{"key":"08125024","name":"Ellhofen","type":"Kreisangehörige_Gemeinde"},"district":{"key":"08125","name":"Heilbronn","type":"Landkreis"},"federalState":{"key":"08","name":"Baden-Württemberg"}},{"name":"Alemannenweg","postalCode":"74248","locality":"Ellhofen","municipality":{"key":"08125024","name":"Ellhofen","type":"Kreisangehörige_Gemeinde"},"district":{"key":"08125","name":"Heilbronn","type":"Landkreis"},"federalState":{"key":"08","name":"Baden-Württemberg"}},{"name":"Am Autobahnkreuz","postalCode":"74248","locality":"Ellhofen","municipality":{"key":"08125024","name":"Ellhofen","type":"Kreisangehörige_Gemeinde"},"district":{"key":"08125","name":"Heilbronn","type":"Landkreis"},"federalState":{"key":"08","name":"Baden-Württemberg"}},{"name":"Amselweg","postalCode":"74248","locality":"Ellhofen","municipality":{"key":"08125024","name":"Ellhofen","type":"Kreisangehörige_Gemeinde"},"district":{"key":"08125","name":"Heilbronn","type":"Landkreis"},"federalState":{"key":"08","name":"Baden-Württemberg"}},{"name":"Asternweg","postalCode":"74248","locality":"Ellhofen","municipality":{"key":"08125024","name":"Ellhofen","type":"Kreisangehörige_Gemeinde"},"district":{"key":"08125","name":"Heilbronn","type":"Landkreis"},"federalState":{"key":"08","name":"Baden-Württemberg"}},{"name":"Austr.","postalCode":"74248","locality":"Ellhofen","municipality":{"key":"08125024","name":"Ellhofen","type":"Kreisangehörige_Gemeinde"},"district":{"key":"08125","name":"Heilbronn","type":"Landkreis"},"federalState":{"key":"08","name":"Baden-Württemberg"}},{"name":"Bahnhofstr.","postalCode":"74248","locality":"Ellhofen","municipality":{"key":"08125024","name":"Ellhofen","type":"Kreisangehörige_Gemeinde"},"district":{"key":"08125","name":"Heilbronn","type":"Landkreis"},"federalState":{"key":"08","name":"Baden-Württemberg"}},{"name":"Bergstr.","postalCode":"74248","locality":"Ellhofen","municipality":{"key":"08125024","name":"Ellhofen","type":"Kreisangehörige_Gemeinde"},"district":{"key":"08125","name":"Heilbronn","type":"Landkreis"},"federalState":{"key":"08","name":"Baden-Württemberg"}},{"name":"Binweg","postalCode":"74248","locality":"Ellhofen","municipality":{"key":"08125024","name":"Ellhofen","type":"Kreisangehörige_Gemeinde"},"district":{"key":"08125","name":"Heilbronn","type":"Landkreis"},"federalState":{"key":"08","name":"Baden-Württemberg"}},{"name":"Bleichweg","postalCode":"74248","locality":"Ellhofen","municipality":{"key":"08125024","name":"Ellhofen","type":"Kreisangehörige_Gemeinde"},"district":{"key":"08125","name":"Heilbronn","type":"Landkreis"},"federalState":{"key":"08","name":"Baden-Württemberg"}},{"name":"Blumenstr.","postalCode":"74248","locality":"Ellhofen","municipality":{"key":"08125024","name":"Ellhofen","type":"Kreisangehörige_Gemeinde"},"district":{"key":"08125","name":"Heilbronn","type":"Landkreis"},"federalState":{"key":"08","name":"Baden-Württemberg"}},{"name":"Brücklesäckerstr.","postalCode":"74248","locality":"Ellhofen","municipality":{"key":"08125024","name":"Ellhofen","type":"Kreisangehörige_Gemeinde"},"district":{"key":"08125","name":"Heilbronn","type":"Landkreis"},"federalState":{"key":"08","name":"Baden-Württemberg"}},{"name":"Cäcilienbrunnen","postalCode":"74074","locality":"Heilbronn","municipality":{"key":"08121000","name":"Heilbronn, Universitätsstadt","type":"Stadtkreis"},"district":{"key":"08121","name":"Heilbronn, Stadtkreis","type":"Stadtkreis"},"federalState":{"key":"08","name":"Baden-Württemberg"}},{"name":"Cäcilienbrunnenstr.","postalCode":"74074","locality":"Heilbronn","municipality":{"key":"08121000","name":"Heilbronn, Universitätsstadt","type":"Stadtkreis"},"district":{"key":"08121","name":"Heilbronn, Stadtkreis","type":"Stadtkreis"},"federalState":{"key":"08","name":"Baden-Württemberg"}},{"name":"Cäcilienstr.","postalCode":"74072","locality":"Heilbronn","municipality":{"key":"08121000","name":"Heilbronn, Universitätsstadt","type":"Stadtkreis"},"district":{"key":"08121","name":"Heilbronn, Stadtkreis","type":"Stadtkreis"},"federalState":{"key":"08","name":"Baden-Württemberg"}},{"name":"Campuspark","postalCode":"74076","locality":"Heilbronn","municipality":{"key":"08121000","name":"Heilbronn, Universitätsstadt","type":"Stadtkreis"},"district":{"key":"08121","name":"Heilbronn, Stadtkreis","type":"Stadtkreis"},"federalState":{"key":"08","name":"Baden-Württemberg"}},{"name":"Carl-Zeiss-Str.","postalCode":"74078","locality":"Heilbronn","municipality":{"key":"08121000","name":"Heilbronn, Universitätsstadt","type":"Stadtkreis"},"district":{"key":"08121","name":"Heilbronn, Stadtkreis","type":"Stadtkreis"},"federalState":{"key":"08","name":"Baden-Württemberg"}},{"name":"Charlottenstr.","postalCode":"74074","locality":"Heilbronn","municipality":{"key":"08121000","name":"Heilbronn, Universitätsstadt","type":"Stadtkreis"},"district":{"key":"08121","name":"Heilbronn, Stadtkreis","type":"Stadtkreis"},"federalState":{"key":"08","name":"Baden-Württemberg"}},{"name":"Charlottenstr.","postalCode":"74081","locality":"Heilbronn","municipality":{"key":"08121000","name":"Heilbronn, Universitätsstadt","type":"Stadtkreis"},"district":{"key":"08121","name":"Heilbronn, Stadtkreis","type":"Stadtkreis"},"federalState":{"key":"08","name":"Baden-Württemberg"}},{"name":"Christian-Leichtle-Str.","postalCode":"74081","locality":"Heilbronn","municipality":{"key":"08121000","name":"Heilbronn, Universitätsstadt","type":"Stadtkreis"},"district":{"key":"08121","name":"Heilbronn, Stadtkreis","type":"Stadtkreis"},"federalState":{"key":"08","name":"Baden-Württemberg"}},{"name":"Christophplatz","postalCode":"74076","locality":"Heilbronn","municipality":{"key":"08121000","name":"Heilbronn, Universitätsstadt","type":"Stadtkreis"},"district":{"key":"08121","name":"Heilbronn, Stadtkreis","type":"Stadtkreis"},"federalState":{"key":"08","name":"Baden-Württemberg"}},{"name":"Christophstr.","postalCode":"74076","locality":"Heilbronn","municipality":{"key":"08121000","name":"Heilbronn, Universitätsstadt","type":"Stadtkreis"},"district":{"key":"08121","name":"Heilbronn, Stadtkreis","type":"Stadtkreis"},"federalState":{"key":"08","name":"Baden-Württemberg"}},{"name":"Clußstr.","postalCode":"74074","locality":"Heilbronn","municipality":{"key":"08121000","name":"Heilbronn, Universitätsstadt","type":"Stadtkreis"},"district":{"key":"08121","name":"Heilbronn, Stadtkreis","type":"Stadtkreis"},"federalState":{"key":"08","name":"Baden-Württemberg"}},{"name":"Cronbergstr.","postalCode":"74081","locality":"Heilbronn","municipality":{"key":"08121000","name":"Heilbronn, Universitätsstadt","type":"Stadtkreis"},"district":{"key":"08121","name":"Heilbronn, Stadtkreis","type":"Stadtkreis"},"federalState":{"key":"08","name":"Baden-Württemberg"}},{"name":"Dammbacherstr.","postalCode":"74248","locality":"Ellhofen","municipality":{"key":"08125024","name":"Ellhofen","type":"Kreisangehörige_Gemeinde"},"district":{"key":"08125","name":"Heilbronn","type":"Landkreis"},"federalState":{"key":"08","name":"Baden-Württemberg"}},{"name":"Dammstr.","postalCode":"74248","locality":"Ellhofen","municipality":{"key":"08125024","name":"Ellhofen","type":"Kreisangehörige_Gemeinde"},"district":{"key":"08125","name":"Heilbronn","type":"Landkreis"},"federalState":{"key":"08","name":"Baden-Württemberg"}},{"name":"Dorfäckerstr.","postalCode":"74248","locality":"Ellhofen","municipality":{"key":"08125024","name":"Ellhofen","type":"Kreisangehörige_Gemeinde"},"district":{"key":"08125","name":"Heilbronn","type":"Landkreis"},"federalState":{"key":"08","name":"Baden-Württemberg"}},{"name":"Drei Eichen","postalCode":"74248","locality":"Ellhofen","municipality":{"key":"08125024","name":"Ellhofen","type":"Kreisangehörige_Gemeinde"},"district":{"key":"08125","name":"Heilbronn","type":"Landkreis"},"federalState":{"key":"08","name":"Baden-Württemberg"}},{"name":"Ellbachweg","postalCode":"74248","locality":"Ellhofen","municipality":{"key":"08125024","name":"Ellhofen","type":"Kreisangehörige_Gemeinde"},"district":{"key":"08125","name":"Heilbronn","type":"Landkreis"},"federalState":{"key":"08","name":"Baden-Württemberg"}},{"name":"Erlenbacher Weg","postalCode":"74248","locality":"Ellhofen","municipality":{"key":"08125024","name":"Ellhofen","type":"Kreisangehörige_Gemeinde"},"district":{"key":"08125","name":"Heilbronn","type":"Landkreis"},"federalState":{"key":"08","name":"Baden-Württemberg"}},{"name":"Eulenbergstr.","postalCode":"74248","locality":"Ellhofen","municipality":{"key":"08125024","name":"Ellhofen","type":"Kreisangehörige_Gemeinde"},"district":{"key":"08125","name":"Heilbronn","type":"Landkreis"},"federalState":{"key":"08","name":"Baden-Württemberg"}},{"name":"Finkenstr.","postalCode":"74248","locality":"Ellhofen","municipality":{"key":"08125024","name":"Ellhofen","type":"Kreisangehörige_Gemeinde"},"district":{"key":"08125","name":"Heilbronn","type":"Landkreis"},"federalState":{"key":"08","name":"Baden-Württemberg"}},{"name":"Frankenstr.","postalCode":"74248","locality":"Ellhofen","municipality":{"key":"08125024","name":"Ellhofen","type":"Kreisangehörige_Gemeinde"},"district":{"key":"08125","name":"Heilbronn","type":"Landkreis"},"federalState":{"key":"08","name":"Baden-Württemberg"}},{"name":"Friedhofstr.","postalCode":"74248","locality":"Ellhofen","municipality":{"key":"08125024","name":"Ellhofen","type":"Kreisangehörige_Gemeinde"},"district":{"key":"08125","name":"Heilbronn","type":"Landkreis"},"federalState":{"key":"08","name":"Baden-Württemberg"}},{"name":"Gagernbergweg","postalCode":"74189","locality":"Ellhofen","municipality":{"key":"08125024","name":"Ellhofen","type":"Kreisangehörige_Gemeinde"},"district":{"key":"08125","name":"Heilbronn","type":"Landkreis"},"federalState":{"key":"08","name":"Baden-Württemberg"}},{"name":"Gartenstr.","postalCode":"74248","locality":"Ellhofen","municipality":{"key":"08125024","name":"Ellhofen","type":"Kreisangehörige_Gemeinde"},"district":{"key":"08125","name":"Heilbronn","type":"Landkreis"},"federalState":{"key":"08","name":"Baden-Württemberg"}},{"name":"Geißgrabenstr.","postalCode":"74248","locality":"Ellhofen","municipality":{"key":"08125024","name":"Ellhofen","type":"Kreisangehörige_Gemeinde"},"district":{"key":"08125","name":"Heilbronn","type":"Landkreis"},"federalState":{"key":"08","name":"Baden-Württemberg"}},{"name":"Grantschener Str.","postalCode":"74248","locality":"Ellhofen","municipality":{"key":"08125024","name":"Ellhofen","type":"Kreisangehörige_Gemeinde"},"district":{"key":"08125","name":"Heilbronn","type":"Landkreis"},"federalState":{"key":"08","name":"Baden-Württemberg"}},{"name":"Häldenstr.","postalCode":"74248","locality":"Ellhofen","municipality":{"key":"08125024","name":"Ellhofen","type":"Kreisangehörige_Gemeinde"},"district":{"key":"08125","name":"Heilbronn","type":"Landkreis"},"federalState":{"key":"08","name":"Baden-Württemberg"}},{"name":"Haller Str.","postalCode":"74248","locality":"Ellhofen","municipality":{"key":"08125024","name":"Ellhofen","type":"Kreisangehörige_Gemeinde"},"district":{"key":"08125","name":"Heilbronn","type":"Landkreis"},"federalState":{"key":"08","name":"Baden-Württemberg"}},{"name":"Hauptstr.","postalCode":"74248","locality":"Ellhofen","municipality":{"key":"08125024","name":"Ellhofen","type":"Kreisangehörige_Gemeinde"},"district":{"key":"08125","name":"Heilbronn","type":"Landkreis"},"federalState":{"key":"08","name":"Baden-Württemberg"}},{"name":"Heilbronner Str.","postalCode":"74248","locality":"Ellhofen","municipality":{"key":"08125024","name":"Ellhofen","type":"Kreisangehörige_Gemeinde"},"district":{"key":"08125","name":"Heilbronn","type":"Landkreis"},"federalState":{"key":"08","name":"Baden-Württemberg"}},{"name":"Herbststr.","postalCode":"74248","locality":"Ellhofen","municipality":{"key":"08125024","name":"Ellhofen","type":"Kreisangehörige_Gemeinde"},"district":{"key":"08125","name":"Heilbronn","type":"Landkreis"},"federalState":{"key":"08","name":"Baden-Württemberg"}},{"name":"Hintere Str.","postalCode":"74248","locality":"Ellhofen","municipality":{"key":"08125024","name":"Ellhofen","type":"Kreisangehörige_Gemeinde"},"district":{"key":"08125","name":"Heilbronn","type":"Landkreis"},"federalState":{"key":"08","name":"Baden-Württemberg"}},{"name":"Höflesäckerstr.","postalCode":"74248","locality":"Ellhofen","municipality":{"key":"08125024","name":"Ellhofen","type":"Kreisangehörige_Gemeinde"},"district":{"key":"08125","name":"Heilbronn","type":"Landkreis"},"federalState":{"key":"08","name":"Baden-Württemberg"}},{"name":"Hüttbergstr.","postalCode":"74248","locality":"Ellhofen","municipality":{"key":"08125024","name":"Ellhofen","type":"Kreisangehörige_Gemeinde"},"district":{"key":"08125","name":"Heilbronn","type":"Landkreis"},"federalState":{"key":"08","name":"Baden-Württemberg"}},{"name":"Im Gässle","postalCode":"74248","locality":"Ellhofen","municipality":{"key":"08125024","name":"Ellhofen","type":"Kreisangehörige_Gemeinde"},"district":{"key":"08125","name":"Heilbronn","type":"Landkreis"},"federalState":{"key":"08","name":"Baden-Württemberg"}},{"name":"Im Holderbusch","postalCode":"74248","locality":"Ellhofen","municipality":{"key":"08125024","name":"Ellhofen","type":"Kreisangehörige_Gemeinde"},"district":{"key":"08125","name":"Heilbronn","type":"Landkreis"},"federalState":{"key":"08","name":"Baden-Württemberg"}},{"name":"Irisstr.","postalCode":"74248","locality":"Ellhofen","municipality":{"key":"08125024","name":"Ellhofen","type":"Kreisangehörige_Gemeinde"},"district":{"key":"08125","name":"Heilbronn","type":"Landkreis"},"federalState":{"key":"08","name":"Baden-Württemberg"}},{"name":"Jägerhaussteige","postalCode":"74074","locality":"Heilbronn","municipality":{"key":"08121000","name":"Heilbronn, Universitätsstadt","type":"Stadtkreis"},"district":{"key":"08121","name":"Heilbronn, Stadtkreis","type":"Stadtkreis"},"federalState":{"key":"08","name":"Baden-Württemberg"}},{"name":"Jägerhausstr.","postalCode":"74074","locality":"Heilbronn","municipality":{"key":"08121000","name":"Heilbronn, Universitätsstadt","type":"Stadtkreis"},"district":{"key":"08121","name":"Heilbronn, Stadtkreis","type":"Stadtkreis"},"federalState":{"key":"08","name":"Baden-Württemberg"}},{"name":"Jägersruhe","postalCode":"74074","locality":"Heilbronn","municipality":{"key":"08121000","name":"Heilbronn, Universitätsstadt","type":"Stadtkreis"},"district":{"key":"08121","name":"Heilbronn, Stadtkreis","type":"Stadtkreis"},"federalState":{"key":"08","name":"Baden-Württemberg"}},{"name":"Jagststr.","postalCode":"74076","locality":"Heilbronn","municipality":{"key":"08121000","name":"Heilbronn, Universitätsstadt","type":"Stadtkreis"},"district":{"key":"08121","name":"Heilbronn, Stadtkreis","type":"Stadtkreis"},"federalState":{"key":"08","name":"Baden-Württemberg"}},{"name":"Jahnheide","postalCode":"74080","locality":"Heilbronn","municipality":{"key":"08121000","name":"Heilbronn, Universitätsstadt","type":"Stadtkreis"},"district":{"key":"08121","name":"Heilbronn, Stadtkreis","type":"Stadtkreis"},"federalState":{"key":"08","name":"Baden-Württemberg"}},{"name":"Jahnstr.","postalCode":"74074","locality":"Heilbronn","municipality":{"key":"08121000","name":"Heilbronn, Universitätsstadt","type":"Stadtkreis"},"district":{"key":"08121","name":"Heilbronn, Stadtkreis","type":"Stadtkreis"},"federalState":{"key":"08","name":"Baden-Württemberg"}},{"name":"Jäkleinstr.","postalCode":"74080","locality":"Heilbronn","municipality":{"key":"08121000","name":"Heilbronn, Universitätsstadt","type":"Stadtkreis"},"district":{"key":"08121","name":"Heilbronn, Stadtkreis","type":"Stadtkreis"},"federalState":{"key":"08","name":"Baden-Württemberg"}},{"name":"Jakobgasse","postalCode":"74072","locality":"Heilbronn","municipality":{"key":"08121000","name":"Heilbronn, Universitätsstadt","type":"Stadtkreis"},"district":{"key":"08121","name":"Heilbronn, Stadtkreis","type":"Stadtkreis"},"federalState":{"key":"08","name":"Baden-Württemberg"}},{"name":"Jakob-Haspel-Str.","postalCode":"74078","locality":"Heilbronn","municipality":{"key":"08121000","name":"Heilbronn, Universitätsstadt","type":"Stadtkreis"},"district":{"key":"08121","name":"Heilbronn, Stadtkreis","type":"Stadtkreis"},"federalState":{"key":"08","name":"Baden-Württemberg"}},{"name":"Jakob-Ramm-Str.","postalCode":"74081","locality":"Heilbronn","municipality":{"key":"08121000","name":"Heilbronn, Universitätsstadt","type":"Stadtkreis"},"district":{"key":"08121","name":"Heilbronn, Stadtkreis","type":"Stadtkreis"},"federalState":{"key":"08","name":"Baden-Württemberg"}},{"name":"Jakob-Saame-Str.","postalCode":"74078","locality":"Heilbronn","municipality":{"key":"08121000","name":"Heilbronn, Universitätsstadt","type":"Stadtkreis"},"district":{"key":"08121","name":"Heilbronn, Stadtkreis","type":"Stadtkreis"},"federalState":{"key":"08","name":"Baden-Württemberg"}},{"name":"Jasminweg","postalCode":"74078","locality":"Heilbronn","municipality":{"key":"08121000","name":"Heilbronn, Universitätsstadt","type":"Stadtkreis"},"district":{"key":"08121","name":"Heilbronn, Stadtkreis","type":"Stadtkreis"},"federalState":{"key":"08","name":"Baden-Württemberg"}},{"name":"Johannesburger Str.","postalCode":"74081","locality":"Heilbronn","municipality":{"key":"08121000","name":"Heilbronn, Universitätsstadt","type":"Stadtkreis"},"district":{"key":"08121","name":"Heilbronn, Stadtkreis","type":"Stadtkreis"},"federalState":{"key":"08","name":"Baden-Württemberg"}},{"name":"Johann-Strauß-Str.","postalCode":"74078","locality":"Heilbronn","municipality":{"key":"08121000","name":"Heilbronn, Universitätsstadt","type":"Stadtkreis"},"district":{"key":"08121","name":"Heilbronn, Stadtkreis","type":"Stadtkreis"},"federalState":{"key":"08","name":"Baden-Württemberg"}},{"name":"John-F.-Kennedy-Str.","postalCode":"74074","locality":"Heilbronn","municipality":{"key":"08121000","name":"Heilbronn, Universitätsstadt","type":"Stadtkreis"},"district":{"key":"08121","name":"Heilbronn, Stadtkreis","type":"Stadtkreis"},"federalState":{"key":"08","name":"Baden-Württemberg"}},{"name":"Jörg-Metzler-Weg","postalCode":"74080","locality":"Heilbronn","municipality":{"key":"08121000","name":"Heilbronn, Universitätsstadt","type":"Stadtkreis"},"district":{"key":"08121","name":"Heilbronn, Stadtkreis","type":"Stadtkreis"},"federalState":{"key":"08","name":"Baden-Württemberg"}},{"name":"Jörg-Ratgeb-Platz","postalCode":"74081","locality":"Heilbronn","municipality":{"key":"08121000","name":"Heilbronn, Universitätsstadt","type":"Stadtkreis"},"district":{"key":"08121","name":"Heilbronn, Stadtkreis","type":"Stadtkreis"},"federalState":{"key":"08","name":"Baden-Württemberg"}},{"name":"Jörgstr.","postalCode":"74076","locality":"Heilbronn","municipality":{"key":"08121000","name":"Heilbronn, Universitätsstadt","type":"Stadtkreis"},"district":{"key":"08121","name":"Heilbronn, Stadtkreis","type":"Stadtkreis"},"federalState":{"key":"08","name":"Baden-Württemberg"}},{"name":"Joseph-Lanner-Str.","postalCode":"74078","locality":"Heilbronn","municipality":{"key":"08121000","name":"Heilbronn, Universitätsstadt","type":"Stadtkreis"},"district":{"key":"08121","name":"Heilbronn, Stadtkreis","type":"Stadtkreis"},"federalState":{"key":"08","name":"Baden-Württemberg"}},{"name":"Judengängle","postalCode":"74081","locality":"Heilbronn","municipality":{"key":"08121000","name":"Heilbronn, Universitätsstadt","type":"Stadtkreis"},"district":{"key":"08121","name":"Heilbronn, Stadtkreis","type":"Stadtkreis"},"federalState":{"key":"08","name":"Baden-Württemberg"}},{"name":"Käppelesäcker","postalCode":"74248","locality":"Ellhofen","municipality":{"key":"08125024","name":"Ellhofen","type":"Kreisangehörige_Gemeinde"},"district":{"key":"08125","name":"Heilbronn","type":"Landkreis"},"federalState":{"key":"08","name":"Baden-Württemberg"}},{"name":"Keltenweg","postalCode":"74248","locality":"Ellhofen","municipality":{"key":"08125024","name":"Ellhofen","type":"Kreisangehörige_Gemeinde"},"district":{"key":"08125","name":"Heilbronn","type":"Landkreis"},"federalState":{"key":"08","name":"Baden-Württemberg"}},{"name":"Kernerstr.","postalCode":"74248","locality":"Ellhofen","municipality":{"key":"08125024","name":"Ellhofen","type":"Kreisangehörige_Gemeinde"},"district":{"key":"08125","name":"Heilbronn","type":"Landkreis"},"federalState":{"key":"08","name":"Baden-Württemberg"}},{"name":"Kesselenstr.","postalCode":"74248","locality":"Ellhofen","municipality":{"key":"08125024","name":"Ellhofen","type":"Kreisangehörige_Gemeinde"},"district":{"key":"08125","name":"Heilbronn","type":"Landkreis"},"federalState":{"key":"08","name":"Baden-Württemberg"}},{"name":"Kirchplatz","postalCode":"74248","locality":"Ellhofen","municipality":{"key":"08125024","name":"Ellhofen","type":"Kreisangehörige_Gemeinde"},"district":{"key":"08125","name":"Heilbronn","type":"Landkreis"},"federalState":{"key":"08","name":"Baden-Württemberg"}},{"name":"Kirchstr.","postalCode":"74248","locality":"Ellhofen","municipality":{"key":"08125024","name":"Ellhofen","type":"Kreisangehörige_Gemeinde"},"district":{"key":"08125","name":"Heilbronn","type":"Landkreis"},"federalState":{"key":"08","name":"Baden-Württemberg"}},{"name":"Klostergasse","postalCode":"74248","locality":"Ellhofen","municipality":{"key":"08125024","name":"Ellhofen","type":"Kreisangehörige_Gemeinde"},"district":{"key":"08125","name":"Heilbronn","type":"Landkreis"},"federalState":{"key":"08","name":"Baden-Württemberg"}},{"name":"Kreuzäckerstr.","postalCode":"74248","locality":"Ellhofen","municipality":{"key":"08125024","name":"Ellhofen","type":"Kreisangehörige_Gemeinde"},"district":{"key":"08125","name":"Heilbronn","type":"Landkreis"},"federalState":{"key":"08","name":"Baden-Württemberg"}},{"name":"Kurze Str.","postalCode":"74248","locality":"Ellhofen","municipality":{"key":"08125024","name":"Ellhofen","type":"Kreisangehörige_Gemeinde"},"district":{"key":"08125","name":"Heilbronn","type":"Landkreis"},"federalState":{"key":"08","name":"Baden-Württemberg"}},{"name":"Lehrener Str.","postalCode":"74248","locality":"Ellhofen","municipality":{"key":"08125024","name":"Ellhofen","type":"Kreisangehörige_Gemeinde"},"district":{"key":"08125","name":"Heilbronn","type":"Landkreis"},"federalState":{"key":"08","name":"Baden-Württemberg"}},{"name":"Lerchenstr.","postalCode":"74248","locality":"Ellhofen","municipality":{"key":"08125024","name":"Ellhofen","type":"Kreisangehörige_Gemeinde"},"district":{"key":"08125","name":"Heilbronn","type":"Landkreis"},"federalState":{"key":"08","name":"Baden-Württemberg"}},{"name":"Lindenstr.","postalCode":"74248","locality":"Ellhofen","municipality":{"key":"08125024","name":"Ellhofen","type":"Kreisangehörige_Gemeinde"},"district":{"key":"08125","name":"Heilbronn","type":"Landkreis"},"federalState":{"key":"08","name":"Baden-Württemberg"}},{"name":"Maasstr.","postalCode":"74078","locality":"Heilbronn","municipality":{"key":"08121000","name":"Heilbronn, Universitätsstadt","type":"Stadtkreis"},"district":{"key":"08121","name":"Heilbronn, Stadtkreis","type":"Stadtkreis"},"federalState":{"key":"08","name":"Baden-Württemberg"}},{"name":"Maienfelser Weg","postalCode":"74074","locality":"Heilbronn","municipality":{"key":"08121000","name":"Heilbronn, Universitätsstadt","type":"Stadtkreis"},"district":{"key":"08121","name":"Heilbronn, Stadtkreis","type":"Stadtkreis"},"federalState":{"key":"08","name":"Baden-Württemberg"}},{"name":"Maihaldenstr.","postalCode":"74078","locality":"Heilbronn","municipality":{"key":"08121000","name":"Heilbronn, Universitätsstadt","type":"Stadtkreis"},"district":{"key":"08121","name":"Heilbronn, Stadtkreis","type":"Stadtkreis"},"federalState":{"key":"08","name":"Baden-Württemberg"}},{"name":"Mainhardter Str.","postalCode":"74074","locality":"Heilbronn","municipality":{"key":"08121000","name":"Heilbronn, Universitätsstadt","type":"Stadtkreis"},"district":{"key":"08121","name":"Heilbronn, Stadtkreis","type":"Stadtkreis"},"federalState":{"key":"08","name":"Baden-Württemberg"}},{"name":"Mainzer Str.","postalCode":"74078","locality":"Heilbronn","municipality":{"key":"08121000","name":"Heilbronn, Universitätsstadt","type":"Stadtkreis"},"district":{"key":"08121","name":"Heilbronn, Stadtkreis","type":"Stadtkreis"},"federalState":{"key":"08","name":"Baden-Württemberg"}},{"name":"Mandrystr.","postalCode":"74074","locality":"Heilbronn","municipality":{"key":"08121000","name":"Heilbronn, Universitätsstadt","type":"Stadtkreis"},"district":{"key":"08121","name":"Heilbronn, Stadtkreis","type":"Stadtkreis"},"federalState":{"key":"08","name":"Baden-Württemberg"}},{"name":"Mannheimer Str.","postalCode":"74072","locality":"Heilbronn","municipality":{"key":"08121000","name":"Heilbronn, Universitätsstadt","type":"Stadtkreis"},"district":{"key":"08121","name":"Heilbronn, Stadtkreis","type":"Stadtkreis"},"federalState":{"key":"08","name":"Baden-Württemberg"}},{"name":"Mannheimer Str.","postalCode":"74076","locality":"Heilbronn","municipality":{"key":"08121000","name":"Heilbronn, Universitätsstadt","type":"Stadtkreis"},"district":{"key":"08121","name":"Heilbronn, Stadtkreis","type":"Stadtkreis"},"federalState":{"key":"08","name":"Baden-Württemberg"}},{"name":"Marburger Str.","postalCode":"74078","locality":"Heilbronn","municipality":{"key":"08121000","name":"Heilbronn, Universitätsstadt","type":"Stadtkreis"},"district":{"key":"08121","name":"Heilbronn, Stadtkreis","type":"Stadtkreis"},"federalState":{"key":"08","name":"Baden-Württemberg"}},{"name":"Marderweg","postalCode":"74078","locality":"Heilbronn","municipality":{"key":"08121000","name":"Heilbronn, Universitätsstadt","type":"Stadtkreis"},"district":{"key":"08121","name":"Heilbronn, Stadtkreis","type":"Stadtkreis"},"federalState":{"key":"08","name":"Baden-Württemberg"}},{"name":"Marienburger Str.","postalCode":"74078","locality":"Heilbronn","municipality":{"key":"08121000","name":"Heilbronn, Universitätsstadt","type":"Stadtkreis"},"district":{"key":"08121","name":"Heilbronn, Stadtkreis","type":"Stadtkreis"},"federalState":{"key":"08","name":"Baden-Württemberg"}},{"name":"Markgraf-Ludwig-Str.","postalCode":"74074","locality":"Heilbronn","municipality":{"key":"08121000","name":"Heilbronn, Universitätsstadt","type":"Stadtkreis"},"district":{"key":"08121","name":"Heilbronn, Stadtkreis","type":"Stadtkreis"},"federalState":{"key":"08","name":"Baden-Württemberg"}},{"name":"Martin-Luther-Str.","postalCode":"74074","locality":"Heilbronn","municipality":{"key":"08121000","name":"Heilbronn, Universitätsstadt","type":"Stadtkreis"},"district":{"key":"08121","name":"Heilbronn, Stadtkreis","type":"Stadtkreis"},"federalState":{"key":"08","name":"Baden-Württemberg"}},{"name":"Martin-Niemöller-Str.","postalCode":"74080","locality":"Heilbronn","municipality":{"key":"08121000","name":"Heilbronn, Universitätsstadt","type":"Stadtkreis"},"district":{"key":"08121","name":"Heilbronn, Stadtkreis","type":"Stadtkreis"},"federalState":{"key":"08","name":"Baden-Württemberg"}},{"name":"Massenbacher Str.","postalCode":"74080","locality":"Heilbronn","municipality":{"key":"08121000","name":"Heilbronn, Universitätsstadt","type":"Stadtkreis"},"district":{"key":"08121","name":"Heilbronn, Stadtkreis","type":"Stadtkreis"},"federalState":{"key":"08","name":"Baden-Württemberg"}},{"name":"Massenbacher Weg","postalCode":"74078","locality":"Heilbronn","municipality":{"key":"08121000","name":"Heilbronn, Universitätsstadt","type":"Stadtkreis"},"district":{"key":"08121","name":"Heilbronn, Stadtkreis","type":"Stadtkreis"},"federalState":{"key":"08","name":"Baden-Württemberg"}},{"name":"Matthias-Erzberger-Str.","postalCode":"74078","locality":"Heilbronn","municipality":{"key":"08121000","name":"Heilbronn, Universitätsstadt","type":"Stadtkreis"},"district":{"key":"08121","name":"Heilbronn, Stadtkreis","type":"Stadtkreis"},"federalState":{"key":"08","name":"Baden-Württemberg"}},{"name":"Mauerstr.","postalCode":"74081","locality":"Heilbronn","municipality":{"key":"08121000","name":"Heilbronn, Universitätsstadt","type":"Stadtkreis"},"district":{"key":"08121","name":"Heilbronn, Stadtkreis","type":"Stadtkreis"},"federalState":{"key":"08","name":"Baden-Württemberg"}},{"name":"Maulbronner Str.","postalCode":"74080","locality":"Heilbronn","municipality":{"key":"08121000","name":"Heilbronn, Universitätsstadt","type":"Stadtkreis"},"district":{"key":"08121","name":"Heilbronn, Stadtkreis","type":"Stadtkreis"},"federalState":{"key":"08","name":"Baden-Württemberg"}},{"name":"Mauserstr.","postalCode":"74081","locality":"Heilbronn","municipality":{"key":"08121000","name":"Heilbronn, Universitätsstadt","type":"Stadtkreis"},"district":{"key":"08121","name":"Heilbronn, Stadtkreis","type":"Stadtkreis"},"federalState":{"key":"08","name":"Baden-Württemberg"}},{"name":"Maustalstr.","postalCode":"74078","locality":"Heilbronn","municipality":{"key":"08121000","name":"Heilbronn, Universitätsstadt","type":"Stadtkreis"},"district":{"key":"08121","name":"Heilbronn, Stadtkreis","type":"Stadtkreis"},"federalState":{"key":"08","name":"Baden-Württemberg"}},{"name":"Max-Beermann-Platz","postalCode":"74072","locality":"Heilbronn","municipality":{"key":"08121000","name":"Heilbronn, Universitätsstadt","type":"Stadtkreis"},"district":{"key":"08121","name":"Heilbronn, Stadtkreis","type":"Stadtkreis"},"federalState":{"key":"08","name":"Baden-Württemberg"}},{"name":"Max-Planck-Str.","postalCode":"74074","locality":"Heilbronn","municipality":{"key":"08121000","name":"Heilbronn, Universitätsstadt","type":"Stadtkreis"},"district":{"key":"08121","name":"Heilbronn, Stadtkreis","type":"Stadtkreis"},"federalState":{"key":"08","name":"Baden-Württemberg"}},{"name":"Max-Planck-Str.","postalCode":"74081","locality":"Heilbronn","municipality":{"key":"08121000","name":"Heilbronn, Universitätsstadt","type":"Stadtkreis"},"district":{"key":"08121","name":"Heilbronn, Stadtkreis","type":"Stadtkreis"},"federalState":{"key":"08","name":"Baden-Württemberg"}},{"name":"Max-Reger-Str.","postalCode":"74078","locality":"Heilbronn","municipality":{"key":"08121000","name":"Heilbronn, Universitätsstadt","type":"Stadtkreis"},"district":{"key":"08121","name":"Heilbronn, Stadtkreis","type":"Stadtkreis"},"federalState":{"key":"08","name":"Baden-Württemberg"}},{"name":"Max-von-Laue-Str.","postalCode":"74081","locality":"Heilbronn","municipality":{"key":"08121000","name":"Heilbronn, Universitätsstadt","type":"Stadtkreis"},"district":{"key":"08121","name":"Heilbronn, Stadtkreis","type":"Stadtkreis"},"federalState":{"key":"08","name":"Baden-Württemberg"}},{"name":"Maybachstr.","postalCode":"74076","locality":"Heilbronn","municipality":{"key":"08121000","name":"Heilbronn, Universitätsstadt","type":"Stadtkreis"},"district":{"key":"08121","name":"Heilbronn, Stadtkreis","type":"Stadtkreis"},"federalState":{"key":"08","name":"Baden-Württemberg"}},{"name":"Meisenhalde","postalCode":"74081","locality":"Heilbronn","municipality":{"key":"08121000","name":"Heilbronn, Universitätsstadt","type":"Stadtkreis"},"district":{"key":"08121","name":"Heilbronn, Stadtkreis","type":"Stadtkreis"},"federalState":{"key":"08","name":"Baden-Württemberg"}},{"name":"Meisenweg","postalCode":"74078","locality":"Heilbronn","municipality":{"key":"08121000","name":"Heilbronn, Universitätsstadt","type":"Stadtkreis"},"district":{"key":"08121","name":"Heilbronn, Stadtkreis","type":"Stadtkreis"},"federalState":{"key":"08","name":"Baden-Württemberg"}},{"name":"Melanchthonweg","postalCode":"74078","locality":"Heilbronn","municipality":{"key":"08121000","name":"Heilbronn, Universitätsstadt","type":"Stadtkreis"},"district":{"key":"08121","name":"Heilbronn, Stadtkreis","type":"Stadtkreis"},"federalState":{"key":"08","name":"Baden-Württemberg"}},{"name":"Melli-Beese-Str.","postalCode":"74074","locality":"Heilbronn","municipality":{"key":"08121000","name":"Heilbronn, Universitätsstadt","type":"Stadtkreis"},"district":{"key":"08121","name":"Heilbronn, Stadtkreis","type":"Stadtkreis"},"federalState":{"key":"08","name":"Baden-Württemberg"}},{"name":"Membrodsweg","postalCode":"74074","locality":"Heilbronn","municipality":{"key":"08121000","name":"Heilbronn, Universitätsstadt","type":"Stadtkreis"},"district":{"key":"08121","name":"Heilbronn, Stadtkreis","type":"Stadtkreis"},"federalState":{"key":"08","name":"Baden-Württemberg"}},{"name":"Memeler Str.","postalCode":"74078","locality":"Heilbronn","municipality":{"key":"08121000","name":"Heilbronn, Universitätsstadt","type":"Stadtkreis"},"district":{"key":"08121","name":"Heilbronn, Stadtkreis","type":"Stadtkreis"},"federalState":{"key":"08","name":"Baden-Württemberg"}},{"name":"Menzelstr.","postalCode":"74081","locality":"Heilbronn","municipality":{"key":"08121000","name":"Heilbronn, Universitätsstadt","type":"Stadtkreis"},"district":{"key":"08121","name":"Heilbronn, Stadtkreis","type":"Stadtkreis"},"federalState":{"key":"08","name":"Baden-Württemberg"}},{"name":"Mergenthalerstr.","postalCode":"74078","locality":"Heilbronn","municipality":{"key":"08121000","name":"Heilbronn, Universitätsstadt","type":"Stadtkreis"},"district":{"key":"08121","name":"Heilbronn, Stadtkreis","type":"Stadtkreis"},"federalState":{"key":"08","name":"Baden-Württemberg"}},{"name":"Merianstr.","postalCode":"74081","locality":"Heilbronn","municipality":{"key":"08121000","name":"Heilbronn, Universitätsstadt","type":"Stadtkreis"},"district":{"key":"08121","name":"Heilbronn, Stadtkreis","type":"Stadtkreis"},"federalState":{"key":"08","name":"Baden-Württemberg"}},{"name":"Merkurstr.","postalCode":"74074","locality":"Heilbronn","municipality":{"key":"08121000","name":"Heilbronn, Universitätsstadt","type":"Stadtkreis"},"district":{"key":"08121","name":"Heilbronn, Stadtkreis","type":"Stadtkreis"},"federalState":{"key":"08","name":"Baden-Württemberg"}},{"name":"Mertzweg","postalCode":"74076","locality":"Heilbronn","municipality":{"key":"08121000","name":"Heilbronn, Universitätsstadt","type":"Stadtkreis"},"district":{"key":"08121","name":"Heilbronn, Stadtkreis","type":"Stadtkreis"},"federalState":{"key":"08","name":"Baden-Württemberg"}},{"name":"Mettelbachstr.","postalCode":"74076","locality":"Heilbronn","municipality":{"key":"08121000","name":"Heilbronn, Universitätsstadt","type":"Stadtkreis"},"district":{"key":"08121","name":"Heilbronn, Stadtkreis","type":"Stadtkreis"},"federalState":{"key":"08","name":"Baden-Württemberg"}},{"name":"Metzer Str.","postalCode":"74074","locality":"Heilbronn","municipality":{"key":"08121000","name":"Heilbronn, Universitätsstadt","type":"Stadtkreis"},"district":{"key":"08121","name":"Heilbronn, Stadtkreis","type":"Stadtkreis"},"federalState":{"key":"08","name":"Baden-Württemberg"}},{"name":"Metzgergasse","postalCode":"74072","locality":"Heilbronn","municipality":{"key":"08121000","name":"Heilbronn, Universitätsstadt","type":"Stadtkreis"},"district":{"key":"08121","name":"Heilbronn, Stadtkreis","type":"Stadtkreis"},"federalState":{"key":"08","name":"Baden-Württemberg"}},{"name":"Michael-Vehe-Str.","postalCode":"74078","locality":"Heilbronn","municipality":{"key":"08121000","name":"Heilbronn, Universitätsstadt","type":"Stadtkreis"},"district":{"key":"08121","name":"Heilbronn, Stadtkreis","type":"Stadtkreis"},"federalState":{"key":"08","name":"Baden-Württemberg"}},{"name":"Michelsbergstr.","postalCode":"74080","locality":"Heilbronn","municipality":{"key":"08121000","name":"Heilbronn, Universitätsstadt","type":"Stadtkreis"},"district":{"key":"08121","name":"Heilbronn, Stadtkreis","type":"Stadtkreis"},"federalState":{"key":"08","name":"Baden-Württemberg"}},{"name":"Militärweg","postalCode":"74074","locality":"Heilbronn","municipality":{"key":"08121000","name":"Heilbronn, Universitätsstadt","type":"Stadtkreis"},"district":{"key":"08121","name":"Heilbronn, Stadtkreis","type":"Stadtkreis"},"federalState":{"key":"08","name":"Baden-Württemberg"}},{"name":"Militärwegbrücke","postalCode":"74074","locality":"Heilbronn","municipality":{"key":"08121000","name":"Heilbronn, Universitätsstadt","type":"Stadtkreis"},"district":{"key":"08121","name":"Heilbronn, Stadtkreis","type":"Stadtkreis"},"federalState":{"key":"08","name":"Baden-Württemberg"}},{"name":"Millerstr.","postalCode":"74076","locality":"Heilbronn","municipality":{"key":"08121000","name":"Heilbronn, Universitätsstadt","type":"Stadtkreis"},"district":{"key":"08121","name":"Heilbronn, Stadtkreis","type":"Stadtkreis"},"federalState":{"key":"08","name":"Baden-Württemberg"}},{"name":"Mittelstr.","postalCode":"74078","locality":"Heilbronn","municipality":{"key":"08121000","name":"Heilbronn, Universitätsstadt","type":"Stadtkreis"},"district":{"key":"08121","name":"Heilbronn, Stadtkreis","type":"Stadtkreis"},"federalState":{"key":"08","name":"Baden-Württemberg"}},{"name":"Mitten im Feld","postalCode":"74081","locality":"Heilbronn","municipality":{"key":"08121000","name":"Heilbronn, Universitätsstadt","type":"Stadtkreis"},"district":{"key":"08121","name":"Heilbronn, Stadtkreis","type":"Stadtkreis"},"federalState":{"key":"08","name":"Baden-Württemberg"}},{"name":"Mittlerer Weg","postalCode":"74080","locality":"Heilbronn","municipality":{"key":"08121000","name":"Heilbronn, Universitätsstadt","type":"Stadtkreis"},"district":{"key":"08121","name":"Heilbronn, Stadtkreis","type":"Stadtkreis"},"federalState":{"key":"08","name":"Baden-Württemberg"}},{"name":"Mittnachtstr.","postalCode":"74078","locality":"Heilbronn","municipality":{"key":"08121000","name":"Heilbronn, Universitätsstadt","type":"Stadtkreis"},"district":{"key":"08121","name":"Heilbronn, Stadtkreis","type":"Stadtkreis"},"federalState":{"key":"08","name":"Baden-Württemberg"}},{"name":"Nelkenstr.","postalCode":"74248","locality":"Ellhofen","municipality":{"key":"08125024","name":"Ellhofen","type":"Kreisangehörige_Gemeinde"},"district":{"key":"08125","name":"Heilbronn","type":"Landkreis"},"federalState":{"key":"08","name":"Baden-Württemberg"}},{"name":"Neuenstädter Str.","postalCode":"74248","locality":"Ellhofen","municipality":{"key":"08125024","name":"Ellhofen","type":"Kreisangehörige_Gemeinde"},"district":{"key":"08125","name":"Heilbronn","type":"Landkreis"},"federalState":{"key":"08","name":"Baden-Württemberg"}},{"name":"Oststr.","postalCode":"74248","locality":"Ellhofen","municipality":{"key":"08125024","name":"Ellhofen","type":"Kreisangehörige_Gemeinde"},"district":{"key":"08125","name":"Heilbronn","type":"Landkreis"},"federalState":{"key":"08","name":"Baden-Württemberg"}},{"name":"Pferchäcker","postalCode":"74248","locality":"Ellhofen","municipality":{"key":"08125024","name":"Ellhofen","type":"Kreisangehörige_Gemeinde"},"district":{"key":"08125","name":"Heilbronn","type":"Landkreis"},"federalState":{"key":"08","name":"Baden-Württemberg"}},{"name":"Quartiersgarten","postalCode":"74072","locality":"Heilbronn","municipality":{"key":"08121000","name":"Heilbronn, Universitätsstadt","type":"Stadtkreis"},"district":{"key":"08121","name":"Heilbronn, Stadtkreis","type":"Stadtkreis"},"federalState":{"key":"08","name":"Baden-Württemberg"}},{"name":"Quellenstr.","postalCode":"74081","locality":"Heilbronn","municipality":{"key":"08121000","name":"Heilbronn, Universitätsstadt","type":"Stadtkreis"},"district":{"key":"08121","name":"Heilbronn, Stadtkreis","type":"Stadtkreis"},"federalState":{"key":"08","name":"Baden-Württemberg"}},{"name":"Querstr.","postalCode":"74080","locality":"Heilbronn","municipality":{"key":"08121000","name":"Heilbronn, Universitätsstadt","type":"Stadtkreis"},"district":{"key":"08121","name":"Heilbronn, Stadtkreis","type":"Stadtkreis"},"federalState":{"key":"08","name":"Baden-Württemberg"}},{"name":"Raiffeisenstr.","postalCode":"74248","locality":"Ellhofen","municipality":{"key":"08125024","name":"Ellhofen","type":"Kreisangehörige_Gemeinde"},"district":{"key":"08125","name":"Heilbronn","type":"Landkreis"},"federalState":{"key":"08","name":"Baden-Württemberg"}},{"name":"Ringstr.","postalCode":"74248","locality":"Ellhofen","municipality":{"key":"08125024","name":"Ellhofen","type":"Kreisangehörige_Gemeinde"},"district":{"key":"08125","name":"Heilbronn","type":"Landkreis"},"federalState":{"key":"08","name":"Baden-Württemberg"}},{"name":"Römerweg","postalCode":"74248","locality":"Ellhofen","municipality":{"key":"08125024","name":"Ellhofen","type":"Kreisangehörige_Gemeinde"},"district":{"key":"08125","name":"Heilbronn","type":"Landkreis"},"federalState":{"key":"08","name":"Baden-Württemberg"}},{"name":"Rosenstr.","postalCode":"74248","locality":"Ellhofen","municipality":{"key":"08125024","name":"Ellhofen","type":"Kreisangehörige_Gemeinde"},"district":{"key":"08125","name":"Heilbronn","type":"Landkreis"},"federalState":{"key":"08","name":"Baden-Württemberg"}},{"name":"Schillerstr.","postalCode":"74248","locality":"Ellhofen","municipality":{"key":"08125024","name":"Ellhofen","type":"Kreisangehörige_Gemeinde"},"district":{"key":"08125","name":"Heilbronn","type":"Landkreis"},"federalState":{"key":"08","name":"Baden-Württemberg"}},{"name":"Schnauweg","postalCode":"74189","locality":"Ellhofen","municipality":{"key":"08125024","name":"Ellhofen","type":"Kreisangehörige_Gemeinde"},"district":{"key":"08125","name":"Heilbronn","type":"Landkreis"},"federalState":{"key":"08","name":"Baden-Württemberg"}},{"name":"Schwabenstr.","postalCode":"74248","locality":"Ellhofen","municipality":{"key":"08125024","name":"Ellhofen","type":"Kreisangehörige_Gemeinde"},"district":{"key":"08125","name":"Heilbronn","type":"Landkreis"},"federalState":{"key":"08","name":"Baden-Württemberg"}},{"name":"Seeäckerstr.","postalCode":"74248","locality":"Ellhofen","municipality":{"key":"08125024","name":"Ellhofen","type":"Kreisangehörige_Gemeinde"},"district":{"key":"08125","name":"Heilbronn","type":"Landkreis"},"federalState":{"key":"08","name":"Baden-Württemberg"}},{"name":"Seegartenstr.","postalCode":"74248","locality":"Ellhofen","municipality":{"key":"08125024","name":"Ellhofen","type":"Kreisangehörige_Gemeinde"},"district":{"key":"08125","name":"Heilbronn","type":"Landkreis"},"federalState":{"key":"08","name":"Baden-Württemberg"}},{"name":"Seeweg","postalCode":"74248","locality":"Ellhofen","municipality":{"key":"08125024","name":"Ellhofen","type":"Kreisangehörige_Gemeinde"},"district":{"key":"08125","name":"Heilbronn","type":"Landkreis"},"federalState":{"key":"08","name":"Baden-Württemberg"}},{"name":"Steinsfelder Str.","postalCode":"74248","locality":"Ellhofen","municipality":{"key":"08125024","name":"Ellhofen","type":"Kreisangehörige_Gemeinde"},"district":{"key":"08125","name":"Heilbronn","type":"Landkreis"},"federalState":{"key":"08","name":"Baden-Württemberg"}},{"name":"Stocksäckerstr.","postalCode":"74248","locality":"Ellhofen","municipality":{"key":"08125024","name":"Ellhofen","type":"Kreisangehörige_Gemeinde"},"district":{"key":"08125","name":"Heilbronn","type":"Landkreis"},"federalState":{"key":"08","name":"Baden-Württemberg"}},{"name":"Südstr.","postalCode":"74248","locality":"Ellhofen","municipality":{"key":"08125024","name":"Ellhofen","type":"Kreisangehörige_Gemeinde"},"district":{"key":"08125","name":"Heilbronn","type":"Landkreis"},"federalState":{"key":"08","name":"Baden-Württemberg"}},{"name":"Sulmstr.","postalCode":"74248","locality":"Ellhofen","municipality":{"key":"08125024","name":"Ellhofen","type":"Kreisangehörige_Gemeinde"},"district":{"key":"08125","name":"Heilbronn","type":"Landkreis"},"federalState":{"key":"08","name":"Baden-Württemberg"}},{"name":"Sülzbacher Str.","postalCode":"74248","locality":"Ellhofen","municipality":{"key":"08125024","name":"Ellhofen","type":"Kreisangehörige_Gemeinde"},"district":{"key":"08125","name":"Heilbronn","type":"Landkreis"},"federalState":{"key":"08","name":"Baden-Württemberg"}},{"name":"Tabakstr.","postalCode":"74081","locality":"Heilbronn","municipality":{"key":"08121000","name":"Heilbronn, Universitätsstadt","type":"Stadtkreis"},"district":{"key":"08121","name":"Heilbronn, Stadtkreis","type":"Stadtkreis"},"federalState":{"key":"08","name":"Baden-Württemberg"}},{"name":"Talheimer Str.","postalCode":"74081","locality":"Heilbronn","municipality":{"key":"08121000","name":"Heilbronn, Universitätsstadt","type":"Stadtkreis"},"district":{"key":"08121","name":"Heilbronn, Stadtkreis","type":"Stadtkreis"},"federalState":{"key":"08","name":"Baden-Württemberg"}},{"name":"Talweg","postalCode":"74078","locality":"Heilbronn","municipality":{"key":"08121000","name":"Heilbronn, Universitätsstadt","type":"Stadtkreis"},"district":{"key":"08121","name":"Heilbronn, Stadtkreis","type":"Stadtkreis"},"federalState":{"key":"08","name":"Baden-Württemberg"}},{"name":"Tannenweg","postalCode":"74080","locality":"Heilbronn","municipality":{"key":"08121000","name":"Heilbronn, Universitätsstadt","type":"Stadtkreis"},"district":{"key":"08121","name":"Heilbronn, Stadtkreis","type":"Stadtkreis"},"federalState":{"key":"08","name":"Baden-Württemberg"}},{"name":"Tatschenweg","postalCode":"74078","locality":"Heilbronn","municipality":{"key":"08121000","name":"Heilbronn, Universitätsstadt","type":"Stadtkreis"},"district":{"key":"08121","name":"Heilbronn, Stadtkreis","type":"Stadtkreis"},"federalState":{"key":"08","name":"Baden-Württemberg"}},{"name":"Taxisstr.","postalCode":"74081","locality":"Heilbronn","municipality":{"key":"08121000","name":"Heilbronn, Universitätsstadt","type":"Stadtkreis"},"district":{"key":"08121","name":"Heilbronn, Stadtkreis","type":"Stadtkreis"},"federalState":{"key":"08","name":"Baden-Württemberg"}},{"name":"Teichstr.","postalCode":"74080","locality":"Heilbronn","municipality":{"key":"08121000","name":"Heilbronn, Universitätsstadt","type":"Stadtkreis"},"district":{"key":"08121","name":"Heilbronn, Stadtkreis","type":"Stadtkreis"},"federalState":{"key":"08","name":"Baden-Württemberg"}},{"name":"Testfeld für Sehbehinderte","postalCode":"74072","locality":"Heilbronn","municipality":{"key":"08121000","name":"Heilbronn, Universitätsstadt","type":"Stadtkreis"},"district":{"key":"08121","name":"Heilbronn, Stadtkreis","type":"Stadtkreis"},"federalState":{"key":"08","name":"Baden-Württemberg"}},{"name":"Teutonenstr.","postalCode":"74078","locality":"Heilbronn","municipality":{"key":"08121000","name":"Heilbronn, Universitätsstadt","type":"Stadtkreis"},"district":{"key":"08121","name":"Heilbronn, Stadtkreis","type":"Stadtkreis"},"federalState":{"key":"08","name":"Baden-Württemberg"}},{"name":"Theodor-Fischer-Str.","postalCode":"74076","locality":"Heilbronn","municipality":{"key":"08121000","name":"Heilbronn, Universitätsstadt","type":"Stadtkreis"},"district":{"key":"08121","name":"Heilbronn, Stadtkreis","type":"Stadtkreis"},"federalState":{"key":"08","name":"Baden-Württemberg"}},{"name":"Theodor-Heuss-Str.","postalCode":"74081","locality":"Heilbronn","municipality":{"key":"08121000","name":"Heilbronn, Universitätsstadt","type":"Stadtkreis"},"district":{"key":"08121","name":"Heilbronn, Stadtkreis","type":"Stadtkreis"},"federalState":{"key":"08","name":"Baden-Württemberg"}},{"name":"Theodor-Körner-Str.","postalCode":"74078","locality":"Heilbronn","municipality":{"key":"08121000","name":"Heilbronn, Universitätsstadt","type":"Stadtkreis"},"district":{"key":"08121","name":"Heilbronn, Stadtkreis","type":"Stadtkreis"},"federalState":{"key":"08","name":"Baden-Württemberg"}},{"name":"Theodor-Zimmermann-Str.","postalCode":"74080","locality":"Heilbronn","municipality":{"key":"08121000","name":"Heilbronn, Universitätsstadt","type":"Stadtkreis"},"district":{"key":"08121","name":"Heilbronn, Stadtkreis","type":"Stadtkreis"},"federalState":{"key":"08","name":"Baden-Württemberg"}},{"name":"Theophil-Wurm-Str.","postalCode":"74074","locality":"Heilbronn","municipality":{"key":"08121000","name":"Heilbronn, Universitätsstadt","type":"Stadtkreis"},"district":{"key":"08121","name":"Heilbronn, Stadtkreis","type":"Stadtkreis"},"federalState":{"key":"08","name":"Baden-Württemberg"}},{"name":"Theresienstr.","postalCode":"74072","locality":"Heilbronn","municipality":{"key":"08121000","name":"Heilbronn, Universitätsstadt","type":"Stadtkreis"},"district":{"key":"08121","name":"Heilbronn, Stadtkreis","type":"Stadtkreis"},"federalState":{"key":"08","name":"Baden-Württemberg"}},{"name":"Thomas-Mann-Str.","postalCode":"74078","locality":"Heilbronn","municipality":{"key":"08121000","name":"Heilbronn, Universitätsstadt","type":"Stadtkreis"},"district":{"key":"08121","name":"Heilbronn, Stadtkreis","type":"Stadtkreis"},"federalState":{"key":"08","name":"Baden-Württemberg"}},{"name":"Thomastr.","postalCode":"74081","locality":"Heilbronn","municipality":{"key":"08121000","name":"Heilbronn, Universitätsstadt","type":"Stadtkreis"},"district":{"key":"08121","name":"Heilbronn, Stadtkreis","type":"Stadtkreis"},"federalState":{"key":"08","name":"Baden-Württemberg"}},{"name":"Thomaswert","postalCode":"74076","locality":"Heilbronn","municipality":{"key":"08121000","name":"Heilbronn, Universitätsstadt","type":"Stadtkreis"},"district":{"key":"08121","name":"Heilbronn, Stadtkreis","type":"Stadtkreis"},"federalState":{"key":"08","name":"Baden-Württemberg"}},{"name":"Tischbeinstr.","postalCode":"74081","locality":"Heilbronn","municipality":{"key":"08121000","name":"Heilbronn, Universitätsstadt","type":"Stadtkreis"},"district":{"key":"08121","name":"Heilbronn, Stadtkreis","type":"Stadtkreis"},"federalState":{"key":"08","name":"Baden-Württemberg"}},{"name":"Titotstr.","postalCode":"74072","locality":"Heilbronn","municipality":{"key":"08121000","name":"Heilbronn, Universitätsstadt","type":"Stadtkreis"},"district":{"key":"08121","name":"Heilbronn, Stadtkreis","type":"Stadtkreis"},"federalState":{"key":"08","name":"Baden-Württemberg"}},{"name":"Tölzer Str.","postalCode":"74078","locality":"Heilbronn","municipality":{"key":"08121000","name":"Heilbronn, Universitätsstadt","type":"Stadtkreis"},"district":{"key":"08121","name":"Heilbronn, Stadtkreis","type":"Stadtkreis"},"federalState":{"key":"08","name":"Baden-Württemberg"}},{"name":"Tomatenweg","postalCode":"74081","locality":"Heilbronn","municipality":{"key":"08121000","name":"Heilbronn, Universitätsstadt","type":"Stadtkreis"},"district":{"key":"08121","name":"Heilbronn, Stadtkreis","type":"Stadtkreis"},"federalState":{"key":"08","name":"Baden-Württemberg"}},{"name":"Trappensee","postalCode":"74074","locality":"Heilbronn","municipality":{"key":"08121000","name":"Heilbronn, Universitätsstadt","type":"Stadtkreis"},"district":{"key":"08121","name":"Heilbronn, Stadtkreis","type":"Stadtkreis"},"federalState":{"key":"08","name":"Baden-Württemberg"}},{"name":"Traubenstr.","postalCode":"74074","locality":"Heilbronn","municipality":{"key":"08121000","name":"Heilbronn, Universitätsstadt","type":"Stadtkreis"},"district":{"key":"08121","name":"Heilbronn, Stadtkreis","type":"Stadtkreis"},"federalState":{"key":"08","name":"Baden-Württemberg"}},{"name":"Traunsteiner Str.","postalCode":"74078","locality":"Heilbronn","municipality":{"key":"08121000","name":"Heilbronn, Universitätsstadt","type":"Stadtkreis"},"district":{"key":"08121","name":"Heilbronn, Stadtkreis","type":"Stadtkreis"},"federalState":{"key":"08","name":"Baden-Württemberg"}},{"name":"Trautenhof","postalCode":"74072","locality":"Heilbronn","municipality":{"key":"08121000","name":"Heilbronn, Universitätsstadt","type":"Stadtkreis"},"district":{"key":"08121","name":"Heilbronn, Stadtkreis","type":"Stadtkreis"},"federalState":{"key":"08","name":"Baden-Württemberg"}},{"name":"Treflinsklingenweg","postalCode":"74074","locality":"Heilbronn","municipality":{"key":"08121000","name":"Heilbronn, Universitätsstadt","type":"Stadtkreis"},"district":{"key":"08121","name":"Heilbronn, Stadtkreis","type":"Stadtkreis"},"federalState":{"key":"08","name":"Baden-Württemberg"}},{"name":"Trimmdichpfad","postalCode":"74074","locality":"Heilbronn","municipality":{"key":"08121000","name":"Heilbronn, Universitätsstadt","type":"Stadtkreis"},"district":{"key":"08121","name":"Heilbronn, Stadtkreis","type":"Stadtkreis"},"federalState":{"key":"08","name":"Baden-Württemberg"}},{"name":"Trollingerstr.","postalCode":"74074","locality":"Heilbronn","municipality":{"key":"08121000","name":"Heilbronn, Universitätsstadt","type":"Stadtkreis"},"district":{"key":"08121","name":"Heilbronn, Stadtkreis","type":"Stadtkreis"},"federalState":{"key":"08","name":"Baden-Württemberg"}},{"name":"Truchseßweg","postalCode":"74080","locality":"Heilbronn","municipality":{"key":"08121000","name":"Heilbronn, Universitätsstadt","type":"Stadtkreis"},"district":{"key":"08121","name":"Heilbronn, Stadtkreis","type":"Stadtkreis"},"federalState":{"key":"08","name":"Baden-Württemberg"}},{"name":"Tscherningstr.","postalCode":"74076","locality":"Heilbronn","municipality":{"key":"08121000","name":"Heilbronn, Universitätsstadt","type":"Stadtkreis"},"district":{"key":"08121","name":"Heilbronn, Stadtkreis","type":"Stadtkreis"},"federalState":{"key":"08","name":"Baden-Württemberg"}},{"name":"Tulpenstr.","postalCode":"74078","locality":"Heilbronn","municipality":{"key":"08121000","name":"Heilbronn, Universitätsstadt","type":"Stadtkreis"},"district":{"key":"08121","name":"Heilbronn, Stadtkreis","type":"Stadtkreis"},"federalState":{"key":"08","name":"Baden-Württemberg"}},{"name":"Tulpenweg","postalCode":"74078","locality":"Heilbronn","municipality":{"key":"08121000","name":"Heilbronn, Universitätsstadt","type":"Stadtkreis"},"district":{"key":"08121","name":"Heilbronn, Stadtkreis","type":"Stadtkreis"},"federalState":{"key":"08","name":"Baden-Württemberg"}},{"name":"Tulpenweg","postalCode":"74081","locality":"Heilbronn","municipality":{"key":"08121000","name":"Heilbronn, Universitätsstadt","type":"Stadtkreis"},"district":{"key":"08121","name":"Heilbronn, Stadtkreis","type":"Stadtkreis"},"federalState":{"key":"08","name":"Baden-Württemberg"}},{"name":"Turmstr.","postalCode":"74072","locality":"Heilbronn","municipality":{"key":"08121000","name":"Heilbronn, Universitätsstadt","type":"Stadtkreis"},"district":{"key":"08121","name":"Heilbronn, Stadtkreis","type":"Stadtkreis"},"federalState":{"key":"08","name":"Baden-Württemberg"}},{"name":"Turnerstr.","postalCode":"74080","locality":"Heilbronn","municipality":{"key":"08121000","name":"Heilbronn, Universitätsstadt","type":"Stadtkreis"},"district":{"key":"08121","name":"Heilbronn, Stadtkreis","type":"Stadtkreis"},"federalState":{"key":"08","name":"Baden-Württemberg"}},{"name":"Uhdestr.","postalCode":"74081","locality":"Heilbronn","municipality":{"key":"08121000","name":"Heilbronn, Universitätsstadt","type":"Stadtkreis"},"district":{"key":"08121","name":"Heilbronn, Stadtkreis","type":"Stadtkreis"},"federalState":{"key":"08","name":"Baden-Württemberg"}},{"name":"Uhlandstr.","postalCode":"74072","locality":"Heilbronn","municipality":{"key":"08121000","name":"Heilbronn, Universitätsstadt","type":"Stadtkreis"},"district":{"key":"08121","name":"Heilbronn, Stadtkreis","type":"Stadtkreis"},"federalState":{"key":"08","name":"Baden-Württemberg"}},{"name":"Uhlandstr.","postalCode":"74074","locality":"Heilbronn","municipality":{"key":"08121000","name":"Heilbronn, Universitätsstadt","type":"Stadtkreis"},"district":{"key":"08121","name":"Heilbronn, Stadtkreis","type":"Stadtkreis"},"federalState":{"key":"08","name":"Baden-Württemberg"}},{"name":"Uhrkopfweg","postalCode":"74074","locality":"Heilbronn","municipality":{"key":"08121000","name":"Heilbronn, Universitätsstadt","type":"Stadtkreis"},"district":{"key":"08121","name":"Heilbronn, Stadtkreis","type":"Stadtkreis"},"federalState":{"key":"08","name":"Baden-Württemberg"}},{"name":"Ulmenweg","postalCode":"74080","locality":"Heilbronn","municipality":{"key":"08121000","name":"Heilbronn, Universitätsstadt","type":"Stadtkreis"},"district":{"key":"08121","name":"Heilbronn, Stadtkreis","type":"Stadtkreis"},"federalState":{"key":"08","name":"Baden-Württemberg"}},{"name":"Ulrich-Fischer-Weg","postalCode":"74080","locality":"Heilbronn","municipality":{"key":"08121000","name":"Heilbronn, Universitätsstadt","type":"Stadtkreis"},"district":{"key":"08121","name":"Heilbronn, Stadtkreis","type":"Stadtkreis"},"federalState":{"key":"08","name":"Baden-Württemberg"}},{"name":"Ulrich-Stechele-Str.","postalCode":"74074","locality":"Heilbronn","municipality":{"key":"08121000","name":"Heilbronn, Universitätsstadt","type":"Stadtkreis"},"district":{"key":"08121","name":"Heilbronn, Stadtkreis","type":"Stadtkreis"},"federalState":{"key":"08","name":"Baden-Württemberg"}},{"name":"Ulrichstr.","postalCode":"74078","locality":"Heilbronn","municipality":{"key":"08121000","name":"Heilbronn, Universitätsstadt","type":"Stadtkreis"},"district":{"key":"08121","name":"Heilbronn, Stadtkreis","type":"Stadtkreis"},"federalState":{"key":"08","name":"Baden-Württemberg"}},{"name":"Unter dem Wettenberg","postalCode":"74081","locality":"Heilbronn","municipality":{"key":"08121000","name":"Heilbronn, Universitätsstadt","type":"Stadtkreis"},"district":{"key":"08121","name":"Heilbronn, Stadtkreis","type":"Stadtkreis"},"federalState":{"key":"08","name":"Baden-Württemberg"}},{"name":"Untere Kanalstr.","postalCode":"74081","locality":"Heilbronn","municipality":{"key":"08121000","name":"Heilbronn, Universitätsstadt","type":"Stadtkreis"},"district":{"key":"08121","name":"Heilbronn, Stadtkreis","type":"Stadtkreis"},"federalState":{"key":"08","name":"Baden-Württemberg"}},{"name":"Unterlandstr.","postalCode":"74078","locality":"Heilbronn","municipality":{"key":"08121000","name":"Heilbronn, Universitätsstadt","type":"Stadtkreis"},"district":{"key":"08121","name":"Heilbronn, Stadtkreis","type":"Stadtkreis"},"federalState":{"key":"08","name":"Baden-Württemberg"}},{"name":"Urbanstr.","postalCode":"74072","locality":"Heilbronn","municipality":{"key":"08121000","name":"Heilbronn, Universitätsstadt","type":"Stadtkreis"},"district":{"key":"08121","name":"Heilbronn, Stadtkreis","type":"Stadtkreis"},"federalState":{"key":"08","name":"Baden-Württemberg"}},{"name":"Urbanstr.","postalCode":"74074","locality":"Heilbronn","municipality":{"key":"08121000","name":"Heilbronn, Universitätsstadt","type":"Stadtkreis"},"district":{"key":"08121","name":"Heilbronn, Stadtkreis","type":"Stadtkreis"},"federalState":{"key":"08","name":"Baden-Württemberg"}},{"name":"Veilchenweg","postalCode":"74078","locality":"Heilbronn","municipality":{"key":"08121000","name":"Heilbronn, Universitätsstadt","type":"Stadtkreis"},"district":{"key":"08121","name":"Heilbronn, Stadtkreis","type":"Stadtkreis"},"federalState":{"key":"08","name":"Baden-Württemberg"}},{"name":"Verdistr.","postalCode":"74078","locality":"Heilbronn","municipality":{"key":"08121000","name":"Heilbronn, Universitätsstadt","type":"Stadtkreis"},"district":{"key":"08121","name":"Heilbronn, Stadtkreis","type":"Stadtkreis"},"federalState":{"key":"08","name":"Baden-Württemberg"}},{"name":"Viehweide","postalCode":"74080","locality":"Heilbronn","municipality":{"key":"08121000","name":"Heilbronn, Universitätsstadt","type":"Stadtkreis"},"district":{"key":"08121","name":"Heilbronn, Stadtkreis","type":"Stadtkreis"},"federalState":{"key":"08","name":"Baden-Württemberg"}},{"name":"Viehweideweg","postalCode":"74078","locality":"Heilbronn","municipality":{"key":"08121000","name":"Heilbronn, Universitätsstadt","type":"Stadtkreis"},"district":{"key":"08121","name":"Heilbronn, Stadtkreis","type":"Stadtkreis"},"federalState":{"key":"08","name":"Baden-Württemberg"}},{"name":"Viktor-Scheffel-Str.","postalCode":"74076","locality":"Heilbronn","municipality":{"key":"08121000","name":"Heilbronn, Universitätsstadt","type":"Stadtkreis"},"district":{"key":"08121","name":"Heilbronn, Stadtkreis","type":"Stadtkreis"},"federalState":{"key":"08","name":"Baden-Württemberg"}},{"name":"Villmatstr.","postalCode":"74076","locality":"Heilbronn","municipality":{"key":"08121000","name":"Heilbronn, Universitätsstadt","type":"Stadtkreis"},"district":{"key":"08121","name":"Heilbronn, Stadtkreis","type":"Stadtkreis"},"federalState":{"key":"08","name":"Baden-Württemberg"}},{"name":"Virchowstr.","postalCode":"74074","locality":"Heilbronn","municipality":{"key":"08121000","name":"Heilbronn, Universitätsstadt","type":"Stadtkreis"},"district":{"key":"08121","name":"Heilbronn, Stadtkreis","type":"Stadtkreis"},"federalState":{"key":"08","name":"Baden-Württemberg"}},{"name":"Vogelsangstr.","postalCode":"74080","locality":"Heilbronn","municipality":{"key":"08121000","name":"Heilbronn, Universitätsstadt","type":"Stadtkreis"},"district":{"key":"08121","name":"Heilbronn, Stadtkreis","type":"Stadtkreis"},"federalState":{"key":"08","name":"Baden-Württemberg"}},{"name":"Von-Klug-Str.","postalCode":"74078","locality":"Heilbronn","municipality":{"key":"08121000","name":"Heilbronn, Universitätsstadt","type":"Stadtkreis"},"district":{"key":"08121","name":"Heilbronn, Stadtkreis","type":"Stadtkreis"},"federalState":{"key":"08","name":"Baden-Württemberg"}},{"name":"Von-Witzleben-Str.","postalCode":"74074","locality":"Heilbronn","municipality":{"key":"08121000","name":"Heilbronn, Universitätsstadt","type":"Stadtkreis"},"district":{"key":"08121","name":"Heilbronn, Stadtkreis","type":"Stadtkreis"},"federalState":{"key":"08","name":"Baden-Württemberg"}},{"name":"Vorderer Kreuzgrund","postalCode":"74080","locality":"Heilbronn","municipality":{"key":"08121000","name":"Heilbronn, Universitätsstadt","type":"Stadtkreis"},"district":{"key":"08121","name":"Heilbronn, Stadtkreis","type":"Stadtkreis"},"federalState":{"key":"08","name":"Baden-Württemberg"}},{"name":"Weidichstr.","postalCode":"74248","locality":"Ellhofen","municipality":{"key":"08125024","name":"Ellhofen","type":"Kreisangehörige_Gemeinde"},"district":{"key":"08125","name":"Heilbronn","type":"Landkreis"},"federalState":{"key":"08","name":"Baden-Württemberg"}},{"name":"Weinsberger Str.","postalCode":"74248","locality":"Ellhofen","municipality":{"key":"08125024","name":"Ellhofen","type":"Kreisangehörige_Gemeinde"},"district":{"key":"08125","name":"Heilbronn","type":"Landkreis"},"federalState":{"key":"08","name":"Baden-Württemberg"}},{"name":"Weststr.","postalCode":"74248","locality":"Ellhofen","municipality":{"key":"08125024","name":"Ellhofen","type":"Kreisangehörige_Gemeinde"},"district":{"key":"08125","name":"Heilbronn","type":"Landkreis"},"federalState":{"key":"08","name":"Baden-Württemberg"}},{"name":"Wiesenweg","postalCode":"74248","locality":"Ellhofen","municipality":{"key":"08125024","name":"Ellhofen","type":"Kreisangehörige_Gemeinde"},"district":{"key":"08125","name":"Heilbronn","type":"Landkreis"},"federalState":{"key":"08","name":"Baden-Württemberg"}},{"name":"Zabergäustr.","postalCode":"74080","locality":"Heilbronn","municipality":{"key":"08121000","name":"Heilbronn, Universitätsstadt","type":"Stadtkreis"},"district":{"key":"08121","name":"Heilbronn, Stadtkreis","type":"Stadtkreis"},"federalState":{"key":"08","name":"Baden-Württemberg"}},{"name":"Zehentgasse","postalCode":"74072","locality":"Heilbronn","municipality":{"key":"08121000","name":"Heilbronn, Universitätsstadt","type":"Stadtkreis"},"district":{"key":"08121","name":"Heilbronn, Stadtkreis","type":"Stadtkreis"},"federalState":{"key":"08","name":"Baden-Württemberg"}},{"name":"Zeisigstr.","postalCode":"74078","locality":"Heilbronn","municipality":{"key":"08121000","name":"Heilbronn, Universitätsstadt","type":"Stadtkreis"},"district":{"key":"08121","name":"Heilbronn, Stadtkreis","type":"Stadtkreis"},"federalState":{"key":"08","name":"Baden-Württemberg"}},{"name":"Zellerstr.","postalCode":"74080","locality":"Heilbronn","municipality":{"key":"08121000","name":"Heilbronn, Universitätsstadt","type":"Stadtkreis"},"district":{"key":"08121","name":"Heilbronn, Stadtkreis","type":"Stadtkreis"},"federalState":{"key":"08","name":"Baden-Württemberg"}},{"name":"Zeppelinstr.","postalCode":"74074","locality":"Heilbronn","municipality":{"key":"08121000","name":"Heilbronn, Universitätsstadt","type":"Stadtkreis"},"district":{"key":"08121","name":"Heilbronn, Stadtkreis","type":"Stadtkreis"},"federalState":{"key":"08","name":"Baden-Württemberg"}},{"name":"Ziegeleistr.","postalCode":"74078","locality":"Heilbronn","municipality":{"key":"08121000","name":"Heilbronn, Universitätsstadt","type":"Stadtkreis"},"district":{"key":"08121","name":"Heilbronn, Stadtkreis","type":"Stadtkreis"},"federalState":{"key":"08","name":"Baden-Württemberg"}},{"name":"Ziegeleiweg","postalCode":"74080","locality":"Heilbronn","municipality":{"key":"08121000","name":"Heilbronn, Universitätsstadt","type":"Stadtkreis"},"district":{"key":"08121","name":"Heilbronn, Stadtkreis","type":"Stadtkreis"},"federalState":{"key":"08","name":"Baden-Württemberg"}},{"name":"Ziemssenstr.","postalCode":"74080","locality":"Heilbronn","municipality":{"key":"08121000","name":"Heilbronn, Universitätsstadt","type":"Stadtkreis"},"district":{"key":"08121","name":"Heilbronn, Stadtkreis","type":"Stadtkreis"},"federalState":{"key":"08","name":"Baden-Württemberg"}},{"name":"Zückwolfstr.","postalCode":"74078","locality":"Heilbronn","municipality":{"key":"08121000","name":"Heilbronn, Universitätsstadt","type":"Stadtkreis"},"district":{"key":"08121","name":"Heilbronn, Stadtkreis","type":"Stadtkreis"},"federalState":{"key":"08","name":"Baden-Württemberg"}},{"name":"Zügelstr.","postalCode":"74074","locality":"Heilbronn","municipality":{"key":"08121000","name":"Heilbronn, Universitätsstadt","type":"Stadtkreis"},"district":{"key":"08121","name":"Heilbronn, Stadtkreis","type":"Stadtkreis"},"federalState":{"key":"08","name":"Baden-Württemberg"}},{"name":"Zweite Hohl","postalCode":"74080","locality":"Heilbronn","municipality":{"key":"08121000","name":"Heilbronn, Universitätsstadt","type":"Stadtkreis"},"district":{"key":"08121","name":"Heilbronn, Stadtkreis","type":"Stadtkreis"},"federalState":{"key":"08","name":"Baden-Württemberg"}},{"name":"Zweite Hohl","postalCode":"74081","locality":"Heilbronn","municipality":{"key":"08121000","name":"Heilbronn, Universitätsstadt","type":"Stadtkreis"},"district":{"key":"08121","name":"Heilbronn, Stadtkreis","type":"Stadtkreis"},"federalState":{"key":"08","name":"Baden-Württemberg"}},{"name":"Zwirnereistr.","postalCode":"74081","locality":"Heilbronn","municipality":{"key":"08121000","name":"Heilbronn, Universitätsstadt","type":"Stadtkreis"},"district":{"key":"08121","name":"Heilbronn, Stadtkreis","type":"Stadtkreis"},"federalState":{"key":"08","name":"Baden-Württemberg"}},{"name":"Äußere Mausklinge","postalCode":"74074","locality":"Heilbronn","municipality":{"key":"08121000","name":"Heilbronn, Universitätsstadt","type":"Stadtkreis"},"district":{"key":"08121","name":"Heilbronn, Stadtkreis","type":"Stadtkreis"},"federalState":{"key":"08","name":"Baden-Württemberg"}},{"name":"Äußerer Steinweg","postalCode":"74074","locality":"Heilbronn","municipality":{"key":"08121000","name":"Heilbronn, Universitätsstadt","type":"Stadtkreis"},"district":{"key":"08121","name":"Heilbronn, Stadtkreis","type":"Stadtkreis"},"federalState":{"key":"08","name":"Baden-Württemberg"}},{"name":"Ödenburger Str.","postalCode":"74078","locality":"Heilbronn","municipality":{"key":"08121000","name":"Heilbronn, Universitätsstadt","type":"Stadtkreis"},"district":{"key":"08121","name":"Heilbronn, Stadtkreis","type":"Stadtkreis"},"federalState":{"key":"08","name":"Baden-Württemberg"}},{"name":"Öhringer Str.","postalCode":"74076","locality":"Heilbronn","municipality":{"key":"08121000","name":"Heilbronn, Universitätsstadt","type":"Stadtkreis"},"district":{"key":"08121","name":"Heilbronn, Stadtkreis","type":"Stadtkreis"},"federalState":{"key":"08","name":"Baden-Württemberg"}},]