[{"key":"10219947","name":"Faverstrasse","postalCode":"3206","locality":"Ferenbalm","commune":{"key":"662","name":"Ferenbalm","shortName":"Ferenbalm"},"district":{"key":"246","name":"Verwaltungskreis Bern-Mittelland"},"canton":{"key":"2","code":"BE","name":"Bern / Berne"},"status":"Real"},{"key":"10176073","name":"Ferenbalmstrasse","postalCode":"3206","locality":"Ferenbalm","commune":{"key":"662","name":"Ferenbalm","shortName":"Ferenbalm"},"district":{"key":"246","name":"Verwaltungskreis Bern-Mittelland"},"canton":{"key":"2","code":"BE","name":"Bern / Berne"},"status":"Real"},{"key":"10005112","name":"Jerisberg","postalCode":"3206","locality":"Ferenbalm","commune":{"key":"662","name":"Ferenbalm","shortName":"Ferenbalm"},"district":{"key":"246","name":"Verwaltungskreis Bern-Mittelland"},"canton":{"key":"2","code":"BE","name":"Bern / Berne"},"status":"Real"},{"key":"10058101","name":"Jerisberghof","postalCode":"3206","locality":"Ferenbalm","commune":{"key":"662","name":"Ferenbalm","shortName":"Ferenbalm"},"district":{"key":"246","name":"Verwaltungskreis Bern-Mittelland"},"canton":{"key":"2","code":"BE","name":"Bern / Berne"},"status":"Real"},{"key":"10080664","name":"Jerisbergmühle","postalCode":"3206","locality":"Ferenbalm","commune":{"key":"662","name":"Ferenbalm","shortName":"Ferenbalm"},"district":{"key":"246","name":"Verwaltungskreis Bern-Mittelland"},"canton":{"key":"2","code":"BE","name":"Bern / Berne"},"status":"Real"},{"key":"10177094","name":"Kirchgasse","postalCode":"3206","locality":"Ferenbalm","commune":{"key":"662","name":"Ferenbalm","shortName":"Ferenbalm"},"district":{"key":"246","name":"Verwaltungskreis Bern-Mittelland"},"canton":{"key":"2","code":"BE","name":"Bern / Berne"},"status":"Real"},{"key":"10176719","name":"Riederenstrasse","postalCode":"3206","locality":"Ferenbalm","commune":{"key":"662","name":"Ferenbalm","shortName":"Ferenbalm"},"district":{"key":"246","name":"Verwaltungskreis Bern-Mittelland"},"canton":{"key":"2","code":"BE","name":"Bern / Berne"},"status":"Real"},{"key":"10176720","name":"Rütimattweg","postalCode":"3206","locality":"Ferenbalm","commune":{"key":"662","name":"Ferenbalm","shortName":"Ferenbalm"},"district":{"key":"246","name":"Verwaltungskreis Bern-Mittelland"},"canton":{"key":"2","code":"BE","name":"Bern / Berne"},"status":"Real"},{"key":"10176721","name":"Sägeweg","postalCode":"3206","locality":"Ferenbalm","commune":{"key":"662","name":"Ferenbalm","shortName":"Ferenbalm"},"district":{"key":"246","name":"Verwaltungskreis Bern-Mittelland"},"canton":{"key":"2","code":"BE","name":"Bern / Berne"},"status":"Real"},{"key":"10176079","name":"Stationsstrasse","postalCode":"3206","locality":"Ferenbalm","commune":{"key":"662","name":"Ferenbalm","shortName":"Ferenbalm"},"district":{"key":"246","name":"Verwaltungskreis Bern-Mittelland"},"canton":{"key":"2","code":"BE","name":"Bern / Berne"},"status":"Real"},]