[{"key":"10249896","name":"A13","postalCode":"7310","locality":"Bad Ragaz","commune":{"key":"3291","name":"Bad Ragaz","shortName":"Bad Ragaz"},"district":{"key":"1725","name":"Wahlkreis Sarganserland"},"canton":{"key":"17","code":"SG","name":"St. Gallen"},"status":"Real"},{"key":"10234941","name":"Ackerstrasse","postalCode":"7310","locality":"Bad Ragaz","commune":{"key":"3291","name":"Bad Ragaz","shortName":"Bad Ragaz"},"district":{"key":"1725","name":"Wahlkreis Sarganserland"},"canton":{"key":"17","code":"SG","name":"St. Gallen"},"status":"Real"},{"key":"10076954","name":"Aeulistrasse","postalCode":"7310","locality":"Bad Ragaz","commune":{"key":"3291","name":"Bad Ragaz","shortName":"Bad Ragaz"},"district":{"key":"1725","name":"Wahlkreis Sarganserland"},"canton":{"key":"17","code":"SG","name":"St. Gallen"},"status":"Real"},{"key":"10212057","name":"Aeuliweg","postalCode":"7310","locality":"Bad Ragaz","commune":{"key":"3291","name":"Bad Ragaz","shortName":"Bad Ragaz"},"district":{"key":"1725","name":"Wahlkreis Sarganserland"},"canton":{"key":"17","code":"SG","name":"St. Gallen"},"status":"Real"},{"key":"10150021","name":"Ahornstrasse","postalCode":"7310","locality":"Bad Ragaz","commune":{"key":"3291","name":"Bad Ragaz","shortName":"Bad Ragaz"},"district":{"key":"1725","name":"Wahlkreis Sarganserland"},"canton":{"key":"17","code":"SG","name":"St. Gallen"},"status":"Real"},{"key":"10151840","name":"Ahornweg","postalCode":"7310","locality":"Bad Ragaz","commune":{"key":"3291","name":"Bad Ragaz","shortName":"Bad Ragaz"},"district":{"key":"1725","name":"Wahlkreis Sarganserland"},"canton":{"key":"17","code":"SG","name":"St. Gallen"},"status":"Real"},{"key":"10023903","name":"Allmendweg","postalCode":"7310","locality":"Bad Ragaz","commune":{"key":"3291","name":"Bad Ragaz","shortName":"Bad Ragaz"},"district":{"key":"1725","name":"Wahlkreis Sarganserland"},"canton":{"key":"17","code":"SG","name":"St. Gallen"},"status":"Real"},{"key":"10230926","name":"Almeiliweg","postalCode":"7310","locality":"Bad Ragaz","commune":{"key":"3291","name":"Bad Ragaz","shortName":"Bad Ragaz"},"district":{"key":"1725","name":"Wahlkreis Sarganserland"},"canton":{"key":"17","code":"SG","name":"St. Gallen"},"status":"Real"},{"key":"10145722","name":"Alpenstrasse","postalCode":"7310","locality":"Bad Ragaz","commune":{"key":"3291","name":"Bad Ragaz","shortName":"Bad Ragaz"},"district":{"key":"1725","name":"Wahlkreis Sarganserland"},"canton":{"key":"17","code":"SG","name":"St. Gallen"},"status":"Real"},{"key":"10230930","name":"alter Alpweg","postalCode":"7310","locality":"Bad Ragaz","commune":{"key":"3291","name":"Bad Ragaz","shortName":"Bad Ragaz"},"district":{"key":"1725","name":"Wahlkreis Sarganserland"},"canton":{"key":"17","code":"SG","name":"St. Gallen"},"status":"Real"},{"key":"10023904","name":"Alvierstrasse","postalCode":"7310","locality":"Bad Ragaz","commune":{"key":"3291","name":"Bad Ragaz","shortName":"Bad Ragaz"},"district":{"key":"1725","name":"Wahlkreis Sarganserland"},"canton":{"key":"17","code":"SG","name":"St. Gallen"},"status":"Real"},{"key":"10088382","name":"Am Freudenberg","postalCode":"7310","locality":"Bad Ragaz","commune":{"key":"3291","name":"Bad Ragaz","shortName":"Bad Ragaz"},"district":{"key":"1725","name":"Wahlkreis Sarganserland"},"canton":{"key":"17","code":"SG","name":"St. Gallen"},"status":"Real"},{"key":"10023905","name":"Am Platz","postalCode":"7310","locality":"Bad Ragaz","commune":{"key":"3291","name":"Bad Ragaz","shortName":"Bad Ragaz"},"district":{"key":"1725","name":"Wahlkreis Sarganserland"},"canton":{"key":"17","code":"SG","name":"St. Gallen"},"status":"Real"},{"key":"10249904","name":"Anschluss A13","postalCode":"7310","locality":"Bad Ragaz","commune":{"key":"3291","name":"Bad Ragaz","shortName":"Bad Ragaz"},"district":{"key":"1725","name":"Wahlkreis Sarganserland"},"canton":{"key":"17","code":"SG","name":"St. Gallen"},"status":"Real"},{"key":"10234945","name":"Aurorastrasse","postalCode":"7310","locality":"Bad Ragaz","commune":{"key":"3291","name":"Bad Ragaz","shortName":"Bad Ragaz"},"district":{"key":"1725","name":"Wahlkreis Sarganserland"},"canton":{"key":"17","code":"SG","name":"St. Gallen"},"status":"Real"},{"key":"10249912","name":"Auroraweg","postalCode":"7310","locality":"Bad Ragaz","commune":{"key":"3291","name":"Bad Ragaz","shortName":"Bad Ragaz"},"district":{"key":"1725","name":"Wahlkreis Sarganserland"},"canton":{"key":"17","code":"SG","name":"St. Gallen"},"status":"Real"},{"key":"10208235","name":"Bäckerstrasse","postalCode":"7310","locality":"Bad Ragaz","commune":{"key":"3291","name":"Bad Ragaz","shortName":"Bad Ragaz"},"district":{"key":"1725","name":"Wahlkreis Sarganserland"},"canton":{"key":"17","code":"SG","name":"St. Gallen"},"status":"Real"},{"key":"10230934","name":"Badgasse","postalCode":"7310","locality":"Bad Ragaz","commune":{"key":"3291","name":"Bad Ragaz","shortName":"Bad Ragaz"},"district":{"key":"1725","name":"Wahlkreis Sarganserland"},"canton":{"key":"17","code":"SG","name":"St. Gallen"},"status":"Real"},{"key":"10023906","name":"Badriebstrasse","postalCode":"7310","locality":"Bad Ragaz","commune":{"key":"3291","name":"Bad Ragaz","shortName":"Bad Ragaz"},"district":{"key":"1725","name":"Wahlkreis Sarganserland"},"canton":{"key":"17","code":"SG","name":"St. Gallen"},"status":"Real"},{"key":"10138359","name":"Badriebweg","postalCode":"7310","locality":"Bad Ragaz","commune":{"key":"3291","name":"Bad Ragaz","shortName":"Bad Ragaz"},"district":{"key":"1725","name":"Wahlkreis Sarganserland"},"canton":{"key":"17","code":"SG","name":"St. Gallen"},"status":"Real"},{"key":"10023907","name":"Badstrasse","postalCode":"7310","locality":"Bad Ragaz","commune":{"key":"3291","name":"Bad Ragaz","shortName":"Bad Ragaz"},"district":{"key":"1725","name":"Wahlkreis Sarganserland"},"canton":{"key":"17","code":"SG","name":"St. Gallen"},"status":"Real"},{"key":"10230938","name":"Badweg","postalCode":"7310","locality":"Bad Ragaz","commune":{"key":"3291","name":"Bad Ragaz","shortName":"Bad Ragaz"},"district":{"key":"1725","name":"Wahlkreis Sarganserland"},"canton":{"key":"17","code":"SG","name":"St. Gallen"},"status":"Real"},{"key":"10230942","name":"Bagolweg","postalCode":"7310","locality":"Bad Ragaz","commune":{"key":"3291","name":"Bad Ragaz","shortName":"Bad Ragaz"},"district":{"key":"1725","name":"Wahlkreis Sarganserland"},"canton":{"key":"17","code":"SG","name":"St. Gallen"},"status":"Real"},{"key":"10104967","name":"Bahnhofplatz","postalCode":"7310","locality":"Bad Ragaz","commune":{"key":"3291","name":"Bad Ragaz","shortName":"Bad Ragaz"},"district":{"key":"1725","name":"Wahlkreis Sarganserland"},"canton":{"key":"17","code":"SG","name":"St. Gallen"},"status":"Real"},{"key":"10076940","name":"Bahnhofstrasse","postalCode":"7310","locality":"Bad Ragaz","commune":{"key":"3291","name":"Bad Ragaz","shortName":"Bad Ragaz"},"district":{"key":"1725","name":"Wahlkreis Sarganserland"},"canton":{"key":"17","code":"SG","name":"St. Gallen"},"status":"Real"},{"key":"10088383","name":"Bartholoméplatz","postalCode":"7310","locality":"Bad Ragaz","commune":{"key":"3291","name":"Bad Ragaz","shortName":"Bad Ragaz"},"district":{"key":"1725","name":"Wahlkreis Sarganserland"},"canton":{"key":"17","code":"SG","name":"St. Gallen"},"status":"Real"},{"key":"10023908","name":"Baschärhof","postalCode":"7310","locality":"Bad Ragaz","commune":{"key":"3291","name":"Bad Ragaz","shortName":"Bad Ragaz"},"district":{"key":"1725","name":"Wahlkreis Sarganserland"},"canton":{"key":"17","code":"SG","name":"St. Gallen"},"status":"Real"},{"key":"10226852","name":"Bauersträsschen","postalCode":"7310","locality":"Bad Ragaz","commune":{"key":"3291","name":"Bad Ragaz","shortName":"Bad Ragaz"},"district":{"key":"1725","name":"Wahlkreis Sarganserland"},"canton":{"key":"17","code":"SG","name":"St. Gallen"},"status":"Real"},{"key":"10226860","name":"Bergweg","postalCode":"7310","locality":"Bad Ragaz","commune":{"key":"3291","name":"Bad Ragaz","shortName":"Bad Ragaz"},"district":{"key":"1725","name":"Wahlkreis Sarganserland"},"canton":{"key":"17","code":"SG","name":"St. Gallen"},"status":"Real"},{"key":"10184231","name":"Bernhard-Simon-Strasse","postalCode":"7310","locality":"Bad Ragaz","commune":{"key":"3291","name":"Bad Ragaz","shortName":"Bad Ragaz"},"district":{"key":"1725","name":"Wahlkreis Sarganserland"},"canton":{"key":"17","code":"SG","name":"St. Gallen"},"status":"Real"},{"key":"10226868","name":"Bettlerweg","postalCode":"7310","locality":"Bad Ragaz","commune":{"key":"3291","name":"Bad Ragaz","shortName":"Bad Ragaz"},"district":{"key":"1725","name":"Wahlkreis Sarganserland"},"canton":{"key":"17","code":"SG","name":"St. Gallen"},"status":"Real"},{"key":"10088384","name":"Bidemsstrasse","postalCode":"7310","locality":"Bad Ragaz","commune":{"key":"3291","name":"Bad Ragaz","shortName":"Bad Ragaz"},"district":{"key":"1725","name":"Wahlkreis Sarganserland"},"canton":{"key":"17","code":"SG","name":"St. Gallen"},"status":"Real"},{"key":"10226876","name":"Bidemsweg","postalCode":"7310","locality":"Bad Ragaz","commune":{"key":"3291","name":"Bad Ragaz","shortName":"Bad Ragaz"},"district":{"key":"1725","name":"Wahlkreis Sarganserland"},"canton":{"key":"17","code":"SG","name":"St. Gallen"},"status":"Real"},{"key":"10023909","name":"Bildbüntenweg","postalCode":"7310","locality":"Bad Ragaz","commune":{"key":"3291","name":"Bad Ragaz","shortName":"Bad Ragaz"},"district":{"key":"1725","name":"Wahlkreis Sarganserland"},"canton":{"key":"17","code":"SG","name":"St. Gallen"},"status":"Real"},{"key":"10122406","name":"Birkenweg","postalCode":"7310","locality":"Bad Ragaz","commune":{"key":"3291","name":"Bad Ragaz","shortName":"Bad Ragaz"},"district":{"key":"1725","name":"Wahlkreis Sarganserland"},"canton":{"key":"17","code":"SG","name":"St. Gallen"},"status":"Real"},{"key":"10187351","name":"Blumenrainstrasse","postalCode":"7310","locality":"Bad Ragaz","commune":{"key":"3291","name":"Bad Ragaz","shortName":"Bad Ragaz"},"district":{"key":"1725","name":"Wahlkreis Sarganserland"},"canton":{"key":"17","code":"SG","name":"St. Gallen"},"status":"Real"},{"key":"10023910","name":"Blumenweg","postalCode":"7310","locality":"Bad Ragaz","commune":{"key":"3291","name":"Bad Ragaz","shortName":"Bad Ragaz"},"district":{"key":"1725","name":"Wahlkreis Sarganserland"},"canton":{"key":"17","code":"SG","name":"St. Gallen"},"status":"Real"},{"key":"10062773","name":"Bofelweg","postalCode":"7310","locality":"Bad Ragaz","commune":{"key":"3291","name":"Bad Ragaz","shortName":"Bad Ragaz"},"district":{"key":"1725","name":"Wahlkreis Sarganserland"},"canton":{"key":"17","code":"SG","name":"St. Gallen"},"status":"Real"},{"key":"10016023","name":"Brunnenstrasse","postalCode":"7310","locality":"Bad Ragaz","commune":{"key":"3291","name":"Bad Ragaz","shortName":"Bad Ragaz"},"district":{"key":"1725","name":"Wahlkreis Sarganserland"},"canton":{"key":"17","code":"SG","name":"St. Gallen"},"status":"Real"},{"key":"10226884","name":"Buchenstrasse","postalCode":"7310","locality":"Bad Ragaz","commune":{"key":"3291","name":"Bad Ragaz","shortName":"Bad Ragaz"},"district":{"key":"1725","name":"Wahlkreis Sarganserland"},"canton":{"key":"17","code":"SG","name":"St. Gallen"},"status":"Real"},{"key":"10023911","name":"Büelstrasse","postalCode":"7310","locality":"Bad Ragaz","commune":{"key":"3291","name":"Bad Ragaz","shortName":"Bad Ragaz"},"district":{"key":"1725","name":"Wahlkreis Sarganserland"},"canton":{"key":"17","code":"SG","name":"St. Gallen"},"status":"Real"},{"key":"10148597","name":"Büelweg","postalCode":"7310","locality":"Bad Ragaz","commune":{"key":"3291","name":"Bad Ragaz","shortName":"Bad Ragaz"},"district":{"key":"1725","name":"Wahlkreis Sarganserland"},"canton":{"key":"17","code":"SG","name":"St. Gallen"},"status":"Real"},{"key":"10226892","name":"Bündnerhofweg","postalCode":"7310","locality":"Bad Ragaz","commune":{"key":"3291","name":"Bad Ragaz","shortName":"Bad Ragaz"},"district":{"key":"1725","name":"Wahlkreis Sarganserland"},"canton":{"key":"17","code":"SG","name":"St. Gallen"},"status":"Real"},{"key":"10249915","name":"Büntliweg","postalCode":"7310","locality":"Bad Ragaz","commune":{"key":"3291","name":"Bad Ragaz","shortName":"Bad Ragaz"},"district":{"key":"1725","name":"Wahlkreis Sarganserland"},"canton":{"key":"17","code":"SG","name":"St. Gallen"},"status":"Real"},{"key":"10226900","name":"Burgweg","postalCode":"7310","locality":"Bad Ragaz","commune":{"key":"3291","name":"Bad Ragaz","shortName":"Bad Ragaz"},"district":{"key":"1725","name":"Wahlkreis Sarganserland"},"canton":{"key":"17","code":"SG","name":"St. Gallen"},"status":"Real"},{"key":"10076941","name":"Calandastrasse","postalCode":"7310","locality":"Bad Ragaz","commune":{"key":"3291","name":"Bad Ragaz","shortName":"Bad Ragaz"},"district":{"key":"1725","name":"Wahlkreis Sarganserland"},"canton":{"key":"17","code":"SG","name":"St. Gallen"},"status":"Real"},{"key":"10118262","name":"Chriesilöserstrasse","postalCode":"7310","locality":"Bad Ragaz","commune":{"key":"3291","name":"Bad Ragaz","shortName":"Bad Ragaz"},"district":{"key":"1725","name":"Wahlkreis Sarganserland"},"canton":{"key":"17","code":"SG","name":"St. Gallen"},"status":"Real"},{"key":"10170860","name":"Chriesilöserweg","postalCode":"7310","locality":"Bad Ragaz","commune":{"key":"3291","name":"Bad Ragaz","shortName":"Bad Ragaz"},"district":{"key":"1725","name":"Wahlkreis Sarganserland"},"canton":{"key":"17","code":"SG","name":"St. Gallen"},"status":"Real"},{"key":"10226908","name":"Chriesiweg","postalCode":"7310","locality":"Bad Ragaz","commune":{"key":"3291","name":"Bad Ragaz","shortName":"Bad Ragaz"},"district":{"key":"1725","name":"Wahlkreis Sarganserland"},"canton":{"key":"17","code":"SG","name":"St. Gallen"},"status":"Real"},{"key":"10226917","name":"Chrinagasse","postalCode":"7310","locality":"Bad Ragaz","commune":{"key":"3291","name":"Bad Ragaz","shortName":"Bad Ragaz"},"district":{"key":"1725","name":"Wahlkreis Sarganserland"},"canton":{"key":"17","code":"SG","name":"St. Gallen"},"status":"Real"},{"key":"10151601","name":"Chrinasträsschen","postalCode":"7310","locality":"Bad Ragaz","commune":{"key":"3291","name":"Bad Ragaz","shortName":"Bad Ragaz"},"district":{"key":"1725","name":"Wahlkreis Sarganserland"},"canton":{"key":"17","code":"SG","name":"St. Gallen"},"status":"Real"},{"key":"10142186","name":"Chrinnen","postalCode":"7310","locality":"Bad Ragaz","commune":{"key":"3291","name":"Bad Ragaz","shortName":"Bad Ragaz"},"district":{"key":"1725","name":"Wahlkreis Sarganserland"},"canton":{"key":"17","code":"SG","name":"St. Gallen"},"status":"Real"},{"key":"10123309","name":"Churfirstenstrasse","postalCode":"7310","locality":"Bad Ragaz","commune":{"key":"3291","name":"Bad Ragaz","shortName":"Bad Ragaz"},"district":{"key":"1725","name":"Wahlkreis Sarganserland"},"canton":{"key":"17","code":"SG","name":"St. Gallen"},"status":"Real"},{"key":"10076942","name":"Dahlienweg","postalCode":"7310","locality":"Bad Ragaz","commune":{"key":"3291","name":"Bad Ragaz","shortName":"Bad Ragaz"},"district":{"key":"1725","name":"Wahlkreis Sarganserland"},"canton":{"key":"17","code":"SG","name":"St. Gallen"},"status":"Real"},{"key":"10234944","name":"Dammweg","postalCode":"7310","locality":"Bad Ragaz","commune":{"key":"3291","name":"Bad Ragaz","shortName":"Bad Ragaz"},"district":{"key":"1725","name":"Wahlkreis Sarganserland"},"canton":{"key":"17","code":"SG","name":"St. Gallen"},"status":"Real"},{"key":"10023912","name":"Dekan-Oesch-Strasse","postalCode":"7310","locality":"Bad Ragaz","commune":{"key":"3291","name":"Bad Ragaz","shortName":"Bad Ragaz"},"district":{"key":"1725","name":"Wahlkreis Sarganserland"},"canton":{"key":"17","code":"SG","name":"St. Gallen"},"status":"Real"},{"key":"10088386","name":"Dianaweg","postalCode":"7310","locality":"Bad Ragaz","commune":{"key":"3291","name":"Bad Ragaz","shortName":"Bad Ragaz"},"district":{"key":"1725","name":"Wahlkreis Sarganserland"},"canton":{"key":"17","code":"SG","name":"St. Gallen"},"status":"Real"},{"key":"10023913","name":"Dorfbadgasse","postalCode":"7310","locality":"Bad Ragaz","commune":{"key":"3291","name":"Bad Ragaz","shortName":"Bad Ragaz"},"district":{"key":"1725","name":"Wahlkreis Sarganserland"},"canton":{"key":"17","code":"SG","name":"St. Gallen"},"status":"Real"},{"key":"10023914","name":"Efeuweg","postalCode":"7310","locality":"Bad Ragaz","commune":{"key":"3291","name":"Bad Ragaz","shortName":"Bad Ragaz"},"district":{"key":"1725","name":"Wahlkreis Sarganserland"},"canton":{"key":"17","code":"SG","name":"St. Gallen"},"status":"Real"},{"key":"10226925","name":"Eichbüelweg","postalCode":"7310","locality":"Bad Ragaz","commune":{"key":"3291","name":"Bad Ragaz","shortName":"Bad Ragaz"},"district":{"key":"1725","name":"Wahlkreis Sarganserland"},"canton":{"key":"17","code":"SG","name":"St. Gallen"},"status":"Real"},{"key":"10076943","name":"Eigenweg","postalCode":"7310","locality":"Bad Ragaz","commune":{"key":"3291","name":"Bad Ragaz","shortName":"Bad Ragaz"},"district":{"key":"1725","name":"Wahlkreis Sarganserland"},"canton":{"key":"17","code":"SG","name":"St. Gallen"},"status":"Real"},{"key":"10023915","name":"Elestastrasse","postalCode":"7310","locality":"Bad Ragaz","commune":{"key":"3291","name":"Bad Ragaz","shortName":"Bad Ragaz"},"district":{"key":"1725","name":"Wahlkreis Sarganserland"},"canton":{"key":"17","code":"SG","name":"St. Gallen"},"status":"Real"},{"key":"10226935","name":"Elestaweg","postalCode":"7310","locality":"Bad Ragaz","commune":{"key":"3291","name":"Bad Ragaz","shortName":"Bad Ragaz"},"district":{"key":"1725","name":"Wahlkreis Sarganserland"},"canton":{"key":"17","code":"SG","name":"St. Gallen"},"status":"Real"},{"key":"10088387","name":"Enderlinweg","postalCode":"7310","locality":"Bad Ragaz","commune":{"key":"3291","name":"Bad Ragaz","shortName":"Bad Ragaz"},"district":{"key":"1725","name":"Wahlkreis Sarganserland"},"canton":{"key":"17","code":"SG","name":"St. Gallen"},"status":"Real"},{"key":"10181366","name":"Erlenweg","postalCode":"7310","locality":"Bad Ragaz","commune":{"key":"3291","name":"Bad Ragaz","shortName":"Bad Ragaz"},"district":{"key":"1725","name":"Wahlkreis Sarganserland"},"canton":{"key":"17","code":"SG","name":"St. Gallen"},"status":"Real"},{"key":"10142506","name":"Eschenstrasse","postalCode":"7310","locality":"Bad Ragaz","commune":{"key":"3291","name":"Bad Ragaz","shortName":"Bad Ragaz"},"district":{"key":"1725","name":"Wahlkreis Sarganserland"},"canton":{"key":"17","code":"SG","name":"St. Gallen"},"status":"Real"},{"key":"10023916","name":"Falknisstrasse","postalCode":"7310","locality":"Bad Ragaz","commune":{"key":"3291","name":"Bad Ragaz","shortName":"Bad Ragaz"},"district":{"key":"1725","name":"Wahlkreis Sarganserland"},"canton":{"key":"17","code":"SG","name":"St. Gallen"},"status":"Real"},{"key":"10232897","name":"Faller","postalCode":"7310","locality":"Bad Ragaz","commune":{"key":"3291","name":"Bad Ragaz","shortName":"Bad Ragaz"},"district":{"key":"1725","name":"Wahlkreis Sarganserland"},"canton":{"key":"17","code":"SG","name":"St. Gallen"},"status":"Real"},{"key":"10184696","name":"Fallersweg","postalCode":"7310","locality":"Bad Ragaz","commune":{"key":"3291","name":"Bad Ragaz","shortName":"Bad Ragaz"},"district":{"key":"1725","name":"Wahlkreis Sarganserland"},"canton":{"key":"17","code":"SG","name":"St. Gallen"},"status":"Real"},{"key":"10023917","name":"Feldstrasse","postalCode":"7310","locality":"Bad Ragaz","commune":{"key":"3291","name":"Bad Ragaz","shortName":"Bad Ragaz"},"district":{"key":"1725","name":"Wahlkreis Sarganserland"},"canton":{"key":"17","code":"SG","name":"St. Gallen"},"status":"Real"},{"key":"10088388","name":"Felsenkellerstrasse","postalCode":"7310","locality":"Bad Ragaz","commune":{"key":"3291","name":"Bad Ragaz","shortName":"Bad Ragaz"},"district":{"key":"1725","name":"Wahlkreis Sarganserland"},"canton":{"key":"17","code":"SG","name":"St. Gallen"},"status":"Real"},{"key":"10232905","name":"Felsenkellerweg","postalCode":"7310","locality":"Bad Ragaz","commune":{"key":"3291","name":"Bad Ragaz","shortName":"Bad Ragaz"},"district":{"key":"1725","name":"Wahlkreis Sarganserland"},"canton":{"key":"17","code":"SG","name":"St. Gallen"},"status":"Real"},{"key":"10062775","name":"Fichtenweg","postalCode":"7310","locality":"Bad Ragaz","commune":{"key":"3291","name":"Bad Ragaz","shortName":"Bad Ragaz"},"district":{"key":"1725","name":"Wahlkreis Sarganserland"},"canton":{"key":"17","code":"SG","name":"St. Gallen"},"status":"Real"},{"key":"10023918","name":"Flamsweg","postalCode":"7310","locality":"Bad Ragaz","commune":{"key":"3291","name":"Bad Ragaz","shortName":"Bad Ragaz"},"district":{"key":"1725","name":"Wahlkreis Sarganserland"},"canton":{"key":"17","code":"SG","name":"St. Gallen"},"status":"Real"},{"key":"10109442","name":"Fläscherstrasse","postalCode":"7310","locality":"Bad Ragaz","commune":{"key":"3291","name":"Bad Ragaz","shortName":"Bad Ragaz"},"district":{"key":"1725","name":"Wahlkreis Sarganserland"},"canton":{"key":"17","code":"SG","name":"St. Gallen"},"status":"Real"},{"key":"10232913","name":"Fläscherweg","postalCode":"7310","locality":"Bad Ragaz","commune":{"key":"3291","name":"Bad Ragaz","shortName":"Bad Ragaz"},"district":{"key":"1725","name":"Wahlkreis Sarganserland"},"canton":{"key":"17","code":"SG","name":"St. Gallen"},"status":"Real"},{"key":"10023919","name":"Fliederweg","postalCode":"7310","locality":"Bad Ragaz","commune":{"key":"3291","name":"Bad Ragaz","shortName":"Bad Ragaz"},"district":{"key":"1725","name":"Wahlkreis Sarganserland"},"canton":{"key":"17","code":"SG","name":"St. Gallen"},"status":"Real"},{"key":"10232919","name":"Fliegenbüelweg","postalCode":"7310","locality":"Bad Ragaz","commune":{"key":"3291","name":"Bad Ragaz","shortName":"Bad Ragaz"},"district":{"key":"1725","name":"Wahlkreis Sarganserland"},"canton":{"key":"17","code":"SG","name":"St. Gallen"},"status":"Real"},{"key":"10076944","name":"Floraweg","postalCode":"7310","locality":"Bad Ragaz","commune":{"key":"3291","name":"Bad Ragaz","shortName":"Bad Ragaz"},"district":{"key":"1725","name":"Wahlkreis Sarganserland"},"canton":{"key":"17","code":"SG","name":"St. Gallen"},"status":"Real"},{"key":"10229423","name":"Flugplatzstrasse","postalCode":"7310","locality":"Bad Ragaz","commune":{"key":"3291","name":"Bad Ragaz","shortName":"Bad Ragaz"},"district":{"key":"1725","name":"Wahlkreis Sarganserland"},"canton":{"key":"17","code":"SG","name":"St. Gallen"},"status":"Real"},{"key":"10181367","name":"Fluppestrasse","postalCode":"7310","locality":"Bad Ragaz","commune":{"key":"3291","name":"Bad Ragaz","shortName":"Bad Ragaz"},"district":{"key":"1725","name":"Wahlkreis Sarganserland"},"canton":{"key":"17","code":"SG","name":"St. Gallen"},"status":"Real"},{"key":"10088389","name":"Flurweg","postalCode":"7310","locality":"Bad Ragaz","commune":{"key":"3291","name":"Bad Ragaz","shortName":"Bad Ragaz"},"district":{"key":"1725","name":"Wahlkreis Sarganserland"},"canton":{"key":"17","code":"SG","name":"St. Gallen"},"status":"Real"},{"key":"10169077","name":"Föhrenhofweg","postalCode":"7310","locality":"Bad Ragaz","commune":{"key":"3291","name":"Bad Ragaz","shortName":"Bad Ragaz"},"district":{"key":"1725","name":"Wahlkreis Sarganserland"},"canton":{"key":"17","code":"SG","name":"St. Gallen"},"status":"Real"},{"key":"10088390","name":"Föhrenwaldweg","postalCode":"7310","locality":"Bad Ragaz","commune":{"key":"3291","name":"Bad Ragaz","shortName":"Bad Ragaz"},"district":{"key":"1725","name":"Wahlkreis Sarganserland"},"canton":{"key":"17","code":"SG","name":"St. Gallen"},"status":"Real"},{"key":"10062774","name":"Freihof","postalCode":"7310","locality":"Bad Ragaz","commune":{"key":"3291","name":"Bad Ragaz","shortName":"Bad Ragaz"},"district":{"key":"1725","name":"Wahlkreis Sarganserland"},"canton":{"key":"17","code":"SG","name":"St. Gallen"},"status":"Real"},{"key":"10023920","name":"Freihofweg","postalCode":"7310","locality":"Bad Ragaz","commune":{"key":"3291","name":"Bad Ragaz","shortName":"Bad Ragaz"},"district":{"key":"1725","name":"Wahlkreis Sarganserland"},"canton":{"key":"17","code":"SG","name":"St. Gallen"},"status":"Real"},{"key":"10023921","name":"Freudenbergweg","postalCode":"7310","locality":"Bad Ragaz","commune":{"key":"3291","name":"Bad Ragaz","shortName":"Bad Ragaz"},"district":{"key":"1725","name":"Wahlkreis Sarganserland"},"canton":{"key":"17","code":"SG","name":"St. Gallen"},"status":"Real"},{"key":"10023922","name":"Gartenstrasse","postalCode":"7310","locality":"Bad Ragaz","commune":{"key":"3291","name":"Bad Ragaz","shortName":"Bad Ragaz"},"district":{"key":"1725","name":"Wahlkreis Sarganserland"},"canton":{"key":"17","code":"SG","name":"St. Gallen"},"status":"Real"},{"key":"10023923","name":"Gaschürstrasse","postalCode":"7310","locality":"Bad Ragaz","commune":{"key":"3291","name":"Bad Ragaz","shortName":"Bad Ragaz"},"district":{"key":"1725","name":"Wahlkreis Sarganserland"},"canton":{"key":"17","code":"SG","name":"St. Gallen"},"status":"Real"},{"key":"10229429","name":"Gauxweg","postalCode":"7310","locality":"Bad Ragaz","commune":{"key":"3291","name":"Bad Ragaz","shortName":"Bad Ragaz"},"district":{"key":"1725","name":"Wahlkreis Sarganserland"},"canton":{"key":"17","code":"SG","name":"St. Gallen"},"status":"Real"},{"key":"10249925","name":"Gehweg Schweizerhof","postalCode":"7310","locality":"Bad Ragaz","commune":{"key":"3291","name":"Bad Ragaz","shortName":"Bad Ragaz"},"district":{"key":"1725","name":"Wahlkreis Sarganserland"},"canton":{"key":"17","code":"SG","name":"St. Gallen"},"status":"Real"},{"key":"10249935","name":"Gehweg Spar","postalCode":"7310","locality":"Bad Ragaz","commune":{"key":"3291","name":"Bad Ragaz","shortName":"Bad Ragaz"},"district":{"key":"1725","name":"Wahlkreis Sarganserland"},"canton":{"key":"17","code":"SG","name":"St. Gallen"},"status":"Real"},{"key":"10229437","name":"Giessenseeweg","postalCode":"7310","locality":"Bad Ragaz","commune":{"key":"3291","name":"Bad Ragaz","shortName":"Bad Ragaz"},"district":{"key":"1725","name":"Wahlkreis Sarganserland"},"canton":{"key":"17","code":"SG","name":"St. Gallen"},"status":"Real"},{"key":"10244533","name":"Giessenstrasse","postalCode":"7310","locality":"Bad Ragaz","commune":{"key":"3291","name":"Bad Ragaz","shortName":"Bad Ragaz"},"district":{"key":"1725","name":"Wahlkreis Sarganserland"},"canton":{"key":"17","code":"SG","name":"St. Gallen"},"status":"Real"},{"key":"10229454","name":"Golfweg","postalCode":"7310","locality":"Bad Ragaz","commune":{"key":"3291","name":"Bad Ragaz","shortName":"Bad Ragaz"},"district":{"key":"1725","name":"Wahlkreis Sarganserland"},"canton":{"key":"17","code":"SG","name":"St. Gallen"},"status":"Real"},{"key":"10046796","name":"Gonzenweg","postalCode":"7310","locality":"Bad Ragaz","commune":{"key":"3291","name":"Bad Ragaz","shortName":"Bad Ragaz"},"district":{"key":"1725","name":"Wahlkreis Sarganserland"},"canton":{"key":"17","code":"SG","name":"St. Gallen"},"status":"Real"},{"key":"10088391","name":"Grossfeldstrasse","postalCode":"7310","locality":"Bad Ragaz","commune":{"key":"3291","name":"Bad Ragaz","shortName":"Bad Ragaz"},"district":{"key":"1725","name":"Wahlkreis Sarganserland"},"canton":{"key":"17","code":"SG","name":"St. Gallen"},"status":"Real"},{"key":"10023924","name":"Grünauweg","postalCode":"7310","locality":"Bad Ragaz","commune":{"key":"3291","name":"Bad Ragaz","shortName":"Bad Ragaz"},"district":{"key":"1725","name":"Wahlkreis Sarganserland"},"canton":{"key":"17","code":"SG","name":"St. Gallen"},"status":"Real"},{"key":"10229462","name":"Guschakopfweg","postalCode":"7310","locality":"Bad Ragaz","commune":{"key":"3291","name":"Bad Ragaz","shortName":"Bad Ragaz"},"district":{"key":"1725","name":"Wahlkreis Sarganserland"},"canton":{"key":"17","code":"SG","name":"St. Gallen"},"status":"Real"},{"key":"10096379","name":"Guschaweg","postalCode":"7310","locality":"Bad Ragaz","commune":{"key":"3291","name":"Bad Ragaz","shortName":"Bad Ragaz"},"district":{"key":"1725","name":"Wahlkreis Sarganserland"},"canton":{"key":"17","code":"SG","name":"St. Gallen"},"status":"Real"},{"key":"10174295","name":"Haldenweg","postalCode":"7310","locality":"Bad Ragaz","commune":{"key":"3291","name":"Bad Ragaz","shortName":"Bad Ragaz"},"district":{"key":"1725","name":"Wahlkreis Sarganserland"},"canton":{"key":"17","code":"SG","name":"St. Gallen"},"status":"Real"},{"key":"10144817","name":"Hans-Albrecht-Strasse","postalCode":"7310","locality":"Bad Ragaz","commune":{"key":"3291","name":"Bad Ragaz","shortName":"Bad Ragaz"},"district":{"key":"1725","name":"Wahlkreis Sarganserland"},"canton":{"key":"17","code":"SG","name":"St. Gallen"},"status":"Real"},{"key":"10229470","name":"Heidiweg","postalCode":"7310","locality":"Bad Ragaz","commune":{"key":"3291","name":"Bad Ragaz","shortName":"Bad Ragaz"},"district":{"key":"1725","name":"Wahlkreis Sarganserland"},"canton":{"key":"17","code":"SG","name":"St. Gallen"},"status":"Real"},{"key":"10229478","name":"Herenboden","postalCode":"7310","locality":"Bad Ragaz","commune":{"key":"3291","name":"Bad Ragaz","shortName":"Bad Ragaz"},"district":{"key":"1725","name":"Wahlkreis Sarganserland"},"canton":{"key":"17","code":"SG","name":"St. Gallen"},"status":"Real"},{"key":"10023925","name":"Hermitageweg","postalCode":"7310","locality":"Bad Ragaz","commune":{"key":"3291","name":"Bad Ragaz","shortName":"Bad Ragaz"},"district":{"key":"1725","name":"Wahlkreis Sarganserland"},"canton":{"key":"17","code":"SG","name":"St. Gallen"},"status":"Real"},{"key":"10088392","name":"Heulösergangstrasse","postalCode":"7310","locality":"Bad Ragaz","commune":{"key":"3291","name":"Bad Ragaz","shortName":"Bad Ragaz"},"district":{"key":"1725","name":"Wahlkreis Sarganserland"},"canton":{"key":"17","code":"SG","name":"St. Gallen"},"status":"Real"},{"key":"10023926","name":"Heulöserweg","postalCode":"7310","locality":"Bad Ragaz","commune":{"key":"3291","name":"Bad Ragaz","shortName":"Bad Ragaz"},"district":{"key":"1725","name":"Wahlkreis Sarganserland"},"canton":{"key":"17","code":"SG","name":"St. Gallen"},"status":"Real"},{"key":"10046797","name":"Heuteilstrasse","postalCode":"7310","locality":"Bad Ragaz","commune":{"key":"3291","name":"Bad Ragaz","shortName":"Bad Ragaz"},"district":{"key":"1725","name":"Wahlkreis Sarganserland"},"canton":{"key":"17","code":"SG","name":"St. Gallen"},"status":"Real"},{"key":"10076945","name":"Hintergasse","postalCode":"7310","locality":"Bad Ragaz","commune":{"key":"3291","name":"Bad Ragaz","shortName":"Bad Ragaz"},"district":{"key":"1725","name":"Wahlkreis Sarganserland"},"canton":{"key":"17","code":"SG","name":"St. Gallen"},"status":"Real"},{"key":"10229486","name":"Hochpardiel","postalCode":"7310","locality":"Bad Ragaz","commune":{"key":"3291","name":"Bad Ragaz","shortName":"Bad Ragaz"},"district":{"key":"1725","name":"Wahlkreis Sarganserland"},"canton":{"key":"17","code":"SG","name":"St. Gallen"},"status":"Real"},{"key":"10146176","name":"Höfli","postalCode":"7310","locality":"Bad Ragaz","commune":{"key":"3291","name":"Bad Ragaz","shortName":"Bad Ragaz"},"district":{"key":"1725","name":"Wahlkreis Sarganserland"},"canton":{"key":"17","code":"SG","name":"St. Gallen"},"status":"Real"},{"key":"10181368","name":"Holderweg","postalCode":"7310","locality":"Bad Ragaz","commune":{"key":"3291","name":"Bad Ragaz","shortName":"Bad Ragaz"},"district":{"key":"1725","name":"Wahlkreis Sarganserland"},"canton":{"key":"17","code":"SG","name":"St. Gallen"},"status":"Real"},{"key":"10023927","name":"Im Ochsenbrunnen","postalCode":"7310","locality":"Bad Ragaz","commune":{"key":"3291","name":"Bad Ragaz","shortName":"Bad Ragaz"},"district":{"key":"1725","name":"Wahlkreis Sarganserland"},"canton":{"key":"17","code":"SG","name":"St. Gallen"},"status":"Real"},{"key":"10076946","name":"Im Sunnefeld","postalCode":"7310","locality":"Bad Ragaz","commune":{"key":"3291","name":"Bad Ragaz","shortName":"Bad Ragaz"},"district":{"key":"1725","name":"Wahlkreis Sarganserland"},"canton":{"key":"17","code":"SG","name":"St. Gallen"},"status":"Real"},{"key":"10023928","name":"Industriestrasse","postalCode":"7310","locality":"Bad Ragaz","commune":{"key":"3291","name":"Bad Ragaz","shortName":"Bad Ragaz"},"district":{"key":"1725","name":"Wahlkreis Sarganserland"},"canton":{"key":"17","code":"SG","name":"St. Gallen"},"status":"Real"},{"key":"10088393","name":"Jerellien","postalCode":"7310","locality":"Bad Ragaz","commune":{"key":"3291","name":"Bad Ragaz","shortName":"Bad Ragaz"},"district":{"key":"1725","name":"Wahlkreis Sarganserland"},"canton":{"key":"17","code":"SG","name":"St. Gallen"},"status":"Real"},{"key":"10163830","name":"Jerellienweg","postalCode":"7310","locality":"Bad Ragaz","commune":{"key":"3291","name":"Bad Ragaz","shortName":"Bad Ragaz"},"district":{"key":"1725","name":"Wahlkreis Sarganserland"},"canton":{"key":"17","code":"SG","name":"St. Gallen"},"status":"Real"},{"key":"10229502","name":"Jonaweg","postalCode":"7310","locality":"Bad Ragaz","commune":{"key":"3291","name":"Bad Ragaz","shortName":"Bad Ragaz"},"district":{"key":"1725","name":"Wahlkreis Sarganserland"},"canton":{"key":"17","code":"SG","name":"St. Gallen"},"status":"Real"},{"key":"10127340","name":"Kindergartenweg","postalCode":"7310","locality":"Bad Ragaz","commune":{"key":"3291","name":"Bad Ragaz","shortName":"Bad Ragaz"},"district":{"key":"1725","name":"Wahlkreis Sarganserland"},"canton":{"key":"17","code":"SG","name":"St. Gallen"},"status":"Real"},{"key":"10046798","name":"Kirchgasse","postalCode":"7310","locality":"Bad Ragaz","commune":{"key":"3291","name":"Bad Ragaz","shortName":"Bad Ragaz"},"district":{"key":"1725","name":"Wahlkreis Sarganserland"},"canton":{"key":"17","code":"SG","name":"St. Gallen"},"status":"Real"},{"key":"10187352","name":"Kirchreben","postalCode":"7310","locality":"Bad Ragaz","commune":{"key":"3291","name":"Bad Ragaz","shortName":"Bad Ragaz"},"district":{"key":"1725","name":"Wahlkreis Sarganserland"},"canton":{"key":"17","code":"SG","name":"St. Gallen"},"status":"Real"},{"key":"10229510","name":"Kleinfeldweg","postalCode":"7310","locality":"Bad Ragaz","commune":{"key":"3291","name":"Bad Ragaz","shortName":"Bad Ragaz"},"district":{"key":"1725","name":"Wahlkreis Sarganserland"},"canton":{"key":"17","code":"SG","name":"St. Gallen"},"status":"Real"},{"key":"10076947","name":"Kronenplatz","postalCode":"7310","locality":"Bad Ragaz","commune":{"key":"3291","name":"Bad Ragaz","shortName":"Bad Ragaz"},"district":{"key":"1725","name":"Wahlkreis Sarganserland"},"canton":{"key":"17","code":"SG","name":"St. Gallen"},"status":"Real"},{"key":"10126066","name":"Laritschweg","postalCode":"7310","locality":"Bad Ragaz","commune":{"key":"3291","name":"Bad Ragaz","shortName":"Bad Ragaz"},"district":{"key":"1725","name":"Wahlkreis Sarganserland"},"canton":{"key":"17","code":"SG","name":"St. Gallen"},"status":"Real"},{"key":"10229518","name":"Lasaweg","postalCode":"7310","locality":"Bad Ragaz","commune":{"key":"3291","name":"Bad Ragaz","shortName":"Bad Ragaz"},"district":{"key":"1725","name":"Wahlkreis Sarganserland"},"canton":{"key":"17","code":"SG","name":"St. Gallen"},"status":"Real"},{"key":"10088394","name":"Lattmanngasse","postalCode":"7310","locality":"Bad Ragaz","commune":{"key":"3291","name":"Bad Ragaz","shortName":"Bad Ragaz"},"district":{"key":"1725","name":"Wahlkreis Sarganserland"},"canton":{"key":"17","code":"SG","name":"St. Gallen"},"status":"Real"},{"key":"10229526","name":"Laubboden","postalCode":"7310","locality":"Bad Ragaz","commune":{"key":"3291","name":"Bad Ragaz","shortName":"Bad Ragaz"},"district":{"key":"1725","name":"Wahlkreis Sarganserland"},"canton":{"key":"17","code":"SG","name":"St. Gallen"},"status":"Real"},{"key":"10229534","name":"Laufbödenweg","postalCode":"7310","locality":"Bad Ragaz","commune":{"key":"3291","name":"Bad Ragaz","shortName":"Bad Ragaz"},"district":{"key":"1725","name":"Wahlkreis Sarganserland"},"canton":{"key":"17","code":"SG","name":"St. Gallen"},"status":"Real"},{"key":"10046799","name":"Lilienweg","postalCode":"7310","locality":"Bad Ragaz","commune":{"key":"3291","name":"Bad Ragaz","shortName":"Bad Ragaz"},"district":{"key":"1725","name":"Wahlkreis Sarganserland"},"canton":{"key":"17","code":"SG","name":"St. Gallen"},"status":"Real"},{"key":"10152471","name":"Loisstrasse","postalCode":"7310","locality":"Bad Ragaz","commune":{"key":"3291","name":"Bad Ragaz","shortName":"Bad Ragaz"},"district":{"key":"1725","name":"Wahlkreis Sarganserland"},"canton":{"key":"17","code":"SG","name":"St. Gallen"},"status":"Real"},{"key":"10023929","name":"Löwenstrasse","postalCode":"7310","locality":"Bad Ragaz","commune":{"key":"3291","name":"Bad Ragaz","shortName":"Bad Ragaz"},"district":{"key":"1725","name":"Wahlkreis Sarganserland"},"canton":{"key":"17","code":"SG","name":"St. Gallen"},"status":"Real"},{"key":"10023930","name":"Maienfelderstrasse","postalCode":"7310","locality":"Bad Ragaz","commune":{"key":"3291","name":"Bad Ragaz","shortName":"Bad Ragaz"},"district":{"key":"1725","name":"Wahlkreis Sarganserland"},"canton":{"key":"17","code":"SG","name":"St. Gallen"},"status":"Real"},{"key":"10229542","name":"Majarinaweg","postalCode":"7310","locality":"Bad Ragaz","commune":{"key":"3291","name":"Bad Ragaz","shortName":"Bad Ragaz"},"district":{"key":"1725","name":"Wahlkreis Sarganserland"},"canton":{"key":"17","code":"SG","name":"St. Gallen"},"status":"Real"},{"key":"10096380","name":"Malanggastrasse","postalCode":"7310","locality":"Bad Ragaz","commune":{"key":"3291","name":"Bad Ragaz","shortName":"Bad Ragaz"},"district":{"key":"1725","name":"Wahlkreis Sarganserland"},"canton":{"key":"17","code":"SG","name":"St. Gallen"},"status":"Real"},{"key":"10167363","name":"Malanggaweg","postalCode":"7310","locality":"Bad Ragaz","commune":{"key":"3291","name":"Bad Ragaz","shortName":"Bad Ragaz"},"district":{"key":"1725","name":"Wahlkreis Sarganserland"},"canton":{"key":"17","code":"SG","name":"St. Gallen"},"status":"Real"},{"key":"10088395","name":"Malezweg","postalCode":"7310","locality":"Bad Ragaz","commune":{"key":"3291","name":"Bad Ragaz","shortName":"Bad Ragaz"},"district":{"key":"1725","name":"Wahlkreis Sarganserland"},"canton":{"key":"17","code":"SG","name":"St. Gallen"},"status":"Real"},{"key":"10181369","name":"Malver","postalCode":"7310","locality":"Bad Ragaz","commune":{"key":"3291","name":"Bad Ragaz","shortName":"Bad Ragaz"},"district":{"key":"1725","name":"Wahlkreis Sarganserland"},"canton":{"key":"17","code":"SG","name":"St. Gallen"},"status":"Real"},{"key":"10102230","name":"Marausstrasse","postalCode":"7310","locality":"Bad Ragaz","commune":{"key":"3291","name":"Bad Ragaz","shortName":"Bad Ragaz"},"district":{"key":"1725","name":"Wahlkreis Sarganserland"},"canton":{"key":"17","code":"SG","name":"St. Gallen"},"status":"Real"},{"key":"10046800","name":"Marktbündtenstrasse","postalCode":"7310","locality":"Bad Ragaz","commune":{"key":"3291","name":"Bad Ragaz","shortName":"Bad Ragaz"},"district":{"key":"1725","name":"Wahlkreis Sarganserland"},"canton":{"key":"17","code":"SG","name":"St. Gallen"},"status":"Real"},{"key":"10171879","name":"Matellsweg","postalCode":"7310","locality":"Bad Ragaz","commune":{"key":"3291","name":"Bad Ragaz","shortName":"Bad Ragaz"},"district":{"key":"1725","name":"Wahlkreis Sarganserland"},"canton":{"key":"17","code":"SG","name":"St. Gallen"},"status":"Real"},{"key":"10229551","name":"Matellswitiweg","postalCode":"7310","locality":"Bad Ragaz","commune":{"key":"3291","name":"Bad Ragaz","shortName":"Bad Ragaz"},"district":{"key":"1725","name":"Wahlkreis Sarganserland"},"canton":{"key":"17","code":"SG","name":"St. Gallen"},"status":"Real"},{"key":"10023931","name":"Matonstrasse","postalCode":"7310","locality":"Bad Ragaz","commune":{"key":"3291","name":"Bad Ragaz","shortName":"Bad Ragaz"},"district":{"key":"1725","name":"Wahlkreis Sarganserland"},"canton":{"key":"17","code":"SG","name":"St. Gallen"},"status":"Real"},{"key":"10148599","name":"Mattenhofweg","postalCode":"7310","locality":"Bad Ragaz","commune":{"key":"3291","name":"Bad Ragaz","shortName":"Bad Ragaz"},"district":{"key":"1725","name":"Wahlkreis Sarganserland"},"canton":{"key":"17","code":"SG","name":"St. Gallen"},"status":"Real"},{"key":"10023932","name":"Mattenweg","postalCode":"7310","locality":"Bad Ragaz","commune":{"key":"3291","name":"Bad Ragaz","shortName":"Bad Ragaz"},"district":{"key":"1725","name":"Wahlkreis Sarganserland"},"canton":{"key":"17","code":"SG","name":"St. Gallen"},"status":"Real"},{"key":"10088396","name":"Metzgergasse","postalCode":"7310","locality":"Bad Ragaz","commune":{"key":"3291","name":"Bad Ragaz","shortName":"Bad Ragaz"},"district":{"key":"1725","name":"Wahlkreis Sarganserland"},"canton":{"key":"17","code":"SG","name":"St. Gallen"},"status":"Real"},{"key":"10046801","name":"Montelunaweg","postalCode":"7310","locality":"Bad Ragaz","commune":{"key":"3291","name":"Bad Ragaz","shortName":"Bad Ragaz"},"district":{"key":"1725","name":"Wahlkreis Sarganserland"},"canton":{"key":"17","code":"SG","name":"St. Gallen"},"status":"Real"},{"key":"10076948","name":"Mühlerainstrasse","postalCode":"7310","locality":"Bad Ragaz","commune":{"key":"3291","name":"Bad Ragaz","shortName":"Bad Ragaz"},"district":{"key":"1725","name":"Wahlkreis Sarganserland"},"canton":{"key":"17","code":"SG","name":"St. Gallen"},"status":"Real"},{"key":"10229559","name":"Muttguetweg","postalCode":"7310","locality":"Bad Ragaz","commune":{"key":"3291","name":"Bad Ragaz","shortName":"Bad Ragaz"},"district":{"key":"1725","name":"Wahlkreis Sarganserland"},"canton":{"key":"17","code":"SG","name":"St. Gallen"},"status":"Real"},{"key":"10144818","name":"Muttweg","postalCode":"7310","locality":"Bad Ragaz","commune":{"key":"3291","name":"Bad Ragaz","shortName":"Bad Ragaz"},"district":{"key":"1725","name":"Wahlkreis Sarganserland"},"canton":{"key":"17","code":"SG","name":"St. Gallen"},"status":"Real"},{"key":"10113064","name":"Myrtenweg","postalCode":"7310","locality":"Bad Ragaz","commune":{"key":"3291","name":"Bad Ragaz","shortName":"Bad Ragaz"},"district":{"key":"1725","name":"Wahlkreis Sarganserland"},"canton":{"key":"17","code":"SG","name":"St. Gallen"},"status":"Real"},{"key":"10023933","name":"Narzissenweg","postalCode":"7310","locality":"Bad Ragaz","commune":{"key":"3291","name":"Bad Ragaz","shortName":"Bad Ragaz"},"district":{"key":"1725","name":"Wahlkreis Sarganserland"},"canton":{"key":"17","code":"SG","name":"St. Gallen"},"status":"Real"},{"key":"10046802","name":"Natschengässli","postalCode":"7310","locality":"Bad Ragaz","commune":{"key":"3291","name":"Bad Ragaz","shortName":"Bad Ragaz"},"district":{"key":"1725","name":"Wahlkreis Sarganserland"},"canton":{"key":"17","code":"SG","name":"St. Gallen"},"status":"Real"},{"key":"10181370","name":"Nelkenweg","postalCode":"7310","locality":"Bad Ragaz","commune":{"key":"3291","name":"Bad Ragaz","shortName":"Bad Ragaz"},"district":{"key":"1725","name":"Wahlkreis Sarganserland"},"canton":{"key":"17","code":"SG","name":"St. Gallen"},"status":"Real"},{"key":"10229567","name":"Neugrütweg","postalCode":"7310","locality":"Bad Ragaz","commune":{"key":"3291","name":"Bad Ragaz","shortName":"Bad Ragaz"},"district":{"key":"1725","name":"Wahlkreis Sarganserland"},"canton":{"key":"17","code":"SG","name":"St. Gallen"},"status":"Real"},{"key":"10023934","name":"Nordstrasse","postalCode":"7310","locality":"Bad Ragaz","commune":{"key":"3291","name":"Bad Ragaz","shortName":"Bad Ragaz"},"district":{"key":"1725","name":"Wahlkreis Sarganserland"},"canton":{"key":"17","code":"SG","name":"St. Gallen"},"status":"Real"},{"key":"10229575","name":"Oberer Badweg","postalCode":"7310","locality":"Bad Ragaz","commune":{"key":"3291","name":"Bad Ragaz","shortName":"Bad Ragaz"},"district":{"key":"1725","name":"Wahlkreis Sarganserland"},"canton":{"key":"17","code":"SG","name":"St. Gallen"},"status":"Real"},{"key":"10229583","name":"Paracelsus-Strasse","postalCode":"7310","locality":"Bad Ragaz","commune":{"key":"3291","name":"Bad Ragaz","shortName":"Bad Ragaz"},"district":{"key":"1725","name":"Wahlkreis Sarganserland"},"canton":{"key":"17","code":"SG","name":"St. Gallen"},"status":"Real"},{"key":"10076949","name":"Pardiel","postalCode":"7310","locality":"Bad Ragaz","commune":{"key":"3291","name":"Bad Ragaz","shortName":"Bad Ragaz"},"district":{"key":"1725","name":"Wahlkreis Sarganserland"},"canton":{"key":"17","code":"SG","name":"St. Gallen"},"status":"Real"},{"key":"10229591","name":"Pardielstrasse","postalCode":"7310","locality":"Bad Ragaz","commune":{"key":"3291","name":"Bad Ragaz","shortName":"Bad Ragaz"},"district":{"key":"1725","name":"Wahlkreis Sarganserland"},"canton":{"key":"17","code":"SG","name":"St. Gallen"},"status":"Real"},{"key":"10229603","name":"Parkplätze Ausserfeld","postalCode":"7310","locality":"Bad Ragaz","commune":{"key":"3291","name":"Bad Ragaz","shortName":"Bad Ragaz"},"district":{"key":"1725","name":"Wahlkreis Sarganserland"},"canton":{"key":"17","code":"SG","name":"St. Gallen"},"status":"Real"},{"key":"10023935","name":"Pestalozziweg","postalCode":"7310","locality":"Bad Ragaz","commune":{"key":"3291","name":"Bad Ragaz","shortName":"Bad Ragaz"},"district":{"key":"1725","name":"Wahlkreis Sarganserland"},"canton":{"key":"17","code":"SG","name":"St. Gallen"},"status":"Real"},{"key":"10182449","name":"Pfäferserstrasse","postalCode":"7310","locality":"Bad Ragaz","commune":{"key":"3291","name":"Bad Ragaz","shortName":"Bad Ragaz"},"district":{"key":"1725","name":"Wahlkreis Sarganserland"},"canton":{"key":"17","code":"SG","name":"St. Gallen"},"status":"Real"},{"key":"10229611","name":"Pfäferserweg","postalCode":"7310","locality":"Bad Ragaz","commune":{"key":"3291","name":"Bad Ragaz","shortName":"Bad Ragaz"},"district":{"key":"1725","name":"Wahlkreis Sarganserland"},"canton":{"key":"17","code":"SG","name":"St. Gallen"},"status":"Real"},{"key":"10088397","name":"Pfauenweg","postalCode":"7310","locality":"Bad Ragaz","commune":{"key":"3291","name":"Bad Ragaz","shortName":"Bad Ragaz"},"district":{"key":"1725","name":"Wahlkreis Sarganserland"},"canton":{"key":"17","code":"SG","name":"St. Gallen"},"status":"Real"},{"key":"10076950","name":"Pizalunweg","postalCode":"7310","locality":"Bad Ragaz","commune":{"key":"3291","name":"Bad Ragaz","shortName":"Bad Ragaz"},"district":{"key":"1725","name":"Wahlkreis Sarganserland"},"canton":{"key":"17","code":"SG","name":"St. Gallen"},"status":"Real"},{"key":"10113065","name":"Pizolstrasse","postalCode":"7310","locality":"Bad Ragaz","commune":{"key":"3291","name":"Bad Ragaz","shortName":"Bad Ragaz"},"district":{"key":"1725","name":"Wahlkreis Sarganserland"},"canton":{"key":"17","code":"SG","name":"St. Gallen"},"status":"Real"},{"key":"10229615","name":"Porta Romanaweg","postalCode":"7310","locality":"Bad Ragaz","commune":{"key":"3291","name":"Bad Ragaz","shortName":"Bad Ragaz"},"district":{"key":"1725","name":"Wahlkreis Sarganserland"},"canton":{"key":"17","code":"SG","name":"St. Gallen"},"status":"Real"},{"key":"10149345","name":"Rafegenweg","postalCode":"7310","locality":"Bad Ragaz","commune":{"key":"3291","name":"Bad Ragaz","shortName":"Bad Ragaz"},"district":{"key":"1725","name":"Wahlkreis Sarganserland"},"canton":{"key":"17","code":"SG","name":"St. Gallen"},"status":"Real"},{"key":"10138354","name":"Rathausplatz","postalCode":"7310","locality":"Bad Ragaz","commune":{"key":"3291","name":"Bad Ragaz","shortName":"Bad Ragaz"},"district":{"key":"1725","name":"Wahlkreis Sarganserland"},"canton":{"key":"17","code":"SG","name":"St. Gallen"},"status":"Real"},{"key":"10088398","name":"Rationen","postalCode":"7310","locality":"Bad Ragaz","commune":{"key":"3291","name":"Bad Ragaz","shortName":"Bad Ragaz"},"district":{"key":"1725","name":"Wahlkreis Sarganserland"},"canton":{"key":"17","code":"SG","name":"St. Gallen"},"status":"Real"},{"key":"10023936","name":"Rebweg","postalCode":"7310","locality":"Bad Ragaz","commune":{"key":"3291","name":"Bad Ragaz","shortName":"Bad Ragaz"},"district":{"key":"1725","name":"Wahlkreis Sarganserland"},"canton":{"key":"17","code":"SG","name":"St. Gallen"},"status":"Real"},{"key":"10250648","name":"Rheinaustrasse","postalCode":"7310","locality":"Bad Ragaz","commune":{"key":"3291","name":"Bad Ragaz","shortName":"Bad Ragaz"},"district":{"key":"1725","name":"Wahlkreis Sarganserland"},"canton":{"key":"17","code":"SG","name":"St. Gallen"},"status":"Real"},{"key":"10148594","name":"Rheindammstrasse","postalCode":"7310","locality":"Bad Ragaz","commune":{"key":"3291","name":"Bad Ragaz","shortName":"Bad Ragaz"},"district":{"key":"1725","name":"Wahlkreis Sarganserland"},"canton":{"key":"17","code":"SG","name":"St. Gallen"},"status":"Real"},{"key":"10229623","name":"Rheindammweg","postalCode":"7310","locality":"Bad Ragaz","commune":{"key":"3291","name":"Bad Ragaz","shortName":"Bad Ragaz"},"district":{"key":"1725","name":"Wahlkreis Sarganserland"},"canton":{"key":"17","code":"SG","name":"St. Gallen"},"status":"Real"},{"key":"10023937","name":"Rheinstrasse","postalCode":"7310","locality":"Bad Ragaz","commune":{"key":"3291","name":"Bad Ragaz","shortName":"Bad Ragaz"},"district":{"key":"1725","name":"Wahlkreis Sarganserland"},"canton":{"key":"17","code":"SG","name":"St. Gallen"},"status":"Real"},{"key":"10234942","name":"Rilkestrasse","postalCode":"7310","locality":"Bad Ragaz","commune":{"key":"3291","name":"Bad Ragaz","shortName":"Bad Ragaz"},"district":{"key":"1725","name":"Wahlkreis Sarganserland"},"canton":{"key":"17","code":"SG","name":"St. Gallen"},"status":"Real"},{"key":"10234943","name":"Ringstrasse","postalCode":"7310","locality":"Bad Ragaz","commune":{"key":"3291","name":"Bad Ragaz","shortName":"Bad Ragaz"},"district":{"key":"1725","name":"Wahlkreis Sarganserland"},"canton":{"key":"17","code":"SG","name":"St. Gallen"},"status":"Real"},{"key":"10229631","name":"Romaneiweg","postalCode":"7310","locality":"Bad Ragaz","commune":{"key":"3291","name":"Bad Ragaz","shortName":"Bad Ragaz"},"district":{"key":"1725","name":"Wahlkreis Sarganserland"},"canton":{"key":"17","code":"SG","name":"St. Gallen"},"status":"Real"},{"key":"10102231","name":"Rosenbergli","postalCode":"7310","locality":"Bad Ragaz","commune":{"key":"3291","name":"Bad Ragaz","shortName":"Bad Ragaz"},"district":{"key":"1725","name":"Wahlkreis Sarganserland"},"canton":{"key":"17","code":"SG","name":"St. Gallen"},"status":"Real"},{"key":"10023938","name":"Rosenweg","postalCode":"7310","locality":"Bad Ragaz","commune":{"key":"3291","name":"Bad Ragaz","shortName":"Bad Ragaz"},"district":{"key":"1725","name":"Wahlkreis Sarganserland"},"canton":{"key":"17","code":"SG","name":"St. Gallen"},"status":"Real"},{"key":"10023939","name":"Ruchenbergstrasse","postalCode":"7310","locality":"Bad Ragaz","commune":{"key":"3291","name":"Bad Ragaz","shortName":"Bad Ragaz"},"district":{"key":"1725","name":"Wahlkreis Sarganserland"},"canton":{"key":"17","code":"SG","name":"St. Gallen"},"status":"Real"},{"key":"10152499","name":"Ruchenbergweg","postalCode":"7310","locality":"Bad Ragaz","commune":{"key":"3291","name":"Bad Ragaz","shortName":"Bad Ragaz"},"district":{"key":"1725","name":"Wahlkreis Sarganserland"},"canton":{"key":"17","code":"SG","name":"St. Gallen"},"status":"Real"},{"key":"10023941","name":"Ruppiweg","postalCode":"7310","locality":"Bad Ragaz","commune":{"key":"3291","name":"Bad Ragaz","shortName":"Bad Ragaz"},"district":{"key":"1725","name":"Wahlkreis Sarganserland"},"canton":{"key":"17","code":"SG","name":"St. Gallen"},"status":"Real"},{"key":"10025225","name":"Rütistrasse","postalCode":"7310","locality":"Bad Ragaz","commune":{"key":"3291","name":"Bad Ragaz","shortName":"Bad Ragaz"},"district":{"key":"1725","name":"Wahlkreis Sarganserland"},"canton":{"key":"17","code":"SG","name":"St. Gallen"},"status":"Real"},{"key":"10229643","name":"Rütiweg","postalCode":"7310","locality":"Bad Ragaz","commune":{"key":"3291","name":"Bad Ragaz","shortName":"Bad Ragaz"},"district":{"key":"1725","name":"Wahlkreis Sarganserland"},"canton":{"key":"17","code":"SG","name":"St. Gallen"},"status":"Real"},{"key":"10229651","name":"Saartobelweg","postalCode":"7310","locality":"Bad Ragaz","commune":{"key":"3291","name":"Bad Ragaz","shortName":"Bad Ragaz"},"district":{"key":"1725","name":"Wahlkreis Sarganserland"},"canton":{"key":"17","code":"SG","name":"St. Gallen"},"status":"Real"},{"key":"10229659","name":"Salzgebergasse","postalCode":"7310","locality":"Bad Ragaz","commune":{"key":"3291","name":"Bad Ragaz","shortName":"Bad Ragaz"},"district":{"key":"1725","name":"Wahlkreis Sarganserland"},"canton":{"key":"17","code":"SG","name":"St. Gallen"},"status":"Real"},{"key":"10023940","name":"Sandstrasse","postalCode":"7310","locality":"Bad Ragaz","commune":{"key":"3291","name":"Bad Ragaz","shortName":"Bad Ragaz"},"district":{"key":"1725","name":"Wahlkreis Sarganserland"},"canton":{"key":"17","code":"SG","name":"St. Gallen"},"status":"Real"},{"key":"10229668","name":"Sarelli","postalCode":"7310","locality":"Bad Ragaz","commune":{"key":"3291","name":"Bad Ragaz","shortName":"Bad Ragaz"},"district":{"key":"1725","name":"Wahlkreis Sarganserland"},"canton":{"key":"17","code":"SG","name":"St. Gallen"},"status":"Real"},{"key":"10148789","name":"Sarellistrasse","postalCode":"7310","locality":"Bad Ragaz","commune":{"key":"3291","name":"Bad Ragaz","shortName":"Bad Ragaz"},"district":{"key":"1725","name":"Wahlkreis Sarganserland"},"canton":{"key":"17","code":"SG","name":"St. Gallen"},"status":"Real"},{"key":"10122407","name":"Sarganserstrasse","postalCode":"7310","locality":"Bad Ragaz","commune":{"key":"3291","name":"Bad Ragaz","shortName":"Bad Ragaz"},"district":{"key":"1725","name":"Wahlkreis Sarganserland"},"canton":{"key":"17","code":"SG","name":"St. Gallen"},"status":"Real"},{"key":"10118263","name":"Saschielstrasse","postalCode":"7310","locality":"Bad Ragaz","commune":{"key":"3291","name":"Bad Ragaz","shortName":"Bad Ragaz"},"district":{"key":"1725","name":"Wahlkreis Sarganserland"},"canton":{"key":"17","code":"SG","name":"St. Gallen"},"status":"Real"},{"key":"10023942","name":"Scadonsstrasse","postalCode":"7310","locality":"Bad Ragaz","commune":{"key":"3291","name":"Bad Ragaz","shortName":"Bad Ragaz"},"district":{"key":"1725","name":"Wahlkreis Sarganserland"},"canton":{"key":"17","code":"SG","name":"St. Gallen"},"status":"Real"},{"key":"10017485","name":"Schloss-Strasse","postalCode":"7310","locality":"Bad Ragaz","commune":{"key":"3291","name":"Bad Ragaz","shortName":"Bad Ragaz"},"district":{"key":"1725","name":"Wahlkreis Sarganserland"},"canton":{"key":"17","code":"SG","name":"St. Gallen"},"status":"Real"},{"key":"10182450","name":"Schmiedweg","postalCode":"7310","locality":"Bad Ragaz","commune":{"key":"3291","name":"Bad Ragaz","shortName":"Bad Ragaz"},"district":{"key":"1725","name":"Wahlkreis Sarganserland"},"canton":{"key":"17","code":"SG","name":"St. Gallen"},"status":"Real"},{"key":"10229672","name":"Schulgässli","postalCode":"7310","locality":"Bad Ragaz","commune":{"key":"3291","name":"Bad Ragaz","shortName":"Bad Ragaz"},"district":{"key":"1725","name":"Wahlkreis Sarganserland"},"canton":{"key":"17","code":"SG","name":"St. Gallen"},"status":"Real"},{"key":"10229684","name":"Schwarzbüelweg","postalCode":"7310","locality":"Bad Ragaz","commune":{"key":"3291","name":"Bad Ragaz","shortName":"Bad Ragaz"},"district":{"key":"1725","name":"Wahlkreis Sarganserland"},"canton":{"key":"17","code":"SG","name":"St. Gallen"},"status":"Real"},{"key":"10117154","name":"Seestrasse","postalCode":"7310","locality":"Bad Ragaz","commune":{"key":"3291","name":"Bad Ragaz","shortName":"Bad Ragaz"},"district":{"key":"1725","name":"Wahlkreis Sarganserland"},"canton":{"key":"17","code":"SG","name":"St. Gallen"},"status":"Real"},{"key":"10229692","name":"Serfinisweg","postalCode":"7310","locality":"Bad Ragaz","commune":{"key":"3291","name":"Bad Ragaz","shortName":"Bad Ragaz"},"district":{"key":"1725","name":"Wahlkreis Sarganserland"},"canton":{"key":"17","code":"SG","name":"St. Gallen"},"status":"Real"},{"key":"10076952","name":"Sergeuris","postalCode":"7310","locality":"Bad Ragaz","commune":{"key":"3291","name":"Bad Ragaz","shortName":"Bad Ragaz"},"district":{"key":"1725","name":"Wahlkreis Sarganserland"},"canton":{"key":"17","code":"SG","name":"St. Gallen"},"status":"Real"},{"key":"10020073","name":"Siedlungsstrasse","postalCode":"7310","locality":"Bad Ragaz","commune":{"key":"3291","name":"Bad Ragaz","shortName":"Bad Ragaz"},"district":{"key":"1725","name":"Wahlkreis Sarganserland"},"canton":{"key":"17","code":"SG","name":"St. Gallen"},"status":"Real"},{"key":"10229696","name":"Sillisgässchen","postalCode":"7310","locality":"Bad Ragaz","commune":{"key":"3291","name":"Bad Ragaz","shortName":"Bad Ragaz"},"district":{"key":"1725","name":"Wahlkreis Sarganserland"},"canton":{"key":"17","code":"SG","name":"St. Gallen"},"status":"Real"},{"key":"10023943","name":"Sillisweg","postalCode":"7310","locality":"Bad Ragaz","commune":{"key":"3291","name":"Bad Ragaz","shortName":"Bad Ragaz"},"district":{"key":"1725","name":"Wahlkreis Sarganserland"},"canton":{"key":"17","code":"SG","name":"St. Gallen"},"status":"Real"},{"key":"10229709","name":"Sonnenbergweg","postalCode":"7310","locality":"Bad Ragaz","commune":{"key":"3291","name":"Bad Ragaz","shortName":"Bad Ragaz"},"district":{"key":"1725","name":"Wahlkreis Sarganserland"},"canton":{"key":"17","code":"SG","name":"St. Gallen"},"status":"Real"},{"key":"10023944","name":"Sonnenweg","postalCode":"7310","locality":"Bad Ragaz","commune":{"key":"3291","name":"Bad Ragaz","shortName":"Bad Ragaz"},"district":{"key":"1725","name":"Wahlkreis Sarganserland"},"canton":{"key":"17","code":"SG","name":"St. Gallen"},"status":"Real"},{"key":"10152032","name":"Spielbergstrasse","postalCode":"7310","locality":"Bad Ragaz","commune":{"key":"3291","name":"Bad Ragaz","shortName":"Bad Ragaz"},"district":{"key":"1725","name":"Wahlkreis Sarganserland"},"canton":{"key":"17","code":"SG","name":"St. Gallen"},"status":"Real"},{"key":"10102232","name":"Spitzackerstrasse","postalCode":"7310","locality":"Bad Ragaz","commune":{"key":"3291","name":"Bad Ragaz","shortName":"Bad Ragaz"},"district":{"key":"1725","name":"Wahlkreis Sarganserland"},"canton":{"key":"17","code":"SG","name":"St. Gallen"},"status":"Real"},{"key":"10225046","name":"Staatsstrasse","postalCode":"7310","locality":"Bad Ragaz","commune":{"key":"3291","name":"Bad Ragaz","shortName":"Bad Ragaz"},"district":{"key":"1725","name":"Wahlkreis Sarganserland"},"canton":{"key":"17","code":"SG","name":"St. Gallen"},"status":"Real"},{"key":"10174291","name":"Stafflisstrasse","postalCode":"7310","locality":"Bad Ragaz","commune":{"key":"3291","name":"Bad Ragaz","shortName":"Bad Ragaz"},"district":{"key":"1725","name":"Wahlkreis Sarganserland"},"canton":{"key":"17","code":"SG","name":"St. Gallen"},"status":"Real"},{"key":"10225054","name":"Steinweg","postalCode":"7310","locality":"Bad Ragaz","commune":{"key":"3291","name":"Bad Ragaz","shortName":"Bad Ragaz"},"district":{"key":"1725","name":"Wahlkreis Sarganserland"},"canton":{"key":"17","code":"SG","name":"St. Gallen"},"status":"Real"},{"key":"10023945","name":"St. Leonhardstrasse","postalCode":"7310","locality":"Bad Ragaz","commune":{"key":"3291","name":"Bad Ragaz","shortName":"Bad Ragaz"},"district":{"key":"1725","name":"Wahlkreis Sarganserland"},"canton":{"key":"17","code":"SG","name":"St. Gallen"},"status":"Real"},{"key":"10229713","name":"St. Niklausenweg","postalCode":"7310","locality":"Bad Ragaz","commune":{"key":"3291","name":"Bad Ragaz","shortName":"Bad Ragaz"},"district":{"key":"1725","name":"Wahlkreis Sarganserland"},"canton":{"key":"17","code":"SG","name":"St. Gallen"},"status":"Real"},{"key":"10088399","name":"Stutzweg","postalCode":"7310","locality":"Bad Ragaz","commune":{"key":"3291","name":"Bad Ragaz","shortName":"Bad Ragaz"},"district":{"key":"1725","name":"Wahlkreis Sarganserland"},"canton":{"key":"17","code":"SG","name":"St. Gallen"},"status":"Real"},{"key":"10249939","name":"Taminabrücke","postalCode":"7310","locality":"Bad Ragaz","commune":{"key":"3291","name":"Bad Ragaz","shortName":"Bad Ragaz"},"district":{"key":"1725","name":"Wahlkreis Sarganserland"},"canton":{"key":"17","code":"SG","name":"St. Gallen"},"status":"Real"},{"key":"10249948","name":"Taminapromenade links","postalCode":"7310","locality":"Bad Ragaz","commune":{"key":"3291","name":"Bad Ragaz","shortName":"Bad Ragaz"},"district":{"key":"1725","name":"Wahlkreis Sarganserland"},"canton":{"key":"17","code":"SG","name":"St. Gallen"},"status":"Real"},{"key":"10249955","name":"Taminapromenade rechts","postalCode":"7310","locality":"Bad Ragaz","commune":{"key":"3291","name":"Bad Ragaz","shortName":"Bad Ragaz"},"district":{"key":"1725","name":"Wahlkreis Sarganserland"},"canton":{"key":"17","code":"SG","name":"St. Gallen"},"status":"Real"},{"key":"10023946","name":"Taminastrasse","postalCode":"7310","locality":"Bad Ragaz","commune":{"key":"3291","name":"Bad Ragaz","shortName":"Bad Ragaz"},"district":{"key":"1725","name":"Wahlkreis Sarganserland"},"canton":{"key":"17","code":"SG","name":"St. Gallen"},"status":"Real"},{"key":"10140972","name":"Teil","postalCode":"7310","locality":"Bad Ragaz","commune":{"key":"3291","name":"Bad Ragaz","shortName":"Bad Ragaz"},"district":{"key":"1725","name":"Wahlkreis Sarganserland"},"canton":{"key":"17","code":"SG","name":"St. Gallen"},"status":"Real"},{"key":"10023947","name":"Tobelgasse","postalCode":"7310","locality":"Bad Ragaz","commune":{"key":"3291","name":"Bad Ragaz","shortName":"Bad Ragaz"},"district":{"key":"1725","name":"Wahlkreis Sarganserland"},"canton":{"key":"17","code":"SG","name":"St. Gallen"},"status":"Real"},{"key":"10088400","name":"Tobelweg","postalCode":"7310","locality":"Bad Ragaz","commune":{"key":"3291","name":"Bad Ragaz","shortName":"Bad Ragaz"},"district":{"key":"1725","name":"Wahlkreis Sarganserland"},"canton":{"key":"17","code":"SG","name":"St. Gallen"},"status":"Real"},{"key":"10187353","name":"Torkelgässli","postalCode":"7310","locality":"Bad Ragaz","commune":{"key":"3291","name":"Bad Ragaz","shortName":"Bad Ragaz"},"district":{"key":"1725","name":"Wahlkreis Sarganserland"},"canton":{"key":"17","code":"SG","name":"St. Gallen"},"status":"Real"},{"key":"10225062","name":"Unterer Loisweg","postalCode":"7310","locality":"Bad Ragaz","commune":{"key":"3291","name":"Bad Ragaz","shortName":"Bad Ragaz"},"district":{"key":"1725","name":"Wahlkreis Sarganserland"},"canton":{"key":"17","code":"SG","name":"St. Gallen"},"status":"Real"},{"key":"10113066","name":"Unterrainstrasse","postalCode":"7310","locality":"Bad Ragaz","commune":{"key":"3291","name":"Bad Ragaz","shortName":"Bad Ragaz"},"district":{"key":"1725","name":"Wahlkreis Sarganserland"},"canton":{"key":"17","code":"SG","name":"St. Gallen"},"status":"Real"},{"key":"10088401","name":"Valenserstrasse","postalCode":"7310","locality":"Bad Ragaz","commune":{"key":"3291","name":"Bad Ragaz","shortName":"Bad Ragaz"},"district":{"key":"1725","name":"Wahlkreis Sarganserland"},"canton":{"key":"17","code":"SG","name":"St. Gallen"},"status":"Real"},{"key":"10226058","name":"Valurweg","postalCode":"7310","locality":"Bad Ragaz","commune":{"key":"3291","name":"Bad Ragaz","shortName":"Bad Ragaz"},"district":{"key":"1725","name":"Wahlkreis Sarganserland"},"canton":{"key":"17","code":"SG","name":"St. Gallen"},"status":"Real"},{"key":"10023948","name":"Vilanweg","postalCode":"7310","locality":"Bad Ragaz","commune":{"key":"3291","name":"Bad Ragaz","shortName":"Bad Ragaz"},"district":{"key":"1725","name":"Wahlkreis Sarganserland"},"canton":{"key":"17","code":"SG","name":"St. Gallen"},"status":"Real"},{"key":"10144656","name":"Waldstrasse","postalCode":"7310","locality":"Bad Ragaz","commune":{"key":"3291","name":"Bad Ragaz","shortName":"Bad Ragaz"},"district":{"key":"1725","name":"Wahlkreis Sarganserland"},"canton":{"key":"17","code":"SG","name":"St. Gallen"},"status":"Real"},{"key":"10134712","name":"Wartensteinweg","postalCode":"7310","locality":"Bad Ragaz","commune":{"key":"3291","name":"Bad Ragaz","shortName":"Bad Ragaz"},"district":{"key":"1725","name":"Wahlkreis Sarganserland"},"canton":{"key":"17","code":"SG","name":"St. Gallen"},"status":"Real"},{"key":"10226062","name":"Wasserfallweg","postalCode":"7310","locality":"Bad Ragaz","commune":{"key":"3291","name":"Bad Ragaz","shortName":"Bad Ragaz"},"district":{"key":"1725","name":"Wahlkreis Sarganserland"},"canton":{"key":"17","code":"SG","name":"St. Gallen"},"status":"Real"},{"key":"10226066","name":"Wasserschlossstrasse","postalCode":"7310","locality":"Bad Ragaz","commune":{"key":"3291","name":"Bad Ragaz","shortName":"Bad Ragaz"},"district":{"key":"1725","name":"Wahlkreis Sarganserland"},"canton":{"key":"17","code":"SG","name":"St. Gallen"},"status":"Real"},{"key":"10187641","name":"Weidenweg","postalCode":"7310","locality":"Bad Ragaz","commune":{"key":"3291","name":"Bad Ragaz","shortName":"Bad Ragaz"},"district":{"key":"1725","name":"Wahlkreis Sarganserland"},"canton":{"key":"17","code":"SG","name":"St. Gallen"},"status":"Real"},{"key":"10182451","name":"Weiligstrasse","postalCode":"7310","locality":"Bad Ragaz","commune":{"key":"3291","name":"Bad Ragaz","shortName":"Bad Ragaz"},"district":{"key":"1725","name":"Wahlkreis Sarganserland"},"canton":{"key":"17","code":"SG","name":"St. Gallen"},"status":"Real"},{"key":"10076953","name":"Wiesenweg","postalCode":"7310","locality":"Bad Ragaz","commune":{"key":"3291","name":"Bad Ragaz","shortName":"Bad Ragaz"},"district":{"key":"1725","name":"Wahlkreis Sarganserland"},"canton":{"key":"17","code":"SG","name":"St. Gallen"},"status":"Real"},{"key":"10206153","name":"Wilhelm-Zinn-Strasse","postalCode":"7310","locality":"Bad Ragaz","commune":{"key":"3291","name":"Bad Ragaz","shortName":"Bad Ragaz"},"district":{"key":"1725","name":"Wahlkreis Sarganserland"},"canton":{"key":"17","code":"SG","name":"St. Gallen"},"status":"Real"},{"key":"10023950","name":"Wingertweg","postalCode":"7310","locality":"Bad Ragaz","commune":{"key":"3291","name":"Bad Ragaz","shortName":"Bad Ragaz"},"district":{"key":"1725","name":"Wahlkreis Sarganserland"},"canton":{"key":"17","code":"SG","name":"St. Gallen"},"status":"Real"},{"key":"10226074","name":"Wisbergweg","postalCode":"7310","locality":"Bad Ragaz","commune":{"key":"3291","name":"Bad Ragaz","shortName":"Bad Ragaz"},"district":{"key":"1725","name":"Wahlkreis Sarganserland"},"canton":{"key":"17","code":"SG","name":"St. Gallen"},"status":"Real"},{"key":"10088402","name":"Wollebweg","postalCode":"7310","locality":"Bad Ragaz","commune":{"key":"3291","name":"Bad Ragaz","shortName":"Bad Ragaz"},"district":{"key":"1725","name":"Wahlkreis Sarganserland"},"canton":{"key":"17","code":"SG","name":"St. Gallen"},"status":"Real"},{"key":"10184697","name":"Zaschga","postalCode":"7310","locality":"Bad Ragaz","commune":{"key":"3291","name":"Bad Ragaz","shortName":"Bad Ragaz"},"district":{"key":"1725","name":"Wahlkreis Sarganserland"},"canton":{"key":"17","code":"SG","name":"St. Gallen"},"status":"Real"},{"key":"10226078","name":"Zeigerweg","postalCode":"7310","locality":"Bad Ragaz","commune":{"key":"3291","name":"Bad Ragaz","shortName":"Bad Ragaz"},"district":{"key":"1725","name":"Wahlkreis Sarganserland"},"canton":{"key":"17","code":"SG","name":"St. Gallen"},"status":"Real"},{"key":"10023951","name":"Zephyrweg","postalCode":"7310","locality":"Bad Ragaz","commune":{"key":"3291","name":"Bad Ragaz","shortName":"Bad Ragaz"},"district":{"key":"1725","name":"Wahlkreis Sarganserland"},"canton":{"key":"17","code":"SG","name":"St. Gallen"},"status":"Real"},{"key":"10148596","name":"Zeughausstrasse","postalCode":"7310","locality":"Bad Ragaz","commune":{"key":"3291","name":"Bad Ragaz","shortName":"Bad Ragaz"},"district":{"key":"1725","name":"Wahlkreis Sarganserland"},"canton":{"key":"17","code":"SG","name":"St. Gallen"},"status":"Real"},{"key":"10226082","name":"Zollweg","postalCode":"7310","locality":"Bad Ragaz","commune":{"key":"3291","name":"Bad Ragaz","shortName":"Bad Ragaz"},"district":{"key":"1725","name":"Wahlkreis Sarganserland"},"canton":{"key":"17","code":"SG","name":"St. Gallen"},"status":"Real"},]