[{"name":"Am Molkenborn","postalCode":"55422","locality":"Bacharach","municipality":{"key":"07339003","name":"Bacharach, Stadt","type":"Stadt"},"district":{"key":"07339","name":"Mainz-Bingen","type":"Landkreis"},"federalState":{"key":"07","name":"Rheinland-Pfalz"}},{"name":"Am Schiffelborn","postalCode":"55422","locality":"Bacharach","municipality":{"key":"07339003","name":"Bacharach, Stadt","type":"Stadt"},"district":{"key":"07339","name":"Mainz-Bingen","type":"Landkreis"},"federalState":{"key":"07","name":"Rheinland-Pfalz"}},{"name":"Auf dem Damm","postalCode":"55422","locality":"Bacharach","municipality":{"key":"07339003","name":"Bacharach, Stadt","type":"Stadt"},"district":{"key":"07339","name":"Mainz-Bingen","type":"Landkreis"},"federalState":{"key":"07","name":"Rheinland-Pfalz"}},{"name":"Auf der Münze","postalCode":"55422","locality":"Bacharach","municipality":{"key":"07339003","name":"Bacharach, Stadt","type":"Stadt"},"district":{"key":"07339","name":"Mainz-Bingen","type":"Landkreis"},"federalState":{"key":"07","name":"Rheinland-Pfalz"}},{"name":"Auf der Schanz","postalCode":"55422","locality":"Bacharach","municipality":{"key":"07339003","name":"Bacharach, Stadt","type":"Stadt"},"district":{"key":"07339","name":"Mainz-Bingen","type":"Landkreis"},"federalState":{"key":"07","name":"Rheinland-Pfalz"}},{"name":"Bacchusstr.","postalCode":"55422","locality":"Bacharach","municipality":{"key":"07339003","name":"Bacharach, Stadt","type":"Stadt"},"district":{"key":"07339","name":"Mainz-Bingen","type":"Landkreis"},"federalState":{"key":"07","name":"Rheinland-Pfalz"}},{"name":"Bacharacher Str.","postalCode":"55422","locality":"Bacharach","municipality":{"key":"07339003","name":"Bacharach, Stadt","type":"Stadt"},"district":{"key":"07339","name":"Mainz-Bingen","type":"Landkreis"},"federalState":{"key":"07","name":"Rheinland-Pfalz"}},{"name":"Bächelweg","postalCode":"55422","locality":"Bacharach","municipality":{"key":"07339003","name":"Bacharach, Stadt","type":"Stadt"},"district":{"key":"07339","name":"Mainz-Bingen","type":"Landkreis"},"federalState":{"key":"07","name":"Rheinland-Pfalz"}},{"name":"Bahnstr.","postalCode":"55422","locality":"Bacharach","municipality":{"key":"07339003","name":"Bacharach, Stadt","type":"Stadt"},"district":{"key":"07339","name":"Mainz-Bingen","type":"Landkreis"},"federalState":{"key":"07","name":"Rheinland-Pfalz"}},{"name":"Bauerstr.","postalCode":"55422","locality":"Bacharach","municipality":{"key":"07339003","name":"Bacharach, Stadt","type":"Stadt"},"district":{"key":"07339","name":"Mainz-Bingen","type":"Landkreis"},"federalState":{"key":"07","name":"Rheinland-Pfalz"}},{"name":"Berghof","postalCode":"55422","locality":"Bacharach","municipality":{"key":"07339003","name":"Bacharach, Stadt","type":"Stadt"},"district":{"key":"07339","name":"Mainz-Bingen","type":"Landkreis"},"federalState":{"key":"07","name":"Rheinland-Pfalz"}},{"name":"Bergstr.","postalCode":"55422","locality":"Bacharach","municipality":{"key":"07339003","name":"Bacharach, Stadt","type":"Stadt"},"district":{"key":"07339","name":"Mainz-Bingen","type":"Landkreis"},"federalState":{"key":"07","name":"Rheinland-Pfalz"}},{"name":"Blücherstr.","postalCode":"55422","locality":"Bacharach","municipality":{"key":"07339003","name":"Bacharach, Stadt","type":"Stadt"},"district":{"key":"07339","name":"Mainz-Bingen","type":"Landkreis"},"federalState":{"key":"07","name":"Rheinland-Pfalz"}},{"name":"Borbachstr.","postalCode":"55422","locality":"Bacharach","municipality":{"key":"07339003","name":"Bacharach, Stadt","type":"Stadt"},"district":{"key":"07339","name":"Mainz-Bingen","type":"Landkreis"},"federalState":{"key":"07","name":"Rheinland-Pfalz"}},{"name":"Brunnenstr.","postalCode":"55422","locality":"Bacharach","municipality":{"key":"07339003","name":"Bacharach, Stadt","type":"Stadt"},"district":{"key":"07339","name":"Mainz-Bingen","type":"Landkreis"},"federalState":{"key":"07","name":"Rheinland-Pfalz"}},{"name":"Burg Weg","postalCode":"55422","locality":"Bacharach","municipality":{"key":"07339003","name":"Bacharach, Stadt","type":"Stadt"},"district":{"key":"07339","name":"Mainz-Bingen","type":"Landkreis"},"federalState":{"key":"07","name":"Rheinland-Pfalz"}},{"name":"Fasanenweg","postalCode":"55422","locality":"Bacharach","municipality":{"key":"07339003","name":"Bacharach, Stadt","type":"Stadt"},"district":{"key":"07339","name":"Mainz-Bingen","type":"Landkreis"},"federalState":{"key":"07","name":"Rheinland-Pfalz"}},{"name":"Fleischstr.","postalCode":"55422","locality":"Bacharach","municipality":{"key":"07339003","name":"Bacharach, Stadt","type":"Stadt"},"district":{"key":"07339","name":"Mainz-Bingen","type":"Landkreis"},"federalState":{"key":"07","name":"Rheinland-Pfalz"}},{"name":"Fürstenbergstr.","postalCode":"55422","locality":"Bacharach","municipality":{"key":"07339003","name":"Bacharach, Stadt","type":"Stadt"},"district":{"key":"07339","name":"Mainz-Bingen","type":"Landkreis"},"federalState":{"key":"07","name":"Rheinland-Pfalz"}},{"name":"Gutenfelsstr.","postalCode":"55422","locality":"Bacharach","municipality":{"key":"07339003","name":"Bacharach, Stadt","type":"Stadt"},"district":{"key":"07339","name":"Mainz-Bingen","type":"Landkreis"},"federalState":{"key":"07","name":"Rheinland-Pfalz"}},{"name":"Heidebergstr.","postalCode":"55422","locality":"Bacharach","municipality":{"key":"07339003","name":"Bacharach, Stadt","type":"Stadt"},"district":{"key":"07339","name":"Mainz-Bingen","type":"Landkreis"},"federalState":{"key":"07","name":"Rheinland-Pfalz"}},{"name":"Helks","postalCode":"55422","locality":"Bacharach","municipality":{"key":"07339003","name":"Bacharach, Stadt","type":"Stadt"},"district":{"key":"07339","name":"Mainz-Bingen","type":"Landkreis"},"federalState":{"key":"07","name":"Rheinland-Pfalz"}},{"name":"Hinterweg","postalCode":"55422","locality":"Bacharach","municipality":{"key":"07339003","name":"Bacharach, Stadt","type":"Stadt"},"district":{"key":"07339","name":"Mainz-Bingen","type":"Landkreis"},"federalState":{"key":"07","name":"Rheinland-Pfalz"}},{"name":"Jagdhaus","postalCode":"55422","locality":"Bacharach","municipality":{"key":"07339003","name":"Bacharach, Stadt","type":"Stadt"},"district":{"key":"07339","name":"Mainz-Bingen","type":"Landkreis"},"federalState":{"key":"07","name":"Rheinland-Pfalz"}},{"name":"KD-Anlegestelle Bacharach","postalCode":"55422","locality":"Bacharach","municipality":{"key":"07339003","name":"Bacharach, Stadt","type":"Stadt"},"district":{"key":"07339","name":"Mainz-Bingen","type":"Landkreis"},"federalState":{"key":"07","name":"Rheinland-Pfalz"}},{"name":"Kirchweg","postalCode":"55422","locality":"Bacharach","municipality":{"key":"07339003","name":"Bacharach, Stadt","type":"Stadt"},"district":{"key":"07339","name":"Mainz-Bingen","type":"Landkreis"},"federalState":{"key":"07","name":"Rheinland-Pfalz"}},{"name":"Koblenzer Str.","postalCode":"55422","locality":"Bacharach","municipality":{"key":"07339003","name":"Bacharach, Stadt","type":"Stadt"},"district":{"key":"07339","name":"Mainz-Bingen","type":"Landkreis"},"federalState":{"key":"07","name":"Rheinland-Pfalz"}},{"name":"Kranenstr.","postalCode":"55422","locality":"Bacharach","municipality":{"key":"07339003","name":"Bacharach, Stadt","type":"Stadt"},"district":{"key":"07339","name":"Mainz-Bingen","type":"Landkreis"},"federalState":{"key":"07","name":"Rheinland-Pfalz"}},{"name":"Langstr.","postalCode":"55422","locality":"Bacharach","municipality":{"key":"07339003","name":"Bacharach, Stadt","type":"Stadt"},"district":{"key":"07339","name":"Mainz-Bingen","type":"Landkreis"},"federalState":{"key":"07","name":"Rheinland-Pfalz"}},{"name":"Lindenstr.","postalCode":"55422","locality":"Bacharach","municipality":{"key":"07339003","name":"Bacharach, Stadt","type":"Stadt"},"district":{"key":"07339","name":"Mainz-Bingen","type":"Landkreis"},"federalState":{"key":"07","name":"Rheinland-Pfalz"}},{"name":"Mainzer Str.","postalCode":"55422","locality":"Bacharach","municipality":{"key":"07339003","name":"Bacharach, Stadt","type":"Stadt"},"district":{"key":"07339","name":"Mainz-Bingen","type":"Landkreis"},"federalState":{"key":"07","name":"Rheinland-Pfalz"}},{"name":"Marktstr.","postalCode":"55422","locality":"Bacharach","municipality":{"key":"07339003","name":"Bacharach, Stadt","type":"Stadt"},"district":{"key":"07339","name":"Mainz-Bingen","type":"Landkreis"},"federalState":{"key":"07","name":"Rheinland-Pfalz"}},{"name":"Münzstr.","postalCode":"55422","locality":"Bacharach","municipality":{"key":"07339003","name":"Bacharach, Stadt","type":"Stadt"},"district":{"key":"07339","name":"Mainz-Bingen","type":"Landkreis"},"federalState":{"key":"07","name":"Rheinland-Pfalz"}},{"name":"Oberster Helks","postalCode":"55422","locality":"Bacharach","municipality":{"key":"07339003","name":"Bacharach, Stadt","type":"Stadt"},"district":{"key":"07339","name":"Mainz-Bingen","type":"Landkreis"},"federalState":{"key":"07","name":"Rheinland-Pfalz"}},{"name":"Oberstr.","postalCode":"55422","locality":"Bacharach","municipality":{"key":"07339003","name":"Bacharach, Stadt","type":"Stadt"},"district":{"key":"07339","name":"Mainz-Bingen","type":"Landkreis"},"federalState":{"key":"07","name":"Rheinland-Pfalz"}},{"name":"Pfaffenstr.","postalCode":"55422","locality":"Bacharach","municipality":{"key":"07339003","name":"Bacharach, Stadt","type":"Stadt"},"district":{"key":"07339","name":"Mainz-Bingen","type":"Landkreis"},"federalState":{"key":"07","name":"Rheinland-Pfalz"}},{"name":"Pfalzblickstr.","postalCode":"55422","locality":"Bacharach","municipality":{"key":"07339003","name":"Bacharach, Stadt","type":"Stadt"},"district":{"key":"07339","name":"Mainz-Bingen","type":"Landkreis"},"federalState":{"key":"07","name":"Rheinland-Pfalz"}},{"name":"Pionierweg","postalCode":"55422","locality":"Bacharach","municipality":{"key":"07339003","name":"Bacharach, Stadt","type":"Stadt"},"district":{"key":"07339","name":"Mainz-Bingen","type":"Landkreis"},"federalState":{"key":"07","name":"Rheinland-Pfalz"}},{"name":"Reingard-Heider-Str.","postalCode":"55422","locality":"Bacharach","municipality":{"key":"07339003","name":"Bacharach, Stadt","type":"Stadt"},"district":{"key":"07339","name":"Mainz-Bingen","type":"Landkreis"},"federalState":{"key":"07","name":"Rheinland-Pfalz"}},{"name":"Rheinanlagen","postalCode":"55422","locality":"Bacharach","municipality":{"key":"07339003","name":"Bacharach, Stadt","type":"Stadt"},"district":{"key":"07339","name":"Mainz-Bingen","type":"Landkreis"},"federalState":{"key":"07","name":"Rheinland-Pfalz"}},{"name":"Rheinblickhof","postalCode":"55422","locality":"Bacharach","municipality":{"key":"07339003","name":"Bacharach, Stadt","type":"Stadt"},"district":{"key":"07339","name":"Mainz-Bingen","type":"Landkreis"},"federalState":{"key":"07","name":"Rheinland-Pfalz"}},{"name":"Rheinblickstr.","postalCode":"55422","locality":"Bacharach","municipality":{"key":"07339003","name":"Bacharach, Stadt","type":"Stadt"},"district":{"key":"07339","name":"Mainz-Bingen","type":"Landkreis"},"federalState":{"key":"07","name":"Rheinland-Pfalz"}},{"name":"Rheingoldstr.","postalCode":"55422","locality":"Bacharach","municipality":{"key":"07339003","name":"Bacharach, Stadt","type":"Stadt"},"district":{"key":"07339","name":"Mainz-Bingen","type":"Landkreis"},"federalState":{"key":"07","name":"Rheinland-Pfalz"}},{"name":"Ringstr.","postalCode":"55422","locality":"Bacharach","municipality":{"key":"07339003","name":"Bacharach, Stadt","type":"Stadt"},"district":{"key":"07339","name":"Mainz-Bingen","type":"Landkreis"},"federalState":{"key":"07","name":"Rheinland-Pfalz"}},{"name":"Römerstr.","postalCode":"55422","locality":"Bacharach","municipality":{"key":"07339003","name":"Bacharach, Stadt","type":"Stadt"},"district":{"key":"07339","name":"Mainz-Bingen","type":"Landkreis"},"federalState":{"key":"07","name":"Rheinland-Pfalz"}},{"name":"Rosenstr.","postalCode":"55422","locality":"Bacharach","municipality":{"key":"07339003","name":"Bacharach, Stadt","type":"Stadt"},"district":{"key":"07339","name":"Mainz-Bingen","type":"Landkreis"},"federalState":{"key":"07","name":"Rheinland-Pfalz"}},{"name":"Schieferweg","postalCode":"55422","locality":"Bacharach","municipality":{"key":"07339003","name":"Bacharach, Stadt","type":"Stadt"},"district":{"key":"07339","name":"Mainz-Bingen","type":"Landkreis"},"federalState":{"key":"07","name":"Rheinland-Pfalz"}},{"name":"Schlittenweg","postalCode":"55422","locality":"Bacharach","municipality":{"key":"07339003","name":"Bacharach, Stadt","type":"Stadt"},"district":{"key":"07339","name":"Mainz-Bingen","type":"Landkreis"},"federalState":{"key":"07","name":"Rheinland-Pfalz"}},{"name":"Schloßberg","postalCode":"55422","locality":"Bacharach","municipality":{"key":"07339003","name":"Bacharach, Stadt","type":"Stadt"},"district":{"key":"07339","name":"Mainz-Bingen","type":"Landkreis"},"federalState":{"key":"07","name":"Rheinland-Pfalz"}},{"name":"Schulgasse","postalCode":"55422","locality":"Bacharach","municipality":{"key":"07339003","name":"Bacharach, Stadt","type":"Stadt"},"district":{"key":"07339","name":"Mainz-Bingen","type":"Landkreis"},"federalState":{"key":"07","name":"Rheinland-Pfalz"}},{"name":"Schulweg","postalCode":"55422","locality":"Bacharach","municipality":{"key":"07339003","name":"Bacharach, Stadt","type":"Stadt"},"district":{"key":"07339","name":"Mainz-Bingen","type":"Landkreis"},"federalState":{"key":"07","name":"Rheinland-Pfalz"}},{"name":"Sonnenhöhe","postalCode":"55422","locality":"Bacharach","municipality":{"key":"07339003","name":"Bacharach, Stadt","type":"Stadt"},"district":{"key":"07339","name":"Mainz-Bingen","type":"Landkreis"},"federalState":{"key":"07","name":"Rheinland-Pfalz"}},{"name":"Spurgasse","postalCode":"55422","locality":"Bacharach","municipality":{"key":"07339003","name":"Bacharach, Stadt","type":"Stadt"},"district":{"key":"07339","name":"Mainz-Bingen","type":"Landkreis"},"federalState":{"key":"07","name":"Rheinland-Pfalz"}},{"name":"Stadtmauerweg","postalCode":"55422","locality":"Bacharach","municipality":{"key":"07339003","name":"Bacharach, Stadt","type":"Stadt"},"district":{"key":"07339","name":"Mainz-Bingen","type":"Landkreis"},"federalState":{"key":"07","name":"Rheinland-Pfalz"}},{"name":"Stahleckstr.","postalCode":"55422","locality":"Bacharach","municipality":{"key":"07339003","name":"Bacharach, Stadt","type":"Stadt"},"district":{"key":"07339","name":"Mainz-Bingen","type":"Landkreis"},"federalState":{"key":"07","name":"Rheinland-Pfalz"}},{"name":"Weingartenstr.","postalCode":"55422","locality":"Bacharach","municipality":{"key":"07339003","name":"Bacharach, Stadt","type":"Stadt"},"district":{"key":"07339","name":"Mainz-Bingen","type":"Landkreis"},"federalState":{"key":"07","name":"Rheinland-Pfalz"}},{"name":"Zollstr.","postalCode":"55422","locality":"Bacharach","municipality":{"key":"07339003","name":"Bacharach, Stadt","type":"Stadt"},"district":{"key":"07339","name":"Mainz-Bingen","type":"Landkreis"},"federalState":{"key":"07","name":"Rheinland-Pfalz"}},]