[{"key":"16064003","name":"Bad Langensalza, Stadt","type":"Stadt","postalCode":"99947","multiplePostalCodes":false,"association":{"key":"16064","name":"Bad Langensalza, Stadt","type":"Verbandsfreie_Gemeinde"},"district":{"key":"16064","name":"Unstrut-Hainich-Kreis","type":"Landkreis"},"federalState":{"key":"16","name":"Thüringen"}},{"key":"16064004","name":"Bad Tennstedt, Stadt","type":"Stadt","postalCode":"99955","multiplePostalCodes":false,"association":{"key":"16064","name":"Bad Tennstedt","type":"Verwaltungsgemeinschaft"},"district":{"key":"16064","name":"Unstrut-Hainich-Kreis","type":"Landkreis"},"federalState":{"key":"16","name":"Thüringen"}},{"key":"16064005","name":"Ballhausen","type":"Kreisangehörige_Gemeinde","postalCode":"99955","multiplePostalCodes":false,"association":{"key":"16064","name":"Bad Tennstedt","type":"Verwaltungsgemeinschaft"},"district":{"key":"16064","name":"Unstrut-Hainich-Kreis","type":"Landkreis"},"federalState":{"key":"16","name":"Thüringen"}},{"key":"16064007","name":"Blankenburg","type":"Kreisangehörige_Gemeinde","postalCode":"99955","multiplePostalCodes":false,"association":{"key":"16064","name":"Bad Tennstedt","type":"Verwaltungsgemeinschaft"},"district":{"key":"16064","name":"Unstrut-Hainich-Kreis","type":"Landkreis"},"federalState":{"key":"16","name":"Thüringen"}},{"key":"16064009","name":"Bruchstedt","type":"Kreisangehörige_Gemeinde","postalCode":"99955","multiplePostalCodes":false,"association":{"key":"16064","name":"Bad Tennstedt","type":"Verwaltungsgemeinschaft"},"district":{"key":"16064","name":"Unstrut-Hainich-Kreis","type":"Landkreis"},"federalState":{"key":"16","name":"Thüringen"}},{"key":"16064014","name":"Dünwald","type":"Kreisangehörige_Gemeinde","postalCode":"99976","multiplePostalCodes":false,"association":{"key":"16064","name":"Dünwald","type":"Verbandsfreie_Gemeinde"},"district":{"key":"16064","name":"Unstrut-Hainich-Kreis","type":"Landkreis"},"federalState":{"key":"16","name":"Thüringen"}},{"key":"16064019","name":"Großvargula","type":"Kreisangehörige_Gemeinde","postalCode":"99958","multiplePostalCodes":true,"association":{"key":"16064","name":"Herbsleben","type":"Erfüllende_Gemeinde"},"district":{"key":"16064","name":"Unstrut-Hainich-Kreis","type":"Landkreis"},"federalState":{"key":"16","name":"Thüringen"}},{"key":"16064021","name":"Haussömmern","type":"Kreisangehörige_Gemeinde","postalCode":"99955","multiplePostalCodes":false,"association":{"key":"16064","name":"Bad Tennstedt","type":"Verwaltungsgemeinschaft"},"district":{"key":"16064","name":"Unstrut-Hainich-Kreis","type":"Landkreis"},"federalState":{"key":"16","name":"Thüringen"}},{"key":"16064022","name":"Herbsleben","type":"Kreisangehörige_Gemeinde","postalCode":"99955","multiplePostalCodes":false,"association":{"key":"16064","name":"Herbsleben","type":"Erfüllende_Gemeinde"},"district":{"key":"16064","name":"Unstrut-Hainich-Kreis","type":"Landkreis"},"federalState":{"key":"16","name":"Thüringen"}},{"key":"16064027","name":"Hornsömmern","type":"Kreisangehörige_Gemeinde","postalCode":"99955","multiplePostalCodes":false,"association":{"key":"16064","name":"Bad Tennstedt","type":"Verwaltungsgemeinschaft"},"district":{"key":"16064","name":"Unstrut-Hainich-Kreis","type":"Landkreis"},"federalState":{"key":"16","name":"Thüringen"}},{"key":"16064032","name":"Kammerforst","type":"Kreisangehörige_Gemeinde","postalCode":"99986","multiplePostalCodes":false,"association":{"key":"16064","name":"Vogtei","type":"Erfüllende_Gemeinde"},"district":{"key":"16064","name":"Unstrut-Hainich-Kreis","type":"Landkreis"},"federalState":{"key":"16","name":"Thüringen"}},{"key":"16064033","name":"Kirchheilingen","type":"Kreisangehörige_Gemeinde","postalCode":"99947","multiplePostalCodes":true,"association":{"key":"16064","name":"Bad Tennstedt","type":"Verwaltungsgemeinschaft"},"district":{"key":"16064","name":"Unstrut-Hainich-Kreis","type":"Landkreis"},"federalState":{"key":"16","name":"Thüringen"}},{"key":"16064037","name":"Körner","type":"Kreisangehörige_Gemeinde","postalCode":"99998","multiplePostalCodes":true,"association":{"key":"16064","name":"Nottertal-Heilinger Höhen, Stadt","type":"Erfüllende_Gemeinde"},"district":{"key":"16064","name":"Unstrut-Hainich-Kreis","type":"Landkreis"},"federalState":{"key":"16","name":"Thüringen"}},{"key":"16064038","name":"Kutzleben","type":"Kreisangehörige_Gemeinde","postalCode":"99955","multiplePostalCodes":false,"association":{"key":"16064","name":"Bad Tennstedt","type":"Verwaltungsgemeinschaft"},"district":{"key":"16064","name":"Unstrut-Hainich-Kreis","type":"Landkreis"},"federalState":{"key":"16","name":"Thüringen"}},{"key":"16064043","name":"Marolterode","type":"Kreisangehörige_Gemeinde","postalCode":"99994","multiplePostalCodes":false,"association":{"key":"16064","name":"Nottertal-Heilinger Höhen, Stadt","type":"Erfüllende_Gemeinde"},"district":{"key":"16064","name":"Unstrut-Hainich-Kreis","type":"Landkreis"},"federalState":{"key":"16","name":"Thüringen"}},{"key":"16064045","name":"Mittelsömmern","type":"Kreisangehörige_Gemeinde","postalCode":"99955","multiplePostalCodes":false,"association":{"key":"16064","name":"Bad Tennstedt","type":"Verwaltungsgemeinschaft"},"district":{"key":"16064","name":"Unstrut-Hainich-Kreis","type":"Landkreis"},"federalState":{"key":"16","name":"Thüringen"}},{"key":"16064046","name":"Mühlhausen/Thüringen, Stadt","type":"Stadt","postalCode":"99974","multiplePostalCodes":true,"association":{"key":"16064","name":"Mühlhausen/Thüringen, Stadt","type":"Verbandsfreie_Gemeinde"},"district":{"key":"16064","name":"Unstrut-Hainich-Kreis","type":"Landkreis"},"federalState":{"key":"16","name":"Thüringen"}},{"key":"16064053","name":"Oppershausen","type":"Kreisangehörige_Gemeinde","postalCode":"99986","multiplePostalCodes":false,"association":{"key":"16064","name":"Vogtei","type":"Erfüllende_Gemeinde"},"district":{"key":"16064","name":"Unstrut-Hainich-Kreis","type":"Landkreis"},"federalState":{"key":"16","name":"Thüringen"}},{"key":"16064055","name":"Rodeberg","type":"Kreisangehörige_Gemeinde","postalCode":"99976","multiplePostalCodes":false,"association":{"key":"16064","name":"Südeichsfeld","type":"Erfüllende_Gemeinde"},"district":{"key":"16064","name":"Unstrut-Hainich-Kreis","type":"Landkreis"},"federalState":{"key":"16","name":"Thüringen"}},{"key":"16064058","name":"Schönstedt","type":"Kreisangehörige_Gemeinde","postalCode":"99947","multiplePostalCodes":true,"association":{"key":"16064","name":"Unstrut-Hainich","type":"Erfüllende_Gemeinde"},"district":{"key":"16064","name":"Unstrut-Hainich-Kreis","type":"Landkreis"},"federalState":{"key":"16","name":"Thüringen"}},{"key":"16064061","name":"Sundhausen","type":"Kreisangehörige_Gemeinde","postalCode":"99947","multiplePostalCodes":true,"association":{"key":"16064","name":"Bad Tennstedt","type":"Verwaltungsgemeinschaft"},"district":{"key":"16064","name":"Unstrut-Hainich-Kreis","type":"Landkreis"},"federalState":{"key":"16","name":"Thüringen"}},{"key":"16064062","name":"Tottleben","type":"Kreisangehörige_Gemeinde","postalCode":"99947","multiplePostalCodes":true,"association":{"key":"16064","name":"Bad Tennstedt","type":"Verwaltungsgemeinschaft"},"district":{"key":"16064","name":"Unstrut-Hainich-Kreis","type":"Landkreis"},"federalState":{"key":"16","name":"Thüringen"}},{"key":"16064064","name":"Urleben","type":"Kreisangehörige_Gemeinde","postalCode":"99955","multiplePostalCodes":false,"association":{"key":"16064","name":"Bad Tennstedt","type":"Verwaltungsgemeinschaft"},"district":{"key":"16064","name":"Unstrut-Hainich-Kreis","type":"Landkreis"},"federalState":{"key":"16","name":"Thüringen"}},{"key":"16064071","name":"Unstruttal","type":"Kreisangehörige_Gemeinde","postalCode":"99974","multiplePostalCodes":true,"association":{"key":"16064","name":"Unstruttal","type":"Verbandsfreie_Gemeinde"},"district":{"key":"16064","name":"Unstrut-Hainich-Kreis","type":"Landkreis"},"federalState":{"key":"16","name":"Thüringen"}},{"key":"16064072","name":"Menteroda","type":"Kreisangehörige_Gemeinde","postalCode":"99996","multiplePostalCodes":true,"association":{"key":"16064","name":"Menteroda","type":"Verbandsfreie_Gemeinde"},"district":{"key":"16064","name":"Unstrut-Hainich-Kreis","type":"Landkreis"},"federalState":{"key":"16","name":"Thüringen"}},{"key":"16064073","name":"Anrode","type":"Kreisangehörige_Gemeinde","postalCode":"99976","multiplePostalCodes":false,"association":{"key":"16064","name":"Anrode","type":"Verbandsfreie_Gemeinde"},"district":{"key":"16064","name":"Unstrut-Hainich-Kreis","type":"Landkreis"},"federalState":{"key":"16","name":"Thüringen"}},{"key":"16064074","name":"Südeichsfeld","type":"Kreisangehörige_Gemeinde","postalCode":"99988","multiplePostalCodes":true,"association":{"key":"16064","name":"Südeichsfeld","type":"Erfüllende_Gemeinde"},"district":{"key":"16064","name":"Unstrut-Hainich-Kreis","type":"Landkreis"},"federalState":{"key":"16","name":"Thüringen"}},{"key":"16064075","name":"Vogtei","type":"Kreisangehörige_Gemeinde","postalCode":"99986","multiplePostalCodes":false,"association":{"key":"16064","name":"Vogtei","type":"Erfüllende_Gemeinde"},"district":{"key":"16064","name":"Unstrut-Hainich-Kreis","type":"Landkreis"},"federalState":{"key":"16","name":"Thüringen"}},{"key":"16064076","name":"Unstrut-Hainich","type":"Kreisangehörige_Gemeinde","postalCode":"99991","multiplePostalCodes":false,"association":{"key":"16064","name":"Unstrut-Hainich","type":"Erfüllende_Gemeinde"},"district":{"key":"16064","name":"Unstrut-Hainich-Kreis","type":"Landkreis"},"federalState":{"key":"16","name":"Thüringen"}},{"key":"16064077","name":"Nottertal-Heilinger Höhen, Stadt","type":"Stadt","postalCode":"99994","multiplePostalCodes":false,"association":{"key":"16064","name":"Nottertal-Heilinger Höhen, Stadt","type":"Erfüllende_Gemeinde"},"district":{"key":"16064","name":"Unstrut-Hainich-Kreis","type":"Landkreis"},"federalState":{"key":"16","name":"Thüringen"}}]