[{"name":"Alpenstr.","postalCode":"85646","locality":"Anzing","municipality":{"key":"09175111","name":"Anzing","type":"Kreisangehörige_Gemeinde"},"district":{"key":"09175","name":"Ebersberg","type":"Landkreis"},"federalState":{"key":"09","name":"Bayern"}},{"name":"Am alten Sportplatz","postalCode":"85646","locality":"Anzing","municipality":{"key":"09175111","name":"Anzing","type":"Kreisangehörige_Gemeinde"},"district":{"key":"09175","name":"Ebersberg","type":"Landkreis"},"federalState":{"key":"09","name":"Bayern"}},{"name":"Amselweg","postalCode":"85646","locality":"Anzing","municipality":{"key":"09175111","name":"Anzing","type":"Kreisangehörige_Gemeinde"},"district":{"key":"09175","name":"Ebersberg","type":"Landkreis"},"federalState":{"key":"09","name":"Bayern"}},{"name":"Am Sommerfeld","postalCode":"85646","locality":"Anzing","municipality":{"key":"09175111","name":"Anzing","type":"Kreisangehörige_Gemeinde"},"district":{"key":"09175","name":"Ebersberg","type":"Landkreis"},"federalState":{"key":"09","name":"Bayern"}},{"name":"Am Sportzentrum","postalCode":"85646","locality":"Anzing","municipality":{"key":"09175111","name":"Anzing","type":"Kreisangehörige_Gemeinde"},"district":{"key":"09175","name":"Ebersberg","type":"Landkreis"},"federalState":{"key":"09","name":"Bayern"}},{"name":"Anger-Geräumt","postalCode":"85560","locality":"Anzinger Forst","municipality":{"key":"09175451","name":"Anzinger Forst","type":"Gemeindefreies_Gebiet_Unbewohnt"},"district":{"key":"09175","name":"Ebersberg","type":"Landkreis"},"federalState":{"key":"09","name":"Bayern"}},{"name":"Anna-Ismair-Weg","postalCode":"85646","locality":"Anzing","municipality":{"key":"09175111","name":"Anzing","type":"Kreisangehörige_Gemeinde"},"district":{"key":"09175","name":"Ebersberg","type":"Landkreis"},"federalState":{"key":"09","name":"Bayern"}},{"name":"Auhofen","postalCode":"85646","locality":"Anzing","municipality":{"key":"09175111","name":"Anzing","type":"Kreisangehörige_Gemeinde"},"district":{"key":"09175","name":"Ebersberg","type":"Landkreis"},"federalState":{"key":"09","name":"Bayern"}},{"name":"Berger-Geräumt","postalCode":"85560","locality":"Anzinger Forst","municipality":{"key":"09175451","name":"Anzinger Forst","type":"Gemeindefreies_Gebiet_Unbewohnt"},"district":{"key":"09175","name":"Ebersberg","type":"Landkreis"},"federalState":{"key":"09","name":"Bayern"}},{"name":"Bergstr.","postalCode":"85646","locality":"Anzing","municipality":{"key":"09175111","name":"Anzing","type":"Kreisangehörige_Gemeinde"},"district":{"key":"09175","name":"Ebersberg","type":"Landkreis"},"federalState":{"key":"09","name":"Bayern"}},{"name":"Bgm.-Hermann-Str.","postalCode":"85646","locality":"Anzing","municipality":{"key":"09175111","name":"Anzing","type":"Kreisangehörige_Gemeinde"},"district":{"key":"09175","name":"Ebersberg","type":"Landkreis"},"federalState":{"key":"09","name":"Bayern"}},{"name":"Blumenstr.","postalCode":"85646","locality":"Anzing","municipality":{"key":"09175111","name":"Anzing","type":"Kreisangehörige_Gemeinde"},"district":{"key":"09175","name":"Ebersberg","type":"Landkreis"},"federalState":{"key":"09","name":"Bayern"}},{"name":"Buchenweg","postalCode":"85646","locality":"Anzing","municipality":{"key":"09175111","name":"Anzing","type":"Kreisangehörige_Gemeinde"},"district":{"key":"09175","name":"Ebersberg","type":"Landkreis"},"federalState":{"key":"09","name":"Bayern"}},{"name":"Bürtsch-Geräumt","postalCode":"85560","locality":"Anzinger Forst","municipality":{"key":"09175451","name":"Anzinger Forst","type":"Gemeindefreies_Gebiet_Unbewohnt"},"district":{"key":"09175","name":"Ebersberg","type":"Landkreis"},"federalState":{"key":"09","name":"Bayern"}},{"name":"Candid-Huber-Str.","postalCode":"85560","locality":"Ebersberg","municipality":{"key":"09175115","name":"Ebersberg, St","type":"Stadt"},"district":{"key":"09175","name":"Ebersberg","type":"Landkreis"},"federalState":{"key":"09","name":"Bayern"}},{"name":"Dillis-Geräumt","postalCode":"85560","locality":"Anzinger Forst","municipality":{"key":"09175451","name":"Anzinger Forst","type":"Gemeindefreies_Gebiet_Unbewohnt"},"district":{"key":"09175","name":"Ebersberg","type":"Landkreis"},"federalState":{"key":"09","name":"Bayern"}},{"name":"Drosselweg","postalCode":"85646","locality":"Anzing","municipality":{"key":"09175111","name":"Anzing","type":"Kreisangehörige_Gemeinde"},"district":{"key":"09175","name":"Ebersberg","type":"Landkreis"},"federalState":{"key":"09","name":"Bayern"}},{"name":"Ebersberger Str.","postalCode":"85560","locality":"Anzinger Forst","municipality":{"key":"09175451","name":"Anzinger Forst","type":"Gemeindefreies_Gebiet_Unbewohnt"},"district":{"key":"09175","name":"Ebersberg","type":"Landkreis"},"federalState":{"key":"09","name":"Bayern"}},{"name":"Echter-Geräumt","postalCode":"85560","locality":"Anzinger Forst","municipality":{"key":"09175451","name":"Anzinger Forst","type":"Gemeindefreies_Gebiet_Unbewohnt"},"district":{"key":"09175","name":"Ebersberg","type":"Landkreis"},"federalState":{"key":"09","name":"Bayern"}},{"name":"Edlöster-Geräumt","postalCode":"85560","locality":"Anzinger Forst","municipality":{"key":"09175451","name":"Anzinger Forst","type":"Gemeindefreies_Gebiet_Unbewohnt"},"district":{"key":"09175","name":"Ebersberg","type":"Landkreis"},"federalState":{"key":"09","name":"Bayern"}},{"name":"Eglhartinger Str.","postalCode":"85646","locality":"Anzing","municipality":{"key":"09175111","name":"Anzing","type":"Kreisangehörige_Gemeinde"},"district":{"key":"09175","name":"Ebersberg","type":"Landkreis"},"federalState":{"key":"09","name":"Bayern"}},{"name":"Eichenweg","postalCode":"85646","locality":"Anzing","municipality":{"key":"09175111","name":"Anzing","type":"Kreisangehörige_Gemeinde"},"district":{"key":"09175","name":"Ebersberg","type":"Landkreis"},"federalState":{"key":"09","name":"Bayern"}},{"name":"Erdinger Str.","postalCode":"85646","locality":"Anzing","municipality":{"key":"09175111","name":"Anzing","type":"Kreisangehörige_Gemeinde"},"district":{"key":"09175","name":"Ebersberg","type":"Landkreis"},"federalState":{"key":"09","name":"Bayern"}},{"name":"Erlenweg","postalCode":"85646","locality":"Anzing","municipality":{"key":"09175111","name":"Anzing","type":"Kreisangehörige_Gemeinde"},"district":{"key":"09175","name":"Ebersberg","type":"Landkreis"},"federalState":{"key":"09","name":"Bayern"}},{"name":"Flurstr.","postalCode":"85646","locality":"Anzing","municipality":{"key":"09175111","name":"Anzing","type":"Kreisangehörige_Gemeinde"},"district":{"key":"09175","name":"Ebersberg","type":"Landkreis"},"federalState":{"key":"09","name":"Bayern"}},{"name":"Föhrenweg","postalCode":"85646","locality":"Anzing","municipality":{"key":"09175111","name":"Anzing","type":"Kreisangehörige_Gemeinde"},"district":{"key":"09175","name":"Ebersberg","type":"Landkreis"},"federalState":{"key":"09","name":"Bayern"}},{"name":"Friedrich-Gerg-Str.","postalCode":"85646","locality":"Anzing","municipality":{"key":"09175111","name":"Anzing","type":"Kreisangehörige_Gemeinde"},"district":{"key":"09175","name":"Ebersberg","type":"Landkreis"},"federalState":{"key":"09","name":"Bayern"}},{"name":"Froschkern","postalCode":"85646","locality":"Anzing","municipality":{"key":"09175111","name":"Anzing","type":"Kreisangehörige_Gemeinde"},"district":{"key":"09175","name":"Ebersberg","type":"Landkreis"},"federalState":{"key":"09","name":"Bayern"}},{"name":"Frotzhofner-Geräumt","postalCode":"85560","locality":"Anzinger Forst","municipality":{"key":"09175451","name":"Anzinger Forst","type":"Gemeindefreies_Gebiet_Unbewohnt"},"district":{"key":"09175","name":"Ebersberg","type":"Landkreis"},"federalState":{"key":"09","name":"Bayern"}},{"name":"Frühlingstr.","postalCode":"85646","locality":"Anzing","municipality":{"key":"09175111","name":"Anzing","type":"Kreisangehörige_Gemeinde"},"district":{"key":"09175","name":"Ebersberg","type":"Landkreis"},"federalState":{"key":"09","name":"Bayern"}},{"name":"Fuggerstr.","postalCode":"85646","locality":"Anzing","municipality":{"key":"09175111","name":"Anzing","type":"Kreisangehörige_Gemeinde"},"district":{"key":"09175","name":"Ebersberg","type":"Landkreis"},"federalState":{"key":"09","name":"Bayern"}},{"name":"Garkofen","postalCode":"85646","locality":"Anzing","municipality":{"key":"09175111","name":"Anzing","type":"Kreisangehörige_Gemeinde"},"district":{"key":"09175","name":"Ebersberg","type":"Landkreis"},"federalState":{"key":"09","name":"Bayern"}},{"name":"Gartenstr.","postalCode":"85646","locality":"Anzing","municipality":{"key":"09175111","name":"Anzing","type":"Kreisangehörige_Gemeinde"},"district":{"key":"09175","name":"Ebersberg","type":"Landkreis"},"federalState":{"key":"09","name":"Bayern"}},{"name":"Gewerbepark","postalCode":"85646","locality":"Anzing","municipality":{"key":"09175111","name":"Anzing","type":"Kreisangehörige_Gemeinde"},"district":{"key":"09175","name":"Ebersberg","type":"Landkreis"},"federalState":{"key":"09","name":"Bayern"}},{"name":"Gutenbergstr.","postalCode":"85646","locality":"Anzing","municipality":{"key":"09175111","name":"Anzing","type":"Kreisangehörige_Gemeinde"},"district":{"key":"09175","name":"Ebersberg","type":"Landkreis"},"federalState":{"key":"09","name":"Bayern"}},{"name":"Heilig-Kreuz-Geräumt","postalCode":"85560","locality":"Anzinger Forst","municipality":{"key":"09175451","name":"Anzinger Forst","type":"Gemeindefreies_Gebiet_Unbewohnt"},"district":{"key":"09175","name":"Ebersberg","type":"Landkreis"},"federalState":{"key":"09","name":"Bayern"}},{"name":"Hertergrube","postalCode":"85646","locality":"Anzing","municipality":{"key":"09175111","name":"Anzing","type":"Kreisangehörige_Gemeinde"},"district":{"key":"09175","name":"Ebersberg","type":"Landkreis"},"federalState":{"key":"09","name":"Bayern"}},{"name":"Hirnerstr.","postalCode":"85646","locality":"Anzing","municipality":{"key":"09175111","name":"Anzing","type":"Kreisangehörige_Gemeinde"},"district":{"key":"09175","name":"Ebersberg","type":"Landkreis"},"federalState":{"key":"09","name":"Bayern"}},{"name":"Hirschensprung-Geräumt","postalCode":"85560","locality":"Anzinger Forst","municipality":{"key":"09175451","name":"Anzinger Forst","type":"Gemeindefreies_Gebiet_Unbewohnt"},"district":{"key":"09175","name":"Ebersberg","type":"Landkreis"},"federalState":{"key":"09","name":"Bayern"}},{"name":"Hirsch-Geräumt","postalCode":"85560","locality":"Anzinger Forst","municipality":{"key":"09175451","name":"Anzinger Forst","type":"Gemeindefreies_Gebiet_Unbewohnt"},"district":{"key":"09175","name":"Ebersberg","type":"Landkreis"},"federalState":{"key":"09","name":"Bayern"}},{"name":"Hirschsprung-Geräumt","postalCode":"85560","locality":"Anzinger Forst","municipality":{"key":"09175451","name":"Anzinger Forst","type":"Gemeindefreies_Gebiet_Unbewohnt"},"district":{"key":"09175","name":"Ebersberg","type":"Landkreis"},"federalState":{"key":"09","name":"Bayern"}},{"name":"Hochstraß-Geräumt","postalCode":"85560","locality":"Anzinger Forst","municipality":{"key":"09175451","name":"Anzinger Forst","type":"Gemeindefreies_Gebiet_Unbewohnt"},"district":{"key":"09175","name":"Ebersberg","type":"Landkreis"},"federalState":{"key":"09","name":"Bayern"}},{"name":"Högerstr.","postalCode":"85646","locality":"Anzing","municipality":{"key":"09175111","name":"Anzing","type":"Kreisangehörige_Gemeinde"},"district":{"key":"09175","name":"Ebersberg","type":"Landkreis"},"federalState":{"key":"09","name":"Bayern"}},{"name":"Holzfeldweg","postalCode":"85646","locality":"Anzing","municipality":{"key":"09175111","name":"Anzing","type":"Kreisangehörige_Gemeinde"},"district":{"key":"09175","name":"Ebersberg","type":"Landkreis"},"federalState":{"key":"09","name":"Bayern"}},{"name":"Inniger-Kranzweg-Geräumt","postalCode":"85560","locality":"Anzinger Forst","municipality":{"key":"09175451","name":"Anzinger Forst","type":"Gemeindefreies_Gebiet_Unbewohnt"},"district":{"key":"09175","name":"Ebersberg","type":"Landkreis"},"federalState":{"key":"09","name":"Bayern"}},{"name":"Jahnstr.","postalCode":"85646","locality":"Anzing","municipality":{"key":"09175111","name":"Anzing","type":"Kreisangehörige_Gemeinde"},"district":{"key":"09175","name":"Ebersberg","type":"Landkreis"},"federalState":{"key":"09","name":"Bayern"}},{"name":"Kaiserweg","postalCode":"85646","locality":"Anzing","municipality":{"key":"09175111","name":"Anzing","type":"Kreisangehörige_Gemeinde"},"district":{"key":"09175","name":"Ebersberg","type":"Landkreis"},"federalState":{"key":"09","name":"Bayern"}},{"name":"Kirchenweg","postalCode":"85646","locality":"Anzing","municipality":{"key":"09175111","name":"Anzing","type":"Kreisangehörige_Gemeinde"},"district":{"key":"09175","name":"Ebersberg","type":"Landkreis"},"federalState":{"key":"09","name":"Bayern"}},{"name":"Kling-Geräumt","postalCode":"85560","locality":"Anzinger Forst","municipality":{"key":"09175451","name":"Anzinger Forst","type":"Gemeindefreies_Gebiet_Unbewohnt"},"district":{"key":"09175","name":"Ebersberg","type":"Landkreis"},"federalState":{"key":"09","name":"Bayern"}},{"name":"Kurz-Geräumt","postalCode":"85560","locality":"Anzinger Forst","municipality":{"key":"09175451","name":"Anzinger Forst","type":"Gemeindefreies_Gebiet_Unbewohnt"},"district":{"key":"09175","name":"Ebersberg","type":"Landkreis"},"federalState":{"key":"09","name":"Bayern"}},{"name":"Lärchenstr.","postalCode":"85646","locality":"Anzing","municipality":{"key":"09175111","name":"Anzing","type":"Kreisangehörige_Gemeinde"},"district":{"key":"09175","name":"Ebersberg","type":"Landkreis"},"federalState":{"key":"09","name":"Bayern"}},{"name":"Lessingstr.","postalCode":"85646","locality":"Anzing","municipality":{"key":"09175111","name":"Anzing","type":"Kreisangehörige_Gemeinde"},"district":{"key":"09175","name":"Ebersberg","type":"Landkreis"},"federalState":{"key":"09","name":"Bayern"}},{"name":"Lindach","postalCode":"85646","locality":"Anzing","municipality":{"key":"09175111","name":"Anzing","type":"Kreisangehörige_Gemeinde"},"district":{"key":"09175","name":"Ebersberg","type":"Landkreis"},"federalState":{"key":"09","name":"Bayern"}},{"name":"Lindacher Weg","postalCode":"85646","locality":"Anzing","municipality":{"key":"09175111","name":"Anzing","type":"Kreisangehörige_Gemeinde"},"district":{"key":"09175","name":"Ebersberg","type":"Landkreis"},"federalState":{"key":"09","name":"Bayern"}},{"name":"Lindenstr.","postalCode":"85646","locality":"Anzing","municipality":{"key":"09175111","name":"Anzing","type":"Kreisangehörige_Gemeinde"},"district":{"key":"09175","name":"Ebersberg","type":"Landkreis"},"federalState":{"key":"09","name":"Bayern"}},{"name":"Maueranger-Geräumt","postalCode":"85560","locality":"Anzinger Forst","municipality":{"key":"09175451","name":"Anzinger Forst","type":"Gemeindefreies_Gebiet_Unbewohnt"},"district":{"key":"09175","name":"Ebersberg","type":"Landkreis"},"federalState":{"key":"09","name":"Bayern"}},{"name":"Mozartring","postalCode":"85646","locality":"Anzing","municipality":{"key":"09175111","name":"Anzing","type":"Kreisangehörige_Gemeinde"},"district":{"key":"09175","name":"Ebersberg","type":"Landkreis"},"federalState":{"key":"09","name":"Bayern"}},{"name":"Mühldorfer Str.","postalCode":"85646","locality":"Anzing","municipality":{"key":"09175111","name":"Anzing","type":"Kreisangehörige_Gemeinde"},"district":{"key":"09175","name":"Ebersberg","type":"Landkreis"},"federalState":{"key":"09","name":"Bayern"}},{"name":"Mühlenweg","postalCode":"85646","locality":"Anzing","municipality":{"key":"09175111","name":"Anzing","type":"Kreisangehörige_Gemeinde"},"district":{"key":"09175","name":"Ebersberg","type":"Landkreis"},"federalState":{"key":"09","name":"Bayern"}},{"name":"Münchener Str.","postalCode":"85646","locality":"Anzing","municipality":{"key":"09175111","name":"Anzing","type":"Kreisangehörige_Gemeinde"},"district":{"key":"09175","name":"Ebersberg","type":"Landkreis"},"federalState":{"key":"09","name":"Bayern"}},{"name":"Oberasbach","postalCode":"85646","locality":"Anzing","municipality":{"key":"09175111","name":"Anzing","type":"Kreisangehörige_Gemeinde"},"district":{"key":"09175","name":"Ebersberg","type":"Landkreis"},"federalState":{"key":"09","name":"Bayern"}},{"name":"Oberasbacher-Geräumt","postalCode":"85560","locality":"Anzinger Forst","municipality":{"key":"09175451","name":"Anzinger Forst","type":"Gemeindefreies_Gebiet_Unbewohnt"},"district":{"key":"09175","name":"Ebersberg","type":"Landkreis"},"federalState":{"key":"09","name":"Bayern"}},{"name":"Oberfeldstr.","postalCode":"85646","locality":"Anzing","municipality":{"key":"09175111","name":"Anzing","type":"Kreisangehörige_Gemeinde"},"district":{"key":"09175","name":"Ebersberg","type":"Landkreis"},"federalState":{"key":"09","name":"Bayern"}},{"name":"Oberndorff-Geräumt","postalCode":"85560","locality":"Anzinger Forst","municipality":{"key":"09175451","name":"Anzinger Forst","type":"Gemeindefreies_Gebiet_Unbewohnt"},"district":{"key":"09175","name":"Ebersberg","type":"Landkreis"},"federalState":{"key":"09","name":"Bayern"}},{"name":"Oberndorf-Geräumt","postalCode":"85560","locality":"Anzinger Forst","municipality":{"key":"09175451","name":"Anzinger Forst","type":"Gemeindefreies_Gebiet_Unbewohnt"},"district":{"key":"09175","name":"Ebersberg","type":"Landkreis"},"federalState":{"key":"09","name":"Bayern"}},{"name":"Parkstr.","postalCode":"85646","locality":"Anzing","municipality":{"key":"09175111","name":"Anzing","type":"Kreisangehörige_Gemeinde"},"district":{"key":"09175","name":"Ebersberg","type":"Landkreis"},"federalState":{"key":"09","name":"Bayern"}},{"name":"Rathfeldstr.","postalCode":"85646","locality":"Anzing","municipality":{"key":"09175111","name":"Anzing","type":"Kreisangehörige_Gemeinde"},"district":{"key":"09175","name":"Ebersberg","type":"Landkreis"},"federalState":{"key":"09","name":"Bayern"}},{"name":"Ringstr.","postalCode":"85646","locality":"Anzing","municipality":{"key":"09175111","name":"Anzing","type":"Kreisangehörige_Gemeinde"},"district":{"key":"09175","name":"Ebersberg","type":"Landkreis"},"federalState":{"key":"09","name":"Bayern"}},{"name":"Rothsäulerl-Geräumt","postalCode":"85560","locality":"Anzinger Forst","municipality":{"key":"09175451","name":"Anzinger Forst","type":"Gemeindefreies_Gebiet_Unbewohnt"},"district":{"key":"09175","name":"Ebersberg","type":"Landkreis"},"federalState":{"key":"09","name":"Bayern"}},{"name":"Scheyerl-Geräumt","postalCode":"85560","locality":"Anzinger Forst","municipality":{"key":"09175451","name":"Anzinger Forst","type":"Gemeindefreies_Gebiet_Unbewohnt"},"district":{"key":"09175","name":"Ebersberg","type":"Landkreis"},"federalState":{"key":"09","name":"Bayern"}},{"name":"Schilcher-Geraeumt","postalCode":"85560","locality":"Anzinger Forst","municipality":{"key":"09175451","name":"Anzinger Forst","type":"Gemeindefreies_Gebiet_Unbewohnt"},"district":{"key":"09175","name":"Ebersberg","type":"Landkreis"},"federalState":{"key":"09","name":"Bayern"}},{"name":"Schillerstr.","postalCode":"85646","locality":"Anzing","municipality":{"key":"09175111","name":"Anzing","type":"Kreisangehörige_Gemeinde"},"district":{"key":"09175","name":"Ebersberg","type":"Landkreis"},"federalState":{"key":"09","name":"Bayern"}},{"name":"Schloßbergstr.","postalCode":"85646","locality":"Anzing","municipality":{"key":"09175111","name":"Anzing","type":"Kreisangehörige_Gemeinde"},"district":{"key":"09175","name":"Ebersberg","type":"Landkreis"},"federalState":{"key":"09","name":"Bayern"}},{"name":"Schultze-Geräumt","postalCode":"85560","locality":"Anzinger Forst","municipality":{"key":"09175451","name":"Anzinger Forst","type":"Gemeindefreies_Gebiet_Unbewohnt"},"district":{"key":"09175","name":"Ebersberg","type":"Landkreis"},"federalState":{"key":"09","name":"Bayern"}},{"name":"Schulze-Geräumt","postalCode":"85560","locality":"Anzinger Forst","municipality":{"key":"09175451","name":"Anzinger Forst","type":"Gemeindefreies_Gebiet_Unbewohnt"},"district":{"key":"09175","name":"Ebersberg","type":"Landkreis"},"federalState":{"key":"09","name":"Bayern"}},{"name":"Schwaberweger Haupt-Geräumt","postalCode":"85560","locality":"Anzinger Forst","municipality":{"key":"09175451","name":"Anzinger Forst","type":"Gemeindefreies_Gebiet_Unbewohnt"},"district":{"key":"09175","name":"Ebersberg","type":"Landkreis"},"federalState":{"key":"09","name":"Bayern"}},{"name":"Schwaiger-Geräumt","postalCode":"85560","locality":"Anzinger Forst","municipality":{"key":"09175451","name":"Anzinger Forst","type":"Gemeindefreies_Gebiet_Unbewohnt"},"district":{"key":"09175","name":"Ebersberg","type":"Landkreis"},"federalState":{"key":"09","name":"Bayern"}},{"name":"Schwaigerstr.","postalCode":"85646","locality":"Anzing","municipality":{"key":"09175111","name":"Anzing","type":"Kreisangehörige_Gemeinde"},"district":{"key":"09175","name":"Ebersberg","type":"Landkreis"},"federalState":{"key":"09","name":"Bayern"}},{"name":"Semptweg","postalCode":"85646","locality":"Anzing","municipality":{"key":"09175111","name":"Anzing","type":"Kreisangehörige_Gemeinde"},"district":{"key":"09175","name":"Ebersberg","type":"Landkreis"},"federalState":{"key":"09","name":"Bayern"}},{"name":"Sulz-Geräumt","postalCode":"85560","locality":"Anzinger Forst","municipality":{"key":"09175451","name":"Anzinger Forst","type":"Gemeindefreies_Gebiet_Unbewohnt"},"district":{"key":"09175","name":"Ebersberg","type":"Landkreis"},"federalState":{"key":"09","name":"Bayern"}},{"name":"Sunderndorferstr.","postalCode":"85646","locality":"Anzing","municipality":{"key":"09175111","name":"Anzing","type":"Kreisangehörige_Gemeinde"},"district":{"key":"09175","name":"Ebersberg","type":"Landkreis"},"federalState":{"key":"09","name":"Bayern"}},{"name":"Törring-Geräumt","postalCode":"85560","locality":"Anzinger Forst","municipality":{"key":"09175451","name":"Anzinger Forst","type":"Gemeindefreies_Gebiet_Unbewohnt"},"district":{"key":"09175","name":"Ebersberg","type":"Landkreis"},"federalState":{"key":"09","name":"Bayern"}},{"name":"Tulpenweg","postalCode":"85646","locality":"Anzing","municipality":{"key":"09175111","name":"Anzing","type":"Kreisangehörige_Gemeinde"},"district":{"key":"09175","name":"Ebersberg","type":"Landkreis"},"federalState":{"key":"09","name":"Bayern"}},{"name":"Unterasbach","postalCode":"85646","locality":"Anzing","municipality":{"key":"09175111","name":"Anzing","type":"Kreisangehörige_Gemeinde"},"district":{"key":"09175","name":"Ebersberg","type":"Landkreis"},"federalState":{"key":"09","name":"Bayern"}},{"name":"Unterasbacher-Geräumt","postalCode":"85560","locality":"Anzinger Forst","municipality":{"key":"09175451","name":"Anzinger Forst","type":"Gemeindefreies_Gebiet_Unbewohnt"},"district":{"key":"09175","name":"Ebersberg","type":"Landkreis"},"federalState":{"key":"09","name":"Bayern"}},{"name":"Valentingasse","postalCode":"85560","locality":"Ebersberg","municipality":{"key":"09175115","name":"Ebersberg, St","type":"Stadt"},"district":{"key":"09175","name":"Ebersberg","type":"Landkreis"},"federalState":{"key":"09","name":"Bayern"}},{"name":"Von-Feury-Str.","postalCode":"85560","locality":"Ebersberg","municipality":{"key":"09175115","name":"Ebersberg, St","type":"Stadt"},"district":{"key":"09175","name":"Ebersberg","type":"Landkreis"},"federalState":{"key":"09","name":"Bayern"}},{"name":"Von-Scala-Str.","postalCode":"85560","locality":"Ebersberg","municipality":{"key":"09175115","name":"Ebersberg, St","type":"Stadt"},"district":{"key":"09175","name":"Ebersberg","type":"Landkreis"},"federalState":{"key":"09","name":"Bayern"}},{"name":"Vorderegglburg","postalCode":"85560","locality":"Ebersberg","municipality":{"key":"09175115","name":"Ebersberg, St","type":"Stadt"},"district":{"key":"09175","name":"Ebersberg","type":"Landkreis"},"federalState":{"key":"09","name":"Bayern"}},{"name":"Waldstr.","postalCode":"85646","locality":"Anzing","municipality":{"key":"09175111","name":"Anzing","type":"Kreisangehörige_Gemeinde"},"district":{"key":"09175","name":"Ebersberg","type":"Landkreis"},"federalState":{"key":"09","name":"Bayern"}},{"name":"Wendelsteinstr.","postalCode":"85646","locality":"Anzing","municipality":{"key":"09175111","name":"Anzing","type":"Kreisangehörige_Gemeinde"},"district":{"key":"09175","name":"Ebersberg","type":"Landkreis"},"federalState":{"key":"09","name":"Bayern"}},{"name":"Yrsch-Geräumt","postalCode":"85560","locality":"Ebersberger Forst","municipality":{"key":"09175452","name":"Ebersberger Forst","type":"Gemeindefreies_Gebiet_Unbewohnt"},"district":{"key":"09175","name":"Ebersberg","type":"Landkreis"},"federalState":{"key":"09","name":"Bayern"}},{"name":"Yrsch-Geräumt","postalCode":"85664","locality":"Ebersberger Forst","municipality":{"key":"09175452","name":"Ebersberger Forst","type":"Gemeindefreies_Gebiet_Unbewohnt"},"district":{"key":"09175","name":"Ebersberg","type":"Landkreis"},"federalState":{"key":"09","name":"Bayern"}},{"name":"Zangellucken-Geräumt","postalCode":"85560","locality":"Anzinger Forst","municipality":{"key":"09175451","name":"Anzinger Forst","type":"Gemeindefreies_Gebiet_Unbewohnt"},"district":{"key":"09175","name":"Ebersberg","type":"Landkreis"},"federalState":{"key":"09","name":"Bayern"}},{"name":"Zornedinger Str.","postalCode":"85646","locality":"Anzing","municipality":{"key":"09175111","name":"Anzing","type":"Kreisangehörige_Gemeinde"},"district":{"key":"09175","name":"Ebersberg","type":"Landkreis"},"federalState":{"key":"09","name":"Bayern"}},{"name":"Zugspitzring","postalCode":"85646","locality":"Anzing","municipality":{"key":"09175111","name":"Anzing","type":"Kreisangehörige_Gemeinde"},"district":{"key":"09175","name":"Ebersberg","type":"Landkreis"},"federalState":{"key":"09","name":"Bayern"}},]