[{"name":"Ahornweg","postalCode":"83109","locality":"Großkarolinenfeld","municipality":{"key":"09187137","name":"Großkarolinenfeld","type":"Kreisangehörige_Gemeinde"},"district":{"key":"09187","name":"Rosenheim","type":"Landkreis"},"federalState":{"key":"09","name":"Bayern"}},{"name":"Aiblinger Str.","postalCode":"83109","locality":"Großkarolinenfeld","municipality":{"key":"09187137","name":"Großkarolinenfeld","type":"Kreisangehörige_Gemeinde"},"district":{"key":"09187","name":"Rosenheim","type":"Landkreis"},"federalState":{"key":"09","name":"Bayern"}},{"name":"Aiblinger Weg","postalCode":"83109","locality":"Großkarolinenfeld","municipality":{"key":"09187137","name":"Großkarolinenfeld","type":"Kreisangehörige_Gemeinde"},"district":{"key":"09187","name":"Rosenheim","type":"Landkreis"},"federalState":{"key":"09","name":"Bayern"}},{"name":"Am Anger","postalCode":"83109","locality":"Großkarolinenfeld","municipality":{"key":"09187137","name":"Großkarolinenfeld","type":"Kreisangehörige_Gemeinde"},"district":{"key":"09187","name":"Rosenheim","type":"Landkreis"},"federalState":{"key":"09","name":"Bayern"}},{"name":"Am Bartlwald","postalCode":"83109","locality":"Großkarolinenfeld","municipality":{"key":"09187137","name":"Großkarolinenfeld","type":"Kreisangehörige_Gemeinde"},"district":{"key":"09187","name":"Rosenheim","type":"Landkreis"},"federalState":{"key":"09","name":"Bayern"}},{"name":"Ametsbichl","postalCode":"83109","locality":"Großkarolinenfeld","municipality":{"key":"09187137","name":"Großkarolinenfeld","type":"Kreisangehörige_Gemeinde"},"district":{"key":"09187","name":"Rosenheim","type":"Landkreis"},"federalState":{"key":"09","name":"Bayern"}},{"name":"Am Hang","postalCode":"83109","locality":"Großkarolinenfeld","municipality":{"key":"09187137","name":"Großkarolinenfeld","type":"Kreisangehörige_Gemeinde"},"district":{"key":"09187","name":"Rosenheim","type":"Landkreis"},"federalState":{"key":"09","name":"Bayern"}},{"name":"Am Hölzl","postalCode":"83109","locality":"Großkarolinenfeld","municipality":{"key":"09187137","name":"Großkarolinenfeld","type":"Kreisangehörige_Gemeinde"},"district":{"key":"09187","name":"Rosenheim","type":"Landkreis"},"federalState":{"key":"09","name":"Bayern"}},{"name":"Am Kapellenfeld","postalCode":"83109","locality":"Großkarolinenfeld","municipality":{"key":"09187137","name":"Großkarolinenfeld","type":"Kreisangehörige_Gemeinde"},"district":{"key":"09187","name":"Rosenheim","type":"Landkreis"},"federalState":{"key":"09","name":"Bayern"}},{"name":"Am Kolberg","postalCode":"83109","locality":"Großkarolinenfeld","municipality":{"key":"09187137","name":"Großkarolinenfeld","type":"Kreisangehörige_Gemeinde"},"district":{"key":"09187","name":"Rosenheim","type":"Landkreis"},"federalState":{"key":"09","name":"Bayern"}},{"name":"Am Schwimmbad","postalCode":"83109","locality":"Großkarolinenfeld","municipality":{"key":"09187137","name":"Großkarolinenfeld","type":"Kreisangehörige_Gemeinde"},"district":{"key":"09187","name":"Rosenheim","type":"Landkreis"},"federalState":{"key":"09","name":"Bayern"}},{"name":"Amselweg","postalCode":"83109","locality":"Großkarolinenfeld","municipality":{"key":"09187137","name":"Großkarolinenfeld","type":"Kreisangehörige_Gemeinde"},"district":{"key":"09187","name":"Rosenheim","type":"Landkreis"},"federalState":{"key":"09","name":"Bayern"}},{"name":"Am Weiher","postalCode":"83109","locality":"Großkarolinenfeld","municipality":{"key":"09187137","name":"Großkarolinenfeld","type":"Kreisangehörige_Gemeinde"},"district":{"key":"09187","name":"Rosenheim","type":"Landkreis"},"federalState":{"key":"09","name":"Bayern"}},{"name":"Arnikaweg","postalCode":"83109","locality":"Großkarolinenfeld","municipality":{"key":"09187137","name":"Großkarolinenfeld","type":"Kreisangehörige_Gemeinde"},"district":{"key":"09187","name":"Rosenheim","type":"Landkreis"},"federalState":{"key":"09","name":"Bayern"}},{"name":"Aschach","postalCode":"83109","locality":"Großkarolinenfeld","municipality":{"key":"09187137","name":"Großkarolinenfeld","type":"Kreisangehörige_Gemeinde"},"district":{"key":"09187","name":"Rosenheim","type":"Landkreis"},"federalState":{"key":"09","name":"Bayern"}},{"name":"Asternweg","postalCode":"83109","locality":"Großkarolinenfeld","municipality":{"key":"09187137","name":"Großkarolinenfeld","type":"Kreisangehörige_Gemeinde"},"district":{"key":"09187","name":"Rosenheim","type":"Landkreis"},"federalState":{"key":"09","name":"Bayern"}},{"name":"Baderweg","postalCode":"83109","locality":"Großkarolinenfeld","municipality":{"key":"09187137","name":"Großkarolinenfeld","type":"Kreisangehörige_Gemeinde"},"district":{"key":"09187","name":"Rosenheim","type":"Landkreis"},"federalState":{"key":"09","name":"Bayern"}},{"name":"Bahnhofstr.","postalCode":"83109","locality":"Großkarolinenfeld","municipality":{"key":"09187137","name":"Großkarolinenfeld","type":"Kreisangehörige_Gemeinde"},"district":{"key":"09187","name":"Rosenheim","type":"Landkreis"},"federalState":{"key":"09","name":"Bayern"}},{"name":"Birkenweg","postalCode":"83109","locality":"Großkarolinenfeld","municipality":{"key":"09187137","name":"Großkarolinenfeld","type":"Kreisangehörige_Gemeinde"},"district":{"key":"09187","name":"Rosenheim","type":"Landkreis"},"federalState":{"key":"09","name":"Bayern"}},{"name":"Blumenstr.","postalCode":"83109","locality":"Großkarolinenfeld","municipality":{"key":"09187137","name":"Großkarolinenfeld","type":"Kreisangehörige_Gemeinde"},"district":{"key":"09187","name":"Rosenheim","type":"Landkreis"},"federalState":{"key":"09","name":"Bayern"}},{"name":"Breitensteinstr.","postalCode":"83109","locality":"Großkarolinenfeld","municipality":{"key":"09187137","name":"Großkarolinenfeld","type":"Kreisangehörige_Gemeinde"},"district":{"key":"09187","name":"Rosenheim","type":"Landkreis"},"federalState":{"key":"09","name":"Bayern"}},{"name":"Buchenweg","postalCode":"83109","locality":"Großkarolinenfeld","municipality":{"key":"09187137","name":"Großkarolinenfeld","type":"Kreisangehörige_Gemeinde"},"district":{"key":"09187","name":"Rosenheim","type":"Landkreis"},"federalState":{"key":"09","name":"Bayern"}},{"name":"Bürgermeister-Fischer-Str.","postalCode":"83109","locality":"Großkarolinenfeld","municipality":{"key":"09187137","name":"Großkarolinenfeld","type":"Kreisangehörige_Gemeinde"},"district":{"key":"09187","name":"Rosenheim","type":"Landkreis"},"federalState":{"key":"09","name":"Bayern"}},{"name":"Bürgermeister-Fuglein-Str.","postalCode":"83109","locality":"Großkarolinenfeld","municipality":{"key":"09187137","name":"Großkarolinenfeld","type":"Kreisangehörige_Gemeinde"},"district":{"key":"09187","name":"Rosenheim","type":"Landkreis"},"federalState":{"key":"09","name":"Bayern"}},{"name":"Bürgermeister-Mertl-Str.","postalCode":"83109","locality":"Großkarolinenfeld","municipality":{"key":"09187137","name":"Großkarolinenfeld","type":"Kreisangehörige_Gemeinde"},"district":{"key":"09187","name":"Rosenheim","type":"Landkreis"},"federalState":{"key":"09","name":"Bayern"}},{"name":"Carl-Orff-Str.","postalCode":"83024","locality":"Rosenheim","municipality":{"key":"09163000","name":"Rosenheim","type":"Kreisfreie_Stadt"},"district":{"key":"09163","name":"Rosenheim","type":"Kreisfreie_Stadt"},"federalState":{"key":"09","name":"Bayern"}},{"name":"Carossastr.","postalCode":"83026","locality":"Rosenheim","municipality":{"key":"09163000","name":"Rosenheim","type":"Kreisfreie_Stadt"},"district":{"key":"09163","name":"Rosenheim","type":"Kreisfreie_Stadt"},"federalState":{"key":"09","name":"Bayern"}},{"name":"Caspar-Filser-Str.","postalCode":"83026","locality":"Rosenheim","municipality":{"key":"09163000","name":"Rosenheim","type":"Kreisfreie_Stadt"},"district":{"key":"09163","name":"Rosenheim","type":"Kreisfreie_Stadt"},"federalState":{"key":"09","name":"Bayern"}},{"name":"Chiemseestr.","postalCode":"83022","locality":"Rosenheim","municipality":{"key":"09163000","name":"Rosenheim","type":"Kreisfreie_Stadt"},"district":{"key":"09163","name":"Rosenheim","type":"Kreisfreie_Stadt"},"federalState":{"key":"09","name":"Bayern"}},{"name":"Christian-Mali-Weg","postalCode":"83026","locality":"Rosenheim","municipality":{"key":"09163000","name":"Rosenheim","type":"Kreisfreie_Stadt"},"district":{"key":"09163","name":"Rosenheim","type":"Kreisfreie_Stadt"},"federalState":{"key":"09","name":"Bayern"}},{"name":"Dahlienweg","postalCode":"83109","locality":"Großkarolinenfeld","municipality":{"key":"09187137","name":"Großkarolinenfeld","type":"Kreisangehörige_Gemeinde"},"district":{"key":"09187","name":"Rosenheim","type":"Landkreis"},"federalState":{"key":"09","name":"Bayern"}},{"name":"Dimmlingweg","postalCode":"83109","locality":"Großkarolinenfeld","municipality":{"key":"09187137","name":"Großkarolinenfeld","type":"Kreisangehörige_Gemeinde"},"district":{"key":"09187","name":"Rosenheim","type":"Landkreis"},"federalState":{"key":"09","name":"Bayern"}},{"name":"Edelweißstr.","postalCode":"83109","locality":"Großkarolinenfeld","municipality":{"key":"09187137","name":"Großkarolinenfeld","type":"Kreisangehörige_Gemeinde"},"district":{"key":"09187","name":"Rosenheim","type":"Landkreis"},"federalState":{"key":"09","name":"Bayern"}},{"name":"Efeustr.","postalCode":"83109","locality":"Großkarolinenfeld","municipality":{"key":"09187137","name":"Großkarolinenfeld","type":"Kreisangehörige_Gemeinde"},"district":{"key":"09187","name":"Rosenheim","type":"Landkreis"},"federalState":{"key":"09","name":"Bayern"}},{"name":"Egerlandstr.","postalCode":"83109","locality":"Großkarolinenfeld","municipality":{"key":"09187137","name":"Großkarolinenfeld","type":"Kreisangehörige_Gemeinde"},"district":{"key":"09187","name":"Rosenheim","type":"Landkreis"},"federalState":{"key":"09","name":"Bayern"}},{"name":"Eichenweg","postalCode":"83109","locality":"Großkarolinenfeld","municipality":{"key":"09187137","name":"Großkarolinenfeld","type":"Kreisangehörige_Gemeinde"},"district":{"key":"09187","name":"Rosenheim","type":"Landkreis"},"federalState":{"key":"09","name":"Bayern"}},{"name":"Enzianstr.","postalCode":"83109","locality":"Großkarolinenfeld","municipality":{"key":"09187137","name":"Großkarolinenfeld","type":"Kreisangehörige_Gemeinde"},"district":{"key":"09187","name":"Rosenheim","type":"Landkreis"},"federalState":{"key":"09","name":"Bayern"}},{"name":"Erlbachweg","postalCode":"83109","locality":"Großkarolinenfeld","municipality":{"key":"09187137","name":"Großkarolinenfeld","type":"Kreisangehörige_Gemeinde"},"district":{"key":"09187","name":"Rosenheim","type":"Landkreis"},"federalState":{"key":"09","name":"Bayern"}},{"name":"Erlenweg","postalCode":"83109","locality":"Großkarolinenfeld","municipality":{"key":"09187137","name":"Großkarolinenfeld","type":"Kreisangehörige_Gemeinde"},"district":{"key":"09187","name":"Rosenheim","type":"Landkreis"},"federalState":{"key":"09","name":"Bayern"}},{"name":"Eschenweg","postalCode":"83109","locality":"Großkarolinenfeld","municipality":{"key":"09187137","name":"Großkarolinenfeld","type":"Kreisangehörige_Gemeinde"},"district":{"key":"09187","name":"Rosenheim","type":"Landkreis"},"federalState":{"key":"09","name":"Bayern"}},{"name":"Fasanenweg","postalCode":"83109","locality":"Großkarolinenfeld","municipality":{"key":"09187137","name":"Großkarolinenfeld","type":"Kreisangehörige_Gemeinde"},"district":{"key":"09187","name":"Rosenheim","type":"Landkreis"},"federalState":{"key":"09","name":"Bayern"}},{"name":"Fichtenweg","postalCode":"83109","locality":"Großkarolinenfeld","municipality":{"key":"09187137","name":"Großkarolinenfeld","type":"Kreisangehörige_Gemeinde"},"district":{"key":"09187","name":"Rosenheim","type":"Landkreis"},"federalState":{"key":"09","name":"Bayern"}},{"name":"Filzenweg","postalCode":"83109","locality":"Großkarolinenfeld","municipality":{"key":"09187137","name":"Großkarolinenfeld","type":"Kreisangehörige_Gemeinde"},"district":{"key":"09187","name":"Rosenheim","type":"Landkreis"},"federalState":{"key":"09","name":"Bayern"}},{"name":"Fliederweg","postalCode":"83109","locality":"Großkarolinenfeld","municipality":{"key":"09187137","name":"Großkarolinenfeld","type":"Kreisangehörige_Gemeinde"},"district":{"key":"09187","name":"Rosenheim","type":"Landkreis"},"federalState":{"key":"09","name":"Bayern"}},{"name":"Flurstr.","postalCode":"83109","locality":"Großkarolinenfeld","municipality":{"key":"09187137","name":"Großkarolinenfeld","type":"Kreisangehörige_Gemeinde"},"district":{"key":"09187","name":"Rosenheim","type":"Landkreis"},"federalState":{"key":"09","name":"Bayern"}},{"name":"Föhrenweg","postalCode":"83109","locality":"Großkarolinenfeld","municipality":{"key":"09187137","name":"Großkarolinenfeld","type":"Kreisangehörige_Gemeinde"},"district":{"key":"09187","name":"Rosenheim","type":"Landkreis"},"federalState":{"key":"09","name":"Bayern"}},{"name":"Geranienweg","postalCode":"83109","locality":"Großkarolinenfeld","municipality":{"key":"09187137","name":"Großkarolinenfeld","type":"Kreisangehörige_Gemeinde"},"district":{"key":"09187","name":"Rosenheim","type":"Landkreis"},"federalState":{"key":"09","name":"Bayern"}},{"name":"Gewerbering-Nord","postalCode":"83109","locality":"Großkarolinenfeld","municipality":{"key":"09187137","name":"Großkarolinenfeld","type":"Kreisangehörige_Gemeinde"},"district":{"key":"09187","name":"Rosenheim","type":"Landkreis"},"federalState":{"key":"09","name":"Bayern"}},{"name":"Grafinger Str.","postalCode":"83109","locality":"Großkarolinenfeld","municipality":{"key":"09187137","name":"Großkarolinenfeld","type":"Kreisangehörige_Gemeinde"},"district":{"key":"09187","name":"Rosenheim","type":"Landkreis"},"federalState":{"key":"09","name":"Bayern"}},{"name":"Hauptstr.","postalCode":"83109","locality":"Großkarolinenfeld","municipality":{"key":"09187137","name":"Großkarolinenfeld","type":"Kreisangehörige_Gemeinde"},"district":{"key":"09187","name":"Rosenheim","type":"Landkreis"},"federalState":{"key":"09","name":"Bayern"}},{"name":"Heubergstr.","postalCode":"83109","locality":"Großkarolinenfeld","municipality":{"key":"09187137","name":"Großkarolinenfeld","type":"Kreisangehörige_Gemeinde"},"district":{"key":"09187","name":"Rosenheim","type":"Landkreis"},"federalState":{"key":"09","name":"Bayern"}},{"name":"Hochplattenstr.","postalCode":"83109","locality":"Großkarolinenfeld","municipality":{"key":"09187137","name":"Großkarolinenfeld","type":"Kreisangehörige_Gemeinde"},"district":{"key":"09187","name":"Rosenheim","type":"Landkreis"},"federalState":{"key":"09","name":"Bayern"}},{"name":"Hochriesstr.","postalCode":"83109","locality":"Großkarolinenfeld","municipality":{"key":"09187137","name":"Großkarolinenfeld","type":"Kreisangehörige_Gemeinde"},"district":{"key":"09187","name":"Rosenheim","type":"Landkreis"},"federalState":{"key":"09","name":"Bayern"}},{"name":"Hollerweg","postalCode":"83109","locality":"Großkarolinenfeld","municipality":{"key":"09187137","name":"Großkarolinenfeld","type":"Kreisangehörige_Gemeinde"},"district":{"key":"09187","name":"Rosenheim","type":"Landkreis"},"federalState":{"key":"09","name":"Bayern"}},{"name":"Hub","postalCode":"83109","locality":"Großkarolinenfeld","municipality":{"key":"09187137","name":"Großkarolinenfeld","type":"Kreisangehörige_Gemeinde"},"district":{"key":"09187","name":"Rosenheim","type":"Landkreis"},"federalState":{"key":"09","name":"Bayern"}},{"name":"Ihlaustr.","postalCode":"83024","locality":"Rosenheim","municipality":{"key":"09163000","name":"Rosenheim","type":"Kreisfreie_Stadt"},"district":{"key":"09163","name":"Rosenheim","type":"Kreisfreie_Stadt"},"federalState":{"key":"09","name":"Bayern"}},{"name":"Illerstr.","postalCode":"83026","locality":"Rosenheim","municipality":{"key":"09163000","name":"Rosenheim","type":"Kreisfreie_Stadt"},"district":{"key":"09163","name":"Rosenheim","type":"Kreisfreie_Stadt"},"federalState":{"key":"09","name":"Bayern"}},{"name":"Im Acker","postalCode":"57520","locality":"Rosenheim","municipality":{"key":"07132095","name":"Rosenheim (Landkreis Altenkirchen)","type":"Kreisangehörige_Gemeinde"},"district":{"key":"07132","name":"Altenkirchen (Westerwald)","type":"Landkreis"},"federalState":{"key":"07","name":"Rheinland-Pfalz"}},{"name":"Im Eichsfeld","postalCode":"57520","locality":"Rosenheim","municipality":{"key":"07132095","name":"Rosenheim (Landkreis Altenkirchen)","type":"Kreisangehörige_Gemeinde"},"district":{"key":"07132","name":"Altenkirchen (Westerwald)","type":"Landkreis"},"federalState":{"key":"07","name":"Rheinland-Pfalz"}},{"name":"Im Kochbrunnen","postalCode":"57520","locality":"Rosenheim","municipality":{"key":"07132095","name":"Rosenheim (Landkreis Altenkirchen)","type":"Kreisangehörige_Gemeinde"},"district":{"key":"07132","name":"Altenkirchen (Westerwald)","type":"Landkreis"},"federalState":{"key":"07","name":"Rheinland-Pfalz"}},{"name":"In der nassen Struth","postalCode":"57520","locality":"Rosenheim","municipality":{"key":"07132095","name":"Rosenheim (Landkreis Altenkirchen)","type":"Kreisangehörige_Gemeinde"},"district":{"key":"07132","name":"Altenkirchen (Westerwald)","type":"Landkreis"},"federalState":{"key":"07","name":"Rheinland-Pfalz"}},{"name":"In der Rose","postalCode":"57520","locality":"Rosenheim","municipality":{"key":"07132095","name":"Rosenheim (Landkreis Altenkirchen)","type":"Kreisangehörige_Gemeinde"},"district":{"key":"07132","name":"Altenkirchen (Westerwald)","type":"Landkreis"},"federalState":{"key":"07","name":"Rheinland-Pfalz"}},{"name":"In der Schmucken","postalCode":"83022","locality":"Rosenheim","municipality":{"key":"09163000","name":"Rosenheim","type":"Kreisfreie_Stadt"},"district":{"key":"09163","name":"Rosenheim","type":"Kreisfreie_Stadt"},"federalState":{"key":"09","name":"Bayern"}},{"name":"Innfeldstr.","postalCode":"83026","locality":"Rosenheim","municipality":{"key":"09163000","name":"Rosenheim","type":"Kreisfreie_Stadt"},"district":{"key":"09163","name":"Rosenheim","type":"Kreisfreie_Stadt"},"federalState":{"key":"09","name":"Bayern"}},{"name":"Innlände","postalCode":"83022","locality":"Rosenheim","municipality":{"key":"09163000","name":"Rosenheim","type":"Kreisfreie_Stadt"},"district":{"key":"09163","name":"Rosenheim","type":"Kreisfreie_Stadt"},"federalState":{"key":"09","name":"Bayern"}},{"name":"Inn-Museum-Freigelände","postalCode":"83022","locality":"Rosenheim","municipality":{"key":"09163000","name":"Rosenheim","type":"Kreisfreie_Stadt"},"district":{"key":"09163","name":"Rosenheim","type":"Kreisfreie_Stadt"},"federalState":{"key":"09","name":"Bayern"}},{"name":"Innsbrucker Str.","postalCode":"83022","locality":"Rosenheim","municipality":{"key":"09163000","name":"Rosenheim","type":"Kreisfreie_Stadt"},"district":{"key":"09163","name":"Rosenheim","type":"Kreisfreie_Stadt"},"federalState":{"key":"09","name":"Bayern"}},{"name":"Innsbrucker Str.","postalCode":"83026","locality":"Rosenheim","municipality":{"key":"09163000","name":"Rosenheim","type":"Kreisfreie_Stadt"},"district":{"key":"09163","name":"Rosenheim","type":"Kreisfreie_Stadt"},"federalState":{"key":"09","name":"Bayern"}},{"name":"Innstr.","postalCode":"83022","locality":"Rosenheim","municipality":{"key":"09163000","name":"Rosenheim","type":"Kreisfreie_Stadt"},"district":{"key":"09163","name":"Rosenheim","type":"Kreisfreie_Stadt"},"federalState":{"key":"09","name":"Bayern"}},{"name":"Inntalstr.","postalCode":"83026","locality":"Rosenheim","municipality":{"key":"09163000","name":"Rosenheim","type":"Kreisfreie_Stadt"},"district":{"key":"09163","name":"Rosenheim","type":"Kreisfreie_Stadt"},"federalState":{"key":"09","name":"Bayern"}},{"name":"Isarstr.","postalCode":"83026","locality":"Rosenheim","municipality":{"key":"09163000","name":"Rosenheim","type":"Kreisfreie_Stadt"},"district":{"key":"09163","name":"Rosenheim","type":"Kreisfreie_Stadt"},"federalState":{"key":"09","name":"Bayern"}},{"name":"Jarezöd","postalCode":"83109","locality":"Großkarolinenfeld","municipality":{"key":"09187137","name":"Großkarolinenfeld","type":"Kreisangehörige_Gemeinde"},"district":{"key":"09187","name":"Rosenheim","type":"Landkreis"},"federalState":{"key":"09","name":"Bayern"}},{"name":"Josef-Baumann-Str.","postalCode":"83109","locality":"Großkarolinenfeld","municipality":{"key":"09187137","name":"Großkarolinenfeld","type":"Kreisangehörige_Gemeinde"},"district":{"key":"09187","name":"Rosenheim","type":"Landkreis"},"federalState":{"key":"09","name":"Bayern"}},{"name":"Kampenwandstr.","postalCode":"83109","locality":"Großkarolinenfeld","municipality":{"key":"09187137","name":"Großkarolinenfeld","type":"Kreisangehörige_Gemeinde"},"district":{"key":"09187","name":"Rosenheim","type":"Landkreis"},"federalState":{"key":"09","name":"Bayern"}},{"name":"Karolinenplatz","postalCode":"83109","locality":"Großkarolinenfeld","municipality":{"key":"09187137","name":"Großkarolinenfeld","type":"Kreisangehörige_Gemeinde"},"district":{"key":"09187","name":"Rosenheim","type":"Landkreis"},"federalState":{"key":"09","name":"Bayern"}},{"name":"Karolinenstr.","postalCode":"83109","locality":"Großkarolinenfeld","municipality":{"key":"09187137","name":"Großkarolinenfeld","type":"Kreisangehörige_Gemeinde"},"district":{"key":"09187","name":"Rosenheim","type":"Landkreis"},"federalState":{"key":"09","name":"Bayern"}},{"name":"Kolberg","postalCode":"83109","locality":"Großkarolinenfeld","municipality":{"key":"09187137","name":"Großkarolinenfeld","type":"Kreisangehörige_Gemeinde"},"district":{"key":"09187","name":"Rosenheim","type":"Landkreis"},"federalState":{"key":"09","name":"Bayern"}},{"name":"Kolbergstr.","postalCode":"83109","locality":"Großkarolinenfeld","municipality":{"key":"09187137","name":"Großkarolinenfeld","type":"Kreisangehörige_Gemeinde"},"district":{"key":"09187","name":"Rosenheim","type":"Landkreis"},"federalState":{"key":"09","name":"Bayern"}},{"name":"Kolbermoorer Str.","postalCode":"83109","locality":"Großkarolinenfeld","municipality":{"key":"09187137","name":"Großkarolinenfeld","type":"Kreisangehörige_Gemeinde"},"district":{"key":"09187","name":"Rosenheim","type":"Landkreis"},"federalState":{"key":"09","name":"Bayern"}},{"name":"Krabichl","postalCode":"83109","locality":"Großkarolinenfeld","municipality":{"key":"09187137","name":"Großkarolinenfeld","type":"Kreisangehörige_Gemeinde"},"district":{"key":"09187","name":"Rosenheim","type":"Landkreis"},"federalState":{"key":"09","name":"Bayern"}},{"name":"Kranzhornstr.","postalCode":"83109","locality":"Großkarolinenfeld","municipality":{"key":"09187137","name":"Großkarolinenfeld","type":"Kreisangehörige_Gemeinde"},"district":{"key":"09187","name":"Rosenheim","type":"Landkreis"},"federalState":{"key":"09","name":"Bayern"}},{"name":"Krokusweg","postalCode":"83109","locality":"Großkarolinenfeld","municipality":{"key":"09187137","name":"Großkarolinenfeld","type":"Kreisangehörige_Gemeinde"},"district":{"key":"09187","name":"Rosenheim","type":"Landkreis"},"federalState":{"key":"09","name":"Bayern"}},{"name":"Lagerhausstr.","postalCode":"83109","locality":"Großkarolinenfeld","municipality":{"key":"09187137","name":"Großkarolinenfeld","type":"Kreisangehörige_Gemeinde"},"district":{"key":"09187","name":"Rosenheim","type":"Landkreis"},"federalState":{"key":"09","name":"Bayern"}},{"name":"Lärchenweg","postalCode":"83109","locality":"Großkarolinenfeld","municipality":{"key":"09187137","name":"Großkarolinenfeld","type":"Kreisangehörige_Gemeinde"},"district":{"key":"09187","name":"Rosenheim","type":"Landkreis"},"federalState":{"key":"09","name":"Bayern"}},{"name":"Lilienweg","postalCode":"83109","locality":"Großkarolinenfeld","municipality":{"key":"09187137","name":"Großkarolinenfeld","type":"Kreisangehörige_Gemeinde"},"district":{"key":"09187","name":"Rosenheim","type":"Landkreis"},"federalState":{"key":"09","name":"Bayern"}},{"name":"Lindenweg","postalCode":"83109","locality":"Großkarolinenfeld","municipality":{"key":"09187137","name":"Großkarolinenfeld","type":"Kreisangehörige_Gemeinde"},"district":{"key":"09187","name":"Rosenheim","type":"Landkreis"},"federalState":{"key":"09","name":"Bayern"}},{"name":"Malvenweg","postalCode":"83109","locality":"Großkarolinenfeld","municipality":{"key":"09187137","name":"Großkarolinenfeld","type":"Kreisangehörige_Gemeinde"},"district":{"key":"09187","name":"Rosenheim","type":"Landkreis"},"federalState":{"key":"09","name":"Bayern"}},{"name":"Margeritenweg","postalCode":"83109","locality":"Großkarolinenfeld","municipality":{"key":"09187137","name":"Großkarolinenfeld","type":"Kreisangehörige_Gemeinde"},"district":{"key":"09187","name":"Rosenheim","type":"Landkreis"},"federalState":{"key":"09","name":"Bayern"}},{"name":"Marienberger Str.","postalCode":"83109","locality":"Großkarolinenfeld","municipality":{"key":"09187137","name":"Großkarolinenfeld","type":"Kreisangehörige_Gemeinde"},"district":{"key":"09187","name":"Rosenheim","type":"Landkreis"},"federalState":{"key":"09","name":"Bayern"}},{"name":"Marsstr.","postalCode":"83109","locality":"Großkarolinenfeld","municipality":{"key":"09187137","name":"Großkarolinenfeld","type":"Kreisangehörige_Gemeinde"},"district":{"key":"09187","name":"Rosenheim","type":"Landkreis"},"federalState":{"key":"09","name":"Bayern"}},{"name":"Max-Josef-Str.","postalCode":"83109","locality":"Großkarolinenfeld","municipality":{"key":"09187137","name":"Großkarolinenfeld","type":"Kreisangehörige_Gemeinde"},"district":{"key":"09187","name":"Rosenheim","type":"Landkreis"},"federalState":{"key":"09","name":"Bayern"}},{"name":"Montgelasstr.","postalCode":"83109","locality":"Großkarolinenfeld","municipality":{"key":"09187137","name":"Großkarolinenfeld","type":"Kreisangehörige_Gemeinde"},"district":{"key":"09187","name":"Rosenheim","type":"Landkreis"},"federalState":{"key":"09","name":"Bayern"}},{"name":"Nelkenweg","postalCode":"83109","locality":"Großkarolinenfeld","municipality":{"key":"09187137","name":"Großkarolinenfeld","type":"Kreisangehörige_Gemeinde"},"district":{"key":"09187","name":"Rosenheim","type":"Landkreis"},"federalState":{"key":"09","name":"Bayern"}},{"name":"Oberaustr.","postalCode":"83026","locality":"Rosenheim","municipality":{"key":"09163000","name":"Rosenheim","type":"Kreisfreie_Stadt"},"district":{"key":"09163","name":"Rosenheim","type":"Kreisfreie_Stadt"},"federalState":{"key":"09","name":"Bayern"}},{"name":"Oberdonauweg","postalCode":"83024","locality":"Rosenheim","municipality":{"key":"09163000","name":"Rosenheim","type":"Kreisfreie_Stadt"},"district":{"key":"09163","name":"Rosenheim","type":"Kreisfreie_Stadt"},"federalState":{"key":"09","name":"Bayern"}},{"name":"Obere Lohe","postalCode":"83026","locality":"Rosenheim","municipality":{"key":"09163000","name":"Rosenheim","type":"Kreisfreie_Stadt"},"district":{"key":"09163","name":"Rosenheim","type":"Kreisfreie_Stadt"},"federalState":{"key":"09","name":"Bayern"}},{"name":"Oberer Gernauweg","postalCode":"83026","locality":"Rosenheim","municipality":{"key":"09163000","name":"Rosenheim","type":"Kreisfreie_Stadt"},"district":{"key":"09163","name":"Rosenheim","type":"Kreisfreie_Stadt"},"federalState":{"key":"09","name":"Bayern"}},{"name":"Obermayerweg","postalCode":"83026","locality":"Rosenheim","municipality":{"key":"09163000","name":"Rosenheim","type":"Kreisfreie_Stadt"},"district":{"key":"09163","name":"Rosenheim","type":"Kreisfreie_Stadt"},"federalState":{"key":"09","name":"Bayern"}},{"name":"Oberschlesienstr.","postalCode":"83024","locality":"Rosenheim","municipality":{"key":"09163000","name":"Rosenheim","type":"Kreisfreie_Stadt"},"district":{"key":"09163","name":"Rosenheim","type":"Kreisfreie_Stadt"},"federalState":{"key":"09","name":"Bayern"}},{"name":"Oberwöhrstr.","postalCode":"83026","locality":"Rosenheim","municipality":{"key":"09163000","name":"Rosenheim","type":"Kreisfreie_Stadt"},"district":{"key":"09163","name":"Rosenheim","type":"Kreisfreie_Stadt"},"federalState":{"key":"09","name":"Bayern"}},{"name":"Odilostr.","postalCode":"83026","locality":"Rosenheim","municipality":{"key":"09163000","name":"Rosenheim","type":"Kreisfreie_Stadt"},"district":{"key":"09163","name":"Rosenheim","type":"Kreisfreie_Stadt"},"federalState":{"key":"09","name":"Bayern"}},{"name":"Oskar-Maria-Graf-Str.","postalCode":"83024","locality":"Rosenheim","municipality":{"key":"09163000","name":"Rosenheim","type":"Kreisfreie_Stadt"},"district":{"key":"09163","name":"Rosenheim","type":"Kreisfreie_Stadt"},"federalState":{"key":"09","name":"Bayern"}},{"name":"Ottonenstr.","postalCode":"83026","locality":"Rosenheim","municipality":{"key":"09163000","name":"Rosenheim","type":"Kreisfreie_Stadt"},"district":{"key":"09163","name":"Rosenheim","type":"Kreisfreie_Stadt"},"federalState":{"key":"09","name":"Bayern"}},{"name":"Pappelweg","postalCode":"83109","locality":"Großkarolinenfeld","municipality":{"key":"09187137","name":"Großkarolinenfeld","type":"Kreisangehörige_Gemeinde"},"district":{"key":"09187","name":"Rosenheim","type":"Landkreis"},"federalState":{"key":"09","name":"Bayern"}},{"name":"Petzenbichl","postalCode":"83109","locality":"Großkarolinenfeld","municipality":{"key":"09187137","name":"Großkarolinenfeld","type":"Kreisangehörige_Gemeinde"},"district":{"key":"09187","name":"Rosenheim","type":"Landkreis"},"federalState":{"key":"09","name":"Bayern"}},{"name":"Pfälzerstr.","postalCode":"83109","locality":"Großkarolinenfeld","municipality":{"key":"09187137","name":"Großkarolinenfeld","type":"Kreisangehörige_Gemeinde"},"district":{"key":"09187","name":"Rosenheim","type":"Landkreis"},"federalState":{"key":"09","name":"Bayern"}},{"name":"Primelweg","postalCode":"83109","locality":"Großkarolinenfeld","municipality":{"key":"09187137","name":"Großkarolinenfeld","type":"Kreisangehörige_Gemeinde"},"district":{"key":"09187","name":"Rosenheim","type":"Landkreis"},"federalState":{"key":"09","name":"Bayern"}},{"name":"Quirinstr.","postalCode":"83024","locality":"Rosenheim","municipality":{"key":"09163000","name":"Rosenheim","type":"Kreisfreie_Stadt"},"district":{"key":"09163","name":"Rosenheim","type":"Kreisfreie_Stadt"},"federalState":{"key":"09","name":"Bayern"}},{"name":"Raiffeisenstr.","postalCode":"83109","locality":"Großkarolinenfeld","municipality":{"key":"09187137","name":"Großkarolinenfeld","type":"Kreisangehörige_Gemeinde"},"district":{"key":"09187","name":"Rosenheim","type":"Landkreis"},"federalState":{"key":"09","name":"Bayern"}},{"name":"Rosenheimer Str.","postalCode":"83109","locality":"Großkarolinenfeld","municipality":{"key":"09187137","name":"Großkarolinenfeld","type":"Kreisangehörige_Gemeinde"},"district":{"key":"09187","name":"Rosenheim","type":"Landkreis"},"federalState":{"key":"09","name":"Bayern"}},{"name":"Rosenweg","postalCode":"83109","locality":"Großkarolinenfeld","municipality":{"key":"09187137","name":"Großkarolinenfeld","type":"Kreisangehörige_Gemeinde"},"district":{"key":"09187","name":"Rosenheim","type":"Landkreis"},"federalState":{"key":"09","name":"Bayern"}},{"name":"Salinenweg","postalCode":"83109","locality":"Großkarolinenfeld","municipality":{"key":"09187137","name":"Großkarolinenfeld","type":"Kreisangehörige_Gemeinde"},"district":{"key":"09187","name":"Rosenheim","type":"Landkreis"},"federalState":{"key":"09","name":"Bayern"}},{"name":"Schlesierstr.","postalCode":"83109","locality":"Großkarolinenfeld","municipality":{"key":"09187137","name":"Großkarolinenfeld","type":"Kreisangehörige_Gemeinde"},"district":{"key":"09187","name":"Rosenheim","type":"Landkreis"},"federalState":{"key":"09","name":"Bayern"}},{"name":"Schmiedgasse","postalCode":"83109","locality":"Großkarolinenfeld","municipality":{"key":"09187137","name":"Großkarolinenfeld","type":"Kreisangehörige_Gemeinde"},"district":{"key":"09187","name":"Rosenheim","type":"Landkreis"},"federalState":{"key":"09","name":"Bayern"}},{"name":"Schultheiß-Gipp-Str.","postalCode":"83109","locality":"Großkarolinenfeld","municipality":{"key":"09187137","name":"Großkarolinenfeld","type":"Kreisangehörige_Gemeinde"},"district":{"key":"09187","name":"Rosenheim","type":"Landkreis"},"federalState":{"key":"09","name":"Bayern"}},{"name":"Sonnenstr.","postalCode":"83109","locality":"Großkarolinenfeld","municipality":{"key":"09187137","name":"Großkarolinenfeld","type":"Kreisangehörige_Gemeinde"},"district":{"key":"09187","name":"Rosenheim","type":"Landkreis"},"federalState":{"key":"09","name":"Bayern"}},{"name":"Sportplatzstr.","postalCode":"83109","locality":"Großkarolinenfeld","municipality":{"key":"09187137","name":"Großkarolinenfeld","type":"Kreisangehörige_Gemeinde"},"district":{"key":"09187","name":"Rosenheim","type":"Landkreis"},"federalState":{"key":"09","name":"Bayern"}},{"name":"Sternstr.","postalCode":"83109","locality":"Großkarolinenfeld","municipality":{"key":"09187137","name":"Großkarolinenfeld","type":"Kreisangehörige_Gemeinde"},"district":{"key":"09187","name":"Rosenheim","type":"Landkreis"},"federalState":{"key":"09","name":"Bayern"}},{"name":"Stolz","postalCode":"83109","locality":"Großkarolinenfeld","municipality":{"key":"09187137","name":"Großkarolinenfeld","type":"Kreisangehörige_Gemeinde"},"district":{"key":"09187","name":"Rosenheim","type":"Landkreis"},"federalState":{"key":"09","name":"Bayern"}},{"name":"Sudetenlandstr.","postalCode":"83109","locality":"Großkarolinenfeld","municipality":{"key":"09187137","name":"Großkarolinenfeld","type":"Kreisangehörige_Gemeinde"},"district":{"key":"09187","name":"Rosenheim","type":"Landkreis"},"federalState":{"key":"09","name":"Bayern"}},{"name":"Tannenweg","postalCode":"83109","locality":"Großkarolinenfeld","municipality":{"key":"09187137","name":"Großkarolinenfeld","type":"Kreisangehörige_Gemeinde"},"district":{"key":"09187","name":"Rosenheim","type":"Landkreis"},"federalState":{"key":"09","name":"Bayern"}},{"name":"Thann","postalCode":"83109","locality":"Großkarolinenfeld","municipality":{"key":"09187137","name":"Großkarolinenfeld","type":"Kreisangehörige_Gemeinde"},"district":{"key":"09187","name":"Rosenheim","type":"Landkreis"},"federalState":{"key":"09","name":"Bayern"}},{"name":"Theodor-Mayer-Str.","postalCode":"83109","locality":"Großkarolinenfeld","municipality":{"key":"09187137","name":"Großkarolinenfeld","type":"Kreisangehörige_Gemeinde"},"district":{"key":"09187","name":"Rosenheim","type":"Landkreis"},"federalState":{"key":"09","name":"Bayern"}},{"name":"Tulpenweg","postalCode":"83109","locality":"Großkarolinenfeld","municipality":{"key":"09187137","name":"Großkarolinenfeld","type":"Kreisangehörige_Gemeinde"},"district":{"key":"09187","name":"Rosenheim","type":"Landkreis"},"federalState":{"key":"09","name":"Bayern"}},{"name":"Ulmenweg","postalCode":"83109","locality":"Großkarolinenfeld","municipality":{"key":"09187137","name":"Großkarolinenfeld","type":"Kreisangehörige_Gemeinde"},"district":{"key":"09187","name":"Rosenheim","type":"Landkreis"},"federalState":{"key":"09","name":"Bayern"}},{"name":"Veilchenweg","postalCode":"83109","locality":"Großkarolinenfeld","municipality":{"key":"09187137","name":"Großkarolinenfeld","type":"Kreisangehörige_Gemeinde"},"district":{"key":"09187","name":"Rosenheim","type":"Landkreis"},"federalState":{"key":"09","name":"Bayern"}},{"name":"Vogelbeerstr.","postalCode":"83109","locality":"Großkarolinenfeld","municipality":{"key":"09187137","name":"Großkarolinenfeld","type":"Kreisangehörige_Gemeinde"},"district":{"key":"09187","name":"Rosenheim","type":"Landkreis"},"federalState":{"key":"09","name":"Bayern"}},{"name":"Von-Kling-Str.","postalCode":"83109","locality":"Großkarolinenfeld","municipality":{"key":"09187137","name":"Großkarolinenfeld","type":"Kreisangehörige_Gemeinde"},"district":{"key":"09187","name":"Rosenheim","type":"Landkreis"},"federalState":{"key":"09","name":"Bayern"}},{"name":"Von-Schilcher-Str.","postalCode":"83109","locality":"Großkarolinenfeld","municipality":{"key":"09187137","name":"Großkarolinenfeld","type":"Kreisangehörige_Gemeinde"},"district":{"key":"09187","name":"Rosenheim","type":"Landkreis"},"federalState":{"key":"09","name":"Bayern"}},{"name":"Wacholderstr.","postalCode":"83109","locality":"Großkarolinenfeld","municipality":{"key":"09187137","name":"Großkarolinenfeld","type":"Kreisangehörige_Gemeinde"},"district":{"key":"09187","name":"Rosenheim","type":"Landkreis"},"federalState":{"key":"09","name":"Bayern"}},{"name":"Waldmeisterstr.","postalCode":"83109","locality":"Großkarolinenfeld","municipality":{"key":"09187137","name":"Großkarolinenfeld","type":"Kreisangehörige_Gemeinde"},"district":{"key":"09187","name":"Rosenheim","type":"Landkreis"},"federalState":{"key":"09","name":"Bayern"}},{"name":"Webergasse","postalCode":"83109","locality":"Großkarolinenfeld","municipality":{"key":"09187137","name":"Großkarolinenfeld","type":"Kreisangehörige_Gemeinde"},"district":{"key":"09187","name":"Rosenheim","type":"Landkreis"},"federalState":{"key":"09","name":"Bayern"}},{"name":"Wendelsteinstr.","postalCode":"83109","locality":"Großkarolinenfeld","municipality":{"key":"09187137","name":"Großkarolinenfeld","type":"Kreisangehörige_Gemeinde"},"district":{"key":"09187","name":"Rosenheim","type":"Landkreis"},"federalState":{"key":"09","name":"Bayern"}},{"name":"Wiesenweg","postalCode":"83109","locality":"Großkarolinenfeld","municipality":{"key":"09187137","name":"Großkarolinenfeld","type":"Kreisangehörige_Gemeinde"},"district":{"key":"09187","name":"Rosenheim","type":"Landkreis"},"federalState":{"key":"09","name":"Bayern"}},{"name":"Ziegelweg","postalCode":"83109","locality":"Großkarolinenfeld","municipality":{"key":"09187137","name":"Großkarolinenfeld","type":"Kreisangehörige_Gemeinde"},"district":{"key":"09187","name":"Rosenheim","type":"Landkreis"},"federalState":{"key":"09","name":"Bayern"}},{"name":"Zweiter Torfweg","postalCode":"83109","locality":"Großkarolinenfeld","municipality":{"key":"09187137","name":"Großkarolinenfeld","type":"Kreisangehörige_Gemeinde"},"district":{"key":"09187","name":"Rosenheim","type":"Landkreis"},"federalState":{"key":"09","name":"Bayern"}},{"name":"Äußere Münchener Str.","postalCode":"83022","locality":"Rosenheim","municipality":{"key":"09163000","name":"Rosenheim","type":"Kreisfreie_Stadt"},"district":{"key":"09163","name":"Rosenheim","type":"Kreisfreie_Stadt"},"federalState":{"key":"09","name":"Bayern"}},{"name":"Äußere Münchener Str.","postalCode":"83026","locality":"Rosenheim","municipality":{"key":"09163000","name":"Rosenheim","type":"Kreisfreie_Stadt"},"district":{"key":"09163","name":"Rosenheim","type":"Kreisfreie_Stadt"},"federalState":{"key":"09","name":"Bayern"}},{"name":"Äußere Oberaustr.","postalCode":"83026","locality":"Rosenheim","municipality":{"key":"09163000","name":"Rosenheim","type":"Kreisfreie_Stadt"},"district":{"key":"09163","name":"Rosenheim","type":"Kreisfreie_Stadt"},"federalState":{"key":"09","name":"Bayern"}},{"name":"Ödenhub","postalCode":"83109","locality":"Großkarolinenfeld","municipality":{"key":"09187137","name":"Großkarolinenfeld","type":"Kreisangehörige_Gemeinde"},"district":{"key":"09187","name":"Rosenheim","type":"Landkreis"},"federalState":{"key":"09","name":"Bayern"}},{"name":"Öllerschlössl","postalCode":"83109","locality":"Großkarolinenfeld","municipality":{"key":"09187137","name":"Großkarolinenfeld","type":"Kreisangehörige_Gemeinde"},"district":{"key":"09187","name":"Rosenheim","type":"Landkreis"},"federalState":{"key":"09","name":"Bayern"}},]