[{"name":"Am Hang","postalCode":"56745","locality":"Volkesfeld","municipality":{"key":"07137106","name":"Volkesfeld","type":"Kreisangehörige_Gemeinde"},"district":{"key":"07137","name":"Mayen-Koblenz","type":"Landkreis"},"federalState":{"key":"07","name":"Rheinland-Pfalz"}},{"name":"Am Riethel","postalCode":"56745","locality":"Volkesfeld","municipality":{"key":"07137106","name":"Volkesfeld","type":"Kreisangehörige_Gemeinde"},"district":{"key":"07137","name":"Mayen-Koblenz","type":"Landkreis"},"federalState":{"key":"07","name":"Rheinland-Pfalz"}},{"name":"Bergstr.","postalCode":"56745","locality":"Volkesfeld","municipality":{"key":"07137106","name":"Volkesfeld","type":"Kreisangehörige_Gemeinde"},"district":{"key":"07137","name":"Mayen-Koblenz","type":"Landkreis"},"federalState":{"key":"07","name":"Rheinland-Pfalz"}},{"name":"Kaulstr.","postalCode":"56745","locality":"Volkesfeld","municipality":{"key":"07137106","name":"Volkesfeld","type":"Kreisangehörige_Gemeinde"},"district":{"key":"07137","name":"Mayen-Koblenz","type":"Landkreis"},"federalState":{"key":"07","name":"Rheinland-Pfalz"}},{"name":"Kirchstr.","postalCode":"56745","locality":"Volkesfeld","municipality":{"key":"07137106","name":"Volkesfeld","type":"Kreisangehörige_Gemeinde"},"district":{"key":"07137","name":"Mayen-Koblenz","type":"Landkreis"},"federalState":{"key":"07","name":"Rheinland-Pfalz"}},{"name":"Mittelweg","postalCode":"56745","locality":"Volkesfeld","municipality":{"key":"07137106","name":"Volkesfeld","type":"Kreisangehörige_Gemeinde"},"district":{"key":"07137","name":"Mayen-Koblenz","type":"Landkreis"},"federalState":{"key":"07","name":"Rheinland-Pfalz"}},{"name":"Nettestr.","postalCode":"56745","locality":"Volkesfeld","municipality":{"key":"07137106","name":"Volkesfeld","type":"Kreisangehörige_Gemeinde"},"district":{"key":"07137","name":"Mayen-Koblenz","type":"Landkreis"},"federalState":{"key":"07","name":"Rheinland-Pfalz"}},{"name":"Neustr.","postalCode":"56745","locality":"Volkesfeld","municipality":{"key":"07137106","name":"Volkesfeld","type":"Kreisangehörige_Gemeinde"},"district":{"key":"07137","name":"Mayen-Koblenz","type":"Landkreis"},"federalState":{"key":"07","name":"Rheinland-Pfalz"}},{"name":"Oberdorfstr.","postalCode":"56745","locality":"Volkesfeld","municipality":{"key":"07137106","name":"Volkesfeld","type":"Kreisangehörige_Gemeinde"},"district":{"key":"07137","name":"Mayen-Koblenz","type":"Landkreis"},"federalState":{"key":"07","name":"Rheinland-Pfalz"}},{"name":"Riedener Mühlen","postalCode":"56745","locality":"Volkesfeld","municipality":{"key":"07137106","name":"Volkesfeld","type":"Kreisangehörige_Gemeinde"},"district":{"key":"07137","name":"Mayen-Koblenz","type":"Landkreis"},"federalState":{"key":"07","name":"Rheinland-Pfalz"}},{"name":"Sauerbrunnenweg","postalCode":"56745","locality":"Volkesfeld","municipality":{"key":"07137106","name":"Volkesfeld","type":"Kreisangehörige_Gemeinde"},"district":{"key":"07137","name":"Mayen-Koblenz","type":"Landkreis"},"federalState":{"key":"07","name":"Rheinland-Pfalz"}},{"name":"Seeblick","postalCode":"56745","locality":"Volkesfeld","municipality":{"key":"07137106","name":"Volkesfeld","type":"Kreisangehörige_Gemeinde"},"district":{"key":"07137","name":"Mayen-Koblenz","type":"Landkreis"},"federalState":{"key":"07","name":"Rheinland-Pfalz"}},{"name":"Sonnenwinkel","postalCode":"56745","locality":"Volkesfeld","municipality":{"key":"07137106","name":"Volkesfeld","type":"Kreisangehörige_Gemeinde"},"district":{"key":"07137","name":"Mayen-Koblenz","type":"Landkreis"},"federalState":{"key":"07","name":"Rheinland-Pfalz"}},{"name":"Talstr.","postalCode":"56745","locality":"Volkesfeld","municipality":{"key":"07137106","name":"Volkesfeld","type":"Kreisangehörige_Gemeinde"},"district":{"key":"07137","name":"Mayen-Koblenz","type":"Landkreis"},"federalState":{"key":"07","name":"Rheinland-Pfalz"}},{"name":"Zum Schlehenberg","postalCode":"56745","locality":"Volkesfeld","municipality":{"key":"07137106","name":"Volkesfeld","type":"Kreisangehörige_Gemeinde"},"district":{"key":"07137","name":"Mayen-Koblenz","type":"Landkreis"},"federalState":{"key":"07","name":"Rheinland-Pfalz"}},{"name":"Zur Heide","postalCode":"56745","locality":"Volkesfeld","municipality":{"key":"07137106","name":"Volkesfeld","type":"Kreisangehörige_Gemeinde"},"district":{"key":"07137","name":"Mayen-Koblenz","type":"Landkreis"},"federalState":{"key":"07","name":"Rheinland-Pfalz"}},]