[{"name":"Aeule","postalCode":"79859","locality":"Schluchsee","municipality":{"key":"08315102","name":"Schluchsee","type":"Kreisangehörige_Gemeinde"},"district":{"key":"08315","name":"Breisgau-Hochschwarzwald","type":"Landkreis"},"federalState":{"key":"08","name":"Baden-Württemberg"}},{"name":"Aeulemerweg","postalCode":"79859","locality":"Schluchsee","municipality":{"key":"08315102","name":"Schluchsee","type":"Kreisangehörige_Gemeinde"},"district":{"key":"08315","name":"Breisgau-Hochschwarzwald","type":"Landkreis"},"federalState":{"key":"08","name":"Baden-Württemberg"}},{"name":"Ahaberggrundweg","postalCode":"79859","locality":"Schluchsee","municipality":{"key":"08315102","name":"Schluchsee","type":"Kreisangehörige_Gemeinde"},"district":{"key":"08315","name":"Breisgau-Hochschwarzwald","type":"Landkreis"},"federalState":{"key":"08","name":"Baden-Württemberg"}},{"name":"Ahamerhaldenweg","postalCode":"79859","locality":"Schluchsee","municipality":{"key":"08315102","name":"Schluchsee","type":"Kreisangehörige_Gemeinde"},"district":{"key":"08315","name":"Breisgau-Hochschwarzwald","type":"Landkreis"},"federalState":{"key":"08","name":"Baden-Württemberg"}},{"name":"Alexanderweg","postalCode":"79859","locality":"Schluchsee","municipality":{"key":"08315102","name":"Schluchsee","type":"Kreisangehörige_Gemeinde"},"district":{"key":"08315","name":"Breisgau-Hochschwarzwald","type":"Landkreis"},"federalState":{"key":"08","name":"Baden-Württemberg"}},{"name":"Alte Muchenländerstr.","postalCode":"79859","locality":"Schluchsee","municipality":{"key":"08315102","name":"Schluchsee","type":"Kreisangehörige_Gemeinde"},"district":{"key":"08315","name":"Breisgau-Hochschwarzwald","type":"Landkreis"},"federalState":{"key":"08","name":"Baden-Württemberg"}},{"name":"Alter Blasiwalder Weg","postalCode":"79859","locality":"Schluchsee","municipality":{"key":"08315102","name":"Schluchsee","type":"Kreisangehörige_Gemeinde"},"district":{"key":"08315","name":"Breisgau-Hochschwarzwald","type":"Landkreis"},"federalState":{"key":"08","name":"Baden-Württemberg"}},{"name":"Alter Schönbachweg","postalCode":"79859","locality":"Schluchsee","municipality":{"key":"08315102","name":"Schluchsee","type":"Kreisangehörige_Gemeinde"},"district":{"key":"08315","name":"Breisgau-Hochschwarzwald","type":"Landkreis"},"federalState":{"key":"08","name":"Baden-Württemberg"}},{"name":"Alter Wüstengrabenweg","postalCode":"79859","locality":"Schluchsee","municipality":{"key":"08315102","name":"Schluchsee","type":"Kreisangehörige_Gemeinde"},"district":{"key":"08315","name":"Breisgau-Hochschwarzwald","type":"Landkreis"},"federalState":{"key":"08","name":"Baden-Württemberg"}},{"name":"Althütte","postalCode":"79859","locality":"Schluchsee","municipality":{"key":"08315102","name":"Schluchsee","type":"Kreisangehörige_Gemeinde"},"district":{"key":"08315","name":"Breisgau-Hochschwarzwald","type":"Landkreis"},"federalState":{"key":"08","name":"Baden-Württemberg"}},{"name":"Ambelenbachweg","postalCode":"79859","locality":"Schluchsee","municipality":{"key":"08315102","name":"Schluchsee","type":"Kreisangehörige_Gemeinde"},"district":{"key":"08315","name":"Breisgau-Hochschwarzwald","type":"Landkreis"},"federalState":{"key":"08","name":"Baden-Württemberg"}},{"name":"Am Buck","postalCode":"79859","locality":"Schluchsee","municipality":{"key":"08315102","name":"Schluchsee","type":"Kreisangehörige_Gemeinde"},"district":{"key":"08315","name":"Breisgau-Hochschwarzwald","type":"Landkreis"},"federalState":{"key":"08","name":"Baden-Württemberg"}},{"name":"Am Bühlhof","postalCode":"79859","locality":"Schluchsee","municipality":{"key":"08315102","name":"Schluchsee","type":"Kreisangehörige_Gemeinde"},"district":{"key":"08315","name":"Breisgau-Hochschwarzwald","type":"Landkreis"},"federalState":{"key":"08","name":"Baden-Württemberg"}},{"name":"Am Platzmättle","postalCode":"79859","locality":"Schluchsee","municipality":{"key":"08315102","name":"Schluchsee","type":"Kreisangehörige_Gemeinde"},"district":{"key":"08315","name":"Breisgau-Hochschwarzwald","type":"Landkreis"},"federalState":{"key":"08","name":"Baden-Württemberg"}},{"name":"Am Riesenbühl","postalCode":"79859","locality":"Schluchsee","municipality":{"key":"08315102","name":"Schluchsee","type":"Kreisangehörige_Gemeinde"},"district":{"key":"08315","name":"Breisgau-Hochschwarzwald","type":"Landkreis"},"federalState":{"key":"08","name":"Baden-Württemberg"}},{"name":"Am Scheffelbach","postalCode":"79859","locality":"Schluchsee","municipality":{"key":"08315102","name":"Schluchsee","type":"Kreisangehörige_Gemeinde"},"district":{"key":"08315","name":"Breisgau-Hochschwarzwald","type":"Landkreis"},"federalState":{"key":"08","name":"Baden-Württemberg"}},{"name":"Am Sommerberg","postalCode":"79859","locality":"Schluchsee","municipality":{"key":"08315102","name":"Schluchsee","type":"Kreisangehörige_Gemeinde"},"district":{"key":"08315","name":"Breisgau-Hochschwarzwald","type":"Landkreis"},"federalState":{"key":"08","name":"Baden-Württemberg"}},{"name":"Am Waldrain","postalCode":"79859","locality":"Schluchsee","municipality":{"key":"08315102","name":"Schluchsee","type":"Kreisangehörige_Gemeinde"},"district":{"key":"08315","name":"Breisgau-Hochschwarzwald","type":"Landkreis"},"federalState":{"key":"08","name":"Baden-Württemberg"}},{"name":"An der Staumauer","postalCode":"79859","locality":"Schluchsee","municipality":{"key":"08315102","name":"Schluchsee","type":"Kreisangehörige_Gemeinde"},"district":{"key":"08315","name":"Breisgau-Hochschwarzwald","type":"Landkreis"},"federalState":{"key":"08","name":"Baden-Württemberg"}},{"name":"Antoniusgutweg","postalCode":"79859","locality":"Schluchsee","municipality":{"key":"08315102","name":"Schluchsee","type":"Kreisangehörige_Gemeinde"},"district":{"key":"08315","name":"Breisgau-Hochschwarzwald","type":"Landkreis"},"federalState":{"key":"08","name":"Baden-Württemberg"}},{"name":"Auf der Wacht","postalCode":"79859","locality":"Schluchsee","municipality":{"key":"08315102","name":"Schluchsee","type":"Kreisangehörige_Gemeinde"},"district":{"key":"08315","name":"Breisgau-Hochschwarzwald","type":"Landkreis"},"federalState":{"key":"08","name":"Baden-Württemberg"}},{"name":"Bahnhofstr.","postalCode":"79859","locality":"Schluchsee","municipality":{"key":"08315102","name":"Schluchsee","type":"Kreisangehörige_Gemeinde"},"district":{"key":"08315","name":"Breisgau-Hochschwarzwald","type":"Landkreis"},"federalState":{"key":"08","name":"Baden-Württemberg"}},{"name":"Baschnagelhof","postalCode":"79859","locality":"Schluchsee","municipality":{"key":"08315102","name":"Schluchsee","type":"Kreisangehörige_Gemeinde"},"district":{"key":"08315","name":"Breisgau-Hochschwarzwald","type":"Landkreis"},"federalState":{"key":"08","name":"Baden-Württemberg"}},{"name":"Baumannweg","postalCode":"79859","locality":"Schluchsee","municipality":{"key":"08315102","name":"Schluchsee","type":"Kreisangehörige_Gemeinde"},"district":{"key":"08315","name":"Breisgau-Hochschwarzwald","type":"Landkreis"},"federalState":{"key":"08","name":"Baden-Württemberg"}},{"name":"Bengelweg","postalCode":"79859","locality":"Schluchsee","municipality":{"key":"08315102","name":"Schluchsee","type":"Kreisangehörige_Gemeinde"},"district":{"key":"08315","name":"Breisgau-Hochschwarzwald","type":"Landkreis"},"federalState":{"key":"08","name":"Baden-Württemberg"}},{"name":"Bergacker","postalCode":"79859","locality":"Schluchsee","municipality":{"key":"08315102","name":"Schluchsee","type":"Kreisangehörige_Gemeinde"},"district":{"key":"08315","name":"Breisgau-Hochschwarzwald","type":"Landkreis"},"federalState":{"key":"08","name":"Baden-Württemberg"}},{"name":"Berghalde","postalCode":"79859","locality":"Schluchsee","municipality":{"key":"08315102","name":"Schluchsee","type":"Kreisangehörige_Gemeinde"},"district":{"key":"08315","name":"Breisgau-Hochschwarzwald","type":"Landkreis"},"federalState":{"key":"08","name":"Baden-Württemberg"}},{"name":"Bildsteinweg","postalCode":"79859","locality":"Schluchsee","municipality":{"key":"08315102","name":"Schluchsee","type":"Kreisangehörige_Gemeinde"},"district":{"key":"08315","name":"Breisgau-Hochschwarzwald","type":"Landkreis"},"federalState":{"key":"08","name":"Baden-Württemberg"}},{"name":"Bildstöckleweg","postalCode":"79859","locality":"Schluchsee","municipality":{"key":"08315102","name":"Schluchsee","type":"Kreisangehörige_Gemeinde"},"district":{"key":"08315","name":"Breisgau-Hochschwarzwald","type":"Landkreis"},"federalState":{"key":"08","name":"Baden-Württemberg"}},{"name":"Birkenweg","postalCode":"79859","locality":"Schluchsee","municipality":{"key":"08315102","name":"Schluchsee","type":"Kreisangehörige_Gemeinde"},"district":{"key":"08315","name":"Breisgau-Hochschwarzwald","type":"Landkreis"},"federalState":{"key":"08","name":"Baden-Württemberg"}},{"name":"Bitzenbrunnenweg","postalCode":"79859","locality":"Schluchsee","municipality":{"key":"08315102","name":"Schluchsee","type":"Kreisangehörige_Gemeinde"},"district":{"key":"08315","name":"Breisgau-Hochschwarzwald","type":"Landkreis"},"federalState":{"key":"08","name":"Baden-Württemberg"}},{"name":"Bötzbergweg","postalCode":"79859","locality":"Schluchsee","municipality":{"key":"08315102","name":"Schluchsee","type":"Kreisangehörige_Gemeinde"},"district":{"key":"08315","name":"Breisgau-Hochschwarzwald","type":"Landkreis"},"federalState":{"key":"08","name":"Baden-Württemberg"}},{"name":"Brandtannenweg","postalCode":"79859","locality":"Schluchsee","municipality":{"key":"08315102","name":"Schluchsee","type":"Kreisangehörige_Gemeinde"},"district":{"key":"08315","name":"Breisgau-Hochschwarzwald","type":"Landkreis"},"federalState":{"key":"08","name":"Baden-Württemberg"}},{"name":"Brühlweg","postalCode":"79859","locality":"Schluchsee","municipality":{"key":"08315102","name":"Schluchsee","type":"Kreisangehörige_Gemeinde"},"district":{"key":"08315","name":"Breisgau-Hochschwarzwald","type":"Landkreis"},"federalState":{"key":"08","name":"Baden-Württemberg"}},{"name":"Büblehofweg","postalCode":"79859","locality":"Schluchsee","municipality":{"key":"08315102","name":"Schluchsee","type":"Kreisangehörige_Gemeinde"},"district":{"key":"08315","name":"Breisgau-Hochschwarzwald","type":"Landkreis"},"federalState":{"key":"08","name":"Baden-Württemberg"}},{"name":"Carl-Carstens-Weg","postalCode":"79859","locality":"Schluchsee","municipality":{"key":"08315102","name":"Schluchsee","type":"Kreisangehörige_Gemeinde"},"district":{"key":"08315","name":"Breisgau-Hochschwarzwald","type":"Landkreis"},"federalState":{"key":"08","name":"Baden-Württemberg"}},{"name":"Dachslochweg","postalCode":"79859","locality":"Schluchsee","municipality":{"key":"08315102","name":"Schluchsee","type":"Kreisangehörige_Gemeinde"},"district":{"key":"08315","name":"Breisgau-Hochschwarzwald","type":"Landkreis"},"federalState":{"key":"08","name":"Baden-Württemberg"}},{"name":"Daunermoosweg","postalCode":"79859","locality":"Schluchsee","municipality":{"key":"08315102","name":"Schluchsee","type":"Kreisangehörige_Gemeinde"},"district":{"key":"08315","name":"Breisgau-Hochschwarzwald","type":"Landkreis"},"federalState":{"key":"08","name":"Baden-Württemberg"}},{"name":"Dorfstr.","postalCode":"79859","locality":"Schluchsee","municipality":{"key":"08315102","name":"Schluchsee","type":"Kreisangehörige_Gemeinde"},"district":{"key":"08315","name":"Breisgau-Hochschwarzwald","type":"Landkreis"},"federalState":{"key":"08","name":"Baden-Württemberg"}},{"name":"Dörlebühlweg","postalCode":"79859","locality":"Schluchsee","municipality":{"key":"08315102","name":"Schluchsee","type":"Kreisangehörige_Gemeinde"},"district":{"key":"08315","name":"Breisgau-Hochschwarzwald","type":"Landkreis"},"federalState":{"key":"08","name":"Baden-Württemberg"}},{"name":"Draiberg","postalCode":"79859","locality":"Schluchsee","municipality":{"key":"08315102","name":"Schluchsee","type":"Kreisangehörige_Gemeinde"},"district":{"key":"08315","name":"Breisgau-Hochschwarzwald","type":"Landkreis"},"federalState":{"key":"08","name":"Baden-Württemberg"}},{"name":"Draibergweg","postalCode":"79859","locality":"Schluchsee","municipality":{"key":"08315102","name":"Schluchsee","type":"Kreisangehörige_Gemeinde"},"district":{"key":"08315","name":"Breisgau-Hochschwarzwald","type":"Landkreis"},"federalState":{"key":"08","name":"Baden-Württemberg"}},{"name":"Dreimärklerweg","postalCode":"79859","locality":"Schluchsee","municipality":{"key":"08315102","name":"Schluchsee","type":"Kreisangehörige_Gemeinde"},"district":{"key":"08315","name":"Breisgau-Hochschwarzwald","type":"Landkreis"},"federalState":{"key":"08","name":"Baden-Württemberg"}},{"name":"Dresselbach","postalCode":"79859","locality":"Schluchsee","municipality":{"key":"08315102","name":"Schluchsee","type":"Kreisangehörige_Gemeinde"},"district":{"key":"08315","name":"Breisgau-Hochschwarzwald","type":"Landkreis"},"federalState":{"key":"08","name":"Baden-Württemberg"}},{"name":"Dresselbacher Str.","postalCode":"79859","locality":"Schluchsee","municipality":{"key":"08315102","name":"Schluchsee","type":"Kreisangehörige_Gemeinde"},"district":{"key":"08315","name":"Breisgau-Hochschwarzwald","type":"Landkreis"},"federalState":{"key":"08","name":"Baden-Württemberg"}},{"name":"Dresselbacher Weg","postalCode":"79859","locality":"Schluchsee","municipality":{"key":"08315102","name":"Schluchsee","type":"Kreisangehörige_Gemeinde"},"district":{"key":"08315","name":"Breisgau-Hochschwarzwald","type":"Landkreis"},"federalState":{"key":"08","name":"Baden-Württemberg"}},{"name":"Eisenbreche","postalCode":"79859","locality":"Schluchsee","municipality":{"key":"08315102","name":"Schluchsee","type":"Kreisangehörige_Gemeinde"},"district":{"key":"08315","name":"Breisgau-Hochschwarzwald","type":"Landkreis"},"federalState":{"key":"08","name":"Baden-Württemberg"}},{"name":"Erbprinzenweg","postalCode":"79859","locality":"Schluchsee","municipality":{"key":"08315102","name":"Schluchsee","type":"Kreisangehörige_Gemeinde"},"district":{"key":"08315","name":"Breisgau-Hochschwarzwald","type":"Landkreis"},"federalState":{"key":"08","name":"Baden-Württemberg"}},{"name":"Erlenweg","postalCode":"79859","locality":"Schluchsee","municipality":{"key":"08315102","name":"Schluchsee","type":"Kreisangehörige_Gemeinde"},"district":{"key":"08315","name":"Breisgau-Hochschwarzwald","type":"Landkreis"},"federalState":{"key":"08","name":"Baden-Württemberg"}},{"name":"Eschenmoosweg","postalCode":"79859","locality":"Schluchsee","municipality":{"key":"08315102","name":"Schluchsee","type":"Kreisangehörige_Gemeinde"},"district":{"key":"08315","name":"Breisgau-Hochschwarzwald","type":"Landkreis"},"federalState":{"key":"08","name":"Baden-Württemberg"}},{"name":"Eschenweg","postalCode":"79859","locality":"Schluchsee","municipality":{"key":"08315102","name":"Schluchsee","type":"Kreisangehörige_Gemeinde"},"district":{"key":"08315","name":"Breisgau-Hochschwarzwald","type":"Landkreis"},"federalState":{"key":"08","name":"Baden-Württemberg"}},{"name":"Faulenfürster Str.","postalCode":"79859","locality":"Schluchsee","municipality":{"key":"08315102","name":"Schluchsee","type":"Kreisangehörige_Gemeinde"},"district":{"key":"08315","name":"Breisgau-Hochschwarzwald","type":"Landkreis"},"federalState":{"key":"08","name":"Baden-Württemberg"}},{"name":"Fichtenweg","postalCode":"79859","locality":"Schluchsee","municipality":{"key":"08315102","name":"Schluchsee","type":"Kreisangehörige_Gemeinde"},"district":{"key":"08315","name":"Breisgau-Hochschwarzwald","type":"Landkreis"},"federalState":{"key":"08","name":"Baden-Württemberg"}},{"name":"Finkenwiese","postalCode":"79859","locality":"Schluchsee","municipality":{"key":"08315102","name":"Schluchsee","type":"Kreisangehörige_Gemeinde"},"district":{"key":"08315","name":"Breisgau-Hochschwarzwald","type":"Landkreis"},"federalState":{"key":"08","name":"Baden-Württemberg"}},{"name":"Fischbacher Str.","postalCode":"79859","locality":"Schluchsee","municipality":{"key":"08315102","name":"Schluchsee","type":"Kreisangehörige_Gemeinde"},"district":{"key":"08315","name":"Breisgau-Hochschwarzwald","type":"Landkreis"},"federalState":{"key":"08","name":"Baden-Württemberg"}},{"name":"Forlenweg","postalCode":"79859","locality":"Schluchsee","municipality":{"key":"08315102","name":"Schluchsee","type":"Kreisangehörige_Gemeinde"},"district":{"key":"08315","name":"Breisgau-Hochschwarzwald","type":"Landkreis"},"federalState":{"key":"08","name":"Baden-Württemberg"}},{"name":"Freiburger Str.","postalCode":"79859","locality":"Schluchsee","municipality":{"key":"08315102","name":"Schluchsee","type":"Kreisangehörige_Gemeinde"},"district":{"key":"08315","name":"Breisgau-Hochschwarzwald","type":"Landkreis"},"federalState":{"key":"08","name":"Baden-Württemberg"}},{"name":"Gamsweg","postalCode":"79859","locality":"Schluchsee","municipality":{"key":"08315102","name":"Schluchsee","type":"Kreisangehörige_Gemeinde"},"district":{"key":"08315","name":"Breisgau-Hochschwarzwald","type":"Landkreis"},"federalState":{"key":"08","name":"Baden-Württemberg"}},{"name":"Gfällhaldenweg","postalCode":"79859","locality":"Schluchsee","municipality":{"key":"08315102","name":"Schluchsee","type":"Kreisangehörige_Gemeinde"},"district":{"key":"08315","name":"Breisgau-Hochschwarzwald","type":"Landkreis"},"federalState":{"key":"08","name":"Baden-Württemberg"}},{"name":"Giersbühlstr.","postalCode":"79859","locality":"Schluchsee","municipality":{"key":"08315102","name":"Schluchsee","type":"Kreisangehörige_Gemeinde"},"district":{"key":"08315","name":"Breisgau-Hochschwarzwald","type":"Landkreis"},"federalState":{"key":"08","name":"Baden-Württemberg"}},{"name":"Glasweg","postalCode":"79859","locality":"Schluchsee","municipality":{"key":"08315102","name":"Schluchsee","type":"Kreisangehörige_Gemeinde"},"district":{"key":"08315","name":"Breisgau-Hochschwarzwald","type":"Landkreis"},"federalState":{"key":"08","name":"Baden-Württemberg"}},{"name":"Grenzweg","postalCode":"79859","locality":"Schluchsee","municipality":{"key":"08315102","name":"Schluchsee","type":"Kreisangehörige_Gemeinde"},"district":{"key":"08315","name":"Breisgau-Hochschwarzwald","type":"Landkreis"},"federalState":{"key":"08","name":"Baden-Württemberg"}},{"name":"Habsbergweg","postalCode":"79859","locality":"Schluchsee","municipality":{"key":"08315102","name":"Schluchsee","type":"Kreisangehörige_Gemeinde"},"district":{"key":"08315","name":"Breisgau-Hochschwarzwald","type":"Landkreis"},"federalState":{"key":"08","name":"Baden-Württemberg"}},{"name":"Haldernerkopfweg","postalCode":"79859","locality":"Schluchsee","municipality":{"key":"08315102","name":"Schluchsee","type":"Kreisangehörige_Gemeinde"},"district":{"key":"08315","name":"Breisgau-Hochschwarzwald","type":"Landkreis"},"federalState":{"key":"08","name":"Baden-Württemberg"}},{"name":"Harztannenweg","postalCode":"79859","locality":"Schluchsee","municipality":{"key":"08315102","name":"Schluchsee","type":"Kreisangehörige_Gemeinde"},"district":{"key":"08315","name":"Breisgau-Hochschwarzwald","type":"Landkreis"},"federalState":{"key":"08","name":"Baden-Württemberg"}},{"name":"Hinterbauernhofweg","postalCode":"79859","locality":"Schluchsee","municipality":{"key":"08315102","name":"Schluchsee","type":"Kreisangehörige_Gemeinde"},"district":{"key":"08315","name":"Breisgau-Hochschwarzwald","type":"Landkreis"},"federalState":{"key":"08","name":"Baden-Württemberg"}},{"name":"Hinterer Giersbühlweg","postalCode":"79859","locality":"Schluchsee","municipality":{"key":"08315102","name":"Schluchsee","type":"Kreisangehörige_Gemeinde"},"district":{"key":"08315","name":"Breisgau-Hochschwarzwald","type":"Landkreis"},"federalState":{"key":"08","name":"Baden-Württemberg"}},{"name":"Hinterhäuser","postalCode":"79859","locality":"Schluchsee","municipality":{"key":"08315102","name":"Schluchsee","type":"Kreisangehörige_Gemeinde"},"district":{"key":"08315","name":"Breisgau-Hochschwarzwald","type":"Landkreis"},"federalState":{"key":"08","name":"Baden-Württemberg"}},{"name":"Hochstaufenweg","postalCode":"79859","locality":"Schluchsee","municipality":{"key":"08315102","name":"Schluchsee","type":"Kreisangehörige_Gemeinde"},"district":{"key":"08315","name":"Breisgau-Hochschwarzwald","type":"Landkreis"},"federalState":{"key":"08","name":"Baden-Württemberg"}},{"name":"Höhenweg","postalCode":"79859","locality":"Schluchsee","municipality":{"key":"08315102","name":"Schluchsee","type":"Kreisangehörige_Gemeinde"},"district":{"key":"08315","name":"Breisgau-Hochschwarzwald","type":"Landkreis"},"federalState":{"key":"08","name":"Baden-Württemberg"}},{"name":"Hohlensteinweg","postalCode":"79859","locality":"Schluchsee","municipality":{"key":"08315102","name":"Schluchsee","type":"Kreisangehörige_Gemeinde"},"district":{"key":"08315","name":"Breisgau-Hochschwarzwald","type":"Landkreis"},"federalState":{"key":"08","name":"Baden-Württemberg"}},{"name":"Hotzenweg","postalCode":"79859","locality":"Schluchsee","municipality":{"key":"08315102","name":"Schluchsee","type":"Kreisangehörige_Gemeinde"},"district":{"key":"08315","name":"Breisgau-Hochschwarzwald","type":"Landkreis"},"federalState":{"key":"08","name":"Baden-Württemberg"}},{"name":"Hubertusweg","postalCode":"79859","locality":"Schluchsee","municipality":{"key":"08315102","name":"Schluchsee","type":"Kreisangehörige_Gemeinde"},"district":{"key":"08315","name":"Breisgau-Hochschwarzwald","type":"Landkreis"},"federalState":{"key":"08","name":"Baden-Württemberg"}},{"name":"Hürneweg","postalCode":"79859","locality":"Schluchsee","municipality":{"key":"08315102","name":"Schluchsee","type":"Kreisangehörige_Gemeinde"},"district":{"key":"08315","name":"Breisgau-Hochschwarzwald","type":"Landkreis"},"federalState":{"key":"08","name":"Baden-Württemberg"}},{"name":"Im Gäßle","postalCode":"79859","locality":"Schluchsee","municipality":{"key":"08315102","name":"Schluchsee","type":"Kreisangehörige_Gemeinde"},"district":{"key":"08315","name":"Breisgau-Hochschwarzwald","type":"Landkreis"},"federalState":{"key":"08","name":"Baden-Württemberg"}},{"name":"Im Kaisergrund","postalCode":"79859","locality":"Schluchsee","municipality":{"key":"08315102","name":"Schluchsee","type":"Kreisangehörige_Gemeinde"},"district":{"key":"08315","name":"Breisgau-Hochschwarzwald","type":"Landkreis"},"federalState":{"key":"08","name":"Baden-Württemberg"}},{"name":"Im Rappennest","postalCode":"79859","locality":"Schluchsee","municipality":{"key":"08315102","name":"Schluchsee","type":"Kreisangehörige_Gemeinde"},"district":{"key":"08315","name":"Breisgau-Hochschwarzwald","type":"Landkreis"},"federalState":{"key":"08","name":"Baden-Württemberg"}},{"name":"Im Trempich","postalCode":"79859","locality":"Schluchsee","municipality":{"key":"08315102","name":"Schluchsee","type":"Kreisangehörige_Gemeinde"},"district":{"key":"08315","name":"Breisgau-Hochschwarzwald","type":"Landkreis"},"federalState":{"key":"08","name":"Baden-Württemberg"}},{"name":"Im Unterdorf","postalCode":"79859","locality":"Schluchsee","municipality":{"key":"08315102","name":"Schluchsee","type":"Kreisangehörige_Gemeinde"},"district":{"key":"08315","name":"Breisgau-Hochschwarzwald","type":"Landkreis"},"federalState":{"key":"08","name":"Baden-Württemberg"}},{"name":"Im Wiesengrund","postalCode":"79859","locality":"Schluchsee","municipality":{"key":"08315102","name":"Schluchsee","type":"Kreisangehörige_Gemeinde"},"district":{"key":"08315","name":"Breisgau-Hochschwarzwald","type":"Landkreis"},"federalState":{"key":"08","name":"Baden-Württemberg"}},{"name":"Im Wolfsgrund","postalCode":"79859","locality":"Schluchsee","municipality":{"key":"08315102","name":"Schluchsee","type":"Kreisangehörige_Gemeinde"},"district":{"key":"08315","name":"Breisgau-Hochschwarzwald","type":"Landkreis"},"federalState":{"key":"08","name":"Baden-Württemberg"}},{"name":"In der Hausmatt","postalCode":"79859","locality":"Schluchsee","municipality":{"key":"08315102","name":"Schluchsee","type":"Kreisangehörige_Gemeinde"},"district":{"key":"08315","name":"Breisgau-Hochschwarzwald","type":"Landkreis"},"federalState":{"key":"08","name":"Baden-Württemberg"}},{"name":"Jägergutweg","postalCode":"79859","locality":"Schluchsee","municipality":{"key":"08315102","name":"Schluchsee","type":"Kreisangehörige_Gemeinde"},"district":{"key":"08315","name":"Breisgau-Hochschwarzwald","type":"Landkreis"},"federalState":{"key":"08","name":"Baden-Württemberg"}},{"name":"Jägersteig","postalCode":"79859","locality":"Schluchsee","municipality":{"key":"08315102","name":"Schluchsee","type":"Kreisangehörige_Gemeinde"},"district":{"key":"08315","name":"Breisgau-Hochschwarzwald","type":"Landkreis"},"federalState":{"key":"08","name":"Baden-Württemberg"}},{"name":"Kaisertannenweg","postalCode":"79859","locality":"Schluchsee","municipality":{"key":"08315102","name":"Schluchsee","type":"Kreisangehörige_Gemeinde"},"district":{"key":"08315","name":"Breisgau-Hochschwarzwald","type":"Landkreis"},"federalState":{"key":"08","name":"Baden-Württemberg"}},{"name":"Kanalweg","postalCode":"79859","locality":"Schluchsee","municipality":{"key":"08315102","name":"Schluchsee","type":"Kreisangehörige_Gemeinde"},"district":{"key":"08315","name":"Breisgau-Hochschwarzwald","type":"Landkreis"},"federalState":{"key":"08","name":"Baden-Württemberg"}},{"name":"Kapellenkopfweg","postalCode":"79859","locality":"Schluchsee","municipality":{"key":"08315102","name":"Schluchsee","type":"Kreisangehörige_Gemeinde"},"district":{"key":"08315","name":"Breisgau-Hochschwarzwald","type":"Landkreis"},"federalState":{"key":"08","name":"Baden-Württemberg"}},{"name":"Kapellenweg","postalCode":"79859","locality":"Schluchsee","municipality":{"key":"08315102","name":"Schluchsee","type":"Kreisangehörige_Gemeinde"},"district":{"key":"08315","name":"Breisgau-Hochschwarzwald","type":"Landkreis"},"federalState":{"key":"08","name":"Baden-Württemberg"}},{"name":"Karlisgutweg","postalCode":"79859","locality":"Schluchsee","municipality":{"key":"08315102","name":"Schluchsee","type":"Kreisangehörige_Gemeinde"},"district":{"key":"08315","name":"Breisgau-Hochschwarzwald","type":"Landkreis"},"federalState":{"key":"08","name":"Baden-Württemberg"}},{"name":"Keches Gut","postalCode":"79859","locality":"Schluchsee","municipality":{"key":"08315102","name":"Schluchsee","type":"Kreisangehörige_Gemeinde"},"district":{"key":"08315","name":"Breisgau-Hochschwarzwald","type":"Landkreis"},"federalState":{"key":"08","name":"Baden-Württemberg"}},{"name":"Kirchplatz","postalCode":"79859","locality":"Schluchsee","municipality":{"key":"08315102","name":"Schluchsee","type":"Kreisangehörige_Gemeinde"},"district":{"key":"08315","name":"Breisgau-Hochschwarzwald","type":"Landkreis"},"federalState":{"key":"08","name":"Baden-Württemberg"}},{"name":"Kirchsteige","postalCode":"79859","locality":"Schluchsee","municipality":{"key":"08315102","name":"Schluchsee","type":"Kreisangehörige_Gemeinde"},"district":{"key":"08315","name":"Breisgau-Hochschwarzwald","type":"Landkreis"},"federalState":{"key":"08","name":"Baden-Württemberg"}},{"name":"Kirchweg Aha","postalCode":"79859","locality":"Schluchsee","municipality":{"key":"08315102","name":"Schluchsee","type":"Kreisangehörige_Gemeinde"},"district":{"key":"08315","name":"Breisgau-Hochschwarzwald","type":"Landkreis"},"federalState":{"key":"08","name":"Baden-Württemberg"}},{"name":"Kirschbaumstr.","postalCode":"79859","locality":"Schluchsee","municipality":{"key":"08315102","name":"Schluchsee","type":"Kreisangehörige_Gemeinde"},"district":{"key":"08315","name":"Breisgau-Hochschwarzwald","type":"Landkreis"},"federalState":{"key":"08","name":"Baden-Württemberg"}},{"name":"Kirschbaumweg","postalCode":"79859","locality":"Schluchsee","municipality":{"key":"08315102","name":"Schluchsee","type":"Kreisangehörige_Gemeinde"},"district":{"key":"08315","name":"Breisgau-Hochschwarzwald","type":"Landkreis"},"federalState":{"key":"08","name":"Baden-Württemberg"}},{"name":"Kohlgrubenweg","postalCode":"79859","locality":"Schluchsee","municipality":{"key":"08315102","name":"Schluchsee","type":"Kreisangehörige_Gemeinde"},"district":{"key":"08315","name":"Breisgau-Hochschwarzwald","type":"Landkreis"},"federalState":{"key":"08","name":"Baden-Württemberg"}},{"name":"Kohlweg","postalCode":"79859","locality":"Schluchsee","municipality":{"key":"08315102","name":"Schluchsee","type":"Kreisangehörige_Gemeinde"},"district":{"key":"08315","name":"Breisgau-Hochschwarzwald","type":"Landkreis"},"federalState":{"key":"08","name":"Baden-Württemberg"}},{"name":"Kreuzwaldweg","postalCode":"79859","locality":"Schluchsee","municipality":{"key":"08315102","name":"Schluchsee","type":"Kreisangehörige_Gemeinde"},"district":{"key":"08315","name":"Breisgau-Hochschwarzwald","type":"Landkreis"},"federalState":{"key":"08","name":"Baden-Württemberg"}},{"name":"Lachenrütteweg","postalCode":"79859","locality":"Schluchsee","municipality":{"key":"08315102","name":"Schluchsee","type":"Kreisangehörige_Gemeinde"},"district":{"key":"08315","name":"Breisgau-Hochschwarzwald","type":"Landkreis"},"federalState":{"key":"08","name":"Baden-Württemberg"}},{"name":"Lachenweg","postalCode":"79859","locality":"Schluchsee","municipality":{"key":"08315102","name":"Schluchsee","type":"Kreisangehörige_Gemeinde"},"district":{"key":"08315","name":"Breisgau-Hochschwarzwald","type":"Landkreis"},"federalState":{"key":"08","name":"Baden-Württemberg"}},{"name":"Ladestr.","postalCode":"79859","locality":"Schluchsee","municipality":{"key":"08315102","name":"Schluchsee","type":"Kreisangehörige_Gemeinde"},"district":{"key":"08315","name":"Breisgau-Hochschwarzwald","type":"Landkreis"},"federalState":{"key":"08","name":"Baden-Württemberg"}},{"name":"Langfurchenweg","postalCode":"79859","locality":"Schluchsee","municipality":{"key":"08315102","name":"Schluchsee","type":"Kreisangehörige_Gemeinde"},"district":{"key":"08315","name":"Breisgau-Hochschwarzwald","type":"Landkreis"},"federalState":{"key":"08","name":"Baden-Württemberg"}},{"name":"Langmösle","postalCode":"79859","locality":"Schluchsee","municipality":{"key":"08315102","name":"Schluchsee","type":"Kreisangehörige_Gemeinde"},"district":{"key":"08315","name":"Breisgau-Hochschwarzwald","type":"Landkreis"},"federalState":{"key":"08","name":"Baden-Württemberg"}},{"name":"Lärchenweg","postalCode":"79859","locality":"Schluchsee","municipality":{"key":"08315102","name":"Schluchsee","type":"Kreisangehörige_Gemeinde"},"district":{"key":"08315","name":"Breisgau-Hochschwarzwald","type":"Landkreis"},"federalState":{"key":"08","name":"Baden-Württemberg"}},{"name":"Lindenhofweg","postalCode":"79859","locality":"Schluchsee","municipality":{"key":"08315102","name":"Schluchsee","type":"Kreisangehörige_Gemeinde"},"district":{"key":"08315","name":"Breisgau-Hochschwarzwald","type":"Landkreis"},"federalState":{"key":"08","name":"Baden-Württemberg"}},{"name":"Lindenstr.","postalCode":"79859","locality":"Schluchsee","municipality":{"key":"08315102","name":"Schluchsee","type":"Kreisangehörige_Gemeinde"},"district":{"key":"08315","name":"Breisgau-Hochschwarzwald","type":"Landkreis"},"federalState":{"key":"08","name":"Baden-Württemberg"}},{"name":"Lochberg","postalCode":"79859","locality":"Schluchsee","municipality":{"key":"08315102","name":"Schluchsee","type":"Kreisangehörige_Gemeinde"},"district":{"key":"08315","name":"Breisgau-Hochschwarzwald","type":"Landkreis"},"federalState":{"key":"08","name":"Baden-Württemberg"}},{"name":"Lochwaldweg","postalCode":"79859","locality":"Schluchsee","municipality":{"key":"08315102","name":"Schluchsee","type":"Kreisangehörige_Gemeinde"},"district":{"key":"08315","name":"Breisgau-Hochschwarzwald","type":"Landkreis"},"federalState":{"key":"08","name":"Baden-Württemberg"}},{"name":"Mannhirzleweg","postalCode":"79859","locality":"Schluchsee","municipality":{"key":"08315102","name":"Schluchsee","type":"Kreisangehörige_Gemeinde"},"district":{"key":"08315","name":"Breisgau-Hochschwarzwald","type":"Landkreis"},"federalState":{"key":"08","name":"Baden-Württemberg"}},{"name":"Mattenweg","postalCode":"79859","locality":"Schluchsee","municipality":{"key":"08315102","name":"Schluchsee","type":"Kreisangehörige_Gemeinde"},"district":{"key":"08315","name":"Breisgau-Hochschwarzwald","type":"Landkreis"},"federalState":{"key":"08","name":"Baden-Württemberg"}},{"name":"Menzenschwander Str.","postalCode":"79859","locality":"Schluchsee","municipality":{"key":"08315102","name":"Schluchsee","type":"Kreisangehörige_Gemeinde"},"district":{"key":"08315","name":"Breisgau-Hochschwarzwald","type":"Landkreis"},"federalState":{"key":"08","name":"Baden-Württemberg"}},{"name":"Moosmühle","postalCode":"79859","locality":"Schluchsee","municipality":{"key":"08315102","name":"Schluchsee","type":"Kreisangehörige_Gemeinde"},"district":{"key":"08315","name":"Breisgau-Hochschwarzwald","type":"Landkreis"},"federalState":{"key":"08","name":"Baden-Württemberg"}},{"name":"Muchenländer Brücke","postalCode":"79859","locality":"Schluchsee","municipality":{"key":"08315102","name":"Schluchsee","type":"Kreisangehörige_Gemeinde"},"district":{"key":"08315","name":"Breisgau-Hochschwarzwald","type":"Landkreis"},"federalState":{"key":"08","name":"Baden-Württemberg"}},{"name":"Muchenländer Weg","postalCode":"79859","locality":"Schluchsee","municipality":{"key":"08315102","name":"Schluchsee","type":"Kreisangehörige_Gemeinde"},"district":{"key":"08315","name":"Breisgau-Hochschwarzwald","type":"Landkreis"},"federalState":{"key":"08","name":"Baden-Württemberg"}},{"name":"Mühlenweg","postalCode":"79859","locality":"Schluchsee","municipality":{"key":"08315102","name":"Schluchsee","type":"Kreisangehörige_Gemeinde"},"district":{"key":"08315","name":"Breisgau-Hochschwarzwald","type":"Landkreis"},"federalState":{"key":"08","name":"Baden-Württemberg"}},{"name":"Muldenweg","postalCode":"79859","locality":"Schluchsee","municipality":{"key":"08315102","name":"Schluchsee","type":"Kreisangehörige_Gemeinde"},"district":{"key":"08315","name":"Breisgau-Hochschwarzwald","type":"Landkreis"},"federalState":{"key":"08","name":"Baden-Württemberg"}},{"name":"Muttergutweg","postalCode":"79859","locality":"Schluchsee","municipality":{"key":"08315102","name":"Schluchsee","type":"Kreisangehörige_Gemeinde"},"district":{"key":"08315","name":"Breisgau-Hochschwarzwald","type":"Landkreis"},"federalState":{"key":"08","name":"Baden-Württemberg"}},{"name":"Naßschieber","postalCode":"79859","locality":"Schluchsee","municipality":{"key":"08315102","name":"Schluchsee","type":"Kreisangehörige_Gemeinde"},"district":{"key":"08315","name":"Breisgau-Hochschwarzwald","type":"Landkreis"},"federalState":{"key":"08","name":"Baden-Württemberg"}},{"name":"Naturpark","postalCode":"79859","locality":"Schluchsee","municipality":{"key":"08315102","name":"Schluchsee","type":"Kreisangehörige_Gemeinde"},"district":{"key":"08315","name":"Breisgau-Hochschwarzwald","type":"Landkreis"},"federalState":{"key":"08","name":"Baden-Württemberg"}},{"name":"Neuäcker","postalCode":"79859","locality":"Schluchsee","municipality":{"key":"08315102","name":"Schluchsee","type":"Kreisangehörige_Gemeinde"},"district":{"key":"08315","name":"Breisgau-Hochschwarzwald","type":"Landkreis"},"federalState":{"key":"08","name":"Baden-Württemberg"}},{"name":"Oberer Bildsteinweg","postalCode":"79859","locality":"Schluchsee","municipality":{"key":"08315102","name":"Schluchsee","type":"Kreisangehörige_Gemeinde"},"district":{"key":"08315","name":"Breisgau-Hochschwarzwald","type":"Landkreis"},"federalState":{"key":"08","name":"Baden-Württemberg"}},{"name":"Obere Ringstr.","postalCode":"79859","locality":"Schluchsee","municipality":{"key":"08315102","name":"Schluchsee","type":"Kreisangehörige_Gemeinde"},"district":{"key":"08315","name":"Breisgau-Hochschwarzwald","type":"Landkreis"},"federalState":{"key":"08","name":"Baden-Württemberg"}},{"name":"Oberer Schmalzbergweg","postalCode":"79859","locality":"Schluchsee","municipality":{"key":"08315102","name":"Schluchsee","type":"Kreisangehörige_Gemeinde"},"district":{"key":"08315","name":"Breisgau-Hochschwarzwald","type":"Landkreis"},"federalState":{"key":"08","name":"Baden-Württemberg"}},{"name":"Oberer Schwarzhaldeweg","postalCode":"79859","locality":"Schluchsee","municipality":{"key":"08315102","name":"Schluchsee","type":"Kreisangehörige_Gemeinde"},"district":{"key":"08315","name":"Breisgau-Hochschwarzwald","type":"Landkreis"},"federalState":{"key":"08","name":"Baden-Württemberg"}},{"name":"Oberer Stutzweg","postalCode":"79859","locality":"Schluchsee","municipality":{"key":"08315102","name":"Schluchsee","type":"Kreisangehörige_Gemeinde"},"district":{"key":"08315","name":"Breisgau-Hochschwarzwald","type":"Landkreis"},"federalState":{"key":"08","name":"Baden-Württemberg"}},{"name":"Oberer Stutzweg (Sackweg)","postalCode":"79859","locality":"Schluchsee","municipality":{"key":"08315102","name":"Schluchsee","type":"Kreisangehörige_Gemeinde"},"district":{"key":"08315","name":"Breisgau-Hochschwarzwald","type":"Landkreis"},"federalState":{"key":"08","name":"Baden-Württemberg"}},{"name":"Oberer Wasserlochweg","postalCode":"79859","locality":"Schluchsee","municipality":{"key":"08315102","name":"Schluchsee","type":"Kreisangehörige_Gemeinde"},"district":{"key":"08315","name":"Breisgau-Hochschwarzwald","type":"Landkreis"},"federalState":{"key":"08","name":"Baden-Württemberg"}},{"name":"Oberkrummenweg","postalCode":"79859","locality":"Schluchsee","municipality":{"key":"08315102","name":"Schluchsee","type":"Kreisangehörige_Gemeinde"},"district":{"key":"08315","name":"Breisgau-Hochschwarzwald","type":"Landkreis"},"federalState":{"key":"08","name":"Baden-Württemberg"}},{"name":"Pfaffenbrünnleweg","postalCode":"79859","locality":"Schluchsee","municipality":{"key":"08315102","name":"Schluchsee","type":"Kreisangehörige_Gemeinde"},"district":{"key":"08315","name":"Breisgau-Hochschwarzwald","type":"Landkreis"},"federalState":{"key":"08","name":"Baden-Württemberg"}},{"name":"Philosophenweg","postalCode":"79859","locality":"Schluchsee","municipality":{"key":"08315102","name":"Schluchsee","type":"Kreisangehörige_Gemeinde"},"district":{"key":"08315","name":"Breisgau-Hochschwarzwald","type":"Landkreis"},"federalState":{"key":"08","name":"Baden-Württemberg"}},{"name":"Querweg","postalCode":"79859","locality":"Schluchsee","municipality":{"key":"08315102","name":"Schluchsee","type":"Kreisangehörige_Gemeinde"},"district":{"key":"08315","name":"Breisgau-Hochschwarzwald","type":"Landkreis"},"federalState":{"key":"08","name":"Baden-Württemberg"}},{"name":"Rauhaldenweg","postalCode":"79859","locality":"Schluchsee","municipality":{"key":"08315102","name":"Schluchsee","type":"Kreisangehörige_Gemeinde"},"district":{"key":"08315","name":"Breisgau-Hochschwarzwald","type":"Landkreis"},"federalState":{"key":"08","name":"Baden-Württemberg"}},{"name":"Reistenhofweg","postalCode":"79859","locality":"Schluchsee","municipality":{"key":"08315102","name":"Schluchsee","type":"Kreisangehörige_Gemeinde"},"district":{"key":"08315","name":"Breisgau-Hochschwarzwald","type":"Landkreis"},"federalState":{"key":"08","name":"Baden-Württemberg"}},{"name":"Riesenbühlrundweg","postalCode":"79859","locality":"Schluchsee","municipality":{"key":"08315102","name":"Schluchsee","type":"Kreisangehörige_Gemeinde"},"district":{"key":"08315","name":"Breisgau-Hochschwarzwald","type":"Landkreis"},"federalState":{"key":"08","name":"Baden-Württemberg"}},{"name":"Rosshüttenweg","postalCode":"79859","locality":"Schluchsee","municipality":{"key":"08315102","name":"Schluchsee","type":"Kreisangehörige_Gemeinde"},"district":{"key":"08315","name":"Breisgau-Hochschwarzwald","type":"Landkreis"},"federalState":{"key":"08","name":"Baden-Württemberg"}},{"name":"Rosswasenweg","postalCode":"79859","locality":"Schluchsee","municipality":{"key":"08315102","name":"Schluchsee","type":"Kreisangehörige_Gemeinde"},"district":{"key":"08315","name":"Breisgau-Hochschwarzwald","type":"Landkreis"},"federalState":{"key":"08","name":"Baden-Württemberg"}},{"name":"Rothauser Str.","postalCode":"79859","locality":"Schluchsee","municipality":{"key":"08315102","name":"Schluchsee","type":"Kreisangehörige_Gemeinde"},"district":{"key":"08315","name":"Breisgau-Hochschwarzwald","type":"Landkreis"},"federalState":{"key":"08","name":"Baden-Württemberg"}},{"name":"Rümmelehofweg","postalCode":"79859","locality":"Schluchsee","municipality":{"key":"08315102","name":"Schluchsee","type":"Kreisangehörige_Gemeinde"},"district":{"key":"08315","name":"Breisgau-Hochschwarzwald","type":"Landkreis"},"federalState":{"key":"08","name":"Baden-Württemberg"}},{"name":"Saatschulweg","postalCode":"79859","locality":"Schluchsee","municipality":{"key":"08315102","name":"Schluchsee","type":"Kreisangehörige_Gemeinde"},"district":{"key":"08315","name":"Breisgau-Hochschwarzwald","type":"Landkreis"},"federalState":{"key":"08","name":"Baden-Württemberg"}},{"name":"Sackweg","postalCode":"79859","locality":"Schluchsee","municipality":{"key":"08315102","name":"Schluchsee","type":"Kreisangehörige_Gemeinde"},"district":{"key":"08315","name":"Breisgau-Hochschwarzwald","type":"Landkreis"},"federalState":{"key":"08","name":"Baden-Württemberg"}},{"name":"Sägackerweg","postalCode":"79859","locality":"Schluchsee","municipality":{"key":"08315102","name":"Schluchsee","type":"Kreisangehörige_Gemeinde"},"district":{"key":"08315","name":"Breisgau-Hochschwarzwald","type":"Landkreis"},"federalState":{"key":"08","name":"Baden-Württemberg"}},{"name":"Schattenbodenweg","postalCode":"79859","locality":"Schluchsee","municipality":{"key":"08315102","name":"Schluchsee","type":"Kreisangehörige_Gemeinde"},"district":{"key":"08315","name":"Breisgau-Hochschwarzwald","type":"Landkreis"},"federalState":{"key":"08","name":"Baden-Württemberg"}},{"name":"Schlageterfahrweg","postalCode":"79859","locality":"Schluchsee","municipality":{"key":"08315102","name":"Schluchsee","type":"Kreisangehörige_Gemeinde"},"district":{"key":"08315","name":"Breisgau-Hochschwarzwald","type":"Landkreis"},"federalState":{"key":"08","name":"Baden-Württemberg"}},{"name":"Schlageterweg","postalCode":"79859","locality":"Schluchsee","municipality":{"key":"08315102","name":"Schluchsee","type":"Kreisangehörige_Gemeinde"},"district":{"key":"08315","name":"Breisgau-Hochschwarzwald","type":"Landkreis"},"federalState":{"key":"08","name":"Baden-Württemberg"}},{"name":"Schluchseestr.","postalCode":"79859","locality":"Schluchsee","municipality":{"key":"08315102","name":"Schluchsee","type":"Kreisangehörige_Gemeinde"},"district":{"key":"08315","name":"Breisgau-Hochschwarzwald","type":"Landkreis"},"federalState":{"key":"08","name":"Baden-Württemberg"}},{"name":"Schmalzbühlweg","postalCode":"79859","locality":"Schluchsee","municipality":{"key":"08315102","name":"Schluchsee","type":"Kreisangehörige_Gemeinde"},"district":{"key":"08315","name":"Breisgau-Hochschwarzwald","type":"Landkreis"},"federalState":{"key":"08","name":"Baden-Württemberg"}},{"name":"Schmidtenberg","postalCode":"79859","locality":"Schluchsee","municipality":{"key":"08315102","name":"Schluchsee","type":"Kreisangehörige_Gemeinde"},"district":{"key":"08315","name":"Breisgau-Hochschwarzwald","type":"Landkreis"},"federalState":{"key":"08","name":"Baden-Württemberg"}},{"name":"Schnupferweg","postalCode":"79859","locality":"Schluchsee","municipality":{"key":"08315102","name":"Schluchsee","type":"Kreisangehörige_Gemeinde"},"district":{"key":"08315","name":"Breisgau-Hochschwarzwald","type":"Landkreis"},"federalState":{"key":"08","name":"Baden-Württemberg"}},{"name":"Schwarzatalweg","postalCode":"79837","locality":"Schluchsee","municipality":{"key":"08315102","name":"Schluchsee","type":"Kreisangehörige_Gemeinde"},"district":{"key":"08315","name":"Breisgau-Hochschwarzwald","type":"Landkreis"},"federalState":{"key":"08","name":"Baden-Württemberg"}},{"name":"Schwarzatalweg","postalCode":"79859","locality":"Schluchsee","municipality":{"key":"08315102","name":"Schluchsee","type":"Kreisangehörige_Gemeinde"},"district":{"key":"08315","name":"Breisgau-Hochschwarzwald","type":"Landkreis"},"federalState":{"key":"08","name":"Baden-Württemberg"}},{"name":"Schwende","postalCode":"79853","locality":"Schluchsee","municipality":{"key":"08315102","name":"Schluchsee","type":"Kreisangehörige_Gemeinde"},"district":{"key":"08315","name":"Breisgau-Hochschwarzwald","type":"Landkreis"},"federalState":{"key":"08","name":"Baden-Württemberg"}},{"name":"Seebrugg","postalCode":"79859","locality":"Schluchsee","municipality":{"key":"08315102","name":"Schluchsee","type":"Kreisangehörige_Gemeinde"},"district":{"key":"08315","name":"Breisgau-Hochschwarzwald","type":"Landkreis"},"federalState":{"key":"08","name":"Baden-Württemberg"}},{"name":"Seehaldenweg","postalCode":"79859","locality":"Schluchsee","municipality":{"key":"08315102","name":"Schluchsee","type":"Kreisangehörige_Gemeinde"},"district":{"key":"08315","name":"Breisgau-Hochschwarzwald","type":"Landkreis"},"federalState":{"key":"08","name":"Baden-Württemberg"}},{"name":"Seewaldstr.","postalCode":"79859","locality":"Schluchsee","municipality":{"key":"08315102","name":"Schluchsee","type":"Kreisangehörige_Gemeinde"},"district":{"key":"08315","name":"Breisgau-Hochschwarzwald","type":"Landkreis"},"federalState":{"key":"08","name":"Baden-Württemberg"}},{"name":"Seeweg","postalCode":"79859","locality":"Schluchsee","municipality":{"key":"08315102","name":"Schluchsee","type":"Kreisangehörige_Gemeinde"},"district":{"key":"08315","name":"Breisgau-Hochschwarzwald","type":"Landkreis"},"federalState":{"key":"08","name":"Baden-Württemberg"}},{"name":"Silberfelsenweg","postalCode":"79859","locality":"Schluchsee","municipality":{"key":"08315102","name":"Schluchsee","type":"Kreisangehörige_Gemeinde"},"district":{"key":"08315","name":"Breisgau-Hochschwarzwald","type":"Landkreis"},"federalState":{"key":"08","name":"Baden-Württemberg"}},{"name":"Sommerbergweg","postalCode":"79859","locality":"Schluchsee","municipality":{"key":"08315102","name":"Schluchsee","type":"Kreisangehörige_Gemeinde"},"district":{"key":"08315","name":"Breisgau-Hochschwarzwald","type":"Landkreis"},"federalState":{"key":"08","name":"Baden-Württemberg"}},{"name":"Sommerseite","postalCode":"79859","locality":"Schluchsee","municipality":{"key":"08315102","name":"Schluchsee","type":"Kreisangehörige_Gemeinde"},"district":{"key":"08315","name":"Breisgau-Hochschwarzwald","type":"Landkreis"},"federalState":{"key":"08","name":"Baden-Württemberg"}},{"name":"Sommerseitenerweg","postalCode":"79859","locality":"Schluchsee","municipality":{"key":"08315102","name":"Schluchsee","type":"Kreisangehörige_Gemeinde"},"district":{"key":"08315","name":"Breisgau-Hochschwarzwald","type":"Landkreis"},"federalState":{"key":"08","name":"Baden-Württemberg"}},{"name":"Sonnhalde","postalCode":"79859","locality":"Schluchsee","municipality":{"key":"08315102","name":"Schluchsee","type":"Kreisangehörige_Gemeinde"},"district":{"key":"08315","name":"Breisgau-Hochschwarzwald","type":"Landkreis"},"federalState":{"key":"08","name":"Baden-Württemberg"}},{"name":"Spannerhausweg","postalCode":"79859","locality":"Schluchsee","municipality":{"key":"08315102","name":"Schluchsee","type":"Kreisangehörige_Gemeinde"},"district":{"key":"08315","name":"Breisgau-Hochschwarzwald","type":"Landkreis"},"federalState":{"key":"08","name":"Baden-Württemberg"}},{"name":"Steinatalweg","postalCode":"79859","locality":"Schluchsee","municipality":{"key":"08315102","name":"Schluchsee","type":"Kreisangehörige_Gemeinde"},"district":{"key":"08315","name":"Breisgau-Hochschwarzwald","type":"Landkreis"},"federalState":{"key":"08","name":"Baden-Württemberg"}},{"name":"Stichweg","postalCode":"79859","locality":"Schluchsee","municipality":{"key":"08315102","name":"Schluchsee","type":"Kreisangehörige_Gemeinde"},"district":{"key":"08315","name":"Breisgau-Hochschwarzwald","type":"Landkreis"},"federalState":{"key":"08","name":"Baden-Württemberg"}},{"name":"Stockwiesenweg","postalCode":"79859","locality":"Schluchsee","municipality":{"key":"08315102","name":"Schluchsee","type":"Kreisangehörige_Gemeinde"},"district":{"key":"08315","name":"Breisgau-Hochschwarzwald","type":"Landkreis"},"federalState":{"key":"08","name":"Baden-Württemberg"}},{"name":"Straß","postalCode":"79859","locality":"Schluchsee","municipality":{"key":"08315102","name":"Schluchsee","type":"Kreisangehörige_Gemeinde"},"district":{"key":"08315","name":"Breisgau-Hochschwarzwald","type":"Landkreis"},"federalState":{"key":"08","name":"Baden-Württemberg"}},{"name":"Tafeltannweg","postalCode":"79859","locality":"Schluchsee","municipality":{"key":"08315102","name":"Schluchsee","type":"Kreisangehörige_Gemeinde"},"district":{"key":"08315","name":"Breisgau-Hochschwarzwald","type":"Landkreis"},"federalState":{"key":"08","name":"Baden-Württemberg"}},{"name":"Talmattenweg","postalCode":"79859","locality":"Schluchsee","municipality":{"key":"08315102","name":"Schluchsee","type":"Kreisangehörige_Gemeinde"},"district":{"key":"08315","name":"Breisgau-Hochschwarzwald","type":"Landkreis"},"federalState":{"key":"08","name":"Baden-Württemberg"}},{"name":"Talstr.","postalCode":"79859","locality":"Schluchsee","municipality":{"key":"08315102","name":"Schluchsee","type":"Kreisangehörige_Gemeinde"},"district":{"key":"08315","name":"Breisgau-Hochschwarzwald","type":"Landkreis"},"federalState":{"key":"08","name":"Baden-Württemberg"}},{"name":"Tannenweg","postalCode":"79859","locality":"Schluchsee","municipality":{"key":"08315102","name":"Schluchsee","type":"Kreisangehörige_Gemeinde"},"district":{"key":"08315","name":"Breisgau-Hochschwarzwald","type":"Landkreis"},"federalState":{"key":"08","name":"Baden-Württemberg"}},{"name":"Tirolerweg","postalCode":"79859","locality":"Schluchsee","municipality":{"key":"08315102","name":"Schluchsee","type":"Kreisangehörige_Gemeinde"},"district":{"key":"08315","name":"Breisgau-Hochschwarzwald","type":"Landkreis"},"federalState":{"key":"08","name":"Baden-Württemberg"}},{"name":"Traufweg","postalCode":"79859","locality":"Schluchsee","municipality":{"key":"08315102","name":"Schluchsee","type":"Kreisangehörige_Gemeinde"},"district":{"key":"08315","name":"Breisgau-Hochschwarzwald","type":"Landkreis"},"federalState":{"key":"08","name":"Baden-Württemberg"}},{"name":"Trockenschieberweg","postalCode":"79859","locality":"Schluchsee","municipality":{"key":"08315102","name":"Schluchsee","type":"Kreisangehörige_Gemeinde"},"district":{"key":"08315","name":"Breisgau-Hochschwarzwald","type":"Landkreis"},"federalState":{"key":"08","name":"Baden-Württemberg"}},{"name":"Unterer Ambelenbachweg","postalCode":"79859","locality":"Schluchsee","municipality":{"key":"08315102","name":"Schluchsee","type":"Kreisangehörige_Gemeinde"},"district":{"key":"08315","name":"Breisgau-Hochschwarzwald","type":"Landkreis"},"federalState":{"key":"08","name":"Baden-Württemberg"}},{"name":"Unterer Bildsteinweg","postalCode":"79859","locality":"Schluchsee","municipality":{"key":"08315102","name":"Schluchsee","type":"Kreisangehörige_Gemeinde"},"district":{"key":"08315","name":"Breisgau-Hochschwarzwald","type":"Landkreis"},"federalState":{"key":"08","name":"Baden-Württemberg"}},{"name":"Untere Ringstr.","postalCode":"79859","locality":"Schluchsee","municipality":{"key":"08315102","name":"Schluchsee","type":"Kreisangehörige_Gemeinde"},"district":{"key":"08315","name":"Breisgau-Hochschwarzwald","type":"Landkreis"},"federalState":{"key":"08","name":"Baden-Württemberg"}},{"name":"Unterer Mühlenweg","postalCode":"79859","locality":"Schluchsee","municipality":{"key":"08315102","name":"Schluchsee","type":"Kreisangehörige_Gemeinde"},"district":{"key":"08315","name":"Breisgau-Hochschwarzwald","type":"Landkreis"},"federalState":{"key":"08","name":"Baden-Württemberg"}},{"name":"Unterer Staumauerweg","postalCode":"79859","locality":"Schluchsee","municipality":{"key":"08315102","name":"Schluchsee","type":"Kreisangehörige_Gemeinde"},"district":{"key":"08315","name":"Breisgau-Hochschwarzwald","type":"Landkreis"},"federalState":{"key":"08","name":"Baden-Württemberg"}},{"name":"Unterer Stutzweg","postalCode":"79859","locality":"Schluchsee","municipality":{"key":"08315102","name":"Schluchsee","type":"Kreisangehörige_Gemeinde"},"district":{"key":"08315","name":"Breisgau-Hochschwarzwald","type":"Landkreis"},"federalState":{"key":"08","name":"Baden-Württemberg"}},{"name":"Unterfischbach","postalCode":"79859","locality":"Schluchsee","municipality":{"key":"08315102","name":"Schluchsee","type":"Kreisangehörige_Gemeinde"},"district":{"key":"08315","name":"Breisgau-Hochschwarzwald","type":"Landkreis"},"federalState":{"key":"08","name":"Baden-Württemberg"}},{"name":"Unterkrummenweg","postalCode":"79859","locality":"Schluchsee","municipality":{"key":"08315102","name":"Schluchsee","type":"Kreisangehörige_Gemeinde"},"district":{"key":"08315","name":"Breisgau-Hochschwarzwald","type":"Landkreis"},"federalState":{"key":"08","name":"Baden-Württemberg"}},{"name":"Unterschwarzhalden","postalCode":"79859","locality":"Schluchsee","municipality":{"key":"08315102","name":"Schluchsee","type":"Kreisangehörige_Gemeinde"},"district":{"key":"08315","name":"Breisgau-Hochschwarzwald","type":"Landkreis"},"federalState":{"key":"08","name":"Baden-Württemberg"}},{"name":"Vogelhausweg","postalCode":"79859","locality":"Schluchsee","municipality":{"key":"08315102","name":"Schluchsee","type":"Kreisangehörige_Gemeinde"},"district":{"key":"08315","name":"Breisgau-Hochschwarzwald","type":"Landkreis"},"federalState":{"key":"08","name":"Baden-Württemberg"}},{"name":"Vorderaha","postalCode":"79859","locality":"Schluchsee","municipality":{"key":"08315102","name":"Schluchsee","type":"Kreisangehörige_Gemeinde"},"district":{"key":"08315","name":"Breisgau-Hochschwarzwald","type":"Landkreis"},"federalState":{"key":"08","name":"Baden-Württemberg"}},{"name":"Waldackerweg","postalCode":"79859","locality":"Schluchsee","municipality":{"key":"08315102","name":"Schluchsee","type":"Kreisangehörige_Gemeinde"},"district":{"key":"08315","name":"Breisgau-Hochschwarzwald","type":"Landkreis"},"federalState":{"key":"08","name":"Baden-Württemberg"}},{"name":"Waldhofweg","postalCode":"79859","locality":"Schluchsee","municipality":{"key":"08315102","name":"Schluchsee","type":"Kreisangehörige_Gemeinde"},"district":{"key":"08315","name":"Breisgau-Hochschwarzwald","type":"Landkreis"},"federalState":{"key":"08","name":"Baden-Württemberg"}},{"name":"Wasserlochweg","postalCode":"79859","locality":"Schluchsee","municipality":{"key":"08315102","name":"Schluchsee","type":"Kreisangehörige_Gemeinde"},"district":{"key":"08315","name":"Breisgau-Hochschwarzwald","type":"Landkreis"},"federalState":{"key":"08","name":"Baden-Württemberg"}},{"name":"Weiherstr.","postalCode":"79859","locality":"Schluchsee","municipality":{"key":"08315102","name":"Schluchsee","type":"Kreisangehörige_Gemeinde"},"district":{"key":"08315","name":"Breisgau-Hochschwarzwald","type":"Landkreis"},"federalState":{"key":"08","name":"Baden-Württemberg"}},{"name":"Wiesengrundpark","postalCode":"79859","locality":"Schluchsee","municipality":{"key":"08315102","name":"Schluchsee","type":"Kreisangehörige_Gemeinde"},"district":{"key":"08315","name":"Breisgau-Hochschwarzwald","type":"Landkreis"},"federalState":{"key":"08","name":"Baden-Württemberg"}},{"name":"Winterbergweg","postalCode":"79859","locality":"Schluchsee","municipality":{"key":"08315102","name":"Schluchsee","type":"Kreisangehörige_Gemeinde"},"district":{"key":"08315","name":"Breisgau-Hochschwarzwald","type":"Landkreis"},"federalState":{"key":"08","name":"Baden-Württemberg"}},{"name":"Winterseite","postalCode":"79859","locality":"Schluchsee","municipality":{"key":"08315102","name":"Schluchsee","type":"Kreisangehörige_Gemeinde"},"district":{"key":"08315","name":"Breisgau-Hochschwarzwald","type":"Landkreis"},"federalState":{"key":"08","name":"Baden-Württemberg"}},{"name":"Wittemleweg","postalCode":"79859","locality":"Schluchsee","municipality":{"key":"08315102","name":"Schluchsee","type":"Kreisangehörige_Gemeinde"},"district":{"key":"08315","name":"Breisgau-Hochschwarzwald","type":"Landkreis"},"federalState":{"key":"08","name":"Baden-Württemberg"}},{"name":"Wüstengrabenweg","postalCode":"79859","locality":"Schluchsee","municipality":{"key":"08315102","name":"Schluchsee","type":"Kreisangehörige_Gemeinde"},"district":{"key":"08315","name":"Breisgau-Hochschwarzwald","type":"Landkreis"},"federalState":{"key":"08","name":"Baden-Württemberg"}},{"name":"Zum Bildstöckle","postalCode":"79859","locality":"Schluchsee","municipality":{"key":"08315102","name":"Schluchsee","type":"Kreisangehörige_Gemeinde"},"district":{"key":"08315","name":"Breisgau-Hochschwarzwald","type":"Landkreis"},"federalState":{"key":"08","name":"Baden-Württemberg"}},{"name":"Äule","postalCode":"79859","locality":"Schluchsee","municipality":{"key":"08315102","name":"Schluchsee","type":"Kreisangehörige_Gemeinde"},"district":{"key":"08315","name":"Breisgau-Hochschwarzwald","type":"Landkreis"},"federalState":{"key":"08","name":"Baden-Württemberg"}},]