[{"name":"Ahmstorfer Weg","postalCode":"38464","locality":"Groß Twülpstedt","municipality":{"key":"03154009","name":"Groß Twülpstedt","type":"Kreisangehörige_Gemeinde"},"district":{"key":"03154","name":"Helmstedt","type":"Landkreis"},"federalState":{"key":"03","name":"Niedersachsen"}},{"name":"Am Brink","postalCode":"38464","locality":"Groß Twülpstedt","municipality":{"key":"03154009","name":"Groß Twülpstedt","type":"Kreisangehörige_Gemeinde"},"district":{"key":"03154","name":"Helmstedt","type":"Landkreis"},"federalState":{"key":"03","name":"Niedersachsen"}},{"name":"Am Dötel","postalCode":"38464","locality":"Groß Twülpstedt","municipality":{"key":"03154009","name":"Groß Twülpstedt","type":"Kreisangehörige_Gemeinde"},"district":{"key":"03154","name":"Helmstedt","type":"Landkreis"},"federalState":{"key":"03","name":"Niedersachsen"}},{"name":"Am Lustgarten","postalCode":"38464","locality":"Groß Twülpstedt","municipality":{"key":"03154009","name":"Groß Twülpstedt","type":"Kreisangehörige_Gemeinde"},"district":{"key":"03154","name":"Helmstedt","type":"Landkreis"},"federalState":{"key":"03","name":"Niedersachsen"}},{"name":"Am Mühlenhop","postalCode":"38464","locality":"Groß Twülpstedt","municipality":{"key":"03154009","name":"Groß Twülpstedt","type":"Kreisangehörige_Gemeinde"},"district":{"key":"03154","name":"Helmstedt","type":"Landkreis"},"federalState":{"key":"03","name":"Niedersachsen"}},{"name":"Am Mühlenhope","postalCode":"38464","locality":"Groß Twülpstedt","municipality":{"key":"03154009","name":"Groß Twülpstedt","type":"Kreisangehörige_Gemeinde"},"district":{"key":"03154","name":"Helmstedt","type":"Landkreis"},"federalState":{"key":"03","name":"Niedersachsen"}},{"name":"Am Schäfergarten","postalCode":"38464","locality":"Groß Twülpstedt","municipality":{"key":"03154009","name":"Groß Twülpstedt","type":"Kreisangehörige_Gemeinde"},"district":{"key":"03154","name":"Helmstedt","type":"Landkreis"},"federalState":{"key":"03","name":"Niedersachsen"}},{"name":"Am Sportplatz","postalCode":"38464","locality":"Groß Twülpstedt","municipality":{"key":"03154009","name":"Groß Twülpstedt","type":"Kreisangehörige_Gemeinde"},"district":{"key":"03154","name":"Helmstedt","type":"Landkreis"},"federalState":{"key":"03","name":"Niedersachsen"}},{"name":"An der Böke","postalCode":"38464","locality":"Groß Twülpstedt","municipality":{"key":"03154009","name":"Groß Twülpstedt","type":"Kreisangehörige_Gemeinde"},"district":{"key":"03154","name":"Helmstedt","type":"Landkreis"},"federalState":{"key":"03","name":"Niedersachsen"}},{"name":"Auefeld","postalCode":"38464","locality":"Groß Twülpstedt","municipality":{"key":"03154009","name":"Groß Twülpstedt","type":"Kreisangehörige_Gemeinde"},"district":{"key":"03154","name":"Helmstedt","type":"Landkreis"},"federalState":{"key":"03","name":"Niedersachsen"}},{"name":"Auf dem Heiligen Kampe","postalCode":"38464","locality":"Groß Twülpstedt","municipality":{"key":"03154009","name":"Groß Twülpstedt","type":"Kreisangehörige_Gemeinde"},"district":{"key":"03154","name":"Helmstedt","type":"Landkreis"},"federalState":{"key":"03","name":"Niedersachsen"}},{"name":"Auf der Masch","postalCode":"38464","locality":"Groß Twülpstedt","municipality":{"key":"03154009","name":"Groß Twülpstedt","type":"Kreisangehörige_Gemeinde"},"district":{"key":"03154","name":"Helmstedt","type":"Landkreis"},"federalState":{"key":"03","name":"Niedersachsen"}},{"name":"Bäckerstr.","postalCode":"38464","locality":"Groß Twülpstedt","municipality":{"key":"03154009","name":"Groß Twülpstedt","type":"Kreisangehörige_Gemeinde"},"district":{"key":"03154","name":"Helmstedt","type":"Landkreis"},"federalState":{"key":"03","name":"Niedersachsen"}},{"name":"Bahnhofstr.","postalCode":"38464","locality":"Groß Twülpstedt","municipality":{"key":"03154009","name":"Groß Twülpstedt","type":"Kreisangehörige_Gemeinde"},"district":{"key":"03154","name":"Helmstedt","type":"Landkreis"},"federalState":{"key":"03","name":"Niedersachsen"}},{"name":"Bahrdorfer Str.","postalCode":"38464","locality":"Groß Twülpstedt","municipality":{"key":"03154009","name":"Groß Twülpstedt","type":"Kreisangehörige_Gemeinde"},"district":{"key":"03154","name":"Helmstedt","type":"Landkreis"},"federalState":{"key":"03","name":"Niedersachsen"}},{"name":"Bauerstr.","postalCode":"38464","locality":"Groß Twülpstedt","municipality":{"key":"03154009","name":"Groß Twülpstedt","type":"Kreisangehörige_Gemeinde"},"district":{"key":"03154","name":"Helmstedt","type":"Landkreis"},"federalState":{"key":"03","name":"Niedersachsen"}},{"name":"Baumschulenweg","postalCode":"38464","locality":"Groß Twülpstedt","municipality":{"key":"03154009","name":"Groß Twülpstedt","type":"Kreisangehörige_Gemeinde"},"district":{"key":"03154","name":"Helmstedt","type":"Landkreis"},"federalState":{"key":"03","name":"Niedersachsen"}},{"name":"Bergstr.","postalCode":"38464","locality":"Groß Twülpstedt","municipality":{"key":"03154009","name":"Groß Twülpstedt","type":"Kreisangehörige_Gemeinde"},"district":{"key":"03154","name":"Helmstedt","type":"Landkreis"},"federalState":{"key":"03","name":"Niedersachsen"}},{"name":"Bisdorfer Weg","postalCode":"38464","locality":"Groß Twülpstedt","municipality":{"key":"03154009","name":"Groß Twülpstedt","type":"Kreisangehörige_Gemeinde"},"district":{"key":"03154","name":"Helmstedt","type":"Landkreis"},"federalState":{"key":"03","name":"Niedersachsen"}},{"name":"Brotweg","postalCode":"38464","locality":"Groß Twülpstedt","municipality":{"key":"03154009","name":"Groß Twülpstedt","type":"Kreisangehörige_Gemeinde"},"district":{"key":"03154","name":"Helmstedt","type":"Landkreis"},"federalState":{"key":"03","name":"Niedersachsen"}},{"name":"Brunnenweg","postalCode":"38464","locality":"Groß Twülpstedt","municipality":{"key":"03154009","name":"Groß Twülpstedt","type":"Kreisangehörige_Gemeinde"},"district":{"key":"03154","name":"Helmstedt","type":"Landkreis"},"federalState":{"key":"03","name":"Niedersachsen"}},{"name":"Conringstr.","postalCode":"38464","locality":"Groß Twülpstedt","municipality":{"key":"03154009","name":"Groß Twülpstedt","type":"Kreisangehörige_Gemeinde"},"district":{"key":"03154","name":"Helmstedt","type":"Landkreis"},"federalState":{"key":"03","name":"Niedersachsen"}},{"name":"Denkmalplatz","postalCode":"38464","locality":"Groß Twülpstedt","municipality":{"key":"03154009","name":"Groß Twülpstedt","type":"Kreisangehörige_Gemeinde"},"district":{"key":"03154","name":"Helmstedt","type":"Landkreis"},"federalState":{"key":"03","name":"Niedersachsen"}},{"name":"Dorfstr.","postalCode":"38464","locality":"Groß Twülpstedt","municipality":{"key":"03154009","name":"Groß Twülpstedt","type":"Kreisangehörige_Gemeinde"},"district":{"key":"03154","name":"Helmstedt","type":"Landkreis"},"federalState":{"key":"03","name":"Niedersachsen"}},{"name":"Edelhöfe","postalCode":"38350","locality":"Helmstedt","municipality":{"key":"03154028","name":"Helmstedt, Stadt","type":"Stadt"},"district":{"key":"03154","name":"Helmstedt","type":"Landkreis"},"federalState":{"key":"03","name":"Niedersachsen"}},{"name":"Eisenweg","postalCode":"38350","locality":"Helmstedt","municipality":{"key":"03154028","name":"Helmstedt, Stadt","type":"Stadt"},"district":{"key":"03154","name":"Helmstedt","type":"Landkreis"},"federalState":{"key":"03","name":"Niedersachsen"}},{"name":"Elbestr.","postalCode":"38350","locality":"Helmstedt","municipality":{"key":"03154028","name":"Helmstedt, Stadt","type":"Stadt"},"district":{"key":"03154","name":"Helmstedt","type":"Landkreis"},"federalState":{"key":"03","name":"Niedersachsen"}},{"name":"Elmblick","postalCode":"38350","locality":"Helmstedt","municipality":{"key":"03154028","name":"Helmstedt, Stadt","type":"Stadt"},"district":{"key":"03154","name":"Helmstedt","type":"Landkreis"},"federalState":{"key":"03","name":"Niedersachsen"}},{"name":"Elzweg","postalCode":"38350","locality":"Helmstedt","municipality":{"key":"03154028","name":"Helmstedt, Stadt","type":"Stadt"},"district":{"key":"03154","name":"Helmstedt","type":"Landkreis"},"federalState":{"key":"03","name":"Niedersachsen"}},{"name":"Emil-v.-Behring-Str.","postalCode":"38350","locality":"Helmstedt","municipality":{"key":"03154028","name":"Helmstedt, Stadt","type":"Stadt"},"district":{"key":"03154","name":"Helmstedt","type":"Landkreis"},"federalState":{"key":"03","name":"Niedersachsen"}},{"name":"Emmastr.","postalCode":"38350","locality":"Helmstedt","municipality":{"key":"03154028","name":"Helmstedt, Stadt","type":"Stadt"},"district":{"key":"03154","name":"Helmstedt","type":"Landkreis"},"federalState":{"key":"03","name":"Niedersachsen"}},{"name":"Emmerstedter Landstr.","postalCode":"38350","locality":"Helmstedt","municipality":{"key":"03154028","name":"Helmstedt, Stadt","type":"Stadt"},"district":{"key":"03154","name":"Helmstedt","type":"Landkreis"},"federalState":{"key":"03","name":"Niedersachsen"}},{"name":"Emmerstedter Str.","postalCode":"38350","locality":"Helmstedt","municipality":{"key":"03154028","name":"Helmstedt, Stadt","type":"Stadt"},"district":{"key":"03154","name":"Helmstedt","type":"Landkreis"},"federalState":{"key":"03","name":"Niedersachsen"}},{"name":"Emmi-Lademann-Str.","postalCode":"38350","locality":"Helmstedt","municipality":{"key":"03154028","name":"Helmstedt, Stadt","type":"Stadt"},"district":{"key":"03154","name":"Helmstedt","type":"Landkreis"},"federalState":{"key":"03","name":"Niedersachsen"}},{"name":"Erfurter Str.","postalCode":"38350","locality":"Helmstedt","municipality":{"key":"03154028","name":"Helmstedt, Stadt","type":"Stadt"},"district":{"key":"03154","name":"Helmstedt","type":"Landkreis"},"federalState":{"key":"03","name":"Niedersachsen"}},{"name":"Ernst-Koch-Str.","postalCode":"38350","locality":"Helmstedt","municipality":{"key":"03154028","name":"Helmstedt, Stadt","type":"Stadt"},"district":{"key":"03154","name":"Helmstedt","type":"Landkreis"},"federalState":{"key":"03","name":"Niedersachsen"}},{"name":"Ernst-Reuter-Str.","postalCode":"38350","locality":"Helmstedt","municipality":{"key":"03154028","name":"Helmstedt, Stadt","type":"Stadt"},"district":{"key":"03154","name":"Helmstedt","type":"Landkreis"},"federalState":{"key":"03","name":"Niedersachsen"}},{"name":"Eupener Str.","postalCode":"38350","locality":"Helmstedt","municipality":{"key":"03154028","name":"Helmstedt, Stadt","type":"Stadt"},"district":{"key":"03154","name":"Helmstedt","type":"Landkreis"},"federalState":{"key":"03","name":"Niedersachsen"}},{"name":"Fabrikstr.","postalCode":"38464","locality":"Groß Twülpstedt","municipality":{"key":"03154009","name":"Groß Twülpstedt","type":"Kreisangehörige_Gemeinde"},"district":{"key":"03154","name":"Helmstedt","type":"Landkreis"},"federalState":{"key":"03","name":"Niedersachsen"}},{"name":"Feldweg","postalCode":"38464","locality":"Groß Twülpstedt","municipality":{"key":"03154009","name":"Groß Twülpstedt","type":"Kreisangehörige_Gemeinde"},"district":{"key":"03154","name":"Helmstedt","type":"Landkreis"},"federalState":{"key":"03","name":"Niedersachsen"}},{"name":"Feuergasse","postalCode":"38464","locality":"Groß Twülpstedt","municipality":{"key":"03154009","name":"Groß Twülpstedt","type":"Kreisangehörige_Gemeinde"},"district":{"key":"03154","name":"Helmstedt","type":"Landkreis"},"federalState":{"key":"03","name":"Niedersachsen"}},{"name":"Finkenbalken","postalCode":"38464","locality":"Groß Twülpstedt","municipality":{"key":"03154009","name":"Groß Twülpstedt","type":"Kreisangehörige_Gemeinde"},"district":{"key":"03154","name":"Helmstedt","type":"Landkreis"},"federalState":{"key":"03","name":"Niedersachsen"}},{"name":"Fliederweg","postalCode":"38464","locality":"Groß Twülpstedt","municipality":{"key":"03154009","name":"Groß Twülpstedt","type":"Kreisangehörige_Gemeinde"},"district":{"key":"03154","name":"Helmstedt","type":"Landkreis"},"federalState":{"key":"03","name":"Niedersachsen"}},{"name":"Friedhofsweg","postalCode":"38464","locality":"Groß Twülpstedt","municipality":{"key":"03154009","name":"Groß Twülpstedt","type":"Kreisangehörige_Gemeinde"},"district":{"key":"03154","name":"Helmstedt","type":"Landkreis"},"federalState":{"key":"03","name":"Niedersachsen"}},{"name":"Gänsekamp","postalCode":"38464","locality":"Groß Twülpstedt","municipality":{"key":"03154009","name":"Groß Twülpstedt","type":"Kreisangehörige_Gemeinde"},"district":{"key":"03154","name":"Helmstedt","type":"Landkreis"},"federalState":{"key":"03","name":"Niedersachsen"}},{"name":"Gartenweg","postalCode":"38464","locality":"Groß Twülpstedt","municipality":{"key":"03154009","name":"Groß Twülpstedt","type":"Kreisangehörige_Gemeinde"},"district":{"key":"03154","name":"Helmstedt","type":"Landkreis"},"federalState":{"key":"03","name":"Niedersachsen"}},{"name":"Gasse","postalCode":"38464","locality":"Groß Twülpstedt","municipality":{"key":"03154009","name":"Groß Twülpstedt","type":"Kreisangehörige_Gemeinde"},"district":{"key":"03154","name":"Helmstedt","type":"Landkreis"},"federalState":{"key":"03","name":"Niedersachsen"}},{"name":"Glockenkuhle","postalCode":"38464","locality":"Groß Twülpstedt","municipality":{"key":"03154009","name":"Groß Twülpstedt","type":"Kreisangehörige_Gemeinde"},"district":{"key":"03154","name":"Helmstedt","type":"Landkreis"},"federalState":{"key":"03","name":"Niedersachsen"}},{"name":"Handelsweg","postalCode":"38464","locality":"Groß Twülpstedt","municipality":{"key":"03154009","name":"Groß Twülpstedt","type":"Kreisangehörige_Gemeinde"},"district":{"key":"03154","name":"Helmstedt","type":"Landkreis"},"federalState":{"key":"03","name":"Niedersachsen"}},{"name":"Handwerkerring","postalCode":"38464","locality":"Groß Twülpstedt","municipality":{"key":"03154009","name":"Groß Twülpstedt","type":"Kreisangehörige_Gemeinde"},"district":{"key":"03154","name":"Helmstedt","type":"Landkreis"},"federalState":{"key":"03","name":"Niedersachsen"}},{"name":"Hauptstr.","postalCode":"38464","locality":"Groß Twülpstedt","municipality":{"key":"03154009","name":"Groß Twülpstedt","type":"Kreisangehörige_Gemeinde"},"district":{"key":"03154","name":"Helmstedt","type":"Landkreis"},"federalState":{"key":"03","name":"Niedersachsen"}},{"name":"Hehlinger Str.","postalCode":"38464","locality":"Groß Twülpstedt","municipality":{"key":"03154009","name":"Groß Twülpstedt","type":"Kreisangehörige_Gemeinde"},"district":{"key":"03154","name":"Helmstedt","type":"Landkreis"},"federalState":{"key":"03","name":"Niedersachsen"}},{"name":"Helmstedter Weg","postalCode":"38464","locality":"Groß Twülpstedt","municipality":{"key":"03154009","name":"Groß Twülpstedt","type":"Kreisangehörige_Gemeinde"},"district":{"key":"03154","name":"Helmstedt","type":"Landkreis"},"federalState":{"key":"03","name":"Niedersachsen"}},{"name":"Hinter den Höfen","postalCode":"38464","locality":"Groß Twülpstedt","municipality":{"key":"03154009","name":"Groß Twülpstedt","type":"Kreisangehörige_Gemeinde"},"district":{"key":"03154","name":"Helmstedt","type":"Landkreis"},"federalState":{"key":"03","name":"Niedersachsen"}},{"name":"Höhneweg","postalCode":"38464","locality":"Groß Twülpstedt","municipality":{"key":"03154009","name":"Groß Twülpstedt","type":"Kreisangehörige_Gemeinde"},"district":{"key":"03154","name":"Helmstedt","type":"Landkreis"},"federalState":{"key":"03","name":"Niedersachsen"}},{"name":"Hungerkamp","postalCode":"38464","locality":"Groß Twülpstedt","municipality":{"key":"03154009","name":"Groß Twülpstedt","type":"Kreisangehörige_Gemeinde"},"district":{"key":"03154","name":"Helmstedt","type":"Landkreis"},"federalState":{"key":"03","name":"Niedersachsen"}},{"name":"Ihlenkamp","postalCode":"38464","locality":"Groß Twülpstedt","municipality":{"key":"03154009","name":"Groß Twülpstedt","type":"Kreisangehörige_Gemeinde"},"district":{"key":"03154","name":"Helmstedt","type":"Landkreis"},"federalState":{"key":"03","name":"Niedersachsen"}},{"name":"Im Bökengarten","postalCode":"38464","locality":"Groß Twülpstedt","municipality":{"key":"03154009","name":"Groß Twülpstedt","type":"Kreisangehörige_Gemeinde"},"district":{"key":"03154","name":"Helmstedt","type":"Landkreis"},"federalState":{"key":"03","name":"Niedersachsen"}},{"name":"Im Kamp","postalCode":"38464","locality":"Groß Twülpstedt","municipality":{"key":"03154009","name":"Groß Twülpstedt","type":"Kreisangehörige_Gemeinde"},"district":{"key":"03154","name":"Helmstedt","type":"Landkreis"},"federalState":{"key":"03","name":"Niedersachsen"}},{"name":"Im Rohrkamp","postalCode":"38464","locality":"Groß Twülpstedt","municipality":{"key":"03154009","name":"Groß Twülpstedt","type":"Kreisangehörige_Gemeinde"},"district":{"key":"03154","name":"Helmstedt","type":"Landkreis"},"federalState":{"key":"03","name":"Niedersachsen"}},{"name":"Im Winkel","postalCode":"38464","locality":"Groß Twülpstedt","municipality":{"key":"03154009","name":"Groß Twülpstedt","type":"Kreisangehörige_Gemeinde"},"district":{"key":"03154","name":"Helmstedt","type":"Landkreis"},"federalState":{"key":"03","name":"Niedersachsen"}},{"name":"Im Winnecken","postalCode":"38464","locality":"Groß Twülpstedt","municipality":{"key":"03154009","name":"Groß Twülpstedt","type":"Kreisangehörige_Gemeinde"},"district":{"key":"03154","name":"Helmstedt","type":"Landkreis"},"federalState":{"key":"03","name":"Niedersachsen"}},{"name":"Jahnstr.","postalCode":"38350","locality":"Helmstedt","municipality":{"key":"03154028","name":"Helmstedt, Stadt","type":"Stadt"},"district":{"key":"03154","name":"Helmstedt","type":"Landkreis"},"federalState":{"key":"03","name":"Niedersachsen"}},{"name":"Jenaer Str.","postalCode":"38350","locality":"Helmstedt","municipality":{"key":"03154028","name":"Helmstedt, Stadt","type":"Stadt"},"district":{"key":"03154","name":"Helmstedt","type":"Landkreis"},"federalState":{"key":"03","name":"Niedersachsen"}},{"name":"Johannesstr.","postalCode":"38350","locality":"Helmstedt","municipality":{"key":"03154028","name":"Helmstedt, Stadt","type":"Stadt"},"district":{"key":"03154","name":"Helmstedt","type":"Landkreis"},"federalState":{"key":"03","name":"Niedersachsen"}},{"name":"Johann-Sebastian-Bach-Str.","postalCode":"38350","locality":"Helmstedt","municipality":{"key":"03154028","name":"Helmstedt, Stadt","type":"Stadt"},"district":{"key":"03154","name":"Helmstedt","type":"Landkreis"},"federalState":{"key":"03","name":"Niedersachsen"}},{"name":"Joseph-Haydn-Weg","postalCode":"38350","locality":"Helmstedt","municipality":{"key":"03154028","name":"Helmstedt, Stadt","type":"Stadt"},"district":{"key":"03154","name":"Helmstedt","type":"Landkreis"},"federalState":{"key":"03","name":"Niedersachsen"}},{"name":"Juliusplatz","postalCode":"38350","locality":"Helmstedt","municipality":{"key":"03154028","name":"Helmstedt, Stadt","type":"Stadt"},"district":{"key":"03154","name":"Helmstedt","type":"Landkreis"},"federalState":{"key":"03","name":"Niedersachsen"}},{"name":"Juliusstr.","postalCode":"38350","locality":"Helmstedt","municipality":{"key":"03154028","name":"Helmstedt, Stadt","type":"Stadt"},"district":{"key":"03154","name":"Helmstedt","type":"Landkreis"},"federalState":{"key":"03","name":"Niedersachsen"}},{"name":"Junkerweg","postalCode":"38350","locality":"Helmstedt","municipality":{"key":"03154028","name":"Helmstedt, Stadt","type":"Stadt"},"district":{"key":"03154","name":"Helmstedt","type":"Landkreis"},"federalState":{"key":"03","name":"Niedersachsen"}},{"name":"Jürgenbreite","postalCode":"38350","locality":"Helmstedt","municipality":{"key":"03154028","name":"Helmstedt, Stadt","type":"Stadt"},"district":{"key":"03154","name":"Helmstedt","type":"Landkreis"},"federalState":{"key":"03","name":"Niedersachsen"}},{"name":"Kesselende","postalCode":"38464","locality":"Groß Twülpstedt","municipality":{"key":"03154009","name":"Groß Twülpstedt","type":"Kreisangehörige_Gemeinde"},"district":{"key":"03154","name":"Helmstedt","type":"Landkreis"},"federalState":{"key":"03","name":"Niedersachsen"}},{"name":"Kirchgasse","postalCode":"38464","locality":"Groß Twülpstedt","municipality":{"key":"03154009","name":"Groß Twülpstedt","type":"Kreisangehörige_Gemeinde"},"district":{"key":"03154","name":"Helmstedt","type":"Landkreis"},"federalState":{"key":"03","name":"Niedersachsen"}},{"name":"Klein Sisbecker Str.","postalCode":"38464","locality":"Groß Twülpstedt","municipality":{"key":"03154009","name":"Groß Twülpstedt","type":"Kreisangehörige_Gemeinde"},"district":{"key":"03154","name":"Helmstedt","type":"Landkreis"},"federalState":{"key":"03","name":"Niedersachsen"}},{"name":"Kuhstr.","postalCode":"38464","locality":"Groß Twülpstedt","municipality":{"key":"03154009","name":"Groß Twülpstedt","type":"Kreisangehörige_Gemeinde"},"district":{"key":"03154","name":"Helmstedt","type":"Landkreis"},"federalState":{"key":"03","name":"Niedersachsen"}},{"name":"Kulk","postalCode":"38464","locality":"Groß Twülpstedt","municipality":{"key":"03154009","name":"Groß Twülpstedt","type":"Kreisangehörige_Gemeinde"},"district":{"key":"03154","name":"Helmstedt","type":"Landkreis"},"federalState":{"key":"03","name":"Niedersachsen"}},{"name":"Kurfürstendamm","postalCode":"38464","locality":"Groß Twülpstedt","municipality":{"key":"03154009","name":"Groß Twülpstedt","type":"Kreisangehörige_Gemeinde"},"district":{"key":"03154","name":"Helmstedt","type":"Landkreis"},"federalState":{"key":"03","name":"Niedersachsen"}},{"name":"Langer Berg","postalCode":"38464","locality":"Groß Twülpstedt","municipality":{"key":"03154009","name":"Groß Twülpstedt","type":"Kreisangehörige_Gemeinde"},"district":{"key":"03154","name":"Helmstedt","type":"Landkreis"},"federalState":{"key":"03","name":"Niedersachsen"}},{"name":"Lindenallee","postalCode":"38464","locality":"Groß Twülpstedt","municipality":{"key":"03154009","name":"Groß Twülpstedt","type":"Kreisangehörige_Gemeinde"},"district":{"key":"03154","name":"Helmstedt","type":"Landkreis"},"federalState":{"key":"03","name":"Niedersachsen"}},{"name":"Lindenstr.","postalCode":"38464","locality":"Groß Twülpstedt","municipality":{"key":"03154009","name":"Groß Twülpstedt","type":"Kreisangehörige_Gemeinde"},"district":{"key":"03154","name":"Helmstedt","type":"Landkreis"},"federalState":{"key":"03","name":"Niedersachsen"}},{"name":"Meinkoter Str.","postalCode":"38464","locality":"Groß Twülpstedt","municipality":{"key":"03154009","name":"Groß Twülpstedt","type":"Kreisangehörige_Gemeinde"},"district":{"key":"03154","name":"Helmstedt","type":"Landkreis"},"federalState":{"key":"03","name":"Niedersachsen"}},{"name":"Mühlenblick","postalCode":"38464","locality":"Groß Twülpstedt","municipality":{"key":"03154009","name":"Groß Twülpstedt","type":"Kreisangehörige_Gemeinde"},"district":{"key":"03154","name":"Helmstedt","type":"Landkreis"},"federalState":{"key":"03","name":"Niedersachsen"}},{"name":"Naumburger Str.","postalCode":"38350","locality":"Helmstedt","municipality":{"key":"03154028","name":"Helmstedt, Stadt","type":"Stadt"},"district":{"key":"03154","name":"Helmstedt","type":"Landkreis"},"federalState":{"key":"03","name":"Niedersachsen"}},{"name":"Neißestr.","postalCode":"38350","locality":"Helmstedt","municipality":{"key":"03154028","name":"Helmstedt, Stadt","type":"Stadt"},"district":{"key":"03154","name":"Helmstedt","type":"Landkreis"},"federalState":{"key":"03","name":"Niedersachsen"}},{"name":"Neue Siedlung","postalCode":"38350","locality":"Helmstedt","municipality":{"key":"03154028","name":"Helmstedt, Stadt","type":"Stadt"},"district":{"key":"03154","name":"Helmstedt","type":"Landkreis"},"federalState":{"key":"03","name":"Niedersachsen"}},{"name":"Neue Str.","postalCode":"38350","locality":"Helmstedt","municipality":{"key":"03154028","name":"Helmstedt, Stadt","type":"Stadt"},"district":{"key":"03154","name":"Helmstedt","type":"Landkreis"},"federalState":{"key":"03","name":"Niedersachsen"}},{"name":"Nonnenstieg","postalCode":"38350","locality":"Helmstedt","municipality":{"key":"03154028","name":"Helmstedt, Stadt","type":"Stadt"},"district":{"key":"03154","name":"Helmstedt","type":"Landkreis"},"federalState":{"key":"03","name":"Niedersachsen"}},{"name":"Nordertor","postalCode":"38350","locality":"Helmstedt","municipality":{"key":"03154028","name":"Helmstedt, Stadt","type":"Stadt"},"district":{"key":"03154","name":"Helmstedt","type":"Landkreis"},"federalState":{"key":"03","name":"Niedersachsen"}},{"name":"Nordstr.","postalCode":"38350","locality":"Helmstedt","municipality":{"key":"03154028","name":"Helmstedt, Stadt","type":"Stadt"},"district":{"key":"03154","name":"Helmstedt","type":"Landkreis"},"federalState":{"key":"03","name":"Niedersachsen"}},{"name":"Northamweg","postalCode":"38372","locality":"Helmstedt","municipality":{"key":"03154028","name":"Helmstedt, Stadt","type":"Stadt"},"district":{"key":"03154","name":"Helmstedt","type":"Landkreis"},"federalState":{"key":"03","name":"Niedersachsen"}},{"name":"Ochsensüperweg","postalCode":"38464","locality":"Groß Twülpstedt","municipality":{"key":"03154009","name":"Groß Twülpstedt","type":"Kreisangehörige_Gemeinde"},"district":{"key":"03154","name":"Helmstedt","type":"Landkreis"},"federalState":{"key":"03","name":"Niedersachsen"}},{"name":"Ostlandweg","postalCode":"38464","locality":"Groß Twülpstedt","municipality":{"key":"03154009","name":"Groß Twülpstedt","type":"Kreisangehörige_Gemeinde"},"district":{"key":"03154","name":"Helmstedt","type":"Landkreis"},"federalState":{"key":"03","name":"Niedersachsen"}},{"name":"Oststr.","postalCode":"38464","locality":"Groß Twülpstedt","municipality":{"key":"03154009","name":"Groß Twülpstedt","type":"Kreisangehörige_Gemeinde"},"district":{"key":"03154","name":"Helmstedt","type":"Landkreis"},"federalState":{"key":"03","name":"Niedersachsen"}},{"name":"Parkstr.","postalCode":"38464","locality":"Groß Twülpstedt","municipality":{"key":"03154009","name":"Groß Twülpstedt","type":"Kreisangehörige_Gemeinde"},"district":{"key":"03154","name":"Helmstedt","type":"Landkreis"},"federalState":{"key":"03","name":"Niedersachsen"}},{"name":"Querenhorster Str.","postalCode":"38464","locality":"Groß Twülpstedt","municipality":{"key":"03154009","name":"Groß Twülpstedt","type":"Kreisangehörige_Gemeinde"},"district":{"key":"03154","name":"Helmstedt","type":"Landkreis"},"federalState":{"key":"03","name":"Niedersachsen"}},{"name":"Rosendamm","postalCode":"38464","locality":"Groß Twülpstedt","municipality":{"key":"03154009","name":"Groß Twülpstedt","type":"Kreisangehörige_Gemeinde"},"district":{"key":"03154","name":"Helmstedt","type":"Landkreis"},"federalState":{"key":"03","name":"Niedersachsen"}},{"name":"Rotdornstr.","postalCode":"38464","locality":"Groß Twülpstedt","municipality":{"key":"03154009","name":"Groß Twülpstedt","type":"Kreisangehörige_Gemeinde"},"district":{"key":"03154","name":"Helmstedt","type":"Landkreis"},"federalState":{"key":"03","name":"Niedersachsen"}},{"name":"Rottenweg","postalCode":"38464","locality":"Groß Twülpstedt","municipality":{"key":"03154009","name":"Groß Twülpstedt","type":"Kreisangehörige_Gemeinde"},"district":{"key":"03154","name":"Helmstedt","type":"Landkreis"},"federalState":{"key":"03","name":"Niedersachsen"}},{"name":"Rümmersche Str.","postalCode":"38464","locality":"Groß Twülpstedt","municipality":{"key":"03154009","name":"Groß Twülpstedt","type":"Kreisangehörige_Gemeinde"},"district":{"key":"03154","name":"Helmstedt","type":"Landkreis"},"federalState":{"key":"03","name":"Niedersachsen"}},{"name":"Schaperplatz","postalCode":"38464","locality":"Groß Twülpstedt","municipality":{"key":"03154009","name":"Groß Twülpstedt","type":"Kreisangehörige_Gemeinde"},"district":{"key":"03154","name":"Helmstedt","type":"Landkreis"},"federalState":{"key":"03","name":"Niedersachsen"}},{"name":"Schmiedegasse","postalCode":"38464","locality":"Groß Twülpstedt","municipality":{"key":"03154009","name":"Groß Twülpstedt","type":"Kreisangehörige_Gemeinde"},"district":{"key":"03154","name":"Helmstedt","type":"Landkreis"},"federalState":{"key":"03","name":"Niedersachsen"}},{"name":"Schneeberg","postalCode":"38464","locality":"Groß Twülpstedt","municipality":{"key":"03154009","name":"Groß Twülpstedt","type":"Kreisangehörige_Gemeinde"},"district":{"key":"03154","name":"Helmstedt","type":"Landkreis"},"federalState":{"key":"03","name":"Niedersachsen"}},{"name":"Schulweg","postalCode":"38464","locality":"Groß Twülpstedt","municipality":{"key":"03154009","name":"Groß Twülpstedt","type":"Kreisangehörige_Gemeinde"},"district":{"key":"03154","name":"Helmstedt","type":"Landkreis"},"federalState":{"key":"03","name":"Niedersachsen"}},{"name":"Schützenweg","postalCode":"38464","locality":"Groß Twülpstedt","municipality":{"key":"03154009","name":"Groß Twülpstedt","type":"Kreisangehörige_Gemeinde"},"district":{"key":"03154","name":"Helmstedt","type":"Landkreis"},"federalState":{"key":"03","name":"Niedersachsen"}},{"name":"Schützwanne","postalCode":"38464","locality":"Groß Twülpstedt","municipality":{"key":"03154009","name":"Groß Twülpstedt","type":"Kreisangehörige_Gemeinde"},"district":{"key":"03154","name":"Helmstedt","type":"Landkreis"},"federalState":{"key":"03","name":"Niedersachsen"}},{"name":"Seeberg","postalCode":"38464","locality":"Groß Twülpstedt","municipality":{"key":"03154009","name":"Groß Twülpstedt","type":"Kreisangehörige_Gemeinde"},"district":{"key":"03154","name":"Helmstedt","type":"Landkreis"},"federalState":{"key":"03","name":"Niedersachsen"}},{"name":"Sesbeke","postalCode":"38464","locality":"Groß Twülpstedt","municipality":{"key":"03154009","name":"Groß Twülpstedt","type":"Kreisangehörige_Gemeinde"},"district":{"key":"03154","name":"Helmstedt","type":"Landkreis"},"federalState":{"key":"03","name":"Niedersachsen"}},{"name":"Siedlung","postalCode":"38464","locality":"Groß Twülpstedt","municipality":{"key":"03154009","name":"Groß Twülpstedt","type":"Kreisangehörige_Gemeinde"},"district":{"key":"03154","name":"Helmstedt","type":"Landkreis"},"federalState":{"key":"03","name":"Niedersachsen"}},{"name":"Steingasse","postalCode":"38464","locality":"Groß Twülpstedt","municipality":{"key":"03154009","name":"Groß Twülpstedt","type":"Kreisangehörige_Gemeinde"},"district":{"key":"03154","name":"Helmstedt","type":"Landkreis"},"federalState":{"key":"03","name":"Niedersachsen"}},{"name":"Steinplessen","postalCode":"38464","locality":"Groß Twülpstedt","municipality":{"key":"03154009","name":"Groß Twülpstedt","type":"Kreisangehörige_Gemeinde"},"district":{"key":"03154","name":"Helmstedt","type":"Landkreis"},"federalState":{"key":"03","name":"Niedersachsen"}},{"name":"Thieberg","postalCode":"38464","locality":"Groß Twülpstedt","municipality":{"key":"03154009","name":"Groß Twülpstedt","type":"Kreisangehörige_Gemeinde"},"district":{"key":"03154","name":"Helmstedt","type":"Landkreis"},"federalState":{"key":"03","name":"Niedersachsen"}},{"name":"Tweete","postalCode":"38464","locality":"Groß Twülpstedt","municipality":{"key":"03154009","name":"Groß Twülpstedt","type":"Kreisangehörige_Gemeinde"},"district":{"key":"03154","name":"Helmstedt","type":"Landkreis"},"federalState":{"key":"03","name":"Niedersachsen"}},{"name":"Vogelsang","postalCode":"38464","locality":"Groß Twülpstedt","municipality":{"key":"03154009","name":"Groß Twülpstedt","type":"Kreisangehörige_Gemeinde"},"district":{"key":"03154","name":"Helmstedt","type":"Landkreis"},"federalState":{"key":"03","name":"Niedersachsen"}},{"name":"Volkmarsdorfer Str.","postalCode":"38464","locality":"Groß Twülpstedt","municipality":{"key":"03154009","name":"Groß Twülpstedt","type":"Kreisangehörige_Gemeinde"},"district":{"key":"03154","name":"Helmstedt","type":"Landkreis"},"federalState":{"key":"03","name":"Niedersachsen"}},{"name":"Waldblick","postalCode":"38464","locality":"Groß Twülpstedt","municipality":{"key":"03154009","name":"Groß Twülpstedt","type":"Kreisangehörige_Gemeinde"},"district":{"key":"03154","name":"Helmstedt","type":"Landkreis"},"federalState":{"key":"03","name":"Niedersachsen"}},{"name":"Waldstr.","postalCode":"38464","locality":"Groß Twülpstedt","municipality":{"key":"03154009","name":"Groß Twülpstedt","type":"Kreisangehörige_Gemeinde"},"district":{"key":"03154","name":"Helmstedt","type":"Landkreis"},"federalState":{"key":"03","name":"Niedersachsen"}},{"name":"Wanne","postalCode":"38464","locality":"Groß Twülpstedt","municipality":{"key":"03154009","name":"Groß Twülpstedt","type":"Kreisangehörige_Gemeinde"},"district":{"key":"03154","name":"Helmstedt","type":"Landkreis"},"federalState":{"key":"03","name":"Niedersachsen"}},{"name":"Weideweg","postalCode":"38464","locality":"Groß Twülpstedt","municipality":{"key":"03154009","name":"Groß Twülpstedt","type":"Kreisangehörige_Gemeinde"},"district":{"key":"03154","name":"Helmstedt","type":"Landkreis"},"federalState":{"key":"03","name":"Niedersachsen"}},{"name":"Wiesenweg","postalCode":"38464","locality":"Groß Twülpstedt","municipality":{"key":"03154009","name":"Groß Twülpstedt","type":"Kreisangehörige_Gemeinde"},"district":{"key":"03154","name":"Helmstedt","type":"Landkreis"},"federalState":{"key":"03","name":"Niedersachsen"}},{"name":"Windmühlenberg","postalCode":"38464","locality":"Groß Twülpstedt","municipality":{"key":"03154009","name":"Groß Twülpstedt","type":"Kreisangehörige_Gemeinde"},"district":{"key":"03154","name":"Helmstedt","type":"Landkreis"},"federalState":{"key":"03","name":"Niedersachsen"}},{"name":"Zum Festplatz","postalCode":"38464","locality":"Groß Twülpstedt","municipality":{"key":"03154009","name":"Groß Twülpstedt","type":"Kreisangehörige_Gemeinde"},"district":{"key":"03154","name":"Helmstedt","type":"Landkreis"},"federalState":{"key":"03","name":"Niedersachsen"}},{"name":"Zum Krähenberg","postalCode":"38464","locality":"Groß Twülpstedt","municipality":{"key":"03154009","name":"Groß Twülpstedt","type":"Kreisangehörige_Gemeinde"},"district":{"key":"03154","name":"Helmstedt","type":"Landkreis"},"federalState":{"key":"03","name":"Niedersachsen"}},{"name":"Zum Rosengarten","postalCode":"38464","locality":"Groß Twülpstedt","municipality":{"key":"03154009","name":"Groß Twülpstedt","type":"Kreisangehörige_Gemeinde"},"district":{"key":"03154","name":"Helmstedt","type":"Landkreis"},"federalState":{"key":"03","name":"Niedersachsen"}},{"name":"Österligenweg","postalCode":"38464","locality":"Groß Twülpstedt","municipality":{"key":"03154009","name":"Groß Twülpstedt","type":"Kreisangehörige_Gemeinde"},"district":{"key":"03154","name":"Helmstedt","type":"Landkreis"},"federalState":{"key":"03","name":"Niedersachsen"}},{"name":"Österlingenweg","postalCode":"38464","locality":"Groß Twülpstedt","municipality":{"key":"03154009","name":"Groß Twülpstedt","type":"Kreisangehörige_Gemeinde"},"district":{"key":"03154","name":"Helmstedt","type":"Landkreis"},"federalState":{"key":"03","name":"Niedersachsen"}},]