[{"key":"10249954","name":"A1","postalCode":"9403","locality":"Goldach","commune":{"key":"3213","name":"Goldach","shortName":"Goldach"},"district":{"key":"1722","name":"Wahlkreis Rorschach"},"canton":{"key":"17","code":"SG","name":"St. Gallen"},"status":"Real"},{"key":"10089165","name":"Aachstrasse","postalCode":"9403","locality":"Goldach","commune":{"key":"3213","name":"Goldach","shortName":"Goldach"},"district":{"key":"1722","name":"Wahlkreis Rorschach"},"canton":{"key":"17","code":"SG","name":"St. Gallen"},"status":"Real"},{"key":"10145088","name":"Aachweg","postalCode":"9403","locality":"Goldach","commune":{"key":"3213","name":"Goldach","shortName":"Goldach"},"district":{"key":"1722","name":"Wahlkreis Rorschach"},"canton":{"key":"17","code":"SG","name":"St. Gallen"},"status":"Real"},{"key":"10143995","name":"Abfleckenstrasse","postalCode":"9403","locality":"Goldach","commune":{"key":"3213","name":"Goldach","shortName":"Goldach"},"district":{"key":"1722","name":"Wahlkreis Rorschach"},"canton":{"key":"17","code":"SG","name":"St. Gallen"},"status":"Real"},{"key":"10188731","name":"Aeueliweg","postalCode":"9403","locality":"Goldach","commune":{"key":"3213","name":"Goldach","shortName":"Goldach"},"district":{"key":"1722","name":"Wahlkreis Rorschach"},"canton":{"key":"17","code":"SG","name":"St. Gallen"},"status":"Real"},{"key":"10033159","name":"Ahornstrasse","postalCode":"9403","locality":"Goldach","commune":{"key":"3213","name":"Goldach","shortName":"Goldach"},"district":{"key":"1722","name":"Wahlkreis Rorschach"},"canton":{"key":"17","code":"SG","name":"St. Gallen"},"status":"Real"},{"key":"10143996","name":"Alte Landstrasse","postalCode":"9403","locality":"Goldach","commune":{"key":"3213","name":"Goldach","shortName":"Goldach"},"district":{"key":"1722","name":"Wahlkreis Rorschach"},"canton":{"key":"17","code":"SG","name":"St. Gallen"},"status":"Real"},{"key":"10210988","name":"Am Rebberg","postalCode":"9403","locality":"Goldach","commune":{"key":"3213","name":"Goldach","shortName":"Goldach"},"district":{"key":"1722","name":"Wahlkreis Rorschach"},"canton":{"key":"17","code":"SG","name":"St. Gallen"},"status":"Real"},{"key":"10145089","name":"Ankerweg","postalCode":"9403","locality":"Goldach","commune":{"key":"3213","name":"Goldach","shortName":"Goldach"},"district":{"key":"1722","name":"Wahlkreis Rorschach"},"canton":{"key":"17","code":"SG","name":"St. Gallen"},"status":"Real"},{"key":"10067709","name":"Appenzellerstrasse","postalCode":"9403","locality":"Goldach","commune":{"key":"3213","name":"Goldach","shortName":"Goldach"},"district":{"key":"1722","name":"Wahlkreis Rorschach"},"canton":{"key":"17","code":"SG","name":"St. Gallen"},"status":"Real"},{"key":"10067712","name":"Bächelerstrasse","postalCode":"9403","locality":"Goldach","commune":{"key":"3213","name":"Goldach","shortName":"Goldach"},"district":{"key":"1722","name":"Wahlkreis Rorschach"},"canton":{"key":"17","code":"SG","name":"St. Gallen"},"status":"Real"},{"key":"10087207","name":"Bachfeldstrasse","postalCode":"9403","locality":"Goldach","commune":{"key":"3213","name":"Goldach","shortName":"Goldach"},"district":{"key":"1722","name":"Wahlkreis Rorschach"},"canton":{"key":"17","code":"SG","name":"St. Gallen"},"status":"Real"},{"key":"10145090","name":"Bachfeldweg","postalCode":"9403","locality":"Goldach","commune":{"key":"3213","name":"Goldach","shortName":"Goldach"},"district":{"key":"1722","name":"Wahlkreis Rorschach"},"canton":{"key":"17","code":"SG","name":"St. Gallen"},"status":"Real"},{"key":"10145082","name":"Bachweg","postalCode":"9403","locality":"Goldach","commune":{"key":"3213","name":"Goldach","shortName":"Goldach"},"district":{"key":"1722","name":"Wahlkreis Rorschach"},"canton":{"key":"17","code":"SG","name":"St. Gallen"},"status":"Real"},{"key":"10145091","name":"Bäckerweg","postalCode":"9403","locality":"Goldach","commune":{"key":"3213","name":"Goldach","shortName":"Goldach"},"district":{"key":"1722","name":"Wahlkreis Rorschach"},"canton":{"key":"17","code":"SG","name":"St. Gallen"},"status":"Real"},{"key":"10206625","name":"Bahnhofplatz","postalCode":"9403","locality":"Goldach","commune":{"key":"3213","name":"Goldach","shortName":"Goldach"},"district":{"key":"1722","name":"Wahlkreis Rorschach"},"canton":{"key":"17","code":"SG","name":"St. Gallen"},"status":"Real"},{"key":"10033078","name":"Bahnhofweg","postalCode":"9403","locality":"Goldach","commune":{"key":"3213","name":"Goldach","shortName":"Goldach"},"district":{"key":"1722","name":"Wahlkreis Rorschach"},"canton":{"key":"17","code":"SG","name":"St. Gallen"},"status":"Real"},{"key":"10229759","name":"Bahnweg","postalCode":"9403","locality":"Goldach","commune":{"key":"3213","name":"Goldach","shortName":"Goldach"},"district":{"key":"1722","name":"Wahlkreis Rorschach"},"canton":{"key":"17","code":"SG","name":"St. Gallen"},"status":"Real"},{"key":"10136787","name":"Baumgartenstrasse","postalCode":"9403","locality":"Goldach","commune":{"key":"3213","name":"Goldach","shortName":"Goldach"},"district":{"key":"1722","name":"Wahlkreis Rorschach"},"canton":{"key":"17","code":"SG","name":"St. Gallen"},"status":"Real"},{"key":"10249958","name":"Baumgartenweg","postalCode":"9403","locality":"Goldach","commune":{"key":"3213","name":"Goldach","shortName":"Goldach"},"district":{"key":"1722","name":"Wahlkreis Rorschach"},"canton":{"key":"17","code":"SG","name":"St. Gallen"},"status":"Real"},{"key":"10033079","name":"Birkenweg","postalCode":"9403","locality":"Goldach","commune":{"key":"3213","name":"Goldach","shortName":"Goldach"},"district":{"key":"1722","name":"Wahlkreis Rorschach"},"canton":{"key":"17","code":"SG","name":"St. Gallen"},"status":"Real"},{"key":"10033080","name":"Bleicheweg","postalCode":"9403","locality":"Goldach","commune":{"key":"3213","name":"Goldach","shortName":"Goldach"},"district":{"key":"1722","name":"Wahlkreis Rorschach"},"canton":{"key":"17","code":"SG","name":"St. Gallen"},"status":"Real"},{"key":"10145092","name":"Blumenauweg","postalCode":"9403","locality":"Goldach","commune":{"key":"3213","name":"Goldach","shortName":"Goldach"},"district":{"key":"1722","name":"Wahlkreis Rorschach"},"canton":{"key":"17","code":"SG","name":"St. Gallen"},"status":"Real"},{"key":"10087208","name":"Blumeneggstrasse","postalCode":"9403","locality":"Goldach","commune":{"key":"3213","name":"Goldach","shortName":"Goldach"},"district":{"key":"1722","name":"Wahlkreis Rorschach"},"canton":{"key":"17","code":"SG","name":"St. Gallen"},"status":"Real"},{"key":"10103358","name":"Blumenfeldstrasse","postalCode":"9403","locality":"Goldach","commune":{"key":"3213","name":"Goldach","shortName":"Goldach"},"district":{"key":"1722","name":"Wahlkreis Rorschach"},"canton":{"key":"17","code":"SG","name":"St. Gallen"},"status":"Real"},{"key":"10033076","name":"Blumenhaldeweg","postalCode":"9403","locality":"Goldach","commune":{"key":"3213","name":"Goldach","shortName":"Goldach"},"district":{"key":"1722","name":"Wahlkreis Rorschach"},"canton":{"key":"17","code":"SG","name":"St. Gallen"},"status":"Real"},{"key":"10067711","name":"Blumenstrasse","postalCode":"9403","locality":"Goldach","commune":{"key":"3213","name":"Goldach","shortName":"Goldach"},"district":{"key":"1722","name":"Wahlkreis Rorschach"},"canton":{"key":"17","code":"SG","name":"St. Gallen"},"status":"Real"},{"key":"10145087","name":"Blumenweg","postalCode":"9403","locality":"Goldach","commune":{"key":"3213","name":"Goldach","shortName":"Goldach"},"district":{"key":"1722","name":"Wahlkreis Rorschach"},"canton":{"key":"17","code":"SG","name":"St. Gallen"},"status":"Real"},{"key":"10144238","name":"Brandstrasse","postalCode":"9403","locality":"Goldach","commune":{"key":"3213","name":"Goldach","shortName":"Goldach"},"district":{"key":"1722","name":"Wahlkreis Rorschach"},"canton":{"key":"17","code":"SG","name":"St. Gallen"},"status":"Real"},{"key":"10087209","name":"Breitenweg","postalCode":"9403","locality":"Goldach","commune":{"key":"3213","name":"Goldach","shortName":"Goldach"},"district":{"key":"1722","name":"Wahlkreis Rorschach"},"canton":{"key":"17","code":"SG","name":"St. Gallen"},"status":"Real"},{"key":"10188732","name":"Bruggmühlestrasse","postalCode":"9403","locality":"Goldach","commune":{"key":"3213","name":"Goldach","shortName":"Goldach"},"district":{"key":"1722","name":"Wahlkreis Rorschach"},"canton":{"key":"17","code":"SG","name":"St. Gallen"},"status":"Real"},{"key":"10229790","name":"Bruggmühleweg","postalCode":"9403","locality":"Goldach","commune":{"key":"3213","name":"Goldach","shortName":"Goldach"},"district":{"key":"1722","name":"Wahlkreis Rorschach"},"canton":{"key":"17","code":"SG","name":"St. Gallen"},"status":"Real"},{"key":"10033360","name":"Brunnenstrasse","postalCode":"9403","locality":"Goldach","commune":{"key":"3213","name":"Goldach","shortName":"Goldach"},"district":{"key":"1722","name":"Wahlkreis Rorschach"},"canton":{"key":"17","code":"SG","name":"St. Gallen"},"status":"Real"},{"key":"10087476","name":"Buchenstrasse","postalCode":"9403","locality":"Goldach","commune":{"key":"3213","name":"Goldach","shortName":"Goldach"},"district":{"key":"1722","name":"Wahlkreis Rorschach"},"canton":{"key":"17","code":"SG","name":"St. Gallen"},"status":"Real"},{"key":"10145083","name":"Burgweg","postalCode":"9403","locality":"Goldach","commune":{"key":"3213","name":"Goldach","shortName":"Goldach"},"district":{"key":"1722","name":"Wahlkreis Rorschach"},"canton":{"key":"17","code":"SG","name":"St. Gallen"},"status":"Real"},{"key":"10187599","name":"Chellenstrasse","postalCode":"9403","locality":"Goldach","commune":{"key":"3213","name":"Goldach","shortName":"Goldach"},"district":{"key":"1722","name":"Wahlkreis Rorschach"},"canton":{"key":"17","code":"SG","name":"St. Gallen"},"status":"Real"},{"key":"10143998","name":"Chogenaustrasse","postalCode":"9403","locality":"Goldach","commune":{"key":"3213","name":"Goldach","shortName":"Goldach"},"district":{"key":"1722","name":"Wahlkreis Rorschach"},"canton":{"key":"17","code":"SG","name":"St. Gallen"},"status":"Real"},{"key":"10033361","name":"Dammweg","postalCode":"9403","locality":"Goldach","commune":{"key":"3213","name":"Goldach","shortName":"Goldach"},"district":{"key":"1722","name":"Wahlkreis Rorschach"},"canton":{"key":"17","code":"SG","name":"St. Gallen"},"status":"Real"},{"key":"10249962","name":"Dorfplatz","postalCode":"9403","locality":"Goldach","commune":{"key":"3213","name":"Goldach","shortName":"Goldach"},"district":{"key":"1722","name":"Wahlkreis Rorschach"},"canton":{"key":"17","code":"SG","name":"St. Gallen"},"status":"Real"},{"key":"10033362","name":"Dufourstrasse","postalCode":"9403","locality":"Goldach","commune":{"key":"3213","name":"Goldach","shortName":"Goldach"},"district":{"key":"1722","name":"Wahlkreis Rorschach"},"canton":{"key":"17","code":"SG","name":"St. Gallen"},"status":"Real"},{"key":"10143999","name":"Egertenstrasse","postalCode":"9403","locality":"Goldach","commune":{"key":"3213","name":"Goldach","shortName":"Goldach"},"district":{"key":"1722","name":"Wahlkreis Rorschach"},"canton":{"key":"17","code":"SG","name":"St. Gallen"},"status":"Real"},{"key":"10087477","name":"Eichweg","postalCode":"9403","locality":"Goldach","commune":{"key":"3213","name":"Goldach","shortName":"Goldach"},"district":{"key":"1722","name":"Wahlkreis Rorschach"},"canton":{"key":"17","code":"SG","name":"St. Gallen"},"status":"Real"},{"key":"10033363","name":"Erlenweg","postalCode":"9403","locality":"Goldach","commune":{"key":"3213","name":"Goldach","shortName":"Goldach"},"district":{"key":"1722","name":"Wahlkreis Rorschach"},"canton":{"key":"17","code":"SG","name":"St. Gallen"},"status":"Real"},{"key":"10110855","name":"Eschenstrasse","postalCode":"9403","locality":"Goldach","commune":{"key":"3213","name":"Goldach","shortName":"Goldach"},"district":{"key":"1722","name":"Wahlkreis Rorschach"},"canton":{"key":"17","code":"SG","name":"St. Gallen"},"status":"Real"},{"key":"10145093","name":"Eschenweg","postalCode":"9403","locality":"Goldach","commune":{"key":"3213","name":"Goldach","shortName":"Goldach"},"district":{"key":"1722","name":"Wahlkreis Rorschach"},"canton":{"key":"17","code":"SG","name":"St. Gallen"},"status":"Real"},{"key":"10144000","name":"Eschlenwaldweg","postalCode":"9403","locality":"Goldach","commune":{"key":"3213","name":"Goldach","shortName":"Goldach"},"district":{"key":"1722","name":"Wahlkreis Rorschach"},"canton":{"key":"17","code":"SG","name":"St. Gallen"},"status":"Real"},{"key":"10033364","name":"Felbenstrasse","postalCode":"9403","locality":"Goldach","commune":{"key":"3213","name":"Goldach","shortName":"Goldach"},"district":{"key":"1722","name":"Wahlkreis Rorschach"},"canton":{"key":"17","code":"SG","name":"St. Gallen"},"status":"Real"},{"key":"10087478","name":"Fliederstrasse","postalCode":"9403","locality":"Goldach","commune":{"key":"3213","name":"Goldach","shortName":"Goldach"},"district":{"key":"1722","name":"Wahlkreis Rorschach"},"canton":{"key":"17","code":"SG","name":"St. Gallen"},"status":"Real"},{"key":"10229798","name":"Fliederweg","postalCode":"9403","locality":"Goldach","commune":{"key":"3213","name":"Goldach","shortName":"Goldach"},"district":{"key":"1722","name":"Wahlkreis Rorschach"},"canton":{"key":"17","code":"SG","name":"St. Gallen"},"status":"Real"},{"key":"10033365","name":"Florastrasse","postalCode":"9403","locality":"Goldach","commune":{"key":"3213","name":"Goldach","shortName":"Goldach"},"district":{"key":"1722","name":"Wahlkreis Rorschach"},"canton":{"key":"17","code":"SG","name":"St. Gallen"},"status":"Real"},{"key":"10132243","name":"Föhrenstrasse","postalCode":"9403","locality":"Goldach","commune":{"key":"3213","name":"Goldach","shortName":"Goldach"},"district":{"key":"1722","name":"Wahlkreis Rorschach"},"canton":{"key":"17","code":"SG","name":"St. Gallen"},"status":"Real"},{"key":"10136514","name":"Freudenau","postalCode":"9403","locality":"Goldach","commune":{"key":"3213","name":"Goldach","shortName":"Goldach"},"district":{"key":"1722","name":"Wahlkreis Rorschach"},"canton":{"key":"17","code":"SG","name":"St. Gallen"},"status":"Real"},{"key":"10033366","name":"Frohheimstrasse","postalCode":"9403","locality":"Goldach","commune":{"key":"3213","name":"Goldach","shortName":"Goldach"},"district":{"key":"1722","name":"Wahlkreis Rorschach"},"canton":{"key":"17","code":"SG","name":"St. Gallen"},"status":"Real"},{"key":"10229811","name":"Frohheimweg","postalCode":"9403","locality":"Goldach","commune":{"key":"3213","name":"Goldach","shortName":"Goldach"},"district":{"key":"1722","name":"Wahlkreis Rorschach"},"canton":{"key":"17","code":"SG","name":"St. Gallen"},"status":"Real"},{"key":"10188733","name":"Gallusstrasse","postalCode":"9403","locality":"Goldach","commune":{"key":"3213","name":"Goldach","shortName":"Goldach"},"district":{"key":"1722","name":"Wahlkreis Rorschach"},"canton":{"key":"17","code":"SG","name":"St. Gallen"},"status":"Real"},{"key":"10033367","name":"Gärtnerweg","postalCode":"9403","locality":"Goldach","commune":{"key":"3213","name":"Goldach","shortName":"Goldach"},"district":{"key":"1722","name":"Wahlkreis Rorschach"},"canton":{"key":"17","code":"SG","name":"St. Gallen"},"status":"Real"},{"key":"10229819","name":"Goldachweg","postalCode":"9403","locality":"Goldach","commune":{"key":"3213","name":"Goldach","shortName":"Goldach"},"district":{"key":"1722","name":"Wahlkreis Rorschach"},"canton":{"key":"17","code":"SG","name":"St. Gallen"},"status":"Real"},{"key":"10143997","name":"Golderbergstrasse","postalCode":"9403","locality":"Goldach","commune":{"key":"3213","name":"Goldach","shortName":"Goldach"},"district":{"key":"1722","name":"Wahlkreis Rorschach"},"canton":{"key":"17","code":"SG","name":"St. Gallen"},"status":"Real"},{"key":"10186420","name":"Goldermühlestrasse","postalCode":"9403","locality":"Goldach","commune":{"key":"3213","name":"Goldach","shortName":"Goldach"},"district":{"key":"1722","name":"Wahlkreis Rorschach"},"canton":{"key":"17","code":"SG","name":"St. Gallen"},"status":"Real"},{"key":"10087479","name":"Grünaustrasse","postalCode":"9403","locality":"Goldach","commune":{"key":"3213","name":"Goldach","shortName":"Goldach"},"district":{"key":"1722","name":"Wahlkreis Rorschach"},"canton":{"key":"17","code":"SG","name":"St. Gallen"},"status":"Real"},{"key":"10033368","name":"Güetlistrasse","postalCode":"9403","locality":"Goldach","commune":{"key":"3213","name":"Goldach","shortName":"Goldach"},"district":{"key":"1722","name":"Wahlkreis Rorschach"},"canton":{"key":"17","code":"SG","name":"St. Gallen"},"status":"Real"},{"key":"10107241","name":"Haini-Rennhas-Strasse","postalCode":"9403","locality":"Goldach","commune":{"key":"3213","name":"Goldach","shortName":"Goldach"},"district":{"key":"1722","name":"Wahlkreis Rorschach"},"canton":{"key":"17","code":"SG","name":"St. Gallen"},"status":"Real"},{"key":"10033369","name":"Haldenmühleweg","postalCode":"9403","locality":"Goldach","commune":{"key":"3213","name":"Goldach","shortName":"Goldach"},"district":{"key":"1722","name":"Wahlkreis Rorschach"},"canton":{"key":"17","code":"SG","name":"St. Gallen"},"status":"Real"},{"key":"10087480","name":"Haselweg","postalCode":"9403","locality":"Goldach","commune":{"key":"3213","name":"Goldach","shortName":"Goldach"},"district":{"key":"1722","name":"Wahlkreis Rorschach"},"canton":{"key":"17","code":"SG","name":"St. Gallen"},"status":"Real"},{"key":"10067713","name":"Hauptstrasse","postalCode":"9403","locality":"Goldach","commune":{"key":"3213","name":"Goldach","shortName":"Goldach"},"district":{"key":"1722","name":"Wahlkreis Rorschach"},"canton":{"key":"17","code":"SG","name":"St. Gallen"},"status":"Real"},{"key":"10144001","name":"Hinterbergweg","postalCode":"9403","locality":"Goldach","commune":{"key":"3213","name":"Goldach","shortName":"Goldach"},"district":{"key":"1722","name":"Wahlkreis Rorschach"},"canton":{"key":"17","code":"SG","name":"St. Gallen"},"status":"Real"},{"key":"10145084","name":"Höhenweg","postalCode":"9403","locality":"Goldach","commune":{"key":"3213","name":"Goldach","shortName":"Goldach"},"district":{"key":"1722","name":"Wahlkreis Rorschach"},"canton":{"key":"17","code":"SG","name":"St. Gallen"},"status":"Real"},{"key":"10059739","name":"Hohrain","postalCode":"9403","locality":"Goldach","commune":{"key":"3213","name":"Goldach","shortName":"Goldach"},"district":{"key":"1722","name":"Wahlkreis Rorschach"},"canton":{"key":"17","code":"SG","name":"St. Gallen"},"status":"Real"},{"key":"10067714","name":"Hohrainstrasse","postalCode":"9403","locality":"Goldach","commune":{"key":"3213","name":"Goldach","shortName":"Goldach"},"district":{"key":"1722","name":"Wahlkreis Rorschach"},"canton":{"key":"17","code":"SG","name":"St. Gallen"},"status":"Real"},{"key":"10033370","name":"Hohrainweg","postalCode":"9403","locality":"Goldach","commune":{"key":"3213","name":"Goldach","shortName":"Goldach"},"district":{"key":"1722","name":"Wahlkreis Rorschach"},"canton":{"key":"17","code":"SG","name":"St. Gallen"},"status":"Real"},{"key":"10033371","name":"Ilgenweg","postalCode":"9403","locality":"Goldach","commune":{"key":"3213","name":"Goldach","shortName":"Goldach"},"district":{"key":"1722","name":"Wahlkreis Rorschach"},"canton":{"key":"17","code":"SG","name":"St. Gallen"},"status":"Real"},{"key":"10144008","name":"Iltenrietstrasse","postalCode":"9403","locality":"Goldach","commune":{"key":"3213","name":"Goldach","shortName":"Goldach"},"district":{"key":"1722","name":"Wahlkreis Rorschach"},"canton":{"key":"17","code":"SG","name":"St. Gallen"},"status":"Real"},{"key":"10145102","name":"Iltenrietweg","postalCode":"9403","locality":"Goldach","commune":{"key":"3213","name":"Goldach","shortName":"Goldach"},"district":{"key":"1722","name":"Wahlkreis Rorschach"},"canton":{"key":"17","code":"SG","name":"St. Gallen"},"status":"Real"},{"key":"10229843","name":"Im Auen","postalCode":"9403","locality":"Goldach","commune":{"key":"3213","name":"Goldach","shortName":"Goldach"},"district":{"key":"1722","name":"Wahlkreis Rorschach"},"canton":{"key":"17","code":"SG","name":"St. Gallen"},"status":"Real"},{"key":"10187600","name":"Im Moos","postalCode":"9403","locality":"Goldach","commune":{"key":"3213","name":"Goldach","shortName":"Goldach"},"district":{"key":"1722","name":"Wahlkreis Rorschach"},"canton":{"key":"17","code":"SG","name":"St. Gallen"},"status":"Real"},{"key":"10087481","name":"Im Quellacker","postalCode":"9403","locality":"Goldach","commune":{"key":"3213","name":"Goldach","shortName":"Goldach"},"district":{"key":"1722","name":"Wahlkreis Rorschach"},"canton":{"key":"17","code":"SG","name":"St. Gallen"},"status":"Real"},{"key":"10067715","name":"In der Weid","postalCode":"9403","locality":"Goldach","commune":{"key":"3213","name":"Goldach","shortName":"Goldach"},"district":{"key":"1722","name":"Wahlkreis Rorschach"},"canton":{"key":"17","code":"SG","name":"St. Gallen"},"status":"Real"},{"key":"10252341","name":"Kirchenfeldstrasse","postalCode":"9403","locality":"Goldach","commune":{"key":"3213","name":"Goldach","shortName":"Goldach"},"district":{"key":"1722","name":"Wahlkreis Rorschach"},"canton":{"key":"17","code":"SG","name":"St. Gallen"},"status":"Planned"},{"key":"10229851","name":"Kirchweg","postalCode":"9403","locality":"Goldach","commune":{"key":"3213","name":"Goldach","shortName":"Goldach"},"district":{"key":"1722","name":"Wahlkreis Rorschach"},"canton":{"key":"17","code":"SG","name":"St. Gallen"},"status":"Real"},{"key":"10160893","name":"Kleestrasse","postalCode":"9403","locality":"Goldach","commune":{"key":"3213","name":"Goldach","shortName":"Goldach"},"district":{"key":"1722","name":"Wahlkreis Rorschach"},"canton":{"key":"17","code":"SG","name":"St. Gallen"},"status":"Real"},{"key":"10249965","name":"Kleeweg","postalCode":"9403","locality":"Goldach","commune":{"key":"3213","name":"Goldach","shortName":"Goldach"},"district":{"key":"1722","name":"Wahlkreis Rorschach"},"canton":{"key":"17","code":"SG","name":"St. Gallen"},"status":"Real"},{"key":"10046681","name":"Klosterstrasse","postalCode":"9403","locality":"Goldach","commune":{"key":"3213","name":"Goldach","shortName":"Goldach"},"district":{"key":"1722","name":"Wahlkreis Rorschach"},"canton":{"key":"17","code":"SG","name":"St. Gallen"},"status":"Real"},{"key":"10115150","name":"Konsumstrasse","postalCode":"9403","locality":"Goldach","commune":{"key":"3213","name":"Goldach","shortName":"Goldach"},"district":{"key":"1722","name":"Wahlkreis Rorschach"},"canton":{"key":"17","code":"SG","name":"St. Gallen"},"status":"Real"},{"key":"10144009","name":"Kreuzstrasse","postalCode":"9403","locality":"Goldach","commune":{"key":"3213","name":"Goldach","shortName":"Goldach"},"district":{"key":"1722","name":"Wahlkreis Rorschach"},"canton":{"key":"17","code":"SG","name":"St. Gallen"},"status":"Real"},{"key":"10067716","name":"Kreuzweg","postalCode":"9403","locality":"Goldach","commune":{"key":"3213","name":"Goldach","shortName":"Goldach"},"district":{"key":"1722","name":"Wahlkreis Rorschach"},"canton":{"key":"17","code":"SG","name":"St. Gallen"},"status":"Real"},{"key":"10046682","name":"Laimatstrasse","postalCode":"9403","locality":"Goldach","commune":{"key":"3213","name":"Goldach","shortName":"Goldach"},"district":{"key":"1722","name":"Wahlkreis Rorschach"},"canton":{"key":"17","code":"SG","name":"St. Gallen"},"status":"Real"},{"key":"10087482","name":"Langrütistrasse","postalCode":"9403","locality":"Goldach","commune":{"key":"3213","name":"Goldach","shortName":"Goldach"},"district":{"key":"1722","name":"Wahlkreis Rorschach"},"canton":{"key":"17","code":"SG","name":"St. Gallen"},"status":"Real"},{"key":"10145094","name":"Langrütiweg","postalCode":"9403","locality":"Goldach","commune":{"key":"3213","name":"Goldach","shortName":"Goldach"},"district":{"key":"1722","name":"Wahlkreis Rorschach"},"canton":{"key":"17","code":"SG","name":"St. Gallen"},"status":"Real"},{"key":"10133508","name":"Lärchenhof","postalCode":"9403","locality":"Goldach","commune":{"key":"3213","name":"Goldach","shortName":"Goldach"},"district":{"key":"1722","name":"Wahlkreis Rorschach"},"canton":{"key":"17","code":"SG","name":"St. Gallen"},"status":"Real"},{"key":"10188734","name":"Libellenstrasse","postalCode":"9403","locality":"Goldach","commune":{"key":"3213","name":"Goldach","shortName":"Goldach"},"district":{"key":"1722","name":"Wahlkreis Rorschach"},"canton":{"key":"17","code":"SG","name":"St. Gallen"},"status":"Real"},{"key":"10249968","name":"Libellenweg","postalCode":"9403","locality":"Goldach","commune":{"key":"3213","name":"Goldach","shortName":"Goldach"},"district":{"key":"1722","name":"Wahlkreis Rorschach"},"canton":{"key":"17","code":"SG","name":"St. Gallen"},"status":"Real"},{"key":"10046683","name":"Lindenweg","postalCode":"9403","locality":"Goldach","commune":{"key":"3213","name":"Goldach","shortName":"Goldach"},"district":{"key":"1722","name":"Wahlkreis Rorschach"},"canton":{"key":"17","code":"SG","name":"St. Gallen"},"status":"Real"},{"key":"10033372","name":"Löwenstrasse","postalCode":"9403","locality":"Goldach","commune":{"key":"3213","name":"Goldach","shortName":"Goldach"},"district":{"key":"1722","name":"Wahlkreis Rorschach"},"canton":{"key":"17","code":"SG","name":"St. Gallen"},"status":"Real"},{"key":"10087483","name":"Mariahalde","postalCode":"9403","locality":"Goldach","commune":{"key":"3213","name":"Goldach","shortName":"Goldach"},"district":{"key":"1722","name":"Wahlkreis Rorschach"},"canton":{"key":"17","code":"SG","name":"St. Gallen"},"status":"Real"},{"key":"10087484","name":"Mariatal","postalCode":"9403","locality":"Goldach","commune":{"key":"3213","name":"Goldach","shortName":"Goldach"},"district":{"key":"1722","name":"Wahlkreis Rorschach"},"canton":{"key":"17","code":"SG","name":"St. Gallen"},"status":"Real"},{"key":"10033373","name":"Marmorstrasse","postalCode":"9403","locality":"Goldach","commune":{"key":"3213","name":"Goldach","shortName":"Goldach"},"district":{"key":"1722","name":"Wahlkreis Rorschach"},"canton":{"key":"17","code":"SG","name":"St. Gallen"},"status":"Real"},{"key":"10229859","name":"Marmorweg","postalCode":"9403","locality":"Goldach","commune":{"key":"3213","name":"Goldach","shortName":"Goldach"},"district":{"key":"1722","name":"Wahlkreis Rorschach"},"canton":{"key":"17","code":"SG","name":"St. Gallen"},"status":"Real"},{"key":"10123301","name":"Mattenweg","postalCode":"9403","locality":"Goldach","commune":{"key":"3213","name":"Goldach","shortName":"Goldach"},"district":{"key":"1722","name":"Wahlkreis Rorschach"},"canton":{"key":"17","code":"SG","name":"St. Gallen"},"status":"Real"},{"key":"10144010","name":"Metzgergasse","postalCode":"9403","locality":"Goldach","commune":{"key":"3213","name":"Goldach","shortName":"Goldach"},"district":{"key":"1722","name":"Wahlkreis Rorschach"},"canton":{"key":"17","code":"SG","name":"St. Gallen"},"status":"Real"},{"key":"10087485","name":"Möttelistrasse","postalCode":"9403","locality":"Goldach","commune":{"key":"3213","name":"Goldach","shortName":"Goldach"},"district":{"key":"1722","name":"Wahlkreis Rorschach"},"canton":{"key":"17","code":"SG","name":"St. Gallen"},"status":"Real"},{"key":"10229867","name":"Mötteliweg","postalCode":"9403","locality":"Goldach","commune":{"key":"3213","name":"Goldach","shortName":"Goldach"},"district":{"key":"1722","name":"Wahlkreis Rorschach"},"canton":{"key":"17","code":"SG","name":"St. Gallen"},"status":"Real"},{"key":"10033374","name":"Mühlebergstrasse","postalCode":"9403","locality":"Goldach","commune":{"key":"3213","name":"Goldach","shortName":"Goldach"},"district":{"key":"1722","name":"Wahlkreis Rorschach"},"canton":{"key":"17","code":"SG","name":"St. Gallen"},"status":"Real"},{"key":"10128978","name":"Mühlegutstrasse","postalCode":"9403","locality":"Goldach","commune":{"key":"3213","name":"Goldach","shortName":"Goldach"},"district":{"key":"1722","name":"Wahlkreis Rorschach"},"canton":{"key":"17","code":"SG","name":"St. Gallen"},"status":"Real"},{"key":"10071145","name":"Myrtenweg","postalCode":"9403","locality":"Goldach","commune":{"key":"3213","name":"Goldach","shortName":"Goldach"},"district":{"key":"1722","name":"Wahlkreis Rorschach"},"canton":{"key":"17","code":"SG","name":"St. Gallen"},"status":"Real"},{"key":"10188735","name":"Nelkenweg","postalCode":"9403","locality":"Goldach","commune":{"key":"3213","name":"Goldach","shortName":"Goldach"},"district":{"key":"1722","name":"Wahlkreis Rorschach"},"canton":{"key":"17","code":"SG","name":"St. Gallen"},"status":"Real"},{"key":"10087486","name":"Neumühlestrasse","postalCode":"9403","locality":"Goldach","commune":{"key":"3213","name":"Goldach","shortName":"Goldach"},"district":{"key":"1722","name":"Wahlkreis Rorschach"},"canton":{"key":"17","code":"SG","name":"St. Gallen"},"status":"Real"},{"key":"10145100","name":"Oberbleicheweg","postalCode":"9403","locality":"Goldach","commune":{"key":"3213","name":"Goldach","shortName":"Goldach"},"district":{"key":"1722","name":"Wahlkreis Rorschach"},"canton":{"key":"17","code":"SG","name":"St. Gallen"},"status":"Real"},{"key":"10071146","name":"Ochsengartenweg","postalCode":"9403","locality":"Goldach","commune":{"key":"3213","name":"Goldach","shortName":"Goldach"},"district":{"key":"1722","name":"Wahlkreis Rorschach"},"canton":{"key":"17","code":"SG","name":"St. Gallen"},"status":"Real"},{"key":"10033375","name":"Otmarstrasse","postalCode":"9403","locality":"Goldach","commune":{"key":"3213","name":"Goldach","shortName":"Goldach"},"district":{"key":"1722","name":"Wahlkreis Rorschach"},"canton":{"key":"17","code":"SG","name":"St. Gallen"},"status":"Real"},{"key":"10133507","name":"Paradiesli","postalCode":"9403","locality":"Goldach","commune":{"key":"3213","name":"Goldach","shortName":"Goldach"},"district":{"key":"1722","name":"Wahlkreis Rorschach"},"canton":{"key":"17","code":"SG","name":"St. Gallen"},"status":"Real"},{"key":"10033376","name":"Paradiesweg","postalCode":"9403","locality":"Goldach","commune":{"key":"3213","name":"Goldach","shortName":"Goldach"},"district":{"key":"1722","name":"Wahlkreis Rorschach"},"canton":{"key":"17","code":"SG","name":"St. Gallen"},"status":"Real"},{"key":"10033377","name":"Pestalozzistrasse","postalCode":"9403","locality":"Goldach","commune":{"key":"3213","name":"Goldach","shortName":"Goldach"},"district":{"key":"1722","name":"Wahlkreis Rorschach"},"canton":{"key":"17","code":"SG","name":"St. Gallen"},"status":"Real"},{"key":"10144011","name":"Poststrasse","postalCode":"9403","locality":"Goldach","commune":{"key":"3213","name":"Goldach","shortName":"Goldach"},"district":{"key":"1722","name":"Wahlkreis Rorschach"},"canton":{"key":"17","code":"SG","name":"St. Gallen"},"status":"Real"},{"key":"10087487","name":"Promenadenstrasse","postalCode":"9403","locality":"Goldach","commune":{"key":"3213","name":"Goldach","shortName":"Goldach"},"district":{"key":"1722","name":"Wahlkreis Rorschach"},"canton":{"key":"17","code":"SG","name":"St. Gallen"},"status":"Real"},{"key":"10033378","name":"Quellenstrasse","postalCode":"9403","locality":"Goldach","commune":{"key":"3213","name":"Goldach","shortName":"Goldach"},"district":{"key":"1722","name":"Wahlkreis Rorschach"},"canton":{"key":"17","code":"SG","name":"St. Gallen"},"status":"Real"},{"key":"10144002","name":"Rantelstrasse","postalCode":"9403","locality":"Goldach","commune":{"key":"3213","name":"Goldach","shortName":"Goldach"},"district":{"key":"1722","name":"Wahlkreis Rorschach"},"canton":{"key":"17","code":"SG","name":"St. Gallen"},"status":"Real"},{"key":"10126113","name":"Rebenstrasse","postalCode":"9403","locality":"Goldach","commune":{"key":"3213","name":"Goldach","shortName":"Goldach"},"district":{"key":"1722","name":"Wahlkreis Rorschach"},"canton":{"key":"17","code":"SG","name":"St. Gallen"},"status":"Real"},{"key":"10144003","name":"Rebhaldenweg","postalCode":"9403","locality":"Goldach","commune":{"key":"3213","name":"Goldach","shortName":"Goldach"},"district":{"key":"1722","name":"Wahlkreis Rorschach"},"canton":{"key":"17","code":"SG","name":"St. Gallen"},"status":"Real"},{"key":"10188736","name":"Rietbergstrasse","postalCode":"9403","locality":"Goldach","commune":{"key":"3213","name":"Goldach","shortName":"Goldach"},"district":{"key":"1722","name":"Wahlkreis Rorschach"},"canton":{"key":"17","code":"SG","name":"St. Gallen"},"status":"Real"},{"key":"10169085","name":"Rietlistrasse","postalCode":"9403","locality":"Goldach","commune":{"key":"3213","name":"Goldach","shortName":"Goldach"},"district":{"key":"1722","name":"Wahlkreis Rorschach"},"canton":{"key":"17","code":"SG","name":"St. Gallen"},"status":"Real"},{"key":"10087488","name":"Rosenackerstrasse","postalCode":"9403","locality":"Goldach","commune":{"key":"3213","name":"Goldach","shortName":"Goldach"},"district":{"key":"1722","name":"Wahlkreis Rorschach"},"canton":{"key":"17","code":"SG","name":"St. Gallen"},"status":"Real"},{"key":"10033379","name":"Rosenweg","postalCode":"9403","locality":"Goldach","commune":{"key":"3213","name":"Goldach","shortName":"Goldach"},"district":{"key":"1722","name":"Wahlkreis Rorschach"},"canton":{"key":"17","code":"SG","name":"St. Gallen"},"status":"Real"},{"key":"10033380","name":"Rössliwiese","postalCode":"9403","locality":"Goldach","commune":{"key":"3213","name":"Goldach","shortName":"Goldach"},"district":{"key":"1722","name":"Wahlkreis Rorschach"},"canton":{"key":"17","code":"SG","name":"St. Gallen"},"status":"Real"},{"key":"10071147","name":"Rotensteinstrasse","postalCode":"9403","locality":"Goldach","commune":{"key":"3213","name":"Goldach","shortName":"Goldach"},"district":{"key":"1722","name":"Wahlkreis Rorschach"},"canton":{"key":"17","code":"SG","name":"St. Gallen"},"status":"Real"},{"key":"10145086","name":"Rütliweg","postalCode":"9403","locality":"Goldach","commune":{"key":"3213","name":"Goldach","shortName":"Goldach"},"district":{"key":"1722","name":"Wahlkreis Rorschach"},"canton":{"key":"17","code":"SG","name":"St. Gallen"},"status":"Real"},{"key":"10033390","name":"Sägestrasse","postalCode":"9403","locality":"Goldach","commune":{"key":"3213","name":"Goldach","shortName":"Goldach"},"district":{"key":"1722","name":"Wahlkreis Rorschach"},"canton":{"key":"17","code":"SG","name":"St. Gallen"},"status":"Real"},{"key":"10249973","name":"Sägeweg","postalCode":"9403","locality":"Goldach","commune":{"key":"3213","name":"Goldach","shortName":"Goldach"},"district":{"key":"1722","name":"Wahlkreis Rorschach"},"canton":{"key":"17","code":"SG","name":"St. Gallen"},"status":"Real"},{"key":"10145085","name":"Sangenweg","postalCode":"9403","locality":"Goldach","commune":{"key":"3213","name":"Goldach","shortName":"Goldach"},"district":{"key":"1722","name":"Wahlkreis Rorschach"},"canton":{"key":"17","code":"SG","name":"St. Gallen"},"status":"Real"},{"key":"10033381","name":"Schmiedgasse","postalCode":"9403","locality":"Goldach","commune":{"key":"3213","name":"Goldach","shortName":"Goldach"},"district":{"key":"1722","name":"Wahlkreis Rorschach"},"canton":{"key":"17","code":"SG","name":"St. Gallen"},"status":"Real"},{"key":"10103359","name":"Schülerweg","postalCode":"9403","locality":"Goldach","commune":{"key":"3213","name":"Goldach","shortName":"Goldach"},"district":{"key":"1722","name":"Wahlkreis Rorschach"},"canton":{"key":"17","code":"SG","name":"St. Gallen"},"status":"Real"},{"key":"10033382","name":"Schulstrasse","postalCode":"9403","locality":"Goldach","commune":{"key":"3213","name":"Goldach","shortName":"Goldach"},"district":{"key":"1722","name":"Wahlkreis Rorschach"},"canton":{"key":"17","code":"SG","name":"St. Gallen"},"status":"Real"},{"key":"10192092","name":"Schuppis","postalCode":"9403","locality":"Goldach","commune":{"key":"3213","name":"Goldach","shortName":"Goldach"},"district":{"key":"1722","name":"Wahlkreis Rorschach"},"canton":{"key":"17","code":"SG","name":"St. Gallen"},"status":"Real"},{"key":"10087489","name":"Schuppisstrasse","postalCode":"9403","locality":"Goldach","commune":{"key":"3213","name":"Goldach","shortName":"Goldach"},"district":{"key":"1722","name":"Wahlkreis Rorschach"},"canton":{"key":"17","code":"SG","name":"St. Gallen"},"status":"Real"},{"key":"10249977","name":"Schuppisweg","postalCode":"9403","locality":"Goldach","commune":{"key":"3213","name":"Goldach","shortName":"Goldach"},"district":{"key":"1722","name":"Wahlkreis Rorschach"},"canton":{"key":"17","code":"SG","name":"St. Gallen"},"status":"Real"},{"key":"10229891","name":"Schützenwiesweg","postalCode":"9403","locality":"Goldach","commune":{"key":"3213","name":"Goldach","shortName":"Goldach"},"district":{"key":"1722","name":"Wahlkreis Rorschach"},"canton":{"key":"17","code":"SG","name":"St. Gallen"},"status":"Real"},{"key":"10130450","name":"Seeblickstrasse","postalCode":"9403","locality":"Goldach","commune":{"key":"3213","name":"Goldach","shortName":"Goldach"},"district":{"key":"1722","name":"Wahlkreis Rorschach"},"canton":{"key":"17","code":"SG","name":"St. Gallen"},"status":"Real"},{"key":"10071148","name":"Seebüelstrasse","postalCode":"9403","locality":"Goldach","commune":{"key":"3213","name":"Goldach","shortName":"Goldach"},"district":{"key":"1722","name":"Wahlkreis Rorschach"},"canton":{"key":"17","code":"SG","name":"St. Gallen"},"status":"Real"},{"key":"10033383","name":"Seefeldstrasse","postalCode":"9403","locality":"Goldach","commune":{"key":"3213","name":"Goldach","shortName":"Goldach"},"district":{"key":"1722","name":"Wahlkreis Rorschach"},"canton":{"key":"17","code":"SG","name":"St. Gallen"},"status":"Real"},{"key":"10087490","name":"Seeheimstrasse","postalCode":"9403","locality":"Goldach","commune":{"key":"3213","name":"Goldach","shortName":"Goldach"},"district":{"key":"1722","name":"Wahlkreis Rorschach"},"canton":{"key":"17","code":"SG","name":"St. Gallen"},"status":"Real"},{"key":"10229912","name":"Seepromenade","postalCode":"9403","locality":"Goldach","commune":{"key":"3213","name":"Goldach","shortName":"Goldach"},"district":{"key":"1722","name":"Wahlkreis Rorschach"},"canton":{"key":"17","code":"SG","name":"St. Gallen"},"status":"Real"},{"key":"10033384","name":"Seestrasse","postalCode":"9403","locality":"Goldach","commune":{"key":"3213","name":"Goldach","shortName":"Goldach"},"district":{"key":"1722","name":"Wahlkreis Rorschach"},"canton":{"key":"17","code":"SG","name":"St. Gallen"},"status":"Real"},{"key":"10033385","name":"Seeweg","postalCode":"9403","locality":"Goldach","commune":{"key":"3213","name":"Goldach","shortName":"Goldach"},"district":{"key":"1722","name":"Wahlkreis Rorschach"},"canton":{"key":"17","code":"SG","name":"St. Gallen"},"status":"Real"},{"key":"10122106","name":"Seewiesstrasse","postalCode":"9403","locality":"Goldach","commune":{"key":"3213","name":"Goldach","shortName":"Goldach"},"district":{"key":"1722","name":"Wahlkreis Rorschach"},"canton":{"key":"17","code":"SG","name":"St. Gallen"},"status":"Real"},{"key":"10033386","name":"Seewydenstrasse","postalCode":"9403","locality":"Goldach","commune":{"key":"3213","name":"Goldach","shortName":"Goldach"},"district":{"key":"1722","name":"Wahlkreis Rorschach"},"canton":{"key":"17","code":"SG","name":"St. Gallen"},"status":"Real"},{"key":"10145095","name":"Seewydenweg","postalCode":"9403","locality":"Goldach","commune":{"key":"3213","name":"Goldach","shortName":"Goldach"},"district":{"key":"1722","name":"Wahlkreis Rorschach"},"canton":{"key":"17","code":"SG","name":"St. Gallen"},"status":"Real"},{"key":"10087491","name":"Sonnenhaldenstrasse","postalCode":"9403","locality":"Goldach","commune":{"key":"3213","name":"Goldach","shortName":"Goldach"},"district":{"key":"1722","name":"Wahlkreis Rorschach"},"canton":{"key":"17","code":"SG","name":"St. Gallen"},"status":"Real"},{"key":"10229936","name":"Sonnentalweg","postalCode":"9403","locality":"Goldach","commune":{"key":"3213","name":"Goldach","shortName":"Goldach"},"district":{"key":"1722","name":"Wahlkreis Rorschach"},"canton":{"key":"17","code":"SG","name":"St. Gallen"},"status":"Real"},{"key":"10188737","name":"Sonnenweg","postalCode":"9403","locality":"Goldach","commune":{"key":"3213","name":"Goldach","shortName":"Goldach"},"district":{"key":"1722","name":"Wahlkreis Rorschach"},"canton":{"key":"17","code":"SG","name":"St. Gallen"},"status":"Real"},{"key":"10144004","name":"Spättigstrasse","postalCode":"9403","locality":"Goldach","commune":{"key":"3213","name":"Goldach","shortName":"Goldach"},"district":{"key":"1722","name":"Wahlkreis Rorschach"},"canton":{"key":"17","code":"SG","name":"St. Gallen"},"status":"Real"},{"key":"10144902","name":"Sportfeldstrasse","postalCode":"9403","locality":"Goldach","commune":{"key":"3213","name":"Goldach","shortName":"Goldach"},"district":{"key":"1722","name":"Wahlkreis Rorschach"},"canton":{"key":"17","code":"SG","name":"St. Gallen"},"status":"Real"},{"key":"10117145","name":"Städelistrasse","postalCode":"9403","locality":"Goldach","commune":{"key":"3213","name":"Goldach","shortName":"Goldach"},"district":{"key":"1722","name":"Wahlkreis Rorschach"},"canton":{"key":"17","code":"SG","name":"St. Gallen"},"status":"Real"},{"key":"10033387","name":"Staudenäckerstrasse","postalCode":"9403","locality":"Goldach","commune":{"key":"3213","name":"Goldach","shortName":"Goldach"},"district":{"key":"1722","name":"Wahlkreis Rorschach"},"canton":{"key":"17","code":"SG","name":"St. Gallen"},"status":"Real"},{"key":"10231474","name":"Staudenäckerweg","postalCode":"9403","locality":"Goldach","commune":{"key":"3213","name":"Goldach","shortName":"Goldach"},"district":{"key":"1722","name":"Wahlkreis Rorschach"},"canton":{"key":"17","code":"SG","name":"St. Gallen"},"status":"Real"},{"key":"10072277","name":"Stelzenrebenstrasse","postalCode":"9403","locality":"Goldach","commune":{"key":"3213","name":"Goldach","shortName":"Goldach"},"district":{"key":"1722","name":"Wahlkreis Rorschach"},"canton":{"key":"17","code":"SG","name":"St. Gallen"},"status":"Real"},{"key":"10145096","name":"Stelzenrebenweg","postalCode":"9403","locality":"Goldach","commune":{"key":"3213","name":"Goldach","shortName":"Goldach"},"district":{"key":"1722","name":"Wahlkreis Rorschach"},"canton":{"key":"17","code":"SG","name":"St. Gallen"},"status":"Real"},{"key":"10033388","name":"Stelzenweg","postalCode":"9403","locality":"Goldach","commune":{"key":"3213","name":"Goldach","shortName":"Goldach"},"district":{"key":"1722","name":"Wahlkreis Rorschach"},"canton":{"key":"17","code":"SG","name":"St. Gallen"},"status":"Real"},{"key":"10128952","name":"St. Gallerstrasse","postalCode":"9403","locality":"Goldach","commune":{"key":"3213","name":"Goldach","shortName":"Goldach"},"district":{"key":"1722","name":"Wahlkreis Rorschach"},"canton":{"key":"17","code":"SG","name":"St. Gallen"},"status":"Real"},{"key":"10145097","name":"Strandweg","postalCode":"9403","locality":"Goldach","commune":{"key":"3213","name":"Goldach","shortName":"Goldach"},"district":{"key":"1722","name":"Wahlkreis Rorschach"},"canton":{"key":"17","code":"SG","name":"St. Gallen"},"status":"Real"},{"key":"10033389","name":"Sulzstrasse","postalCode":"9403","locality":"Goldach","commune":{"key":"3213","name":"Goldach","shortName":"Goldach"},"district":{"key":"1722","name":"Wahlkreis Rorschach"},"canton":{"key":"17","code":"SG","name":"St. Gallen"},"status":"Real"},{"key":"10033391","name":"Tellstrasse","postalCode":"9403","locality":"Goldach","commune":{"key":"3213","name":"Goldach","shortName":"Goldach"},"district":{"key":"1722","name":"Wahlkreis Rorschach"},"canton":{"key":"17","code":"SG","name":"St. Gallen"},"status":"Real"},{"key":"10087492","name":"Terminusstrasse","postalCode":"9403","locality":"Goldach","commune":{"key":"3213","name":"Goldach","shortName":"Goldach"},"district":{"key":"1722","name":"Wahlkreis Rorschach"},"canton":{"key":"17","code":"SG","name":"St. Gallen"},"status":"Real"},{"key":"10144005","name":"Thannäckerstrasse","postalCode":"9403","locality":"Goldach","commune":{"key":"3213","name":"Goldach","shortName":"Goldach"},"district":{"key":"1722","name":"Wahlkreis Rorschach"},"canton":{"key":"17","code":"SG","name":"St. Gallen"},"status":"Real"},{"key":"10249981","name":"Thannäckerweg","postalCode":"9403","locality":"Goldach","commune":{"key":"3213","name":"Goldach","shortName":"Goldach"},"district":{"key":"1722","name":"Wahlkreis Rorschach"},"canton":{"key":"17","code":"SG","name":"St. Gallen"},"status":"Real"},{"key":"10186421","name":"Thannstrasse","postalCode":"9403","locality":"Goldach","commune":{"key":"3213","name":"Goldach","shortName":"Goldach"},"district":{"key":"1722","name":"Wahlkreis Rorschach"},"canton":{"key":"17","code":"SG","name":"St. Gallen"},"status":"Real"},{"key":"10188738","name":"Tübacherstrasse","postalCode":"9403","locality":"Goldach","commune":{"key":"3213","name":"Goldach","shortName":"Goldach"},"district":{"key":"1722","name":"Wahlkreis Rorschach"},"canton":{"key":"17","code":"SG","name":"St. Gallen"},"status":"Real"},{"key":"10187601","name":"Ulrich-Rösch-Strasse","postalCode":"9403","locality":"Goldach","commune":{"key":"3213","name":"Goldach","shortName":"Goldach"},"district":{"key":"1722","name":"Wahlkreis Rorschach"},"canton":{"key":"17","code":"SG","name":"St. Gallen"},"status":"Real"},{"key":"10226154","name":"Ulrich-Rösch-Weg","postalCode":"9403","locality":"Goldach","commune":{"key":"3213","name":"Goldach","shortName":"Goldach"},"district":{"key":"1722","name":"Wahlkreis Rorschach"},"canton":{"key":"17","code":"SG","name":"St. Gallen"},"status":"Real"},{"key":"10087493","name":"Unionstrasse","postalCode":"9403","locality":"Goldach","commune":{"key":"3213","name":"Goldach","shortName":"Goldach"},"district":{"key":"1722","name":"Wahlkreis Rorschach"},"canton":{"key":"17","code":"SG","name":"St. Gallen"},"status":"Real"},{"key":"10033392","name":"Untereggerstrasse","postalCode":"9403","locality":"Goldach","commune":{"key":"3213","name":"Goldach","shortName":"Goldach"},"district":{"key":"1722","name":"Wahlkreis Rorschach"},"canton":{"key":"17","code":"SG","name":"St. Gallen"},"status":"Real"},{"key":"10072278","name":"Unterstrasse","postalCode":"9403","locality":"Goldach","commune":{"key":"3213","name":"Goldach","shortName":"Goldach"},"district":{"key":"1722","name":"Wahlkreis Rorschach"},"canton":{"key":"17","code":"SG","name":"St. Gallen"},"status":"Real"},{"key":"10144007","name":"Unterweidstrasse","postalCode":"9403","locality":"Goldach","commune":{"key":"3213","name":"Goldach","shortName":"Goldach"},"district":{"key":"1722","name":"Wahlkreis Rorschach"},"canton":{"key":"17","code":"SG","name":"St. Gallen"},"status":"Real"},{"key":"10103360","name":"Warteggweg","postalCode":"9403","locality":"Goldach","commune":{"key":"3213","name":"Goldach","shortName":"Goldach"},"district":{"key":"1722","name":"Wahlkreis Rorschach"},"canton":{"key":"17","code":"SG","name":"St. Gallen"},"status":"Real"},{"key":"10145098","name":"Weidweg","postalCode":"9403","locality":"Goldach","commune":{"key":"3213","name":"Goldach","shortName":"Goldach"},"district":{"key":"1722","name":"Wahlkreis Rorschach"},"canton":{"key":"17","code":"SG","name":"St. Gallen"},"status":"Real"},{"key":"10087494","name":"Weierstrasse","postalCode":"9403","locality":"Goldach","commune":{"key":"3213","name":"Goldach","shortName":"Goldach"},"district":{"key":"1722","name":"Wahlkreis Rorschach"},"canton":{"key":"17","code":"SG","name":"St. Gallen"},"status":"Real"},{"key":"10033393","name":"Weinhaldenstrasse","postalCode":"9403","locality":"Goldach","commune":{"key":"3213","name":"Goldach","shortName":"Goldach"},"district":{"key":"1722","name":"Wahlkreis Rorschach"},"canton":{"key":"17","code":"SG","name":"St. Gallen"},"status":"Real"},{"key":"10033394","name":"Wiesenstrasse","postalCode":"9403","locality":"Goldach","commune":{"key":"3213","name":"Goldach","shortName":"Goldach"},"district":{"key":"1722","name":"Wahlkreis Rorschach"},"canton":{"key":"17","code":"SG","name":"St. Gallen"},"status":"Real"},{"key":"10101160","name":"Wiesentalweg","postalCode":"9403","locality":"Goldach","commune":{"key":"3213","name":"Goldach","shortName":"Goldach"},"district":{"key":"1722","name":"Wahlkreis Rorschach"},"canton":{"key":"17","code":"SG","name":"St. Gallen"},"status":"Real"},{"key":"10144006","name":"Witenbachweg","postalCode":"9403","locality":"Goldach","commune":{"key":"3213","name":"Goldach","shortName":"Goldach"},"district":{"key":"1722","name":"Wahlkreis Rorschach"},"canton":{"key":"17","code":"SG","name":"St. Gallen"},"status":"Real"},{"key":"10087495","name":"Witenholzstrasse","postalCode":"9403","locality":"Goldach","commune":{"key":"3213","name":"Goldach","shortName":"Goldach"},"district":{"key":"1722","name":"Wahlkreis Rorschach"},"canton":{"key":"17","code":"SG","name":"St. Gallen"},"status":"Real"},{"key":"10033395","name":"Wuhr","postalCode":"9403","locality":"Goldach","commune":{"key":"3213","name":"Goldach","shortName":"Goldach"},"district":{"key":"1722","name":"Wahlkreis Rorschach"},"canton":{"key":"17","code":"SG","name":"St. Gallen"},"status":"Real"},{"key":"10033396","name":"Wuhrstrasse","postalCode":"9403","locality":"Goldach","commune":{"key":"3213","name":"Goldach","shortName":"Goldach"},"district":{"key":"1722","name":"Wahlkreis Rorschach"},"canton":{"key":"17","code":"SG","name":"St. Gallen"},"status":"Real"},{"key":"10145099","name":"Württembergerweg","postalCode":"9403","locality":"Goldach","commune":{"key":"3213","name":"Goldach","shortName":"Goldach"},"district":{"key":"1722","name":"Wahlkreis Rorschach"},"canton":{"key":"17","code":"SG","name":"St. Gallen"},"status":"Real"},{"key":"10046684","name":"Zentralstrasse","postalCode":"9403","locality":"Goldach","commune":{"key":"3213","name":"Goldach","shortName":"Goldach"},"district":{"key":"1722","name":"Wahlkreis Rorschach"},"canton":{"key":"17","code":"SG","name":"St. Gallen"},"status":"Real"},]