[{"key":"10250688","name":"Aachstrasse","postalCode":"9437","locality":"Marbach SG","commune":{"key":"3035","name":"Reute (AR)","shortName":"Reute (AR)"},"district":{"key":"1503","name":"Bezirk Vorderland"},"canton":{"key":"15","code":"AR","name":"Appenzell Ausserrhoden"},"status":"Real"},{"key":"10231712","name":"Alte Angerstrasse","postalCode":"9437","locality":"Marbach SG","commune":{"key":"3035","name":"Reute (AR)","shortName":"Reute (AR)"},"district":{"key":"1503","name":"Bezirk Vorderland"},"canton":{"key":"15","code":"AR","name":"Appenzell Ausserrhoden"},"status":"Real"},{"key":"10033196","name":"Alte Landstrasse","postalCode":"9437","locality":"Marbach SG","commune":{"key":"3035","name":"Reute (AR)","shortName":"Reute (AR)"},"district":{"key":"1503","name":"Bezirk Vorderland"},"canton":{"key":"15","code":"AR","name":"Appenzell Ausserrhoden"},"status":"Real"},{"key":"10062726","name":"Alter Anger","postalCode":"9437","locality":"Marbach SG","commune":{"key":"3035","name":"Reute (AR)","shortName":"Reute (AR)"},"district":{"key":"1503","name":"Bezirk Vorderland"},"canton":{"key":"15","code":"AR","name":"Appenzell Ausserrhoden"},"status":"Real"},{"key":"10033197","name":"Amtackerstrasse","postalCode":"9437","locality":"Marbach SG","commune":{"key":"3035","name":"Reute (AR)","shortName":"Reute (AR)"},"district":{"key":"1503","name":"Bezirk Vorderland"},"canton":{"key":"15","code":"AR","name":"Appenzell Ausserrhoden"},"status":"Real"},{"key":"10101187","name":"Angerhof","postalCode":"9437","locality":"Marbach SG","commune":{"key":"3035","name":"Reute (AR)","shortName":"Reute (AR)"},"district":{"key":"1503","name":"Bezirk Vorderland"},"canton":{"key":"15","code":"AR","name":"Appenzell Ausserrhoden"},"status":"Real"},{"key":"10200325","name":"Apfelbaumstrasse","postalCode":"9437","locality":"Marbach SG","commune":{"key":"3035","name":"Reute (AR)","shortName":"Reute (AR)"},"district":{"key":"1503","name":"Bezirk Vorderland"},"canton":{"key":"15","code":"AR","name":"Appenzell Ausserrhoden"},"status":"Real"},{"key":"10231720","name":"Asiloweg","postalCode":"9437","locality":"Marbach SG","commune":{"key":"3035","name":"Reute (AR)","shortName":"Reute (AR)"},"district":{"key":"1503","name":"Bezirk Vorderland"},"canton":{"key":"15","code":"AR","name":"Appenzell Ausserrhoden"},"status":"Real"},{"key":"10232725","name":"Aspernweg","postalCode":"9437","locality":"Marbach SG","commune":{"key":"3035","name":"Reute (AR)","shortName":"Reute (AR)"},"district":{"key":"1503","name":"Bezirk Vorderland"},"canton":{"key":"15","code":"AR","name":"Appenzell Ausserrhoden"},"status":"Real"},{"key":"10191968","name":"Auenwies","postalCode":"9437","locality":"Marbach SG","commune":{"key":"3035","name":"Reute (AR)","shortName":"Reute (AR)"},"district":{"key":"1503","name":"Bezirk Vorderland"},"canton":{"key":"15","code":"AR","name":"Appenzell Ausserrhoden"},"status":"Real"},{"key":"10231724","name":"Auenwiesgasse","postalCode":"9437","locality":"Marbach SG","commune":{"key":"3035","name":"Reute (AR)","shortName":"Reute (AR)"},"district":{"key":"1503","name":"Bezirk Vorderland"},"canton":{"key":"15","code":"AR","name":"Appenzell Ausserrhoden"},"status":"Real"},{"key":"10199175","name":"Bachstrasse","postalCode":"9437","locality":"Marbach SG","commune":{"key":"3035","name":"Reute (AR)","shortName":"Reute (AR)"},"district":{"key":"1503","name":"Bezirk Vorderland"},"canton":{"key":"15","code":"AR","name":"Appenzell Ausserrhoden"},"status":"Real"},{"key":"10033198","name":"Bahnhofstrasse","postalCode":"9437","locality":"Marbach SG","commune":{"key":"3035","name":"Reute (AR)","shortName":"Reute (AR)"},"district":{"key":"1503","name":"Bezirk Vorderland"},"canton":{"key":"15","code":"AR","name":"Appenzell Ausserrhoden"},"status":"Real"},{"key":"10231736","name":"Bahnhofweg","postalCode":"9437","locality":"Marbach SG","commune":{"key":"3035","name":"Reute (AR)","shortName":"Reute (AR)"},"district":{"key":"1503","name":"Bezirk Vorderland"},"canton":{"key":"15","code":"AR","name":"Appenzell Ausserrhoden"},"status":"Real"},{"key":"10184451","name":"Bergstrasse","postalCode":"9437","locality":"Marbach SG","commune":{"key":"3035","name":"Reute (AR)","shortName":"Reute (AR)"},"district":{"key":"1503","name":"Bezirk Vorderland"},"canton":{"key":"15","code":"AR","name":"Appenzell Ausserrhoden"},"status":"Real"},{"key":"10093670","name":"Bildmadstrasse","postalCode":"9437","locality":"Marbach SG","commune":{"key":"3035","name":"Reute (AR)","shortName":"Reute (AR)"},"district":{"key":"1503","name":"Bezirk Vorderland"},"canton":{"key":"15","code":"AR","name":"Appenzell Ausserrhoden"},"status":"Real"},{"key":"10231740","name":"Bildmadweg","postalCode":"9437","locality":"Marbach SG","commune":{"key":"3035","name":"Reute (AR)","shortName":"Reute (AR)"},"district":{"key":"1503","name":"Bezirk Vorderland"},"canton":{"key":"15","code":"AR","name":"Appenzell Ausserrhoden"},"status":"Real"},{"key":"10184666","name":"Binsen","postalCode":"9437","locality":"Marbach SG","commune":{"key":"3035","name":"Reute (AR)","shortName":"Reute (AR)"},"district":{"key":"1503","name":"Bezirk Vorderland"},"canton":{"key":"15","code":"AR","name":"Appenzell Ausserrhoden"},"status":"Real"},{"key":"10231744","name":"Binsenstrasse","postalCode":"9437","locality":"Marbach SG","commune":{"key":"3035","name":"Reute (AR)","shortName":"Reute (AR)"},"district":{"key":"1503","name":"Bezirk Vorderland"},"canton":{"key":"15","code":"AR","name":"Appenzell Ausserrhoden"},"status":"Real"},{"key":"10231752","name":"Blasenbergstrasse","postalCode":"9437","locality":"Marbach SG","commune":{"key":"3035","name":"Reute (AR)","shortName":"Reute (AR)"},"district":{"key":"1503","name":"Bezirk Vorderland"},"canton":{"key":"15","code":"AR","name":"Appenzell Ausserrhoden"},"status":"Real"},{"key":"10231756","name":"Blattackerweg","postalCode":"9437","locality":"Marbach SG","commune":{"key":"3035","name":"Reute (AR)","shortName":"Reute (AR)"},"district":{"key":"1503","name":"Bezirk Vorderland"},"canton":{"key":"15","code":"AR","name":"Appenzell Ausserrhoden"},"status":"Real"},{"key":"10062727","name":"Bleiche","postalCode":"9437","locality":"Marbach SG","commune":{"key":"3035","name":"Reute (AR)","shortName":"Reute (AR)"},"district":{"key":"1503","name":"Bezirk Vorderland"},"canton":{"key":"15","code":"AR","name":"Appenzell Ausserrhoden"},"status":"Real"},{"key":"10233983","name":"Bleichestrasse","postalCode":"9437","locality":"Marbach SG","commune":{"key":"3035","name":"Reute (AR)","shortName":"Reute (AR)"},"district":{"key":"1503","name":"Bezirk Vorderland"},"canton":{"key":"15","code":"AR","name":"Appenzell Ausserrhoden"},"status":"Real"},{"key":"10233986","name":"Brüggligasse","postalCode":"9437","locality":"Marbach SG","commune":{"key":"3035","name":"Reute (AR)","shortName":"Reute (AR)"},"district":{"key":"1503","name":"Bezirk Vorderland"},"canton":{"key":"15","code":"AR","name":"Appenzell Ausserrhoden"},"status":"Real"},{"key":"10233989","name":"Brüggliweg","postalCode":"9437","locality":"Marbach SG","commune":{"key":"3035","name":"Reute (AR)","shortName":"Reute (AR)"},"district":{"key":"1503","name":"Bezirk Vorderland"},"canton":{"key":"15","code":"AR","name":"Appenzell Ausserrhoden"},"status":"Real"},{"key":"10189295","name":"Bruggtobel","postalCode":"9437","locality":"Marbach SG","commune":{"key":"3035","name":"Reute (AR)","shortName":"Reute (AR)"},"district":{"key":"1503","name":"Bezirk Vorderland"},"canton":{"key":"15","code":"AR","name":"Appenzell Ausserrhoden"},"status":"Real"},{"key":"10233993","name":"Bruggtobelweg","postalCode":"9437","locality":"Marbach SG","commune":{"key":"3035","name":"Reute (AR)","shortName":"Reute (AR)"},"district":{"key":"1503","name":"Bezirk Vorderland"},"canton":{"key":"15","code":"AR","name":"Appenzell Ausserrhoden"},"status":"Real"},{"key":"10233996","name":"Brühlstrasse","postalCode":"9437","locality":"Marbach SG","commune":{"key":"3035","name":"Reute (AR)","shortName":"Reute (AR)"},"district":{"key":"1503","name":"Bezirk Vorderland"},"canton":{"key":"15","code":"AR","name":"Appenzell Ausserrhoden"},"status":"Real"},{"key":"10033199","name":"Brunnenackerstrasse","postalCode":"9437","locality":"Marbach SG","commune":{"key":"3035","name":"Reute (AR)","shortName":"Reute (AR)"},"district":{"key":"1503","name":"Bezirk Vorderland"},"canton":{"key":"15","code":"AR","name":"Appenzell Ausserrhoden"},"status":"Real"},{"key":"10168492","name":"Bundesrat-Kobeltstrasse","postalCode":"9437","locality":"Marbach SG","commune":{"key":"3035","name":"Reute (AR)","shortName":"Reute (AR)"},"district":{"key":"1503","name":"Bezirk Vorderland"},"canton":{"key":"15","code":"AR","name":"Appenzell Ausserrhoden"},"status":"Real"},{"key":"10234001","name":"Bundesratweg","postalCode":"9437","locality":"Marbach SG","commune":{"key":"3035","name":"Reute (AR)","shortName":"Reute (AR)"},"district":{"key":"1503","name":"Bezirk Vorderland"},"canton":{"key":"15","code":"AR","name":"Appenzell Ausserrhoden"},"status":"Real"},{"key":"10234004","name":"Dahlienstrasse","postalCode":"9437","locality":"Marbach SG","commune":{"key":"3035","name":"Reute (AR)","shortName":"Reute (AR)"},"district":{"key":"1503","name":"Bezirk Vorderland"},"canton":{"key":"15","code":"AR","name":"Appenzell Ausserrhoden"},"status":"Real"},{"key":"10234008","name":"Eggergasse","postalCode":"9437","locality":"Marbach SG","commune":{"key":"3035","name":"Reute (AR)","shortName":"Reute (AR)"},"district":{"key":"1503","name":"Bezirk Vorderland"},"canton":{"key":"15","code":"AR","name":"Appenzell Ausserrhoden"},"status":"Real"},{"key":"10093671","name":"Eggerstrasse","postalCode":"9437","locality":"Marbach SG","commune":{"key":"3035","name":"Reute (AR)","shortName":"Reute (AR)"},"district":{"key":"1503","name":"Bezirk Vorderland"},"canton":{"key":"15","code":"AR","name":"Appenzell Ausserrhoden"},"status":"Real"},{"key":"10234013","name":"Eggerweg","postalCode":"9437","locality":"Marbach SG","commune":{"key":"3035","name":"Reute (AR)","shortName":"Reute (AR)"},"district":{"key":"1503","name":"Bezirk Vorderland"},"canton":{"key":"15","code":"AR","name":"Appenzell Ausserrhoden"},"status":"Real"},{"key":"10033201","name":"Ehrenberg","postalCode":"9437","locality":"Marbach SG","commune":{"key":"3035","name":"Reute (AR)","shortName":"Reute (AR)"},"district":{"key":"1503","name":"Bezirk Vorderland"},"canton":{"key":"15","code":"AR","name":"Appenzell Ausserrhoden"},"status":"Real"},{"key":"10234017","name":"Ehrenbergweg","postalCode":"9437","locality":"Marbach SG","commune":{"key":"3035","name":"Reute (AR)","shortName":"Reute (AR)"},"district":{"key":"1503","name":"Bezirk Vorderland"},"canton":{"key":"15","code":"AR","name":"Appenzell Ausserrhoden"},"status":"Real"},{"key":"10033202","name":"Einstichgasse","postalCode":"9437","locality":"Marbach SG","commune":{"key":"3035","name":"Reute (AR)","shortName":"Reute (AR)"},"district":{"key":"1503","name":"Bezirk Vorderland"},"canton":{"key":"15","code":"AR","name":"Appenzell Ausserrhoden"},"status":"Real"},{"key":"10234020","name":"Einstichweg","postalCode":"9437","locality":"Marbach SG","commune":{"key":"3035","name":"Reute (AR)","shortName":"Reute (AR)"},"district":{"key":"1503","name":"Bezirk Vorderland"},"canton":{"key":"15","code":"AR","name":"Appenzell Ausserrhoden"},"status":"Real"},{"key":"10234024","name":"Eisenriet","postalCode":"9437","locality":"Marbach SG","commune":{"key":"3035","name":"Reute (AR)","shortName":"Reute (AR)"},"district":{"key":"1503","name":"Bezirk Vorderland"},"canton":{"key":"15","code":"AR","name":"Appenzell Ausserrhoden"},"status":"Real"},{"key":"10234029","name":"Eisenrietstrasse","postalCode":"9437","locality":"Marbach SG","commune":{"key":"3035","name":"Reute (AR)","shortName":"Reute (AR)"},"district":{"key":"1503","name":"Bezirk Vorderland"},"canton":{"key":"15","code":"AR","name":"Appenzell Ausserrhoden"},"status":"Real"},{"key":"10033203","name":"Entenbad","postalCode":"9437","locality":"Marbach SG","commune":{"key":"3035","name":"Reute (AR)","shortName":"Reute (AR)"},"district":{"key":"1503","name":"Bezirk Vorderland"},"canton":{"key":"15","code":"AR","name":"Appenzell Ausserrhoden"},"status":"Real"},{"key":"10233802","name":"Entenbadgasse","postalCode":"9437","locality":"Marbach SG","commune":{"key":"3035","name":"Reute (AR)","shortName":"Reute (AR)"},"district":{"key":"1503","name":"Bezirk Vorderland"},"canton":{"key":"15","code":"AR","name":"Appenzell Ausserrhoden"},"status":"Real"},{"key":"10233806","name":"Entenbadstrasse","postalCode":"9437","locality":"Marbach SG","commune":{"key":"3035","name":"Reute (AR)","shortName":"Reute (AR)"},"district":{"key":"1503","name":"Bezirk Vorderland"},"canton":{"key":"15","code":"AR","name":"Appenzell Ausserrhoden"},"status":"Real"},{"key":"10070629","name":"Erlenmadstrasse","postalCode":"9437","locality":"Marbach SG","commune":{"key":"3035","name":"Reute (AR)","shortName":"Reute (AR)"},"district":{"key":"1503","name":"Bezirk Vorderland"},"canton":{"key":"15","code":"AR","name":"Appenzell Ausserrhoden"},"status":"Real"},{"key":"10233814","name":"Faulmadstrasse","postalCode":"9437","locality":"Marbach SG","commune":{"key":"3035","name":"Reute (AR)","shortName":"Reute (AR)"},"district":{"key":"1503","name":"Bezirk Vorderland"},"canton":{"key":"15","code":"AR","name":"Appenzell Ausserrhoden"},"status":"Real"},{"key":"10057149","name":"Faziloo","postalCode":"9437","locality":"Marbach SG","commune":{"key":"3035","name":"Reute (AR)","shortName":"Reute (AR)"},"district":{"key":"1503","name":"Bezirk Vorderland"},"canton":{"key":"15","code":"AR","name":"Appenzell Ausserrhoden"},"status":"Real"},{"key":"10062728","name":"Faziloo","postalCode":"9437","locality":"Marbach SG","commune":{"key":"3035","name":"Reute (AR)","shortName":"Reute (AR)"},"district":{"key":"1503","name":"Bezirk Vorderland"},"canton":{"key":"15","code":"AR","name":"Appenzell Ausserrhoden"},"status":"Real"},{"key":"10233818","name":"Faziloogasse","postalCode":"9437","locality":"Marbach SG","commune":{"key":"3035","name":"Reute (AR)","shortName":"Reute (AR)"},"district":{"key":"1503","name":"Bezirk Vorderland"},"canton":{"key":"15","code":"AR","name":"Appenzell Ausserrhoden"},"status":"Real"},{"key":"10167346","name":"Faziloogasse","postalCode":"9437","locality":"Marbach SG","commune":{"key":"3035","name":"Reute (AR)","shortName":"Reute (AR)"},"district":{"key":"1503","name":"Bezirk Vorderland"},"canton":{"key":"15","code":"AR","name":"Appenzell Ausserrhoden"},"status":"Real"},{"key":"10232756","name":"Fazilooweg","postalCode":"9437","locality":"Marbach SG","commune":{"key":"3035","name":"Reute (AR)","shortName":"Reute (AR)"},"district":{"key":"1503","name":"Bezirk Vorderland"},"canton":{"key":"15","code":"AR","name":"Appenzell Ausserrhoden"},"status":"Real"},{"key":"10093672","name":"Feldstrasse","postalCode":"9437","locality":"Marbach SG","commune":{"key":"3035","name":"Reute (AR)","shortName":"Reute (AR)"},"district":{"key":"1503","name":"Bezirk Vorderland"},"canton":{"key":"15","code":"AR","name":"Appenzell Ausserrhoden"},"status":"Real"},{"key":"10233822","name":"Feldweg","postalCode":"9437","locality":"Marbach SG","commune":{"key":"3035","name":"Reute (AR)","shortName":"Reute (AR)"},"district":{"key":"1503","name":"Bezirk Vorderland"},"canton":{"key":"15","code":"AR","name":"Appenzell Ausserrhoden"},"status":"Real"},{"key":"10233826","name":"Fliegenmadstrasse","postalCode":"9437","locality":"Marbach SG","commune":{"key":"3035","name":"Reute (AR)","shortName":"Reute (AR)"},"district":{"key":"1503","name":"Bezirk Vorderland"},"canton":{"key":"15","code":"AR","name":"Appenzell Ausserrhoden"},"status":"Real"},{"key":"10233830","name":"Flügufweg","postalCode":"9437","locality":"Marbach SG","commune":{"key":"3035","name":"Reute (AR)","shortName":"Reute (AR)"},"district":{"key":"1503","name":"Bezirk Vorderland"},"canton":{"key":"15","code":"AR","name":"Appenzell Ausserrhoden"},"status":"Real"},{"key":"10233834","name":"Flurgasse","postalCode":"9437","locality":"Marbach SG","commune":{"key":"3035","name":"Reute (AR)","shortName":"Reute (AR)"},"district":{"key":"1503","name":"Bezirk Vorderland"},"canton":{"key":"15","code":"AR","name":"Appenzell Ausserrhoden"},"status":"Real"},{"key":"10033204","name":"Flurstrasse","postalCode":"9437","locality":"Marbach SG","commune":{"key":"3035","name":"Reute (AR)","shortName":"Reute (AR)"},"district":{"key":"1503","name":"Bezirk Vorderland"},"canton":{"key":"15","code":"AR","name":"Appenzell Ausserrhoden"},"status":"Real"},{"key":"10233842","name":"Fortergasse","postalCode":"9437","locality":"Marbach SG","commune":{"key":"3035","name":"Reute (AR)","shortName":"Reute (AR)"},"district":{"key":"1503","name":"Bezirk Vorderland"},"canton":{"key":"15","code":"AR","name":"Appenzell Ausserrhoden"},"status":"Real"},{"key":"10191969","name":"Fortunastrasse","postalCode":"9437","locality":"Marbach SG","commune":{"key":"3035","name":"Reute (AR)","shortName":"Reute (AR)"},"district":{"key":"1503","name":"Bezirk Vorderland"},"canton":{"key":"15","code":"AR","name":"Appenzell Ausserrhoden"},"status":"Real"},{"key":"10184452","name":"Fulmadhof","postalCode":"9437","locality":"Marbach SG","commune":{"key":"3035","name":"Reute (AR)","shortName":"Reute (AR)"},"district":{"key":"1503","name":"Bezirk Vorderland"},"canton":{"key":"15","code":"AR","name":"Appenzell Ausserrhoden"},"status":"Real"},{"key":"10233850","name":"Gartenstrasse","postalCode":"9437","locality":"Marbach SG","commune":{"key":"3035","name":"Reute (AR)","shortName":"Reute (AR)"},"district":{"key":"1503","name":"Bezirk Vorderland"},"canton":{"key":"15","code":"AR","name":"Appenzell Ausserrhoden"},"status":"Real"},{"key":"10033205","name":"Gässeli","postalCode":"9437","locality":"Marbach SG","commune":{"key":"3035","name":"Reute (AR)","shortName":"Reute (AR)"},"district":{"key":"1503","name":"Bezirk Vorderland"},"canton":{"key":"15","code":"AR","name":"Appenzell Ausserrhoden"},"status":"Real"},{"key":"10233854","name":"Gehrenmoosgasse","postalCode":"9437","locality":"Marbach SG","commune":{"key":"3035","name":"Reute (AR)","shortName":"Reute (AR)"},"district":{"key":"1503","name":"Bezirk Vorderland"},"canton":{"key":"15","code":"AR","name":"Appenzell Ausserrhoden"},"status":"Real"},{"key":"10096540","name":"Gehrenmoosstrasse","postalCode":"9437","locality":"Marbach SG","commune":{"key":"3035","name":"Reute (AR)","shortName":"Reute (AR)"},"district":{"key":"1503","name":"Bezirk Vorderland"},"canton":{"key":"15","code":"AR","name":"Appenzell Ausserrhoden"},"status":"Real"},{"key":"10233858","name":"Gehrenmoosweg","postalCode":"9437","locality":"Marbach SG","commune":{"key":"3035","name":"Reute (AR)","shortName":"Reute (AR)"},"district":{"key":"1503","name":"Bezirk Vorderland"},"canton":{"key":"15","code":"AR","name":"Appenzell Ausserrhoden"},"status":"Real"},{"key":"10232371","name":"Gehrenmoosweg-West","postalCode":"9437","locality":"Marbach SG","commune":{"key":"3035","name":"Reute (AR)","shortName":"Reute (AR)"},"district":{"key":"1503","name":"Bezirk Vorderland"},"canton":{"key":"15","code":"AR","name":"Appenzell Ausserrhoden"},"status":"Real"},{"key":"10232375","name":"Gehrenpärkliweg","postalCode":"9437","locality":"Marbach SG","commune":{"key":"3035","name":"Reute (AR)","shortName":"Reute (AR)"},"district":{"key":"1503","name":"Bezirk Vorderland"},"canton":{"key":"15","code":"AR","name":"Appenzell Ausserrhoden"},"status":"Real"},{"key":"10110051","name":"Gehrenstrasse","postalCode":"9437","locality":"Marbach SG","commune":{"key":"3035","name":"Reute (AR)","shortName":"Reute (AR)"},"district":{"key":"1503","name":"Bezirk Vorderland"},"canton":{"key":"15","code":"AR","name":"Appenzell Ausserrhoden"},"status":"Real"},{"key":"10232378","name":"Gehrenweg","postalCode":"9437","locality":"Marbach SG","commune":{"key":"3035","name":"Reute (AR)","shortName":"Reute (AR)"},"district":{"key":"1503","name":"Bezirk Vorderland"},"canton":{"key":"15","code":"AR","name":"Appenzell Ausserrhoden"},"status":"Real"},{"key":"10232382","name":"Heimstrasse","postalCode":"9437","locality":"Marbach SG","commune":{"key":"3035","name":"Reute (AR)","shortName":"Reute (AR)"},"district":{"key":"1503","name":"Bezirk Vorderland"},"canton":{"key":"15","code":"AR","name":"Appenzell Ausserrhoden"},"status":"Real"},{"key":"10232385","name":"Heimweg","postalCode":"9437","locality":"Marbach SG","commune":{"key":"3035","name":"Reute (AR)","shortName":"Reute (AR)"},"district":{"key":"1503","name":"Bezirk Vorderland"},"canton":{"key":"15","code":"AR","name":"Appenzell Ausserrhoden"},"status":"Real"},{"key":"10224211","name":"Herrengasse","postalCode":"9437","locality":"Marbach SG","commune":{"key":"3035","name":"Reute (AR)","shortName":"Reute (AR)"},"district":{"key":"1503","name":"Bezirk Vorderland"},"canton":{"key":"15","code":"AR","name":"Appenzell Ausserrhoden"},"status":"Real"},{"key":"10033206","name":"Herrenwiesstrasse","postalCode":"9437","locality":"Marbach SG","commune":{"key":"3035","name":"Reute (AR)","shortName":"Reute (AR)"},"district":{"key":"1503","name":"Bezirk Vorderland"},"canton":{"key":"15","code":"AR","name":"Appenzell Ausserrhoden"},"status":"Real"},{"key":"10186584","name":"Hintergasse","postalCode":"9437","locality":"Marbach SG","commune":{"key":"3035","name":"Reute (AR)","shortName":"Reute (AR)"},"district":{"key":"1503","name":"Bezirk Vorderland"},"canton":{"key":"15","code":"AR","name":"Appenzell Ausserrhoden"},"status":"Real"},{"key":"10224215","name":"Hohlriesgasse","postalCode":"9437","locality":"Marbach SG","commune":{"key":"3035","name":"Reute (AR)","shortName":"Reute (AR)"},"district":{"key":"1503","name":"Bezirk Vorderland"},"canton":{"key":"15","code":"AR","name":"Appenzell Ausserrhoden"},"status":"Real"},{"key":"10057142","name":"Hub","postalCode":"9437","locality":"Marbach SG","commune":{"key":"3035","name":"Reute (AR)","shortName":"Reute (AR)"},"district":{"key":"1503","name":"Bezirk Vorderland"},"canton":{"key":"15","code":"AR","name":"Appenzell Ausserrhoden"},"status":"Real"},{"key":"10224219","name":"Hubstrasse","postalCode":"9437","locality":"Marbach SG","commune":{"key":"3035","name":"Reute (AR)","shortName":"Reute (AR)"},"district":{"key":"1503","name":"Bezirk Vorderland"},"canton":{"key":"15","code":"AR","name":"Appenzell Ausserrhoden"},"status":"Real"},{"key":"10224223","name":"Hügelgasse","postalCode":"9437","locality":"Marbach SG","commune":{"key":"3035","name":"Reute (AR)","shortName":"Reute (AR)"},"district":{"key":"1503","name":"Bezirk Vorderland"},"canton":{"key":"15","code":"AR","name":"Appenzell Ausserrhoden"},"status":"Real"},{"key":"10224231","name":"Innere Seegrabenstrasse","postalCode":"9437","locality":"Marbach SG","commune":{"key":"3035","name":"Reute (AR)","shortName":"Reute (AR)"},"district":{"key":"1503","name":"Bezirk Vorderland"},"canton":{"key":"15","code":"AR","name":"Appenzell Ausserrhoden"},"status":"Real"},{"key":"10096541","name":"Jakob-Kobeltstrasse","postalCode":"9437","locality":"Marbach SG","commune":{"key":"3035","name":"Reute (AR)","shortName":"Reute (AR)"},"district":{"key":"1503","name":"Bezirk Vorderland"},"canton":{"key":"15","code":"AR","name":"Appenzell Ausserrhoden"},"status":"Real"},{"key":"10181146","name":"Kallesser","postalCode":"9437","locality":"Marbach SG","commune":{"key":"3035","name":"Reute (AR)","shortName":"Reute (AR)"},"district":{"key":"1503","name":"Bezirk Vorderland"},"canton":{"key":"15","code":"AR","name":"Appenzell Ausserrhoden"},"status":"Real"},{"key":"10165897","name":"Kallessergasse","postalCode":"9437","locality":"Marbach SG","commune":{"key":"3035","name":"Reute (AR)","shortName":"Reute (AR)"},"district":{"key":"1503","name":"Bezirk Vorderland"},"canton":{"key":"15","code":"AR","name":"Appenzell Ausserrhoden"},"status":"Real"},{"key":"10224235","name":"Kallesserweg","postalCode":"9437","locality":"Marbach SG","commune":{"key":"3035","name":"Reute (AR)","shortName":"Reute (AR)"},"district":{"key":"1503","name":"Bezirk Vorderland"},"canton":{"key":"15","code":"AR","name":"Appenzell Ausserrhoden"},"status":"Real"},{"key":"10070630","name":"Käsereistrasse","postalCode":"9437","locality":"Marbach SG","commune":{"key":"3035","name":"Reute (AR)","shortName":"Reute (AR)"},"district":{"key":"1503","name":"Bezirk Vorderland"},"canton":{"key":"15","code":"AR","name":"Appenzell Ausserrhoden"},"status":"Real"},{"key":"10224239","name":"Käsiweg","postalCode":"9437","locality":"Marbach SG","commune":{"key":"3035","name":"Reute (AR)","shortName":"Reute (AR)"},"district":{"key":"1503","name":"Bezirk Vorderland"},"canton":{"key":"15","code":"AR","name":"Appenzell Ausserrhoden"},"status":"Real"},{"key":"10224243","name":"Kesselbachstrasse","postalCode":"9437","locality":"Marbach SG","commune":{"key":"3035","name":"Reute (AR)","shortName":"Reute (AR)"},"district":{"key":"1503","name":"Bezirk Vorderland"},"canton":{"key":"15","code":"AR","name":"Appenzell Ausserrhoden"},"status":"Real"},{"key":"10224247","name":"Kirchweg","postalCode":"9437","locality":"Marbach SG","commune":{"key":"3035","name":"Reute (AR)","shortName":"Reute (AR)"},"district":{"key":"1503","name":"Bezirk Vorderland"},"canton":{"key":"15","code":"AR","name":"Appenzell Ausserrhoden"},"status":"Real"},{"key":"10184453","name":"Kirlenbüchel","postalCode":"9437","locality":"Marbach SG","commune":{"key":"3035","name":"Reute (AR)","shortName":"Reute (AR)"},"district":{"key":"1503","name":"Bezirk Vorderland"},"canton":{"key":"15","code":"AR","name":"Appenzell Ausserrhoden"},"status":"Real"},{"key":"10224255","name":"Konsumweg","postalCode":"9437","locality":"Marbach SG","commune":{"key":"3035","name":"Reute (AR)","shortName":"Reute (AR)"},"district":{"key":"1503","name":"Bezirk Vorderland"},"canton":{"key":"15","code":"AR","name":"Appenzell Ausserrhoden"},"status":"Real"},{"key":"10186949","name":"Kornwiesstrasse","postalCode":"9437","locality":"Marbach SG","commune":{"key":"3035","name":"Reute (AR)","shortName":"Reute (AR)"},"district":{"key":"1503","name":"Bezirk Vorderland"},"canton":{"key":"15","code":"AR","name":"Appenzell Ausserrhoden"},"status":"Real"},{"key":"10224259","name":"Ländernachstrasse","postalCode":"9437","locality":"Marbach SG","commune":{"key":"3035","name":"Reute (AR)","shortName":"Reute (AR)"},"district":{"key":"1503","name":"Bezirk Vorderland"},"canton":{"key":"15","code":"AR","name":"Appenzell Ausserrhoden"},"status":"Real"},{"key":"10093393","name":"Langmadstrasse","postalCode":"9437","locality":"Marbach SG","commune":{"key":"3035","name":"Reute (AR)","shortName":"Reute (AR)"},"district":{"key":"1503","name":"Bezirk Vorderland"},"canton":{"key":"15","code":"AR","name":"Appenzell Ausserrhoden"},"status":"Real"},{"key":"10224263","name":"Lehmlochstrasse","postalCode":"9437","locality":"Marbach SG","commune":{"key":"3035","name":"Reute (AR)","shortName":"Reute (AR)"},"district":{"key":"1503","name":"Bezirk Vorderland"},"canton":{"key":"15","code":"AR","name":"Appenzell Ausserrhoden"},"status":"Real"},{"key":"10224267","name":"Lehmtalerweg","postalCode":"9437","locality":"Marbach SG","commune":{"key":"3035","name":"Reute (AR)","shortName":"Reute (AR)"},"district":{"key":"1503","name":"Bezirk Vorderland"},"canton":{"key":"15","code":"AR","name":"Appenzell Ausserrhoden"},"status":"Real"},{"key":"10224271","name":"Lindenweg","postalCode":"9437","locality":"Marbach SG","commune":{"key":"3035","name":"Reute (AR)","shortName":"Reute (AR)"},"district":{"key":"1503","name":"Bezirk Vorderland"},"canton":{"key":"15","code":"AR","name":"Appenzell Ausserrhoden"},"status":"Real"},{"key":"10224275","name":"Löchligasse","postalCode":"9437","locality":"Marbach SG","commune":{"key":"3035","name":"Reute (AR)","shortName":"Reute (AR)"},"district":{"key":"1503","name":"Bezirk Vorderland"},"canton":{"key":"15","code":"AR","name":"Appenzell Ausserrhoden"},"status":"Real"},{"key":"10224279","name":"Lüchingerstrasse","postalCode":"9437","locality":"Marbach SG","commune":{"key":"3035","name":"Reute (AR)","shortName":"Reute (AR)"},"district":{"key":"1503","name":"Bezirk Vorderland"},"canton":{"key":"15","code":"AR","name":"Appenzell Ausserrhoden"},"status":"Real"},{"key":"10224283","name":"Lützelweg","postalCode":"9437","locality":"Marbach SG","commune":{"key":"3035","name":"Reute (AR)","shortName":"Reute (AR)"},"district":{"key":"1503","name":"Bezirk Vorderland"},"canton":{"key":"15","code":"AR","name":"Appenzell Ausserrhoden"},"status":"Real"},{"key":"10224287","name":"Mesnergasse","postalCode":"9437","locality":"Marbach SG","commune":{"key":"3035","name":"Reute (AR)","shortName":"Reute (AR)"},"district":{"key":"1503","name":"Bezirk Vorderland"},"canton":{"key":"15","code":"AR","name":"Appenzell Ausserrhoden"},"status":"Real"},{"key":"10224291","name":"Mittlere Seegrabenstrasse","postalCode":"9437","locality":"Marbach SG","commune":{"key":"3035","name":"Reute (AR)","shortName":"Reute (AR)"},"district":{"key":"1503","name":"Bezirk Vorderland"},"canton":{"key":"15","code":"AR","name":"Appenzell Ausserrhoden"},"status":"Real"},{"key":"10033207","name":"Moosstrasse","postalCode":"9437","locality":"Marbach SG","commune":{"key":"3035","name":"Reute (AR)","shortName":"Reute (AR)"},"district":{"key":"1503","name":"Bezirk Vorderland"},"canton":{"key":"15","code":"AR","name":"Appenzell Ausserrhoden"},"status":"Real"},{"key":"10224295","name":"Moosstrasse-Nordwest","postalCode":"9437","locality":"Marbach SG","commune":{"key":"3035","name":"Reute (AR)","shortName":"Reute (AR)"},"district":{"key":"1503","name":"Bezirk Vorderland"},"canton":{"key":"15","code":"AR","name":"Appenzell Ausserrhoden"},"status":"Real"},{"key":"10224299","name":"Moosstrasse-Südwest","postalCode":"9437","locality":"Marbach SG","commune":{"key":"3035","name":"Reute (AR)","shortName":"Reute (AR)"},"district":{"key":"1503","name":"Bezirk Vorderland"},"canton":{"key":"15","code":"AR","name":"Appenzell Ausserrhoden"},"status":"Real"},{"key":"10224303","name":"Mühleweg","postalCode":"9437","locality":"Marbach SG","commune":{"key":"3035","name":"Reute (AR)","shortName":"Reute (AR)"},"district":{"key":"1503","name":"Bezirk Vorderland"},"canton":{"key":"15","code":"AR","name":"Appenzell Ausserrhoden"},"status":"Real"},{"key":"10050835","name":"Nüeschenstrasse","postalCode":"9437","locality":"Marbach SG","commune":{"key":"3035","name":"Reute (AR)","shortName":"Reute (AR)"},"district":{"key":"1503","name":"Bezirk Vorderland"},"canton":{"key":"15","code":"AR","name":"Appenzell Ausserrhoden"},"status":"Real"},{"key":"10224307","name":"Oberbadweg","postalCode":"9437","locality":"Marbach SG","commune":{"key":"3035","name":"Reute (AR)","shortName":"Reute (AR)"},"district":{"key":"1503","name":"Bezirk Vorderland"},"canton":{"key":"15","code":"AR","name":"Appenzell Ausserrhoden"},"status":"Real"},{"key":"10224311","name":"Oberblasenbergstrasse","postalCode":"9437","locality":"Marbach SG","commune":{"key":"3035","name":"Reute (AR)","shortName":"Reute (AR)"},"district":{"key":"1503","name":"Bezirk Vorderland"},"canton":{"key":"15","code":"AR","name":"Appenzell Ausserrhoden"},"status":"Real"},{"key":"10224315","name":"Oberfeldgasse","postalCode":"9437","locality":"Marbach SG","commune":{"key":"3035","name":"Reute (AR)","shortName":"Reute (AR)"},"district":{"key":"1503","name":"Bezirk Vorderland"},"canton":{"key":"15","code":"AR","name":"Appenzell Ausserrhoden"},"status":"Real"},{"key":"10057143","name":"Oberfeldstrasse","postalCode":"9437","locality":"Marbach SG","commune":{"key":"3035","name":"Reute (AR)","shortName":"Reute (AR)"},"district":{"key":"1503","name":"Bezirk Vorderland"},"canton":{"key":"15","code":"AR","name":"Appenzell Ausserrhoden"},"status":"Real"},{"key":"10033208","name":"Obergasse","postalCode":"9437","locality":"Marbach SG","commune":{"key":"3035","name":"Reute (AR)","shortName":"Reute (AR)"},"district":{"key":"1503","name":"Bezirk Vorderland"},"canton":{"key":"15","code":"AR","name":"Appenzell Ausserrhoden"},"status":"Real"},{"key":"10224319","name":"Oberwingertstrasse","postalCode":"9437","locality":"Marbach SG","commune":{"key":"3035","name":"Reute (AR)","shortName":"Reute (AR)"},"district":{"key":"1503","name":"Bezirk Vorderland"},"canton":{"key":"15","code":"AR","name":"Appenzell Ausserrhoden"},"status":"Real"},{"key":"10149965","name":"Ottostrasse","postalCode":"9437","locality":"Marbach SG","commune":{"key":"3035","name":"Reute (AR)","shortName":"Reute (AR)"},"district":{"key":"1503","name":"Bezirk Vorderland"},"canton":{"key":"15","code":"AR","name":"Appenzell Ausserrhoden"},"status":"Real"},{"key":"10224323","name":"Postgasse","postalCode":"9437","locality":"Marbach SG","commune":{"key":"3035","name":"Reute (AR)","shortName":"Reute (AR)"},"district":{"key":"1503","name":"Bezirk Vorderland"},"canton":{"key":"15","code":"AR","name":"Appenzell Ausserrhoden"},"status":"Real"},{"key":"10224327","name":"Raiffeisenweg","postalCode":"9437","locality":"Marbach SG","commune":{"key":"3035","name":"Reute (AR)","shortName":"Reute (AR)"},"district":{"key":"1503","name":"Bezirk Vorderland"},"canton":{"key":"15","code":"AR","name":"Appenzell Ausserrhoden"},"status":"Real"},{"key":"10050836","name":"Ribelgasse","postalCode":"9437","locality":"Marbach SG","commune":{"key":"3035","name":"Reute (AR)","shortName":"Reute (AR)"},"district":{"key":"1503","name":"Bezirk Vorderland"},"canton":{"key":"15","code":"AR","name":"Appenzell Ausserrhoden"},"status":"Real"},{"key":"10224331","name":"Ribelweg","postalCode":"9437","locality":"Marbach SG","commune":{"key":"3035","name":"Reute (AR)","shortName":"Reute (AR)"},"district":{"key":"1503","name":"Bezirk Vorderland"},"canton":{"key":"15","code":"AR","name":"Appenzell Ausserrhoden"},"status":"Real"},{"key":"10228228","name":"Rietaachstrasse","postalCode":"9437","locality":"Marbach SG","commune":{"key":"3035","name":"Reute (AR)","shortName":"Reute (AR)"},"district":{"key":"1503","name":"Bezirk Vorderland"},"canton":{"key":"15","code":"AR","name":"Appenzell Ausserrhoden"},"status":"Real"},{"key":"10070631","name":"Rietstrasse","postalCode":"9437","locality":"Marbach SG","commune":{"key":"3035","name":"Reute (AR)","shortName":"Reute (AR)"},"district":{"key":"1503","name":"Bezirk Vorderland"},"canton":{"key":"15","code":"AR","name":"Appenzell Ausserrhoden"},"status":"Real"},{"key":"10191798","name":"Roossen","postalCode":"9437","locality":"Marbach SG","commune":{"key":"3035","name":"Reute (AR)","shortName":"Reute (AR)"},"district":{"key":"1503","name":"Bezirk Vorderland"},"canton":{"key":"15","code":"AR","name":"Appenzell Ausserrhoden"},"status":"Real"},{"key":"10033209","name":"Rosenberg","postalCode":"9437","locality":"Marbach SG","commune":{"key":"3035","name":"Reute (AR)","shortName":"Reute (AR)"},"district":{"key":"1503","name":"Bezirk Vorderland"},"canton":{"key":"15","code":"AR","name":"Appenzell Ausserrhoden"},"status":"Real"},{"key":"10228232","name":"Rosenbergstrasse","postalCode":"9437","locality":"Marbach SG","commune":{"key":"3035","name":"Reute (AR)","shortName":"Reute (AR)"},"district":{"key":"1503","name":"Bezirk Vorderland"},"canton":{"key":"15","code":"AR","name":"Appenzell Ausserrhoden"},"status":"Real"},{"key":"10228236","name":"Rosenbergweg","postalCode":"9437","locality":"Marbach SG","commune":{"key":"3035","name":"Reute (AR)","shortName":"Reute (AR)"},"district":{"key":"1503","name":"Bezirk Vorderland"},"canton":{"key":"15","code":"AR","name":"Appenzell Ausserrhoden"},"status":"Real"},{"key":"10228240","name":"Rössliweg","postalCode":"9437","locality":"Marbach SG","commune":{"key":"3035","name":"Reute (AR)","shortName":"Reute (AR)"},"district":{"key":"1503","name":"Bezirk Vorderland"},"canton":{"key":"15","code":"AR","name":"Appenzell Ausserrhoden"},"status":"Real"},{"key":"10228244","name":"Rotstegweg","postalCode":"9437","locality":"Marbach SG","commune":{"key":"3035","name":"Reute (AR)","shortName":"Reute (AR)"},"district":{"key":"1503","name":"Bezirk Vorderland"},"canton":{"key":"15","code":"AR","name":"Appenzell Ausserrhoden"},"status":"Real"},{"key":"10191970","name":"Salzmanngasse","postalCode":"9437","locality":"Marbach SG","commune":{"key":"3035","name":"Reute (AR)","shortName":"Reute (AR)"},"district":{"key":"1503","name":"Bezirk Vorderland"},"canton":{"key":"15","code":"AR","name":"Appenzell Ausserrhoden"},"status":"Real"},{"key":"10096360","name":"Sandgruebstrasse","postalCode":"9437","locality":"Marbach SG","commune":{"key":"3035","name":"Reute (AR)","shortName":"Reute (AR)"},"district":{"key":"1503","name":"Bezirk Vorderland"},"canton":{"key":"15","code":"AR","name":"Appenzell Ausserrhoden"},"status":"Real"},{"key":"10143871","name":"Schärstrasse","postalCode":"9437","locality":"Marbach SG","commune":{"key":"3035","name":"Reute (AR)","shortName":"Reute (AR)"},"district":{"key":"1503","name":"Bezirk Vorderland"},"canton":{"key":"15","code":"AR","name":"Appenzell Ausserrhoden"},"status":"Real"},{"key":"10117407","name":"Schloss Weinstein","postalCode":"9437","locality":"Marbach SG","commune":{"key":"3035","name":"Reute (AR)","shortName":"Reute (AR)"},"district":{"key":"1503","name":"Bezirk Vorderland"},"canton":{"key":"15","code":"AR","name":"Appenzell Ausserrhoden"},"status":"Real"},{"key":"10228248","name":"Schollagasse","postalCode":"9437","locality":"Marbach SG","commune":{"key":"3035","name":"Reute (AR)","shortName":"Reute (AR)"},"district":{"key":"1503","name":"Bezirk Vorderland"},"canton":{"key":"15","code":"AR","name":"Appenzell Ausserrhoden"},"status":"Real"},{"key":"10228252","name":"Schollenangerstrasse","postalCode":"9437","locality":"Marbach SG","commune":{"key":"3035","name":"Reute (AR)","shortName":"Reute (AR)"},"district":{"key":"1503","name":"Bezirk Vorderland"},"canton":{"key":"15","code":"AR","name":"Appenzell Ausserrhoden"},"status":"Real"},{"key":"10228256","name":"Schulweg","postalCode":"9437","locality":"Marbach SG","commune":{"key":"3035","name":"Reute (AR)","shortName":"Reute (AR)"},"district":{"key":"1503","name":"Bezirk Vorderland"},"canton":{"key":"15","code":"AR","name":"Appenzell Ausserrhoden"},"status":"Real"},{"key":"10228260","name":"Schwellestrasse","postalCode":"9437","locality":"Marbach SG","commune":{"key":"3035","name":"Reute (AR)","shortName":"Reute (AR)"},"district":{"key":"1503","name":"Bezirk Vorderland"},"canton":{"key":"15","code":"AR","name":"Appenzell Ausserrhoden"},"status":"Real"},{"key":"10172269","name":"Schwingerhof","postalCode":"9437","locality":"Marbach SG","commune":{"key":"3035","name":"Reute (AR)","shortName":"Reute (AR)"},"district":{"key":"1503","name":"Bezirk Vorderland"},"canton":{"key":"15","code":"AR","name":"Appenzell Ausserrhoden"},"status":"Real"},{"key":"10033200","name":"Siedlung Brühl","postalCode":"9437","locality":"Marbach SG","commune":{"key":"3035","name":"Reute (AR)","shortName":"Reute (AR)"},"district":{"key":"1503","name":"Bezirk Vorderland"},"canton":{"key":"15","code":"AR","name":"Appenzell Ausserrhoden"},"status":"Real"},{"key":"10101188","name":"Siedlung Wegweiser","postalCode":"9437","locality":"Marbach SG","commune":{"key":"3035","name":"Reute (AR)","shortName":"Reute (AR)"},"district":{"key":"1503","name":"Bezirk Vorderland"},"canton":{"key":"15","code":"AR","name":"Appenzell Ausserrhoden"},"status":"Real"},{"key":"10057144","name":"Sonnenberg","postalCode":"9437","locality":"Marbach SG","commune":{"key":"3035","name":"Reute (AR)","shortName":"Reute (AR)"},"district":{"key":"1503","name":"Bezirk Vorderland"},"canton":{"key":"15","code":"AR","name":"Appenzell Ausserrhoden"},"status":"Real"},{"key":"10228264","name":"Sonnenbergstrasse","postalCode":"9437","locality":"Marbach SG","commune":{"key":"3035","name":"Reute (AR)","shortName":"Reute (AR)"},"district":{"key":"1503","name":"Bezirk Vorderland"},"canton":{"key":"15","code":"AR","name":"Appenzell Ausserrhoden"},"status":"Real"},{"key":"10228269","name":"Sonnenbergweg","postalCode":"9437","locality":"Marbach SG","commune":{"key":"3035","name":"Reute (AR)","shortName":"Reute (AR)"},"district":{"key":"1503","name":"Bezirk Vorderland"},"canton":{"key":"15","code":"AR","name":"Appenzell Ausserrhoden"},"status":"Real"},{"key":"10224385","name":"Sparkassaweg","postalCode":"9437","locality":"Marbach SG","commune":{"key":"3035","name":"Reute (AR)","shortName":"Reute (AR)"},"district":{"key":"1503","name":"Bezirk Vorderland"},"canton":{"key":"15","code":"AR","name":"Appenzell Ausserrhoden"},"status":"Real"},{"key":"10228277","name":"Spielwiesenweg","postalCode":"9437","locality":"Marbach SG","commune":{"key":"3035","name":"Reute (AR)","shortName":"Reute (AR)"},"district":{"key":"1503","name":"Bezirk Vorderland"},"canton":{"key":"15","code":"AR","name":"Appenzell Ausserrhoden"},"status":"Real"},{"key":"10070632","name":"Spitzigerfeldstrasse","postalCode":"9437","locality":"Marbach SG","commune":{"key":"3035","name":"Reute (AR)","shortName":"Reute (AR)"},"district":{"key":"1503","name":"Bezirk Vorderland"},"canton":{"key":"15","code":"AR","name":"Appenzell Ausserrhoden"},"status":"Real"},{"key":"10228281","name":"Spitzigerfeldweg","postalCode":"9437","locality":"Marbach SG","commune":{"key":"3035","name":"Reute (AR)","shortName":"Reute (AR)"},"district":{"key":"1503","name":"Bezirk Vorderland"},"canton":{"key":"15","code":"AR","name":"Appenzell Ausserrhoden"},"status":"Real"},{"key":"10184454","name":"Staatsstrasse","postalCode":"9437","locality":"Marbach SG","commune":{"key":"3035","name":"Reute (AR)","shortName":"Reute (AR)"},"district":{"key":"1503","name":"Bezirk Vorderland"},"canton":{"key":"15","code":"AR","name":"Appenzell Ausserrhoden"},"status":"Real"},{"key":"10228286","name":"Stägeli","postalCode":"9437","locality":"Marbach SG","commune":{"key":"3035","name":"Reute (AR)","shortName":"Reute (AR)"},"district":{"key":"1503","name":"Bezirk Vorderland"},"canton":{"key":"15","code":"AR","name":"Appenzell Ausserrhoden"},"status":"Real"},{"key":"10033210","name":"Steingut","postalCode":"9437","locality":"Marbach SG","commune":{"key":"3035","name":"Reute (AR)","shortName":"Reute (AR)"},"district":{"key":"1503","name":"Bezirk Vorderland"},"canton":{"key":"15","code":"AR","name":"Appenzell Ausserrhoden"},"status":"Real"},{"key":"10033211","name":"Tannerstrasse","postalCode":"9437","locality":"Marbach SG","commune":{"key":"3035","name":"Reute (AR)","shortName":"Reute (AR)"},"district":{"key":"1503","name":"Bezirk Vorderland"},"canton":{"key":"15","code":"AR","name":"Appenzell Ausserrhoden"},"status":"Real"},{"key":"10110052","name":"Torkelhof","postalCode":"9437","locality":"Marbach SG","commune":{"key":"3035","name":"Reute (AR)","shortName":"Reute (AR)"},"district":{"key":"1503","name":"Bezirk Vorderland"},"canton":{"key":"15","code":"AR","name":"Appenzell Ausserrhoden"},"status":"Real"},{"key":"10228290","name":"Trafostrasse","postalCode":"9437","locality":"Marbach SG","commune":{"key":"3035","name":"Reute (AR)","shortName":"Reute (AR)"},"district":{"key":"1503","name":"Bezirk Vorderland"},"canton":{"key":"15","code":"AR","name":"Appenzell Ausserrhoden"},"status":"Real"},{"key":"10093394","name":"Trubagass","postalCode":"9437","locality":"Marbach SG","commune":{"key":"3035","name":"Reute (AR)","shortName":"Reute (AR)"},"district":{"key":"1503","name":"Bezirk Vorderland"},"canton":{"key":"15","code":"AR","name":"Appenzell Ausserrhoden"},"status":"Real"},{"key":"10050837","name":"Untergasse","postalCode":"9437","locality":"Marbach SG","commune":{"key":"3035","name":"Reute (AR)","shortName":"Reute (AR)"},"district":{"key":"1503","name":"Bezirk Vorderland"},"canton":{"key":"15","code":"AR","name":"Appenzell Ausserrhoden"},"status":"Real"},{"key":"10228294","name":"Wagnereiweg","postalCode":"9437","locality":"Marbach SG","commune":{"key":"3035","name":"Reute (AR)","shortName":"Reute (AR)"},"district":{"key":"1503","name":"Bezirk Vorderland"},"canton":{"key":"15","code":"AR","name":"Appenzell Ausserrhoden"},"status":"Real"},{"key":"10033212","name":"Wässern","postalCode":"9437","locality":"Marbach SG","commune":{"key":"3035","name":"Reute (AR)","shortName":"Reute (AR)"},"district":{"key":"1503","name":"Bezirk Vorderland"},"canton":{"key":"15","code":"AR","name":"Appenzell Ausserrhoden"},"status":"Real"},{"key":"10233141","name":"Weinsteingasse","postalCode":"9437","locality":"Marbach SG","commune":{"key":"3035","name":"Reute (AR)","shortName":"Reute (AR)"},"district":{"key":"1503","name":"Bezirk Vorderland"},"canton":{"key":"15","code":"AR","name":"Appenzell Ausserrhoden"},"status":"Real"},{"key":"10233145","name":"Wingertstrasse","postalCode":"9437","locality":"Marbach SG","commune":{"key":"3035","name":"Reute (AR)","shortName":"Reute (AR)"},"district":{"key":"1503","name":"Bezirk Vorderland"},"canton":{"key":"15","code":"AR","name":"Appenzell Ausserrhoden"},"status":"Real"},{"key":"10233149","name":"Winkelgasse","postalCode":"9437","locality":"Marbach SG","commune":{"key":"3035","name":"Reute (AR)","shortName":"Reute (AR)"},"district":{"key":"1503","name":"Bezirk Vorderland"},"canton":{"key":"15","code":"AR","name":"Appenzell Ausserrhoden"},"status":"Real"},{"key":"10233153","name":"Winkelweg","postalCode":"9437","locality":"Marbach SG","commune":{"key":"3035","name":"Reute (AR)","shortName":"Reute (AR)"},"district":{"key":"1503","name":"Bezirk Vorderland"},"canton":{"key":"15","code":"AR","name":"Appenzell Ausserrhoden"},"status":"Real"},{"key":"10249806","name":"Wislistrasse","postalCode":"9437","locality":"Marbach SG","commune":{"key":"3035","name":"Reute (AR)","shortName":"Reute (AR)"},"district":{"key":"1503","name":"Bezirk Vorderland"},"canton":{"key":"15","code":"AR","name":"Appenzell Ausserrhoden"},"status":"Real"},{"key":"10232597","name":"Zahnarztweg","postalCode":"9437","locality":"Marbach SG","commune":{"key":"3035","name":"Reute (AR)","shortName":"Reute (AR)"},"district":{"key":"1503","name":"Bezirk Vorderland"},"canton":{"key":"15","code":"AR","name":"Appenzell Ausserrhoden"},"status":"Real"},{"key":"10033213","name":"Zeughausstrasse","postalCode":"9437","locality":"Marbach SG","commune":{"key":"3035","name":"Reute (AR)","shortName":"Reute (AR)"},"district":{"key":"1503","name":"Bezirk Vorderland"},"canton":{"key":"15","code":"AR","name":"Appenzell Ausserrhoden"},"status":"Real"},{"key":"10033214","name":"Zinggengasse","postalCode":"9437","locality":"Marbach SG","commune":{"key":"3035","name":"Reute (AR)","shortName":"Reute (AR)"},"district":{"key":"1503","name":"Bezirk Vorderland"},"canton":{"key":"15","code":"AR","name":"Appenzell Ausserrhoden"},"status":"Real"},{"key":"10232601","name":"Zinggenweg","postalCode":"9437","locality":"Marbach SG","commune":{"key":"3035","name":"Reute (AR)","shortName":"Reute (AR)"},"district":{"key":"1503","name":"Bezirk Vorderland"},"canton":{"key":"15","code":"AR","name":"Appenzell Ausserrhoden"},"status":"Real"},{"key":"10231716","name":"Ängerlistrasse","postalCode":"9437","locality":"Marbach SG","commune":{"key":"3035","name":"Reute (AR)","shortName":"Reute (AR)"},"district":{"key":"1503","name":"Bezirk Vorderland"},"canton":{"key":"15","code":"AR","name":"Appenzell Ausserrhoden"},"status":"Real"},{"key":"10231728","name":"Äussere Seegrabenstrasse","postalCode":"9437","locality":"Marbach SG","commune":{"key":"3035","name":"Reute (AR)","shortName":"Reute (AR)"},"district":{"key":"1503","name":"Bezirk Vorderland"},"canton":{"key":"15","code":"AR","name":"Appenzell Ausserrhoden"},"status":"Real"},]