[{"name":"Akazienweg","postalCode":"76698","locality":"Ubstadt-Weiher","municipality":{"key":"08215084","name":"Ubstadt-Weiher","type":"Kreisangehörige_Gemeinde"},"district":{"key":"08215","name":"Karlsruhe","type":"Landkreis"},"federalState":{"key":"08","name":"Baden-Württemberg"}},{"name":"Albert-Schweitzer-Str.","postalCode":"76698","locality":"Ubstadt-Weiher","municipality":{"key":"08215084","name":"Ubstadt-Weiher","type":"Kreisangehörige_Gemeinde"},"district":{"key":"08215","name":"Karlsruhe","type":"Landkreis"},"federalState":{"key":"08","name":"Baden-Württemberg"}},{"name":"Alfons-Dischinger-Str.","postalCode":"76698","locality":"Ubstadt-Weiher","municipality":{"key":"08215084","name":"Ubstadt-Weiher","type":"Kreisangehörige_Gemeinde"},"district":{"key":"08215","name":"Karlsruhe","type":"Landkreis"},"federalState":{"key":"08","name":"Baden-Württemberg"}},{"name":"Allmendweg","postalCode":"76698","locality":"Ubstadt-Weiher","municipality":{"key":"08215084","name":"Ubstadt-Weiher","type":"Kreisangehörige_Gemeinde"},"district":{"key":"08215","name":"Karlsruhe","type":"Landkreis"},"federalState":{"key":"08","name":"Baden-Württemberg"}},{"name":"Altackerhohl","postalCode":"76698","locality":"Ubstadt-Weiher","municipality":{"key":"08215084","name":"Ubstadt-Weiher","type":"Kreisangehörige_Gemeinde"},"district":{"key":"08215","name":"Karlsruhe","type":"Landkreis"},"federalState":{"key":"08","name":"Baden-Württemberg"}},{"name":"Altenbergstr.","postalCode":"76698","locality":"Ubstadt-Weiher","municipality":{"key":"08215084","name":"Ubstadt-Weiher","type":"Kreisangehörige_Gemeinde"},"district":{"key":"08215","name":"Karlsruhe","type":"Landkreis"},"federalState":{"key":"08","name":"Baden-Württemberg"}},{"name":"Alte Poststr.","postalCode":"76698","locality":"Ubstadt-Weiher","municipality":{"key":"08215084","name":"Ubstadt-Weiher","type":"Kreisangehörige_Gemeinde"},"district":{"key":"08215","name":"Karlsruhe","type":"Landkreis"},"federalState":{"key":"08","name":"Baden-Württemberg"}},{"name":"Althohlstr.","postalCode":"76698","locality":"Ubstadt-Weiher","municipality":{"key":"08215084","name":"Ubstadt-Weiher","type":"Kreisangehörige_Gemeinde"},"district":{"key":"08215","name":"Karlsruhe","type":"Landkreis"},"federalState":{"key":"08","name":"Baden-Württemberg"}},{"name":"Am Bergel","postalCode":"76698","locality":"Ubstadt-Weiher","municipality":{"key":"08215084","name":"Ubstadt-Weiher","type":"Kreisangehörige_Gemeinde"},"district":{"key":"08215","name":"Karlsruhe","type":"Landkreis"},"federalState":{"key":"08","name":"Baden-Württemberg"}},{"name":"Am Bruhrain","postalCode":"76698","locality":"Ubstadt-Weiher","municipality":{"key":"08215084","name":"Ubstadt-Weiher","type":"Kreisangehörige_Gemeinde"},"district":{"key":"08215","name":"Karlsruhe","type":"Landkreis"},"federalState":{"key":"08","name":"Baden-Württemberg"}},{"name":"Am Katzbach","postalCode":"76698","locality":"Ubstadt-Weiher","municipality":{"key":"08215084","name":"Ubstadt-Weiher","type":"Kreisangehörige_Gemeinde"},"district":{"key":"08215","name":"Karlsruhe","type":"Landkreis"},"federalState":{"key":"08","name":"Baden-Württemberg"}},{"name":"Am Mühlbach","postalCode":"76698","locality":"Ubstadt-Weiher","municipality":{"key":"08215084","name":"Ubstadt-Weiher","type":"Kreisangehörige_Gemeinde"},"district":{"key":"08215","name":"Karlsruhe","type":"Landkreis"},"federalState":{"key":"08","name":"Baden-Württemberg"}},{"name":"Am Pfarrberg","postalCode":"76698","locality":"Ubstadt-Weiher","municipality":{"key":"08215084","name":"Ubstadt-Weiher","type":"Kreisangehörige_Gemeinde"},"district":{"key":"08215","name":"Karlsruhe","type":"Landkreis"},"federalState":{"key":"08","name":"Baden-Württemberg"}},{"name":"Am Rohrig","postalCode":"76698","locality":"Ubstadt-Weiher","municipality":{"key":"08215084","name":"Ubstadt-Weiher","type":"Kreisangehörige_Gemeinde"},"district":{"key":"08215","name":"Karlsruhe","type":"Landkreis"},"federalState":{"key":"08","name":"Baden-Württemberg"}},{"name":"Am Steinbruch","postalCode":"76698","locality":"Ubstadt-Weiher","municipality":{"key":"08215084","name":"Ubstadt-Weiher","type":"Kreisangehörige_Gemeinde"},"district":{"key":"08215","name":"Karlsruhe","type":"Landkreis"},"federalState":{"key":"08","name":"Baden-Württemberg"}},{"name":"Am Viehtrieb","postalCode":"76698","locality":"Ubstadt-Weiher","municipality":{"key":"08215084","name":"Ubstadt-Weiher","type":"Kreisangehörige_Gemeinde"},"district":{"key":"08215","name":"Karlsruhe","type":"Landkreis"},"federalState":{"key":"08","name":"Baden-Württemberg"}},{"name":"An der Gänsweide","postalCode":"76698","locality":"Ubstadt-Weiher","municipality":{"key":"08215084","name":"Ubstadt-Weiher","type":"Kreisangehörige_Gemeinde"},"district":{"key":"08215","name":"Karlsruhe","type":"Landkreis"},"federalState":{"key":"08","name":"Baden-Württemberg"}},{"name":"An der Hammerschmiede","postalCode":"76698","locality":"Ubstadt-Weiher","municipality":{"key":"08215084","name":"Ubstadt-Weiher","type":"Kreisangehörige_Gemeinde"},"district":{"key":"08215","name":"Karlsruhe","type":"Landkreis"},"federalState":{"key":"08","name":"Baden-Württemberg"}},{"name":"Andreasplatz","postalCode":"76698","locality":"Ubstadt-Weiher","municipality":{"key":"08215084","name":"Ubstadt-Weiher","type":"Kreisangehörige_Gemeinde"},"district":{"key":"08215","name":"Karlsruhe","type":"Landkreis"},"federalState":{"key":"08","name":"Baden-Württemberg"}},{"name":"Anemonenweg","postalCode":"76698","locality":"Ubstadt-Weiher","municipality":{"key":"08215084","name":"Ubstadt-Weiher","type":"Kreisangehörige_Gemeinde"},"district":{"key":"08215","name":"Karlsruhe","type":"Landkreis"},"federalState":{"key":"08","name":"Baden-Württemberg"}},{"name":"Aue","postalCode":"76698","locality":"Ubstadt-Weiher","municipality":{"key":"08215084","name":"Ubstadt-Weiher","type":"Kreisangehörige_Gemeinde"},"district":{"key":"08215","name":"Karlsruhe","type":"Landkreis"},"federalState":{"key":"08","name":"Baden-Württemberg"}},{"name":"Augartenstr.","postalCode":"76698","locality":"Ubstadt-Weiher","municipality":{"key":"08215084","name":"Ubstadt-Weiher","type":"Kreisangehörige_Gemeinde"},"district":{"key":"08215","name":"Karlsruhe","type":"Landkreis"},"federalState":{"key":"08","name":"Baden-Württemberg"}},{"name":"Bachstr.","postalCode":"76698","locality":"Ubstadt-Weiher","municipality":{"key":"08215084","name":"Ubstadt-Weiher","type":"Kreisangehörige_Gemeinde"},"district":{"key":"08215","name":"Karlsruhe","type":"Landkreis"},"federalState":{"key":"08","name":"Baden-Württemberg"}},{"name":"Bahnhofstr.","postalCode":"76698","locality":"Ubstadt-Weiher","municipality":{"key":"08215084","name":"Ubstadt-Weiher","type":"Kreisangehörige_Gemeinde"},"district":{"key":"08215","name":"Karlsruhe","type":"Landkreis"},"federalState":{"key":"08","name":"Baden-Württemberg"}},{"name":"Barfußpfad Zeutern","postalCode":"76698","locality":"Ubstadt-Weiher","municipality":{"key":"08215084","name":"Ubstadt-Weiher","type":"Kreisangehörige_Gemeinde"},"district":{"key":"08215","name":"Karlsruhe","type":"Landkreis"},"federalState":{"key":"08","name":"Baden-Württemberg"}},{"name":"Beim Bähnle","postalCode":"76698","locality":"Ubstadt-Weiher","municipality":{"key":"08215084","name":"Ubstadt-Weiher","type":"Kreisangehörige_Gemeinde"},"district":{"key":"08215","name":"Karlsruhe","type":"Landkreis"},"federalState":{"key":"08","name":"Baden-Württemberg"}},{"name":"Bergstr.","postalCode":"76698","locality":"Ubstadt-Weiher","municipality":{"key":"08215084","name":"Ubstadt-Weiher","type":"Kreisangehörige_Gemeinde"},"district":{"key":"08215","name":"Karlsruhe","type":"Landkreis"},"federalState":{"key":"08","name":"Baden-Württemberg"}},{"name":"Besingstr.","postalCode":"76698","locality":"Ubstadt-Weiher","municipality":{"key":"08215084","name":"Ubstadt-Weiher","type":"Kreisangehörige_Gemeinde"},"district":{"key":"08215","name":"Karlsruhe","type":"Landkreis"},"federalState":{"key":"08","name":"Baden-Württemberg"}},{"name":"Bienenlehrpfad","postalCode":"76698","locality":"Ubstadt-Weiher","municipality":{"key":"08215084","name":"Ubstadt-Weiher","type":"Kreisangehörige_Gemeinde"},"district":{"key":"08215","name":"Karlsruhe","type":"Landkreis"},"federalState":{"key":"08","name":"Baden-Württemberg"}},{"name":"Bischofsrotweg","postalCode":"76698","locality":"Ubstadt-Weiher","municipality":{"key":"08215084","name":"Ubstadt-Weiher","type":"Kreisangehörige_Gemeinde"},"district":{"key":"08215","name":"Karlsruhe","type":"Landkreis"},"federalState":{"key":"08","name":"Baden-Württemberg"}},{"name":"Blumenstr.","postalCode":"76698","locality":"Ubstadt-Weiher","municipality":{"key":"08215084","name":"Ubstadt-Weiher","type":"Kreisangehörige_Gemeinde"},"district":{"key":"08215","name":"Karlsruhe","type":"Landkreis"},"federalState":{"key":"08","name":"Baden-Württemberg"}},{"name":"Braunsteinweg","postalCode":"76698","locality":"Ubstadt-Weiher","municipality":{"key":"08215084","name":"Ubstadt-Weiher","type":"Kreisangehörige_Gemeinde"},"district":{"key":"08215","name":"Karlsruhe","type":"Landkreis"},"federalState":{"key":"08","name":"Baden-Württemberg"}},{"name":"Brennerweg","postalCode":"76698","locality":"Ubstadt-Weiher","municipality":{"key":"08215084","name":"Ubstadt-Weiher","type":"Kreisangehörige_Gemeinde"},"district":{"key":"08215","name":"Karlsruhe","type":"Landkreis"},"federalState":{"key":"08","name":"Baden-Württemberg"}},{"name":"Bruchsaler Str.","postalCode":"76698","locality":"Ubstadt-Weiher","municipality":{"key":"08215084","name":"Ubstadt-Weiher","type":"Kreisangehörige_Gemeinde"},"district":{"key":"08215","name":"Karlsruhe","type":"Landkreis"},"federalState":{"key":"08","name":"Baden-Württemberg"}},{"name":"Brühlstr.","postalCode":"76698","locality":"Ubstadt-Weiher","municipality":{"key":"08215084","name":"Ubstadt-Weiher","type":"Kreisangehörige_Gemeinde"},"district":{"key":"08215","name":"Karlsruhe","type":"Landkreis"},"federalState":{"key":"08","name":"Baden-Württemberg"}},{"name":"Brunftacker-Richtweg","postalCode":"76698","locality":"Ubstadt-Weiher","municipality":{"key":"08215084","name":"Ubstadt-Weiher","type":"Kreisangehörige_Gemeinde"},"district":{"key":"08215","name":"Karlsruhe","type":"Landkreis"},"federalState":{"key":"08","name":"Baden-Württemberg"}},{"name":"Brunnenstr.","postalCode":"76698","locality":"Ubstadt-Weiher","municipality":{"key":"08215084","name":"Ubstadt-Weiher","type":"Kreisangehörige_Gemeinde"},"district":{"key":"08215","name":"Karlsruhe","type":"Landkreis"},"federalState":{"key":"08","name":"Baden-Württemberg"}},{"name":"Brunnenstr. / Hirschstr.","postalCode":"76698","locality":"Ubstadt-Weiher","municipality":{"key":"08215084","name":"Ubstadt-Weiher","type":"Kreisangehörige_Gemeinde"},"district":{"key":"08215","name":"Karlsruhe","type":"Landkreis"},"federalState":{"key":"08","name":"Baden-Württemberg"}},{"name":"Burgstr.","postalCode":"76698","locality":"Ubstadt-Weiher","municipality":{"key":"08215084","name":"Ubstadt-Weiher","type":"Kreisangehörige_Gemeinde"},"district":{"key":"08215","name":"Karlsruhe","type":"Landkreis"},"federalState":{"key":"08","name":"Baden-Württemberg"}},{"name":"Burgunderweg","postalCode":"76698","locality":"Ubstadt-Weiher","municipality":{"key":"08215084","name":"Ubstadt-Weiher","type":"Kreisangehörige_Gemeinde"},"district":{"key":"08215","name":"Karlsruhe","type":"Landkreis"},"federalState":{"key":"08","name":"Baden-Württemberg"}},{"name":"Cäciliastr.","postalCode":"76135","locality":"Karlsruhe","municipality":{"key":"08212000","name":"Karlsruhe, Stadt","type":"Stadtkreis"},"district":{"key":"08212","name":"Karlsruhe, Stadtkreis","type":"Stadtkreis"},"federalState":{"key":"08","name":"Baden-Württemberg"}},{"name":"Cannstatter Str.","postalCode":"76228","locality":"Karlsruhe","municipality":{"key":"08212000","name":"Karlsruhe, Stadt","type":"Stadtkreis"},"district":{"key":"08212","name":"Karlsruhe, Stadtkreis","type":"Stadtkreis"},"federalState":{"key":"08","name":"Baden-Württemberg"}},{"name":"Carl-Hofer-Str.","postalCode":"76227","locality":"Karlsruhe","municipality":{"key":"08212000","name":"Karlsruhe, Stadt","type":"Stadtkreis"},"district":{"key":"08212","name":"Karlsruhe, Stadtkreis","type":"Stadtkreis"},"federalState":{"key":"08","name":"Baden-Württemberg"}},{"name":"Carl-Langhein-Str.","postalCode":"76229","locality":"Karlsruhe","municipality":{"key":"08212000","name":"Karlsruhe, Stadt","type":"Stadtkreis"},"district":{"key":"08212","name":"Karlsruhe, Stadtkreis","type":"Stadtkreis"},"federalState":{"key":"08","name":"Baden-Württemberg"}},{"name":"Carl-Metz-Str.","postalCode":"76185","locality":"Karlsruhe","municipality":{"key":"08212000","name":"Karlsruhe, Stadt","type":"Stadtkreis"},"district":{"key":"08212","name":"Karlsruhe, Stadtkreis","type":"Stadtkreis"},"federalState":{"key":"08","name":"Baden-Württemberg"}},{"name":"Carl-Schäfer-Str.","postalCode":"76187","locality":"Karlsruhe","municipality":{"key":"08212000","name":"Karlsruhe, Stadt","type":"Stadtkreis"},"district":{"key":"08212","name":"Karlsruhe, Stadtkreis","type":"Stadtkreis"},"federalState":{"key":"08","name":"Baden-Württemberg"}},{"name":"Carl-Schurz-Str.","postalCode":"76187","locality":"Karlsruhe","municipality":{"key":"08212000","name":"Karlsruhe, Stadt","type":"Stadtkreis"},"district":{"key":"08212","name":"Karlsruhe, Stadtkreis","type":"Stadtkreis"},"federalState":{"key":"08","name":"Baden-Württemberg"}},{"name":"Charlottenplatz","postalCode":"76185","locality":"Karlsruhe","municipality":{"key":"08212000","name":"Karlsruhe, Stadt","type":"Stadtkreis"},"district":{"key":"08212","name":"Karlsruhe, Stadtkreis","type":"Stadtkreis"},"federalState":{"key":"08","name":"Baden-Württemberg"}},{"name":"Charlottenstr.","postalCode":"76185","locality":"Karlsruhe","municipality":{"key":"08212000","name":"Karlsruhe, Stadt","type":"Stadtkreis"},"district":{"key":"08212","name":"Karlsruhe, Stadtkreis","type":"Stadtkreis"},"federalState":{"key":"08","name":"Baden-Württemberg"}},{"name":"Christian-Schneider-Str.","postalCode":"76185","locality":"Karlsruhe","municipality":{"key":"08212000","name":"Karlsruhe, Stadt","type":"Stadtkreis"},"district":{"key":"08212","name":"Karlsruhe, Stadtkreis","type":"Stadtkreis"},"federalState":{"key":"08","name":"Baden-Württemberg"}},{"name":"Christofstr.","postalCode":"76227","locality":"Karlsruhe","municipality":{"key":"08212000","name":"Karlsruhe, Stadt","type":"Stadtkreis"},"district":{"key":"08212","name":"Karlsruhe, Stadtkreis","type":"Stadtkreis"},"federalState":{"key":"08","name":"Baden-Württemberg"}},{"name":"Citypark Stadtpark","postalCode":"76137","locality":"Karlsruhe","municipality":{"key":"08212000","name":"Karlsruhe, Stadt","type":"Stadtkreis"},"district":{"key":"08212","name":"Karlsruhe, Stadtkreis","type":"Stadtkreis"},"federalState":{"key":"08","name":"Baden-Württemberg"}},{"name":"Curjel-und-Moser-Str.","postalCode":"76187","locality":"Karlsruhe","municipality":{"key":"08212000","name":"Karlsruhe, Stadt","type":"Stadtkreis"},"district":{"key":"08212","name":"Karlsruhe, Stadtkreis","type":"Stadtkreis"},"federalState":{"key":"08","name":"Baden-Württemberg"}},{"name":"Dekan-Schell-Str.","postalCode":"76698","locality":"Ubstadt-Weiher","municipality":{"key":"08215084","name":"Ubstadt-Weiher","type":"Kreisangehörige_Gemeinde"},"district":{"key":"08215","name":"Karlsruhe","type":"Landkreis"},"federalState":{"key":"08","name":"Baden-Württemberg"}},{"name":"Dietrich-Bonhoeffer-Str.","postalCode":"76698","locality":"Ubstadt-Weiher","municipality":{"key":"08215084","name":"Ubstadt-Weiher","type":"Kreisangehörige_Gemeinde"},"district":{"key":"08215","name":"Karlsruhe","type":"Landkreis"},"federalState":{"key":"08","name":"Baden-Württemberg"}},{"name":"Dorfgrabenstr.","postalCode":"76698","locality":"Ubstadt-Weiher","municipality":{"key":"08215084","name":"Ubstadt-Weiher","type":"Kreisangehörige_Gemeinde"},"district":{"key":"08215","name":"Karlsruhe","type":"Landkreis"},"federalState":{"key":"08","name":"Baden-Württemberg"}},{"name":"Ebene","postalCode":"76698","locality":"Ubstadt-Weiher","municipality":{"key":"08215084","name":"Ubstadt-Weiher","type":"Kreisangehörige_Gemeinde"},"district":{"key":"08215","name":"Karlsruhe","type":"Landkreis"},"federalState":{"key":"08","name":"Baden-Württemberg"}},{"name":"Eduard-Deutsch-Str.","postalCode":"76698","locality":"Ubstadt-Weiher","municipality":{"key":"08215084","name":"Ubstadt-Weiher","type":"Kreisangehörige_Gemeinde"},"district":{"key":"08215","name":"Karlsruhe","type":"Landkreis"},"federalState":{"key":"08","name":"Baden-Württemberg"}},{"name":"Elisabeth-Veith-Str.","postalCode":"76698","locality":"Ubstadt-Weiher","municipality":{"key":"08215084","name":"Ubstadt-Weiher","type":"Kreisangehörige_Gemeinde"},"district":{"key":"08215","name":"Karlsruhe","type":"Landkreis"},"federalState":{"key":"08","name":"Baden-Württemberg"}},{"name":"Engelswiesenrichtweg","postalCode":"76698","locality":"Ubstadt-Weiher","municipality":{"key":"08215084","name":"Ubstadt-Weiher","type":"Kreisangehörige_Gemeinde"},"district":{"key":"08215","name":"Karlsruhe","type":"Landkreis"},"federalState":{"key":"08","name":"Baden-Württemberg"}},{"name":"Engelterhohle","postalCode":"76698","locality":"Ubstadt-Weiher","municipality":{"key":"08215084","name":"Ubstadt-Weiher","type":"Kreisangehörige_Gemeinde"},"district":{"key":"08215","name":"Karlsruhe","type":"Landkreis"},"federalState":{"key":"08","name":"Baden-Württemberg"}},{"name":"Erlengrund","postalCode":"76698","locality":"Ubstadt-Weiher","municipality":{"key":"08215084","name":"Ubstadt-Weiher","type":"Kreisangehörige_Gemeinde"},"district":{"key":"08215","name":"Karlsruhe","type":"Landkreis"},"federalState":{"key":"08","name":"Baden-Württemberg"}},{"name":"Falltorstr.","postalCode":"76698","locality":"Ubstadt-Weiher","municipality":{"key":"08215084","name":"Ubstadt-Weiher","type":"Kreisangehörige_Gemeinde"},"district":{"key":"08215","name":"Karlsruhe","type":"Landkreis"},"federalState":{"key":"08","name":"Baden-Württemberg"}},{"name":"Forster Str.","postalCode":"76698","locality":"Ubstadt-Weiher","municipality":{"key":"08215084","name":"Ubstadt-Weiher","type":"Kreisangehörige_Gemeinde"},"district":{"key":"08215","name":"Karlsruhe","type":"Landkreis"},"federalState":{"key":"08","name":"Baden-Württemberg"}},{"name":"Friedenstr.","postalCode":"76698","locality":"Ubstadt-Weiher","municipality":{"key":"08215084","name":"Ubstadt-Weiher","type":"Kreisangehörige_Gemeinde"},"district":{"key":"08215","name":"Karlsruhe","type":"Landkreis"},"federalState":{"key":"08","name":"Baden-Württemberg"}},{"name":"Furtwiese","postalCode":"76698","locality":"Ubstadt-Weiher","municipality":{"key":"08215084","name":"Ubstadt-Weiher","type":"Kreisangehörige_Gemeinde"},"district":{"key":"08215","name":"Karlsruhe","type":"Landkreis"},"federalState":{"key":"08","name":"Baden-Württemberg"}},{"name":"Gartenstr.","postalCode":"76698","locality":"Ubstadt-Weiher","municipality":{"key":"08215084","name":"Ubstadt-Weiher","type":"Kreisangehörige_Gemeinde"},"district":{"key":"08215","name":"Karlsruhe","type":"Landkreis"},"federalState":{"key":"08","name":"Baden-Württemberg"}},{"name":"Gärtnerstr.","postalCode":"76698","locality":"Ubstadt-Weiher","municipality":{"key":"08215084","name":"Ubstadt-Weiher","type":"Kreisangehörige_Gemeinde"},"district":{"key":"08215","name":"Karlsruhe","type":"Landkreis"},"federalState":{"key":"08","name":"Baden-Württemberg"}},{"name":"Goethestr.","postalCode":"76698","locality":"Ubstadt-Weiher","municipality":{"key":"08215084","name":"Ubstadt-Weiher","type":"Kreisangehörige_Gemeinde"},"district":{"key":"08215","name":"Karlsruhe","type":"Landkreis"},"federalState":{"key":"08","name":"Baden-Württemberg"}},{"name":"Grabenstr.","postalCode":"76698","locality":"Ubstadt-Weiher","municipality":{"key":"08215084","name":"Ubstadt-Weiher","type":"Kreisangehörige_Gemeinde"},"district":{"key":"08215","name":"Karlsruhe","type":"Landkreis"},"federalState":{"key":"08","name":"Baden-Württemberg"}},{"name":"Großer Sand","postalCode":"76698","locality":"Ubstadt-Weiher","municipality":{"key":"08215084","name":"Ubstadt-Weiher","type":"Kreisangehörige_Gemeinde"},"district":{"key":"08215","name":"Karlsruhe","type":"Landkreis"},"federalState":{"key":"08","name":"Baden-Württemberg"}},{"name":"Grüner Hof","postalCode":"76698","locality":"Ubstadt-Weiher","municipality":{"key":"08215084","name":"Ubstadt-Weiher","type":"Kreisangehörige_Gemeinde"},"district":{"key":"08215","name":"Karlsruhe","type":"Landkreis"},"federalState":{"key":"08","name":"Baden-Württemberg"}},{"name":"Haagstr.","postalCode":"76698","locality":"Ubstadt-Weiher","municipality":{"key":"08215084","name":"Ubstadt-Weiher","type":"Kreisangehörige_Gemeinde"},"district":{"key":"08215","name":"Karlsruhe","type":"Landkreis"},"federalState":{"key":"08","name":"Baden-Württemberg"}},{"name":"Hahnenstr.","postalCode":"76698","locality":"Ubstadt-Weiher","municipality":{"key":"08215084","name":"Ubstadt-Weiher","type":"Kreisangehörige_Gemeinde"},"district":{"key":"08215","name":"Karlsruhe","type":"Landkreis"},"federalState":{"key":"08","name":"Baden-Württemberg"}},{"name":"Hambrückener Weg","postalCode":"76698","locality":"Ubstadt-Weiher","municipality":{"key":"08215084","name":"Ubstadt-Weiher","type":"Kreisangehörige_Gemeinde"},"district":{"key":"08215","name":"Karlsruhe","type":"Landkreis"},"federalState":{"key":"08","name":"Baden-Württemberg"}},{"name":"Hans-Thoma-Str.","postalCode":"76698","locality":"Ubstadt-Weiher","municipality":{"key":"08215084","name":"Ubstadt-Weiher","type":"Kreisangehörige_Gemeinde"},"district":{"key":"08215","name":"Karlsruhe","type":"Landkreis"},"federalState":{"key":"08","name":"Baden-Württemberg"}},{"name":"Hauptstr.","postalCode":"76698","locality":"Ubstadt-Weiher","municipality":{"key":"08215084","name":"Ubstadt-Weiher","type":"Kreisangehörige_Gemeinde"},"district":{"key":"08215","name":"Karlsruhe","type":"Landkreis"},"federalState":{"key":"08","name":"Baden-Württemberg"}},{"name":"Häuserweg","postalCode":"76698","locality":"Ubstadt-Weiher","municipality":{"key":"08215084","name":"Ubstadt-Weiher","type":"Kreisangehörige_Gemeinde"},"district":{"key":"08215","name":"Karlsruhe","type":"Landkreis"},"federalState":{"key":"08","name":"Baden-Württemberg"}},{"name":"Hebelstr.","postalCode":"76698","locality":"Ubstadt-Weiher","municipality":{"key":"08215084","name":"Ubstadt-Weiher","type":"Kreisangehörige_Gemeinde"},"district":{"key":"08215","name":"Karlsruhe","type":"Landkreis"},"federalState":{"key":"08","name":"Baden-Württemberg"}},{"name":"Heerstr.","postalCode":"76698","locality":"Ubstadt-Weiher","municipality":{"key":"08215084","name":"Ubstadt-Weiher","type":"Kreisangehörige_Gemeinde"},"district":{"key":"08215","name":"Karlsruhe","type":"Landkreis"},"federalState":{"key":"08","name":"Baden-Württemberg"}},{"name":"Herbstenbrühl","postalCode":"76698","locality":"Ubstadt-Weiher","municipality":{"key":"08215084","name":"Ubstadt-Weiher","type":"Kreisangehörige_Gemeinde"},"district":{"key":"08215","name":"Karlsruhe","type":"Landkreis"},"federalState":{"key":"08","name":"Baden-Württemberg"}},{"name":"Hindenburgstr.","postalCode":"76698","locality":"Ubstadt-Weiher","municipality":{"key":"08215084","name":"Ubstadt-Weiher","type":"Kreisangehörige_Gemeinde"},"district":{"key":"08215","name":"Karlsruhe","type":"Landkreis"},"federalState":{"key":"08","name":"Baden-Württemberg"}},{"name":"Hinter den Gärten","postalCode":"76698","locality":"Ubstadt-Weiher","municipality":{"key":"08215084","name":"Ubstadt-Weiher","type":"Kreisangehörige_Gemeinde"},"district":{"key":"08215","name":"Karlsruhe","type":"Landkreis"},"federalState":{"key":"08","name":"Baden-Württemberg"}},{"name":"Hinteres Kirchgäßchen","postalCode":"76698","locality":"Ubstadt-Weiher","municipality":{"key":"08215084","name":"Ubstadt-Weiher","type":"Kreisangehörige_Gemeinde"},"district":{"key":"08215","name":"Karlsruhe","type":"Landkreis"},"federalState":{"key":"08","name":"Baden-Württemberg"}},{"name":"Hirschstr.","postalCode":"76698","locality":"Ubstadt-Weiher","municipality":{"key":"08215084","name":"Ubstadt-Weiher","type":"Kreisangehörige_Gemeinde"},"district":{"key":"08215","name":"Karlsruhe","type":"Landkreis"},"federalState":{"key":"08","name":"Baden-Württemberg"}},{"name":"Hochstattweg","postalCode":"76698","locality":"Ubstadt-Weiher","municipality":{"key":"08215084","name":"Ubstadt-Weiher","type":"Kreisangehörige_Gemeinde"},"district":{"key":"08215","name":"Karlsruhe","type":"Landkreis"},"federalState":{"key":"08","name":"Baden-Württemberg"}},{"name":"Hochstiftweg","postalCode":"76698","locality":"Ubstadt-Weiher","municipality":{"key":"08215084","name":"Ubstadt-Weiher","type":"Kreisangehörige_Gemeinde"},"district":{"key":"08215","name":"Karlsruhe","type":"Landkreis"},"federalState":{"key":"08","name":"Baden-Württemberg"}},{"name":"Hochwiesenweg","postalCode":"76698","locality":"Ubstadt-Weiher","municipality":{"key":"08215084","name":"Ubstadt-Weiher","type":"Kreisangehörige_Gemeinde"},"district":{"key":"08215","name":"Karlsruhe","type":"Landkreis"},"federalState":{"key":"08","name":"Baden-Württemberg"}},{"name":"Hofäckerstr.","postalCode":"76698","locality":"Ubstadt-Weiher","municipality":{"key":"08215084","name":"Ubstadt-Weiher","type":"Kreisangehörige_Gemeinde"},"district":{"key":"08215","name":"Karlsruhe","type":"Landkreis"},"federalState":{"key":"08","name":"Baden-Württemberg"}},{"name":"Hohberghohle","postalCode":"76698","locality":"Ubstadt-Weiher","municipality":{"key":"08215084","name":"Ubstadt-Weiher","type":"Kreisangehörige_Gemeinde"},"district":{"key":"08215","name":"Karlsruhe","type":"Landkreis"},"federalState":{"key":"08","name":"Baden-Württemberg"}},{"name":"Hohermuthstr.","postalCode":"76698","locality":"Ubstadt-Weiher","municipality":{"key":"08215084","name":"Ubstadt-Weiher","type":"Kreisangehörige_Gemeinde"},"district":{"key":"08215","name":"Karlsruhe","type":"Landkreis"},"federalState":{"key":"08","name":"Baden-Württemberg"}},{"name":"Hubenweg","postalCode":"76698","locality":"Ubstadt-Weiher","municipality":{"key":"08215084","name":"Ubstadt-Weiher","type":"Kreisangehörige_Gemeinde"},"district":{"key":"08215","name":"Karlsruhe","type":"Landkreis"},"federalState":{"key":"08","name":"Baden-Württemberg"}},{"name":"Hubert-Meisel-Str.","postalCode":"76698","locality":"Ubstadt-Weiher","municipality":{"key":"08215084","name":"Ubstadt-Weiher","type":"Kreisangehörige_Gemeinde"},"district":{"key":"08215","name":"Karlsruhe","type":"Landkreis"},"federalState":{"key":"08","name":"Baden-Württemberg"}},{"name":"Hühnerberg","postalCode":"76698","locality":"Ubstadt-Weiher","municipality":{"key":"08215084","name":"Ubstadt-Weiher","type":"Kreisangehörige_Gemeinde"},"district":{"key":"08215","name":"Karlsruhe","type":"Landkreis"},"federalState":{"key":"08","name":"Baden-Württemberg"}},{"name":"Humboldtstr.","postalCode":"76698","locality":"Ubstadt-Weiher","municipality":{"key":"08215084","name":"Ubstadt-Weiher","type":"Kreisangehörige_Gemeinde"},"district":{"key":"08215","name":"Karlsruhe","type":"Landkreis"},"federalState":{"key":"08","name":"Baden-Württemberg"}},{"name":"Im Mittelfeld","postalCode":"76698","locality":"Ubstadt-Weiher","municipality":{"key":"08215084","name":"Ubstadt-Weiher","type":"Kreisangehörige_Gemeinde"},"district":{"key":"08215","name":"Karlsruhe","type":"Landkreis"},"federalState":{"key":"08","name":"Baden-Württemberg"}},{"name":"Im Schleicher","postalCode":"76698","locality":"Ubstadt-Weiher","municipality":{"key":"08215084","name":"Ubstadt-Weiher","type":"Kreisangehörige_Gemeinde"},"district":{"key":"08215","name":"Karlsruhe","type":"Landkreis"},"federalState":{"key":"08","name":"Baden-Württemberg"}},{"name":"Im Stern","postalCode":"76698","locality":"Ubstadt-Weiher","municipality":{"key":"08215084","name":"Ubstadt-Weiher","type":"Kreisangehörige_Gemeinde"},"district":{"key":"08215","name":"Karlsruhe","type":"Landkreis"},"federalState":{"key":"08","name":"Baden-Württemberg"}},{"name":"Im Unterfeld","postalCode":"76698","locality":"Ubstadt-Weiher","municipality":{"key":"08215084","name":"Ubstadt-Weiher","type":"Kreisangehörige_Gemeinde"},"district":{"key":"08215","name":"Karlsruhe","type":"Landkreis"},"federalState":{"key":"08","name":"Baden-Württemberg"}},{"name":"In der Hardt","postalCode":"76698","locality":"Ubstadt-Weiher","municipality":{"key":"08215084","name":"Ubstadt-Weiher","type":"Kreisangehörige_Gemeinde"},"district":{"key":"08215","name":"Karlsruhe","type":"Landkreis"},"federalState":{"key":"08","name":"Baden-Württemberg"}},{"name":"In der Mulde","postalCode":"76698","locality":"Ubstadt-Weiher","municipality":{"key":"08215084","name":"Ubstadt-Weiher","type":"Kreisangehörige_Gemeinde"},"district":{"key":"08215","name":"Karlsruhe","type":"Landkreis"},"federalState":{"key":"08","name":"Baden-Württemberg"}},{"name":"Industriestr.","postalCode":"76698","locality":"Ubstadt-Weiher","municipality":{"key":"08215084","name":"Ubstadt-Weiher","type":"Kreisangehörige_Gemeinde"},"district":{"key":"08215","name":"Karlsruhe","type":"Landkreis"},"federalState":{"key":"08","name":"Baden-Württemberg"}},{"name":"Jahnstr.","postalCode":"76698","locality":"Ubstadt-Weiher","municipality":{"key":"08215084","name":"Ubstadt-Weiher","type":"Kreisangehörige_Gemeinde"},"district":{"key":"08215","name":"Karlsruhe","type":"Landkreis"},"federalState":{"key":"08","name":"Baden-Württemberg"}},{"name":"Kallenbergerweg","postalCode":"76698","locality":"Ubstadt-Weiher","municipality":{"key":"08215084","name":"Ubstadt-Weiher","type":"Kreisangehörige_Gemeinde"},"district":{"key":"08215","name":"Karlsruhe","type":"Landkreis"},"federalState":{"key":"08","name":"Baden-Württemberg"}},{"name":"Kapellenstr.","postalCode":"76698","locality":"Ubstadt-Weiher","municipality":{"key":"08215084","name":"Ubstadt-Weiher","type":"Kreisangehörige_Gemeinde"},"district":{"key":"08215","name":"Karlsruhe","type":"Landkreis"},"federalState":{"key":"08","name":"Baden-Württemberg"}},{"name":"Karl-Mayer-Ring","postalCode":"76698","locality":"Ubstadt-Weiher","municipality":{"key":"08215084","name":"Ubstadt-Weiher","type":"Kreisangehörige_Gemeinde"},"district":{"key":"08215","name":"Karlsruhe","type":"Landkreis"},"federalState":{"key":"08","name":"Baden-Württemberg"}},{"name":"Karl-Reiser-Str.","postalCode":"76698","locality":"Ubstadt-Weiher","municipality":{"key":"08215084","name":"Ubstadt-Weiher","type":"Kreisangehörige_Gemeinde"},"district":{"key":"08215","name":"Karlsruhe","type":"Landkreis"},"federalState":{"key":"08","name":"Baden-Württemberg"}},{"name":"Karl-Vetter-Ring","postalCode":"76698","locality":"Ubstadt-Weiher","municipality":{"key":"08215084","name":"Ubstadt-Weiher","type":"Kreisangehörige_Gemeinde"},"district":{"key":"08215","name":"Karlsruhe","type":"Landkreis"},"federalState":{"key":"08","name":"Baden-Württemberg"}},{"name":"Karl-Walter-Str.","postalCode":"76698","locality":"Ubstadt-Weiher","municipality":{"key":"08215084","name":"Ubstadt-Weiher","type":"Kreisangehörige_Gemeinde"},"district":{"key":"08215","name":"Karlsruhe","type":"Landkreis"},"federalState":{"key":"08","name":"Baden-Württemberg"}},{"name":"Kastanienplatz","postalCode":"76698","locality":"Ubstadt-Weiher","municipality":{"key":"08215084","name":"Ubstadt-Weiher","type":"Kreisangehörige_Gemeinde"},"district":{"key":"08215","name":"Karlsruhe","type":"Landkreis"},"federalState":{"key":"08","name":"Baden-Württemberg"}},{"name":"Kastanienweg","postalCode":"76698","locality":"Ubstadt-Weiher","municipality":{"key":"08215084","name":"Ubstadt-Weiher","type":"Kreisangehörige_Gemeinde"},"district":{"key":"08215","name":"Karlsruhe","type":"Landkreis"},"federalState":{"key":"08","name":"Baden-Württemberg"}},{"name":"Kelterhausstr.","postalCode":"76698","locality":"Ubstadt-Weiher","municipality":{"key":"08215084","name":"Ubstadt-Weiher","type":"Kreisangehörige_Gemeinde"},"district":{"key":"08215","name":"Karlsruhe","type":"Landkreis"},"federalState":{"key":"08","name":"Baden-Württemberg"}},{"name":"Kirchplatz","postalCode":"76698","locality":"Ubstadt-Weiher","municipality":{"key":"08215084","name":"Ubstadt-Weiher","type":"Kreisangehörige_Gemeinde"},"district":{"key":"08215","name":"Karlsruhe","type":"Landkreis"},"federalState":{"key":"08","name":"Baden-Württemberg"}},{"name":"Kirchstr.","postalCode":"76698","locality":"Ubstadt-Weiher","municipality":{"key":"08215084","name":"Ubstadt-Weiher","type":"Kreisangehörige_Gemeinde"},"district":{"key":"08215","name":"Karlsruhe","type":"Landkreis"},"federalState":{"key":"08","name":"Baden-Württemberg"}},{"name":"Kirschenweg","postalCode":"76698","locality":"Ubstadt-Weiher","municipality":{"key":"08215084","name":"Ubstadt-Weiher","type":"Kreisangehörige_Gemeinde"},"district":{"key":"08215","name":"Karlsruhe","type":"Landkreis"},"federalState":{"key":"08","name":"Baden-Württemberg"}},{"name":"Kohlbrückenweg","postalCode":"76698","locality":"Ubstadt-Weiher","municipality":{"key":"08215084","name":"Ubstadt-Weiher","type":"Kreisangehörige_Gemeinde"},"district":{"key":"08215","name":"Karlsruhe","type":"Landkreis"},"federalState":{"key":"08","name":"Baden-Württemberg"}},{"name":"Kohlweg","postalCode":"76698","locality":"Ubstadt-Weiher","municipality":{"key":"08215084","name":"Ubstadt-Weiher","type":"Kreisangehörige_Gemeinde"},"district":{"key":"08215","name":"Karlsruhe","type":"Landkreis"},"federalState":{"key":"08","name":"Baden-Württemberg"}},{"name":"Kolpingstr.","postalCode":"76698","locality":"Ubstadt-Weiher","municipality":{"key":"08215084","name":"Ubstadt-Weiher","type":"Kreisangehörige_Gemeinde"},"district":{"key":"08215","name":"Karlsruhe","type":"Landkreis"},"federalState":{"key":"08","name":"Baden-Württemberg"}},{"name":"Kraichgauer Weinstr.","postalCode":"76698","locality":"Ubstadt-Weiher","municipality":{"key":"08215084","name":"Ubstadt-Weiher","type":"Kreisangehörige_Gemeinde"},"district":{"key":"08215","name":"Karlsruhe","type":"Landkreis"},"federalState":{"key":"08","name":"Baden-Württemberg"}},{"name":"Kraichgaustr.","postalCode":"76698","locality":"Ubstadt-Weiher","municipality":{"key":"08215084","name":"Ubstadt-Weiher","type":"Kreisangehörige_Gemeinde"},"district":{"key":"08215","name":"Karlsruhe","type":"Landkreis"},"federalState":{"key":"08","name":"Baden-Württemberg"}},{"name":"Kreuzstr.","postalCode":"76698","locality":"Ubstadt-Weiher","municipality":{"key":"08215084","name":"Ubstadt-Weiher","type":"Kreisangehörige_Gemeinde"},"district":{"key":"08215","name":"Karlsruhe","type":"Landkreis"},"federalState":{"key":"08","name":"Baden-Württemberg"}},{"name":"Kringelrain","postalCode":"76698","locality":"Ubstadt-Weiher","municipality":{"key":"08215084","name":"Ubstadt-Weiher","type":"Kreisangehörige_Gemeinde"},"district":{"key":"08215","name":"Karlsruhe","type":"Landkreis"},"federalState":{"key":"08","name":"Baden-Württemberg"}},{"name":"Kronauer Allee","postalCode":"76698","locality":"Ubstadt-Weiher","municipality":{"key":"08215084","name":"Ubstadt-Weiher","type":"Kreisangehörige_Gemeinde"},"district":{"key":"08215","name":"Karlsruhe","type":"Landkreis"},"federalState":{"key":"08","name":"Baden-Württemberg"}},{"name":"Krumme Wiesen","postalCode":"76698","locality":"Ubstadt-Weiher","municipality":{"key":"08215084","name":"Ubstadt-Weiher","type":"Kreisangehörige_Gemeinde"},"district":{"key":"08215","name":"Karlsruhe","type":"Landkreis"},"federalState":{"key":"08","name":"Baden-Württemberg"}},{"name":"Küferweg","postalCode":"76698","locality":"Ubstadt-Weiher","municipality":{"key":"08215084","name":"Ubstadt-Weiher","type":"Kreisangehörige_Gemeinde"},"district":{"key":"08215","name":"Karlsruhe","type":"Landkreis"},"federalState":{"key":"08","name":"Baden-Württemberg"}},{"name":"Langstr.","postalCode":"76698","locality":"Ubstadt-Weiher","municipality":{"key":"08215084","name":"Ubstadt-Weiher","type":"Kreisangehörige_Gemeinde"},"district":{"key":"08215","name":"Karlsruhe","type":"Landkreis"},"federalState":{"key":"08","name":"Baden-Württemberg"}},{"name":"Lindenweg","postalCode":"76698","locality":"Ubstadt-Weiher","municipality":{"key":"08215084","name":"Ubstadt-Weiher","type":"Kreisangehörige_Gemeinde"},"district":{"key":"08215","name":"Karlsruhe","type":"Landkreis"},"federalState":{"key":"08","name":"Baden-Württemberg"}},{"name":"Löwengasse","postalCode":"76698","locality":"Ubstadt-Weiher","municipality":{"key":"08215084","name":"Ubstadt-Weiher","type":"Kreisangehörige_Gemeinde"},"district":{"key":"08215","name":"Karlsruhe","type":"Landkreis"},"federalState":{"key":"08","name":"Baden-Württemberg"}},{"name":"Lußhardtstr.","postalCode":"76698","locality":"Ubstadt-Weiher","municipality":{"key":"08215084","name":"Ubstadt-Weiher","type":"Kreisangehörige_Gemeinde"},"district":{"key":"08215","name":"Karlsruhe","type":"Landkreis"},"federalState":{"key":"08","name":"Baden-Württemberg"}},{"name":"Marcellusplatz","postalCode":"76698","locality":"Ubstadt-Weiher","municipality":{"key":"08215084","name":"Ubstadt-Weiher","type":"Kreisangehörige_Gemeinde"},"district":{"key":"08215","name":"Karlsruhe","type":"Landkreis"},"federalState":{"key":"08","name":"Baden-Württemberg"}},{"name":"Markwardstr.","postalCode":"76698","locality":"Ubstadt-Weiher","municipality":{"key":"08215084","name":"Ubstadt-Weiher","type":"Kreisangehörige_Gemeinde"},"district":{"key":"08215","name":"Karlsruhe","type":"Landkreis"},"federalState":{"key":"08","name":"Baden-Württemberg"}},{"name":"Moltkestr.","postalCode":"76698","locality":"Ubstadt-Weiher","municipality":{"key":"08215084","name":"Ubstadt-Weiher","type":"Kreisangehörige_Gemeinde"},"district":{"key":"08215","name":"Karlsruhe","type":"Landkreis"},"federalState":{"key":"08","name":"Baden-Württemberg"}},{"name":"Morgenweg","postalCode":"76698","locality":"Ubstadt-Weiher","municipality":{"key":"08215084","name":"Ubstadt-Weiher","type":"Kreisangehörige_Gemeinde"},"district":{"key":"08215","name":"Karlsruhe","type":"Landkreis"},"federalState":{"key":"08","name":"Baden-Württemberg"}},{"name":"Mozartweg","postalCode":"76698","locality":"Ubstadt-Weiher","municipality":{"key":"08215084","name":"Ubstadt-Weiher","type":"Kreisangehörige_Gemeinde"},"district":{"key":"08215","name":"Karlsruhe","type":"Landkreis"},"federalState":{"key":"08","name":"Baden-Württemberg"}},{"name":"Münzweg","postalCode":"76698","locality":"Ubstadt-Weiher","municipality":{"key":"08215084","name":"Ubstadt-Weiher","type":"Kreisangehörige_Gemeinde"},"district":{"key":"08215","name":"Karlsruhe","type":"Landkreis"},"federalState":{"key":"08","name":"Baden-Württemberg"}},{"name":"Natur- und Erlebnispfad","postalCode":"76698","locality":"Ubstadt-Weiher","municipality":{"key":"08215084","name":"Ubstadt-Weiher","type":"Kreisangehörige_Gemeinde"},"district":{"key":"08215","name":"Karlsruhe","type":"Landkreis"},"federalState":{"key":"08","name":"Baden-Württemberg"}},{"name":"Nelkenweg","postalCode":"76698","locality":"Ubstadt-Weiher","municipality":{"key":"08215084","name":"Ubstadt-Weiher","type":"Kreisangehörige_Gemeinde"},"district":{"key":"08215","name":"Karlsruhe","type":"Landkreis"},"federalState":{"key":"08","name":"Baden-Württemberg"}},{"name":"Neuweg","postalCode":"76698","locality":"Ubstadt-Weiher","municipality":{"key":"08215084","name":"Ubstadt-Weiher","type":"Kreisangehörige_Gemeinde"},"district":{"key":"08215","name":"Karlsruhe","type":"Landkreis"},"federalState":{"key":"08","name":"Baden-Württemberg"}},{"name":"Nikolausplatz","postalCode":"76698","locality":"Ubstadt-Weiher","municipality":{"key":"08215084","name":"Ubstadt-Weiher","type":"Kreisangehörige_Gemeinde"},"district":{"key":"08215","name":"Karlsruhe","type":"Landkreis"},"federalState":{"key":"08","name":"Baden-Württemberg"}},{"name":"Oberdorfstr.","postalCode":"76698","locality":"Ubstadt-Weiher","municipality":{"key":"08215084","name":"Ubstadt-Weiher","type":"Kreisangehörige_Gemeinde"},"district":{"key":"08215","name":"Karlsruhe","type":"Landkreis"},"federalState":{"key":"08","name":"Baden-Württemberg"}},{"name":"Obere Mühlstr.","postalCode":"76698","locality":"Ubstadt-Weiher","municipality":{"key":"08215084","name":"Ubstadt-Weiher","type":"Kreisangehörige_Gemeinde"},"district":{"key":"08215","name":"Karlsruhe","type":"Landkreis"},"federalState":{"key":"08","name":"Baden-Württemberg"}},{"name":"Obere Str.","postalCode":"76698","locality":"Ubstadt-Weiher","municipality":{"key":"08215084","name":"Ubstadt-Weiher","type":"Kreisangehörige_Gemeinde"},"district":{"key":"08215","name":"Karlsruhe","type":"Landkreis"},"federalState":{"key":"08","name":"Baden-Württemberg"}},{"name":"Paul-Dopf-Str.","postalCode":"76698","locality":"Ubstadt-Weiher","municipality":{"key":"08215084","name":"Ubstadt-Weiher","type":"Kreisangehörige_Gemeinde"},"district":{"key":"08215","name":"Karlsruhe","type":"Landkreis"},"federalState":{"key":"08","name":"Baden-Württemberg"}},{"name":"Peter-Weibel-Str.","postalCode":"76698","locality":"Ubstadt-Weiher","municipality":{"key":"08215084","name":"Ubstadt-Weiher","type":"Kreisangehörige_Gemeinde"},"district":{"key":"08215","name":"Karlsruhe","type":"Landkreis"},"federalState":{"key":"08","name":"Baden-Württemberg"}},{"name":"Pfarrer-Vogel-Str.","postalCode":"76698","locality":"Ubstadt-Weiher","municipality":{"key":"08215084","name":"Ubstadt-Weiher","type":"Kreisangehörige_Gemeinde"},"district":{"key":"08215","name":"Karlsruhe","type":"Landkreis"},"federalState":{"key":"08","name":"Baden-Württemberg"}},{"name":"Pfarrgarten","postalCode":"76698","locality":"Ubstadt-Weiher","municipality":{"key":"08215084","name":"Ubstadt-Weiher","type":"Kreisangehörige_Gemeinde"},"district":{"key":"08215","name":"Karlsruhe","type":"Landkreis"},"federalState":{"key":"08","name":"Baden-Württemberg"}},{"name":"Pfarrstr.","postalCode":"76698","locality":"Ubstadt-Weiher","municipality":{"key":"08215084","name":"Ubstadt-Weiher","type":"Kreisangehörige_Gemeinde"},"district":{"key":"08215","name":"Karlsruhe","type":"Landkreis"},"federalState":{"key":"08","name":"Baden-Württemberg"}},{"name":"Quellenstr.","postalCode":"76228","locality":"Karlsruhe","municipality":{"key":"08212000","name":"Karlsruhe, Stadt","type":"Stadtkreis"},"district":{"key":"08212","name":"Karlsruhe, Stadtkreis","type":"Stadtkreis"},"federalState":{"key":"08","name":"Baden-Württemberg"}},{"name":"Querstr.","postalCode":"76189","locality":"Karlsruhe","municipality":{"key":"08212000","name":"Karlsruhe, Stadt","type":"Stadtkreis"},"district":{"key":"08212","name":"Karlsruhe, Stadtkreis","type":"Stadtkreis"},"federalState":{"key":"08","name":"Baden-Württemberg"}},{"name":"Rebenweg","postalCode":"76698","locality":"Ubstadt-Weiher","municipality":{"key":"08215084","name":"Ubstadt-Weiher","type":"Kreisangehörige_Gemeinde"},"district":{"key":"08215","name":"Karlsruhe","type":"Landkreis"},"federalState":{"key":"08","name":"Baden-Württemberg"}},{"name":"Reinmarstr.","postalCode":"76698","locality":"Ubstadt-Weiher","municipality":{"key":"08215084","name":"Ubstadt-Weiher","type":"Kreisangehörige_Gemeinde"},"district":{"key":"08215","name":"Karlsruhe","type":"Landkreis"},"federalState":{"key":"08","name":"Baden-Württemberg"}},{"name":"Rennerweg","postalCode":"76698","locality":"Ubstadt-Weiher","municipality":{"key":"08215084","name":"Ubstadt-Weiher","type":"Kreisangehörige_Gemeinde"},"district":{"key":"08215","name":"Karlsruhe","type":"Landkreis"},"federalState":{"key":"08","name":"Baden-Württemberg"}},{"name":"Ringstr.","postalCode":"76698","locality":"Ubstadt-Weiher","municipality":{"key":"08215084","name":"Ubstadt-Weiher","type":"Kreisangehörige_Gemeinde"},"district":{"key":"08215","name":"Karlsruhe","type":"Landkreis"},"federalState":{"key":"08","name":"Baden-Württemberg"}},{"name":"Ritterstr.","postalCode":"76698","locality":"Ubstadt-Weiher","municipality":{"key":"08215084","name":"Ubstadt-Weiher","type":"Kreisangehörige_Gemeinde"},"district":{"key":"08215","name":"Karlsruhe","type":"Landkreis"},"federalState":{"key":"08","name":"Baden-Württemberg"}},{"name":"Robert-Koch-Str.","postalCode":"76698","locality":"Ubstadt-Weiher","municipality":{"key":"08215084","name":"Ubstadt-Weiher","type":"Kreisangehörige_Gemeinde"},"district":{"key":"08215","name":"Karlsruhe","type":"Landkreis"},"federalState":{"key":"08","name":"Baden-Württemberg"}},{"name":"Röhringstr.","postalCode":"76698","locality":"Ubstadt-Weiher","municipality":{"key":"08215084","name":"Ubstadt-Weiher","type":"Kreisangehörige_Gemeinde"},"district":{"key":"08215","name":"Karlsruhe","type":"Landkreis"},"federalState":{"key":"08","name":"Baden-Württemberg"}},{"name":"Römerstr.","postalCode":"76698","locality":"Ubstadt-Weiher","municipality":{"key":"08215084","name":"Ubstadt-Weiher","type":"Kreisangehörige_Gemeinde"},"district":{"key":"08215","name":"Karlsruhe","type":"Landkreis"},"federalState":{"key":"08","name":"Baden-Württemberg"}},{"name":"Rosenbergstr.","postalCode":"76698","locality":"Ubstadt-Weiher","municipality":{"key":"08215084","name":"Ubstadt-Weiher","type":"Kreisangehörige_Gemeinde"},"district":{"key":"08215","name":"Karlsruhe","type":"Landkreis"},"federalState":{"key":"08","name":"Baden-Württemberg"}},{"name":"Rosenweg","postalCode":"76698","locality":"Ubstadt-Weiher","municipality":{"key":"08215084","name":"Ubstadt-Weiher","type":"Kreisangehörige_Gemeinde"},"district":{"key":"08215","name":"Karlsruhe","type":"Landkreis"},"federalState":{"key":"08","name":"Baden-Württemberg"}},{"name":"Rudolf-Händel-Str.","postalCode":"76698","locality":"Ubstadt-Weiher","municipality":{"key":"08215084","name":"Ubstadt-Weiher","type":"Kreisangehörige_Gemeinde"},"district":{"key":"08215","name":"Karlsruhe","type":"Landkreis"},"federalState":{"key":"08","name":"Baden-Württemberg"}},{"name":"Rußgrabenweg","postalCode":"76698","locality":"Ubstadt-Weiher","municipality":{"key":"08215084","name":"Ubstadt-Weiher","type":"Kreisangehörige_Gemeinde"},"district":{"key":"08215","name":"Karlsruhe","type":"Landkreis"},"federalState":{"key":"08","name":"Baden-Württemberg"}},{"name":"Salzbrunnenstr.","postalCode":"76698","locality":"Ubstadt-Weiher","municipality":{"key":"08215084","name":"Ubstadt-Weiher","type":"Kreisangehörige_Gemeinde"},"district":{"key":"08215","name":"Karlsruhe","type":"Landkreis"},"federalState":{"key":"08","name":"Baden-Württemberg"}},{"name":"Schafgartenstr.","postalCode":"76698","locality":"Ubstadt-Weiher","municipality":{"key":"08215084","name":"Ubstadt-Weiher","type":"Kreisangehörige_Gemeinde"},"district":{"key":"08215","name":"Karlsruhe","type":"Landkreis"},"federalState":{"key":"08","name":"Baden-Württemberg"}},{"name":"Schafhaus","postalCode":"76698","locality":"Ubstadt-Weiher","municipality":{"key":"08215084","name":"Ubstadt-Weiher","type":"Kreisangehörige_Gemeinde"},"district":{"key":"08215","name":"Karlsruhe","type":"Landkreis"},"federalState":{"key":"08","name":"Baden-Württemberg"}},{"name":"Scheffelweg","postalCode":"76698","locality":"Ubstadt-Weiher","municipality":{"key":"08215084","name":"Ubstadt-Weiher","type":"Kreisangehörige_Gemeinde"},"district":{"key":"08215","name":"Karlsruhe","type":"Landkreis"},"federalState":{"key":"08","name":"Baden-Württemberg"}},{"name":"Schillerstr.","postalCode":"76698","locality":"Ubstadt-Weiher","municipality":{"key":"08215084","name":"Ubstadt-Weiher","type":"Kreisangehörige_Gemeinde"},"district":{"key":"08215","name":"Karlsruhe","type":"Landkreis"},"federalState":{"key":"08","name":"Baden-Württemberg"}},{"name":"Schönbornstr.","postalCode":"76698","locality":"Ubstadt-Weiher","municipality":{"key":"08215084","name":"Ubstadt-Weiher","type":"Kreisangehörige_Gemeinde"},"district":{"key":"08215","name":"Karlsruhe","type":"Landkreis"},"federalState":{"key":"08","name":"Baden-Württemberg"}},{"name":"Schönigstr.","postalCode":"76698","locality":"Ubstadt-Weiher","municipality":{"key":"08215084","name":"Ubstadt-Weiher","type":"Kreisangehörige_Gemeinde"},"district":{"key":"08215","name":"Karlsruhe","type":"Landkreis"},"federalState":{"key":"08","name":"Baden-Württemberg"}},{"name":"Schubertweg","postalCode":"76698","locality":"Ubstadt-Weiher","municipality":{"key":"08215084","name":"Ubstadt-Weiher","type":"Kreisangehörige_Gemeinde"},"district":{"key":"08215","name":"Karlsruhe","type":"Landkreis"},"federalState":{"key":"08","name":"Baden-Württemberg"}},{"name":"Schulstr.","postalCode":"76698","locality":"Ubstadt-Weiher","municipality":{"key":"08215084","name":"Ubstadt-Weiher","type":"Kreisangehörige_Gemeinde"},"district":{"key":"08215","name":"Karlsruhe","type":"Landkreis"},"federalState":{"key":"08","name":"Baden-Württemberg"}},{"name":"Schwangerberg","postalCode":"76698","locality":"Ubstadt-Weiher","municipality":{"key":"08215084","name":"Ubstadt-Weiher","type":"Kreisangehörige_Gemeinde"},"district":{"key":"08215","name":"Karlsruhe","type":"Landkreis"},"federalState":{"key":"08","name":"Baden-Württemberg"}},{"name":"Seegrabenstr.","postalCode":"76698","locality":"Ubstadt-Weiher","municipality":{"key":"08215084","name":"Ubstadt-Weiher","type":"Kreisangehörige_Gemeinde"},"district":{"key":"08215","name":"Karlsruhe","type":"Landkreis"},"federalState":{"key":"08","name":"Baden-Württemberg"}},{"name":"Silzengärten","postalCode":"76698","locality":"Ubstadt-Weiher","municipality":{"key":"08215084","name":"Ubstadt-Weiher","type":"Kreisangehörige_Gemeinde"},"district":{"key":"08215","name":"Karlsruhe","type":"Landkreis"},"federalState":{"key":"08","name":"Baden-Württemberg"}},{"name":"Spermelerhohle","postalCode":"76698","locality":"Ubstadt-Weiher","municipality":{"key":"08215084","name":"Ubstadt-Weiher","type":"Kreisangehörige_Gemeinde"},"district":{"key":"08215","name":"Karlsruhe","type":"Landkreis"},"federalState":{"key":"08","name":"Baden-Württemberg"}},{"name":"Speyerer Str.","postalCode":"76698","locality":"Ubstadt-Weiher","municipality":{"key":"08215084","name":"Ubstadt-Weiher","type":"Kreisangehörige_Gemeinde"},"district":{"key":"08215","name":"Karlsruhe","type":"Landkreis"},"federalState":{"key":"08","name":"Baden-Württemberg"}},{"name":"Spitzenäcker","postalCode":"76698","locality":"Ubstadt-Weiher","municipality":{"key":"08215084","name":"Ubstadt-Weiher","type":"Kreisangehörige_Gemeinde"},"district":{"key":"08215","name":"Karlsruhe","type":"Landkreis"},"federalState":{"key":"08","name":"Baden-Württemberg"}},{"name":"Steinacker","postalCode":"76698","locality":"Ubstadt-Weiher","municipality":{"key":"08215084","name":"Ubstadt-Weiher","type":"Kreisangehörige_Gemeinde"},"district":{"key":"08215","name":"Karlsruhe","type":"Landkreis"},"federalState":{"key":"08","name":"Baden-Württemberg"}},{"name":"Sternenweg","postalCode":"76698","locality":"Ubstadt-Weiher","municipality":{"key":"08215084","name":"Ubstadt-Weiher","type":"Kreisangehörige_Gemeinde"},"district":{"key":"08215","name":"Karlsruhe","type":"Landkreis"},"federalState":{"key":"08","name":"Baden-Württemberg"}},{"name":"Stettfelder Str.","postalCode":"76698","locality":"Ubstadt-Weiher","municipality":{"key":"08215084","name":"Ubstadt-Weiher","type":"Kreisangehörige_Gemeinde"},"district":{"key":"08215","name":"Karlsruhe","type":"Landkreis"},"federalState":{"key":"08","name":"Baden-Württemberg"}},{"name":"Stratthausweg","postalCode":"76698","locality":"Ubstadt-Weiher","municipality":{"key":"08215084","name":"Ubstadt-Weiher","type":"Kreisangehörige_Gemeinde"},"district":{"key":"08215","name":"Karlsruhe","type":"Landkreis"},"federalState":{"key":"08","name":"Baden-Württemberg"}},{"name":"Talstr.","postalCode":"76698","locality":"Ubstadt-Weiher","municipality":{"key":"08215084","name":"Ubstadt-Weiher","type":"Kreisangehörige_Gemeinde"},"district":{"key":"08215","name":"Karlsruhe","type":"Landkreis"},"federalState":{"key":"08","name":"Baden-Württemberg"}},{"name":"Talwiesen","postalCode":"76698","locality":"Ubstadt-Weiher","municipality":{"key":"08215084","name":"Ubstadt-Weiher","type":"Kreisangehörige_Gemeinde"},"district":{"key":"08215","name":"Karlsruhe","type":"Landkreis"},"federalState":{"key":"08","name":"Baden-Württemberg"}},{"name":"Tuchbleiche","postalCode":"76698","locality":"Ubstadt-Weiher","municipality":{"key":"08215084","name":"Ubstadt-Weiher","type":"Kreisangehörige_Gemeinde"},"district":{"key":"08215","name":"Karlsruhe","type":"Landkreis"},"federalState":{"key":"08","name":"Baden-Württemberg"}},{"name":"Tulpenweg","postalCode":"76698","locality":"Ubstadt-Weiher","municipality":{"key":"08215084","name":"Ubstadt-Weiher","type":"Kreisangehörige_Gemeinde"},"district":{"key":"08215","name":"Karlsruhe","type":"Landkreis"},"federalState":{"key":"08","name":"Baden-Württemberg"}},{"name":"Turmweg","postalCode":"76698","locality":"Ubstadt-Weiher","municipality":{"key":"08215084","name":"Ubstadt-Weiher","type":"Kreisangehörige_Gemeinde"},"district":{"key":"08215","name":"Karlsruhe","type":"Landkreis"},"federalState":{"key":"08","name":"Baden-Württemberg"}},{"name":"Ubstadter Str.","postalCode":"76698","locality":"Ubstadt-Weiher","municipality":{"key":"08215084","name":"Ubstadt-Weiher","type":"Kreisangehörige_Gemeinde"},"district":{"key":"08215","name":"Karlsruhe","type":"Landkreis"},"federalState":{"key":"08","name":"Baden-Württemberg"}},{"name":"Uhlandstr.","postalCode":"76698","locality":"Ubstadt-Weiher","municipality":{"key":"08215084","name":"Ubstadt-Weiher","type":"Kreisangehörige_Gemeinde"},"district":{"key":"08215","name":"Karlsruhe","type":"Landkreis"},"federalState":{"key":"08","name":"Baden-Württemberg"}},{"name":"Unterdorfstr.","postalCode":"76698","locality":"Ubstadt-Weiher","municipality":{"key":"08215084","name":"Ubstadt-Weiher","type":"Kreisangehörige_Gemeinde"},"district":{"key":"08215","name":"Karlsruhe","type":"Landkreis"},"federalState":{"key":"08","name":"Baden-Württemberg"}},{"name":"Untere Mühlstr.","postalCode":"76698","locality":"Ubstadt-Weiher","municipality":{"key":"08215084","name":"Ubstadt-Weiher","type":"Kreisangehörige_Gemeinde"},"district":{"key":"08215","name":"Karlsruhe","type":"Landkreis"},"federalState":{"key":"08","name":"Baden-Württemberg"}},{"name":"Unteröwisheimer Str.","postalCode":"76698","locality":"Ubstadt-Weiher","municipality":{"key":"08215084","name":"Ubstadt-Weiher","type":"Kreisangehörige_Gemeinde"},"district":{"key":"08215","name":"Karlsruhe","type":"Landkreis"},"federalState":{"key":"08","name":"Baden-Württemberg"}},{"name":"Valentinstr.","postalCode":"76189","locality":"Karlsruhe","municipality":{"key":"08212000","name":"Karlsruhe, Stadt","type":"Stadtkreis"},"district":{"key":"08212","name":"Karlsruhe, Stadtkreis","type":"Stadtkreis"},"federalState":{"key":"08","name":"Baden-Württemberg"}},{"name":"Veilchenstr.","postalCode":"76131","locality":"Karlsruhe","municipality":{"key":"08212000","name":"Karlsruhe, Stadt","type":"Stadtkreis"},"district":{"key":"08212","name":"Karlsruhe, Stadtkreis","type":"Stadtkreis"},"federalState":{"key":"08","name":"Baden-Württemberg"}},{"name":"Vermontring","postalCode":"76149","locality":"Karlsruhe","municipality":{"key":"08212000","name":"Karlsruhe, Stadt","type":"Stadtkreis"},"district":{"key":"08212","name":"Karlsruhe, Stadtkreis","type":"Stadtkreis"},"federalState":{"key":"08","name":"Baden-Württemberg"}},{"name":"Victor-Gollancz-Str.","postalCode":"76137","locality":"Karlsruhe","municipality":{"key":"08212000","name":"Karlsruhe, Stadt","type":"Stadtkreis"},"district":{"key":"08212","name":"Karlsruhe, Stadtkreis","type":"Stadtkreis"},"federalState":{"key":"08","name":"Baden-Württemberg"}},{"name":"Vierordtstr.","postalCode":"76228","locality":"Karlsruhe","municipality":{"key":"08212000","name":"Karlsruhe, Stadt","type":"Stadtkreis"},"district":{"key":"08212","name":"Karlsruhe, Stadtkreis","type":"Stadtkreis"},"federalState":{"key":"08","name":"Baden-Württemberg"}},{"name":"Vierzehn Morgen","postalCode":"76229","locality":"Karlsruhe","municipality":{"key":"08212000","name":"Karlsruhe, Stadt","type":"Stadtkreis"},"district":{"key":"08212","name":"Karlsruhe, Stadtkreis","type":"Stadtkreis"},"federalState":{"key":"08","name":"Baden-Württemberg"}},{"name":"Viktoriastr.","postalCode":"76133","locality":"Karlsruhe","municipality":{"key":"08212000","name":"Karlsruhe, Stadt","type":"Stadtkreis"},"district":{"key":"08212","name":"Karlsruhe, Stadtkreis","type":"Stadtkreis"},"federalState":{"key":"08","name":"Baden-Württemberg"}},{"name":"Vincentiusstr.","postalCode":"76137","locality":"Karlsruhe","municipality":{"key":"08212000","name":"Karlsruhe, Stadt","type":"Stadtkreis"},"district":{"key":"08212","name":"Karlsruhe, Stadtkreis","type":"Stadtkreis"},"federalState":{"key":"08","name":"Baden-Württemberg"}},{"name":"Vincenz-Prießnitz-Str.","postalCode":"76131","locality":"Karlsruhe","municipality":{"key":"08212000","name":"Karlsruhe, Stadt","type":"Stadtkreis"},"district":{"key":"08212","name":"Karlsruhe, Stadtkreis","type":"Stadtkreis"},"federalState":{"key":"08","name":"Baden-Württemberg"}},{"name":"Virchowstr.","postalCode":"76133","locality":"Karlsruhe","municipality":{"key":"08212000","name":"Karlsruhe, Stadt","type":"Stadtkreis"},"district":{"key":"08212","name":"Karlsruhe, Stadtkreis","type":"Stadtkreis"},"federalState":{"key":"08","name":"Baden-Württemberg"}},{"name":"Vogelsang","postalCode":"76229","locality":"Karlsruhe","municipality":{"key":"08212000","name":"Karlsruhe, Stadt","type":"Stadtkreis"},"district":{"key":"08212","name":"Karlsruhe, Stadtkreis","type":"Stadtkreis"},"federalState":{"key":"08","name":"Baden-Württemberg"}},{"name":"Vogesenbrücke","postalCode":"76185","locality":"Karlsruhe","municipality":{"key":"08212000","name":"Karlsruhe, Stadt","type":"Stadtkreis"},"district":{"key":"08212","name":"Karlsruhe, Stadtkreis","type":"Stadtkreis"},"federalState":{"key":"08","name":"Baden-Württemberg"}},{"name":"Vogtstr.","postalCode":"76149","locality":"Karlsruhe","municipality":{"key":"08212000","name":"Karlsruhe, Stadt","type":"Stadtkreis"},"district":{"key":"08212","name":"Karlsruhe, Stadtkreis","type":"Stadtkreis"},"federalState":{"key":"08","name":"Baden-Württemberg"}},{"name":"Vokkenaustr.","postalCode":"76139","locality":"Karlsruhe","municipality":{"key":"08212000","name":"Karlsruhe, Stadt","type":"Stadtkreis"},"district":{"key":"08212","name":"Karlsruhe, Stadtkreis","type":"Stadtkreis"},"federalState":{"key":"08","name":"Baden-Württemberg"}},{"name":"Volzstr.","postalCode":"76185","locality":"Karlsruhe","municipality":{"key":"08212000","name":"Karlsruhe, Stadt","type":"Stadtkreis"},"district":{"key":"08212","name":"Karlsruhe, Stadtkreis","type":"Stadtkreis"},"federalState":{"key":"08","name":"Baden-Württemberg"}},{"name":"Von-Beck-Str.","postalCode":"76133","locality":"Karlsruhe","municipality":{"key":"08212000","name":"Karlsruhe, Stadt","type":"Stadtkreis"},"district":{"key":"08212","name":"Karlsruhe, Stadtkreis","type":"Stadtkreis"},"federalState":{"key":"08","name":"Baden-Württemberg"}},{"name":"Vorarlberger Str.","postalCode":"76227","locality":"Karlsruhe","municipality":{"key":"08212000","name":"Karlsruhe, Stadt","type":"Stadtkreis"},"district":{"key":"08212","name":"Karlsruhe, Stadtkreis","type":"Stadtkreis"},"federalState":{"key":"08","name":"Baden-Württemberg"}},{"name":"Vorbergstr.","postalCode":"76228","locality":"Karlsruhe","municipality":{"key":"08212000","name":"Karlsruhe, Stadt","type":"Stadtkreis"},"district":{"key":"08212","name":"Karlsruhe, Stadtkreis","type":"Stadtkreis"},"federalState":{"key":"08","name":"Baden-Württemberg"}},{"name":"Vorderstr.","postalCode":"76189","locality":"Karlsruhe","municipality":{"key":"08212000","name":"Karlsruhe, Stadt","type":"Stadtkreis"},"district":{"key":"08212","name":"Karlsruhe, Stadtkreis","type":"Stadtkreis"},"federalState":{"key":"08","name":"Baden-Württemberg"}},{"name":"Vorholzstr.","postalCode":"76135","locality":"Karlsruhe","municipality":{"key":"08212000","name":"Karlsruhe, Stadt","type":"Stadtkreis"},"district":{"key":"08212","name":"Karlsruhe, Stadtkreis","type":"Stadtkreis"},"federalState":{"key":"08","name":"Baden-Württemberg"}},{"name":"Vorholzstr.","postalCode":"76137","locality":"Karlsruhe","municipality":{"key":"08212000","name":"Karlsruhe, Stadt","type":"Stadtkreis"},"district":{"key":"08212","name":"Karlsruhe, Stadtkreis","type":"Stadtkreis"},"federalState":{"key":"08","name":"Baden-Württemberg"}},{"name":"Waldmühle","postalCode":"76698","locality":"Ubstadt-Weiher","municipality":{"key":"08215084","name":"Ubstadt-Weiher","type":"Kreisangehörige_Gemeinde"},"district":{"key":"08215","name":"Karlsruhe","type":"Landkreis"},"federalState":{"key":"08","name":"Baden-Württemberg"}},{"name":"Waldstr.","postalCode":"76698","locality":"Ubstadt-Weiher","municipality":{"key":"08215084","name":"Ubstadt-Weiher","type":"Kreisangehörige_Gemeinde"},"district":{"key":"08215","name":"Karlsruhe","type":"Landkreis"},"federalState":{"key":"08","name":"Baden-Württemberg"}},{"name":"Weidenäcker","postalCode":"76698","locality":"Ubstadt-Weiher","municipality":{"key":"08215084","name":"Ubstadt-Weiher","type":"Kreisangehörige_Gemeinde"},"district":{"key":"08215","name":"Karlsruhe","type":"Landkreis"},"federalState":{"key":"08","name":"Baden-Württemberg"}},{"name":"Weihbett","postalCode":"76698","locality":"Ubstadt-Weiher","municipality":{"key":"08215084","name":"Ubstadt-Weiher","type":"Kreisangehörige_Gemeinde"},"district":{"key":"08215","name":"Karlsruhe","type":"Landkreis"},"federalState":{"key":"08","name":"Baden-Württemberg"}},{"name":"Weiheräcker","postalCode":"76698","locality":"Ubstadt-Weiher","municipality":{"key":"08215084","name":"Ubstadt-Weiher","type":"Kreisangehörige_Gemeinde"},"district":{"key":"08215","name":"Karlsruhe","type":"Landkreis"},"federalState":{"key":"08","name":"Baden-Württemberg"}},{"name":"Weiherer Str.","postalCode":"76698","locality":"Ubstadt-Weiher","municipality":{"key":"08215084","name":"Ubstadt-Weiher","type":"Kreisangehörige_Gemeinde"},"district":{"key":"08215","name":"Karlsruhe","type":"Landkreis"},"federalState":{"key":"08","name":"Baden-Württemberg"}},{"name":"Wendelinusstr.","postalCode":"76698","locality":"Ubstadt-Weiher","municipality":{"key":"08215084","name":"Ubstadt-Weiher","type":"Kreisangehörige_Gemeinde"},"district":{"key":"08215","name":"Karlsruhe","type":"Landkreis"},"federalState":{"key":"08","name":"Baden-Württemberg"}},{"name":"Westring","postalCode":"76698","locality":"Ubstadt-Weiher","municipality":{"key":"08215084","name":"Ubstadt-Weiher","type":"Kreisangehörige_Gemeinde"},"district":{"key":"08215","name":"Karlsruhe","type":"Landkreis"},"federalState":{"key":"08","name":"Baden-Württemberg"}},{"name":"Wiesenstr.","postalCode":"76698","locality":"Ubstadt-Weiher","municipality":{"key":"08215084","name":"Ubstadt-Weiher","type":"Kreisangehörige_Gemeinde"},"district":{"key":"08215","name":"Karlsruhe","type":"Landkreis"},"federalState":{"key":"08","name":"Baden-Württemberg"}},{"name":"Wilarestr.","postalCode":"76698","locality":"Ubstadt-Weiher","municipality":{"key":"08215084","name":"Ubstadt-Weiher","type":"Kreisangehörige_Gemeinde"},"district":{"key":"08215","name":"Karlsruhe","type":"Landkreis"},"federalState":{"key":"08","name":"Baden-Württemberg"}},{"name":"Wolfgangstr.","postalCode":"76698","locality":"Ubstadt-Weiher","municipality":{"key":"08215084","name":"Ubstadt-Weiher","type":"Kreisangehörige_Gemeinde"},"district":{"key":"08215","name":"Karlsruhe","type":"Landkreis"},"federalState":{"key":"08","name":"Baden-Württemberg"}},{"name":"Yburgweg","postalCode":"76189","locality":"Karlsruhe","municipality":{"key":"08212000","name":"Karlsruhe, Stadt","type":"Stadtkreis"},"district":{"key":"08212","name":"Karlsruhe, Stadtkreis","type":"Stadtkreis"},"federalState":{"key":"08","name":"Baden-Württemberg"}},{"name":"Yorckplatz","postalCode":"76135","locality":"Karlsruhe","municipality":{"key":"08212000","name":"Karlsruhe, Stadt","type":"Stadtkreis"},"district":{"key":"08212","name":"Karlsruhe, Stadtkreis","type":"Stadtkreis"},"federalState":{"key":"08","name":"Baden-Württemberg"}},{"name":"Yorckstr.","postalCode":"76185","locality":"Karlsruhe","municipality":{"key":"08212000","name":"Karlsruhe, Stadt","type":"Stadtkreis"},"district":{"key":"08212","name":"Karlsruhe, Stadtkreis","type":"Stadtkreis"},"federalState":{"key":"08","name":"Baden-Württemberg"}},{"name":"Zeuterner Dschungelweg","postalCode":"76698","locality":"Ubstadt-Weiher","municipality":{"key":"08215084","name":"Ubstadt-Weiher","type":"Kreisangehörige_Gemeinde"},"district":{"key":"08215","name":"Karlsruhe","type":"Landkreis"},"federalState":{"key":"08","name":"Baden-Württemberg"}},{"name":"Zeuterner Str.","postalCode":"76698","locality":"Ubstadt-Weiher","municipality":{"key":"08215084","name":"Ubstadt-Weiher","type":"Kreisangehörige_Gemeinde"},"district":{"key":"08215","name":"Karlsruhe","type":"Landkreis"},"federalState":{"key":"08","name":"Baden-Württemberg"}},{"name":"Zum Altacker","postalCode":"76698","locality":"Ubstadt-Weiher","municipality":{"key":"08215084","name":"Ubstadt-Weiher","type":"Kreisangehörige_Gemeinde"},"district":{"key":"08215","name":"Karlsruhe","type":"Landkreis"},"federalState":{"key":"08","name":"Baden-Württemberg"}},{"name":"Zum Grenzgraben","postalCode":"76698","locality":"Ubstadt-Weiher","municipality":{"key":"08215084","name":"Ubstadt-Weiher","type":"Kreisangehörige_Gemeinde"},"district":{"key":"08215","name":"Karlsruhe","type":"Landkreis"},"federalState":{"key":"08","name":"Baden-Württemberg"}},{"name":"Zum Himmelreich","postalCode":"76698","locality":"Ubstadt-Weiher","municipality":{"key":"08215084","name":"Ubstadt-Weiher","type":"Kreisangehörige_Gemeinde"},"district":{"key":"08215","name":"Karlsruhe","type":"Landkreis"},"federalState":{"key":"08","name":"Baden-Württemberg"}},{"name":"Zum Kleebühl","postalCode":"76698","locality":"Ubstadt-Weiher","municipality":{"key":"08215084","name":"Ubstadt-Weiher","type":"Kreisangehörige_Gemeinde"},"district":{"key":"08215","name":"Karlsruhe","type":"Landkreis"},"federalState":{"key":"08","name":"Baden-Württemberg"}},{"name":"Zum Schemel","postalCode":"76698","locality":"Ubstadt-Weiher","municipality":{"key":"08215084","name":"Ubstadt-Weiher","type":"Kreisangehörige_Gemeinde"},"district":{"key":"08215","name":"Karlsruhe","type":"Landkreis"},"federalState":{"key":"08","name":"Baden-Württemberg"}},{"name":"Zum Spermel","postalCode":"76698","locality":"Ubstadt-Weiher","municipality":{"key":"08215084","name":"Ubstadt-Weiher","type":"Kreisangehörige_Gemeinde"},"district":{"key":"08215","name":"Karlsruhe","type":"Landkreis"},"federalState":{"key":"08","name":"Baden-Württemberg"}},{"name":"Ährenweg","postalCode":"76135","locality":"Karlsruhe","municipality":{"key":"08212000","name":"Karlsruhe, Stadt","type":"Stadtkreis"},"district":{"key":"08212","name":"Karlsruhe, Stadtkreis","type":"Stadtkreis"},"federalState":{"key":"08","name":"Baden-Württemberg"}},{"name":"Ölgartenweg","postalCode":"76189","locality":"Karlsruhe","municipality":{"key":"08212000","name":"Karlsruhe, Stadt","type":"Stadtkreis"},"district":{"key":"08212","name":"Karlsruhe, Stadtkreis","type":"Stadtkreis"},"federalState":{"key":"08","name":"Baden-Württemberg"}},{"name":"Östliche Rheinbrückenstr.","postalCode":"76187","locality":"Karlsruhe","municipality":{"key":"08212000","name":"Karlsruhe, Stadt","type":"Stadtkreis"},"district":{"key":"08212","name":"Karlsruhe, Stadtkreis","type":"Stadtkreis"},"federalState":{"key":"08","name":"Baden-Württemberg"}},{"name":"Überrückweg","postalCode":"76698","locality":"Ubstadt-Weiher","municipality":{"key":"08215084","name":"Ubstadt-Weiher","type":"Kreisangehörige_Gemeinde"},"district":{"key":"08215","name":"Karlsruhe","type":"Landkreis"},"federalState":{"key":"08","name":"Baden-Württemberg"}},]