[{"name":"Ablachblick","postalCode":"88605","locality":"Meßkirch","municipality":{"key":"08437078","name":"Meßkirch, Stadt","type":"Stadt"},"district":{"key":"08437","name":"Sigmaringen","type":"Landkreis"},"federalState":{"key":"08","name":"Baden-Württemberg"}},{"name":"Ablachbrücke","postalCode":"88605","locality":"Meßkirch","municipality":{"key":"08437078","name":"Meßkirch, Stadt","type":"Stadt"},"district":{"key":"08437","name":"Sigmaringen","type":"Landkreis"},"federalState":{"key":"08","name":"Baden-Württemberg"}},{"name":"Ablachstr.","postalCode":"88605","locality":"Meßkirch","municipality":{"key":"08437078","name":"Meßkirch, Stadt","type":"Stadt"},"district":{"key":"08437","name":"Sigmaringen","type":"Landkreis"},"federalState":{"key":"08","name":"Baden-Württemberg"}},{"name":"Abraham-a-Sancta-Clara-Str.","postalCode":"88605","locality":"Meßkirch","municipality":{"key":"08437078","name":"Meßkirch, Stadt","type":"Stadt"},"district":{"key":"08437","name":"Sigmaringen","type":"Landkreis"},"federalState":{"key":"08","name":"Baden-Württemberg"}},{"name":"Adlerplatz","postalCode":"88605","locality":"Meßkirch","municipality":{"key":"08437078","name":"Meßkirch, Stadt","type":"Stadt"},"district":{"key":"08437","name":"Sigmaringen","type":"Landkreis"},"federalState":{"key":"08","name":"Baden-Württemberg"}},{"name":"Ahornweg","postalCode":"88605","locality":"Meßkirch","municipality":{"key":"08437078","name":"Meßkirch, Stadt","type":"Stadt"},"district":{"key":"08437","name":"Sigmaringen","type":"Landkreis"},"federalState":{"key":"08","name":"Baden-Württemberg"}},{"name":"Aktionsfläche","postalCode":"88605","locality":"Meßkirch","municipality":{"key":"08437078","name":"Meßkirch, Stadt","type":"Stadt"},"district":{"key":"08437","name":"Sigmaringen","type":"Landkreis"},"federalState":{"key":"08","name":"Baden-Württemberg"}},{"name":"Albert-Krautheimer-Str.","postalCode":"88605","locality":"Meßkirch","municipality":{"key":"08437078","name":"Meßkirch, Stadt","type":"Stadt"},"district":{"key":"08437","name":"Sigmaringen","type":"Landkreis"},"federalState":{"key":"08","name":"Baden-Württemberg"}},{"name":"Albert-Schweitzer-Str.","postalCode":"88605","locality":"Meßkirch","municipality":{"key":"08437078","name":"Meßkirch, Stadt","type":"Stadt"},"district":{"key":"08437","name":"Sigmaringen","type":"Landkreis"},"federalState":{"key":"08","name":"Baden-Württemberg"}},{"name":"Albweg","postalCode":"88605","locality":"Meßkirch","municipality":{"key":"08437078","name":"Meßkirch, Stadt","type":"Stadt"},"district":{"key":"08437","name":"Sigmaringen","type":"Landkreis"},"federalState":{"key":"08","name":"Baden-Württemberg"}},{"name":"Altstattweg","postalCode":"88605","locality":"Meßkirch","municipality":{"key":"08437078","name":"Meßkirch, Stadt","type":"Stadt"},"district":{"key":"08437","name":"Sigmaringen","type":"Landkreis"},"federalState":{"key":"08","name":"Baden-Württemberg"}},{"name":"Am Feldweg","postalCode":"88605","locality":"Meßkirch","municipality":{"key":"08437078","name":"Meßkirch, Stadt","type":"Stadt"},"district":{"key":"08437","name":"Sigmaringen","type":"Landkreis"},"federalState":{"key":"08","name":"Baden-Württemberg"}},{"name":"Am Gerbertürle","postalCode":"88605","locality":"Meßkirch","municipality":{"key":"08437078","name":"Meßkirch, Stadt","type":"Stadt"},"district":{"key":"08437","name":"Sigmaringen","type":"Landkreis"},"federalState":{"key":"08","name":"Baden-Württemberg"}},{"name":"Am Hauptbühl","postalCode":"88605","locality":"Meßkirch","municipality":{"key":"08437078","name":"Meßkirch, Stadt","type":"Stadt"},"district":{"key":"08437","name":"Sigmaringen","type":"Landkreis"},"federalState":{"key":"08","name":"Baden-Württemberg"}},{"name":"Am Jordanbach","postalCode":"88605","locality":"Meßkirch","municipality":{"key":"08437078","name":"Meßkirch, Stadt","type":"Stadt"},"district":{"key":"08437","name":"Sigmaringen","type":"Landkreis"},"federalState":{"key":"08","name":"Baden-Württemberg"}},{"name":"Am Kirchberg","postalCode":"88605","locality":"Meßkirch","municipality":{"key":"08437078","name":"Meßkirch, Stadt","type":"Stadt"},"district":{"key":"08437","name":"Sigmaringen","type":"Landkreis"},"federalState":{"key":"08","name":"Baden-Württemberg"}},{"name":"Am Letten","postalCode":"88605","locality":"Meßkirch","municipality":{"key":"08437078","name":"Meßkirch, Stadt","type":"Stadt"},"district":{"key":"08437","name":"Sigmaringen","type":"Landkreis"},"federalState":{"key":"08","name":"Baden-Württemberg"}},{"name":"Am Mühlkanal","postalCode":"88605","locality":"Meßkirch","municipality":{"key":"08437078","name":"Meßkirch, Stadt","type":"Stadt"},"district":{"key":"08437","name":"Sigmaringen","type":"Landkreis"},"federalState":{"key":"08","name":"Baden-Württemberg"}},{"name":"Am Münzkreuz","postalCode":"88605","locality":"Meßkirch","municipality":{"key":"08437078","name":"Meßkirch, Stadt","type":"Stadt"},"district":{"key":"08437","name":"Sigmaringen","type":"Landkreis"},"federalState":{"key":"08","name":"Baden-Württemberg"}},{"name":"Am Rainle","postalCode":"88605","locality":"Meßkirch","municipality":{"key":"08437078","name":"Meßkirch, Stadt","type":"Stadt"},"district":{"key":"08437","name":"Sigmaringen","type":"Landkreis"},"federalState":{"key":"08","name":"Baden-Württemberg"}},{"name":"Am Schützenhaus","postalCode":"88605","locality":"Meßkirch","municipality":{"key":"08437078","name":"Meßkirch, Stadt","type":"Stadt"},"district":{"key":"08437","name":"Sigmaringen","type":"Landkreis"},"federalState":{"key":"08","name":"Baden-Württemberg"}},{"name":"Am Stachus","postalCode":"88605","locality":"Meßkirch","municipality":{"key":"08437078","name":"Meßkirch, Stadt","type":"Stadt"},"district":{"key":"08437","name":"Sigmaringen","type":"Landkreis"},"federalState":{"key":"08","name":"Baden-Württemberg"}},{"name":"Am Talbach","postalCode":"88605","locality":"Meßkirch","municipality":{"key":"08437078","name":"Meßkirch, Stadt","type":"Stadt"},"district":{"key":"08437","name":"Sigmaringen","type":"Landkreis"},"federalState":{"key":"08","name":"Baden-Württemberg"}},{"name":"Am Unterwasser","postalCode":"88605","locality":"Meßkirch","municipality":{"key":"08437078","name":"Meßkirch, Stadt","type":"Stadt"},"district":{"key":"08437","name":"Sigmaringen","type":"Landkreis"},"federalState":{"key":"08","name":"Baden-Württemberg"}},{"name":"An Hofäcker","postalCode":"88605","locality":"Meßkirch","municipality":{"key":"08437078","name":"Meßkirch, Stadt","type":"Stadt"},"district":{"key":"08437","name":"Sigmaringen","type":"Landkreis"},"federalState":{"key":"08","name":"Baden-Württemberg"}},{"name":"Anton-Gabele-Str.","postalCode":"88605","locality":"Meßkirch","municipality":{"key":"08437078","name":"Meßkirch, Stadt","type":"Stadt"},"district":{"key":"08437","name":"Sigmaringen","type":"Landkreis"},"federalState":{"key":"08","name":"Baden-Württemberg"}},{"name":"Asamstr.","postalCode":"88605","locality":"Meßkirch","municipality":{"key":"08437078","name":"Meßkirch, Stadt","type":"Stadt"},"district":{"key":"08437","name":"Sigmaringen","type":"Landkreis"},"federalState":{"key":"08","name":"Baden-Württemberg"}},{"name":"Auf der Tannen","postalCode":"88605","locality":"Meßkirch","municipality":{"key":"08437078","name":"Meßkirch, Stadt","type":"Stadt"},"district":{"key":"08437","name":"Sigmaringen","type":"Landkreis"},"federalState":{"key":"08","name":"Baden-Württemberg"}},{"name":"Badenwerkstr.","postalCode":"88605","locality":"Meßkirch","municipality":{"key":"08437078","name":"Meßkirch, Stadt","type":"Stadt"},"district":{"key":"08437","name":"Sigmaringen","type":"Landkreis"},"federalState":{"key":"08","name":"Baden-Württemberg"}},{"name":"Bahnhofstr.","postalCode":"88605","locality":"Meßkirch","municipality":{"key":"08437078","name":"Meßkirch, Stadt","type":"Stadt"},"district":{"key":"08437","name":"Sigmaringen","type":"Landkreis"},"federalState":{"key":"08","name":"Baden-Württemberg"}},{"name":"Beethovenstr.","postalCode":"88605","locality":"Meßkirch","municipality":{"key":"08437078","name":"Meßkirch, Stadt","type":"Stadt"},"district":{"key":"08437","name":"Sigmaringen","type":"Landkreis"},"federalState":{"key":"08","name":"Baden-Württemberg"}},{"name":"Benzenbergstr.","postalCode":"88605","locality":"Meßkirch","municipality":{"key":"08437078","name":"Meßkirch, Stadt","type":"Stadt"},"district":{"key":"08437","name":"Sigmaringen","type":"Landkreis"},"federalState":{"key":"08","name":"Baden-Württemberg"}},{"name":"Bergstr.","postalCode":"88605","locality":"Meßkirch","municipality":{"key":"08437078","name":"Meßkirch, Stadt","type":"Stadt"},"district":{"key":"08437","name":"Sigmaringen","type":"Landkreis"},"federalState":{"key":"08","name":"Baden-Württemberg"}},{"name":"Bernhard-Welte-Weg","postalCode":"88605","locality":"Meßkirch","municipality":{"key":"08437078","name":"Meßkirch, Stadt","type":"Stadt"},"district":{"key":"08437","name":"Sigmaringen","type":"Landkreis"},"federalState":{"key":"08","name":"Baden-Württemberg"}},{"name":"Bichtlinger Str.","postalCode":"88605","locality":"Meßkirch","municipality":{"key":"08437078","name":"Meßkirch, Stadt","type":"Stadt"},"district":{"key":"08437","name":"Sigmaringen","type":"Landkreis"},"federalState":{"key":"08","name":"Baden-Württemberg"}},{"name":"Birkenweg","postalCode":"88605","locality":"Meßkirch","municipality":{"key":"08437078","name":"Meßkirch, Stadt","type":"Stadt"},"district":{"key":"08437","name":"Sigmaringen","type":"Landkreis"},"federalState":{"key":"08","name":"Baden-Württemberg"}},{"name":"Bohlweg","postalCode":"88605","locality":"Meßkirch","municipality":{"key":"08437078","name":"Meßkirch, Stadt","type":"Stadt"},"district":{"key":"08437","name":"Sigmaringen","type":"Landkreis"},"federalState":{"key":"08","name":"Baden-Württemberg"}},{"name":"Bohnackerweg","postalCode":"88605","locality":"Meßkirch","municipality":{"key":"08437078","name":"Meßkirch, Stadt","type":"Stadt"},"district":{"key":"08437","name":"Sigmaringen","type":"Landkreis"},"federalState":{"key":"08","name":"Baden-Württemberg"}},{"name":"Brahmsweg","postalCode":"88605","locality":"Meßkirch","municipality":{"key":"08437078","name":"Meßkirch, Stadt","type":"Stadt"},"district":{"key":"08437","name":"Sigmaringen","type":"Landkreis"},"federalState":{"key":"08","name":"Baden-Württemberg"}},{"name":"Brucköschweg","postalCode":"88605","locality":"Meßkirch","municipality":{"key":"08437078","name":"Meßkirch, Stadt","type":"Stadt"},"district":{"key":"08437","name":"Sigmaringen","type":"Landkreis"},"federalState":{"key":"08","name":"Baden-Württemberg"}},{"name":"Brühlstr.","postalCode":"88605","locality":"Meßkirch","municipality":{"key":"08437078","name":"Meßkirch, Stadt","type":"Stadt"},"district":{"key":"08437","name":"Sigmaringen","type":"Landkreis"},"federalState":{"key":"08","name":"Baden-Württemberg"}},{"name":"Brühlweg","postalCode":"88605","locality":"Meßkirch","municipality":{"key":"08437078","name":"Meßkirch, Stadt","type":"Stadt"},"district":{"key":"08437","name":"Sigmaringen","type":"Landkreis"},"federalState":{"key":"08","name":"Baden-Württemberg"}},{"name":"Brunnenäcker","postalCode":"88605","locality":"Meßkirch","municipality":{"key":"08437078","name":"Meßkirch, Stadt","type":"Stadt"},"district":{"key":"08437","name":"Sigmaringen","type":"Landkreis"},"federalState":{"key":"08","name":"Baden-Württemberg"}},{"name":"Buchenäcker","postalCode":"88605","locality":"Meßkirch","municipality":{"key":"08437078","name":"Meßkirch, Stadt","type":"Stadt"},"district":{"key":"08437","name":"Sigmaringen","type":"Landkreis"},"federalState":{"key":"08","name":"Baden-Württemberg"}},{"name":"Buffenhofen","postalCode":"88605","locality":"Meßkirch","municipality":{"key":"08437078","name":"Meßkirch, Stadt","type":"Stadt"},"district":{"key":"08437","name":"Sigmaringen","type":"Landkreis"},"federalState":{"key":"08","name":"Baden-Württemberg"}},{"name":"Bühläcker","postalCode":"88605","locality":"Meßkirch","municipality":{"key":"08437078","name":"Meßkirch, Stadt","type":"Stadt"},"district":{"key":"08437","name":"Sigmaringen","type":"Landkreis"},"federalState":{"key":"08","name":"Baden-Württemberg"}},{"name":"Carl-Hauser-Str.","postalCode":"88605","locality":"Meßkirch","municipality":{"key":"08437078","name":"Meßkirch, Stadt","type":"Stadt"},"district":{"key":"08437","name":"Sigmaringen","type":"Landkreis"},"federalState":{"key":"08","name":"Baden-Württemberg"}},{"name":"Conradin-Kreutzer-Str.","postalCode":"88605","locality":"Meßkirch","municipality":{"key":"08437078","name":"Meßkirch, Stadt","type":"Stadt"},"district":{"key":"08437","name":"Sigmaringen","type":"Landkreis"},"federalState":{"key":"08","name":"Baden-Württemberg"}},{"name":"Daimlerstr.","postalCode":"88605","locality":"Meßkirch","municipality":{"key":"08437078","name":"Meßkirch, Stadt","type":"Stadt"},"district":{"key":"08437","name":"Sigmaringen","type":"Landkreis"},"federalState":{"key":"08","name":"Baden-Württemberg"}},{"name":"Dorfstr.","postalCode":"88605","locality":"Meßkirch","municipality":{"key":"08437078","name":"Meßkirch, Stadt","type":"Stadt"},"district":{"key":"08437","name":"Sigmaringen","type":"Landkreis"},"federalState":{"key":"08","name":"Baden-Württemberg"}},{"name":"Dr.-Conrad-Gröber-Str.","postalCode":"88605","locality":"Meßkirch","municipality":{"key":"08437078","name":"Meßkirch, Stadt","type":"Stadt"},"district":{"key":"08437","name":"Sigmaringen","type":"Landkreis"},"federalState":{"key":"08","name":"Baden-Württemberg"}},{"name":"Edisonweg","postalCode":"88605","locality":"Meßkirch","municipality":{"key":"08437078","name":"Meßkirch, Stadt","type":"Stadt"},"district":{"key":"08437","name":"Sigmaringen","type":"Landkreis"},"federalState":{"key":"08","name":"Baden-Württemberg"}},{"name":"Eichwasen","postalCode":"88605","locality":"Meßkirch","municipality":{"key":"08437078","name":"Meßkirch, Stadt","type":"Stadt"},"district":{"key":"08437","name":"Sigmaringen","type":"Landkreis"},"federalState":{"key":"08","name":"Baden-Württemberg"}},{"name":"Einsteinweg","postalCode":"88605","locality":"Meßkirch","municipality":{"key":"08437078","name":"Meßkirch, Stadt","type":"Stadt"},"district":{"key":"08437","name":"Sigmaringen","type":"Landkreis"},"federalState":{"key":"08","name":"Baden-Württemberg"}},{"name":"Engelswieser Weg","postalCode":"88605","locality":"Meßkirch","municipality":{"key":"08437078","name":"Meßkirch, Stadt","type":"Stadt"},"district":{"key":"08437","name":"Sigmaringen","type":"Landkreis"},"federalState":{"key":"08","name":"Baden-Württemberg"}},{"name":"Erlenweg","postalCode":"88605","locality":"Meßkirch","municipality":{"key":"08437078","name":"Meßkirch, Stadt","type":"Stadt"},"district":{"key":"08437","name":"Sigmaringen","type":"Landkreis"},"federalState":{"key":"08","name":"Baden-Württemberg"}},{"name":"Feldherrnstr.","postalCode":"88605","locality":"Meßkirch","municipality":{"key":"08437078","name":"Meßkirch, Stadt","type":"Stadt"},"district":{"key":"08437","name":"Sigmaringen","type":"Landkreis"},"federalState":{"key":"08","name":"Baden-Württemberg"}},{"name":"Felsenäcker","postalCode":"88605","locality":"Meßkirch","municipality":{"key":"08437078","name":"Meßkirch, Stadt","type":"Stadt"},"district":{"key":"08437","name":"Sigmaringen","type":"Landkreis"},"federalState":{"key":"08","name":"Baden-Württemberg"}},{"name":"Feuerbachstr.","postalCode":"88605","locality":"Meßkirch","municipality":{"key":"08437078","name":"Meßkirch, Stadt","type":"Stadt"},"district":{"key":"08437","name":"Sigmaringen","type":"Landkreis"},"federalState":{"key":"08","name":"Baden-Württemberg"}},{"name":"Fliederweg","postalCode":"88605","locality":"Meßkirch","municipality":{"key":"08437078","name":"Meßkirch, Stadt","type":"Stadt"},"district":{"key":"08437","name":"Sigmaringen","type":"Landkreis"},"federalState":{"key":"08","name":"Baden-Württemberg"}},{"name":"Forsthausweg","postalCode":"88605","locality":"Meßkirch","municipality":{"key":"08437078","name":"Meßkirch, Stadt","type":"Stadt"},"district":{"key":"08437","name":"Sigmaringen","type":"Landkreis"},"federalState":{"key":"08","name":"Baden-Württemberg"}},{"name":"Friedhofweg","postalCode":"88605","locality":"Meßkirch","municipality":{"key":"08437078","name":"Meßkirch, Stadt","type":"Stadt"},"district":{"key":"08437","name":"Sigmaringen","type":"Landkreis"},"federalState":{"key":"08","name":"Baden-Württemberg"}},{"name":"Friedrich-Ebert-Str.","postalCode":"88605","locality":"Meßkirch","municipality":{"key":"08437078","name":"Meßkirch, Stadt","type":"Stadt"},"district":{"key":"08437","name":"Sigmaringen","type":"Landkreis"},"federalState":{"key":"08","name":"Baden-Württemberg"}},{"name":"Friedrich-Stärk-Weg","postalCode":"88605","locality":"Meßkirch","municipality":{"key":"08437078","name":"Meßkirch, Stadt","type":"Stadt"},"district":{"key":"08437","name":"Sigmaringen","type":"Landkreis"},"federalState":{"key":"08","name":"Baden-Württemberg"}},{"name":"Fuchsgasse","postalCode":"88605","locality":"Meßkirch","municipality":{"key":"08437078","name":"Meßkirch, Stadt","type":"Stadt"},"district":{"key":"08437","name":"Sigmaringen","type":"Landkreis"},"federalState":{"key":"08","name":"Baden-Württemberg"}},{"name":"Gänslerweg","postalCode":"88605","locality":"Meßkirch","municipality":{"key":"08437078","name":"Meßkirch, Stadt","type":"Stadt"},"district":{"key":"08437","name":"Sigmaringen","type":"Landkreis"},"federalState":{"key":"08","name":"Baden-Württemberg"}},{"name":"Gögginger Weg","postalCode":"88605","locality":"Meßkirch","municipality":{"key":"08437078","name":"Meßkirch, Stadt","type":"Stadt"},"district":{"key":"08437","name":"Sigmaringen","type":"Landkreis"},"federalState":{"key":"08","name":"Baden-Württemberg"}},{"name":"Goldener Winkel","postalCode":"88605","locality":"Meßkirch","municipality":{"key":"08437078","name":"Meßkirch, Stadt","type":"Stadt"},"district":{"key":"08437","name":"Sigmaringen","type":"Landkreis"},"federalState":{"key":"08","name":"Baden-Württemberg"}},{"name":"Goldöschstr.","postalCode":"88605","locality":"Meßkirch","municipality":{"key":"08437078","name":"Meßkirch, Stadt","type":"Stadt"},"district":{"key":"08437","name":"Sigmaringen","type":"Landkreis"},"federalState":{"key":"08","name":"Baden-Württemberg"}},{"name":"Grabenbachstr.","postalCode":"88605","locality":"Meßkirch","municipality":{"key":"08437078","name":"Meßkirch, Stadt","type":"Stadt"},"district":{"key":"08437","name":"Sigmaringen","type":"Landkreis"},"federalState":{"key":"08","name":"Baden-Württemberg"}},{"name":"Grabenstr.","postalCode":"88605","locality":"Meßkirch","municipality":{"key":"08437078","name":"Meßkirch, Stadt","type":"Stadt"},"district":{"key":"08437","name":"Sigmaringen","type":"Landkreis"},"federalState":{"key":"08","name":"Baden-Württemberg"}},{"name":"Graf-Eberhard-Str.","postalCode":"88605","locality":"Meßkirch","municipality":{"key":"08437078","name":"Meßkirch, Stadt","type":"Stadt"},"district":{"key":"08437","name":"Sigmaringen","type":"Landkreis"},"federalState":{"key":"08","name":"Baden-Württemberg"}},{"name":"Graf-Mangold-Str.","postalCode":"88605","locality":"Meßkirch","municipality":{"key":"08437078","name":"Meßkirch, Stadt","type":"Stadt"},"district":{"key":"08437","name":"Sigmaringen","type":"Landkreis"},"federalState":{"key":"08","name":"Baden-Württemberg"}},{"name":"Gremlichstr.","postalCode":"88605","locality":"Meßkirch","municipality":{"key":"08437078","name":"Meßkirch, Stadt","type":"Stadt"},"district":{"key":"08437","name":"Sigmaringen","type":"Landkreis"},"federalState":{"key":"08","name":"Baden-Württemberg"}},{"name":"Gutenbergstr.","postalCode":"88605","locality":"Meßkirch","municipality":{"key":"08437078","name":"Meßkirch, Stadt","type":"Stadt"},"district":{"key":"08437","name":"Sigmaringen","type":"Landkreis"},"federalState":{"key":"08","name":"Baden-Württemberg"}},{"name":"Haldenweg","postalCode":"88605","locality":"Meßkirch","municipality":{"key":"08437078","name":"Meßkirch, Stadt","type":"Stadt"},"district":{"key":"08437","name":"Sigmaringen","type":"Landkreis"},"federalState":{"key":"08","name":"Baden-Württemberg"}},{"name":"Hans-Sachs-Str.","postalCode":"88605","locality":"Meßkirch","municipality":{"key":"08437078","name":"Meßkirch, Stadt","type":"Stadt"},"district":{"key":"08437","name":"Sigmaringen","type":"Landkreis"},"federalState":{"key":"08","name":"Baden-Württemberg"}},{"name":"Hauptbühlweg","postalCode":"88605","locality":"Meßkirch","municipality":{"key":"08437078","name":"Meßkirch, Stadt","type":"Stadt"},"district":{"key":"08437","name":"Sigmaringen","type":"Landkreis"},"federalState":{"key":"08","name":"Baden-Württemberg"}},{"name":"Hauptstr.","postalCode":"88605","locality":"Meßkirch","municipality":{"key":"08437078","name":"Meßkirch, Stadt","type":"Stadt"},"district":{"key":"08437","name":"Sigmaringen","type":"Landkreis"},"federalState":{"key":"08","name":"Baden-Württemberg"}},{"name":"Hebelstr.","postalCode":"88605","locality":"Meßkirch","municipality":{"key":"08437078","name":"Meßkirch, Stadt","type":"Stadt"},"district":{"key":"08437","name":"Sigmaringen","type":"Landkreis"},"federalState":{"key":"08","name":"Baden-Württemberg"}},{"name":"Heimradstr.","postalCode":"88605","locality":"Meßkirch","municipality":{"key":"08437078","name":"Meßkirch, Stadt","type":"Stadt"},"district":{"key":"08437","name":"Sigmaringen","type":"Landkreis"},"federalState":{"key":"08","name":"Baden-Württemberg"}},{"name":"Heinrich-Heine-Str.","postalCode":"88605","locality":"Meßkirch","municipality":{"key":"08437078","name":"Meßkirch, Stadt","type":"Stadt"},"district":{"key":"08437","name":"Sigmaringen","type":"Landkreis"},"federalState":{"key":"08","name":"Baden-Württemberg"}},{"name":"Heinrich-Hertz-Weg","postalCode":"88605","locality":"Meßkirch","municipality":{"key":"08437078","name":"Meßkirch, Stadt","type":"Stadt"},"district":{"key":"08437","name":"Sigmaringen","type":"Landkreis"},"federalState":{"key":"08","name":"Baden-Württemberg"}},{"name":"Heinstetter Str.","postalCode":"88605","locality":"Meßkirch","municipality":{"key":"08437078","name":"Meßkirch, Stadt","type":"Stadt"},"district":{"key":"08437","name":"Sigmaringen","type":"Landkreis"},"federalState":{"key":"08","name":"Baden-Württemberg"}},{"name":"Heubergblick","postalCode":"88605","locality":"Meßkirch","municipality":{"key":"08437078","name":"Meßkirch, Stadt","type":"Stadt"},"district":{"key":"08437","name":"Sigmaringen","type":"Landkreis"},"federalState":{"key":"08","name":"Baden-Württemberg"}},{"name":"Heudorfer Str.","postalCode":"88605","locality":"Meßkirch","municipality":{"key":"08437078","name":"Meßkirch, Stadt","type":"Stadt"},"district":{"key":"08437","name":"Sigmaringen","type":"Landkreis"},"federalState":{"key":"08","name":"Baden-Württemberg"}},{"name":"Hinter dem Rathaus","postalCode":"88605","locality":"Meßkirch","municipality":{"key":"08437078","name":"Meßkirch, Stadt","type":"Stadt"},"district":{"key":"08437","name":"Sigmaringen","type":"Landkreis"},"federalState":{"key":"08","name":"Baden-Württemberg"}},{"name":"Hinterer Stockertweg","postalCode":"88605","locality":"Meßkirch","municipality":{"key":"08437078","name":"Meßkirch, Stadt","type":"Stadt"},"district":{"key":"08437","name":"Sigmaringen","type":"Landkreis"},"federalState":{"key":"08","name":"Baden-Württemberg"}},{"name":"Hofgarten","postalCode":"88605","locality":"Meßkirch","municipality":{"key":"08437078","name":"Meßkirch, Stadt","type":"Stadt"},"district":{"key":"08437","name":"Sigmaringen","type":"Landkreis"},"federalState":{"key":"08","name":"Baden-Württemberg"}},{"name":"Hofstatt","postalCode":"88605","locality":"Meßkirch","municipality":{"key":"08437078","name":"Meßkirch, Stadt","type":"Stadt"},"district":{"key":"08437","name":"Sigmaringen","type":"Landkreis"},"federalState":{"key":"08","name":"Baden-Württemberg"}},{"name":"Höfwiesen","postalCode":"88605","locality":"Meßkirch","municipality":{"key":"08437078","name":"Meßkirch, Stadt","type":"Stadt"},"district":{"key":"08437","name":"Sigmaringen","type":"Landkreis"},"federalState":{"key":"08","name":"Baden-Württemberg"}},{"name":"Hohenbuchenallee","postalCode":"88605","locality":"Meßkirch","municipality":{"key":"08437078","name":"Meßkirch, Stadt","type":"Stadt"},"district":{"key":"08437","name":"Sigmaringen","type":"Landkreis"},"federalState":{"key":"08","name":"Baden-Württemberg"}},{"name":"Höhenweg","postalCode":"88605","locality":"Meßkirch","municipality":{"key":"08437078","name":"Meßkirch, Stadt","type":"Stadt"},"district":{"key":"08437","name":"Sigmaringen","type":"Landkreis"},"federalState":{"key":"08","name":"Baden-Württemberg"}},{"name":"Hohenzollernstr.","postalCode":"88605","locality":"Meßkirch","municipality":{"key":"08437078","name":"Meßkirch, Stadt","type":"Stadt"},"district":{"key":"08437","name":"Sigmaringen","type":"Landkreis"},"federalState":{"key":"08","name":"Baden-Württemberg"}},{"name":"Hölzlemer Weg","postalCode":"88605","locality":"Meßkirch","municipality":{"key":"08437078","name":"Meßkirch, Stadt","type":"Stadt"},"district":{"key":"08437","name":"Sigmaringen","type":"Landkreis"},"federalState":{"key":"08","name":"Baden-Württemberg"}},{"name":"Humboldtstr.","postalCode":"88605","locality":"Meßkirch","municipality":{"key":"08437078","name":"Meßkirch, Stadt","type":"Stadt"},"district":{"key":"08437","name":"Sigmaringen","type":"Landkreis"},"federalState":{"key":"08","name":"Baden-Württemberg"}},{"name":"Igelswieser Str.","postalCode":"88605","locality":"Meßkirch","municipality":{"key":"08437078","name":"Meßkirch, Stadt","type":"Stadt"},"district":{"key":"08437","name":"Sigmaringen","type":"Landkreis"},"federalState":{"key":"08","name":"Baden-Württemberg"}},{"name":"Im Brühl","postalCode":"88605","locality":"Meßkirch","municipality":{"key":"08437078","name":"Meßkirch, Stadt","type":"Stadt"},"district":{"key":"08437","name":"Sigmaringen","type":"Landkreis"},"federalState":{"key":"08","name":"Baden-Württemberg"}},{"name":"Im Buhlen","postalCode":"88605","locality":"Meßkirch","municipality":{"key":"08437078","name":"Meßkirch, Stadt","type":"Stadt"},"district":{"key":"08437","name":"Sigmaringen","type":"Landkreis"},"federalState":{"key":"08","name":"Baden-Württemberg"}},{"name":"Im Ehnried","postalCode":"88605","locality":"Meßkirch","municipality":{"key":"08437078","name":"Meßkirch, Stadt","type":"Stadt"},"district":{"key":"08437","name":"Sigmaringen","type":"Landkreis"},"federalState":{"key":"08","name":"Baden-Württemberg"}},{"name":"Im Kirchenösch","postalCode":"88605","locality":"Meßkirch","municipality":{"key":"08437078","name":"Meßkirch, Stadt","type":"Stadt"},"district":{"key":"08437","name":"Sigmaringen","type":"Landkreis"},"federalState":{"key":"08","name":"Baden-Württemberg"}},{"name":"Im Kleinöschle","postalCode":"88605","locality":"Meßkirch","municipality":{"key":"08437078","name":"Meßkirch, Stadt","type":"Stadt"},"district":{"key":"08437","name":"Sigmaringen","type":"Landkreis"},"federalState":{"key":"08","name":"Baden-Württemberg"}},{"name":"Im Moos","postalCode":"88605","locality":"Meßkirch","municipality":{"key":"08437078","name":"Meßkirch, Stadt","type":"Stadt"},"district":{"key":"08437","name":"Sigmaringen","type":"Landkreis"},"federalState":{"key":"08","name":"Baden-Württemberg"}},{"name":"Im Öschle","postalCode":"88605","locality":"Meßkirch","municipality":{"key":"08437078","name":"Meßkirch, Stadt","type":"Stadt"},"district":{"key":"08437","name":"Sigmaringen","type":"Landkreis"},"federalState":{"key":"08","name":"Baden-Württemberg"}},{"name":"Im Unterdorf","postalCode":"88605","locality":"Meßkirch","municipality":{"key":"08437078","name":"Meßkirch, Stadt","type":"Stadt"},"district":{"key":"08437","name":"Sigmaringen","type":"Landkreis"},"federalState":{"key":"08","name":"Baden-Württemberg"}},{"name":"Im Winkel","postalCode":"88605","locality":"Meßkirch","municipality":{"key":"08437078","name":"Meßkirch, Stadt","type":"Stadt"},"district":{"key":"08437","name":"Sigmaringen","type":"Landkreis"},"federalState":{"key":"08","name":"Baden-Württemberg"}},{"name":"Industriestr.","postalCode":"88605","locality":"Meßkirch","municipality":{"key":"08437078","name":"Meßkirch, Stadt","type":"Stadt"},"district":{"key":"08437","name":"Sigmaringen","type":"Landkreis"},"federalState":{"key":"08","name":"Baden-Württemberg"}},{"name":"In Eichen","postalCode":"88605","locality":"Meßkirch","municipality":{"key":"08437078","name":"Meßkirch, Stadt","type":"Stadt"},"district":{"key":"08437","name":"Sigmaringen","type":"Landkreis"},"federalState":{"key":"08","name":"Baden-Württemberg"}},{"name":"Jahnstr.","postalCode":"88605","locality":"Meßkirch","municipality":{"key":"08437078","name":"Meßkirch, Stadt","type":"Stadt"},"district":{"key":"08437","name":"Sigmaringen","type":"Landkreis"},"federalState":{"key":"08","name":"Baden-Württemberg"}},{"name":"Johann-Baptist-Seele-Str.","postalCode":"88605","locality":"Meßkirch","municipality":{"key":"08437078","name":"Meßkirch, Stadt","type":"Stadt"},"district":{"key":"08437","name":"Sigmaringen","type":"Landkreis"},"federalState":{"key":"08","name":"Baden-Württemberg"}},{"name":"Johann-Roder-Str.","postalCode":"88605","locality":"Meßkirch","municipality":{"key":"08437078","name":"Meßkirch, Stadt","type":"Stadt"},"district":{"key":"08437","name":"Sigmaringen","type":"Landkreis"},"federalState":{"key":"08","name":"Baden-Württemberg"}},{"name":"Julius-Bender-Str.","postalCode":"88605","locality":"Meßkirch","municipality":{"key":"08437078","name":"Meßkirch, Stadt","type":"Stadt"},"district":{"key":"08437","name":"Sigmaringen","type":"Landkreis"},"federalState":{"key":"08","name":"Baden-Württemberg"}},{"name":"K 8237","postalCode":"88605","locality":"Meßkirch","municipality":{"key":"08437078","name":"Meßkirch, Stadt","type":"Stadt"},"district":{"key":"08437","name":"Sigmaringen","type":"Landkreis"},"federalState":{"key":"08","name":"Baden-Württemberg"}},{"name":"Kanalgasse","postalCode":"88605","locality":"Meßkirch","municipality":{"key":"08437078","name":"Meßkirch, Stadt","type":"Stadt"},"district":{"key":"08437","name":"Sigmaringen","type":"Landkreis"},"federalState":{"key":"08","name":"Baden-Württemberg"}},{"name":"Kapellenstr.","postalCode":"88605","locality":"Meßkirch","municipality":{"key":"08437078","name":"Meßkirch, Stadt","type":"Stadt"},"district":{"key":"08437","name":"Sigmaringen","type":"Landkreis"},"federalState":{"key":"08","name":"Baden-Württemberg"}},{"name":"Kapfweg","postalCode":"88605","locality":"Meßkirch","municipality":{"key":"08437078","name":"Meßkirch, Stadt","type":"Stadt"},"district":{"key":"08437","name":"Sigmaringen","type":"Landkreis"},"federalState":{"key":"08","name":"Baden-Württemberg"}},{"name":"Karlstr.","postalCode":"88605","locality":"Meßkirch","municipality":{"key":"08437078","name":"Meßkirch, Stadt","type":"Stadt"},"district":{"key":"08437","name":"Sigmaringen","type":"Landkreis"},"federalState":{"key":"08","name":"Baden-Württemberg"}},{"name":"Kegelgässle","postalCode":"88605","locality":"Meßkirch","municipality":{"key":"08437078","name":"Meßkirch, Stadt","type":"Stadt"},"district":{"key":"08437","name":"Sigmaringen","type":"Landkreis"},"federalState":{"key":"08","name":"Baden-Württemberg"}},{"name":"Kehrstr.","postalCode":"88605","locality":"Meßkirch","municipality":{"key":"08437078","name":"Meßkirch, Stadt","type":"Stadt"},"district":{"key":"08437","name":"Sigmaringen","type":"Landkreis"},"federalState":{"key":"08","name":"Baden-Württemberg"}},{"name":"Kirchleäcker","postalCode":"88605","locality":"Meßkirch","municipality":{"key":"08437078","name":"Meßkirch, Stadt","type":"Stadt"},"district":{"key":"08437","name":"Sigmaringen","type":"Landkreis"},"federalState":{"key":"08","name":"Baden-Württemberg"}},{"name":"Kirchstr.","postalCode":"88605","locality":"Meßkirch","municipality":{"key":"08437078","name":"Meßkirch, Stadt","type":"Stadt"},"district":{"key":"08437","name":"Sigmaringen","type":"Landkreis"},"federalState":{"key":"08","name":"Baden-Württemberg"}},{"name":"Kolpingstr.","postalCode":"88605","locality":"Meßkirch","municipality":{"key":"08437078","name":"Meßkirch, Stadt","type":"Stadt"},"district":{"key":"08437","name":"Sigmaringen","type":"Landkreis"},"federalState":{"key":"08","name":"Baden-Württemberg"}},{"name":"Kreenheinstetter Str.","postalCode":"88605","locality":"Meßkirch","municipality":{"key":"08437078","name":"Meßkirch, Stadt","type":"Stadt"},"district":{"key":"08437","name":"Sigmaringen","type":"Landkreis"},"federalState":{"key":"08","name":"Baden-Württemberg"}},{"name":"Kronengasse","postalCode":"88605","locality":"Meßkirch","municipality":{"key":"08437078","name":"Meßkirch, Stadt","type":"Stadt"},"district":{"key":"08437","name":"Sigmaringen","type":"Landkreis"},"federalState":{"key":"08","name":"Baden-Württemberg"}},{"name":"Lange Äcker","postalCode":"88605","locality":"Meßkirch","municipality":{"key":"08437078","name":"Meßkirch, Stadt","type":"Stadt"},"district":{"key":"08437","name":"Sigmaringen","type":"Landkreis"},"federalState":{"key":"08","name":"Baden-Württemberg"}},{"name":"Leibnizstr.","postalCode":"88605","locality":"Meßkirch","municipality":{"key":"08437078","name":"Meßkirch, Stadt","type":"Stadt"},"district":{"key":"08437","name":"Sigmaringen","type":"Landkreis"},"federalState":{"key":"08","name":"Baden-Württemberg"}},{"name":"Leitishofen","postalCode":"88605","locality":"Meßkirch","municipality":{"key":"08437078","name":"Meßkirch, Stadt","type":"Stadt"},"district":{"key":"08437","name":"Sigmaringen","type":"Landkreis"},"federalState":{"key":"08","name":"Baden-Württemberg"}},{"name":"Lindenweg","postalCode":"88605","locality":"Meßkirch","municipality":{"key":"08437078","name":"Meßkirch, Stadt","type":"Stadt"},"district":{"key":"08437","name":"Sigmaringen","type":"Landkreis"},"federalState":{"key":"08","name":"Baden-Württemberg"}},{"name":"Linsenbühl","postalCode":"88605","locality":"Meßkirch","municipality":{"key":"08437078","name":"Meßkirch, Stadt","type":"Stadt"},"district":{"key":"08437","name":"Sigmaringen","type":"Landkreis"},"federalState":{"key":"08","name":"Baden-Württemberg"}},{"name":"Maiengrundstr.","postalCode":"88605","locality":"Meßkirch","municipality":{"key":"08437078","name":"Meßkirch, Stadt","type":"Stadt"},"district":{"key":"08437","name":"Sigmaringen","type":"Landkreis"},"federalState":{"key":"08","name":"Baden-Württemberg"}},{"name":"Malerweg","postalCode":"88605","locality":"Meßkirch","municipality":{"key":"08437078","name":"Meßkirch, Stadt","type":"Stadt"},"district":{"key":"08437","name":"Sigmaringen","type":"Landkreis"},"federalState":{"key":"08","name":"Baden-Württemberg"}},{"name":"Maurerstr.","postalCode":"88605","locality":"Meßkirch","municipality":{"key":"08437078","name":"Meßkirch, Stadt","type":"Stadt"},"district":{"key":"08437","name":"Sigmaringen","type":"Landkreis"},"federalState":{"key":"08","name":"Baden-Württemberg"}},{"name":"Max-Planck-Weg","postalCode":"88605","locality":"Meßkirch","municipality":{"key":"08437078","name":"Meßkirch, Stadt","type":"Stadt"},"district":{"key":"08437","name":"Sigmaringen","type":"Landkreis"},"federalState":{"key":"08","name":"Baden-Württemberg"}},{"name":"Meinrad-von-Au-Str.","postalCode":"88605","locality":"Meßkirch","municipality":{"key":"08437078","name":"Meßkirch, Stadt","type":"Stadt"},"district":{"key":"08437","name":"Sigmaringen","type":"Landkreis"},"federalState":{"key":"08","name":"Baden-Württemberg"}},{"name":"Meister-von-Meßkirch-Str.","postalCode":"88605","locality":"Meßkirch","municipality":{"key":"08437078","name":"Meßkirch, Stadt","type":"Stadt"},"district":{"key":"08437","name":"Sigmaringen","type":"Landkreis"},"federalState":{"key":"08","name":"Baden-Württemberg"}},{"name":"Mengener Str.","postalCode":"88605","locality":"Meßkirch","municipality":{"key":"08437078","name":"Meßkirch, Stadt","type":"Stadt"},"district":{"key":"08437","name":"Sigmaringen","type":"Landkreis"},"federalState":{"key":"08","name":"Baden-Württemberg"}},{"name":"Meßkircher Str.","postalCode":"88605","locality":"Meßkirch","municipality":{"key":"08437078","name":"Meßkirch, Stadt","type":"Stadt"},"district":{"key":"08437","name":"Sigmaringen","type":"Landkreis"},"federalState":{"key":"08","name":"Baden-Württemberg"}},{"name":"Messostr.","postalCode":"88605","locality":"Meßkirch","municipality":{"key":"08437078","name":"Meßkirch, Stadt","type":"Stadt"},"district":{"key":"08437","name":"Sigmaringen","type":"Landkreis"},"federalState":{"key":"08","name":"Baden-Württemberg"}},{"name":"Mettenbachweg","postalCode":"88605","locality":"Meßkirch","municipality":{"key":"08437078","name":"Meßkirch, Stadt","type":"Stadt"},"district":{"key":"08437","name":"Sigmaringen","type":"Landkreis"},"federalState":{"key":"08","name":"Baden-Württemberg"}},{"name":"Morgenhöhe","postalCode":"88605","locality":"Meßkirch","municipality":{"key":"08437078","name":"Meßkirch, Stadt","type":"Stadt"},"district":{"key":"08437","name":"Sigmaringen","type":"Landkreis"},"federalState":{"key":"08","name":"Baden-Württemberg"}},{"name":"Mozartstr.","postalCode":"88605","locality":"Meßkirch","municipality":{"key":"08437078","name":"Meßkirch, Stadt","type":"Stadt"},"district":{"key":"08437","name":"Sigmaringen","type":"Landkreis"},"federalState":{"key":"08","name":"Baden-Württemberg"}},{"name":"Mühlengasse","postalCode":"88605","locality":"Meßkirch","municipality":{"key":"08437078","name":"Meßkirch, Stadt","type":"Stadt"},"district":{"key":"08437","name":"Sigmaringen","type":"Landkreis"},"federalState":{"key":"08","name":"Baden-Württemberg"}},{"name":"Mühlenweg","postalCode":"88605","locality":"Meßkirch","municipality":{"key":"08437078","name":"Meßkirch, Stadt","type":"Stadt"},"district":{"key":"08437","name":"Sigmaringen","type":"Landkreis"},"federalState":{"key":"08","name":"Baden-Württemberg"}},{"name":"Museumstr.","postalCode":"88605","locality":"Meßkirch","municipality":{"key":"08437078","name":"Meßkirch, Stadt","type":"Stadt"},"district":{"key":"08437","name":"Sigmaringen","type":"Landkreis"},"federalState":{"key":"08","name":"Baden-Württemberg"}},{"name":"Nellenweg","postalCode":"88605","locality":"Meßkirch","municipality":{"key":"08437078","name":"Meßkirch, Stadt","type":"Stadt"},"district":{"key":"08437","name":"Sigmaringen","type":"Landkreis"},"federalState":{"key":"08","name":"Baden-Württemberg"}},{"name":"Oberdorfstr.","postalCode":"88605","locality":"Meßkirch","municipality":{"key":"08437078","name":"Meßkirch, Stadt","type":"Stadt"},"district":{"key":"08437","name":"Sigmaringen","type":"Landkreis"},"federalState":{"key":"08","name":"Baden-Württemberg"}},{"name":"Ohmweg","postalCode":"88605","locality":"Meßkirch","municipality":{"key":"08437078","name":"Meßkirch, Stadt","type":"Stadt"},"district":{"key":"08437","name":"Sigmaringen","type":"Landkreis"},"federalState":{"key":"08","name":"Baden-Württemberg"}},{"name":"Ostlandstr.","postalCode":"88605","locality":"Meßkirch","municipality":{"key":"08437078","name":"Meßkirch, Stadt","type":"Stadt"},"district":{"key":"08437","name":"Sigmaringen","type":"Landkreis"},"federalState":{"key":"08","name":"Baden-Württemberg"}},{"name":"Otto-Meckler-Str.","postalCode":"88605","locality":"Meßkirch","municipality":{"key":"08437078","name":"Meßkirch, Stadt","type":"Stadt"},"district":{"key":"08437","name":"Sigmaringen","type":"Landkreis"},"federalState":{"key":"08","name":"Baden-Württemberg"}},{"name":"Palisadenstr.","postalCode":"88605","locality":"Meßkirch","municipality":{"key":"08437078","name":"Meßkirch, Stadt","type":"Stadt"},"district":{"key":"08437","name":"Sigmaringen","type":"Landkreis"},"federalState":{"key":"08","name":"Baden-Württemberg"}},{"name":"Panoramaweg","postalCode":"88605","locality":"Meßkirch","municipality":{"key":"08437078","name":"Meßkirch, Stadt","type":"Stadt"},"district":{"key":"08437","name":"Sigmaringen","type":"Landkreis"},"federalState":{"key":"08","name":"Baden-Württemberg"}},{"name":"Pascalstr.","postalCode":"88605","locality":"Meßkirch","municipality":{"key":"08437078","name":"Meßkirch, Stadt","type":"Stadt"},"district":{"key":"08437","name":"Sigmaringen","type":"Landkreis"},"federalState":{"key":"08","name":"Baden-Württemberg"}},{"name":"Pfullendorfer Str.","postalCode":"88605","locality":"Meßkirch","municipality":{"key":"08437078","name":"Meßkirch, Stadt","type":"Stadt"},"district":{"key":"08437","name":"Sigmaringen","type":"Landkreis"},"federalState":{"key":"08","name":"Baden-Württemberg"}},{"name":"Raiffeisenstr.","postalCode":"88605","locality":"Meßkirch","municipality":{"key":"08437078","name":"Meßkirch, Stadt","type":"Stadt"},"district":{"key":"08437","name":"Sigmaringen","type":"Landkreis"},"federalState":{"key":"08","name":"Baden-Württemberg"}},{"name":"Randenstr.","postalCode":"88605","locality":"Meßkirch","municipality":{"key":"08437078","name":"Meßkirch, Stadt","type":"Stadt"},"district":{"key":"08437","name":"Sigmaringen","type":"Landkreis"},"federalState":{"key":"08","name":"Baden-Württemberg"}},{"name":"Rathausstr.","postalCode":"88605","locality":"Meßkirch","municipality":{"key":"08437078","name":"Meßkirch, Stadt","type":"Stadt"},"district":{"key":"08437","name":"Sigmaringen","type":"Landkreis"},"federalState":{"key":"08","name":"Baden-Württemberg"}},{"name":"Riedweg","postalCode":"88605","locality":"Meßkirch","municipality":{"key":"08437078","name":"Meßkirch, Stadt","type":"Stadt"},"district":{"key":"08437","name":"Sigmaringen","type":"Landkreis"},"federalState":{"key":"08","name":"Baden-Württemberg"}},{"name":"Robert-Bosch-Weg","postalCode":"88605","locality":"Meßkirch","municipality":{"key":"08437078","name":"Meßkirch, Stadt","type":"Stadt"},"district":{"key":"08437","name":"Sigmaringen","type":"Landkreis"},"federalState":{"key":"08","name":"Baden-Württemberg"}},{"name":"Römerweg","postalCode":"88605","locality":"Meßkirch","municipality":{"key":"08437078","name":"Meßkirch, Stadt","type":"Stadt"},"district":{"key":"08437","name":"Sigmaringen","type":"Landkreis"},"federalState":{"key":"08","name":"Baden-Württemberg"}},{"name":"Röntgenweg","postalCode":"88605","locality":"Meßkirch","municipality":{"key":"08437078","name":"Meßkirch, Stadt","type":"Stadt"},"district":{"key":"08437","name":"Sigmaringen","type":"Landkreis"},"federalState":{"key":"08","name":"Baden-Württemberg"}},{"name":"Roßweide","postalCode":"88605","locality":"Meßkirch","municipality":{"key":"08437078","name":"Meßkirch, Stadt","type":"Stadt"},"district":{"key":"08437","name":"Sigmaringen","type":"Landkreis"},"federalState":{"key":"08","name":"Baden-Württemberg"}},{"name":"Rundweg","postalCode":"88605","locality":"Meßkirch","municipality":{"key":"08437078","name":"Meßkirch, Stadt","type":"Stadt"},"district":{"key":"08437","name":"Sigmaringen","type":"Landkreis"},"federalState":{"key":"08","name":"Baden-Württemberg"}},{"name":"Sägeweg","postalCode":"88605","locality":"Meßkirch","municipality":{"key":"08437078","name":"Meßkirch, Stadt","type":"Stadt"},"district":{"key":"08437","name":"Sigmaringen","type":"Landkreis"},"federalState":{"key":"08","name":"Baden-Württemberg"}},{"name":"Sandbühlweg","postalCode":"88605","locality":"Meßkirch","municipality":{"key":"08437078","name":"Meßkirch, Stadt","type":"Stadt"},"district":{"key":"08437","name":"Sigmaringen","type":"Landkreis"},"federalState":{"key":"08","name":"Baden-Württemberg"}},{"name":"Sassenage-Garten","postalCode":"88605","locality":"Meßkirch","municipality":{"key":"08437078","name":"Meßkirch, Stadt","type":"Stadt"},"district":{"key":"08437","name":"Sigmaringen","type":"Landkreis"},"federalState":{"key":"08","name":"Baden-Württemberg"}},{"name":"Schlehenstr.","postalCode":"88605","locality":"Meßkirch","municipality":{"key":"08437078","name":"Meßkirch, Stadt","type":"Stadt"},"district":{"key":"08437","name":"Sigmaringen","type":"Landkreis"},"federalState":{"key":"08","name":"Baden-Württemberg"}},{"name":"Schloßstr.","postalCode":"88605","locality":"Meßkirch","municipality":{"key":"08437078","name":"Meßkirch, Stadt","type":"Stadt"},"district":{"key":"08437","name":"Sigmaringen","type":"Landkreis"},"federalState":{"key":"08","name":"Baden-Württemberg"}},{"name":"Schloßweg","postalCode":"88605","locality":"Meßkirch","municipality":{"key":"08437078","name":"Meßkirch, Stadt","type":"Stadt"},"district":{"key":"08437","name":"Sigmaringen","type":"Landkreis"},"federalState":{"key":"08","name":"Baden-Württemberg"}},{"name":"Schnerkinger Str.","postalCode":"88605","locality":"Meßkirch","municipality":{"key":"08437078","name":"Meßkirch, Stadt","type":"Stadt"},"district":{"key":"08437","name":"Sigmaringen","type":"Landkreis"},"federalState":{"key":"08","name":"Baden-Württemberg"}},{"name":"Schubertstr.","postalCode":"88605","locality":"Meßkirch","municipality":{"key":"08437078","name":"Meßkirch, Stadt","type":"Stadt"},"district":{"key":"08437","name":"Sigmaringen","type":"Landkreis"},"federalState":{"key":"08","name":"Baden-Württemberg"}},{"name":"Schulstr.","postalCode":"88605","locality":"Meßkirch","municipality":{"key":"08437078","name":"Meßkirch, Stadt","type":"Stadt"},"district":{"key":"08437","name":"Sigmaringen","type":"Landkreis"},"federalState":{"key":"08","name":"Baden-Württemberg"}},{"name":"Schützenweg","postalCode":"88605","locality":"Meßkirch","municipality":{"key":"08437078","name":"Meßkirch, Stadt","type":"Stadt"},"district":{"key":"08437","name":"Sigmaringen","type":"Landkreis"},"federalState":{"key":"08","name":"Baden-Württemberg"}},{"name":"Schwimmbadstr.","postalCode":"88605","locality":"Meßkirch","municipality":{"key":"08437078","name":"Meßkirch, Stadt","type":"Stadt"},"district":{"key":"08437","name":"Sigmaringen","type":"Landkreis"},"federalState":{"key":"08","name":"Baden-Württemberg"}},{"name":"Siedlungsstr.","postalCode":"88605","locality":"Meßkirch","municipality":{"key":"08437078","name":"Meßkirch, Stadt","type":"Stadt"},"district":{"key":"08437","name":"Sigmaringen","type":"Landkreis"},"federalState":{"key":"08","name":"Baden-Württemberg"}},{"name":"Siemensweg","postalCode":"88605","locality":"Meßkirch","municipality":{"key":"08437078","name":"Meßkirch, Stadt","type":"Stadt"},"district":{"key":"08437","name":"Sigmaringen","type":"Landkreis"},"federalState":{"key":"08","name":"Baden-Württemberg"}},{"name":"Silcherweg","postalCode":"88605","locality":"Meßkirch","municipality":{"key":"08437078","name":"Meßkirch, Stadt","type":"Stadt"},"district":{"key":"08437","name":"Sigmaringen","type":"Landkreis"},"federalState":{"key":"08","name":"Baden-Württemberg"}},{"name":"Sonnenhalde","postalCode":"88605","locality":"Meßkirch","municipality":{"key":"08437078","name":"Meßkirch, Stadt","type":"Stadt"},"district":{"key":"08437","name":"Sigmaringen","type":"Landkreis"},"federalState":{"key":"08","name":"Baden-Württemberg"}},{"name":"Spießgasse","postalCode":"88605","locality":"Meßkirch","municipality":{"key":"08437078","name":"Meßkirch, Stadt","type":"Stadt"},"district":{"key":"08437","name":"Sigmaringen","type":"Landkreis"},"federalState":{"key":"08","name":"Baden-Württemberg"}},{"name":"Stachus","postalCode":"88605","locality":"Meßkirch","municipality":{"key":"08437078","name":"Meßkirch, Stadt","type":"Stadt"},"district":{"key":"08437","name":"Sigmaringen","type":"Landkreis"},"federalState":{"key":"08","name":"Baden-Württemberg"}},{"name":"Steinbruchweg","postalCode":"88605","locality":"Meßkirch","municipality":{"key":"08437078","name":"Meßkirch, Stadt","type":"Stadt"},"district":{"key":"08437","name":"Sigmaringen","type":"Landkreis"},"federalState":{"key":"08","name":"Baden-Württemberg"}},{"name":"Stockacher Str.","postalCode":"88605","locality":"Meßkirch","municipality":{"key":"08437078","name":"Meßkirch, Stadt","type":"Stadt"},"district":{"key":"08437","name":"Sigmaringen","type":"Landkreis"},"federalState":{"key":"08","name":"Baden-Württemberg"}},{"name":"Stockruhstr.","postalCode":"88605","locality":"Meßkirch","municipality":{"key":"08437078","name":"Meßkirch, Stadt","type":"Stadt"},"district":{"key":"08437","name":"Sigmaringen","type":"Landkreis"},"federalState":{"key":"08","name":"Baden-Württemberg"}},{"name":"Stortzingen","postalCode":"88605","locality":"Meßkirch","municipality":{"key":"08437078","name":"Meßkirch, Stadt","type":"Stadt"},"district":{"key":"08437","name":"Sigmaringen","type":"Landkreis"},"federalState":{"key":"08","name":"Baden-Württemberg"}},{"name":"Sudetenstr.","postalCode":"88605","locality":"Meßkirch","municipality":{"key":"08437078","name":"Meßkirch, Stadt","type":"Stadt"},"district":{"key":"08437","name":"Sigmaringen","type":"Landkreis"},"federalState":{"key":"08","name":"Baden-Württemberg"}},{"name":"Tälestr.","postalCode":"88605","locality":"Meßkirch","municipality":{"key":"08437078","name":"Meßkirch, Stadt","type":"Stadt"},"district":{"key":"08437","name":"Sigmaringen","type":"Landkreis"},"federalState":{"key":"08","name":"Baden-Württemberg"}},{"name":"Talhofweg","postalCode":"88605","locality":"Meßkirch","municipality":{"key":"08437078","name":"Meßkirch, Stadt","type":"Stadt"},"district":{"key":"08437","name":"Sigmaringen","type":"Landkreis"},"federalState":{"key":"08","name":"Baden-Württemberg"}},{"name":"Talweg","postalCode":"88605","locality":"Meßkirch","municipality":{"key":"08437078","name":"Meßkirch, Stadt","type":"Stadt"},"district":{"key":"08437","name":"Sigmaringen","type":"Landkreis"},"federalState":{"key":"08","name":"Baden-Württemberg"}},{"name":"Trettenfurt","postalCode":"88605","locality":"Meßkirch","municipality":{"key":"08437078","name":"Meßkirch, Stadt","type":"Stadt"},"district":{"key":"08437","name":"Sigmaringen","type":"Landkreis"},"federalState":{"key":"08","name":"Baden-Württemberg"}},{"name":"Tuttlinger Str.","postalCode":"88605","locality":"Meßkirch","municipality":{"key":"08437078","name":"Meßkirch, Stadt","type":"Stadt"},"district":{"key":"08437","name":"Sigmaringen","type":"Landkreis"},"federalState":{"key":"08","name":"Baden-Württemberg"}},{"name":"Uhlandstr.","postalCode":"88605","locality":"Meßkirch","municipality":{"key":"08437078","name":"Meßkirch, Stadt","type":"Stadt"},"district":{"key":"08437","name":"Sigmaringen","type":"Landkreis"},"federalState":{"key":"08","name":"Baden-Württemberg"}},{"name":"Ulmenweg","postalCode":"88605","locality":"Meßkirch","municipality":{"key":"08437078","name":"Meßkirch, Stadt","type":"Stadt"},"district":{"key":"08437","name":"Sigmaringen","type":"Landkreis"},"federalState":{"key":"08","name":"Baden-Württemberg"}},{"name":"Unter der Linde","postalCode":"88605","locality":"Meßkirch","municipality":{"key":"08437078","name":"Meßkirch, Stadt","type":"Stadt"},"district":{"key":"08437","name":"Sigmaringen","type":"Landkreis"},"federalState":{"key":"08","name":"Baden-Württemberg"}},{"name":"Unterm Ablaß","postalCode":"88605","locality":"Meßkirch","municipality":{"key":"08437078","name":"Meßkirch, Stadt","type":"Stadt"},"district":{"key":"08437","name":"Sigmaringen","type":"Landkreis"},"federalState":{"key":"08","name":"Baden-Württemberg"}},{"name":"Vogelherd","postalCode":"88605","locality":"Meßkirch","municipality":{"key":"08437078","name":"Meßkirch, Stadt","type":"Stadt"},"district":{"key":"08437","name":"Sigmaringen","type":"Landkreis"},"federalState":{"key":"08","name":"Baden-Württemberg"}},{"name":"Vorderer Stockertweg","postalCode":"88605","locality":"Meßkirch","municipality":{"key":"08437078","name":"Meßkirch, Stadt","type":"Stadt"},"district":{"key":"08437","name":"Sigmaringen","type":"Landkreis"},"federalState":{"key":"08","name":"Baden-Württemberg"}},{"name":"Waldergasse","postalCode":"88605","locality":"Meßkirch","municipality":{"key":"08437078","name":"Meßkirch, Stadt","type":"Stadt"},"district":{"key":"08437","name":"Sigmaringen","type":"Landkreis"},"federalState":{"key":"08","name":"Baden-Württemberg"}},{"name":"Wallstr.","postalCode":"88605","locality":"Meßkirch","municipality":{"key":"08437078","name":"Meßkirch, Stadt","type":"Stadt"},"district":{"key":"08437","name":"Sigmaringen","type":"Landkreis"},"federalState":{"key":"08","name":"Baden-Württemberg"}},{"name":"Wangerstr.","postalCode":"88605","locality":"Meßkirch","municipality":{"key":"08437078","name":"Meßkirch, Stadt","type":"Stadt"},"district":{"key":"08437","name":"Sigmaringen","type":"Landkreis"},"federalState":{"key":"08","name":"Baden-Württemberg"}},{"name":"Weidenäcker","postalCode":"88605","locality":"Meßkirch","municipality":{"key":"08437078","name":"Meßkirch, Stadt","type":"Stadt"},"district":{"key":"08437","name":"Sigmaringen","type":"Landkreis"},"federalState":{"key":"08","name":"Baden-Württemberg"}},{"name":"Westenbergstr.","postalCode":"88605","locality":"Meßkirch","municipality":{"key":"08437078","name":"Meßkirch, Stadt","type":"Stadt"},"district":{"key":"08437","name":"Sigmaringen","type":"Landkreis"},"federalState":{"key":"08","name":"Baden-Württemberg"}},{"name":"Wilhelm-Kraut-Str.","postalCode":"88605","locality":"Meßkirch","municipality":{"key":"08437078","name":"Meßkirch, Stadt","type":"Stadt"},"district":{"key":"08437","name":"Sigmaringen","type":"Landkreis"},"federalState":{"key":"08","name":"Baden-Württemberg"}},{"name":"Ziegelbühlstr.","postalCode":"88605","locality":"Meßkirch","municipality":{"key":"08437078","name":"Meßkirch, Stadt","type":"Stadt"},"district":{"key":"08437","name":"Sigmaringen","type":"Landkreis"},"federalState":{"key":"08","name":"Baden-Württemberg"}},{"name":"Ziegelhofweg","postalCode":"88605","locality":"Meßkirch","municipality":{"key":"08437078","name":"Meßkirch, Stadt","type":"Stadt"},"district":{"key":"08437","name":"Sigmaringen","type":"Landkreis"},"federalState":{"key":"08","name":"Baden-Württemberg"}},{"name":"Zimmernstr.","postalCode":"88605","locality":"Meßkirch","municipality":{"key":"08437078","name":"Meßkirch, Stadt","type":"Stadt"},"district":{"key":"08437","name":"Sigmaringen","type":"Landkreis"},"federalState":{"key":"08","name":"Baden-Württemberg"}},{"name":"Zollernstr.","postalCode":"88605","locality":"Meßkirch","municipality":{"key":"08437078","name":"Meßkirch, Stadt","type":"Stadt"},"district":{"key":"08437","name":"Sigmaringen","type":"Landkreis"},"federalState":{"key":"08","name":"Baden-Württemberg"}},{"name":"Zum Müller","postalCode":"88605","locality":"Meßkirch","municipality":{"key":"08437078","name":"Meßkirch, Stadt","type":"Stadt"},"district":{"key":"08437","name":"Sigmaringen","type":"Landkreis"},"federalState":{"key":"08","name":"Baden-Württemberg"}},{"name":"Zum Oberdorf","postalCode":"88605","locality":"Meßkirch","municipality":{"key":"08437078","name":"Meßkirch, Stadt","type":"Stadt"},"district":{"key":"08437","name":"Sigmaringen","type":"Landkreis"},"federalState":{"key":"08","name":"Baden-Württemberg"}},{"name":"Zum Ofensetzer","postalCode":"88605","locality":"Meßkirch","municipality":{"key":"08437078","name":"Meßkirch, Stadt","type":"Stadt"},"district":{"key":"08437","name":"Sigmaringen","type":"Landkreis"},"federalState":{"key":"08","name":"Baden-Württemberg"}},{"name":"Zur Heerstr.","postalCode":"88605","locality":"Meßkirch","municipality":{"key":"08437078","name":"Meßkirch, Stadt","type":"Stadt"},"district":{"key":"08437","name":"Sigmaringen","type":"Landkreis"},"federalState":{"key":"08","name":"Baden-Württemberg"}},{"name":"Äußerer Ghaibühl","postalCode":"72488","locality":"Sigmaringen","municipality":{"key":"08437104","name":"Sigmaringen, Stadt","type":"Stadt"},"district":{"key":"08437","name":"Sigmaringen","type":"Landkreis"},"federalState":{"key":"08","name":"Baden-Württemberg"}},{"name":"Öhmdwiesen","postalCode":"88605","locality":"Meßkirch","municipality":{"key":"08437078","name":"Meßkirch, Stadt","type":"Stadt"},"district":{"key":"08437","name":"Sigmaringen","type":"Landkreis"},"federalState":{"key":"08","name":"Baden-Württemberg"}},]