[{"name":"Ahornstr.","postalCode":"92256","locality":"Hahnbach","municipality":{"key":"09371126","name":"Hahnbach, M","type":"Markt"},"district":{"key":"09371","name":"Amberg-Sulzbach","type":"Landkreis"},"federalState":{"key":"09","name":"Bayern"}},{"name":"Alte Dorfstr.","postalCode":"92256","locality":"Hahnbach","municipality":{"key":"09371126","name":"Hahnbach, M","type":"Markt"},"district":{"key":"09371","name":"Amberg-Sulzbach","type":"Landkreis"},"federalState":{"key":"09","name":"Bayern"}},{"name":"Amberger Str.","postalCode":"92256","locality":"Hahnbach","municipality":{"key":"09371126","name":"Hahnbach, M","type":"Markt"},"district":{"key":"09371","name":"Amberg-Sulzbach","type":"Landkreis"},"federalState":{"key":"09","name":"Bayern"}},{"name":"Am Birkenholz","postalCode":"92256","locality":"Hahnbach","municipality":{"key":"09371126","name":"Hahnbach, M","type":"Markt"},"district":{"key":"09371","name":"Amberg-Sulzbach","type":"Landkreis"},"federalState":{"key":"09","name":"Bayern"}},{"name":"Am Fischweg","postalCode":"92256","locality":"Hahnbach","municipality":{"key":"09371126","name":"Hahnbach, M","type":"Markt"},"district":{"key":"09371","name":"Amberg-Sulzbach","type":"Landkreis"},"federalState":{"key":"09","name":"Bayern"}},{"name":"Am Gaisbühl","postalCode":"92256","locality":"Hahnbach","municipality":{"key":"09371126","name":"Hahnbach, M","type":"Markt"},"district":{"key":"09371","name":"Amberg-Sulzbach","type":"Landkreis"},"federalState":{"key":"09","name":"Bayern"}},{"name":"Am Gartenacker","postalCode":"92256","locality":"Hahnbach","municipality":{"key":"09371126","name":"Hahnbach, M","type":"Markt"},"district":{"key":"09371","name":"Amberg-Sulzbach","type":"Landkreis"},"federalState":{"key":"09","name":"Bayern"}},{"name":"Am Hopfengarten","postalCode":"92256","locality":"Hahnbach","municipality":{"key":"09371126","name":"Hahnbach, M","type":"Markt"},"district":{"key":"09371","name":"Amberg-Sulzbach","type":"Landkreis"},"federalState":{"key":"09","name":"Bayern"}},{"name":"Am Leherbach","postalCode":"92256","locality":"Hahnbach","municipality":{"key":"09371126","name":"Hahnbach, M","type":"Markt"},"district":{"key":"09371","name":"Amberg-Sulzbach","type":"Landkreis"},"federalState":{"key":"09","name":"Bayern"}},{"name":"Ammersbühl","postalCode":"92256","locality":"Hahnbach","municipality":{"key":"09371126","name":"Hahnbach, M","type":"Markt"},"district":{"key":"09371","name":"Amberg-Sulzbach","type":"Landkreis"},"federalState":{"key":"09","name":"Bayern"}},{"name":"Ammersrichter Steig","postalCode":"92256","locality":"Hahnbach","municipality":{"key":"09371126","name":"Hahnbach, M","type":"Markt"},"district":{"key":"09371","name":"Amberg-Sulzbach","type":"Landkreis"},"federalState":{"key":"09","name":"Bayern"}},{"name":"Am Roten Bühl","postalCode":"92256","locality":"Hahnbach","municipality":{"key":"09371126","name":"Hahnbach, M","type":"Markt"},"district":{"key":"09371","name":"Amberg-Sulzbach","type":"Landkreis"},"federalState":{"key":"09","name":"Bayern"}},{"name":"Am Steigweiher","postalCode":"92256","locality":"Hahnbach","municipality":{"key":"09371126","name":"Hahnbach, M","type":"Markt"},"district":{"key":"09371","name":"Amberg-Sulzbach","type":"Landkreis"},"federalState":{"key":"09","name":"Bayern"}},{"name":"Andreas-Raselius-Str.","postalCode":"92256","locality":"Hahnbach","municipality":{"key":"09371126","name":"Hahnbach, M","type":"Markt"},"district":{"key":"09371","name":"Amberg-Sulzbach","type":"Landkreis"},"federalState":{"key":"09","name":"Bayern"}},{"name":"Austr.","postalCode":"92256","locality":"Hahnbach","municipality":{"key":"09371126","name":"Hahnbach, M","type":"Markt"},"district":{"key":"09371","name":"Amberg-Sulzbach","type":"Landkreis"},"federalState":{"key":"09","name":"Bayern"}},{"name":"Bayreuther Str.","postalCode":"92256","locality":"Hahnbach","municipality":{"key":"09371126","name":"Hahnbach, M","type":"Markt"},"district":{"key":"09371","name":"Amberg-Sulzbach","type":"Landkreis"},"federalState":{"key":"09","name":"Bayern"}},{"name":"Bergstr.","postalCode":"92256","locality":"Hahnbach","municipality":{"key":"09371126","name":"Hahnbach, M","type":"Markt"},"district":{"key":"09371","name":"Amberg-Sulzbach","type":"Landkreis"},"federalState":{"key":"09","name":"Bayern"}},{"name":"Bergwiesenweg","postalCode":"92256","locality":"Hahnbach","municipality":{"key":"09371126","name":"Hahnbach, M","type":"Markt"},"district":{"key":"09371","name":"Amberg-Sulzbach","type":"Landkreis"},"federalState":{"key":"09","name":"Bayern"}},{"name":"Birkenweg","postalCode":"92256","locality":"Hahnbach","municipality":{"key":"09371126","name":"Hahnbach, M","type":"Markt"},"district":{"key":"09371","name":"Amberg-Sulzbach","type":"Landkreis"},"federalState":{"key":"09","name":"Bayern"}},{"name":"Blumenstr.","postalCode":"92256","locality":"Hahnbach","municipality":{"key":"09371126","name":"Hahnbach, M","type":"Markt"},"district":{"key":"09371","name":"Amberg-Sulzbach","type":"Landkreis"},"federalState":{"key":"09","name":"Bayern"}},{"name":"Breite Gasse","postalCode":"92256","locality":"Hahnbach","municipality":{"key":"09371126","name":"Hahnbach, M","type":"Markt"},"district":{"key":"09371","name":"Amberg-Sulzbach","type":"Landkreis"},"federalState":{"key":"09","name":"Bayern"}},{"name":"Buchenweg","postalCode":"92256","locality":"Hahnbach","municipality":{"key":"09371126","name":"Hahnbach, M","type":"Markt"},"district":{"key":"09371","name":"Amberg-Sulzbach","type":"Landkreis"},"federalState":{"key":"09","name":"Bayern"}},{"name":"Bühlgasse","postalCode":"92256","locality":"Hahnbach","municipality":{"key":"09371126","name":"Hahnbach, M","type":"Markt"},"district":{"key":"09371","name":"Amberg-Sulzbach","type":"Landkreis"},"federalState":{"key":"09","name":"Bayern"}},{"name":"Dahlienstr.","postalCode":"92256","locality":"Hahnbach","municipality":{"key":"09371126","name":"Hahnbach, M","type":"Markt"},"district":{"key":"09371","name":"Amberg-Sulzbach","type":"Landkreis"},"federalState":{"key":"09","name":"Bayern"}},{"name":"Dorfstr.","postalCode":"92256","locality":"Hahnbach","municipality":{"key":"09371126","name":"Hahnbach, M","type":"Markt"},"district":{"key":"09371","name":"Amberg-Sulzbach","type":"Landkreis"},"federalState":{"key":"09","name":"Bayern"}},{"name":"Dürnsricht","postalCode":"92256","locality":"Hahnbach","municipality":{"key":"09371126","name":"Hahnbach, M","type":"Markt"},"district":{"key":"09371","name":"Amberg-Sulzbach","type":"Landkreis"},"federalState":{"key":"09","name":"Bayern"}},{"name":"Eisenstr.","postalCode":"92256","locality":"Hahnbach","municipality":{"key":"09371126","name":"Hahnbach, M","type":"Markt"},"district":{"key":"09371","name":"Amberg-Sulzbach","type":"Landkreis"},"federalState":{"key":"09","name":"Bayern"}},{"name":"Erlenweg","postalCode":"92256","locality":"Hahnbach","municipality":{"key":"09371126","name":"Hahnbach, M","type":"Markt"},"district":{"key":"09371","name":"Amberg-Sulzbach","type":"Landkreis"},"federalState":{"key":"09","name":"Bayern"}},{"name":"Fichtenstr.","postalCode":"92256","locality":"Hahnbach","municipality":{"key":"09371126","name":"Hahnbach, M","type":"Markt"},"district":{"key":"09371","name":"Amberg-Sulzbach","type":"Landkreis"},"federalState":{"key":"09","name":"Bayern"}},{"name":"Flurstr.","postalCode":"92256","locality":"Hahnbach","municipality":{"key":"09371126","name":"Hahnbach, M","type":"Markt"},"district":{"key":"09371","name":"Amberg-Sulzbach","type":"Landkreis"},"federalState":{"key":"09","name":"Bayern"}},{"name":"Föhrenweg","postalCode":"92256","locality":"Hahnbach","municipality":{"key":"09371126","name":"Hahnbach, M","type":"Markt"},"district":{"key":"09371","name":"Amberg-Sulzbach","type":"Landkreis"},"federalState":{"key":"09","name":"Bayern"}},{"name":"Frohnbergstr.","postalCode":"92256","locality":"Hahnbach","municipality":{"key":"09371126","name":"Hahnbach, M","type":"Markt"},"district":{"key":"09371","name":"Amberg-Sulzbach","type":"Landkreis"},"federalState":{"key":"09","name":"Bayern"}},{"name":"Frohnhof","postalCode":"92256","locality":"Hahnbach","municipality":{"key":"09371126","name":"Hahnbach, M","type":"Markt"},"district":{"key":"09371","name":"Amberg-Sulzbach","type":"Landkreis"},"federalState":{"key":"09","name":"Bayern"}},{"name":"Frohnhofer Str.","postalCode":"92256","locality":"Hahnbach","municipality":{"key":"09371126","name":"Hahnbach, M","type":"Markt"},"district":{"key":"09371","name":"Amberg-Sulzbach","type":"Landkreis"},"federalState":{"key":"09","name":"Bayern"}},{"name":"Frühlingstr.","postalCode":"92256","locality":"Hahnbach","municipality":{"key":"09371126","name":"Hahnbach, M","type":"Markt"},"district":{"key":"09371","name":"Amberg-Sulzbach","type":"Landkreis"},"federalState":{"key":"09","name":"Bayern"}},{"name":"Gartenstr.","postalCode":"92256","locality":"Hahnbach","municipality":{"key":"09371126","name":"Hahnbach, M","type":"Markt"},"district":{"key":"09371","name":"Amberg-Sulzbach","type":"Landkreis"},"federalState":{"key":"09","name":"Bayern"}},{"name":"Gartenweg","postalCode":"92256","locality":"Hahnbach","municipality":{"key":"09371126","name":"Hahnbach, M","type":"Markt"},"district":{"key":"09371","name":"Amberg-Sulzbach","type":"Landkreis"},"federalState":{"key":"09","name":"Bayern"}},{"name":"Gebenbacher Str.","postalCode":"92256","locality":"Hahnbach","municipality":{"key":"09371126","name":"Hahnbach, M","type":"Markt"},"district":{"key":"09371","name":"Amberg-Sulzbach","type":"Landkreis"},"federalState":{"key":"09","name":"Bayern"}},{"name":"Georg-Britting-Str.","postalCode":"92256","locality":"Hahnbach","municipality":{"key":"09371126","name":"Hahnbach, M","type":"Markt"},"district":{"key":"09371","name":"Amberg-Sulzbach","type":"Landkreis"},"federalState":{"key":"09","name":"Bayern"}},{"name":"Gerhardingerstr.","postalCode":"92256","locality":"Hahnbach","municipality":{"key":"09371126","name":"Hahnbach, M","type":"Markt"},"district":{"key":"09371","name":"Amberg-Sulzbach","type":"Landkreis"},"federalState":{"key":"09","name":"Bayern"}},{"name":"Gockelwiese","postalCode":"92256","locality":"Hahnbach","municipality":{"key":"09371126","name":"Hahnbach, M","type":"Markt"},"district":{"key":"09371","name":"Amberg-Sulzbach","type":"Landkreis"},"federalState":{"key":"09","name":"Bayern"}},{"name":"Godlricht","postalCode":"92256","locality":"Hahnbach","municipality":{"key":"09371126","name":"Hahnbach, M","type":"Markt"},"district":{"key":"09371","name":"Amberg-Sulzbach","type":"Landkreis"},"federalState":{"key":"09","name":"Bayern"}},{"name":"Grundweg","postalCode":"92256","locality":"Hahnbach","municipality":{"key":"09371126","name":"Hahnbach, M","type":"Markt"},"district":{"key":"09371","name":"Amberg-Sulzbach","type":"Landkreis"},"federalState":{"key":"09","name":"Bayern"}},{"name":"Hahnenbühl","postalCode":"92256","locality":"Hahnbach","municipality":{"key":"09371126","name":"Hahnbach, M","type":"Markt"},"district":{"key":"09371","name":"Amberg-Sulzbach","type":"Landkreis"},"federalState":{"key":"09","name":"Bayern"}},{"name":"Hannerbergl","postalCode":"92256","locality":"Hahnbach","municipality":{"key":"09371126","name":"Hahnbach, M","type":"Markt"},"district":{"key":"09371","name":"Amberg-Sulzbach","type":"Landkreis"},"federalState":{"key":"09","name":"Bayern"}},{"name":"Hauptstr.","postalCode":"92256","locality":"Hahnbach","municipality":{"key":"09371126","name":"Hahnbach, M","type":"Markt"},"district":{"key":"09371","name":"Amberg-Sulzbach","type":"Landkreis"},"federalState":{"key":"09","name":"Bayern"}},{"name":"Herbert-Falk-Str.","postalCode":"92256","locality":"Hahnbach","municipality":{"key":"09371126","name":"Hahnbach, M","type":"Markt"},"district":{"key":"09371","name":"Amberg-Sulzbach","type":"Landkreis"},"federalState":{"key":"09","name":"Bayern"}},{"name":"Hintere Giertloh","postalCode":"92256","locality":"Hahnbach","municipality":{"key":"09371126","name":"Hahnbach, M","type":"Markt"},"district":{"key":"09371","name":"Amberg-Sulzbach","type":"Landkreis"},"federalState":{"key":"09","name":"Bayern"}},{"name":"Hofstatt","postalCode":"92256","locality":"Hahnbach","municipality":{"key":"09371126","name":"Hahnbach, M","type":"Markt"},"district":{"key":"09371","name":"Amberg-Sulzbach","type":"Landkreis"},"federalState":{"key":"09","name":"Bayern"}},{"name":"Höhengau","postalCode":"92256","locality":"Hahnbach","municipality":{"key":"09371126","name":"Hahnbach, M","type":"Markt"},"district":{"key":"09371","name":"Amberg-Sulzbach","type":"Landkreis"},"federalState":{"key":"09","name":"Bayern"}},{"name":"Höhengauer Weg","postalCode":"92256","locality":"Hahnbach","municipality":{"key":"09371126","name":"Hahnbach, M","type":"Markt"},"district":{"key":"09371","name":"Amberg-Sulzbach","type":"Landkreis"},"federalState":{"key":"09","name":"Bayern"}},{"name":"Hollergasse","postalCode":"92256","locality":"Hahnbach","municipality":{"key":"09371126","name":"Hahnbach, M","type":"Markt"},"district":{"key":"09371","name":"Amberg-Sulzbach","type":"Landkreis"},"federalState":{"key":"09","name":"Bayern"}},{"name":"Holunderweg","postalCode":"92256","locality":"Hahnbach","municipality":{"key":"09371126","name":"Hahnbach, M","type":"Markt"},"district":{"key":"09371","name":"Amberg-Sulzbach","type":"Landkreis"},"federalState":{"key":"09","name":"Bayern"}},{"name":"Im Gewerbegebiet","postalCode":"92256","locality":"Hahnbach","municipality":{"key":"09371126","name":"Hahnbach, M","type":"Markt"},"district":{"key":"09371","name":"Amberg-Sulzbach","type":"Landkreis"},"federalState":{"key":"09","name":"Bayern"}},{"name":"Jägergasse","postalCode":"92256","locality":"Hahnbach","municipality":{"key":"09371126","name":"Hahnbach, M","type":"Markt"},"district":{"key":"09371","name":"Amberg-Sulzbach","type":"Landkreis"},"federalState":{"key":"09","name":"Bayern"}},{"name":"Johannes-Stark-Str.","postalCode":"92256","locality":"Hahnbach","municipality":{"key":"09371126","name":"Hahnbach, M","type":"Markt"},"district":{"key":"09371","name":"Amberg-Sulzbach","type":"Landkreis"},"federalState":{"key":"09","name":"Bayern"}},{"name":"Karl-Huber-Str.","postalCode":"92256","locality":"Hahnbach","municipality":{"key":"09371126","name":"Hahnbach, M","type":"Markt"},"district":{"key":"09371","name":"Amberg-Sulzbach","type":"Landkreis"},"federalState":{"key":"09","name":"Bayern"}},{"name":"Kastanienweg","postalCode":"92256","locality":"Hahnbach","municipality":{"key":"09371126","name":"Hahnbach, M","type":"Markt"},"district":{"key":"09371","name":"Amberg-Sulzbach","type":"Landkreis"},"federalState":{"key":"09","name":"Bayern"}},{"name":"Kellerweg","postalCode":"92256","locality":"Hahnbach","municipality":{"key":"09371126","name":"Hahnbach, M","type":"Markt"},"district":{"key":"09371","name":"Amberg-Sulzbach","type":"Landkreis"},"federalState":{"key":"09","name":"Bayern"}},{"name":"Kirchensteig","postalCode":"92256","locality":"Hahnbach","municipality":{"key":"09371126","name":"Hahnbach, M","type":"Markt"},"district":{"key":"09371","name":"Amberg-Sulzbach","type":"Landkreis"},"federalState":{"key":"09","name":"Bayern"}},{"name":"Kirchgasse","postalCode":"92256","locality":"Hahnbach","municipality":{"key":"09371126","name":"Hahnbach, M","type":"Markt"},"district":{"key":"09371","name":"Amberg-Sulzbach","type":"Landkreis"},"federalState":{"key":"09","name":"Bayern"}},{"name":"Kirchweg","postalCode":"92256","locality":"Hahnbach","municipality":{"key":"09371126","name":"Hahnbach, M","type":"Markt"},"district":{"key":"09371","name":"Amberg-Sulzbach","type":"Landkreis"},"federalState":{"key":"09","name":"Bayern"}},{"name":"Kötzersricht","postalCode":"92256","locality":"Hahnbach","municipality":{"key":"09371126","name":"Hahnbach, M","type":"Markt"},"district":{"key":"09371","name":"Amberg-Sulzbach","type":"Landkreis"},"federalState":{"key":"09","name":"Bayern"}},{"name":"Kreuzweg","postalCode":"92256","locality":"Hahnbach","municipality":{"key":"09371126","name":"Hahnbach, M","type":"Markt"},"district":{"key":"09371","name":"Amberg-Sulzbach","type":"Landkreis"},"federalState":{"key":"09","name":"Bayern"}},{"name":"Kümmersbuch","postalCode":"92256","locality":"Hahnbach","municipality":{"key":"09371126","name":"Hahnbach, M","type":"Markt"},"district":{"key":"09371","name":"Amberg-Sulzbach","type":"Landkreis"},"federalState":{"key":"09","name":"Bayern"}},{"name":"Kümmersbucher Weg","postalCode":"92256","locality":"Hahnbach","municipality":{"key":"09371126","name":"Hahnbach, M","type":"Markt"},"district":{"key":"09371","name":"Amberg-Sulzbach","type":"Landkreis"},"federalState":{"key":"09","name":"Bayern"}},{"name":"Lärchenstr.","postalCode":"92256","locality":"Hahnbach","municipality":{"key":"09371126","name":"Hahnbach, M","type":"Markt"},"district":{"key":"09371","name":"Amberg-Sulzbach","type":"Landkreis"},"federalState":{"key":"09","name":"Bayern"}},{"name":"Lettenweg","postalCode":"92256","locality":"Hahnbach","municipality":{"key":"09371126","name":"Hahnbach, M","type":"Markt"},"district":{"key":"09371","name":"Amberg-Sulzbach","type":"Landkreis"},"federalState":{"key":"09","name":"Bayern"}},{"name":"Lindenstr.","postalCode":"92256","locality":"Hahnbach","municipality":{"key":"09371126","name":"Hahnbach, M","type":"Markt"},"district":{"key":"09371","name":"Amberg-Sulzbach","type":"Landkreis"},"federalState":{"key":"09","name":"Bayern"}},{"name":"Lohweg","postalCode":"92256","locality":"Hahnbach","municipality":{"key":"09371126","name":"Hahnbach, M","type":"Markt"},"district":{"key":"09371","name":"Amberg-Sulzbach","type":"Landkreis"},"federalState":{"key":"09","name":"Bayern"}},{"name":"Luppersricht","postalCode":"92256","locality":"Hahnbach","municipality":{"key":"09371126","name":"Hahnbach, M","type":"Markt"},"district":{"key":"09371","name":"Amberg-Sulzbach","type":"Landkreis"},"federalState":{"key":"09","name":"Bayern"}},{"name":"Marktgraben","postalCode":"92256","locality":"Hahnbach","municipality":{"key":"09371126","name":"Hahnbach, M","type":"Markt"},"district":{"key":"09371","name":"Amberg-Sulzbach","type":"Landkreis"},"federalState":{"key":"09","name":"Bayern"}},{"name":"Mausdorf","postalCode":"92256","locality":"Hahnbach","municipality":{"key":"09371126","name":"Hahnbach, M","type":"Markt"},"district":{"key":"09371","name":"Amberg-Sulzbach","type":"Landkreis"},"federalState":{"key":"09","name":"Bayern"}},{"name":"Max-Prechtl-Str.","postalCode":"92256","locality":"Hahnbach","municipality":{"key":"09371126","name":"Hahnbach, M","type":"Markt"},"district":{"key":"09371","name":"Amberg-Sulzbach","type":"Landkreis"},"federalState":{"key":"09","name":"Bayern"}},{"name":"Max-Reger-Str.","postalCode":"92256","locality":"Hahnbach","municipality":{"key":"09371126","name":"Hahnbach, M","type":"Markt"},"district":{"key":"09371","name":"Amberg-Sulzbach","type":"Landkreis"},"federalState":{"key":"09","name":"Bayern"}},{"name":"Mimbach","postalCode":"92256","locality":"Hahnbach","municipality":{"key":"09371126","name":"Hahnbach, M","type":"Markt"},"district":{"key":"09371","name":"Amberg-Sulzbach","type":"Landkreis"},"federalState":{"key":"09","name":"Bayern"}},{"name":"Mühlacker","postalCode":"92256","locality":"Hahnbach","municipality":{"key":"09371126","name":"Hahnbach, M","type":"Markt"},"district":{"key":"09371","name":"Amberg-Sulzbach","type":"Landkreis"},"federalState":{"key":"09","name":"Bayern"}},{"name":"Mühlstr.","postalCode":"92256","locality":"Hahnbach","municipality":{"key":"09371126","name":"Hahnbach, M","type":"Markt"},"district":{"key":"09371","name":"Amberg-Sulzbach","type":"Landkreis"},"federalState":{"key":"09","name":"Bayern"}},{"name":"Nelkenstr.","postalCode":"92256","locality":"Hahnbach","municipality":{"key":"09371126","name":"Hahnbach, M","type":"Markt"},"district":{"key":"09371","name":"Amberg-Sulzbach","type":"Landkreis"},"federalState":{"key":"09","name":"Bayern"}},{"name":"Obere Kupfer","postalCode":"92256","locality":"Hahnbach","municipality":{"key":"09371126","name":"Hahnbach, M","type":"Markt"},"district":{"key":"09371","name":"Amberg-Sulzbach","type":"Landkreis"},"federalState":{"key":"09","name":"Bayern"}},{"name":"Oberer Bahnweg","postalCode":"92256","locality":"Hahnbach","municipality":{"key":"09371126","name":"Hahnbach, M","type":"Markt"},"district":{"key":"09371","name":"Amberg-Sulzbach","type":"Landkreis"},"federalState":{"key":"09","name":"Bayern"}},{"name":"Oberer Marktgraben","postalCode":"92256","locality":"Hahnbach","municipality":{"key":"09371126","name":"Hahnbach, M","type":"Markt"},"district":{"key":"09371","name":"Amberg-Sulzbach","type":"Landkreis"},"federalState":{"key":"09","name":"Bayern"}},{"name":"Osterbrunnen","postalCode":"92256","locality":"Hahnbach","municipality":{"key":"09371126","name":"Hahnbach, M","type":"Markt"},"district":{"key":"09371","name":"Amberg-Sulzbach","type":"Landkreis"},"federalState":{"key":"09","name":"Bayern"}},{"name":"Pandurengasse","postalCode":"92256","locality":"Hahnbach","municipality":{"key":"09371126","name":"Hahnbach, M","type":"Markt"},"district":{"key":"09371","name":"Amberg-Sulzbach","type":"Landkreis"},"federalState":{"key":"09","name":"Bayern"}},{"name":"Pickenricht","postalCode":"92256","locality":"Hahnbach","municipality":{"key":"09371126","name":"Hahnbach, M","type":"Markt"},"district":{"key":"09371","name":"Amberg-Sulzbach","type":"Landkreis"},"federalState":{"key":"09","name":"Bayern"}},{"name":"Rathgasse","postalCode":"92256","locality":"Hahnbach","municipality":{"key":"09371126","name":"Hahnbach, M","type":"Markt"},"district":{"key":"09371","name":"Amberg-Sulzbach","type":"Landkreis"},"federalState":{"key":"09","name":"Bayern"}},{"name":"Reglergasse","postalCode":"92256","locality":"Hahnbach","municipality":{"key":"09371126","name":"Hahnbach, M","type":"Markt"},"district":{"key":"09371","name":"Amberg-Sulzbach","type":"Landkreis"},"federalState":{"key":"09","name":"Bayern"}},{"name":"Rosenstr.","postalCode":"92256","locality":"Hahnbach","municipality":{"key":"09371126","name":"Hahnbach, M","type":"Markt"},"district":{"key":"09371","name":"Amberg-Sulzbach","type":"Landkreis"},"federalState":{"key":"09","name":"Bayern"}},{"name":"Röthelwiesen","postalCode":"92256","locality":"Hahnbach","municipality":{"key":"09371126","name":"Hahnbach, M","type":"Markt"},"district":{"key":"09371","name":"Amberg-Sulzbach","type":"Landkreis"},"federalState":{"key":"09","name":"Bayern"}},{"name":"Rummersrichter Weg","postalCode":"92256","locality":"Hahnbach","municipality":{"key":"09371126","name":"Hahnbach, M","type":"Markt"},"district":{"key":"09371","name":"Amberg-Sulzbach","type":"Landkreis"},"federalState":{"key":"09","name":"Bayern"}},{"name":"Saasweg","postalCode":"92256","locality":"Hahnbach","municipality":{"key":"09371126","name":"Hahnbach, M","type":"Markt"},"district":{"key":"09371","name":"Amberg-Sulzbach","type":"Landkreis"},"federalState":{"key":"09","name":"Bayern"}},{"name":"Sandstr.","postalCode":"92256","locality":"Hahnbach","municipality":{"key":"09371126","name":"Hahnbach, M","type":"Markt"},"district":{"key":"09371","name":"Amberg-Sulzbach","type":"Landkreis"},"federalState":{"key":"09","name":"Bayern"}},{"name":"Schalkenthan","postalCode":"92256","locality":"Hahnbach","municipality":{"key":"09371126","name":"Hahnbach, M","type":"Markt"},"district":{"key":"09371","name":"Amberg-Sulzbach","type":"Landkreis"},"federalState":{"key":"09","name":"Bayern"}},{"name":"Schalkenthaner Weg","postalCode":"92256","locality":"Hahnbach","municipality":{"key":"09371126","name":"Hahnbach, M","type":"Markt"},"district":{"key":"09371","name":"Amberg-Sulzbach","type":"Landkreis"},"federalState":{"key":"09","name":"Bayern"}},{"name":"Schlehenweg","postalCode":"92256","locality":"Hahnbach","municipality":{"key":"09371126","name":"Hahnbach, M","type":"Markt"},"district":{"key":"09371","name":"Amberg-Sulzbach","type":"Landkreis"},"federalState":{"key":"09","name":"Bayern"}},{"name":"Schulstr.","postalCode":"92256","locality":"Hahnbach","municipality":{"key":"09371126","name":"Hahnbach, M","type":"Markt"},"district":{"key":"09371","name":"Amberg-Sulzbach","type":"Landkreis"},"federalState":{"key":"09","name":"Bayern"}},{"name":"Sonnenhang","postalCode":"92256","locality":"Hahnbach","municipality":{"key":"09371126","name":"Hahnbach, M","type":"Markt"},"district":{"key":"09371","name":"Amberg-Sulzbach","type":"Landkreis"},"federalState":{"key":"09","name":"Bayern"}},{"name":"Sonnenstr.","postalCode":"92256","locality":"Hahnbach","municipality":{"key":"09371126","name":"Hahnbach, M","type":"Markt"},"district":{"key":"09371","name":"Amberg-Sulzbach","type":"Landkreis"},"federalState":{"key":"09","name":"Bayern"}},{"name":"Speckshofer Str.","postalCode":"92256","locality":"Hahnbach","municipality":{"key":"09371126","name":"Hahnbach, M","type":"Markt"},"district":{"key":"09371","name":"Amberg-Sulzbach","type":"Landkreis"},"federalState":{"key":"09","name":"Bayern"}},{"name":"Spitalweg","postalCode":"92256","locality":"Hahnbach","municipality":{"key":"09371126","name":"Hahnbach, M","type":"Markt"},"district":{"key":"09371","name":"Amberg-Sulzbach","type":"Landkreis"},"federalState":{"key":"09","name":"Bayern"}},{"name":"Stegergasse","postalCode":"92256","locality":"Hahnbach","municipality":{"key":"09371126","name":"Hahnbach, M","type":"Markt"},"district":{"key":"09371","name":"Amberg-Sulzbach","type":"Landkreis"},"federalState":{"key":"09","name":"Bayern"}},{"name":"Striegelweg","postalCode":"92256","locality":"Hahnbach","municipality":{"key":"09371126","name":"Hahnbach, M","type":"Markt"},"district":{"key":"09371","name":"Amberg-Sulzbach","type":"Landkreis"},"federalState":{"key":"09","name":"Bayern"}},{"name":"Südstr.","postalCode":"92256","locality":"Hahnbach","municipality":{"key":"09371126","name":"Hahnbach, M","type":"Markt"},"district":{"key":"09371","name":"Amberg-Sulzbach","type":"Landkreis"},"federalState":{"key":"09","name":"Bayern"}},{"name":"Sulzbacher Str.","postalCode":"92256","locality":"Hahnbach","municipality":{"key":"09371126","name":"Hahnbach, M","type":"Markt"},"district":{"key":"09371","name":"Amberg-Sulzbach","type":"Landkreis"},"federalState":{"key":"09","name":"Bayern"}},{"name":"Tulpenstr.","postalCode":"92256","locality":"Hahnbach","municipality":{"key":"09371126","name":"Hahnbach, M","type":"Markt"},"district":{"key":"09371","name":"Amberg-Sulzbach","type":"Landkreis"},"federalState":{"key":"09","name":"Bayern"}},{"name":"Umgehungsstr.","postalCode":"92256","locality":"Hahnbach","municipality":{"key":"09371126","name":"Hahnbach, M","type":"Markt"},"district":{"key":"09371","name":"Amberg-Sulzbach","type":"Landkreis"},"federalState":{"key":"09","name":"Bayern"}},{"name":"Untere Kupfer","postalCode":"92256","locality":"Hahnbach","municipality":{"key":"09371126","name":"Hahnbach, M","type":"Markt"},"district":{"key":"09371","name":"Amberg-Sulzbach","type":"Landkreis"},"federalState":{"key":"09","name":"Bayern"}},{"name":"Unterer Bahnweg","postalCode":"92256","locality":"Hahnbach","municipality":{"key":"09371126","name":"Hahnbach, M","type":"Markt"},"district":{"key":"09371","name":"Amberg-Sulzbach","type":"Landkreis"},"federalState":{"key":"09","name":"Bayern"}},{"name":"Verbindungsweg; Benutzung auf eigene Gefahr","postalCode":"92256","locality":"Hahnbach","municipality":{"key":"09371126","name":"Hahnbach, M","type":"Markt"},"district":{"key":"09371","name":"Amberg-Sulzbach","type":"Landkreis"},"federalState":{"key":"09","name":"Bayern"}},{"name":"Vilsecker Str.","postalCode":"92256","locality":"Hahnbach","municipality":{"key":"09371126","name":"Hahnbach, M","type":"Markt"},"district":{"key":"09371","name":"Amberg-Sulzbach","type":"Landkreis"},"federalState":{"key":"09","name":"Bayern"}},{"name":"Vilsstr.","postalCode":"92256","locality":"Hahnbach","municipality":{"key":"09371126","name":"Hahnbach, M","type":"Markt"},"district":{"key":"09371","name":"Amberg-Sulzbach","type":"Landkreis"},"federalState":{"key":"09","name":"Bayern"}},{"name":"Vogelloh","postalCode":"92256","locality":"Hahnbach","municipality":{"key":"09371126","name":"Hahnbach, M","type":"Markt"},"district":{"key":"09371","name":"Amberg-Sulzbach","type":"Landkreis"},"federalState":{"key":"09","name":"Bayern"}},{"name":"Vordere Giertloh","postalCode":"92256","locality":"Hahnbach","municipality":{"key":"09371126","name":"Hahnbach, M","type":"Markt"},"district":{"key":"09371","name":"Amberg-Sulzbach","type":"Landkreis"},"federalState":{"key":"09","name":"Bayern"}},{"name":"Wacholderweg","postalCode":"92256","locality":"Hahnbach","municipality":{"key":"09371126","name":"Hahnbach, M","type":"Markt"},"district":{"key":"09371","name":"Amberg-Sulzbach","type":"Landkreis"},"federalState":{"key":"09","name":"Bayern"}},{"name":"Waldstr.","postalCode":"92256","locality":"Hahnbach","municipality":{"key":"09371126","name":"Hahnbach, M","type":"Markt"},"district":{"key":"09371","name":"Amberg-Sulzbach","type":"Landkreis"},"federalState":{"key":"09","name":"Bayern"}},{"name":"Wehrlohweg","postalCode":"92256","locality":"Hahnbach","municipality":{"key":"09371126","name":"Hahnbach, M","type":"Markt"},"district":{"key":"09371","name":"Amberg-Sulzbach","type":"Landkreis"},"federalState":{"key":"09","name":"Bayern"}},{"name":"Weiherweg","postalCode":"92256","locality":"Hahnbach","municipality":{"key":"09371126","name":"Hahnbach, M","type":"Markt"},"district":{"key":"09371","name":"Amberg-Sulzbach","type":"Landkreis"},"federalState":{"key":"09","name":"Bayern"}},{"name":"Weststr.","postalCode":"92256","locality":"Hahnbach","municipality":{"key":"09371126","name":"Hahnbach, M","type":"Markt"},"district":{"key":"09371","name":"Amberg-Sulzbach","type":"Landkreis"},"federalState":{"key":"09","name":"Bayern"}},{"name":"Wüstenauer Weg","postalCode":"92256","locality":"Hahnbach","municipality":{"key":"09371126","name":"Hahnbach, M","type":"Markt"},"district":{"key":"09371","name":"Amberg-Sulzbach","type":"Landkreis"},"federalState":{"key":"09","name":"Bayern"}},{"name":"Zum Süßer Berg","postalCode":"92256","locality":"Hahnbach","municipality":{"key":"09371126","name":"Hahnbach, M","type":"Markt"},"district":{"key":"09371","name":"Amberg-Sulzbach","type":"Landkreis"},"federalState":{"key":"09","name":"Bayern"}},]