[{"name":"Am Fehnweg","postalCode":"26556","locality":"Eversmeer","municipality":{"key":"03462004","name":"Eversmeer","type":"Kreisangehörige_Gemeinde"},"district":{"key":"03462","name":"Wittmund","type":"Landkreis"},"federalState":{"key":"03","name":"Niedersachsen"}},{"name":"Am Naturschutzgebiet","postalCode":"26556","locality":"Eversmeer","municipality":{"key":"03462004","name":"Eversmeer","type":"Kreisangehörige_Gemeinde"},"district":{"key":"03462","name":"Wittmund","type":"Landkreis"},"federalState":{"key":"03","name":"Niedersachsen"}},{"name":"Ant Körtland","postalCode":"26556","locality":"Eversmeer","municipality":{"key":"03462004","name":"Eversmeer","type":"Kreisangehörige_Gemeinde"},"district":{"key":"03462","name":"Wittmund","type":"Landkreis"},"federalState":{"key":"03","name":"Niedersachsen"}},{"name":"Ant Leegmoor","postalCode":"26556","locality":"Eversmeer","municipality":{"key":"03462004","name":"Eversmeer","type":"Kreisangehörige_Gemeinde"},"district":{"key":"03462","name":"Wittmund","type":"Landkreis"},"federalState":{"key":"03","name":"Niedersachsen"}},{"name":"Auricher Höcht","postalCode":"26556","locality":"Eversmeer","municipality":{"key":"03462004","name":"Eversmeer","type":"Kreisangehörige_Gemeinde"},"district":{"key":"03462","name":"Wittmund","type":"Landkreis"},"federalState":{"key":"03","name":"Niedersachsen"}},{"name":"Auricher Str.","postalCode":"26556","locality":"Eversmeer","municipality":{"key":"03462004","name":"Eversmeer","type":"Kreisangehörige_Gemeinde"},"district":{"key":"03462","name":"Wittmund","type":"Landkreis"},"federalState":{"key":"03","name":"Niedersachsen"}},{"name":"Birkhahnweg","postalCode":"26556","locality":"Eversmeer","municipality":{"key":"03462004","name":"Eversmeer","type":"Kreisangehörige_Gemeinde"},"district":{"key":"03462","name":"Wittmund","type":"Landkreis"},"federalState":{"key":"03","name":"Niedersachsen"}},{"name":"Carmslander Weg","postalCode":"26409","locality":"Wittmund","municipality":{"key":"03462019","name":"Wittmund, Stadt","type":"Stadt"},"district":{"key":"03462","name":"Wittmund","type":"Landkreis"},"federalState":{"key":"03","name":"Niedersachsen"}},{"name":"Carolinengroden Ost","postalCode":"26409","locality":"Wittmund","municipality":{"key":"03462019","name":"Wittmund, Stadt","type":"Stadt"},"district":{"key":"03462","name":"Wittmund","type":"Landkreis"},"federalState":{"key":"03","name":"Niedersachsen"}},{"name":"Carolinensieler Str.","postalCode":"26409","locality":"Wittmund","municipality":{"key":"03462019","name":"Wittmund, Stadt","type":"Stadt"},"district":{"key":"03462","name":"Wittmund","type":"Landkreis"},"federalState":{"key":"03","name":"Niedersachsen"}},{"name":"Caspersweg","postalCode":"26409","locality":"Wittmund","municipality":{"key":"03462019","name":"Wittmund, Stadt","type":"Stadt"},"district":{"key":"03462","name":"Wittmund","type":"Landkreis"},"federalState":{"key":"03","name":"Niedersachsen"}},{"name":"Christoffel-van-Brants-Weg","postalCode":"26409","locality":"Wittmund","municipality":{"key":"03462019","name":"Wittmund, Stadt","type":"Stadt"},"district":{"key":"03462","name":"Wittmund","type":"Landkreis"},"federalState":{"key":"03","name":"Niedersachsen"}},{"name":"Cliner Straat","postalCode":"26409","locality":"Wittmund","municipality":{"key":"03462019","name":"Wittmund, Stadt","type":"Stadt"},"district":{"key":"03462","name":"Wittmund","type":"Landkreis"},"federalState":{"key":"03","name":"Niedersachsen"}},{"name":"Collrunger Forst","postalCode":"26409","locality":"Wittmund","municipality":{"key":"03462019","name":"Wittmund, Stadt","type":"Stadt"},"district":{"key":"03462","name":"Wittmund","type":"Landkreis"},"federalState":{"key":"03","name":"Niedersachsen"}},{"name":"Collrungermoor","postalCode":"26409","locality":"Wittmund","municipality":{"key":"03462019","name":"Wittmund, Stadt","type":"Stadt"},"district":{"key":"03462","name":"Wittmund","type":"Landkreis"},"federalState":{"key":"03","name":"Niedersachsen"}},{"name":"Collrunger Str.","postalCode":"26409","locality":"Wittmund","municipality":{"key":"03462019","name":"Wittmund, Stadt","type":"Stadt"},"district":{"key":"03462","name":"Wittmund","type":"Landkreis"},"federalState":{"key":"03","name":"Niedersachsen"}},{"name":"Corneliuskamp","postalCode":"26409","locality":"Wittmund","municipality":{"key":"03462019","name":"Wittmund, Stadt","type":"Stadt"},"district":{"key":"03462","name":"Wittmund","type":"Landkreis"},"federalState":{"key":"03","name":"Niedersachsen"}},{"name":"Dahlienweg","postalCode":"26409","locality":"Wittmund","municipality":{"key":"03462019","name":"Wittmund, Stadt","type":"Stadt"},"district":{"key":"03462","name":"Wittmund","type":"Landkreis"},"federalState":{"key":"03","name":"Niedersachsen"}},{"name":"Danziger Str.","postalCode":"26409","locality":"Wittmund","municipality":{"key":"03462019","name":"Wittmund, Stadt","type":"Stadt"},"district":{"key":"03462","name":"Wittmund","type":"Landkreis"},"federalState":{"key":"03","name":"Niedersachsen"}},{"name":"Deichstr.","postalCode":"26409","locality":"Wittmund","municipality":{"key":"03462019","name":"Wittmund, Stadt","type":"Stadt"},"district":{"key":"03462","name":"Wittmund","type":"Landkreis"},"federalState":{"key":"03","name":"Niedersachsen"}},{"name":"Dohusen","postalCode":"26409","locality":"Wittmund","municipality":{"key":"03462019","name":"Wittmund, Stadt","type":"Stadt"},"district":{"key":"03462","name":"Wittmund","type":"Landkreis"},"federalState":{"key":"03","name":"Niedersachsen"}},{"name":"Dohuser Weg","postalCode":"26409","locality":"Wittmund","municipality":{"key":"03462019","name":"Wittmund, Stadt","type":"Stadt"},"district":{"key":"03462","name":"Wittmund","type":"Landkreis"},"federalState":{"key":"03","name":"Niedersachsen"}},{"name":"Domhuser Weg","postalCode":"26409","locality":"Wittmund","municipality":{"key":"03462019","name":"Wittmund, Stadt","type":"Stadt"},"district":{"key":"03462","name":"Wittmund","type":"Landkreis"},"federalState":{"key":"03","name":"Niedersachsen"}},{"name":"Dorfstr.","postalCode":"26409","locality":"Wittmund","municipality":{"key":"03462019","name":"Wittmund, Stadt","type":"Stadt"},"district":{"key":"03462","name":"Wittmund","type":"Landkreis"},"federalState":{"key":"03","name":"Niedersachsen"}},{"name":"Driestweg","postalCode":"26409","locality":"Wittmund","municipality":{"key":"03462019","name":"Wittmund, Stadt","type":"Stadt"},"district":{"key":"03462","name":"Wittmund","type":"Landkreis"},"federalState":{"key":"03","name":"Niedersachsen"}},{"name":"Dr.-Tjarks-Str.","postalCode":"26409","locality":"Wittmund","municipality":{"key":"03462019","name":"Wittmund, Stadt","type":"Stadt"},"district":{"key":"03462","name":"Wittmund","type":"Landkreis"},"federalState":{"key":"03","name":"Niedersachsen"}},{"name":"Dunumer Str.","postalCode":"26409","locality":"Wittmund","municipality":{"key":"03462019","name":"Wittmund, Stadt","type":"Stadt"},"district":{"key":"03462","name":"Wittmund","type":"Landkreis"},"federalState":{"key":"03","name":"Niedersachsen"}},{"name":"Eschenweg","postalCode":"26556","locality":"Eversmeer","municipality":{"key":"03462004","name":"Eversmeer","type":"Kreisangehörige_Gemeinde"},"district":{"key":"03462","name":"Wittmund","type":"Landkreis"},"federalState":{"key":"03","name":"Niedersachsen"}},{"name":"Fasanenstr.","postalCode":"26556","locality":"Eversmeer","municipality":{"key":"03462004","name":"Eversmeer","type":"Kreisangehörige_Gemeinde"},"district":{"key":"03462","name":"Wittmund","type":"Landkreis"},"federalState":{"key":"03","name":"Niedersachsen"}},{"name":"Fehnweg","postalCode":"26556","locality":"Eversmeer","municipality":{"key":"03462004","name":"Eversmeer","type":"Kreisangehörige_Gemeinde"},"district":{"key":"03462","name":"Wittmund","type":"Landkreis"},"federalState":{"key":"03","name":"Niedersachsen"}},{"name":"Finkenburger Weg","postalCode":"26556","locality":"Eversmeer","municipality":{"key":"03462004","name":"Eversmeer","type":"Kreisangehörige_Gemeinde"},"district":{"key":"03462","name":"Wittmund","type":"Landkreis"},"federalState":{"key":"03","name":"Niedersachsen"}},{"name":"Freese-Siedlung","postalCode":"26556","locality":"Eversmeer","municipality":{"key":"03462004","name":"Eversmeer","type":"Kreisangehörige_Gemeinde"},"district":{"key":"03462","name":"Wittmund","type":"Landkreis"},"federalState":{"key":"03","name":"Niedersachsen"}},{"name":"Goldmoorstr.","postalCode":"26556","locality":"Eversmeer","municipality":{"key":"03462004","name":"Eversmeer","type":"Kreisangehörige_Gemeinde"},"district":{"key":"03462","name":"Wittmund","type":"Landkreis"},"federalState":{"key":"03","name":"Niedersachsen"}},{"name":"Grenzweg","postalCode":"26556","locality":"Eversmeer","municipality":{"key":"03462004","name":"Eversmeer","type":"Kreisangehörige_Gemeinde"},"district":{"key":"03462","name":"Wittmund","type":"Landkreis"},"federalState":{"key":"03","name":"Niedersachsen"}},{"name":"Hafenstr.","postalCode":"26409","locality":"Wittmund","municipality":{"key":"03462019","name":"Wittmund, Stadt","type":"Stadt"},"district":{"key":"03462","name":"Wittmund","type":"Landkreis"},"federalState":{"key":"03","name":"Niedersachsen"}},{"name":"Hammrichhausen","postalCode":"26409","locality":"Wittmund","municipality":{"key":"03462019","name":"Wittmund, Stadt","type":"Stadt"},"district":{"key":"03462","name":"Wittmund","type":"Landkreis"},"federalState":{"key":"03","name":"Niedersachsen"}},{"name":"Hammweg","postalCode":"26409","locality":"Wittmund","municipality":{"key":"03462019","name":"Wittmund, Stadt","type":"Stadt"},"district":{"key":"03462","name":"Wittmund","type":"Landkreis"},"federalState":{"key":"03","name":"Niedersachsen"}},{"name":"Händelweg","postalCode":"26409","locality":"Wittmund","municipality":{"key":"03462019","name":"Wittmund, Stadt","type":"Stadt"},"district":{"key":"03462","name":"Wittmund","type":"Landkreis"},"federalState":{"key":"03","name":"Niedersachsen"}},{"name":"Harleblick","postalCode":"26409","locality":"Wittmund","municipality":{"key":"03462019","name":"Wittmund, Stadt","type":"Stadt"},"district":{"key":"03462","name":"Wittmund","type":"Landkreis"},"federalState":{"key":"03","name":"Niedersachsen"}},{"name":"Harlepadd","postalCode":"26409","locality":"Wittmund","municipality":{"key":"03462019","name":"Wittmund, Stadt","type":"Stadt"},"district":{"key":"03462","name":"Wittmund","type":"Landkreis"},"federalState":{"key":"03","name":"Niedersachsen"}},{"name":"Harlestr.","postalCode":"26409","locality":"Wittmund","municipality":{"key":"03462019","name":"Wittmund, Stadt","type":"Stadt"},"district":{"key":"03462","name":"Wittmund","type":"Landkreis"},"federalState":{"key":"03","name":"Niedersachsen"}},{"name":"Harpertshausener Str.","postalCode":"26409","locality":"Wittmund","municipality":{"key":"03462019","name":"Wittmund, Stadt","type":"Stadt"},"district":{"key":"03462","name":"Wittmund","type":"Landkreis"},"federalState":{"key":"03","name":"Niedersachsen"}},{"name":"Harter Weg","postalCode":"26409","locality":"Wittmund","municipality":{"key":"03462019","name":"Wittmund, Stadt","type":"Stadt"},"district":{"key":"03462","name":"Wittmund","type":"Landkreis"},"federalState":{"key":"03","name":"Niedersachsen"}},{"name":"Hascheburg","postalCode":"26409","locality":"Wittmund","municipality":{"key":"03462019","name":"Wittmund, Stadt","type":"Stadt"},"district":{"key":"03462","name":"Wittmund","type":"Landkreis"},"federalState":{"key":"03","name":"Niedersachsen"}},{"name":"Haselünnendeich Str.","postalCode":"26409","locality":"Wittmund","municipality":{"key":"03462019","name":"Wittmund, Stadt","type":"Stadt"},"district":{"key":"03462","name":"Wittmund","type":"Landkreis"},"federalState":{"key":"03","name":"Niedersachsen"}},{"name":"Hasenheide","postalCode":"26409","locality":"Wittmund","municipality":{"key":"03462019","name":"Wittmund, Stadt","type":"Stadt"},"district":{"key":"03462","name":"Wittmund","type":"Landkreis"},"federalState":{"key":"03","name":"Niedersachsen"}},{"name":"Hattersumer Str.","postalCode":"26409","locality":"Wittmund","municipality":{"key":"03462019","name":"Wittmund, Stadt","type":"Stadt"},"district":{"key":"03462","name":"Wittmund","type":"Landkreis"},"federalState":{"key":"03","name":"Niedersachsen"}},{"name":"Hauptstr.","postalCode":"26409","locality":"Wittmund","municipality":{"key":"03462019","name":"Wittmund, Stadt","type":"Stadt"},"district":{"key":"03462","name":"Wittmund","type":"Landkreis"},"federalState":{"key":"03","name":"Niedersachsen"}},{"name":"Haydnweg","postalCode":"26409","locality":"Wittmund","municipality":{"key":"03462019","name":"Wittmund, Stadt","type":"Stadt"},"district":{"key":"03462","name":"Wittmund","type":"Landkreis"},"federalState":{"key":"03","name":"Niedersachsen"}},{"name":"Heerweg","postalCode":"26409","locality":"Wittmund","municipality":{"key":"03462019","name":"Wittmund, Stadt","type":"Stadt"},"district":{"key":"03462","name":"Wittmund","type":"Landkreis"},"federalState":{"key":"03","name":"Niedersachsen"}},{"name":"Heglitzer Str.","postalCode":"26409","locality":"Wittmund","municipality":{"key":"03462019","name":"Wittmund, Stadt","type":"Stadt"},"district":{"key":"03462","name":"Wittmund","type":"Landkreis"},"federalState":{"key":"03","name":"Niedersachsen"}},{"name":"Heidfelder Weg","postalCode":"26409","locality":"Wittmund","municipality":{"key":"03462019","name":"Wittmund, Stadt","type":"Stadt"},"district":{"key":"03462","name":"Wittmund","type":"Landkreis"},"federalState":{"key":"03","name":"Niedersachsen"}},{"name":"Heidkämpe","postalCode":"26409","locality":"Wittmund","municipality":{"key":"03462019","name":"Wittmund, Stadt","type":"Stadt"},"district":{"key":"03462","name":"Wittmund","type":"Landkreis"},"federalState":{"key":"03","name":"Niedersachsen"}},{"name":"Heidlandsweg","postalCode":"26409","locality":"Wittmund","municipality":{"key":"03462019","name":"Wittmund, Stadt","type":"Stadt"},"district":{"key":"03462","name":"Wittmund","type":"Landkreis"},"federalState":{"key":"03","name":"Niedersachsen"}},{"name":"Heinrich-Heine-Str.","postalCode":"26409","locality":"Wittmund","municipality":{"key":"03462019","name":"Wittmund, Stadt","type":"Stadt"},"district":{"key":"03462","name":"Wittmund","type":"Landkreis"},"federalState":{"key":"03","name":"Niedersachsen"}},{"name":"Helgolandstr.","postalCode":"26409","locality":"Wittmund","municipality":{"key":"03462019","name":"Wittmund, Stadt","type":"Stadt"},"district":{"key":"03462","name":"Wittmund","type":"Landkreis"},"federalState":{"key":"03","name":"Niedersachsen"}},{"name":"Hellackerstr.","postalCode":"26409","locality":"Wittmund","municipality":{"key":"03462019","name":"Wittmund, Stadt","type":"Stadt"},"district":{"key":"03462","name":"Wittmund","type":"Landkreis"},"federalState":{"key":"03","name":"Niedersachsen"}},{"name":"Helsenwarfer Str.","postalCode":"26409","locality":"Wittmund","municipality":{"key":"03462019","name":"Wittmund, Stadt","type":"Stadt"},"district":{"key":"03462","name":"Wittmund","type":"Landkreis"},"federalState":{"key":"03","name":"Niedersachsen"}},{"name":"Heppens","postalCode":"26409","locality":"Wittmund","municipality":{"key":"03462019","name":"Wittmund, Stadt","type":"Stadt"},"district":{"key":"03462","name":"Wittmund","type":"Landkreis"},"federalState":{"key":"03","name":"Niedersachsen"}},{"name":"Herbergsmense","postalCode":"26409","locality":"Wittmund","municipality":{"key":"03462019","name":"Wittmund, Stadt","type":"Stadt"},"district":{"key":"03462","name":"Wittmund","type":"Landkreis"},"federalState":{"key":"03","name":"Niedersachsen"}},{"name":"Hespenhausener Str.","postalCode":"26409","locality":"Wittmund","municipality":{"key":"03462019","name":"Wittmund, Stadt","type":"Stadt"},"district":{"key":"03462","name":"Wittmund","type":"Landkreis"},"federalState":{"key":"03","name":"Niedersachsen"}},{"name":"Hiddenskamp","postalCode":"26409","locality":"Wittmund","municipality":{"key":"03462019","name":"Wittmund, Stadt","type":"Stadt"},"district":{"key":"03462","name":"Wittmund","type":"Landkreis"},"federalState":{"key":"03","name":"Niedersachsen"}},{"name":"Hieskebarg","postalCode":"26409","locality":"Wittmund","municipality":{"key":"03462019","name":"Wittmund, Stadt","type":"Stadt"},"district":{"key":"03462","name":"Wittmund","type":"Landkreis"},"federalState":{"key":"03","name":"Niedersachsen"}},{"name":"Hieskebarger Str.","postalCode":"26409","locality":"Wittmund","municipality":{"key":"03462019","name":"Wittmund, Stadt","type":"Stadt"},"district":{"key":"03462","name":"Wittmund","type":"Landkreis"},"federalState":{"key":"03","name":"Niedersachsen"}},{"name":"Hilgenkämpe","postalCode":"26409","locality":"Wittmund","municipality":{"key":"03462019","name":"Wittmund, Stadt","type":"Stadt"},"district":{"key":"03462","name":"Wittmund","type":"Landkreis"},"federalState":{"key":"03","name":"Niedersachsen"}},{"name":"Hilgensteener Weg","postalCode":"26409","locality":"Wittmund","municipality":{"key":"03462019","name":"Wittmund, Stadt","type":"Stadt"},"district":{"key":"03462","name":"Wittmund","type":"Landkreis"},"federalState":{"key":"03","name":"Niedersachsen"}},{"name":"Hinrichs-Niewerth-Str.","postalCode":"26409","locality":"Wittmund","municipality":{"key":"03462019","name":"Wittmund, Stadt","type":"Stadt"},"district":{"key":"03462","name":"Wittmund","type":"Landkreis"},"federalState":{"key":"03","name":"Niedersachsen"}},{"name":"Hochkamp","postalCode":"26409","locality":"Wittmund","municipality":{"key":"03462019","name":"Wittmund, Stadt","type":"Stadt"},"district":{"key":"03462","name":"Wittmund","type":"Landkreis"},"federalState":{"key":"03","name":"Niedersachsen"}},{"name":"Hohebarger Str.","postalCode":"26409","locality":"Wittmund","municipality":{"key":"03462019","name":"Wittmund, Stadt","type":"Stadt"},"district":{"key":"03462","name":"Wittmund","type":"Landkreis"},"federalState":{"key":"03","name":"Niedersachsen"}},{"name":"Hohebier","postalCode":"26409","locality":"Wittmund","municipality":{"key":"03462019","name":"Wittmund, Stadt","type":"Stadt"},"district":{"key":"03462","name":"Wittmund","type":"Landkreis"},"federalState":{"key":"03","name":"Niedersachsen"}},{"name":"Hohefeld","postalCode":"26409","locality":"Wittmund","municipality":{"key":"03462019","name":"Wittmund, Stadt","type":"Stadt"},"district":{"key":"03462","name":"Wittmund","type":"Landkreis"},"federalState":{"key":"03","name":"Niedersachsen"}},{"name":"Hohehahn","postalCode":"26409","locality":"Wittmund","municipality":{"key":"03462019","name":"Wittmund, Stadt","type":"Stadt"},"district":{"key":"03462","name":"Wittmund","type":"Landkreis"},"federalState":{"key":"03","name":"Niedersachsen"}},{"name":"Hoher Weg","postalCode":"26409","locality":"Wittmund","municipality":{"key":"03462019","name":"Wittmund, Stadt","type":"Stadt"},"district":{"key":"03462","name":"Wittmund","type":"Landkreis"},"federalState":{"key":"03","name":"Niedersachsen"}},{"name":"Hoheweg","postalCode":"26409","locality":"Wittmund","municipality":{"key":"03462019","name":"Wittmund, Stadt","type":"Stadt"},"district":{"key":"03462","name":"Wittmund","type":"Landkreis"},"federalState":{"key":"03","name":"Niedersachsen"}},{"name":"Homsweg","postalCode":"26409","locality":"Wittmund","municipality":{"key":"03462019","name":"Wittmund, Stadt","type":"Stadt"},"district":{"key":"03462","name":"Wittmund","type":"Landkreis"},"federalState":{"key":"03","name":"Niedersachsen"}},{"name":"Hornum","postalCode":"26409","locality":"Wittmund","municipality":{"key":"03462019","name":"Wittmund, Stadt","type":"Stadt"},"district":{"key":"03462","name":"Wittmund","type":"Landkreis"},"federalState":{"key":"03","name":"Niedersachsen"}},{"name":"Hornumer Str.","postalCode":"26409","locality":"Wittmund","municipality":{"key":"03462019","name":"Wittmund, Stadt","type":"Stadt"},"district":{"key":"03462","name":"Wittmund","type":"Landkreis"},"federalState":{"key":"03","name":"Niedersachsen"}},{"name":"Horst","postalCode":"26409","locality":"Wittmund","municipality":{"key":"03462019","name":"Wittmund, Stadt","type":"Stadt"},"district":{"key":"03462","name":"Wittmund","type":"Landkreis"},"federalState":{"key":"03","name":"Niedersachsen"}},{"name":"Horster Str.","postalCode":"26409","locality":"Wittmund","municipality":{"key":"03462019","name":"Wittmund, Stadt","type":"Stadt"},"district":{"key":"03462","name":"Wittmund","type":"Landkreis"},"federalState":{"key":"03","name":"Niedersachsen"}},{"name":"Hoveler Str.","postalCode":"26409","locality":"Wittmund","municipality":{"key":"03462019","name":"Wittmund, Stadt","type":"Stadt"},"district":{"key":"03462","name":"Wittmund","type":"Landkreis"},"federalState":{"key":"03","name":"Niedersachsen"}},{"name":"Hümmler Weg","postalCode":"26409","locality":"Wittmund","municipality":{"key":"03462019","name":"Wittmund, Stadt","type":"Stadt"},"district":{"key":"03462","name":"Wittmund","type":"Landkreis"},"federalState":{"key":"03","name":"Niedersachsen"}},{"name":"Ihnkeburg","postalCode":"26409","locality":"Wittmund","municipality":{"key":"03462019","name":"Wittmund, Stadt","type":"Stadt"},"district":{"key":"03462","name":"Wittmund","type":"Landkreis"},"federalState":{"key":"03","name":"Niedersachsen"}},{"name":"Im Gartenland","postalCode":"26409","locality":"Wittmund","municipality":{"key":"03462019","name":"Wittmund, Stadt","type":"Stadt"},"district":{"key":"03462","name":"Wittmund","type":"Landkreis"},"federalState":{"key":"03","name":"Niedersachsen"}},{"name":"Im Groden","postalCode":"26409","locality":"Wittmund","municipality":{"key":"03462019","name":"Wittmund, Stadt","type":"Stadt"},"district":{"key":"03462","name":"Wittmund","type":"Landkreis"},"federalState":{"key":"03","name":"Niedersachsen"}},{"name":"Immelmannstr.","postalCode":"26409","locality":"Wittmund","municipality":{"key":"03462019","name":"Wittmund, Stadt","type":"Stadt"},"district":{"key":"03462","name":"Wittmund","type":"Landkreis"},"federalState":{"key":"03","name":"Niedersachsen"}},{"name":"Immentunsweg","postalCode":"26409","locality":"Wittmund","municipality":{"key":"03462019","name":"Wittmund, Stadt","type":"Stadt"},"district":{"key":"03462","name":"Wittmund","type":"Landkreis"},"federalState":{"key":"03","name":"Niedersachsen"}},{"name":"Im Raiffeisenwinkel","postalCode":"26409","locality":"Wittmund","municipality":{"key":"03462019","name":"Wittmund, Stadt","type":"Stadt"},"district":{"key":"03462","name":"Wittmund","type":"Landkreis"},"federalState":{"key":"03","name":"Niedersachsen"}},{"name":"Im Schnepel","postalCode":"26409","locality":"Wittmund","municipality":{"key":"03462019","name":"Wittmund, Stadt","type":"Stadt"},"district":{"key":"03462","name":"Wittmund","type":"Landkreis"},"federalState":{"key":"03","name":"Niedersachsen"}},{"name":"Im Seeburger Winkel","postalCode":"26409","locality":"Wittmund","municipality":{"key":"03462019","name":"Wittmund, Stadt","type":"Stadt"},"district":{"key":"03462","name":"Wittmund","type":"Landkreis"},"federalState":{"key":"03","name":"Niedersachsen"}},{"name":"In den Kämpen","postalCode":"26409","locality":"Wittmund","municipality":{"key":"03462019","name":"Wittmund, Stadt","type":"Stadt"},"district":{"key":"03462","name":"Wittmund","type":"Landkreis"},"federalState":{"key":"03","name":"Niedersachsen"}},{"name":"In't Carolinenwinkel","postalCode":"26409","locality":"Wittmund","municipality":{"key":"03462019","name":"Wittmund, Stadt","type":"Stadt"},"district":{"key":"03462","name":"Wittmund","type":"Landkreis"},"federalState":{"key":"03","name":"Niedersachsen"}},{"name":"In't Seeburger Winkel","postalCode":"26409","locality":"Wittmund","municipality":{"key":"03462019","name":"Wittmund, Stadt","type":"Stadt"},"district":{"key":"03462","name":"Wittmund","type":"Landkreis"},"federalState":{"key":"03","name":"Niedersachsen"}},{"name":"Isums","postalCode":"26409","locality":"Wittmund","municipality":{"key":"03462019","name":"Wittmund, Stadt","type":"Stadt"},"district":{"key":"03462","name":"Wittmund","type":"Landkreis"},"federalState":{"key":"03","name":"Niedersachsen"}},{"name":"Isumser Str.","postalCode":"26409","locality":"Wittmund","municipality":{"key":"03462019","name":"Wittmund, Stadt","type":"Stadt"},"district":{"key":"03462","name":"Wittmund","type":"Landkreis"},"federalState":{"key":"03","name":"Niedersachsen"}},{"name":"Jackstede","postalCode":"26409","locality":"Wittmund","municipality":{"key":"03462019","name":"Wittmund, Stadt","type":"Stadt"},"district":{"key":"03462","name":"Wittmund","type":"Landkreis"},"federalState":{"key":"03","name":"Niedersachsen"}},{"name":"Jacksteder Weg","postalCode":"26409","locality":"Wittmund","municipality":{"key":"03462019","name":"Wittmund, Stadt","type":"Stadt"},"district":{"key":"03462","name":"Wittmund","type":"Landkreis"},"federalState":{"key":"03","name":"Niedersachsen"}},{"name":"Jadestr.","postalCode":"26409","locality":"Wittmund","municipality":{"key":"03462019","name":"Wittmund, Stadt","type":"Stadt"},"district":{"key":"03462","name":"Wittmund","type":"Landkreis"},"federalState":{"key":"03","name":"Niedersachsen"}},{"name":"Jahnstr.","postalCode":"26409","locality":"Wittmund","municipality":{"key":"03462019","name":"Wittmund, Stadt","type":"Stadt"},"district":{"key":"03462","name":"Wittmund","type":"Landkreis"},"federalState":{"key":"03","name":"Niedersachsen"}},{"name":"Jann-Berghaus-Str.","postalCode":"26409","locality":"Wittmund","municipality":{"key":"03462019","name":"Wittmund, Stadt","type":"Stadt"},"district":{"key":"03462","name":"Wittmund","type":"Landkreis"},"federalState":{"key":"03","name":"Niedersachsen"}},{"name":"Jeverstr.","postalCode":"26409","locality":"Wittmund","municipality":{"key":"03462019","name":"Wittmund, Stadt","type":"Stadt"},"district":{"key":"03462","name":"Wittmund","type":"Landkreis"},"federalState":{"key":"03","name":"Niedersachsen"}},{"name":"Juiststr.","postalCode":"26409","locality":"Wittmund","municipality":{"key":"03462019","name":"Wittmund, Stadt","type":"Stadt"},"district":{"key":"03462","name":"Wittmund","type":"Landkreis"},"federalState":{"key":"03","name":"Niedersachsen"}},{"name":"Kolonatenweg","postalCode":"26556","locality":"Eversmeer","municipality":{"key":"03462004","name":"Eversmeer","type":"Kreisangehörige_Gemeinde"},"district":{"key":"03462","name":"Wittmund","type":"Landkreis"},"federalState":{"key":"03","name":"Niedersachsen"}},{"name":"Königsweg","postalCode":"26556","locality":"Eversmeer","municipality":{"key":"03462004","name":"Eversmeer","type":"Kreisangehörige_Gemeinde"},"district":{"key":"03462","name":"Wittmund","type":"Landkreis"},"federalState":{"key":"03","name":"Niedersachsen"}},{"name":"Linienstr.","postalCode":"26556","locality":"Eversmeer","municipality":{"key":"03462004","name":"Eversmeer","type":"Kreisangehörige_Gemeinde"},"district":{"key":"03462","name":"Wittmund","type":"Landkreis"},"federalState":{"key":"03","name":"Niedersachsen"}},{"name":"Mansfelder Weg","postalCode":"26556","locality":"Eversmeer","municipality":{"key":"03462004","name":"Eversmeer","type":"Kreisangehörige_Gemeinde"},"district":{"key":"03462","name":"Wittmund","type":"Landkreis"},"federalState":{"key":"03","name":"Niedersachsen"}},{"name":"Muttmoorweg","postalCode":"26556","locality":"Eversmeer","municipality":{"key":"03462004","name":"Eversmeer","type":"Kreisangehörige_Gemeinde"},"district":{"key":"03462","name":"Wittmund","type":"Landkreis"},"federalState":{"key":"03","name":"Niedersachsen"}},{"name":"Nenndorfer Str.","postalCode":"26556","locality":"Eversmeer","municipality":{"key":"03462004","name":"Eversmeer","type":"Kreisangehörige_Gemeinde"},"district":{"key":"03462","name":"Wittmund","type":"Landkreis"},"federalState":{"key":"03","name":"Niedersachsen"}},{"name":"Nordstr.","postalCode":"26556","locality":"Eversmeer","municipality":{"key":"03462004","name":"Eversmeer","type":"Kreisangehörige_Gemeinde"},"district":{"key":"03462","name":"Wittmund","type":"Landkreis"},"federalState":{"key":"03","name":"Niedersachsen"}},{"name":"Oldehusen","postalCode":"26409","locality":"Wittmund","municipality":{"key":"03462019","name":"Wittmund, Stadt","type":"Stadt"},"district":{"key":"03462","name":"Wittmund","type":"Landkreis"},"federalState":{"key":"03","name":"Niedersachsen"}},{"name":"Oldendorf","postalCode":"26409","locality":"Wittmund","municipality":{"key":"03462019","name":"Wittmund, Stadt","type":"Stadt"},"district":{"key":"03462","name":"Wittmund","type":"Landkreis"},"federalState":{"key":"03","name":"Niedersachsen"}},{"name":"Oldeoogstr.","postalCode":"26409","locality":"Wittmund","municipality":{"key":"03462019","name":"Wittmund, Stadt","type":"Stadt"},"district":{"key":"03462","name":"Wittmund","type":"Landkreis"},"federalState":{"key":"03","name":"Niedersachsen"}},{"name":"Osterhammsweg","postalCode":"26409","locality":"Wittmund","municipality":{"key":"03462019","name":"Wittmund, Stadt","type":"Stadt"},"district":{"key":"03462","name":"Wittmund","type":"Landkreis"},"federalState":{"key":"03","name":"Niedersachsen"}},{"name":"Osterhusen","postalCode":"26409","locality":"Wittmund","municipality":{"key":"03462019","name":"Wittmund, Stadt","type":"Stadt"},"district":{"key":"03462","name":"Wittmund","type":"Landkreis"},"federalState":{"key":"03","name":"Niedersachsen"}},{"name":"Osterpiep","postalCode":"26409","locality":"Wittmund","municipality":{"key":"03462019","name":"Wittmund, Stadt","type":"Stadt"},"district":{"key":"03462","name":"Wittmund","type":"Landkreis"},"federalState":{"key":"03","name":"Niedersachsen"}},{"name":"Osterstr.","postalCode":"26409","locality":"Wittmund","municipality":{"key":"03462019","name":"Wittmund, Stadt","type":"Stadt"},"district":{"key":"03462","name":"Wittmund","type":"Landkreis"},"federalState":{"key":"03","name":"Niedersachsen"}},{"name":"Ostiemer Weg","postalCode":"26409","locality":"Wittmund","municipality":{"key":"03462019","name":"Wittmund, Stadt","type":"Stadt"},"district":{"key":"03462","name":"Wittmund","type":"Landkreis"},"federalState":{"key":"03","name":"Niedersachsen"}},{"name":"Ostlandstr.","postalCode":"26409","locality":"Wittmund","municipality":{"key":"03462019","name":"Wittmund, Stadt","type":"Stadt"},"district":{"key":"03462","name":"Wittmund","type":"Landkreis"},"federalState":{"key":"03","name":"Niedersachsen"}},{"name":"Ostring","postalCode":"26409","locality":"Wittmund","municipality":{"key":"03462019","name":"Wittmund, Stadt","type":"Stadt"},"district":{"key":"03462","name":"Wittmund","type":"Landkreis"},"federalState":{"key":"03","name":"Niedersachsen"}},{"name":"Ovelgönne","postalCode":"26409","locality":"Wittmund","municipality":{"key":"03462019","name":"Wittmund, Stadt","type":"Stadt"},"district":{"key":"03462","name":"Wittmund","type":"Landkreis"},"federalState":{"key":"03","name":"Niedersachsen"}},{"name":"Parkplatzstr.","postalCode":"26556","locality":"Eversmeer","municipality":{"key":"03462004","name":"Eversmeer","type":"Kreisangehörige_Gemeinde"},"district":{"key":"03462","name":"Wittmund","type":"Landkreis"},"federalState":{"key":"03","name":"Niedersachsen"}},{"name":"Raiffeisenstr.","postalCode":"26409","locality":"Wittmund","municipality":{"key":"03462019","name":"Wittmund, Stadt","type":"Stadt"},"district":{"key":"03462","name":"Wittmund","type":"Landkreis"},"federalState":{"key":"03","name":"Niedersachsen"}},{"name":"Reent-Eilts-Weg","postalCode":"26409","locality":"Wittmund","municipality":{"key":"03462019","name":"Wittmund, Stadt","type":"Stadt"},"district":{"key":"03462","name":"Wittmund","type":"Landkreis"},"federalState":{"key":"03","name":"Niedersachsen"}},{"name":"Rehau-Str.","postalCode":"26409","locality":"Wittmund","municipality":{"key":"03462019","name":"Wittmund, Stadt","type":"Stadt"},"district":{"key":"03462","name":"Wittmund","type":"Landkreis"},"federalState":{"key":"03","name":"Niedersachsen"}},{"name":"Richthofenstr.","postalCode":"26409","locality":"Wittmund","municipality":{"key":"03462019","name":"Wittmund, Stadt","type":"Stadt"},"district":{"key":"03462","name":"Wittmund","type":"Landkreis"},"federalState":{"key":"03","name":"Niedersachsen"}},{"name":"Ringstr.","postalCode":"26409","locality":"Wittmund","municipality":{"key":"03462019","name":"Wittmund, Stadt","type":"Stadt"},"district":{"key":"03462","name":"Wittmund","type":"Landkreis"},"federalState":{"key":"03","name":"Niedersachsen"}},{"name":"Rispel","postalCode":"26409","locality":"Wittmund","municipality":{"key":"03462019","name":"Wittmund, Stadt","type":"Stadt"},"district":{"key":"03462","name":"Wittmund","type":"Landkreis"},"federalState":{"key":"03","name":"Niedersachsen"}},{"name":"Rispelerhelmt","postalCode":"26409","locality":"Wittmund","municipality":{"key":"03462019","name":"Wittmund, Stadt","type":"Stadt"},"district":{"key":"03462","name":"Wittmund","type":"Landkreis"},"federalState":{"key":"03","name":"Niedersachsen"}},{"name":"Robert-Koch-Str.","postalCode":"26409","locality":"Wittmund","municipality":{"key":"03462019","name":"Wittmund, Stadt","type":"Stadt"},"district":{"key":"03462","name":"Wittmund","type":"Landkreis"},"federalState":{"key":"03","name":"Niedersachsen"}},{"name":"Rosengarten","postalCode":"26409","locality":"Wittmund","municipality":{"key":"03462019","name":"Wittmund, Stadt","type":"Stadt"},"district":{"key":"03462","name":"Wittmund","type":"Landkreis"},"federalState":{"key":"03","name":"Niedersachsen"}},{"name":"Rosenmoorweg","postalCode":"26409","locality":"Wittmund","municipality":{"key":"03462019","name":"Wittmund, Stadt","type":"Stadt"},"district":{"key":"03462","name":"Wittmund","type":"Landkreis"},"federalState":{"key":"03","name":"Niedersachsen"}},{"name":"Rosenweg","postalCode":"26409","locality":"Wittmund","municipality":{"key":"03462019","name":"Wittmund, Stadt","type":"Stadt"},"district":{"key":"03462","name":"Wittmund","type":"Landkreis"},"federalState":{"key":"03","name":"Niedersachsen"}},{"name":"Rund Deel","postalCode":"26409","locality":"Wittmund","municipality":{"key":"03462019","name":"Wittmund, Stadt","type":"Stadt"},"district":{"key":"03462","name":"Wittmund","type":"Landkreis"},"federalState":{"key":"03","name":"Niedersachsen"}},{"name":"Rund Tun","postalCode":"26409","locality":"Wittmund","municipality":{"key":"03462019","name":"Wittmund, Stadt","type":"Stadt"},"district":{"key":"03462","name":"Wittmund","type":"Landkreis"},"federalState":{"key":"03","name":"Niedersachsen"}},{"name":"Schulstr.","postalCode":"26556","locality":"Eversmeer","municipality":{"key":"03462004","name":"Eversmeer","type":"Kreisangehörige_Gemeinde"},"district":{"key":"03462","name":"Wittmund","type":"Landkreis"},"federalState":{"key":"03","name":"Niedersachsen"}},{"name":"Schwarzer Berg","postalCode":"26556","locality":"Eversmeer","municipality":{"key":"03462004","name":"Eversmeer","type":"Kreisangehörige_Gemeinde"},"district":{"key":"03462","name":"Wittmund","type":"Landkreis"},"federalState":{"key":"03","name":"Niedersachsen"}},{"name":"Siedlerstr.","postalCode":"26556","locality":"Eversmeer","municipality":{"key":"03462004","name":"Eversmeer","type":"Kreisangehörige_Gemeinde"},"district":{"key":"03462","name":"Wittmund","type":"Landkreis"},"federalState":{"key":"03","name":"Niedersachsen"}},{"name":"Tannenwinkel","postalCode":"26409","locality":"Wittmund","municipality":{"key":"03462019","name":"Wittmund, Stadt","type":"Stadt"},"district":{"key":"03462","name":"Wittmund","type":"Landkreis"},"federalState":{"key":"03","name":"Niedersachsen"}},{"name":"Teichweg","postalCode":"26409","locality":"Wittmund","municipality":{"key":"03462019","name":"Wittmund, Stadt","type":"Stadt"},"district":{"key":"03462","name":"Wittmund","type":"Landkreis"},"federalState":{"key":"03","name":"Niedersachsen"}},{"name":"Tempelstr.","postalCode":"26409","locality":"Wittmund","municipality":{"key":"03462019","name":"Wittmund, Stadt","type":"Stadt"},"district":{"key":"03462","name":"Wittmund","type":"Landkreis"},"federalState":{"key":"03","name":"Niedersachsen"}},{"name":"Thalasso Plattform","postalCode":"26409","locality":"Wittmund","municipality":{"key":"03462019","name":"Wittmund, Stadt","type":"Stadt"},"district":{"key":"03462","name":"Wittmund","type":"Landkreis"},"federalState":{"key":"03","name":"Niedersachsen"}},{"name":"Tiedbörg","postalCode":"26409","locality":"Wittmund","municipality":{"key":"03462019","name":"Wittmund, Stadt","type":"Stadt"},"district":{"key":"03462","name":"Wittmund","type":"Landkreis"},"federalState":{"key":"03","name":"Niedersachsen"}},{"name":"Tillerweg","postalCode":"26409","locality":"Wittmund","municipality":{"key":"03462019","name":"Wittmund, Stadt","type":"Stadt"},"district":{"key":"03462","name":"Wittmund","type":"Landkreis"},"federalState":{"key":"03","name":"Niedersachsen"}},{"name":"Tiller Weg","postalCode":"26409","locality":"Wittmund","municipality":{"key":"03462019","name":"Wittmund, Stadt","type":"Stadt"},"district":{"key":"03462","name":"Wittmund","type":"Landkreis"},"federalState":{"key":"03","name":"Niedersachsen"}},{"name":"Tilsiter Str.","postalCode":"26409","locality":"Wittmund","municipality":{"key":"03462019","name":"Wittmund, Stadt","type":"Stadt"},"district":{"key":"03462","name":"Wittmund","type":"Landkreis"},"federalState":{"key":"03","name":"Niedersachsen"}},{"name":"Tjarksweg","postalCode":"26409","locality":"Wittmund","municipality":{"key":"03462019","name":"Wittmund, Stadt","type":"Stadt"},"district":{"key":"03462","name":"Wittmund","type":"Landkreis"},"federalState":{"key":"03","name":"Niedersachsen"}},{"name":"Tjüchen","postalCode":"26409","locality":"Wittmund","municipality":{"key":"03462019","name":"Wittmund, Stadt","type":"Stadt"},"district":{"key":"03462","name":"Wittmund","type":"Landkreis"},"federalState":{"key":"03","name":"Niedersachsen"}},{"name":"Toquard","postalCode":"26409","locality":"Wittmund","municipality":{"key":"03462019","name":"Wittmund, Stadt","type":"Stadt"},"district":{"key":"03462","name":"Wittmund","type":"Landkreis"},"federalState":{"key":"03","name":"Niedersachsen"}},{"name":"Transformatorweg","postalCode":"26409","locality":"Wittmund","municipality":{"key":"03462019","name":"Wittmund, Stadt","type":"Stadt"},"district":{"key":"03462","name":"Wittmund","type":"Landkreis"},"federalState":{"key":"03","name":"Niedersachsen"}},{"name":"Tüschen Thün","postalCode":"26409","locality":"Wittmund","municipality":{"key":"03462019","name":"Wittmund, Stadt","type":"Stadt"},"district":{"key":"03462","name":"Wittmund","type":"Landkreis"},"federalState":{"key":"03","name":"Niedersachsen"}},{"name":"Uferstr.","postalCode":"26409","locality":"Wittmund","municipality":{"key":"03462019","name":"Wittmund, Stadt","type":"Stadt"},"district":{"key":"03462","name":"Wittmund","type":"Landkreis"},"federalState":{"key":"03","name":"Niedersachsen"}},{"name":"Uhlandstr.","postalCode":"26409","locality":"Wittmund","municipality":{"key":"03462019","name":"Wittmund, Stadt","type":"Stadt"},"district":{"key":"03462","name":"Wittmund","type":"Landkreis"},"federalState":{"key":"03","name":"Niedersachsen"}},{"name":"Ulmenstr.","postalCode":"26409","locality":"Wittmund","municipality":{"key":"03462019","name":"Wittmund, Stadt","type":"Stadt"},"district":{"key":"03462","name":"Wittmund","type":"Landkreis"},"federalState":{"key":"03","name":"Niedersachsen"}},{"name":"Ulrich-Cirksena-Str.","postalCode":"26409","locality":"Wittmund","municipality":{"key":"03462019","name":"Wittmund, Stadt","type":"Stadt"},"district":{"key":"03462","name":"Wittmund","type":"Landkreis"},"federalState":{"key":"03","name":"Niedersachsen"}},{"name":"Uncel Harm seen Pad","postalCode":"26409","locality":"Wittmund","municipality":{"key":"03462019","name":"Wittmund, Stadt","type":"Stadt"},"district":{"key":"03462","name":"Wittmund","type":"Landkreis"},"federalState":{"key":"03","name":"Niedersachsen"}},{"name":"Up de Gast","postalCode":"26409","locality":"Wittmund","municipality":{"key":"03462019","name":"Wittmund, Stadt","type":"Stadt"},"district":{"key":"03462","name":"Wittmund","type":"Landkreis"},"federalState":{"key":"03","name":"Niedersachsen"}},{"name":"Up de Ring","postalCode":"26409","locality":"Wittmund","municipality":{"key":"03462019","name":"Wittmund, Stadt","type":"Stadt"},"district":{"key":"03462","name":"Wittmund","type":"Landkreis"},"federalState":{"key":"03","name":"Niedersachsen"}},{"name":"Updorfer Str.","postalCode":"26409","locality":"Wittmund","municipality":{"key":"03462019","name":"Wittmund, Stadt","type":"Stadt"},"district":{"key":"03462","name":"Wittmund","type":"Landkreis"},"federalState":{"key":"03","name":"Niedersachsen"}},{"name":"Up Höcht","postalCode":"26409","locality":"Wittmund","municipality":{"key":"03462019","name":"Wittmund, Stadt","type":"Stadt"},"district":{"key":"03462","name":"Wittmund","type":"Landkreis"},"federalState":{"key":"03","name":"Niedersachsen"}},{"name":"Up'n Diek","postalCode":"26409","locality":"Wittmund","municipality":{"key":"03462019","name":"Wittmund, Stadt","type":"Stadt"},"district":{"key":"03462","name":"Wittmund","type":"Landkreis"},"federalState":{"key":"03","name":"Niedersachsen"}},{"name":"Upsteder Str.","postalCode":"26409","locality":"Wittmund","municipality":{"key":"03462019","name":"Wittmund, Stadt","type":"Stadt"},"district":{"key":"03462","name":"Wittmund","type":"Landkreis"},"federalState":{"key":"03","name":"Niedersachsen"}},{"name":"Utarper Weg","postalCode":"26409","locality":"Wittmund","municipality":{"key":"03462019","name":"Wittmund, Stadt","type":"Stadt"},"district":{"key":"03462","name":"Wittmund","type":"Landkreis"},"federalState":{"key":"03","name":"Niedersachsen"}},{"name":"Uthörner Str.","postalCode":"26409","locality":"Wittmund","municipality":{"key":"03462019","name":"Wittmund, Stadt","type":"Stadt"},"district":{"key":"03462","name":"Wittmund","type":"Landkreis"},"federalState":{"key":"03","name":"Niedersachsen"}},{"name":"Veilchenweg","postalCode":"26409","locality":"Wittmund","municipality":{"key":"03462019","name":"Wittmund, Stadt","type":"Stadt"},"district":{"key":"03462","name":"Wittmund","type":"Landkreis"},"federalState":{"key":"03","name":"Niedersachsen"}},{"name":"Virchowstr.","postalCode":"26409","locality":"Wittmund","municipality":{"key":"03462019","name":"Wittmund, Stadt","type":"Stadt"},"district":{"key":"03462","name":"Wittmund","type":"Landkreis"},"federalState":{"key":"03","name":"Niedersachsen"}},{"name":"Visbeckstr.","postalCode":"26409","locality":"Wittmund","municipality":{"key":"03462019","name":"Wittmund, Stadt","type":"Stadt"},"district":{"key":"03462","name":"Wittmund","type":"Landkreis"},"federalState":{"key":"03","name":"Niedersachsen"}},{"name":"Von-Röntgen-Str.","postalCode":"26409","locality":"Wittmund","municipality":{"key":"03462019","name":"Wittmund, Stadt","type":"Stadt"},"district":{"key":"03462","name":"Wittmund","type":"Landkreis"},"federalState":{"key":"03","name":"Niedersachsen"}},{"name":"Waldweg","postalCode":"26556","locality":"Eversmeer","municipality":{"key":"03462004","name":"Eversmeer","type":"Kreisangehörige_Gemeinde"},"district":{"key":"03462","name":"Wittmund","type":"Landkreis"},"federalState":{"key":"03","name":"Niedersachsen"}},{"name":"Westerstr.","postalCode":"26556","locality":"Eversmeer","municipality":{"key":"03462004","name":"Eversmeer","type":"Kreisangehörige_Gemeinde"},"district":{"key":"03462","name":"Wittmund","type":"Landkreis"},"federalState":{"key":"03","name":"Niedersachsen"}},{"name":"Winterpad","postalCode":"26556","locality":"Eversmeer","municipality":{"key":"03462004","name":"Eversmeer","type":"Kreisangehörige_Gemeinde"},"district":{"key":"03462","name":"Wittmund","type":"Landkreis"},"federalState":{"key":"03","name":"Niedersachsen"}},{"name":"Zum Ewigen Meer","postalCode":"26556","locality":"Eversmeer","municipality":{"key":"03462004","name":"Eversmeer","type":"Kreisangehörige_Gemeinde"},"district":{"key":"03462","name":"Wittmund","type":"Landkreis"},"federalState":{"key":"03","name":"Niedersachsen"}},{"name":"Zur Linienstr.","postalCode":"26556","locality":"Eversmeer","municipality":{"key":"03462004","name":"Eversmeer","type":"Kreisangehörige_Gemeinde"},"district":{"key":"03462","name":"Wittmund","type":"Landkreis"},"federalState":{"key":"03","name":"Niedersachsen"}},{"name":"Ülkegatt","postalCode":"26409","locality":"Wittmund","municipality":{"key":"03462019","name":"Wittmund, Stadt","type":"Stadt"},"district":{"key":"03462","name":"Wittmund","type":"Landkreis"},"federalState":{"key":"03","name":"Niedersachsen"}},]