[{"key":"10098577","name":"Au Village","postalCode":"1277","locality":"Borex","commune":{"key":"5706","name":"Borex","shortName":"Borex"},"district":{"key":"2228","name":"District de Nyon"},"canton":{"key":"22","code":"VD","name":"Vaud"},"status":"Real"},{"key":"10080221","name":"Chemin de Chantemerle","postalCode":"1277","locality":"Borex","commune":{"key":"5706","name":"Borex","shortName":"Borex"},"district":{"key":"2228","name":"District de Nyon"},"canton":{"key":"22","code":"VD","name":"Vaud"},"status":"Real"},{"key":"10098578","name":"Chemin de Jaillet","postalCode":"1277","locality":"Borex","commune":{"key":"5706","name":"Borex","shortName":"Borex"},"district":{"key":"2228","name":"District de Nyon"},"canton":{"key":"22","code":"VD","name":"Vaud"},"status":"Real"},{"key":"10040769","name":"Chemin de la Bavand","postalCode":"1277","locality":"Borex","commune":{"key":"5706","name":"Borex","shortName":"Borex"},"district":{"key":"2228","name":"District de Nyon"},"canton":{"key":"22","code":"VD","name":"Vaud"},"status":"Real"},{"key":"10098579","name":"Chemin de la Carrière","postalCode":"1277","locality":"Borex","commune":{"key":"5706","name":"Borex","shortName":"Borex"},"district":{"key":"2228","name":"District de Nyon"},"canton":{"key":"22","code":"VD","name":"Vaud"},"status":"Real"},{"key":"10211570","name":"Chemin de l'Aqueduc","postalCode":"1277","locality":"Borex","commune":{"key":"5706","name":"Borex","shortName":"Borex"},"district":{"key":"2228","name":"District de Nyon"},"canton":{"key":"22","code":"VD","name":"Vaud"},"status":"Real"},{"key":"10040768","name":"Chemin de l'Oche","postalCode":"1277","locality":"Borex","commune":{"key":"5706","name":"Borex","shortName":"Borex"},"district":{"key":"2228","name":"District de Nyon"},"canton":{"key":"22","code":"VD","name":"Vaud"},"status":"Real"},{"key":"10211571","name":"Chemin de Pétaney","postalCode":"1277","locality":"Borex","commune":{"key":"5706","name":"Borex","shortName":"Borex"},"district":{"key":"2228","name":"District de Nyon"},"canton":{"key":"22","code":"VD","name":"Vaud"},"status":"Real"},{"key":"10101480","name":"Chemin des Chaumets","postalCode":"1277","locality":"Borex","commune":{"key":"5706","name":"Borex","shortName":"Borex"},"district":{"key":"2228","name":"District de Nyon"},"canton":{"key":"22","code":"VD","name":"Vaud"},"status":"Real"},{"key":"10080222","name":"Chemin des Combes","postalCode":"1277","locality":"Borex","commune":{"key":"5706","name":"Borex","shortName":"Borex"},"district":{"key":"2228","name":"District de Nyon"},"canton":{"key":"22","code":"VD","name":"Vaud"},"status":"Real"},{"key":"10040770","name":"Chemin des Grillons","postalCode":"1277","locality":"Borex","commune":{"key":"5706","name":"Borex","shortName":"Borex"},"district":{"key":"2228","name":"District de Nyon"},"canton":{"key":"22","code":"VD","name":"Vaud"},"status":"Real"},{"key":"10211569","name":"Chemin des Quatre-Vents","postalCode":"1277","locality":"Borex","commune":{"key":"5706","name":"Borex","shortName":"Borex"},"district":{"key":"2228","name":"District de Nyon"},"canton":{"key":"22","code":"VD","name":"Vaud"},"status":"Real"},{"key":"10098580","name":"Chemin des Tourniaux","postalCode":"1277","locality":"Borex","commune":{"key":"5706","name":"Borex","shortName":"Borex"},"district":{"key":"2228","name":"District de Nyon"},"canton":{"key":"22","code":"VD","name":"Vaud"},"status":"Real"},{"key":"10040771","name":"Chemin du Chanellet","postalCode":"1277","locality":"Borex","commune":{"key":"5706","name":"Borex","shortName":"Borex"},"district":{"key":"2228","name":"District de Nyon"},"canton":{"key":"22","code":"VD","name":"Vaud"},"status":"Real"},{"key":"10156988","name":"Chemin du Pré-de-l'Oche","postalCode":"1277","locality":"Borex","commune":{"key":"5706","name":"Borex","shortName":"Borex"},"district":{"key":"2228","name":"District de Nyon"},"canton":{"key":"22","code":"VD","name":"Vaud"},"status":"Real"},{"key":"10184153","name":"Chemin du Saugeau","postalCode":"1277","locality":"Borex","commune":{"key":"5706","name":"Borex","shortName":"Borex"},"district":{"key":"2228","name":"District de Nyon"},"canton":{"key":"22","code":"VD","name":"Vaud"},"status":"Real"},{"key":"10040767","name":"Chemin sur la Gare","postalCode":"1277","locality":"Borex","commune":{"key":"5706","name":"Borex","shortName":"Borex"},"district":{"key":"2228","name":"District de Nyon"},"canton":{"key":"22","code":"VD","name":"Vaud"},"status":"Real"},{"key":"10156990","name":"En Bursinel","postalCode":"1277","locality":"Borex","commune":{"key":"5706","name":"Borex","shortName":"Borex"},"district":{"key":"2228","name":"District de Nyon"},"canton":{"key":"22","code":"VD","name":"Vaud"},"status":"Real"},{"key":"10211568","name":"Place des Pêche-Lune","postalCode":"1277","locality":"Borex","commune":{"key":"5706","name":"Borex","shortName":"Borex"},"district":{"key":"2228","name":"District de Nyon"},"canton":{"key":"22","code":"VD","name":"Vaud"},"status":"Real"},{"key":"10184610","name":"Route d'Arnex","postalCode":"1277","locality":"Borex","commune":{"key":"5706","name":"Borex","shortName":"Borex"},"district":{"key":"2228","name":"District de Nyon"},"canton":{"key":"22","code":"VD","name":"Vaud"},"status":"Real"},{"key":"10080223","name":"Route de Crassier","postalCode":"1277","locality":"Borex","commune":{"key":"5706","name":"Borex","shortName":"Borex"},"district":{"key":"2228","name":"District de Nyon"},"canton":{"key":"22","code":"VD","name":"Vaud"},"status":"Real"},{"key":"10040772","name":"Route de Grens","postalCode":"1277","locality":"Borex","commune":{"key":"5706","name":"Borex","shortName":"Borex"},"district":{"key":"2228","name":"District de Nyon"},"canton":{"key":"22","code":"VD","name":"Vaud"},"status":"Real"},{"key":"10040773","name":"Route de Nyon","postalCode":"1277","locality":"Borex","commune":{"key":"5706","name":"Borex","shortName":"Borex"},"district":{"key":"2228","name":"District de Nyon"},"canton":{"key":"22","code":"VD","name":"Vaud"},"status":"Real"},{"key":"10107653","name":"Route de Signy","postalCode":"1277","locality":"Borex","commune":{"key":"5706","name":"Borex","shortName":"Borex"},"district":{"key":"2228","name":"District de Nyon"},"canton":{"key":"22","code":"VD","name":"Vaud"},"status":"Real"},{"key":"10098581","name":"Route de Tranchepied","postalCode":"1277","locality":"Borex","commune":{"key":"5706","name":"Borex","shortName":"Borex"},"district":{"key":"2228","name":"District de Nyon"},"canton":{"key":"22","code":"VD","name":"Vaud"},"status":"Real"},]