[{"name":"Ahornring","postalCode":"25355","locality":"Barmstedt","municipality":{"key":"01056002","name":"Barmstedt, Stadt","type":"Stadt"},"district":{"key":"01056","name":"Pinneberg","type":"Kreis"},"federalState":{"key":"01","name":"Schleswig-Holstein"}},{"name":"Alma-Rogge-Weg","postalCode":"27412","locality":"Tarmstedt","municipality":{"key":"03357047","name":"Tarmstedt","type":"Kreisangehörige_Gemeinde"},"district":{"key":"03357","name":"Rotenburg (Wümme)","type":"Landkreis"},"federalState":{"key":"03","name":"Niedersachsen"}},{"name":"Alte Dorfstr.","postalCode":"29690","locality":"Schwarmstedt","municipality":{"key":"03358020","name":"Schwarmstedt","type":"Kreisangehörige_Gemeinde"},"district":{"key":"03358","name":"Heidekreis","type":"Landkreis"},"federalState":{"key":"03","name":"Niedersachsen"}},{"name":"Alter Heuweg","postalCode":"29690","locality":"Schwarmstedt","municipality":{"key":"03358020","name":"Schwarmstedt","type":"Kreisangehörige_Gemeinde"},"district":{"key":"03358","name":"Heidekreis","type":"Landkreis"},"federalState":{"key":"03","name":"Niedersachsen"}},{"name":"Alter Postweg","postalCode":"29690","locality":"Schwarmstedt","municipality":{"key":"03358020","name":"Schwarmstedt","type":"Kreisangehörige_Gemeinde"},"district":{"key":"03358","name":"Heidekreis","type":"Landkreis"},"federalState":{"key":"03","name":"Niedersachsen"}},{"name":"Alter Sägereiplatz","postalCode":"27412","locality":"Tarmstedt","municipality":{"key":"03357047","name":"Tarmstedt","type":"Kreisangehörige_Gemeinde"},"district":{"key":"03357","name":"Rotenburg (Wümme)","type":"Landkreis"},"federalState":{"key":"03","name":"Niedersachsen"}},{"name":"Alte Siedlung","postalCode":"27412","locality":"Tarmstedt","municipality":{"key":"03357047","name":"Tarmstedt","type":"Kreisangehörige_Gemeinde"},"district":{"key":"03357","name":"Rotenburg (Wümme)","type":"Landkreis"},"federalState":{"key":"03","name":"Niedersachsen"}},{"name":"Amalie-Schoppe-Weg","postalCode":"25355","locality":"Barmstedt","municipality":{"key":"01056002","name":"Barmstedt, Stadt","type":"Stadt"},"district":{"key":"01056","name":"Pinneberg","type":"Kreis"},"federalState":{"key":"01","name":"Schleswig-Holstein"}},{"name":"Am Apfelgarten","postalCode":"29690","locality":"Schwarmstedt","municipality":{"key":"03358020","name":"Schwarmstedt","type":"Kreisangehörige_Gemeinde"},"district":{"key":"03358","name":"Heidekreis","type":"Landkreis"},"federalState":{"key":"03","name":"Niedersachsen"}},{"name":"Am Berg","postalCode":"27412","locality":"Tarmstedt","municipality":{"key":"03357047","name":"Tarmstedt","type":"Kreisangehörige_Gemeinde"},"district":{"key":"03357","name":"Rotenburg (Wümme)","type":"Landkreis"},"federalState":{"key":"03","name":"Niedersachsen"}},{"name":"Am Berge","postalCode":"29690","locality":"Schwarmstedt","municipality":{"key":"03358020","name":"Schwarmstedt","type":"Kreisangehörige_Gemeinde"},"district":{"key":"03358","name":"Heidekreis","type":"Landkreis"},"federalState":{"key":"03","name":"Niedersachsen"}},{"name":"Am Beu","postalCode":"29690","locality":"Schwarmstedt","municipality":{"key":"03358020","name":"Schwarmstedt","type":"Kreisangehörige_Gemeinde"},"district":{"key":"03358","name":"Heidekreis","type":"Landkreis"},"federalState":{"key":"03","name":"Niedersachsen"}},{"name":"Am Bornberg","postalCode":"29690","locality":"Schwarmstedt","municipality":{"key":"03358020","name":"Schwarmstedt","type":"Kreisangehörige_Gemeinde"},"district":{"key":"03358","name":"Heidekreis","type":"Landkreis"},"federalState":{"key":"03","name":"Niedersachsen"}},{"name":"Am Deutschen Roten Kreuz","postalCode":"29690","locality":"Schwarmstedt","municipality":{"key":"03358020","name":"Schwarmstedt","type":"Kreisangehörige_Gemeinde"},"district":{"key":"03358","name":"Heidekreis","type":"Landkreis"},"federalState":{"key":"03","name":"Niedersachsen"}},{"name":"Am Forst","postalCode":"25355","locality":"Barmstedt","municipality":{"key":"01056002","name":"Barmstedt, Stadt","type":"Stadt"},"district":{"key":"01056","name":"Pinneberg","type":"Kreis"},"federalState":{"key":"01","name":"Schleswig-Holstein"}},{"name":"Am Friedhof","postalCode":"25355","locality":"Barmstedt","municipality":{"key":"01056002","name":"Barmstedt, Stadt","type":"Stadt"},"district":{"key":"01056","name":"Pinneberg","type":"Kreis"},"federalState":{"key":"01","name":"Schleswig-Holstein"}},{"name":"Am Hasenberg","postalCode":"29690","locality":"Schwarmstedt","municipality":{"key":"03358020","name":"Schwarmstedt","type":"Kreisangehörige_Gemeinde"},"district":{"key":"03358","name":"Heidekreis","type":"Landkreis"},"federalState":{"key":"03","name":"Niedersachsen"}},{"name":"Am Hohen Ufer","postalCode":"29690","locality":"Schwarmstedt","municipality":{"key":"03358020","name":"Schwarmstedt","type":"Kreisangehörige_Gemeinde"},"district":{"key":"03358","name":"Heidekreis","type":"Landkreis"},"federalState":{"key":"03","name":"Niedersachsen"}},{"name":"Am Hoper Bahnhof","postalCode":"29690","locality":"Schwarmstedt","municipality":{"key":"03358020","name":"Schwarmstedt","type":"Kreisangehörige_Gemeinde"},"district":{"key":"03358","name":"Heidekreis","type":"Landkreis"},"federalState":{"key":"03","name":"Niedersachsen"}},{"name":"Am Leinefeld","postalCode":"29690","locality":"Schwarmstedt","municipality":{"key":"03358020","name":"Schwarmstedt","type":"Kreisangehörige_Gemeinde"},"district":{"key":"03358","name":"Heidekreis","type":"Landkreis"},"federalState":{"key":"03","name":"Niedersachsen"}},{"name":"Am Loh","postalCode":"29690","locality":"Schwarmstedt","municipality":{"key":"03358020","name":"Schwarmstedt","type":"Kreisangehörige_Gemeinde"},"district":{"key":"03358","name":"Heidekreis","type":"Landkreis"},"federalState":{"key":"03","name":"Niedersachsen"}},{"name":"Am Markt","postalCode":"25355","locality":"Barmstedt","municipality":{"key":"01056002","name":"Barmstedt, Stadt","type":"Stadt"},"district":{"key":"01056","name":"Pinneberg","type":"Kreis"},"federalState":{"key":"01","name":"Schleswig-Holstein"}},{"name":"Am Markt","postalCode":"29690","locality":"Schwarmstedt","municipality":{"key":"03358020","name":"Schwarmstedt","type":"Kreisangehörige_Gemeinde"},"district":{"key":"03358","name":"Heidekreis","type":"Landkreis"},"federalState":{"key":"03","name":"Niedersachsen"}},{"name":"Am Neuen Lande","postalCode":"29690","locality":"Schwarmstedt","municipality":{"key":"03358020","name":"Schwarmstedt","type":"Kreisangehörige_Gemeinde"},"district":{"key":"03358","name":"Heidekreis","type":"Landkreis"},"federalState":{"key":"03","name":"Niedersachsen"}},{"name":"Am Obstgarten","postalCode":"29690","locality":"Schwarmstedt","municipality":{"key":"03358020","name":"Schwarmstedt","type":"Kreisangehörige_Gemeinde"},"district":{"key":"03358","name":"Heidekreis","type":"Landkreis"},"federalState":{"key":"03","name":"Niedersachsen"}},{"name":"Am Pulverberg","postalCode":"29690","locality":"Schwarmstedt","municipality":{"key":"03358020","name":"Schwarmstedt","type":"Kreisangehörige_Gemeinde"},"district":{"key":"03358","name":"Heidekreis","type":"Landkreis"},"federalState":{"key":"03","name":"Niedersachsen"}},{"name":"Am Radebrooksbach","postalCode":"25355","locality":"Barmstedt","municipality":{"key":"01056002","name":"Barmstedt, Stadt","type":"Stadt"},"district":{"key":"01056","name":"Pinneberg","type":"Kreis"},"federalState":{"key":"01","name":"Schleswig-Holstein"}},{"name":"Am Ring","postalCode":"29690","locality":"Schwarmstedt","municipality":{"key":"03358020","name":"Schwarmstedt","type":"Kreisangehörige_Gemeinde"},"district":{"key":"03358","name":"Heidekreis","type":"Landkreis"},"federalState":{"key":"03","name":"Niedersachsen"}},{"name":"Am Sandfeld","postalCode":"29690","locality":"Schwarmstedt","municipality":{"key":"03358020","name":"Schwarmstedt","type":"Kreisangehörige_Gemeinde"},"district":{"key":"03358","name":"Heidekreis","type":"Landkreis"},"federalState":{"key":"03","name":"Niedersachsen"}},{"name":"Am Schäferfeld","postalCode":"25355","locality":"Barmstedt","municipality":{"key":"01056002","name":"Barmstedt, Stadt","type":"Stadt"},"district":{"key":"01056","name":"Pinneberg","type":"Kreis"},"federalState":{"key":"01","name":"Schleswig-Holstein"}},{"name":"Am Schäferhof","postalCode":"25355","locality":"Barmstedt","municipality":{"key":"01056002","name":"Barmstedt, Stadt","type":"Stadt"},"district":{"key":"01056","name":"Pinneberg","type":"Kreis"},"federalState":{"key":"01","name":"Schleswig-Holstein"}},{"name":"Am Schloonberg","postalCode":"29690","locality":"Schwarmstedt","municipality":{"key":"03358020","name":"Schwarmstedt","type":"Kreisangehörige_Gemeinde"},"district":{"key":"03358","name":"Heidekreis","type":"Landkreis"},"federalState":{"key":"03","name":"Niedersachsen"}},{"name":"Am Schützenplatz","postalCode":"29690","locality":"Schwarmstedt","municipality":{"key":"03358020","name":"Schwarmstedt","type":"Kreisangehörige_Gemeinde"},"district":{"key":"03358","name":"Heidekreis","type":"Landkreis"},"federalState":{"key":"03","name":"Niedersachsen"}},{"name":"Am See","postalCode":"29690","locality":"Schwarmstedt","municipality":{"key":"03358020","name":"Schwarmstedt","type":"Kreisangehörige_Gemeinde"},"district":{"key":"03358","name":"Heidekreis","type":"Landkreis"},"federalState":{"key":"03","name":"Niedersachsen"}},{"name":"Amselweg","postalCode":"27412","locality":"Tarmstedt","municipality":{"key":"03357047","name":"Tarmstedt","type":"Kreisangehörige_Gemeinde"},"district":{"key":"03357","name":"Rotenburg (Wümme)","type":"Landkreis"},"federalState":{"key":"03","name":"Niedersachsen"}},{"name":"Amselweg","postalCode":"29690","locality":"Schwarmstedt","municipality":{"key":"03358020","name":"Schwarmstedt","type":"Kreisangehörige_Gemeinde"},"district":{"key":"03358","name":"Heidekreis","type":"Landkreis"},"federalState":{"key":"03","name":"Niedersachsen"}},{"name":"Am Speckenberg","postalCode":"29690","locality":"Schwarmstedt","municipality":{"key":"03358020","name":"Schwarmstedt","type":"Kreisangehörige_Gemeinde"},"district":{"key":"03358","name":"Heidekreis","type":"Landkreis"},"federalState":{"key":"03","name":"Niedersachsen"}},{"name":"Am Tammrath","postalCode":"29690","locality":"Schwarmstedt","municipality":{"key":"03358020","name":"Schwarmstedt","type":"Kreisangehörige_Gemeinde"},"district":{"key":"03358","name":"Heidekreis","type":"Landkreis"},"federalState":{"key":"03","name":"Niedersachsen"}},{"name":"Am Teich","postalCode":"24616","locality":"Armstedt","municipality":{"key":"01060003","name":"Armstedt","type":"Kreisangehörige_Gemeinde"},"district":{"key":"01060","name":"Segeberg","type":"Kreis"},"federalState":{"key":"01","name":"Schleswig-Holstein"}},{"name":"Am Thing","postalCode":"29690","locality":"Schwarmstedt","municipality":{"key":"03358020","name":"Schwarmstedt","type":"Kreisangehörige_Gemeinde"},"district":{"key":"03358","name":"Heidekreis","type":"Landkreis"},"federalState":{"key":"03","name":"Niedersachsen"}},{"name":"Am Toggraben","postalCode":"29690","locality":"Schwarmstedt","municipality":{"key":"03358020","name":"Schwarmstedt","type":"Kreisangehörige_Gemeinde"},"district":{"key":"03358","name":"Heidekreis","type":"Landkreis"},"federalState":{"key":"03","name":"Niedersachsen"}},{"name":"Amtsweg","postalCode":"29690","locality":"Schwarmstedt","municipality":{"key":"03358020","name":"Schwarmstedt","type":"Kreisangehörige_Gemeinde"},"district":{"key":"03358","name":"Heidekreis","type":"Landkreis"},"federalState":{"key":"03","name":"Niedersachsen"}},{"name":"Am Urnenfeld","postalCode":"29690","locality":"Schwarmstedt","municipality":{"key":"03358020","name":"Schwarmstedt","type":"Kreisangehörige_Gemeinde"},"district":{"key":"03358","name":"Heidekreis","type":"Landkreis"},"federalState":{"key":"03","name":"Niedersachsen"}},{"name":"Am Varrenbruch","postalCode":"29690","locality":"Schwarmstedt","municipality":{"key":"03358020","name":"Schwarmstedt","type":"Kreisangehörige_Gemeinde"},"district":{"key":"03358","name":"Heidekreis","type":"Landkreis"},"federalState":{"key":"03","name":"Niedersachsen"}},{"name":"Am Wasserwerk","postalCode":"25355","locality":"Barmstedt","municipality":{"key":"01056002","name":"Barmstedt, Stadt","type":"Stadt"},"district":{"key":"01056","name":"Pinneberg","type":"Kreis"},"federalState":{"key":"01","name":"Schleswig-Holstein"}},{"name":"Am Wiesenhof","postalCode":"24616","locality":"Armstedt","municipality":{"key":"01060003","name":"Armstedt","type":"Kreisangehörige_Gemeinde"},"district":{"key":"01060","name":"Segeberg","type":"Kreis"},"federalState":{"key":"01","name":"Schleswig-Holstein"}},{"name":"Am Würen","postalCode":"24616","locality":"Armstedt","municipality":{"key":"01060003","name":"Armstedt","type":"Kreisangehörige_Gemeinde"},"district":{"key":"01060","name":"Segeberg","type":"Kreis"},"federalState":{"key":"01","name":"Schleswig-Holstein"}},{"name":"An den Bahngärten","postalCode":"29690","locality":"Schwarmstedt","municipality":{"key":"03358020","name":"Schwarmstedt","type":"Kreisangehörige_Gemeinde"},"district":{"key":"03358","name":"Heidekreis","type":"Landkreis"},"federalState":{"key":"03","name":"Niedersachsen"}},{"name":"An der alten Mühle","postalCode":"25355","locality":"Barmstedt","municipality":{"key":"01056002","name":"Barmstedt, Stadt","type":"Stadt"},"district":{"key":"01056","name":"Pinneberg","type":"Kreis"},"federalState":{"key":"01","name":"Schleswig-Holstein"}},{"name":"An der Bahn","postalCode":"25355","locality":"Barmstedt","municipality":{"key":"01056002","name":"Barmstedt, Stadt","type":"Stadt"},"district":{"key":"01056","name":"Pinneberg","type":"Kreis"},"federalState":{"key":"01","name":"Schleswig-Holstein"}},{"name":"Badenhopsweg","postalCode":"29690","locality":"Schwarmstedt","municipality":{"key":"03358020","name":"Schwarmstedt","type":"Kreisangehörige_Gemeinde"},"district":{"key":"03358","name":"Heidekreis","type":"Landkreis"},"federalState":{"key":"03","name":"Niedersachsen"}},{"name":"Bahnhofstr.","postalCode":"25355","locality":"Barmstedt","municipality":{"key":"01056002","name":"Barmstedt, Stadt","type":"Stadt"},"district":{"key":"01056","name":"Pinneberg","type":"Kreis"},"federalState":{"key":"01","name":"Schleswig-Holstein"}},{"name":"Bahnhofstr.","postalCode":"29690","locality":"Schwarmstedt","municipality":{"key":"03358020","name":"Schwarmstedt","type":"Kreisangehörige_Gemeinde"},"district":{"key":"03358","name":"Heidekreis","type":"Landkreis"},"federalState":{"key":"03","name":"Niedersachsen"}},{"name":"Bahnhofsweg","postalCode":"29690","locality":"Schwarmstedt","municipality":{"key":"03358020","name":"Schwarmstedt","type":"Kreisangehörige_Gemeinde"},"district":{"key":"03358","name":"Heidekreis","type":"Landkreis"},"federalState":{"key":"03","name":"Niedersachsen"}},{"name":"Bauernreihe","postalCode":"27412","locality":"Tarmstedt","municipality":{"key":"03357047","name":"Tarmstedt","type":"Kreisangehörige_Gemeinde"},"district":{"key":"03357","name":"Rotenburg (Wümme)","type":"Landkreis"},"federalState":{"key":"03","name":"Niedersachsen"}},{"name":"Baumschulenweg","postalCode":"25355","locality":"Barmstedt","municipality":{"key":"01056002","name":"Barmstedt, Stadt","type":"Stadt"},"district":{"key":"01056","name":"Pinneberg","type":"Kreis"},"federalState":{"key":"01","name":"Schleswig-Holstein"}},{"name":"Beim Reihergehölz","postalCode":"25355","locality":"Barmstedt","municipality":{"key":"01056002","name":"Barmstedt, Stadt","type":"Stadt"},"district":{"key":"01056","name":"Pinneberg","type":"Kreis"},"federalState":{"key":"01","name":"Schleswig-Holstein"}},{"name":"Berliner Str.","postalCode":"25355","locality":"Barmstedt","municipality":{"key":"01056002","name":"Barmstedt, Stadt","type":"Stadt"},"district":{"key":"01056","name":"Pinneberg","type":"Kreis"},"federalState":{"key":"01","name":"Schleswig-Holstein"}},{"name":"Birkengrund","postalCode":"25355","locality":"Barmstedt","municipality":{"key":"01056002","name":"Barmstedt, Stadt","type":"Stadt"},"district":{"key":"01056","name":"Pinneberg","type":"Kreis"},"federalState":{"key":"01","name":"Schleswig-Holstein"}},{"name":"Birkenkamp","postalCode":"29690","locality":"Schwarmstedt","municipality":{"key":"03358020","name":"Schwarmstedt","type":"Kreisangehörige_Gemeinde"},"district":{"key":"03358","name":"Heidekreis","type":"Landkreis"},"federalState":{"key":"03","name":"Niedersachsen"}},{"name":"Birkenring","postalCode":"27412","locality":"Tarmstedt","municipality":{"key":"03357047","name":"Tarmstedt","type":"Kreisangehörige_Gemeinde"},"district":{"key":"03357","name":"Rotenburg (Wümme)","type":"Landkreis"},"federalState":{"key":"03","name":"Niedersachsen"}},{"name":"Birnenstieg","postalCode":"29690","locality":"Schwarmstedt","municipality":{"key":"03358020","name":"Schwarmstedt","type":"Kreisangehörige_Gemeinde"},"district":{"key":"03358","name":"Heidekreis","type":"Landkreis"},"federalState":{"key":"03","name":"Niedersachsen"}},{"name":"Bornkamp","postalCode":"25355","locality":"Barmstedt","municipality":{"key":"01056002","name":"Barmstedt, Stadt","type":"Stadt"},"district":{"key":"01056","name":"Pinneberg","type":"Kreis"},"federalState":{"key":"01","name":"Schleswig-Holstein"}},{"name":"Bothmersche Str.","postalCode":"29690","locality":"Schwarmstedt","municipality":{"key":"03358020","name":"Schwarmstedt","type":"Kreisangehörige_Gemeinde"},"district":{"key":"03358","name":"Heidekreis","type":"Landkreis"},"federalState":{"key":"03","name":"Niedersachsen"}},{"name":"Böttcherweg","postalCode":"25355","locality":"Barmstedt","municipality":{"key":"01056002","name":"Barmstedt, Stadt","type":"Stadt"},"district":{"key":"01056","name":"Pinneberg","type":"Kreis"},"federalState":{"key":"01","name":"Schleswig-Holstein"}},{"name":"Breelohweg","postalCode":"25355","locality":"Barmstedt","municipality":{"key":"01056002","name":"Barmstedt, Stadt","type":"Stadt"},"district":{"key":"01056","name":"Pinneberg","type":"Kreis"},"federalState":{"key":"01","name":"Schleswig-Holstein"}},{"name":"Bremer Landstr.","postalCode":"27412","locality":"Tarmstedt","municipality":{"key":"03357047","name":"Tarmstedt","type":"Kreisangehörige_Gemeinde"},"district":{"key":"03357","name":"Rotenburg (Wümme)","type":"Landkreis"},"federalState":{"key":"03","name":"Niedersachsen"}},{"name":"Breslauer Str.","postalCode":"25355","locality":"Barmstedt","municipality":{"key":"01056002","name":"Barmstedt, Stadt","type":"Stadt"},"district":{"key":"01056","name":"Pinneberg","type":"Kreis"},"federalState":{"key":"01","name":"Schleswig-Holstein"}},{"name":"Breslauer Str.","postalCode":"29690","locality":"Schwarmstedt","municipality":{"key":"03358020","name":"Schwarmstedt","type":"Kreisangehörige_Gemeinde"},"district":{"key":"03358","name":"Heidekreis","type":"Landkreis"},"federalState":{"key":"03","name":"Niedersachsen"}},{"name":"Brückstr.","postalCode":"29690","locality":"Schwarmstedt","municipality":{"key":"03358020","name":"Schwarmstedt","type":"Kreisangehörige_Gemeinde"},"district":{"key":"03358","name":"Heidekreis","type":"Landkreis"},"federalState":{"key":"03","name":"Niedersachsen"}},{"name":"Brunnenallee","postalCode":"25355","locality":"Barmstedt","municipality":{"key":"01056002","name":"Barmstedt, Stadt","type":"Stadt"},"district":{"key":"01056","name":"Pinneberg","type":"Kreis"},"federalState":{"key":"01","name":"Schleswig-Holstein"}},{"name":"Brunnenstr.","postalCode":"25355","locality":"Barmstedt","municipality":{"key":"01056002","name":"Barmstedt, Stadt","type":"Stadt"},"district":{"key":"01056","name":"Pinneberg","type":"Kreis"},"federalState":{"key":"01","name":"Schleswig-Holstein"}},{"name":"Buchentwiete","postalCode":"25355","locality":"Barmstedt","municipality":{"key":"01056002","name":"Barmstedt, Stadt","type":"Stadt"},"district":{"key":"01056","name":"Pinneberg","type":"Kreis"},"federalState":{"key":"01","name":"Schleswig-Holstein"}},{"name":"Buchenweg","postalCode":"27412","locality":"Tarmstedt","municipality":{"key":"03357047","name":"Tarmstedt","type":"Kreisangehörige_Gemeinde"},"district":{"key":"03357","name":"Rotenburg (Wümme)","type":"Landkreis"},"federalState":{"key":"03","name":"Niedersachsen"}},{"name":"Buchholzer Mühlenweg","postalCode":"29690","locality":"Schwarmstedt","municipality":{"key":"03358020","name":"Schwarmstedt","type":"Kreisangehörige_Gemeinde"},"district":{"key":"03358","name":"Heidekreis","type":"Landkreis"},"federalState":{"key":"03","name":"Niedersachsen"}},{"name":"Celler Str.","postalCode":"29690","locality":"Schwarmstedt","municipality":{"key":"03358020","name":"Schwarmstedt","type":"Kreisangehörige_Gemeinde"},"district":{"key":"03358","name":"Heidekreis","type":"Landkreis"},"federalState":{"key":"03","name":"Niedersachsen"}},{"name":"Charlotte-Niese-Weg","postalCode":"25355","locality":"Barmstedt","municipality":{"key":"01056002","name":"Barmstedt, Stadt","type":"Stadt"},"district":{"key":"01056","name":"Pinneberg","type":"Kreis"},"federalState":{"key":"01","name":"Schleswig-Holstein"}},{"name":"Chemnitzstr.","postalCode":"25355","locality":"Barmstedt","municipality":{"key":"01056002","name":"Barmstedt, Stadt","type":"Stadt"},"district":{"key":"01056","name":"Pinneberg","type":"Kreis"},"federalState":{"key":"01","name":"Schleswig-Holstein"}},{"name":"Christburger Str.","postalCode":"27412","locality":"Tarmstedt","municipality":{"key":"03357047","name":"Tarmstedt","type":"Kreisangehörige_Gemeinde"},"district":{"key":"03357","name":"Rotenburg (Wümme)","type":"Landkreis"},"federalState":{"key":"03","name":"Niedersachsen"}},{"name":"Cloppenburger Str.","postalCode":"27412","locality":"Tarmstedt","municipality":{"key":"03357047","name":"Tarmstedt","type":"Kreisangehörige_Gemeinde"},"district":{"key":"03357","name":"Rotenburg (Wümme)","type":"Landkreis"},"federalState":{"key":"03","name":"Niedersachsen"}},{"name":"Dahlienweg","postalCode":"29690","locality":"Schwarmstedt","municipality":{"key":"03358020","name":"Schwarmstedt","type":"Kreisangehörige_Gemeinde"},"district":{"key":"03358","name":"Heidekreis","type":"Landkreis"},"federalState":{"key":"03","name":"Niedersachsen"}},{"name":"Dammweg","postalCode":"27412","locality":"Tarmstedt","municipality":{"key":"03357047","name":"Tarmstedt","type":"Kreisangehörige_Gemeinde"},"district":{"key":"03357","name":"Rotenburg (Wümme)","type":"Landkreis"},"federalState":{"key":"03","name":"Niedersachsen"}},{"name":"Dammwiesen","postalCode":"27412","locality":"Tarmstedt","municipality":{"key":"03357047","name":"Tarmstedt","type":"Kreisangehörige_Gemeinde"},"district":{"key":"03357","name":"Rotenburg (Wümme)","type":"Landkreis"},"federalState":{"key":"03","name":"Niedersachsen"}},{"name":"Dammwischkamp","postalCode":"27412","locality":"Tarmstedt","municipality":{"key":"03357047","name":"Tarmstedt","type":"Kreisangehörige_Gemeinde"},"district":{"key":"03357","name":"Rotenburg (Wümme)","type":"Landkreis"},"federalState":{"key":"03","name":"Niedersachsen"}},{"name":"Danziger Str.","postalCode":"25355","locality":"Barmstedt","municipality":{"key":"01056002","name":"Barmstedt, Stadt","type":"Stadt"},"district":{"key":"01056","name":"Pinneberg","type":"Kreis"},"federalState":{"key":"01","name":"Schleswig-Holstein"}},{"name":"Deichweg","postalCode":"29690","locality":"Schwarmstedt","municipality":{"key":"03358020","name":"Schwarmstedt","type":"Kreisangehörige_Gemeinde"},"district":{"key":"03358","name":"Heidekreis","type":"Landkreis"},"federalState":{"key":"03","name":"Niedersachsen"}},{"name":"Der Neue Weg","postalCode":"25355","locality":"Barmstedt","municipality":{"key":"01056002","name":"Barmstedt, Stadt","type":"Stadt"},"district":{"key":"01056","name":"Pinneberg","type":"Kreis"},"federalState":{"key":"01","name":"Schleswig-Holstein"}},{"name":"Diedrich-Speckmann-Str.","postalCode":"27412","locality":"Tarmstedt","municipality":{"key":"03357047","name":"Tarmstedt","type":"Kreisangehörige_Gemeinde"},"district":{"key":"03357","name":"Rotenburg (Wümme)","type":"Landkreis"},"federalState":{"key":"03","name":"Niedersachsen"}},{"name":"Dorfstr.","postalCode":"24616","locality":"Armstedt","municipality":{"key":"01060003","name":"Armstedt","type":"Kreisangehörige_Gemeinde"},"district":{"key":"01060","name":"Segeberg","type":"Kreis"},"federalState":{"key":"01","name":"Schleswig-Holstein"}},{"name":"Dorfstr.","postalCode":"25355","locality":"Barmstedt","municipality":{"key":"01056002","name":"Barmstedt, Stadt","type":"Stadt"},"district":{"key":"01056","name":"Pinneberg","type":"Kreis"},"federalState":{"key":"01","name":"Schleswig-Holstein"}},{"name":"Dorfstr.","postalCode":"29690","locality":"Schwarmstedt","municipality":{"key":"03358020","name":"Schwarmstedt","type":"Kreisangehörige_Gemeinde"},"district":{"key":"03358","name":"Heidekreis","type":"Landkreis"},"federalState":{"key":"03","name":"Niedersachsen"}},{"name":"Drosselweg","postalCode":"25355","locality":"Barmstedt","municipality":{"key":"01056002","name":"Barmstedt, Stadt","type":"Stadt"},"district":{"key":"01056","name":"Pinneberg","type":"Kreis"},"federalState":{"key":"01","name":"Schleswig-Holstein"}},{"name":"Drosselweg","postalCode":"29690","locality":"Schwarmstedt","municipality":{"key":"03358020","name":"Schwarmstedt","type":"Kreisangehörige_Gemeinde"},"district":{"key":"03358","name":"Heidekreis","type":"Landkreis"},"federalState":{"key":"03","name":"Niedersachsen"}},{"name":"Dr. Schroff-Weg","postalCode":"25355","locality":"Barmstedt","municipality":{"key":"01056002","name":"Barmstedt, Stadt","type":"Stadt"},"district":{"key":"01056","name":"Pinneberg","type":"Kreis"},"federalState":{"key":"01","name":"Schleswig-Holstein"}},{"name":"Düsterlohe","postalCode":"25355","locality":"Barmstedt","municipality":{"key":"01056002","name":"Barmstedt, Stadt","type":"Stadt"},"district":{"key":"01056","name":"Pinneberg","type":"Kreis"},"federalState":{"key":"01","name":"Schleswig-Holstein"}},{"name":"Ede-Menzler-Weg","postalCode":"25355","locality":"Barmstedt","municipality":{"key":"01056002","name":"Barmstedt, Stadt","type":"Stadt"},"district":{"key":"01056","name":"Pinneberg","type":"Kreis"},"federalState":{"key":"01","name":"Schleswig-Holstein"}},{"name":"Eichenhof","postalCode":"25355","locality":"Barmstedt","municipality":{"key":"01056002","name":"Barmstedt, Stadt","type":"Stadt"},"district":{"key":"01056","name":"Pinneberg","type":"Kreis"},"federalState":{"key":"01","name":"Schleswig-Holstein"}},{"name":"Eichenring","postalCode":"27412","locality":"Tarmstedt","municipality":{"key":"03357047","name":"Tarmstedt","type":"Kreisangehörige_Gemeinde"},"district":{"key":"03357","name":"Rotenburg (Wümme)","type":"Landkreis"},"federalState":{"key":"03","name":"Niedersachsen"}},{"name":"Eichhörnchenweg","postalCode":"25355","locality":"Barmstedt","municipality":{"key":"01056002","name":"Barmstedt, Stadt","type":"Stadt"},"district":{"key":"01056","name":"Pinneberg","type":"Kreis"},"federalState":{"key":"01","name":"Schleswig-Holstein"}},{"name":"Eickenfeldweg","postalCode":"27412","locality":"Tarmstedt","municipality":{"key":"03357047","name":"Tarmstedt","type":"Kreisangehörige_Gemeinde"},"district":{"key":"03357","name":"Rotenburg (Wümme)","type":"Landkreis"},"federalState":{"key":"03","name":"Niedersachsen"}},{"name":"Erlengrund","postalCode":"25355","locality":"Barmstedt","municipality":{"key":"01056002","name":"Barmstedt, Stadt","type":"Stadt"},"district":{"key":"01056","name":"Pinneberg","type":"Kreis"},"federalState":{"key":"01","name":"Schleswig-Holstein"}},{"name":"Esperker Str.","postalCode":"29690","locality":"Schwarmstedt","municipality":{"key":"03358020","name":"Schwarmstedt","type":"Kreisangehörige_Gemeinde"},"district":{"key":"03358","name":"Heidekreis","type":"Landkreis"},"federalState":{"key":"03","name":"Niedersachsen"}},{"name":"Esseler Str.","postalCode":"29690","locality":"Schwarmstedt","municipality":{"key":"03358020","name":"Schwarmstedt","type":"Kreisangehörige_Gemeinde"},"district":{"key":"03358","name":"Heidekreis","type":"Landkreis"},"federalState":{"key":"03","name":"Niedersachsen"}},{"name":"Falkenweg","postalCode":"27412","locality":"Tarmstedt","municipality":{"key":"03357047","name":"Tarmstedt","type":"Kreisangehörige_Gemeinde"},"district":{"key":"03357","name":"Rotenburg (Wümme)","type":"Landkreis"},"federalState":{"key":"03","name":"Niedersachsen"}},{"name":"Fasanengang","postalCode":"29690","locality":"Schwarmstedt","municipality":{"key":"03358020","name":"Schwarmstedt","type":"Kreisangehörige_Gemeinde"},"district":{"key":"03358","name":"Heidekreis","type":"Landkreis"},"federalState":{"key":"03","name":"Niedersachsen"}},{"name":"Fasanenweg","postalCode":"25355","locality":"Barmstedt","municipality":{"key":"01056002","name":"Barmstedt, Stadt","type":"Stadt"},"district":{"key":"01056","name":"Pinneberg","type":"Kreis"},"federalState":{"key":"01","name":"Schleswig-Holstein"}},{"name":"Fasanenweg","postalCode":"27412","locality":"Tarmstedt","municipality":{"key":"03357047","name":"Tarmstedt","type":"Kreisangehörige_Gemeinde"},"district":{"key":"03357","name":"Rotenburg (Wümme)","type":"Landkreis"},"federalState":{"key":"03","name":"Niedersachsen"}},{"name":"Fasanenweg","postalCode":"29690","locality":"Schwarmstedt","municipality":{"key":"03358020","name":"Schwarmstedt","type":"Kreisangehörige_Gemeinde"},"district":{"key":"03358","name":"Heidekreis","type":"Landkreis"},"federalState":{"key":"03","name":"Niedersachsen"}},{"name":"Feenkamp","postalCode":"25355","locality":"Barmstedt","municipality":{"key":"01056002","name":"Barmstedt, Stadt","type":"Stadt"},"district":{"key":"01056","name":"Pinneberg","type":"Kreis"},"federalState":{"key":"01","name":"Schleswig-Holstein"}},{"name":"Feldstr.","postalCode":"25355","locality":"Barmstedt","municipality":{"key":"01056002","name":"Barmstedt, Stadt","type":"Stadt"},"district":{"key":"01056","name":"Pinneberg","type":"Kreis"},"federalState":{"key":"01","name":"Schleswig-Holstein"}},{"name":"Feldstr.","postalCode":"29690","locality":"Schwarmstedt","municipality":{"key":"03358020","name":"Schwarmstedt","type":"Kreisangehörige_Gemeinde"},"district":{"key":"03358","name":"Heidekreis","type":"Landkreis"},"federalState":{"key":"03","name":"Niedersachsen"}},{"name":"Fichtenweg","postalCode":"29690","locality":"Schwarmstedt","municipality":{"key":"03358020","name":"Schwarmstedt","type":"Kreisangehörige_Gemeinde"},"district":{"key":"03358","name":"Heidekreis","type":"Landkreis"},"federalState":{"key":"03","name":"Niedersachsen"}},{"name":"Finkenschlag","postalCode":"29690","locality":"Schwarmstedt","municipality":{"key":"03358020","name":"Schwarmstedt","type":"Kreisangehörige_Gemeinde"},"district":{"key":"03358","name":"Heidekreis","type":"Landkreis"},"federalState":{"key":"03","name":"Niedersachsen"}},{"name":"Finkenweg","postalCode":"25355","locality":"Barmstedt","municipality":{"key":"01056002","name":"Barmstedt, Stadt","type":"Stadt"},"district":{"key":"01056","name":"Pinneberg","type":"Kreis"},"federalState":{"key":"01","name":"Schleswig-Holstein"}},{"name":"Fliederstr.","postalCode":"29690","locality":"Schwarmstedt","municipality":{"key":"03358020","name":"Schwarmstedt","type":"Kreisangehörige_Gemeinde"},"district":{"key":"03358","name":"Heidekreis","type":"Landkreis"},"federalState":{"key":"03","name":"Niedersachsen"}},{"name":"Fliederweg","postalCode":"27412","locality":"Tarmstedt","municipality":{"key":"03357047","name":"Tarmstedt","type":"Kreisangehörige_Gemeinde"},"district":{"key":"03357","name":"Rotenburg (Wümme)","type":"Landkreis"},"federalState":{"key":"03","name":"Niedersachsen"}},{"name":"Freitagskamp","postalCode":"27412","locality":"Tarmstedt","municipality":{"key":"03357047","name":"Tarmstedt","type":"Kreisangehörige_Gemeinde"},"district":{"key":"03357","name":"Rotenburg (Wümme)","type":"Landkreis"},"federalState":{"key":"03","name":"Niedersachsen"}},{"name":"Fritz-Reuter-Str.","postalCode":"25355","locality":"Barmstedt","municipality":{"key":"01056002","name":"Barmstedt, Stadt","type":"Stadt"},"district":{"key":"01056","name":"Pinneberg","type":"Kreis"},"federalState":{"key":"01","name":"Schleswig-Holstein"}},{"name":"Galgenberg","postalCode":"25355","locality":"Barmstedt","municipality":{"key":"01056002","name":"Barmstedt, Stadt","type":"Stadt"},"district":{"key":"01056","name":"Pinneberg","type":"Kreis"},"federalState":{"key":"01","name":"Schleswig-Holstein"}},{"name":"Gartenstr.","postalCode":"27412","locality":"Tarmstedt","municipality":{"key":"03357047","name":"Tarmstedt","type":"Kreisangehörige_Gemeinde"},"district":{"key":"03357","name":"Rotenburg (Wümme)","type":"Landkreis"},"federalState":{"key":"03","name":"Niedersachsen"}},{"name":"Gartenstr.","postalCode":"29690","locality":"Schwarmstedt","municipality":{"key":"03358020","name":"Schwarmstedt","type":"Kreisangehörige_Gemeinde"},"district":{"key":"03358","name":"Heidekreis","type":"Landkreis"},"federalState":{"key":"03","name":"Niedersachsen"}},{"name":"Gebrüderstr.","postalCode":"25355","locality":"Barmstedt","municipality":{"key":"01056002","name":"Barmstedt, Stadt","type":"Stadt"},"district":{"key":"01056","name":"Pinneberg","type":"Kreis"},"federalState":{"key":"01","name":"Schleswig-Holstein"}},{"name":"Gerberstr.","postalCode":"25355","locality":"Barmstedt","municipality":{"key":"01056002","name":"Barmstedt, Stadt","type":"Stadt"},"district":{"key":"01056","name":"Pinneberg","type":"Kreis"},"federalState":{"key":"01","name":"Schleswig-Holstein"}},{"name":"Große Gärtnerstr.","postalCode":"25355","locality":"Barmstedt","municipality":{"key":"01056002","name":"Barmstedt, Stadt","type":"Stadt"},"district":{"key":"01056","name":"Pinneberg","type":"Kreis"},"federalState":{"key":"01","name":"Schleswig-Holstein"}},{"name":"Großendorfer Str.","postalCode":"25355","locality":"Barmstedt","municipality":{"key":"01056002","name":"Barmstedt, Stadt","type":"Stadt"},"district":{"key":"01056","name":"Pinneberg","type":"Kreis"},"federalState":{"key":"01","name":"Schleswig-Holstein"}},{"name":"Großer Kamp","postalCode":"25355","locality":"Barmstedt","municipality":{"key":"01056002","name":"Barmstedt, Stadt","type":"Stadt"},"district":{"key":"01056","name":"Pinneberg","type":"Kreis"},"federalState":{"key":"01","name":"Schleswig-Holstein"}},{"name":"Günther-Kuhlke-Str.","postalCode":"25355","locality":"Barmstedt","municipality":{"key":"01056002","name":"Barmstedt, Stadt","type":"Stadt"},"district":{"key":"01056","name":"Pinneberg","type":"Kreis"},"federalState":{"key":"01","name":"Schleswig-Holstein"}},{"name":"Haberkamp","postalCode":"25355","locality":"Barmstedt","municipality":{"key":"01056002","name":"Barmstedt, Stadt","type":"Stadt"},"district":{"key":"01056","name":"Pinneberg","type":"Kreis"},"federalState":{"key":"01","name":"Schleswig-Holstein"}},{"name":"Haferkostweg","postalCode":"29690","locality":"Schwarmstedt","municipality":{"key":"03358020","name":"Schwarmstedt","type":"Kreisangehörige_Gemeinde"},"district":{"key":"03358","name":"Heidekreis","type":"Landkreis"},"federalState":{"key":"03","name":"Niedersachsen"}},{"name":"Hainbuchenring","postalCode":"27412","locality":"Tarmstedt","municipality":{"key":"03357047","name":"Tarmstedt","type":"Kreisangehörige_Gemeinde"},"district":{"key":"03357","name":"Rotenburg (Wümme)","type":"Landkreis"},"federalState":{"key":"03","name":"Niedersachsen"}},{"name":"Hamburger Str.","postalCode":"25355","locality":"Barmstedt","municipality":{"key":"01056002","name":"Barmstedt, Stadt","type":"Stadt"},"district":{"key":"01056","name":"Pinneberg","type":"Kreis"},"federalState":{"key":"01","name":"Schleswig-Holstein"}},{"name":"Hammeweg","postalCode":"27412","locality":"Tarmstedt","municipality":{"key":"03357047","name":"Tarmstedt","type":"Kreisangehörige_Gemeinde"},"district":{"key":"03357","name":"Rotenburg (Wümme)","type":"Landkreis"},"federalState":{"key":"03","name":"Niedersachsen"}},{"name":"Hans-Dössel-Weg","postalCode":"25355","locality":"Barmstedt","municipality":{"key":"01056002","name":"Barmstedt, Stadt","type":"Stadt"},"district":{"key":"01056","name":"Pinneberg","type":"Kreis"},"federalState":{"key":"01","name":"Schleswig-Holstein"}},{"name":"Hauptstr.","postalCode":"24616","locality":"Armstedt","municipality":{"key":"01060003","name":"Armstedt","type":"Kreisangehörige_Gemeinde"},"district":{"key":"01060","name":"Segeberg","type":"Kreis"},"federalState":{"key":"01","name":"Schleswig-Holstein"}},{"name":"Hauptstr.","postalCode":"27412","locality":"Tarmstedt","municipality":{"key":"03357047","name":"Tarmstedt","type":"Kreisangehörige_Gemeinde"},"district":{"key":"03357","name":"Rotenburg (Wümme)","type":"Landkreis"},"federalState":{"key":"03","name":"Niedersachsen"}},{"name":"Hauptstr.","postalCode":"29690","locality":"Schwarmstedt","municipality":{"key":"03358020","name":"Schwarmstedt","type":"Kreisangehörige_Gemeinde"},"district":{"key":"03358","name":"Heidekreis","type":"Landkreis"},"federalState":{"key":"03","name":"Niedersachsen"}},{"name":"Heckenbergweg","postalCode":"29690","locality":"Schwarmstedt","municipality":{"key":"03358020","name":"Schwarmstedt","type":"Kreisangehörige_Gemeinde"},"district":{"key":"03358","name":"Heidekreis","type":"Landkreis"},"federalState":{"key":"03","name":"Niedersachsen"}},{"name":"Heederbrook","postalCode":"25355","locality":"Barmstedt","municipality":{"key":"01056002","name":"Barmstedt, Stadt","type":"Stadt"},"district":{"key":"01056","name":"Pinneberg","type":"Kreis"},"federalState":{"key":"01","name":"Schleswig-Holstein"}},{"name":"Heidkamp","postalCode":"25355","locality":"Barmstedt","municipality":{"key":"01056002","name":"Barmstedt, Stadt","type":"Stadt"},"district":{"key":"01056","name":"Pinneberg","type":"Kreis"},"federalState":{"key":"01","name":"Schleswig-Holstein"}},{"name":"Hellwieser Chaussee","postalCode":"25355","locality":"Barmstedt","municipality":{"key":"01056002","name":"Barmstedt, Stadt","type":"Stadt"},"district":{"key":"01056","name":"Pinneberg","type":"Kreis"},"federalState":{"key":"01","name":"Schleswig-Holstein"}},{"name":"Hepstedter Str.","postalCode":"27412","locality":"Tarmstedt","municipality":{"key":"03357047","name":"Tarmstedt","type":"Kreisangehörige_Gemeinde"},"district":{"key":"03357","name":"Rotenburg (Wümme)","type":"Landkreis"},"federalState":{"key":"03","name":"Niedersachsen"}},{"name":"Hermann-Löns-Weg","postalCode":"25355","locality":"Barmstedt","municipality":{"key":"01056002","name":"Barmstedt, Stadt","type":"Stadt"},"district":{"key":"01056","name":"Pinneberg","type":"Kreis"},"federalState":{"key":"01","name":"Schleswig-Holstein"}},{"name":"Hermann-Löns-Weg","postalCode":"27412","locality":"Tarmstedt","municipality":{"key":"03357047","name":"Tarmstedt","type":"Kreisangehörige_Gemeinde"},"district":{"key":"03357","name":"Rotenburg (Wümme)","type":"Landkreis"},"federalState":{"key":"03","name":"Niedersachsen"}},{"name":"Hinter dem Eichenbruche","postalCode":"27412","locality":"Tarmstedt","municipality":{"key":"03357047","name":"Tarmstedt","type":"Kreisangehörige_Gemeinde"},"district":{"key":"03357","name":"Rotenburg (Wümme)","type":"Landkreis"},"federalState":{"key":"03","name":"Niedersachsen"}},{"name":"Hohes Feld","postalCode":"29690","locality":"Schwarmstedt","municipality":{"key":"03358020","name":"Schwarmstedt","type":"Kreisangehörige_Gemeinde"},"district":{"key":"03358","name":"Heidekreis","type":"Landkreis"},"federalState":{"key":"03","name":"Niedersachsen"}},{"name":"Holschendorfer Weg","postalCode":"27412","locality":"Tarmstedt","municipality":{"key":"03357047","name":"Tarmstedt","type":"Kreisangehörige_Gemeinde"},"district":{"key":"03357","name":"Rotenburg (Wümme)","type":"Landkreis"},"federalState":{"key":"03","name":"Niedersachsen"}},{"name":"Holstenring","postalCode":"25355","locality":"Barmstedt","municipality":{"key":"01056002","name":"Barmstedt, Stadt","type":"Stadt"},"district":{"key":"01056","name":"Pinneberg","type":"Kreis"},"federalState":{"key":"01","name":"Schleswig-Holstein"}},{"name":"Holunderweg","postalCode":"27412","locality":"Tarmstedt","municipality":{"key":"03357047","name":"Tarmstedt","type":"Kreisangehörige_Gemeinde"},"district":{"key":"03357","name":"Rotenburg (Wümme)","type":"Landkreis"},"federalState":{"key":"03","name":"Niedersachsen"}},{"name":"Holzkoppel","postalCode":"29690","locality":"Schwarmstedt","municipality":{"key":"03358020","name":"Schwarmstedt","type":"Kreisangehörige_Gemeinde"},"district":{"key":"03358","name":"Heidekreis","type":"Landkreis"},"federalState":{"key":"03","name":"Niedersachsen"}},{"name":"Igelkehre","postalCode":"25355","locality":"Barmstedt","municipality":{"key":"01056002","name":"Barmstedt, Stadt","type":"Stadt"},"district":{"key":"01056","name":"Pinneberg","type":"Kreis"},"federalState":{"key":"01","name":"Schleswig-Holstein"}},{"name":"Im Laab","postalCode":"29690","locality":"Schwarmstedt","municipality":{"key":"03358020","name":"Schwarmstedt","type":"Kreisangehörige_Gemeinde"},"district":{"key":"03358","name":"Heidekreis","type":"Landkreis"},"federalState":{"key":"03","name":"Niedersachsen"}},{"name":"Im Moorgartenfeld","postalCode":"29690","locality":"Schwarmstedt","municipality":{"key":"03358020","name":"Schwarmstedt","type":"Kreisangehörige_Gemeinde"},"district":{"key":"03358","name":"Heidekreis","type":"Landkreis"},"federalState":{"key":"03","name":"Niedersachsen"}},{"name":"Im Ortfeld","postalCode":"27412","locality":"Tarmstedt","municipality":{"key":"03357047","name":"Tarmstedt","type":"Kreisangehörige_Gemeinde"},"district":{"key":"03357","name":"Rotenburg (Wümme)","type":"Landkreis"},"federalState":{"key":"03","name":"Niedersachsen"}},{"name":"Im Stoppelfeld","postalCode":"27412","locality":"Tarmstedt","municipality":{"key":"03357047","name":"Tarmstedt","type":"Kreisangehörige_Gemeinde"},"district":{"key":"03357","name":"Rotenburg (Wümme)","type":"Landkreis"},"federalState":{"key":"03","name":"Niedersachsen"}},{"name":"Im Wie","postalCode":"29690","locality":"Schwarmstedt","municipality":{"key":"03358020","name":"Schwarmstedt","type":"Kreisangehörige_Gemeinde"},"district":{"key":"03358","name":"Heidekreis","type":"Landkreis"},"federalState":{"key":"03","name":"Niedersachsen"}},{"name":"Im Winkel","postalCode":"29690","locality":"Schwarmstedt","municipality":{"key":"03358020","name":"Schwarmstedt","type":"Kreisangehörige_Gemeinde"},"district":{"key":"03358","name":"Heidekreis","type":"Landkreis"},"federalState":{"key":"03","name":"Niedersachsen"}},{"name":"In den Fuhren","postalCode":"29690","locality":"Schwarmstedt","municipality":{"key":"03358020","name":"Schwarmstedt","type":"Kreisangehörige_Gemeinde"},"district":{"key":"03358","name":"Heidekreis","type":"Landkreis"},"federalState":{"key":"03","name":"Niedersachsen"}},{"name":"Jan-Murken-Weg","postalCode":"27412","locality":"Tarmstedt","municipality":{"key":"03357047","name":"Tarmstedt","type":"Kreisangehörige_Gemeinde"},"district":{"key":"03357","name":"Rotenburg (Wümme)","type":"Landkreis"},"federalState":{"key":"03","name":"Niedersachsen"}},{"name":"Jittkamp","postalCode":"25355","locality":"Barmstedt","municipality":{"key":"01056002","name":"Barmstedt, Stadt","type":"Stadt"},"district":{"key":"01056","name":"Pinneberg","type":"Kreis"},"federalState":{"key":"01","name":"Schleswig-Holstein"}},{"name":"Johann Caspar Weg","postalCode":"29690","locality":"Schwarmstedt","municipality":{"key":"03358020","name":"Schwarmstedt","type":"Kreisangehörige_Gemeinde"},"district":{"key":"03358","name":"Heidekreis","type":"Landkreis"},"federalState":{"key":"03","name":"Niedersachsen"}},{"name":"Johannisstr.","postalCode":"25355","locality":"Barmstedt","municipality":{"key":"01056002","name":"Barmstedt, Stadt","type":"Stadt"},"district":{"key":"01056","name":"Pinneberg","type":"Kreis"},"federalState":{"key":"01","name":"Schleswig-Holstein"}},{"name":"Kampstr.","postalCode":"25355","locality":"Barmstedt","municipality":{"key":"01056002","name":"Barmstedt, Stadt","type":"Stadt"},"district":{"key":"01056","name":"Pinneberg","type":"Kreis"},"federalState":{"key":"01","name":"Schleswig-Holstein"}},{"name":"Kastanienhof","postalCode":"25355","locality":"Barmstedt","municipality":{"key":"01056002","name":"Barmstedt, Stadt","type":"Stadt"},"district":{"key":"01056","name":"Pinneberg","type":"Kreis"},"federalState":{"key":"01","name":"Schleswig-Holstein"}},{"name":"Kastanienweg","postalCode":"29690","locality":"Schwarmstedt","municipality":{"key":"03358020","name":"Schwarmstedt","type":"Kreisangehörige_Gemeinde"},"district":{"key":"03358","name":"Heidekreis","type":"Landkreis"},"federalState":{"key":"03","name":"Niedersachsen"}},{"name":"Kiebitzweg","postalCode":"29690","locality":"Schwarmstedt","municipality":{"key":"03358020","name":"Schwarmstedt","type":"Kreisangehörige_Gemeinde"},"district":{"key":"03358","name":"Heidekreis","type":"Landkreis"},"federalState":{"key":"03","name":"Niedersachsen"}},{"name":"Kiefernstr.","postalCode":"29690","locality":"Schwarmstedt","municipality":{"key":"03358020","name":"Schwarmstedt","type":"Kreisangehörige_Gemeinde"},"district":{"key":"03358","name":"Heidekreis","type":"Landkreis"},"federalState":{"key":"03","name":"Niedersachsen"}},{"name":"Kies-See-Rundweg","postalCode":"29690","locality":"Schwarmstedt","municipality":{"key":"03358020","name":"Schwarmstedt","type":"Kreisangehörige_Gemeinde"},"district":{"key":"03358","name":"Heidekreis","type":"Landkreis"},"federalState":{"key":"03","name":"Niedersachsen"}},{"name":"Kirchenstr.","postalCode":"25355","locality":"Barmstedt","municipality":{"key":"01056002","name":"Barmstedt, Stadt","type":"Stadt"},"district":{"key":"01056","name":"Pinneberg","type":"Kreis"},"federalState":{"key":"01","name":"Schleswig-Holstein"}},{"name":"Kirchstr.","postalCode":"29690","locality":"Schwarmstedt","municipality":{"key":"03358020","name":"Schwarmstedt","type":"Kreisangehörige_Gemeinde"},"district":{"key":"03358","name":"Heidekreis","type":"Landkreis"},"federalState":{"key":"03","name":"Niedersachsen"}},{"name":"Kirschblütenweg","postalCode":"29690","locality":"Schwarmstedt","municipality":{"key":"03358020","name":"Schwarmstedt","type":"Kreisangehörige_Gemeinde"},"district":{"key":"03358","name":"Heidekreis","type":"Landkreis"},"federalState":{"key":"03","name":"Niedersachsen"}},{"name":"Klaus-Groth-Str.","postalCode":"25355","locality":"Barmstedt","municipality":{"key":"01056002","name":"Barmstedt, Stadt","type":"Stadt"},"district":{"key":"01056","name":"Pinneberg","type":"Kreis"},"federalState":{"key":"01","name":"Schleswig-Holstein"}},{"name":"Kleine Gärtnerstr.","postalCode":"25355","locality":"Barmstedt","municipality":{"key":"01056002","name":"Barmstedt, Stadt","type":"Stadt"},"district":{"key":"01056","name":"Pinneberg","type":"Kreis"},"federalState":{"key":"01","name":"Schleswig-Holstein"}},{"name":"Kleine Kehre","postalCode":"29690","locality":"Schwarmstedt","municipality":{"key":"03358020","name":"Schwarmstedt","type":"Kreisangehörige_Gemeinde"},"district":{"key":"03358","name":"Heidekreis","type":"Landkreis"},"federalState":{"key":"03","name":"Niedersachsen"}},{"name":"Kleine Twiete","postalCode":"25355","locality":"Barmstedt","municipality":{"key":"01056002","name":"Barmstedt, Stadt","type":"Stadt"},"district":{"key":"01056","name":"Pinneberg","type":"Kreis"},"federalState":{"key":"01","name":"Schleswig-Holstein"}},{"name":"Kleine Wende","postalCode":"27412","locality":"Tarmstedt","municipality":{"key":"03357047","name":"Tarmstedt","type":"Kreisangehörige_Gemeinde"},"district":{"key":"03357","name":"Rotenburg (Wümme)","type":"Landkreis"},"federalState":{"key":"03","name":"Niedersachsen"}},{"name":"Klein Grindau","postalCode":"29690","locality":"Schwarmstedt","municipality":{"key":"03358020","name":"Schwarmstedt","type":"Kreisangehörige_Gemeinde"},"district":{"key":"03358","name":"Heidekreis","type":"Landkreis"},"federalState":{"key":"03","name":"Niedersachsen"}},{"name":"Klinke","postalCode":"25355","locality":"Barmstedt","municipality":{"key":"01056002","name":"Barmstedt, Stadt","type":"Stadt"},"district":{"key":"01056","name":"Pinneberg","type":"Kreis"},"federalState":{"key":"01","name":"Schleswig-Holstein"}},{"name":"Klönpad","postalCode":"27412","locality":"Tarmstedt","municipality":{"key":"03357047","name":"Tarmstedt","type":"Kreisangehörige_Gemeinde"},"district":{"key":"03357","name":"Rotenburg (Wümme)","type":"Landkreis"},"federalState":{"key":"03","name":"Niedersachsen"}},{"name":"Knüppeldamm","postalCode":"25355","locality":"Barmstedt","municipality":{"key":"01056002","name":"Barmstedt, Stadt","type":"Stadt"},"district":{"key":"01056","name":"Pinneberg","type":"Kreis"},"federalState":{"key":"01","name":"Schleswig-Holstein"}},{"name":"Königsberger Str.","postalCode":"25355","locality":"Barmstedt","municipality":{"key":"01056002","name":"Barmstedt, Stadt","type":"Stadt"},"district":{"key":"01056","name":"Pinneberg","type":"Kreis"},"federalState":{"key":"01","name":"Schleswig-Holstein"}},{"name":"Königsberger Str.","postalCode":"27412","locality":"Tarmstedt","municipality":{"key":"03357047","name":"Tarmstedt","type":"Kreisangehörige_Gemeinde"},"district":{"key":"03357","name":"Rotenburg (Wümme)","type":"Landkreis"},"federalState":{"key":"03","name":"Niedersachsen"}},{"name":"Königsberger Str.","postalCode":"29690","locality":"Schwarmstedt","municipality":{"key":"03358020","name":"Schwarmstedt","type":"Kreisangehörige_Gemeinde"},"district":{"key":"03358","name":"Heidekreis","type":"Landkreis"},"federalState":{"key":"03","name":"Niedersachsen"}},{"name":"Königsdamm","postalCode":"27412","locality":"Tarmstedt","municipality":{"key":"03357047","name":"Tarmstedt","type":"Kreisangehörige_Gemeinde"},"district":{"key":"03357","name":"Rotenburg (Wümme)","type":"Landkreis"},"federalState":{"key":"03","name":"Niedersachsen"}},{"name":"Königstr.","postalCode":"25355","locality":"Barmstedt","municipality":{"key":"01056002","name":"Barmstedt, Stadt","type":"Stadt"},"district":{"key":"01056","name":"Pinneberg","type":"Kreis"},"federalState":{"key":"01","name":"Schleswig-Holstein"}},{"name":"Kornstr.","postalCode":"27412","locality":"Tarmstedt","municipality":{"key":"03357047","name":"Tarmstedt","type":"Kreisangehörige_Gemeinde"},"district":{"key":"03357","name":"Rotenburg (Wümme)","type":"Landkreis"},"federalState":{"key":"03","name":"Niedersachsen"}},{"name":"Kötnerweg","postalCode":"29690","locality":"Schwarmstedt","municipality":{"key":"03358020","name":"Schwarmstedt","type":"Kreisangehörige_Gemeinde"},"district":{"key":"03358","name":"Heidekreis","type":"Landkreis"},"federalState":{"key":"03","name":"Niedersachsen"}},{"name":"Kreuzweg","postalCode":"25355","locality":"Barmstedt","municipality":{"key":"01056002","name":"Barmstedt, Stadt","type":"Stadt"},"district":{"key":"01056","name":"Pinneberg","type":"Kreis"},"federalState":{"key":"01","name":"Schleswig-Holstein"}},{"name":"Krützkamp","postalCode":"25355","locality":"Barmstedt","municipality":{"key":"01056002","name":"Barmstedt, Stadt","type":"Stadt"},"district":{"key":"01056","name":"Pinneberg","type":"Kreis"},"federalState":{"key":"01","name":"Schleswig-Holstein"}},{"name":"Kuhberg","postalCode":"25355","locality":"Barmstedt","municipality":{"key":"01056002","name":"Barmstedt, Stadt","type":"Stadt"},"district":{"key":"01056","name":"Pinneberg","type":"Kreis"},"federalState":{"key":"01","name":"Schleswig-Holstein"}},{"name":"Küsterkamp","postalCode":"25355","locality":"Barmstedt","municipality":{"key":"01056002","name":"Barmstedt, Stadt","type":"Stadt"},"district":{"key":"01056","name":"Pinneberg","type":"Kreis"},"federalState":{"key":"01","name":"Schleswig-Holstein"}},{"name":"Langenkampsweg","postalCode":"29690","locality":"Schwarmstedt","municipality":{"key":"03358020","name":"Schwarmstedt","type":"Kreisangehörige_Gemeinde"},"district":{"key":"03358","name":"Heidekreis","type":"Landkreis"},"federalState":{"key":"03","name":"Niedersachsen"}},{"name":"Langestücken","postalCode":"24616","locality":"Armstedt","municipality":{"key":"01060003","name":"Armstedt","type":"Kreisangehörige_Gemeinde"},"district":{"key":"01060","name":"Segeberg","type":"Kreis"},"federalState":{"key":"01","name":"Schleswig-Holstein"}},{"name":"Lärchenstr.","postalCode":"29690","locality":"Schwarmstedt","municipality":{"key":"03358020","name":"Schwarmstedt","type":"Kreisangehörige_Gemeinde"},"district":{"key":"03358","name":"Heidekreis","type":"Landkreis"},"federalState":{"key":"03","name":"Niedersachsen"}},{"name":"Leineweg","postalCode":"29690","locality":"Schwarmstedt","municipality":{"key":"03358020","name":"Schwarmstedt","type":"Kreisangehörige_Gemeinde"},"district":{"key":"03358","name":"Heidekreis","type":"Landkreis"},"federalState":{"key":"03","name":"Niedersachsen"}},{"name":"Lerchenweg","postalCode":"25355","locality":"Barmstedt","municipality":{"key":"01056002","name":"Barmstedt, Stadt","type":"Stadt"},"district":{"key":"01056","name":"Pinneberg","type":"Kreis"},"federalState":{"key":"01","name":"Schleswig-Holstein"}},{"name":"Lerchenweg","postalCode":"27412","locality":"Tarmstedt","municipality":{"key":"03357047","name":"Tarmstedt","type":"Kreisangehörige_Gemeinde"},"district":{"key":"03357","name":"Rotenburg (Wümme)","type":"Landkreis"},"federalState":{"key":"03","name":"Niedersachsen"}},{"name":"Lindenkamp","postalCode":"27412","locality":"Tarmstedt","municipality":{"key":"03357047","name":"Tarmstedt","type":"Kreisangehörige_Gemeinde"},"district":{"key":"03357","name":"Rotenburg (Wümme)","type":"Landkreis"},"federalState":{"key":"03","name":"Niedersachsen"}},{"name":"Lindenweg","postalCode":"25355","locality":"Barmstedt","municipality":{"key":"01056002","name":"Barmstedt, Stadt","type":"Stadt"},"district":{"key":"01056","name":"Pinneberg","type":"Kreis"},"federalState":{"key":"01","name":"Schleswig-Holstein"}},{"name":"Luise-Schenck-Weg","postalCode":"25355","locality":"Barmstedt","municipality":{"key":"01056002","name":"Barmstedt, Stadt","type":"Stadt"},"district":{"key":"01056","name":"Pinneberg","type":"Kreis"},"federalState":{"key":"01","name":"Schleswig-Holstein"}},{"name":"Luswinkel","postalCode":"25355","locality":"Barmstedt","municipality":{"key":"01056002","name":"Barmstedt, Stadt","type":"Stadt"},"district":{"key":"01056","name":"Pinneberg","type":"Kreis"},"federalState":{"key":"01","name":"Schleswig-Holstein"}},{"name":"Lutzhorner Landstr.","postalCode":"25355","locality":"Barmstedt","municipality":{"key":"01056002","name":"Barmstedt, Stadt","type":"Stadt"},"district":{"key":"01056","name":"Pinneberg","type":"Kreis"},"federalState":{"key":"01","name":"Schleswig-Holstein"}},{"name":"Marderstieg","postalCode":"25355","locality":"Barmstedt","municipality":{"key":"01056002","name":"Barmstedt, Stadt","type":"Stadt"},"district":{"key":"01056","name":"Pinneberg","type":"Kreis"},"federalState":{"key":"01","name":"Schleswig-Holstein"}},{"name":"Marktstr.","postalCode":"25355","locality":"Barmstedt","municipality":{"key":"01056002","name":"Barmstedt, Stadt","type":"Stadt"},"district":{"key":"01056","name":"Pinneberg","type":"Kreis"},"federalState":{"key":"01","name":"Schleswig-Holstein"}},{"name":"Marktstr.","postalCode":"29690","locality":"Schwarmstedt","municipality":{"key":"03358020","name":"Schwarmstedt","type":"Kreisangehörige_Gemeinde"},"district":{"key":"03358","name":"Heidekreis","type":"Landkreis"},"federalState":{"key":"03","name":"Niedersachsen"}},{"name":"Marschweg","postalCode":"29690","locality":"Schwarmstedt","municipality":{"key":"03358020","name":"Schwarmstedt","type":"Kreisangehörige_Gemeinde"},"district":{"key":"03358","name":"Heidekreis","type":"Landkreis"},"federalState":{"key":"03","name":"Niedersachsen"}},{"name":"Maschstr.","postalCode":"29690","locality":"Schwarmstedt","municipality":{"key":"03358020","name":"Schwarmstedt","type":"Kreisangehörige_Gemeinde"},"district":{"key":"03358","name":"Heidekreis","type":"Landkreis"},"federalState":{"key":"03","name":"Niedersachsen"}},{"name":"Meisenweg","postalCode":"25355","locality":"Barmstedt","municipality":{"key":"01056002","name":"Barmstedt, Stadt","type":"Stadt"},"district":{"key":"01056","name":"Pinneberg","type":"Kreis"},"federalState":{"key":"01","name":"Schleswig-Holstein"}},{"name":"Meisenweg","postalCode":"29690","locality":"Schwarmstedt","municipality":{"key":"03358020","name":"Schwarmstedt","type":"Kreisangehörige_Gemeinde"},"district":{"key":"03358","name":"Heidekreis","type":"Landkreis"},"federalState":{"key":"03","name":"Niedersachsen"}},{"name":"Meßhorn","postalCode":"25355","locality":"Barmstedt","municipality":{"key":"01056002","name":"Barmstedt, Stadt","type":"Stadt"},"district":{"key":"01056","name":"Pinneberg","type":"Kreis"},"federalState":{"key":"01","name":"Schleswig-Holstein"}},{"name":"Middelfartallee","postalCode":"25355","locality":"Barmstedt","municipality":{"key":"01056002","name":"Barmstedt, Stadt","type":"Stadt"},"district":{"key":"01056","name":"Pinneberg","type":"Kreis"},"federalState":{"key":"01","name":"Schleswig-Holstein"}},{"name":"Mittelweg","postalCode":"25355","locality":"Barmstedt","municipality":{"key":"01056002","name":"Barmstedt, Stadt","type":"Stadt"},"district":{"key":"01056","name":"Pinneberg","type":"Kreis"},"federalState":{"key":"01","name":"Schleswig-Holstein"}},{"name":"Moltkestr.","postalCode":"25355","locality":"Barmstedt","municipality":{"key":"01056002","name":"Barmstedt, Stadt","type":"Stadt"},"district":{"key":"01056","name":"Pinneberg","type":"Kreis"},"federalState":{"key":"01","name":"Schleswig-Holstein"}},{"name":"Mönkeberg","postalCode":"29690","locality":"Schwarmstedt","municipality":{"key":"03358020","name":"Schwarmstedt","type":"Kreisangehörige_Gemeinde"},"district":{"key":"03358","name":"Heidekreis","type":"Landkreis"},"federalState":{"key":"03","name":"Niedersachsen"}},{"name":"Moordamm","postalCode":"27412","locality":"Tarmstedt","municipality":{"key":"03357047","name":"Tarmstedt","type":"Kreisangehörige_Gemeinde"},"district":{"key":"03357","name":"Rotenburg (Wümme)","type":"Landkreis"},"federalState":{"key":"03","name":"Niedersachsen"}},{"name":"Moorgartenweg","postalCode":"29690","locality":"Schwarmstedt","municipality":{"key":"03358020","name":"Schwarmstedt","type":"Kreisangehörige_Gemeinde"},"district":{"key":"03358","name":"Heidekreis","type":"Landkreis"},"federalState":{"key":"03","name":"Niedersachsen"}},{"name":"Moorstr.","postalCode":"29690","locality":"Schwarmstedt","municipality":{"key":"03358020","name":"Schwarmstedt","type":"Kreisangehörige_Gemeinde"},"district":{"key":"03358","name":"Heidekreis","type":"Landkreis"},"federalState":{"key":"03","name":"Niedersachsen"}},{"name":"Mühlenberg","postalCode":"24616","locality":"Armstedt","municipality":{"key":"01060003","name":"Armstedt","type":"Kreisangehörige_Gemeinde"},"district":{"key":"01060","name":"Segeberg","type":"Kreis"},"federalState":{"key":"01","name":"Schleswig-Holstein"}},{"name":"Mühlenberg","postalCode":"25355","locality":"Barmstedt","municipality":{"key":"01056002","name":"Barmstedt, Stadt","type":"Stadt"},"district":{"key":"01056","name":"Pinneberg","type":"Kreis"},"federalState":{"key":"01","name":"Schleswig-Holstein"}},{"name":"Mühlenstr.","postalCode":"25355","locality":"Barmstedt","municipality":{"key":"01056002","name":"Barmstedt, Stadt","type":"Stadt"},"district":{"key":"01056","name":"Pinneberg","type":"Kreis"},"federalState":{"key":"01","name":"Schleswig-Holstein"}},{"name":"Mühlenstr.","postalCode":"27412","locality":"Tarmstedt","municipality":{"key":"03357047","name":"Tarmstedt","type":"Kreisangehörige_Gemeinde"},"district":{"key":"03357","name":"Rotenburg (Wümme)","type":"Landkreis"},"federalState":{"key":"03","name":"Niedersachsen"}},{"name":"Mühlenweg","postalCode":"25355","locality":"Barmstedt","municipality":{"key":"01056002","name":"Barmstedt, Stadt","type":"Stadt"},"district":{"key":"01056","name":"Pinneberg","type":"Kreis"},"federalState":{"key":"01","name":"Schleswig-Holstein"}},{"name":"Mühlenweg","postalCode":"29690","locality":"Schwarmstedt","municipality":{"key":"03358020","name":"Schwarmstedt","type":"Kreisangehörige_Gemeinde"},"district":{"key":"03358","name":"Heidekreis","type":"Landkreis"},"federalState":{"key":"03","name":"Niedersachsen"}},{"name":"Nappenhorn","postalCode":"25355","locality":"Barmstedt","municipality":{"key":"01056002","name":"Barmstedt, Stadt","type":"Stadt"},"district":{"key":"01056","name":"Pinneberg","type":"Kreis"},"federalState":{"key":"01","name":"Schleswig-Holstein"}},{"name":"Nappenhorner Koppel","postalCode":"25355","locality":"Barmstedt","municipality":{"key":"01056002","name":"Barmstedt, Stadt","type":"Stadt"},"district":{"key":"01056","name":"Pinneberg","type":"Kreis"},"federalState":{"key":"01","name":"Schleswig-Holstein"}},{"name":"Nelkenweg","postalCode":"25355","locality":"Barmstedt","municipality":{"key":"01056002","name":"Barmstedt, Stadt","type":"Stadt"},"district":{"key":"01056","name":"Pinneberg","type":"Kreis"},"federalState":{"key":"01","name":"Schleswig-Holstein"}},{"name":"Nelkenweg","postalCode":"29690","locality":"Schwarmstedt","municipality":{"key":"03358020","name":"Schwarmstedt","type":"Kreisangehörige_Gemeinde"},"district":{"key":"03358","name":"Heidekreis","type":"Landkreis"},"federalState":{"key":"03","name":"Niedersachsen"}},{"name":"Neue Str.","postalCode":"25355","locality":"Barmstedt","municipality":{"key":"01056002","name":"Barmstedt, Stadt","type":"Stadt"},"district":{"key":"01056","name":"Pinneberg","type":"Kreis"},"federalState":{"key":"01","name":"Schleswig-Holstein"}},{"name":"Neustädter Str.","postalCode":"29690","locality":"Schwarmstedt","municipality":{"key":"03358020","name":"Schwarmstedt","type":"Kreisangehörige_Gemeinde"},"district":{"key":"03358","name":"Heidekreis","type":"Landkreis"},"federalState":{"key":"03","name":"Niedersachsen"}},{"name":"Norderstr.","postalCode":"25355","locality":"Barmstedt","municipality":{"key":"01056002","name":"Barmstedt, Stadt","type":"Stadt"},"district":{"key":"01056","name":"Pinneberg","type":"Kreis"},"federalState":{"key":"01","name":"Schleswig-Holstein"}},{"name":"Oberhäuser Weg","postalCode":"29690","locality":"Schwarmstedt","municipality":{"key":"03358020","name":"Schwarmstedt","type":"Kreisangehörige_Gemeinde"},"district":{"key":"03358","name":"Heidekreis","type":"Landkreis"},"federalState":{"key":"03","name":"Niedersachsen"}},{"name":"Obern Daal","postalCode":"29690","locality":"Schwarmstedt","municipality":{"key":"03358020","name":"Schwarmstedt","type":"Kreisangehörige_Gemeinde"},"district":{"key":"03358","name":"Heidekreis","type":"Landkreis"},"federalState":{"key":"03","name":"Niedersachsen"}},{"name":"Ostdeutscher Weg","postalCode":"29690","locality":"Schwarmstedt","municipality":{"key":"03358020","name":"Schwarmstedt","type":"Kreisangehörige_Gemeinde"},"district":{"key":"03358","name":"Heidekreis","type":"Landkreis"},"federalState":{"key":"03","name":"Niedersachsen"}},{"name":"Ostentor","postalCode":"27412","locality":"Tarmstedt","municipality":{"key":"03357047","name":"Tarmstedt","type":"Kreisangehörige_Gemeinde"},"district":{"key":"03357","name":"Rotenburg (Wümme)","type":"Landkreis"},"federalState":{"key":"03","name":"Niedersachsen"}},{"name":"Osterfeldstr.","postalCode":"27412","locality":"Tarmstedt","municipality":{"key":"03357047","name":"Tarmstedt","type":"Kreisangehörige_Gemeinde"},"district":{"key":"03357","name":"Rotenburg (Wümme)","type":"Landkreis"},"federalState":{"key":"03","name":"Niedersachsen"}},{"name":"Osteweg","postalCode":"27412","locality":"Tarmstedt","municipality":{"key":"03357047","name":"Tarmstedt","type":"Kreisangehörige_Gemeinde"},"district":{"key":"03357","name":"Rotenburg (Wümme)","type":"Landkreis"},"federalState":{"key":"03","name":"Niedersachsen"}},{"name":"Parkstr.","postalCode":"27412","locality":"Tarmstedt","municipality":{"key":"03357047","name":"Tarmstedt","type":"Kreisangehörige_Gemeinde"},"district":{"key":"03357","name":"Rotenburg (Wümme)","type":"Landkreis"},"federalState":{"key":"03","name":"Niedersachsen"}},{"name":"Parkweg","postalCode":"29690","locality":"Schwarmstedt","municipality":{"key":"03358020","name":"Schwarmstedt","type":"Kreisangehörige_Gemeinde"},"district":{"key":"03358","name":"Heidekreis","type":"Landkreis"},"federalState":{"key":"03","name":"Niedersachsen"}},{"name":"Pinneberger Landstr.","postalCode":"25355","locality":"Barmstedt","municipality":{"key":"01056002","name":"Barmstedt, Stadt","type":"Stadt"},"district":{"key":"01056","name":"Pinneberg","type":"Kreis"},"federalState":{"key":"01","name":"Schleswig-Holstein"}},{"name":"Poststr.","postalCode":"27412","locality":"Tarmstedt","municipality":{"key":"03357047","name":"Tarmstedt","type":"Kreisangehörige_Gemeinde"},"district":{"key":"03357","name":"Rotenburg (Wümme)","type":"Landkreis"},"federalState":{"key":"03","name":"Niedersachsen"}},{"name":"Quittenweg","postalCode":"29690","locality":"Schwarmstedt","municipality":{"key":"03358020","name":"Schwarmstedt","type":"Kreisangehörige_Gemeinde"},"district":{"key":"03358","name":"Heidekreis","type":"Landkreis"},"federalState":{"key":"03","name":"Niedersachsen"}},{"name":"Redderlohe","postalCode":"25355","locality":"Barmstedt","municipality":{"key":"01056002","name":"Barmstedt, Stadt","type":"Stadt"},"district":{"key":"01056","name":"Pinneberg","type":"Kreis"},"federalState":{"key":"01","name":"Schleswig-Holstein"}},{"name":"Rehhöfer Str.","postalCode":"27412","locality":"Tarmstedt","municipality":{"key":"03357047","name":"Tarmstedt","type":"Kreisangehörige_Gemeinde"},"district":{"key":"03357","name":"Rotenburg (Wümme)","type":"Landkreis"},"federalState":{"key":"03","name":"Niedersachsen"}},{"name":"Rehkamp","postalCode":"29690","locality":"Schwarmstedt","municipality":{"key":"03358020","name":"Schwarmstedt","type":"Kreisangehörige_Gemeinde"},"district":{"key":"03358","name":"Heidekreis","type":"Landkreis"},"federalState":{"key":"03","name":"Niedersachsen"}},{"name":"Reichenstr.","postalCode":"25355","locality":"Barmstedt","municipality":{"key":"01056002","name":"Barmstedt, Stadt","type":"Stadt"},"district":{"key":"01056","name":"Pinneberg","type":"Kreis"},"federalState":{"key":"01","name":"Schleswig-Holstein"}},{"name":"Richtweg","postalCode":"27412","locality":"Tarmstedt","municipality":{"key":"03357047","name":"Tarmstedt","type":"Kreisangehörige_Gemeinde"},"district":{"key":"03357","name":"Rotenburg (Wümme)","type":"Landkreis"},"federalState":{"key":"03","name":"Niedersachsen"}},{"name":"Roissy-En-Brie-Platz","postalCode":"25355","locality":"Barmstedt","municipality":{"key":"01056002","name":"Barmstedt, Stadt","type":"Stadt"},"district":{"key":"01056","name":"Pinneberg","type":"Kreis"},"federalState":{"key":"01","name":"Schleswig-Holstein"}},{"name":"Rosenstr.","postalCode":"29690","locality":"Schwarmstedt","municipality":{"key":"03358020","name":"Schwarmstedt","type":"Kreisangehörige_Gemeinde"},"district":{"key":"03358","name":"Heidekreis","type":"Landkreis"},"federalState":{"key":"03","name":"Niedersachsen"}},{"name":"Rosenweg","postalCode":"25355","locality":"Barmstedt","municipality":{"key":"01056002","name":"Barmstedt, Stadt","type":"Stadt"},"district":{"key":"01056","name":"Pinneberg","type":"Kreis"},"federalState":{"key":"01","name":"Schleswig-Holstein"}},{"name":"Röthweg","postalCode":"29690","locality":"Schwarmstedt","municipality":{"key":"03358020","name":"Schwarmstedt","type":"Kreisangehörige_Gemeinde"},"district":{"key":"03358","name":"Heidekreis","type":"Landkreis"},"federalState":{"key":"03","name":"Niedersachsen"}},{"name":"Rudolf-Kinau-Weg","postalCode":"25355","locality":"Barmstedt","municipality":{"key":"01056002","name":"Barmstedt, Stadt","type":"Stadt"},"district":{"key":"01056","name":"Pinneberg","type":"Kreis"},"federalState":{"key":"01","name":"Schleswig-Holstein"}},{"name":"Sandberg","postalCode":"25355","locality":"Barmstedt","municipality":{"key":"01056002","name":"Barmstedt, Stadt","type":"Stadt"},"district":{"key":"01056","name":"Pinneberg","type":"Kreis"},"federalState":{"key":"01","name":"Schleswig-Holstein"}},{"name":"Schienenweg","postalCode":"29690","locality":"Schwarmstedt","municipality":{"key":"03358020","name":"Schwarmstedt","type":"Kreisangehörige_Gemeinde"},"district":{"key":"03358","name":"Heidekreis","type":"Landkreis"},"federalState":{"key":"03","name":"Niedersachsen"}},{"name":"Schillerstr.","postalCode":"25355","locality":"Barmstedt","municipality":{"key":"01056002","name":"Barmstedt, Stadt","type":"Stadt"},"district":{"key":"01056","name":"Pinneberg","type":"Kreis"},"federalState":{"key":"01","name":"Schleswig-Holstein"}},{"name":"Schlickumstr.","postalCode":"25355","locality":"Barmstedt","municipality":{"key":"01056002","name":"Barmstedt, Stadt","type":"Stadt"},"district":{"key":"01056","name":"Pinneberg","type":"Kreis"},"federalState":{"key":"01","name":"Schleswig-Holstein"}},{"name":"Schmiedestr.","postalCode":"29690","locality":"Schwarmstedt","municipality":{"key":"03358020","name":"Schwarmstedt","type":"Kreisangehörige_Gemeinde"},"district":{"key":"03358","name":"Heidekreis","type":"Landkreis"},"federalState":{"key":"03","name":"Niedersachsen"}},{"name":"Schnakentwiete","postalCode":"25355","locality":"Barmstedt","municipality":{"key":"01056002","name":"Barmstedt, Stadt","type":"Stadt"},"district":{"key":"01056","name":"Pinneberg","type":"Kreis"},"federalState":{"key":"01","name":"Schleswig-Holstein"}},{"name":"Schulstr.","postalCode":"24616","locality":"Armstedt","municipality":{"key":"01060003","name":"Armstedt","type":"Kreisangehörige_Gemeinde"},"district":{"key":"01060","name":"Segeberg","type":"Kreis"},"federalState":{"key":"01","name":"Schleswig-Holstein"}},{"name":"Schulstr.","postalCode":"25355","locality":"Barmstedt","municipality":{"key":"01056002","name":"Barmstedt, Stadt","type":"Stadt"},"district":{"key":"01056","name":"Pinneberg","type":"Kreis"},"federalState":{"key":"01","name":"Schleswig-Holstein"}},{"name":"Schulstr.","postalCode":"27412","locality":"Tarmstedt","municipality":{"key":"03357047","name":"Tarmstedt","type":"Kreisangehörige_Gemeinde"},"district":{"key":"03357","name":"Rotenburg (Wümme)","type":"Landkreis"},"federalState":{"key":"03","name":"Niedersachsen"}},{"name":"Schulstr.","postalCode":"29690","locality":"Schwarmstedt","municipality":{"key":"03358020","name":"Schwarmstedt","type":"Kreisangehörige_Gemeinde"},"district":{"key":"03358","name":"Heidekreis","type":"Landkreis"},"federalState":{"key":"03","name":"Niedersachsen"}},{"name":"Schusterring","postalCode":"25355","locality":"Barmstedt","municipality":{"key":"01056002","name":"Barmstedt, Stadt","type":"Stadt"},"district":{"key":"01056","name":"Pinneberg","type":"Kreis"},"federalState":{"key":"01","name":"Schleswig-Holstein"}},{"name":"Schwalbenweg","postalCode":"25355","locality":"Barmstedt","municipality":{"key":"01056002","name":"Barmstedt, Stadt","type":"Stadt"},"district":{"key":"01056","name":"Pinneberg","type":"Kreis"},"federalState":{"key":"01","name":"Schleswig-Holstein"}},{"name":"Schwarzer Weg","postalCode":"29690","locality":"Schwarmstedt","municipality":{"key":"03358020","name":"Schwarmstedt","type":"Kreisangehörige_Gemeinde"},"district":{"key":"03358","name":"Heidekreis","type":"Landkreis"},"federalState":{"key":"03","name":"Niedersachsen"}},{"name":"Seegenhöfe","postalCode":"27412","locality":"Tarmstedt","municipality":{"key":"03357047","name":"Tarmstedt","type":"Kreisangehörige_Gemeinde"},"district":{"key":"03357","name":"Rotenburg (Wümme)","type":"Landkreis"},"federalState":{"key":"03","name":"Niedersachsen"}},{"name":"Seepark","postalCode":"25355","locality":"Barmstedt","municipality":{"key":"01056002","name":"Barmstedt, Stadt","type":"Stadt"},"district":{"key":"01056","name":"Pinneberg","type":"Kreis"},"federalState":{"key":"01","name":"Schleswig-Holstein"}},{"name":"Seestr.","postalCode":"25355","locality":"Barmstedt","municipality":{"key":"01056002","name":"Barmstedt, Stadt","type":"Stadt"},"district":{"key":"01056","name":"Pinneberg","type":"Kreis"},"federalState":{"key":"01","name":"Schleswig-Holstein"}},{"name":"Sielberg","postalCode":"25355","locality":"Barmstedt","municipality":{"key":"01056002","name":"Barmstedt, Stadt","type":"Stadt"},"district":{"key":"01056","name":"Pinneberg","type":"Kreis"},"federalState":{"key":"01","name":"Schleswig-Holstein"}},{"name":"Spitzerfurth","postalCode":"25355","locality":"Barmstedt","municipality":{"key":"01056002","name":"Barmstedt, Stadt","type":"Stadt"},"district":{"key":"01056","name":"Pinneberg","type":"Kreis"},"federalState":{"key":"01","name":"Schleswig-Holstein"}},{"name":"Steindamm","postalCode":"29690","locality":"Schwarmstedt","municipality":{"key":"03358020","name":"Schwarmstedt","type":"Kreisangehörige_Gemeinde"},"district":{"key":"03358","name":"Heidekreis","type":"Landkreis"},"federalState":{"key":"03","name":"Niedersachsen"}},{"name":"Steinkampsfeld","postalCode":"27412","locality":"Tarmstedt","municipality":{"key":"03357047","name":"Tarmstedt","type":"Kreisangehörige_Gemeinde"},"district":{"key":"03357","name":"Rotenburg (Wümme)","type":"Landkreis"},"federalState":{"key":"03","name":"Niedersachsen"}},{"name":"Steinkampsweg","postalCode":"27412","locality":"Tarmstedt","municipality":{"key":"03357047","name":"Tarmstedt","type":"Kreisangehörige_Gemeinde"},"district":{"key":"03357","name":"Rotenburg (Wümme)","type":"Landkreis"},"federalState":{"key":"03","name":"Niedersachsen"}},{"name":"Steinmoorweg","postalCode":"25355","locality":"Barmstedt","municipality":{"key":"01056002","name":"Barmstedt, Stadt","type":"Stadt"},"district":{"key":"01056","name":"Pinneberg","type":"Kreis"},"federalState":{"key":"01","name":"Schleswig-Holstein"}},{"name":"Stettiner Str.","postalCode":"25355","locality":"Barmstedt","municipality":{"key":"01056002","name":"Barmstedt, Stadt","type":"Stadt"},"district":{"key":"01056","name":"Pinneberg","type":"Kreis"},"federalState":{"key":"01","name":"Schleswig-Holstein"}},{"name":"Stettiner Str.","postalCode":"29690","locality":"Schwarmstedt","municipality":{"key":"03358020","name":"Schwarmstedt","type":"Kreisangehörige_Gemeinde"},"district":{"key":"03358","name":"Heidekreis","type":"Landkreis"},"federalState":{"key":"03","name":"Niedersachsen"}},{"name":"Stöckener Weg","postalCode":"29690","locality":"Schwarmstedt","municipality":{"key":"03358020","name":"Schwarmstedt","type":"Kreisangehörige_Gemeinde"},"district":{"key":"03358","name":"Heidekreis","type":"Landkreis"},"federalState":{"key":"03","name":"Niedersachsen"}},{"name":"Stuhmer Str.","postalCode":"27412","locality":"Tarmstedt","municipality":{"key":"03357047","name":"Tarmstedt","type":"Kreisangehörige_Gemeinde"},"district":{"key":"03357","name":"Rotenburg (Wümme)","type":"Landkreis"},"federalState":{"key":"03","name":"Niedersachsen"}},{"name":"Tannhof","postalCode":"29690","locality":"Schwarmstedt","municipality":{"key":"03358020","name":"Schwarmstedt","type":"Kreisangehörige_Gemeinde"},"district":{"key":"03358","name":"Heidekreis","type":"Landkreis"},"federalState":{"key":"03","name":"Niedersachsen"}},{"name":"Theodor-Storm-Str.","postalCode":"25355","locality":"Barmstedt","municipality":{"key":"01056002","name":"Barmstedt, Stadt","type":"Stadt"},"district":{"key":"01056","name":"Pinneberg","type":"Kreis"},"federalState":{"key":"01","name":"Schleswig-Holstein"}},{"name":"Treuburger Str.","postalCode":"29690","locality":"Schwarmstedt","municipality":{"key":"03358020","name":"Schwarmstedt","type":"Kreisangehörige_Gemeinde"},"district":{"key":"03358","name":"Heidekreis","type":"Landkreis"},"federalState":{"key":"03","name":"Niedersachsen"}},{"name":"Tulpenstr.","postalCode":"29690","locality":"Schwarmstedt","municipality":{"key":"03358020","name":"Schwarmstedt","type":"Kreisangehörige_Gemeinde"},"district":{"key":"03358","name":"Heidekreis","type":"Landkreis"},"federalState":{"key":"03","name":"Niedersachsen"}},{"name":"Unter den Eichen","postalCode":"29690","locality":"Schwarmstedt","municipality":{"key":"03358020","name":"Schwarmstedt","type":"Kreisangehörige_Gemeinde"},"district":{"key":"03358","name":"Heidekreis","type":"Landkreis"},"federalState":{"key":"03","name":"Niedersachsen"}},{"name":"Untern Daal","postalCode":"29690","locality":"Schwarmstedt","municipality":{"key":"03358020","name":"Schwarmstedt","type":"Kreisangehörige_Gemeinde"},"district":{"key":"03358","name":"Heidekreis","type":"Landkreis"},"federalState":{"key":"03","name":"Niedersachsen"}},{"name":"Vor dem Buchholze","postalCode":"29690","locality":"Schwarmstedt","municipality":{"key":"03358020","name":"Schwarmstedt","type":"Kreisangehörige_Gemeinde"},"district":{"key":"03358","name":"Heidekreis","type":"Landkreis"},"federalState":{"key":"03","name":"Niedersachsen"}},{"name":"Vor dem Felde","postalCode":"29690","locality":"Schwarmstedt","municipality":{"key":"03358020","name":"Schwarmstedt","type":"Kreisangehörige_Gemeinde"},"district":{"key":"03358","name":"Heidekreis","type":"Landkreis"},"federalState":{"key":"03","name":"Niedersachsen"}},{"name":"Vor dem Lohholze","postalCode":"29690","locality":"Schwarmstedt","municipality":{"key":"03358020","name":"Schwarmstedt","type":"Kreisangehörige_Gemeinde"},"district":{"key":"03358","name":"Heidekreis","type":"Landkreis"},"federalState":{"key":"03","name":"Niedersachsen"}},{"name":"Vor den Höfen","postalCode":"29690","locality":"Schwarmstedt","municipality":{"key":"03358020","name":"Schwarmstedt","type":"Kreisangehörige_Gemeinde"},"district":{"key":"03358","name":"Heidekreis","type":"Landkreis"},"federalState":{"key":"03","name":"Niedersachsen"}},{"name":"Voßlocher Chaussee","postalCode":"25355","locality":"Barmstedt","municipality":{"key":"01056002","name":"Barmstedt, Stadt","type":"Stadt"},"district":{"key":"01056","name":"Pinneberg","type":"Kreis"},"federalState":{"key":"01","name":"Schleswig-Holstein"}},{"name":"Waldstr.","postalCode":"25355","locality":"Barmstedt","municipality":{"key":"01056002","name":"Barmstedt, Stadt","type":"Stadt"},"district":{"key":"01056","name":"Pinneberg","type":"Kreis"},"federalState":{"key":"01","name":"Schleswig-Holstein"}},{"name":"Waldstr.","postalCode":"29690","locality":"Schwarmstedt","municipality":{"key":"03358020","name":"Schwarmstedt","type":"Kreisangehörige_Gemeinde"},"district":{"key":"03358","name":"Heidekreis","type":"Landkreis"},"federalState":{"key":"03","name":"Niedersachsen"}},{"name":"Weg am Spitzerfurth","postalCode":"25355","locality":"Barmstedt","municipality":{"key":"01056002","name":"Barmstedt, Stadt","type":"Stadt"},"district":{"key":"01056","name":"Pinneberg","type":"Kreis"},"federalState":{"key":"01","name":"Schleswig-Holstein"}},{"name":"Weidedamm","postalCode":"27412","locality":"Tarmstedt","municipality":{"key":"03357047","name":"Tarmstedt","type":"Kreisangehörige_Gemeinde"},"district":{"key":"03357","name":"Rotenburg (Wümme)","type":"Landkreis"},"federalState":{"key":"03","name":"Niedersachsen"}},{"name":"Weidkamp","postalCode":"25355","locality":"Barmstedt","municipality":{"key":"01056002","name":"Barmstedt, Stadt","type":"Stadt"},"district":{"key":"01056","name":"Pinneberg","type":"Kreis"},"federalState":{"key":"01","name":"Schleswig-Holstein"}},{"name":"Weißenberger Str.","postalCode":"27412","locality":"Tarmstedt","municipality":{"key":"03357047","name":"Tarmstedt","type":"Kreisangehörige_Gemeinde"},"district":{"key":"03357","name":"Rotenburg (Wümme)","type":"Landkreis"},"federalState":{"key":"03","name":"Niedersachsen"}},{"name":"Werkstr.","postalCode":"29690","locality":"Schwarmstedt","municipality":{"key":"03358020","name":"Schwarmstedt","type":"Kreisangehörige_Gemeinde"},"district":{"key":"03358","name":"Heidekreis","type":"Landkreis"},"federalState":{"key":"03","name":"Niedersachsen"}},{"name":"Wiesengrund","postalCode":"25355","locality":"Barmstedt","municipality":{"key":"01056002","name":"Barmstedt, Stadt","type":"Stadt"},"district":{"key":"01056","name":"Pinneberg","type":"Kreis"},"federalState":{"key":"01","name":"Schleswig-Holstein"}},{"name":"Wiesengrund","postalCode":"27412","locality":"Tarmstedt","municipality":{"key":"03357047","name":"Tarmstedt","type":"Kreisangehörige_Gemeinde"},"district":{"key":"03357","name":"Rotenburg (Wümme)","type":"Landkreis"},"federalState":{"key":"03","name":"Niedersachsen"}},{"name":"Wiesenweg","postalCode":"27412","locality":"Tarmstedt","municipality":{"key":"03357047","name":"Tarmstedt","type":"Kreisangehörige_Gemeinde"},"district":{"key":"03357","name":"Rotenburg (Wümme)","type":"Landkreis"},"federalState":{"key":"03","name":"Niedersachsen"}},{"name":"Wiesenweg","postalCode":"29690","locality":"Schwarmstedt","municipality":{"key":"03358020","name":"Schwarmstedt","type":"Kreisangehörige_Gemeinde"},"district":{"key":"03358","name":"Heidekreis","type":"Landkreis"},"federalState":{"key":"03","name":"Niedersachsen"}},{"name":"Wilhelm-Busch-Weg","postalCode":"25355","locality":"Barmstedt","municipality":{"key":"01056002","name":"Barmstedt, Stadt","type":"Stadt"},"district":{"key":"01056","name":"Pinneberg","type":"Kreis"},"federalState":{"key":"01","name":"Schleswig-Holstein"}},{"name":"Wilstedter Str.","postalCode":"27412","locality":"Tarmstedt","municipality":{"key":"03357047","name":"Tarmstedt","type":"Kreisangehörige_Gemeinde"},"district":{"key":"03357","name":"Rotenburg (Wümme)","type":"Landkreis"},"federalState":{"key":"03","name":"Niedersachsen"}},{"name":"Wümmeweg","postalCode":"27412","locality":"Tarmstedt","municipality":{"key":"03357047","name":"Tarmstedt","type":"Kreisangehörige_Gemeinde"},"district":{"key":"03357","name":"Rotenburg (Wümme)","type":"Landkreis"},"federalState":{"key":"03","name":"Niedersachsen"}},{"name":"Zevener Landstr.","postalCode":"27412","locality":"Tarmstedt","municipality":{"key":"03357047","name":"Tarmstedt","type":"Kreisangehörige_Gemeinde"},"district":{"key":"03357","name":"Rotenburg (Wümme)","type":"Landkreis"},"federalState":{"key":"03","name":"Niedersachsen"}},{"name":"Ziegeleiweg","postalCode":"29690","locality":"Schwarmstedt","municipality":{"key":"03358020","name":"Schwarmstedt","type":"Kreisangehörige_Gemeinde"},"district":{"key":"03358","name":"Heidekreis","type":"Landkreis"},"federalState":{"key":"03","name":"Niedersachsen"}},{"name":"Zum Alten Felde","postalCode":"27412","locality":"Tarmstedt","municipality":{"key":"03357047","name":"Tarmstedt","type":"Kreisangehörige_Gemeinde"},"district":{"key":"03357","name":"Rotenburg (Wümme)","type":"Landkreis"},"federalState":{"key":"03","name":"Niedersachsen"}},{"name":"Zum Eichenbruche","postalCode":"27412","locality":"Tarmstedt","municipality":{"key":"03357047","name":"Tarmstedt","type":"Kreisangehörige_Gemeinde"},"district":{"key":"03357","name":"Rotenburg (Wümme)","type":"Landkreis"},"federalState":{"key":"03","name":"Niedersachsen"}},{"name":"Zum Eichenkuller","postalCode":"27412","locality":"Tarmstedt","municipality":{"key":"03357047","name":"Tarmstedt","type":"Kreisangehörige_Gemeinde"},"district":{"key":"03357","name":"Rotenburg (Wümme)","type":"Landkreis"},"federalState":{"key":"03","name":"Niedersachsen"}},{"name":"Zum Kiessee","postalCode":"29690","locality":"Schwarmstedt","municipality":{"key":"03358020","name":"Schwarmstedt","type":"Kreisangehörige_Gemeinde"},"district":{"key":"03358","name":"Heidekreis","type":"Landkreis"},"federalState":{"key":"03","name":"Niedersachsen"}},{"name":"Zum Steenshoop","postalCode":"27412","locality":"Tarmstedt","municipality":{"key":"03357047","name":"Tarmstedt","type":"Kreisangehörige_Gemeinde"},"district":{"key":"03357","name":"Rotenburg (Wümme)","type":"Landkreis"},"federalState":{"key":"03","name":"Niedersachsen"}},]